<?xml version="1.0" encoding="UTF-8"?>
<<<<<<< HEAD
<osm version="0.6" generator="osmapis">
	<node lat="58.42255820774066" lon="6.482754225377545" id="-2">
		<tag k="name" v="Monevatnet" />
		<tag k="natural" v="water" />
		<tag k="ssr:stedsnr" v="169" />
	</node>
	<node lat="58.34213610750888" lon="6.2232194443004465" id="-3">
		<tag k="name" v="Nåvatnet" />
		<tag k="natural" v="water" />
		<tag k="ssr:stedsnr" v="200" />
	</node>
	<node lat="58.32451899357848" lon="6.327047231727825" id="-5">
		<tag k="name" v="Buhomtjørna" />
=======
<osm generator="osmapis" version="0.6">
	<node id="-14330" lat="58.3671569158" lon="6.16099516185">
		<tag k="name" v="Stemmetjørn" />
		<tag k="natural" v="water" />
		<tag k="ssr:stedsnr" v="949846" />
	</node>
	<node id="-13311" lat="58.2918861131" lon="6.43880278411">
		<tag k="name" v="Øyvika" />
		<tag k="natural" v="bay" />
		<tag k="ssr:stedsnr" v="270984" />
	</node>
	<node id="-14328" lat="58.3835472178" lon="6.18499444575">
		<tag k="name" v="Brenslebukta" />
		<tag k="natural" v="bay" />
		<tag k="ssr:stedsnr" v="846832" />
	</node>
	<node id="-14322" lat="58.3456434289" lon="6.44564332175">
		<tag k="name" v="Bløstjørnene" />
		<tag k="natural" v="water" />
		<tag k="ssr:stedsnr" v="938895" />
		<tag k="water" v="lake" />
	</node>
	<node id="-14321" lat="58.4133333314" lon="6.41707223023">
		<tag k="name" v="Øyno" />
		<tag k="natural" v="cape" />
		<tag k="ssr:stedsnr" v="938885" />
	</node>
	<node id="-14320" lat="58.3609055554" lon="6.38209999497">
		<tag k="name" v="Litla Asaltjørna" />
		<tag k="natural" v="water" />
		<tag k="ssr:stedsnr" v="938871" />
	</node>
	<node id="-14319" lat="58.3972000043" lon="6.42050555242">
		<tag k="name" v="Indra Tjødno" />
		<tag k="natural" v="water" />
		<tag k="ssr:stedsnr" v="938856" />
		<tag k="water" v="pond" />
	</node>
	<node id="-14317" lat="58.4119555527" lon="6.38074166895">
		<tag k="name" v="Klattatjørn" />
		<tag k="natural" v="water" />
		<tag k="ssr:stedsnr" v="938842" />
		<tag k="water" v="pond" />
	</node>
	<node id="-14314" lat="58.399750004" lon="6.38865278268">
		<tag k="name" v="Båsen" />
		<tag k="natural" v="bay" />
		<tag k="ssr:stedsnr" v="938830" />
	</node>
	<node id="-14310" lat="58.4025333368" lon="6.22214165804">
		<tag k="name" v="Fentjørn" />
		<tag k="natural" v="water" />
		<tag k="ssr:stedsnr" v="938429" />
	</node>
	<node id="-14298" lat="58.3931583366" lon="6.31720277114">
		<tag k="name" v="Hølen" />
		<tag k="place" v="locality" />
		<tag k="ssr:stedsnr" v="938263" />
	</node>
	<node id="-14296" lat="58.3333777785" lon="6.45979443753">
		<tag k="name" v="Yfustjørna" />
>>>>>>> e1d4bc35ff8a6074a6f2e91616a996b547c36f15
		<tag k="natural" v="water" />
		<tag k="ssr:stedsnr" v="254" />
	</node>
<<<<<<< HEAD
	<node lat="58.39777499853337" lon="6.148399995776393" id="-9">
		<tag k="name" v="Raunlivatnet" />
		<tag k="natural" v="water" />
		<tag k="ssr:stedsnr" v="999" />
	</node>
	<node lat="58.40028055512363" lon="6.282686113734674" id="-20">
		<tag k="name" v="Skålnes" />
		<tag k="natural" v="cape" />
		<tag k="ssr:stedsnr" v="27220" />
	</node>
	<node lat="58.42156944692462" lon="6.241819447467103" id="-30">
		<tag k="name" v="Kreglingholmen" />
		<tag k="place" v="islet" />
		<tag k="ssr:stedsnr" v="27411" />
	</node>
	<node lat="58.41065875451304" lon="6.229678493329851" id="-32">
		<tag k="name" v="Ålkjertjørn" />
=======
	<node id="-14295" lat="58.3314861069" lon="6.45390555846">
		<tag k="name" v="Olaslått-tjørna" />
		<tag k="natural" v="water" />
		<tag k="ssr:stedsnr" v="937996" />
	</node>
	<node id="-14294" lat="58.293111115" lon="6.43736667319">
		<tag k="name" v="Kilen" />
		<tag k="ssr:stedsnr" v="937979" />
		<tag k="waterway" v="river" />
	</node>
	<node id="-14292" lat="58.3097916625" lon="6.46218333622">
		<tag k="name" v="Urdalstjørna" />
		<tag k="natural" v="water" />
		<tag k="ssr:stedsnr" v="937963" />
	</node>
	<node id="-14291" lat="58.3113135561" lon="6.4693294495">
		<tag k="name" v="Kolebergtjørna" />
		<tag k="natural" v="water" />
		<tag k="ssr:stedsnr" v="937962" />
	</node>
	<node id="-14290" lat="58.3099972194" lon="6.38641944537">
		<tag k="name" v="Måketjørn" />
>>>>>>> e1d4bc35ff8a6074a6f2e91616a996b547c36f15
		<tag k="natural" v="water" />
		<tag k="ssr:stedsnr" v="27419" />
	</node>
<<<<<<< HEAD
	<node lat="58.43402222363943" lon="6.228066663619467" id="-45">
		<tag k="name" v="Flåtjørna" />
=======
	<node id="-14285" lat="58.3587083369" lon="6.49461943872">
		<tag k="name" v="Slorpetjørna" />
>>>>>>> e1d4bc35ff8a6074a6f2e91616a996b547c36f15
		<tag k="natural" v="water" />
		<tag k="ssr:stedsnr" v="27478" />
	</node>
<<<<<<< HEAD
	<node lat="58.4450000043336" lon="6.257169439681654" id="-46">
		<tag k="name" v="Røyndalsbukta" />
		<tag k="natural" v="bay" />
		<tag k="ssr:stedsnr" v="27480" />
	</node>
	<node lat="58.45103333611854" lon="6.256105551629604" id="-48">
		<tag k="name" v="Åkerøya" />
=======
	<node id="-14284" lat="58.4560333373" lon="6.44134999838">
		<tag k="name" v="Homma-åna" />
		<tag k="ssr:stedsnr" v="937696" />
		<tag k="waterway" v="river" />
	</node>
	<node id="-14278" lat="58.450847226" lon="6.44902778387">
		<tag k="name" v="Øyno" />
>>>>>>> e1d4bc35ff8a6074a6f2e91616a996b547c36f15
		<tag k="place" v="islet" />
		<tag k="ssr:stedsnr" v="27494" />
	</node>
<<<<<<< HEAD
	<node lat="58.38243611299906" lon="6.472824994879167" id="-54">
		<tag k="name" v="Bjørkedalstjørna" />
		<tag k="natural" v="water" />
		<tag k="ssr:stedsnr" v="27904" />
	</node>
	<node lat="58.35645982283224" lon="6.132498888987729" id="-61">
		<tag k="name" v="Tvitjørn" />
=======
	<node id="-14276" lat="58.393894446" lon="6.49701388298">
		<tag k="name" v="Slorpepollen" />
		<tag k="natural" v="water" />
		<tag k="ssr:stedsnr" v="937710" />
	</node>
	<node id="-14270" lat="58.3192749985" lon="6.28337500732">
		<tag k="name" v="Grasholmen" />
		<tag k="place" v="islet" />
		<tag k="ssr:stedsnr" v="937460" />
	</node>
	<node id="-14269" lat="58.3313111071" lon="6.33736388759">
		<tag k="name" v="Øvra Aravatnet" />
>>>>>>> e1d4bc35ff8a6074a6f2e91616a996b547c36f15
		<tag k="natural" v="water" />
		<tag k="ssr:stedsnr" v="38814" />
	</node>
<<<<<<< HEAD
	<node lat="58.348977780978785" lon="6.37098889174996" id="-84">
		<tag k="name" v="Ambodtjørna" />
		<tag k="natural" v="water" />
		<tag k="ssr:stedsnr" v="61197" />
	</node>
	<node lat="58.370694440381804" lon="6.391550004532396" id="-89">
		<tag k="name" v="Ytra Ronavatnet" />
=======
	<node id="-14264" lat="58.2984611103" lon="6.40855277884">
		<tag k="name" v="Åltjørna" />
		<tag k="natural" v="water" />
		<tag k="ssr:stedsnr" v="937072" />
	</node>
	<node id="-14263" lat="58.296541668" lon="6.39373056162">
		<tag k="name" v="Sundet" />
		<tag k="natural" v="strait" />
		<tag k="ssr:stedsnr" v="937068" />
	</node>
	<node id="-14261" lat="58.2875083362" lon="6.41879722135">
		<tag k="name" v="Heimra Skarsteinshomma" />
		<tag k="natural" v="cape" />
		<tag k="ssr:stedsnr" v="937045" />
	</node>
	<node id="-14258" lat="58.3069916672" lon="6.46720832888">
		<tag k="name" v="Piggsteintjørna" />
>>>>>>> e1d4bc35ff8a6074a6f2e91616a996b547c36f15
		<tag k="natural" v="water" />
		<tag k="ssr:stedsnr" v="243149" />
	</node>
<<<<<<< HEAD
	<node lat="58.380946418194654" lon="6.370071618225622" id="-90">
		<tag k="name" v="Botnavatnet" />
		<tag k="natural" v="water" />
		<tag k="ssr:stedsnr" v="243151" />
		<tag k="water" v="lake" />
	</node>
	<node lat="58.35005602640134" lon="6.4855058163045385" id="-93">
		<tag k="name" v="Heptelitjørna" />
=======
	<node id="-14257" lat="58.3076527786" lon="6.45498888697">
		<tag k="name" v="Djubtjørn" />
		<tag k="natural" v="water" />
		<tag k="ssr:stedsnr" v="816968" />
	</node>
	<node id="-14254" lat="58.3709777766" lon="6.46000555369">
		<tag k="name" v="Neset" />
		<tag k="natural" v="cape" />
		<tag k="ssr:stedsnr" v="816908" />
	</node>
	<node id="-14250" lat="58.2956083309" lon="6.37446110433">
		<tag k="name" v="Fladbrødtjørna" />
>>>>>>> e1d4bc35ff8a6074a6f2e91616a996b547c36f15
		<tag k="natural" v="water" />
		<tag k="ssr:stedsnr" v="243190" />
	</node>
<<<<<<< HEAD
	<node lat="58.310547224562185" lon="6.359988886142269" id="-96">
		<tag k="name" v="Torrisvatnet" />
=======
	<node id="-14247" lat="58.3353944439" lon="6.3317388936">
		<tag k="name" v="Skrikartjørna" />
>>>>>>> e1d4bc35ff8a6074a6f2e91616a996b547c36f15
		<tag k="natural" v="water" />
		<tag k="ssr:stedsnr" v="243213" />
	</node>
<<<<<<< HEAD
	<node lat="58.38918018907036" lon="6.394899601841886" id="-97">
		<tag k="name" v="Eigelitjørna" />
=======
	<node id="-14245" lat="58.3681903126" lon="6.34854518935">
		<tag k="name" v="Stemmetjørna" />
>>>>>>> e1d4bc35ff8a6074a6f2e91616a996b547c36f15
		<tag k="natural" v="water" />
		<tag k="ssr:stedsnr" v="243170" />
	</node>
<<<<<<< HEAD
	<node lat="58.43620422032104" lon="6.271434243928951" id="-99">
		<tag k="name" v="Bogstadtjørna" />
=======
	<node id="-14231" lat="58.326191668" lon="6.41455832801">
		<tag k="name" v="Svartetjørn" />
>>>>>>> e1d4bc35ff8a6074a6f2e91616a996b547c36f15
		<tag k="natural" v="water" />
		<tag k="ssr:stedsnr" v="243869" />
	</node>
<<<<<<< HEAD
	<node lat="58.46413997250951" lon="6.296889740505045" id="-100">
		<tag k="name" v="Fiskeløys" />
=======
	<node id="-14228" lat="58.3393944464" lon="6.44779443982">
		<tag k="name" v="Aurevatnet" />
>>>>>>> e1d4bc35ff8a6074a6f2e91616a996b547c36f15
		<tag k="natural" v="water" />
		<tag k="ssr:stedsnr" v="243910" />
	</node>
<<<<<<< HEAD
	<node lat="58.47744956803544" lon="6.259469792086712" id="-102">
		<tag k="name" v="Øvre Eptavatnet" />
		<tag k="natural" v="water" />
		<tag k="ssr:stedsnr" v="81306" />
		<tag k="water" v="lake" />
	</node>
	<node lat="58.316923563362" lon="6.3546423868919195" id="-107">
		<tag k="name" v="Torvstemmen" />
=======
	<node id="-14225" lat="58.3653601864" lon="6.4883063899">
		<tag k="name" v="Kringletjørnan" />
		<tag k="natural" v="water" />
		<tag k="ssr:stedsnr" v="789214" />
		<tag k="water" v="lake" />
	</node>
	<node id="-14222" lat="58.38944167" lon="6.4879222279">
		<tag k="name" v="Midlivatnet" />
>>>>>>> e1d4bc35ff8a6074a6f2e91616a996b547c36f15
		<tag k="natural" v="water" />
		<tag k="ssr:stedsnr" v="87330" />
	</node>
<<<<<<< HEAD
	<node lat="58.30638449360396" lon="6.344069488703822" id="-108">
		<tag k="name" v="Indretjørna" />
=======
	<node id="-14221" lat="58.3659489515" lon="6.18824805994">
		<tag k="name" v="Ragnhildsvatnet" />
>>>>>>> e1d4bc35ff8a6074a6f2e91616a996b547c36f15
		<tag k="natural" v="water" />
		<tag k="ssr:stedsnr" v="87332" />
	</node>
<<<<<<< HEAD
	<node lat="58.38222547144945" lon="6.261550082627404" id="-129">
		<tag k="name" v="Parakstjørna" />
=======
	<node id="-14220" lat="58.3714750026" lon="6.19922777965">
		<tag k="name" v="Djubetjørna" />
>>>>>>> e1d4bc35ff8a6074a6f2e91616a996b547c36f15
		<tag k="natural" v="water" />
		<tag k="ssr:stedsnr" v="88388" />
	</node>
<<<<<<< HEAD
	<node lat="58.40383333103565" lon="6.39920278075889" id="-130">
		<tag k="name" v="Heigretangen" />
		<tag k="natural" v="cape" />
		<tag k="ssr:stedsnr" v="88777" />
	</node>
	<node lat="58.40119999642558" lon="6.383577782539009" id="-132">
		<tag k="name" v="Rørvik" />
		<tag k="natural" v="bay" />
		<tag k="ssr:stedsnr" v="88783" />
	</node>
	<node lat="58.31558333169556" lon="6.4463499993339415" id="-133">
		<tag k="name" v="Eigelandsvatnet" />
=======
	<node id="-14218" lat="58.4348111142" lon="6.48673610436">
		<tag k="name" v="Meheivatnet" />
		<tag k="natural" v="water" />
		<tag k="ssr:stedsnr" v="788155" />
		<tag k="water" v="lake" />
	</node>
	<node id="-14216" lat="58.3190335262" lon="6.36338490015">
		<tag k="fixme" v="multiple name tags, choose one and add the other to alt_name" />
		<tag k="name" v="Stemmevatnet;Nedre Livatn" />
>>>>>>> e1d4bc35ff8a6074a6f2e91616a996b547c36f15
		<tag k="natural" v="water" />
		<tag k="ssr:stedsnr" v="88965" />
		<tag k="water" v="lake" />
	</node>
<<<<<<< HEAD
	<node lat="58.30799444358923" lon="6.420691662152701" id="-134">
		<tag k="name" v="Strondesida" />
		<tag k="natural" v="beach" />
		<tag k="ssr:stedsnr" v="88968" />
	</node>
	<node lat="58.315758913014356" lon="6.463087292026382" id="-135">
		<tag k="name" v="Sandtjørn" />
=======
	<node id="-14214" lat="58.2851138899" lon="6.36007221416">
		<tag k="name" v="Ålvatnet" />
		<tag k="natural" v="water" />
		<tag k="ssr:stedsnr" v="788011" />
	</node>
	<node id="-14206" lat="58.4235638848" lon="6.27676944385">
		<tag k="name" v="Steigatjørna" />
>>>>>>> e1d4bc35ff8a6074a6f2e91616a996b547c36f15
		<tag k="natural" v="water" />
		<tag k="ssr:stedsnr" v="88975" />
	</node>
<<<<<<< HEAD
	<node lat="58.41823888673853" lon="6.429655552594859" id="-143">
		<tag k="name" v="Nesodden" />
		<tag k="natural" v="cape" />
		<tag k="ssr:stedsnr" v="88884" />
	</node>
	<node lat="58.365636111689305" lon="6.162905548407405" id="-148">
		<tag k="name" v="Sandtjørn" />
=======
	<node id="-14205" lat="58.3957249984" lon="6.17022500037">
		<tag k="name" v="Spjodevatnet" />
		<tag k="natural" v="water" />
		<tag k="ssr:stedsnr" v="910997" />
		<tag k="water" v="lake" />
	</node>
	<node id="-14204" lat="58.3574869035" lon="6.14043893608">
		<tag k="name" v="Kjellevatnet" />
>>>>>>> e1d4bc35ff8a6074a6f2e91616a996b547c36f15
		<tag k="natural" v="water" />
		<tag k="ssr:stedsnr" v="100917" />
	</node>
<<<<<<< HEAD
	<node lat="58.392202782197856" lon="6.230769449591369" id="-161">
		<tag k="name" v="Steigtjørna" />
=======
	<node id="-14203" lat="58.371043978" lon="6.13939719731">
		<tag k="name" v="Nedra Rongtjørna" />
>>>>>>> e1d4bc35ff8a6074a6f2e91616a996b547c36f15
		<tag k="natural" v="water" />
		<tag k="ssr:stedsnr" v="121170" />
	</node>
<<<<<<< HEAD
	<node lat="58.4423472265621" lon="6.397486113243698" id="-168">
		<tag k="name" v="Ljosvatnet" />
=======
	<node id="-14202" lat="58.4391694431" lon="6.28435000445">
		<tag k="name" v="Evjatjørna" />
>>>>>>> e1d4bc35ff8a6074a6f2e91616a996b547c36f15
		<tag k="natural" v="water" />
		<tag k="ssr:stedsnr" v="121875" />
	</node>
<<<<<<< HEAD
	<node lat="58.41470000070134" lon="6.280330548558917" id="-172">
		<tag k="name" v="Øyno" />
		<tag k="place" v="islet" />
		<tag k="ssr:stedsnr" v="148204" />
	</node>
	<node lat="58.42178788952502" lon="6.223205697774979" id="-178">
		<tag k="name" v="Haptatjørna" />
=======
	<node id="-14201" lat="58.4517472259" lon="6.45016667294">
		<tag k="name" v="Linborgvatnet" />
		<tag k="natural" v="water" />
		<tag k="ssr:stedsnr" v="910908" />
		<tag k="water" v="lake" />
	</node>
	<node id="-14197" lat="58.4200509401" lon="6.42858644175">
		<tag k="name" v="Orrestadvatnet" />
>>>>>>> e1d4bc35ff8a6074a6f2e91616a996b547c36f15
		<tag k="natural" v="water" />
		<tag k="ssr:stedsnr" v="148405" />
	</node>
<<<<<<< HEAD
	<node lat="58.39805555380436" lon="6.27049722893111" id="-181">
		<tag k="name" v="Frøyholmen" />
		<tag k="place" v="islet" />
		<tag k="ssr:stedsnr" v="148413" />
	</node>
	<node lat="58.43148611000461" lon="6.394574994054941" id="-194">
		<tag k="name" v="Nordre Dokketjørn" />
=======
	<node id="-14196" lat="58.4202166695" lon="6.39529166078">
		<tag k="name" v="Ljosevatnet" />
		<tag k="natural" v="water" />
		<tag k="ssr:stedsnr" v="910160" />
		<tag k="water" v="lake" />
	</node>
	<node id="-14194" lat="58.4126749975" lon="6.35302221769">
		<tag k="name" v="Hesttjørn" />
>>>>>>> e1d4bc35ff8a6074a6f2e91616a996b547c36f15
		<tag k="natural" v="water" />
		<tag k="ssr:stedsnr" v="148672" />
	</node>
<<<<<<< HEAD
	<node lat="58.404277774695665" lon="6.403297220548346" id="-195">
		<tag k="name" v="Nedre hølen" />
		<tag k="place" v="locality" />
		<tag k="ssr:stedsnr" v="148823" />
	</node>
	<node lat="58.313719441670024" lon="6.43379722972567" id="-199">
		<tag k="name" v="Langevatnet" />
=======
	<node id="-14192" lat="58.3327068926" lon="6.40201096095">
		<tag k="name" v="Taljevatnet" />
>>>>>>> e1d4bc35ff8a6074a6f2e91616a996b547c36f15
		<tag k="natural" v="water" />
		<tag k="ssr:stedsnr" v="148959" />
		<tag k="water" v="lake" />
	</node>
<<<<<<< HEAD
	<node lat="58.309030552146865" lon="6.450658335994589" id="-200">
		<tag k="name" v="Stemmetjørna" />
=======
	<node id="-14185" lat="58.414648441" lon="6.19332042015">
		<tag k="name" v="Djubedalstjørna" />
>>>>>>> e1d4bc35ff8a6074a6f2e91616a996b547c36f15
		<tag k="natural" v="water" />
		<tag k="ssr:stedsnr" v="148961" />
	</node>
<<<<<<< HEAD
	<node lat="58.291319443779706" lon="6.438963884759129" id="-202">
		<tag k="name" v="Storetangen" />
		<tag k="natural" v="cape" />
		<tag k="ssr:stedsnr" v="148973" />
	</node>
	<node lat="58.39401944465103" lon="6.419294436725022" id="-203">
		<tag k="name" v="Ytra Tjødno" />
=======
	<node id="-14178" lat="58.3802694448" lon="6.14001944593">
		<tag k="name" v="Nesjan" />
		<tag k="natural" v="beach" />
		<tag k="ssr:stedsnr" v="708152" />
	</node>
	<node id="-14168" lat="58.3646555511" lon="6.1673472149">
		<tag k="name" v="Kjerringtjørn" />
>>>>>>> e1d4bc35ff8a6074a6f2e91616a996b547c36f15
		<tag k="natural" v="water" />
		<tag k="ssr:stedsnr" v="148858" />
		<tag k="water" v="pond" />
	</node>
<<<<<<< HEAD
	<node lat="58.31782499689033" lon="6.414808325903321" id="-212">
		<tag k="name" v="Gauknetjørna" />
=======
	<node id="-14167" lat="58.3461333328" lon="6.21436389649">
		<tag k="name" v="Tverrheitjørn" />
>>>>>>> e1d4bc35ff8a6074a6f2e91616a996b547c36f15
		<tag k="natural" v="water" />
		<tag k="ssr:stedsnr" v="182208" />
	</node>
<<<<<<< HEAD
	<node lat="58.37480936196583" lon="6.229804492833466" id="-214">
		<tag k="name" v="Saurdalstjørna" />
=======
	<node id="-14165" lat="58.3501916704" lon="6.39720555547">
		<tag k="name" v="Blåtjørn" />
>>>>>>> e1d4bc35ff8a6074a6f2e91616a996b547c36f15
		<tag k="natural" v="water" />
		<tag k="ssr:stedsnr" v="182151" />
	</node>
<<<<<<< HEAD
	<node lat="58.336552573539834" lon="6.3983342813072825" id="-222">
		<tag k="name" v="Nesane" />
=======
	<node id="-14164" lat="58.3476694431" lon="6.47609166433">
		<tag k="name" v="Langa Fjelldragstjørna" />
>>>>>>> e1d4bc35ff8a6074a6f2e91616a996b547c36f15
		<tag k="natural" v="water" />
		<tag k="ssr:stedsnr" v="209011" />
	</node>
<<<<<<< HEAD
	<node lat="58.44962777930358" lon="6.280450001448129" id="-226">
		<tag k="name" v="Øyno" />
		<tag k="place" v="island" />
		<tag k="ssr:stedsnr" v="209177" />
	</node>
	<node lat="58.33264166930095" lon="6.229047230095503" id="-228">
		<tag k="name" v="Småtjørn" />
		<tag k="natural" v="water" />
		<tag k="ssr:stedsnr" v="209337" />
	</node>
	<node lat="58.3250277785668" lon="6.283986114636985" id="-234">
		<tag k="name" v="Sokno" />
		<tag k="ssr:stedsnr" v="209427" />
		<tag k="waterway" v="river" />
	</node>
	<node lat="58.409094447635105" lon="6.262769443898397" id="-235">
		<tag k="name" v="Søre Butangen" />
=======
	<node id="-14158" lat="58.4054444442" lon="6.45910833166">
		<tag k="name" v="Kjerringstranda" />
		<tag k="natural" v="beach" />
		<tag k="ssr:stedsnr" v="695769" />
	</node>
	<node id="-14155" lat="58.4172027796" lon="6.2642111159">
		<tag k="name" v="Skyletjørna" />
		<tag k="natural" v="water" />
		<tag k="ssr:stedsnr" v="695522" />
	</node>
	<node id="-14154" lat="58.3591472183" lon="6.26897222035">
		<tag k="name" v="Rekelandsbekken" />
		<tag k="ssr:stedsnr" v="695521" />
		<tag k="waterway" v="stream" />
	</node>
	<node id="-14153" lat="58.4371833354" lon="6.22825000163">
		<tag k="name" v="Hølen" />
		<tag k="natural" v="water" />
		<tag k="ssr:stedsnr" v="695472" />
		<tag k="water" v="lake" />
	</node>
	<node id="-14152" lat="58.4721083363" lon="6.25579166334">
		<tag k="name" v="Øybekken" />
		<tag k="ssr:stedsnr" v="695465" />
		<tag k="waterway" v="stream" />
	</node>
	<node id="-14151" lat="58.4741583344" lon="6.25589999443">
		<tag k="name" v="Bjedlandsøya" />
>>>>>>> e1d4bc35ff8a6074a6f2e91616a996b547c36f15
		<tag k="natural" v="cape" />
		<tag k="ssr:stedsnr" v="209433" />
	</node>
<<<<<<< HEAD
	<node lat="58.44425555826033" lon="6.262924999832043" id="-272">
		<tag k="name" v="Røyndalstjørna" />
		<tag k="natural" v="water" />
		<tag k="ssr:stedsnr" v="270456" />
	</node>
	<node lat="58.39585907321284" lon="6.251757164885275" id="-278">
		<tag k="name" v="Gaudlandstjørna" />
		<tag k="natural" v="water" />
		<tag k="ssr:stedsnr" v="270408" />
	</node>
	<node lat="58.44323889344443" lon="6.433619451897563" id="-281">
		<tag k="name" v="Sagafoss" />
		<tag k="natural" v="waterfall" />
		<tag k="ssr:stedsnr" v="270657" />
	</node>
	<node lat="58.45526111329938" lon="6.45053333252128" id="-282">
		<tag k="name" v="Hansastranda" />
		<tag k="natural" v="beach" />
		<tag k="ssr:stedsnr" v="270670" />
	</node>
	<node lat="58.383390342313355" lon="6.455446926624685" id="-288">
		<tag k="name" v="Råbakkstjørna" />
=======
	<node id="-14147" lat="58.464619447" lon="6.2771222275">
		<tag k="name" v="Vassenden" />
		<tag k="natural" v="bay" />
		<tag k="ssr:stedsnr" v="695155" />
	</node>
	<node id="-14146" lat="58.3150611089" lon="6.44691666493">
		<tag k="name" v="Øyna" />
		<tag k="place" v="island" />
		<tag k="ssr:stedsnr" v="694960" />
	</node>
	<node id="-14140" lat="58.3997138885" lon="6.45332499661">
		<tag k="name" v="Lyngnes" />
		<tag k="natural" v="cape" />
		<tag k="ssr:stedsnr" v="694761" />
	</node>
	<node id="-14137" lat="58.4376305561" lon="6.46825555928">
		<tag k="name" v="Tjørna" />
		<tag k="natural" v="water" />
		<tag k="ssr:stedsnr" v="694617" />
	</node>
	<node id="-14133" lat="58.3325333375" lon="6.34136943634">
		<tag k="name" v="Grasdalsvatnet" />
>>>>>>> e1d4bc35ff8a6074a6f2e91616a996b547c36f15
		<tag k="natural" v="water" />
		<tag k="ssr:stedsnr" v="270899" />
	</node>
<<<<<<< HEAD
	<node lat="58.3692722185763" lon="6.412744438035839" id="-289">
		<tag k="name" v="Brombotjørn" />
=======
	<node id="-14129" lat="58.3231713207" lon="6.33491998289">
		<tag k="name" v="Rodalstjørna" />
>>>>>>> e1d4bc35ff8a6074a6f2e91616a996b547c36f15
		<tag k="natural" v="water" />
		<tag k="ssr:stedsnr" v="270916" />
	</node>
<<<<<<< HEAD
	<node lat="58.34475000265266" lon="6.472519438011581" id="-290">
		<tag k="alt_name" v="Vassstølstjørna" />
		<tag k="name" v="Vasstølstjørna" />
=======
	<node id="-14123" lat="58.3631083313" lon="6.18689722609">
		<tag k="name" v="Ragnhildtjørn" />
>>>>>>> e1d4bc35ff8a6074a6f2e91616a996b547c36f15
		<tag k="natural" v="water" />
		<tag k="ssr:stedsnr" v="271000" />
	</node>
<<<<<<< HEAD
	<node lat="58.37376666561879" lon="6.389427772743568" id="-291">
		<tag k="name" v="Rånen" />
		<tag k="place" v="locality" />
		<tag k="ssr:stedsnr" v="270921" />
	</node>
	<node lat="58.322466712777114" lon="6.439633072731203" id="-294">
		<tag k="name" v="Bjåvatnet" />
=======
	<node id="-14122" lat="58.3268861083" lon="6.3947972219">
		<tag k="name" v="Tellenesvatnet" />
		<tag k="natural" v="water" />
		<tag k="ssr:stedsnr" v="667245" />
	</node>
	<node id="-14119" lat="58.3161882835" lon="6.38287283844">
		<tag k="name" v="Mågevatnet" />
>>>>>>> e1d4bc35ff8a6074a6f2e91616a996b547c36f15
		<tag k="natural" v="water" />
		<tag k="ssr:stedsnr" v="270961" />
	</node>
<<<<<<< HEAD
	<node lat="58.3642666702602" lon="6.192994444070558" id="-297">
		<tag k="name" v="Livarsteintjørna" />
=======
	<node id="-14118" lat="58.3556111134" lon="6.48101667186">
		<tag k="name" v="Hommavatnet" />
>>>>>>> e1d4bc35ff8a6074a6f2e91616a996b547c36f15
		<tag k="natural" v="water" />
		<tag k="ssr:stedsnr" v="222924" />
	</node>
<<<<<<< HEAD
	<node lat="58.422994442529706" lon="6.414644446572131" id="-303">
=======
	<node id="-14116" lat="58.381586108" lon="6.41387778452">
>>>>>>> e1d4bc35ff8a6074a6f2e91616a996b547c36f15
		<tag k="name" v="Øygardstjørna" />
		<tag k="natural" v="water" />
		<tag k="ssr:stedsnr" v="242129" />
	</node>
<<<<<<< HEAD
	<node lat="58.432524997052134" lon="6.457983338245577" id="-304">
		<tag k="name" v="Myrstølvatnet" />
=======
	<node id="-14114" lat="58.3794472258" lon="6.46801110995">
		<tag k="name" v="Langetjørn" />
>>>>>>> e1d4bc35ff8a6074a6f2e91616a996b547c36f15
		<tag k="natural" v="water" />
		<tag k="ssr:stedsnr" v="242132" />
	</node>
<<<<<<< HEAD
	<node lat="58.4499166710258" lon="6.296469445089517" id="-306">
		<tag k="name" v="Glubo" />
		<tag k="ssr:stedsnr" v="243889" />
		<tag k="waterway" v="river" />
	</node>
	<node lat="58.29042499594654" lon="6.380672225765994" id="-313">
		<tag k="name" v="Sprangstjørna" />
		<tag k="natural" v="water" />
		<tag k="ssr:stedsnr" v="452052" />
	</node>
	<node lat="58.347549999882574" lon="6.3356972292337925" id="-325">
		<tag k="name" v="Bjånes" />
=======
	<node id="-13275" lat="58.3316055551" lon="6.42513333922">
		<tag k="name" v="Ropodden" />
		<tag k="natural" v="cape" />
		<tag k="ssr:stedsnr" v="270014" />
	</node>
	<node id="-14112" lat="58.3576861084" lon="6.45792778134">
		<tag k="name" v="Tjødno" />
		<tag k="natural" v="water" />
		<tag k="ssr:stedsnr" v="877898" />
	</node>
	<node id="-14107" lat="58.4114277657" lon="6.38820835141">
		<tag k="name" v="Haptetjørna" />
		<tag k="natural" v="water" />
		<tag k="ssr:stedsnr" v="877863" />
	</node>
	<node id="-14100" lat="58.3869694435" lon="6.23403611126">
		<tag k="name" v="Skogøyna" />
		<tag k="place" v="island" />
		<tag k="ssr:stedsnr" v="877497" />
	</node>
	<node id="-14097" lat="58.3735027797" lon="6.25074722789">
		<tag k="name" v="Torvhølen" />
		<tag k="place" v="locality" />
		<tag k="ssr:stedsnr" v="877468" />
	</node>
	<node id="-14096" lat="58.4695583368" lon="6.2515527768">
		<tag k="name" v="Langenesodden" />
>>>>>>> e1d4bc35ff8a6074a6f2e91616a996b547c36f15
		<tag k="natural" v="cape" />
		<tag k="ssr:stedsnr" v="452287" />
	</node>
<<<<<<< HEAD
	<node lat="58.39412777757364" lon="6.268891673648348" id="-332">
		<tag k="name" v="Agnefjedsbukta" />
		<tag k="natural" v="bay" />
		<tag k="ssr:stedsnr" v="452416" />
	</node>
	<node lat="58.34513055810375" lon="6.318394443023798" id="-336">
		<tag k="name" v="Litlå" />
		<tag k="ssr:stedsnr" v="452429" />
		<tag k="waterway" v="river" />
	</node>
	<node lat="58.395530555603706" lon="6.2265611034285655" id="-340">
		<tag k="name" v="Svarthedlerstjørn" />
=======
	<node id="-14095" lat="58.4709249958" lon="6.25076665946">
		<tag k="name" v="Langenes" />
		<tag k="natural" v="cape" />
		<tag k="ssr:stedsnr" v="877455" />
	</node>
	<node id="-14089" lat="58.3338005422" lon="6.27045094242">
		<tag k="name" v="Tothammartjørna" />
		<tag k="natural" v="water" />
		<tag k="ssr:stedsnr" v="877349" />
	</node>
	<node id="-14088" lat="58.3365277798" lon="6.23263888986">
		<tag k="name" v="Stemmetjørn" />
>>>>>>> e1d4bc35ff8a6074a6f2e91616a996b547c36f15
		<tag k="natural" v="water" />
		<tag k="ssr:stedsnr" v="452437" />
	</node>
<<<<<<< HEAD
	<node lat="58.368555554933124" lon="6.362083328794378" id="-341">
		<tag k="name" v="Sandtjørna" />
		<tag k="natural" v="water" />
		<tag k="ssr:stedsnr" v="452383" />
	</node>
	<node lat="58.415641487195224" lon="6.225854159008555" id="-343">
		<tag k="name" v="Pollen" />
=======
	<node id="-14087" lat="58.3660333373" lon="6.36114722941">
		<tag k="name" v="Sandtjørna" />
		<tag k="natural" v="water" />
		<tag k="ssr:stedsnr" v="877342" />
	</node>
	<node id="-14075" lat="58.4086500012" lon="6.27939999576">
		<tag k="name" v="Lammeneset" />
		<tag k="natural" v="cape" />
		<tag k="ssr:stedsnr" v="877258" />
	</node>
	<node id="-14074" lat="58.4199361068" lon="6.2796499921">
		<tag k="name" v="Råno" />
		<tag k="natural" v="bay" />
		<tag k="ssr:stedsnr" v="877209" />
	</node>
	<node id="-14072" lat="58.4509277758" lon="6.30191943764">
		<tag k="name" v="Kreltjørna" />
>>>>>>> e1d4bc35ff8a6074a6f2e91616a996b547c36f15
		<tag k="natural" v="water" />
		<tag k="ssr:stedsnr" v="452410" />
	</node>
<<<<<<< HEAD
	<node lat="58.33865833412593" lon="6.362569443131" id="-349">
		<tag k="name" v="Fredriksvatnet" />
		<tag k="natural" v="water" />
		<tag k="ssr:stedsnr" v="452446" />
		<tag k="water" v="lake" />
	</node>
	<node lat="58.313849996410624" lon="6.302199994612065" id="-351">
		<tag k="name" v="Kattarau" />
=======
	<node id="-14071" lat="58.3922805562" lon="6.36743888887">
		<tag k="name" v="Basthølen" />
		<tag k="place" v="locality" />
		<tag k="ssr:stedsnr" v="877146" />
	</node>
	<node id="-14069" lat="58.4702361121" lon="6.27688610904">
		<tag k="name" v="Mariaholmen" />
>>>>>>> e1d4bc35ff8a6074a6f2e91616a996b547c36f15
		<tag k="place" v="islet" />
		<tag k="ssr:stedsnr" v="452459" />
	</node>
<<<<<<< HEAD
	<node lat="58.457511108085" lon="6.458544447193447" id="-357">
		<tag k="name" v="Botnen" />
		<tag k="place" v="locality" />
		<tag k="ssr:stedsnr" v="452661" />
	</node>
	<node lat="58.401558332041276" lon="6.4771833336990925" id="-362">
		<tag k="name" v="Smaletjørn" />
		<tag k="natural" v="water" />
		<tag k="ssr:stedsnr" v="452826" />
	</node>
	<node lat="58.365219443041724" lon="6.4307499973650835" id="-367">
		<tag k="name" v="Lyngneset" />
		<tag k="natural" v="cape" />
		<tag k="ssr:stedsnr" v="452926" />
	</node>
	<node lat="58.38225555684146" lon="6.405013881416919" id="-372">
		<tag k="name" v="Svarthølen" />
=======
	<node id="-14067" lat="58.4609444411" lon="6.29938332819">
		<tag k="name" v="Svartetjørn" />
		<tag k="natural" v="water" />
		<tag k="ssr:stedsnr" v="877126" />
	</node>
	<node id="-14061" lat="58.4159055517" lon="6.49198056424">
		<tag k="name" v="Sålebakktjørna" />
		<tag k="natural" v="water" />
		<tag k="ssr:stedsnr" v="876712" />
	</node>
	<node id="-14053" lat="58.4464777743" lon="6.24811388948">
		<tag k="name" v="Skurvøya" />
		<tag k="place" v="islet" />
		<tag k="ssr:stedsnr" v="876461" />
	</node>
	<node id="-14050" lat="58.3432833324" lon="6.36375832528">
		<tag k="name" v="Høgsettjørna" />
		<tag k="natural" v="water" />
		<tag k="ssr:stedsnr" v="876439" />
	</node>
	<node id="-14049" lat="58.331411107" lon="6.37552222242">
		<tag k="name" v="Laksedalsvatnet" />
>>>>>>> e1d4bc35ff8a6074a6f2e91616a996b547c36f15
		<tag k="natural" v="water" />
		<tag k="ssr:stedsnr" v="452955" />
	</node>
<<<<<<< HEAD
	<node lat="58.29403332907047" lon="6.360705555050213" id="-380">
		<tag k="name" v="Mjelkevass-stranda" />
		<tag k="natural" v="beach" />
		<tag k="ssr:stedsnr" v="269384" />
	</node>
	<node lat="58.33160555513985" lon="6.425133339222923" id="-381">
		<tag k="name" v="Ropodden" />
		<tag k="natural" v="cape" />
		<tag k="ssr:stedsnr" v="270014" />
	</node>
	<node lat="58.37077500356772" lon="6.448947223096186" id="-399">
		<tag k="name" v="Sandvika" />
		<tag k="natural" v="bay" />
		<tag k="ssr:stedsnr" v="270897" />
	</node>
	<node lat="58.40142499646904" lon="6.390138891708228" id="-400">
		<tag k="name" v="Neset" />
		<tag k="natural" v="cape" />
		<tag k="ssr:stedsnr" v="270789" />
	</node>
	<node lat="58.29188611306352" lon="6.438802784106499" id="-406">
		<tag k="name" v="Øyvika" />
		<tag k="natural" v="bay" />
		<tag k="ssr:stedsnr" v="270984" />
	</node>
	<node lat="58.34596835104571" lon="6.167454150980273" id="-421">
		<tag k="name" v="Krogevatnet" />
		<tag k="natural" v="water" />
		<tag k="ssr:stedsnr" v="303948" />
		<tag k="water" v="lake" />
	</node>
	<node lat="58.422555553608966" lon="6.280108327343544" id="-424">
		<tag k="name" v="Gygretjørna" />
=======
	<node id="-14043" lat="58.3747833352" lon="6.37463055638">
		<tag k="name" v="Litla Litjørna" />
		<tag k="natural" v="water" />
		<tag k="ssr:stedsnr" v="876373" />
	</node>
	<node id="-14035" lat="58.3873527808" lon="6.1583027822">
		<tag k="name" v="Kleivatjørna" />
		<tag k="natural" v="water" />
		<tag k="ssr:stedsnr" v="647260" />
	</node>
	<node id="-14033" lat="58.3792000012" lon="6.14618055398">
		<tag k="name" v="Sandvika" />
		<tag k="natural" v="bay" />
		<tag k="ssr:stedsnr" v="647253" />
	</node>
	<node id="-14030" lat="58.4521750035" lon="6.31181389394">
		<tag k="name" v="Tosketjørna" />
		<tag k="natural" v="water" />
		<tag k="ssr:stedsnr" v="728890" />
	</node>
	<node id="-14025" lat="58.3728611157" lon="6.3923055615">
		<tag k="name" v="Neset" />
		<tag k="natural" v="cape" />
		<tag k="ssr:stedsnr" v="634954" />
	</node>
	<node id="-14022" lat="58.3505833296" lon="6.43835832877">
		<tag k="name" v="Langatjørna" />
		<tag k="natural" v="water" />
		<tag k="ssr:stedsnr" v="634915" />
	</node>
	<node id="-14021" lat="58.3484527823" lon="6.45894444668">
		<tag k="name" v="Gjeidalstjørna" />
		<tag k="natural" v="water" />
		<tag k="ssr:stedsnr" v="634912" />
	</node>
	<node id="-14018" lat="58.3412180249" lon="6.21827236263">
		<tag k="name" v="Skiptingstjørn" />
		<tag k="natural" v="water" />
		<tag k="ssr:stedsnr" v="634355" />
	</node>
	<node id="-14017" lat="58.3559055594" lon="6.36671388857">
		<tag k="name" v="Kjerthøl" />
		<tag k="natural" v="water" />
		<tag k="ssr:stedsnr" v="634353" />
	</node>
	<node id="-14015" lat="58.4149138872" lon="6.2534472164">
		<tag k="name" v="Busundet" />
		<tag k="natural" v="strait" />
		<tag k="ssr:stedsnr" v="634420" />
	</node>
	<node id="-14014" lat="58.4277416657" lon="6.22768888598">
		<tag k="name" v="Refslandstjørna" />
>>>>>>> e1d4bc35ff8a6074a6f2e91616a996b547c36f15
		<tag k="natural" v="water" />
		<tag k="ssr:stedsnr" v="304130" />
	</node>
<<<<<<< HEAD
	<node lat="58.31888333701186" lon="6.405252778365031" id="-444">
		<tag k="name" v="Sandtjørn" />
=======
	<node id="-14013" lat="58.3917361107" lon="6.2745777794">
		<tag k="name" v="Lislåttjørna" />
>>>>>>> e1d4bc35ff8a6074a6f2e91616a996b547c36f15
		<tag k="natural" v="water" />
		<tag k="ssr:stedsnr" v="330964" />
	</node>
<<<<<<< HEAD
	<node lat="58.423191664996736" lon="6.37965833355001" id="-454">
		<tag k="name" v="Sandtjørn" />
=======
	<node id="-14011" lat="58.3311944462" lon="6.23161665832">
		<tag k="name" v="Nordnestjørna" />
>>>>>>> e1d4bc35ff8a6074a6f2e91616a996b547c36f15
		<tag k="natural" v="water" />
		<tag k="ssr:stedsnr" v="331211" />
	</node>
<<<<<<< HEAD
	<node lat="58.395191666937684" lon="6.265047225217557" id="-459">
		<tag k="name" v="Paraksvika" />
		<tag k="natural" v="bay" />
		<tag k="ssr:stedsnr" v="331403" />
	</node>
	<node lat="58.40947222510408" lon="6.2619249969515645" id="-461">
		<tag k="name" v="Nordre Butangen" />
		<tag k="natural" v="cape" />
		<tag k="ssr:stedsnr" v="331418" />
	</node>
	<node lat="58.37833116447886" lon="6.40583792417312" id="-464">
		<tag k="name" v="Espelitjørna" />
=======
	<node id="-14008" lat="58.3246723365" lon="6.2547012222">
		<tag k="name" v="Gildrevik" />
		<tag k="natural" v="bay" />
		<tag k="ssr:stedsnr" v="634311" />
	</node>
	<node id="-14004" lat="58.4502833318" lon="6.29110000804">
		<tag k="name" v="Glubebekkem" />
		<tag k="ssr:stedsnr" v="634156" />
		<tag k="waterway" v="stream" />
	</node>
	<node id="-14003" lat="58.4548222228" lon="6.31724722992">
		<tag k="name" v="Ommundsodden" />
		<tag k="natural" v="cape" />
		<tag k="ssr:stedsnr" v="634118" />
	</node>
	<node id="-14000" lat="58.3226194405" lon="6.38081389557">
		<tag k="name" v="Lonene" />
		<tag k="natural" v="water" />
		<tag k="ssr:stedsnr" v="633957" />
		<tag k="water" v="lake" />
	</node>
	<node id="-13999" lat="58.3137930644" lon="6.41588846566">
		<tag k="name" v="Nedsta Gauknetjørn" />
		<tag k="natural" v="water" />
		<tag k="ssr:stedsnr" v="633956" />
	</node>
	<node id="-13994" lat="58.43764167" lon="6.43116111159">
		<tag k="name" v="Linborgåna" />
		<tag k="ssr:stedsnr" v="633663" />
		<tag k="waterway" v="river" />
	</node>
	<node id="-13992" lat="58.3243249959" lon="6.35982777735">
		<tag k="name" v="Inntaksdammen" />
		<tag k="natural" v="water" />
		<tag k="ssr:stedsnr" v="633453" />
	</node>
	<node id="-13988" lat="58.3146555596" lon="6.32171944405">
		<tag k="name" v="Krogtjørna" />
>>>>>>> e1d4bc35ff8a6074a6f2e91616a996b547c36f15
		<tag k="natural" v="water" />
		<tag k="ssr:stedsnr" v="331954" />
	</node>
<<<<<<< HEAD
	<node lat="58.38692222445691" lon="6.163266671411519" id="-471">
		<tag k="name" v="Tuetjørn" />
		<tag k="natural" v="water" />
		<tag k="ssr:stedsnr" v="343869" />
	</node>
	<node lat="58.290556406882885" lon="6.398418044185739" id="-473">
		<tag k="name" v="Løyningstjørna" />
=======
	<node id="-13987" lat="58.304977781" lon="6.35480000048">
		<tag k="name" v="Litla Torrisvatnet" />
		<tag k="natural" v="water" />
		<tag k="ssr:stedsnr" v="633361" />
		<tag k="water" v="lake" />
	</node>
	<node id="-13985" lat="58.2790361096" lon="6.36816110316">
		<tag k="name" v="Stora Teinevik" />
		<tag k="natural" v="bay" />
		<tag k="ssr:stedsnr" v="633420" />
	</node>
	<node id="-13979" lat="58.3343083305" lon="6.39505833396">
		<tag k="name" v="Sagevatnet" />
>>>>>>> e1d4bc35ff8a6074a6f2e91616a996b547c36f15
		<tag k="natural" v="water" />
		<tag k="ssr:stedsnr" v="364017" />
	</node>
<<<<<<< HEAD
	<node lat="58.30974444726127" lon="6.417277785836445" id="-475">
		<tag k="name" v="Logsvatnet" />
=======
	<node id="-13977" lat="58.4299709978" lon="6.47248024443">
		<tag k="name" v="Linstrogvatnet" />
>>>>>>> e1d4bc35ff8a6074a6f2e91616a996b547c36f15
		<tag k="natural" v="water" />
		<tag k="ssr:stedsnr" v="364022" />
		<tag k="water" v="lake" />
	</node>
<<<<<<< HEAD
	<node lat="58.3991489006697" lon="6.46381106274888" id="-476">
		<tag k="name" v="Mydlandsvatnet" />
=======
	<node id="-13975" lat="58.4210139503" lon="6.38318277652">
		<tag k="name" v="Dokketjørna" />
		<tag k="natural" v="water" />
		<tag k="ssr:stedsnr" v="728125" />
		<tag k="water" v="lake" />
	</node>
	<node id="-13974" lat="58.4026111612" lon="6.39195387706">
		<tag k="name" v="Myssavatnet" />
>>>>>>> e1d4bc35ff8a6074a6f2e91616a996b547c36f15
		<tag k="natural" v="water" />
		<tag k="ssr:stedsnr" v="364156" />
		<tag k="water" v="lake" />
	</node>
<<<<<<< HEAD
	<node lat="58.41670000129332" lon="6.24755000241971" id="-477">
		<tag k="name" v="Hestøy" />
		<tag k="place" v="islet" />
		<tag k="ssr:stedsnr" v="364166" />
	</node>
	<node lat="58.415005556601976" lon="6.469588885533079" id="-478">
		<tag k="name" v="Krogevatnet" />
		<tag k="natural" v="water" />
		<tag k="ssr:stedsnr" v="364172" />
	</node>
	<node lat="58.33513481089953" lon="6.319589675880562" id="-481">
		<tag k="name" v="Årstadtjørna" />
=======
	<node id="-13971" lat="58.3206527764" lon="6.42159721761">
		<tag k="name" v="Lundetjørna" />
		<tag k="natural" v="water" />
		<tag k="ssr:stedsnr" v="728206" />
	</node>
	<node id="-13962" lat="58.3804500492" lon="6.21320440953">
		<tag k="name" v="Selebøvatnet" />
		<tag k="natural" v="water" />
		<tag k="ssr:stedsnr" v="607975" />
	</node>
	<node id="-13960" lat="58.3487777796" lon="6.37524167177">
		<tag k="name" v="Bøstøltjørna" />
		<tag k="natural" v="water" />
		<tag k="ssr:stedsnr" v="607207" />
	</node>
	<node id="-13956" lat="58.362525652" lon="6.41300575748">
		<tag k="name" v="Brombuvatnet" />
		<tag k="natural" v="water" />
		<tag k="ssr:stedsnr" v="606202" />
	</node>
	<node id="-13955" lat="58.2998416653" lon="6.39529166157">
		<tag k="name" v="Såvatnet" />
		<tag k="natural" v="water" />
		<tag k="ssr:stedsnr" v="606022" />
	</node>
	<node id="-13943" lat="58.3546555512" lon="6.18943333597">
		<tag k="name" v="Djubetjørn" />
		<tag k="natural" v="water" />
		<tag k="ssr:stedsnr" v="585920" />
	</node>
	<node id="-13941" lat="58.3657583365" lon="6.20777222223">
		<tag k="name" v="Bumyra" />
		<tag k="natural" v="water" />
		<tag k="ssr:stedsnr" v="585915" />
	</node>
	<node id="-13246" lat="58.3500560264" lon="6.4855058163">
		<tag k="name" v="Heptelitjørna" />
		<tag k="natural" v="water" />
		<tag k="ssr:stedsnr" v="243190" />
	</node>
	<node id="-13937" lat="58.4122388908" lon="6.21282500338">
		<tag k="name" v="Trolltjørn" />
		<tag k="natural" v="water" />
		<tag k="ssr:stedsnr" v="584523" />
	</node>
	<node id="-13927" lat="58.3584277795" lon="6.47109999134">
		<tag k="name" v="Rusketjørna" />
		<tag k="natural" v="water" />
		<tag k="ssr:stedsnr" v="573854" />
	</node>
	<node id="-13914" lat="58.4515923456" lon="6.27988017582">
		<tag k="name" v="Eiatjørna" />
		<tag k="natural" v="water" />
		<tag k="ssr:stedsnr" v="573117" />
	</node>
	<node id="-13903" lat="58.2872638874" lon="6.41578332579">
		<tag k="name" v="Ytra Skarsteinshomma" />
		<tag k="natural" v="cape" />
		<tag k="ssr:stedsnr" v="572052" />
	</node>
	<node id="-13891" lat="58.3601416684" lon="6.43928055111">
		<tag k="name" v="Sandtjørn" />
>>>>>>> e1d4bc35ff8a6074a6f2e91616a996b547c36f15
		<tag k="natural" v="water" />
		<tag k="ssr:stedsnr" v="364259" />
	</node>
<<<<<<< HEAD
	<node lat="58.389986111802145" lon="6.309216659972069" id="-482">
		<tag k="name" v="Svaletjørna" />
		<tag k="natural" v="water" />
		<tag k="ssr:stedsnr" v="364200" />
	</node>
	<node lat="58.356505554928795" lon="6.200774996451957" id="-483">
		<tag k="name" v="Faksetjørna" />
=======
	<node id="-13879" lat="58.3653472241" lon="6.30657499521">
		<tag k="name" v="Bakkaåna" />
		<tag k="ssr:stedsnr" v="695301" />
		<tag k="waterway" v="river" />
	</node>
	<node id="-13875" lat="58.3214249961" lon="6.39629166357">
		<tag k="name" v="Botnetjørn" />
>>>>>>> e1d4bc35ff8a6074a6f2e91616a996b547c36f15
		<tag k="natural" v="water" />
		<tag k="ssr:stedsnr" v="364948" />
	</node>
<<<<<<< HEAD
	<node lat="58.29538333533149" lon="6.383138887993178" id="-491">
		<tag k="name" v="Måleskarstjørna" />
=======
	<node id="-13872" lat="58.333022219" lon="6.46442222243">
		<tag k="name" v="Trettholt-tjørna" />
>>>>>>> e1d4bc35ff8a6074a6f2e91616a996b547c36f15
		<tag k="natural" v="water" />
		<tag k="ssr:stedsnr" v="391008" />
	</node>
<<<<<<< HEAD
	<node lat="58.33646944823823" lon="6.391363886092997" id="-492">
		<tag k="name" v="Mjelkevatnet" />
		<tag k="natural" v="water" />
		<tag k="ssr:stedsnr" v="391012" />
		<tag k="water" v="lake" />
	</node>
	<node lat="58.42674444325352" lon="6.3769777787202" id="-494">
		<tag k="name" v="Støtjørn" />
		<tag k="natural" v="water" />
		<tag k="ssr:stedsnr" v="391196" />
	</node>
	<node lat="58.410933336060744" lon="6.36398611712576" id="-495">
		<tag k="name" v="Torvsteinmyrtjørna" />
		<tag k="natural" v="water" />
		<tag k="ssr:stedsnr" v="391199" />
	</node>
	<node lat="58.33304696118145" lon="6.221438143870518" id="-499">
		<tag k="name" v="Igletjørna" />
=======
	<node id="-13869" lat="58.291534159" lon="6.43771495979">
		<tag k="name" v="Litletangen" />
		<tag k="natural" v="cape" />
		<tag k="ssr:stedsnr" v="694982" />
	</node>
	<node id="-13868" lat="58.2938305534" lon="6.44134166006">
		<tag k="name" v="Hammarhølen" />
		<tag k="place" v="locality" />
		<tag k="ssr:stedsnr" v="694979" />
	</node>
	<node id="-13850" lat="58.3472416625" lon="6.32321944885">
		<tag k="name" v="Måhølen" />
		<tag k="place" v="locality" />
		<tag k="ssr:stedsnr" v="694232" />
	</node>
	<node id="-13838" lat="58.3852388923" lon="6.15221111584">
		<tag k="name" v="Åshølen" />
>>>>>>> e1d4bc35ff8a6074a6f2e91616a996b547c36f15
		<tag k="natural" v="water" />
		<tag k="ssr:stedsnr" v="391308" />
	</node>
<<<<<<< HEAD
	<node lat="58.39487777686509" lon="6.283183331655443" id="-503">
		<tag k="name" v="Kalvhusvika" />
		<tag k="natural" v="bay" />
		<tag k="ssr:stedsnr" v="391237" />
	</node>
	<node lat="58.330211115253704" lon="6.291575004063229" id="-509">
		<tag k="name" v="Kjellandsånå" />
		<tag k="ssr:stedsnr" v="391436" />
		<tag k="waterway" v="river" />
	</node>
	<node lat="58.369124995641926" lon="6.284247226107212" id="-510">
		<tag k="name" v="Litle-Rosslandshølen" />
=======
	<node id="-13835" lat="58.4207527786" lon="6.41714999669">
		<tag k="name" v="Migaren" />
		<tag k="ssr:stedsnr" v="513858" />
		<tag k="waterway" v="stream" />
	</node>
	<node id="-13832" lat="58.4047666696" lon="6.27240277566">
		<tag k="name" v="Fossnesodden" />
		<tag k="natural" v="cape" />
		<tag k="ssr:stedsnr" v="513255" />
	</node>
	<node id="-13831" lat="58.4570083317" lon="6.43805278467">
		<tag k="name" v="Hommahølen" />
>>>>>>> e1d4bc35ff8a6074a6f2e91616a996b547c36f15
		<tag k="place" v="locality" />
		<tag k="ssr:stedsnr" v="391388" />
	</node>
<<<<<<< HEAD
	<node lat="58.350793650938876" lon="6.215567043373818" id="-513">
		<tag k="name" v="Myssingtjørn" />
		<tag k="natural" v="water" />
		<tag k="ssr:stedsnr" v="391510" />
	</node>
	<node lat="58.29826666239495" lon="6.343319436921483" id="-514">
		<tag k="name" v="Åltjørn" />
=======
	<node id="-13824" lat="58.4491138934" lon="6.26494723007">
		<tag k="name" v="Kanesøya" />
		<tag k="place" v="islet" />
		<tag k="ssr:stedsnr" v="512467" />
	</node>
	<node id="-13817" lat="58.3398277815" lon="6.39659444677">
		<tag k="name" v="Stakkedalstjørna" />
>>>>>>> e1d4bc35ff8a6074a6f2e91616a996b547c36f15
		<tag k="natural" v="water" />
		<tag k="ssr:stedsnr" v="391537" />
	</node>
<<<<<<< HEAD
	<node lat="58.43604722667478" lon="6.225869444427457" id="-518">
		<tag k="name" v="Foss-å" />
		<tag k="ssr:stedsnr" v="391484" />
		<tag k="waterway" v="river" />
	</node>
	<node lat="58.352861113270095" lon="6.45991943654493" id="-526">
		<tag k="name" v="Nordre Tangen" />
		<tag k="natural" v="cape" />
		<tag k="ssr:stedsnr" v="391909" />
	</node>
	<node lat="58.34902778074635" lon="6.175452782455524" id="-535">
		<tag k="name" v="Stora Skartjørn" />
=======
	<node id="-13814" lat="58.4059861113" lon="6.18417777649">
		<tag k="name" v="Bukkøya" />
		<tag k="place" v="islet" />
		<tag k="ssr:stedsnr" v="485996" />
	</node>
	<node id="-13811" lat="58.3899916669" lon="6.16224722007">
		<tag k="name" v="Vinningskilen" />
		<tag k="natural" v="bay" />
		<tag k="ssr:stedsnr" v="485982" />
	</node>
	<node id="-13809" lat="58.367249996" lon="6.1357500077">
		<tag k="name" v="Krågelitjørna" />
>>>>>>> e1d4bc35ff8a6074a6f2e91616a996b547c36f15
		<tag k="natural" v="water" />
		<tag k="ssr:stedsnr" v="394835" />
	</node>
	<node lat="58.39311388545568" lon="6.456619451527496" id="-539">
		<tag k="name" v="Snilstjørna" />
		<tag k="natural" v="water" />
		<tag k="ssr:stedsnr" v="485150" />
	</node>
<<<<<<< HEAD
	<node lat="58.352688888839594" lon="6.41174999528169" id="-543">
=======
	<node id="-13808" lat="58.3526888888" lon="6.41174999528">
>>>>>>> e1d4bc35ff8a6074a6f2e91616a996b547c36f15
		<tag k="name" v="Ljosevatnet" />
		<tag k="natural" v="water" />
		<tag k="ssr:stedsnr" v="485171" />
		<tag k="water" v="lake" />
	</node>
<<<<<<< HEAD
	<node lat="58.38999166693237" lon="6.162247220072891" id="-549">
		<tag k="name" v="Vinningskilen" />
		<tag k="natural" v="bay" />
		<tag k="ssr:stedsnr" v="485982" />
	</node>
	<node lat="58.40598611132851" lon="6.184177776485308" id="-552">
		<tag k="name" v="Bukkøya" />
		<tag k="place" v="islet" />
		<tag k="ssr:stedsnr" v="485996" />
	</node>
	<node lat="58.30456635072595" lon="6.392244434506967" id="-558">
		<tag k="name" v="Raunslitjørna" />
=======
	<node id="-13804" lat="58.4028694447" lon="6.29544444069">
		<tag k="name" v="Storatjørn" />
		<tag k="natural" v="water" />
		<tag k="ssr:stedsnr" v="485107" />
	</node>
	<node id="-13223" lat="58.382436113" lon="6.47282499488">
		<tag k="name" v="Bjørkedalstjørna" />
		<tag k="natural" v="water" />
		<tag k="ssr:stedsnr" v="27904" />
	</node>
	<node id="-13794" lat="58.3584027761" lon="6.15932499514">
		<tag k="name" v="Birkelandsvatnet" />
		<tag k="natural" v="water" />
		<tag k="ssr:stedsnr" v="667965" />
	</node>
	<node id="-13791" lat="58.4398777788" lon="6.23650833732">
		<tag k="name" v="Eiavatnet" />
>>>>>>> e1d4bc35ff8a6074a6f2e91616a996b547c36f15
		<tag k="natural" v="water" />
		<tag k="ssr:stedsnr" v="425021" />
	</node>
<<<<<<< HEAD
	<node lat="58.36302499638165" lon="6.356850002350771" id="-561">
		<tag k="name" v="Lomratjørna" />
=======
	<node id="-13782" lat="58.3688158148" lon="6.38151224515">
		<tag k="name" v="Lomtjørna" />
>>>>>>> e1d4bc35ff8a6074a6f2e91616a996b547c36f15
		<tag k="natural" v="water" />
		<tag k="ssr:stedsnr" v="425199" />
	</node>
<<<<<<< HEAD
	<node lat="58.43047742629423" lon="6.206925261506237" id="-564">
		<tag k="name" v="Fossvatnet" />
=======
	<node id="-13779" lat="58.291119448" lon="6.35523610792">
		<tag k="name" v="Litla Mjelkevatnet" />
>>>>>>> e1d4bc35ff8a6074a6f2e91616a996b547c36f15
		<tag k="natural" v="water" />
		<tag k="ssr:stedsnr" v="425796" />
		<tag k="water" v="lake" />
	</node>
<<<<<<< HEAD
	<node lat="58.40101666326579" lon="6.290724998271653" id="-573">
		<tag k="name" v="Gjeidabekken" />
		<tag k="ssr:stedsnr" v="452220" />
		<tag k="waterway" v="stream" />
	</node>
	<node lat="58.40244166717147" lon="6.399141671304642" id="-591">
=======
	<node id="-13773" lat="58.401558332" lon="6.4771833337">
		<tag k="name" v="Smaletjørn" />
		<tag k="natural" v="water" />
		<tag k="ssr:stedsnr" v="452826" />
	</node>
	<node id="-13772" lat="58.3979027799" lon="6.45833055799">
		<tag k="name" v="Hunsnes" />
		<tag k="natural" v="cape" />
		<tag k="ssr:stedsnr" v="452823" />
	</node>
	<node id="-13771" lat="58.4024416672" lon="6.3991416713">
>>>>>>> e1d4bc35ff8a6074a6f2e91616a996b547c36f15
		<tag k="name" v="Mauravik" />
		<tag k="natural" v="bay" />
		<tag k="ssr:stedsnr" v="452809" />
	</node>
<<<<<<< HEAD
	<node lat="58.397902779928486" lon="6.458330557987673" id="-592">
		<tag k="name" v="Hunsnes" />
		<tag k="natural" v="cape" />
		<tag k="ssr:stedsnr" v="452823" />
	</node>
	<node lat="58.348236114458196" lon="6.399063886458643" id="-595">
		<tag k="name" v="Solhomtjørna" />
		<tag k="natural" v="water" />
		<tag k="ssr:stedsnr" v="452876" />
	</node>
	<node lat="58.315257488694066" lon="6.404345823872952" id="-600">
		<tag k="name" v="Bjødletjørnene" />
=======
	<node id="-13768" lat="58.3451305581" lon="6.31839444302">
		<tag k="name" v="Litlå" />
		<tag k="ssr:stedsnr" v="452429" />
		<tag k="waterway" v="river" />
	</node>
	<node id="-13764" lat="58.3941277776" lon="6.26889167365">
		<tag k="name" v="Agnefjedsbukta" />
		<tag k="natural" v="bay" />
		<tag k="ssr:stedsnr" v="452416" />
	</node>
	<node id="-13763" lat="58.4156414872" lon="6.22585415901">
		<tag k="name" v="Pollen" />
>>>>>>> e1d4bc35ff8a6074a6f2e91616a996b547c36f15
		<tag k="natural" v="water" />
		<tag k="ssr:stedsnr" v="452968" />
		<tag k="water" v="lake" />
	</node>
<<<<<<< HEAD
	<node lat="58.402869444733525" lon="6.295444440689967" id="-608">
		<tag k="name" v="Storatjørn" />
		<tag k="natural" v="water" />
		<tag k="ssr:stedsnr" v="485107" />
	</node>
	<node lat="58.427825001420835" lon="6.212613880477495" id="-611">
		<tag k="name" v="Nordratjørna" />
=======
	<node id="-13757" lat="58.4010166633" lon="6.29072499827">
		<tag k="name" v="Gjeidabekken" />
		<tag k="ssr:stedsnr" v="452220" />
		<tag k="waterway" v="stream" />
	</node>
	<node id="-13752" lat="58.3661750016" lon="6.4274333399">
		<tag k="name" v="Guddalsvatnet" />
>>>>>>> e1d4bc35ff8a6074a6f2e91616a996b547c36f15
		<tag k="natural" v="water" />
		<tag k="ssr:stedsnr" v="485717" />
	</node>
<<<<<<< HEAD
	<node lat="58.43482221988572" lon="6.474350006203443" id="-613">
		<tag k="name" v="Maurtjørn" />
=======
	<node id="-13750" lat="58.3631361094" lon="6.1787555499">
		<tag k="name" v="Svartetjørn" />
>>>>>>> e1d4bc35ff8a6074a6f2e91616a996b547c36f15
		<tag k="natural" v="water" />
		<tag k="ssr:stedsnr" v="485879" />
	</node>
<<<<<<< HEAD
	<node lat="58.36724999602933" lon="6.135750007701642" id="-614">
		<tag k="name" v="Krågelitjørna" />
=======
	<node id="-13749" lat="58.3045663507" lon="6.39224443451">
		<tag k="name" v="Raunslitjørna" />
>>>>>>> e1d4bc35ff8a6074a6f2e91616a996b547c36f15
		<tag k="natural" v="water" />
		<tag k="ssr:stedsnr" v="485966" />
	</node>
<<<<<<< HEAD
	<node lat="58.4491138934033" lon="6.264947230065349" id="-625">
		<tag k="name" v="Kanesøya" />
		<tag k="place" v="islet" />
		<tag k="ssr:stedsnr" v="512467" />
	</node>
	<node lat="58.40588333580243" lon="6.399783332822506" id="-647">
=======
	<node id="-13739" lat="58.4056472268" lon="6.40597778398">
		<tag k="name" v="Øvre hølen" />
		<tag k="place" v="locality" />
		<tag k="ssr:stedsnr" v="513827" />
	</node>
	<node id="-13738" lat="58.4058833358" lon="6.39978333282">
>>>>>>> e1d4bc35ff8a6074a6f2e91616a996b547c36f15
		<tag k="name" v="Havrenestangen" />
		<tag k="natural" v="cape" />
		<tag k="ssr:stedsnr" v="513822" />
	</node>
<<<<<<< HEAD
	<node lat="58.35244722310562" lon="6.209727779718739" id="-650">
		<tag k="name" v="Storemyr" />
=======
	<node id="-13732" lat="58.3477131191" lon="6.25227019319">
		<tag k="name" v="Heggdalstjørna" />
>>>>>>> e1d4bc35ff8a6074a6f2e91616a996b547c36f15
		<tag k="natural" v="water" />
		<tag k="ssr:stedsnr" v="525907" />
	</node>
<<<<<<< HEAD
	<node lat="58.390555559260214" lon="6.439511111480363" id="-657">
		<tag k="name" v="Mydlandsåna" />
		<tag k="ssr:stedsnr" v="546182" />
		<tag k="waterway" v="stream" />
	</node>
	<node lat="58.43687777795117" lon="6.398841672444073" id="-660">
		<tag k="name" v="Lomtjørn" />
=======
	<node id="-13729" lat="58.4108666661" lon="6.24739721487">
		<tag k="name" v="Graudetjørna" />
		<tag k="natural" v="water" />
		<tag k="ssr:stedsnr" v="513436" />
	</node>
	<node id="-13696" lat="58.304511942" lon="6.41638163883">
		<tag k="name" v="Einstaptjørn" />
>>>>>>> e1d4bc35ff8a6074a6f2e91616a996b547c36f15
		<tag k="natural" v="water" />
		<tag k="ssr:stedsnr" v="546875" />
	</node>
<<<<<<< HEAD
	<node lat="58.4627638894472" lon="6.439497226241392" id="-661">
		<tag k="name" v="Marigjelvatnan" />
		<tag k="natural" v="water" />
		<tag k="ssr:stedsnr" v="546880" />
	</node>
	<node lat="58.34724166254275" lon="6.323219448845884" id="-664">
		<tag k="name" v="Måhølen" />
		<tag k="place" v="locality" />
		<tag k="ssr:stedsnr" v="694232" />
	</node>
	<node lat="58.28726388739125" lon="6.415783325793627" id="-668">
		<tag k="name" v="Ytra Skarsteinshomma" />
=======
	<node id="-13691" lat="58.3776833361" lon="6.49245277626">
		<tag k="name" v="Stronno" />
		<tag k="natural" v="beach" />
		<tag k="ssr:stedsnr" v="512765" />
	</node>
	<node id="-13687" lat="58.3249305539" lon="6.3522916626">
		<tag k="name" v="Smørskjerbukta" />
		<tag k="natural" v="bay" />
		<tag k="ssr:stedsnr" v="512444" />
	</node>
	<node id="-13681" lat="58.2793666706" lon="6.36512222552">
		<tag k="name" v="Besodden" />
>>>>>>> e1d4bc35ff8a6074a6f2e91616a996b547c36f15
		<tag k="natural" v="cape" />
		<tag k="ssr:stedsnr" v="572052" />
	</node>
<<<<<<< HEAD
	<node lat="58.33370833171555" lon="6.337077773203746" id="-674">
		<tag k="name" v="Speglan" />
		<tag k="natural" v="water" />
		<tag k="ssr:stedsnr" v="572445" />
	</node>
	<node lat="58.43136699853383" lon="6.282331121815022" id="-684">
		<tag k="name" v="Ytra Evjatjørna" />
		<tag k="natural" v="water" />
		<tag k="ssr:stedsnr" v="573210" />
	</node>
	<node lat="58.32051389279854" lon="6.265966670729447" id="-696">
		<tag k="name" v="Vallnesodden" />
		<tag k="natural" v="cape" />
		<tag k="ssr:stedsnr" v="573308" />
	</node>
	<node lat="58.33253333750055" lon="6.3413694363386455" id="-710">
		<tag k="name" v="Grasdalsvatnet" />
=======
	<node id="-13680" lat="58.2972833291" lon="6.34238056211">
		<tag k="name" v="Kvednebekken" />
		<tag k="ssr:stedsnr" v="512398" />
		<tag k="waterway" v="stream" />
	</node>
	<node id="-13676" lat="58.3751249958" lon="6.27728610891">
		<tag k="name" v="Rosslandsåna" />
		<tag k="ssr:stedsnr" v="512362" />
		<tag k="waterway" v="river" />
	</node>
	<node id="-13673" lat="58.3112333299" lon="6.33916111398">
		<tag k="name" v="Butjørna" />
>>>>>>> e1d4bc35ff8a6074a6f2e91616a996b547c36f15
		<tag k="natural" v="water" />
		<tag k="ssr:stedsnr" v="694419" />
		<tag k="water" v="lake" />
	</node>
<<<<<<< HEAD
	<node lat="58.399713888549876" lon="6.453324996606002" id="-715">
		<tag k="name" v="Lyngnes" />
		<tag k="natural" v="cape" />
		<tag k="ssr:stedsnr" v="694761" />
	</node>
	<node lat="58.33302221896269" lon="6.464422222431332" id="-721">
		<tag k="name" v="Trettholt-tjørna" />
=======
	<node id="-13671" lat="58.3227416644" lon="6.32194444847">
		<tag k="name" v="Gamla Stemmetjørna" />
>>>>>>> e1d4bc35ff8a6074a6f2e91616a996b547c36f15
		<tag k="natural" v="water" />
		<tag k="ssr:stedsnr" v="694996" />
	</node>
<<<<<<< HEAD
	<node lat="58.3214249960732" lon="6.396291663573525" id="-724">
		<tag k="name" v="Botnetjørn" />
=======
	<node id="-13650" lat="58.3668117583" lon="6.38630243018">
		<tag k="name" v="Stora Turrheitjørna" />
>>>>>>> e1d4bc35ff8a6074a6f2e91616a996b547c36f15
		<tag k="natural" v="water" />
		<tag k="ssr:stedsnr" v="694949" />
	</node>
<<<<<<< HEAD
	<node lat="58.315061108938394" lon="6.446916664927667" id="-726">
		<tag k="name" v="Øyna" />
		<tag k="place" v="island" />
		<tag k="ssr:stedsnr" v="694960" />
	</node>
	<node lat="58.46461944703672" lon="6.277122227495167" id="-727">
		<tag k="name" v="Vassenden" />
		<tag k="natural" v="bay" />
		<tag k="ssr:stedsnr" v="695155" />
	</node>
	<node lat="58.365347224103786" lon="6.30657499521263" id="-734">
		<tag k="name" v="Bakkaåna" />
		<tag k="ssr:stedsnr" v="695301" />
		<tag k="waterway" v="river" />
	</node>
	<node lat="58.43718333542984" lon="6.228250001630363" id="-738">
		<tag k="name" v="Hølen" />
=======
	<node id="-13648" lat="58.3854694444" lon="6.41541943881">
		<tag k="name" v="Ytrabøhølen" />
		<tag k="place" v="locality" />
		<tag k="ssr:stedsnr" v="391914" />
	</node>
	<node id="-13647" lat="58.3528611133" lon="6.45991943654">
		<tag k="name" v="Nordre Tangen" />
		<tag k="natural" v="cape" />
		<tag k="ssr:stedsnr" v="391909" />
	</node>
	<node id="-13645" lat="58.3819027806" lon="6.50878333221">
		<tag k="name" v="Kutjørna" />
>>>>>>> e1d4bc35ff8a6074a6f2e91616a996b547c36f15
		<tag k="natural" v="water" />
		<tag k="ssr:stedsnr" v="695472" />
		<tag k="water" v="lake" />
	</node>
	<node lat="58.4741583343739" lon="6.25589999442624" id="-743">
		<tag k="name" v="Bjedlandsøya" />
		<tag k="natural" v="cape" />
		<tag k="ssr:stedsnr" v="695457" />
	</node>
<<<<<<< HEAD
	<node lat="58.35019167035428" lon="6.397205555468816" id="-746">
		<tag k="name" v="Blåtjørn" />
=======
	<node id="-13635" lat="58.3507936509" lon="6.21556704337">
		<tag k="name" v="Myssingtjørn" />
>>>>>>> e1d4bc35ff8a6074a6f2e91616a996b547c36f15
		<tag k="natural" v="water" />
		<tag k="ssr:stedsnr" v="695872" />
	</node>
<<<<<<< HEAD
	<node lat="58.360141668429485" lon="6.439280551111829" id="-747">
		<tag k="name" v="Sandtjørn" />
=======
	<node id="-13625" lat="58.3330469612" lon="6.22143814387">
		<tag k="name" v="Igletjørna" />
>>>>>>> e1d4bc35ff8a6074a6f2e91616a996b547c36f15
		<tag k="natural" v="water" />
		<tag k="ssr:stedsnr" v="695876" />
	</node>
<<<<<<< HEAD
	<node lat="58.412238890804716" lon="6.212825003381817" id="-753">
		<tag k="name" v="Trolltjørn" />
=======
	<node id="-13619" lat="58.3364694482" lon="6.39136388609">
		<tag k="name" v="Mjelkevatnet" />
>>>>>>> e1d4bc35ff8a6074a6f2e91616a996b547c36f15
		<tag k="natural" v="water" />
		<tag k="ssr:stedsnr" v="584523" />
	</node>
<<<<<<< HEAD
	<node lat="58.42134444634071" lon="6.194841673223563" id="-754">
		<tag k="name" v="Nedra Røyrtjørn" />
		<tag k="natural" v="water" />
		<tag k="ssr:stedsnr" v="584527" />
	</node>
	<node lat="58.38044869504249" lon="6.197493949151782" id="-762">
		<tag k="name" v="Råtjørn" />
=======
	<node id="-13618" lat="58.2953833353" lon="6.38313888799">
		<tag k="name" v="Måleskarstjørna" />
		<tag k="natural" v="water" />
		<tag k="ssr:stedsnr" v="391008" />
	</node>
	<node id="-13615" lat="58.4167000013" lon="6.24755000242">
		<tag k="name" v="Hestøy" />
		<tag k="place" v="islet" />
		<tag k="ssr:stedsnr" v="364166" />
	</node>
	<node id="-13614" lat="58.3991489007" lon="6.46381106275">
		<tag k="name" v="Mydlandsvatnet" />
>>>>>>> e1d4bc35ff8a6074a6f2e91616a996b547c36f15
		<tag k="natural" v="water" />
		<tag k="ssr:stedsnr" v="585841" />
	</node>
<<<<<<< HEAD
	<node lat="58.37647500318418" lon="6.166688882400692" id="-763">
		<tag k="name" v="Surtetjørn" />
=======
	<node id="-13606" lat="58.4348222199" lon="6.4743500062">
		<tag k="name" v="Maurtjørn" />
>>>>>>> e1d4bc35ff8a6074a6f2e91616a996b547c36f15
		<tag k="natural" v="water" />
		<tag k="ssr:stedsnr" v="585843" />
	</node>
<<<<<<< HEAD
	<node lat="58.365758336461134" lon="6.207772222228723" id="-765">
		<tag k="name" v="Bumyra" />
=======
	<node id="-13605" lat="58.4278250014" lon="6.21261388048">
		<tag k="name" v="Nordratjørna" />
>>>>>>> e1d4bc35ff8a6074a6f2e91616a996b547c36f15
		<tag k="natural" v="water" />
		<tag k="ssr:stedsnr" v="585915" />
	</node>
<<<<<<< HEAD
	<node lat="58.36252565203174" lon="6.413005757479381" id="-773">
		<tag k="name" v="Brombuvatnet" />
=======
	<node id="-13603" lat="58.3931138855" lon="6.45661945153">
		<tag k="name" v="Snilstjørna" />
>>>>>>> e1d4bc35ff8a6074a6f2e91616a996b547c36f15
		<tag k="natural" v="water" />
		<tag k="ssr:stedsnr" v="606202" />
	</node>
<<<<<<< HEAD
	<node lat="58.39277500179107" lon="6.146300003077893" id="-779">
		<tag k="name" v="Hestvatnet" />
=======
	<node id="-13594" lat="58.3529404174" lon="6.176227547">
		<tag k="name" v="Stemmetjørn" />
>>>>>>> e1d4bc35ff8a6074a6f2e91616a996b547c36f15
		<tag k="natural" v="water" />
		<tag k="ssr:stedsnr" v="606997" />
	</node>
<<<<<<< HEAD
	<node lat="58.348777779578576" lon="6.375241671773348" id="-781">
		<tag k="name" v="Bøstøltjørna" />
		<tag k="natural" v="water" />
		<tag k="ssr:stedsnr" v="607207" />
	</node>
	<node lat="58.33867499782689" lon="6.468291662554694" id="-783">
		<tag k="name" v="Holmevatnet" />
=======
	<node id="-13591" lat="58.3653805539" lon="6.34037777567">
		<tag k="name" v="Kvenndalsdammen" />
>>>>>>> e1d4bc35ff8a6074a6f2e91616a996b547c36f15
		<tag k="natural" v="water" />
		<tag k="ssr:stedsnr" v="607245" />
	</node>
<<<<<<< HEAD
	<node lat="58.33430833053204" lon="6.395058333962278" id="-784">
		<tag k="name" v="Sagevatnet" />
		<tag k="natural" v="water" />
		<tag k="ssr:stedsnr" v="633009" />
	</node>
	<node lat="58.371747222955925" lon="6.276530553821562" id="-793">
		<tag k="name" v="Holmen" />
=======
	<node id="-13585" lat="58.3951916669" lon="6.26504722522">
		<tag k="name" v="Paraksvika" />
		<tag k="natural" v="bay" />
		<tag k="ssr:stedsnr" v="331403" />
	</node>
	<node id="-13583" lat="58.3980083309" lon="6.28216389302">
		<tag k="name" v="Øyno" />
>>>>>>> e1d4bc35ff8a6074a6f2e91616a996b547c36f15
		<tag k="place" v="islet" />
		<tag k="ssr:stedsnr" v="633393" />
	</node>
<<<<<<< HEAD
	<node lat="58.38975833780673" lon="6.503897223790971" id="-797">
		<tag k="name" v="Høgelitjørna" />
=======
	<node id="-13578" lat="58.423191665" lon="6.37965833355">
		<tag k="name" v="Sandtjørn" />
>>>>>>> e1d4bc35ff8a6074a6f2e91616a996b547c36f15
		<tag k="natural" v="water" />
		<tag k="ssr:stedsnr" v="633698" />
	</node>
<<<<<<< HEAD
	<node lat="58.32467233646813" lon="6.254701222201198" id="-806">
		<tag k="name" v="Gildrevik" />
		<tag k="natural" v="bay" />
		<tag k="ssr:stedsnr" v="634311" />
	</node>
	<node lat="58.347725002134176" lon="6.363508334294116" id="-808">
		<tag k="name" v="Høgsettjørn" />
=======
	<node id="-13571" lat="58.2873999988" lon="6.35047778614">
		<tag k="name" v="Mjelkebekken" />
		<tag k="ssr:stedsnr" v="330535" />
		<tag k="waterway" v="stream" />
	</node>
	<node id="-13558" lat="58.3956267884" lon="6.18247063477">
		<tag k="name" v="Tjuvhellertjørna" />
>>>>>>> e1d4bc35ff8a6074a6f2e91616a996b547c36f15
		<tag k="natural" v="water" />
		<tag k="ssr:stedsnr" v="634334" />
	</node>
<<<<<<< HEAD
	<node lat="58.41930833347488" lon="6.233791669008204" id="-810">
		<tag k="name" v="Skogneset" />
		<tag k="natural" v="cape" />
		<tag k="ssr:stedsnr" v="634428" />
	</node>
	<node lat="58.41402500147669" lon="6.468477769917284" id="-820">
		<tag k="name" v="Brende Tangan" />
		<tag k="natural" v="cape" />
		<tag k="ssr:stedsnr" v="634880" />
	</node>
	<node lat="58.34845278225206" lon="6.458944446676686" id="-825">
		<tag k="name" v="Gjeidalstjørna" />
=======
	<node id="-13553" lat="58.3426072288" lon="6.37559808611">
		<tag k="name" v="Oddrevatnet" />
		<tag k="natural" v="water" />
		<tag k="ssr:stedsnr" v="304221" />
	</node>
	<node id="-13552" lat="58.4337999977" lon="6.20169999294">
		<tag k="name" v="Kristianstjørna" />
>>>>>>> e1d4bc35ff8a6074a6f2e91616a996b547c36f15
		<tag k="natural" v="water" />
		<tag k="ssr:stedsnr" v="634912" />
	</node>
<<<<<<< HEAD
	<node lat="58.35058332959444" lon="6.438358328765517" id="-826">
		<tag k="name" v="Langatjørna" />
=======
	<node id="-13536" lat="58.3224667128" lon="6.43963307273">
		<tag k="name" v="Bjåvatnet" />
>>>>>>> e1d4bc35ff8a6074a6f2e91616a996b547c36f15
		<tag k="natural" v="water" />
		<tag k="ssr:stedsnr" v="634915" />
	</node>
<<<<<<< HEAD
	<node lat="58.380269444844735" lon="6.140019445933191" id="-835">
		<tag k="name" v="Nesjan" />
=======
	<node id="-13532" lat="58.4552611133" lon="6.45053333252">
		<tag k="name" v="Hansastranda" />
>>>>>>> e1d4bc35ff8a6074a6f2e91616a996b547c36f15
		<tag k="natural" v="beach" />
		<tag k="ssr:stedsnr" v="708152" />
	</node>
<<<<<<< HEAD
	<node lat="58.29111944802176" lon="6.355236107917449" id="-845">
		<tag k="name" v="Litla Mjelkevatnet" />
		<tag k="natural" v="water" />
		<tag k="ssr:stedsnr" v="667036" />
		<tag k="water" v="lake" />
	</node>
	<node lat="58.35561111337377" lon="6.4810166718647135" id="-847">
		<tag k="name" v="Hommavatnet" />
=======
	<node id="-13531" lat="58.4432388934" lon="6.4336194519">
		<tag k="name" v="Sagafoss" />
		<tag k="natural" v="waterfall" />
		<tag k="ssr:stedsnr" v="270657" />
	</node>
	<node id="-13526" lat="58.4442555583" lon="6.26292499983">
		<tag k="name" v="Røyndalstjørna" />
>>>>>>> e1d4bc35ff8a6074a6f2e91616a996b547c36f15
		<tag k="natural" v="water" />
		<tag k="ssr:stedsnr" v="667203" />
	</node>
<<<<<<< HEAD
	<node lat="58.43987777878498" lon="6.236508337320062" id="-849">
		<tag k="name" v="Eiavatnet" />
		<tag k="natural" v="water" />
		<tag k="ssr:stedsnr" v="667889" />
		<tag k="water" v="lake" />
	</node>
	<node lat="58.323171320660535" lon="6.3349199828926075" id="-862">
		<tag k="name" v="Rodalstjørna" />
=======
	<node id="-15562" lat="59.8279125227" lon="9.70560369472">
		<tag k="name" v="Grølla" />
		<tag k="natural" v="water" />
		<tag k="ssr:stedsnr" v="489738" />
		<tag k="water" v="lake" />
	</node>
	<node id="-15560" lat="58.4669019734" lon="6.25315654755">
		<tag k="name" v="Nedre Eptavatnet" />
		<tag k="natural" v="water" />
		<tag k="ssr:stedsnr" v="81365" />
		<tag k="water" v="lake" />
	</node>
	<node id="-15559" lat="58.477449568" lon="6.25946979209">
		<tag k="name" v="Øvre Eptavatnet" />
		<tag k="natural" v="water" />
		<tag k="ssr:stedsnr" v="81306" />
		<tag k="water" v="lake" />
	</node>
	<node id="-13507" lat="58.3152574887" lon="6.40434582387">
		<tag k="name" v="Bjødletjørnene" />
		<tag k="natural" v="water" />
		<tag k="ssr:stedsnr" v="452968" />
		<tag k="water" v="lake" />
	</node>
	<node id="-13503" lat="58.3822555568" lon="6.40501388142">
		<tag k="name" v="Svarthølen" />
>>>>>>> e1d4bc35ff8a6074a6f2e91616a996b547c36f15
		<tag k="natural" v="water" />
		<tag k="ssr:stedsnr" v="694316" />
	</node>
<<<<<<< HEAD
	<node lat="58.43763055605445" lon="6.468255559283077" id="-872">
		<tag k="name" v="Tjørna" />
=======
	<node id="-13499" lat="58.3482361145" lon="6.39906388646">
		<tag k="name" v="Solhomtjørna" />
>>>>>>> e1d4bc35ff8a6074a6f2e91616a996b547c36f15
		<tag k="natural" v="water" />
		<tag k="ssr:stedsnr" v="694617" />
	</node>
<<<<<<< HEAD
	<node lat="58.29383055340387" lon="6.441341660060887" id="-877">
		<tag k="name" v="Hammarhølen" />
		<tag k="place" v="locality" />
		<tag k="ssr:stedsnr" v="694979" />
	</node>
	<node lat="58.291534159035685" lon="6.43771495979386" id="-878">
		<tag k="name" v="Litletangen" />
=======
	<node id="-13494" lat="58.365219443" lon="6.43074999737">
		<tag k="name" v="Lyngneset" />
>>>>>>> e1d4bc35ff8a6074a6f2e91616a996b547c36f15
		<tag k="natural" v="cape" />
		<tag k="ssr:stedsnr" v="694982" />
	</node>
<<<<<<< HEAD
	<node lat="58.47210833631095" lon="6.255791663336258" id="-881">
		<tag k="name" v="Øybekken" />
		<tag k="ssr:stedsnr" v="695465" />
		<tag k="waterway" v="stream" />
	</node>
	<node lat="58.3591472183137" lon="6.268972220350041" id="-884">
		<tag k="name" v="Rekelandsbekken" />
		<tag k="ssr:stedsnr" v="695521" />
		<tag k="waterway" v="stream" />
	</node>
	<node lat="58.41720277960264" lon="6.264211115895715" id="-885">
		<tag k="name" v="Skyletjørna" />
=======
	<node id="-13484" lat="58.4575111081" lon="6.45854444719">
		<tag k="name" v="Botnen" />
		<tag k="place" v="locality" />
		<tag k="ssr:stedsnr" v="452661" />
	</node>
	<node id="-13473" lat="58.3138499964" lon="6.30219999461">
		<tag k="name" v="Kattarau" />
		<tag k="place" v="islet" />
		<tag k="ssr:stedsnr" v="452459" />
	</node>
	<node id="-13471" lat="58.3386583341" lon="6.36256944313">
		<tag k="name" v="Fredriksvatnet" />
>>>>>>> e1d4bc35ff8a6074a6f2e91616a996b547c36f15
		<tag k="natural" v="water" />
		<tag k="ssr:stedsnr" v="695522" />
	</node>
	<node lat="58.405444444232266" lon="6.459108331662179" id="-889">
		<tag k="name" v="Kjerringstranda" />
		<tag k="natural" v="beach" />
		<tag k="ssr:stedsnr" v="695769" />
	</node>
	<node lat="58.34766944310556" lon="6.476091664326005" id="-891">
		<tag k="name" v="Langa Fjelldragstjørna" />
		<tag k="natural" v="water" />
		<tag k="ssr:stedsnr" v="695868" />
	</node>
	<node lat="58.402611161230595" lon="6.391953877056849" id="-908">
		<tag k="name" v="Myssavatnet" />
		<tag k="natural" v="water" />
		<tag k="ssr:stedsnr" v="728122" />
		<tag k="water" v="lake" />
	</node>
<<<<<<< HEAD
	<node lat="58.421013950255826" lon="6.383182776521992" id="-909">
		<tag k="name" v="Dokketjørna" />
=======
	<node id="-13465" lat="58.3685555549" lon="6.36208332879">
		<tag k="name" v="Sandtjørna" />
>>>>>>> e1d4bc35ff8a6074a6f2e91616a996b547c36f15
		<tag k="natural" v="water" />
		<tag k="ssr:stedsnr" v="728125" />
		<tag k="water" v="lake" />
	</node>
<<<<<<< HEAD
	<node lat="58.4299709977891" lon="6.47248024443442" id="-911">
		<tag k="name" v="Linstrogvatnet" />
=======
	<node id="-15510" lat="58.3406183875" lon="6.18953604969">
		<tag k="name" v="Espelitjørna" />
>>>>>>> e1d4bc35ff8a6074a6f2e91616a996b547c36f15
		<tag k="natural" v="water" />
		<tag k="ssr:stedsnr" v="728127" />
		<tag k="water" v="lake" />
	</node>
<<<<<<< HEAD
	<node lat="58.32065277635706" lon="6.421597217606591" id="-912">
		<tag k="name" v="Lundetjørna" />
=======
	<node id="-15508" lat="58.3637916698" lon="6.20495277954">
		<tag k="name" v="Frutjørn" />
>>>>>>> e1d4bc35ff8a6074a6f2e91616a996b547c36f15
		<tag k="natural" v="water" />
		<tag k="ssr:stedsnr" v="728206" />
	</node>
<<<<<<< HEAD
	<node lat="58.41464844097812" lon="6.19332042014705" id="-914">
		<tag k="name" v="Djubedalstjørna" />
=======
	<node id="-15507" lat="58.3627805569" lon="6.13524444171">
		<tag k="name" v="Hesttjørn" />
>>>>>>> e1d4bc35ff8a6074a6f2e91616a996b547c36f15
		<tag k="natural" v="water" />
		<tag k="ssr:stedsnr" v="728714" />
	</node>
<<<<<<< HEAD
	<node lat="58.45217500345921" lon="6.311813893942945" id="-915">
		<tag k="name" v="Tosketjørna" />
=======
	<node id="-15500" lat="58.3866225514" lon="6.20412060735">
		<tag k="name" v="Nåvatnet" />
>>>>>>> e1d4bc35ff8a6074a6f2e91616a996b547c36f15
		<tag k="natural" v="water" />
		<tag k="ssr:stedsnr" v="728890" />
	</node>
<<<<<<< HEAD
	<node lat="58.332706892600875" lon="6.402010960952576" id="-917">
		<tag k="name" v="Taljevatnet" />
=======
	<node id="-15498" lat="58.3617478627" lon="6.17070233169">
		<tag k="name" v="Løyndfiskvatnet" />
>>>>>>> e1d4bc35ff8a6074a6f2e91616a996b547c36f15
		<tag k="natural" v="water" />
		<tag k="ssr:stedsnr" v="755012" />
	</node>
<<<<<<< HEAD
	<node lat="58.39949166425343" lon="6.321425000945019" id="-922">
		<tag k="name" v="Vassenden" />
=======
	<node id="-15493" lat="58.3246634222" lon="6.37485239506">
		<tag k="name" v="Lonavatn" />
>>>>>>> e1d4bc35ff8a6074a6f2e91616a996b547c36f15
		<tag k="natural" v="water" />
		<tag k="ssr:stedsnr" v="755259" />
		<tag k="water" v="lake" />
	</node>
<<<<<<< HEAD
	<node lat="58.32992222553137" lon="6.228097213715353" id="-923">
		<tag k="name" v="Røyrtjørn" />
=======
	<node id="-15490" lat="58.3619083336" lon="6.39093332482">
		<tag k="name" v="Veisdalsvatnet" />
>>>>>>> e1d4bc35ff8a6074a6f2e91616a996b547c36f15
		<tag k="natural" v="water" />
		<tag k="ssr:stedsnr" v="755298" />
	</node>
<<<<<<< HEAD
	<node lat="58.332308333124" lon="6.297088880998809" id="-931">
		<tag k="name" v="Kryptevik" />
=======
	<node id="-15489" lat="58.351083337" lon="6.45834166789">
		<tag k="name" v="Steinslandsvatnet" />
>>>>>>> e1d4bc35ff8a6074a6f2e91616a996b547c36f15
		<tag k="natural" v="water" />
		<tag k="ssr:stedsnr" v="755419" />
		<tag k="water" v="lake" />
	</node>
<<<<<<< HEAD
	<node lat="58.34540833326579" lon="6.4828333393446815" id="-948">
		<tag k="name" v="Lislåttjørna" />
=======
	<node id="-15488" lat="58.3919444419" lon="6.49138334091">
		<tag k="name" v="Langevatnet" />
>>>>>>> e1d4bc35ff8a6074a6f2e91616a996b547c36f15
		<tag k="natural" v="water" />
		<tag k="ssr:stedsnr" v="755863" />
	</node>
<<<<<<< HEAD
	<node lat="58.34276388567855" lon="6.4386111104307435" id="-951">
		<tag k="name" v="Stokkatjørna" />
=======
	<node id="-15486" lat="58.386216671" lon="6.23496388125">
		<tag k="name" v="Krågelundvatnet" />
>>>>>>> e1d4bc35ff8a6074a6f2e91616a996b547c36f15
		<tag k="natural" v="water" />
		<tag k="ssr:stedsnr" v="755998" />
	</node>
<<<<<<< HEAD
	<node lat="58.352766668165714" lon="6.1504166679018635" id="-956">
		<tag k="name" v="Fedatjørn" />
=======
	<node id="-13430" lat="58.2904249959" lon="6.38067222577">
		<tag k="name" v="Sprangstjørna" />
>>>>>>> e1d4bc35ff8a6074a6f2e91616a996b547c36f15
		<tag k="natural" v="water" />
		<tag k="ssr:stedsnr" v="766791" />
	</node>
<<<<<<< HEAD
	<node lat="58.38188611041354" lon="6.1570166627268454" id="-958">
		<tag k="name" v="Hustjørna" />
=======
	<node id="-13426" lat="58.4362042203" lon="6.27143424393">
		<tag k="name" v="Bogstadtjørna" />
>>>>>>> e1d4bc35ff8a6074a6f2e91616a996b547c36f15
		<tag k="natural" v="water" />
		<tag k="ssr:stedsnr" v="770220" />
	</node>
<<<<<<< HEAD
	<node lat="58.34246388573155" lon="6.186744451350453" id="-959">
		<tag k="name" v="Ytretjørna" />
=======
	<node id="-13424" lat="58.4641399725" lon="6.29688974051">
		<tag k="name" v="Fiskeløys" />
>>>>>>> e1d4bc35ff8a6074a6f2e91616a996b547c36f15
		<tag k="natural" v="water" />
		<tag k="ssr:stedsnr" v="770479" />
	</node>
<<<<<<< HEAD
	<node lat="58.41267499750124" lon="6.353022217685155" id="-970">
		<tag k="name" v="Hesttjørn" />
=======
	<node id="-13423" lat="58.3105472246" lon="6.35998888614">
		<tag k="name" v="Torrisvatnet" />
>>>>>>> e1d4bc35ff8a6074a6f2e91616a996b547c36f15
		<tag k="natural" v="water" />
		<tag k="ssr:stedsnr" v="910133" />
	</node>
<<<<<<< HEAD
	<node lat="58.39572499836237" lon="6.170225000371684" id="-971">
		<tag k="name" v="Spjodevatnet" />
=======
	<node id="-13421" lat="58.3891801891" lon="6.39489960184">
		<tag k="name" v="Eigelitjørna" />
>>>>>>> e1d4bc35ff8a6074a6f2e91616a996b547c36f15
		<tag k="natural" v="water" />
		<tag k="ssr:stedsnr" v="910997" />
		<tag k="water" v="lake" />
	</node>
<<<<<<< HEAD
	<node lat="58.28511388992068" lon="6.360072214161369" id="-972">
		<tag k="name" v="Ålvatnet" />
		<tag k="natural" v="water" />
		<tag k="ssr:stedsnr" v="788011" />
	</node>
	<node lat="58.43481111424646" lon="6.486736104364959" id="-975">
		<tag k="name" v="Meheivatnet" />
=======
	<node id="-15466" lat="58.2954472256" lon="6.45186666453">
		<tag k="name" v="Logsfossen" />
		<tag k="natural" v="waterfall" />
		<tag k="ssr:stedsnr" v="828226" />
	</node>
	<node id="-13416" lat="58.3655416649" lon="6.17651111627">
		<tag k="name" v="Kjørsletjørn" />
>>>>>>> e1d4bc35ff8a6074a6f2e91616a996b547c36f15
		<tag k="natural" v="water" />
		<tag k="ssr:stedsnr" v="788155" />
		<tag k="water" v="lake" />
	</node>
<<<<<<< HEAD
	<node lat="58.423563884799265" lon="6.276769443851372" id="-976">
		<tag k="name" v="Steigatjørna" />
		<tag k="natural" v="water" />
		<tag k="ssr:stedsnr" v="911140" />
	</node>
	<node lat="58.327936111798614" lon="6.336175008132261" id="-977">
		<tag k="name" v="Aravatnet" />
=======
	<node id="-15463" lat="58.3914138935" lon="6.14538056282">
		<tag k="name" v="Klumpestøa" />
		<tag k="natural" v="bay" />
		<tag k="ssr:stedsnr" v="827571" />
	</node>
	<node id="-15462" lat="58.3422458518" lon="6.44801760557">
		<tag k="name" v="Svartepoll" />
>>>>>>> e1d4bc35ff8a6074a6f2e91616a996b547c36f15
		<tag k="natural" v="water" />
		<tag k="ssr:stedsnr" v="788250" />
	</node>
<<<<<<< HEAD
	<node lat="58.37147500255635" lon="6.199227779645475" id="-980">
		<tag k="name" v="Djubetjørna" />
=======
	<node id="-13408" lat="58.394897224" lon="6.48793333745">
		<tag k="name" v="Litlatjørna" />
>>>>>>> e1d4bc35ff8a6074a6f2e91616a996b547c36f15
		<tag k="natural" v="water" />
		<tag k="ssr:stedsnr" v="788964" />
	</node>
<<<<<<< HEAD
	<node lat="58.36594895147205" lon="6.1882480599446374" id="-981">
		<tag k="name" v="Ragnhildsvatnet" />
=======
	<node id="-13407" lat="58.3952209872" lon="6.39984566046">
		<tag k="name" v="Svoltjørn" />
>>>>>>> e1d4bc35ff8a6074a6f2e91616a996b547c36f15
		<tag k="natural" v="water" />
		<tag k="ssr:stedsnr" v="788965" />
		<tag k="water" v="lake" />
	</node>
<<<<<<< HEAD
	<node lat="58.46034444897065" lon="6.428472223891749" id="-982">
		<tag k="name" v="Holmelitjørna" />
=======
	<node id="-15453" lat="58.3878638929" lon="6.40504443617">
		<tag k="name" v="Skogatjørna" />
>>>>>>> e1d4bc35ff8a6074a6f2e91616a996b547c36f15
		<tag k="natural" v="water" />
		<tag k="ssr:stedsnr" v="789923" />
	</node>
<<<<<<< HEAD
	<node lat="58.40091110915515" lon="6.250202775766713" id="-990">
		<tag k="name" v="Neset" />
		<tag k="natural" v="cape" />
		<tag k="ssr:stedsnr" v="816415" />
	</node>
	<node lat="58.334175004226225" lon="6.252580557454659" id="-997">
		<tag k="name" v="Immersteinbukta" />
		<tag k="natural" v="bay" />
		<tag k="ssr:stedsnr" v="816323" />
	</node>
	<node lat="58.36040000366105" lon="6.356738890694739" id="-998">
		<tag k="name" v="Rundetjørna" />
=======
	<node id="-15448" lat="58.3623333358" lon="6.45506944954">
		<tag k="name" v="Fiskelaustjørna" />
>>>>>>> e1d4bc35ff8a6074a6f2e91616a996b547c36f15
		<tag k="natural" v="water" />
		<tag k="ssr:stedsnr" v="816324" />
	</node>
<<<<<<< HEAD
	<node lat="58.36819031262238" lon="6.348545189346333" id="-999">
		<tag k="name" v="Stemmetjørna" />
=======
	<node id="-15446" lat="58.3509707261" lon="6.38680873243">
		<tag k="name" v="Auretjørn" />
>>>>>>> e1d4bc35ff8a6074a6f2e91616a996b547c36f15
		<tag k="natural" v="water" />
		<tag k="ssr:stedsnr" v="816372" />
	</node>
<<<<<<< HEAD
	<node lat="58.38733548918073" lon="6.222633489495949" id="-1003">
		<tag k="name" v="Dravletjørn" />
=======
	<node id="-15445" lat="58.3966722209" lon="6.4941527773">
		<tag k="name" v="Gudlandstjørn" />
>>>>>>> e1d4bc35ff8a6074a6f2e91616a996b547c36f15
		<tag k="natural" v="water" />
		<tag k="ssr:stedsnr" v="816505" />
	</node>
<<<<<<< HEAD
	<node lat="58.44883611115426" lon="6.245963895981258" id="-1011">
		<tag k="name" v="Hattøyna" />
		<tag k="place" v="islet" />
		<tag k="ssr:stedsnr" v="816483" />
	</node>
	<node lat="58.44630833593794" lon="6.438430547876323" id="-1012">
=======
	<node id="-15444" lat="58.4476972249" lon="6.44050277005">
		<tag k="name" v="Teinelag" />
		<tag k="natural" v="strait" />
		<tag k="ssr:stedsnr" v="816689" />
	</node>
	<node id="-15443" lat="58.4463083359" lon="6.43843054788">
>>>>>>> e1d4bc35ff8a6074a6f2e91616a996b547c36f15
		<tag k="name" v="Hyljan" />
		<tag k="place" v="locality" />
		<tag k="ssr:stedsnr" v="816688" />
	</node>
<<<<<<< HEAD
	<node lat="58.44769722487897" lon="6.440502770046809" id="-1013">
		<tag k="name" v="Teinelag" />
		<tag k="natural" v="strait" />
		<tag k="ssr:stedsnr" v="816689" />
	</node>
	<node lat="58.35097072606018" lon="6.386808732426854" id="-1018">
		<tag k="name" v="Auretjørn" />
=======
	<node id="-15440" lat="58.3571527785" lon="6.22279443831">
		<tag k="name" v="Trodleputt" />
		<tag k="natural" v="water" />
		<tag k="ssr:stedsnr" v="816544" />
	</node>
	<node id="-13389" lat="58.3326416693" lon="6.2290472301">
		<tag k="name" v="Småtjørn" />
>>>>>>> e1d4bc35ff8a6074a6f2e91616a996b547c36f15
		<tag k="natural" v="water" />
		<tag k="ssr:stedsnr" v="816880" />
	</node>
<<<<<<< HEAD
	<node lat="58.30699166720004" lon="6.467208328883964" id="-1020">
		<tag k="name" v="Piggsteintjørna" />
=======
	<node id="-15431" lat="58.3873354892" lon="6.2226334895">
		<tag k="name" v="Dravletjørn" />
>>>>>>> e1d4bc35ff8a6074a6f2e91616a996b547c36f15
		<tag k="natural" v="water" />
		<tag k="ssr:stedsnr" v="816973" />
	</node>
<<<<<<< HEAD
	<node lat="58.391413893534114" lon="6.145380562815771" id="-1022">
		<tag k="name" v="Klumpestøa" />
		<tag k="natural" v="bay" />
		<tag k="ssr:stedsnr" v="827571" />
	</node>
	<node lat="58.29544722562548" lon="6.45186666452947" id="-1023">
		<tag k="name" v="Logsfossen" />
		<tag k="natural" v="waterfall" />
		<tag k="ssr:stedsnr" v="828226" />
	</node>
	<node lat="58.391944441873086" lon="6.491383340911514" id="-1033">
		<tag k="name" v="Langevatnet" />
=======
	<node id="-13382" lat="58.3607499997" lon="6.21137499466">
		<tag k="name" v="Åsetjørna" />
		<tag k="natural" v="water" />
		<tag k="ssr:stedsnr" v="203460" />
	</node>
	<node id="-15428" lat="58.4488361112" lon="6.24596389598">
		<tag k="name" v="Hattøyna" />
		<tag k="place" v="islet" />
		<tag k="ssr:stedsnr" v="816483" />
	</node>
	<node id="-15426" lat="58.3340999994" lon="6.37502500451">
		<tag k="name" v="Vestvatnet" />
>>>>>>> e1d4bc35ff8a6074a6f2e91616a996b547c36f15
		<tag k="natural" v="water" />
		<tag k="ssr:stedsnr" v="850185" />
		<tag k="water" v="lake" />
	</node>
<<<<<<< HEAD
	<node lat="58.35108333702789" lon="6.45834166789193" id="-1034">
		<tag k="name" v="Steinslandsvatnet" />
=======
	<node id="-15425" lat="58.3343527857" lon="6.38012638522">
		<tag k="name" v="Austvatnet" />
>>>>>>> e1d4bc35ff8a6074a6f2e91616a996b547c36f15
		<tag k="natural" v="water" />
		<tag k="ssr:stedsnr" v="850199" />
	</node>
<<<<<<< HEAD
	<node lat="58.44866944284868" lon="6.266388890274203" id="-1050">
		<tag k="name" v="Kanesodden" />
		<tag k="natural" v="cape" />
		<tag k="ssr:stedsnr" v="876455" />
	</node>
	<node lat="58.44647777434252" lon="6.248113889478263" id="-1051">
		<tag k="name" v="Skurvøya" />
		<tag k="place" v="islet" />
		<tag k="ssr:stedsnr" v="876461" />
	</node>
	<node lat="58.41590555172536" lon="6.4919805642415005" id="-1054">
		<tag k="name" v="Sålebakktjørna" />
=======
	<node id="-15423" lat="58.3282333309" lon="6.32353054768">
		<tag k="name" v="Stemmetjørna" />
>>>>>>> e1d4bc35ff8a6074a6f2e91616a996b547c36f15
		<tag k="natural" v="water" />
		<tag k="ssr:stedsnr" v="876712" />
	</node>
<<<<<<< HEAD
	<node lat="58.45092777583458" lon="6.301919437643727" id="-1057">
		<tag k="name" v="Kreltjørna" />
=======
	<node id="-15421" lat="58.3335666702" lon="6.2821888856">
		<tag k="name" v="Lono" />
>>>>>>> e1d4bc35ff8a6074a6f2e91616a996b547c36f15
		<tag k="natural" v="water" />
		<tag k="ssr:stedsnr" v="877161" />
	</node>
<<<<<<< HEAD
	<node lat="58.419936106783325" lon="6.279649992098452" id="-1058">
		<tag k="name" v="Råno" />
		<tag k="natural" v="bay" />
		<tag k="ssr:stedsnr" v="877209" />
	</node>
	<node lat="58.4086500011501" lon="6.279399995763557" id="-1059">
		<tag k="name" v="Lammeneset" />
=======
	<node id="-15420" lat="58.4009111092" lon="6.25020277577">
		<tag k="name" v="Neset" />
>>>>>>> e1d4bc35ff8a6074a6f2e91616a996b547c36f15
		<tag k="natural" v="cape" />
		<tag k="ssr:stedsnr" v="877258" />
	</node>
<<<<<<< HEAD
	<node lat="58.470924995847504" lon="6.250766659459676" id="-1070">
		<tag k="name" v="Langenes" />
		<tag k="natural" v="cape" />
		<tag k="ssr:stedsnr" v="877455" />
	</node>
	<node lat="58.469558336792815" lon="6.2515527767976975" id="-1071">
		<tag k="name" v="Langenesodden" />
		<tag k="natural" v="cape" />
		<tag k="ssr:stedsnr" v="877457" />
	</node>
	<node lat="58.373502779748364" lon="6.250747227887554" id="-1072">
		<tag k="name" v="Torvhølen" />
		<tag k="place" v="locality" />
		<tag k="ssr:stedsnr" v="877468" />
	</node>
	<node lat="58.37944722584252" lon="6.4680111099499635" id="-1076">
		<tag k="name" v="Langetjørn" />
=======
	<node id="-13369" lat="58.3660694464" lon="6.20504444481">
		<tag k="name" v="Skidarsholet" />
		<tag k="natural" v="water" />
		<tag k="ssr:stedsnr" v="282937" />
	</node>
	<node id="-13360" lat="58.3967666697" lon="6.15817778019">
		<tag k="name" v="Graudatjørnene" />
		<tag k="natural" v="water" />
		<tag k="ssr:stedsnr" v="281533" />
		<tag k="water" v="lake" />
	</node>
	<node id="-15403" lat="58.3604000037" lon="6.35673889069">
		<tag k="name" v="Rundetjørna" />
>>>>>>> e1d4bc35ff8a6074a6f2e91616a996b547c36f15
		<tag k="natural" v="water" />
		<tag k="ssr:stedsnr" v="877912" />
	</node>
<<<<<<< HEAD
	<node lat="58.411427765729606" lon="6.388208351405032" id="-1079">
		<tag k="name" v="Haptetjørna" />
		<tag k="natural" v="water" />
		<tag k="ssr:stedsnr" v="877863" />
	</node>
	<node lat="58.34613333277147" lon="6.214363896488091" id="-1083">
		<tag k="name" v="Tverrheitjørn" />
		<tag k="natural" v="water" />
		<tag k="ssr:stedsnr" v="889927" />
	</node>
	<node lat="58.36465555112362" lon="6.167347214904081" id="-1084">
		<tag k="name" v="Kjerringtjørn" />
=======
	<node id="-15402" lat="58.3341750042" lon="6.25258055745">
		<tag k="name" v="Immersteinbukta" />
		<tag k="natural" v="bay" />
		<tag k="ssr:stedsnr" v="816323" />
	</node>
	<node id="-13350" lat="58.2913194438" lon="6.43896388476">
		<tag k="name" v="Storetangen" />
		<tag k="natural" v="cape" />
		<tag k="ssr:stedsnr" v="148973" />
	</node>
	<node id="-13348" lat="58.3090305521" lon="6.45065833599">
		<tag k="name" v="Stemmetjørna" />
>>>>>>> e1d4bc35ff8a6074a6f2e91616a996b547c36f15
		<tag k="natural" v="water" />
		<tag k="ssr:stedsnr" v="889928" />
	</node>
<<<<<<< HEAD
	<node lat="58.420216669499105" lon="6.3952916607808685" id="-1094">
		<tag k="name" v="Ljosevatnet" />
=======
	<node id="-13347" lat="58.3137194417" lon="6.43379722973">
		<tag k="name" v="Langevatnet" />
>>>>>>> e1d4bc35ff8a6074a6f2e91616a996b547c36f15
		<tag k="natural" v="water" />
		<tag k="ssr:stedsnr" v="910160" />
		<tag k="water" v="lake" />
	</node>
<<<<<<< HEAD
	<node lat="58.4200509400675" lon="6.428586441748162" id="-1095">
		<tag k="name" v="Orrestadvatnet" />
=======
	<node id="-13343" lat="58.3940194447" lon="6.41929443673">
		<tag k="name" v="Ytra Tjødno" />
>>>>>>> e1d4bc35ff8a6074a6f2e91616a996b547c36f15
		<tag k="natural" v="water" />
		<tag k="ssr:stedsnr" v="910162" />
		<tag k="water" v="lake" />
	</node>
<<<<<<< HEAD
	<node lat="58.451747225852536" lon="6.450166672940266" id="-1096">
		<tag k="name" v="Linborgvatnet" />
		<tag k="natural" v="water" />
		<tag k="ssr:stedsnr" v="910908" />
		<tag k="water" v="lake" />
	</node>
	<node lat="58.43916944307469" lon="6.284350004448868" id="-1097">
		<tag k="name" v="Evjatjørna" />
=======
	<node id="-13342" lat="58.4042777747" lon="6.40329722055">
		<tag k="name" v="Nedre hølen" />
		<tag k="place" v="locality" />
		<tag k="ssr:stedsnr" v="148823" />
	</node>
	<node id="-13340" lat="58.43148611" lon="6.39457499405">
		<tag k="name" v="Nordre Dokketjørn" />
>>>>>>> e1d4bc35ff8a6074a6f2e91616a996b547c36f15
		<tag k="natural" v="water" />
		<tag k="ssr:stedsnr" v="910916" />
	</node>
<<<<<<< HEAD
	<node lat="58.371043977979966" lon="6.139397197308001" id="-1098">
		<tag k="name" v="Nedra Rongtjørna" />
=======
	<node id="-15386" lat="58.460344449" lon="6.42847222389">
		<tag k="name" v="Holmelitjørna" />
>>>>>>> e1d4bc35ff8a6074a6f2e91616a996b547c36f15
		<tag k="natural" v="water" />
		<tag k="ssr:stedsnr" v="910961" />
	</node>
<<<<<<< HEAD
	<node lat="58.35748690352516" lon="6.140438936075767" id="-1099">
		<tag k="name" v="Kjellevatnet" />
		<tag k="natural" v="water" />
		<tag k="ssr:stedsnr" v="910967" />
	</node>
	<node lat="58.450847226038235" lon="6.449027783865434" id="-1105">
		<tag k="name" v="Øyno" />
=======
	<node id="-15384" lat="58.4380750007" lon="6.24544444462">
		<tag k="name" v="Øylandsøyna" />
>>>>>>> e1d4bc35ff8a6074a6f2e91616a996b547c36f15
		<tag k="place" v="islet" />
		<tag k="ssr:stedsnr" v="937646" />
	</node>
<<<<<<< HEAD
	<node lat="58.393894445973125" lon="6.497013882980623" id="-1106">
		<tag k="name" v="Slorpepollen" />
=======
	<node id="-15383" lat="58.4489477086" lon="6.41593954825">
		<tag k="name" v="Tristigla" />
>>>>>>> e1d4bc35ff8a6074a6f2e91616a996b547c36f15
		<tag k="natural" v="water" />
		<tag k="ssr:stedsnr" v="937710" />
	</node>
<<<<<<< HEAD
	<node lat="58.29311111504136" lon="6.437366673189315" id="-1112">
		<tag k="name" v="Kilen" />
		<tag k="ssr:stedsnr" v="937979" />
		<tag k="waterway" v="river" />
	</node>
	<node lat="58.388272225625" lon="6.239363884976846" id="-1115">
		<tag k="name" v="Grastjørn" />
=======
	<node id="-15377" lat="58.4416273925" lon="6.20602661781">
		<tag k="name" v="Søra Albogtjørna" />
>>>>>>> e1d4bc35ff8a6074a6f2e91616a996b547c36f15
		<tag k="natural" v="water" />
		<tag k="ssr:stedsnr" v="938315" />
	</node>
<<<<<<< HEAD
	<node lat="58.40253333678477" lon="6.22214165804493" id="-1123">
		<tag k="name" v="Fentjørn" />
=======
	<node id="-15375" lat="58.3279361118" lon="6.33617500813">
		<tag k="name" v="Aravatnet" />
>>>>>>> e1d4bc35ff8a6074a6f2e91616a996b547c36f15
		<tag k="natural" v="water" />
		<tag k="ssr:stedsnr" v="938429" />
	</node>
<<<<<<< HEAD
	<node lat="58.40155555348054" lon="6.388269436552992" id="-1128">
		<tag k="name" v="Sundet" />
		<tag k="natural" v="strait" />
		<tag k="ssr:stedsnr" v="938805" />
	</node>
	<node lat="58.399750003983016" lon="6.388652782677456" id="-1130">
		<tag k="name" v="Båsen" />
		<tag k="natural" v="bay" />
		<tag k="ssr:stedsnr" v="938830" />
	</node>
	<node lat="58.36278055692712" lon="6.135244441708644" id="-1141">
		<tag k="name" v="Hesttjørn" />
=======
	<node id="-13325" lat="58.3980555538" lon="6.27049722893">
		<tag k="name" v="Frøyholmen" />
		<tag k="place" v="islet" />
		<tag k="ssr:stedsnr" v="148413" />
	</node>
	<node id="-13322" lat="58.4217878895" lon="6.22320569777">
		<tag k="name" v="Haptatjørna" />
		<tag k="natural" v="water" />
		<tag k="ssr:stedsnr" v="148405" />
	</node>
	<node id="-13314" lat="58.3551749992" lon="6.16576388153">
		<tag k="name" v="Ålkjertjørn" />
>>>>>>> e1d4bc35ff8a6074a6f2e91616a996b547c36f15
		<tag k="natural" v="water" />
		<tag k="ssr:stedsnr" v="950727" />
	</node>
<<<<<<< HEAD
	<node lat="58.36379166979381" lon="6.2049527795353265" id="-1142">
		<tag k="name" v="Frutjørn" />
=======
	<node id="-13313" lat="58.3447500027" lon="6.47251943801">
		<tag k="alt_name" v="Vassstølstjørna" />
		<tag k="name" v="Vasstølstjørna" />
>>>>>>> e1d4bc35ff8a6074a6f2e91616a996b547c36f15
		<tag k="natural" v="water" />
		<tag k="ssr:stedsnr" v="950916" />
	</node>
<<<<<<< HEAD
	<node lat="58.402591669807165" lon="6.250358325910656" id="-1161">
		<tag k="name" v="Gaudlandsvatnet" />
=======
	<node id="-15359" lat="58.3424638857" lon="6.18674445135">
		<tag k="name" v="Ytretjørna" />
>>>>>>> e1d4bc35ff8a6074a6f2e91616a996b547c36f15
		<tag k="natural" v="water" />
		<tag k="ssr:stedsnr" v="142" />
	</node>
<<<<<<< HEAD
	<node lat="58.34456962057017" lon="6.352782659398278" id="-1165">
		<tag k="name" v="Stemmetjørna" />
=======
	<node id="-15358" lat="58.3818861104" lon="6.15701666273">
		<tag k="name" v="Hustjørna" />
>>>>>>> e1d4bc35ff8a6074a6f2e91616a996b547c36f15
		<tag k="natural" v="water" />
		<tag k="ssr:stedsnr" v="213" />
	</node>
<<<<<<< HEAD
	<node lat="58.35272499722734" lon="6.351541661882572" id="-1166">
		<tag k="name" v="Refsvatnet" />
=======
	<node id="-15356" lat="58.3731111109" lon="6.19340277452">
		<tag k="name" v="Lundetjørna" />
>>>>>>> e1d4bc35ff8a6074a6f2e91616a996b547c36f15
		<tag k="natural" v="water" />
		<tag k="ssr:stedsnr" v="220" />
	</node>
<<<<<<< HEAD
	<node lat="58.32141986367095" lon="6.4476001395491815" id="-1168">
		<tag k="name" v="Taravatnet" />
=======
	<node id="-15355" lat="58.3577627114" lon="6.13025282235">
		<tag k="name" v="Lihesttjørn" />
>>>>>>> e1d4bc35ff8a6074a6f2e91616a996b547c36f15
		<tag k="natural" v="water" />
		<tag k="ssr:stedsnr" v="242" />
	</node>
<<<<<<< HEAD
	<node lat="58.37392782372248" lon="6.140594831008267" id="-1171">
		<tag k="name" v="Øvra Rongtjørna" />
=======
	<node id="-15354" lat="58.3527666682" lon="6.1504166679">
		<tag k="name" v="Fedatjørn" />
>>>>>>> e1d4bc35ff8a6074a6f2e91616a996b547c36f15
		<tag k="natural" v="water" />
		<tag k="ssr:stedsnr" v="965" />
	</node>
<<<<<<< HEAD
	<node lat="58.42350278146904" lon="6.424699996698611" id="-1176">
		<tag k="name" v="Vikestranda" />
		<tag k="natural" v="beach" />
		<tag k="ssr:stedsnr" v="27882" />
	</node>
	<node lat="58.35430945515049" lon="6.458739740925332" id="-1177">
		<tag k="name" v="Midvatnet" />
=======
	<node id="-13305" lat="58.4014249965" lon="6.39013889171">
		<tag k="name" v="Neset" />
		<tag k="natural" v="cape" />
		<tag k="ssr:stedsnr" v="270789" />
	</node>
	<node id="-15349" lat="58.3427638857" lon="6.43861111043">
		<tag k="name" v="Stokkatjørna" />
>>>>>>> e1d4bc35ff8a6074a6f2e91616a996b547c36f15
		<tag k="natural" v="water" />
		<tag k="ssr:stedsnr" v="27884" />
		<tag k="water" v="lake" />
	</node>
<<<<<<< HEAD
	<node lat="58.385888887115215" lon="6.404936116371879" id="-1182">
		<tag k="name" v="Krohølen" />
=======
	<node id="-13300" lat="58.3692722186" lon="6.41274443804">
		<tag k="name" v="Brombotjørn" />
>>>>>>> e1d4bc35ff8a6074a6f2e91616a996b547c36f15
		<tag k="natural" v="water" />
		<tag k="ssr:stedsnr" v="27940" />
	</node>
<<<<<<< HEAD
	<node lat="58.32347218583114" lon="6.459322528137718" id="-1186">
		<tag k="name" v="Ørnetjørna" />
=======
	<node id="-13297" lat="58.3833903423" lon="6.45544692662">
		<tag k="name" v="Råbakkstjørna" />
>>>>>>> e1d4bc35ff8a6074a6f2e91616a996b547c36f15
		<tag k="natural" v="water" />
		<tag k="ssr:stedsnr" v="27958" />
	</node>
<<<<<<< HEAD
	<node lat="58.31768055913951" lon="6.464763886284169" id="-1187">
		<tag k="name" v="Djubtjørn" />
		<tag k="natural" v="water" />
		<tag k="ssr:stedsnr" v="27961" />
	</node>
	<node lat="58.394394448731965" lon="6.374533340571221" id="-1191">
		<tag k="name" v="Døsodden" />
=======
	<node id="-13296" lat="58.3707750036" lon="6.4489472231">
		<tag k="name" v="Sandvika" />
		<tag k="natural" v="bay" />
		<tag k="ssr:stedsnr" v="270897" />
	</node>
	<node id="-15341" lat="58.3535638864" lon="6.46030000864">
		<tag k="name" v="Øystre Tangen" />
>>>>>>> e1d4bc35ff8a6074a6f2e91616a996b547c36f15
		<tag k="natural" v="cape" />
		<tag k="ssr:stedsnr" v="27241" />
	</node>
	<node lat="58.30993889137947" lon="6.360041663411514" id="-1201">
		<tag k="name" v="Stora Neset" />
		<tag k="natural" v="cape" />
		<tag k="ssr:stedsnr" v="27344" />
	</node>
	<node lat="58.43304166401556" lon="6.243188890165813" id="-1214">
		<tag k="name" v="Risholmen" />
		<tag k="place" v="islet" />
		<tag k="ssr:stedsnr" v="27495" />
	</node>
	<node lat="58.44724721819563" lon="6.252013886802433" id="-1215">
		<tag k="name" v="Vidjeøya" />
		<tag k="place" v="islet" />
		<tag k="ssr:stedsnr" v="27496" />
	</node>
	<node lat="58.44501388967422" lon="6.247230563102431" id="-1216">
		<tag k="name" v="Kompo" />
		<tag k="place" v="islet" />
		<tag k="ssr:stedsnr" v="27498" />
	</node>
<<<<<<< HEAD
	<node lat="58.454313875772904" lon="6.43626817662468" id="-1219">
		<tag k="name" v="Tjødno i skogen" />
=======
	<node id="-15340" lat="58.3624606263" lon="6.38009053484">
		<tag k="name" v="Jiretjørn" />
>>>>>>> e1d4bc35ff8a6074a6f2e91616a996b547c36f15
		<tag k="natural" v="water" />
		<tag k="ssr:stedsnr" v="27706" />
	</node>
<<<<<<< HEAD
	<node lat="58.32656285875791" lon="6.363386466127325" id="-1227">
		<tag k="name" v="Øvra Lonetjørna" />
=======
	<node id="-15338" lat="58.3454083333" lon="6.48283333934">
		<tag k="name" v="Lislåttjørna" />
>>>>>>> e1d4bc35ff8a6074a6f2e91616a996b547c36f15
		<tag k="natural" v="water" />
		<tag k="ssr:stedsnr" v="27461" />
	</node>
<<<<<<< HEAD
	<node lat="58.31799444738244" lon="6.281352781437837" id="-1228">
		<tag k="name" v="Kluholmen" />
		<tag k="place" v="islet" />
		<tag k="ssr:stedsnr" v="27464" />
	</node>
	<node lat="58.35041388990179" lon="6.171086114370134" id="-1238">
		<tag k="name" v="Litla Skartjørn" />
=======
	<node id="-13287" lat="58.3958590732" lon="6.25175716489">
		<tag k="name" v="Gaudlandstjørna" />
>>>>>>> e1d4bc35ff8a6074a6f2e91616a996b547c36f15
		<tag k="natural" v="water" />
		<tag k="ssr:stedsnr" v="30931" />
	</node>
<<<<<<< HEAD
	<node lat="58.37978331402125" lon="6.196629534676342" id="-1260">
		<tag k="name" v="Stemmetjørna" />
=======
	<node id="-15330" lat="58.4073055799" lon="6.46724608663">
		<tag k="name" v="Lindalstjørn" />
>>>>>>> e1d4bc35ff8a6074a6f2e91616a996b547c36f15
		<tag k="natural" v="water" />
		<tag k="ssr:stedsnr" v="61968" />
	</node>
<<<<<<< HEAD
	<node lat="58.38576667045211" lon="6.2529833387222675" id="-1262">
		<tag k="name" v="Strandlivatnet" />
=======
	<node id="-15329" lat="58.4078944432" lon="6.47237778604">
		<tag k="name" v="Langetjørn" />
>>>>>>> e1d4bc35ff8a6074a6f2e91616a996b547c36f15
		<tag k="natural" v="water" />
		<tag k="ssr:stedsnr" v="61169" />
	</node>
<<<<<<< HEAD
	<node lat="58.416324999975295" lon="6.214450006255698" id="-1263">
		<tag k="name" v="Ljosevatnet" />
=======
	<node id="-15327" lat="58.3973333321" lon="6.45026110587">
		<tag k="name" v="Mydlandsosen" />
>>>>>>> e1d4bc35ff8a6074a6f2e91616a996b547c36f15
		<tag k="natural" v="water" />
		<tag k="ssr:stedsnr" v="61745" />
		<tag k="water" v="lake" />
	</node>
<<<<<<< HEAD
	<node lat="58.39690581728395" lon="6.160502707258456" id="-1264">
		<tag k="name" v="Tvitjørna" />
=======
	<node id="-15323" lat="58.3762444437" lon="6.50086666663">
		<tag k="name" v="Poddetjørn" />
>>>>>>> e1d4bc35ff8a6074a6f2e91616a996b547c36f15
		<tag k="natural" v="water" />
		<tag k="ssr:stedsnr" v="61996" />
	</node>
<<<<<<< HEAD
	<node lat="58.4669019734448" lon="6.253156547549913" id="-1265">
		<tag k="name" v="Nedre Eptavatnet" />
		<tag k="natural" v="water" />
		<tag k="ssr:stedsnr" v="81365" />
		<tag k="water" v="lake" />
	</node>
	<node lat="58.29088888579252" lon="6.389852780698718" id="-1271">
		<tag k="name" v="Aurepollen" />
		<tag k="place" v="locality" />
		<tag k="ssr:stedsnr" v="87044" />
	</node>
	<node lat="58.440136109856454" lon="6.24790000025489" id="-1274">
		<tag k="name" v="Øylandsvadet" />
		<tag k="natural" v="strait" />
		<tag k="ssr:stedsnr" v="87441" />
	</node>
	<node lat="58.41785555903165" lon="6.2522611112474005" id="-1285">
		<tag k="name" v="Håbertangen" />
		<tag k="natural" v="cape" />
		<tag k="ssr:stedsnr" v="88339" />
	</node>
	<node lat="58.43879166465833" lon="6.412088886433649" id="-1287">
		<tag k="name" v="Torjustjørn" />
=======
	<node id="-13268" lat="58.2940333291" lon="6.36070555505">
		<tag k="name" v="Mjelkevass-stranda" />
		<tag k="natural" v="beach" />
		<tag k="ssr:stedsnr" v="269384" />
	</node>
	<node id="-15311" lat="58.4502861093" lon="6.25231944285">
		<tag k="name" v="Krogøya" />
		<tag k="place" v="islet" />
		<tag k="ssr:stedsnr" v="755476" />
	</node>
	<node id="-15310" lat="58.4437722232" lon="6.24890555189">
		<tag k="name" v="Røyndalstangen" />
		<tag k="natural" v="cape" />
		<tag k="ssr:stedsnr" v="755474" />
	</node>
	<node id="-15305" lat="58.3978182534" lon="6.23511707707">
		<tag k="name" v="Heptetjørn" />
>>>>>>> e1d4bc35ff8a6074a6f2e91616a996b547c36f15
		<tag k="natural" v="water" />
		<tag k="ssr:stedsnr" v="88584" />
	</node>
<<<<<<< HEAD
	<node lat="58.43671111160664" lon="6.443730556874145" id="-1288">
		<tag k="name" v="Borskotjørn" />
		<tag k="natural" v="water" />
		<tag k="ssr:stedsnr" v="88585" />
	</node>
	<node lat="58.32550619308958" lon="6.439666079622749" id="-1291">
		<tag k="name" v="Hauertjørna" />
=======
	<node id="-15302" lat="58.3323083331" lon="6.297088881">
		<tag k="name" v="Kryptevik" />
		<tag k="natural" v="water" />
		<tag k="ssr:stedsnr" v="755419" />
		<tag k="water" v="lake" />
	</node>
	<node id="-13251" lat="58.449916671" lon="6.29646944509">
		<tag k="name" v="Glubo" />
		<tag k="ssr:stedsnr" v="243889" />
		<tag k="waterway" v="river" />
	</node>
	<node id="-13250" lat="58.3809464182" lon="6.37007161823">
		<tag k="name" v="Botnavatnet" />
>>>>>>> e1d4bc35ff8a6074a6f2e91616a996b547c36f15
		<tag k="natural" v="water" />
		<tag k="ssr:stedsnr" v="87993" />
	</node>
<<<<<<< HEAD
	<node lat="58.344872220888895" lon="6.446441668882894" id="-1292">
		<tag k="name" v="Vingskartjørna" />
=======
	<node id="-13249" lat="58.3706944404" lon="6.39155000453">
		<tag k="name" v="Ytra Ronavatnet" />
>>>>>>> e1d4bc35ff8a6074a6f2e91616a996b547c36f15
		<tag k="natural" v="water" />
		<tag k="ssr:stedsnr" v="88000" />
	</node>
<<<<<<< HEAD
	<node lat="58.29637387311262" lon="6.4547494028909576" id="-1295">
		<tag k="name" v="Langhølen" />
=======
	<node id="-15294" lat="58.3866750002" lon="6.35852222273">
		<tag k="name" v="Svarthøl" />
>>>>>>> e1d4bc35ff8a6074a6f2e91616a996b547c36f15
		<tag k="place" v="locality" />
		<tag k="ssr:stedsnr" v="87964" />
	</node>
<<<<<<< HEAD
	<node lat="58.37347222080541" lon="6.264863884540781" id="-1309">
		<tag k="name" v="Urdalstjørna" />
		<tag k="natural" v="water" />
		<tag k="ssr:stedsnr" v="88265" />
	</node>
	<node lat="58.397569448208245" lon="6.384099997833204" id="-1318">
		<tag k="name" v="Stronnen" />
		<tag k="natural" v="beach" />
		<tag k="ssr:stedsnr" v="88785" />
	</node>
	<node lat="58.35088333220253" lon="6.478666666991151" id="-1321">
		<tag k="name" v="Stølstjørna" />
=======
	<node id="-15292" lat="58.3786500007" lon="6.31539722282">
		<tag k="name" v="Ytra Bakkatjørna" />
>>>>>>> e1d4bc35ff8a6074a6f2e91616a996b547c36f15
		<tag k="natural" v="water" />
		<tag k="ssr:stedsnr" v="88854" />
	</node>
<<<<<<< HEAD
	<node lat="58.360705553457706" lon="6.391213885478665" id="-1322">
		<tag k="name" v="Holmen" />
		<tag k="natural" v="cape" />
		<tag k="ssr:stedsnr" v="88864" />
	</node>
	<node lat="58.31847222677113" lon="6.442444447722395" id="-1323">
		<tag k="name" v="Vassend" />
		<tag k="place" v="locality" />
		<tag k="ssr:stedsnr" v="88924" />
	</node>
	<node lat="58.37715406013634" lon="6.408749479713233" id="-1325">
		<tag k="name" v="Varetjørn" />
		<tag k="natural" v="water" />
		<tag k="ssr:stedsnr" v="88949" />
	</node>
	<node lat="58.37761852106038" lon="6.419938327147195" id="-1330">
		<tag k="name" v="Djupedaltjørna" />
=======
	<node id="-13243" lat="58.4229944425" lon="6.41464444657">
		<tag k="name" v="Øygardstjørna" />
>>>>>>> e1d4bc35ff8a6074a6f2e91616a996b547c36f15
		<tag k="natural" v="water" />
		<tag k="ssr:stedsnr" v="88899" />
	</node>
<<<<<<< HEAD
	<node lat="58.3855805524115" lon="6.411119437125098" id="-1331">
		<tag k="name" v="Kvernehølen" />
		<tag k="place" v="locality" />
		<tag k="ssr:stedsnr" v="88900" />
	</node>
	<node lat="58.30623333475856" lon="6.3826250005150085" id="-1333">
		<tag k="name" v="Rundtjørn" />
=======
	<node id="-15286" lat="58.3790638857" lon="6.31020555932">
		<tag k="name" v="Indra Bakkatjørna" />
>>>>>>> e1d4bc35ff8a6074a6f2e91616a996b547c36f15
		<tag k="natural" v="water" />
		<tag k="ssr:stedsnr" v="88962" />
	</node>
<<<<<<< HEAD
	<node lat="58.420008333859656" lon="6.198647214349255" id="-1334">
=======
	<node id="-15278" lat="58.3299222255" lon="6.22809721372">
>>>>>>> e1d4bc35ff8a6074a6f2e91616a996b547c36f15
		<tag k="name" v="Røyrtjørn" />
		<tag k="natural" v="water" />
		<tag k="ssr:stedsnr" v="99534" />
	</node>
<<<<<<< HEAD
	<node lat="58.297466664662274" lon="6.365697215653454" id="-1348">
		<tag k="name" v="Stora Mjelkevatnet" />
=======
	<node id="-15271" lat="58.3994916643" lon="6.32142500095">
		<tag k="name" v="Vassenden" />
>>>>>>> e1d4bc35ff8a6074a6f2e91616a996b547c36f15
		<tag k="natural" v="water" />
		<tag k="ssr:stedsnr" v="121035" />
		<tag k="water" v="lake" />
	</node>
<<<<<<< HEAD
	<node lat="58.407266664269564" lon="6.297299991732269" id="-1350">
		<tag k="name" v="Litlatjørn" />
		<tag k="natural" v="water" />
		<tag k="ssr:stedsnr" v="121141" />
	</node>
	<node lat="58.4212347919543" lon="6.207454097051994" id="-1354">
		<tag k="name" v="Krogevatnet" />
=======
	<node id="-13221" lat="58.4543138758" lon="6.43626817662">
		<tag k="name" v="Tjødno i skogen" />
>>>>>>> e1d4bc35ff8a6074a6f2e91616a996b547c36f15
		<tag k="natural" v="water" />
		<tag k="ssr:stedsnr" v="121757" />
		<tag k="water" v="lake" />
	</node>
<<<<<<< HEAD
	<node lat="58.37703392686023" lon="6.343984004688905" id="-1368">
		<tag k="name" v="Frøytloghølen" />
=======
	<node id="-15267" lat="58.3962472263" lon="6.27923888086">
		<tag k="name" v="Øystregardsvatnet" />
>>>>>>> e1d4bc35ff8a6074a6f2e91616a996b547c36f15
		<tag k="natural" v="water" />
		<tag k="ssr:stedsnr" v="148384" />
	</node>
<<<<<<< HEAD
	<node lat="58.36938055855133" lon="6.339866669112602" id="-1369">
		<tag k="name" v="Porshøl" />
		<tag k="place" v="locality" />
		<tag k="ssr:stedsnr" v="148385" />
	</node>
	<node lat="58.32371944401361" lon="6.24751111542977" id="-1376">
		<tag k="name" v="Kjerringvika" />
		<tag k="natural" v="bay" />
		<tag k="ssr:stedsnr" v="148336" />
	</node>
	<node lat="58.32284722271621" lon="6.26505832535051" id="-1377">
		<tag k="name" v="Vallnes" />
		<tag k="natural" v="cape" />
		<tag k="ssr:stedsnr" v="148342" />
	</node>
	<node lat="58.331561108913846" lon="6.369005549987374" id="-1383">
		<tag k="name" v="Ydravatnet" />
=======
	<node id="-15260" lat="58.406452777" lon="6.35140832882">
		<tag k="name" v="Vadlahaugtjørna" />
>>>>>>> e1d4bc35ff8a6074a6f2e91616a996b547c36f15
		<tag k="natural" v="water" />
		<tag k="ssr:stedsnr" v="148433" />
	</node>
<<<<<<< HEAD
	<node lat="58.34429722607127" lon="6.371022225653985" id="-1384">
		<tag k="name" v="Skinnstakktjørn" />
=======
	<node id="-13209" lat="58.4106587545" lon="6.22967849333">
		<tag k="name" v="Ålkjertjørn" />
>>>>>>> e1d4bc35ff8a6074a6f2e91616a996b547c36f15
		<tag k="natural" v="water" />
		<tag k="ssr:stedsnr" v="148436" />
	</node>
<<<<<<< HEAD
	<node lat="58.32100278235514" lon="6.273122226973085" id="-1385">
		<tag k="alt_name" v="Tjuholmen" />
		<tag k="name" v="Tjuvholmen" />
=======
	<node id="-15256" lat="58.2901055548" lon="6.38925833843">
		<tag k="name" v="Molebekken" />
		<tag k="ssr:stedsnr" v="755073" />
		<tag k="waterway" v="stream" />
	</node>
	<node id="-13207" lat="58.4215694469" lon="6.24181944747">
		<tag k="name" v="Kreglingholmen" />
>>>>>>> e1d4bc35ff8a6074a6f2e91616a996b547c36f15
		<tag k="place" v="islet" />
		<tag k="ssr:stedsnr" v="148445" />
	</node>
<<<<<<< HEAD
	<node lat="58.4270416624719" lon="6.242794444961209" id="-1386">
		<tag k="name" v="Dyrsund" />
		<tag k="natural" v="strait" />
		<tag k="ssr:stedsnr" v="148389" />
	</node>
	<node lat="58.43193888760993" lon="6.246480556328247" id="-1391">
		<tag k="name" v="Kompøya" />
		<tag k="place" v="islet" />
		<tag k="ssr:stedsnr" v="148476" />
	</node>
	<node lat="58.35140277886167" lon="6.232222229742339" id="-1399">
		<tag k="name" v="Midskartjørn" />
=======
	<node id="-13204" lat="58.4002805551" lon="6.28268611373">
		<tag k="name" v="Skålnes" />
		<tag k="natural" v="cape" />
		<tag k="ssr:stedsnr" v="27220" />
	</node>
	<node id="-15236" lat="58.399525004" lon="6.40434445158">
		<tag k="name" v="Kleivatjørn" />
>>>>>>> e1d4bc35ff8a6074a6f2e91616a996b547c36f15
		<tag k="natural" v="water" />
		<tag k="ssr:stedsnr" v="148532" />
	</node>
<<<<<<< HEAD
	<node lat="58.28907499738039" lon="6.371977769617981" id="-1400">
		<tag k="name" v="Springkleivvatnet" />
		<tag k="natural" v="water" />
		<tag k="ssr:stedsnr" v="148542" />
	</node>
	<node lat="58.41521944655574" lon="6.38571665909925" id="-1404">
		<tag k="name" v="Tvinlingtjørn" />
=======
	<node id="-15230" lat="58.4140250015" lon="6.46847776992">
		<tag k="name" v="Brende Tangan" />
		<tag k="natural" v="cape" />
		<tag k="ssr:stedsnr" v="634880" />
	</node>
	<node id="-13181" lat="58.3642666703" lon="6.19299444407">
		<tag k="name" v="Livarsteintjørna" />
>>>>>>> e1d4bc35ff8a6074a6f2e91616a996b547c36f15
		<tag k="natural" v="water" />
		<tag k="ssr:stedsnr" v="148848" />
	</node>
<<<<<<< HEAD
	<node lat="58.41466666595906" lon="6.421611112878096" id="-1410">
		<tag k="name" v="Langa Vigjo" />
		<tag k="natural" v="bay" />
		<tag k="ssr:stedsnr" v="148882" />
	</node>
	<node lat="58.34332222431849" lon="6.451927784838218" id="-1412">
		<tag k="name" v="Poddetjørna" />
=======
	<node id="-13175" lat="58.3501444469" lon="6.18823611936">
		<tag k="name" v="Heståstjørna" />
		<tag k="natural" v="water" />
		<tag k="ssr:stedsnr" v="218931" />
	</node>
	<node id="-13174" lat="58.4225582077" lon="6.48275422538">
		<tag k="name" v="Monevatnet" />
>>>>>>> e1d4bc35ff8a6074a6f2e91616a996b547c36f15
		<tag k="natural" v="water" />
		<tag k="ssr:stedsnr" v="148990" />
	</node>
<<<<<<< HEAD
	<node lat="58.36456388575414" lon="6.164019448681735" id="-1417">
		<tag k="name" v="Sandfjelltjørn" />
		<tag k="natural" v="water" />
		<tag k="ssr:stedsnr" v="151841" />
	</node>
	<node lat="58.36193055920064" lon="6.131022230313018" id="-1425">
		<tag k="name" v="Heptatjørn" />
		<tag k="natural" v="water" />
		<tag k="ssr:stedsnr" v="161729" />
	</node>
	<node lat="58.44161944516487" lon="6.342738883042762" id="-1439">
		<tag k="name" v="Steinsvatnet" />
=======
	<node id="-15215" lat="58.3693002324" lon="6.23247643849">
		<tag k="name" v="Riblandstjørna" />
		<tag k="natural" v="water" />
		<tag k="ssr:stedsnr" v="634499" />
	</node>
	<node id="-15212" lat="58.4532750043" lon="6.2651777824">
		<tag k="name" v="Stora Øyna" />
		<tag k="place" v="island" />
		<tag k="ssr:stedsnr" v="634474" />
	</node>
	<node id="-15211" lat="58.3908111099" lon="6.22369721993">
		<tag k="name" v="Stiatjørn" />
		<tag k="natural" v="water" />
		<tag k="ssr:stedsnr" v="634463" />
	</node>
	<node id="-15208" lat="58.3404972182" lon="6.25962777374">
		<tag k="name" v="Bråsund" />
		<tag k="natural" v="strait" />
		<tag k="ssr:stedsnr" v="634352" />
	</node>
	<node id="-15408" lat="58.3242749986" lon="6.34660278363">
		<tag k="name" v="Årstadtona" />
		<tag k="natural" v="cape" />
		<tag k="ssr:stedsnr" v="816459" />
	</node>
	<node id="-15206" lat="58.3477250021" lon="6.36350833429">
		<tag k="name" v="Høgsettjørn" />
>>>>>>> e1d4bc35ff8a6074a6f2e91616a996b547c36f15
		<tag k="natural" v="water" />
		<tag k="ssr:stedsnr" v="182884" />
		<tag k="water" v="lake" />
	</node>
<<<<<<< HEAD
	<node lat="58.40045000003733" lon="6.207525007523299" id="-1440">
		<tag k="name" v="Trettelontjørna" />
		<tag k="natural" v="water" />
		<tag k="ssr:stedsnr" v="182996" />
	</node>
	<node lat="58.42422229863437" lon="6.212073103104986" id="-1441">
		<tag k="name" v="Forekamtjørna" />
=======
	<node id="-15203" lat="58.4193083335" lon="6.23379166901">
		<tag k="name" v="Skogneset" />
		<tag k="natural" v="cape" />
		<tag k="ssr:stedsnr" v="634428" />
	</node>
	<node id="-15196" lat="58.3403972187" lon="6.45638333792">
		<tag k="name" v="Holdalstjørna" />
>>>>>>> e1d4bc35ff8a6074a6f2e91616a996b547c36f15
		<tag k="natural" v="water" />
		<tag k="ssr:stedsnr" v="182764" />
	</node>
<<<<<<< HEAD
	<node lat="58.36006805472705" lon="6.133665222710081" id="-1442">
		<tag k="name" v="Kviksvatnet" />
		<tag k="natural" v="water" />
		<tag k="ssr:stedsnr" v="182954" />
		<tag k="water" v="lake" />
	</node>
	<node lat="58.36074999971267" lon="6.211374994659044" id="-1447">
		<tag k="name" v="Åsetjørna" />
=======
	<node id="-15195" lat="58.3368194485" lon="6.46587499634">
		<tag k="name" v="Løplassen" />
		<tag k="natural" v="beach" />
		<tag k="ssr:stedsnr" v="633995" />
	</node>
	<node id="-15192" lat="58.4311989148" lon="6.43704028138">
		<tag k="name" v="Øvsta Tjødno" />
>>>>>>> e1d4bc35ff8a6074a6f2e91616a996b547c36f15
		<tag k="natural" v="water" />
		<tag k="ssr:stedsnr" v="203460" />
	</node>
<<<<<<< HEAD
	<node lat="58.379167817468755" lon="6.313707114714141" id="-1448">
		<tag k="name" v="Bakkatjørna" />
=======
	<node id="-15189" lat="58.3897583378" lon="6.50389722379">
		<tag k="name" v="Høgelitjørna" />
>>>>>>> e1d4bc35ff8a6074a6f2e91616a996b547c36f15
		<tag k="natural" v="water" />
		<tag k="ssr:stedsnr" v="207214" />
	</node>
<<<<<<< HEAD
	<node lat="58.284580551538085" lon="6.408052781691233" id="-1449">
		<tag k="name" v="Hesten" />
=======
	<node id="-15180" lat="58.371747223" lon="6.27653055382">
		<tag k="name" v="Holmen" />
>>>>>>> e1d4bc35ff8a6074a6f2e91616a996b547c36f15
		<tag k="place" v="islet" />
		<tag k="ssr:stedsnr" v="209048" />
	</node>
<<<<<<< HEAD
	<node lat="58.29274166502609" lon="6.3815138856338995" id="-1451">
		<tag k="name" v="Gullkjella" />
=======
	<node id="-13452" lat="58.3475499999" lon="6.33569722923">
		<tag k="name" v="Bjånes" />
		<tag k="natural" v="cape" />
		<tag k="ssr:stedsnr" v="452287" />
	</node>
	<node id="-15174" lat="58.3386749978" lon="6.46829166255">
		<tag k="name" v="Holmevatnet" />
>>>>>>> e1d4bc35ff8a6074a6f2e91616a996b547c36f15
		<tag k="natural" v="water" />
		<tag k="ssr:stedsnr" v="209059" />
	</node>
<<<<<<< HEAD
	<node lat="58.38595312659587" lon="6.506161276180842" id="-1460">
		<tag k="name" v="Kjørskedaltjørna" />
=======
	<node id="-15170" lat="58.3927750018" lon="6.14630000308">
		<tag k="name" v="Hestvatnet" />
>>>>>>> e1d4bc35ff8a6074a6f2e91616a996b547c36f15
		<tag k="natural" v="water" />
		<tag k="ssr:stedsnr" v="209740" />
	</node>
<<<<<<< HEAD
	<node lat="58.3856777773308" lon="6.331338886895749" id="-1468">
		<tag k="name" v="Toksatjørna" />
=======
	<node id="-15169" lat="58.4058787868" lon="6.20765453635">
		<tag k="name" v="Ålekjertjørna" />
>>>>>>> e1d4bc35ff8a6074a6f2e91616a996b547c36f15
		<tag k="natural" v="water" />
		<tag k="ssr:stedsnr" v="209392" />
	</node>
<<<<<<< HEAD
	<node lat="58.331355552482435" lon="6.33116389473906" id="-1470">
		<tag k="name" v="Skittjørn" />
=======
	<node id="-15161" lat="58.3809749973" lon="6.39252221516">
		<tag k="name" v="Indra Ronavatnet" />
>>>>>>> e1d4bc35ff8a6074a6f2e91616a996b547c36f15
		<tag k="natural" v="water" />
		<tag k="ssr:stedsnr" v="209451" />
	</node>
<<<<<<< HEAD
	<node lat="58.332000003670686" lon="6.328030558171587" id="-1471">
		<tag k="name" v="Kolatjørna" />
=======
	<node id="-15155" lat="58.4360166642" lon="6.21204167374">
		<tag k="name" v="Beiarlundtjørna" />
>>>>>>> e1d4bc35ff8a6074a6f2e91616a996b547c36f15
		<tag k="natural" v="water" />
		<tag k="ssr:stedsnr" v="209452" />
	</node>
<<<<<<< HEAD
	<node lat="58.32712796319695" lon="6.235117138828125" id="-1481">
		<tag k="name" v="Ostervikpollen" />
=======
	<node id="-15154" lat="58.3764750032" lon="6.1666888824">
		<tag k="name" v="Surtetjørn" />
>>>>>>> e1d4bc35ff8a6074a6f2e91616a996b547c36f15
		<tag k="natural" v="water" />
		<tag k="ssr:stedsnr" v="209296" />
	</node>
<<<<<<< HEAD
	<node lat="58.346172221457444" lon="6.343375006009045" id="-1482">
		<tag k="name" v="Sirebekken" />
		<tag k="ssr:stedsnr" v="209299" />
		<tag k="waterway" v="stream" />
	</node>
	<node lat="58.31378333659941" lon="6.453124999143038" id="-1500">
		<tag k="name" v="Hommetjørna" />
=======
	<node id="-15153" lat="58.380448695" lon="6.19749394915">
		<tag k="name" v="Råtjørn" />
>>>>>>> e1d4bc35ff8a6074a6f2e91616a996b547c36f15
		<tag k="natural" v="water" />
		<tag k="ssr:stedsnr" v="209957" />
	</node>
<<<<<<< HEAD
	<node lat="58.328194444338365" lon="6.442708341689957" id="-1506">
		<tag k="name" v="Djupetjørn" />
=======
	<node id="-15148" lat="58.3622027749" lon="6.14438888644">
		<tag k="name" v="Varlitjørn" />
>>>>>>> e1d4bc35ff8a6074a6f2e91616a996b547c36f15
		<tag k="natural" v="water" />
		<tag k="ssr:stedsnr" v="209994" />
	</node>
<<<<<<< HEAD
	<node lat="58.34029999708255" lon="6.476138888363898" id="-1507">
		<tag k="name" v="Ausa" />
		<tag k="natural" v="water" />
		<tag k="ssr:stedsnr" v="209995" />
	</node>
	<node lat="58.340516668382435" lon="6.462030563621665" id="-1508">
		<tag k="name" v="Holmetjørna" />
=======
	<node id="-15144" lat="58.2925749959" lon="6.43710277882">
		<tag k="name" v="Gamlestranda" />
		<tag k="natural" v="beach" />
		<tag k="ssr:stedsnr" v="573972" />
	</node>
	<node id="-15138" lat="58.3783111102" lon="6.47507500118">
		<tag k="name" v="Bukketjørna" />
>>>>>>> e1d4bc35ff8a6074a6f2e91616a996b547c36f15
		<tag k="natural" v="water" />
		<tag k="ssr:stedsnr" v="209997" />
	</node>
<<<<<<< HEAD
	<node lat="58.3544361148915" lon="6.476688896700502" id="-1511">
		<tag k="name" v="Blanka tjødno" />
		<tag k="natural" v="water" />
		<tag k="ssr:stedsnr" v="209856" />
	</node>
	<node lat="58.34673055655072" lon="6.393738896850516" id="-1512">
		<tag k="name" v="Glitretjørn" />
		<tag k="natural" v="water" />
		<tag k="ssr:stedsnr" v="209860" />
	</node>
	<node lat="58.39522098715168" lon="6.399845660456667" id="-1513">
		<tag k="name" v="Svoltjørn" />
=======
	<node id="-15124" lat="58.4017805589" lon="6.27108889433">
		<tag k="name" v="Foreøyna" />
		<tag k="place" v="islet" />
		<tag k="ssr:stedsnr" v="573235" />
	</node>
	<node id="-15123" lat="58.3986055574" lon="6.27576665817">
		<tag k="name" v="Neset" />
		<tag k="natural" v="cape" />
		<tag k="ssr:stedsnr" v="573230" />
	</node>
	<node id="-15122" lat="58.4313669985" lon="6.28233112182">
		<tag k="name" v="Ytra Evjatjørna" />
>>>>>>> e1d4bc35ff8a6074a6f2e91616a996b547c36f15
		<tag k="natural" v="water" />
		<tag k="ssr:stedsnr" v="209821" />
	</node>
<<<<<<< HEAD
	<node lat="58.394897224014805" lon="6.4879333374547015" id="-1514">
		<tag k="name" v="Litlatjørna" />
=======
	<node id="-15119" lat="58.359155559" lon="6.35939443725">
		<tag k="name" v="Skultjørn" />
>>>>>>> e1d4bc35ff8a6074a6f2e91616a996b547c36f15
		<tag k="natural" v="water" />
		<tag k="ssr:stedsnr" v="209823" />
	</node>
<<<<<<< HEAD
	<node lat="58.385524999321" lon="6.417383332698651" id="-1515">
		<tag k="name" v="Kregatjørna" />
		<tag k="natural" v="water" />
		<tag k="ssr:stedsnr" v="209885" />
	</node>
	<node lat="58.36554166490553" lon="6.176511116274139" id="-1522">
		<tag k="name" v="Kjørsletjørn" />
		<tag k="natural" v="water" />
		<tag k="ssr:stedsnr" v="212943" />
	</node>
	<node lat="58.3501444469494" lon="6.18823611935715" id="-1523">
		<tag k="name" v="Heståstjørna" />
=======
	<node id="-15117" lat="58.3205138928" lon="6.26596667073">
		<tag k="name" v="Vallnesodden" />
		<tag k="natural" v="cape" />
		<tag k="ssr:stedsnr" v="573308" />
	</node>
	<node id="-15111" lat="58.2954388894" lon="6.44928889629">
		<tag k="name" v="Logsfossen" />
		<tag k="natural" v="waterfall" />
		<tag k="ssr:stedsnr" v="572975" />
	</node>
	<node id="-15106" lat="58.3337083317" lon="6.3370777732">
		<tag k="name" v="Speglan" />
>>>>>>> e1d4bc35ff8a6074a6f2e91616a996b547c36f15
		<tag k="natural" v="water" />
		<tag k="ssr:stedsnr" v="218931" />
	</node>
<<<<<<< HEAD
	<node lat="58.35517499918341" lon="6.165763881527039" id="-1529">
		<tag k="name" v="Ålkjertjørn" />
		<tag k="natural" v="water" />
		<tag k="ssr:stedsnr" v="273840" />
	</node>
	<node lat="58.39676666972835" lon="6.158177780188705" id="-1530">
		<tag k="name" v="Graudatjørnene" />
		<tag k="natural" v="water" />
		<tag k="ssr:stedsnr" v="281533" />
		<tag k="water" v="lake" />
	</node>
	<node lat="58.366069446442665" lon="6.205044444812034" id="-1537">
		<tag k="name" v="Skidarsholet" />
		<tag k="natural" v="water" />
		<tag k="ssr:stedsnr" v="282937" />
	</node>
	<node lat="58.40286558831076" lon="6.276416243685836" id="-1548">
		<tag k="name" v="Barstadvatnet" />
=======
	<node id="-15105" lat="58.3258888916" lon="6.34863888119">
		<tag k="name" v="Smørskjerodden" />
		<tag k="natural" v="cape" />
		<tag k="ssr:stedsnr" v="572431" />
	</node>
	<node id="-15103" lat="58.3336861128" lon="6.29295555336">
		<tag k="name" v="Brusund" />
		<tag k="natural" v="strait" />
		<tag k="ssr:stedsnr" v="572425" />
	</node>
	<node id="-13460" lat="58.3955305556" lon="6.22656110343">
		<tag k="name" v="Svarthedlerstjørn" />
		<tag k="natural" v="water" />
		<tag k="ssr:stedsnr" v="452437" />
	</node>
	<node id="-15092" lat="58.3241506425" lon="6.31315015535">
		<tag k="name" v="Knubedalstjørna" />
>>>>>>> e1d4bc35ff8a6074a6f2e91616a996b547c36f15
		<tag k="natural" v="water" />
		<tag k="ssr:stedsnr" v="303137" />
		<tag k="water" v="lake" />
	</node>
<<<<<<< HEAD
	<node lat="58.399125003328955" lon="6.502555562744494" id="-1550">
		<tag k="name" v="Gullandsvatnet" />
=======
	<node id="-15084" lat="58.340597222" lon="6.41357221513">
		<tag k="name" v="Gauketjørn" />
>>>>>>> e1d4bc35ff8a6074a6f2e91616a996b547c36f15
		<tag k="natural" v="water" />
		<tag k="ssr:stedsnr" v="303183" />
	</node>
<<<<<<< HEAD
	<node lat="58.433799997657054" lon="6.201699992941453" id="-1556">
		<tag k="name" v="Kristianstjørna" />
=======
	<node id="-15078" lat="58.4627638894" lon="6.43949722624">
		<tag k="name" v="Marigjelvatnan" />
>>>>>>> e1d4bc35ff8a6074a6f2e91616a996b547c36f15
		<tag k="natural" v="water" />
		<tag k="ssr:stedsnr" v="303768" />
	</node>
<<<<<<< HEAD
	<node lat="58.342607228766546" lon="6.375598086114374" id="-1557">
		<tag k="name" v="Oddrevatnet" />
=======
	<node id="-15077" lat="58.436877778" lon="6.39884167244">
		<tag k="name" v="Lomtjørn" />
>>>>>>> e1d4bc35ff8a6074a6f2e91616a996b547c36f15
		<tag k="natural" v="water" />
		<tag k="ssr:stedsnr" v="304221" />
	</node>
<<<<<<< HEAD
	<node lat="58.39562678841031" lon="6.182470634774677" id="-1561">
		<tag k="name" v="Tjuvhellertjørna" />
=======
	<node id="-15073" lat="58.4287999983" lon="6.19297499624">
		<tag k="name" v="Glovheitjørna" />
>>>>>>> e1d4bc35ff8a6074a6f2e91616a996b547c36f15
		<tag k="natural" v="water" />
		<tag k="ssr:stedsnr" v="324432" />
	</node>
<<<<<<< HEAD
	<node lat="58.35093332904302" lon="6.311730557181604" id="-1570">
		<tag k="name" v="Ålgårdselva" />
		<tag k="ssr:stedsnr" v="330278" />
		<tag k="waterway" v="river" />
	</node>
	<node lat="58.32671666508389" lon="6.3647416660824545" id="-1576">
		<tag k="name" v="Lonebekken" />
		<tag k="ssr:stedsnr" v="330460" />
		<tag k="waterway" v="stream" />
	</node>
	<node lat="58.28739999875107" lon="6.350477786135901" id="-1579">
		<tag k="name" v="Mjelkebekken" />
		<tag k="ssr:stedsnr" v="330535" />
		<tag k="waterway" v="stream" />
	</node>
	<node lat="58.413616665003936" lon="6.499575000589279" id="-1585">
		<tag k="name" v="Tjødno i Holet" />
=======
	<node id="-15071" lat="58.3905555593" lon="6.43951111148">
		<tag k="name" v="Mydlandsåna" />
		<tag k="ssr:stedsnr" v="546182" />
		<tag k="waterway" v="stream" />
	</node>
	<node id="-15060" lat="58.3661444472" lon="6.21105832739">
		<tag k="name" v="Finnhagtjørna" />
		<tag k="natural" v="water" />
		<tag k="ssr:stedsnr" v="525924" />
	</node>
	<node id="-15058" lat="58.3524472231" lon="6.20972777972">
		<tag k="name" v="Storemyr" />
>>>>>>> e1d4bc35ff8a6074a6f2e91616a996b547c36f15
		<tag k="natural" v="water" />
		<tag k="ssr:stedsnr" v="330735" />
	</node>
<<<<<<< HEAD
	<node lat="58.4115194473759" lon="6.221308331970397" id="-1590">
		<tag k="name" v="Egersundtjørn" />
=======
	<node id="-15057" lat="58.3870361104" lon="6.19938055993">
		<tag k="name" v="Svartetjørn" />
>>>>>>> e1d4bc35ff8a6074a6f2e91616a996b547c36f15
		<tag k="natural" v="water" />
		<tag k="ssr:stedsnr" v="331396" />
	</node>
<<<<<<< HEAD
	<node lat="58.39576895048204" lon="6.218415080417766" id="-1591">
		<tag k="name" v="Mørkedalstjørn" />
=======
	<node id="-15052" lat="58.4304774263" lon="6.20692526151">
		<tag k="name" v="Fossvatnet" />
>>>>>>> e1d4bc35ff8a6074a6f2e91616a996b547c36f15
		<tag k="natural" v="water" />
		<tag k="ssr:stedsnr" v="331420" />
	</node>
<<<<<<< HEAD
	<node lat="58.3416916622958" lon="6.441722222819966" id="-1594">
		<tag k="name" v="Sultelitjørna" />
=======
	<node id="-15048" lat="58.344272615" lon="6.1888239048">
		<tag k="name" v="Vatlandstjørna" />
>>>>>>> e1d4bc35ff8a6074a6f2e91616a996b547c36f15
		<tag k="natural" v="water" />
		<tag k="ssr:stedsnr" v="331000" />
	</node>
<<<<<<< HEAD
	<node lat="58.39800833091732" lon="6.282163893018102" id="-1600">
		<tag k="name" v="Øyno" />
		<tag k="place" v="islet" />
		<tag k="ssr:stedsnr" v="331233" />
	</node>
	<node lat="58.36538055392386" lon="6.34037777567253" id="-1604">
		<tag k="name" v="Kvenndalsdammen" />
=======
	<node id="-15045" lat="58.3390944435" lon="6.33297499962">
		<tag k="name" v="Skogdalstjørna" />
		<tag k="natural" v="water" />
		<tag k="ssr:stedsnr" v="425237" />
	</node>
	<node id="-15044" lat="58.3630249964" lon="6.35685000235">
		<tag k="name" v="Lomratjørna" />
>>>>>>> e1d4bc35ff8a6074a6f2e91616a996b547c36f15
		<tag k="natural" v="water" />
		<tag k="ssr:stedsnr" v="331333" />
	</node>
<<<<<<< HEAD
	<node lat="58.406964318975064" lon="6.400431363564195" id="-1614">
		<tag k="name" v="Mellevikbukta" />
		<tag k="natural" v="bay" />
		<tag k="ssr:stedsnr" v="331817" />
	</node>
	<node lat="58.395208335997275" lon="6.4047222149581895" id="-1615">
		<tag k="name" v="Valkleivtjørn" />
=======
	<node id="-15042" lat="58.3760944484" lon="6.43294999401">
		<tag k="name" v="Moldalstjørna" />
		<tag k="natural" v="water" />
		<tag k="ssr:stedsnr" v="425171" />
	</node>
	<node id="-15041" lat="58.3715388849" lon="6.4091027821">
		<tag k="name" v="Ålkjertjørna" />
>>>>>>> e1d4bc35ff8a6074a6f2e91616a996b547c36f15
		<tag k="natural" v="water" />
		<tag k="ssr:stedsnr" v="331831" />
	</node>
<<<<<<< HEAD
	<node lat="58.38199444104382" lon="6.468788888223932" id="-1629">
		<tag k="name" v="Runnebølstjørna" />
=======
	<node id="-15039" lat="58.4293952013" lon="6.41488782649">
		<tag k="name" v="Stivla" />
>>>>>>> e1d4bc35ff8a6074a6f2e91616a996b547c36f15
		<tag k="natural" v="water" />
		<tag k="ssr:stedsnr" v="331935" />
	</node>
<<<<<<< HEAD
	<node lat="58.3529404173658" lon="6.176227546999022" id="-1632">
		<tag k="name" v="Stemmetjørn" />
=======
	<node id="-15036" lat="58.3098944489" lon="6.37653333881">
		<tag k="name" v="Livatnet" />
>>>>>>> e1d4bc35ff8a6074a6f2e91616a996b547c36f15
		<tag k="natural" v="water" />
		<tag k="ssr:stedsnr" v="333928" />
	</node>
<<<<<<< HEAD
	<node lat="58.37191388767788" lon="6.143022223820026" id="-1635">
		<tag k="name" v="Rogntjønnmyra" />
		<tag k="natural" v="bay" />
		<tag k="ssr:stedsnr" v="343225" />
	</node>
	<node lat="58.37577777650039" lon="6.147019440398201" id="-1636">
		<tag k="name" v="Smålitjørna" />
		<tag k="natural" v="water" />
		<tag k="ssr:stedsnr" v="343229" />
	</node>
	<node lat="58.36788055131662" lon="6.197563897511834" id="-1638">
		<tag k="name" v="Tripselitjørn" />
=======
	<node id="-15025" lat="58.3490277807" lon="6.17545278246">
		<tag k="name" v="Stora Skartjørn" />
		<tag k="natural" v="water" />
		<tag k="ssr:stedsnr" v="394835" />
	</node>
	<node id="-15021" lat="58.3668611133" lon="6.39867499471">
		<tag k="name" v="Ålkjerbekken" />
		<tag k="ssr:stedsnr" v="391948" />
		<tag k="waterway" v="stream" />
	</node>
	<node id="-15013" lat="58.3621416672" lon="6.38513888703">
		<tag k="name" v="Stora Asaltjørna" />
>>>>>>> e1d4bc35ff8a6074a6f2e91616a996b547c36f15
		<tag k="natural" v="water" />
		<tag k="ssr:stedsnr" v="343884" />
	</node>
<<<<<<< HEAD
	<node lat="58.34703888732213" lon="6.163988882230234" id="-1640">
		<tag k="name" v="Litleheitjørn" />
=======
	<node id="-15011" lat="58.4134560228" lon="6.4951308795">
		<tag k="name" v="Svarta Tjødno" />
>>>>>>> e1d4bc35ff8a6074a6f2e91616a996b547c36f15
		<tag k="natural" v="water" />
		<tag k="ssr:stedsnr" v="343937" />
	</node>
<<<<<<< HEAD
	<node lat="58.38444444087254" lon="6.156827771222572" id="-1641">
		<tag k="name" v="Kleivahølen" />
=======
	<node id="-15004" lat="58.3986638924" lon="6.39484166522">
		<tag k="name" v="Voiletjørn" />
>>>>>>> e1d4bc35ff8a6074a6f2e91616a996b547c36f15
		<tag k="natural" v="water" />
		<tag k="ssr:stedsnr" v="345241" />
	</node>
<<<<<<< HEAD
	<node lat="58.42786944184144" lon="6.245622230055306" id="-1647">
		<tag k="name" v="Øygøyna" />
		<tag k="place" v="islet" />
		<tag k="ssr:stedsnr" v="356881" />
	</node>
	<node lat="58.37653610942982" lon="6.4958499955232645" id="-1655">
		<tag k="name" v="Åsvolltjørna" />
=======
	<node id="-14998" lat="58.2982666624" lon="6.34331943692">
		<tag k="name" v="Åltjørn" />
>>>>>>> e1d4bc35ff8a6074a6f2e91616a996b547c36f15
		<tag k="natural" v="water" />
		<tag k="ssr:stedsnr" v="364197" />
	</node>
<<<<<<< HEAD
	<node lat="58.40644721795559" lon="6.2407194434119875" id="-1656">
		<tag k="name" v="Vassbottjørna" />
=======
	<node id="-14996" lat="58.3510416643" lon="6.24459999619">
		<tag k="name" v="Postbakktjørn" />
>>>>>>> e1d4bc35ff8a6074a6f2e91616a996b547c36f15
		<tag k="natural" v="water" />
		<tag k="ssr:stedsnr" v="364147" />
	</node>
<<<<<<< HEAD
	<node lat="58.444530556667594" lon="6.47196666050798" id="-1658">
		<tag k="name" v="Tangavatnet" />
		<tag k="natural" v="water" />
		<tag k="ssr:stedsnr" v="364896" />
	</node>
	<node lat="58.41628889243055" lon="6.242116673948984" id="-1680">
		<tag k="name" v="Vinjaholmen" />
		<tag k="place" v="islet" />
		<tag k="ssr:stedsnr" v="391426" />
	</node>
	<node lat="58.333080557122344" lon="6.28881666168949" id="-1681">
=======
	<node id="-14990" lat="58.4360472267" lon="6.22586944443">
		<tag k="name" v="Foss-å" />
		<tag k="ssr:stedsnr" v="391484" />
		<tag k="waterway" v="river" />
	</node>
	<node id="-14988" lat="58.3302111153" lon="6.29157500406">
		<tag k="name" v="Kjellandsånå" />
		<tag k="ssr:stedsnr" v="391436" />
		<tag k="waterway" v="river" />
	</node>
	<node id="-14985" lat="58.3330805571" lon="6.28881666169">
>>>>>>> e1d4bc35ff8a6074a6f2e91616a996b547c36f15
		<tag k="name" v="Årstadøyna" />
		<tag k="place" v="island" />
		<tag k="ssr:stedsnr" v="391430" />
	</node>
<<<<<<< HEAD
	<node lat="58.351041664277346" lon="6.2445999961904874" id="-1690">
		<tag k="name" v="Postbakktjørn" />
		<tag k="natural" v="water" />
		<tag k="ssr:stedsnr" v="391531" />
	</node>
	<node lat="58.31605833111135" lon="6.312311103520803" id="-1693">
=======
	<node id="-14984" lat="58.4162888924" lon="6.24211667395">
		<tag k="name" v="Vinjaholmen" />
		<tag k="place" v="islet" />
		<tag k="ssr:stedsnr" v="391426" />
	</node>
	<node id="-14979" lat="58.3691249956" lon="6.28424722611">
		<tag k="name" v="Litle-Rosslandshølen" />
		<tag k="place" v="locality" />
		<tag k="ssr:stedsnr" v="391388" />
	</node>
	<node id="-14977" lat="58.3160583311" lon="6.31231110352">
>>>>>>> e1d4bc35ff8a6074a6f2e91616a996b547c36f15
		<tag k="name" v="Ramsdalstjørna" />
		<tag k="natural" v="water" />
		<tag k="ssr:stedsnr" v="391365" />
	</node>
<<<<<<< HEAD
	<node lat="58.47066110791246" lon="6.266416671947126" id="-1697">
=======
	<node id="-14974" lat="58.4706611079" lon="6.26641667195">
>>>>>>> e1d4bc35ff8a6074a6f2e91616a996b547c36f15
		<tag k="name" v="Skjevlatjørn" />
		<tag k="natural" v="water" />
		<tag k="ssr:stedsnr" v="391472" />
	</node>
<<<<<<< HEAD
	<node lat="58.41345602279619" lon="6.495130879499963" id="-1700">
		<tag k="name" v="Svarta Tjødno" />
		<tag k="natural" v="water" />
		<tag k="ssr:stedsnr" v="391728" />
	</node>
	<node lat="58.385469444441505" lon="6.415419438809508" id="-1702">
		<tag k="name" v="Ytrabøhølen" />
		<tag k="place" v="locality" />
		<tag k="ssr:stedsnr" v="391914" />
	</node>
	<node lat="58.38190278064946" lon="6.5087833322126905" id="-1708">
		<tag k="name" v="Kutjørna" />
=======
	<node id="-14962" lat="58.3948777769" lon="6.28318333166">
		<tag k="name" v="Kalvhusvika" />
		<tag k="natural" v="bay" />
		<tag k="ssr:stedsnr" v="391237" />
	</node>
	<node id="-14959" lat="58.4109333361" lon="6.36398611713">
		<tag k="name" v="Torvsteinmyrtjørna" />
>>>>>>> e1d4bc35ff8a6074a6f2e91616a996b547c36f15
		<tag k="natural" v="water" />
		<tag k="ssr:stedsnr" v="391760" />
	</node>
	<node lat="58.39866389240391" lon="6.394841665222681" id="-1709">
		<tag k="name" v="Voiletjørn" />
		<tag k="natural" v="water" />
		<tag k="ssr:stedsnr" v="391835" />
	</node>
	<node lat="58.362141667249304" lon="6.3851388870304415" id="-1717">
		<tag k="name" v="Stora Asaltjørna" />
		<tag k="natural" v="water" />
		<tag k="ssr:stedsnr" v="391878" />
	</node>
	<node lat="58.36686111334714" lon="6.398674994705241" id="-1718">
		<tag k="name" v="Ålkjerbekken" />
		<tag k="ssr:stedsnr" v="391948" />
		<tag k="waterway" v="stream" />
	</node>
<<<<<<< HEAD
	<node lat="58.36681175827335" lon="6.38630243017676" id="-1719">
		<tag k="name" v="Stora Turrheitjørna" />
=======
	<node id="-14958" lat="58.4267444433" lon="6.37697777872">
		<tag k="name" v="Støtjørn" />
>>>>>>> e1d4bc35ff8a6074a6f2e91616a996b547c36f15
		<tag k="natural" v="water" />
		<tag k="ssr:stedsnr" v="391957" />
	</node>
<<<<<<< HEAD
	<node lat="58.37153888490925" lon="6.4091027820988895" id="-1737">
		<tag k="name" v="Ålkjertjørna" />
=======
	<node id="-14954" lat="58.3565055549" lon="6.20077499645">
		<tag k="name" v="Faksetjørna" />
>>>>>>> e1d4bc35ff8a6074a6f2e91616a996b547c36f15
		<tag k="natural" v="water" />
		<tag k="ssr:stedsnr" v="425169" />
	</node>
<<<<<<< HEAD
	<node lat="58.376094448418336" lon="6.432949994006362" id="-1738">
		<tag k="name" v="Moldalstjørna" />
=======
	<node id="-14953" lat="58.4445305567" lon="6.47196666051">
		<tag k="name" v="Tangavatnet" />
>>>>>>> e1d4bc35ff8a6074a6f2e91616a996b547c36f15
		<tag k="natural" v="water" />
		<tag k="ssr:stedsnr" v="425171" />
	</node>
<<<<<<< HEAD
	<node lat="58.42939520129271" lon="6.414887826490306" id="-1741">
		<tag k="name" v="Stivla" />
=======
	<node id="-14951" lat="58.406447218" lon="6.24071944341">
		<tag k="name" v="Vassbottjørna" />
>>>>>>> e1d4bc35ff8a6074a6f2e91616a996b547c36f15
		<tag k="natural" v="water" />
		<tag k="ssr:stedsnr" v="425141" />
		<tag k="water" v="lake" />
	</node>
<<<<<<< HEAD
	<node lat="58.36617500155767" lon="6.427433339903353" id="-1742">
		<tag k="name" v="Guddalsvatnet" />
=======
	<node id="-14949" lat="58.3097444473" lon="6.41727778584">
		<tag k="name" v="Logsvatnet" />
>>>>>>> e1d4bc35ff8a6074a6f2e91616a996b547c36f15
		<tag k="natural" v="water" />
		<tag k="ssr:stedsnr" v="425206" />
		<tag k="water" v="lake" />
	</node>
<<<<<<< HEAD
	<node lat="58.30989444887749" lon="6.376533338809822" id="-1743">
		<tag k="name" v="Livatnet" />
=======
	<node id="-14947" lat="58.2905564069" lon="6.39841804419">
		<tag k="name" v="Løyningstjørna" />
>>>>>>> e1d4bc35ff8a6074a6f2e91616a996b547c36f15
		<tag k="natural" v="water" />
		<tag k="ssr:stedsnr" v="425221" />
	</node>
<<<<<<< HEAD
	<node lat="58.339094443522946" lon="6.332974999615288" id="-1745">
		<tag k="name" v="Skogdalstjørna" />
=======
	<node id="-14946" lat="58.3351348109" lon="6.31958967588">
		<tag k="name" v="Årstadtjørna" />
>>>>>>> e1d4bc35ff8a6074a6f2e91616a996b547c36f15
		<tag k="natural" v="water" />
		<tag k="ssr:stedsnr" v="425237" />
	</node>
<<<<<<< HEAD
	<node lat="58.3442726150157" lon="6.188823904796362" id="-1746">
		<tag k="name" v="Vatlandstjørna" />
=======
	<node id="-14944" lat="58.3899861118" lon="6.30921665997">
		<tag k="name" v="Svaletjørna" />
>>>>>>> e1d4bc35ff8a6074a6f2e91616a996b547c36f15
		<tag k="natural" v="water" />
		<tag k="ssr:stedsnr" v="425934" />
	</node>
<<<<<<< HEAD
	<node lat="58.32274166441798" lon="6.32194444846605" id="-1752">
		<tag k="name" v="Gamla Stemmetjørna" />
=======
	<node id="-14943" lat="58.3765361094" lon="6.49584999552">
		<tag k="name" v="Åsvolltjørna" />
>>>>>>> e1d4bc35ff8a6074a6f2e91616a996b547c36f15
		<tag k="natural" v="water" />
		<tag k="ssr:stedsnr" v="512335" />
	</node>
<<<<<<< HEAD
	<node lat="58.31123332990496" lon="6.339161113979773" id="-1754">
		<tag k="name" v="Butjørna" />
=======
	<node id="-14939" lat="58.4150055566" lon="6.46958888553">
		<tag k="name" v="Krogevatnet" />
>>>>>>> e1d4bc35ff8a6074a6f2e91616a996b547c36f15
		<tag k="natural" v="water" />
		<tag k="ssr:stedsnr" v="512350" />
	</node>
<<<<<<< HEAD
	<node lat="58.37512499579993" lon="6.277286108905187" id="-1757">
		<tag k="name" v="Rosslandsåna" />
		<tag k="ssr:stedsnr" v="512362" />
		<tag k="waterway" v="river" />
	</node>
	<node lat="58.32493055394865" lon="6.352291662600601" id="-1761">
		<tag k="name" v="Smørskjerbukta" />
		<tag k="natural" v="bay" />
		<tag k="ssr:stedsnr" v="512444" />
	</node>
	<node lat="58.33982778154101" lon="6.396594446766024" id="-1762">
		<tag k="name" v="Stakkedalstjørna" />
=======
	<node id="-14936" lat="58.4278694418" lon="6.24562223006">
		<tag k="name" v="Øygøyna" />
		<tag k="place" v="islet" />
		<tag k="ssr:stedsnr" v="356881" />
	</node>
	<node id="-14932" lat="58.3844444409" lon="6.15682777122">
		<tag k="name" v="Kleivahølen" />
		<tag k="natural" v="water" />
		<tag k="ssr:stedsnr" v="345241" />
	</node>
	<node id="-14931" lat="58.3470388873" lon="6.16398888223">
		<tag k="name" v="Litleheitjørn" />
>>>>>>> e1d4bc35ff8a6074a6f2e91616a996b547c36f15
		<tag k="natural" v="water" />
		<tag k="ssr:stedsnr" v="512012" />
	</node>
<<<<<<< HEAD
	<node lat="58.29728332914438" lon="6.3423805621102565" id="-1763">
		<tag k="name" v="Kvednebekken" />
		<tag k="ssr:stedsnr" v="512398" />
		<tag k="waterway" v="stream" />
	</node>
	<node lat="58.37768333609656" lon="6.492452776257825" id="-1774">
		<tag k="name" v="Stronno" />
		<tag k="natural" v="beach" />
		<tag k="ssr:stedsnr" v="512765" />
	</node>
	<node lat="58.27936667060871" lon="6.365122225519152" id="-1775">
		<tag k="name" v="Besodden" />
		<tag k="natural" v="cape" />
		<tag k="ssr:stedsnr" v="512404" />
	</node>
	<node lat="58.45700833166392" lon="6.438052784665821" id="-1781">
		<tag k="name" v="Hommahølen" />
		<tag k="place" v="locality" />
		<tag k="ssr:stedsnr" v="512689" />
	</node>
	<node lat="58.304511941958204" lon="6.4163816388259445" id="-1786">
		<tag k="name" v="Einstaptjørn" />
=======
	<node id="-14929" lat="58.3678805513" lon="6.19756389751">
		<tag k="name" v="Tripselitjørn" />
>>>>>>> e1d4bc35ff8a6074a6f2e91616a996b547c36f15
		<tag k="natural" v="water" />
		<tag k="ssr:stedsnr" v="512958" />
	</node>
<<<<<<< HEAD
	<node lat="58.404766669592476" lon="6.272402775664663" id="-1792">
		<tag k="name" v="Fossnesodden" />
		<tag k="natural" v="cape" />
		<tag k="ssr:stedsnr" v="513255" />
	</node>
	<node lat="58.410866666149055" lon="6.247397214870435" id="-1804">
		<tag k="name" v="Graudetjørna" />
=======
	<node id="-14928" lat="58.3869222245" lon="6.16326667141">
		<tag k="name" v="Tuetjørn" />
>>>>>>> e1d4bc35ff8a6074a6f2e91616a996b547c36f15
		<tag k="natural" v="water" />
		<tag k="ssr:stedsnr" v="513436" />
	</node>
<<<<<<< HEAD
	<node lat="58.34771311911147" lon="6.252270193185491" id="-1807">
		<tag k="name" v="Heggdalstjørna" />
=======
	<node id="-14927" lat="58.3757777765" lon="6.1470194404">
		<tag k="name" v="Smålitjørna" />
>>>>>>> e1d4bc35ff8a6074a6f2e91616a996b547c36f15
		<tag k="natural" v="water" />
		<tag k="ssr:stedsnr" v="513536" />
	</node>
<<<<<<< HEAD
	<node lat="58.405647226793185" lon="6.405977783976879" id="-1812">
		<tag k="name" v="Øvre hølen" />
		<tag k="place" v="locality" />
		<tag k="ssr:stedsnr" v="513827" />
	</node>
	<node lat="58.42075277861793" lon="6.417149996693179" id="-1818">
		<tag k="name" v="Migaren" />
		<tag k="ssr:stedsnr" v="513858" />
		<tag k="waterway" v="stream" />
	</node>
	<node lat="58.36313610943588" lon="6.1787555499047935" id="-1821">
		<tag k="name" v="Svartetjørn" />
		<tag k="natural" v="water" />
		<tag k="ssr:stedsnr" v="515945" />
	</node>
	<node lat="58.38703611036266" lon="6.19938055992924" id="-1826">
		<tag k="name" v="Svartetjørn" />
=======
	<node id="-14926" lat="58.3719138877" lon="6.14302222382">
		<tag k="name" v="Rogntjønnmyra" />
		<tag k="natural" v="bay" />
		<tag k="ssr:stedsnr" v="343225" />
	</node>
	<node id="-14910" lat="58.395208336" lon="6.40472221496">
		<tag k="name" v="Valkleivtjørn" />
		<tag k="natural" v="water" />
		<tag k="ssr:stedsnr" v="331831" />
	</node>
	<node id="-14909" lat="58.406964319" lon="6.40043136356">
		<tag k="name" v="Mellevikbukta" />
		<tag k="natural" v="bay" />
		<tag k="ssr:stedsnr" v="331817" />
	</node>
	<node id="-14906" lat="58.3783311645" lon="6.40583792417">
		<tag k="name" v="Espelitjørna" />
>>>>>>> e1d4bc35ff8a6074a6f2e91616a996b547c36f15
		<tag k="natural" v="water" />
		<tag k="ssr:stedsnr" v="525847" />
	</node>
<<<<<<< HEAD
	<node lat="58.36614444716398" lon="6.211058327387789" id="-1827">
		<tag k="name" v="Finnhagtjørna" />
=======
	<node id="-14904" lat="58.381994441" lon="6.46878888822">
		<tag k="name" v="Runnebølstjørna" />
>>>>>>> e1d4bc35ff8a6074a6f2e91616a996b547c36f15
		<tag k="natural" v="water" />
		<tag k="ssr:stedsnr" v="525924" />
	</node>
<<<<<<< HEAD
	<node lat="58.38523889230254" lon="6.152211115836574" id="-1828">
		<tag k="name" v="Åshølen" />
		<tag k="natural" v="water" />
		<tag k="ssr:stedsnr" v="527244" />
	</node>
	<node lat="58.42879999828542" lon="6.192974996237784" id="-1838">
		<tag k="name" v="Glovheitjørna" />
=======
	<node id="-14897" lat="58.4115194474" lon="6.22130833197">
		<tag k="name" v="Egersundtjørn" />
>>>>>>> e1d4bc35ff8a6074a6f2e91616a996b547c36f15
		<tag k="natural" v="water" />
		<tag k="ssr:stedsnr" v="546753" />
	</node>
<<<<<<< HEAD
	<node lat="58.340597222035875" lon="6.413572215128846" id="-1844">
		<tag k="name" v="Gauketjørn" />
		<tag k="natural" v="water" />
		<tag k="ssr:stedsnr" v="572022" />
	</node>
	<node lat="58.38128055143553" lon="6.287522218273359" id="-1847">
		<tag k="name" v="Syngjartjørna" />
=======
	<node id="-14890" lat="58.3957689505" lon="6.21841508042">
		<tag k="name" v="Mørkedalstjørn" />
		<tag k="natural" v="water" />
		<tag k="ssr:stedsnr" v="331420" />
	</node>
	<node id="-14889" lat="58.4094722251" lon="6.26192499695">
		<tag k="name" v="Nordre Butangen" />
		<tag k="natural" v="cape" />
		<tag k="ssr:stedsnr" v="331418" />
	</node>
	<node id="-14879" lat="58.3416916623" lon="6.44172222282">
		<tag k="name" v="Sultelitjørna" />
>>>>>>> e1d4bc35ff8a6074a6f2e91616a996b547c36f15
		<tag k="natural" v="water" />
		<tag k="ssr:stedsnr" v="572362" />
	</node>
<<<<<<< HEAD
	<node lat="58.32415064254757" lon="6.313150155351003" id="-1851">
		<tag k="name" v="Knubedalstjørna" />
=======
	<node id="-14874" lat="58.318883337" lon="6.40525277837">
		<tag k="name" v="Sandtjørn" />
>>>>>>> e1d4bc35ff8a6074a6f2e91616a996b547c36f15
		<tag k="natural" v="water" />
		<tag k="ssr:stedsnr" v="572343" />
	</node>
<<<<<<< HEAD
	<node lat="58.33368611279284" lon="6.292955553361708" id="-1854">
		<tag k="name" v="Brusund" />
		<tag k="natural" v="strait" />
		<tag k="ssr:stedsnr" v="572425" />
	</node>
	<node lat="58.32588889159507" lon="6.348638881192117" id="-1856">
		<tag k="name" v="Smørskjerodden" />
		<tag k="natural" v="cape" />
		<tag k="ssr:stedsnr" v="572431" />
	</node>
	<node lat="58.29543888944627" lon="6.449288896285884" id="-1866">
		<tag k="name" v="Logsfossen" />
		<tag k="natural" v="waterfall" />
		<tag k="ssr:stedsnr" v="572975" />
	</node>
	<node lat="58.45159234556987" lon="6.2798801758165945" id="-1873">
		<tag k="name" v="Eiatjørna" />
=======
	<node id="-14870" lat="58.413616665" lon="6.49957500059">
		<tag k="name" v="Tjødno i Holet" />
>>>>>>> e1d4bc35ff8a6074a6f2e91616a996b547c36f15
		<tag k="natural" v="water" />
		<tag k="ssr:stedsnr" v="573117" />
	</node>
<<<<<<< HEAD
	<node lat="58.398605557354905" lon="6.275766658172381" id="-1876">
		<tag k="name" v="Neset" />
		<tag k="natural" v="cape" />
		<tag k="ssr:stedsnr" v="573230" />
	</node>
	<node lat="58.40178055887306" lon="6.271088894329186" id="-1877">
		<tag k="name" v="Foreøyna" />
		<tag k="place" v="islet" />
		<tag k="ssr:stedsnr" v="573235" />
	</node>
	<node lat="58.359155558994175" lon="6.359394437247431" id="-1883">
		<tag k="name" v="Skultjørn" />
=======
	<node id="-14866" lat="58.3267166651" lon="6.36474166608">
		<tag k="name" v="Lonebekken" />
		<tag k="ssr:stedsnr" v="330460" />
		<tag k="waterway" v="stream" />
	</node>
	<node id="-14856" lat="58.350933329" lon="6.31173055718">
		<tag k="name" v="Ålgårdselva" />
		<tag k="ssr:stedsnr" v="330278" />
		<tag k="waterway" v="river" />
	</node>
	<node id="-14846" lat="58.4225555536" lon="6.28010832734">
		<tag k="name" v="Gygretjørna" />
>>>>>>> e1d4bc35ff8a6074a6f2e91616a996b547c36f15
		<tag k="natural" v="water" />
		<tag k="ssr:stedsnr" v="573318" />
	</node>
<<<<<<< HEAD
	<node lat="58.35842777949004" lon="6.471099991336609" id="-1887">
		<tag k="name" v="Rusketjørna" />
=======
	<node id="-13397" lat="58.4090944476" lon="6.2627694439">
		<tag k="name" v="Søre Butangen" />
		<tag k="natural" v="cape" />
		<tag k="ssr:stedsnr" v="209433" />
	</node>
	<node id="-14843" lat="58.345968351" lon="6.16745415098">
		<tag k="name" v="Krogevatnet" />
>>>>>>> e1d4bc35ff8a6074a6f2e91616a996b547c36f15
		<tag k="natural" v="water" />
		<tag k="ssr:stedsnr" v="573854" />
	</node>
<<<<<<< HEAD
	<node lat="58.37831111021722" lon="6.475075001176583" id="-1892">
		<tag k="name" v="Bukketjørna" />
=======
	<node id="-14841" lat="58.3991250033" lon="6.50255556274">
		<tag k="name" v="Gullandsvatnet" />
>>>>>>> e1d4bc35ff8a6074a6f2e91616a996b547c36f15
		<tag k="natural" v="water" />
		<tag k="ssr:stedsnr" v="573891" />
	</node>
<<<<<<< HEAD
	<node lat="58.29257499590749" lon="6.437102778817677" id="-1896">
		<tag k="name" v="Gamlestranda" />
		<tag k="natural" v="beach" />
		<tag k="ssr:stedsnr" v="573972" />
	</node>
	<node lat="58.36220277490991" lon="6.144388886444129" id="-1898">
		<tag k="name" v="Varlitjørn" />
=======
	<node id="-13396" lat="58.3250277786" lon="6.28398611464">
		<tag k="name" v="Sokno" />
		<tag k="ssr:stedsnr" v="209427" />
		<tag k="waterway" v="river" />
	</node>
	<node id="-14836" lat="58.4011985648" lon="6.27411928064">
		<tag k="name" v="Barstadvatnet" />
>>>>>>> e1d4bc35ff8a6074a6f2e91616a996b547c36f15
		<tag k="natural" v="water" />
		<tag k="ssr:stedsnr" v="584785" />
	</node>
<<<<<<< HEAD
	<node lat="58.354655551174574" lon="6.1894333359749405" id="-1901">
		<tag k="name" v="Djubetjørn" />
=======
	<node id="-14830" lat="58.3405166684" lon="6.46203056362">
		<tag k="name" v="Holmetjørna" />
>>>>>>> e1d4bc35ff8a6074a6f2e91616a996b547c36f15
		<tag k="natural" v="water" />
		<tag k="ssr:stedsnr" v="585920" />
	</node>
<<<<<<< HEAD
	<node lat="58.43601666420166" lon="6.212041673742754" id="-1902">
		<tag k="name" v="Beiarlundtjørna" />
=======
	<node id="-14829" lat="58.3402999971" lon="6.47613888836">
		<tag k="name" v="Ausa" />
>>>>>>> e1d4bc35ff8a6074a6f2e91616a996b547c36f15
		<tag k="natural" v="water" />
		<tag k="ssr:stedsnr" v="587380" />
	</node>
<<<<<<< HEAD
	<node lat="58.29984166529089" lon="6.395291661574542" id="-1910">
		<tag k="name" v="Såvatnet" />
=======
	<node id="-14828" lat="58.3281944443" lon="6.44270834169">
		<tag k="name" v="Djupetjørn" />
>>>>>>> e1d4bc35ff8a6074a6f2e91616a996b547c36f15
		<tag k="natural" v="water" />
		<tag k="ssr:stedsnr" v="606022" />
	</node>
<<<<<<< HEAD
	<node lat="58.38097499726817" lon="6.392522215155666" id="-1911">
		<tag k="name" v="Indra Ronavatnet" />
=======
	<node id="-14822" lat="58.3137833366" lon="6.45312499914">
		<tag k="name" v="Hommetjørna" />
>>>>>>> e1d4bc35ff8a6074a6f2e91616a996b547c36f15
		<tag k="natural" v="water" />
		<tag k="ssr:stedsnr" v="606158" />
		<tag k="water" v="lake" />
	</node>
<<<<<<< HEAD
	<node lat="58.405878786804486" lon="6.207654536351756" id="-1919">
		<tag k="name" v="Ålekjertjørna" />
=======
	<node id="-14818" lat="58.3855249993" lon="6.4173833327">
		<tag k="name" v="Kregatjørna" />
>>>>>>> e1d4bc35ff8a6074a6f2e91616a996b547c36f15
		<tag k="natural" v="water" />
		<tag k="ssr:stedsnr" v="606990" />
	</node>
<<<<<<< HEAD
	<node lat="58.38045004916039" lon="6.213204409529234" id="-1920">
		<tag k="name" v="Selebøvatnet" />
=======
	<node id="-14817" lat="58.3467305566" lon="6.39373889685">
		<tag k="name" v="Glitretjørn" />
>>>>>>> e1d4bc35ff8a6074a6f2e91616a996b547c36f15
		<tag k="natural" v="water" />
		<tag k="ssr:stedsnr" v="607975" />
	</node>
<<<<<<< HEAD
	<node lat="58.27903610960257" lon="6.368161103156785" id="-1927">
		<tag k="name" v="Stora Teinevik" />
		<tag k="natural" v="bay" />
		<tag k="ssr:stedsnr" v="633420" />
	</node>
	<node lat="58.304977781028406" lon="6.354800000475861" id="-1934">
		<tag k="name" v="Litla Torrisvatnet" />
=======
	<node id="-14816" lat="58.3544361149" lon="6.4766888967">
		<tag k="name" v="Blanka tjødno" />
>>>>>>> e1d4bc35ff8a6074a6f2e91616a996b547c36f15
		<tag k="natural" v="water" />
		<tag k="ssr:stedsnr" v="633361" />
		<tag k="water" v="lake" />
	</node>
<<<<<<< HEAD
	<node lat="58.314655559608084" lon="6.321719444051173" id="-1935">
		<tag k="name" v="Krogtjørna" />
=======
	<node id="-13392" lat="58.3365525735" lon="6.39833428131">
		<tag k="name" v="Nesane" />
		<tag k="natural" v="water" />
		<tag k="ssr:stedsnr" v="209011" />
	</node>
	<node id="-14809" lat="58.3859531266" lon="6.50616127618">
		<tag k="name" v="Kjørskedaltjørna" />
>>>>>>> e1d4bc35ff8a6074a6f2e91616a996b547c36f15
		<tag k="natural" v="water" />
		<tag k="ssr:stedsnr" v="633364" />
	</node>
<<<<<<< HEAD
	<node lat="58.324324995857964" lon="6.35982777735186" id="-1938">
		<tag k="name" v="Inntaksdammen" />
=======
	<node id="-14807" lat="58.3856777773" lon="6.3313388869">
		<tag k="name" v="Toksatjørna" />
>>>>>>> e1d4bc35ff8a6074a6f2e91616a996b547c36f15
		<tag k="natural" v="water" />
		<tag k="ssr:stedsnr" v="633453" />
	</node>
<<<<<<< HEAD
	<node lat="58.43119891479609" lon="6.437040281381374" id="-1944">
		<tag k="name" v="Øvsta Tjødno" />
=======
	<node id="-15095" lat="58.3812805514" lon="6.28752221827">
		<tag k="name" v="Syngjartjørna" />
		<tag k="natural" v="water" />
		<tag k="ssr:stedsnr" v="572362" />
	</node>
	<node id="-14790" lat="58.3320000037" lon="6.32803055817">
		<tag k="name" v="Kolatjørna" />
>>>>>>> e1d4bc35ff8a6074a6f2e91616a996b547c36f15
		<tag k="natural" v="water" />
		<tag k="ssr:stedsnr" v="633649" />
	</node>
<<<<<<< HEAD
	<node lat="58.43764167003017" lon="6.431161111590646" id="-1945">
		<tag k="name" v="Linborgåna" />
		<tag k="ssr:stedsnr" v="633663" />
		<tag k="waterway" v="river" />
	</node>
	<node lat="58.336819448493074" lon="6.465874996342562" id="-1946">
		<tag k="name" v="Løplassen" />
		<tag k="natural" v="beach" />
		<tag k="ssr:stedsnr" v="633995" />
	</node>
	<node lat="58.34039721867828" lon="6.456383337918874" id="-1947">
		<tag k="name" v="Holdalstjørna" />
=======
	<node id="-14789" lat="58.3313555525" lon="6.33116389474">
		<tag k="name" v="Skittjørn" />
>>>>>>> e1d4bc35ff8a6074a6f2e91616a996b547c36f15
		<tag k="natural" v="water" />
		<tag k="ssr:stedsnr" v="633996" />
	</node>
<<<<<<< HEAD
	<node lat="58.31379306438235" lon="6.415888465655334" id="-1949">
		<tag k="name" v="Nedsta Gauknetjørn" />
		<tag k="natural" v="water" />
		<tag k="ssr:stedsnr" v="633956" />
	</node>
	<node lat="58.32261944051047" lon="6.380813895570485" id="-1950">
		<tag k="name" v="Lonene" />
=======
	<node id="-14787" lat="58.3461722215" lon="6.34337500601">
		<tag k="name" v="Sirebekken" />
		<tag k="ssr:stedsnr" v="209299" />
		<tag k="waterway" v="stream" />
	</node>
	<node id="-14786" lat="58.3271279632" lon="6.23511713883">
		<tag k="name" v="Ostervikpollen" />
>>>>>>> e1d4bc35ff8a6074a6f2e91616a996b547c36f15
		<tag k="natural" v="water" />
		<tag k="ssr:stedsnr" v="633957" />
		<tag k="water" v="lake" />
	</node>
<<<<<<< HEAD
	<node lat="58.45482222283039" lon="6.31724722991594" id="-1956">
		<tag k="name" v="Ommundsodden" />
		<tag k="natural" v="cape" />
		<tag k="ssr:stedsnr" v="634118" />
	</node>
	<node lat="58.331194446152296" lon="6.231616658315541" id="-1959">
		<tag k="name" v="Nordnestjørna" />
=======
	<node id="-14772" lat="58.4496277793" lon="6.28045000145">
		<tag k="name" v="Øyno" />
		<tag k="place" v="island" />
		<tag k="ssr:stedsnr" v="209177" />
	</node>
	<node id="-14767" lat="58.3791678175" lon="6.31370711471">
		<tag k="name" v="Bakkatjørna" />
>>>>>>> e1d4bc35ff8a6074a6f2e91616a996b547c36f15
		<tag k="natural" v="water" />
		<tag k="ssr:stedsnr" v="634323" />
	</node>
<<<<<<< HEAD
	<node lat="58.450283331751294" lon="6.291100008039901" id="-1961">
		<tag k="name" v="Glubebekkem" />
		<tag k="ssr:stedsnr" v="634156" />
		<tag k="waterway" v="stream" />
	</node>
	<node lat="58.39173611071287" lon="6.274577779396359" id="-1963">
		<tag k="name" v="Lislåttjørna" />
=======
	<node id="-14764" lat="58.292741665" lon="6.38151388563">
		<tag k="name" v="Gullkjella" />
>>>>>>> e1d4bc35ff8a6074a6f2e91616a996b547c36f15
		<tag k="natural" v="water" />
		<tag k="ssr:stedsnr" v="634255" />
	</node>
<<<<<<< HEAD
	<node lat="58.34049721822189" lon="6.259627773739145" id="-1965">
		<tag k="name" v="Bråsund" />
		<tag k="natural" v="strait" />
		<tag k="ssr:stedsnr" v="634352" />
	</node>
	<node lat="58.35590555937304" lon="6.366713888566755" id="-1966">
		<tag k="name" v="Kjerthøl" />
=======
	<node id="-14762" lat="58.2845805515" lon="6.40805278169">
		<tag k="name" v="Hesten" />
		<tag k="place" v="islet" />
		<tag k="ssr:stedsnr" v="209048" />
	</node>
	<node id="-14761" lat="58.40045" lon="6.20752500752">
		<tag k="name" v="Trettelontjørna" />
>>>>>>> e1d4bc35ff8a6074a6f2e91616a996b547c36f15
		<tag k="natural" v="water" />
		<tag k="ssr:stedsnr" v="634353" />
	</node>
<<<<<<< HEAD
	<node lat="58.34121802488696" lon="6.218272362633776" id="-1967">
		<tag k="name" v="Skiptingstjørn" />
=======
	<node id="-14758" lat="58.3600680547" lon="6.13366522271">
		<tag k="name" v="Kviksvatnet" />
>>>>>>> e1d4bc35ff8a6074a6f2e91616a996b547c36f15
		<tag k="natural" v="water" />
		<tag k="ssr:stedsnr" v="634355" />
	</node>
<<<<<<< HEAD
	<node lat="58.39081110986623" lon="6.223697219933729" id="-1973">
		<tag k="name" v="Stiatjørn" />
=======
	<node id="-14757" lat="58.4416194452" lon="6.34273888304">
		<tag k="name" v="Steinsvatnet" />
>>>>>>> e1d4bc35ff8a6074a6f2e91616a996b547c36f15
		<tag k="natural" v="water" />
		<tag k="ssr:stedsnr" v="634463" />
	</node>
<<<<<<< HEAD
	<node lat="58.4532750043124" lon="6.265177782399626" id="-1974">
		<tag k="name" v="Stora Øyna" />
		<tag k="place" v="island" />
		<tag k="ssr:stedsnr" v="634474" />
	</node>
	<node lat="58.42774166572478" lon="6.227688885980715" id="-1975">
		<tag k="name" v="Refslandstjørna" />
=======
	<node id="-14756" lat="58.4242222986" lon="6.2120731031">
		<tag k="name" v="Forekamtjørna" />
		<tag k="natural" v="water" />
		<tag k="ssr:stedsnr" v="182764" />
	</node>
	<node id="-14754" lat="58.3178249969" lon="6.4148083259">
		<tag k="name" v="Gauknetjørna" />
>>>>>>> e1d4bc35ff8a6074a6f2e91616a996b547c36f15
		<tag k="natural" v="water" />
		<tag k="ssr:stedsnr" v="634417" />
	</node>
<<<<<<< HEAD
	<node lat="58.41491388724863" lon="6.2534472163955055" id="-1976">
		<tag k="name" v="Busundet" />
		<tag k="natural" v="strait" />
		<tag k="ssr:stedsnr" v="634420" />
	</node>
	<node lat="58.369300232406424" lon="6.2324764384916165" id="-1977">
		<tag k="name" v="Riblandstjørna" />
=======
	<node id="-14753" lat="58.374809362" lon="6.22980449283">
		<tag k="name" v="Saurdalstjørna" />
		<tag k="natural" v="water" />
		<tag k="ssr:stedsnr" v="182151" />
	</node>
	<node id="-13244" lat="58.4325249971" lon="6.45798333825">
		<tag k="name" v="Myrstølvatnet" />
		<tag k="natural" v="water" />
		<tag k="ssr:stedsnr" v="242132" />
	</node>
	<node id="-14737" lat="58.3619305592" lon="6.13102223031">
		<tag k="name" v="Heptatjørn" />
>>>>>>> e1d4bc35ff8a6074a6f2e91616a996b547c36f15
		<tag k="natural" v="water" />
		<tag k="ssr:stedsnr" v="634499" />
	</node>
<<<<<<< HEAD
	<node lat="58.38533055447671" lon="6.233350007687361" id="-1978">
		<tag k="name" v="Pinkøyna" />
		<tag k="place" v="island" />
		<tag k="ssr:stedsnr" v="634516" />
	</node>
	<node lat="58.39952500402378" lon="6.404344451575607" id="-1984">
		<tag k="name" v="Kleivatjørn" />
=======
	<node id="-14734" lat="58.3645638858" lon="6.16401944868">
		<tag k="name" v="Sandfjelltjørn" />
		<tag k="natural" v="water" />
		<tag k="ssr:stedsnr" v="151841" />
	</node>
	<node id="-14733" lat="58.3433222243" lon="6.45192778484">
		<tag k="name" v="Poddetjørna" />
>>>>>>> e1d4bc35ff8a6074a6f2e91616a996b547c36f15
		<tag k="natural" v="water" />
		<tag k="ssr:stedsnr" v="634845" />
	</node>
<<<<<<< HEAD
	<node lat="58.37286111572499" lon="6.3923055614977855" id="-1992">
		<tag k="name" v="Neset" />
		<tag k="natural" v="cape" />
		<tag k="ssr:stedsnr" v="634954" />
	</node>
	<node lat="58.37920000119829" lon="6.146180553975043" id="-2001">
		<tag k="name" v="Sandvika" />
=======
	<node id="-14724" lat="58.414666666" lon="6.42161111288">
		<tag k="name" v="Langa Vigjo" />
>>>>>>> e1d4bc35ff8a6074a6f2e91616a996b547c36f15
		<tag k="natural" v="bay" />
		<tag k="ssr:stedsnr" v="647253" />
	</node>
<<<<<<< HEAD
	<node lat="58.38735278078112" lon="6.158302782201238" id="-2003">
		<tag k="name" v="Kleivatjørna" />
=======
	<node id="-14721" lat="58.4152194466" lon="6.3857166591">
		<tag k="name" v="Tvinlingtjørn" />
>>>>>>> e1d4bc35ff8a6074a6f2e91616a996b547c36f15
		<tag k="natural" v="water" />
		<tag k="ssr:stedsnr" v="647260" />
	</node>
<<<<<<< HEAD
	<node lat="58.36881581475093" lon="6.381512245148844" id="-2011">
		<tag k="name" v="Lomtjørna" />
=======
	<node id="-14717" lat="58.2890749974" lon="6.37197776962">
		<tag k="name" v="Springkleivvatnet" />
>>>>>>> e1d4bc35ff8a6074a6f2e91616a996b547c36f15
		<tag k="natural" v="water" />
		<tag k="ssr:stedsnr" v="667184" />
	</node>
<<<<<<< HEAD
	<node lat="58.31618828352205" lon="6.382872838440846" id="-2014">
		<tag k="name" v="Mågevatnet" />
		<tag k="natural" v="water" />
		<tag k="ssr:stedsnr" v="667226" />
		<tag k="water" v="lake" />
	</node>
	<node lat="58.326886108334804" lon="6.394797221895278" id="-2016">
		<tag k="name" v="Tellenesvatnet" />
=======
	<node id="-14716" lat="58.3514027789" lon="6.23222222974">
		<tag k="name" v="Midskartjørn" />
		<tag k="natural" v="water" />
		<tag k="ssr:stedsnr" v="148532" />
	</node>
	<node id="-14713" lat="58.3210027824" lon="6.27312222697">
		<tag k="name" v="Tjuholmen" />
		<tag k="place" v="islet" />
		<tag k="ssr:stedsnr" v="148445" />
	</node>
	<node id="-14712" lat="58.3442972261" lon="6.37102222565">
		<tag k="name" v="Skinnstakktjørn" />
>>>>>>> e1d4bc35ff8a6074a6f2e91616a996b547c36f15
		<tag k="natural" v="water" />
		<tag k="ssr:stedsnr" v="667245" />
	</node>
<<<<<<< HEAD
	<node lat="58.358402776060544" lon="6.159324995141063" id="-2021">
		<tag k="name" v="Birkelandsvatnet" />
=======
	<node id="-14711" lat="58.3315611089" lon="6.36900554999">
		<tag k="name" v="Ydravatnet" />
>>>>>>> e1d4bc35ff8a6074a6f2e91616a996b547c36f15
		<tag k="natural" v="water" />
		<tag k="ssr:stedsnr" v="667965" />
	</node>
<<<<<<< HEAD
	<node lat="58.40645277703587" lon="6.351408328818109" id="-2038">
		<tag k="name" v="Vadlahaugtjørna" />
		<tag k="natural" v="water" />
		<tag k="ssr:stedsnr" v="755142" />
	</node>
	<node lat="58.29010555483288" lon="6.389258338434801" id="-2040">
		<tag k="name" v="Molebekken" />
		<tag k="ssr:stedsnr" v="755073" />
		<tag k="waterway" v="stream" />
	</node>
	<node lat="58.3786500006798" lon="6.315397222822073" id="-2048">
		<tag k="name" v="Ytra Bakkatjørna" />
		<tag k="natural" v="water" />
		<tag k="ssr:stedsnr" v="755372" />
	</node>
	<node lat="58.39624722625396" lon="6.279238880856792" id="-2051">
		<tag k="name" v="Øystregardsvatnet" />
		<tag k="natural" v="water" />
		<tag k="ssr:stedsnr" v="755235" />
	</node>
	<node lat="58.379063885731085" lon="6.310205559323114" id="-2056">
		<tag k="name" v="Indra Bakkatjørna" />
		<tag k="natural" v="water" />
		<tag k="ssr:stedsnr" v="755341" />
	</node>
	<node lat="58.39781825336996" lon="6.2351170770657465" id="-2060">
		<tag k="name" v="Heptetjørn" />
		<tag k="natural" v="water" />
		<tag k="ssr:stedsnr" v="755429" />
	</node>
	<node lat="58.386675000222894" lon="6.358522222730199" id="-2069">
		<tag k="name" v="Svarthøl" />
=======
	<node id="-14706" lat="58.3228472227" lon="6.26505832535">
		<tag k="name" v="Vallnes" />
		<tag k="natural" v="cape" />
		<tag k="ssr:stedsnr" v="148342" />
	</node>
	<node id="-14705" lat="58.323719444" lon="6.24751111543">
		<tag k="name" v="Kjerringvika" />
		<tag k="natural" v="bay" />
		<tag k="ssr:stedsnr" v="148336" />
	</node>
	<node id="-14698" lat="58.4319388876" lon="6.24648055633">
		<tag k="name" v="Kompøya" />
		<tag k="place" v="islet" />
		<tag k="ssr:stedsnr" v="148476" />
	</node>
	<node id="-14694" lat="58.4270416625" lon="6.24279444496">
		<tag k="name" v="Dyrsund" />
		<tag k="natural" v="strait" />
		<tag k="ssr:stedsnr" v="148389" />
	</node>
	<node id="-14693" lat="58.3693805586" lon="6.33986666911">
		<tag k="name" v="Porshøl" />
>>>>>>> e1d4bc35ff8a6074a6f2e91616a996b547c36f15
		<tag k="place" v="locality" />
		<tag k="ssr:stedsnr" v="755387" />
	</node>
<<<<<<< HEAD
	<node lat="58.44377222317277" lon="6.248905551891496" id="-2073">
		<tag k="name" v="Røyndalstangen" />
		<tag k="natural" v="cape" />
		<tag k="ssr:stedsnr" v="755474" />
	</node>
	<node lat="58.45028610933801" lon="6.252319442848596" id="-2074">
		<tag k="name" v="Krogøya" />
=======
	<node id="-14692" lat="58.3770339269" lon="6.34398400469">
		<tag k="name" v="Frøytloghølen" />
		<tag k="natural" v="water" />
		<tag k="ssr:stedsnr" v="148384" />
	</node>
	<node id="-14679" lat="58.4147000007" lon="6.28033054856">
		<tag k="name" v="Øyno" />
>>>>>>> e1d4bc35ff8a6074a6f2e91616a996b547c36f15
		<tag k="place" v="islet" />
		<tag k="ssr:stedsnr" v="755476" />
	</node>
<<<<<<< HEAD
	<node lat="58.37624444374566" lon="6.500866666630404" id="-2077">
		<tag k="name" v="Poddetjørn" />
=======
	<node id="-14668" lat="58.4423472266" lon="6.39748611324">
		<tag k="name" v="Ljosvatnet" />
>>>>>>> e1d4bc35ff8a6074a6f2e91616a996b547c36f15
		<tag k="natural" v="water" />
		<tag k="ssr:stedsnr" v="755741" />
	</node>
<<<<<<< HEAD
	<node lat="58.39733333206256" lon="6.450261105872432" id="-2083">
		<tag k="name" v="Mydlandsosen" />
=======
	<node id="-14667" lat="58.421234792" lon="6.20745409705">
		<tag k="name" v="Krogevatnet" />
>>>>>>> e1d4bc35ff8a6074a6f2e91616a996b547c36f15
		<tag k="natural" v="water" />
		<tag k="ssr:stedsnr" v="755783" />
		<tag k="water" v="lake" />
	</node>
<<<<<<< HEAD
	<node lat="58.40789444315906" lon="6.472377786040351" id="-2085">
		<tag k="name" v="Langetjørn" />
=======
	<node id="-14660" lat="58.3922027822" lon="6.23076944959">
		<tag k="name" v="Steigtjørna" />
>>>>>>> e1d4bc35ff8a6074a6f2e91616a996b547c36f15
		<tag k="natural" v="water" />
		<tag k="ssr:stedsnr" v="755789" />
	</node>
<<<<<<< HEAD
	<node lat="58.407305579873245" lon="6.467246086626446" id="-2086">
		<tag k="name" v="Lindalstjørn" />
=======
	<node id="-14657" lat="58.4072666643" lon="6.29729999173">
		<tag k="name" v="Litlatjørn" />
>>>>>>> e1d4bc35ff8a6074a6f2e91616a996b547c36f15
		<tag k="natural" v="water" />
		<tag k="ssr:stedsnr" v="755790" />
	</node>
<<<<<<< HEAD
	<node lat="58.36246062625275" lon="6.380090534838984" id="-2089">
		<tag k="name" v="Jiretjørn" />
=======
	<node id="-14656" lat="58.2974666647" lon="6.36569721565">
		<tag k="name" v="Stora Mjelkevatnet" />
>>>>>>> e1d4bc35ff8a6074a6f2e91616a996b547c36f15
		<tag k="natural" v="water" />
		<tag k="ssr:stedsnr" v="755876" />
	</node>
<<<<<<< HEAD
	<node lat="58.35356388640035" lon="6.460300008638059" id="-2090">
		<tag k="name" v="Øystre Tangen" />
		<tag k="natural" v="cape" />
		<tag k="ssr:stedsnr" v="755885" />
	</node>
	<node lat="58.35776271142424" lon="6.130252822345633" id="-2103">
		<tag k="name" v="Lihesttjørn" />
=======
	<node id="-14640" lat="58.3656361117" lon="6.16290554841">
		<tag k="name" v="Sandtjørn" />
		<tag k="natural" v="water" />
		<tag k="ssr:stedsnr" v="100917" />
	</node>
	<node id="-14629" lat="58.4200083339" lon="6.19864721435">
		<tag k="name" v="Røyrtjørn" />
>>>>>>> e1d4bc35ff8a6074a6f2e91616a996b547c36f15
		<tag k="natural" v="water" />
		<tag k="ssr:stedsnr" v="768777" />
	</node>
<<<<<<< HEAD
	<node lat="58.37311111086249" lon="6.193402774519256" id="-2104">
		<tag k="name" v="Lundetjørna" />
		<tag k="natural" v="water" />
		<tag k="ssr:stedsnr" v="768876" />
	</node>
	<node lat="58.319033526214675" lon="6.3633849001499865" id="-2117">
		<tag k="fixme" v="multiple name tags, choose one and add the other to alt_name" />
		<tag k="name" v="Stemmevatnet;Nedre Livatn" />
=======
	<node id="-14628" lat="58.315758913" lon="6.46308729203">
		<tag k="name" v="Sandtjørn" />
		<tag k="natural" v="water" />
		<tag k="ssr:stedsnr" v="88975" />
	</node>
	<node id="-14627" lat="58.3079944436" lon="6.42069166215">
		<tag k="name" v="Strondesida" />
		<tag k="natural" v="beach" />
		<tag k="ssr:stedsnr" v="88968" />
	</node>
	<node id="-14626" lat="58.3155833317" lon="6.44634999933">
		<tag k="name" v="Eigelandsvatnet" />
>>>>>>> e1d4bc35ff8a6074a6f2e91616a996b547c36f15
		<tag k="natural" v="water" />
		<tag k="ssr:stedsnr" v="788224" />
		<tag k="water" v="lake" />
	</node>
<<<<<<< HEAD
	<node lat="58.3653601864251" lon="6.488306389902971" id="-2120">
		<tag k="name" v="Kringletjørnan" />
=======
	<node id="-14625" lat="58.3062333348" lon="6.38262500052">
		<tag k="name" v="Rundtjørn" />
>>>>>>> e1d4bc35ff8a6074a6f2e91616a996b547c36f15
		<tag k="natural" v="water" />
		<tag k="ssr:stedsnr" v="789214" />
		<tag k="water" v="lake" />
	</node>
<<<<<<< HEAD
	<node lat="58.33939444636032" lon="6.447794439820266" id="-2123">
		<tag k="name" v="Aurevatnet" />
		<tag k="natural" v="water" />
		<tag k="ssr:stedsnr" v="789247" />
	</node>
	<node lat="58.4416273925085" lon="6.2060266178077965" id="-2125">
		<tag k="name" v="Søra Albogtjørna" />
		<tag k="natural" v="water" />
		<tag k="ssr:stedsnr" v="788800" />
	</node>
	<node lat="58.38944167003576" lon="6.487922227898687" id="-2129">
		<tag k="name" v="Midlivatnet" />
=======
	<node id="-14623" lat="58.3771540601" lon="6.40874947971">
		<tag k="name" v="Varetjørn" />
		<tag k="natural" v="water" />
		<tag k="ssr:stedsnr" v="88949" />
	</node>
	<node id="-14621" lat="58.3184722268" lon="6.44244444772">
		<tag k="name" v="Vassend" />
		<tag k="natural" v="strait" />
		<tag k="ssr:stedsnr" v="88924" />
	</node>
	<node id="-14619" lat="58.3855805524" lon="6.41111943713">
		<tag k="name" v="Kvernehølen" />
		<tag k="place" v="locality" />
		<tag k="ssr:stedsnr" v="88900" />
	</node>
	<node id="-14618" lat="58.3776185211" lon="6.41993832715">
		<tag k="name" v="Djupedaltjørna" />
>>>>>>> e1d4bc35ff8a6074a6f2e91616a996b547c36f15
		<tag k="natural" v="water" />
		<tag k="ssr:stedsnr" v="789161" />
	</node>
<<<<<<< HEAD
	<node lat="58.4489477085729" lon="6.41593954824849" id="-2133">
		<tag k="name" v="Tristigla" />
		<tag k="natural" v="water" />
		<tag k="ssr:stedsnr" v="789881" />
	</node>
	<node lat="58.43807500065624" lon="6.245444444619254" id="-2134">
		<tag k="name" v="Øylandsøyna" />
		<tag k="place" v="islet" />
		<tag k="ssr:stedsnr" v="789884" />
	</node>
	<node lat="58.32823333092104" lon="6.323530547680369" id="-2143">
		<tag k="name" v="Stemmetjørna" />
=======
	<node id="-14614" lat="58.4182388867" lon="6.42965555259">
		<tag k="name" v="Nesodden" />
		<tag k="natural" v="cape" />
		<tag k="ssr:stedsnr" v="88884" />
	</node>
	<node id="-14611" lat="58.3607055535" lon="6.39121388548">
		<tag k="name" v="Holmen" />
		<tag k="natural" v="cape" />
		<tag k="ssr:stedsnr" v="88864" />
	</node>
	<node id="-14610" lat="58.3508833322" lon="6.47866666699">
		<tag k="name" v="Stølstjørna" />
>>>>>>> e1d4bc35ff8a6074a6f2e91616a996b547c36f15
		<tag k="natural" v="water" />
		<tag k="ssr:stedsnr" v="816421" />
	</node>
<<<<<<< HEAD
	<node lat="58.33435278567995" lon="6.380126385215785" id="-2145">
		<tag k="name" v="Austvatnet" />
		<tag k="natural" v="water" />
		<tag k="ssr:stedsnr" v="816442" />
	</node>
	<node lat="58.33409999940057" lon="6.375025004507551" id="-2146">
		<tag k="name" v="Vestvatnet" />
		<tag k="natural" v="water" />
		<tag k="ssr:stedsnr" v="816446" />
	</node>
	<node lat="58.33539444392656" lon="6.331738893600797" id="-2148">
		<tag k="name" v="Skrikartjørna" />
		<tag k="natural" v="water" />
		<tag k="ssr:stedsnr" v="816453" />
	</node>
	<node lat="58.32619166796787" lon="6.414558328007447" id="-2149">
		<tag k="name" v="Svartetjørn" />
=======
	<node id="-14602" lat="58.3975694482" lon="6.38409999783">
		<tag k="name" v="Stronnen" />
		<tag k="natural" v="beach" />
		<tag k="ssr:stedsnr" v="88785" />
	</node>
	<node id="-14601" lat="58.4011999964" lon="6.38357778254">
		<tag k="name" v="Rørvik" />
		<tag k="natural" v="bay" />
		<tag k="ssr:stedsnr" v="88783" />
	</node>
	<node id="-14599" lat="58.403833331" lon="6.39920278076">
		<tag k="name" v="Heigretangen" />
		<tag k="natural" v="cape" />
		<tag k="ssr:stedsnr" v="88777" />
	</node>
	<node id="-14596" lat="58.4367111116" lon="6.44373055687">
		<tag k="name" v="Borskotjørn" />
>>>>>>> e1d4bc35ff8a6074a6f2e91616a996b547c36f15
		<tag k="natural" v="water" />
		<tag k="ssr:stedsnr" v="816018" />
	</node>
<<<<<<< HEAD
	<node lat="58.33356667022027" lon="6.282188885598438" id="-2160">
		<tag k="name" v="Lono" />
=======
	<node id="-14595" lat="58.4387916647" lon="6.41208888643">
		<tag k="name" v="Torjustjørn" />
>>>>>>> e1d4bc35ff8a6074a6f2e91616a996b547c36f15
		<tag k="natural" v="water" />
		<tag k="ssr:stedsnr" v="816417" />
		<tag k="water" v="lake" />
	</node>
<<<<<<< HEAD
	<node lat="58.34224585175603" lon="6.448017605565411" id="-2176">
		<tag k="name" v="Svartepoll" />
=======
	<node id="-14582" lat="58.3822254714" lon="6.26155008263">
		<tag k="name" v="Parakstjørna" />
>>>>>>> e1d4bc35ff8a6074a6f2e91616a996b547c36f15
		<tag k="natural" v="water" />
		<tag k="ssr:stedsnr" v="816997" />
	</node>
<<<<<<< HEAD
	<node lat="58.324274998581316" lon="6.34660278362802" id="-2177">
		<tag k="name" v="Årstadtona" />
=======
	<node id="-14580" lat="58.417855559" lon="6.25226111125">
		<tag k="name" v="Håbertangen" />
>>>>>>> e1d4bc35ff8a6074a6f2e91616a996b547c36f15
		<tag k="natural" v="cape" />
		<tag k="ssr:stedsnr" v="816459" />
	</node>
<<<<<<< HEAD
	<node lat="58.35715277849677" lon="6.2227944383088465" id="-2183">
		<tag k="name" v="Trodleputt" />
=======
	<node id="-14577" lat="58.3734722208" lon="6.26486388454">
		<tag k="name" v="Urdalstjørna" />
>>>>>>> e1d4bc35ff8a6074a6f2e91616a996b547c36f15
		<tag k="natural" v="water" />
		<tag k="ssr:stedsnr" v="816544" />
	</node>
<<<<<<< HEAD
	<node lat="58.29560833091641" lon="6.3744611043303285" id="-2188">
		<tag k="name" v="Fladbrødtjørna" />
=======
	<node id="-14558" lat="58.3448722209" lon="6.44644166888">
		<tag k="name" v="Vingskartjørna" />
>>>>>>> e1d4bc35ff8a6074a6f2e91616a996b547c36f15
		<tag k="natural" v="water" />
		<tag k="ssr:stedsnr" v="816558" />
	</node>
<<<<<<< HEAD
	<node lat="58.39667222094821" lon="6.494152777295586" id="-2189">
		<tag k="name" v="Gudlandstjørn" />
		<tag k="natural" v="water" />
		<tag k="ssr:stedsnr" v="816728" />
	</node>
	<node lat="58.38786389286233" lon="6.405044436173308" id="-2195">
		<tag k="name" v="Skogatjørna" />
=======
	<node id="-14557" lat="58.3255061931" lon="6.43966607962">
		<tag k="name" v="Hauertjørna" />
		<tag k="natural" v="water" />
		<tag k="ssr:stedsnr" v="87993" />
	</node>
	<node id="-14556" lat="58.2963738731" lon="6.45474940289">
		<tag k="name" v="Langhølen" />
		<tag k="place" v="locality" />
		<tag k="ssr:stedsnr" v="87964" />
	</node>
	<node id="-14551" lat="58.4401361099" lon="6.24790000025">
		<tag k="name" v="Øylandsvadet" />
		<tag k="natural" v="strait" />
		<tag k="ssr:stedsnr" v="87441" />
	</node>
	<node id="-14539" lat="58.3063844936" lon="6.3440694887">
		<tag k="name" v="Indretjørna" />
>>>>>>> e1d4bc35ff8a6074a6f2e91616a996b547c36f15
		<tag k="natural" v="water" />
		<tag k="ssr:stedsnr" v="816944" />
	</node>
<<<<<<< HEAD
	<node lat="58.362333335787746" lon="6.455069449537778" id="-2197">
		<tag k="name" v="Fiskelaustjørna" />
=======
	<node id="-14538" lat="58.3169235634" lon="6.35464238689">
		<tag k="name" v="Torvstemmen" />
>>>>>>> e1d4bc35ff8a6074a6f2e91616a996b547c36f15
		<tag k="natural" v="water" />
		<tag k="ssr:stedsnr" v="816895" />
	</node>
<<<<<<< HEAD
	<node lat="58.37097777658243" lon="6.460005553685206" id="-2199">
		<tag k="name" v="Neset" />
		<tag k="natural" v="cape" />
		<tag k="ssr:stedsnr" v="816908" />
	</node>
	<node lat="58.30765277861265" lon="6.454988886969038" id="-2202">
		<tag k="name" v="Djubtjørn" />
=======
	<node id="-14533" lat="58.2908888858" lon="6.3898527807">
		<tag k="name" v="Aurepollen" />
		<tag k="place" v="locality" />
		<tag k="ssr:stedsnr" v="87044" />
	</node>
	<node id="-14529" lat="58.3969058173" lon="6.16050270726">
		<tag k="name" v="Tvitjørna" />
>>>>>>> e1d4bc35ff8a6074a6f2e91616a996b547c36f15
		<tag k="natural" v="water" />
		<tag k="ssr:stedsnr" v="816968" />
	</node>
<<<<<<< HEAD
	<node lat="58.38354721778911" lon="6.184994445746812" id="-2213">
		<tag k="name" v="Brenslebukta" />
		<tag k="natural" v="bay" />
		<tag k="ssr:stedsnr" v="846832" />
	</node>
	<node lat="58.36190833356849" lon="6.3909333248165945" id="-2217">
		<tag k="name" v="Veisdalsvatnet" />
=======
	<node id="-14528" lat="58.379783314" lon="6.19662953468">
		<tag k="name" v="Stemmetjørna" />
		<tag k="natural" v="water" />
		<tag k="ssr:stedsnr" v="61968" />
	</node>
	<node id="-14524" lat="58.416325" lon="6.21445000626">
		<tag k="name" v="Ljosevatnet" />
>>>>>>> e1d4bc35ff8a6074a6f2e91616a996b547c36f15
		<tag k="natural" v="water" />
		<tag k="ssr:stedsnr" v="850204" />
	</node>
<<<<<<< HEAD
	<node lat="58.386216670993164" lon="6.234963881251971" id="-2222">
		<tag k="name" v="Krågelundvatnet" />
=======
	<node id="-14520" lat="58.348977781" lon="6.37098889175">
		<tag k="name" v="Ambodtjørna" />
>>>>>>> e1d4bc35ff8a6074a6f2e91616a996b547c36f15
		<tag k="natural" v="water" />
		<tag k="ssr:stedsnr" v="850175" />
		<tag k="water" v="lake" />
	</node>
<<<<<<< HEAD
	<node lat="58.324663422210975" lon="6.374852395063021" id="-2223">
		<tag k="name" v="Lonavatn" />
=======
	<node id="-14517" lat="58.3857666705" lon="6.25298333872">
		<tag k="name" v="Strandlivatnet" />
>>>>>>> e1d4bc35ff8a6074a6f2e91616a996b547c36f15
		<tag k="natural" v="water" />
		<tag k="ssr:stedsnr" v="850244" />
		<tag k="water" v="lake" />
	</node>
<<<<<<< HEAD
	<node lat="58.36174786266325" lon="6.170702331693984" id="-2227">
		<tag k="name" v="Løyndfiskvatnet" />
=======
	<node id="-14485" lat="58.3564598228" lon="6.13249888899">
		<tag k="name" v="Tvitjørn" />
>>>>>>> e1d4bc35ff8a6074a6f2e91616a996b547c36f15
		<tag k="natural" v="water" />
		<tag k="ssr:stedsnr" v="850957" />
	</node>
<<<<<<< HEAD
	<node lat="58.38662255140335" lon="6.204120607351296" id="-2229">
		<tag k="name" v="Nåvatnet" />
=======
	<node id="-14484" lat="58.3504138899" lon="6.17108611437">
		<tag k="name" v="Litla Skartjørn" />
>>>>>>> e1d4bc35ff8a6074a6f2e91616a996b547c36f15
		<tag k="natural" v="water" />
		<tag k="ssr:stedsnr" v="850971" />
	</node>
<<<<<<< HEAD
	<node lat="58.331411106978344" lon="6.3755222224210355" id="-2234">
		<tag k="name" v="Laksedalsvatnet" />
=======
	<node id="-14480" lat="58.3176805591" lon="6.46476388628">
		<tag k="name" v="Djubtjørn" />
>>>>>>> e1d4bc35ff8a6074a6f2e91616a996b547c36f15
		<tag k="natural" v="water" />
		<tag k="ssr:stedsnr" v="876428" />
		<tag k="water" v="lake" />
	</node>
<<<<<<< HEAD
	<node lat="58.37478333517844" lon="6.374630556376579" id="-2239">
		<tag k="name" v="Litla Litjørna" />
=======
	<node id="-14479" lat="58.3234721858" lon="6.45932252814">
		<tag k="name" v="Ørnetjørna" />
>>>>>>> e1d4bc35ff8a6074a6f2e91616a996b547c36f15
		<tag k="natural" v="water" />
		<tag k="ssr:stedsnr" v="876373" />
	</node>
<<<<<<< HEAD
	<node lat="58.343283332402784" lon="6.363758325280509" id="-2244">
		<tag k="name" v="Høgsettjørna" />
		<tag k="natural" v="water" />
		<tag k="ssr:stedsnr" v="876439" />
	</node>
	<node lat="58.46094444108461" lon="6.299383328194908" id="-2259">
		<tag k="name" v="Svartetjørn" />
=======
	<node id="-14472" lat="58.3543094552" lon="6.45873974093">
		<tag k="name" v="Midvatnet" />
		<tag k="natural" v="water" />
		<tag k="ssr:stedsnr" v="27884" />
		<tag k="water" v="lake" />
	</node>
	<node id="-14471" lat="58.4235027815" lon="6.4246999967">
		<tag k="name" v="Vikestranda" />
		<tag k="natural" v="beach" />
		<tag k="ssr:stedsnr" v="27882" />
	</node>
	<node id="-14450" lat="58.3858888871" lon="6.40493611637">
		<tag k="name" v="Krohølen" />
>>>>>>> e1d4bc35ff8a6074a6f2e91616a996b547c36f15
		<tag k="natural" v="water" />
		<tag k="ssr:stedsnr" v="877126" />
	</node>
<<<<<<< HEAD
	<node lat="58.470236112138934" lon="6.276886109043705" id="-2261">
		<tag k="name" v="Mariaholmen" />
=======
	<node id="-14449" lat="58.4450138897" lon="6.2472305631">
		<tag k="name" v="Kompo" />
>>>>>>> e1d4bc35ff8a6074a6f2e91616a996b547c36f15
		<tag k="place" v="islet" />
		<tag k="ssr:stedsnr" v="877137" />
	</node>
<<<<<<< HEAD
	<node lat="58.392280556235086" lon="6.3674388888672935" id="-2263">
		<tag k="name" v="Basthølen" />
		<tag k="place" v="locality" />
		<tag k="ssr:stedsnr" v="877146" />
	</node>
	<node lat="58.36603333734483" lon="6.361147229406784" id="-2268">
		<tag k="name" v="Sandtjørna" />
		<tag k="natural" v="water" />
		<tag k="ssr:stedsnr" v="877342" />
	</node>
	<node lat="58.33652777975559" lon="6.232638889855981" id="-2269">
		<tag k="name" v="Stemmetjørn" />
		<tag k="natural" v="water" />
		<tag k="ssr:stedsnr" v="877347" />
	</node>
	<node lat="58.386969443473" lon="6.234036111264816" id="-2272">
		<tag k="name" v="Skogøyna" />
		<tag k="place" v="island" />
		<tag k="ssr:stedsnr" v="877497" />
	</node>
	<node lat="58.33380054224736" lon="6.270450942423589" id="-2273">
		<tag k="name" v="Tothammartjørna" />
=======
	<node id="-14448" lat="58.4472472182" lon="6.2520138868">
		<tag k="name" v="Vidjeøya" />
		<tag k="place" v="islet" />
		<tag k="ssr:stedsnr" v="27496" />
	</node>
	<node id="-14447" lat="58.433041664" lon="6.24318889017">
		<tag k="name" v="Risholmen" />
		<tag k="place" v="islet" />
		<tag k="ssr:stedsnr" v="27495" />
	</node>
	<node id="-14446" lat="58.4510333361" lon="6.25610555163">
		<tag k="name" v="Åkerøya" />
		<tag k="place" v="islet" />
		<tag k="ssr:stedsnr" v="27494" />
	</node>
	<node id="-14444" lat="58.4450000043" lon="6.25716943968">
		<tag k="name" v="Røyndalsbukta" />
		<tag k="natural" v="bay" />
		<tag k="ssr:stedsnr" v="27480" />
	</node>
	<node id="-14443" lat="58.4340222236" lon="6.22806666362">
		<tag k="name" v="Flåtjørna" />
>>>>>>> e1d4bc35ff8a6074a6f2e91616a996b547c36f15
		<tag k="natural" v="water" />
		<tag k="ssr:stedsnr" v="877349" />
	</node>
<<<<<<< HEAD
	<node lat="58.38158610803695" lon="6.413877784517234" id="-2283">
		<tag k="name" v="Øygardstjørna" />
		<tag k="natural" v="water" />
		<tag k="ssr:stedsnr" v="877948" />
	</node>
	<node lat="58.357686108352915" lon="6.457927781339452" id="-2287">
		<tag k="name" v="Tjødno" />
=======
	<node id="-14440" lat="58.3179944474" lon="6.28135278144">
		<tag k="name" v="Kluholmen" />
		<tag k="place" v="islet" />
		<tag k="ssr:stedsnr" v="27464" />
	</node>
	<node id="-14439" lat="58.3265628588" lon="6.36338646613">
		<tag k="name" v="Øvra Lonetjørna" />
>>>>>>> e1d4bc35ff8a6074a6f2e91616a996b547c36f15
		<tag k="natural" v="water" />
		<tag k="ssr:stedsnr" v="877898" />
	</node>
<<<<<<< HEAD
	<node lat="58.363108331330146" lon="6.1868972260854935" id="-2288">
		<tag k="name" v="Ragnhildtjørn" />
		<tag k="natural" v="water" />
		<tag k="ssr:stedsnr" v="880932" />
	</node>
	<node lat="58.287508336209775" lon="6.418797221352068" id="-2293">
		<tag k="name" v="Heimra Skarsteinshomma" />
=======
	<node id="-15222" lat="58.3853305545" lon="6.23335000769">
		<tag k="name" v="Pinkøyna" />
		<tag k="place" v="island" />
		<tag k="ssr:stedsnr" v="634516" />
	</node>
	<node id="-14422" lat="58.3943944487" lon="6.37453334057">
		<tag k="name" v="Døsodden" />
		<tag k="natural" v="cape" />
		<tag k="ssr:stedsnr" v="27241" />
	</node>
	<node id="-13301" lat="58.3737666656" lon="6.38942777274">
		<tag k="name" v="Rånen" />
		<tag k="place" v="locality" />
		<tag k="ssr:stedsnr" v="270921" />
	</node>
	<node id="-14415" lat="58.3099388914" lon="6.36004166341">
		<tag k="name" v="Stora Neset" />
>>>>>>> e1d4bc35ff8a6074a6f2e91616a996b547c36f15
		<tag k="natural" v="cape" />
		<tag k="ssr:stedsnr" v="937045" />
	</node>
<<<<<<< HEAD
	<node lat="58.29654166803319" lon="6.393730561621169" id="-2295">
		<tag k="name" v="Sundet" />
		<tag k="natural" v="strait" />
		<tag k="ssr:stedsnr" v="937068" />
	</node>
	<node lat="58.298461110254685" lon="6.408552778838342" id="-2296">
		<tag k="name" v="Åltjørna" />
=======
	<node id="-14410" lat="58.3977749985" lon="6.14839999578">
		<tag k="name" v="Raunlivatnet" />
>>>>>>> e1d4bc35ff8a6074a6f2e91616a996b547c36f15
		<tag k="natural" v="water" />
		<tag k="ssr:stedsnr" v="937072" />
	</node>
<<<<<<< HEAD
	<node lat="58.37011533514391" lon="6.368820065193563" id="-2300">
		<tag k="name" v="Løtjørna" />
=======
	<node id="-14407" lat="58.3739278237" lon="6.14059483101">
		<tag k="name" v="Øvra Rongtjørna" />
>>>>>>> e1d4bc35ff8a6074a6f2e91616a996b547c36f15
		<tag k="natural" v="water" />
		<tag k="ssr:stedsnr" v="937410" />
	</node>
<<<<<<< HEAD
	<node lat="58.33131110706245" lon="6.3373638875907385" id="-2308">
		<tag k="name" v="Øvra Aravatnet" />
=======
	<node id="-14401" lat="58.3245189936" lon="6.32704723173">
		<tag k="name" v="Buhomtjørna" />
>>>>>>> e1d4bc35ff8a6074a6f2e91616a996b547c36f15
		<tag k="natural" v="water" />
		<tag k="ssr:stedsnr" v="937452" />
	</node>
<<<<<<< HEAD
	<node lat="58.319274998477944" lon="6.283375007320805" id="-2309">
		<tag k="name" v="Grasholmen" />
		<tag k="place" v="islet" />
		<tag k="ssr:stedsnr" v="937460" />
	</node>
	<node lat="58.456033337296134" lon="6.441349998383707" id="-2317">
		<tag k="name" v="Homma-åna" />
		<tag k="ssr:stedsnr" v="937696" />
		<tag k="waterway" v="river" />
	</node>
	<node lat="58.35870833692454" lon="6.494619438717169" id="-2318">
		<tag k="name" v="Slorpetjørna" />
=======
	<node id="-14399" lat="58.3214198637" lon="6.44760013955">
		<tag k="name" v="Taravatnet" />
		<tag k="natural" v="water" />
		<tag k="ssr:stedsnr" v="242" />
	</node>
	<node id="-14397" lat="58.3527249972" lon="6.35154166188">
		<tag k="name" v="Refsvatnet" />
		<tag k="natural" v="water" />
		<tag k="ssr:stedsnr" v="220" />
	</node>
	<node id="-14396" lat="58.3445696206" lon="6.3527826594">
		<tag k="name" v="Stemmetjørna" />
>>>>>>> e1d4bc35ff8a6074a6f2e91616a996b547c36f15
		<tag k="natural" v="water" />
		<tag k="ssr:stedsnr" v="937732" />
	</node>
<<<<<<< HEAD
	<node lat="58.331486106928885" lon="6.453905558464503" id="-2320">
		<tag k="name" v="Olaslått-tjørna" />
=======
	<node id="-14393" lat="58.3421361075" lon="6.2232194443">
		<tag k="name" v="Nåvatnet" />
>>>>>>> e1d4bc35ff8a6074a6f2e91616a996b547c36f15
		<tag k="natural" v="water" />
		<tag k="ssr:stedsnr" v="937996" />
	</node>
<<<<<<< HEAD
	<node lat="58.33337777846099" lon="6.459794437531859" id="-2321">
		<tag k="name" v="Yfustjørna" />
		<tag k="natural" v="water" />
		<tag k="ssr:stedsnr" v="938000" />
	</node>
	<node lat="58.30999721936839" lon="6.386419445371305" id="-2322">
		<tag k="name" v="Måketjørn" />
		<tag k="natural" v="water" />
		<tag k="ssr:stedsnr" v="937955" />
	</node>
	<node lat="58.31131355613738" lon="6.469329449498185" id="-2323">
		<tag k="name" v="Kolebergtjørna" />
=======
	<node id="-14391" lat="58.4025916698" lon="6.25035832591">
		<tag k="name" v="Gaudlandsvatnet" />
		<tag k="natural" v="water" />
		<tag k="ssr:stedsnr" v="142" />
	</node>
	<node id="-14380" lat="58.4015555535" lon="6.38826943655">
		<tag k="name" v="Sundet" />
		<tag k="natural" v="strait" />
		<tag k="ssr:stedsnr" v="938805" />
	</node>
	<node id="-14377" lat="58.4354083376" lon="6.24762500645">
		<tag k="name" v="Gøylegsundet" />
		<tag k="natural" v="strait" />
		<tag k="ssr:stedsnr" v="938462" />
	</node>
	<node id="-14367" lat="58.3882722256" lon="6.23936388498">
		<tag k="name" v="Grastjørn" />
>>>>>>> e1d4bc35ff8a6074a6f2e91616a996b547c36f15
		<tag k="natural" v="water" />
		<tag k="ssr:stedsnr" v="937962" />
	</node>
<<<<<<< HEAD
	<node lat="58.309791662500125" lon="6.462183336218936" id="-2324">
		<tag k="name" v="Urdalstjørna" />
=======
	<node id="-14361" lat="58.3701153351" lon="6.36882006519">
		<tag k="name" v="Løtjørna" />
>>>>>>> e1d4bc35ff8a6074a6f2e91616a996b547c36f15
		<tag k="natural" v="water" />
		<tag k="ssr:stedsnr" v="937963" />
	</node>
<<<<<<< HEAD
	<node lat="58.39315833657635" lon="6.317202771136318" id="-2327">
		<tag k="name" v="Hølen" />
		<tag k="place" v="locality" />
		<tag k="ssr:stedsnr" v="938263" />
	</node>
	<node lat="58.43540833759841" lon="6.247625006446467" id="-2335">
		<tag k="name" v="Gøylegsundet" />
		<tag k="natural" v="strait" />
		<tag k="ssr:stedsnr" v="938462" />
	</node>
	<node lat="58.41333333144496" lon="6.417072230228446" id="-2341">
		<tag k="name" v="Øyno" />
		<tag k="natural" v="cape" />
		<tag k="ssr:stedsnr" v="938885" />
	</node>
	<node lat="58.3456434289211" lon="6.445643321745044" id="-2342">
		<tag k="name" v="Bløstjørnene" />
		<tag k="natural" v="water" />
		<tag k="ssr:stedsnr" v="938895" />
		<tag k="water" v="lake" />
	</node>
	<node lat="58.41195555274471" lon="6.380741668953306" id="-2343">
		<tag k="name" v="Klattatjørn" />
		<tag k="natural" v="water" />
		<tag k="ssr:stedsnr" v="938842" />
		<tag k="water" v="pond" />
	</node>
	<node lat="58.39720000426679" lon="6.420505552424557" id="-2345">
		<tag k="name" v="Indra Tjødno" />
		<tag k="natural" v="water" />
		<tag k="ssr:stedsnr" v="938856" />
		<tag k="water" v="pond" />
	</node>
	<node lat="58.360905555406575" lon="6.38209999497177" id="-2346">
		<tag k="name" v="Litla Asaltjørna" />
		<tag k="natural" v="water" />
		<tag k="ssr:stedsnr" v="938871" />
	</node>
	<node lat="58.3671569158318" lon="6.160995161847083" id="-2347">
		<tag k="name" v="Stemmetjørn" />
		<tag k="natural" v="water" />
		<tag k="ssr:stedsnr" v="949846" />
	</node>
	<node lat="58.34061838753462" lon="6.189536049693327" id="-2350">
		<tag k="name" v="Espelitjørna" />
		<tag k="natural" v="water" />
		<tag k="ssr:stedsnr" v="952492" />
	</node>
=======
	<node id="-14339" lat="58.4486694428" lon="6.26638889027">
		<tag k="name" v="Kanesodden" />
		<tag k="natural" v="cape" />
		<tag k="ssr:stedsnr" v="876455" />
	</node>
>>>>>>> e1d4bc35ff8a6074a6f2e91616a996b547c36f15
</osm>
