<?xml version="1.0" encoding="UTF-8"?>
<<<<<<< HEAD
<osm version="0.6" generator="osmapis">
	<node lat="58.434424356017736" lon="6.425302784584788" id="-7">
=======
<osm generator="osmapis" version="0.6">
	<node id="-14847" lat="58.3809940311" lon="6.20973888128">
		<tag k="fixme" v="consider place=hamlet" />
		<tag k="name" v="Selebø" />
		<tag k="place" v="farm" />
		<tag k="ssr:stedsnr" v="304970" />
	</node>
	<node id="-14845" lat="58.4215525133" lon="6.25095603135">
		<tag k="fixme" v="consider place=hamlet" />
		<tag k="name" v="Skognes" />
		<tag k="place" v="farm" />
		<tag k="ssr:stedsnr" v="304129" />
	</node>
	<node id="-13306" lat="58.3951728456" lon="6.41759367257">
		<tag k="fixme" v="consider place=hamlet" />
		<tag k="name" v="Ytre Mydland" />
		<tag k="place" v="farm" />
		<tag k="ssr:stedsnr" v="270832" />
	</node>
	<node id="-14840" lat="58.3088483824" lon="6.33365322924">
		<tag k="fixme" v="consider place=hamlet" />
		<tag k="name" v="Bu" />
		<tag k="place" v="farm" />
		<tag k="ssr:stedsnr" v="303229" />
	</node>
	<node id="-14839" lat="58.3554010803" lon="6.25590194596">
		<tag k="name" v="Rekedal" />
		<tag k="place" v="hamlet" />
		<tag k="ssr:stedsnr" v="303220" />
	</node>
	<node id="-14838" lat="58.3565978862" lon="6.30394055097">
		<tag k="fixme" v="consider place=hamlet" />
		<tag k="name" v="Lindland" />
		<tag k="place" v="farm" />
		<tag k="ssr:stedsnr" v="303213" />
	</node>
	<node id="-13812" lat="58.3844227749" lon="6.18997415215">
		<tag k="fixme" v="consider place=hamlet" />
		<tag k="name" v="Eigeli" />
		<tag k="place" v="farm" />
		<tag k="ssr:stedsnr" v="485983" />
	</node>
	<node id="-13806" lat="58.3490695028" lon="6.27179945102">
>>>>>>> e1d4bc35ff8a6074a6f2e91616a996b547c36f15
		<tag k="fixme" v="consider place=hamlet" />
		<tag k="name" v="Håland" />
		<tag k="place" v="farm" />
		<tag k="ssr:stedsnr" v="890" />
	</node>
<<<<<<< HEAD
	<node lat="58.438734980241136" lon="6.464852298706811" id="-8">
=======
	<node id="-13805" lat="58.4045765089" lon="6.33548938521">
>>>>>>> e1d4bc35ff8a6074a6f2e91616a996b547c36f15
		<tag k="fixme" v="consider place=hamlet" />
		<tag k="name" v="Solli" />
		<tag k="place" v="farm" />
		<tag k="ssr:stedsnr" v="891" />
	</node>
<<<<<<< HEAD
	<node lat="58.36620351875434" lon="6.280462361939604" id="-10">
		<tag k="name" v="Rossland" />
		<tag k="place" v="hamlet" />
		<tag k="ssr:stedsnr" v="25171" />
	</node>
	<node lat="58.4677888916468" lon="6.272219436360511" id="-15">
		<tag k="name" v="Errestø" />
=======
	<node id="-13803" lat="58.2961005833" lon="6.43977163683">
		<tag k="fixme" v="consider place=hamlet" />
		<tag k="name" v="Log" />
>>>>>>> e1d4bc35ff8a6074a6f2e91616a996b547c36f15
		<tag k="place" v="farm" />
		<tag k="ssr:stedsnr" v="27123" />
	</node>
<<<<<<< HEAD
	<node lat="58.364200000174996" lon="6.392961118976907" id="-59">
		<tag k="historic" v="shieling" />
		<tag k="name" v="Fidjastølen" />
		<tag k="place" v="isolated_dwelling" />
		<tag k="ssr:stedsnr" v="27874" />
	</node>
	<node lat="58.36449166235311" lon="6.171361105861206" id="-62">
		<tag k="name" v="Fjosan" />
		<tag k="place" v="locality" />
		<tag k="ssr:stedsnr" v="39910" />
	</node>
	<node lat="58.36532755564434" lon="6.317449191653657" id="-78">
=======
	<node id="-13797" lat="58.3395444481" lon="6.26057500592">
		<tag k="name" v="Rekefjord" />
		<tag k="place" v="village" />
		<tag k="ssr:stedsnr" v="668212" />
	</node>
	<node id="-13796" lat="58.4279262637" lon="6.28161493796">
		<tag k="alt_name" v="Evja, yt" />
		<tag k="fixme" v="consider place=hamlet" />
		<tag k="name" v="Ytre Evja" />
		<tag k="place" v="farm" />
		<tag k="ssr:stedsnr" v="668142" />
	</node>
	<node id="-13793" lat="58.354191587" lon="6.20442687118">
>>>>>>> e1d4bc35ff8a6074a6f2e91616a996b547c36f15
		<tag k="fixme" v="consider place=hamlet" />
		<tag k="name" v="Krone" />
		<tag k="place" v="farm" />
		<tag k="ssr:stedsnr" v="61203" />
	</node>
<<<<<<< HEAD
	<node lat="58.40798526665588" lon="6.275751516330554" id="-80">
=======
	<node id="-13792" lat="58.3550858502" lon="6.15448433004">
>>>>>>> e1d4bc35ff8a6074a6f2e91616a996b547c36f15
		<tag k="fixme" v="consider place=hamlet" />
		<tag k="name" v="Svinland" />
		<tag k="place" v="farm" />
		<tag k="ssr:stedsnr" v="61116" />
	</node>
<<<<<<< HEAD
	<node lat="58.402334265983015" lon="6.383864715633505" id="-81">
		<tag k="fixme" v="consider place=hamlet" />
		<tag k="name" v="Litle Åmdal" />
=======
	<node id="-13279" lat="58.456600002" lon="6.27988333322">
		<tag k="name" v="Tjednareid" />
		<tag k="place" v="farm" />
		<tag k="ssr:stedsnr" v="270138" />
	</node>
	<node id="-14302" lat="58.3283388923" lon="6.24407911843">
		<tag k="name" v="Lervik" />
>>>>>>> e1d4bc35ff8a6074a6f2e91616a996b547c36f15
		<tag k="place" v="farm" />
		<tag k="ssr:stedsnr" v="61126" />
	</node>
<<<<<<< HEAD
	<node lat="58.33265862144887" lon="6.266180381809384" id="-83">
		<tag k="fixme" v="consider place=hamlet" />
		<tag k="name" v="Lauvland" />
=======
	<node id="-14301" lat="58.3328638886" lon="6.2409888886">
		<tag k="name" v="Sultnes" />
>>>>>>> e1d4bc35ff8a6074a6f2e91616a996b547c36f15
		<tag k="place" v="farm" />
		<tag k="ssr:stedsnr" v="61192" />
	</node>
<<<<<<< HEAD
	<node lat="58.338058378929915" lon="6.199873623474341" id="-85">
=======
	<node id="-13784" lat="58.3476052975" lon="6.2450365735">
>>>>>>> e1d4bc35ff8a6074a6f2e91616a996b547c36f15
		<tag k="fixme" v="consider place=hamlet" />
		<tag k="name" v="Nesvåg" />
		<tag k="place" v="farm" />
		<tag k="ssr:stedsnr" v="61941" />
	</node>
<<<<<<< HEAD
	<node lat="58.29248611228013" lon="6.44025834053787" id="-88">
		<tag k="name" v="Åna-Sira" />
=======
	<node id="-13783" lat="58.3968527781" lon="6.4277277841">
		<tag k="fixme" v="consider place=hamlet" />
		<tag k="name" v="Mydland" />
>>>>>>> e1d4bc35ff8a6074a6f2e91616a996b547c36f15
		<tag k="place" v="village" />
		<tag k="ssr:stedsnr" v="242024" />
	</node>
<<<<<<< HEAD
	<node lat="58.407089852335716" lon="6.371618722672704" id="-92">
=======
	<node id="-13270" lat="58.3246999972" lon="6.35656944864">
		<tag k="building" v="industrial" />
		<tag k="industrial" v="factory" />
		<tag k="name" v="Fladen" />
		<tag k="ssr:stedsnr" v="269426" />
	</node>
	<node id="-13781" lat="58.3842823965" lon="6.38737814126">
>>>>>>> e1d4bc35ff8a6074a6f2e91616a996b547c36f15
		<tag k="fixme" v="consider place=hamlet" />
		<tag k="name" v="Øvre Støle" />
		<tag k="place" v="farm" />
		<tag k="ssr:stedsnr" v="243127" />
	</node>
<<<<<<< HEAD
	<node lat="58.347767584652104" lon="6.290442455790581" id="-98">
		<tag k="fixme" v="consider place=hamlet" />
		<tag k="name" v="Bø" />
		<tag k="place" v="farm" />
		<tag k="ssr:stedsnr" v="243179" />
	</node>
	<node lat="58.39674166543119" lon="6.272499997309753" id="-116">
		<tag k="name" v="Vestre Barstad" />
		<tag k="place" v="farm" />
		<tag k="ssr:stedsnr" v="88204" />
	</node>
	<node lat="58.33606589266598" lon="6.264430001872581" id="-117">
		<tag k="fixme" v="consider place=hamlet" />
		<tag k="name" v="Godthåp" />
		<tag k="place" v="farm" />
		<tag k="ssr:stedsnr" v="88217" />
	</node>
	<node lat="58.37790269320894" lon="6.344342352943928" id="-162">
=======
	<node id="-13842" lat="58.2797750006" lon="6.38778610651">
		<tag k="name" v="Sanden" />
		<tag k="place" v="farm" />
		<tag k="ssr:stedsnr" v="692148" />
	</node>
	<node id="-14785" lat="58.3432942503" lon="6.26584003528">
>>>>>>> e1d4bc35ff8a6074a6f2e91616a996b547c36f15
		<tag k="fixme" v="consider place=hamlet" />
		<tag k="name" v="Frøytlog" />
		<tag k="place" v="farm" />
		<tag k="ssr:stedsnr" v="121186" />
	</node>
<<<<<<< HEAD
	<node lat="58.33400223332537" lon="6.218543351869081" id="-169">
		<tag k="loc_name" v="Stien" />
		<tag k="name" v="Stigen" />
=======
	<node id="-13248" lat="58.4070898523" lon="6.37161872267">
		<tag k="fixme" v="consider place=hamlet" />
		<tag k="name" v="Øvre Støle" />
>>>>>>> e1d4bc35ff8a6074a6f2e91616a996b547c36f15
		<tag k="place" v="farm" />
		<tag k="ssr:stedsnr" v="142381" />
	</node>
<<<<<<< HEAD
	<node lat="58.39902697533222" lon="6.496422008115113" id="-215">
=======
	<node id="-13245" lat="58.3477675847" lon="6.29044245579">
>>>>>>> e1d4bc35ff8a6074a6f2e91616a996b547c36f15
		<tag k="fixme" v="consider place=hamlet" />
		<tag k="name" v="Gulland" />
		<tag k="place" v="farm" />
		<tag k="ssr:stedsnr" v="182163" />
	</node>
<<<<<<< HEAD
	<node lat="58.38811772382845" lon="6.32713122826312" id="-216">
		<tag k="fixme" v="consider place=hamlet" />
		<tag k="name" v="Toks" />
=======
	<node id="-13754" lat="58.3933083316" lon="6.2249861064">
		<tag k="name" v="Saurdal" />
>>>>>>> e1d4bc35ff8a6074a6f2e91616a996b547c36f15
		<tag k="place" v="farm" />
		<tag k="ssr:stedsnr" v="182168" />
	</node>
<<<<<<< HEAD
	<node lat="58.46246641774527" lon="6.2781312429909075" id="-217">
		<tag k="fixme" v="consider place=hamlet" />
		<tag k="name" v="Kvivåg" />
		<tag k="place" v="farm" />
		<tag k="ssr:stedsnr" v="182907" />
	</node>
	<node lat="58.46887715657684" lon="6.279419522773679" id="-218">
=======
	<node id="-13751" lat="58.3633864656" lon="6.4175096722">
>>>>>>> e1d4bc35ff8a6074a6f2e91616a996b547c36f15
		<tag k="fixme" v="consider place=hamlet" />
		<tag k="name" v="Grov" />
		<tag k="place" v="farm" />
		<tag k="ssr:stedsnr" v="182927" />
	</node>
<<<<<<< HEAD
	<node lat="58.401766668480604" lon="6.39981666941521" id="-221">
		<tag k="name" v="Myssa" />
		<tag k="place" v="hamlet" />
		<tag k="ssr:stedsnr" v="208035" />
	</node>
	<node lat="58.45660000197872" lon="6.27988333322465" id="-261">
		<tag k="name" v="Tjednareid" />
		<tag k="place" v="farm" />
		<tag k="ssr:stedsnr" v="270138" />
	</node>
	<node lat="58.36219444649026" lon="6.281477774155002" id="-271">
		<tag k="name" v="Tverrvollen" />
		<tag k="place" v="farm" />
		<tag k="ssr:stedsnr" v="270313" />
	</node>
	<node lat="58.392618827173614" lon="6.370671491989424" id="-317">
		<tag k="alt_name" v="Ålgård store;Ålgård" />
		<tag k="fixme" v="consider place=hamlet" />
		<tag k="name" v="Store Ålgård" />
		<tag k="place" v="farm" />
		<tag k="ssr:stedsnr" v="452133" />
	</node>
	<node lat="58.37116388733323" lon="6.3051555570661835" id="-331">
		<tag k="name" v="Øvre Steinberg" />
=======
	<node id="-13744" lat="58.4189690926" lon="6.48283987089">
		<tag k="fixme" v="consider place=hamlet" />
		<tag k="name" v="Løyning" />
		<tag k="place" v="farm" />
		<tag k="ssr:stedsnr" v="513851" />
	</node>
	<node id="-14408" lat="58.3619144704" lon="6.15630771936">
		<tag k="fixme" v="consider place=hamlet" />
		<tag k="name" v="Gyland" />
		<tag k="place" v="farm" />
		<tag k="ssr:stedsnr" v="970" />
	</node>
	<node id="-14749" lat="58.3936111101" lon="6.27402777622">
		<tag k="name" v="Barstad" />
		<tag k="place" v="farm" />
		<tag k="ssr:stedsnr" v="182171" />
	</node>
	<node id="-14760" lat="58.3784965213" lon="6.1504770838">
		<tag k="fixme" v="consider place=hamlet" />
		<tag k="name" v="Åvendal" />
>>>>>>> e1d4bc35ff8a6074a6f2e91616a996b547c36f15
		<tag k="place" v="farm" />
		<tag k="ssr:stedsnr" v="452353" />
	</node>
<<<<<<< HEAD
	<node lat="58.32469999719528" lon="6.356569448644265" id="-377">
		<tag k="building" v="industrial" />
		<tag k="industrial" v="factory" />
		<tag k="name" v="Fladen" />
		<tag k="ssr:stedsnr" v="269426" />
	</node>
	<node lat="58.395172845562215" lon="6.417593672571052" id="-391">
		<tag k="fixme" v="consider place=hamlet" />
		<tag k="name" v="Ytre Mydland" />
=======
	<node id="-15269" lat="58.3900916706" lon="6.36561388124">
		<tag k="alt_name" v="Ålgård litle" />
		<tag k="name" v="Litle Ålgård" />
>>>>>>> e1d4bc35ff8a6074a6f2e91616a996b547c36f15
		<tag k="place" v="farm" />
		<tag k="ssr:stedsnr" v="270832" />
	</node>
<<<<<<< HEAD
	<node lat="58.37726716838474" lon="6.319550700262935" id="-417">
=======
	<node id="-14755" lat="58.3818294903" lon="6.31670297802">
>>>>>>> e1d4bc35ff8a6074a6f2e91616a996b547c36f15
		<tag k="fixme" v="consider place=hamlet" />
		<tag k="name" v="Bakka" />
		<tag k="place" v="farm" />
<<<<<<< HEAD
		<tag k="ssr:stedsnr" v="303172" />
	</node>
	<node lat="58.356597886241445" lon="6.303940550973596" id="-418">
		<tag k="fixme" v="consider place=hamlet" />
		<tag k="name" v="Lindland" />
		<tag k="place" v="farm" />
		<tag k="ssr:stedsnr" v="303213" />
	</node>
	<node lat="58.35540108025588" lon="6.255901945956662" id="-419">
		<tag k="name" v="Rekedal" />
		<tag k="place" v="hamlet" />
		<tag k="ssr:stedsnr" v="303220" />
	</node>
	<node lat="58.42155251329923" lon="6.250956031348608" id="-423">
=======
		<tag k="ssr:stedsnr" v="182179" />
	</node>
	<node id="-13726" lat="58.3293166687" lon="6.25434722407">
		<tag k="name" v="Tverrdal" />
		<tag k="place" v="locality" />
		<tag k="ssr:stedsnr" v="513349" />
	</node>
	<node id="-15173" lat="58.3476249991" lon="6.19752499336">
		<tag k="name" v="Hagan" />
		<tag k="place" v="farm" />
		<tag k="ssr:stedsnr" v="606948" />
	</node>
	<node id="-14748" lat="58.3881177238" lon="6.32713122826">
>>>>>>> e1d4bc35ff8a6074a6f2e91616a996b547c36f15
		<tag k="fixme" v="consider place=hamlet" />
		<tag k="name" v="Skognes" />
		<tag k="place" v="farm" />
		<tag k="ssr:stedsnr" v="304129" />
	</node>
<<<<<<< HEAD
	<node lat="58.33626944025363" lon="6.254405561692557" id="-425">
		<tag k="name" v="Raudhella" />
=======
	<node id="-14747" lat="58.3990269753" lon="6.49642200812">
		<tag k="fixme" v="consider place=hamlet" />
		<tag k="name" v="Gulland" />
>>>>>>> e1d4bc35ff8a6074a6f2e91616a996b547c36f15
		<tag k="place" v="farm" />
		<tag k="ssr:stedsnr" v="464847" />
	</node>
<<<<<<< HEAD
	<node lat="58.34355555822767" lon="6.309847228894943" id="-437">
		<tag k="alt_name" v="Eik" />
		<tag k="name" v="Eik (Prestegarden)" />
=======
	<node id="-14745" lat="58.3264527812" lon="6.2684749954">
		<tag k="name" v="Stig" />
>>>>>>> e1d4bc35ff8a6074a6f2e91616a996b547c36f15
		<tag k="place" v="farm" />
		<tag k="ssr:stedsnr" v="330414" />
	</node>
<<<<<<< HEAD
	<node lat="58.314480552469504" lon="6.337022216345153" id="-440">
		<tag k="name" v="Vinterstø" />
		<tag k="place" v="locality" />
		<tag k="ssr:stedsnr" v="330364" />
	</node>
	<node lat="58.33995325561948" lon="6.281938108657635" id="-480">
		<tag k="name" v="Hauge" />
		<tag k="place" v="village" />
		<tag k="ssr:stedsnr" v="364213" />
	</node>
	<node lat="58.34087499865158" lon="6.2494277736850945" id="-497">
		<tag k="name" v="Myro" />
=======
	<node id="-15251" lat="58.3961529222" lon="6.27298084074">
		<tag k="name" v="Barstad" />
		<tag k="place" v="hamlet" />
		<tag k="ssr:stedsnr" v="753189" />
	</node>
	<node id="-15250" lat="58.3648333359" lon="6.22237222067">
		<tag k="name" v="Ribland" />
>>>>>>> e1d4bc35ff8a6074a6f2e91616a996b547c36f15
		<tag k="place" v="farm" />
		<tag k="ssr:stedsnr" v="391302" />
	</node>
<<<<<<< HEAD
	<node lat="58.39776492895164" lon="6.429341247664189" id="-521">
=======
	<node id="-14224" lat="58.367742572" lon="6.3049224517">
>>>>>>> e1d4bc35ff8a6074a6f2e91616a996b547c36f15
		<tag k="fixme" v="consider place=hamlet" />
		<tag k="name" v="Indre Mydland" />
		<tag k="place" v="farm" />
		<tag k="ssr:stedsnr" v="391499" />
	</node>
<<<<<<< HEAD
	<node lat="58.37034550353645" lon="6.321440786710206" id="-536">
=======
	<node id="-14223" lat="58.3749910874" lon="6.26281233307">
>>>>>>> e1d4bc35ff8a6074a6f2e91616a996b547c36f15
		<tag k="fixme" v="consider place=hamlet" />
		<tag k="name" v="Brandsberg" />
		<tag k="place" v="farm" />
		<tag k="ssr:stedsnr" v="485135" />
	</node>
<<<<<<< HEAD
	<node lat="58.39215162707498" lon="6.370607444928781" id="-537">
		<tag k="name" v="Ålgård" />
		<tag k="place" v="hamlet" />
		<tag k="ssr:stedsnr" v="485143" />
	</node>
	<node lat="58.389663007084145" lon="6.4799125806592475" id="-538">
		<tag k="fixme" v="consider place=hamlet" />
		<tag k="name" v="Åsvoll" />
=======
	<node id="-15246" lat="58.3368972239" lon="6.2000888971">
		<tag k="name" v="Krossan" />
>>>>>>> e1d4bc35ff8a6074a6f2e91616a996b547c36f15
		<tag k="place" v="farm" />
		<tag k="ssr:stedsnr" v="485144" />
	</node>
<<<<<<< HEAD
	<node lat="58.37986111434879" lon="6.289508340833708" id="-540">
		<tag k="name" v="Herveland" />
=======
	<node id="-14732" lat="58.2791416631" lon="6.38646389443">
		<tag k="name" v="Sanden" />
>>>>>>> e1d4bc35ff8a6074a6f2e91616a996b547c36f15
		<tag k="place" v="farm" />
		<tag k="ssr:stedsnr" v="485151" />
	</node>
<<<<<<< HEAD
	<node lat="58.349069502783045" lon="6.271799451022317" id="-541">
		<tag k="fixme" v="consider place=hamlet" />
		<tag k="name" v="Drageland" />
		<tag k="place" v="farm" />
		<tag k="ssr:stedsnr" v="485154" />
	</node>
	<node lat="58.3844227749444" lon="6.189974152147506" id="-550">
		<tag k="fixme" v="consider place=hamlet" />
		<tag k="name" v="Eigeli" />
		<tag k="place" v="farm" />
		<tag k="ssr:stedsnr" v="485983" />
	</node>
	<node lat="58.33664307553465" lon="6.277836858855586" id="-555">
		<tag k="fixme" v="consider place=hamlet" />
		<tag k="name" v="Skarås" />
		<tag k="place" v="farm" />
		<tag k="ssr:stedsnr" v="417196" />
	</node>
	<node lat="58.36338646558521" lon="6.417509672198205" id="-559">
=======
	<node id="-13378" lat="58.4688771566" lon="6.27941952277">
		<tag k="fixme" v="consider place=hamlet" />
		<tag k="name" v="Grov" />
		<tag k="place" v="farm" />
		<tag k="ssr:stedsnr" v="182927" />
	</node>
	<node id="-13193" lat="58.4677888916" lon="6.27221943636">
		<tag k="name" v="Errestø" />
		<tag k="place" v="farm" />
		<tag k="ssr:stedsnr" v="27123" />
	</node>
	<node id="-14215" lat="58.3057944023" lon="6.46098883678">
		<tag k="fixme" v="consider place=hamlet" />
		<tag k="name" v="Eigeli" />
		<tag k="place" v="farm" />
		<tag k="ssr:stedsnr" v="788013" />
	</node>
	<node id="-15238" lat="58.3176055533" lon="6.34435000726">
		<tag k="name" v="Jøssingfjord" />
		<tag k="place" v="hamlet" />
		<tag k="ssr:stedsnr" v="643182" />
	</node>
	<node id="-13959" lat="58.3389523324" lon="6.29438807204">
>>>>>>> e1d4bc35ff8a6074a6f2e91616a996b547c36f15
		<tag k="fixme" v="consider place=hamlet" />
		<tag k="name" v="Brombu" />
		<tag k="place" v="farm" />
<<<<<<< HEAD
		<tag k="ssr:stedsnr" v="425205" />
	</node>
	<node lat="58.41427270001487" lon="6.333187217153297" id="-560">
=======
		<tag k="ssr:stedsnr" v="607203" />
	</node>
	<node id="-13546" lat="58.2822852298" lon="6.38078456225">
		<tag k="fixme" v="consider place=hamlet" />
		<tag k="name" v="Mol" />
		<tag k="place" v="farm" />
		<tag k="ssr:stedsnr" v="303013" />
	</node>
	<node id="-14200" lat="58.3229694423" lon="6.28466389177">
		<tag k="alt_name" v="Strondo" />
		<tag k="loc_name" v="Sogndals-strand" />
		<tag k="name" v="Sogndalsstranda" />
		<tag k="place" v="village" />
		<tag k="ssr:stedsnr" v="910244" />
	</node>
	<node id="-14199" lat="58.3485664318" lon="6.30193950951">
>>>>>>> e1d4bc35ff8a6074a6f2e91616a996b547c36f15
		<tag k="fixme" v="consider place=hamlet" />
		<tag k="name" v="Elgjestraum" />
		<tag k="place" v="farm" />
		<tag k="ssr:stedsnr" v="425148" />
	</node>
<<<<<<< HEAD
	<node lat="58.32743201511449" lon="6.288972844575913" id="-562">
=======
	<node id="-14198" lat="58.3771368188" lon="6.32898531611">
>>>>>>> e1d4bc35ff8a6074a6f2e91616a996b547c36f15
		<tag k="fixme" v="consider place=hamlet" />
		<tag k="name" v="Kjelland" />
		<tag k="place" v="farm" />
<<<<<<< HEAD
		<tag k="ssr:stedsnr" v="425249" />
	</node>
	<node lat="58.32739066433251" lon="6.268344828096014" id="-563">
=======
		<tag k="ssr:stedsnr" v="910190" />
	</node>
	<node id="-13684" lat="58.345000002" lon="6.31111944071">
		<tag k="alt_name" v="Eikedal kyrkjegard" />
		<tag k="name" v="Eikedal gravplass" />
		<tag k="place" v="locality" />
		<tag k="ssr:stedsnr" v="512421" />
	</node>
	<node id="-14195" lat="58.4193544732" lon="6.27783016386">
>>>>>>> e1d4bc35ff8a6074a6f2e91616a996b547c36f15
		<tag k="fixme" v="consider place=hamlet" />
		<tag k="name" v="Løgevik" />
		<tag k="place" v="farm" />
		<tag k="ssr:stedsnr" v="425250" />
	</node>
<<<<<<< HEAD
	<node lat="58.39330833158353" lon="6.224986106399202" id="-568">
		<tag k="name" v="Saurdal" />
=======
	<node id="-14227" lat="58.3663814559" lon="6.32003967069">
		<tag k="fixme" v="consider place=hamlet" />
		<tag k="name" v="Skjevrås" />
		<tag k="place" v="farm" />
		<tag k="ssr:stedsnr" v="789218" />
	</node>
	<node id="-13677" lat="58.3721722227" lon="6.29303888639">
		<tag k="name" v="Legen" />
>>>>>>> e1d4bc35ff8a6074a6f2e91616a996b547c36f15
		<tag k="place" v="farm" />
		<tag k="ssr:stedsnr" v="450218" />
	</node>
<<<<<<< HEAD
	<node lat="58.40457650890638" lon="6.335489385205397" id="-609">
=======
	<node id="-14697" lat="58.3297600501" lon="6.28375048741">
		<tag k="alt_name" v="Nesset" />
>>>>>>> e1d4bc35ff8a6074a6f2e91616a996b547c36f15
		<tag k="fixme" v="consider place=hamlet" />
		<tag k="name" v="Løtopt" />
		<tag k="place" v="farm" />
		<tag k="ssr:stedsnr" v="485114" />
	</node>
<<<<<<< HEAD
	<node lat="58.29610058331065" lon="6.439771636830671" id="-610">
=======
	<node id="-14184" lat="58.3615654335" lon="6.30891921432">
>>>>>>> e1d4bc35ff8a6074a6f2e91616a996b547c36f15
		<tag k="fixme" v="consider place=hamlet" />
		<tag k="name" v="Log" />
		<tag k="place" v="farm" />
		<tag k="ssr:stedsnr" v="485021" />
	</node>
<<<<<<< HEAD
	<node lat="58.46203163692408" lon="6.263597316202213" id="-612">
=======
	<node id="-14183" lat="58.3640655196" lon="6.22752532969">
>>>>>>> e1d4bc35ff8a6074a6f2e91616a996b547c36f15
		<tag k="fixme" v="consider place=hamlet" />
		<tag k="name" v="Bjelland" />
		<tag k="place" v="farm" />
		<tag k="ssr:stedsnr" v="485910" />
	</node>
<<<<<<< HEAD
	<node lat="58.40528333386844" lon="6.475577770765602" id="-619">
=======
	<node id="-13668" lat="58.4052833339" lon="6.47557777077">
>>>>>>> e1d4bc35ff8a6074a6f2e91616a996b547c36f15
		<tag k="name" v="Øvre Myssa" />
		<tag k="place" v="farm" />
		<tag k="ssr:stedsnr" v="510824" />
	</node>
<<<<<<< HEAD
	<node lat="58.372172222713324" lon="6.293038886387394" id="-621">
		<tag k="name" v="Legen" />
=======
	<node id="-13667" lat="58.3882805583" lon="6.37120555633">
		<tag k="name" v="Ålgård" />
		<tag k="place" v="farm" />
		<tag k="ssr:stedsnr" v="510218" />
	</node>
	<node id="-13200" lat="58.3631611127" lon="6.36111388289">
		<tag k="name" v="Dravlemyr" />
		<tag k="place" v="farm" />
		<tag k="ssr:stedsnr" v="27327" />
	</node>
	<node id="-13199" lat="58.3776888904" lon="6.23987777528">
		<tag k="name" v="Nedre Saurdal" />
		<tag k="place" v="farm" />
		<tag k="ssr:stedsnr" v="27325" />
	</node>
	<node id="-15076" lat="58.4339167216" lon="6.28021523994">
		<tag k="fixme" v="consider place=hamlet" />
		<tag k="name" v="Indre Evja" />
		<tag k="place" v="farm" />
		<tag k="ssr:stedsnr" v="546873" />
	</node>
	<node id="-13463" lat="58.3711638873" lon="6.30515555707">
		<tag k="name" v="Øvre Steinberg" />
		<tag k="place" v="farm" />
		<tag k="ssr:stedsnr" v="452353" />
	</node>
	<node id="-14672" lat="58.3340022333" lon="6.21854335187">
		<tag k="loc_name" v="Stien" />
		<tag k="name" v="Stigen" />
>>>>>>> e1d4bc35ff8a6074a6f2e91616a996b547c36f15
		<tag k="place" v="farm" />
		<tag k="ssr:stedsnr" v="512369" />
	</node>
<<<<<<< HEAD
	<node lat="58.39686666376137" lon="6.273419442110375" id="-626">
		<tag k="name" v="Øystre Barstad" />
=======
	<node id="-13855" lat="58.3694361135" lon="6.30422500801">
		<tag k="name" v="Nedre Steinberg" />
		<tag k="place" v="farm" />
		<tag k="ssr:stedsnr" v="694302" />
	</node>
	<node id="-14663" lat="58.3314100371" lon="6.23507942299">
		<tag k="fixme" v="consider place=hamlet" />
		<tag k="name" v="Nordnes" />
>>>>>>> e1d4bc35ff8a6074a6f2e91616a996b547c36f15
		<tag k="place" v="farm" />
		<tag k="ssr:stedsnr" v="512472" />
	</node>
<<<<<<< HEAD
	<node lat="58.33898055434575" lon="6.181569449116071" id="-648">
		<tag k="name" v="Seiland" />
		<tag k="place" v="farm" />
		<tag k="ssr:stedsnr" v="524125" />
	</node>
	<node lat="58.33777500175059" lon="6.256716669327886" id="-655">
		<tag k="name" v="Støllevik" />
		<tag k="place" v="quarter" />
		<tag k="ssr:stedsnr" v="543784" />
	</node>
	<node lat="58.3616968499353" lon="6.370792828455279" id="-658">
=======
	<node id="-14661" lat="58.3779026932" lon="6.34434235294">
		<tag k="fixme" v="consider place=hamlet" />
		<tag k="name" v="Frøytlog" />
		<tag k="place" v="farm" />
		<tag k="ssr:stedsnr" v="121186" />
	</node>
	<node id="-14658" lat="58.4210027778" lon="6.43672777803">
		<tag k="name" v="Lunden" />
		<tag k="place" v="locality" />
		<tag k="ssr:stedsnr" v="121150" />
	</node>
	<node id="-15168" lat="58.4506464264" lon="6.28621009115">
>>>>>>> e1d4bc35ff8a6074a6f2e91616a996b547c36f15
		<tag k="fixme" v="consider place=hamlet" />
		<tag k="name" v="Aursland" />
		<tag k="place" v="farm" />
		<tag k="ssr:stedsnr" v="546199" />
	</node>
<<<<<<< HEAD
	<node lat="58.43391672159696" lon="6.2802152399391" id="-659">
=======
	<node id="-15167" lat="58.3292697922" lon="6.31163134042">
>>>>>>> e1d4bc35ff8a6074a6f2e91616a996b547c36f15
		<tag k="fixme" v="consider place=hamlet" />
		<tag k="name" v="Indre Evja" />
		<tag k="place" v="farm" />
		<tag k="ssr:stedsnr" v="546873" />
	</node>
<<<<<<< HEAD
	<node lat="58.27977500060315" lon="6.387786106509665" id="-663">
		<tag k="name" v="Sanden" />
=======
	<node id="-15166" lat="58.3592966823" lon="6.45877061188">
		<tag k="fixme" v="consider place=hamlet" />
		<tag k="name" v="Steinsland" />
>>>>>>> e1d4bc35ff8a6074a6f2e91616a996b547c36f15
		<tag k="place" v="farm" />
		<tag k="ssr:stedsnr" v="692148" />
	</node>
<<<<<<< HEAD
	<node lat="58.390283329893805" lon="6.368594451441798" id="-665">
		<tag k="name" v="Ålgård" />
		<tag k="place" v="village" />
		<tag k="ssr:stedsnr" v="571135" />
	</node>
	<node lat="58.28653888648715" lon="6.402233327787198" id="-666">
		<tag k="name" v="Løyning" />
		<tag k="place" v="farm" />
		<tag k="ssr:stedsnr" v="571146" />
	</node>
	<node lat="58.39794166930003" lon="6.2494638878073605" id="-670">
		<tag k="fixme" v="consider tourism=alpine_hut or tourism=chalet" />
		<tag k="name" v="Gaudland" />
		<tag k="ssr:stedsnr" v="572316" />
		<tag k="tourism" v="wilderness_hut" />
	</node>
	<node lat="58.33773888744223" lon="6.281086115559038" id="-672">
=======
	<node id="-15165" lat="58.3765287123" lon="6.24022806917">
		<tag k="name" v="Saurdal" />
		<tag k="place" v="hamlet" />
		<tag k="ssr:stedsnr" v="606183" />
	</node>
	<node id="-15164" lat="58.3894777736" lon="6.23683611847">
		<tag k="name" v="Lundan" />
		<tag k="place" v="isolated_dwelling" />
		<tag k="ssr:stedsnr" v="606174" />
	</node>
	<node id="-15162" lat="58.3729133124" lon="6.33032870156">
>>>>>>> e1d4bc35ff8a6074a6f2e91616a996b547c36f15
		<tag k="fixme" v="consider place=hamlet" />
		<tag k="name" v="Pitlingen" />
		<tag k="place" v="village" />
		<tag k="ssr:stedsnr" v="572406" />
	</node>
	<node lat="58.335441088224606" lon="6.249830875309064" id="-686">
		<tag k="fixme" v="consider place=hamlet" />
		<tag k="name" v="Immerstein" />
		<tag k="place" v="farm" />
		<tag k="ssr:stedsnr" v="573259" />
	</node>
<<<<<<< HEAD
	<node lat="58.36943611354078" lon="6.304225008013738" id="-703">
		<tag k="name" v="Nedre Steinberg" />
=======
	<node id="-13623" lat="58.3408749987" lon="6.24942777369">
		<tag k="name" v="Myro" />
>>>>>>> e1d4bc35ff8a6074a6f2e91616a996b547c36f15
		<tag k="place" v="farm" />
		<tag k="ssr:stedsnr" v="694302" />
	</node>
<<<<<<< HEAD
	<node lat="58.3345833333594" lon="6.2617444402427855" id="-737">
		<tag k="name" v="Åve" />
		<tag k="place" v="farm" />
		<tag k="ssr:stedsnr" v="695312" />
	</node>
	<node lat="58.360916667499836" lon="6.268191661493937" id="-742">
		<tag k="name" v="Steian" />
=======
	<node id="-13790" lat="58.4502305547" lon="6.27699721937">
		<tag k="name" v="Eia" />
		<tag k="old_name" v="Eida" />
		<tag k="place" v="farm" />
		<tag k="ssr:stedsnr" v="667882" />
	</node>
	<node id="-13617" lat="58.370395154" lon="6.38912533743">
		<tag k="loc_name" v="Speiderhytta" />
		<tag k="name" v="Lio" />
		<tag k="place" v="isolated_dwelling" />
		<tag k="ssr:stedsnr" v="389925" />
	</node>
	<node id="-14635" lat="58.3463777741" lon="6.15407778598">
		<tag k="name" v="Birkelandstø" />
>>>>>>> e1d4bc35ff8a6074a6f2e91616a996b547c36f15
		<tag k="place" v="farm" />
		<tag k="ssr:stedsnr" v="695492" />
	</node>
<<<<<<< HEAD
	<node lat="58.292473314614" lon="6.336527522084574" id="-772">
=======
	<node id="-14121" lat="58.3261030591" lon="6.43697201749">
>>>>>>> e1d4bc35ff8a6074a6f2e91616a996b547c36f15
		<tag k="fixme" v="consider place=hamlet" />
		<tag k="name" v="Reg" />
		<tag k="place" v="farm" />
		<tag k="ssr:stedsnr" v="606015" />
	</node>
<<<<<<< HEAD
	<node lat="58.31430881176479" lon="6.3468067748341985" id="-774">
=======
	<node id="-14120" lat="58.3224385835" lon="6.3110329206">
>>>>>>> e1d4bc35ff8a6074a6f2e91616a996b547c36f15
		<tag k="fixme" v="consider place=hamlet" />
		<tag k="name" v="Li" />
		<tag k="place" v="farm" />
		<tag k="ssr:stedsnr" v="606219" />
	</node>
	<node lat="58.37652871232992" lon="6.24022806916754" id="-775">
		<tag k="name" v="Saurdal" />
		<tag k="place" v="hamlet" />
		<tag k="ssr:stedsnr" v="606183" />
	</node>
<<<<<<< HEAD
	<node lat="58.35929668231259" lon="6.458770611881099" id="-776">
=======
	<node id="-13607" lat="58.4620316369" lon="6.2635973162">
>>>>>>> e1d4bc35ff8a6074a6f2e91616a996b547c36f15
		<tag k="fixme" v="consider place=hamlet" />
		<tag k="name" v="Steinsland" />
		<tag k="place" v="farm" />
		<tag k="ssr:stedsnr" v="606189" />
	</node>
<<<<<<< HEAD
	<node lat="58.42592327070995" lon="6.217149032709461" id="-777">
		<tag k="fixme" v="consider place=hamlet" />
		<tag k="name" v="Refsland" />
=======
	<node id="-13604" lat="58.3798611143" lon="6.28950834083">
		<tag k="name" v="Herveland" />
>>>>>>> e1d4bc35ff8a6074a6f2e91616a996b547c36f15
		<tag k="place" v="farm" />
		<tag k="ssr:stedsnr" v="606755" />
	</node>
<<<<<<< HEAD
	<node lat="58.34762499908303" lon="6.197524993364261" id="-778">
		<tag k="name" v="Hagan" />
		<tag k="place" v="farm" />
		<tag k="ssr:stedsnr" v="606948" />
	</node>
	<node lat="58.338952332395216" lon="6.294388072037162" id="-780">
=======
	<node id="-15494" lat="58.446731628" lon="6.27078288773">
		<tag k="fixme" v="consider place=hamlet" />
		<tag k="name" v="Eia" />
		<tag k="place" v="farm" />
		<tag k="ssr:stedsnr" v="850910" />
	</node>
	<node id="-13602" lat="58.3896630071" lon="6.47991258066">
>>>>>>> e1d4bc35ff8a6074a6f2e91616a996b547c36f15
		<tag k="fixme" v="consider place=hamlet" />
		<tag k="name" v="Årstad" />
		<tag k="place" v="farm" />
		<tag k="ssr:stedsnr" v="607203" />
	</node>
<<<<<<< HEAD
	<node lat="58.31760555330262" lon="6.344350007259288" id="-827">
		<tag k="name" v="Jøssingfjord" />
=======
	<node id="-13601" lat="58.3921516271" lon="6.37060744493">
		<tag k="name" v="Ålgård" />
>>>>>>> e1d4bc35ff8a6074a6f2e91616a996b547c36f15
		<tag k="place" v="hamlet" />
		<tag k="ssr:stedsnr" v="643182" />
	</node>
<<<<<<< HEAD
	<node lat="58.33689722390368" lon="6.200088897100354" id="-832">
		<tag k="name" v="Krossan" />
=======
	<node id="-13597" lat="58.3703455035" lon="6.32144078671">
		<tag k="fixme" v="consider place=hamlet" />
		<tag k="name" v="Brandsberg" />
>>>>>>> e1d4bc35ff8a6074a6f2e91616a996b547c36f15
		<tag k="place" v="farm" />
		<tag k="ssr:stedsnr" v="648094" />
	</node>
<<<<<<< HEAD
	<node lat="58.32610305905918" lon="6.436972017485345" id="-848">
		<tag k="fixme" v="consider place=hamlet" />
		<tag k="name" v="Skogestad" />
		<tag k="place" v="farm" />
		<tag k="ssr:stedsnr" v="667243" />
	</node>
	<node lat="58.33954444809151" lon="6.2605750059237" id="-850">
		<tag k="name" v="Rekefjord" />
		<tag k="place" v="village" />
		<tag k="ssr:stedsnr" v="668212" />
	</node>
	<node lat="58.42792626373932" lon="6.281614937958339" id="-851">
		<tag k="alt_name" v="Evja, yt" />
		<tag k="fixme" v="consider place=hamlet" />
		<tag k="name" v="Ytre Evja" />
=======
	<node id="-13191" lat="58.2826805558" lon="6.39611667089">
		<tag k="name" v="Litle Løyning" />
		<tag k="place" v="farm" />
		<tag k="ssr:stedsnr" v="27044" />
	</node>
	<node id="-15112" lat="58.2936166685" lon="6.4354000083">
		<tag k="name" v="Håvollen" />
		<tag k="place" v="farm" />
		<tag k="ssr:stedsnr" v="572978" />
	</node>
	<node id="-14084" lat="58.3434194406" lon="6.25006111021">
		<tag k="name" v="Stølen" />
>>>>>>> e1d4bc35ff8a6074a6f2e91616a996b547c36f15
		<tag k="place" v="farm" />
		<tag k="ssr:stedsnr" v="668142" />
	</node>
<<<<<<< HEAD
	<node lat="58.296713887189235" lon="6.445913897194319" id="-876">
		<tag k="name" v="Todneholet" />
		<tag k="place" v="locality" />
		<tag k="ssr:stedsnr" v="694975" />
	</node>
	<node lat="58.279780551285384" lon="6.386072226407689" id="-879">
		<tag k="name" v="Bakken" />
=======
	<node id="-13564" lat="58.3435555582" lon="6.30984722889">
		<tag k="alt_name" v="Eik" />
		<tag k="name" v="Eik (Prestegarden)" />
>>>>>>> e1d4bc35ff8a6074a6f2e91616a996b547c36f15
		<tag k="place" v="farm" />
		<tag k="ssr:stedsnr" v="694987" />
	</node>
<<<<<<< HEAD
	<node lat="58.42993208370506" lon="6.453079795934886" id="-910">
=======
	<node id="-15099" lat="58.3377388874" lon="6.28108611556">
>>>>>>> e1d4bc35ff8a6074a6f2e91616a996b547c36f15
		<tag k="fixme" v="consider place=hamlet" />
		<tag k="name" v="Myrstøl" />
		<tag k="place" v="farm" />
		<tag k="ssr:stedsnr" v="728126" />
	</node>
<<<<<<< HEAD
	<node lat="58.35249444485884" lon="6.359627777790028" id="-925">
		<tag k="name" v="Foreli" />
=======
	<node id="-14583" lat="58.3731472239" lon="6.23976667038">
		<tag k="alt_name" v="Saurdal øvre" />
		<tag k="name" v="Øvre Saurdal" />
>>>>>>> e1d4bc35ff8a6074a6f2e91616a996b547c36f15
		<tag k="place" v="farm" />
		<tag k="ssr:stedsnr" v="755301" />
	</node>
<<<<<<< HEAD
	<node lat="58.37713681884091" lon="6.328985316108665" id="-967">
=======
	<node id="-15088" lat="58.3661482566" lon="6.26431352196">
>>>>>>> e1d4bc35ff8a6074a6f2e91616a996b547c36f15
		<tag k="fixme" v="consider place=hamlet" />
		<tag k="name" v="Nedre Støle" />
		<tag k="place" v="farm" />
		<tag k="ssr:stedsnr" v="910190" />
	</node>
<<<<<<< HEAD
	<node lat="58.34856643180985" lon="6.301939509509597" id="-968">
=======
	<node id="-13551" lat="58.3772671684" lon="6.31955070026">
>>>>>>> e1d4bc35ff8a6074a6f2e91616a996b547c36f15
		<tag k="fixme" v="consider place=hamlet" />
		<tag k="name" v="Frøyland" />
		<tag k="place" v="farm" />
		<tag k="ssr:stedsnr" v="910197" />
	</node>
<<<<<<< HEAD
	<node lat="58.32296944226126" lon="6.284663891771692" id="-969">
		<tag k="alt_name" v="Strondo" />
		<tag k="loc_name" v="Sogndals-strand" />
		<tag k="name" v="Sogndalsstranda" />
		<tag k="place" v="village" />
		<tag k="ssr:stedsnr" v="910244" />
	</node>
	<node lat="58.30579440229917" lon="6.460988836776396" id="-973">
=======
	<node id="-13550" lat="58.37645556" lon="6.30719166311">
		<tag k="alt_name" v="Steinbergslåtten" />
		<tag k="name" v="Slåtten" />
		<tag k="place" v="farm" />
		<tag k="ssr:stedsnr" v="303166" />
	</node>
	<node id="-13549" lat="58.4172889253" lon="6.43827869754">
>>>>>>> e1d4bc35ff8a6074a6f2e91616a996b547c36f15
		<tag k="fixme" v="consider place=hamlet" />
		<tag k="name" v="Eigeli" />
		<tag k="place" v="farm" />
		<tag k="ssr:stedsnr" v="788013" />
	</node>
<<<<<<< HEAD
	<node lat="58.426020532472656" lon="6.4285847890526515" id="-974">
=======
	<node id="-13548" lat="58.4164898853" lon="6.28223569702">
>>>>>>> e1d4bc35ff8a6074a6f2e91616a996b547c36f15
		<tag k="fixme" v="consider place=hamlet" />
		<tag k="name" v="Viga" />
		<tag k="place" v="farm" />
		<tag k="ssr:stedsnr" v="788149" />
	</node>
<<<<<<< HEAD
	<node lat="58.33270362849357" lon="6.302038457034929" id="-978">
=======
	<node id="-13547" lat="58.3038581484" lon="6.34202318418">
>>>>>>> e1d4bc35ff8a6074a6f2e91616a996b547c36f15
		<tag k="fixme" v="consider place=hamlet" />
		<tag k="name" v="Nedre Lauvås" />
		<tag k="place" v="farm" />
		<tag k="ssr:stedsnr" v="911208" />
	</node>
<<<<<<< HEAD
	<node lat="58.35652293620577" lon="6.256090214725329" id="-1004">
		<tag k="fixme" v="consider place=hamlet" />
		<tag k="name" v="Litle Rekedal" />
		<tag k="place" v="farm" />
		<tag k="ssr:stedsnr" v="816508" />
	</node>
	<node lat="58.28008888500512" lon="6.3898999921648265" id="-1021">
		<tag k="name" v="Misstø" />
		<tag k="place" v="farm" />
		<tag k="ssr:stedsnr" v="816982" />
	</node>
	<node lat="58.41526724142806" lon="6.231340756695524" id="-1030">
=======
	<node id="-15082" lat="58.2865388865" lon="6.40223332779">
		<tag k="name" v="Løyning" />
		<tag k="place" v="farm" />
		<tag k="ssr:stedsnr" v="571146" />
	</node>
	<node id="-15081" lat="58.3902833299" lon="6.36859445144">
		<tag k="name" v="Ålgård" />
		<tag k="place" v="village" />
		<tag k="ssr:stedsnr" v="571135" />
	</node>
	<node id="-14056" lat="58.3014166679" lon="6.32499722787">
		<tag k="name" v="Jansholet" />
		<tag k="place" v="locality" />
		<tag k="ssr:stedsnr" v="876501" />
	</node>
	<node id="-14564" lat="58.3360658927" lon="6.26443000187">
>>>>>>> e1d4bc35ff8a6074a6f2e91616a996b547c36f15
		<tag k="fixme" v="consider place=hamlet" />
		<tag k="name" v="Vinja" />
		<tag k="place" v="farm" />
		<tag k="ssr:stedsnr" v="849174" />
	</node>
<<<<<<< HEAD
	<node lat="58.40042765895049" lon="6.48055432270046" id="-1032">
		<tag k="fixme" v="consider place=hamlet" />
		<tag k="name" v="Øvre Myssa" />
=======
	<node id="-14563" lat="58.3967416654" lon="6.27249999731">
		<tag k="name" v="Vestre Barstad" />
>>>>>>> e1d4bc35ff8a6074a6f2e91616a996b547c36f15
		<tag k="place" v="farm" />
		<tag k="ssr:stedsnr" v="850177" />
	</node>
<<<<<<< HEAD
	<node lat="58.44673162803658" lon="6.270782887726131" id="-1035">
		<tag k="fixme" v="consider place=hamlet" />
		<tag k="name" v="Eia" />
=======
	<node id="-13538" lat="58.3362694403" lon="6.25440556169">
		<tag k="name" v="Raudhella" />
>>>>>>> e1d4bc35ff8a6074a6f2e91616a996b547c36f15
		<tag k="place" v="farm" />
		<tag k="ssr:stedsnr" v="850910" />
	</node>
<<<<<<< HEAD
	<node lat="58.419354473220416" lon="6.277830163858492" id="-1093">
=======
	<node id="-15072" lat="58.3616968499" lon="6.37079282846">
>>>>>>> e1d4bc35ff8a6074a6f2e91616a996b547c36f15
		<tag k="fixme" v="consider place=hamlet" />
		<tag k="name" v="Netland" />
		<tag k="place" v="farm" />
		<tag k="ssr:stedsnr" v="910157" />
	</node>
<<<<<<< HEAD
	<node lat="58.367789488277644" lon="6.263821858734865" id="-1114">
=======
	<node id="-15069" lat="58.3140597226" lon="6.44967888128">
>>>>>>> e1d4bc35ff8a6074a6f2e91616a996b547c36f15
		<tag k="fixme" v="consider place=hamlet" />
		<tag k="name" v="Nedre Rekeland" />
		<tag k="place" v="farm" />
<<<<<<< HEAD
		<tag k="ssr:stedsnr" v="938313" />
	</node>
	<node lat="58.33286388862392" lon="6.240988888597377" id="-1121">
		<tag k="name" v="Sultnes" />
=======
		<tag k="ssr:stedsnr" v="546035" />
	</node>
	<node id="-15068" lat="58.339689664" lon="6.28244044854">
		<tag k="name" v="Hauge i Dalane" />
		<tag k="place" v="village" />
		<tag k="ssr:stedsnr" v="543952" />
	</node>
	<node id="-15065" lat="58.3377750018" lon="6.25671666933">
		<tag k="name" v="Støllevik" />
		<tag k="place" v="quarter" />
		<tag k="ssr:stedsnr" v="543784" />
	</node>
	<node id="-14039" lat="58.3727666666" lon="6.27268611186">
		<tag k="name" v="Slåtto" />
>>>>>>> e1d4bc35ff8a6074a6f2e91616a996b547c36f15
		<tag k="place" v="farm" />
		<tag k="ssr:stedsnr" v="938290" />
	</node>
<<<<<<< HEAD
	<node lat="58.336877476498174" lon="6.4076740298792405" id="-1156">
		<tag k="fixme" v="consider place=hamlet" />
		<tag k="name" v="Tellenes" />
=======
	<node id="-13522" lat="58.3621944465" lon="6.28147777416">
		<tag k="name" v="Tverrvollen" />
>>>>>>> e1d4bc35ff8a6074a6f2e91616a996b547c36f15
		<tag k="place" v="farm" />
		<tag k="ssr:stedsnr" v="990935" />
	</node>
<<<<<<< HEAD
	<node lat="58.37287751536546" lon="6.468803352572361" id="-1157">
		<tag k="fixme" v="consider place=hamlet" />
		<tag k="name" v="Guddal" />
		<tag k="place" v="farm" />
		<tag k="ssr:stedsnr" v="990936" />
	</node>
	<node lat="58.363163304468515" lon="6.33343285012285" id="-1158">
=======
	<node id="-15047" lat="58.3273906643" lon="6.2683448281">
>>>>>>> e1d4bc35ff8a6074a6f2e91616a996b547c36f15
		<tag k="fixme" v="consider place=hamlet" />
		<tag k="name" v="Sandbekk" />
		<tag k="place" v="farm" />
		<tag k="ssr:stedsnr" v="990937" />
	</node>
<<<<<<< HEAD
	<node lat="58.34421668369098" lon="6.31064543206435" id="-1159">
=======
	<node id="-15046" lat="58.3274320151" lon="6.28897284458">
>>>>>>> e1d4bc35ff8a6074a6f2e91616a996b547c36f15
		<tag k="fixme" v="consider place=hamlet" />
		<tag k="name" v="Sokndal prestegard" />
		<tag k="place" v="farm" />
		<tag k="ssr:stedsnr" v="990939" />
	</node>
<<<<<<< HEAD
	<node lat="58.34219687952424" lon="6.306882928333781" id="-1164">
=======
	<node id="-15040" lat="58.4142727" lon="6.33318721715">
>>>>>>> e1d4bc35ff8a6074a6f2e91616a996b547c36f15
		<tag k="fixme" v="consider place=hamlet" />
		<tag k="name" v="Haneberg" />
		<tag k="place" v="farm" />
		<tag k="ssr:stedsnr" v="211" />
	</node>
<<<<<<< HEAD
	<node lat="58.35663333336772" lon="6.309494450908263" id="-1167">
		<tag k="alt_name" v="Figgja" />
		<tag k="name" v="Fitja" />
=======
	<node id="-15038" lat="58.4257694447" lon="6.22934444631">
		<tag k="name" v="Refsland" />
>>>>>>> e1d4bc35ff8a6074a6f2e91616a996b547c36f15
		<tag k="place" v="farm" />
		<tag k="ssr:stedsnr" v="221" />
	</node>
<<<<<<< HEAD
	<node lat="58.36191447040469" lon="6.156307719357265" id="-1172">
=======
	<node id="-14525" lat="58.3380583789" lon="6.19987362347">
>>>>>>> e1d4bc35ff8a6074a6f2e91616a996b547c36f15
		<tag k="fixme" v="consider place=hamlet" />
		<tag k="name" v="Gyland" />
		<tag k="place" v="farm" />
		<tag k="ssr:stedsnr" v="970" />
	</node>
<<<<<<< HEAD
	<node lat="58.282680555806685" lon="6.396116670894898" id="-1189">
		<tag k="name" v="Litle Løyning" />
=======
	<node id="-15035" lat="58.3751972206" lon="6.19351110321">
		<tag k="name" v="Lunden" />
>>>>>>> e1d4bc35ff8a6074a6f2e91616a996b547c36f15
		<tag k="place" v="farm" />
		<tag k="ssr:stedsnr" v="27044" />
	</node>
<<<<<<< HEAD
	<node lat="58.37768889040604" lon="6.239877775281611" id="-1196">
		<tag k="name" v="Nedre Saurdal" />
=======
	<node id="-14010" lat="58.3437138908" lon="6.26349445064">
		<tag k="name" v="Vodlen" />
>>>>>>> e1d4bc35ff8a6074a6f2e91616a996b547c36f15
		<tag k="place" v="farm" />
		<tag k="ssr:stedsnr" v="27325" />
	</node>
<<<<<<< HEAD
	<node lat="58.363161112684956" lon="6.361113882885519" id="-1197">
		<tag k="name" v="Dravlemyr" />
=======
	<node id="-14521" lat="58.3653275556" lon="6.31744919165">
		<tag k="fixme" v="consider place=hamlet" />
		<tag k="loc_name" v="Krone;Kronen" />
		<tag k="name" v="Krune" />
>>>>>>> e1d4bc35ff8a6074a6f2e91616a996b547c36f15
		<tag k="place" v="farm" />
		<tag k="ssr:stedsnr" v="27327" />
	</node>
<<<<<<< HEAD
	<node lat="58.27913610798127" lon="6.385091661238725" id="-1231">
		<tag k="name" v="Årrebakken" />
=======
	<node id="-15031" lat="58.3366430755" lon="6.27783685886">
		<tag k="fixme" v="consider place=hamlet" />
		<tag k="name" v="Skarås" />
>>>>>>> e1d4bc35ff8a6074a6f2e91616a996b547c36f15
		<tag k="place" v="farm" />
		<tag k="ssr:stedsnr" v="27985" />
	</node>
<<<<<<< HEAD
	<node lat="58.32944444838446" lon="6.31050833442295" id="-1239">
		<tag k="name" v="Øvre Lauvås" />
		<tag k="place" v="farm" />
		<tag k="ssr:stedsnr" v="39161" />
	</node>
	<node lat="58.283856060753564" lon="6.400592778895627" id="-1254">
=======
	<node id="-14515" lat="58.402334266" lon="6.38386471563">
>>>>>>> e1d4bc35ff8a6074a6f2e91616a996b547c36f15
		<tag k="fixme" v="consider place=hamlet" />
		<tag k="name" v="Løyning" />
		<tag k="place" v="farm" />
		<tag k="ssr:stedsnr" v="60017" />
	</node>
<<<<<<< HEAD
	<node lat="58.40595854780875" lon="6.353796015238812" id="-1257">
=======
	<node id="-14513" lat="58.4059585478" lon="6.35379601524">
>>>>>>> e1d4bc35ff8a6074a6f2e91616a996b547c36f15
		<tag k="fixme" v="consider place=hamlet" />
		<tag k="name" v="Store Åmdal" />
		<tag k="place" v="farm" />
		<tag k="ssr:stedsnr" v="61118" />
	</node>
<<<<<<< HEAD
	<node lat="58.37314722387742" lon="6.239766670380395" id="-1314">
		<tag k="alt_name" v="Saurdal øvre" />
		<tag k="name" v="Øvre Saurdal" />
=======
	<node id="-15536" lat="58.3398356927" lon="6.27911776622">
		<tag k="name" v="Tørneskog" />
>>>>>>> e1d4bc35ff8a6074a6f2e91616a996b547c36f15
		<tag k="place" v="farm" />
		<tag k="ssr:stedsnr" v="88401" />
	</node>
<<<<<<< HEAD
	<node lat="58.34637777413726" lon="6.1540777859768285" id="-1339">
		<tag k="name" v="Birkelandstø" />
=======
	<node id="-15533" lat="58.3442166837" lon="6.31064543206">
		<tag k="fixme" v="consider place=hamlet" />
		<tag k="name" v="Sokndal prestegard" />
>>>>>>> e1d4bc35ff8a6074a6f2e91616a996b547c36f15
		<tag k="place" v="farm" />
		<tag k="ssr:stedsnr" v="100149" />
	</node>
<<<<<<< HEAD
	<node lat="58.33141003712729" lon="6.235079422988297" id="-1349">
=======
	<node id="-15532" lat="58.3631633045" lon="6.33343285012">
>>>>>>> e1d4bc35ff8a6074a6f2e91616a996b547c36f15
		<tag k="fixme" v="consider place=hamlet" />
		<tag k="name" v="Nordnes" />
		<tag k="place" v="farm" />
		<tag k="ssr:stedsnr" v="121199" />
	</node>
	<node lat="58.421002777812646" lon="6.436727778034715" id="-1351">
		<tag k="name" v="Lunden" />
		<tag k="place" v="locality" />
		<tag k="ssr:stedsnr" v="121150" />
	</node>
<<<<<<< HEAD
	<node lat="58.32976005010258" lon="6.283750487407506" id="-1389">
		<tag k="alt_name" v="Nesset" />
=======
	<node id="-15531" lat="58.3728775154" lon="6.46880335257">
>>>>>>> e1d4bc35ff8a6074a6f2e91616a996b547c36f15
		<tag k="fixme" v="consider place=hamlet" />
		<tag k="name" v="Neset" />
		<tag k="place" v="farm" />
		<tag k="ssr:stedsnr" v="148398" />
	</node>
<<<<<<< HEAD
	<node lat="58.279141663110934" lon="6.3864638944280125" id="-1411">
		<tag k="name" v="Sanden" />
=======
	<node id="-15530" lat="58.3368774765" lon="6.40767402988">
		<tag k="fixme" v="consider place=hamlet" />
		<tag k="name" v="Tellenes" />
>>>>>>> e1d4bc35ff8a6074a6f2e91616a996b547c36f15
		<tag k="place" v="farm" />
		<tag k="ssr:stedsnr" v="148979" />
	</node>
<<<<<<< HEAD
	<node lat="58.37862911907893" lon="6.328291244497596" id="-1421">
		<tag k="name" v="Nedre Støle" />
=======
	<node id="-13993" lat="58.3238324467" lon="6.28427605012">
		<tag k="fixme" v="consider place=hamlet" />
		<tag k="name" v="Åros" />
>>>>>>> e1d4bc35ff8a6074a6f2e91616a996b547c36f15
		<tag k="place" v="farm" />
		<tag k="ssr:stedsnr" v="160165" />
	</node>
<<<<<<< HEAD
	<node lat="58.32645278116077" lon="6.268474995398579" id="-1431">
		<tag k="alt_name" v="Sti" />
		<tag k="name" v="Stig" />
		<tag k="place" v="locality" />
		<tag k="ssr:stedsnr" v="180939" />
	</node>
	<node lat="58.3936111100652" lon="6.27402777621919" id="-1437">
		<tag k="name" v="Barstad" />
		<tag k="place" v="farm" />
		<tag k="ssr:stedsnr" v="182171" />
	</node>
	<node lat="58.38182949032258" lon="6.316702978021895" id="-1438">
=======
	<node id="-13986" lat="58.3416264335" lon="6.27217650522">
>>>>>>> e1d4bc35ff8a6074a6f2e91616a996b547c36f15
		<tag k="fixme" v="consider place=hamlet" />
		<tag k="name" v="Ørsland" />
		<tag k="place" v="farm" />
		<tag k="ssr:stedsnr" v="182179" />
	</node>
<<<<<<< HEAD
	<node lat="58.37849652130544" lon="6.150477083798196" id="-1444">
		<tag k="fixme" v="consider place=hamlet" />
		<tag k="name" v="Åvendal" />
		<tag k="place" v="farm" />
		<tag k="ssr:stedsnr" v="182973" />
	</node>
	<node lat="58.343294250319516" lon="6.2658400352841905" id="-1480">
		<tag k="fixme" v="consider place=hamlet" />
		<tag k="name" v="Regevik" />
		<tag k="place" v="farm" />
		<tag k="ssr:stedsnr" v="209295" />
	</node>
	<node lat="58.282285229804074" lon="6.3807845622495885" id="-1546">
=======
	<node id="-13958" lat="58.4259232707" lon="6.21714903271">
		<tag k="fixme" v="consider place=hamlet" />
		<tag k="name" v="Refsland" />
		<tag k="place" v="farm" />
		<tag k="ssr:stedsnr" v="606755" />
	</node>
	<node id="-14489" lat="58.3644916624" lon="6.17136110586">
		<tag k="name" v="Fjosan" />
		<tag k="place" v="locality" />
		<tag k="ssr:stedsnr" v="39910" />
	</node>
	<node id="-13976" lat="58.4299320837" lon="6.45307979593">
>>>>>>> e1d4bc35ff8a6074a6f2e91616a996b547c36f15
		<tag k="fixme" v="consider place=hamlet" />
		<tag k="name" v="Mol" />
		<tag k="place" v="farm" />
		<tag k="ssr:stedsnr" v="303013" />
	</node>
<<<<<<< HEAD
	<node lat="58.3038581483636" lon="6.342023184181499" id="-1549">
		<tag k="fixme" v="consider place=hamlet" />
		<tag k="name" v="Dydland" />
=======
	<node id="-14487" lat="58.3294444484" lon="6.31050833442">
		<tag k="name" v="Øvre Lauvås" />
>>>>>>> e1d4bc35ff8a6074a6f2e91616a996b547c36f15
		<tag k="place" v="farm" />
		<tag k="ssr:stedsnr" v="303023" />
	</node>
<<<<<<< HEAD
	<node lat="58.30884838238164" lon="6.333653229243857" id="-1551">
		<tag k="fixme" v="consider place=hamlet" />
		<tag k="name" v="Bu" />
=======
	<node id="-14483" lat="58.279136108" lon="6.38509166124">
		<tag k="name" v="Årrebakken" />
>>>>>>> e1d4bc35ff8a6074a6f2e91616a996b547c36f15
		<tag k="place" v="farm" />
		<tag k="ssr:stedsnr" v="303229" />
	</node>
<<<<<<< HEAD
	<node lat="58.41648988531284" lon="6.282235697022724" id="-1553">
=======
	<node id="-14993" lat="58.397764929" lon="6.42934124766">
>>>>>>> e1d4bc35ff8a6074a6f2e91616a996b547c36f15
		<tag k="fixme" v="consider place=hamlet" />
		<tag k="name" v="Hetleskog" />
		<tag k="place" v="farm" />
		<tag k="ssr:stedsnr" v="303156" />
	</node>
<<<<<<< HEAD
	<node lat="58.41728892531864" lon="6.438278697542777" id="-1554">
		<tag k="fixme" v="consider place=hamlet" />
		<tag k="name" v="Orrestad" />
		<tag k="place" v="farm" />
		<tag k="ssr:stedsnr" v="303158" />
	</node>
	<node lat="58.376455559981544" lon="6.307191663107231" id="-1555">
		<tag k="alt_name" v="Steinbergslåtten" />
		<tag k="name" v="Slåtten" />
=======
	<node id="-15495" lat="58.4678499997" lon="6.27237500849">
		<tag k="name" v="Bjelland" />
>>>>>>> e1d4bc35ff8a6074a6f2e91616a996b547c36f15
		<tag k="place" v="farm" />
		<tag k="ssr:stedsnr" v="303166" />
	</node>
<<<<<<< HEAD
	<node lat="58.38099403105894" lon="6.20973888128337" id="-1558">
		<tag k="fixme" v="consider place=hamlet" />
		<tag k="name" v="Selebø" />
		<tag k="place" v="farm" />
		<tag k="ssr:stedsnr" v="304970" />
	</node>
	<node lat="58.397023341462486" lon="6.2499639904992" id="-1646">
=======
	<node id="-14470" lat="58.3642000002" lon="6.39296111898">
		<tag k="historic" v="shieling" />
		<tag k="name" v="Fidjastølen" />
		<tag k="place" v="locality" />
		<tag k="ssr:stedsnr" v="27874" />
	</node>
	<node id="-13957" lat="58.3143088118" lon="6.34680677483">
>>>>>>> e1d4bc35ff8a6074a6f2e91616a996b547c36f15
		<tag k="fixme" v="consider place=hamlet" />
		<tag k="name" v="Gaudland" />
		<tag k="place" v="farm" />
		<tag k="ssr:stedsnr" v="356142" />
	</node>
<<<<<<< HEAD
	<node lat="58.33081388686559" lon="6.2448027725624105" id="-1651">
		<tag k="name" v="Dalen" />
=======
	<node id="-15492" lat="58.356976713" lon="6.36939181875">
		<tag k="name" v="Kjerthølmoen" />
>>>>>>> e1d4bc35ff8a6074a6f2e91616a996b547c36f15
		<tag k="place" v="farm" />
		<tag k="ssr:stedsnr" v="361794" />
	</node>
<<<<<<< HEAD
	<node lat="58.370633331700354" lon="6.281849997259902" id="-1653">
		<tag k="name" v="Litle Rossland" />
=======
	<node id="-13953" lat="58.2924733146" lon="6.33652752208">
		<tag k="alt_name" v="Rek" />
		<tag k="fixme" v="consider place=hamlet" />
		<tag k="loc_name" v="Ræg" />
		<tag k="name" v="Reg" />
>>>>>>> e1d4bc35ff8a6074a6f2e91616a996b547c36f15
		<tag k="place" v="farm" />
		<tag k="ssr:stedsnr" v="364182" />
	</node>
<<<<<<< HEAD
	<node lat="58.366887546840964" lon="6.264843659764214" id="-1654">
		<tag k="name" v="Rekeland" />
		<tag k="place" v="hamlet" />
		<tag k="ssr:stedsnr" v="364184" />
	</node>
	<node lat="58.370395153966854" lon="6.389125337430599" id="-1659">
		<tag k="loc_name" v="Speiderhytta" />
		<tag k="name" v="Lio" />
		<tag k="place" v="isolated_dwelling" />
		<tag k="ssr:stedsnr" v="389925" />
	</node>
	<node lat="58.375197220591566" lon="6.193511103213885" id="-1736">
		<tag k="name" v="Lunden" />
=======
	<node id="-15487" lat="58.400427659" lon="6.4805543227">
		<tag k="fixme" v="consider place=hamlet" />
		<tag k="name" v="Øvre Myssa" />
		<tag k="place" v="farm" />
		<tag k="ssr:stedsnr" v="850177" />
	</node>
	<node id="-15485" lat="58.3698292543" lon="6.30848906434">
		<tag k="fixme" v="consider place=hamlet" />
		<tag k="name" v="Steinberg" />
		<tag k="place" v="farm" />
		<tag k="ssr:stedsnr" v="850163" />
	</node>
	<node id="-13435" lat="58.3926611078" lon="6.37042221465">
		<tag k="alt_name" v="Ålgård store;Ålgård" />
		<tag k="name" v="Store Ålgård" />
>>>>>>> e1d4bc35ff8a6074a6f2e91616a996b547c36f15
		<tag k="place" v="farm" />
		<tag k="ssr:stedsnr" v="423871" />
	</node>
<<<<<<< HEAD
	<node lat="58.42576944467495" lon="6.22934444631092" id="-1740">
		<tag k="name" v="Refsland" />
=======
	<node id="-15480" lat="58.4152672414" lon="6.2313407567">
		<tag k="fixme" v="consider place=hamlet" />
		<tag k="name" v="Vinja" />
>>>>>>> e1d4bc35ff8a6074a6f2e91616a996b547c36f15
		<tag k="place" v="farm" />
		<tag k="ssr:stedsnr" v="425134" />
	</node>
<<<<<<< HEAD
	<node lat="58.388280558347304" lon="6.371205556332733" id="-1750">
		<tag k="name" v="Ålgård" />
		<tag k="place" v="farm" />
		<tag k="ssr:stedsnr" v="510218" />
	</node>
	<node lat="58.32931666866425" lon="6.254347224065387" id="-1800">
		<tag k="name" v="Tverrdal" />
		<tag k="place" v="locality" />
		<tag k="ssr:stedsnr" v="513349" />
	</node>
	<node lat="58.41896909264509" lon="6.482839870888653" id="-1817">
=======
	<node id="-14355" lat="58.3327036285" lon="6.30203845703">
>>>>>>> e1d4bc35ff8a6074a6f2e91616a996b547c36f15
		<tag k="fixme" v="consider place=hamlet" />
		<tag k="name" v="Nedre Lauvås" />
		<tag k="place" v="farm" />
<<<<<<< HEAD
		<tag k="ssr:stedsnr" v="513851" />
	</node>
	<node lat="58.33968966395794" lon="6.282440448542563" id="-1834">
		<tag k="name" v="Hauge i Dalane" />
=======
		<tag k="ssr:stedsnr" v="911208" />
	</node>
	<node id="-15468" lat="58.331205558" lon="6.25715833123">
		<tag k="name" v="Midthagen" />
		<tag k="place" v="farm" />
		<tag k="ssr:stedsnr" v="828802" />
	</node>
	<node id="-13419" lat="58.2924861123" lon="6.44025834054">
		<tag k="name" v="Åna-Sira" />
>>>>>>> e1d4bc35ff8a6074a6f2e91616a996b547c36f15
		<tag k="place" v="village" />
		<tag k="ssr:stedsnr" v="543952" />
	</node>
<<<<<<< HEAD
	<node lat="58.31405972258652" lon="6.449678881281728" id="-1835">
		<tag k="fixme" v="consider place=hamlet" />
		<tag k="name" v="Eigeland" />
		<tag k="place" v="farm" />
		<tag k="ssr:stedsnr" v="546035" />
	</node>
	<node lat="58.36614825656997" lon="6.26431352196458" id="-1857">
		<tag k="fixme" v="consider place=hamlet" />
		<tag k="name" v="Øvre Rekeland" />
		<tag k="place" v="farm" />
		<tag k="ssr:stedsnr" v="572486" />
	</node>
	<node lat="58.293616668546996" lon="6.43540000830387" id="-1867">
		<tag k="name" v="Håvollen" />
=======
	<node id="-14768" lat="58.4017666685" lon="6.39981666942">
		<tag k="name" v="Myssa" />
		<tag k="place" v="hamlet" />
		<tag k="ssr:stedsnr" v="208035" />
	</node>
	<node id="-15280" lat="58.3524944449" lon="6.35962777779">
		<tag k="name" v="Foreli" />
		<tag k="place" v="farm" />
		<tag k="ssr:stedsnr" v="755301" />
	</node>
	<node id="-15458" lat="58.280088885" lon="6.38989999216">
		<tag k="name" v="Misstø" />
		<tag k="place" v="farm" />
		<tag k="ssr:stedsnr" v="816982" />
	</node>
	<node id="-14945" lat="58.3399532556" lon="6.28193810866">
		<tag k="name" v="Hauge" />
		<tag k="place" v="village" />
		<tag k="ssr:stedsnr" v="364213" />
	</node>
	<node id="-14512" lat="58.4079852667" lon="6.27575151633">
		<tag k="fixme" v="consider place=hamlet" />
		<tag k="name" v="Svinland" />
		<tag k="place" v="farm" />
		<tag k="ssr:stedsnr" v="61116" />
	</node>
	<node id="-14942" lat="58.3668875468" lon="6.26484365976">
		<tag k="name" v="Rekeland" />
		<tag k="place" v="hamlet" />
		<tag k="ssr:stedsnr" v="364184" />
	</node>
	<node id="-14941" lat="58.3706333317" lon="6.28184999726">
		<tag k="name" v="Litle Rossland" />
>>>>>>> e1d4bc35ff8a6074a6f2e91616a996b547c36f15
		<tag k="place" v="farm" />
		<tag k="ssr:stedsnr" v="572978" />
	</node>
<<<<<<< HEAD
	<node lat="58.33511944153831" lon="6.252777775491773" id="-1880">
		<tag k="name" v="Bunes" />
=======
	<node id="-14938" lat="58.3308138869" lon="6.24480277256">
		<tag k="name" v="Dalen" />
>>>>>>> e1d4bc35ff8a6074a6f2e91616a996b547c36f15
		<tag k="place" v="farm" />
		<tag k="ssr:stedsnr" v="573281" />
	</node>
<<<<<<< HEAD
	<node lat="58.37291331236735" lon="6.330328701561071" id="-1912">
=======
	<node id="-14935" lat="58.3970233415" lon="6.2499639905">
>>>>>>> e1d4bc35ff8a6074a6f2e91616a996b547c36f15
		<tag k="fixme" v="consider place=hamlet" />
		<tag k="name" v="Sel" />
		<tag k="place" v="farm" />
		<tag k="ssr:stedsnr" v="606164" />
	</node>
<<<<<<< HEAD
	<node lat="58.389477773562795" lon="6.236836118467006" id="-1914">
		<tag k="name" v="Lundan" />
		<tag k="place" v="isolated_dwelling" />
		<tag k="ssr:stedsnr" v="606174" />
	</node>
	<node lat="58.32926979218026" lon="6.311631340417101" id="-1915">
		<tag k="fixme" v="consider place=hamlet" />
		<tag k="name" v="Øvre Lauvås" />
		<tag k="place" v="farm" />
		<tag k="ssr:stedsnr" v="606239" />
	</node>
	<node lat="58.450646426375506" lon="6.286210091148122" id="-1916">
=======
	<node id="-13907" lat="58.3979416693" lon="6.24946388781">
		<tag k="fixme" v="consider tourism=alpine_hut or tourism=chalet" />
		<tag k="name" v="Gaudland" />
		<tag k="ssr:stedsnr" v="572316" />
		<tag k="tourism" v="wilderness_hut" />
	</node>
	<node id="-15373" lat="58.4260205325" lon="6.42858478905">
		<tag k="fixme" v="consider place=hamlet" />
		<tag k="name" v="Viga" />
		<tag k="place" v="farm" />
		<tag k="ssr:stedsnr" v="788149" />
	</node>
	<node id="-14411" lat="58.3662035188" lon="6.28046236194">
		<tag k="name" v="Rossland" />
		<tag k="place" v="hamlet" />
		<tag k="ssr:stedsnr" v="25171" />
	</node>
	<node id="-14519" lat="58.3326586214" lon="6.26618038181">
		<tag k="fixme" v="consider place=hamlet" />
		<tag k="name" v="Lauvland" />
		<tag k="place" v="farm" />
		<tag k="ssr:stedsnr" v="61192" />
	</node>
	<node id="-15432" lat="58.3565229362" lon="6.25609021473">
>>>>>>> e1d4bc35ff8a6074a6f2e91616a996b547c36f15
		<tag k="fixme" v="consider place=hamlet" />
		<tag k="name" v="Tjørn" />
		<tag k="place" v="farm" />
		<tag k="ssr:stedsnr" v="606887" />
	</node>
<<<<<<< HEAD
	<node lat="58.34162643351768" lon="6.272176505223921" id="-1928">
=======
	<node id="-13921" lat="58.3351194415" lon="6.25277777549">
		<tag k="name" v="Bunes" />
		<tag k="place" v="farm" />
		<tag k="ssr:stedsnr" v="573281" />
	</node>
	<node id="-14404" lat="58.4387349802" lon="6.46485229871">
>>>>>>> e1d4bc35ff8a6074a6f2e91616a996b547c36f15
		<tag k="fixme" v="consider place=hamlet" />
		<tag k="name" v="Kvam" />
		<tag k="place" v="farm" />
		<tag k="ssr:stedsnr" v="633424" />
	</node>
<<<<<<< HEAD
	<node lat="58.32383244668417" lon="6.284276050116884" id="-1939">
=======
	<node id="-14403" lat="58.434424356" lon="6.42530278458">
>>>>>>> e1d4bc35ff8a6074a6f2e91616a996b547c36f15
		<tag k="fixme" v="consider place=hamlet" />
		<tag k="name" v="Åros" />
		<tag k="place" v="farm" />
		<tag k="ssr:stedsnr" v="633456" />
	</node>
<<<<<<< HEAD
	<node lat="58.34371389075067" lon="6.263494450636088" id="-1958">
		<tag k="name" v="Vodlen" />
=======
	<node id="-13890" lat="58.3609166675" lon="6.26819166149">
		<tag k="name" v="Steian" />
>>>>>>> e1d4bc35ff8a6074a6f2e91616a996b547c36f15
		<tag k="place" v="farm" />
		<tag k="ssr:stedsnr" v="634321" />
	</node>
<<<<<<< HEAD
	<node lat="58.36483333585962" lon="6.222372220669068" id="-2005">
		<tag k="name" v="Ribland" />
=======
	<node id="-13377" lat="58.4624664177" lon="6.27813124299">
		<tag k="fixme" v="consider place=hamlet" />
		<tag k="name" v="Kvivåg" />
>>>>>>> e1d4bc35ff8a6074a6f2e91616a996b547c36f15
		<tag k="place" v="farm" />
		<tag k="ssr:stedsnr" v="650502" />
	</node>
<<<<<<< HEAD
	<node lat="58.3842823965205" lon="6.3873781412570505" id="-2010">
		<tag k="fixme" v="consider place=hamlet" />
		<tag k="name" v="Eigeli" />
=======
	<node id="-14398" lat="58.3566333334" lon="6.30949445091">
		<tag k="alt_name" v="Figgja" />
		<tag k="name" v="Fitja" />
>>>>>>> e1d4bc35ff8a6074a6f2e91616a996b547c36f15
		<tag k="place" v="farm" />
		<tag k="ssr:stedsnr" v="667181" />
	</node>
<<<<<<< HEAD
	<node lat="58.3968527780508" lon="6.427727784096884" id="-2012">
=======
	<node id="-14395" lat="58.3421968795" lon="6.30688292833">
>>>>>>> e1d4bc35ff8a6074a6f2e91616a996b547c36f15
		<tag k="fixme" v="consider place=hamlet" />
		<tag k="name" v="Mydland" />
		<tag k="place" v="village" />
		<tag k="ssr:stedsnr" v="667197" />
	</node>
	<node lat="58.34760529751367" lon="6.2450365735021665" id="-2013">
		<tag k="fixme" v="consider place=hamlet" />
		<tag k="name" v="Heggdal" />
		<tag k="place" v="farm" />
		<tag k="ssr:stedsnr" v="667201" />
	</node>
<<<<<<< HEAD
	<node lat="58.32243858349725" lon="6.311032920600914" id="-2015">
		<tag k="fixme" v="consider place=hamlet" />
		<tag k="name" v="Knubedal" />
=======
	<node id="-14366" lat="58.3677894883" lon="6.26382185873">
		<tag k="fixme" v="consider place=hamlet" />
		<tag k="name" v="Nedre Rekeland" />
		<tag k="place" v="farm" />
		<tag k="ssr:stedsnr" v="938313" />
	</node>
	<node id="-13880" lat="58.3345833334" lon="6.26174444024">
		<tag k="name" v="Åve" />
>>>>>>> e1d4bc35ff8a6074a6f2e91616a996b547c36f15
		<tag k="place" v="farm" />
		<tag k="ssr:stedsnr" v="667229" />
	</node>
<<<<<<< HEAD
	<node lat="58.45023055474045" lon="6.276997219369672" id="-2018">
		<tag k="name" v="Eia" />
		<tag k="old_name" v="Eida" />
		<tag k="place" v="farm" />
		<tag k="ssr:stedsnr" v="667882" />
	</node>
	<node lat="58.35508585017009" lon="6.154484330044914" id="-2019">
		<tag k="fixme" v="consider place=hamlet" />
		<tag k="name" v="Birkeland" />
=======
	<node id="-13918" lat="58.3354410882" lon="6.24983087531">
		<tag k="fixme" v="consider place=hamlet" />
		<tag k="name" v="Immerstein" />
		<tag k="place" v="farm" />
		<tag k="ssr:stedsnr" v="573259" />
	</node>
	<node id="-13870" lat="58.2797805513" lon="6.38607222641">
		<tag k="name" v="Bakken" />
>>>>>>> e1d4bc35ff8a6074a6f2e91616a996b547c36f15
		<tag k="place" v="farm" />
		<tag k="ssr:stedsnr" v="667939" />
	</node>
<<<<<<< HEAD
	<node lat="58.35419158701564" lon="6.2044268711792325" id="-2020">
		<tag k="fixme" v="consider place=hamlet" />
		<tag k="name" v="Berrjod" />
		<tag k="place" v="farm" />
		<tag k="ssr:stedsnr" v="667942" />
	</node>
	<node lat="58.36406551957375" lon="6.227525329692451" id="-2027">
		<tag k="fixme" v="consider place=hamlet" />
		<tag k="name" v="Ribland" />
=======
	<node id="-13867" lat="58.2967138872" lon="6.44591389719">
		<tag k="name" v="Todneholet" />
		<tag k="place" v="locality" />
		<tag k="ssr:stedsnr" v="694975" />
	</node>
	<node id="-13354" lat="58.3786291191" lon="6.3282912445">
		<tag k="name" v="Nedre Støle" />
>>>>>>> e1d4bc35ff8a6074a6f2e91616a996b547c36f15
		<tag k="place" v="farm" />
		<tag k="ssr:stedsnr" v="728179" />
	</node>
<<<<<<< HEAD
	<node lat="58.36156543352264" lon="6.308919214321573" id="-2028">
		<tag k="fixme" v="consider place=hamlet" />
		<tag k="name" v="Fitja" />
=======
	<node id="-15394" lat="58.2807194431" lon="6.39208055675">
		<tag k="name" v="Klobben" />
>>>>>>> e1d4bc35ff8a6074a6f2e91616a996b547c36f15
		<tag k="place" v="farm" />
		<tag k="ssr:stedsnr" v="728181" />
	</node>
<<<<<<< HEAD
	<node lat="58.396152922198034" lon="6.272980840737012" id="-2031">
		<tag k="name" v="Barstad" />
=======
	<node id="-15392" lat="58.3968651233" lon="6.42772192093">
		<tag k="name" v="Mydland" />
>>>>>>> e1d4bc35ff8a6074a6f2e91616a996b547c36f15
		<tag k="place" v="hamlet" />
		<tag k="ssr:stedsnr" v="753189" />
	</node>
<<<<<<< HEAD
	<node lat="58.389996006188895" lon="6.365664451135507" id="-2053">
		<tag k="alt_name" v="Ålgård litle" />
		<tag k="fixme" v="consider place=hamlet" />
		<tag k="name" v="Litle Ålgård" />
=======
	<node id="-15391" lat="58.3634027735" lon="6.28122500247">
		<tag k="name" v="Store Rossland" />
>>>>>>> e1d4bc35ff8a6074a6f2e91616a996b547c36f15
		<tag k="place" v="farm" />
		<tag k="ssr:stedsnr" v="755247" />
	</node>
<<<<<<< HEAD
	<node lat="58.36638145590805" lon="6.32003967069364" id="-2122">
=======
	<node id="-15390" lat="58.3543580423" lon="6.2568660647">
		<tag k="alt_name" v="Regedal store;Store Regedal" />
>>>>>>> e1d4bc35ff8a6074a6f2e91616a996b547c36f15
		<tag k="fixme" v="consider place=hamlet" />
		<tag k="name" v="Skjevrås" />
		<tag k="place" v="farm" />
		<tag k="ssr:stedsnr" v="789218" />
	</node>
<<<<<<< HEAD
	<node lat="58.34633086864259" lon="6.1817525140386556" id="-2126">
=======
	<node id="-14362" lat="58.3329383568" lon="6.27384889243">
		<tag k="alt_name" v="Tothammer" />
>>>>>>> e1d4bc35ff8a6074a6f2e91616a996b547c36f15
		<tag k="fixme" v="consider place=hamlet" />
		<tag k="name" v="Vatland" />
		<tag k="place" v="farm" />
		<tag k="ssr:stedsnr" v="788941" />
	</node>
<<<<<<< HEAD
	<node lat="58.40225243924029" lon="6.400487080655064" id="-2127">
=======
	<node id="-15380" lat="58.4022524392" lon="6.40048708066">
>>>>>>> e1d4bc35ff8a6074a6f2e91616a996b547c36f15
		<tag k="fixme" v="consider place=hamlet" />
		<tag k="name" v="Nedre Myssa" />
		<tag k="place" v="farm" />
		<tag k="ssr:stedsnr" v="789139" />
	</node>
<<<<<<< HEAD
	<node lat="58.37499108739406" lon="6.262812333066609" id="-2130">
=======
	<node id="-15379" lat="58.3470316743" lon="6.31829095306">
>>>>>>> e1d4bc35ff8a6074a6f2e91616a996b547c36f15
		<tag k="fixme" v="consider place=hamlet" />
		<tag k="name" v="Urdal" />
		<tag k="place" v="farm" />
		<tag k="ssr:stedsnr" v="789167" />
	</node>
<<<<<<< HEAD
	<node lat="58.367742572011636" lon="6.304922451699157" id="-2131">
=======
	<node id="-15378" lat="58.3463308686" lon="6.18175251404">
>>>>>>> e1d4bc35ff8a6074a6f2e91616a996b547c36f15
		<tag k="fixme" v="consider place=hamlet" />
		<tag k="name" v="Eigeland" />
		<tag k="place" v="farm" />
<<<<<<< HEAD
		<tag k="ssr:stedsnr" v="789177" />
	</node>
	<node lat="58.34703167434526" lon="6.318290953064042" id="-2132">
		<tag k="fixme" v="consider place=hamlet" />
		<tag k="name" v="Åmot" />
=======
		<tag k="ssr:stedsnr" v="788941" />
	</node>
	<node id="-14861" lat="58.3144805525" lon="6.33702221635">
		<tag k="name" v="Vinterstø" />
		<tag k="place" v="locality" />
		<tag k="ssr:stedsnr" v="330364" />
	</node>
	<node id="-13836" lat="58.3389805543" lon="6.18156944912">
		<tag k="name" v="Seiland" />
>>>>>>> e1d4bc35ff8a6074a6f2e91616a996b547c36f15
		<tag k="place" v="farm" />
		<tag k="ssr:stedsnr" v="789200" />
	</node>
<<<<<<< HEAD
	<node lat="58.39686512326357" lon="6.427721920934265" id="-2139">
		<tag k="name" v="Mydland" />
		<tag k="place" v="hamlet" />
		<tag k="ssr:stedsnr" v="814280" />
	</node>
	<node lat="58.35435804226644" lon="6.2568660646991585" id="-2140">
		<tag k="alt_name" v="Regedal store;Store Regedal" />
		<tag k="fixme" v="consider place=hamlet" />
		<tag k="name" v="Store Rekedal" />
		<tag k="place" v="farm" />
		<tag k="ssr:stedsnr" v="814173" />
	</node>
	<node lat="58.36340277350171" lon="6.281225002472853" id="-2141">
		<tag k="name" v="Store Rossland" />
=======
	<node id="-14509" lat="58.2838560608" lon="6.4005927789">
		<tag k="fixme" v="consider place=hamlet" />
		<tag k="name" v="Løyning" />
		<tag k="place" v="farm" />
		<tag k="ssr:stedsnr" v="60017" />
	</node>
	<node id="-13825" lat="58.3968666638" lon="6.27341944211">
		<tag k="name" v="Øystre Barstad" />
>>>>>>> e1d4bc35ff8a6074a6f2e91616a996b547c36f15
		<tag k="place" v="farm" />
		<tag k="ssr:stedsnr" v="814256" />
	</node>
<<<<<<< HEAD
	<node lat="58.28071944309893" lon="6.392080556753268" id="-2151">
		<tag k="name" v="Klobben" />
		<tag k="place" v="farm" />
		<tag k="ssr:stedsnr" v="816051" />
	</node>
	<node lat="58.331205558049696" lon="6.25715833122634" id="-2207">
		<tag k="name" v="Midthagen" />
		<tag k="place" v="farm" />
		<tag k="ssr:stedsnr" v="828802" />
	</node>
	<node lat="58.36982925430818" lon="6.308489064340173" id="-2221">
		<tag k="fixme" v="consider place=hamlet" />
		<tag k="name" v="Steinberg" />
		<tag k="place" v="farm" />
		<tag k="ssr:stedsnr" v="850163" />
	</node>
	<node lat="58.35697671297613" lon="6.369391818752874" id="-2225">
		<tag k="name" v="Kjerthølmoen" />
		<tag k="place" v="farm" />
		<tag k="ssr:stedsnr" v="850216" />
	</node>
	<node lat="58.467849999678876" lon="6.272375008487488" id="-2226">
		<tag k="name" v="Bjelland" />
		<tag k="place" v="farm" />
		<tag k="ssr:stedsnr" v="850923" />
	</node>
	<node lat="58.372766666584496" lon="6.272686111859643" id="-2232">
		<tag k="name" v="Slåtto" />
		<tag k="place" v="farm" />
		<tag k="ssr:stedsnr" v="876348" />
	</node>
	<node lat="58.301416667872545" lon="6.324997227868542" id="-2247">
		<tag k="name" v="Jansholet" />
		<tag k="place" v="locality" />
		<tag k="ssr:stedsnr" v="876501" />
	</node>
	<node lat="58.34341944064289" lon="6.250061110211948" id="-2265">
		<tag k="name" v="Stølen" />
		<tag k="place" v="farm" />
		<tag k="ssr:stedsnr" v="877321" />
	</node>
	<node lat="58.332938356821444" lon="6.273848892433451" id="-2301">
		<tag k="alt_name" v="Tothammer" />
		<tag k="fixme" v="consider place=hamlet" />
		<tag k="name" v="Tothammar" />
		<tag k="place" v="farm" />
		<tag k="ssr:stedsnr" v="937420" />
	</node>
	<node lat="58.32833889226492" lon="6.244079118432252" id="-2328">
		<tag k="name" v="Lervik" />
		<tag k="place" v="farm" />
		<tag k="ssr:stedsnr" v="938291" />
	</node>
	<node lat="58.339835692717465" lon="6.279117766221234" id="-2363">
		<tag k="name" v="Tørneskog" />
		<tag k="place" v="farm" />
		<tag k="ssr:stedsnr" v="1072844" />
	</node>
=======
>>>>>>> e1d4bc35ff8a6074a6f2e91616a996b547c36f15
</osm>
