<?xml version="1.0" encoding="UTF-8"?>
<<<<<<< HEAD
<osm version="0.6" generator="osmapis">
	<node lat="58.29338994262488" lon="6.44207840167644" id="-1160">
		<tag k="amenity" v="place_of_worship" />
		<tag k="denomination" v="lutheran" />
		<tag k="name" v="Åna-Sira kirke" />
		<tag k="religion" v="christian" />
		<tag k="ssr:stedsnr" v="991232" />
	</node>
	<node lat="58.34474722267829" lon="6.195005550048245" id="-1527">
=======
<osm generator="osmapis" version="0.6">
	<node id="-13184" lat="58.3447472227" lon="6.19500555005">
>>>>>>> e1d4bc35ff8a6074a6f2e91616a996b547c36f15
		<tag k="name" v="Kjempegravene" />
		<tag k="place" v="locality" />
		<tag k="ssr:stedsnr" v="224099" />
	</node>
<<<<<<< HEAD
	<node lat="58.34543477463442" lon="6.311052012326177" id="-1758">
		<tag k="alt_name" v="Eikedal kyrkjegard" />
		<tag k="cemetery" v="grave" />
		<tag k="name" v="Eikedal gravplass" />
		<tag k="place" v="locality" />
		<tag k="ssr:stedsnr" v="512421" />
	</node>
	<node lat="58.34535833043184" lon="6.294652785714328" id="-2224">
		<tag k="alt_name" v="Sokndal;Sokndal Kyrkje" />
		<tag k="amenity" v="place_of_worship" />
		<tag k="denomination" v="lutheran" />
		<tag k="name" v="Sokndal kirke" />
		<tag k="religion" v="christian" />
		<tag k="ssr:stedsnr" v="850214" />
	</node>
	<node lat="58.37190833170027" lon="6.281727777058096" id="-2233">
		<tag k="historic" v="heritage" />
		<tag k="name" v="Altersteinen" />
=======
	<node id="-14364" lat="58.3433500022" lon="6.30726111583">
		<tag k="cemetery" v="grave" />
		<tag k="name" v="Frøyland gravplass" />
>>>>>>> e1d4bc35ff8a6074a6f2e91616a996b547c36f15
		<tag k="place" v="locality" />
		<tag k="ssr:stedsnr" v="876350" />
	</node>
<<<<<<< HEAD
	<node lat="58.3427361137951" lon="6.313597214220834" id="-2305">
=======
	<node id="-14363" lat="58.3427361138" lon="6.31359721422">
>>>>>>> e1d4bc35ff8a6074a6f2e91616a996b547c36f15
		<tag k="historic" v="heritage" />
		<tag k="name" v="Offeralteret" />
		<tag k="place" v="locality" />
		<tag k="ssr:stedsnr" v="937424" />
	</node>
<<<<<<< HEAD
	<node lat="58.34335000219674" lon="6.307261115833742" id="-2306">
		<tag k="cemetery" v="grave" />
		<tag k="name" v="Frøyland gravplass" />
=======
	<node id="-14040" lat="58.3719083317" lon="6.28172777706">
		<tag k="historic" v="heritage" />
		<tag k="name" v="Altersteinen" />
>>>>>>> e1d4bc35ff8a6074a6f2e91616a996b547c36f15
		<tag k="place" v="locality" />
		<tag k="ssr:stedsnr" v="937425" />
	</node>
	<node id="-15534" lat="58.2933899426" lon="6.44207840168">
		<tag k="amenity" v="place_of_worship" />
		<tag k="denomination" v="lutheran" />
		<tag k="name" v="Åna-Sira kirke" />
		<tag k="religion" v="christian" />
		<tag k="ssr:stedsnr" v="991232" />
	</node>
	<node id="-15491" lat="58.3453583304" lon="6.29465278571">
		<tag k="alt_name" v="Sokndal;Sokndal Kyrkje" />
		<tag k="amenity" v="place_of_worship" />
		<tag k="denomination" v="lutheran" />
		<tag k="name" v="Sokndal kirke" />
		<tag k="religion" v="christian" />
		<tag k="ssr:stedsnr" v="850214" />
	</node>
</osm>
