<?xml version="1.0" encoding="UTF-8"?>
<osm generator="osmapis" version="0.6">
	<node id="-1536" lat="58.3638333376" lon="6.33398610445">
		<tag k="landuse" v="quarry" />
		<tag k="name" v="Sandbekk" />
		<tag k="ssr:stedsnr" v="485168" />
	</node>
	<node id="-1022" lat="58.3685805565" lon="6.46088611731">
		<tag k="name" v="Badlønnhomma" />
		<tag k="place" v="locality" />
		<tag k="ssr:stedsnr" v="270891" />
	</node>
	<node id="-1018" lat="58.3577027761" lon="6.23351389195">
		<tag k="name" v="Beltefjellmyra" />
		<tag k="natural" v="wetland" />
		<tag k="ssr:stedsnr" v="270515" />
	</node>
	<node id="-3065" lat="58.3892472195" lon="6.41897500667">
		<tag k="name" v="Myran" />
		<tag k="natural" v="wetland" />
		<tag k="ssr:stedsnr" v="755855" />
	</node>
	<node id="-2038" lat="58.3663944432" lon="6.25000556195">
		<tag k="name" v="Lambo" />
		<tag k="place" v="locality" />
		<tag k="ssr:stedsnr" v="938494" />
	</node>
	<node id="-1013" lat="58.377825004" lon="6.22351389197">
		<tag k="name" v="Stakksmyrane" />
		<tag k="natural" v="wetland" />
		<tag k="ssr:stedsnr" v="270480" />
	</node>
	<node id="-2034" lat="58.4037138926" lon="6.25448889301">
		<tag k="name" v="Knappholåsmyra" />
		<tag k="natural" v="wetland" />
		<tag k="ssr:stedsnr" v="938415" />
	</node>
	<node id="-2544" lat="58.4186222264" lon="6.46780555936">
		<tag k="name" v="Lange Myran" />
		<tag k="natural" v="wetland" />
		<tag k="ssr:stedsnr" v="209854" />
	</node>
	<node id="-1002" lat="58.2879111076" lon="6.34262500627">
		<tag k="name" v="Gysteinen" />
		<tag k="natural" v="stone" />
		<tag k="ssr:stedsnr" v="269496" />
	</node>
	<node id="-3049" lat="58.3565305552" lon="6.26173056278">
		<tag k="name" v="Slåttemyr" />
		<tag k="natural" v="wetland" />
		<tag k="ssr:stedsnr" v="755520" />
	</node>
	<node id="-997" lat="58.3401833313" lon="6.27475277783">
		<tag k="name" v="Boismyra" />
		<tag k="natural" v="wetland" />
		<tag k="ssr:stedsnr" v="269396" />
	</node>
	<node id="-2526" lat="58.3826944461" lon="6.24535277784">
		<tag k="name" v="Lamhedlersmyra" />
		<tag k="natural" v="wetland" />
		<tag k="ssr:stedsnr" v="209483" />
	</node>
	<node id="-3037" lat="58.4394111123" lon="6.2267138891">
		<tag k="name" v="Øygjamyra" />
		<tag k="natural" v="wetland" />
		<tag k="ssr:stedsnr" v="755464" />
	</node>
	<node id="-2522" lat="58.4415416679" lon="6.26585000306">
		<tag k="name" v="Lange Myran" />
		<tag k="natural" v="wetland" />
		<tag k="ssr:stedsnr" v="209468" />
	</node>
	<node id="-2520" lat="58.4689916636" lon="6.26267500414">
		<tag k="name" v="Midtbakkmyra" />
		<tag k="natural" v="wetland" />
		<tag k="ssr:stedsnr" v="209465" />
	</node>
	<node id="-2041" lat="58.3624138889" lon="6.24968055263">
		<tag k="name" v="Øygardsmyrane" />
		<tag k="natural" v="wetland" />
		<tag k="ssr:stedsnr" v="938517" />
	</node>
	<node id="-1491" lat="58.325316666" lon="6.30632500209">
		<tag k="name" v="Grov" />
		<tag k="place" v="locality" />
		<tag k="ssr:stedsnr" v="452408" />
	</node>
	<node id="-1488" lat="58.2933861081" lon="6.38175278051">
		<tag k="name" v="Ørnemyrane" />
		<tag k="natural" v="wetland" />
		<tag k="ssr:stedsnr" v="452031" />
	</node>
	<node id="-1485" lat="58.4151416702" lon="6.29385000701">
		<tag k="name" v="Gloppamyra" />
		<tag k="natural" v="wetland" />
		<tag k="ssr:stedsnr" v="452215" />
	</node>
	<node id="-967" lat="58.3864749963" lon="6.19679166471">
		<tag k="name" v="Torvmyra" />
		<tag k="natural" v="wetland" />
		<tag k="ssr:stedsnr" v="239872" />
	</node>
	<node id="-3008" lat="58.3506861112" lon="6.34663055051">
		<tag k="name" v="Øygjehommen" />
		<tag k="place" v="locality" />
		<tag k="ssr:stedsnr" v="755299" />
	</node>
	<node id="-959" lat="58.3904916662" lon="6.21240555945">
		<tag k="name" v="Trommesteinmyrane" />
		<tag k="natural" v="wetland" />
		<tag k="ssr:stedsnr" v="38615" />
	</node>
	<node id="-3004" lat="58.3814527742" lon="6.3357583261">
		<tag k="landuse" v="meadow" />
		<tag k="name" v="Tjønnslått" />
		<tag k="ssr:stedsnr" v="755285" />
	</node>
	<node id="-1466" lat="58.4053055574" lon="6.39490278387">
		<tag k="name" v="Kjeato" />
		<tag k="natural" v="scree" />
		<tag k="ssr:stedsnr" v="513821" />
	</node>
	<node id="-3001" lat="58.4048333314" lon="6.31004723056">
		<tag k="name" v="Øygardsmyra" />
		<tag k="natural" v="wetland" />
		<tag k="ssr:stedsnr" v="755270" />
	</node>
	<node id="-1459" lat="58.4037305589" lon="6.2624805583">
		<tag k="name" v="Dyregrov" />
		<tag k="natural" v="wetland" />
		<tag k="ssr:stedsnr" v="513447" />
	</node>
	<node id="-2994" lat="58.4193361103" lon="6.36078611084">
		<tag k="name" v="Åmyra" />
		<tag k="natural" v="wetland" />
		<tag k="ssr:stedsnr" v="755215" />
	</node>
	<node id="-1965" lat="58.3503138913" lon="6.34306110413">
		<tag k="name" v="Rokkesteinen" />
		<tag k="natural" v="stone" />
		<tag k="ssr:stedsnr" v="816304" />
	</node>
	<node id="-1452" lat="58.3740305557" lon="6.22193055288">
		<tag k="name" v="Vedhedlermyra" />
		<tag k="natural" v="wetland" />
		<tag k="ssr:stedsnr" v="513503" />
	</node>
	<node id="-1963" lat="58.4289416689" lon="6.37456388772">
		<tag k="name" v="Tingstova" />
		<tag k="natural" v="stone" />
		<tag k="ssr:stedsnr" v="816263" />
	</node>
	<node id="-2473" lat="58.3533999974" lon="6.14530554908">
		<tag k="name" v="Tagalmyra" />
		<tag k="natural" v="wetland" />
		<tag k="ssr:stedsnr" v="179887" />
	</node>
	<node id="-2983" lat="58.2942611153" lon="6.41924444086">
		<tag k="name" v="Stølsmyr" />
		<tag k="natural" v="wetland" />
		<tag k="ssr:stedsnr" v="755060" />
	</node>
	<node id="-1446" lat="58.4172777776" lon="6.30089721778">
		<tag k="name" v="Maurbermyra" />
		<tag k="natural" v="wetland" />
		<tag k="ssr:stedsnr" v="513223" />
	</node>
	<node id="-2032" lat="58.350036109" lon="6.27485555393">
		<tag k="name" v="Bodlekjerr" />
		<tag k="place" v="locality" />
		<tag k="ssr:stedsnr" v="938292" />
	</node>
	<node id="-1605" lat="58.4560694428" lon="6.29749167378">
		<tag k="name" v="Husaslåtta" />
		<tag k="place" v="locality" />
		<tag k="ssr:stedsnr" v="695138" />
	</node>
	<node id="-2970" lat="58.3930750039" lon="6.20063055229">
		<tag k="name" v="Revastein-myrane" />
		<tag k="natural" v="wetland" />
		<tag k="ssr:stedsnr" v="645559" />
	</node>
	<node id="-1428" lat="58.2977555599" lon="6.4402472243">
		<tag k="name" v="Saueura" />
		<tag k="natural" v="scree" />
		<tag k="ssr:stedsnr" v="512976" />
	</node>
	<node id="-2961" lat="58.3476972211" lon="6.48227778346">
		<tag k="name" v="Lange Myran" />
		<tag k="natural" v="wetland" />
		<tag k="ssr:stedsnr" v="634886" />
	</node>
	<node id="-2444" lat="58.3618861082" lon="6.23721667456">
		<tag k="name" v="Riblandsmyra" />
		<tag k="natural" v="wetland" />
		<tag k="ssr:stedsnr" v="148529" />
	</node>
	<node id="-2443" lat="58.3512444405" lon="6.21918333998">
		<tag k="name" v="Storamyra" />
		<tag k="natural" v="wetland" />
		<tag k="ssr:stedsnr" v="148528" />
	</node>
	<node id="-906" lat="58.3725611142" lon="6.15547499125">
		<tag k="name" v="Vodlan" />
		<tag k="place" v="locality" />
		<tag k="ssr:stedsnr" v="222120" />
	</node>
	<node id="-2438" lat="58.3918166704" lon="6.22086667">
		<tag k="name" v="Steian" />
		<tag k="natural" v="wetland" />
		<tag k="ssr:stedsnr" v="148427" />
	</node>
	<node id="-2946" lat="58.4084583342" lon="6.24823610991">
		<tag k="name" v="Løgemyr" />
		<tag k="natural" v="wetland" />
		<tag k="ssr:stedsnr" v="634452" />
	</node>
	<node id="-2945" lat="58.3748305557" lon="6.23291944851">
		<tag k="landuse" v="meadow" />
		<tag k="name" v="Kvepto" />
		<tag k="ssr:stedsnr" v="634505" />
	</node>
	<node id="-1920" lat="58.3818388855" lon="6.18944165972">
		<tag k="name" v="Storemyra" />
		<tag k="place" v="locality" />
		<tag k="ssr:stedsnr" v="907787" />
	</node>
	<node id="-1407" lat="58.3741611154" lon="6.28848056197">
		<tag k="name" v="Toskeland" />
		<tag k="place" v="locality" />
		<tag k="ssr:stedsnr" v="512371" />
	</node>
	<node id="-2428" lat="58.3925833295" lon="6.28042777056">
		<tag k="name" v="Øygjemarka" />
		<tag k="place" v="locality" />
		<tag k="ssr:stedsnr" v="148235" />
	</node>
	<node id="-2693" lat="58.3604972208" lon="6.28368888214">
		<tag k="landuse" v="meadow" />
		<tag k="name" v="Gjystein" />
		<tag k="ssr:stedsnr" v="391296" />
	</node>
	<node id="-2934" lat="58.3451333306" lon="6.22360000388">
		<tag k="name" v="Stabstova" />
		<tag k="natural" v="stone" />
		<tag k="ssr:stedsnr" v="634302" />
	</node>
	<node id="-2927" lat="58.3768777821" lon="6.38370278303">
		<tag k="name" v="Blakningsmyra" />
		<tag k="natural" v="wetland" />
		<tag k="ssr:stedsnr" v="633938" />
	</node>
	<node id="-2412" lat="58.4199638872" lon="6.35501944243">
		<tag k="name" v="Vidrekorga" />
		<tag k="natural" v="stone" />
		<tag k="ssr:stedsnr" v="148211" />
	</node>
	<node id="-2410" lat="58.4155611107" lon="6.34591111736">
		<tag k="name" v="Lundemyr" />
		<tag k="natural" v="wetland" />
		<tag k="ssr:stedsnr" v="148209" />
	</node>
	<node id="-1380" lat="58.3727083359" lon="6.41470000717">
		<tag k="name" v="Klemmemyrane" />
		<tag k="natural" v="wetland" />
		<tag k="ssr:stedsnr" v="391960" />
	</node>
	<node id="-1891" lat="58.4193944424" lon="6.45578055154">
		<tag k="name" v="Vide Myran" />
		<tag k="natural" v="wetland" />
		<tag k="ssr:stedsnr" v="695854" />
	</node>
	<node id="-1366" lat="58.2915361096" lon="6.34340000281">
		<tag k="name" v="Stykkjet" />
		<tag k="place" v="locality" />
		<tag k="ssr:stedsnr" v="391517" />
	</node>
	<node id="-1360" lat="58.3913638911" lon="6.29518333869">
		<tag k="name" v="Øygardsmyra" />
		<tag k="natural" v="wetland" />
		<tag k="ssr:stedsnr" v="391272" />
	</node>
	<node id="-1353" lat="58.3483361126" lon="6.2744611111">
		<tag k="name" v="Indre Solhaug" />
		<tag k="place" v="locality" />
		<tag k="ssr:stedsnr" v="391306" />
	</node>
	<node id="-940" lat="58.3307083343" lon="6.3161972292">
		<tag k="name" v="Refsmyra" />
		<tag k="natural" v="wetland" />
		<tag k="ssr:stedsnr" v="27429" />
	</node>
	<node id="-1855" lat="58.3389250044" lon="6.41901666849">
		<tag k="name" v="Porsmyra" />
		<tag k="natural" v="wetland" />
		<tag k="ssr:stedsnr" v="694005" />
	</node>
	<node id="-2613" lat="58.4009027821" lon="6.37747777903">
		<tag k="name" v="Maurbermyra" />
		<tag k="natural" v="wetland" />
		<tag k="ssr:stedsnr" v="331148" />
	</node>
	<node id="-2876" lat="58.3960916675" lon="6.20544166854">
		<tag k="name" v="Høgamyra" />
		<tag k="natural" v="wetland" />
		<tag k="ssr:stedsnr" v="584617" />
	</node>
	<node id="-1160" lat="58.2859083348" lon="6.38707500317">
		<tag k="name" v="Myran" />
		<tag k="natural" v="wetland" />
		<tag k="ssr:stedsnr" v="452054" />
	</node>
	<node id="-1324" lat="58.3734027802" lon="6.21012777678">
		<tag k="name" v="Breiskarmyra" />
		<tag k="natural" v="wetland" />
		<tag k="ssr:stedsnr" v="482833" />
	</node>
	<node id="-1833" lat="58.3571972238" lon="6.25834721578">
		<tag k="name" v="Josmyr" />
		<tag k="natural" v="wetland" />
		<tag k="ssr:stedsnr" v="877521" />
	</node>
	<node id="-2342" lat="58.4144305564" lon="6.42468611221">
		<tag k="name" v="Hommo" />
		<tag k="place" v="locality" />
		<tag k="ssr:stedsnr" v="88875" />
	</node>
	<node id="-2341" lat="58.3642027742" lon="6.3976416586">
		<tag k="name" v="Djuba myro" />
		<tag k="natural" v="wetland" />
		<tag k="ssr:stedsnr" v="88868" />
	</node>
	<node id="-2845" lat="58.3867249974" lon="6.24636667097">
		<tag k="name" v="Skiptingsmyr" />
		<tag k="natural" v="wetland" />
		<tag k="ssr:stedsnr" v="573297" />
	</node>
	<node id="-986" lat="58.444986114" lon="6.4324305472">
		<tag k="name" v="Linborghagen" />
		<tag k="place" v="locality" />
		<tag k="ssr:stedsnr" v="88605" />
	</node>
	<node id="-1306" lat="58.4195666624" lon="6.37140277339">
		<tag k="name" v="Storamyra" />
		<tag k="natural" v="wetland" />
		<tag k="ssr:stedsnr" v="331209" />
	</node>
	<node id="-1668" lat="58.393736112" lon="6.14880277193">
		<tag k="name" v="Rev-ur" />
		<tag k="natural" v="scree" />
		<tag k="ssr:stedsnr" v="584530" />
	</node>
	<node id="-2326" lat="58.4469527747" lon="6.40929444737">
		<tag k="name" v="Tristiglskogen" />
		<tag k="place" v="locality" />
		<tag k="ssr:stedsnr" v="88587" />
	</node>
	<node id="-1612" lat="58.3733472225" lon="6.24512777883">
		<tag k="name" v="Husemyr" />
		<tag k="natural" v="wetland" />
		<tag k="ssr:stedsnr" v="695477" />
	</node>
	<node id="-1294" lat="58.3354416642" lon="6.27060833161">
		<tag k="name" v="Bodlekjerr" />
		<tag k="place" v="locality" />
		<tag k="ssr:stedsnr" v="330419" />
	</node>
	<node id="-2826" lat="58.2838833346" lon="6.37212499603">
		<tag k="name" v="Røyrmyr" />
		<tag k="natural" v="wetland" />
		<tag k="ssr:stedsnr" v="572396" />
	</node>
	<node id="-2825" lat="58.3755694412" lon="6.35570000653">
		<tag k="name" v="Øygardsmyra" />
		<tag k="natural" v="wetland" />
		<tag k="ssr:stedsnr" v="572388" />
	</node>
	<node id="-2818" lat="58.3887333375" lon="6.21754999188">
		<tag k="name" v="Trommesteinmyra" />
		<tag k="natural" v="wetland" />
		<tag k="ssr:stedsnr" v="572491" />
	</node>
	<node id="-2299" lat="58.3433249957" lon="6.23228889261">
		<tag k="name" v="Langemyrane" />
		<tag k="natural" v="wetland" />
		<tag k="ssr:stedsnr" v="88249" />
	</node>
	<node id="-1786" lat="58.4456722263" lon="6.46185556109">
		<tag k="name" v="Slåten" />
		<tag k="place" v="locality" />
		<tag k="ssr:stedsnr" v="876627" />
	</node>
	<node id="-2943" lat="58.3761555537" lon="6.25386110271">
		<tag k="name" v="Foremyrane" />
		<tag k="natural" v="wetland" />
		<tag k="ssr:stedsnr" v="634495" />
	</node>
	<node id="-1272" lat="58.3868833332" lon="6.1670861097">
		<tag k="name" v="Alsnesmyra" />
		<tag k="natural" v="wetland" />
		<tag k="ssr:stedsnr" v="300856" />
	</node>
	<node id="-2796" lat="58.371477777" lon="6.17148611632">
		<tag k="name" v="Judebermyra" />
		<tag k="natural" v="wetland" />
		<tag k="ssr:stedsnr" v="543829" />
	</node>
	<node id="-1259" lat="58.4345500044" lon="6.44792778455">
		<tag k="name" v="Borskomyra" />
		<tag k="natural" v="wetland" />
		<tag k="ssr:stedsnr" v="270653" />
	</node>
	<node id="-2279" lat="58.4330638863" lon="6.25988888825">
		<tag k="name" v="Podlamyra" />
		<tag k="natural" v="wetland" />
		<tag k="ssr:stedsnr" v="87435" />
	</node>
	<node id="-2277" lat="58.3368555534" lon="6.32795833054">
		<tag k="name" v="Grøna Lego" />
		<tag k="place" v="locality" />
		<tag k="ssr:stedsnr" v="87392" />
	</node>
	<node id="-2788" lat="58.3572277749" lon="6.17726111501">
		<tag k="name" v="Sandvarmyrane" />
		<tag k="natural" v="wetland" />
		<tag k="ssr:stedsnr" v="525908" />
	</node>
	<node id="-2854" lat="58.3848694481" lon="6.21979722744">
		<tag k="name" v="Skitmyr" />
		<tag k="natural" v="wetland" />
		<tag k="ssr:stedsnr" v="573458" />
	</node>
	<node id="-2266" lat="58.388161111" lon="6.29687777709">
		<tag k="name" v="Deblamyra" />
		<tag k="natural" v="wetland" />
		<tag k="ssr:stedsnr" v="87322" />
	</node>
	<node id="-2261" lat="58.2849972186" lon="6.40720833584">
		<tag k="name" v="Urå" />
		<tag k="natural" v="scree" />
		<tag k="ssr:stedsnr" v="87041" />
	</node>
	<node id="-1219" lat="58.4029722241" lon="6.4427472301">
		<tag k="name" v="Øygjeheimyra" />
		<tag k="natural" v="wetland" />
		<tag k="ssr:stedsnr" v="452781" />
	</node>
	<node id="-1725" lat="58.4078611135" lon="6.49968611196">
		<tag k="name" v="Limyra" />
		<tag k="natural" v="wetland" />
		<tag k="ssr:stedsnr" v="633706" />
	</node>
	<node id="-2235" lat="58.3510472214" lon="6.15869167524">
		<tag k="name" v="Steindalsmyra" />
		<tag k="natural" v="wetland" />
		<tag k="ssr:stedsnr" v="57874" />
	</node>
	<node id="-1210" lat="58.4127166671" lon="6.25621111623">
		<tag k="name" v="Kvidesand" />
		<tag k="natural" v="beach" />
		<tag k="ssr:stedsnr" v="452527" />
		<tag k="surface" v="sand" />
	</node>
	<node id="-1208" lat="58.2817277775" lon="6.37710554979">
		<tag k="name" v="Myrå" />
		<tag k="natural" v="wetland" />
		<tag k="ssr:stedsnr" v="452520" />
	</node>
	<node id="-2741" lat="58.4162555574" lon="6.41248889128">
		<tag k="name" v="Steinmannshuset" />
		<tag k="natural" v="stone" />
		<tag k="ssr:stedsnr" v="391870" />
	</node>
	<node id="-1204" lat="58.3826861148" lon="6.24146111776">
		<tag k="landuse" v="meadow" />
		<tag k="name" v="Surtemyr" />
		<tag k="ssr:stedsnr" v="452482" />
	</node>
	<node id="-1309" lat="58.4233638917" lon="6.28150277668">
		<tag k="name" v="Gjiremyra" />
		<tag k="natural" v="wetland" />
		<tag k="ssr:stedsnr" v="331224" />
	</node>
	<node id="-3232" lat="58.2926944486" lon="6.43190555681">
		<tag k="name" v="Bjørgemyr" />
		<tag k="natural" v="wetland" />
		<tag k="ssr:stedsnr" v="876055" />
	</node>
	<node id="-2718" lat="58.3786722237" lon="6.25640277657">
		<tag k="name" v="Krakkemyra" />
		<tag k="natural" v="wetland" />
		<tag k="ssr:stedsnr" v="391480" />
	</node>
	<node id="-2712" lat="58.4118638925" lon="6.22761111722">
		<tag k="name" v="Ålkjermyra" />
		<tag k="natural" v="wetland" />
		<tag k="ssr:stedsnr" v="391422" />
	</node>
	<node id="-3096" lat="58.4161611146" lon="6.30449721993">
		<tag k="name" v="Måbærmyra" />
		<tag k="natural" v="wetland" />
		<tag k="ssr:stedsnr" v="875763" />
	</node>
	<node id="-2184" lat="58.4629916661" lon="6.45673610431">
		<tag k="name" v="Stabsto" />
		<tag k="natural" v="stone" />
		<tag k="ssr:stedsnr" v="27694" />
	</node>
	<node id="-2695" lat="58.350630553" lon="6.30543889655">
		<tag k="name" v="Skitmyr" />
		<tag k="natural" v="wetland" />
		<tag k="ssr:stedsnr" v="391301" />
	</node>
	<node id="-2181" lat="58.4453555554" lon="6.4498166599">
		<tag k="name" v="Krosmyr" />
		<tag k="natural" v="wetland" />
		<tag k="ssr:stedsnr" v="27660" />
	</node>
	<node id="-2180" lat="58.4391222212" lon="6.4441499943">
		<tag k="name" v="Revur" />
		<tag k="natural" v="scree" />
		<tag k="ssr:stedsnr" v="27644" />
	</node>
	<node id="-3198" lat="58.3560305518" lon="6.17075556027">
		<tag k="name" v="Langemyrane" />
		<tag k="natural" v="wetland" />
		<tag k="ssr:stedsnr" v="829924" />
	</node>
	<node id="-1661" lat="58.3411333357" lon="6.20636667117">
		<tag k="name" v="Ramslemyra" />
		<tag k="natural" v="wetland" />
		<tag k="ssr:stedsnr" v="709398" />
	</node>
	<node id="-1660" lat="58.3431944434" lon="6.17947500209">
		<tag k="name" v="Klypemyra" />
		<tag k="natural" v="wetland" />
		<tag k="ssr:stedsnr" v="709396" />
	</node>
	<node id="-1010" lat="58.3813138852" lon="6.26601388325">
		<tag k="name" v="Skiptingsmyr" />
		<tag k="natural" v="wetland" />
		<tag k="ssr:stedsnr" v="270326" />
	</node>
	<node id="-2163" lat="58.3882555589" lon="6.3482972169">
		<tag k="name" v="Langemyr" />
		<tag k="natural" v="wetland" />
		<tag k="ssr:stedsnr" v="27397" />
	</node>
	<node id="-2161" lat="58.3689472234" lon="6.35442777236">
		<tag k="name" v="Lange Myrane" />
		<tag k="natural" v="wetland" />
		<tag k="ssr:stedsnr" v="27387" />
	</node>
	<node id="-1648" lat="58.3598583361" lon="6.27540000278">
		<tag k="landuse" v="meadow" />
		<tag k="name" v="Tungebakkane" />
		<tag k="ssr:stedsnr" v="573274" />
	</node>
	<node id="-1135" lat="58.4109027738" lon="6.26592500811">
		<tag k="name" v="Iglebotn" />
		<tag k="natural" v="wetland" />
		<tag k="ssr:stedsnr" v="209526" />
	</node>
	<node id="-1644" lat="58.4575555594" lon="6.2888444368">
		<tag k="name" v="Djubemyr" />
		<tag k="natural" v="wetland" />
		<tag k="ssr:stedsnr" v="573119" />
	</node>
	<node id="-1127" lat="58.3371805569" lon="6.33210000346">
		<tag k="name" v="Ingvarslega" />
		<tag k="place" v="locality" />
		<tag k="ssr:stedsnr" v="209434" />
	</node>
	<node id="-2148" lat="58.4158527809" lon="6.2772888935">
		<tag k="name" v="Fedo" />
		<tag k="place" v="locality" />
		<tag k="ssr:stedsnr" v="27182" />
	</node>
	<node id="-1123" lat="58.2877944469" lon="6.37576388403">
		<tag k="name" v="Steinemyrane" />
		<tag k="natural" v="wetland" />
		<tag k="ssr:stedsnr" v="209406" />
	</node>
	<node id="-1242" lat="58.3865944442" lon="6.30458054776">
		<tag k="name" v="Lunnemyr" />
		<tag k="natural" v="wetland" />
		<tag k="ssr:stedsnr" v="269369" />
	</node>
	<node id="-1633" lat="58.2822388851" lon="6.3943722153">
		<tag k="name" v="Kallstein" />
		<tag k="natural" v="stone" />
		<tag k="ssr:stedsnr" v="572068" />
	</node>
	<node id="-1631" lat="58.3493388933" lon="6.16315555394">
		<tag k="name" v="Øygard" />
		<tag k="place" v="locality" />
		<tag k="ssr:stedsnr" v="706910" />
	</node>
	<node id="-2141" lat="58.362563888" lon="6.3435305615">
		<tag k="name" v="Storgangen" />
		<tag k="natural" v="beach" />
		<tag k="ssr:stedsnr" v="27328" />
		<tag k="surface" v="sand" />
	</node>
	<node id="-1116" lat="58.3476166623" lon="6.37327499875">
		<tag k="name" v="Bøstølen" />
		<tag k="place" v="locality" />
		<tag k="ssr:stedsnr" v="209313" />
	</node>
	<node id="-2650" lat="58.4250138848" lon="6.43280555882">
		<tag k="name" v="Kjørshom" />
		<tag k="place" v="locality" />
		<tag k="ssr:stedsnr" v="331898" />
	</node>
	<node id="-1465" lat="58.3583583314" lon="6.46149721921">
		<tag k="name" v="Solli" />
		<tag k="place" v="locality" />
		<tag k="ssr:stedsnr" v="513893" />
	</node>
	<node id="-3156" lat="58.3446666652" lon="6.32988610351">
		<tag k="name" v="Lange Myrane" />
		<tag k="natural" v="wetland" />
		<tag k="ssr:stedsnr" v="816447" />
	</node>
	<node id="-1614" lat="58.3568166687" lon="6.33315833547">
		<tag k="name" v="Sandtippen" />
		<tag k="natural" v="beach" />
		<tag k="ssr:stedsnr" v="695316" />
		<tag k="surface" v="sand" />
	</node>
	<node id="-1613" lat="58.3864916654" lon="6.24045555508">
		<tag k="name" v="Tverrhei" />
		<tag k="natural" v="wetland" />
		<tag k="ssr:stedsnr" v="695482" />
	</node>
	<node id="-2636" lat="58.3895694429" lon="6.38293334153">
		<tag k="name" v="Langemyr" />
		<tag k="natural" v="wetland" />
		<tag k="ssr:stedsnr" v="331813" />
	</node>
	<node id="-1122" lat="58.4274805593" lon="6.26166111581">
		<tag k="name" v="Fagermyra" />
		<tag k="natural" v="wetland" />
		<tag k="ssr:stedsnr" v="209405" />
	</node>
	<node id="-3141" lat="58.4326666653" lon="6.23313889078">
		<tag k="name" v="Langamyra" />
		<tag k="natural" v="wetland" />
		<tag k="ssr:stedsnr" v="816478" />
	</node>
	<node id="-2624" lat="58.4187138918" lon="6.26557221984">
		<tag k="name" v="Floan" />
		<tag k="natural" v="wetland" />
		<tag k="ssr:stedsnr" v="331392" />
	</node>
	<node id="-2107" lat="58.3694000029" lon="6.2533138868">
		<tag k="name" v="Surtemyr" />
		<tag k="natural" v="wetland" />
		<tag k="ssr:stedsnr" v="938463" />
	</node>
	<node id="-1082" lat="58.348799998" lon="6.2056750025">
		<tag k="name" v="Slåtto" />
		<tag k="place" v="locality" />
		<tag k="ssr:stedsnr" v="159915" />
	</node>
	<node id="-2101" lat="58.3900194401" lon="6.3724444431">
		<tag k="name" v="Stemmebotnen" />
		<tag k="natural" v="wetland" />
		<tag k="ssr:stedsnr" v="938236" />
	</node>
	<node id="-2612" lat="58.4558694423" lon="6.28366388428">
		<tag k="name" v="Migarsura" />
		<tag k="natural" v="scree" />
		<tag k="ssr:stedsnr" v="331130" />
	</node>
	<node id="-1581" lat="58.3377805571" lon="6.28333056382">
		<tag k="name" v="Tuen" />
		<tag k="place" v="locality" />
		<tag k="ssr:stedsnr" v="694386" />
	</node>
	<node id="-2604" lat="58.3085750003" lon="6.40844721576">
		<tag k="name" v="Storamyra" />
		<tag k="natural" v="wetland" />
		<tag k="ssr:stedsnr" v="330970" />
	</node>
	<node id="-1970" lat="58.3834416692" lon="6.30346667066">
		<tag k="name" v="Flagamyr" />
		<tag k="natural" v="wetland" />
		<tag k="ssr:stedsnr" v="816361" />
	</node>
	<node id="-1063" lat="58.2866222257" lon="6.34581111261">
		<tag k="landuse" v="meadow" />
		<tag k="name" v="Strendan" />
		<tag k="ssr:stedsnr" v="148514" />
	</node>
	<node id="-2085" lat="58.3366388906" lon="6.40991110292">
		<tag k="alt_name" v="Tedlenes;Tedlenes dagbrudd og gruveanlegg" />
		<tag k="landuse" v="quarry" />
		<tag k="name" v="Tellenes" />
		<tag k="old_name" v="Tellnes gruver" />
		<tag k="ssr:stedsnr" v="911254" />
	</node>
	<node id="-1056" lat="58.4040583367" lon="6.21801666335">
		<tag k="name" v="Fidjastølane" />
		<tag k="place" v="locality" />
		<tag k="ssr:stedsnr" v="148420" />
	</node>
	<node id="-3100" lat="58.3560166702" lon="6.12577500105">
		<tag k="name" v="Gomskårsmyra" />
		<tag k="natural" v="wetland" />
		<tag k="ssr:stedsnr" v="785882" />
	</node>
	<node id="-1563" lat="58.404941671" lon="6.22518611154">
		<tag k="name" v="Langemyrane" />
		<tag k="natural" v="wetland" />
		<tag k="ssr:stedsnr" v="513466" />
	</node>
	<node id="-1049" lat="58.4609500035" lon="6.30527500276">
		<tag k="name" v="Trodlkjærmyr" />
		<tag k="natural" v="wetland" />
		<tag k="ssr:stedsnr" v="148122" />
	</node>
	<node id="-2584" lat="58.3564361085" lon="6.32244166136">
		<tag k="name" v="Hauglandsmyra" />
		<tag k="natural" v="wetland" />
		<tag k="ssr:stedsnr" v="330276" />
	</node>
	<node id="-1558" lat="58.4386805543" lon="6.40401944862">
		<tag k="name" v="Ljosmyr" />
		<tag k="natural" v="wetland" />
		<tag k="ssr:stedsnr" v="512677" />
	</node>
	<node id="-1039" lat="58.2988000004" lon="6.46236666067">
		<tag k="name" v="Uran" />
		<tag k="natural" v="scree" />
		<tag k="ssr:stedsnr" v="270979" />
	</node>
	<node id="-3086" lat="58.3667313403" lon="6.17954150286">
		<tag k="name" v="Grindeskarmyra" />
		<tag k="natural" v="wetland" />
		<tag k="ssr:stedsnr" v="768941" />
	</node>
	<node id="-3081" lat="58.3954111075" lon="6.15902499304">
		<tag k="name" v="Stokkan" />
		<tag k="natural" v="wetland" />
		<tag k="ssr:stedsnr" v="766534" />
	</node>
	<node id="-2055" lat="58.3461277824" lon="6.15127778502">
		<tag k="name" v="Rabbesteinen" />
		<tag k="natural" v="stone" />
		<tag k="ssr:stedsnr" v="844832" />
	</node>
</osm>
