<?xml version="1.0" encoding="UTF-8"?>
<osm version="0.6" generator="osmapis">
	<node lat="58.344102781470184" lon="6.26055832718276" id="-880">
		<tag k="bay" v="fjord" />
		<tag k="name" v="Podlen" />
		<tag k="natural" v="bay" />
		<tag k="ssr:stedsnr" v="27302" />
	</node>
	<node lat="58.28584722387966" lon="6.330491674450586" id="-901">
		<tag k="name" v="Skreppo" />
		<tag k="place" v="islet" />
		<tag k="ssr:stedsnr" v="27517" />
	</node>
	<node lat="58.30053332945427" lon="6.324858328593724" id="-903">
		<tag k="name" v="Buvarvika" />
		<tag k="natural" v="bay" />
		<tag k="ssr:stedsnr" v="27525" />
	</node>
	<node lat="58.2777027779354" lon="6.383391673063376" id="-937">
		<tag k="bay" v="fjord" />
		<tag k="name" v="Åna" />
		<tag k="natural" v="bay" />
		<tag k="ssr:stedsnr" v="60020" />
	</node>
	<node lat="58.32578333083205" lon="6.261163884574919" id="-948">
		<tag k="name" v="Rossavika" />
		<tag k="natural" v="bay" />
		<tag k="ssr:stedsnr" v="240787" />
	</node>
	<node lat="58.295513891580114" lon="6.307663890297236" id="-974">
		<tag k="name" v="Skoglan" />
		<tag k="place" v="islet" />
		<tag k="ssr:stedsnr" v="87485" />
	</node>
	<node lat="58.32589444756185" lon="6.257586103821163" id="-1006">
		<tag k="name" v="Kjefta" />
		<tag k="natural" v="bay" />
		<tag k="ssr:stedsnr" v="100782" />
	</node>
	<node lat="58.33486111146345" lon="6.192063896947047" id="-1067">
		<tag k="name" v="Fuglegrunnen" />
		<tag k="place" v="islet" />
		<tag k="ssr:stedsnr" v="163374" />
	</node>
	<node lat="58.34974166897933" lon="6.140044450407771" id="-1072">
		<tag k="name" v="Kvamakilen" />
		<tag k="natural" v="bay" />
		<tag k="ssr:stedsnr" v="179873" />
	</node>
	<node lat="58.316286109551335" lon="6.30511666999926" id="-1111">
		<tag k="name" v="Knubedalsvika" />
		<tag k="natural" v="bay" />
		<tag k="ssr:stedsnr" v="269340" />
	</node>
	<node lat="58.32140555797732" lon="6.280591671358476" id="-1115">
		<tag k="name" v="Suholet" />
		<tag k="natural" v="bay" />
		<tag k="ssr:stedsnr" v="269441" />
	</node>
	<node lat="58.338416666638565" lon="6.178436113313919" id="-1159">
		<tag k="name" v="Seilbakk" />
		<tag k="natural" v="cape" />
		<tag k="ssr:stedsnr" v="224423" />
	</node>
	<node lat="58.346955551395496" lon="6.148524996702071" id="-1162">
		<tag k="name" v="Rabnavik" />
		<tag k="natural" v="bay" />
		<tag k="ssr:stedsnr" v="239891" />
	</node>
	<node lat="58.29112103495457" lon="6.333778539918714" id="-1214">
		<tag k="name" v="Habnen" />
		<tag k="natural" v="bay" />
		<tag k="ssr:stedsnr" v="452526" />
	</node>
	<node lat="58.34430278119425" lon="6.153644441450753" id="-1288">
		<tag k="name" v="Todnodden" />
		<tag k="natural" v="cape" />
		<tag k="ssr:stedsnr" v="466500" />
	</node>
	<node lat="58.33960278207044" lon="6.171147222220314" id="-1289">
		<tag k="name" v="Hådyrstøa" />
		<tag k="natural" v="bay" />
		<tag k="ssr:stedsnr" v="466435" />
	</node>
	<node lat="58.334408332532156" lon="6.197244436640144" id="-1290">
		<tag k="name" v="Litla Stokkevika" />
		<tag k="natural" v="bay" />
		<tag k="ssr:stedsnr" v="466436" />
	</node>
	<node lat="58.296577776636774" lon="6.308980555958654" id="-1303">
		<tag k="fixme" v="consider seamark:type=rock or natural=shoal" />
		<tag k="name" v="Gula Skjeret" />
		<tag k="place" v="islet" />
		<tag k="ssr:stedsnr" v="330525" />
	</node>
	<node lat="58.327899996406636" lon="6.219183334496122" id="-1319">
		<tag k="fixme" v="consider seamark:type=rock or natural=shoal" />
		<tag k="name" v="Knappan" />
		<tag k="place" v="islet" />
		<tag k="ssr:stedsnr" v="331288" />
	</node>
	<node lat="58.35113304554657" lon="6.134514655310537" id="-1347">
		<tag k="name" v="Stora Regevik" />
		<tag k="natural" v="bay" />
		<tag k="ssr:stedsnr" v="482860" />
	</node>
	<node lat="58.355274998109415" lon="6.119097223201239" id="-1349">
		<tag k="name" v="Skorevik" />
		<tag k="natural" v="bay" />
		<tag k="ssr:stedsnr" v="482856" />
	</node>
	<node lat="58.33383888717874" lon="6.255347216512191" id="-1362">
		<tag k="name" v="Lammenes" />
		<tag k="natural" v="cape" />
		<tag k="ssr:stedsnr" v="391335" />
	</node>
	<node lat="58.33352222644847" lon="6.260216670569193" id="-1442">
		<tag k="name" v="Stampholmen" />
		<tag k="place" v="islet" />
		<tag k="ssr:stedsnr" v="452278" />
	</node>
	<node lat="58.29320277322592" lon="6.334016659871886" id="-1448">
		<tag k="name" v="Tverrstranda" />
		<tag k="natural" v="beach" />
		<tag k="ssr:stedsnr" v="452514" />
	</node>
	<node lat="58.28563611187334" lon="6.3472222222202275" id="-1449">
		<tag k="fixme" v="consider seamark:type=rock or natural=shoal" />
		<tag k="name" v="Presteskjeret" />
		<tag k="place" v="islet" />
		<tag k="ssr:stedsnr" v="452515" />
	</node>
	<node lat="58.280905553936606" lon="6.358308340719863" id="-1450">
		<tag k="alt_name" v="Skjelshammaren" />
		<tag k="name" v="Skilshammaren" />
		<tag k="natural" v="cape" />
		<tag k="ssr:stedsnr" v="452518" />
	</node>
	<node lat="58.3325333317469" lon="6.212155550270129" id="-1465">
		<tag k="fixme" v="consider seamark:type=rock or natural=shoal" />
		<tag k="name" v="Guleholmen" />
		<tag k="place" v="islet" />
		<tag k="ssr:stedsnr" v="467466" />
	</node>
	<node lat="58.29015833182718" lon="6.337611113981097" id="-1484">
		<tag k="name" v="Hommekilen" />
		<tag k="natural" v="bay" />
		<tag k="ssr:stedsnr" v="512513" />
	</node>
	<node lat="58.33099673613632" lon="6.209766444904725" id="-1512">
		<tag k="name" v="Seiesundet" />
		<tag k="natural" v="strait" />
		<tag k="ssr:stedsnr" v="527413" />
	</node>
	<node lat="58.32353611075121" lon="6.275027777086371" id="-1536">
		<tag k="name" v="Hellevik" />
		<tag k="natural" v="bay" />
		<tag k="ssr:stedsnr" v="572456" />
	</node>
	<node lat="58.31107778169928" lon="6.319502779137217" id="-1538">
		<tag k="name" v="Longvik" />
		<tag k="natural" v="bay" />
		<tag k="ssr:stedsnr" v="572346" />
	</node>
	<node lat="58.277672224922675" lon="6.371083329555748" id="-1540">
		<tag k="name" v="Sir-ulv" />
		<tag k="place" v="islet" />
		<tag k="ssr:stedsnr" v="572401" />
	</node>
	<node lat="58.28906033013269" lon="6.342154753535862" id="-1566">
		<tag k="name" v="Gyvik" />
		<tag k="natural" v="bay" />
		<tag k="ssr:stedsnr" v="694493" />
	</node>
	<node lat="58.337713888027395" lon="6.2555249943375175" id="-1622">
		<tag k="name" v="Støllevika" />
		<tag k="natural" v="bay" />
		<tag k="ssr:stedsnr" v="585803" />
	</node>
	<node lat="58.34719444445504" lon="6.146336112949657" id="-1631">
		<tag k="name" v="Beislevik" />
		<tag k="natural" v="bay" />
		<tag k="ssr:stedsnr" v="603865" />
	</node>
	<node lat="58.25209721794992" lon="6.33517499216657" id="-1633">
		<tag k="alt_name" v="Hausen, v" />
		<tag k="name" v="Vestre Hausen" />
		<tag k="natural" v="shoal" />
		<tag k="place" v="locality" />
		<tag k="ssr:stedsnr" v="604163" />
	</node>
	<node lat="58.293663887537164" lon="6.305124999544156" id="-1656">
		<tag k="name" v="Ytra Skoglebukta" />
		<tag k="natural" v="bay" />
		<tag k="ssr:stedsnr" v="633514" />
	</node>
	<node lat="58.3374611131776" lon="6.259763893056366" id="-1666">
		<tag k="name" v="Knappesholmen" />
		<tag k="place" v="islet" />
		<tag k="ssr:stedsnr" v="634307" />
	</node>
	<node lat="58.325144446814114" lon="6.2310861057728415" id="-1667">
		<tag k="name" v="Ostervikodden" />
		<tag k="natural" v="cape" />
		<tag k="ssr:stedsnr" v="634309" />
	</node>
	<node lat="58.343088891015874" lon="6.15811943795577" id="-1695">
		<tag k="name" v="Toptavika" />
		<tag k="natural" v="bay" />
		<tag k="ssr:stedsnr" v="648493" />
	</node>
	<node lat="58.338269440730286" lon="6.2044388823779535" id="-1703">
		<tag k="name" v="Sørildsbukta" />
		<tag k="natural" v="bay" />
		<tag k="ssr:stedsnr" v="709402" />
	</node>
	<node lat="58.33241666306968" lon="6.204783338108365" id="-1704">
		<tag k="name" v="Mortevika" />
		<tag k="natural" v="bay" />
		<tag k="ssr:stedsnr" v="709407" />
	</node>
	<node lat="58.33175833044115" lon="6.206644448224044" id="-1705">
		<tag k="name" v="Storsundet" />
		<tag k="natural" v="strait" />
		<tag k="ssr:stedsnr" v="709410" />
	</node>
	<node lat="58.33069722493093" lon="6.215322218943043" id="-1706">
		<tag k="name" v="Ramsbjørholmen" />
		<tag k="place" v="islet" />
		<tag k="ssr:stedsnr" v="709421" />
	</node>
	<node lat="58.35606388689529" lon="6.116638893808133" id="-1707">
		<tag k="name" v="Øystravika" />
		<tag k="natural" v="bay" />
		<tag k="ssr:stedsnr" v="664890" />
	</node>
	<node lat="58.338500002446786" lon="6.202694435718827" id="-1718">
		<tag k="name" v="Sanden" />
		<tag k="natural" v="bay" />
		<tag k="ssr:stedsnr" v="892393" />
	</node>
	<node lat="58.33600833178521" lon="6.184575002761789" id="-1719">
		<tag k="fixme" v="consider seamark:type=rock or natural=shoal" />
		<tag k="name" v="Skarveskjeret" />
		<tag k="place" v="islet" />
		<tag k="ssr:stedsnr" v="892444" />
	</node>
	<node lat="58.27826110863824" lon="6.372691665387119" id="-1727">
		<tag k="name" v="Skarveglova" />
		<tag k="natural" v="bay" />
		<tag k="ssr:stedsnr" v="694377" />
	</node>
	<node lat="58.33450820232516" lon="6.260494474739359" id="-1758">
		<tag k="fixme" v="consider seamark:type=rock or natural=shoal" />
		<tag k="name" v="Åveskjera" />
		<tag k="place" v="islet" />
		<tag k="ssr:stedsnr" v="706824" />
	</node>
	<node lat="58.315930555658184" lon="6.290052785320991" id="-1769">
		<tag k="name" v="Åsodden" />
		<tag k="natural" v="cape" />
		<tag k="ssr:stedsnr" v="725969" />
	</node>
	<node lat="58.35345833067744" lon="6.122288892094669" id="-1826">
		<tag k="name" v="Svaddekilen" />
		<tag k="natural" v="bay" />
		<tag k="ssr:stedsnr" v="907836" />
	</node>
	<node lat="58.352502774143986" lon="6.124880560605127" id="-1827">
		<tag k="name" v="Nora Habne" />
		<tag k="natural" v="bay" />
		<tag k="ssr:stedsnr" v="907840" />
	</node>
	<node lat="58.34892222353387" lon="6.141547223886629" id="-1828">
		<tag k="name" v="Øybrandsvik" />
		<tag k="natural" v="bay" />
		<tag k="ssr:stedsnr" v="907844" />
	</node>
	<node lat="58.327508330803774" lon="6.226513890388371" id="-1855">
		<tag k="name" v="Oddsvik" />
		<tag k="natural" v="bay" />
		<tag k="ssr:stedsnr" v="816305" />
	</node>
	<node lat="58.30056110936568" lon="6.300258332590431" id="-1870">
		<tag k="fixme" v="consider seamark:type=rock or natural=shoal" />
		<tag k="name" v="Svarta Skjeret" />
		<tag k="place" v="islet" />
		<tag k="ssr:stedsnr" v="816514" />
	</node>
	<node lat="58.339333334975336" lon="6.175183333511216" id="-1889">
		<tag k="name" v="Klaussundet" />
		<tag k="natural" v="strait" />
		<tag k="ssr:stedsnr" v="831380" />
	</node>
	<node lat="58.33632499571403" lon="6.205583329462262" id="-1890">
		<tag k="name" v="Nesbukta" />
		<tag k="natural" v="bay" />
		<tag k="ssr:stedsnr" v="831382" />
	</node>
	<node lat="58.32466944620416" lon="6.235233335747874" id="-1925">
		<tag k="name" v="Saltsteinen" />
		<tag k="natural" v="cape" />
		<tag k="ssr:stedsnr" v="877309" />
	</node>
	<node lat="58.334505557213014" lon="6.260591660564131" id="-1927">
		<tag k="fixme" v="consider seamark:type=rock or natural=shoal" />
		<tag k="name" v="Gulsskjeret" />
		<tag k="place" v="islet" />
		<tag k="ssr:stedsnr" v="877312" />
	</node>
	<node lat="58.34026666510082" lon="6.17791389117334" id="-1949">
		<tag k="name" v="Gråholmen" />
		<tag k="place" v="islet" />
		<tag k="ssr:stedsnr" v="892403" />
	</node>
	<node lat="58.3342704803085" lon="6.2118589681648295" id="-1950">
		<tag k="name" v="Engelsholmen" />
		<tag k="place" v="islet" />
		<tag k="ssr:stedsnr" v="892408" />
	</node>
	<node lat="58.32299166345301" lon="6.262524995966166" id="-1955">
		<tag k="name" v="Knubben" />
		<tag k="natural" v="cape" />
		<tag k="ssr:stedsnr" v="908824" />
	</node>
	<node lat="58.323083336315236" lon="6.244722229427325" id="-1980">
		<tag k="name" v="Kongshamn" />
		<tag k="natural" v="bay" />
		<tag k="ssr:stedsnr" v="938326" />
	</node>
	<node lat="58.33686666685153" lon="6.26010278354617" id="-2002">
		<tag k="fixme" v="consider seamark:type=rock or natural=shoal" />
		<tag k="name" v="Guleskjer" />
		<tag k="place" v="islet" />
		<tag k="ssr:stedsnr" v="949807" />
	</node>
	<node lat="58.33543611044123" lon="6.208866660985911" id="-2006">
		<tag k="name" v="Risholmen" />
		<tag k="natural" v="cape" />
		<tag k="ssr:stedsnr" v="952442" />
	</node>
	<node lat="58.33515555139848" lon="6.214886103281868" id="-2007">
		<tag k="name" v="Kvideholmen" />
		<tag k="natural" v="cape" />
		<tag k="ssr:stedsnr" v="952443" />
	</node>
	<node lat="58.355961107067834" lon="6.118119438967334" id="-2009">
		<tag k="name" v="Skorvo" />
		<tag k="natural" v="cape" />
		<tag k="ssr:stedsnr" v="965838" />
	</node>
	<node lat="58.351175003534244" lon="6.136288881374987" id="-2010">
		<tag k="name" v="Litla Regevik" />
		<tag k="natural" v="bay" />
		<tag k="ssr:stedsnr" v="967837" />
	</node>
	<node lat="58.322305555618456" lon="6.262766661059579" id="-2013">
		<tag k="fixme" v="consider seamark:type=rock or natural=shoal" />
		<tag k="name" v="Svarteskjer" />
		<tag k="place" v="islet" />
		<tag k="ssr:stedsnr" v="968794" />
	</node>
	<node lat="58.31439443505719" lon="6.33539592385825" id="-2015">
		<tag k="name" v="Vinterstøbukta" />
		<tag k="natural" v="bay" />
		<tag k="ssr:stedsnr" v="976941" />
	</node>
	<node lat="58.32120497628573" lon="6.285103384860469" id="-2016">
		<tag k="name" v="Odden" />
		<tag k="natural" v="cape" />
		<tag k="ssr:stedsnr" v="976946" />
	</node>
	<node lat="58.32473421990449" lon="6.27205781690157" id="-2017">
		<tag k="loc_name" v="Stigbukta" />
		<tag k="name" v="Stibukta" />
		<tag k="natural" v="bay" />
		<tag k="ssr:stedsnr" v="976954" />
	</node>
	<node lat="58.33688333368237" lon="6.212119448190605" id="-2117">
		<tag k="alt_name" v="Børildsvågen" />
		<tag k="name" v="Børilsvågen" />
		<tag k="natural" v="bay" />
		<tag k="ssr:stedsnr" v="39798" />
	</node>
	<node lat="58.33288333379341" lon="6.1981333248869355" id="-2217">
		<tag k="name" v="Krossholmane" />
		<tag k="place" v="islet" />
		<tag k="ssr:stedsnr" v="103426" />
	</node>
	<node lat="58.33935277812144" lon="6.176002772677592" id="-2218">
		<tag k="name" v="Langholmen" />
		<tag k="place" v="islet" />
		<tag k="ssr:stedsnr" v="103463" />
	</node>
	<node lat="58.336833337409644" lon="6.183997217909157" id="-2219">
		<tag k="name" v="Spranget" />
		<tag k="natural" v="bay" />
		<tag k="ssr:stedsnr" v="102465" />
	</node>
	<node lat="58.351297219694295" lon="6.130105561891282" id="-2223">
		<tag k="name" v="Gronongkilen" />
		<tag k="natural" v="bay" />
		<tag k="ssr:stedsnr" v="118857" />
	</node>
	<node lat="58.3287638886553" lon="6.218080549867435" id="-2254">
		<tag k="name" v="Flåno" />
		<tag k="natural" v="strait" />
		<tag k="ssr:stedsnr" v="148344" />
	</node>
	<node lat="58.343386114591254" lon="6.1561472158727435" id="-2303">
		<tag k="name" v="Lyrodden" />
		<tag k="natural" v="cape" />
		<tag k="ssr:stedsnr" v="163455" />
	</node>
	<node lat="58.34111388788191" lon="6.163097213840413" id="-2305">
		<tag k="name" v="Dyrodden" />
		<tag k="natural" v="cape" />
		<tag k="ssr:stedsnr" v="163394" />
	</node>
	<node lat="58.15130833030587" lon="6.29712777180919" id="-2311">
		<tag k="name" v="Nordsjøen" />
		<tag k="name:en" v="North Sea" />
		<tag k="name:no" v="Nordsjøen" />
		<tag k="place" v="sea" />
		<tag k="ssr:stedsnr" v="182096" />
	</node>
	<node lat="58.32543888819728" lon="6.235697229762308" id="-2361">
		<tag k="name" v="Ostervik" />
		<tag k="natural" v="bay" />
		<tag k="ssr:stedsnr" v="209305" />
	</node>
	<node lat="58.2889138901885" lon="6.310538894199294" id="-2368">
		<tag k="fixme" v="consider seamark:type=rock or natural=shoal" />
		<tag k="name" v="Vestre Knappan" />
		<tag k="place" v="islet" />
		<tag k="ssr:stedsnr" v="209511" />
	</node>
	<node lat="58.28699444755492" lon="6.332647219750626" id="-2370">
		<tag k="name" v="Humerdus" />
		<tag k="place" v="islet" />
		<tag k="ssr:stedsnr" v="209516" />
	</node>
	<node lat="58.28973618248798" lon="6.339312647296037" id="-2371">
		<tag k="name" v="Djubavika" />
		<tag k="natural" v="bay" />
		<tag k="ssr:stedsnr" v="209519" />
	</node>
	<node lat="58.33607777496472" lon="6.206577772720317" id="-2400">
		<tag k="name" v="Langetangen" />
		<tag k="natural" v="cape" />
		<tag k="ssr:stedsnr" v="224092" />
	</node>
	<node lat="58.33776110896562" lon="6.183291673040111" id="-2403">
		<tag k="name" v="Odredalsbukta" />
		<tag k="natural" v="bay" />
		<tag k="ssr:stedsnr" v="224381" />
	</node>
	<node lat="58.3303722212319" lon="6.214819443900026" id="-2414">
		<tag k="name" v="Jelten" />
		<tag k="place" v="islet" />
		<tag k="ssr:stedsnr" v="285421" />
	</node>
	<node lat="58.33433333652639" lon="6.195011108846775" id="-2415">
		<tag k="name" v="Skvetten" />
		<tag k="natural" v="cape" />
		<tag k="ssr:stedsnr" v="285437" />
	</node>
	<node lat="58.29045013331392" lon="6.33661095827489" id="-2453">
		<tag k="name" v="Gløsso" />
		<tag k="natural" v="bay" />
		<tag k="ssr:stedsnr" v="330531" />
	</node>
	<node lat="58.3237527732789" lon="6.256608330143073" id="-2478">
		<tag k="name" v="Kattaraua" />
		<tag k="natural" v="strait" />
		<tag k="ssr:stedsnr" v="331329" />
	</node>
	<node lat="58.245808330057386" lon="6.333633332291241" id="-2492">
		<tag k="name" v="Hausen" />
		<tag k="natural" v="shoal" />
		<tag k="place" v="locality" />
		<tag k="ssr:stedsnr" v="331789" />
	</node>
	<node lat="58.32997777458809" lon="6.212800005203902" id="-2517">
		<tag k="name" v="Jeltesundet" />
		<tag k="natural" v="strait" />
		<tag k="ssr:stedsnr" v="345366" />
	</node>
	<node lat="58.24441388979602" lon="6.320975003400484" id="-2525">
		<tag k="name" v="Urdalsåsen" />
		<tag k="natural" v="shoal" />
		<tag k="place" v="locality" />
		<tag k="ssr:stedsnr" v="361141" />
	</node>
	<node lat="58.29755833683499" lon="6.304388888791528" id="-2558">
		<tag k="name" v="Stora Skoglebukta" />
		<tag k="natural" v="bay" />
		<tag k="ssr:stedsnr" v="391515" />
	</node>
	<node lat="58.247150003054486" lon="6.301149994549503" id="-2599">
		<tag k="name" v="Klakken" />
		<tag k="natural" v="shoal" />
		<tag k="place" v="locality" />
		<tag k="ssr:stedsnr" v="392812" />
	</node>
	<node lat="58.30358333672791" lon="6.306241661593274" id="-2603">
		<tag k="name" v="Steinsflua" />
		<tag k="natural" v="shoal" />
		<tag k="place" v="locality" />
		<tag k="ssr:stedsnr" v="403268" />
	</node>
	<node lat="58.334627776310775" lon="6.196149995315654" id="-2604">
		<tag k="name" v="Stora Stokkevika" />
		<tag k="natural" v="bay" />
		<tag k="ssr:stedsnr" v="406420" />
	</node>
	<node lat="58.31329444489494" lon="6.3334916672153385" id="-2610">
		<tag k="name" v="Tollevikodden" />
		<tag k="natural" v="cape" />
		<tag k="ssr:stedsnr" v="422975" />
	</node>
	<node lat="58.30855555971257" lon="6.331677783126694" id="-2628">
		<tag k="name" v="Buholmen" />
		<tag k="place" v="islet" />
		<tag k="ssr:stedsnr" v="512344" />
	</node>
	<node lat="58.33891111389652" lon="6.1731500050069945" id="-2705">
		<tag k="name" v="Litleflua" />
		<tag k="place" v="locality" />
		<tag k="seamark:type" v="rock" />
		<tag k="ssr:stedsnr" v="527441" />
	</node>
	<node lat="58.329550003986164" lon="6.2141666681244425" id="-2780">
		<tag k="name" v="Jømplingsholmen" />
		<tag k="place" v="islet" />
		<tag k="ssr:stedsnr" v="588398" />
	</node>
	<node lat="58.28993055829246" lon="6.4282472171320855" id="-2796">
		<tag k="name" v="Geitelauflua" />
		<tag k="natural" v="cape" />
		<tag k="ssr:stedsnr" v="633045" />
	</node>
	<node lat="58.29447028450398" lon="6.334817281112502" id="-2804">
		<tag k="loc_name" v="Reksvika" />
		<tag k="name" v="Regsvika" />
		<tag k="natural" v="bay" />
		<tag k="ssr:stedsnr" v="633525" />
	</node>
	<node lat="58.33020833271276" lon="6.21616388302566" id="-2835">
		<tag k="name" v="Rambjørsundet" />
		<tag k="natural" v="strait" />
		<tag k="ssr:stedsnr" v="634325" />
	</node>
	<node lat="58.33983055708899" lon="6.167130547334933" id="-2879">
		<tag k="name" v="Skarvhaug" />
		<tag k="natural" v="cape" />
		<tag k="ssr:stedsnr" v="648430" />
	</node>
	<node lat="58.357272219211254" lon="6.115583334845373" id="-2899">
		<tag k="name" v="Stranda" />
		<tag k="natural" v="beach" />
		<tag k="ssr:stedsnr" v="722856" />
	</node>
	<node lat="58.29707777742641" lon="6.30528333010647" id="-2937">
		<tag k="name" v="Mjølsund" />
		<tag k="natural" v="strait" />
		<tag k="ssr:stedsnr" v="755510" />
	</node>
	<node lat="58.29088610854944" lon="6.335008332663314" id="-2942">
		<tag k="name" v="Strokholet" />
		<tag k="natural" v="bay" />
		<tag k="ssr:stedsnr" v="755522" />
	</node>
	<node lat="58.24648889259115" lon="6.344658339389006" id="-2970">
		<tag k="name" v="Pallen" />
		<tag k="natural" v="shoal" />
		<tag k="place" v="locality" />
		<tag k="ssr:stedsnr" v="756792" />
	</node>
	<node lat="58.33627222066041" lon="6.187186105384235" id="-2981">
		<tag k="name" v="Beltefjellvika" />
		<tag k="natural" v="bay" />
		<tag k="ssr:stedsnr" v="770373" />
	</node>
	<node lat="58.33333889306182" lon="6.198422221083586" id="-2982">
		<tag k="name" v="Krossundet" />
		<tag k="natural" v="strait" />
		<tag k="ssr:stedsnr" v="770377" />
	</node>
	<node lat="58.334736111855484" lon="6.201522221164258" id="-2983">
		<tag k="name" v="Nesvågen" />
		<tag k="natural" v="strait" />
		<tag k="ssr:stedsnr" v="770381" />
	</node>
	<node lat="58.33302222532694" lon="6.204136106560352" id="-2984">
		<tag k="loc_name" v="Kattarauv" />
		<tag k="name" v="Kattarau" />
		<tag k="natural" v="strait" />
		<tag k="ssr:stedsnr" v="770386" />
	</node>
	<node lat="58.33162500417813" lon="6.208774996533933" id="-2985">
		<tag k="name" v="Storesundholmen" />
		<tag k="place" v="islet" />
		<tag k="ssr:stedsnr" v="770394" />
	</node>
	<node lat="58.34551666399374" lon="6.150130548211517" id="-2986">
		<tag k="name" v="Støholmen" />
		<tag k="place" v="islet" />
		<tag k="ssr:stedsnr" v="770483" />
	</node>
	<node lat="58.352469441744454" lon="6.126302780995634" id="-2989">
		<tag k="name" v="Habne" />
		<tag k="natural" v="bay" />
		<tag k="ssr:stedsnr" v="785865" />
	</node>
	<node lat="58.31823695857456" lon="6.275429769043328" id="-2993">
		<tag k="alt_name" v="Skipsløpsskjera" />
		<tag k="fixme" v="consider seamark:type=rock or natural=shoal" />
		<tag k="name" v="Svabbane" />
		<tag k="place" v="islet" />
		<tag k="ssr:stedsnr" v="788226" />
	</node>
	<node lat="58.32851944353246" lon="6.221288885813042" id="-3032">
		<tag k="name" v="Persseta" />
		<tag k="natural" v="cape" />
		<tag k="ssr:stedsnr" v="816300" />
	</node>
	<node lat="58.277983331924645" lon="6.370711116343253" id="-3034">
		<tag k="name" v="Litla Teinevik" />
		<tag k="natural" v="bay" />
		<tag k="ssr:stedsnr" v="816395" />
	</node>
	<node lat="58.318227774566715" lon="6.346491675334567" id="-3044">
		<tag k="name" v="Nodevika" />
		<tag k="natural" v="bay" />
		<tag k="ssr:stedsnr" v="816346" />
	</node>
	<node lat="58.27827500012267" lon="6.381722223506641" id="-3049">
		<tag k="name" v="Målevik" />
		<tag k="natural" v="bay" />
		<tag k="ssr:stedsnr" v="816985" />
	</node>
	<node lat="58.315705554628394" lon="6.288263887325149" id="-3054">
		<tag k="name" v="Vammelsundet" />
		<tag k="natural" v="strait" />
		<tag k="ssr:stedsnr" v="816464" />
	</node>
	<node lat="58.28315833222697" lon="6.353530561771244" id="-3060">
		<tag k="name" v="Bojerholet" />
		<tag k="natural" v="bay" />
		<tag k="ssr:stedsnr" v="816549" />
	</node>
	<node lat="58.295630557050956" lon="6.3345777715944385" id="-3061">
		<tag k="name" v="Kvednebekkhola" />
		<tag k="natural" v="bay" />
		<tag k="ssr:stedsnr" v="816553" />
	</node>
	<node lat="58.32619999903187" lon="6.2282999970606" id="-3081">
		<tag k="name" v="Laksodden" />
		<tag k="natural" v="cape" />
		<tag k="ssr:stedsnr" v="828791" />
	</node>
	<node lat="58.33437500062541" lon="6.203894451805256" id="-3084">
		<tag k="name" v="Neset" />
		<tag k="natural" v="cape" />
		<tag k="ssr:stedsnr" v="831418" />
	</node>
	<node lat="58.339155555753806" lon="6.16795277908257" id="-3085">
		<tag k="name" v="Persflua" />
		<tag k="place" v="locality" />
		<tag k="seamark:type" v="rock" />
		<tag k="ssr:stedsnr" v="831419" />
	</node>
	<node lat="58.310416668324436" lon="6.328933325600058" id="-3107">
		<tag k="name" v="Laksodden" />
		<tag k="natural" v="cape" />
		<tag k="ssr:stedsnr" v="876332" />
	</node>
	<node lat="58.27821389019615" lon="6.3750611155501185" id="-3116">
		<tag k="name" v="Odreholet" />
		<tag k="natural" v="bay" />
		<tag k="ssr:stedsnr" v="876387" />
	</node>
	<node lat="58.31924722618681" lon="6.287869448341271" id="-3186">
		<tag k="name" v="Håholmen" />
		<tag k="natural" v="cape" />
		<tag k="ssr:stedsnr" v="937463" />
	</node>
	<node lat="58.33871666464786" lon="6.179830562307759" id="-3227">
		<tag k="name" v="Megevika" />
		<tag k="natural" v="bay" />
		<tag k="ssr:stedsnr" v="952400" />
	</node>
	<node lat="58.321349422485525" lon="6.271537817365869" id="-3232">
		<tag k="loc_name" v="Tjuholmsundet" />
		<tag k="name" v="Tjuvholmsundet" />
		<tag k="natural" v="strait" />
		<tag k="ssr:stedsnr" v="976957" />
	</node>
	<node lat="58.31855016573164" lon="6.344254503505565" id="-3235">
		<tag k="name" v="Holmen" />
		<tag k="natural" v="cape" />
		<tag k="ssr:stedsnr" v="976903" />
	</node>
</osm>
