<?xml version="1.0" encoding="UTF-8"?>
<osm version="0.6" generator="osmapis">
	<node id="1298591809" lat="64.5836911" lon="10.9232037" version="3" timestamp="2022-07-21T06:45:16Z" changeset="123877263" uid="3497659" user="NKA">
		<tag k="name" v="Bjørgan" />
		<tag k="place" v="hamlet" />
		<tag k="ssr:stedsnr" v="74582" />
	</node>
	<node id="1298591811" lat="64.5930335" lon="10.9573861" version="2" timestamp="2022-07-21T06:45:16Z" changeset="123877263" uid="3497659" user="NKA">
		<tag k="name" v="Utvorda" />
		<tag k="place" v="hamlet" />
		<tag k="ssr:stedsnr" v="499462" />
	</node>
	<node id="2354938148" lat="64.497069" lon="10.824544" version="2" timestamp="2018-05-02T17:04:07Z" changeset="58620907" uid="3497659" user="NKA">
		<tag k="name" v="Finnan" />
		<tag k="place" v="locality" />
		<tag k="source" v="Kartverket" />
		<tag k="ssr:stedsnr" v="815090" />
	</node>
	<node id="2354944151" lat="64.331892" lon="10.88635" version="2" timestamp="2018-05-02T17:04:09Z" changeset="58620907" uid="3497659" user="NKA">
		<tag k="name" v="Bjønnahaugen" />
		<tag k="natural" v="peak" />
		<tag k="source" v="Kartverket" />
		<tag k="ssr:stedsnr" v="898589" />
	</node>
	<node id="2354946200" lat="64.533161" lon="10.861142" version="2" timestamp="2018-05-02T17:04:09Z" changeset="58620907" uid="3497659" user="NKA">
		<tag k="name" v="Kvalråsa" />
		<tag k="natural" v="strait" />
		<tag k="source" v="Kartverket" />
		<tag k="ssr:stedsnr" v="170833" />
	</node>
	<node id="2640832686" lat="64.4446248" lon="10.6006981" version="3" timestamp="2022-07-21T06:45:16Z" changeset="123877263" uid="3497659" user="NKA">
		<tag k="name" v="Hasvåg" />
		<tag k="place" v="hamlet" />
		<tag k="ssr:stedsnr" v="14597" />
	</node>
	<node id="2640832687" lat="64.4313712" lon="10.6129754" version="2" timestamp="2022-07-21T06:45:16Z" changeset="123877263" uid="3497659" user="NKA">
		<tag k="name" v="Håstad" />
		<tag k="place" v="hamlet" />
		<tag k="ssr:stedsnr" v="256640" />
	</node>
	<node id="2640832688" lat="64.4384347" lon="10.551926" version="2" timestamp="2022-07-21T06:45:16Z" changeset="123877263" uid="3497659" user="NKA">
		<tag k="name" v="Småværet" />
		<tag k="place" v="hamlet" />
		<tag k="ssr:stedsnr" v="924625" />
	</node>
	<node id="2641342404" lat="64.4144065" lon="10.6392423" version="2" timestamp="2022-07-21T06:45:16Z" changeset="123877263" uid="3497659" user="NKA">
		<tag k="name" v="Uran" />
		<tag k="place" v="hamlet" />
		<tag k="ssr:stedsnr" v="14635" />
	</node>
	<node id="2643542689" lat="64.385465" lon="10.6271221" version="2" timestamp="2022-07-21T06:45:16Z" changeset="123877263" uid="3497659" user="NKA">
		<tag k="name" v="Bøle" />
		<tag k="place" v="hamlet" />
		<tag k="ssr:stedsnr" v="75738" />
	</node>
	<node id="2775677162" lat="64.4997433" lon="10.8949966" version="6" timestamp="2022-07-21T06:45:16Z" changeset="123877263" uid="3497659" user="NKA">
		<tag k="name" v="Lauvsnes" />
		<tag k="place" v="village" />
		<tag k="population" v="499" />
		<tag k="population:date" v="2021-01-01" />
		<tag k="ref:ssb_tettsted" v="7171" />
		<tag k="source:population" v="SSB - befolkning i tettstedet" />
		<tag k="ssr:stedsnr" v="924724" />
	</node>
	<node id="5181483826" lat="64.4956024" lon="10.8145459" version="3" timestamp="2022-07-21T06:45:16Z" changeset="123877263" uid="3497659" user="NKA">
		<tag k="name" v="Strøm" />
		<tag k="place" v="hamlet" />
		<tag k="ssr:stedsnr" v="14336" />
	</node>
	<node id="6211163247" lat="64.4562193" lon="10.7597834" version="2" timestamp="2022-07-21T06:45:16Z" changeset="123877263" uid="3497659" user="NKA">
		<tag k="alt_name" v="Flatanger" />
		<tag k="name" v="Vik" />
		<tag k="place" v="village" />
		<tag k="ssr:stedsnr" v="377478" />
	</node>
	<node id="6211176890" lat="64.3375779" lon="10.8647276" version="2" timestamp="2022-07-21T06:45:16Z" changeset="123877263" uid="3497659" user="NKA">
		<tag k="name" v="Oppland" />
		<tag k="place" v="hamlet" />
		<tag k="ssr:stedsnr" v="970145" />
	</node>
	<node id="7477107035" lat="64.6028527" lon="10.9632055" version="2" timestamp="2022-07-21T06:45:16Z" changeset="123877263" uid="3497659" user="NKA">
		<tag k="name" v="Vågan" />
		<tag k="place" v="locality" />
		<tag k="ssr:stedsnr" v="681539" />
	</node>
	<node id="9901203933" lat="64.4348338" lon="10.5358516" version="1" timestamp="2022-07-21T06:45:16Z" changeset="123877263" uid="3497659" user="NKA">
		<tag k="name" v="Oksbåsen" />
		<tag k="place" v="isolated_dwelling" />
		<tag k="ssr:stedsnr" v="74672" />
	</node>
	<node id="9901203934" lat="64.4407694" lon="10.5973167" version="1" timestamp="2022-07-21T06:45:16Z" changeset="123877263" uid="3497659" user="NKA">
		<tag k="name" v="Åkvika" />
		<tag k="place" v="farm" />
		<tag k="ssr:stedsnr" v="74649" />
	</node>
	<node id="9901203935" lat="64.5127654" lon="10.881315" version="1" timestamp="2022-07-21T06:45:16Z" changeset="123877263" uid="3497659" user="NKA">
		<tag k="name" v="Lauvøya" />
		<tag k="place" v="hamlet" />
		<tag k="ssr:stedsnr" v="389145" />
	</node>
	<node id="9901203936" lat="64.4634083" lon="10.9107055" version="1" timestamp="2022-07-21T06:45:16Z" changeset="123877263" uid="3497659" user="NKA">
		<tag k="name" v="Fløaaunet" />
		<tag k="place" v="farm" />
		<tag k="ssr:stedsnr" v="317439" />
	</node>
	<node id="9901203937" lat="64.3388974" lon="10.8730192" version="1" timestamp="2022-07-21T06:45:16Z" changeset="123877263" uid="3497659" user="NKA">
		<tag k="alt_name" v="Bakken øvre" />
		<tag k="name" v="Øvre Bakken" />
		<tag k="place" v="farm" />
		<tag k="ssr:stedsnr" v="776581" />
	</node>
	<node id="9901203938" lat="64.5792693" lon="11.0021876" version="1" timestamp="2022-07-21T06:45:16Z" changeset="123877263" uid="3497659" user="NKA">
		<tag k="name" v="Elvebakken" />
		<tag k="place" v="farm" />
		<tag k="ssr:stedsnr" v="74572" />
	</node>
	<node id="9901203939" lat="64.5796944" lon="11.0050862" version="1" timestamp="2022-07-21T06:45:16Z" changeset="123877263" uid="3497659" user="NKA">
		<tag k="name" v="Myra" />
		<tag k="place" v="farm" />
		<tag k="ssr:stedsnr" v="134611" />
	</node>
	<node id="9901203940" lat="64.3389778" lon="10.8733889" version="1" timestamp="2022-07-21T06:45:16Z" changeset="123877263" uid="3497659" user="NKA">
		<tag k="name" v="Austerbakkan" />
		<tag k="place" v="farm" />
		<tag k="ssr:stedsnr" v="378346" />
	</node>
	<node id="9901203941" lat="64.4044972" lon="10.7484917" version="1" timestamp="2022-07-21T06:45:16Z" changeset="123877263" uid="3497659" user="NKA">
		<tag k="name" v="Luren" />
		<tag k="place" v="farm" />
		<tag k="ssr:stedsnr" v="485851" />
	</node>
	<node id="9901203942" lat="64.3090222" lon="10.8574055" version="1" timestamp="2022-07-21T06:45:16Z" changeset="123877263" uid="3497659" user="NKA">
		<tag k="historic" v="shieling" />
		<tag k="name" v="Jørgenseteren" />
		<tag k="place" v="isolated_dwelling" />
		<tag k="ssr:stedsnr" v="290498" />
	</node>
	<node id="9901203943" lat="64.3941592" lon="10.6420446" version="1" timestamp="2022-07-21T06:45:16Z" changeset="123877263" uid="3497659" user="NKA">
		<tag k="name" v="Bøleseteren" />
		<tag k="place" v="hamlet" />
		<tag k="ssr:stedsnr" v="196675" />
	</node>
	<node id="9901203944" lat="64.3971027" lon="10.6371897" version="1" timestamp="2022-07-21T06:45:16Z" changeset="123877263" uid="3497659" user="NKA">
		<tag k="name" v="Bølestranda" />
		<tag k="place" v="farm" />
		<tag k="ssr:stedsnr" v="681703" />
	</node>
	<node id="9901203945" lat="64.3394028" lon="10.8667305" version="1" timestamp="2022-07-21T06:45:16Z" changeset="123877263" uid="3497659" user="NKA">
		<tag k="name" v="Bakkan" />
		<tag k="place" v="farm" />
		<tag k="ssr:stedsnr" v="864366" />
	</node>
	<node id="9901203946" lat="64.4045079" lon="10.7486777" version="1" timestamp="2022-07-21T06:45:16Z" changeset="123877263" uid="3497659" user="NKA">
		<tag k="name" v="Dvernur" />
		<tag k="place" v="farm" />
		<tag k="ssr:stedsnr" v="257317" />
	</node>
	<node id="9901203947" lat="64.4122133" lon="10.6404289" version="1" timestamp="2022-07-21T06:45:16Z" changeset="123877263" uid="3497659" user="NKA">
		<tag k="name" v="Fætta" />
		<tag k="place" v="locality" />
		<tag k="ssr:stedsnr" v="256658" />
	</node>
	<node id="9901203948" lat="64.4259909" lon="10.5826272" version="1" timestamp="2022-07-21T06:45:16Z" changeset="123877263" uid="3497659" user="NKA">
		<tag k="alt_name" v="Hårstadstranda" />
		<tag k="name" v="Håstadstranda" />
		<tag k="place" v="farm" />
		<tag k="ssr:stedsnr" v="559674" />
	</node>
	<node id="9901203949" lat="64.4121763" lon="10.6759096" version="1" timestamp="2022-07-21T06:45:16Z" changeset="123877263" uid="3497659" user="NKA">
		<tag k="name" v="Austvika" />
		<tag k="place" v="hamlet" />
		<tag k="ssr:stedsnr" v="256650" />
	</node>
	<node id="9901203950" lat="64.3893059" lon="10.617571" version="1" timestamp="2022-07-21T06:45:16Z" changeset="123877263" uid="3497659" user="NKA">
		<tag k="name" v="Dragvollen" />
		<tag k="place" v="isolated_dwelling" />
		<tag k="ssr:stedsnr" v="208025" />
	</node>
	<node id="9901203951" lat="64.3630139" lon="10.8066945" version="1" timestamp="2022-07-21T06:45:16Z" changeset="123877263" uid="3497659" user="NKA">
		<tag k="name" v="Skjellenget" />
		<tag k="place" v="locality" />
		<tag k="ssr:stedsnr" v="958889" />
	</node>
	<node id="9901203952" lat="64.3607083" lon="10.8098556" version="1" timestamp="2022-07-21T06:45:16Z" changeset="123877263" uid="3497659" user="NKA">
		<tag k="name" v="Haldoren" />
		<tag k="place" v="locality" />
		<tag k="ssr:stedsnr" v="412854" />
	</node>
	<node id="9901203953" lat="64.4605664" lon="10.9152132" version="1" timestamp="2022-07-21T06:45:16Z" changeset="123877263" uid="3497659" user="NKA">
		<tag k="name" v="Vassbakken" />
		<tag k="place" v="isolated_dwelling" />
		<tag k="ssr:stedsnr" v="959982" />
	</node>
	<node id="9901203954" lat="64.4711583" lon="10.8125055" version="1" timestamp="2022-07-21T06:45:16Z" changeset="123877263" uid="3497659" user="NKA">
		<tag k="name" v="Bekkjavika" />
		<tag k="place" v="farm" />
		<tag k="ssr:stedsnr" v="317350" />
	</node>
	<node id="9901203955" lat="64.3977497" lon="10.6364531" version="1" timestamp="2022-07-21T06:45:16Z" changeset="123877263" uid="3497659" user="NKA">
		<tag k="name" v="Nordre Bølestranda" />
		<tag k="place" v="farm" />
		<tag k="ssr:stedsnr" v="424017" />
	</node>
	<node id="9901203956" lat="64.3251786" lon="10.8672908" version="1" timestamp="2022-07-21T06:45:16Z" changeset="123877263" uid="3497659" user="NKA">
		<tag k="name" v="Rønningen" />
		<tag k="place" v="farm" />
		<tag k="ssr:stedsnr" v="534615" />
	</node>
	<node id="9901203957" lat="64.4485306" lon="10.7394277" version="1" timestamp="2022-07-21T06:45:16Z" changeset="123877263" uid="3497659" user="NKA">
		<tag k="name" v="Nyrud" />
		<tag k="place" v="farm" />
		<tag k="ssr:stedsnr" v="802532" />
	</node>
	<node id="9901203958" lat="64.3247369" lon="10.8775932" version="1" timestamp="2022-07-21T06:45:16Z" changeset="123877263" uid="3497659" user="NKA">
		<tag k="name" v="Moen" />
		<tag k="place" v="farm" />
		<tag k="ssr:stedsnr" v="594574" />
	</node>
	<node id="9901203959" lat="64.3370639" lon="10.853925" version="1" timestamp="2022-07-21T06:45:16Z" changeset="123877263" uid="3497659" user="NKA">
		<tag k="name" v="Lia" />
		<tag k="place" v="farm" />
		<tag k="ssr:stedsnr" v="499259" />
	</node>
	<node id="9901203960" lat="64.3768583" lon="10.8942639" version="1" timestamp="2022-07-21T06:45:16Z" changeset="123877263" uid="3497659" user="NKA">
		<tag k="historic" v="shieling" />
		<tag k="name" v="Arneseteren" />
		<tag k="place" v="isolated_dwelling" />
		<tag k="ssr:stedsnr" v="776963" />
	</node>
	<node id="9901203961" lat="64.3883167" lon="10.9070388" version="1" timestamp="2022-07-21T06:45:16Z" changeset="123877263" uid="3497659" user="NKA">
		<tag k="historic" v="shieling" />
		<tag k="name" v="Sivertseteren" />
		<tag k="place" v="isolated_dwelling" />
		<tag k="ssr:stedsnr" v="473961" />
	</node>
	<node id="9901203962" lat="64.3638222" lon="10.8203416" version="1" timestamp="2022-07-21T06:45:16Z" changeset="123877263" uid="3497659" user="NKA">
		<tag k="name" v="Moan" />
		<tag k="place" v="locality" />
		<tag k="ssr:stedsnr" v="473884" />
	</node>
	<node id="9901203963" lat="64.4703108" lon="10.7188136" version="1" timestamp="2022-07-21T06:45:16Z" changeset="123877263" uid="3497659" user="NKA">
		<tag k="name" v="Ågård" />
		<tag k="place" v="farm" />
		<tag k="ssr:stedsnr" v="694070" />
	</node>
	<node id="9901203964" lat="64.3220315" lon="10.8769305" version="1" timestamp="2022-07-21T06:45:16Z" changeset="123877263" uid="3497659" user="NKA">
		<tag k="name" v="Aunet" />
		<tag k="place" v="hamlet" />
		<tag k="ssr:stedsnr" v="439299" />
	</node>
	<node id="9901203965" lat="64.5049962" lon="10.9762762" version="1" timestamp="2022-07-21T06:45:16Z" changeset="123877263" uid="3497659" user="NKA">
		<tag k="name" v="Knotten" />
		<tag k="place" v="farm" />
		<tag k="ssr:stedsnr" v="924726" />
	</node>
	<node id="9901203966" lat="64.4875666" lon="10.7325889" version="1" timestamp="2022-07-21T06:45:16Z" changeset="123877263" uid="3497659" user="NKA">
		<tag k="name" v="Sandøya" />
		<tag k="place" v="farm" />
		<tag k="ssr:stedsnr" v="606539" />
	</node>
	<node id="9901203967" lat="64.4649361" lon="10.9017168" version="1" timestamp="2022-07-21T06:45:16Z" changeset="123877263" uid="3497659" user="NKA">
		<tag k="alt_name" v="Aunet" />
		<tag k="name" v="Fløanaunet" />
		<tag k="place" v="farm" />
		<tag k="ssr:stedsnr" v="257544" />
	</node>
	<node id="9901203968" lat="64.3987472" lon="10.6036917" version="1" timestamp="2022-07-21T06:45:16Z" changeset="123877263" uid="3497659" user="NKA">
		<tag k="name" v="Vikan" />
		<tag k="place" v="farm" />
		<tag k="ssr:stedsnr" v="620676" />
	</node>
	<node id="9901203969" lat="64.4326106" lon="10.6498645" version="1" timestamp="2022-07-21T06:45:16Z" changeset="123877263" uid="3497659" user="NKA">
		<tag k="name" v="Nedre Hårnes" />
		<tag k="place" v="farm" />
		<tag k="ssr:stedsnr" v="667263" />
	</node>
	<node id="9901203970" lat="64.4352361" lon="10.9221362" version="1" timestamp="2022-07-21T06:45:16Z" changeset="123877263" uid="3497659" user="NKA">
		<tag k="historic" v="shieling" />
		<tag k="name" v="Plassaseteren" />
		<tag k="place" v="isolated_dwelling" />
		<tag k="ssr:stedsnr" v="595748" />
	</node>
	<node id="9901203971" lat="64.3214125" lon="10.8766934" version="1" timestamp="2022-07-21T06:45:16Z" changeset="123877263" uid="3497659" user="NKA">
		<tag k="name" v="Sollund" />
		<tag k="place" v="farm" />
		<tag k="ssr:stedsnr" v="716629" />
	</node>
	<node id="9901203972" lat="64.472468" lon="10.7014463" version="1" timestamp="2022-07-21T06:45:16Z" changeset="123877263" uid="3497659" user="NKA">
		<tag k="name" v="Kvaløyseter" />
		<tag k="place" v="hamlet" />
		<tag k="ssr:stedsnr" v="207107" />
	</node>
	<node id="9901203973" lat="64.455867" lon="10.7344674" version="1" timestamp="2022-07-21T06:45:16Z" changeset="123877263" uid="3497659" user="NKA">
		<tag k="name" v="Kiltvika" />
		<tag k="place" v="farm" />
		<tag k="ssr:stedsnr" v="499413" />
	</node>
	<node id="9901203974" lat="64.4694722" lon="10.7023862" version="1" timestamp="2022-07-21T06:45:16Z" changeset="123877263" uid="3497659" user="NKA">
		<tag k="name" v="Moen" />
		<tag k="place" v="farm" />
		<tag k="ssr:stedsnr" v="499573" />
	</node>
	<node id="9901203975" lat="64.366676" lon="10.8235765" version="1" timestamp="2022-07-21T06:45:16Z" changeset="123877263" uid="3497659" user="NKA">
		<tag k="name" v="Bakken" />
		<tag k="place" v="farm" />
		<tag k="ssr:stedsnr" v="534933" />
	</node>
	<node id="9901203976" lat="64.4203824" lon="10.5671352" version="1" timestamp="2022-07-21T06:45:16Z" changeset="123877263" uid="3497659" user="NKA">
		<tag k="name" v="Sellevika" />
		<tag k="place" v="farm" />
		<tag k="ssr:stedsnr" v="196623" />
	</node>
	<node id="9901203977" lat="64.3649936" lon="10.8227843" version="1" timestamp="2022-07-21T06:45:16Z" changeset="123877263" uid="3497659" user="NKA">
		<tag k="name" v="Jøssund" />
		<tag k="place" v="hamlet" />
		<tag k="ssr:stedsnr" v="667554" />
	</node>
	<node id="9901203978" lat="64.3094833" lon="10.8795194" version="1" timestamp="2022-07-21T06:45:16Z" changeset="123877263" uid="3497659" user="NKA">
		<tag k="historic" v="shieling" />
		<tag k="name" v="Gammelseteren" />
		<tag k="place" v="isolated_dwelling" />
		<tag k="ssr:stedsnr" v="897530" />
	</node>
	<node id="9901203979" lat="64.3329028" lon="10.8614501" version="1" timestamp="2022-07-21T06:45:16Z" changeset="123877263" uid="3497659" user="NKA">
		<tag k="name" v="Haugset" />
		<tag k="place" v="farm" />
		<tag k="ssr:stedsnr" v="681307" />
	</node>
	<node id="9901203980" lat="64.4161602" lon="10.8215278" version="1" timestamp="2022-07-21T06:45:16Z" changeset="123877263" uid="3497659" user="NKA">
		<tag k="name" v="Fossvika" />
		<tag k="place" v="farm" />
		<tag k="ssr:stedsnr" v="620265" />
	</node>
	<node id="9901203981" lat="64.33485" lon="10.8601112" version="1" timestamp="2022-07-21T06:45:16Z" changeset="123877263" uid="3497659" user="NKA">
		<tag k="name" v="Øyan" />
		<tag k="place" v="farm" />
		<tag k="ssr:stedsnr" v="439323" />
	</node>
	<node id="9901203982" lat="64.4057611" lon="10.6207" version="1" timestamp="2022-07-21T06:45:16Z" changeset="123877263" uid="3497659" user="NKA">
		<tag k="name" v="Loenget" />
		<tag k="place" v="farm" />
		<tag k="ssr:stedsnr" v="378720" />
	</node>
	<node id="9901203983" lat="64.4608" lon="10.7651167" version="1" timestamp="2022-07-21T06:45:16Z" changeset="123877263" uid="3497659" user="NKA">
		<tag k="name" v="Nordstrand" />
		<tag k="place" v="farm" />
		<tag k="ssr:stedsnr" v="74480" />
	</node>
	<node id="9901203984" lat="64.4473192" lon="10.5700091" version="1" timestamp="2022-07-21T06:45:16Z" changeset="123877263" uid="3497659" user="NKA">
		<tag k="name" v="Urholmen" />
		<tag k="place" v="isolated_dwelling" />
		<tag k="ssr:stedsnr" v="980991" />
	</node>
	<node id="9901203985" lat="64.354175" lon="10.916889" version="1" timestamp="2022-07-21T06:45:16Z" changeset="123877263" uid="3497659" user="NKA">
		<tag k="historic" v="shieling" />
		<tag k="name" v="Nordseteren" />
		<tag k="place" v="isolated_dwelling" />
		<tag k="ssr:stedsnr" v="924308" />
	</node>
	<node id="9901203986" lat="64.4609056" lon="10.6926" version="1" timestamp="2022-07-21T06:45:16Z" changeset="123877263" uid="3497659" user="NKA">
		<tag k="name" v="Selsvika" />
		<tag k="place" v="farm" />
		<tag k="ssr:stedsnr" v="741701" />
	</node>
	<node id="9901203987" lat="64.3807456" lon="10.751708" version="1" timestamp="2022-07-21T06:45:16Z" changeset="123877263" uid="3497659" user="NKA">
		<tag k="name" v="Hestdalen" />
		<tag k="place" v="farm" />
		<tag k="ssr:stedsnr" v="256254" />
	</node>
	<node id="9901203988" lat="64.4378297" lon="10.5873732" version="1" timestamp="2022-07-21T06:45:16Z" changeset="123877263" uid="3497659" user="NKA">
		<tag k="name" v="Steinvika" />
		<tag k="place" v="farm" />
		<tag k="ssr:stedsnr" v="681671" />
	</node>
	<node id="9901203989" lat="64.4317824" lon="10.5746553" version="1" timestamp="2022-07-21T06:45:16Z" changeset="123877263" uid="3497659" user="NKA">
		<tag k="name" v="Ørsnevet" />
		<tag k="place" v="farm" />
		<tag k="ssr:stedsnr" v="377670" />
	</node>
	<node id="9901203990" lat="64.4855338" lon="10.7709508" version="1" timestamp="2022-07-21T06:45:16Z" changeset="123877263" uid="3497659" user="NKA">
		<tag k="name" v="Skeian" />
		<tag k="place" v="farm" />
		<tag k="ssr:stedsnr" v="14327" />
	</node>
	<node id="9901203991" lat="64.3533944" lon="10.7390417" version="1" timestamp="2022-07-21T06:45:16Z" changeset="123877263" uid="3497659" user="NKA">
		<tag k="historic" v="shieling" />
		<tag k="name" v="Øykvikseteren" />
		<tag k="place" v="isolated_dwelling" />
		<tag k="ssr:stedsnr" v="716919" />
	</node>
	<node id="9901203992" lat="64.587405" lon="10.9442191" version="1" timestamp="2022-07-21T06:45:16Z" changeset="123877263" uid="3497659" user="NKA">
		<tag k="name" v="Stranda" />
		<tag k="place" v="farm" />
		<tag k="ssr:stedsnr" v="48883" />
	</node>
	<node id="9901203993" lat="64.39275" lon="10.8909832" version="1" timestamp="2022-07-21T06:45:16Z" changeset="123877263" uid="3497659" user="NKA">
		<tag k="historic" v="shieling" />
		<tag k="name" v="Laukvikseteren" />
		<tag k="place" v="isolated_dwelling" />
		<tag k="ssr:stedsnr" v="655965" />
	</node>
	<node id="9901203994" lat="64.4311556" lon="10.5287139" version="1" timestamp="2022-07-21T06:45:16Z" changeset="123877263" uid="3497659" user="NKA">
		<tag k="name" v="Dalen" />
		<tag k="place" v="locality" />
		<tag k="ssr:stedsnr" v="652017" />
	</node>
	<node id="9901203995" lat="64.5152944" lon="10.8119361" version="1" timestamp="2022-07-21T06:45:16Z" changeset="123877263" uid="3497659" user="NKA">
		<tag k="name" v="Strandvang" />
		<tag k="place" v="farm" />
		<tag k="ssr:stedsnr" v="804710" />
	</node>
	<node id="9901203996" lat="64.3473667" lon="10.7294778" version="1" timestamp="2022-07-21T06:45:16Z" changeset="123877263" uid="3497659" user="NKA">
		<tag k="historic" v="shieling" />
		<tag k="name" v="Nekolaitømtet" />
		<tag k="place" v="isolated_dwelling" />
		<tag k="ssr:stedsnr" v="534924" />
	</node>
	<node id="9901203997" lat="64.4990944" lon="10.7609916" version="1" timestamp="2022-07-21T06:45:16Z" changeset="123877263" uid="3497659" user="NKA">
		<tag k="name" v="Dragøya" />
		<tag k="place" v="farm" />
		<tag k="ssr:stedsnr" v="545552" />
	</node>
	<node id="9901203998" lat="64.4123833" lon="10.7372944" version="1" timestamp="2022-07-21T06:45:16Z" changeset="123877263" uid="3497659" user="NKA">
		<tag k="name" v="Guruvika" />
		<tag k="place" v="locality" />
		<tag k="ssr:stedsnr" v="288033" />
	</node>
	<node id="9901203999" lat="64.3980904" lon="10.7521486" version="1" timestamp="2022-07-21T06:45:16Z" changeset="123877263" uid="3497659" user="NKA">
		<tag k="name" v="Lurastranda" />
		<tag k="old_name" v="Dvernurstranda" />
		<tag k="place" v="farm" />
		<tag k="ssr:stedsnr" v="409006" />
	</node>
	<node id="9901204000" lat="64.4798362" lon="10.7236723" version="1" timestamp="2022-07-21T06:45:16Z" changeset="123877263" uid="3497659" user="NKA">
		<tag k="name" v="Olaplassen" />
		<tag k="place" v="locality" />
		<tag k="ssr:stedsnr" v="815080" />
	</node>
	<node id="9901204001" lat="64.4773028" lon="10.8719193" version="1" timestamp="2022-07-21T06:45:16Z" changeset="123877263" uid="3497659" user="NKA">
		<tag k="historic" v="shieling" />
		<tag k="name" v="Takliseteren" />
		<tag k="place" v="isolated_dwelling" />
		<tag k="ssr:stedsnr" v="899862" />
	</node>
	<node id="9901204002" lat="64.3203806" lon="10.9444361" version="1" timestamp="2022-07-21T06:45:16Z" changeset="123877263" uid="3497659" user="NKA">
		<tag k="name" v="Sørseteren" />
		<tag k="place" v="locality" />
		<tag k="ssr:stedsnr" v="864343" />
	</node>
	<node id="9901204003" lat="64.5814302" lon="10.9971313" version="1" timestamp="2022-07-21T06:45:16Z" changeset="123877263" uid="3497659" user="NKA">
		<tag k="name" v="Teigmoen" />
		<tag k="place" v="farm" />
		<tag k="ssr:stedsnr" v="924566" />
	</node>
	<node id="9901204004" lat="64.3346917" lon="10.8677389" version="1" timestamp="2022-07-21T06:45:16Z" changeset="123877263" uid="3497659" user="NKA">
		<tag k="name" v="Halvmoen" />
		<tag k="place" v="farm" />
		<tag k="ssr:stedsnr" v="803323" />
	</node>
	<node id="9901204005" lat="64.322" lon="10.9566472" version="1" timestamp="2022-07-21T06:45:16Z" changeset="123877263" uid="3497659" user="NKA">
		<tag k="historic" v="shieling" />
		<tag k="name" v="Henrikseteren" />
		<tag k="place" v="isolated_dwelling" />
		<tag k="ssr:stedsnr" v="654870" />
	</node>
	<node id="9901204006" lat="64.4967926" lon="10.8682776" version="1" timestamp="2022-07-21T06:45:16Z" changeset="123877263" uid="3497659" user="NKA">
		<tag k="name" v="Stamnes" />
		<tag k="place" v="hamlet" />
		<tag k="ssr:stedsnr" v="814964" />
	</node>
	<node id="9901204007" lat="64.5440139" lon="10.8797055" version="1" timestamp="2022-07-21T06:45:16Z" changeset="123877263" uid="3497659" user="NKA">
		<tag k="name" v="Sørplassen" />
		<tag k="place" v="locality" />
		<tag k="ssr:stedsnr" v="594795" />
	</node>
	<node id="9901204008" lat="64.503063" lon="10.7411851" version="1" timestamp="2022-07-21T06:45:16Z" changeset="123877263" uid="3497659" user="NKA">
		<tag k="name" v="Aspøy" />
		<tag k="old_name" v="Aspø" />
		<tag k="place" v="farm" />
		<tag k="ssr:stedsnr" v="756986" />
	</node>
	<node id="9901204009" lat="64.4538167" lon="10.9372028" version="1" timestamp="2022-07-21T06:45:16Z" changeset="123877263" uid="3497659" user="NKA">
		<tag k="alt_name" v="Botnet" />
		<tag k="name" v="Dalabotnet" />
		<tag k="place" v="farm" />
		<tag k="ssr:stedsnr" v="681468" />
	</node>
	<node id="9901204010" lat="64.467696" lon="10.9143262" version="1" timestamp="2022-07-21T06:45:16Z" changeset="123877263" uid="3497659" user="NKA">
		<tag k="name" v="Fløan" />
		<tag k="place" v="hamlet" />
		<tag k="ssr:stedsnr" v="803498" />
	</node>
	<node id="9901204011" lat="64.5875576" lon="10.9486742" version="1" timestamp="2022-07-21T06:45:16Z" changeset="123877263" uid="3497659" user="NKA">
		<tag k="name" v="Breivoll" />
		<tag k="place" v="farm" />
		<tag k="ssr:stedsnr" v="776878" />
	</node>
	<node id="9901204012" lat="64.4531777" lon="10.8615667" version="1" timestamp="2022-07-21T06:45:16Z" changeset="123877263" uid="3497659" user="NKA">
		<tag k="historic" v="shieling" />
		<tag k="name" v="Årfjordsetran" />
		<tag k="place" v="isolated_dwelling" />
		<tag k="ssr:stedsnr" v="741559" />
	</node>
	<node id="9901204013" lat="64.5575147" lon="10.9486535" version="1" timestamp="2022-07-21T06:45:16Z" changeset="123877263" uid="3497659" user="NKA">
		<tag k="name" v="Frøsendal" />
		<tag k="place" v="hamlet" />
		<tag k="ssr:stedsnr" v="742576" />
	</node>
	<node id="9901204014" lat="64.3779814" lon="10.8429478" version="1" timestamp="2022-07-21T06:45:16Z" changeset="123877263" uid="3497659" user="NKA">
		<tag k="name" v="Laukvika" />
		<tag k="place" v="hamlet" />
		<tag k="ssr:stedsnr" v="741313" />
	</node>
	<node id="9901204015" lat="64.4097278" lon="11.0696972" version="1" timestamp="2022-07-21T06:45:16Z" changeset="123877263" uid="3497659" user="NKA">
		<tag k="historic" v="shieling" />
		<tag k="name" v="Mefosseteren" />
		<tag k="place" v="isolated_dwelling" />
		<tag k="ssr:stedsnr" v="378286" />
	</node>
	<node id="9901204016" lat="64.4293805" lon="10.9679027" version="1" timestamp="2022-07-21T06:45:16Z" changeset="123877263" uid="3497659" user="NKA">
		<tag k="name" v="Mariplassen" />
		<tag k="place" v="locality" />
		<tag k="ssr:stedsnr" v="473963" />
	</node>
	<node id="9901207417" lat="64.4322906" lon="11.0007033" version="1" timestamp="2022-07-21T06:45:16Z" changeset="123877263" uid="3497659" user="NKA">
		<tag k="name" v="Fjell" />
		<tag k="place" v="hamlet" />
		<tag k="ssr:stedsnr" v="803465" />
	</node>
	<node id="9901207418" lat="64.5000923" lon="10.9028712" version="1" timestamp="2022-07-21T06:45:16Z" changeset="123877263" uid="3497659" user="NKA">
		<tag k="name" v="Nordheim" />
		<tag k="place" v="farm" />
		<tag k="ssr:stedsnr" v="439750" />
	</node>
	<node id="9901207419" lat="64.5829917" lon="11.001675" version="1" timestamp="2022-07-21T06:45:16Z" changeset="123877263" uid="3497659" user="NKA">
		<tag k="name" v="Brumoen" />
		<tag k="place" v="farm" />
		<tag k="ssr:stedsnr" v="499514" />
	</node>
	<node id="9901207420" lat="64.4269795" lon="10.971555" version="1" timestamp="2022-07-21T06:45:16Z" changeset="123877263" uid="3497659" user="NKA">
		<tag k="name" v="Morka" />
		<tag k="place" v="farm" />
		<tag k="ssr:stedsnr" v="196399" />
	</node>
	<node id="9901207421" lat="64.5246333" lon="10.8027778" version="1" timestamp="2022-07-21T06:45:16Z" changeset="123877263" uid="3497659" user="NKA">
		<tag k="name" v="Bakkan" />
		<tag k="place" v="farm" />
		<tag k="ssr:stedsnr" v="682718" />
	</node>
	<node id="9901207422" lat="64.4495464" lon="10.9753534" version="1" timestamp="2022-07-21T06:45:16Z" changeset="123877263" uid="3497659" user="NKA">
		<tag k="name" v="Dala" />
		<tag k="place" v="hamlet" />
		<tag k="ssr:stedsnr" v="863471" />
	</node>
	<node id="9901207423" lat="64.572762" lon="10.846573" version="1" timestamp="2022-07-21T06:45:16Z" changeset="123877263" uid="3497659" user="NKA">
		<tag k="name" v="Bjørøya" />
		<tag k="place" v="farm" />
		<tag k="ssr:stedsnr" v="450169" />
	</node>
	<node id="9901207424" lat="64.4958093" lon="10.880668" version="1" timestamp="2022-07-21T06:45:16Z" changeset="123877263" uid="3497659" user="NKA">
		<tag k="name" v="Berg" />
		<tag k="place" v="farm" />
		<tag k="ssr:stedsnr" v="390169" />
	</node>
	<node id="9901207425" lat="64.466621" lon="10.9580813" version="1" timestamp="2022-07-21T06:45:16Z" changeset="123877263" uid="3497659" user="NKA">
		<tag k="name" v="Skjelde" />
		<tag k="place" v="hamlet" />
		<tag k="ssr:stedsnr" v="620474" />
	</node>
	<node id="9901207426" lat="64.5508683" lon="10.9092878" version="1" timestamp="2022-07-21T06:45:16Z" changeset="123877263" uid="3497659" user="NKA">
		<tag k="name" v="Feøya" />
		<tag k="place" v="hamlet" />
		<tag k="ssr:stedsnr" v="317562" />
	</node>
	<node id="9901207427" lat="64.5087976" lon="10.9163504" version="1" timestamp="2022-07-21T06:45:16Z" changeset="123877263" uid="3497659" user="NKA">
		<tag k="name" v="Haugen" />
		<tag k="place" v="farm" />
		<tag k="ssr:stedsnr" v="269156" />
	</node>
	<node id="9901207428" lat="64.514" lon="10.9094193" version="1" timestamp="2022-07-21T06:45:16Z" changeset="123877263" uid="3497659" user="NKA">
		<tag k="name" v="Eian" />
		<tag k="place" v="farm" />
		<tag k="ssr:stedsnr" v="257737" />
	</node>
	<node id="9901207429" lat="64.4575667" lon="10.8571834" version="1" timestamp="2022-07-21T06:45:16Z" changeset="123877263" uid="3497659" user="NKA">
		<tag k="name" v="Skorstad" />
		<tag k="place" v="isolated_dwelling" />
		<tag k="ssr:stedsnr" v="741558" />
	</node>
	<node id="9901207430" lat="64.47367" lon="10.7955435" version="1" timestamp="2022-07-21T06:45:16Z" changeset="123877263" uid="3497659" user="NKA">
		<tag k="name" v="Hylla" />
		<tag k="place" v="farm" />
		<tag k="ssr:stedsnr" v="742359" />
	</node>
	<node id="9901207431" lat="64.4425139" lon="10.9788361" version="1" timestamp="2022-07-21T06:45:16Z" changeset="123877263" uid="3497659" user="NKA">
		<tag k="name" v="Myrvang" />
		<tag k="place" v="farm" />
		<tag k="ssr:stedsnr" v="135450" />
	</node>
	<node id="9901207432" lat="64.5268584" lon="10.9904916" version="1" timestamp="2022-07-21T06:45:16Z" changeset="123877263" uid="3497659" user="NKA">
		<tag k="name" v="Bjørkås" />
		<tag k="place" v="farm" />
		<tag k="ssr:stedsnr" v="136677" />
	</node>
	<node id="9901207433" lat="64.5526445" lon="11.0354" version="1" timestamp="2022-07-21T06:45:16Z" changeset="123877263" uid="3497659" user="NKA">
		<tag k="historic" v="shieling" />
		<tag k="name" v="Sandmosetran" />
		<tag k="place" v="isolated_dwelling" />
		<tag k="ssr:stedsnr" v="534339" />
	</node>
	<node id="9901207434" lat="64.5706134" lon="10.9388627" version="1" timestamp="2022-07-21T06:45:16Z" changeset="123877263" uid="3497659" user="NKA">
		<tag k="name" v="Dalavika" />
		<tag k="place" v="farm" />
		<tag k="ssr:stedsnr" v="48880" />
	</node>
	<node id="9901207435" lat="64.4765917" lon="10.907286" version="1" timestamp="2022-07-21T06:45:16Z" changeset="123877263" uid="3497659" user="NKA">
		<tag k="name" v="Rødalen" />
		<tag k="place" v="farm" />
		<tag k="ssr:stedsnr" v="681386" />
	</node>
	<node id="9901207436" lat="64.4495417" lon="10.6592778" version="1" timestamp="2022-07-21T06:45:16Z" changeset="123877263" uid="3497659" user="NKA">
		<tag k="historic" v="shieling" />
		<tag k="name" v="Vikdalsseteren" />
		<tag k="place" v="isolated_dwelling" />
		<tag k="ssr:stedsnr" v="390011" />
	</node>
	<node id="9901207437" lat="64.4779877" lon="10.8429749" version="1" timestamp="2022-07-21T06:45:16Z" changeset="123877263" uid="3497659" user="NKA">
		<tag k="name" v="Haustlandet" />
		<tag k="place" v="hamlet" />
		<tag k="ssr:stedsnr" v="559363" />
	</node>
	<node id="9901207438" lat="64.491725" lon="10.8982111" version="1" timestamp="2022-07-21T06:45:16Z" changeset="123877263" uid="3497659" user="NKA">
		<tag k="name" v="Fløaskogen" />
		<tag k="place" v="neighbourhood" />
		<tag k="ssr:stedsnr" v="512204" />
	</node>
	<node id="9901207439" lat="64.5302572" lon="10.9879304" version="1" timestamp="2022-07-21T06:45:16Z" changeset="123877263" uid="3497659" user="NKA">
		<tag k="alt_name" v="Sitter, øvre" />
		<tag k="name" v="Øvre Sitter" />
		<tag k="place" v="farm" />
		<tag k="ssr:stedsnr" v="197699" />
	</node>
	<node id="9901207440" lat="64.4611778" lon="10.887125" version="1" timestamp="2022-07-21T06:45:16Z" changeset="123877263" uid="3497659" user="NKA">
		<tag k="historic" v="shieling" />
		<tag k="name" v="Sør-Fløanseteren" />
		<tag k="place" v="isolated_dwelling" />
		<tag k="ssr:stedsnr" v="473990" />
	</node>
	<node id="9901207441" lat="64.4753862" lon="10.8402445" version="1" timestamp="2022-07-21T06:45:16Z" changeset="123877263" uid="3497659" user="NKA">
		<tag k="name" v="Litlrisskogen" />
		<tag k="place" v="farm" />
		<tag k="ssr:stedsnr" v="439369" />
	</node>
	<node id="9901207442" lat="64.3869118" lon="10.6298953" version="1" timestamp="2022-07-21T06:45:16Z" changeset="123877263" uid="3497659" user="NKA">
		<tag k="name" v="Bølemyra" />
		<tag k="place" v="farm" />
		<tag k="ssr:stedsnr" v="876028" />
	</node>
	<node id="9901207443" lat="64.5362194" lon="10.9812889" version="1" timestamp="2022-07-21T06:45:16Z" changeset="123877263" uid="3497659" user="NKA">
		<tag k="name" v="Sittermoen" />
		<tag k="place" v="farm" />
		<tag k="ssr:stedsnr" v="803635" />
	</node>
	<node id="9901207444" lat="64.4748166" lon="10.7050055" version="1" timestamp="2022-07-21T06:45:16Z" changeset="123877263" uid="3497659" user="NKA">
		<tag k="name" v="Leirvika" />
		<tag k="place" v="farm" />
		<tag k="ssr:stedsnr" v="802686" />
	</node>
	<node id="9901207445" lat="64.4788611" lon="10.9329167" version="1" timestamp="2022-07-21T06:45:16Z" changeset="123877263" uid="3497659" user="NKA">
		<tag k="historic" v="shieling" />
		<tag k="name" v="Moaseteren" />
		<tag k="place" v="isolated_dwelling" />
		<tag k="ssr:stedsnr" v="777780" />
	</node>
	<node id="9901207446" lat="64.5061034" lon="10.929224" version="1" timestamp="2022-07-21T06:45:16Z" changeset="123877263" uid="3497659" user="NKA">
		<tag k="name" v="Vågan" />
		<tag k="place" v="farm" />
		<tag k="ssr:stedsnr" v="753101" />
	</node>
	<node id="9901207447" lat="64.5812917" lon="11.0131388" version="1" timestamp="2022-07-21T06:45:16Z" changeset="123877263" uid="3497659" user="NKA">
		<tag k="name" v="Bakken" />
		<tag k="place" v="farm" />
		<tag k="ssr:stedsnr" v="559570" />
	</node>
	<node id="9901207448" lat="64.5295389" lon="11.0137667" version="1" timestamp="2022-07-21T06:45:16Z" changeset="123877263" uid="3497659" user="NKA">
		<tag k="name" v="Fossan" />
		<tag k="place" v="locality" />
		<tag k="ssr:stedsnr" v="682715" />
	</node>
	<node id="9901207449" lat="64.4784584" lon="10.9660361" version="1" timestamp="2022-07-21T06:45:16Z" changeset="123877263" uid="3497659" user="NKA">
		<tag k="name" v="Aunet" />
		<tag k="place" v="isolated_dwelling" />
		<tag k="ssr:stedsnr" v="257442" />
	</node>
	<node id="9901207450" lat="64.5087603" lon="10.9194189" version="1" timestamp="2022-07-21T06:45:16Z" changeset="123877263" uid="3497659" user="NKA">
		<tag k="name" v="Fallet" />
		<tag k="place" v="farm" />
		<tag k="ssr:stedsnr" v="136714" />
	</node>
	<node id="9901207451" lat="64.4980083" lon="10.9619501" version="1" timestamp="2022-07-21T06:45:16Z" changeset="123877263" uid="3497659" user="NKA">
		<tag k="name" v="Buknotten" />
		<tag k="place" v="locality" />
		<tag k="ssr:stedsnr" v="445487" />
	</node>
	<node id="9901207452" lat="64.4785195" lon="10.7197194" version="1" timestamp="2022-07-21T06:45:16Z" changeset="123877263" uid="3497659" user="NKA">
		<tag k="name" v="Barsvika" />
		<tag k="place" v="locality" />
		<tag k="ssr:stedsnr" v="937103" />
	</node>
	<node id="9901207453" lat="64.5256445" lon="10.9857027" version="1" timestamp="2022-07-21T06:45:16Z" changeset="123877263" uid="3497659" user="NKA">
		<tag k="name" v="Dalamoen" />
		<tag k="place" v="locality" />
		<tag k="ssr:stedsnr" v="413313" />
	</node>
	<node id="9901207454" lat="64.5267083" lon="10.9822889" version="1" timestamp="2022-07-21T06:45:16Z" changeset="123877263" uid="3497659" user="NKA">
		<tag k="name" v="Dalen" />
		<tag k="place" v="farm" />
		<tag k="ssr:stedsnr" v="257708" />
	</node>
	<node id="9901207455" lat="64.4795055" lon="10.9629056" version="1" timestamp="2022-07-21T06:45:16Z" changeset="123877263" uid="3497659" user="NKA">
		<tag k="name" v="Skjeldeaunet" />
		<tag k="place" v="isolated_dwelling" />
		<tag k="ssr:stedsnr" v="959790" />
	</node>
	<node id="9901207456" lat="64.5814727" lon="11.0153544" version="1" timestamp="2022-07-21T06:45:16Z" changeset="123877263" uid="3497659" user="NKA">
		<tag k="name" v="Innvorda" />
		<tag k="place" v="hamlet" />
		<tag k="ssr:stedsnr" v="620551" />
	</node>
	<node id="9901207457" lat="64.503775" lon="10.8486444" version="1" timestamp="2022-07-21T06:45:16Z" changeset="123877263" uid="3497659" user="NKA">
		<tag k="name" v="Kjærsundet" />
		<tag k="place" v="farm" />
		<tag k="ssr:stedsnr" v="75784" />
	</node>
	<node id="9901207458" lat="64.5867805" lon="10.9369361" version="1" timestamp="2022-07-21T06:45:16Z" changeset="123877263" uid="3497659" user="NKA">
		<tag k="name" v="Leirvika" />
		<tag k="place" v="farm" />
		<tag k="ssr:stedsnr" v="74583" />
	</node>
	<node id="9901207459" lat="64.5251221" lon="10.7301198" version="1" timestamp="2022-07-21T06:45:16Z" changeset="123877263" uid="3497659" user="NKA">
		<tag k="name" v="Dølvika" />
		<tag k="place" v="hamlet" />
		<tag k="ssr:stedsnr" v="743682" />
	</node>
	<node id="9901207460" lat="64.5469823" lon="10.692903" version="1" timestamp="2022-07-21T06:45:16Z" changeset="123877263" uid="3497659" user="NKA">
		<tag k="name" v="Villa" />
		<tag k="place" v="farm" />
		<tag k="ssr:stedsnr" v="849584" />
	</node>
	<node id="9901207461" lat="64.5642139" lon="10.855661" version="1" timestamp="2022-07-21T06:45:16Z" changeset="123877263" uid="3497659" user="NKA">
		<tag k="name" v="Riøya" />
		<tag k="place" v="farm" />
		<tag k="ssr:stedsnr" v="25182" />
	</node>
	<node id="9901207462" lat="64.5327861" lon="11.0264639" version="1" timestamp="2022-07-21T06:45:16Z" changeset="123877263" uid="3497659" user="NKA">
		<tag k="historic" v="shieling" />
		<tag k="name" v="Moaseteren" />
		<tag k="place" v="isolated_dwelling" />
		<tag k="ssr:stedsnr" v="231297" />
	</node>
	<node id="9901207463" lat="64.5029917" lon="10.9466832" version="1" timestamp="2022-07-21T06:45:16Z" changeset="123877263" uid="3497659" user="NKA">
		<tag k="name" v="Vollan" />
		<tag k="place" v="farm" />
		<tag k="ssr:stedsnr" v="14699" />
	</node>
	<node id="9901207464" lat="64.4637369" lon="10.9069387" version="1" timestamp="2022-07-21T06:45:16Z" changeset="123877263" uid="3497659" user="NKA">
		<tag k="name" v="Gjerdet" />
		<tag k="place" v="farm" />
		<tag k="ssr:stedsnr" v="292840" />
	</node>
	<node id="9901207465" lat="64.4729333" lon="10.7004168" version="1" timestamp="2022-07-21T06:45:16Z" changeset="123877263" uid="3497659" user="NKA">
		<tag k="name" v="Nordgård" />
		<tag k="place" v="farm" />
		<tag k="ssr:stedsnr" v="620602" />
	</node>
	<node id="9901207466" lat="64.48295" lon="10.7182028" version="1" timestamp="2022-07-21T06:45:16Z" changeset="123877263" uid="3497659" user="NKA">
		<tag k="name" v="Mariaplassen" />
		<tag k="place" v="locality" />
		<tag k="ssr:stedsnr" v="572121" />
	</node>
	<node id="9901207467" lat="64.4885194" lon="10.6803223" version="1" timestamp="2022-07-21T06:45:16Z" changeset="123877263" uid="3497659" user="NKA">
		<tag k="name" v="Hanøya" />
		<tag k="place" v="farm" />
		<tag k="ssr:stedsnr" v="849579" />
	</node>
	<node id="9901207468" lat="64.5341305" lon="10.9781611" version="1" timestamp="2022-07-21T06:45:16Z" changeset="123877263" uid="3497659" user="NKA">
		<tag k="name" v="Breivegen" />
		<tag k="place" v="farm" />
		<tag k="ssr:stedsnr" v="817821" />
	</node>
	<node id="9901207469" lat="64.5164583" lon="11.0192639" version="1" timestamp="2022-07-21T06:45:16Z" changeset="123877263" uid="3497659" user="NKA">
		<tag k="historic" v="shieling" />
		<tag k="name" v="Sitterseteren" />
		<tag k="place" v="isolated_dwelling" />
		<tag k="ssr:stedsnr" v="170308" />
	</node>
	<node id="9901207470" lat="64.5033639" lon="10.9899889" version="1" timestamp="2022-07-21T06:45:16Z" changeset="123877263" uid="3497659" user="NKA">
		<tag k="name" v="Fjellheim" />
		<tag k="place" v="farm" />
		<tag k="ssr:stedsnr" v="196732" />
	</node>
	<node id="9901207471" lat="64.4009445" lon="10.9941666" version="1" timestamp="2022-07-21T06:45:16Z" changeset="123877263" uid="3497659" user="NKA">
		<tag k="name" v="Nonshaugen" />
		<tag k="place" v="locality" />
		<tag k="ssr:stedsnr" v="351778" />
	</node>
	<node id="9901207472" lat="64.4273658" lon="10.6570851" version="1" timestamp="2022-07-21T06:45:16Z" changeset="123877263" uid="3497659" user="NKA">
		<tag k="name" v="Båtsvika" />
		<tag k="old_name" v="Bosviken" />
		<tag k="place" v="farm" />
		<tag k="ssr:stedsnr" v="559686" />
	</node>
	<node id="9901207473" lat="64.4945722" lon="10.8880528" version="1" timestamp="2022-07-21T06:45:16Z" changeset="123877263" uid="3497659" user="NKA">
		<tag k="name" v="Nyrud" />
		<tag k="place" v="farm" />
		<tag k="ssr:stedsnr" v="620376" />
	</node>
	<node id="9901207474" lat="64.5030829" lon="10.7270131" version="1" timestamp="2022-07-21T06:45:16Z" changeset="123877263" uid="3497659" user="NKA">
		<tag k="name" v="Plassen" />
		<tag k="place" v="locality" />
		<tag k="ssr:stedsnr" v="512108" />
	</node>
	<node id="9901207475" lat="64.4242111" lon="10.8073305" version="1" timestamp="2022-07-21T06:45:16Z" changeset="123877263" uid="3497659" user="NKA">
		<tag k="alt_name" v="Sjurdsvika" />
		<tag k="name" v="Steinvika" />
		<tag k="place" v="farm" />
		<tag k="ssr:stedsnr" v="620281" />
	</node>
	<node id="9901207476" lat="64.4604798" lon="10.7620369" version="1" timestamp="2022-07-21T06:45:16Z" changeset="123877263" uid="3497659" user="NKA">
		<tag k="name" v="Skaret" />
		<tag k="place" v="farm" />
		<tag k="ssr:stedsnr" v="511124" />
	</node>
	<node id="9901207477" lat="64.5290485" lon="10.9861409" version="1" timestamp="2022-07-21T06:45:16Z" changeset="123877263" uid="3497659" user="NKA">
		<tag k="name" v="Sitter" />
		<tag k="place" v="hamlet" />
		<tag k="ssr:stedsnr" v="925731" />
	</node>
	<node id="9901207478" lat="64.5379611" lon="10.977225" version="1" timestamp="2022-07-21T06:45:16Z" changeset="123877263" uid="3497659" user="NKA">
		<tag k="name" v="Brenna" />
		<tag k="place" v="farm" />
		<tag k="ssr:stedsnr" v="925725" />
	</node>
	<node id="9901207479" lat="64.4394472" lon="10.8179164" version="1" timestamp="2022-07-21T06:45:16Z" changeset="123877263" uid="3497659" user="NKA">
		<tag k="name" v="Vedvikbakkan" />
		<tag k="place" v="farm" />
		<tag k="ssr:stedsnr" v="924429" />
	</node>
	<node id="9901207480" lat="64.4328083" lon="10.7247055" version="1" timestamp="2022-07-21T06:45:16Z" changeset="123877263" uid="3497659" user="NKA">
		<tag k="historic" v="shieling" />
		<tag k="name" v="Hårnesseteren" />
		<tag k="place" v="isolated_dwelling" />
		<tag k="ssr:stedsnr" v="473769" />
	</node>
	<node id="9901207481" lat="64.474803" lon="10.7782857" version="1" timestamp="2022-07-21T06:45:16Z" changeset="123877263" uid="3497659" user="NKA">
		<tag k="name" v="Hillstad" />
		<tag k="place" v="hamlet" />
		<tag k="ssr:stedsnr" v="742361" />
	</node>
	<node id="9901207482" lat="64.4790389" lon="10.8852362" version="1" timestamp="2022-07-21T06:45:16Z" changeset="123877263" uid="3497659" user="NKA">
		<tag k="historic" v="shieling" />
		<tag k="name" v="Finnsteinseteren" />
		<tag k="place" v="isolated_dwelling" />
		<tag k="ssr:stedsnr" v="473853" />
	</node>
	<node id="9901207483" lat="64.4839061" lon="10.7845112" version="1" timestamp="2022-07-21T06:45:16Z" changeset="123877263" uid="3497659" user="NKA">
		<tag k="name" v="Glasøya" />
		<tag k="place" v="hamlet" />
		<tag k="ssr:stedsnr" v="439391" />
	</node>
	<node id="9901207484" lat="64.5271806" lon="10.9866584" version="1" timestamp="2022-07-21T06:45:16Z" changeset="123877263" uid="3497659" user="NKA">
		<tag k="name" v="Elverhøy" />
		<tag k="place" v="farm" />
		<tag k="ssr:stedsnr" v="743674" />
	</node>
	<node id="9901207485" lat="64.4387205" lon="10.8138988" version="1" timestamp="2022-07-21T06:45:16Z" changeset="123877263" uid="3497659" user="NKA">
		<tag k="name" v="Vedvika" />
		<tag k="place" v="hamlet" />
		<tag k="ssr:stedsnr" v="438432" />
	</node>
	<node id="9901207486" lat="64.5998568" lon="10.8923242" version="1" timestamp="2022-07-21T06:45:16Z" changeset="123877263" uid="3497659" user="NKA">
		<tag k="name" v="Skingen" />
		<tag k="place" v="farm" />
		<tag k="ssr:stedsnr" v="510171" />
	</node>
	<node id="9901207487" lat="64.530033" lon="10.9713417" version="1" timestamp="2022-07-21T06:45:16Z" changeset="123877263" uid="3497659" user="NKA">
		<tag k="name" v="Solheim" />
		<tag k="place" v="farm" />
		<tag k="ssr:stedsnr" v="837817" />
	</node>
	<node id="9901207488" lat="64.4627122" lon="10.7653648" version="1" timestamp="2022-07-21T06:45:16Z" changeset="123877263" uid="3497659" user="NKA">
		<tag k="name" v="Nordstranda" />
		<tag k="place" v="farm" />
		<tag k="ssr:stedsnr" v="26086" />
	</node>
	<node id="9901207489" lat="64.4319786" lon="10.6484728" version="1" timestamp="2022-07-21T06:45:16Z" changeset="123877263" uid="3497659" user="NKA">
		<tag k="name" v="Hårnes" />
		<tag k="place" v="hamlet" />
		<tag k="ssr:stedsnr" v="377664" />
	</node>
	<node id="9901207490" lat="64.5140143" lon="10.7473928" version="1" timestamp="2022-07-21T06:45:16Z" changeset="123877263" uid="3497659" user="NKA">
		<tag k="name" v="Halmøya" />
		<tag k="place" v="farm" />
		<tag k="ssr:stedsnr" v="378738" />
	</node>
	<node id="9901207491" lat="64.4975389" lon="10.8977806" version="1" timestamp="2022-07-21T06:45:16Z" changeset="123877263" uid="3497659" user="NKA">
		<tag k="name" v="Fjærasteinan" />
		<tag k="place" v="neighbourhood" />
		<tag k="ssr:stedsnr" v="545094" />
	</node>
	<node id="9901207492" lat="64.5386083" lon="10.7959862" version="1" timestamp="2022-07-21T06:45:16Z" changeset="123877263" uid="3497659" user="NKA">
		<tag k="name" v="Bolighamn" />
		<tag k="place" v="locality" />
		<tag k="ssr:stedsnr" v="48834" />
	</node>
	<node id="9901207493" lat="64.5577445" lon="10.8925112" version="1" timestamp="2022-07-21T06:45:16Z" changeset="123877263" uid="3497659" user="NKA">
		<tag k="name" v="Klungvika" />
		<tag k="place" v="farm" />
		<tag k="ssr:stedsnr" v="377592" />
	</node>
	<node id="9901207494" lat="64.4421481" lon="10.7452879" version="1" timestamp="2022-07-21T06:45:16Z" changeset="123877263" uid="3497659" user="NKA">
		<tag k="name" v="Kilan" />
		<tag k="place" v="isolated_dwelling" />
		<tag k="ssr:stedsnr" v="14385" />
	</node>
	<node id="9901207495" lat="64.5279" lon="10.7853167" version="1" timestamp="2022-07-21T06:45:16Z" changeset="123877263" uid="3497659" user="NKA">
		<tag k="name" v="Bekkavika" />
		<tag k="place" v="farm" />
		<tag k="ssr:stedsnr" v="135670" />
	</node>
	<node id="9901207496" lat="64.4720067" lon="10.697434" version="1" timestamp="2022-07-21T06:45:16Z" changeset="123877263" uid="3497659" user="NKA">
		<tag k="name" v="Flottan" />
		<tag k="place" v="farm" />
		<tag k="ssr:stedsnr" v="317584" />
	</node>
	<node id="9901207497" lat="64.4677056" lon="10.7685999" version="1" timestamp="2022-07-21T06:45:16Z" changeset="123877263" uid="3497659" user="NKA">
		<tag k="name" v="Vannavika" />
		<tag k="place" v="farm" />
		<tag k="ssr:stedsnr" v="864412" />
	</node>
	<node id="9901207498" lat="64.4695151" lon="10.7217703" version="1" timestamp="2022-07-21T06:45:16Z" changeset="123877263" uid="3497659" user="NKA">
		<tag k="name" v="Mellomneset" />
		<tag k="place" v="farm" />
		<tag k="ssr:stedsnr" v="269084" />
	</node>
	<node id="9901207499" lat="64.3613305" lon="10.798" version="1" timestamp="2022-07-21T06:45:16Z" changeset="123877263" uid="3497659" user="NKA">
		<tag k="name" v="Bakkenget" />
		<tag k="place" v="farm" />
		<tag k="ssr:stedsnr" v="863342" />
	</node>
	<node id="9901207500" lat="64.4591506" lon="10.7893824" version="1" timestamp="2022-07-21T06:45:16Z" changeset="123877263" uid="3497659" user="NKA">
		<tag k="name" v="Trefjord" />
		<tag k="place" v="hamlet" />
		<tag k="ssr:stedsnr" v="242459" />
	</node>
	<node id="9901207501" lat="64.3637278" lon="10.8156193" version="1" timestamp="2022-07-21T06:45:16Z" changeset="123877263" uid="3497659" user="NKA">
		<tag k="name" v="Svea" />
		<tag k="place" v="locality" />
		<tag k="ssr:stedsnr" v="716863" />
	</node>
	<node id="9901207502" lat="64.5002167" lon="10.7298749" version="1" timestamp="2022-07-21T06:45:16Z" changeset="123877263" uid="3497659" user="NKA">
		<tag k="name" v="Hansplassen" />
		<tag k="place" v="locality" />
		<tag k="ssr:stedsnr" v="633120" />
	</node>
	<node id="9901207503" lat="64.4721175" lon="10.8337688" version="1" timestamp="2022-07-21T06:45:16Z" changeset="123877263" uid="3497659" user="NKA">
		<tag k="name" v="Risskogen" />
		<tag k="place" v="hamlet" />
		<tag k="ssr:stedsnr" v="256352" />
	</node>
	<node id="9901207504" lat="64.4320639" lon="10.806825" version="1" timestamp="2022-07-21T06:45:16Z" changeset="123877263" uid="3497659" user="NKA">
		<tag k="name" v="Hattavika" />
		<tag k="place" v="isolated_dwelling" />
		<tag k="ssr:stedsnr" v="566472" />
	</node>
	<node id="9901207505" lat="64.4668693" lon="10.7299668" version="1" timestamp="2022-07-21T06:45:16Z" changeset="123877263" uid="3497659" user="NKA">
		<tag k="name" v="Vikstrand" />
		<tag k="place" v="isolated_dwelling" />
		<tag k="ssr:stedsnr" v="634266" />
	</node>
	<node id="9901207506" lat="64.3662572" lon="10.830949" version="1" timestamp="2022-07-21T06:45:16Z" changeset="123877263" uid="3497659" user="NKA">
		<tag k="name" v="Einan" />
		<tag k="place" v="farm" />
		<tag k="ssr:stedsnr" v="837889" />
	</node>
	<node id="9901207507" lat="64.4549386" lon="10.6941796" version="1" timestamp="2022-07-21T06:45:16Z" changeset="123877263" uid="3497659" user="NKA">
		<tag k="name" v="Vikdalen" />
		<tag k="place" v="hamlet" />
		<tag k="ssr:stedsnr" v="135624" />
	</node>
	<node id="9901207508" lat="64.4331764" lon="10.6416734" version="1" timestamp="2022-07-21T06:45:16Z" changeset="123877263" uid="3497659" user="NKA">
		<tag k="name" v="Sørnesset" />
		<tag k="place" v="locality" />
		<tag k="ssr:stedsnr" v="971979" />
	</node>
	<node id="9901207509" lat="64.5251905" lon="10.7940755" version="1" timestamp="2022-07-21T06:45:16Z" changeset="123877263" uid="3497659" user="NKA">
		<tag k="name" v="Kvernøya" />
		<tag k="place" v="hamlet" />
		<tag k="ssr:stedsnr" v="560659" />
	</node>
	<node id="9901207510" lat="64.4600528" lon="10.877564" version="1" timestamp="2022-07-21T06:45:16Z" changeset="123877263" uid="3497659" user="NKA">
		<tag k="name" v="Stamnesseteren" />
		<tag k="place" v="locality" />
		<tag k="ssr:stedsnr" v="134523" />
	</node>
	<node id="9901207511" lat="64.4963139" lon="10.9002916" version="1" timestamp="2022-07-21T06:45:16Z" changeset="123877263" uid="3497659" user="NKA">
		<tag k="name" v="Vangen" />
		<tag k="place" v="farm" />
		<tag k="ssr:stedsnr" v="74403" />
	</node>
	<node id="9901207512" lat="64.5153139" lon="10.7518056" version="1" timestamp="2022-07-21T06:45:16Z" changeset="123877263" uid="3497659" user="NKA">
		<tag k="name" v="Svinvika" />
		<tag k="place" v="isolated_dwelling" />
		<tag k="ssr:stedsnr" v="75757" />
	</node>
	<node id="9901207513" lat="64.5689482" lon="11.0569349" version="1" timestamp="2022-07-21T06:45:16Z" changeset="123877263" uid="3497659" user="NKA">
		<tag k="name" v="Sandmohavn" />
		<tag k="place" v="farm" />
		<tag k="ssr:stedsnr" v="924599" />
	</node>
	<node id="9901207514" lat="64.4614444" lon="10.7826861" version="1" timestamp="2022-07-21T06:45:16Z" changeset="123877263" uid="3497659" user="NKA">
		<tag k="name" v="Trefjordneset" />
		<tag k="place" v="farm" />
		<tag k="ssr:stedsnr" v="25100" />
	</node>
	<node id="9901207515" lat="64.484239" lon="10.7983637" version="1" timestamp="2022-07-21T06:45:16Z" changeset="123877263" uid="3497659" user="NKA">
		<tag k="alt_name" v="Glasø Østre" />
		<tag k="name" v="Østre Glasøya" />
		<tag k="place" v="farm" />
		<tag k="ssr:stedsnr" v="390111" />
	</node>
	<node id="9901207516" lat="64.5249111" lon="10.9626611" version="1" timestamp="2022-07-21T06:45:16Z" changeset="123877263" uid="3497659" user="NKA">
		<tag k="name" v="Bårdvika" />
		<tag k="place" v="farm" />
		<tag k="ssr:stedsnr" v="15702" />
	</node>
	<node id="9901207517" lat="64.3773444" lon="10.8392223" version="1" timestamp="2022-07-21T06:45:16Z" changeset="123877263" uid="3497659" user="NKA">
		<tag k="name" v="Ol - Nilsaplassen" />
		<tag k="place" v="locality" />
		<tag k="ssr:stedsnr" v="534956" />
	</node>
	<node id="9901207518" lat="64.5698258" lon="11.0516314" version="1" timestamp="2022-07-21T06:45:16Z" changeset="123877263" uid="3497659" user="NKA">
		<tag k="name" v="Hamn" />
		<tag k="place" v="farm" />
		<tag k="ssr:stedsnr" v="727493" />
	</node>
	<node id="9901207519" lat="64.3756806" lon="10.8441444" version="1" timestamp="2022-07-21T06:45:16Z" changeset="123877263" uid="3497659" user="NKA">
		<tag k="name" v="Myran" />
		<tag k="place" v="farm" />
		<tag k="ssr:stedsnr" v="534882" />
	</node>
	<node id="9901207520" lat="64.4813972" lon="10.7461083" version="1" timestamp="2022-07-21T06:45:16Z" changeset="123877263" uid="3497659" user="NKA">
		<tag k="name" v="Nordhals" />
		<tag k="place" v="locality" />
		<tag k="ssr:stedsnr" v="330107" />
	</node>
	<node id="9901207521" lat="64.4993175" lon="10.7212166" version="1" timestamp="2022-07-21T06:45:16Z" changeset="123877263" uid="3497659" user="NKA">
		<tag k="name" v="Aspøystranda" />
		<tag k="place" v="farm" />
		<tag k="ssr:stedsnr" v="814111" />
	</node>
	<node id="9901207522" lat="64.565784" lon="11.0640572" version="1" timestamp="2022-07-21T06:45:16Z" changeset="123877263" uid="3497659" user="NKA">
		<tag k="name" v="Sandmoen" />
		<tag k="place" v="hamlet" />
		<tag k="ssr:stedsnr" v="924586" />
	</node>
	<node id="9901207523" lat="64.5095903" lon="10.8026214" version="1" timestamp="2022-07-21T06:45:16Z" changeset="123877263" uid="3497659" user="NKA">
		<tag k="name" v="Einvika" />
		<tag k="place" v="hamlet" />
		<tag k="ssr:stedsnr" v="621734" />
	</node>
	<node id="9901207524" lat="64.4631417" lon="10.7547472" version="1" timestamp="2022-07-21T06:45:16Z" changeset="123877263" uid="3497659" user="NKA">
		<tag k="name" v="Holmen" />
		<tag k="place" v="farm" />
		<tag k="ssr:stedsnr" v="257435" />
	</node>
	<node id="9901207525" lat="64.4396657" lon="10.5714696" version="1" timestamp="2022-07-21T06:45:16Z" changeset="123877263" uid="3497659" user="NKA">
		<tag k="name" v="Gammelgården" />
		<tag k="place" v="locality" />
		<tag k="ssr:stedsnr" v="590010" />
	</node>
	<node id="9901207526" lat="64.4685362" lon="10.8183028" version="1" timestamp="2022-07-21T06:45:16Z" changeset="123877263" uid="3497659" user="NKA">
		<tag k="name" v="Brandsmoen" />
		<tag k="place" v="farm" />
		<tag k="ssr:stedsnr" v="135472" />
	</node>
	<node id="9901207527" lat="64.3662136" lon="10.8259407" version="1" timestamp="2022-07-21T06:45:16Z" changeset="123877263" uid="3497659" user="NKA">
		<tag k="name" v="Storforskottet" />
		<tag k="place" v="farm" />
		<tag k="ssr:stedsnr" v="109920" />
	</node>
	<node id="9901207528" lat="64.365875" lon="10.8087528" version="1" timestamp="2022-07-21T06:45:16Z" changeset="123877263" uid="3497659" user="NKA">
		<tag k="name" v="Dølin" />
		<tag k="place" v="locality" />
		<tag k="ssr:stedsnr" v="48871" />
	</node>
	<node id="9901207529" lat="64.3387389" lon="10.864925" version="1" timestamp="2022-07-21T06:45:16Z" changeset="123877263" uid="3497659" user="NKA">
		<tag k="name" v="Opplandsaunet" />
		<tag k="place" v="farm" />
		<tag k="ssr:stedsnr" v="667450" />
	</node>
	<node id="9901207530" lat="64.3504194" lon="10.7934306" version="1" timestamp="2022-07-21T06:45:16Z" changeset="123877263" uid="3497659" user="NKA">
		<tag k="historic" v="shieling" />
		<tag k="name" v="Taraldlinaeteren" />
		<tag k="place" v="isolated_dwelling" />
		<tag k="ssr:stedsnr" v="109869" />
	</node>
	<node id="9901207531" lat="64.5138447" lon="10.8198402" version="1" timestamp="2022-07-21T06:45:16Z" changeset="123877263" uid="3497659" user="NKA">
		<tag k="name" v="Skavsanden" />
		<tag k="place" v="farm" />
		<tag k="ssr:stedsnr" v="560683" />
	</node>
	<node id="9901207532" lat="64.3438055" lon="10.854964" version="1" timestamp="2022-07-21T06:45:16Z" changeset="123877263" uid="3497659" user="NKA">
		<tag k="name" v="Aunan" />
		<tag k="place" v="farm" />
		<tag k="ssr:stedsnr" v="499274" />
	</node>
	<node id="9901207533" lat="64.5070334" lon="10.8121778" version="1" timestamp="2022-07-21T06:45:16Z" changeset="123877263" uid="3497659" user="NKA">
		<tag k="name" v="Leitet" />
		<tag k="place" v="hamlet" />
		<tag k="ssr:stedsnr" v="499695" />
	</node>
	<node id="9901207534" lat="64.3774472" lon="10.8332361" version="1" timestamp="2022-07-21T06:45:16Z" changeset="123877263" uid="3497659" user="NKA">
		<tag k="name" v="Krubba" />
		<tag k="place" v="isolated_dwelling" />
		<tag k="ssr:stedsnr" v="438249" />
	</node>
	<node id="9901207535" lat="64.4374158" lon="10.7814473" version="1" timestamp="2022-07-21T06:45:16Z" changeset="123877263" uid="3497659" user="NKA">
		<tag k="name" v="Floan" />
		<tag k="place" v="hamlet" />
		<tag k="ssr:stedsnr" v="74452" />
	</node>
</osm>
