<?xml version="1.0" encoding="UTF-8"?>
<osm generator="osmapis" version="0.6">
	<node id="-687327" lat="67.9962666699" lon="15.7493333326">
		<tag k="name" v="Klingenberg" />
		<tag k="ssr:date" v="2016-05-10" />
		<tag k="ssr:gruppe" v="navigasjon" />
		<tag k="ssr:hovedgruppe" v="infrastruktur" />
		<tag k="ssr:stedsnr" v="320671" />
		<tag k="ssr:type" v="fyrlykt" />
	</node>
	<node id="-688709" lat="68.1218944486" lon="15.8251055647">
		<tag k="name" v="Ansnesholmen" />
		<tag k="old_name" v="Andsnesholmen" />
		<tag k="ssr:date" v="2016-05-10" />
		<tag k="ssr:gruppe" v="navigasjon" />
		<tag k="ssr:hovedgruppe" v="infrastruktur" />
		<tag k="ssr:stedsnr" v="442726" />
		<tag k="ssr:type" v="fyrlykt" />
	</node>
	<node id="-689052" lat="68.184294446" lon="15.5989388859">
		<tag k="name" v="Tranøy" />
		<tag k="old_name" v="Tranøy Fyr" />
		<tag k="ssr:date" v="2016-05-10" />
		<tag k="ssr:gruppe" v="navigasjon" />
		<tag k="ssr:hovedgruppe" v="infrastruktur" />
		<tag k="ssr:stedsnr" v="563081" />
		<tag k="ssr:type" v="fyrstasjon" />
	</node>
	<node id="-688602" lat="68.1467750003" lon="15.6272249976">
		<tag k="name" v="Brennvika" />
		<tag k="ssr:date" v="2016-05-10" />
		<tag k="ssr:gruppe" v="navigasjon" />
		<tag k="ssr:hovedgruppe" v="infrastruktur" />
		<tag k="ssr:stedsnr" v="259749" />
		<tag k="ssr:type" v="fyrlykt" />
	</node>
	<node id="-689817" lat="67.9543527771" lon="15.3989777748">
		<tag k="name" v="Bolsøygalten" />
		<tag k="ssr:date" v="2016-05-11" />
		<tag k="ssr:gruppe" v="navigasjon" />
		<tag k="ssr:hovedgruppe" v="infrastruktur" />
		<tag k="ssr:stedsnr" v="806576" />
		<tag k="ssr:type" v="fyrlykt" />
	</node>
	<node id="-688375" lat="68.1430638897" lon="15.4045666681">
		<tag k="name" v="Bremneset" />
		<tag k="ssr:date" v="2016-05-10" />
		<tag k="ssr:gruppe" v="navigasjon" />
		<tag k="ssr:hovedgruppe" v="infrastruktur" />
		<tag k="ssr:stedsnr" v="199113" />
		<tag k="ssr:type" v="fyrlykt" />
	</node>
	<node id="-689078" lat="68.0838111103" lon="15.616733328">
		<tag k="fixme" v="multiple name tags, choose one and add the other to alt_name" />
		<tag k="name" v="Hamarøy;Hamarøy kommune - Hábmer;Hábmera suohkan" />
		<tag k="name:no" v="Hamarøy;Hamarøy kommune" />
		<tag k="name:smj" v="Hábmer;Hábmera suohkan" />
		<tag k="ssr:date" v="2016-05-10" />
		<tag k="ssr:gruppe" v="administrativeIndelinger" />
		<tag k="ssr:hovedgruppe" v="offentligAdministrasjon" />
		<tag k="ssr:stedsnr" v="571604" />
		<tag k="ssr:type" v="kommune" />
	</node>
	<node id="-687828" lat="67.9952832155" lon="16.0019410492">
		<tag k="name" v="Hillingssagpollen" />
		<tag k="ssr:date" v="2019-05-30" />
		<tag k="ssr:gruppe" v="veg" />
		<tag k="ssr:hovedgruppe" v="infrastruktur" />
		<tag k="ssr:stedsnr" v="1024478" />
		<tag k="ssr:type" v="adressenavn" />
	</node>
	<node id="-687827" lat="68.1213240853" lon="15.8747245196">
		<tag k="name" v="Vågen" />
		<tag k="ssr:date" v="2019-05-30" />
		<tag k="ssr:gruppe" v="veg" />
		<tag k="ssr:hovedgruppe" v="infrastruktur" />
		<tag k="ssr:stedsnr" v="1023225" />
		<tag k="ssr:type" v="adressenavn" />
	</node>
	<node id="-687826" lat="68.1629527536" lon="15.7125777333">
		<tag k="name" v="Hestvikveien" />
		<tag k="ssr:date" v="2019-05-30" />
		<tag k="ssr:gruppe" v="veg" />
		<tag k="ssr:hovedgruppe" v="infrastruktur" />
		<tag k="ssr:stedsnr" v="1023060" />
		<tag k="ssr:type" v="adressenavn" />
	</node>
	<node id="-687475" lat="68.1482527814" lon="15.448125008">
		<tag k="name" v="Buvåg" />
		<tag k="ssr:date" v="2016-05-10" />
		<tag k="ssr:gruppe" v="navigasjon" />
		<tag k="ssr:hovedgruppe" v="infrastruktur" />
		<tag k="ssr:stedsnr" v="380091" />
		<tag k="ssr:type" v="fyrlykt" />
	</node>
	<node id="-688014" lat="68.1614194411" lon="15.8715138781">
		<tag k="name" v="Nordkilklubben" />
		<tag k="ssr:date" v="2016-05-10" />
		<tag k="ssr:gruppe" v="navigasjon" />
		<tag k="ssr:hovedgruppe" v="infrastruktur" />
		<tag k="ssr:stedsnr" v="77767" />
		<tag k="ssr:type" v="fyrlykt" />
	</node>
	<node id="-688242" lat="68.1825083332" lon="15.6799166601">
		<tag k="name" v="Steinsos" />
		<tag k="ssr:date" v="2016-05-10" />
		<tag k="ssr:gruppe" v="navigasjon" />
		<tag k="ssr:hovedgruppe" v="infrastruktur" />
		<tag k="ssr:stedsnr" v="138803" />
		<tag k="ssr:type" v="fyrlykt" />
	</node>
	<node id="-687496" lat="68.1512277783" lon="15.7638777732">
		<tag k="name" v="Tannøy" />
		<tag k="ssr:date" v="2016-05-10" />
		<tag k="ssr:gruppe" v="navigasjon" />
		<tag k="ssr:hovedgruppe" v="infrastruktur" />
		<tag k="ssr:stedsnr" v="380752" />
		<tag k="ssr:type" v="fyrlykt" />
	</node>
	<node id="-690247" lat="68.4849327361" lon="16.2297866207">
		<tag k="fixme" v="multiple name tags, choose one and add the other to alt_name" />
		<tag k="name" v="Nord-Noreg;Nord-Norge" />
		<tag k="ssr:date" v="2017-05-18" />
		<tag k="ssr:gruppe" v="administrativeIndelinger" />
		<tag k="ssr:hovedgruppe" v="offentligAdministrasjon" />
		<tag k="ssr:stedsnr" v="976106" />
		<tag k="ssr:type" v="annenAdministrativInndeling" />
	</node>
	<node id="-689797" lat="68.1350805561" lon="15.5334722249">
		<tag k="name" v="Hamsundpollen" />
		<tag k="ssr:date" v="2016-05-11" />
		<tag k="ssr:gruppe" v="navigasjon" />
		<tag k="ssr:hovedgruppe" v="infrastruktur" />
		<tag k="ssr:stedsnr" v="806101" />
		<tag k="ssr:type" v="fyrlykt" />
	</node>
	<node id="-689442" lat="68.1203805543" lon="15.7469250078">
		<tag k="name" v="Hamlotskjer" />
		<tag k="ssr:date" v="2016-05-11" />
		<tag k="ssr:gruppe" v="navigasjon" />
		<tag k="ssr:hovedgruppe" v="infrastruktur" />
		<tag k="ssr:stedsnr" v="684696" />
		<tag k="ssr:type" v="fyrlykt" />
	</node>
	<node id="-687873" lat="68.189624996" lon="15.6355944383">
		<tag k="name" v="Eggeløysa" />
		<tag k="old_name" v="Eggløysa" />
		<tag k="ssr:date" v="2016-05-10" />
		<tag k="ssr:gruppe" v="navigasjon" />
		<tag k="ssr:hovedgruppe" v="infrastruktur" />
		<tag k="ssr:stedsnr" v="17814" />
		<tag k="ssr:type" v="fyrlykt" />
	</node>
</osm>
