<?xml version="1.0" encoding="UTF-8"?>
<osm version="0.6" generator="osmapis">
	<node id="261634762" lat="69.3218204" lon="16.1247217" version="10" timestamp="2022-07-03T06:53:02Z" changeset="123140434" uid="3497659" user="NKA">
		<tag k="loc_name:se" v="Ánddanjárga" />
		<tag k="name" v="Andenes" />
		<tag k="name:no" v="Andenes" />
		<tag k="name:ru" v="Анденес" />
		<tag k="place" v="village" />
		<tag k="population" v="2515" />
		<tag k="population:date" v="2021-01-01" />
		<tag k="ref:ssb_tettsted" v="7861" />
		<tag k="source:population" v="SSB - befolkning i tettstedet" />
		<tag k="ssr:stedsnr" v="261155" />
	</node>
	<node id="295396891" lat="68.8805356" lon="15.4953392" version="3" timestamp="2022-07-03T06:53:02Z" changeset="123140434" uid="3497659" user="NKA">
		<tag k="alt_name" v="Skjoldhamn" />
		<tag k="name" v="Skjoldehamn" />
		<tag k="name:ru" v="Шолдехамн" />
		<tag k="place" v="hamlet" />
		<tag k="ssr:stedsnr" v="321650" />
	</node>
	<node id="295396893" lat="68.8764784" lon="15.4782592" version="2" timestamp="2022-07-03T06:53:02Z" changeset="123140434" uid="3497659" user="NKA">
		<tag k="name" v="Gavlen" />
		<tag k="place" v="hamlet" />
		<tag k="ssr:stedsnr" v="746694" />
	</node>
	<node id="295403813" lat="68.9719105" lon="15.6383507" version="3" timestamp="2022-07-03T06:53:02Z" changeset="123140434" uid="3497659" user="NKA">
		<tag k="name" v="Risøyhamn" />
		<tag k="place" v="village" />
		<tag k="population" v="216" />
		<tag k="ssr:stedsnr" v="503373" />
	</node>
	<node id="451753352" lat="69.2719541" lon="15.9560051" version="6" timestamp="2022-07-03T06:53:02Z" changeset="123140434" uid="3497659" user="NKA">
		<tag k="name" v="Bleik" />
		<tag k="name:ru" v="Блейк" />
		<tag k="place" v="village" />
		<tag k="population" v="442" />
		<tag k="population:date" v="2021-01-01" />
		<tag k="ref:ssb_tettsted" v="7862" />
		<tag k="source:population" v="SSB - befolkning i tettstedet" />
		<tag k="ssr:stedsnr" v="807136" />
	</node>
	<node id="452101353" lat="69.3007347" lon="16.0543826" version="2" timestamp="2022-07-03T06:53:02Z" changeset="123140434" uid="3497659" user="NKA">
		<tag k="alt_name" v="Tofta" />
		<tag k="name" v="Toften" />
		<tag k="place" v="suburb" />
		<tag k="ssr:stedsnr" v="382156" />
	</node>
	<node id="1259818931" lat="69.1364699" lon="15.6770842" version="5" timestamp="2022-07-03T06:53:02Z" changeset="123140434" uid="3497659" user="NKA">
		<tag k="alt_name" v="Nordmjele" />
		<tag k="name" v="Nordmela" />
		<tag k="name:ru" v="Нордмела" />
		<tag k="place" v="village" />
		<tag k="ssr:stedsnr" v="685222" />
	</node>
	<node id="1259875660" lat="69.0616338" lon="15.7703877" version="3" timestamp="2022-07-03T06:53:02Z" changeset="123140434" uid="3497659" user="NKA">
		<tag k="name" v="Ånes" />
		<tag k="name:ru" v="Онес" />
		<tag k="place" v="hamlet" />
		<tag k="ssr:stedsnr" v="321193" />
	</node>
	<node id="1259999389" lat="69.2159222" lon="15.8569143" version="3" timestamp="2022-07-03T06:53:02Z" changeset="123140434" uid="3497659" user="NKA">
		<tag k="name" v="Stave" />
		<tag k="name:ru" v="Ставе" />
		<tag k="place" v="hamlet" />
		<tag k="ssr:stedsnr" v="624199" />
	</node>
	<node id="1259999693" lat="69.1446749" lon="16.0488954" version="3" timestamp="2022-07-03T06:53:02Z" changeset="123140434" uid="3497659" user="NKA">
		<tag k="name" v="Myrset" />
		<tag k="name:ru" v="Мишет" />
		<tag k="place" v="hamlet" />
		<tag k="ssr:stedsnr" v="503129" />
	</node>
	<node id="1389838176" lat="68.9637417" lon="15.7280445" version="3" timestamp="2022-07-03T06:53:02Z" changeset="123140434" uid="3497659" user="NKA">
		<tag k="alt_name" v="Lovik" />
		<tag k="name" v="Lovika" />
		<tag k="place" v="hamlet" />
		<tag k="ssr:stedsnr" v="624412" />
	</node>
	<node id="1593099845" lat="69.2614631" lon="16.166381" version="2" timestamp="2022-07-03T06:53:02Z" changeset="123140434" uid="3497659" user="NKA">
		<tag k="name" v="Fiskenes" />
		<tag k="place" v="hamlet" />
		<tag k="ssr:stedsnr" v="321202" />
	</node>
	<node id="1593199338" lat="69.1058196" lon="15.775261" version="3" timestamp="2022-07-03T06:53:02Z" changeset="123140434" uid="3497659" user="NKA">
		<tag k="name" v="Skavdal" />
		<tag k="place" v="farm" />
		<tag k="ssr:stedsnr" v="78266" />
	</node>
	<node id="1593253482" lat="69.0805463" lon="15.9115241" version="3" timestamp="2022-07-03T06:53:02Z" changeset="123140434" uid="3497659" user="NKA">
		<tag k="name" v="Sellevoll" />
		<tag k="name:ru" v="Селлеволль" />
		<tag k="place" v="hamlet" />
		<tag k="ssr:stedsnr" v="685185" />
	</node>
	<node id="1634481586" lat="69.2340634" lon="15.8701384" version="2" timestamp="2022-07-03T06:53:02Z" changeset="123140434" uid="3497659" user="NKA">
		<tag k="name" v="Høyvika" />
		<tag k="place" v="farm" />
		<tag k="ssr:stedsnr" v="381176" />
	</node>
	<node id="2214928022" lat="69.0436992" lon="15.5158045" version="2" timestamp="2022-07-03T06:53:02Z" changeset="123140434" uid="3497659" user="NKA">
		<tag k="name" v="Bø" />
		<tag k="place" v="hamlet" />
		<tag k="ssr:stedsnr" v="928315" />
	</node>
	<node id="4687553893" lat="69.0502946" lon="15.8757419" version="2" timestamp="2022-07-03T06:53:02Z" changeset="123140434" uid="3497659" user="NKA">
		<tag k="name" v="Å" />
		<tag k="place" v="hamlet" />
		<tag k="ssr:stedsnr" v="146916" />
	</node>
	<node id="4690895784" lat="69.0160614" lon="15.8094355" version="3" timestamp="2022-07-03T06:53:02Z" changeset="123140434" uid="3497659" user="NKA">
		<tag k="name" v="Åse" />
		<tag k="place" v="village" />
		<tag k="ssr:stedsnr" v="18058" />
	</node>
	<node id="4933360355" lat="69.2366918" lon="16.0397386" version="3" timestamp="2022-07-03T06:53:02Z" changeset="123140434" uid="3497659" user="NKA">
		<tag k="alt_name" v="Skardsteindalen" />
		<tag k="name" v="Skarsteindalen" />
		<tag k="place" v="hamlet" />
		<tag k="ssr:stedsnr" v="503157" />
	</node>
	<node id="6205774445" lat="69.0797273" lon="15.5663811" version="2" timestamp="2022-07-03T06:53:02Z" changeset="123140434" uid="3497659" user="NKA">
		<tag k="name" v="Nøss" />
		<tag k="place" v="hamlet" />
		<tag k="ssr:stedsnr" v="502352" />
	</node>
	<node id="9863335923" lat="68.8937845" lon="15.5261831" version="1" timestamp="2022-07-03T06:53:02Z" changeset="123140434" uid="3497659" user="NKA">
		<tag k="alt_name" v="Myren;Myran" />
		<tag k="name" v="Myra" />
		<tag k="place" v="hamlet" />
		<tag k="ssr:stedsnr" v="503648" />
	</node>
	<node id="9863335924" lat="69.002281" lon="15.6227125" version="1" timestamp="2022-07-03T06:53:02Z" changeset="123140434" uid="3497659" user="NKA">
		<tag k="name" v="Vesterjorda" />
		<tag k="place" v="farm" />
		<tag k="ssr:stedsnr" v="96343" />
	</node>
	<node id="9863335925" lat="68.9844142" lon="15.4396304" version="1" timestamp="2022-07-03T06:53:02Z" changeset="123140434" uid="3497659" user="NKA">
		<tag k="name" v="Haugen" />
		<tag k="place" v="farm" />
		<tag k="ssr:stedsnr" v="138626" />
	</node>
	<node id="9863335926" lat="68.955182" lon="15.6521175" version="1" timestamp="2022-07-03T06:53:02Z" changeset="123140434" uid="3497659" user="NKA">
		<tag k="name" v="Strandlandet" />
		<tag k="old_name" v="Strandland" />
		<tag k="place" v="farm" />
		<tag k="ssr:stedsnr" v="1078344" />
	</node>
	<node id="9863335927" lat="69.0181391" lon="15.5879169" version="1" timestamp="2022-07-03T06:53:02Z" changeset="123140434" uid="3497659" user="NKA">
		<tag k="name" v="Melladalsplassen" />
		<tag k="place" v="isolated_dwelling" />
		<tag k="ssr:stedsnr" v="482973" />
	</node>
	<node id="9863335928" lat="69.1361194" lon="16.0357971" version="1" timestamp="2022-07-03T06:53:02Z" changeset="123140434" uid="3497659" user="NKA">
		<tag k="name" v="Korsnes" />
		<tag k="place" v="farm" />
		<tag k="ssr:stedsnr" v="442261" />
	</node>
	<node id="9863335929" lat="69.3052093" lon="16.098348" version="1" timestamp="2022-07-03T06:53:02Z" changeset="123140434" uid="3497659" user="NKA">
		<tag k="name" v="Kleiven" />
		<tag k="place" v="farm" />
		<tag k="ssr:stedsnr" v="1082523" />
	</node>
	<node id="9863335930" lat="68.9530583" lon="15.6260138" version="1" timestamp="2022-07-03T06:53:02Z" changeset="123140434" uid="3497659" user="NKA">
		<tag k="alt_name" v="Øygarden;Øygård" />
		<tag k="name" v="Øygården" />
		<tag k="place" v="farm" />
		<tag k="ssr:stedsnr" v="381469" />
	</node>
	<node id="9863335931" lat="69.0165667" lon="15.5826305" version="1" timestamp="2022-07-03T06:53:02Z" changeset="123140434" uid="3497659" user="NKA">
		<tag k="name" v="Nerdalsplassen" />
		<tag k="place" v="isolated_dwelling" />
		<tag k="ssr:stedsnr" v="542977" />
	</node>
	<node id="9863335932" lat="69.0344509" lon="15.5132157" version="1" timestamp="2022-07-03T06:53:02Z" changeset="123140434" uid="3497659" user="NKA">
		<tag k="name" v="Fagervollen" />
		<tag k="place" v="farm" />
		<tag k="ssr:stedsnr" v="831739" />
	</node>
	<node id="9863335933" lat="69.2118316" lon="16.0799519" version="1" timestamp="2022-07-03T06:53:02Z" changeset="123140434" uid="3497659" user="NKA">
		<tag k="alt_name" v="Breidvika;Breivik" />
		<tag k="name" v="Breivika" />
		<tag k="place" v="hamlet" />
		<tag k="ssr:stedsnr" v="928150" />
	</node>
	<node id="9863335934" lat="69.3210903" lon="16.1275042" version="1" timestamp="2022-07-03T06:53:02Z" changeset="123140434" uid="3497659" user="NKA">
		<tag k="name" v="Rabben" />
		<tag k="place" v="farm" />
		<tag k="ssr:stedsnr" v="968805" />
	</node>
	<node id="9863335935" lat="69.3227112" lon="16.1193579" version="1" timestamp="2022-07-03T06:53:02Z" changeset="123140434" uid="3497659" user="NKA">
		<tag k="name" v="Kiilgården" />
		<tag k="place" v="farm" />
		<tag k="ssr:stedsnr" v="603771" />
	</node>
	<node id="9863335936" lat="69.0007528" lon="15.6263473" version="1" timestamp="2022-07-03T06:53:02Z" changeset="123140434" uid="3497659" user="NKA">
		<tag k="name" v="Mellagården" />
		<tag k="place" v="farm" />
		<tag k="ssr:stedsnr" v="157297" />
	</node>
	<node id="9863335937" lat="69.1311194" lon="16.0018279" version="1" timestamp="2022-07-03T06:53:02Z" changeset="123140434" uid="3497659" user="NKA">
		<tag k="name" v="Sandmelra" />
		<tag k="place" v="farm" />
		<tag k="ssr:stedsnr" v="764218" />
	</node>
	<node id="9863335938" lat="69.1177972" lon="15.982361" version="1" timestamp="2022-07-03T06:53:02Z" changeset="123140434" uid="3497659" user="NKA">
		<tag k="name" v="Prestegården" />
		<tag k="place" v="farm" />
		<tag k="ssr:stedsnr" v="763394" />
	</node>
	<node id="9863335939" lat="69.2721917" lon="15.9483278" version="1" timestamp="2022-07-03T06:53:02Z" changeset="123140434" uid="3497659" user="NKA">
		<tag k="name" v="Vestergården" />
		<tag k="place" v="neighbourhood" />
		<tag k="ssr:stedsnr" v="582582" />
	</node>
	<node id="9863335940" lat="69.1944695" lon="15.8291194" version="1" timestamp="2022-07-03T06:53:02Z" changeset="123140434" uid="3497659" user="NKA">
		<tag k="name" v="Kinnvollen" />
		<tag k="place" v="farm" />
		<tag k="ssr:stedsnr" v="521914" />
	</node>
	<node id="9863335941" lat="68.9031443" lon="15.620188" version="1" timestamp="2022-07-03T06:53:02Z" changeset="123140434" uid="3497659" user="NKA">
		<tag k="name" v="Buksnes" />
		<tag k="place" v="hamlet" />
		<tag k="ssr:stedsnr" v="571858" />
	</node>
	<node id="9863335942" lat="69.1596534" lon="15.8068368" version="1" timestamp="2022-07-03T06:53:02Z" changeset="123140434" uid="3497659" user="NKA">
		<tag k="name" v="Skogvoll" />
		<tag k="place" v="hamlet" />
		<tag k="ssr:stedsnr" v="503138" />
	</node>
	<node id="9863335943" lat="69.2309833" lon="15.8688971" version="1" timestamp="2022-07-03T06:53:02Z" changeset="123140434" uid="3497659" user="NKA">
		<tag k="name" v="Stor-Kuforet" />
		<tag k="place" v="farm" />
		<tag k="ssr:stedsnr" v="339636" />
	</node>
	<node id="9863335944" lat="68.9288695" lon="15.6290027" version="1" timestamp="2022-07-03T06:53:02Z" changeset="123140434" uid="3497659" user="NKA">
		<tag k="name" v="Sørheim" />
		<tag k="place" v="farm" />
		<tag k="ssr:stedsnr" v="503465" />
	</node>
	<node id="9863335945" lat="68.8416802" lon="15.5968681" version="1" timestamp="2022-07-03T06:53:02Z" changeset="123140434" uid="3497659" user="NKA">
		<tag k="name" v="Myrset" />
		<tag k="place" v="farm" />
		<tag k="ssr:stedsnr" v="399024" />
	</node>
	<node id="9863335946" lat="68.9960611" lon="15.6937666" version="1" timestamp="2022-07-03T06:53:02Z" changeset="123140434" uid="3497659" user="NKA">
		<tag k="name" v="Myreng" />
		<tag k="place" v="farm" />
		<tag k="ssr:stedsnr" v="382373" />
	</node>
	<node id="9863335947" lat="68.9531577" lon="15.671319" version="1" timestamp="2022-07-03T06:53:02Z" changeset="123140434" uid="3497659" user="NKA">
		<tag k="name" v="Olsrud" />
		<tag k="place" v="farm" />
		<tag k="ssr:stedsnr" v="78469" />
	</node>
	<node id="9863335948" lat="69.0815639" lon="15.5658861" version="1" timestamp="2022-07-03T06:53:02Z" changeset="123140434" uid="3497659" user="NKA">
		<tag k="name" v="Øvergården" />
		<tag k="place" v="farm" />
		<tag k="ssr:stedsnr" v="467794" />
	</node>
	<node id="9863335949" lat="69.2419278" lon="16.1147499" version="1" timestamp="2022-07-03T06:53:02Z" changeset="123140434" uid="3497659" user="NKA">
		<tag k="name" v="Fredheim" />
		<tag k="place" v="farm" />
		<tag k="ssr:stedsnr" v="138185" />
	</node>
	<node id="9863335950" lat="69.1557212" lon="16.0803886" version="1" timestamp="2022-07-03T06:53:02Z" changeset="123140434" uid="3497659" user="NKA">
		<tag k="name" v="Kvalnes" />
		<tag k="place" v="hamlet" />
		<tag k="ssr:stedsnr" v="1081841" />
	</node>
	<node id="9863335951" lat="69.0008727" lon="15.6337989" version="1" timestamp="2022-07-03T06:53:02Z" changeset="123140434" uid="3497659" user="NKA">
		<tag k="name" v="Innergården" />
		<tag k="place" v="farm" />
		<tag k="ssr:stedsnr" v="399356" />
	</node>
	<node id="9863335952" lat="69.1348527" lon="15.6782417" version="1" timestamp="2022-07-03T06:53:02Z" changeset="123140434" uid="3497659" user="NKA">
		<tag k="name" v="Berget" />
		<tag k="place" v="neighbourhood" />
		<tag k="ssr:stedsnr" v="703325" />
	</node>
	<node id="9863335953" lat="69.2061722" lon="15.8620611" version="1" timestamp="2022-07-03T06:53:02Z" changeset="123140434" uid="3497659" user="NKA">
		<tag k="name" v="Stranda" />
		<tag k="place" v="hamlet" />
		<tag k="ssr:stedsnr" v="764911" />
	</node>
	<node id="9863335954" lat="69.309475" lon="16.0947834" version="1" timestamp="2022-07-03T06:53:02Z" changeset="123140434" uid="3497659" user="NKA">
		<tag k="name" v="Vestbyen industriområde" />
		<tag k="place" v="neighbourhood" />
		<tag k="ssr:stedsnr" v="58794" />
	</node>
	<node id="9863335955" lat="69.31817" lon="16.1126961" version="1" timestamp="2022-07-03T06:53:02Z" changeset="123140434" uid="3497659" user="NKA">
		<tag k="name" v="Lille Flamberget" />
		<tag k="place" v="farm" />
		<tag k="ssr:stedsnr" v="1082552" />
	</node>
	<node id="9863335956" lat="68.8341654" lon="15.6671533" version="1" timestamp="2022-07-03T06:53:02Z" changeset="123140434" uid="3497659" user="NKA">
		<tag k="alt_name" v="Forfjord" />
		<tag k="name" v="Forfjorden" />
		<tag k="place" v="hamlet" />
		<tag k="ssr:stedsnr" v="624018" />
	</node>
	<node id="9863335957" lat="69.2355472" lon="15.8708501" version="1" timestamp="2022-07-03T06:53:02Z" changeset="123140434" uid="3497659" user="NKA">
		<tag k="name" v="Buggetomta" />
		<tag k="place" v="locality" />
		<tag k="ssr:stedsnr" v="824668" />
	</node>
	<node id="9863335958" lat="69.0792122" lon="15.7364335" version="1" timestamp="2022-07-03T06:53:02Z" changeset="123140434" uid="3497659" user="NKA">
		<tag k="name" v="Rørjorda" />
		<tag k="place" v="isolated_dwelling" />
		<tag k="ssr:stedsnr" v="605242" />
	</node>
	<node id="9863335959" lat="69.0199333" lon="15.600189" version="1" timestamp="2022-07-03T06:53:02Z" changeset="123140434" uid="3497659" user="NKA">
		<tag k="name" v="Tofta" />
		<tag k="place" v="locality" />
		<tag k="ssr:stedsnr" v="967971" />
	</node>
	<node id="9863335960" lat="68.8093442" lon="15.7088356" version="1" timestamp="2022-07-03T06:53:02Z" changeset="123140434" uid="3497659" user="NKA">
		<tag k="name" v="Tjærebrenna" />
		<tag k="place" v="isolated_dwelling" />
		<tag k="ssr:stedsnr" v="685097" />
	</node>
	<node id="9863335961" lat="68.9196222" lon="15.6188889" version="1" timestamp="2022-07-03T06:53:02Z" changeset="123140434" uid="3497659" user="NKA">
		<tag k="alt_name" v="Gobakken" />
		<tag k="name" v="Godbakken" />
		<tag k="place" v="farm" />
		<tag k="ssr:stedsnr" v="745702" />
	</node>
	<node id="9863335962" lat="69.0023176" lon="15.7471372" version="1" timestamp="2022-07-03T06:53:02Z" changeset="123140434" uid="3497659" user="NKA">
		<tag k="name" v="Viddeheim" />
		<tag k="old_name" v="Viddheim II" />
		<tag k="place" v="farm" />
		<tag k="ssr:stedsnr" v="1078343" />
	</node>
	<node id="9863335963" lat="68.8844437" lon="15.5918096" version="1" timestamp="2022-07-03T06:53:02Z" changeset="123140434" uid="3497659" user="NKA">
		<tag k="name" v="Finvold" />
		<tag k="place" v="isolated_dwelling" />
		<tag k="ssr:stedsnr" v="824552" />
	</node>
	<node id="9863335964" lat="69.0598583" lon="15.7789751" version="1" timestamp="2022-07-03T06:53:02Z" changeset="123140434" uid="3497659" user="NKA">
		<tag k="name" v="Aspholen" />
		<tag k="place" v="farm" />
		<tag k="ssr:stedsnr" v="116125" />
	</node>
	<node id="9863335965" lat="68.9277778" lon="15.7843834" version="1" timestamp="2022-07-03T06:53:02Z" changeset="123140434" uid="3497659" user="NKA">
		<tag k="name" v="Ånesslåtta" />
		<tag k="place" v="locality" />
		<tag k="ssr:stedsnr" v="867511" />
	</node>
	<node id="9863335966" lat="69.014458" lon="15.8070915" version="1" timestamp="2022-07-03T06:53:02Z" changeset="123140434" uid="3497659" user="NKA">
		<tag k="name" v="Kjeldbakkan" />
		<tag k="old_name" v="Kildebakken" />
		<tag k="place" v="farm" />
		<tag k="ssr:stedsnr" v="643796" />
	</node>
	<node id="9863335967" lat="68.8860195" lon="15.7375056" version="1" timestamp="2022-07-03T06:53:02Z" changeset="123140434" uid="3497659" user="NKA">
		<tag k="name" v="Finngammen" />
		<tag k="place" v="locality" />
		<tag k="ssr:stedsnr" v="707855" />
	</node>
	<node id="9863335968" lat="69.2856639" lon="16.1717473" version="1" timestamp="2022-07-03T06:53:02Z" changeset="123140434" uid="3497659" user="NKA">
		<tag k="name" v="Tofta" />
		<tag k="place" v="locality" />
		<tag k="ssr:stedsnr" v="847818" />
	</node>
	<node id="9863335969" lat="69.1390605" lon="16.038506" version="1" timestamp="2022-07-03T06:53:02Z" changeset="123140434" uid="3497659" user="NKA">
		<tag k="name" v="Saura" />
		<tag k="place" v="farm" />
		<tag k="ssr:stedsnr" v="381264" />
	</node>
	<node id="9863335970" lat="68.9979083" lon="15.73305" version="1" timestamp="2022-07-03T06:53:02Z" changeset="123140434" uid="3497659" user="NKA">
		<tag k="name" v="Breines" />
		<tag k="place" v="farm" />
		<tag k="ssr:stedsnr" v="624392" />
	</node>
	<node id="9863335971" lat="68.9998131" lon="15.6357763" version="1" timestamp="2022-07-03T06:53:02Z" changeset="123140434" uid="3497659" user="NKA">
		<tag k="name" v="Bjørnskinn" />
		<tag k="place" v="hamlet" />
		<tag k="ssr:stedsnr" v="79047" />
	</node>
	<node id="9863335972" lat="69.3186445" lon="16.1296001" version="1" timestamp="2022-07-03T06:53:02Z" changeset="123140434" uid="3497659" user="NKA">
		<tag k="name" v="Vikan" />
		<tag k="place" v="quarter" />
		<tag k="ssr:stedsnr" v="847796" />
	</node>
	<node id="9863335973" lat="69.2461848" lon="16.1187078" version="1" timestamp="2022-07-03T06:53:02Z" changeset="123140434" uid="3497659" user="NKA">
		<tag k="alt_name" v="Skardstein" />
		<tag k="name" v="Skarstein" />
		<tag k="place" v="hamlet" />
		<tag k="ssr:stedsnr" v="563313" />
	</node>
	<node id="9863335974" lat="68.9655196" lon="15.7258526" version="1" timestamp="2022-07-03T06:53:02Z" changeset="123140434" uid="3497659" user="NKA">
		<tag k="name" v="Bakken" />
		<tag k="place" v="farm" />
		<tag k="ssr:stedsnr" v="339056" />
	</node>
	<node id="9863335975" lat="69.0740667" lon="15.9118777" version="1" timestamp="2022-07-03T06:53:02Z" changeset="123140434" uid="3497659" user="NKA">
		<tag k="name" v="Valneset" />
		<tag k="place" v="farm" />
		<tag k="ssr:stedsnr" v="17253" />
	</node>
	<node id="9863335976" lat="69.003025" lon="15.7527527" version="1" timestamp="2022-07-03T06:53:02Z" changeset="123140434" uid="3497659" user="NKA">
		<tag k="name" v="Sørstranda" />
		<tag k="place" v="farm" />
		<tag k="ssr:stedsnr" v="96385" />
	</node>
	<node id="9863335977" lat="69.0142472" lon="15.7898695" version="1" timestamp="2022-07-03T06:53:02Z" changeset="123140434" uid="3497659" user="NKA">
		<tag k="name" v="Lyngra" />
		<tag k="place" v="farm" />
		<tag k="ssr:stedsnr" v="279816" />
	</node>
	<node id="9863335978" lat="69.2567361" lon="16.1587111" version="1" timestamp="2022-07-03T06:53:02Z" changeset="123140434" uid="3497659" user="NKA">
		<tag k="name" v="Fagermo" />
		<tag k="place" v="farm" />
		<tag k="ssr:stedsnr" v="564204" />
	</node>
	<node id="9863335979" lat="68.9702936" lon="15.6333423" version="1" timestamp="2022-07-03T06:53:02Z" changeset="123140434" uid="3497659" user="NKA">
		<tag k="alt_name" v="Risøy" />
		<tag k="name" v="Risøya" />
		<tag k="place" v="farm" />
		<tag k="ssr:stedsnr" v="1076677" />
	</node>
	<node id="9863335980" lat="68.9974611" lon="15.7160916" version="1" timestamp="2022-07-03T06:53:02Z" changeset="123140434" uid="3497659" user="NKA">
		<tag k="name" v="Myrset" />
		<tag k="place" v="farm" />
		<tag k="ssr:stedsnr" v="261382" />
	</node>
	<node id="9863335981" lat="69.0755739" lon="15.557564" version="1" timestamp="2022-07-03T06:53:02Z" changeset="123140434" uid="3497659" user="NKA">
		<tag k="name" v="Dikvollen" />
		<tag k="place" v="farm" />
		<tag k="ssr:stedsnr" v="260394" />
	</node>
	<node id="9863335982" lat="68.9995038" lon="15.6421497" version="1" timestamp="2022-07-03T06:53:02Z" changeset="123140434" uid="3497659" user="NKA">
		<tag k="name" v="Nordgården" />
		<tag k="place" v="farm" />
		<tag k="ssr:stedsnr" v="35386" />
	</node>
	<node id="9863335983" lat="69.0441817" lon="15.5233293" version="1" timestamp="2022-07-03T06:53:02Z" changeset="123140434" uid="3497659" user="NKA">
		<tag k="name" v="Nord" />
		<tag k="place" v="farm" />
		<tag k="ssr:stedsnr" v="892735" />
	</node>
	<node id="9863335984" lat="68.96625" lon="15.7302999" version="1" timestamp="2022-07-03T06:53:02Z" changeset="123140434" uid="3497659" user="NKA">
		<tag k="name" v="Lovik" />
		<tag k="place" v="locality" />
		<tag k="ssr:stedsnr" v="114625" />
	</node>
	<node id="9863335985" lat="68.9968777" lon="15.7293222" version="1" timestamp="2022-07-03T06:53:02Z" changeset="123140434" uid="3497659" user="NKA">
		<tag k="name" v="Røbekk" />
		<tag k="old_name" v="Røbæk" />
		<tag k="place" v="farm" />
		<tag k="ssr:stedsnr" v="200380" />
	</node>
	<node id="9863335986" lat="69.31155" lon="16.0991638" version="1" timestamp="2022-07-03T06:53:02Z" changeset="123140434" uid="3497659" user="NKA">
		<tag k="name" v="Vestbyen" />
		<tag k="place" v="quarter" />
		<tag k="ssr:stedsnr" v="179783" />
	</node>
	<node id="9863335987" lat="68.9576972" lon="15.7000194" version="1" timestamp="2022-07-03T06:53:02Z" changeset="123140434" uid="3497659" user="NKA">
		<tag k="name" v="Tyssvoll" />
		<tag k="place" v="farm" />
		<tag k="ssr:stedsnr" v="885050" />
	</node>
	<node id="9863335988" lat="68.9851241" lon="15.5567402" version="1" timestamp="2022-07-03T06:53:02Z" changeset="123140434" uid="3497659" user="NKA">
		<tag k="name" v="Tranesvågen" />
		<tag k="place" v="hamlet" />
		<tag k="ssr:stedsnr" v="321539" />
	</node>
	<node id="9863335989" lat="69.3220782" lon="16.123158" version="1" timestamp="2022-07-03T06:53:02Z" changeset="123140434" uid="3497659" user="NKA">
		<tag k="name" v="Los plass" />
		<tag k="place" v="square" />
		<tag k="ssr:stedsnr" v="422807" />
	</node>
	<node id="9863335990" lat="68.9980389" lon="15.6973611" version="1" timestamp="2022-07-03T06:53:02Z" changeset="123140434" uid="3497659" user="NKA">
		<tag k="name" v="Nybrott" />
		<tag k="place" v="farm" />
		<tag k="ssr:stedsnr" v="868365" />
	</node>
	<node id="9863335991" lat="69.3236674" lon="16.1236186" version="1" timestamp="2022-07-03T06:53:02Z" changeset="123140434" uid="3497659" user="NKA">
		<tag k="name" v="Lankanholmen" />
		<tag k="place" v="farm" />
		<tag k="ssr:stedsnr" v="1084382" />
	</node>
	<node id="9863335992" lat="68.9713008" lon="15.4442756" version="1" timestamp="2022-07-03T06:53:02Z" changeset="123140434" uid="3497659" user="NKA">
		<tag k="name" v="Åknes" />
		<tag k="place" v="hamlet" />
		<tag k="ssr:stedsnr" v="867621" />
	</node>
	<node id="9863335993" lat="69.0826889" lon="15.5647111" version="1" timestamp="2022-07-03T06:53:02Z" changeset="123140434" uid="3497659" user="NKA">
		<tag k="name" v="Mellagården" />
		<tag k="place" v="farm" />
		<tag k="ssr:stedsnr" v="709773" />
	</node>
	<node id="9863335994" lat="69.0737972" lon="15.555475" version="1" timestamp="2022-07-03T06:53:02Z" changeset="123140434" uid="3497659" user="NKA">
		<tag k="name" v="Dikan" />
		<tag k="place" v="farm" />
		<tag k="ssr:stedsnr" v="709790" />
	</node>
	<node id="9863335995" lat="69.3150528" lon="16.1279029" version="1" timestamp="2022-07-03T06:53:02Z" changeset="123140434" uid="3497659" user="NKA">
		<tag k="name" v="Fyrjorda" />
		<tag k="place" v="quarter" />
		<tag k="ssr:stedsnr" v="968804" />
	</node>
	<node id="9863335996" lat="68.9548972" lon="15.6493716" version="1" timestamp="2022-07-03T06:53:02Z" changeset="123140434" uid="3497659" user="NKA">
		<tag k="name" v="Dragnes" />
		<tag k="place" v="village" />
		<tag k="ssr:stedsnr" v="321443" />
	</node>
	<node id="9863335997" lat="69.0982291" lon="15.6704756" version="1" timestamp="2022-07-03T06:53:02Z" changeset="123140434" uid="3497659" user="NKA">
		<tag k="name" v="Middagsfjellet" />
		<tag k="place" v="farm" />
		<tag k="ssr:stedsnr" v="17285" />
	</node>
	<node id="9863335998" lat="69.259825" lon="16.1644945" version="1" timestamp="2022-07-03T06:53:02Z" changeset="123140434" uid="3497659" user="NKA">
		<tag k="name" v="Gårdsraet" />
		<tag k="place" v="farm" />
		<tag k="ssr:stedsnr" v="18213" />
	</node>
	<node id="9863335999" lat="68.9537861" lon="15.6776972" version="1" timestamp="2022-07-03T06:53:02Z" changeset="123140434" uid="3497659" user="NKA">
		<tag k="name" v="Salstrand" />
		<tag k="place" v="farm" />
		<tag k="ssr:stedsnr" v="17489" />
	</node>
	<node id="9863336000" lat="69.0833719" lon="15.5616898" version="1" timestamp="2022-07-03T06:53:02Z" changeset="123140434" uid="3497659" user="NKA">
		<tag k="name" v="Nergården" />
		<tag k="place" v="farm" />
		<tag k="ssr:stedsnr" v="770770" />
	</node>
	<node id="9863336001" lat="68.9169111" lon="15.7055277" version="1" timestamp="2022-07-03T06:53:02Z" changeset="123140434" uid="3497659" user="NKA">
		<tag k="name" v="Ånestoften" />
		<tag k="place" v="isolated_dwelling" />
		<tag k="ssr:stedsnr" v="928418" />
	</node>
	<node id="9863336002" lat="69.250784" lon="15.871619" version="1" timestamp="2022-07-03T06:53:02Z" changeset="123140434" uid="3497659" user="NKA">
		<tag k="name" v="Otervika" />
		<tag k="place" v="locality" />
		<tag k="ssr:stedsnr" v="1076694" />
	</node>
	<node id="9863336003" lat="69.0429332" lon="15.5234499" version="1" timestamp="2022-07-03T06:53:02Z" changeset="123140434" uid="3497659" user="NKA">
		<tag k="name" v="Holan" />
		<tag k="place" v="farm" />
		<tag k="ssr:stedsnr" v="588773" />
	</node>
	<node id="9863336004" lat="68.8980625" lon="15.4244043" version="1" timestamp="2022-07-03T06:53:02Z" changeset="123140434" uid="3497659" user="NKA">
		<tag k="alt_name" v="Sandnes, store;Store Sandnes" />
		<tag k="name" v="Stor-Sandnes" />
		<tag k="place" v="hamlet" />
		<tag k="ssr:stedsnr" v="806729" />
	</node>
	<node id="9863336005" lat="68.9165889" lon="15.6119305" version="1" timestamp="2022-07-03T06:53:02Z" changeset="123140434" uid="3497659" user="NKA">
		<tag k="name" v="Lanes" />
		<tag k="place" v="farm" />
		<tag k="ssr:stedsnr" v="685664" />
	</node>
	<node id="9863336006" lat="68.8836869" lon="15.6026197" version="1" timestamp="2022-07-03T06:53:02Z" changeset="123140434" uid="3497659" user="NKA">
		<tag k="name" v="Bakken" />
		<tag k="place" v="farm" />
		<tag k="ssr:stedsnr" v="763567" />
	</node>
	<node id="9863336007" lat="69.2822667" lon="16.1710305" version="1" timestamp="2022-07-03T06:53:02Z" changeset="123140434" uid="3497659" user="NKA">
		<tag k="name" v="Solvoll" />
		<tag k="place" v="isolated_dwelling" />
		<tag k="ssr:stedsnr" v="19118" />
	</node>
	<node id="9863336008" lat="68.9205883" lon="15.5561951" version="1" timestamp="2022-07-03T06:53:02Z" changeset="123140434" uid="3497659" user="NKA">
		<tag k="name" v="Nygård" />
		<tag k="place" v="farm" />
		<tag k="ssr:stedsnr" v="156934" />
	</node>
	<node id="9863336009" lat="69.2841694" lon="16.1701723" version="1" timestamp="2022-07-03T06:53:02Z" changeset="123140434" uid="3497659" user="NKA">
		<tag k="name" v="Haugnes" />
		<tag k="place" v="locality" />
		<tag k="ssr:stedsnr" v="504102" />
	</node>
	<node id="9863336010" lat="69.0746396" lon="15.5618318" version="1" timestamp="2022-07-03T06:53:02Z" changeset="123140434" uid="3497659" user="NKA">
		<tag k="name" v="Gammelholen" />
		<tag k="place" v="farm" />
		<tag k="ssr:stedsnr" v="42743" />
	</node>
	<node id="9863336011" lat="68.8522849" lon="15.5762083" version="1" timestamp="2022-07-03T06:53:02Z" changeset="123140434" uid="3497659" user="NKA">
		<tag k="alt_name" v="Meby" />
		<tag k="name" v="Medby" />
		<tag k="place" v="hamlet" />
		<tag k="ssr:stedsnr" v="382277" />
	</node>
	<node id="9863336012" lat="68.9977973" lon="15.6817084" version="1" timestamp="2022-07-03T06:53:02Z" changeset="123140434" uid="3497659" user="NKA">
		<tag k="name" v="Myrvoll" />
		<tag k="place" v="farm" />
		<tag k="ssr:stedsnr" v="261383" />
	</node>
	<node id="9863336013" lat="69.1059735" lon="15.9630806" version="1" timestamp="2022-07-03T06:53:02Z" changeset="123140434" uid="3497659" user="NKA">
		<tag k="name" v="Myre" />
		<tag k="place" v="village" />
		<tag k="ssr:stedsnr" v="928176" />
	</node>
	<node id="9863336014" lat="68.930333" lon="15.6270039" version="1" timestamp="2022-07-03T06:53:02Z" changeset="123140434" uid="3497659" user="NKA">
		<tag k="alt_name" v="Toften" />
		<tag k="name" v="Toftar" />
		<tag k="place" v="farm" />
		<tag k="ssr:stedsnr" v="321462" />
	</node>
	<node id="9863336015" lat="69.1324472" lon="15.6749973" version="1" timestamp="2022-07-03T06:53:02Z" changeset="123140434" uid="3497659" user="NKA">
		<tag k="name" v="Melan" />
		<tag k="place" v="neighbourhood" />
		<tag k="ssr:stedsnr" v="642264" />
	</node>
	<node id="9863336016" lat="68.8734777" lon="15.5654416" version="1" timestamp="2022-07-03T06:53:02Z" changeset="123140434" uid="3497659" user="NKA">
		<tag k="name" v="Molund" />
		<tag k="place" v="farm" />
		<tag k="ssr:stedsnr" v="157486" />
	</node>
	<node id="9863341717" lat="68.9962805" lon="15.6759945" version="1" timestamp="2022-07-03T06:53:02Z" changeset="123140434" uid="3497659" user="NKA">
		<tag k="name" v="Øvereng" />
		<tag k="place" v="farm" />
		<tag k="ssr:stedsnr" v="79364" />
	</node>
	<node id="9863341718" lat="69.2708472" lon="15.9570361" version="1" timestamp="2022-07-03T06:53:02Z" changeset="123140434" uid="3497659" user="NKA">
		<tag k="name" v="Bruvollen" />
		<tag k="place" v="neighbourhood" />
		<tag k="ssr:stedsnr" v="564229" />
	</node>
	<node id="9863341719" lat="68.8834898" lon="15.6029349" version="1" timestamp="2022-07-03T06:53:02Z" changeset="123140434" uid="3497659" user="NKA">
		<tag k="name" v="Buksnesfjord" />
		<tag k="place" v="farm" />
		<tag k="ssr:stedsnr" v="867721" />
	</node>
	<node id="9863341720" lat="69.0013434" lon="15.7465185" version="1" timestamp="2022-07-03T06:53:02Z" changeset="123140434" uid="3497659" user="NKA">
		<tag k="name" v="Viddheim" />
		<tag k="place" v="farm" />
		<tag k="ssr:stedsnr" v="1078342" />
	</node>
	<node id="9863341721" lat="69.0127166" lon="15.7775721" version="1" timestamp="2022-07-03T06:53:02Z" changeset="123140434" uid="3497659" user="NKA">
		<tag k="name" v="Bogen" />
		<tag k="place" v="neighbourhood" />
		<tag k="ssr:stedsnr" v="704789" />
	</node>
	<node id="9863341722" lat="69.0631505" lon="15.7184838" version="1" timestamp="2022-07-03T06:53:02Z" changeset="123140434" uid="3497659" user="NKA">
		<tag k="alt_name" v="Svandal" />
		<tag k="name" v="Svandalen" />
		<tag k="place" v="farm" />
		<tag k="ssr:stedsnr" v="563214" />
	</node>
	<node id="9863341723" lat="69.0874036" lon="15.638095" version="1" timestamp="2022-07-03T06:53:02Z" changeset="123140434" uid="3497659" user="NKA">
		<tag k="name" v="Maurtua" />
		<tag k="place" v="isolated_dwelling" />
		<tag k="ssr:stedsnr" v="787219" />
	</node>
	<node id="9863341724" lat="68.9250861" lon="15.4642749" version="1" timestamp="2022-07-03T06:53:02Z" changeset="123140434" uid="3497659" user="NKA">
		<tag k="name" v="Åsen" />
		<tag k="place" v="locality" />
		<tag k="ssr:stedsnr" v="868602" />
	</node>
	<node id="9863341725" lat="69.0857389" lon="15.9229833" version="1" timestamp="2022-07-03T06:53:02Z" changeset="123140434" uid="3497659" user="NKA">
		<tag k="name" v="Høyning" />
		<tag k="place" v="farm" />
		<tag k="ssr:stedsnr" v="764009" />
	</node>
	<node id="9863341726" lat="69.0194362" lon="15.5962695" version="1" timestamp="2022-07-03T06:53:02Z" changeset="123140434" uid="3497659" user="NKA">
		<tag k="name" v="Øverdalsplassen" />
		<tag k="place" v="isolated_dwelling" />
		<tag k="ssr:stedsnr" v="785980" />
	</node>
	<node id="9863341727" lat="68.9515333" lon="15.6662055" version="1" timestamp="2022-07-03T06:53:02Z" changeset="123140434" uid="3497659" user="NKA">
		<tag k="name" v="Ryddeng" />
		<tag k="place" v="farm" />
		<tag k="ssr:stedsnr" v="381472" />
	</node>
	<node id="9863341728" lat="68.9237111" lon="15.5653055" version="1" timestamp="2022-07-03T06:53:02Z" changeset="123140434" uid="3497659" user="NKA">
		<tag k="name" v="Nygård" />
		<tag k="place" v="hamlet" />
		<tag k="ssr:stedsnr" v="442697" />
	</node>
	<node id="9863341729" lat="68.838689" lon="15.7052694" version="1" timestamp="2022-07-03T06:53:02Z" changeset="123140434" uid="3497659" user="NKA">
		<tag k="name" v="Holman" />
		<tag k="place" v="isolated_dwelling" />
		<tag k="ssr:stedsnr" v="260026" />
	</node>
	<node id="9863341730" lat="68.8396389" lon="15.6940584" version="1" timestamp="2022-07-03T06:53:02Z" changeset="123140434" uid="3497659" user="NKA">
		<tag k="name" v="Nyheim" />
		<tag k="place" v="farm" />
		<tag k="ssr:stedsnr" v="381020" />
	</node>
	<node id="9863341731" lat="68.8375743" lon="15.6121633" version="1" timestamp="2022-07-03T06:53:02Z" changeset="123140434" uid="3497659" user="NKA">
		<tag k="name" v="Myran" />
		<tag k="place" v="hamlet" />
		<tag k="ssr:stedsnr" v="260022" />
	</node>
	<node id="9863341732" lat="68.9225591" lon="15.6201735" version="1" timestamp="2022-07-03T06:53:02Z" changeset="123140434" uid="3497659" user="NKA">
		<tag k="alt_name" v="Stranda" />
		<tag k="name" v="Buksnesstranda" />
		<tag k="place" v="farm" />
		<tag k="ssr:stedsnr" v="98857" />
	</node>
	<node id="9863341733" lat="69.0455473" lon="15.5624389" version="1" timestamp="2022-07-03T06:53:02Z" changeset="123140434" uid="3497659" user="NKA">
		<tag k="name" v="Loftan" />
		<tag k="place" v="isolated_dwelling" />
		<tag k="ssr:stedsnr" v="503328" />
	</node>
	<node id="9863341734" lat="69.0152028" lon="15.8160028" version="1" timestamp="2022-07-03T06:53:02Z" changeset="123140434" uid="3497659" user="NKA">
		<tag k="name" v="Leite" />
		<tag k="place" v="farm" />
		<tag k="ssr:stedsnr" v="218761" />
	</node>
	<node id="9863341735" lat="69.0985291" lon="15.6669885" version="1" timestamp="2022-07-03T06:53:02Z" changeset="123140434" uid="3497659" user="NKA">
		<tag k="name" v="Fjellstad" />
		<tag k="place" v="farm" />
		<tag k="ssr:stedsnr" v="665268" />
	</node>
	<node id="9863341736" lat="68.9336778" lon="15.6334943" version="1" timestamp="2022-07-03T06:53:02Z" changeset="123140434" uid="3497659" user="NKA">
		<tag k="name" v="Alset" />
		<tag k="place" v="farm" />
		<tag k="ssr:stedsnr" v="200513" />
	</node>
	<node id="9863341737" lat="68.8841457" lon="15.441363" version="1" timestamp="2022-07-03T06:53:02Z" changeset="123140434" uid="3497659" user="NKA">
		<tag k="alt_name" v="Sandnes, litle;Litle Sandnes" />
		<tag k="name" v="Littje-Sandnes" />
		<tag k="place" v="farm" />
		<tag k="ssr:stedsnr" v="527687" />
	</node>
	<node id="9863341738" lat="69.3217395" lon="16.1245111" version="1" timestamp="2022-07-03T06:53:02Z" changeset="123140434" uid="3497659" user="NKA">
		<tag k="name" v="Torvet" />
		<tag k="place" v="square" />
		<tag k="ssr:stedsnr" v="786796" />
	</node>
	<node id="9863341739" lat="69.0962" lon="15.945375" version="1" timestamp="2022-07-03T06:53:02Z" changeset="123140434" uid="3497659" user="NKA">
		<tag k="name" v="Barå" />
		<tag k="place" v="farm" />
		<tag k="ssr:stedsnr" v="278892" />
	</node>
	<node id="9863341740" lat="69.0154" lon="15.7984167" version="1" timestamp="2022-07-03T06:53:02Z" changeset="123140434" uid="3497659" user="NKA">
		<tag k="name" v="Grindtaet" />
		<tag k="place" v="farm" />
		<tag k="ssr:stedsnr" v="36811" />
	</node>
	<node id="9863341741" lat="69.3236754" lon="16.1178873" version="1" timestamp="2022-07-03T06:53:02Z" changeset="123140434" uid="3497659" user="NKA">
		<tag k="name" v="Dorps plass" />
		<tag k="place" v="square" />
		<tag k="ssr:stedsnr" v="725771" />
	</node>
	<node id="9863341742" lat="69.2507528" lon="16.1402167" version="1" timestamp="2022-07-03T06:53:02Z" changeset="123140434" uid="3497659" user="NKA">
		<tag k="name" v="Norgård" />
		<tag k="place" v="farm" />
		<tag k="ssr:stedsnr" v="764926" />
	</node>
	<node id="9863341743" lat="69.1346762" lon="15.6924425" version="1" timestamp="2022-07-03T06:53:02Z" changeset="123140434" uid="3497659" user="NKA">
		<tag k="name" v="Leite" />
		<tag k="place" v="farm" />
		<tag k="ssr:stedsnr" v="180052" />
	</node>
	<node id="9863341744" lat="69.2325917" lon="15.8684835" version="1" timestamp="2022-07-03T06:53:02Z" changeset="123140434" uid="3497659" user="NKA">
		<tag k="name" v="Littje-Kuforet" />
		<tag k="place" v="farm" />
		<tag k="ssr:stedsnr" v="218667" />
	</node>
	<node id="9863341745" lat="69.0972695" lon="15.7445888" version="1" timestamp="2022-07-03T06:53:02Z" changeset="123140434" uid="3497659" user="NKA">
		<tag k="name" v="Tofta" />
		<tag k="place" v="farm" />
		<tag k="ssr:stedsnr" v="59212" />
	</node>
	<node id="9863341746" lat="69.0571084" lon="15.6881971" version="1" timestamp="2022-07-03T06:53:02Z" changeset="123140434" uid="3497659" user="NKA">
		<tag k="alt_name" v="Bødal" />
		<tag k="name" v="Bødalen" />
		<tag k="place" v="isolated_dwelling" />
		<tag k="ssr:stedsnr" v="503183" />
	</node>
	<node id="9863341747" lat="69.1852361" lon="15.8264723" version="1" timestamp="2022-07-03T06:53:02Z" changeset="123140434" uid="3497659" user="NKA">
		<tag k="name" v="Solheim" />
		<tag k="place" v="farm" />
		<tag k="ssr:stedsnr" v="467330" />
	</node>
	<node id="9863341748" lat="69.2854695" lon="16.166289" version="1" timestamp="2022-07-03T06:53:02Z" changeset="123140434" uid="3497659" user="NKA">
		<tag k="name" v="Nordgården" />
		<tag k="place" v="farm" />
		<tag k="ssr:stedsnr" v="300805" />
	</node>
	<node id="9863341749" lat="69.254177" lon="16.1514573" version="1" timestamp="2022-07-03T06:53:02Z" changeset="123140434" uid="3497659" user="NKA">
		<tag k="name" v="Fiskenes" />
		<tag k="place" v="farm" />
		<tag k="ssr:stedsnr" v="240839" />
	</node>
	<node id="9863341750" lat="69.1328473" lon="15.6742084" version="1" timestamp="2022-07-03T06:53:02Z" changeset="123140434" uid="3497659" user="NKA">
		<tag k="name" v="Sør-Nordmela" />
		<tag k="place" v="hamlet" />
		<tag k="ssr:stedsnr" v="217394" />
	</node>
	<node id="9863341751" lat="69.1080222" lon="15.9491874" version="1" timestamp="2022-07-03T06:53:02Z" changeset="123140434" uid="3497659" user="NKA">
		<tag k="name" v="Myre" />
		<tag k="place" v="farm" />
		<tag k="ssr:stedsnr" v="1076691" />
	</node>
	<node id="9863341752" lat="69.2664862" lon="16.0147804" version="1" timestamp="2022-07-03T06:53:02Z" changeset="123140434" uid="3497659" user="NKA">
		<tag k="alt_name" v="Møskje" />
		<tag k="name" v="Møsje" />
		<tag k="place" v="isolated_dwelling" />
		<tag k="ssr:stedsnr" v="200236" />
	</node>
	<node id="9863341753" lat="69.1252584" lon="15.9375528" version="1" timestamp="2022-07-03T06:53:02Z" changeset="123140434" uid="3497659" user="NKA">
		<tag k="name" v="Skogstad" />
		<tag k="place" v="farm" />
		<tag k="ssr:stedsnr" v="442291" />
	</node>
	<node id="9863341754" lat="69.32333" lon="16.1248158" version="1" timestamp="2022-07-03T06:53:02Z" changeset="123140434" uid="3497659" user="NKA">
		<tag k="name" v="Østre Lankanholmen" />
		<tag k="place" v="farm" />
		<tag k="ssr:stedsnr" v="1084383" />
	</node>
	<node id="9863341755" lat="69.1243278" lon="15.9564251" version="1" timestamp="2022-07-03T06:53:02Z" changeset="123140434" uid="3497659" user="NKA">
		<tag k="name" v="Støa" />
		<tag k="place" v="isolated_dwelling" />
		<tag k="ssr:stedsnr" v="885376" />
	</node>
	<node id="9863341756" lat="69.2683417" lon="16.1642806" version="1" timestamp="2022-07-03T06:53:02Z" changeset="123140434" uid="3497659" user="NKA">
		<tag k="name" v="Haugland" />
		<tag k="place" v="farm" />
		<tag k="ssr:stedsnr" v="928203" />
	</node>
	<node id="9863341757" lat="69.0018806" lon="15.7523499" version="1" timestamp="2022-07-03T06:53:02Z" changeset="123140434" uid="3497659" user="NKA">
		<tag k="name" v="Framnes" />
		<tag k="place" v="farm" />
		<tag k="ssr:stedsnr" v="928046" />
	</node>
	<node id="9863341758" lat="69.2535528" lon="16.1506611" version="1" timestamp="2022-07-03T06:53:02Z" changeset="123140434" uid="3497659" user="NKA">
		<tag k="name" v="Fagerlund" />
		<tag k="place" v="farm" />
		<tag k="ssr:stedsnr" v="868199" />
	</node>
	<node id="9863341759" lat="68.8972695" lon="15.5296112" version="1" timestamp="2022-07-03T06:53:02Z" changeset="123140434" uid="3497659" user="NKA">
		<tag k="name" v="Heimtun" />
		<tag k="place" v="farm" />
		<tag k="ssr:stedsnr" v="399947" />
	</node>
	<node id="9863341760" lat="68.8619528" lon="15.5613796" version="1" timestamp="2022-07-03T06:53:02Z" changeset="123140434" uid="3497659" user="NKA">
		<tag k="name" v="Fornes" />
		<tag k="place" v="hamlet" />
		<tag k="ssr:stedsnr" v="442787" />
	</node>
	<node id="9863341761" lat="68.9049333" lon="15.6162138" version="1" timestamp="2022-07-03T06:53:02Z" changeset="123140434" uid="3497659" user="NKA">
		<tag k="name" v="Berget" />
		<tag k="place" v="farm" />
		<tag k="ssr:stedsnr" v="161847" />
	</node>
	<node id="9863341762" lat="68.9751589" lon="15.4307558" version="1" timestamp="2022-07-03T06:53:02Z" changeset="123140434" uid="3497659" user="NKA">
		<tag k="name" v="Nordjord" />
		<tag k="place" v="farm" />
		<tag k="ssr:stedsnr" v="161584" />
	</node>
	<node id="9863341763" lat="69.0829612" lon="15.9173445" version="1" timestamp="2022-07-03T06:53:02Z" changeset="123140434" uid="3497659" user="NKA">
		<tag k="name" v="Nordmo" />
		<tag k="place" v="farm" />
		<tag k="ssr:stedsnr" v="339337" />
	</node>
	<node id="9863341764" lat="68.9240348" lon="15.4482735" version="1" timestamp="2022-07-03T06:53:02Z" changeset="123140434" uid="3497659" user="NKA">
		<tag k="name" v="Svindalen" />
		<tag k="place" v="farm" />
		<tag k="ssr:stedsnr" v="503597" />
	</node>
	<node id="9863341765" lat="69.0969946" lon="15.750987" version="1" timestamp="2022-07-03T06:53:02Z" changeset="123140434" uid="3497659" user="NKA">
		<tag k="alt_name" v="Åbergsjordet;Åbergsjord" />
		<tag k="name" v="Åbergsjorda" />
		<tag k="place" v="farm" />
		<tag k="ssr:stedsnr" v="321186" />
	</node>
	<node id="9863341766" lat="69.0887802" lon="15.9294182" version="1" timestamp="2022-07-03T06:53:02Z" changeset="123140434" uid="3497659" user="NKA">
		<tag k="name" v="Lager" />
		<tag k="place" v="farm" />
		<tag k="ssr:stedsnr" v="301320" />
	</node>
	<node id="9863341767" lat="68.8847822" lon="15.4981762" version="1" timestamp="2022-07-03T06:53:02Z" changeset="123140434" uid="3497659" user="NKA">
		<tag k="alt_name" v="Skjolda" />
		<tag k="name" v="Skjolde" />
		<tag k="place" v="farm" />
		<tag k="ssr:stedsnr" v="928654" />
	</node>
	<node id="9863341768" lat="68.8686583" lon="15.5609417" version="1" timestamp="2022-07-03T06:53:02Z" changeset="123140434" uid="3497659" user="NKA">
		<tag k="name" v="Molund" />
		<tag k="place" v="farm" />
		<tag k="ssr:stedsnr" v="885945" />
	</node>
	<node id="9863341769" lat="69.1312556" lon="16.0091029" version="1" timestamp="2022-07-03T06:53:02Z" changeset="123140434" uid="3497659" user="NKA">
		<tag k="name" v="Bogen" />
		<tag k="place" v="farm" />
		<tag k="ssr:stedsnr" v="520171" />
	</node>
	<node id="9863341770" lat="69.1857317" lon="16.0634557" version="1" timestamp="2022-07-03T06:53:02Z" changeset="123140434" uid="3497659" user="NKA">
		<tag k="alt_name" v="Ramså" />
		<tag k="name" v="Ramsa" />
		<tag k="place" v="hamlet" />
		<tag k="ssr:stedsnr" v="381143" />
	</node>
	<node id="9863341771" lat="69.2633027" lon="16.0697805" version="1" timestamp="2022-07-03T06:53:02Z" changeset="123140434" uid="3497659" user="NKA">
		<tag k="name" v="Nytoften Nordre" />
		<tag k="place" v="farm" />
		<tag k="ssr:stedsnr" v="36559" />
	</node>
	<node id="9863341772" lat="68.8907083" lon="15.5225388" version="1" timestamp="2022-07-03T06:53:02Z" changeset="123140434" uid="3497659" user="NKA">
		<tag k="name" v="Lanes" />
		<tag k="place" v="farm" />
		<tag k="ssr:stedsnr" v="386104" />
	</node>
	<node id="9863341773" lat="69.1022195" lon="15.9577695" version="1" timestamp="2022-07-03T06:53:02Z" changeset="123140434" uid="3497659" user="NKA">
		<tag k="name" v="Dahle" />
		<tag k="place" v="farm" />
		<tag k="ssr:stedsnr" v="96865" />
	</node>
	<node id="9863341774" lat="69.1609222" lon="16.0948388" version="1" timestamp="2022-07-03T06:53:02Z" changeset="123140434" uid="3497659" user="NKA">
		<tag k="name" v="Toften" />
		<tag k="place" v="locality" />
		<tag k="ssr:stedsnr" v="339887" />
	</node>
	<node id="9863341775" lat="69.2561514" lon="16.0444718" version="1" timestamp="2022-07-03T06:53:02Z" changeset="123140434" uid="3497659" user="NKA">
		<tag k="name" v="Haugnes" />
		<tag k="place" v="farm" />
		<tag k="ssr:stedsnr" v="1076697" />
	</node>
	<node id="9863341776" lat="68.9627408" lon="15.5823965" version="1" timestamp="2022-07-03T06:53:02Z" changeset="123140434" uid="3497659" user="NKA">
		<tag k="name" v="Tranes" />
		<tag k="place" v="farm" />
		<tag k="ssr:stedsnr" v="571929" />
	</node>
	<node id="9863341777" lat="68.9721139" lon="15.5490888" version="1" timestamp="2022-07-03T06:53:02Z" changeset="123140434" uid="3497659" user="NKA">
		<tag k="name" v="Buskerud" />
		<tag k="place" v="isolated_dwelling" />
		<tag k="ssr:stedsnr" v="360952" />
	</node>
	<node id="9863341778" lat="69.0972207" lon="15.6281688" version="1" timestamp="2022-07-03T06:53:02Z" changeset="123140434" uid="3497659" user="NKA">
		<tag k="name" v="Uroa" />
		<tag k="place" v="isolated_dwelling" />
		<tag k="ssr:stedsnr" v="969256" />
	</node>
	<node id="9863341779" lat="68.9689972" lon="15.7338638" version="1" timestamp="2022-07-03T06:53:02Z" changeset="123140434" uid="3497659" user="NKA">
		<tag k="name" v="Kvalvika" />
		<tag k="place" v="farm" />
		<tag k="ssr:stedsnr" v="96058" />
	</node>
	<node id="9863341780" lat="69.0477972" lon="15.8794918" version="1" timestamp="2022-07-03T06:53:02Z" changeset="123140434" uid="3497659" user="NKA">
		<tag k="name" v="Øyra" />
		<tag k="place" v="farm" />
		<tag k="ssr:stedsnr" v="18043" />
	</node>
	<node id="9863341781" lat="69.1179283" lon="15.9743232" version="1" timestamp="2022-07-03T06:53:02Z" changeset="123140434" uid="3497659" user="NKA">
		<tag k="loc_name:se" v="Dearka" />
		<tag k="name" v="Dverberg" />
		<tag k="name:no" v="Dverberg" />
		<tag k="place" v="farm" />
		<tag k="ssr:stedsnr" v="885406" />
	</node>
	<node id="9863341782" lat="69.1244839" lon="15.9461125" version="1" timestamp="2022-07-03T06:53:02Z" changeset="123140434" uid="3497659" user="NKA">
		<tag k="name" v="Bjørkmo" />
		<tag k="place" v="farm" />
		<tag k="ssr:stedsnr" v="867289" />
	</node>
	<node id="9863341783" lat="68.9865011" lon="15.4479973" version="1" timestamp="2022-07-03T06:53:02Z" changeset="123140434" uid="3497659" user="NKA">
		<tag k="alt_name" v="Søndre Mjele" />
		<tag k="name" v="Sørmela" />
		<tag k="place" v="hamlet" />
		<tag k="ssr:stedsnr" v="199575" />
	</node>
	<node id="9863341784" lat="68.8948334" lon="15.4258556" version="1" timestamp="2022-07-03T06:53:02Z" changeset="123140434" uid="3497659" user="NKA">
		<tag k="name" v="Stranda" />
		<tag k="place" v="farm" />
		<tag k="ssr:stedsnr" v="278049" />
	</node>
	<node id="9863341785" lat="68.919875" lon="15.4427555" version="1" timestamp="2022-07-03T06:53:02Z" changeset="123140434" uid="3497659" user="NKA">
		<tag k="name" v="Dale" />
		<tag k="place" v="farm" />
		<tag k="ssr:stedsnr" v="404558" />
	</node>
	<node id="9863341786" lat="69.302575" lon="16.0664251" version="1" timestamp="2022-07-03T06:53:02Z" changeset="123140434" uid="3497659" user="NKA">
		<tag k="name" v="Haugland" />
		<tag k="place" v="farm" />
		<tag k="ssr:stedsnr" v="686132" />
	</node>
	<node id="9863341787" lat="68.9402019" lon="15.6397032" version="1" timestamp="2022-07-03T06:53:02Z" changeset="123140434" uid="3497659" user="NKA">
		<tag k="name" v="Alsrud" />
		<tag k="place" v="farm" />
		<tag k="ssr:stedsnr" v="825426" />
	</node>
	<node id="9863341788" lat="69.272581" lon="15.9554275" version="1" timestamp="2022-07-03T06:53:02Z" changeset="123140434" uid="3497659" user="NKA">
		<tag k="name" v="Mellagården" />
		<tag k="place" v="neighbourhood" />
		<tag k="ssr:stedsnr" v="785869" />
	</node>
	<node id="9863341789" lat="69.2745639" lon="15.9623582" version="1" timestamp="2022-07-03T06:53:02Z" changeset="123140434" uid="3497659" user="NKA">
		<tag k="name" v="Nordgården" />
		<tag k="place" v="neighbourhood" />
		<tag k="ssr:stedsnr" v="139143" />
	</node>
	<node id="9863341790" lat="68.926757" lon="15.4439828" version="1" timestamp="2022-07-03T06:53:02Z" changeset="123140434" uid="3497659" user="NKA">
		<tag k="name" v="Sørjord" />
		<tag k="place" v="farm" />
		<tag k="ssr:stedsnr" v="222528" />
	</node>
	<node id="9863341791" lat="68.981202" lon="15.4360024" version="1" timestamp="2022-07-03T06:53:02Z" changeset="123140434" uid="3497659" user="NKA">
		<tag k="name" v="Prøven" />
		<tag k="place" v="isolated_dwelling" />
		<tag k="ssr:stedsnr" v="222559" />
	</node>
	<node id="9863341792" lat="68.981575" lon="15.5631418" version="1" timestamp="2022-07-03T06:53:02Z" changeset="123140434" uid="3497659" user="NKA">
		<tag k="name" v="Stokkland" />
		<tag k="place" v="hamlet" />
		<tag k="ssr:stedsnr" v="750083" />
	</node>
	<node id="9863341793" lat="69.3018833" lon="16.0659306" version="1" timestamp="2022-07-03T06:53:02Z" changeset="123140434" uid="3497659" user="NKA">
		<tag k="name" v="Damsgård" />
		<tag k="place" v="neighbourhood" />
		<tag k="ssr:stedsnr" v="339839" />
	</node>
	<node id="9863341794" lat="68.8332611" lon="15.6507028" version="1" timestamp="2022-07-03T06:53:02Z" changeset="123140434" uid="3497659" user="NKA">
		<tag k="alt_name" v="Nordjorden" />
		<tag k="name" v="Nordjorda" />
		<tag k="place" v="farm" />
		<tag k="ssr:stedsnr" v="217997" />
	</node>
	<node id="5351505391" lat="68.9667869" lon="15.6310921" version="1" timestamp="2018-01-20T19:01:34Z" changeset="55610984" uid="3296383" user="Reitstoen_import" />
	<node id="9721941966" lat="68.9663874" lon="15.6323487" version="1" timestamp="2022-05-07T05:47:26Z" changeset="120654432" uid="715936" user="Gazer75" />
	<node id="9721941967" lat="68.9660707" lon="15.6333947" version="1" timestamp="2022-05-07T05:47:26Z" changeset="120654432" uid="715936" user="Gazer75" />
	<node id="5351505389" lat="68.9624682" lon="15.6457432" version="1" timestamp="2018-01-20T19:01:34Z" changeset="55610984" uid="3296383" user="Reitstoen_import" />
	<way id="75688851" version="11" timestamp="2022-05-07T05:47:26Z" changeset="120654432" uid="715936" user="Gazer75">
		<tag k="bridge" v="yes" />
		<tag k="foot" v="yes" />
		<tag k="highway" v="primary" />
		<tag k="layer" v="1" />
		<tag k="maxspeed" v="80" />
		<tag k="name" v="Andøybrua - Ánddarovvi" />
		<tag k="name:no" v="Andøybrua" />
		<tag k="name:se" v="Ánddarovvi" />
		<tag k="ref" v="82" />
		<tag k="ssr:stedsnr" v="117591" />
		<tag k="wikidata" v="Q4129870" />
		<nd ref="5351505389" />
		<nd ref="9721941967" />
		<nd ref="9721941966" />
		<nd ref="5351505391" />
	</way>
</osm>
