<?xml version="1.0" encoding="UTF-8"?>
<osm generator="osmapis" version="0.6">
	<node id="-238677" lat="60.2701833365" lon="11.5678472138">
		<tag k="name" v="Togstadveien" />
		<tag k="ssr:date" v="2019-12-27" />
		<tag k="ssr:gruppe" v="veg" />
		<tag k="ssr:hovedgruppe" v="infrastruktur" />
		<tag k="ssr:stedsnr" v="56626" />
		<tag k="ssr:type" v="vegstrekning" />
	</node>
	<node id="-237676" lat="60.122513887" lon="11.4656999921">
		<tag k="name" v="Nes kommune" />
		<tag k="ssr:date" v="2019-12-27" />
		<tag k="ssr:gruppe" v="administrativeIndelinger" />
		<tag k="ssr:hovedgruppe" v="offentligAdministrasjon" />
		<tag k="ssr:stedsnr" v="389273" />
		<tag k="ssr:type" v="kommune" />
	</node>
	<node id="-237799" lat="60.095280558" lon="11.6197194515">
		<tag k="name" v="Storliveien" />
		<tag k="ssr:date" v="2019-12-27" />
		<tag k="ssr:gruppe" v="veg" />
		<tag k="ssr:hovedgruppe" v="infrastruktur" />
		<tag k="ssr:stedsnr" v="662976" />
		<tag k="ssr:type" v="vegstrekning" />
	</node>
	<node id="-238310" lat="60.2422305511" lon="11.291430562">
		<tag k="name" v="Brattstupveien" />
		<tag k="ssr:date" v="2019-12-27" />
		<tag k="ssr:gruppe" v="veg" />
		<tag k="ssr:hovedgruppe" v="infrastruktur" />
		<tag k="ssr:stedsnr" v="905091" />
		<tag k="ssr:type" v="vegstrekning" />
	</node>
	<node id="-238947" lat="60.211483332" lon="11.4858472183">
		<tag k="name" v="Brattås-søndagsmyrveien" />
		<tag k="ssr:date" v="2019-12-27" />
		<tag k="ssr:gruppe" v="veg" />
		<tag k="ssr:hovedgruppe" v="infrastruktur" />
		<tag k="ssr:stedsnr" v="177381" />
		<tag k="ssr:type" v="vegstrekning" />
	</node>
	<node id="-239585" lat="60.3020583314" lon="11.4633833271">
		<tag k="name" v="Elgheimveien" />
		<tag k="ssr:date" v="2019-12-27" />
		<tag k="ssr:gruppe" v="veg" />
		<tag k="ssr:hovedgruppe" v="infrastruktur" />
		<tag k="ssr:stedsnr" v="602627" />
		<tag k="ssr:type" v="vegstrekning" />
	</node>
	<node id="-238943" lat="60.289247225" lon="11.5075666722">
		<tag k="name" v="Gusterudveien" />
		<tag k="ssr:date" v="2019-12-27" />
		<tag k="ssr:gruppe" v="veg" />
		<tag k="ssr:hovedgruppe" v="infrastruktur" />
		<tag k="ssr:stedsnr" v="177546" />
		<tag k="ssr:type" v="vegstrekning" />
	</node>
	<node id="-237787" lat="60.3001666704" lon="11.4510055569">
		<tag k="name" v="Sjursteinveien" />
		<tag k="ssr:date" v="2019-12-27" />
		<tag k="ssr:gruppe" v="veg" />
		<tag k="ssr:hovedgruppe" v="infrastruktur" />
		<tag k="ssr:stedsnr" v="662639" />
		<tag k="ssr:type" v="vegstrekning" />
	</node>
	<node id="-239695" lat="60.0475444448" lon="11.7005972307">
		<tag k="name" v="Grueveien" />
		<tag k="ssr:date" v="2019-12-27" />
		<tag k="ssr:gruppe" v="veg" />
		<tag k="ssr:hovedgruppe" v="infrastruktur" />
		<tag k="ssr:stedsnr" v="769927" />
		<tag k="ssr:type" v="vegstrekning" />
	</node>
	<node id="-237840" lat="60.2470111149" lon="11.4565361149">
		<tag k="name" v="Fyrivangveien" />
		<tag k="ssr:date" v="2019-12-27" />
		<tag k="ssr:gruppe" v="veg" />
		<tag k="ssr:hovedgruppe" v="infrastruktur" />
		<tag k="ssr:stedsnr" v="480062" />
		<tag k="ssr:type" v="vegstrekning" />
	</node>
	<node id="-238805" lat="60.0727416704" lon="11.654280559">
		<tag k="name" v="Gravdalsveien" />
		<tag k="ssr:date" v="2019-12-27" />
		<tag k="ssr:gruppe" v="veg" />
		<tag k="ssr:hovedgruppe" v="infrastruktur" />
		<tag k="ssr:stedsnr" v="116288" />
		<tag k="ssr:type" v="vegstrekning" />
	</node>
	<node id="-238292" lat="60.2627027777" lon="11.5802083294">
		<tag k="name" v="Grasbergveien" />
		<tag k="ssr:date" v="2019-12-27" />
		<tag k="ssr:gruppe" v="veg" />
		<tag k="ssr:hovedgruppe" v="infrastruktur" />
		<tag k="ssr:stedsnr" v="723853" />
		<tag k="ssr:type" v="vegstrekning" />
	</node>
	<node id="-237778" lat="60.3008166653" lon="11.4576777849">
		<tag k="name" v="Dalsveien" />
		<tag k="ssr:date" v="2019-12-27" />
		<tag k="ssr:gruppe" v="veg" />
		<tag k="ssr:hovedgruppe" v="infrastruktur" />
		<tag k="ssr:stedsnr" v="662595" />
		<tag k="ssr:type" v="vegstrekning" />
	</node>
	<node id="-237392" lat="60.0689916696" lon="11.6562638932">
		<tag k="name" v="Løkenliveien" />
		<tag k="ssr:date" v="2019-12-27" />
		<tag k="ssr:gruppe" v="veg" />
		<tag k="ssr:hovedgruppe" v="infrastruktur" />
		<tag k="ssr:stedsnr" v="298287" />
		<tag k="ssr:type" v="vegstrekning" />
	</node>
	<node id="-240056" lat="60.176770381" lon="11.5088471896">
		<tag k="name" v="Granlikroken" />
		<tag k="ssr:date" v="2019-12-27" />
		<tag k="ssr:gruppe" v="veg" />
		<tag k="ssr:hovedgruppe" v="infrastruktur" />
		<tag k="ssr:stedsnr" v="979217" />
		<tag k="ssr:type" v="adressenavn" />
	</node>
	<node id="-238028" lat="60.2873305542" lon="11.4426249986">
		<tag k="name" v="Torvtjernveien" />
		<tag k="ssr:date" v="2019-12-27" />
		<tag k="ssr:gruppe" v="veg" />
		<tag k="ssr:hovedgruppe" v="infrastruktur" />
		<tag k="ssr:stedsnr" v="601616" />
		<tag k="ssr:type" v="vegstrekning" />
	</node>
	<node id="-240075" lat="69.6388889725" lon="30.5666644427">
		<tag k="fixme" v="multiple name tags, choose one and add the other to alt_name" />
		<tag k="loc_name:se" v="Norgga gonagasriika" />
		<tag k="loc_name:sma" v="Nöörjen gånkarïjhke" />
		<tag k="loc_name:smj" v="Vuona gånågisrijkka" />
		<tag k="name" v="Noreg;Norge" />
		<tag k="name:en" v="Norway" />
		<tag k="name:no" v="Noreg;Norge" />
		<tag k="ssr:date" v="2020-06-04" />
		<tag k="ssr:gruppe" v="administrativeIndelinger" />
		<tag k="ssr:hovedgruppe" v="offentligAdministrasjon" />
		<tag k="ssr:stedsnr" v="26330" />
		<tag k="ssr:type" v="nasjon" />
	</node>
	<node id="-240074" lat="60.0329851474" lon="11.3448174629">
		<tag k="name" v="Kværnkallen" />
		<tag k="ssr:date" v="2020-02-24" />
		<tag k="ssr:gruppe" v="veg" />
		<tag k="ssr:hovedgruppe" v="infrastruktur" />
		<tag k="ssr:stedsnr" v="1075535" />
		<tag k="ssr:type" v="adressenavn" />
	</node>
	<node id="-240073" lat="59.9116896876" lon="10.7581882267">
		<tag k="name" v="Viken fylke" />
		<tag k="ssr:date" v="2020-01-13" />
		<tag k="ssr:gruppe" v="administrativeIndelinger" />
		<tag k="ssr:hovedgruppe" v="offentligAdministrasjon" />
		<tag k="ssr:stedsnr" v="1074403" />
		<tag k="ssr:type" v="fylke" />
	</node>
	<node id="-240072" lat="60.0126467411" lon="11.6386035493">
		<tag k="name" v="Åsnessætervegen" />
		<tag k="ssr:date" v="2019-12-27" />
		<tag k="ssr:gruppe" v="veg" />
		<tag k="ssr:hovedgruppe" v="infrastruktur" />
		<tag k="ssr:stedsnr" v="1073359" />
		<tag k="ssr:type" v="adressenavn" />
	</node>
	<node id="-240071" lat="60.06211362" lon="11.7470254512">
		<tag k="name" v="Flasjøvegen" />
		<tag k="ssr:date" v="2019-12-27" />
		<tag k="ssr:gruppe" v="veg" />
		<tag k="ssr:hovedgruppe" v="infrastruktur" />
		<tag k="ssr:stedsnr" v="1073358" />
		<tag k="ssr:type" v="adressenavn" />
	</node>
	<node id="-240070" lat="60.2723961882" lon="11.3266300416">
		<tag k="name" v="Nesvegen" />
		<tag k="ssr:date" v="2019-12-27" />
		<tag k="ssr:gruppe" v="veg" />
		<tag k="ssr:hovedgruppe" v="infrastruktur" />
		<tag k="ssr:stedsnr" v="1071201" />
		<tag k="ssr:type" v="adressenavn" />
	</node>
	<node id="-240069" lat="60.1171895501" lon="11.3483555143">
		<tag k="name" v="Dragen" />
		<tag k="ssr:date" v="2019-12-27" />
		<tag k="ssr:gruppe" v="veg" />
		<tag k="ssr:hovedgruppe" v="infrastruktur" />
		<tag k="ssr:stedsnr" v="1069729" />
		<tag k="ssr:type" v="adressenavn" />
	</node>
	<node id="-240068" lat="60.0571212359" lon="11.6418333476">
		<tag k="name" v="Lundbergsetervegen" />
		<tag k="ssr:date" v="2019-12-27" />
		<tag k="ssr:gruppe" v="veg" />
		<tag k="ssr:hovedgruppe" v="infrastruktur" />
		<tag k="ssr:stedsnr" v="992043" />
		<tag k="ssr:type" v="adressenavn" />
	</node>
	<node id="-240067" lat="60.1706367626" lon="11.5479011605">
		<tag k="name" v="Vognvegen" />
		<tag k="ssr:date" v="2019-12-27" />
		<tag k="ssr:gruppe" v="veg" />
		<tag k="ssr:hovedgruppe" v="infrastruktur" />
		<tag k="ssr:stedsnr" v="991775" />
		<tag k="ssr:type" v="adressenavn" />
	</node>
	<node id="-240066" lat="60.1705886984" lon="11.5497455309">
		<tag k="name" v="Papirvegen" />
		<tag k="ssr:date" v="2019-12-27" />
		<tag k="ssr:gruppe" v="veg" />
		<tag k="ssr:hovedgruppe" v="infrastruktur" />
		<tag k="ssr:stedsnr" v="991774" />
		<tag k="ssr:type" v="adressenavn" />
	</node>
	<node id="-240065" lat="60.1138367169" lon="11.4621924889">
		<tag k="name" v="Evangjordet" />
		<tag k="ssr:date" v="2019-12-27" />
		<tag k="ssr:gruppe" v="veg" />
		<tag k="ssr:hovedgruppe" v="infrastruktur" />
		<tag k="ssr:stedsnr" v="991771" />
		<tag k="ssr:type" v="adressenavn" />
	</node>
	<node id="-240064" lat="60.1250651857" lon="11.4690253033">
		<tag k="name" v="Sagbruksgata" />
		<tag k="ssr:date" v="2019-12-27" />
		<tag k="ssr:gruppe" v="veg" />
		<tag k="ssr:hovedgruppe" v="infrastruktur" />
		<tag k="ssr:stedsnr" v="991053" />
		<tag k="ssr:type" v="adressenavn" />
	</node>
	<node id="-240063" lat="60.1245187247" lon="11.4684622259">
		<tag k="name" v="Høvlerigata" />
		<tag k="ssr:date" v="2019-12-27" />
		<tag k="ssr:gruppe" v="veg" />
		<tag k="ssr:hovedgruppe" v="infrastruktur" />
		<tag k="ssr:stedsnr" v="991052" />
		<tag k="ssr:type" v="adressenavn" />
	</node>
	<node id="-240062" lat="60.1768689008" lon="11.5192780058">
		<tag k="name" v="Mangsetvegen" />
		<tag k="ssr:date" v="2019-12-27" />
		<tag k="ssr:gruppe" v="veg" />
		<tag k="ssr:hovedgruppe" v="infrastruktur" />
		<tag k="ssr:stedsnr" v="991050" />
		<tag k="ssr:type" v="adressenavn" />
	</node>
	<node id="-240058" lat="60.1327927241" lon="11.4785369919">
		<tag k="name" v="Glitrevegen" />
		<tag k="ssr:date" v="2019-12-27" />
		<tag k="ssr:gruppe" v="veg" />
		<tag k="ssr:hovedgruppe" v="infrastruktur" />
		<tag k="ssr:stedsnr" v="979222" />
		<tag k="ssr:type" v="adressenavn" />
	</node>
	<node id="-240057" lat="60.1772284485" lon="11.5083772048">
		<tag k="name" v="Granlistubben" />
		<tag k="ssr:date" v="2019-12-27" />
		<tag k="ssr:gruppe" v="veg" />
		<tag k="ssr:hovedgruppe" v="infrastruktur" />
		<tag k="ssr:stedsnr" v="979218" />
		<tag k="ssr:type" v="adressenavn" />
	</node>
	<node id="-237240" lat="60.2485611135" lon="11.4842305623">
		<tag k="name" v="Setraveien" />
		<tag k="ssr:date" v="2019-12-27" />
		<tag k="ssr:gruppe" v="veg" />
		<tag k="ssr:hovedgruppe" v="infrastruktur" />
		<tag k="ssr:stedsnr" v="116824" />
		<tag k="ssr:type" v="vegstrekning" />
	</node>
	<node id="-239415" lat="60.2882166643" lon="11.5250388887">
		<tag k="name" v="Bjønnmyrveien" />
		<tag k="ssr:date" v="2019-12-27" />
		<tag k="ssr:gruppe" v="veg" />
		<tag k="ssr:hovedgruppe" v="infrastruktur" />
		<tag k="ssr:stedsnr" v="541546" />
		<tag k="ssr:type" v="vegstrekning" />
	</node>
	<node id="-240052" lat="60.2146111146" lon="11.3830527867">
		<tag k="name" v="Østerengtunet" />
		<tag k="ssr:date" v="2019-12-27" />
		<tag k="ssr:gruppe" v="veg" />
		<tag k="ssr:hovedgruppe" v="infrastruktur" />
		<tag k="ssr:stedsnr" v="967596" />
		<tag k="ssr:type" v="adressenavn" />
	</node>
	<node id="-239663" lat="60.1795555519" lon="11.5154083316">
		<tag k="name" v="Oppaker" />
		<tag k="ssr:date" v="2019-12-27" />
		<tag k="ssr:gruppe" v="administrativeIndelinger" />
		<tag k="ssr:hovedgruppe" v="offentligAdministrasjon" />
		<tag k="ssr:stedsnr" v="752668" />
		<tag k="ssr:type" v="poststed" />
	</node>
	<node id="-237092" lat="60.1119666643" lon="11.5861472212">
		<tag k="name" v="Sjømyrveien" />
		<tag k="ssr:date" v="2019-12-27" />
		<tag k="ssr:gruppe" v="veg" />
		<tag k="ssr:hovedgruppe" v="infrastruktur" />
		<tag k="ssr:stedsnr" v="238134" />
		<tag k="ssr:type" v="vegstrekning" />
	</node>
	<node id="-239266" lat="60.2732861149" lon="11.5160916707">
		<tag k="name" v="Langeveiene" />
		<tag k="ssr:date" v="2019-12-27" />
		<tag k="ssr:gruppe" v="veg" />
		<tag k="ssr:hovedgruppe" v="infrastruktur" />
		<tag k="ssr:stedsnr" v="419866" />
		<tag k="ssr:type" v="vegstrekning" />
	</node>
	<node id="-237456" lat="60.2729222252" lon="11.4775777826">
		<tag k="name" v="Kvernhaugveien" />
		<tag k="ssr:date" v="2019-12-27" />
		<tag k="ssr:gruppe" v="veg" />
		<tag k="ssr:hovedgruppe" v="infrastruktur" />
		<tag k="ssr:stedsnr" v="298852" />
		<tag k="ssr:type" v="vegstrekning" />
	</node>
	<node id="-237071" lat="60.2620305535" lon="11.5666138842">
		<tag k="name" v="Fløytaveien" />
		<tag k="ssr:date" v="2019-12-27" />
		<tag k="ssr:gruppe" v="veg" />
		<tag k="ssr:hovedgruppe" v="infrastruktur" />
		<tag k="ssr:stedsnr" v="237870" />
		<tag k="ssr:type" v="vegstrekning" />
	</node>
	<node id="-239426" lat="60.2620305568" lon="11.5818916646">
		<tag k="name" v="Bjønnstokkveien" />
		<tag k="ssr:date" v="2019-12-27" />
		<tag k="ssr:gruppe" v="veg" />
		<tag k="ssr:hovedgruppe" v="infrastruktur" />
		<tag k="ssr:stedsnr" v="541903" />
		<tag k="ssr:type" v="vegstrekning" />
	</node>
	<node id="-238469" lat="60.2435972191" lon="11.5419499937">
		<tag k="name" v="Østre Dystland" />
		<tag k="ssr:date" v="2019-12-27" />
		<tag k="ssr:gruppe" v="veg" />
		<tag k="ssr:hovedgruppe" v="infrastruktur" />
		<tag k="ssr:stedsnr" v="910415" />
		<tag k="ssr:type" v="adressetilleggsnavn" />
	</node>
	<node id="-237826" lat="60.1346166626" lon="11.4751083296">
		<tag k="name" v="Høiekroken" />
		<tag k="ssr:date" v="2019-12-27" />
		<tag k="ssr:gruppe" v="veg" />
		<tag k="ssr:hovedgruppe" v="infrastruktur" />
		<tag k="ssr:stedsnr" v="467906" />
		<tag k="ssr:type" v="adressenavn" />
	</node>
</osm>
