<?xml version="1.0" encoding="UTF-8"?>
<osm version="0.6" generator="osmapis">
	<node lat="61.881647220348604" lon="5.489063884452476" id="-80145">
		<tag k="name" v="Kaldgrø" />
		<tag k="place" v="locality" />
		<tag k="ssr:stedsnr" v="313418" />
	</node>
	<node lat="61.77569656130432" lon="4.897515514594925" id="-80386">
		<tag k="alt_name" v="Frøya" />
		<tag k="amenity" v="place_of_worship" />
		<tag k="denomination" v="lutheran" />
		<tag k="name" v="Frøya kyrkje" />
		<tag k="religion" v="christian" />
		<tag k="ssr:stedsnr" v="434796" />
	</node>
	<node lat="61.827783336305394" lon="5.115144452759236" id="-80463">
		<tag k="alt_name" v="Berle;Berle kapell" />
		<tag k="amenity" v="place_of_worship" />
		<tag k="denomination" v="lutheran" />
		<tag k="name" v="Berle kyrkje" />
		<tag k="religion" v="christian" />
		<tag k="ssr:stedsnr" v="677129" />
	</node>
	<node lat="61.74027500207351" lon="5.16315834050948" id="-81010">
		<tag k="alt_name" v="Midtgulen" />
		<tag k="amenity" v="place_of_worship" />
		<tag k="denomination" v="lutheran" />
		<tag k="name" v="Midtgulen kyrkje" />
		<tag k="religion" v="christian" />
		<tag k="ssr:stedsnr" v="919831" />
	</node>
	<node lat="61.839634378590226" lon="5.678077505945639" id="-81500">
		<tag k="alt_name" v="Ålfoten" />
		<tag k="amenity" v="place_of_worship" />
		<tag k="denomination" v="lutheran" />
		<tag k="name" v="Ålfoten kyrkje" />
		<tag k="religion" v="christian" />
		<tag k="ssr:stedsnr" v="146315" />
	</node>
	<node lat="61.88723610953792" lon="5.344194442005338" id="-81605">
		<tag k="alt_name" v="Rugsund" />
		<tag k="amenity" v="place_of_worship" />
		<tag k="denomination" v="lutheran" />
		<tag k="name" v="Rugsund kyrkje" />
		<tag k="religion" v="christian" />
		<tag k="ssr:stedsnr" v="192210" />
	</node>
	<node lat="61.76667413481392" lon="5.283983312535382" id="-82285">
		<tag k="alt_name" v="Svelgen" />
		<tag k="amenity" v="place_of_worship" />
		<tag k="denomination" v="lutheran" />
		<tag k="name" v="Svelgen kapell" />
		<tag k="religion" v="christian" />
		<tag k="ssr:stedsnr" v="616079" />
	</node>
	<node lat="61.892116667022265" lon="5.532316676113981" id="-82432">
		<tag k="amenity" v="place_of_worship" />
		<tag k="denomination" v="lutheran" />
		<tag k="name" v="Davik kyrkje" />
		<tag k="religion" v="christian" />
		<tag k="ssr:stedsnr" v="717591" />
	</node>
	<node lat="61.8434305583155" lon="4.966286103354217" id="-82641">
		<tag k="alt_name" v="Bremanger;Bremanger kapell" />
		<tag k="amenity" v="place_of_worship" />
		<tag k="denomination" v="lutheran" />
		<tag k="name" v="Bremanger kyrkje" />
		<tag k="religion" v="christian" />
		<tag k="ssr:stedsnr" v="799928" />
	</node>
	<node lat="61.897802777123964" lon="5.547702780501947" id="-82811">
		<tag k="name" v="Daven sjømerke" />
		<tag k="place" v="locality" />
		<tag k="ssr:stedsnr" v="960563" />
	</node>
</osm>
