<?xml version="1.0" encoding="UTF-8"?>
<osm version="0.6" generator="osmapis">
	<node lat="61.84206944112372" lon="5.424752780896237" id="-79683">
		<tag k="name" v="Nibbura" />
		<tag k="natural" v="scree" />
		<tag k="ssr:stedsnr" v="232274" />
	</node>
	<node lat="61.88075833284482" lon="5.203541672006711" id="-79691">
		<tag k="name" v="Tangane" />
		<tag k="place" v="locality" />
		<tag k="ssr:stedsnr" v="232526" />
	</node>
	<node lat="61.870858336118296" lon="5.333583331262458" id="-79697">
		<tag k="name" v="Middagssteinen" />
		<tag k="natural" v="stone" />
		<tag k="ssr:stedsnr" v="232424" />
	</node>
	<node lat="61.81898611067523" lon="4.937438898346577" id="-79718">
		<tag k="name" v="Sjøsteinen" />
		<tag k="natural" v="stone" />
		<tag k="ssr:stedsnr" v="233021" />
	</node>
	<node lat="61.744991669326595" lon="5.039874999480265" id="-79720">
		<tag k="name" v="Bjørnemyrane" />
		<tag k="natural" v="wetland" />
		<tag k="ssr:stedsnr" v="232946" />
	</node>
	<node lat="61.84641388867626" lon="5.028583330430044" id="-79726">
		<tag k="name" v="Skogane" />
		<tag k="place" v="locality" />
		<tag k="ssr:stedsnr" v="233303" />
	</node>
	<node lat="61.84237777444127" lon="5.640002783686561" id="-79738">
		<tag k="name" v="Litledalen" />
		<tag k="place" v="locality" />
		<tag k="ssr:stedsnr" v="50219" />
	</node>
	<node lat="61.80463055294001" lon="5.003636113816906" id="-79752">
		<tag k="name" v="Storeura" />
		<tag k="natural" v="scree" />
		<tag k="ssr:stedsnr" v="50409" />
	</node>
	<node lat="61.745988889670734" lon="5.227063890147578" id="-79764">
		<tag k="name" v="Setrehjellen" />
		<tag k="place" v="locality" />
		<tag k="ssr:stedsnr" v="50871" />
	</node>
	<node lat="61.696641664153766" lon="5.194786114969393" id="-79765">
		<tag k="name" v="Setra" />
		<tag k="place" v="locality" />
		<tag k="ssr:stedsnr" v="50872" />
	</node>
	<node lat="61.71421111535813" lon="5.03392777241968" id="-79772">
		<tag k="historic" v="shieling" />
		<tag k="name" v="Sørestølen" />
		<tag k="place" v="locality" />
		<tag k="ssr:stedsnr" v="50974" />
	</node>
	<node lat="61.75688611544538" lon="5.265513885065023" id="-79823">
		<tag k="name" v="Setreholene" />
		<tag k="place" v="locality" />
		<tag k="ssr:stedsnr" v="111015" />
	</node>
	<node lat="61.702019441032974" lon="5.10708610758233" id="-79856">
		<tag k="name" v="Nautekvia" />
		<tag k="place" v="locality" />
		<tag k="ssr:stedsnr" v="111904" />
	</node>
	<node lat="61.84277778219992" lon="5.422725001159021" id="-79959">
		<tag k="name" v="Dyrstelmyra" />
		<tag k="natural" v="wetland" />
		<tag k="ssr:stedsnr" v="171264" />
	</node>
	<node lat="61.79842778044251" lon="4.835202775356082" id="-79963">
		<tag k="name" v="Jonsokmyrane" />
		<tag k="natural" v="wetland" />
		<tag k="ssr:stedsnr" v="171461" />
	</node>
	<node lat="61.72281944882874" lon="5.101452783351597" id="-79980">
		<tag k="name" v="Myrane" />
		<tag k="natural" v="wetland" />
		<tag k="ssr:stedsnr" v="171908" />
	</node>
	<node lat="61.8161055599723" lon="5.0697416693464765" id="-79991">
		<tag k="historic" v="shieling" />
		<tag k="name" v="Melkehaugen" />
		<tag k="place" v="locality" />
		<tag k="ssr:stedsnr" v="172366" />
	</node>
	<node lat="61.785691668294916" lon="5.304005564625222" id="-79992">
		<tag k="historic" v="shieling" />
		<tag k="name" v="Gamlestølen" />
		<tag k="place" v="locality" />
		<tag k="ssr:stedsnr" v="172806" />
	</node>
	<node lat="61.7425111126781" lon="5.002555563632596" id="-80049">
		<tag k="name" v="Båtvikhamrane" />
		<tag k="place" v="locality" />
		<tag k="ssr:stedsnr" v="232931" />
	</node>
	<node lat="61.87956667005597" lon="4.905727774555975" id="-80063">
		<tag k="name" v="Ura" />
		<tag k="natural" v="scree" />
		<tag k="ssr:stedsnr" v="235884" />
	</node>
	<node lat="61.73870277507887" lon="5.255836104661532" id="-80091">
		<tag k="name" v="Storura" />
		<tag k="natural" v="scree" />
		<tag k="ssr:stedsnr" v="292905" />
	</node>
	<node lat="61.7489861093645" lon="5.3593250067894775" id="-80092">
		<tag k="name" v="Hjellteigura" />
		<tag k="natural" v="scree" />
		<tag k="ssr:stedsnr" v="292974" />
	</node>
	<node lat="61.908936114270325" lon="5.413958336082744" id="-80204">
		<tag k="historic" v="shieling" />
		<tag k="name" v="Litlesetra" />
		<tag k="place" v="locality" />
		<tag k="ssr:stedsnr" v="474621" />
	</node>
	<node lat="61.885855552875924" lon="5.23771943891278" id="-80208">
		<tag k="name" v="Revura" />
		<tag k="natural" v="scree" />
		<tag k="ssr:stedsnr" v="474582" />
	</node>
	<node lat="61.74077222583703" lon="5.23269444337269" id="-80216">
		<tag k="name" v="Åsehjellen" />
		<tag k="place" v="locality" />
		<tag k="ssr:stedsnr" v="474881" />
	</node>
	<node lat="61.73243610983965" lon="5.206238882062283" id="-80218">
		<tag k="name" v="Otersteinane" />
		<tag k="natural" v="stone" />
		<tag k="ssr:stedsnr" v="474887" />
	</node>
	<node lat="61.72890277795683" lon="5.228658336785962" id="-80219">
		<tag k="name" v="Fossemarka" />
		<tag k="place" v="locality" />
		<tag k="ssr:stedsnr" v="474892" />
	</node>
	<node lat="61.80696944523548" lon="4.95629166620492" id="-80230">
		<tag k="name" v="Rabben" />
		<tag k="place" v="locality" />
		<tag k="ssr:stedsnr" v="475025" />
	</node>
	<node lat="61.86524166416847" lon="5.079413893590147" id="-80252">
		<tag k="name" v="Dikene" />
		<tag k="natural" v="wetland" />
		<tag k="ssr:stedsnr" v="475642" />
	</node>
	<node lat="61.85847500188603" lon="5.136336114123293" id="-80253">
		<tag k="name" v="Galdssletta" />
		<tag k="place" v="locality" />
		<tag k="ssr:stedsnr" v="475652" />
	</node>
	<node lat="61.753250001709475" lon="5.029472218585411" id="-80274">
		<tag k="name" v="Langemyra" />
		<tag k="natural" v="wetland" />
		<tag k="ssr:stedsnr" v="475939" />
	</node>
	<node lat="61.82338610856233" lon="5.0701527859064806" id="-80275">
		<tag k="name" v="Myrane" />
		<tag k="natural" v="wetland" />
		<tag k="ssr:stedsnr" v="476350" />
	</node>
	<node lat="61.89799166671871" lon="5.612866664131433" id="-80348">
		<tag k="name" v="Moseura" />
		<tag k="natural" v="scree" />
		<tag k="ssr:stedsnr" v="414796" />
	</node>
	<node lat="61.72027777907228" lon="5.128897221729926" id="-80350">
		<tag k="name" v="Svoraholtet" />
		<tag k="place" v="locality" />
		<tag k="ssr:stedsnr" v="414890" />
	</node>
	<node lat="61.70982500096177" lon="5.173980549469695" id="-80353">
		<tag k="name" v="Svaberget" />
		<tag k="place" v="locality" />
		<tag k="ssr:stedsnr" v="414900" />
	</node>
	<node lat="61.741063888934306" lon="5.635530558566881" id="-80372">
		<tag k="name" v="Ålfotbreen" />
		<tag k="natural" v="glacier" />
		<tag k="ssr:stedsnr" v="433632" />
	</node>
	<node lat="61.89675833613505" lon="4.934450000174841" id="-80439">
		<tag k="historic" v="shieling" />
		<tag k="name" v="Melkeplassen" />
		<tag k="place" v="locality" />
		<tag k="ssr:stedsnr" v="475115" />
	</node>
	<node lat="61.88136666371614" lon="5.028686109819813" id="-80483">
		<tag k="name" v="Oldeidsmyra" />
		<tag k="natural" v="wetland" />
		<tag k="ssr:stedsnr" v="677994" />
	</node>
	<node lat="61.735461107455286" lon="5.226875009593065" id="-80547">
		<tag k="name" v="Fiskejømyra" />
		<tag k="natural" v="wetland" />
		<tag k="ssr:stedsnr" v="535884" />
	</node>
	<node lat="61.83247778064065" lon="5.085636110658105" id="-80555">
		<tag k="name" v="Kviteskjerva" />
		<tag k="place" v="locality" />
		<tag k="ssr:stedsnr" v="536604" />
	</node>
	<node lat="61.7482916687901" lon="5.224938891073049" id="-80617">
		<tag k="name" v="Myrane" />
		<tag k="natural" v="wetland" />
		<tag k="ssr:stedsnr" v="596762" />
	</node>
	<node lat="61.84839166365968" lon="5.4255361170808225" id="-80702">
		<tag k="name" v="Teistadsteinen" />
		<tag k="natural" v="stone" />
		<tag k="ssr:stedsnr" v="657307" />
	</node>
	<node lat="61.719205556394826" lon="5.199755554589072" id="-80709">
		<tag k="name" v="Klipemyra" />
		<tag k="natural" v="wetland" />
		<tag k="ssr:stedsnr" v="657908" />
	</node>
	<node lat="61.87331666421581" lon="4.967886105372664" id="-80765">
		<tag k="historic" v="shieling" />
		<tag k="name" v="Setra" />
		<tag k="place" v="locality" />
		<tag k="ssr:stedsnr" v="717306" />
	</node>
	<node lat="61.90876666398975" lon="5.422258339569944" id="-80774">
		<tag k="name" v="Bjørnamyra" />
		<tag k="natural" v="wetland" />
		<tag k="ssr:stedsnr" v="717611" />
	</node>
	<node lat="61.72943055129707" lon="5.2963333393401575" id="-80792">
		<tag k="name" v="Bladkvannura" />
		<tag k="natural" v="scree" />
		<tag k="ssr:stedsnr" v="717907" />
	</node>
	<node lat="61.829713885099345" lon="5.0692861132232085" id="-80799">
		<tag k="name" v="Lisbetsetra" />
		<tag k="place" v="locality" />
		<tag k="ssr:stedsnr" v="718372" />
	</node>
	<node lat="61.73706110938576" lon="5.219980548809506" id="-80820">
		<tag k="name" v="Dovehjellen" />
		<tag k="place" v="locality" />
		<tag k="ssr:stedsnr" v="899901" />
	</node>
	<node lat="61.893566670262125" lon="4.936011117099777" id="-80826">
		<tag k="historic" v="shieling" />
		<tag k="name" v="Setra" />
		<tag k="place" v="locality" />
		<tag k="ssr:stedsnr" v="900126" />
	</node>
	<node lat="61.84008611190856" lon="5.034511109593236" id="-80831">
		<tag k="name" v="Bleikemyrane" />
		<tag k="natural" v="wetland" />
		<tag k="ssr:stedsnr" v="900281" />
	</node>
	<node lat="61.847741670916605" lon="5.403366673869075" id="-80832">
		<tag k="name" v="Vellene" />
		<tag k="place" v="locality" />
		<tag k="ssr:stedsnr" v="900300" />
	</node>
	<node lat="61.78263055268815" lon="4.948366667773312" id="-80835">
		<tag k="name" v="Gullura" />
		<tag k="natural" v="scree" />
		<tag k="ssr:stedsnr" v="900434" />
	</node>
	<node lat="61.786730552176714" lon="4.943897216532323" id="-80836">
		<tag k="name" v="Trongesundmyrane" />
		<tag k="natural" v="wetland" />
		<tag k="ssr:stedsnr" v="900438" />
	</node>
	<node lat="61.7513861124346" lon="4.820594442005235" id="-80844">
		<tag k="name" v="Myrane" />
		<tag k="natural" v="wetland" />
		<tag k="ssr:stedsnr" v="900496" />
	</node>
	<node lat="61.804666667693844" lon="4.843680555204737" id="-80908">
		<tag k="name" v="Myrane" />
		<tag k="natural" v="wetland" />
		<tag k="ssr:stedsnr" v="778059" />
	</node>
	<node lat="61.84077499716711" lon="5.025697215447028" id="-80914">
		<tag k="name" v="Litlebøen" />
		<tag k="place" v="locality" />
		<tag k="ssr:stedsnr" v="778264" />
	</node>
	<node lat="61.74439721871233" lon="5.028822221115191" id="-80941">
		<tag k="name" v="Restallmyra" />
		<tag k="natural" v="wetland" />
		<tag k="ssr:stedsnr" v="778950" />
	</node>
	<node lat="61.88205832994244" lon="4.920041657621981" id="-80943">
		<tag k="name" v="Synnevesteinen" />
		<tag k="natural" v="stone" />
		<tag k="ssr:stedsnr" v="779009" />
	</node>
	<node lat="61.87224721960089" lon="4.859297223992846" id="-80944">
		<tag k="name" v="Merkingsura" />
		<tag k="natural" v="scree" />
		<tag k="ssr:stedsnr" v="779011" />
	</node>
	<node lat="61.86667778146517" lon="4.8454694367669084" id="-80945">
		<tag k="name" v="Litleura" />
		<tag k="natural" v="scree" />
		<tag k="ssr:stedsnr" v="779013" />
	</node>
	<node lat="61.74326111225435" lon="5.007736110495775" id="-81064">
		<tag k="name" v="Hjellmyrane" />
		<tag k="natural" v="wetland" />
		<tag k="ssr:stedsnr" v="839933" />
	</node>
	<node lat="61.842119445761156" lon="4.938172229859995" id="-81070">
		<tag k="historic" v="shieling" />
		<tag k="name" v="Setra" />
		<tag k="place" v="locality" />
		<tag k="ssr:stedsnr" v="840020" />
	</node>
	<node lat="61.840547217859836" lon="5.070647216201156" id="-81076">
		<tag k="name" v="Klovsteinen" />
		<tag k="natural" v="stone" />
		<tag k="ssr:stedsnr" v="840280" />
	</node>
	<node lat="61.87933333319886" lon="5.365986110589268" id="-81132">
		<tag k="name" v="Storemyra" />
		<tag k="natural" v="wetland" />
		<tag k="ssr:stedsnr" v="899623" />
	</node>
	<node lat="61.74398611264965" lon="5.249299997583805" id="-81133">
		<tag k="name" v="Jensdikura" />
		<tag k="natural" v="scree" />
		<tag k="ssr:stedsnr" v="899907" />
	</node>
	<node lat="61.88709722150206" lon="5.460316664115569" id="-81154">
		<tag k="name" v="Leitet" />
		<tag k="place" v="locality" />
		<tag k="ssr:stedsnr" v="900607" />
	</node>
	<node lat="61.84428889260377" lon="5.376344449414266" id="-81198">
		<tag k="name" v="Storura" />
		<tag k="natural" v="scree" />
		<tag k="ssr:stedsnr" v="960336" />
	</node>
	<node lat="61.782972220989656" lon="4.932813888742198" id="-81203">
		<tag k="name" v="Storemyra" />
		<tag k="natural" v="wetland" />
		<tag k="ssr:stedsnr" v="960436" />
	</node>
	<node lat="61.83070555546265" lon="5.086394451352483" id="-81212">
		<tag k="historic" v="shieling" />
		<tag k="name" v="Melkeplassen" />
		<tag k="place" v="locality" />
		<tag k="ssr:stedsnr" v="960601" />
	</node>
	<node lat="61.82975278113429" lon="5.093844435584241" id="-81214">
		<tag k="name" v="Gaddane" />
		<tag k="place" v="locality" />
		<tag k="ssr:stedsnr" v="960605" />
	</node>
	<node lat="61.89737777639536" lon="5.391449995117231" id="-81215">
		<tag k="name" v="Midthaugmyra" />
		<tag k="natural" v="wetland" />
		<tag k="ssr:stedsnr" v="960609" />
	</node>
	<node lat="61.6998055591235" lon="5.0323833367630755" id="-81223">
		<tag k="name" v="Øyrane" />
		<tag k="place" v="locality" />
		<tag k="ssr:stedsnr" v="960998" />
	</node>
	<node lat="61.83479166805229" lon="5.540619444977915" id="-81291">
		<tag k="name" v="Ytstekjemmen" />
		<tag k="natural" v="wetland" />
		<tag k="ssr:stedsnr" v="50156" />
	</node>
	<node lat="61.803552776157375" lon="4.920227779465644" id="-81302">
		<tag k="name" v="Djupeholflata" />
		<tag k="place" v="locality" />
		<tag k="ssr:stedsnr" v="51034" />
	</node>
	<node lat="61.81962500240189" lon="5.095452780057032" id="-81328">
		<tag k="name" v="Vardedalen" />
		<tag k="place" v="locality" />
		<tag k="ssr:stedsnr" v="50564" />
	</node>
	<node lat="61.778775000431615" lon="5.175666665398382" id="-81332">
		<tag k="name" v="Lægene" />
		<tag k="place" v="locality" />
		<tag k="ssr:stedsnr" v="50757" />
	</node>
	<node lat="61.76674721981602" lon="5.096361105731873" id="-81333">
		<tag k="name" v="Ottregnara" />
		<tag k="natural" v="scree" />
		<tag k="ssr:stedsnr" v="50766" />
	</node>
	<node lat="61.85483055232307" lon="5.050241669675217" id="-81400">
		<tag k="name" v="Seten" />
		<tag k="place" v="locality" />
		<tag k="ssr:stedsnr" v="111295" />
	</node>
	<node lat="61.85575833333664" lon="5.059369441097184" id="-81401">
		<tag k="name" v="Flåthola" />
		<tag k="place" v="locality" />
		<tag k="ssr:stedsnr" v="111296" />
	</node>
	<node lat="61.852866669373846" lon="5.450705554424414" id="-81409">
		<tag k="historic" v="shieling" />
		<tag k="name" v="Øvesetra" />
		<tag k="place" v="locality" />
		<tag k="ssr:stedsnr" v="111344" />
	</node>
	<node lat="61.741022221487704" lon="5.2382694386004465" id="-81423">
		<tag k="name" v="Laflatene" />
		<tag k="place" v="locality" />
		<tag k="ssr:stedsnr" v="111878" />
	</node>
	<node lat="61.87848333571873" lon="5.5707777722096665" id="-81435">
		<tag k="name" v="Kvannskredmyrane" />
		<tag k="natural" v="wetland" />
		<tag k="ssr:stedsnr" v="111852" />
	</node>
	<node lat="61.70606944748652" lon="5.121819450814847" id="-81440">
		<tag k="name" v="Gamlebøen" />
		<tag k="place" v="locality" />
		<tag k="ssr:stedsnr" v="111867" />
	</node>
	<node lat="61.74155000352422" lon="5.039305558982388" id="-81446">
		<tag k="name" v="Øyrane" />
		<tag k="place" v="locality" />
		<tag k="ssr:stedsnr" v="111948" />
	</node>
	<node lat="61.84489166479819" lon="5.03524445239022" id="-81450">
		<tag k="name" v="Selbøen" />
		<tag k="place" v="locality" />
		<tag k="ssr:stedsnr" v="112314" />
	</node>
	<node lat="61.81784722064911" lon="4.987247228286316" id="-81452">
		<tag k="name" v="Gåtene" />
		<tag k="place" v="locality" />
		<tag k="ssr:stedsnr" v="112400" />
	</node>
	<node lat="61.84602777442257" lon="5.335061115737075" id="-81515">
		<tag k="name" v="Viesteinen" />
		<tag k="natural" v="stone" />
		<tag k="ssr:stedsnr" v="171345" />
	</node>
	<node lat="61.734886114391585" lon="5.24181944967307" id="-81517">
		<tag k="name" v="Nyhjellmyra" />
		<tag k="natural" v="wetland" />
		<tag k="ssr:stedsnr" v="171438" />
	</node>
	<node lat="61.85728611288599" lon="4.984638880482311" id="-81524">
		<tag k="name" v="Svarstadmyra" />
		<tag k="natural" v="wetland" />
		<tag k="ssr:stedsnr" v="171299" />
	</node>
	<node lat="61.90681666997592" lon="5.381427780184347" id="-81533">
		<tag k="name" v="Skarvesteinen" />
		<tag k="natural" v="stone" />
		<tag k="ssr:stedsnr" v="171633" />
	</node>
	<node lat="61.81105000275523" lon="5.313647212486626" id="-81540">
		<tag k="name" v="Storemyra" />
		<tag k="natural" v="wetland" />
		<tag k="ssr:stedsnr" v="171587" />
	</node>
	<node lat="61.69906666773728" lon="5.101938887607906" id="-81543">
		<tag k="name" v="Mosesteinane" />
		<tag k="natural" v="stone" />
		<tag k="ssr:stedsnr" v="171929" />
	</node>
	<node lat="61.72075277421077" lon="4.987977785982061" id="-81555">
		<tag k="name" v="Myrane" />
		<tag k="natural" v="wetland" />
		<tag k="ssr:stedsnr" v="171959" />
	</node>
	<node lat="61.824527776907246" lon="4.971566662888832" id="-81565">
		<tag k="name" v="Bakkeheia" />
		<tag k="place" v="locality" />
		<tag k="ssr:stedsnr" v="172380" />
	</node>
	<node lat="61.78007777348632" lon="5.298002779385506" id="-81570">
		<tag k="name" v="Langemyra" />
		<tag k="natural" v="wetland" />
		<tag k="ssr:stedsnr" v="172804" />
	</node>
	<node lat="61.86628333212618" lon="4.92248333753229" id="-81635">
		<tag k="name" v="Båsane" />
		<tag k="place" v="locality" />
		<tag k="ssr:stedsnr" v="192908" />
	</node>
	<node lat="61.86371666541769" lon="5.360066662120386" id="-81662">
		<tag k="name" v="Ljøsura" />
		<tag k="natural" v="scree" />
		<tag k="ssr:stedsnr" v="292413" />
	</node>
	<node lat="61.734205553866936" lon="4.986700000264116" id="-81670">
		<tag k="name" v="Søre Røysa" />
		<tag k="natural" v="scree" />
		<tag k="ssr:stedsnr" v="292962" />
	</node>
	<node lat="61.89183055559604" lon="4.962188883167049" id="-81696">
		<tag k="name" v="Ura" />
		<tag k="natural" v="scree" />
		<tag k="ssr:stedsnr" v="293471" />
	</node>
	<node lat="61.81619166939289" lon="4.982958341330019" id="-81722">
		<tag k="name" v="Skogane" />
		<tag k="place" v="locality" />
		<tag k="ssr:stedsnr" v="294386" />
	</node>
	<node lat="61.88091666730055" lon="5.366691674036429" id="-81816">
		<tag k="name" v="Langemyrane" />
		<tag k="natural" v="wetland" />
		<tag k="ssr:stedsnr" v="353632" />
	</node>
	<node lat="61.776761111333784" lon="5.097602787118191" id="-81835">
		<tag k="alt_name" v="Storsteinane" />
		<tag k="name" v="Storesteinane" />
		<tag k="natural" v="stone" />
		<tag k="ssr:stedsnr" v="353799" />
	</node>
	<node lat="61.71838333024145" lon="5.222244442049761" id="-81838">
		<tag k="name" v="Storemyra" />
		<tag k="natural" v="wetland" />
		<tag k="ssr:stedsnr" v="353884" />
	</node>
	<node lat="61.73991666836267" lon="5.22454166528082" id="-81840">
		<tag k="name" v="Nyhjellen" />
		<tag k="place" v="locality" />
		<tag k="ssr:stedsnr" v="353886" />
	</node>
	<node lat="61.8049999973554" lon="4.84893888942211" id="-81933">
		<tag k="name" v="Klevnamyra" />
		<tag k="natural" v="wetland" />
		<tag k="ssr:stedsnr" v="414050" />
	</node>
	<node lat="61.8237888920089" lon="5.503138885477657" id="-81941">
		<tag k="name" v="Fjelleveltene" />
		<tag k="natural" v="wetland" />
		<tag k="ssr:stedsnr" v="414320" />
	</node>
	<node lat="61.848727780701594" lon="5.156475001548124" id="-81951">
		<tag k="name" v="Storesteinen" />
		<tag k="natural" v="stone" />
		<tag k="ssr:stedsnr" v="414621" />
	</node>
	<node lat="61.82113333655198" lon="5.416797216825557" id="-81983">
		<tag k="name" v="Brandane" />
		<tag k="place" v="locality" />
		<tag k="ssr:stedsnr" v="414984" />
	</node>
	<node lat="61.83105277436738" lon="5.100124999216383" id="-82091">
		<tag k="name" v="Jørnhjellen" />
		<tag k="place" v="locality" />
		<tag k="ssr:stedsnr" v="535594" />
	</node>
	<node lat="61.87704999638289" lon="5.347219444047644" id="-82095">
		<tag k="name" v="Storesteinen" />
		<tag k="natural" v="stone" />
		<tag k="ssr:stedsnr" v="535607" />
	</node>
	<node lat="61.722466669067295" lon="5.240047223311077" id="-82110">
		<tag k="name" v="Storemyra" />
		<tag k="natural" v="wetland" />
		<tag k="ssr:stedsnr" v="535927" />
	</node>
	<node lat="61.81109722394718" lon="5.047555557030073" id="-82119">
		<tag k="name" v="Steinfjellskogen" />
		<tag k="place" v="locality" />
		<tag k="ssr:stedsnr" v="536363" />
	</node>
	<node lat="61.7512138924839" lon="5.150477779731527" id="-82205">
		<tag k="name" v="Apalura" />
		<tag k="natural" v="scree" />
		<tag k="ssr:stedsnr" v="595791" />
	</node>
	<node lat="61.737997218933785" lon="5.212916666843694" id="-82208">
		<tag k="name" v="Gamlehjellen" />
		<tag k="place" v="locality" />
		<tag k="ssr:stedsnr" v="595886" />
	</node>
	<node lat="61.85494444212995" lon="5.4602944364134816" id="-82216">
		<tag k="name" v="Høgstelmarka" />
		<tag k="place" v="locality" />
		<tag k="ssr:stedsnr" v="596336" />
	</node>
	<node lat="61.84139999753229" lon="5.308680560759369" id="-82226">
		<tag k="alt_name" v="Tussurda" />
		<tag k="name" v="Tussura" />
		<tag k="natural" v="scree" />
		<tag k="ssr:stedsnr" v="596536" />
	</node>
	<node lat="61.84585000044627" lon="5.084547217314496" id="-82233">
		<tag k="name" v="Tjørnamyra" />
		<tag k="natural" v="wetland" />
		<tag k="ssr:stedsnr" v="596576" />
	</node>
	<node lat="61.71509444735768" lon="5.034466664133695" id="-82257">
		<tag k="historic" v="shieling" />
		<tag k="name" v="Nordrestølen" />
		<tag k="place" v="locality" />
		<tag k="ssr:stedsnr" v="596974" />
	</node>
	<node lat="61.844433330517994" lon="5.04122222116387" id="-82259">
		<tag k="name" v="Nysetra" />
		<tag k="place" v="locality" />
		<tag k="ssr:stedsnr" v="597293" />
	</node>
	<node lat="61.79440833528033" lon="4.880866660201328" id="-82319">
		<tag k="name" v="Merkestadmyra" />
		<tag k="natural" v="wetland" />
		<tag k="ssr:stedsnr" v="656018" />
	</node>
	<node lat="61.76643055335942" lon="5.280647231496169" id="-82350">
		<tag k="name" v="Myrane" />
		<tag k="natural" v="wetland" />
		<tag k="ssr:stedsnr" v="657030" />
	</node>
	<node lat="61.84954444590504" lon="5.448319439240947" id="-82356">
		<tag k="historic" v="shieling" />
		<tag k="name" v="Gamlesetra" />
		<tag k="place" v="locality" />
		<tag k="ssr:stedsnr" v="657347" />
	</node>
	<node lat="61.814724997783934" lon="4.997752778253857" id="-82359">
		<tag k="name" v="Steinen" />
		<tag k="natural" v="stone" />
		<tag k="ssr:stedsnr" v="657377" />
	</node>
	<node lat="61.85317777786965" lon="5.2499277854762445" id="-82383">
		<tag k="name" v="Storura" />
		<tag k="natural" v="scree" />
		<tag k="ssr:stedsnr" v="660420" />
	</node>
	<node lat="61.78989444060639" lon="4.883766658743826" id="-82397">
		<tag k="name" v="Storemyra" />
		<tag k="natural" v="wetland" />
		<tag k="ssr:stedsnr" v="717016" />
	</node>
	<node lat="61.76063889148442" lon="4.852722222159133" id="-82401">
		<tag k="name" v="Vassmyrane" />
		<tag k="natural" v="wetland" />
		<tag k="ssr:stedsnr" v="717415" />
	</node>
	<node lat="61.778527780646726" lon="5.2316666624848" id="-82436">
		<tag k="name" v="Merkingsura" />
		<tag k="natural" v="scree" />
		<tag k="ssr:stedsnr" v="717769" />
	</node>
	<node lat="61.847705551655544" lon="5.0371833328938465" id="-82445">
		<tag k="name" v="Lågeidemyrane" />
		<tag k="natural" v="wetland" />
		<tag k="ssr:stedsnr" v="718267" />
	</node>
	<node lat="61.87189444264507" lon="5.132855556732347" id="-82451">
		<tag k="name" v="Myrbærsteinen" />
		<tag k="natural" v="stone" />
		<tag k="ssr:stedsnr" v="718644" />
	</node>
	<node lat="61.810055556531495" lon="5.600705548612325" id="-82527">
		<tag k="name" v="Fremstemyrkjemmen" />
		<tag k="place" v="locality" />
		<tag k="ssr:stedsnr" v="778184" />
	</node>
	<node lat="61.843924998617126" lon="5.3659277835679635" id="-82539">
		<tag k="name" v="Blåura" />
		<tag k="natural" v="scree" />
		<tag k="ssr:stedsnr" v="778344" />
	</node>
	<node lat="61.82910476012089" lon="4.973698442545057" id="-82568">
		<tag k="name" v="Stranda" />
		<tag k="place" v="locality" />
		<tag k="ssr:stedsnr" v="779382" />
	</node>
	<node lat="61.75724722177532" lon="5.054183324170332" id="-82570">
		<tag k="name" v="Vaulemyra" />
		<tag k="natural" v="wetland" />
		<tag k="ssr:stedsnr" v="778933" />
	</node>
	<node lat="61.73792222260675" lon="5.224405550965387" id="-82579">
		<tag k="name" v="Perhjellen" />
		<tag k="place" v="locality" />
		<tag k="ssr:stedsnr" v="778881" />
	</node>
	<node lat="61.740702778209055" lon="4.998322223197301" id="-82587">
		<tag k="name" v="Gamlesetra" />
		<tag k="place" v="locality" />
		<tag k="ssr:stedsnr" v="778937" />
	</node>
	<node lat="61.835736109837676" lon="5.218211115796559" id="-82671">
		<tag k="historic" v="shieling" />
		<tag k="name" v="Hjelltunet" />
		<tag k="place" v="locality" />
		<tag k="ssr:stedsnr" v="839562" />
	</node>
	<node lat="61.86228332895621" lon="5.228886105941571" id="-82672">
		<tag k="name" v="Kviturene" />
		<tag k="natural" v="scree" />
		<tag k="ssr:stedsnr" v="839574" />
	</node>
	<node lat="61.801372221111095" lon="5.36985832987659" id="-82697">
		<tag k="name" v="Storura" />
		<tag k="natural" v="scree" />
		<tag k="ssr:stedsnr" v="839990" />
	</node>
	<node lat="61.82783611331085" lon="4.990658336131008" id="-82702">
		<tag k="name" v="Havgulemyra" />
		<tag k="natural" v="wetland" />
		<tag k="ssr:stedsnr" v="840364" />
	</node>
	<node lat="61.76750278042505" lon="5.302194443269668" id="-82706">
		<tag k="name" v="Ulvestegura" />
		<tag k="natural" v="scree" />
		<tag k="ssr:stedsnr" v="840761" />
	</node>
	<node lat="61.805172225968846" lon="4.86025555562292" id="-82781">
		<tag k="name" v="Grønmyra" />
		<tag k="natural" v="wetland" />
		<tag k="ssr:stedsnr" v="960056" />
	</node>
	<node lat="61.78351666364751" lon="4.865305548296455" id="-82792">
		<tag k="name" v="Dekkjene" />
		<tag k="place" v="locality" />
		<tag k="ssr:stedsnr" v="960376" />
	</node>
	<node lat="61.70163055886068" lon="5.163894437812579" id="-82833">
		<tag k="name" v="Flatøyrane" />
		<tag k="place" v="locality" />
		<tag k="ssr:stedsnr" v="960860" />
	</node>
	<node lat="61.730136111394046" lon="5.2321249956523745" id="-82838">
		<tag k="name" v="Brennå" />
		<tag k="place" v="locality" />
		<tag k="ssr:stedsnr" v="960880" />
	</node>
	<node lat="61.73912222626413" lon="5.270983336478663" id="-82839">
		<tag k="name" v="Nordforura" />
		<tag k="natural" v="scree" />
		<tag k="ssr:stedsnr" v="960883" />
	</node>
</osm>
