<?xml version="1.0" encoding="UTF-8"?>
<osm version="0.6" generator="osmapis">
	<node lat="61.90659166376985" lon="5.420958335186591" id="-38122">
		<tag k="name" v="Otravatnet" />
		<tag k="natural" v="water" />
		<tag k="ssr:stedsnr" v="10208" />
	</node>
	<node lat="61.81060555135518" lon="5.66876944538494" id="-38125">
		<tag k="name" v="Åskorelva" />
		<tag k="ssr:stedsnr" v="10317" />
		<tag k="waterway" v="stream" />
	</node>
	<node lat="61.8101319017094" lon="5.833722934311315" id="-38126">
		<tag k="name" v="Isevatnet" />
		<tag k="natural" v="water" />
		<tag k="ssr:stedsnr" v="10321" />
		<tag k="water" v="lake" />
	</node>
	<node lat="61.842233330983056" lon="5.554933339955263" id="-38129">
		<tag k="name" v="Fessefossen" />
		<tag k="natural" v="waterfall" />
		<tag k="ssr:stedsnr" v="10337" />
	</node>
	<node lat="61.79564722034627" lon="4.8391222182933955" id="-38132">
		<tag k="name" v="Langevatnet" />
		<tag k="natural" v="water" />
		<tag k="ssr:stedsnr" v="10838" />
	</node>
	<node lat="61.874563888705026" lon="4.999580552457578" id="-38133">
		<tag k="name" v="Steinfjellvatnet" />
		<tag k="natural" v="water" />
		<tag k="ssr:stedsnr" v="10892" />
	</node>
	<node lat="61.84205833146548" lon="5.670299997416321" id="-38146">
		<tag k="name" v="Attefargjølet" />
		<tag k="ssr:stedsnr" v="232233" />
		<tag k="waterway" v="stream" />
	</node>
	<node lat="61.856183331047795" lon="5.37703056078588" id="-38163">
		<tag k="name" v="Vika" />
		<tag k="natural" v="bay" />
		<tag k="ssr:stedsnr" v="232403" />
	</node>
	<node lat="61.80970278080469" lon="5.2284972129016" id="-38170">
		<tag k="name" v="Myrelva" />
		<tag k="ssr:stedsnr" v="232476" />
		<tag k="waterway" v="stream" />
	</node>
	<node lat="61.86117777709739" lon="5.134088895443222" id="-38177">
		<tag k="name" v="Litledalsvatnet" />
		<tag k="natural" v="water" />
		<tag k="ssr:stedsnr" v="232592" />
	</node>
	<node lat="61.778341664489794" lon="5.325424998647074" id="-38192">
		<tag k="name" v="Vestrebotnen" />
		<tag k="natural" v="bay" />
		<tag k="ssr:stedsnr" v="232968" />
	</node>
	<node lat="61.82508055619029" lon="5.503744442213149" id="-38210">
		<tag k="name" v="Fjellelva" />
		<tag k="ssr:stedsnr" v="50309" />
		<tag k="waterway" v="stream" />
	</node>
	<node lat="61.821622220422185" lon="5.284344444246224" id="-38220">
		<tag k="name" v="Tjørna" />
		<tag k="natural" v="water" />
		<tag k="ssr:stedsnr" v="50525" />
	</node>
	<node lat="61.846380557800316" lon="5.093741661508474" id="-38224">
		<tag k="name" v="Luselva" />
		<tag k="ssr:stedsnr" v="50609" />
		<tag k="waterway" v="stream" />
	</node>
	<node lat="61.89241111010729" lon="4.954066674552671" id="-38244">
		<tag k="name" v="Storelva" />
		<tag k="ssr:stedsnr" v="51109" />
		<tag k="waterway" v="stream" />
	</node>
	<node lat="61.76070555539421" lon="5.308061112397433" id="-38247">
		<tag k="name" v="Geitvika" />
		<tag k="natural" v="bay" />
		<tag k="ssr:stedsnr" v="51769" />
	</node>
	<node lat="61.682977781663176" lon="5.130461111595513" id="-38262">
		<tag k="fixme" v="multiple name tags, choose one and add the other to alt_name" />
		<tag k="name" v="Sørgulevatnet;Skarvatnet" />
		<tag k="natural" v="water" />
		<tag k="ssr:stedsnr" v="69879" />
	</node>
	<node lat="61.7112833318824" lon="5.288247214556022" id="-38263">
		<tag k="name" v="Klenevatnet" />
		<tag k="natural" v="water" />
		<tag k="ssr:stedsnr" v="69882" />
	</node>
	<node lat="61.705427775162015" lon="5.274791671772493" id="-38264">
		<tag k="alt_name" v="Teigvatnet, litle" />
		<tag k="name" v="Litle Teigvatnet" />
		<tag k="natural" v="water" />
		<tag k="ssr:stedsnr" v="69883" />
	</node>
	<node lat="61.79565555965731" lon="5.664963888333898" id="-38267">
		<tag k="name" v="Åskorfossen" />
		<tag k="natural" v="waterfall" />
		<tag k="ssr:stedsnr" v="70309" />
	</node>
	<node lat="61.79059722471557" lon="5.373933325159166" id="-38270">
		<tag k="name" v="Ivervatnet" />
		<tag k="natural" v="water" />
		<tag k="ssr:stedsnr" v="71072" />
	</node>
	<node lat="61.768208335895494" lon="5.829274996147245" id="-38276">
		<tag k="name" v="X-vatnet" />
		<tag k="natural" v="water" />
		<tag k="ssr:stedsnr" v="71323" />
		<tag k="water" v="lake" />
	</node>
	<node lat="61.80412500237394" lon="5.516177774625094" id="-38287">
		<tag k="name" v="Fessene" />
		<tag k="natural" v="waterfall" />
		<tag k="ssr:stedsnr" v="81540" />
	</node>
	<node lat="61.75296111529142" lon="5.2791500043383826" id="-38291">
		<tag k="name" v="Austre Knoltrevatn" />
		<tag k="natural" v="water" />
		<tag k="ssr:stedsnr" v="111012" />
	</node>
	<node lat="61.824566664281576" lon="5.5224277766586045" id="-38300">
		<tag k="name" v="Huarelva" />
		<tag k="ssr:stedsnr" v="111324" />
		<tag k="waterway" v="stream" />
	</node>
	<node lat="61.877961111150945" lon="5.07340000859212" id="-38308">
		<tag k="name" v="Melsneselva" />
		<tag k="ssr:stedsnr" v="111284" />
		<tag k="waterway" v="stream" />
	</node>
	<node lat="61.86532221929041" lon="5.049480551304807" id="-38310">
		<tag k="name" v="Svenakkvatnet" />
		<tag k="natural" v="water" />
		<tag k="ssr:stedsnr" v="111287" />
	</node>
	<node lat="61.830000000916286" lon="5.108622231051303" id="-38314">
		<tag k="name" v="Storelva" />
		<tag k="ssr:stedsnr" v="111575" />
		<tag k="waterway" v="stream" />
	</node>
	<node lat="61.69436389019698" lon="5.060080556403892" id="-38336">
		<tag k="name" v="Grøneggvatnet" />
		<tag k="natural" v="water" />
		<tag k="ssr:stedsnr" v="251055" />
	</node>
	<node lat="61.70303333720752" lon="5.028511106275979" id="-38337">
		<tag k="name" v="Sørdalsvatnet" />
		<tag k="natural" v="water" />
		<tag k="ssr:stedsnr" v="251062" />
		<tag k="water" v="lake" />
	</node>
	<node lat="61.68158193376752" lon="5.170833169928253" id="-38341">
		<tag k="name" v="Grytevatnet" />
		<tag k="natural" v="water" />
		<tag k="ssr:stedsnr" v="251890" />
		<tag k="water" v="lake" />
	</node>
	<node lat="61.72091388510693" lon="5.098022231191746" id="-38345">
		<tag k="name" v="Sagelva" />
		<tag k="ssr:stedsnr" v="251862" />
		<tag k="waterway" v="stream" />
	</node>
	<node lat="61.7380555512138" lon="5.21887777105775" id="-38347">
		<tag k="name" v="Sætreelva" />
		<tag k="ssr:stedsnr" v="251872" />
		<tag k="waterway" v="stream" />
	</node>
	<node lat="61.871186109919805" lon="5.139775003672233" id="-38351">
		<tag k="name" v="Lågeidsvatnet" />
		<tag k="natural" v="water" />
		<tag k="ssr:stedsnr" v="252158" />
	</node>
	<node lat="61.787035234137285" lon="5.486999465130053" id="-38356">
		<tag k="name" v="Femvatnet" />
		<tag k="natural" v="water" />
		<tag k="ssr:stedsnr" v="252316" />
	</node>
	<node lat="61.81386388586029" lon="5.412886112681099" id="-38365">
		<tag k="fixme" v="multiple name tags, choose one and add the other to alt_name" />
		<tag k="name" v="Brandevatnet;Sørdalsløken" />
		<tag k="natural" v="water" />
		<tag k="ssr:stedsnr" v="131102" />
	</node>
	<node lat="61.835097224674854" lon="5.422819452418111" id="-38368">
		<tag k="alt_name" v="Nibbevatn" />
		<tag k="name" v="Nibbevatnet" />
		<tag k="natural" v="water" />
		<tag k="ssr:stedsnr" v="131113" />
		<tag k="water" v="lake" />
	</node>
	<node lat="61.822616665011886" lon="5.344100007816048" id="-38370">
		<tag k="name" v="Kvarvevatnet" />
		<tag k="natural" v="water" />
		<tag k="ssr:stedsnr" v="131119" />
	</node>
	<node lat="61.8113833344639" lon="5.3081833300918015" id="-38371">
		<tag k="name" v="Gaddeskogsvatnet" />
		<tag k="natural" v="water" />
		<tag k="ssr:stedsnr" v="131128" />
	</node>
	<node lat="61.81001944066133" lon="5.578963882980366" id="-38377">
		<tag k="name" v="Osvatnet" />
		<tag k="natural" v="water" />
		<tag k="ssr:stedsnr" v="131320" />
	</node>
	<node lat="61.80151388782366" lon="5.66261388425118" id="-38378">
		<tag k="name" v="Litle Åskorvatnet" />
		<tag k="natural" v="water" />
		<tag k="ssr:stedsnr" v="131325" />
	</node>
	<node lat="61.755863541254826" lon="5.393051350681425" id="-38381">
		<tag k="name" v="Vasskarvatna" />
		<tag k="natural" v="water" />
		<tag k="ssr:stedsnr" v="131077" />
		<tag k="water" v="lake" />
	</node>
	<node lat="61.784725000287565" lon="5.674227783637241" id="-38383">
		<tag k="name" v="Store Åskorvatnet" />
		<tag k="natural" v="water" />
		<tag k="ssr:stedsnr" v="131274" />
		<tag k="water" v="lake" />
	</node>
	<node lat="61.86082777866743" lon="5.48623611277033" id="-38384">
		<tag k="name" v="Svartevatnet" />
		<tag k="natural" v="water" />
		<tag k="ssr:stedsnr" v="131367" />
	</node>
	<node lat="61.86450833525483" lon="4.937280550955835" id="-38390">
		<tag k="name" v="Båsevatnet" />
		<tag k="natural" v="water" />
		<tag k="ssr:stedsnr" v="131921" />
	</node>
	<node lat="61.850626813749294" lon="5.070749757365375" id="-38396">
		<tag k="fixme" v="multiple name tags, choose one and add the other to alt_name" />
		<tag k="name" v="Raudskardvatnet;Raudskarvatnet" />
		<tag k="natural" v="water" />
		<tag k="ssr:stedsnr" v="252882" />
	</node>
	<node lat="61.80143910180064" lon="5.2204207270235745" id="-38402">
		<tag k="name" v="Middagsvatna" />
		<tag k="natural" v="water" />
		<tag k="ssr:stedsnr" v="253145" />
		<tag k="water" v="lake" />
	</node>
	<node lat="61.86412222155213" lon="5.181294439513427" id="-38404">
		<tag k="alt_name" v="Stormyrvatnet" />
		<tag k="name" v="Fagerdalsvatnet" />
		<tag k="natural" v="water" />
		<tag k="ssr:stedsnr" v="253186" />
	</node>
	<node lat="61.874480558500224" lon="5.387536104874025" id="-38405">
		<tag k="name" v="Rauddalsvatnet" />
		<tag k="natural" v="water" />
		<tag k="ssr:stedsnr" v="253190" />
	</node>
	<node lat="61.78525555253277" lon="5.540311110550715" id="-38417">
		<tag k="name" v="Langevatnet" />
		<tag k="natural" v="water" />
		<tag k="ssr:stedsnr" v="253847" />
		<tag k="water" v="lake" />
	</node>
	<node lat="61.8344305529486" lon="5.0316250080493905" id="-38419">
		<tag k="name" v="Kvernhuselva" />
		<tag k="ssr:stedsnr" v="253912" />
		<tag k="waterway" v="stream" />
	</node>
	<node lat="61.79905277651196" lon="4.838877771636817" id="-38423">
		<tag k="name" v="Melkevatnet" />
		<tag k="natural" v="water" />
		<tag k="ssr:stedsnr" v="171058" />
	</node>
	<node lat="61.848019446448696" lon="5.679274999119006" id="-38427">
		<tag k="name" v="Tjørna" />
		<tag k="natural" v="water" />
		<tag k="ssr:stedsnr" v="171212" />
	</node>
	<node lat="61.865100002535954" lon="5.073108326015868" id="-38429">
		<tag k="name" v="Konsdalselva" />
		<tag k="ssr:stedsnr" v="171270" />
		<tag k="waterway" v="stream" />
	</node>
	<node lat="61.8254222269027" lon="5.485844450650858" id="-38435">
		<tag k="name" v="Store Ridstallen" />
		<tag k="natural" v="water" />
		<tag k="ssr:stedsnr" v="171308" />
		<tag k="water" v="pond" />
	</node>
	<node lat="61.87156666726937" lon="5.707572230689447" id="-38444">
		<tag k="name" v="Eligrova" />
		<tag k="ssr:stedsnr" v="171803" />
		<tag k="waterway" v="stream" />
	</node>
	<node lat="61.70547222357889" lon="5.192027783379043" id="-38451">
		<tag k="name" v="Fossane" />
		<tag k="natural" v="waterfall" />
		<tag k="ssr:stedsnr" v="171917" />
	</node>
	<node lat="61.87911111194086" lon="4.923936116346943" id="-38455">
		<tag k="name" v="Krypselva" />
		<tag k="ssr:stedsnr" v="172009" />
		<tag k="waterway" v="stream" />
	</node>
	<node lat="61.81405277999625" lon="5.3097833387824664" id="-38491">
		<tag k="name" v="Demminga" />
		<tag k="ssr:stedsnr" v="232504" />
		<tag k="waterway" v="dam" />
	</node>
	<node lat="61.78019166298403" lon="5.125427774729214" id="-38505">
		<tag k="name" v="Omvendeskarvatnet" />
		<tag k="natural" v="water" />
		<tag k="ssr:stedsnr" v="232787" />
	</node>
	<node lat="61.737519447965" lon="5.292161108287861" id="-38511">
		<tag k="name" v="Kvitlane" />
		<tag k="place" v="island" />
		<tag k="ssr:stedsnr" v="232890" />
	</node>
	<node lat="61.74548611041443" lon="5.331541671714298" id="-38512">
		<tag k="name" v="Stavvatnelva" />
		<tag k="ssr:stedsnr" v="232893" />
		<tag k="waterway" v="stream" />
	</node>
	<node lat="61.82640278024005" lon="5.426461107610188" id="-38518">
		<tag k="name" v="Langeløken" />
		<tag k="natural" v="water" />
		<tag k="ssr:stedsnr" v="232994" />
	</node>
	<node lat="61.78077195319629" lon="5.55637516661741" id="-38520">
		<tag k="name" v="Litle Snønykevatnet" />
		<tag k="natural" v="water" />
		<tag k="ssr:stedsnr" v="234292" />
		<tag k="water" v="lake" />
	</node>
	<node lat="61.73019999868538" lon="5.225244453850212" id="-38524">
		<tag k="name" v="Sagelva" />
		<tag k="ssr:stedsnr" v="235427" />
		<tag k="waterway" v="river" />
	</node>
	<node lat="61.784684862024754" lon="5.62118019720735" id="-38538">
		<tag k="fixme" v="multiple name tags, choose one and add the other to alt_name" />
		<tag k="name" v="Novavatnet;Nedre Sødalsvatnet" />
		<tag k="natural" v="water" />
		<tag k="ssr:stedsnr" v="253326" />
		<tag k="water" v="lake" />
	</node>
	<node lat="61.85626944737425" lon="5.363561119717309" id="-38546">
		<tag k="name" v="Heidavatnet" />
		<tag k="natural" v="water" />
		<tag k="ssr:stedsnr" v="292408" />
	</node>
	<node lat="61.90096388481528" lon="5.471263894037349" id="-38566">
		<tag k="name" v="Maragjølet" />
		<tag k="ssr:stedsnr" v="293578" />
		<tag k="waterway" v="stream" />
	</node>
	<node lat="61.77264722261843" lon="4.850927784027429" id="-38571">
		<tag k="name" v="Nykkevatnet" />
		<tag k="natural" v="water" />
		<tag k="ssr:stedsnr" v="293423" />
	</node>
	<node lat="61.694186111430014" lon="5.096761107324158" id="-38586">
		<tag k="name" v="Tverrelva" />
		<tag k="ssr:stedsnr" v="293913" />
		<tag k="waterway" v="stream" />
	</node>
	<node lat="61.748711112922315" lon="5.028508325543669" id="-38588">
		<tag k="name" v="Skudalselva" />
		<tag k="ssr:stedsnr" v="293931" />
		<tag k="waterway" v="stream" />
	</node>
	<node lat="61.79846666309502" lon="5.380880556924693" id="-38589">
		<tag k="name" v="Sørdalsholmen" />
		<tag k="place" v="islet" />
		<tag k="ssr:stedsnr" v="293992" />
	</node>
	<node lat="61.79668610809737" lon="4.864927775205578" id="-38621">
		<tag k="name" v="Kvernhuselva" />
		<tag k="ssr:stedsnr" v="474040" />
		<tag k="waterway" v="stream" />
	</node>
	<node lat="61.856405557896466" lon="5.023233327499499" id="-38624">
		<tag k="name" v="Storholmen" />
		<tag k="place" v="islet" />
		<tag k="ssr:stedsnr" v="474291" />
	</node>
	<node lat="61.830619446882906" lon="5.511383328382145" id="-38627">
		<tag k="name" v="Dyrholgrova" />
		<tag k="ssr:stedsnr" v="474313" />
		<tag k="waterway" v="stream" />
	</node>
	<node lat="61.83165277752205" lon="5.458847218868941" id="-38628">
		<tag k="name" v="Svartevasselva" />
		<tag k="ssr:stedsnr" v="474320" />
		<tag k="waterway" v="stream" />
	</node>
	<node lat="61.82255277730658" lon="5.4648111033341324" id="-38629">
		<tag k="name" v="Bjørkeholløken" />
		<tag k="place" v="locality" />
		<tag k="ssr:stedsnr" v="474323" />
	</node>
	<node lat="61.78935277508093" lon="4.810124993433981" id="-38640">
		<tag k="name" v="Skorsteinelva" />
		<tag k="ssr:stedsnr" v="474469" />
		<tag k="waterway" v="stream" />
	</node>
	<node lat="61.74078611107755" lon="5.356177781627931" id="-38660">
		<tag k="name" v="Handklefossen" />
		<tag k="natural" v="waterfall" />
		<tag k="ssr:stedsnr" v="353903" />
	</node>
	<node lat="61.78169722012025" lon="5.192222228490635" id="-38686">
		<tag k="name" v="Indre Stølsvatnet" />
		<tag k="natural" v="water" />
		<tag k="ssr:stedsnr" v="474794" />
	</node>
	<node lat="61.71716111197957" lon="5.019211113814841" id="-38689">
		<tag k="name" v="Norddalselva" />
		<tag k="ssr:stedsnr" v="474966" />
		<tag k="waterway" v="stream" />
	</node>
	<node lat="61.78292499687991" lon="5.113808339764031" id="-38690">
		<tag k="name" v="Ovendeelva" />
		<tag k="ssr:stedsnr" v="356107" />
		<tag k="waterway" v="river" />
	</node>
	<node lat="61.85432500088208" lon="5.360925003415953" id="-38707">
		<tag k="name" v="Årlåkvatnet" />
		<tag k="natural" v="water" />
		<tag k="ssr:stedsnr" v="475400" />
	</node>
	<node lat="61.88711944740439" lon="5.467580552197263" id="-38713">
		<tag k="name" v="Stabrekkselva" />
		<tag k="ssr:stedsnr" v="475597" />
		<tag k="waterway" v="stream" />
	</node>
	<node lat="61.781463886901804" lon="5.248338890860242" id="-38727">
		<tag k="name" v="Lindelielva" />
		<tag k="ssr:stedsnr" v="475777" />
		<tag k="waterway" v="stream" />
	</node>
	<node lat="61.87646944599476" lon="5.692466664796522" id="-38730">
		<tag k="name" v="Tatelelva" />
		<tag k="ssr:stedsnr" v="475801" />
		<tag k="waterway" v="stream" />
	</node>
	<node lat="61.73145833049286" lon="5.078122223644781" id="-38734">
		<tag k="name" v="Mørkedalsvatn" />
		<tag k="natural" v="water" />
		<tag k="ssr:stedsnr" v="475960" />
	</node>
	<node lat="61.79534167124549" lon="5.338180563416525" id="-38735">
		<tag k="name" v="Alhaugvatnet" />
		<tag k="natural" v="water" />
		<tag k="ssr:stedsnr" v="475985" />
	</node>
	<node lat="61.69232499666182" lon="5.243505557822406" id="-38737">
		<tag k="name" v="Kupeelva" />
		<tag k="ssr:stedsnr" v="475927" />
		<tag k="waterway" v="stream" />
	</node>
	<node lat="61.713063886451295" lon="5.236097229993366" id="-38738">
		<tag k="name" v="Litleteigneset" />
		<tag k="natural" v="cape" />
		<tag k="ssr:stedsnr" v="475930" />
	</node>
	<node lat="61.72631110829605" lon="5.096886112009377" id="-38759">
		<tag k="name" v="Mørkedalselva" />
		<tag k="ssr:stedsnr" v="372848" />
		<tag k="waterway" v="stream" />
	</node>
	<node lat="61.81451111312005" lon="5.560644447262456" id="-38762">
		<tag k="name" v="Krokvatnet" />
		<tag k="natural" v="water" />
		<tag k="ssr:stedsnr" v="373307" />
	</node>
	<node lat="61.79102499829508" lon="5.50896111360442" id="-38763">
		<tag k="name" v="Åttevatnet" />
		<tag k="natural" v="water" />
		<tag k="ssr:stedsnr" v="373317" />
	</node>
	<node lat="61.78640555314008" lon="5.492405558175771" id="-38764">
		<tag k="name" v="Seksvatnet" />
		<tag k="natural" v="water" />
		<tag k="ssr:stedsnr" v="373323" />
	</node>
	<node lat="61.806727782170796" lon="4.9910944485893465" id="-38778">
		<tag k="name" v="Rylandsvatnet" />
		<tag k="natural" v="water" />
		<tag k="ssr:stedsnr" v="374841" />
		<tag k="water" v="lake" />
	</node>
	<node lat="61.854044446117236" lon="4.935719451458758" id="-38780">
		<tag k="name" v="Videdalsvatnet" />
		<tag k="natural" v="water" />
		<tag k="ssr:stedsnr" v="374909" />
	</node>
	<node lat="61.8585583301018" lon="5.043547227044973" id="-38793">
		<tag k="name" v="Fagrerendvika" />
		<tag k="natural" v="bay" />
		<tag k="ssr:stedsnr" v="414292" />
	</node>
	<node lat="61.86020000096191" lon="5.315405558406529" id="-38799">
		<tag k="name" v="Sagelva" />
		<tag k="ssr:stedsnr" v="414602" />
		<tag k="waterway" v="stream" />
	</node>
	<node lat="61.822919440078834" lon="5.080413885548937" id="-38800">
		<tag k="name" v="Tjørna" />
		<tag k="natural" v="water" />
		<tag k="ssr:stedsnr" v="414603" />
	</node>
	<node lat="61.83581666945669" lon="5.7996777786657505" id="-38811">
		<tag k="name" v="Prestevatnet" />
		<tag k="natural" v="water" />
		<tag k="ssr:stedsnr" v="414743" />
	</node>
	<node lat="61.89728333012383" lon="4.931613888342572" id="-38821">
		<tag k="name" v="Storevatn" />
		<tag k="natural" v="water" />
		<tag k="ssr:stedsnr" v="415114" />
	</node>
	<node lat="61.829847237425" lon="4.9917419803257665" id="-38824">
		<tag k="name" v="Fosseelvane" />
		<tag k="ssr:stedsnr" v="415395" />
		<tag k="waterway" v="stream" />
	</node>
	<node lat="61.743988886268326" lon="5.307469443529584" id="-38844">
		<tag k="name" v="Novatjønn" />
		<tag k="natural" v="water" />
		<tag k="ssr:stedsnr" v="433840" />
	</node>
	<node lat="61.832777775373515" lon="5.521813895167843" id="-38846">
		<tag k="name" v="Dalsetevatnet" />
		<tag k="natural" v="water" />
		<tag k="ssr:stedsnr" v="434322" />
		<tag k="water" v="lake" />
	</node>
	<node lat="61.83144444846141" lon="5.548099993174323" id="-38848">
		<tag k="name" v="Heimste Litlevatnet" />
		<tag k="natural" v="water" />
		<tag k="ssr:stedsnr" v="434332" />
	</node>
	<node lat="61.868119442058045" lon="5.152947214527165" id="-38857">
		<tag k="name" v="Skjeklevatnet" />
		<tag k="natural" v="water" />
		<tag k="ssr:stedsnr" v="435214" />
	</node>
	<node lat="61.76301111181115" lon="5.7360027815383665" id="-38862">
		<tag k="name" v="Øvre Bredvatnet" />
		<tag k="natural" v="water" />
		<tag k="ssr:stedsnr" v="435311" />
		<tag k="water" v="lake" />
	</node>
	<node lat="61.714505557788165" lon="5.028622225427355" id="-38878">
		<tag k="name" v="Norddalsvatnet" />
		<tag k="natural" v="water" />
		<tag k="ssr:stedsnr" v="676035" />
		<tag k="water" v="lake" />
	</node>
	<node lat="61.78102777620097" lon="4.853802775340376" id="-38885">
		<tag k="name" v="Ytste Dekkjevatn" />
		<tag k="natural" v="water" />
		<tag k="ssr:stedsnr" v="474378" />
	</node>
	<node lat="61.89272221856962" lon="5.380236108839633" id="-38891">
		<tag k="name" v="Tverrelva" />
		<tag k="ssr:stedsnr" v="474613" />
		<tag k="waterway" v="stream" />
	</node>
	<node lat="61.72194166571766" lon="4.982755550273688" id="-38899">
		<tag k="loc_name" v="Sørbotnsvatnet" />
		<tag k="name" v="Sørbottenvatn" />
		<tag k="natural" v="water" />
		<tag k="ssr:stedsnr" v="474960" />
	</node>
	<node lat="61.70524444299554" lon="5.102183332435087" id="-38919">
		<tag k="name" v="Kvernhuselva" />
		<tag k="ssr:stedsnr" v="475900" />
		<tag k="waterway" v="stream" />
	</node>
	<node lat="61.76355833463355" lon="5.500855553379639" id="-38934">
		<tag k="name" v="Nipevatnet" />
		<tag k="natural" v="water" />
		<tag k="ssr:stedsnr" v="677259" />
		<tag k="water" v="lake" />
	</node>
	<node lat="61.813602778340574" lon="5.500911105423064" id="-38935">
		<tag k="name" v="Huarvatnet" />
		<tag k="natural" v="water" />
		<tag k="ssr:stedsnr" v="677298" />
	</node>
	<node lat="61.89006985518819" lon="4.945244237849915" id="-38949">
		<tag k="name" v="Solheimsvatnet" />
		<tag k="natural" v="water" />
		<tag k="ssr:stedsnr" v="679000" />
	</node>
	<node lat="61.721786110832426" lon="5.124947226810613" id="-38954">
		<tag k="alt_name" v="Svora" />
		<tag k="name" v="Svorelva" />
		<tag k="ssr:stedsnr" v="494808" />
		<tag k="waterway" v="stream" />
	</node>
	<node lat="61.795338890827644" lon="5.169108337736809" id="-38957">
		<tag k="name" v="Spekbenkvatnet" />
		<tag k="natural" v="water" />
		<tag k="ssr:stedsnr" v="495121" />
	</node>
	<node lat="61.8535305565934" lon="5.38716945096566" id="-38958">
		<tag k="alt_name" v="Årlokevatnet" />
		<tag k="name" v="Bjørnevatn" />
		<tag k="natural" v="water" />
		<tag k="ssr:stedsnr" v="495169" />
	</node>
	<node lat="61.82371111350776" lon="5.55659445318089" id="-38963">
		<tag k="name" v="Tverrgrova" />
		<tag k="ssr:stedsnr" v="495319" />
		<tag k="waterway" v="stream" />
	</node>
	<node lat="61.832724996024865" lon="5.783516660009767" id="-38966">
		<tag k="name" v="Tennevatnet" />
		<tag k="natural" v="water" />
		<tag k="ssr:stedsnr" v="495325" />
	</node>
	<node lat="61.83526944529981" lon="5.468380551180863" id="-38969">
		<tag k="name" v="Karlskarløken" />
		<tag k="natural" v="water" />
		<tag k="ssr:stedsnr" v="495363" />
	</node>
	<node lat="61.869619441184916" lon="5.0743527758477915" id="-38976">
		<tag k="name" v="Konsdalsvatnet" />
		<tag k="natural" v="water" />
		<tag k="ssr:stedsnr" v="495917" />
	</node>
	<node lat="61.77773055218361" lon="4.858441662351581" id="-38989">
		<tag k="name" v="Setreholsvatnet" />
		<tag k="natural" v="water" />
		<tag k="ssr:stedsnr" v="535385" />
	</node>
	<node lat="61.71918333108645" lon="5.228180562131239" id="-39011">
		<tag k="name" v="Brotneset" />
		<tag k="natural" v="cape" />
		<tag k="ssr:stedsnr" v="535875" />
	</node>
	<node lat="61.787558333524885" lon="5.319066668841784" id="-39023">
		<tag k="name" v="Svelgsvatnholmen" />
		<tag k="place" v="island" />
		<tag k="ssr:stedsnr" v="536771" />
	</node>
	<node lat="61.70713610940554" lon="5.023763883774927" id="-39026">
		<tag k="name" v="Osen" />
		<tag k="natural" v="bay" />
		<tag k="ssr:stedsnr" v="536980" />
	</node>
	<node lat="61.85043611296987" lon="5.378030555287707" id="-39067">
		<tag k="name" v="Otretufossen" />
		<tag k="natural" v="waterfall" />
		<tag k="ssr:stedsnr" v="596353" />
	</node>
	<node lat="61.85460833126862" lon="5.363788885387856" id="-39068">
		<tag k="name" v="Vikavatnet" />
		<tag k="natural" v="water" />
		<tag k="ssr:stedsnr" v="596354" />
	</node>
	<node lat="61.907816666901304" lon="5.3987111068418265" id="-39079">
		<tag k="name" v="Eldeelva" />
		<tag k="ssr:stedsnr" v="596561" />
		<tag k="waterway" v="stream" />
	</node>
	<node lat="61.70645277896409" lon="5.100483331768815" id="-39085">
		<tag k="name" v="Tønneshammarselva" />
		<tag k="ssr:stedsnr" v="596900" />
		<tag k="waterway" v="stream" />
	</node>
	<node lat="61.74505000169677" lon="5.058877778165734" id="-39089">
		<tag k="name" v="Gulestødalsvatn" />
		<tag k="natural" v="water" />
		<tag k="ssr:stedsnr" v="596951" />
	</node>
	<node lat="61.71088055531076" lon="5.233025006147894" id="-39101">
		<tag k="name" v="Indrehusvatnet" />
		<tag k="natural" v="water" />
		<tag k="ssr:stedsnr" v="615802" />
		<tag k="water" v="lake" />
	</node>
	<node lat="61.7829777774719" lon="5.207225005713876" id="-39103">
		<tag k="alt_name" v="Storevatnet" />
		<tag k="name" v="Dyrstadvatnet" />
		<tag k="natural" v="water" />
		<tag k="ssr:stedsnr" v="616105" />
		<tag k="water" v="lake" />
	</node>
	<node lat="61.84449444771543" lon="5.465547214225771" id="-39109">
		<tag k="name" v="Øyravatnet" />
		<tag k="natural" v="water" />
		<tag k="ssr:stedsnr" v="616125" />
	</node>
	<node lat="61.836552774097065" lon="5.725124991757389" id="-39118">
		<tag k="name" v="Sagelva" />
		<tag k="ssr:stedsnr" v="616302" />
		<tag k="waterway" v="stream" />
	</node>
	<node lat="61.86807500073872" lon="5.048072213918983" id="-39123">
		<tag k="name" v="Blåfjellvatnet" />
		<tag k="natural" v="water" />
		<tag k="ssr:stedsnr" v="616920" />
	</node>
	<node lat="61.80460000151292" lon="5.639524993137216" id="-39128">
		<tag k="name" v="Øykjevikelva" />
		<tag k="ssr:stedsnr" v="626550" />
		<tag k="waterway" v="stream" />
	</node>
	<node lat="61.8270583336586" lon="5.49681111500931" id="-39135">
		<tag k="name" v="Storløken" />
		<tag k="place" v="locality" />
		<tag k="ssr:stedsnr" v="656317" />
	</node>
	<node lat="61.8660805562969" lon="5.146580550812295" id="-39146">
		<tag k="name" v="Notelva" />
		<tag k="ssr:stedsnr" v="656643" />
		<tag k="waterway" v="stream" />
	</node>
	<node lat="61.84293888525733" lon="5.319466657996422" id="-39149">
		<tag k="name" v="Kjeelva" />
		<tag k="ssr:stedsnr" v="656588" />
		<tag k="waterway" v="stream" />
	</node>
	<node lat="61.725647226308425" lon="5.2229583292677235" id="-39158">
		<tag k="name" v="Straumen" />
		<tag k="natural" v="strait" />
		<tag k="ssr:stedsnr" v="656906" />
	</node>
	<node lat="61.75040833201258" lon="5.344638889630007" id="-39160">
		<tag k="name" v="Risevatnholmen" />
		<tag k="place" v="islet" />
		<tag k="ssr:stedsnr" v="656909" />
	</node>
	<node lat="61.718800003989934" lon="5.045274997681939" id="-39162">
		<tag k="name" v="Glennehammarsgjota" />
		<tag k="ssr:stedsnr" v="656998" />
		<tag k="waterway" v="stream" />
	</node>
	<node lat="61.781291668447246" lon="5.319802786765836" id="-39171">
		<tag k="name" v="Svelgsdammen" />
		<tag k="ssr:stedsnr" v="657727" />
		<tag k="waterway" v="dam" />
	</node>
	<node lat="61.862433334133755" lon="5.723099994682939" id="-39172">
		<tag k="name" v="Englestadelva" />
		<tag k="ssr:stedsnr" v="657781" />
		<tag k="waterway" v="stream" />
	</node>
	<node lat="61.79304444104981" lon="5.360661116278549" id="-39178">
		<tag k="name" v="Sørdalsfossen" />
		<tag k="natural" v="waterfall" />
		<tag k="ssr:stedsnr" v="657980" />
	</node>
	<node lat="61.823338890256125" lon="5.428022222048897" id="-39179">
		<tag k="name" v="Kalneset" />
		<tag k="natural" v="cape" />
		<tag k="ssr:stedsnr" v="657990" />
	</node>
	<node lat="61.80274722667861" lon="5.381338893604263" id="-39180">
		<tag k="name" v="Hanslineset" />
		<tag k="natural" v="cape" />
		<tag k="ssr:stedsnr" v="657992" />
	</node>
	<node lat="61.80715277543298" lon="5.414622225304004" id="-39181">
		<tag k="name" v="Indre Dolsevatn" />
		<tag k="natural" v="water" />
		<tag k="ssr:stedsnr" v="657995" />
	</node>
	<node lat="61.81100278196924" lon="5.407047220596892" id="-39182">
		<tag k="name" v="Sørdalselva" />
		<tag k="ssr:stedsnr" v="657997" />
		<tag k="waterway" v="stream" />
	</node>
	<node lat="61.74260277764226" lon="5.033172213292839" id="-39191">
		<tag k="name" v="Skudalsvatnet" />
		<tag k="natural" v="water" />
		<tag k="ssr:stedsnr" v="675495" />
		<tag k="water" v="lake" />
	</node>
	<node lat="61.64455555912642" lon="5.089163893733342" id="-39193">
		<tag k="name" v="Storelva" />
		<tag k="ssr:stedsnr" v="676114" />
		<tag k="waterway" v="stream" />
	</node>
	<node lat="61.76694166458577" lon="5.454927770915664" id="-39197">
		<tag k="name" v="Tvillingtjønna" />
		<tag k="natural" v="water" />
		<tag k="ssr:stedsnr" v="677081" />
		<tag k="water" v="lake" />
	</node>
	<node lat="61.80074999800499" lon="5.378527783363121" id="-39199">
		<tag k="name" v="Sørdalsvatnet" />
		<tag k="natural" v="water" />
		<tag k="ssr:stedsnr" v="677107" />
		<tag k="water" v="lake" />
	</node>
	<node lat="61.84665278207692" lon="5.5464833387863255" id="-39205">
		<tag k="name" v="Ørnereidsvatnet" />
		<tag k="natural" v="water" />
		<tag k="ssr:stedsnr" v="677332" />
	</node>
	<node lat="61.8284055568763" lon="5.561611111015891" id="-39207">
		<tag k="name" v="Pottelva" />
		<tag k="ssr:stedsnr" v="677350" />
		<tag k="waterway" v="stream" />
	</node>
	<node lat="61.89073888628686" lon="4.986797226241243" id="-39216">
		<tag k="name" v="Mefåvatnet" />
		<tag k="natural" v="water" />
		<tag k="ssr:stedsnr" v="678989" />
	</node>
	<node lat="61.837130551627055" lon="5.797533331217101" id="-39218">
		<tag k="name" v="Vestelva" />
		<tag k="ssr:stedsnr" v="687509" />
		<tag k="waterway" v="stream" />
	</node>
	<node lat="61.77999495852201" lon="4.869715768370932" id="-39232">
		<tag k="name" v="Meråkvatna" />
		<tag k="natural" v="water" />
		<tag k="ssr:stedsnr" v="717390" />
		<tag k="water" v="lake" />
	</node>
	<node lat="61.80716389252224" lon="5.59529166723035" id="-39234">
		<tag k="name" v="Betnagrova" />
		<tag k="ssr:stedsnr" v="899183" />
		<tag k="waterway" v="stream" />
	</node>
	<node lat="61.707755558208596" lon="5.159199993229381" id="-39256">
		<tag k="name" v="Svora" />
		<tag k="ssr:stedsnr" v="717911" />
		<tag k="waterway" v="stream" />
	</node>
	<node lat="61.84445277959066" lon="5.0672555639721235" id="-39260">
		<tag k="name" v="Tjørnet" />
		<tag k="natural" v="water" />
		<tag k="ssr:stedsnr" v="718287" />
	</node>
	<node lat="61.76459721891559" lon="5.293252786029439" id="-39286">
		<tag k="name" v="Osen" />
		<tag k="natural" v="bay" />
		<tag k="ssr:stedsnr" v="900043" />
	</node>
	<node lat="61.78148888744051" lon="4.862502771822526" id="-39301">
		<tag k="name" v="Inste Dekkjevatn" />
		<tag k="natural" v="water" />
		<tag k="ssr:stedsnr" v="900385" />
	</node>
	<node lat="61.77510833640327" lon="4.854222219584567" id="-39302">
		<tag k="name" v="Lomevatnet" />
		<tag k="natural" v="water" />
		<tag k="ssr:stedsnr" v="900386" />
	</node>
	<node lat="61.849400002990826" lon="5.170511108220666" id="-39315">
		<tag k="name" v="Ytste Hestevikelva" />
		<tag k="ssr:stedsnr" v="900642" />
		<tag k="waterway" v="stream" />
	</node>
	<node lat="61.84058611420938" lon="5.773897223578468" id="-39317">
		<tag k="name" v="Seidelva" />
		<tag k="ssr:stedsnr" v="900768" />
		<tag k="waterway" v="stream" />
	</node>
	<node lat="61.83707221974861" lon="5.721044446531614" id="-39320">
		<tag k="name" v="Svartelva" />
		<tag k="ssr:stedsnr" v="900748" />
		<tag k="waterway" v="stream" />
	</node>
	<node lat="61.81961389206182" lon="4.970886115960422" id="-39339">
		<tag k="name" v="Stokkåa" />
		<tag k="ssr:stedsnr" v="901378" />
		<tag k="waterway" v="stream" />
	</node>
	<node lat="61.81896388827014" lon="5.543063896412439" id="-39351">
		<tag k="name" v="Pottane" />
		<tag k="natural" v="water" />
		<tag k="ssr:stedsnr" v="738329" />
	</node>
	<node lat="61.85386110815399" lon="5.373566667897203" id="-39373">
		<tag k="name" v="Stokkevatnet" />
		<tag k="natural" v="water" />
		<tag k="ssr:stedsnr" v="778358" />
	</node>
	<node lat="61.77493888985632" lon="4.84814722912966" id="-39374">
		<tag k="name" v="Gunnavikelva" />
		<tag k="ssr:stedsnr" v="778362" />
		<tag k="waterway" v="stream" />
	</node>
	<node lat="61.78721388979475" lon="4.9615277737934225" id="-39377">
		<tag k="name" v="Åsetjørna" />
		<tag k="natural" v="water" />
		<tag k="ssr:stedsnr" v="778410" />
	</node>
	<node lat="61.881974996849905" lon="5.4726527873672595" id="-39384">
		<tag k="name" v="Steinelvane" />
		<tag k="ssr:stedsnr" v="778585" />
		<tag k="waterway" v="stream" />
	</node>
	<node lat="61.901544447324625" lon="5.388183329026379" id="-39391">
		<tag k="name" v="Husdalsvatnet" />
		<tag k="natural" v="water" />
		<tag k="ssr:stedsnr" v="778605" />
	</node>
	<node lat="61.71866388843823" lon="5.192150006926873" id="-39399">
		<tag k="name" v="Vikaelva" />
		<tag k="ssr:stedsnr" v="778909" />
		<tag k="waterway" v="stream" />
	</node>
	<node lat="61.69581388718797" lon="5.238708341796453" id="-39401">
		<tag k="name" v="Handkleelva" />
		<tag k="ssr:stedsnr" v="778912" />
		<tag k="waterway" v="river" />
	</node>
	<node lat="61.81471944308985" lon="4.932433325509221" id="-39409">
		<tag k="name" v="Fossane" />
		<tag k="natural" v="waterfall" />
		<tag k="ssr:stedsnr" v="779020" />
	</node>
	<node lat="61.77538055856262" lon="5.317291665292068" id="-39412">
		<tag k="name" v="Storefossvatnet" />
		<tag k="natural" v="water" />
		<tag k="ssr:stedsnr" v="779759" />
	</node>
	<node lat="61.77008055586012" lon="5.298858327046912" id="-39413">
		<tag k="name" v="Svelgselva" />
		<tag k="ssr:stedsnr" v="779763" />
		<tag k="waterway" v="river" />
	</node>
	<node lat="61.87902323126277" lon="5.266562306854752" id="-39433">
		<tag k="name" v="Gloføykvatnet" />
		<tag k="natural" v="water" />
		<tag k="ssr:stedsnr" v="799188" />
	</node>
	<node lat="61.77713333551193" lon="5.6593638933587425" id="-39436">
		<tag k="fixme" v="multiple name tags, choose one and add the other to alt_name" />
		<tag k="name" v="Litleelva;Bredelva" />
		<tag k="ssr:stedsnr" v="799303" />
		<tag k="waterway" v="stream" />
	</node>
	<node lat="61.77344999570747" lon="5.596286104928632" id="-39437">
		<tag k="name" v="Øvre Sødalsvatnet" />
		<tag k="natural" v="water" />
		<tag k="ssr:stedsnr" v="799304" />
		<tag k="water" v="lake" />
	</node>
	<node lat="61.78865832899342" lon="5.5194416690865316" id="-39438">
		<tag k="name" v="Nivatnet" />
		<tag k="natural" v="water" />
		<tag k="ssr:stedsnr" v="799308" />
	</node>
	<node lat="61.8319322344344" lon="5.801955971824828" id="-39440">
		<tag k="name" v="Nevreskorvatnet" />
		<tag k="natural" v="water" />
		<tag k="ssr:stedsnr" v="799343" />
	</node>
	<node lat="61.81103610673131" lon="5.585936104042919" id="-39441">
		<tag k="name" v="Vaulen" />
		<tag k="natural" v="water" />
		<tag k="ssr:stedsnr" v="799348" />
	</node>
	<node lat="61.87516111505086" lon="5.601055545606689" id="-39448">
		<tag k="name" v="Nipevotna" />
		<tag k="natural" v="water" />
		<tag k="ssr:stedsnr" v="799385" />
		<tag k="water" v="lake" />
	</node>
	<node lat="61.859183332084775" lon="4.930755556902105" id="-39450">
		<tag k="name" v="Grunnevatnet" />
		<tag k="natural" v="water" />
		<tag k="ssr:stedsnr" v="799909" />
	</node>
	<node lat="61.85209444884385" lon="5.0384416648714305" id="-39452">
		<tag k="name" v="Lågeidet" />
		<tag k="place" v="locality" />
		<tag k="ssr:stedsnr" v="799912" />
	</node>
	<node lat="61.84036666562454" lon="5.027144444616028" id="-39457">
		<tag k="name" v="Førdselva" />
		<tag k="ssr:stedsnr" v="810013" />
		<tag k="waterway" v="river" />
	</node>
	<node lat="61.70598333585873" lon="5.249386116760913" id="-39475">
		<tag k="name" v="Ramsskredelva" />
		<tag k="ssr:stedsnr" v="919864" />
		<tag k="waterway" v="stream" />
	</node>
	<node lat="61.87288611281387" lon="5.044405551463779" id="-39478">
		<tag k="alt_name" v="Tverelvvatnet" />
		<tag k="name" v="Tverrelvvatnet" />
		<tag k="natural" v="water" />
		<tag k="ssr:stedsnr" v="920894" />
	</node>
	<node lat="61.786649997791265" lon="5.523086113680409" id="-39485">
		<tag k="name" v="Tivatnet" />
		<tag k="natural" v="water" />
		<tag k="ssr:stedsnr" v="920281" />
	</node>
	<node lat="61.83277777370735" lon="5.8533749958121675" id="-39486">
		<tag k="name" v="Sælebotsvatnet" />
		<tag k="natural" v="water" />
		<tag k="ssr:stedsnr" v="920660" />
	</node>
	<node lat="61.863041669309816" lon="5.003536103636206" id="-39495">
		<tag k="name" v="Brokåna" />
		<tag k="ssr:stedsnr" v="839314" />
		<tag k="waterway" v="stream" />
	</node>
	<node lat="61.84189444712043" lon="5.674197213567854" id="-39498">
		<tag k="name" v="Husegrova" />
		<tag k="ssr:stedsnr" v="839235" />
		<tag k="waterway" v="stream" />
	</node>
	<node lat="61.85143610864976" lon="5.011472231356959" id="-39500">
		<tag k="name" v="Hansgrova" />
		<tag k="ssr:stedsnr" v="839249" />
		<tag k="waterway" v="stream" />
	</node>
	<node lat="61.859344442246304" lon="5.023572229814143" id="-39503">
		<tag k="name" v="Varsvika" />
		<tag k="natural" v="bay" />
		<tag k="ssr:stedsnr" v="839296" />
	</node>
	<node lat="61.89374166508247" lon="4.995236120428956" id="-39504">
		<tag k="name" v="Fåelva" />
		<tag k="ssr:stedsnr" v="839301" />
		<tag k="waterway" v="stream" />
	</node>
	<node lat="61.808294440196775" lon="5.0507972250971545" id="-39506">
		<tag k="name" v="Skipperdalselva" />
		<tag k="ssr:stedsnr" v="839427" />
		<tag k="waterway" v="stream" />
	</node>
	<node lat="61.791088891017715" lon="4.973730546911252" id="-39507">
		<tag k="name" v="Djupedalsvatnet" />
		<tag k="natural" v="water" />
		<tag k="ssr:stedsnr" v="839428" />
	</node>
	<node lat="61.80903610956038" lon="5.242950002468435" id="-39511">
		<tag k="name" v="Storelva" />
		<tag k="ssr:stedsnr" v="839580" />
		<tag k="waterway" v="stream" />
	</node>
	<node lat="61.8540972253739" lon="5.165283342134933" id="-39518">
		<tag k="name" v="Tommegrova" />
		<tag k="ssr:stedsnr" v="839633" />
		<tag k="waterway" v="stream" />
	</node>
	<node lat="61.74743611001435" lon="5.335716673108671" id="-39527">
		<tag k="name" v="Fossen" />
		<tag k="natural" v="waterfall" />
		<tag k="ssr:stedsnr" v="839881" />
	</node>
	<node lat="61.840569445508876" lon="4.914341667317976" id="-39528">
		<tag k="name" v="Kvernhuselva" />
		<tag k="ssr:stedsnr" v="840004" />
		<tag k="waterway" v="stream" />
	</node>
	<node lat="61.8428416674749" lon="5.075111108940195" id="-39535">
		<tag k="name" v="Skartjørnet" />
		<tag k="natural" v="water" />
		<tag k="ssr:stedsnr" v="840279" />
	</node>
	<node lat="61.87027500305484" lon="4.8845972222115" id="-39561">
		<tag k="name" v="Tussevikelva" />
		<tag k="ssr:stedsnr" v="859859" />
		<tag k="waterway" v="stream" />
	</node>
	<node lat="61.84777499695031" lon="5.412747220038659" id="-39565">
		<tag k="name" v="Bortneelva" />
		<tag k="ssr:stedsnr" v="860157" />
		<tag k="waterway" v="stream" />
	</node>
	<node lat="61.85326110731113" lon="5.455147214119011" id="-39567">
		<tag k="name" v="Skitløkane" />
		<tag k="ssr:stedsnr" v="860170" />
		<tag k="waterway" v="stream" />
	</node>
	<node lat="61.864083333347736" lon="5.108616667217028" id="-39571">
		<tag k="name" v="Hestedalsvatnet" />
		<tag k="natural" v="water" />
		<tag k="ssr:stedsnr" v="860210" />
	</node>
	<node lat="61.76539722451209" lon="5.544249992546756" id="-39577">
		<tag k="name" v="Langevatnet" />
		<tag k="natural" v="water" />
		<tag k="ssr:stedsnr" v="860860" />
		<tag k="water" v="lake" />
	</node>
	<node lat="61.787936521735496" lon="5.2326625221039205" id="-39582">
		<tag k="name" v="Avskjedspølen" />
		<tag k="natural" v="water" />
		<tag k="ssr:stedsnr" v="931231" />
		<tag k="water" v="pond" />
	</node>
	<node lat="61.89112222618521" lon="5.370799999943662" id="-39591">
		<tag k="name" v="Vågselva" />
		<tag k="ssr:stedsnr" v="899612" />
		<tag k="waterway" v="stream" />
	</node>
	<node lat="61.87253333612763" lon="5.040369439692922" id="-39603">
		<tag k="name" v="Tverelva" />
		<tag k="ssr:stedsnr" v="900312" />
		<tag k="waterway" v="stream" />
	</node>
	<node lat="61.854950001862015" lon="5.0158166683709995" id="-39604">
		<tag k="name" v="Maravika" />
		<tag k="natural" v="bay" />
		<tag k="ssr:stedsnr" v="900314" />
	</node>
	<node lat="61.86031389130845" lon="5.136280548595777" id="-39618">
		<tag k="name" v="Litledalselva" />
		<tag k="ssr:stedsnr" v="900664" />
		<tag k="waterway" v="stream" />
	</node>
	<node lat="61.77340833092608" lon="5.309288890960386" id="-39620">
		<tag k="name" v="Litlevatnet" />
		<tag k="natural" v="water" />
		<tag k="ssr:stedsnr" v="900755" />
	</node>
	<node lat="61.8226194427805" lon="5.0113888983779775" id="-39626">
		<tag k="name" v="Fagredalsvatnet" />
		<tag k="natural" v="water" />
		<tag k="ssr:stedsnr" v="901364" />
	</node>
	<node lat="61.83233611333274" lon="5.061538884451788" id="-39648">
		<tag k="name" v="Svartevatnet" />
		<tag k="natural" v="water" />
		<tag k="ssr:stedsnr" v="920921" />
	</node>
	<node lat="61.86430000242371" lon="4.979341659297022" id="-39661">
		<tag k="name" v="Botnaelva" />
		<tag k="ssr:stedsnr" v="960296" />
		<tag k="waterway" v="stream" />
	</node>
	<node lat="61.73894722017891" lon="5.182783339394289" id="-39665">
		<tag k="name" v="Fagrevikelva" />
		<tag k="ssr:stedsnr" v="960441" />
		<tag k="waterway" v="stream" />
	</node>
	<node lat="61.84274722112036" lon="5.127466665309867" id="-39676">
		<tag k="name" v="Lisetelva" />
		<tag k="ssr:stedsnr" v="960645" />
		<tag k="waterway" v="stream" />
	</node>
	<node lat="61.804663891938716" lon="5.391422214337389" id="-39681">
		<tag k="name" v="Sørdalssanden" />
		<tag k="natural" v="bay" />
		<tag k="ssr:stedsnr" v="960993" />
	</node>
	<node lat="61.70196111033797" lon="5.1221194427033945" id="-39695">
		<tag k="name" v="Nordre Sørgulelva" />
		<tag k="ssr:stedsnr" v="963703" />
		<tag k="waterway" v="stream" />
	</node>
	<node lat="61.83565555227096" lon="5.552263895542195" id="-39707">
		<tag k="name" v="Fessegrova" />
		<tag k="ssr:stedsnr" v="10360" />
		<tag k="waterway" v="stream" />
	</node>
	<node lat="61.72747777577936" lon="5.23815555315421" id="-39711">
		<tag k="name" v="Sagelva" />
		<tag k="ssr:stedsnr" v="8832" />
		<tag k="waterway" v="stream" />
	</node>
	<node lat="61.748097225104594" lon="5.344077784212693" id="-39713">
		<tag k="name" v="Risevatnet" />
		<tag k="natural" v="water" />
		<tag k="ssr:stedsnr" v="8857" />
		<tag k="water" v="lake" />
	</node>
	<node lat="61.758336109443036" lon="5.417369451690446" id="-39716">
		<tag k="name" v="Rundevatnet" />
		<tag k="natural" v="water" />
		<tag k="ssr:stedsnr" v="10084" />
	</node>
	<node lat="61.85877125253886" lon="5.37154808065123" id="-39717">
		<tag k="name" v="Blålidvatna" />
		<tag k="natural" v="water" />
		<tag k="ssr:stedsnr" v="10159" />
		<tag k="water" v="lake" />
	</node>
	<node lat="61.834399996395135" lon="5.844919435961618" id="-39725">
		<tag k="name" v="Hjortestigvatnet" />
		<tag k="natural" v="water" />
		<tag k="ssr:stedsnr" v="10688" />
	</node>
	<node lat="61.702219446927984" lon="5.170513896556874" id="-39726">
		<tag k="name" v="Sagelva" />
		<tag k="ssr:stedsnr" v="10799" />
		<tag k="waterway" v="stream" />
	</node>
	<node lat="61.88341388624557" lon="5.628977772010407" id="-39731">
		<tag k="name" v="Gjølsvorgrova" />
		<tag k="ssr:stedsnr" v="20527" />
		<tag k="waterway" v="stream" />
	</node>
	<node lat="61.810207766825144" lon="5.322950029910962" id="-39732">
		<tag k="fixme" v="multiple name tags, choose one and add the other to alt_name" />
		<tag k="name" v="Nordre Kovevatnet;Nordre Krokevatna;Krokevatna, nordre" />
		<tag k="natural" v="water" />
		<tag k="ssr:stedsnr" v="20341" />
		<tag k="water" v="lake" />
	</node>
	<node lat="61.842419447364655" lon="4.967916668562938" id="-39744">
		<tag k="name" v="Haugeelva" />
		<tag k="ssr:stedsnr" v="50254" />
		<tag k="waterway" v="stream" />
	</node>
	<node lat="61.85754999892991" lon="5.056480549250715" id="-39755">
		<tag k="name" v="Dalelva" />
		<tag k="ssr:stedsnr" v="50288" />
		<tag k="waterway" v="river" />
	</node>
	<node lat="61.86476388782493" lon="5.016605557136572" id="-39757">
		<tag k="name" v="Storelva" />
		<tag k="ssr:stedsnr" v="50300" />
		<tag k="waterway" v="stream" />
	</node>
	<node lat="61.847452775265694" lon="5.1469416737514395" id="-39760">
		<tag k="name" v="Nørvikelva" />
		<tag k="ssr:stedsnr" v="50580" />
		<tag k="waterway" v="stream" />
	</node>
	<node lat="61.71886111553041" lon="5.213836114697077" id="-39791">
		<tag k="name" v="Djupevikelva" />
		<tag k="ssr:stedsnr" v="50864" />
		<tag k="waterway" v="stream" />
	</node>
	<node lat="61.74048610797515" lon="5.048483325475577" id="-39793">
		<tag k="name" v="Fossedalsvatn" />
		<tag k="natural" v="water" />
		<tag k="ssr:stedsnr" v="50953" />
	</node>
	<node lat="61.81477500431883" lon="4.979708329791873" id="-39798">
		<tag k="name" v="Husefjellvatnet" />
		<tag k="natural" v="water" />
		<tag k="ssr:stedsnr" v="51414" />
	</node>
	<node lat="61.82636388469914" lon="5.8237805468333335" id="-39805">
		<tag k="name" v="Kringsjåvatnet" />
		<tag k="natural" v="water" />
		<tag k="ssr:stedsnr" v="70292" />
	</node>
	<node lat="61.80247499621615" lon="5.497963893946787" id="-39807">
		<tag k="name" v="Fessevatnet" />
		<tag k="natural" v="water" />
		<tag k="ssr:stedsnr" v="70300" />
	</node>
	<node lat="61.88775000455664" lon="5.624811117877806" id="-39809">
		<tag k="name" v="Sætreelva" />
		<tag k="ssr:stedsnr" v="70401" />
		<tag k="waterway" v="stream" />
	</node>
	<node lat="61.73584999955134" lon="5.222011118359014" id="-39811">
		<tag k="name" v="Litleelva" />
		<tag k="ssr:stedsnr" v="69858" />
		<tag k="waterway" v="stream" />
	</node>
	<node lat="61.735361107569645" lon="5.234238883073932" id="-39812">
		<tag k="alt_name" v="Storelva" />
		<tag k="name" v="Storeelva" />
		<tag k="ssr:stedsnr" v="69859" />
		<tag k="waterway" v="stream" />
	</node>
	<node lat="61.68280555438655" lon="5.319936114444919" id="-39813">
		<tag k="name" v="Øvre Handklevatnet" />
		<tag k="natural" v="water" />
		<tag k="ssr:stedsnr" v="69872" />
		<tag k="water" v="lake" />
	</node>
	<node lat="61.83285833102704" lon="5.587058338486613" id="-39815">
		<tag k="name" v="Sætrevatnet" />
		<tag k="natural" v="water" />
		<tag k="ssr:stedsnr" v="70342" />
	</node>
	<node lat="61.77247778013868" lon="5.437558330143252" id="-39820">
		<tag k="name" v="Hjelmevatnet" />
		<tag k="natural" v="water" />
		<tag k="ssr:stedsnr" v="71060" />
	</node>
	<node lat="61.76406891238242" lon="5.445998937086804" id="-39822">
		<tag k="name" v="Bratthammarvatnet" />
		<tag k="natural" v="water" />
		<tag k="ssr:stedsnr" v="71066" />
		<tag k="water" v="lake" />
	</node>
	<node lat="61.79949722657096" lon="5.180916671151203" id="-39826">
		<tag k="name" v="Skorabovatnet" />
		<tag k="natural" v="water" />
		<tag k="ssr:stedsnr" v="71099" />
	</node>
	<node lat="61.78745833596039" lon="5.597188894688469" id="-39832">
		<tag k="name" v="Snønykevatnet" />
		<tag k="natural" v="water" />
		<tag k="ssr:stedsnr" v="71314" />
		<tag k="water" v="lake" />
	</node>
	<node lat="61.85675489242991" lon="5.6699662241036854" id="-39837">
		<tag k="name" v="Småvotna" />
		<tag k="natural" v="water" />
		<tag k="ssr:stedsnr" v="71394" />
		<tag k="water" v="lake" />
	</node>
	<node lat="61.78135833401212" lon="5.146655553433568" id="-39844">
		<tag k="name" v="Fossen" />
		<tag k="natural" v="waterfall" />
		<tag k="ssr:stedsnr" v="110826" />
	</node>
	<node lat="61.85583611105736" lon="5.03710278482917" id="-39852">
		<tag k="name" v="Indre Dalevatn" />
		<tag k="natural" v="water" />
		<tag k="ssr:stedsnr" v="111299" />
		<tag k="water" v="lake" />
	</node>
	<node lat="61.8143972237813" lon="5.6358055465456545" id="-39854">
		<tag k="name" v="Dalelva" />
		<tag k="ssr:stedsnr" v="111147" />
		<tag k="waterway" v="stream" />
	</node>
	<node lat="61.8935944422535" lon="5.528433324345267" id="-39866">
		<tag k="name" v="Storelva" />
		<tag k="ssr:stedsnr" v="111562" />
		<tag k="waterway" v="river" />
	</node>
	<node lat="61.71838333034678" lon="5.185897225922885" id="-39877">
		<tag k="name" v="Myklebustelva" />
		<tag k="ssr:stedsnr" v="111895" />
		<tag k="waterway" v="stream" />
	</node>
	<node lat="61.72178333227876" lon="5.226616658555113" id="-39889">
		<tag k="name" v="Vasselva" />
		<tag k="ssr:stedsnr" v="111866" />
		<tag k="waterway" v="river" />
	</node>
	<node lat="61.82203055362103" lon="5.428200009037067" id="-39892">
		<tag k="name" v="Skipparvika" />
		<tag k="natural" v="bay" />
		<tag k="ssr:stedsnr" v="111992" />
	</node>
	<node lat="61.85001666443204" lon="5.167966668125366" id="-39919">
		<tag k="name" v="Elvane" />
		<tag k="ssr:stedsnr" v="115401" />
		<tag k="waterway" v="river" />
	</node>
	<node lat="61.83744721916527" lon="5.228519446239148" id="-39926">
		<tag k="name" v="Ølkona" />
		<tag k="ssr:stedsnr" v="131137" />
		<tag k="waterway" v="stream" />
	</node>
	<node lat="61.8421666690317" lon="5.597811104616067" id="-39935">
		<tag k="name" v="Ytste Tverrelva" />
		<tag k="ssr:stedsnr" v="131349" />
		<tag k="waterway" v="stream" />
	</node>
	<node lat="61.882338887710105" lon="5.66412777504202" id="-39938">
		<tag k="name" v="Steinelva" />
		<tag k="ssr:stedsnr" v="131365" />
		<tag k="waterway" v="stream" />
	</node>
	<node lat="61.879502775947785" lon="5.046330548627968" id="-39942">
		<tag k="name" v="Blandevatnet" />
		<tag k="natural" v="water" />
		<tag k="ssr:stedsnr" v="131990" />
	</node>
	<node lat="61.86640277779432" lon="4.907827777040309" id="-39946">
		<tag k="name" v="Tussevikvatnet" />
		<tag k="natural" v="water" />
		<tag k="ssr:stedsnr" v="131929" />
		<tag k="water" v="lake" />
	</node>
	<node lat="61.83617777636417" lon="5.52257500527093" id="-39955">
		<tag k="name" v="Stranda" />
		<tag k="natural" v="beach" />
		<tag k="ssr:stedsnr" v="171140" />
	</node>
	<node lat="61.79354166858587" lon="4.819774997310666" id="-39962">
		<tag k="name" v="Muledalsvatnet" />
		<tag k="natural" v="water" />
		<tag k="ssr:stedsnr" v="171048" />
	</node>
	<node lat="61.77833055132668" lon="4.8562194378948655" id="-39966">
		<tag k="name" v="Koleelva" />
		<tag k="ssr:stedsnr" v="171425" />
		<tag k="waterway" v="stream" />
	</node>
	<node lat="61.873602776710165" lon="5.352336116011984" id="-39968">
		<tag k="name" v="Demma" />
		<tag k="ssr:stedsnr" v="171448" />
		<tag k="waterway" v="dam" />
	</node>
	<node lat="61.841900002430975" lon="4.986183332454591" id="-39969">
		<tag k="name" v="Båtsvika" />
		<tag k="natural" v="bay" />
		<tag k="ssr:stedsnr" v="171234" />
	</node>
	<node lat="61.84433055569067" lon="4.986097226229612" id="-39970">
		<tag k="name" v="Langenes" />
		<tag k="natural" v="cape" />
		<tag k="ssr:stedsnr" v="171236" />
	</node>
	<node lat="61.85453888702202" lon="5.034105565063887" id="-39972">
		<tag k="name" v="Lauvika" />
		<tag k="natural" v="bay" />
		<tag k="ssr:stedsnr" v="171288" />
	</node>
	<node lat="61.74234444732055" lon="5.0544972253530895" id="-39997">
		<tag k="name" v="Lonevatn" />
		<tag k="natural" v="water" />
		<tag k="ssr:stedsnr" v="171953" />
	</node>
	<node lat="61.71710278025795" lon="5.009058326498871" id="-40006">
		<tag k="name" v="Sørdalselva" />
		<tag k="ssr:stedsnr" v="171963" />
		<tag k="waterway" v="stream" />
	</node>
	<node lat="61.71484166417927" lon="5.056222215591029" id="-40007">
		<tag k="name" v="Fossedalsvatn" />
		<tag k="natural" v="water" />
		<tag k="ssr:stedsnr" v="171976" />
		<tag k="water" v="lake" />
	</node>
</osm>
