<?xml version="1.0" encoding="UTF-8"?>
<osm version="0.6" generator="osmapis">
	<node lat="61.751780551584204" lon="5.026738882744635" id="-33716">
		<tag k="bridge" v="yes" />
		<tag k="layer" v="1" />
		<tag k="name" v="Skudalselva" />
		<tag k="ssr:stedsnr" v="229666" />
	</node>
	<node lat="61.786644444692115" lon="4.930327775016388" id="-33717">
		<tag k="bridge" v="yes" />
		<tag k="layer" v="1" />
		<tag k="name" v="Trangesundet" />
		<tag k="ssr:stedsnr" v="229667" />
	</node>
	<node lat="61.77702222042861" lon="4.880277787101989" id="-33762">
		<tag k="man_made" v="cairn" />
		<tag k="name" v="Lægdevarden" />
		<tag k="place" v="locality" />
		<tag k="ssr:stedsnr" v="232356" />
	</node>
	<node lat="61.89037778159842" lon="5.307222223510909" id="-33768">
		<tag k="fixme" v="verify maritime location" />
		<tag k="mooring" v="yes" />
		<tag k="name" v="Kråkevåg" />
		<tag k="place" v="locality" />
		<tag k="ssr:stedsnr" v="232538" />
	</node>
	<node lat="61.739119444204505" lon="5.213133327218502" id="-33896">
		<tag k="fixme" v="consider highway=path" />
		<tag k="highway" v="track" />
		<tag k="name" v="Setrevegen" />
		<tag k="ssr:stedsnr" v="110886" />
	</node>
	<node lat="61.813380557917654" lon="5.666174995233583" id="-33961">
		<tag k="landuse" v="industrial" />
		<tag k="name" v="Åskåra Kraftverk" />
		<tag k="old_name" v="Åskora kraftstasjon" />
		<tag k="power" v="plant" />
		<tag k="ssr:stedsnr" v="252308" />
	</node>
	<node lat="61.770063886876954" lon="5.29742500683457" id="-34028">
		<tag k="bridge" v="yes" />
		<tag k="layer" v="1" />
		<tag k="name" v="Svelgfoss" />
		<tag k="ssr:stedsnr" v="168655" />
	</node>
	<node lat="61.71484444033441" lon="4.738302783298266" id="-34079">
		<tag k="name" v="Toddeskjerleia" />
		<tag k="place" v="locality" />
		<tag k="ssr:stedsnr" v="175925" />
	</node>
	<node lat="61.7711111122865" lon="5.2957916634964" id="-34127">
		<tag k="man_made" v="quay" />
		<tag k="name" v="Stasjonskaia" />
		<tag k="place" v="locality" />
		<tag k="ssr:stedsnr" v="235193" />
	</node>
	<node lat="61.83157499602885" lon="4.989591664202361" id="-34151">
		<tag k="bridge" v="yes" />
		<tag k="layer" v="1" />
		<tag k="name" v="Naustdal" />
		<tag k="ssr:stedsnr" v="290580" />
	</node>
	<node lat="61.87848889130897" lon="5.577505561397189" id="-34184">
		<tag k="highway" v="path" />
		<tag k="name" v="Sørstigen" />
		<tag k="ssr:stedsnr" v="293886" />
	</node>
	<node lat="61.77343055701951" lon="5.314847213101213" id="-34223">
		<tag k="bridge" v="yes" />
		<tag k="layer" v="1" />
		<tag k="name" v="Storefossvann" />
		<tag k="ssr:stedsnr" v="472631" />
	</node>
	<node lat="61.84088055338689" lon="4.970261117715987" id="-34224">
		<tag k="bridge" v="yes" />
		<tag k="layer" v="1" />
		<tag k="name" v="Haugselva" />
		<tag k="ssr:stedsnr" v="350621" />
	</node>
	<node lat="61.85889999865327" lon="5.035272225262089" id="-34225">
		<tag k="bridge" v="yes" />
		<tag k="layer" v="1" />
		<tag k="name" v="Klungreset" />
		<tag k="ssr:stedsnr" v="350622" />
	</node>
	<node lat="61.72022500388981" lon="5.102019446095848" id="-34392">
		<tag k="bridge" v="yes" />
		<tag k="layer" v="1" />
		<tag k="name" v="Sagelva" />
		<tag k="ssr:stedsnr" v="411640" />
	</node>
	<node lat="61.76995582998788" lon="4.932515541981564" id="-34553">
		<tag k="man_made" v="quay" />
		<tag k="name" v="Smørhamn" />
		<tag k="place" v="locality" />
		<tag k="ssr:stedsnr" v="677859" />
	</node>
</osm>
