<?xml version="1.0" encoding="UTF-8"?>
<osm version="0.6" generator="osmapis">
	<node lat="61.74211944772018" lon="4.813708323674025" id="-45240">
		<tag k="fixme" v="consider seamark:type=rock or natural=shoal" />
		<tag k="name" v="Rasmusskjeret" />
		<tag k="place" v="islet" />
		<tag k="ssr:stedsnr" v="8504" />
	</node>
	<node lat="61.769472223257836" lon="5.223877769902986" id="-45246">
		<tag k="bay" v="fjord" />
		<tag k="name" v="Nordgulen" />
		<tag k="natural" v="bay" />
		<tag k="ssr:stedsnr" v="10097" />
	</node>
	<node lat="61.88667777385167" lon="5.222797218115638" id="-45247">
		<tag k="name" v="Skorpeneset" />
		<tag k="natural" v="cape" />
		<tag k="ssr:stedsnr" v="10201" />
	</node>
	<node lat="61.836811113615184" lon="4.729044436728223" id="-45262">
		<tag k="name" v="Håøygrunnen" />
		<tag k="natural" v="shoal" />
		<tag k="place" v="locality" />
		<tag k="ssr:stedsnr" v="10903" />
	</node>
	<node lat="61.843800003913614" lon="4.860652771662473" id="-45263">
		<tag k="name" v="Vissholmen" />
		<tag k="place" v="islet" />
		<tag k="ssr:stedsnr" v="10905" />
	</node>
	<node lat="61.874791667790056" lon="4.875383331466927" id="-45264">
		<tag k="alt_name" v="Tussevika;Øksevika" />
		<tag k="name" v="Ytste Tussevika" />
		<tag k="natural" v="bay" />
		<tag k="ssr:stedsnr" v="10989" />
	</node>
	<node lat="61.782486113087415" lon="4.966111103391009" id="-45279">
		<tag k="name" v="Vika" />
		<tag k="natural" v="bay" />
		<tag k="ssr:stedsnr" v="232378" />
	</node>
	<node lat="61.770116669413916" lon="4.842805563430306" id="-45281">
		<tag k="name" v="Vågeneset" />
		<tag k="natural" v="cape" />
		<tag k="ssr:stedsnr" v="232353" />
	</node>
	<node lat="61.76483055133797" lon="4.8839833333430365" id="-45283">
		<tag k="name" v="Djupholmen" />
		<tag k="place" v="islet" />
		<tag k="ssr:stedsnr" v="232358" />
	</node>
	<node lat="61.77693333297919" lon="4.819305550186798" id="-45293">
		<tag k="fixme" v="consider seamark:type=rock or natural=shoal" />
		<tag k="name" v="Molvikskjeret" />
		<tag k="place" v="islet" />
		<tag k="ssr:stedsnr" v="232454" />
	</node>
	<node lat="61.80266667048806" lon="5.144622212971721" id="-45294">
		<tag k="name" v="Nordavindshamnen" />
		<tag k="natural" v="bay" />
		<tag k="ssr:stedsnr" v="232468" />
	</node>
	<node lat="61.89175278170589" lon="5.353516662740837" id="-45297">
		<tag k="name" v="Grunnesvika" />
		<tag k="natural" v="bay" />
		<tag k="ssr:stedsnr" v="232549" />
	</node>
	<node lat="61.8923944408688" lon="5.326972226057487" id="-45299">
		<tag k="name" v="Klungreholmane" />
		<tag k="place" v="islet" />
		<tag k="ssr:stedsnr" v="232563" />
	</node>
	<node lat="61.89018610873198" lon="5.3334888831930005" id="-45300">
		<tag k="name" v="Grisevika" />
		<tag k="natural" v="bay" />
		<tag k="ssr:stedsnr" v="232565" />
	</node>
	<node lat="61.828863891722975" lon="5.122133327512333" id="-45301">
		<tag k="name" v="Vågen" />
		<tag k="natural" v="strait" />
		<tag k="ssr:stedsnr" v="232568" />
	</node>
	<node lat="61.76243055343368" lon="5.169769448652839" id="-45307">
		<tag k="name" v="Olavika" />
		<tag k="natural" v="bay" />
		<tag k="ssr:stedsnr" v="232768" />
	</node>
	<node lat="61.73606111271555" lon="5.165152778661038" id="-45308">
		<tag k="name" v="Furenesholmen" />
		<tag k="natural" v="bay" />
		<tag k="ssr:stedsnr" v="232858" />
	</node>
	<node lat="61.74193610991456" lon="5.148158327088248" id="-45309">
		<tag k="name" v="Skarveneset" />
		<tag k="natural" v="cape" />
		<tag k="ssr:stedsnr" v="232860" />
	</node>
	<node lat="61.72813055506394" lon="5.118144437520258" id="-45310">
		<tag k="name" v="Arnestokken" />
		<tag k="natural" v="beach" />
		<tag k="ssr:stedsnr" v="232865" />
	</node>
	<node lat="61.736269444073315" lon="5.1379555604539515" id="-45314">
		<tag k="name" v="Ramseviknes" />
		<tag k="natural" v="cape" />
		<tag k="ssr:stedsnr" v="232877" />
	</node>
	<node lat="61.72418333318999" lon="4.981277778017233" id="-45316">
		<tag k="name" v="Neset" />
		<tag k="natural" v="cape" />
		<tag k="ssr:stedsnr" v="232961" />
	</node>
	<node lat="61.878022224909536" lon="5.097444453579945" id="-45322">
		<tag k="name" v="Gangholmen" />
		<tag k="place" v="islet" />
		<tag k="ssr:stedsnr" v="233673" />
	</node>
	<node lat="61.75091110799514" lon="4.863644452954839" id="-45325">
		<tag k="name" v="Naustflua" />
		<tag k="natural" v="shoal" />
		<tag k="place" v="locality" />
		<tag k="ssr:stedsnr" v="235822" />
	</node>
	<node lat="61.898972222994715" lon="5.366530547043758" id="-45326">
		<tag k="name" v="Brurahammaren" />
		<tag k="natural" v="cape" />
		<tag k="ssr:stedsnr" v="236026" />
	</node>
	<node lat="61.8639611094932" lon="5.142758329978" id="-45327">
		<tag k="name" v="Botnen" />
		<tag k="natural" v="bay" />
		<tag k="ssr:stedsnr" v="236427" />
	</node>
	<node lat="61.76926944852452" lon="4.73810832670598" id="-45328">
		<tag k="name" v="Hamrane" />
		<tag k="natural" v="shoal" />
		<tag k="place" v="locality" />
		<tag k="ssr:stedsnr" v="236876" />
	</node>
	<node lat="61.829888887268524" lon="5.675302772745515" id="-45331">
		<tag k="name" v="Sigdestadneset" />
		<tag k="natural" v="cape" />
		<tag k="ssr:stedsnr" v="50205" />
	</node>
	<node lat="61.774052781601455" lon="4.840186117659694" id="-45340">
		<tag k="name" v="Gunnavikneset" />
		<tag k="natural" v="cape" />
		<tag k="ssr:stedsnr" v="50368" />
	</node>
	<node lat="61.75701666242853" lon="4.8718750025664175" id="-45345">
		<tag k="name" v="Kongskjenna" />
		<tag k="natural" v="cape" />
		<tag k="ssr:stedsnr" v="50387" />
	</node>
	<node lat="61.85075000348323" lon="5.817199992881396" id="-45352">
		<tag k="bay" v="fjord" />
		<tag k="name" v="Elvafjorden" />
		<tag k="natural" v="bay" />
		<tag k="ssr:stedsnr" v="50707" />
	</node>
	<node lat="61.722897221807145" lon="5.19015833292693" id="-45355">
		<tag k="name" v="Havgulekroken" />
		<tag k="natural" v="cape" />
		<tag k="ssr:stedsnr" v="50905" />
	</node>
	<node lat="61.721866667676636" lon="5.103808333292393" id="-45363">
		<tag k="name" v="Sagebøvik" />
		<tag k="natural" v="bay" />
		<tag k="ssr:stedsnr" v="50885" />
	</node>
	<node lat="61.81803889345899" lon="4.9468444522019555" id="-45364">
		<tag k="name" v="Rylandspollen" />
		<tag k="natural" v="bay" />
		<tag k="ssr:stedsnr" v="51017" />
	</node>
	<node lat="61.80854444746289" lon="5.163683329311637" id="-45374">
		<tag k="name" v="Inste Bårdvika" />
		<tag k="natural" v="bay" />
		<tag k="ssr:stedsnr" v="53102" />
	</node>
	<node lat="61.815716669533444" lon="5.230524998584786" id="-45375">
		<tag k="name" v="Vika" />
		<tag k="natural" v="bay" />
		<tag k="ssr:stedsnr" v="53106" />
	</node>
	<node lat="61.784172222176444" lon="4.966794447058255" id="-45376">
		<tag k="name" v="Vågane" />
		<tag k="natural" v="bay" />
		<tag k="ssr:stedsnr" v="53571" />
	</node>
	<node lat="61.72464444599717" lon="5.220033327053108" id="-45377">
		<tag k="name" v="Øyrhamrane" />
		<tag k="natural" v="cape" />
		<tag k="ssr:stedsnr" v="53703" />
	</node>
	<node lat="61.74193055107904" lon="4.957883325077211" id="-45378">
		<tag k="name" v="Storevikgrynna" />
		<tag k="natural" v="shoal" />
		<tag k="place" v="locality" />
		<tag k="ssr:stedsnr" v="53666" />
	</node>
	<node lat="61.8256277786508" lon="4.953533342467666" id="-45379">
		<tag k="fixme" v="consider seamark:type=rock or natural=shoal" />
		<tag k="name" v="Rundeskjeret" />
		<tag k="place" v="islet" />
		<tag k="ssr:stedsnr" v="53803" />
	</node>
	<node lat="61.90638889115226" lon="4.914469447733181" id="-45380">
		<tag k="name" v="Festebåen" />
		<tag k="natural" v="shoal" />
		<tag k="place" v="locality" />
		<tag k="ssr:stedsnr" v="53888" />
	</node>
	<node lat="61.79195277458648" lon="4.921963890261772" id="-45381">
		<tag k="name" v="Gapet" />
		<tag k="natural" v="bay" />
		<tag k="ssr:stedsnr" v="54625" />
	</node>
	<node lat="61.831561109188236" lon="4.856880549192874" id="-45382">
		<tag k="name" v="Vissflua" />
		<tag k="natural" v="shoal" />
		<tag k="place" v="locality" />
		<tag k="ssr:stedsnr" v="54919" />
	</node>
	<node lat="61.72698333227473" lon="4.9501388979983645" id="-45384">
		<tag k="fixme" v="consider seamark:type=rock or natural=shoal" />
		<tag k="name" v="Olaskjeret" />
		<tag k="place" v="islet" />
		<tag k="ssr:stedsnr" v="69485" />
	</node>
	<node lat="61.724094441661855" lon="4.74695277789968" id="-45385">
		<tag k="name" v="Hoggeflua" />
		<tag k="natural" v="shoal" />
		<tag k="place" v="locality" />
		<tag k="ssr:stedsnr" v="69492" />
	</node>
	<node lat="61.88057778208783" lon="5.2543583288877125" id="-45395">
		<tag k="alt_name" v="Rugsundsøyna" />
		<tag k="name" v="Rugsundøyna" />
		<tag k="old_name" v="Rugsundøy" />
		<tag k="place" v="island" />
		<tag k="ssr:stedsnr" v="71210" />
	</node>
	<node lat="61.85960555882068" lon="5.259527776328122" id="-45399">
		<tag k="name" v="Hornelsneset" />
		<tag k="natural" v="cape" />
		<tag k="ssr:stedsnr" v="71183" />
	</node>
	<node lat="61.83222500423678" lon="5.69200832994031" id="-45412">
		<tag k="name" v="Stilleneset" />
		<tag k="natural" v="cape" />
		<tag k="ssr:stedsnr" v="81533" />
	</node>
	<node lat="61.784011115003125" lon="5.002880562293028" id="-45431">
		<tag k="name" v="Tjuveneset" />
		<tag k="natural" v="cape" />
		<tag k="ssr:stedsnr" v="111388" />
	</node>
	<node lat="61.82985000159687" lon="5.6881583307996575" id="-45446">
		<tag k="name" v="Lyrura" />
		<tag k="natural" v="beach" />
		<tag k="ssr:stedsnr" v="111773" />
	</node>
	<node lat="61.86039722007509" lon="5.738472230361584" id="-45447">
		<tag k="name" v="Englestadvika" />
		<tag k="natural" v="bay" />
		<tag k="ssr:stedsnr" v="111774" />
	</node>
	<node lat="61.881463889780235" lon="5.333411112955503" id="-45448">
		<tag k="alt_name" v="Straumen" />
		<tag k="name" v="Rugsundstraumen" />
		<tag k="natural" v="strait" />
		<tag k="ssr:stedsnr" v="111606" />
	</node>
	<node lat="61.83228888973756" lon="5.191616667058853" id="-45449">
		<tag k="name" v="Storlineset" />
		<tag k="natural" v="cape" />
		<tag k="ssr:stedsnr" v="111607" />
	</node>
	<node lat="61.8816000040356" lon="5.1297694520102235" id="-45455">
		<tag k="name" v="Austre Bjørnøytangen" />
		<tag k="natural" v="cape" />
		<tag k="ssr:stedsnr" v="112641" />
	</node>
	<node lat="61.771186108130166" lon="4.953222223558726" id="-45457">
		<tag k="name" v="Vardeholmflua" />
		<tag k="natural" v="shoal" />
		<tag k="place" v="locality" />
		<tag k="ssr:stedsnr" v="113525" />
	</node>
	<node lat="61.71317500322942" lon="5.165744447653003" id="-45458">
		<tag k="name" v="Gjelvikneset" />
		<tag k="natural" v="cape" />
		<tag k="ssr:stedsnr" v="113675" />
	</node>
	<node lat="61.81099444410707" lon="5.1962055505218006" id="-45459">
		<tag k="name" v="Flua" />
		<tag k="natural" v="shoal" />
		<tag k="place" v="locality" />
		<tag k="ssr:stedsnr" v="114078" />
	</node>
	<node lat="61.80821666993824" lon="4.813763887956613" id="-45460">
		<tag k="name" v="Hornflua" />
		<tag k="natural" v="shoal" />
		<tag k="place" v="locality" />
		<tag k="ssr:stedsnr" v="114908" />
	</node>
	<node lat="61.69672499788894" lon="4.984855555737875" id="-45461">
		<tag k="name" v="Husefestvika" />
		<tag k="natural" v="bay" />
		<tag k="ssr:stedsnr" v="251038" />
	</node>
	<node lat="61.72735000127607" lon="4.74057221447014" id="-45464">
		<tag k="name" v="Jakobsflua" />
		<tag k="natural" v="shoal" />
		<tag k="place" v="locality" />
		<tag k="ssr:stedsnr" v="251467" />
	</node>
	<node lat="61.73535555579224" lon="4.956583333748917" id="-45465">
		<tag k="name" v="Vengane" />
		<tag k="place" v="islet" />
		<tag k="ssr:stedsnr" v="251483" />
	</node>
	<node lat="61.72201111391827" lon="5.202888893000107" id="-45487">
		<tag k="name" v="Instevika" />
		<tag k="natural" v="bay" />
		<tag k="ssr:stedsnr" v="129822" />
	</node>
	<node lat="61.83004444327821" lon="5.315708332318318" id="-45495">
		<tag k="alt_name" v="Vingen" />
		<tag k="name" v="Vingepollen" />
		<tag k="natural" v="bay" />
		<tag k="ssr:stedsnr" v="131117" />
	</node>
	<node lat="61.880790568380284" lon="5.326339813260482" id="-45498">
		<tag k="name" v="Storøyna" />
		<tag k="place" v="island" />
		<tag k="ssr:stedsnr" v="131177" />
	</node>
	<node lat="61.77161292342178" lon="4.912190235342533" id="-45520">
		<tag k="name" v="Hamrøyna" />
		<tag k="place" v="island" />
		<tag k="ssr:stedsnr" v="252817" />
	</node>
	<node lat="61.791530556233475" lon="4.791405547535152" id="-45541">
		<tag k="alt_name" v="Muleneset" />
		<tag k="name" v="Mulen" />
		<tag k="natural" v="cape" />
		<tag k="ssr:stedsnr" v="253813" />
	</node>
	<node lat="61.78535277896235" lon="4.848283327117315" id="-45544">
		<tag k="name" v="Frøya" />
		<tag k="place" v="island" />
		<tag k="ssr:stedsnr" v="253850" />
	</node>
	<node lat="61.81582777787896" lon="4.9047305650052575" id="-45546">
		<tag k="name" v="Grønevika" />
		<tag k="natural" v="bay" />
		<tag k="ssr:stedsnr" v="142007" />
	</node>
	<node lat="61.812924995482085" lon="5.656119438450099" id="-45551">
		<tag k="name" v="Sørevikneset" />
		<tag k="natural" v="cape" />
		<tag k="ssr:stedsnr" v="171112" />
	</node>
	<node lat="61.869566667454166" lon="5.300452779416135" id="-45567">
		<tag k="name" v="Tjuveholmsundet" />
		<tag k="natural" v="strait" />
		<tag k="ssr:stedsnr" v="171614" />
	</node>
	<node lat="61.871188885767914" lon="5.269374998547373" id="-45568">
		<tag k="name" v="Molvika" />
		<tag k="natural" v="bay" />
		<tag k="ssr:stedsnr" v="171616" />
	</node>
	<node lat="61.868741666405306" lon="5.258891671648321" id="-45569">
		<tag k="alt_name" v="Gloføkholmen" />
		<tag k="name" v="Gloføykholmen" />
		<tag k="place" v="islet" />
		<tag k="ssr:stedsnr" v="171619" />
	</node>
	<node lat="61.843258336716815" lon="5.697263895782241" id="-45573">
		<tag k="name" v="Huken" />
		<tag k="natural" v="beach" />
		<tag k="ssr:stedsnr" v="171771" />
	</node>
	<node lat="61.72064166756195" lon="5.105719441732438" id="-45574">
		<tag k="name" v="Sagebøneset" />
		<tag k="natural" v="cape" />
		<tag k="ssr:stedsnr" v="171907" />
	</node>
	<node lat="61.71909999906186" lon="5.173094435486792" id="-45576">
		<tag k="name" v="Pollaneset" />
		<tag k="natural" v="cape" />
		<tag k="ssr:stedsnr" v="171912" />
	</node>
	<node lat="61.75287500348633" lon="5.087761108825676" id="-45588">
		<tag k="name" v="Haldevik" />
		<tag k="natural" v="bay" />
		<tag k="ssr:stedsnr" v="172862" />
	</node>
	<node lat="61.75123888936288" lon="5.130797214564798" id="-45591">
		<tag k="name" v="Ternøyskukken" />
		<tag k="natural" v="shoal" />
		<tag k="place" v="locality" />
		<tag k="ssr:stedsnr" v="174211" />
	</node>
	<node lat="61.90897500435276" lon="4.907986119079287" id="-45592">
		<tag k="name" v="Feste" />
		<tag k="natural" v="shoal" />
		<tag k="place" v="locality" />
		<tag k="ssr:stedsnr" v="174454" />
	</node>
	<node lat="61.91315555292958" lon="4.908588894279775" id="-45593">
		<tag k="name" v="Kvitnesflua" />
		<tag k="natural" v="shoal" />
		<tag k="place" v="locality" />
		<tag k="ssr:stedsnr" v="174455" />
	</node>
	<node lat="61.70744295391282" lon="5.110849387822243" id="-45595">
		<tag k="name" v="Sørevika" />
		<tag k="natural" v="bay" />
		<tag k="ssr:stedsnr" v="174708" />
	</node>
	<node lat="61.88950555640478" lon="5.342952780593514" id="-45596">
		<tag k="fixme" v="consider seamark:type=rock or natural=shoal" />
		<tag k="name" v="Saltsteinen" />
		<tag k="place" v="islet" />
		<tag k="ssr:stedsnr" v="175020" />
	</node>
	<node lat="61.84803055465448" lon="5.349725005635388" id="-45597">
		<tag k="bay" v="fjord" />
		<tag k="name" v="Bortnefjorden" />
		<tag k="natural" v="bay" />
		<tag k="ssr:stedsnr" v="175022" />
	</node>
	<node lat="61.8346944410181" lon="4.925486104090603" id="-45598">
		<tag k="name" v="Storesandtaren" />
		<tag k="natural" v="shoal" />
		<tag k="place" v="locality" />
		<tag k="ssr:stedsnr" v="175907" />
	</node>
	<node lat="61.835311113010064" lon="4.983594451845406" id="-45600">
		<tag k="name" v="Erkeflua" />
		<tag k="natural" v="shoal" />
		<tag k="place" v="locality" />
		<tag k="ssr:stedsnr" v="175964" />
	</node>
	<node lat="61.82102500123532" lon="4.921063892811087" id="-45601">
		<tag k="name" v="Grotneset" />
		<tag k="natural" v="cape" />
		<tag k="ssr:stedsnr" v="263009" />
	</node>
	<node lat="61.726161107938154" lon="4.808463898612529" id="-45602">
		<tag k="fixme" v="consider seamark:type=rock or natural=shoal" />
		<tag k="name" v="Kobbeskjeret" />
		<tag k="place" v="islet" />
		<tag k="ssr:stedsnr" v="190459" />
	</node>
	<node lat="61.71893889119538" lon="4.802422229156461" id="-45603">
		<tag k="name" v="Tåboen" />
		<tag k="natural" v="shoal" />
		<tag k="place" v="locality" />
		<tag k="ssr:stedsnr" v="190461" />
	</node>
	<node lat="61.73628611425053" lon="4.948877784638925" id="-45604">
		<tag k="name" v="Skadvengen" />
		<tag k="place" v="islet" />
		<tag k="ssr:stedsnr" v="190474" />
	</node>
	<node lat="61.717666664927876" lon="4.7955833371399486" id="-45605">
		<tag k="fixme" v="consider seamark:type=rock or natural=shoal" />
		<tag k="name" v="Tåa" />
		<tag k="place" v="islet" />
		<tag k="ssr:stedsnr" v="190485" />
	</node>
	<node lat="61.76894722288144" lon="4.914711119903711" id="-45610">
		<tag k="fixme" v="consider seamark:type=rock or natural=shoal" />
		<tag k="name" v="Svarteskjeret" />
		<tag k="place" v="islet" />
		<tag k="ssr:stedsnr" v="269638" />
	</node>
	<node lat="61.793847223313406" lon="4.886536104496852" id="-45612">
		<tag k="name" v="Varenesvika" />
		<tag k="natural" v="bay" />
		<tag k="ssr:stedsnr" v="232036" />
	</node>
	<node lat="61.83447778216097" lon="5.29498888660522" id="-45618">
		<tag k="fixme" v="consider seamark:type=rock or natural=shoal" />
		<tag k="name" v="Hella" />
		<tag k="place" v="islet" />
		<tag k="ssr:stedsnr" v="232509" />
	</node>
	<node lat="61.840441669267705" lon="5.305647229686993" id="-45619">
		<tag k="name" v="Gardsvika" />
		<tag k="natural" v="bay" />
		<tag k="ssr:stedsnr" v="232514" />
	</node>
	<node lat="61.83857222660536" lon="5.29409444241706" id="-45620">
		<tag k="name" v="Marøydjupet" />
		<tag k="natural" v="strait" />
		<tag k="ssr:stedsnr" v="232515" />
	</node>
	<node lat="61.7667956924003" lon="4.81589335111537" id="-45621">
		<tag k="name" v="Havrøyvika" />
		<tag k="natural" v="bay" />
		<tag k="ssr:stedsnr" v="232433" />
	</node>
	<node lat="61.86588055870159" lon="5.243838894389546" id="-45622">
		<tag k="name" v="Fureneset" />
		<tag k="natural" v="cape" />
		<tag k="ssr:stedsnr" v="232495" />
	</node>
	<node lat="61.83906389040516" lon="5.725519443247206" id="-45624">
		<tag k="name" v="Sageneset" />
		<tag k="natural" v="cape" />
		<tag k="ssr:stedsnr" v="232704" />
	</node>
	<node lat="61.844852780503054" lon="5.716886116287208" id="-45627">
		<tag k="name" v="Kummeneset" />
		<tag k="natural" v="cape" />
		<tag k="ssr:stedsnr" v="232716" />
	</node>
	<node lat="61.841797217811965" lon="5.758863890381464" id="-45628">
		<tag k="name" v="Fureneset" />
		<tag k="natural" v="cape" />
		<tag k="ssr:stedsnr" v="232730" />
	</node>
	<node lat="61.72460833451846" lon="5.103383339352987" id="-45636">
		<tag k="name" v="Tobbehola" />
		<tag k="natural" v="beach" />
		<tag k="ssr:stedsnr" v="232879" />
	</node>
	<node lat="61.834813888470336" lon="4.932513895998896" id="-45640">
		<tag k="fixme" v="consider seamark:type=rock or natural=shoal" />
		<tag k="name" v="Sandhaugskjeret" />
		<tag k="place" v="islet" />
		<tag k="ssr:stedsnr" v="233008" />
	</node>
	<node lat="61.76314166499125" lon="5.24136665880095" id="-45648">
		<tag k="name" v="Notastanga" />
		<tag k="natural" v="cape" />
		<tag k="ssr:stedsnr" v="235196" />
	</node>
	<node lat="61.770863884645195" lon="5.286944444482319" id="-45649">
		<tag k="name" v="Flua" />
		<tag k="natural" v="shoal" />
		<tag k="place" v="locality" />
		<tag k="ssr:stedsnr" v="235200" />
	</node>
	<node lat="61.806066668395616" lon="5.0594750034477425" id="-45651">
		<tag k="name" v="Avløysingen" />
		<tag k="natural" v="shoal" />
		<tag k="place" v="locality" />
		<tag k="ssr:stedsnr" v="235485" />
	</node>
	<node lat="61.79818055681018" lon="4.9464388901060214" id="-45652">
		<tag k="name" v="Vågen" />
		<tag k="natural" v="bay" />
		<tag k="ssr:stedsnr" v="235549" />
	</node>
	<node lat="61.778552773749084" lon="4.927252773283142" id="-45653">
		<tag k="name" v="Makrellvågen" />
		<tag k="natural" v="bay" />
		<tag k="ssr:stedsnr" v="235682" />
	</node>
	<node lat="61.80814721918198" lon="4.888750009802501" id="-45654">
		<tag k="name" v="Tellebåane" />
		<tag k="natural" v="shoal" />
		<tag k="place" v="locality" />
		<tag k="ssr:stedsnr" v="235688" />
	</node>
	<node lat="61.881283329857226" lon="5.13480554769792" id="-45655">
		<tag k="name" v="Bjørnøyflua" />
		<tag k="natural" v="shoal" />
		<tag k="place" v="locality" />
		<tag k="ssr:stedsnr" v="235832" />
	</node>
	<node lat="61.81730555435269" lon="5.242508329570251" id="-45657">
		<tag k="name" v="Løypingneset" />
		<tag k="natural" v="cape" />
		<tag k="ssr:stedsnr" v="236040" />
	</node>
	<node lat="61.84420555428789" lon="5.296458339856525" id="-45658">
		<tag k="name" v="Tussurdskallen" />
		<tag k="natural" v="shoal" />
		<tag k="place" v="locality" />
		<tag k="ssr:stedsnr" v="236041" />
	</node>
	<node lat="61.828002781751586" lon="4.787297223696328" id="-45659">
		<tag k="name" v="Nordre Rognflua" />
		<tag k="natural" v="shoal" />
		<tag k="place" v="locality" />
		<tag k="ssr:stedsnr" v="236899" />
	</node>
	<node lat="61.8238694433465" lon="5.13526943579174" id="-45663">
		<tag k="name" v="Kviteneset" />
		<tag k="natural" v="cape" />
		<tag k="ssr:stedsnr" v="253127" />
	</node>
	<node lat="61.894213886519424" lon="4.902244450828599" id="-45667">
		<tag k="name" v="Styreneset" />
		<tag k="natural" v="cape" />
		<tag k="ssr:stedsnr" v="253981" />
	</node>
	<node lat="61.90772778018029" lon="4.932055552495887" id="-45668">
		<tag k="name" v="Vernet" />
		<tag k="natural" v="cape" />
		<tag k="ssr:stedsnr" v="253985" />
	</node>
	<node lat="61.891369442542285" lon="5.009727783163163" id="-45669">
		<tag k="name" v="Molvika" />
		<tag k="natural" v="bay" />
		<tag k="ssr:stedsnr" v="253998" />
	</node>
	<node lat="61.89658888801869" lon="5.362308334927354" id="-45679">
		<tag k="name" v="Snekkevika" />
		<tag k="natural" v="bay" />
		<tag k="ssr:stedsnr" v="292595" />
	</node>
	<node lat="61.85030277891985" lon="4.81950555641294" id="-45681">
		<tag k="fixme" v="consider seamark:type=rock or natural=shoal" />
		<tag k="name" v="Leiaskjer" />
		<tag k="place" v="islet" />
		<tag k="ssr:stedsnr" v="293006" />
	</node>
	<node lat="61.880222220795766" lon="4.9055277714218875" id="-45683">
		<tag k="name" v="Uraneset" />
		<tag k="natural" v="cape" />
		<tag k="ssr:stedsnr" v="293015" />
	</node>
	<node lat="61.83556944187316" lon="4.993805563197922" id="-45687">
		<tag k="alt_name" v="Førsholmen" />
		<tag k="fixme" v="consider seamark:type=rock or natural=shoal" />
		<tag k="name" v="Førdsholmen" />
		<tag k="place" v="islet" />
		<tag k="ssr:stedsnr" v="293312" />
	</node>
	<node lat="61.750730557774865" lon="4.817572213287908" id="-45689">
		<tag k="name" v="Likvika" />
		<tag k="natural" v="bay" />
		<tag k="ssr:stedsnr" v="293509" />
	</node>
	<node lat="61.78403888611145" lon="4.813011109311497" id="-45690">
		<tag k="name" v="Ytste Langenesvika" />
		<tag k="natural" v="bay" />
		<tag k="ssr:stedsnr" v="293524" />
	</node>
	<node lat="61.884255554171666" lon="5.2107638907323395" id="-45691">
		<tag k="name" v="Strandaneset" />
		<tag k="natural" v="cape" />
		<tag k="ssr:stedsnr" v="293576" />
	</node>
	<node lat="61.90573889015691" lon="5.52253888946427" id="-45693">
		<tag k="name" v="Grasneset" />
		<tag k="natural" v="cape" />
		<tag k="ssr:stedsnr" v="293582" />
	</node>
	<node lat="61.87434166863378" lon="5.161200001404914" id="-45694">
		<tag k="name" v="Inste Lågeidvika" />
		<tag k="natural" v="bay" />
		<tag k="ssr:stedsnr" v="293588" />
	</node>
	<node lat="61.86736666837689" lon="5.276066661139461" id="-45695">
		<tag k="name" v="Litleholmen" />
		<tag k="place" v="islet" />
		<tag k="ssr:stedsnr" v="293591" />
	</node>
	<node lat="61.8727805584187" lon="5.265399994325652" id="-45696">
		<tag k="name" v="Haukedalsvika" />
		<tag k="natural" v="bay" />
		<tag k="ssr:stedsnr" v="293592" />
	</node>
	<node lat="61.84918611120117" lon="5.165197219117087" id="-45700">
		<tag k="name" v="Kvernevika" />
		<tag k="natural" v="bay" />
		<tag k="ssr:stedsnr" v="293624" />
	</node>
	<node lat="61.75847222052808" lon="5.13290000338566" id="-45701">
		<tag k="name" v="Grasvika" />
		<tag k="natural" v="bay" />
		<tag k="ssr:stedsnr" v="293828" />
	</node>
	<node lat="61.76423333159961" lon="5.122063884271703" id="-45702">
		<tag k="alt_name" v="Nesvika" />
		<tag k="name" v="Nesbøvika" />
		<tag k="natural" v="bay" />
		<tag k="ssr:stedsnr" v="293830" />
	</node>
	<node lat="61.73446388707037" lon="5.141963891605667" id="-45705">
		<tag k="alt_name" v="Slenesvik" />
		<tag k="name" v="Slenesvika" />
		<tag k="natural" v="bay" />
		<tag k="ssr:stedsnr" v="293887" />
	</node>
	<node lat="61.74139444058183" lon="5.1236833287256935" id="-45706">
		<tag k="name" v="Austrevik" />
		<tag k="natural" v="bay" />
		<tag k="ssr:stedsnr" v="293890" />
	</node>
	<node lat="61.734438886590326" lon="5.146316670599481" id="-45708">
		<tag k="name" v="Sleneset" />
		<tag k="natural" v="cape" />
		<tag k="ssr:stedsnr" v="293892" />
	</node>
	<node lat="61.71433889101497" lon="5.106650001058951" id="-45709">
		<tag k="name" v="Vageneset" />
		<tag k="natural" v="cape" />
		<tag k="ssr:stedsnr" v="293908" />
	</node>
	<node lat="61.723758330007485" lon="5.1583777869260246" id="-45711">
		<tag k="name" v="Geileneset" />
		<tag k="natural" v="cape" />
		<tag k="ssr:stedsnr" v="293910" />
	</node>
	<node lat="61.840088889752884" lon="5.255711102715509" id="-45716">
		<tag k="name" v="Hælkrona" />
		<tag k="natural" v="bay" />
		<tag k="ssr:stedsnr" v="295207" />
	</node>
	<node lat="61.83515833412839" lon="4.991924998676249" id="-45718">
		<tag k="name" v="Førdspollen" />
		<tag k="natural" v="bay" />
		<tag k="ssr:stedsnr" v="295800" />
	</node>
	<node lat="61.744444444862786" lon="5.148088894837113" id="-45719">
		<tag k="name" v="Kvieneset" />
		<tag k="natural" v="cape" />
		<tag k="ssr:stedsnr" v="295688" />
	</node>
	<node lat="61.828866664136754" lon="4.9619472175360775" id="-45720">
		<tag k="fixme" v="consider seamark:type=rock or natural=shoal" />
		<tag k="name" v="Løvikskjeret" />
		<tag k="place" v="islet" />
		<tag k="ssr:stedsnr" v="295803" />
	</node>
	<node lat="61.8828638898123" lon="5.200494447362494" id="-45721">
		<tag k="name" v="Klubbeneset" />
		<tag k="natural" v="cape" />
		<tag k="ssr:stedsnr" v="295824" />
	</node>
	<node lat="61.83497222566178" lon="5.28568888963268" id="-45722">
		<tag k="name" v="Marøyflua" />
		<tag k="natural" v="shoal" />
		<tag k="place" v="locality" />
		<tag k="ssr:stedsnr" v="296025" />
	</node>
	<node lat="61.87300833194252" lon="5.241863892043804" id="-45723">
		<tag k="name" v="Nygårdsneset" />
		<tag k="natural" v="cape" />
		<tag k="ssr:stedsnr" v="296873" />
	</node>
	<node lat="61.73487910070087" lon="4.984510696965601" id="-45724">
		<tag k="fixme" v="consider seamark:type=rock or natural=shoal" />
		<tag k="loc_name" v="Søre Fleda" />
		<tag k="name" v="Søreflua" />
		<tag k="place" v="islet" />
		<tag k="ssr:stedsnr" v="311507" />
	</node>
	<node lat="61.735327775297705" lon="4.765930546422324" id="-45725">
		<tag k="name" v="Raudskjerskukken" />
		<tag k="natural" v="shoal" />
		<tag k="place" v="locality" />
		<tag k="ssr:stedsnr" v="311521" />
	</node>
	<node lat="61.850037058785624" lon="5.771063101492671" id="-45736">
		<tag k="name" v="Holmane" />
		<tag k="place" v="islet" />
		<tag k="ssr:stedsnr" v="313370" />
	</node>
	<node lat="61.89587777688502" lon="5.6233472136122575" id="-45739">
		<tag k="name" v="Høgeneset" />
		<tag k="natural" v="cape" />
		<tag k="ssr:stedsnr" v="313422" />
	</node>
	<node lat="61.724033330565426" lon="5.205802769397755" id="-45748">
		<tag k="alt_name" v="Myklebust-Langenes" />
		<tag k="name" v="Langeneset" />
		<tag k="natural" v="cape" />
		<tag k="ssr:stedsnr" v="494791" />
	</node>
	<node lat="61.82321389129959" lon="5.656155547878955" id="-45758">
		<tag k="name" v="Timbrevika" />
		<tag k="natural" v="bay" />
		<tag k="ssr:stedsnr" v="353170" />
	</node>
	<node lat="61.82440555784798" lon="5.661500002108951" id="-45759">
		<tag k="name" v="Mortekråna" />
		<tag k="natural" v="bay" />
		<tag k="ssr:stedsnr" v="353171" />
	</node>
	<node lat="61.78134166811871" lon="4.825249991305601" id="-45760">
		<tag k="name" v="Rasmusberget" />
		<tag k="natural" v="cape" />
		<tag k="ssr:stedsnr" v="353508" />
	</node>
	<node lat="61.78331944452063" lon="4.809949991234939" id="-45761">
		<tag k="name" v="Langenesholmen" />
		<tag k="place" v="islet" />
		<tag k="ssr:stedsnr" v="353512" />
	</node>
	<node lat="61.833083332850684" lon="5.212969447061793" id="-45762">
		<tag k="name" v="Simåvikneset" />
		<tag k="natural" v="cape" />
		<tag k="ssr:stedsnr" v="353557" />
	</node>
	<node lat="61.75024166593879" lon="4.840991660075341" id="-45767">
		<tag k="name" v="Geitholmane" />
		<tag k="place" v="islet" />
		<tag k="ssr:stedsnr" v="353403" />
	</node>
	<node lat="61.75257500217781" lon="4.841072218256609" id="-45768">
		<tag k="name" v="Espeholmane" />
		<tag k="place" v="islet" />
		<tag k="ssr:stedsnr" v="353404" />
	</node>
	<node lat="61.764230558631375" lon="4.845897215353305" id="-45769">
		<tag k="name" v="Langevågen" />
		<tag k="natural" v="bay" />
		<tag k="ssr:stedsnr" v="353410" />
	</node>
	<node lat="61.775749999234236" lon="4.949827786504712" id="-45771">
		<tag k="name" v="Marlaukøyna" />
		<tag k="place" v="island" />
		<tag k="ssr:stedsnr" v="353452" />
	</node>
	<node lat="61.787961115277476" lon="4.801213883992107" id="-45773">
		<tag k="name" v="Ytste Mulevika" />
		<tag k="natural" v="bay" />
		<tag k="ssr:stedsnr" v="353471" />
	</node>
	<node lat="61.87286667120592" lon="5.261558338714995" id="-45776">
		<tag k="name" v="Kleivaneset" />
		<tag k="natural" v="cape" />
		<tag k="ssr:stedsnr" v="353601" />
	</node>
	<node lat="61.84831110888611" lon="5.744808330832753" id="-45778">
		<tag k="name" v="Tjuvebåsen" />
		<tag k="natural" v="bay" />
		<tag k="ssr:stedsnr" v="353756" />
	</node>
	<node lat="61.8455250016509" lon="5.736036106903666" id="-45779">
		<tag k="name" v="Korsvika" />
		<tag k="natural" v="bay" />
		<tag k="ssr:stedsnr" v="353758" />
	</node>
	<node lat="61.84329166916619" lon="5.8223638856371345" id="-45780">
		<tag k="name" v="Vikastranda" />
		<tag k="natural" v="beach" />
		<tag k="ssr:stedsnr" v="353759" />
	</node>
	<node lat="61.77742777938118" lon="5.259283336518043" id="-45782">
		<tag k="name" v="Ryggjaneset" />
		<tag k="natural" v="cape" />
		<tag k="ssr:stedsnr" v="353764" />
	</node>
	<node lat="61.73207222634016" lon="5.117230551734885" id="-45788">
		<tag k="name" v="Kastevikberget" />
		<tag k="natural" v="beach" />
		<tag k="ssr:stedsnr" v="353868" />
	</node>
	<node lat="61.75433332904397" lon="4.826024991946176" id="-45789">
		<tag k="name" v="Sandsundet" />
		<tag k="natural" v="strait" />
		<tag k="ssr:stedsnr" v="474496" />
	</node>
	<node lat="61.84652222015711" lon="4.861058336259042" id="-45790">
		<tag k="name" v="Lending" />
		<tag k="natural" v="beach" />
		<tag k="ssr:stedsnr" v="354003" />
	</node>
	<node lat="61.84236666458461" lon="4.895438889036172" id="-45791">
		<tag k="name" v="Storholmen" />
		<tag k="place" v="islet" />
		<tag k="ssr:stedsnr" v="354006" />
	</node>
	<node lat="61.81926666437278" lon="5.103508324784254" id="-45793">
		<tag k="name" v="Tussevika" />
		<tag k="natural" v="bay" />
		<tag k="ssr:stedsnr" v="474619" />
	</node>
	<node lat="61.85712777696411" lon="5.156819439059113" id="-45798">
		<tag k="name" v="Buvika" />
		<tag k="natural" v="bay" />
		<tag k="ssr:stedsnr" v="474635" />
	</node>
	<node lat="61.872572219914744" lon="5.194816666446647" id="-45800">
		<tag k="name" v="Saltkjervika" />
		<tag k="natural" v="bay" />
		<tag k="ssr:stedsnr" v="474590" />
	</node>
	<node lat="61.72299444138822" lon="5.2086722279195286" id="-45805">
		<tag k="name" v="Rotanes" />
		<tag k="natural" v="cape" />
		<tag k="ssr:stedsnr" v="474878" />
	</node>
	<node lat="61.79266944630212" lon="5.023786102980707" id="-45823">
		<tag k="name" v="Holmevika" />
		<tag k="natural" v="bay" />
		<tag k="ssr:stedsnr" v="356558" />
	</node>
	<node lat="61.788119447529375" lon="4.954886107140571" id="-45824">
		<tag k="name" v="Otreneset" />
		<tag k="natural" v="cape" />
		<tag k="ssr:stedsnr" v="356560" />
	</node>
	<node lat="61.72904166874475" lon="4.80585832796619" id="-45826">
		<tag k="fixme" v="consider seamark:type=rock or natural=shoal" />
		<tag k="name" v="Baren" />
		<tag k="place" v="islet" />
		<tag k="ssr:stedsnr" v="357454" />
	</node>
	<node lat="61.73660000266722" lon="4.799330562954274" id="-45827">
		<tag k="fixme" v="consider seamark:type=rock or natural=shoal" />
		<tag k="name" v="Litle Raudskjeret" />
		<tag k="place" v="islet" />
		<tag k="ssr:stedsnr" v="357459" />
	</node>
	<node lat="61.85198888998487" lon="5.341016667819799" id="-45831">
		<tag k="name" v="Melkeneset" />
		<tag k="natural" v="cape" />
		<tag k="ssr:stedsnr" v="475385" />
	</node>
	<node lat="61.772744443188614" lon="4.908405554502908" id="-45835">
		<tag k="name" v="Litle Sundsøyna" />
		<tag k="place" v="islet" />
		<tag k="ssr:stedsnr" v="475439" />
	</node>
	<node lat="61.87682222008978" lon="5.204411104587982" id="-45836">
		<tag k="alt_name" v="Mjåholmane" />
		<tag k="name" v="Mjåholmen" />
		<tag k="natural" v="cape" />
		<tag k="ssr:stedsnr" v="475577" />
	</node>
	<node lat="61.77427222580728" lon="5.290227771949252" id="-45849">
		<tag k="name" v="Kreken" />
		<tag k="natural" v="beach" />
		<tag k="ssr:stedsnr" v="475765" />
	</node>
	<node lat="61.772330554459856" lon="5.286013892808761" id="-45851">
		<tag k="name" v="Sandsneset" />
		<tag k="natural" v="cape" />
		<tag k="ssr:stedsnr" v="475767" />
	</node>
	<node lat="61.76752500307068" lon="5.252530552418974" id="-45854">
		<tag k="name" v="Småholmane" />
		<tag k="place" v="islet" />
		<tag k="ssr:stedsnr" v="475787" />
	</node>
	<node lat="61.87107777897181" lon="5.725530554092764" id="-45857">
		<tag k="name" v="Gråten" />
		<tag k="natural" v="beach" />
		<tag k="ssr:stedsnr" v="475803" />
	</node>
	<node lat="61.737036107359735" lon="5.179752769944009" id="-45858">
		<tag k="name" v="Fagreviknes" />
		<tag k="natural" v="cape" />
		<tag k="ssr:stedsnr" v="475868" />
	</node>
	<node lat="61.810127778948164" lon="5.173705555928622" id="-45867">
		<tag k="name" v="Ytste Bårdvika" />
		<tag k="natural" v="bay" />
		<tag k="ssr:stedsnr" v="477090" />
	</node>
	<node lat="61.89301944795966" lon="5.256188891381594" id="-45868">
		<tag k="name" v="Etreskallen" />
		<tag k="natural" v="shoal" />
		<tag k="place" v="locality" />
		<tag k="ssr:stedsnr" v="477826" />
	</node>
	<node lat="61.819069442509786" lon="4.936702778108017" id="-45869">
		<tag k="name" v="Baket" />
		<tag k="natural" v="cape" />
		<tag k="ssr:stedsnr" v="477827" />
	</node>
	<node lat="61.893991666794555" lon="5.3110638930381375" id="-45870">
		<tag k="name" v="Kråkevågflua" />
		<tag k="natural" v="shoal" />
		<tag k="place" v="locality" />
		<tag k="ssr:stedsnr" v="477828" />
	</node>
	<node lat="61.815966667181506" lon="4.9418277812699385" id="-45871">
		<tag k="name" v="Klubbetaren" />
		<tag k="natural" v="shoal" />
		<tag k="place" v="locality" />
		<tag k="ssr:stedsnr" v="477834" />
	</node>
	<node lat="61.76049166329541" lon="5.044372230016859" id="-45872">
		<tag k="name" v="Sælebotstaren" />
		<tag k="natural" v="shoal" />
		<tag k="place" v="locality" />
		<tag k="ssr:stedsnr" v="477845" />
	</node>
	<node lat="61.7784611106728" lon="4.9566666602459" id="-45873">
		<tag k="name" v="Brendeholmen" />
		<tag k="place" v="islet" />
		<tag k="ssr:stedsnr" v="477579" />
	</node>
	<node lat="61.764275001360474" lon="4.930511116930456" id="-45874">
		<tag k="name" v="Fuglesundet" />
		<tag k="natural" v="strait" />
		<tag k="ssr:stedsnr" v="477589" />
	</node>
	<node lat="61.824544441479695" lon="4.945463883028221" id="-45875">
		<tag k="name" v="Kinnambaren" />
		<tag k="natural" v="shoal" />
		<tag k="place" v="locality" />
		<tag k="ssr:stedsnr" v="477794" />
	</node>
	<node lat="61.82594166462795" lon="5.155197228018677" id="-45876">
		<tag k="name" v="Ytre Flua" />
		<tag k="natural" v="shoal" />
		<tag k="place" v="locality" />
		<tag k="ssr:stedsnr" v="478406" />
	</node>
	<node lat="61.809819440770895" lon="5.081602774979947" id="-45877">
		<tag k="name" v="Skarsteinsfluene" />
		<tag k="natural" v="shoal" />
		<tag k="place" v="locality" />
		<tag k="ssr:stedsnr" v="478450" />
	</node>
	<node lat="61.79650000060942" lon="4.7927944379661325" id="-45878">
		<tag k="fixme" v="consider seamark:type=rock or natural=shoal" />
		<tag k="name" v="Englane" />
		<tag k="place" v="islet" />
		<tag k="ssr:stedsnr" v="478889" />
	</node>
	<node lat="61.86751111497497" lon="5.270991660162313" id="-45879">
		<tag k="name" v="Haukedalsholmane" />
		<tag k="place" v="islet" />
		<tag k="ssr:stedsnr" v="478891" />
	</node>
	<node lat="61.80894166972348" lon="4.736324991560027" id="-45880">
		<tag k="name" v="Grunnska" />
		<tag k="natural" v="shoal" />
		<tag k="place" v="locality" />
		<tag k="ssr:stedsnr" v="478897" />
	</node>
	<node lat="61.82313610748917" lon="4.744619438327376" id="-45881">
		<tag k="name" v="Vestre Håskallen" />
		<tag k="natural" v="shoal" />
		<tag k="place" v="locality" />
		<tag k="ssr:stedsnr" v="478898" />
	</node>
	<node lat="61.73603333151774" lon="4.8093416708742325" id="-45882">
		<tag k="fixme" v="consider seamark:type=rock or natural=shoal" />
		<tag k="name" v="Sponga" />
		<tag k="place" v="islet" />
		<tag k="ssr:stedsnr" v="372504" />
	</node>
	<node lat="61.742583329604265" lon="4.828319451997462" id="-45883">
		<tag k="name" v="Tobørsholmen" />
		<tag k="place" v="islet" />
		<tag k="ssr:stedsnr" v="372506" />
	</node>
	<node lat="61.75133001011605" lon="5.140407466970099" id="-45884">
		<tag k="name" v="Ternøyna" />
		<tag k="place" v="island" />
		<tag k="ssr:stedsnr" v="372807" />
	</node>
	<node lat="61.783241668035785" lon="4.8143166713437395" id="-45905">
		<tag k="name" v="Langeneset" />
		<tag k="natural" v="cape" />
		<tag k="ssr:stedsnr" v="374846" />
	</node>
	<node lat="61.90515555690063" lon="4.927441673727862" id="-45907">
		<tag k="name" v="Festeneset" />
		<tag k="natural" v="cape" />
		<tag k="ssr:stedsnr" v="374984" />
	</node>
	<node lat="61.74305555891734" lon="4.486111113169886" id="-45911">
		<tag k="name" v="Grunnskallen" />
		<tag k="natural" v="shoal" />
		<tag k="place" v="locality" />
		<tag k="ssr:stedsnr" v="482757" />
	</node>
	<node lat="61.831158334199245" lon="4.974958328345336" id="-45916">
		<tag k="alt_name" v="Klubbenes" />
		<tag k="name" v="Klubbeneset" />
		<tag k="natural" v="cape" />
		<tag k="ssr:stedsnr" v="414269" />
	</node>
	<node lat="61.77712778048466" lon="4.969541673233639" id="-45921">
		<tag k="alt_name" v="Visholmen" />
		<tag k="name" v="Vessholmen" />
		<tag k="place" v="islet" />
		<tag k="ssr:stedsnr" v="414406" />
	</node>
	<node lat="61.9075305596137" lon="5.382819442700075" id="-45929">
		<tag k="name" v="Tuenes" />
		<tag k="natural" v="cape" />
		<tag k="ssr:stedsnr" v="414609" />
	</node>
	<node lat="61.893111115586485" lon="5.635461112485627" id="-45931">
		<tag k="name" v="Tobbeberget" />
		<tag k="natural" v="cape" />
		<tag k="ssr:stedsnr" v="414803" />
	</node>
	<node lat="61.88232777991583" lon="5.318580554351838" id="-45936">
		<tag k="name" v="Jakteholmen" />
		<tag k="natural" v="cape" />
		<tag k="ssr:stedsnr" v="414600" />
	</node>
	<node lat="61.71275000321138" lon="5.106622215933228" id="-45942">
		<tag k="name" v="Litleneset" />
		<tag k="natural" v="cape" />
		<tag k="ssr:stedsnr" v="414891" />
	</node>
	<node lat="61.87943332926563" lon="5.096508334715309" id="-45951">
		<tag k="alt_name" v="Naustholmen" />
		<tag k="name" v="Steinholmen" />
		<tag k="place" v="islet" />
		<tag k="ssr:stedsnr" v="415690" />
	</node>
	<node lat="61.77578333247636" lon="5.271508327348817" id="-45952">
		<tag k="name" v="Mevikneset" />
		<tag k="natural" v="cape" />
		<tag k="ssr:stedsnr" v="415809" />
	</node>
	<node lat="61.78368888681358" lon="5.004675003591291" id="-45954">
		<tag k="name" v="Tjuvenesflua" />
		<tag k="natural" v="shoal" />
		<tag k="place" v="locality" />
		<tag k="ssr:stedsnr" v="417585" />
	</node>
	<node lat="61.82218055653004" lon="5.2780194440848405" id="-45955">
		<tag k="name" v="Furevika" />
		<tag k="natural" v="bay" />
		<tag k="ssr:stedsnr" v="418037" />
	</node>
	<node lat="61.91444444773408" lon="5.412263895943467" id="-45957">
		<tag k="name" v="Torskevika" />
		<tag k="natural" v="bay" />
		<tag k="ssr:stedsnr" v="418603" />
	</node>
	<node lat="61.77609999597173" lon="4.91884722847287" id="-45958">
		<tag k="name" v="Rundeholmen" />
		<tag k="place" v="islet" />
		<tag k="ssr:stedsnr" v="418614" />
	</node>
	<node lat="61.9046431898571" lon="5.377544978328886" id="-45959">
		<tag k="name" v="Årvika" />
		<tag k="natural" v="bay" />
		<tag k="ssr:stedsnr" v="418586" />
	</node>
	<node lat="61.72839444340432" lon="5.175197221521319" id="-45969">
		<tag k="name" v="Midtgulen" />
		<tag k="natural" v="bay" />
		<tag k="ssr:stedsnr" v="433836" />
	</node>
	<node lat="61.77981389064029" lon="4.828374991734778" id="-45975">
		<tag k="name" v="Molvikhalsen" />
		<tag k="natural" v="cape" />
		<tag k="ssr:stedsnr" v="434806" />
	</node>
	<node lat="61.82120555711649" lon="5.67400556338909" id="-45994">
		<tag k="name" v="Fureneset" />
		<tag k="natural" v="cape" />
		<tag k="ssr:stedsnr" v="435860" />
	</node>
	<node lat="61.72629444093179" lon="4.854155564725045" id="-45995">
		<tag k="bay" v="fjord" />
		<tag k="name" v="Frøysjøen" />
		<tag k="natural" v="bay" />
		<tag k="ssr:stedsnr" v="493430" />
	</node>
	<node lat="61.73392499767803" lon="4.9556916695550335" id="-45996">
		<tag k="name" v="Langevengen" />
		<tag k="place" v="islet" />
		<tag k="ssr:stedsnr" v="493445" />
	</node>
	<node lat="61.72359722248298" lon="4.710883340417854" id="-46001">
		<tag k="name" v="Aldeflua" />
		<tag k="natural" v="shoal" />
		<tag k="place" v="locality" />
		<tag k="ssr:stedsnr" v="494456" />
	</node>
	<node lat="61.733602774619634" lon="4.815699992570532" id="-46002">
		<tag k="fixme" v="consider seamark:type=rock or natural=shoal" />
		<tag k="name" v="Joskjera" />
		<tag k="place" v="islet" />
		<tag k="ssr:stedsnr" v="675475" />
	</node>
	<node lat="61.73185514595425" lon="4.822677536258164" id="-46003">
		<tag k="name" v="Gåsøyna" />
		<tag k="place" v="island" />
		<tag k="ssr:stedsnr" v="675480" />
	</node>
	<node lat="61.801063890891534" lon="5.0485111193009065" id="-46010">
		<tag k="name" v="Storevika" />
		<tag k="natural" v="bay" />
		<tag k="ssr:stedsnr" v="474425" />
	</node>
	<node lat="61.78092500417503" lon="4.8270083399472625" id="-46013">
		<tag k="name" v="Molvika" />
		<tag k="natural" v="bay" />
		<tag k="ssr:stedsnr" v="474513" />
	</node>
	<node lat="61.815116663448066" lon="5.1924972155200315" id="-46014">
		<tag k="name" v="Ytste Hennøyholmen" />
		<tag k="place" v="islet" />
		<tag k="ssr:stedsnr" v="474519" />
	</node>
	<node lat="61.898980555669205" lon="5.6030555596687455" id="-46018">
		<tag k="name" v="Berastøa" />
		<tag k="natural" v="beach" />
		<tag k="ssr:stedsnr" v="474809" />
	</node>
	<node lat="61.72014166505602" lon="4.969558332427967" id="-46024">
		<tag k="name" v="Vesle Åpnarhella" />
		<tag k="natural" v="cape" />
		<tag k="ssr:stedsnr" v="474958" />
	</node>
	<node lat="61.8465583304811" lon="4.846719439001003" id="-46026">
		<tag k="fixme" v="consider seamark:type=rock or natural=shoal" />
		<tag k="name" v="Hatlesundskjer" />
		<tag k="place" v="islet" />
		<tag k="ssr:stedsnr" v="475004" />
	</node>
	<node lat="61.87677777631351" lon="4.885486110478238" id="-46027">
		<tag k="alt_name" v="Indre Tussevika" />
		<tag k="name" v="Inste Tussevika" />
		<tag k="natural" v="bay" />
		<tag k="ssr:stedsnr" v="475018" />
	</node>
	<node lat="61.78047222300687" lon="4.981777770989644" id="-46033">
		<tag k="name" v="Vågestranda" />
		<tag k="natural" v="beach" />
		<tag k="ssr:stedsnr" v="475419" />
	</node>
	<node lat="61.8637666700896" lon="5.30446945118469" id="-46034">
		<tag k="name" v="Sveneset" />
		<tag k="natural" v="cape" />
		<tag k="ssr:stedsnr" v="475603" />
	</node>
	<node lat="61.86154722509875" lon="5.310586112107993" id="-46035">
		<tag k="name" v="Leirgulpollen" />
		<tag k="natural" v="bay" />
		<tag k="ssr:stedsnr" v="475604" />
	</node>
	<node lat="61.84625096454934" lon="5.831904538950889" id="-46038">
		<tag k="name" v="Merselsneset" />
		<tag k="natural" v="cape" />
		<tag k="ssr:stedsnr" v="475783" />
	</node>
	<node lat="61.76138610858526" lon="5.111508336140266" id="-46040">
		<tag k="name" v="Merkingsneset" />
		<tag k="natural" v="cape" />
		<tag k="ssr:stedsnr" v="475819" />
	</node>
	<node lat="61.70943888552529" lon="5.107897217487076" id="-46041">
		<tag k="name" v="Legeneset" />
		<tag k="natural" v="cape" />
		<tag k="ssr:stedsnr" v="475886" />
	</node>
	<node lat="61.708839390495086" lon="5.121688613365003" id="-46042">
		<tag k="name" v="Jakteneset" />
		<tag k="natural" v="cape" />
		<tag k="ssr:stedsnr" v="475887" />
	</node>
	<node lat="61.717597226742726" lon="5.106852781391849" id="-46046">
		<tag k="name" v="Klubbeneset" />
		<tag k="natural" v="cape" />
		<tag k="ssr:stedsnr" v="475907" />
	</node>
	<node lat="61.715777775624055" lon="5.106947215884852" id="-46047">
		<tag k="name" v="Langeneset" />
		<tag k="natural" v="cape" />
		<tag k="ssr:stedsnr" v="475911" />
	</node>
	<node lat="61.86287500384524" lon="4.832086109803556" id="-46050">
		<tag k="name" v="Brosmevika" />
		<tag k="natural" v="bay" />
		<tag k="ssr:stedsnr" v="677898" />
	</node>
	<node lat="61.87142722376253" lon="5.21011405228924" id="-46058">
		<tag k="name" v="Klubben" />
		<tag k="natural" v="cape" />
		<tag k="ssr:stedsnr" v="677163" />
	</node>
	<node lat="61.900994442631884" lon="4.917133331978543" id="-46063">
		<tag k="name" v="Lavikebruna" />
		<tag k="natural" v="cape" />
		<tag k="ssr:stedsnr" v="477419" />
	</node>
	<node lat="61.757944446484444" lon="4.874174998125077" id="-46066">
		<tag k="fixme" v="consider seamark:type=rock or natural=shoal" />
		<tag k="name" v="Kongskjelda" />
		<tag k="place" v="islet" />
		<tag k="ssr:stedsnr" v="477865" />
	</node>
	<node lat="61.82152777814207" lon="5.116922219380242" id="-46067">
		<tag k="name" v="Kreksa" />
		<tag k="natural" v="shoal" />
		<tag k="place" v="locality" />
		<tag k="ssr:stedsnr" v="478459" />
	</node>
	<node lat="61.797599995942605" lon="4.913011114091642" id="-46068">
		<tag k="fixme" v="consider seamark:type=rock or natural=shoal" />
		<tag k="name" v="Fiskeskjeret" />
		<tag k="place" v="islet" />
		<tag k="ssr:stedsnr" v="478667" />
	</node>
	<node lat="61.88065000078275" lon="4.913486112194648" id="-46069">
		<tag k="name" v="Sørevikane" />
		<tag k="natural" v="bay" />
		<tag k="ssr:stedsnr" v="478860" />
	</node>
	<node lat="61.824386112634855" lon="4.9477638855726935" id="-46071">
		<tag k="name" v="Løvikneset" />
		<tag k="natural" v="cape" />
		<tag k="ssr:stedsnr" v="677944" />
	</node>
	<node lat="61.897894445300004" lon="4.989880547003786" id="-46076">
		<tag k="name" v="Fåkeila" />
		<tag k="natural" v="bay" />
		<tag k="ssr:stedsnr" v="678953" />
	</node>
	<node lat="61.7581666664729" lon="5.130816672629308" id="-46081">
		<tag k="name" v="Leirvikneset" />
		<tag k="natural" v="cape" />
		<tag k="ssr:stedsnr" v="495083" />
	</node>
	<node lat="61.76335555575548" lon="5.168613896695641" id="-46082">
		<tag k="name" v="Holmaneset" />
		<tag k="natural" v="cape" />
		<tag k="ssr:stedsnr" v="495109" />
	</node>
	<node lat="61.856791666744925" lon="5.314683340255555" id="-46085">
		<tag k="name" v="Lofnes" />
		<tag k="natural" v="cape" />
		<tag k="ssr:stedsnr" v="495172" />
	</node>
	<node lat="61.83741666448367" lon="5.704427780709673" id="-46088">
		<tag k="alt_name" v="Ålfotefjorden" />
		<tag k="bay" v="fjord" />
		<tag k="name" v="Ålfoten" />
		<tag k="natural" v="bay" />
		<tag k="ssr:stedsnr" v="495314" />
	</node>
	<node lat="61.82474444009951" lon="5.678577769623113" id="-46091">
		<tag k="name" v="Svinevika" />
		<tag k="natural" v="bay" />
		<tag k="ssr:stedsnr" v="495322" />
	</node>
	<node lat="61.76216111044373" lon="4.930199994208714" id="-46096">
		<tag k="name" v="Fiskholmen" />
		<tag k="place" v="islet" />
		<tag k="ssr:stedsnr" v="495866" />
	</node>
	<node lat="61.86414444790105" lon="4.833977776147086" id="-46097">
		<tag k="name" v="Gyttane" />
		<tag k="natural" v="cape" />
		<tag k="ssr:stedsnr" v="495903" />
	</node>
	<node lat="61.84074444209261" lon="4.8559666664378645" id="-46099">
		<tag k="fixme" v="consider seamark:type=rock or natural=shoal" />
		<tag k="name" v="Vissholmskjera" />
		<tag k="place" v="islet" />
		<tag k="ssr:stedsnr" v="495910" />
	</node>
	<node lat="61.848624999166695" lon="4.827569449456055" id="-46103">
		<tag k="name" v="Smøyholmen" />
		<tag k="place" v="islet" />
		<tag k="ssr:stedsnr" v="495918" />
	</node>
	<node lat="61.820388890403144" lon="4.789119443045149" id="-46105">
		<tag k="name" v="Rognfluene" />
		<tag k="natural" v="shoal" />
		<tag k="place" v="locality" />
		<tag k="ssr:stedsnr" v="495926" />
	</node>
	<node lat="61.9090888923589" lon="4.953794442405547" id="-46106">
		<tag k="alt_name" v="Skarvenykjen" />
		<tag k="name" v="Nyken" />
		<tag k="natural" v="cape" />
		<tag k="ssr:stedsnr" v="495978" />
	</node>
	<node lat="61.900602781639044" lon="5.541277778405433" id="-46109">
		<tag k="name" v="Hola" />
		<tag k="natural" v="bay" />
		<tag k="ssr:stedsnr" v="525909" />
	</node>
	<node lat="61.849491671144115" lon="5.34736111686363" id="-46112">
		<tag k="name" v="Tjukkeneset" />
		<tag k="natural" v="cape" />
		<tag k="ssr:stedsnr" v="535370" />
	</node>
	<node lat="61.76752778220587" lon="4.850558339507007" id="-46114">
		<tag k="name" v="Rognholmane" />
		<tag k="place" v="islet" />
		<tag k="ssr:stedsnr" v="535378" />
	</node>
	<node lat="61.748508337869474" lon="4.850033340581254" id="-46117">
		<tag k="name" v="Lakseneset" />
		<tag k="natural" v="cape" />
		<tag k="ssr:stedsnr" v="535402" />
	</node>
	<node lat="61.76218055194223" lon="4.846411102967624" id="-46119">
		<tag k="name" v="Kvannevika" />
		<tag k="natural" v="bay" />
		<tag k="ssr:stedsnr" v="535409" />
	</node>
	<node lat="61.75676111292202" lon="4.831344438851753" id="-46121">
		<tag k="fixme" v="consider seamark:type=rock or natural=shoal" />
		<tag k="name" v="Auseskjera" />
		<tag k="place" v="islet" />
		<tag k="ssr:stedsnr" v="535483" />
	</node>
	<node lat="61.760083336423605" lon="5.213241664890006" id="-46124">
		<tag k="name" v="Svinevika" />
		<tag k="natural" v="bay" />
		<tag k="ssr:stedsnr" v="535776" />
	</node>
	<node lat="61.72205000436131" lon="5.161905550615856" id="-46130">
		<tag k="name" v="Kallavikneset" />
		<tag k="natural" v="cape" />
		<tag k="ssr:stedsnr" v="535907" />
	</node>
	<node lat="61.712736110722396" lon="5.165919448862948" id="-46131">
		<tag k="name" v="Hjellvika" />
		<tag k="natural" v="bay" />
		<tag k="ssr:stedsnr" v="535910" />
	</node>
	<node lat="61.725183330654104" lon="4.9805416576427834" id="-46145">
		<tag k="name" v="Klasneset" />
		<tag k="natural" v="cape" />
		<tag k="ssr:stedsnr" v="535972" />
	</node>
	<node lat="61.70902354650735" lon="5.119306569965147" id="-46154">
		<tag k="alt_name" v="Nørevika" />
		<tag k="name" v="Nørdrevika" />
		<tag k="natural" v="bay" />
		<tag k="ssr:stedsnr" v="538682" />
	</node>
	<node lat="61.77049722396673" lon="4.945058326961492" id="-46155">
		<tag k="name" v="Rotaflua" />
		<tag k="natural" v="shoal" />
		<tag k="place" v="locality" />
		<tag k="ssr:stedsnr" v="538579" />
	</node>
	<node lat="61.76150278194433" lon="4.657747220478565" id="-46156">
		<tag k="name" v="Skorperauva" />
		<tag k="natural" v="shoal" />
		<tag k="place" v="locality" />
		<tag k="ssr:stedsnr" v="539882" />
	</node>
	<node lat="61.75135555259292" lon="4.652161107420258" id="-46157">
		<tag k="name" v="Gnetaflua" />
		<tag k="natural" v="shoal" />
		<tag k="place" v="locality" />
		<tag k="ssr:stedsnr" v="539883" />
	</node>
	<node lat="61.74041111550265" lon="4.700255558309152" id="-46159">
		<tag k="name" v="Frøyagrunnene" />
		<tag k="natural" v="shoal" />
		<tag k="place" v="locality" />
		<tag k="ssr:stedsnr" v="554409" />
	</node>
	<node lat="61.717491663805625" lon="4.969933335917108" id="-46160">
		<tag k="name" v="Opnarhella" />
		<tag k="natural" v="cape" />
		<tag k="ssr:stedsnr" v="554474" />
	</node>
	<node lat="61.76253889050727" lon="5.241072219549417" id="-46161">
		<tag k="name" v="Velsneset" />
		<tag k="natural" v="cape" />
		<tag k="ssr:stedsnr" v="688240" />
	</node>
	<node lat="61.76932500141422" lon="5.255900003767005" id="-46170">
		<tag k="name" v="Langeneset" />
		<tag k="natural" v="cape" />
		<tag k="ssr:stedsnr" v="556106" />
	</node>
	<node lat="61.771275002302254" lon="5.202919441582704" id="-46171">
		<tag k="name" v="Støylsspordneset" />
		<tag k="natural" v="cape" />
		<tag k="ssr:stedsnr" v="556107" />
	</node>
	<node lat="61.77348055506962" lon="5.21666945000592" id="-46172">
		<tag k="name" v="Trolleneset" />
		<tag k="natural" v="cape" />
		<tag k="ssr:stedsnr" v="556109" />
	</node>
	<node lat="61.82747222028191" lon="4.9287833273350525" id="-46174">
		<tag k="bay" v="fjord" />
		<tag k="name" v="Bremangerpollen" />
		<tag k="natural" v="bay" />
		<tag k="ssr:stedsnr" v="556902" />
	</node>
	<node lat="61.804683331731844" lon="4.828474995620317" id="-46176">
		<tag k="name" v="Slåttevikneset" />
		<tag k="natural" v="cape" />
		<tag k="ssr:stedsnr" v="556924" />
	</node>
	<node lat="61.82155833291782" lon="4.933027781904542" id="-46177">
		<tag k="name" v="Lyngneset" />
		<tag k="natural" v="cape" />
		<tag k="ssr:stedsnr" v="556928" />
	</node>
	<node lat="61.887322223424974" lon="5.676422213585645" id="-46185">
		<tag k="name" v="Isestranda" />
		<tag k="natural" v="beach" />
		<tag k="ssr:stedsnr" v="585804" />
	</node>
	<node lat="61.895394443354654" lon="5.568969447989239" id="-46186">
		<tag k="name" v="Svartekari" />
		<tag k="natural" v="cape" />
		<tag k="ssr:stedsnr" v="585795" />
	</node>
	<node lat="61.720636114116225" lon="4.994886101598092" id="-46189">
		<tag k="name" v="Korsnesvika" />
		<tag k="natural" v="bay" />
		<tag k="ssr:stedsnr" v="595952" />
	</node>
	<node lat="61.78249166730784" lon="4.9512138933219285" id="-46198">
		<tag k="name" v="Gullurholmane" />
		<tag k="place" v="islet" />
		<tag k="ssr:stedsnr" v="596405" />
	</node>
	<node lat="61.778763888960626" lon="4.947350008515697" id="-46199">
		<tag k="name" v="Kvernavika" />
		<tag k="natural" v="bay" />
		<tag k="ssr:stedsnr" v="596406" />
	</node>
	<node lat="61.7640194444899" lon="4.88687221280286" id="-46200">
		<tag k="name" v="Flatholmen" />
		<tag k="place" v="islet" />
		<tag k="ssr:stedsnr" v="596453" />
	</node>
	<node lat="61.87314722141944" lon="5.2271305574134" id="-46206">
		<tag k="name" v="Kalveholmen" />
		<tag k="place" v="islet" />
		<tag k="ssr:stedsnr" v="596565" />
	</node>
	<node lat="61.8334611136057" lon="5.695475009167358" id="-46207">
		<tag k="name" v="Flevikneset" />
		<tag k="natural" v="cape" />
		<tag k="ssr:stedsnr" v="596725" />
	</node>
	<node lat="61.894258334783515" lon="5.630077784768948" id="-46209">
		<tag k="name" v="Juvika" />
		<tag k="natural" v="bay" />
		<tag k="ssr:stedsnr" v="596808" />
	</node>
	<node lat="61.7612166644974" lon="5.103730553410258" id="-46210">
		<tag k="name" v="Klubbeneset" />
		<tag k="natural" v="cape" />
		<tag k="ssr:stedsnr" v="596815" />
	</node>
	<node lat="61.81388055827657" lon="4.950827772398996" id="-46212">
		<tag k="name" v="Myrevika" />
		<tag k="natural" v="bay" />
		<tag k="ssr:stedsnr" v="597014" />
	</node>
	<node lat="61.73092499968976" lon="5.117186107604525" id="-46217">
		<tag k="name" v="Kastevikneset" />
		<tag k="natural" v="cape" />
		<tag k="ssr:stedsnr" v="598663" />
	</node>
	<node lat="61.77668888564289" lon="4.924977772154738" id="-46219">
		<tag k="name" v="Gapet" />
		<tag k="natural" v="bay" />
		<tag k="ssr:stedsnr" v="599653" />
	</node>
	<node lat="61.80419166589578" lon="4.9103666739488325" id="-46220">
		<tag k="name" v="Kalveneset" />
		<tag k="natural" v="cape" />
		<tag k="ssr:stedsnr" v="599657" />
	</node>
	<node lat="61.762758335850805" lon="4.626508341409567" id="-46221">
		<tag k="loc_name" v="Nørdreflua" />
		<tag k="name" v="Nordreflua" />
		<tag k="natural" v="shoal" />
		<tag k="place" v="locality" />
		<tag k="ssr:stedsnr" v="599905" />
	</node>
	<node lat="61.742627774450405" lon="5.119083340364426" id="-46225">
		<tag k="alt_name" v="Mulehamnnes" />
		<tag k="name" v="Mulehamn" />
		<tag k="natural" v="cape" />
		<tag k="ssr:stedsnr" v="614808" />
	</node>
	<node lat="61.80728889090679" lon="5.157397219019256" id="-46230">
		<tag k="alt_name" v="Bårdvikneset, Ytste;Ytste Bårdviknes" />
		<tag k="name" v="Ytste Bårdvikneset" />
		<tag k="natural" v="cape" />
		<tag k="ssr:stedsnr" v="616113" />
	</node>
	<node lat="61.8688583368391" lon="5.301527783789964" id="-46237">
		<tag k="alt_name" v="Tjuveholmen" />
		<tag k="name" v="Tjuvaholmen" />
		<tag k="place" v="islet" />
		<tag k="ssr:stedsnr" v="616150" />
	</node>
	<node lat="61.830699998628525" lon="5.670636102678329" id="-46241">
		<tag k="name" v="Sigdestadvika" />
		<tag k="natural" v="bay" />
		<tag k="ssr:stedsnr" v="616299" />
	</node>
	<node lat="61.89292500361614" lon="5.0028972174416815" id="-46250">
		<tag k="name" v="Fåstranda" />
		<tag k="natural" v="beach" />
		<tag k="ssr:stedsnr" v="616994" />
	</node>
	<node lat="61.80237221870175" lon="5.05726944505188" id="-46252">
		<tag k="name" v="Skipperdalsneset" />
		<tag k="natural" v="cape" />
		<tag k="ssr:stedsnr" v="617834" />
	</node>
	<node lat="61.90624999841696" lon="4.863516663551406" id="-46253">
		<tag k="fixme" v="consider seamark:type=rock or natural=shoal" />
		<tag k="name" v="Nørdreskjera" />
		<tag k="place" v="islet" />
		<tag k="ssr:stedsnr" v="617978" />
	</node>
	<node lat="61.78812777910603" lon="4.889313883899312" id="-46257">
		<tag k="name" v="Stranda" />
		<tag k="natural" v="beach" />
		<tag k="ssr:stedsnr" v="656040" />
	</node>
	<node lat="61.75759999622129" lon="4.810119435652711" id="-46263">
		<tag k="name" v="Storeneset" />
		<tag k="natural" v="cape" />
		<tag k="ssr:stedsnr" v="656489" />
	</node>
	<node lat="61.74803332950348" lon="4.8299666725586325" id="-46265">
		<tag k="name" v="Tueholmane" />
		<tag k="place" v="islet" />
		<tag k="ssr:stedsnr" v="656494" />
	</node>
	<node lat="61.749024998936946" lon="4.831516662722189" id="-46266">
		<tag k="name" v="Havmannen" />
		<tag k="place" v="islet" />
		<tag k="ssr:stedsnr" v="656496" />
	</node>
	<node lat="61.7458694428204" lon="4.822877773108418" id="-46267">
		<tag k="name" v="Lyreholmane" />
		<tag k="place" v="islet" />
		<tag k="ssr:stedsnr" v="656499" />
	</node>
	<node lat="61.89212777446741" lon="5.330533328201457" id="-46270">
		<tag k="name" v="Knarreholmsundet" />
		<tag k="natural" v="strait" />
		<tag k="ssr:stedsnr" v="656636" />
	</node>
	<node lat="61.84420277314627" lon="5.276883326105571" id="-46274">
		<tag k="name" v="Grønevika" />
		<tag k="natural" v="bay" />
		<tag k="ssr:stedsnr" v="656586" />
	</node>
	<node lat="61.88848611388859" lon="5.260888884645168" id="-46277">
		<tag k="name" v="Stokkevik" />
		<tag k="natural" v="bay" />
		<tag k="ssr:stedsnr" v="656600" />
	</node>
	<node lat="61.76200555813749" lon="5.241766660239964" id="-46279">
		<tag k="name" v="Notastonga" />
		<tag k="natural" v="beach" />
		<tag k="ssr:stedsnr" v="656812" />
	</node>
	<node lat="61.73571666601215" lon="5.1172333410271005" id="-46281">
		<tag k="name" v="Kallavika" />
		<tag k="natural" v="bay" />
		<tag k="ssr:stedsnr" v="656882" />
	</node>
	<node lat="61.81968055118669" lon="4.917013885024942" id="-46282">
		<tag k="name" v="Storegjølsvika" />
		<tag k="natural" v="bay" />
		<tag k="ssr:stedsnr" v="657031" />
	</node>
	<node lat="61.84021388481685" lon="5.683866665932564" id="-46292">
		<tag k="name" v="Oreneset" />
		<tag k="natural" v="cape" />
		<tag k="ssr:stedsnr" v="657241" />
	</node>
	<node lat="61.850577780331776" lon="5.773472228306975" id="-46296">
		<tag k="name" v="Litleholmen" />
		<tag k="place" v="islet" />
		<tag k="ssr:stedsnr" v="657726" />
	</node>
	<node lat="61.873397221863094" lon="5.722886105651767" id="-46299">
		<tag k="name" v="Skoganeset" />
		<tag k="natural" v="cape" />
		<tag k="ssr:stedsnr" v="657782" />
	</node>
	<node lat="61.70657500123203" lon="5.170727784061454" id="-46303">
		<tag k="alt_name" v="Fagrebuktneset" />
		<tag k="name" v="Faglebuktneset" />
		<tag k="natural" v="cape" />
		<tag k="ssr:stedsnr" v="657891" />
	</node>
	<node lat="61.77660000226326" lon="5.2435361131555" id="-46309">
		<tag k="name" v="Brynenesvika" />
		<tag k="natural" v="bay" />
		<tag k="ssr:stedsnr" v="659190" />
	</node>
	<node lat="61.80305832916022" lon="5.053269441133009" id="-46310">
		<tag k="name" v="Verpe" />
		<tag k="natural" v="cape" />
		<tag k="ssr:stedsnr" v="659537" />
	</node>
	<node lat="61.766502781894815" lon="4.910824996475911" id="-46311">
		<tag k="fixme" v="consider seamark:type=rock or natural=shoal" />
		<tag k="name" v="Guleskjeret" />
		<tag k="place" v="islet" />
		<tag k="ssr:stedsnr" v="659600" />
	</node>
	<node lat="61.74966111426847" lon="5.092977783882489" id="-46312">
		<tag k="name" v="Allmenningsvika" />
		<tag k="natural" v="bay" />
		<tag k="ssr:stedsnr" v="659814" />
	</node>
	<node lat="61.72505833095328" lon="5.1040166668817" id="-46314">
		<tag k="name" v="Elvaneset" />
		<tag k="natural" v="cape" />
		<tag k="ssr:stedsnr" v="659788" />
	</node>
	<node lat="61.79728055142672" lon="4.920022227422413" id="-46315">
		<tag k="name" v="Standalsneset" />
		<tag k="natural" v="cape" />
		<tag k="ssr:stedsnr" v="660661" />
	</node>
	<node lat="61.83344999912877" lon="4.9882499970616125" id="-46316">
		<tag k="name" v="Fosseflua" />
		<tag k="natural" v="shoal" />
		<tag k="place" v="locality" />
		<tag k="ssr:stedsnr" v="660958" />
	</node>
	<node lat="61.88907222531043" lon="5.265049995540638" id="-46327">
		<tag k="name" v="Hella" />
		<tag k="natural" v="cape" />
		<tag k="ssr:stedsnr" v="677184" />
	</node>
	<node lat="61.83578333740376" lon="4.898716664477863" id="-46339">
		<tag k="name" v="Kyrkjeholmane" />
		<tag k="place" v="islet" />
		<tag k="ssr:stedsnr" v="677920" />
	</node>
	<node lat="61.88440278147472" lon="5.706925004886634" id="-46343">
		<tag k="name" v="Iseneset" />
		<tag k="natural" v="cape" />
		<tag k="ssr:stedsnr" v="687507" />
	</node>
	<node lat="61.76480393026079" lon="4.901793233771312" id="-46345">
		<tag k="name" v="Kommandørflua" />
		<tag k="natural" v="shoal" />
		<tag k="place" v="locality" />
		<tag k="ssr:stedsnr" v="693578" />
	</node>
	<node lat="61.80645278171373" lon="5.065366672926977" id="-46362">
		<tag k="name" v="Fløsholmen" />
		<tag k="place" v="islet" />
		<tag k="ssr:stedsnr" v="717426" />
	</node>
	<node lat="61.8878638860002" lon="5.333488883346556" id="-46364">
		<tag k="alt_name" v="Kirkenes" />
		<tag k="name" v="Kyrkjeneset" />
		<tag k="natural" v="cape" />
		<tag k="ssr:stedsnr" v="717619" />
	</node>
	<node lat="61.76337778031877" lon="5.24758333579945" id="-46370">
		<tag k="name" v="Båtvika" />
		<tag k="natural" v="bay" />
		<tag k="ssr:stedsnr" v="717777" />
	</node>
	<node lat="61.84813611070145" lon="4.873149997023202" id="-46374">
		<tag k="name" v="Kringla" />
		<tag k="natural" v="cape" />
		<tag k="ssr:stedsnr" v="718003" />
	</node>
	<node lat="61.87965277931478" lon="4.914522212725495" id="-46375">
		<tag k="name" v="Molvika" />
		<tag k="natural" v="bay" />
		<tag k="ssr:stedsnr" v="718016" />
	</node>
	<node lat="61.836558330467355" lon="4.91777499261862" id="-46379">
		<tag k="name" v="Kvernhusvika" />
		<tag k="natural" v="bay" />
		<tag k="ssr:stedsnr" v="718042" />
	</node>
	<node lat="61.760138884367095" lon="5.128458327914447" id="-46390">
		<tag k="name" v="Ytste Leirvikneset" />
		<tag k="natural" v="cape" />
		<tag k="ssr:stedsnr" v="718808" />
	</node>
	<node lat="61.77514721976177" lon="5.277986111053711" id="-46392">
		<tag k="name" v="Framstevika" />
		<tag k="natural" v="bay" />
		<tag k="ssr:stedsnr" v="718761" />
	</node>
	<node lat="61.78750277436468" lon="4.794313885334187" id="-46395">
		<tag k="name" v="Ytste Muleholmen" />
		<tag k="place" v="islet" />
		<tag k="ssr:stedsnr" v="899468" />
	</node>
	<node lat="61.83397777402708" lon="5.242063884025574" id="-46398">
		<tag k="name" v="Litle Klubben" />
		<tag k="natural" v="cape" />
		<tag k="ssr:stedsnr" v="899548" />
	</node>
	<node lat="61.88021176927351" lon="5.335829587006846" id="-46399">
		<tag k="name" v="Stranda" />
		<tag k="natural" v="beach" />
		<tag k="ssr:stedsnr" v="899630" />
	</node>
	<node lat="61.791105554899175" lon="5.119494449839008" id="-46400">
		<tag k="name" v="Flua" />
		<tag k="natural" v="shoal" />
		<tag k="place" v="locality" />
		<tag k="ssr:stedsnr" v="720124" />
	</node>
	<node lat="61.76499167008272" lon="5.142327773210255" id="-46401">
		<tag k="name" v="Hessvika" />
		<tag k="natural" v="bay" />
		<tag k="ssr:stedsnr" v="720185" />
	</node>
	<node lat="61.82128055203032" lon="4.948213888771692" id="-46403">
		<tag k="name" v="Spildretaren" />
		<tag k="natural" v="shoal" />
		<tag k="place" v="locality" />
		<tag k="ssr:stedsnr" v="720816" />
	</node>
	<node lat="61.7706305590385" lon="5.151688893408623" id="-46404">
		<tag k="name" v="Furebakksnes" />
		<tag k="natural" v="cape" />
		<tag k="ssr:stedsnr" v="899829" />
	</node>
	<node lat="61.72286110781298" lon="5.216508327109584" id="-46407">
		<tag k="name" v="Slettevika" />
		<tag k="natural" v="bay" />
		<tag k="ssr:stedsnr" v="899893" />
	</node>
	<node lat="61.83501110794703" lon="4.94145000669358" id="-46411">
		<tag k="alt_name" v="Katteskjeret" />
		<tag k="name" v="Katta" />
		<tag k="place" v="islet" />
		<tag k="ssr:stedsnr" v="900036" />
	</node>
	<node lat="61.89631111112205" lon="4.911752776095862" id="-46416">
		<tag k="name" v="Lavika" />
		<tag k="natural" v="bay" />
		<tag k="ssr:stedsnr" v="900129" />
	</node>
	<node lat="61.83774444295876" lon="4.981355553577816" id="-46417">
		<tag k="name" v="Blåhella" />
		<tag k="natural" v="cape" />
		<tag k="ssr:stedsnr" v="903964" />
	</node>
	<node lat="61.75689166909611" lon="4.844252772193391" id="-46429">
		<tag k="fixme" v="consider seamark:type=rock or natural=shoal" />
		<tag k="name" v="Espeskjera" />
		<tag k="place" v="islet" />
		<tag k="ssr:stedsnr" v="900400" />
	</node>
	<node lat="61.760816664490335" lon="4.812261111341223" id="-46430">
		<tag k="name" v="Humresundneset" />
		<tag k="natural" v="cape" />
		<tag k="ssr:stedsnr" v="900482" />
	</node>
	<node lat="61.905774999112744" lon="5.484733339595738" id="-46437">
		<tag k="name" v="Nibben" />
		<tag k="natural" v="cape" />
		<tag k="ssr:stedsnr" v="900591" />
	</node>
	<node lat="61.84159999901797" lon="5.141341671274333" id="-46438">
		<tag k="name" v="Murvika" />
		<tag k="natural" v="bay" />
		<tag k="ssr:stedsnr" v="900629" />
	</node>
	<node lat="61.83017778169828" lon="5.158025001432592" id="-46440">
		<tag k="name" v="Breivika" />
		<tag k="natural" v="bay" />
		<tag k="ssr:stedsnr" v="900640" />
	</node>
	<node lat="61.776347223476705" lon="5.26840556191606" id="-46442">
		<tag k="name" v="Gjelvikneset" />
		<tag k="natural" v="cape" />
		<tag k="ssr:stedsnr" v="900767" />
	</node>
	<node lat="61.77288889041954" lon="5.213061112537112" id="-46444">
		<tag k="name" v="Trollenesvika" />
		<tag k="natural" v="bay" />
		<tag k="ssr:stedsnr" v="900775" />
	</node>
	<node lat="61.83472222531841" lon="5.70243888427188" id="-46448">
		<tag k="name" v="Loddfoten" />
		<tag k="natural" v="cape" />
		<tag k="ssr:stedsnr" v="900750" />
	</node>
	<node lat="61.731997226550156" lon="5.14750277569435" id="-46459">
		<tag k="name" v="Notaberget" />
		<tag k="natural" v="beach" />
		<tag k="ssr:stedsnr" v="900878" />
	</node>
	<node lat="61.73672777507376" lon="4.8132277773257055" id="-46466">
		<tag k="fixme" v="consider seamark:type=rock or natural=shoal" />
		<tag k="name" v="Frøyaskjera" />
		<tag k="place" v="islet" />
		<tag k="ssr:stedsnr" v="736471" />
	</node>
	<node lat="61.73901110842937" lon="4.749044444163169" id="-46467">
		<tag k="name" v="Raudskjerflua" />
		<tag k="natural" v="shoal" />
		<tag k="place" v="locality" />
		<tag k="ssr:stedsnr" v="736473" />
	</node>
	<node lat="61.73430833440383" lon="4.713258328997097" id="-46468">
		<tag k="name" v="Frøya-Skorpeflua" />
		<tag k="natural" v="shoal" />
		<tag k="place" v="locality" />
		<tag k="ssr:stedsnr" v="737475" />
	</node>
	<node lat="61.90137777952225" lon="4.9952361129403196" id="-46471">
		<tag k="fixme" v="consider seamark:type=rock or natural=shoal" />
		<tag k="name" v="Fåskjeret" />
		<tag k="place" v="islet" />
		<tag k="ssr:stedsnr" v="902443" />
	</node>
	<node lat="61.89111944767353" lon="5.219297222528148" id="-46473">
		<tag k="alt_name" v="Skorpeholmen" />
		<tag k="name" v="Skorpeholmane" />
		<tag k="place" v="islet" />
		<tag k="ssr:stedsnr" v="738218" />
	</node>
	<node lat="61.78480555140422" lon="4.956213886895005" id="-46481">
		<tag k="name" v="Øyasundet" />
		<tag k="natural" v="strait" />
		<tag k="ssr:stedsnr" v="902586" />
	</node>
	<node lat="61.78826110690706" lon="5.016341658257717" id="-46483">
		<tag k="name" v="Bytteneset" />
		<tag k="natural" v="cape" />
		<tag k="ssr:stedsnr" v="738848" />
	</node>
	<node lat="61.79009167094146" lon="4.9432305563355365" id="-46484">
		<tag k="name" v="Fløholmane" />
		<tag k="place" v="islet" />
		<tag k="ssr:stedsnr" v="738852" />
	</node>
	<node lat="61.77903332937148" lon="4.9017722160677" id="-46485">
		<tag k="alt_name" v="Frøyaneset" />
		<tag k="name" v="Frøynes" />
		<tag k="natural" v="cape" />
		<tag k="ssr:stedsnr" v="738861" />
	</node>
	<node lat="61.76843611186116" lon="4.941952776732605" id="-46486">
		<tag k="fixme" v="consider seamark:type=rock or natural=shoal" />
		<tag k="name" v="Rotaskjera" />
		<tag k="place" v="islet" />
		<tag k="ssr:stedsnr" v="902598" />
	</node>
	<node lat="61.879416667451615" lon="5.082219436358574" id="-46487">
		<tag k="name" v="Oldeidvika" />
		<tag k="natural" v="bay" />
		<tag k="ssr:stedsnr" v="903327" />
	</node>
	<node lat="61.79785278114338" lon="4.911211107327491" id="-46488">
		<tag k="fixme" v="consider seamark:type=rock or natural=shoal" />
		<tag k="name" v="Høgeskjeret" />
		<tag k="place" v="islet" />
		<tag k="ssr:stedsnr" v="903648" />
	</node>
	<node lat="61.787386107675964" lon="4.892494443129417" id="-46489">
		<tag k="name" v="Ariholmane" />
		<tag k="place" v="islet" />
		<tag k="ssr:stedsnr" v="903712" />
	</node>
	<node lat="61.77888055349141" lon="4.761074992125505" id="-46490">
		<tag k="name" v="Nordre Håskallen" />
		<tag k="natural" v="shoal" />
		<tag k="place" v="locality" />
		<tag k="ssr:stedsnr" v="903882" />
	</node>
	<node lat="61.7786944415761" lon="4.905444443153358" id="-46491">
		<tag k="alt_name" v="Søre Steinholmen" />
		<tag k="name" v="Tveholmen" />
		<tag k="place" v="islet" />
		<tag k="ssr:stedsnr" v="754721" />
	</node>
	<node lat="61.80103611463579" lon="4.868608332023409" id="-46494">
		<tag k="name" v="Ånnevikholmen" />
		<tag k="place" v="islet" />
		<tag k="ssr:stedsnr" v="778054" />
	</node>
	<node lat="61.80585555551813" lon="4.855430554190055" id="-46495">
		<tag k="name" v="Botnaneset" />
		<tag k="natural" v="cape" />
		<tag k="ssr:stedsnr" v="778055" />
	</node>
	<node lat="61.78382222569741" lon="4.964908339979571" id="-46504">
		<tag k="name" v="Rognholmen" />
		<tag k="place" v="islet" />
		<tag k="ssr:stedsnr" v="778415" />
	</node>
	<node lat="61.817922224489756" lon="5.249658342381789" id="-46506">
		<tag k="fixme" v="consider seamark:type=rock or natural=shoal" />
		<tag k="name" v="Løypingskjeret" />
		<tag k="place" v="islet" />
		<tag k="ssr:stedsnr" v="778505" />
	</node>
	<node lat="61.9113694474585" lon="5.399119444533163" id="-46513">
		<tag k="alt_name" v="Brusenes" />
		<tag k="name" v="Bruseneset" />
		<tag k="natural" v="cape" />
		<tag k="ssr:stedsnr" v="778597" />
	</node>
	<node lat="61.885277774605704" lon="5.326722214840045" id="-46518">
		<tag k="name" v="Litleøystraumen" />
		<tag k="natural" v="strait" />
		<tag k="ssr:stedsnr" v="778612" />
	</node>
	<node lat="61.825763890040875" lon="5.124391657532824" id="-46521">
		<tag k="name" v="Litleneset" />
		<tag k="natural" v="cape" />
		<tag k="ssr:stedsnr" v="778619" />
	</node>
	<node lat="61.72411111223055" lon="5.15185833143292" id="-46522">
		<tag k="name" v="Mulivik" />
		<tag k="natural" v="bay" />
		<tag k="ssr:stedsnr" v="778814" />
	</node>
	<node lat="61.898461110987775" lon="5.5947583363375415" id="-46523">
		<tag k="name" v="Stranda" />
		<tag k="natural" v="beach" />
		<tag k="ssr:stedsnr" v="778801" />
	</node>
	<node lat="61.75868333210593" lon="5.045463895603194" id="-46528">
		<tag k="name" v="Sæleboto" />
		<tag k="natural" v="beach" />
		<tag k="ssr:stedsnr" v="778916" />
	</node>
	<node lat="61.8152055573948" lon="4.9380305587005795" id="-46534">
		<tag k="alt_name" v="Holsvika" />
		<tag k="name" v="Holevika" />
		<tag k="natural" v="bay" />
		<tag k="ssr:stedsnr" v="779017" />
	</node>
	<node lat="61.8219527815394" lon="4.9314472146074975" id="-46536">
		<tag k="name" v="Fjøsholmen" />
		<tag k="place" v="islet" />
		<tag k="ssr:stedsnr" v="779023" />
	</node>
	<node lat="61.890391663683964" lon="4.916330555060851" id="-46537">
		<tag k="name" v="Jyttane" />
		<tag k="natural" v="beach" />
		<tag k="ssr:stedsnr" v="779100" />
	</node>
	<node lat="61.7429833368274" lon="5.00206943775043" id="-46541">
		<tag k="name" v="Hjellberget" />
		<tag k="natural" v="cape" />
		<tag k="ssr:stedsnr" v="781666" />
	</node>
	<node lat="61.7684527775386" lon="4.8929944386139885" id="-46542">
		<tag k="fixme" v="consider seamark:type=rock or natural=shoal" />
		<tag k="name" v="Kråkeskjeret" />
		<tag k="place" v="islet" />
		<tag k="ssr:stedsnr" v="782701" />
	</node>
	<node lat="61.77468611072212" lon="4.7620333395026755" id="-46543">
		<tag k="name" v="Søre Håskallen" />
		<tag k="natural" v="shoal" />
		<tag k="place" v="locality" />
		<tag k="ssr:stedsnr" v="782852" />
	</node>
	<node lat="61.77299444517713" lon="4.780674997115974" id="-46544">
		<tag k="name" v="Minneflua" />
		<tag k="natural" v="shoal" />
		<tag k="place" v="locality" />
		<tag k="ssr:stedsnr" v="782853" />
	</node>
	<node lat="61.748758336243405" lon="4.749294450069068" id="-46545">
		<tag k="name" v="Ytstebåen" />
		<tag k="natural" v="shoal" />
		<tag k="place" v="locality" />
		<tag k="ssr:stedsnr" v="782963" />
	</node>
	<node lat="61.83662654676002" lon="5.257097998792879" id="-46547">
		<tag k="loc_name" v="Hælneset" />
		<tag k="name" v="Hæleneset" />
		<tag k="natural" v="cape" />
		<tag k="ssr:stedsnr" v="788359" />
	</node>
	<node lat="61.72608751061682" lon="4.820754415278527" id="-46548">
		<tag k="name" v="Gåsøyboen" />
		<tag k="natural" v="shoal" />
		<tag k="place" v="locality" />
		<tag k="ssr:stedsnr" v="797450" />
	</node>
	<node lat="61.74509999615385" lon="4.843944440602034" id="-46549">
		<tag k="alt_name" v="Matlandsholmane" />
		<tag k="name" v="Mattlandsholmane" />
		<tag k="place" v="islet" />
		<tag k="ssr:stedsnr" v="797454" />
	</node>
	<node lat="61.775605552645736" lon="4.838188884395155" id="-46551">
		<tag k="name" v="Fagreskarvika" />
		<tag k="natural" v="bay" />
		<tag k="ssr:stedsnr" v="798803" />
	</node>
	<node lat="61.78172006892849" lon="4.957855811180371" id="-46552">
		<tag k="name" v="Vågøyna" />
		<tag k="old_name" v="Vågøy" />
		<tag k="place" v="island" />
		<tag k="ssr:stedsnr" v="798811" />
	</node>
	<node lat="61.776182303454156" lon="4.911314986294138" id="-46555">
		<tag k="fixme" v="multiple name tags, choose one and add the other to alt_name" />
		<tag k="name" v="Sundsøyna;Store Sundsøyna" />
		<tag k="place" v="island" />
		<tag k="ssr:stedsnr" v="798799" />
	</node>
	<node lat="61.8915666689406" lon="5.311866675165412" id="-46561">
		<tag k="name" v="Kråkevågneset" />
		<tag k="natural" v="cape" />
		<tag k="ssr:stedsnr" v="799195" />
	</node>
	<node lat="61.908424996841276" lon="4.9434555526318515" id="-46581">
		<tag k="name" v="Smellen" />
		<tag k="natural" v="cape" />
		<tag k="ssr:stedsnr" v="799985" />
	</node>
	<node lat="61.80105833651893" lon="5.051341664452189" id="-46582">
		<tag k="name" v="Storevikneset" />
		<tag k="natural" v="cape" />
		<tag k="ssr:stedsnr" v="799842" />
	</node>
	<node lat="61.7226638856097" lon="5.001333333295323" id="-46584">
		<tag k="name" v="Pollen" />
		<tag k="natural" v="bay" />
		<tag k="ssr:stedsnr" v="918493" />
	</node>
	<node lat="61.735778705834484" lon="5.10811107930347" id="-46590">
		<tag k="name" v="Notaberget" />
		<tag k="natural" v="cape" />
		<tag k="ssr:stedsnr" v="918838" />
	</node>
	<node lat="61.797750002333565" lon="4.869380557736946" id="-46593">
		<tag k="name" v="Kvernhusvika" />
		<tag k="natural" v="bay" />
		<tag k="ssr:stedsnr" v="815721" />
	</node>
	<node lat="61.82866388538198" lon="5.1654055533755345" id="-46594">
		<tag k="alt_name" v="Bådehaugen" />
		<tag k="name" v="Båtnehaugen" />
		<tag k="natural" v="cape" />
		<tag k="ssr:stedsnr" v="920133" />
	</node>
	<node lat="61.88467543800935" lon="5.327949540323803" id="-46598">
		<tag k="name" v="Litleøyna" />
		<tag k="natural" v="cape" />
		<tag k="ssr:stedsnr" v="920178" />
	</node>
	<node lat="61.786924999862386" lon="4.798358336551246" id="-46603">
		<tag k="name" v="Muleholmane" />
		<tag k="place" v="islet" />
		<tag k="ssr:stedsnr" v="920833" />
	</node>
	<node lat="61.847080558292916" lon="5.37526389010506" id="-46609">
		<tag k="name" v="Bortnepollen" />
		<tag k="natural" v="bay" />
		<tag k="ssr:stedsnr" v="920140" />
	</node>
	<node lat="61.77527222311386" lon="4.959780561948833" id="-46614">
		<tag k="name" v="Vågeneset" />
		<tag k="natural" v="cape" />
		<tag k="ssr:stedsnr" v="920874" />
	</node>
	<node lat="61.761897223655694" lon="4.833422216325395" id="-46615">
		<tag k="name" v="Håøyna" />
		<tag k="place" v="island" />
		<tag k="ssr:stedsnr" v="920877" />
	</node>
	<node lat="61.78323055148392" lon="4.81598055645778" id="-46634">
		<tag k="name" v="Inste Langenesvika" />
		<tag k="natural" v="bay" />
		<tag k="ssr:stedsnr" v="839508" />
	</node>
	<node lat="61.81818333741703" lon="5.207930546031964" id="-46635">
		<tag k="name" v="Hilleneset" />
		<tag k="natural" v="cape" />
		<tag k="ssr:stedsnr" v="839525" />
	</node>
	<node lat="61.82157777669272" lon="5.279525000585999" id="-46639">
		<tag k="name" v="Brattestranda" />
		<tag k="natural" v="beach" />
		<tag k="ssr:stedsnr" v="839587" />
	</node>
	<node lat="61.87268333100729" lon="5.1924750074751875" id="-46640">
		<tag k="name" v="Saltkjerneset" />
		<tag k="natural" v="cape" />
		<tag k="ssr:stedsnr" v="839605" />
	</node>
	<node lat="61.8746666690185" lon="5.15586666817178" id="-46642">
		<tag k="name" v="Mehammeren" />
		<tag k="natural" v="cape" />
		<tag k="ssr:stedsnr" v="839610" />
	</node>
	<node lat="61.87534166394356" lon="5.31935556306523" id="-46643">
		<tag k="name" v="Grummeholmen" />
		<tag k="place" v="islet" />
		<tag k="ssr:stedsnr" v="839611" />
	</node>
	<node lat="61.72149722172042" lon="5.196155556000442" id="-46647">
		<tag k="name" v="Myklebustvika" />
		<tag k="natural" v="bay" />
		<tag k="ssr:stedsnr" v="839909" />
	</node>
	<node lat="61.75991944463946" lon="5.051388887597229" id="-46649">
		<tag k="alt_name" v="Guleskjær" />
		<tag k="fixme" v="consider seamark:type=rock or natural=shoal" />
		<tag k="name" v="Guleskjeret" />
		<tag k="place" v="islet" />
		<tag k="ssr:stedsnr" v="839918" />
	</node>
	<node lat="61.73673889080364" lon="4.988238895800221" id="-46651">
		<tag k="name" v="Frivika" />
		<tag k="natural" v="bay" />
		<tag k="ssr:stedsnr" v="839937" />
	</node>
	<node lat="61.80148888505438" lon="4.913650005245902" id="-46659">
		<tag k="name" v="Magnhildvika" />
		<tag k="natural" v="bay" />
		<tag k="ssr:stedsnr" v="840038" />
	</node>
	<node lat="61.72216388657212" lon="5.215524995000857" id="-46666">
		<tag k="name" v="Skjeljeneset" />
		<tag k="natural" v="cape" />
		<tag k="ssr:stedsnr" v="842696" />
	</node>
	<node lat="61.82454444667781" lon="5.302575004973303" id="-46667">
		<tag k="name" v="Flatefjøra" />
		<tag k="natural" v="cape" />
		<tag k="ssr:stedsnr" v="843031" />
	</node>
	<node lat="61.88934721985267" lon="5.2881583352270125" id="-46668">
		<tag k="name" v="Hilleren" />
		<tag k="natural" v="cape" />
		<tag k="ssr:stedsnr" v="842776" />
	</node>
	<node lat="61.770511110936944" lon="4.938300002853673" id="-46669">
		<tag k="alt_name" v="Smørhamnsundet" />
		<tag k="name" v="Smørhamnssundet" />
		<tag k="natural" v="strait" />
		<tag k="ssr:stedsnr" v="842788" />
	</node>
	<node lat="61.75525277733546" lon="5.07159722820822" id="-46670">
		<tag k="name" v="Løkane" />
		<tag k="natural" v="bay" />
		<tag k="ssr:stedsnr" v="842796" />
	</node>
	<node lat="61.752811108589555" lon="5.089925007718941" id="-46671">
		<tag k="name" v="Myrhjellflua" />
		<tag k="natural" v="shoal" />
		<tag k="place" v="locality" />
		<tag k="ssr:stedsnr" v="842798" />
	</node>
	<node lat="61.87328055204951" lon="5.212477780866713" id="-46672">
		<tag k="name" v="Skaten" />
		<tag k="natural" v="shoal" />
		<tag k="place" v="locality" />
		<tag k="ssr:stedsnr" v="842934" />
	</node>
	<node lat="61.86643055680334" lon="5.260333335468367" id="-46673">
		<tag k="name" v="Hornelsflua" />
		<tag k="natural" v="shoal" />
		<tag k="place" v="locality" />
		<tag k="ssr:stedsnr" v="842935" />
	</node>
	<node lat="61.76965555112155" lon="4.845847221494264" id="-46674">
		<tag k="name" v="Storevågane" />
		<tag k="natural" v="bay" />
		<tag k="ssr:stedsnr" v="843986" />
	</node>
	<node lat="61.77145277872579" lon="4.821311118763229" id="-46675">
		<tag k="name" v="Haleflua" />
		<tag k="natural" v="shoal" />
		<tag k="place" v="locality" />
		<tag k="ssr:stedsnr" v="843878" />
	</node>
	<node lat="61.7452249981993" lon="4.545113895556624" id="-46676">
		<tag k="alt_name" v="Grunnskallen, s" />
		<tag k="name" v="Søre Grunnskallen" />
		<tag k="natural" v="shoal" />
		<tag k="place" v="locality" />
		<tag k="ssr:stedsnr" v="858395" />
	</node>
	<node lat="61.71829444880235" lon="4.7695027753184895" id="-46678">
		<tag k="name" v="Djupsundskubbane" />
		<tag k="natural" v="shoal" />
		<tag k="place" v="locality" />
		<tag k="ssr:stedsnr" v="858482" />
	</node>
	<node lat="61.73255555258895" lon="4.9848305642212" id="-46679">
		<tag k="name" v="Gardsvika" />
		<tag k="natural" v="bay" />
		<tag k="ssr:stedsnr" v="858486" />
	</node>
	<node lat="61.87304722436178" lon="4.874744442175138" id="-46688">
		<tag k="alt_name" v="Neset, in" />
		<tag k="name" v="Indre Neset" />
		<tag k="natural" v="cape" />
		<tag k="ssr:stedsnr" v="859860" />
	</node>
	<node lat="61.85095278127233" lon="5.2523861191951795" id="-46695">
		<tag k="name" v="Lavika" />
		<tag k="natural" v="bay" />
		<tag k="ssr:stedsnr" v="860177" />
	</node>
	<node lat="61.78582707766287" lon="4.896244792338849" id="-46702">
		<tag k="name" v="Søre Olderøyna" />
		<tag k="place" v="island" />
		<tag k="ssr:stedsnr" v="860857" />
	</node>
	<node lat="61.93590833411418" lon="4.814794448892247" id="-46705">
		<tag k="name" v="Vetrungane" />
		<tag k="natural" v="shoal" />
		<tag k="place" v="locality" />
		<tag k="ssr:stedsnr" v="860981" />
	</node>
	<node lat="61.85761666392982" lon="5.751647214103221" id="-46706">
		<tag k="name" v="Breidvikneset" />
		<tag k="natural" v="cape" />
		<tag k="ssr:stedsnr" v="870516" />
	</node>
	<node lat="61.75952222516156" lon="5.184908331950843" id="-46720">
		<tag k="name" v="Setrevik" />
		<tag k="natural" v="bay" />
		<tag k="ssr:stedsnr" v="899812" />
	</node>
	<node lat="61.7624333293205" lon="5.171455557151171" id="-46721">
		<tag k="name" v="Olavikneset" />
		<tag k="natural" v="cape" />
		<tag k="ssr:stedsnr" v="899817" />
	</node>
	<node lat="61.87633055532422" lon="4.866761112998682" id="-46724">
		<tag k="alt_name" v="Økseneset;Neset, yt;Ytre Neset" />
		<tag k="name" v="Øksaneset" />
		<tag k="natural" v="cape" />
		<tag k="ssr:stedsnr" v="900012" />
	</node>
	<node lat="61.828438892016855" lon="5.6836555499575265" id="-46731">
		<tag k="name" v="Andersvika" />
		<tag k="natural" v="bay" />
		<tag k="ssr:stedsnr" v="900253" />
	</node>
	<node lat="61.77033610949947" lon="4.8181861122484015" id="-46735">
		<tag k="name" v="Halen" />
		<tag k="natural" v="cape" />
		<tag k="ssr:stedsnr" v="900512" />
	</node>
	<node lat="61.778783329716894" lon="4.834238884841559" id="-46736">
		<tag k="name" v="Skaneset" />
		<tag k="natural" v="cape" />
		<tag k="ssr:stedsnr" v="900514" />
	</node>
	<node lat="61.876113885014526" lon="5.3177972227717945" id="-46737">
		<tag k="name" v="Kjeltringsleia" />
		<tag k="natural" v="strait" />
		<tag k="ssr:stedsnr" v="900600" />
	</node>
	<node lat="61.86883055829645" lon="5.2856083414895645" id="-46738">
		<tag k="name" v="Haukedalsstranda" />
		<tag k="natural" v="beach" />
		<tag k="ssr:stedsnr" v="900603" />
	</node>
	<node lat="61.874327778188274" lon="5.2490333307715025" id="-46739">
		<tag k="fixme" v="consider seamark:type=rock or natural=shoal" />
		<tag k="name" v="Taddeskjeret" />
		<tag k="place" v="islet" />
		<tag k="ssr:stedsnr" v="900606" />
	</node>
	<node lat="61.89115278042189" lon="5.294766667942564" id="-46741">
		<tag k="alt_name" v="Flatefjærneset" />
		<tag k="name" v="Flatfjerneset" />
		<tag k="natural" v="cape" />
		<tag k="ssr:stedsnr" v="900608" />
	</node>
	<node lat="61.84365277651511" lon="5.793858339348248" id="-46747">
		<tag k="name" v="Klubbevika" />
		<tag k="natural" v="bay" />
		<tag k="ssr:stedsnr" v="900764" />
	</node>
	<node lat="61.800597218790514" lon="4.901347230471881" id="-46755">
		<tag k="fixme" v="consider seamark:type=rock or natural=shoal" />
		<tag k="name" v="Svarteskjera" />
		<tag k="place" v="islet" />
		<tag k="ssr:stedsnr" v="903623" />
	</node>
	<node lat="61.79965210741262" lon="4.898528986998988" id="-46756">
		<tag k="name" v="Svarteskjertaren" />
		<tag k="natural" v="shoal" />
		<tag k="place" v="locality" />
		<tag k="ssr:stedsnr" v="903639" />
	</node>
	<node lat="61.79685555365566" lon="4.909444436295512" id="-46757">
		<tag k="fixme" v="consider seamark:type=rock or natural=shoal" />
		<tag k="name" v="Guleskjeret" />
		<tag k="place" v="islet" />
		<tag k="ssr:stedsnr" v="903649" />
	</node>
	<node lat="61.8297583307653" lon="4.814380555855862" id="-46758">
		<tag k="name" v="Rabbefluene" />
		<tag k="natural" v="shoal" />
		<tag k="place" v="locality" />
		<tag k="ssr:stedsnr" v="903910" />
	</node>
	<node lat="61.83313333797773" lon="4.983233340678299" id="-46759">
		<tag k="name" v="Fløholmen" />
		<tag k="natural" v="shoal" />
		<tag k="place" v="locality" />
		<tag k="ssr:stedsnr" v="903973" />
	</node>
	<node lat="61.801397221035195" lon="4.645019436158392" id="-46760">
		<tag k="name" v="Bataldgrunnen" />
		<tag k="natural" v="shoal" />
		<tag k="place" v="locality" />
		<tag k="ssr:stedsnr" v="903901" />
	</node>
	<node lat="61.76859166688886" lon="5.190444437822108" id="-46764">
		<tag k="name" v="Langeneset" />
		<tag k="natural" v="cape" />
		<tag k="ssr:stedsnr" v="920103" />
	</node>
	<node lat="61.846748673088385" lon="5.326321387489442" id="-46766">
		<tag k="name" v="Bortneskora" />
		<tag k="natural" v="cape" />
		<tag k="ssr:stedsnr" v="920142" />
	</node>
	<node lat="61.85098333763241" lon="5.344180549196865" id="-46767">
		<tag k="name" v="Mjånes" />
		<tag k="natural" v="cape" />
		<tag k="ssr:stedsnr" v="920152" />
	</node>
	<node lat="61.845641666436784" lon="5.726000008719921" id="-46769">
		<tag k="name" v="Ladberget" />
		<tag k="natural" v="cape" />
		<tag k="ssr:stedsnr" v="920344" />
	</node>
	<node lat="61.825711109731536" lon="4.769738883501823" id="-46773">
		<tag k="name" v="Håskallen" />
		<tag k="natural" v="shoal" />
		<tag k="place" v="locality" />
		<tag k="ssr:stedsnr" v="920911" />
	</node>
	<node lat="61.79699722516351" lon="4.884144451939816" id="-46775">
		<tag k="name" v="Sleneset" />
		<tag k="natural" v="cape" />
		<tag k="ssr:stedsnr" v="920840" />
	</node>
	<node lat="61.885516669232175" lon="4.910266661216001" id="-46777">
		<tag k="name" v="Vetvika" />
		<tag k="natural" v="bay" />
		<tag k="ssr:stedsnr" v="921000" />
	</node>
	<node lat="61.75968055498778" lon="4.903897217480447" id="-46779">
		<tag k="name" v="Storeflua" />
		<tag k="natural" v="shoal" />
		<tag k="place" v="locality" />
		<tag k="ssr:stedsnr" v="936602" />
	</node>
	<node lat="61.780122223558934" lon="4.905063895073709" id="-46780">
		<tag k="alt_name" v="Nordre Steinholmen" />
		<tag k="name" v="Steinholmen" />
		<tag k="place" v="islet" />
		<tag k="ssr:stedsnr" v="936694" />
	</node>
	<node lat="61.9115638933452" lon="5.562638888577867" id="-46781">
		<tag k="bay" v="fjord" />
		<tag k="name" v="Davikfjorden" />
		<tag k="natural" v="bay" />
		<tag k="ssr:stedsnr" v="949810" />
	</node>
	<node lat="61.82639444020814" lon="5.677072229250507" id="-46782">
		<tag k="name" v="Sigdestadholmen" />
		<tag k="place" v="islet" />
		<tag k="ssr:stedsnr" v="960196" />
	</node>
	<node lat="61.785727777444926" lon="4.956141666808445" id="-46790">
		<tag k="name" v="Buktaneset" />
		<tag k="natural" v="cape" />
		<tag k="ssr:stedsnr" v="960439" />
	</node>
	<node lat="61.905563892185846" lon="5.527036110550651" id="-46793">
		<tag k="name" v="Stomnaneset" />
		<tag k="natural" v="cape" />
		<tag k="ssr:stedsnr" v="960585" />
	</node>
	<node lat="61.85715555480038" lon="5.313219452978974" id="-46796">
		<tag k="name" v="Porsneset" />
		<tag k="natural" v="cape" />
		<tag k="ssr:stedsnr" v="960596" />
	</node>
	<node lat="61.84256666605386" lon="5.765930548955614" id="-46799">
		<tag k="name" v="Skutevika" />
		<tag k="natural" v="bay" />
		<tag k="ssr:stedsnr" v="960742" />
	</node>
	<node lat="61.70991666917265" lon="4.974891669529117" id="-46805">
		<tag k="name" v="Dyrevomma" />
		<tag k="natural" v="cape" />
		<tag k="ssr:stedsnr" v="960987" />
	</node>
	<node lat="61.84937500390599" lon="4.827252768580774" id="-46810">
		<tag k="name" v="Smeisundvika" />
		<tag k="natural" v="bay" />
		<tag k="ssr:stedsnr" v="961002" />
	</node>
	<node lat="61.80033055722391" lon="4.8859305538174524" id="-46811">
		<tag k="fixme" v="consider seamark:type=rock or natural=shoal" />
		<tag k="name" v="Maltsekken" />
		<tag k="place" v="islet" />
		<tag k="ssr:stedsnr" v="961109" />
	</node>
	<node lat="61.70449722028387" lon="5.160561109749258" id="-46812">
		<tag k="name" v="Kviteneset" />
		<tag k="natural" v="cape" />
		<tag k="ssr:stedsnr" v="960893" />
	</node>
	<node lat="61.72201944717062" lon="5.175336114829796" id="-46813">
		<tag k="name" v="Ivavika" />
		<tag k="natural" v="bay" />
		<tag k="ssr:stedsnr" v="960896" />
	</node>
	<node lat="61.72273611132589" lon="5.179175009108642" id="-46814">
		<tag k="name" v="Flævika" />
		<tag k="natural" v="bay" />
		<tag k="ssr:stedsnr" v="960898" />
	</node>
	<node lat="61.790155553059314" lon="4.927794436682928" id="-46817">
		<tag k="name" v="Skutevika" />
		<tag k="natural" v="bay" />
		<tag k="ssr:stedsnr" v="961048" />
	</node>
	<node lat="61.74365555851182" lon="5.136072227673764" id="-46823">
		<tag k="name" v="Revet" />
		<tag k="natural" v="shoal" />
		<tag k="place" v="locality" />
		<tag k="ssr:stedsnr" v="963707" />
	</node>
	<node lat="61.873697222507374" lon="5.2499666695515295" id="-46824">
		<tag k="name" v="Nygårdsvika" />
		<tag k="natural" v="bay" />
		<tag k="ssr:stedsnr" v="963911" />
	</node>
	<node lat="61.833388889755206" lon="4.90274722592674" id="-46825">
		<tag k="name" v="Kyrkjeflua" />
		<tag k="natural" v="shoal" />
		<tag k="place" v="locality" />
		<tag k="ssr:stedsnr" v="964886" />
	</node>
	<node lat="61.817967315571316" lon="5.223403588035998" id="-46831">
		<tag k="alt_name" v="Inste Øyaneset" />
		<tag k="name" v="Øyaneset" />
		<tag k="natural" v="cape" />
		<tag k="ssr:stedsnr" v="10130" />
	</node>
	<node lat="61.732127781073075" lon="4.836047224514049" id="-46836">
		<tag k="name" v="Gangvadboen" />
		<tag k="natural" v="shoal" />
		<tag k="place" v="locality" />
		<tag k="ssr:stedsnr" v="8484" />
	</node>
	<node lat="61.779914886719745" lon="4.935281335605607" id="-46853">
		<tag k="name" v="Smørhamnsøyna" />
		<tag k="old_name" v="Smørhamnsøy" />
		<tag k="place" v="island" />
		<tag k="ssr:stedsnr" v="10844" />
	</node>
	<node lat="61.76704999755772" lon="4.935833327694802" id="-46854">
		<tag k="name" v="Rota" />
		<tag k="place" v="islet" />
		<tag k="ssr:stedsnr" v="10864" />
	</node>
	<node lat="61.90338888602838" lon="4.8596166666637135" id="-46856">
		<tag k="name" v="Veststeinen" />
		<tag k="place" v="island" />
		<tag k="ssr:stedsnr" v="10977" />
	</node>
	<node lat="61.90092500257182" lon="4.979644441263602" id="-46859">
		<tag k="name" v="Korsvika" />
		<tag k="natural" v="bay" />
		<tag k="ssr:stedsnr" v="33859" />
	</node>
	<node lat="61.824638887527186" lon="5.665502784281429" id="-46867">
		<tag k="name" v="Rekevika" />
		<tag k="natural" v="bay" />
		<tag k="ssr:stedsnr" v="50142" />
	</node>
	<node lat="61.84847778230867" lon="5.36871111534858" id="-46873">
		<tag k="alt_name" v="Holeneset" />
		<tag k="name" v="Holneset" />
		<tag k="natural" v="cape" />
		<tag k="ssr:stedsnr" v="50361" />
	</node>
	<node lat="61.82902778055775" lon="5.150938886199785" id="-46889">
		<tag k="name" v="Kyrkjehaugen" />
		<tag k="natural" v="cape" />
		<tag k="ssr:stedsnr" v="50587" />
	</node>
	<node lat="61.88938055160955" lon="5.547000006324464" id="-46896">
		<tag k="name" v="Sandvika" />
		<tag k="natural" v="bay" />
		<tag k="ssr:stedsnr" v="50535" />
	</node>
	<node lat="61.89132777708901" lon="5.302161120053201" id="-46901">
		<tag k="name" v="Hestevika" />
		<tag k="natural" v="bay" />
		<tag k="ssr:stedsnr" v="50558" />
	</node>
	<node lat="61.75939722390443" lon="5.192352784020074" id="-46907">
		<tag k="name" v="Kvieneset" />
		<tag k="natural" v="cape" />
		<tag k="ssr:stedsnr" v="50734" />
	</node>
	<node lat="61.77279166849339" lon="5.166363886292108" id="-46908">
		<tag k="name" v="Øygardsvika" />
		<tag k="natural" v="bay" />
		<tag k="ssr:stedsnr" v="50753" />
	</node>
	<node lat="61.73907499750279" lon="5.116372219960381" id="-46914">
		<tag k="name" v="Hellevika" />
		<tag k="natural" v="bay" />
		<tag k="ssr:stedsnr" v="50852" />
	</node>
	<node lat="61.709455554429354" lon="5.115761117067981" id="-46916">
		<tag k="name" v="Neset" />
		<tag k="natural" v="cape" />
		<tag k="ssr:stedsnr" v="50862" />
	</node>
	<node lat="61.81345555558792" lon="4.959322226873379" id="-46923">
		<tag k="name" v="Rylandholmen" />
		<tag k="place" v="islet" />
		<tag k="ssr:stedsnr" v="51426" />
	</node>
	<node lat="61.767033329139494" lon="4.902688893920087" id="-46928">
		<tag k="fixme" v="consider seamark:type=rock or natural=shoal" />
		<tag k="name" v="Leiskjera" />
		<tag k="place" v="islet" />
		<tag k="ssr:stedsnr" v="54738" />
	</node>
	<node lat="61.740836113051216" lon="5.105983340937899" id="-46929">
		<tag k="name" v="Ramtangen" />
		<tag k="natural" v="cape" />
		<tag k="ssr:stedsnr" v="69808" />
	</node>
	<node lat="61.78227222503955" lon="4.996788879511741" id="-46944">
		<tag k="name" v="Håmanneset" />
		<tag k="natural" v="cape" />
		<tag k="ssr:stedsnr" v="70832" />
	</node>
	<node lat="61.76174167053304" lon="5.22025555752556" id="-46947">
		<tag k="name" v="Steinvika" />
		<tag k="natural" v="bay" />
		<tag k="ssr:stedsnr" v="71062" />
	</node>
	<node lat="61.91274166920975" lon="4.981794448240079" id="-46965">
		<tag k="bay" v="fjord" />
		<tag k="name" v="Fåfjorden" />
		<tag k="natural" v="bay" />
		<tag k="ssr:stedsnr" v="71996" />
	</node>
	<node lat="61.88949999669109" lon="5.651338887626694" id="-46967">
		<tag k="name" v="Mortevika" />
		<tag k="natural" v="bay" />
		<tag k="ssr:stedsnr" v="100794" />
	</node>
	<node lat="61.769325002686045" lon="5.1954666750382685" id="-46972">
		<tag k="name" v="Ramsvikneset" />
		<tag k="natural" v="cape" />
		<tag k="ssr:stedsnr" v="110816" />
	</node>
	<node lat="61.75399722538794" lon="5.15098333179505" id="-46973">
		<tag k="name" v="Kvia" />
		<tag k="natural" v="beach" />
		<tag k="ssr:stedsnr" v="110818" />
	</node>
	<node lat="61.838274747072184" lon="4.958314634132304" id="-46981">
		<tag k="name" v="Holmen" />
		<tag k="place" v="islet" />
		<tag k="ssr:stedsnr" v="111251" />
	</node>
	<node lat="61.83819166424614" lon="4.989349994778083" id="-46983">
		<tag k="name" v="Struen" />
		<tag k="natural" v="cape" />
		<tag k="ssr:stedsnr" v="111256" />
	</node>
	<node lat="61.75864167001376" lon="4.830888879108675" id="-46987">
		<tag k="name" v="Ausa" />
		<tag k="natural" v="cape" />
		<tag k="ssr:stedsnr" v="111450" />
	</node>
	<node lat="61.74467777712244" lon="4.812969452251064" id="-46988">
		<tag k="fixme" v="consider seamark:type=rock or natural=shoal" />
		<tag k="name" v="Simosteinen" />
		<tag k="place" v="islet" />
		<tag k="ssr:stedsnr" v="111462" />
	</node>
	<node lat="61.836677773629866" lon="5.277491673696228" id="-46990">
		<tag k="name" v="Søre Marøyneset" />
		<tag k="natural" v="cape" />
		<tag k="ssr:stedsnr" v="111548" />
	</node>
	<node lat="61.89394999840998" lon="5.533161115078392" id="-46993">
		<tag k="name" v="Haugesanden" />
		<tag k="natural" v="beach" />
		<tag k="ssr:stedsnr" v="111563" />
	</node>
	<node lat="61.73916388679362" lon="5.105944450256202" id="-46998">
		<tag k="alt_name" v="Hatlevik" />
		<tag k="name" v="Hatlevika" />
		<tag k="natural" v="bay" />
		<tag k="ssr:stedsnr" v="111874" />
	</node>
	<node lat="61.755619445204786" lon="5.065994442507724" id="-47004">
		<tag k="name" v="Omsneset" />
		<tag k="natural" v="cape" />
		<tag k="ssr:stedsnr" v="111928" />
	</node>
	<node lat="61.88533333323965" lon="5.69908610756304" id="-47009">
		<tag k="name" v="Haugeneset" />
		<tag k="natural" v="cape" />
		<tag k="ssr:stedsnr" v="111767" />
	</node>
	<node lat="61.72840555728931" lon="5.148441663332236" id="-47012">
		<tag k="name" v="Litleneset" />
		<tag k="natural" v="cape" />
		<tag k="ssr:stedsnr" v="111858" />
	</node>
	<node lat="61.770405556813245" lon="5.096452786582565" id="-47029">
		<tag k="name" v="Trælvikneset" />
		<tag k="natural" v="cape" />
		<tag k="ssr:stedsnr" v="113147" />
	</node>
	<node lat="61.792350003723264" lon="4.94996111940599" id="-47030">
		<tag k="name" v="Vågane" />
		<tag k="natural" v="bay" />
		<tag k="ssr:stedsnr" v="113479" />
	</node>
	<node lat="61.837825002820935" lon="4.974041674055549" id="-47031">
		<tag k="name" v="Haugsvika" />
		<tag k="natural" v="bay" />
		<tag k="ssr:stedsnr" v="113755" />
	</node>
	<node lat="61.905153005056626" lon="5.378978866416349" id="-47033">
		<tag k="name" v="Årvikneset" />
		<tag k="natural" v="cape" />
		<tag k="ssr:stedsnr" v="114639" />
	</node>
	<node lat="61.81759166398958" lon="4.897938883886824" id="-47034">
		<tag k="name" v="Fausken" />
		<tag k="natural" v="shoal" />
		<tag k="place" v="locality" />
		<tag k="ssr:stedsnr" v="114663" />
	</node>
	<node lat="61.90326111235361" lon="5.0006500087866135" id="-47035">
		<tag k="name" v="Ribba" />
		<tag k="natural" v="shoal" />
		<tag k="place" v="locality" />
		<tag k="ssr:stedsnr" v="114428" />
	</node>
	<node lat="61.714077779652214" lon="4.787569449085386" id="-47036">
		<tag k="name" v="Torsgrunnen" />
		<tag k="natural" v="shoal" />
		<tag k="place" v="locality" />
		<tag k="ssr:stedsnr" v="114502" />
	</node>
	<node lat="61.73626944701112" lon="4.828230546060367" id="-47037">
		<tag k="name" v="Litle Gåsøyna" />
		<tag k="place" v="islet" />
		<tag k="ssr:stedsnr" v="114506" />
	</node>
	<node lat="61.73580833490503" lon="4.779119443734066" id="-47038">
		<tag k="alt_name" v="Raudskjeret" />
		<tag k="fixme" v="consider seamark:type=rock or natural=shoal" />
		<tag k="name" v="Store Raudskjeret" />
		<tag k="place" v="islet" />
		<tag k="ssr:stedsnr" v="114510" />
	</node>
	<node lat="61.818191667821964" lon="4.906505563616489" id="-47039">
		<tag k="name" v="Novesundet" />
		<tag k="natural" v="strait" />
		<tag k="ssr:stedsnr" v="114699" />
	</node>
	<node lat="61.89974167046622" lon="4.789216663060252" id="-47040">
		<tag k="name" v="Bataldfluene" />
		<tag k="natural" v="shoal" />
		<tag k="place" v="locality" />
		<tag k="ssr:stedsnr" v="114999" />
	</node>
	<node lat="61.85294722587132" lon="4.813572215545321" id="-47041">
		<tag k="fixme" v="consider seamark:type=rock or natural=shoal" />
		<tag k="name" v="Midtskjeret" />
		<tag k="place" v="islet" />
		<tag k="ssr:stedsnr" v="114919" />
	</node>
	<node lat="61.84317778199687" lon="4.867961108280211" id="-47043">
		<tag k="name" v="Vikaflua" />
		<tag k="natural" v="shoal" />
		<tag k="place" v="locality" />
		<tag k="ssr:stedsnr" v="114927" />
	</node>
	<node lat="61.83565833023965" lon="4.929199996188932" id="-47044">
		<tag k="name" v="Årevikneset" />
		<tag k="natural" v="cape" />
		<tag k="ssr:stedsnr" v="114934" />
	</node>
	<node lat="61.77668889213258" lon="4.903016665320564" id="-47046">
		<tag k="fixme" v="consider seamark:type=rock or natural=shoal" />
		<tag k="name" v="Skjeljeskjeret" />
		<tag k="place" v="islet" />
		<tag k="ssr:stedsnr" v="120728" />
	</node>
	<node lat="61.754808333202014" lon="5.151302768441503" id="-47049">
		<tag k="name" v="Kvieneset" />
		<tag k="natural" v="cape" />
		<tag k="ssr:stedsnr" v="131065" />
	</node>
	<node lat="61.76343055240762" lon="5.092366658759771" id="-47066">
		<tag k="name" v="Ospeneset" />
		<tag k="natural" v="cape" />
		<tag k="ssr:stedsnr" v="131901" />
	</node>
	<node lat="61.79341944832201" lon="5.124822223630163" id="-47069">
		<tag k="name" v="Fureneset" />
		<tag k="natural" v="cape" />
		<tag k="ssr:stedsnr" v="131823" />
	</node>
	<node lat="61.75804443595137" lon="5.088033561939567" id="-47077">
		<tag k="bay" v="fjord" />
		<tag k="name" v="Gulen" />
		<tag k="natural" v="bay" />
		<tag k="ssr:stedsnr" v="146319" />
	</node>
	<node lat="61.897319443227865" lon="5.5794944529551325" id="-47078">
		<tag k="name" v="Stranda" />
		<tag k="natural" v="beach" />
		<tag k="ssr:stedsnr" v="160800" />
	</node>
	<node lat="61.90462778192528" lon="5.535505551771236" id="-47079">
		<tag k="name" v="Einestineset" />
		<tag k="natural" v="cape" />
		<tag k="ssr:stedsnr" v="160921" />
	</node>
	<node lat="61.80035555579356" lon="4.821152786864446" id="-47087">
		<tag k="name" v="Ytste Kupa" />
		<tag k="natural" v="bay" />
		<tag k="ssr:stedsnr" v="171043" />
	</node>
	<node lat="61.82738055692086" lon="5.6830666737978905" id="-47089">
		<tag k="name" v="Mortekråna" />
		<tag k="natural" v="bay" />
		<tag k="ssr:stedsnr" v="171190" />
	</node>
	<node lat="61.75339444515785" lon="4.8669777808400765" id="-47101">
		<tag k="name" v="Litleneset" />
		<tag k="natural" v="cape" />
		<tag k="ssr:stedsnr" v="171389" />
	</node>
	<node lat="61.752558332582616" lon="4.864813886772723" id="-47102">
		<tag k="name" v="Storeneset" />
		<tag k="natural" v="cape" />
		<tag k="ssr:stedsnr" v="171392" />
	</node>
	<node lat="61.752538893109374" lon="4.8554444381217055" id="-47103">
		<tag k="name" v="Lisetvika" />
		<tag k="natural" v="bay" />
		<tag k="ssr:stedsnr" v="171394" />
	</node>
	<node lat="61.76278888990192" lon="4.8833777707369" id="-47104">
		<tag k="name" v="Høgholmen" />
		<tag k="place" v="islet" />
		<tag k="ssr:stedsnr" v="171399" />
	</node>
	<node lat="61.88992222436979" lon="5.346486109639756" id="-47112">
		<tag k="name" v="Vågsstranda" />
		<tag k="natural" v="beach" />
		<tag k="ssr:stedsnr" v="171655" />
	</node>
	<node lat="61.84309444751215" lon="5.252911102392795" id="-47113">
		<tag k="name" v="Rikeneset" />
		<tag k="natural" v="cape" />
		<tag k="ssr:stedsnr" v="171572" />
	</node>
	<node lat="61.875147221645314" lon="5.219244439345659" id="-47114">
		<tag k="fixme" v="consider seamark:type=rock or natural=shoal" />
		<tag k="name" v="Hamnaskjeret" />
		<tag k="place" v="islet" />
		<tag k="ssr:stedsnr" v="171579" />
	</node>
	<node lat="61.7758944404886" lon="5.235102771292266" id="-47118">
		<tag k="name" v="Litle Bryneneset" />
		<tag k="natural" v="cape" />
		<tag k="ssr:stedsnr" v="171786" />
	</node>
	<node lat="61.75754166635204" lon="5.037852778702115" id="-47120">
		<tag k="name" v="Litlesommaren" />
		<tag k="natural" v="beach" />
		<tag k="ssr:stedsnr" v="171930" />
	</node>
	<node lat="61.79170833235325" lon="4.9126083249222265" id="-47124">
		<tag k="name" v="Avlaupet" />
		<tag k="place" v="islet" />
		<tag k="ssr:stedsnr" v="172033" />
	</node>
	<node lat="61.751780558122555" lon="5.147963890668918" id="-47125">
		<tag k="name" v="Ternøysundet" />
		<tag k="natural" v="strait" />
		<tag k="ssr:stedsnr" v="171801" />
	</node>
	<node lat="61.7372833359477" lon="5.165230553892108" id="-47127">
		<tag k="name" v="Furenesvågen" />
		<tag k="natural" v="bay" />
		<tag k="ssr:stedsnr" v="171885" />
	</node>
	<node lat="61.71519166952828" lon="4.971152774609" id="-47139">
		<tag k="name" v="Tarevika" />
		<tag k="natural" v="bay" />
		<tag k="ssr:stedsnr" v="171991" />
	</node>
	<node lat="61.7767000010798" lon="4.957280546247752" id="-47147">
		<tag k="name" v="Benken" />
		<tag k="natural" v="cape" />
		<tag k="ssr:stedsnr" v="174588" />
	</node>
	<node lat="61.89063611149832" lon="4.84623611279179" id="-47150">
		<tag k="name" v="Breifluene" />
		<tag k="natural" v="shoal" />
		<tag k="place" v="locality" />
		<tag k="ssr:stedsnr" v="174873" />
	</node>
	<node lat="61.73188888895376" lon="4.7850000012077505" id="-47151">
		<tag k="name" v="Brørne" />
		<tag k="natural" v="shoal" />
		<tag k="place" v="locality" />
		<tag k="ssr:stedsnr" v="175484" />
	</node>
	<node lat="61.79827222096252" lon="4.916872213637445" id="-47152">
		<tag k="name" v="Buaholmen" />
		<tag k="place" v="islet" />
		<tag k="ssr:stedsnr" v="175657" />
	</node>
	<node lat="61.7996861111797" lon="4.9151083244819445" id="-47153">
		<tag k="name" v="Marineset" />
		<tag k="natural" v="cape" />
		<tag k="ssr:stedsnr" v="175661" />
	</node>
	<node lat="61.81361388548188" lon="4.888113896138582" id="-47154">
		<tag k="name" v="Langebåen" />
		<tag k="natural" v="shoal" />
		<tag k="place" v="locality" />
		<tag k="ssr:stedsnr" v="175641" />
	</node>
	<node lat="61.79723661197943" lon="4.914378567097074" id="-47156">
		<tag k="fixme" v="consider seamark:type=rock or natural=shoal" />
		<tag k="name" v="Kjerpesetskjera" />
		<tag k="place" v="islet" />
		<tag k="ssr:stedsnr" v="175645" />
	</node>
	<node lat="61.80238888755597" lon="4.806008339035808" id="-47159">
		<tag k="fixme" v="consider seamark:type=rock or natural=shoal" />
		<tag k="name" v="Hovmannsskjeret" />
		<tag k="place" v="islet" />
		<tag k="ssr:stedsnr" v="175887" />
	</node>
	<node lat="61.82741110741212" lon="4.746213889833682" id="-47160">
		<tag k="name" v="Nordre Håskallen" />
		<tag k="natural" v="shoal" />
		<tag k="place" v="locality" />
		<tag k="ssr:stedsnr" v="175893" />
	</node>
	<node lat="61.840994769149106" lon="5.282784290524002" id="-47163">
		<tag k="name" v="Marøyna" />
		<tag k="place" v="island" />
		<tag k="ssr:stedsnr" v="192160" />
	</node>
	<node lat="61.76264999816215" lon="5.162747231356211" id="-47169">
		<tag k="name" v="Storeholmen" />
		<tag k="place" v="islet" />
		<tag k="ssr:stedsnr" v="192098" />
	</node>
	<node lat="61.81519444089763" lon="5.207044452834082" id="-47174">
		<tag k="name" v="Hennøyna" />
		<tag k="place" v="island" />
		<tag k="ssr:stedsnr" v="192134" />
	</node>
	<node lat="61.889347225587855" lon="5.316516662693469" id="-47182">
		<tag k="name" v="Kråkevågen" />
		<tag k="natural" v="bay" />
		<tag k="ssr:stedsnr" v="192224" />
	</node>
	<node lat="61.905233336263606" lon="5.520116661832351" id="-47195">
		<tag k="name" v="Uglestranda" />
		<tag k="natural" v="beach" />
		<tag k="ssr:stedsnr" v="192443" />
	</node>
	<node lat="61.806191666077616" lon="4.909927771279692" id="-47202">
		<tag k="name" v="Bremnes" />
		<tag k="natural" v="cape" />
		<tag k="ssr:stedsnr" v="192848" />
	</node>
	<node lat="61.832688892634415" lon="5.218608341094362" id="-47206">
		<tag k="name" v="Klubben" />
		<tag k="natural" v="cape" />
		<tag k="ssr:stedsnr" v="192820" />
	</node>
	<node lat="61.76353889334718" lon="4.764477775864262" id="-47208">
		<tag k="fixme" v="consider seamark:type=rock or natural=shoal" />
		<tag k="name" v="Ytsteskjeret" />
		<tag k="place" v="islet" />
		<tag k="ssr:stedsnr" v="192876" />
	</node>
	<node lat="61.812702780254995" lon="4.858438883207919" id="-47220">
		<tag k="name" v="Nesjeryggen" />
		<tag k="natural" v="shoal" />
		<tag k="place" v="locality" />
		<tag k="ssr:stedsnr" v="208745" />
	</node>
	<node lat="61.89311388645876" lon="5.553969435654157" id="-47221">
		<tag k="name" v="Davika" />
		<tag k="natural" v="bay" />
		<tag k="ssr:stedsnr" v="221797" />
	</node>
	<node lat="61.896780558399854" lon="4.993277774253843" id="-47222">
		<tag k="alt_name" v="Tufteneset" />
		<tag k="name" v="Tuftenes" />
		<tag k="natural" v="cape" />
		<tag k="ssr:stedsnr" v="276889" />
	</node>
	<node lat="61.76304166957152" lon="5.237755557690373" id="-47226">
		<tag k="name" v="Kastet" />
		<tag k="natural" v="bay" />
		<tag k="ssr:stedsnr" v="292791" />
	</node>
	<node lat="61.77133888682948" lon="5.200391675130261" id="-47228">
		<tag k="alt_name" v="Romsvika" />
		<tag k="name" v="Ramsvika" />
		<tag k="natural" v="bay" />
		<tag k="ssr:stedsnr" v="292802" />
	</node>
	<node lat="61.76833055901496" lon="5.095441657112797" id="-47229">
		<tag k="alt_name" v="Trælvik" />
		<tag k="name" v="Trælvika" />
		<tag k="natural" v="bay" />
		<tag k="ssr:stedsnr" v="292817" />
	</node>
	<node lat="61.81225832915242" lon="5.648594441952817" id="-47231">
		<tag k="name" v="Øykjevika" />
		<tag k="natural" v="bay" />
		<tag k="ssr:stedsnr" v="292114" />
	</node>
	<node lat="61.83710515358963" lon="5.25771416152093" id="-47239">
		<tag k="loc_name" v="Hælkråna" />
		<tag k="name" v="Hælkråa" />
		<tag k="natural" v="bay" />
		<tag k="ssr:stedsnr" v="292521" />
	</node>
	<node lat="61.85192778192785" lon="5.2702666588482545" id="-47241">
		<tag k="alt_name" v="Marøyfjorden" />
		<tag k="bay" v="fjord" />
		<tag k="name" v="Hornelsfjorden" />
		<tag k="natural" v="bay" />
		<tag k="ssr:stedsnr" v="292545" />
	</node>
	<node lat="61.91373611477266" lon="5.410241672457648" id="-47244">
		<tag k="name" v="Busta" />
		<tag k="natural" v="beach" />
		<tag k="ssr:stedsnr" v="292598" />
	</node>
	<node lat="61.819886111089566" lon="4.910402781973764" id="-47252">
		<tag k="alt_name" v="Novene" />
		<tag k="fixme" v="consider seamark:type=rock or natural=shoal" />
		<tag k="name" v="Noveskjera" />
		<tag k="place" v="islet" />
		<tag k="ssr:stedsnr" v="293038" />
	</node>
	<node lat="61.8209472199392" lon="4.9248416585321895" id="-47253">
		<tag k="name" v="Grotnesvika" />
		<tag k="natural" v="bay" />
		<tag k="ssr:stedsnr" v="293039" />
	</node>
	<node lat="61.79494722475861" lon="4.919294437794395" id="-47256">
		<tag k="name" v="Kjerpesetholmen" />
		<tag k="place" v="islet" />
		<tag k="ssr:stedsnr" v="293057" />
	</node>
	<node lat="61.80567778210125" lon="4.831066674584054" id="-47257">
		<tag k="name" v="Kalvegjerdsneset" />
		<tag k="natural" v="cape" />
		<tag k="ssr:stedsnr" v="293066" />
	</node>
	<node lat="61.83838055478679" lon="4.97001389535969" id="-47261">
		<tag k="alt_name" v="Haugsnes" />
		<tag k="name" v="Haugsneset" />
		<tag k="natural" v="cape" />
		<tag k="ssr:stedsnr" v="293315" />
	</node>
	<node lat="61.84540833262524" lon="5.151349997365222" id="-47279">
		<tag k="name" v="Nørvika" />
		<tag k="natural" v="bay" />
		<tag k="ssr:stedsnr" v="293620" />
	</node>
	<node lat="61.843336112841776" lon="5.1624249968503895" id="-47282">
		<tag k="name" v="Hestevika" />
		<tag k="natural" v="bay" />
		<tag k="ssr:stedsnr" v="293635" />
	</node>
	<node lat="61.77726111272616" lon="5.26472500261005" id="-47287">
		<tag k="name" v="Klyveren" />
		<tag k="natural" v="cape" />
		<tag k="ssr:stedsnr" v="293771" />
	</node>
	<node lat="61.88386666286493" lon="5.710191664686706" id="-47291">
		<tag k="name" v="Uravika" />
		<tag k="natural" v="bay" />
		<tag k="ssr:stedsnr" v="293807" />
	</node>
	<node lat="61.88858610934822" lon="5.664100003353974" id="-47296">
		<tag k="name" v="Fureneset" />
		<tag k="natural" v="cape" />
		<tag k="ssr:stedsnr" v="293838" />
	</node>
	<node lat="61.818830557799394" lon="4.961616674287023" id="-47297">
		<tag k="alt_name" v="Setraneset" />
		<tag k="name" v="Setreneset" />
		<tag k="natural" v="cape" />
		<tag k="ssr:stedsnr" v="294383" />
	</node>
	<node lat="61.81667222455153" lon="5.2282805615326415" id="-47301">
		<tag k="name" v="Flua" />
		<tag k="natural" v="shoal" />
		<tag k="place" v="locality" />
		<tag k="ssr:stedsnr" v="295103" />
	</node>
	<node lat="61.7797138929463" lon="5.102902769494443" id="-47302">
		<tag k="name" v="Slåtteneset" />
		<tag k="natural" v="cape" />
		<tag k="ssr:stedsnr" v="295117" />
	</node>
	<node lat="61.76544322605383" lon="5.143855096792162" id="-47303">
		<tag k="name" v="Hessvikneset" />
		<tag k="natural" v="cape" />
		<tag k="ssr:stedsnr" v="295155" />
	</node>
	<node lat="61.79758055620732" lon="4.902699998408618" id="-47305">
		<tag k="name" v="Sjåtaren" />
		<tag k="natural" v="shoal" />
		<tag k="place" v="locality" />
		<tag k="ssr:stedsnr" v="296645" />
	</node>
	<node lat="61.774741667404165" lon="4.900733329891176" id="-47306">
		<tag k="fixme" v="consider seamark:type=rock or natural=shoal" />
		<tag k="name" v="Vollaskjeret" />
		<tag k="place" v="islet" />
		<tag k="ssr:stedsnr" v="296727" />
	</node>
	<node lat="61.80137499900836" lon="4.788763897358275" id="-47307">
		<tag k="name" v="Bataldskukkane" />
		<tag k="natural" v="shoal" />
		<tag k="place" v="locality" />
		<tag k="ssr:stedsnr" v="296893" />
	</node>
	<node lat="61.841877777000924" lon="4.845786110054014" id="-47308">
		<tag k="name" v="Vestre Løynefallet" />
		<tag k="natural" v="shoal" />
		<tag k="place" v="locality" />
		<tag k="ssr:stedsnr" v="296911" />
	</node>
	<node lat="61.86913610957203" lon="5.249152778028157" id="-47309">
		<tag k="name" v="Midtflua" />
		<tag k="natural" v="shoal" />
		<tag k="place" v="locality" />
		<tag k="ssr:stedsnr" v="296918" />
	</node>
	<node lat="61.736236114943395" lon="4.8412944371691795" id="-47315">
		<tag k="fixme" v="consider seamark:type=rock or natural=shoal" />
		<tag k="name" v="Gangvadskjeret" />
		<tag k="place" v="islet" />
		<tag k="ssr:stedsnr" v="311500" />
	</node>
	<node lat="61.741677777744854" lon="4.768852777085807" id="-47316">
		<tag k="name" v="Tobåane" />
		<tag k="natural" v="shoal" />
		<tag k="place" v="locality" />
		<tag k="ssr:stedsnr" v="311519" />
	</node>
	<node lat="61.73865555214423" lon="5.151275000160073" id="-47317">
		<tag k="name" v="Kjelkenes" />
		<tag k="natural" v="cape" />
		<tag k="ssr:stedsnr" v="311862" />
	</node>
	<node lat="61.736344446806484" lon="5.135661110814113" id="-47318">
		<tag k="name" v="Ramsvika" />
		<tag k="natural" v="bay" />
		<tag k="ssr:stedsnr" v="311864" />
	</node>
	<node lat="61.81477500221467" lon="5.096552784289596" id="-47326">
		<tag k="alt_name" v="Gottraneset" />
		<tag k="name" v="Gotraneset" />
		<tag k="natural" v="cape" />
		<tag k="ssr:stedsnr" v="313132" />
	</node>
	<node lat="61.8116388876695" lon="5.182538895821388" id="-47327">
		<tag k="name" v="Inste Bårdvikneset" />
		<tag k="natural" v="cape" />
		<tag k="ssr:stedsnr" v="313133" />
	</node>
	<node lat="61.81110277815284" lon="5.211502774800019" id="-47328">
		<tag k="name" v="Hennøysundet" />
		<tag k="natural" v="strait" />
		<tag k="ssr:stedsnr" v="313137" />
	</node>
	<node lat="61.78113695231873" lon="4.909192653823618" id="-47339">
		<tag k="name" v="Vardøyna" />
		<tag k="place" v="island" />
		<tag k="ssr:stedsnr" v="313861" />
	</node>
	<node lat="61.764745239437175" lon="4.880203841175552" id="-47341">
		<tag k="name" v="Kalvøyna" />
		<tag k="place" v="island" />
		<tag k="ssr:stedsnr" v="313869" />
	</node>
	<node lat="61.758469442192606" lon="4.760947215039388" id="-47342">
		<tag k="name" v="Løynefallet" />
		<tag k="natural" v="shoal" />
		<tag k="place" v="locality" />
		<tag k="ssr:stedsnr" v="313874" />
	</node>
	<node lat="61.76335000354425" lon="4.804463892832954" id="-47343">
		<tag k="fixme" v="consider seamark:type=rock or natural=shoal" />
		<tag k="name" v="Heimkomeskjeret" />
		<tag k="place" v="islet" />
		<tag k="ssr:stedsnr" v="313876" />
	</node>
	<node lat="61.846425002581775" lon="5.742666657761914" id="-47347">
		<tag k="name" v="Kalvneset" />
		<tag k="natural" v="cape" />
		<tag k="ssr:stedsnr" v="313858" />
	</node>
	<node lat="61.76337222076697" lon="4.931633339343849" id="-47349">
		<tag k="name" v="Fuglen" />
		<tag k="place" v="islet" />
		<tag k="ssr:stedsnr" v="313881" />
	</node>
	<node lat="61.895377774358586" lon="4.853341673934523" id="-47352">
		<tag k="fixme" v="consider seamark:type=rock or natural=shoal" />
		<tag k="name" v="Kollaren" />
		<tag k="place" v="islet" />
		<tag k="ssr:stedsnr" v="313976" />
	</node>
	<node lat="61.90710000259975" lon="4.772130563987053" id="-47353">
		<tag k="name" v="Skurken" />
		<tag k="natural" v="shoal" />
		<tag k="place" v="locality" />
		<tag k="ssr:stedsnr" v="313982" />
	</node>
	<node lat="61.704655550996534" lon="4.9790444396259135" id="-47359">
		<tag k="name" v="Bugen" />
		<tag k="natural" v="bay" />
		<tag k="ssr:stedsnr" v="353983" />
	</node>
	<node lat="61.81145277850012" lon="4.844777771585964" id="-47362">
		<tag k="name" v="Nesjesundet" />
		<tag k="natural" v="strait" />
		<tag k="ssr:stedsnr" v="353048" />
	</node>
	<node lat="61.8121083330568" lon="5.650605559870853" id="-47366">
		<tag k="name" v="Svarthammaren" />
		<tag k="natural" v="cape" />
		<tag k="ssr:stedsnr" v="353147" />
	</node>
	<node lat="61.78574444414723" lon="4.936125005415276" id="-47378">
		<tag k="name" v="Teinevika" />
		<tag k="natural" v="bay" />
		<tag k="ssr:stedsnr" v="353443" />
	</node>
	<node lat="61.76492778213378" lon="4.825316667028785" id="-47380">
		<tag k="name" v="Litle Havrøyna" />
		<tag k="place" v="islet" />
		<tag k="ssr:stedsnr" v="353489" />
	</node>
	<node lat="61.87377500279932" lon="5.228425001223541" id="-47386">
		<tag k="name" v="Kalveholmsundet" />
		<tag k="natural" v="strait" />
		<tag k="ssr:stedsnr" v="353606" />
	</node>
	<node lat="61.87763333734011" lon="5.32023054788391" id="-47388">
		<tag k="name" v="Svinevika" />
		<tag k="natural" v="bay" />
		<tag k="ssr:stedsnr" v="353608" />
	</node>
	<node lat="61.75921666447218" lon="4.888891666477476" id="-47394">
		<tag k="fixme" v="consider seamark:type=rock or natural=shoal" />
		<tag k="name" v="Langeskjera" />
		<tag k="place" v="islet" />
		<tag k="ssr:stedsnr" v="353494" />
	</node>
	<node lat="61.74608333571837" lon="4.835800000976371" id="-47395">
		<tag k="name" v="Hovdeholmane" />
		<tag k="place" v="islet" />
		<tag k="ssr:stedsnr" v="353497" />
	</node>
	<node lat="61.83653055374195" lon="5.298111111109913" id="-47398">
		<tag k="name" v="Lyrevikane" />
		<tag k="natural" v="bay" />
		<tag k="ssr:stedsnr" v="353578" />
	</node>
	<node lat="61.88275833460729" lon="5.203713880358824" id="-47399">
		<tag k="name" v="Ørnavika" />
		<tag k="natural" v="bay" />
		<tag k="ssr:stedsnr" v="353582" />
	</node>
	<node lat="61.88221666874506" lon="5.197358334308795" id="-47404">
		<tag k="name" v="Vestre Ørnavika" />
		<tag k="natural" v="bay" />
		<tag k="ssr:stedsnr" v="353595" />
	</node>
	<node lat="61.87206111464913" lon="5.311813881911161" id="-47405">
		<tag k="alt_name" v="Skjelholmen" />
		<tag k="name" v="Skjeljeholmen" />
		<tag k="natural" v="cape" />
		<tag k="ssr:stedsnr" v="353597" />
	</node>
	<node lat="61.867891667482425" lon="5.273469452328667" id="-47406">
		<tag k="name" v="Langeholmsundet" />
		<tag k="natural" v="strait" />
		<tag k="ssr:stedsnr" v="353599" />
	</node>
	<node lat="61.86939444784877" lon="5.728708329283832" id="-47410">
		<tag k="name" v="Gunnaneset" />
		<tag k="natural" v="cape" />
		<tag k="ssr:stedsnr" v="353795" />
	</node>
	<node lat="61.72166111541031" lon="5.212377776223025" id="-47413">
		<tag k="name" v="Djupevika" />
		<tag k="natural" v="bay" />
		<tag k="ssr:stedsnr" v="353883" />
	</node>
	<node lat="61.72861666713871" lon="5.218563896847251" id="-47418">
		<tag k="name" v="Sagevika" />
		<tag k="natural" v="bay" />
		<tag k="ssr:stedsnr" v="353892" />
	</node>
	<node lat="61.8813611139031" lon="4.9258111100405095" id="-47421">
		<tag k="name" v="Sanden" />
		<tag k="natural" v="beach" />
		<tag k="ssr:stedsnr" v="354010" />
	</node>
	<node lat="61.765130555698526" lon="5.2790722304151405" id="-47425">
		<tag k="name" v="Gardsenden" />
		<tag k="natural" v="beach" />
		<tag k="ssr:stedsnr" v="354024" />
	</node>
	<node lat="61.817016662983484" lon="4.906430556632747" id="-47428">
		<tag k="name" v="Novene" />
		<tag k="natural" v="cape" />
		<tag k="ssr:stedsnr" v="354029" />
	</node>
	<node lat="61.76077777733236" lon="5.099861104209765" id="-47431">
		<tag k="name" v="Flateneset" />
		<tag k="natural" v="cape" />
		<tag k="ssr:stedsnr" v="354831" />
	</node>
	<node lat="61.87967222115399" lon="5.089675002858534" id="-47433">
		<tag k="name" v="Sørholmen" />
		<tag k="place" v="islet" />
		<tag k="ssr:stedsnr" v="354668" />
	</node>
	<node lat="61.87698889332811" lon="5.127161108073707" id="-47437">
		<tag k="name" v="Lågeidneset" />
		<tag k="natural" v="cape" />
		<tag k="ssr:stedsnr" v="356328" />
	</node>
	<node lat="61.87802777815309" lon="5.121658331073505" id="-47438">
		<tag k="name" v="Setevika" />
		<tag k="natural" v="bay" />
		<tag k="ssr:stedsnr" v="356333" />
	</node>
	<node lat="61.73390277867706" lon="4.94936389585602" id="-47439">
		<tag k="name" v="Skadvengsflua" />
		<tag k="natural" v="shoal" />
		<tag k="place" v="locality" />
		<tag k="ssr:stedsnr" v="356642" />
	</node>
	<node lat="61.762475003456174" lon="4.931886116961584" id="-47440">
		<tag k="name" v="Fiskholmsundet" />
		<tag k="natural" v="strait" />
		<tag k="ssr:stedsnr" v="356573" />
	</node>
	<node lat="61.73841111261482" lon="5.132333329087432" id="-47441">
		<tag k="name" v="Bratthammarvika" />
		<tag k="natural" v="bay" />
		<tag k="ssr:stedsnr" v="356676" />
	</node>
	<node lat="61.74075000432565" lon="5.146200004924209" id="-47442">
		<tag k="name" v="Skarvenesflua" />
		<tag k="natural" v="shoal" />
		<tag k="place" v="locality" />
		<tag k="ssr:stedsnr" v="356696" />
	</node>
	<node lat="61.771552777886406" lon="4.921844453498755" id="-47443">
		<tag k="name" v="Sildegarnsneset" />
		<tag k="natural" v="cape" />
		<tag k="ssr:stedsnr" v="356792" />
	</node>
	<node lat="61.853216665932216" lon="5.3352222273463275" id="-47444">
		<tag k="name" v="Lognesstranda" />
		<tag k="natural" v="beach" />
		<tag k="ssr:stedsnr" v="357034" />
	</node>
	<node lat="61.82713055990824" lon="5.3125250065799" id="-47445">
		<tag k="fixme" v="consider seamark:type=rock or natural=shoal" />
		<tag k="name" v="Avløysingsskjeret" />
		<tag k="place" v="islet" />
		<tag k="ssr:stedsnr" v="357036" />
	</node>
	<node lat="61.841461109477514" lon="5.2731138874722765" id="-47446">
		<tag k="name" v="Skarvehammaren" />
		<tag k="natural" v="cape" />
		<tag k="ssr:stedsnr" v="357044" />
	</node>
	<node lat="61.83348055300457" lon="5.142997222335068" id="-47447">
		<tag k="fixme" v="consider seamark:type=rock or natural=shoal" />
		<tag k="name" v="Kobbesteinen" />
		<tag k="place" v="islet" />
		<tag k="ssr:stedsnr" v="357379" />
	</node>
	<node lat="61.81885000359398" lon="4.8814222291481935" id="-47448">
		<tag k="name" v="Fjærefluene" />
		<tag k="natural" v="shoal" />
		<tag k="place" v="locality" />
		<tag k="ssr:stedsnr" v="357619" />
	</node>
	<node lat="61.8091972235324" lon="4.907324993599993" id="-47449">
		<tag k="name" v="Bakkeneset" />
		<tag k="natural" v="cape" />
		<tag k="ssr:stedsnr" v="357624" />
	</node>
	<node lat="61.80023888677803" lon="4.913438894433411" id="-47450">
		<tag k="fixme" v="consider seamark:type=rock or natural=shoal" />
		<tag k="name" v="Kjerpesettaska" />
		<tag k="place" v="islet" />
		<tag k="ssr:stedsnr" v="357634" />
	</node>
	<node lat="61.72016944562954" lon="4.738894451002998" id="-47451">
		<tag k="name" v="Botna-Skorpeflua" />
		<tag k="natural" v="shoal" />
		<tag k="place" v="locality" />
		<tag k="ssr:stedsnr" v="357920" />
	</node>
	<node lat="61.77979999888585" lon="4.679655554575691" id="-47452">
		<tag k="name" v="Ersgrunnen" />
		<tag k="natural" v="shoal" />
		<tag k="place" v="locality" />
		<tag k="ssr:stedsnr" v="357885" />
	</node>
	<node lat="61.74559444596525" lon="4.774855549160652" id="-47453">
		<tag k="name" v="Skjerbåen" />
		<tag k="natural" v="shoal" />
		<tag k="place" v="locality" />
		<tag k="ssr:stedsnr" v="357974" />
	</node>
	<node lat="61.745746014915824" lon="4.643255619784312" id="-47454">
		<tag k="name" v="Søreflua" />
		<tag k="natural" v="shoal" />
		<tag k="place" v="locality" />
		<tag k="ssr:stedsnr" v="372406" />
	</node>
	<node lat="61.73151111489057" lon="4.7244527851208264" id="-47455">
		<tag k="name" v="Persflua" />
		<tag k="natural" v="shoal" />
		<tag k="place" v="locality" />
		<tag k="ssr:stedsnr" v="372485" />
	</node>
	<node lat="61.76623333170805" lon="4.789313883475614" id="-47464">
		<tag k="fixme" v="consider seamark:type=rock or natural=shoal" />
		<tag k="name" v="Svarteskjeret" />
		<tag k="place" v="islet" />
		<tag k="ssr:stedsnr" v="373852" />
	</node>
	<node lat="61.752155557437284" lon="4.82224999728673" id="-47465">
		<tag k="name" v="Verøyna" />
		<tag k="place" v="island" />
		<tag k="ssr:stedsnr" v="373855" />
	</node>
	<node lat="61.88059999824208" lon="5.188872216327831" id="-47467">
		<tag k="name" v="Tangane" />
		<tag k="natural" v="cape" />
		<tag k="ssr:stedsnr" v="374224" />
	</node>
	<node lat="61.87281944363651" lon="5.218605553937295" id="-47468">
		<tag k="name" v="Skatestraumen" />
		<tag k="natural" v="strait" />
		<tag k="ssr:stedsnr" v="374225" />
	</node>
	<node lat="61.894855555792866" lon="5.355263889871356" id="-47470">
		<tag k="name" v="Grunneneset" />
		<tag k="natural" v="cape" />
		<tag k="ssr:stedsnr" v="374235" />
	</node>
	<node lat="61.78713055330245" lon="4.923630549370183" id="-47494">
		<tag k="name" v="Rotaneset" />
		<tag k="natural" v="cape" />
		<tag k="ssr:stedsnr" v="390599" />
	</node>
	<node lat="61.81006944746377" lon="4.952425006993494" id="-47495">
		<tag k="name" v="Myrastranda" />
		<tag k="natural" v="beach" />
		<tag k="ssr:stedsnr" v="391841" />
	</node>
	<node lat="61.793222224972695" lon="4.888058327697218" id="-47507">
		<tag k="name" v="Vareneset" />
		<tag k="natural" v="cape" />
		<tag k="ssr:stedsnr" v="414037" />
	</node>
	<node lat="61.809988888461106" lon="4.848838884753288" id="-47509">
		<tag k="name" v="Sjåberget" />
		<tag k="natural" v="cape" />
		<tag k="ssr:stedsnr" v="414053" />
	</node>
	<node lat="61.76016389214468" lon="5.1885638807431995" id="-47511">
		<tag k="name" v="Blokkebærneset" />
		<tag k="natural" v="cape" />
		<tag k="ssr:stedsnr" v="414772" />
	</node>
	<node lat="61.76201111020888" lon="5.164572218868299" id="-47512">
		<tag k="name" v="Holmesundet" />
		<tag k="natural" v="strait" />
		<tag k="ssr:stedsnr" v="414774" />
	</node>
	<node lat="61.759230554892824" lon="5.1732500024086745" id="-47513">
		<tag k="name" v="Djupevika" />
		<tag k="natural" v="bay" />
		<tag k="ssr:stedsnr" v="414779" />
	</node>
	<node lat="61.8265361154605" lon="5.681561112393141" id="-47514">
		<tag k="name" v="Svinevikneset" />
		<tag k="natural" v="cape" />
		<tag k="ssr:stedsnr" v="414223" />
	</node>
	<node lat="61.89250555306449" lon="5.330736103776761" id="-47527">
		<tag k="alt_name" v="Knarrholmen" />
		<tag k="name" v="Knarreholmen" />
		<tag k="place" v="islet" />
		<tag k="ssr:stedsnr" v="414623" />
	</node>
	<node lat="61.76086666817621" lon="4.879172214407443" id="-47530">
		<tag k="alt_name" v="Hamarneset" />
		<tag k="name" v="Havreneset" />
		<tag k="natural" v="cape" />
		<tag k="ssr:stedsnr" v="414476" />
	</node>
	<node lat="61.75290000028688" lon="4.819302777877908" id="-47531">
		<tag k="name" v="Rognholmen" />
		<tag k="place" v="islet" />
		<tag k="ssr:stedsnr" v="414484" />
	</node>
	<node lat="61.8330111117756" lon="5.204086115241438" id="-47532">
		<tag k="name" v="Skukkevika" />
		<tag k="natural" v="bay" />
		<tag k="ssr:stedsnr" v="414547" />
	</node>
	<node lat="61.873058330410764" lon="5.236027776553744" id="-47534">
		<tag k="name" v="Splintehola" />
		<tag k="natural" v="bay" />
		<tag k="ssr:stedsnr" v="414564" />
	</node>
	<node lat="61.89031111056935" lon="5.529286119141385" id="-47536">
		<tag k="name" v="Harneset" />
		<tag k="natural" v="cape" />
		<tag k="ssr:stedsnr" v="414575" />
	</node>
	<node lat="61.85035277936433" lon="5.7681138884687435" id="-47540">
		<tag k="name" v="Storholmen" />
		<tag k="place" v="islet" />
		<tag k="ssr:stedsnr" v="414732" />
	</node>
	<node lat="61.80820000132693" lon="4.903822213278497" id="-47547">
		<tag k="name" v="Bakkeholmen" />
		<tag k="place" v="islet" />
		<tag k="ssr:stedsnr" v="415026" />
	</node>
	<node lat="61.908633333668064" lon="4.951141665320006" id="-47550">
		<tag k="name" v="Nyken" />
		<tag k="natural" v="cape" />
		<tag k="ssr:stedsnr" v="415122" />
	</node>
	<node lat="61.72207777397046" lon="4.969338886207477" id="-47554">
		<tag k="name" v="Landsyningsvika" />
		<tag k="natural" v="bay" />
		<tag k="ssr:stedsnr" v="414946" />
	</node>
	<node lat="61.772169445642554" lon="5.157272216799719" id="-47560">
		<tag k="name" v="Bratthammarsvika" />
		<tag k="natural" v="bay" />
		<tag k="ssr:stedsnr" v="417173" />
	</node>
	<node lat="61.79623611329375" lon="4.940655558758659" id="-47561">
		<tag k="name" v="Lammeflua" />
		<tag k="natural" v="shoal" />
		<tag k="place" v="locality" />
		<tag k="ssr:stedsnr" v="417559" />
	</node>
	<node lat="61.71956666905328" lon="5.113766660884584" id="-47563">
		<tag k="name" v="Sagebøflua" />
		<tag k="natural" v="shoal" />
		<tag k="place" v="locality" />
		<tag k="ssr:stedsnr" v="417724" />
	</node>
	<node lat="61.77814166906008" lon="4.803641657676369" id="-47564">
		<tag k="fixme" v="consider seamark:type=rock or natural=shoal" />
		<tag k="name" v="Søre Flatskjeret" />
		<tag k="place" v="islet" />
		<tag k="ssr:stedsnr" v="418863" />
	</node>
	<node lat="61.78092222041457" lon="4.798116668440983" id="-47565">
		<tag k="fixme" v="consider seamark:type=rock or natural=shoal" />
		<tag k="name" v="Nordre Flatskjeret" />
		<tag k="place" v="islet" />
		<tag k="ssr:stedsnr" v="418864" />
	</node>
	<node lat="61.80488333393848" lon="4.697844436736277" id="-47566">
		<tag k="name" v="Skorpegrunnen" />
		<tag k="natural" v="shoal" />
		<tag k="place" v="locality" />
		<tag k="ssr:stedsnr" v="418882" />
	</node>
	<node lat="61.755461106531435" lon="4.664538883465771" id="-47567">
		<tag k="name" v="Hatleflua" />
		<tag k="natural" v="shoal" />
		<tag k="place" v="locality" />
		<tag k="ssr:stedsnr" v="418883" />
	</node>
	<node lat="61.83384722104515" lon="4.973272220170213" id="-47569">
		<tag k="name" v="Klubbenesflua" />
		<tag k="natural" v="shoal" />
		<tag k="place" v="locality" />
		<tag k="ssr:stedsnr" v="418964" />
	</node>
	<node lat="61.75346666517543" lon="4.545819445641336" id="-47570">
		<tag k="name" v="Nordre Grunnskallen" />
		<tag k="natural" v="shoal" />
		<tag k="place" v="locality" />
		<tag k="ssr:stedsnr" v="418973" />
	</node>
	<node lat="61.698266668766635" lon="4.983841674851267" id="-47571">
		<tag k="name" v="Buaneset" />
		<tag k="natural" v="cape" />
		<tag k="ssr:stedsnr" v="433043" />
	</node>
	<node lat="61.748399999824215" lon="4.685275003201186" id="-47573">
		<tag k="name" v="Grunnebåen" />
		<tag k="natural" v="shoal" />
		<tag k="place" v="locality" />
		<tag k="ssr:stedsnr" v="433367" />
	</node>
	<node lat="61.72172222395081" lon="4.999294450524732" id="-47574">
		<tag k="name" v="Korsneset" />
		<tag k="natural" v="cape" />
		<tag k="ssr:stedsnr" v="433438" />
	</node>
	<node lat="61.722655557732864" lon="4.7709694410147625" id="-47578">
		<tag k="fixme" v="consider seamark:type=rock or natural=shoal" />
		<tag k="name" v="Toddeskjeret" />
		<tag k="place" v="islet" />
		<tag k="ssr:stedsnr" v="433457" />
	</node>
	<node lat="61.77918888522533" lon="4.923552780160646" id="-47591">
		<tag k="name" v="Gildreneset" />
		<tag k="natural" v="cape" />
		<tag k="ssr:stedsnr" v="434794" />
	</node>
	<node lat="61.88289721862626" lon="5.073508332960832" id="-47592">
		<tag k="name" v="Oldeidsneset" />
		<tag k="natural" v="cape" />
		<tag k="ssr:stedsnr" v="434986" />
	</node>
	<node lat="61.84103610803536" lon="4.81721389758297" id="-47603">
		<tag k="name" v="Brørne" />
		<tag k="natural" v="shoal" />
		<tag k="place" v="locality" />
		<tag k="ssr:stedsnr" v="435905" />
	</node>
	<node lat="61.773636106683156" lon="4.9525000000585555" id="-47610">
		<tag k="name" v="Vardeholmane" />
		<tag k="place" v="islet" />
		<tag k="ssr:stedsnr" v="495876" />
	</node>
	<node lat="61.75376666570969" lon="4.800041674020896" id="-47611">
		<tag k="alt_name" v="Gjenneskjer" />
		<tag k="fixme" v="consider seamark:type=rock or natural=shoal" />
		<tag k="name" v="Gjenneskjeret" />
		<tag k="place" v="islet" />
		<tag k="ssr:stedsnr" v="495878" />
	</node>
	<node lat="61.90248055369329" lon="4.91815277150593" id="-47613">
		<tag k="name" v="Kviteneset" />
		<tag k="natural" v="cape" />
		<tag k="ssr:stedsnr" v="495984" />
	</node>
	<node lat="61.86380000031572" lon="5.006011110412576" id="-47614">
		<tag k="name" v="Bremangerlandet" />
		<tag k="place" v="island" />
		<tag k="ssr:stedsnr" v="495987" />
	</node>
	<node lat="61.78814444838954" lon="4.904944451596478" id="-47619">
		<tag k="name" v="Vederskytten" />
		<tag k="place" v="island" />
		<tag k="ssr:stedsnr" v="495850" />
	</node>
	<node lat="61.79974999891147" lon="4.813511116953944" id="-47620">
		<tag k="name" v="Grønneset" />
		<tag k="natural" v="cape" />
		<tag k="ssr:stedsnr" v="495934" />
	</node>
	<node lat="61.771725004022194" lon="5.2079777762543085" id="-47624">
		<tag k="name" v="Støylssporden" />
		<tag k="natural" v="cape" />
		<tag k="ssr:stedsnr" v="506235" />
	</node>
	<node lat="61.761772219193226" lon="4.877961111073603" id="-47638">
		<tag k="name" v="Botnelabo" />
		<tag k="natural" v="bay" />
		<tag k="ssr:stedsnr" v="535397" />
	</node>
	<node lat="61.760516668051814" lon="4.829963879731063" id="-47639">
		<tag k="name" v="Håøyvika" />
		<tag k="natural" v="bay" />
		<tag k="ssr:stedsnr" v="535487" />
	</node>
	<node lat="61.76022221778983" lon="4.8132138857509945" id="-47640">
		<tag k="name" v="Humresundet" />
		<tag k="natural" v="strait" />
		<tag k="ssr:stedsnr" v="535489" />
	</node>
	<node lat="61.88379999615059" lon="5.207944454095857" id="-47642">
		<tag k="name" v="Strandavika" />
		<tag k="natural" v="bay" />
		<tag k="ssr:stedsnr" v="535575" />
	</node>
	<node lat="61.81746666882283" lon="5.227055556777381" id="-47648">
		<tag k="fixme" v="consider seamark:type=rock or natural=shoal" />
		<tag k="name" v="Skjeret" />
		<tag k="place" v="islet" />
		<tag k="ssr:stedsnr" v="535532" />
	</node>
	<node lat="61.833497222629404" lon="5.233608338846829" id="-47649">
		<tag k="name" v="Berlestranda" />
		<tag k="natural" v="beach" />
		<tag k="ssr:stedsnr" v="535545" />
	</node>
	<node lat="61.9083666624653" lon="5.384855552471266" id="-47665">
		<tag k="name" v="Klaua" />
		<tag k="natural" v="cape" />
		<tag k="ssr:stedsnr" v="535595" />
	</node>
	<node lat="61.90178055824206" lon="5.372369451139818" id="-47666">
		<tag k="name" v="Sletteneset" />
		<tag k="natural" v="cape" />
		<tag k="ssr:stedsnr" v="535596" />
	</node>
	<node lat="61.88808055358578" lon="5.34066945053325" id="-47670">
		<tag k="name" v="Vågsneset" />
		<tag k="natural" v="cape" />
		<tag k="ssr:stedsnr" v="535611" />
	</node>
	<node lat="61.8583194403402" lon="4.822924999232811" id="-47677">
		<tag k="name" v="Skauevika" />
		<tag k="natural" v="bay" />
		<tag k="ssr:stedsnr" v="536011" />
	</node>
	<node lat="61.73032222550801" lon="5.117208330291688" id="-47680">
		<tag k="name" v="Kastevika" />
		<tag k="natural" v="bay" />
		<tag k="ssr:stedsnr" v="535863" />
	</node>
	<node lat="61.74040555446868" lon="5.129997223078711" id="-47681">
		<tag k="name" v="Bratthammarnes" />
		<tag k="natural" v="cape" />
		<tag k="ssr:stedsnr" v="535865" />
	</node>
	<node lat="61.719800004154784" lon="5.001591658187286" id="-47685">
		<tag k="name" v="Flatholmen" />
		<tag k="place" v="islet" />
		<tag k="ssr:stedsnr" v="535960" />
	</node>
	<node lat="61.835266665728916" lon="4.9464527742355715" id="-47686">
		<tag k="name" v="Buholmen" />
		<tag k="place" v="islet" />
		<tag k="ssr:stedsnr" v="536027" />
	</node>
	<node lat="61.76830278151836" lon="5.283044451038982" id="-47687">
		<tag k="name" v="Naustneset" />
		<tag k="natural" v="cape" />
		<tag k="ssr:stedsnr" v="536035" />
	</node>
	<node lat="61.879008331676765" lon="5.106408325746959" id="-47693">
		<tag k="name" v="Svoraneset" />
		<tag k="natural" v="cape" />
		<tag k="ssr:stedsnr" v="536657" />
	</node>
	<node lat="61.762658331066035" lon="5.1098416681567675" id="-47698">
		<tag k="name" v="Djupevika" />
		<tag k="natural" v="bay" />
		<tag k="ssr:stedsnr" v="536831" />
	</node>
	<node lat="61.74842777361568" lon="5.097063890745712" id="-47699">
		<tag k="name" v="Almenningsneset" />
		<tag k="natural" v="cape" />
		<tag k="ssr:stedsnr" v="536834" />
	</node>
	<node lat="61.752361112517896" lon="5.088441662580792" id="-47700">
		<tag k="name" v="Ytsteneset" />
		<tag k="natural" v="cape" />
		<tag k="ssr:stedsnr" v="536835" />
	</node>
	<node lat="61.75734444581011" lon="5.034355551474145" id="-47702">
		<tag k="alt_name" v="Heianeset" />
		<tag k="name" v="Heieneset" />
		<tag k="natural" v="cape" />
		<tag k="ssr:stedsnr" v="536930" />
	</node>
	<node lat="61.75384999865063" lon="5.077033339051167" id="-47705">
		<tag k="name" v="Skakastet" />
		<tag k="natural" v="beach" />
		<tag k="ssr:stedsnr" v="536945" />
	</node>
	<node lat="61.92914444684612" lon="4.89225556342462" id="-47709">
		<tag k="name" v="Kisteflua" />
		<tag k="natural" v="shoal" />
		<tag k="place" v="locality" />
		<tag k="ssr:stedsnr" v="538434" />
	</node>
	<node lat="61.7942888924622" lon="4.953788891946343" id="-47710">
		<tag k="name" v="Bukta" />
		<tag k="natural" v="bay" />
		<tag k="ssr:stedsnr" v="538528" />
	</node>
	<node lat="61.796922221811734" lon="4.9470777828597345" id="-47711">
		<tag k="name" v="Fløholmen" />
		<tag k="place" v="islet" />
		<tag k="ssr:stedsnr" v="538543" />
	</node>
	<node lat="61.87207439017342" lon="5.2137049380263685" id="-47712">
		<tag k="name" v="Skrukken" />
		<tag k="natural" v="shoal" />
		<tag k="place" v="locality" />
		<tag k="ssr:stedsnr" v="538931" />
	</node>
	<node lat="61.83413332969287" lon="5.244308333363969" id="-47713">
		<tag k="name" v="Hælvika" />
		<tag k="natural" v="bay" />
		<tag k="ssr:stedsnr" v="539364" />
	</node>
	<node lat="61.827427775163095" lon="5.160180548241137" id="-47714">
		<tag k="name" v="Indre Flua" />
		<tag k="natural" v="shoal" />
		<tag k="place" v="locality" />
		<tag k="ssr:stedsnr" v="539369" />
	</node>
	<node lat="61.83563889269422" lon="4.853477786769522" id="-47715">
		<tag k="name" v="Skukken" />
		<tag k="natural" v="shoal" />
		<tag k="place" v="locality" />
		<tag k="ssr:stedsnr" v="539893" />
	</node>
	<node lat="61.91004721889745" lon="4.771972225531975" id="-47716">
		<tag k="name" v="Skorpefluene" />
		<tag k="natural" v="shoal" />
		<tag k="place" v="locality" />
		<tag k="ssr:stedsnr" v="539995" />
	</node>
	<node lat="61.8916583336072" lon="5.3320472141432775" id="-47718">
		<tag k="name" v="Sundsneset" />
		<tag k="natural" v="cape" />
		<tag k="ssr:stedsnr" v="555144" />
	</node>
	<node lat="61.723388886392094" lon="4.798308333083654" id="-47722">
		<tag k="fixme" v="consider seamark:type=rock or natural=shoal" />
		<tag k="name" v="Søtingen" />
		<tag k="place" v="islet" />
		<tag k="ssr:stedsnr" v="554485" />
	</node>
	<node lat="61.73387777902054" lon="4.984600007761469" id="-47723">
		<tag k="name" v="Røysaneset" />
		<tag k="natural" v="cape" />
		<tag k="ssr:stedsnr" v="554491" />
	</node>
	<node lat="61.841769441637226" lon="4.896852773951557" id="-47740">
		<tag k="name" v="Grotlesholmen" />
		<tag k="place" v="islet" />
		<tag k="ssr:stedsnr" v="555892" />
	</node>
	<node lat="61.848452780489566" lon="5.159980554835739" id="-47745">
		<tag k="name" v="Berlepollen" />
		<tag k="natural" v="bay" />
		<tag k="ssr:stedsnr" v="556170" />
	</node>
	<node lat="61.85786944482018" lon="5.300969445600846" id="-47751">
		<tag k="fixme" v="multiple name tags, choose one and add the other to alt_name" />
		<tag k="name" v="Verpeneset;Lofnespynten" />
		<tag k="natural" v="cape" />
		<tag k="ssr:stedsnr" v="556195" />
	</node>
	<node lat="61.78936377303859" lon="4.915111479313083" id="-47755">
		<tag k="name" v="Kjerøyna" />
		<tag k="place" v="island" />
		<tag k="ssr:stedsnr" v="556843" />
	</node>
	<node lat="61.91644444538315" lon="4.917052778269661" id="-47756">
		<tag k="name" v="Brunebåen" />
		<tag k="natural" v="shoal" />
		<tag k="place" v="locality" />
		<tag k="ssr:stedsnr" v="556983" />
	</node>
	<node lat="61.88529444284032" lon="5.062516670941103" id="-47768">
		<tag k="name" v="Lanes" />
		<tag k="natural" v="cape" />
		<tag k="ssr:stedsnr" v="596290" />
	</node>
	<node lat="61.77129722442422" lon="4.898341661611072" id="-47772">
		<tag k="alt_name" v="Stangholmen" />
		<tag k="name" v="Stongholmen" />
		<tag k="place" v="islet" />
		<tag k="ssr:stedsnr" v="596368" />
	</node>
	<node lat="61.75183611576798" lon="4.8644250052395135" id="-47774">
		<tag k="fixme" v="consider seamark:type=rock or natural=shoal" />
		<tag k="name" v="Kamsen" />
		<tag k="place" v="islet" />
		<tag k="ssr:stedsnr" v="596379" />
	</node>
	<node lat="61.76844444496757" lon="5.289480555094652" id="-47776">
		<tag k="name" v="Øyra" />
		<tag k="natural" v="cape" />
		<tag k="ssr:stedsnr" v="596027" />
	</node>
	<node lat="61.75746944827542" lon="5.157527772906103" id="-47777">
		<tag k="name" v="Litleholmen" />
		<tag k="place" v="islet" />
		<tag k="ssr:stedsnr" v="595788" />
	</node>
	<node lat="61.80231944433733" lon="4.826838891414797" id="-47786">
		<tag k="name" v="Inste Kupa" />
		<tag k="natural" v="bay" />
		<tag k="ssr:stedsnr" v="596043" />
	</node>
	<node lat="61.89128888878101" lon="4.908783342860785" id="-47787">
		<tag k="name" v="Stegleitet" />
		<tag k="natural" v="beach" />
		<tag k="ssr:stedsnr" v="596121" />
	</node>
	<node lat="61.75566599884644" lon="4.813965733241723" id="-47792">
		<tag k="name" v="Storegytten" />
		<tag k="natural" v="bay" />
		<tag k="ssr:stedsnr" v="596447" />
	</node>
	<node lat="61.874855556576755" lon="5.224727780973526" id="-47796">
		<tag k="name" v="Gardvika" />
		<tag k="natural" v="bay" />
		<tag k="ssr:stedsnr" v="596522" />
	</node>
	<node lat="61.839558331155004" lon="5.271533333459165" id="-47800">
		<tag k="fixme" v="multiple name tags, choose one and add the other to alt_name" />
		<tag k="name" v="Marøykalven;Kalven" />
		<tag k="place" v="islet" />
		<tag k="ssr:stedsnr" v="596540" />
	</node>
	<node lat="61.89052222284514" lon="5.5584888797895005" id="-47801">
		<tag k="name" v="Leikvollvika" />
		<tag k="natural" v="bay" />
		<tag k="ssr:stedsnr" v="596542" />
	</node>
	<node lat="61.87763333620164" lon="5.206288880693188" id="-47802">
		<tag k="name" v="Røyrvågen" />
		<tag k="natural" v="bay" />
		<tag k="ssr:stedsnr" v="596546" />
	</node>
	<node lat="61.83281388521531" lon="5.1344277710516755" id="-47804">
		<tag k="name" v="Furneset" />
		<tag k="natural" v="cape" />
		<tag k="ssr:stedsnr" v="596632" />
	</node>
	<node lat="61.81329444035914" lon="5.217077781507291" id="-47805">
		<tag k="name" v="Holvikneset" />
		<tag k="natural" v="cape" />
		<tag k="ssr:stedsnr" v="596484" />
	</node>
	<node lat="61.77495833175091" lon="5.274580551613525" id="-47811">
		<tag k="name" v="Framstevikneset" />
		<tag k="natural" v="cape" />
		<tag k="ssr:stedsnr" v="596742" />
	</node>
	<node lat="61.77722221827798" lon="5.247294451942579" id="-47812">
		<tag k="name" v="Lindelineset" />
		<tag k="natural" v="cape" />
		<tag k="ssr:stedsnr" v="596744" />
	</node>
	<node lat="61.7748305518613" lon="5.224036109300553" id="-47814">
		<tag k="name" v="Gaddeneset" />
		<tag k="natural" v="cape" />
		<tag k="ssr:stedsnr" v="596747" />
	</node>
	<node lat="61.77226944390101" lon="5.205766657887903" id="-47815">
		<tag k="name" v="Stølsborvika" />
		<tag k="natural" v="bay" />
		<tag k="ssr:stedsnr" v="596748" />
	</node>
	<node lat="61.7491111142428" lon="5.094769437477422" id="-47817">
		<tag k="name" v="Pervika" />
		<tag k="natural" v="bay" />
		<tag k="ssr:stedsnr" v="596827" />
	</node>
	<node lat="61.81362475449412" lon="5.194501302470795" id="-47833">
		<tag k="name" v="Ytste Øyaneset" />
		<tag k="natural" v="cape" />
		<tag k="ssr:stedsnr" v="598078" />
	</node>
	<node lat="61.78973889135768" lon="4.948880549132692" id="-47834">
		<tag k="name" v="Trongesundholmen" />
		<tag k="place" v="islet" />
		<tag k="ssr:stedsnr" v="598497" />
	</node>
	<node lat="61.77076388866004" lon="4.9240361121041305" id="-47835">
		<tag k="name" v="Jakobhamn" />
		<tag k="natural" v="bay" />
		<tag k="ssr:stedsnr" v="598775" />
	</node>
	<node lat="61.80475555237521" lon="5.0582583285056515" id="-47838">
		<tag k="name" v="Skipperdalsvika" />
		<tag k="natural" v="bay" />
		<tag k="ssr:stedsnr" v="599440" />
	</node>
	<node lat="61.78779999559995" lon="4.8017138840341085" id="-47840">
		<tag k="name" v="Mulevika" />
		<tag k="natural" v="bay" />
		<tag k="ssr:stedsnr" v="599893" />
	</node>
	<node lat="61.84226388837027" lon="4.795227774826497" id="-47841">
		<tag k="name" v="Bataldflua" />
		<tag k="natural" v="shoal" />
		<tag k="place" v="locality" />
		<tag k="ssr:stedsnr" v="599918" />
	</node>
	<node lat="61.83727777381634" lon="4.878074996696247" id="-47842">
		<tag k="name" v="Brusen" />
		<tag k="natural" v="shoal" />
		<tag k="place" v="locality" />
		<tag k="ssr:stedsnr" v="599921" />
	</node>
	<node lat="61.83103889314041" lon="4.887374996637771" id="-47843">
		<tag k="name" v="Åpnarfluene" />
		<tag k="natural" v="shoal" />
		<tag k="place" v="locality" />
		<tag k="ssr:stedsnr" v="599924" />
	</node>
	<node lat="61.79505277859644" lon="4.802488884580361" id="-47844">
		<tag k="fixme" v="consider seamark:type=rock or natural=shoal" />
		<tag k="name" v="Maraskjeret" />
		<tag k="place" v="islet" />
		<tag k="ssr:stedsnr" v="599895" />
	</node>
	<node lat="61.76765833001881" lon="4.852663889634256" id="-47845">
		<tag k="name" v="Småvågane" />
		<tag k="natural" v="bay" />
		<tag k="ssr:stedsnr" v="599992" />
	</node>
	<node lat="61.90689444190632" lon="5.46709445233436" id="-47846">
		<tag k="name" v="Endalsbukta" />
		<tag k="natural" v="bay" />
		<tag k="ssr:stedsnr" v="603595" />
	</node>
	<node lat="61.72337499641043" lon="4.808694450839847" id="-47848">
		<tag k="fixme" v="consider seamark:type=rock or natural=shoal" />
		<tag k="name" v="Stabben" />
		<tag k="place" v="islet" />
		<tag k="ssr:stedsnr" v="614444" />
	</node>
	<node lat="61.73710555596026" lon="5.183005554529257" id="-47855">
		<tag k="name" v="Fagrevika" />
		<tag k="natural" v="bay" />
		<tag k="ssr:stedsnr" v="615810" />
	</node>
	<node lat="61.73894722545209" lon="5.1591416651126565" id="-47856">
		<tag k="name" v="Hjellvika" />
		<tag k="natural" v="bay" />
		<tag k="ssr:stedsnr" v="615818" />
	</node>
	<node lat="61.882838877356065" lon="5.120145749777223" id="-47864">
		<tag k="name" v="Bjørnøyna" />
		<tag k="place" v="island" />
		<tag k="ssr:stedsnr" v="616174" />
	</node>
	<node lat="61.76729757228397" lon="4.819306553658617" id="-47880">
		<tag k="name" v="Havrøyna" />
		<tag k="place" v="island" />
		<tag k="ssr:stedsnr" v="616859" />
	</node>
	<node lat="61.7697444435662" lon="4.9194999975473" id="-47881">
		<tag k="name" v="Bukkholmen" />
		<tag k="place" v="islet" />
		<tag k="ssr:stedsnr" v="616862" />
	</node>
	<node lat="61.95261388541947" lon="4.820561112208832" id="-47882">
		<tag k="name" v="Fallet" />
		<tag k="natural" v="shoal" />
		<tag k="place" v="locality" />
		<tag k="ssr:stedsnr" v="616962" />
	</node>
	<node lat="61.92456110685076" lon="4.845283327807132" id="-47883">
		<tag k="name" v="Tøytemulen" />
		<tag k="natural" v="shoal" />
		<tag k="place" v="locality" />
		<tag k="ssr:stedsnr" v="616970" />
	</node>
	<node lat="61.78966944519129" lon="4.894886114556858" id="-47888">
		<tag k="name" v="Nørdre Olderøyna" />
		<tag k="place" v="island" />
		<tag k="ssr:stedsnr" v="617844" />
	</node>
	<node lat="61.89726389242299" lon="4.912333324032071" id="-47889">
		<tag k="name" v="Lavik" />
		<tag k="natural" v="bay" />
		<tag k="ssr:stedsnr" v="617969" />
	</node>
	<node lat="61.80302222172937" lon="4.8670333411661195" id="-47893">
		<tag k="name" v="Buvika" />
		<tag k="natural" v="bay" />
		<tag k="ssr:stedsnr" v="656026" />
	</node>
	<node lat="61.760522221027955" lon="5.181244436987037" id="-47894">
		<tag k="name" v="Tretteskjervik" />
		<tag k="natural" v="bay" />
		<tag k="ssr:stedsnr" v="656814" />
	</node>
	<node lat="61.75801944482667" lon="5.197277784495739" id="-47895">
		<tag k="name" v="Liavika" />
		<tag k="natural" v="bay" />
		<tag k="ssr:stedsnr" v="656816" />
	</node>
	<node lat="61.7545499977055" lon="4.867841660379669" id="-47907">
		<tag k="name" v="Indrevågen" />
		<tag k="natural" v="bay" />
		<tag k="ssr:stedsnr" v="656393" />
	</node>
	<node lat="61.78682222168451" lon="4.806188886721617" id="-47911">
		<tag k="name" v="Inste Mulevika" />
		<tag k="natural" v="bay" />
		<tag k="ssr:stedsnr" v="656469" />
	</node>
	<node lat="61.8336695324033" lon="5.2468862551489535" id="-47912">
		<tag k="name" v="Hælen" />
		<tag k="natural" v="cape" />
		<tag k="ssr:stedsnr" v="656551" />
	</node>
	<node lat="61.771216668217875" lon="4.835088891461235" id="-47913">
		<tag k="fixme" v="consider seamark:type=rock or natural=shoal" />
		<tag k="name" v="Minnet" />
		<tag k="place" v="islet" />
		<tag k="ssr:stedsnr" v="656520" />
	</node>
	<node lat="61.881044448535064" lon="5.318363887699052" id="-47915">
		<tag k="name" v="Klubbeneset" />
		<tag k="natural" v="cape" />
		<tag k="ssr:stedsnr" v="656618" />
	</node>
	<node lat="61.72523055568898" lon="4.992516664067603" id="-47920">
		<tag k="name" v="Hjellneset" />
		<tag k="natural" v="cape" />
		<tag k="ssr:stedsnr" v="656967" />
	</node>
	<node lat="61.750786108571546" lon="5.141441670272055" id="-47939">
		<tag k="name" v="Skottehamnen" />
		<tag k="natural" v="bay" />
		<tag k="ssr:stedsnr" v="657795" />
	</node>
	<node lat="61.84009722315214" lon="5.74062499525356" id="-47941">
		<tag k="name" v="Orevika" />
		<tag k="natural" v="bay" />
		<tag k="ssr:stedsnr" v="657732" />
	</node>
	<node lat="61.88060833026635" lon="5.715566658375718" id="-47946">
		<tag k="name" v="Stiganeset" />
		<tag k="natural" v="cape" />
		<tag k="ssr:stedsnr" v="657762" />
	</node>
	<node lat="61.81711944194845" lon="4.940305564624494" id="-47957">
		<tag k="name" v="Bakjaskallen" />
		<tag k="natural" v="shoal" />
		<tag k="place" v="locality" />
		<tag k="ssr:stedsnr" v="659798" />
	</node>
	<node lat="61.770273903525904" lon="4.945192670480598" id="-47958">
		<tag k="name" v="Rotaflu" />
		<tag k="natural" v="strait" />
		<tag k="ssr:stedsnr" v="659815" />
	</node>
	<node lat="61.89806666545364" lon="5.364883336692817" id="-47960">
		<tag k="name" v="Geitebruvika" />
		<tag k="natural" v="bay" />
		<tag k="ssr:stedsnr" v="660022" />
	</node>
	<node lat="61.81384444779657" lon="5.086277774192406" id="-47961">
		<tag k="name" v="Skarsteinsvika" />
		<tag k="natural" v="bay" />
		<tag k="ssr:stedsnr" v="660452" />
	</node>
	<node lat="61.8986972243508" lon="4.878108342103805" id="-47962">
		<tag k="name" v="Veststeinsundet" />
		<tag k="natural" v="strait" />
		<tag k="ssr:stedsnr" v="660834" />
	</node>
	<node lat="61.747247225905305" lon="4.784775000050933" id="-47963">
		<tag k="name" v="Steinen" />
		<tag k="natural" v="shoal" />
		<tag k="place" v="locality" />
		<tag k="ssr:stedsnr" v="660972" />
	</node>
	<node lat="61.817883333644964" lon="5.643077782543862" id="-47967">
		<tag k="name" v="Orevika" />
		<tag k="natural" v="bay" />
		<tag k="ssr:stedsnr" v="718156" />
	</node>
	<node lat="61.75945000318158" lon="4.877047213990269" id="-47970">
		<tag k="name" v="Lambereva" />
		<tag k="natural" v="cape" />
		<tag k="ssr:stedsnr" v="717410" />
	</node>
	<node lat="61.75166389258514" lon="4.853849990021164" id="-47971">
		<tag k="fixme" v="consider seamark:type=rock or natural=shoal" />
		<tag k="name" v="Kyraskjeret" />
		<tag k="place" v="islet" />
		<tag k="ssr:stedsnr" v="717412" />
	</node>
	<node lat="61.81275555215816" lon="5.661608341127993" id="-47974">
		<tag k="name" v="Sørevika" />
		<tag k="natural" v="bay" />
		<tag k="ssr:stedsnr" v="717114" />
	</node>
	<node lat="61.79477500170428" lon="5.034194449924338" id="-47980">
		<tag k="name" v="Tjørnneset" />
		<tag k="natural" v="cape" />
		<tag k="ssr:stedsnr" v="717433" />
	</node>
	<node lat="61.79932222193872" lon="5.0424805630090885" id="-47981">
		<tag k="name" v="Sletteneset" />
		<tag k="natural" v="cape" />
		<tag k="ssr:stedsnr" v="717434" />
	</node>
	<node lat="61.78795833610797" lon="5.014611102008215" id="-47986">
		<tag k="name" v="Byttevika" />
		<tag k="natural" v="bay" />
		<tag k="ssr:stedsnr" v="717418" />
	</node>
	<node lat="61.78718333600008" lon="4.79857221774565" id="-47988">
		<tag k="name" v="Muleholmen" />
		<tag k="place" v="islet" />
		<tag k="ssr:stedsnr" v="717482" />
	</node>
	<node lat="61.76134444870431" lon="5.179327777779641" id="-47990">
		<tag k="fixme" v="consider seamark:type=rock or natural=shoal" />
		<tag k="name" v="Tretteskjeret" />
		<tag k="place" v="islet" />
		<tag k="ssr:stedsnr" v="717784" />
	</node>
	<node lat="61.760197219701716" lon="5.211324996448447" id="-47991">
		<tag k="name" v="Resaneset" />
		<tag k="natural" v="cape" />
		<tag k="ssr:stedsnr" v="717788" />
	</node>
	<node lat="61.77178888691289" lon="5.18357500739154" id="-47993">
		<tag k="name" v="Sagevika" />
		<tag k="natural" v="bay" />
		<tag k="ssr:stedsnr" v="717799" />
	</node>
	<node lat="61.833480558058525" lon="5.208894447309409" id="-47995">
		<tag k="name" v="Simåvika" />
		<tag k="natural" v="bay" />
		<tag k="ssr:stedsnr" v="717551" />
	</node>
	<node lat="61.84574170270069" lon="5.291753316921865" id="-47996">
		<tag k="name" v="Storevika" />
		<tag k="natural" v="bay" />
		<tag k="ssr:stedsnr" v="717572" />
	</node>
	<node lat="61.9064444477095" lon="5.515638894261743" id="-48001">
		<tag k="name" v="Fananeset" />
		<tag k="natural" v="cape" />
		<tag k="ssr:stedsnr" v="717585" />
	</node>
	<node lat="61.90309444087096" lon="5.542744450328447" id="-48002">
		<tag k="name" v="Ekornneset" />
		<tag k="natural" v="cape" />
		<tag k="ssr:stedsnr" v="717589" />
	</node>
	<node lat="61.874988888557006" lon="5.151752782328472" id="-48003">
		<tag k="name" v="Ytste Lågeidvika" />
		<tag k="natural" v="bay" />
		<tag k="ssr:stedsnr" v="717590" />
	</node>
	<node lat="61.72584722587586" lon="5.149783338918261" id="-48012">
		<tag k="name" v="Skåtevika" />
		<tag k="natural" v="bay" />
		<tag k="ssr:stedsnr" v="717866" />
	</node>
	<node lat="61.77020555192937" lon="4.906302777353664" id="-48020">
		<tag k="alt_name" v="Bukkholmen" />
		<tag k="name" v="Bukkeholmen" />
		<tag k="place" v="islet" />
		<tag k="ssr:stedsnr" v="718449" />
	</node>
	<node lat="61.71034697450432" lon="5.121964323263803" id="-48028">
		<tag k="name" v="Kalveneset" />
		<tag k="natural" v="cape" />
		<tag k="ssr:stedsnr" v="718895" />
	</node>
	<node lat="61.77764166537004" lon="5.252044440054253" id="-48030">
		<tag k="name" v="Lindelivika" />
		<tag k="natural" v="bay" />
		<tag k="ssr:stedsnr" v="720197" />
	</node>
	<node lat="61.711933331821676" lon="5.172697219771751" id="-48031">
		<tag k="fixme" v="consider seamark:type=rock or natural=shoal" />
		<tag k="name" v="Storsteinen" />
		<tag k="place" v="islet" />
		<tag k="ssr:stedsnr" v="720701" />
	</node>
	<node lat="61.83551388480361" lon="4.953200007419339" id="-48033">
		<tag k="name" v="Torvangerflua" />
		<tag k="natural" v="shoal" />
		<tag k="place" v="locality" />
		<tag k="ssr:stedsnr" v="720787" />
	</node>
	<node lat="61.87592499900132" lon="5.218680562369208" id="-48034">
		<tag k="name" v="Hamnaholmen" />
		<tag k="place" v="islet" />
		<tag k="ssr:stedsnr" v="720796" />
	</node>
	<node lat="61.87429444875535" lon="5.2150166732640235" id="-48035">
		<tag k="name" v="Bremagrunnen" />
		<tag k="natural" v="shoal" />
		<tag k="place" v="locality" />
		<tag k="ssr:stedsnr" v="720938" />
	</node>
	<node lat="61.79636111439254" lon="4.919975000995255" id="-48037">
		<tag k="name" v="Standalsvika" />
		<tag k="natural" v="bay" />
		<tag k="ssr:stedsnr" v="721639" />
	</node>
	<node lat="61.88304294730707" lon="4.9260997847804076" id="-48038">
		<tag k="name" v="Midtvikane" />
		<tag k="natural" v="bay" />
		<tag k="ssr:stedsnr" v="721852" />
	</node>
	<node lat="61.74771944606302" lon="5.017474998270164" id="-48043">
		<tag k="name" v="Gudbrandsneset" />
		<tag k="natural" v="cape" />
		<tag k="ssr:stedsnr" v="736455" />
	</node>
	<node lat="61.74461944581173" lon="4.873891658969737" id="-48044">
		<tag k="name" v="Storeflua" />
		<tag k="natural" v="shoal" />
		<tag k="place" v="locality" />
		<tag k="ssr:stedsnr" v="736456" />
	</node>
	<node lat="61.733669443201" lon="5.146950008151947" id="-48048">
		<tag k="name" v="Sleneset" />
		<tag k="natural" v="cape" />
		<tag k="ssr:stedsnr" v="736845" />
	</node>
	<node lat="61.763705556644126" lon="5.269330562868575" id="-48053">
		<tag k="name" v="Breivika" />
		<tag k="natural" v="bay" />
		<tag k="ssr:stedsnr" v="738081" />
	</node>
	<node lat="61.86208055280226" lon="4.827511108380569" id="-48070">
		<tag k="name" v="Hengjaneset" />
		<tag k="natural" v="cape" />
		<tag k="ssr:stedsnr" v="738904" />
	</node>
	<node lat="61.926122223780865" lon="4.896991668776734" id="-48084">
		<tag k="name" v="Seiabåane" />
		<tag k="natural" v="shoal" />
		<tag k="place" v="locality" />
		<tag k="ssr:stedsnr" v="738972" />
	</node>
	<node lat="61.79681944007524" lon="4.873741665671997" id="-48088">
		<tag k="name" v="Ramsøgrøa" />
		<tag k="natural" v="bay" />
		<tag k="ssr:stedsnr" v="754731" />
	</node>
	<node lat="61.84855555548991" lon="5.7456777683635325" id="-48090">
		<tag k="name" v="Instevika" />
		<tag k="natural" v="bay" />
		<tag k="ssr:stedsnr" v="767423" />
	</node>
	<node lat="61.76730833036375" lon="4.880025004105483" id="-48100">
		<tag k="name" v="Myrnesvika" />
		<tag k="natural" v="bay" />
		<tag k="ssr:stedsnr" v="778371" />
	</node>
	<node lat="61.819655557203745" lon="5.2592138817950955" id="-48103">
		<tag k="name" v="Håvika" />
		<tag k="natural" v="bay" />
		<tag k="ssr:stedsnr" v="778514" />
	</node>
	<node lat="61.76803611271122" lon="4.845955561082334" id="-48111">
		<tag k="fixme" v="consider seamark:type=rock or natural=shoal" />
		<tag k="name" v="Sildegarnskjeret" />
		<tag k="place" v="islet" />
		<tag k="ssr:stedsnr" v="778402" />
	</node>
	<node lat="61.751808332764895" lon="4.832694439261666" id="-48120">
		<tag k="name" v="Steinholmane" />
		<tag k="place" v="islet" />
		<tag k="ssr:stedsnr" v="778485" />
	</node>
	<node lat="61.8903194417578" lon="5.236994446359455" id="-48125">
		<tag k="fixme" v="consider seamark:type=rock or natural=shoal" />
		<tag k="name" v="Sangsteinane" />
		<tag k="place" v="islet" />
		<tag k="ssr:stedsnr" v="778560" />
	</node>
	<node lat="61.88885277380256" lon="5.285961108676804" id="-48128">
		<tag k="name" v="Hellersvika" />
		<tag k="natural" v="bay" />
		<tag k="ssr:stedsnr" v="778564" />
	</node>
	<node lat="61.872911110749534" lon="5.185797220740453" id="-48130">
		<tag k="name" v="Elvaneset" />
		<tag k="natural" v="cape" />
		<tag k="ssr:stedsnr" v="778567" />
	</node>
	<node lat="61.75938333761274" lon="5.159422225052677" id="-48143">
		<tag k="name" v="Meholmen" />
		<tag k="place" v="islet" />
		<tag k="ssr:stedsnr" v="778776" />
	</node>
	<node lat="61.74351944712437" lon="5.154111112673737" id="-48148">
		<tag k="name" v="Nesavågen" />
		<tag k="natural" v="bay" />
		<tag k="ssr:stedsnr" v="778860" />
	</node>
	<node lat="61.74802777926764" lon="5.131674991092057" id="-48166">
		<tag k="name" v="Ternøyfluene" />
		<tag k="natural" v="shoal" />
		<tag k="place" v="locality" />
		<tag k="ssr:stedsnr" v="781183" />
	</node>
	<node lat="61.825363890764436" lon="4.95742777064745" id="-48167">
		<tag k="name" v="Løvikstranda" />
		<tag k="natural" v="beach" />
		<tag k="ssr:stedsnr" v="781766" />
	</node>
	<node lat="61.826766668125885" lon="5.1260499987668595" id="-48168">
		<tag k="name" v="Klittepynten" />
		<tag k="natural" v="cape" />
		<tag k="ssr:stedsnr" v="782372" />
	</node>
	<node lat="61.74032221967136" lon="4.8387888882744186" id="-48169">
		<tag k="alt_name" v="Stompeskjer-taren" />
		<tag k="name" v="Stompeskjertaren" />
		<tag k="natural" v="shoal" />
		<tag k="place" v="locality" />
		<tag k="ssr:stedsnr" v="782443" />
	</node>
	<node lat="61.83550833557149" lon="4.817455551081348" id="-48170">
		<tag k="name" v="Seilbåen" />
		<tag k="natural" v="shoal" />
		<tag k="place" v="locality" />
		<tag k="ssr:stedsnr" v="782882" />
	</node>
	<node lat="61.79521944397624" lon="4.8863194375306165" id="-48171">
		<tag k="fixme" v="consider seamark:type=rock or natural=shoal" />
		<tag k="name" v="Lakseskjeret" />
		<tag k="place" v="islet" />
		<tag k="ssr:stedsnr" v="782693" />
	</node>
	<node lat="61.758572222343346" lon="4.848008323915762" id="-48173">
		<tag k="name" v="Osane" />
		<tag k="natural" v="bay" />
		<tag k="ssr:stedsnr" v="782985" />
	</node>
	<node lat="61.70535555887564" lon="5.165805548215756" id="-48176">
		<tag k="name" v="Vindspollen" />
		<tag k="natural" v="bay" />
		<tag k="ssr:stedsnr" v="797828" />
	</node>
	<node lat="61.72267499852691" lon="5.108391665309285" id="-48181">
		<tag k="name" v="Sørgulen" />
		<tag k="natural" v="bay" />
		<tag k="ssr:stedsnr" v="797838" />
	</node>
	<node lat="61.748433336972184" lon="4.84656666678364" id="-48182">
		<tag k="name" v="Storehovden" />
		<tag k="place" v="islet" />
		<tag k="ssr:stedsnr" v="797479" />
	</node>
	<node lat="61.896350004095666" lon="5.275972217222969" id="-48191">
		<tag k="alt_name" v="Nordfjorden" />
		<tag k="bay" v="fjord" />
		<tag k="name" v="Nordfjord" />
		<tag k="natural" v="bay" />
		<tag k="ssr:stedsnr" v="799219" />
	</node>
	<node lat="61.85485833515874" lon="4.818791674279941" id="-48192">
		<tag k="name" v="Olderveggen" />
		<tag k="natural" v="cape" />
		<tag k="ssr:stedsnr" v="798864" />
	</node>
	<node lat="61.77567221801942" lon="5.239549997397621" id="-48197">
		<tag k="name" v="Brynneset" />
		<tag k="natural" v="cape" />
		<tag k="ssr:stedsnr" v="799088" />
	</node>
	<node lat="61.79321111517867" lon="5.0295249915426075" id="-48213">
		<tag k="alt_name" v="Holmen" />
		<tag k="name" v="Rylandsholmen" />
		<tag k="place" v="islet" />
		<tag k="ssr:stedsnr" v="799848" />
	</node>
	<node lat="61.786822224813704" lon="4.931472220557726" id="-48215">
		<tag k="name" v="Trongesundet" />
		<tag k="natural" v="strait" />
		<tag k="ssr:stedsnr" v="799855" />
	</node>
	<node lat="61.897611115173504" lon="5.549319451023703" id="-48218">
		<tag k="fixme" v="consider seamark:type=rock or natural=shoal" />
		<tag k="name" v="Daven" />
		<tag k="place" v="islet" />
		<tag k="ssr:stedsnr" v="809535" />
	</node>
	<node lat="61.781099997622086" lon="4.901708335123204" id="-48220">
		<tag k="name" v="Oldersundet" />
		<tag k="natural" v="strait" />
		<tag k="ssr:stedsnr" v="815719" />
	</node>
	<node lat="61.80728055968112" lon="4.850975003481228" id="-48222">
		<tag k="name" v="Kviteneset" />
		<tag k="natural" v="cape" />
		<tag k="ssr:stedsnr" v="839044" />
	</node>
	<node lat="61.848958330164166" lon="5.358902781391815" id="-48230">
		<tag k="name" v="Skrubben" />
		<tag k="natural" v="cape" />
		<tag k="ssr:stedsnr" v="839367" />
	</node>
	<node lat="61.751149998811115" lon="4.827250009286536" id="-48236">
		<tag k="name" v="Litle Verøyna" />
		<tag k="place" v="islet" />
		<tag k="ssr:stedsnr" v="839494" />
	</node>
	<node lat="61.90684999626732" lon="5.504025000715758" id="-48237">
		<tag k="name" v="Ugleneset" />
		<tag k="natural" v="cape" />
		<tag k="ssr:stedsnr" v="839602" />
	</node>
	<node lat="61.762708335501834" lon="5.224286114387469" id="-48241">
		<tag k="name" v="Eikelandsneset" />
		<tag k="natural" v="cape" />
		<tag k="ssr:stedsnr" v="839776" />
	</node>
	<node lat="61.84522222521521" lon="5.7274555520941695" id="-48249">
		<tag k="name" v="Kuvika" />
		<tag k="natural" v="bay" />
		<tag k="ssr:stedsnr" v="839758" />
	</node>
	<node lat="61.72932222430327" lon="4.983105554823741" id="-48252">
		<tag k="alt_name" v="Sletteneset" />
		<tag k="name" v="Slettneset" />
		<tag k="natural" v="cape" />
		<tag k="ssr:stedsnr" v="839965" />
	</node>
	<node lat="61.74323055316483" lon="5.148383325594188" id="-48257">
		<tag k="name" v="Kovevika" />
		<tag k="natural" v="bay" />
		<tag k="ssr:stedsnr" v="839838" />
	</node>
	<node lat="61.736177779978405" lon="5.190241669396479" id="-48258">
		<tag k="name" v="Hesteberget" />
		<tag k="natural" v="cape" />
		<tag k="ssr:stedsnr" v="839847" />
	</node>
	<node lat="61.73759722214391" lon="5.173377782534924" id="-48259">
		<tag k="name" v="Sandvika" />
		<tag k="natural" v="bay" />
		<tag k="ssr:stedsnr" v="839854" />
	</node>
	<node lat="61.72951944326091" lon="5.103741673765271" id="-48260">
		<tag k="name" v="Stegvika" />
		<tag k="natural" v="bay" />
		<tag k="ssr:stedsnr" v="839860" />
	</node>
	<node lat="61.731149998028506" lon="5.209886108498975" id="-48263">
		<tag k="name" v="Skåtevika" />
		<tag k="natural" v="bay" />
		<tag k="ssr:stedsnr" v="839874" />
	</node>
	<node lat="61.82636110839837" lon="4.959430563325499" id="-48274">
		<tag k="name" v="Løvika" />
		<tag k="natural" v="bay" />
		<tag k="ssr:stedsnr" v="840365" />
	</node>
	<node lat="61.792527773159144" lon="4.946213880427377" id="-48285">
		<tag k="fixme" v="consider seamark:type=rock or natural=shoal" />
		<tag k="name" v="Skarveskjeret" />
		<tag k="place" v="islet" />
		<tag k="ssr:stedsnr" v="842523" />
	</node>
	<node lat="61.721547225684056" lon="5.200352773880158" id="-48286">
		<tag k="name" v="Klubben" />
		<tag k="natural" v="cape" />
		<tag k="ssr:stedsnr" v="842697" />
	</node>
	<node lat="61.888016667946864" lon="4.919361106284028" id="-48287">
		<tag k="name" v="Nørevikane" />
		<tag k="natural" v="bay" />
		<tag k="ssr:stedsnr" v="842868" />
	</node>
	<node lat="61.76987777438676" lon="5.150822214204551" id="-48288">
		<tag k="name" v="Furubakksvika" />
		<tag k="natural" v="bay" />
		<tag k="ssr:stedsnr" v="842165" />
	</node>
	<node lat="61.76797500262697" lon="4.934005559904867" id="-48289">
		<tag k="name" v="Otraholet" />
		<tag k="natural" v="bay" />
		<tag k="ssr:stedsnr" v="842569" />
	</node>
	<node lat="61.754513886635884" lon="4.875850001760164" id="-48290">
		<tag k="name" v="Litleflua" />
		<tag k="natural" v="shoal" />
		<tag k="place" v="locality" />
		<tag k="ssr:stedsnr" v="842812" />
	</node>
	<node lat="61.89082222540426" lon="4.70493055068742" id="-48292">
		<tag k="name" v="Sigurdskallen" />
		<tag k="natural" v="shoal" />
		<tag k="place" v="locality" />
		<tag k="ssr:stedsnr" v="843000" />
	</node>
	<node lat="61.87379444596175" lon="5.3139916609856" id="-48293">
		<tag k="name" v="Nordre Kollsetegrunnen" />
		<tag k="natural" v="shoal" />
		<tag k="place" v="locality" />
		<tag k="ssr:stedsnr" v="843012" />
	</node>
	<node lat="61.768283334806945" lon="4.909563890988157" id="-48294">
		<tag k="fixme" v="consider seamark:type=rock or natural=shoal" />
		<tag k="name" v="Bratteskjera" />
		<tag k="place" v="islet" />
		<tag k="ssr:stedsnr" v="843759" />
	</node>
	<node lat="61.84778888664725" lon="4.882272223683721" id="-48295">
		<tag k="name" v="Grottesvika" />
		<tag k="natural" v="bay" />
		<tag k="ssr:stedsnr" v="843903" />
	</node>
	<node lat="61.844875004563825" lon="4.8586944524339515" id="-48296">
		<tag k="name" v="Vissholmsundet" />
		<tag k="natural" v="strait" />
		<tag k="ssr:stedsnr" v="843907" />
	</node>
	<node lat="61.81799153408207" lon="5.656741601475007" id="-48304">
		<tag k="name" v="Førdspollen" />
		<tag k="natural" v="bay" />
		<tag k="ssr:stedsnr" v="859286" />
	</node>
	<node lat="61.85270833347815" lon="5.7763638889911775" id="-48309">
		<tag k="name" v="Hjeltneset" />
		<tag k="natural" v="cape" />
		<tag k="ssr:stedsnr" v="859329" />
	</node>
	<node lat="61.75704722344286" lon="4.814408330883063" id="-48313">
		<tag k="name" v="Nigardsøyna" />
		<tag k="place" v="island" />
		<tag k="ssr:stedsnr" v="859840" />
	</node>
	<node lat="61.87914444075844" lon="4.890166663251011" id="-48317">
		<tag k="name" v="Kasseneset" />
		<tag k="natural" v="cape" />
		<tag k="ssr:stedsnr" v="859990" />
	</node>
	<node lat="61.82166944808065" lon="5.275041669508903" id="-48318">
		<tag k="alt_name" v="Fureneset" />
		<tag k="name" v="Fura" />
		<tag k="natural" v="cape" />
		<tag k="ssr:stedsnr" v="860133" />
	</node>
	<node lat="61.83210833190977" lon="5.296472221622169" id="-48319">
		<tag k="name" v="Vingeneset" />
		<tag k="natural" v="cape" />
		<tag k="ssr:stedsnr" v="860145" />
	</node>
	<node lat="61.87709444849213" lon="5.740094447622964" id="-48326">
		<tag k="bay" v="fjord" />
		<tag k="name" v="Isefjorden" />
		<tag k="natural" v="bay" />
		<tag k="ssr:stedsnr" v="860438" />
	</node>
	<node lat="61.786202687271675" lon="4.915970007709149" id="-48335">
		<tag k="fixme" v="multiple name tags, choose one and add the other to alt_name" />
		<tag k="name" v="Teistholmen;Tveholmen" />
		<tag k="place" v="islet" />
		<tag k="ssr:stedsnr" v="860854" />
	</node>
	<node lat="61.80583888648657" lon="4.865744453425401" id="-48338">
		<tag k="name" v="Sjyneset" />
		<tag k="natural" v="cape" />
		<tag k="ssr:stedsnr" v="860944" />
	</node>
	<node lat="61.80005833480792" lon="4.868405552944185" id="-48344">
		<tag k="name" v="Holmetaren" />
		<tag k="natural" v="shoal" />
		<tag k="place" v="locality" />
		<tag k="ssr:stedsnr" v="936707" />
	</node>
	<node lat="61.811958331243886" lon="4.846144437006089" id="-48348">
		<tag k="fixme" v="consider seamark:type=rock or natural=shoal" />
		<tag k="name" v="Skjertåa" />
		<tag k="place" v="islet" />
		<tag k="ssr:stedsnr" v="960043" />
	</node>
	<node lat="61.79594166972961" lon="4.877433324170509" id="-48353">
		<tag k="name" v="Breivika" />
		<tag k="natural" v="bay" />
		<tag k="ssr:stedsnr" v="960025" />
	</node>
	<node lat="61.76297222148016" lon="4.845833341749297" id="-48368">
		<tag k="name" v="Tobbeneset" />
		<tag k="natural" v="cape" />
		<tag k="ssr:stedsnr" v="960401" />
	</node>
	<node lat="61.779955555367025" lon="4.928469450980668" id="-48369">
		<tag k="name" v="Sildegarnneset" />
		<tag k="natural" v="cape" />
		<tag k="ssr:stedsnr" v="960430" />
	</node>
	<node lat="61.811880555543084" lon="5.2089388904531795" id="-48370">
		<tag k="name" v="Holmen" />
		<tag k="place" v="islet" />
		<tag k="ssr:stedsnr" v="960517" />
	</node>
	<node lat="61.8168249963039" lon="5.197419440285329" id="-48371">
		<tag k="name" v="Inste Hennøyholmen" />
		<tag k="place" v="islet" />
		<tag k="ssr:stedsnr" v="960519" />
	</node>
	<node lat="61.810213891019316" lon="5.202080546739306" id="-48373">
		<tag k="name" v="Langeneset" />
		<tag k="natural" v="cape" />
		<tag k="ssr:stedsnr" v="960526" />
	</node>
	<node lat="61.84122499931621" lon="5.148511106819516" id="-48376">
		<tag k="name" v="Langeneset" />
		<tag k="natural" v="cape" />
		<tag k="ssr:stedsnr" v="960613" />
	</node>
	<node lat="61.754400001163454" lon="4.816308338552465" id="-48377">
		<tag k="name" v="Belgetoten" />
		<tag k="natural" v="cape" />
		<tag k="ssr:stedsnr" v="960479" />
	</node>
	<node lat="61.86518055415524" lon="5.24699444935758" id="-48379">
		<tag k="name" v="Furnesvika" />
		<tag k="natural" v="bay" />
		<tag k="ssr:stedsnr" v="960558" />
	</node>
	<node lat="61.88513611493106" lon="5.223841658381733" id="-48384">
		<tag k="name" v="Skorpepollen" />
		<tag k="natural" v="bay" />
		<tag k="ssr:stedsnr" v="960577" />
	</node>
	<node lat="61.90668888843207" lon="5.46528332503273" id="-48385">
		<tag k="name" v="Botnen" />
		<tag k="natural" v="beach" />
		<tag k="ssr:stedsnr" v="960580" />
	</node>
	<node lat="61.81388333583892" lon="4.9029638911220506" id="-48390">
		<tag k="name" v="Korsvika" />
		<tag k="natural" v="bay" />
		<tag k="ssr:stedsnr" v="961022" />
	</node>
	<node lat="61.77259166360905" lon="5.163149993243966" id="-48394">
		<tag k="name" v="Klubbeneset" />
		<tag k="natural" v="cape" />
		<tag k="ssr:stedsnr" v="960770" />
	</node>
	<node lat="61.73518055887983" lon="5.162055555141379" id="-48398">
		<tag k="name" v="Fureneset" />
		<tag k="natural" v="cape" />
		<tag k="ssr:stedsnr" v="960844" />
	</node>
	<node lat="61.738555554022625" lon="5.151341665473021" id="-48399">
		<tag k="name" v="Nesodden" />
		<tag k="natural" v="cape" />
		<tag k="ssr:stedsnr" v="960849" />
	</node>
	<node lat="61.7286416698231" lon="5.103958324603241" id="-48401">
		<tag k="alt_name" v="Stegen" />
		<tag k="name" v="Stegneset" />
		<tag k="natural" v="cape" />
		<tag k="ssr:stedsnr" v="960852" />
	</node>
	<node lat="61.72416111110874" lon="4.978461114880777" id="-48410">
		<tag k="name" v="Sørbottenvika" />
		<tag k="natural" v="bay" />
		<tag k="ssr:stedsnr" v="960964" />
	</node>
	<node lat="61.88331388605494" lon="5.112338895928949" id="-48418">
		<tag k="name" v="Vestre Bjørnøytangen" />
		<tag k="natural" v="cape" />
		<tag k="ssr:stedsnr" v="961663" />
	</node>
	<node lat="61.89220832947242" lon="5.215086114144523" id="-48420">
		<tag k="name" v="Skorpeflua" />
		<tag k="natural" v="shoal" />
		<tag k="place" v="locality" />
		<tag k="ssr:stedsnr" v="963820" />
	</node>
	<node lat="61.74431388466024" lon="5.0993444370267795" id="-48421">
		<tag k="name" v="Stegevika" />
		<tag k="natural" v="bay" />
		<tag k="ssr:stedsnr" v="963824" />
	</node>
	<node lat="61.838566667987244" lon="4.99014722133833" id="-48424">
		<tag k="name" v="Struenhamn" />
		<tag k="natural" v="bay" />
		<tag k="ssr:stedsnr" v="963778" />
	</node>
	<node lat="61.74332222021397" lon="4.720236103300218" id="-48425">
		<tag k="name" v="Grunneflua" />
		<tag k="natural" v="shoal" />
		<tag k="place" v="locality" />
		<tag k="ssr:stedsnr" v="964920" />
	</node>
	<node lat="61.79002942602535" lon="4.909278984819883" id="-48447">
		<tag k="name" v="Kjerøysundet" />
		<tag k="natural" v="strait" />
		<tag k="ssr:stedsnr" v="1073017" />
	</node>
	<node lat="61.877216759381525" lon="5.316207673028613" id="-48451">
		<tag k="name" v="Rugsundet" />
		<tag k="natural" v="strait" />
		<tag k="ssr:stedsnr" v="1073110" />
	</node>
	<node lat="61.78729971745456" lon="4.895726008368841" id="-48469">
		<tag k="name" v="Olderøyane" />
		<tag k="place" v="island" />
		<tag k="ssr:stedsnr" v="1072966" />
	</node>
	<node lat="61.779466853993" lon="4.80078175220083" id="-48470">
		<tag k="fixme" v="consider seamark:type=rock or natural=shoal" />
		<tag k="name" v="Flatskjera" />
		<tag k="place" v="islet" />
		<tag k="ssr:stedsnr" v="1073366" />
	</node>
	<node lat="61.80175156129446" lon="4.796569183272521" id="-48471">
		<tag k="name" v="Hovmannsflua" />
		<tag k="natural" v="shoal" />
		<tag k="place" v="locality" />
		<tag k="ssr:stedsnr" v="1073369" />
	</node>
	<node lat="61.810938512131685" lon="4.843698392804309" id="-48472">
		<tag k="name" v="Nesjepynten" />
		<tag k="natural" v="cape" />
		<tag k="ssr:stedsnr" v="1073409" />
	</node>
	<node lat="61.83707125690557" lon="4.94096620907635" id="-48473">
		<tag k="name" v="Iglandsvika" />
		<tag k="natural" v="bay" />
		<tag k="ssr:stedsnr" v="1073410" />
	</node>
	<node lat="61.751917372904416" lon="5.14291340265295" id="-48475">
		<tag k="name" v="Ternøyane" />
		<tag k="place" v="island" />
		<tag k="ssr:stedsnr" v="1073445" />
	</node>
</osm>
