<?xml version="1.0" encoding="UTF-8"?>
<osm version="0.6" generator="osmapis">
	<node lat="61.71268889220818" lon="4.993458326689489" id="-33718">
		<tag k="fixme" v="consider natural=peak for the most distinct mountains in the district" />
		<tag k="name" v="Knoltrane" />
		<tag k="natural" v="hill" />
		<tag k="place" v="locality" />
		<tag k="ssr:stedsnr" v="8053" />
	</node>
	<node lat="61.7405888900982" lon="5.020522228597679" id="-33721">
		<tag k="name" v="Knoltren" />
		<tag k="natural" v="hill" />
		<tag k="place" v="locality" />
		<tag k="ssr:stedsnr" v="8490" />
	</node>
	<node lat="61.72627222436123" lon="5.319083331835174" id="-33722">
		<tag k="fixme" v="consider natural=peak for the most distinct mountains in the district" />
		<tag k="name" v="Rikeloftet" />
		<tag k="natural" v="hill" />
		<tag k="place" v="locality" />
		<tag k="ssr:stedsnr" v="8850" />
	</node>
	<node lat="61.732869445835256" lon="5.327466674380282" id="-33723">
		<tag k="name" v="Staveskaret" />
		<tag k="natural" v="valley" />
		<tag k="place" v="locality" />
		<tag k="ssr:stedsnr" v="8852" />
	</node>
	<node lat="61.73474999766685" lon="5.0946222284052585" id="-33724">
		<tag k="fixme" v="consider natural=peak for the most distinct mountains in the district" />
		<tag k="name" v="Rognen" />
		<tag k="natural" v="hill" />
		<tag k="place" v="locality" />
		<tag k="ssr:stedsnr" v="8800" />
	</node>
	<node lat="61.806716670703146" lon="5.268783323534133" id="-33725">
		<tag k="fixme" v="consider natural=peak for the most distinct mountains in the district" />
		<tag k="name" v="Urdalsegga" />
		<tag k="natural" v="hill" />
		<tag k="place" v="locality" />
		<tag k="ssr:stedsnr" v="10101" />
	</node>
	<node lat="61.89941944436047" lon="5.3749527691354295" id="-33729">
		<tag k="name" v="Geitebrua" />
		<tag k="natural" v="hill" />
		<tag k="place" v="locality" />
		<tag k="ssr:stedsnr" v="10212" />
	</node>
	<node lat="61.825394442386646" lon="5.52077500530475" id="-33730">
		<tag k="fixme" v="consider natural=peak for the most distinct mountains in the district" />
		<tag k="name" v="Huaren" />
		<tag k="natural" v="hill" />
		<tag k="place" v="locality" />
		<tag k="ssr:stedsnr" v="10301" />
	</node>
	<node lat="61.8627333336093" lon="5.658733328860541" id="-33733">
		<tag k="fixme" v="consider natural=peak for the most distinct mountains in the district" />
		<tag k="name" v="Kvasshornet" />
		<tag k="natural" v="hill" />
		<tag k="place" v="locality" />
		<tag k="ssr:stedsnr" v="10328" />
	</node>
	<node lat="61.84986666770103" lon="5.661333331341626" id="-33734">
		<tag k="fixme" v="consider natural=peak for the most distinct mountains in the district" />
		<tag k="name" v="Skavlen" />
		<tag k="natural" v="hill" />
		<tag k="place" v="locality" />
		<tag k="ssr:stedsnr" v="10335" />
	</node>
	<node lat="61.6778611082758" lon="5.295272226814581" id="-33736">
		<tag k="name" v="Handkledalen" />
		<tag k="natural" v="valley" />
		<tag k="place" v="locality" />
		<tag k="ssr:stedsnr" v="10801" />
	</node>
	<node lat="61.79597222502716" lon="5.00022500228787" id="-33737">
		<tag k="fixme" v="consider natural=peak for the most distinct mountains in the district" />
		<tag k="name" v="Geitanipa" />
		<tag k="natural" v="hill" />
		<tag k="place" v="locality" />
		<tag k="ssr:stedsnr" v="10835" />
	</node>
	<node lat="61.85629838341262" lon="4.835137566170832" id="-33740">
		<tag k="alt_name" v="Brattfjellet" />
		<tag k="fixme" v="consider natural=peak for the most distinct mountains in the district" />
		<tag k="name" v="Brattefjellet" />
		<tag k="natural" v="hill" />
		<tag k="place" v="locality" />
		<tag k="ssr:stedsnr" v="10897" />
	</node>
	<node lat="61.86686666250957" lon="4.962361115467162" id="-33741">
		<tag k="fixme" v="consider natural=peak for the most distinct mountains in the district" />
		<tag k="name" v="Tunga" />
		<tag k="natural" v="hill" />
		<tag k="place" v="locality" />
		<tag k="ssr:stedsnr" v="10900" />
	</node>
	<node lat="61.87586666739735" lon="4.902872214282613" id="-33745">
		<tag k="fixme" v="consider natural=peak for the most distinct mountains in the district" />
		<tag k="name" v="Nonsfjellet" />
		<tag k="natural" v="hill" />
		<tag k="place" v="locality" />
		<tag k="ssr:stedsnr" v="10991" />
	</node>
	<node lat="61.87825833336373" lon="4.950158333310415" id="-33746">
		<tag k="name" v="Karihaugen" />
		<tag k="natural" v="hill" />
		<tag k="place" v="locality" />
		<tag k="ssr:stedsnr" v="10992" />
	</node>
	<node lat="61.8040861071732" lon="4.864469441319213" id="-33747">
		<tag k="name" v="Stroka" />
		<tag k="natural" v="valley" />
		<tag k="place" v="locality" />
		<tag k="ssr:stedsnr" v="232026" />
	</node>
	<node lat="61.81296111438408" lon="5.640311109648705" id="-33748">
		<tag k="name" v="Kastet" />
		<tag k="place" v="locality" />
		<tag k="ssr:stedsnr" v="232123" />
	</node>
	<node lat="61.83848333251424" lon="5.543936106914385" id="-33749">
		<tag k="name" v="Dalsetebakkane" />
		<tag k="natural" v="slope" />
		<tag k="place" v="locality" />
		<tag k="ssr:stedsnr" v="232158" />
	</node>
	<node lat="61.84046388585596" lon="5.588422224631034" id="-33750">
		<tag k="name" v="Korshylla" />
		<tag k="place" v="locality" />
		<tag k="ssr:stedsnr" v="232164" />
	</node>
	<node lat="61.80642778147948" lon="5.526549991940367" id="-33751">
		<tag k="name" v="Urberget" />
		<tag k="natural" v="hill" />
		<tag k="place" v="locality" />
		<tag k="ssr:stedsnr" v="232176" />
	</node>
	<node lat="61.832966669621115" lon="5.651141666179792" id="-33753">
		<tag k="name" v="Kvilet" />
		<tag k="natural" v="hill" />
		<tag k="place" v="locality" />
		<tag k="ssr:stedsnr" v="232227" />
	</node>
	<node lat="61.87050833708785" lon="4.973591675044838" id="-33754">
		<tag k="name" v="Rabben" />
		<tag k="natural" v="ridge" />
		<tag k="place" v="locality" />
		<tag k="ssr:stedsnr" v="232298" />
	</node>
	<node lat="61.84576666398244" lon="4.998772217336931" id="-33755">
		<tag k="fixme" v="consider natural=peak for the most distinct mountains in the district" />
		<tag k="name" v="Risefjellet" />
		<tag k="natural" v="hill" />
		<tag k="place" v="locality" />
		<tag k="ssr:stedsnr" v="232243" />
	</node>
	<node lat="61.85031667047508" lon="4.979147216413832" id="-33756">
		<tag k="name" v="Bakkane" />
		<tag k="natural" v="slope" />
		<tag k="place" v="locality" />
		<tag k="ssr:stedsnr" v="232244" />
	</node>
	<node lat="61.853491665957215" lon="5.397205556767507" id="-33757">
		<tag k="name" v="Vassdalen" />
		<tag k="natural" v="valley" />
		<tag k="place" v="locality" />
		<tag k="ssr:stedsnr" v="232271" />
	</node>
	<node lat="61.852116670783644" lon="5.350055557865706" id="-33760">
		<tag k="name" v="Setredalen" />
		<tag k="natural" v="valley" />
		<tag k="place" v="locality" />
		<tag k="ssr:stedsnr" v="232347" />
	</node>
	<node lat="61.75996666756546" lon="4.84986945094684" id="-33764">
		<tag k="name" v="Kvannefjellet" />
		<tag k="natural" v="hill" />
		<tag k="place" v="locality" />
		<tag k="ssr:stedsnr" v="232372" />
	</node>
	<node lat="61.9008999965713" lon="5.489502772168999" id="-33765">
		<tag k="name" v="Ospehogen" />
		<tag k="natural" v="hill" />
		<tag k="place" v="locality" />
		<tag k="ssr:stedsnr" v="232524" />
	</node>
	<node lat="61.87047499663385" lon="5.190788886562229" id="-33767">
		<tag k="name" v="Saltkjergjølet" />
		<tag k="natural" v="valley" />
		<tag k="place" v="locality" />
		<tag k="ssr:stedsnr" v="232527" />
	</node>
	<node lat="61.875827781553355" lon="5.350422223929512" id="-33770">
		<tag k="name" v="Olsbønipa" />
		<tag k="natural" v="ridge" />
		<tag k="place" v="locality" />
		<tag k="ssr:stedsnr" v="232409" />
	</node>
	<node lat="61.865938886251804" lon="5.343372225653001" id="-33771">
		<tag k="name" v="Sandrabben" />
		<tag k="natural" v="slope" />
		<tag k="place" v="locality" />
		<tag k="ssr:stedsnr" v="232420" />
	</node>
	<node lat="61.81293888497031" lon="5.24163333165897" id="-33775">
		<tag k="name" v="Skjørosten" />
		<tag k="natural" v="slope" />
		<tag k="place" v="locality" />
		<tag k="ssr:stedsnr" v="232469" />
	</node>
	<node lat="61.837694440551644" lon="5.084558325971549" id="-33778">
		<tag k="name" v="Ramneskora" />
		<tag k="natural" v="hill" />
		<tag k="place" v="locality" />
		<tag k="ssr:stedsnr" v="232550" />
	</node>
	<node lat="61.831255558715746" lon="5.180066665211228" id="-33782">
		<tag k="alt_name" v="Flæa" />
		<tag k="name" v="Flæberga" />
		<tag k="natural" v="hill" />
		<tag k="place" v="locality" />
		<tag k="ssr:stedsnr" v="232570" />
	</node>
	<node lat="61.75058611256792" lon="5.229041675084789" id="-33784">
		<tag k="name" v="Heiabrua" />
		<tag k="natural" v="slope" />
		<tag k="place" v="locality" />
		<tag k="ssr:stedsnr" v="232749" />
	</node>
	<node lat="61.74811666812985" lon="5.255724995009652" id="-33785">
		<tag k="name" v="Heia" />
		<tag k="natural" v="hill" />
		<tag k="place" v="locality" />
		<tag k="ssr:stedsnr" v="232752" />
	</node>
	<node lat="61.756155553166444" lon="5.220808325295942" id="-33786">
		<tag k="name" v="Dyrenosa" />
		<tag k="place" v="locality" />
		<tag k="ssr:stedsnr" v="232754" />
	</node>
	<node lat="61.71891944612388" lon="5.18032221421328" id="-33791">
		<tag k="name" v="Skjerva" />
		<tag k="natural" v="ridge" />
		<tag k="place" v="locality" />
		<tag k="ssr:stedsnr" v="232901" />
	</node>
	<node lat="61.74968889143798" lon="5.035591660930974" id="-33792">
		<tag k="name" v="Nipene" />
		<tag k="natural" v="hill" />
		<tag k="place" v="locality" />
		<tag k="ssr:stedsnr" v="232921" />
	</node>
	<node lat="61.78809444581917" lon="5.347616662362838" id="-33797">
		<tag k="name" v="Rabbane" />
		<tag k="natural" v="slope" />
		<tag k="place" v="locality" />
		<tag k="ssr:stedsnr" v="232964" />
	</node>
	<node lat="61.713455553412764" lon="4.98214166554295" id="-33799">
		<tag k="name" v="Heia" />
		<tag k="natural" v="hill" />
		<tag k="place" v="locality" />
		<tag k="ssr:stedsnr" v="232971" />
	</node>
	<node lat="61.75041111463304" lon="5.307913881268055" id="-33800">
		<tag k="name" v="Hillerskora" />
		<tag k="natural" v="slope" />
		<tag k="place" v="locality" />
		<tag k="ssr:stedsnr" v="233027" />
	</node>
	<node lat="61.86558055285391" lon="5.108552775528009" id="-33803">
		<tag k="name" v="Hestedalen" />
		<tag k="natural" v="valley" />
		<tag k="place" v="locality" />
		<tag k="ssr:stedsnr" v="233678" />
	</node>
	<node lat="61.78215000070783" lon="5.267669435845873" id="-33804">
		<tag k="name" v="Framstevikegga" />
		<tag k="place" v="locality" />
		<tag k="ssr:stedsnr" v="233806" />
	</node>
	<node lat="61.84064999661396" lon="5.593800003593967" id="-33809">
		<tag k="name" v="Bjørkebakken" />
		<tag k="natural" v="slope" />
		<tag k="place" v="locality" />
		<tag k="ssr:stedsnr" v="50168" />
	</node>
	<node lat="61.78970555857169" lon="4.878486115538464" id="-33810">
		<tag k="name" v="Storemyrbakkane" />
		<tag k="natural" v="slope" />
		<tag k="place" v="locality" />
		<tag k="ssr:stedsnr" v="50023" />
	</node>
	<node lat="61.83625278102414" lon="5.630024992227872" id="-33812">
		<tag k="name" v="Halvfareberget" />
		<tag k="natural" v="hill" />
		<tag k="place" v="locality" />
		<tag k="ssr:stedsnr" v="50215" />
	</node>
	<node lat="61.85343333429711" lon="4.98428055079095" id="-33814">
		<tag k="name" v="Kromstadhaugane" />
		<tag k="natural" v="hill" />
		<tag k="place" v="locality" />
		<tag k="ssr:stedsnr" v="50304" />
	</node>
	<node lat="61.849741665036376" lon="5.467194448008766" id="-33819">
		<tag k="name" v="Bjørnaskorenden" />
		<tag k="place" v="locality" />
		<tag k="ssr:stedsnr" v="50320" />
	</node>
	<node lat="61.7651861127542" lon="4.865766667822598" id="-33823">
		<tag k="name" v="Kvernhushaugen" />
		<tag k="natural" v="hill" />
		<tag k="place" v="locality" />
		<tag k="ssr:stedsnr" v="50383" />
	</node>
	<node lat="61.760024998481384" lon="4.863786102147455" id="-33824">
		<tag k="name" v="Sveene" />
		<tag k="natural" v="hill" />
		<tag k="place" v="locality" />
		<tag k="ssr:stedsnr" v="50385" />
	</node>
	<node lat="61.84257777465253" lon="5.0798472143471605" id="-33829">
		<tag k="name" v="Vassnakken" />
		<tag k="natural" v="hill" />
		<tag k="place" v="locality" />
		<tag k="ssr:stedsnr" v="50607" />
	</node>
	<node lat="61.90698332928302" lon="5.405436106258186" id="-33831">
		<tag k="name" v="Elvaåsen" />
		<tag k="natural" v="slope" />
		<tag k="place" v="locality" />
		<tag k="ssr:stedsnr" v="50571" />
	</node>
	<node lat="61.76543888763924" lon="5.104166658979403" id="-33833">
		<tag k="fixme" v="consider natural=peak for the most distinct mountains in the district" />
		<tag k="name" v="Løypedalhammaren" />
		<tag k="natural" v="hill" />
		<tag k="place" v="locality" />
		<tag k="ssr:stedsnr" v="50782" />
	</node>
	<node lat="61.70784722393399" lon="5.1958916609064545" id="-33834">
		<tag k="fixme" v="consider natural=peak for the most distinct mountains in the district" />
		<tag k="name" v="Bjørnaskarnakken" />
		<tag k="natural" v="hill" />
		<tag k="place" v="locality" />
		<tag k="ssr:stedsnr" v="50903" />
	</node>
	<node lat="61.705452779026345" lon="5.246147223031288" id="-33836">
		<tag k="name" v="Ramskred" />
		<tag k="natural" v="valley" />
		<tag k="place" v="locality" />
		<tag k="ssr:stedsnr" v="50913" />
	</node>
	<node lat="61.71787778048609" lon="5.245727773266319" id="-33837">
		<tag k="name" v="Dauremålet" />
		<tag k="natural" v="hill" />
		<tag k="place" v="locality" />
		<tag k="ssr:stedsnr" v="50915" />
	</node>
	<node lat="61.733372224023185" lon="5.096452784971788" id="-33838">
		<tag k="name" v="Såta" />
		<tag k="natural" v="hill" />
		<tag k="place" v="locality" />
		<tag k="ssr:stedsnr" v="50868" />
	</node>
	<node lat="61.73600833203369" lon="5.2822638982764065" id="-33842">
		<tag k="name" v="Høgaksla" />
		<tag k="place" v="locality" />
		<tag k="ssr:stedsnr" v="50882" />
	</node>
	<node lat="61.7481555595497" lon="5.273649998996942" id="-33845">
		<tag k="name" v="Svartehamrane" />
		<tag k="natural" v="slope" />
		<tag k="place" v="locality" />
		<tag k="ssr:stedsnr" v="51021" />
	</node>
	<node lat="61.72602777665403" lon="5.0006027722701365" id="-33846">
		<tag k="name" v="Skorebakkane" />
		<tag k="natural" v="slope" />
		<tag k="place" v="locality" />
		<tag k="ssr:stedsnr" v="50972" />
	</node>
	<node lat="61.71137499591161" lon="5.0255694515431015" id="-33848">
		<tag k="name" v="Hornbakkane" />
		<tag k="natural" v="slope" />
		<tag k="place" v="locality" />
		<tag k="ssr:stedsnr" v="50977" />
	</node>
	<node lat="61.71098611102428" lon="5.044547228732555" id="-33849">
		<tag k="name" v="Kvanngrø" />
		<tag k="natural" v="slope" />
		<tag k="place" v="locality" />
		<tag k="ssr:stedsnr" v="50980" />
	</node>
	<node lat="61.90763055615204" lon="4.943794446510554" id="-33851">
		<tag k="name" v="Smellen" />
		<tag k="natural" v="valley" />
		<tag k="place" v="locality" />
		<tag k="ssr:stedsnr" v="51126" />
	</node>
	<node lat="61.81861389137903" lon="5.000597215262867" id="-33852">
		<tag k="name" v="Høbøhaugen" />
		<tag k="natural" v="hill" />
		<tag k="place" v="locality" />
		<tag k="ssr:stedsnr" v="51408" />
	</node>
	<node lat="61.707300001332044" lon="5.1357805622734976" id="-33867">
		<tag k="fixme" v="consider natural=peak for the most distinct mountains in the district" />
		<tag k="name" v="Mulliegga" />
		<tag k="natural" v="hill" />
		<tag k="place" v="locality" />
		<tag k="ssr:stedsnr" v="69841" />
	</node>
	<node lat="61.80610555351816" lon="5.495080548568274" id="-33871">
		<tag k="fixme" v="consider natural=peak for the most distinct mountains in the district" />
		<tag k="name" v="Fessebakkane" />
		<tag k="natural" v="hill" />
		<tag k="place" v="locality" />
		<tag k="ssr:stedsnr" v="70303" />
	</node>
	<node lat="61.80406111470109" lon="5.603249996097921" id="-33872">
		<tag k="name" v="Botnen" />
		<tag k="natural" v="valley" />
		<tag k="place" v="locality" />
		<tag k="ssr:stedsnr" v="70304" />
	</node>
	<node lat="61.79142777891275" lon="5.279788890866309" id="-33877">
		<tag k="fixme" v="consider natural=peak for the most distinct mountains in the district" />
		<tag k="name" v="Botnaegga" />
		<tag k="natural" v="hill" />
		<tag k="place" v="locality" />
		<tag k="ssr:stedsnr" v="71078" />
	</node>
	<node lat="61.84978889210652" lon="5.128141662080464" id="-33878">
		<tag k="fixme" v="consider natural=peak for the most distinct mountains in the district" />
		<tag k="name" v="Kammen" />
		<tag k="natural" v="hill" />
		<tag k="place" v="locality" />
		<tag k="ssr:stedsnr" v="71175" />
	</node>
	<node lat="61.87360555562317" lon="5.420130560715744" id="-33880">
		<tag k="name" v="Blåfjellsenden" />
		<tag k="natural" v="hill" />
		<tag k="place" v="locality" />
		<tag k="ssr:stedsnr" v="71185" />
	</node>
	<node lat="61.858780555885" lon="5.121238895079111" id="-33881">
		<tag k="name" v="Smådalane" />
		<tag k="natural" v="valley" />
		<tag k="place" v="locality" />
		<tag k="ssr:stedsnr" v="71188" />
	</node>
	<node lat="61.86024444764481" lon="4.94745833301381" id="-33885">
		<tag k="fixme" v="consider natural=peak for the most distinct mountains in the district" />
		<tag k="name" v="Steinfjellet" />
		<tag k="natural" v="hill" />
		<tag k="place" v="locality" />
		<tag k="ssr:stedsnr" v="71817" />
	</node>
	<node lat="61.85518333384954" lon="4.946566659182393" id="-33886">
		<tag k="fixme" v="consider natural=peak for the most distinct mountains in the district" />
		<tag k="name" v="Torvangsheia" />
		<tag k="natural" v="hill" />
		<tag k="place" v="locality" />
		<tag k="ssr:stedsnr" v="71910" />
	</node>
	<node lat="61.86226666550846" lon="5.0605833315047715" id="-33887">
		<tag k="fixme" v="consider natural=peak for the most distinct mountains in the district" />
		<tag k="name" v="Kvitefjellet" />
		<tag k="natural" v="hill" />
		<tag k="place" v="locality" />
		<tag k="ssr:stedsnr" v="71913" />
	</node>
	<node lat="61.85101666546569" lon="4.899819451537579" id="-33888">
		<tag k="name" v="Grotlesdalen" />
		<tag k="natural" v="valley" />
		<tag k="place" v="locality" />
		<tag k="ssr:stedsnr" v="71920" />
	</node>
	<node lat="61.862438890477655" lon="5.071294442441489" id="-33889">
		<tag k="name" v="Konsdalen" />
		<tag k="natural" v="valley" />
		<tag k="place" v="locality" />
		<tag k="ssr:stedsnr" v="71924" />
	</node>
	<node lat="61.81461944422622" lon="4.969274994597649" id="-33890">
		<tag k="fixme" v="consider natural=peak for the most distinct mountains in the district" />
		<tag k="name" v="Husefjellet" />
		<tag k="natural" v="hill" />
		<tag k="place" v="locality" />
		<tag k="ssr:stedsnr" v="71943" />
	</node>
	<node lat="61.831048139910784" lon="5.050058488958142" id="-33891">
		<tag k="alt_name" v="Svartvasshornet" />
		<tag k="fixme" v="consider natural=peak for the most distinct mountains in the district" />
		<tag k="name" v="Svartevasshornet" />
		<tag k="natural" v="hill" />
		<tag k="place" v="locality" />
		<tag k="ssr:stedsnr" v="71954" />
	</node>
	<node lat="61.734150003107935" lon="5.252036105396646" id="-33894">
		<tag k="name" v="Trollefjellsbakkane" />
		<tag k="natural" v="hill" />
		<tag k="place" v="locality" />
		<tag k="ssr:stedsnr" v="110910" />
	</node>
	<node lat="61.71504999949006" lon="4.985130552655731" id="-33895">
		<tag k="name" v="Dalen" />
		<tag k="natural" v="valley" />
		<tag k="place" v="locality" />
		<tag k="ssr:stedsnr" v="110981" />
	</node>
	<node lat="61.78891111422697" lon="4.872925003777738" id="-33899">
		<tag k="name" v="Skorkinnbakkane" />
		<tag k="natural" v="slope" />
		<tag k="place" v="locality" />
		<tag k="ssr:stedsnr" v="111024" />
	</node>
	<node lat="61.85417777873961" lon="5.0422666718467175" id="-33903">
		<tag k="name" v="Lågeidbakken" />
		<tag k="natural" v="slope" />
		<tag k="place" v="locality" />
		<tag k="ssr:stedsnr" v="111306" />
	</node>
	<node lat="61.86142500267211" lon="4.975602777347566" id="-33904">
		<tag k="name" v="Sverabben" />
		<tag k="natural" v="slope" />
		<tag k="place" v="locality" />
		<tag k="ssr:stedsnr" v="111318" />
	</node>
	<node lat="61.770708335625486" lon="4.854772217676815" id="-33907">
		<tag k="name" v="Vågefjellet" />
		<tag k="natural" v="hill" />
		<tag k="place" v="locality" />
		<tag k="ssr:stedsnr" v="111370" />
	</node>
	<node lat="61.785416665266915" lon="4.875561114440861" id="-33908">
		<tag k="name" v="Skjervene" />
		<tag k="natural" v="slope" />
		<tag k="place" v="locality" />
		<tag k="ssr:stedsnr" v="111372" />
	</node>
	<node lat="61.775205555024954" lon="4.885122224296874" id="-33909">
		<tag k="name" v="Gjølet" />
		<tag k="natural" v="valley" />
		<tag k="place" v="locality" />
		<tag k="ssr:stedsnr" v="111376" />
	</node>
	<node lat="61.75865555212042" lon="4.857100009301115" id="-33910">
		<tag k="name" v="Seten" />
		<tag k="natural" v="hill" />
		<tag k="place" v="locality" />
		<tag k="ssr:stedsnr" v="111383" />
	</node>
	<node lat="61.84253610850608" lon="5.650344448150172" id="-33912">
		<tag k="name" v="Brattebakkane" />
		<tag k="natural" v="slope" />
		<tag k="place" v="locality" />
		<tag k="ssr:stedsnr" v="111220" />
	</node>
	<node lat="61.85494444610741" lon="5.410697229572356" id="-33913">
		<tag k="name" v="Aksla" />
		<tag k="place" v="locality" />
		<tag k="ssr:stedsnr" v="111274" />
	</node>
	<node lat="61.86410555377827" lon="5.045986109603578" id="-33915">
		<tag k="fixme" v="consider natural=peak for the most distinct mountains in the district" />
		<tag k="name" v="Svenakken" />
		<tag k="natural" v="hill" />
		<tag k="place" v="locality" />
		<tag k="ssr:stedsnr" v="111285" />
	</node>
	<node lat="61.80927499830299" lon="4.998374999392499" id="-33917">
		<tag k="name" v="Svartehamrane" />
		<tag k="natural" v="hill" />
		<tag k="place" v="locality" />
		<tag k="ssr:stedsnr" v="111403" />
	</node>
	<node lat="61.79456111348421" lon="5.009572212963917" id="-33918">
		<tag k="name" v="Holmabruna" />
		<tag k="natural" v="hill" />
		<tag k="place" v="locality" />
		<tag k="ssr:stedsnr" v="111405" />
	</node>
	<node lat="61.88625000084937" lon="5.472502771481407" id="-33919">
		<tag k="name" v="Midtnakken" />
		<tag k="natural" v="hill" />
		<tag k="place" v="locality" />
		<tag k="ssr:stedsnr" v="111572" />
	</node>
	<node lat="61.89918333085279" lon="5.387719441839893" id="-33921">
		<tag k="name" v="Søredalen" />
		<tag k="natural" v="valley" />
		<tag k="place" v="locality" />
		<tag k="ssr:stedsnr" v="111585" />
	</node>
	<node lat="61.85318333346066" lon="5.1422138846435645" id="-33922">
		<tag k="name" v="Langhammaren" />
		<tag k="natural" v="hill" />
		<tag k="place" v="locality" />
		<tag k="ssr:stedsnr" v="111589" />
	</node>
	<node lat="61.85280555869957" lon="5.766924993481886" id="-33923">
		<tag k="name" v="Litle Gangeskora" />
		<tag k="place" v="locality" />
		<tag k="ssr:stedsnr" v="111713" />
	</node>
	<node lat="61.78353333328224" lon="5.299738897023094" id="-33924">
		<tag k="name" v="Svelgskleiva" />
		<tag k="natural" v="slope" />
		<tag k="place" v="locality" />
		<tag k="ssr:stedsnr" v="111719" />
	</node>
	<node lat="61.782588884635956" lon="5.278688884592244" id="-33925">
		<tag k="name" v="Botneegga" />
		<tag k="place" v="locality" />
		<tag k="ssr:stedsnr" v="111721" />
	</node>
	<node lat="61.72516666843752" lon="5.093055560145627" id="-33930">
		<tag k="name" v="Skjervane" />
		<tag k="natural" v="slope" />
		<tag k="place" v="locality" />
		<tag k="ssr:stedsnr" v="111870" />
	</node>
	<node lat="61.8982833300149" lon="5.475688891541145" id="-33932">
		<tag k="name" v="Reset" />
		<tag k="natural" v="slope" />
		<tag k="place" v="locality" />
		<tag k="ssr:stedsnr" v="111983" />
	</node>
	<node lat="61.814422226210326" lon="5.3941916721827985" id="-33933">
		<tag k="name" v="Storelia" />
		<tag k="natural" v="slope" />
		<tag k="place" v="locality" />
		<tag k="ssr:stedsnr" v="111989" />
	</node>
	<node lat="61.754855551739865" lon="5.284308341806301" id="-33934">
		<tag k="name" v="Liabrua" />
		<tag k="natural" v="valley" />
		<tag k="place" v="locality" />
		<tag k="ssr:stedsnr" v="112025" />
	</node>
	<node lat="61.77743611549561" lon="5.300852777267487" id="-33936">
		<tag k="name" v="Høgefjelldalen" />
		<tag k="natural" v="valley" />
		<tag k="place" v="locality" />
		<tag k="ssr:stedsnr" v="112774" />
	</node>
	<node lat="61.74754999952083" lon="5.238888883594944" id="-33946">
		<tag k="alt_name" v="Åsen" />
		<tag k="name" v="Åseknatten" />
		<tag k="natural" v="hill" />
		<tag k="place" v="locality" />
		<tag k="ssr:stedsnr" v="251810" />
	</node>
	<node lat="61.68398055499597" lon="5.279972216779523" id="-33948">
		<tag k="name" v="Handklegytten" />
		<tag k="natural" v="valley" />
		<tag k="place" v="locality" />
		<tag k="ssr:stedsnr" v="251893" />
	</node>
	<node lat="61.72874999970728" lon="5.275422214031642" id="-33952">
		<tag k="name" v="Fossedalen" />
		<tag k="natural" v="valley" />
		<tag k="place" v="locality" />
		<tag k="ssr:stedsnr" v="251870" />
	</node>
	<node lat="61.691488886085395" lon="5.258308336230803" id="-33954">
		<tag k="fixme" v="consider natural=peak for the most distinct mountains in the district" />
		<tag k="name" v="Ramsskredfjellet" />
		<tag k="natural" v="hill" />
		<tag k="place" v="locality" />
		<tag k="ssr:stedsnr" v="251902" />
	</node>
	<node lat="61.88957777803558" lon="5.290677771234177" id="-33958">
		<tag k="fixme" v="consider natural=peak for the most distinct mountains in the district" />
		<tag k="name" v="Hellershammaren" />
		<tag k="natural" v="hill" />
		<tag k="place" v="locality" />
		<tag k="ssr:stedsnr" v="252170" />
	</node>
	<node lat="61.81951388622674" lon="5.765358326476751" id="-33959">
		<tag k="fixme" v="consider natural=peak for the most distinct mountains in the district" />
		<tag k="name" v="Svedjene" />
		<tag k="natural" v="hill" />
		<tag k="place" v="locality" />
		<tag k="ssr:stedsnr" v="252298" />
	</node>
	<node lat="61.804008332973154" lon="5.477772213922462" id="-33960">
		<tag k="name" v="Rundehogen" />
		<tag k="natural" v="hill" />
		<tag k="place" v="locality" />
		<tag k="ssr:stedsnr" v="252304" />
	</node>
	<node lat="61.84363610994639" lon="5.523702776665776" id="-33963">
		<tag k="fixme" v="consider natural=peak for the most distinct mountains in the district" />
		<tag k="name" v="Dalsetefjellet" />
		<tag k="natural" v="hill" />
		<tag k="place" v="locality" />
		<tag k="ssr:stedsnr" v="252331" />
	</node>
	<node lat="61.71964166865799" lon="5.012675006157516" id="-33965">
		<tag k="name" v="Øvrebotnen" />
		<tag k="natural" v="valley" />
		<tag k="place" v="locality" />
		<tag k="ssr:stedsnr" v="129452" />
	</node>
	<node lat="61.73341944276616" lon="5.36086389662644" id="-33966">
		<tag k="name" v="Handkleskaret" />
		<tag k="natural" v="valley" />
		<tag k="place" v="locality" />
		<tag k="ssr:stedsnr" v="129819" />
	</node>
	<node lat="61.73216666554513" lon="5.1258194401769375" id="-33968">
		<tag k="fixme" v="consider natural=peak for the most distinct mountains in the district" />
		<tag k="name" v="Mulen" />
		<tag k="natural" v="hill" />
		<tag k="place" v="locality" />
		<tag k="ssr:stedsnr" v="129825" />
	</node>
	<node lat="61.71701388730112" lon="5.344583339216055" id="-33969">
		<tag k="name" v="Steinheia" />
		<tag k="natural" v="hill" />
		<tag k="place" v="locality" />
		<tag k="ssr:stedsnr" v="130842" />
	</node>
	<node lat="61.79767777951233" lon="5.1492194357189645" id="-33972">
		<tag k="fixme" v="consider natural=peak for the most distinct mountains in the district" />
		<tag k="name" v="Marafjellet" />
		<tag k="natural" v="hill" />
		<tag k="place" v="locality" />
		<tag k="ssr:stedsnr" v="131106" />
	</node>
	<node lat="61.88161666754625" lon="5.246311102991219" id="-33980">
		<tag k="fixme" v="consider natural=peak for the most distinct mountains in the district" />
		<tag k="name" v="Kalsenyken" />
		<tag k="natural" v="hill" />
		<tag k="place" v="locality" />
		<tag k="ssr:stedsnr" v="131179" />
	</node>
	<node lat="61.75189444433865" lon="5.201177776709155" id="-33986">
		<tag k="fixme" v="consider natural=peak for the most distinct mountains in the district" />
		<tag k="name" v="Lianakken" />
		<tag k="natural" v="hill" />
		<tag k="place" v="locality" />
		<tag k="ssr:stedsnr" v="131074" />
	</node>
	<node lat="61.89585000180985" lon="5.576916659431709" id="-33991">
		<tag k="name" v="Svartekaristeinen" />
		<tag k="natural" v="slope" />
		<tag k="place" v="locality" />
		<tag k="ssr:stedsnr" v="131378" />
	</node>
	<node lat="61.805791663247376" lon="4.9773083305467845" id="-33992">
		<tag k="fixme" v="consider natural=peak for the most distinct mountains in the district" />
		<tag k="name" v="Rylandshornet" />
		<tag k="natural" v="hill" />
		<tag k="place" v="locality" />
		<tag k="ssr:stedsnr" v="131862" />
	</node>
	<node lat="61.79063055948815" lon="4.863786116320536" id="-33993">
		<tag k="name" v="Skorekinna" />
		<tag k="natural" v="hill" />
		<tag k="place" v="locality" />
		<tag k="ssr:stedsnr" v="131869" />
	</node>
	<node lat="61.752011111399504" lon="5.05143333671587" id="-33995">
		<tag k="name" v="Gulestødalen" />
		<tag k="natural" v="valley" />
		<tag k="place" v="locality" />
		<tag k="ssr:stedsnr" v="131904" />
	</node>
	<node lat="61.86602222560635" lon="4.857588896502517" id="-33997">
		<tag k="fixme" v="consider natural=peak for the most distinct mountains in the district" />
		<tag k="name" v="Klovnefjellet" />
		<tag k="natural" v="hill" />
		<tag k="place" v="locality" />
		<tag k="ssr:stedsnr" v="131923" />
	</node>
	<node lat="61.78048055759781" lon="4.856019442450612" id="-33998">
		<tag k="name" v="Sæterhaugane" />
		<tag k="natural" v="hill" />
		<tag k="place" v="locality" />
		<tag k="ssr:stedsnr" v="252812" />
	</node>
	<node lat="61.78479919245036" lon="4.986001773269604" id="-34001">
		<tag k="name" v="Smalenova" />
		<tag k="natural" v="hill" />
		<tag k="place" v="locality" />
		<tag k="ssr:stedsnr" v="252822" />
	</node>
	<node lat="61.86647499605962" lon="4.973511108319658" id="-34004">
		<tag k="name" v="Svarstaddalen" />
		<tag k="natural" v="valley" />
		<tag k="place" v="locality" />
		<tag k="ssr:stedsnr" v="252863" />
	</node>
	<node lat="61.861033336171126" lon="5.091438896278218" id="-34005">
		<tag k="fixme" v="consider natural=peak for the most distinct mountains in the district" />
		<tag k="name" v="Hestedalsfjellet" />
		<tag k="natural" v="hill" />
		<tag k="place" v="locality" />
		<tag k="ssr:stedsnr" v="252890" />
	</node>
	<node lat="61.78059444761079" lon="5.302922215251569" id="-34006">
		<tag k="fixme" v="consider natural=peak for the most distinct mountains in the district" />
		<tag k="name" v="Høgefjellet" />
		<tag k="natural" v="hill" />
		<tag k="place" v="locality" />
		<tag k="ssr:stedsnr" v="253080" />
	</node>
	<node lat="61.8705944426974" lon="5.424861109234337" id="-34012">
		<tag k="name" v="Fagerlidskaret" />
		<tag k="natural" v="valley" />
		<tag k="place" v="locality" />
		<tag k="ssr:stedsnr" v="253192" />
	</node>
	<node lat="61.84904722095499" lon="5.221499990870739" id="-34015">
		<tag k="fixme" v="consider natural=peak for the most distinct mountains in the district" />
		<tag k="name" v="Uraheia" />
		<tag k="natural" v="hill" />
		<tag k="place" v="locality" />
		<tag k="ssr:stedsnr" v="253174" />
	</node>
	<node lat="61.82977777536789" lon="5.337222226658338" id="-34020">
		<tag k="name" v="Sørdalen" />
		<tag k="natural" v="valley" />
		<tag k="place" v="locality" />
		<tag k="ssr:stedsnr" v="253810" />
	</node>
	<node lat="61.82190555456085" lon="5.010524995333635" id="-34027">
		<tag k="name" v="Fagredalen" />
		<tag k="natural" v="valley" />
		<tag k="place" v="locality" />
		<tag k="ssr:stedsnr" v="142008" />
	</node>
	<node lat="61.80740000445543" lon="5.036524997672751" id="-34036">
		<tag k="name" v="Haugen" />
		<tag k="natural" v="hill" />
		<tag k="place" v="locality" />
		<tag k="ssr:stedsnr" v="171412" />
	</node>
	<node lat="61.78999722612413" lon="4.7961277792948485" id="-34037">
		<tag k="name" v="Mulehola" />
		<tag k="natural" v="valley" />
		<tag k="place" v="locality" />
		<tag k="ssr:stedsnr" v="171456" />
	</node>
	<node lat="61.86266110903483" lon="4.9901333403414085" id="-34039">
		<tag k="name" v="Høgelia" />
		<tag k="natural" v="slope" />
		<tag k="place" v="locality" />
		<tag k="ssr:stedsnr" v="171304" />
	</node>
	<node lat="61.850744442580464" lon="5.478777772006881" id="-34042">
		<tag k="name" v="Bjørnaskora" />
		<tag k="place" v="locality" />
		<tag k="ssr:stedsnr" v="171314" />
	</node>
	<node lat="61.77161110805428" lon="4.851516661331011" id="-34043">
		<tag k="name" v="Stolen" />
		<tag k="natural" v="hill" />
		<tag k="place" v="locality" />
		<tag k="ssr:stedsnr" v="171361" />
	</node>
	<node lat="61.86940314102563" lon="5.312308004730301" id="-34045">
		<tag k="name" v="Kolsethaugen" />
		<tag k="natural" v="hill" />
		<tag k="place" v="locality" />
		<tag k="ssr:stedsnr" v="171611" />
	</node>
	<node lat="61.87052777795494" lon="5.320288883569576" id="-34046">
		<tag k="fixme" v="consider natural=peak for the most distinct mountains in the district" />
		<tag k="name" v="Høgfjellet" />
		<tag k="natural" v="hill" />
		<tag k="place" v="locality" />
		<tag k="ssr:stedsnr" v="171613" />
	</node>
	<node lat="61.77526667109678" lon="5.183080555803518" id="-34052">
		<tag k="name" v="Holten" />
		<tag k="natural" v="slope" />
		<tag k="place" v="locality" />
		<tag k="ssr:stedsnr" v="171812" />
	</node>
	<node lat="61.70988055497108" lon="5.182791657342965" id="-34058">
		<tag k="name" v="Blombakkane" />
		<tag k="natural" v="slope" />
		<tag k="place" v="locality" />
		<tag k="ssr:stedsnr" v="171919" />
	</node>
	<node lat="61.70072222490029" lon="5.129730559275428" id="-34059">
		<tag k="name" v="Snøskorane" />
		<tag k="natural" v="cliff" />
		<tag k="ssr:stedsnr" v="171922" />
	</node>
	<node lat="61.849191666755786" lon="4.837763879841141" id="-34060">
		<tag k="name" v="Slettebakken" />
		<tag k="natural" v="slope" />
		<tag k="place" v="locality" />
		<tag k="ssr:stedsnr" v="172003" />
	</node>
	<node lat="61.76061388798744" lon="5.280302772380579" id="-34062">
		<tag k="name" v="Nedsteskora" />
		<tag k="natural" v="cliff" />
		<tag k="ssr:stedsnr" v="172018" />
	</node>
	<node lat="61.762733332864705" lon="5.288544445807223" id="-34063">
		<tag k="name" v="Vasshaugen" />
		<tag k="natural" v="hill" />
		<tag k="place" v="locality" />
		<tag k="ssr:stedsnr" v="172023" />
	</node>
	<node lat="61.88701666493423" lon="4.940319450116905" id="-34065">
		<tag k="name" v="Skreda" />
		<tag k="natural" v="valley" />
		<tag k="place" v="locality" />
		<tag k="ssr:stedsnr" v="172111" />
	</node>
	<node lat="61.76535555534774" lon="5.279736111746467" id="-34070">
		<tag k="name" v="Risehamrane" />
		<tag k="natural" v="hill" />
		<tag k="place" v="locality" />
		<tag k="ssr:stedsnr" v="174205" />
	</node>
	<node lat="61.664341663255705" lon="5.241155555991307" id="-34088">
		<tag k="name" v="Guleskaret" />
		<tag k="natural" v="valley" />
		<tag k="place" v="locality" />
		<tag k="ssr:stedsnr" v="190916" />
	</node>
	<node lat="61.816497220366806" lon="5.575536115697131" id="-34089">
		<tag k="name" v="Høgehammaren" />
		<tag k="natural" v="hill" />
		<tag k="place" v="locality" />
		<tag k="ssr:stedsnr" v="263548" />
	</node>
	<node lat="61.844780552254086" lon="5.686586109579088" id="-34091">
		<tag k="name" v="Kleivane" />
		<tag k="natural" v="slope" />
		<tag k="place" v="locality" />
		<tag k="ssr:stedsnr" v="221389" />
	</node>
	<node lat="61.8267749993084" lon="5.545474994995346" id="-34094">
		<tag k="name" v="Bjørkelida" />
		<tag k="natural" v="slope" />
		<tag k="place" v="locality" />
		<tag k="ssr:stedsnr" v="232306" />
	</node>
	<node lat="61.82647499572641" lon="5.529052774808772" id="-34095">
		<tag k="name" v="Huardalen" />
		<tag k="natural" v="valley" />
		<tag k="place" v="locality" />
		<tag k="ssr:stedsnr" v="232308" />
	</node>
	<node lat="61.81911666985119" lon="5.538338892921478" id="-34096">
		<tag k="name" v="Varingsnukkane" />
		<tag k="place" v="locality" />
		<tag k="ssr:stedsnr" v="232311" />
	</node>
	<node lat="61.87165277633446" lon="5.17998055766725" id="-34103">
		<tag k="name" v="Langehilla" />
		<tag k="place" v="locality" />
		<tag k="ssr:stedsnr" v="232529" />
	</node>
	<node lat="61.837516668573045" lon="5.729569442636365" id="-34105">
		<tag k="name" v="Hatten" />
		<tag k="natural" v="hill" />
		<tag k="place" v="locality" />
		<tag k="ssr:stedsnr" v="232705" />
	</node>
	<node lat="61.839152780566785" lon="5.73146666295077" id="-34106">
		<tag k="name" v="Heggjerusta" />
		<tag k="natural" v="slope" />
		<tag k="place" v="locality" />
		<tag k="ssr:stedsnr" v="232708" />
	</node>
	<node lat="61.78185832867017" lon="5.256022214313997" id="-34109">
		<tag k="name" v="Brattegjølet" />
		<tag k="natural" v="valley" />
		<tag k="place" v="locality" />
		<tag k="ssr:stedsnr" v="232733" />
	</node>
	<node lat="61.77628610765682" lon="5.173825007196067" id="-34110">
		<tag k="name" v="Svehamrane" />
		<tag k="natural" v="hill" />
		<tag k="place" v="locality" />
		<tag k="ssr:stedsnr" v="232780" />
	</node>
	<node lat="61.78785833294621" lon="5.12443889430556" id="-34112">
		<tag k="name" v="Smådalane" />
		<tag k="natural" v="valley" />
		<tag k="place" v="locality" />
		<tag k="ssr:stedsnr" v="232792" />
	</node>
	<node lat="61.71383333275932" lon="5.177669440761088" id="-34113">
		<tag k="name" v="Skoranakken" />
		<tag k="natural" v="hill" />
		<tag k="place" v="locality" />
		<tag k="ssr:stedsnr" v="232902" />
	</node>
	<node lat="61.883805558605516" lon="5.651486108285649" id="-34114">
		<tag k="name" v="Haugen" />
		<tag k="natural" v="hill" />
		<tag k="place" v="locality" />
		<tag k="ssr:stedsnr" v="232802" />
	</node>
	<node lat="61.70584722562143" lon="5.125833335692301" id="-34115">
		<tag k="name" v="Geitaskorane" />
		<tag k="natural" v="hill" />
		<tag k="place" v="locality" />
		<tag k="ssr:stedsnr" v="232878" />
	</node>
	<node lat="61.84106389304529" lon="4.934413880392557" id="-34119">
		<tag k="name" v="Skothamrane" />
		<tag k="natural" v="hill" />
		<tag k="place" v="locality" />
		<tag k="ssr:stedsnr" v="233005" />
	</node>
	<node lat="61.84684444318978" lon="4.952166657890788" id="-34121">
		<tag k="name" v="Torvangsheia" />
		<tag k="natural" v="hill" />
		<tag k="place" v="locality" />
		<tag k="ssr:stedsnr" v="233029" />
	</node>
	<node lat="61.82261944514996" lon="5.441547226262633" id="-34123">
		<tag k="name" v="Kalvehola" />
		<tag k="natural" v="valley" />
		<tag k="place" v="locality" />
		<tag k="ssr:stedsnr" v="232979" />
	</node>
	<node lat="61.69750833609575" lon="5.0338555632899356" id="-34125">
		<tag k="name" v="Bakkane" />
		<tag k="natural" v="slope" />
		<tag k="place" v="locality" />
		<tag k="ssr:stedsnr" v="232999" />
	</node>
	<node lat="61.84321944451264" lon="4.9422722145439835" id="-34141">
		<tag k="name" v="Omnen" />
		<tag k="natural" v="valley" />
		<tag k="place" v="locality" />
		<tag k="ssr:stedsnr" v="252901" />
	</node>
	<node lat="61.79756944428263" lon="5.1991583319704" id="-34142">
		<tag k="name" v="Litlenyken" />
		<tag k="natural" v="hill" />
		<tag k="place" v="locality" />
		<tag k="ssr:stedsnr" v="253106" />
	</node>
	<node lat="61.679813343760486" lon="5.237352349806314" id="-34145">
		<tag k="name" v="Søre Dalen" />
		<tag k="natural" v="valley" />
		<tag k="place" v="locality" />
		<tag k="ssr:stedsnr" v="253805" />
	</node>
	<node lat="61.808441669203" lon="5.038366670220906" id="-34146">
		<tag k="name" v="Skipperdalen" />
		<tag k="natural" v="valley" />
		<tag k="place" v="locality" />
		<tag k="ssr:stedsnr" v="253832" />
	</node>
	<node lat="61.88378333529945" lon="4.951941658307595" id="-34150">
		<tag k="fixme" v="consider natural=peak for the most distinct mountains in the district" />
		<tag k="name" v="Nibba" />
		<tag k="natural" v="hill" />
		<tag k="place" v="locality" />
		<tag k="ssr:stedsnr" v="254000" />
	</node>
	<node lat="61.86460833281488" lon="5.344752771041146" id="-34153">
		<tag k="name" v="Leirguldalen" />
		<tag k="natural" v="valley" />
		<tag k="place" v="locality" />
		<tag k="ssr:stedsnr" v="292410" />
	</node>
	<node lat="61.86673889059196" lon="5.352608330751792" id="-34154">
		<tag k="name" v="Raudehaugen" />
		<tag k="natural" v="hill" />
		<tag k="place" v="locality" />
		<tag k="ssr:stedsnr" v="292426" />
	</node>
	<node lat="61.804844441344684" lon="5.044005555421963" id="-34155">
		<tag k="name" v="Merranyken" />
		<tag k="natural" v="slope" />
		<tag k="place" v="locality" />
		<tag k="ssr:stedsnr" v="292392" />
	</node>
	<node lat="61.84044999764296" lon="5.248858341141442" id="-34156">
		<tag k="name" v="Nakken" />
		<tag k="natural" v="hill" />
		<tag k="place" v="locality" />
		<tag k="ssr:stedsnr" v="292528" />
	</node>
	<node lat="61.888569441828864" lon="5.414480564211434" id="-34157">
		<tag k="name" v="Korpedalen" />
		<tag k="natural" v="valley" />
		<tag k="place" v="locality" />
		<tag k="ssr:stedsnr" v="292575" />
	</node>
	<node lat="61.89357499970196" lon="5.431644435986959" id="-34158">
		<tag k="name" v="Endalsnosa" />
		<tag k="natural" v="hill" />
		<tag k="place" v="locality" />
		<tag k="ssr:stedsnr" v="292578" />
	</node>
	<node lat="61.80730000028795" lon="4.927411114172976" id="-34160">
		<tag k="fixme" v="consider natural=peak for the most distinct mountains in the district" />
		<tag k="name" v="Litlehorn" />
		<tag k="natural" v="hill" />
		<tag k="place" v="locality" />
		<tag k="ssr:stedsnr" v="293027" />
	</node>
	<node lat="61.879538888654714" lon="4.896655560305487" id="-34162">
		<tag k="name" v="Håberg" />
		<tag k="natural" v="hill" />
		<tag k="place" v="locality" />
		<tag k="ssr:stedsnr" v="293012" />
	</node>
	<node lat="61.825316669679225" lon="5.656877775115547" id="-34166">
		<tag k="name" v="Storehammaren" />
		<tag k="natural" v="hill" />
		<tag k="place" v="locality" />
		<tag k="ssr:stedsnr" v="293180" />
	</node>
	<node lat="61.843244441794766" lon="5.339872222662671" id="-34168">
		<tag k="name" v="Litleskreda" />
		<tag k="natural" v="gorge" />
		<tag k="ssr:stedsnr" v="293413" />
	</node>
	<node lat="61.84512222314744" lon="5.093402779587577" id="-34179">
		<tag k="name" v="Stølshaugane" />
		<tag k="natural" v="hill" />
		<tag k="place" v="locality" />
		<tag k="ssr:stedsnr" v="293614" />
	</node>
	<node lat="61.74000833500848" lon="5.192688883499385" id="-34183">
		<tag k="name" v="Einebakken" />
		<tag k="natural" v="slope" />
		<tag k="place" v="locality" />
		<tag k="ssr:stedsnr" v="293879" />
	</node>
	<node lat="61.88552499790159" lon="5.573502784599405" id="-34187">
		<tag k="name" v="Lidahamrane" />
		<tag k="natural" v="hill" />
		<tag k="place" v="locality" />
		<tag k="ssr:stedsnr" v="293891" />
	</node>
	<node lat="61.72010277929817" lon="5.085213890370798" id="-34190">
		<tag k="name" v="Jutelskora" />
		<tag k="natural" v="hill" />
		<tag k="place" v="locality" />
		<tag k="ssr:stedsnr" v="293909" />
	</node>
	<node lat="61.751594441649296" lon="5.045658327748049" id="-34193">
		<tag k="name" v="Loddehjellen" />
		<tag k="place" v="locality" />
		<tag k="ssr:stedsnr" v="293923" />
	</node>
	<node lat="61.74151389308827" lon="5.340555553371138" id="-34208">
		<tag k="fixme" v="consider natural=peak for the most distinct mountains in the district" />
		<tag k="name" v="Egga" />
		<tag k="natural" v="hill" />
		<tag k="place" v="locality" />
		<tag k="ssr:stedsnr" v="312824" />
	</node>
	<node lat="61.80731666833651" lon="5.3153222289776405" id="-34209">
		<tag k="name" v="Dyreholtane" />
		<tag k="natural" v="hill" />
		<tag k="place" v="locality" />
		<tag k="ssr:stedsnr" v="313108" />
	</node>
	<node lat="61.85397777608244" lon="5.2060166703727795" id="-34210">
		<tag k="fixme" v="consider natural=peak for the most distinct mountains in the district" />
		<tag k="name" v="Svartevassegga" />
		<tag k="natural" v="hill" />
		<tag k="place" v="locality" />
		<tag k="ssr:stedsnr" v="313170" />
	</node>
	<node lat="61.867844440852465" lon="5.45789443662104" id="-34212">
		<tag k="fixme" v="consider natural=peak for the most distinct mountains in the district" />
		<tag k="name" v="Litletroda" />
		<tag k="natural" v="hill" />
		<tag k="place" v="locality" />
		<tag k="ssr:stedsnr" v="313174" />
	</node>
	<node lat="61.7751444436459" lon="5.336252777855979" id="-34213">
		<tag k="name" v="Storeskredene" />
		<tag k="natural" v="slope" />
		<tag k="place" v="locality" />
		<tag k="ssr:stedsnr" v="313067" />
	</node>
	<node lat="61.82214444136705" lon="5.613747214435196" id="-34215">
		<tag k="fixme" v="consider natural=peak for the most distinct mountains in the district" />
		<tag k="name" v="Sigdestadnakken" />
		<tag k="natural" v="hill" />
		<tag k="place" v="locality" />
		<tag k="ssr:stedsnr" v="313314" />
	</node>
	<node lat="61.88214444854305" lon="5.697202783015988" id="-34217">
		<tag k="name" v="Ospene" />
		<tag k="natural" v="slope" />
		<tag k="place" v="locality" />
		<tag k="ssr:stedsnr" v="313385" />
	</node>
	<node lat="61.82129722557513" lon="4.992308342143203" id="-34222">
		<tag k="alt_name" v="Byrekinna" />
		<tag k="name" v="Børekinna" />
		<tag k="natural" v="hill" />
		<tag k="place" v="locality" />
		<tag k="ssr:stedsnr" v="313938" />
	</node>
	<node lat="61.7943694478432" lon="4.855311104481243" id="-34226">
		<tag k="name" v="Kjellneshaugane" />
		<tag k="natural" v="hill" />
		<tag k="place" v="locality" />
		<tag k="ssr:stedsnr" v="474038" />
	</node>
	<node lat="61.88313888823183" lon="5.049922224444247" id="-34229">
		<tag k="fixme" v="consider natural=peak for the most distinct mountains in the district" />
		<tag k="name" v="Steinbruegga" />
		<tag k="natural" v="hill" />
		<tag k="place" v="locality" />
		<tag k="ssr:stedsnr" v="474273" />
	</node>
	<node lat="61.85938610900454" lon="4.9927916707238795" id="-34231">
		<tag k="name" v="Bjørnastigen" />
		<tag k="natural" v="slope" />
		<tag k="place" v="locality" />
		<tag k="ssr:stedsnr" v="474295" />
	</node>
	<node lat="61.85657221999682" lon="5.254172218497437" id="-34243">
		<tag k="name" v="Ormelia" />
		<tag k="natural" v="valley" />
		<tag k="place" v="locality" />
		<tag k="ssr:stedsnr" v="353561" />
	</node>
	<node lat="61.80911944371309" lon="5.246702776328796" id="-34244">
		<tag k="name" v="Lemholten" />
		<tag k="natural" v="hill" />
		<tag k="place" v="locality" />
		<tag k="ssr:stedsnr" v="353568" />
	</node>
	<node lat="61.816708330723436" lon="5.309452778347248" id="-34245">
		<tag k="name" v="Tredjesynet" />
		<tag k="place" v="locality" />
		<tag k="ssr:stedsnr" v="353569" />
	</node>
	<node lat="61.78424721945253" lon="4.98234721318701" id="-34250">
		<tag k="fixme" v="consider natural=peak for the most distinct mountains in the district" />
		<tag k="name" v="Bukkefjellet" />
		<tag k="natural" v="hill" />
		<tag k="place" v="locality" />
		<tag k="ssr:stedsnr" v="353421" />
	</node>
	<node lat="61.775508333108675" lon="4.9322527795340125" id="-34252">
		<tag k="fixme" v="consider natural=peak for the most distinct mountains in the district" />
		<tag k="name" v="Litlefløyna" />
		<tag k="natural" v="hill" />
		<tag k="place" v="locality" />
		<tag k="ssr:stedsnr" v="353454" />
	</node>
	<node lat="61.81506388518538" lon="5.245561116688729" id="-34255">
		<tag k="name" v="Løypingnakken" />
		<tag k="natural" v="hill" />
		<tag k="place" v="locality" />
		<tag k="ssr:stedsnr" v="474526" />
	</node>
	<node lat="61.853611110214324" lon="5.7603916757367" id="-34257">
		<tag k="name" v="Store Gangeskora" />
		<tag k="place" v="locality" />
		<tag k="ssr:stedsnr" v="353752" />
	</node>
	<node lat="61.78507221977358" lon="5.203744437967454" id="-34263">
		<tag k="name" v="Dyrstaddalen" />
		<tag k="natural" v="valley" />
		<tag k="place" v="locality" />
		<tag k="ssr:stedsnr" v="353766" />
	</node>
	<node lat="61.892227778068765" lon="5.611619443314811" id="-34264">
		<tag k="name" v="Høgenesrinden" />
		<tag k="natural" v="ridge" />
		<tag k="place" v="locality" />
		<tag k="ssr:stedsnr" v="353801" />
	</node>
	<node lat="61.746788892403735" lon="5.34922778451309" id="-34267">
		<tag k="name" v="Søre Vassbotnen" />
		<tag k="natural" v="valley" />
		<tag k="place" v="locality" />
		<tag k="ssr:stedsnr" v="353904" />
	</node>
	<node lat="61.82621388510801" lon="5.092133342988989" id="-34272">
		<tag k="name" v="Høgehaugen" />
		<tag k="natural" v="hill" />
		<tag k="place" v="locality" />
		<tag k="ssr:stedsnr" v="474616" />
	</node>
	<node lat="61.90321388735665" lon="5.404963883640873" id="-34274">
		<tag k="name" v="Nybruhaugane" />
		<tag k="natural" v="hill" />
		<tag k="place" v="locality" />
		<tag k="ssr:stedsnr" v="474620" />
	</node>
	<node lat="61.906461110702814" lon="5.4243027720895425" id="-34276">
		<tag k="name" v="Vassliberget" />
		<tag k="natural" v="hill" />
		<tag k="place" v="locality" />
		<tag k="ssr:stedsnr" v="474622" />
	</node>
	<node lat="61.89637500191249" lon="5.4086666608093115" id="-34281">
		<tag k="name" v="Svardalen" />
		<tag k="natural" v="valley" />
		<tag k="place" v="locality" />
		<tag k="ssr:stedsnr" v="474597" />
	</node>
	<node lat="61.89568611488658" lon="5.436547225573373" id="-34282">
		<tag k="name" v="Meisapynten" />
		<tag k="natural" v="hill" />
		<tag k="place" v="locality" />
		<tag k="ssr:stedsnr" v="474601" />
	</node>
	<node lat="61.77051111377303" lon="5.299736104084387" id="-34283">
		<tag k="name" v="Nedste Kupa" />
		<tag k="place" v="locality" />
		<tag k="ssr:stedsnr" v="354776" />
	</node>
	<node lat="61.72412500439933" lon="5.229580563730359" id="-34284">
		<tag k="name" v="Budalen" />
		<tag k="natural" v="valley" />
		<tag k="place" v="locality" />
		<tag k="ssr:stedsnr" v="474873" />
	</node>
	<node lat="61.72343888808156" lon="5.219669448895822" id="-34286">
		<tag k="name" v="Dyrhamrane" />
		<tag k="natural" v="hill" />
		<tag k="place" v="locality" />
		<tag k="ssr:stedsnr" v="474880" />
	</node>
	<node lat="61.72867222600433" lon="5.224636116333862" id="-34288">
		<tag k="name" v="Eikebakkane" />
		<tag k="natural" v="slope" />
		<tag k="place" v="locality" />
		<tag k="ssr:stedsnr" v="474886" />
	</node>
	<node lat="61.75828055730282" lon="5.220694449844732" id="-34291">
		<tag k="name" v="Kruna" />
		<tag k="natural" v="hill" />
		<tag k="place" v="locality" />
		<tag k="ssr:stedsnr" v="474784" />
	</node>
	<node lat="61.78339999955465" lon="5.152980562313602" id="-34293">
		<tag k="name" v="Glorhaugen" />
		<tag k="natural" v="hill" />
		<tag k="place" v="locality" />
		<tag k="ssr:stedsnr" v="474804" />
	</node>
	<node lat="61.776636107973296" lon="5.122258328789924" id="-34294">
		<tag k="name" v="Fagrehaugen" />
		<tag k="natural" v="hill" />
		<tag k="place" v="locality" />
		<tag k="ssr:stedsnr" v="474807" />
	</node>
	<node lat="61.69828333738831" lon="5.038916669859495" id="-34297">
		<tag k="name" v="Nordre Sløkjene" />
		<tag k="natural" v="valley" />
		<tag k="place" v="locality" />
		<tag k="ssr:stedsnr" v="474994" />
	</node>
	<node lat="61.71213610667848" lon="5.048063882525385" id="-34298">
		<tag k="name" v="Skansen" />
		<tag k="natural" v="cliff" />
		<tag k="ssr:stedsnr" v="475000" />
	</node>
	<node lat="61.849805551755196" lon="4.880552786503321" id="-34299">
		<tag k="name" v="Keilebakkene" />
		<tag k="natural" v="slope" />
		<tag k="place" v="locality" />
		<tag k="ssr:stedsnr" v="475001" />
	</node>
	<node lat="61.759441666791076" lon="5.281069443381246" id="-34300">
		<tag k="name" v="Øvsteskora" />
		<tag k="natural" v="cliff" />
		<tag k="ssr:stedsnr" v="475023" />
	</node>
	<node lat="61.73739721945953" lon="4.999344445470354" id="-34302">
		<tag k="name" v="Svartelyngen" />
		<tag k="natural" v="valley" />
		<tag k="place" v="locality" />
		<tag k="ssr:stedsnr" v="474937" />
	</node>
	<node lat="61.84250833390914" lon="4.9508999969181104" id="-34305">
		<tag k="fixme" v="consider natural=peak for the most distinct mountains in the district" />
		<tag k="name" v="Hornet" />
		<tag k="natural" v="hill" />
		<tag k="place" v="locality" />
		<tag k="ssr:stedsnr" v="475033" />
	</node>
	<node lat="61.85031944889272" lon="5.034950003682437" id="-34308">
		<tag k="name" v="Berledråpa" />
		<tag k="natural" v="slope" />
		<tag k="place" v="locality" />
		<tag k="ssr:stedsnr" v="475274" />
	</node>
	<node lat="61.842188891307174" lon="5.0494222276383365" id="-34309">
		<tag k="name" v="Bjørnsvehaugane" />
		<tag k="natural" v="hill" />
		<tag k="place" v="locality" />
		<tag k="ssr:stedsnr" v="475285" />
	</node>
	<node lat="61.84684166263731" lon="5.447802769603199" id="-34310">
		<tag k="name" v="Teigenakken" />
		<tag k="natural" v="hill" />
		<tag k="place" v="locality" />
		<tag k="ssr:stedsnr" v="475353" />
	</node>
	<node lat="61.82397777972047" lon="4.961052782523408" id="-34312">
		<tag k="name" v="Storehaugen" />
		<tag k="natural" v="hill" />
		<tag k="place" v="locality" />
		<tag k="ssr:stedsnr" v="475390" />
	</node>
	<node lat="61.780977777599205" lon="4.889508330587631" id="-34314">
		<tag k="name" v="Lyngbakkane" />
		<tag k="natural" v="slope" />
		<tag k="place" v="locality" />
		<tag k="ssr:stedsnr" v="475435" />
	</node>
	<node lat="61.88643055969474" lon="5.482766661423991" id="-34320">
		<tag k="name" v="Stokkane" />
		<tag k="natural" v="hill" />
		<tag k="place" v="locality" />
		<tag k="ssr:stedsnr" v="475599" />
	</node>
	<node lat="61.84016666507891" lon="5.1989138909869625" id="-34321">
		<tag k="name" v="Storlibotnen" />
		<tag k="natural" v="valley" />
		<tag k="place" v="locality" />
		<tag k="ssr:stedsnr" v="475624" />
	</node>
	<node lat="61.86466944270419" lon="5.094688885133216" id="-34322">
		<tag k="fixme" v="consider natural=peak for the most distinct mountains in the district" />
		<tag k="name" v="Skatenipa" />
		<tag k="natural" v="hill" />
		<tag k="place" v="locality" />
		<tag k="ssr:stedsnr" v="475641" />
	</node>
	<node lat="61.84058333660877" lon="5.118149997502086" id="-34325">
		<tag k="fixme" v="consider natural=peak for the most distinct mountains in the district" />
		<tag k="name" v="Blåfjellet" />
		<tag k="natural" v="hill" />
		<tag k="place" v="locality" />
		<tag k="ssr:stedsnr" v="475657" />
	</node>
	<node lat="61.76535555377067" lon="5.307022230819742" id="-34326">
		<tag k="name" v="Løypene" />
		<tag k="natural" v="slope" />
		<tag k="place" v="locality" />
		<tag k="ssr:stedsnr" v="475742" />
	</node>
	<node lat="61.782669442351846" lon="5.2882000003699074" id="-34327">
		<tag k="name" v="Fossegga" />
		<tag k="natural" v="hill" />
		<tag k="place" v="locality" />
		<tag k="ssr:stedsnr" v="475761" />
	</node>
	<node lat="61.84161110747825" lon="5.82630834127656" id="-34328">
		<tag k="name" v="Storehilla" />
		<tag k="place" v="locality" />
		<tag k="ssr:stedsnr" v="475762" />
	</node>
	<node lat="61.83779722090191" lon="5.776775007862953" id="-34330">
		<tag k="name" v="Kjølen" />
		<tag k="natural" v="hill" />
		<tag k="place" v="locality" />
		<tag k="ssr:stedsnr" v="475766" />
	</node>
	<node lat="61.843911110705214" lon="5.789630559761399" id="-34332">
		<tag k="name" v="Klubben" />
		<tag k="natural" v="hill" />
		<tag k="place" v="locality" />
		<tag k="ssr:stedsnr" v="475769" />
	</node>
	<node lat="61.782294448151426" lon="5.296547221894114" id="-34339">
		<tag k="name" v="Bjørnestegen" />
		<tag k="natural" v="slope" />
		<tag k="place" v="locality" />
		<tag k="ssr:stedsnr" v="475756" />
	</node>
	<node lat="61.71445555610108" lon="5.197750007084829" id="-34342">
		<tag k="name" v="Middagsgrova" />
		<tag k="natural" v="valley" />
		<tag k="place" v="locality" />
		<tag k="ssr:stedsnr" v="475923" />
	</node>
	<node lat="61.734563889716576" lon="5.265166673442579" id="-34366">
		<tag k="fixme" v="consider natural=peak for the most distinct mountains in the district" />
		<tag k="name" v="Trollefjellet" />
		<tag k="natural" v="hill" />
		<tag k="place" v="locality" />
		<tag k="ssr:stedsnr" v="372853" />
	</node>
	<node lat="61.6874000015238" lon="5.329055551163402" id="-34367">
		<tag k="name" v="Lægdene" />
		<tag k="natural" v="valley" />
		<tag k="place" v="locality" />
		<tag k="ssr:stedsnr" v="372872" />
	</node>
	<node lat="61.891558330964266" lon="5.488613881603371" id="-34371">
		<tag k="fixme" v="consider natural=peak for the most distinct mountains in the district" />
		<tag k="name" v="Nakkane" />
		<tag k="natural" v="hill" />
		<tag k="place" v="locality" />
		<tag k="ssr:stedsnr" v="373413" />
	</node>
	<node lat="61.79270833759755" lon="5.23439167374568" id="-34373">
		<tag k="fixme" v="consider natural=peak for the most distinct mountains in the district" />
		<tag k="name" v="Storerabben" />
		<tag k="natural" v="hill" />
		<tag k="place" v="locality" />
		<tag k="ssr:stedsnr" v="374109" />
	</node>
	<node lat="61.80349721932662" lon="5.221805559455607" id="-34375">
		<tag k="name" v="Nonsberget" />
		<tag k="natural" v="hill" />
		<tag k="place" v="locality" />
		<tag k="ssr:stedsnr" v="374142" />
	</node>
	<node lat="61.86437777539634" lon="5.168816659021981" id="-34377">
		<tag k="name" v="Sæternipa" />
		<tag k="natural" v="hill" />
		<tag k="place" v="locality" />
		<tag k="ssr:stedsnr" v="374196" />
	</node>
	<node lat="61.77831110776393" lon="5.574613889029872" id="-34378">
		<tag k="fixme" v="consider natural=peak for the most distinct mountains in the district" />
		<tag k="name" v="Midtheida" />
		<tag k="natural" v="hill" />
		<tag k="place" v="locality" />
		<tag k="ssr:stedsnr" v="374305" />
	</node>
	<node lat="61.86186389146385" lon="5.529208333264224" id="-34380">
		<tag k="name" v="Bortnemiddagshola" />
		<tag k="natural" v="valley" />
		<tag k="place" v="locality" />
		<tag k="ssr:stedsnr" v="374397" />
	</node>
	<node lat="61.80141111490076" lon="4.940538886566609" id="-34383">
		<tag k="fixme" v="consider natural=peak for the most distinct mountains in the district" />
		<tag k="name" v="Steinfjellet" />
		<tag k="natural" v="hill" />
		<tag k="place" v="locality" />
		<tag k="ssr:stedsnr" v="374840" />
	</node>
	<node lat="61.89844444320946" lon="5.511130562063782" id="-34389">
		<tag k="name" v="Langedalen" />
		<tag k="natural" v="valley" />
		<tag k="place" v="locality" />
		<tag k="ssr:stedsnr" v="384506" />
	</node>
	<node lat="61.82267499996674" lon="5.571047225537457" id="-34390">
		<tag k="name" v="Heidanova" />
		<tag k="natural" v="hill" />
		<tag k="place" v="locality" />
		<tag k="ssr:stedsnr" v="384509" />
	</node>
	<node lat="61.83586111265132" lon="5.654038898182953" id="-34394">
		<tag k="name" v="Følshammaren" />
		<tag k="natural" v="hill" />
		<tag k="place" v="locality" />
		<tag k="ssr:stedsnr" v="414238" />
	</node>
	<node lat="61.83997777479586" lon="5.424094439392492" id="-34397">
		<tag k="name" v="Nibbekaret" />
		<tag k="natural" v="valley" />
		<tag k="place" v="locality" />
		<tag k="ssr:stedsnr" v="414288" />
	</node>
	<node lat="61.84521667032645" lon="5.419847230174881" id="-34398">
		<tag k="name" v="Vasslia" />
		<tag k="natural" v="slope" />
		<tag k="place" v="locality" />
		<tag k="ssr:stedsnr" v="414289" />
	</node>
	<node lat="61.86188333624708" lon="5.070094435330511" id="-34400">
		<tag k="name" v="Konsdalsbakkane" />
		<tag k="natural" v="slope" />
		<tag k="place" v="locality" />
		<tag k="ssr:stedsnr" v="414296" />
	</node>
	<node lat="61.80560555372635" lon="5.673644449042306" id="-34402">
		<tag k="name" v="Litlefonna" />
		<tag k="natural" v="slope" />
		<tag k="place" v="locality" />
		<tag k="ssr:stedsnr" v="414187" />
	</node>
	<node lat="61.85584444611374" lon="5.3405083313307395" id="-34404">
		<tag k="name" v="Oreløkdalen" />
		<tag k="natural" v="valley" />
		<tag k="place" v="locality" />
		<tag k="ssr:stedsnr" v="414435" />
	</node>
	<node lat="61.89494166502872" lon="5.380908324993094" id="-34407">
		<tag k="name" v="Gjelhaugen" />
		<tag k="natural" v="hill" />
		<tag k="place" v="locality" />
		<tag k="ssr:stedsnr" v="414607" />
	</node>
	<node lat="61.82936111160989" lon="5.118722217840695" id="-34408">
		<tag k="name" v="Sjåhaugen" />
		<tag k="natural" v="hill" />
		<tag k="place" v="locality" />
		<tag k="ssr:stedsnr" v="414608" />
	</node>
	<node lat="61.89930555679572" lon="5.406094441481148" id="-34410">
		<tag k="name" v="Mastrehaugane" />
		<tag k="natural" v="hill" />
		<tag k="place" v="locality" />
		<tag k="ssr:stedsnr" v="414614" />
	</node>
	<node lat="61.89628888823574" lon="5.619130551764808" id="-34412">
		<tag k="name" v="Ulvehillene" />
		<tag k="natural" v="slope" />
		<tag k="place" v="locality" />
		<tag k="ssr:stedsnr" v="414805" />
	</node>
	<node lat="61.88222222233109" lon="5.6676111176176995" id="-34413">
		<tag k="name" v="Hestelida" />
		<tag k="natural" v="slope" />
		<tag k="place" v="locality" />
		<tag k="ssr:stedsnr" v="414808" />
	</node>
	<node lat="61.903852779435795" lon="5.536683329804572" id="-34414">
		<tag k="name" v="Geilehola" />
		<tag k="natural" v="valley" />
		<tag k="place" v="locality" />
		<tag k="ssr:stedsnr" v="414587" />
	</node>
	<node lat="61.904483331459566" lon="5.533655546802757" id="-34415">
		<tag k="name" v="Einstigen" />
		<tag k="natural" v="slope" />
		<tag k="place" v="locality" />
		<tag k="ssr:stedsnr" v="414589" />
	</node>
	<node lat="61.838291665393726" lon="5.77411943955123" id="-34418">
		<tag k="name" v="Fagredalen" />
		<tag k="natural" v="valley" />
		<tag k="place" v="locality" />
		<tag k="ssr:stedsnr" v="414744" />
	</node>
	<node lat="61.754208335868164" lon="5.043433340433804" id="-34420">
		<tag k="name" v="Gamlehjellen" />
		<tag k="place" v="locality" />
		<tag k="ssr:stedsnr" v="414910" />
	</node>
	<node lat="61.71553333058638" lon="5.097858338079831" id="-34423">
		<tag k="name" v="Trollefjellet" />
		<tag k="natural" v="hill" />
		<tag k="place" v="locality" />
		<tag k="ssr:stedsnr" v="414892" />
	</node>
	<node lat="61.87712222206716" lon="4.911405560260896" id="-34425">
		<tag k="name" v="Strupen" />
		<tag k="natural" v="valley" />
		<tag k="place" v="locality" />
		<tag k="ssr:stedsnr" v="415010" />
	</node>
	<node lat="61.893416669334655" lon="4.946041664636536" id="-34426">
		<tag k="name" v="Svehaugen" />
		<tag k="natural" v="hill" />
		<tag k="place" v="locality" />
		<tag k="ssr:stedsnr" v="415112" />
	</node>
	<node lat="61.812975000614514" lon="5.0650027856331725" id="-34428">
		<tag k="name" v="Haugane" />
		<tag k="natural" v="hill" />
		<tag k="place" v="locality" />
		<tag k="ssr:stedsnr" v="415385" />
	</node>
	<node lat="61.815175001462215" lon="5.006158326999236" id="-34429">
		<tag k="name" v="Skipardalskaret" />
		<tag k="natural" v="valley" />
		<tag k="place" v="locality" />
		<tag k="ssr:stedsnr" v="415388" />
	</node>
	<node lat="61.76551389234009" lon="5.2950277720128875" id="-34433">
		<tag k="name" v="Storeskora" />
		<tag k="natural" v="cliff" />
		<tag k="ssr:stedsnr" v="415789" />
	</node>
	<node lat="61.709538885655775" lon="5.025077774637237" id="-34441">
		<tag k="alt_name" v="Litlehorn" />
		<tag k="name" v="Litlehornet" />
		<tag k="natural" v="hill" />
		<tag k="place" v="locality" />
		<tag k="ssr:stedsnr" v="433036" />
	</node>
	<node lat="61.745605557090514" lon="5.789716662210088" id="-34444">
		<tag k="fixme" v="consider natural=peak for the most distinct mountains in the district" />
		<tag k="name" v="Gråfjellet" />
		<tag k="natural" v="hill" />
		<tag k="place" v="locality" />
		<tag k="ssr:stedsnr" v="433634" />
	</node>
	<node lat="61.727983335990174" lon="5.3877444519158955" id="-34446">
		<tag k="fixme" v="consider natural=peak for the most distinct mountains in the district" />
		<tag k="name" v="Risebøra" />
		<tag k="natural" v="hill" />
		<tag k="place" v="locality" />
		<tag k="ssr:stedsnr" v="433829" />
	</node>
	<node lat="61.73916110732701" lon="5.366913889139335" id="-34447">
		<tag k="fixme" v="consider natural=peak for the most distinct mountains in the district" />
		<tag k="name" v="Handkleet" />
		<tag k="natural" v="hill" />
		<tag k="place" v="locality" />
		<tag k="ssr:stedsnr" v="433830" />
	</node>
	<node lat="61.73287777408685" lon="5.349313883668248" id="-34448">
		<tag k="name" v="Nakken" />
		<tag k="natural" v="hill" />
		<tag k="place" v="locality" />
		<tag k="ssr:stedsnr" v="433831" />
	</node>
	<node lat="61.755611109947715" lon="4.859180553670932" id="-34456">
		<tag k="fixme" v="multiple name tags, choose one and add the other to alt_name; consider natural=peak for the most distinct mountains in the district" />
		<tag k="name" v="Flona;Flofjellet" />
		<tag k="natural" v="hill" />
		<tag k="place" v="locality" />
		<tag k="ssr:stedsnr" v="434812" />
	</node>
	<node lat="61.816402781308646" lon="5.461911111388335" id="-34460">
		<tag k="name" v="Fjellbotnen" />
		<tag k="natural" v="valley" />
		<tag k="place" v="locality" />
		<tag k="ssr:stedsnr" v="435126" />
	</node>
	<node lat="61.88451870328034" lon="5.344627015425071" id="-34464">
		<tag k="name" v="Hessevågbakken" />
		<tag k="natural" v="slope" />
		<tag k="place" v="locality" />
		<tag k="ssr:stedsnr" v="435216" />
	</node>
	<node lat="61.8908833338422" lon="5.359413895648568" id="-34467">
		<tag k="fixme" v="consider natural=peak for the most distinct mountains in the district" />
		<tag k="name" v="Ramntoppen" />
		<tag k="natural" v="hill" />
		<tag k="place" v="locality" />
		<tag k="ssr:stedsnr" v="435224" />
	</node>
	<node lat="61.81461110991179" lon="5.479841661897174" id="-34469">
		<tag k="name" v="Fjelledalen" />
		<tag k="natural" v="valley" />
		<tag k="place" v="locality" />
		<tag k="ssr:stedsnr" v="435365" />
	</node>
	<node lat="61.80242221883626" lon="5.689502784747729" id="-34470">
		<tag k="fixme" v="consider natural=peak for the most distinct mountains in the district" />
		<tag k="name" v="Middagsnakken" />
		<tag k="natural" v="hill" />
		<tag k="place" v="locality" />
		<tag k="ssr:stedsnr" v="435382" />
	</node>
	<node lat="61.855888890752105" lon="5.712349992902628" id="-34471">
		<tag k="name" v="Saudskaret" />
		<tag k="natural" v="valley" />
		<tag k="place" v="locality" />
		<tag k="ssr:stedsnr" v="435403" />
	</node>
	<node lat="61.85460833115935" lon="5.734497228292338" id="-34472">
		<tag k="fixme" v="consider natural=peak for the most distinct mountains in the district" />
		<tag k="name" v="Aksla" />
		<tag k="natural" v="hill" />
		<tag k="place" v="locality" />
		<tag k="ssr:stedsnr" v="435406" />
	</node>
	<node lat="61.806913889949804" lon="5.447333333805442" id="-34473">
		<tag k="fixme" v="consider natural=peak for the most distinct mountains in the district" />
		<tag k="name" v="Nibba" />
		<tag k="natural" v="hill" />
		<tag k="place" v="locality" />
		<tag k="ssr:stedsnr" v="435807" />
	</node>
	<node lat="61.747897218243814" lon="5.024866673561727" id="-34477">
		<tag k="name" v="Skudalen" />
		<tag k="natural" v="valley" />
		<tag k="place" v="locality" />
		<tag k="ssr:stedsnr" v="493451" />
	</node>
	<node lat="61.69850000189854" lon="4.99908888320558" id="-34478">
		<tag k="fixme" v="consider natural=peak for the most distinct mountains in the district" />
		<tag k="name" v="Skredene" />
		<tag k="natural" v="hill" />
		<tag k="place" v="locality" />
		<tag k="ssr:stedsnr" v="494060" />
	</node>
	<node lat="61.850413891481374" lon="5.063888897136555" id="-34479">
		<tag k="fixme" v="consider natural=peak for the most distinct mountains in the district" />
		<tag k="name" v="Middagsnova" />
		<tag k="natural" v="hill" />
		<tag k="place" v="locality" />
		<tag k="ssr:stedsnr" v="445003" />
	</node>
	<node lat="61.78497777524559" lon="5.233474999926132" id="-34485">
		<tag k="fixme" v="consider natural=peak for the most distinct mountains in the district" />
		<tag k="name" v="Merkingsnova" />
		<tag k="natural" v="hill" />
		<tag k="place" v="locality" />
		<tag k="ssr:stedsnr" v="677112" />
	</node>
	<node lat="61.81444166416161" lon="5.638383342366378" id="-34486">
		<tag k="name" v="Øyra" />
		<tag k="place" v="locality" />
		<tag k="ssr:stedsnr" v="474113" />
	</node>
	<node lat="61.805149999336386" lon="5.667825001933046" id="-34487">
		<tag k="name" v="Åskorhogen" />
		<tag k="natural" v="hill" />
		<tag k="place" v="locality" />
		<tag k="ssr:stedsnr" v="474121" />
	</node>
	<node lat="61.80446944548913" lon="5.638011103783336" id="-34488">
		<tag k="name" v="Lægda" />
		<tag k="natural" v="valley" />
		<tag k="place" v="locality" />
		<tag k="ssr:stedsnr" v="474123" />
	</node>
	<node lat="61.83646667009302" lon="5.549344443542416" id="-34489">
		<tag k="name" v="Steinbakkane" />
		<tag k="natural" v="slope" />
		<tag k="place" v="locality" />
		<tag k="ssr:stedsnr" v="474158" />
	</node>
	<node lat="61.76829999770917" lon="4.877427775692432" id="-34492">
		<tag k="name" v="Kleivane" />
		<tag k="natural" v="slope" />
		<tag k="place" v="locality" />
		<tag k="ssr:stedsnr" v="474386" />
	</node>
	<node lat="61.8072000017293" lon="5.186386102662731" id="-34495">
		<tag k="name" v="Skora" />
		<tag k="natural" v="hill" />
		<tag k="place" v="locality" />
		<tag k="ssr:stedsnr" v="474520" />
	</node>
	<node lat="61.89846110978127" lon="5.3742305494964775" id="-34496">
		<tag k="name" v="Geitebrunakken" />
		<tag k="natural" v="hill" />
		<tag k="place" v="locality" />
		<tag k="ssr:stedsnr" v="474610" />
	</node>
	<node lat="61.77118055717958" lon="5.125263886324944" id="-34499">
		<tag k="name" v="Nesbødalen" />
		<tag k="natural" v="valley" />
		<tag k="place" v="locality" />
		<tag k="ssr:stedsnr" v="474813" />
	</node>
	<node lat="61.78265000312905" lon="5.126452780468709" id="-34500">
		<tag k="name" v="Ørnefarbakkane" />
		<tag k="natural" v="slope" />
		<tag k="place" v="locality" />
		<tag k="ssr:stedsnr" v="474815" />
	</node>
	<node lat="61.78165277993219" lon="5.134405558389736" id="-34501">
		<tag k="name" v="Marafjellbrua" />
		<tag k="place" v="locality" />
		<tag k="ssr:stedsnr" v="474817" />
	</node>
	<node lat="61.7349361076715" lon="5.3110944356663214" id="-34502">
		<tag k="fixme" v="consider natural=peak for the most distinct mountains in the district" />
		<tag k="name" v="Tverrfjellet" />
		<tag k="natural" v="hill" />
		<tag k="place" v="locality" />
		<tag k="ssr:stedsnr" v="676823" />
	</node>
	<node lat="61.74536944555785" lon="5.351963897763396" id="-34503">
		<tag k="name" v="Sørvassbotnen" />
		<tag k="natural" v="valley" />
		<tag k="place" v="locality" />
		<tag k="ssr:stedsnr" v="676829" />
	</node>
	<node lat="61.709197223016574" lon="5.24837500215478" id="-34512">
		<tag k="fixme" v="consider natural=peak for the most distinct mountains in the district" />
		<tag k="name" v="Lunden" />
		<tag k="natural" v="hill" />
		<tag k="place" v="locality" />
		<tag k="ssr:stedsnr" v="676858" />
	</node>
	<node lat="61.842308334039615" lon="5.09384999604475" id="-34516">
		<tag k="name" v="Lammeskaret" />
		<tag k="natural" v="valley" />
		<tag k="place" v="locality" />
		<tag k="ssr:stedsnr" v="475613" />
	</node>
	<node lat="61.884530555317255" lon="5.519555561997946" id="-34517">
		<tag k="name" v="Hamrehammaren" />
		<tag k="natural" v="hill" />
		<tag k="place" v="locality" />
		<tag k="ssr:stedsnr" v="475566" />
	</node>
	<node lat="61.765430555836744" lon="5.113466675547634" id="-34519">
		<tag k="name" v="Juvikstrupen" />
		<tag k="natural" v="valley" />
		<tag k="place" v="locality" />
		<tag k="ssr:stedsnr" v="475814" />
	</node>
	<node lat="61.70662222068618" lon="5.127813895445315" id="-34523">
		<tag k="name" v="Mosehamrane" />
		<tag k="natural" v="hill" />
		<tag k="place" v="locality" />
		<tag k="ssr:stedsnr" v="475891" />
	</node>
	<node lat="61.703311114799405" lon="5.097802776007241" id="-34524">
		<tag k="name" v="Kvernhaugen" />
		<tag k="natural" v="hill" />
		<tag k="place" v="locality" />
		<tag k="ssr:stedsnr" v="475899" />
	</node>
	<node lat="61.69467222502573" lon="5.084424999968782" id="-34528">
		<tag k="name" v="Vassbotnen" />
		<tag k="natural" v="valley" />
		<tag k="place" v="locality" />
		<tag k="ssr:stedsnr" v="475916" />
	</node>
	<node lat="61.8606027781306" lon="4.893930557208225" id="-34529">
		<tag k="fixme" v="consider natural=peak for the most distinct mountains in the district" />
		<tag k="name" v="Skadgyttnipa" />
		<tag k="natural" v="hill" />
		<tag k="place" v="locality" />
		<tag k="ssr:stedsnr" v="677894" />
	</node>
	<node lat="61.83958333342837" lon="5.374838885020603" id="-34531">
		<tag k="fixme" v="consider natural=peak for the most distinct mountains in the district" />
		<tag k="name" v="Breahornet" />
		<tag k="natural" v="hill" />
		<tag k="place" v="locality" />
		<tag k="ssr:stedsnr" v="677114" />
	</node>
	<node lat="61.804033333740286" lon="5.193041676076058" id="-34532">
		<tag k="fixme" v="consider natural=peak for the most distinct mountains in the district" />
		<tag k="name" v="Aksla" />
		<tag k="natural" v="hill" />
		<tag k="place" v="locality" />
		<tag k="ssr:stedsnr" v="677125" />
	</node>
	<node lat="61.82836111439555" lon="5.128449994260611" id="-34533">
		<tag k="name" v="Kletten" />
		<tag k="natural" v="hill" />
		<tag k="place" v="locality" />
		<tag k="ssr:stedsnr" v="677128" />
	</node>
	<node lat="61.91275555661856" lon="5.411633339249134" id="-34535">
		<tag k="name" v="Brusenakken" />
		<tag k="natural" v="hill" />
		<tag k="place" v="locality" />
		<tag k="ssr:stedsnr" v="677203" />
	</node>
	<node lat="61.87467778190086" lon="5.404663892567567" id="-34536">
		<tag k="fixme" v="consider natural=peak for the most distinct mountains in the district" />
		<tag k="name" v="Rauddalskammen" />
		<tag k="natural" v="hill" />
		<tag k="place" v="locality" />
		<tag k="ssr:stedsnr" v="677156" />
	</node>
	<node lat="61.86638611443116" lon="5.206266668313748" id="-34537">
		<tag k="fixme" v="consider natural=peak for the most distinct mountains in the district" />
		<tag k="name" v="Nonsnakken" />
		<tag k="natural" v="hill" />
		<tag k="place" v="locality" />
		<tag k="ssr:stedsnr" v="677160" />
	</node>
	<node lat="61.80065555579988" lon="5.647752769775403" id="-34542">
		<tag k="fixme" v="consider natural=peak for the most distinct mountains in the district" />
		<tag k="name" v="Nykane" />
		<tag k="natural" v="hill" />
		<tag k="place" v="locality" />
		<tag k="ssr:stedsnr" v="677313" />
	</node>
	<node lat="61.873536111785675" lon="5.4734305623059925" id="-34544">
		<tag k="fixme" v="consider natural=peak for the most distinct mountains in the district" />
		<tag k="name" v="Troda" />
		<tag k="natural" v="hill" />
		<tag k="place" v="locality" />
		<tag k="ssr:stedsnr" v="677363" />
	</node>
	<node lat="61.77376111553533" lon="4.861538889443615" id="-34550">
		<tag k="fixme" v="multiple name tags, choose one and add the other to alt_name; consider natural=peak for the most distinct mountains in the district" />
		<tag k="name" v="Ryggen;Støreroggjene" />
		<tag k="natural" v="hill" />
		<tag k="place" v="locality" />
		<tag k="ssr:stedsnr" v="677844" />
	</node>
	<node lat="61.89973180137281" lon="4.941987265382208" id="-34557">
		<tag k="alt_name" v="Litlesåta" />
		<tag k="fixme" v="consider natural=peak for the most distinct mountains in the district" />
		<tag k="name" v="Såta" />
		<tag k="natural" v="hill" />
		<tag k="place" v="locality" />
		<tag k="ssr:stedsnr" v="678955" />
	</node>
	<node lat="61.733622223193734" lon="5.332777770096312" id="-34559">
		<tag k="fixme" v="consider natural=peak for the most distinct mountains in the district" />
		<tag k="name" v="Staven" />
		<tag k="natural" v="hill" />
		<tag k="place" v="locality" />
		<tag k="ssr:stedsnr" v="493840" />
	</node>
	<node lat="61.82368611190745" lon="5.706077784310193" id="-34570">
		<tag k="name" v="Svarthamrane" />
		<tag k="natural" v="hill" />
		<tag k="place" v="locality" />
		<tag k="ssr:stedsnr" v="495321" />
	</node>
	<node lat="61.856669442621694" lon="5.696408331004367" id="-34573">
		<tag k="name" v="Glenneskaret" />
		<tag k="natural" v="valley" />
		<tag k="place" v="locality" />
		<tag k="ssr:stedsnr" v="495356" />
	</node>
	<node lat="61.85535833086852" lon="5.681125000763099" id="-34574">
		<tag k="fixme" v="consider natural=peak for the most distinct mountains in the district" />
		<tag k="name" v="Kårnyken" />
		<tag k="natural" v="hill" />
		<tag k="place" v="locality" />
		<tag k="ssr:stedsnr" v="495359" />
	</node>
	<node lat="61.86671666628435" lon="4.933180564230281" id="-34578">
		<tag k="name" v="Steinnipa" />
		<tag k="natural" v="hill" />
		<tag k="place" v="locality" />
		<tag k="ssr:stedsnr" v="495906" />
	</node>
	<node lat="61.85046944737895" lon="5.053577784201972" id="-34580">
		<tag k="alt_name" v="Månen" />
		<tag k="fixme" v="consider natural=peak for the most distinct mountains in the district" />
		<tag k="name" v="Måna" />
		<tag k="natural" v="hill" />
		<tag k="place" v="locality" />
		<tag k="ssr:stedsnr" v="495911" />
	</node>
	<node lat="61.83309999857771" lon="5.023241660223556" id="-34584">
		<tag k="fixme" v="consider natural=peak for the most distinct mountains in the district" />
		<tag k="name" v="Nipene" />
		<tag k="natural" v="hill" />
		<tag k="place" v="locality" />
		<tag k="ssr:stedsnr" v="495925" />
	</node>
	<node lat="61.814377773695675" lon="5.543886107480674" id="-34591">
		<tag k="name" v="Pottekråna" />
		<tag k="natural" v="valley" />
		<tag k="place" v="locality" />
		<tag k="ssr:stedsnr" v="535321" />
	</node>
	<node lat="61.85072222145916" lon="5.369041674569643" id="-34593">
		<tag k="name" v="Sjølvskot" />
		<tag k="natural" v="slope" />
		<tag k="place" v="locality" />
		<tag k="ssr:stedsnr" v="535375" />
	</node>
</osm>
