<?xml version="1.0" encoding="UTF-8"?>
<osm version="0.6" generator="osmapis">
	<node lat="61.751780551584204" lon="5.026738882744635" id="-33716">
		<tag k="bridge" v="yes" />
		<tag k="layer" v="1" />
		<tag k="name" v="Skudalselva" />
		<tag k="ssr:stedsnr" v="229666" />
	</node>
	<node lat="61.786644444692115" lon="4.930327775016388" id="-33717">
		<tag k="bridge" v="yes" />
		<tag k="layer" v="1" />
		<tag k="name" v="Trangesundet" />
		<tag k="ssr:stedsnr" v="229667" />
	</node>
	<node lat="61.71268889220818" lon="4.993458326689489" id="-33718">
		<tag k="fixme" v="consider natural=peak for the most distinct mountains in the district" />
		<tag k="name" v="Knoltrane" />
		<tag k="natural" v="hill" />
		<tag k="place" v="locality" />
		<tag k="ssr:stedsnr" v="8053" />
	</node>
	<node lat="61.729186110795375" lon="4.985855555691197" id="-33719">
		<tag k="name" v="Sletta" />
		<tag k="place" v="farm" />
		<tag k="ssr:stedsnr" v="8470" />
	</node>
	<node lat="61.74211944772018" lon="4.813708323674025" id="-33720">
		<tag k="fixme" v="consider seamark:type=rock or natural=shoal" />
		<tag k="name" v="Rasmusskjeret" />
		<tag k="place" v="islet" />
		<tag k="ssr:stedsnr" v="8504" />
	</node>
	<node lat="61.7405888900982" lon="5.020522228597679" id="-33721">
		<tag k="name" v="Knoltren" />
		<tag k="natural" v="hill" />
		<tag k="place" v="locality" />
		<tag k="ssr:stedsnr" v="8490" />
	</node>
	<node lat="61.72627222436123" lon="5.319083331835174" id="-33722">
		<tag k="fixme" v="consider natural=peak for the most distinct mountains in the district" />
		<tag k="name" v="Rikeloftet" />
		<tag k="natural" v="hill" />
		<tag k="place" v="locality" />
		<tag k="ssr:stedsnr" v="8850" />
	</node>
	<node lat="61.732869445835256" lon="5.327466674380282" id="-33723">
		<tag k="name" v="Staveskaret" />
		<tag k="natural" v="valley" />
		<tag k="place" v="locality" />
		<tag k="ssr:stedsnr" v="8852" />
	</node>
	<node lat="61.73474999766685" lon="5.0946222284052585" id="-33724">
		<tag k="fixme" v="consider natural=peak for the most distinct mountains in the district" />
		<tag k="name" v="Rognen" />
		<tag k="natural" v="hill" />
		<tag k="place" v="locality" />
		<tag k="ssr:stedsnr" v="8800" />
	</node>
	<node lat="61.806716670703146" lon="5.268783323534133" id="-33725">
		<tag k="fixme" v="consider natural=peak for the most distinct mountains in the district" />
		<tag k="name" v="Urdalsegga" />
		<tag k="natural" v="hill" />
		<tag k="place" v="locality" />
		<tag k="ssr:stedsnr" v="10101" />
	</node>
	<node lat="61.769472223257836" lon="5.223877769902986" id="-33726">
		<tag k="bay" v="fjord" />
		<tag k="name" v="Nordgulen" />
		<tag k="natural" v="bay" />
		<tag k="ssr:stedsnr" v="10097" />
	</node>
	<node lat="61.88667777385167" lon="5.222797218115638" id="-33727">
		<tag k="name" v="Skorpeneset" />
		<tag k="natural" v="cape" />
		<tag k="ssr:stedsnr" v="10201" />
	</node>
	<node lat="61.90659166376985" lon="5.420958335186591" id="-33728">
		<tag k="name" v="Otravatnet" />
		<tag k="natural" v="water" />
		<tag k="ssr:stedsnr" v="10208" />
	</node>
	<node lat="61.89941944436047" lon="5.3749527691354295" id="-33729">
		<tag k="name" v="Geitebrua" />
		<tag k="natural" v="hill" />
		<tag k="place" v="locality" />
		<tag k="ssr:stedsnr" v="10212" />
	</node>
	<node lat="61.825394442386646" lon="5.52077500530475" id="-33730">
		<tag k="fixme" v="consider natural=peak for the most distinct mountains in the district" />
		<tag k="name" v="Huaren" />
		<tag k="natural" v="hill" />
		<tag k="place" v="locality" />
		<tag k="ssr:stedsnr" v="10301" />
	</node>
	<node lat="61.81060555135518" lon="5.66876944538494" id="-33731">
		<tag k="name" v="Åskorelva" />
		<tag k="ssr:stedsnr" v="10317" />
		<tag k="waterway" v="stream" />
	</node>
	<node lat="61.8101319017094" lon="5.833722934311315" id="-33732">
		<tag k="name" v="Isevatnet" />
		<tag k="natural" v="water" />
		<tag k="ssr:stedsnr" v="10321" />
		<tag k="water" v="lake" />
	</node>
	<node lat="61.8627333336093" lon="5.658733328860541" id="-33733">
		<tag k="fixme" v="consider natural=peak for the most distinct mountains in the district" />
		<tag k="name" v="Kvasshornet" />
		<tag k="natural" v="hill" />
		<tag k="place" v="locality" />
		<tag k="ssr:stedsnr" v="10328" />
	</node>
	<node lat="61.84986666770103" lon="5.661333331341626" id="-33734">
		<tag k="fixme" v="consider natural=peak for the most distinct mountains in the district" />
		<tag k="name" v="Skavlen" />
		<tag k="natural" v="hill" />
		<tag k="place" v="locality" />
		<tag k="ssr:stedsnr" v="10335" />
	</node>
	<node lat="61.842233330983056" lon="5.554933339955263" id="-33735">
		<tag k="name" v="Fessefossen" />
		<tag k="natural" v="waterfall" />
		<tag k="ssr:stedsnr" v="10337" />
	</node>
	<node lat="61.6778611082758" lon="5.295272226814581" id="-33736">
		<tag k="name" v="Handkledalen" />
		<tag k="natural" v="valley" />
		<tag k="place" v="locality" />
		<tag k="ssr:stedsnr" v="10801" />
	</node>
	<node lat="61.79597222502716" lon="5.00022500228787" id="-33737">
		<tag k="fixme" v="consider natural=peak for the most distinct mountains in the district" />
		<tag k="name" v="Geitanipa" />
		<tag k="natural" v="hill" />
		<tag k="place" v="locality" />
		<tag k="ssr:stedsnr" v="10835" />
	</node>
	<node lat="61.79564722034627" lon="4.8391222182933955" id="-33738">
		<tag k="name" v="Langevatnet" />
		<tag k="natural" v="water" />
		<tag k="ssr:stedsnr" v="10838" />
	</node>
	<node lat="61.874563888705026" lon="4.999580552457578" id="-33739">
		<tag k="name" v="Steinfjellvatnet" />
		<tag k="natural" v="water" />
		<tag k="ssr:stedsnr" v="10892" />
	</node>
	<node lat="61.85629838341262" lon="4.835137566170832" id="-33740">
		<tag k="alt_name" v="Brattfjellet" />
		<tag k="fixme" v="consider natural=peak for the most distinct mountains in the district" />
		<tag k="name" v="Brattefjellet" />
		<tag k="natural" v="hill" />
		<tag k="place" v="locality" />
		<tag k="ssr:stedsnr" v="10897" />
	</node>
	<node lat="61.86686666250957" lon="4.962361115467162" id="-33741">
		<tag k="fixme" v="consider natural=peak for the most distinct mountains in the district" />
		<tag k="name" v="Tunga" />
		<tag k="natural" v="hill" />
		<tag k="place" v="locality" />
		<tag k="ssr:stedsnr" v="10900" />
	</node>
	<node lat="61.836811113615184" lon="4.729044436728223" id="-33742">
		<tag k="name" v="Håøygrunnen" />
		<tag k="natural" v="shoal" />
		<tag k="place" v="locality" />
		<tag k="ssr:stedsnr" v="10903" />
	</node>
	<node lat="61.843800003913614" lon="4.860652771662473" id="-33743">
		<tag k="name" v="Vissholmen" />
		<tag k="place" v="islet" />
		<tag k="ssr:stedsnr" v="10905" />
	</node>
	<node lat="61.874791667790056" lon="4.875383331466927" id="-33744">
		<tag k="alt_name" v="Tussevika;Øksevika" />
		<tag k="name" v="Ytste Tussevika" />
		<tag k="natural" v="bay" />
		<tag k="ssr:stedsnr" v="10989" />
	</node>
	<node lat="61.87586666739735" lon="4.902872214282613" id="-33745">
		<tag k="fixme" v="consider natural=peak for the most distinct mountains in the district" />
		<tag k="name" v="Nonsfjellet" />
		<tag k="natural" v="hill" />
		<tag k="place" v="locality" />
		<tag k="ssr:stedsnr" v="10991" />
	</node>
	<node lat="61.87825833336373" lon="4.950158333310415" id="-33746">
		<tag k="name" v="Karihaugen" />
		<tag k="natural" v="hill" />
		<tag k="place" v="locality" />
		<tag k="ssr:stedsnr" v="10992" />
	</node>
	<node lat="61.8040861071732" lon="4.864469441319213" id="-33747">
		<tag k="name" v="Stroka" />
		<tag k="natural" v="valley" />
		<tag k="place" v="locality" />
		<tag k="ssr:stedsnr" v="232026" />
	</node>
	<node lat="61.81296111438408" lon="5.640311109648705" id="-33748">
		<tag k="name" v="Kastet" />
		<tag k="place" v="locality" />
		<tag k="ssr:stedsnr" v="232123" />
	</node>
	<node lat="61.83848333251424" lon="5.543936106914385" id="-33749">
		<tag k="name" v="Dalsetebakkane" />
		<tag k="natural" v="slope" />
		<tag k="place" v="locality" />
		<tag k="ssr:stedsnr" v="232158" />
	</node>
	<node lat="61.84046388585596" lon="5.588422224631034" id="-33750">
		<tag k="name" v="Korshylla" />
		<tag k="place" v="locality" />
		<tag k="ssr:stedsnr" v="232164" />
	</node>
	<node lat="61.80642778147948" lon="5.526549991940367" id="-33751">
		<tag k="name" v="Urberget" />
		<tag k="natural" v="hill" />
		<tag k="place" v="locality" />
		<tag k="ssr:stedsnr" v="232176" />
	</node>
	<node lat="61.84205833146548" lon="5.670299997416321" id="-33752">
		<tag k="name" v="Attefargjølet" />
		<tag k="ssr:stedsnr" v="232233" />
		<tag k="waterway" v="stream" />
	</node>
	<node lat="61.832966669621115" lon="5.651141666179792" id="-33753">
		<tag k="name" v="Kvilet" />
		<tag k="natural" v="hill" />
		<tag k="place" v="locality" />
		<tag k="ssr:stedsnr" v="232227" />
	</node>
	<node lat="61.87050833708785" lon="4.973591675044838" id="-33754">
		<tag k="name" v="Rabben" />
		<tag k="natural" v="ridge" />
		<tag k="place" v="locality" />
		<tag k="ssr:stedsnr" v="232298" />
	</node>
	<node lat="61.84576666398244" lon="4.998772217336931" id="-33755">
		<tag k="fixme" v="consider natural=peak for the most distinct mountains in the district" />
		<tag k="name" v="Risefjellet" />
		<tag k="natural" v="hill" />
		<tag k="place" v="locality" />
		<tag k="ssr:stedsnr" v="232243" />
	</node>
	<node lat="61.85031667047508" lon="4.979147216413832" id="-33756">
		<tag k="name" v="Bakkane" />
		<tag k="natural" v="slope" />
		<tag k="place" v="locality" />
		<tag k="ssr:stedsnr" v="232244" />
	</node>
	<node lat="61.853491665957215" lon="5.397205556767507" id="-33757">
		<tag k="name" v="Vassdalen" />
		<tag k="natural" v="valley" />
		<tag k="place" v="locality" />
		<tag k="ssr:stedsnr" v="232271" />
	</node>
	<node lat="61.84206944112372" lon="5.424752780896237" id="-33758">
		<tag k="name" v="Nibbura" />
		<tag k="natural" v="scree" />
		<tag k="ssr:stedsnr" v="232274" />
	</node>
	<node lat="61.782486113087415" lon="4.966111103391009" id="-33759">
		<tag k="name" v="Vika" />
		<tag k="natural" v="bay" />
		<tag k="ssr:stedsnr" v="232378" />
	</node>
	<node lat="61.852116670783644" lon="5.350055557865706" id="-33760">
		<tag k="name" v="Setredalen" />
		<tag k="natural" v="valley" />
		<tag k="place" v="locality" />
		<tag k="ssr:stedsnr" v="232347" />
	</node>
	<node lat="61.770116669413916" lon="4.842805563430306" id="-33761">
		<tag k="name" v="Vågeneset" />
		<tag k="natural" v="cape" />
		<tag k="ssr:stedsnr" v="232353" />
	</node>
	<node lat="61.77702222042861" lon="4.880277787101989" id="-33762">
		<tag k="man_made" v="cairn" />
		<tag k="name" v="Lægdevarden" />
		<tag k="place" v="locality" />
		<tag k="ssr:stedsnr" v="232356" />
	</node>
	<node lat="61.76483055133797" lon="4.8839833333430365" id="-33763">
		<tag k="name" v="Djupholmen" />
		<tag k="place" v="islet" />
		<tag k="ssr:stedsnr" v="232358" />
	</node>
	<node lat="61.75996666756546" lon="4.84986945094684" id="-33764">
		<tag k="name" v="Kvannefjellet" />
		<tag k="natural" v="hill" />
		<tag k="place" v="locality" />
		<tag k="ssr:stedsnr" v="232372" />
	</node>
	<node lat="61.9008999965713" lon="5.489502772168999" id="-33765">
		<tag k="name" v="Ospehogen" />
		<tag k="natural" v="hill" />
		<tag k="place" v="locality" />
		<tag k="ssr:stedsnr" v="232524" />
	</node>
	<node lat="61.88075833284482" lon="5.203541672006711" id="-33766">
		<tag k="name" v="Tangane" />
		<tag k="place" v="locality" />
		<tag k="ssr:stedsnr" v="232526" />
	</node>
	<node lat="61.87047499663385" lon="5.190788886562229" id="-33767">
		<tag k="name" v="Saltkjergjølet" />
		<tag k="natural" v="valley" />
		<tag k="place" v="locality" />
		<tag k="ssr:stedsnr" v="232527" />
	</node>
	<node lat="61.89037778159842" lon="5.307222223510909" id="-33768">
		<tag k="fixme" v="verify maritime location" />
		<tag k="mooring" v="yes" />
		<tag k="name" v="Kråkevåg" />
		<tag k="place" v="locality" />
		<tag k="ssr:stedsnr" v="232538" />
	</node>
	<node lat="61.856183331047795" lon="5.37703056078588" id="-33769">
		<tag k="name" v="Vika" />
		<tag k="natural" v="bay" />
		<tag k="ssr:stedsnr" v="232403" />
	</node>
	<node lat="61.875827781553355" lon="5.350422223929512" id="-33770">
		<tag k="name" v="Olsbønipa" />
		<tag k="natural" v="ridge" />
		<tag k="place" v="locality" />
		<tag k="ssr:stedsnr" v="232409" />
	</node>
	<node lat="61.865938886251804" lon="5.343372225653001" id="-33771">
		<tag k="name" v="Sandrabben" />
		<tag k="natural" v="slope" />
		<tag k="place" v="locality" />
		<tag k="ssr:stedsnr" v="232420" />
	</node>
	<node lat="61.870858336118296" lon="5.333583331262458" id="-33772">
		<tag k="name" v="Middagssteinen" />
		<tag k="natural" v="stone" />
		<tag k="ssr:stedsnr" v="232424" />
	</node>
	<node lat="61.77693333297919" lon="4.819305550186798" id="-33773">
		<tag k="fixme" v="consider seamark:type=rock or natural=shoal" />
		<tag k="name" v="Molvikskjeret" />
		<tag k="place" v="islet" />
		<tag k="ssr:stedsnr" v="232454" />
	</node>
	<node lat="61.80266667048806" lon="5.144622212971721" id="-33774">
		<tag k="name" v="Nordavindshamnen" />
		<tag k="natural" v="bay" />
		<tag k="ssr:stedsnr" v="232468" />
	</node>
	<node lat="61.81293888497031" lon="5.24163333165897" id="-33775">
		<tag k="name" v="Skjørosten" />
		<tag k="natural" v="slope" />
		<tag k="place" v="locality" />
		<tag k="ssr:stedsnr" v="232469" />
	</node>
	<node lat="61.80970278080469" lon="5.2284972129016" id="-33776">
		<tag k="name" v="Myrelva" />
		<tag k="ssr:stedsnr" v="232476" />
		<tag k="waterway" v="stream" />
	</node>
	<node lat="61.89175278170589" lon="5.353516662740837" id="-33777">
		<tag k="name" v="Grunnesvika" />
		<tag k="natural" v="bay" />
		<tag k="ssr:stedsnr" v="232549" />
	</node>
	<node lat="61.837694440551644" lon="5.084558325971549" id="-33778">
		<tag k="name" v="Ramneskora" />
		<tag k="natural" v="hill" />
		<tag k="place" v="locality" />
		<tag k="ssr:stedsnr" v="232550" />
	</node>
	<node lat="61.8923944408688" lon="5.326972226057487" id="-33779">
		<tag k="name" v="Klungreholmane" />
		<tag k="place" v="islet" />
		<tag k="ssr:stedsnr" v="232563" />
	</node>
	<node lat="61.89018610873198" lon="5.3334888831930005" id="-33780">
		<tag k="name" v="Grisevika" />
		<tag k="natural" v="bay" />
		<tag k="ssr:stedsnr" v="232565" />
	</node>
	<node lat="61.828863891722975" lon="5.122133327512333" id="-33781">
		<tag k="name" v="Vågen" />
		<tag k="natural" v="strait" />
		<tag k="ssr:stedsnr" v="232568" />
	</node>
	<node lat="61.831255558715746" lon="5.180066665211228" id="-33782">
		<tag k="alt_name" v="Flæa" />
		<tag k="name" v="Flæberga" />
		<tag k="natural" v="hill" />
		<tag k="place" v="locality" />
		<tag k="ssr:stedsnr" v="232570" />
	</node>
	<node lat="61.86117777709739" lon="5.134088895443222" id="-33783">
		<tag k="name" v="Litledalsvatnet" />
		<tag k="natural" v="water" />
		<tag k="ssr:stedsnr" v="232592" />
	</node>
	<node lat="61.75058611256792" lon="5.229041675084789" id="-33784">
		<tag k="name" v="Heiabrua" />
		<tag k="natural" v="slope" />
		<tag k="place" v="locality" />
		<tag k="ssr:stedsnr" v="232749" />
	</node>
	<node lat="61.74811666812985" lon="5.255724995009652" id="-33785">
		<tag k="name" v="Heia" />
		<tag k="natural" v="hill" />
		<tag k="place" v="locality" />
		<tag k="ssr:stedsnr" v="232752" />
	</node>
	<node lat="61.756155553166444" lon="5.220808325295942" id="-33786">
		<tag k="name" v="Dyrenosa" />
		<tag k="place" v="locality" />
		<tag k="ssr:stedsnr" v="232754" />
	</node>
	<node lat="61.76243055343368" lon="5.169769448652839" id="-33787">
		<tag k="name" v="Olavika" />
		<tag k="natural" v="bay" />
		<tag k="ssr:stedsnr" v="232768" />
	</node>
	<node lat="61.73606111271555" lon="5.165152778661038" id="-33788">
		<tag k="name" v="Furenesholmen" />
		<tag k="natural" v="bay" />
		<tag k="ssr:stedsnr" v="232858" />
	</node>
	<node lat="61.74193610991456" lon="5.148158327088248" id="-33789">
		<tag k="name" v="Skarveneset" />
		<tag k="natural" v="cape" />
		<tag k="ssr:stedsnr" v="232860" />
	</node>
	<node lat="61.72813055506394" lon="5.118144437520258" id="-33790">
		<tag k="name" v="Arnestokken" />
		<tag k="natural" v="beach" />
		<tag k="ssr:stedsnr" v="232865" />
	</node>
	<node lat="61.71891944612388" lon="5.18032221421328" id="-33791">
		<tag k="name" v="Skjerva" />
		<tag k="natural" v="ridge" />
		<tag k="place" v="locality" />
		<tag k="ssr:stedsnr" v="232901" />
	</node>
	<node lat="61.74968889143798" lon="5.035591660930974" id="-33792">
		<tag k="name" v="Nipene" />
		<tag k="natural" v="hill" />
		<tag k="place" v="locality" />
		<tag k="ssr:stedsnr" v="232921" />
	</node>
	<node lat="61.81898611067523" lon="4.937438898346577" id="-33793">
		<tag k="name" v="Sjøsteinen" />
		<tag k="natural" v="stone" />
		<tag k="ssr:stedsnr" v="233021" />
	</node>
	<node lat="61.736269444073315" lon="5.1379555604539515" id="-33794">
		<tag k="name" v="Ramseviknes" />
		<tag k="natural" v="cape" />
		<tag k="ssr:stedsnr" v="232877" />
	</node>
	<node lat="61.744991669326595" lon="5.039874999480265" id="-33795">
		<tag k="name" v="Bjørnemyrane" />
		<tag k="natural" v="wetland" />
		<tag k="ssr:stedsnr" v="232946" />
	</node>
	<node lat="61.72418333318999" lon="4.981277778017233" id="-33796">
		<tag k="name" v="Neset" />
		<tag k="natural" v="cape" />
		<tag k="ssr:stedsnr" v="232961" />
	</node>
	<node lat="61.78809444581917" lon="5.347616662362838" id="-33797">
		<tag k="name" v="Rabbane" />
		<tag k="natural" v="slope" />
		<tag k="place" v="locality" />
		<tag k="ssr:stedsnr" v="232964" />
	</node>
	<node lat="61.778341664489794" lon="5.325424998647074" id="-33798">
		<tag k="name" v="Vestrebotnen" />
		<tag k="natural" v="bay" />
		<tag k="ssr:stedsnr" v="232968" />
	</node>
	<node lat="61.713455553412764" lon="4.98214166554295" id="-33799">
		<tag k="name" v="Heia" />
		<tag k="natural" v="hill" />
		<tag k="place" v="locality" />
		<tag k="ssr:stedsnr" v="232971" />
	</node>
	<node lat="61.75041111463304" lon="5.307913881268055" id="-33800">
		<tag k="name" v="Hillerskora" />
		<tag k="natural" v="slope" />
		<tag k="place" v="locality" />
		<tag k="ssr:stedsnr" v="233027" />
	</node>
	<node lat="61.84641388867626" lon="5.028583330430044" id="-33801">
		<tag k="name" v="Skogane" />
		<tag k="place" v="locality" />
		<tag k="ssr:stedsnr" v="233303" />
	</node>
	<node lat="61.878022224909536" lon="5.097444453579945" id="-33802">
		<tag k="name" v="Gangholmen" />
		<tag k="place" v="islet" />
		<tag k="ssr:stedsnr" v="233673" />
	</node>
	<node lat="61.86558055285391" lon="5.108552775528009" id="-33803">
		<tag k="name" v="Hestedalen" />
		<tag k="natural" v="valley" />
		<tag k="place" v="locality" />
		<tag k="ssr:stedsnr" v="233678" />
	</node>
	<node lat="61.78215000070783" lon="5.267669435845873" id="-33804">
		<tag k="name" v="Framstevikegga" />
		<tag k="place" v="locality" />
		<tag k="ssr:stedsnr" v="233806" />
	</node>
	<node lat="61.75091110799514" lon="4.863644452954839" id="-33805">
		<tag k="name" v="Naustflua" />
		<tag k="natural" v="shoal" />
		<tag k="place" v="locality" />
		<tag k="ssr:stedsnr" v="235822" />
	</node>
	<node lat="61.898972222994715" lon="5.366530547043758" id="-33806">
		<tag k="name" v="Brurahammaren" />
		<tag k="natural" v="cape" />
		<tag k="ssr:stedsnr" v="236026" />
	</node>
	<node lat="61.8639611094932" lon="5.142758329978" id="-33807">
		<tag k="name" v="Botnen" />
		<tag k="natural" v="bay" />
		<tag k="ssr:stedsnr" v="236427" />
	</node>
	<node lat="61.76926944852452" lon="4.73810832670598" id="-33808">
		<tag k="name" v="Hamrane" />
		<tag k="natural" v="shoal" />
		<tag k="place" v="locality" />
		<tag k="ssr:stedsnr" v="236876" />
	</node>
	<node lat="61.84064999661396" lon="5.593800003593967" id="-33809">
		<tag k="name" v="Bjørkebakken" />
		<tag k="natural" v="slope" />
		<tag k="place" v="locality" />
		<tag k="ssr:stedsnr" v="50168" />
	</node>
	<node lat="61.78970555857169" lon="4.878486115538464" id="-33810">
		<tag k="name" v="Storemyrbakkane" />
		<tag k="natural" v="slope" />
		<tag k="place" v="locality" />
		<tag k="ssr:stedsnr" v="50023" />
	</node>
	<node lat="61.829888887268524" lon="5.675302772745515" id="-33811">
		<tag k="name" v="Sigdestadneset" />
		<tag k="natural" v="cape" />
		<tag k="ssr:stedsnr" v="50205" />
	</node>
	<node lat="61.83625278102414" lon="5.630024992227872" id="-33812">
		<tag k="name" v="Halvfareberget" />
		<tag k="natural" v="hill" />
		<tag k="place" v="locality" />
		<tag k="ssr:stedsnr" v="50215" />
	</node>
	<node lat="61.84237777444127" lon="5.640002783686561" id="-33813">
		<tag k="name" v="Litledalen" />
		<tag k="place" v="locality" />
		<tag k="ssr:stedsnr" v="50219" />
	</node>
	<node lat="61.85343333429711" lon="4.98428055079095" id="-33814">
		<tag k="name" v="Kromstadhaugane" />
		<tag k="natural" v="hill" />
		<tag k="place" v="locality" />
		<tag k="ssr:stedsnr" v="50304" />
	</node>
	<node lat="61.83256666771184" lon="5.550508324415027" id="-33815">
		<tag k="name" v="Litlevassbakken" />
		<tag k="place" v="locality" />
		<tag k="ssr:stedsnr" v="50305" />
	</node>
	<node lat="61.82508055619029" lon="5.503744442213149" id="-33816">
		<tag k="name" v="Fjellelva" />
		<tag k="ssr:stedsnr" v="50309" />
		<tag k="waterway" v="stream" />
	</node>
	<node lat="61.823205554857864" lon="5.484955557539317" id="-33817">
		<tag k="historic" v="shieling" />
		<tag k="name" v="Fjelleryggen" />
		<tag k="place" v="isolated_dwelling" />
		<tag k="ssr:stedsnr" v="50310" />
	</node>
	<node lat="61.83316666397517" lon="5.501930560712046" id="-33818">
		<tag k="name" v="Avlessingane" />
		<tag k="natural" v="wetland" />
		<tag k="ssr:stedsnr" v="50316" />
	</node>
	<node lat="61.849741665036376" lon="5.467194448008766" id="-33819">
		<tag k="name" v="Bjørnaskorenden" />
		<tag k="place" v="locality" />
		<tag k="ssr:stedsnr" v="50320" />
	</node>
	<node lat="61.774052781601455" lon="4.840186117659694" id="-33820">
		<tag k="name" v="Gunnavikneset" />
		<tag k="natural" v="cape" />
		<tag k="ssr:stedsnr" v="50368" />
	</node>
	<node lat="61.77021340709038" lon="4.883849333628142" id="-33821">
		<tag k="alt_name" v="Frøyen ytre;Utigarden" />
		<tag k="fixme" v="consider place=hamlet" />
		<tag k="name" v="Ytre Frøyen" />
		<tag k="place" v="farm" />
		<tag k="ssr:stedsnr" v="50377" />
	</node>
	<node lat="61.77849722180255" lon="4.898830551243859" id="-33822">
		<tag k="fixme" v="consider place=hamlet" />
		<tag k="name" v="Frøynes" />
		<tag k="place" v="farm" />
		<tag k="ssr:stedsnr" v="50380" />
	</node>
	<node lat="61.7651861127542" lon="4.865766667822598" id="-33823">
		<tag k="name" v="Kvernhushaugen" />
		<tag k="natural" v="hill" />
		<tag k="place" v="locality" />
		<tag k="ssr:stedsnr" v="50383" />
	</node>
	<node lat="61.760024998481384" lon="4.863786102147455" id="-33824">
		<tag k="name" v="Sveene" />
		<tag k="natural" v="hill" />
		<tag k="place" v="locality" />
		<tag k="ssr:stedsnr" v="50385" />
	</node>
	<node lat="61.75701666242853" lon="4.8718750025664175" id="-33825">
		<tag k="name" v="Kongskjenna" />
		<tag k="natural" v="cape" />
		<tag k="ssr:stedsnr" v="50387" />
	</node>
	<node lat="61.821622220422185" lon="5.284344444246224" id="-33826">
		<tag k="name" v="Tjørna" />
		<tag k="natural" v="water" />
		<tag k="ssr:stedsnr" v="50525" />
	</node>
	<node lat="61.80463055294001" lon="5.003636113816906" id="-33827">
		<tag k="name" v="Storeura" />
		<tag k="natural" v="scree" />
		<tag k="ssr:stedsnr" v="50409" />
	</node>
	<node lat="61.86129444462247" lon="5.322180561091758" id="-33828">
		<tag k="name" v="Midtbø" />
		<tag k="place" v="farm" />
		<tag k="ssr:stedsnr" v="50425" />
	</node>
	<node lat="61.84257777465253" lon="5.0798472143471605" id="-33829">
		<tag k="name" v="Vassnakken" />
		<tag k="natural" v="hill" />
		<tag k="place" v="locality" />
		<tag k="ssr:stedsnr" v="50607" />
	</node>
	<node lat="61.846380557800316" lon="5.093741661508474" id="-33830">
		<tag k="name" v="Luselva" />
		<tag k="ssr:stedsnr" v="50609" />
		<tag k="waterway" v="stream" />
	</node>
	<node lat="61.90698332928302" lon="5.405436106258186" id="-33831">
		<tag k="name" v="Elvaåsen" />
		<tag k="natural" v="slope" />
		<tag k="place" v="locality" />
		<tag k="ssr:stedsnr" v="50571" />
	</node>
	<node lat="61.85075000348323" lon="5.817199992881396" id="-33832">
		<tag k="bay" v="fjord" />
		<tag k="name" v="Elvafjorden" />
		<tag k="natural" v="bay" />
		<tag k="ssr:stedsnr" v="50707" />
	</node>
	<node lat="61.76543888763924" lon="5.104166658979403" id="-33833">
		<tag k="fixme" v="consider natural=peak for the most distinct mountains in the district" />
		<tag k="name" v="Løypedalhammaren" />
		<tag k="natural" v="hill" />
		<tag k="place" v="locality" />
		<tag k="ssr:stedsnr" v="50782" />
	</node>
	<node lat="61.70784722393399" lon="5.1958916609064545" id="-33834">
		<tag k="fixme" v="consider natural=peak for the most distinct mountains in the district" />
		<tag k="name" v="Bjørnaskarnakken" />
		<tag k="natural" v="hill" />
		<tag k="place" v="locality" />
		<tag k="ssr:stedsnr" v="50903" />
	</node>
	<node lat="61.722897221807145" lon="5.19015833292693" id="-33835">
		<tag k="name" v="Havgulekroken" />
		<tag k="natural" v="cape" />
		<tag k="ssr:stedsnr" v="50905" />
	</node>
	<node lat="61.705452779026345" lon="5.246147223031288" id="-33836">
		<tag k="name" v="Ramskred" />
		<tag k="natural" v="valley" />
		<tag k="place" v="locality" />
		<tag k="ssr:stedsnr" v="50913" />
	</node>
	<node lat="61.71787778048609" lon="5.245727773266319" id="-33837">
		<tag k="name" v="Dauremålet" />
		<tag k="natural" v="hill" />
		<tag k="place" v="locality" />
		<tag k="ssr:stedsnr" v="50915" />
	</node>
	<node lat="61.733372224023185" lon="5.096452784971788" id="-33838">
		<tag k="name" v="Såta" />
		<tag k="natural" v="hill" />
		<tag k="place" v="locality" />
		<tag k="ssr:stedsnr" v="50868" />
	</node>
	<node lat="61.745988889670734" lon="5.227063890147578" id="-33839">
		<tag k="name" v="Setrehjellen" />
		<tag k="place" v="locality" />
		<tag k="ssr:stedsnr" v="50871" />
	</node>
	<node lat="61.696641664153766" lon="5.194786114969393" id="-33840">
		<tag k="name" v="Setra" />
		<tag k="place" v="locality" />
		<tag k="ssr:stedsnr" v="50872" />
	</node>
	<node lat="61.712683333812016" lon="5.0919527702967375" id="-33841">
		<tag k="historic" v="shieling" />
		<tag k="name" v="Sagebøstølen" />
		<tag k="place" v="isolated_dwelling" />
		<tag k="ssr:stedsnr" v="50875" />
	</node>
	<node lat="61.73600833203369" lon="5.2822638982764065" id="-33842">
		<tag k="name" v="Høgaksla" />
		<tag k="place" v="locality" />
		<tag k="ssr:stedsnr" v="50882" />
	</node>
	<node lat="61.721866667676636" lon="5.103808333292393" id="-33843">
		<tag k="name" v="Sagebøvik" />
		<tag k="natural" v="bay" />
		<tag k="ssr:stedsnr" v="50885" />
	</node>
	<node lat="61.81803889345899" lon="4.9468444522019555" id="-33844">
		<tag k="name" v="Rylandspollen" />
		<tag k="natural" v="bay" />
		<tag k="ssr:stedsnr" v="51017" />
	</node>
	<node lat="61.7481555595497" lon="5.273649998996942" id="-33845">
		<tag k="name" v="Svartehamrane" />
		<tag k="natural" v="slope" />
		<tag k="place" v="locality" />
		<tag k="ssr:stedsnr" v="51021" />
	</node>
	<node lat="61.72602777665403" lon="5.0006027722701365" id="-33846">
		<tag k="name" v="Skorebakkane" />
		<tag k="natural" v="slope" />
		<tag k="place" v="locality" />
		<tag k="ssr:stedsnr" v="50972" />
	</node>
	<node lat="61.71421111535813" lon="5.03392777241968" id="-33847">
		<tag k="historic" v="shieling" />
		<tag k="name" v="Sørestølen" />
		<tag k="place" v="locality" />
		<tag k="ssr:stedsnr" v="50974" />
	</node>
	<node lat="61.71137499591161" lon="5.0255694515431015" id="-33848">
		<tag k="name" v="Hornbakkane" />
		<tag k="natural" v="slope" />
		<tag k="place" v="locality" />
		<tag k="ssr:stedsnr" v="50977" />
	</node>
	<node lat="61.71098611102428" lon="5.044547228732555" id="-33849">
		<tag k="name" v="Kvanngrø" />
		<tag k="natural" v="slope" />
		<tag k="place" v="locality" />
		<tag k="ssr:stedsnr" v="50980" />
	</node>
	<node lat="61.89241111010729" lon="4.954066674552671" id="-33850">
		<tag k="name" v="Storelva" />
		<tag k="ssr:stedsnr" v="51109" />
		<tag k="waterway" v="stream" />
	</node>
	<node lat="61.90763055615204" lon="4.943794446510554" id="-33851">
		<tag k="name" v="Smellen" />
		<tag k="natural" v="valley" />
		<tag k="place" v="locality" />
		<tag k="ssr:stedsnr" v="51126" />
	</node>
	<node lat="61.81861389137903" lon="5.000597215262867" id="-33852">
		<tag k="name" v="Høbøhaugen" />
		<tag k="natural" v="hill" />
		<tag k="place" v="locality" />
		<tag k="ssr:stedsnr" v="51408" />
	</node>
	<node lat="61.76070555539421" lon="5.308061112397433" id="-33853">
		<tag k="name" v="Geitvika" />
		<tag k="natural" v="bay" />
		<tag k="ssr:stedsnr" v="51769" />
	</node>
	<node lat="61.80854444746289" lon="5.163683329311637" id="-33854">
		<tag k="name" v="Inste Bårdvika" />
		<tag k="natural" v="bay" />
		<tag k="ssr:stedsnr" v="53102" />
	</node>
	<node lat="61.815716669533444" lon="5.230524998584786" id="-33855">
		<tag k="name" v="Vika" />
		<tag k="natural" v="bay" />
		<tag k="ssr:stedsnr" v="53106" />
	</node>
	<node lat="61.784172222176444" lon="4.966794447058255" id="-33856">
		<tag k="name" v="Vågane" />
		<tag k="natural" v="bay" />
		<tag k="ssr:stedsnr" v="53571" />
	</node>
	<node lat="61.72464444599717" lon="5.220033327053108" id="-33857">
		<tag k="name" v="Øyrhamrane" />
		<tag k="natural" v="cape" />
		<tag k="ssr:stedsnr" v="53703" />
	</node>
	<node lat="61.74193055107904" lon="4.957883325077211" id="-33858">
		<tag k="name" v="Storevikgrynna" />
		<tag k="natural" v="shoal" />
		<tag k="place" v="locality" />
		<tag k="ssr:stedsnr" v="53666" />
	</node>
	<node lat="61.8256277786508" lon="4.953533342467666" id="-33859">
		<tag k="fixme" v="consider seamark:type=rock or natural=shoal" />
		<tag k="name" v="Rundeskjeret" />
		<tag k="place" v="islet" />
		<tag k="ssr:stedsnr" v="53803" />
	</node>
	<node lat="61.90638889115226" lon="4.914469447733181" id="-33860">
		<tag k="name" v="Festebåen" />
		<tag k="natural" v="shoal" />
		<tag k="place" v="locality" />
		<tag k="ssr:stedsnr" v="53888" />
	</node>
	<node lat="61.79195277458648" lon="4.921963890261772" id="-33861">
		<tag k="name" v="Gapet" />
		<tag k="natural" v="bay" />
		<tag k="ssr:stedsnr" v="54625" />
	</node>
	<node lat="61.831561109188236" lon="4.856880549192874" id="-33862">
		<tag k="name" v="Vissflua" />
		<tag k="natural" v="shoal" />
		<tag k="place" v="locality" />
		<tag k="ssr:stedsnr" v="54919" />
	</node>
	<node lat="61.83200750266251" lon="5.112558149854443" id="-33863">
		<tag k="fixme" v="multiple name tags, choose one and add the other to alt_name; consider place=hamlet" />
		<tag k="name" v="Ødegård;Berle-Ødegård" />
		<tag k="place" v="farm" />
		<tag k="ssr:stedsnr" v="242268" />
	</node>
	<node lat="61.72698333227473" lon="4.9501388979983645" id="-33864">
		<tag k="fixme" v="consider seamark:type=rock or natural=shoal" />
		<tag k="name" v="Olaskjeret" />
		<tag k="place" v="islet" />
		<tag k="ssr:stedsnr" v="69485" />
	</node>
	<node lat="61.724094441661855" lon="4.74695277789968" id="-33865">
		<tag k="name" v="Hoggeflua" />
		<tag k="natural" v="shoal" />
		<tag k="place" v="locality" />
		<tag k="ssr:stedsnr" v="69492" />
	</node>
	<node lat="61.736797217996426" lon="5.06475554871125" id="-33866">
		<tag k="name" v="Vollane" />
		<tag k="place" v="locality" />
		<tag k="ssr:stedsnr" v="69500" />
	</node>
	<node lat="61.707300001332044" lon="5.1357805622734976" id="-33867">
		<tag k="fixme" v="consider natural=peak for the most distinct mountains in the district" />
		<tag k="name" v="Mulliegga" />
		<tag k="natural" v="hill" />
		<tag k="place" v="locality" />
		<tag k="ssr:stedsnr" v="69841" />
	</node>
	<node lat="61.682977781663176" lon="5.130461111595513" id="-33868">
		<tag k="fixme" v="multiple name tags, choose one and add the other to alt_name" />
		<tag k="name" v="Sørgulevatnet;Skarvatnet" />
		<tag k="natural" v="water" />
		<tag k="ssr:stedsnr" v="69879" />
	</node>
	<node lat="61.7112833318824" lon="5.288247214556022" id="-33869">
		<tag k="name" v="Klenevatnet" />
		<tag k="natural" v="water" />
		<tag k="ssr:stedsnr" v="69882" />
	</node>
	<node lat="61.705427775162015" lon="5.274791671772493" id="-33870">
		<tag k="alt_name" v="Teigvatnet, litle" />
		<tag k="name" v="Litle Teigvatnet" />
		<tag k="natural" v="water" />
		<tag k="ssr:stedsnr" v="69883" />
	</node>
	<node lat="61.80610555351816" lon="5.495080548568274" id="-33871">
		<tag k="fixme" v="consider natural=peak for the most distinct mountains in the district" />
		<tag k="name" v="Fessebakkane" />
		<tag k="natural" v="hill" />
		<tag k="place" v="locality" />
		<tag k="ssr:stedsnr" v="70303" />
	</node>
	<node lat="61.80406111470109" lon="5.603249996097921" id="-33872">
		<tag k="name" v="Botnen" />
		<tag k="natural" v="valley" />
		<tag k="place" v="locality" />
		<tag k="ssr:stedsnr" v="70304" />
	</node>
	<node lat="61.79565555965731" lon="5.664963888333898" id="-33873">
		<tag k="name" v="Åskorfossen" />
		<tag k="natural" v="waterfall" />
		<tag k="ssr:stedsnr" v="70309" />
	</node>
	<node lat="61.86886666912896" lon="4.8490916689911625" id="-33874">
		<tag k="name" v="Storura" />
		<tag k="natural" v="scree" />
		<tag k="ssr:stedsnr" v="70875" />
	</node>
	<node lat="61.88057778208783" lon="5.2543583288877125" id="-33875">
		<tag k="alt_name" v="Rugsundsøyna" />
		<tag k="name" v="Rugsundøyna" />
		<tag k="old_name" v="Rugsundøy" />
		<tag k="place" v="island" />
		<tag k="ssr:stedsnr" v="71210" />
	</node>
	<node lat="61.79059722471557" lon="5.373933325159166" id="-33876">
		<tag k="name" v="Ivervatnet" />
		<tag k="natural" v="water" />
		<tag k="ssr:stedsnr" v="71072" />
	</node>
	<node lat="61.79142777891275" lon="5.279788890866309" id="-33877">
		<tag k="fixme" v="consider natural=peak for the most distinct mountains in the district" />
		<tag k="name" v="Botnaegga" />
		<tag k="natural" v="hill" />
		<tag k="place" v="locality" />
		<tag k="ssr:stedsnr" v="71078" />
	</node>
	<node lat="61.84978889210652" lon="5.128141662080464" id="-33878">
		<tag k="fixme" v="consider natural=peak for the most distinct mountains in the district" />
		<tag k="name" v="Kammen" />
		<tag k="natural" v="hill" />
		<tag k="place" v="locality" />
		<tag k="ssr:stedsnr" v="71175" />
	</node>
	<node lat="61.85960555882068" lon="5.259527776328122" id="-33879">
		<tag k="name" v="Hornelsneset" />
		<tag k="natural" v="cape" />
		<tag k="ssr:stedsnr" v="71183" />
	</node>
	<node lat="61.87360555562317" lon="5.420130560715744" id="-33880">
		<tag k="name" v="Blåfjellsenden" />
		<tag k="natural" v="hill" />
		<tag k="place" v="locality" />
		<tag k="ssr:stedsnr" v="71185" />
	</node>
	<node lat="61.858780555885" lon="5.121238895079111" id="-33881">
		<tag k="name" v="Smådalane" />
		<tag k="natural" v="valley" />
		<tag k="place" v="locality" />
		<tag k="ssr:stedsnr" v="71188" />
	</node>
	<node lat="61.768208335895494" lon="5.829274996147245" id="-33882">
		<tag k="name" v="X-vatnet" />
		<tag k="natural" v="water" />
		<tag k="ssr:stedsnr" v="71323" />
		<tag k="water" v="lake" />
	</node>
	<node lat="61.87954166820394" lon="5.692780556321486" id="-33883">
		<tag k="historic" v="shieling" />
		<tag k="name" v="Langemyra" />
		<tag k="place" v="isolated_dwelling" />
		<tag k="ssr:stedsnr" v="71415" />
	</node>
	<node lat="61.874936115055036" lon="5.5101611056989634" id="-33884">
		<tag k="name" v="Ladsteinen" />
		<tag k="natural" v="stone" />
		<tag k="ssr:stedsnr" v="71419" />
	</node>
	<node lat="61.86024444764481" lon="4.94745833301381" id="-33885">
		<tag k="fixme" v="consider natural=peak for the most distinct mountains in the district" />
		<tag k="name" v="Steinfjellet" />
		<tag k="natural" v="hill" />
		<tag k="place" v="locality" />
		<tag k="ssr:stedsnr" v="71817" />
	</node>
	<node lat="61.85518333384954" lon="4.946566659182393" id="-33886">
		<tag k="fixme" v="consider natural=peak for the most distinct mountains in the district" />
		<tag k="name" v="Torvangsheia" />
		<tag k="natural" v="hill" />
		<tag k="place" v="locality" />
		<tag k="ssr:stedsnr" v="71910" />
	</node>
	<node lat="61.86226666550846" lon="5.0605833315047715" id="-33887">
		<tag k="fixme" v="consider natural=peak for the most distinct mountains in the district" />
		<tag k="name" v="Kvitefjellet" />
		<tag k="natural" v="hill" />
		<tag k="place" v="locality" />
		<tag k="ssr:stedsnr" v="71913" />
	</node>
	<node lat="61.85101666546569" lon="4.899819451537579" id="-33888">
		<tag k="name" v="Grotlesdalen" />
		<tag k="natural" v="valley" />
		<tag k="place" v="locality" />
		<tag k="ssr:stedsnr" v="71920" />
	</node>
	<node lat="61.862438890477655" lon="5.071294442441489" id="-33889">
		<tag k="name" v="Konsdalen" />
		<tag k="natural" v="valley" />
		<tag k="place" v="locality" />
		<tag k="ssr:stedsnr" v="71924" />
	</node>
	<node lat="61.81461944422622" lon="4.969274994597649" id="-33890">
		<tag k="fixme" v="consider natural=peak for the most distinct mountains in the district" />
		<tag k="name" v="Husefjellet" />
		<tag k="natural" v="hill" />
		<tag k="place" v="locality" />
		<tag k="ssr:stedsnr" v="71943" />
	</node>
	<node lat="61.831048139910784" lon="5.050058488958142" id="-33891">
		<tag k="alt_name" v="Svartvasshornet" />
		<tag k="fixme" v="consider natural=peak for the most distinct mountains in the district" />
		<tag k="name" v="Svartevasshornet" />
		<tag k="natural" v="hill" />
		<tag k="place" v="locality" />
		<tag k="ssr:stedsnr" v="71954" />
	</node>
	<node lat="61.83222500423678" lon="5.69200832994031" id="-33892">
		<tag k="name" v="Stilleneset" />
		<tag k="natural" v="cape" />
		<tag k="ssr:stedsnr" v="81533" />
	</node>
	<node lat="61.80412500237394" lon="5.516177774625094" id="-33893">
		<tag k="name" v="Fessene" />
		<tag k="natural" v="waterfall" />
		<tag k="ssr:stedsnr" v="81540" />
	</node>
	<node lat="61.734150003107935" lon="5.252036105396646" id="-33894">
		<tag k="name" v="Trollefjellsbakkane" />
		<tag k="natural" v="hill" />
		<tag k="place" v="locality" />
		<tag k="ssr:stedsnr" v="110910" />
	</node>
	<node lat="61.71504999949006" lon="4.985130552655731" id="-33895">
		<tag k="name" v="Dalen" />
		<tag k="natural" v="valley" />
		<tag k="place" v="locality" />
		<tag k="ssr:stedsnr" v="110981" />
	</node>
	<node lat="61.739119444204505" lon="5.213133327218502" id="-33896">
		<tag k="fixme" v="consider highway=path" />
		<tag k="highway" v="track" />
		<tag k="name" v="Setrevegen" />
		<tag k="ssr:stedsnr" v="110886" />
	</node>
	<node lat="61.75296111529142" lon="5.2791500043383826" id="-33897">
		<tag k="name" v="Austre Knoltrevatn" />
		<tag k="natural" v="water" />
		<tag k="ssr:stedsnr" v="111012" />
	</node>
	<node lat="61.75688611544538" lon="5.265513885065023" id="-33898">
		<tag k="name" v="Setreholene" />
		<tag k="place" v="locality" />
		<tag k="ssr:stedsnr" v="111015" />
	</node>
	<node lat="61.78891111422697" lon="4.872925003777738" id="-33899">
		<tag k="name" v="Skorkinnbakkane" />
		<tag k="natural" v="slope" />
		<tag k="place" v="locality" />
		<tag k="ssr:stedsnr" v="111024" />
	</node>
	<node lat="61.83403333676264" lon="5.592794445752772" id="-33900">
		<tag k="name" v="Vassbakken" />
		<tag k="place" v="locality" />
		<tag k="ssr:stedsnr" v="111179" />
	</node>
	<node lat="61.83218888533083" lon="5.575074998886053" id="-33901">
		<tag k="name" v="Vaulen" />
		<tag k="place" v="locality" />
		<tag k="ssr:stedsnr" v="111180" />
	</node>
	<node lat="61.8583583355994" lon="5.00358055833842" id="-33902">
		<tag k="name" v="Varpe" />
		<tag k="place" v="farm" />
		<tag k="ssr:stedsnr" v="111302" />
	</node>
	<node lat="61.85417777873961" lon="5.0422666718467175" id="-33903">
		<tag k="name" v="Lågeidbakken" />
		<tag k="natural" v="slope" />
		<tag k="place" v="locality" />
		<tag k="ssr:stedsnr" v="111306" />
	</node>
	<node lat="61.86142500267211" lon="4.975602777347566" id="-33904">
		<tag k="name" v="Sverabben" />
		<tag k="natural" v="slope" />
		<tag k="place" v="locality" />
		<tag k="ssr:stedsnr" v="111318" />
	</node>
	<node lat="61.8312027778662" lon="5.538305563747887" id="-33905">
		<tag k="name" v="Dillemyra" />
		<tag k="natural" v="wetland" />
		<tag k="ssr:stedsnr" v="111320" />
	</node>
	<node lat="61.824566664281576" lon="5.5224277766586045" id="-33906">
		<tag k="name" v="Huarelva" />
		<tag k="ssr:stedsnr" v="111324" />
		<tag k="waterway" v="stream" />
	</node>
	<node lat="61.770708335625486" lon="4.854772217676815" id="-33907">
		<tag k="name" v="Vågefjellet" />
		<tag k="natural" v="hill" />
		<tag k="place" v="locality" />
		<tag k="ssr:stedsnr" v="111370" />
	</node>
	<node lat="61.785416665266915" lon="4.875561114440861" id="-33908">
		<tag k="name" v="Skjervene" />
		<tag k="natural" v="slope" />
		<tag k="place" v="locality" />
		<tag k="ssr:stedsnr" v="111372" />
	</node>
	<node lat="61.775205555024954" lon="4.885122224296874" id="-33909">
		<tag k="name" v="Gjølet" />
		<tag k="natural" v="valley" />
		<tag k="place" v="locality" />
		<tag k="ssr:stedsnr" v="111376" />
	</node>
	<node lat="61.75865555212042" lon="4.857100009301115" id="-33910">
		<tag k="name" v="Seten" />
		<tag k="natural" v="hill" />
		<tag k="place" v="locality" />
		<tag k="ssr:stedsnr" v="111383" />
	</node>
	<node lat="61.784011115003125" lon="5.002880562293028" id="-33911">
		<tag k="name" v="Tjuveneset" />
		<tag k="natural" v="cape" />
		<tag k="ssr:stedsnr" v="111388" />
	</node>
	<node lat="61.84253610850608" lon="5.650344448150172" id="-33912">
		<tag k="name" v="Brattebakkane" />
		<tag k="natural" v="slope" />
		<tag k="place" v="locality" />
		<tag k="ssr:stedsnr" v="111220" />
	</node>
	<node lat="61.85494444610741" lon="5.410697229572356" id="-33913">
		<tag k="name" v="Aksla" />
		<tag k="place" v="locality" />
		<tag k="ssr:stedsnr" v="111274" />
	</node>
	<node lat="61.877961111150945" lon="5.07340000859212" id="-33914">
		<tag k="name" v="Melsneselva" />
		<tag k="ssr:stedsnr" v="111284" />
		<tag k="waterway" v="stream" />
	</node>
	<node lat="61.86410555377827" lon="5.045986109603578" id="-33915">
		<tag k="fixme" v="consider natural=peak for the most distinct mountains in the district" />
		<tag k="name" v="Svenakken" />
		<tag k="natural" v="hill" />
		<tag k="place" v="locality" />
		<tag k="ssr:stedsnr" v="111285" />
	</node>
	<node lat="61.86532221929041" lon="5.049480551304807" id="-33916">
		<tag k="name" v="Svenakkvatnet" />
		<tag k="natural" v="water" />
		<tag k="ssr:stedsnr" v="111287" />
	</node>
	<node lat="61.80927499830299" lon="4.998374999392499" id="-33917">
		<tag k="name" v="Svartehamrane" />
		<tag k="natural" v="hill" />
		<tag k="place" v="locality" />
		<tag k="ssr:stedsnr" v="111403" />
	</node>
	<node lat="61.79456111348421" lon="5.009572212963917" id="-33918">
		<tag k="name" v="Holmabruna" />
		<tag k="natural" v="hill" />
		<tag k="place" v="locality" />
		<tag k="ssr:stedsnr" v="111405" />
	</node>
	<node lat="61.88625000084937" lon="5.472502771481407" id="-33919">
		<tag k="name" v="Midtnakken" />
		<tag k="natural" v="hill" />
		<tag k="place" v="locality" />
		<tag k="ssr:stedsnr" v="111572" />
	</node>
	<node lat="61.830000000916286" lon="5.108622231051303" id="-33920">
		<tag k="name" v="Storelva" />
		<tag k="ssr:stedsnr" v="111575" />
		<tag k="waterway" v="stream" />
	</node>
	<node lat="61.89918333085279" lon="5.387719441839893" id="-33921">
		<tag k="name" v="Søredalen" />
		<tag k="natural" v="valley" />
		<tag k="place" v="locality" />
		<tag k="ssr:stedsnr" v="111585" />
	</node>
	<node lat="61.85318333346066" lon="5.1422138846435645" id="-33922">
		<tag k="name" v="Langhammaren" />
		<tag k="natural" v="hill" />
		<tag k="place" v="locality" />
		<tag k="ssr:stedsnr" v="111589" />
	</node>
	<node lat="61.85280555869957" lon="5.766924993481886" id="-33923">
		<tag k="name" v="Litle Gangeskora" />
		<tag k="place" v="locality" />
		<tag k="ssr:stedsnr" v="111713" />
	</node>
	<node lat="61.78353333328224" lon="5.299738897023094" id="-33924">
		<tag k="name" v="Svelgskleiva" />
		<tag k="natural" v="slope" />
		<tag k="place" v="locality" />
		<tag k="ssr:stedsnr" v="111719" />
	</node>
	<node lat="61.782588884635956" lon="5.278688884592244" id="-33925">
		<tag k="name" v="Botneegga" />
		<tag k="place" v="locality" />
		<tag k="ssr:stedsnr" v="111721" />
	</node>
	<node lat="61.82985000159687" lon="5.6881583307996575" id="-33926">
		<tag k="name" v="Lyrura" />
		<tag k="natural" v="beach" />
		<tag k="ssr:stedsnr" v="111773" />
	</node>
	<node lat="61.86039722007509" lon="5.738472230361584" id="-33927">
		<tag k="name" v="Englestadvika" />
		<tag k="natural" v="bay" />
		<tag k="ssr:stedsnr" v="111774" />
	</node>
	<node lat="61.881463889780235" lon="5.333411112955503" id="-33928">
		<tag k="alt_name" v="Straumen" />
		<tag k="name" v="Rugsundstraumen" />
		<tag k="natural" v="strait" />
		<tag k="ssr:stedsnr" v="111606" />
	</node>
	<node lat="61.83228888973756" lon="5.191616667058853" id="-33929">
		<tag k="name" v="Storlineset" />
		<tag k="natural" v="cape" />
		<tag k="ssr:stedsnr" v="111607" />
	</node>
	<node lat="61.72516666843752" lon="5.093055560145627" id="-33930">
		<tag k="name" v="Skjervane" />
		<tag k="natural" v="slope" />
		<tag k="place" v="locality" />
		<tag k="ssr:stedsnr" v="111870" />
	</node>
	<node lat="61.702019441032974" lon="5.10708610758233" id="-33931">
		<tag k="name" v="Nautekvia" />
		<tag k="place" v="locality" />
		<tag k="ssr:stedsnr" v="111904" />
	</node>
	<node lat="61.8982833300149" lon="5.475688891541145" id="-33932">
		<tag k="name" v="Reset" />
		<tag k="natural" v="slope" />
		<tag k="place" v="locality" />
		<tag k="ssr:stedsnr" v="111983" />
	</node>
	<node lat="61.814422226210326" lon="5.3941916721827985" id="-33933">
		<tag k="name" v="Storelia" />
		<tag k="natural" v="slope" />
		<tag k="place" v="locality" />
		<tag k="ssr:stedsnr" v="111989" />
	</node>
	<node lat="61.754855551739865" lon="5.284308341806301" id="-33934">
		<tag k="name" v="Liabrua" />
		<tag k="natural" v="valley" />
		<tag k="place" v="locality" />
		<tag k="ssr:stedsnr" v="112025" />
	</node>
	<node lat="61.8816000040356" lon="5.1297694520102235" id="-33935">
		<tag k="name" v="Austre Bjørnøytangen" />
		<tag k="natural" v="cape" />
		<tag k="ssr:stedsnr" v="112641" />
	</node>
	<node lat="61.77743611549561" lon="5.300852777267487" id="-33936">
		<tag k="name" v="Høgefjelldalen" />
		<tag k="natural" v="valley" />
		<tag k="place" v="locality" />
		<tag k="ssr:stedsnr" v="112774" />
	</node>
	<node lat="61.771186108130166" lon="4.953222223558726" id="-33937">
		<tag k="name" v="Vardeholmflua" />
		<tag k="natural" v="shoal" />
		<tag k="place" v="locality" />
		<tag k="ssr:stedsnr" v="113525" />
	</node>
	<node lat="61.71317500322942" lon="5.165744447653003" id="-33938">
		<tag k="name" v="Gjelvikneset" />
		<tag k="natural" v="cape" />
		<tag k="ssr:stedsnr" v="113675" />
	</node>
	<node lat="61.81099444410707" lon="5.1962055505218006" id="-33939">
		<tag k="name" v="Flua" />
		<tag k="natural" v="shoal" />
		<tag k="place" v="locality" />
		<tag k="ssr:stedsnr" v="114078" />
	</node>
	<node lat="61.80821666993824" lon="4.813763887956613" id="-33940">
		<tag k="name" v="Hornflua" />
		<tag k="natural" v="shoal" />
		<tag k="place" v="locality" />
		<tag k="ssr:stedsnr" v="114908" />
	</node>
	<node lat="61.69672499788894" lon="4.984855555737875" id="-33941">
		<tag k="name" v="Husefestvika" />
		<tag k="natural" v="bay" />
		<tag k="ssr:stedsnr" v="251038" />
	</node>
	<node lat="61.69436389019698" lon="5.060080556403892" id="-33942">
		<tag k="name" v="Grøneggvatnet" />
		<tag k="natural" v="water" />
		<tag k="ssr:stedsnr" v="251055" />
	</node>
	<node lat="61.70303333720752" lon="5.028511106275979" id="-33943">
		<tag k="name" v="Sørdalsvatnet" />
		<tag k="natural" v="water" />
		<tag k="ssr:stedsnr" v="251062" />
		<tag k="water" v="lake" />
	</node>
	<node lat="61.72735000127607" lon="4.74057221447014" id="-33944">
		<tag k="name" v="Jakobsflua" />
		<tag k="natural" v="shoal" />
		<tag k="place" v="locality" />
		<tag k="ssr:stedsnr" v="251467" />
	</node>
	<node lat="61.73535555579224" lon="4.956583333748917" id="-33945">
		<tag k="name" v="Vengane" />
		<tag k="place" v="islet" />
		<tag k="ssr:stedsnr" v="251483" />
	</node>
	<node lat="61.74754999952083" lon="5.238888883594944" id="-33946">
		<tag k="alt_name" v="Åsen" />
		<tag k="name" v="Åseknatten" />
		<tag k="natural" v="hill" />
		<tag k="place" v="locality" />
		<tag k="ssr:stedsnr" v="251810" />
	</node>
	<node lat="61.68158193376752" lon="5.170833169928253" id="-33947">
		<tag k="name" v="Grytevatnet" />
		<tag k="natural" v="water" />
		<tag k="ssr:stedsnr" v="251890" />
		<tag k="water" v="lake" />
	</node>
	<node lat="61.68398055499597" lon="5.279972216779523" id="-33948">
		<tag k="name" v="Handklegytten" />
		<tag k="natural" v="valley" />
		<tag k="place" v="locality" />
		<tag k="ssr:stedsnr" v="251893" />
	</node>
	<node lat="61.72009722639911" lon="5.227899991973855" id="-33949">
		<tag k="name" v="Reset" />
		<tag k="place" v="isolated_dwelling" />
		<tag k="ssr:stedsnr" v="251849" />
	</node>
	<node lat="61.720283337661755" lon="5.10522500404721" id="-33950">
		<tag k="name" v="Sagebø" />
		<tag k="place" v="farm" />
		<tag k="ssr:stedsnr" v="251860" />
	</node>
	<node lat="61.72091388510693" lon="5.098022231191746" id="-33951">
		<tag k="name" v="Sagelva" />
		<tag k="ssr:stedsnr" v="251862" />
		<tag k="waterway" v="stream" />
	</node>
	<node lat="61.72874999970728" lon="5.275422214031642" id="-33952">
		<tag k="name" v="Fossedalen" />
		<tag k="natural" v="valley" />
		<tag k="place" v="locality" />
		<tag k="ssr:stedsnr" v="251870" />
	</node>
	<node lat="61.7380555512138" lon="5.21887777105775" id="-33953">
		<tag k="name" v="Sætreelva" />
		<tag k="ssr:stedsnr" v="251872" />
		<tag k="waterway" v="stream" />
	</node>
	<node lat="61.691488886085395" lon="5.258308336230803" id="-33954">
		<tag k="fixme" v="consider natural=peak for the most distinct mountains in the district" />
		<tag k="name" v="Ramsskredfjellet" />
		<tag k="natural" v="hill" />
		<tag k="place" v="locality" />
		<tag k="ssr:stedsnr" v="251902" />
	</node>
	<node lat="61.88287777874732" lon="5.454383336986152" id="-33955">
		<tag k="historic" v="shieling" />
		<tag k="name" v="Skitmunnen" />
		<tag k="place" v="isolated_dwelling" />
		<tag k="ssr:stedsnr" v="252137" />
	</node>
	<node lat="61.88323055313738" lon="5.401469438537956" id="-33956">
		<tag k="historic" v="shieling" />
		<tag k="name" v="Skjervane" />
		<tag k="place" v="isolated_dwelling" />
		<tag k="ssr:stedsnr" v="252141" />
	</node>
	<node lat="61.871186109919805" lon="5.139775003672233" id="-33957">
		<tag k="name" v="Lågeidsvatnet" />
		<tag k="natural" v="water" />
		<tag k="ssr:stedsnr" v="252158" />
	</node>
	<node lat="61.88957777803558" lon="5.290677771234177" id="-33958">
		<tag k="fixme" v="consider natural=peak for the most distinct mountains in the district" />
		<tag k="name" v="Hellershammaren" />
		<tag k="natural" v="hill" />
		<tag k="place" v="locality" />
		<tag k="ssr:stedsnr" v="252170" />
	</node>
	<node lat="61.81951388622674" lon="5.765358326476751" id="-33959">
		<tag k="fixme" v="consider natural=peak for the most distinct mountains in the district" />
		<tag k="name" v="Svedjene" />
		<tag k="natural" v="hill" />
		<tag k="place" v="locality" />
		<tag k="ssr:stedsnr" v="252298" />
	</node>
	<node lat="61.804008332973154" lon="5.477772213922462" id="-33960">
		<tag k="name" v="Rundehogen" />
		<tag k="natural" v="hill" />
		<tag k="place" v="locality" />
		<tag k="ssr:stedsnr" v="252304" />
	</node>
	<node lat="61.813380557917654" lon="5.666174995233583" id="-33961">
		<tag k="landuse" v="industrial" />
		<tag k="name" v="Åskåra Kraftverk" />
		<tag k="old_name" v="Åskora kraftstasjon" />
		<tag k="power" v="plant" />
		<tag k="ssr:stedsnr" v="252308" />
	</node>
	<node lat="61.787035234137285" lon="5.486999465130053" id="-33962">
		<tag k="name" v="Femvatnet" />
		<tag k="natural" v="water" />
		<tag k="ssr:stedsnr" v="252316" />
	</node>
	<node lat="61.84363610994639" lon="5.523702776665776" id="-33963">
		<tag k="fixme" v="consider natural=peak for the most distinct mountains in the district" />
		<tag k="name" v="Dalsetefjellet" />
		<tag k="natural" v="hill" />
		<tag k="place" v="locality" />
		<tag k="ssr:stedsnr" v="252331" />
	</node>
	<node lat="61.88670833208938" lon="5.560152770945978" id="-33964">
		<tag k="name" v="Bakkelia" />
		<tag k="place" v="farm" />
		<tag k="ssr:stedsnr" v="252389" />
	</node>
	<node lat="61.71964166865799" lon="5.012675006157516" id="-33965">
		<tag k="name" v="Øvrebotnen" />
		<tag k="natural" v="valley" />
		<tag k="place" v="locality" />
		<tag k="ssr:stedsnr" v="129452" />
	</node>
	<node lat="61.73341944276616" lon="5.36086389662644" id="-33966">
		<tag k="name" v="Handkleskaret" />
		<tag k="natural" v="valley" />
		<tag k="place" v="locality" />
		<tag k="ssr:stedsnr" v="129819" />
	</node>
	<node lat="61.72201111391827" lon="5.202888893000107" id="-33967">
		<tag k="name" v="Instevika" />
		<tag k="natural" v="bay" />
		<tag k="ssr:stedsnr" v="129822" />
	</node>
	<node lat="61.73216666554513" lon="5.1258194401769375" id="-33968">
		<tag k="fixme" v="consider natural=peak for the most distinct mountains in the district" />
		<tag k="name" v="Mulen" />
		<tag k="natural" v="hill" />
		<tag k="place" v="locality" />
		<tag k="ssr:stedsnr" v="129825" />
	</node>
	<node lat="61.71701388730112" lon="5.344583339216055" id="-33969">
		<tag k="name" v="Steinheia" />
		<tag k="natural" v="hill" />
		<tag k="place" v="locality" />
		<tag k="ssr:stedsnr" v="130842" />
	</node>
	<node lat="61.689752779043424" lon="5.107205555957859" id="-33970">
		<tag k="historic" v="shieling" />
		<tag k="name" v="Sørgulestøylen" />
		<tag k="place" v="isolated_dwelling" />
		<tag k="ssr:stedsnr" v="130847" />
	</node>
	<node lat="61.81386388586029" lon="5.412886112681099" id="-33971">
		<tag k="fixme" v="multiple name tags, choose one and add the other to alt_name" />
		<tag k="name" v="Brandevatnet;Sørdalsløken" />
		<tag k="natural" v="water" />
		<tag k="ssr:stedsnr" v="131102" />
	</node>
	<node lat="61.79767777951233" lon="5.1492194357189645" id="-33972">
		<tag k="fixme" v="consider natural=peak for the most distinct mountains in the district" />
		<tag k="name" v="Marafjellet" />
		<tag k="natural" v="hill" />
		<tag k="place" v="locality" />
		<tag k="ssr:stedsnr" v="131106" />
	</node>
	<node lat="61.800722221902014" lon="5.292411111944758" id="-33973">
		<tag k="name" v="Vingedalssætra" />
		<tag k="place" v="locality" />
		<tag k="ssr:stedsnr" v="131110" />
	</node>
	<node lat="61.835097224674854" lon="5.422819452418111" id="-33974">
		<tag k="alt_name" v="Nibbevatn" />
		<tag k="name" v="Nibbevatnet" />
		<tag k="natural" v="water" />
		<tag k="ssr:stedsnr" v="131113" />
		<tag k="water" v="lake" />
	</node>
	<node lat="61.83004444327821" lon="5.315708332318318" id="-33975">
		<tag k="alt_name" v="Vingen" />
		<tag k="name" v="Vingepollen" />
		<tag k="natural" v="bay" />
		<tag k="ssr:stedsnr" v="131117" />
	</node>
	<node lat="61.822616665011886" lon="5.344100007816048" id="-33976">
		<tag k="name" v="Kvarvevatnet" />
		<tag k="natural" v="water" />
		<tag k="ssr:stedsnr" v="131119" />
	</node>
	<node lat="61.8113833344639" lon="5.3081833300918015" id="-33977">
		<tag k="name" v="Gaddeskogsvatnet" />
		<tag k="natural" v="water" />
		<tag k="ssr:stedsnr" v="131128" />
	</node>
	<node lat="61.880790568380284" lon="5.326339813260482" id="-33978">
		<tag k="name" v="Storøyna" />
		<tag k="place" v="island" />
		<tag k="ssr:stedsnr" v="131177" />
	</node>
	<node lat="61.87516653246677" lon="5.147684800438414" id="-33979">
		<tag k="fixme" v="consider place=hamlet" />
		<tag k="name" v="Lågeidet" />
		<tag k="place" v="farm" />
		<tag k="ssr:stedsnr" v="131178" />
	</node>
	<node lat="61.88161666754625" lon="5.246311102991219" id="-33980">
		<tag k="fixme" v="consider natural=peak for the most distinct mountains in the district" />
		<tag k="name" v="Kalsenyken" />
		<tag k="natural" v="hill" />
		<tag k="place" v="locality" />
		<tag k="ssr:stedsnr" v="131179" />
	</node>
	<node lat="61.89024999965001" lon="5.440561117683978" id="-33981">
		<tag k="alt_name" v="Dalesetra" />
		<tag k="historic" v="shieling" />
		<tag k="name" v="Dalesætrane" />
		<tag k="place" v="isolated_dwelling" />
		<tag k="ssr:stedsnr" v="131185" />
	</node>
	<node lat="61.82091388886629" lon="5.592374993060977" id="-33982">
		<tag k="name" v="Storemyra" />
		<tag k="natural" v="wetland" />
		<tag k="ssr:stedsnr" v="131304" />
	</node>
	<node lat="61.81001944066133" lon="5.578963882980366" id="-33983">
		<tag k="name" v="Osvatnet" />
		<tag k="natural" v="water" />
		<tag k="ssr:stedsnr" v="131320" />
	</node>
	<node lat="61.80151388782366" lon="5.66261388425118" id="-33984">
		<tag k="name" v="Litle Åskorvatnet" />
		<tag k="natural" v="water" />
		<tag k="ssr:stedsnr" v="131325" />
	</node>
	<node lat="61.757312960890204" lon="5.196878322182726" id="-33985">
		<tag k="fixme" v="consider place=hamlet" />
		<tag k="name" v="Byrkjelia" />
		<tag k="place" v="farm" />
		<tag k="ssr:stedsnr" v="131070" />
	</node>
	<node lat="61.75189444433865" lon="5.201177776709155" id="-33986">
		<tag k="fixme" v="consider natural=peak for the most distinct mountains in the district" />
		<tag k="name" v="Lianakken" />
		<tag k="natural" v="hill" />
		<tag k="place" v="locality" />
		<tag k="ssr:stedsnr" v="131074" />
	</node>
	<node lat="61.755863541254826" lon="5.393051350681425" id="-33987">
		<tag k="name" v="Vasskarvatna" />
		<tag k="natural" v="water" />
		<tag k="ssr:stedsnr" v="131077" />
		<tag k="water" v="lake" />
	</node>
	<node lat="61.76601215828269" lon="5.122841053636307" id="-33988">
		<tag k="fixme" v="consider place=hamlet" />
		<tag k="name" v="Nesbø" />
		<tag k="place" v="farm" />
		<tag k="ssr:stedsnr" v="131091" />
	</node>
	<node lat="61.784725000287565" lon="5.674227783637241" id="-33989">
		<tag k="name" v="Store Åskorvatnet" />
		<tag k="natural" v="water" />
		<tag k="ssr:stedsnr" v="131274" />
		<tag k="water" v="lake" />
	</node>
	<node lat="61.86082777866743" lon="5.48623611277033" id="-33990">
		<tag k="name" v="Svartevatnet" />
		<tag k="natural" v="water" />
		<tag k="ssr:stedsnr" v="131367" />
	</node>
	<node lat="61.89585000180985" lon="5.576916659431709" id="-33991">
		<tag k="name" v="Svartekaristeinen" />
		<tag k="natural" v="slope" />
		<tag k="place" v="locality" />
		<tag k="ssr:stedsnr" v="131378" />
	</node>
	<node lat="61.805791663247376" lon="4.9773083305467845" id="-33992">
		<tag k="fixme" v="consider natural=peak for the most distinct mountains in the district" />
		<tag k="name" v="Rylandshornet" />
		<tag k="natural" v="hill" />
		<tag k="place" v="locality" />
		<tag k="ssr:stedsnr" v="131862" />
	</node>
	<node lat="61.79063055948815" lon="4.863786116320536" id="-33993">
		<tag k="name" v="Skorekinna" />
		<tag k="natural" v="hill" />
		<tag k="place" v="locality" />
		<tag k="ssr:stedsnr" v="131869" />
	</node>
	<node lat="61.752011111399504" lon="5.05143333671587" id="-33995">
		<tag k="name" v="Gulestødalen" />
		<tag k="natural" v="valley" />
		<tag k="place" v="locality" />
		<tag k="ssr:stedsnr" v="131904" />
	</node>
	<node lat="61.86450833525483" lon="4.937280550955835" id="-33996">
		<tag k="name" v="Båsevatnet" />
		<tag k="natural" v="water" />
		<tag k="ssr:stedsnr" v="131921" />
	</node>
	<node lat="61.86602222560635" lon="4.857588896502517" id="-33997">
		<tag k="fixme" v="consider natural=peak for the most distinct mountains in the district" />
		<tag k="name" v="Klovnefjellet" />
		<tag k="natural" v="hill" />
		<tag k="place" v="locality" />
		<tag k="ssr:stedsnr" v="131923" />
	</node>
	<node lat="61.78048055759781" lon="4.856019442450612" id="-33998">
		<tag k="name" v="Sæterhaugane" />
		<tag k="natural" v="hill" />
		<tag k="place" v="locality" />
		<tag k="ssr:stedsnr" v="252812" />
	</node>
	<node lat="61.75684530632138" lon="5.059870156049981" id="-33999">
		<tag k="alt_name" v="Gulestø" />
		<tag k="fixme" v="consider place=hamlet" />
		<tag k="name" v="Gulestøa" />
		<tag k="place" v="farm" />
		<tag k="ssr:stedsnr" v="252840" />
	</node>
	<node lat="61.77161292342178" lon="4.912190235342533" id="-34000">
		<tag k="name" v="Hamrøyna" />
		<tag k="place" v="island" />
		<tag k="ssr:stedsnr" v="252817" />
	</node>
	<node lat="61.78479919245036" lon="4.986001773269604" id="-34001">
		<tag k="name" v="Smalenova" />
		<tag k="natural" v="hill" />
		<tag k="place" v="locality" />
		<tag k="ssr:stedsnr" v="252822" />
	</node>
	<node lat="61.850626813749294" lon="5.070749757365375" id="-34002">
		<tag k="fixme" v="multiple name tags, choose one and add the other to alt_name" />
		<tag k="name" v="Raudskardvatnet;Raudskarvatnet" />
		<tag k="natural" v="water" />
		<tag k="ssr:stedsnr" v="252882" />
	</node>
	<node lat="61.86029999868196" lon="5.026333338521239" id="-34003">
		<tag k="name" v="Klungreset" />
		<tag k="place" v="farm" />
		<tag k="ssr:stedsnr" v="252883" />
	</node>
	<node lat="61.86647499605962" lon="4.973511108319658" id="-34004">
		<tag k="name" v="Svarstaddalen" />
		<tag k="natural" v="valley" />
		<tag k="place" v="locality" />
		<tag k="ssr:stedsnr" v="252863" />
	</node>
	<node lat="61.861033336171126" lon="5.091438896278218" id="-34005">
		<tag k="fixme" v="consider natural=peak for the most distinct mountains in the district" />
		<tag k="name" v="Hestedalsfjellet" />
		<tag k="natural" v="hill" />
		<tag k="place" v="locality" />
		<tag k="ssr:stedsnr" v="252890" />
	</node>
	<node lat="61.78059444761079" lon="5.302922215251569" id="-34006">
		<tag k="fixme" v="consider natural=peak for the most distinct mountains in the district" />
		<tag k="name" v="Høgefjellet" />
		<tag k="natural" v="hill" />
		<tag k="place" v="locality" />
		<tag k="ssr:stedsnr" v="253080" />
	</node>
	<node lat="61.76366944802594" lon="5.106488894265289" id="-34007">
		<tag k="name" v="Løypedal" />
		<tag k="place" v="farm" />
		<tag k="ssr:stedsnr" v="253087" />
	</node>
	<node lat="61.80143910180064" lon="5.2204207270235745" id="-34008">
		<tag k="name" v="Middagsvatna" />
		<tag k="natural" v="water" />
		<tag k="ssr:stedsnr" v="253145" />
		<tag k="water" v="lake" />
	</node>
	<node lat="61.86412222155213" lon="5.181294439513427" id="-34010">
		<tag k="alt_name" v="Stormyrvatnet" />
		<tag k="name" v="Fagerdalsvatnet" />
		<tag k="natural" v="water" />
		<tag k="ssr:stedsnr" v="253186" />
	</node>
	<node lat="61.874480558500224" lon="5.387536104874025" id="-34011">
		<tag k="name" v="Rauddalsvatnet" />
		<tag k="natural" v="water" />
		<tag k="ssr:stedsnr" v="253190" />
	</node>
	<node lat="61.8705944426974" lon="5.424861109234337" id="-34012">
		<tag k="name" v="Fagerlidskaret" />
		<tag k="natural" v="valley" />
		<tag k="place" v="locality" />
		<tag k="ssr:stedsnr" v="253192" />
	</node>
	<node lat="61.87812777864521" lon="5.459313886429351" id="-34013">
		<tag k="name" v="Rinden" />
		<tag k="place" v="locality" />
		<tag k="ssr:stedsnr" v="253193" />
	</node>
	<node lat="61.8590638878828" lon="5.390455553272283" id="-34014">
		<tag k="alt_name" v="Setra" />
		<tag k="name" v="Sætra" />
		<tag k="place" v="locality" />
		<tag k="ssr:stedsnr" v="253171" />
	</node>
	<node lat="61.84904722095499" lon="5.221499990870739" id="-34015">
		<tag k="fixme" v="consider natural=peak for the most distinct mountains in the district" />
		<tag k="name" v="Uraheia" />
		<tag k="natural" v="hill" />
		<tag k="place" v="locality" />
		<tag k="ssr:stedsnr" v="253174" />
	</node>
	<node lat="61.86255833463254" lon="5.708138890304949" id="-34016">
		<tag k="historic" v="shieling" />
		<tag k="name" v="Gamlesætra" />
		<tag k="place" v="isolated_dwelling" />
		<tag k="ssr:stedsnr" v="253403" />
	</node>
	<node lat="61.878475002037405" lon="5.520399996661024" id="-34017">
		<tag k="name" v="Tungesela" />
		<tag k="place" v="locality" />
		<tag k="ssr:stedsnr" v="253438" />
	</node>
	<node lat="61.87889999832762" lon="5.473941669247352" id="-34018">
		<tag k="name" v="Blåfjellmurane" />
		<tag k="place" v="locality" />
		<tag k="ssr:stedsnr" v="253442" />
	</node>
	<node lat="61.8746416667281" lon="5.688947227882906" id="-34019">
		<tag k="historic" v="shieling" />
		<tag k="name" v="Persætra" />
		<tag k="place" v="isolated_dwelling" />
		<tag k="ssr:stedsnr" v="253447" />
	</node>
	<node lat="61.82977777536789" lon="5.337222226658338" id="-34020">
		<tag k="name" v="Sørdalen" />
		<tag k="natural" v="valley" />
		<tag k="place" v="locality" />
		<tag k="ssr:stedsnr" v="253810" />
	</node>
	<node lat="61.791530556233475" lon="4.791405547535152" id="-34021">
		<tag k="alt_name" v="Muleneset" />
		<tag k="name" v="Mulen" />
		<tag k="natural" v="cape" />
		<tag k="ssr:stedsnr" v="253813" />
	</node>
	<node lat="61.78501666253026" lon="4.933933340837747" id="-34022">
		<tag k="alt_name" v="Nybø" />
		<tag k="name" v="Nybøen" />
		<tag k="place" v="farm" />
		<tag k="ssr:stedsnr" v="253841" />
	</node>
	<node lat="61.78525555253277" lon="5.540311110550715" id="-34023">
		<tag k="name" v="Langevatnet" />
		<tag k="natural" v="water" />
		<tag k="ssr:stedsnr" v="253847" />
		<tag k="water" v="lake" />
	</node>
	<node lat="61.78535277896235" lon="4.848283327117315" id="-34024">
		<tag k="name" v="Frøya" />
		<tag k="place" v="island" />
		<tag k="ssr:stedsnr" v="253850" />
	</node>
	<node lat="61.8344305529486" lon="5.0316250080493905" id="-34025">
		<tag k="name" v="Kvernhuselva" />
		<tag k="ssr:stedsnr" v="253912" />
		<tag k="waterway" v="stream" />
	</node>
	<node lat="61.81582777787896" lon="4.9047305650052575" id="-34026">
		<tag k="name" v="Grønevika" />
		<tag k="natural" v="bay" />
		<tag k="ssr:stedsnr" v="142007" />
	</node>
	<node lat="61.82190555456085" lon="5.010524995333635" id="-34027">
		<tag k="name" v="Fagredalen" />
		<tag k="natural" v="valley" />
		<tag k="place" v="locality" />
		<tag k="ssr:stedsnr" v="142008" />
	</node>
	<node lat="61.770063886876954" lon="5.29742500683457" id="-34028">
		<tag k="bridge" v="yes" />
		<tag k="layer" v="1" />
		<tag k="name" v="Svelgfoss" />
		<tag k="ssr:stedsnr" v="168655" />
	</node>
	<node lat="61.79905277651196" lon="4.838877771636817" id="-34029">
		<tag k="name" v="Melkevatnet" />
		<tag k="natural" v="water" />
		<tag k="ssr:stedsnr" v="171058" />
	</node>
	<node lat="61.80856944172028" lon="4.848497215847232" id="-34030">
		<tag k="name" v="Sørestø" />
		<tag k="place" v="isolated_dwelling" />
		<tag k="ssr:stedsnr" v="171060" />
	</node>
	<node lat="61.812924995482085" lon="5.656119438450099" id="-34031">
		<tag k="name" v="Sørevikneset" />
		<tag k="natural" v="cape" />
		<tag k="ssr:stedsnr" v="171112" />
	</node>
	<node lat="61.8392444429336" lon="5.657661103360694" id="-34032">
		<tag k="name" v="Sloka" />
		<tag k="place" v="locality" />
		<tag k="ssr:stedsnr" v="171206" />
	</node>
	<node lat="61.848019446448696" lon="5.679274999119006" id="-34033">
		<tag k="name" v="Tjørna" />
		<tag k="natural" v="water" />
		<tag k="ssr:stedsnr" v="171212" />
	</node>
	<node lat="61.84277778219992" lon="5.422725001159021" id="-34034">
		<tag k="name" v="Dyrstelmyra" />
		<tag k="natural" v="wetland" />
		<tag k="ssr:stedsnr" v="171264" />
	</node>
	<node lat="61.865100002535954" lon="5.073108326015868" id="-34035">
		<tag k="name" v="Konsdalselva" />
		<tag k="ssr:stedsnr" v="171270" />
		<tag k="waterway" v="stream" />
	</node>
	<node lat="61.80740000445543" lon="5.036524997672751" id="-34036">
		<tag k="name" v="Haugen" />
		<tag k="natural" v="hill" />
		<tag k="place" v="locality" />
		<tag k="ssr:stedsnr" v="171412" />
	</node>
	<node lat="61.78999722612413" lon="4.7961277792948485" id="-34037">
		<tag k="name" v="Mulehola" />
		<tag k="natural" v="valley" />
		<tag k="place" v="locality" />
		<tag k="ssr:stedsnr" v="171456" />
	</node>
	<node lat="61.79842778044251" lon="4.835202775356082" id="-34038">
		<tag k="name" v="Jonsokmyrane" />
		<tag k="natural" v="wetland" />
		<tag k="ssr:stedsnr" v="171461" />
	</node>
	<node lat="61.86266110903483" lon="4.9901333403414085" id="-34039">
		<tag k="name" v="Høgelia" />
		<tag k="natural" v="slope" />
		<tag k="place" v="locality" />
		<tag k="ssr:stedsnr" v="171304" />
	</node>
	<node lat="61.833155559140614" lon="5.483988883205689" id="-34040">
		<tag k="name" v="Blåkollane" />
		<tag k="place" v="locality" />
		<tag k="ssr:stedsnr" v="171307" />
	</node>
	<node lat="61.8254222269027" lon="5.485844450650858" id="-34041">
		<tag k="name" v="Store Ridstallen" />
		<tag k="natural" v="water" />
		<tag k="ssr:stedsnr" v="171308" />
		<tag k="water" v="pond" />
	</node>
	<node lat="61.850744442580464" lon="5.478777772006881" id="-34042">
		<tag k="name" v="Bjørnaskora" />
		<tag k="place" v="locality" />
		<tag k="ssr:stedsnr" v="171314" />
	</node>
	<node lat="61.77161110805428" lon="4.851516661331011" id="-34043">
		<tag k="name" v="Stolen" />
		<tag k="natural" v="hill" />
		<tag k="place" v="locality" />
		<tag k="ssr:stedsnr" v="171361" />
	</node>
	<node lat="61.88889721848433" lon="5.537088882099983" id="-34044">
		<tag k="name" v="Nybø" />
		<tag k="place" v="farm" />
		<tag k="ssr:stedsnr" v="171609" />
	</node>
	<node lat="61.86940314102563" lon="5.312308004730301" id="-34045">
		<tag k="name" v="Kolsethaugen" />
		<tag k="natural" v="hill" />
		<tag k="place" v="locality" />
		<tag k="ssr:stedsnr" v="171611" />
	</node>
	<node lat="61.87052777795494" lon="5.320288883569576" id="-34046">
		<tag k="fixme" v="consider natural=peak for the most distinct mountains in the district" />
		<tag k="name" v="Høgfjellet" />
		<tag k="natural" v="hill" />
		<tag k="place" v="locality" />
		<tag k="ssr:stedsnr" v="171613" />
	</node>
	<node lat="61.869566667454166" lon="5.300452779416135" id="-34047">
		<tag k="name" v="Tjuveholmsundet" />
		<tag k="natural" v="strait" />
		<tag k="ssr:stedsnr" v="171614" />
	</node>
	<node lat="61.871188885767914" lon="5.269374998547373" id="-34048">
		<tag k="name" v="Molvika" />
		<tag k="natural" v="bay" />
		<tag k="ssr:stedsnr" v="171616" />
	</node>
	<node lat="61.868741666405306" lon="5.258891671648321" id="-34049">
		<tag k="alt_name" v="Gloføkholmen" />
		<tag k="name" v="Gloføykholmen" />
		<tag k="place" v="islet" />
		<tag k="ssr:stedsnr" v="171619" />
	</node>
	<node lat="61.87156666726937" lon="5.707572230689447" id="-34050">
		<tag k="name" v="Eligrova" />
		<tag k="ssr:stedsnr" v="171803" />
		<tag k="waterway" v="stream" />
	</node>
	<node lat="61.87855277883143" lon="5.714992348347104" id="-34051">
		<tag k="name" v="Ytre Isane" />
		<tag k="place" v="farm" />
		<tag k="ssr:stedsnr" v="171805" />
	</node>
	<node lat="61.77526667109678" lon="5.183080555803518" id="-34052">
		<tag k="name" v="Holten" />
		<tag k="natural" v="slope" />
		<tag k="place" v="locality" />
		<tag k="ssr:stedsnr" v="171812" />
	</node>
	<node lat="61.843258336716815" lon="5.697263895782241" id="-34053">
		<tag k="name" v="Huken" />
		<tag k="natural" v="beach" />
		<tag k="ssr:stedsnr" v="171771" />
	</node>
	<node lat="61.72064166756195" lon="5.105719441732438" id="-34054">
		<tag k="name" v="Sagebøneset" />
		<tag k="natural" v="cape" />
		<tag k="ssr:stedsnr" v="171907" />
	</node>
	<node lat="61.72281944882874" lon="5.101452783351597" id="-34055">
		<tag k="name" v="Myrane" />
		<tag k="natural" v="wetland" />
		<tag k="ssr:stedsnr" v="171908" />
	</node>
	<node lat="61.71909999906186" lon="5.173094435486792" id="-34056">
		<tag k="name" v="Pollaneset" />
		<tag k="natural" v="cape" />
		<tag k="ssr:stedsnr" v="171912" />
	</node>
	<node lat="61.70547222357889" lon="5.192027783379043" id="-34057">
		<tag k="name" v="Fossane" />
		<tag k="natural" v="waterfall" />
		<tag k="ssr:stedsnr" v="171917" />
	</node>
	<node lat="61.70988055497108" lon="5.182791657342965" id="-34058">
		<tag k="name" v="Blombakkane" />
		<tag k="natural" v="slope" />
		<tag k="place" v="locality" />
		<tag k="ssr:stedsnr" v="171919" />
	</node>
	<node lat="61.70072222490029" lon="5.129730559275428" id="-34059">
		<tag k="name" v="Snøskorane" />
		<tag k="natural" v="cliff" />
		<tag k="ssr:stedsnr" v="171922" />
	</node>
	<node lat="61.849191666755786" lon="4.837763879841141" id="-34060">
		<tag k="name" v="Slettebakken" />
		<tag k="natural" v="slope" />
		<tag k="place" v="locality" />
		<tag k="ssr:stedsnr" v="172003" />
	</node>
	<node lat="61.87911111194086" lon="4.923936116346943" id="-34061">
		<tag k="name" v="Krypselva" />
		<tag k="ssr:stedsnr" v="172009" />
		<tag k="waterway" v="stream" />
	</node>
	<node lat="61.76061388798744" lon="5.280302772380579" id="-34062">
		<tag k="name" v="Nedsteskora" />
		<tag k="natural" v="cliff" />
		<tag k="ssr:stedsnr" v="172018" />
	</node>
	<node lat="61.762733332864705" lon="5.288544445807223" id="-34063">
		<tag k="name" v="Vasshaugen" />
		<tag k="natural" v="hill" />
		<tag k="place" v="locality" />
		<tag k="ssr:stedsnr" v="172023" />
	</node>
	<node lat="61.76625277375509" lon="5.290369443023149" id="-34064">
		<tag k="name" v="Kvelve" />
		<tag k="place" v="farm" />
		<tag k="ssr:stedsnr" v="172026" />
	</node>
	<node lat="61.88701666493423" lon="4.940319450116905" id="-34065">
		<tag k="name" v="Skreda" />
		<tag k="natural" v="valley" />
		<tag k="place" v="locality" />
		<tag k="ssr:stedsnr" v="172111" />
	</node>
	<node lat="61.8161055599723" lon="5.0697416693464765" id="-34066">
		<tag k="historic" v="shieling" />
		<tag k="name" v="Melkehaugen" />
		<tag k="place" v="locality" />
		<tag k="ssr:stedsnr" v="172366" />
	</node>
	<node lat="61.785691668294916" lon="5.304005564625222" id="-34067">
		<tag k="historic" v="shieling" />
		<tag k="name" v="Gamlestølen" />
		<tag k="place" v="locality" />
		<tag k="ssr:stedsnr" v="172806" />
	</node>
	<node lat="61.75287500348633" lon="5.087761108825676" id="-34068">
		<tag k="name" v="Haldevik" />
		<tag k="natural" v="bay" />
		<tag k="ssr:stedsnr" v="172862" />
	</node>
	<node lat="61.77338888542159" lon="5.296238891655968" id="-34069">
		<tag k="building" v="industrial" />
		<tag k="industrial" v="factory" />
		<tag k="name" v="Smelteverk" />
		<tag k="ssr:stedsnr" v="174204" />
	</node>
	<node lat="61.76535555534774" lon="5.279736111746467" id="-34070">
		<tag k="name" v="Risehamrane" />
		<tag k="natural" v="hill" />
		<tag k="place" v="locality" />
		<tag k="ssr:stedsnr" v="174205" />
	</node>
	<node lat="61.75123888936288" lon="5.130797214564798" id="-34071">
		<tag k="name" v="Ternøyskukken" />
		<tag k="natural" v="shoal" />
		<tag k="place" v="locality" />
		<tag k="ssr:stedsnr" v="174211" />
	</node>
	<node lat="61.90897500435276" lon="4.907986119079287" id="-34072">
		<tag k="name" v="Feste" />
		<tag k="natural" v="shoal" />
		<tag k="place" v="locality" />
		<tag k="ssr:stedsnr" v="174454" />
	</node>
	<node lat="61.91315555292958" lon="4.908588894279775" id="-34073">
		<tag k="name" v="Kvitnesflua" />
		<tag k="natural" v="shoal" />
		<tag k="place" v="locality" />
		<tag k="ssr:stedsnr" v="174455" />
	</node>
	<node lat="61.7070166638006" lon="5.11652223030362" id="-34074">
		<tag k="name" v="Sørgulen" />
		<tag k="place" v="farm" />
		<tag k="ssr:stedsnr" v="174706" />
	</node>
	<node lat="61.70744295391282" lon="5.110849387822243" id="-34075">
		<tag k="name" v="Sørevika" />
		<tag k="natural" v="bay" />
		<tag k="ssr:stedsnr" v="174708" />
	</node>
	<node lat="61.88950555640478" lon="5.342952780593514" id="-34076">
		<tag k="fixme" v="consider seamark:type=rock or natural=shoal" />
		<tag k="name" v="Saltsteinen" />
		<tag k="place" v="islet" />
		<tag k="ssr:stedsnr" v="175020" />
	</node>
	<node lat="61.84803055465448" lon="5.349725005635388" id="-34077">
		<tag k="bay" v="fjord" />
		<tag k="name" v="Bortnefjorden" />
		<tag k="natural" v="bay" />
		<tag k="ssr:stedsnr" v="175022" />
	</node>
	<node lat="61.8346944410181" lon="4.925486104090603" id="-34078">
		<tag k="name" v="Storesandtaren" />
		<tag k="natural" v="shoal" />
		<tag k="place" v="locality" />
		<tag k="ssr:stedsnr" v="175907" />
	</node>
	<node lat="61.71484444033441" lon="4.738302783298266" id="-34079">
		<tag k="name" v="Toddeskjerleia" />
		<tag k="place" v="locality" />
		<tag k="ssr:stedsnr" v="175925" />
	</node>
	<node lat="61.835311113010064" lon="4.983594451845406" id="-34080">
		<tag k="name" v="Erkeflua" />
		<tag k="natural" v="shoal" />
		<tag k="place" v="locality" />
		<tag k="ssr:stedsnr" v="175964" />
	</node>
	<node lat="61.82102500123532" lon="4.921063892811087" id="-34081">
		<tag k="name" v="Grotneset" />
		<tag k="natural" v="cape" />
		<tag k="ssr:stedsnr" v="263009" />
	</node>
	<node lat="61.726161107938154" lon="4.808463898612529" id="-34082">
		<tag k="fixme" v="consider seamark:type=rock or natural=shoal" />
		<tag k="name" v="Kobbeskjeret" />
		<tag k="place" v="islet" />
		<tag k="ssr:stedsnr" v="190459" />
	</node>
	<node lat="61.71893889119538" lon="4.802422229156461" id="-34083">
		<tag k="name" v="Tåboen" />
		<tag k="natural" v="shoal" />
		<tag k="place" v="locality" />
		<tag k="ssr:stedsnr" v="190461" />
	</node>
	<node lat="61.73628611425053" lon="4.948877784638925" id="-34084">
		<tag k="name" v="Skadvengen" />
		<tag k="place" v="islet" />
		<tag k="ssr:stedsnr" v="190474" />
	</node>
	<node lat="61.717666664927876" lon="4.7955833371399486" id="-34085">
		<tag k="fixme" v="consider seamark:type=rock or natural=shoal" />
		<tag k="name" v="Tåa" />
		<tag k="place" v="islet" />
		<tag k="ssr:stedsnr" v="190485" />
	</node>
	<node lat="61.73912176629042" lon="5.176179436044142" id="-34086">
		<tag k="fixme" v="consider place=hamlet" />
		<tag k="name" v="Sandvik" />
		<tag k="place" v="farm" />
		<tag k="ssr:stedsnr" v="190863" />
	</node>
	<node lat="61.70155555328482" lon="5.2097222213739816" id="-34087">
		<tag k="historic" v="shieling" />
		<tag k="name" v="Vikastøylane" />
		<tag k="place" v="isolated_dwelling" />
		<tag k="ssr:stedsnr" v="190876" />
	</node>
	<node lat="61.664341663255705" lon="5.241155555991307" id="-34088">
		<tag k="name" v="Guleskaret" />
		<tag k="natural" v="valley" />
		<tag k="place" v="locality" />
		<tag k="ssr:stedsnr" v="190916" />
	</node>
	<node lat="61.816497220366806" lon="5.575536115697131" id="-34089">
		<tag k="name" v="Høgehammaren" />
		<tag k="natural" v="hill" />
		<tag k="place" v="locality" />
		<tag k="ssr:stedsnr" v="263548" />
	</node>
	<node lat="61.76894722288144" lon="4.914711119903711" id="-34090">
		<tag k="fixme" v="consider seamark:type=rock or natural=shoal" />
		<tag k="name" v="Svarteskjeret" />
		<tag k="place" v="islet" />
		<tag k="ssr:stedsnr" v="269638" />
	</node>
	<node lat="61.844780552254086" lon="5.686586109579088" id="-34091">
		<tag k="name" v="Kleivane" />
		<tag k="natural" v="slope" />
		<tag k="place" v="locality" />
		<tag k="ssr:stedsnr" v="221389" />
	</node>
	<node lat="61.793847223313406" lon="4.886536104496852" id="-34092">
		<tag k="name" v="Varenesvika" />
		<tag k="natural" v="bay" />
		<tag k="ssr:stedsnr" v="232036" />
	</node>
	<node lat="61.808944446322464" lon="5.576577771738396" id="-34093">
		<tag k="name" v="Videne" />
		<tag k="place" v="locality" />
		<tag k="ssr:stedsnr" v="232185" />
	</node>
	<node lat="61.8267749993084" lon="5.545474994995346" id="-34094">
		<tag k="name" v="Bjørkelida" />
		<tag k="natural" v="slope" />
		<tag k="place" v="locality" />
		<tag k="ssr:stedsnr" v="232306" />
	</node>
	<node lat="61.82647499572641" lon="5.529052774808772" id="-34095">
		<tag k="name" v="Huardalen" />
		<tag k="natural" v="valley" />
		<tag k="place" v="locality" />
		<tag k="ssr:stedsnr" v="232308" />
	</node>
	<node lat="61.81911666985119" lon="5.538338892921478" id="-34096">
		<tag k="name" v="Varingsnukkane" />
		<tag k="place" v="locality" />
		<tag k="ssr:stedsnr" v="232311" />
	</node>
	<node lat="61.81405277999625" lon="5.3097833387824664" id="-34097">
		<tag k="name" v="Demminga" />
		<tag k="ssr:stedsnr" v="232504" />
		<tag k="waterway" v="dam" />
	</node>
	<node lat="61.83447778216097" lon="5.29498888660522" id="-34098">
		<tag k="fixme" v="consider seamark:type=rock or natural=shoal" />
		<tag k="name" v="Hella" />
		<tag k="place" v="islet" />
		<tag k="ssr:stedsnr" v="232509" />
	</node>
	<node lat="61.840441669267705" lon="5.305647229686993" id="-34099">
		<tag k="name" v="Gardsvika" />
		<tag k="natural" v="bay" />
		<tag k="ssr:stedsnr" v="232514" />
	</node>
	<node lat="61.83857222660536" lon="5.29409444241706" id="-34100">
		<tag k="name" v="Marøydjupet" />
		<tag k="natural" v="strait" />
		<tag k="ssr:stedsnr" v="232515" />
	</node>
	<node lat="61.7667956924003" lon="4.81589335111537" id="-34101">
		<tag k="name" v="Havrøyvika" />
		<tag k="natural" v="bay" />
		<tag k="ssr:stedsnr" v="232433" />
	</node>
	<node lat="61.86588055870159" lon="5.243838894389546" id="-34102">
		<tag k="name" v="Fureneset" />
		<tag k="natural" v="cape" />
		<tag k="ssr:stedsnr" v="232495" />
	</node>
	<node lat="61.87165277633446" lon="5.17998055766725" id="-34103">
		<tag k="name" v="Langehilla" />
		<tag k="place" v="locality" />
		<tag k="ssr:stedsnr" v="232529" />
	</node>
	<node lat="61.83906389040516" lon="5.725519443247206" id="-34104">
		<tag k="name" v="Sageneset" />
		<tag k="natural" v="cape" />
		<tag k="ssr:stedsnr" v="232704" />
	</node>
	<node lat="61.837516668573045" lon="5.729569442636365" id="-34105">
		<tag k="name" v="Hatten" />
		<tag k="natural" v="hill" />
		<tag k="place" v="locality" />
		<tag k="ssr:stedsnr" v="232705" />
	</node>
	<node lat="61.839152780566785" lon="5.73146666295077" id="-34106">
		<tag k="name" v="Heggjerusta" />
		<tag k="natural" v="slope" />
		<tag k="place" v="locality" />
		<tag k="ssr:stedsnr" v="232708" />
	</node>
	<node lat="61.844852780503054" lon="5.716886116287208" id="-34107">
		<tag k="name" v="Kummeneset" />
		<tag k="natural" v="cape" />
		<tag k="ssr:stedsnr" v="232716" />
	</node>
	<node lat="61.841797217811965" lon="5.758863890381464" id="-34108">
		<tag k="name" v="Fureneset" />
		<tag k="natural" v="cape" />
		<tag k="ssr:stedsnr" v="232730" />
	</node>
	<node lat="61.78185832867017" lon="5.256022214313997" id="-34109">
		<tag k="name" v="Brattegjølet" />
		<tag k="natural" v="valley" />
		<tag k="place" v="locality" />
		<tag k="ssr:stedsnr" v="232733" />
	</node>
	<node lat="61.77628610765682" lon="5.173825007196067" id="-34110">
		<tag k="name" v="Svehamrane" />
		<tag k="natural" v="hill" />
		<tag k="place" v="locality" />
		<tag k="ssr:stedsnr" v="232780" />
	</node>
	<node lat="61.78019166298403" lon="5.125427774729214" id="-34111">
		<tag k="name" v="Omvendeskarvatnet" />
		<tag k="natural" v="water" />
		<tag k="ssr:stedsnr" v="232787" />
	</node>
	<node lat="61.78785833294621" lon="5.12443889430556" id="-34112">
		<tag k="name" v="Smådalane" />
		<tag k="natural" v="valley" />
		<tag k="place" v="locality" />
		<tag k="ssr:stedsnr" v="232792" />
	</node>
	<node lat="61.71383333275932" lon="5.177669440761088" id="-34113">
		<tag k="name" v="Skoranakken" />
		<tag k="natural" v="hill" />
		<tag k="place" v="locality" />
		<tag k="ssr:stedsnr" v="232902" />
	</node>
	<node lat="61.883805558605516" lon="5.651486108285649" id="-34114">
		<tag k="name" v="Haugen" />
		<tag k="natural" v="hill" />
		<tag k="place" v="locality" />
		<tag k="ssr:stedsnr" v="232802" />
	</node>
	<node lat="61.70584722562143" lon="5.125833335692301" id="-34115">
		<tag k="name" v="Geitaskorane" />
		<tag k="natural" v="hill" />
		<tag k="place" v="locality" />
		<tag k="ssr:stedsnr" v="232878" />
	</node>
	<node lat="61.72460833451846" lon="5.103383339352987" id="-34116">
		<tag k="name" v="Tobbehola" />
		<tag k="natural" v="beach" />
		<tag k="ssr:stedsnr" v="232879" />
	</node>
	<node lat="61.737519447965" lon="5.292161108287861" id="-34117">
		<tag k="name" v="Kvitlane" />
		<tag k="place" v="island" />
		<tag k="ssr:stedsnr" v="232890" />
	</node>
	<node lat="61.74548611041443" lon="5.331541671714298" id="-34118">
		<tag k="name" v="Stavvatnelva" />
		<tag k="ssr:stedsnr" v="232893" />
		<tag k="waterway" v="stream" />
	</node>
	<node lat="61.84106389304529" lon="4.934413880392557" id="-34119">
		<tag k="name" v="Skothamrane" />
		<tag k="natural" v="hill" />
		<tag k="place" v="locality" />
		<tag k="ssr:stedsnr" v="233005" />
	</node>
	<node lat="61.834813888470336" lon="4.932513895998896" id="-34120">
		<tag k="fixme" v="consider seamark:type=rock or natural=shoal" />
		<tag k="name" v="Sandhaugskjeret" />
		<tag k="place" v="islet" />
		<tag k="ssr:stedsnr" v="233008" />
	</node>
	<node lat="61.84684444318978" lon="4.952166657890788" id="-34121">
		<tag k="name" v="Torvangsheia" />
		<tag k="natural" v="hill" />
		<tag k="place" v="locality" />
		<tag k="ssr:stedsnr" v="233029" />
	</node>
	<node lat="61.7425111126781" lon="5.002555563632596" id="-34122">
		<tag k="name" v="Båtvikhamrane" />
		<tag k="place" v="locality" />
		<tag k="ssr:stedsnr" v="232931" />
	</node>
	<node lat="61.82261944514996" lon="5.441547226262633" id="-34123">
		<tag k="name" v="Kalvehola" />
		<tag k="natural" v="valley" />
		<tag k="place" v="locality" />
		<tag k="ssr:stedsnr" v="232979" />
	</node>
	<node lat="61.82640278024005" lon="5.426461107610188" id="-34124">
		<tag k="name" v="Langeløken" />
		<tag k="natural" v="water" />
		<tag k="ssr:stedsnr" v="232994" />
	</node>
	<node lat="61.69750833609575" lon="5.0338555632899356" id="-34125">
		<tag k="name" v="Bakkane" />
		<tag k="natural" v="slope" />
		<tag k="place" v="locality" />
		<tag k="ssr:stedsnr" v="232999" />
	</node>
	<node lat="61.78077195319629" lon="5.55637516661741" id="-34126">
		<tag k="name" v="Litle Snønykevatnet" />
		<tag k="natural" v="water" />
		<tag k="ssr:stedsnr" v="234292" />
		<tag k="water" v="lake" />
	</node>
	<node lat="61.7711111122865" lon="5.2957916634964" id="-34127">
		<tag k="man_made" v="quay" />
		<tag k="name" v="Stasjonskaia" />
		<tag k="place" v="locality" />
		<tag k="ssr:stedsnr" v="235193" />
	</node>
	<node lat="61.76314166499125" lon="5.24136665880095" id="-34128">
		<tag k="name" v="Notastanga" />
		<tag k="natural" v="cape" />
		<tag k="ssr:stedsnr" v="235196" />
	</node>
	<node lat="61.770863884645195" lon="5.286944444482319" id="-34129">
		<tag k="name" v="Flua" />
		<tag k="natural" v="shoal" />
		<tag k="place" v="locality" />
		<tag k="ssr:stedsnr" v="235200" />
	</node>
	<node lat="61.73019999868538" lon="5.225244453850212" id="-34130">
		<tag k="name" v="Sagelva" />
		<tag k="ssr:stedsnr" v="235427" />
		<tag k="waterway" v="river" />
	</node>
	<node lat="61.806066668395616" lon="5.0594750034477425" id="-34131">
		<tag k="name" v="Avløysingen" />
		<tag k="natural" v="shoal" />
		<tag k="place" v="locality" />
		<tag k="ssr:stedsnr" v="235485" />
	</node>
	<node lat="61.79818055681018" lon="4.9464388901060214" id="-34132">
		<tag k="name" v="Vågen" />
		<tag k="natural" v="bay" />
		<tag k="ssr:stedsnr" v="235549" />
	</node>
	<node lat="61.778552773749084" lon="4.927252773283142" id="-34133">
		<tag k="name" v="Makrellvågen" />
		<tag k="natural" v="bay" />
		<tag k="ssr:stedsnr" v="235682" />
	</node>
	<node lat="61.80814721918198" lon="4.888750009802501" id="-34134">
		<tag k="name" v="Tellebåane" />
		<tag k="natural" v="shoal" />
		<tag k="place" v="locality" />
		<tag k="ssr:stedsnr" v="235688" />
	</node>
	<node lat="61.881283329857226" lon="5.13480554769792" id="-34135">
		<tag k="name" v="Bjørnøyflua" />
		<tag k="natural" v="shoal" />
		<tag k="place" v="locality" />
		<tag k="ssr:stedsnr" v="235832" />
	</node>
	<node lat="61.87956667005597" lon="4.905727774555975" id="-34136">
		<tag k="name" v="Ura" />
		<tag k="natural" v="scree" />
		<tag k="ssr:stedsnr" v="235884" />
	</node>
	<node lat="61.81730555435269" lon="5.242508329570251" id="-34137">
		<tag k="name" v="Løypingneset" />
		<tag k="natural" v="cape" />
		<tag k="ssr:stedsnr" v="236040" />
	</node>
	<node lat="61.84420555428789" lon="5.296458339856525" id="-34138">
		<tag k="name" v="Tussurdskallen" />
		<tag k="natural" v="shoal" />
		<tag k="place" v="locality" />
		<tag k="ssr:stedsnr" v="236041" />
	</node>
	<node lat="61.828002781751586" lon="4.787297223696328" id="-34139">
		<tag k="name" v="Nordre Rognflua" />
		<tag k="natural" v="shoal" />
		<tag k="place" v="locality" />
		<tag k="ssr:stedsnr" v="236899" />
	</node>
	<node lat="61.74118425844001" lon="5.118559200191625" id="-34140">
		<tag k="fixme" v="consider place=hamlet" />
		<tag k="name" v="Mulehamn" />
		<tag k="place" v="farm" />
		<tag k="ssr:stedsnr" v="450679" />
	</node>
	<node lat="61.84321944451264" lon="4.9422722145439835" id="-34141">
		<tag k="name" v="Omnen" />
		<tag k="natural" v="valley" />
		<tag k="place" v="locality" />
		<tag k="ssr:stedsnr" v="252901" />
	</node>
	<node lat="61.79756944428263" lon="5.1991583319704" id="-34142">
		<tag k="name" v="Litlenyken" />
		<tag k="natural" v="hill" />
		<tag k="place" v="locality" />
		<tag k="ssr:stedsnr" v="253106" />
	</node>
	<node lat="61.8238694433465" lon="5.13526943579174" id="-34143">
		<tag k="name" v="Kviteneset" />
		<tag k="natural" v="cape" />
		<tag k="ssr:stedsnr" v="253127" />
	</node>
	<node lat="61.784684862024754" lon="5.62118019720735" id="-34144">
		<tag k="fixme" v="multiple name tags, choose one and add the other to alt_name" />
		<tag k="name" v="Novavatnet;Nedre Sødalsvatnet" />
		<tag k="natural" v="water" />
		<tag k="ssr:stedsnr" v="253326" />
		<tag k="water" v="lake" />
	</node>
	<node lat="61.679813343760486" lon="5.237352349806314" id="-34145">
		<tag k="name" v="Søre Dalen" />
		<tag k="natural" v="valley" />
		<tag k="place" v="locality" />
		<tag k="ssr:stedsnr" v="253805" />
	</node>
	<node lat="61.808441669203" lon="5.038366670220906" id="-34146">
		<tag k="name" v="Skipperdalen" />
		<tag k="natural" v="valley" />
		<tag k="place" v="locality" />
		<tag k="ssr:stedsnr" v="253832" />
	</node>
	<node lat="61.894213886519424" lon="4.902244450828599" id="-34147">
		<tag k="name" v="Styreneset" />
		<tag k="natural" v="cape" />
		<tag k="ssr:stedsnr" v="253981" />
	</node>
	<node lat="61.90772778018029" lon="4.932055552495887" id="-34148">
		<tag k="name" v="Vernet" />
		<tag k="natural" v="cape" />
		<tag k="ssr:stedsnr" v="253985" />
	</node>
	<node lat="61.891369442542285" lon="5.009727783163163" id="-34149">
		<tag k="name" v="Molvika" />
		<tag k="natural" v="bay" />
		<tag k="ssr:stedsnr" v="253998" />
	</node>
	<node lat="61.88378333529945" lon="4.951941658307595" id="-34150">
		<tag k="fixme" v="consider natural=peak for the most distinct mountains in the district" />
		<tag k="name" v="Nibba" />
		<tag k="natural" v="hill" />
		<tag k="place" v="locality" />
		<tag k="ssr:stedsnr" v="254000" />
	</node>
	<node lat="61.83157499602885" lon="4.989591664202361" id="-34151">
		<tag k="bridge" v="yes" />
		<tag k="layer" v="1" />
		<tag k="name" v="Naustdal" />
		<tag k="ssr:stedsnr" v="290580" />
	</node>
	<node lat="61.85626944737425" lon="5.363561119717309" id="-34152">
		<tag k="name" v="Heidavatnet" />
		<tag k="natural" v="water" />
		<tag k="ssr:stedsnr" v="292408" />
	</node>
	<node lat="61.86460833281488" lon="5.344752771041146" id="-34153">
		<tag k="name" v="Leirguldalen" />
		<tag k="natural" v="valley" />
		<tag k="place" v="locality" />
		<tag k="ssr:stedsnr" v="292410" />
	</node>
	<node lat="61.86673889059196" lon="5.352608330751792" id="-34154">
		<tag k="name" v="Raudehaugen" />
		<tag k="natural" v="hill" />
		<tag k="place" v="locality" />
		<tag k="ssr:stedsnr" v="292426" />
	</node>
	<node lat="61.804844441344684" lon="5.044005555421963" id="-34155">
		<tag k="name" v="Merranyken" />
		<tag k="natural" v="slope" />
		<tag k="place" v="locality" />
		<tag k="ssr:stedsnr" v="292392" />
	</node>
	<node lat="61.84044999764296" lon="5.248858341141442" id="-34156">
		<tag k="name" v="Nakken" />
		<tag k="natural" v="hill" />
		<tag k="place" v="locality" />
		<tag k="ssr:stedsnr" v="292528" />
	</node>
	<node lat="61.888569441828864" lon="5.414480564211434" id="-34157">
		<tag k="name" v="Korpedalen" />
		<tag k="natural" v="valley" />
		<tag k="place" v="locality" />
		<tag k="ssr:stedsnr" v="292575" />
	</node>
	<node lat="61.89357499970196" lon="5.431644435986959" id="-34158">
		<tag k="name" v="Endalsnosa" />
		<tag k="natural" v="hill" />
		<tag k="place" v="locality" />
		<tag k="ssr:stedsnr" v="292578" />
	</node>
	<node lat="61.89658888801869" lon="5.362308334927354" id="-34159">
		<tag k="name" v="Snekkevika" />
		<tag k="natural" v="bay" />
		<tag k="ssr:stedsnr" v="292595" />
	</node>
	<node lat="61.80730000028795" lon="4.927411114172976" id="-34160">
		<tag k="fixme" v="consider natural=peak for the most distinct mountains in the district" />
		<tag k="name" v="Litlehorn" />
		<tag k="natural" v="hill" />
		<tag k="place" v="locality" />
		<tag k="ssr:stedsnr" v="293027" />
	</node>
	<node lat="61.85030277891985" lon="4.81950555641294" id="-34161">
		<tag k="fixme" v="consider seamark:type=rock or natural=shoal" />
		<tag k="name" v="Leiaskjer" />
		<tag k="place" v="islet" />
		<tag k="ssr:stedsnr" v="293006" />
	</node>
	<node lat="61.879538888654714" lon="4.896655560305487" id="-34162">
		<tag k="name" v="Håberg" />
		<tag k="natural" v="hill" />
		<tag k="place" v="locality" />
		<tag k="ssr:stedsnr" v="293012" />
	</node>
	<node lat="61.880222220795766" lon="4.9055277714218875" id="-34163">
		<tag k="name" v="Uraneset" />
		<tag k="natural" v="cape" />
		<tag k="ssr:stedsnr" v="293015" />
	</node>
	<node lat="61.73870277507887" lon="5.255836104661532" id="-34164">
		<tag k="name" v="Storura" />
		<tag k="natural" v="scree" />
		<tag k="ssr:stedsnr" v="292905" />
	</node>
	<node lat="61.7489861093645" lon="5.3593250067894775" id="-34165">
		<tag k="name" v="Hjellteigura" />
		<tag k="natural" v="scree" />
		<tag k="ssr:stedsnr" v="292974" />
	</node>
	<node lat="61.825316669679225" lon="5.656877775115547" id="-34166">
		<tag k="name" v="Storehammaren" />
		<tag k="natural" v="hill" />
		<tag k="place" v="locality" />
		<tag k="ssr:stedsnr" v="293180" />
	</node>
	<node lat="61.83556944187316" lon="4.993805563197922" id="-34167">
		<tag k="alt_name" v="Førsholmen" />
		<tag k="fixme" v="consider seamark:type=rock or natural=shoal" />
		<tag k="name" v="Førdsholmen" />
		<tag k="place" v="islet" />
		<tag k="ssr:stedsnr" v="293312" />
	</node>
	<node lat="61.843244441794766" lon="5.339872222662671" id="-34168">
		<tag k="name" v="Litleskreda" />
		<tag k="natural" v="gorge" />
		<tag k="ssr:stedsnr" v="293413" />
	</node>
	<node lat="61.750730557774865" lon="4.817572213287908" id="-34169">
		<tag k="name" v="Likvika" />
		<tag k="natural" v="bay" />
		<tag k="ssr:stedsnr" v="293509" />
	</node>
	<node lat="61.78403888611145" lon="4.813011109311497" id="-34170">
		<tag k="name" v="Ytste Langenesvika" />
		<tag k="natural" v="bay" />
		<tag k="ssr:stedsnr" v="293524" />
	</node>
	<node lat="61.884255554171666" lon="5.2107638907323395" id="-34171">
		<tag k="name" v="Strandaneset" />
		<tag k="natural" v="cape" />
		<tag k="ssr:stedsnr" v="293576" />
	</node>
	<node lat="61.90096388481528" lon="5.471263894037349" id="-34172">
		<tag k="name" v="Maragjølet" />
		<tag k="ssr:stedsnr" v="293578" />
		<tag k="waterway" v="stream" />
	</node>
	<node lat="61.90573889015691" lon="5.52253888946427" id="-34173">
		<tag k="name" v="Grasneset" />
		<tag k="natural" v="cape" />
		<tag k="ssr:stedsnr" v="293582" />
	</node>
	<node lat="61.87434166863378" lon="5.161200001404914" id="-34174">
		<tag k="name" v="Inste Lågeidvika" />
		<tag k="natural" v="bay" />
		<tag k="ssr:stedsnr" v="293588" />
	</node>
	<node lat="61.86736666837689" lon="5.276066661139461" id="-34175">
		<tag k="name" v="Litleholmen" />
		<tag k="place" v="islet" />
		<tag k="ssr:stedsnr" v="293591" />
	</node>
	<node lat="61.8727805584187" lon="5.265399994325652" id="-34176">
		<tag k="name" v="Haukedalsvika" />
		<tag k="natural" v="bay" />
		<tag k="ssr:stedsnr" v="293592" />
	</node>
	<node lat="61.77264722261843" lon="4.850927784027429" id="-34177">
		<tag k="name" v="Nykkevatnet" />
		<tag k="natural" v="water" />
		<tag k="ssr:stedsnr" v="293423" />
	</node>
	<node lat="61.77638394068328" lon="4.895970162492072" id="-34178">
		<tag k="alt_name" v="Frøyen øvre" />
		<tag k="fixme" v="consider place=hamlet" />
		<tag k="name" v="Øvre Frøyen" />
		<tag k="place" v="farm" />
		<tag k="ssr:stedsnr" v="293424" />
	</node>
	<node lat="61.84512222314744" lon="5.093402779587577" id="-34179">
		<tag k="name" v="Stølshaugane" />
		<tag k="natural" v="hill" />
		<tag k="place" v="locality" />
		<tag k="ssr:stedsnr" v="293614" />
	</node>
	<node lat="61.84918611120117" lon="5.165197219117087" id="-34180">
		<tag k="name" v="Kvernevika" />
		<tag k="natural" v="bay" />
		<tag k="ssr:stedsnr" v="293624" />
	</node>
	<node lat="61.75847222052808" lon="5.13290000338566" id="-34181">
		<tag k="name" v="Grasvika" />
		<tag k="natural" v="bay" />
		<tag k="ssr:stedsnr" v="293828" />
	</node>
	<node lat="61.76423333159961" lon="5.122063884271703" id="-34182">
		<tag k="alt_name" v="Nesvika" />
		<tag k="name" v="Nesbøvika" />
		<tag k="natural" v="bay" />
		<tag k="ssr:stedsnr" v="293830" />
	</node>
	<node lat="61.74000833500848" lon="5.192688883499385" id="-34183">
		<tag k="name" v="Einebakken" />
		<tag k="natural" v="slope" />
		<tag k="place" v="locality" />
		<tag k="ssr:stedsnr" v="293879" />
	</node>
	<node lat="61.87848889130897" lon="5.577505561397189" id="-34184">
		<tag k="highway" v="path" />
		<tag k="name" v="Sørstigen" />
		<tag k="ssr:stedsnr" v="293886" />
	</node>
	<node lat="61.73446388707037" lon="5.141963891605667" id="-34185">
		<tag k="alt_name" v="Slenesvik" />
		<tag k="name" v="Slenesvika" />
		<tag k="natural" v="bay" />
		<tag k="ssr:stedsnr" v="293887" />
	</node>
	<node lat="61.74139444058183" lon="5.1236833287256935" id="-34186">
		<tag k="name" v="Austrevik" />
		<tag k="natural" v="bay" />
		<tag k="ssr:stedsnr" v="293890" />
	</node>
	<node lat="61.88552499790159" lon="5.573502784599405" id="-34187">
		<tag k="name" v="Lidahamrane" />
		<tag k="natural" v="hill" />
		<tag k="place" v="locality" />
		<tag k="ssr:stedsnr" v="293891" />
	</node>
	<node lat="61.734438886590326" lon="5.146316670599481" id="-34188">
		<tag k="name" v="Sleneset" />
		<tag k="natural" v="cape" />
		<tag k="ssr:stedsnr" v="293892" />
	</node>
	<node lat="61.71433889101497" lon="5.106650001058951" id="-34189">
		<tag k="name" v="Vageneset" />
		<tag k="natural" v="cape" />
		<tag k="ssr:stedsnr" v="293908" />
	</node>
	<node lat="61.72010277929817" lon="5.085213890370798" id="-34190">
		<tag k="name" v="Jutelskora" />
		<tag k="natural" v="hill" />
		<tag k="place" v="locality" />
		<tag k="ssr:stedsnr" v="293909" />
	</node>
	<node lat="61.723758330007485" lon="5.1583777869260246" id="-34191">
		<tag k="name" v="Geileneset" />
		<tag k="natural" v="cape" />
		<tag k="ssr:stedsnr" v="293910" />
	</node>
	<node lat="61.694186111430014" lon="5.096761107324158" id="-34192">
		<tag k="name" v="Tverrelva" />
		<tag k="ssr:stedsnr" v="293913" />
		<tag k="waterway" v="stream" />
	</node>
	<node lat="61.751594441649296" lon="5.045658327748049" id="-34193">
		<tag k="name" v="Loddehjellen" />
		<tag k="place" v="locality" />
		<tag k="ssr:stedsnr" v="293923" />
	</node>
	<node lat="61.748711112922315" lon="5.028508325543669" id="-34194">
		<tag k="name" v="Skudalselva" />
		<tag k="ssr:stedsnr" v="293931" />
		<tag k="waterway" v="stream" />
	</node>
	<node lat="61.79846666309502" lon="5.380880556924693" id="-34195">
		<tag k="name" v="Sørdalsholmen" />
		<tag k="place" v="islet" />
		<tag k="ssr:stedsnr" v="293992" />
	</node>
	<node lat="61.840088889752884" lon="5.255711102715509" id="-34196">
		<tag k="name" v="Hælkrona" />
		<tag k="natural" v="bay" />
		<tag k="ssr:stedsnr" v="295207" />
	</node>
	<node lat="61.76271666240227" lon="5.27322778287827" id="-34197">
		<tag k="name" v="Breivik" />
		<tag k="place" v="isolated_dwelling" />
		<tag k="ssr:stedsnr" v="295185" />
	</node>
	<node lat="61.83515833412839" lon="4.991924998676249" id="-34198">
		<tag k="name" v="Førdspollen" />
		<tag k="natural" v="bay" />
		<tag k="ssr:stedsnr" v="295800" />
	</node>
	<node lat="61.744444444862786" lon="5.148088894837113" id="-34199">
		<tag k="name" v="Kvieneset" />
		<tag k="natural" v="cape" />
		<tag k="ssr:stedsnr" v="295688" />
	</node>
	<node lat="61.828866664136754" lon="4.9619472175360775" id="-34200">
		<tag k="fixme" v="consider seamark:type=rock or natural=shoal" />
		<tag k="name" v="Løvikskjeret" />
		<tag k="place" v="islet" />
		<tag k="ssr:stedsnr" v="295803" />
	</node>
	<node lat="61.8828638898123" lon="5.200494447362494" id="-34201">
		<tag k="name" v="Klubbeneset" />
		<tag k="natural" v="cape" />
		<tag k="ssr:stedsnr" v="295824" />
	</node>
	<node lat="61.83497222566178" lon="5.28568888963268" id="-34202">
		<tag k="name" v="Marøyflua" />
		<tag k="natural" v="shoal" />
		<tag k="place" v="locality" />
		<tag k="ssr:stedsnr" v="296025" />
	</node>
	<node lat="61.87300833194252" lon="5.241863892043804" id="-34203">
		<tag k="name" v="Nygårdsneset" />
		<tag k="natural" v="cape" />
		<tag k="ssr:stedsnr" v="296873" />
	</node>
	<node lat="61.73487910070087" lon="4.984510696965601" id="-34204">
		<tag k="fixme" v="consider seamark:type=rock or natural=shoal" />
		<tag k="loc_name" v="Søre Fleda" />
		<tag k="name" v="Søreflua" />
		<tag k="place" v="islet" />
		<tag k="ssr:stedsnr" v="311507" />
	</node>
	<node lat="61.735327775297705" lon="4.765930546422324" id="-34205">
		<tag k="name" v="Raudskjerskukken" />
		<tag k="natural" v="shoal" />
		<tag k="place" v="locality" />
		<tag k="ssr:stedsnr" v="311521" />
	</node>
	<node lat="61.72359913613098" lon="5.149589525906178" id="-34206">
		<tag k="name" v="Store Mullia" />
		<tag k="place" v="farm" />
		<tag k="ssr:stedsnr" v="312802" />
	</node>
	<node lat="61.73057470866759" lon="5.215339519295478" id="-34207">
		<tag k="fixme" v="consider place=hamlet" />
		<tag k="name" v="Indrehus" />
		<tag k="place" v="farm" />
		<tag k="ssr:stedsnr" v="312805" />
	</node>
	<node lat="61.74151389308827" lon="5.340555553371138" id="-34208">
		<tag k="fixme" v="consider natural=peak for the most distinct mountains in the district" />
		<tag k="name" v="Egga" />
		<tag k="natural" v="hill" />
		<tag k="place" v="locality" />
		<tag k="ssr:stedsnr" v="312824" />
	</node>
	<node lat="61.80731666833651" lon="5.3153222289776405" id="-34209">
		<tag k="name" v="Dyreholtane" />
		<tag k="natural" v="hill" />
		<tag k="place" v="locality" />
		<tag k="ssr:stedsnr" v="313108" />
	</node>
	<node lat="61.85397777608244" lon="5.2060166703727795" id="-34210">
		<tag k="fixme" v="consider natural=peak for the most distinct mountains in the district" />
		<tag k="name" v="Svartevassegga" />
		<tag k="natural" v="hill" />
		<tag k="place" v="locality" />
		<tag k="ssr:stedsnr" v="313170" />
	</node>
	<node lat="61.84842777595174" lon="5.147791669908631" id="-34211">
		<tag k="name" v="Kleiva" />
		<tag k="place" v="locality" />
		<tag k="ssr:stedsnr" v="313172" />
	</node>
	<node lat="61.867844440852465" lon="5.45789443662104" id="-34212">
		<tag k="fixme" v="consider natural=peak for the most distinct mountains in the district" />
		<tag k="name" v="Litletroda" />
		<tag k="natural" v="hill" />
		<tag k="place" v="locality" />
		<tag k="ssr:stedsnr" v="313174" />
	</node>
	<node lat="61.7751444436459" lon="5.336252777855979" id="-34213">
		<tag k="name" v="Storeskredene" />
		<tag k="natural" v="slope" />
		<tag k="place" v="locality" />
		<tag k="ssr:stedsnr" v="313067" />
	</node>
	<node lat="61.900497217896834" lon="5.460477774215701" id="-34214">
		<tag k="historic" v="shieling" />
		<tag k="name" v="Endalsætrane" />
		<tag k="place" v="isolated_dwelling" />
		<tag k="ssr:stedsnr" v="313203" />
	</node>
	<node lat="61.82214444136705" lon="5.613747214435196" id="-34215">
		<tag k="fixme" v="consider natural=peak for the most distinct mountains in the district" />
		<tag k="name" v="Sigdestadnakken" />
		<tag k="natural" v="hill" />
		<tag k="place" v="locality" />
		<tag k="ssr:stedsnr" v="313314" />
	</node>
	<node lat="61.850037058785624" lon="5.771063101492671" id="-34216">
		<tag k="name" v="Holmane" />
		<tag k="place" v="islet" />
		<tag k="ssr:stedsnr" v="313370" />
	</node>
	<node lat="61.88214444854305" lon="5.697202783015988" id="-34217">
		<tag k="name" v="Ospene" />
		<tag k="natural" v="slope" />
		<tag k="place" v="locality" />
		<tag k="ssr:stedsnr" v="313385" />
	</node>
	<node lat="61.881647220348604" lon="5.489063884452476" id="-34218">
		<tag k="name" v="Kaldgrø" />
		<tag k="place" v="locality" />
		<tag k="ssr:stedsnr" v="313418" />
	</node>
	<node lat="61.89587777688502" lon="5.6233472136122575" id="-34219">
		<tag k="name" v="Høgeneset" />
		<tag k="natural" v="cape" />
		<tag k="ssr:stedsnr" v="313422" />
	</node>
	<node lat="61.84130833388845" lon="4.9652527847702075" id="-34220">
		<tag k="alt_name" v="Hauge, yt;Hauge" />
		<tag k="name" v="Ytre Hauge" />
		<tag k="place" v="village" />
		<tag k="ssr:stedsnr" v="313928" />
	</node>
	<node lat="61.813725886814666" lon="4.964680415451255" id="-34221">
		<tag k="fixme" v="consider place=hamlet" />
		<tag k="name" v="Ryland" />
		<tag k="place" v="farm" />
		<tag k="ssr:stedsnr" v="313935" />
	</node>
	<node lat="61.82129722557513" lon="4.992308342143203" id="-34222">
		<tag k="alt_name" v="Byrekinna" />
		<tag k="name" v="Børekinna" />
		<tag k="natural" v="hill" />
		<tag k="place" v="locality" />
		<tag k="ssr:stedsnr" v="313938" />
	</node>
	<node lat="61.77343055701951" lon="5.314847213101213" id="-34223">
		<tag k="bridge" v="yes" />
		<tag k="layer" v="1" />
		<tag k="name" v="Storefossvann" />
		<tag k="ssr:stedsnr" v="472631" />
	</node>
	<node lat="61.84088055338689" lon="4.970261117715987" id="-34224">
		<tag k="bridge" v="yes" />
		<tag k="layer" v="1" />
		<tag k="name" v="Haugselva" />
		<tag k="ssr:stedsnr" v="350621" />
	</node>
	<node lat="61.85889999865327" lon="5.035272225262089" id="-34225">
		<tag k="bridge" v="yes" />
		<tag k="layer" v="1" />
		<tag k="name" v="Klungreset" />
		<tag k="ssr:stedsnr" v="350622" />
	</node>
	<node lat="61.7943694478432" lon="4.855311104481243" id="-34226">
		<tag k="name" v="Kjellneshaugane" />
		<tag k="natural" v="hill" />
		<tag k="place" v="locality" />
		<tag k="ssr:stedsnr" v="474038" />
	</node>
	<node lat="61.79668610809737" lon="4.864927775205578" id="-34227">
		<tag k="name" v="Kvernhuselva" />
		<tag k="ssr:stedsnr" v="474040" />
		<tag k="waterway" v="stream" />
	</node>
	<node lat="61.724033330565426" lon="5.205802769397755" id="-34228">
		<tag k="alt_name" v="Myklebust-Langenes" />
		<tag k="name" v="Langeneset" />
		<tag k="natural" v="cape" />
		<tag k="ssr:stedsnr" v="494791" />
	</node>
	<node lat="61.88313888823183" lon="5.049922224444247" id="-34229">
		<tag k="fixme" v="consider natural=peak for the most distinct mountains in the district" />
		<tag k="name" v="Steinbruegga" />
		<tag k="natural" v="hill" />
		<tag k="place" v="locality" />
		<tag k="ssr:stedsnr" v="474273" />
	</node>
	<node lat="61.856405557896466" lon="5.023233327499499" id="-34230">
		<tag k="name" v="Storholmen" />
		<tag k="place" v="islet" />
		<tag k="ssr:stedsnr" v="474291" />
	</node>
	<node lat="61.85938610900454" lon="4.9927916707238795" id="-34231">
		<tag k="name" v="Bjørnastigen" />
		<tag k="natural" v="slope" />
		<tag k="place" v="locality" />
		<tag k="ssr:stedsnr" v="474295" />
	</node>
	<node lat="61.82952500064194" lon="5.506166659919674" id="-34232">
		<tag k="name" v="Kråkelund" />
		<tag k="natural" v="wetland" />
		<tag k="ssr:stedsnr" v="474311" />
	</node>
	<node lat="61.830619446882906" lon="5.511383328382145" id="-34233">
		<tag k="name" v="Dyrholgrova" />
		<tag k="ssr:stedsnr" v="474313" />
		<tag k="waterway" v="stream" />
	</node>
	<node lat="61.83165277752205" lon="5.458847218868941" id="-34234">
		<tag k="name" v="Svartevasselva" />
		<tag k="ssr:stedsnr" v="474320" />
		<tag k="waterway" v="stream" />
	</node>
	<node lat="61.82255277730658" lon="5.4648111033341324" id="-34235">
		<tag k="name" v="Bjørkeholløken" />
		<tag k="place" v="locality" />
		<tag k="ssr:stedsnr" v="474323" />
	</node>
	<node lat="61.83289444889647" lon="5.5668083314364045" id="-34236">
		<tag k="name" v="Vaulegrobakken" />
		<tag k="place" v="locality" />
		<tag k="ssr:stedsnr" v="353209" />
	</node>
	<node lat="61.81453611189576" lon="5.607486101901941" id="-34237">
		<tag k="name" v="Halvfaret" />
		<tag k="place" v="locality" />
		<tag k="ssr:stedsnr" v="353202" />
	</node>
	<node lat="61.82321389129959" lon="5.656155547878955" id="-34238">
		<tag k="name" v="Timbrevika" />
		<tag k="natural" v="bay" />
		<tag k="ssr:stedsnr" v="353170" />
	</node>
	<node lat="61.82440555784798" lon="5.661500002108951" id="-34239">
		<tag k="name" v="Mortekråna" />
		<tag k="natural" v="bay" />
		<tag k="ssr:stedsnr" v="353171" />
	</node>
	<node lat="61.78134166811871" lon="4.825249991305601" id="-34240">
		<tag k="name" v="Rasmusberget" />
		<tag k="natural" v="cape" />
		<tag k="ssr:stedsnr" v="353508" />
	</node>
	<node lat="61.78331944452063" lon="4.809949991234939" id="-34241">
		<tag k="name" v="Langenesholmen" />
		<tag k="place" v="islet" />
		<tag k="ssr:stedsnr" v="353512" />
	</node>
	<node lat="61.833083332850684" lon="5.212969447061793" id="-34242">
		<tag k="name" v="Simåvikneset" />
		<tag k="natural" v="cape" />
		<tag k="ssr:stedsnr" v="353557" />
	</node>
	<node lat="61.85657221999682" lon="5.254172218497437" id="-34243">
		<tag k="name" v="Ormelia" />
		<tag k="natural" v="valley" />
		<tag k="place" v="locality" />
		<tag k="ssr:stedsnr" v="353561" />
	</node>
	<node lat="61.80911944371309" lon="5.246702776328796" id="-34244">
		<tag k="name" v="Lemholten" />
		<tag k="natural" v="hill" />
		<tag k="place" v="locality" />
		<tag k="ssr:stedsnr" v="353568" />
	</node>
	<node lat="61.816708330723436" lon="5.309452778347248" id="-34245">
		<tag k="name" v="Tredjesynet" />
		<tag k="place" v="locality" />
		<tag k="ssr:stedsnr" v="353569" />
	</node>
	<node lat="61.78935277508093" lon="4.810124993433981" id="-34246">
		<tag k="name" v="Skorsteinelva" />
		<tag k="ssr:stedsnr" v="474469" />
		<tag k="waterway" v="stream" />
	</node>
	<node lat="61.75024166593879" lon="4.840991660075341" id="-34247">
		<tag k="name" v="Geitholmane" />
		<tag k="place" v="islet" />
		<tag k="ssr:stedsnr" v="353403" />
	</node>
	<node lat="61.75257500217781" lon="4.841072218256609" id="-34248">
		<tag k="name" v="Espeholmane" />
		<tag k="place" v="islet" />
		<tag k="ssr:stedsnr" v="353404" />
	</node>
	<node lat="61.764230558631375" lon="4.845897215353305" id="-34249">
		<tag k="name" v="Langevågen" />
		<tag k="natural" v="bay" />
		<tag k="ssr:stedsnr" v="353410" />
	</node>
	<node lat="61.78424721945253" lon="4.98234721318701" id="-34250">
		<tag k="fixme" v="consider natural=peak for the most distinct mountains in the district" />
		<tag k="name" v="Bukkefjellet" />
		<tag k="natural" v="hill" />
		<tag k="place" v="locality" />
		<tag k="ssr:stedsnr" v="353421" />
	</node>
	<node lat="61.775749999234236" lon="4.949827786504712" id="-34251">
		<tag k="name" v="Marlaukøyna" />
		<tag k="place" v="island" />
		<tag k="ssr:stedsnr" v="353452" />
	</node>
	<node lat="61.775508333108675" lon="4.9322527795340125" id="-34252">
		<tag k="fixme" v="consider natural=peak for the most distinct mountains in the district" />
		<tag k="name" v="Litlefløyna" />
		<tag k="natural" v="hill" />
		<tag k="place" v="locality" />
		<tag k="ssr:stedsnr" v="353454" />
	</node>
	<node lat="61.787961115277476" lon="4.801213883992107" id="-34253">
		<tag k="name" v="Ytste Mulevika" />
		<tag k="natural" v="bay" />
		<tag k="ssr:stedsnr" v="353471" />
	</node>
	<node lat="61.87375000244792" lon="5.3637361158042784" id="-34254">
		<tag k="name" v="Plassen" />
		<tag k="place" v="locality" />
		<tag k="ssr:stedsnr" v="474455" />
	</node>
	<node lat="61.81506388518538" lon="5.245561116688729" id="-34255">
		<tag k="name" v="Løypingnakken" />
		<tag k="natural" v="hill" />
		<tag k="place" v="locality" />
		<tag k="ssr:stedsnr" v="474526" />
	</node>
	<node lat="61.87286667120592" lon="5.261558338714995" id="-34256">
		<tag k="name" v="Kleivaneset" />
		<tag k="natural" v="cape" />
		<tag k="ssr:stedsnr" v="353601" />
	</node>
	<node lat="61.853611110214324" lon="5.7603916757367" id="-34257">
		<tag k="name" v="Store Gangeskora" />
		<tag k="place" v="locality" />
		<tag k="ssr:stedsnr" v="353752" />
	</node>
	<node lat="61.84831110888611" lon="5.744808330832753" id="-34258">
		<tag k="name" v="Tjuvebåsen" />
		<tag k="natural" v="bay" />
		<tag k="ssr:stedsnr" v="353756" />
	</node>
	<node lat="61.8455250016509" lon="5.736036106903666" id="-34259">
		<tag k="name" v="Korsvika" />
		<tag k="natural" v="bay" />
		<tag k="ssr:stedsnr" v="353758" />
	</node>
	<node lat="61.84329166916619" lon="5.8223638856371345" id="-34260">
		<tag k="name" v="Vikastranda" />
		<tag k="natural" v="beach" />
		<tag k="ssr:stedsnr" v="353759" />
	</node>
	<node lat="61.83994166326489" lon="5.760041663542945" id="-34261">
		<tag k="name" v="Askevikteigen" />
		<tag k="place" v="locality" />
		<tag k="ssr:stedsnr" v="353762" />
	</node>
	<node lat="61.77742777938118" lon="5.259283336518043" id="-34262">
		<tag k="name" v="Ryggjaneset" />
		<tag k="natural" v="cape" />
		<tag k="ssr:stedsnr" v="353764" />
	</node>
	<node lat="61.78507221977358" lon="5.203744437967454" id="-34263">
		<tag k="name" v="Dyrstaddalen" />
		<tag k="natural" v="valley" />
		<tag k="place" v="locality" />
		<tag k="ssr:stedsnr" v="353766" />
	</node>
	<node lat="61.892227778068765" lon="5.611619443314811" id="-34264">
		<tag k="name" v="Høgenesrinden" />
		<tag k="natural" v="ridge" />
		<tag k="place" v="locality" />
		<tag k="ssr:stedsnr" v="353801" />
	</node>
	<node lat="61.75315555342628" lon="5.343308333965796" id="-34265">
		<tag k="name" v="Tåene" />
		<tag k="place" v="isolated_dwelling" />
		<tag k="ssr:stedsnr" v="353902" />
	</node>
	<node lat="61.74078611107755" lon="5.356177781627931" id="-34266">
		<tag k="name" v="Handklefossen" />
		<tag k="natural" v="waterfall" />
		<tag k="ssr:stedsnr" v="353903" />
	</node>
	<node lat="61.746788892403735" lon="5.34922778451309" id="-34267">
		<tag k="name" v="Søre Vassbotnen" />
		<tag k="natural" v="valley" />
		<tag k="place" v="locality" />
		<tag k="ssr:stedsnr" v="353904" />
	</node>
	<node lat="61.73207222634016" lon="5.117230551734885" id="-34268">
		<tag k="name" v="Kastevikberget" />
		<tag k="natural" v="beach" />
		<tag k="ssr:stedsnr" v="353868" />
	</node>
	<node lat="61.75433332904397" lon="4.826024991946176" id="-34269">
		<tag k="name" v="Sandsundet" />
		<tag k="natural" v="strait" />
		<tag k="ssr:stedsnr" v="474496" />
	</node>
	<node lat="61.84652222015711" lon="4.861058336259042" id="-34270">
		<tag k="name" v="Lending" />
		<tag k="natural" v="beach" />
		<tag k="ssr:stedsnr" v="354003" />
	</node>
	<node lat="61.84236666458461" lon="4.895438889036172" id="-34271">
		<tag k="name" v="Storholmen" />
		<tag k="place" v="islet" />
		<tag k="ssr:stedsnr" v="354006" />
	</node>
	<node lat="61.82621388510801" lon="5.092133342988989" id="-34272">
		<tag k="name" v="Høgehaugen" />
		<tag k="natural" v="hill" />
		<tag k="place" v="locality" />
		<tag k="ssr:stedsnr" v="474616" />
	</node>
	<node lat="61.81926666437278" lon="5.103508324784254" id="-34273">
		<tag k="name" v="Tussevika" />
		<tag k="natural" v="bay" />
		<tag k="ssr:stedsnr" v="474619" />
	</node>
	<node lat="61.90321388735665" lon="5.404963883640873" id="-34274">
		<tag k="name" v="Nybruhaugane" />
		<tag k="natural" v="hill" />
		<tag k="place" v="locality" />
		<tag k="ssr:stedsnr" v="474620" />
	</node>
	<node lat="61.908936114270325" lon="5.413958336082744" id="-34275">
		<tag k="historic" v="shieling" />
		<tag k="name" v="Litlesetra" />
		<tag k="place" v="locality" />
		<tag k="ssr:stedsnr" v="474621" />
	</node>
	<node lat="61.906461110702814" lon="5.4243027720895425" id="-34276">
		<tag k="name" v="Vassliberget" />
		<tag k="natural" v="hill" />
		<tag k="place" v="locality" />
		<tag k="ssr:stedsnr" v="474622" />
	</node>
	<node lat="61.8838509869372" lon="5.331703608329573" id="-34277">
		<tag k="fixme" v="consider place=hamlet" />
		<tag k="name" v="Storøyna" />
		<tag k="place" v="farm" />
		<tag k="ssr:stedsnr" v="474632" />
	</node>
	<node lat="61.85712777696411" lon="5.156819439059113" id="-34278">
		<tag k="name" v="Buvika" />
		<tag k="natural" v="bay" />
		<tag k="ssr:stedsnr" v="474635" />
	</node>
	<node lat="61.885855552875924" lon="5.23771943891278" id="-34279">
		<tag k="name" v="Revura" />
		<tag k="natural" v="scree" />
		<tag k="ssr:stedsnr" v="474582" />
	</node>
	<node lat="61.872572219914744" lon="5.194816666446647" id="-34280">
		<tag k="name" v="Saltkjervika" />
		<tag k="natural" v="bay" />
		<tag k="ssr:stedsnr" v="474590" />
	</node>
	<node lat="61.89637500191249" lon="5.4086666608093115" id="-34281">
		<tag k="name" v="Svardalen" />
		<tag k="natural" v="valley" />
		<tag k="place" v="locality" />
		<tag k="ssr:stedsnr" v="474597" />
	</node>
	<node lat="61.89568611488658" lon="5.436547225573373" id="-34282">
		<tag k="name" v="Meisapynten" />
		<tag k="natural" v="hill" />
		<tag k="place" v="locality" />
		<tag k="ssr:stedsnr" v="474601" />
	</node>
	<node lat="61.77051111377303" lon="5.299736104084387" id="-34283">
		<tag k="name" v="Nedste Kupa" />
		<tag k="place" v="locality" />
		<tag k="ssr:stedsnr" v="354776" />
	</node>
	<node lat="61.72412500439933" lon="5.229580563730359" id="-34284">
		<tag k="name" v="Budalen" />
		<tag k="natural" v="valley" />
		<tag k="place" v="locality" />
		<tag k="ssr:stedsnr" v="474873" />
	</node>
	<node lat="61.72299444138822" lon="5.2086722279195286" id="-34285">
		<tag k="name" v="Rotanes" />
		<tag k="natural" v="cape" />
		<tag k="ssr:stedsnr" v="474878" />
	</node>
	<node lat="61.72343888808156" lon="5.219669448895822" id="-34286">
		<tag k="name" v="Dyrhamrane" />
		<tag k="natural" v="hill" />
		<tag k="place" v="locality" />
		<tag k="ssr:stedsnr" v="474880" />
	</node>
	<node lat="61.74077222583703" lon="5.23269444337269" id="-34287">
		<tag k="name" v="Åsehjellen" />
		<tag k="place" v="locality" />
		<tag k="ssr:stedsnr" v="474881" />
	</node>
	<node lat="61.72867222600433" lon="5.224636116333862" id="-34288">
		<tag k="name" v="Eikebakkane" />
		<tag k="natural" v="slope" />
		<tag k="place" v="locality" />
		<tag k="ssr:stedsnr" v="474886" />
	</node>
	<node lat="61.73243610983965" lon="5.206238882062283" id="-34289">
		<tag k="name" v="Otersteinane" />
		<tag k="natural" v="stone" />
		<tag k="ssr:stedsnr" v="474887" />
	</node>
	<node lat="61.72890277795683" lon="5.228658336785962" id="-34290">
		<tag k="name" v="Fossemarka" />
		<tag k="place" v="locality" />
		<tag k="ssr:stedsnr" v="474892" />
	</node>
	<node lat="61.75828055730282" lon="5.220694449844732" id="-34291">
		<tag k="name" v="Kruna" />
		<tag k="natural" v="hill" />
		<tag k="place" v="locality" />
		<tag k="ssr:stedsnr" v="474784" />
	</node>
	<node lat="61.78169722012025" lon="5.192222228490635" id="-34292">
		<tag k="name" v="Indre Stølsvatnet" />
		<tag k="natural" v="water" />
		<tag k="ssr:stedsnr" v="474794" />
	</node>
	<node lat="61.78339999955465" lon="5.152980562313602" id="-34293">
		<tag k="name" v="Glorhaugen" />
		<tag k="natural" v="hill" />
		<tag k="place" v="locality" />
		<tag k="ssr:stedsnr" v="474804" />
	</node>
	<node lat="61.776636107973296" lon="5.122258328789924" id="-34294">
		<tag k="name" v="Fagrehaugen" />
		<tag k="natural" v="hill" />
		<tag k="place" v="locality" />
		<tag k="ssr:stedsnr" v="474807" />
	</node>
	<node lat="61.71716111197957" lon="5.019211113814841" id="-34295">
		<tag k="name" v="Norddalselva" />
		<tag k="ssr:stedsnr" v="474966" />
		<tag k="waterway" v="stream" />
	</node>
	<node lat="61.78292499687991" lon="5.113808339764031" id="-34296">
		<tag k="name" v="Ovendeelva" />
		<tag k="ssr:stedsnr" v="356107" />
		<tag k="waterway" v="river" />
	</node>
	<node lat="61.69828333738831" lon="5.038916669859495" id="-34297">
		<tag k="name" v="Nordre Sløkjene" />
		<tag k="natural" v="valley" />
		<tag k="place" v="locality" />
		<tag k="ssr:stedsnr" v="474994" />
	</node>
	<node lat="61.71213610667848" lon="5.048063882525385" id="-34298">
		<tag k="name" v="Skansen" />
		<tag k="natural" v="cliff" />
		<tag k="ssr:stedsnr" v="475000" />
	</node>
	<node lat="61.849805551755196" lon="4.880552786503321" id="-34299">
		<tag k="name" v="Keilebakkene" />
		<tag k="natural" v="slope" />
		<tag k="place" v="locality" />
		<tag k="ssr:stedsnr" v="475001" />
	</node>
	<node lat="61.759441666791076" lon="5.281069443381246" id="-34300">
		<tag k="name" v="Øvsteskora" />
		<tag k="natural" v="cliff" />
		<tag k="ssr:stedsnr" v="475023" />
	</node>
	<node lat="61.80696944523548" lon="4.95629166620492" id="-34301">
		<tag k="name" v="Rabben" />
		<tag k="place" v="locality" />
		<tag k="ssr:stedsnr" v="475025" />
	</node>
	<node lat="61.73739721945953" lon="4.999344445470354" id="-34302">
		<tag k="name" v="Svartelyngen" />
		<tag k="natural" v="valley" />
		<tag k="place" v="locality" />
		<tag k="ssr:stedsnr" v="474937" />
	</node>
	<node lat="61.79266944630212" lon="5.023786102980707" id="-34303">
		<tag k="name" v="Holmevika" />
		<tag k="natural" v="bay" />
		<tag k="ssr:stedsnr" v="356558" />
	</node>
	<node lat="61.788119447529375" lon="4.954886107140571" id="-34304">
		<tag k="name" v="Otreneset" />
		<tag k="natural" v="cape" />
		<tag k="ssr:stedsnr" v="356560" />
	</node>
	<node lat="61.84250833390914" lon="4.9508999969181104" id="-34305">
		<tag k="fixme" v="consider natural=peak for the most distinct mountains in the district" />
		<tag k="name" v="Hornet" />
		<tag k="natural" v="hill" />
		<tag k="place" v="locality" />
		<tag k="ssr:stedsnr" v="475033" />
	</node>
	<node lat="61.72904166874475" lon="4.80585832796619" id="-34306">
		<tag k="fixme" v="consider seamark:type=rock or natural=shoal" />
		<tag k="name" v="Baren" />
		<tag k="place" v="islet" />
		<tag k="ssr:stedsnr" v="357454" />
	</node>
	<node lat="61.73660000266722" lon="4.799330562954274" id="-34307">
		<tag k="fixme" v="consider seamark:type=rock or natural=shoal" />
		<tag k="name" v="Litle Raudskjeret" />
		<tag k="place" v="islet" />
		<tag k="ssr:stedsnr" v="357459" />
	</node>
	<node lat="61.85031944889272" lon="5.034950003682437" id="-34308">
		<tag k="name" v="Berledråpa" />
		<tag k="natural" v="slope" />
		<tag k="place" v="locality" />
		<tag k="ssr:stedsnr" v="475274" />
	</node>
	<node lat="61.842188891307174" lon="5.0494222276383365" id="-34309">
		<tag k="name" v="Bjørnsvehaugane" />
		<tag k="natural" v="hill" />
		<tag k="place" v="locality" />
		<tag k="ssr:stedsnr" v="475285" />
	</node>
	<node lat="61.84684166263731" lon="5.447802769603199" id="-34310">
		<tag k="name" v="Teigenakken" />
		<tag k="natural" v="hill" />
		<tag k="place" v="locality" />
		<tag k="ssr:stedsnr" v="475353" />
	</node>
	<node lat="61.85198888998487" lon="5.341016667819799" id="-34311">
		<tag k="name" v="Melkeneset" />
		<tag k="natural" v="cape" />
		<tag k="ssr:stedsnr" v="475385" />
	</node>
	<node lat="61.82397777972047" lon="4.961052782523408" id="-34312">
		<tag k="name" v="Storehaugen" />
		<tag k="natural" v="hill" />
		<tag k="place" v="locality" />
		<tag k="ssr:stedsnr" v="475390" />
	</node>
	<node lat="61.85432500088208" lon="5.360925003415953" id="-34313">
		<tag k="name" v="Årlåkvatnet" />
		<tag k="natural" v="water" />
		<tag k="ssr:stedsnr" v="475400" />
	</node>
	<node lat="61.780977777599205" lon="4.889508330587631" id="-34314">
		<tag k="name" v="Lyngbakkane" />
		<tag k="natural" v="slope" />
		<tag k="place" v="locality" />
		<tag k="ssr:stedsnr" v="475435" />
	</node>
	<node lat="61.772744443188614" lon="4.908405554502908" id="-34315">
		<tag k="name" v="Litle Sundsøyna" />
		<tag k="place" v="islet" />
		<tag k="ssr:stedsnr" v="475439" />
	</node>
	<node lat="61.87682222008978" lon="5.204411104587982" id="-34316">
		<tag k="alt_name" v="Mjåholmane" />
		<tag k="name" v="Mjåholmen" />
		<tag k="natural" v="cape" />
		<tag k="ssr:stedsnr" v="475577" />
	</node>
	<node lat="61.900044447946335" lon="5.49367777152983" id="-34317">
		<tag k="name" v="Storemyra" />
		<tag k="natural" v="wetland" />
		<tag k="ssr:stedsnr" v="475579" />
	</node>
	<node lat="61.887749996533884" lon="5.279580549807391" id="-34318">
		<tag k="name" v="Plassen" />
		<tag k="place" v="farm" />
		<tag k="ssr:stedsnr" v="475584" />
	</node>
	<node lat="61.88711944740439" lon="5.467580552197263" id="-34319">
		<tag k="name" v="Stabrekkselva" />
		<tag k="ssr:stedsnr" v="475597" />
		<tag k="waterway" v="stream" />
	</node>
	<node lat="61.88643055969474" lon="5.482766661423991" id="-34320">
		<tag k="name" v="Stokkane" />
		<tag k="natural" v="hill" />
		<tag k="place" v="locality" />
		<tag k="ssr:stedsnr" v="475599" />
	</node>
	<node lat="61.84016666507891" lon="5.1989138909869625" id="-34321">
		<tag k="name" v="Storlibotnen" />
		<tag k="natural" v="valley" />
		<tag k="place" v="locality" />
		<tag k="ssr:stedsnr" v="475624" />
	</node>
	<node lat="61.86466944270419" lon="5.094688885133216" id="-34322">
		<tag k="fixme" v="consider natural=peak for the most distinct mountains in the district" />
		<tag k="name" v="Skatenipa" />
		<tag k="natural" v="hill" />
		<tag k="place" v="locality" />
		<tag k="ssr:stedsnr" v="475641" />
	</node>
	<node lat="61.86524166416847" lon="5.079413893590147" id="-34323">
		<tag k="name" v="Dikene" />
		<tag k="natural" v="wetland" />
		<tag k="ssr:stedsnr" v="475642" />
	</node>
	<node lat="61.85847500188603" lon="5.136336114123293" id="-34324">
		<tag k="name" v="Galdssletta" />
		<tag k="place" v="locality" />
		<tag k="ssr:stedsnr" v="475652" />
	</node>
	<node lat="61.84058333660877" lon="5.118149997502086" id="-34325">
		<tag k="fixme" v="consider natural=peak for the most distinct mountains in the district" />
		<tag k="name" v="Blåfjellet" />
		<tag k="natural" v="hill" />
		<tag k="place" v="locality" />
		<tag k="ssr:stedsnr" v="475657" />
	</node>
	<node lat="61.76535555377067" lon="5.307022230819742" id="-34326">
		<tag k="name" v="Løypene" />
		<tag k="natural" v="slope" />
		<tag k="place" v="locality" />
		<tag k="ssr:stedsnr" v="475742" />
	</node>
	<node lat="61.782669442351846" lon="5.2882000003699074" id="-34327">
		<tag k="name" v="Fossegga" />
		<tag k="natural" v="hill" />
		<tag k="place" v="locality" />
		<tag k="ssr:stedsnr" v="475761" />
	</node>
	<node lat="61.84161110747825" lon="5.82630834127656" id="-34328">
		<tag k="name" v="Storehilla" />
		<tag k="place" v="locality" />
		<tag k="ssr:stedsnr" v="475762" />
	</node>
	<node lat="61.77427222580728" lon="5.290227771949252" id="-34329">
		<tag k="name" v="Kreken" />
		<tag k="natural" v="beach" />
		<tag k="ssr:stedsnr" v="475765" />
	</node>
	<node lat="61.83779722090191" lon="5.776775007862953" id="-34330">
		<tag k="name" v="Kjølen" />
		<tag k="natural" v="hill" />
		<tag k="place" v="locality" />
		<tag k="ssr:stedsnr" v="475766" />
	</node>
	<node lat="61.772330554459856" lon="5.286013892808761" id="-34331">
		<tag k="name" v="Sandsneset" />
		<tag k="natural" v="cape" />
		<tag k="ssr:stedsnr" v="475767" />
	</node>
	<node lat="61.843911110705214" lon="5.789630559761399" id="-34332">
		<tag k="name" v="Klubben" />
		<tag k="natural" v="hill" />
		<tag k="place" v="locality" />
		<tag k="ssr:stedsnr" v="475769" />
	</node>
	<node lat="61.781463886901804" lon="5.248338890860242" id="-34333">
		<tag k="name" v="Lindelielva" />
		<tag k="ssr:stedsnr" v="475777" />
		<tag k="waterway" v="stream" />
	</node>
	<node lat="61.76752500307068" lon="5.252530552418974" id="-34334">
		<tag k="name" v="Småholmane" />
		<tag k="place" v="islet" />
		<tag k="ssr:stedsnr" v="475787" />
	</node>
	<node lat="61.878705553205734" lon="5.707013896530068" id="-34335">
		<tag k="name" v="Myra" />
		<tag k="natural" v="wetland" />
		<tag k="ssr:stedsnr" v="475794" />
	</node>
	<node lat="61.87646944599476" lon="5.692466664796522" id="-34336">
		<tag k="name" v="Tatelelva" />
		<tag k="ssr:stedsnr" v="475801" />
		<tag k="waterway" v="stream" />
	</node>
	<node lat="61.87107777897181" lon="5.725530554092764" id="-34337">
		<tag k="name" v="Gråten" />
		<tag k="natural" v="beach" />
		<tag k="ssr:stedsnr" v="475803" />
	</node>
	<node lat="61.737036107359735" lon="5.179752769944009" id="-34338">
		<tag k="name" v="Fagreviknes" />
		<tag k="natural" v="cape" />
		<tag k="ssr:stedsnr" v="475868" />
	</node>
	<node lat="61.782294448151426" lon="5.296547221894114" id="-34339">
		<tag k="name" v="Bjørnestegen" />
		<tag k="natural" v="slope" />
		<tag k="place" v="locality" />
		<tag k="ssr:stedsnr" v="475756" />
	</node>
	<node lat="61.73145833049286" lon="5.078122223644781" id="-34340">
		<tag k="name" v="Mørkedalsvatn" />
		<tag k="natural" v="water" />
		<tag k="ssr:stedsnr" v="475960" />
	</node>
	<node lat="61.79534167124549" lon="5.338180563416525" id="-34341">
		<tag k="name" v="Alhaugvatnet" />
		<tag k="natural" v="water" />
		<tag k="ssr:stedsnr" v="475985" />
	</node>
	<node lat="61.71445555610108" lon="5.197750007084829" id="-34342">
		<tag k="name" v="Middagsgrova" />
		<tag k="natural" v="valley" />
		<tag k="place" v="locality" />
		<tag k="ssr:stedsnr" v="475923" />
	</node>
	<node lat="61.69232499666182" lon="5.243505557822406" id="-34343">
		<tag k="name" v="Kupeelva" />
		<tag k="ssr:stedsnr" v="475927" />
		<tag k="waterway" v="stream" />
	</node>
	<node lat="61.713063886451295" lon="5.236097229993366" id="-34344">
		<tag k="name" v="Litleteigneset" />
		<tag k="natural" v="cape" />
		<tag k="ssr:stedsnr" v="475930" />
	</node>
	<node lat="61.753250001709475" lon="5.029472218585411" id="-34345">
		<tag k="name" v="Langemyra" />
		<tag k="natural" v="wetland" />
		<tag k="ssr:stedsnr" v="475939" />
	</node>
	<node lat="61.82338610856233" lon="5.0701527859064806" id="-34346">
		<tag k="name" v="Myrane" />
		<tag k="natural" v="wetland" />
		<tag k="ssr:stedsnr" v="476350" />
	</node>
	<node lat="61.810127778948164" lon="5.173705555928622" id="-34347">
		<tag k="name" v="Ytste Bårdvika" />
		<tag k="natural" v="bay" />
		<tag k="ssr:stedsnr" v="477090" />
	</node>
	<node lat="61.89301944795966" lon="5.256188891381594" id="-34348">
		<tag k="name" v="Etreskallen" />
		<tag k="natural" v="shoal" />
		<tag k="place" v="locality" />
		<tag k="ssr:stedsnr" v="477826" />
	</node>
	<node lat="61.819069442509786" lon="4.936702778108017" id="-34349">
		<tag k="name" v="Baket" />
		<tag k="natural" v="cape" />
		<tag k="ssr:stedsnr" v="477827" />
	</node>
	<node lat="61.893991666794555" lon="5.3110638930381375" id="-34350">
		<tag k="name" v="Kråkevågflua" />
		<tag k="natural" v="shoal" />
		<tag k="place" v="locality" />
		<tag k="ssr:stedsnr" v="477828" />
	</node>
	<node lat="61.815966667181506" lon="4.9418277812699385" id="-34351">
		<tag k="name" v="Klubbetaren" />
		<tag k="natural" v="shoal" />
		<tag k="place" v="locality" />
		<tag k="ssr:stedsnr" v="477834" />
	</node>
	<node lat="61.76049166329541" lon="5.044372230016859" id="-34352">
		<tag k="name" v="Sælebotstaren" />
		<tag k="natural" v="shoal" />
		<tag k="place" v="locality" />
		<tag k="ssr:stedsnr" v="477845" />
	</node>
	<node lat="61.7784611106728" lon="4.9566666602459" id="-34353">
		<tag k="name" v="Brendeholmen" />
		<tag k="place" v="islet" />
		<tag k="ssr:stedsnr" v="477579" />
	</node>
	<node lat="61.764275001360474" lon="4.930511116930456" id="-34354">
		<tag k="name" v="Fuglesundet" />
		<tag k="natural" v="strait" />
		<tag k="ssr:stedsnr" v="477589" />
	</node>
	<node lat="61.824544441479695" lon="4.945463883028221" id="-34355">
		<tag k="name" v="Kinnambaren" />
		<tag k="natural" v="shoal" />
		<tag k="place" v="locality" />
		<tag k="ssr:stedsnr" v="477794" />
	</node>
	<node lat="61.82594166462795" lon="5.155197228018677" id="-34356">
		<tag k="name" v="Ytre Flua" />
		<tag k="natural" v="shoal" />
		<tag k="place" v="locality" />
		<tag k="ssr:stedsnr" v="478406" />
	</node>
	<node lat="61.809819440770895" lon="5.081602774979947" id="-34357">
		<tag k="name" v="Skarsteinsfluene" />
		<tag k="natural" v="shoal" />
		<tag k="place" v="locality" />
		<tag k="ssr:stedsnr" v="478450" />
	</node>
	<node lat="61.79650000060942" lon="4.7927944379661325" id="-34358">
		<tag k="fixme" v="consider seamark:type=rock or natural=shoal" />
		<tag k="name" v="Englane" />
		<tag k="place" v="islet" />
		<tag k="ssr:stedsnr" v="478889" />
	</node>
	<node lat="61.86751111497497" lon="5.270991660162313" id="-34359">
		<tag k="name" v="Haukedalsholmane" />
		<tag k="place" v="islet" />
		<tag k="ssr:stedsnr" v="478891" />
	</node>
	<node lat="61.80894166972348" lon="4.736324991560027" id="-34360">
		<tag k="name" v="Grunnska" />
		<tag k="natural" v="shoal" />
		<tag k="place" v="locality" />
		<tag k="ssr:stedsnr" v="478897" />
	</node>
	<node lat="61.82313610748917" lon="4.744619438327376" id="-34361">
		<tag k="name" v="Vestre Håskallen" />
		<tag k="natural" v="shoal" />
		<tag k="place" v="locality" />
		<tag k="ssr:stedsnr" v="478898" />
	</node>
	<node lat="61.73603333151774" lon="4.8093416708742325" id="-34362">
		<tag k="fixme" v="consider seamark:type=rock or natural=shoal" />
		<tag k="name" v="Sponga" />
		<tag k="place" v="islet" />
		<tag k="ssr:stedsnr" v="372504" />
	</node>
	<node lat="61.742583329604265" lon="4.828319451997462" id="-34363">
		<tag k="name" v="Tobørsholmen" />
		<tag k="place" v="islet" />
		<tag k="ssr:stedsnr" v="372506" />
	</node>
	<node lat="61.75133001011605" lon="5.140407466970099" id="-34364">
		<tag k="name" v="Ternøyna" />
		<tag k="place" v="island" />
		<tag k="ssr:stedsnr" v="372807" />
	</node>
	<node lat="61.72631110829605" lon="5.096886112009377" id="-34365">
		<tag k="name" v="Mørkedalselva" />
		<tag k="ssr:stedsnr" v="372848" />
		<tag k="waterway" v="stream" />
	</node>
	<node lat="61.734563889716576" lon="5.265166673442579" id="-34366">
		<tag k="fixme" v="consider natural=peak for the most distinct mountains in the district" />
		<tag k="name" v="Trollefjellet" />
		<tag k="natural" v="hill" />
		<tag k="place" v="locality" />
		<tag k="ssr:stedsnr" v="372853" />
	</node>
	<node lat="61.6874000015238" lon="5.329055551163402" id="-34367">
		<tag k="name" v="Lægdene" />
		<tag k="natural" v="valley" />
		<tag k="place" v="locality" />
		<tag k="ssr:stedsnr" v="372872" />
	</node>
	<node lat="61.81451111312005" lon="5.560644447262456" id="-34368">
		<tag k="name" v="Krokvatnet" />
		<tag k="natural" v="water" />
		<tag k="ssr:stedsnr" v="373307" />
	</node>
	<node lat="61.79102499829508" lon="5.50896111360442" id="-34369">
		<tag k="name" v="Åttevatnet" />
		<tag k="natural" v="water" />
		<tag k="ssr:stedsnr" v="373317" />
	</node>
	<node lat="61.78640555314008" lon="5.492405558175771" id="-34370">
		<tag k="name" v="Seksvatnet" />
		<tag k="natural" v="water" />
		<tag k="ssr:stedsnr" v="373323" />
	</node>
	<node lat="61.891558330964266" lon="5.488613881603371" id="-34371">
		<tag k="fixme" v="consider natural=peak for the most distinct mountains in the district" />
		<tag k="name" v="Nakkane" />
		<tag k="natural" v="hill" />
		<tag k="place" v="locality" />
		<tag k="ssr:stedsnr" v="373413" />
	</node>
	<node lat="61.90194426695643" lon="5.537959275387813" id="-34372">
		<tag k="alt_name" v="Daviknes" />
		<tag k="fixme" v="consider place=hamlet" />
		<tag k="name" v="Davikneset" />
		<tag k="place" v="farm" />
		<tag k="ssr:stedsnr" v="373415" />
	</node>
	<node lat="61.79270833759755" lon="5.23439167374568" id="-34373">
		<tag k="fixme" v="consider natural=peak for the most distinct mountains in the district" />
		<tag k="name" v="Storerabben" />
		<tag k="natural" v="hill" />
		<tag k="place" v="locality" />
		<tag k="ssr:stedsnr" v="374109" />
	</node>
	<node lat="61.774558991606334" lon="5.282750989344535" id="-34374">
		<tag k="fixme" v="consider place=hamlet" />
		<tag k="name" v="Sande" />
		<tag k="place" v="farm" />
		<tag k="ssr:stedsnr" v="374098" />
	</node>
	<node lat="61.80349721932662" lon="5.221805559455607" id="-34375">
		<tag k="name" v="Nonsberget" />
		<tag k="natural" v="hill" />
		<tag k="place" v="locality" />
		<tag k="ssr:stedsnr" v="374142" />
	</node>
	<node lat="61.86437777539634" lon="5.168816659021981" id="-34377">
		<tag k="name" v="Sæternipa" />
		<tag k="natural" v="hill" />
		<tag k="place" v="locality" />
		<tag k="ssr:stedsnr" v="374196" />
	</node>
	<node lat="61.77831110776393" lon="5.574613889029872" id="-34378">
		<tag k="fixme" v="consider natural=peak for the most distinct mountains in the district" />
		<tag k="name" v="Midtheida" />
		<tag k="natural" v="hill" />
		<tag k="place" v="locality" />
		<tag k="ssr:stedsnr" v="374305" />
	</node>
	<node lat="61.87963333573614" lon="5.510744439308205" id="-34379">
		<tag k="historic" v="shieling" />
		<tag k="name" v="Mosehaugane" />
		<tag k="place" v="isolated_dwelling" />
		<tag k="ssr:stedsnr" v="374388" />
	</node>
	<node lat="61.86186389146385" lon="5.529208333264224" id="-34380">
		<tag k="name" v="Bortnemiddagshola" />
		<tag k="natural" v="valley" />
		<tag k="place" v="locality" />
		<tag k="ssr:stedsnr" v="374397" />
	</node>
	<node lat="61.80053611420591" lon="5.862772229354402" id="-34381">
		<tag k="name" v="Gjegnalundsbreen" />
		<tag k="natural" v="glacier" />
		<tag k="ssr:stedsnr" v="374708" />
	</node>
	<node lat="61.812362362175165" lon="5.073242425598715" id="-34382">
		<tag k="fixme" v="consider place=hamlet" />
		<tag k="name" v="Skarstein" />
		<tag k="place" v="farm" />
		<tag k="ssr:stedsnr" v="374839" />
	</node>
	<node lat="61.80141111490076" lon="4.940538886566609" id="-34383">
		<tag k="fixme" v="consider natural=peak for the most distinct mountains in the district" />
		<tag k="name" v="Steinfjellet" />
		<tag k="natural" v="hill" />
		<tag k="place" v="locality" />
		<tag k="ssr:stedsnr" v="374840" />
	</node>
	<node lat="61.806727782170796" lon="4.9910944485893465" id="-34384">
		<tag k="name" v="Rylandsvatnet" />
		<tag k="natural" v="water" />
		<tag k="ssr:stedsnr" v="374841" />
		<tag k="water" v="lake" />
	</node>
	<node lat="61.783241668035785" lon="4.8143166713437395" id="-34385">
		<tag k="name" v="Langeneset" />
		<tag k="natural" v="cape" />
		<tag k="ssr:stedsnr" v="374846" />
	</node>
	<node lat="61.854044446117236" lon="4.935719451458758" id="-34386">
		<tag k="name" v="Videdalsvatnet" />
		<tag k="natural" v="water" />
		<tag k="ssr:stedsnr" v="374909" />
	</node>
	<node lat="61.90515555690063" lon="4.927441673727862" id="-34387">
		<tag k="name" v="Festeneset" />
		<tag k="natural" v="cape" />
		<tag k="ssr:stedsnr" v="374984" />
	</node>
	<node lat="61.8896483986086" lon="4.927106811895448" id="-34388">
		<tag k="fixme" v="consider place=hamlet" />
		<tag k="name" v="Solheim" />
		<tag k="place" v="farm" />
		<tag k="ssr:stedsnr" v="374999" />
	</node>
	<node lat="61.89844444320946" lon="5.511130562063782" id="-34389">
		<tag k="name" v="Langedalen" />
		<tag k="natural" v="valley" />
		<tag k="place" v="locality" />
		<tag k="ssr:stedsnr" v="384506" />
	</node>
	<node lat="61.82267499996674" lon="5.571047225537457" id="-34390">
		<tag k="name" v="Heidanova" />
		<tag k="natural" v="hill" />
		<tag k="place" v="locality" />
		<tag k="ssr:stedsnr" v="384509" />
	</node>
	<node lat="61.74305555891734" lon="4.486111113169886" id="-34391">
		<tag k="name" v="Grunnskallen" />
		<tag k="natural" v="shoal" />
		<tag k="place" v="locality" />
		<tag k="ssr:stedsnr" v="482757" />
	</node>
	<node lat="61.72022500388981" lon="5.102019446095848" id="-34392">
		<tag k="bridge" v="yes" />
		<tag k="layer" v="1" />
		<tag k="name" v="Sagelva" />
		<tag k="ssr:stedsnr" v="411640" />
	</node>
	<node lat="61.824713890608315" lon="5.6353833363262105" id="-34393">
		<tag k="name" v="Litledalen" />
		<tag k="place" v="locality" />
		<tag k="ssr:stedsnr" v="414135" />
	</node>
	<node lat="61.83586111265132" lon="5.654038898182953" id="-34394">
		<tag k="name" v="Følshammaren" />
		<tag k="natural" v="hill" />
		<tag k="place" v="locality" />
		<tag k="ssr:stedsnr" v="414238" />
	</node>
	<node lat="61.8357222253471" lon="5.657969449700246" id="-34395">
		<tag k="name" v="Ålusa" />
		<tag k="natural" v="stone" />
		<tag k="ssr:stedsnr" v="414239" />
	</node>
	<node lat="61.831158334199245" lon="4.974958328345336" id="-34396">
		<tag k="alt_name" v="Klubbenes" />
		<tag k="name" v="Klubbeneset" />
		<tag k="natural" v="cape" />
		<tag k="ssr:stedsnr" v="414269" />
	</node>
	<node lat="61.83997777479586" lon="5.424094439392492" id="-34397">
		<tag k="name" v="Nibbekaret" />
		<tag k="natural" v="valley" />
		<tag k="place" v="locality" />
		<tag k="ssr:stedsnr" v="414288" />
	</node>
	<node lat="61.84521667032645" lon="5.419847230174881" id="-34398">
		<tag k="name" v="Vasslia" />
		<tag k="natural" v="slope" />
		<tag k="place" v="locality" />
		<tag k="ssr:stedsnr" v="414289" />
	</node>
	<node lat="61.8585583301018" lon="5.043547227044973" id="-34399">
		<tag k="name" v="Fagrerendvika" />
		<tag k="natural" v="bay" />
		<tag k="ssr:stedsnr" v="414292" />
	</node>
	<node lat="61.86188333624708" lon="5.070094435330511" id="-34400">
		<tag k="name" v="Konsdalsbakkane" />
		<tag k="natural" v="slope" />
		<tag k="place" v="locality" />
		<tag k="ssr:stedsnr" v="414296" />
	</node>
	<node lat="61.77712778048466" lon="4.969541673233639" id="-34401">
		<tag k="alt_name" v="Visholmen" />
		<tag k="name" v="Vessholmen" />
		<tag k="place" v="islet" />
		<tag k="ssr:stedsnr" v="414406" />
	</node>
	<node lat="61.80560555372635" lon="5.673644449042306" id="-34402">
		<tag k="name" v="Litlefonna" />
		<tag k="natural" v="slope" />
		<tag k="place" v="locality" />
		<tag k="ssr:stedsnr" v="414187" />
	</node>
	<node lat="61.80923333172031" lon="5.572405549889618" id="-34403">
		<tag k="name" v="Daleklubbmyra" />
		<tag k="natural" v="wetland" />
		<tag k="ssr:stedsnr" v="414188" />
	</node>
	<node lat="61.85584444611374" lon="5.3405083313307395" id="-34404">
		<tag k="name" v="Oreløkdalen" />
		<tag k="natural" v="valley" />
		<tag k="place" v="locality" />
		<tag k="ssr:stedsnr" v="414435" />
	</node>
	<node lat="61.86020000096191" lon="5.315405558406529" id="-34405">
		<tag k="name" v="Sagelva" />
		<tag k="ssr:stedsnr" v="414602" />
		<tag k="waterway" v="stream" />
	</node>
	<node lat="61.822919440078834" lon="5.080413885548937" id="-34406">
		<tag k="name" v="Tjørna" />
		<tag k="natural" v="water" />
		<tag k="ssr:stedsnr" v="414603" />
	</node>
	<node lat="61.89494166502872" lon="5.380908324993094" id="-34407">
		<tag k="name" v="Gjelhaugen" />
		<tag k="natural" v="hill" />
		<tag k="place" v="locality" />
		<tag k="ssr:stedsnr" v="414607" />
	</node>
	<node lat="61.82936111160989" lon="5.118722217840695" id="-34408">
		<tag k="name" v="Sjåhaugen" />
		<tag k="natural" v="hill" />
		<tag k="place" v="locality" />
		<tag k="ssr:stedsnr" v="414608" />
	</node>
	<node lat="61.9075305596137" lon="5.382819442700075" id="-34409">
		<tag k="name" v="Tuenes" />
		<tag k="natural" v="cape" />
		<tag k="ssr:stedsnr" v="414609" />
	</node>
	<node lat="61.89930555679572" lon="5.406094441481148" id="-34410">
		<tag k="name" v="Mastrehaugane" />
		<tag k="natural" v="hill" />
		<tag k="place" v="locality" />
		<tag k="ssr:stedsnr" v="414614" />
	</node>
	<node lat="61.893111115586485" lon="5.635461112485627" id="-34411">
		<tag k="name" v="Tobbeberget" />
		<tag k="natural" v="cape" />
		<tag k="ssr:stedsnr" v="414803" />
	</node>
	<node lat="61.89628888823574" lon="5.619130551764808" id="-34412">
		<tag k="name" v="Ulvehillene" />
		<tag k="natural" v="slope" />
		<tag k="place" v="locality" />
		<tag k="ssr:stedsnr" v="414805" />
	</node>
	<node lat="61.88222222233109" lon="5.6676111176176995" id="-34413">
		<tag k="name" v="Hestelida" />
		<tag k="natural" v="slope" />
		<tag k="place" v="locality" />
		<tag k="ssr:stedsnr" v="414808" />
	</node>
	<node lat="61.903852779435795" lon="5.536683329804572" id="-34414">
		<tag k="name" v="Geilehola" />
		<tag k="natural" v="valley" />
		<tag k="place" v="locality" />
		<tag k="ssr:stedsnr" v="414587" />
	</node>
	<node lat="61.904483331459566" lon="5.533655546802757" id="-34415">
		<tag k="name" v="Einstigen" />
		<tag k="natural" v="slope" />
		<tag k="place" v="locality" />
		<tag k="ssr:stedsnr" v="414589" />
	</node>
	<node lat="61.88232777991583" lon="5.318580554351838" id="-34416">
		<tag k="name" v="Jakteholmen" />
		<tag k="natural" v="cape" />
		<tag k="ssr:stedsnr" v="414600" />
	</node>
	<node lat="61.83581666945669" lon="5.7996777786657505" id="-34417">
		<tag k="name" v="Prestevatnet" />
		<tag k="natural" v="water" />
		<tag k="ssr:stedsnr" v="414743" />
	</node>
	<node lat="61.838291665393726" lon="5.77411943955123" id="-34418">
		<tag k="name" v="Fagredalen" />
		<tag k="natural" v="valley" />
		<tag k="place" v="locality" />
		<tag k="ssr:stedsnr" v="414744" />
	</node>
	<node lat="61.89799166671871" lon="5.612866664131433" id="-34419">
		<tag k="name" v="Moseura" />
		<tag k="natural" v="scree" />
		<tag k="ssr:stedsnr" v="414796" />
	</node>
	<node lat="61.754208335868164" lon="5.043433340433804" id="-34420">
		<tag k="name" v="Gamlehjellen" />
		<tag k="place" v="locality" />
		<tag k="ssr:stedsnr" v="414910" />
	</node>
	<node lat="61.72027777907228" lon="5.128897221729926" id="-34421">
		<tag k="name" v="Svoraholtet" />
		<tag k="place" v="locality" />
		<tag k="ssr:stedsnr" v="414890" />
	</node>
	<node lat="61.71275000321138" lon="5.106622215933228" id="-34422">
		<tag k="name" v="Litleneset" />
		<tag k="natural" v="cape" />
		<tag k="ssr:stedsnr" v="414891" />
	</node>
	<node lat="61.71553333058638" lon="5.097858338079831" id="-34423">
		<tag k="name" v="Trollefjellet" />
		<tag k="natural" v="hill" />
		<tag k="place" v="locality" />
		<tag k="ssr:stedsnr" v="414892" />
	</node>
	<node lat="61.70982500096177" lon="5.173980549469695" id="-34424">
		<tag k="name" v="Svaberget" />
		<tag k="place" v="locality" />
		<tag k="ssr:stedsnr" v="414900" />
	</node>
	<node lat="61.87712222206716" lon="4.911405560260896" id="-34425">
		<tag k="name" v="Strupen" />
		<tag k="natural" v="valley" />
		<tag k="place" v="locality" />
		<tag k="ssr:stedsnr" v="415010" />
	</node>
	<node lat="61.893416669334655" lon="4.946041664636536" id="-34426">
		<tag k="name" v="Svehaugen" />
		<tag k="natural" v="hill" />
		<tag k="place" v="locality" />
		<tag k="ssr:stedsnr" v="415112" />
	</node>
	<node lat="61.89728333012383" lon="4.931613888342572" id="-34427">
		<tag k="name" v="Storevatn" />
		<tag k="natural" v="water" />
		<tag k="ssr:stedsnr" v="415114" />
	</node>
	<node lat="61.812975000614514" lon="5.0650027856331725" id="-34428">
		<tag k="name" v="Haugane" />
		<tag k="natural" v="hill" />
		<tag k="place" v="locality" />
		<tag k="ssr:stedsnr" v="415385" />
	</node>
	<node lat="61.815175001462215" lon="5.006158326999236" id="-34429">
		<tag k="name" v="Skipardalskaret" />
		<tag k="natural" v="valley" />
		<tag k="place" v="locality" />
		<tag k="ssr:stedsnr" v="415388" />
	</node>
	<node lat="61.829847237425" lon="4.9917419803257665" id="-34430">
		<tag k="name" v="Fosseelvane" />
		<tag k="ssr:stedsnr" v="415395" />
		<tag k="waterway" v="stream" />
	</node>
	<node lat="61.87943332926563" lon="5.096508334715309" id="-34431">
		<tag k="alt_name" v="Naustholmen" />
		<tag k="name" v="Steinholmen" />
		<tag k="place" v="islet" />
		<tag k="ssr:stedsnr" v="415690" />
	</node>
	<node lat="61.77578333247636" lon="5.271508327348817" id="-34432">
		<tag k="name" v="Mevikneset" />
		<tag k="natural" v="cape" />
		<tag k="ssr:stedsnr" v="415809" />
	</node>
	<node lat="61.76551389234009" lon="5.2950277720128875" id="-34433">
		<tag k="name" v="Storeskora" />
		<tag k="natural" v="cliff" />
		<tag k="ssr:stedsnr" v="415789" />
	</node>
	<node lat="61.78368888681358" lon="5.004675003591291" id="-34434">
		<tag k="name" v="Tjuvenesflua" />
		<tag k="natural" v="shoal" />
		<tag k="place" v="locality" />
		<tag k="ssr:stedsnr" v="417585" />
	</node>
	<node lat="61.82218055653004" lon="5.2780194440848405" id="-34435">
		<tag k="name" v="Furevika" />
		<tag k="natural" v="bay" />
		<tag k="ssr:stedsnr" v="418037" />
	</node>
	<node lat="61.82582329647754" lon="5.111482956249659" id="-34436">
		<tag k="fixme" v="consider place=hamlet" />
		<tag k="name" v="Ytre Hauge" />
		<tag k="place" v="farm" />
		<tag k="ssr:stedsnr" v="418435" />
	</node>
	<node lat="61.91444444773408" lon="5.412263895943467" id="-34437">
		<tag k="name" v="Torskevika" />
		<tag k="natural" v="bay" />
		<tag k="ssr:stedsnr" v="418603" />
	</node>
	<node lat="61.77609999597173" lon="4.91884722847287" id="-34438">
		<tag k="name" v="Rundeholmen" />
		<tag k="place" v="islet" />
		<tag k="ssr:stedsnr" v="418614" />
	</node>
	<node lat="61.9046431898571" lon="5.377544978328886" id="-34439">
		<tag k="name" v="Årvika" />
		<tag k="natural" v="bay" />
		<tag k="ssr:stedsnr" v="418586" />
	</node>
	<node lat="61.709538885655775" lon="5.025077774637237" id="-34441">
		<tag k="alt_name" v="Litlehorn" />
		<tag k="name" v="Litlehornet" />
		<tag k="natural" v="hill" />
		<tag k="place" v="locality" />
		<tag k="ssr:stedsnr" v="433036" />
	</node>
	<node lat="61.741063888934306" lon="5.635530558566881" id="-34443">
		<tag k="name" v="Ålfotbreen" />
		<tag k="natural" v="glacier" />
		<tag k="ssr:stedsnr" v="433632" />
	</node>
	<node lat="61.745605557090514" lon="5.789716662210088" id="-34444">
		<tag k="fixme" v="consider natural=peak for the most distinct mountains in the district" />
		<tag k="name" v="Gråfjellet" />
		<tag k="natural" v="hill" />
		<tag k="place" v="locality" />
		<tag k="ssr:stedsnr" v="433634" />
	</node>
	<node lat="61.715658337662276" lon="5.252533340989048" id="-34445">
		<tag k="name" v="Storeteigen" />
		<tag k="place" v="locality" />
		<tag k="ssr:stedsnr" v="433826" />
	</node>
	<node lat="61.727983335990174" lon="5.3877444519158955" id="-34446">
		<tag k="fixme" v="consider natural=peak for the most distinct mountains in the district" />
		<tag k="name" v="Risebøra" />
		<tag k="natural" v="hill" />
		<tag k="place" v="locality" />
		<tag k="ssr:stedsnr" v="433829" />
	</node>
	<node lat="61.73916110732701" lon="5.366913889139335" id="-34447">
		<tag k="fixme" v="consider natural=peak for the most distinct mountains in the district" />
		<tag k="name" v="Handkleet" />
		<tag k="natural" v="hill" />
		<tag k="place" v="locality" />
		<tag k="ssr:stedsnr" v="433830" />
	</node>
	<node lat="61.73287777408685" lon="5.349313883668248" id="-34448">
		<tag k="name" v="Nakken" />
		<tag k="natural" v="hill" />
		<tag k="place" v="locality" />
		<tag k="ssr:stedsnr" v="433831" />
	</node>
	<node lat="61.72839444340432" lon="5.175197221521319" id="-34449">
		<tag k="name" v="Midtgulen" />
		<tag k="natural" v="bay" />
		<tag k="ssr:stedsnr" v="433836" />
	</node>
	<node lat="61.743988886268326" lon="5.307469443529584" id="-34450">
		<tag k="name" v="Novatjønn" />
		<tag k="natural" v="water" />
		<tag k="ssr:stedsnr" v="433840" />
	</node>
	<node lat="61.846696735552186" lon="5.7209761641746315" id="-34451">
		<tag k="fixme" v="consider place=hamlet" />
		<tag k="name" v="Vik" />
		<tag k="place" v="farm" />
		<tag k="ssr:stedsnr" v="434319" />
	</node>
	<node lat="61.832777775373515" lon="5.521813895167843" id="-34452">
		<tag k="name" v="Dalsetevatnet" />
		<tag k="natural" v="water" />
		<tag k="ssr:stedsnr" v="434322" />
		<tag k="water" v="lake" />
	</node>
	<node lat="61.831675062029255" lon="5.666877345025451" id="-34453">
		<tag k="fixme" v="consider place=hamlet" />
		<tag k="name" v="Sigdestad" />
		<tag k="place" v="farm" />
		<tag k="ssr:stedsnr" v="434328" />
	</node>
	<node lat="61.83144444846141" lon="5.548099993174323" id="-34454">
		<tag k="name" v="Heimste Litlevatnet" />
		<tag k="natural" v="water" />
		<tag k="ssr:stedsnr" v="434332" />
	</node>
	<node lat="61.77981389064029" lon="4.828374991734778" id="-34455">
		<tag k="name" v="Molvikhalsen" />
		<tag k="natural" v="cape" />
		<tag k="ssr:stedsnr" v="434806" />
	</node>
	<node lat="61.755611109947715" lon="4.859180553670932" id="-34456">
		<tag k="fixme" v="multiple name tags, choose one and add the other to alt_name; consider natural=peak for the most distinct mountains in the district" />
		<tag k="name" v="Flona;Flofjellet" />
		<tag k="natural" v="hill" />
		<tag k="place" v="locality" />
		<tag k="ssr:stedsnr" v="434812" />
	</node>
	<node lat="61.77569656130432" lon="4.897515514594925" id="-34457">
		<tag k="alt_name" v="Frøya" />
		<tag k="amenity" v="place_of_worship" />
		<tag k="denomination" v="lutheran" />
		<tag k="name" v="Frøya kyrkje" />
		<tag k="religion" v="christian" />
		<tag k="ssr:stedsnr" v="434796" />
	</node>
	<node lat="61.787880551571654" lon="5.270877778489709" id="-34458">
		<tag k="name" v="Sandesætra" />
		<tag k="place" v="locality" />
		<tag k="ssr:stedsnr" v="435106" />
	</node>
	<node lat="61.777222223896835" lon="5.164136111912449" id="-34459">
		<tag k="alt_name" v="Dyrstadsetra" />
		<tag k="historic" v="shieling" />
		<tag k="name" v="Dyrstadsætra" />
		<tag k="place" v="isolated_dwelling" />
		<tag k="ssr:stedsnr" v="435112" />
	</node>
	<node lat="61.816402781308646" lon="5.461911111388335" id="-34460">
		<tag k="name" v="Fjellbotnen" />
		<tag k="natural" v="valley" />
		<tag k="place" v="locality" />
		<tag k="ssr:stedsnr" v="435126" />
	</node>
	<node lat="61.79649999828544" lon="5.243572230529414" id="-34461">
		<tag k="historic" v="shieling" />
		<tag k="name" v="Hennøysætra" />
		<tag k="place" v="isolated_dwelling" />
		<tag k="ssr:stedsnr" v="435131" />
	</node>
	<node lat="61.86833789220119" lon="5.311202864108516" id="-34462">
		<tag k="fixme" v="consider place=hamlet" />
		<tag k="name" v="Kollsete" />
		<tag k="place" v="farm" />
		<tag k="ssr:stedsnr" v="435205" />
	</node>
	<node lat="61.868119442058045" lon="5.152947214527165" id="-34463">
		<tag k="name" v="Skjeklevatnet" />
		<tag k="natural" v="water" />
		<tag k="ssr:stedsnr" v="435214" />
	</node>
	<node lat="61.88451870328034" lon="5.344627015425071" id="-34464">
		<tag k="name" v="Hessevågbakken" />
		<tag k="natural" v="slope" />
		<tag k="place" v="locality" />
		<tag k="ssr:stedsnr" v="435216" />
	</node>
	<node lat="61.885605551972255" lon="5.425475006259418" id="-34465">
		<tag k="name" v="Fossen" />
		<tag k="place" v="locality" />
		<tag k="ssr:stedsnr" v="435218" />
	</node>
	<node lat="61.887162174432945" lon="5.347441634003156" id="-34466">
		<tag k="fixme" v="consider place=hamlet" />
		<tag k="name" v="Hessevågen" />
		<tag k="place" v="farm" />
		<tag k="ssr:stedsnr" v="435222" />
	</node>
	<node lat="61.8908833338422" lon="5.359413895648568" id="-34467">
		<tag k="fixme" v="consider natural=peak for the most distinct mountains in the district" />
		<tag k="name" v="Ramntoppen" />
		<tag k="natural" v="hill" />
		<tag k="place" v="locality" />
		<tag k="ssr:stedsnr" v="435224" />
	</node>
	<node lat="61.76301111181115" lon="5.7360027815383665" id="-34468">
		<tag k="name" v="Øvre Bredvatnet" />
		<tag k="natural" v="water" />
		<tag k="ssr:stedsnr" v="435311" />
		<tag k="water" v="lake" />
	</node>
	<node lat="61.81461110991179" lon="5.479841661897174" id="-34469">
		<tag k="name" v="Fjelledalen" />
		<tag k="natural" v="valley" />
		<tag k="place" v="locality" />
		<tag k="ssr:stedsnr" v="435365" />
	</node>
	<node lat="61.80242221883626" lon="5.689502784747729" id="-34470">
		<tag k="fixme" v="consider natural=peak for the most distinct mountains in the district" />
		<tag k="name" v="Middagsnakken" />
		<tag k="natural" v="hill" />
		<tag k="place" v="locality" />
		<tag k="ssr:stedsnr" v="435382" />
	</node>
	<node lat="61.855888890752105" lon="5.712349992902628" id="-34471">
		<tag k="name" v="Saudskaret" />
		<tag k="natural" v="valley" />
		<tag k="place" v="locality" />
		<tag k="ssr:stedsnr" v="435403" />
	</node>
	<node lat="61.85460833115935" lon="5.734497228292338" id="-34472">
		<tag k="fixme" v="consider natural=peak for the most distinct mountains in the district" />
		<tag k="name" v="Aksla" />
		<tag k="natural" v="hill" />
		<tag k="place" v="locality" />
		<tag k="ssr:stedsnr" v="435406" />
	</node>
	<node lat="61.806913889949804" lon="5.447333333805442" id="-34473">
		<tag k="fixme" v="consider natural=peak for the most distinct mountains in the district" />
		<tag k="name" v="Nibba" />
		<tag k="natural" v="hill" />
		<tag k="place" v="locality" />
		<tag k="ssr:stedsnr" v="435807" />
	</node>
	<node lat="61.82120555711649" lon="5.67400556338909" id="-34474">
		<tag k="name" v="Fureneset" />
		<tag k="natural" v="cape" />
		<tag k="ssr:stedsnr" v="435860" />
	</node>
	<node lat="61.72629444093179" lon="4.854155564725045" id="-34475">
		<tag k="bay" v="fjord" />
		<tag k="name" v="Frøysjøen" />
		<tag k="natural" v="bay" />
		<tag k="ssr:stedsnr" v="493430" />
	</node>
	<node lat="61.73392499767803" lon="4.9556916695550335" id="-34476">
		<tag k="name" v="Langevengen" />
		<tag k="place" v="islet" />
		<tag k="ssr:stedsnr" v="493445" />
	</node>
	<node lat="61.747897218243814" lon="5.024866673561727" id="-34477">
		<tag k="name" v="Skudalen" />
		<tag k="natural" v="valley" />
		<tag k="place" v="locality" />
		<tag k="ssr:stedsnr" v="493451" />
	</node>
	<node lat="61.69850000189854" lon="4.99908888320558" id="-34478">
		<tag k="fixme" v="consider natural=peak for the most distinct mountains in the district" />
		<tag k="name" v="Skredene" />
		<tag k="natural" v="hill" />
		<tag k="place" v="locality" />
		<tag k="ssr:stedsnr" v="494060" />
	</node>
	<node lat="61.850413891481374" lon="5.063888897136555" id="-34479">
		<tag k="fixme" v="consider natural=peak for the most distinct mountains in the district" />
		<tag k="name" v="Middagsnova" />
		<tag k="natural" v="hill" />
		<tag k="place" v="locality" />
		<tag k="ssr:stedsnr" v="445003" />
	</node>
	<node lat="61.77643611063897" lon="5.149272220349229" id="-34480">
		<tag k="historic" v="shieling" />
		<tag k="name" v="Hessvikstøylen" />
		<tag k="place" v="isolated_dwelling" />
		<tag k="ssr:stedsnr" v="445224" />
	</node>
	<node lat="61.72359722248298" lon="4.710883340417854" id="-34481">
		<tag k="name" v="Aldeflua" />
		<tag k="natural" v="shoal" />
		<tag k="place" v="locality" />
		<tag k="ssr:stedsnr" v="494456" />
	</node>
	<node lat="61.733602774619634" lon="4.815699992570532" id="-34482">
		<tag k="fixme" v="consider seamark:type=rock or natural=shoal" />
		<tag k="name" v="Joskjera" />
		<tag k="place" v="islet" />
		<tag k="ssr:stedsnr" v="675475" />
	</node>
	<node lat="61.73185514595425" lon="4.822677536258164" id="-34483">
		<tag k="name" v="Gåsøyna" />
		<tag k="place" v="island" />
		<tag k="ssr:stedsnr" v="675480" />
	</node>
	<node lat="61.714505557788165" lon="5.028622225427355" id="-34484">
		<tag k="name" v="Norddalsvatnet" />
		<tag k="natural" v="water" />
		<tag k="ssr:stedsnr" v="676035" />
		<tag k="water" v="lake" />
	</node>
	<node lat="61.78497777524559" lon="5.233474999926132" id="-34485">
		<tag k="fixme" v="consider natural=peak for the most distinct mountains in the district" />
		<tag k="name" v="Merkingsnova" />
		<tag k="natural" v="hill" />
		<tag k="place" v="locality" />
		<tag k="ssr:stedsnr" v="677112" />
	</node>
	<node lat="61.81444166416161" lon="5.638383342366378" id="-34486">
		<tag k="name" v="Øyra" />
		<tag k="place" v="locality" />
		<tag k="ssr:stedsnr" v="474113" />
	</node>
	<node lat="61.805149999336386" lon="5.667825001933046" id="-34487">
		<tag k="name" v="Åskorhogen" />
		<tag k="natural" v="hill" />
		<tag k="place" v="locality" />
		<tag k="ssr:stedsnr" v="474121" />
	</node>
	<node lat="61.80446944548913" lon="5.638011103783336" id="-34488">
		<tag k="name" v="Lægda" />
		<tag k="natural" v="valley" />
		<tag k="place" v="locality" />
		<tag k="ssr:stedsnr" v="474123" />
	</node>
	<node lat="61.83646667009302" lon="5.549344443542416" id="-34489">
		<tag k="name" v="Steinbakkane" />
		<tag k="natural" v="slope" />
		<tag k="place" v="locality" />
		<tag k="ssr:stedsnr" v="474158" />
	</node>
	<node lat="61.801063890891534" lon="5.0485111193009065" id="-34490">
		<tag k="name" v="Storevika" />
		<tag k="natural" v="bay" />
		<tag k="ssr:stedsnr" v="474425" />
	</node>
	<node lat="61.78102777620097" lon="4.853802775340376" id="-34491">
		<tag k="name" v="Ytste Dekkjevatn" />
		<tag k="natural" v="water" />
		<tag k="ssr:stedsnr" v="474378" />
	</node>
	<node lat="61.76829999770917" lon="4.877427775692432" id="-34492">
		<tag k="name" v="Kleivane" />
		<tag k="natural" v="slope" />
		<tag k="place" v="locality" />
		<tag k="ssr:stedsnr" v="474386" />
	</node>
	<node lat="61.78092500417503" lon="4.8270083399472625" id="-34493">
		<tag k="name" v="Molvika" />
		<tag k="natural" v="bay" />
		<tag k="ssr:stedsnr" v="474513" />
	</node>
	<node lat="61.815116663448066" lon="5.1924972155200315" id="-34494">
		<tag k="name" v="Ytste Hennøyholmen" />
		<tag k="place" v="islet" />
		<tag k="ssr:stedsnr" v="474519" />
	</node>
	<node lat="61.8072000017293" lon="5.186386102662731" id="-34495">
		<tag k="name" v="Skora" />
		<tag k="natural" v="hill" />
		<tag k="place" v="locality" />
		<tag k="ssr:stedsnr" v="474520" />
	</node>
	<node lat="61.89846110978127" lon="5.3742305494964775" id="-34496">
		<tag k="name" v="Geitebrunakken" />
		<tag k="natural" v="hill" />
		<tag k="place" v="locality" />
		<tag k="ssr:stedsnr" v="474610" />
	</node>
	<node lat="61.89272221856962" lon="5.380236108839633" id="-34497">
		<tag k="name" v="Tverrelva" />
		<tag k="ssr:stedsnr" v="474613" />
		<tag k="waterway" v="stream" />
	</node>
	<node lat="61.898980555669205" lon="5.6030555596687455" id="-34498">
		<tag k="name" v="Berastøa" />
		<tag k="natural" v="beach" />
		<tag k="ssr:stedsnr" v="474809" />
	</node>
	<node lat="61.77118055717958" lon="5.125263886324944" id="-34499">
		<tag k="name" v="Nesbødalen" />
		<tag k="natural" v="valley" />
		<tag k="place" v="locality" />
		<tag k="ssr:stedsnr" v="474813" />
	</node>
	<node lat="61.78265000312905" lon="5.126452780468709" id="-34500">
		<tag k="name" v="Ørnefarbakkane" />
		<tag k="natural" v="slope" />
		<tag k="place" v="locality" />
		<tag k="ssr:stedsnr" v="474815" />
	</node>
	<node lat="61.78165277993219" lon="5.134405558389736" id="-34501">
		<tag k="name" v="Marafjellbrua" />
		<tag k="place" v="locality" />
		<tag k="ssr:stedsnr" v="474817" />
	</node>
	<node lat="61.7349361076715" lon="5.3110944356663214" id="-34502">
		<tag k="fixme" v="consider natural=peak for the most distinct mountains in the district" />
		<tag k="name" v="Tverrfjellet" />
		<tag k="natural" v="hill" />
		<tag k="place" v="locality" />
		<tag k="ssr:stedsnr" v="676823" />
	</node>
	<node lat="61.74536944555785" lon="5.351963897763396" id="-34503">
		<tag k="name" v="Sørvassbotnen" />
		<tag k="natural" v="valley" />
		<tag k="place" v="locality" />
		<tag k="ssr:stedsnr" v="676829" />
	</node>
	<node lat="61.72014166505602" lon="4.969558332427967" id="-34504">
		<tag k="name" v="Vesle Åpnarhella" />
		<tag k="natural" v="cape" />
		<tag k="ssr:stedsnr" v="474958" />
	</node>
	<node lat="61.72194166571766" lon="4.982755550273688" id="-34505">
		<tag k="loc_name" v="Sørbotnsvatnet" />
		<tag k="name" v="Sørbottenvatn" />
		<tag k="natural" v="water" />
		<tag k="ssr:stedsnr" v="474960" />
	</node>
	<node lat="61.8465583304811" lon="4.846719439001003" id="-34506">
		<tag k="fixme" v="consider seamark:type=rock or natural=shoal" />
		<tag k="name" v="Hatlesundskjer" />
		<tag k="place" v="islet" />
		<tag k="ssr:stedsnr" v="475004" />
	</node>
	<node lat="61.87677777631351" lon="4.885486110478238" id="-34507">
		<tag k="alt_name" v="Indre Tussevika" />
		<tag k="name" v="Inste Tussevika" />
		<tag k="natural" v="bay" />
		<tag k="ssr:stedsnr" v="475018" />
	</node>
	<node lat="61.80650882777881" lon="4.9117481553215745" id="-34508">
		<tag k="fixme" v="consider place=hamlet" />
		<tag k="name" v="Bremnes" />
		<tag k="place" v="farm" />
		<tag k="ssr:stedsnr" v="475021" />
	</node>
	<node lat="61.8815694413013" lon="4.920630546798354" id="-34509">
		<tag k="fixme" v="consider place=hamlet" />
		<tag k="name" v="Vetvik" />
		<tag k="place" v="farm" />
		<tag k="ssr:stedsnr" v="475110" />
	</node>
	<node lat="61.89675833613505" lon="4.934450000174841" id="-34510">
		<tag k="historic" v="shieling" />
		<tag k="name" v="Melkeplassen" />
		<tag k="place" v="locality" />
		<tag k="ssr:stedsnr" v="475115" />
	</node>
	<node lat="61.836091665956225" lon="5.641702772977768" id="-34511">
		<tag k="name" v="Vollen" />
		<tag k="place" v="locality" />
		<tag k="ssr:stedsnr" v="475225" />
	</node>
	<node lat="61.709197223016574" lon="5.24837500215478" id="-34512">
		<tag k="fixme" v="consider natural=peak for the most distinct mountains in the district" />
		<tag k="name" v="Lunden" />
		<tag k="natural" v="hill" />
		<tag k="place" v="locality" />
		<tag k="ssr:stedsnr" v="676858" />
	</node>
	<node lat="61.78047222300687" lon="4.981777770989644" id="-34513">
		<tag k="name" v="Vågestranda" />
		<tag k="natural" v="beach" />
		<tag k="ssr:stedsnr" v="475419" />
	</node>
	<node lat="61.8637666700896" lon="5.30446945118469" id="-34514">
		<tag k="name" v="Sveneset" />
		<tag k="natural" v="cape" />
		<tag k="ssr:stedsnr" v="475603" />
	</node>
	<node lat="61.86154722509875" lon="5.310586112107993" id="-34515">
		<tag k="name" v="Leirgulpollen" />
		<tag k="natural" v="bay" />
		<tag k="ssr:stedsnr" v="475604" />
	</node>
	<node lat="61.842308334039615" lon="5.09384999604475" id="-34516">
		<tag k="name" v="Lammeskaret" />
		<tag k="natural" v="valley" />
		<tag k="place" v="locality" />
		<tag k="ssr:stedsnr" v="475613" />
	</node>
	<node lat="61.884530555317255" lon="5.519555561997946" id="-34517">
		<tag k="name" v="Hamrehammaren" />
		<tag k="natural" v="hill" />
		<tag k="place" v="locality" />
		<tag k="ssr:stedsnr" v="475566" />
	</node>
	<node lat="61.84625096454934" lon="5.831904538950889" id="-34518">
		<tag k="name" v="Merselsneset" />
		<tag k="natural" v="cape" />
		<tag k="ssr:stedsnr" v="475783" />
	</node>
	<node lat="61.765430555836744" lon="5.113466675547634" id="-34519">
		<tag k="name" v="Juvikstrupen" />
		<tag k="natural" v="valley" />
		<tag k="place" v="locality" />
		<tag k="ssr:stedsnr" v="475814" />
	</node>
	<node lat="61.76138610858526" lon="5.111508336140266" id="-34520">
		<tag k="name" v="Merkingsneset" />
		<tag k="natural" v="cape" />
		<tag k="ssr:stedsnr" v="475819" />
	</node>
	<node lat="61.70943888552529" lon="5.107897217487076" id="-34521">
		<tag k="name" v="Legeneset" />
		<tag k="natural" v="cape" />
		<tag k="ssr:stedsnr" v="475886" />
	</node>
	<node lat="61.708839390495086" lon="5.121688613365003" id="-34522">
		<tag k="name" v="Jakteneset" />
		<tag k="natural" v="cape" />
		<tag k="ssr:stedsnr" v="475887" />
	</node>
	<node lat="61.70662222068618" lon="5.127813895445315" id="-34523">
		<tag k="name" v="Mosehamrane" />
		<tag k="natural" v="hill" />
		<tag k="place" v="locality" />
		<tag k="ssr:stedsnr" v="475891" />
	</node>
	<node lat="61.703311114799405" lon="5.097802776007241" id="-34524">
		<tag k="name" v="Kvernhaugen" />
		<tag k="natural" v="hill" />
		<tag k="place" v="locality" />
		<tag k="ssr:stedsnr" v="475899" />
	</node>
	<node lat="61.70524444299554" lon="5.102183332435087" id="-34525">
		<tag k="name" v="Kvernhuselva" />
		<tag k="ssr:stedsnr" v="475900" />
		<tag k="waterway" v="stream" />
	</node>
	<node lat="61.717597226742726" lon="5.106852781391849" id="-34526">
		<tag k="name" v="Klubbeneset" />
		<tag k="natural" v="cape" />
		<tag k="ssr:stedsnr" v="475907" />
	</node>
	<node lat="61.715777775624055" lon="5.106947215884852" id="-34527">
		<tag k="name" v="Langeneset" />
		<tag k="natural" v="cape" />
		<tag k="ssr:stedsnr" v="475911" />
	</node>
	<node lat="61.69467222502573" lon="5.084424999968782" id="-34528">
		<tag k="name" v="Vassbotnen" />
		<tag k="natural" v="valley" />
		<tag k="place" v="locality" />
		<tag k="ssr:stedsnr" v="475916" />
	</node>
	<node lat="61.8606027781306" lon="4.893930557208225" id="-34529">
		<tag k="fixme" v="consider natural=peak for the most distinct mountains in the district" />
		<tag k="name" v="Skadgyttnipa" />
		<tag k="natural" v="hill" />
		<tag k="place" v="locality" />
		<tag k="ssr:stedsnr" v="677894" />
	</node>
	<node lat="61.86287500384524" lon="4.832086109803556" id="-34530">
		<tag k="name" v="Brosmevika" />
		<tag k="natural" v="bay" />
		<tag k="ssr:stedsnr" v="677898" />
	</node>
	<node lat="61.83958333342837" lon="5.374838885020603" id="-34531">
		<tag k="fixme" v="consider natural=peak for the most distinct mountains in the district" />
		<tag k="name" v="Breahornet" />
		<tag k="natural" v="hill" />
		<tag k="place" v="locality" />
		<tag k="ssr:stedsnr" v="677114" />
	</node>
	<node lat="61.804033333740286" lon="5.193041676076058" id="-34532">
		<tag k="fixme" v="consider natural=peak for the most distinct mountains in the district" />
		<tag k="name" v="Aksla" />
		<tag k="natural" v="hill" />
		<tag k="place" v="locality" />
		<tag k="ssr:stedsnr" v="677125" />
	</node>
	<node lat="61.82836111439555" lon="5.128449994260611" id="-34533">
		<tag k="name" v="Kletten" />
		<tag k="natural" v="hill" />
		<tag k="place" v="locality" />
		<tag k="ssr:stedsnr" v="677128" />
	</node>
	<node lat="61.827783336305394" lon="5.115144452759236" id="-34534">
		<tag k="alt_name" v="Berle;Berle kapell" />
		<tag k="amenity" v="place_of_worship" />
		<tag k="denomination" v="lutheran" />
		<tag k="name" v="Berle kyrkje" />
		<tag k="religion" v="christian" />
		<tag k="ssr:stedsnr" v="677129" />
	</node>
	<node lat="61.91275555661856" lon="5.411633339249134" id="-34535">
		<tag k="name" v="Brusenakken" />
		<tag k="natural" v="hill" />
		<tag k="place" v="locality" />
		<tag k="ssr:stedsnr" v="677203" />
	</node>
	<node lat="61.87467778190086" lon="5.404663892567567" id="-34536">
		<tag k="fixme" v="consider natural=peak for the most distinct mountains in the district" />
		<tag k="name" v="Rauddalskammen" />
		<tag k="natural" v="hill" />
		<tag k="place" v="locality" />
		<tag k="ssr:stedsnr" v="677156" />
	</node>
	<node lat="61.86638611443116" lon="5.206266668313748" id="-34537">
		<tag k="fixme" v="consider natural=peak for the most distinct mountains in the district" />
		<tag k="name" v="Nonsnakken" />
		<tag k="natural" v="hill" />
		<tag k="place" v="locality" />
		<tag k="ssr:stedsnr" v="677160" />
	</node>
	<node lat="61.87142722376253" lon="5.21011405228924" id="-34538">
		<tag k="name" v="Klubben" />
		<tag k="natural" v="cape" />
		<tag k="ssr:stedsnr" v="677163" />
	</node>
	<node lat="61.87735341110653" lon="5.2214245428088" id="-34539">
		<tag k="fixme" v="consider place=hamlet" />
		<tag k="name" v="Hamnen" />
		<tag k="place" v="farm" />
		<tag k="ssr:stedsnr" v="677173" />
	</node>
	<node lat="61.76355833463355" lon="5.500855553379639" id="-34540">
		<tag k="name" v="Nipevatnet" />
		<tag k="natural" v="water" />
		<tag k="ssr:stedsnr" v="677259" />
		<tag k="water" v="lake" />
	</node>
	<node lat="61.813602778340574" lon="5.500911105423064" id="-34541">
		<tag k="name" v="Huarvatnet" />
		<tag k="natural" v="water" />
		<tag k="ssr:stedsnr" v="677298" />
	</node>
	<node lat="61.80065555579988" lon="5.647752769775403" id="-34542">
		<tag k="fixme" v="consider natural=peak for the most distinct mountains in the district" />
		<tag k="name" v="Nykane" />
		<tag k="natural" v="hill" />
		<tag k="place" v="locality" />
		<tag k="ssr:stedsnr" v="677313" />
	</node>
	<node lat="61.900994442631884" lon="4.917133331978543" id="-34543">
		<tag k="name" v="Lavikebruna" />
		<tag k="natural" v="cape" />
		<tag k="ssr:stedsnr" v="477419" />
	</node>
	<node lat="61.873536111785675" lon="5.4734305623059925" id="-34544">
		<tag k="fixme" v="consider natural=peak for the most distinct mountains in the district" />
		<tag k="name" v="Troda" />
		<tag k="natural" v="hill" />
		<tag k="place" v="locality" />
		<tag k="ssr:stedsnr" v="677363" />
	</node>
	<node lat="61.85512222496086" lon="5.525144453521666" id="-34545">
		<tag k="name" v="Uglestøylen" />
		<tag k="place" v="locality" />
		<tag k="ssr:stedsnr" v="677367" />
	</node>
	<node lat="61.757944446484444" lon="4.874174998125077" id="-34546">
		<tag k="fixme" v="consider seamark:type=rock or natural=shoal" />
		<tag k="name" v="Kongskjelda" />
		<tag k="place" v="islet" />
		<tag k="ssr:stedsnr" v="477865" />
	</node>
	<node lat="61.82152777814207" lon="5.116922219380242" id="-34547">
		<tag k="name" v="Kreksa" />
		<tag k="natural" v="shoal" />
		<tag k="place" v="locality" />
		<tag k="ssr:stedsnr" v="478459" />
	</node>
	<node lat="61.797599995942605" lon="4.913011114091642" id="-34548">
		<tag k="fixme" v="consider seamark:type=rock or natural=shoal" />
		<tag k="name" v="Fiskeskjeret" />
		<tag k="place" v="islet" />
		<tag k="ssr:stedsnr" v="478667" />
	</node>
	<node lat="61.88065000078275" lon="4.913486112194648" id="-34549">
		<tag k="name" v="Sørevikane" />
		<tag k="natural" v="bay" />
		<tag k="ssr:stedsnr" v="478860" />
	</node>
	<node lat="61.77376111553533" lon="4.861538889443615" id="-34550">
		<tag k="fixme" v="multiple name tags, choose one and add the other to alt_name; consider natural=peak for the most distinct mountains in the district" />
		<tag k="name" v="Ryggen;Støreroggjene" />
		<tag k="natural" v="hill" />
		<tag k="place" v="locality" />
		<tag k="ssr:stedsnr" v="677844" />
	</node>
	<node lat="61.824386112634855" lon="4.9477638855726935" id="-34551">
		<tag k="name" v="Løvikneset" />
		<tag k="natural" v="cape" />
		<tag k="ssr:stedsnr" v="677944" />
	</node>
	<node lat="61.820959230372026" lon="4.964870223651391" id="-34552">
		<tag k="fixme" v="consider place=hamlet" />
		<tag k="name" v="Eikeset" />
		<tag k="place" v="farm" />
		<tag k="ssr:stedsnr" v="677946" />
	</node>
	<node lat="61.76995582998788" lon="4.932515541981564" id="-34553">
		<tag k="man_made" v="quay" />
		<tag k="name" v="Smørhamn" />
		<tag k="place" v="locality" />
		<tag k="ssr:stedsnr" v="677859" />
	</node>
	<node lat="61.88136666371614" lon="5.028686109819813" id="-34554">
		<tag k="name" v="Oldeidsmyra" />
		<tag k="natural" v="wetland" />
		<tag k="ssr:stedsnr" v="677994" />
	</node>
	<node lat="61.89006985518819" lon="4.945244237849915" id="-34555">
		<tag k="name" v="Solheimsvatnet" />
		<tag k="natural" v="water" />
		<tag k="ssr:stedsnr" v="679000" />
	</node>
	<node lat="61.897894445300004" lon="4.989880547003786" id="-34556">
		<tag k="name" v="Fåkeila" />
		<tag k="natural" v="bay" />
		<tag k="ssr:stedsnr" v="678953" />
	</node>
	<node lat="61.89973180137281" lon="4.941987265382208" id="-34557">
		<tag k="alt_name" v="Litlesåta" />
		<tag k="fixme" v="consider natural=peak for the most distinct mountains in the district" />
		<tag k="name" v="Såta" />
		<tag k="natural" v="hill" />
		<tag k="place" v="locality" />
		<tag k="ssr:stedsnr" v="678955" />
	</node>
	<node lat="61.723194445088026" lon="4.9847444473641795" id="-34558">
		<tag k="alt_name" v="Sørbotten" />
		<tag k="fixme" v="consider place=hamlet" />
		<tag k="name" v="Botnane" />
		<tag k="place" v="village" />
		<tag k="ssr:stedsnr" v="493425" />
	</node>
	<node lat="61.733622223193734" lon="5.332777770096312" id="-34559">
		<tag k="fixme" v="consider natural=peak for the most distinct mountains in the district" />
		<tag k="name" v="Staven" />
		<tag k="natural" v="hill" />
		<tag k="place" v="locality" />
		<tag k="ssr:stedsnr" v="493840" />
	</node>
	<node lat="61.721786110832426" lon="5.124947226810613" id="-34560">
		<tag k="alt_name" v="Svora" />
		<tag k="name" v="Svorelva" />
		<tag k="ssr:stedsnr" v="494808" />
		<tag k="waterway" v="stream" />
	</node>
	<node lat="61.7581666664729" lon="5.130816672629308" id="-34561">
		<tag k="name" v="Leirvikneset" />
		<tag k="natural" v="cape" />
		<tag k="ssr:stedsnr" v="495083" />
	</node>
	<node lat="61.76335555575548" lon="5.168613896695641" id="-34562">
		<tag k="name" v="Holmaneset" />
		<tag k="natural" v="cape" />
		<tag k="ssr:stedsnr" v="495109" />
	</node>
	<node lat="61.795338890827644" lon="5.169108337736809" id="-34563">
		<tag k="name" v="Spekbenkvatnet" />
		<tag k="natural" v="water" />
		<tag k="ssr:stedsnr" v="495121" />
	</node>
	<node lat="61.8535305565934" lon="5.38716945096566" id="-34564">
		<tag k="alt_name" v="Årlokevatnet" />
		<tag k="name" v="Bjørnevatn" />
		<tag k="natural" v="water" />
		<tag k="ssr:stedsnr" v="495169" />
	</node>
	<node lat="61.856791666744925" lon="5.314683340255555" id="-34565">
		<tag k="name" v="Lofnes" />
		<tag k="natural" v="cape" />
		<tag k="ssr:stedsnr" v="495172" />
	</node>
	<node lat="61.84950278173112" lon="5.181441660877925" id="-34566">
		<tag k="name" v="Hesteviksætra" />
		<tag k="place" v="locality" />
		<tag k="ssr:stedsnr" v="495174" />
	</node>
	<node lat="61.8738972224723" lon="5.31983887983144" id="-34567">
		<tag k="name" v="Nybøen" />
		<tag k="place" v="farm" />
		<tag k="ssr:stedsnr" v="495184" />
	</node>
	<node lat="61.83741666448367" lon="5.704427780709673" id="-34568">
		<tag k="alt_name" v="Ålfotefjorden" />
		<tag k="bay" v="fjord" />
		<tag k="name" v="Ålfoten" />
		<tag k="natural" v="bay" />
		<tag k="ssr:stedsnr" v="495314" />
	</node>
	<node lat="61.82371111350776" lon="5.55659445318089" id="-34569">
		<tag k="name" v="Tverrgrova" />
		<tag k="ssr:stedsnr" v="495319" />
		<tag k="waterway" v="stream" />
	</node>
	<node lat="61.82368611190745" lon="5.706077784310193" id="-34570">
		<tag k="name" v="Svarthamrane" />
		<tag k="natural" v="hill" />
		<tag k="place" v="locality" />
		<tag k="ssr:stedsnr" v="495321" />
	</node>
	<node lat="61.82474444009951" lon="5.678577769623113" id="-34571">
		<tag k="name" v="Svinevika" />
		<tag k="natural" v="bay" />
		<tag k="ssr:stedsnr" v="495322" />
	</node>
	<node lat="61.832724996024865" lon="5.783516660009767" id="-34572">
		<tag k="name" v="Tennevatnet" />
		<tag k="natural" v="water" />
		<tag k="ssr:stedsnr" v="495325" />
	</node>
	<node lat="61.856669442621694" lon="5.696408331004367" id="-34573">
		<tag k="name" v="Glenneskaret" />
		<tag k="natural" v="valley" />
		<tag k="place" v="locality" />
		<tag k="ssr:stedsnr" v="495356" />
	</node>
	<node lat="61.85535833086852" lon="5.681125000763099" id="-34574">
		<tag k="fixme" v="consider natural=peak for the most distinct mountains in the district" />
		<tag k="name" v="Kårnyken" />
		<tag k="natural" v="hill" />
		<tag k="place" v="locality" />
		<tag k="ssr:stedsnr" v="495359" />
	</node>
	<node lat="61.83526944529981" lon="5.468380551180863" id="-34575">
		<tag k="name" v="Karlskarløken" />
		<tag k="natural" v="water" />
		<tag k="ssr:stedsnr" v="495363" />
	</node>
	<node lat="61.76216111044373" lon="4.930199994208714" id="-34576">
		<tag k="name" v="Fiskholmen" />
		<tag k="place" v="islet" />
		<tag k="ssr:stedsnr" v="495866" />
	</node>
	<node lat="61.86414444790105" lon="4.833977776147086" id="-34577">
		<tag k="name" v="Gyttane" />
		<tag k="natural" v="cape" />
		<tag k="ssr:stedsnr" v="495903" />
	</node>
	<node lat="61.86671666628435" lon="4.933180564230281" id="-34578">
		<tag k="name" v="Steinnipa" />
		<tag k="natural" v="hill" />
		<tag k="place" v="locality" />
		<tag k="ssr:stedsnr" v="495906" />
	</node>
	<node lat="61.84074444209261" lon="4.8559666664378645" id="-34579">
		<tag k="fixme" v="consider seamark:type=rock or natural=shoal" />
		<tag k="name" v="Vissholmskjera" />
		<tag k="place" v="islet" />
		<tag k="ssr:stedsnr" v="495910" />
	</node>
	<node lat="61.85046944737895" lon="5.053577784201972" id="-34580">
		<tag k="alt_name" v="Månen" />
		<tag k="fixme" v="consider natural=peak for the most distinct mountains in the district" />
		<tag k="name" v="Måna" />
		<tag k="natural" v="hill" />
		<tag k="place" v="locality" />
		<tag k="ssr:stedsnr" v="495911" />
	</node>
	<node lat="61.857134151087145" lon="4.992650823464954" id="-34581">
		<tag k="fixme" v="consider place=hamlet" />
		<tag k="name" v="Svarstad" />
		<tag k="place" v="farm" />
		<tag k="ssr:stedsnr" v="495914" />
	</node>
	<node lat="61.869619441184916" lon="5.0743527758477915" id="-34582">
		<tag k="name" v="Konsdalsvatnet" />
		<tag k="natural" v="water" />
		<tag k="ssr:stedsnr" v="495917" />
	</node>
	<node lat="61.848624999166695" lon="4.827569449456055" id="-34583">
		<tag k="name" v="Smøyholmen" />
		<tag k="place" v="islet" />
		<tag k="ssr:stedsnr" v="495918" />
	</node>
	<node lat="61.83309999857771" lon="5.023241660223556" id="-34584">
		<tag k="fixme" v="consider natural=peak for the most distinct mountains in the district" />
		<tag k="name" v="Nipene" />
		<tag k="natural" v="hill" />
		<tag k="place" v="locality" />
		<tag k="ssr:stedsnr" v="495925" />
	</node>
	<node lat="61.820388890403144" lon="4.789119443045149" id="-34585">
		<tag k="name" v="Rognfluene" />
		<tag k="natural" v="shoal" />
		<tag k="place" v="locality" />
		<tag k="ssr:stedsnr" v="495926" />
	</node>
	<node lat="61.9090888923589" lon="4.953794442405547" id="-34586">
		<tag k="alt_name" v="Skarvenykjen" />
		<tag k="name" v="Nyken" />
		<tag k="natural" v="cape" />
		<tag k="ssr:stedsnr" v="495978" />
	</node>
	<node lat="61.842438889383665" lon="5.057863886357453" id="-34587">
		<tag k="historic" v="shieling" />
		<tag k="name" v="Hesjedalen" />
		<tag k="place" v="isolated_dwelling" />
		<tag k="ssr:stedsnr" v="506010" />
	</node>
	<node lat="61.900602781639044" lon="5.541277778405433" id="-34589">
		<tag k="name" v="Hola" />
		<tag k="natural" v="bay" />
		<tag k="ssr:stedsnr" v="525909" />
	</node>
	<node lat="61.86111347278461" lon="5.017894614891141" id="-34590">
		<tag k="fixme" v="consider place=hamlet" />
		<tag k="name" v="Varpe" />
		<tag k="place" v="farm" />
		<tag k="ssr:stedsnr" v="535304" />
	</node>
	<node lat="61.814377773695675" lon="5.543886107480674" id="-34591">
		<tag k="name" v="Pottekråna" />
		<tag k="natural" v="valley" />
		<tag k="place" v="locality" />
		<tag k="ssr:stedsnr" v="535321" />
	</node>
	<node lat="61.849491671144115" lon="5.34736111686363" id="-34592">
		<tag k="name" v="Tjukkeneset" />
		<tag k="natural" v="cape" />
		<tag k="ssr:stedsnr" v="535370" />
	</node>
	<node lat="61.85072222145916" lon="5.369041674569643" id="-34593">
		<tag k="name" v="Sjølvskot" />
		<tag k="natural" v="slope" />
		<tag k="place" v="locality" />
		<tag k="ssr:stedsnr" v="535375" />
	</node>
	<node lat="61.76752778220587" lon="4.850558339507007" id="-34594">
		<tag k="name" v="Rognholmane" />
		<tag k="place" v="islet" />
		<tag k="ssr:stedsnr" v="535378" />
	</node>
</osm>
