<?xml version="1.0" encoding="UTF-8"?>
<osm version="0.6" generator="osmapis">
	<node lat="61.729186110795375" lon="4.985855555691197" id="-79644">
		<tag k="name" v="Sletta" />
		<tag k="place" v="farm" />
		<tag k="ssr:stedsnr" v="8470" />
	</node>
	<node lat="61.83256666771184" lon="5.550508324415027" id="-79740">
		<tag k="name" v="Litlevassbakken" />
		<tag k="place" v="locality" />
		<tag k="ssr:stedsnr" v="50305" />
	</node>
	<node lat="61.77021340709038" lon="4.883849333628142" id="-79746">
		<tag k="alt_name" v="Frøyen ytre;Utigarden" />
		<tag k="fixme" v="consider place=hamlet" />
		<tag k="name" v="Ytre Frøyen" />
		<tag k="place" v="farm" />
		<tag k="ssr:stedsnr" v="50377" />
	</node>
	<node lat="61.77849722180255" lon="4.898830551243859" id="-79747">
		<tag k="fixme" v="consider place=hamlet" />
		<tag k="name" v="Frøynes" />
		<tag k="place" v="farm" />
		<tag k="ssr:stedsnr" v="50380" />
	</node>
	<node lat="61.86129444462247" lon="5.322180561091758" id="-79753">
		<tag k="name" v="Midtbø" />
		<tag k="place" v="farm" />
		<tag k="ssr:stedsnr" v="50425" />
	</node>
	<node lat="61.712683333812016" lon="5.0919527702967375" id="-79766">
		<tag k="historic" v="shieling" />
		<tag k="name" v="Sagebøstølen" />
		<tag k="place" v="isolated_dwelling" />
		<tag k="ssr:stedsnr" v="50875" />
	</node>
	<node lat="61.736797217996426" lon="5.06475554871125" id="-79791">
		<tag k="name" v="Vollane" />
		<tag k="place" v="locality" />
		<tag k="ssr:stedsnr" v="69500" />
	</node>
	<node lat="61.83403333676264" lon="5.592794445752772" id="-79825">
		<tag k="name" v="Vassbakken" />
		<tag k="place" v="locality" />
		<tag k="ssr:stedsnr" v="111179" />
	</node>
	<node lat="61.83218888533083" lon="5.575074998886053" id="-79826">
		<tag k="name" v="Vaulen" />
		<tag k="place" v="locality" />
		<tag k="ssr:stedsnr" v="111180" />
	</node>
	<node lat="61.8583583355994" lon="5.00358055833842" id="-79827">
		<tag k="name" v="Varpe" />
		<tag k="place" v="farm" />
		<tag k="ssr:stedsnr" v="111302" />
	</node>
	<node lat="61.72009722639911" lon="5.227899991973855" id="-79874">
		<tag k="name" v="Reset" />
		<tag k="place" v="isolated_dwelling" />
		<tag k="ssr:stedsnr" v="251849" />
	</node>
	<node lat="61.720283337661755" lon="5.10522500404721" id="-79875">
		<tag k="name" v="Sagebø" />
		<tag k="place" v="farm" />
		<tag k="ssr:stedsnr" v="251860" />
	</node>
	<node lat="61.88287777874732" lon="5.454383336986152" id="-79880">
		<tag k="historic" v="shieling" />
		<tag k="name" v="Skitmunnen" />
		<tag k="place" v="isolated_dwelling" />
		<tag k="ssr:stedsnr" v="252137" />
	</node>
	<node lat="61.88323055313738" lon="5.401469438537956" id="-79881">
		<tag k="historic" v="shieling" />
		<tag k="name" v="Skjervane" />
		<tag k="place" v="isolated_dwelling" />
		<tag k="ssr:stedsnr" v="252141" />
	</node>
	<node lat="61.88670833208938" lon="5.560152770945978" id="-79889">
		<tag k="name" v="Bakkelia" />
		<tag k="place" v="farm" />
		<tag k="ssr:stedsnr" v="252389" />
	</node>
	<node lat="61.800722221902014" lon="5.292411111944758" id="-79898">
		<tag k="name" v="Vingedalssætra" />
		<tag k="place" v="locality" />
		<tag k="ssr:stedsnr" v="131110" />
	</node>
	<node lat="61.89024999965001" lon="5.440561117683978" id="-79906">
		<tag k="alt_name" v="Dalesetra" />
		<tag k="historic" v="shieling" />
		<tag k="name" v="Dalesætrane" />
		<tag k="place" v="isolated_dwelling" />
		<tag k="ssr:stedsnr" v="131185" />
	</node>
	<node lat="61.76601215828269" lon="5.122841053636307" id="-79913">
		<tag k="fixme" v="consider place=hamlet" />
		<tag k="name" v="Nesbø" />
		<tag k="place" v="farm" />
		<tag k="ssr:stedsnr" v="131091" />
	</node>
	<node lat="61.75684530632138" lon="5.059870156049981" id="-79924">
		<tag k="alt_name" v="Gulestø" />
		<tag k="fixme" v="consider place=hamlet" />
		<tag k="name" v="Gulestøa" />
		<tag k="place" v="farm" />
		<tag k="ssr:stedsnr" v="252840" />
	</node>
	<node lat="61.86029999868196" lon="5.026333338521239" id="-79928">
		<tag k="name" v="Klungreset" />
		<tag k="place" v="farm" />
		<tag k="ssr:stedsnr" v="252883" />
	</node>
	<node lat="61.76366944802594" lon="5.106488894265289" id="-79932">
		<tag k="name" v="Løypedal" />
		<tag k="place" v="farm" />
		<tag k="ssr:stedsnr" v="253087" />
	</node>
	<node lat="61.87812777864521" lon="5.459313886429351" id="-79938">
		<tag k="name" v="Rinden" />
		<tag k="place" v="locality" />
		<tag k="ssr:stedsnr" v="253193" />
	</node>
	<node lat="61.8590638878828" lon="5.390455553272283" id="-79939">
		<tag k="alt_name" v="Setra" />
		<tag k="name" v="Sætra" />
		<tag k="place" v="locality" />
		<tag k="ssr:stedsnr" v="253171" />
	</node>
	<node lat="61.78501666253026" lon="4.933933340837747" id="-79947">
		<tag k="alt_name" v="Nybø" />
		<tag k="name" v="Nybøen" />
		<tag k="place" v="farm" />
		<tag k="ssr:stedsnr" v="253841" />
	</node>
	<node lat="61.80856944172028" lon="4.848497215847232" id="-79955">
		<tag k="name" v="Sørestø" />
		<tag k="place" v="isolated_dwelling" />
		<tag k="ssr:stedsnr" v="171060" />
	</node>
	<node lat="61.88889721848433" lon="5.537088882099983" id="-79969">
		<tag k="name" v="Nybø" />
		<tag k="place" v="farm" />
		<tag k="ssr:stedsnr" v="171609" />
	</node>
	<node lat="61.87855277883143" lon="5.714992348347104" id="-79976">
		<tag k="name" v="Ytre Isane" />
		<tag k="place" v="farm" />
		<tag k="ssr:stedsnr" v="171805" />
	</node>
	<node lat="61.76625277375509" lon="5.290369443023149" id="-79989">
		<tag k="name" v="Kvelve" />
		<tag k="place" v="farm" />
		<tag k="ssr:stedsnr" v="172026" />
	</node>
	<node lat="61.77338888542159" lon="5.296238891655968" id="-79994">
		<tag k="building" v="industrial" />
		<tag k="industrial" v="factory" />
		<tag k="name" v="Smelteverk" />
		<tag k="ssr:stedsnr" v="174204" />
	</node>
	<node lat="61.7070166638006" lon="5.11652223030362" id="-79999">
		<tag k="name" v="Sørgulen" />
		<tag k="place" v="farm" />
		<tag k="ssr:stedsnr" v="174706" />
	</node>
	<node lat="61.73912176629042" lon="5.176179436044142" id="-80011">
		<tag k="fixme" v="consider place=hamlet" />
		<tag k="name" v="Sandvik" />
		<tag k="place" v="farm" />
		<tag k="ssr:stedsnr" v="190863" />
	</node>
	<node lat="61.74118425844001" lon="5.118559200191625" id="-80067">
		<tag k="fixme" v="consider place=hamlet" />
		<tag k="name" v="Mulehamn" />
		<tag k="place" v="farm" />
		<tag k="ssr:stedsnr" v="450679" />
	</node>
	<node lat="61.77638394068328" lon="4.895970162492072" id="-80105">
		<tag k="alt_name" v="Frøyen øvre" />
		<tag k="fixme" v="consider place=hamlet" />
		<tag k="name" v="Øvre Frøyen" />
		<tag k="place" v="farm" />
		<tag k="ssr:stedsnr" v="293424" />
	</node>
	<node lat="61.76271666240227" lon="5.27322778287827" id="-80124">
		<tag k="name" v="Breivik" />
		<tag k="place" v="isolated_dwelling" />
		<tag k="ssr:stedsnr" v="295185" />
	</node>
	<node lat="61.84842777595174" lon="5.147791669908631" id="-80138">
		<tag k="name" v="Kleiva" />
		<tag k="place" v="locality" />
		<tag k="ssr:stedsnr" v="313172" />
	</node>
	<node lat="61.900497217896834" lon="5.460477774215701" id="-80141">
		<tag k="historic" v="shieling" />
		<tag k="name" v="Endalsætrane" />
		<tag k="place" v="isolated_dwelling" />
		<tag k="ssr:stedsnr" v="313203" />
	</node>
	<node lat="61.84130833388845" lon="4.9652527847702075" id="-80147">
		<tag k="alt_name" v="Hauge, yt;Hauge" />
		<tag k="name" v="Ytre Hauge" />
		<tag k="place" v="village" />
		<tag k="ssr:stedsnr" v="313928" />
	</node>
	<node lat="61.813725886814666" lon="4.964680415451255" id="-80148">
		<tag k="fixme" v="consider place=hamlet" />
		<tag k="name" v="Ryland" />
		<tag k="place" v="farm" />
		<tag k="ssr:stedsnr" v="313935" />
	</node>
	<node lat="61.83289444889647" lon="5.5668083314364045" id="-80165">
		<tag k="name" v="Vaulegrobakken" />
		<tag k="place" v="locality" />
		<tag k="ssr:stedsnr" v="353209" />
	</node>
	<node lat="61.87375000244792" lon="5.3637361158042784" id="-80183">
		<tag k="name" v="Plassen" />
		<tag k="place" v="locality" />
		<tag k="ssr:stedsnr" v="474455" />
	</node>
	<node lat="61.83994166326489" lon="5.760041663542945" id="-80190">
		<tag k="name" v="Askevikteigen" />
		<tag k="place" v="locality" />
		<tag k="ssr:stedsnr" v="353762" />
	</node>
	<node lat="61.75315555342628" lon="5.343308333965796" id="-80194">
		<tag k="name" v="Tåene" />
		<tag k="place" v="isolated_dwelling" />
		<tag k="ssr:stedsnr" v="353902" />
	</node>
	<node lat="61.887749996533884" lon="5.279580549807391" id="-80247">
		<tag k="name" v="Plassen" />
		<tag k="place" v="farm" />
		<tag k="ssr:stedsnr" v="475584" />
	</node>
	<node lat="61.90194426695643" lon="5.537959275387813" id="-80301">
		<tag k="alt_name" v="Daviknes" />
		<tag k="fixme" v="consider place=hamlet" />
		<tag k="name" v="Davikneset" />
		<tag k="place" v="farm" />
		<tag k="ssr:stedsnr" v="373415" />
	</node>
	<node lat="61.774558991606334" lon="5.282750989344535" id="-80303">
		<tag k="fixme" v="consider place=hamlet" />
		<tag k="name" v="Sande" />
		<tag k="place" v="farm" />
		<tag k="ssr:stedsnr" v="374098" />
	</node>
	<node lat="61.812362362175165" lon="5.073242425598715" id="-80311">
		<tag k="fixme" v="consider place=hamlet" />
		<tag k="name" v="Skarstein" />
		<tag k="place" v="farm" />
		<tag k="ssr:stedsnr" v="374839" />
	</node>
	<node lat="61.8896483986086" lon="4.927106811895448" id="-80317">
		<tag k="fixme" v="consider place=hamlet" />
		<tag k="name" v="Solheim" />
		<tag k="place" v="farm" />
		<tag k="ssr:stedsnr" v="374999" />
	</node>
	<node lat="61.824713890608315" lon="5.6353833363262105" id="-80322">
		<tag k="name" v="Litledalen" />
		<tag k="place" v="locality" />
		<tag k="ssr:stedsnr" v="414135" />
	</node>
	<node lat="61.82582329647754" lon="5.111482956249659" id="-80365">
		<tag k="fixme" v="consider place=hamlet" />
		<tag k="name" v="Ytre Hauge" />
		<tag k="place" v="farm" />
		<tag k="ssr:stedsnr" v="418435" />
	</node>
	<node lat="61.715658337662276" lon="5.252533340989048" id="-80374">
		<tag k="name" v="Storeteigen" />
		<tag k="place" v="locality" />
		<tag k="ssr:stedsnr" v="433826" />
	</node>
	<node lat="61.846696735552186" lon="5.7209761641746315" id="-80380">
		<tag k="fixme" v="consider place=hamlet" />
		<tag k="name" v="Vik" />
		<tag k="place" v="farm" />
		<tag k="ssr:stedsnr" v="434319" />
	</node>
	<node lat="61.831675062029255" lon="5.666877345025451" id="-80382">
		<tag k="fixme" v="consider place=hamlet" />
		<tag k="name" v="Sigdestad" />
		<tag k="place" v="farm" />
		<tag k="ssr:stedsnr" v="434328" />
	</node>
	<node lat="61.787880551571654" lon="5.270877778489709" id="-80387">
		<tag k="name" v="Sandesætra" />
		<tag k="place" v="locality" />
		<tag k="ssr:stedsnr" v="435106" />
	</node>
	<node lat="61.777222223896835" lon="5.164136111912449" id="-80388">
		<tag k="alt_name" v="Dyrstadsetra" />
		<tag k="historic" v="shieling" />
		<tag k="name" v="Dyrstadsætra" />
		<tag k="place" v="isolated_dwelling" />
		<tag k="ssr:stedsnr" v="435112" />
	</node>
	<node lat="61.885605551972255" lon="5.425475006259418" id="-80394">
		<tag k="name" v="Fossen" />
		<tag k="place" v="locality" />
		<tag k="ssr:stedsnr" v="435218" />
	</node>
	<node lat="61.80650882777881" lon="4.9117481553215745" id="-80437">
		<tag k="fixme" v="consider place=hamlet" />
		<tag k="name" v="Bremnes" />
		<tag k="place" v="farm" />
		<tag k="ssr:stedsnr" v="475021" />
	</node>
	<node lat="61.8815694413013" lon="4.920630546798354" id="-80438">
		<tag k="fixme" v="consider place=hamlet" />
		<tag k="name" v="Vetvik" />
		<tag k="place" v="farm" />
		<tag k="ssr:stedsnr" v="475110" />
	</node>
	<node lat="61.836091665956225" lon="5.641702772977768" id="-80440">
		<tag k="name" v="Vollen" />
		<tag k="place" v="locality" />
		<tag k="ssr:stedsnr" v="475225" />
	</node>
	<node lat="61.87735341110653" lon="5.2214245428088" id="-80468">
		<tag k="fixme" v="consider place=hamlet" />
		<tag k="name" v="Hamnen" />
		<tag k="place" v="farm" />
		<tag k="ssr:stedsnr" v="677173" />
	</node>
	<node lat="61.820959230372026" lon="4.964870223651391" id="-80481">
		<tag k="fixme" v="consider place=hamlet" />
		<tag k="name" v="Eikeset" />
		<tag k="place" v="farm" />
		<tag k="ssr:stedsnr" v="677946" />
	</node>
	<node lat="61.723194445088026" lon="4.9847444473641795" id="-80487">
		<tag k="alt_name" v="Sørbotten" />
		<tag k="fixme" v="consider place=hamlet" />
		<tag k="name" v="Botnane" />
		<tag k="place" v="village" />
		<tag k="ssr:stedsnr" v="493425" />
	</node>
	<node lat="61.84950278173112" lon="5.181441660877925" id="-80495">
		<tag k="name" v="Hesteviksætra" />
		<tag k="place" v="locality" />
		<tag k="ssr:stedsnr" v="495174" />
	</node>
	<node lat="61.8738972224723" lon="5.31983887983144" id="-80496">
		<tag k="name" v="Nybøen" />
		<tag k="place" v="farm" />
		<tag k="ssr:stedsnr" v="495184" />
	</node>
	<node lat="61.857134151087145" lon="4.992650823464954" id="-80510">
		<tag k="fixme" v="consider place=hamlet" />
		<tag k="name" v="Svarstad" />
		<tag k="place" v="farm" />
		<tag k="ssr:stedsnr" v="495914" />
	</node>
	<node lat="61.86111347278461" lon="5.017894614891141" id="-80519">
		<tag k="fixme" v="consider place=hamlet" />
		<tag k="name" v="Varpe" />
		<tag k="place" v="farm" />
		<tag k="ssr:stedsnr" v="535304" />
	</node>
	<node lat="61.83689444640256" lon="4.9291722187907006" id="-80548">
		<tag k="name" v="Vellene" />
		<tag k="place" v="farm" />
		<tag k="ssr:stedsnr" v="536006" />
	</node>
	<node lat="61.90558293847231" lon="5.480978250948192" id="-80575">
		<tag k="fixme" v="consider place=hamlet" />
		<tag k="name" v="Endal" />
		<tag k="place" v="farm" />
		<tag k="ssr:stedsnr" v="555402" />
	</node>
	<node lat="61.90598087337348" lon="5.501578177392795" id="-80576">
		<tag k="fixme" v="consider place=hamlet" />
		<tag k="name" v="Askeland" />
		<tag k="place" v="farm" />
		<tag k="ssr:stedsnr" v="555404" />
	</node>
	<node lat="61.83321388915409" lon="4.9979305525828135" id="-80584">
		<tag k="name" v="Naustdal" />
		<tag k="place" v="farm" />
		<tag k="ssr:stedsnr" v="556907" />
	</node>
	<node lat="61.80820430897361" lon="4.848131667604825" id="-80591">
		<tag k="fixme" v="consider place=hamlet" />
		<tag k="name" v="Nesje" />
		<tag k="place" v="farm" />
		<tag k="ssr:stedsnr" v="571947" />
	</node>
	<node lat="61.84221808548499" lon="4.969462045857526" id="-80592">
		<tag k="fixme" v="consider place=hamlet" />
		<tag k="name" v="Hauge" />
		<tag k="place" v="farm" />
		<tag k="ssr:stedsnr" v="693936" />
	</node>
	<node lat="61.87787500210376" lon="5.081102774656459" id="-80627">
		<tag k="name" v="Melsnes" />
		<tag k="place" v="isolated_dwelling" />
		<tag k="ssr:stedsnr" v="599318" />
	</node>
	<node lat="61.83559166273717" lon="5.343636115902839" id="-80641">
		<tag k="name" v="Jorda" />
		<tag k="place" v="locality" />
		<tag k="ssr:stedsnr" v="616118" />
	</node>
	<node lat="61.830790180664835" lon="5.117379507567169" id="-80643">
		<tag k="fixme" v="consider place=hamlet" />
		<tag k="name" v="Berle" />
		<tag k="place" v="farm" />
		<tag k="ssr:stedsnr" v="616123" />
	</node>
	<node lat="61.88441110960131" lon="5.456644435333237" id="-80648">
		<tag k="historic" v="shieling" />
		<tag k="name" v="Daviknessætra" />
		<tag k="place" v="isolated_dwelling" />
		<tag k="ssr:stedsnr" v="616157" />
	</node>
	<node lat="61.87673055429472" lon="5.338116666116719" id="-80649">
		<tag k="name" v="Rabben" />
		<tag k="place" v="farm" />
		<tag k="ssr:stedsnr" v="616159" />
	</node>
	<node lat="61.868719447016545" lon="5.492425008613989" id="-80654">
		<tag k="historic" v="shieling" />
		<tag k="name" v="Kvitsanden" />
		<tag k="place" v="isolated_dwelling" />
		<tag k="ssr:stedsnr" v="616392" />
	</node>
	<node lat="61.81374474026346" lon="4.9470083303404335" id="-80749">
		<tag k="fixme" v="consider place=hamlet" />
		<tag k="name" v="Myra" />
		<tag k="place" v="farm" />
		<tag k="ssr:stedsnr" v="677934" />
	</node>
	<node lat="61.85234166983735" lon="5.3748749937785325" id="-80768">
		<tag k="historic" v="shieling" />
		<tag k="name" v="Mjånesstølen" />
		<tag k="place" v="isolated_dwelling" />
		<tag k="ssr:stedsnr" v="717383" />
	</node>
	<node lat="61.84670165882039" lon="5.328770903934016" id="-80813">
		<tag k="fixme" v="consider place=hamlet" />
		<tag k="name" v="Bortneskår" />
		<tag k="old_name" v="Bortneskora" />
		<tag k="place" v="farm" />
		<tag k="ssr:stedsnr" v="720732" />
	</node>
	<node lat="61.88739651914246" lon="5.555659022623093" id="-80847">
		<tag k="fixme" v="consider place=hamlet" />
		<tag k="name" v="Indre Davik" />
		<tag k="place" v="farm" />
		<tag k="ssr:stedsnr" v="900585" />
	</node>
	<node lat="61.87763387460615" lon="5.718214171541435" id="-80864">
		<tag k="name" v="Kolmila" />
		<tag k="place" v="locality" />
		<tag k="ssr:stedsnr" v="900792" />
	</node>
	<node lat="61.88401666766118" lon="5.6887194358664885" id="-80865">
		<tag k="name" v="Stranda" />
		<tag k="place" v="locality" />
		<tag k="ssr:stedsnr" v="900796" />
	</node>
	<node lat="61.71616736153074" lon="5.165294611743714" id="-80880">
		<tag k="alt_name" v="Vindspoll" />
		<tag k="fixme" v="consider place=hamlet" />
		<tag k="name" v="Vindspollen" />
		<tag k="place" v="farm" />
		<tag k="ssr:stedsnr" v="737821" />
	</node>
	<node lat="61.87223055540901" lon="5.315052771587531" id="-80886">
		<tag k="name" v="Strand" />
		<tag k="place" v="farm" />
		<tag k="ssr:stedsnr" v="738171" />
	</node>
	<node lat="61.861269448692084" lon="5.319180555317235" id="-80924">
		<tag k="name" v="Midtbø" />
		<tag k="place" v="farm" />
		<tag k="ssr:stedsnr" v="778592" />
	</node>
	<node lat="61.83017778100359" lon="5.126299995338739" id="-80970">
		<tag k="name" v="Hauge" />
		<tag k="place" v="farm" />
		<tag k="ssr:stedsnr" v="799144" />
	</node>
	<node lat="61.77901666290534" lon="5.1272055536070775" id="-80980">
		<tag k="alt_name" v="Ospenessætra" />
		<tag k="historic" v="shieling" />
		<tag k="name" v="Dalestølen" />
		<tag k="place" v="isolated_dwelling" />
		<tag k="ssr:stedsnr" v="799090" />
	</node>
	<node lat="61.89056110935266" lon="5.458672223972909" id="-80982">
		<tag k="alt_name" v="Gamlesetra" />
		<tag k="historic" v="shieling" />
		<tag k="name" v="Gamlesætra" />
		<tag k="place" v="isolated_dwelling" />
		<tag k="ssr:stedsnr" v="799203" />
	</node>
	<node lat="61.8968972220583" lon="5.426288896078141" id="-80984">
		<tag k="alt_name" v="Eldesetra" />
		<tag k="historic" v="shieling" />
		<tag k="name" v="Eldesætra" />
		<tag k="place" v="isolated_dwelling" />
		<tag k="ssr:stedsnr" v="799216" />
	</node>
	<node lat="61.83789883524398" lon="5.0086210632187145" id="-80991">
		<tag k="fixme" v="consider place=hamlet" />
		<tag k="name" v="Førde" />
		<tag k="place" v="farm" />
		<tag k="ssr:stedsnr" v="799934" />
	</node>
	<node lat="61.80683888588555" lon="4.912636114977912" id="-80992">
		<tag k="name" v="Novelandet" />
		<tag k="place" v="hamlet" />
		<tag k="ssr:stedsnr" v="799943" />
	</node>
	<node lat="61.85021266328887" lon="5.34691064177561" id="-81000">
		<tag k="fixme" v="consider place=hamlet" />
		<tag k="name" v="Mjånes" />
		<tag k="place" v="farm" />
		<tag k="ssr:stedsnr" v="813686" />
	</node>
	<node lat="61.856693188713194" lon="5.322471840049984" id="-81001">
		<tag k="name" v="Lofnes" />
		<tag k="place" v="farm" />
		<tag k="ssr:stedsnr" v="813710" />
	</node>
	<node lat="61.70517920378158" lon="5.10800596523802" id="-81005">
		<tag k="fixme" v="consider place=hamlet" />
		<tag k="name" v="Sørgulen" />
		<tag k="place" v="farm" />
		<tag k="ssr:stedsnr" v="919858" />
	</node>
	<node lat="61.76626666772628" lon="4.875280555566454" id="-81026">
		<tag k="name" v="Kalvåg" />
		<tag k="place" v="village" />
		<tag k="ssr:stedsnr" v="920864" />
	</node>
	<node lat="61.83081667035362" lon="4.989561110779087" id="-81029">
		<tag k="name" v="Fossheim" />
		<tag k="place" v="farm" />
		<tag k="ssr:stedsnr" v="920937" />
	</node>
	<node lat="61.81615803220259" lon="5.636705400790353" id="-81033">
		<tag k="fixme" v="consider place=hamlet" />
		<tag k="name" v="Førde" />
		<tag k="place" v="farm" />
		<tag k="ssr:stedsnr" v="839135" />
	</node>
	<node lat="61.843863892739506" lon="5.6830666646013" id="-81039">
		<tag k="name" v="Einehaugen" />
		<tag k="place" v="locality" />
		<tag k="ssr:stedsnr" v="839240" />
	</node>
	<node lat="61.88288610868148" lon="4.931383325730689" id="-81066">
		<tag k="name" v="Vollen" />
		<tag k="place" v="isolated_dwelling" />
		<tag k="ssr:stedsnr" v="840118" />
	</node>
	<node lat="61.680352773671835" lon="5.097797228024588" id="-81094">
		<tag k="name" v="Langhamrane" />
		<tag k="place" v="locality" />
		<tag k="ssr:stedsnr" v="858873" />
	</node>
	<node lat="61.89158888640544" lon="5.531611118155784" id="-81096">
		<tag k="fixme" v="consider place=hamlet" />
		<tag k="name" v="Davik" />
		<tag k="place" v="village" />
		<tag k="ssr:stedsnr" v="859373" />
	</node>
	<node lat="61.8463406275817" lon="5.384483102480954" id="-81106">
		<tag k="fixme" v="consider place=hamlet" />
		<tag k="name" v="Bortnen" />
		<tag k="place" v="farm" />
		<tag k="ssr:stedsnr" v="860160" />
	</node>
	<node lat="61.75800555808667" lon="5.0496916673365755" id="-81164">
		<tag k="name" v="Stovedalen" />
		<tag k="place" v="locality" />
		<tag k="ssr:stedsnr" v="900920" />
	</node>
	<node lat="61.86757777619358" lon="5.378319452074718" id="-81182">
		<tag k="name" v="Raudehaugen" />
		<tag k="place" v="locality" />
		<tag k="ssr:stedsnr" v="920155" />
	</node>
	<node lat="61.877397221987046" lon="5.715052786659308" id="-81184">
		<tag k="fixme" v="consider place=hamlet" />
		<tag k="name" v="Isane" />
		<tag k="place" v="village" />
		<tag k="ssr:stedsnr" v="920348" />
	</node>
	<node lat="61.89026520881146" lon="5.645338391774549" id="-81185">
		<tag k="fixme" v="consider place=hamlet" />
		<tag k="name" v="Dombestein" />
		<tag k="place" v="village" />
		<tag k="ssr:stedsnr" v="920395" />
	</node>
	<node lat="61.78561666888199" lon="4.888647224548618" id="-81190">
		<tag k="name" v="Stranda" />
		<tag k="place" v="farm" />
		<tag k="ssr:stedsnr" v="920849" />
	</node>
	<node lat="61.83951873677236" lon="4.949059564818785" id="-81241">
		<tag k="fixme" v="consider place=hamlet" />
		<tag k="name" v="Torvanger" />
		<tag k="place" v="farm" />
		<tag k="ssr:stedsnr" v="973811" />
	</node>
	<node lat="61.83810266612467" lon="4.959256252994123" id="-81242">
		<tag k="fixme" v="consider place=hamlet" />
		<tag k="name" v="Holmen" />
		<tag k="place" v="farm" />
		<tag k="ssr:stedsnr" v="973812" />
	</node>
	<node lat="61.89473055501111" lon="5.527708324586362" id="-81270">
		<tag k="name" v="Bøen" />
		<tag k="place" v="farm" />
		<tag k="ssr:stedsnr" v="10403" />
	</node>
	<node lat="61.80105556004229" lon="4.841166666257182" id="-81277">
		<tag k="name" v="Plassen" />
		<tag k="place" v="locality" />
		<tag k="ssr:stedsnr" v="10928" />
	</node>
	<node lat="61.85788889115883" lon="5.1470888972877" id="-81310">
		<tag k="name" v="Lisetfjøsane" />
		<tag k="place" v="locality" />
		<tag k="ssr:stedsnr" v="50583" />
	</node>
	<node lat="61.86059166656981" lon="5.311258324499639" id="-81326">
		<tag k="fixme" v="consider place=hamlet" />
		<tag k="name" v="Leirgulen" />
		<tag k="place" v="village" />
		<tag k="ssr:stedsnr" v="50562" />
	</node>
	<node lat="61.89853889044067" lon="5.536086106898062" id="-81335">
		<tag k="name" v="Flata" />
		<tag k="place" v="farm" />
		<tag k="ssr:stedsnr" v="50988" />
	</node>
	<node lat="61.77228333154095" lon="4.89187500624743" id="-81350">
		<tag k="name" v="Frøya" />
		<tag k="place" v="hamlet" />
		<tag k="ssr:stedsnr" v="54391" />
	</node>
	<node lat="61.714661111778554" lon="5.239113893253313" id="-81358">
		<tag k="name" v="Litleteigen" />
		<tag k="place" v="locality" />
		<tag k="ssr:stedsnr" v="69846" />
	</node>
	<node lat="61.83366110793241" lon="5.580619437323638" id="-81364">
		<tag k="historic" v="shieling" />
		<tag k="name" v="Myklebustsætra" />
		<tag k="place" v="isolated_dwelling" />
		<tag k="ssr:stedsnr" v="70345" />
	</node>
	<node lat="61.81910277680642" lon="5.306477783296858" id="-81365">
		<tag k="alt_name" v="Vingesetra" />
		<tag k="historic" v="shieling" />
		<tag k="name" v="Vingesætra" />
		<tag k="place" v="isolated_dwelling" />
		<tag k="ssr:stedsnr" v="71132" />
	</node>
	<node lat="61.76361388837536" lon="5.103594447757682" id="-81371">
		<tag k="name" v="Hatledal" />
		<tag k="place" v="locality" />
		<tag k="ssr:stedsnr" v="71083" />
	</node>
	<node lat="61.773141648263916" lon="5.172832271762403" id="-81372">
		<tag k="fixme" v="consider place=hamlet" />
		<tag k="name" v="Dyrstad" />
		<tag k="place" v="farm" />
		<tag k="ssr:stedsnr" v="71086" />
	</node>
	<node lat="61.79412499728592" lon="5.295411120794029" id="-81376">
		<tag k="name" v="Sandesætra" />
		<tag k="place" v="locality" />
		<tag k="ssr:stedsnr" v="71106" />
	</node>
	<node lat="61.87001111508138" lon="5.17438055095055" id="-81378">
		<tag k="alt_name" v="Klubbesetra" />
		<tag k="historic" v="shieling" />
		<tag k="name" v="Klubbesætra" />
		<tag k="place" v="isolated_dwelling" />
		<tag k="ssr:stedsnr" v="71197" />
	</node>
	<node lat="61.85336388543422" lon="5.4351055593922" id="-81381">
		<tag k="historic" v="shieling" />
		<tag k="name" v="Nyken" />
		<tag k="place" v="isolated_dwelling" />
		<tag k="ssr:stedsnr" v="71165" />
	</node>
	<node lat="61.85824999820563" lon="5.573236108303424" id="-81382">
		<tag k="name" v="Bortnedalsmunnen" />
		<tag k="place" v="locality" />
		<tag k="ssr:stedsnr" v="71383" />
	</node>
	<node lat="61.71819444563109" lon="5.0041805574380325" id="-81398">
		<tag k="name" v="Skjerven" />
		<tag k="place" v="locality" />
		<tag k="ssr:stedsnr" v="110950" />
	</node>
	<node lat="61.89905833727288" lon="5.530924995971921" id="-81415">
		<tag k="name" v="Rabben" />
		<tag k="place" v="locality" />
		<tag k="ssr:stedsnr" v="111559" />
	</node>
	<node lat="61.89297222160202" lon="5.439586116670743" id="-81419">
		<tag k="name" v="Skarsliflata" />
		<tag k="place" v="isolated_dwelling" />
		<tag k="ssr:stedsnr" v="111567" />
	</node>
	<node lat="61.71842777410664" lon="5.12066944192208" id="-81425">
		<tag k="name" v="Øygard" />
		<tag k="place" v="locality" />
		<tag k="ssr:stedsnr" v="111885" />
	</node>
	<node lat="61.83788007621773" lon="4.988656846494805" id="-81456">
		<tag k="name" v="Struen" />
		<tag k="place" v="farm" />
		<tag k="ssr:stedsnr" v="113757" />
	</node>
	<node lat="61.875397221058584" lon="5.222058337524609" id="-81466">
		<tag k="name" v="Skatestraumen" />
		<tag k="place" v="farm" />
		<tag k="ssr:stedsnr" v="114924" />
	</node>
	<node lat="61.8387964924826" lon="4.904564480418495" id="-81471">
		<tag k="name" v="Grotle" />
		<tag k="place" v="hamlet" />
		<tag k="ssr:stedsnr" v="121111" />
	</node>
	<node lat="61.760247224365166" lon="5.133850004708151" id="-81474">
		<tag k="name" v="Roland" />
		<tag k="place" v="farm" />
		<tag k="ssr:stedsnr" v="131068" />
	</node>
	<node lat="61.89824722620762" lon="5.53192500763688" id="-81504">
		<tag k="name" v="Bakken" />
		<tag k="place" v="farm" />
		<tag k="ssr:stedsnr" v="160923" />
	</node>
	<node lat="61.88170277822199" lon="5.317433341134399" id="-81531">
		<tag k="name" v="Vaulen" />
		<tag k="place" v="farm" />
		<tag k="ssr:stedsnr" v="171623" />
	</node>
	<node lat="61.72455000004482" lon="5.25894444894936" id="-81545">
		<tag k="historic" v="shieling" />
		<tag k="name" v="Indrehussetra" />
		<tag k="place" v="isolated_dwelling" />
		<tag k="ssr:stedsnr" v="171932" />
	</node>
	<node lat="61.70929722117401" lon="5.116200006472144" id="-81552">
		<tag k="name" v="Gamlehjellen" />
		<tag k="place" v="locality" />
		<tag k="ssr:stedsnr" v="171892" />
	</node>
	<node lat="61.77476110923313" lon="5.303894448246958" id="-81568">
		<tag k="name" v="Borgestad" />
		<tag k="place" v="locality" />
		<tag k="ssr:stedsnr" v="172796" />
	</node>
	<node lat="61.77524370202595" lon="4.89748525295057" id="-81582">
		<tag k="name" v="Vollane" />
		<tag k="place" v="farm" />
		<tag k="ssr:stedsnr" v="175753" />
	</node>
	<node lat="61.772583336775014" lon="5.183005563157775" id="-81592">
		<tag k="name" v="Sagetun" />
		<tag k="place" v="farm" />
		<tag k="ssr:stedsnr" v="192097" />
	</node>
	<node lat="61.828629859749334" lon="5.319610960138772" id="-81597">
		<tag k="fixme" v="consider place=hamlet" />
		<tag k="name" v="Vingen" />
		<tag k="place" v="farm" />
		<tag k="ssr:stedsnr" v="192127" />
	</node>
	<node lat="61.764026529714464" lon="5.28440109384155" id="-81600">
		<tag k="fixme" v="consider place=hamlet" />
		<tag k="name" v="Rise" />
		<tag k="place" v="farm" />
		<tag k="ssr:stedsnr" v="192077" />
	</node>
	<node lat="61.76122564541271" lon="5.227185723910977" id="-81601">
		<tag k="fixme" v="consider place=hamlet" />
		<tag k="name" v="Eikeland" />
		<tag k="place" v="farm" />
		<tag k="ssr:stedsnr" v="192081" />
	</node>
	<node lat="61.884036224288096" lon="5.220353912413744" id="-81607">
		<tag k="name" v="Skorpa" />
		<tag k="place" v="farm" />
		<tag k="ssr:stedsnr" v="192228" />
	</node>
	<node lat="61.890130558714006" lon="5.53666665991777" id="-81618">
		<tag k="name" v="Frimannslund" />
		<tag k="place" v="farm" />
		<tag k="ssr:stedsnr" v="192437" />
	</node>
	<node lat="61.888886205104455" lon="5.559397182366503" id="-81621">
		<tag k="alt_name" v="Davik, indre" />
		<tag k="name" v="Indre Davik" />
		<tag k="place" v="farm" />
		<tag k="ssr:stedsnr" v="192452" />
	</node>
	<node lat="61.88785049018112" lon="5.544734764782366" id="-81622">
		<tag k="fixme" v="consider place=hamlet" />
		<tag k="name" v="Prestegarden" />
		<tag k="place" v="farm" />
		<tag k="ssr:stedsnr" v="192458" />
	</node>
	<node lat="61.859516671092244" lon="5.008908340379221" id="-81636">
		<tag k="name" v="Varpe" />
		<tag k="place" v="farm" />
		<tag k="ssr:stedsnr" v="192914" />
	</node>
	<node lat="61.78459166583298" lon="5.336422214010612" id="-81673">
		<tag k="name" v="Årdalshytta" />
		<tag k="place" v="isolated_dwelling" />
		<tag k="ssr:stedsnr" v="292972" />
	</node>
	<node lat="61.78359722209583" lon="5.146077771833223" id="-81745">
		<tag k="alt_name" v="Nesbøstølen" />
		<tag k="historic" v="shieling" />
		<tag k="name" v="Nesbøstøylen" />
		<tag k="place" v="isolated_dwelling" />
		<tag k="ssr:stedsnr" v="313116" />
	</node>
	<node lat="61.822880556411796" lon="5.109433337573396" id="-81747">
		<tag k="name" v="Steinset" />
		<tag k="place" v="farm" />
		<tag k="ssr:stedsnr" v="313126" />
	</node>
	<node lat="61.82313934518521" lon="5.288855404349554" id="-81748">
		<tag k="alt_name" v="Vingelven" />
		<tag k="fixme" v="consider place=hamlet" />
		<tag k="name" v="Vingelva" />
		<tag k="place" v="farm" />
		<tag k="ssr:stedsnr" v="313129" />
	</node>
	<node lat="61.83450157731036" lon="5.154885638019486" id="-81753">
		<tag k="fixme" v="consider place=hamlet" />
		<tag k="name" v="Hestevik" />
		<tag k="place" v="farm" />
		<tag k="ssr:stedsnr" v="313160" />
	</node>
	<node lat="61.8643638917175" lon="5.7251777721796255" id="-81759">
		<tag k="alt_name" v="Haugen" />
		<tag k="fixme" v="consider place=hamlet" />
		<tag k="name" v="Isehaugen" />
		<tag k="place" v="farm" />
		<tag k="ssr:stedsnr" v="313341" />
	</node>
	<node lat="61.765293189799245" lon="4.853699332551291" id="-81763">
		<tag k="fixme" v="consider place=hamlet" />
		<tag k="name" v="Steinset" />
		<tag k="place" v="farm" />
		<tag k="ssr:stedsnr" v="313868" />
	</node>
	<node lat="61.84018984399394" lon="4.994325151212734" id="-81800">
		<tag k="fixme" v="consider place=hamlet" />
		<tag k="name" v="Senneset" />
		<tag k="place" v="farm" />
		<tag k="ssr:stedsnr" v="353287" />
	</node>
	<node lat="61.888669443985975" lon="5.271227782129979" id="-81824">
		<tag k="name" v="Nerdal" />
		<tag k="place" v="locality" />
		<tag k="ssr:stedsnr" v="353586" />
	</node>
	<node lat="61.82413333435712" lon="4.9546333321680205" id="-81851">
		<tag k="name" v="Nesodden" />
		<tag k="place" v="farm" />
		<tag k="ssr:stedsnr" v="354028" />
	</node>
	<node lat="61.72489444640687" lon="5.104283323619783" id="-81883">
		<tag k="name" v="Skjervane" />
		<tag k="place" v="isolated_dwelling" />
		<tag k="ssr:stedsnr" v="372846" />
	</node>
	<node lat="61.88450555375043" lon="5.558799996231209" id="-81884">
		<tag k="name" v="Høyland" />
		<tag k="place" v="farm" />
		<tag k="ssr:stedsnr" v="373434" />
	</node>
	<node lat="61.88261666486513" lon="5.469600002253868" id="-81885">
		<tag k="historic" v="shieling" />
		<tag k="name" v="Stabrekka" />
		<tag k="place" v="isolated_dwelling" />
		<tag k="ssr:stedsnr" v="373439" />
	</node>
	<node lat="61.87559722353545" lon="5.451838897121865" id="-81900">
		<tag k="name" v="Fessene" />
		<tag k="place" v="locality" />
		<tag k="ssr:stedsnr" v="374188" />
	</node>
	<node lat="61.78528958449872" lon="4.967858442759955" id="-81902">
		<tag k="fixme" v="consider place=hamlet" />
		<tag k="name" v="Vågane" />
		<tag k="place" v="farm" />
		<tag k="ssr:stedsnr" v="374851" />
	</node>
	<node lat="61.84031111125953" lon="4.978563879588957" id="-81906">
		<tag k="alt_name" v="Hauge, in" />
		<tag k="name" v="Indre Hauge" />
		<tag k="place" v="village" />
		<tag k="ssr:stedsnr" v="374921" />
	</node>
	<node lat="61.75148889073684" lon="5.266408325045061" id="-81911">
		<tag k="alt_name" v="Risesetra" />
		<tag k="historic" v="shieling" />
		<tag k="name" v="Risesætra" />
		<tag k="place" v="isolated_dwelling" />
		<tag k="ssr:stedsnr" v="495092" />
	</node>
	<node lat="61.85743605838307" lon="5.061246594780919" id="-81915">
		<tag k="fixme" v="consider place=hamlet" />
		<tag k="name" v="Dalsbotnen" />
		<tag k="place" v="farm" />
		<tag k="ssr:stedsnr" v="389358" />
	</node>
	<node lat="61.77282770239007" lon="4.89057880716552" id="-81947">
		<tag k="alt_name" v="Frøyen nedre;Negarden" />
		<tag k="fixme" v="consider place=hamlet" />
		<tag k="name" v="Nedre Frøyen" />
		<tag k="place" v="farm" />
		<tag k="ssr:stedsnr" v="414378" />
	</node>
	<node lat="61.70363055980347" lon="5.108730547185311" id="-81987">
		<tag k="name" v="Miskje" />
		<tag k="place" v="isolated_dwelling" />
		<tag k="ssr:stedsnr" v="417723" />
	</node>
	<node lat="61.830919443280514" lon="4.984969444896573" id="-81993">
		<tag k="name" v="Heia" />
		<tag k="place" v="farm" />
		<tag k="ssr:stedsnr" v="418963" />
	</node>
	<node lat="61.83932777430794" lon="5.676263894650629" id="-82010">
		<tag k="fixme" v="consider place=hamlet" />
		<tag k="name" v="Ålfoten" />
		<tag k="place" v="village" />
		<tag k="ssr:stedsnr" v="434265" />
	</node>
	<node lat="61.906457180157176" lon="5.387358790106808" id="-82013">
		<tag k="fixme" v="consider place=hamlet" />
		<tag k="name" v="Elde" />
		<tag k="place" v="farm" />
		<tag k="ssr:stedsnr" v="435249" />
	</node>
	<node lat="61.79408610777672" lon="4.956675009925849" id="-82027">
		<tag k="name" v="Bukta" />
		<tag k="place" v="farm" />
		<tag k="ssr:stedsnr" v="435852" />
	</node>
	<node lat="61.752978370465" lon="5.082774079620568" id="-82037">
		<tag k="name" v="Hjellen" />
		<tag k="place" v="farm" />
		<tag k="ssr:stedsnr" v="495888" />
	</node>
	<node lat="61.800605939338006" lon="4.917264801617278" id="-82043">
		<tag k="fixme" v="consider place=hamlet" />
		<tag k="name" v="Kjerpeset" />
		<tag k="place" v="farm" />
		<tag k="ssr:stedsnr" v="495846" />
	</node>
	<node lat="61.85946622821861" lon="5.034342969568192" id="-82063">
		<tag k="fixme" v="consider place=hamlet" />
		<tag k="name" v="Klungreset" />
		<tag k="place" v="farm" />
		<tag k="ssr:stedsnr" v="535290" />
	</node>
	<node lat="61.79175497461086" lon="5.020140707430956" id="-82071">
		<tag k="alt_name" v="Rylandholmen" />
		<tag k="fixme" v="consider place=hamlet" />
		<tag k="name" v="Rylandsholmen" />
		<tag k="place" v="farm" />
		<tag k="ssr:stedsnr" v="535431" />
	</node>
	<node lat="61.87123278982169" lon="5.209948404074133" id="-82079">
		<tag k="fixme" v="consider place=hamlet" />
		<tag k="name" v="Klubben" />
		<tag k="place" v="farm" />
		<tag k="ssr:stedsnr" v="535554" />
	</node>
	<node lat="61.85845277928828" lon="5.304297228581925" id="-82088">
		<tag k="name" v="Verpe" />
		<tag k="place" v="farm" />
		<tag k="ssr:stedsnr" v="535588" />
	</node>
	<node lat="61.88346666925" lon="5.334913883478071" id="-82144">
		<tag k="name" v="Haugland" />
		<tag k="place" v="farm" />
		<tag k="ssr:stedsnr" v="555135" />
	</node>
	<node lat="61.88793367939702" lon="5.331316616953438" id="-82146">
		<tag k="fixme" v="consider place=hamlet" />
		<tag k="name" v="Rugsund" />
		<tag k="place" v="farm" />
		<tag k="ssr:stedsnr" v="555146" />
	</node>
	<node lat="61.741686112254285" lon="5.2633944471353535" id="-82155">
		<tag k="name" v="Ingebrekthola" />
		<tag k="place" v="isolated_dwelling" />
		<tag k="ssr:stedsnr" v="554866" />
	</node>
	<node lat="61.838377313681484" lon="5.67445704531324" id="-82159">
		<tag k="fixme" v="consider place=hamlet" />
		<tag k="name" v="Myklebust" />
		<tag k="place" v="farm" />
		<tag k="ssr:stedsnr" v="555257" />
	</node>
	<node lat="61.87878968845488" lon="5.105476033710628" id="-82161">
		<tag k="alt_name" v="Svoren" />
		<tag k="fixme" v="consider place=hamlet" />
		<tag k="name" v="Svora" />
		<tag k="place" v="farm" />
		<tag k="ssr:stedsnr" v="555152" />
	</node>
	<node lat="61.832433331236714" lon="5.137366671149921" id="-82165">
		<tag k="name" v="Lisete" />
		<tag k="place" v="farm" />
		<tag k="ssr:stedsnr" v="556153" />
	</node>
	<node lat="61.82811964491568" lon="5.111781574449737" id="-82166">
		<tag k="fixme" v="consider place=hamlet" />
		<tag k="name" v="Litle Hauge" />
		<tag k="place" v="farm" />
		<tag k="ssr:stedsnr" v="556155" />
	</node>
	<node lat="61.862677780317256" lon="5.406699992748858" id="-82173">
		<tag k="name" v="Huldrehaugen" />
		<tag k="place" v="locality" />
		<tag k="ssr:stedsnr" v="556187" />
	</node>
	<node lat="61.8624741107692" lon="5.327280068107977" id="-82175">
		<tag k="fixme" v="consider place=hamlet" />
		<tag k="name" v="Leirgulen" />
		<tag k="place" v="farm" />
		<tag k="ssr:stedsnr" v="556190" />
	</node>
	<node lat="61.863457967089275" lon="5.729079359350308" id="-82179">
		<tag k="fixme" v="consider place=hamlet" />
		<tag k="name" v="Englestad" />
		<tag k="place" v="farm" />
		<tag k="ssr:stedsnr" v="556410" />
	</node>
	<node lat="61.87148610886417" lon="5.721927774761064" id="-82185">
		<tag k="name" v="Skogen" />
		<tag k="place" v="isolated_dwelling" />
		<tag k="ssr:stedsnr" v="585390" />
	</node>
	<node lat="61.85441944322092" lon="5.327094436810363" id="-82218">
		<tag k="alt_name" v="Loftnes;Indre Lognes" />
		<tag k="name" v="Lofnes" />
		<tag k="place" v="farm" />
		<tag k="ssr:stedsnr" v="596348" />
	</node>
	<node lat="61.89414895906186" lon="5.528208982187365" id="-82225">
		<tag k="fixme" v="consider place=hamlet" />
		<tag k="name" v="Ytre Davik" />
		<tag k="place" v="farm" />
		<tag k="ssr:stedsnr" v="596528" />
	</node>
	<node lat="61.71955000070328" lon="5.1636055608342515" id="-82245">
		<tag k="name" v="Fredheim" />
		<tag k="place" v="farm" />
		<tag k="ssr:stedsnr" v="596909" />
	</node>
	<node lat="61.73582222579544" lon="5.198008337037033" id="-82251">
		<tag k="name" v="Runnane" />
		<tag k="place" v="farm" />
		<tag k="ssr:stedsnr" v="596871" />
	</node>
	<node lat="61.73657499664811" lon="5.196436106434804" id="-82252">
		<tag k="name" v="Ytrehus" />
		<tag k="old_name" v="Ytre Hus" />
		<tag k="place" v="farm" />
		<tag k="ssr:stedsnr" v="596873" />
	</node>
	<node lat="61.81879444456424" lon="5.091802778902156" id="-82264">
		<tag k="name" v="Heimly" />
		<tag k="place" v="farm" />
		<tag k="ssr:stedsnr" v="599436" />
	</node>
	<node lat="61.88964722478042" lon="5.396336106416251" id="-82290">
		<tag k="historic" v="shieling" />
		<tag k="name" v="Bakkenosa" />
		<tag k="place" v="isolated_dwelling" />
		<tag k="ssr:stedsnr" v="616169" />
	</node>
	<node lat="61.89251159626076" lon="5.518090728325922" id="-82299">
		<tag k="fixme" v="consider place=hamlet" />
		<tag k="name" v="Hausle" />
		<tag k="place" v="farm" />
		<tag k="ssr:stedsnr" v="616398" />
	</node>
	<node lat="61.83970555345917" lon="4.9894861203963" id="-82305">
		<tag k="fixme" v="consider place=hamlet" />
		<tag k="name" v="Bremanger" />
		<tag k="place" v="village" />
		<tag k="ssr:stedsnr" v="616932" />
	</node>
	<node lat="61.83882499644585" lon="4.9502527688625655" id="-82306">
		<tag k="fixme" v="consider place=hamlet" />
		<tag k="name" v="Torvanger" />
		<tag k="place" v="village" />
		<tag k="ssr:stedsnr" v="616933" />
	</node>
	<node lat="61.872946822095486" lon="5.720788616293406" id="-82313">
		<tag k="alt_name" v="Isane, midtre" />
		<tag k="fixme" v="consider place=hamlet" />
		<tag k="name" v="Midtre Isane" />
		<tag k="place" v="farm" />
		<tag k="ssr:stedsnr" v="617427" />
	</node>
	<node lat="61.86774955357455" lon="5.7277785647297925" id="-82314">
		<tag k="alt_name" v="Isane, indre" />
		<tag k="fixme" v="consider place=hamlet" />
		<tag k="name" v="Indre Isane" />
		<tag k="place" v="farm" />
		<tag k="ssr:stedsnr" v="617374" />
	</node>
	<node lat="61.89014166963031" lon="5.6424749933511995" id="-82346">
		<tag k="name" v="Høgebakken" />
		<tag k="place" v="farm" />
		<tag k="ssr:stedsnr" v="656847" />
	</node>
	<node lat="61.8384916682627" lon="4.940236108394281" id="-82460">
		<tag k="fixme" v="consider place=hamlet" />
		<tag k="name" v="Iglandsvika" />
		<tag k="place" v="village" />
		<tag k="ssr:stedsnr" v="720785" />
	</node>
	<node lat="61.77976389301154" lon="5.180375003406546" id="-82483">
		<tag k="alt_name" v="Dyrstadstølen" />
		<tag k="historic" v="shieling" />
		<tag k="name" v="Dyrstadstøylen" />
		<tag k="place" v="isolated_dwelling" />
		<tag k="ssr:stedsnr" v="738097" />
	</node>
	<node lat="61.76976388458711" lon="5.295444443000598" id="-82485">
		<tag k="name" v="Svelgen" />
		<tag k="place" v="village" />
		<tag k="ssr:stedsnr" v="738103" />
	</node>
	<node lat="61.83472029319342" lon="5.12166208337803" id="-82489">
		<tag k="alt_name" v="Indre Hauge;Inste Hauge" />
		<tag k="fixme" v="consider place=hamlet" />
		<tag k="name" v="Hauge" />
		<tag k="place" v="farm" />
		<tag k="ssr:stedsnr" v="738152" />
	</node>
	<node lat="61.87678888810794" lon="5.299711116176693" id="-82490">
		<tag k="historic" v="shieling" />
		<tag k="name" v="Haukedalssætra" />
		<tag k="place" v="isolated_dwelling" />
		<tag k="ssr:stedsnr" v="738182" />
	</node>
	<node lat="61.8388076816501" lon="4.939524746088804" id="-82502">
		<tag k="fixme" v="consider place=hamlet" />
		<tag k="name" v="Igland" />
		<tag k="place" v="farm" />
		<tag k="ssr:stedsnr" v="738920" />
	</node>
	<node lat="61.8318531118076" lon="4.992767219642051" id="-82504">
		<tag k="alt_name" v="Fossen" />
		<tag k="fixme" v="consider place=hamlet" />
		<tag k="name" v="Fossane" />
		<tag k="place" v="farm" />
		<tag k="ssr:stedsnr" v="738924" />
	</node>
	<node lat="61.84378041019329" lon="4.994257893717808" id="-82507">
		<tag k="name" v="Senneset" />
		<tag k="place" v="farm" />
		<tag k="ssr:stedsnr" v="738930" />
	</node>
	<node lat="61.81621111189849" lon="5.085119441309137" id="-82508">
		<tag k="name" v="Myrvang" />
		<tag k="place" v="farm" />
		<tag k="ssr:stedsnr" v="738936" />
	</node>
	<node lat="61.879002778813266" lon="5.0784083300809195" id="-82513">
		<tag k="name" v="Oldeide" />
		<tag k="place" v="hamlet" />
		<tag k="ssr:stedsnr" v="738989" />
	</node>
	<node lat="61.810587967553246" lon="4.908839546262467" id="-82515">
		<tag k="fixme" v="consider place=hamlet" />
		<tag k="name" v="Bakke" />
		<tag k="place" v="farm" />
		<tag k="ssr:stedsnr" v="738945" />
	</node>
	<node lat="61.8595704084937" lon="5.3092675203309785" id="-82543">
		<tag k="alt_name" v="Ytre Lognes" />
		<tag k="fixme" v="consider place=hamlet" />
		<tag k="name" v="Lofnes" />
		<tag k="place" v="farm" />
		<tag k="ssr:stedsnr" v="778445" />
	</node>
	<node lat="61.83062499968434" lon="4.978849998328669" id="-82569">
		<tag k="name" v="Grasneset" />
		<tag k="place" v="isolated_dwelling" />
		<tag k="ssr:stedsnr" v="779384" />
	</node>
	<node lat="61.782480559189906" lon="5.336111104356785" id="-82581">
		<tag k="name" v="Amsterdam" />
		<tag k="place" v="locality" />
		<tag k="ssr:stedsnr" v="778972" />
	</node>
	<node lat="61.721283330512826" lon="5.187258339564698" id="-82608">
		<tag k="fixme" v="consider place=hamlet" />
		<tag k="name" v="Myklebust" />
		<tag k="place" v="village" />
		<tag k="ssr:stedsnr" v="797834" />
	</node>
	<node lat="61.728088550858295" lon="5.14681789069879" id="-82609">
		<tag k="alt_name" v="Mullia, l;Mullia;Litle Muleli" />
		<tag k="name" v="Litle Mullia" />
		<tag k="place" v="farm" />
		<tag k="ssr:stedsnr" v="797837" />
	</node>
	<node lat="61.73909999670547" lon="5.163633337288423" id="-82612">
		<tag k="name" v="Furnes" />
		<tag k="place" v="farm" />
		<tag k="ssr:stedsnr" v="797842" />
	</node>
	<node lat="61.7547239409369" lon="4.864070904874012" id="-82614">
		<tag k="fixme" v="consider place=hamlet" />
		<tag k="name" v="Liset" />
		<tag k="place" v="farm" />
		<tag k="ssr:stedsnr" v="798820" />
	</node>
	<node lat="61.761458332596774" lon="5.128352769621475" id="-82623">
		<tag k="name" v="Leirvika" />
		<tag k="place" v="farm" />
		<tag k="ssr:stedsnr" v="799056" />
	</node>
	<node lat="61.86432222476029" lon="5.3066416625772375" id="-82628">
		<tag k="name" v="Liljedal" />
		<tag k="place" v="farm" />
		<tag k="ssr:stedsnr" v="799170" />
	</node>
	<node lat="61.88522222674459" lon="5.399350005745438" id="-82631">
		<tag k="historic" v="shieling" />
		<tag k="name" v="Kyrhaugen" />
		<tag k="place" v="isolated_dwelling" />
		<tag k="ssr:stedsnr" v="799185" />
	</node>
	<node lat="61.876388885444555" lon="5.688088887434302" id="-82634">
		<tag k="alt_name" v="Førssetra" />
		<tag k="historic" v="shieling" />
		<tag k="name" v="Forsætra" />
		<tag k="place" v="isolated_dwelling" />
		<tag k="ssr:stedsnr" v="799381" />
	</node>
	<node lat="61.83782086136839" lon="4.918913061915545" id="-82640">
		<tag k="alt_name" v="Grotle, in;Grotle Indre" />
		<tag k="fixme" v="consider place=hamlet" />
		<tag k="name" v="Indre Grotle" />
		<tag k="place" v="farm" />
		<tag k="ssr:stedsnr" v="799926" />
	</node>
	<node lat="61.760955552589124" lon="5.835783334108355" id="-82648">
		<tag k="fixme" v="consider tourism=alpine_hut or tourism=chalet" />
		<tag k="name" v="Gjegnabu" />
		<tag k="ssr:stedsnr" v="815440" />
		<tag k="tourism" v="wilderness_hut" />
	</node>
	<node lat="61.82537524742979" lon="4.955619740632189" id="-82704">
		<tag k="name" v="Løviknes" />
		<tag k="place" v="farm" />
		<tag k="ssr:stedsnr" v="840368" />
	</node>
	<node lat="61.84114698685978" lon="4.903108800729806" id="-82744">
		<tag k="alt_name" v="Grotle, yt;Grotle" />
		<tag k="fixme" v="consider place=hamlet" />
		<tag k="name" v="Ytre Grotle" />
		<tag k="place" v="farm" />
		<tag k="ssr:stedsnr" v="859899" />
	</node>
	<node lat="61.875809104497826" lon="5.7160756223233165" id="-82753">
		<tag k="alt_name" v="Isane, ytre" />
		<tag k="fixme" v="consider place=hamlet" />
		<tag k="name" v="Ytre Isane" />
		<tag k="place" v="farm" />
		<tag k="ssr:stedsnr" v="860436" />
	</node>
	<node lat="61.87978055786592" lon="5.713330549708842" id="-82754">
		<tag k="name" v="Stranda" />
		<tag k="place" v="farm" />
		<tag k="ssr:stedsnr" v="860437" />
	</node>
	<node lat="61.813241664042735" lon="5.233336103951163" id="-82803">
		<tag k="name" v="Gardfjøstunet" />
		<tag k="place" v="farm" />
		<tag k="ssr:stedsnr" v="960522" />
	</node>
	<node lat="61.83993888797479" lon="5.750436104326423" id="-82819">
		<tag k="name" v="Gaupetegane" />
		<tag k="place" v="locality" />
		<tag k="ssr:stedsnr" v="960733" />
	</node>
	<node lat="61.7340055591468" lon="5.201786119788701" id="-82828">
		<tag k="name" v="Vikabø" />
		<tag k="place" v="farm" />
		<tag k="ssr:stedsnr" v="960841" />
	</node>
	<node lat="61.77520555914113" lon="4.894844440654154" id="-82853">
		<tag k="name" v="Oppigard" />
		<tag k="place" v="farm" />
		<tag k="ssr:stedsnr" v="964399" />
	</node>
	<node lat="61.778063891728486" lon="4.895505560520167" id="-82854">
		<tag k="name" v="Røys" />
		<tag k="place" v="farm" />
		<tag k="ssr:stedsnr" v="963752" />
	</node>
	<node lat="61.82638997369862" lon="4.961945180319129" id="-82859">
		<tag k="alt_name" v="Løvik" />
		<tag k="fixme" v="consider place=hamlet" />
		<tag k="name" v="Løvika" />
		<tag k="place" v="farm" />
		<tag k="ssr:stedsnr" v="973814" />
	</node>
	<node lat="61.77006407941202" lon="4.930138004637126" id="-82860">
		<tag k="fixme" v="consider place=hamlet" />
		<tag k="name" v="Smørhamn" />
		<tag k="place" v="farm" />
		<tag k="ssr:stedsnr" v="973815" />
	</node>
	<node lat="61.74199284876539" lon="5.155572276116831" id="-82861">
		<tag k="fixme" v="consider place=hamlet" />
		<tag k="name" v="Kjelkenes" />
		<tag k="place" v="farm" />
		<tag k="ssr:stedsnr" v="973817" />
	</node>
	<node lat="61.72180881604911" lon="5.18666408797984" id="-82862">
		<tag k="fixme" v="consider place=hamlet" />
		<tag k="name" v="Myklebust" />
		<tag k="place" v="farm" />
		<tag k="ssr:stedsnr" v="973819" />
	</node>
	<node lat="61.723766650218614" lon="5.147479406325077" id="-82863">
		<tag k="fixme" v="consider place=hamlet" />
		<tag k="name" v="Mullia" />
		<tag k="place" v="farm" />
		<tag k="ssr:stedsnr" v="973821" />
	</node>
	<node lat="61.88056550696729" lon="5.075084573025085" id="-82865">
		<tag k="fixme" v="consider place=hamlet" />
		<tag k="name" v="Oldeide" />
		<tag k="place" v="farm" />
		<tag k="ssr:stedsnr" v="973825" />
	</node>
	<node lat="61.884791543473725" lon="5.3437311515579715" id="-82866">
		<tag k="alt_name" v="Hessevågbakke" />
		<tag k="fixme" v="consider place=hamlet" />
		<tag k="name" v="Hessevågbakken" />
		<tag k="place" v="farm" />
		<tag k="ssr:stedsnr" v="973832" />
	</node>
	<node lat="61.887882145962614" lon="5.645065091437644" id="-82867">
		<tag k="fixme" v="consider place=hamlet" />
		<tag k="name" v="Dombestein" />
		<tag k="place" v="farm" />
		<tag k="ssr:stedsnr" v="973834" />
	</node>
	<node lat="61.84431376808782" lon="4.975501151810272" id="-82969">
		<tag k="name" v="Håksskaret" />
		<tag k="place" v="quarter" />
		<tag k="ssr:stedsnr" v="982067" />
	</node>
	<node lat="61.77668961797894" lon="5.273336519052647" id="-82970">
		<tag k="name" v="Mevika" />
		<tag k="place" v="quarter" />
		<tag k="ssr:stedsnr" v="982069" />
	</node>
	<node lat="61.77644663747663" lon="5.2776460432199395" id="-82971">
		<tag k="name" v="Framstevika" />
		<tag k="place" v="quarter" />
		<tag k="ssr:stedsnr" v="982070" />
	</node>
</osm>
