<?xml version="1.0" encoding="UTF-8"?>
<osm generator="osmapis" version="0.6">
	<node id="-5247" lat="63.1017305569" lon="7.71733333638">
		<tag k="name" v="Baltserneset" />
		<tag k="ssr:date" v="2016-05-10" />
		<tag k="ssr:gruppe" v="navigasjon" />
		<tag k="ssr:hovedgruppe" v="infrastruktur" />
		<tag k="ssr:stedsnr" v="195752" />
		<tag k="ssr:type" v="fyrlykt" />
	</node>
	<node id="-5236" lat="63.1035777751" lon="7.76669166892">
		<tag k="name" v="Vikaholmen" />
		<tag k="ssr:date" v="2016-05-10" />
		<tag k="ssr:gruppe" v="navigasjon" />
		<tag k="ssr:hovedgruppe" v="infrastruktur" />
		<tag k="ssr:stedsnr" v="177291" />
		<tag k="ssr:type" v="fyrlykt" />
	</node>
	<node id="-4670" lat="63.27628333" lon="7.27151389833">
		<tag k="name" v="Griptarene" />
		<tag k="ssr:date" v="2016-05-10" />
		<tag k="ssr:gruppe" v="navigasjon" />
		<tag k="ssr:hovedgruppe" v="infrastruktur" />
		<tag k="ssr:stedsnr" v="41757" />
		<tag k="ssr:type" v="lysbøye" />
	</node>
	<node id="-5587" lat="63.0968366068" lon="7.79989863286">
		<tag k="name" v="Oline Bøes vei" />
		<tag k="ssr:date" v="2020-01-20" />
		<tag k="ssr:gruppe" v="veg" />
		<tag k="ssr:hovedgruppe" v="infrastruktur" />
		<tag k="ssr:stedsnr" v="1074641" />
		<tag k="ssr:type" v="adressenavn" />
	</node>
	<node id="-5488" lat="63.0982611147" lon="7.72376665835">
		<tag k="name" v="Skjerveskjær varde" />
		<tag k="ssr:date" v="2016-05-11" />
		<tag k="ssr:gruppe" v="navigasjon" />
		<tag k="ssr:hovedgruppe" v="infrastruktur" />
		<tag k="ssr:stedsnr" v="830282" />
		<tag k="ssr:type" v="fyrlykt" />
	</node>
	<node id="-5029" lat="63.0232333295" lon="7.81353610345">
		<tag k="name" v="Freines" />
		<tag k="ssr:date" v="2016-05-11" />
		<tag k="ssr:gruppe" v="navigasjon" />
		<tag k="ssr:hovedgruppe" v="infrastruktur" />
		<tag k="ssr:stedsnr" v="740215" />
		<tag k="ssr:type" v="fyrlykt" />
	</node>
	<node id="-4839" lat="63.1205305524" lon="7.73293888709">
		<tag k="name" v="Goma, Nedre" />
		<tag k="ssr:date" v="2016-05-10" />
		<tag k="ssr:gruppe" v="navigasjon" />
		<tag k="ssr:hovedgruppe" v="infrastruktur" />
		<tag k="ssr:stedsnr" v="344473" />
		<tag k="ssr:type" v="fyrlykt" />
	</node>
	<node id="-4960" lat="63.1147055546" lon="7.75123332559">
		<tag k="name" v="Bjørnehaugen" />
		<tag k="ssr:date" v="2016-05-10" />
		<tag k="ssr:gruppe" v="navigasjon" />
		<tag k="ssr:hovedgruppe" v="infrastruktur" />
		<tag k="ssr:stedsnr" v="647455" />
		<tag k="ssr:type" v="fyrlykt" />
	</node>
	<node id="-5213" lat="62.7345361111" lon="7.15065554732">
		<tag k="alt_name" v="Møre og Romsdal" />
		<tag k="name" v="Møre og Romsdal fylke" />
		<tag k="ssr:date" v="2019-12-27" />
		<tag k="ssr:gruppe" v="administrativeIndelinger" />
		<tag k="ssr:hovedgruppe" v="offentligAdministrasjon" />
		<tag k="ssr:stedsnr" v="145583" />
		<tag k="ssr:type" v="fylke" />
	</node>
	<node id="-5169" lat="63.1055999994" lon="7.7246138797">
		<tag k="name" v="Moloen" />
		<tag k="ssr:date" v="2016-05-10" />
		<tag k="ssr:gruppe" v="navigasjon" />
		<tag k="ssr:hovedgruppe" v="infrastruktur" />
		<tag k="ssr:stedsnr" v="101445" />
		<tag k="ssr:type" v="fyrlykt" />
	</node>
	<node id="-4694" lat="63.2338709365" lon="7.60914310809">
		<tag k="alt_name" v="Grip" />
		<tag k="name" v="Grip fyr" />
		<tag k="ssr:date" v="2019-02-12" />
		<tag k="ssr:gruppe" v="navigasjon" />
		<tag k="ssr:hovedgruppe" v="infrastruktur" />
		<tag k="ssr:stedsnr" v="255692" />
		<tag k="ssr:type" v="fyrstasjon" />
	</node>
	<node id="-5589" lat="63.096891094" lon="7.80372240299">
		<tag k="name" v="Søster Fridas vei" />
		<tag k="ssr:date" v="2020-01-20" />
		<tag k="ssr:gruppe" v="veg" />
		<tag k="ssr:hovedgruppe" v="infrastruktur" />
		<tag k="ssr:stedsnr" v="1074644" />
		<tag k="ssr:type" v="adressenavn" />
	</node>
	<node id="-5588" lat="63.0949931543" lon="7.80098252924">
		<tag k="name" v="Kari Kvernens vei" />
		<tag k="ssr:date" v="2020-01-20" />
		<tag k="ssr:gruppe" v="veg" />
		<tag k="ssr:hovedgruppe" v="infrastruktur" />
		<tag k="ssr:stedsnr" v="1074642" />
		<tag k="ssr:type" v="adressenavn" />
	</node>
	<node id="-5459" lat="63.1115194414" lon="7.73198056483">
		<tag k="name" v="Kristiansund kommune" />
		<tag k="ssr:date" v="2016-05-11" />
		<tag k="ssr:gruppe" v="administrativeIndelinger" />
		<tag k="ssr:hovedgruppe" v="offentligAdministrasjon" />
		<tag k="ssr:stedsnr" v="753866" />
		<tag k="ssr:type" v="kommune" />
	</node>
	<node id="-5586" lat="63.0969208852" lon="7.79790557859">
		<tag k="name" v="Annas vei" />
		<tag k="ssr:date" v="2020-01-20" />
		<tag k="ssr:gruppe" v="veg" />
		<tag k="ssr:hovedgruppe" v="infrastruktur" />
		<tag k="ssr:stedsnr" v="1074643" />
		<tag k="ssr:type" v="adressenavn" />
	</node>
	<node id="-5583" lat="63.1105913179" lon="7.73338744685">
		<tag k="name" v="Storkaia" />
		<tag k="ssr:date" v="2019-05-31" />
		<tag k="ssr:gruppe" v="veg" />
		<tag k="ssr:hovedgruppe" v="infrastruktur" />
		<tag k="ssr:stedsnr" v="1060627" />
		<tag k="ssr:type" v="adressenavn" />
	</node>
	<node id="-4785" lat="63.1221944423" lon="7.73124166092">
		<tag k="name" v="Goma, Øvre" />
		<tag k="ssr:date" v="2016-05-10" />
		<tag k="ssr:gruppe" v="navigasjon" />
		<tag k="ssr:hovedgruppe" v="infrastruktur" />
		<tag k="ssr:stedsnr" v="465433" />
		<tag k="ssr:type" v="fyrlykt" />
	</node>
	<node id="-5068" lat="63.1322361132" lon="7.80476389178">
		<tag k="name" v="Kvitneset" />
		<tag k="ssr:date" v="2016-05-11" />
		<tag k="ssr:gruppe" v="navigasjon" />
		<tag k="ssr:hovedgruppe" v="infrastruktur" />
		<tag k="ssr:stedsnr" v="923294" />
		<tag k="ssr:type" v="fyrlykt" />
	</node>
	<node id="-4926" lat="63.107058329" lon="7.84862777852">
		<tag k="name" v="Omsundet" />
		<tag k="ssr:date" v="2016-05-10" />
		<tag k="ssr:gruppe" v="navigasjon" />
		<tag k="ssr:hovedgruppe" v="infrastruktur" />
		<tag k="ssr:stedsnr" v="558353" />
		<tag k="ssr:type" v="fyrlykt" />
	</node>
	<node id="-5041" lat="63.2004613869" lon="7.73112705759">
		<tag k="alt_name" v="Hilbåane" />
		<tag k="name" v="Hilbåan" />
		<tag k="old_name" v="Hilbaaren" />
		<tag k="ssr:date" v="2019-08-30" />
		<tag k="ssr:gruppe" v="navigasjon" />
		<tag k="ssr:hovedgruppe" v="infrastruktur" />
		<tag k="ssr:stedsnr" v="769518" />
		<tag k="ssr:type" v="lanterne" />
	</node>
	<node id="-5291" lat="63.2128166685" lon="7.60719166794">
		<tag k="name" v="Omfarskjæret" />
		<tag k="ssr:date" v="2016-05-10" />
		<tag k="ssr:gruppe" v="navigasjon" />
		<tag k="ssr:hovedgruppe" v="infrastruktur" />
		<tag k="ssr:stedsnr" v="376683" />
		<tag k="ssr:type" v="fyrlykt" />
	</node>
	<node id="-5489" lat="63.1149888907" lon="7.75078332694">
		<tag k="name" v="Nordholmen" />
		<tag k="ssr:date" v="2016-05-11" />
		<tag k="ssr:gruppe" v="navigasjon" />
		<tag k="ssr:hovedgruppe" v="infrastruktur" />
		<tag k="ssr:stedsnr" v="830439" />
		<tag k="ssr:type" v="fyrlykt" />
	</node>
	<node id="-5152" lat="63.1061222242" lon="7.84747500886">
		<tag k="name" v="Omsundet sørside" />
		<tag k="ssr:date" v="2016-05-10" />
		<tag k="ssr:gruppe" v="navigasjon" />
		<tag k="ssr:hovedgruppe" v="infrastruktur" />
		<tag k="ssr:stedsnr" v="56189" />
		<tag k="ssr:type" v="fyrlykt" />
	</node>
	<node id="-4876" lat="63.1037861133" lon="7.80040832567">
		<tag k="name" v="Hansøyflua" />
		<tag k="ssr:date" v="2016-05-10" />
		<tag k="ssr:gruppe" v="navigasjon" />
		<tag k="ssr:hovedgruppe" v="infrastruktur" />
		<tag k="ssr:stedsnr" v="405273" />
		<tag k="ssr:type" v="fyrlykt" />
	</node>
	<node id="-5514" lat="63.126188885" lon="7.78353889522">
		<tag k="name" v="Ormtunga" />
		<tag k="ssr:date" v="2016-05-11" />
		<tag k="ssr:gruppe" v="navigasjon" />
		<tag k="ssr:hovedgruppe" v="infrastruktur" />
		<tag k="ssr:stedsnr" v="838551" />
		<tag k="ssr:type" v="lanterne" />
	</node>
</osm>
