<?xml version="1.0" encoding="UTF-8"?>
<osm version="0.6" generator="osmapis">
	<node lat="58.332583337762564" lon="7.041500008091511" id="-61108">
		<tag k="name" v="Lister" />
		<tag k="ssr:date" v="2019-12-27" />
		<tag k="ssr:gruppe" v="terrengområder" />
		<tag k="ssr:hovedgruppe" v="terreng" />
		<tag k="ssr:stedsnr" v="120117" />
		<tag k="ssr:type" v="landskapsområde" />
	</node>
	<node lat="58.52424167031313" lon="6.937294437848719" id="-63444">
		<tag k="name" v="Kleivan" />
		<tag k="ssr:date" v="2019-12-27" />
		<tag k="ssr:gruppe" v="veg" />
		<tag k="ssr:hovedgruppe" v="infrastruktur" />
		<tag k="ssr:stedsnr" v="945012" />
		<tag k="ssr:type" v="vegstrekning" />
	</node>
	<node lat="58.318516562258175" lon="6.967358670963236" id="-63553">
		<tag k="name" v="Nedre Hetleskeid" />
		<tag k="ssr:date" v="2019-12-27" />
		<tag k="ssr:gruppe" v="veg" />
		<tag k="ssr:hovedgruppe" v="infrastruktur" />
		<tag k="ssr:stedsnr" v="974227" />
		<tag k="ssr:type" v="adressenavn" />
	</node>
	<node lat="58.321310443378714" lon="6.974831504363696" id="-63554">
		<tag k="name" v="Øvre Hetleskeid" />
		<tag k="ssr:date" v="2019-12-27" />
		<tag k="ssr:gruppe" v="veg" />
		<tag k="ssr:hovedgruppe" v="infrastruktur" />
		<tag k="ssr:stedsnr" v="974228" />
		<tag k="ssr:type" v="adressenavn" />
	</node>
	<node lat="58.23220094330877" lon="6.831329224520048" id="-63556">
		<tag k="name" v="Ulland" />
		<tag k="ssr:date" v="2019-12-27" />
		<tag k="ssr:gruppe" v="veg" />
		<tag k="ssr:hovedgruppe" v="infrastruktur" />
		<tag k="ssr:stedsnr" v="977720" />
		<tag k="ssr:type" v="adressenavn" />
	</node>
	<node lat="58.22719120600462" lon="6.819439802904418" id="-63557">
		<tag k="name" v="Gjervollstadveien" />
		<tag k="ssr:date" v="2019-12-27" />
		<tag k="ssr:gruppe" v="veg" />
		<tag k="ssr:hovedgruppe" v="infrastruktur" />
		<tag k="ssr:stedsnr" v="977721" />
		<tag k="ssr:type" v="adressenavn" />
	</node>
	<node lat="58.24102315328446" lon="6.854071935205899" id="-63558">
		<tag k="name" v="Åseveien" />
		<tag k="ssr:date" v="2019-12-27" />
		<tag k="ssr:gruppe" v="veg" />
		<tag k="ssr:hovedgruppe" v="infrastruktur" />
		<tag k="ssr:stedsnr" v="977722" />
		<tag k="ssr:type" v="adressenavn" />
	</node>
	<node lat="58.22484098311194" lon="6.908903908012532" id="-63559">
		<tag k="name" v="Dragedalen" />
		<tag k="ssr:date" v="2019-12-27" />
		<tag k="ssr:gruppe" v="veg" />
		<tag k="ssr:hovedgruppe" v="infrastruktur" />
		<tag k="ssr:stedsnr" v="977723" />
		<tag k="ssr:type" v="adressenavn" />
	</node>
	<node lat="58.22697874026456" lon="6.8816456506646935" id="-63560">
		<tag k="name" v="Lande" />
		<tag k="ssr:date" v="2019-12-27" />
		<tag k="ssr:gruppe" v="veg" />
		<tag k="ssr:hovedgruppe" v="infrastruktur" />
		<tag k="ssr:stedsnr" v="977724" />
		<tag k="ssr:type" v="adressenavn" />
	</node>
	<node lat="58.225426771899954" lon="6.904430514646232" id="-63561">
		<tag k="name" v="Busund" />
		<tag k="ssr:date" v="2019-12-27" />
		<tag k="ssr:gruppe" v="veg" />
		<tag k="ssr:hovedgruppe" v="infrastruktur" />
		<tag k="ssr:stedsnr" v="977725" />
		<tag k="ssr:type" v="adressenavn" />
	</node>
	<node lat="58.231968722619214" lon="6.829143398088805" id="-63562">
		<tag k="name" v="Rørviksveien" />
		<tag k="ssr:date" v="2019-12-27" />
		<tag k="ssr:gruppe" v="veg" />
		<tag k="ssr:hovedgruppe" v="infrastruktur" />
		<tag k="ssr:stedsnr" v="977730" />
		<tag k="ssr:type" v="adressenavn" />
	</node>
	<node lat="58.2439953128525" lon="6.841548944754205" id="-63563">
		<tag k="name" v="Rørvik" />
		<tag k="ssr:date" v="2019-12-27" />
		<tag k="ssr:gruppe" v="veg" />
		<tag k="ssr:hovedgruppe" v="infrastruktur" />
		<tag k="ssr:stedsnr" v="977731" />
		<tag k="ssr:type" v="adressenavn" />
	</node>
	<node lat="58.30049770648874" lon="6.953732208084829" id="-63564">
		<tag k="name" v="Kloster" />
		<tag k="ssr:date" v="2019-12-27" />
		<tag k="ssr:gruppe" v="veg" />
		<tag k="ssr:hovedgruppe" v="infrastruktur" />
		<tag k="ssr:stedsnr" v="977733" />
		<tag k="ssr:type" v="adressenavn" />
	</node>
	<node lat="58.291739779081695" lon="6.940910813438043" id="-63565">
		<tag k="name" v="Liland" />
		<tag k="ssr:date" v="2019-12-27" />
		<tag k="ssr:gruppe" v="veg" />
		<tag k="ssr:hovedgruppe" v="infrastruktur" />
		<tag k="ssr:stedsnr" v="977737" />
		<tag k="ssr:type" v="adressenavn" />
	</node>
	<node lat="58.244583217256306" lon="6.855352199290358" id="-63566">
		<tag k="name" v="Lister næringspark" />
		<tag k="ssr:date" v="2019-12-27" />
		<tag k="ssr:gruppe" v="veg" />
		<tag k="ssr:hovedgruppe" v="infrastruktur" />
		<tag k="ssr:stedsnr" v="977738" />
		<tag k="ssr:type" v="adressenavn" />
	</node>
	<node lat="58.28208040746368" lon="6.943329412265867" id="-63567">
		<tag k="name" v="Motland" />
		<tag k="ssr:date" v="2019-12-27" />
		<tag k="ssr:gruppe" v="veg" />
		<tag k="ssr:hovedgruppe" v="infrastruktur" />
		<tag k="ssr:stedsnr" v="977739" />
		<tag k="ssr:type" v="adressenavn" />
	</node>
	<node lat="58.28296638758648" lon="6.926626713323468" id="-63568">
		<tag k="name" v="Skjerli" />
		<tag k="ssr:date" v="2019-12-27" />
		<tag k="ssr:gruppe" v="veg" />
		<tag k="ssr:hovedgruppe" v="infrastruktur" />
		<tag k="ssr:stedsnr" v="977740" />
		<tag k="ssr:type" v="adressenavn" />
	</node>
	<node lat="58.2439514018552" lon="7.016992133632394" id="-63569">
		<tag k="name" v="Kvinesheiveien" />
		<tag k="ssr:date" v="2019-12-27" />
		<tag k="ssr:gruppe" v="veg" />
		<tag k="ssr:hovedgruppe" v="infrastruktur" />
		<tag k="ssr:stedsnr" v="977748" />
		<tag k="ssr:type" v="adressenavn" />
	</node>
	<node lat="58.24535387780191" lon="6.844155963817671" id="-63570">
		<tag k="name" v="Teistedal" />
		<tag k="ssr:date" v="2019-12-27" />
		<tag k="ssr:gruppe" v="veg" />
		<tag k="ssr:hovedgruppe" v="infrastruktur" />
		<tag k="ssr:stedsnr" v="977750" />
		<tag k="ssr:type" v="adressenavn" />
	</node>
	<node lat="58.26215212647492" lon="6.822151276772559" id="-63571">
		<tag k="name" v="Fedevollen" />
		<tag k="ssr:date" v="2019-12-27" />
		<tag k="ssr:gruppe" v="veg" />
		<tag k="ssr:hovedgruppe" v="infrastruktur" />
		<tag k="ssr:stedsnr" v="977678" />
		<tag k="ssr:type" v="adressenavn" />
	</node>
	<node lat="58.27091874895785" lon="6.814879422089256" id="-63572">
		<tag k="name" v="Birkelandsstrand" />
		<tag k="ssr:date" v="2019-12-27" />
		<tag k="ssr:gruppe" v="veg" />
		<tag k="ssr:hovedgruppe" v="infrastruktur" />
		<tag k="ssr:stedsnr" v="977679" />
		<tag k="ssr:type" v="adressenavn" />
	</node>
	<node lat="58.26951282028931" lon="6.76707932129945" id="-63573">
		<tag k="name" v="Fosselandsheia" />
		<tag k="ssr:date" v="2019-12-27" />
		<tag k="ssr:gruppe" v="veg" />
		<tag k="ssr:hovedgruppe" v="infrastruktur" />
		<tag k="ssr:stedsnr" v="977680" />
		<tag k="ssr:type" v="adressenavn" />
	</node>
	<node lat="58.271102245975136" lon="6.814325955208364" id="-63574">
		<tag k="name" v="Sandeveien" />
		<tag k="ssr:date" v="2019-12-27" />
		<tag k="ssr:gruppe" v="veg" />
		<tag k="ssr:hovedgruppe" v="infrastruktur" />
		<tag k="ssr:stedsnr" v="977681" />
		<tag k="ssr:type" v="adressenavn" />
	</node>
	<node lat="58.271102245975136" lon="6.814325955208364" id="-63575">
		<tag k="name" v="Tøffelgata" />
		<tag k="ssr:date" v="2019-12-27" />
		<tag k="ssr:gruppe" v="veg" />
		<tag k="ssr:hovedgruppe" v="infrastruktur" />
		<tag k="ssr:stedsnr" v="977682" />
		<tag k="ssr:type" v="adressenavn" />
	</node>
	<node lat="58.26936938905073" lon="6.762541767841996" id="-63576">
		<tag k="name" v="Fosseland" />
		<tag k="ssr:date" v="2019-12-27" />
		<tag k="ssr:gruppe" v="veg" />
		<tag k="ssr:hovedgruppe" v="infrastruktur" />
		<tag k="ssr:stedsnr" v="977683" />
		<tag k="ssr:type" v="adressenavn" />
	</node>
	<node lat="58.278790197807105" lon="6.802730304456476" id="-63577">
		<tag k="name" v="Bakken" />
		<tag k="ssr:date" v="2019-12-27" />
		<tag k="ssr:gruppe" v="veg" />
		<tag k="ssr:hovedgruppe" v="infrastruktur" />
		<tag k="ssr:stedsnr" v="977685" />
		<tag k="ssr:type" v="adressenavn" />
	</node>
	<node lat="58.27125226593538" lon="6.813207055864395" id="-63578">
		<tag k="name" v="Lindlandsbakken" />
		<tag k="ssr:date" v="2019-12-27" />
		<tag k="ssr:gruppe" v="veg" />
		<tag k="ssr:hovedgruppe" v="infrastruktur" />
		<tag k="ssr:stedsnr" v="977686" />
		<tag k="ssr:type" v="adressenavn" />
	</node>
	<node lat="58.27549404616917" lon="6.8119568057179825" id="-63579">
		<tag k="name" v="Ravnevollen" />
		<tag k="ssr:date" v="2019-12-27" />
		<tag k="ssr:gruppe" v="veg" />
		<tag k="ssr:hovedgruppe" v="infrastruktur" />
		<tag k="ssr:stedsnr" v="977717" />
		<tag k="ssr:type" v="adressenavn" />
	</node>
	<node lat="58.217489996763625" lon="6.795016160033076" id="-63580">
		<tag k="name" v="Håland" />
		<tag k="ssr:date" v="2019-12-27" />
		<tag k="ssr:gruppe" v="veg" />
		<tag k="ssr:hovedgruppe" v="infrastruktur" />
		<tag k="ssr:stedsnr" v="977718" />
		<tag k="ssr:type" v="adressenavn" />
	</node>
	<node lat="58.23256709780631" lon="6.829203180304717" id="-63581">
		<tag k="name" v="Skranefjell" />
		<tag k="ssr:date" v="2019-12-27" />
		<tag k="ssr:gruppe" v="veg" />
		<tag k="ssr:hovedgruppe" v="infrastruktur" />
		<tag k="ssr:stedsnr" v="977719" />
		<tag k="ssr:type" v="adressenavn" />
	</node>
	<node lat="58.35787183506019" lon="6.9720568061793085" id="-63582">
		<tag k="name" v="Rahommen" />
		<tag k="ssr:date" v="2019-12-27" />
		<tag k="ssr:gruppe" v="veg" />
		<tag k="ssr:hovedgruppe" v="infrastruktur" />
		<tag k="ssr:stedsnr" v="977839" />
		<tag k="ssr:type" v="adressenavn" />
	</node>
	<node lat="58.359239277273886" lon="6.973991565332073" id="-63583">
		<tag k="name" v="Rafossbakken" />
		<tag k="ssr:date" v="2019-12-27" />
		<tag k="ssr:gruppe" v="veg" />
		<tag k="ssr:hovedgruppe" v="infrastruktur" />
		<tag k="ssr:stedsnr" v="977841" />
		<tag k="ssr:type" v="adressenavn" />
	</node>
	<node lat="58.33997733397976" lon="7.045456872331216" id="-63584">
		<tag k="name" v="Moisheia" />
		<tag k="ssr:date" v="2019-12-27" />
		<tag k="ssr:gruppe" v="veg" />
		<tag k="ssr:hovedgruppe" v="infrastruktur" />
		<tag k="ssr:stedsnr" v="977778" />
		<tag k="ssr:type" v="adressenavn" />
	</node>
	<node lat="58.32903745626859" lon="7.009069102426187" id="-63585">
		<tag k="name" v="Moisveien" />
		<tag k="ssr:date" v="2019-12-27" />
		<tag k="ssr:gruppe" v="veg" />
		<tag k="ssr:hovedgruppe" v="infrastruktur" />
		<tag k="ssr:stedsnr" v="977779" />
		<tag k="ssr:type" v="adressenavn" />
	</node>
	<node lat="58.34469140934232" lon="7.036204542252896" id="-63586">
		<tag k="name" v="Gamle Årliveien" />
		<tag k="ssr:date" v="2019-12-27" />
		<tag k="ssr:gruppe" v="veg" />
		<tag k="ssr:hovedgruppe" v="infrastruktur" />
		<tag k="ssr:stedsnr" v="977780" />
		<tag k="ssr:type" v="adressenavn" />
	</node>
	<node lat="58.33152043091347" lon="7.011840888088792" id="-63587">
		<tag k="name" v="Jerdal" />
		<tag k="ssr:date" v="2019-12-27" />
		<tag k="ssr:gruppe" v="veg" />
		<tag k="ssr:hovedgruppe" v="infrastruktur" />
		<tag k="ssr:stedsnr" v="977781" />
		<tag k="ssr:type" v="adressenavn" />
	</node>
	<node lat="58.35232243309335" lon="6.967220056031538" id="-63588">
		<tag k="name" v="Lyding" />
		<tag k="ssr:date" v="2019-12-27" />
		<tag k="ssr:gruppe" v="veg" />
		<tag k="ssr:hovedgruppe" v="infrastruktur" />
		<tag k="ssr:stedsnr" v="977836" />
		<tag k="ssr:type" v="adressenavn" />
	</node>
	<node lat="58.67098328672036" lon="7.045510440155753" id="-63589">
		<tag k="name" v="Hattevarden" />
		<tag k="ssr:date" v="2019-12-27" />
		<tag k="ssr:gruppe" v="veg" />
		<tag k="ssr:hovedgruppe" v="infrastruktur" />
		<tag k="ssr:stedsnr" v="977946" />
		<tag k="ssr:type" v="adressenavn" />
	</node>
	<node lat="58.67216114077523" lon="7.06469177758945" id="-63590">
		<tag k="name" v="Ørnehommen" />
		<tag k="ssr:date" v="2019-12-27" />
		<tag k="ssr:gruppe" v="veg" />
		<tag k="ssr:hovedgruppe" v="infrastruktur" />
		<tag k="ssr:stedsnr" v="977947" />
		<tag k="ssr:type" v="adressenavn" />
	</node>
	<node lat="58.66574103868288" lon="7.0641768899414235" id="-63591">
		<tag k="name" v="Stølsvegen" />
		<tag k="ssr:date" v="2019-12-27" />
		<tag k="ssr:gruppe" v="veg" />
		<tag k="ssr:hovedgruppe" v="infrastruktur" />
		<tag k="ssr:stedsnr" v="977949" />
		<tag k="ssr:type" v="adressenavn" />
	</node>
	<node lat="58.66956486579209" lon="7.066703875228382" id="-63592">
		<tag k="name" v="Reinshommen" />
		<tag k="ssr:date" v="2019-12-27" />
		<tag k="ssr:gruppe" v="veg" />
		<tag k="ssr:hovedgruppe" v="infrastruktur" />
		<tag k="ssr:stedsnr" v="977950" />
		<tag k="ssr:type" v="adressenavn" />
	</node>
	<node lat="58.66392625540662" lon="7.071926025186828" id="-63593">
		<tag k="name" v="Gruvebyen" />
		<tag k="ssr:date" v="2019-12-27" />
		<tag k="ssr:gruppe" v="veg" />
		<tag k="ssr:hovedgruppe" v="infrastruktur" />
		<tag k="ssr:stedsnr" v="977951" />
		<tag k="ssr:type" v="adressenavn" />
	</node>
	<node lat="58.6597047587064" lon="7.073343957914608" id="-63594">
		<tag k="name" v="Gruvebakken" />
		<tag k="ssr:date" v="2019-12-27" />
		<tag k="ssr:gruppe" v="veg" />
		<tag k="ssr:hovedgruppe" v="infrastruktur" />
		<tag k="ssr:stedsnr" v="977952" />
		<tag k="ssr:type" v="adressenavn" />
	</node>
	<node lat="58.666781575235" lon="7.054136046935412" id="-63595">
		<tag k="name" v="Løgeheia" />
		<tag k="ssr:date" v="2019-12-27" />
		<tag k="ssr:gruppe" v="veg" />
		<tag k="ssr:hovedgruppe" v="infrastruktur" />
		<tag k="ssr:stedsnr" v="977954" />
		<tag k="ssr:type" v="adressenavn" />
	</node>
	<node lat="58.66713667635197" lon="7.036563650518496" id="-63596">
		<tag k="name" v="Svodin" />
		<tag k="ssr:date" v="2019-12-27" />
		<tag k="ssr:gruppe" v="veg" />
		<tag k="ssr:hovedgruppe" v="infrastruktur" />
		<tag k="ssr:stedsnr" v="977955" />
		<tag k="ssr:type" v="adressenavn" />
	</node>
	<node lat="58.509072885823876" lon="6.865162839895946" id="-63597">
		<tag k="name" v="Selandsmonen" />
		<tag k="ssr:date" v="2019-12-27" />
		<tag k="ssr:gruppe" v="veg" />
		<tag k="ssr:hovedgruppe" v="infrastruktur" />
		<tag k="ssr:stedsnr" v="977956" />
		<tag k="ssr:type" v="adressenavn" />
	</node>
	<node lat="58.5066617348337" lon="6.8633577811547894" id="-63598">
		<tag k="name" v="Alfarheim" />
		<tag k="ssr:date" v="2019-12-27" />
		<tag k="ssr:gruppe" v="veg" />
		<tag k="ssr:hovedgruppe" v="infrastruktur" />
		<tag k="ssr:stedsnr" v="977958" />
		<tag k="ssr:type" v="adressenavn" />
	</node>
	<node lat="58.52594461952706" lon="6.995658533006237" id="-63599">
		<tag k="name" v="Eftestøl" />
		<tag k="ssr:date" v="2019-12-27" />
		<tag k="ssr:gruppe" v="veg" />
		<tag k="ssr:hovedgruppe" v="infrastruktur" />
		<tag k="ssr:stedsnr" v="977959" />
		<tag k="ssr:type" v="adressenavn" />
	</node>
	<node lat="58.672757445457215" lon="7.050593879638814" id="-63600">
		<tag k="name" v="Kvinavegen" />
		<tag k="ssr:date" v="2019-12-27" />
		<tag k="ssr:gruppe" v="veg" />
		<tag k="ssr:hovedgruppe" v="infrastruktur" />
		<tag k="ssr:stedsnr" v="977961" />
		<tag k="ssr:type" v="adressenavn" />
	</node>
	<node lat="58.67192056105501" lon="7.048802657107196" id="-63601">
		<tag k="name" v="Hareslåta" />
		<tag k="ssr:date" v="2019-12-27" />
		<tag k="ssr:gruppe" v="veg" />
		<tag k="ssr:hovedgruppe" v="infrastruktur" />
		<tag k="ssr:stedsnr" v="977962" />
		<tag k="ssr:type" v="adressenavn" />
	</node>
	<node lat="58.55240715668239" lon="6.9704527288883105" id="-63602">
		<tag k="name" v="Førlandsås" />
		<tag k="ssr:date" v="2019-12-27" />
		<tag k="ssr:gruppe" v="veg" />
		<tag k="ssr:hovedgruppe" v="infrastruktur" />
		<tag k="ssr:stedsnr" v="977963" />
		<tag k="ssr:type" v="adressenavn" />
	</node>
	<node lat="58.66310049345792" lon="7.073769450792905" id="-63603">
		<tag k="name" v="Benkehei" />
		<tag k="ssr:date" v="2019-12-27" />
		<tag k="ssr:gruppe" v="veg" />
		<tag k="ssr:hovedgruppe" v="infrastruktur" />
		<tag k="ssr:stedsnr" v="977964" />
		<tag k="ssr:type" v="adressenavn" />
	</node>
	<node lat="58.50488796511959" lon="7.033574609533344" id="-63604">
		<tag k="name" v="Fjotlandsvegen" />
		<tag k="ssr:date" v="2019-12-27" />
		<tag k="ssr:gruppe" v="veg" />
		<tag k="ssr:hovedgruppe" v="infrastruktur" />
		<tag k="ssr:stedsnr" v="977965" />
		<tag k="ssr:type" v="adressenavn" />
	</node>
	<node lat="58.523275329176286" lon="6.935562517475985" id="-63605">
		<tag k="name" v="Knabevegen" />
		<tag k="ssr:date" v="2019-12-27" />
		<tag k="ssr:gruppe" v="veg" />
		<tag k="ssr:hovedgruppe" v="infrastruktur" />
		<tag k="ssr:stedsnr" v="977967" />
		<tag k="ssr:type" v="adressenavn" />
	</node>
	<node lat="58.62575674658842" lon="6.906538037356263" id="-63606">
		<tag k="name" v="Risnesvegen" />
		<tag k="ssr:date" v="2019-12-27" />
		<tag k="ssr:gruppe" v="veg" />
		<tag k="ssr:hovedgruppe" v="infrastruktur" />
		<tag k="ssr:stedsnr" v="977969" />
		<tag k="ssr:type" v="adressenavn" />
	</node>
	<node lat="58.50157360343093" lon="7.08983465825102" id="-63607">
		<tag k="name" v="Eieslandsvegen" />
		<tag k="ssr:date" v="2019-12-27" />
		<tag k="ssr:gruppe" v="veg" />
		<tag k="ssr:hovedgruppe" v="infrastruktur" />
		<tag k="ssr:stedsnr" v="977971" />
		<tag k="ssr:type" v="adressenavn" />
	</node>
	<node lat="58.52157913240782" lon="6.933984075484195" id="-63608">
		<tag k="name" v="Krågelandsvegen" />
		<tag k="ssr:date" v="2019-12-27" />
		<tag k="ssr:gruppe" v="veg" />
		<tag k="ssr:hovedgruppe" v="infrastruktur" />
		<tag k="ssr:stedsnr" v="977972" />
		<tag k="ssr:type" v="adressenavn" />
	</node>
	<node lat="58.5032713136765" lon="6.861693345719524" id="-63609">
		<tag k="name" v="Leide" />
		<tag k="ssr:date" v="2019-12-27" />
		<tag k="ssr:gruppe" v="veg" />
		<tag k="ssr:hovedgruppe" v="infrastruktur" />
		<tag k="ssr:stedsnr" v="977973" />
		<tag k="ssr:type" v="adressenavn" />
	</node>
	<node lat="58.502650579997216" lon="6.860447308787473" id="-63610">
		<tag k="name" v="Snødalen" />
		<tag k="ssr:date" v="2019-12-27" />
		<tag k="ssr:gruppe" v="veg" />
		<tag k="ssr:hovedgruppe" v="infrastruktur" />
		<tag k="ssr:stedsnr" v="977974" />
		<tag k="ssr:type" v="adressenavn" />
	</node>
	<node lat="58.51696214661723" lon="6.922543227163435" id="-63611">
		<tag k="name" v="Øvre Kvinlog" />
		<tag k="ssr:date" v="2019-12-27" />
		<tag k="ssr:gruppe" v="veg" />
		<tag k="ssr:hovedgruppe" v="infrastruktur" />
		<tag k="ssr:stedsnr" v="977975" />
		<tag k="ssr:type" v="adressenavn" />
	</node>
	<node lat="58.50509855660686" lon="6.861300044846634" id="-63612">
		<tag k="name" v="Solmyra" />
		<tag k="ssr:date" v="2019-12-27" />
		<tag k="ssr:gruppe" v="veg" />
		<tag k="ssr:hovedgruppe" v="infrastruktur" />
		<tag k="ssr:stedsnr" v="977978" />
		<tag k="ssr:type" v="adressenavn" />
	</node>
	<node lat="58.513804113947245" lon="6.984804443470206" id="-63613">
		<tag k="name" v="Fjotland" />
		<tag k="ssr:date" v="2019-12-27" />
		<tag k="ssr:gruppe" v="veg" />
		<tag k="ssr:hovedgruppe" v="infrastruktur" />
		<tag k="ssr:stedsnr" v="977979" />
		<tag k="ssr:type" v="adressenavn" />
	</node>
	<node lat="58.50837553714822" lon="7.018514405860035" id="-63614">
		<tag k="name" v="Fossdalsvegen" />
		<tag k="ssr:date" v="2019-12-27" />
		<tag k="ssr:gruppe" v="veg" />
		<tag k="ssr:hovedgruppe" v="infrastruktur" />
		<tag k="ssr:stedsnr" v="977981" />
		<tag k="ssr:type" v="adressenavn" />
	</node>
	<node lat="58.541716414215216" lon="6.966060593566855" id="-63615">
		<tag k="name" v="Bergeslivegen" />
		<tag k="ssr:date" v="2019-12-27" />
		<tag k="ssr:gruppe" v="veg" />
		<tag k="ssr:hovedgruppe" v="infrastruktur" />
		<tag k="ssr:stedsnr" v="977995" />
		<tag k="ssr:type" v="adressenavn" />
	</node>
	<node lat="58.743642567330674" lon="6.963701327341034" id="-63616">
		<tag k="name" v="Salmeli" />
		<tag k="ssr:date" v="2019-12-27" />
		<tag k="ssr:gruppe" v="veg" />
		<tag k="ssr:hovedgruppe" v="infrastruktur" />
		<tag k="ssr:stedsnr" v="977997" />
		<tag k="ssr:type" v="adressenavn" />
	</node>
	<node lat="58.54494790541718" lon="6.968252190474586" id="-63617">
		<tag k="name" v="Røyland" />
		<tag k="ssr:date" v="2019-12-27" />
		<tag k="ssr:gruppe" v="veg" />
		<tag k="ssr:hovedgruppe" v="infrastruktur" />
		<tag k="ssr:stedsnr" v="978010" />
		<tag k="ssr:type" v="adressenavn" />
	</node>
	<node lat="58.55957111037334" lon="6.90816361085072" id="-63618">
		<tag k="name" v="Sollivegen" />
		<tag k="ssr:date" v="2019-12-27" />
		<tag k="ssr:gruppe" v="veg" />
		<tag k="ssr:hovedgruppe" v="infrastruktur" />
		<tag k="ssr:stedsnr" v="978011" />
		<tag k="ssr:type" v="adressenavn" />
	</node>
	<node lat="58.259156429827065" lon="6.844440772326502" id="-64118">
		<tag k="name" v="Fedefjord" />
		<tag k="ssr:date" v="2020-09-03" />
		<tag k="ssr:gruppe" v="navigasjon" />
		<tag k="ssr:hovedgruppe" v="infrastruktur" />
		<tag k="ssr:stedsnr" v="145447" />
		<tag k="ssr:type" v="fyrlykt" />
	</node>
	<node lat="58.31602640452939" lon="6.963122292208901" id="-66220">
		<tag k="loc_name" v="Kvinesdal" />
		<tag k="name" v="Kvinesdal kommune" />
		<tag k="ssr:date" v="2019-12-27" />
		<tag k="ssr:gruppe" v="administrativeIndelinger" />
		<tag k="ssr:hovedgruppe" v="offentligAdministrasjon" />
		<tag k="ssr:stedsnr" v="882235" />
		<tag k="ssr:type" v="kommune" />
	</node>
	<node lat="58.32033650596047" lon="6.961042755034914" id="-66437">
		<tag k="name" v="Austerdalsvegen" />
		<tag k="ssr:date" v="2019-12-27" />
		<tag k="ssr:gruppe" v="veg" />
		<tag k="ssr:hovedgruppe" v="infrastruktur" />
		<tag k="ssr:stedsnr" v="941287" />
		<tag k="ssr:type" v="adressenavn" />
	</node>
	<node lat="58.263029990412" lon="6.819633007337081" id="-66652">
		<tag k="name" v="Nedre Feda" />
		<tag k="ssr:date" v="2019-12-27" />
		<tag k="ssr:gruppe" v="veg" />
		<tag k="ssr:hovedgruppe" v="infrastruktur" />
		<tag k="ssr:stedsnr" v="977687" />
		<tag k="ssr:type" v="adressenavn" />
	</node>
	<node lat="58.26420051288338" lon="6.844575092998058" id="-66653">
		<tag k="name" v="Angholmveien" />
		<tag k="ssr:date" v="2019-12-27" />
		<tag k="ssr:gruppe" v="veg" />
		<tag k="ssr:hovedgruppe" v="infrastruktur" />
		<tag k="ssr:stedsnr" v="977688" />
		<tag k="ssr:type" v="adressenavn" />
	</node>
	<node lat="58.27550710602717" lon="6.812026384163816" id="-66654">
		<tag k="name" v="Birkeland" />
		<tag k="ssr:date" v="2019-12-27" />
		<tag k="ssr:gruppe" v="veg" />
		<tag k="ssr:hovedgruppe" v="infrastruktur" />
		<tag k="ssr:stedsnr" v="977689" />
		<tag k="ssr:type" v="adressenavn" />
	</node>
	<node lat="58.27580093268389" lon="6.811773654590974" id="-66655">
		<tag k="name" v="Vatlandsveien" />
		<tag k="ssr:date" v="2019-12-27" />
		<tag k="ssr:gruppe" v="veg" />
		<tag k="ssr:hovedgruppe" v="infrastruktur" />
		<tag k="ssr:stedsnr" v="977690" />
		<tag k="ssr:type" v="adressenavn" />
	</node>
	<node lat="58.28446551930907" lon="6.829418582075058" id="-66656">
		<tag k="name" v="Høyland" />
		<tag k="ssr:date" v="2019-12-27" />
		<tag k="ssr:gruppe" v="veg" />
		<tag k="ssr:hovedgruppe" v="infrastruktur" />
		<tag k="ssr:stedsnr" v="977691" />
		<tag k="ssr:type" v="adressenavn" />
	</node>
	<node lat="58.28150865199325" lon="6.881331021167639" id="-66657">
		<tag k="name" v="Frøytlandsveien" />
		<tag k="ssr:date" v="2019-12-27" />
		<tag k="ssr:gruppe" v="veg" />
		<tag k="ssr:hovedgruppe" v="infrastruktur" />
		<tag k="ssr:stedsnr" v="977693" />
		<tag k="ssr:type" v="adressenavn" />
	</node>
	<node lat="58.27046165778128" lon="6.815673488238325" id="-66658">
		<tag k="name" v="Høylandsveien" />
		<tag k="ssr:date" v="2019-12-27" />
		<tag k="ssr:gruppe" v="veg" />
		<tag k="ssr:hovedgruppe" v="infrastruktur" />
		<tag k="ssr:stedsnr" v="977694" />
		<tag k="ssr:type" v="adressenavn" />
	</node>
	<node lat="58.28356911031824" lon="6.847624597555348" id="-66659">
		<tag k="name" v="Raustad" />
		<tag k="ssr:date" v="2019-12-27" />
		<tag k="ssr:gruppe" v="veg" />
		<tag k="ssr:hovedgruppe" v="infrastruktur" />
		<tag k="ssr:stedsnr" v="977695" />
		<tag k="ssr:type" v="adressenavn" />
	</node>
	<node lat="58.27494689639432" lon="6.798370255784451" id="-66660">
		<tag k="name" v="Svindlandsveien" />
		<tag k="ssr:date" v="2019-12-27" />
		<tag k="ssr:gruppe" v="veg" />
		<tag k="ssr:hovedgruppe" v="infrastruktur" />
		<tag k="ssr:stedsnr" v="977696" />
		<tag k="ssr:type" v="adressenavn" />
	</node>
	<node lat="58.30821944999882" lon="6.9710858904033675" id="-66661">
		<tag k="name" v="Husefjell" />
		<tag k="ssr:date" v="2019-12-27" />
		<tag k="ssr:gruppe" v="veg" />
		<tag k="ssr:hovedgruppe" v="infrastruktur" />
		<tag k="ssr:stedsnr" v="977752" />
		<tag k="ssr:type" v="adressenavn" />
	</node>
	<node lat="58.3089716231659" lon="6.994218640360373" id="-66662">
		<tag k="name" v="Skaren" />
		<tag k="ssr:date" v="2019-12-27" />
		<tag k="ssr:gruppe" v="veg" />
		<tag k="ssr:hovedgruppe" v="infrastruktur" />
		<tag k="ssr:stedsnr" v="977753" />
		<tag k="ssr:type" v="adressenavn" />
	</node>
	<node lat="58.27820396729694" lon="7.027506101328971" id="-66663">
		<tag k="name" v="Ågedal" />
		<tag k="ssr:date" v="2019-12-27" />
		<tag k="ssr:gruppe" v="veg" />
		<tag k="ssr:hovedgruppe" v="infrastruktur" />
		<tag k="ssr:stedsnr" v="977756" />
		<tag k="ssr:type" v="adressenavn" />
	</node>
	<node lat="58.262413933780614" lon="7.021639347210879" id="-66664">
		<tag k="name" v="Sørhelleveien" />
		<tag k="ssr:date" v="2019-12-27" />
		<tag k="ssr:gruppe" v="veg" />
		<tag k="ssr:hovedgruppe" v="infrastruktur" />
		<tag k="ssr:stedsnr" v="977758" />
		<tag k="ssr:type" v="adressenavn" />
	</node>
	<node lat="58.25561483396965" lon="6.995423448557281" id="-66665">
		<tag k="name" v="Lille Nordhelle" />
		<tag k="ssr:date" v="2019-12-27" />
		<tag k="ssr:gruppe" v="veg" />
		<tag k="ssr:hovedgruppe" v="infrastruktur" />
		<tag k="ssr:stedsnr" v="977760" />
		<tag k="ssr:type" v="adressenavn" />
	</node>
	<node lat="58.259715254633825" lon="7.04661243608428" id="-66666">
		<tag k="name" v="Brådlandsveien" />
		<tag k="ssr:date" v="2019-12-27" />
		<tag k="ssr:gruppe" v="veg" />
		<tag k="ssr:hovedgruppe" v="infrastruktur" />
		<tag k="ssr:stedsnr" v="977761" />
		<tag k="ssr:type" v="adressenavn" />
	</node>
	<node lat="58.23945362695079" lon="7.010558440771892" id="-66667">
		<tag k="name" v="Gluggevannsveien" />
		<tag k="ssr:date" v="2019-12-27" />
		<tag k="ssr:gruppe" v="veg" />
		<tag k="ssr:hovedgruppe" v="infrastruktur" />
		<tag k="ssr:stedsnr" v="977762" />
		<tag k="ssr:type" v="adressenavn" />
	</node>
	<node lat="58.262413933780614" lon="7.021639347210879" id="-66668">
		<tag k="name" v="Førland" />
		<tag k="ssr:date" v="2019-12-27" />
		<tag k="ssr:gruppe" v="veg" />
		<tag k="ssr:hovedgruppe" v="infrastruktur" />
		<tag k="ssr:stedsnr" v="977763" />
		<tag k="ssr:type" v="adressenavn" />
	</node>
	<node lat="58.26167610944746" lon="7.019528953829004" id="-66669">
		<tag k="name" v="Forebakken" />
		<tag k="ssr:date" v="2019-12-27" />
		<tag k="ssr:gruppe" v="veg" />
		<tag k="ssr:hovedgruppe" v="infrastruktur" />
		<tag k="ssr:stedsnr" v="977765" />
		<tag k="ssr:type" v="adressenavn" />
	</node>
	<node lat="58.24262514715368" lon="7.008211309371395" id="-66670">
		<tag k="name" v="Lonen" />
		<tag k="ssr:date" v="2019-12-27" />
		<tag k="ssr:gruppe" v="veg" />
		<tag k="ssr:hovedgruppe" v="infrastruktur" />
		<tag k="ssr:stedsnr" v="977766" />
		<tag k="ssr:type" v="adressenavn" />
	</node>
	<node lat="58.35540785915699" lon="7.107736532967448" id="-66671">
		<tag k="name" v="Årliveien" />
		<tag k="ssr:date" v="2019-12-27" />
		<tag k="ssr:gruppe" v="veg" />
		<tag k="ssr:hovedgruppe" v="infrastruktur" />
		<tag k="ssr:stedsnr" v="977777" />
		<tag k="ssr:type" v="adressenavn" />
	</node>
	<node lat="58.3776254996752" lon="6.964083469783999" id="-66672">
		<tag k="name" v="Skjekkeland" />
		<tag k="ssr:date" v="2019-12-27" />
		<tag k="ssr:gruppe" v="veg" />
		<tag k="ssr:hovedgruppe" v="infrastruktur" />
		<tag k="ssr:stedsnr" v="977842" />
		<tag k="ssr:type" v="adressenavn" />
	</node>
	<node lat="58.377762055612905" lon="6.96205595867834" id="-66673">
		<tag k="name" v="Stegemoen" />
		<tag k="ssr:date" v="2019-12-27" />
		<tag k="ssr:gruppe" v="veg" />
		<tag k="ssr:hovedgruppe" v="infrastruktur" />
		<tag k="ssr:stedsnr" v="977843" />
		<tag k="ssr:type" v="adressenavn" />
	</node>
	<node lat="58.38220384490886" lon="6.9555762745016025" id="-66674">
		<tag k="name" v="Bjåstølveien" />
		<tag k="ssr:date" v="2019-12-27" />
		<tag k="ssr:gruppe" v="veg" />
		<tag k="ssr:hovedgruppe" v="infrastruktur" />
		<tag k="ssr:stedsnr" v="977844" />
		<tag k="ssr:type" v="adressenavn" />
	</node>
	<node lat="58.379077818335865" lon="6.959974141796501" id="-66675">
		<tag k="name" v="Refskarmonen" />
		<tag k="ssr:date" v="2019-12-27" />
		<tag k="ssr:gruppe" v="veg" />
		<tag k="ssr:hovedgruppe" v="infrastruktur" />
		<tag k="ssr:stedsnr" v="977846" />
		<tag k="ssr:type" v="adressenavn" />
	</node>
	<node lat="58.38479121620846" lon="6.956149743660704" id="-66676">
		<tag k="name" v="Breimonen" />
		<tag k="ssr:date" v="2019-12-27" />
		<tag k="ssr:gruppe" v="veg" />
		<tag k="ssr:hovedgruppe" v="infrastruktur" />
		<tag k="ssr:stedsnr" v="977848" />
		<tag k="ssr:type" v="adressenavn" />
	</node>
	<node lat="58.39110342702563" lon="6.953523939699765" id="-66677">
		<tag k="name" v="Biktjørnsveien" />
		<tag k="ssr:date" v="2019-12-27" />
		<tag k="ssr:gruppe" v="veg" />
		<tag k="ssr:hovedgruppe" v="infrastruktur" />
		<tag k="ssr:stedsnr" v="977849" />
		<tag k="ssr:type" v="adressenavn" />
	</node>
	<node lat="58.39485257319115" lon="6.960752831345062" id="-66678">
		<tag k="name" v="Homplandsveien" />
		<tag k="ssr:date" v="2019-12-27" />
		<tag k="ssr:gruppe" v="veg" />
		<tag k="ssr:hovedgruppe" v="infrastruktur" />
		<tag k="ssr:stedsnr" v="977850" />
		<tag k="ssr:type" v="adressenavn" />
	</node>
	<node lat="58.39599115347119" lon="6.943311561196787" id="-66679">
		<tag k="name" v="Hagan" />
		<tag k="ssr:date" v="2019-12-27" />
		<tag k="ssr:gruppe" v="veg" />
		<tag k="ssr:hovedgruppe" v="infrastruktur" />
		<tag k="ssr:stedsnr" v="977851" />
		<tag k="ssr:type" v="adressenavn" />
	</node>
	<node lat="58.39655639318984" lon="6.944166950730001" id="-66680">
		<tag k="name" v="Røyselandsveien" />
		<tag k="ssr:date" v="2019-12-27" />
		<tag k="ssr:gruppe" v="veg" />
		<tag k="ssr:hovedgruppe" v="infrastruktur" />
		<tag k="ssr:stedsnr" v="977852" />
		<tag k="ssr:type" v="adressenavn" />
	</node>
	<node lat="58.44541952962545" lon="6.921642379106797" id="-66681">
		<tag k="name" v="Narvestad" />
		<tag k="ssr:date" v="2019-12-27" />
		<tag k="ssr:gruppe" v="veg" />
		<tag k="ssr:hovedgruppe" v="infrastruktur" />
		<tag k="ssr:stedsnr" v="977859" />
		<tag k="ssr:type" v="adressenavn" />
	</node>
	<node lat="58.47471924978189" lon="6.920722219564596" id="-66682">
		<tag k="name" v="Nedre Kvinlogsveg" />
		<tag k="ssr:date" v="2019-12-27" />
		<tag k="ssr:gruppe" v="veg" />
		<tag k="ssr:hovedgruppe" v="infrastruktur" />
		<tag k="ssr:stedsnr" v="977861" />
		<tag k="ssr:type" v="adressenavn" />
	</node>
	<node lat="58.481541628905134" lon="6.956722791772495" id="-66683">
		<tag k="name" v="Årstølvegen" />
		<tag k="ssr:date" v="2019-12-27" />
		<tag k="ssr:gruppe" v="veg" />
		<tag k="ssr:hovedgruppe" v="infrastruktur" />
		<tag k="ssr:stedsnr" v="977863" />
		<tag k="ssr:type" v="adressenavn" />
	</node>
	<node lat="58.503656346656086" lon="6.93705924403604" id="-66684">
		<tag k="name" v="Engedal" />
		<tag k="ssr:date" v="2019-12-27" />
		<tag k="ssr:gruppe" v="veg" />
		<tag k="ssr:hovedgruppe" v="infrastruktur" />
		<tag k="ssr:stedsnr" v="977917" />
		<tag k="ssr:type" v="adressenavn" />
	</node>
	<node lat="58.372133951680844" lon="6.971933120533381" id="-66685">
		<tag k="name" v="Midtbakken" />
		<tag k="ssr:date" v="2019-12-27" />
		<tag k="ssr:gruppe" v="veg" />
		<tag k="ssr:hovedgruppe" v="infrastruktur" />
		<tag k="ssr:stedsnr" v="977920" />
		<tag k="ssr:type" v="adressenavn" />
	</node>
	<node lat="58.26345529565693" lon="6.81577505674804" id="-66686">
		<tag k="name" v="Sandsåsen" />
		<tag k="ssr:date" v="2019-12-27" />
		<tag k="ssr:gruppe" v="veg" />
		<tag k="ssr:hovedgruppe" v="infrastruktur" />
		<tag k="ssr:stedsnr" v="977698" />
		<tag k="ssr:type" v="adressenavn" />
	</node>
	<node lat="58.26472934092236" lon="6.819671275678221" id="-66687">
		<tag k="name" v="Bergan" />
		<tag k="ssr:date" v="2019-12-27" />
		<tag k="ssr:gruppe" v="veg" />
		<tag k="ssr:hovedgruppe" v="infrastruktur" />
		<tag k="ssr:stedsnr" v="977699" />
		<tag k="ssr:type" v="adressenavn" />
	</node>
	<node lat="58.27550710602717" lon="6.812026384163816" id="-66688">
		<tag k="name" v="Birkelandsbakken" />
		<tag k="ssr:date" v="2019-12-27" />
		<tag k="ssr:gruppe" v="veg" />
		<tag k="ssr:hovedgruppe" v="infrastruktur" />
		<tag k="ssr:stedsnr" v="977700" />
		<tag k="ssr:type" v="adressenavn" />
	</node>
	<node lat="58.26704181859607" lon="6.818450461664997" id="-66689">
		<tag k="name" v="Storevollen" />
		<tag k="ssr:date" v="2019-12-27" />
		<tag k="ssr:gruppe" v="veg" />
		<tag k="ssr:hovedgruppe" v="infrastruktur" />
		<tag k="ssr:stedsnr" v="977702" />
		<tag k="ssr:type" v="adressenavn" />
	</node>
	<node lat="58.26757660194567" lon="6.818070700577119" id="-66690">
		<tag k="name" v="Hellevollen" />
		<tag k="ssr:date" v="2019-12-27" />
		<tag k="ssr:gruppe" v="veg" />
		<tag k="ssr:hovedgruppe" v="infrastruktur" />
		<tag k="ssr:stedsnr" v="977703" />
		<tag k="ssr:type" v="adressenavn" />
	</node>
	<node lat="58.26947758987784" lon="6.816867787848194" id="-66691">
		<tag k="name" v="Leirbakken" />
		<tag k="ssr:date" v="2019-12-27" />
		<tag k="ssr:gruppe" v="veg" />
		<tag k="ssr:hovedgruppe" v="infrastruktur" />
		<tag k="ssr:stedsnr" v="977704" />
		<tag k="ssr:type" v="adressenavn" />
	</node>
	<node lat="58.265857464028954" lon="6.777711238385888" id="-66692">
		<tag k="name" v="Haugelandsveien" />
		<tag k="ssr:date" v="2019-12-27" />
		<tag k="ssr:gruppe" v="veg" />
		<tag k="ssr:hovedgruppe" v="infrastruktur" />
		<tag k="ssr:stedsnr" v="977706" />
		<tag k="ssr:type" v="adressenavn" />
	</node>
	<node lat="58.23357160406911" lon="6.734255486031697" id="-66693">
		<tag k="name" v="Sveigenes" />
		<tag k="ssr:date" v="2019-12-27" />
		<tag k="ssr:gruppe" v="veg" />
		<tag k="ssr:hovedgruppe" v="infrastruktur" />
		<tag k="ssr:stedsnr" v="977707" />
		<tag k="ssr:type" v="adressenavn" />
	</node>
	<node lat="58.31308476909972" lon="6.825334647951839" id="-66694">
		<tag k="name" v="Lona" />
		<tag k="ssr:date" v="2019-12-27" />
		<tag k="ssr:gruppe" v="veg" />
		<tag k="ssr:hovedgruppe" v="infrastruktur" />
		<tag k="ssr:stedsnr" v="977708" />
		<tag k="ssr:type" v="adressenavn" />
	</node>
	<node lat="58.269497457102624" lon="6.816840050029167" id="-66695">
		<tag k="name" v="Leirvollen" />
		<tag k="ssr:date" v="2019-12-27" />
		<tag k="ssr:gruppe" v="veg" />
		<tag k="ssr:hovedgruppe" v="infrastruktur" />
		<tag k="ssr:stedsnr" v="977711" />
		<tag k="ssr:type" v="adressenavn" />
	</node>
	<node lat="58.269179694939076" lon="6.8171443121741175" id="-66696">
		<tag k="name" v="Orrekjerra" />
		<tag k="ssr:date" v="2019-12-27" />
		<tag k="ssr:gruppe" v="veg" />
		<tag k="ssr:hovedgruppe" v="infrastruktur" />
		<tag k="ssr:stedsnr" v="977712" />
		<tag k="ssr:type" v="adressenavn" />
	</node>
	<node lat="58.2623124586671" lon="6.820078201883144" id="-66697">
		<tag k="name" v="Fedabrygga" />
		<tag k="ssr:date" v="2019-12-27" />
		<tag k="ssr:gruppe" v="veg" />
		<tag k="ssr:hovedgruppe" v="infrastruktur" />
		<tag k="ssr:stedsnr" v="977713" />
		<tag k="ssr:type" v="adressenavn" />
	</node>
	<node lat="58.271582464620934" lon="6.817245041222395" id="-66698">
		<tag k="name" v="Smia" />
		<tag k="ssr:date" v="2019-12-27" />
		<tag k="ssr:gruppe" v="veg" />
		<tag k="ssr:hovedgruppe" v="infrastruktur" />
		<tag k="ssr:stedsnr" v="977716" />
		<tag k="ssr:type" v="adressenavn" />
	</node>
	<node lat="58.35578785706069" lon="7.030140235068226" id="-66699">
		<tag k="name" v="Gjemlestad" />
		<tag k="ssr:date" v="2019-12-27" />
		<tag k="ssr:gruppe" v="veg" />
		<tag k="ssr:hovedgruppe" v="infrastruktur" />
		<tag k="ssr:stedsnr" v="977789" />
		<tag k="ssr:type" v="adressenavn" />
	</node>
	<node lat="58.34947295234142" lon="7.035670514843068" id="-66700">
		<tag k="name" v="Espeland" />
		<tag k="ssr:date" v="2019-12-27" />
		<tag k="ssr:gruppe" v="veg" />
		<tag k="ssr:hovedgruppe" v="infrastruktur" />
		<tag k="ssr:stedsnr" v="977790" />
		<tag k="ssr:type" v="adressenavn" />
	</node>
	<node lat="58.356909629036096" lon="7.032556821073762" id="-66701">
		<tag k="name" v="Jerstadveien" />
		<tag k="ssr:date" v="2019-12-27" />
		<tag k="ssr:gruppe" v="veg" />
		<tag k="ssr:hovedgruppe" v="infrastruktur" />
		<tag k="ssr:stedsnr" v="977792" />
		<tag k="ssr:type" v="adressenavn" />
	</node>
	<node lat="58.373101258958705" lon="7.028840502011715" id="-66702">
		<tag k="name" v="Kalvstølveien" />
		<tag k="ssr:date" v="2019-12-27" />
		<tag k="ssr:gruppe" v="veg" />
		<tag k="ssr:hovedgruppe" v="infrastruktur" />
		<tag k="ssr:stedsnr" v="977796" />
		<tag k="ssr:type" v="adressenavn" />
	</node>
	<node lat="58.39194408322812" lon="7.022234335763462" id="-66703">
		<tag k="name" v="Nedre Haugland" />
		<tag k="ssr:date" v="2019-12-27" />
		<tag k="ssr:gruppe" v="veg" />
		<tag k="ssr:hovedgruppe" v="infrastruktur" />
		<tag k="ssr:stedsnr" v="977797" />
		<tag k="ssr:type" v="adressenavn" />
	</node>
	<node lat="58.403926263716286" lon="7.012235195475444" id="-66704">
		<tag k="name" v="Solbjørg" />
		<tag k="ssr:date" v="2019-12-27" />
		<tag k="ssr:gruppe" v="veg" />
		<tag k="ssr:hovedgruppe" v="infrastruktur" />
		<tag k="ssr:stedsnr" v="977802" />
		<tag k="ssr:type" v="adressenavn" />
	</node>
	<node lat="58.41505082032249" lon="7.004065028542767" id="-66705">
		<tag k="name" v="Under Fjellet" />
		<tag k="ssr:date" v="2019-12-27" />
		<tag k="ssr:gruppe" v="veg" />
		<tag k="ssr:hovedgruppe" v="infrastruktur" />
		<tag k="ssr:stedsnr" v="977806" />
		<tag k="ssr:type" v="adressenavn" />
	</node>
	<node lat="58.42127109685062" lon="7.00315953402867" id="-66706">
		<tag k="name" v="Verslandsveien" />
		<tag k="ssr:date" v="2019-12-27" />
		<tag k="ssr:gruppe" v="veg" />
		<tag k="ssr:hovedgruppe" v="infrastruktur" />
		<tag k="ssr:stedsnr" v="977807" />
		<tag k="ssr:type" v="adressenavn" />
	</node>
	<node lat="58.45245850479839" lon="7.022430583499408" id="-66707">
		<tag k="name" v="Bruliveien" />
		<tag k="ssr:date" v="2019-12-27" />
		<tag k="ssr:gruppe" v="veg" />
		<tag k="ssr:hovedgruppe" v="infrastruktur" />
		<tag k="ssr:stedsnr" v="977809" />
		<tag k="ssr:type" v="adressenavn" />
	</node>
	<node lat="58.45578092142801" lon="7.00487585999154" id="-66708">
		<tag k="name" v="Knibestølveien" />
		<tag k="ssr:date" v="2019-12-27" />
		<tag k="ssr:gruppe" v="veg" />
		<tag k="ssr:hovedgruppe" v="infrastruktur" />
		<tag k="ssr:stedsnr" v="977810" />
		<tag k="ssr:type" v="adressenavn" />
	</node>
	<node lat="58.46898262670392" lon="7.02206903488495" id="-66709">
		<tag k="name" v="Veggeland" />
		<tag k="ssr:date" v="2019-12-27" />
		<tag k="ssr:gruppe" v="veg" />
		<tag k="ssr:hovedgruppe" v="infrastruktur" />
		<tag k="ssr:stedsnr" v="977811" />
		<tag k="ssr:type" v="adressenavn" />
	</node>
	<node lat="58.48494491723446" lon="7.022553363515752" id="-66710">
		<tag k="name" v="Valdroveien" />
		<tag k="ssr:date" v="2019-12-27" />
		<tag k="ssr:gruppe" v="veg" />
		<tag k="ssr:hovedgruppe" v="infrastruktur" />
		<tag k="ssr:stedsnr" v="977812" />
		<tag k="ssr:type" v="adressenavn" />
	</node>
	<node lat="58.483092223035136" lon="7.021120623255497" id="-66711">
		<tag k="name" v="Høydalen" />
		<tag k="ssr:date" v="2019-12-27" />
		<tag k="ssr:gruppe" v="veg" />
		<tag k="ssr:hovedgruppe" v="infrastruktur" />
		<tag k="ssr:stedsnr" v="977814" />
		<tag k="ssr:type" v="adressenavn" />
	</node>
	<node lat="58.330852909664955" lon="7.020816117875616" id="-66712">
		<tag k="name" v="Hunsbedttunet" />
		<tag k="ssr:date" v="2019-12-27" />
		<tag k="ssr:gruppe" v="veg" />
		<tag k="ssr:hovedgruppe" v="infrastruktur" />
		<tag k="ssr:stedsnr" v="977817" />
		<tag k="ssr:type" v="adressenavn" />
	</node>
	<node lat="58.347774726654976" lon="7.035402329189918" id="-66713">
		<tag k="name" v="Borghamaren" />
		<tag k="ssr:date" v="2019-12-27" />
		<tag k="ssr:gruppe" v="veg" />
		<tag k="ssr:hovedgruppe" v="infrastruktur" />
		<tag k="ssr:stedsnr" v="977819" />
		<tag k="ssr:type" v="adressenavn" />
	</node>
	<node lat="58.360523514324164" lon="7.0401497297646385" id="-66714">
		<tag k="name" v="Under Lia" />
		<tag k="ssr:date" v="2019-12-27" />
		<tag k="ssr:gruppe" v="veg" />
		<tag k="ssr:hovedgruppe" v="infrastruktur" />
		<tag k="ssr:stedsnr" v="977821" />
		<tag k="ssr:type" v="adressenavn" />
	</node>
	<node lat="58.35545222568649" lon="7.033934645864017" id="-66715">
		<tag k="name" v="Monen" />
		<tag k="ssr:date" v="2019-12-27" />
		<tag k="ssr:gruppe" v="veg" />
		<tag k="ssr:hovedgruppe" v="infrastruktur" />
		<tag k="ssr:stedsnr" v="977828" />
		<tag k="ssr:type" v="adressenavn" />
	</node>
	<node lat="58.60623162739358" lon="6.895821432671391" id="-66716">
		<tag k="name" v="Moland" />
		<tag k="ssr:date" v="2019-12-27" />
		<tag k="ssr:gruppe" v="veg" />
		<tag k="ssr:hovedgruppe" v="infrastruktur" />
		<tag k="ssr:stedsnr" v="977939" />
		<tag k="ssr:type" v="adressenavn" />
	</node>
	<node lat="58.63666255109054" lon="6.937291595254823" id="-66717">
		<tag k="name" v="Heie" />
		<tag k="ssr:date" v="2019-12-27" />
		<tag k="ssr:gruppe" v="veg" />
		<tag k="ssr:hovedgruppe" v="infrastruktur" />
		<tag k="ssr:stedsnr" v="977940" />
		<tag k="ssr:type" v="adressenavn" />
	</node>
	<node lat="58.655673710489395" lon="6.943874795403207" id="-66718">
		<tag k="name" v="Nesjenvegen" />
		<tag k="ssr:date" v="2019-12-27" />
		<tag k="ssr:gruppe" v="veg" />
		<tag k="ssr:hovedgruppe" v="infrastruktur" />
		<tag k="ssr:stedsnr" v="977944" />
		<tag k="ssr:type" v="adressenavn" />
	</node>
	<node lat="58.504488452021356" lon="7.0400070272479205" id="-66719">
		<tag k="name" v="Vordalsvegen" />
		<tag k="ssr:date" v="2019-12-27" />
		<tag k="ssr:gruppe" v="veg" />
		<tag k="ssr:hovedgruppe" v="infrastruktur" />
		<tag k="ssr:stedsnr" v="977982" />
		<tag k="ssr:type" v="adressenavn" />
	</node>
	<node lat="58.50095635810532" lon="7.049235792640747" id="-66720">
		<tag k="name" v="Eieslandslia" />
		<tag k="ssr:date" v="2019-12-27" />
		<tag k="ssr:gruppe" v="veg" />
		<tag k="ssr:hovedgruppe" v="infrastruktur" />
		<tag k="ssr:stedsnr" v="977983" />
		<tag k="ssr:type" v="adressenavn" />
	</node>
	<node lat="58.5084150456165" lon="7.017477626669612" id="-66721">
		<tag k="name" v="Mygland" />
		<tag k="ssr:date" v="2019-12-27" />
		<tag k="ssr:gruppe" v="veg" />
		<tag k="ssr:hovedgruppe" v="infrastruktur" />
		<tag k="ssr:stedsnr" v="977985" />
		<tag k="ssr:type" v="adressenavn" />
	</node>
	<node lat="58.52627669046236" lon="7.007864384878866" id="-66722">
		<tag k="name" v="Kjølnesvegen" />
		<tag k="ssr:date" v="2019-12-27" />
		<tag k="ssr:gruppe" v="veg" />
		<tag k="ssr:hovedgruppe" v="infrastruktur" />
		<tag k="ssr:stedsnr" v="977984" />
		<tag k="ssr:type" v="adressenavn" />
	</node>
	<node lat="58.520486036888585" lon="6.935780124472071" id="-66723">
		<tag k="name" v="Kvinlog" />
		<tag k="ssr:date" v="2019-12-27" />
		<tag k="ssr:gruppe" v="veg" />
		<tag k="ssr:hovedgruppe" v="infrastruktur" />
		<tag k="ssr:stedsnr" v="977986" />
		<tag k="ssr:type" v="adressenavn" />
	</node>
	<node lat="58.51934989101189" lon="6.93669837649072" id="-66724">
		<tag k="name" v="Kleivebakken" />
		<tag k="ssr:date" v="2019-12-27" />
		<tag k="ssr:gruppe" v="veg" />
		<tag k="ssr:hovedgruppe" v="infrastruktur" />
		<tag k="ssr:stedsnr" v="977987" />
		<tag k="ssr:type" v="adressenavn" />
	</node>
	<node lat="58.544103549629654" lon="6.92793193058774" id="-66725">
		<tag k="name" v="Eikeland" />
		<tag k="ssr:date" v="2019-12-27" />
		<tag k="ssr:gruppe" v="veg" />
		<tag k="ssr:hovedgruppe" v="infrastruktur" />
		<tag k="ssr:stedsnr" v="977988" />
		<tag k="ssr:type" v="adressenavn" />
	</node>
	<node lat="58.54358311031813" lon="6.894436657219416" id="-66726">
		<tag k="name" v="Lindeland" />
		<tag k="ssr:date" v="2019-12-27" />
		<tag k="ssr:gruppe" v="veg" />
		<tag k="ssr:hovedgruppe" v="infrastruktur" />
		<tag k="ssr:stedsnr" v="977993" />
		<tag k="ssr:type" v="adressenavn" />
	</node>
	<node lat="58.549251115544" lon="6.904620785255677" id="-66727">
		<tag k="name" v="Selandsvegen" />
		<tag k="old_name" v="Seland" />
		<tag k="ssr:date" v="2020-04-14" />
		<tag k="ssr:gruppe" v="veg" />
		<tag k="ssr:hovedgruppe" v="infrastruktur" />
		<tag k="ssr:stedsnr" v="977994" />
		<tag k="ssr:type" v="adressenavn" />
	</node>
	<node lat="58.42208009352432" lon="6.9576292362020205" id="-66728">
		<tag k="name" v="Sindland" />
		<tag k="ssr:date" v="2019-12-27" />
		<tag k="ssr:gruppe" v="veg" />
		<tag k="ssr:hovedgruppe" v="infrastruktur" />
		<tag k="ssr:stedsnr" v="977921" />
		<tag k="ssr:type" v="adressenavn" />
	</node>
	<node lat="58.46962651626529" lon="6.933056557346432" id="-66729">
		<tag k="name" v="Helle" />
		<tag k="ssr:date" v="2019-12-27" />
		<tag k="ssr:gruppe" v="veg" />
		<tag k="ssr:hovedgruppe" v="infrastruktur" />
		<tag k="ssr:stedsnr" v="977922" />
		<tag k="ssr:type" v="adressenavn" />
	</node>
	<node lat="58.33590232209257" lon="6.960927302492333" id="-66730">
		<tag k="name" v="Kjermyra" />
		<tag k="ssr:date" v="2019-12-27" />
		<tag k="ssr:gruppe" v="veg" />
		<tag k="ssr:hovedgruppe" v="infrastruktur" />
		<tag k="ssr:stedsnr" v="977923" />
		<tag k="ssr:type" v="adressenavn" />
	</node>
	<node lat="58.385588118930016" lon="6.959183548326053" id="-66731">
		<tag k="name" v="Breilia" />
		<tag k="ssr:date" v="2019-12-27" />
		<tag k="ssr:gruppe" v="veg" />
		<tag k="ssr:hovedgruppe" v="infrastruktur" />
		<tag k="ssr:stedsnr" v="977928" />
		<tag k="ssr:type" v="adressenavn" />
	</node>
	<node lat="58.380602265938" lon="6.9596088939798735" id="-66732">
		<tag k="name" v="Torvmyrvegen" />
		<tag k="ssr:date" v="2019-12-27" />
		<tag k="ssr:gruppe" v="veg" />
		<tag k="ssr:hovedgruppe" v="infrastruktur" />
		<tag k="ssr:stedsnr" v="977935" />
		<tag k="ssr:type" v="adressenavn" />
	</node>
	<node lat="58.380575148442944" lon="6.95803176373003" id="-66733">
		<tag k="name" v="Myra" />
		<tag k="ssr:date" v="2019-12-27" />
		<tag k="ssr:gruppe" v="veg" />
		<tag k="ssr:hovedgruppe" v="infrastruktur" />
		<tag k="ssr:stedsnr" v="977936" />
		<tag k="ssr:type" v="adressenavn" />
	</node>
	<node lat="58.40517151446181" lon="6.934948278401814" id="-66734">
		<tag k="name" v="Tjørnhom" />
		<tag k="ssr:date" v="2019-12-27" />
		<tag k="ssr:gruppe" v="veg" />
		<tag k="ssr:hovedgruppe" v="infrastruktur" />
		<tag k="ssr:stedsnr" v="977938" />
		<tag k="ssr:type" v="adressenavn" />
	</node>
	<node lat="58.23472830975773" lon="6.875879023736511" id="-66803">
		<tag k="name" v="E39 Kvinesdal" />
		<tag k="ssr:date" v="2019-12-27" />
		<tag k="ssr:gruppe" v="veg" />
		<tag k="ssr:hovedgruppe" v="infrastruktur" />
		<tag k="ssr:stedsnr" v="1008583" />
		<tag k="ssr:type" v="adressenavn" />
	</node>
	<node lat="58.34331112781258" lon="6.789534999183163" id="-66804">
		<tag k="name" v="Melandsveien" />
		<tag k="ssr:date" v="2019-12-27" />
		<tag k="ssr:gruppe" v="veg" />
		<tag k="ssr:hovedgruppe" v="infrastruktur" />
		<tag k="ssr:stedsnr" v="1008585" />
		<tag k="ssr:type" v="adressenavn" />
	</node>
	<node lat="58.322025264467996" lon="6.968161805357735" id="-66805">
		<tag k="name" v="Vollevangen" />
		<tag k="ssr:date" v="2019-12-27" />
		<tag k="ssr:gruppe" v="veg" />
		<tag k="ssr:hovedgruppe" v="infrastruktur" />
		<tag k="ssr:stedsnr" v="1008636" />
		<tag k="ssr:type" v="adressenavn" />
	</node>
	<node lat="58.28502699815764" lon="6.906546531191292" id="-66806">
		<tag k="name" v="Øyebergan" />
		<tag k="ssr:date" v="2019-12-27" />
		<tag k="ssr:gruppe" v="veg" />
		<tag k="ssr:hovedgruppe" v="infrastruktur" />
		<tag k="ssr:stedsnr" v="1008638" />
		<tag k="ssr:type" v="adressenavn" />
	</node>
	<node lat="58.296870054723726" lon="6.926431096748122" id="-66807">
		<tag k="name" v="Ytre Egelandsveg" />
		<tag k="ssr:date" v="2019-12-27" />
		<tag k="ssr:gruppe" v="veg" />
		<tag k="ssr:hovedgruppe" v="infrastruktur" />
		<tag k="ssr:stedsnr" v="1008639" />
		<tag k="ssr:type" v="adressenavn" />
	</node>
	<node lat="58.27540749846731" lon="6.8744285783474" id="-66808">
		<tag k="name" v="Øyesletta" />
		<tag k="ssr:date" v="2019-12-27" />
		<tag k="ssr:gruppe" v="veg" />
		<tag k="ssr:hovedgruppe" v="infrastruktur" />
		<tag k="ssr:stedsnr" v="1008641" />
		<tag k="ssr:type" v="adressenavn" />
	</node>
	<node lat="58.28040853297818" lon="6.897129143792913" id="-66809">
		<tag k="name" v="Øyekleiva" />
		<tag k="ssr:date" v="2019-12-27" />
		<tag k="ssr:gruppe" v="veg" />
		<tag k="ssr:hovedgruppe" v="infrastruktur" />
		<tag k="ssr:stedsnr" v="1008642" />
		<tag k="ssr:type" v="adressenavn" />
	</node>
	<node lat="58.321564868094605" lon="6.967359101592767" id="-66810">
		<tag k="name" v="Steinåkervegen" />
		<tag k="ssr:date" v="2019-12-27" />
		<tag k="ssr:gruppe" v="veg" />
		<tag k="ssr:hovedgruppe" v="infrastruktur" />
		<tag k="ssr:stedsnr" v="1008643" />
		<tag k="ssr:type" v="adressenavn" />
	</node>
	<node lat="58.308380835631525" lon="6.934816528145079" id="-66811">
		<tag k="name" v="Steindørvegen" />
		<tag k="ssr:date" v="2019-12-27" />
		<tag k="ssr:gruppe" v="veg" />
		<tag k="ssr:hovedgruppe" v="infrastruktur" />
		<tag k="ssr:stedsnr" v="1008644" />
		<tag k="ssr:type" v="adressenavn" />
	</node>
	<node lat="58.31254833734805" lon="6.963871228028534" id="-66812">
		<tag k="name" v="Tverrvegen" />
		<tag k="ssr:date" v="2019-12-27" />
		<tag k="ssr:gruppe" v="veg" />
		<tag k="ssr:hovedgruppe" v="infrastruktur" />
		<tag k="ssr:stedsnr" v="1008646" />
		<tag k="ssr:type" v="adressenavn" />
	</node>
	<node lat="58.29119210328209" lon="6.921030814574523" id="-66813">
		<tag k="name" v="Svalevegen" />
		<tag k="ssr:date" v="2019-12-27" />
		<tag k="ssr:gruppe" v="veg" />
		<tag k="ssr:hovedgruppe" v="infrastruktur" />
		<tag k="ssr:stedsnr" v="1008647" />
		<tag k="ssr:type" v="adressenavn" />
	</node>
	<node lat="58.32825173805316" lon="6.98093873820112" id="-66814">
		<tag k="name" v="Vangen" />
		<tag k="ssr:date" v="2019-12-27" />
		<tag k="ssr:gruppe" v="veg" />
		<tag k="ssr:hovedgruppe" v="infrastruktur" />
		<tag k="ssr:stedsnr" v="1008648" />
		<tag k="ssr:type" v="adressenavn" />
	</node>
	<node lat="58.29801678318179" lon="6.934212133106921" id="-66815">
		<tag k="name" v="Vallevegen" />
		<tag k="ssr:date" v="2019-12-27" />
		<tag k="ssr:gruppe" v="veg" />
		<tag k="ssr:hovedgruppe" v="infrastruktur" />
		<tag k="ssr:stedsnr" v="1008649" />
		<tag k="ssr:type" v="adressenavn" />
	</node>
	<node lat="58.32792553213812" lon="6.983030456930162" id="-66816">
		<tag k="name" v="Vangsmyra" />
		<tag k="ssr:date" v="2019-12-27" />
		<tag k="ssr:gruppe" v="veg" />
		<tag k="ssr:hovedgruppe" v="infrastruktur" />
		<tag k="ssr:stedsnr" v="1008650" />
		<tag k="ssr:type" v="adressenavn" />
	</node>
	<node lat="58.32991190927998" lon="6.9811779185599425" id="-66817">
		<tag k="name" v="Vangslia" />
		<tag k="ssr:date" v="2019-12-27" />
		<tag k="ssr:gruppe" v="veg" />
		<tag k="ssr:hovedgruppe" v="infrastruktur" />
		<tag k="ssr:stedsnr" v="1008651" />
		<tag k="ssr:type" v="adressenavn" />
	</node>
	<node lat="58.30571695184497" lon="6.971536020119837" id="-66818">
		<tag k="name" v="Utsikten" />
		<tag k="ssr:date" v="2019-12-27" />
		<tag k="ssr:gruppe" v="veg" />
		<tag k="ssr:hovedgruppe" v="infrastruktur" />
		<tag k="ssr:stedsnr" v="1008652" />
		<tag k="ssr:type" v="adressenavn" />
	</node>
	<node lat="58.31291315739886" lon="6.955728710142979" id="-66819">
		<tag k="name" v="Farbakken" />
		<tag k="ssr:date" v="2019-12-27" />
		<tag k="ssr:gruppe" v="veg" />
		<tag k="ssr:hovedgruppe" v="infrastruktur" />
		<tag k="ssr:stedsnr" v="1008653" />
		<tag k="ssr:type" v="adressenavn" />
	</node>
	<node lat="58.31284032161564" lon="6.958379931346356" id="-66820">
		<tag k="name" v="Askvegen" />
		<tag k="ssr:date" v="2019-12-27" />
		<tag k="ssr:gruppe" v="veg" />
		<tag k="ssr:hovedgruppe" v="infrastruktur" />
		<tag k="ssr:stedsnr" v="1008654" />
		<tag k="ssr:type" v="adressenavn" />
	</node>
	<node lat="58.31909315757781" lon="6.970735028233502" id="-66821">
		<tag k="name" v="Visekleiva" />
		<tag k="ssr:date" v="2019-12-27" />
		<tag k="ssr:gruppe" v="veg" />
		<tag k="ssr:hovedgruppe" v="infrastruktur" />
		<tag k="ssr:stedsnr" v="1008655" />
		<tag k="ssr:type" v="adressenavn" />
	</node>
	<node lat="58.268680238401934" lon="6.807345827754349" id="-66822">
		<tag k="name" v="Blomstermyra" />
		<tag k="ssr:date" v="2019-12-27" />
		<tag k="ssr:gruppe" v="veg" />
		<tag k="ssr:hovedgruppe" v="infrastruktur" />
		<tag k="ssr:stedsnr" v="1008656" />
		<tag k="ssr:type" v="adressenavn" />
	</node>
	<node lat="58.26812002049624" lon="6.808006699325621" id="-66823">
		<tag k="name" v="Fløybakken" />
		<tag k="ssr:date" v="2019-12-27" />
		<tag k="ssr:gruppe" v="veg" />
		<tag k="ssr:hovedgruppe" v="infrastruktur" />
		<tag k="ssr:stedsnr" v="1008657" />
		<tag k="ssr:type" v="adressenavn" />
	</node>
	<node lat="58.520593400410625" lon="6.989494762378432" id="-66824">
		<tag k="name" v="Smogemyra" />
		<tag k="ssr:date" v="2019-12-27" />
		<tag k="ssr:gruppe" v="veg" />
		<tag k="ssr:hovedgruppe" v="infrastruktur" />
		<tag k="ssr:stedsnr" v="1008658" />
		<tag k="ssr:type" v="adressenavn" />
	</node>
	<node lat="58.28418752027207" lon="6.929209353368231" id="-66825">
		<tag k="name" v="Åsevegen" />
		<tag k="ssr:date" v="2019-12-27" />
		<tag k="ssr:gruppe" v="veg" />
		<tag k="ssr:hovedgruppe" v="infrastruktur" />
		<tag k="ssr:stedsnr" v="1008659" />
		<tag k="ssr:type" v="adressenavn" />
	</node>
	<node lat="58.32002528811922" lon="6.964562227140893" id="-66826">
		<tag k="name" v="Åmotsvegen" />
		<tag k="ssr:date" v="2019-12-27" />
		<tag k="ssr:gruppe" v="veg" />
		<tag k="ssr:hovedgruppe" v="infrastruktur" />
		<tag k="ssr:stedsnr" v="1008661" />
		<tag k="ssr:type" v="adressenavn" />
	</node>
	<node lat="58.318516823491734" lon="6.973115214154594" id="-66827">
		<tag k="name" v="Høghauan" />
		<tag k="ssr:date" v="2019-12-27" />
		<tag k="ssr:gruppe" v="veg" />
		<tag k="ssr:hovedgruppe" v="infrastruktur" />
		<tag k="ssr:stedsnr" v="1008662" />
		<tag k="ssr:type" v="adressenavn" />
	</node>
	<node lat="58.35719846568351" lon="7.036033043264978" id="-66828">
		<tag k="name" v="Jerstadmonen" />
		<tag k="ssr:date" v="2019-12-27" />
		<tag k="ssr:gruppe" v="veg" />
		<tag k="ssr:hovedgruppe" v="infrastruktur" />
		<tag k="ssr:stedsnr" v="1008663" />
		<tag k="ssr:type" v="adressenavn" />
	</node>
	<node lat="58.27545510969436" lon="6.824723260725072" id="-66829">
		<tag k="name" v="Holeveien" />
		<tag k="ssr:date" v="2019-12-27" />
		<tag k="ssr:gruppe" v="veg" />
		<tag k="ssr:hovedgruppe" v="infrastruktur" />
		<tag k="ssr:stedsnr" v="1008664" />
		<tag k="ssr:type" v="adressenavn" />
	</node>
	<node lat="58.27606616145838" lon="6.82405209907121" id="-66830">
		<tag k="name" v="Refstieveien" />
		<tag k="ssr:date" v="2019-12-27" />
		<tag k="ssr:gruppe" v="veg" />
		<tag k="ssr:hovedgruppe" v="infrastruktur" />
		<tag k="ssr:stedsnr" v="1008665" />
		<tag k="ssr:type" v="adressenavn" />
	</node>
	<node lat="58.322743421947415" lon="6.972363048705338" id="-66831">
		<tag k="name" v="Krågehølen" />
		<tag k="ssr:date" v="2019-12-27" />
		<tag k="ssr:gruppe" v="veg" />
		<tag k="ssr:hovedgruppe" v="infrastruktur" />
		<tag k="ssr:stedsnr" v="1008666" />
		<tag k="ssr:type" v="adressenavn" />
	</node>
	<node lat="58.32498315973608" lon="6.9824440493291124" id="-66832">
		<tag k="name" v="Bjørkelunden" />
		<tag k="ssr:date" v="2019-12-27" />
		<tag k="ssr:gruppe" v="veg" />
		<tag k="ssr:hovedgruppe" v="infrastruktur" />
		<tag k="ssr:stedsnr" v="1008667" />
		<tag k="ssr:type" v="adressenavn" />
	</node>
	<node lat="58.28868135292838" lon="6.902914295414414" id="-66833">
		<tag k="name" v="Bjørkebakken" />
		<tag k="ssr:date" v="2019-12-27" />
		<tag k="ssr:gruppe" v="veg" />
		<tag k="ssr:hovedgruppe" v="infrastruktur" />
		<tag k="ssr:stedsnr" v="1008668" />
		<tag k="ssr:type" v="adressenavn" />
	</node>
	<node lat="58.32787781942666" lon="6.979368785696552" id="-66834">
		<tag k="name" v="Botnåslia" />
		<tag k="ssr:date" v="2019-12-27" />
		<tag k="ssr:gruppe" v="veg" />
		<tag k="ssr:hovedgruppe" v="infrastruktur" />
		<tag k="ssr:stedsnr" v="1008670" />
		<tag k="ssr:type" v="adressenavn" />
	</node>
	<node lat="58.27814434075905" lon="6.946732663927274" id="-66835">
		<tag k="name" v="Braudelandsveien" />
		<tag k="ssr:date" v="2019-12-27" />
		<tag k="ssr:gruppe" v="veg" />
		<tag k="ssr:hovedgruppe" v="infrastruktur" />
		<tag k="ssr:stedsnr" v="1008594" />
		<tag k="ssr:type" v="adressenavn" />
	</node>
	<node lat="58.23462029120817" lon="6.865696060749433" id="-66836">
		<tag k="name" v="Oppofte" />
		<tag k="ssr:date" v="2019-12-27" />
		<tag k="ssr:gruppe" v="veg" />
		<tag k="ssr:hovedgruppe" v="infrastruktur" />
		<tag k="ssr:stedsnr" v="1008595" />
		<tag k="ssr:type" v="adressenavn" />
	</node>
	<node lat="58.29586816116184" lon="7.052880145031984" id="-66837">
		<tag k="name" v="Hidreskog" />
		<tag k="ssr:date" v="2019-12-27" />
		<tag k="ssr:gruppe" v="veg" />
		<tag k="ssr:hovedgruppe" v="infrastruktur" />
		<tag k="ssr:stedsnr" v="1008596" />
		<tag k="ssr:type" v="adressenavn" />
	</node>
	<node lat="58.26926115357005" lon="7.014762100538969" id="-66838">
		<tag k="name" v="Øvre Førland" />
		<tag k="ssr:date" v="2019-12-27" />
		<tag k="ssr:gruppe" v="veg" />
		<tag k="ssr:hovedgruppe" v="infrastruktur" />
		<tag k="ssr:stedsnr" v="1008597" />
		<tag k="ssr:type" v="adressenavn" />
	</node>
	<node lat="58.291669030305634" lon="7.042928538982047" id="-66839">
		<tag k="name" v="Fladevann" />
		<tag k="ssr:date" v="2019-12-27" />
		<tag k="ssr:gruppe" v="veg" />
		<tag k="ssr:hovedgruppe" v="infrastruktur" />
		<tag k="ssr:stedsnr" v="1008600" />
		<tag k="ssr:type" v="adressenavn" />
	</node>
	<node lat="58.301566926952255" lon="6.9649643674458614" id="-66840">
		<tag k="name" v="Rebbåsen" />
		<tag k="ssr:date" v="2019-12-27" />
		<tag k="ssr:gruppe" v="veg" />
		<tag k="ssr:hovedgruppe" v="infrastruktur" />
		<tag k="ssr:stedsnr" v="1008601" />
		<tag k="ssr:type" v="adressenavn" />
	</node>
	<node lat="58.293267169985384" lon="7.025151638120485" id="-66841">
		<tag k="name" v="Hidreskogveien" />
		<tag k="ssr:date" v="2019-12-27" />
		<tag k="ssr:gruppe" v="veg" />
		<tag k="ssr:hovedgruppe" v="infrastruktur" />
		<tag k="ssr:stedsnr" v="1008602" />
		<tag k="ssr:type" v="adressenavn" />
	</node>
	<node lat="58.3282064193963" lon="6.985976324641854" id="-66842">
		<tag k="name" v="Myrbakken" />
		<tag k="ssr:date" v="2019-12-27" />
		<tag k="ssr:gruppe" v="veg" />
		<tag k="ssr:hovedgruppe" v="infrastruktur" />
		<tag k="ssr:stedsnr" v="1008603" />
		<tag k="ssr:type" v="adressenavn" />
	</node>
	<node lat="58.301833200830245" lon="6.951597923048915" id="-66843">
		<tag k="name" v="Monanvegen" />
		<tag k="ssr:date" v="2019-12-27" />
		<tag k="ssr:gruppe" v="veg" />
		<tag k="ssr:hovedgruppe" v="infrastruktur" />
		<tag k="ssr:stedsnr" v="1008604" />
		<tag k="ssr:type" v="adressenavn" />
	</node>
	<node lat="58.32781498182408" lon="6.988239601287559" id="-66844">
		<tag k="name" v="Myrvegen" />
		<tag k="ssr:date" v="2019-12-27" />
		<tag k="ssr:gruppe" v="veg" />
		<tag k="ssr:hovedgruppe" v="infrastruktur" />
		<tag k="ssr:stedsnr" v="1008605" />
		<tag k="ssr:type" v="adressenavn" />
	</node>
	<node lat="58.32925592128778" lon="6.985929522861262" id="-66845">
		<tag k="name" v="Myrstien" />
		<tag k="ssr:date" v="2019-12-27" />
		<tag k="ssr:gruppe" v="veg" />
		<tag k="ssr:hovedgruppe" v="infrastruktur" />
		<tag k="ssr:stedsnr" v="1008606" />
		<tag k="ssr:type" v="adressenavn" />
	</node>
	<node lat="58.28893775638951" lon="6.90295095837287" id="-66846">
		<tag k="name" v="Møllebakken" />
		<tag k="ssr:date" v="2019-12-27" />
		<tag k="ssr:gruppe" v="veg" />
		<tag k="ssr:hovedgruppe" v="infrastruktur" />
		<tag k="ssr:stedsnr" v="1008607" />
		<tag k="ssr:type" v="adressenavn" />
	</node>
	<node lat="58.31352107522772" lon="6.963305091397374" id="-66847">
		<tag k="name" v="Nesgata" />
		<tag k="ssr:date" v="2019-12-27" />
		<tag k="ssr:gruppe" v="veg" />
		<tag k="ssr:hovedgruppe" v="infrastruktur" />
		<tag k="ssr:stedsnr" v="1008608" />
		<tag k="ssr:type" v="adressenavn" />
	</node>
	<node lat="58.28658236940844" lon="6.909628902078083" id="-66848">
		<tag k="name" v="Møllevegen" />
		<tag k="ssr:date" v="2019-12-27" />
		<tag k="ssr:gruppe" v="veg" />
		<tag k="ssr:hovedgruppe" v="infrastruktur" />
		<tag k="ssr:stedsnr" v="1008609" />
		<tag k="ssr:type" v="adressenavn" />
	</node>
	<node lat="58.290340434479226" lon="6.903184213199825" id="-66849">
		<tag k="name" v="Lyngbakken" />
		<tag k="ssr:date" v="2019-12-27" />
		<tag k="ssr:gruppe" v="veg" />
		<tag k="ssr:hovedgruppe" v="infrastruktur" />
		<tag k="ssr:stedsnr" v="1008610" />
		<tag k="ssr:type" v="adressenavn" />
	</node>
	<node lat="58.31183805326652" lon="6.961375912148742" id="-66850">
		<tag k="name" v="Lunden" />
		<tag k="ssr:date" v="2019-12-27" />
		<tag k="ssr:gruppe" v="veg" />
		<tag k="ssr:hovedgruppe" v="infrastruktur" />
		<tag k="ssr:stedsnr" v="1008611" />
		<tag k="ssr:type" v="adressenavn" />
	</node>
	<node lat="58.312154888129605" lon="6.962608314222579" id="-66851">
		<tag k="name" v="Markvegen" />
		<tag k="ssr:date" v="2019-12-27" />
		<tag k="ssr:gruppe" v="veg" />
		<tag k="ssr:hovedgruppe" v="infrastruktur" />
		<tag k="ssr:stedsnr" v="1008612" />
		<tag k="ssr:type" v="adressenavn" />
	</node>
	<node lat="58.32339905261577" lon="6.9738080766190675" id="-66852">
		<tag k="name" v="Løkkevegen" />
		<tag k="ssr:date" v="2019-12-27" />
		<tag k="ssr:gruppe" v="veg" />
		<tag k="ssr:hovedgruppe" v="infrastruktur" />
		<tag k="ssr:stedsnr" v="1008613" />
		<tag k="ssr:type" v="adressenavn" />
	</node>
	<node lat="58.320532065669234" lon="6.9793714167729535" id="-66853">
		<tag k="name" v="Medåsvegen" />
		<tag k="ssr:date" v="2019-12-27" />
		<tag k="ssr:gruppe" v="veg" />
		<tag k="ssr:hovedgruppe" v="infrastruktur" />
		<tag k="ssr:stedsnr" v="1008614" />
		<tag k="ssr:type" v="adressenavn" />
	</node>
	<node lat="58.31962134228377" lon="6.977601503085916" id="-66854">
		<tag k="name" v="Medåssvingen" />
		<tag k="ssr:date" v="2019-12-27" />
		<tag k="ssr:gruppe" v="veg" />
		<tag k="ssr:hovedgruppe" v="infrastruktur" />
		<tag k="ssr:stedsnr" v="1008615" />
		<tag k="ssr:type" v="adressenavn" />
	</node>
	<node lat="58.32345615214154" lon="6.988696179739456" id="-66855">
		<tag k="name" v="Saronsdalvegen" />
		<tag k="ssr:date" v="2019-12-27" />
		<tag k="ssr:gruppe" v="veg" />
		<tag k="ssr:hovedgruppe" v="infrastruktur" />
		<tag k="ssr:stedsnr" v="1008616" />
		<tag k="ssr:type" v="adressenavn" />
	</node>
	<node lat="58.31732759425692" lon="6.964964342831216" id="-66856">
		<tag k="name" v="Sandbrodet" />
		<tag k="ssr:date" v="2019-12-27" />
		<tag k="ssr:gruppe" v="veg" />
		<tag k="ssr:hovedgruppe" v="infrastruktur" />
		<tag k="ssr:stedsnr" v="1008617" />
		<tag k="ssr:type" v="adressenavn" />
	</node>
	<node lat="58.308531165652326" lon="6.955913868360304" id="-66857">
		<tag k="name" v="Slettevegen" />
		<tag k="ssr:date" v="2019-12-27" />
		<tag k="ssr:gruppe" v="veg" />
		<tag k="ssr:hovedgruppe" v="infrastruktur" />
		<tag k="ssr:stedsnr" v="1008619" />
		<tag k="ssr:type" v="adressenavn" />
	</node>
	<node lat="58.32088546356087" lon="6.981984627572399" id="-66858">
		<tag k="name" v="Siniusvegen" />
		<tag k="ssr:date" v="2019-12-27" />
		<tag k="ssr:gruppe" v="veg" />
		<tag k="ssr:hovedgruppe" v="infrastruktur" />
		<tag k="ssr:stedsnr" v="1008620" />
		<tag k="ssr:type" v="adressenavn" />
	</node>
	<node lat="58.32590707212495" lon="6.982050877700268" id="-66859">
		<tag k="name" v="Solbakken" />
		<tag k="ssr:date" v="2019-12-27" />
		<tag k="ssr:gruppe" v="veg" />
		<tag k="ssr:hovedgruppe" v="infrastruktur" />
		<tag k="ssr:stedsnr" v="1008621" />
		<tag k="ssr:type" v="adressenavn" />
	</node>
	<node lat="58.29801678318179" lon="6.934212133106921" id="-66860">
		<tag k="name" v="Slimestadvegen" />
		<tag k="ssr:date" v="2019-12-27" />
		<tag k="ssr:gruppe" v="veg" />
		<tag k="ssr:hovedgruppe" v="infrastruktur" />
		<tag k="ssr:stedsnr" v="1008622" />
		<tag k="ssr:type" v="adressenavn" />
	</node>
	<node lat="58.30843897529815" lon="6.959153175334371" id="-66861">
		<tag k="name" v="Stadionvegen" />
		<tag k="ssr:date" v="2019-12-27" />
		<tag k="ssr:gruppe" v="veg" />
		<tag k="ssr:hovedgruppe" v="infrastruktur" />
		<tag k="ssr:stedsnr" v="1008623" />
		<tag k="ssr:type" v="adressenavn" />
	</node>
	<node lat="58.324832329515395" lon="6.98413393822496" id="-66862">
		<tag k="name" v="Sollia" />
		<tag k="ssr:date" v="2019-12-27" />
		<tag k="ssr:gruppe" v="veg" />
		<tag k="ssr:hovedgruppe" v="infrastruktur" />
		<tag k="ssr:stedsnr" v="1008624" />
		<tag k="ssr:type" v="adressenavn" />
	</node>
	<node lat="58.327693388192934" lon="6.981671056839972" id="-66863">
		<tag k="name" v="Poppelvegen" />
		<tag k="ssr:date" v="2019-12-27" />
		<tag k="ssr:gruppe" v="veg" />
		<tag k="ssr:hovedgruppe" v="infrastruktur" />
		<tag k="ssr:stedsnr" v="1008625" />
		<tag k="ssr:type" v="adressenavn" />
	</node>
	<node lat="58.319046083647144" lon="6.959909580434974" id="-66864">
		<tag k="name" v="Odden" />
		<tag k="ssr:date" v="2019-12-27" />
		<tag k="ssr:gruppe" v="veg" />
		<tag k="ssr:hovedgruppe" v="infrastruktur" />
		<tag k="ssr:stedsnr" v="1008627" />
		<tag k="ssr:type" v="adressenavn" />
	</node>
	<node lat="58.290720279131314" lon="6.917829748094055" id="-66865">
		<tag k="name" v="Robsvegen" />
		<tag k="ssr:date" v="2019-12-27" />
		<tag k="ssr:gruppe" v="veg" />
		<tag k="ssr:hovedgruppe" v="infrastruktur" />
		<tag k="ssr:stedsnr" v="1008628" />
		<tag k="ssr:type" v="adressenavn" />
	</node>
	<node lat="58.31318564986018" lon="6.965295726967322" id="-66866">
		<tag k="name" v="Prestegardsvegen" />
		<tag k="ssr:date" v="2019-12-27" />
		<tag k="ssr:gruppe" v="veg" />
		<tag k="ssr:hovedgruppe" v="infrastruktur" />
		<tag k="ssr:stedsnr" v="1008629" />
		<tag k="ssr:type" v="adressenavn" />
	</node>
	<node lat="58.312584812406705" lon="6.977266270576367" id="-66867">
		<tag k="name" v="Rødlandsvegen" />
		<tag k="ssr:date" v="2019-12-27" />
		<tag k="ssr:gruppe" v="veg" />
		<tag k="ssr:hovedgruppe" v="infrastruktur" />
		<tag k="ssr:stedsnr" v="1008630" />
		<tag k="ssr:type" v="adressenavn" />
	</node>
	<node lat="58.3119921021292" lon="6.971863963066792" id="-66868">
		<tag k="name" v="Fladen" />
		<tag k="ssr:date" v="2019-12-27" />
		<tag k="ssr:gruppe" v="veg" />
		<tag k="ssr:hovedgruppe" v="infrastruktur" />
		<tag k="ssr:stedsnr" v="1008631" />
		<tag k="ssr:type" v="adressenavn" />
	</node>
	<node lat="58.32205859821601" lon="6.9623942976731765" id="-66869">
		<tag k="name" v="Sandbakken" />
		<tag k="ssr:date" v="2019-12-27" />
		<tag k="ssr:gruppe" v="veg" />
		<tag k="ssr:hovedgruppe" v="infrastruktur" />
		<tag k="ssr:stedsnr" v="1008632" />
		<tag k="ssr:type" v="adressenavn" />
	</node>
	<node lat="58.31189072500906" lon="6.966765384183686" id="-66870">
		<tag k="name" v="Sagevollen" />
		<tag k="ssr:date" v="2019-12-27" />
		<tag k="ssr:gruppe" v="veg" />
		<tag k="ssr:hovedgruppe" v="infrastruktur" />
		<tag k="ssr:stedsnr" v="1008633" />
		<tag k="ssr:type" v="adressenavn" />
	</node>
	<node lat="58.28974424231447" lon="6.919053525844934" id="-66871">
		<tag k="name" v="Vibevegen" />
		<tag k="ssr:date" v="2019-12-27" />
		<tag k="ssr:gruppe" v="veg" />
		<tag k="ssr:hovedgruppe" v="infrastruktur" />
		<tag k="ssr:stedsnr" v="1008634" />
		<tag k="ssr:type" v="adressenavn" />
	</node>
	<node lat="58.318196100996275" lon="6.959493885980115" id="-66872">
		<tag k="name" v="Vesterdalsvegen" />
		<tag k="ssr:date" v="2019-12-27" />
		<tag k="ssr:gruppe" v="veg" />
		<tag k="ssr:hovedgruppe" v="infrastruktur" />
		<tag k="ssr:stedsnr" v="1008635" />
		<tag k="ssr:type" v="adressenavn" />
	</node>
	<node lat="58.31072480811047" lon="6.954536831147241" id="-66873">
		<tag k="name" v="Dalandsåsen" />
		<tag k="ssr:date" v="2019-12-27" />
		<tag k="ssr:gruppe" v="veg" />
		<tag k="ssr:hovedgruppe" v="infrastruktur" />
		<tag k="ssr:stedsnr" v="1008686" />
		<tag k="ssr:type" v="adressenavn" />
	</node>
	<node lat="58.32373214643408" lon="6.9624016229084935" id="-66874">
		<tag k="name" v="Dugevegen" />
		<tag k="ssr:date" v="2019-12-27" />
		<tag k="ssr:gruppe" v="veg" />
		<tag k="ssr:hovedgruppe" v="infrastruktur" />
		<tag k="ssr:stedsnr" v="1008687" />
		<tag k="ssr:type" v="adressenavn" />
	</node>
	<node lat="58.324411569061624" lon="6.966642189257458" id="-66875">
		<tag k="name" v="Dugestien" />
		<tag k="ssr:date" v="2019-12-27" />
		<tag k="ssr:gruppe" v="veg" />
		<tag k="ssr:hovedgruppe" v="infrastruktur" />
		<tag k="ssr:stedsnr" v="1008688" />
		<tag k="ssr:type" v="adressenavn" />
	</node>
	<node lat="58.29518455156509" lon="6.928468930846113" id="-66876">
		<tag k="name" v="Egelandsletta" />
		<tag k="ssr:date" v="2019-12-27" />
		<tag k="ssr:gruppe" v="veg" />
		<tag k="ssr:hovedgruppe" v="infrastruktur" />
		<tag k="ssr:stedsnr" v="1008689" />
		<tag k="ssr:type" v="adressenavn" />
	</node>
	<node lat="58.31734259476633" lon="6.965738449705929" id="-66877">
		<tag k="name" v="Egelandsbakken" />
		<tag k="ssr:date" v="2019-12-27" />
		<tag k="ssr:gruppe" v="veg" />
		<tag k="ssr:hovedgruppe" v="infrastruktur" />
		<tag k="ssr:stedsnr" v="1008690" />
		<tag k="ssr:type" v="adressenavn" />
	</node>
	<node lat="58.308380835631525" lon="6.934816528145079" id="-66878">
		<tag k="name" v="Egelandstunet" />
		<tag k="ssr:date" v="2019-12-27" />
		<tag k="ssr:gruppe" v="veg" />
		<tag k="ssr:hovedgruppe" v="infrastruktur" />
		<tag k="ssr:stedsnr" v="1008691" />
		<tag k="ssr:type" v="adressenavn" />
	</node>
	<node lat="58.308380835631525" lon="6.934816528145079" id="-66879">
		<tag k="name" v="Egelandsmyra" />
		<tag k="ssr:date" v="2019-12-27" />
		<tag k="ssr:gruppe" v="veg" />
		<tag k="ssr:hovedgruppe" v="infrastruktur" />
		<tag k="ssr:stedsnr" v="1008692" />
		<tag k="ssr:type" v="adressenavn" />
	</node>
	<node lat="58.31680967796" lon="6.963523394291704" id="-66880">
		<tag k="name" v="Fjotlandsgata" />
		<tag k="ssr:date" v="2019-12-27" />
		<tag k="ssr:gruppe" v="veg" />
		<tag k="ssr:hovedgruppe" v="infrastruktur" />
		<tag k="ssr:stedsnr" v="1008694" />
		<tag k="ssr:type" v="adressenavn" />
	</node>
	<node lat="58.327108746147836" lon="6.982259785177314" id="-66881">
		<tag k="name" v="Granlunden" />
		<tag k="ssr:date" v="2019-12-27" />
		<tag k="ssr:gruppe" v="veg" />
		<tag k="ssr:hovedgruppe" v="infrastruktur" />
		<tag k="ssr:stedsnr" v="1008695" />
		<tag k="ssr:type" v="adressenavn" />
	</node>
	<node lat="58.32466952872143" lon="6.982265993474828" id="-66882">
		<tag k="name" v="Furuvegen" />
		<tag k="ssr:date" v="2019-12-27" />
		<tag k="ssr:gruppe" v="veg" />
		<tag k="ssr:hovedgruppe" v="infrastruktur" />
		<tag k="ssr:stedsnr" v="1008696" />
		<tag k="ssr:type" v="adressenavn" />
	</node>
	<node lat="58.31158103581351" lon="6.959444862880497" id="-66883">
		<tag k="name" v="Gullestadvegen" />
		<tag k="ssr:date" v="2019-12-27" />
		<tag k="ssr:gruppe" v="veg" />
		<tag k="ssr:hovedgruppe" v="infrastruktur" />
		<tag k="ssr:stedsnr" v="1008697" />
		<tag k="ssr:type" v="adressenavn" />
	</node>
	<node lat="58.323271877933706" lon="6.97523192247994" id="-66884">
		<tag k="name" v="Hagelia" />
		<tag k="ssr:date" v="2019-12-27" />
		<tag k="ssr:gruppe" v="veg" />
		<tag k="ssr:hovedgruppe" v="infrastruktur" />
		<tag k="ssr:stedsnr" v="1008698" />
		<tag k="ssr:type" v="adressenavn" />
	</node>
	<node lat="58.290699505313555" lon="6.917788246701991" id="-66885">
		<tag k="name" v="Gullsmedvegen" />
		<tag k="ssr:date" v="2019-12-27" />
		<tag k="ssr:gruppe" v="veg" />
		<tag k="ssr:hovedgruppe" v="infrastruktur" />
		<tag k="ssr:stedsnr" v="1008699" />
		<tag k="ssr:type" v="adressenavn" />
	</node>
	<node lat="58.32181862904" lon="6.96230163783684" id="-66886">
		<tag k="name" v="Englemonåsen" />
		<tag k="ssr:date" v="2019-12-27" />
		<tag k="ssr:gruppe" v="veg" />
		<tag k="ssr:hovedgruppe" v="infrastruktur" />
		<tag k="ssr:stedsnr" v="1008701" />
		<tag k="ssr:type" v="adressenavn" />
	</node>
	<node lat="58.30663937908986" lon="6.9553807364976095" id="-66887">
		<tag k="name" v="Farmonen" />
		<tag k="ssr:date" v="2019-12-27" />
		<tag k="ssr:gruppe" v="veg" />
		<tag k="ssr:hovedgruppe" v="infrastruktur" />
		<tag k="ssr:stedsnr" v="1008703" />
		<tag k="ssr:type" v="adressenavn" />
	</node>
	<node lat="58.310355479963704" lon="6.95774744280249" id="-66888">
		<tag k="name" v="Farkrogen" />
		<tag k="ssr:date" v="2019-12-27" />
		<tag k="ssr:gruppe" v="veg" />
		<tag k="ssr:hovedgruppe" v="infrastruktur" />
		<tag k="ssr:stedsnr" v="1008704" />
		<tag k="ssr:type" v="adressenavn" />
	</node>
	<node lat="58.30813767467727" lon="6.955998620632101" id="-66889">
		<tag k="name" v="Farægra" />
		<tag k="ssr:date" v="2019-12-27" />
		<tag k="ssr:gruppe" v="veg" />
		<tag k="ssr:hovedgruppe" v="infrastruktur" />
		<tag k="ssr:stedsnr" v="1008705" />
		<tag k="ssr:type" v="adressenavn" />
	</node>
	<node lat="58.31126109125915" lon="6.959625588349474" id="-66890">
		<tag k="name" v="Farvegen" />
		<tag k="ssr:date" v="2019-12-27" />
		<tag k="ssr:gruppe" v="veg" />
		<tag k="ssr:hovedgruppe" v="infrastruktur" />
		<tag k="ssr:stedsnr" v="1008706" />
		<tag k="ssr:type" v="adressenavn" />
	</node>
	<node lat="58.32490184171333" lon="6.979800235250854" id="-66891">
		<tag k="name" v="Fjellvegen" />
		<tag k="ssr:date" v="2019-12-27" />
		<tag k="ssr:gruppe" v="veg" />
		<tag k="ssr:hovedgruppe" v="infrastruktur" />
		<tag k="ssr:stedsnr" v="1008707" />
		<tag k="ssr:type" v="adressenavn" />
	</node>
	<node lat="58.308304020621556" lon="6.957108738684833" id="-66892">
		<tag k="name" v="Faråsvegen" />
		<tag k="ssr:date" v="2019-12-27" />
		<tag k="ssr:gruppe" v="veg" />
		<tag k="ssr:hovedgruppe" v="infrastruktur" />
		<tag k="ssr:stedsnr" v="1008708" />
		<tag k="ssr:type" v="adressenavn" />
	</node>
	<node lat="58.30993474660107" lon="6.9334710821905725" id="-66893">
		<tag k="name" v="Kleivsvegen" />
		<tag k="ssr:date" v="2019-12-27" />
		<tag k="ssr:gruppe" v="veg" />
		<tag k="ssr:hovedgruppe" v="infrastruktur" />
		<tag k="ssr:stedsnr" v="1008709" />
		<tag k="ssr:type" v="adressenavn" />
	</node>
	<node lat="58.2791222027326" lon="6.8914737564439745" id="-66894">
		<tag k="name" v="Industrivegen" />
		<tag k="ssr:date" v="2019-12-27" />
		<tag k="ssr:gruppe" v="veg" />
		<tag k="ssr:hovedgruppe" v="infrastruktur" />
		<tag k="ssr:stedsnr" v="1008710" />
		<tag k="ssr:type" v="adressenavn" />
	</node>
	<node lat="58.277462103063584" lon="6.896173276539058" id="-66895">
		<tag k="name" v="Kvinaosen" />
		<tag k="ssr:date" v="2019-12-27" />
		<tag k="ssr:gruppe" v="veg" />
		<tag k="ssr:hovedgruppe" v="infrastruktur" />
		<tag k="ssr:stedsnr" v="1008711" />
		<tag k="ssr:type" v="adressenavn" />
	</node>
	<node lat="58.28254127409726" lon="6.894456957175721" id="-66896">
		<tag k="name" v="Klevemonen" />
		<tag k="ssr:date" v="2019-12-27" />
		<tag k="ssr:gruppe" v="veg" />
		<tag k="ssr:hovedgruppe" v="infrastruktur" />
		<tag k="ssr:stedsnr" v="1008712" />
		<tag k="ssr:type" v="adressenavn" />
	</node>
	<node lat="58.27456463642782" lon="6.875389450247787" id="-66897">
		<tag k="name" v="Lervik" />
		<tag k="ssr:date" v="2019-12-27" />
		<tag k="ssr:gruppe" v="veg" />
		<tag k="ssr:hovedgruppe" v="infrastruktur" />
		<tag k="ssr:stedsnr" v="1008713" />
		<tag k="ssr:type" v="adressenavn" />
	</node>
	<node lat="58.31964771300167" lon="6.960336936139942" id="-66898">
		<tag k="name" v="Kvitlevegen" />
		<tag k="ssr:date" v="2019-12-27" />
		<tag k="ssr:gruppe" v="veg" />
		<tag k="ssr:hovedgruppe" v="infrastruktur" />
		<tag k="ssr:stedsnr" v="1008714" />
		<tag k="ssr:type" v="adressenavn" />
	</node>
	<node lat="58.284390570745025" lon="6.8972863749202045" id="-66899">
		<tag k="name" v="Livollen" />
		<tag k="ssr:date" v="2019-12-27" />
		<tag k="ssr:gruppe" v="veg" />
		<tag k="ssr:hovedgruppe" v="infrastruktur" />
		<tag k="ssr:stedsnr" v="1008715" />
		<tag k="ssr:type" v="adressenavn" />
	</node>
	<node lat="58.30387492023477" lon="6.928733705886627" id="-66900">
		<tag k="name" v="Lindlandsvegen" />
		<tag k="ssr:date" v="2019-12-27" />
		<tag k="ssr:gruppe" v="veg" />
		<tag k="ssr:hovedgruppe" v="infrastruktur" />
		<tag k="ssr:stedsnr" v="1008716" />
		<tag k="ssr:type" v="adressenavn" />
	</node>
	<node lat="58.32792991437647" lon="6.987914513262432" id="-66901">
		<tag k="name" v="Hamrelia" />
		<tag k="ssr:date" v="2019-12-27" />
		<tag k="ssr:gruppe" v="veg" />
		<tag k="ssr:hovedgruppe" v="infrastruktur" />
		<tag k="ssr:stedsnr" v="1008718" />
		<tag k="ssr:type" v="adressenavn" />
	</node>
	<node lat="58.32358278183386" lon="6.977486479170844" id="-66902">
		<tag k="name" v="Hageteigen" />
		<tag k="ssr:date" v="2019-12-27" />
		<tag k="ssr:gruppe" v="veg" />
		<tag k="ssr:hovedgruppe" v="infrastruktur" />
		<tag k="ssr:stedsnr" v="1008719" />
		<tag k="ssr:type" v="adressenavn" />
	</node>
	<node lat="58.313758419059006" lon="6.963727160336748" id="-66903">
		<tag k="name" v="Helleråsvegen" />
		<tag k="ssr:date" v="2019-12-27" />
		<tag k="ssr:gruppe" v="veg" />
		<tag k="ssr:hovedgruppe" v="infrastruktur" />
		<tag k="ssr:stedsnr" v="1008722" />
		<tag k="ssr:type" v="adressenavn" />
	</node>
	<node lat="58.32405685926306" lon="6.981976718685831" id="-66904">
		<tag k="name" v="Hamrevegen" />
		<tag k="ssr:date" v="2019-12-27" />
		<tag k="ssr:gruppe" v="veg" />
		<tag k="ssr:hovedgruppe" v="infrastruktur" />
		<tag k="ssr:stedsnr" v="1008723" />
		<tag k="ssr:type" v="adressenavn" />
	</node>
	<node lat="58.31383644660882" lon="6.963889692217944" id="-66905">
		<tag k="name" v="Høgevegen" />
		<tag k="ssr:date" v="2019-12-27" />
		<tag k="ssr:gruppe" v="veg" />
		<tag k="ssr:hovedgruppe" v="infrastruktur" />
		<tag k="ssr:stedsnr" v="1008724" />
		<tag k="ssr:type" v="adressenavn" />
	</node>
	<node lat="58.32049954702258" lon="6.982954919583097" id="-66906">
		<tag k="name" v="Hunsbedtvegen" />
		<tag k="ssr:date" v="2019-12-27" />
		<tag k="ssr:gruppe" v="veg" />
		<tag k="ssr:hovedgruppe" v="infrastruktur" />
		<tag k="ssr:stedsnr" v="1008725" />
		<tag k="ssr:type" v="adressenavn" />
	</node>
	<node lat="58.321243612907814" lon="6.966790955437367" id="-66907">
		<tag k="name" v="Industrigata" />
		<tag k="ssr:date" v="2019-12-27" />
		<tag k="ssr:gruppe" v="veg" />
		<tag k="ssr:hovedgruppe" v="infrastruktur" />
		<tag k="ssr:stedsnr" v="1008726" />
		<tag k="ssr:type" v="adressenavn" />
	</node>
	<node lat="58.31959360331993" lon="6.977669372347642" id="-66908">
		<tag k="name" v="Urefjellvegen" />
		<tag k="ssr:date" v="2019-12-27" />
		<tag k="ssr:gruppe" v="veg" />
		<tag k="ssr:hovedgruppe" v="infrastruktur" />
		<tag k="ssr:stedsnr" v="1008727" />
		<tag k="ssr:type" v="adressenavn" />
	</node>
	<node lat="58.32436486093123" lon="6.981130062318074" id="-66909">
		<tag k="name" v="Bjørkerabben" />
		<tag k="ssr:date" v="2019-12-27" />
		<tag k="ssr:gruppe" v="veg" />
		<tag k="ssr:hovedgruppe" v="infrastruktur" />
		<tag k="ssr:stedsnr" v="1008671" />
		<tag k="ssr:type" v="adressenavn" />
	</node>
	<node lat="58.32693519935529" lon="6.9775063310321945" id="-66910">
		<tag k="name" v="Botnåsvegen" />
		<tag k="ssr:date" v="2019-12-27" />
		<tag k="ssr:gruppe" v="veg" />
		<tag k="ssr:hovedgruppe" v="infrastruktur" />
		<tag k="ssr:stedsnr" v="1008672" />
		<tag k="ssr:type" v="adressenavn" />
	</node>
	<node lat="58.32790290958857" lon="6.980405805627877" id="-66911">
		<tag k="name" v="Botnåsteigen" />
		<tag k="ssr:date" v="2019-12-27" />
		<tag k="ssr:gruppe" v="veg" />
		<tag k="ssr:hovedgruppe" v="infrastruktur" />
		<tag k="ssr:stedsnr" v="1008674" />
		<tag k="ssr:type" v="adressenavn" />
	</node>
	<node lat="58.3106387276094" lon="6.953500536833727" id="-66912">
		<tag k="name" v="Dalandsvegen" />
		<tag k="ssr:date" v="2019-12-27" />
		<tag k="ssr:gruppe" v="veg" />
		<tag k="ssr:hovedgruppe" v="infrastruktur" />
		<tag k="ssr:stedsnr" v="1008675" />
		<tag k="ssr:type" v="adressenavn" />
	</node>
	<node lat="58.317302799708365" lon="6.960036421525345" id="-66913">
		<tag k="name" v="Bruvegen" />
		<tag k="ssr:date" v="2019-12-27" />
		<tag k="ssr:gruppe" v="veg" />
		<tag k="ssr:hovedgruppe" v="infrastruktur" />
		<tag k="ssr:stedsnr" v="1008676" />
		<tag k="ssr:type" v="adressenavn" />
	</node>
	<node lat="58.28958058767506" lon="6.903051313495639" id="-66914">
		<tag k="name" v="Einerbakken" />
		<tag k="ssr:date" v="2019-12-27" />
		<tag k="ssr:gruppe" v="veg" />
		<tag k="ssr:hovedgruppe" v="infrastruktur" />
		<tag k="ssr:stedsnr" v="1008679" />
		<tag k="ssr:type" v="adressenavn" />
	</node>
	<node lat="58.31492206843795" lon="6.962497635128364" id="-66915">
		<tag k="name" v="Elvevegen" />
		<tag k="ssr:date" v="2019-12-27" />
		<tag k="ssr:gruppe" v="veg" />
		<tag k="ssr:hovedgruppe" v="infrastruktur" />
		<tag k="ssr:stedsnr" v="1008680" />
		<tag k="ssr:type" v="adressenavn" />
	</node>
	<node lat="58.31261078925182" lon="6.963121025848612" id="-66916">
		<tag k="name" v="Eljestraumvegen" />
		<tag k="ssr:date" v="2019-12-27" />
		<tag k="ssr:gruppe" v="veg" />
		<tag k="ssr:hovedgruppe" v="infrastruktur" />
		<tag k="ssr:stedsnr" v="1008681" />
		<tag k="ssr:type" v="adressenavn" />
	</node>
	<node lat="58.323317948972864" lon="6.96243142022246" id="-66917">
		<tag k="name" v="Englemontunet" />
		<tag k="ssr:date" v="2019-12-27" />
		<tag k="ssr:gruppe" v="veg" />
		<tag k="ssr:hovedgruppe" v="infrastruktur" />
		<tag k="ssr:stedsnr" v="1008682" />
		<tag k="ssr:type" v="adressenavn" />
	</node>
	<node lat="58.323946158084475" lon="6.962387547107102" id="-66918">
		<tag k="name" v="Englemonbakken" />
		<tag k="ssr:date" v="2019-12-27" />
		<tag k="ssr:gruppe" v="veg" />
		<tag k="ssr:hovedgruppe" v="infrastruktur" />
		<tag k="ssr:stedsnr" v="1008683" />
		<tag k="ssr:type" v="adressenavn" />
	</node>
	<node lat="58.32440018366537" lon="6.965609681366487" id="-66919">
		<tag k="name" v="Dugelia" />
		<tag k="ssr:date" v="2019-12-27" />
		<tag k="ssr:gruppe" v="veg" />
		<tag k="ssr:hovedgruppe" v="infrastruktur" />
		<tag k="ssr:stedsnr" v="1008685" />
		<tag k="ssr:type" v="adressenavn" />
	</node>
	<node lat="58.51082856665366" lon="6.91179217186347" id="-66920">
		<tag k="name" v="Toddemonen" />
		<tag k="ssr:date" v="2019-12-27" />
		<tag k="ssr:gruppe" v="veg" />
		<tag k="ssr:hovedgruppe" v="infrastruktur" />
		<tag k="ssr:stedsnr" v="1009010" />
		<tag k="ssr:type" v="adressenavn" />
	</node>
	<node lat="58.51341056957204" lon="6.917447484713493" id="-66921">
		<tag k="name" v="Timlivegen" />
		<tag k="ssr:date" v="2019-12-27" />
		<tag k="ssr:gruppe" v="veg" />
		<tag k="ssr:hovedgruppe" v="infrastruktur" />
		<tag k="ssr:stedsnr" v="1009011" />
		<tag k="ssr:type" v="adressenavn" />
	</node>
	<node lat="58.366338760332" lon="7.029539341556731" id="-66922">
		<tag k="name" v="Sandvann" />
		<tag k="old_name" v="Veg 1197" />
		<tag k="ssr:date" v="2020-04-14" />
		<tag k="ssr:gruppe" v="veg" />
		<tag k="ssr:hovedgruppe" v="infrastruktur" />
		<tag k="ssr:stedsnr" v="1009015" />
		<tag k="ssr:type" v="adressenavn" />
	</node>
	<node lat="58.3663880873541" lon="7.044081823305001" id="-66923">
		<tag k="name" v="Jerstad" />
		<tag k="ssr:date" v="2019-12-27" />
		<tag k="ssr:gruppe" v="veg" />
		<tag k="ssr:hovedgruppe" v="infrastruktur" />
		<tag k="ssr:stedsnr" v="1009021" />
		<tag k="ssr:type" v="adressenavn" />
	</node>
	<node lat="58.34979378603043" lon="6.9677653037674645" id="-66924">
		<tag k="name" v="Trælandsveien" />
		<tag k="ssr:date" v="2019-12-27" />
		<tag k="ssr:gruppe" v="veg" />
		<tag k="ssr:hovedgruppe" v="infrastruktur" />
		<tag k="ssr:stedsnr" v="1009023" />
		<tag k="ssr:type" v="adressenavn" />
	</node>
	<node lat="58.352889210081244" lon="6.965924992173926" id="-66925">
		<tag k="name" v="Egenes" />
		<tag k="ssr:date" v="2019-12-27" />
		<tag k="ssr:gruppe" v="veg" />
		<tag k="ssr:hovedgruppe" v="infrastruktur" />
		<tag k="ssr:stedsnr" v="1009025" />
		<tag k="ssr:type" v="adressenavn" />
	</node>
	<node lat="58.42208009352432" lon="6.9576292362020205" id="-66926">
		<tag k="name" v="Borhommen" />
		<tag k="ssr:date" v="2019-12-27" />
		<tag k="ssr:gruppe" v="veg" />
		<tag k="ssr:hovedgruppe" v="infrastruktur" />
		<tag k="ssr:stedsnr" v="1009029" />
		<tag k="ssr:type" v="adressenavn" />
	</node>
	<node lat="58.37236717628506" lon="6.971704474424323" id="-66927">
		<tag k="name" v="Øvre Omland" />
		<tag k="ssr:date" v="2019-12-27" />
		<tag k="ssr:gruppe" v="veg" />
		<tag k="ssr:hovedgruppe" v="infrastruktur" />
		<tag k="ssr:stedsnr" v="1009030" />
		<tag k="ssr:type" v="adressenavn" />
	</node>
	<node lat="58.37103526300676" lon="6.9732827140151565" id="-66928">
		<tag k="name" v="Nedre Omland" />
		<tag k="ssr:date" v="2019-12-27" />
		<tag k="ssr:gruppe" v="veg" />
		<tag k="ssr:hovedgruppe" v="infrastruktur" />
		<tag k="ssr:stedsnr" v="1009031" />
		<tag k="ssr:type" v="adressenavn" />
	</node>
	<node lat="58.377283291040655" lon="6.963514815343993" id="-66929">
		<tag k="name" v="Basskårveien" />
		<tag k="ssr:date" v="2019-12-27" />
		<tag k="ssr:gruppe" v="veg" />
		<tag k="ssr:hovedgruppe" v="infrastruktur" />
		<tag k="ssr:stedsnr" v="1009032" />
		<tag k="ssr:type" v="adressenavn" />
	</node>
	<node lat="58.38109769529599" lon="6.951441730330519" id="-66930">
		<tag k="name" v="Midtre Røynestad" />
		<tag k="ssr:date" v="2019-12-27" />
		<tag k="ssr:gruppe" v="veg" />
		<tag k="ssr:hovedgruppe" v="infrastruktur" />
		<tag k="ssr:stedsnr" v="1009033" />
		<tag k="ssr:type" v="adressenavn" />
	</node>
	<node lat="58.4785916731472" lon="6.934757734330835" id="-66931">
		<tag k="name" v="Åmlandsvegen" />
		<tag k="ssr:date" v="2019-12-27" />
		<tag k="ssr:gruppe" v="veg" />
		<tag k="ssr:hovedgruppe" v="infrastruktur" />
		<tag k="ssr:stedsnr" v="1009038" />
		<tag k="ssr:type" v="adressenavn" />
	</node>
	<node lat="58.4038463777373" lon="6.929473542016271" id="-66932">
		<tag k="name" v="Øvre Røynestad" />
		<tag k="ssr:date" v="2019-12-27" />
		<tag k="ssr:gruppe" v="veg" />
		<tag k="ssr:hovedgruppe" v="infrastruktur" />
		<tag k="ssr:stedsnr" v="1009039" />
		<tag k="ssr:type" v="adressenavn" />
	</node>
	<node lat="58.151103984505276" lon="7.994091394755376" id="-66935">
		<tag k="name" v="Agder fylke" />
		<tag k="ssr:date" v="2021-06-08" />
		<tag k="ssr:gruppe" v="administrativeIndelinger" />
		<tag k="ssr:hovedgruppe" v="offentligAdministrasjon" />
		<tag k="ssr:stedsnr" v="1073974" />
		<tag k="ssr:type" v="fylke" />
	</node>
	<node lat="58.375987043371246" lon="7.037026071674964" id="-66937">
		<tag k="name" v="Dugan" />
		<tag k="ssr:date" v="2020-03-16" />
		<tag k="ssr:gruppe" v="veg" />
		<tag k="ssr:hovedgruppe" v="infrastruktur" />
		<tag k="ssr:stedsnr" v="1076044" />
		<tag k="ssr:type" v="adressenavn" />
	</node>
	<node lat="58.51543462297194" lon="6.902475369796857" id="-66938">
		<tag k="name" v="Stakkelandsvegen" />
		<tag k="ssr:date" v="2020-03-16" />
		<tag k="ssr:gruppe" v="veg" />
		<tag k="ssr:hovedgruppe" v="infrastruktur" />
		<tag k="ssr:stedsnr" v="1076045" />
		<tag k="ssr:type" v="adressenavn" />
	</node>
</osm>
