<?xml version="1.0" encoding="UTF-8"?>
<osm version="0.6" generator="osmapis">
	<node lat="58.49282251560017" lon="8.112903383198438" id="-63286">
		<tag k="name" v="Bellandsveien" />
		<tag k="ssr:date" v="2019-12-27" />
		<tag k="ssr:gruppe" v="veg" />
		<tag k="ssr:hovedgruppe" v="infrastruktur" />
		<tag k="ssr:stedsnr" v="976820" />
		<tag k="ssr:type" v="adressenavn" />
	</node>
	<node lat="58.48140014989545" lon="8.137275551544304" id="-63287">
		<tag k="name" v="Lølandsveien" />
		<tag k="ssr:date" v="2019-12-27" />
		<tag k="ssr:gruppe" v="veg" />
		<tag k="ssr:hovedgruppe" v="infrastruktur" />
		<tag k="ssr:stedsnr" v="976822" />
		<tag k="ssr:type" v="adressenavn" />
	</node>
	<node lat="58.25997800639797" lon="8.164453962088954" id="-63288">
		<tag k="name" v="Grødumsmonen" />
		<tag k="ssr:date" v="2019-12-27" />
		<tag k="ssr:gruppe" v="veg" />
		<tag k="ssr:hovedgruppe" v="infrastruktur" />
		<tag k="ssr:stedsnr" v="976823" />
		<tag k="ssr:type" v="adressenavn" />
	</node>
	<node lat="58.27446598967197" lon="8.112437853954942" id="-63289">
		<tag k="name" v="Østre Erkleivvei" />
		<tag k="ssr:date" v="2019-12-27" />
		<tag k="ssr:gruppe" v="veg" />
		<tag k="ssr:hovedgruppe" v="infrastruktur" />
		<tag k="ssr:stedsnr" v="976830" />
		<tag k="ssr:type" v="adressenavn" />
	</node>
	<node lat="58.34757888198542" lon="8.261078936897105" id="-63290">
		<tag k="name" v="Steinsvannsveien" />
		<tag k="ssr:date" v="2019-12-27" />
		<tag k="ssr:gruppe" v="veg" />
		<tag k="ssr:hovedgruppe" v="infrastruktur" />
		<tag k="ssr:stedsnr" v="976837" />
		<tag k="ssr:type" v="adressenavn" />
	</node>
	<node lat="58.320861875047214" lon="8.188812223665009" id="-63291">
		<tag k="name" v="Urdalsveien" />
		<tag k="ssr:date" v="2019-12-27" />
		<tag k="ssr:gruppe" v="veg" />
		<tag k="ssr:hovedgruppe" v="infrastruktur" />
		<tag k="ssr:stedsnr" v="976815" />
		<tag k="ssr:type" v="adressenavn" />
	</node>
	<node lat="58.47870218492943" lon="8.372381931543062" id="-63292">
		<tag k="name" v="Toplandsheia hytteområde" />
		<tag k="ssr:date" v="2019-12-27" />
		<tag k="ssr:gruppe" v="veg" />
		<tag k="ssr:hovedgruppe" v="infrastruktur" />
		<tag k="ssr:stedsnr" v="976816" />
		<tag k="ssr:type" v="adressenavn" />
	</node>
	<node lat="58.499392501855425" lon="8.298130488834856" id="-63293">
		<tag k="name" v="Bjellandsveien" />
		<tag k="ssr:date" v="2019-12-27" />
		<tag k="ssr:gruppe" v="veg" />
		<tag k="ssr:hovedgruppe" v="infrastruktur" />
		<tag k="ssr:stedsnr" v="976945" />
		<tag k="ssr:type" v="adressenavn" />
	</node>
	<node lat="58.50723849125911" lon="8.002986224439166" id="-63294">
		<tag k="name" v="Fidjelandsveien" />
		<tag k="ssr:date" v="2019-12-27" />
		<tag k="ssr:gruppe" v="veg" />
		<tag k="ssr:hovedgruppe" v="infrastruktur" />
		<tag k="ssr:stedsnr" v="976947" />
		<tag k="ssr:type" v="adressenavn" />
	</node>
	<node lat="58.27625473229828" lon="8.169373907255345" id="-63295">
		<tag k="name" v="Fosseveien" />
		<tag k="ssr:date" v="2019-12-27" />
		<tag k="ssr:gruppe" v="veg" />
		<tag k="ssr:hovedgruppe" v="infrastruktur" />
		<tag k="ssr:stedsnr" v="976948" />
		<tag k="ssr:type" v="adressenavn" />
	</node>
	<node lat="58.4655710549192" lon="8.133662018497954" id="-63296">
		<tag k="name" v="Skrerosveien" />
		<tag k="ssr:date" v="2019-12-27" />
		<tag k="ssr:gruppe" v="veg" />
		<tag k="ssr:hovedgruppe" v="infrastruktur" />
		<tag k="ssr:stedsnr" v="976949" />
		<tag k="ssr:type" v="adressenavn" />
	</node>
	<node lat="58.463119516584335" lon="8.272690475396475" id="-63297">
		<tag k="name" v="Stovelandsveien" />
		<tag k="ssr:date" v="2019-12-27" />
		<tag k="ssr:gruppe" v="veg" />
		<tag k="ssr:hovedgruppe" v="infrastruktur" />
		<tag k="ssr:stedsnr" v="976950" />
		<tag k="ssr:type" v="adressenavn" />
	</node>
	<node lat="58.362611531968916" lon="8.292419311752507" id="-63298">
		<tag k="name" v="Vindslandsveien" />
		<tag k="ssr:date" v="2019-12-27" />
		<tag k="ssr:gruppe" v="veg" />
		<tag k="ssr:hovedgruppe" v="infrastruktur" />
		<tag k="ssr:stedsnr" v="976951" />
		<tag k="ssr:type" v="adressenavn" />
	</node>
	<node lat="58.52469133023569" lon="8.354030354347271" id="-63299">
		<tag k="name" v="Hamnehagen" />
		<tag k="ssr:date" v="2019-12-27" />
		<tag k="ssr:gruppe" v="veg" />
		<tag k="ssr:hovedgruppe" v="infrastruktur" />
		<tag k="ssr:stedsnr" v="976952" />
		<tag k="ssr:type" v="adressenavn" />
	</node>
	<node lat="58.33487499593768" lon="8.23296666144551" id="-64905">
		<tag k="loc_name" v="Birkenes" />
		<tag k="name" v="Birkenes kommune" />
		<tag k="ssr:date" v="2019-12-27" />
		<tag k="ssr:gruppe" v="administrativeIndelinger" />
		<tag k="ssr:hovedgruppe" v="offentligAdministrasjon" />
		<tag k="ssr:stedsnr" v="630405" />
		<tag k="ssr:type" v="kommune" />
	</node>
	<node lat="58.34904353632801" lon="8.056763236203148" id="-65896">
		<tag k="name" v="Kleppeveien" />
		<tag k="ssr:date" v="2019-12-27" />
		<tag k="ssr:gruppe" v="veg" />
		<tag k="ssr:hovedgruppe" v="infrastruktur" />
		<tag k="ssr:stedsnr" v="976810" />
		<tag k="ssr:type" v="adressenavn" />
	</node>
	<node lat="58.3791384852251" lon="8.189168308273961" id="-65897">
		<tag k="name" v="Knappholtveien" />
		<tag k="ssr:date" v="2019-12-27" />
		<tag k="ssr:gruppe" v="veg" />
		<tag k="ssr:hovedgruppe" v="infrastruktur" />
		<tag k="ssr:stedsnr" v="976811" />
		<tag k="ssr:type" v="adressenavn" />
	</node>
	<node lat="58.43679241621061" lon="8.2425337850789" id="-65898">
		<tag k="name" v="Lundeveien" />
		<tag k="ssr:date" v="2019-12-27" />
		<tag k="ssr:gruppe" v="veg" />
		<tag k="ssr:hovedgruppe" v="infrastruktur" />
		<tag k="ssr:stedsnr" v="976812" />
		<tag k="ssr:type" v="adressenavn" />
	</node>
	<node lat="58.4548282979295" lon="8.331170010198635" id="-65899">
		<tag k="name" v="Stieveien" />
		<tag k="ssr:date" v="2019-12-27" />
		<tag k="ssr:gruppe" v="veg" />
		<tag k="ssr:hovedgruppe" v="infrastruktur" />
		<tag k="ssr:stedsnr" v="976813" />
		<tag k="ssr:type" v="adressenavn" />
	</node>
	<node lat="58.51612174464002" lon="8.232108764985847" id="-65900">
		<tag k="name" v="Vestølveien" />
		<tag k="ssr:date" v="2019-12-27" />
		<tag k="ssr:gruppe" v="veg" />
		<tag k="ssr:hovedgruppe" v="infrastruktur" />
		<tag k="ssr:stedsnr" v="976814" />
		<tag k="ssr:type" v="adressenavn" />
	</node>
	<node lat="58.53324318455834" lon="7.977560423693446" id="-65901">
		<tag k="name" v="Haukomveien" />
		<tag k="ssr:date" v="2019-12-27" />
		<tag k="ssr:gruppe" v="veg" />
		<tag k="ssr:hovedgruppe" v="infrastruktur" />
		<tag k="ssr:stedsnr" v="976888" />
		<tag k="ssr:type" v="adressenavn" />
	</node>
	<node lat="58.31438002986849" lon="8.235583466472999" id="-65902">
		<tag k="name" v="Vassbottveien" />
		<tag k="ssr:date" v="2019-12-27" />
		<tag k="ssr:gruppe" v="veg" />
		<tag k="ssr:hovedgruppe" v="infrastruktur" />
		<tag k="ssr:stedsnr" v="976889" />
		<tag k="ssr:type" v="adressenavn" />
	</node>
	<node lat="58.281930335258885" lon="8.080973381512559" id="-65903">
		<tag k="name" v="Svalandsveien" />
		<tag k="ssr:date" v="2019-12-27" />
		<tag k="ssr:gruppe" v="veg" />
		<tag k="ssr:hovedgruppe" v="infrastruktur" />
		<tag k="ssr:stedsnr" v="976890" />
		<tag k="ssr:type" v="adressenavn" />
	</node>
	<node lat="58.329604453649175" lon="8.112071674577091" id="-65904">
		<tag k="name" v="Steinslandsveien" />
		<tag k="ssr:date" v="2019-12-27" />
		<tag k="ssr:gruppe" v="veg" />
		<tag k="ssr:hovedgruppe" v="infrastruktur" />
		<tag k="ssr:stedsnr" v="976892" />
		<tag k="ssr:type" v="adressenavn" />
	</node>
	<node lat="58.30676407566863" lon="8.178197231618437" id="-65905">
		<tag k="name" v="Bjorhus" />
		<tag k="ssr:date" v="2019-12-27" />
		<tag k="ssr:gruppe" v="veg" />
		<tag k="ssr:hovedgruppe" v="infrastruktur" />
		<tag k="ssr:stedsnr" v="976893" />
		<tag k="ssr:type" v="adressenavn" />
	</node>
	<node lat="58.30947951108768" lon="8.190973887904512" id="-65908">
		<tag k="name" v="Birkenesveien" />
		<tag k="ssr:date" v="2019-12-27" />
		<tag k="ssr:gruppe" v="veg" />
		<tag k="ssr:hovedgruppe" v="infrastruktur" />
		<tag k="ssr:stedsnr" v="976896" />
		<tag k="ssr:type" v="adressenavn" />
	</node>
	<node lat="58.25379704933923" lon="8.2240835449083" id="-65911">
		<tag k="name" v="Røynåsveien" />
		<tag k="ssr:date" v="2019-12-27" />
		<tag k="ssr:gruppe" v="veg" />
		<tag k="ssr:hovedgruppe" v="infrastruktur" />
		<tag k="ssr:stedsnr" v="976900" />
		<tag k="ssr:type" v="adressenavn" />
	</node>
	<node lat="58.447867926575825" lon="8.076841349806962" id="-65912">
		<tag k="name" v="Fjermedalsveien" />
		<tag k="ssr:date" v="2019-12-27" />
		<tag k="ssr:gruppe" v="veg" />
		<tag k="ssr:hovedgruppe" v="infrastruktur" />
		<tag k="ssr:stedsnr" v="976902" />
		<tag k="ssr:type" v="adressenavn" />
	</node>
	<node lat="58.57113534756185" lon="8.377744508126492" id="-65939">
		<tag k="name" v="Monen" />
		<tag k="ssr:date" v="2019-12-27" />
		<tag k="ssr:gruppe" v="veg" />
		<tag k="ssr:hovedgruppe" v="infrastruktur" />
		<tag k="ssr:stedsnr" v="991111" />
		<tag k="ssr:type" v="adressetilleggsnavn" />
	</node>
	<node lat="58.3350455999009" lon="8.235287411231752" id="-65949">
		<tag k="name" v="Lille Tømmerås" />
		<tag k="ssr:date" v="2019-12-27" />
		<tag k="ssr:gruppe" v="veg" />
		<tag k="ssr:hovedgruppe" v="infrastruktur" />
		<tag k="ssr:stedsnr" v="1054263" />
		<tag k="ssr:type" v="adressenavn" />
	</node>
	<node lat="58.33570166087168" lon="8.231647886360742" id="-65952">
		<tag k="name" v="Smedens kjerr" />
		<tag k="ssr:date" v="2019-12-27" />
		<tag k="ssr:gruppe" v="veg" />
		<tag k="ssr:hovedgruppe" v="infrastruktur" />
		<tag k="ssr:stedsnr" v="1054266" />
		<tag k="ssr:type" v="adressenavn" />
	</node>
	<node lat="58.53155205555006" lon="8.113971768447414" id="-65954">
		<tag k="name" v="Sagestø" />
		<tag k="ssr:date" v="2019-12-27" />
		<tag k="ssr:gruppe" v="veg" />
		<tag k="ssr:hovedgruppe" v="infrastruktur" />
		<tag k="ssr:stedsnr" v="1054268" />
		<tag k="ssr:type" v="adressenavn" />
	</node>
	<node lat="58.32109584967833" lon="8.24699728644426" id="-65956">
		<tag k="name" v="Kalvåsen" />
		<tag k="ssr:date" v="2019-12-27" />
		<tag k="ssr:gruppe" v="veg" />
		<tag k="ssr:hovedgruppe" v="infrastruktur" />
		<tag k="ssr:stedsnr" v="1054270" />
		<tag k="ssr:type" v="adressenavn" />
	</node>
	<node lat="58.32349639103617" lon="8.238794902041128" id="-65957">
		<tag k="name" v="Valtjønnvegen" />
		<tag k="ssr:date" v="2019-12-27" />
		<tag k="ssr:gruppe" v="veg" />
		<tag k="ssr:hovedgruppe" v="infrastruktur" />
		<tag k="ssr:stedsnr" v="1054271" />
		<tag k="ssr:type" v="adressenavn" />
	</node>
	<node lat="58.324871213401295" lon="8.2393704345615" id="-65958">
		<tag k="name" v="Speidervegen" />
		<tag k="ssr:date" v="2019-12-27" />
		<tag k="ssr:gruppe" v="veg" />
		<tag k="ssr:hovedgruppe" v="infrastruktur" />
		<tag k="ssr:stedsnr" v="1054272" />
		<tag k="ssr:type" v="adressenavn" />
	</node>
	<node lat="58.33100413173651" lon="8.225991241354368" id="-65959">
		<tag k="name" v="Rørhomvegen" />
		<tag k="ssr:date" v="2019-12-27" />
		<tag k="ssr:gruppe" v="veg" />
		<tag k="ssr:hovedgruppe" v="infrastruktur" />
		<tag k="ssr:stedsnr" v="1054273" />
		<tag k="ssr:type" v="adressenavn" />
	</node>
	<node lat="58.32619356737967" lon="8.23469800921803" id="-65960">
		<tag k="name" v="Rennemoen" />
		<tag k="ssr:date" v="2019-12-27" />
		<tag k="ssr:gruppe" v="veg" />
		<tag k="ssr:hovedgruppe" v="infrastruktur" />
		<tag k="ssr:stedsnr" v="1054274" />
		<tag k="ssr:type" v="adressenavn" />
	</node>
	<node lat="58.32418396842436" lon="8.232841830468772" id="-65961">
		<tag k="name" v="Rennehaven" />
		<tag k="ssr:date" v="2019-12-27" />
		<tag k="ssr:gruppe" v="veg" />
		<tag k="ssr:hovedgruppe" v="infrastruktur" />
		<tag k="ssr:stedsnr" v="1054275" />
		<tag k="ssr:type" v="adressenavn" />
	</node>
	<node lat="58.32993676125022" lon="8.239424850873764" id="-65962">
		<tag k="name" v="Nordåsvegen" />
		<tag k="ssr:date" v="2019-12-27" />
		<tag k="ssr:gruppe" v="veg" />
		<tag k="ssr:hovedgruppe" v="infrastruktur" />
		<tag k="ssr:stedsnr" v="1054276" />
		<tag k="ssr:type" v="adressenavn" />
	</node>
	<node lat="58.33096513062781" lon="8.24077267708584" id="-65963">
		<tag k="name" v="Nordåsstien" />
		<tag k="ssr:date" v="2019-12-27" />
		<tag k="ssr:gruppe" v="veg" />
		<tag k="ssr:hovedgruppe" v="infrastruktur" />
		<tag k="ssr:stedsnr" v="1054277" />
		<tag k="ssr:type" v="adressenavn" />
	</node>
	<node lat="58.32696902170917" lon="8.238004498873073" id="-65964">
		<tag k="name" v="Nordåsen terrasse" />
		<tag k="ssr:date" v="2019-12-27" />
		<tag k="ssr:gruppe" v="veg" />
		<tag k="ssr:hovedgruppe" v="infrastruktur" />
		<tag k="ssr:stedsnr" v="1054278" />
		<tag k="ssr:type" v="adressenavn" />
	</node>
	<node lat="58.332717586842314" lon="8.237258880105136" id="-65965">
		<tag k="name" v="Nordåsbakken" />
		<tag k="ssr:date" v="2019-12-27" />
		<tag k="ssr:gruppe" v="veg" />
		<tag k="ssr:hovedgruppe" v="infrastruktur" />
		<tag k="ssr:stedsnr" v="1054279" />
		<tag k="ssr:type" v="adressenavn" />
	</node>
	<node lat="58.32362709697562" lon="8.234248588714111" id="-65979">
		<tag k="name" v="Morhomvegen" />
		<tag k="ssr:date" v="2019-12-27" />
		<tag k="ssr:gruppe" v="veg" />
		<tag k="ssr:hovedgruppe" v="infrastruktur" />
		<tag k="ssr:stedsnr" v="1054309" />
		<tag k="ssr:type" v="adressenavn" />
	</node>
	<node lat="58.324531538389465" lon="8.2361322237175" id="-65980">
		<tag k="name" v="Hauane" />
		<tag k="ssr:date" v="2019-12-27" />
		<tag k="ssr:gruppe" v="veg" />
		<tag k="ssr:hovedgruppe" v="infrastruktur" />
		<tag k="ssr:stedsnr" v="1054310" />
		<tag k="ssr:type" v="adressenavn" />
	</node>
	<node lat="58.52076892596527" lon="8.34777964017186" id="-65981">
		<tag k="name" v="Gåsehagen" />
		<tag k="ssr:date" v="2019-12-27" />
		<tag k="ssr:gruppe" v="veg" />
		<tag k="ssr:hovedgruppe" v="infrastruktur" />
		<tag k="ssr:stedsnr" v="1054311" />
		<tag k="ssr:type" v="adressenavn" />
	</node>
	<node lat="58.32738364755705" lon="8.234415470792596" id="-65982">
		<tag k="name" v="Grantunvegen" />
		<tag k="ssr:date" v="2019-12-27" />
		<tag k="ssr:gruppe" v="veg" />
		<tag k="ssr:hovedgruppe" v="infrastruktur" />
		<tag k="ssr:stedsnr" v="1054312" />
		<tag k="ssr:type" v="adressenavn" />
	</node>
	<node lat="58.326611733148276" lon="8.230883955356765" id="-65983">
		<tag k="name" v="Berse terrasse" />
		<tag k="ssr:date" v="2019-12-27" />
		<tag k="ssr:gruppe" v="veg" />
		<tag k="ssr:hovedgruppe" v="infrastruktur" />
		<tag k="ssr:stedsnr" v="1054313" />
		<tag k="ssr:type" v="adressenavn" />
	</node>
	<node lat="58.3279284654354" lon="8.22020735569496" id="-65984">
		<tag k="name" v="Bakkemoen" />
		<tag k="ssr:date" v="2019-12-27" />
		<tag k="ssr:gruppe" v="veg" />
		<tag k="ssr:hovedgruppe" v="infrastruktur" />
		<tag k="ssr:stedsnr" v="1054314" />
		<tag k="ssr:type" v="adressenavn" />
	</node>
	<node lat="58.305828590086975" lon="8.24222611279645" id="-66028">
		<tag k="name" v="Skilsteinsheia" />
		<tag k="ssr:date" v="2021-08-17" />
		<tag k="ssr:gruppe" v="veg" />
		<tag k="ssr:hovedgruppe" v="infrastruktur" />
		<tag k="ssr:stedsnr" v="1081968" />
		<tag k="ssr:type" v="adressenavn" />
	</node>
</osm>
