<?xml version="1.0" encoding="UTF-8"?>
<osm generator="osmapis" version="0.6">
	<node id="-33440" lat="59.8791333362" lon="11.0652611178">
		<tag k="bridge" v="yes" />
		<tag k="layer" v="1" />
		<tag k="name" v="Annekloppa" />
		<tag k="ssr:stedsnr" v="206635" />
	</node>
	<node id="-33596" lat="59.8533805549" lon="11.1010555623">
		<tag k="bridge" v="yes" />
		<tag k="layer" v="1" />
		<tag k="name" v="By" />
		<tag k="ssr:stedsnr" v="713026" />
	</node>
	<node id="-33336" lat="59.862086111" lon="11.0945138945">
		<tag k="bridge" v="yes" />
		<tag k="layer" v="1" />
		<tag k="name" v="Fjellstad" />
		<tag k="ssr:stedsnr" v="896024" />
	</node>
	<node id="-33335" lat="59.9468916689" lon="11.0470555536">
		<tag k="bridge" v="yes" />
		<tag k="layer" v="1" />
		<tag k="name" v="Rudveien" />
		<tag k="ssr:stedsnr" v="410025" />
	</node>
	<node id="-33334" lat="59.8845222196" lon="11.0955277794">
		<tag k="highway" v="path" />
		<tag k="name" v="Kongevegen" />
		<tag k="ssr:stedsnr" v="388639" />
	</node>
	<node id="-33460" lat="59.9521277747" lon="11.0372500021">
		<tag k="bridge" v="yes" />
		<tag k="layer" v="1" />
		<tag k="name" v="Lillestrøm bru" />
		<tag k="ssr:stedsnr" v="266718" />
	</node>
	<node id="-33586" lat="59.9218000004" lon="11.0738166606">
		<tag k="junction" v="yes" />
		<tag k="name" v="Fjerdingby" />
		<tag k="place" v="locality" />
		<tag k="ssr:stedsnr" v="691587" />
	</node>
	<node id="-33424" lat="59.9285833302" lon="11.0699611157">
		<tag k="bridge" v="yes" />
		<tag k="layer" v="1" />
		<tag k="name" v="Sundhagen" />
		<tag k="ssr:stedsnr" v="167029" />
	</node>
	<node id="-33294" lat="59.9255444448" lon="11.0609888876">
		<tag k="bridge" v="yes" />
		<tag k="layer" v="1" />
		<tag k="name" v="Marikollen" />
		<tag k="ssr:stedsnr" v="289024" />
	</node>
	<node id="-33325" lat="59.8884000007" lon="11.0995638864">
		<tag k="junction" v="yes" />
		<tag k="name" v="Tveitertørje" />
		<tag k="place" v="locality" />
		<tag k="ssr:stedsnr" v="387650" />
	</node>
	<node id="-33548" lat="59.9322472265" lon="11.0680388975">
		<tag k="bridge" v="yes" />
		<tag k="layer" v="1" />
		<tag k="name" v="Åmot" />
		<tag k="ssr:stedsnr" v="592028" />
	</node>
	<node id="-33445" lat="59.9236916676" lon="11.0663500059">
		<tag k="bridge" v="yes" />
		<tag k="layer" v="1" />
		<tag k="name" v="Fjerdingby" />
		<tag k="ssr:stedsnr" v="228036" />
	</node>
	<node id="-33444" lat="59.9458888867" lon="11.0384833262">
		<tag k="bridge" v="yes" />
		<tag k="layer" v="1" />
		<tag k="name" v="Stormyrvegen" />
		<tag k="ssr:stedsnr" v="228033" />
	</node>
</osm>
