<?xml version="1.0" encoding="UTF-8"?>
<osm generator="osmapis" version="0.6">
	<node id="-33472" lat="59.9428444434" lon="11.0484111124">
		<tag k="name" v="Herredshus" />
		<tag k="place" v="locality" />
		<tag k="ssr:stedsnr" v="448753" />
	</node>
	<node id="-33439" lat="59.9467749961" lon="11.0354833308">
		<tag k="alt_name" v="Øvre Rælingen" />
		<tag k="amenity" v="place_of_worship" />
		<tag k="denomination" v="lutheran" />
		<tag k="name" v="Øvre Rælingen kirke" />
		<tag k="religion" v="christian" />
		<tag k="ssr:stedsnr" v="205736" />
	</node>
	<node id="-33566" lat="59.8928722224" lon="11.0977916614">
		<tag k="amenity" v="community_centre" />
		<tag k="name" v="Filadelfia" />
		<tag k="ssr:stedsnr" v="630602" />
	</node>
	<node id="-33435" lat="59.9260817816" lon="11.0585125829">
		<tag k="amenity" v="place_of_worship" />
		<tag k="fixme" v="specify religion=*, denomination=*, building=* etc" />
		<tag k="name" v="Fjellet bedehus" />
		<tag k="ssr:stedsnr" v="205601" />
	</node>
	<node id="-33594" lat="59.8747833347" lon="11.0853777775">
		<tag k="amenity" v="community_centre" />
		<tag k="name" v="Åsvang samfunnshus" />
		<tag k="ssr:stedsnr" v="692607" />
	</node>
	<node id="-33464" lat="59.9208333354" lon="11.0832222154">
		<tag k="alt_name" v="Rælingen" />
		<tag k="amenity" v="place_of_worship" />
		<tag k="denomination" v="lutheran" />
		<tag k="name" v="Rælingen kirke" />
		<tag k="religion" v="christian" />
		<tag k="ssr:stedsnr" v="429094" />
	</node>
	<node id="-33621" lat="59.9446027753" lon="11.0224722198">
		<tag k="name" v="Stalsberghagen" />
		<tag k="place" v="locality" />
		<tag k="ssr:stedsnr" v="793034" />
	</node>
	<node id="-33507" lat="59.932219445" lon="11.0689555618">
		<tag k="amenity" v="community_centre" />
		<tag k="loc_name" v="Åmot grendehus" />
		<tag k="name" v="Aamodt grendehus" />
		<tag k="ssr:stedsnr" v="509543" />
	</node>
</osm>
