<?xml version="1.0" encoding="UTF-8"?>
<osm generator="osmapis" version="0.6">
	<node id="-33704" lat="59.838205628" lon="11.0462353134">
		<tag k="fixme" v="consider boundary=protected_area and relevant protect_class if not nature reserve" />
		<tag k="leisure" v="nature_reserve" />
		<tag k="name" v="Østmarka naturreservat" />
		<tag k="ssr:stedsnr" v="972728" />
	</node>
	<node id="-33703" lat="59.9027831835" lon="11.0418645935">
		<tag k="fixme" v="consider boundary=protected_area and relevant protect_class if not nature reserve" />
		<tag k="leisure" v="nature_reserve" />
		<tag k="name" v="Ramstadslottet naturreservat" />
		<tag k="ssr:stedsnr" v="972730" />
	</node>
	<node id="-33702" lat="59.9068305527" lon="11.0969083256">
		<tag k="name" v="Nordre Smestad" />
		<tag k="place" v="farm" />
		<tag k="ssr:stedsnr" v="934720" />
	</node>
	<node id="-33701" lat="59.9437083366" lon="11.0247611144">
		<tag k="name" v="Setersletta" />
		<tag k="place" v="locality" />
		<tag k="ssr:stedsnr" v="934709" />
	</node>
	<node id="-33700" lat="59.945013889" lon="11.0543777711">
		<tag k="name" v="Tangerudvika" />
		<tag k="natural" v="bay" />
		<tag k="ssr:stedsnr" v="934685" />
	</node>
	<node id="-33699" lat="59.878477777" lon="11.0708694446">
		<tag k="fixme" v="consider natural=peak for the most distinct mountains in the district" />
		<tag k="name" v="Høgåsen" />
		<tag k="natural" v="hill" />
		<tag k="place" v="locality" />
		<tag k="ssr:stedsnr" v="934665" />
	</node>
	<node id="-33698" lat="59.86310278" lon="11.069283329">
		<tag k="name" v="Isdalen" />
		<tag k="natural" v="valley" />
		<tag k="place" v="locality" />
		<tag k="ssr:stedsnr" v="934635" />
	</node>
	<node id="-33697" lat="59.8900388877" lon="11.070261111">
		<tag k="name" v="Hesteberga" />
		<tag k="place" v="locality" />
		<tag k="ssr:stedsnr" v="934619" />
	</node>
	<node id="-33696" lat="59.8752472211" lon="11.1045916618">
		<tag k="name" v="Nordstua Nes" />
		<tag k="place" v="farm" />
		<tag k="ssr:stedsnr" v="934614" />
	</node>
	<node id="-33695" lat="59.8730083317" lon="11.1040361146">
		<tag k="name" v="Nesvika" />
		<tag k="natural" v="bay" />
		<tag k="ssr:stedsnr" v="934568" />
	</node>
	<node id="-33694" lat="59.8585388866" lon="11.0702388824">
		<tag k="name" v="Isdalsvika" />
		<tag k="natural" v="bay" />
		<tag k="ssr:stedsnr" v="934565" />
	</node>
	<node id="-33693" lat="59.9312416656" lon="11.0378611136">
		<tag k="name" v="Blystadlia" />
		<tag k="place" v="quarter" />
		<tag k="ssr:stedsnr" v="934516" />
	</node>
	<node id="-33692" lat="59.8822249965" lon="11.0556166664">
		<tag k="name" v="Stabburdalen" />
		<tag k="natural" v="valley" />
		<tag k="place" v="locality" />
		<tag k="ssr:stedsnr" v="934503" />
	</node>
	<node id="-33691" lat="59.8853527794" lon="11.0252250059">
		<tag k="fixme" v="consider natural=peak for the most distinct mountains in the district" />
		<tag k="name" v="Hukåsen" />
		<tag k="natural" v="hill" />
		<tag k="place" v="locality" />
		<tag k="ssr:stedsnr" v="934479" />
	</node>
	<node id="-33690" lat="59.8654416701" lon="11.0349333341">
		<tag k="name" v="Jaertangene" />
		<tag k="natural" v="hill" />
		<tag k="place" v="locality" />
		<tag k="ssr:stedsnr" v="934476" />
	</node>
	<node id="-33689" lat="59.8390749973" lon="11.0334499962">
		<tag k="fixme" v="consider natural=peak for the most distinct mountains in the district" />
		<tag k="name" v="Ørnåsen" />
		<tag k="natural" v="hill" />
		<tag k="place" v="locality" />
		<tag k="ssr:stedsnr" v="934473" />
	</node>
	<node id="-33688" lat="59.8954055537" lon="11.0465472281">
		<tag k="name" v="Skauholtmyra" />
		<tag k="natural" v="wetland" />
		<tag k="ssr:stedsnr" v="934469" />
	</node>
	<node id="-33687" lat="59.8388861077" lon="11.0593416674">
		<tag k="historic" v="shieling" />
		<tag k="name" v="Tomtersetra" />
		<tag k="place" v="locality" />
		<tag k="ssr:stedsnr" v="934455" />
	</node>
	<node id="-33686" lat="59.916897224" lon="11.0445333324">
		<tag k="name" v="Merramyra" />
		<tag k="natural" v="wetland" />
		<tag k="ssr:stedsnr" v="934451" />
	</node>
	<node id="-33685" lat="59.9166666652" lon="11.0317472141">
		<tag k="name" v="Mortensmyra" />
		<tag k="natural" v="wetland" />
		<tag k="ssr:stedsnr" v="934449" />
	</node>
	<node id="-33684" lat="59.8726222263" lon="11.0572361115">
		<tag k="name" v="Søndre Merratjern" />
		<tag k="natural" v="water" />
		<tag k="ssr:stedsnr" v="934445" />
	</node>
	<node id="-33683" lat="59.8964250009" lon="11.0418999974">
		<tag k="name" v="Minketjern" />
		<tag k="natural" v="water" />
		<tag k="ssr:stedsnr" v="934429" />
	</node>
	<node id="-33682" lat="59.8803027803" lon="11.0592249915">
		<tag k="name" v="Stutauet" />
		<tag k="natural" v="water" />
		<tag k="ssr:stedsnr" v="934427" />
	</node>
	<node id="-33681" lat="59.8868999995" lon="11.1257583381">
		<tag k="name" v="Snekkervika" />
		<tag k="natural" v="bay" />
		<tag k="ssr:stedsnr" v="915631" />
	</node>
	<node id="-33680" lat="59.8935805513" lon="11.101033333">
		<tag k="name" v="Hektner" />
		<tag k="place" v="farm" />
		<tag k="ssr:stedsnr" v="915628" />
	</node>
	<node id="-33679" lat="59.8505972247" lon="11.0385499983">
		<tag k="alt_name" v="Bjørntjernet" />
		<tag k="name" v="Småtjern" />
		<tag k="natural" v="water" />
		<tag k="ssr:stedsnr" v="915223" />
	</node>
	<node id="-33678" lat="59.8587944445" lon="11.0248361126">
		<tag k="alt_name" v="Murterudvannet" />
		<tag k="name" v="Morterudvann" />
		<tag k="natural" v="water" />
		<tag k="old_name" v="Morterudvatn" />
		<tag k="ssr:stedsnr" v="915200" />
	</node>
	<node id="-33677" lat="59.8606472241" lon="11.0185305585">
		<tag k="name" v="Morterudkoia" />
		<tag k="place" v="isolated_dwelling" />
		<tag k="ssr:stedsnr" v="915198" />
	</node>
	<node id="-33676" lat="59.8616361133" lon="11.0346083301">
		<tag k="alt_name" v="Vestre Bjørntjern" />
		<tag k="name" v="Bjørnholttjernet" />
		<tag k="natural" v="water" />
		<tag k="ssr:stedsnr" v="915143" />
	</node>
	<node id="-33675" lat="59.8785638891" lon="11.0834777716">
		<tag k="name" v="Grinibråtan" />
		<tag k="place" v="locality" />
		<tag k="ssr:stedsnr" v="874685" />
	</node>
	<node id="-33674" lat="59.8625916685" lon="11.0660083406">
		<tag k="name" v="Indre Isdalshøgda" />
		<tag k="natural" v="hill" />
		<tag k="place" v="locality" />
		<tag k="ssr:stedsnr" v="874684" />
	</node>
	<node id="-33673" lat="59.8623166628" lon="11.1035333251">
		<tag k="name" v="Østby" />
		<tag k="place" v="isolated_dwelling" />
		<tag k="ssr:stedsnr" v="874636" />
	</node>
	<node id="-33672" lat="59.8591111093" lon="11.0931472233">
		<tag k="name" v="Løkka" />
		<tag k="place" v="hamlet" />
		<tag k="ssr:stedsnr" v="874629" />
	</node>
	<node id="-33671" lat="59.9259916631" lon="11.0637777715">
		<tag k="name" v="Bjørnholthagan" />
		<tag k="natural" v="hill" />
		<tag k="place" v="locality" />
		<tag k="ssr:stedsnr" v="874589" />
	</node>
	<node id="-33670" lat="59.9147666709" lon="11.0712527712">
		<tag k="fixme" v="consider natural=peak for the most distinct mountains in the district" />
		<tag k="name" v="Hansefellåsen" />
		<tag k="natural" v="hill" />
		<tag k="place" v="locality" />
		<tag k="ssr:stedsnr" v="873718" />
	</node>
	<node id="-33669" lat="59.9152111132" lon="11.0975194498">
		<tag k="name" v="Holtnebbet" />
		<tag k="natural" v="cape" />
		<tag k="ssr:stedsnr" v="873720" />
	</node>
	<node id="-33668" lat="59.8941388919" lon="11.0880861163">
		<tag k="name" v="Vestegardssletta" />
		<tag k="place" v="locality" />
		<tag k="ssr:stedsnr" v="873664" />
	</node>
	<node id="-33667" lat="59.8945138906" lon="11.1092472295">
		<tag k="name" v="Steinhølet" />
		<tag k="natural" v="valley" />
		<tag k="place" v="locality" />
		<tag k="ssr:stedsnr" v="873662" />
	</node>
	<node id="-33666" lat="59.8487055575" lon="11.0909749916">
		<tag k="name" v="Kattuldalen" />
		<tag k="natural" v="valley" />
		<tag k="place" v="locality" />
		<tag k="ssr:stedsnr" v="873659" />
	</node>
	<node id="-33665" lat="59.8414333366" lon="11.0692138848">
		<tag k="name" v="Festningsdalen" />
		<tag k="natural" v="valley" />
		<tag k="place" v="locality" />
		<tag k="ssr:stedsnr" v="873652" />
	</node>
	<node id="-33664" lat="59.8833388893" lon="11.1008527848">
		<tag k="name" v="Jaersjordet" />
		<tag k="place" v="farm" />
		<tag k="ssr:stedsnr" v="873621" />
	</node>
	<node id="-33663" lat="59.8849833354" lon="11.105402776">
		<tag k="name" v="Nesøgarden" />
		<tag k="place" v="farm" />
		<tag k="ssr:stedsnr" v="873617" />
	</node>
	<node id="-33662" lat="59.8889722231" lon="11.0940722258">
		<tag k="name" v="Svarttjennbekken" />
		<tag k="ssr:stedsnr" v="873612" />
		<tag k="waterway" v="stream" />
	</node>
	<node id="-33661" lat="59.8821083301" lon="11.0706888942">
		<tag k="name" v="Fellemyra" />
		<tag k="natural" v="wetland" />
		<tag k="ssr:stedsnr" v="873610" />
	</node>
	<node id="-33660" lat="59.8918388924" lon="11.1266555602">
		<tag k="name" v="Storfloa" />
		<tag k="place" v="locality" />
		<tag k="ssr:stedsnr" v="873497" />
	</node>
	<node id="-33659" lat="59.8700000022" lon="11.0463472151">
		<tag k="name" v="Holoa" />
		<tag k="place" v="locality" />
		<tag k="ssr:stedsnr" v="873495" />
	</node>
	<node id="-33658" lat="59.8946944404" lon="11.1198861071">
		<tag k="name" v="Skogholtsåa" />
		<tag k="ssr:stedsnr" v="873482" />
		<tag k="waterway" v="river" />
	</node>
	<node id="-33657" lat="59.884480554" lon="11.0434583289">
		<tag k="name" v="Øvre Setertjern" />
		<tag k="natural" v="water" />
		<tag k="ssr:stedsnr" v="873479" />
	</node>
	<node id="-33656" lat="59.8778916696" lon="11.0423916651">
		<tag k="name" v="Romperud" />
		<tag k="place" v="locality" />
		<tag k="ssr:stedsnr" v="873390" />
	</node>
	<node id="-33655" lat="59.8445777753" lon="11.0487666578">
		<tag k="name" v="Vesle Grinderen" />
		<tag k="natural" v="water" />
		<tag k="ssr:stedsnr" v="873521" />
	</node>
	<node id="-33654" lat="59.8458361067" lon="11.0380194447">
		<tag k="name" v="Tappenbergvann" />
		<tag k="natural" v="water" />
		<tag k="ssr:stedsnr" v="855257" />
	</node>
	<node id="-33653" lat="59.8742805519" lon="11.0526055598">
		<tag k="fixme" v="consider natural=peak for the most distinct mountains in the district" />
		<tag k="name" v="Langmyråsen" />
		<tag k="natural" v="hill" />
		<tag k="place" v="locality" />
		<tag k="ssr:stedsnr" v="854175" />
	</node>
	<node id="-33652" lat="59.8730016241" lon="11.0586120914">
		<tag k="name" v="Merratjerna" />
		<tag k="natural" v="water" />
		<tag k="ssr:stedsnr" v="854113" />
	</node>
	<node id="-33651" lat="59.9184555559" lon="11.0390027764">
		<tag k="alt_name" v="Bjørnåsen" />
		<tag k="fixme" v="consider natural=peak for the most distinct mountains in the district" />
		<tag k="name" v="Bjønnåsen" />
		<tag k="natural" v="hill" />
		<tag k="place" v="locality" />
		<tag k="ssr:stedsnr" v="854085" />
	</node>
	<node id="-33650" lat="59.8588222224" lon="11.1033666664">
		<tag k="name" v="Stuetomta" />
		<tag k="place" v="isolated_dwelling" />
		<tag k="ssr:stedsnr" v="813608" />
	</node>
	<node id="-33649" lat="59.8704638863" lon="11.083588893">
		<tag k="name" v="Oppvestby" />
		<tag k="place" v="hamlet" />
		<tag k="ssr:stedsnr" v="813596" />
	</node>
	<node id="-33647" lat="59.904869446" lon="11.0700277712">
		<tag k="name" v="Høgåsdammen" />
		<tag k="natural" v="wetland" />
		<tag k="ssr:stedsnr" v="812776" />
	</node>
	<node id="-33646" lat="59.8990194449" lon="11.1064000024">
		<tag k="name" v="Skogholthagan" />
		<tag k="place" v="locality" />
		<tag k="ssr:stedsnr" v="812774" />
	</node>
	<node id="-33645" lat="59.912438889" lon="11.0902444445">
		<tag k="name" v="Vestby" />
		<tag k="place" v="hamlet" />
		<tag k="ssr:stedsnr" v="812766" />
	</node>
	<node id="-33644" lat="59.9142444471" lon="11.0863388938">
		<tag k="name" v="Holthagan" />
		<tag k="place" v="locality" />
		<tag k="ssr:stedsnr" v="812758" />
	</node>
	<node id="-33643" lat="59.904308333" lon="11.0904694401">
		<tag k="name" v="Skoglund" />
		<tag k="place" v="farm" />
		<tag k="ssr:stedsnr" v="812756" />
	</node>
	<node id="-33642" lat="59.8843027749" lon="11.0905305616">
		<tag k="fixme" v="consider natural=peak for the most distinct mountains in the district" />
		<tag k="name" v="Tveiteråsen" />
		<tag k="natural" v="hill" />
		<tag k="place" v="locality" />
		<tag k="ssr:stedsnr" v="812724" />
	</node>
	<node id="-33641" lat="59.8777027817" lon="11.1082472254">
		<tag k="name" v="Fettavika" />
		<tag k="natural" v="bay" />
		<tag k="ssr:stedsnr" v="812722" />
	</node>
	<node id="-33640" lat="59.8400666674" lon="11.0769444462">
		<tag k="fixme" v="consider natural=peak for the most distinct mountains in the district" />
		<tag k="name" v="Oskaråsen" />
		<tag k="natural" v="hill" />
		<tag k="place" v="locality" />
		<tag k="ssr:stedsnr" v="812710" />
	</node>
	<node id="-33639" lat="59.8457027801" lon="11.0895611114">
		<tag k="fixme" v="consider natural=peak for the most distinct mountains in the district" />
		<tag k="name" v="Gutubråtaåsen" />
		<tag k="natural" v="hill" />
		<tag k="place" v="locality" />
		<tag k="ssr:stedsnr" v="812704" />
	</node>
	<node id="-33638" lat="59.8837555576" lon="11.0966666756">
		<tag k="name" v="Nordstua Jaer" />
		<tag k="place" v="farm" />
		<tag k="ssr:stedsnr" v="812685" />
	</node>
	<node id="-33637" lat="59.8960250024" lon="11.1025527691">
		<tag k="name" v="Solbu" />
		<tag k="place" v="farm" />
		<tag k="ssr:stedsnr" v="812678" />
	</node>
	<node id="-33636" lat="59.9238805552" lon="11.0588916721">
		<tag k="leisure" v="pitch" />
		<tag k="name" v="Rælingen stadion" />
		<tag k="ssr:stedsnr" v="812598" />
	</node>
	<node id="-33635" lat="59.9288027789" lon="11.0446277732">
		<tag k="name" v="Åshøgda" />
		<tag k="natural" v="hill" />
		<tag k="place" v="locality" />
		<tag k="ssr:stedsnr" v="812593" />
	</node>
	<node id="-33634" lat="59.9340472257" lon="11.0302444523">
		<tag k="amenity" v="school" />
		<tag k="name" v="Sandbekken ungd. skole" />
		<tag k="ssr:stedsnr" v="812585" />
	</node>
	<node id="-33633" lat="59.8431388904" lon="11.0335305573">
		<tag k="name" v="Tappenberg" />
		<tag k="natural" v="hill" />
		<tag k="place" v="locality" />
		<tag k="ssr:stedsnr" v="812569" />
	</node>
	<node id="-33632" lat="59.8518805528" lon="11.0422999975">
		<tag k="name" v="Tørrbiten" />
		<tag k="natural" v="hill" />
		<tag k="place" v="locality" />
		<tag k="ssr:stedsnr" v="812567" />
	</node>
	<node id="-33631" lat="59.8648777811" lon="11.0468472166">
		<tag k="name" v="Langtjernhøgda" />
		<tag k="natural" v="hill" />
		<tag k="place" v="locality" />
		<tag k="ssr:stedsnr" v="812561" />
	</node>
	<node id="-33630" lat="59.8794222211" lon="11.0198444417">
		<tag k="name" v="Hvitvannsmyra" />
		<tag k="natural" v="wetland" />
		<tag k="ssr:stedsnr" v="812556" />
	</node>
	<node id="-33629" lat="59.906255559" lon="11.030369438">
		<tag k="name" v="Blåtjerntangen" />
		<tag k="natural" v="cape" />
		<tag k="ssr:stedsnr" v="812552" />
	</node>
	<node id="-33628" lat="59.8912583345" lon="11.0238138941">
		<tag k="historic" v="shieling" />
		<tag k="name" v="Vestegårdsetra" />
		<tag k="place" v="locality" />
		<tag k="ssr:stedsnr" v="812548" />
	</node>
	<node id="-33627" lat="59.8901833351" lon="11.0226055575">
		<tag k="historic" v="shieling" />
		<tag k="name" v="Østegårdsetra" />
		<tag k="place" v="locality" />
		<tag k="ssr:stedsnr" v="812547" />
	</node>
	<node id="-33626" lat="59.8951444476" lon="11.0480277744">
		<tag k="name" v="Kommunehytta" />
		<tag k="place" v="isolated_dwelling" />
		<tag k="ssr:stedsnr" v="812403" />
	</node>
	<node id="-33625" lat="59.8418166641" lon="11.1396972153">
		<tag k="name" v="Sofiedal" />
		<tag k="place" v="isolated_dwelling" />
		<tag k="ssr:stedsnr" v="794747" />
	</node>
	<node id="-33624" lat="59.8976555538" lon="11.0788638884">
		<tag k="alt_name" v="Svarttjern" />
		<tag k="name" v="Svarttjernet" />
		<tag k="natural" v="water" />
		<tag k="ssr:stedsnr" v="794056" />
	</node>
	<node id="-33623" lat="59.8558944474" lon="11.1069055591">
		<tag k="name" v="By" />
		<tag k="place" v="farm" />
		<tag k="ssr:stedsnr" v="793741" />
	</node>
	<node id="-33622" lat="59.8601472187" lon="11.0983888913">
		<tag k="name" v="Karlstad" />
		<tag k="place" v="farm" />
		<tag k="ssr:stedsnr" v="793719" />
	</node>
	<node id="-33621" lat="59.8955305543" lon="11.1029277719">
		<tag k="name" v="Skogholt" />
		<tag k="place" v="farm" />
		<tag k="ssr:stedsnr" v="793674" />
	</node>
	<node id="-33620" lat="59.8761833316" lon="11.0271555564">
		<tag k="alt_name" v="Opptjern" />
		<tag k="name" v="Opptjernet" />
		<tag k="natural" v="water" />
		<tag k="ssr:stedsnr" v="793193" />
	</node>
	<node id="-33619" lat="59.882537136" lon="11.0401249739">
		<tag k="name" v="Sætertjerna" />
		<tag k="natural" v="water" />
		<tag k="ssr:stedsnr" v="793178" />
	</node>
	<node id="-33618" lat="59.8709777759" lon="11.0764749911">
		<tag k="name" v="Gryta" />
		<tag k="natural" v="water" />
		<tag k="ssr:stedsnr" v="793152" />
	</node>
	<node id="-33617" lat="59.8646027745" lon="11.0854638903">
		<tag k="fixme" v="consider natural=peak for the most distinct mountains in the district" />
		<tag k="name" v="Tjanåsen" />
		<tag k="natural" v="hill" />
		<tag k="place" v="locality" />
		<tag k="ssr:stedsnr" v="793151" />
	</node>
	<node id="-33616" lat="59.9190305591" lon="11.0271555612">
		<tag k="name" v="Åmotdammen" />
		<tag k="natural" v="water" />
		<tag k="ssr:stedsnr" v="793100" />
		<tag k="water" v="lake" />
	</node>
	<node id="-33615" lat="59.9446027753" lon="11.0224722198">
		<tag k="name" v="Stalsberghagen" />
		<tag k="place" v="locality" />
		<tag k="ssr:stedsnr" v="793034" />
	</node>
	<node id="-33614" lat="59.92566111" lon="11.070274999">
		<tag k="name" v="Bjørnholt" />
		<tag k="place" v="farm" />
		<tag k="ssr:stedsnr" v="793002" />
	</node>
	<node id="-33613" lat="59.8643527802" lon="11.0719944497">
		<tag k="name" v="Fremste Isdalshøgda" />
		<tag k="natural" v="hill" />
		<tag k="place" v="locality" />
		<tag k="ssr:stedsnr" v="752634" />
	</node>
	<node id="-33612" lat="59.8734555595" lon="11.0937916588">
		<tag k="name" v="Neshagan" />
		<tag k="place" v="locality" />
		<tag k="ssr:stedsnr" v="752594" />
	</node>
	<node id="-33611" lat="59.9370388932" lon="11.0648916674">
		<tag k="name" v="Nedre Åmot" />
		<tag k="place" v="farm" />
		<tag k="ssr:stedsnr" v="752550" />
	</node>
	<node id="-33610" lat="59.9139666622" lon="11.0840527824">
		<tag k="name" v="Sørlibekken" />
		<tag k="ssr:stedsnr" v="751788" />
		<tag k="waterway" v="stream" />
	</node>
	<node id="-33609" lat="59.9436444459" lon="11.0298555527">
		<tag k="name" v="Furukollen" />
		<tag k="natural" v="hill" />
		<tag k="place" v="locality" />
		<tag k="ssr:stedsnr" v="751772" />
	</node>
	<node id="-33608" lat="59.9433138922" lon="11.0564166662">
		<tag k="name" v="Borgen" />
		<tag k="place" v="hamlet" />
		<tag k="ssr:stedsnr" v="751729" />
	</node>
	<node id="-33607" lat="59.949924996" lon="11.0422444388">
		<tag k="name" v="Rudsberget" />
		<tag k="place" v="isolated_dwelling" />
		<tag k="ssr:stedsnr" v="751727" />
	</node>
	<node id="-33606" lat="59.881530552" lon="11.087238892">
		<tag k="fixme" v="consider natural=peak for the most distinct mountains in the district" />
		<tag k="name" v="Jaeråsen" />
		<tag k="natural" v="hill" />
		<tag k="place" v="locality" />
		<tag k="ssr:stedsnr" v="751721" />
	</node>
	<node id="-33605" lat="59.8899833307" lon="11.0775444381">
		<tag k="name" v="Storkleiva" />
		<tag k="natural" v="valley" />
		<tag k="place" v="locality" />
		<tag k="ssr:stedsnr" v="751722" />
	</node>
	<node id="-33604" lat="59.8757944472" lon="11.0512055602">
		<tag k="name" v="Jaerlangmyra" />
		<tag k="natural" v="wetland" />
		<tag k="ssr:stedsnr" v="751534" />
	</node>
	<node id="-33603" lat="59.8667638897" lon="11.054855562">
		<tag k="name" v="Nordre Mørkåstjern" />
		<tag k="natural" v="water" />
		<tag k="ssr:stedsnr" v="751526" />
	</node>
	<node id="-33602" lat="59.8362222214" lon="11.0469944375">
		<tag k="name" v="Stingsildtjern" />
		<tag k="natural" v="water" />
		<tag k="ssr:stedsnr" v="751523" />
	</node>
	<node id="-33601" lat="59.9016166656" lon="11.0560000063">
		<tag k="historic" v="shieling" />
		<tag k="name" v="Årnesseter" />
		<tag k="place" v="locality" />
		<tag k="ssr:stedsnr" v="751418" />
	</node>
	<node id="-33600" lat="59.8761805518" lon="11.0922638972">
		<tag k="alt_name" v="Grini Søgarden" />
		<tag k="name" v="Søgarden Grini" />
		<tag k="place" v="farm" />
		<tag k="ssr:stedsnr" v="751685" />
	</node>
	<node id="-33599" lat="59.8853416648" lon="11.1006166724">
		<tag k="name" v="Søstufossen" />
		<tag k="natural" v="waterfall" />
		<tag k="ssr:stedsnr" v="751674" />
	</node>
	<node id="-33598" lat="59.8598527776" lon="11.0848805484">
		<tag k="alt_name" v="Lintjern" />
		<tag k="name" v="Lintjernet" />
		<tag k="natural" v="water" />
		<tag k="ssr:stedsnr" v="733212" />
	</node>
	<node id="-33597" lat="59.8558527821" lon="11.0519000084">
		<tag k="fixme" v="multiple name tags, choose one and add the other to alt_name" />
		<tag k="name" v="Setertjernet;Søndre Nessetertjern" />
		<tag k="natural" v="water" />
		<tag k="ssr:stedsnr" v="733211" />
	</node>
	<node id="-33596" lat="59.8573138873" lon="11.0323638836">
		<tag k="fixme" v="consider natural=peak for the most distinct mountains in the district" />
		<tag k="name" v="Bjørntjernåsen" />
		<tag k="natural" v="hill" />
		<tag k="place" v="locality" />
		<tag k="ssr:stedsnr" v="733209" />
	</node>
	<node id="-33595" lat="59.9094194449" lon="11.065050006">
		<tag k="fixme" v="multiple name tags, choose one and add the other to alt_name" />
		<tag k="name" v="Holtbreimåsan;Breidmåsan" />
		<tag k="natural" v="wetland" />
		<tag k="old_name" v="Breidmosan" />
		<tag k="ssr:stedsnr" v="733135" />
	</node>
	<node id="-33594" lat="59.9219388857" lon="11.0775999949">
		<tag k="name" v="Fjerdingby" />
		<tag k="place" v="farm" />
		<tag k="ssr:stedsnr" v="733122" />
	</node>
	<node id="-33593" lat="59.9395472267" lon="11.0380999963">
		<tag k="name" v="Stormyra" />
		<tag k="natural" v="wetland" />
		<tag k="ssr:stedsnr" v="733068" />
	</node>
	<node id="-33592" lat="59.8988250038" lon="11.1000222256">
		<tag k="name" v="Hagan" />
		<tag k="place" v="farm" />
		<tag k="ssr:stedsnr" v="732663" />
	</node>
	<node id="-33591" lat="59.8937000015" lon="11.0358222217">
		<tag k="name" v="Djupdalsmyra" />
		<tag k="natural" v="wetland" />
		<tag k="ssr:stedsnr" v="732095" />
	</node>
	<node id="-33590" lat="59.8533805549" lon="11.1010555623">
		<tag k="bridge" v="yes" />
		<tag k="layer" v="1" />
		<tag k="name" v="By" />
		<tag k="ssr:stedsnr" v="713026" />
	</node>
	<node id="-33589" lat="59.8734611077" lon="11.0840750043">
		<tag k="building" v="commercial" />
		<tag k="name" v="Skjønberg landhandleri" />
		<tag k="ssr:stedsnr" v="692608" />
	</node>
	<node id="-33588" lat="59.8747833347" lon="11.0853777775">
		<tag k="amenity" v="community_centre" />
		<tag k="name" v="Åsvang samfunnshus" />
		<tag k="ssr:stedsnr" v="692607" />
	</node>
	<node id="-33587" lat="59.921302774" lon="11.0798861065">
		<tag k="name" v="Tajet" />
		<tag k="place" v="farm" />
		<tag k="ssr:stedsnr" v="692560" />
	</node>
	<node id="-33586" lat="59.9069527759" lon="11.061650001">
		<tag k="fixme" v="consider natural=peak for the most distinct mountains in the district" />
		<tag k="name" v="Langmyråsen" />
		<tag k="natural" v="hill" />
		<tag k="place" v="locality" />
		<tag k="ssr:stedsnr" v="691735" />
	</node>
	<node id="-33585" lat="59.9052055527" lon="11.0978055589">
		<tag k="name" v="Søndre Smestad" />
		<tag k="place" v="farm" />
		<tag k="ssr:stedsnr" v="691730" />
	</node>
	<node id="-33584" lat="59.912283333" lon="11.0812777806">
		<tag k="name" v="Sørli" />
		<tag k="place" v="farm" />
		<tag k="ssr:stedsnr" v="691724" />
	</node>
	<node id="-33583" lat="59.9419500034" lon="11.059197228">
		<tag k="name" v="Berg" />
		<tag k="place" v="hamlet" />
		<tag k="ssr:stedsnr" v="691697" />
	</node>
	<node id="-33582" lat="59.8527749997" lon="11.0715694439">
		<tag k="name" v="Geitungholmen" />
		<tag k="place" v="island" />
		<tag k="ssr:stedsnr" v="691681" />
	</node>
	<node id="-33581" lat="59.8769750027" lon="11.0906249919">
		<tag k="name" v="Oppistua" />
		<tag k="place" v="farm" />
		<tag k="ssr:stedsnr" v="691644" />
	</node>
	<node id="-33580" lat="59.9218000004" lon="11.0738166606">
		<tag k="junction" v="yes" />
		<tag k="name" v="Fjerdingby" />
		<tag k="place" v="locality" />
		<tag k="ssr:stedsnr" v="691587" />
	</node>
	<node id="-33579" lat="59.8938388874" lon="11.0211194491">
		<tag k="name" v="Isdalen" />
		<tag k="natural" v="valley" />
		<tag k="place" v="locality" />
		<tag k="ssr:stedsnr" v="691538" />
	</node>
	<node id="-33578" lat="59.9019611078" lon="11.0253694472">
		<tag k="fixme" v="consider natural=peak for the most distinct mountains in the district" />
		<tag k="name" v="Skolemesteren" />
		<tag k="natural" v="hill" />
		<tag k="place" v="locality" />
		<tag k="ssr:stedsnr" v="691531" />
	</node>
	<node id="-33577" lat="59.8671277766" lon="11.0593638904">
		<tag k="name" v="Lauvbråtemyra" />
		<tag k="natural" v="wetland" />
		<tag k="ssr:stedsnr" v="691503" />
	</node>
	<node id="-33576" lat="59.8452194445" lon="11.0562472192">
		<tag k="name" v="Paraplymyra" />
		<tag k="natural" v="wetland" />
		<tag k="ssr:stedsnr" v="691500" />
	</node>
	<node id="-33575" lat="59.8907666711" lon="11.0423527806">
		<tag k="name" v="Nordre Skurvåstjern" />
		<tag k="natural" v="water" />
		<tag k="ssr:stedsnr" v="691481" />
	</node>
	<node id="-33574" lat="59.8978583303" lon="11.0510305625">
		<tag k="historic" v="shieling" />
		<tag k="name" v="Skovholtseter" />
		<tag k="place" v="locality" />
		<tag k="ssr:stedsnr" v="691395" />
	</node>
	<node id="-33573" lat="59.8495861128" lon="11.0970611165">
		<tag k="name" v="Vesledammen" />
		<tag k="natural" v="water" />
		<tag k="ssr:stedsnr" v="672730" />
	</node>
	<node id="-33572" lat="59.8713277785" lon="11.1002000035">
		<tag k="name" v="Gjellebekkvika" />
		<tag k="natural" v="bay" />
		<tag k="ssr:stedsnr" v="672666" />
	</node>
	<node id="-33571" lat="59.8861333326" lon="11.1123388872">
		<tag k="alt_name" v="Tveiterhagan" />
		<tag k="building" v="industrial" />
		<tag k="industrial" v="factory" />
		<tag k="name" v="Tveiterhagen" />
		<tag k="ssr:stedsnr" v="672640" />
	</node>
	<node id="-33570" lat="59.8314944419" lon="11.0785833375">
		<tag k="name" v="Åborvannet" />
		<tag k="natural" v="water" />
		<tag k="ssr:stedsnr" v="672272" />
	</node>
	<node id="-33569" lat="59.8472722245" lon="11.0789000067">
		<tag k="alt_name" v="Brasmetjern" />
		<tag k="name" v="Brasmetjernet" />
		<tag k="natural" v="water" />
		<tag k="ssr:stedsnr" v="672227" />
	</node>
	<node id="-33568" lat="59.8520388867" lon="11.0237388947">
		<tag k="alt_name" v="Krokvannskalven" />
		<tag k="name" v="Kalven" />
		<tag k="natural" v="bay" />
		<tag k="ssr:stedsnr" v="672221" />
	</node>
	<node id="-33567" lat="59.857486109" lon="11.0409111073">
		<tag k="alt_name" v="Østre Bjørntjern" />
		<tag k="name" v="Morttjernet" />
		<tag k="natural" v="water" />
		<tag k="ssr:stedsnr" v="672207" />
	</node>
	<node id="-33566" lat="59.8624111104" lon="11.0786638802">
		<tag k="name" v="Myrdammen" />
		<tag k="natural" v="water" />
		<tag k="ssr:stedsnr" v="672132" />
	</node>
	<node id="-33565" lat="59.9031277813" lon="11.0517027826">
		<tag k="name" v="Brudalen" />
		<tag k="natural" v="valley" />
		<tag k="place" v="locality" />
		<tag k="ssr:stedsnr" v="672068" />
	</node>
	<node id="-33564" lat="59.9254361098" lon="11.0588249933">
		<tag k="name" v="Korsvegen" />
		<tag k="place" v="farm" />
		<tag k="ssr:stedsnr" v="672001" />
	</node>
	<node id="-33563" lat="59.90104167" lon="11.1219944388">
		<tag k="name" v="Fautøya" />
		<tag k="place" v="islet" />
		<tag k="ssr:stedsnr" v="671637" />
	</node>
	<node id="-33562" lat="59.8455888927" lon="11.0934277699">
		<tag k="name" v="Tømmermannsmyra" />
		<tag k="natural" v="wetland" />
		<tag k="ssr:stedsnr" v="630643" />
	</node>
	<node id="-33561" lat="59.8350027773" lon="11.0678000005">
		<tag k="name" v="Otertjernmyra" />
		<tag k="natural" v="wetland" />
		<tag k="ssr:stedsnr" v="630631" />
	</node>
	<node id="-33560" lat="59.8928722224" lon="11.0977916614">
		<tag k="amenity" v="community_centre" />
		<tag k="name" v="Filadelfia" />
		<tag k="ssr:stedsnr" v="630602" />
	</node>
	<node id="-33559" lat="59.8832222225" lon="11.1054055493">
		<tag k="name" v="Kvennhusfossen" />
		<tag k="natural" v="waterfall" />
		<tag k="ssr:stedsnr" v="630588" />
	</node>
	<node id="-33558" lat="59.8663861079" lon="11.0691444356">
		<tag k="name" v="Vangmyra" />
		<tag k="natural" v="wetland" />
		<tag k="ssr:stedsnr" v="630565" />
	</node>
	<node id="-33557" lat="59.9350805525" lon="11.0603138922">
		<tag k="name" v="Lognsdalen" />
		<tag k="natural" v="valley" />
		<tag k="place" v="locality" />
		<tag k="ssr:stedsnr" v="630500" />
	</node>
	<node id="-33556" lat="59.9302277794" lon="11.0301194382">
		<tag k="name" v="Blystadhytta" />
		<tag k="place" v="isolated_dwelling" />
		<tag k="ssr:stedsnr" v="630494" />
	</node>
	<node id="-33555" lat="59.8846333377" lon="11.0599000083">
		<tag k="name" v="Den hvite måsan" />
		<tag k="natural" v="wetland" />
		<tag k="ssr:stedsnr" v="630470" />
	</node>
	<node id="-33554" lat="59.8392361141" lon="11.053269451">
		<tag k="historic" v="shieling" />
		<tag k="name" v="Nordbysetra" />
		<tag k="place" v="locality" />
		<tag k="ssr:stedsnr" v="630462" />
	</node>
	<node id="-33553" lat="59.8832499959" lon="11.0398249984">
		<tag k="name" v="Midtre Setertjern" />
		<tag k="natural" v="water" />
		<tag k="ssr:stedsnr" v="630455" />
	</node>
	<node id="-33552" lat="59.8481222211" lon="11.125069441">
		<tag k="name" v="Teigen" />
		<tag k="place" v="farm" />
		<tag k="ssr:stedsnr" v="611748" />
	</node>
	<node id="-33551" lat="59.8587877561" lon="11.104862923">
		<tag k="name" v="Uller" />
		<tag k="place" v="farm" />
		<tag k="ssr:stedsnr" v="611722" />
	</node>
	<node id="-33550" lat="59.8686166662" lon="11.1023694389">
		<tag k="building" v="industrial" />
		<tag k="industrial" v="factory" />
		<tag k="name" v="Nordby bruk" />
		<tag k="ssr:stedsnr" v="611700" />
	</node>
	<node id="-33549" lat="59.8901583326" lon="11.0988305622">
		<tag k="name" v="Østegarden" />
		<tag k="place" v="farm" />
		<tag k="ssr:stedsnr" v="611671" />
	</node>
	<node id="-33548" lat="59.828886108" lon="11.091330552">
		<tag k="alt_name" v="Vestre Morttjern" />
		<tag k="name" v="Morttjernet" />
		<tag k="natural" v="water" />
		<tag k="ssr:stedsnr" v="611300" />
	</node>
	<node id="-33547" lat="59.8417527811" lon="11.0574916719">
		<tag k="name" v="Svarttjernet" />
		<tag k="natural" v="water" />
		<tag k="ssr:stedsnr" v="611194" />
	</node>
	<node id="-33546" lat="59.8408027769" lon="11.0405305574">
		<tag k="fixme" v="consider natural=peak for the most distinct mountains in the district" />
		<tag k="name" v="Høgkollen" />
		<tag k="natural" v="hill" />
		<tag k="place" v="locality" />
		<tag k="ssr:stedsnr" v="611193" />
	</node>
	<node id="-33545" lat="59.8879249985" lon="11.0905750016">
		<tag k="name" v="Ramstad" />
		<tag k="place" v="farm" />
		<tag k="ssr:stedsnr" v="611081" />
	</node>
	<node id="-33544" lat="59.9376222259" lon="11.0592249961">
		<tag k="name" v="Øgården" />
		<tag k="place" v="isolated_dwelling" />
		<tag k="ssr:stedsnr" v="611063" />
	</node>
	<node id="-33543" lat="59.9483166699" lon="11.024494453">
		<tag k="alt_name" v="Strøm, vestre" />
		<tag k="name" v="Vestre Strøm" />
		<tag k="place" v="farm" />
		<tag k="ssr:stedsnr" v="611046" />
	</node>
	<node id="-33542" lat="59.9322472265" lon="11.0680388975">
		<tag k="bridge" v="yes" />
		<tag k="layer" v="1" />
		<tag k="name" v="Åmot" />
		<tag k="ssr:stedsnr" v="592028" />
	</node>
	<node id="-33541" lat="59.8606833328" lon="11.0863777723">
		<tag k="fixme" v="consider natural=peak for the most distinct mountains in the district" />
		<tag k="name" v="Splinteråsen" />
		<tag k="natural" v="hill" />
		<tag k="place" v="locality" />
		<tag k="ssr:stedsnr" v="570636" />
	</node>
	<node id="-33540" lat="59.8579388925" lon="11.0950555608">
		<tag k="name" v="Tomter" />
		<tag k="place" v="hamlet" />
		<tag k="ssr:stedsnr" v="570574" />
	</node>
	<node id="-33539" lat="59.8597305543" lon="11.0774361156">
		<tag k="name" v="Fjelldalen" />
		<tag k="natural" v="valley" />
		<tag k="place" v="locality" />
		<tag k="ssr:stedsnr" v="570563" />
	</node>
	<node id="-33538" lat="59.9197111147" lon="11.0759166691">
		<tag k="name" v="Kirkeby" />
		<tag k="place" v="isolated_dwelling" />
		<tag k="ssr:stedsnr" v="570521" />
	</node>
	<node id="-33537" lat="59.8515777802" lon="11.0803416587">
		<tag k="name" v="Korsveihøgdene" />
		<tag k="natural" v="ridge" />
		<tag k="place" v="locality" />
		<tag k="ssr:stedsnr" v="569684" />
	</node>
	<node id="-33536" lat="59.8526055582" lon="11.0682444418">
		<tag k="name" v="Bjørnholmen" />
		<tag k="place" v="island" />
		<tag k="ssr:stedsnr" v="569682" />
	</node>
	<node id="-33535" lat="59.9407638923" lon="11.0178416653">
		<tag k="fixme" v="consider natural=peak for the most distinct mountains in the district" />
		<tag k="name" v="Bassengåsen" />
		<tag k="natural" v="hill" />
		<tag k="place" v="locality" />
		<tag k="ssr:stedsnr" v="569675" />
	</node>
	<node id="-33534" lat="59.8859749969" lon="11.1024499985">
		<tag k="name" v="Søstua Tveiter" />
		<tag k="place" v="farm" />
		<tag k="ssr:stedsnr" v="569655" />
	</node>
	<node id="-33533" lat="59.9188782526" lon="11.0466773313">
		<tag k="alt_name" v="Marikollenslottet" />
		<tag k="name" v="Marikollslottet" />
		<tag k="natural" v="hill" />
		<tag k="place" v="locality" />
		<tag k="ssr:stedsnr" v="569559" />
	</node>
	<node id="-33532" lat="59.9341000034" lon="11.0603916646">
		<tag k="fixme" v="consider place=suburb, village or hamlet" />
		<tag k="name" v="Norum" />
		<tag k="place" v="quarter" />
		<tag k="ssr:stedsnr" v="569557" />
	</node>
	<node id="-33531" lat="59.9366305584" lon="11.0278999998">
		<tag k="amenity" v="school" />
		<tag k="name" v="Løvenstad skole" />
		<tag k="ssr:stedsnr" v="569551" />
	</node>
	<node id="-33530" lat="59.854644441" lon="11.0504416605">
		<tag k="historic" v="shieling" />
		<tag k="name" v="Nesseter" />
		<tag k="place" v="locality" />
		<tag k="ssr:stedsnr" v="569522" />
	</node>
	<node id="-33529" lat="59.9093000001" lon="11.0372305622">
		<tag k="historic" v="shieling" />
		<tag k="name" v="Fjerdingbyseter" />
		<tag k="place" v="locality" />
		<tag k="ssr:stedsnr" v="569378" />
	</node>
	<node id="-33528" lat="59.8405722223" lon="11.0637555602">
		<tag k="alt_name" v="Morttjern" />
		<tag k="name" v="Morttjernet" />
		<tag k="natural" v="water" />
		<tag k="ssr:stedsnr" v="551510" />
	</node>
	<node id="-33527" lat="59.8534972232" lon="11.0837861115">
		<tag k="alt_name" v="Svarttjern" />
		<tag k="name" v="Svarttjernet" />
		<tag k="natural" v="water" />
		<tag k="ssr:stedsnr" v="551241" />
	</node>
	<node id="-33526" lat="59.8904750046" lon="11.0207499919">
		<tag k="name" v="Djupdalshytta" />
		<tag k="place" v="isolated_dwelling" />
		<tag k="ssr:stedsnr" v="551087" />
	</node>
	<node id="-33525" lat="59.8679249982" lon="11.0939638946">
		<tag k="name" v="Nordby" />
		<tag k="place" v="farm" />
		<tag k="ssr:stedsnr" v="550689" />
	</node>
	<node id="-33524" lat="59.8653833347" lon="11.1000638871">
		<tag k="alt_name" v="Tomta" />
		<tag k="name" v="Tomter" />
		<tag k="place" v="farm" />
		<tag k="ssr:stedsnr" v="550687" />
	</node>
	<node id="-33523" lat="59.8986694436" lon="11.110536116">
		<tag k="name" v="Nordhagan" />
		<tag k="place" v="farm" />
		<tag k="ssr:stedsnr" v="550619" />
	</node>
	<node id="-33522" lat="59.887880934" lon="11.0584138537">
		<tag k="name" v="Ramstadsjøen" />
		<tag k="natural" v="water" />
		<tag k="ssr:stedsnr" v="550181" />
		<tag k="water" v="lake" />
	</node>
	<node id="-33521" lat="59.8873416684" lon="11.047499995">
		<tag k="name" v="Hektnersetra" />
		<tag k="place" v="isolated_dwelling" />
		<tag k="ssr:stedsnr" v="550179" />
	</node>
	<node id="-33520" lat="59.9091319576" lon="11.0520663816">
		<tag k="name" v="Olaputten" />
		<tag k="natural" v="water" />
		<tag k="ssr:stedsnr" v="550126" />
		<tag k="water" v="pond" />
	</node>
	<node id="-33519" lat="59.9478750035" lon="11.0309500054">
		<tag k="alt_name" v="Strøm, østre" />
		<tag k="name" v="Østre Strøm" />
		<tag k="place" v="farm" />
		<tag k="ssr:stedsnr" v="550047" />
	</node>
	<node id="-33518" lat="59.9313083317" lon="11.0774000043">
		<tag k="name" v="Sundet" />
		<tag k="place" v="isolated_dwelling" />
		<tag k="ssr:stedsnr" v="550008" />
	</node>
	<node id="-33517" lat="59.9270833366" lon="11.0598055533">
		<tag k="alt_name" v="Nygard" />
		<tag k="name" v="Nygård" />
		<tag k="place" v="isolated_dwelling" />
		<tag k="ssr:stedsnr" v="550004" />
	</node>
	<node id="-33516" lat="59.9013305544" lon="11.0924416581">
		<tag k="name" v="Oppsal" />
		<tag k="place" v="hamlet" />
		<tag k="ssr:stedsnr" v="509711" />
	</node>
	<node id="-33515" lat="59.9128361097" lon="11.0807444409">
		<tag k="fixme" v="consider natural=peak for the most distinct mountains in the district" />
		<tag k="name" v="Sørliåsen" />
		<tag k="natural" v="hill" />
		<tag k="place" v="locality" />
		<tag k="ssr:stedsnr" v="509708" />
	</node>
	<node id="-33514" lat="59.9040361086" lon="11.0940249969">
		<tag k="name" v="Løvlia" />
		<tag k="place" v="hamlet" />
		<tag k="ssr:stedsnr" v="509699" />
	</node>
	<node id="-33513" lat="59.8357305583" lon="11.0829583406">
		<tag k="name" v="Breimåsan" />
		<tag k="natural" v="wetland" />
		<tag k="ssr:stedsnr" v="509650" />
	</node>
	<node id="-33512" lat="59.8475333326" lon="11.0642805643">
		<tag k="name" v="Struten" />
		<tag k="natural" v="bay" />
		<tag k="ssr:stedsnr" v="509648" />
	</node>
	<node id="-33511" lat="59.8499111146" lon="11.0753833325">
		<tag k="name" v="Tyrigrava" />
		<tag k="place" v="locality" />
		<tag k="ssr:stedsnr" v="509646" />
	</node>
	<node id="-33510" lat="59.8558777813" lon="11.0687416662">
		<tag k="name" v="Bakhonkastet" />
		<tag k="natural" v="slope" />
		<tag k="place" v="locality" />
		<tag k="ssr:stedsnr" v="509629" />
	</node>
	<node id="-33509" lat="59.8938194425" lon="11.101011113">
		<tag k="name" v="Nordre Hektner" />
		<tag k="place" v="farm" />
		<tag k="ssr:stedsnr" v="509613" />
	</node>
	<node id="-33508" lat="59.8959138878" lon="11.092141659">
		<tag k="name" v="Solli" />
		<tag k="place" v="farm" />
		<tag k="ssr:stedsnr" v="509610" />
	</node>
	<node id="-33507" lat="59.8956249992" lon="11.1128027728">
		<tag k="name" v="Trollykkja" />
		<tag k="place" v="hamlet" />
		<tag k="ssr:stedsnr" v="509607" />
	</node>
	<node id="-33506" lat="59.8713972246" lon="11.0949194385">
		<tag k="name" v="Nerhaugen" />
		<tag k="place" v="farm" />
		<tag k="ssr:stedsnr" v="509587" />
	</node>
	<node id="-33505" lat="59.8698250044" lon="11.0642194453">
		<tag k="historic" v="shieling" />
		<tag k="name" v="Grinisetervangen" />
		<tag k="place" v="locality" />
		<tag k="ssr:stedsnr" v="509584" />
	</node>
	<node id="-33504" lat="59.8688499979" lon="11.1089222201">
		<tag k="name" v="Nordbyleira" />
		<tag k="natural" v="shoal" />
		<tag k="place" v="locality" />
		<tag k="ssr:stedsnr" v="509580" />
	</node>
	<node id="-33503" lat="59.863299998" lon="11.0823000063">
		<tag k="name" v="Sveltetangen" />
		<tag k="natural" v="cape" />
		<tag k="ssr:stedsnr" v="509579" />
	</node>
	<node id="-33502" lat="59.9392555512" lon="11.0637916643">
		<tag k="name" v="Nyland" />
		<tag k="place" v="hamlet" />
		<tag k="ssr:stedsnr" v="509556" />
	</node>
	<node id="-33501" lat="59.932219445" lon="11.0689555618">
		<tag k="amenity" v="community_centre" />
		<tag k="loc_name" v="Åmot grendehus" />
		<tag k="name" v="Aamodt grendehus" />
		<tag k="ssr:stedsnr" v="509543" />
	</node>
	<node id="-33500" lat="59.9212499967" lon="11.0365583296">
		<tag k="fixme" v="consider natural=peak for the most distinct mountains in the district" />
		<tag k="name" v="Buåsen" />
		<tag k="natural" v="hill" />
		<tag k="place" v="locality" />
		<tag k="ssr:stedsnr" v="509516" />
	</node>
	<node id="-33499" lat="59.8644083304" lon="11.0419138923">
		<tag k="name" v="Byttingsdalen" />
		<tag k="natural" v="valley" />
		<tag k="place" v="locality" />
		<tag k="ssr:stedsnr" v="509504" />
	</node>
	<node id="-33498" lat="59.8892416706" lon="11.0474750027">
		<tag k="fixme" v="consider natural=peak for the most distinct mountains in the district" />
		<tag k="name" v="Skurvåsen" />
		<tag k="natural" v="hill" />
		<tag k="place" v="locality" />
		<tag k="ssr:stedsnr" v="509493" />
	</node>
	<node id="-33497" lat="59.838655552" lon="11.0380416685">
		<tag k="name" v="Midtre Høgkolltjern" />
		<tag k="natural" v="water" />
		<tag k="ssr:stedsnr" v="509489" />
	</node>
	<node id="-33496" lat="59.8576138853" lon="11.0185638798">
		<tag k="fixme" v="consider natural=peak for the most distinct mountains in the district" />
		<tag k="name" v="Haraåsen" />
		<tag k="natural" v="hill" />
		<tag k="place" v="locality" />
		<tag k="ssr:stedsnr" v="509471" />
	</node>
	<node id="-33495" lat="59.8587444448" lon="11.0486388873">
		<tag k="name" v="Vivangen" />
		<tag k="place" v="locality" />
		<tag k="ssr:stedsnr" v="509459" />
	</node>
	<node id="-33494" lat="59.8979555529" lon="11.022697225">
		<tag k="name" v="Ismyra" />
		<tag k="natural" v="wetland" />
		<tag k="ssr:stedsnr" v="509456" />
	</node>
	<node id="-33493" lat="59.8584250029" lon="11.0572416735">
		<tag k="name" v="Drøpla" />
		<tag k="natural" v="water" />
		<tag k="ssr:stedsnr" v="509447" />
	</node>
	<node id="-33492" lat="59.8772333318" lon="11.0552083298">
		<tag k="historic" v="shieling" />
		<tag k="name" v="Jaersetervangen" />
		<tag k="place" v="locality" />
		<tag k="ssr:stedsnr" v="509346" />
	</node>
	<node id="-33491" lat="59.8526888931" lon="11.0467583419">
		<tag k="alt_name" v="Auretjern" />
		<tag k="name" v="Aurtjernet" />
		<tag k="natural" v="water" />
		<tag k="ssr:stedsnr" v="490232" />
	</node>
	<node id="-33490" lat="59.8847749971" lon="11.0346833381">
		<tag k="alt_name" v="Snelleåsen" />
		<tag k="fixme" v="consider natural=peak for the most distinct mountains in the district" />
		<tag k="name" v="Snellås" />
		<tag k="natural" v="hill" />
		<tag k="place" v="locality" />
		<tag k="ssr:stedsnr" v="490166" />
	</node>
	<node id="-33489" lat="59.9028833361" lon="11.0731638812">
		<tag k="fixme" v="consider natural=peak for the most distinct mountains in the district" />
		<tag k="name" v="Trestilåsen" />
		<tag k="natural" v="hill" />
		<tag k="place" v="locality" />
		<tag k="ssr:stedsnr" v="490074" />
	</node>
	<node id="-33488" lat="59.94675556" lon="11.0400999989">
		<tag k="name" v="Rud" />
		<tag k="place" v="farm" />
		<tag k="ssr:stedsnr" v="490051" />
	</node>
	<node id="-33487" lat="59.9300749965" lon="11.0302527862">
		<tag k="name" v="Sandbekken" />
		<tag k="place" v="isolated_dwelling" />
		<tag k="ssr:stedsnr" v="490003" />
	</node>
	<node id="-33486" lat="59.9302472257" lon="11.0631388968">
		<tag k="alt_name" v="Sundhagan" />
		<tag k="name" v="Hagan" />
		<tag k="old_name" v="Hagen" />
		<tag k="place" v="isolated_dwelling" />
		<tag k="ssr:stedsnr" v="490001" />
	</node>
	<node id="-33485" lat="59.8446166636" lon="11.0852222146">
		<tag k="alt_name" v="Bikkjetjern" />
		<tag k="name" v="Bikkjetjerna" />
		<tag k="natural" v="water" />
		<tag k="ssr:stedsnr" v="489221" />
	</node>
	<node id="-33484" lat="59.8655583322" lon="11.0941805475">
		<tag k="amenity" v="school" />
		<tag k="name" v="Nordby skole" />
		<tag k="ssr:stedsnr" v="449613" />
	</node>
	<node id="-33483" lat="59.9241111072" lon="11.0628194371">
		<tag k="amenity" v="school" />
		<tag k="name" v="Marikollen ungdomsskole" />
		<tag k="ssr:stedsnr" v="449565" />
	</node>
	<node id="-33482" lat="59.9002222263" lon="11.080083339">
		<tag k="fixme" v="consider natural=peak for the most distinct mountains in the district" />
		<tag k="name" v="Nautåsen" />
		<tag k="natural" v="hill" />
		<tag k="place" v="locality" />
		<tag k="ssr:stedsnr" v="448795" />
	</node>
	<node id="-33481" lat="59.9483472185" lon="11.0370499981">
		<tag k="name" v="Strømsborg" />
		<tag k="place" v="quarter" />
		<tag k="ssr:stedsnr" v="448738" />
	</node>
	<node id="-33480" lat="59.8874083327" lon="11.071280561">
		<tag k="fixme" v="consider natural=peak for the most distinct mountains in the district" />
		<tag k="name" v="Korpåsen" />
		<tag k="natural" v="hill" />
		<tag k="place" v="locality" />
		<tag k="ssr:stedsnr" v="448733" />
	</node>
	<node id="-33479" lat="59.8442250011" lon="11.0863888826">
		<tag k="name" v="Byseter" />
		<tag k="place" v="locality" />
		<tag k="ssr:stedsnr" v="448727" />
	</node>
	<node id="-33478" lat="59.8910722182" lon="11.0958611023">
		<tag k="name" v="Vestegarden" />
		<tag k="place" v="farm" />
		<tag k="ssr:stedsnr" v="448699" />
	</node>
	<node id="-33477" lat="59.8851694414" lon="11.0677333359">
		<tag k="historic" v="shieling" />
		<tag k="name" v="Trollsetra" />
		<tag k="place" v="locality" />
		<tag k="ssr:stedsnr" v="448690" />
	</node>
	<node id="-33476" lat="59.9381305542" lon="11.0409722174">
		<tag k="leisure" v="pitch" />
		<tag k="name" v="Stormyrbakken" />
		<tag k="ssr:stedsnr" v="448602" />
	</node>
	<node id="-33475" lat="59.9223972182" lon="11.0538027712">
		<tag k="alt_name" v="Marikollen" />
		<tag k="leisure" v="pitch" />
		<tag k="name" v="Marikollen skisenter" />
		<tag k="ssr:stedsnr" v="448601" />
	</node>
	<node id="-33474" lat="59.9378194426" lon="11.0522083327">
		<tag k="name" v="Øgardshøgda" />
		<tag k="place" v="quarter" />
		<tag k="ssr:stedsnr" v="448572" />
	</node>
	<node id="-33473" lat="59.8723222204" lon="11.0464083421">
		<tag k="fixme" v="consider natural=peak for the most distinct mountains in the district" />
		<tag k="name" v="Regnåsen" />
		<tag k="natural" v="hill" />
		<tag k="place" v="locality" />
		<tag k="ssr:stedsnr" v="448562" />
	</node>
	<node id="-33472" lat="59.8391888902" lon="11.0285333412">
		<tag k="name" v="Borkedammen" />
		<tag k="natural" v="wetland" />
		<tag k="ssr:stedsnr" v="448552" />
	</node>
	<node id="-33471" lat="59.8809972221" lon="11.0355083354">
		<tag k="name" v="Nedre Setertjern" />
		<tag k="natural" v="water" />
		<tag k="ssr:stedsnr" v="448537" />
	</node>
	<node id="-33470" lat="59.8454750016" lon="11.0277750015">
		<tag k="name" v="Bokhytta" />
		<tag k="place" v="isolated_dwelling" />
		<tag k="ssr:stedsnr" v="448427" />
	</node>
	<node id="-33469" lat="59.899566664" lon="11.1037527818">
		<tag k="fixme" v="consider natural=peak for the most distinct mountains in the district" />
		<tag k="name" v="Trollåsen" />
		<tag k="natural" v="hill" />
		<tag k="place" v="locality" />
		<tag k="ssr:stedsnr" v="448779" />
	</node>
	<node id="-33468" lat="59.9425361152" lon="11.0363666731">
		<tag k="fixme" v="consider natural=peak for the most distinct mountains in the district" />
		<tag k="name" v="Rælingsåsen N." />
		<tag k="natural" v="hill" />
		<tag k="place" v="locality" />
		<tag k="ssr:stedsnr" v="448767" />
	</node>
	<node id="-33467" lat="59.9099222205" lon="11.0926083385">
		<tag k="amenity" v="school" />
		<tag k="name" v="Holt skole" />
		<tag k="ssr:stedsnr" v="448763" />
	</node>
	<node id="-33466" lat="59.9428444434" lon="11.0484111124">
		<tag k="name" v="Herredshus" />
		<tag k="place" v="locality" />
		<tag k="ssr:stedsnr" v="448753" />
	</node>
	<node id="-33465" lat="59.8487249966" lon="11.0356777749">
		<tag k="name" v="Falkehøgda" />
		<tag k="natural" v="hill" />
		<tag k="place" v="locality" />
		<tag k="ssr:stedsnr" v="430233" />
	</node>
	<node id="-33464" lat="59.9055361132" lon="11.029105564">
		<tag k="alt_name" v="Blåtjern" />
		<tag k="name" v="Blåtjernet" />
		<tag k="natural" v="water" />
		<tag k="ssr:stedsnr" v="430062" />
	</node>
	<node id="-33463" lat="59.8512194402" lon="11.1105750063">
		<tag k="name" v="Narvestad" />
		<tag k="place" v="farm" />
		<tag k="ssr:stedsnr" v="429719" />
	</node>
	<node id="-33462" lat="59.8625305565" lon="11.1071111025">
		<tag k="name" v="Ullervika" />
		<tag k="natural" v="bay" />
		<tag k="ssr:stedsnr" v="429693" />
	</node>
	<node id="-33461" lat="59.8837166672" lon="11.1314361135">
		<tag k="name" v="Rælingsøya" />
		<tag k="natural" v="cape" />
		<tag k="ssr:stedsnr" v="429627" />
	</node>
	<node id="-33460" lat="59.8790694412" lon="11.0879694417">
		<tag k="name" v="Grinitajet" />
		<tag k="place" v="quarter" />
		<tag k="ssr:stedsnr" v="429167" />
	</node>
	<node id="-33459" lat="59.9190555555" lon="11.0509694448">
		<tag k="name" v="Marikollen" />
		<tag k="natural" v="hill" />
		<tag k="place" v="locality" />
		<tag k="ssr:stedsnr" v="429104" />
	</node>
	<node id="-33458" lat="59.9208333354" lon="11.0832222154">
		<tag k="alt_name" v="Rælingen" />
		<tag k="amenity" v="place_of_worship" />
		<tag k="denomination" v="lutheran" />
		<tag k="name" v="Rælingen kirke" />
		<tag k="religion" v="christian" />
		<tag k="ssr:stedsnr" v="429094" />
	</node>
	<node id="-33457" lat="59.8955027812" lon="11.0589222265">
		<tag k="fixme" v="consider natural=peak for the most distinct mountains in the district" />
		<tag k="name" v="Hektnerhøgåsen" />
		<tag k="natural" v="hill" />
		<tag k="place" v="locality" />
		<tag k="ssr:stedsnr" v="429072" />
	</node>
	<node id="-33456" lat="59.9375583331" lon="11.0273666701">
		<tag k="name" v="Løvenstad" />
		<tag k="place" v="quarter" />
		<tag k="ssr:stedsnr" v="429051" />
	</node>
	<node id="-33455" lat="59.9307055527" lon="11.0785777799">
		<tag k="name" v="Ensrud" />
		<tag k="place" v="isolated_dwelling" />
		<tag k="ssr:stedsnr" v="429007" />
	</node>
	<node id="-33454" lat="59.9521277747" lon="11.0372500021">
		<tag k="bridge" v="yes" />
		<tag k="layer" v="1" />
		<tag k="name" v="Lillestrøm bru" />
		<tag k="ssr:stedsnr" v="266718" />
	</node>
	<node id="-33453" lat="59.8881694452" lon="11.0872916711">
		<tag k="name" v="Veslekleiva" />
		<tag k="natural" v="valley" />
		<tag k="place" v="locality" />
		<tag k="ssr:stedsnr" v="266687" />
	</node>
	<node id="-33452" lat="59.8467416662" lon="11.1024944391">
		<tag k="name" v="Bjørnmyra" />
		<tag k="natural" v="wetland" />
		<tag k="ssr:stedsnr" v="266669" />
	</node>
	<node id="-33451" lat="59.8402638873" lon="11.0970944355">
		<tag k="fixme" v="consider natural=peak for the most distinct mountains in the district" />
		<tag k="name" v="Elggrasåsen" />
		<tag k="natural" v="hill" />
		<tag k="place" v="locality" />
		<tag k="ssr:stedsnr" v="266667" />
	</node>
	<node id="-33450" lat="59.9221222203" lon="11.0325972233">
		<tag k="historic" v="shieling" />
		<tag k="name" v="Åmotsetra" />
		<tag k="place" v="locality" />
		<tag k="ssr:stedsnr" v="266550" />
	</node>
	<node id="-33449" lat="59.9332527792" lon="11.0321111033">
		<tag k="amenity" v="sports_centre" />
		<tag k="name" v="Sandbekkhallen" />
		<tag k="ssr:stedsnr" v="266546" />
	</node>
	<node id="-33448" lat="59.8770222187" lon="11.030972229">
		<tag k="historic" v="shieling" />
		<tag k="name" v="Tvetersetra" />
		<tag k="place" v="locality" />
		<tag k="ssr:stedsnr" v="266507" />
	</node>
	<node id="-33447" lat="59.9037749986" lon="11.0607833276">
		<tag k="name" v="Langmyra" />
		<tag k="natural" v="wetland" />
		<tag k="ssr:stedsnr" v="266501" />
	</node>
	<node id="-33446" lat="59.8647361093" lon="11.0537055493">
		<tag k="name" v="Søndre Mørkåstjern" />
		<tag k="natural" v="water" />
		<tag k="ssr:stedsnr" v="266498" />
	</node>
	<node id="-33445" lat="59.8542583368" lon="11.0177749914">
		<tag k="alt_name" v="Biritjern" />
		<tag k="name" v="Biritjernet" />
		<tag k="natural" v="water" />
		<tag k="ssr:stedsnr" v="247214" />
	</node>
	<node id="-33444" lat="59.865486113" lon="11.0647472247">
		<tag k="alt_name" v="Tjuvestuåsen" />
		<tag k="fixme" v="consider natural=peak for the most distinct mountains in the district" />
		<tag k="name" v="Tjuvstuåsen" />
		<tag k="natural" v="hill" />
		<tag k="place" v="locality" />
		<tag k="ssr:stedsnr" v="247150" />
	</node>
	<node id="-33443" lat="59.8675222201" lon="11.0425333408">
		<tag k="alt_name" v="Bjørtjerna, øvre" />
		<tag k="name" v="Søndre Bjørtjern" />
		<tag k="natural" v="water" />
		<tag k="ssr:stedsnr" v="247138" />
	</node>
	<node id="-33442" lat="59.86308611" lon="11.0498694522">
		<tag k="alt_name" v="Langvann" />
		<tag k="name" v="Langvannet" />
		<tag k="natural" v="water" />
		<tag k="old_name" v="Langvatn" />
		<tag k="ssr:stedsnr" v="247136" />
	</node>
	<node id="-33441" lat="59.8773222265" lon="11.089725002">
		<tag k="name" v="Grini" />
		<tag k="place" v="farm" />
		<tag k="ssr:stedsnr" v="247120" />
	</node>
	<node id="-33440" lat="59.8710305513" lon="11.0890166632">
		<tag k="alt_name" v="Hestløkka" />
		<tag k="name" v="Hesteløkka" />
		<tag k="place" v="isolated_dwelling" />
		<tag k="ssr:stedsnr" v="247118" />
	</node>
	<node id="-33439" lat="59.9236916676" lon="11.0663500059">
		<tag k="bridge" v="yes" />
		<tag k="layer" v="1" />
		<tag k="name" v="Fjerdingby" />
		<tag k="ssr:stedsnr" v="228036" />
	</node>
	<node id="-33438" lat="59.9458888867" lon="11.0384833262">
		<tag k="bridge" v="yes" />
		<tag k="layer" v="1" />
		<tag k="name" v="Stormyrvegen" />
		<tag k="ssr:stedsnr" v="228033" />
	</node>
	<node id="-33437" lat="59.870091669" lon="11.0962666663">
		<tag k="name" v="Dølahaugen" />
		<tag k="place" v="hamlet" />
		<tag k="ssr:stedsnr" v="206590" />
	</node>
	<node id="-33436" lat="59.8549277805" lon="11.0667611033">
		<tag k="name" v="Sauemyra" />
		<tag k="natural" v="wetland" />
		<tag k="ssr:stedsnr" v="206583" />
	</node>
	<node id="-33435" lat="59.9237583324" lon="11.0848500045">
		<tag k="name" v="Enga" />
		<tag k="place" v="isolated_dwelling" />
		<tag k="ssr:stedsnr" v="206548" />
	</node>
	<node id="-33434" lat="59.8791333362" lon="11.0652611178">
		<tag k="bridge" v="yes" />
		<tag k="layer" v="1" />
		<tag k="name" v="Annekloppa" />
		<tag k="ssr:stedsnr" v="206635" />
	</node>
	<node id="-33433" lat="59.9467749961" lon="11.0354833308">
		<tag k="alt_name" v="Øvre Rælingen" />
		<tag k="amenity" v="place_of_worship" />
		<tag k="denomination" v="lutheran" />
		<tag k="name" v="Øvre Rælingen kirke" />
		<tag k="religion" v="christian" />
		<tag k="ssr:stedsnr" v="205736" />
	</node>
	<node id="-33432" lat="59.8845194436" lon="11.0722777793">
		<tag k="fixme" v="consider natural=peak for the most distinct mountains in the district" />
		<tag k="name" v="Kulfjellåsen" />
		<tag k="natural" v="hill" />
		<tag k="place" v="locality" />
		<tag k="ssr:stedsnr" v="205730" />
	</node>
	<node id="-33431" lat="59.8532944467" lon="11.1023666749">
		<tag k="name" v="Smedbakken" />
		<tag k="place" v="locality" />
		<tag k="ssr:stedsnr" v="205726" />
	</node>
	<node id="-33430" lat="59.8753888917" lon="11.1018833272">
		<tag k="name" v="Søstua Nes" />
		<tag k="place" v="farm" />
		<tag k="ssr:stedsnr" v="205699" />
	</node>
	<node id="-33429" lat="59.9260817816" lon="11.0585125829">
		<tag k="amenity" v="place_of_worship" />
		<tag k="fixme" v="specify religion=*, denomination=*, building=* etc" />
		<tag k="name" v="Fjellet bedehus" />
		<tag k="ssr:stedsnr" v="205601" />
	</node>
	<node id="-33428" lat="59.8791111146" lon="11.0326500043">
		<tag k="name" v="Badstudalen" />
		<tag k="natural" v="valley" />
		<tag k="place" v="locality" />
		<tag k="ssr:stedsnr" v="205595" />
	</node>
	<node id="-33427" lat="59.8493527784" lon="11.0560416607">
		<tag k="name" v="Neslangmyra" />
		<tag k="natural" v="wetland" />
		<tag k="ssr:stedsnr" v="205568" />
	</node>
	<node id="-33426" lat="59.8580777739" lon="11.0525972172">
		<tag k="name" v="Nordre Nessetertjern" />
		<tag k="natural" v="water" />
		<tag k="ssr:stedsnr" v="205559" />
	</node>
	<node id="-33425" lat="59.8839722244" lon="11.0969249914">
		<tag k="name" v="Jar" />
		<tag k="place" v="farm" />
		<tag k="ssr:stedsnr" v="187628" />
	</node>
	<node id="-33424" lat="59.8802388932" lon="11.1096083356">
		<tag k="alt_name" v="Mognavika" />
		<tag k="name" v="Mognevika" />
		<tag k="natural" v="bay" />
		<tag k="ssr:stedsnr" v="187625" />
	</node>
	<node id="-33423" lat="59.8710944479" lon="11.0397499979">
		<tag k="alt_name" v="Bjørtjerna, nedre" />
		<tag k="name" v="Nordre Bjørtjern" />
		<tag k="natural" v="water" />
		<tag k="ssr:stedsnr" v="187148" />
	</node>
	<node id="-33422" lat="59.8648611124" lon="11.1051138936">
		<tag k="name" v="Berget" />
		<tag k="place" v="isolated_dwelling" />
		<tag k="ssr:stedsnr" v="186726" />
	</node>
	<node id="-33421" lat="59.9022027813" lon="11.1011305548">
		<tag k="name" v="Støtterud" />
		<tag k="place" v="farm" />
		<tag k="ssr:stedsnr" v="186677" />
	</node>
	<node id="-33420" lat="59.9170222266" lon="11.0574999979">
		<tag k="alt_name" v="Fjerdingbydammen" />
		<tag k="name" v="Fjerdingbyputten" />
		<tag k="natural" v="water" />
		<tag k="ssr:stedsnr" v="186107" />
		<tag k="water" v="pond" />
	</node>
	<node id="-33419" lat="59.8920833311" lon="11.0835027724">
		<tag k="fixme" v="consider natural=peak for the most distinct mountains in the district" />
		<tag k="name" v="Sisselrudåsen" />
		<tag k="natural" v="hill" />
		<tag k="place" v="locality" />
		<tag k="ssr:stedsnr" v="186075" />
	</node>
	<node id="-33418" lat="59.9285833302" lon="11.0699611157">
		<tag k="bridge" v="yes" />
		<tag k="layer" v="1" />
		<tag k="name" v="Sundhagen" />
		<tag k="ssr:stedsnr" v="167029" />
	</node>
	<node id="-33417" lat="59.9220638885" lon="11.0712583348">
		<tag k="name" v="Fjerdingby" />
		<tag k="place" v="quarter" />
		<tag k="ssr:stedsnr" v="146589" />
	</node>
	<node id="-33416" lat="59.8710694484" lon="11.0645027759">
		<tag k="fixme" v="consider natural=peak for the most distinct mountains in the district" />
		<tag k="name" v="Seteråsen" />
		<tag k="natural" v="hill" />
		<tag k="place" v="locality" />
		<tag k="ssr:stedsnr" v="145664" />
	</node>
	<node id="-33415" lat="59.8731944474" lon="11.0736111139">
		<tag k="fixme" v="consider natural=peak for the most distinct mountains in the district" />
		<tag k="name" v="Gryteåsen" />
		<tag k="natural" v="hill" />
		<tag k="place" v="locality" />
		<tag k="ssr:stedsnr" v="145661" />
	</node>
	<node id="-33414" lat="59.8598916667" lon="11.0747111051">
		<tag k="name" v="Sjødalen" />
		<tag k="natural" v="valley" />
		<tag k="place" v="locality" />
		<tag k="ssr:stedsnr" v="145657" />
	</node>
	<node id="-33413" lat="59.8694166686" lon="11.0981583313">
		<tag k="name" v="Lindemark" />
		<tag k="place" v="isolated_dwelling" />
		<tag k="ssr:stedsnr" v="145619" />
	</node>
	<node id="-33412" lat="59.8709055526" lon="11.0918500016">
		<tag k="name" v="Opphaugen" />
		<tag k="place" v="farm" />
		<tag k="ssr:stedsnr" v="145614" />
	</node>
	<node id="-33411" lat="59.8609944479" lon="11.0933555543">
		<tag k="name" v="Fjellstad" />
		<tag k="place" v="hamlet" />
		<tag k="ssr:stedsnr" v="145609" />
	</node>
	<node id="-33410" lat="59.8562944457" lon="11.0830888977">
		<tag k="name" v="Fellemyra" />
		<tag k="natural" v="wetland" />
		<tag k="ssr:stedsnr" v="145606" />
	</node>
	<node id="-33409" lat="59.9058388867" lon="11.1037444517">
		<tag k="name" v="Støa" />
		<tag k="place" v="farm" />
		<tag k="ssr:stedsnr" v="144748" />
	</node>
	<node id="-33408" lat="59.8528944426" lon="11.1078361112">
		<tag k="name" v="Byåa" />
		<tag k="ssr:stedsnr" v="144706" />
		<tag k="waterway" v="stream" />
	</node>
	<node id="-33407" lat="59.8402805568" lon="11.0814777762">
		<tag k="fixme" v="consider natural=peak for the most distinct mountains in the district" />
		<tag k="name" v="Brasmetjernåsen" />
		<tag k="natural" v="hill" />
		<tag k="place" v="locality" />
		<tag k="ssr:stedsnr" v="144705" />
	</node>
	<node id="-33406" lat="59.8784583331" lon="11.1096333349">
		<tag k="name" v="Fetta" />
		<tag k="place" v="isolated_dwelling" />
		<tag k="ssr:stedsnr" v="144686" />
	</node>
	<node id="-33405" lat="59.8789388856" lon="11.0920111159">
		<tag k="alt_name" v="Grini Nordgarden" />
		<tag k="name" v="Nordgarden Grini" />
		<tag k="place" v="farm" />
		<tag k="ssr:stedsnr" v="144681" />
	</node>
	<node id="-33404" lat="59.8831416648" lon="11.0955805605">
		<tag k="name" v="Søstua Jaer" />
		<tag k="place" v="farm" />
		<tag k="ssr:stedsnr" v="144674" />
	</node>
	<node id="-33403" lat="59.8869388906" lon="11.1029666592">
		<tag k="alt_name" v="Tveiter Nordgarden" />
		<tag k="name" v="Nordgarden Tveiter" />
		<tag k="place" v="farm" />
		<tag k="ssr:stedsnr" v="144671" />
	</node>
	<node id="-33402" lat="59.8847250037" lon="11.0843472171">
		<tag k="name" v="Hansemyra" />
		<tag k="natural" v="wetland" />
		<tag k="ssr:stedsnr" v="144662" />
	</node>
	<node id="-33401" lat="59.9067583311" lon="11.0487555611">
		<tag k="name" v="Purkeryggen" />
		<tag k="natural" v="ridge" />
		<tag k="place" v="locality" />
		<tag k="ssr:stedsnr" v="144578" />
	</node>
	<node id="-33400" lat="59.9011750018" lon="11.0336694515">
		<tag k="alt_name" v="Barlinderåsen" />
		<tag k="fixme" v="consider natural=peak for the most distinct mountains in the district" />
		<tag k="name" v="Barlindåsen" />
		<tag k="natural" v="hill" />
		<tag k="place" v="locality" />
		<tag k="ssr:stedsnr" v="144570" />
	</node>
	<node id="-33399" lat="59.839697221" lon="11.0356944365">
		<tag k="name" v="Nordre Høgkolltjern" />
		<tag k="natural" v="water" />
		<tag k="ssr:stedsnr" v="144567" />
	</node>
	<node id="-33398" lat="59.8942583366" lon="11.0257027823">
		<tag k="fixme" v="consider natural=peak for the most distinct mountains in the district" />
		<tag k="name" v="Skolemesteråsen" />
		<tag k="natural" v="hill" />
		<tag k="place" v="locality" />
		<tag k="ssr:stedsnr" v="144557" />
	</node>
	<node id="-33397" lat="59.8684527769" lon="11.0504166669">
		<tag k="name" v="Mørkåshøgda" />
		<tag k="natural" v="hill" />
		<tag k="place" v="locality" />
		<tag k="ssr:stedsnr" v="144556" />
	</node>
	<node id="-33396" lat="59.8339833333" lon="11.1055749927">
		<tag k="name" v="Gjeddevann" />
		<tag k="natural" v="water" />
		<tag k="ssr:stedsnr" v="126712" />
	</node>
	<node id="-33395" lat="59.8704194431" lon="11.1454111194">
		<tag k="fixme" v="multiple name tags, choose one and add the other to alt_name" />
		<tag k="name" v="Møkkøya;Rundsand" />
		<tag k="place" v="islet" />
		<tag k="ssr:stedsnr" v="126670" />
	</node>
	<node id="-33394" lat="59.8847694438" lon="11.1049611136">
		<tag k="name" v="Tveiter" />
		<tag k="place" v="farm" />
		<tag k="ssr:stedsnr" v="126648" />
	</node>
	<node id="-33393" lat="59.9163027795" lon="11.0868500089">
		<tag k="name" v="Haugen" />
		<tag k="place" v="farm" />
		<tag k="ssr:stedsnr" v="126101" />
	</node>
	<node id="-33392" lat="59.9360445496" lon="11.0654680276">
		<tag k="fixme" v="consider place=hamlet" />
		<tag k="name" v="Åmot" />
		<tag k="place" v="farm" />
		<tag k="ssr:stedsnr" v="126060" />
	</node>
	<node id="-33391" lat="59.8928499981" lon="11.1353444425">
		<tag k="name" v="Storråka" />
		<tag k="natural" v="strait" />
		<tag k="ssr:stedsnr" v="125663" />
	</node>
	<node id="-33390" lat="59.8925000017" lon="11.115480564">
		<tag k="name" v="Årnes" />
		<tag k="place" v="farm" />
		<tag k="ssr:stedsnr" v="125659" />
	</node>
	<node id="-33389" lat="59.8997527763" lon="11.0931111051">
		<tag k="name" v="Slette" />
		<tag k="old_name" v="Stette" />
		<tag k="place" v="isolated_dwelling" />
		<tag k="ssr:stedsnr" v="125656" />
	</node>
	<node id="-33388" lat="59.8890666682" lon="11.0450166664">
		<tag k="alt_name" v="Skurvåstjernet" />
		<tag k="name" v="Søndre Skurvåstjern" />
		<tag k="natural" v="water" />
		<tag k="ssr:stedsnr" v="125092" />
	</node>
	<node id="-33387" lat="59.9270833352" lon="11.0770249921">
		<tag k="name" v="Lund" />
		<tag k="place" v="farm" />
		<tag k="ssr:stedsnr" v="125005" />
	</node>
	<node id="-33386" lat="59.8856472249" lon="11.0788638883">
		<tag k="alt_name" v="Lintjernet" />
		<tag k="name" v="Lintjenn" />
		<tag k="natural" v="water" />
		<tag k="ssr:stedsnr" v="102210" />
	</node>
	<node id="-33385" lat="59.8604666628" lon="11.1044333346">
		<tag k="name" v="Ner Uller" />
		<tag k="place" v="farm" />
		<tag k="ssr:stedsnr" v="85545" />
	</node>
	<node id="-33384" lat="59.8642194415" lon="11.1029333316">
		<tag k="name" v="Flaen" />
		<tag k="place" v="hamlet" />
		<tag k="ssr:stedsnr" v="85539" />
	</node>
	<node id="-33383" lat="59.857399996" lon="11.06555556">
		<tag k="name" v="Gamlesetermyra" />
		<tag k="natural" v="wetland" />
		<tag k="ssr:stedsnr" v="85533" />
	</node>
	<node id="-33382" lat="59.9319138875" lon="11.0793611033">
		<tag k="name" v="Sundet" />
		<tag k="natural" v="strait" />
		<tag k="ssr:stedsnr" v="85503" />
	</node>
	<node id="-33381" lat="59.9362444406" lon="11.0708527713">
		<tag k="name" v="Tangen" />
		<tag k="place" v="hamlet" />
		<tag k="ssr:stedsnr" v="85501" />
	</node>
	<node id="-33380" lat="59.9198527766" lon="11.0818555587">
		<tag k="name" v="Søgarden" />
		<tag k="place" v="farm" />
		<tag k="ssr:stedsnr" v="85492" />
	</node>
	<node id="-33379" lat="59.9237138895" lon="11.0689444522">
		<tag k="amenity" v="school" />
		<tag k="name" v="Fjerdingby skole" />
		<tag k="ssr:stedsnr" v="85491" />
	</node>
	<node id="-33378" lat="59.8918916638" lon="11.0983666753">
		<tag k="name" v="Søndre Hektner" />
		<tag k="place" v="farm" />
		<tag k="ssr:stedsnr" v="84682" />
	</node>
	<node id="-33377" lat="59.8782083315" lon="11.0897277803">
		<tag k="name" v="Øvergarden" />
		<tag k="place" v="farm" />
		<tag k="ssr:stedsnr" v="84678" />
	</node>
	<node id="-33376" lat="59.9171138891" lon="11.0634527745">
		<tag k="name" v="Fjerdingbyhøgda" />
		<tag k="natural" v="hill" />
		<tag k="place" v="locality" />
		<tag k="ssr:stedsnr" v="84779" />
	</node>
	<node id="-33375" lat="59.9122027746" lon="11.0919194415">
		<tag k="name" v="Øvre Holt" />
		<tag k="place" v="farm" />
		<tag k="ssr:stedsnr" v="84763" />
	</node>
	<node id="-33374" lat="59.9151083359" lon="11.0821583306">
		<tag k="name" v="Nybakk" />
		<tag k="place" v="farm" />
		<tag k="ssr:stedsnr" v="84760" />
	</node>
	<node id="-33373" lat="59.9145277744" lon="11.0932611035">
		<tag k="name" v="Nedre Holt" />
		<tag k="place" v="farm" />
		<tag k="ssr:stedsnr" v="84761" />
	</node>
	<node id="-33372" lat="59.9019027776" lon="11.094452769">
		<tag k="name" v="Norum" />
		<tag k="place" v="farm" />
		<tag k="ssr:stedsnr" v="84757" />
	</node>
	<node id="-33371" lat="59.9312527734" lon="11.0413222237">
		<tag k="amenity" v="school" />
		<tag k="name" v="Blystadlia skole" />
		<tag k="ssr:stedsnr" v="84572" />
	</node>
	<node id="-33370" lat="59.8553611078" lon="11.0472472234">
		<tag k="name" v="Auretjerndalen" />
		<tag k="natural" v="valley" />
		<tag k="place" v="locality" />
		<tag k="ssr:stedsnr" v="84571" />
	</node>
	<node id="-33369" lat="59.8834305578" lon="11.049791675">
		<tag k="fixme" v="consider natural=peak for the most distinct mountains in the district" />
		<tag k="name" v="Petteråsen" />
		<tag k="natural" v="hill" />
		<tag k="place" v="locality" />
		<tag k="ssr:stedsnr" v="84569" />
	</node>
	<node id="-33368" lat="59.8368750022" lon="11.0375194366">
		<tag k="name" v="Søndre Høgkolltjern" />
		<tag k="natural" v="water" />
		<tag k="ssr:stedsnr" v="84566" />
	</node>
	<node id="-33367" lat="59.8398055521" lon="11.0591555571">
		<tag k="fixme" v="consider natural=peak for the most distinct mountains in the district" />
		<tag k="name" v="Morttjernåsen" />
		<tag k="natural" v="hill" />
		<tag k="place" v="locality" />
		<tag k="ssr:stedsnr" v="84552" />
	</node>
	<node id="-33366" lat="59.8768638899" lon="11.1363611099">
		<tag k="name" v="Løkkadjupet" />
		<tag k="place" v="locality" />
		<tag k="ssr:stedsnr" v="84526" />
	</node>
	<node id="-33365" lat="59.8839444432" lon="11.0281055603">
		<tag k="name" v="Vestre Huktjern" />
		<tag k="natural" v="water" />
		<tag k="ssr:stedsnr" v="84523" />
	</node>
	<node id="-33364" lat="59.936602779" lon="11.016294448">
		<tag k="name" v="Kurlandsbekken" />
		<tag k="ssr:stedsnr" v="84554" />
		<tag k="waterway" v="stream" />
	</node>
	<node id="-33363" lat="59.8776472253" lon="11.0932916583">
		<tag k="alt_name" v="Grini Øststua" />
		<tag k="name" v="Grini" />
		<tag k="place" v="farm" />
		<tag k="ssr:stedsnr" v="66501" />
	</node>
	<node id="-33362" lat="59.9037166656" lon="11.0408333301">
		<tag k="fixme" v="consider natural=peak for the most distinct mountains in the district" />
		<tag k="name" v="Ramstadslottet" />
		<tag k="natural" v="hill" />
		<tag k="place" v="locality" />
		<tag k="ssr:stedsnr" v="66071" />
	</node>
	<node id="-33361" lat="59.899786109" lon="11.0683750034">
		<tag k="name" v="Trestilen" />
		<tag k="natural" v="water" />
		<tag k="ssr:stedsnr" v="66068" />
	</node>
	<node id="-33360" lat="59.848988888" lon="11.1220166609">
		<tag k="name" v="Bråten" />
		<tag k="place" v="farm" />
		<tag k="ssr:stedsnr" v="65739" />
	</node>
	<node id="-33359" lat="59.8440138851" lon="11.0989055619">
		<tag k="name" v="Slortjern" />
		<tag k="natural" v="water" />
		<tag k="ssr:stedsnr" v="65737" />
	</node>
	<node id="-33358" lat="59.8754694433" lon="11.1039638858">
		<tag k="name" v="Nes" />
		<tag k="place" v="farm" />
		<tag k="ssr:stedsnr" v="65683" />
	</node>
	<node id="-33357" lat="59.9018750024" lon="11.0919777801">
		<tag k="alt_name" v="Flateby" />
		<tag k="name" v="Flatby" />
		<tag k="place" v="farm" />
		<tag k="ssr:stedsnr" v="65632" />
	</node>
	<node id="-33356" lat="59.8807027791" lon="11.0502583292">
		<tag k="name" v="Fiskelausen" />
		<tag k="natural" v="water" />
		<tag k="old_name" v="Fiskeløysa" />
		<tag k="ssr:stedsnr" v="65186" />
	</node>
	<node id="-33355" lat="59.9124830648" lon="11.0911153518">
		<tag k="name" v="Holt" />
		<tag k="place" v="farm" />
		<tag k="ssr:stedsnr" v="65102" />
	</node>
	<node id="-33354" lat="59.8695111079" lon="11.066516669">
		<tag k="fixme" v="consider natural=peak for the most distinct mountains in the district" />
		<tag k="name" v="Velbråtaåsen" />
		<tag k="natural" v="hill" />
		<tag k="place" v="locality" />
		<tag k="ssr:stedsnr" v="24670" />
	</node>
	<node id="-33353" lat="59.8666277763" lon="11.0819749947">
		<tag k="name" v="Hurtigdråga" />
		<tag k="natural" v="valley" />
		<tag k="place" v="locality" />
		<tag k="ssr:stedsnr" v="24603" />
	</node>
	<node id="-33352" lat="59.9208861073" lon="11.0699805529">
		<tag k="name" v="Oladalen" />
		<tag k="natural" v="valley" />
		<tag k="place" v="locality" />
		<tag k="ssr:stedsnr" v="24586" />
	</node>
	<node id="-33351" lat="59.9246166651" lon="11.0853583294">
		<tag k="name" v="Engavika" />
		<tag k="natural" v="bay" />
		<tag k="ssr:stedsnr" v="24584" />
	</node>
	<node id="-33350" lat="59.9299055583" lon="11.0822805645">
		<tag k="name" v="Gressnebben" />
		<tag k="natural" v="cape" />
		<tag k="ssr:stedsnr" v="24582" />
	</node>
	<node id="-33349" lat="59.9224305522" lon="11.0778694409">
		<tag k="name" v="Nordgarden" />
		<tag k="place" v="farm" />
		<tag k="ssr:stedsnr" v="24579" />
	</node>
	<node id="-33348" lat="59.9481944459" lon="11.0422194466">
		<tag k="name" v="Haugen" />
		<tag k="natural" v="hill" />
		<tag k="place" v="locality" />
		<tag k="ssr:stedsnr" v="23769" />
	</node>
	<node id="-33347" lat="59.9091000014" lon="11.099016675">
		<tag k="name" v="Oleberg" />
		<tag k="place" v="isolated_dwelling" />
		<tag k="ssr:stedsnr" v="23765" />
	</node>
	<node id="-33346" lat="59.8359222257" lon="11.0907222218">
		<tag k="name" v="Hakkemåsan" />
		<tag k="natural" v="wetland" />
		<tag k="ssr:stedsnr" v="23712" />
	</node>
	<node id="-33345" lat="59.845863885" lon="11.067827785">
		<tag k="fixme" v="consider natural=peak for the most distinct mountains in the district" />
		<tag k="name" v="Svarttjernåsen" />
		<tag k="natural" v="hill" />
		<tag k="place" v="locality" />
		<tag k="ssr:stedsnr" v="23710" />
	</node>
	<node id="-33344" lat="59.8946694473" lon="11.1140666606">
		<tag k="name" v="Buret" />
		<tag k="place" v="hamlet" />
		<tag k="ssr:stedsnr" v="23680" />
	</node>
	<node id="-33343" lat="59.887544444" lon="11.0198166654">
		<tag k="name" v="Slåssmyrdalen" />
		<tag k="natural" v="valley" />
		<tag k="place" v="locality" />
		<tag k="ssr:stedsnr" v="23595" />
	</node>
	<node id="-33342" lat="59.9085527751" lon="11.0507222212">
		<tag k="loc_name" v="Røde Kors-hytta" />
		<tag k="name" v="Røde Kors hytta" />
		<tag k="place" v="isolated_dwelling" />
		<tag k="ssr:stedsnr" v="23458" />
	</node>
	<node id="-33341" lat="59.9192805529" lon="11.0930666619">
		<tag k="alt_name" v="Hammeren" />
		<tag k="name" v="Hammaren" />
		<tag k="natural" v="cape" />
		<tag k="ssr:stedsnr" v="5584" />
	</node>
	<node id="-33340" lat="59.8354416671" lon="11.0973138928">
		<tag k="fixme" v="consider natural=peak for the most distinct mountains in the district" />
		<tag k="name" v="Sæteråsen" />
		<tag k="natural" v="hill" />
		<tag k="place" v="locality" />
		<tag k="ssr:stedsnr" v="5511" />
	</node>
	<node id="-33339" lat="59.8493972229" lon="11.0731750032">
		<tag k="name" v="Nordbysjøen" />
		<tag k="natural" v="water" />
		<tag k="ssr:stedsnr" v="5250" />
		<tag k="water" v="lake" />
	</node>
	<node id="-33338" lat="59.9331999975" lon="11.0419277843">
		<tag k="alt_name" v="Rælingsåsen" />
		<tag k="fixme" v="consider natural=peak for the most distinct mountains in the district" />
		<tag k="name" v="Rælingåsen" />
		<tag k="natural" v="hill" />
		<tag k="place" v="locality" />
		<tag k="ssr:stedsnr" v="4001" />
	</node>
	<node id="-33337" lat="59.857974997" lon="11.1043166719">
		<tag k="name" v="Sør Uller" />
		<tag k="place" v="farm" />
		<tag k="ssr:stedsnr" v="267599" />
	</node>
	<node id="-33336" lat="59.874008332" lon="11.1099666586">
		<tag k="name" v="Grøtnesnabben" />
		<tag k="natural" v="cape" />
		<tag k="ssr:stedsnr" v="267583" />
	</node>
	<node id="-33335" lat="59.8679527812" lon="11.0839333371">
		<tag k="name" v="Sjudråga" />
		<tag k="natural" v="valley" />
		<tag k="place" v="locality" />
		<tag k="ssr:stedsnr" v="267577" />
	</node>
	<node id="-33334" lat="59.9356799125" lon="11.0634233439">
		<tag k="name" v="Øvre Åmot" />
		<tag k="place" v="farm" />
		<tag k="ssr:stedsnr" v="267537" />
	</node>
	<node id="-33333" lat="59.933011107" lon="11.0748777817">
		<tag k="name" v="Bålsrud" />
		<tag k="place" v="farm" />
		<tag k="ssr:stedsnr" v="267533" />
	</node>
	<node id="-33331" lat="59.8509055513" lon="10.9748500049">
		<tag k="name" v="Østmarka" />
		<tag k="natural" v="wood" />
		<tag k="ssr:stedsnr" v="490224" />
	</node>
	<node id="-33330" lat="59.862086111" lon="11.0945138945">
		<tag k="bridge" v="yes" />
		<tag k="layer" v="1" />
		<tag k="name" v="Fjellstad" />
		<tag k="ssr:stedsnr" v="896024" />
	</node>
	<node id="-33329" lat="59.9468916689" lon="11.0470555536">
		<tag k="bridge" v="yes" />
		<tag k="layer" v="1" />
		<tag k="name" v="Rudveien" />
		<tag k="ssr:stedsnr" v="410025" />
	</node>
	<node id="-33328" lat="59.8845222196" lon="11.0955277794">
		<tag k="highway" v="path" />
		<tag k="name" v="Kongevegen" />
		<tag k="ssr:stedsnr" v="388639" />
	</node>
	<node id="-33327" lat="59.868591668" lon="11.095700009">
		<tag k="name" v="Kikut" />
		<tag k="place" v="isolated_dwelling" />
		<tag k="ssr:stedsnr" v="388603" />
	</node>
	<node id="-33326" lat="59.8706749986" lon="11.0960611143">
		<tag k="name" v="Svingen" />
		<tag k="place" v="farm" />
		<tag k="ssr:stedsnr" v="388596" />
	</node>
	<node id="-33325" lat="59.9063277809" lon="11.0701333248">
		<tag k="fixme" v="consider natural=peak for the most distinct mountains in the district" />
		<tag k="name" v="Høgåsen" />
		<tag k="natural" v="hill" />
		<tag k="place" v="locality" />
		<tag k="ssr:stedsnr" v="387760" />
	</node>
	<node id="-33324" lat="59.9119916648" lon="11.0859638878">
		<tag k="fixme" v="consider natural=peak for the most distinct mountains in the district" />
		<tag k="name" v="Hagaåsen" />
		<tag k="natural" v="hill" />
		<tag k="place" v="locality" />
		<tag k="ssr:stedsnr" v="387744" />
	</node>
	<node id="-33323" lat="59.9148805528" lon="11.0819166643">
		<tag k="name" v="Haug" />
		<tag k="place" v="hamlet" />
		<tag k="ssr:stedsnr" v="387735" />
	</node>
	<node id="-33322" lat="59.9032527814" lon="11.0917944445">
		<tag k="name" v="Fjell" />
		<tag k="place" v="hamlet" />
		<tag k="ssr:stedsnr" v="387733" />
	</node>
	<node id="-33321" lat="59.9481722254" lon="11.0469055498">
		<tag k="name" v="Sørlivika" />
		<tag k="natural" v="bay" />
		<tag k="ssr:stedsnr" v="387697" />
	</node>
	<node id="-33320" lat="59.9454472239" lon="11.0426861095">
		<tag k="amenity" v="school" />
		<tag k="name" v="Rud skole" />
		<tag k="ssr:stedsnr" v="387696" />
	</node>
	<node id="-33319" lat="59.8884000007" lon="11.0995638864">
		<tag k="junction" v="yes" />
		<tag k="name" v="Tveitertørje" />
		<tag k="place" v="locality" />
		<tag k="ssr:stedsnr" v="387650" />
	</node>
	<node id="-33318" lat="59.8762916671" lon="11.0882638814">
		<tag k="name" v="Gjellebekken" />
		<tag k="ssr:stedsnr" v="387647" />
		<tag k="waterway" v="stream" />
	</node>
	<node id="-33317" lat="59.8931888891" lon="11.0735472233">
		<tag k="name" v="Tyrihuken" />
		<tag k="place" v="locality" />
		<tag k="ssr:stedsnr" v="387646" />
	</node>
	<node id="-33316" lat="59.8825527774" lon="11.0820083401">
		<tag k="name" v="Store Breimåsan" />
		<tag k="natural" v="wetland" />
		<tag k="ssr:stedsnr" v="387644" />
	</node>
	<node id="-33315" lat="59.9258472248" lon="11.0467166648">
		<tag k="fixme" v="consider natural=peak for the most distinct mountains in the district" />
		<tag k="name" v="Brentås" />
		<tag k="natural" v="hill" />
		<tag k="place" v="locality" />
		<tag k="ssr:stedsnr" v="387585" />
	</node>
	<node id="-33314" lat="59.870138893" lon="11.0530805637">
		<tag k="fixme" v="consider natural=peak for the most distinct mountains in the district" />
		<tag k="name" v="Baråsen" />
		<tag k="natural" v="hill" />
		<tag k="place" v="locality" />
		<tag k="ssr:stedsnr" v="387564" />
	</node>
	<node id="-33313" lat="59.8796749993" lon="11.0519444436">
		<tag k="name" v="Fiskelausmåsan" />
		<tag k="natural" v="wetland" />
		<tag k="ssr:stedsnr" v="387555" />
	</node>
	<node id="-33312" lat="59.9039833304" lon="11.0417611166">
		<tag k="name" v="Slottsmåsan" />
		<tag k="natural" v="wetland" />
		<tag k="ssr:stedsnr" v="387540" />
	</node>
	<node id="-33311" lat="59.8843249987" lon="11.0307999966">
		<tag k="name" v="Østre Huktjern" />
		<tag k="natural" v="water" />
		<tag k="ssr:stedsnr" v="387538" />
	</node>
	<node id="-33310" lat="59.9066499967" lon="11.0968000065">
		<tag k="alt_name" v="Smedstad" />
		<tag k="name" v="Smestad" />
		<tag k="place" v="farm" />
		<tag k="ssr:stedsnr" v="369561" />
	</node>
	<node id="-33309" lat="59.8668369441" lon="11.0553999581">
		<tag k="name" v="Mørkåstjerna" />
		<tag k="natural" v="water" />
		<tag k="ssr:stedsnr" v="369137" />
	</node>
	<node id="-33308" lat="59.8854472197" lon="11.0993222147">
		<tag k="alt_name" v="Mogna" />
		<tag k="name" v="Ramstadbekken" />
		<tag k="ssr:stedsnr" v="368702" />
		<tag k="waterway" v="stream" />
	</node>
	<node id="-33307" lat="59.8328972227" lon="11.0389138864">
		<tag k="alt_name" v="Søndre Krokvann" />
		<tag k="name" v="Søndre Krokvannet" />
		<tag k="natural" v="water" />
		<tag k="ssr:stedsnr" v="368328" />
	</node>
	<node id="-33306" lat="59.8393361115" lon="11.0302749985">
		<tag k="alt_name" v="Midtre Krokvann" />
		<tag k="name" v="Midtre Krokvannet" />
		<tag k="natural" v="water" />
		<tag k="old_name" v="Krokvatnet, m" />
		<tag k="ssr:stedsnr" v="368221" />
	</node>
	<node id="-33305" lat="59.8727361134" lon="11.0241749934">
		<tag k="name" v="Jonsokhøgda" />
		<tag k="natural" v="hill" />
		<tag k="place" v="locality" />
		<tag k="ssr:stedsnr" v="368207" />
	</node>
	<node id="-33304" lat="59.9224921418" lon="11.0725216955">
		<tag k="name" v="Hauger" />
		<tag k="place" v="farm" />
		<tag k="ssr:stedsnr" v="368123" />
	</node>
	<node id="-33303" lat="59.9082916642" lon="11.0765138951">
		<tag k="name" v="Brenndammen" />
		<tag k="natural" v="wetland" />
		<tag k="ssr:stedsnr" v="327719" />
	</node>
	<node id="-33302" lat="59.9059472206" lon="11.0918194523">
		<tag k="name" v="Myrvoll" />
		<tag k="place" v="hamlet" />
		<tag k="ssr:stedsnr" v="327711" />
	</node>
	<node id="-33301" lat="59.9465694437" lon="11.0525888811">
		<tag k="name" v="Torva" />
		<tag k="natural" v="cape" />
		<tag k="ssr:stedsnr" v="327675" />
	</node>
	<node id="-33300" lat="59.8516000032" lon="11.1018222196">
		<tag k="name" v="Bjørnmyrdalen" />
		<tag k="natural" v="valley" />
		<tag k="place" v="locality" />
		<tag k="ssr:stedsnr" v="327660" />
	</node>
	<node id="-33299" lat="59.8642277768" lon="11.1043777732">
		<tag k="name" v="Fiskebygda" />
		<tag k="place" v="hamlet" />
		<tag k="ssr:stedsnr" v="327590" />
	</node>
	<node id="-33298" lat="59.8555166648" lon="11.0906361128">
		<tag k="name" v="Stumyra" />
		<tag k="natural" v="wetland" />
		<tag k="ssr:stedsnr" v="327589" />
	</node>
	<node id="-33297" lat="59.9143083374" lon="11.0333555577">
		<tag k="fixme" v="consider natural=peak for the most distinct mountains in the district" />
		<tag k="name" v="Maråsen" />
		<tag k="natural" v="hill" />
		<tag k="place" v="locality" />
		<tag k="ssr:stedsnr" v="327523" />
	</node>
	<node id="-33296" lat="59.8705388908" lon="11.0297694392">
		<tag k="fixme" v="consider natural=peak for the most distinct mountains in the district" />
		<tag k="name" v="Ottedageråsen" />
		<tag k="natural" v="hill" />
		<tag k="place" v="locality" />
		<tag k="ssr:stedsnr" v="327490" />
	</node>
	<node id="-33295" lat="59.8908611121" lon="11.0479388957">
		<tag k="name" v="Skurvåsmåsan" />
		<tag k="natural" v="wetland" />
		<tag k="ssr:stedsnr" v="327489" />
	</node>
	<node id="-33294" lat="59.8833611115" lon="11.0190944428">
		<tag k="name" v="Slåssmyra" />
		<tag k="natural" v="wetland" />
		<tag k="ssr:stedsnr" v="327486" />
	</node>
	<node id="-33293" lat="59.8588916708" lon="11.0376944494">
		<tag k="name" v="Bjørntjernmåsan" />
		<tag k="natural" v="wetland" />
		<tag k="ssr:stedsnr" v="327483" />
	</node>
	<node id="-33292" lat="59.8736305527" lon="11.0590444451">
		<tag k="name" v="Nordre Merratjern" />
		<tag k="natural" v="water" />
		<tag k="ssr:stedsnr" v="327465" />
	</node>
	<node id="-33291" lat="59.8939583297" lon="11.120024991">
		<tag k="name" v="Årnestangen" />
		<tag k="natural" v="cape" />
		<tag k="ssr:stedsnr" v="308634" />
	</node>
	<node id="-33290" lat="59.8841499974" lon="11.0284499966">
		<tag k="name" v="Huketjerna" />
		<tag k="natural" v="water" />
		<tag k="ssr:stedsnr" v="308148" />
	</node>
	<node id="-33289" lat="59.9208555572" lon="11.0409611109">
		<tag k="alt_name" v="Knollsmåsan" />
		<tag k="name" v="Knølsmåsan" />
		<tag k="natural" v="wetland" />
		<tag k="old_name" v="Knølsmosan" />
		<tag k="ssr:stedsnr" v="308090" />
	</node>
	<node id="-33288" lat="59.9255444448" lon="11.0609888876">
		<tag k="bridge" v="yes" />
		<tag k="layer" v="1" />
		<tag k="name" v="Marikollen" />
		<tag k="ssr:stedsnr" v="289024" />
	</node>
</osm>
