<?xml version="1.0" encoding="UTF-8"?>
<osm generator="osmapis" version="0.6">
	<node id="-33661" lat="59.8821083301" lon="11.0706888942">
		<tag k="name" v="Fellemyra" />
		<tag k="natural" v="wetland" />
		<tag k="ssr:stedsnr" v="873610" />
	</node>
	<node id="-33660" lat="59.8918388924" lon="11.1266555602">
		<tag k="name" v="Storfloa" />
		<tag k="place" v="locality" />
		<tag k="ssr:stedsnr" v="873497" />
	</node>
	<node id="-33659" lat="59.8700000022" lon="11.0463472151">
		<tag k="name" v="Holoa" />
		<tag k="place" v="locality" />
		<tag k="ssr:stedsnr" v="873495" />
	</node>
	<node id="-33530" lat="59.854644441" lon="11.0504416605">
		<tag k="historic" v="shieling" />
		<tag k="name" v="Nesseter" />
		<tag k="place" v="locality" />
		<tag k="ssr:stedsnr" v="569522" />
	</node>
	<node id="-33529" lat="59.9093000001" lon="11.0372305622">
		<tag k="historic" v="shieling" />
		<tag k="name" v="Fjerdingbyseter" />
		<tag k="place" v="locality" />
		<tag k="ssr:stedsnr" v="569378" />
	</node>
	<node id="-33427" lat="59.8493527784" lon="11.0560416607">
		<tag k="name" v="Neslangmyra" />
		<tag k="natural" v="wetland" />
		<tag k="ssr:stedsnr" v="205568" />
	</node>
	<node id="-33647" lat="59.904869446" lon="11.0700277712">
		<tag k="name" v="Høgåsdammen" />
		<tag k="natural" v="wetland" />
		<tag k="ssr:stedsnr" v="812776" />
	</node>
	<node id="-33646" lat="59.8990194449" lon="11.1064000024">
		<tag k="name" v="Skogholthagan" />
		<tag k="place" v="locality" />
		<tag k="ssr:stedsnr" v="812774" />
	</node>
	<node id="-33298" lat="59.8555166648" lon="11.0906361128">
		<tag k="name" v="Stumyra" />
		<tag k="natural" v="wetland" />
		<tag k="ssr:stedsnr" v="327589" />
	</node>
	<node id="-33513" lat="59.8357305583" lon="11.0829583406">
		<tag k="name" v="Breimåsan" />
		<tag k="natural" v="wetland" />
		<tag k="ssr:stedsnr" v="509650" />
	</node>
	<node id="-33383" lat="59.857399996" lon="11.06555556">
		<tag k="name" v="Gamlesetermyra" />
		<tag k="natural" v="wetland" />
		<tag k="ssr:stedsnr" v="85533" />
	</node>
	<node id="-33505" lat="59.8698250044" lon="11.0642194453">
		<tag k="historic" v="shieling" />
		<tag k="name" v="Grinisetervangen" />
		<tag k="place" v="locality" />
		<tag k="ssr:stedsnr" v="509584" />
	</node>
	<node id="-33448" lat="59.8770222187" lon="11.030972229">
		<tag k="historic" v="shieling" />
		<tag k="name" v="Tvetersetra" />
		<tag k="place" v="locality" />
		<tag k="ssr:stedsnr" v="266507" />
	</node>
	<node id="-33630" lat="59.8794222211" lon="11.0198444417">
		<tag k="name" v="Hvitvannsmyra" />
		<tag k="natural" v="wetland" />
		<tag k="ssr:stedsnr" v="812556" />
	</node>
	<node id="-33628" lat="59.8912583345" lon="11.0238138941">
		<tag k="historic" v="shieling" />
		<tag k="name" v="Vestegårdsetra" />
		<tag k="place" v="locality" />
		<tag k="ssr:stedsnr" v="812548" />
	</node>
	<node id="-33627" lat="59.8901833351" lon="11.0226055575">
		<tag k="historic" v="shieling" />
		<tag k="name" v="Østegårdsetra" />
		<tag k="place" v="locality" />
		<tag k="ssr:stedsnr" v="812547" />
	</node>
	<node id="-33402" lat="59.8847250037" lon="11.0843472171">
		<tag k="name" v="Hansemyra" />
		<tag k="natural" v="wetland" />
		<tag k="ssr:stedsnr" v="144662" />
	</node>
	<node id="-33495" lat="59.8587444448" lon="11.0486388873">
		<tag k="name" v="Vivangen" />
		<tag k="place" v="locality" />
		<tag k="ssr:stedsnr" v="509459" />
	</node>
	<node id="-33494" lat="59.8979555529" lon="11.022697225">
		<tag k="name" v="Ismyra" />
		<tag k="natural" v="wetland" />
		<tag k="ssr:stedsnr" v="509456" />
	</node>
	<node id="-33492" lat="59.8772333318" lon="11.0552083298">
		<tag k="historic" v="shieling" />
		<tag k="name" v="Jaersetervangen" />
		<tag k="place" v="locality" />
		<tag k="ssr:stedsnr" v="509346" />
	</node>
	<node id="-33477" lat="59.8851694414" lon="11.0677333359">
		<tag k="historic" v="shieling" />
		<tag k="name" v="Trollsetra" />
		<tag k="place" v="locality" />
		<tag k="ssr:stedsnr" v="448690" />
	</node>
	<node id="-33604" lat="59.8757944472" lon="11.0512055602">
		<tag k="name" v="Jaerlangmyra" />
		<tag k="natural" v="wetland" />
		<tag k="ssr:stedsnr" v="751534" />
	</node>
	<node id="-33346" lat="59.8359222257" lon="11.0907222218">
		<tag k="name" v="Hakkemåsan" />
		<tag k="natural" v="wetland" />
		<tag k="ssr:stedsnr" v="23712" />
	</node>
	<node id="-33601" lat="59.9016166656" lon="11.0560000063">
		<tag k="historic" v="shieling" />
		<tag k="name" v="Årnesseter" />
		<tag k="place" v="locality" />
		<tag k="ssr:stedsnr" v="751418" />
	</node>
	<node id="-33472" lat="59.8391888902" lon="11.0285333412">
		<tag k="name" v="Borkedammen" />
		<tag k="natural" v="wetland" />
		<tag k="ssr:stedsnr" v="448552" />
	</node>
	<node id="-33595" lat="59.9094194449" lon="11.065050006">
		<tag k="fixme" v="multiple name tags, choose one and add the other to alt_name" />
		<tag k="name" v="Holtbreimåsan;Breidmåsan" />
		<tag k="natural" v="wetland" />
		<tag k="old_name" v="Breidmosan" />
		<tag k="ssr:stedsnr" v="733135" />
	</node>
	<node id="-33593" lat="59.9395472267" lon="11.0380999963">
		<tag k="name" v="Stormyra" />
		<tag k="natural" v="wetland" />
		<tag k="ssr:stedsnr" v="733068" />
	</node>
	<node id="-33591" lat="59.8937000015" lon="11.0358222217">
		<tag k="name" v="Djupdalsmyra" />
		<tag k="natural" v="wetland" />
		<tag k="ssr:stedsnr" v="732095" />
	</node>
	<node id="-33289" lat="59.9208555572" lon="11.0409611109">
		<tag k="alt_name" v="Knollsmåsan" />
		<tag k="name" v="Knølsmåsan" />
		<tag k="natural" v="wetland" />
		<tag k="old_name" v="Knølsmosan" />
		<tag k="ssr:stedsnr" v="308090" />
	</node>
	<node id="-33452" lat="59.8467416662" lon="11.1024944391">
		<tag k="name" v="Bjørnmyra" />
		<tag k="natural" v="wetland" />
		<tag k="ssr:stedsnr" v="266669" />
	</node>
	<node id="-33450" lat="59.9221222203" lon="11.0325972233">
		<tag k="historic" v="shieling" />
		<tag k="name" v="Åmotsetra" />
		<tag k="place" v="locality" />
		<tag k="ssr:stedsnr" v="266550" />
	</node>
	<node id="-33577" lat="59.8671277766" lon="11.0593638904">
		<tag k="name" v="Lauvbråtemyra" />
		<tag k="natural" v="wetland" />
		<tag k="ssr:stedsnr" v="691503" />
	</node>
	<node id="-33576" lat="59.8452194445" lon="11.0562472192">
		<tag k="name" v="Paraplymyra" />
		<tag k="natural" v="wetland" />
		<tag k="ssr:stedsnr" v="691500" />
	</node>
	<node id="-33447" lat="59.9037749986" lon="11.0607833276">
		<tag k="name" v="Langmyra" />
		<tag k="natural" v="wetland" />
		<tag k="ssr:stedsnr" v="266501" />
	</node>
	<node id="-33574" lat="59.8978583303" lon="11.0510305625">
		<tag k="historic" v="shieling" />
		<tag k="name" v="Skovholtseter" />
		<tag k="place" v="locality" />
		<tag k="ssr:stedsnr" v="691395" />
	</node>
	<node id="-33317" lat="59.8931888891" lon="11.0735472233">
		<tag k="name" v="Tyrihuken" />
		<tag k="place" v="locality" />
		<tag k="ssr:stedsnr" v="387646" />
	</node>
	<node id="-33316" lat="59.8825527774" lon="11.0820083401">
		<tag k="name" v="Store Breimåsan" />
		<tag k="natural" v="wetland" />
		<tag k="ssr:stedsnr" v="387644" />
	</node>
	<node id="-33313" lat="59.8796749993" lon="11.0519444436">
		<tag k="name" v="Fiskelausmåsan" />
		<tag k="natural" v="wetland" />
		<tag k="ssr:stedsnr" v="387555" />
	</node>
	<node id="-33312" lat="59.9039833304" lon="11.0417611166">
		<tag k="name" v="Slottsmåsan" />
		<tag k="natural" v="wetland" />
		<tag k="ssr:stedsnr" v="387540" />
	</node>
	<node id="-33436" lat="59.8549277805" lon="11.0667611033">
		<tag k="name" v="Sauemyra" />
		<tag k="natural" v="wetland" />
		<tag k="ssr:stedsnr" v="206583" />
	</node>
	<node id="-33562" lat="59.8455888927" lon="11.0934277699">
		<tag k="name" v="Tømmermannsmyra" />
		<tag k="natural" v="wetland" />
		<tag k="ssr:stedsnr" v="630643" />
	</node>
	<node id="-33561" lat="59.8350027773" lon="11.0678000005">
		<tag k="name" v="Otertjernmyra" />
		<tag k="natural" v="wetland" />
		<tag k="ssr:stedsnr" v="630631" />
	</node>
	<node id="-33688" lat="59.8954055537" lon="11.0465472281">
		<tag k="name" v="Skauholtmyra" />
		<tag k="natural" v="wetland" />
		<tag k="ssr:stedsnr" v="934469" />
	</node>
	<node id="-33303" lat="59.9082916642" lon="11.0765138951">
		<tag k="name" v="Brenndammen" />
		<tag k="natural" v="wetland" />
		<tag k="ssr:stedsnr" v="327719" />
	</node>
	<node id="-33686" lat="59.916897224" lon="11.0445333324">
		<tag k="name" v="Merramyra" />
		<tag k="natural" v="wetland" />
		<tag k="ssr:stedsnr" v="934451" />
	</node>
	<node id="-33685" lat="59.9166666652" lon="11.0317472141">
		<tag k="name" v="Mortensmyra" />
		<tag k="natural" v="wetland" />
		<tag k="ssr:stedsnr" v="934449" />
	</node>
	<node id="-33555" lat="59.8846333377" lon="11.0599000083">
		<tag k="name" v="Den hvite måsan" />
		<tag k="natural" v="wetland" />
		<tag k="ssr:stedsnr" v="630470" />
	</node>
	<node id="-33554" lat="59.8392361141" lon="11.053269451">
		<tag k="historic" v="shieling" />
		<tag k="name" v="Nordbysetra" />
		<tag k="place" v="locality" />
		<tag k="ssr:stedsnr" v="630462" />
	</node>
	<node id="-33295" lat="59.8908611121" lon="11.0479388957">
		<tag k="name" v="Skurvåsmåsan" />
		<tag k="natural" v="wetland" />
		<tag k="ssr:stedsnr" v="327489" />
	</node>
	<node id="-33294" lat="59.8833611115" lon="11.0190944428">
		<tag k="name" v="Slåssmyra" />
		<tag k="natural" v="wetland" />
		<tag k="ssr:stedsnr" v="327486" />
	</node>
	<node id="-33293" lat="59.8588916708" lon="11.0376944494">
		<tag k="name" v="Bjørntjernmåsan" />
		<tag k="natural" v="wetland" />
		<tag k="ssr:stedsnr" v="327483" />
	</node>
	<node id="-33687" lat="59.8388861077" lon="11.0593416674">
		<tag k="historic" v="shieling" />
		<tag k="name" v="Tomtersetra" />
		<tag k="place" v="locality" />
		<tag k="ssr:stedsnr" v="934455" />
	</node>
	<node id="-33558" lat="59.8663861079" lon="11.0691444356">
		<tag k="name" v="Vangmyra" />
		<tag k="natural" v="wetland" />
		<tag k="ssr:stedsnr" v="630565" />
	</node>
	<node id="-33410" lat="59.8562944457" lon="11.0830888977">
		<tag k="name" v="Fellemyra" />
		<tag k="natural" v="wetland" />
		<tag k="ssr:stedsnr" v="145606" />
	</node>
</osm>
