<?xml version="1.0" encoding="UTF-8"?>
<osm version="0.6" generator="osmapis">
	<node id="2087620403" lat="64.4636494" lon="11.7628065" version="8" timestamp="2022-06-18T11:53:09Z" changeset="122543834" uid="3497659" user="NKA">
		<tag k="alt_name" v="Skage;Skage i Namdalen" />
		<tag k="name" v="Hunn" />
		<tag k="place" v="village" />
		<tag k="population" v="822" />
		<tag k="population:date" v="2021-01-01" />
		<tag k="ref:ssb_tettsted" v="7161" />
		<tag k="source:population" v="SSB - befolkning i tettstedet" />
		<tag k="ssr:stedsnr" v="239085" />
	</node>
	<node id="2354937778" lat="64.538217" lon="12.015431" version="2" timestamp="2018-05-02T17:04:06Z" changeset="58620907" uid="3497659" user="NKA">
		<tag k="name" v="Kovlen" />
		<tag k="natural" v="peak" />
		<tag k="source" v="Kartverket" />
		<tag k="ssr:stedsnr" v="447081" />
	</node>
	<node id="4819364332" lat="64.4935932" lon="11.9483593" version="8" timestamp="2022-06-18T11:53:09Z" changeset="122543834" uid="3497659" user="NKA">
		<tag k="alt_name" v="Overhalla" />
		<tag k="name" v="Ranemsletta" />
		<tag k="place" v="village" />
		<tag k="population" v="497" />
		<tag k="population:date" v="2021-01-01" />
		<tag k="ref:ssb_tettsted" v="7162" />
		<tag k="source:population" v="SSB - befolkning i tettstedet" />
		<tag k="ssr:stedsnr" v="196768" />
	</node>
	<node id="5751795514" lat="64.4809575" lon="11.8913974" version="2" timestamp="2022-01-26T07:15:22Z" changeset="116611310" uid="3497659" user="NKA">
		<tag k="junction" v="yes" />
		<tag k="name" v="Korsen" />
		<tag k="ssr:stedsnr" v="447408" />
	</node>
	<node id="7102014922" lat="64.5083215" lon="12.0129658" version="4" timestamp="2022-06-18T11:53:09Z" changeset="122543834" uid="3497659" user="NKA">
		<tag k="name" v="Skogmo" />
		<tag k="place" v="village" />
		<tag k="population" v="267" />
		<tag k="population:date" v="2021-01-01" />
		<tag k="ref:ssb_tettsted" v="7164" />
		<tag k="source:population" v="SSB - befolkning i tettstedet" />
		<tag k="ssr:stedsnr" v="560892" />
	</node>
	<node id="7102014924" lat="64.503751" lon="11.9443459" version="4" timestamp="2022-06-18T11:53:09Z" changeset="122543834" uid="3497659" user="NKA">
		<tag k="name" v="Svalia" />
		<tag k="place" v="quarter" />
		<tag k="population" v="286" />
		<tag k="population:date" v="2021-01-01" />
		<tag k="ref:ssb_tettsted" v="7163" />
		<tag k="source:population" v="SSB - befolkning i tettstedet" />
		<tag k="ssr:stedsnr" v="705958" />
	</node>
	<node id="9828178966" lat="64.406575" lon="12.0596944" version="1" timestamp="2022-06-18T11:53:09Z" changeset="122543834" uid="3497659" user="NKA">
		<tag k="name" v="Valdskråsetran" />
		<tag k="place" v="locality" />
		<tag k="ssr:stedsnr" v="681644" />
	</node>
	<node id="9828178967" lat="64.3570583" lon="11.9232499" version="1" timestamp="2022-06-18T11:53:09Z" changeset="122543834" uid="3497659" user="NKA">
		<tag k="name" v="Jamtheimen" />
		<tag k="place" v="isolated_dwelling" />
		<tag k="ssr:stedsnr" v="742668" />
	</node>
	<node id="9828178968" lat="64.5681167" lon="12.0641584" version="1" timestamp="2022-06-18T11:53:09Z" changeset="122543834" uid="3497659" user="NKA">
		<tag k="name" v="Øyengvatna hytteområde" />
		<tag k="place" v="neighbourhood" />
		<tag k="ssr:stedsnr" v="525230" />
	</node>
	<node id="9828178969" lat="64.3526344" lon="11.6921758" version="1" timestamp="2022-06-18T11:53:09Z" changeset="122543834" uid="3497659" user="NKA">
		<tag k="name" v="Vesterongdalsstu" />
		<tag k="place" v="isolated_dwelling" />
		<tag k="ssr:stedsnr" v="666782" />
	</node>
	<node id="9828178970" lat="64.4397083" lon="11.9569862" version="1" timestamp="2022-06-18T11:53:09Z" changeset="122543834" uid="3497659" user="NKA">
		<tag k="name" v="Fossem" />
		<tag k="place" v="farm" />
		<tag k="ssr:stedsnr" v="196719" />
	</node>
	<node id="9828178971" lat="64.4385694" lon="11.9054138" version="1" timestamp="2022-06-18T11:53:09Z" changeset="122543834" uid="3497659" user="NKA">
		<tag k="name" v="Moen" />
		<tag k="place" v="farm" />
		<tag k="ssr:stedsnr" v="508278" />
	</node>
	<node id="9828178972" lat="64.455388" lon="11.9269125" version="1" timestamp="2022-06-18T11:53:09Z" changeset="122543834" uid="3497659" user="NKA">
		<tag k="name" v="Bergli" />
		<tag k="place" v="farm" />
		<tag k="ssr:stedsnr" v="196676" />
	</node>
	<node id="9828178973" lat="64.455741" lon="12.0145306" version="1" timestamp="2022-06-18T11:53:09Z" changeset="122543834" uid="3497659" user="NKA">
		<tag k="name" v="Engan" />
		<tag k="place" v="farm" />
		<tag k="ssr:stedsnr" v="196672" />
	</node>
	<node id="9828178974" lat="64.4382944" lon="11.9096916" version="1" timestamp="2022-06-18T11:53:09Z" changeset="122543834" uid="3497659" user="NKA">
		<tag k="name" v="Haug" />
		<tag k="place" v="farm" />
		<tag k="ssr:stedsnr" v="872266" />
	</node>
	<node id="9828178975" lat="64.4477149" lon="11.9147649" version="1" timestamp="2022-06-18T11:53:09Z" changeset="122543834" uid="3497659" user="NKA">
		<tag k="name" v="Nesenget" />
		<tag k="place" v="hamlet" />
		<tag k="ssr:stedsnr" v="742705" />
	</node>
	<node id="9828178976" lat="64.5772467" lon="11.9735535" version="1" timestamp="2022-06-18T11:53:09Z" changeset="122543834" uid="3497659" user="NKA">
		<tag k="name" v="Amdalssetran" />
		<tag k="place" v="isolated_dwelling" />
		<tag k="ssr:stedsnr" v="804792" />
	</node>
	<node id="9828178977" lat="64.3151778" lon="11.9792168" version="1" timestamp="2022-06-18T11:53:09Z" changeset="122543834" uid="3497659" user="NKA">
		<tag k="name" v="Lestessetran" />
		<tag k="place" v="isolated_dwelling" />
		<tag k="ssr:stedsnr" v="26190" />
	</node>
	<node id="9828178978" lat="64.4563944" lon="11.9079941" version="1" timestamp="2022-06-18T11:53:09Z" changeset="122543834" uid="3497659" user="NKA">
		<tag k="name" v="Ristad" />
		<tag k="place" v="hamlet" />
		<tag k="ssr:stedsnr" v="742686" />
	</node>
	<node id="9828178979" lat="64.4404636" lon="11.9157722" version="1" timestamp="2022-06-18T11:53:09Z" changeset="122543834" uid="3497659" user="NKA">
		<tag k="name" v="Stamphusvollen" />
		<tag k="place" v="farm" />
		<tag k="ssr:stedsnr" v="567421" />
	</node>
	<node id="9828178980" lat="64.4505694" lon="11.7167168" version="1" timestamp="2022-06-18T11:53:09Z" changeset="122543834" uid="3497659" user="NKA">
		<tag k="name" v="Førrihaugen" />
		<tag k="place" v="locality" />
		<tag k="ssr:stedsnr" v="447255" />
	</node>
	<node id="9828178981" lat="64.4116833" lon="11.7088834" version="1" timestamp="2022-06-18T11:53:09Z" changeset="122543834" uid="3497659" user="NKA">
		<tag k="name" v="Flisingan hytteområde" />
		<tag k="place" v="neighbourhood" />
		<tag k="ssr:stedsnr" v="39156" />
	</node>
	<node id="9828178982" lat="64.5078612" lon="11.6258473" version="1" timestamp="2022-06-18T11:53:09Z" changeset="122543834" uid="3497659" user="NKA">
		<tag k="name" v="Heiasetran" />
		<tag k="place" v="locality" />
		<tag k="ssr:stedsnr" v="378235" />
	</node>
	<node id="9828178983" lat="64.4514987" lon="11.9663596" version="1" timestamp="2022-06-18T11:53:09Z" changeset="122543834" uid="3497659" user="NKA">
		<tag k="name" v="Bergum" />
		<tag k="place" v="farm" />
		<tag k="ssr:stedsnr" v="507408" />
	</node>
	<node id="9828178984" lat="64.3363084" lon="11.860825" version="1" timestamp="2022-06-18T11:53:09Z" changeset="122543834" uid="3497659" user="NKA">
		<tag k="name" v="Ryggasetran" />
		<tag k="place" v="isolated_dwelling" />
		<tag k="ssr:stedsnr" v="196528" />
	</node>
	<node id="9828178985" lat="64.4866772" lon="11.6855707" version="1" timestamp="2022-06-18T11:53:09Z" changeset="122543834" uid="3497659" user="NKA">
		<tag k="name" v="Meoslia" />
		<tag k="place" v="farm" />
		<tag k="ssr:stedsnr" v="924174" />
	</node>
	<node id="9828178986" lat="64.4913968" lon="11.6532869" version="1" timestamp="2022-06-18T11:53:09Z" changeset="122543834" uid="3497659" user="NKA">
		<tag k="name" v="Åsheim" />
		<tag k="place" v="farm" />
		<tag k="ssr:stedsnr" v="924212" />
	</node>
	<node id="9828178987" lat="64.4901861" lon="11.6914806" version="1" timestamp="2022-06-18T11:53:09Z" changeset="122543834" uid="3497659" user="NKA">
		<tag k="name" v="Kleiva" />
		<tag k="place" v="farm" />
		<tag k="ssr:stedsnr" v="195218" />
	</node>
	<node id="9828178988" lat="64.461965" lon="11.7113549" version="1" timestamp="2022-06-18T11:53:09Z" changeset="122543834" uid="3497659" user="NKA">
		<tag k="name" v="Råbakkan" />
		<tag k="place" v="farm" />
		<tag k="ssr:stedsnr" v="196057" />
	</node>
	<node id="9828178989" lat="64.4874333" lon="11.6681528" version="1" timestamp="2022-06-18T11:53:09Z" changeset="122543834" uid="3497659" user="NKA">
		<tag k="name" v="Hallset" />
		<tag k="place" v="farm" />
		<tag k="ssr:stedsnr" v="195223" />
	</node>
	<node id="9828178990" lat="64.3082806" lon="11.7981028" version="1" timestamp="2022-06-18T11:53:09Z" changeset="122543834" uid="3497659" user="NKA">
		<tag k="historic" v="shieling" />
		<tag k="name" v="Sellegsetran" />
		<tag k="place" v="isolated_dwelling" />
		<tag k="ssr:stedsnr" v="534841" />
	</node>
	<node id="9828178991" lat="64.4624611" lon="11.6578806" version="1" timestamp="2022-06-18T11:53:09Z" changeset="122543834" uid="3497659" user="NKA">
		<tag k="name" v="Sållåta hytteområde" />
		<tag k="place" v="neighbourhood" />
		<tag k="ssr:stedsnr" v="464215" />
	</node>
	<node id="9828178992" lat="64.4880799" lon="11.6768973" version="1" timestamp="2022-06-18T11:53:09Z" changeset="122543834" uid="3497659" user="NKA">
		<tag k="name" v="Askillaunet" />
		<tag k="place" v="farm" />
		<tag k="ssr:stedsnr" v="377184" />
	</node>
	<node id="9828178993" lat="64.4672666" lon="11.7067945" version="1" timestamp="2022-06-18T11:53:09Z" changeset="122543834" uid="3497659" user="NKA">
		<tag k="name" v="Brudalsøya" />
		<tag k="place" v="locality" />
		<tag k="ssr:stedsnr" v="326303" />
	</node>
	<node id="9828178994" lat="64.4550022" lon="11.9757055" version="1" timestamp="2022-06-18T11:53:09Z" changeset="122543834" uid="3497659" user="NKA">
		<tag k="name" v="Skogly" />
		<tag k="place" v="farm" />
		<tag k="ssr:stedsnr" v="620671" />
	</node>
	<node id="9828178995" lat="64.4613669" lon="11.6664247" version="1" timestamp="2022-06-18T11:53:09Z" changeset="122543834" uid="3497659" user="NKA">
		<tag k="name" v="Sandmoen" />
		<tag k="place" v="farm" />
		<tag k="ssr:stedsnr" v="317055" />
	</node>
	<node id="9828178996" lat="64.4946615" lon="11.6512066" version="1" timestamp="2022-06-18T11:53:09Z" changeset="122543834" uid="3497659" user="NKA">
		<tag k="name" v="Heiabakkan" />
		<tag k="place" v="farm" />
		<tag k="ssr:stedsnr" v="196226" />
	</node>
	<node id="9828178997" lat="64.3272723" lon="11.8517472" version="1" timestamp="2022-06-18T11:53:09Z" changeset="122543834" uid="3497659" user="NKA">
		<tag k="name" v="Myrmosetran" />
		<tag k="place" v="locality" />
		<tag k="ssr:stedsnr" v="351838" />
	</node>
	<node id="9828178998" lat="64.3519028" lon="11.8524361" version="1" timestamp="2022-06-18T11:53:09Z" changeset="122543834" uid="3497659" user="NKA">
		<tag k="name" v="Hågsbukta hytteområde" />
		<tag k="place" v="neighbourhood" />
		<tag k="ssr:stedsnr" v="646203" />
	</node>
	<node id="9828178999" lat="64.4314778" lon="11.9941361" version="1" timestamp="2022-06-18T11:53:09Z" changeset="122543834" uid="3497659" user="NKA">
		<tag k="name" v="Einarsvatnet hytteområde" />
		<tag k="place" v="neighbourhood" />
		<tag k="ssr:stedsnr" v="222182" />
	</node>
	<node id="9828179000" lat="64.330025" lon="11.9217917" version="1" timestamp="2022-06-18T11:53:09Z" changeset="122543834" uid="3497659" user="NKA">
		<tag k="historic" v="shieling" />
		<tag k="name" v="Skarseteren" />
		<tag k="place" v="isolated_dwelling" />
		<tag k="ssr:stedsnr" v="230742" />
	</node>
	<node id="9828179001" lat="64.4675288" lon="11.9291802" version="1" timestamp="2022-06-18T11:53:09Z" changeset="122543834" uid="3497659" user="NKA">
		<tag k="name" v="Vibstad" />
		<tag k="place" v="farm" />
		<tag k="ssr:stedsnr" v="196773" />
	</node>
	<node id="9828179002" lat="64.468188" lon="11.8348502" version="1" timestamp="2022-06-18T11:53:09Z" changeset="122543834" uid="3497659" user="NKA">
		<tag k="name" v="Bakken" />
		<tag k="place" v="farm" />
		<tag k="ssr:stedsnr" v="933479" />
	</node>
	<node id="9828179003" lat="64.4541389" lon="11.9843277" version="1" timestamp="2022-06-18T11:53:09Z" changeset="122543834" uid="3497659" user="NKA">
		<tag k="historic" v="shieling" />
		<tag k="name" v="Fossetran" />
		<tag k="place" v="isolated_dwelling" />
		<tag k="ssr:stedsnr" v="22103" />
	</node>
	<node id="9828179004" lat="64.467204" lon="11.9293051" version="1" timestamp="2022-06-18T11:53:09Z" changeset="122543834" uid="3497659" user="NKA">
		<tag k="name" v="Nedre Vibstad" />
		<tag k="place" v="farm" />
		<tag k="ssr:stedsnr" v="932368" />
	</node>
	<node id="9828179005" lat="64.4950938" lon="11.9476733" version="1" timestamp="2022-06-18T11:53:09Z" changeset="122543834" uid="3497659" user="NKA">
		<tag k="name" v="Haugom" />
		<tag k="place" v="farm" />
		<tag k="ssr:stedsnr" v="932417" />
	</node>
	<node id="9828179006" lat="64.6096472" lon="12.060925" version="1" timestamp="2022-06-18T11:53:09Z" changeset="122543834" uid="3497659" user="NKA">
		<tag k="name" v="Gløymessetran" />
		<tag k="place" v="locality" />
		<tag k="ssr:stedsnr" v="75808" />
	</node>
	<node id="9828179007" lat="64.4753805" lon="11.661347" version="1" timestamp="2022-06-18T11:53:09Z" changeset="122543834" uid="3497659" user="NKA">
		<tag k="name" v="Kvatninga" />
		<tag k="place" v="farm" />
		<tag k="ssr:stedsnr" v="933315" />
	</node>
	<node id="9828179008" lat="64.472643" lon="11.8228263" version="1" timestamp="2022-06-18T11:53:09Z" changeset="122543834" uid="3497659" user="NKA">
		<tag k="name" v="Austmyr" />
		<tag k="place" v="farm" />
		<tag k="ssr:stedsnr" v="924789" />
	</node>
	<node id="9828179009" lat="64.4396278" lon="11.8179614" version="1" timestamp="2022-06-18T11:53:09Z" changeset="122543834" uid="3497659" user="NKA">
		<tag k="name" v="Homstadneset" />
		<tag k="place" v="farm" />
		<tag k="ssr:stedsnr" v="924697" />
	</node>
	<node id="9828179010" lat="64.5311555" lon="11.7027723" version="1" timestamp="2022-06-18T11:53:09Z" changeset="122543834" uid="3497659" user="NKA">
		<tag k="name" v="Jartrudlisetran" />
		<tag k="place" v="isolated_dwelling" />
		<tag k="ssr:stedsnr" v="925078" />
	</node>
	<node id="9828179011" lat="64.464275" lon="11.7344028" version="1" timestamp="2022-06-18T11:53:09Z" changeset="122543834" uid="3497659" user="NKA">
		<tag k="name" v="Bergenget" />
		<tag k="place" v="locality" />
		<tag k="ssr:stedsnr" v="811248" />
	</node>
	<node id="9828179012" lat="64.4985609" lon="11.693845" version="1" timestamp="2022-06-18T11:53:09Z" changeset="122543834" uid="3497659" user="NKA">
		<tag k="name" v="Norddal" />
		<tag k="place" v="farm" />
		<tag k="ssr:stedsnr" v="802231" />
	</node>
	<node id="9828179013" lat="64.492966" lon="11.8876087" version="1" timestamp="2022-06-18T11:53:09Z" changeset="122543834" uid="3497659" user="NKA">
		<tag k="name" v="Tødåsen" />
		<tag k="place" v="farm" />
		<tag k="ssr:stedsnr" v="499736" />
	</node>
	<node id="9828179014" lat="64.4440261" lon="11.9184596" version="1" timestamp="2022-06-18T11:53:09Z" changeset="122543834" uid="3497659" user="NKA">
		<tag k="name" v="Oppdal" />
		<tag k="place" v="farm" />
		<tag k="ssr:stedsnr" v="742718" />
	</node>
	<node id="9828179015" lat="64.4416802" lon="11.8974953" version="1" timestamp="2022-06-18T11:53:09Z" changeset="122543834" uid="3497659" user="NKA">
		<tag k="name" v="Utheim" />
		<tag k="place" v="farm" />
		<tag k="ssr:stedsnr" v="742717" />
	</node>
	<node id="9828179016" lat="64.4904586" lon="11.8439601" version="1" timestamp="2022-06-18T11:53:09Z" changeset="122543834" uid="3497659" user="NKA">
		<tag k="name" v="Elvset" />
		<tag k="place" v="farm" />
		<tag k="ssr:stedsnr" v="803766" />
	</node>
	<node id="9828181917" lat="64.4343519" lon="11.8316834" version="1" timestamp="2022-06-18T11:53:09Z" changeset="122543834" uid="3497659" user="NKA">
		<tag k="name" v="Dalset" />
		<tag k="place" v="farm" />
		<tag k="ssr:stedsnr" v="690516" />
	</node>
	<node id="9828181918" lat="64.4838156" lon="11.7146845" version="1" timestamp="2022-06-18T11:53:09Z" changeset="122543834" uid="3497659" user="NKA">
		<tag k="name" v="Lindset" />
		<tag k="place" v="farm" />
		<tag k="ssr:stedsnr" v="317839" />
	</node>
	<node id="9828181919" lat="64.4502666" lon="11.8560277" version="1" timestamp="2022-06-18T11:53:09Z" changeset="122543834" uid="3497659" user="NKA">
		<tag k="name" v="Hopbakkan" />
		<tag k="place" v="farm" />
		<tag k="ssr:stedsnr" v="447251" />
	</node>
	<node id="9828181920" lat="64.4763167" lon="11.6508222" version="1" timestamp="2022-06-18T11:53:09Z" changeset="122543834" uid="3497659" user="NKA">
		<tag k="name" v="Kvatningneset" />
		<tag k="place" v="locality" />
		<tag k="ssr:stedsnr" v="690346" />
	</node>
	<node id="9828181921" lat="64.4466194" lon="11.8633501" version="1" timestamp="2022-06-18T11:53:09Z" changeset="122543834" uid="3497659" user="NKA">
		<tag k="name" v="Skogrud" />
		<tag k="place" v="farm" />
		<tag k="ssr:stedsnr" v="681724" />
	</node>
	<node id="9828181922" lat="64.4527362" lon="12.0393306" version="1" timestamp="2022-06-18T11:53:09Z" changeset="122543834" uid="3497659" user="NKA">
		<tag k="name" v="Stein" />
		<tag k="place" v="farm" />
		<tag k="ssr:stedsnr" v="317637" />
	</node>
	<node id="9828181923" lat="64.4564868" lon="11.806764" version="1" timestamp="2022-06-18T11:53:09Z" changeset="122543834" uid="3497659" user="NKA">
		<tag k="name" v="Austeng" />
		<tag k="place" v="farm" />
		<tag k="ssr:stedsnr" v="438689" />
	</node>
	<node id="9828181924" lat="64.5757306" lon="12.0837277" version="1" timestamp="2022-06-18T11:53:09Z" changeset="122543834" uid="3497659" user="NKA">
		<tag k="historic" v="shieling" />
		<tag k="name" v="Ljøsbergssetran" />
		<tag k="place" v="isolated_dwelling" />
		<tag k="ssr:stedsnr" v="75846" />
	</node>
	<node id="9828181925" lat="64.4759714" lon="11.8851852" version="1" timestamp="2022-06-18T11:53:09Z" changeset="122543834" uid="3497659" user="NKA">
		<tag k="name" v="Åsum" />
		<tag k="place" v="farm" />
		<tag k="ssr:stedsnr" v="256767" />
	</node>
	<node id="9828181926" lat="64.4947731" lon="11.9555526" version="1" timestamp="2022-06-18T11:53:09Z" changeset="122543834" uid="3497659" user="NKA">
		<tag k="name" v="Ranem" />
		<tag k="place" v="farm" />
		<tag k="ssr:stedsnr" v="479213" />
	</node>
	<node id="9828181927" lat="64.466134" lon="12.0233819" version="1" timestamp="2022-06-18T11:53:09Z" changeset="122543834" uid="3497659" user="NKA">
		<tag k="name" v="Fjellset" />
		<tag k="place" v="farm" />
		<tag k="ssr:stedsnr" v="82043" />
	</node>
	<node id="9828181928" lat="64.4524861" lon="11.7776529" version="1" timestamp="2022-06-18T11:53:09Z" changeset="122543834" uid="3497659" user="NKA">
		<tag k="name" v="Gran" />
		<tag k="place" v="farm" />
		<tag k="ssr:stedsnr" v="499650" />
	</node>
	<node id="9828181929" lat="64.3429139" lon="11.942839" version="1" timestamp="2022-06-18T11:53:09Z" changeset="122543834" uid="3497659" user="NKA">
		<tag k="historic" v="shieling" />
		<tag k="name" v="Bjønndalsseteren" />
		<tag k="place" v="isolated_dwelling" />
		<tag k="ssr:stedsnr" v="473777" />
	</node>
	<node id="9828181930" lat="64.55995" lon="11.9474083" version="1" timestamp="2022-06-18T11:53:09Z" changeset="122543834" uid="3497659" user="NKA">
		<tag k="name" v="Fromsetran" />
		<tag k="place" v="isolated_dwelling" />
		<tag k="ssr:stedsnr" v="75855" />
	</node>
	<node id="9828181931" lat="64.4319584" lon="11.9022361" version="1" timestamp="2022-06-18T11:53:09Z" changeset="122543834" uid="3497659" user="NKA">
		<tag k="name" v="Nymoen" />
		<tag k="place" v="locality" />
		<tag k="ssr:stedsnr" v="265492" />
	</node>
	<node id="9828181932" lat="64.4835641" lon="11.8373378" version="1" timestamp="2022-06-18T11:53:09Z" changeset="122543834" uid="3497659" user="NKA">
		<tag k="name" v="Myran" />
		<tag k="place" v="farm" />
		<tag k="ssr:stedsnr" v="690527" />
	</node>
	<node id="9828181933" lat="64.4428061" lon="11.8481483" version="1" timestamp="2022-06-18T11:53:09Z" changeset="122543834" uid="3497659" user="NKA">
		<tag k="name" v="Litløya" />
		<tag k="place" v="farm" />
		<tag k="ssr:stedsnr" v="256685" />
	</node>
	<node id="9828181934" lat="64.4973313" lon="12.0265055" version="1" timestamp="2022-06-18T11:53:09Z" changeset="122543834" uid="3497659" user="NKA">
		<tag k="name" v="Hundsmoen" />
		<tag k="place" v="farm" />
		<tag k="ssr:stedsnr" v="439778" />
	</node>
	<node id="9828181935" lat="64.3280445" lon="11.8709555" version="1" timestamp="2022-06-18T11:53:09Z" changeset="122543834" uid="3497659" user="NKA">
		<tag k="name" v="Øltappen" />
		<tag k="place" v="isolated_dwelling" />
		<tag k="ssr:stedsnr" v="439572" />
	</node>
	<node id="9828181936" lat="64.4661611" lon="11.8252945" version="1" timestamp="2022-06-18T11:53:09Z" changeset="122543834" uid="3497659" user="NKA">
		<tag k="name" v="Midtgard" />
		<tag k="place" v="farm" />
		<tag k="ssr:stedsnr" v="13794" />
	</node>
	<node id="9828181937" lat="64.4970944" lon="11.7809444" version="1" timestamp="2022-06-18T11:53:09Z" changeset="122543834" uid="3497659" user="NKA">
		<tag k="name" v="Haustsetran" />
		<tag k="place" v="locality" />
		<tag k="ssr:stedsnr" v="447277" />
	</node>
	<node id="9828181938" lat="64.4668639" lon="11.8283249" version="1" timestamp="2022-06-18T11:53:09Z" changeset="122543834" uid="3497659" user="NKA">
		<tag k="name" v="Hågsmyra" />
		<tag k="place" v="farm" />
		<tag k="ssr:stedsnr" v="802818" />
	</node>
	<node id="9828181939" lat="64.4012944" lon="11.9349166" version="1" timestamp="2022-06-18T11:53:09Z" changeset="122543834" uid="3497659" user="NKA">
		<tag k="name" v="Brokvatnet hytteområde" />
		<tag k="place" v="neighbourhood" />
		<tag k="ssr:stedsnr" v="403177" />
	</node>
	<node id="9828181940" lat="64.4804609" lon="11.8746141" version="1" timestamp="2022-06-18T11:53:09Z" changeset="122543834" uid="3497659" user="NKA">
		<tag k="name" v="Løvset" />
		<tag k="place" v="farm" />
		<tag k="ssr:stedsnr" v="863790" />
	</node>
	<node id="9828181941" lat="64.4674741" lon="11.7922627" version="1" timestamp="2022-06-18T11:53:09Z" changeset="122543834" uid="3497659" user="NKA">
		<tag k="name" v="Belgvoll" />
		<tag k="place" v="hamlet" />
		<tag k="ssr:stedsnr" v="317739" />
	</node>
	<node id="9828181942" lat="64.4891046" lon="11.9617058" version="1" timestamp="2022-06-18T11:53:09Z" changeset="122543834" uid="3497659" user="NKA">
		<tag k="name" v="Oppset" />
		<tag k="place" v="farm" />
		<tag k="ssr:stedsnr" v="681769" />
	</node>
	<node id="9828181943" lat="64.4728133" lon="11.901627" version="1" timestamp="2022-06-18T11:53:09Z" changeset="122543834" uid="3497659" user="NKA">
		<tag k="name" v="Øysvollen" />
		<tag k="place" v="farm" />
		<tag k="ssr:stedsnr" v="196792" />
	</node>
	<node id="9828181944" lat="64.488468" lon="11.8108426" version="1" timestamp="2022-06-18T11:53:09Z" changeset="122543834" uid="3497659" user="NKA">
		<tag k="name" v="Hammer" />
		<tag k="place" v="hamlet" />
		<tag k="ssr:stedsnr" v="803763" />
	</node>
	<node id="9828181945" lat="64.4728556" lon="11.8343528" version="1" timestamp="2022-06-18T11:53:09Z" changeset="122543834" uid="3497659" user="NKA">
		<tag k="name" v="Håksli" />
		<tag k="place" v="farm" />
		<tag k="ssr:stedsnr" v="196786" />
	</node>
	<node id="9828181946" lat="64.4591261" lon="11.8619454" version="1" timestamp="2022-06-18T11:53:09Z" changeset="122543834" uid="3497659" user="NKA">
		<tag k="name" v="Myrmo" />
		<tag k="place" v="farm" />
		<tag k="ssr:stedsnr" v="803705" />
	</node>
	<node id="9828181947" lat="64.4655934" lon="11.8155505" version="1" timestamp="2022-06-18T11:53:09Z" changeset="122543834" uid="3497659" user="NKA">
		<tag k="name" v="Heimtun" />
		<tag k="place" v="farm" />
		<tag k="ssr:stedsnr" v="196787" />
	</node>
	<node id="9828181948" lat="64.4625278" lon="11.8460361" version="1" timestamp="2022-06-18T11:53:09Z" changeset="122543834" uid="3497659" user="NKA">
		<tag k="name" v="Langmyr" />
		<tag k="place" v="farm" />
		<tag k="ssr:stedsnr" v="196678" />
	</node>
	<node id="9828181949" lat="64.5023389" lon="11.9460972" version="1" timestamp="2022-06-18T11:53:09Z" changeset="122543834" uid="3497659" user="NKA">
		<tag k="name" v="Strand" />
		<tag k="place" v="farm" />
		<tag k="ssr:stedsnr" v="378989" />
	</node>
	<node id="9828181950" lat="64.4436527" lon="11.8139494" version="1" timestamp="2022-06-18T11:53:09Z" changeset="122543834" uid="3497659" user="NKA">
		<tag k="name" v="Melen" />
		<tag k="place" v="hamlet" />
		<tag k="ssr:stedsnr" v="876193" />
	</node>
	<node id="9828181951" lat="64.509225" lon="12.0175889" version="1" timestamp="2022-06-18T11:53:09Z" changeset="122543834" uid="3497659" user="NKA">
		<tag k="name" v="Skogstad" />
		<tag k="place" v="farm" />
		<tag k="ssr:stedsnr" v="325072" />
	</node>
	<node id="9828181952" lat="64.4609085" lon="12.0847499" version="1" timestamp="2022-06-18T11:53:09Z" changeset="122543834" uid="3497659" user="NKA">
		<tag k="name" v="Storem" />
		<tag k="place" v="farm" />
		<tag k="ssr:stedsnr" v="378735" />
	</node>
	<node id="9828181953" lat="64.4996426" lon="11.9904842" version="1" timestamp="2022-06-18T11:53:09Z" changeset="122543834" uid="3497659" user="NKA">
		<tag k="name" v="Roem" />
		<tag k="place" v="farm" />
		<tag k="ssr:stedsnr" v="318771" />
	</node>
	<node id="9828181954" lat="64.4618667" lon="11.8953743" version="1" timestamp="2022-06-18T11:53:09Z" changeset="122543834" uid="3497659" user="NKA">
		<tag k="name" v="Myrvang" />
		<tag k="place" v="farm" />
		<tag k="ssr:stedsnr" v="326477" />
	</node>
	<node id="9828181955" lat="64.4951773" lon="11.8301881" version="1" timestamp="2022-06-18T11:53:09Z" changeset="122543834" uid="3497659" user="NKA">
		<tag k="name" v="Haklia" />
		<tag k="place" v="farm" />
		<tag k="ssr:stedsnr" v="750465" />
	</node>
	<node id="9828181956" lat="64.5125455" lon="12.0056078" version="1" timestamp="2022-06-18T11:53:09Z" changeset="122543834" uid="3497659" user="NKA">
		<tag k="name" v="Stor-Skogmo" />
		<tag k="place" v="farm" />
		<tag k="ssr:stedsnr" v="257994" />
	</node>
	<node id="9828181957" lat="64.4487562" lon="11.8371124" version="1" timestamp="2022-06-18T11:53:09Z" changeset="122543834" uid="3497659" user="NKA">
		<tag k="name" v="Storøya" />
		<tag k="place" v="hamlet" />
		<tag k="ssr:stedsnr" v="742709" />
	</node>
	<node id="9828181958" lat="64.4885514" lon="11.9357164" version="1" timestamp="2022-06-18T11:53:09Z" changeset="122543834" uid="3497659" user="NKA">
		<tag k="name" v="Vegloneset" />
		<tag k="place" v="farm" />
		<tag k="ssr:stedsnr" v="143419" />
	</node>
	<node id="9828181959" lat="64.5060548" lon="11.931069" version="1" timestamp="2022-06-18T11:53:09Z" changeset="122543834" uid="3497659" user="NKA">
		<tag k="name" v="Svalia" />
		<tag k="place" v="hamlet" />
		<tag k="ssr:stedsnr" v="135996" />
	</node>
	<node id="9828181960" lat="64.5060349" lon="11.9913834" version="1" timestamp="2022-06-18T11:53:09Z" changeset="122543834" uid="3497659" user="NKA">
		<tag k="name" v="Neset" />
		<tag k="place" v="farm" />
		<tag k="ssr:stedsnr" v="318996" />
	</node>
	<node id="9828181961" lat="64.474875" lon="11.8470319" version="1" timestamp="2022-06-18T11:53:09Z" changeset="122543834" uid="3497659" user="NKA">
		<tag k="name" v="Nordhøy" />
		<tag k="place" v="hamlet" />
		<tag k="ssr:stedsnr" v="848650" />
	</node>
	<node id="9828181962" lat="64.462675" lon="11.835275" version="1" timestamp="2022-06-18T11:53:09Z" changeset="122543834" uid="3497659" user="NKA">
		<tag k="name" v="Nytun" />
		<tag k="place" v="farm" />
		<tag k="ssr:stedsnr" v="863698" />
	</node>
	<node id="9828181963" lat="64.4849721" lon="12.01842" version="1" timestamp="2022-06-18T11:53:09Z" changeset="122543834" uid="3497659" user="NKA">
		<tag k="name" v="Rosten" />
		<tag k="place" v="farm" />
		<tag k="ssr:stedsnr" v="74730" />
	</node>
	<node id="9828181964" lat="64.4780502" lon="12.0153686" version="1" timestamp="2022-06-18T11:53:09Z" changeset="122543834" uid="3497659" user="NKA">
		<tag k="name" v="Foss" />
		<tag k="place" v="farm" />
		<tag k="ssr:stedsnr" v="317733" />
	</node>
	<node id="9828181965" lat="64.4114111" lon="11.8930305" version="1" timestamp="2022-06-18T11:53:09Z" changeset="122543834" uid="3497659" user="NKA">
		<tag k="name" v="Ålvatnet hytteområde" />
		<tag k="place" v="neighbourhood" />
		<tag k="ssr:stedsnr" v="39159" />
	</node>
	<node id="9828181966" lat="64.4822361" lon="11.8192279" version="1" timestamp="2022-06-18T11:53:09Z" changeset="122543834" uid="3497659" user="NKA">
		<tag k="name" v="Tranmyra" />
		<tag k="place" v="farm" />
		<tag k="ssr:stedsnr" v="204419" />
	</node>
	<node id="9828181967" lat="64.4996695" lon="11.7741611" version="1" timestamp="2022-06-18T11:53:09Z" changeset="122543834" uid="3497659" user="NKA">
		<tag k="historic" v="shieling" />
		<tag k="name" v="Steensetran" />
		<tag k="place" v="isolated_dwelling" />
		<tag k="ssr:stedsnr" v="83319" />
	</node>
	<node id="9828181968" lat="64.4444368" lon="11.8155041" version="1" timestamp="2022-06-18T11:53:09Z" changeset="122543834" uid="3497659" user="NKA">
		<tag k="name" v="Hallvardmo" />
		<tag k="place" v="farm" />
		<tag k="ssr:stedsnr" v="568253" />
	</node>
	<node id="9828181969" lat="64.4815226" lon="11.8380596" version="1" timestamp="2022-06-18T11:53:09Z" changeset="122543834" uid="3497659" user="NKA">
		<tag k="name" v="Unnset" />
		<tag k="place" v="farm" />
		<tag k="ssr:stedsnr" v="499774" />
	</node>
	<node id="9828181970" lat="64.487979" lon="11.9971127" version="1" timestamp="2022-06-18T11:53:09Z" changeset="122543834" uid="3497659" user="NKA">
		<tag k="name" v="Grande" />
		<tag k="place" v="farm" />
		<tag k="ssr:stedsnr" v="196746" />
	</node>
	<node id="9828181971" lat="64.4991797" lon="11.8924412" version="1" timestamp="2022-06-18T11:53:09Z" changeset="122543834" uid="3497659" user="NKA">
		<tag k="name" v="Klabbdal" />
		<tag k="place" v="farm" />
		<tag k="ssr:stedsnr" v="560780" />
	</node>
	<node id="9828181972" lat="64.5599833" lon="11.9328389" version="1" timestamp="2022-06-18T11:53:09Z" changeset="122543834" uid="3497659" user="NKA">
		<tag k="name" v="Vestervatnet hytteområde" />
		<tag k="place" v="neighbourhood" />
		<tag k="ssr:stedsnr" v="768214" />
	</node>
	<node id="9828181973" lat="64.5229551" lon="12.0833928" version="1" timestamp="2022-06-18T11:53:09Z" changeset="122543834" uid="3497659" user="NKA">
		<tag k="name" v="Flasnes" />
		<tag k="place" v="hamlet" />
		<tag k="ssr:stedsnr" v="75980" />
	</node>
	<node id="9828181974" lat="64.4618166" lon="11.8176277" version="1" timestamp="2022-06-18T11:53:09Z" changeset="122543834" uid="3497659" user="NKA">
		<tag k="name" v="Myrset" />
		<tag k="place" v="farm" />
		<tag k="ssr:stedsnr" v="559687" />
	</node>
	<node id="9828181975" lat="64.4884404" lon="11.9245472" version="1" timestamp="2022-06-18T11:53:09Z" changeset="122543834" uid="3497659" user="NKA">
		<tag k="name" v="Ner-Veglo" />
		<tag k="place" v="farm" />
		<tag k="ssr:stedsnr" v="75817" />
	</node>
	<node id="9828181976" lat="64.5154888" lon="11.9955865" version="1" timestamp="2022-06-18T11:53:09Z" changeset="122543834" uid="3497659" user="NKA">
		<tag k="name" v="Bjørheim" />
		<tag k="place" v="farm" />
		<tag k="ssr:stedsnr" v="75985" />
	</node>
	<node id="9828181977" lat="64.4926634" lon="12.025422" version="1" timestamp="2022-06-18T11:53:09Z" changeset="122543834" uid="3497659" user="NKA">
		<tag k="name" v="Voll" />
		<tag k="place" v="farm" />
		<tag k="ssr:stedsnr" v="871050" />
	</node>
	<node id="9828181978" lat="64.4968305" lon="11.8433361" version="1" timestamp="2022-06-18T11:53:09Z" changeset="122543834" uid="3497659" user="NKA">
		<tag k="name" v="Rønningan" />
		<tag k="place" v="farm" />
		<tag k="ssr:stedsnr" v="75826" />
	</node>
	<node id="9828181979" lat="64.5180941" lon="11.9834648" version="1" timestamp="2022-06-18T11:53:09Z" changeset="122543834" uid="3497659" user="NKA">
		<tag k="name" v="Lysbakkan" />
		<tag k="place" v="farm" />
		<tag k="ssr:stedsnr" v="14972" />
	</node>
	<node id="9828181980" lat="64.5300791" lon="11.967683" version="1" timestamp="2022-06-18T11:53:09Z" changeset="122543834" uid="3497659" user="NKA">
		<tag k="name" v="Solem" />
		<tag k="place" v="hamlet" />
		<tag k="ssr:stedsnr" v="14943" />
	</node>
	<node id="9828181981" lat="64.5101108" lon="12.0233476" version="1" timestamp="2022-06-18T11:53:09Z" changeset="122543834" uid="3497659" user="NKA">
		<tag k="name" v="Fuglem" />
		<tag k="place" v="farm" />
		<tag k="ssr:stedsnr" v="14994" />
	</node>
	<node id="9828181982" lat="64.4890278" lon="11.9529944" version="1" timestamp="2022-06-18T11:53:09Z" changeset="122543834" uid="3497659" user="NKA">
		<tag k="name" v="Helgemoen" />
		<tag k="place" v="farm" />
		<tag k="ssr:stedsnr" v="864797" />
	</node>
	<node id="9828181983" lat="64.4860647" lon="11.8379284" version="1" timestamp="2022-06-18T11:53:09Z" changeset="122543834" uid="3497659" user="NKA">
		<tag k="name" v="Austbu" />
		<tag k="place" v="farm" />
		<tag k="ssr:stedsnr" v="621781" />
	</node>
	<node id="9828181984" lat="64.4873024" lon="11.9188282" version="1" timestamp="2022-06-18T11:53:09Z" changeset="122543834" uid="3497659" user="NKA">
		<tag k="name" v="Skei" />
		<tag k="place" v="farm" />
		<tag k="ssr:stedsnr" v="14729" />
	</node>
	<node id="9828181985" lat="64.485385" lon="11.8258311" version="1" timestamp="2022-06-18T11:53:09Z" changeset="122543834" uid="3497659" user="NKA">
		<tag k="name" v="Nordbu" />
		<tag k="place" v="farm" />
		<tag k="ssr:stedsnr" v="14727" />
	</node>
	<node id="9828181986" lat="64.5158433" lon="12.0322047" version="1" timestamp="2022-06-18T11:53:09Z" changeset="122543834" uid="3497659" user="NKA">
		<tag k="name" v="Fuglår" />
		<tag k="place" v="farm" />
		<tag k="ssr:stedsnr" v="621971" />
	</node>
	<node id="9828181987" lat="64.46092" lon="11.8207844" version="1" timestamp="2022-06-18T11:53:09Z" changeset="122543834" uid="3497659" user="NKA">
		<tag k="name" v="Langaunet" />
		<tag k="place" v="farm" />
		<tag k="ssr:stedsnr" v="14641" />
	</node>
	<node id="9828181988" lat="64.4498796" lon="11.9545222" version="1" timestamp="2022-06-18T11:53:09Z" changeset="122543834" uid="3497659" user="NKA">
		<tag k="name" v="Grandaunet" />
		<tag k="place" v="farm" />
		<tag k="ssr:stedsnr" v="14674" />
	</node>
	<node id="9828181989" lat="64.5727722" lon="11.9695833" version="1" timestamp="2022-06-18T11:53:09Z" changeset="122543834" uid="3497659" user="NKA">
		<tag k="name" v="Amdalsmyra hytteområde" />
		<tag k="place" v="neighbourhood" />
		<tag k="ssr:stedsnr" v="646214" />
	</node>
	<node id="9828181990" lat="64.446625" lon="11.8645444" version="1" timestamp="2022-06-18T11:53:09Z" changeset="122543834" uid="3497659" user="NKA">
		<tag k="name" v="Hopøya" />
		<tag k="place" v="farm" />
		<tag k="ssr:stedsnr" v="265302" />
	</node>
	<node id="9828181991" lat="64.5195861" lon="12.0458278" version="1" timestamp="2022-06-18T11:53:09Z" changeset="122543834" uid="3497659" user="NKA">
		<tag k="name" v="Granheim" />
		<tag k="place" v="farm" />
		<tag k="ssr:stedsnr" v="933245" />
	</node>
	<node id="9828181992" lat="64.5313323" lon="12.1326539" version="1" timestamp="2022-06-18T11:53:09Z" changeset="122543834" uid="3497659" user="NKA">
		<tag k="name" v="Hyllenget" />
		<tag k="place" v="farm" />
		<tag k="ssr:stedsnr" v="871222" />
	</node>
	<node id="9828181993" lat="64.5049788" lon="12.0129545" version="1" timestamp="2022-06-18T11:53:09Z" changeset="122543834" uid="3497659" user="NKA">
		<tag k="name" v="Skogmo industripark" />
		<tag k="place" v="neighbourhood" />
		<tag k="ssr:stedsnr" v="1077091" />
	</node>
	<node id="9828181994" lat="64.3944556" lon="11.8945028" version="1" timestamp="2022-06-18T11:53:09Z" changeset="122543834" uid="3497659" user="NKA">
		<tag k="name" v="Gløtten" />
		<tag k="place" v="isolated_dwelling" />
		<tag k="ssr:stedsnr" v="208204" />
	</node>
	<node id="9828181995" lat="64.5176656" lon="11.9571185" version="1" timestamp="2022-06-18T11:53:09Z" changeset="122543834" uid="3497659" user="NKA">
		<tag k="name" v="Litl-Amdal" />
		<tag k="place" v="hamlet" />
		<tag k="ssr:stedsnr" v="567125" />
	</node>
	<node id="9828181996" lat="64.4448778" lon="11.8229138" version="1" timestamp="2022-06-18T11:53:09Z" changeset="122543834" uid="3497659" user="NKA">
		<tag k="name" v="Solbakken" />
		<tag k="place" v="farm" />
		<tag k="ssr:stedsnr" v="135710" />
	</node>
	<node id="9828181997" lat="64.4778656" lon="11.74532" version="1" timestamp="2022-06-18T11:53:09Z" changeset="122543834" uid="3497659" user="NKA">
		<tag k="name" v="Reinbjør" />
		<tag k="place" v="farm" />
		<tag k="ssr:stedsnr" v="924736" />
	</node>
	<node id="9828181998" lat="64.5204605" lon="11.9850617" version="1" timestamp="2022-06-18T11:53:09Z" changeset="122543834" uid="3497659" user="NKA">
		<tag k="name" v="Stor-Amdal" />
		<tag k="place" v="hamlet" />
		<tag k="ssr:stedsnr" v="864974" />
	</node>
	<node id="9828181999" lat="64.4917611" lon="11.8107833" version="1" timestamp="2022-06-18T11:53:09Z" changeset="122543834" uid="3497659" user="NKA">
		<tag k="name" v="Kasperberget" />
		<tag k="place" v="farm" />
		<tag k="ssr:stedsnr" v="143482" />
	</node>
	<node id="9828182000" lat="64.4505938" lon="11.8869728" version="1" timestamp="2022-06-18T11:53:09Z" changeset="122543834" uid="3497659" user="NKA">
		<tag k="name" v="Selleg" />
		<tag k="place" v="farm" />
		<tag k="ssr:stedsnr" v="135706" />
	</node>
	<node id="9828182001" lat="64.4764666" lon="12.0562805" version="1" timestamp="2022-06-18T11:53:09Z" changeset="122543834" uid="3497659" user="NKA">
		<tag k="historic" v="shieling" />
		<tag k="name" v="Engstadsetran" />
		<tag k="place" v="isolated_dwelling" />
		<tag k="ssr:stedsnr" v="803805" />
	</node>
	<node id="9828182002" lat="64.4670111" lon="11.762125" version="1" timestamp="2022-06-18T11:53:09Z" changeset="122543834" uid="3497659" user="NKA">
		<tag k="name" v="Lauvli" />
		<tag k="place" v="farm" />
		<tag k="ssr:stedsnr" v="803809" />
	</node>
	<node id="9828182003" lat="64.5149629" lon="12.0182993" version="1" timestamp="2022-06-18T11:53:09Z" changeset="122543834" uid="3497659" user="NKA">
		<tag k="name" v="Bjørnes" />
		<tag k="place" v="hamlet" />
		<tag k="ssr:stedsnr" v="971518" />
	</node>
	<node id="9828182004" lat="64.4953182" lon="11.9142458" version="1" timestamp="2022-06-18T11:53:09Z" changeset="122543834" uid="3497659" user="NKA">
		<tag k="name" v="Barlia" />
		<tag k="place" v="hamlet" />
		<tag k="ssr:stedsnr" v="560787" />
	</node>
	<node id="9828182005" lat="64.404964" lon="11.8111949" version="1" timestamp="2022-06-18T11:53:09Z" changeset="122543834" uid="3497659" user="NKA">
		<tag k="historic" v="shieling" />
		<tag k="name" v="Homstadseter" />
		<tag k="place" v="isolated_dwelling" />
		<tag k="ssr:stedsnr" v="171830" />
	</node>
	<node id="9828182006" lat="64.5267703" lon="11.9758996" version="1" timestamp="2022-06-18T11:53:09Z" changeset="122543834" uid="3497659" user="NKA">
		<tag k="name" v="Moen" />
		<tag k="place" v="farm" />
		<tag k="ssr:stedsnr" v="385108" />
	</node>
	<node id="9828182007" lat="64.3778556" lon="11.7267862" version="1" timestamp="2022-06-18T11:53:09Z" changeset="122543834" uid="3497659" user="NKA">
		<tag k="name" v="Pikhaugsetran" />
		<tag k="place" v="locality" />
		<tag k="ssr:stedsnr" v="438678" />
	</node>
	<node id="9828182008" lat="64.4704416" lon="11.8510267" version="1" timestamp="2022-06-18T11:53:09Z" changeset="122543834" uid="3497659" user="NKA">
		<tag k="name" v="Sørhøy" />
		<tag k="place" v="farm" />
		<tag k="ssr:stedsnr" v="742781" />
	</node>
	<node id="9828182009" lat="64.5028216" lon="12.0023295" version="1" timestamp="2022-06-18T11:53:09Z" changeset="122543834" uid="3497659" user="NKA">
		<tag k="name" v="Roem" />
		<tag k="place" v="farm" />
		<tag k="ssr:stedsnr" v="378903" />
	</node>
	<node id="9828182010" lat="64.5205579" lon="12.0506514" version="1" timestamp="2022-06-18T11:53:09Z" changeset="122543834" uid="3497659" user="NKA">
		<tag k="name" v="Røttesmoen" />
		<tag k="place" v="hamlet" />
		<tag k="ssr:stedsnr" v="925975" />
	</node>
	<node id="9828182011" lat="64.4568916" lon="12.0635638" version="1" timestamp="2022-06-18T11:53:09Z" changeset="122543834" uid="3497659" user="NKA">
		<tag k="name" v="Skjellbredsneset" />
		<tag k="place" v="farm" />
		<tag k="ssr:stedsnr" v="742696" />
	</node>
	<node id="9828182012" lat="64.5203861" lon="11.8836333" version="1" timestamp="2022-06-18T11:53:09Z" changeset="122543834" uid="3497659" user="NKA">
		<tag k="historic" v="shieling" />
		<tag k="name" v="Ballisetran" />
		<tag k="place" v="isolated_dwelling" />
		<tag k="ssr:stedsnr" v="742980" />
	</node>
	<node id="9828182013" lat="64.3605555" lon="11.7312139" version="1" timestamp="2022-06-18T11:53:09Z" changeset="122543834" uid="3497659" user="NKA">
		<tag k="name" v="Gansmosetran" />
		<tag k="place" v="locality" />
		<tag k="ssr:stedsnr" v="959097" />
	</node>
	<node id="9828182014" lat="64.5037339" lon="11.9898586" version="1" timestamp="2022-06-18T11:53:09Z" changeset="122543834" uid="3497659" user="NKA">
		<tag k="name" v="Bjøra" />
		<tag k="place" v="hamlet" />
		<tag k="ssr:stedsnr" v="621984" />
	</node>
	<node id="9828182015" lat="64.5044112" lon="12.0237565" version="1" timestamp="2022-06-18T11:53:09Z" changeset="122543834" uid="3497659" user="NKA">
		<tag k="name" v="Litl-Skogmo" />
		<tag k="place" v="farm" />
		<tag k="ssr:stedsnr" v="621895" />
	</node>
	<node id="9828182016" lat="64.4346207" lon="11.8280105" version="1" timestamp="2022-06-18T11:53:09Z" changeset="122543834" uid="3497659" user="NKA">
		<tag k="name" v="Skogvoll" />
		<tag k="place" v="farm" />
		<tag k="ssr:stedsnr" v="690513" />
	</node>
	<node id="9828182017" lat="64.4702228" lon="11.8682684" version="1" timestamp="2022-06-18T11:53:09Z" changeset="122543834" uid="3497659" user="NKA">
		<tag k="alt_name" v="Tetlien" />
		<tag k="name" v="Tetlia" />
		<tag k="place" v="hamlet" />
		<tag k="ssr:stedsnr" v="559784" />
	</node>
	<node id="9828182018" lat="64.3763833" lon="11.7135862" version="1" timestamp="2022-06-18T11:53:09Z" changeset="122543834" uid="3497659" user="NKA">
		<tag k="name" v="Mætenseter" />
		<tag k="place" v="locality" />
		<tag k="ssr:stedsnr" v="655013" />
	</node>
	<node id="9828182019" lat="64.3997972" lon="11.7278862" version="1" timestamp="2022-06-18T11:53:09Z" changeset="122543834" uid="3497659" user="NKA">
		<tag k="name" v="Krokvasseteran" />
		<tag k="place" v="locality" />
		<tag k="ssr:stedsnr" v="230010" />
	</node>
	<node id="9828182020" lat="64.3669277" lon="11.6976499" version="1" timestamp="2022-06-18T11:53:09Z" changeset="122543834" uid="3497659" user="NKA">
		<tag k="name" v="Hunnasetran" />
		<tag k="place" v="locality" />
		<tag k="ssr:stedsnr" v="109096" />
	</node>
	<node id="9828182021" lat="64.4563683" lon="12.0219708" version="1" timestamp="2022-06-18T11:53:09Z" changeset="122543834" uid="3497659" user="NKA">
		<tag k="name" v="Kattmoen" />
		<tag k="place" v="farm" />
		<tag k="ssr:stedsnr" v="256666" />
	</node>
	<node id="9828182022" lat="64.4907167" lon="11.6449138" version="1" timestamp="2022-06-18T11:53:09Z" changeset="122543834" uid="3497659" user="NKA">
		<tag k="name" v="Ravaldmoen" />
		<tag k="place" v="locality" />
		<tag k="ssr:stedsnr" v="568320" />
	</node>
	<node id="9828182023" lat="64.5314" lon="12.1332249" version="1" timestamp="2022-06-18T11:53:09Z" changeset="122543834" uid="3497659" user="NKA">
		<tag k="name" v="Nordtun" />
		<tag k="place" v="farm" />
		<tag k="ssr:stedsnr" v="803980" />
	</node>
	<node id="9828182024" lat="64.4680962" lon="11.670928" version="1" timestamp="2022-06-18T11:53:09Z" changeset="122543834" uid="3497659" user="NKA">
		<tag k="name" v="Kråkholten" />
		<tag k="place" v="isolated_dwelling" />
		<tag k="ssr:stedsnr" v="499030" />
	</node>
	<node id="9828182025" lat="64.3909862" lon="12.0743111" version="1" timestamp="2022-06-18T11:53:09Z" changeset="122543834" uid="3497659" user="NKA">
		<tag k="name" v="Grytsjøen hytteområde" />
		<tag k="place" v="neighbourhood" />
		<tag k="ssr:stedsnr" v="767178" />
	</node>
	<node id="9828182026" lat="64.3469871" lon="12.0228906" version="1" timestamp="2022-06-18T11:53:09Z" changeset="122543834" uid="3497659" user="NKA">
		<tag k="name" v="Lokangamma" />
		<tag k="place" v="isolated_dwelling" />
		<tag k="ssr:stedsnr" v="403185" />
	</node>
	<node id="9828182027" lat="64.5300391" lon="12.0703229" version="1" timestamp="2022-06-18T11:53:09Z" changeset="122543834" uid="3497659" user="NKA">
		<tag k="name" v="Lysberge" />
		<tag k="place" v="farm" />
		<tag k="ssr:stedsnr" v="742990" />
	</node>
	<node id="9828182028" lat="64.5062803" lon="11.9484478" version="1" timestamp="2022-06-18T11:53:09Z" changeset="122543834" uid="3497659" user="NKA">
		<tag k="name" v="Krabbstufeltet" />
		<tag k="place" v="neighbourhood" />
		<tag k="ssr:stedsnr" v="112898" />
	</node>
	<node id="9828182029" lat="64.5142533" lon="11.9268523" version="1" timestamp="2022-06-18T11:53:09Z" changeset="122543834" uid="3497659" user="NKA">
		<tag k="name" v="Svaliaunet" />
		<tag k="place" v="hamlet" />
		<tag k="ssr:stedsnr" v="76000" />
	</node>
	<node id="9828182030" lat="64.533198" lon="12.1396666" version="1" timestamp="2022-06-18T11:53:09Z" changeset="122543834" uid="3497659" user="NKA">
		<tag k="name" v="Hauknes" />
		<tag k="place" v="farm" />
		<tag k="ssr:stedsnr" v="682979" />
	</node>
	<node id="9828182031" lat="64.5022951" lon="11.6242705" version="1" timestamp="2022-06-18T11:53:09Z" changeset="122543834" uid="3497659" user="NKA">
		<tag k="name" v="Heia" />
		<tag k="place" v="farm" />
		<tag k="ssr:stedsnr" v="257270" />
	</node>
	<node id="9828182032" lat="64.5513608" lon="12.1077621" version="1" timestamp="2022-06-18T11:53:09Z" changeset="122543834" uid="3497659" user="NKA">
		<tag k="name" v="Setran" />
		<tag k="place" v="farm" />
		<tag k="ssr:stedsnr" v="682950" />
	</node>
	<node id="9828182033" lat="64.5384061" lon="12.1391109" version="1" timestamp="2022-06-18T11:53:09Z" changeset="122543834" uid="3497659" user="NKA">
		<tag k="name" v="Galgøfta" />
		<tag k="place" v="hamlet" />
		<tag k="ssr:stedsnr" v="500965" />
	</node>
	<node id="9828182034" lat="64.4849625" lon="11.6496405" version="1" timestamp="2022-06-18T11:53:09Z" changeset="122543834" uid="3497659" user="NKA">
		<tag k="name" v="Framnes" />
		<tag k="place" v="farm" />
		<tag k="ssr:stedsnr" v="74186" />
	</node>
	<node id="9828182035" lat="64.5397472" lon="12.0370973" version="1" timestamp="2022-06-18T11:53:09Z" changeset="122543834" uid="3497659" user="NKA">
		<tag k="historic" v="shieling" />
		<tag k="name" v="Korsengsetran" />
		<tag k="place" v="isolated_dwelling" />
		<tag k="ssr:stedsnr" v="447018" />
	</node>
	<node id="9828182036" lat="64.4864583" lon="11.6579584" version="1" timestamp="2022-06-18T11:53:09Z" changeset="122543834" uid="3497659" user="NKA">
		<tag k="name" v="Myrvoll" />
		<tag k="place" v="farm" />
		<tag k="ssr:stedsnr" v="924179" />
	</node>
	<node id="9828182037" lat="64.4655778" lon="11.9167889" version="1" timestamp="2022-06-18T11:53:09Z" changeset="122543834" uid="3497659" user="NKA">
		<tag k="name" v="Namsvoll" />
		<tag k="place" v="farm" />
		<tag k="ssr:stedsnr" v="438774" />
	</node>
	<node id="9828182038" lat="64.5103778" lon="11.6765639" version="1" timestamp="2022-06-18T11:53:09Z" changeset="122543834" uid="3497659" user="NKA">
		<tag k="name" v="Holsetran" />
		<tag k="place" v="isolated_dwelling" />
		<tag k="ssr:stedsnr" v="439225" />
	</node>
	<node id="9828182039" lat="64.4690792" lon="11.7016699" version="1" timestamp="2022-06-18T11:53:09Z" changeset="122543834" uid="3497659" user="NKA">
		<tag k="name" v="Grytøya" />
		<tag k="place" v="farm" />
		<tag k="ssr:stedsnr" v="802073" />
	</node>
	<node id="9828182040" lat="64.4871527" lon="11.7084779" version="1" timestamp="2022-06-18T11:53:09Z" changeset="122543834" uid="3497659" user="NKA">
		<tag k="name" v="Brann" />
		<tag k="place" v="farm" />
		<tag k="ssr:stedsnr" v="377179" />
	</node>
	<node id="9828182041" lat="64.3503444" lon="11.8168222" version="1" timestamp="2022-06-18T11:53:09Z" changeset="122543834" uid="3497659" user="NKA">
		<tag k="name" v="Hallvardmosetran" />
		<tag k="place" v="isolated_dwelling" />
		<tag k="ssr:stedsnr" v="317531" />
	</node>
	<node id="9828182042" lat="64.4701535" lon="11.917417" version="1" timestamp="2022-06-18T11:53:09Z" changeset="122543834" uid="3497659" user="NKA">
		<tag k="name" v="Gansmoøya" />
		<tag k="place" v="farm" />
		<tag k="ssr:stedsnr" v="377768" />
	</node>
	<node id="9828182043" lat="64.5364545" lon="11.7352757" version="1" timestamp="2022-06-18T11:53:09Z" changeset="122543834" uid="3497659" user="NKA">
		<tag k="name" v="Liasetran" />
		<tag k="place" v="locality" />
		<tag k="ssr:stedsnr" v="864959" />
	</node>
	<node id="9828182044" lat="64.4867515" lon="11.6627095" version="1" timestamp="2022-06-18T11:53:09Z" changeset="122543834" uid="3497659" user="NKA">
		<tag k="name" v="Solli" />
		<tag k="place" v="farm" />
		<tag k="ssr:stedsnr" v="681194" />
	</node>
	<node id="9828182045" lat="64.4762907" lon="11.733397" version="1" timestamp="2022-06-18T11:53:09Z" changeset="122543834" uid="3497659" user="NKA">
		<tag k="name" v="Stranda" />
		<tag k="place" v="farm" />
		<tag k="ssr:stedsnr" v="742736" />
	</node>
	<node id="9828182046" lat="64.4970025" lon="11.9531672" version="1" timestamp="2022-06-18T11:53:09Z" changeset="122543834" uid="3497659" user="NKA">
		<tag k="name" v="Svenning" />
		<tag k="place" v="farm" />
		<tag k="ssr:stedsnr" v="82366" />
	</node>
	<node id="9828182047" lat="64.4918195" lon="11.6894917" version="1" timestamp="2022-06-18T11:53:09Z" changeset="122543834" uid="3497659" user="NKA">
		<tag k="name" v="Kalheimen" />
		<tag k="place" v="locality" />
		<tag k="ssr:stedsnr" v="83298" />
	</node>
	<node id="9828182048" lat="64.4622002" lon="12.0556071" version="1" timestamp="2022-06-18T11:53:09Z" changeset="122543834" uid="3497659" user="NKA">
		<tag k="name" v="Øysletta" />
		<tag k="place" v="quarter" />
		<tag k="ssr:stedsnr" v="256746" />
	</node>
	<node id="9828182049" lat="64.4976816" lon="11.9613268" version="1" timestamp="2022-06-18T11:53:09Z" changeset="122543834" uid="3497659" user="NKA">
		<tag k="name" v="Svenningsmoen" />
		<tag k="place" v="quarter" />
		<tag k="ssr:stedsnr" v="82359" />
	</node>
	<node id="9828182050" lat="64.5638083" lon="11.9539472" version="1" timestamp="2022-06-18T11:53:09Z" changeset="122543834" uid="3497659" user="NKA">
		<tag k="name" v="Himovatnet hytteområde" />
		<tag k="place" v="neighbourhood" />
		<tag k="ssr:stedsnr" v="829204" />
	</node>
	<node id="9828182051" lat="64.4627234" lon="11.8284055" version="1" timestamp="2022-06-18T11:53:09Z" changeset="122543834" uid="3497659" user="NKA">
		<tag k="name" v="Midtun" />
		<tag k="place" v="farm" />
		<tag k="ssr:stedsnr" v="317643" />
	</node>
	<node id="9828182052" lat="64.4606198" lon="11.6809893" version="1" timestamp="2022-06-18T11:53:09Z" changeset="122543834" uid="3497659" user="NKA">
		<tag k="name" v="Øystre Sandmoen" />
		<tag k="place" v="farm" />
		<tag k="ssr:stedsnr" v="508303" />
	</node>
	<node id="9828182053" lat="64.3678944" lon="12.1007416" version="1" timestamp="2022-06-18T11:53:09Z" changeset="122543834" uid="3497659" user="NKA">
		<tag k="name" v="Reinsjøen hytteområde" />
		<tag k="place" v="neighbourhood" />
		<tag k="ssr:stedsnr" v="100179" />
	</node>
	<node id="9828182054" lat="64.4874951" lon="11.9753983" version="1" timestamp="2022-06-18T11:53:09Z" changeset="122543834" uid="3497659" user="NKA">
		<tag k="name" v="Moen" />
		<tag k="place" v="farm" />
		<tag k="ssr:stedsnr" v="689118" />
	</node>
	<node id="9828182055" lat="64.4899999" lon="11.7027237" version="1" timestamp="2022-06-18T11:53:09Z" changeset="122543834" uid="3497659" user="NKA">
		<tag k="name" v="Berg" />
		<tag k="place" v="farm" />
		<tag k="ssr:stedsnr" v="317195" />
	</node>
	<node id="9828182056" lat="64.4617549" lon="12.0526158" version="1" timestamp="2022-06-18T11:53:09Z" changeset="122543834" uid="3497659" user="NKA">
		<tag k="name" v="Lestem" />
		<tag k="place" v="farm" />
		<tag k="ssr:stedsnr" v="135689" />
	</node>
	<node id="9828182057" lat="64.6009306" lon="12.0785167" version="1" timestamp="2022-06-18T11:53:09Z" changeset="122543834" uid="3497659" user="NKA">
		<tag k="name" v="Elgsjøen hytteområde" />
		<tag k="place" v="neighbourhood" />
		<tag k="ssr:stedsnr" v="403181" />
	</node>
	<node id="9828182058" lat="64.5950417" lon="12.0292777" version="1" timestamp="2022-06-18T11:53:09Z" changeset="122543834" uid="3497659" user="NKA">
		<tag k="name" v="Skjørlandssetran" />
		<tag k="place" v="isolated_dwelling" />
		<tag k="ssr:stedsnr" v="500822" />
	</node>
	<node id="9828182059" lat="64.4629862" lon="12.0631862" version="1" timestamp="2022-06-18T11:53:09Z" changeset="122543834" uid="3497659" user="NKA">
		<tag k="name" v="Lestem" />
		<tag k="place" v="farm" />
		<tag k="ssr:stedsnr" v="196777" />
	</node>
	<node id="9828182060" lat="64.4685584" lon="12.0597332" version="1" timestamp="2022-06-18T11:53:09Z" changeset="122543834" uid="3497659" user="NKA">
		<tag k="name" v="Bertnestrappen" />
		<tag k="place" v="locality" />
		<tag k="ssr:stedsnr" v="264040" />
	</node>
	<node id="9828182061" lat="64.4743208" lon="11.7479418" version="1" timestamp="2022-06-18T11:53:09Z" changeset="122543834" uid="3497659" user="NKA">
		<tag k="name" v="Karlsberg" />
		<tag k="place" v="farm" />
		<tag k="ssr:stedsnr" v="924738" />
	</node>
	<node id="9828182062" lat="64.4482917" lon="12.118275" version="1" timestamp="2022-06-18T11:53:09Z" changeset="122543834" uid="3497659" user="NKA">
		<tag k="name" v="Mosetet" />
		<tag k="place" v="locality" />
		<tag k="ssr:stedsnr" v="196695" />
	</node>
	<node id="9828182063" lat="64.4620266" lon="12.0963293" version="1" timestamp="2022-06-18T11:53:09Z" changeset="122543834" uid="3497659" user="NKA">
		<tag k="name" v="Lilleberge" />
		<tag k="place" v="farm" />
		<tag k="ssr:stedsnr" v="196690" />
	</node>
	<node id="9828182064" lat="64.5397973" lon="11.9185111" version="1" timestamp="2022-06-18T11:53:09Z" changeset="122543834" uid="3497659" user="NKA">
		<tag k="historic" v="shieling" />
		<tag k="name" v="Litlamdalssetran" />
		<tag k="place" v="isolated_dwelling" />
		<tag k="ssr:stedsnr" v="811382" />
	</node>
	<node id="9828182065" lat="64.4614644" lon="11.6582996" version="1" timestamp="2022-06-18T11:53:09Z" changeset="122543834" uid="3497659" user="NKA">
		<tag k="name" v="Sållåta" />
		<tag k="place" v="farm" />
		<tag k="ssr:stedsnr" v="196049" />
	</node>
	<node id="9828182066" lat="64.4716882" lon="11.6836582" version="1" timestamp="2022-06-18T11:53:09Z" changeset="122543834" uid="3497659" user="NKA">
		<tag k="name" v="Solheim" />
		<tag k="place" v="farm" />
		<tag k="ssr:stedsnr" v="195044" />
	</node>
	<node id="9828182067" lat="64.5139414" lon="11.985706" version="1" timestamp="2022-06-18T11:53:09Z" changeset="122543834" uid="3497659" user="NKA">
		<tag k="name" v="Kjerstad" />
		<tag k="place" v="farm" />
		<tag k="ssr:stedsnr" v="803995" />
	</node>
	<node id="9828182068" lat="64.4781528" lon="11.8274888" version="1" timestamp="2022-06-18T11:53:09Z" changeset="122543834" uid="3497659" user="NKA">
		<tag k="name" v="Sørbu" />
		<tag k="place" v="farm" />
		<tag k="ssr:stedsnr" v="681813" />
	</node>
	<node id="9828182069" lat="64.4661943" lon="11.8206953" version="1" timestamp="2022-06-18T11:53:09Z" changeset="122543834" uid="3497659" user="NKA">
		<tag k="name" v="Vernhagen" />
		<tag k="place" v="farm" />
		<tag k="ssr:stedsnr" v="559779" />
	</node>
	<node id="9828182070" lat="64.5206537" lon="11.9703731" version="1" timestamp="2022-06-18T11:53:09Z" changeset="122543834" uid="3497659" user="NKA">
		<tag k="name" v="Dal" />
		<tag k="place" v="farm" />
		<tag k="ssr:stedsnr" v="742979" />
	</node>
	<node id="9828182071" lat="64.4891727" lon="11.9668527" version="1" timestamp="2022-06-18T11:53:09Z" changeset="122543834" uid="3497659" user="NKA">
		<tag k="name" v="Hylla" />
		<tag k="place" v="farm" />
		<tag k="ssr:stedsnr" v="742755" />
	</node>
	<node id="9828182072" lat="64.5179543" lon="11.9869171" version="1" timestamp="2022-06-18T11:53:09Z" changeset="122543834" uid="3497659" user="NKA">
		<tag k="name" v="Åsvollen" />
		<tag k="place" v="farm" />
		<tag k="ssr:stedsnr" v="689084" />
	</node>
	<node id="9828182073" lat="64.513" lon="11.8329166" version="1" timestamp="2022-06-18T11:53:09Z" changeset="122543834" uid="3497659" user="NKA">
		<tag k="name" v="Gammelsaga" />
		<tag k="place" v="locality" />
		<tag k="ssr:stedsnr" v="689401" />
	</node>
	<node id="9828182074" lat="64.4833037" lon="11.8212729" version="1" timestamp="2022-06-18T11:53:09Z" changeset="122543834" uid="3497659" user="NKA">
		<tag k="name" v="Elvheim" />
		<tag k="place" v="farm" />
		<tag k="ssr:stedsnr" v="318764" />
	</node>
	<node id="9828182075" lat="64.5296402" lon="11.9809342" version="1" timestamp="2022-06-18T11:53:09Z" changeset="122543834" uid="3497659" user="NKA">
		<tag k="name" v="Solem" />
		<tag k="place" v="farm" />
		<tag k="ssr:stedsnr" v="689085" />
	</node>
	<node id="9828182076" lat="64.5215139" lon="11.985339" version="1" timestamp="2022-06-18T11:53:09Z" changeset="122543834" uid="3497659" user="NKA">
		<tag k="name" v="Amdal" />
		<tag k="place" v="farm" />
		<tag k="ssr:stedsnr" v="512120" />
	</node>
	<node id="9828182077" lat="64.5062852" lon="11.9773218" version="1" timestamp="2022-06-18T11:53:09Z" changeset="122543834" uid="3497659" user="NKA">
		<tag k="name" v="Himo" />
		<tag k="place" v="hamlet" />
		<tag k="ssr:stedsnr" v="682996" />
	</node>
	<node id="9828182078" lat="64.4751682" lon="11.9284482" version="1" timestamp="2022-06-18T11:53:09Z" changeset="122543834" uid="3497659" user="NKA">
		<tag k="name" v="Vibstad" />
		<tag k="place" v="hamlet" />
		<tag k="ssr:stedsnr" v="681805" />
	</node>
	<node id="9828182079" lat="64.4754472" lon="11.7426139" version="1" timestamp="2022-06-18T11:53:09Z" changeset="122543834" uid="3497659" user="NKA">
		<tag k="name" v="Solberg" />
		<tag k="place" v="farm" />
		<tag k="ssr:stedsnr" v="499712" />
	</node>
	<node id="9828182080" lat="64.5048639" lon="12.1014833" version="1" timestamp="2022-06-18T11:53:09Z" changeset="122543834" uid="3497659" user="NKA">
		<tag k="historic" v="shieling" />
		<tag k="name" v="Risviksetran" />
		<tag k="place" v="isolated_dwelling" />
		<tag k="ssr:stedsnr" v="507215" />
	</node>
	<node id="9828182081" lat="64.4784861" lon="11.7111795" version="1" timestamp="2022-06-18T11:53:09Z" changeset="122543834" uid="3497659" user="NKA">
		<tag k="name" v="Gryta" />
		<tag k="place" v="farm" />
		<tag k="ssr:stedsnr" v="438195" />
	</node>
	<node id="9828182082" lat="64.5035256" lon="11.7994632" version="1" timestamp="2022-06-18T11:53:09Z" changeset="122543834" uid="3497659" user="NKA">
		<tag k="name" v="Vanebu" />
		<tag k="place" v="farm" />
		<tag k="ssr:stedsnr" v="385418" />
	</node>
	<node id="9828182083" lat="64.4831488" lon="11.7955319" version="1" timestamp="2022-06-18T11:53:09Z" changeset="122543834" uid="3497659" user="NKA">
		<tag k="name" v="Skiljåsaunet" />
		<tag k="place" v="farm" />
		<tag k="ssr:stedsnr" v="864790" />
	</node>
	<node id="9828182084" lat="64.3765667" lon="11.7797084" version="1" timestamp="2022-06-18T11:53:09Z" changeset="122543834" uid="3497659" user="NKA">
		<tag k="historic" v="shieling" />
		<tag k="name" v="Erikheimen" />
		<tag k="place" v="isolated_dwelling" />
		<tag k="ssr:stedsnr" v="742649" />
	</node>
	<node id="9828182085" lat="64.5209083" lon="11.8053472" version="1" timestamp="2022-06-18T11:53:09Z" changeset="122543834" uid="3497659" user="NKA">
		<tag k="historic" v="shieling" />
		<tag k="name" v="Øystre Vanebusetran" />
		<tag k="place" v="isolated_dwelling" />
		<tag k="ssr:stedsnr" v="266445" />
	</node>
	<node id="9828182086" lat="64.5135056" lon="11.9734651" version="1" timestamp="2022-06-18T11:53:09Z" changeset="122543834" uid="3497659" user="NKA">
		<tag k="name" v="Olstad" />
		<tag k="place" v="farm" />
		<tag k="ssr:stedsnr" v="257996" />
	</node>
	<node id="9828182087" lat="64.4182861" lon="12.0580916" version="1" timestamp="2022-06-18T11:53:09Z" changeset="122543834" uid="3497659" user="NKA">
		<tag k="name" v="Tømmersjøen hytteområde" />
		<tag k="place" v="neighbourhood" />
		<tag k="ssr:stedsnr" v="889205" />
	</node>
	<node id="9828182088" lat="64.435483" lon="12.0926167" version="1" timestamp="2022-06-18T11:53:09Z" changeset="122543834" uid="3497659" user="NKA">
		<tag k="name" v="Haustsetran" />
		<tag k="place" v="farm" />
		<tag k="ssr:stedsnr" v="412151" />
	</node>
	<node id="9828182089" lat="64.4096833" lon="11.9807084" version="1" timestamp="2022-06-18T11:53:09Z" changeset="122543834" uid="3497659" user="NKA">
		<tag k="historic" v="shieling" />
		<tag k="name" v="Steinssetran" />
		<tag k="place" v="isolated_dwelling" />
		<tag k="ssr:stedsnr" v="499576" />
	</node>
	<node id="9828182090" lat="64.4555805" lon="12.051622" version="1" timestamp="2022-06-18T11:53:09Z" changeset="122543834" uid="3497659" user="NKA">
		<tag k="name" v="Heglem" />
		<tag k="place" v="farm" />
		<tag k="ssr:stedsnr" v="377679" />
	</node>
	<node id="9828182091" lat="64.489572" lon="11.9221886" version="1" timestamp="2022-06-18T11:53:09Z" changeset="122543834" uid="3497659" user="NKA">
		<tag k="name" v="Øver-Veglo" />
		<tag k="place" v="farm" />
		<tag k="ssr:stedsnr" v="385436" />
	</node>
	<node id="9828182092" lat="64.4954681" lon="11.8860511" version="1" timestamp="2022-06-18T11:53:09Z" changeset="122543834" uid="3497659" user="NKA">
		<tag k="name" v="Tødåsen" />
		<tag k="place" v="farm" />
		<tag k="ssr:stedsnr" v="439789" />
	</node>
	<node id="9828182093" lat="64.4751129" lon="12.0388288" version="1" timestamp="2022-06-18T11:53:09Z" changeset="122543834" uid="3497659" user="NKA">
		<tag k="name" v="Engstad" />
		<tag k="place" v="farm" />
		<tag k="ssr:stedsnr" v="924780" />
	</node>
	<node id="9828182094" lat="64.3692139" lon="11.9358888" version="1" timestamp="2022-06-18T11:53:09Z" changeset="122543834" uid="3497659" user="NKA">
		<tag k="name" v="Rognvatnet hytteområde" />
		<tag k="place" v="neighbourhood" />
		<tag k="ssr:stedsnr" v="403175" />
	</node>
	<node id="9828182095" lat="64.3706972" lon="12.1482584" version="1" timestamp="2022-06-18T11:53:09Z" changeset="122543834" uid="3497659" user="NKA">
		<tag k="historic" v="shieling" />
		<tag k="name" v="Bjørklisetran" />
		<tag k="place" v="isolated_dwelling" />
		<tag k="ssr:stedsnr" v="620645" />
	</node>
	<node id="9828182096" lat="64.4589439" lon="11.7432315" version="1" timestamp="2022-06-18T11:53:09Z" changeset="122543834" uid="3497659" user="NKA">
		<tag k="name" v="Førrineset" />
		<tag k="place" v="farm" />
		<tag k="ssr:stedsnr" v="690297" />
	</node>
	<node id="9828182097" lat="64.4607094" lon="12.0346877" version="1" timestamp="2022-06-18T11:53:09Z" changeset="122543834" uid="3497659" user="NKA">
		<tag k="name" v="Klykkja" />
		<tag k="place" v="farm" />
		<tag k="ssr:stedsnr" v="924675" />
	</node>
	<node id="9828182098" lat="64.5209315" lon="12.0338418" version="1" timestamp="2022-06-18T11:53:09Z" changeset="122543834" uid="3497659" user="NKA">
		<tag k="name" v="Storneset" />
		<tag k="place" v="farm" />
		<tag k="ssr:stedsnr" v="810245" />
	</node>
	<node id="9828182099" lat="64.4621333" lon="11.9815556" version="1" timestamp="2022-06-18T11:53:09Z" changeset="122543834" uid="3497659" user="NKA">
		<tag k="historic" v="shieling" />
		<tag k="name" v="Fossetran" />
		<tag k="place" v="isolated_dwelling" />
		<tag k="ssr:stedsnr" v="810125" />
	</node>
	<node id="9828182100" lat="64.4530722" lon="12.0950472" version="1" timestamp="2022-06-18T11:53:09Z" changeset="122543834" uid="3497659" user="NKA">
		<tag k="name" v="Mortensmoen" />
		<tag k="place" v="locality" />
		<tag k="ssr:stedsnr" v="810063" />
	</node>
	<node id="9828182101" lat="64.4581604" lon="12.0616" version="1" timestamp="2022-06-18T11:53:09Z" changeset="122543834" uid="3497659" user="NKA">
		<tag k="name" v="Skjellbred" />
		<tag k="place" v="farm" />
		<tag k="ssr:stedsnr" v="803702" />
	</node>
	<node id="9828182102" lat="64.4931074" lon="11.9440527" version="1" timestamp="2022-06-18T11:53:09Z" changeset="122543834" uid="3497659" user="NKA">
		<tag k="name" v="Hildrem" />
		<tag k="place" v="farm" />
		<tag k="ssr:stedsnr" v="682826" />
	</node>
	<node id="9828182103" lat="64.5225111" lon="12.0638667" version="1" timestamp="2022-06-18T11:53:09Z" changeset="122543834" uid="3497659" user="NKA">
		<tag k="name" v="Justmoen" />
		<tag k="place" v="farm" />
		<tag k="ssr:stedsnr" v="689016" />
	</node>
	<node id="9828182104" lat="64.4837678" lon="11.8719214" version="1" timestamp="2022-06-18T11:53:09Z" changeset="122543834" uid="3497659" user="NKA">
		<tag k="name" v="Rygg" />
		<tag k="place" v="hamlet" />
		<tag k="ssr:stedsnr" v="682816" />
	</node>
	<node id="9828182105" lat="64.4435832" lon="11.9505982" version="1" timestamp="2022-06-18T11:53:09Z" changeset="122543834" uid="3497659" user="NKA">
		<tag k="name" v="Elverum" />
		<tag k="place" v="farm" />
		<tag k="ssr:stedsnr" v="681743" />
	</node>
	<node id="9828182106" lat="64.4640528" lon="12.0494639" version="1" timestamp="2022-06-18T11:53:09Z" changeset="122543834" uid="3497659" user="NKA">
		<tag k="name" v="Vangsnes" />
		<tag k="place" v="farm" />
		<tag k="ssr:stedsnr" v="742770" />
	</node>
	<node id="9828182107" lat="64.5294404" lon="12.0830026" version="1" timestamp="2022-06-18T11:53:09Z" changeset="122543834" uid="3497659" user="NKA">
		<tag k="name" v="Svanos" />
		<tag k="place" v="farm" />
		<tag k="ssr:stedsnr" v="143022" />
	</node>
	<node id="9828182108" lat="64.4392979" lon="11.8234666" version="1" timestamp="2022-06-18T11:53:09Z" changeset="122543834" uid="3497659" user="NKA">
		<tag k="name" v="Homstad" />
		<tag k="place" v="farm" />
		<tag k="ssr:stedsnr" v="681731" />
	</node>
	<node id="9828182109" lat="64.6132639" lon="12.0573167" version="1" timestamp="2022-06-18T11:53:09Z" changeset="122543834" uid="3497659" user="NKA">
		<tag k="name" v="Nevervatnet hytteområde" />
		<tag k="place" v="neighbourhood" />
		<tag k="ssr:stedsnr" v="39160" />
	</node>
	<node id="9828182110" lat="64.5257024" lon="12.07838" version="1" timestamp="2022-06-18T11:53:09Z" changeset="122543834" uid="3497659" user="NKA">
		<tag k="name" v="Gløymem" />
		<tag k="place" v="farm" />
		<tag k="ssr:stedsnr" v="143002" />
	</node>
	<node id="9828182111" lat="64.5277124" lon="12.0377329" version="1" timestamp="2022-06-18T11:53:09Z" changeset="122543834" uid="3497659" user="NKA">
		<tag k="name" v="Skjørland" />
		<tag k="place" v="hamlet" />
		<tag k="ssr:stedsnr" v="75996" />
	</node>
	<node id="9828182112" lat="64.489242" lon="12.0293436" version="1" timestamp="2022-06-18T11:53:09Z" changeset="122543834" uid="3497659" user="NKA">
		<tag k="name" v="Melhus" />
		<tag k="place" v="farm" />
		<tag k="ssr:stedsnr" v="499724" />
	</node>
	<node id="9828182113" lat="64.4697322" lon="12.0509802" version="1" timestamp="2022-06-18T11:53:09Z" changeset="122543834" uid="3497659" user="NKA">
		<tag k="name" v="Bertnem" />
		<tag k="place" v="farm" />
		<tag k="ssr:stedsnr" v="499749" />
	</node>
	<node id="9828182114" lat="64.5058445" lon="12.073289" version="1" timestamp="2022-06-18T11:53:09Z" changeset="122543834" uid="3497659" user="NKA">
		<tag k="historic" v="shieling" />
		<tag k="name" v="Flasnessetran" />
		<tag k="place" v="isolated_dwelling" />
		<tag k="ssr:stedsnr" v="22227" />
	</node>
	<node id="9828182115" lat="64.3712139" lon="11.833786" version="1" timestamp="2022-06-18T11:53:09Z" changeset="122543834" uid="3497659" user="NKA">
		<tag k="name" v="Vesteråvatna hytteområde" />
		<tag k="place" v="neighbourhood" />
		<tag k="ssr:stedsnr" v="666756" />
	</node>
	<node id="9828182116" lat="64.4513352" lon="11.8524263" version="1" timestamp="2022-06-18T11:53:09Z" changeset="122543834" uid="3497659" user="NKA">
		<tag k="name" v="Fagerli" />
		<tag k="place" v="farm" />
		<tag k="ssr:stedsnr" v="499668" />
	</node>
	<node id="9828182117" lat="64.4811211" lon="11.8327041" version="1" timestamp="2022-06-18T11:53:09Z" changeset="122543834" uid="3497659" user="NKA">
		<tag k="name" v="Langeng" />
		<tag k="place" v="farm" />
		<tag k="ssr:stedsnr" v="447448" />
	</node>
	<node id="9828182118" lat="64.374559" lon="11.8302375" version="1" timestamp="2022-06-18T11:53:09Z" changeset="122543834" uid="3497659" user="NKA">
		<tag k="historic" v="shieling" />
		<tag k="name" v="Rundasetran" />
		<tag k="place" v="isolated_dwelling" />
		<tag k="ssr:stedsnr" v="595856" />
	</node>
	<node id="9828182119" lat="64.4696457" lon="11.7486853" version="1" timestamp="2022-06-18T11:53:09Z" changeset="122543834" uid="3497659" user="NKA">
		<tag k="name" v="Skage" />
		<tag k="place" v="quarter" />
		<tag k="ssr:stedsnr" v="438752" />
	</node>
	<node id="9828182120" lat="64.5369148" lon="11.7343969" version="1" timestamp="2022-06-18T11:53:09Z" changeset="122543834" uid="3497659" user="NKA">
		<tag k="name" v="Liaseterbua" />
		<tag k="place" v="isolated_dwelling" />
		<tag k="ssr:stedsnr" v="403162" />
	</node>
	<node id="9828182121" lat="64.5190929" lon="12.0973914" version="1" timestamp="2022-06-18T11:53:09Z" changeset="122543834" uid="3497659" user="NKA">
		<tag k="name" v="Risvika" />
		<tag k="place" v="hamlet" />
		<tag k="ssr:stedsnr" v="378967" />
	</node>
	<node id="9828182122" lat="64.5235388" lon="11.8891135" version="1" timestamp="2022-06-18T11:53:09Z" changeset="122543834" uid="3497659" user="NKA">
		<tag k="name" v="Svalisetran" />
		<tag k="place" v="locality" />
		<tag k="ssr:stedsnr" v="499982" />
	</node>
	<node id="9828182123" lat="64.4460154" lon="11.7889065" version="1" timestamp="2022-06-18T11:53:09Z" changeset="122543834" uid="3497659" user="NKA">
		<tag k="name" v="Fornes" />
		<tag k="place" v="farm" />
		<tag k="ssr:stedsnr" v="499671" />
	</node>
	<node id="9828182124" lat="64.5172195" lon="11.9469716" version="1" timestamp="2022-06-18T11:53:09Z" changeset="122543834" uid="3497659" user="NKA">
		<tag k="name" v="Lian" />
		<tag k="place" v="farm" />
		<tag k="ssr:stedsnr" v="135968" />
	</node>
	<node id="9828182125" lat="64.4453323" lon="11.8061386" version="1" timestamp="2022-06-18T11:53:09Z" changeset="122543834" uid="3497659" user="NKA">
		<tag k="name" v="Skogvang" />
		<tag k="place" v="farm" />
		<tag k="ssr:stedsnr" v="326251" />
	</node>
	<node id="9828182126" lat="64.4980022" lon="11.8073329" version="1" timestamp="2022-06-18T11:53:09Z" changeset="122543834" uid="3497659" user="NKA">
		<tag k="name" v="Svebakkan" />
		<tag k="place" v="farm" />
		<tag k="ssr:stedsnr" v="135827" />
	</node>
	<node id="9828182127" lat="64.4728945" lon="11.8140639" version="1" timestamp="2022-06-18T11:53:09Z" changeset="122543834" uid="3497659" user="NKA">
		<tag k="name" v="Vestmyr" />
		<tag k="place" v="farm" />
		<tag k="ssr:stedsnr" v="135785" />
	</node>
	<node id="9828182128" lat="64.4907223" lon="11.8627857" version="1" timestamp="2022-06-18T11:53:09Z" changeset="122543834" uid="3497659" user="NKA">
		<tag k="name" v="Blengslia" />
		<tag k="place" v="farm" />
		<tag k="ssr:stedsnr" v="265460" />
	</node>
	<node id="9828182129" lat="64.4629556" lon="12.0484999" version="1" timestamp="2022-06-18T11:53:09Z" changeset="122543834" uid="3497659" user="NKA">
		<tag k="name" v="Møklegård" />
		<tag k="place" v="farm" />
		<tag k="ssr:stedsnr" v="264052" />
	</node>
	<node id="9828182130" lat="64.4588497" lon="12.0671447" version="1" timestamp="2022-06-18T11:53:09Z" changeset="122543834" uid="3497659" user="NKA">
		<tag k="name" v="Øy" />
		<tag k="place" v="hamlet" />
		<tag k="ssr:stedsnr" v="14669" />
	</node>
	<node id="9828182131" lat="64.4429081" lon="11.7787395" version="1" timestamp="2022-06-18T11:53:09Z" changeset="122543834" uid="3497659" user="NKA">
		<tag k="name" v="Åsvang" />
		<tag k="place" v="farm" />
		<tag k="ssr:stedsnr" v="872312" />
	</node>
	<node id="9828182132" lat="64.4808083" lon="11.7537499" version="1" timestamp="2022-06-18T11:53:09Z" changeset="122543834" uid="3497659" user="NKA">
		<tag k="name" v="Hansheimen" />
		<tag k="place" v="locality" />
		<tag k="ssr:stedsnr" v="872309" />
	</node>
	<node id="9828182133" lat="64.4997278" lon="11.6633583" version="1" timestamp="2022-06-18T11:53:09Z" changeset="122543834" uid="3497659" user="NKA">
		<tag k="name" v="Fjellkleiva" />
		<tag k="place" v="locality" />
		<tag k="ssr:stedsnr" v="750253" />
	</node>
	<node id="9828182134" lat="64.4716007" lon="11.7922744" version="1" timestamp="2022-06-18T11:53:09Z" changeset="122543834" uid="3497659" user="NKA">
		<tag k="name" v="Heimstad" />
		<tag k="place" v="farm" />
		<tag k="ssr:stedsnr" v="742789" />
	</node>
	<node id="9828182135" lat="64.5269028" lon="11.770686" version="1" timestamp="2022-06-18T11:53:09Z" changeset="122543834" uid="3497659" user="NKA">
		<tag k="name" v="Finnhusa" />
		<tag k="place" v="locality" />
		<tag k="ssr:stedsnr" v="593396" />
	</node>
	<node id="9828182136" lat="64.4397455" lon="11.7891192" version="1" timestamp="2022-06-18T11:53:09Z" changeset="122543834" uid="3497659" user="NKA">
		<tag k="name" v="Horka" />
		<tag k="place" v="farm" />
		<tag k="ssr:stedsnr" v="864743" />
	</node>
	<node id="9828182137" lat="64.5251253" lon="11.8212753" version="1" timestamp="2022-06-18T11:53:09Z" changeset="122543834" uid="3497659" user="NKA">
		<tag k="name" v="Haklisetran" />
		<tag k="place" v="locality" />
		<tag k="ssr:stedsnr" v="75987" />
	</node>
	<node id="9828182138" lat="64.5108695" lon="11.7656639" version="1" timestamp="2022-06-18T11:53:09Z" changeset="122543834" uid="3497659" user="NKA">
		<tag k="name" v="Hammersetran" />
		<tag k="place" v="isolated_dwelling" />
		<tag k="ssr:stedsnr" v="864986" />
	</node>
	<node id="9828182139" lat="64.4639543" lon="11.7863634" version="1" timestamp="2022-06-18T11:53:09Z" changeset="122543834" uid="3497659" user="NKA">
		<tag k="name" v="Nørdstvollen" />
		<tag k="place" v="farm" />
		<tag k="ssr:stedsnr" v="863692" />
	</node>
	<node id="9828182140" lat="64.3937195" lon="11.80525" version="1" timestamp="2022-06-18T11:53:09Z" changeset="122543834" uid="3497659" user="NKA">
		<tag k="name" v="Oksvatnet hytteområde" />
		<tag k="place" v="neighbourhood" />
		<tag k="ssr:stedsnr" v="707224" />
	</node>
	<node id="9828182141" lat="64.4471709" lon="11.8053266" version="1" timestamp="2022-06-18T11:53:09Z" changeset="122543834" uid="3497659" user="NKA">
		<tag k="name" v="Solstad" />
		<tag k="place" v="farm" />
		<tag k="ssr:stedsnr" v="863701" />
	</node>
	<node id="9828182142" lat="64.4769959" lon="11.860174" version="1" timestamp="2022-06-18T11:53:09Z" changeset="122543834" uid="3497659" user="NKA">
		<tag k="name" v="Kvalstad" />
		<tag k="place" v="farm" />
		<tag k="ssr:stedsnr" v="256770" />
	</node>
	<node id="9828182143" lat="64.47595" lon="11.8374417" version="1" timestamp="2022-06-18T11:53:09Z" changeset="122543834" uid="3497659" user="NKA">
		<tag k="name" v="Nyheim" />
		<tag k="place" v="farm" />
		<tag k="ssr:stedsnr" v="499775" />
	</node>
	<node id="9828182144" lat="64.4603847" lon="11.8109788" version="1" timestamp="2022-06-18T11:53:09Z" changeset="122543834" uid="3497659" user="NKA">
		<tag k="name" v="Langmo" />
		<tag k="place" v="farm" />
		<tag k="ssr:stedsnr" v="256663" />
	</node>
	<node id="9828182145" lat="64.4389083" lon="11.7857361" version="1" timestamp="2022-06-18T11:53:09Z" changeset="122543834" uid="3497659" user="NKA">
		<tag k="name" v="Stenerhaugen" />
		<tag k="place" v="locality" />
		<tag k="ssr:stedsnr" v="204218" />
	</node>
	<node id="9828182146" lat="64.4501745" lon="11.7558331" version="1" timestamp="2022-06-18T11:53:09Z" changeset="122543834" uid="3497659" user="NKA">
		<tag k="name" v="Førri" />
		<tag k="place" v="farm" />
		<tag k="ssr:stedsnr" v="559695" />
	</node>
	<node id="9828182147" lat="64.5036466" lon="11.8017914" version="1" timestamp="2022-06-18T11:53:09Z" changeset="122543834" uid="3497659" user="NKA">
		<tag k="name" v="Værnbua" />
		<tag k="place" v="hamlet" />
		<tag k="ssr:stedsnr" v="500987" />
	</node>
	<node id="9828182148" lat="64.5099649" lon="11.8463849" version="1" timestamp="2022-06-18T11:53:09Z" changeset="122543834" uid="3497659" user="NKA">
		<tag k="name" v="Litlengdalssetran" />
		<tag k="place" v="locality" />
		<tag k="ssr:stedsnr" v="560999" />
	</node>
	<node id="9828182149" lat="64.4802276" lon="11.7988309" version="1" timestamp="2022-06-18T11:53:09Z" changeset="122543834" uid="3497659" user="NKA">
		<tag k="name" v="Skiljås" />
		<tag k="place" v="hamlet" />
		<tag k="ssr:stedsnr" v="559750" />
	</node>
	<node id="9828182150" lat="64.5178555" lon="11.85595" version="1" timestamp="2022-06-18T11:53:09Z" changeset="122543834" uid="3497659" user="NKA">
		<tag k="name" v="Klabbdalssetran" />
		<tag k="place" v="locality" />
		<tag k="ssr:stedsnr" v="621975" />
	</node>
	<node id="9828182151" lat="64.5222361" lon="11.7866861" version="1" timestamp="2022-06-18T11:53:09Z" changeset="122543834" uid="3497659" user="NKA">
		<tag k="name" v="Værnbusetran" />
		<tag k="place" v="locality" />
		<tag k="ssr:stedsnr" v="621977" />
	</node>
	<node id="9828182152" lat="64.481445" lon="11.7077475" version="1" timestamp="2022-06-18T11:53:09Z" changeset="122543834" uid="3497659" user="NKA">
		<tag k="name" v="Omla" />
		<tag k="place" v="farm" />
		<tag k="ssr:stedsnr" v="499157" />
	</node>
	<node id="9828182153" lat="64.5222165" lon="11.7870304" version="1" timestamp="2022-06-18T11:53:09Z" changeset="122543834" uid="3497659" user="NKA">
		<tag k="historic" v="shieling" />
		<tag k="name" v="Vestre Vanebusetran" />
		<tag k="place" v="isolated_dwelling" />
		<tag k="ssr:stedsnr" v="508449" />
	</node>
	<node id="9828182154" lat="64.5058249" lon="11.7491881" version="1" timestamp="2022-06-18T11:53:09Z" changeset="122543834" uid="3497659" user="NKA">
		<tag k="name" v="Koltjønnhytta" />
		<tag k="place" v="isolated_dwelling" />
		<tag k="ssr:stedsnr" v="343172" />
	</node>
	<node id="9828182155" lat="64.4376639" lon="11.7789416" version="1" timestamp="2022-06-18T11:53:09Z" changeset="122543834" uid="3497659" user="NKA">
		<tag k="name" v="Budalen" />
		<tag k="place" v="locality" />
		<tag k="ssr:stedsnr" v="629333" />
	</node>
	<node id="9828182156" lat="64.5253722" lon="11.8747222" version="1" timestamp="2022-06-18T11:53:09Z" changeset="122543834" uid="3497659" user="NKA">
		<tag k="historic" v="shieling" />
		<tag k="name" v="Ballisetran" />
		<tag k="place" v="isolated_dwelling" />
		<tag k="ssr:stedsnr" v="219769" />
	</node>
	<node id="9828182157" lat="64.5104806" lon="11.7730444" version="1" timestamp="2022-06-18T11:53:09Z" changeset="122543834" uid="3497659" user="NKA">
		<tag k="name" v="Værnbuvatnet hytteområde" />
		<tag k="place" v="neighbourhood" />
		<tag k="ssr:stedsnr" v="222187" />
	</node>
	<node id="9828182158" lat="64.4527944" lon="11.8063249" version="1" timestamp="2022-06-18T11:53:09Z" changeset="122543834" uid="3497659" user="NKA">
		<tag k="name" v="Furu" />
		<tag k="place" v="farm" />
		<tag k="ssr:stedsnr" v="620682" />
	</node>
	<node id="9828182159" lat="64.5078064" lon="11.8651429" version="1" timestamp="2022-06-18T11:53:09Z" changeset="122543834" uid="3497659" user="NKA">
		<tag k="historic" v="shieling" />
		<tag k="name" v="Åsensetran" />
		<tag k="place" v="isolated_dwelling" />
		<tag k="ssr:stedsnr" v="82410" />
	</node>
	<node id="9828182160" lat="64.3712695" lon="11.7502306" version="1" timestamp="2022-06-18T11:53:09Z" changeset="122543834" uid="3497659" user="NKA">
		<tag k="name" v="Gosen" />
		<tag k="place" v="isolated_dwelling" />
		<tag k="ssr:stedsnr" v="291092" />
	</node>
	<node id="9828182161" lat="64.5122889" lon="11.6672278" version="1" timestamp="2022-06-18T11:53:09Z" changeset="122543834" uid="3497659" user="NKA">
		<tag k="name" v="Aunasetran" />
		<tag k="place" v="locality" />
		<tag k="ssr:stedsnr" v="378136" />
	</node>
	<node id="9828182162" lat="64.4946972" lon="11.634211" version="1" timestamp="2022-06-18T11:53:09Z" changeset="122543834" uid="3497659" user="NKA">
		<tag k="name" v="Ystenget" />
		<tag k="place" v="locality" />
		<tag k="ssr:stedsnr" v="265336" />
	</node>
	<node id="9828182163" lat="64.4598389" lon="11.717439" version="1" timestamp="2022-06-18T11:53:09Z" changeset="122543834" uid="3497659" user="NKA">
		<tag k="name" v="Grønmoen" />
		<tag k="place" v="farm" />
		<tag k="ssr:stedsnr" v="377059" />
	</node>
	<node id="9828182164" lat="64.5188429" lon="11.6939673" version="1" timestamp="2022-06-18T11:53:09Z" changeset="122543834" uid="3497659" user="NKA">
		<tag k="name" v="Larssetran" />
		<tag k="place" v="isolated_dwelling" />
		<tag k="ssr:stedsnr" v="317133" />
	</node>
	<node id="9828182165" lat="64.4567916" lon="11.7415916" version="1" timestamp="2022-06-18T11:53:09Z" changeset="122543834" uid="3497659" user="NKA">
		<tag k="name" v="Amundmoen" />
		<tag k="place" v="locality" />
		<tag k="ssr:stedsnr" v="143264" />
	</node>
	<node id="9828182166" lat="64.3945722" lon="11.7944305" version="1" timestamp="2022-06-18T11:53:09Z" changeset="122543834" uid="3497659" user="NKA">
		<tag k="historic" v="shieling" />
		<tag k="name" v="Homstadseter" />
		<tag k="place" v="isolated_dwelling" />
		<tag k="ssr:stedsnr" v="87698" />
	</node>
	<node id="9828182167" lat="64.4629368" lon="11.9093355" version="1" timestamp="2022-06-18T11:53:09Z" changeset="122543834" uid="3497659" user="NKA">
		<tag k="name" v="Gansmo" />
		<tag k="place" v="farm" />
		<tag k="ssr:stedsnr" v="438701" />
	</node>
	<node id="9828182168" lat="64.3240945" lon="12.0066001" version="1" timestamp="2022-06-18T11:53:09Z" changeset="122543834" uid="3497659" user="NKA">
		<tag k="name" v="Midter-Bangsjøen hytteområde" />
		<tag k="place" v="neighbourhood" />
		<tag k="ssr:stedsnr" v="829186" />
	</node>
	<node id="9828182169" lat="64.351875" lon="11.708314" version="1" timestamp="2022-06-18T11:53:09Z" changeset="122543834" uid="3497659" user="NKA">
		<tag k="name" v="Ristadsetran" />
		<tag k="place" v="locality" />
		<tag k="ssr:stedsnr" v="776090" />
	</node>
	<node id="9828182170" lat="64.4558841" lon="12.0929724" version="1" timestamp="2022-06-18T11:53:09Z" changeset="122543834" uid="3497659" user="NKA">
		<tag k="name" v="Skistad" />
		<tag k="place" v="hamlet" />
		<tag k="ssr:stedsnr" v="689056" />
	</node>
	<node id="2354934506" lat="64.4180586" lon="11.9860048" version="2" timestamp="2013-06-21T16:18:02Z" changeset="16646033" uid="1556391" user="relet" />
	<node id="2354934507" lat="64.4249213" lon="11.9916907" version="2" timestamp="2013-06-21T16:18:02Z" changeset="16646033" uid="1556391" user="relet" />
	<node id="2354935107" lat="64.4210726" lon="11.9903699" version="1" timestamp="2013-06-21T16:18:01Z" changeset="16646033" uid="1556391" user="relet" />
	<node id="2354935108" lat="64.4241853" lon="11.9918026" version="1" timestamp="2013-06-21T16:18:02Z" changeset="16646033" uid="1556391" user="relet" />
	<node id="2354935109" lat="64.4198289" lon="11.987719" version="1" timestamp="2013-06-21T16:18:02Z" changeset="16646033" uid="1556391" user="relet" />
	<way id="226738899" version="3" timestamp="2018-05-02T17:09:22Z" changeset="58620907" uid="3497659" user="NKA">
		<tag k="name" v="Flyåa" />
		<tag k="source" v="Kartverket" />
		<tag k="ssr:stedsnr" v="135722" />
		<tag k="waterway" v="river" />
		<nd ref="2354934506" />
		<nd ref="2354935109" />
		<nd ref="2354935107" />
		<nd ref="2354935108" />
		<nd ref="2354934507" />
	</way>
</osm>
