<?xml version="1.0" encoding="UTF-8"?>
<osm generator="osmapis" version="0.6">
	<node id="-584480" lat="62.6936083335" lon="7.9814611075">
		<tag k="name" v="Øygardsvegen" />
		<tag k="ssr:date" v="2016-05-10" />
		<tag k="ssr:gruppe" v="veg" />
		<tag k="ssr:hovedgruppe" v="infrastruktur" />
		<tag k="ssr:stedsnr" v="98892" />
		<tag k="ssr:type" v="vegstrekning" />
	</node>
	<node id="-585661" lat="62.7950694442" lon="8.28538610304">
		<tag k="name" v="Meløy" />
		<tag k="ssr:date" v="2016-05-11" />
		<tag k="ssr:gruppe" v="navigasjon" />
		<tag k="ssr:hovedgruppe" v="infrastruktur" />
		<tag k="ssr:stedsnr" v="716557" />
		<tag k="ssr:type" v="fyrlykt" />
	</node>
	<node id="-585972" lat="62.7171194448" lon="8.12205277852">
		<tag k="name" v="Eresfjorden" />
		<tag k="ssr:date" v="2016-05-11" />
		<tag k="ssr:gruppe" v="navigasjon" />
		<tag k="ssr:hovedgruppe" v="infrastruktur" />
		<tag k="ssr:stedsnr" v="840890" />
		<tag k="ssr:type" v="fyrlykt" />
	</node>
	<node id="-584531" lat="62.7761805581" lon="8.06623611245">
		<tag k="name" v="Nesset kommune" />
		<tag k="ssr:date" v="2016-05-10" />
		<tag k="ssr:gruppe" v="administrativeIndelinger" />
		<tag k="ssr:hovedgruppe" v="offentligAdministrasjon" />
		<tag k="ssr:stedsnr" v="268589" />
		<tag k="ssr:type" v="kommune" />
	</node>
	<node id="-586194" lat="60.8816104596" lon="6.30047518531">
		<tag k="name" v="Vestlandet" />
		<tag k="ssr:date" v="2019-01-06" />
		<tag k="ssr:gruppe" v="administrativeIndelinger" />
		<tag k="ssr:hovedgruppe" v="offentligAdministrasjon" />
		<tag k="ssr:stedsnr" v="974777" />
		<tag k="ssr:type" v="annenAdministrativInndeling" />
	</node>
	<node id="-583983" lat="62.7122444435" lon="7.92860000876">
		<tag k="name" v="Langedalsvegen" />
		<tag k="ssr:date" v="2016-05-10" />
		<tag k="ssr:gruppe" v="veg" />
		<tag k="ssr:hovedgruppe" v="infrastruktur" />
		<tag k="ssr:stedsnr" v="401938" />
		<tag k="ssr:type" v="vegstrekning" />
	</node>
	<node id="-585772" lat="62.7154416639" lon="7.92823333027">
		<tag k="name" v="Langevegen" />
		<tag k="ssr:date" v="2016-05-11" />
		<tag k="ssr:gruppe" v="veg" />
		<tag k="ssr:hovedgruppe" v="infrastruktur" />
		<tag k="ssr:stedsnr" v="765951" />
		<tag k="ssr:type" v="vegstrekning" />
	</node>
</osm>
