<?xml version="1.0" encoding="UTF-8"?>
<osm generator="osmapis" version="0.6">
	<node id="-192398" lat="59.9134813132" lon="9.64547353083">
		<tag k="historic" v="shieling" />
		<tag k="name" v="Lislisetra" />
		<tag k="place" v="locality" />
		<tag k="ssr:stedsnr" v="979681" />
	</node>
	<node id="-192397" lat="59.7967385062" lon="9.59151070308">
		<tag k="fixme" v="consider place=hamlet" />
		<tag k="name" v="Søre Kopangen" />
		<tag k="place" v="farm" />
		<tag k="ssr:stedsnr" v="978258" />
	</node>
	<node id="-192396" lat="59.7612664824" lon="9.6001121655">
		<tag k="fixme" v="consider place=hamlet" />
		<tag k="name" v="Kvear" />
		<tag k="place" v="farm" />
		<tag k="ssr:stedsnr" v="976241" />
	</node>
	<node id="-192394" lat="59.7691969543" lon="9.59181713654">
		<tag k="fixme" v="consider place=hamlet" />
		<tag k="name" v="Søre Garder" />
		<tag k="place" v="farm" />
		<tag k="ssr:stedsnr" v="973829" />
	</node>
	<node id="-192393" lat="59.8408655377" lon="9.5010354145">
		<tag k="name" v="Nord-Bakkan" />
		<tag k="place" v="farm" />
		<tag k="ssr:stedsnr" v="973818" />
	</node>
	<node id="-192389" lat="59.9135972259" lon="9.53107222354">
		<tag k="alt_name" v="Mellom Bekkjorden;Midtre Bekkjorden" />
		<tag k="name" v="Mellom-Bekkjorden" />
		<tag k="place" v="farm" />
		<tag k="ssr:stedsnr" v="969244" />
	</node>
	<node id="-192384" lat="59.8250277734" lon="9.52356388141">
		<tag k="historic" v="shieling" />
		<tag k="name" v="Toskjemogsetra" />
		<tag k="place" v="locality" />
		<tag k="ssr:stedsnr" v="967989" />
	</node>
	<node id="-192383" lat="59.8085000024" lon="9.40816667211">
		<tag k="name" v="Sjuvasslia" />
		<tag k="place" v="neighbourhood" />
		<tag k="ssr:stedsnr" v="967964" />
	</node>
	<node id="-192382" lat="59.9568083314" lon="9.46456389074">
		<tag k="name" v="Teksleplassen" />
		<tag k="place" v="isolated_dwelling" />
		<tag k="ssr:stedsnr" v="967894" />
	</node>
	<node id="-192378" lat="59.863713885" lon="9.68867221876">
		<tag k="name" v="Jegerhaugen" />
		<tag k="place" v="isolated_dwelling" />
		<tag k="ssr:stedsnr" v="967538" />
	</node>
	<node id="-192367" lat="59.8172527782" lon="9.5824805504">
		<tag k="name" v="Moen industriområde" />
		<tag k="place" v="quarter" />
		<tag k="ssr:stedsnr" v="962509" />
	</node>
	<node id="-192366" lat="59.8406388848" lon="9.57180555306">
		<tag k="leisure" v="pitch" />
		<tag k="name" v="Stemningsmogen fritidspark" />
		<tag k="ssr:stedsnr" v="962505" />
	</node>
	<node id="-192365" lat="59.8566166648" lon="9.42058611697">
		<tag k="name" v="Nord-Høymyr" />
		<tag k="place" v="farm" />
		<tag k="ssr:stedsnr" v="962339" />
	</node>
	<node id="-192364" lat="59.9026499988" lon="9.62181943549">
		<tag k="historic" v="shieling" />
		<tag k="name" v="Skallstad" />
		<tag k="place" v="locality" />
		<tag k="ssr:stedsnr" v="961873" />
	</node>
	<node id="-192362" lat="59.9061138867" lon="9.35256667535">
		<tag k="alt_name" v="Rebberudplass" />
		<tag k="name" v="Rebberudplassen" />
		<tag k="old_name" v="Rebberudplads" />
		<tag k="place" v="farm" />
		<tag k="ssr:stedsnr" v="952789" />
	</node>
	<node id="-192359" lat="59.7935888883" lon="9.57499166496">
		<tag k="name" v="Fossheim" />
		<tag k="place" v="locality" />
		<tag k="ssr:stedsnr" v="951721" />
	</node>
	<node id="-192358" lat="59.7899666676" lon="9.59613055721">
		<tag k="name" v="Nordre Gutterud" />
		<tag k="place" v="farm" />
		<tag k="ssr:stedsnr" v="951711" />
	</node>
	<node id="-192349" lat="59.907455554" lon="9.49212499328">
		<tag k="name" v="Nedre Kleiv" />
		<tag k="place" v="farm" />
		<tag k="ssr:stedsnr" v="950099" />
	</node>
	<node id="-192344" lat="59.7799444468" lon="9.6847194478">
		<tag k="name" v="Aslaksrudseter" />
		<tag k="place" v="locality" />
		<tag k="ssr:stedsnr" v="936769" />
	</node>
	<node id="-192343" lat="59.8072583336" lon="9.44164999748">
		<tag k="historic" v="shieling" />
		<tag k="name" v="Underbergsetra" />
		<tag k="place" v="locality" />
		<tag k="ssr:stedsnr" v="915927" />
	</node>
	<node id="-192340" lat="59.7652222258" lon="9.58405833546">
		<tag k="name" v="Rambergtangen" />
		<tag k="place" v="farm" />
		<tag k="ssr:stedsnr" v="914985" />
	</node>
	<node id="-192336" lat="59.9319166689" lon="9.63499722869">
		<tag k="alt_name" v="Ragnildsrud" />
		<tag k="name" v="Ragnhildsrud" />
		<tag k="place" v="farm" />
		<tag k="ssr:stedsnr" v="914868" />
	</node>
	<node id="-192332" lat="59.8796500002" lon="9.60845833401">
		<tag k="historic" v="shieling" />
		<tag k="name" v="Helliksetra" />
		<tag k="place" v="locality" />
		<tag k="ssr:stedsnr" v="914703" />
	</node>
	<node id="-192331" lat="59.7742999977" lon="9.60458332771">
		<tag k="name" v="Øvre Gvam" />
		<tag k="place" v="farm" />
		<tag k="ssr:stedsnr" v="914622" />
	</node>
	<node id="-192330" lat="59.7852750032" lon="9.66407499976">
		<tag k="historic" v="shieling" />
		<tag k="name" v="Gardersetra" />
		<tag k="place" v="locality" />
		<tag k="ssr:stedsnr" v="914608" />
	</node>
	<node id="-192327" lat="59.9516472223" lon="9.46363333392">
		<tag k="name" v="Øygarden" />
		<tag k="place" v="farm" />
		<tag k="ssr:stedsnr" v="914357" />
	</node>
	<node id="-192325" lat="59.9798972262" lon="9.49090555982">
		<tag k="name" v="Grøterud" />
		<tag k="place" v="farm" />
		<tag k="ssr:stedsnr" v="914331" />
	</node>
	<node id="-192324" lat="59.9691388862" lon="9.44374166173">
		<tag k="name" v="Nord-Teksle" />
		<tag k="old_name" v="Teigsle" />
		<tag k="place" v="farm" />
		<tag k="ssr:stedsnr" v="914316" />
	</node>
	<node id="-192322" lat="59.9127722233" lon="9.53308054971">
		<tag k="alt_name" v="Søndre Bekkjorden" />
		<tag k="name" v="Søre Bekkjorden" />
		<tag k="place" v="farm" />
		<tag k="ssr:stedsnr" v="914240" />
	</node>
	<node id="-192321" lat="59.9147749971" lon="9.57135833395">
		<tag k="name" v="Buserud" />
		<tag k="place" v="farm" />
		<tag k="ssr:stedsnr" v="914238" />
	</node>
	<node id="-192319" lat="59.9190833368" lon="9.44123333106">
		<tag k="name" v="Nedre Teigen" />
		<tag k="place" v="farm" />
		<tag k="ssr:stedsnr" v="914201" />
	</node>
	<node id="-192318" lat="59.9386166674" lon="9.51266389337">
		<tag k="name" v="Bråtå" />
		<tag k="place" v="farm" />
		<tag k="ssr:stedsnr" v="914180" />
	</node>
	<node id="-192317" lat="59.9362750023" lon="9.4207249953">
		<tag k="historic" v="shieling" />
		<tag k="name" v="Stuvstadsetra" />
		<tag k="place" v="locality" />
		<tag k="ssr:stedsnr" v="914172" />
	</node>
	<node id="-192314" lat="59.8345916624" lon="9.4645694361">
		<tag k="name" v="Bjøråsen" />
		<tag k="place" v="farm" />
		<tag k="ssr:stedsnr" v="914103" />
	</node>
	<node id="-192313" lat="59.8416694444" lon="9.52590833489">
		<tag k="name" v="Fløtterud" />
		<tag k="place" v="farm" />
		<tag k="ssr:stedsnr" v="914098" />
	</node>
	<node id="-192312" lat="59.840505554" lon="9.57600833221">
		<tag k="name" v="Skartum" />
		<tag k="place" v="farm" />
		<tag k="ssr:stedsnr" v="914088" />
	</node>
	<node id="-192310" lat="59.8541954136" lon="9.4955116085">
		<tag k="alt_name" v="Søndre Vangestad" />
		<tag k="name" v="Søre Vangestad" />
		<tag k="place" v="farm" />
		<tag k="ssr:stedsnr" v="914072" />
	</node>
	<node id="-192308" lat="59.862541664" lon="9.48263611276">
		<tag k="name" v="Bergerud" />
		<tag k="place" v="farm" />
		<tag k="ssr:stedsnr" v="914050" />
	</node>
	<node id="-192307" lat="59.8639361088" lon="9.43899999546">
		<tag k="alt_name" v="Søndre Flesberg;Sønstegard" />
		<tag k="name" v="Søre Flesberg" />
		<tag k="place" v="farm" />
		<tag k="ssr:stedsnr" v="914044" />
	</node>
	<node id="-192306" lat="59.8630444479" lon="9.39681667126">
		<tag k="name" v="Deildokk" />
		<tag k="place" v="farm" />
		<tag k="ssr:stedsnr" v="914039" />
	</node>
	<node id="-192305" lat="59.873727775" lon="9.52371667319">
		<tag k="name" v="Vika" />
		<tag k="place" v="isolated_dwelling" />
		<tag k="ssr:stedsnr" v="914031" />
	</node>
	<node id="-192303" lat="59.8772499969" lon="9.57905833261">
		<tag k="name" v="Søre Granstugo" />
		<tag k="place" v="farm" />
		<tag k="ssr:stedsnr" v="914019" />
	</node>
	<node id="-192302" lat="59.8796027752" lon="9.37992222574">
		<tag k="name" v="Flatstrand" />
		<tag k="place" v="farm" />
		<tag k="ssr:stedsnr" v="914007" />
	</node>
	<node id="-192294" lat="59.9213738064" lon="9.68831699085">
		<tag k="name" v="Ingebu" />
		<tag k="place" v="hamlet" />
		<tag k="ssr:stedsnr" v="908154" />
	</node>
	<node id="-192278" lat="59.8655750024" lon="9.33733055463">
		<tag k="historic" v="shieling" />
		<tag k="name" v="Øvre Annebu" />
		<tag k="place" v="locality" />
		<tag k="ssr:stedsnr" v="906125" />
	</node>
	<node id="-192275" lat="59.8056277753" lon="9.41021666473">
		<tag k="name" v="Søre Gjellerudsetra" />
		<tag k="place" v="locality" />
		<tag k="ssr:stedsnr" v="905245" />
	</node>
	<node id="-192271" lat="59.8412166681" lon="9.48875554766">
		<tag k="name" v="Søre Underberget" />
		<tag k="place" v="farm" />
		<tag k="ssr:stedsnr" v="902949" />
	</node>
	<node id="-192266" lat="59.8660999981" lon="9.41772221995">
		<tag k="name" v="Nord-Førle" />
		<tag k="place" v="farm" />
		<tag k="ssr:stedsnr" v="902383" />
	</node>
	<node id="-192265" lat="59.9105694425" lon="9.43870833838">
		<tag k="name" v="Øvre Ransåsen" />
		<tag k="place" v="farm" />
		<tag k="ssr:stedsnr" v="902084" />
	</node>
	<node id="-192264" lat="59.9330166624" lon="9.57894166838">
		<tag k="name" v="Mellom-Letmolia" />
		<tag k="place" v="farm" />
		<tag k="ssr:stedsnr" v="901566" />
	</node>
	<node id="-192263" lat="59.9310194486" lon="9.57987222463">
		<tag k="name" v="Søre Letmolia" />
		<tag k="place" v="farm" />
		<tag k="ssr:stedsnr" v="901565" />
	</node>
	<node id="-192262" lat="59.933294443" lon="9.57905277399">
		<tag k="name" v="Nord-Letmolia" />
		<tag k="place" v="farm" />
		<tag k="ssr:stedsnr" v="901502" />
	</node>
	<node id="-192258" lat="59.7696472201" lon="9.67551666237">
		<tag k="name" v="Snørtevoll" />
		<tag k="place" v="isolated_dwelling" />
		<tag k="ssr:stedsnr" v="875781" />
	</node>
	<node id="-192256" lat="59.8177138847" lon="9.57923610344">
		<tag k="name" v="Toresplassen" />
		<tag k="place" v="locality" />
		<tag k="ssr:stedsnr" v="854930" />
	</node>
	<node id="-192254" lat="59.8121249977" lon="9.5846805483">
		<tag k="fixme" v="consider place=hamlet" />
		<tag k="name" v="Moen" />
		<tag k="place" v="farm" />
		<tag k="ssr:stedsnr" v="854917" />
	</node>
	<node id="-192248" lat="59.8025277793" lon="9.60810276965">
		<tag k="name" v="Øvre Kopangen" />
		<tag k="old_name" v="Gulspl;Gulsplassen" />
		<tag k="place" v="farm" />
		<tag k="ssr:stedsnr" v="854489" />
	</node>
	<node id="-192247" lat="59.9510777761" lon="9.45066110826">
		<tag k="alt_name" v="Gjeitnes" />
		<tag k="name" v="Geitnes" />
		<tag k="place" v="farm" />
		<tag k="ssr:stedsnr" v="854333" />
	</node>
	<node id="-192244" lat="59.8966888852" lon="9.33936111879">
		<tag k="name" v="Blia" />
		<tag k="place" v="farm" />
		<tag k="ssr:stedsnr" v="854206" />
	</node>
	<node id="-192242" lat="59.9095333292" lon="9.4045749982">
		<tag k="alt_name" v="Søndre Bergan" />
		<tag k="name" v="Søre Bergan" />
		<tag k="old_name" v="Bergen sö:" />
		<tag k="place" v="farm" />
		<tag k="ssr:stedsnr" v="854195" />
	</node>
	<node id="-192240" lat="59.84568611" lon="9.56050278379">
		<tag k="name" v="Foss" />
		<tag k="place" v="farm" />
		<tag k="ssr:stedsnr" v="854063" />
	</node>
	<node id="-192239" lat="59.8459361134" lon="9.58300833778">
		<tag k="alt_name" v="Jørnsplassen" />
		<tag k="name" v="Slettemoen" />
		<tag k="place" v="isolated_dwelling" />
		<tag k="ssr:stedsnr" v="854061" />
	</node>
	<node id="-192237" lat="59.8475500003" lon="9.45209999707">
		<tag k="name" v="Væråsmogen" />
		<tag k="place" v="farm" />
		<tag k="ssr:stedsnr" v="854057" />
	</node>
	<node id="-192234" lat="59.7993805523" lon="9.40989166479">
		<tag k="historic" v="shieling" />
		<tag k="name" v="Svartholtsetra" />
		<tag k="place" v="locality" />
		<tag k="ssr:stedsnr" v="853923" />
	</node>
	<node id="-192232" lat="59.7740555557" lon="9.52288888974">
		<tag k="historic" v="shieling" />
		<tag k="name" v="Ramnåssetra" />
		<tag k="place" v="locality" />
		<tag k="ssr:stedsnr" v="853882" />
	</node>
	<node id="-192231" lat="59.9006055587" lon="9.62410832886">
		<tag k="historic" v="shieling" />
		<tag k="name" v="Nysetra" />
		<tag k="place" v="locality" />
		<tag k="ssr:stedsnr" v="853819" />
	</node>
	<node id="-192220" lat="59.8727833366" lon="9.36726666535">
		<tag k="name" v="Brekke" />
		<tag k="place" v="farm" />
		<tag k="ssr:stedsnr" v="853027" />
	</node>
	<node id="-192219" lat="59.8786055529" lon="9.46704723017">
		<tag k="name" v="Landegrenda" />
		<tag k="place" v="hamlet" />
		<tag k="ssr:stedsnr" v="853015" />
	</node>
	<node id="-192218" lat="59.8821416698" lon="9.39324166156">
		<tag k="name" v="Bekkin" />
		<tag k="old_name" v="Bækkjn" />
		<tag k="place" v="farm" />
		<tag k="ssr:stedsnr" v="853011" />
	</node>
	<node id="-192216" lat="59.8374277808" lon="9.40625556379">
		<tag k="name" v="Søre Våtli" />
		<tag k="place" v="locality" />
		<tag k="ssr:stedsnr" v="848527" />
	</node>
	<node id="-192214" lat="59.8377416701" lon="9.49539445183">
		<tag k="name" v="Mellom-Huslende" />
		<tag k="place" v="farm" />
		<tag k="ssr:stedsnr" v="848484" />
	</node>
	<node id="-192211" lat="59.8864222217" lon="9.36286388927">
		<tag k="name" v="Nordre Kjenås" />
		<tag k="place" v="farm" />
		<tag k="ssr:stedsnr" v="848375" />
	</node>
	<node id="-192209" lat="59.9512249989" lon="9.50524999755">
		<tag k="name" v="Vestre Kjølås" />
		<tag k="place" v="farm" />
		<tag k="ssr:stedsnr" v="847944" />
	</node>
	<node id="-192205" lat="59.9201361127" lon="9.50139721627">
		<tag k="name" v="Øvre Bakli" />
		<tag k="place" v="farm" />
		<tag k="ssr:stedsnr" v="847892" />
	</node>
	<node id="-192198" lat="59.8009111086" lon="9.39011111599">
		<tag k="aerialway" v="drag_lift" />
		<tag k="fixme" v="consider the other aerialway types" />
		<tag k="name" v="Blefjellheisen" />
		<tag k="ssr:stedsnr" v="846767" />
	</node>
	<node id="-192197" lat="59.8138083318" lon="9.68259722095">
		<tag k="name" v="Koppangsetra" />
		<tag k="place" v="locality" />
		<tag k="ssr:stedsnr" v="846723" />
	</node>
	<node id="-192182" lat="59.919941671" lon="9.41012221467">
		<tag k="name" v="Nord-Stuvstad" />
		<tag k="place" v="farm" />
		<tag k="ssr:stedsnr" v="840423" />
	</node>
	<node id="-192178" lat="59.7789194456" lon="9.55984999138">
		<tag k="name" v="Myra" />
		<tag k="place" v="isolated_dwelling" />
		<tag k="ssr:stedsnr" v="830660" />
	</node>
	<node id="-192176" lat="59.9216416653" lon="9.44699165939">
		<tag k="name" v="Vestre Landerud" />
		<tag k="place" v="farm" />
		<tag k="ssr:stedsnr" v="829898" />
	</node>
	<node id="-192166" lat="59.8609972257" lon="9.37986944912">
		<tag k="name" v="Steinset" />
		<tag k="place" v="locality" />
		<tag k="ssr:stedsnr" v="829292" />
	</node>
	<node id="-192162" lat="59.8803972259" lon="9.46844722513">
		<tag k="name" v="Øvre Lande" />
		<tag k="place" v="farm" />
		<tag k="ssr:stedsnr" v="829145" />
	</node>
	<node id="-192160" lat="59.9203249991" lon="9.50939167136">
		<tag k="fixme" v="multiple name tags, choose one and add the other to alt_name" />
		<tag k="name" v="Sønste Søre Låg;Låg;Smedplassen" />
		<tag k="old_name" v="Lågplassen;Plassen" />
		<tag k="place" v="farm" />
		<tag k="ssr:stedsnr" v="828152" />
	</node>
	<node id="-192159" lat="59.9040916649" lon="9.36967223043">
		<tag k="name" v="Søre Bakkerud" />
		<tag k="place" v="farm" />
		<tag k="ssr:stedsnr" v="829222" />
	</node>
	<node id="-192154" lat="59.8805138883" lon="9.46825277081">
		<tag k="fixme" v="consider place=hamlet" />
		<tag k="name" v="Lande" />
		<tag k="place" v="farm" />
		<tag k="ssr:stedsnr" v="813140" />
	</node>
	<node id="-192153" lat="59.8612916634" lon="9.65145000421">
		<tag k="loc_name" v="Fønnset" />
		<tag k="name" v="Fønset" />
		<tag k="place" v="farm" />
		<tag k="ssr:stedsnr" v="793673" />
	</node>
	<node id="-192151" lat="59.8708305582" lon="9.60761388302">
		<tag k="name" v="Fossesetra" />
		<tag k="place" v="locality" />
		<tag k="ssr:stedsnr" v="793660" />
	</node>
	<node id="-192149" lat="59.7779277735" lon="9.70747499247">
		<tag k="name" v="Ullandsetra" />
		<tag k="place" v="locality" />
		<tag k="ssr:stedsnr" v="793624" />
	</node>
	<node id="-192146" lat="59.7706499979" lon="9.5939555493">
		<tag k="name" v="Mellom-Garder" />
		<tag k="place" v="farm" />
		<tag k="ssr:stedsnr" v="793535" />
	</node>
	<node id="-192145" lat="59.9532777756" lon="9.52365000748">
		<tag k="name" v="Tuko" />
		<tag k="place" v="farm" />
		<tag k="ssr:stedsnr" v="793371" />
	</node>
	<node id="-192143" lat="59.9079944414" lon="9.35138888752">
		<tag k="name" v="Rebberud" />
		<tag k="place" v="farm" />
		<tag k="ssr:stedsnr" v="793224" />
	</node>
	<node id="-192137" lat="59.8301305555" lon="9.39483610334">
		<tag k="historic" v="shieling" />
		<tag k="name" v="Hestemyr" />
		<tag k="place" v="locality" />
		<tag k="ssr:stedsnr" v="793096" />
	</node>
	<node id="-192135" lat="59.8366194477" lon="9.45439445308">
		<tag k="name" v="Øvre Værås" />
		<tag k="place" v="farm" />
		<tag k="ssr:stedsnr" v="793080" />
	</node>
	<node id="-192134" lat="59.8451083346" lon="9.33229167288">
		<tag k="historic" v="shieling" />
		<tag k="name" v="Engesetra" />
		<tag k="place" v="locality" />
		<tag k="ssr:stedsnr" v="793077" />
	</node>
	<node id="-192132" lat="59.8560166681" lon="9.50817499576">
		<tag k="name" v="Vengestad" />
		<tag k="place" v="farm" />
		<tag k="ssr:stedsnr" v="793067" />
	</node>
	<node id="-192131" lat="59.8577638884" lon="9.44782778416">
		<tag k="alt_name" v="Søndre Fekjan" />
		<tag k="name" v="Søre Fekjan" />
		<tag k="place" v="farm" />
		<tag k="ssr:stedsnr" v="793062" />
	</node>
	<node id="-192130" lat="59.8557055551" lon="9.39162499918">
		<tag k="name" v="Leirskallen" />
		<tag k="place" v="farm" />
		<tag k="ssr:stedsnr" v="793056" />
	</node>
	<node id="-192128" lat="59.7690104033" lon="9.59159262836">
		<tag k="name" v="Sønste Søre Garder" />
		<tag k="old_name" v="Garder nedre" />
		<tag k="place" v="farm" />
		<tag k="ssr:stedsnr" v="792989" />
	</node>
	<node id="-192126" lat="59.7980055524" lon="9.59132499789">
		<tag k="fixme" v="consider place=hamlet" />
		<tag k="name" v="Kopangen" />
		<tag k="old_name" v="Kaupangen" />
		<tag k="place" v="farm" />
		<tag k="ssr:stedsnr" v="792904" />
	</node>
	<node id="-192124" lat="59.7911500012" lon="9.45728889077">
		<tag k="historic" v="shieling" />
		<tag k="name" v="Rustansetra" />
		<tag k="place" v="locality" />
		<tag k="ssr:stedsnr" v="792890" />
	</node>
	<node id="-192123" lat="59.7804361149" lon="9.4600472169">
		<tag k="historic" v="shieling" />
		<tag k="name" v="Ådalssetra" />
		<tag k="place" v="locality" />
		<tag k="ssr:stedsnr" v="792878" />
	</node>
	<node id="-192116" lat="59.7705111076" lon="9.65350832516">
		<tag k="name" v="Aslaksrud" />
		<tag k="place" v="farm" />
		<tag k="ssr:stedsnr" v="792585" />
	</node>
	<node id="-192115" lat="59.8171972182" lon="9.67305556376">
		<tag k="historic" v="shieling" />
		<tag k="name" v="Nedre Grettesetra" />
		<tag k="place" v="locality" />
		<tag k="ssr:stedsnr" v="792521" />
	</node>
	<node id="-192114" lat="59.9642611155" lon="9.49536111021">
		<tag k="name" v="Molia" />
		<tag k="place" v="farm" />
		<tag k="ssr:stedsnr" v="792361" />
	</node>
	<node id="-192112" lat="59.965397225" lon="9.45017777863">
		<tag k="name" v="Med-Teksle" />
		<tag k="old_name" v="Metexle" />
		<tag k="place" v="farm" />
		<tag k="ssr:stedsnr" v="792351" />
	</node>
	<node id="-192111" lat="59.97831944" lon="9.50001944481">
		<tag k="name" v="Markerud" />
		<tag k="place" v="farm" />
		<tag k="ssr:stedsnr" v="792321" />
	</node>
	<node id="-192107" lat="59.916761108" lon="9.40710000617">
		<tag k="name" v="Hamre" />
		<tag k="place" v="farm" />
		<tag k="ssr:stedsnr" v="792191" />
	</node>
	<node id="-192106" lat="59.9223916673" lon="9.39786666759">
		<tag k="alt_name" v="Mellom Buin" />
		<tag k="name" v="Midtre Buin" />
		<tag k="place" v="farm" />
		<tag k="ssr:stedsnr" v="792188" />
	</node>
	<node id="-192105" lat="59.9274249993" lon="9.44343333262">
		<tag k="alt_name" v="Søndre Holtan" />
		<tag k="name" v="Søre Holtan" />
		<tag k="place" v="farm" />
		<tag k="ssr:stedsnr" v="792175" />
	</node>
	<node id="-192104" lat="59.939260824" lon="9.46731860994">
		<tag k="name" v="Nedre Sønnåsen" />
		<tag k="place" v="farm" />
		<tag k="ssr:stedsnr" v="792169" />
	</node>
	<node id="-192103" lat="59.9321331355" lon="9.57946901327">
		<tag k="fixme" v="consider place=hamlet" />
		<tag k="name" v="Letmolia" />
		<tag k="place" v="farm" />
		<tag k="ssr:stedsnr" v="792160" />
	</node>
	<node id="-192101" lat="59.8610305581" lon="9.4093611126">
		<tag k="name" v="Enga" />
		<tag k="place" v="farm" />
		<tag k="ssr:stedsnr" v="792055" />
	</node>
	<node id="-192100" lat="59.8597527798" lon="9.32128056162">
		<tag k="name" v="Blåberg" />
		<tag k="old_name" v="Blåberg fjellstue" />
		<tag k="ssr:stedsnr" v="792050" />
		<tag k="tourism" v="hotel" />
	</node>
	<node id="-192098" lat="59.8700194452" lon="9.22665276894">
		<tag k="historic" v="shieling" />
		<tag k="name" v="Beretsbua" />
		<tag k="place" v="locality" />
		<tag k="ssr:stedsnr" v="792032" />
	</node>
	<node id="-192085" lat="59.8742083318" lon="9.45291111058">
		<tag k="name" v="Solli" />
		<tag k="place" v="locality" />
		<tag k="ssr:stedsnr" v="787354" />
	</node>
	<node id="-192076" lat="59.8344777745" lon="9.55288056117">
		<tag k="name" v="Rindumplassen" />
		<tag k="place" v="locality" />
		<tag k="ssr:stedsnr" v="785701" />
	</node>
	<node id="-192075" lat="59.8497750003" lon="9.59330833616">
		<tag k="name" v="Fuglli" />
		<tag k="place" v="isolated_dwelling" />
		<tag k="ssr:stedsnr" v="785534" />
	</node>
	<node id="-192058" lat="59.8336277766" lon="9.57960555657">
		<tag k="name" v="Lampeland" />
		<tag k="old_name" v="Lambeland" />
		<tag k="place" v="farm" />
		<tag k="ssr:stedsnr" v="780369" />
	</node>
	<node id="-192055" lat="59.8015653439" lon="9.58739936555">
		<tag k="fixme" v="consider place=hamlet" />
		<tag k="name" v="Rustan" />
		<tag k="place" v="farm" />
		<tag k="ssr:stedsnr" v="779571" />
	</node>
	<node id="-192047" lat="59.8189638926" lon="9.58544999679">
		<tag k="name" v="Ellenrud" />
		<tag k="place" v="farm" />
		<tag k="ssr:stedsnr" v="769680" />
	</node>
	<node id="-192041" lat="59.8607027809" lon="9.42608888256">
		<tag k="amenity" v="school" />
		<tag k="name" v="Flesberg skole" />
		<tag k="ssr:stedsnr" v="768286" />
	</node>
	<node id="-192040" lat="59.8592111152" lon="9.43747778314">
		<tag k="building" v="industrial" />
		<tag k="industrial" v="factory" />
		<tag k="name" v="Numedal Bruk" />
		<tag k="ssr:stedsnr" v="768283" />
	</node>
	<node id="-192039" lat="59.8699416628" lon="9.3891694361">
		<tag k="name" v="Klemetsplassen" />
		<tag k="place" v="locality" />
		<tag k="ssr:stedsnr" v="768275" />
	</node>
	<node id="-192035" lat="59.9121500041" lon="9.41385555967">
		<tag k="name" v="Stuvestadgrenda" />
		<tag k="place" v="hamlet" />
		<tag k="ssr:stedsnr" v="768219" />
	</node>
	<node id="-192033" lat="59.9365117227" lon="9.4985832204">
		<tag k="fixme" v="consider place=hamlet" />
		<tag k="name" v="Låg" />
		<tag k="place" v="farm" />
		<tag k="ssr:stedsnr" v="767921" />
	</node>
	<node id="-192028" lat="59.769175" lon="9.43916666492">
		<tag k="historic" v="shieling" />
		<tag k="name" v="Blestølen" />
		<tag k="place" v="locality" />
		<tag k="ssr:stedsnr" v="752105" />
	</node>
	<node id="-192024" lat="59.7658749998" lon="9.57533055146">
		<tag k="name" v="Skutsvika" />
		<tag k="place" v="farm" />
		<tag k="ssr:stedsnr" v="732991" />
	</node>
	<node id="-192023" lat="59.8010333311" lon="9.45521389241">
		<tag k="historic" v="shieling" />
		<tag k="name" v="Åslandsetra" />
		<tag k="place" v="locality" />
		<tag k="ssr:stedsnr" v="732919" />
	</node>
	<node id="-192022" lat="59.7977861108" lon="9.57422500745">
		<tag k="name" v="Strand" />
		<tag k="place" v="farm" />
		<tag k="ssr:stedsnr" v="732912" />
	</node>
	<node id="-192021" lat="59.7902333356" lon="9.41533610729">
		<tag k="amenity" v="cafe" />
		<tag k="name" v="Blestua" />
		<tag k="ssr:stedsnr" v="732903" />
	</node>
	<node id="-192020" lat="59.7930805597" lon="9.49915000748">
		<tag k="historic" v="shieling" />
		<tag k="name" v="Tveitsetra" />
		<tag k="place" v="locality" />
		<tag k="ssr:stedsnr" v="732892" />
	</node>
	<node id="-192019" lat="59.7924777769" lon="9.49390000717">
		<tag k="name" v="Øvre Mangelen" />
		<tag k="place" v="locality" />
		<tag k="ssr:stedsnr" v="732890" />
	</node>
	<node id="-192017" lat="59.7854999999" lon="9.57647221597">
		<tag k="name" v="Gåsum" />
		<tag k="place" v="farm" />
		<tag k="ssr:stedsnr" v="732880" />
	</node>
	<node id="-192015" lat="59.7721388859" lon="9.58294999113">
		<tag k="name" v="Hostveit" />
		<tag k="place" v="farm" />
		<tag k="ssr:stedsnr" v="732867" />
	</node>
	<node id="-192010" lat="59.8855055517" lon="9.56460833564">
		<tag k="name" v="Nedre Granstugo" />
		<tag k="place" v="farm" />
		<tag k="ssr:stedsnr" v="732254" />
	</node>
	<node id="-192009" lat="59.911030555" lon="9.59213055069">
		<tag k="name" v="Kampestadsetra" />
		<tag k="old_name" v="Nysetra" />
		<tag k="place" v="farm" />
		<tag k="ssr:stedsnr" v="732249" />
	</node>
	<node id="-192007" lat="59.9065694459" lon="9.44712499701">
		<tag k="fixme" v="consider place=hamlet" />
		<tag k="name" v="Ransåsen" />
		<tag k="old_name" v="Ransaasen" />
		<tag k="place" v="farm" />
		<tag k="ssr:stedsnr" v="732220" />
	</node>
	<node id="-192006" lat="59.9120027754" lon="9.53796388372">
		<tag k="name" v="Kampestad" />
		<tag k="place" v="farm" />
		<tag k="ssr:stedsnr" v="732214" />
	</node>
	<node id="-192005" lat="59.9230916639" lon="9.39315000878">
		<tag k="alt_name" v="Nordre Buin" />
		<tag k="name" v="Nord-Buin" />
		<tag k="place" v="farm" />
		<tag k="ssr:stedsnr" v="732205" />
	</node>
	<node id="-192004" lat="59.925116665" lon="9.51259444817">
		<tag k="name" v="Pukkverket" />
		<tag k="place" v="farm" />
		<tag k="ssr:stedsnr" v="732196" />
	</node>
	<node id="-192002" lat="59.936516663" lon="9.40387499337">
		<tag k="historic" v="shieling" />
		<tag k="name" v="Brattåssetra" />
		<tag k="place" v="locality" />
		<tag k="ssr:stedsnr" v="732185" />
	</node>
	<node id="-192001" lat="59.9349444438" lon="9.54524165858">
		<tag k="name" v="Nedre Hommelia" />
		<tag k="place" v="farm" />
		<tag k="ssr:stedsnr" v="732178" />
	</node>
	<node id="-191999" lat="59.9421916658" lon="9.57220556313">
		<tag k="name" v="Ingeburud" />
		<tag k="place" v="farm" />
		<tag k="ssr:stedsnr" v="732160" />
	</node>
	<node id="-191998" lat="59.8200027784" lon="9.59122499839">
		<tag k="name" v="Misunt" />
		<tag k="place" v="farm" />
		<tag k="ssr:stedsnr" v="732133" />
	</node>
	<node id="-191994" lat="59.8368166634" lon="9.48271110249">
		<tag k="name" v="Løstad" />
		<tag k="place" v="farm" />
		<tag k="ssr:stedsnr" v="732116" />
	</node>
	<node id="-191993" lat="59.8356583362" lon="9.5799555631">
		<tag k="name" v="Fløtåker" />
		<tag k="place" v="farm" />
		<tag k="ssr:stedsnr" v="732113" />
	</node>
	<node id="-191992" lat="59.8371527767" lon="9.52826389452">
		<tag k="alt_name" v="Fløtterudsundet" />
		<tag k="name" v="Fløtterudsund" />
		<tag k="place" v="farm" />
		<tag k="ssr:stedsnr" v="732112" />
	</node>
	<node id="-191991" lat="59.8447095467" lon="9.53558824919">
		<tag k="alt_name" v="Søndre Grøsli" />
		<tag k="name" v="Søre Grøsli" />
		<tag k="place" v="farm" />
		<tag k="ssr:stedsnr" v="732099" />
	</node>
	<node id="-191987" lat="59.8538361103" lon="9.44838055038">
		<tag k="fixme" v="multiple name tags, choose one and add the other to alt_name" />
		<tag k="name" v="Eie;Anderseiet" />
		<tag k="place" v="farm" />
		<tag k="ssr:stedsnr" v="732070" />
	</node>
	<node id="-191986" lat="59.8558194471" lon="9.38978610523">
		<tag k="name" v="Hagan" />
		<tag k="place" v="farm" />
		<tag k="ssr:stedsnr" v="732066" />
	</node>
	<node id="-191985" lat="59.8665694464" lon="9.55908611992">
		<tag k="name" v="Kvernan" />
		<tag k="old_name" v="Kvænne" />
		<tag k="place" v="farm" />
		<tag k="ssr:stedsnr" v="732058" />
	</node>
	<node id="-191984" lat="59.8610583319" lon="9.55381666875">
		<tag k="name" v="Haugen" />
		<tag k="place" v="farm" />
		<tag k="ssr:stedsnr" v="732055" />
	</node>
	<node id="-191983" lat="59.8605166702" lon="9.38945000646">
		<tag k="name" v="Kallerud" />
		<tag k="place" v="farm" />
		<tag k="ssr:stedsnr" v="732046" />
	</node>
	<node id="-191980" lat="59.8727611067" lon="9.29019999149">
		<tag k="historic" v="shieling" />
		<tag k="name" v="Bliasetra" />
		<tag k="old_name" v="Blian" />
		<tag k="place" v="locality" />
		<tag k="ssr:stedsnr" v="732020" />
	</node>
	<node id="-191979" lat="59.8765194478" lon="9.29126944834">
		<tag k="historic" v="shieling" />
		<tag k="name" v="Belbakksetra" />
		<tag k="old_name" v="Belbak" />
		<tag k="place" v="locality" />
		<tag k="ssr:stedsnr" v="732021" />
	</node>
	<node id="-191978" lat="59.8793888857" lon="9.50499999668">
		<tag k="name" v="Taksrud" />
		<tag k="place" v="farm" />
		<tag k="ssr:stedsnr" v="732014" />
	</node>
	<node id="-191965" lat="59.8342416696" lon="9.36905832611">
		<tag k="name" v="Nysetra" />
		<tag k="place" v="locality" />
		<tag k="ssr:stedsnr" v="726533" />
	</node>
	<node id="-191963" lat="59.8645388865" lon="9.24615555913">
		<tag k="historic" v="shieling" />
		<tag k="name" v="Nedre Krokstul" />
		<tag k="place" v="locality" />
		<tag k="ssr:stedsnr" v="726503" />
	</node>
	<node id="-191961" lat="59.8400722232" lon="9.43599721835">
		<tag k="name" v="Hanseplassen" />
		<tag k="place" v="locality" />
		<tag k="ssr:stedsnr" v="726491" />
	</node>
	<node id="-191952" lat="59.8087611128" lon="9.38057778003">
		<tag k="name" v="Gvelven" />
		<tag k="place" v="neighbourhood" />
		<tag k="ssr:stedsnr" v="724981" />
	</node>
	<node id="-191950" lat="59.790488887" lon="9.48418333091">
		<tag k="name" v="Gardåssetra" />
		<tag k="place" v="locality" />
		<tag k="ssr:stedsnr" v="724784" />
	</node>
	<node id="-191949" lat="59.8071111073" lon="9.38276945331">
		<tag k="historic" v="shieling" />
		<tag k="name" v="Gvelvenseter" />
		<tag k="place" v="locality" />
		<tag k="ssr:stedsnr" v="724775" />
	</node>
	<node id="-191945" lat="59.7283722221" lon="9.62138888343">
		<tag k="name" v="Lurås" />
		<tag k="place" v="isolated_dwelling" />
		<tag k="ssr:stedsnr" v="731613" />
	</node>
	<node id="-191944" lat="59.7281805548" lon="9.6081500067">
		<tag k="name" v="Finnebråten" />
		<tag k="place" v="farm" />
		<tag k="ssr:stedsnr" v="731610" />
	</node>
	<node id="-191938" lat="59.8122416651" lon="9.58481943808">
		<tag k="name" v="Nordre Moen" />
		<tag k="place" v="farm" />
		<tag k="ssr:stedsnr" v="720540" />
	</node>
	<node id="-191937" lat="59.8661638884" lon="9.41991943967">
		<tag k="name" v="Mellom-Førle" />
		<tag k="place" v="farm" />
		<tag k="ssr:stedsnr" v="720360" />
	</node>
	<node id="-191936" lat="59.8413944484" lon="9.50314999704">
		<tag k="name" v="Søre Bakkan" />
		<tag k="old_name" v="Søndre Bakken" />
		<tag k="place" v="farm" />
		<tag k="ssr:stedsnr" v="720326" />
	</node>
	<node id="-191935" lat="59.8879249987" lon="9.53095000563">
		<tag k="fixme" v="consider place=hamlet" />
		<tag k="name" v="Vatnebrynn" />
		<tag k="place" v="farm" />
		<tag k="ssr:stedsnr" v="719889" />
	</node>
	<node id="-191933" lat="59.8277916639" lon="9.54979445189">
		<tag k="name" v="Østre Gårdås" />
		<tag k="place" v="farm" />
		<tag k="ssr:stedsnr" v="719562" />
	</node>
	<node id="-191932" lat="59.9604083297" lon="9.46258888681">
		<tag k="name" v="Søre Teksle" />
		<tag k="old_name" v="Teigsle" />
		<tag k="place" v="farm" />
		<tag k="ssr:stedsnr" v="719364" />
	</node>
	<node id="-191931" lat="59.9154166652" lon="9.40906944204">
		<tag k="name" v="Medhus" />
		<tag k="place" v="farm" />
		<tag k="ssr:stedsnr" v="719357" />
	</node>
	<node id="-191930" lat="59.9100694448" lon="9.53568333208">
		<tag k="alt_name" v="Fekjan" />
		<tag k="name" v="Fetjan" />
		<tag k="old_name" v="Fekjen" />
		<tag k="place" v="farm" />
		<tag k="ssr:stedsnr" v="719207" />
	</node>
	<node id="-191929" lat="59.8484138882" lon="9.29127500278">
		<tag k="historic" v="shieling" />
		<tag k="name" v="Hølsetra" />
		<tag k="place" v="locality" />
		<tag k="ssr:stedsnr" v="719056" />
	</node>
	<node id="-191921" lat="59.7556277738" lon="9.61335277821">
		<tag k="name" v="Mellom-Håvardsrud" />
		<tag k="place" v="farm" />
		<tag k="ssr:stedsnr" v="708861" />
	</node>
	<node id="-191919" lat="59.7888555577" lon="9.61470833352">
		<tag k="name" v="Museplassen" />
		<tag k="place" v="locality" />
		<tag k="ssr:stedsnr" v="708682" />
	</node>
	<node id="-191917" lat="59.8017305597" lon="9.5837583345">
		<tag k="name" v="Solvoll" />
		<tag k="place" v="isolated_dwelling" />
		<tag k="ssr:stedsnr" v="708679" />
	</node>
	<node id="-191915" lat="59.8069666652" lon="9.58775278372">
		<tag k="amenity" v="nursing_home" />
		<tag k="name" v="Flesbergheimen" />
		<tag k="ssr:stedsnr" v="708669" />
	</node>
	<node id="-191906" lat="59.9638472181" lon="9.51552499876">
		<tag k="name" v="Buinsetra" />
		<tag k="place" v="locality" />
		<tag k="ssr:stedsnr" v="707783" />
	</node>
	<node id="-191905" lat="59.8663222254" lon="9.67912500564">
		<tag k="name" v="Gunnerud" />
		<tag k="place" v="farm" />
		<tag k="ssr:stedsnr" v="705004" />
	</node>
	<node id="-191903" lat="59.8677722213" lon="9.6968361095">
		<tag k="historic" v="shieling" />
		<tag k="name" v="Grønlia" />
		<tag k="place" v="locality" />
		<tag k="ssr:stedsnr" v="693401" />
	</node>
	<node id="-191902" lat="59.7703249958" lon="9.60031943681">
		<tag k="name" v="Nedre Gvam" />
		<tag k="place" v="farm" />
		<tag k="ssr:stedsnr" v="731561" />
	</node>
	<node id="-191899" lat="59.7563555535" lon="9.61138889023">
		<tag k="alt_name" v="Håvålsrud;Håvaldsrud" />
		<tag k="fixme" v="consider place=hamlet" />
		<tag k="name" v="Håvardsrud" />
		<tag k="old_name" v="Haavaalsrud;Haavardsrud" />
		<tag k="place" v="farm" />
		<tag k="ssr:stedsnr" v="672468" />
	</node>
	<node id="-191898" lat="59.8171916697" lon="9.43077500781">
		<tag k="historic" v="shieling" />
		<tag k="name" v="Tyttebærbråtan" />
		<tag k="place" v="locality" />
		<tag k="ssr:stedsnr" v="672115" />
	</node>
	<node id="-191897" lat="59.8152833371" lon="9.56725277067">
		<tag k="name" v="Sandbekk" />
		<tag k="place" v="farm" />
		<tag k="ssr:stedsnr" v="672113" />
	</node>
	<node id="-191896" lat="59.8207833345" lon="9.54767499617">
		<tag k="name" v="Tveiten" />
		<tag k="place" v="farm" />
		<tag k="ssr:stedsnr" v="672112" />
	</node>
	<node id="-191891" lat="59.7971333296" lon="9.56310000716">
		<tag k="fixme" v="consider place=hamlet" />
		<tag k="name" v="Ramnås" />
		<tag k="place" v="farm" />
		<tag k="ssr:stedsnr" v="671920" />
	</node>
	<node id="-191890" lat="59.7832666647" lon="9.4412694402">
		<tag k="historic" v="shieling" />
		<tag k="name" v="Åslandsetra" />
		<tag k="place" v="locality" />
		<tag k="ssr:stedsnr" v="671892" />
	</node>
	<node id="-191887" lat="59.8490027802" lon="9.65339999763">
		<tag k="name" v="Øvre Lia" />
		<tag k="place" v="farm" />
		<tag k="ssr:stedsnr" v="671731" />
	</node>
	<node id="-191885" lat="59.8585305582" lon="9.65122222994">
		<tag k="name" v="Teigen" />
		<tag k="place" v="farm" />
		<tag k="ssr:stedsnr" v="671657" />
	</node>
	<node id="-191884" lat="59.7592361107" lon="9.6761805556">
		<tag k="name" v="Nordre Ulland" />
		<tag k="place" v="farm" />
		<tag k="ssr:stedsnr" v="671570" />
	</node>
	<node id="-191883" lat="59.7643250018" lon="9.60857499304">
		<tag k="alt_name" v="Søndre Ås" />
		<tag k="name" v="Søre Ås" />
		<tag k="place" v="farm" />
		<tag k="ssr:stedsnr" v="671553" />
	</node>
	<node id="-191881" lat="59.9754750017" lon="9.48723888054">
		<tag k="name" v="Grøterudplassen" />
		<tag k="place" v="farm" />
		<tag k="ssr:stedsnr" v="671330" />
	</node>
	<node id="-191878" lat="59.9319861145" lon="9.53538888412">
		<tag k="name" v="Øvre Hommelia" />
		<tag k="place" v="farm" />
		<tag k="ssr:stedsnr" v="671158" />
	</node>
	<node id="-191875" lat="59.8337861124" lon="9.31921110289">
		<tag k="name" v="Fagerfjell" />
		<tag k="place" v="neighbourhood" />
		<tag k="ssr:stedsnr" v="671098" />
	</node>
	<node id="-191874" lat="59.8397194425" lon="9.45416944735">
		<tag k="name" v="Nedre Værås" />
		<tag k="place" v="farm" />
		<tag k="ssr:stedsnr" v="671094" />
	</node>
	<node id="-191873" lat="59.8537944486" lon="9.45820000227">
		<tag k="fixme" v="consider place=hamlet" />
		<tag k="name" v="Neset" />
		<tag k="place" v="farm" />
		<tag k="ssr:stedsnr" v="671075" />
	</node>
	<node id="-191872" lat="59.8551038141" lon="9.42581428733">
		<tag k="fixme" v="consider place=hamlet" />
		<tag k="name" v="Høymyr" />
		<tag k="place" v="farm" />
		<tag k="ssr:stedsnr" v="671065" />
	</node>
	<node id="-191870" lat="59.8663638902" lon="9.37374999195">
		<tag k="alt_name" v="Søndre Maugerud" />
		<tag k="name" v="Søre Maugerud" />
		<tag k="place" v="farm" />
		<tag k="ssr:stedsnr" v="671027" />
	</node>
	<node id="-191867" lat="59.8860416638" lon="9.3933749959">
		<tag k="name" v="Evjuåsen" />
		<tag k="place" v="farm" />
		<tag k="ssr:stedsnr" v="671013" />
	</node>
	<node id="-191862" lat="59.8952805511" lon="9.33209166318">
		<tag k="name" v="Søre Juveli" />
		<tag k="old_name" v="Søndre Juveli" />
		<tag k="place" v="farm" />
		<tag k="ssr:stedsnr" v="671230" />
	</node>
	<node id="-191860" lat="59.8982250007" lon="9.38261388927">
		<tag k="name" v="Evju" />
		<tag k="place" v="farm" />
		<tag k="ssr:stedsnr" v="671226" />
	</node>
	<node id="-191858" lat="59.8699694455" lon="9.48828333028">
		<tag k="name" v="Øvre Lehovd" />
		<tag k="place" v="farm" />
		<tag k="ssr:stedsnr" v="666379" />
	</node>
	<node id="-191848" lat="59.8502111091" lon="9.33453889209">
		<tag k="historic" v="shieling" />
		<tag k="name" v="Vingersetra" />
		<tag k="place" v="locality" />
		<tag k="ssr:stedsnr" v="665558" />
	</node>
	<node id="-191835" lat="59.8324805558" lon="9.63208611254">
		<tag k="name" v="Snåbuhytta" />
		<tag k="place" v="isolated_dwelling" />
		<tag k="ssr:stedsnr" v="664497" />
	</node>
	<node id="-191826" lat="59.8454414025" lon="9.53335944551">
		<tag k="fixme" v="consider place=hamlet" />
		<tag k="name" v="Grøsli" />
		<tag k="place" v="farm" />
		<tag k="ssr:stedsnr" v="660339" />
	</node>
	<node id="-191824" lat="59.9115916673" lon="9.40543611354">
		<tag k="name" v="Gvasshovd" />
		<tag k="old_name" v="Vashøvd;Hvashovd" />
		<tag k="place" v="farm" />
		<tag k="ssr:stedsnr" v="660212" />
	</node>
	<node id="-191822" lat="59.7400277777" lon="9.59470832488">
		<tag k="fixme" v="multiple name tags, choose one and add the other to alt_name" />
		<tag k="name" v="Søre Primskott;Nørdre Langeid" />
		<tag k="place" v="locality" />
		<tag k="ssr:stedsnr" v="658688" />
	</node>
	<node id="-191821" lat="59.919230559" lon="9.41356388166">
		<tag k="fixme" v="consider place=hamlet" />
		<tag k="name" v="Stuvstad" />
		<tag k="old_name" v="Stubstad" />
		<tag k="place" v="farm" />
		<tag k="ssr:stedsnr" v="658433" />
	</node>
	<node id="-191820" lat="59.9179055582" lon="9.4007777741">
		<tag k="name" v="Øvre Dakkin" />
		<tag k="old_name" v="Dakin" />
		<tag k="place" v="farm" />
		<tag k="ssr:stedsnr" v="658211" />
	</node>
	<node id="-191818" lat="59.8053222234" lon="9.59014721572">
		<tag k="name" v="Øvre Bråta" />
		<tag k="place" v="farm" />
		<tag k="ssr:stedsnr" v="647688" />
	</node>
	<node id="-191815" lat="59.7829333369" lon="9.59848055467">
		<tag k="name" v="Nordre Ramberg" />
		<tag k="place" v="farm" />
		<tag k="ssr:stedsnr" v="647648" />
	</node>
	<node id="-191809" lat="59.8517777748" lon="9.46602778103">
		<tag k="name" v="Søre Neset" />
		<tag k="place" v="farm" />
		<tag k="ssr:stedsnr" v="646299" />
	</node>
	<node id="-191805" lat="59.8805527764" lon="9.47991945042">
		<tag k="name" v="Østre Øyberg" />
		<tag k="place" v="farm" />
		<tag k="ssr:stedsnr" v="646127" />
	</node>
	<node id="-191804" lat="59.8809527817" lon="9.47626110342">
		<tag k="name" v="Vestre Øyberg" />
		<tag k="place" v="farm" />
		<tag k="ssr:stedsnr" v="646126" />
	</node>
	<node id="-191800" lat="59.902691664" lon="9.49589721337">
		<tag k="name" v="Grorud" />
		<tag k="place" v="locality" />
		<tag k="ssr:stedsnr" v="646074" />
	</node>
	<node id="-191799" lat="59.9175388866" lon="9.39045833875">
		<tag k="name" v="Dalen" />
		<tag k="place" v="farm" />
		<tag k="ssr:stedsnr" v="646072" />
	</node>
	<node id="-191796" lat="59.7925916664" lon="9.58965555104">
		<tag k="fixme" v="consider place=hamlet" />
		<tag k="name" v="Grette" />
		<tag k="place" v="farm" />
		<tag k="ssr:stedsnr" v="631108" />
	</node>
	<node id="-191795" lat="59.9379305587" lon="9.59298610628">
		<tag k="name" v="Pinkerud" />
		<tag k="place" v="locality" />
		<tag k="ssr:stedsnr" v="631058" />
	</node>
	<node id="-191793" lat="59.8319277799" lon="9.60011388694">
		<tag k="name" v="Nilssonplassen" />
		<tag k="place" v="isolated_dwelling" />
		<tag k="ssr:stedsnr" v="611751" />
	</node>
	<node id="-191791" lat="59.8267250027" lon="9.56464721448">
		<tag k="name" v="Myra" />
		<tag k="place" v="farm" />
		<tag k="ssr:stedsnr" v="611107" />
	</node>
	<node id="-191790" lat="59.7577000017" lon="9.58487222953">
		<tag k="name" v="Haugen" />
		<tag k="place" v="farm" />
		<tag k="ssr:stedsnr" v="610979" />
	</node>
	<node id="-191781" lat="59.7673666671" lon="9.59932500724">
		<tag k="alt_name" v="Fonnerud" />
		<tag k="name" v="Fønnerud" />
		<tag k="place" v="farm" />
		<tag k="ssr:stedsnr" v="610597" />
	</node>
	<node id="-191779" lat="59.8093917417" lon="9.67054866956">
		<tag k="name" v="Gutterudsetra" />
		<tag k="place" v="hamlet" />
		<tag k="ssr:stedsnr" v="610588" />
	</node>
	<node id="-191778" lat="59.8076055516" lon="9.60240556111">
		<tag k="name" v="Bråtenhaug" />
		<tag k="place" v="locality" />
		<tag k="ssr:stedsnr" v="610583" />
	</node>
	<node id="-191777" lat="59.8086527776" lon="9.60730000008">
		<tag k="name" v="Solli" />
		<tag k="place" v="farm" />
		<tag k="ssr:stedsnr" v="610581" />
	</node>
	<node id="-191774" lat="59.7870250026" lon="9.60108333209">
		<tag k="name" v="Ramstad" />
		<tag k="place" v="farm" />
		<tag k="ssr:stedsnr" v="610559" />
	</node>
	<node id="-191772" lat="59.9550305548" lon="9.52741666918">
		<tag k="name" v="Tonby" />
		<tag k="place" v="farm" />
		<tag k="ssr:stedsnr" v="610389" />
	</node>
	<node id="-191768" lat="59.8434138921" lon="9.46835277474">
		<tag k="name" v="Nordre Gjellerud" />
		<tag k="place" v="farm" />
		<tag k="ssr:stedsnr" v="610079" />
	</node>
	<node id="-191767" lat="59.8505999992" lon="9.4089111082">
		<tag k="alt_name" v="Søndre Solum" />
		<tag k="name" v="Søre Solum" />
		<tag k="place" v="farm" />
		<tag k="ssr:stedsnr" v="610063" />
	</node>
	<node id="-191766" lat="59.858755557" lon="9.39592499705">
		<tag k="name" v="Hankerud" />
		<tag k="place" v="farm" />
		<tag k="ssr:stedsnr" v="610060" />
	</node>
	<node id="-191764" lat="59.8802361141" lon="9.2664888843">
		<tag k="historic" v="shieling" />
		<tag k="name" v="Klengstul" />
		<tag k="place" v="locality" />
		<tag k="ssr:stedsnr" v="610001" />
	</node>
	<node id="-191763" lat="59.7491777754" lon="9.54922499551">
		<tag k="name" v="Lindbu" />
		<tag k="place" v="farm" />
		<tag k="ssr:stedsnr" v="609470" />
	</node>
	<node id="-191748" lat="59.8369388852" lon="9.50824721614">
		<tag k="name" v="Nordre Åsland" />
		<tag k="place" v="farm" />
		<tag k="ssr:stedsnr" v="604474" />
	</node>
	<node id="-191746" lat="59.9315611103" lon="9.43694444896">
		<tag k="fixme" v="consider place=hamlet" />
		<tag k="name" v="Holtan" />
		<tag k="place" v="farm" />
		<tag k="ssr:stedsnr" v="604159" />
	</node>
	<node id="-191740" lat="59.8378583363" lon="9.57331111084">
		<tag k="name" v="Kløfta" />
		<tag k="place" v="locality" />
		<tag k="ssr:stedsnr" v="603678" />
	</node>
	<node id="-191739" lat="59.8591888918" lon="9.57660556319">
		<tag k="name" v="Nedre Grønbu" />
		<tag k="place" v="locality" />
		<tag k="ssr:stedsnr" v="603549" />
	</node>
	<node id="-191733" lat="59.8187722248" lon="9.34840000626">
		<tag k="name" v="Redningen" />
		<tag k="place" v="isolated_dwelling" />
		<tag k="ssr:stedsnr" v="602975" />
	</node>
	<node id="-191723" lat="59.8665472265" lon="9.33688055586">
		<tag k="name" v="Nedre Annebu" />
		<tag k="place" v="locality" />
		<tag k="ssr:stedsnr" v="598585" />
	</node>
	<node id="-191722" lat="59.9327072148" lon="9.52514069368">
		<tag k="fixme" v="consider place=hamlet" />
		<tag k="name" v="Lislia" />
		<tag k="old_name" v="Lislien" />
		<tag k="place" v="farm" />
		<tag k="ssr:stedsnr" v="598360" />
	</node>
	<node id="-191720" lat="59.9186444426" lon="9.42212777864">
		<tag k="name" v="Øvre Stuvstad" />
		<tag k="place" v="farm" />
		<tag k="ssr:stedsnr" v="597433" />
	</node>
	<node id="-191719" lat="59.9752499966" lon="9.47469445014">
		<tag k="name" v="Nord-Lindteigen" />
		<tag k="place" v="farm" />
		<tag k="ssr:stedsnr" v="597392" />
	</node>
	<node id="-191710" lat="59.7811222234" lon="9.57951388287">
		<tag k="name" v="Nordre Øygarden" />
		<tag k="place" v="farm" />
		<tag k="ssr:stedsnr" v="587662" />
	</node>
	<node id="-191709" lat="59.763536113" lon="9.58668611348">
		<tag k="name" v="Nordre Gvila" />
		<tag k="place" v="farm" />
		<tag k="ssr:stedsnr" v="586872" />
	</node>
	<node id="-191699" lat="59.9056333306" lon="9.4161166613">
		<tag k="name" v="Smedplassen" />
		<tag k="place" v="locality" />
		<tag k="ssr:stedsnr" v="586083" />
	</node>
	<node id="-191698" lat="59.9746527805" lon="9.51673333045">
		<tag k="name" v="Lyotufta" />
		<tag k="place" v="locality" />
		<tag k="ssr:stedsnr" v="585761" />
	</node>
	<node id="-191697" lat="59.9737194458" lon="9.50948055641">
		<tag k="name" v="Molistugo" />
		<tag k="place" v="locality" />
		<tag k="ssr:stedsnr" v="585760" />
	</node>
	<node id="-191691" lat="59.9705027733" lon="9.47218611427">
		<tag k="fixme" v="consider place=hamlet" />
		<tag k="name" v="Lindteigen" />
		<tag k="place" v="farm" />
		<tag k="ssr:stedsnr" v="583379" />
	</node>
	<node id="-191688" lat="59.7195166627" lon="9.60056667526">
		<tag k="alt_name" v="Håvengen;Hovengen;Masovnen" />
		<tag k="name" v="Hovenga" />
		<tag k="place" v="farm" />
		<tag k="ssr:stedsnr" v="569916" />
	</node>
	<node id="-191687" lat="59.8866222196" lon="9.48708055129">
		<tag k="alt_name" v="Søndre Ånnestad" />
		<tag k="name" v="Søre Ånnestad" />
		<tag k="place" v="farm" />
		<tag k="ssr:stedsnr" v="610282" />
	</node>
	<node id="-191686" lat="59.8957972227" lon="9.33547777534">
		<tag k="loc_name" v="Bellbakken" />
		<tag k="name" v="Vollbakken" />
		<tag k="old_name" v="Belbakke" />
		<tag k="place" v="farm" />
		<tag k="ssr:stedsnr" v="610274" />
	</node>
	<node id="-191683" lat="59.9061749996" lon="9.33994721864">
		<tag k="name" v="Oredalen" />
		<tag k="old_name" v="Oredalen nordre;Nørdre Oredalen" />
		<tag k="place" v="farm" />
		<tag k="ssr:stedsnr" v="610255" />
	</node>
	<node id="-191682" lat="59.9161750027" lon="9.42847777334">
		<tag k="name" v="Øvre Teigen" />
		<tag k="place" v="farm" />
		<tag k="ssr:stedsnr" v="610234" />
	</node>
	<node id="-191681" lat="59.9183583314" lon="9.49977500623">
		<tag k="fixme" v="consider place=hamlet" />
		<tag k="name" v="Bakli" />
		<tag k="place" v="farm" />
		<tag k="ssr:stedsnr" v="610233" />
	</node>
	<node id="-191675" lat="59.7933249985" lon="9.51882500513">
		<tag k="name" v="Nedre Mangelen" />
		<tag k="place" v="isolated_dwelling" />
		<tag k="ssr:stedsnr" v="550900" />
	</node>
	<node id="-191672" lat="59.8058111148" lon="9.59528888293">
		<tag k="name" v="Hagan" />
		<tag k="place" v="farm" />
		<tag k="ssr:stedsnr" v="550520" />
	</node>
	<node id="-191671" lat="59.782774997" lon="9.5989833356">
		<tag k="fixme" v="consider place=hamlet" />
		<tag k="name" v="Ramberg" />
		<tag k="place" v="farm" />
		<tag k="ssr:stedsnr" v="550505" />
	</node>
	<node id="-191670" lat="59.7950749999" lon="9.70190555756">
		<tag k="historic" v="shieling" />
		<tag k="name" v="Gvamsetra" />
		<tag k="place" v="locality" />
		<tag k="ssr:stedsnr" v="550500" />
	</node>
	<node id="-191667" lat="59.9549194464" lon="9.48159999151">
		<tag k="name" v="Lauvli" />
		<tag k="place" v="farm" />
		<tag k="ssr:stedsnr" v="550344" />
	</node>
	<node id="-191666" lat="59.8915500045" lon="9.35880277244">
		<tag k="fixme" v="consider place=hamlet" />
		<tag k="name" v="Juvenes" />
		<tag k="place" v="farm" />
		<tag k="ssr:stedsnr" v="550247" />
	</node>
	<node id="-191664" lat="59.8989777736" lon="9.44838056031">
		<tag k="name" v="Kjølberg" />
		<tag k="place" v="farm" />
		<tag k="ssr:stedsnr" v="550227" />
	</node>
	<node id="-191663" lat="59.901602779" lon="9.44491389136">
		<tag k="name" v="Kjølset" />
		<tag k="place" v="farm" />
		<tag k="ssr:stedsnr" v="550224" />
	</node>
	<node id="-191661" lat="59.9470722223" lon="9.55341111324">
		<tag k="name" v="Østskaugen" />
		<tag k="place" v="hamlet" />
		<tag k="ssr:stedsnr" v="550162" />
	</node>
	<node id="-191659" lat="59.9437416661" lon="9.48199445028">
		<tag k="name" v="Åsan" />
		<tag k="place" v="farm" />
		<tag k="ssr:stedsnr" v="550141" />
	</node>
	<node id="-191658" lat="59.817625" lon="9.42201666918">
		<tag k="historic" v="shieling" />
		<tag k="name" v="Gjellerudsetra" />
		<tag k="place" v="locality" />
		<tag k="ssr:stedsnr" v="550133" />
	</node>
	<node id="-191653" lat="59.8420305583" lon="9.51380000641">
		<tag k="name" v="Snapperud" />
		<tag k="place" v="farm" />
		<tag k="ssr:stedsnr" v="550091" />
	</node>
	<node id="-191650" lat="59.8490749956" lon="9.51578055668">
		<tag k="fixme" v="consider place=hamlet" />
		<tag k="name" v="Bringe" />
		<tag k="old_name" v="Bringe vestre" />
		<tag k="place" v="farm" />
		<tag k="ssr:stedsnr" v="550079" />
	</node>
	<node id="-191649" lat="59.8629805533" lon="9.43245554994">
		<tag k="fixme" v="consider place=suburb, village or hamlet" />
		<tag k="name" v="Flesberg" />
		<tag k="place" v="quarter" />
		<tag k="ssr:stedsnr" v="550046" />
	</node>
	<node id="-191644" lat="59.7709944465" lon="9.50765278386">
		<tag k="historic" v="shieling" />
		<tag k="name" v="Sextussetra" />
		<tag k="place" v="locality" />
		<tag k="ssr:stedsnr" v="549867" />
	</node>
	<node id="-191643" lat="59.8190916684" lon="9.66270277896">
		<tag k="historic" v="shieling" />
		<tag k="name" v="Rustansetra" />
		<tag k="place" v="locality" />
		<tag k="ssr:stedsnr" v="549694" />
	</node>
	<node id="-191642" lat="59.7735916665" lon="9.5968750016">
		<tag k="name" v="Søre Garder" />
		<tag k="place" v="farm" />
		<tag k="ssr:stedsnr" v="549578" />
	</node>
	<node id="-191638" lat="59.8884916672" lon="9.53908332946">
		<tag k="name" v="Åsen" />
		<tag k="place" v="farm" />
		<tag k="ssr:stedsnr" v="549236" />
	</node>
	<node id="-191636" lat="59.9312527779" lon="9.43699167124">
		<tag k="name" v="Vestre Holtan" />
		<tag k="place" v="farm" />
		<tag k="ssr:stedsnr" v="549172" />
	</node>
	<node id="-191635" lat="59.9328027759" lon="9.54800000636">
		<tag k="name" v="Hommeliberget" />
		<tag k="place" v="farm" />
		<tag k="ssr:stedsnr" v="549162" />
	</node>
	<node id="-191634" lat="59.833269445" lon="9.54245555876">
		<tag k="name" v="Rindum" />
		<tag k="place" v="farm" />
		<tag k="ssr:stedsnr" v="549107" />
	</node>
	<node id="-191633" lat="59.8348555574" lon="9.57911945183">
		<tag k="fixme" v="consider place=suburb, village or hamlet" />
		<tag k="name" v="Lampeland" />
		<tag k="place" v="quarter" />
		<tag k="ssr:stedsnr" v="549106" />
	</node>
	<node id="-191632" lat="59.8698055577" lon="9.48788611172">
		<tag k="fixme" v="consider place=hamlet" />
		<tag k="name" v="Lehovd" />
		<tag k="place" v="farm" />
		<tag k="ssr:stedsnr" v="549044" />
	</node>
	<node id="-191631" lat="59.8799027759" lon="9.45409166309">
		<tag k="name" v="Sedalen" />
		<tag k="place" v="farm" />
		<tag k="ssr:stedsnr" v="549009" />
	</node>
	<node id="-191630" lat="59.8860611089" lon="9.58587500809">
		<tag k="name" v="Hønserud" />
		<tag k="place" v="farm" />
		<tag k="ssr:stedsnr" v="549003" />
	</node>
	<node id="-191627" lat="59.8376916706" lon="9.38427778362">
		<tag k="name" v="Glimmerhytta" />
		<tag k="place" v="isolated_dwelling" />
		<tag k="ssr:stedsnr" v="544508" />
	</node>
	<node id="-191623" lat="59.833805558" lon="9.44408333405">
		<tag k="name" v="Surtelia" />
		<tag k="place" v="locality" />
		<tag k="ssr:stedsnr" v="544472" />
	</node>
	<node id="-191622" lat="59.8688194436" lon="9.28733055048">
		<tag k="historic" v="shieling" />
		<tag k="name" v="Sølbu" />
		<tag k="place" v="locality" />
		<tag k="ssr:stedsnr" v="544473" />
	</node>
	<node id="-191620" lat="59.8428888869" lon="9.48046388831">
		<tag k="name" v="Østre Berget" />
		<tag k="place" v="farm" />
		<tag k="ssr:stedsnr" v="544457" />
	</node>
	<node id="-191618" lat="59.9460972199" lon="9.47157500029">
		<tag k="name" v="Søre Haugan" />
		<tag k="place" v="farm" />
		<tag k="ssr:stedsnr" v="543914" />
	</node>
	<node id="-191613" lat="59.918197219" lon="9.49872222616">
		<tag k="name" v="Nedre Bakli" />
		<tag k="place" v="farm" />
		<tag k="ssr:stedsnr" v="543889" />
	</node>
	<node id="-191601" lat="59.9125138895" lon="9.41582777143">
		<tag k="name" v="Øvre Linås" />
		<tag k="place" v="farm" />
		<tag k="ssr:stedsnr" v="538418" />
	</node>
	<node id="-191600" lat="59.9333694481" lon="9.5272722185">
		<tag k="name" v="Søre Lislelia" />
		<tag k="place" v="farm" />
		<tag k="ssr:stedsnr" v="538416" />
	</node>
	<node id="-191599" lat="59.9139805587" lon="9.39440555391">
		<tag k="alt_name" v="Nørdre Bergan" />
		<tag k="name" v="Nordre Bergan" />
		<tag k="old_name" v="Bergen no:" />
		<tag k="place" v="farm" />
		<tag k="ssr:stedsnr" v="538381" />
	</node>
	<node id="-191597" lat="59.7475916654" lon="9.68239167449">
		<tag k="name" v="Gutterud" />
		<tag k="place" v="farm" />
		<tag k="ssr:stedsnr" v="537665" />
	</node>
	<node id="-191596" lat="59.8850527791" lon="9.36483332845">
		<tag k="name" v="Søre Kjennås" />
		<tag k="place" v="farm" />
		<tag k="ssr:stedsnr" v="537362" />
	</node>
	<node id="-191595" lat="59.8973284919" lon="9.33324100504">
		<tag k="name" v="Mellom-Juveli" />
		<tag k="place" v="farm" />
		<tag k="ssr:stedsnr" v="537218" />
	</node>
	<node id="-191591" lat="59.7354138923" lon="9.60754444079">
		<tag k="fixme" v="multiple name tags, choose one and add the other to alt_name" />
		<tag k="name" v="Kristenbråtån;Bråtån" />
		<tag k="place" v="farm" />
		<tag k="ssr:stedsnr" v="527676" />
	</node>
	<node id="-191590" lat="59.801269447" lon="9.56179166985">
		<tag k="name" v="Tonhaugen" />
		<tag k="place" v="isolated_dwelling" />
		<tag k="ssr:stedsnr" v="526700" />
	</node>
	<node id="-191589" lat="59.8073305574" lon="9.61212777904">
		<tag k="name" v="Øvre Berg" />
		<tag k="place" v="farm" />
		<tag k="ssr:stedsnr" v="526679" />
	</node>
	<node id="-191588" lat="59.7584861127" lon="9.67527500314">
		<tag k="name" v="Nedre Ulland" />
		<tag k="place" v="farm" />
		<tag k="ssr:stedsnr" v="526676" />
	</node>
	<node id="-191586" lat="59.922033335" lon="9.44765833417">
		<tag k="name" v="Østre Landerud" />
		<tag k="place" v="farm" />
		<tag k="ssr:stedsnr" v="525883" />
	</node>
	<node id="-191584" lat="59.8677499996" lon="9.43762500639">
		<tag k="name" v="Prestegårdsgrenda" />
		<tag k="place" v="quarter" />
		<tag k="ssr:stedsnr" v="525323" />
	</node>
	<node id="-191581" lat="59.878736115" lon="9.46776389643">
		<tag k="name" v="Vestre Lande" />
		<tag k="place" v="farm" />
		<tag k="ssr:stedsnr" v="525158" />
	</node>
	<node id="-191580" lat="59.9065999997" lon="9.52720556026">
		<tag k="name" v="Solvang" />
		<tag k="place" v="isolated_dwelling" />
		<tag k="ssr:stedsnr" v="525103" />
	</node>
	<node id="-191579" lat="59.9223916679" lon="9.38901388416">
		<tag k="name" v="Krinkerud" />
		<tag k="place" v="locality" />
		<tag k="ssr:stedsnr" v="525087" />
	</node>
	<node id="-191577" lat="59.9089138883" lon="9.52799445246">
		<tag k="name" v="Nordre Berget" />
		<tag k="place" v="farm" />
		<tag k="ssr:stedsnr" v="525078" />
	</node>
	<node id="-191573" lat="59.90443056" lon="9.54397777103">
		<tag k="name" v="Gjerde" />
		<tag k="place" v="farm" />
		<tag k="ssr:stedsnr" v="510039" />
	</node>
	<node id="-191571" lat="59.8360249961" lon="9.69372222958">
		<tag k="name" v="Gruvevollen" />
		<tag k="place" v="isolated_dwelling" />
		<tag k="ssr:stedsnr" v="490752" />
	</node>
	<node id="-191568" lat="59.8199749983" lon="9.39008332767">
		<tag k="historic" v="shieling" />
		<tag k="name" v="Væråssetra" />
		<tag k="place" v="locality" />
		<tag k="ssr:stedsnr" v="490120" />
	</node>
	<node id="-191567" lat="59.8138277779" lon="9.53015555543">
		<tag k="historic" v="shieling" />
		<tag k="name" v="Gårdåssetra" />
		<tag k="place" v="locality" />
		<tag k="ssr:stedsnr" v="490118" />
	</node>
	<node id="-191565" lat="59.8033138857" lon="9.55982777378">
		<tag k="name" v="Ton" />
		<tag k="place" v="farm" />
		<tag k="ssr:stedsnr" v="489910" />
	</node>
	<node id="-191563" lat="59.7696500038" lon="9.44429999815">
		<tag k="name" v="Blestølen" />
		<tag k="place" v="neighbourhood" />
		<tag k="ssr:stedsnr" v="489874" />
	</node>
	<node id="-191562" lat="59.7766972257" lon="9.57915277433">
		<tag k="name" v="Ramsrud" />
		<tag k="place" v="farm" />
		<tag k="ssr:stedsnr" v="489872" />
	</node>
	<node id="-191554" lat="59.7582500025" lon="9.59943333068">
		<tag k="alt_name" v="Søndre Kvear" />
		<tag k="name" v="Søre Kvear" />
		<tag k="place" v="farm" />
		<tag k="ssr:stedsnr" v="489606" />
	</node>
	<node id="-191552" lat="59.8073472238" lon="9.60868611123">
		<tag k="name" v="Nedre Berg" />
		<tag k="place" v="farm" />
		<tag k="ssr:stedsnr" v="489578" />
	</node>
	<node id="-191550" lat="59.8112583325" lon="9.60164999968">
		<tag k="historic" v="shieling" />
		<tag k="name" v="Mojarshagan" />
		<tag k="place" v="locality" />
		<tag k="ssr:stedsnr" v="489568" />
	</node>
	<node id="-191546" lat="59.9512249989" lon="9.50524999755">
		<tag k="fixme" v="consider place=hamlet" />
		<tag k="name" v="Kjølås" />
		<tag k="place" v="farm" />
		<tag k="ssr:stedsnr" v="489360" />
	</node>
	<node id="-191545" lat="59.9568638917" lon="9.5227722251">
		<tag k="name" v="Gautnebb" />
		<tag k="place" v="farm" />
		<tag k="ssr:stedsnr" v="489357" />
	</node>
	<node id="-191543" lat="59.9662805535" lon="9.49327777511">
		<tag k="name" v="Flatin" />
		<tag k="place" v="farm" />
		<tag k="ssr:stedsnr" v="489333" />
	</node>
	<node id="-191542" lat="59.8956861118" lon="9.56949166231">
		<tag k="name" v="Hanserud" />
		<tag k="place" v="farm" />
		<tag k="ssr:stedsnr" v="489280" />
	</node>
	<node id="-191541" lat="59.8880444457" lon="9.53048611857">
		<tag k="name" v="Øvre Vatnebrynn" />
		<tag k="place" v="farm" />
		<tag k="ssr:stedsnr" v="489272" />
	</node>
	<node id="-191540" lat="59.8993527809" lon="9.33531944176">
		<tag k="name" v="Nord-Juveli" />
		<tag k="old_name" v="Nordre Juveli" />
		<tag k="place" v="farm" />
		<tag k="ssr:stedsnr" v="489264" />
	</node>
	<node id="-191539" lat="59.9075222265" lon="9.45307777779">
		<tag k="name" v="Kloppås" />
		<tag k="place" v="farm" />
		<tag k="ssr:stedsnr" v="489239" />
	</node>
	<node id="-191537" lat="59.9222750014" lon="9.44731666274">
		<tag k="fixme" v="consider place=hamlet" />
		<tag k="name" v="Landerud" />
		<tag k="place" v="farm" />
		<tag k="ssr:stedsnr" v="489196" />
	</node>
	<node id="-191535" lat="59.828372221" lon="9.54262222099">
		<tag k="fixme" v="consider place=hamlet" />
		<tag k="name" v="Gårdås" />
		<tag k="old_name" v="Gaardaas" />
		<tag k="place" v="farm" />
		<tag k="ssr:stedsnr" v="489126" />
	</node>
	<node id="-191534" lat="59.8246777753" lon="9.31298332549">
		<tag k="historic" v="shieling" />
		<tag k="name" v="Sandvassetra" />
		<tag k="place" v="locality" />
		<tag k="ssr:stedsnr" v="489120" />
	</node>
	<node id="-191533" lat="59.8361416644" lon="9.51126388888">
		<tag k="fixme" v="consider place=hamlet" />
		<tag k="name" v="Åsland" />
		<tag k="place" v="farm" />
		<tag k="ssr:stedsnr" v="489117" />
	</node>
	<node id="-191531" lat="59.8435194435" lon="9.54603054904">
		<tag k="name" v="Øvre Stemning" />
		<tag k="place" v="farm" />
		<tag k="ssr:stedsnr" v="489101" />
	</node>
	<node id="-191530" lat="59.8430388899" lon="9.47172223034">
		<tag k="alt_name" v="Søndre Gjellerud" />
		<tag k="name" v="Søre Gjellerud" />
		<tag k="place" v="farm" />
		<tag k="ssr:stedsnr" v="489091" />
	</node>
	<node id="-191529" lat="59.8516250021" lon="9.51173333152">
		<tag k="name" v="Kleiva" />
		<tag k="place" v="farm" />
		<tag k="ssr:stedsnr" v="489082" />
	</node>
	<node id="-191525" lat="59.8621000005" lon="9.22781388843">
		<tag k="historic" v="shieling" />
		<tag k="name" v="Krokstul" />
		<tag k="place" v="locality" />
		<tag k="ssr:stedsnr" v="489044" />
	</node>
	<node id="-191519" lat="59.8779250017" lon="9.29403332586">
		<tag k="historic" v="shieling" />
		<tag k="name" v="Juvelisetra" />
		<tag k="place" v="locality" />
		<tag k="ssr:stedsnr" v="489009" />
	</node>
	<node id="-191506" lat="59.8361138861" lon="9.50371944641">
		<tag k="name" v="Vestre Åsland" />
		<tag k="place" v="farm" />
		<tag k="ssr:stedsnr" v="483500" />
	</node>
	<node id="-191505" lat="59.8422083348" lon="9.48047222974">
		<tag k="name" v="Vestre Berget" />
		<tag k="place" v="farm" />
		<tag k="ssr:stedsnr" v="483498" />
	</node>
	<node id="-191498" lat="59.8402250033" lon="9.6236138896">
		<tag k="historic" v="shieling" />
		<tag k="name" v="Lampelandsetra" />
		<tag k="place" v="locality" />
		<tag k="ssr:stedsnr" v="482536" />
	</node>
	<node id="-191494" lat="59.805044441" lon="9.39220832768">
		<tag k="name" v="Sjuvasslia" />
		<tag k="place" v="neighbourhood" />
		<tag k="ssr:stedsnr" v="481773" />
	</node>
	<node id="-191493" lat="59.7883805516" lon="9.58553888563">
		<tag k="name" v="Krinkhaug" />
		<tag k="place" v="farm" />
		<tag k="ssr:stedsnr" v="480245" />
	</node>
	<node id="-191488" lat="59.7385888905" lon="9.58913056185">
		<tag k="building" v="industrial" />
		<tag k="name" v="Sølvverksstua" />
		<tag k="ssr:stedsnr" v="466838" />
	</node>
	<node id="-191485" lat="59.9060222202" lon="9.3541027839">
		<tag k="name" v="Sundet" />
		<tag k="place" v="farm" />
		<tag k="ssr:stedsnr" v="466826" />
	</node>
	<node id="-191484" lat="59.7902277777" lon="9.56946389691">
		<tag k="name" v="Fossplassen" />
		<tag k="place" v="farm" />
		<tag k="ssr:stedsnr" v="466713" />
	</node>
	<node id="-191482" lat="59.7530361151" lon="9.61447777309">
		<tag k="name" v="Søre Håvardsrud" />
		<tag k="place" v="farm" />
		<tag k="ssr:stedsnr" v="465888" />
	</node>
	<node id="-191479" lat="59.8538166683" lon="9.45818333246">
		<tag k="name" v="Øvre Neset" />
		<tag k="place" v="farm" />
		<tag k="ssr:stedsnr" v="465303" />
	</node>
	<node id="-191474" lat="59.9008722228" lon="9.49241944525">
		<tag k="name" v="Halvorsbråtån" />
		<tag k="place" v="locality" />
		<tag k="ssr:stedsnr" v="465079" />
	</node>
	<node id="-191473" lat="59.9741666647" lon="9.47933611361">
		<tag k="name" v="Mariplassen" />
		<tag k="place" v="locality" />
		<tag k="ssr:stedsnr" v="464808" />
	</node>
	<node id="-191469" lat="59.9221250026" lon="9.44495833923">
		<tag k="name" v="Landerudplass" />
		<tag k="place" v="locality" />
		<tag k="ssr:stedsnr" v="464902" />
	</node>
	<node id="-191468" lat="59.9165888849" lon="9.38916110577">
		<tag k="name" v="Ormenatten" />
		<tag k="place" v="isolated_dwelling" />
		<tag k="ssr:stedsnr" v="464088" />
	</node>
	<node id="-191463" lat="59.7622519425" lon="9.58655584157">
		<tag k="fixme" v="consider place=hamlet" />
		<tag k="name" v="Gvila" />
		<tag k="place" v="farm" />
		<tag k="ssr:stedsnr" v="429988" />
	</node>
	<node id="-191460" lat="59.7991750013" lon="9.57874166662">
		<tag k="name" v="Svenesund" />
		<tag k="place" v="farm" />
		<tag k="ssr:stedsnr" v="429918" />
	</node>
	<node id="-191459" lat="59.7887999956" lon="9.42731111724">
		<tag k="historic" v="shieling" />
		<tag k="name" v="Nørdre Åslandsetra" />
		<tag k="place" v="locality" />
		<tag k="ssr:stedsnr" v="429908" />
	</node>
	<node id="-191458" lat="59.9049944451" lon="9.69562500672">
		<tag k="fixme" v="multiple name tags, choose one and add the other to alt_name" />
		<tag k="historic" v="shieling" />
		<tag k="name" v="Lyubekktangen;Lybekk" />
		<tag k="place" v="locality" />
		<tag k="ssr:stedsnr" v="429824" />
	</node>
	<node id="-191454" lat="59.7522972239" lon="9.58972777699">
		<tag k="name" v="Gråten" />
		<tag k="place" v="farm" />
		<tag k="ssr:stedsnr" v="429606" />
	</node>
	<node id="-191453" lat="59.8084000018" lon="9.64800000483">
		<tag k="name" v="Lauvtjernhaugen" />
		<tag k="place" v="farm" />
		<tag k="ssr:stedsnr" v="429523" />
	</node>
	<node id="-191450" lat="59.9043999968" lon="9.41401110721">
		<tag k="name" v="Hungeråsen" />
		<tag k="place" v="farm" />
		<tag k="ssr:stedsnr" v="429200" />
	</node>
	<node id="-191449" lat="59.9116611088" lon="9.5248138878">
		<tag k="alt_name" v="Lyngjorden" />
		<tag k="name" v="Lyngjorda" />
		<tag k="place" v="farm" />
		<tag k="ssr:stedsnr" v="429197" />
	</node>
	<node id="-191448" lat="59.9066249978" lon="9.52444999311">
		<tag k="name" v="Livland" />
		<tag k="old_name" v="Liveland" />
		<tag k="place" v="farm" />
		<tag k="ssr:stedsnr" v="429194" />
	</node>
	<node id="-191447" lat="59.9160666664" lon="9.52828333455">
		<tag k="name" v="Nedre Bekkjorden" />
		<tag k="old_name" v="Nedre Helgerud" />
		<tag k="place" v="farm" />
		<tag k="ssr:stedsnr" v="429181" />
	</node>
	<node id="-191446" lat="59.939441667" lon="9.47863610364">
		<tag k="name" v="Dusterud" />
		<tag k="place" v="farm" />
		<tag k="ssr:stedsnr" v="429123" />
	</node>
	<node id="-191445" lat="59.8315444463" lon="9.56522777126">
		<tag k="alt_name" v="Tåskje" />
		<tag k="name" v="Toskje" />
		<tag k="old_name" v="Taaske" />
		<tag k="place" v="farm" />
		<tag k="ssr:stedsnr" v="429114" />
	</node>
	<node id="-191443" lat="59.8290027798" lon="9.53385833304">
		<tag k="name" v="Tollum" />
		<tag k="place" v="farm" />
		<tag k="ssr:stedsnr" v="429112" />
	</node>
	<node id="-191442" lat="59.8167861124" lon="9.34038611269">
		<tag k="historic" v="shieling" />
		<tag k="name" v="Tvangsetra" />
		<tag k="place" v="locality" />
		<tag k="ssr:stedsnr" v="429106" />
	</node>
	<node id="-191439" lat="59.8421666656" lon="9.48030834161">
		<tag k="fixme" v="consider place=hamlet" />
		<tag k="name" v="Berget" />
		<tag k="place" v="farm" />
		<tag k="ssr:stedsnr" v="429067" />
	</node>
	<node id="-191437" lat="59.8523138905" lon="9.40245278644">
		<tag k="name" v="Nordre Solum" />
		<tag k="place" v="farm" />
		<tag k="ssr:stedsnr" v="429054" />
	</node>
	<node id="-191436" lat="59.8580083354" lon="9.39925554894">
		<tag k="name" v="Tullerud" />
		<tag k="place" v="farm" />
		<tag k="ssr:stedsnr" v="429052" />
	</node>
	<node id="-191433" lat="59.8045249964" lon="9.43501388436">
		<tag k="historic" v="shieling" />
		<tag k="name" v="Løstadsetra" />
		<tag k="place" v="locality" />
		<tag k="ssr:stedsnr" v="428915" />
	</node>
	<node id="-191432" lat="59.911041664" lon="9.62311666428">
		<tag k="historic" v="shieling" />
		<tag k="name" v="Lonarsetra" />
		<tag k="place" v="locality" />
		<tag k="ssr:stedsnr" v="428845" />
	</node>
	<node id="-191430" lat="59.7303333336" lon="9.60461388272">
		<tag k="name" v="Luteberget" />
		<tag k="place" v="farm" />
		<tag k="ssr:stedsnr" v="428631" />
	</node>
	<node id="-191429" lat="59.7658805533" lon="9.60758055606">
		<tag k="alt_name" v="Nordre Ås" />
		<tag k="name" v="Nord-Ås" />
		<tag k="place" v="farm" />
		<tag k="ssr:stedsnr" v="428519" />
	</node>
	<node id="-191428" lat="59.7453638849" lon="9.45201666421">
		<tag k="historic" v="shieling" />
		<tag k="name" v="Strandesetra" />
		<tag k="place" v="locality" />
		<tag k="ssr:stedsnr" v="428442" />
	</node>
	<node id="-191424" lat="59.9724166696" lon="9.45098333249">
		<tag k="name" v="Hovet" />
		<tag k="old_name" v="Haave" />
		<tag k="place" v="farm" />
		<tag k="ssr:stedsnr" v="428290" />
	</node>
	<node id="-191423" lat="59.9881055599" lon="9.47134444428">
		<tag k="historic" v="shieling" />
		<tag k="name" v="Grøterudsetra" />
		<tag k="place" v="locality" />
		<tag k="ssr:stedsnr" v="428283" />
	</node>
	<node id="-191421" lat="59.9170277736" lon="9.4387388877">
		<tag k="name" v="Øvre Teigen" />
		<tag k="place" v="farm" />
		<tag k="ssr:stedsnr" v="428167" />
	</node>
	<node id="-191420" lat="59.9271277799" lon="9.38253611816">
		<tag k="name" v="Øvre Brattås" />
		<tag k="place" v="farm" />
		<tag k="ssr:stedsnr" v="428161" />
	</node>
	<node id="-191418" lat="59.9293388854" lon="9.44517778665">
		<tag k="alt_name" v="Mellom Holtan" />
		<tag k="name" v="Midtre Holtan" />
		<tag k="place" v="farm" />
		<tag k="ssr:stedsnr" v="428147" />
	</node>
	<node id="-191417" lat="59.9393555565" lon="9.49427499952">
		<tag k="name" v="Lågstykket" />
		<tag k="place" v="farm" />
		<tag k="ssr:stedsnr" v="428145" />
	</node>
	<node id="-191416" lat="59.9365254762" lon="9.4982608089">
		<tag k="name" v="Nordre Låg" />
		<tag k="place" v="farm" />
		<tag k="ssr:stedsnr" v="428144" />
	</node>
	<node id="-191415" lat="59.9385277811" lon="9.4717722222">
		<tag k="name" v="Øvre Sønnåsen" />
		<tag k="place" v="farm" />
		<tag k="ssr:stedsnr" v="428143" />
	</node>
	<node id="-191413" lat="59.8692527769" lon="9.23124165829">
		<tag k="historic" v="shieling" />
		<tag k="name" v="Bråtahøl" />
		<tag k="old_name" v="Braatehul" />
		<tag k="place" v="locality" />
		<tag k="ssr:stedsnr" v="428018" />
	</node>
	<node id="-191410" lat="59.8785222246" lon="9.26801388375">
		<tag k="historic" v="shieling" />
		<tag k="name" v="Øystul" />
		<tag k="place" v="locality" />
		<tag k="ssr:stedsnr" v="428006" />
	</node>
	<node id="-191399" lat="59.835880553" lon="9.5107111164">
		<tag k="name" v="Åsland" />
		<tag k="place" v="farm" />
		<tag k="ssr:stedsnr" v="423507" />
	</node>
	<node id="-191394" lat="59.8523861072" lon="9.34362777219">
		<tag k="historic" v="shieling" />
		<tag k="name" v="Pinka" />
		<tag k="place" v="locality" />
		<tag k="ssr:stedsnr" v="423311" />
	</node>
	<node id="-191392" lat="59.9528416693" lon="9.50771111925">
		<tag k="name" v="Østre Kjølås" />
		<tag k="place" v="farm" />
		<tag k="ssr:stedsnr" v="422945" />
	</node>
	<node id="-191388" lat="59.8794277756" lon="9.6046083282">
		<tag k="name" v="Gullikseter" />
		<tag k="place" v="locality" />
		<tag k="ssr:stedsnr" v="422574" />
	</node>
	<node id="-191379" lat="59.8091944455" lon="9.67046944443">
		<tag k="historic" v="shieling" />
		<tag k="name" v="Søre Gutterudsetra" />
		<tag k="place" v="locality" />
		<tag k="ssr:stedsnr" v="421734" />
	</node>
	<node id="-191366" lat="59.8460277779" lon="9.53177777981">
		<tag k="alt_name" v="Nordre Grøsli" />
		<tag k="name" v="Nord-Grøsli" />
		<tag k="place" v="farm" />
		<tag k="ssr:stedsnr" v="418079" />
	</node>
	<node id="-191364" lat="59.8898666654" lon="9.49282499242">
		<tag k="name" v="Nedre Li" />
		<tag k="place" v="farm" />
		<tag k="ssr:stedsnr" v="429230" />
	</node>
	<node id="-191362" lat="59.8996388892" lon="9.45950833045">
		<tag k="name" v="Snarhaugen" />
		<tag k="place" v="isolated_dwelling" />
		<tag k="ssr:stedsnr" v="429212" />
	</node>
	<node id="-191361" lat="59.7464749998" lon="9.60002221414">
		<tag k="fixme" v="multiple name tags, choose one and add the other to alt_name" />
		<tag k="name" v="Primskott;Nørdre Langeid" />
		<tag k="place" v="farm" />
		<tag k="ssr:stedsnr" v="416670" />
	</node>
	<node id="-191359" lat="59.797124996" lon="9.56298888526">
		<tag k="name" v="Mellom-Ramnås" />
		<tag k="place" v="farm" />
		<tag k="ssr:stedsnr" v="416629" />
	</node>
	<node id="-191358" lat="59.7792499969" lon="9.46097222878">
		<tag k="historic" v="shieling" />
		<tag k="name" v="Ådalssetra" />
		<tag k="place" v="locality" />
		<tag k="ssr:stedsnr" v="415991" />
	</node>
	<node id="-191356" lat="59.8370305542" lon="9.24423889576">
		<tag k="historic" v="shieling" />
		<tag k="name" v="Gunnulvsbua" />
		<tag k="place" v="locality" />
		<tag k="ssr:stedsnr" v="415068" />
	</node>
	<node id="-191355" lat="59.801733331" lon="9.67374167115">
		<tag k="historic" v="shieling" />
		<tag k="name" v="Gvamseter" />
		<tag k="place" v="locality" />
		<tag k="ssr:stedsnr" v="268794" />
	</node>
	<node id="-191354" lat="59.7498249961" lon="9.53552222162">
		<tag k="name" v="Øvre Bråtån" />
		<tag k="place" v="farm" />
		<tag k="ssr:stedsnr" v="247965" />
	</node>
	<node id="-191353" lat="59.9200500022" lon="9.68245277467">
		<tag k="alt_name" v="Ingebu" />
		<tag k="name" v="Vestre Ingebu" />
		<tag k="place" v="farm" />
		<tag k="ssr:stedsnr" v="247840" />
	</node>
	<node id="-191352" lat="59.9245361143" lon="9.63385000144">
		<tag k="historic" v="shieling" />
		<tag k="name" v="Letmolisetra" />
		<tag k="place" v="locality" />
		<tag k="ssr:stedsnr" v="247837" />
	</node>
	<node id="-191351" lat="59.9265249956" lon="9.62602500405">
		<tag k="name" v="Grønli" />
		<tag k="place" v="farm" />
		<tag k="ssr:stedsnr" v="247835" />
	</node>
	<node id="-191349" lat="59.8332305519" lon="9.66498333567">
		<tag k="historic" v="shieling" />
		<tag k="name" v="Moensetra" />
		<tag k="place" v="locality" />
		<tag k="ssr:stedsnr" v="247735" />
	</node>
	<node id="-191347" lat="59.8659305574" lon="9.6797583282">
		<tag k="name" v="Skulkeroa" />
		<tag k="place" v="locality" />
		<tag k="ssr:stedsnr" v="247625" />
	</node>
	<node id="-191346" lat="59.8018833333" lon="9.59397222167">
		<tag k="fixme" v="consider place=hamlet" />
		<tag k="name" v="Nord-Kopangen" />
		<tag k="old_name" v="No: Kopangen" />
		<tag k="place" v="farm" />
		<tag k="ssr:stedsnr" v="247527" />
	</node>
	<node id="-191343" lat="59.8864222217" lon="9.36286388927">
		<tag k="name" v="Kjennås" />
		<tag k="old_name" v="Kjenaas;Kjönnaas" />
		<tag k="place" v="farm" />
		<tag k="ssr:stedsnr" v="247238" />
	</node>
	<node id="-191341" lat="59.9189802126" lon="9.51036487825">
		<tag k="alt_name" v="Lyngbakken" />
		<tag k="name" v="Kjerstiplassen" />
		<tag k="place" v="isolated_dwelling" />
		<tag k="ssr:stedsnr" v="247184" />
	</node>
	<node id="-191340" lat="59.9460749965" lon="9.53924999578">
		<tag k="name" v="Rust" />
		<tag k="place" v="farm" />
		<tag k="ssr:stedsnr" v="247161" />
	</node>
	<node id="-191339" lat="59.9475388908" lon="9.56700000498">
		<tag k="name" v="Kjosar" />
		<tag k="place" v="farm" />
		<tag k="ssr:stedsnr" v="247159" />
	</node>
	<node id="-191338" lat="59.9462861122" lon="9.54716389708">
		<tag k="name" v="Bråta" />
		<tag k="place" v="farm" />
		<tag k="ssr:stedsnr" v="247160" />
	</node>
	<node id="-191337" lat="59.8312249971" lon="9.36315555871">
		<tag k="historic" v="shieling" />
		<tag k="name" v="Våtvassbua" />
		<tag k="old_name" v="Våtvassetra;Våtvassætra" />
		<tag k="place" v="locality" />
		<tag k="ssr:stedsnr" v="247086" />
	</node>
	<node id="-191336" lat="59.8404944473" lon="9.53877222145">
		<tag k="name" v="Møte" />
		<tag k="place" v="farm" />
		<tag k="ssr:stedsnr" v="247070" />
	</node>
	<node id="-191335" lat="59.8459194437" lon="9.33579445099">
		<tag k="historic" v="shieling" />
		<tag k="name" v="Solumsetra" />
		<tag k="place" v="locality" />
		<tag k="ssr:stedsnr" v="247066" />
	</node>
	<node id="-191332" lat="59.7484194461" lon="9.45869445003">
		<tag k="historic" v="shieling" />
		<tag k="name" v="Fossetra" />
		<tag k="place" v="locality" />
		<tag k="ssr:stedsnr" v="246988" />
	</node>
	<node id="-191331" lat="59.7891472199" lon="9.42562222881">
		<tag k="historic" v="shieling" />
		<tag k="name" v="Bakkansetra" />
		<tag k="place" v="locality" />
		<tag k="ssr:stedsnr" v="246899" />
	</node>
	<node id="-191329" lat="59.7789166652" lon="9.57481110352">
		<tag k="name" v="Øygarden" />
		<tag k="place" v="farm" />
		<tag k="ssr:stedsnr" v="246874" />
	</node>
	<node id="-191328" lat="59.8966638928" lon="9.69637777561">
		<tag k="name" v="Ulstad" />
		<tag k="place" v="isolated_dwelling" />
		<tag k="ssr:stedsnr" v="246805" />
	</node>
	<node id="-191327" lat="59.9044611099" lon="9.59312222196">
		<tag k="alt_name" v="Fekjasetra;Fekjansetra" />
		<tag k="name" v="Fetjasetra" />
		<tag k="place" v="locality" />
		<tag k="ssr:stedsnr" v="246799" />
	</node>
	<node id="-191323" lat="59.7530416712" lon="9.67229999962">
		<tag k="alt_name" v="Søndre Ulland" />
		<tag k="name" v="Søre Ulland" />
		<tag k="place" v="farm" />
		<tag k="ssr:stedsnr" v="246543" />
	</node>
	<node id="-191322" lat="59.7459972231" lon="9.58337499475">
		<tag k="name" v="Belgen" />
		<tag k="place" v="farm" />
		<tag k="ssr:stedsnr" v="246465" />
	</node>
	<node id="-191321" lat="59.7397000008" lon="9.52267500783">
		<tag k="name" v="Viermyr" />
		<tag k="place" v="isolated_dwelling" />
		<tag k="ssr:stedsnr" v="246408" />
	</node>
	<node id="-191318" lat="59.9732027741" lon="9.48229722295">
		<tag k="name" v="Mogen" />
		<tag k="place" v="farm" />
		<tag k="ssr:stedsnr" v="246314" />
	</node>
	<node id="-191311" lat="59.9316833297" lon="9.43801945102">
		<tag k="name" v="Nordre Holtan" />
		<tag k="place" v="farm" />
		<tag k="ssr:stedsnr" v="246169" />
	</node>
	<node id="-191304" lat="59.8769555596" lon="9.4874888976">
		<tag k="name" v="Dølabråtan" />
		<tag k="place" v="isolated_dwelling" />
		<tag k="ssr:stedsnr" v="246038" />
	</node>
	<node id="-191302" lat="59.8827972179" lon="9.56161667033">
		<tag k="alt_name" v="Bergssetra" />
		<tag k="historic" v="shieling" />
		<tag k="name" v="Gurisetra" />
		<tag k="place" v="locality" />
		<tag k="ssr:stedsnr" v="246020" />
	</node>
	<node id="-191301" lat="59.8853583299" lon="9.4928111142">
		<tag k="name" v="Gjømle" />
		<tag k="place" v="farm" />
		<tag k="ssr:stedsnr" v="246017" />
	</node>
	<node id="-191300" lat="59.8871555544" lon="9.56527778247">
		<tag k="name" v="Øvre Granstugo" />
		<tag k="place" v="farm" />
		<tag k="ssr:stedsnr" v="246005" />
	</node>
	<node id="-191297" lat="59.735944448" lon="9.48478055098">
		<tag k="name" v="Lindbusetra" />
		<tag k="place" v="locality" />
		<tag k="ssr:stedsnr" v="241811" />
	</node>
	<node id="-191296" lat="59.8295527741" lon="9.42048334063">
		<tag k="name" v="Torvstrøyhuset" />
		<tag k="place" v="locality" />
		<tag k="ssr:stedsnr" v="241484" />
	</node>
	<node id="-191293" lat="59.8810833332" lon="9.37750834175">
		<tag k="name" v="Toresenga" />
		<tag k="place" v="farm" />
		<tag k="ssr:stedsnr" v="241344" />
	</node>
	<node id="-191281" lat="59.9560666667" lon="9.58346111107">
		<tag k="name" v="Kjosarsetra" />
		<tag k="place" v="locality" />
		<tag k="ssr:stedsnr" v="237327" />
	</node>
	<node id="-191273" lat="59.9143638604" lon="9.53122071533">
		<tag k="alt_name" v="Bekjorden" />
		<tag k="fixme" v="consider place=hamlet" />
		<tag k="name" v="Bekkjorden" />
		<tag k="old_name" v="Bækjorden" />
		<tag k="place" v="farm" />
		<tag k="ssr:stedsnr" v="234818" />
	</node>
	<node id="-191272" lat="59.7797055551" lon="9.55610555855">
		<tag k="name" v="Hakkelberg" />
		<tag k="place" v="farm" />
		<tag k="ssr:stedsnr" v="234595" />
	</node>
	<node id="-191269" lat="59.7978083376" lon="9.56271388975">
		<tag k="name" v="Nord-Ramnås" />
		<tag k="place" v="farm" />
		<tag k="ssr:stedsnr" v="233759" />
	</node>
	<node id="-191268" lat="59.9157888887" lon="9.58406110919">
		<tag k="name" v="Dalegardsplassen" />
		<tag k="place" v="locality" />
		<tag k="ssr:stedsnr" v="233593" />
	</node>
	<node id="-191267" lat="59.7449666712" lon="9.59029444691">
		<tag k="name" v="Gleda" />
		<tag k="place" v="farm" />
		<tag k="ssr:stedsnr" v="224826" />
	</node>
	<node id="-191265" lat="59.7321166677" lon="9.594461105">
		<tag k="name" v="Langeid" />
		<tag k="place" v="isolated_dwelling" />
		<tag k="ssr:stedsnr" v="224815" />
	</node>
	<node id="-191263" lat="59.792591669" lon="9.58967500766">
		<tag k="name" v="Øvre Grette" />
		<tag k="place" v="farm" />
		<tag k="ssr:stedsnr" v="224508" />
	</node>
	<node id="-191262" lat="59.7566972258" lon="9.61128889517">
		<tag k="name" v="Nordre Håvardsrud" />
		<tag k="place" v="farm" />
		<tag k="ssr:stedsnr" v="223897" />
	</node>
	<node id="-191260" lat="59.7889528935" lon="9.59725898575">
		<tag k="name" v="Søre Gutterud" />
		<tag k="place" v="farm" />
		<tag k="ssr:stedsnr" v="223719" />
	</node>
	<node id="-191259" lat="59.8037472243" lon="9.58650278201">
		<tag k="name" v="Nedre Bråta" />
		<tag k="place" v="farm" />
		<tag k="ssr:stedsnr" v="223716" />
	</node>
	<node id="-191255" lat="59.7796805554" lon="9.57915277177">
		<tag k="name" v="Nedre Øygarden" />
		<tag k="place" v="farm" />
		<tag k="ssr:stedsnr" v="223676" />
	</node>
	<node id="-191248" lat="59.9052166677" lon="9.36875555624">
		<tag k="name" v="Nordre Bakkerud" />
		<tag k="place" v="farm" />
		<tag k="ssr:stedsnr" v="222199" />
	</node>
	<node id="-191246" lat="59.8766972196" lon="9.46835832471">
		<tag k="name" v="Myrvoll" />
		<tag k="place" v="farm" />
		<tag k="ssr:stedsnr" v="222135" />
	</node>
	<node id="-191245" lat="59.8781194472" lon="9.4750416581">
		<tag k="name" v="Østre Lande" />
		<tag k="place" v="farm" />
		<tag k="ssr:stedsnr" v="222128" />
	</node>
	<node id="-191243" lat="59.8799444442" lon="9.4668138974">
		<tag k="name" v="Nordre Lande" />
		<tag k="place" v="farm" />
		<tag k="ssr:stedsnr" v="222123" />
	</node>
	<node id="-191235" lat="59.8667499981" lon="9.69809999937">
		<tag k="historic" v="shieling" />
		<tag k="name" v="Setertun" />
		<tag k="place" v="locality" />
		<tag k="ssr:stedsnr" v="207357" />
	</node>
	<node id="-191233" lat="59.7616277751" lon="9.52516666369">
		<tag k="name" v="Nordre Valders" />
		<tag k="place" v="farm" />
		<tag k="ssr:stedsnr" v="186981" />
	</node>
	<node id="-191232" lat="59.7569305547" lon="9.52758332941">
		<tag k="alt_name" v="Søndre Valders" />
		<tag k="name" v="Søre Valders" />
		<tag k="place" v="farm" />
		<tag k="ssr:stedsnr" v="186979" />
	</node>
	<node id="-191230" lat="59.8054750039" lon="9.51996110633">
		<tag k="historic" v="shieling" />
		<tag k="name" v="Sandbekksetra" />
		<tag k="place" v="locality" />
		<tag k="ssr:stedsnr" v="186926" />
	</node>
	<node id="-191227" lat="59.8488027757" lon="9.65782777828">
		<tag k="name" v="Nedre Lia" />
		<tag k="place" v="farm" />
		<tag k="ssr:stedsnr" v="186759" />
	</node>
	<node id="-191225" lat="59.7543777795" lon="9.59982499931">
		<tag k="name" v="Håvardsrudhagan" />
		<tag k="place" v="farm" />
		<tag k="ssr:stedsnr" v="186625" />
	</node>
	<node id="-191224" lat="59.7604750013" lon="9.61303611497">
		<tag k="name" v="Trollsås" />
		<tag k="place" v="farm" />
		<tag k="ssr:stedsnr" v="186610" />
	</node>
	<node id="-191223" lat="59.8128888857" lon="9.67794721871">
		<tag k="historic" v="shieling" />
		<tag k="name" v="Grettesetra" />
		<tag k="place" v="locality" />
		<tag k="ssr:stedsnr" v="186596" />
	</node>
	<node id="-191222" lat="59.801980552" lon="9.66865000421">
		<tag k="historic" v="shieling" />
		<tag k="name" v="Rambergsetra" />
		<tag k="place" v="locality" />
		<tag k="ssr:stedsnr" v="186555" />
	</node>
	<node id="-191219" lat="59.8889861122" lon="9.49032777806">
		<tag k="name" v="Øvre Li" />
		<tag k="place" v="farm" />
		<tag k="ssr:stedsnr" v="186244" />
	</node>
	<node id="-191218" lat="59.8868527796" lon="9.49276666474">
		<tag k="name" v="Ligrenda" />
		<tag k="place" v="hamlet" />
		<tag k="ssr:stedsnr" v="186240" />
	</node>
	<node id="-191216" lat="59.9019000016" lon="9.54721944601">
		<tag k="alt_name" v="Søndre Gjerde" />
		<tag k="name" v="Søre Gjerde" />
		<tag k="place" v="farm" />
		<tag k="ssr:stedsnr" v="186227" />
	</node>
	<node id="-191215" lat="59.9024111155" lon="9.34964444731">
		<tag k="name" v="Gåseberg" />
		<tag k="place" v="farm" />
		<tag k="ssr:stedsnr" v="186221" />
	</node>
	<node id="-191214" lat="59.9685138893" lon="9.47559722988">
		<tag k="name" v="Nordskogen" />
		<tag k="place" v="hamlet" />
		<tag k="ssr:stedsnr" v="186323" />
	</node>
	<node id="-191213" lat="59.9094777805" lon="9.52329999824">
		<tag k="name" v="Bakke" />
		<tag k="place" v="farm" />
		<tag k="ssr:stedsnr" v="186201" />
	</node>
	<node id="-191212" lat="59.9148666628" lon="9.47045000519">
		<tag k="name" v="Strand" />
		<tag k="place" v="farm" />
		<tag k="ssr:stedsnr" v="186189" />
	</node>
	<node id="-191210" lat="59.9205277747" lon="9.40148888261">
		<tag k="alt_name" v="Søndre Buin" />
		<tag k="name" v="Søre Buin" />
		<tag k="place" v="farm" />
		<tag k="ssr:stedsnr" v="186182" />
	</node>
	<node id="-191209" lat="59.9193361112" lon="9.57934443787">
		<tag k="name" v="Søre Dalegarden" />
		<tag k="place" v="farm" />
		<tag k="ssr:stedsnr" v="186210" />
	</node>
	<node id="-191207" lat="59.9476500029" lon="9.48258334162">
		<tag k="name" v="Nedre Brøtan" />
		<tag k="place" v="farm" />
		<tag k="ssr:stedsnr" v="186149" />
	</node>
	<node id="-191204" lat="59.838255553" lon="9.46471110631">
		<tag k="name" v="Gjellerud" />
		<tag k="place" v="locality" />
		<tag k="ssr:stedsnr" v="186085" />
	</node>
	<node id="-191202" lat="59.8621111086" lon="9.57953055036">
		<tag k="name" v="Grønbu" />
		<tag k="place" v="farm" />
		<tag k="ssr:stedsnr" v="186054" />
	</node>
	<node id="-191199" lat="59.8587277745" lon="9.50180832466">
		<tag k="name" v="Ørstein" />
		<tag k="place" v="farm" />
		<tag k="ssr:stedsnr" v="186043" />
	</node>
	<node id="-191198" lat="59.8587805513" lon="9.44462777213">
		<tag k="name" v="Nordre Fekjan" />
		<tag k="place" v="farm" />
		<tag k="ssr:stedsnr" v="186042" />
	</node>
	<node id="-191193" lat="59.740130559" lon="9.6080805582">
		<tag k="name" v="Brekke" />
		<tag k="place" v="farm" />
		<tag k="ssr:stedsnr" v="185630" />
	</node>
	<node id="-191192" lat="59.8205777776" lon="9.63987499496">
		<tag k="historic" v="shieling" />
		<tag k="name" v="Kopangsetra" />
		<tag k="place" v="locality" />
		<tag k="ssr:stedsnr" v="185677" />
	</node>
	<node id="-191188" lat="59.8372297507" lon="9.49386189965">
		<tag k="fixme" v="consider place=hamlet" />
		<tag k="name" v="Huslende" />
		<tag k="place" v="farm" />
		<tag k="ssr:stedsnr" v="185094" />
	</node>
	<node id="-191187" lat="59.8826250028" lon="9.26279165798">
		<tag k="historic" v="shieling" />
		<tag k="name" v="Nybu" />
		<tag k="place" v="locality" />
		<tag k="ssr:stedsnr" v="185001" />
	</node>
	<node id="-191186" lat="59.8835333336" lon="9.58415833324">
		<tag k="historic" v="shieling" />
		<tag k="name" v="Pålsetra" />
		<tag k="place" v="locality" />
		<tag k="ssr:stedsnr" v="185025" />
	</node>
	<node id="-191185" lat="59.8812861123" lon="9.39549999876">
		<tag k="name" v="Bjørnsrud" />
		<tag k="place" v="farm" />
		<tag k="ssr:stedsnr" v="185014" />
	</node>
	<node id="-191183" lat="59.8802527809" lon="9.24465832815">
		<tag k="historic" v="shieling" />
		<tag k="name" v="Huka" />
		<tag k="place" v="locality" />
		<tag k="ssr:stedsnr" v="185005" />
	</node>
	<node id="-191171" lat="59.915386026" lon="9.53675037611">
		<tag k="name" v="Huset" />
		<tag k="place" v="locality" />
		<tag k="ssr:stedsnr" v="179907" />
	</node>
	<node id="-191170" lat="59.9193499991" lon="9.50678611994">
		<tag k="name" v="Søre Bakli" />
		<tag k="place" v="farm" />
		<tag k="ssr:stedsnr" v="179893" />
	</node>
	<node id="-191156" lat="59.9171710373" lon="9.43863492356">
		<tag k="fixme" v="consider place=hamlet" />
		<tag k="name" v="Teigen" />
		<tag k="place" v="farm" />
		<tag k="ssr:stedsnr" v="174422" />
	</node>
	<node id="-191155" lat="59.9391212768" lon="9.46764718108">
		<tag k="fixme" v="consider place=hamlet" />
		<tag k="name" v="Sønnåsen" />
		<tag k="old_name" v="Sønnaasen" />
		<tag k="place" v="farm" />
		<tag k="ssr:stedsnr" v="174420" />
	</node>
	<node id="-191154" lat="59.7499777759" lon="9.45985278592">
		<tag k="historic" v="shieling" />
		<tag k="name" v="Narverudsetra" />
		<tag k="place" v="locality" />
		<tag k="ssr:stedsnr" v="174527" />
	</node>
	<node id="-191153" lat="59.8796361088" lon="9.34653055475">
		<tag k="name" v="Havslia" />
		<tag k="place" v="farm" />
		<tag k="ssr:stedsnr" v="174002" />
	</node>
	<node id="-191149" lat="59.8542666638" lon="9.42810556102">
		<tag k="name" v="Søre Høymyr" />
		<tag k="place" v="farm" />
		<tag k="ssr:stedsnr" v="173335" />
	</node>
	<node id="-191148" lat="59.8136611139" lon="9.67962222477">
		<tag k="historic" v="shieling" />
		<tag k="name" v="Surtsetra" />
		<tag k="place" v="locality" />
		<tag k="ssr:stedsnr" v="172099" />
	</node>
	<node id="-191144" lat="59.7592277757" lon="9.67612499431">
		<tag k="fixme" v="consider place=hamlet" />
		<tag k="name" v="Ulland" />
		<tag k="place" v="farm" />
		<tag k="ssr:stedsnr" v="162687" />
	</node>
	<node id="-191142" lat="59.8653194461" lon="9.43404167141">
		<tag k="name" v="Prestegården" />
		<tag k="place" v="farm" />
		<tag k="ssr:stedsnr" v="161319" />
	</node>
	<node id="-191141" lat="59.8686111107" lon="9.40110000531">
		<tag k="name" v="Søre Aslefet" />
		<tag k="place" v="farm" />
		<tag k="ssr:stedsnr" v="161304" />
	</node>
	<node id="-191139" lat="59.8697138907" lon="9.36957222727">
		<tag k="alt_name" v="Nordre Maugerud" />
		<tag k="name" v="Nord-Maugerud" />
		<tag k="place" v="farm" />
		<tag k="ssr:stedsnr" v="161163" />
	</node>
	<node id="-191135" lat="59.9008027785" lon="9.48650277708">
		<tag k="name" v="Øvre Kleiv" />
		<tag k="place" v="locality" />
		<tag k="ssr:stedsnr" v="161096" />
	</node>
	<node id="-191134" lat="59.7776805518" lon="9.68503055498">
		<tag k="name" v="Hotellet" />
		<tag k="place" v="isolated_dwelling" />
		<tag k="ssr:stedsnr" v="147785" />
	</node>
	<node id="-191132" lat="59.8053388915" lon="9.59046110889">
		<tag k="fixme" v="consider place=hamlet" />
		<tag k="name" v="Bråta" />
		<tag k="place" v="farm" />
		<tag k="ssr:stedsnr" v="126918" />
	</node>
	<node id="-191131" lat="59.8078361127" lon="9.58535554748">
		<tag k="name" v="Mojaren" />
		<tag k="place" v="farm" />
		<tag k="ssr:stedsnr" v="126915" />
	</node>
	<node id="-191128" lat="59.7815000039" lon="9.50636388192">
		<tag k="historic" v="shieling" />
		<tag k="name" v="Tonsetra" />
		<tag k="place" v="locality" />
		<tag k="ssr:stedsnr" v="125901" />
	</node>
	<node id="-191126" lat="59.7899805595" lon="9.57364165939">
		<tag k="name" v="Foss" />
		<tag k="place" v="farm" />
		<tag k="ssr:stedsnr" v="125911" />
	</node>
	<node id="-191125" lat="59.7850083324" lon="9.38308054758">
		<tag k="name" v="Huldrebua" />
		<tag k="place" v="isolated_dwelling" />
		<tag k="ssr:stedsnr" v="125903" />
	</node>
	<node id="-191124" lat="59.9362333289" lon="9.61831667142">
		<tag k="historic" v="shieling" />
		<tag k="name" v="Hommelisetra" />
		<tag k="place" v="locality" />
		<tag k="ssr:stedsnr" v="125872" />
	</node>
	<node id="-191123" lat="59.8552750004" lon="9.66124722839">
		<tag k="name" v="Dokka" />
		<tag k="place" v="farm" />
		<tag k="ssr:stedsnr" v="125748" />
	</node>
	<node id="-191121" lat="59.7572555581" lon="9.68000833227">
		<tag k="name" v="Østre Ulland" />
		<tag k="place" v="farm" />
		<tag k="ssr:stedsnr" v="125585" />
	</node>
	<node id="-191120" lat="59.757825004" lon="9.67213332552">
		<tag k="name" v="Nygård" />
		<tag k="place" v="farm" />
		<tag k="ssr:stedsnr" v="125584" />
	</node>
	<node id="-191119" lat="59.7632749999" lon="9.60147222205">
		<tag k="alt_name" v="Kvear" />
		<tag k="name" v="Nordre Kvear" />
		<tag k="place" v="farm" />
		<tag k="ssr:stedsnr" v="125570" />
	</node>
	<node id="-191118" lat="59.8705416708" lon="9.69351111577">
		<tag k="historic" v="shieling" />
		<tag k="name" v="Nysetra" />
		<tag k="place" v="locality" />
		<tag k="ssr:stedsnr" v="125645" />
	</node>
	<node id="-191114" lat="59.886408329" lon="9.49511388722">
		<tag k="name" v="Nerli" />
		<tag k="place" v="farm" />
		<tag k="ssr:stedsnr" v="125266" />
	</node>
	<node id="-191113" lat="59.9077277806" lon="9.39334443993">
		<tag k="name" v="Toten" />
		<tag k="place" v="farm" />
		<tag k="ssr:stedsnr" v="125238" />
	</node>
	<node id="-191112" lat="59.911511107" lon="9.41287777045">
		<tag k="name" v="Nedre Linås" />
		<tag k="place" v="farm" />
		<tag k="ssr:stedsnr" v="125234" />
	</node>
	<node id="-191111" lat="59.9112944488" lon="9.52821111246">
		<tag k="fixme" v="consider place=hamlet" />
		<tag k="name" v="Lyngdal" />
		<tag k="place" v="village" />
		<tag k="ssr:stedsnr" v="125212" />
	</node>
	<node id="-191110" lat="59.9242749986" lon="9.3953333329">
		<tag k="name" v="Øvre Buin" />
		<tag k="place" v="farm" />
		<tag k="ssr:stedsnr" v="125209" />
	</node>
	<node id="-191109" lat="59.9278166692" lon="9.50190277008">
		<tag k="alt_name" v="Søndre Låg" />
		<tag k="name" v="Søre Låg" />
		<tag k="place" v="farm" />
		<tag k="ssr:stedsnr" v="125188" />
	</node>
	<node id="-191106" lat="59.9460972199" lon="9.47157500029">
		<tag k="fixme" v="consider place=hamlet" />
		<tag k="name" v="Haugan" />
		<tag k="place" v="farm" />
		<tag k="ssr:stedsnr" v="125132" />
	</node>
	<node id="-191103" lat="59.8363499962" lon="9.53995278305">
		<tag k="name" v="Strålsund" />
		<tag k="place" v="farm" />
		<tag k="ssr:stedsnr" v="125109" />
	</node>
	<node id="-191101" lat="59.8431777817" lon="9.54829166683">
		<tag k="name" v="Nedre Stemning" />
		<tag k="place" v="farm" />
		<tag k="ssr:stedsnr" v="125096" />
	</node>
	<node id="-191100" lat="59.8450361153" lon="9.55046389781">
		<tag k="name" v="Kjennås" />
		<tag k="place" v="farm" />
		<tag k="ssr:stedsnr" v="125093" />
	</node>
	<node id="-191098" lat="59.8407250006" lon="9.44900832727">
		<tag k="name" v="Rabben" />
		<tag k="place" v="farm" />
		<tag k="ssr:stedsnr" v="125082" />
	</node>
	<node id="-191096" lat="59.8567194427" lon="9.40721945323">
		<tag k="name" v="Vinger" />
		<tag k="place" v="farm" />
		<tag k="ssr:stedsnr" v="125065" />
	</node>
	<node id="-191095" lat="59.859680552" lon="9.38370555656">
		<tag k="name" v="Rognlia" />
		<tag k="place" v="farm" />
		<tag k="ssr:stedsnr" v="125059" />
	</node>
	<node id="-191094" lat="59.8642888863" lon="9.57318888049">
		<tag k="name" v="Steinset" />
		<tag k="place" v="farm" />
		<tag k="ssr:stedsnr" v="125052" />
	</node>
	<node id="-191093" lat="59.8656527749" lon="9.33758611329">
		<tag k="historic" v="shieling" />
		<tag k="name" v="Annebu" />
		<tag k="place" v="locality" />
		<tag k="ssr:stedsnr" v="125042" />
	</node>
	<node id="-191090" lat="59.8808443525" lon="9.47591335773">
		<tag k="fixme" v="consider place=hamlet" />
		<tag k="name" v="Øyberg" />
		<tag k="place" v="farm" />
		<tag k="ssr:stedsnr" v="125014" />
	</node>
	<node id="-191089" lat="59.7382194418" lon="9.59551110921">
		<tag k="name" v="Berget" />
		<tag k="place" v="isolated_dwelling" />
		<tag k="ssr:stedsnr" v="124612" />
	</node>
	<node id="-191088" lat="59.7719972254" lon="9.67757499226">
		<tag k="name" v="Bråta" />
		<tag k="place" v="farm" />
		<tag k="ssr:stedsnr" v="124546" />
	</node>
	<node id="-191087" lat="59.742586111" lon="9.58672776912">
		<tag k="name" v="Trollerud" />
		<tag k="place" v="farm" />
		<tag k="ssr:stedsnr" v="124435" />
	</node>
	<node id="-191078" lat="59.8449666628" lon="9.43568611255">
		<tag k="name" v="Sagstua" />
		<tag k="place" v="locality" />
		<tag k="ssr:stedsnr" v="119503" />
	</node>
	<node id="-191066" lat="59.8170527784" lon="9.43888332714">
		<tag k="alt_name" v="Bergs Sr" />
		<tag k="historic" v="shieling" />
		<tag k="loc_name" v="Bergssetra" />
		<tag k="name" v="Bergsetra" />
		<tag k="place" v="locality" />
		<tag k="ssr:stedsnr" v="117993" />
	</node>
	<node id="-191053" lat="59.8552194452" lon="9.42547499622">
		<tag k="name" v="Mellom-Høymyr" />
		<tag k="place" v="farm" />
		<tag k="ssr:stedsnr" v="113353" />
	</node>
	<node id="-191052" lat="59.8657249964" lon="9.4222000074">
		<tag k="name" v="Søre Førle" />
		<tag k="place" v="locality" />
		<tag k="ssr:stedsnr" v="113344" />
	</node>
	<node id="-191051" lat="59.8540715941" lon="9.49590511166">
		<tag k="fixme" v="consider place=hamlet" />
		<tag k="name" v="Vangestad" />
		<tag k="old_name" v="Vangstad" />
		<tag k="place" v="farm" />
		<tag k="ssr:stedsnr" v="113278" />
	</node>
	<node id="-191049" lat="59.796016669" lon="9.56409167472">
		<tag k="name" v="Søre Ramnås" />
		<tag k="place" v="farm" />
		<tag k="ssr:stedsnr" v="112733" />
	</node>
	<node id="-191043" lat="59.8691277803" lon="9.40023055718">
		<tag k="name" v="Nordre Aslefet" />
		<tag k="place" v="farm" />
		<tag k="ssr:stedsnr" v="101290" />
	</node>
	<node id="-191042" lat="59.8629555598" lon="9.35062777133">
		<tag k="name" v="Nattesetra" />
		<tag k="place" v="locality" />
		<tag k="ssr:stedsnr" v="101274" />
	</node>
	<node id="-191037" lat="59.9065694459" lon="9.44712499701">
		<tag k="name" v="Nedre Ransåsen" />
		<tag k="place" v="farm" />
		<tag k="ssr:stedsnr" v="101087" />
	</node>
	<node id="-191028" lat="59.94523333" lon="9.60197499515">
		<tag k="name" v="Sølset" />
		<tag k="place" v="farm" />
		<tag k="ssr:stedsnr" v="65775" />
	</node>
	<node id="-191025" lat="59.8592583378" lon="9.69569166705">
		<tag k="name" v="Smedsrud" />
		<tag k="place" v="farm" />
		<tag k="ssr:stedsnr" v="65628" />
	</node>
	<node id="-191023" lat="59.7792305517" lon="9.60209999461">
		<tag k="name" v="Årud" />
		<tag k="place" v="farm" />
		<tag k="ssr:stedsnr" v="65516" />
	</node>
	<node id="-191022" lat="59.7982361127" lon="9.59950833904">
		<tag k="name" v="Surten" />
		<tag k="place" v="farm" />
		<tag k="ssr:stedsnr" v="65497" />
	</node>
	<node id="-191020" lat="59.9653499988" lon="9.57658333053">
		<tag k="name" v="Bråtåvika" />
		<tag k="place" v="isolated_dwelling" />
		<tag k="ssr:stedsnr" v="65353" />
	</node>
	<node id="-191017" lat="59.8872055536" lon="9.48749999433">
		<tag k="name" v="Nordre Ånnestad" />
		<tag k="place" v="farm" />
		<tag k="ssr:stedsnr" v="65231" />
	</node>
	<node id="-191016" lat="59.9449416647" lon="9.49310833122">
		<tag k="name" v="Nedre Bjørkeset" />
		<tag k="place" v="farm" />
		<tag k="ssr:stedsnr" v="65148" />
	</node>
	<node id="-191011" lat="59.8018027763" lon="9.58771944126">
		<tag k="name" v="Nord-Rustan" />
		<tag k="place" v="farm" />
		<tag k="ssr:stedsnr" v="64930" />
	</node>
	<node id="-191008" lat="59.7874638913" lon="9.58214721867">
		<tag k="name" v="Øya" />
		<tag k="place" v="farm" />
		<tag k="ssr:stedsnr" v="64917" />
	</node>
	<node id="-191006" lat="59.76925278" lon="9.58462777718">
		<tag k="name" v="Sunsehaugen" />
		<tag k="place" v="farm" />
		<tag k="ssr:stedsnr" v="64889" />
	</node>
	<node id="-191005" lat="59.769649999" lon="9.60821944279">
		<tag k="name" v="Hagan" />
		<tag k="place" v="farm" />
		<tag k="ssr:stedsnr" v="64603" />
	</node>
	<node id="-191001" lat="59.7493888851" lon="9.53472777535">
		<tag k="name" v="Nedre Bråtån" />
		<tag k="place" v="farm" />
		<tag k="ssr:stedsnr" v="64480" />
	</node>
	<node id="-190995" lat="59.9151888883" lon="9.39929721893">
		<tag k="name" v="Dokka" />
		<tag k="place" v="farm" />
		<tag k="ssr:stedsnr" v="64187" />
	</node>
	<node id="-190994" lat="59.917666671" lon="9.40183611992">
		<tag k="name" v="Stuvstadgrenda" />
		<tag k="place" v="hamlet" />
		<tag k="ssr:stedsnr" v="64184" />
	</node>
	<node id="-190992" lat="59.9246388871" lon="9.57491388238">
		<tag k="name" v="Nord-Dalegarden" />
		<tag k="place" v="farm" />
		<tag k="ssr:stedsnr" v="64164" />
	</node>
	<node id="-190991" lat="59.9257804696" lon="9.53001522858">
		<tag k="name" v="Bekkjordsplassen" />
		<tag k="place" v="locality" />
		<tag k="ssr:stedsnr" v="64162" />
	</node>
	<node id="-190989" lat="59.8408927484" lon="9.48819079664">
		<tag k="fixme" v="consider place=hamlet" />
		<tag k="name" v="Underberget" />
		<tag k="place" v="farm" />
		<tag k="ssr:stedsnr" v="64084" />
	</node>
	<node id="-190988" lat="59.8597444431" lon="9.31231389567">
		<tag k="historic" v="shieling" />
		<tag k="name" v="Blåbergsetra" />
		<tag k="place" v="locality" />
		<tag k="ssr:stedsnr" v="64032" />
	</node>
	<node id="-190987" lat="59.8736500002" lon="9.47554999721">
		<tag k="name" v="Frågått" />
		<tag k="old_name" v="Vraagaat" />
		<tag k="place" v="farm" />
		<tag k="ssr:stedsnr" v="64027" />
	</node>
	<node id="-190984" lat="59.877280554" lon="9.3647250042">
		<tag k="name" v="Haukeli" />
		<tag k="place" v="farm" />
		<tag k="ssr:stedsnr" v="64006" />
	</node>
	<node id="-190978" lat="59.8830861102" lon="9.36463333554">
		<tag k="name" v="Flata" />
		<tag k="place" v="farm" />
		<tag k="ssr:stedsnr" v="59346" />
	</node>
	<node id="-190972" lat="59.8257333355" lon="9.27643611184">
		<tag k="fixme" v="consider tourism=alpine_hut or tourism=chalet" />
		<tag k="name" v="Werenskioldhytta" />
		<tag k="ssr:stedsnr" v="57970" />
		<tag k="tourism" v="wilderness_hut" />
	</node>
	<node id="-190967" lat="59.80961667" lon="9.67042499565">
		<tag k="historic" v="shieling" />
		<tag k="name" v="Nordre Gutterudsetra" />
		<tag k="place" v="locality" />
		<tag k="ssr:stedsnr" v="57713" />
	</node>
	<node id="-190965" lat="59.9184083307" lon="9.49953055953">
		<tag k="name" v="Mellom-Bakli" />
		<tag k="place" v="farm" />
		<tag k="ssr:stedsnr" v="57903" />
	</node>
	<node id="-190961" lat="59.9296472265" lon="9.60192499541">
		<tag k="name" v="Bakken" />
		<tag k="place" v="locality" />
		<tag k="ssr:stedsnr" v="55300" />
	</node>
	<node id="-190957" lat="59.7839527761" lon="9.58724166683">
		<tag k="name" v="Gurisbråtån" />
		<tag k="place" v="farm" />
		<tag k="ssr:stedsnr" v="52586" />
	</node>
	<node id="-190956" lat="59.8289277751" lon="9.54239167369">
		<tag k="name" v="Nord-Gårdås" />
		<tag k="place" v="farm" />
		<tag k="ssr:stedsnr" v="52572" />
	</node>
	<node id="-190954" lat="59.9326750001" lon="9.52531111013">
		<tag k="name" v="Lislelia" />
		<tag k="place" v="farm" />
		<tag k="ssr:stedsnr" v="52357" />
	</node>
	<node id="-190953" lat="59.8525861132" lon="9.2316527694">
		<tag k="historic" v="shieling" />
		<tag k="name" v="Flesebekk" />
		<tag k="place" v="locality" />
		<tag k="ssr:stedsnr" v="52051" />
	</node>
	<node id="-190952" lat="59.9176499974" lon="9.39790000199">
		<tag k="name" v="Nedre Dakkin" />
		<tag k="old_name" v="Dakin" />
		<tag k="place" v="farm" />
		<tag k="ssr:stedsnr" v="51996" />
	</node>
	<node id="-190951" lat="59.8000499997" lon="9.5877611159">
		<tag k="name" v="Søre Rustan" />
		<tag k="place" v="farm" />
		<tag k="ssr:stedsnr" v="51607" />
	</node>
	<node id="-190950" lat="59.8253500013" lon="9.252">
		<tag k="historic" v="shieling" />
		<tag k="name" v="Grøtebua" />
		<tag k="place" v="locality" />
		<tag k="ssr:stedsnr" v="51091" />
	</node>
	<node id="-190947" lat="59.7498861073" lon="9.59895833309">
		<tag k="name" v="Refsrud" />
		<tag k="place" v="isolated_dwelling" />
		<tag k="ssr:stedsnr" v="41864" />
	</node>
	<node id="-190944" lat="59.7902583295" lon="9.57514722132">
		<tag k="name" v="Fossholm" />
		<tag k="place" v="farm" />
		<tag k="ssr:stedsnr" v="41692" />
	</node>
	<node id="-190942" lat="59.8436416662" lon="9.46855554667">
		<tag k="fixme" v="consider place=hamlet" />
		<tag k="name" v="Gjellerud" />
		<tag k="place" v="farm" />
		<tag k="ssr:stedsnr" v="41515" />
	</node>
	<node id="-190939" lat="59.8584111141" lon="9.41609721359">
		<tag k="building" v="industrial" />
		<tag k="industrial" v="factory" />
		<tag k="name" v="Norske Fjellhus" />
		<tag k="ssr:stedsnr" v="40316" />
	</node>
	<node id="-190937" lat="59.9104666643" lon="9.41226111191">
		<tag k="name" v="Paseroa" />
		<tag k="place" v="farm" />
		<tag k="ssr:stedsnr" v="40236" />
	</node>
	<node id="-190935" lat="59.8710916681" lon="9.48585278481">
		<tag k="name" v="Nedre Lehovd" />
		<tag k="place" v="farm" />
		<tag k="ssr:stedsnr" v="40172" />
	</node>
	<node id="-190934" lat="59.8819111106" lon="9.48922778013">
		<tag k="name" v="Gjømlebråtan" />
		<tag k="place" v="locality" />
		<tag k="ssr:stedsnr" v="40160" />
	</node>
	<node id="-190933" lat="59.8970695234" lon="9.33328377299">
		<tag k="fixme" v="consider place=hamlet" />
		<tag k="name" v="Juveli" />
		<tag k="place" v="farm" />
		<tag k="ssr:stedsnr" v="40251" />
	</node>
	<node id="-190927" lat="59.7666944456" lon="9.67857499248">
		<tag k="name" v="Sagstua" />
		<tag k="place" v="isolated_dwelling" />
		<tag k="ssr:stedsnr" v="26759" />
	</node>
	<node id="-190925" lat="59.7559361121" lon="9.58712222885">
		<tag k="name" v="Gråten" />
		<tag k="place" v="farm" />
		<tag k="ssr:stedsnr" v="4975" />
	</node>
	<node id="-190924" lat="59.8057055587" lon="9.5802972214">
		<tag k="name" v="Enga" />
		<tag k="place" v="farm" />
		<tag k="ssr:stedsnr" v="4940" />
	</node>
	<node id="-190923" lat="59.7928055596" lon="9.57876666039">
		<tag k="fixme" v="consider place=suburb, village or hamlet" />
		<tag k="name" v="Svene" />
		<tag k="place" v="quarter" />
		<tag k="ssr:stedsnr" v="4929" />
	</node>
	<node id="-190922" lat="59.7913250032" lon="9.58357500424">
		<tag k="name" v="Nedre Grette" />
		<tag k="place" v="farm" />
		<tag k="ssr:stedsnr" v="4918" />
	</node>
	<node id="-190921" lat="59.8553305543" lon="9.59590000646">
		<tag k="name" v="Ramviksetra" />
		<tag k="place" v="locality" />
		<tag k="ssr:stedsnr" v="4743" />
	</node>
	<node id="-190920" lat="59.8654111094" lon="9.70033055793">
		<tag k="name" v="Sagløkka" />
		<tag k="place" v="farm" />
		<tag k="ssr:stedsnr" v="4648" />
	</node>
	<node id="-190918" lat="59.8014333312" lon="9.6740750085">
		<tag k="alt_name" v="Fonnerudsetra" />
		<tag k="historic" v="shieling" />
		<tag k="name" v="Fønnerudsetra" />
		<tag k="place" v="locality" />
		<tag k="ssr:stedsnr" v="4501" />
	</node>
	<node id="-190916" lat="59.959988893" lon="9.50185278664">
		<tag k="historic" v="shieling" />
		<tag k="name" v="Tukusetra" />
		<tag k="place" v="locality" />
		<tag k="ssr:stedsnr" v="4358" />
	</node>
	<node id="-190914" lat="59.9009000036" lon="9.5355305629">
		<tag k="name" v="Hagan" />
		<tag k="place" v="locality" />
		<tag k="ssr:stedsnr" v="4248" />
	</node>
	<node id="-190913" lat="59.886786112" lon="9.52655277365">
		<tag k="name" v="Nord-Vatnebrynn" />
		<tag k="old_name" v="Vatnebrynn nordre;Vatnebryn nordre" />
		<tag k="place" v="farm" />
		<tag k="ssr:stedsnr" v="4228" />
	</node>
	<node id="-190912" lat="59.9021527806" lon="9.37381110312">
		<tag k="name" v="Evjubakkan" />
		<tag k="place" v="farm" />
		<tag k="ssr:stedsnr" v="4218" />
	</node>
	<node id="-190910" lat="59.9170638893" lon="9.5302305583">
		<tag k="name" v="Øvre Bekkjorden" />
		<tag k="old_name" v="Øvre Helgerud" />
		<tag k="place" v="farm" />
		<tag k="ssr:stedsnr" v="4213" />
	</node>
	<node id="-190909" lat="59.9172916688" lon="9.38449721691">
		<tag k="name" v="Suggerud" />
		<tag k="place" v="farm" />
		<tag k="ssr:stedsnr" v="4200" />
	</node>
	<node id="-190907" lat="59.9484555549" lon="9.49779444486">
		<tag k="name" v="Buin" />
		<tag k="place" v="farm" />
		<tag k="ssr:stedsnr" v="4154" />
	</node>
	<node id="-190905" lat="59.8452861116" lon="9.5240388941">
		<tag k="name" v="Rud" />
		<tag k="place" v="farm" />
		<tag k="ssr:stedsnr" v="4091" />
	</node>
	<node id="-190904" lat="59.8447277822" lon="9.56901944213">
		<tag k="alt_name" v="Ranvik" />
		<tag k="name" v="Ramvik" />
		<tag k="place" v="farm" />
		<tag k="ssr:stedsnr" v="4090" />
	</node>
	<node id="-190901" lat="59.8533527821" lon="9.48846388733">
		<tag k="name" v="Nordre Vangestad" />
		<tag k="place" v="farm" />
		<tag k="ssr:stedsnr" v="4073" />
	</node>
	<node id="-190898" lat="59.8538500025" lon="9.39502778107">
		<tag k="name" v="Bjørnerud" />
		<tag k="place" v="farm" />
		<tag k="ssr:stedsnr" v="4060" />
	</node>
	<node id="-190896" lat="59.8685194421" lon="9.5357111087">
		<tag k="loc_name" v="Bringeplassan;Hagakjenn;Hagatjenn" />
		<tag k="name" v="Bringeplassen" />
		<tag k="old_name" v="Bringe" />
		<tag k="place" v="locality" />
		<tag k="ssr:stedsnr" v="4050" />
	</node>
	<node id="-190893" lat="59.7794277744" lon="9.49123611597">
		<tag k="historic" v="shieling" />
		<tag k="name" v="Dyrebusetra" />
		<tag k="place" v="locality" />
		<tag k="ssr:stedsnr" v="3885" />
	</node>
	<node id="-190892" lat="59.744175001" lon="9.70549723045">
		<tag k="name" v="Haugen" />
		<tag k="place" v="farm" />
		<tag k="ssr:stedsnr" v="3660" />
	</node>
	<node id="-190891" lat="59.7729749993" lon="9.62150556296">
		<tag k="name" v="Myra" />
		<tag k="place" v="farm" />
		<tag k="ssr:stedsnr" v="3564" />
	</node>
	<node id="-190889" lat="59.7311194466" lon="9.59056389369">
		<tag k="name" v="Konningen" />
		<tag k="old_name" v="Konning" />
		<tag k="place" v="farm" />
		<tag k="ssr:stedsnr" v="3408" />
	</node>
	<node id="-190886" lat="59.8410500031" lon="9.5015222167">
		<tag k="name" v="Bakkan" />
		<tag k="place" v="locality" />
		<tag k="ssr:stedsnr" v="3086" />
	</node>
	<node id="-190874" lat="59.7725601119" lon="9.59486140002">
		<tag k="name" v="Garder" />
		<tag k="place" v="hamlet" />
		<tag k="ssr:stedsnr" v="985791" />
	</node>
	<node id="-190872" lat="59.7469194483" lon="9.63374445152">
		<tag k="name" v="Rustebråtan" />
		<tag k="place" v="isolated_dwelling" />
		<tag k="ssr:stedsnr" v="891840" />
	</node>
	<node id="-190863" lat="59.9138138845" lon="9.39855278238">
		<tag k="name" v="Berget" />
		<tag k="place" v="farm" />
		<tag k="ssr:stedsnr" v="890225" />
	</node>
	<node id="-190856" lat="59.9083666659" lon="9.5278055595">
		<tag k="name" v="Søre Berget" />
		<tag k="place" v="farm" />
		<tag k="ssr:stedsnr" v="890075" />
	</node>
	<node id="-190849" lat="59.8263861074" lon="9.54629166755">
		<tag k="name" v="Søre Gårdås" />
		<tag k="place" v="farm" />
		<tag k="ssr:stedsnr" v="477613" />
	</node>
	<node id="-190847" lat="59.7754555565" lon="9.59532499585">
		<tag k="fixme" v="consider place=hamlet" />
		<tag k="name" v="Nord-Garder" />
		<tag k="place" v="farm" />
		<tag k="ssr:stedsnr" v="476777" />
	</node>
	<node id="-190844" lat="59.7254027756" lon="9.60762500852">
		<tag k="name" v="Tronrud" />
		<tag k="place" v="farm" />
		<tag k="ssr:stedsnr" v="476657" />
	</node>
	<node id="-190842" lat="59.919144442" lon="9.57897221631">
		<tag k="fixme" v="consider place=hamlet" />
		<tag k="name" v="Dalegarden" />
		<tag k="old_name" v="Dalegaarden;Dalegaard" />
		<tag k="place" v="farm" />
		<tag k="ssr:stedsnr" v="476537" />
	</node>
	<node id="-190838" lat="59.7619194419" lon="9.58688889004">
		<tag k="name" v="Søre Gvila" />
		<tag k="place" v="locality" />
		<tag k="ssr:stedsnr" v="405886" />
	</node>
	<node id="-190835" lat="59.7956333335" lon="9.58370555216">
		<tag k="leisure" v="pitch" />
		<tag k="name" v="Svenekollen" />
		<tag k="ssr:stedsnr" v="405707" />
	</node>
	<node id="-190832" lat="59.7819305572" lon="9.59953055517">
		<tag k="name" v="Søre Ramberg" />
		<tag k="place" v="farm" />
		<tag k="ssr:stedsnr" v="405663" />
	</node>
	<node id="-190821" lat="59.8950888924" lon="9.49726666427">
		<tag k="name" v="Liplassen" />
		<tag k="place" v="locality" />
		<tag k="ssr:stedsnr" v="404099" />
	</node>
	<node id="-190819" lat="59.7814305556" lon="9.71018888228">
		<tag k="name" v="Prestvassplassen" />
		<tag k="place" v="isolated_dwelling" />
		<tag k="ssr:stedsnr" v="390807" />
	</node>
	<node id="-190815" lat="59.811058331" lon="9.45568888745">
		<tag k="historic" v="shieling" />
		<tag k="name" v="Huslendsetra" />
		<tag k="place" v="locality" />
		<tag k="ssr:stedsnr" v="368936" />
	</node>
	<node id="-190811" lat="59.8438305522" lon="9.60821666618">
		<tag k="name" v="Damtjern" />
		<tag k="place" v="isolated_dwelling" />
		<tag k="ssr:stedsnr" v="368779" />
	</node>
	<node id="-190807" lat="59.7863249994" lon="9.6886083413">
		<tag k="historic" v="shieling" />
		<tag k="name" v="Årudsetra" />
		<tag k="place" v="locality" />
		<tag k="ssr:stedsnr" v="368633" />
	</node>
	<node id="-190800" lat="59.957688889" lon="9.47951110698">
		<tag k="name" v="Botnan" />
		<tag k="place" v="farm" />
		<tag k="ssr:stedsnr" v="368382" />
	</node>
	<node id="-190799" lat="59.9526305543" lon="9.48769167053">
		<tag k="name" v="Øvre Bjørkeset" />
		<tag k="place" v="farm" />
		<tag k="ssr:stedsnr" v="368379" />
	</node>
	<node id="-190795" lat="59.8979750008" lon="9.35079999857">
		<tag k="name" v="Engerud" />
		<tag k="place" v="farm" />
		<tag k="ssr:stedsnr" v="368238" />
	</node>
	<node id="-190794" lat="59.9088777792" lon="9.53026388498">
		<tag k="name" v="Øvre Berget" />
		<tag k="place" v="farm" />
		<tag k="ssr:stedsnr" v="368225" />
	</node>
	<node id="-190793" lat="59.9096340453" lon="9.52845070382">
		<tag k="fixme" v="consider place=hamlet" />
		<tag k="name" v="Kleivjorden" />
		<tag k="old_name" v="Klövjord" />
		<tag k="place" v="farm" />
		<tag k="ssr:stedsnr" v="368224" />
	</node>
	<node id="-190792" lat="59.913227774" lon="9.50606667316">
		<tag k="name" v="Huskestugo" />
		<tag k="place" v="farm" />
		<tag k="ssr:stedsnr" v="368211" />
	</node>
	<node id="-190791" lat="59.9466444459" lon="9.55619166393">
		<tag k="name" v="Jerpeton" />
		<tag k="place" v="farm" />
		<tag k="ssr:stedsnr" v="368181" />
	</node>
	<node id="-190788" lat="59.8266250034" lon="9.58240278374">
		<tag k="name" v="Fjøse" />
		<tag k="place" v="farm" />
		<tag k="ssr:stedsnr" v="368133" />
	</node>
	<node id="-190785" lat="59.8529749999" lon="9.54444999698">
		<tag k="name" v="Kronset" />
		<tag k="place" v="farm" />
		<tag k="ssr:stedsnr" v="368086" />
	</node>
	<node id="-190781" lat="59.8762222181" lon="9.56792222574">
		<tag k="historic" v="shieling" />
		<tag k="name" v="Livlandsetra" />
		<tag k="place" v="locality" />
		<tag k="ssr:stedsnr" v="368036" />
	</node>
	<node id="-190780" lat="59.8703277743" lon="9.42534999575">
		<tag k="name" v="Tullegard" />
		<tag k="place" v="isolated_dwelling" />
		<tag k="ssr:stedsnr" v="368033" />
	</node>
	<node id="-190778" lat="59.8699111078" lon="9.33116388458">
		<tag k="fixme" v="consider tourism=alpine_hut or tourism=chalet" />
		<tag k="name" v="Blekroa" />
		<tag k="ssr:stedsnr" v="368029" />
		<tag k="tourism" v="wilderness_hut" />
	</node>
	<node id="-190776" lat="59.7480444481" lon="9.70876388761">
		<tag k="name" v="Dørsjø" />
		<tag k="place" v="farm" />
		<tag k="ssr:stedsnr" v="367673" />
	</node>
	<node id="-190774" lat="59.7754805592" lon="9.61933054968">
		<tag k="name" v="Bjørhovden" />
		<tag k="place" v="farm" />
		<tag k="ssr:stedsnr" v="367571" />
	</node>
	<node id="-190772" lat="59.8378194473" lon="9.47307500214">
		<tag k="name" v="Bergshagan" />
		<tag k="place" v="farm" />
		<tag k="ssr:stedsnr" v="367085" />
	</node>
	<node id="-190769" lat="59.8394194474" lon="9.3608194371">
		<tag k="name" v="Lauvåshytta" />
		<tag k="place" v="isolated_dwelling" />
		<tag k="ssr:stedsnr" v="362509" />
	</node>
	<node id="-190767" lat="59.8380454125" lon="9.49352790573">
		<tag k="name" v="Nordre Huslende" />
		<tag k="place" v="farm" />
		<tag k="ssr:stedsnr" v="362470" />
	</node>
	<node id="-190764" lat="59.9251944471" lon="9.54125832772">
		<tag k="name" v="Marteplassen" />
		<tag k="place" v="isolated_dwelling" />
		<tag k="ssr:stedsnr" v="361905" />
	</node>
	<node id="-190757" lat="59.9150333321" lon="9.52224445257">
		<tag k="name" v="Bakliroa" />
		<tag k="place" v="farm" />
		<tag k="ssr:stedsnr" v="360864" />
	</node>
	<node id="-190756" lat="59.916544447" lon="9.52167777813">
		<tag k="name" v="Helgerud" />
		<tag k="place" v="farm" />
		<tag k="ssr:stedsnr" v="360863" />
	</node>
	<node id="-190749" lat="59.8975722258" lon="9.56497221807">
		<tag k="name" v="Høljeplass" />
		<tag k="place" v="locality" />
		<tag k="ssr:stedsnr" v="358331" />
	</node>
	<node id="-190740" lat="59.909838886" lon="9.52825833306">
		<tag k="name" v="Søre Kleivjorden" />
		<tag k="place" v="farm" />
		<tag k="ssr:stedsnr" v="356091" />
	</node>
	<node id="-190739" lat="59.9097361091" lon="9.52696944693">
		<tag k="name" v="Nord-Kleivjorden" />
		<tag k="place" v="farm" />
		<tag k="ssr:stedsnr" v="356080" />
	</node>
	<node id="-190734" lat="59.72182418" lon="9.60693191896">
		<tag k="name" v="Brua" />
		<tag k="place" v="farm" />
		<tag k="ssr:stedsnr" v="350529" />
	</node>
	<node id="-190729" lat="59.7650277799" lon="9.59826667249">
		<tag k="name" v="Åsbråtan" />
		<tag k="place" v="farm" />
		<tag k="ssr:stedsnr" v="344659" />
	</node>
	<node id="-190725" lat="59.859591666" lon="9.43135833317">
		<tag k="name" v="Haugen" />
		<tag k="place" v="farm" />
		<tag k="ssr:stedsnr" v="343278" />
	</node>
	<node id="-190716" lat="59.7857861136" lon="9.68526665926">
		<tag k="name" v="Sagstua" />
		<tag k="place" v="isolated_dwelling" />
		<tag k="ssr:stedsnr" v="329783" />
	</node>
	<node id="-190711" lat="59.8073777821" lon="9.56230277184">
		<tag k="name" v="Dyrebu" />
		<tag k="place" v="farm" />
		<tag k="ssr:stedsnr" v="308929" />
	</node>
	<node id="-190710" lat="59.8083388849" lon="9.50428333855">
		<tag k="name" v="Tollumsetra" />
		<tag k="place" v="locality" />
		<tag k="ssr:stedsnr" v="308925" />
	</node>
	<node id="-190707" lat="59.8207666629" lon="9.58280000029">
		<tag k="name" v="Beier" />
		<tag k="place" v="farm" />
		<tag k="ssr:stedsnr" v="308100" />
	</node>
	<node id="-190700" lat="59.7888053021" lon="9.59699975312">
		<tag k="fixme" v="consider place=hamlet" />
		<tag k="name" v="Gutterud" />
		<tag k="place" v="farm" />
		<tag k="ssr:stedsnr" v="307536" />
	</node>
	<node id="-190697" lat="59.8933777781" lon="9.44714444686">
		<tag k="name" v="Dåset" />
		<tag k="old_name" v="Daassæt" />
		<tag k="place" v="farm" />
		<tag k="ssr:stedsnr" v="307279" />
	</node>
	<node id="-190696" lat="59.8828166706" lon="9.53091389414">
		<tag k="name" v="Søre Vatnebrynn" />
		<tag k="place" v="farm" />
		<tag k="ssr:stedsnr" v="307269" />
	</node>
	<node id="-190695" lat="59.9056416684" lon="9.36843055113">
		<tag k="fixme" v="consider place=hamlet" />
		<tag k="name" v="Bakkerud" />
		<tag k="place" v="farm" />
		<tag k="ssr:stedsnr" v="307242" />
	</node>
	<node id="-190694" lat="59.907308336" lon="9.49176111182">
		<tag k="fixme" v="consider place=hamlet" />
		<tag k="name" v="Kleiv" />
		<tag k="place" v="farm" />
		<tag k="ssr:stedsnr" v="307234" />
	</node>
	<node id="-190693" lat="59.9057000024" lon="9.54211667278">
		<tag k="name" v="Nordre Gjerde" />
		<tag k="place" v="farm" />
		<tag k="ssr:stedsnr" v="307228" />
	</node>
	<node id="-190692" lat="59.9192472217" lon="9.41353055462">
		<tag k="name" v="Mellom-Stuvstad" />
		<tag k="place" v="farm" />
		<tag k="ssr:stedsnr" v="307217" />
	</node>
	<node id="-190690" lat="59.9370583321" lon="9.53060278316">
		<tag k="name" v="Mørk" />
		<tag k="place" v="farm" />
		<tag k="ssr:stedsnr" v="307171" />
	</node>
	<node id="-190689" lat="59.9487638921" lon="9.48247499401">
		<tag k="name" v="Øvre Brøtan" />
		<tag k="place" v="farm" />
		<tag k="ssr:stedsnr" v="307164" />
	</node>
	<node id="-190688" lat="59.824494441" lon="9.52237777138">
		<tag k="historic" v="shieling" />
		<tag k="name" v="Nedre Gårdåssetra" />
		<tag k="place" v="locality" />
		<tag k="ssr:stedsnr" v="307121" />
	</node>
	<node id="-190683" lat="59.8407749986" lon="9.40645278566">
		<tag k="name" v="Våtli" />
		<tag k="place" v="locality" />
		<tag k="ssr:stedsnr" v="307098" />
	</node>
	<node id="-190677" lat="59.8655250021" lon="9.58426110617">
		<tag k="name" v="Karlsrud" />
		<tag k="place" v="farm" />
		<tag k="ssr:stedsnr" v="307055" />
	</node>
	<node id="-190676" lat="59.8645972214" lon="9.5471083383">
		<tag k="name" v="Setra" />
		<tag k="old_name" v="Kronsetseter;Kronsetsæter" />
		<tag k="place" v="farm" />
		<tag k="ssr:stedsnr" v="307053" />
	</node>
	<node id="-190675" lat="59.8661555548" lon="9.41990833504">
		<tag k="fixme" v="consider place=hamlet" />
		<tag k="name" v="Førle" />
		<tag k="place" v="farm" />
		<tag k="ssr:stedsnr" v="307047" />
	</node>
	<node id="-190674" lat="59.8686499973" lon="9.40032778466">
		<tag k="fixme" v="consider place=hamlet" />
		<tag k="name" v="Aslefet" />
		<tag k="place" v="farm" />
		<tag k="ssr:stedsnr" v="307044" />
	</node>
	<node id="-190672" lat="59.8675361068" lon="9.58983332956">
		<tag k="name" v="Grønbuenga" />
		<tag k="place" v="farm" />
		<tag k="ssr:stedsnr" v="307037" />
	</node>
	<node id="-190671" lat="59.8665111133" lon="9.37339722547">
		<tag k="fixme" v="consider place=hamlet" />
		<tag k="name" v="Maugerud" />
		<tag k="old_name" v="Mjaugerud" />
		<tag k="place" v="farm" />
		<tag k="ssr:stedsnr" v="307034" />
	</node>
	<node id="-190670" lat="59.8683444465" lon="9.40818332875">
		<tag k="name" v="Førlehaugen" />
		<tag k="place" v="farm" />
		<tag k="ssr:stedsnr" v="307032" />
	</node>
	<node id="-190669" lat="59.8735888897" lon="9.3904388869">
		<tag k="name" v="Kjennerud" />
		<tag k="place" v="farm" />
		<tag k="ssr:stedsnr" v="307030" />
	</node>
	<node id="-190665" lat="59.9493055547" lon="9.54841388722">
		<tag k="name" v="Belteslia" />
		<tag k="place" v="farm" />
		<tag k="ssr:stedsnr" v="307356" />
	</node>
	<node id="-190664" lat="59.9707166705" lon="9.47185277446">
		<tag k="name" v="Søre Lindteigen" />
		<tag k="place" v="farm" />
		<tag k="ssr:stedsnr" v="307331" />
	</node>
	<node id="-190660" lat="59.8917361117" lon="9.27457222343">
		<tag k="name" v="Langåssetra" />
		<tag k="place" v="locality" />
		<tag k="ssr:stedsnr" v="302346" />
	</node>
	<node id="-190653" lat="59.7887138903" lon="9.38253888668">
		<tag k="fixme" v="consider tourism=alpine_hut or tourism=chalet" />
		<tag k="name" v="Strutåsen fjellstue" />
		<tag k="ssr:stedsnr" v="301796" />
		<tag k="tourism" v="wilderness_hut" />
	</node>
	<node id="-190649" lat="59.8341749996" lon="9.31595000889">
		<tag k="name" v="Fagerli turistsenter" />
		<tag k="ssr:stedsnr" v="301512" />
		<tag k="tourism" v="hotel" />
	</node>
	<node id="-190644" lat="59.8549055515" lon="9.26425555104">
		<tag k="alt_name" v="Smaabu Sr" />
		<tag k="name" v="Snåbuseter" />
		<tag k="place" v="locality" />
		<tag k="ssr:stedsnr" v="301480" />
	</node>
	<node id="-190640" lat="59.8366674732" lon="9.49566805284">
		<tag k="name" v="Søre Huslende" />
		<tag k="place" v="farm" />
		<tag k="ssr:stedsnr" v="301459" />
	</node>
	<node id="-190639" lat="59.7701944436" lon="9.59994444281">
		<tag k="fixme" v="consider place=hamlet" />
		<tag k="name" v="Gvam" />
		<tag k="place" v="farm" />
		<tag k="ssr:stedsnr" v="301134" />
	</node>
	<node id="-190638" lat="59.9562500041" lon="9.47510277389">
		<tag k="name" v="Haugsjå" />
		<tag k="place" v="farm" />
		<tag k="ssr:stedsnr" v="300937" />
	</node>
	<node id="-190637" lat="59.9468222223" lon="9.47251666408">
		<tag k="name" v="Nordre Haugan" />
		<tag k="place" v="farm" />
		<tag k="ssr:stedsnr" v="300924" />
	</node>
	<node id="-190636" lat="59.9450915549" lon="9.49264563051">
		<tag k="fixme" v="consider place=hamlet" />
		<tag k="name" v="Bjørkeset" />
		<tag k="place" v="farm" />
		<tag k="ssr:stedsnr" v="300912" />
	</node>
	<node id="-190630" lat="59.8487749987" lon="9.65805833761">
		<tag k="fixme" v="consider place=hamlet" />
		<tag k="name" v="Lia" />
		<tag k="place" v="farm" />
		<tag k="ssr:stedsnr" v="299783" />
	</node>
	<node id="-190625" lat="59.9056416633" lon="9.64788889688">
		<tag k="historic" v="shieling" />
		<tag k="name" v="Langtjernsetra" />
		<tag k="place" v="locality" />
		<tag k="ssr:stedsnr" v="297803" />
	</node>
	<node id="-190619" lat="59.8390000037" lon="9.51868056152">
		<tag k="name" v="Rustan" />
		<tag k="place" v="farm" />
		<tag k="ssr:stedsnr" v="295962" />
	</node>
	<node id="-190618" lat="59.8418472234" lon="9.48808611035">
		<tag k="name" v="Nørdre Underberget" />
		<tag k="place" v="farm" />
		<tag k="ssr:stedsnr" v="295937" />
	</node>
	<node id="-190617" lat="59.8283500023" lon="9.54268610635">
		<tag k="name" v="Mellom-Gårdås" />
		<tag k="place" v="farm" />
		<tag k="ssr:stedsnr" v="295625" />
	</node>
	<node id="-190616" lat="59.8992722253" lon="9.67875555853">
		<tag k="name" v="Ulsbekkhytta" />
		<tag k="place" v="farm" />
		<tag k="ssr:stedsnr" v="295219" />
	</node>
	<node id="-190615" lat="59.7797027818" lon="9.55480834128">
		<tag k="name" v="Vinoren" />
		<tag k="old_name" v="Vinoren ferieheim;Vinoren feriehjem" />
		<tag k="place" v="isolated_dwelling" />
		<tag k="ssr:stedsnr" v="294888" />
	</node>
	<node id="-190614" lat="59.9112416676" lon="9.41269722762">
		<tag k="fixme" v="consider place=hamlet" />
		<tag k="name" v="Linås" />
		<tag k="place" v="farm" />
		<tag k="ssr:stedsnr" v="294450" />
	</node>
	<node id="-190609" lat="59.8074750029" lon="9.58867223048">
		<tag k="name" v="Moen" />
		<tag k="place" v="farm" />
		<tag k="ssr:stedsnr" v="284684" />
	</node>
	<node id="-190606" lat="59.8795444416" lon="9.4704166707">
		<tag k="name" v="Søre Lande" />
		<tag k="place" v="farm" />
		<tag k="ssr:stedsnr" v="284838" />
	</node>
	<node id="-190600" lat="59.8619111149" lon="9.42196388999">
		<tag k="name" v="Nedre Førle" />
		<tag k="place" v="farm" />
		<tag k="ssr:stedsnr" v="283267" />
	</node>
</osm>
