<?xml version="1.0" encoding="UTF-8"?>
<osm version="0.6" generator="osmapis">
	<node lat="61.372299998098434" lon="7.95318610721897" id="-78354">
		<tag k="name" v="Kalveklovbekken" />
		<tag k="ssr:stedsnr" v="7961" />
		<tag k="waterway" v="stream" />
	</node>
	<node lat="61.26157778182824" lon="7.9109138849331515" id="-78358">
		<tag k="name" v="Skogsvatnet" />
		<tag k="natural" v="water" />
		<tag k="ssr:stedsnr" v="8892" />
	</node>
	<node lat="61.227580554044614" lon="7.522766658104784" id="-78362">
		<tag k="name" v="Merkestjørni" />
		<tag k="natural" v="water" />
		<tag k="ssr:stedsnr" v="9301" />
	</node>
	<node lat="61.23509950064623" lon="7.885472036490792" id="-78364">
		<tag k="name" v="Viervatnet" />
		<tag k="natural" v="water" />
		<tag k="old_name" v="Heimre Viervatnet" />
		<tag k="ssr:stedsnr" v="9891" />
		<tag k="water" v="lake" />
	</node>
	<node lat="61.246880559208165" lon="7.725158324450496" id="-78365">
		<tag k="name" v="Årdalsvatnet" />
		<tag k="natural" v="water" />
		<tag k="ssr:stedsnr" v="9903" />
		<tag k="water" v="lake" />
	</node>
	<node lat="61.35799527499929" lon="8.179014850700508" id="-78374">
		<tag k="loc_name" v="Køldedøla" />
		<tag k="name" v="Koldedøla" />
		<tag k="ssr:stedsnr" v="33318" />
		<tag k="waterway" v="river" />
	</node>
	<node lat="61.21507500450016" lon="7.494613893536945" id="-78379">
		<tag k="name" v="Tungesleppen" />
		<tag k="natural" v="cape" />
		<tag k="ssr:stedsnr" v="47372" />
	</node>
	<node lat="61.41168889185715" lon="7.976749993908866" id="-78381">
		<tag k="name" v="Sveines" />
		<tag k="natural" v="cape" />
		<tag k="ssr:stedsnr" v="47610" />
	</node>
	<node lat="61.33576666984074" lon="7.7574888795410955" id="-78383">
		<tag k="name" v="Ekrebekken" />
		<tag k="ssr:stedsnr" v="47908" />
		<tag k="waterway" v="stream" />
	</node>
	<node lat="61.30711944456124" lon="7.904405556475895" id="-78387">
		<tag k="alt_name" v="Engesetbekken" />
		<tag k="name" v="Engjesetbekken" />
		<tag k="ssr:stedsnr" v="68914" />
		<tag k="waterway" v="stream" />
	</node>
	<node lat="61.294880559107014" lon="7.912075005106647" id="-78394">
		<tag k="name" v="Holsbruvatnet" />
		<tag k="natural" v="water" />
		<tag k="ssr:stedsnr" v="68887" />
		<tag k="water" v="lake" />
	</node>
	<node lat="61.26675555938507" lon="8.058872223362291" id="-78404">
		<tag k="name" v="Torolmen" />
		<tag k="natural" v="water" />
		<tag k="ssr:stedsnr" v="69893" />
		<tag k="water" v="lake" />
	</node>
	<node lat="61.24265833148093" lon="7.719755557319815" id="-78409">
		<tag k="name" v="Hagen" />
		<tag k="natural" v="beach" />
		<tag k="ssr:stedsnr" v="70917" />
	</node>
	<node lat="61.12961944495306" lon="7.79438610534658" id="-78410">
		<tag k="name" v="Reinsgravtjørni" />
		<tag k="natural" v="water" />
		<tag k="ssr:stedsnr" v="70988" />
	</node>
	<node lat="61.14807499640984" lon="7.620050005975752" id="-78412">
		<tag k="name" v="Fjellvatnet" />
		<tag k="natural" v="water" />
		<tag k="ssr:stedsnr" v="71322" />
	</node>
	<node lat="61.182605559407136" lon="7.651066668254856" id="-78413">
		<tag k="name" v="Kipargrovi" />
		<tag k="ssr:stedsnr" v="71327" />
		<tag k="waterway" v="stream" />
	</node>
	<node lat="61.19393333143791" lon="7.613638882682318" id="-78427">
		<tag k="name" v="Granden" />
		<tag k="natural" v="cape" />
		<tag k="ssr:stedsnr" v="108281" />
	</node>
	<node lat="61.2635182610219" lon="7.567352826521452" id="-78428">
		<tag k="name" v="Tjørnene" />
		<tag k="natural" v="water" />
		<tag k="ssr:stedsnr" v="108469" />
		<tag k="water" v="lake" />
	</node>
	<node lat="61.31230278192858" lon="7.738336103418851" id="-78441">
		<tag k="alt_name" v="Nundalselvi" />
		<tag k="name" v="Nondalselvi" />
		<tag k="ssr:stedsnr" v="250918" />
		<tag k="waterway" v="stream" />
	</node>
	<node lat="61.33361110700997" lon="7.889188894149019" id="-78442">
		<tag k="name" v="Kyrfoss" />
		<tag k="natural" v="waterfall" />
		<tag k="ssr:stedsnr" v="250937" />
	</node>
	<node lat="61.3494333332866" lon="7.812433324059341" id="-78445">
		<tag k="name" v="Botnavatnet" />
		<tag k="natural" v="water" />
		<tag k="ssr:stedsnr" v="250957" />
	</node>
	<node lat="61.37388333130942" lon="7.902594435349839" id="-78446">
		<tag k="name" v="Nonsbekken" />
		<tag k="ssr:stedsnr" v="250958" />
		<tag k="waterway" v="stream" />
	</node>
	<node lat="61.166405551222574" lon="7.536874993037715" id="-78455">
		<tag k="name" v="Stovegrovi" />
		<tag k="ssr:stedsnr" v="252286" />
		<tag k="waterway" v="stream" />
	</node>
	<node lat="61.19660555686041" lon="7.698050006019754" id="-78460">
		<tag k="name" v="Botnavatnet" />
		<tag k="natural" v="water" />
		<tag k="ssr:stedsnr" v="252295" />
	</node>
	<node lat="61.22404999789088" lon="7.560124991048908" id="-78461">
		<tag k="name" v="Mastrehauggrovi" />
		<tag k="ssr:stedsnr" v="252302" />
		<tag k="waterway" v="stream" />
	</node>
	<node lat="61.37556502902506" lon="8.050543708199553" id="-78471">
		<tag k="name" v="Fyrstevatnet" />
		<tag k="natural" v="water" />
		<tag k="ssr:stedsnr" v="129982" />
	</node>
	<node lat="61.242147220184975" lon="7.609708341542181" id="-78491">
		<tag k="name" v="Vetletjørni" />
		<tag k="natural" v="water" />
		<tag k="ssr:stedsnr" v="168460" />
	</node>
	<node lat="61.189650002660635" lon="7.622272230395297" id="-78496">
		<tag k="name" v="Nysetelvi" />
		<tag k="ssr:stedsnr" v="176804" />
		<tag k="waterway" v="river" />
	</node>
	<node lat="61.350430552681125" lon="7.923533331550216" id="-78503">
		<tag k="name" v="Ilagsbekken" />
		<tag k="ssr:stedsnr" v="189960" />
		<tag k="waterway" v="stream" />
	</node>
	<node lat="61.28023055390652" lon="7.760197226955447" id="-78511">
		<tag k="name" v="Midnes" />
		<tag k="natural" v="cape" />
		<tag k="ssr:stedsnr" v="190915" />
	</node>
	<node lat="61.237238889514444" lon="7.702541657388864" id="-78526">
		<tag k="name" v="Hæreidselvi" />
		<tag k="ssr:stedsnr" v="229202" />
		<tag k="waterway" v="river" />
	</node>
	<node lat="61.32367222440567" lon="7.7742749960077235" id="-78531">
		<tag k="name" v="Vigarslettneset" />
		<tag k="natural" v="cape" />
		<tag k="ssr:stedsnr" v="471941" />
	</node>
	<node lat="61.18595833752682" lon="7.588191662006689" id="-78535">
		<tag k="name" v="Hornfossen" />
		<tag k="natural" v="waterfall" />
		<tag k="ssr:stedsnr" v="290240" />
	</node>
	<node lat="61.36940278064604" lon="7.932447221707946" id="-78538">
		<tag k="name" v="Skredbekken" />
		<tag k="ssr:stedsnr" v="290687" />
		<tag k="waterway" v="stream" />
	</node>
	<node lat="61.27303333306242" lon="7.663216664581782" id="-78543">
		<tag k="name" v="Seimsdalselvi" />
		<tag k="ssr:stedsnr" v="311602" />
		<tag k="waterway" v="river" />
	</node>
	<node lat="61.25811944488268" lon="8.005177779914703" id="-78545">
		<tag k="name" v="Fannegjelselvi" />
		<tag k="ssr:stedsnr" v="311911" />
		<tag k="waterway" v="stream" />
	</node>
	<node lat="61.28775000343557" lon="8.016275000378057" id="-78547">
		<tag k="name" v="Mannsbergelvi" />
		<tag k="ssr:stedsnr" v="311925" />
		<tag k="waterway" v="stream" />
	</node>
	<node lat="61.377027782213126" lon="7.90364445210886" id="-78549">
		<tag k="name" v="Nybekken" />
		<tag k="ssr:stedsnr" v="311984" />
		<tag k="waterway" v="stream" />
	</node>
	<node lat="61.17415000004348" lon="7.673874991657317" id="-78551">
		<tag k="name" v="Munkegrovi" />
		<tag k="ssr:stedsnr" v="313317" />
		<tag k="waterway" v="stream" />
	</node>
	<node lat="61.30607777636527" lon="7.791711102555242" id="-78557">
		<tag k="name" v="Osane" />
		<tag k="natural" v="cape" />
		<tag k="ssr:stedsnr" v="471788" />
	</node>
	<node lat="61.36050277574927" lon="7.740122229014928" id="-78560">
		<tag k="name" v="Hyttebekken" />
		<tag k="ssr:stedsnr" v="471898" />
		<tag k="waterway" v="stream" />
	</node>
	<node lat="61.324980556492406" lon="7.719558331351973" id="-78561">
		<tag k="name" v="Ormesetelvi" />
		<tag k="ssr:stedsnr" v="349208" />
		<tag k="waterway" v="river" />
	</node>
	<node lat="61.29148333216888" lon="7.917833333534678" id="-78565">
		<tag k="name" v="Grunkøyni" />
		<tag k="natural" v="cape" />
		<tag k="ssr:stedsnr" v="350609" />
	</node>
	<node lat="61.340563891289854" lon="7.736863889394923" id="-78570">
		<tag k="name" v="Synnosvatnet" />
		<tag k="natural" v="water" />
		<tag k="ssr:stedsnr" v="371962" />
	</node>
	<node lat="61.26860833200869" lon="7.782872223977938" id="-78576">
		<tag k="name" v="Storelvi" />
		<tag k="ssr:stedsnr" v="372898" />
		<tag k="waterway" v="stream" />
	</node>
	<node lat="61.204752776016065" lon="7.446911109916794" id="-78577">
		<tag k="name" v="Våtefodi" />
		<tag k="ssr:stedsnr" v="373348" />
		<tag k="waterway" v="stream" />
	</node>
	<node lat="61.243125000456736" lon="7.782663885185122" id="-78579">
		<tag k="name" v="Avdøla" />
		<tag k="ssr:stedsnr" v="373911" />
		<tag k="waterway" v="river" />
	</node>
	<node lat="61.23015000058431" lon="7.725680553477827" id="-78581">
		<tag k="name" v="Geisdøla" />
		<tag k="ssr:stedsnr" v="373916" />
		<tag k="waterway" v="river" />
	</node>
	<node lat="61.162638888106216" lon="7.714377772155932" id="-78584">
		<tag k="name" v="Riskalsvatnet" />
		<tag k="natural" v="water" />
		<tag k="ssr:stedsnr" v="374304" />
	</node>
	<node lat="61.17839166670683" lon="7.6161750070595335" id="-78586">
		<tag k="name" v="Inkjevetta" />
		<tag k="ssr:stedsnr" v="374300" />
		<tag k="waterway" v="stream" />
	</node>
	<node lat="61.33448610996089" lon="7.737949995801986" id="-78602">
		<tag k="name" v="Svartevatnet" />
		<tag k="natural" v="water" />
		<tag k="ssr:stedsnr" v="432931" />
	</node>
	<node lat="61.42880000017346" lon="7.931183329244466" id="-78605">
		<tag k="name" v="Midtmaradøla" />
		<tag k="ssr:stedsnr" v="433510" />
		<tag k="waterway" v="river" />
	</node>
	<node lat="61.26239999804304" lon="8.1089694494405" id="-78607">
		<tag k="name" v="Langleiskardbekken" />
		<tag k="ssr:stedsnr" v="433795" />
		<tag k="waterway" v="stream" />
	</node>
	<node lat="61.24451198771612" lon="7.609346187653188" id="-78609">
		<tag k="alt_name" v="Åsatjørni" />
		<tag k="name" v="Åsettjørni" />
		<tag k="natural" v="water" />
		<tag k="ssr:stedsnr" v="434324" />
	</node>
	<node lat="61.23863055936572" lon="7.6282666730065225" id="-78610">
		<tag k="alt_name" v="Geitåi;Geitaonabekken" />
		<tag k="name" v="Geitåna" />
		<tag k="ssr:stedsnr" v="434326" />
		<tag k="waterway" v="stream" />
	</node>
	<node lat="61.115527776907285" lon="7.656841671401518" id="-78613">
		<tag k="name" v="Blåsarbåttjørni" />
		<tag k="natural" v="water" />
		<tag k="ssr:stedsnr" v="435320" />
	</node>
	<node lat="61.35230000180944" lon="7.97217777247406" id="-78617">
		<tag k="name" v="Øytjørn" />
		<tag k="natural" v="water" />
		<tag k="ssr:stedsnr" v="492961" />
		<tag k="water" v="lake" />
	</node>
	<node lat="61.43713611314502" lon="7.6668305549499935" id="-78625">
		<tag k="name" v="Jervvatnet" />
		<tag k="natural" v="water" />
		<tag k="ssr:stedsnr" v="493754" />
	</node>
	<node lat="61.2612305598265" lon="7.732350006294066" id="-78626">
		<tag k="name" v="Lindviki" />
		<tag k="natural" v="bay" />
		<tag k="ssr:stedsnr" v="493891" />
	</node>
	<node lat="61.380177775038696" lon="7.945605556453829" id="-78629">
		<tag k="name" v="Vettisfossen" />
		<tag k="natural" v="waterfall" />
		<tag k="ssr:stedsnr" v="493970" />
	</node>
	<node lat="61.387000003841216" lon="7.95945278628435" id="-78631">
		<tag k="alt_name" v="Langetjørni" />
		<tag k="name" v="Langetjørn" />
		<tag k="natural" v="water" />
		<tag k="ssr:stedsnr" v="493975" />
	</node>
	<node lat="61.24677499603389" lon="7.459711120289604" id="-78633">
		<tag k="name" v="Svartevatnet" />
		<tag k="natural" v="water" />
		<tag k="ssr:stedsnr" v="494335" />
	</node>
	<node lat="61.187880555046775" lon="7.891880551450584" id="-78636">
		<tag k="name" v="Fossdalsgrunntjørni" />
		<tag k="natural" v="water" />
		<tag k="ssr:stedsnr" v="494888" />
	</node>
	<node lat="61.18068294763177" lon="7.730395964948858" id="-78637">
		<tag k="name" v="Hellingvatnet" />
		<tag k="natural" v="water" />
		<tag k="ssr:stedsnr" v="494900" />
	</node>
	<node lat="61.240977779794875" lon="7.625036113227561" id="-78638">
		<tag k="name" v="Geitånatjørni" />
		<tag k="natural" v="water" />
		<tag k="ssr:stedsnr" v="494337" />
	</node>
	<node lat="61.253816665140185" lon="7.7907305527439705" id="-78652">
		<tag k="name" v="Berdalsfossen" />
		<tag k="natural" v="waterfall" />
		<tag k="ssr:stedsnr" v="675880" />
	</node>
	<node lat="61.26334721916371" lon="7.646308340167494" id="-78656">
		<tag k="name" v="Stølslebekken" />
		<tag k="ssr:stedsnr" v="471365" />
		<tag k="waterway" v="stream" />
	</node>
	<node lat="61.180450003754224" lon="7.609202781503559" id="-78668">
		<tag k="name" v="Biskafossen" />
		<tag k="ssr:stedsnr" v="677258" />
		<tag k="waterway" v="stream" />
	</node>
	<node lat="61.12983611031913" lon="7.642925007482374" id="-78669">
		<tag k="name" v="Vasselavatnet" />
		<tag k="natural" v="water" />
		<tag k="ssr:stedsnr" v="677264" />
	</node>
	<node lat="61.36575000104495" lon="7.73031110412147" id="-78678">
		<tag k="name" v="Fardalselvi" />
		<tag k="ssr:stedsnr" v="677757" />
		<tag k="waterway" v="river" />
	</node>
	<node lat="61.41319166963529" lon="7.929786113768146" id="-78680">
		<tag k="name" v="Storebekkvatnet" />
		<tag k="natural" v="water" />
		<tag k="ssr:stedsnr" v="493513" />
	</node>
	<node lat="61.278505883816464" lon="7.479669914909166" id="-78683">
		<tag k="name" v="Tisedalsvatni" />
		<tag k="natural" v="water" />
		<tag k="ssr:stedsnr" v="493613" />
		<tag k="water" v="lake" />
	</node>
	<node lat="61.274677782070114" lon="7.777952784329071" id="-78684">
		<tag k="name" v="Stakkstødbekken" />
		<tag k="ssr:stedsnr" v="493915" />
		<tag k="waterway" v="stream" />
	</node>
	<node lat="61.316600303202364" lon="7.911734113899523" id="-78685">
		<tag k="name" v="Engjesetvatnet" />
		<tag k="natural" v="water" />
		<tag k="ssr:stedsnr" v="493923" />
		<tag k="water" v="lake" />
	</node>
	<node lat="61.32477698464344" lon="8.013665428647606" id="-78687">
		<tag k="name" v="Svartevatnet" />
		<tag k="natural" v="water" />
		<tag k="ssr:stedsnr" v="493941" />
		<tag k="water" v="lake" />
	</node>
	<node lat="61.18336111535455" lon="7.67211110539488" id="-78692">
		<tag k="name" v="Kiparvatnet" />
		<tag k="natural" v="water" />
		<tag k="ssr:stedsnr" v="495326" />
	</node>
	<node lat="61.19836111497192" lon="7.644744435031472" id="-78701">
		<tag k="alt_name" v="Årøydalselvi" />
		<tag k="name" v="Årøyelvi" />
		<tag k="ssr:stedsnr" v="532272" />
		<tag k="waterway" v="river" />
	</node>
	<node lat="61.41656388478925" lon="7.974305560729348" id="-78703">
		<tag k="name" v="Midtmaradalsfossen" />
		<tag k="natural" v="waterfall" />
		<tag k="ssr:stedsnr" v="532614" />
	</node>
	<node lat="61.34400277364804" lon="7.878594450407416" id="-78705">
		<tag k="name" v="Hjelløynane" />
		<tag k="natural" v="cape" />
		<tag k="ssr:stedsnr" v="532792" />
	</node>
	<node lat="61.426222220826084" lon="7.6328277701465295" id="-78734">
		<tag k="name" v="Hyttedalsvatnet" />
		<tag k="natural" v="water" />
		<tag k="ssr:stedsnr" v="614715" />
	</node>
	<node lat="61.27476369976026" lon="8.141980831838506" id="-78735">
		<tag k="name" v="Tyinosen" />
		<tag k="natural" v="bay" />
		<tag k="ssr:stedsnr" v="614816" />
	</node>
	<node lat="61.351448858794086" lon="8.070839734761309" id="-78743">
		<tag k="name" v="Hjelledalsvatnet" />
		<tag k="natural" v="water" />
		<tag k="ssr:stedsnr" v="614964" />
		<tag k="water" v="lake" />
	</node>
	<node lat="61.21449722151747" lon="7.598827782149759" id="-78745">
		<tag k="name" v="Kvernabekken" />
		<tag k="ssr:stedsnr" v="615316" />
		<tag k="waterway" v="stream" />
	</node>
	<node lat="61.25061944228577" lon="7.724280550559234" id="-78751">
		<tag k="name" v="Skolma" />
		<tag k="ssr:stedsnr" v="653205" />
		<tag k="waterway" v="river" />
	</node>
	<node lat="61.30070555414917" lon="7.816933327898257" id="-78753">
		<tag k="name" v="Almebekken" />
		<tag k="ssr:stedsnr" v="653787" />
		<tag k="waterway" v="stream" />
	</node>
	<node lat="61.32055833604274" lon="7.837872226003537" id="-78754">
		<tag k="name" v="Volldalsøyni" />
		<tag k="natural" v="cape" />
		<tag k="ssr:stedsnr" v="653990" />
	</node>
	<node lat="61.34187777441963" lon="7.754291665843621" id="-78758">
		<tag k="name" v="Jørungbekken" />
		<tag k="ssr:stedsnr" v="653897" />
		<tag k="waterway" v="stream" />
	</node>
	<node lat="61.311450000018" lon="7.85996388599594" id="-78768">
		<tag k="name" v="Tya" />
		<tag k="ssr:stedsnr" v="675922" />
		<tag k="waterway" v="river" />
	</node>
	<node lat="61.40587500295313" lon="7.933088897480226" id="-78769">
		<tag k="name" v="Storebekken" />
		<tag k="ssr:stedsnr" v="675991" />
		<tag k="waterway" v="stream" />
	</node>
	<node lat="61.17712499777467" lon="7.792925002594865" id="-78772">
		<tag k="name" v="Sandtjørn" />
		<tag k="natural" v="water" />
		<tag k="ssr:stedsnr" v="676883" />
	</node>
	<node lat="61.2467861128899" lon="7.589927768820235" id="-78776">
		<tag k="alt_name" v="Raugrovi" />
		<tag k="name" v="Raudgrovi" />
		<tag k="ssr:stedsnr" v="677348" />
		<tag k="waterway" v="stream" />
	</node>
	<node lat="61.23592777367264" lon="7.736049997536056" id="-78778">
		<tag k="alt_name" v="Kyrefoss" />
		<tag k="name" v="Kyrfossbekken" />
		<tag k="ssr:stedsnr" v="677932" />
		<tag k="waterway" v="stream" />
	</node>
	<node lat="61.254722224787244" lon="7.581472220882316" id="-78784">
		<tag k="name" v="Skaragrovi" />
		<tag k="ssr:stedsnr" v="896494" />
		<tag k="waterway" v="stream" />
	</node>
	<node lat="61.29997222282527" lon="7.780652771668441" id="-78785">
		<tag k="name" v="Arvenes" />
		<tag k="natural" v="cape" />
		<tag k="ssr:stedsnr" v="897099" />
	</node>
	<node lat="61.311405556787165" lon="7.7851750087417395" id="-78786">
		<tag k="name" v="Ekra" />
		<tag k="natural" v="cape" />
		<tag k="ssr:stedsnr" v="897102" />
	</node>
	<node lat="61.2434250014986" lon="7.719375007999956" id="-78796">
		<tag k="name" v="Osen" />
		<tag k="natural" v="bay" />
		<tag k="ssr:stedsnr" v="714203" />
	</node>
	<node lat="61.24949722288348" lon="7.584166659315452" id="-78798">
		<tag k="name" v="Heiberggrovi" />
		<tag k="ssr:stedsnr" v="714424" />
		<tag k="waterway" v="stream" />
	</node>
	<node lat="61.42328333130949" lon="7.707941671363988" id="-78815">
		<tag k="name" v="Lovardalsvatnet" />
		<tag k="natural" v="water" />
		<tag k="ssr:stedsnr" v="736730" />
	</node>
	<node lat="61.185005559320835" lon="7.533211104856945" id="-78829">
		<tag k="alt_name" v="Løypegroi" />
		<tag k="name" v="Løypegrovi" />
		<tag k="ssr:stedsnr" v="738319" />
		<tag k="waterway" v="stream" />
	</node>
	<node lat="61.339580552670746" lon="7.676550003217852" id="-78830">
		<tag k="name" v="Svartevatnet" />
		<tag k="natural" v="water" />
		<tag k="ssr:stedsnr" v="918697" />
	</node>
	<node lat="61.177208337105085" lon="7.645838881957883" id="-78832">
		<tag k="name" v="Klypehølen" />
		<tag k="place" v="locality" />
		<tag k="ssr:stedsnr" v="774327" />
	</node>
	<node lat="61.29151111430837" lon="8.141002774282208" id="-78843">
		<tag k="name" v="Buvassbekken" />
		<tag k="ssr:stedsnr" v="797816" />
		<tag k="waterway" v="stream" />
	</node>
	<node lat="61.22687500003307" lon="7.47627499798813" id="-78848">
		<tag k="name" v="Svagrovi" />
		<tag k="ssr:stedsnr" v="798323" />
		<tag k="waterway" v="stream" />
	</node>
	<node lat="61.149302780371535" lon="7.7774888969025415" id="-78850">
		<tag k="name" v="Geitenosvatnet" />
		<tag k="natural" v="water" />
		<tag k="ssr:stedsnr" v="798855" />
	</node>
	<node lat="61.24647222581587" lon="8.022022219226162" id="-78854">
		<tag k="name" v="Frostdalselvi" />
		<tag k="ssr:stedsnr" v="798910" />
		<tag k="waterway" v="stream" />
	</node>
	<node lat="61.364463891861526" lon="7.868188893888395" id="-78860">
		<tag k="name" v="Slufsedøla" />
		<tag k="ssr:stedsnr" v="917951" />
		<tag k="waterway" v="river" />
	</node>
	<node lat="61.26022500283677" lon="7.674855552215728" id="-78862">
		<tag k="name" v="Halsagrovi" />
		<tag k="ssr:stedsnr" v="918646" />
		<tag k="waterway" v="stream" />
	</node>
	<node lat="61.30624999683931" lon="7.824169446150895" id="-78866">
		<tag k="name" v="Sitla" />
		<tag k="ssr:stedsnr" v="918934" />
		<tag k="waterway" v="stream" />
	</node>
	<node lat="61.24578888581144" lon="7.858411115494776" id="-78873">
		<tag k="name" v="Berdalselvi" />
		<tag k="ssr:stedsnr" v="920925" />
		<tag k="waterway" v="stream" />
	</node>
	<node lat="61.21195277413868" lon="7.535638892724733" id="-78876">
		<tag k="name" v="Kleivafossen" />
		<tag k="natural" v="waterfall" />
		<tag k="ssr:stedsnr" v="920320" />
	</node>
	<node lat="61.218183335524" lon="7.471127773181793" id="-78879">
		<tag k="alt_name" v="Langebordelvi" />
		<tag k="name" v="Langeborelvi" />
		<tag k="ssr:stedsnr" v="920335" />
		<tag k="waterway" v="stream" />
	</node>
	<node lat="61.28450277821938" lon="7.932347225318692" id="-78887">
		<tag k="name" v="Skogøyni" />
		<tag k="natural" v="cape" />
		<tag k="ssr:stedsnr" v="836596" />
	</node>
	<node lat="61.30760555203623" lon="7.768908339143383" id="-78891">
		<tag k="name" v="Gildesnes" />
		<tag k="natural" v="cape" />
		<tag k="ssr:stedsnr" v="836916" />
	</node>
	<node lat="61.41159722669019" lon="7.697988883702924" id="-78895">
		<tag k="name" v="Korelvi" />
		<tag k="ssr:stedsnr" v="857712" />
		<tag k="waterway" v="stream" />
	</node>
	<node lat="61.312566670121484" lon="7.539413889529958" id="-78902">
		<tag k="name" v="Blankevatnet" />
		<tag k="natural" v="water" />
		<tag k="ssr:stedsnr" v="858617" />
	</node>
	<node lat="61.38550833587733" lon="7.965305546321321" id="-78907">
		<tag k="alt_name" v="Lommetjørni" />
		<tag k="name" v="Lometjørni" />
		<tag k="natural" v="water" />
		<tag k="ssr:stedsnr" v="858965" />
	</node>
	<node lat="61.36953055285386" lon="7.832647228351277" id="-78908">
		<tag k="name" v="Gravdøla" />
		<tag k="ssr:stedsnr" v="858968" />
		<tag k="waterway" v="river" />
	</node>
	<node lat="61.36970833648274" lon="7.911252777904633" id="-78909">
		<tag k="alt_name" v="Høljafossen" />
		<tag k="name" v="Hyljefossen" />
		<tag k="natural" v="waterfall" />
		<tag k="ssr:stedsnr" v="858972" />
	</node>
	<node lat="61.20801389081517" lon="7.479574991108517" id="-78911">
		<tag k="name" v="Merkesgytti" />
		<tag k="ssr:stedsnr" v="859315" />
		<tag k="waterway" v="stream" />
	</node>
	<node lat="61.20798055946772" lon="7.935063886609163" id="-78913">
		<tag k="name" v="Berdalsflui" />
		<tag k="natural" v="water" />
		<tag k="ssr:stedsnr" v="859874" />
		<tag k="water" v="lake" />
	</node>
	<node lat="61.200674999558295" lon="7.874274999145082" id="-78914">
		<tag k="name" v="Fossdalstjørnane" />
		<tag k="natural" v="water" />
		<tag k="ssr:stedsnr" v="859883" />
		<tag k="water" v="lake" />
	</node>
	<node lat="61.160189573638895" lon="7.619820611352113" id="-78915">
		<tag k="name" v="Storevatnet" />
		<tag k="natural" v="water" />
		<tag k="ssr:stedsnr" v="860310" />
		<tag k="water" v="lake" />
	</node>
	<node lat="61.295433332944455" lon="7.657449998804455" id="-78919">
		<tag k="name" v="Storegrovi" />
		<tag k="ssr:stedsnr" v="896120" />
		<tag k="waterway" v="stream" />
	</node>
	<node lat="61.38151388854174" lon="7.961100004190695" id="-78923">
		<tag k="name" v="Kalvøynhaug" />
		<tag k="natural" v="cape" />
		<tag k="ssr:stedsnr" v="897716" />
	</node>
	<node lat="61.28556388649994" lon="7.770636120438954" id="-78928">
		<tag k="name" v="Kvernabekken" />
		<tag k="ssr:stedsnr" v="918918" />
		<tag k="waterway" v="stream" />
	</node>
	<node lat="61.33324722415248" lon="7.8690749950385035" id="-78931">
		<tag k="name" v="Utla" />
		<tag k="ssr:stedsnr" v="918958" />
		<tag k="waterway" v="river" />
	</node>
	<node lat="61.1672333367317" lon="7.517875004625799" id="-78937">
		<tag k="name" v="Langedøla" />
		<tag k="ssr:stedsnr" v="920301" />
		<tag k="waterway" v="stream" />
	</node>
	<node lat="61.3075333301734" lon="7.779927768659847" id="-78955">
		<tag k="name" v="Børtnes" />
		<tag k="natural" v="cape" />
		<tag k="ssr:stedsnr" v="229098" />
	</node>
	<node lat="61.42899722327412" lon="7.9749416720360236" id="-78963">
		<tag k="name" v="Skoddedøla" />
		<tag k="ssr:stedsnr" v="8552" />
		<tag k="waterway" v="stream" />
	</node>
	<node lat="61.33097731963708" lon="8.208134173814177" id="-78966">
		<tag k="name" v="Trollsjøen" />
		<tag k="natural" v="water" />
		<tag k="ssr:stedsnr" v="8834" />
		<tag k="water" v="lake" />
	</node>
	<node lat="61.26795555498094" lon="7.747800006303654" id="-78968">
		<tag k="alt_name" v="Hitreneset" />
		<tag k="name" v="Hitaneset" />
		<tag k="natural" v="cape" />
		<tag k="ssr:stedsnr" v="8883" />
	</node>
	<node lat="61.30375277913005" lon="7.794061116887758" id="-78971">
		<tag k="alt_name" v="Naustebukti" />
		<tag k="name" v="Naustbukti" />
		<tag k="natural" v="cape" />
		<tag k="ssr:stedsnr" v="8919" />
	</node>
	<node lat="61.24235000392407" lon="7.614855557745266" id="-78981">
		<tag k="name" v="Telefontjørni" />
		<tag k="natural" v="water" />
		<tag k="ssr:stedsnr" v="9350" />
	</node>
	<node lat="61.12221111498816" lon="7.800236117371484" id="-78982">
		<tag k="name" v="Rypetjørni" />
		<tag k="natural" v="water" />
		<tag k="ssr:stedsnr" v="9970" />
	</node>
	<node lat="61.40798611274753" lon="7.908655562426279" id="-79011">
		<tag k="alt_name" v="Maradøla" />
		<tag k="name" v="Stølsmaradøla" />
		<tag k="ssr:stedsnr" v="70000" />
		<tag k="waterway" v="river" />
	</node>
	<node lat="61.15746666825533" lon="7.569216661269441" id="-79012">
		<tag k="name" v="Viervatnet" />
		<tag k="natural" v="water" />
		<tag k="ssr:stedsnr" v="71287" />
	</node>
	<node lat="61.38579166301957" lon="7.721263889398582" id="-79018">
		<tag k="name" v="Brekkefossen" />
		<tag k="natural" v="waterfall" />
		<tag k="ssr:stedsnr" v="107151" />
	</node>
	<node lat="61.24591666874339" lon="7.717072219932894" id="-79024">
		<tag k="name" v="Hæreidsvassbugen" />
		<tag k="natural" v="bay" />
		<tag k="ssr:stedsnr" v="108250" />
	</node>
	<node lat="61.33344444371765" lon="7.840177776139055" id="-79030">
		<tag k="name" v="Presteteigbekken" />
		<tag k="ssr:stedsnr" v="108987" />
		<tag k="waterway" v="stream" />
	</node>
	<node lat="61.324550004453506" lon="7.817733331769078" id="-79033">
		<tag k="name" v="Lisbetbekken" />
		<tag k="ssr:stedsnr" v="108998" />
		<tag k="waterway" v="stream" />
	</node>
	<node lat="61.3549916689481" lon="7.885602779592094" id="-79035">
		<tag k="name" v="Avdalsfossen" />
		<tag k="natural" v="waterfall" />
		<tag k="ssr:stedsnr" v="128960" />
	</node>
	<node lat="61.31715833690968" lon="8.154219445516885" id="-79044">
		<tag k="alt_name" v="Breikvamsåi" />
		<tag k="name" v="Smogelvi" />
		<tag k="ssr:stedsnr" v="129798" />
		<tag k="waterway" v="river" />
	</node>
	<node lat="61.309369448011175" lon="7.899733330811501" id="-79050">
		<tag k="name" v="Skanseelvi" />
		<tag k="ssr:stedsnr" v="129916" />
		<tag k="waterway" v="stream" />
	</node>
	<node lat="61.17093611541121" lon="7.774961114880317" id="-79055">
		<tag k="name" v="Nysetvatnet" />
		<tag k="natural" v="water" />
		<tag k="ssr:stedsnr" v="130860" />
	</node>
	<node lat="61.32453889095169" lon="7.652544450293894" id="-79060">
		<tag k="name" v="Feningelvi" />
		<tag k="ssr:stedsnr" v="167328" />
		<tag k="waterway" v="stream" />
	</node>
	<node lat="61.34610555656722" lon="7.7503111087502985" id="-79062">
		<tag k="name" v="Øylobekken" />
		<tag k="ssr:stedsnr" v="168881" />
		<tag k="waterway" v="stream" />
	</node>
	<node lat="61.23753610825627" lon="7.701597231124665" id="-79065">
		<tag k="name" v="Kilodden" />
		<tag k="natural" v="beach" />
		<tag k="ssr:stedsnr" v="168189" />
	</node>
	<node lat="61.242730553751464" lon="7.725755549183576" id="-79066">
		<tag k="name" v="Lægreidvassbugen" />
		<tag k="natural" v="bay" />
		<tag k="ssr:stedsnr" v="168205" />
	</node>
	<node lat="61.23988611160729" lon="7.708038891958011" id="-79068">
		<tag k="name" v="Sløøyni" />
		<tag k="place" v="island" />
		<tag k="ssr:stedsnr" v="168237" />
	</node>
	<node lat="61.37915000328897" lon="7.948002771854438" id="-79069">
		<tag k="name" v="Morkaelvi" />
		<tag k="ssr:stedsnr" v="168726" />
		<tag k="waterway" v="river" />
	</node>
	<node lat="61.383352777007076" lon="7.691527786868046" id="-79074">
		<tag k="name" v="Stokkesetelvi" />
		<tag k="ssr:stedsnr" v="189630" />
		<tag k="waterway" v="stream" />
	</node>
	<node lat="61.34296944685615" lon="7.877077779534648" id="-79077">
		<tag k="name" v="Hjellefossen" />
		<tag k="natural" v="waterfall" />
		<tag k="ssr:stedsnr" v="189940" />
	</node>
	<node lat="61.164524998422294" lon="7.547874991218926" id="-79095">
		<tag k="alt_name" v="Hjellegrovi" />
		<tag k="name" v="Hjellgrovi" />
		<tag k="ssr:stedsnr" v="192330" />
		<tag k="waterway" v="stream" />
	</node>
	<node lat="61.24035833400316" lon="7.815025000282687" id="-79096">
		<tag k="name" v="Fossdøla" />
		<tag k="ssr:stedsnr" v="191875" />
		<tag k="waterway" v="river" />
	</node>
	<node lat="61.38315555767111" lon="7.992708325665716" id="-79100">
		<tag k="name" v="Storebekken" />
		<tag k="ssr:stedsnr" v="192779" />
		<tag k="waterway" v="stream" />
	</node>
	<node lat="61.37853055345481" lon="7.907599991475389" id="-79101">
		<tag k="name" v="Storebekken" />
		<tag k="ssr:stedsnr" v="192780" />
		<tag k="waterway" v="stream" />
	</node>
	<node lat="61.16405555813388" lon="7.659449996116671" id="-79105">
		<tag k="name" v="Langeneset" />
		<tag k="natural" v="cape" />
		<tag k="ssr:stedsnr" v="228348" />
	</node>
	<node lat="61.160716667158624" lon="7.658699998632764" id="-79106">
		<tag k="name" v="Smørholeelvi" />
		<tag k="ssr:stedsnr" v="228349" />
		<tag k="waterway" v="stream" />
	</node>
	<node lat="61.17073055632565" lon="7.645352778017188" id="-79107">
		<tag k="name" v="Veidelsgrovi" />
		<tag k="ssr:stedsnr" v="289281" />
		<tag k="waterway" v="stream" />
	</node>
	<node lat="61.256191665181625" lon="7.635374995547225" id="-79110">
		<tag k="name" v="Djupedalsbekken" />
		<tag k="ssr:stedsnr" v="289355" />
		<tag k="waterway" v="stream" />
	</node>
	<node lat="61.276197225660624" lon="7.6507361017967535" id="-79111">
		<tag k="name" v="Åsagrovi" />
		<tag k="ssr:stedsnr" v="289365" />
		<tag k="waterway" v="stream" />
	</node>
	<node lat="61.16093055346804" lon="7.663002779806379" id="-79112">
		<tag k="name" v="Skeidslåfossen" />
		<tag k="natural" v="waterfall" />
		<tag k="ssr:stedsnr" v="289317" />
	</node>
	<node lat="61.257347225015835" lon="7.730513889790508" id="-79113">
		<tag k="name" v="Kobbestein" />
		<tag k="natural" v="cape" />
		<tag k="ssr:stedsnr" v="290040" />
	</node>
	<node lat="61.32529444745549" lon="7.773016661528168" id="-79122">
		<tag k="name" v="Kjerringneset" />
		<tag k="natural" v="cape" />
		<tag k="ssr:stedsnr" v="290915" />
	</node>
	<node lat="61.33193380583569" lon="7.634446003453917" id="-79124">
		<tag k="name" v="Ryvatni" />
		<tag k="natural" v="water" />
		<tag k="ssr:stedsnr" v="311689" />
	</node>
	<node lat="61.34155555604239" lon="7.903930551483787" id="-79135">
		<tag k="name" v="Hjelledøla" />
		<tag k="ssr:stedsnr" v="311961" />
		<tag k="waterway" v="river" />
	</node>
	<node lat="61.17437500091916" lon="7.651666675531448" id="-79137">
		<tag k="name" v="Veidehølen" />
		<tag k="place" v="locality" />
		<tag k="ssr:stedsnr" v="313289" />
	</node>
	<node lat="61.26395000020686" lon="7.732838886660591" id="-79150">
		<tag k="name" v="Lindvikelvi" />
		<tag k="ssr:stedsnr" v="350033" />
		<tag k="waterway" v="stream" />
	</node>
	<node lat="61.26933055872499" lon="7.794036117005356" id="-79155">
		<tag k="name" v="Storebekken" />
		<tag k="ssr:stedsnr" v="350656" />
		<tag k="waterway" v="stream" />
	</node>
	<node lat="61.35696111198193" lon="7.873455563933423" id="-79157">
		<tag k="name" v="Åmot" />
		<tag k="natural" v="cape" />
		<tag k="ssr:stedsnr" v="350784" />
	</node>
	<node lat="61.25120000289635" lon="7.789736113578543" id="-79158">
		<tag k="name" v="Berdøla" />
		<tag k="ssr:stedsnr" v="350829" />
		<tag k="waterway" v="river" />
	</node>
	<node lat="61.37642942248906" lon="8.150215965113484" id="-79167">
		<tag k="name" v="Koldedalsvatnet" />
		<tag k="natural" v="water" />
		<tag k="old_name" v="Køldedalsvatnet" />
		<tag k="ssr:stedsnr" v="371830" />
		<tag k="water" v="lake" />
	</node>
	<node lat="61.342952773927166" lon="7.974452773077567" id="-79172">
		<tag k="alt_name" v="Grønebekkene" />
		<tag k="name" v="Grønebekken" />
		<tag k="ssr:stedsnr" v="371938" />
		<tag k="waterway" v="stream" />
	</node>
	<node lat="61.262858336791666" lon="7.512111103237405" id="-79175">
		<tag k="name" v="Tverrelvane" />
		<tag k="ssr:stedsnr" v="372576" />
		<tag k="waterway" v="stream" />
	</node>
	<node lat="61.3895638846284" lon="8.019477782769146" id="-79180">
		<tag k="name" v="Storebekkvatnet" />
		<tag k="natural" v="water" />
		<tag k="ssr:stedsnr" v="372975" />
	</node>
	<node lat="61.420766667881466" lon="7.665674999741835" id="-79181">
		<tag k="name" v="Langedalsvatnet" />
		<tag k="natural" v="water" />
		<tag k="ssr:stedsnr" v="372723" />
	</node>
	<node lat="61.416472222329645" lon="7.671816662126025" id="-79188">
		<tag k="name" v="Langedalselvi" />
		<tag k="ssr:stedsnr" v="374759" />
		<tag k="waterway" v="river" />
	</node>
	<node lat="61.1582000008461" lon="7.592602781307069" id="-79189">
		<tag k="name" v="Midtvatnet" />
		<tag k="natural" v="water" />
		<tag k="ssr:stedsnr" v="374287" />
	</node>
	<node lat="61.121336107348824" lon="7.762791659952349" id="-79191">
		<tag k="name" v="Steinhustjørni" />
		<tag k="natural" v="water" />
		<tag k="ssr:stedsnr" v="494982" />
	</node>
	<node lat="61.17115833426922" lon="7.687850003002268" id="-79193">
		<tag k="name" v="Munketjørni" />
		<tag k="natural" v="water" />
		<tag k="ssr:stedsnr" v="495333" />
	</node>
	<node lat="61.15569166227625" lon="7.655419438465116" id="-79202">
		<tag k="name" v="Smørholefossen" />
		<tag k="natural" v="waterfall" />
		<tag k="ssr:stedsnr" v="410333" />
	</node>
	<node lat="61.272211111878605" lon="7.768038894836575" id="-79204">
		<tag k="name" v="Eldegardsfossen" />
		<tag k="natural" v="waterfall" />
		<tag k="ssr:stedsnr" v="411019" />
	</node>
	<node lat="61.34931388909145" lon="7.970150007493179" id="-79212">
		<tag k="name" v="Øytjørnbekken" />
		<tag k="ssr:stedsnr" v="411474" />
		<tag k="waterway" v="stream" />
	</node>
	<node lat="61.322636109636676" lon="7.84789999186181" id="-79213">
		<tag k="name" v="Vadet" />
		<tag k="natural" v="beach" />
		<tag k="ssr:stedsnr" v="411947" />
	</node>
	<node lat="61.306711112401324" lon="7.856608331343854" id="-79215">
		<tag k="name" v="Trendlebekken" />
		<tag k="ssr:stedsnr" v="411872" />
		<tag k="waterway" v="stream" />
	</node>
	<node lat="61.323194444357924" lon="7.84630556183605" id="-79217">
		<tag k="name" v="Luggøyni" />
		<tag k="place" v="island" />
		<tag k="ssr:stedsnr" v="432922" />
	</node>
	<node lat="61.43735278027993" lon="7.986783332870368" id="-79219">
		<tag k="name" v="Utla" />
		<tag k="ssr:stedsnr" v="432479" />
		<tag k="waterway" v="river" />
	</node>
	<node lat="61.33691666396861" lon="7.607900002834192" id="-79220">
		<tag k="name" v="Årdalsvatnet" />
		<tag k="natural" v="water" />
		<tag k="ssr:stedsnr" v="432618" />
	</node>
	<node lat="61.37885833598264" lon="7.984688883395984" id="-79233">
		<tag k="alt_name" v="Koldedøla" />
		<tag k="name" v="Morka-Koldedøla" />
		<tag k="ssr:stedsnr" v="433968" />
		<tag k="waterway" v="stream" />
	</node>
	<node lat="61.37047499882868" lon="7.804808326904662" id="-79236">
		<tag k="name" v="Åsetvatnet" />
		<tag k="natural" v="water" />
		<tag k="ssr:stedsnr" v="433984" />
	</node>
	<node lat="61.40671666679159" lon="8.00358332436629" id="-79237">
		<tag k="name" v="Fleskedøla" />
		<tag k="ssr:stedsnr" v="433987" />
		<tag k="waterway" v="river" />
	</node>
	<node lat="61.18376111121476" lon="7.647241674862498" id="-79243">
		<tag k="name" v="Seildi" />
		<tag k="ssr:stedsnr" v="435337" />
		<tag k="waterway" v="stream" />
	</node>
	<node lat="61.21770555761269" lon="7.4982611141336335" id="-79245">
		<tag k="name" v="Seljeskreda" />
		<tag k="ssr:stedsnr" v="495352" />
		<tag k="waterway" v="stream" />
	</node>
	<node lat="61.32846388718749" lon="7.770183328580988" id="-79261">
		<tag k="name" v="Nesåkeren" />
		<tag k="natural" v="cape" />
		<tag k="ssr:stedsnr" v="532910" />
	</node>
	<node lat="61.28957221806331" lon="7.578461115487788" id="-79263">
		<tag k="name" v="Tverrelvi" />
		<tag k="ssr:stedsnr" v="553621" />
		<tag k="waterway" v="stream" />
	</node>
	<node lat="61.29608055843652" lon="7.558622226406659" id="-79264">
		<tag k="name" v="Mjukevatnet" />
		<tag k="natural" v="water" />
		<tag k="ssr:stedsnr" v="553623" />
	</node>
	<node lat="61.255700003182525" lon="7.8216027756337505" id="-79271">
		<tag k="name" v="Berdalsvatnet" />
		<tag k="natural" v="water" />
		<tag k="ssr:stedsnr" v="554908" />
	</node>
	<node lat="61.2322249983065" lon="7.8540555645225725" id="-79274">
		<tag k="name" v="Jonsvatnet" />
		<tag k="natural" v="water" />
		<tag k="ssr:stedsnr" v="555885" />
	</node>
	<node lat="61.240324995655435" lon="7.710594436572998" id="-79289">
		<tag k="name" v="Øyri" />
		<tag k="natural" v="cape" />
		<tag k="ssr:stedsnr" v="593223" />
	</node>
	<node lat="61.381186113771655" lon="7.940822215727881" id="-79300">
		<tag k="name" v="Fosselvi" />
		<tag k="ssr:stedsnr" v="593664" />
		<tag k="waterway" v="river" />
	</node>
	<node lat="61.30612777441836" lon="7.852388883224718" id="-79304">
		<tag k="name" v="Øynajuvbekken" />
		<tag k="ssr:stedsnr" v="593825" />
		<tag k="waterway" v="stream" />
	</node>
	<node lat="61.354347218977225" lon="7.888716675718075" id="-79305">
		<tag k="name" v="Ekra" />
		<tag k="natural" v="cape" />
		<tag k="ssr:stedsnr" v="593945" />
	</node>
	<node lat="61.32017777634807" lon="7.534147224750276" id="-79320">
		<tag k="name" v="Svartevatnet" />
		<tag k="natural" v="water" />
		<tag k="ssr:stedsnr" v="614678" />
	</node>
	<node lat="61.122918064273684" lon="7.645279162054842" id="-79340">
		<tag k="name" v="Blåsarbåten" />
		<tag k="natural" v="water" />
		<tag k="ssr:stedsnr" v="616277" />
		<tag k="water" v="lake" />
	</node>
	<node lat="61.25275277981983" lon="7.738436104726976" id="-79349">
		<tag k="name" v="Hjerteviki" />
		<tag k="natural" v="bay" />
		<tag k="ssr:stedsnr" v="653040" />
	</node>
	<node lat="61.34324999866942" lon="7.967433332511344" id="-79354">
		<tag k="name" v="Øytjørnøyane" />
		<tag k="place" v="island" />
		<tag k="ssr:stedsnr" v="653520" />
	</node>
	<node lat="61.256036111459075" lon="7.544444441244355" id="-79355">
		<tag k="name" v="Vetlevatnet" />
		<tag k="natural" v="water" />
		<tag k="ssr:stedsnr" v="653527" />
		<tag k="water" v="lake" />
	</node>
	<node lat="61.29354722486225" lon="7.918805555735547" id="-79358">
		<tag k="name" v="Kvannetjørnbekken" />
		<tag k="ssr:stedsnr" v="653662" />
		<tag k="waterway" v="stream" />
	</node>
	<node lat="61.34400555559108" lon="7.941666672363175" id="-79359">
		<tag k="name" v="Kyrøyni" />
		<tag k="natural" v="cape" />
		<tag k="ssr:stedsnr" v="653667" />
	</node>
	<node lat="61.22821111455473" lon="7.731447230841387" id="-79361">
		<tag k="name" v="Dugermålgrov" />
		<tag k="ssr:stedsnr" v="654977" />
		<tag k="waterway" v="stream" />
	</node>
	<node lat="61.26663889208197" lon="7.7429138817367935" id="-79365">
		<tag k="name" v="Asalbukti" />
		<tag k="natural" v="bay" />
		<tag k="ssr:stedsnr" v="714044" />
	</node>
	<node lat="61.30827500313998" lon="7.788488891737614" id="-79369">
		<tag k="name" v="Storri" />
		<tag k="natural" v="beach" />
		<tag k="ssr:stedsnr" v="714767" />
	</node>
	<node lat="61.26199999781908" lon="7.818438885635347" id="-79376">
		<tag k="name" v="Svartetjørni" />
		<tag k="natural" v="water" />
		<tag k="ssr:stedsnr" v="736887" />
	</node>
	<node lat="61.30199269433913" lon="8.049731696709246" id="-79377">
		<tag k="name" v="Mannsbergvatnet" />
		<tag k="natural" v="water" />
		<tag k="ssr:stedsnr" v="736894" />
		<tag k="water" v="lake" />
	</node>
	<node lat="61.32517777419463" lon="7.978038885878077" id="-79378">
		<tag k="name" v="Skredshaugbekken" />
		<tag k="ssr:stedsnr" v="735937" />
		<tag k="waterway" v="stream" />
	</node>
	<node lat="61.360208331385856" lon="7.754363889583061" id="-79380">
		<tag k="alt_name" v="Åseteelvi" />
		<tag k="name" v="Åsetelvi" />
		<tag k="ssr:stedsnr" v="735956" />
		<tag k="waterway" v="stream" />
	</node>
	<node lat="61.3394138860643" lon="7.772066666857232" id="-79381">
		<tag k="name" v="Botnaelvi" />
		<tag k="ssr:stedsnr" v="735960" />
		<tag k="waterway" v="stream" />
	</node>
	<node lat="61.39307777450687" lon="7.824877779761549" id="-79387">
		<tag k="name" v="Gravdalsvatnet" />
		<tag k="natural" v="water" />
		<tag k="ssr:stedsnr" v="736997" />
	</node>
	<node lat="61.39378611005855" lon="7.928108327808322" id="-79388">
		<tag k="name" v="Kollhaugsbekken" />
		<tag k="ssr:stedsnr" v="737000" />
		<tag k="waterway" v="stream" />
	</node>
	<node lat="61.39408610707878" lon="7.946583335111306" id="-79398">
		<tag k="name" v="Stølsmaradalsfossen" />
		<tag k="natural" v="waterfall" />
		<tag k="ssr:stedsnr" v="773537" />
	</node>
	<node lat="61.1798972192361" lon="7.645369450590168" id="-79402">
		<tag k="name" v="Sagakråi" />
		<tag k="natural" v="cape" />
		<tag k="ssr:stedsnr" v="774329" />
	</node>
	<node lat="61.37716110911168" lon="7.9580250082652215" id="-79410">
		<tag k="name" v="Sagbekken" />
		<tag k="ssr:stedsnr" v="775738" />
		<tag k="waterway" v="stream" />
	</node>
	<node lat="61.33179444343458" lon="7.864941672171447" id="-79415">
		<tag k="name" v="Hagøyni" />
		<tag k="natural" v="cape" />
		<tag k="ssr:stedsnr" v="775945" />
	</node>
	<node lat="61.375644442851" lon="7.95030556175008" id="-79418">
		<tag k="alt_name" v="Svartetjørn" />
		<tag k="name" v="Svartetjørni" />
		<tag k="natural" v="water" />
		<tag k="ssr:stedsnr" v="797965" />
	</node>
	<node lat="61.42810794775575" lon="8.030803890904012" id="-79422">
		<tag k="name" v="Bekkedalsvotni" />
		<tag k="natural" v="water" />
		<tag k="ssr:stedsnr" v="796522" />
		<tag k="water" v="lake" />
	</node>
	<node lat="61.31191944728067" lon="7.997030557421433" id="-79427">
		<tag k="name" v="Kyrkjevatnet" />
		<tag k="natural" v="water" />
		<tag k="ssr:stedsnr" v="796922" />
		<tag k="water" v="lake" />
	</node>
	<node lat="61.40383332911546" lon="7.862905561057076" id="-79430">
		<tag k="name" v="Isvatnet" />
		<tag k="natural" v="water" />
		<tag k="ssr:stedsnr" v="796989" />
		<tag k="water" v="lake" />
	</node>
	<node lat="61.37700304990216" lon="8.076601393163791" id="-79438">
		<tag k="fixme" v="multiple name tags, choose one and add the other to alt_name" />
		<tag k="name" v="Midtrevatnet;Andrevatnet" />
		<tag k="natural" v="water" />
		<tag k="ssr:stedsnr" v="797987" />
		<tag k="water" v="lake" />
	</node>
	<node lat="61.17426944843153" lon="7.755383330897131" id="-79441">
		<tag k="name" v="Klypedalsvatnet" />
		<tag k="natural" v="water" />
		<tag k="ssr:stedsnr" v="798867" />
	</node>
	<node lat="61.32190277978732" lon="8.218608327893609" id="-79466">
		<tag k="name" v="Våga" />
		<tag k="ssr:stedsnr" v="857802" />
		<tag k="waterway" v="river" />
	</node>
	<node lat="61.35736388892606" lon="7.730200008632367" id="-79469">
		<tag k="name" v="Hyttebekken" />
		<tag k="ssr:stedsnr" v="857958" />
		<tag k="waterway" v="stream" />
	</node>
	<node lat="61.30857500313609" lon="7.713727777199493" id="-79472">
		<tag k="name" v="Sjursettjørni" />
		<tag k="natural" v="water" />
		<tag k="ssr:stedsnr" v="858612" />
	</node>
	<node lat="61.270625002727" lon="7.80457499799778" id="-79474">
		<tag k="name" v="Vetleelvi" />
		<tag k="ssr:stedsnr" v="858890" />
		<tag k="waterway" v="stream" />
	</node>
	<node lat="61.25616110773614" lon="7.781580559775721" id="-79475">
		<tag k="alt_name" v="Løstøinane" />
		<tag k="name" v="Løstøyane" />
		<tag k="place" v="island" />
		<tag k="ssr:stedsnr" v="858893" />
	</node>
	<node lat="61.223516667163814" lon="7.518152781362612" id="-79481">
		<tag k="name" v="Sotatjørni" />
		<tag k="natural" v="water" />
		<tag k="old_name" v="Sotatørni" />
		<tag k="ssr:stedsnr" v="859293" />
	</node>
	<node lat="61.253852775965186" lon="7.729333327089902" id="-79493">
		<tag k="name" v="Budeibytet" />
		<tag k="natural" v="cape" />
		<tag k="ssr:stedsnr" v="957037" />
	</node>
	<node lat="61.242133331823524" lon="7.702636110268153" id="-79495">
		<tag k="name" v="Lysa" />
		<tag k="ssr:stedsnr" v="957220" />
		<tag k="waterway" v="stream" />
	</node>
	<node lat="61.25216389075879" lon="7.556011120164015" id="-79499">
		<tag k="name" v="Stølsgrovi" />
		<tag k="ssr:stedsnr" v="957464" />
		<tag k="waterway" v="stream" />
	</node>
	<node lat="61.36764166348071" lon="7.909422220083187" id="-79500">
		<tag k="name" v="Storøyni" />
		<tag k="natural" v="cape" />
		<tag k="ssr:stedsnr" v="957731" />
	</node>
</osm>
