<?xml version="1.0" encoding="UTF-8"?>
<osm version="0.6" generator="osmapis">
	<node lat="61.43759999911011" lon="7.837002777592524" id="-38434">
		<tag k="name" v="Stølsmaradalsbreen" />
		<tag k="natural" v="glacier" />
		<tag k="ssr:stedsnr" v="68539" />
	</node>
	<node lat="61.33985555948959" lon="7.7648027851303825" id="-38479">
		<tag k="name" v="Vellelågi" />
		<tag k="place" v="locality" />
		<tag k="ssr:stedsnr" v="108870" />
	</node>
	<node lat="61.22042778109486" lon="7.619811118906562" id="-38522">
		<tag k="name" v="Revsnesurane" />
		<tag k="natural" v="scree" />
		<tag k="ssr:stedsnr" v="130303" />
	</node>
	<node lat="61.213619448384634" lon="7.619158341020432" id="-38533">
		<tag k="name" v="Kvituri" />
		<tag k="natural" v="scree" />
		<tag k="ssr:stedsnr" v="167360" />
	</node>
	<node lat="61.3750833360245" lon="7.718913884702204" id="-38536">
		<tag k="name" v="Busteinen" />
		<tag k="natural" v="stone" />
		<tag k="ssr:stedsnr" v="168176" />
	</node>
	<node lat="61.38923611149504" lon="8.104574998618471" id="-38544">
		<tag k="fixme" v="multiple name tags, choose one and add the other to alt_name" />
		<tag k="name" v="Snøggeken;Falkbreen" />
		<tag k="natural" v="glacier" />
		<tag k="ssr:stedsnr" v="189812" />
	</node>
	<node lat="61.24837777940386" lon="7.578494435829383" id="-38578">
		<tag k="name" v="Lønningsmyri" />
		<tag k="natural" v="wetland" />
		<tag k="ssr:stedsnr" v="289513" />
	</node>
	<node lat="61.32606666981669" lon="7.783038894725929" id="-38583">
		<tag k="name" v="Krusesvaet" />
		<tag k="place" v="locality" />
		<tag k="ssr:stedsnr" v="290909" />
	</node>
	<node lat="61.35158888503272" lon="7.757833331753959" id="-38603">
		<tag k="name" v="Gjoturi" />
		<tag k="natural" v="scree" />
		<tag k="ssr:stedsnr" v="471885" />
	</node>
	<node lat="61.315635301341544" lon="7.819570551774375" id="-38612">
		<tag k="name" v="Øyni" />
		<tag k="place" v="locality" />
		<tag k="ssr:stedsnr" v="371919" />
	</node>
	<node lat="61.45849166621178" lon="7.8789249955545255" id="-38642">
		<tag k="name" v="Slingsbybreen" />
		<tag k="natural" v="glacier" />
		<tag k="ssr:stedsnr" v="432523" />
	</node>
	<node lat="61.45077777810292" lon="7.853000007093754" id="-38662">
		<tag k="name" v="Midtmaradalsbreen" />
		<tag k="natural" v="glacier" />
		<tag k="ssr:stedsnr" v="493494" />
	</node>
	<node lat="61.237836107117204" lon="7.5622583273689825" id="-38682">
		<tag k="name" v="Skreda" />
		<tag k="natural" v="scree" />
		<tag k="ssr:stedsnr" v="494340" />
	</node>
	<node lat="61.35852777588717" lon="8.133408338617686" id="-38684">
		<tag k="name" v="Koldedalsbreen" />
		<tag k="natural" v="glacier" />
		<tag k="ssr:stedsnr" v="675838" />
	</node>
	<node lat="61.370149997907276" lon="7.9213638863754765" id="-38690">
		<tag k="name" v="Hagen" />
		<tag k="place" v="locality" />
		<tag k="ssr:stedsnr" v="470719" />
	</node>
	<node lat="61.25977777870354" lon="7.64476389664822" id="-38699">
		<tag k="name" v="Jamnåkrahagane" />
		<tag k="place" v="locality" />
		<tag k="ssr:stedsnr" v="471367" />
	</node>
	<node lat="61.24328888793402" lon="7.570172216949801" id="-38739">
		<tag k="name" v="Ospelundmyri" />
		<tag k="natural" v="wetland" />
		<tag k="ssr:stedsnr" v="531516" />
	</node>
	<node lat="61.35421111344314" lon="7.870172221163699" id="-38748">
		<tag k="name" v="Storemyri" />
		<tag k="natural" v="wetland" />
		<tag k="ssr:stedsnr" v="532793" />
	</node>
	<node lat="61.39783889298243" lon="8.062530562454238" id="-38762">
		<tag k="name" v="Stølsnosbreen" />
		<tag k="natural" v="glacier" />
		<tag k="ssr:stedsnr" v="554996" />
	</node>
	<node lat="61.31460277505627" lon="7.816161105970124" id="-38780">
		<tag k="name" v="Mjøen" />
		<tag k="place" v="locality" />
		<tag k="ssr:stedsnr" v="614905" />
	</node>
	<node lat="61.22467499958149" lon="7.706019439779167" id="-38785">
		<tag k="name" v="Kloppuri" />
		<tag k="natural" v="scree" />
		<tag k="ssr:stedsnr" v="615312" />
	</node>
	<node lat="61.351049998654034" lon="7.753797217099964" id="-38797">
		<tag k="name" v="Sundheim" />
		<tag k="place" v="locality" />
		<tag k="ssr:stedsnr" v="653890" />
	</node>
	<node lat="61.32048333702373" lon="7.785122218608829" id="-38832">
		<tag k="name" v="Valdresgjerde" />
		<tag k="place" v="locality" />
		<tag k="ssr:stedsnr" v="897913" />
	</node>
	<node lat="61.267619443875226" lon="7.659458329383808" id="-38837">
		<tag k="name" v="Dalskvei" />
		<tag k="place" v="locality" />
		<tag k="ssr:stedsnr" v="714317" />
	</node>
	<node lat="61.232747218338126" lon="7.528997215032149" id="-38839">
		<tag k="name" v="Langemyri" />
		<tag k="natural" v="wetland" />
		<tag k="ssr:stedsnr" v="714492" />
	</node>
	<node lat="61.192780556351515" lon="7.62126110449719" id="-38875">
		<tag k="name" v="Naustbakken" />
		<tag k="place" v="locality" />
		<tag k="ssr:stedsnr" v="775260" />
	</node>
	<node lat="61.31777777622296" lon="7.786758327026433" id="-38986">
		<tag k="name" v="Løbakken" />
		<tag k="place" v="locality" />
		<tag k="ssr:stedsnr" v="957935" />
	</node>
	<node lat="61.19444444790402" lon="7.5898749914435415" id="-39027">
		<tag k="name" v="Nepegjerdsteigen" />
		<tag k="place" v="locality" />
		<tag k="ssr:stedsnr" v="47287" />
	</node>
	<node lat="61.232349997283414" lon="7.547213898080089" id="-39028">
		<tag k="name" v="Knuteplassen" />
		<tag k="place" v="locality" />
		<tag k="ssr:stedsnr" v="47518" />
	</node>
	<node lat="61.311327776500285" lon="7.789472217122239" id="-39030">
		<tag k="name" v="Stålbakkane" />
		<tag k="place" v="locality" />
		<tag k="ssr:stedsnr" v="47764" />
	</node>
	<node lat="61.37577221873668" lon="7.717574998528029" id="-39056">
		<tag k="name" v="Stokkesetmyri" />
		<tag k="natural" v="wetland" />
		<tag k="ssr:stedsnr" v="107148" />
	</node>
	<node lat="61.240355553771906" lon="7.6987416652810365" id="-39058">
		<tag k="name" v="Einane" />
		<tag k="place" v="locality" />
		<tag k="ssr:stedsnr" v="108227" />
	</node>
	<node lat="61.35779166757972" lon="7.753622223974886" id="-39065">
		<tag k="name" v="Nyteig" />
		<tag k="place" v="locality" />
		<tag k="ssr:stedsnr" v="108862" />
	</node>
	<node lat="61.370952781727695" lon="7.720691659381923" id="-39146">
		<tag k="name" v="Turtegrøet" />
		<tag k="natural" v="wetland" />
		<tag k="ssr:stedsnr" v="289174" />
	</node>
	<node lat="61.3925416695285" lon="7.972211113370088" id="-39158">
		<tag k="name" v="Lortediket" />
		<tag k="natural" v="wetland" />
		<tag k="ssr:stedsnr" v="290455" />
	</node>
	<node lat="61.2487250032897" lon="7.513786117460487" id="-39179">
		<tag k="name" v="Ljotelimyrane" />
		<tag k="natural" v="wetland" />
		<tag k="ssr:stedsnr" v="313361" />
	</node>
	<node lat="61.32069444834587" lon="7.817205551650737" id="-39197">
		<tag k="name" v="Olmenhagen" />
		<tag k="place" v="locality" />
		<tag k="ssr:stedsnr" v="350997" />
	</node>
	<node lat="61.27795277885498" lon="7.6540361061428825" id="-39237">
		<tag k="name" v="Dalsmarki" />
		<tag k="place" v="locality" />
		<tag k="ssr:stedsnr" v="410371" />
	</node>
	<node lat="61.19115832922369" lon="7.610952769133896" id="-39247">
		<tag k="name" v="Havnen" />
		<tag k="place" v="locality" />
		<tag k="ssr:stedsnr" v="411266" />
	</node>
	<node lat="61.19481944387308" lon="7.628355552947867" id="-39248">
		<tag k="name" v="Bøuri" />
		<tag k="natural" v="scree" />
		<tag k="ssr:stedsnr" v="411273" />
	</node>
	<node lat="61.24893888845422" lon="7.721461111413788" id="-39320">
		<tag k="name" v="Fruhagen" />
		<tag k="place" v="locality" />
		<tag k="ssr:stedsnr" v="593207" />
	</node>
	<node lat="61.19180555501002" lon="7.538311105411893" id="-39322">
		<tag k="name" v="Skalleuri" />
		<tag k="natural" v="scree" />
		<tag k="ssr:stedsnr" v="593334" />
	</node>
	<node lat="61.19286111131332" lon="7.550558327208979" id="-39323">
		<tag k="name" v="Kalduri" />
		<tag k="natural" v="scree" />
		<tag k="ssr:stedsnr" v="593336" />
	</node>
	<node lat="61.29280833569648" lon="7.915616660479088" id="-39364">
		<tag k="historic" v="shieling" />
		<tag k="name" v="Holsbrustølen" />
		<tag k="old_name" v="Holsbrustøylen" />
		<tag k="place" v="locality" />
		<tag k="ssr:stedsnr" v="614892" />
	</node>
	<node lat="61.26545555785723" lon="7.736433329656003" id="-39384">
		<tag k="name" v="Lindvikgjerdet" />
		<tag k="place" v="locality" />
		<tag k="ssr:stedsnr" v="653038" />
	</node>
	<node lat="61.376305553902355" lon="7.999333325767444" id="-39400">
		<tag k="name" v="Øynane" />
		<tag k="natural" v="wetland" />
		<tag k="ssr:stedsnr" v="712510" />
	</node>
	<node lat="61.3420388856856" lon="7.949863886026456" id="-39403">
		<tag k="name" v="Skrevshaugdekkene" />
		<tag k="natural" v="wetland" />
		<tag k="ssr:stedsnr" v="714621" />
	</node>
	<node lat="61.188619448435155" lon="7.511408331455654" id="-39443">
		<tag k="name" v="Saguri" />
		<tag k="natural" v="scree" />
		<tag k="ssr:stedsnr" v="775343" />
	</node>
	<node lat="61.337138890371676" lon="7.770197228275052" id="-39449">
		<tag k="name" v="Bulegene" />
		<tag k="place" v="locality" />
		<tag k="ssr:stedsnr" v="775869" />
	</node>
	<node lat="61.265999996170244" lon="7.495663879809238" id="-39470">
		<tag k="historic" v="shieling" />
		<tag k="name" v="Bulegene" />
		<tag k="place" v="locality" />
		<tag k="ssr:stedsnr" v="797583" />
	</node>
	<node lat="61.31321795580521" lon="7.793384692643378" id="-39491">
		<tag k="name" v="Langeteighaldet" />
		<tag k="place" v="locality" />
		<tag k="ssr:stedsnr" v="836765" />
	</node>
	<node lat="61.24168332996506" lon="7.572530562777794" id="-39523">
		<tag k="name" v="Tolvmilskogen" />
		<tag k="place" v="locality" />
		<tag k="ssr:stedsnr" v="859340" />
	</node>
	<node lat="61.24194166858874" lon="7.564958334794065" id="-39528">
		<tag k="name" v="Sagi" />
		<tag k="place" v="locality" />
		<tag k="ssr:stedsnr" v="956535" />
	</node>
</osm>
