<?xml version="1.0" encoding="UTF-8"?>
<osm generator="osmapis" version="0.6">
	<node id="-589824" lat="61.2021555579" lon="7.68691111303">
		<tag k="fixme" v="consider natural=peak for the most distinct mountains in the district" />
		<tag k="name" v="Slettefjellet" />
		<tag k="natural" v="hill" />
		<tag k="place" v="locality" />
		<tag k="ssr:stedsnr" v="251350" />
	</node>
	<node id="-589823" lat="61.2022055587" lon="7.64103611315">
		<tag k="name" v="Årøyni" />
		<tag k="place" v="locality" />
		<tag k="ssr:stedsnr" v="251345" />
	</node>
	<node id="-589822" lat="61.3998777764" lon="7.92170277367">
		<tag k="fixme" v="consider natural=peak for the most distinct mountains in the district" />
		<tag k="name" v="Stølsmaradalshyrna" />
		<tag k="natural" v="hill" />
		<tag k="place" v="locality" />
		<tag k="ssr:stedsnr" v="250982" />
	</node>
	<node id="-589821" lat="61.3847187327" lon="8.09664883772">
		<tag k="fixme" v="consider natural=peak for the most distinct mountains in the district" />
		<tag k="name" v="Falketind" />
		<tag k="natural" v="hill" />
		<tag k="place" v="locality" />
		<tag k="ssr:stedsnr" v="250969" />
	</node>
	<node id="-589814" lat="61.3276249988" lon="8.04355555788">
		<tag k="fixme" v="consider natural=peak for the most distinct mountains in the district" />
		<tag k="name" v="Hjelledalseggi" />
		<tag k="natural" v="hill" />
		<tag k="place" v="locality" />
		<tag k="ssr:stedsnr" v="250913" />
	</node>
	<node id="-589813" lat="61.3084027816" lon="7.72161389564">
		<tag k="name" v="Osenosi" />
		<tag k="natural" v="hill" />
		<tag k="place" v="locality" />
		<tag k="ssr:stedsnr" v="250901" />
	</node>
	<node id="-589811" lat="61.2890916681" lon="7.78585000409">
		<tag k="name" v="Geithusli" />
		<tag k="natural" v="slope" />
		<tag k="place" v="locality" />
		<tag k="ssr:stedsnr" v="250886" />
	</node>
	<node id="-589809" lat="61.3186694424" lon="7.61623888625">
		<tag k="name" v="Slettedalsbandet" />
		<tag k="natural" v="valley" />
		<tag k="place" v="locality" />
		<tag k="ssr:stedsnr" v="250644" />
	</node>
	<node id="-589808" lat="61.2812611091" lon="7.57803333884">
		<tag k="name" v="Vedabakkane" />
		<tag k="natural" v="slope" />
		<tag k="place" v="locality" />
		<tag k="ssr:stedsnr" v="250613" />
	</node>
	<node id="-589807" lat="61.2847555537" lon="7.51915556313">
		<tag k="fixme" v="consider natural=peak for the most distinct mountains in the district" />
		<tag k="name" v="Reinsspælnosi" />
		<tag k="natural" v="hill" />
		<tag k="place" v="locality" />
		<tag k="ssr:stedsnr" v="250611" />
	</node>
	<node id="-589806" lat="61.2785250038" lon="7.52677778353">
		<tag k="fixme" v="consider natural=peak for the most distinct mountains in the district" />
		<tag k="name" v="Turtagrønosi" />
		<tag k="natural" v="hill" />
		<tag k="place" v="locality" />
		<tag k="ssr:stedsnr" v="250562" />
	</node>
	<node id="-589805" lat="61.1777361104" lon="7.48597499577">
		<tag k="name" v="Skogateigen" />
		<tag k="natural" v="slope" />
		<tag k="place" v="locality" />
		<tag k="ssr:stedsnr" v="71329" />
	</node>
	<node id="-589801" lat="61.1856944433" lon="7.564224994">
		<tag k="name" v="Hanseskar" />
		<tag k="natural" v="valley" />
		<tag k="place" v="locality" />
		<tag k="ssr:stedsnr" v="71311" />
	</node>
	<node id="-589800" lat="61.183675001" lon="7.60227500225">
		<tag k="name" v="Sundaskreda" />
		<tag k="natural" v="valley" />
		<tag k="place" v="locality" />
		<tag k="ssr:stedsnr" v="71310" />
	</node>
	<node id="-589798" lat="61.2187388904" lon="7.7609444494">
		<tag k="fixme" v="consider natural=peak for the most distinct mountains in the district" />
		<tag k="name" v="Avdalseken" />
		<tag k="natural" v="hill" />
		<tag k="place" v="locality" />
		<tag k="ssr:stedsnr" v="70911" />
	</node>
	<node id="-589796" lat="61.2168611088" lon="7.57071944258">
		<tag k="name" v="Paradisjuvet" />
		<tag k="natural" v="gorge" />
		<tag k="ssr:stedsnr" v="70316" />
	</node>
	<node id="-589795" lat="61.3331388878" lon="7.68452223027">
		<tag k="name" v="Skamdalen" />
		<tag k="natural" v="valley" />
		<tag k="place" v="locality" />
		<tag k="ssr:stedsnr" v="69688" />
	</node>
	<node id="-589794" lat="61.2830250005" lon="8.0771722242">
		<tag k="fixme" v="consider natural=peak for the most distinct mountains in the district" />
		<tag k="name" v="Graveskarnosi" />
		<tag k="natural" v="hill" />
		<tag k="place" v="locality" />
		<tag k="ssr:stedsnr" v="69916" />
	</node>
	<node id="-589793" lat="61.3027333361" lon="7.60768055158">
		<tag k="name" v="Øvre Slettedalen" />
		<tag k="natural" v="valley" />
		<tag k="place" v="locality" />
		<tag k="ssr:stedsnr" v="69637" />
	</node>
	<node id="-589790" lat="61.3113833374" lon="8.19903889644">
		<tag k="fixme" v="consider natural=peak for the most distinct mountains in the district" />
		<tag k="name" v="Fonnkloppeggi" />
		<tag k="natural" v="hill" />
		<tag k="place" v="locality" />
		<tag k="ssr:stedsnr" v="68805" />
	</node>
	<node id="-589789" lat="61.4231611118" lon="8.02340833212">
		<tag k="name" v="Bekkedalen" />
		<tag k="natural" v="valley" />
		<tag k="place" v="locality" />
		<tag k="ssr:stedsnr" v="68532" />
	</node>
	<node id="-589788" lat="61.2890361123" lon="7.71639444717">
		<tag k="alt_name" v="Byttejuv" />
		<tag k="fixme" v="consider natural=peak for the most distinct mountains in the district" />
		<tag k="name" v="Skorsfjellet" />
		<tag k="natural" v="hill" />
		<tag k="place" v="locality" />
		<tag k="ssr:stedsnr" v="68628" />
	</node>
	<node id="-589784" lat="61.2306750044" lon="7.56610554742">
		<tag k="name" v="Skori" />
		<tag k="natural" v="valley" />
		<tag k="place" v="locality" />
		<tag k="ssr:stedsnr" v="46532" />
	</node>
	<node id="-589783" lat="61.3962111094" lon="7.94619444836">
		<tag k="name" v="Maradalsli" />
		<tag k="natural" v="slope" />
		<tag k="place" v="locality" />
		<tag k="ssr:stedsnr" v="45533" />
	</node>
	<node id="-589781" lat="61.2785722243" lon="7.78121943669">
		<tag k="name" v="Stakkstøjuvet" />
		<tag k="natural" v="gorge" />
		<tag k="ssr:stedsnr" v="229894" />
	</node>
	<node id="-589780" lat="61.3642500023" lon="7.75115833084">
		<tag k="name" v="Prins Fredrik" />
		<tag k="natural" v="hill" />
		<tag k="place" v="locality" />
		<tag k="ssr:stedsnr" v="229888" />
	</node>
	<node id="-589779" lat="61.3538222221" lon="7.86315278279">
		<tag k="name" v="Kvannegrøholten" />
		<tag k="natural" v="hill" />
		<tag k="place" v="locality" />
		<tag k="ssr:stedsnr" v="229793" />
	</node>
	<node id="-589778" lat="61.3464249976" lon="7.98826667483">
		<tag k="name" v="Grånosi" />
		<tag k="natural" v="hill" />
		<tag k="place" v="locality" />
		<tag k="ssr:stedsnr" v="229500" />
	</node>
	<node id="-589777" lat="61.1940222232" lon="7.63823334197">
		<tag k="name" v="Kvilet" />
		<tag k="natural" v="hill" />
		<tag k="place" v="locality" />
		<tag k="ssr:stedsnr" v="229288" />
	</node>
	<node id="-589776" lat="61.2405472259" lon="7.6722000089">
		<tag k="name" v="Rugaskorane" />
		<tag k="place" v="locality" />
		<tag k="ssr:stedsnr" v="229035" />
	</node>
	<node id="-589774" lat="61.3128277739" lon="7.78347778319">
		<tag k="name" v="Kvennhusbakkane" />
		<tag k="natural" v="slope" />
		<tag k="place" v="locality" />
		<tag k="ssr:stedsnr" v="229095" />
	</node>
	<node id="-589771" lat="61.2191944473" lon="7.62695832484">
		<tag k="name" v="Hjerta" />
		<tag k="natural" v="slope" />
		<tag k="place" v="locality" />
		<tag k="ssr:stedsnr" v="228395" />
	</node>
	<node id="-589770" lat="61.3837805523" lon="7.71951388321">
		<tag k="name" v="Riglehella" />
		<tag k="natural" v="slope" />
		<tag k="place" v="locality" />
		<tag k="ssr:stedsnr" v="228180" />
	</node>
	<node id="-589769" lat="61.2705694426" lon="7.72524444271">
		<tag k="name" v="Bjørnabakkjuvet" />
		<tag k="natural" v="gorge" />
		<tag k="ssr:stedsnr" v="228177" />
	</node>
	<node id="-589764" lat="61.3150083303" lon="7.84757778687">
		<tag k="alt_name" v="Fuglåskamben" />
		<tag k="name" v="Fuglåsen" />
		<tag k="natural" v="hill" />
		<tag k="place" v="locality" />
		<tag k="ssr:stedsnr" v="8914" />
	</node>
	<node id="-589763" lat="61.2790583354" lon="7.78448333882">
		<tag k="name" v="Storebakkberget" />
		<tag k="natural" v="hill" />
		<tag k="place" v="locality" />
		<tag k="ssr:stedsnr" v="8905" />
	</node>
	<node id="-589762" lat="61.4300305538" lon="7.69692222835">
		<tag k="name" v="Hestedalen" />
		<tag k="natural" v="valley" />
		<tag k="place" v="locality" />
		<tag k="ssr:stedsnr" v="8737" />
	</node>
	<node id="-590924" lat="61.4449499971" lon="7.83960276932">
		<tag k="fixme" v="consider natural=peak for the most distinct mountains in the district" />
		<tag k="name" v="Austre Ringstind" />
		<tag k="natural" v="hill" />
		<tag k="ssr:stedsnr" v="432486" />
	</node>
	<node id="-590923" lat="61.4553860495" lon="7.84410642878">
		<tag k="fixme" v="consider natural=peak for the most distinct mountains in the district" />
		<tag k="loc_name" v="Søre Dyrhaugstind" />
		<tag k="name" v="Søre Dyrhaugstinden" />
		<tag k="natural" v="hill" />
		<tag k="old_name" v="Skagastølstindane, s;Skardstølstindane, s;Skagastølstindane, nordre;Søre Skarstølstindane" />
		<tag k="ssr:stedsnr" v="68546" />
	</node>
	<node id="-590922" lat="61.4318515134" lon="7.79538403794">
		<tag k="fixme" v="consider natural=peak for the most distinct mountains in the district" />
		<tag k="name" v="Store Austanbottstind" />
		<tag k="natural" v="hill" />
		<tag k="ssr:stedsnr" v="694772" />
	</node>
	<node id="-590921" lat="61.4321025795" lon="7.79212925569">
		<tag k="fixme" v="consider natural=peak for the most distinct mountains in the district" />
		<tag k="name" v="Austanbottstindane" />
		<tag k="natural" v="hill" />
		<tag k="place" v="locality" />
		<tag k="ssr:stedsnr" v="736495" />
	</node>
	<node id="-590920" lat="61.4426053513" lon="7.82747984519">
		<tag k="fixme" v="consider natural=peak for the most distinct mountains in the district" />
		<tag k="name" v="Midtre Ringstind" />
		<tag k="natural" v="hill" />
		<tag k="ssr:stedsnr" v="857519" />
	</node>
	<node id="-590919" lat="61.4429411723" lon="7.82281941504">
		<tag k="fixme" v="consider natural=peak for the most distinct mountains in the district" />
		<tag k="name" v="Ringstindane" />
		<tag k="natural" v="hill" />
		<tag k="place" v="locality" />
		<tag k="ssr:stedsnr" v="269816" />
	</node>
	<node id="-590904" lat="61.3234861147" lon="7.86023611802">
		<tag k="name" v="Svalheimsbergi" />
		<tag k="natural" v="hill" />
		<tag k="place" v="locality" />
		<tag k="ssr:stedsnr" v="957954" />
	</node>
	<node id="-590903" lat="61.3334722242" lon="7.87329166842">
		<tag k="name" v="Sprangebakken" />
		<tag k="natural" v="slope" />
		<tag k="place" v="locality" />
		<tag k="ssr:stedsnr" v="957953" />
	</node>
	<node id="-590900" lat="61.3128222262" lon="7.75525832641">
		<tag k="name" v="Bukkhold" />
		<tag k="natural" v="hill" />
		<tag k="place" v="locality" />
		<tag k="ssr:stedsnr" v="957900" />
	</node>
	<node id="-590899" lat="61.2826611082" lon="7.73372777517">
		<tag k="name" v="Kastet" />
		<tag k="natural" v="gorge" />
		<tag k="ssr:stedsnr" v="957897" />
	</node>
	<node id="-590898" lat="61.2803861146" lon="7.76439722619">
		<tag k="name" v="Blombakken" />
		<tag k="natural" v="slope" />
		<tag k="place" v="locality" />
		<tag k="ssr:stedsnr" v="957893" />
	</node>
	<node id="-590896" lat="61.303694441" lon="7.83864443657">
		<tag k="name" v="Kjellarlii" />
		<tag k="natural" v="slope" />
		<tag k="place" v="locality" />
		<tag k="ssr:stedsnr" v="957805" />
	</node>
	<node id="-590895" lat="61.3477722267" lon="7.88388334185">
		<tag k="name" v="Hjellehaugen" />
		<tag k="natural" v="hill" />
		<tag k="place" v="locality" />
		<tag k="ssr:stedsnr" v="957791" />
	</node>
	<node id="-590894" lat="61.3120416659" lon="7.79809167107">
		<tag k="name" v="Bakken" />
		<tag k="natural" v="slope" />
		<tag k="place" v="locality" />
		<tag k="ssr:stedsnr" v="957768" />
	</node>
	<node id="-590892" lat="61.3770472196" lon="7.93954167197">
		<tag k="name" v="Brothola" />
		<tag k="natural" v="gorge" />
		<tag k="ssr:stedsnr" v="957735" />
	</node>
	<node id="-590889" lat="61.1964833335" lon="7.65088888084">
		<tag k="name" v="Svartejuvneset" />
		<tag k="natural" v="ridge" />
		<tag k="place" v="locality" />
		<tag k="ssr:stedsnr" v="957288" />
	</node>
	<node id="-590888" lat="61.1772222267" lon="7.66171667386">
		<tag k="name" v="Almebakkane" />
		<tag k="natural" v="hill" />
		<tag k="place" v="locality" />
		<tag k="ssr:stedsnr" v="957278" />
	</node>
	<node id="-590887" lat="61.1854611151" lon="7.55296389132">
		<tag k="name" v="Timreskredhalsen" />
		<tag k="natural" v="valley" />
		<tag k="place" v="locality" />
		<tag k="ssr:stedsnr" v="957242" />
	</node>
	<node id="-590884" lat="61.2661361117" lon="7.72451110908">
		<tag k="name" v="Haugen" />
		<tag k="natural" v="hill" />
		<tag k="place" v="locality" />
		<tag k="ssr:stedsnr" v="957174" />
	</node>
	<node id="-590883" lat="61.2334805571" lon="7.73510833961">
		<tag k="name" v="Kirstijuvet" />
		<tag k="natural" v="gorge" />
		<tag k="ssr:stedsnr" v="957087" />
	</node>
	<node id="-590881" lat="61.2606722231" lon="7.78178332833">
		<tag k="name" v="Lystdokki" />
		<tag k="natural" v="slope" />
		<tag k="place" v="locality" />
		<tag k="ssr:stedsnr" v="957014" />
	</node>
	<node id="-590879" lat="61.1396277788" lon="7.67393055944">
		<tag k="name" v="Døgerskar" />
		<tag k="natural" v="valley" />
		<tag k="place" v="locality" />
		<tag k="ssr:stedsnr" v="860346" />
	</node>
	<node id="-590877" lat="61.2378972219" lon="7.81673888685">
		<tag k="name" v="Fossdalen" />
		<tag k="natural" v="valley" />
		<tag k="place" v="locality" />
		<tag k="ssr:stedsnr" v="859893" />
	</node>
	<node id="-590870" lat="61.2296638888" lon="7.61676111572">
		<tag k="name" v="Temreskredjuvet" />
		<tag k="natural" v="valley" />
		<tag k="place" v="locality" />
		<tag k="ssr:stedsnr" v="859297" />
	</node>
	<node id="-590868" lat="61.3720944436" lon="7.84565000547">
		<tag k="fixme" v="consider natural=peak for the most distinct mountains in the district" />
		<tag k="name" v="Gravdalsnosi" />
		<tag k="natural" v="hill" />
		<tag k="place" v="locality" />
		<tag k="ssr:stedsnr" v="858995" />
	</node>
	<node id="-590867" lat="61.2618611074" lon="7.77207778373">
		<tag k="name" v="Steiggjeli" />
		<tag k="natural" v="slope" />
		<tag k="place" v="locality" />
		<tag k="ssr:stedsnr" v="858894" />
	</node>
	<node id="-590861" lat="61.3380527748" lon="7.81776666099">
		<tag k="name" v="Træsdalen" />
		<tag k="natural" v="valley" />
		<tag k="place" v="locality" />
		<tag k="ssr:stedsnr" v="857935" />
	</node>
	<node id="-590859" lat="61.402624999" lon="7.98920000017">
		<tag k="name" v="Fleskenoshaugane" />
		<tag k="natural" v="hill" />
		<tag k="place" v="locality" />
		<tag k="ssr:stedsnr" v="857986" />
	</node>
	<node id="-590850" lat="61.3189111141" lon="7.81140833198">
		<tag k="name" v="Kolabotnen" />
		<tag k="natural" v="valley" />
		<tag k="place" v="locality" />
		<tag k="ssr:stedsnr" v="836999" />
	</node>
	<node id="-590848" lat="61.3415916688" lon="7.92477778287">
		<tag k="name" v="Ilaget" />
		<tag k="natural" v="slope" />
		<tag k="place" v="locality" />
		<tag k="ssr:stedsnr" v="836627" />
	</node>
	<node id="-590846" lat="61.1914249998" lon="7.56333332702">
		<tag k="name" v="Jensehamnenskreda" />
		<tag k="natural" v="valley" />
		<tag k="place" v="locality" />
		<tag k="ssr:stedsnr" v="836243" />
	</node>
	<node id="-590844" lat="61.194969444" lon="7.57411110584">
		<tag k="name" v="Klovningane" />
		<tag k="natural" v="hill" />
		<tag k="place" v="locality" />
		<tag k="ssr:stedsnr" v="836228" />
	</node>
	<node id="-590842" lat="61.1851888889" lon="7.64205556182">
		<tag k="name" v="Hjellene" />
		<tag k="place" v="locality" />
		<tag k="ssr:stedsnr" v="835333" />
	</node>
	<node id="-590840" lat="61.2578722225" lon="7.72234721373">
		<tag k="name" v="Kobbesteinbakkane" />
		<tag k="natural" v="slope" />
		<tag k="place" v="locality" />
		<tag k="ssr:stedsnr" v="835166" />
	</node>
	<node id="-590838" lat="61.1791166623" lon="7.65770555661">
		<tag k="name" v="Sagahovden" />
		<tag k="natural" v="hill" />
		<tag k="place" v="locality" />
		<tag k="ssr:stedsnr" v="799341" />
	</node>
	<node id="-590836" lat="61.1318055578" lon="7.61372499671">
		<tag k="name" v="Bakkeskaret" />
		<tag k="natural" v="valley" />
		<tag k="place" v="locality" />
		<tag k="ssr:stedsnr" v="799313" />
	</node>
	<node id="-590833" lat="61.1747916673" lon="7.73064999353">
		<tag k="name" v="Hellingdalen" />
		<tag k="natural" v="valley" />
		<tag k="place" v="locality" />
		<tag k="ssr:stedsnr" v="798878" />
	</node>
	<node id="-590830" lat="61.2410250005" lon="7.65319443624">
		<tag k="alt_name" v="Seimsdal" />
		<tag k="name" v="Seimsdalen" />
		<tag k="natural" v="valley" />
		<tag k="place" v="locality" />
		<tag k="ssr:stedsnr" v="798332" />
	</node>
	<node id="-590829" lat="61.2461000032" lon="7.44707499492">
		<tag k="fixme" v="consider natural=peak for the most distinct mountains in the district" />
		<tag k="name" v="Svartevasshaugane" />
		<tag k="natural" v="hill" />
		<tag k="place" v="locality" />
		<tag k="ssr:stedsnr" v="798329" />
	</node>
	<node id="-590827" lat="61.2416249957" lon="7.6750916657">
		<tag k="alt_name" v="Nasen" />
		<tag k="fixme" v="consider natural=peak for the most distinct mountains in the district" />
		<tag k="name" v="Nosi" />
		<tag k="natural" v="hill" />
		<tag k="place" v="locality" />
		<tag k="ssr:stedsnr" v="798315" />
	</node>
	<node id="-590822" lat="61.2895944459" lon="7.92832499528">
		<tag k="name" v="Tyedalen" />
		<tag k="natural" v="valley" />
		<tag k="place" v="locality" />
		<tag k="ssr:stedsnr" v="797890" />
	</node>
	<node id="-590820" lat="61.3897416656" lon="7.75477778685">
		<tag k="name" v="Sletta" />
		<tag k="place" v="locality" />
		<tag k="ssr:stedsnr" v="797997" />
	</node>
	<node id="-590818" lat="61.3048106487" lon="7.67898510259">
		<tag k="fixme" v="consider natural=peak for the most distinct mountains in the district" />
		<tag k="name" v="Horgi" />
		<tag k="natural" v="hill" />
		<tag k="place" v="locality" />
		<tag k="ssr:stedsnr" v="797610" />
	</node>
	<node id="-590815" lat="61.3137194433" lon="7.75432500016">
		<tag k="name" v="Bergheimsskaret" />
		<tag k="natural" v="valley" />
		<tag k="place" v="locality" />
		<tag k="ssr:stedsnr" v="796940" />
	</node>
	<node id="-590814" lat="61.3185475076" lon="7.82616365375">
		<tag k="name" v="Kamben" />
		<tag k="natural" v="hill" />
		<tag k="place" v="locality" />
		<tag k="ssr:stedsnr" v="796933" />
	</node>
	<node id="-590812" lat="61.2834499963" lon="7.81746666882">
		<tag k="fixme" v="consider natural=peak for the most distinct mountains in the district" />
		<tag k="name" v="Middagshaugen" />
		<tag k="natural" v="hill" />
		<tag k="place" v="locality" />
		<tag k="ssr:stedsnr" v="796913" />
	</node>
	<node id="-590811" lat="61.4064388872" lon="7.70854445099">
		<tag k="fixme" v="consider natural=peak for the most distinct mountains in the district" />
		<tag k="name" v="Langenosi" />
		<tag k="natural" v="hill" />
		<tag k="place" v="locality" />
		<tag k="ssr:stedsnr" v="796710" />
	</node>
	<node id="-590808" lat="61.4231000031" lon="8.05688610338">
		<tag k="name" v="Gravløyfti" />
		<tag k="natural" v="valley" />
		<tag k="place" v="locality" />
		<tag k="ssr:stedsnr" v="796521" />
	</node>
	<node id="-590807" lat="61.4200222265" lon="7.74791666712">
		<tag k="name" v="Vetle Austanbotnen" />
		<tag k="natural" v="valley" />
		<tag k="place" v="locality" />
		<tag k="ssr:stedsnr" v="796518" />
	</node>
	<node id="-590806" lat="61.4430832842" lon="7.83373856527">
		<tag k="name" v="Ringsskar" />
		<tag k="natural" v="valley" />
		<tag k="place" v="locality" />
		<tag k="ssr:stedsnr" v="796495" />
	</node>
	<node id="-590803" lat="61.3222833298" lon="7.76278610351">
		<tag k="name" v="Lassebakkane" />
		<tag k="natural" v="slope" />
		<tag k="place" v="locality" />
		<tag k="ssr:stedsnr" v="775939" />
	</node>
	<node id="-590802" lat="61.2985611079" lon="7.91159721811">
		<tag k="name" v="Fremre Buktehaugen" />
		<tag k="natural" v="hill" />
		<tag k="place" v="locality" />
		<tag k="ssr:stedsnr" v="775632" />
	</node>
	<node id="-590800" lat="61.190002781" lon="7.60771111905">
		<tag k="name" v="Slikjesva" />
		<tag k="natural" v="hill" />
		<tag k="place" v="locality" />
		<tag k="ssr:stedsnr" v="775252" />
	</node>
	<node id="-590798" lat="61.2390805538" lon="7.70920833447">
		<tag k="name" v="Pøylebakkane" />
		<tag k="natural" v="slope" />
		<tag k="place" v="locality" />
		<tag k="ssr:stedsnr" v="775180" />
	</node>
	<node id="-590797" lat="61.3100416676" lon="7.78123054966">
		<tag k="name" v="Ådnehammaren" />
		<tag k="natural" v="hill" />
		<tag k="place" v="locality" />
		<tag k="ssr:stedsnr" v="775093" />
	</node>
	<node id="-590796" lat="61.1867388918" lon="7.63188611368">
		<tag k="name" v="Saueskreda" />
		<tag k="natural" v="valley" />
		<tag k="place" v="locality" />
		<tag k="ssr:stedsnr" v="774358" />
	</node>
	<node id="-590795" lat="61.1845972225" lon="7.63041666174">
		<tag k="name" v="Hovlandsdalen" />
		<tag k="natural" v="valley" />
		<tag k="place" v="locality" />
		<tag k="ssr:stedsnr" v="774357" />
	</node>
	<node id="-590791" lat="61.3957666698" lon="7.72411666301">
		<tag k="name" v="Vardehaugen" />
		<tag k="natural" v="hill" />
		<tag k="place" v="locality" />
		<tag k="ssr:stedsnr" v="774193" />
	</node>
	<node id="-590784" lat="61.1521666654" lon="7.49991389263">
		<tag k="name" v="Langedalen" />
		<tag k="natural" v="valley" />
		<tag k="place" v="locality" />
		<tag k="ssr:stedsnr" v="738314" />
	</node>
	<node id="-590782" lat="61.1874194474" lon="7.67043611906">
		<tag k="fixme" v="consider natural=peak for the most distinct mountains in the district" />
		<tag k="name" v="Kamben" />
		<tag k="natural" v="hill" />
		<tag k="place" v="locality" />
		<tag k="ssr:stedsnr" v="738306" />
	</node>
	<node id="-590780" lat="61.1339500008" lon="7.62564166321">
		<tag k="fixme" v="consider natural=peak for the most distinct mountains in the district" />
		<tag k="name" v="Bakkenosi" />
		<tag k="natural" v="hill" />
		<tag k="place" v="locality" />
		<tag k="ssr:stedsnr" v="738301" />
	</node>
	<node id="-590779" lat="61.1724020756" lon="7.601239399">
		<tag k="fixme" v="consider natural=peak for the most distinct mountains in the district" />
		<tag k="name" v="Middagshaugane" />
		<tag k="natural" v="hill" />
		<tag k="place" v="locality" />
		<tag k="ssr:stedsnr" v="738272" />
	</node>
	<node id="-590778" lat="61.2388166699" lon="7.85691111663">
		<tag k="name" v="Berdalen" />
		<tag k="natural" v="valley" />
		<tag k="place" v="locality" />
		<tag k="ssr:stedsnr" v="737909" />
	</node>
	<node id="-590777" lat="61.246411114" lon="7.69909999617">
		<tag k="fixme" v="consider natural=peak for the most distinct mountains in the district" />
		<tag k="name" v="Lysenakken" />
		<tag k="natural" v="hill" />
		<tag k="place" v="locality" />
		<tag k="ssr:stedsnr" v="737336" />
	</node>
	<node id="-590776" lat="61.2192916638" lon="7.4797194514">
		<tag k="alt_name" v="Langeborddalen" />
		<tag k="name" v="Langebordalen" />
		<tag k="natural" v="valley" />
		<tag k="place" v="locality" />
		<tag k="ssr:stedsnr" v="737332" />
	</node>
	<node id="-590775" lat="61.2204777819" lon="7.58838611901">
		<tag k="fixme" v="consider natural=peak for the most distinct mountains in the district" />
		<tag k="name" v="Brennfjellet" />
		<tag k="natural" v="hill" />
		<tag k="place" v="locality" />
		<tag k="ssr:stedsnr" v="737330" />
	</node>
	<node id="-590766" lat="61.3106249977" lon="7.87928055523">
		<tag k="name" v="Moagaldane" />
		<tag k="place" v="locality" />
		<tag k="ssr:stedsnr" v="736911" />
	</node>
	<node id="-590758" lat="61.4324305586" lon="7.83314444589">
		<tag k="name" v="Stølsmaradalstinden" />
		<tag k="natural" v="hill" />
		<tag k="place" v="locality" />
		<tag k="ssr:stedsnr" v="736520" />
	</node>
	<node id="-590757" lat="61.4103361134" lon="7.95508055225">
		<tag k="fixme" v="consider natural=peak for the most distinct mountains in the district" />
		<tag k="name" v="Snørestødet" />
		<tag k="natural" v="hill" />
		<tag k="place" v="locality" />
		<tag k="ssr:stedsnr" v="736514" />
	</node>
	<node id="-590756" lat="61.4168500007" lon="7.98307777235">
		<tag k="name" v="Baklistigen" />
		<tag k="natural" v="ridge" />
		<tag k="place" v="locality" />
		<tag k="ssr:stedsnr" v="736512" />
	</node>
	<node id="-590755" lat="61.4314444449" lon="7.89588611085">
		<tag k="fixme" v="consider natural=peak for the most distinct mountains in the district" />
		<tag k="name" v="Midtmaradalsryggen" />
		<tag k="natural" v="hill" />
		<tag k="place" v="locality" />
		<tag k="ssr:stedsnr" v="736508" />
	</node>
	<node id="-590753" lat="61.444266671" lon="7.85641112006">
		<tag k="name" v="Lovskar" />
		<tag k="natural" v="valley" />
		<tag k="place" v="locality" />
		<tag k="ssr:stedsnr" v="736490" />
	</node>
	<node id="-590752" lat="61.169563889" lon="7.73796388656">
		<tag k="fixme" v="consider natural=peak for the most distinct mountains in the district" />
		<tag k="name" v="Sauenosi" />
		<tag k="natural" v="hill" />
		<tag k="place" v="locality" />
		<tag k="ssr:stedsnr" v="736461" />
	</node>
	<node id="-590751" lat="61.3694472209" lon="7.9029055523">
		<tag k="name" v="Støvøynhalsen" />
		<tag k="natural" v="hill" />
		<tag k="place" v="locality" />
		<tag k="ssr:stedsnr" v="654839" />
	</node>
	<node id="-590750" lat="61.3146222267" lon="7.86957777717">
		<tag k="name" v="Skedene" />
		<tag k="natural" v="slope" />
		<tag k="place" v="locality" />
		<tag k="ssr:stedsnr" v="654877" />
	</node>
	<node id="-590749" lat="61.1703222187" lon="7.65933334174">
		<tag k="name" v="Gryta" />
		<tag k="natural" v="gorge" />
		<tag k="ssr:stedsnr" v="654286" />
	</node>
	<node id="-590748" lat="61.3320833307" lon="7.81991667183">
		<tag k="name" v="Boskredjuvet" />
		<tag k="natural" v="gorge" />
		<tag k="ssr:stedsnr" v="653999" />
	</node>
	<node id="-590745" lat="61.3438388881" lon="7.76064444904">
		<tag k="name" v="Nerøynsvollen" />
		<tag k="place" v="locality" />
		<tag k="ssr:stedsnr" v="653895" />
	</node>
	<node id="-590741" lat="61.2566361134" lon="7.79428055821">
		<tag k="name" v="Berdalsskori" />
		<tag k="place" v="locality" />
		<tag k="ssr:stedsnr" v="653700" />
	</node>
	<node id="-590740" lat="61.210555552" lon="7.52286388019">
		<tag k="name" v="Saltgruva" />
		<tag k="natural" v="valley" />
		<tag k="place" v="locality" />
		<tag k="ssr:stedsnr" v="653365" />
	</node>
	<node id="-590735" lat="61.2367972233" lon="7.72303333686">
		<tag k="name" v="Vasstaket" />
		<tag k="natural" v="slope" />
		<tag k="place" v="locality" />
		<tag k="ssr:stedsnr" v="653172" />
	</node>
	<node id="-590734" lat="61.3753611109" lon="7.91834167121">
		<tag k="name" v="Bruhaugen" />
		<tag k="natural" v="hill" />
		<tag k="place" v="locality" />
		<tag k="ssr:stedsnr" v="651724" />
	</node>
	<node id="-590732" lat="61.3110777756" lon="7.83388888391">
		<tag k="name" v="Temrebakkane" />
		<tag k="natural" v="slope" />
		<tag k="place" v="locality" />
		<tag k="ssr:stedsnr" v="633472" />
	</node>
	<node id="-590730" lat="61.2351777765" lon="7.52689999625">
		<tag k="name" v="Storehaugen" />
		<tag k="natural" v="hill" />
		<tag k="place" v="locality" />
		<tag k="ssr:stedsnr" v="616348" />
	</node>
	<node id="-590727" lat="61.2480527792" lon="7.68228334076">
		<tag k="fixme" v="consider natural=peak for the most distinct mountains in the district" />
		<tag k="name" v="Gjerdesnosi" />
		<tag k="natural" v="hill" />
		<tag k="place" v="locality" />
		<tag k="ssr:stedsnr" v="616333" />
	</node>
	<node id="-590724" lat="61.1670666705" lon="7.66101111522">
		<tag k="name" v="Fremre Neset" />
		<tag k="natural" v="slope" />
		<tag k="place" v="locality" />
		<tag k="ssr:stedsnr" v="616310" />
	</node>
	<node id="-590723" lat="61.1975000029" lon="7.62977500053">
		<tag k="name" v="Staren" />
		<tag k="place" v="locality" />
		<tag k="ssr:stedsnr" v="616287" />
	</node>
	<node id="-590722" lat="61.195186114" lon="7.64403610878">
		<tag k="name" v="Årøydalen" />
		<tag k="natural" v="valley" />
		<tag k="place" v="locality" />
		<tag k="ssr:stedsnr" v="616285" />
	</node>
	<node id="-590720" lat="61.153130553" lon="7.67193610997">
		<tag k="name" v="Tjuvali" />
		<tag k="natural" v="slope" />
		<tag k="place" v="locality" />
		<tag k="ssr:stedsnr" v="616272" />
	</node>
	<node id="-590719" lat="61.1531249983" lon="7.58547500144">
		<tag k="fixme" v="consider natural=peak for the most distinct mountains in the district" />
		<tag k="name" v="Runde Kupa" />
		<tag k="natural" v="hill" />
		<tag k="place" v="locality" />
		<tag k="ssr:stedsnr" v="616254" />
	</node>
	<node id="-590718" lat="61.2217277786" lon="7.72904167056">
		<tag k="name" v="Geisdalen" />
		<tag k="natural" v="valley" />
		<tag k="place" v="locality" />
		<tag k="ssr:stedsnr" v="615908" />
	</node>
	<node id="-590717" lat="61.2125888871" lon="7.94980556075">
		<tag k="name" v="Storløypti" />
		<tag k="natural" v="valley" />
		<tag k="place" v="locality" />
		<tag k="ssr:stedsnr" v="615895" />
	</node>
	<node id="-590712" lat="61.3114527766" lon="7.76201111931">
		<tag k="name" v="Søtholberget" />
		<tag k="natural" v="hill" />
		<tag k="place" v="locality" />
		<tag k="ssr:stedsnr" v="614939" />
	</node>
	<node id="-590708" lat="61.3294555515" lon="7.82065000071">
		<tag k="name" v="Bøskreda" />
		<tag k="natural" v="gorge" />
		<tag k="ssr:stedsnr" v="614926" />
	</node>
	<node id="-590705" lat="61.2806333335" lon="7.77632500046">
		<tag k="name" v="Holten" />
		<tag k="natural" v="hill" />
		<tag k="place" v="locality" />
		<tag k="ssr:stedsnr" v="614901" />
	</node>
	<node id="-590704" lat="61.2933111133" lon="7.80728056368">
		<tag k="name" v="Breiskredjuvet" />
		<tag k="natural" v="valley" />
		<tag k="place" v="locality" />
		<tag k="ssr:stedsnr" v="614894" />
	</node>
	<node id="-590702" lat="61.2504777818" lon="7.7683666736">
		<tag k="name" v="Losnosi" />
		<tag k="natural" v="hill" />
		<tag k="place" v="locality" />
		<tag k="ssr:stedsnr" v="614886" />
	</node>
	<node id="-590701" lat="61.2575388908" lon="7.79025277161">
		<tag k="fixme" v="consider natural=peak for the most distinct mountains in the district" />
		<tag k="name" v="Nakkane" />
		<tag k="natural" v="hill" />
		<tag k="place" v="locality" />
		<tag k="ssr:stedsnr" v="614880" />
	</node>
	<node id="-590699" lat="61.3814666667" lon="7.92967777184">
		<tag k="name" v="Brendeteigen" />
		<tag k="natural" v="slope" />
		<tag k="place" v="locality" />
		<tag k="ssr:stedsnr" v="614994" />
	</node>
	<node id="-590696" lat="61.3642527761" lon="7.64649444839">
		<tag k="fixme" v="consider natural=peak for the most distinct mountains in the district" />
		<tag k="name" v="Gruvefjellet" />
		<tag k="natural" v="hill" />
		<tag k="place" v="locality" />
		<tag k="ssr:stedsnr" v="614706" />
	</node>
	<node id="-590693" lat="61.3287527754" lon="7.66930832936">
		<tag k="name" v="Vardabakkane" />
		<tag k="natural" v="slope" />
		<tag k="place" v="locality" />
		<tag k="ssr:stedsnr" v="614669" />
	</node>
	<node id="-590691" lat="61.273216669" lon="7.65095555386">
		<tag k="name" v="Skredene" />
		<tag k="natural" v="slope" />
		<tag k="place" v="locality" />
		<tag k="ssr:stedsnr" v="614589" />
	</node>
	<node id="-590687" lat="61.4369583293" lon="7.93110833306">
		<tag k="fixme" v="consider natural=peak for the most distinct mountains in the district" />
		<tag k="name" v="Maradalsryggen" />
		<tag k="natural" v="hill" />
		<tag k="place" v="locality" />
		<tag k="ssr:stedsnr" v="614524" />
	</node>
	<node id="-590683" lat="61.3207583333" lon="7.82783332829">
		<tag k="name" v="Bakbakkane" />
		<tag k="natural" v="slope" />
		<tag k="place" v="locality" />
		<tag k="ssr:stedsnr" v="593995" />
	</node>
	<node id="-590681" lat="61.3582999999" lon="7.90342500207">
		<tag k="name" v="Årøyhalsen" />
		<tag k="natural" v="ridge" />
		<tag k="place" v="locality" />
		<tag k="ssr:stedsnr" v="593951" />
	</node>
	<node id="-590679" lat="61.3030555574" lon="7.74175555265">
		<tag k="name" v="Ormerindjuvet" />
		<tag k="natural" v="gorge" />
		<tag k="ssr:stedsnr" v="593887" />
	</node>
	<node id="-590678" lat="61.2998194445" lon="7.73173055347">
		<tag k="name" v="Bottejuvkamben" />
		<tag k="natural" v="hill" />
		<tag k="place" v="locality" />
		<tag k="ssr:stedsnr" v="593885" />
	</node>
	<node id="-590677" lat="61.2790111077" lon="7.74366944639">
		<tag k="name" v="Lensmannshaugen" />
		<tag k="natural" v="hill" />
		<tag k="place" v="locality" />
		<tag k="ssr:stedsnr" v="593878" />
	</node>
	<node id="-590676" lat="61.2876444482" lon="7.78075556375">
		<tag k="name" v="Lægreidsskori" />
		<tag k="place" v="locality" />
		<tag k="ssr:stedsnr" v="593874" />
	</node>
	<node id="-590674" lat="61.3701027766" lon="7.82862499592">
		<tag k="name" v="Kjerringi" />
		<tag k="natural" v="slope" />
		<tag k="place" v="locality" />
		<tag k="ssr:stedsnr" v="593775" />
	</node>
	<node id="-590673" lat="61.3491555516" lon="7.9016499917">
		<tag k="name" v="Hjellenakken" />
		<tag k="natural" v="hill" />
		<tag k="place" v="locality" />
		<tag k="ssr:stedsnr" v="593738" />
	</node>
	<node id="-590672" lat="61.3079250025" lon="7.79759721781">
		<tag k="name" v="Haugane" />
		<tag k="natural" v="hill" />
		<tag k="place" v="locality" />
		<tag k="ssr:stedsnr" v="593693" />
	</node>
	<node id="-590671" lat="61.3799472203" lon="7.96405277038">
		<tag k="name" v="Eldegardshaugane" />
		<tag k="natural" v="hill" />
		<tag k="place" v="locality" />
		<tag k="ssr:stedsnr" v="593679" />
	</node>
	<node id="-590669" lat="61.2418722181" lon="7.54826667515">
		<tag k="name" v="Øygardsflaten" />
		<tag k="place" v="locality" />
		<tag k="ssr:stedsnr" v="593483" />
	</node>
	<node id="-590668" lat="61.1860138933" lon="7.53768610789">
		<tag k="name" v="Ospeholene" />
		<tag k="natural" v="valley" />
		<tag k="place" v="locality" />
		<tag k="ssr:stedsnr" v="593342" />
	</node>
	<node id="-590667" lat="61.1736722239" lon="7.51823055925">
		<tag k="fixme" v="consider natural=peak for the most distinct mountains in the district" />
		<tag k="name" v="Nedre Bermålsholten" />
		<tag k="natural" v="hill" />
		<tag k="place" v="locality" />
		<tag k="ssr:stedsnr" v="593341" />
	</node>
	<node id="-590664" lat="61.2078444449" lon="7.6557083264">
		<tag k="name" v="Tyttebærholten" />
		<tag k="natural" v="hill" />
		<tag k="place" v="locality" />
		<tag k="ssr:stedsnr" v="593264" />
	</node>
	<node id="-590663" lat="61.1841083313" lon="7.65891389606">
		<tag k="name" v="Storeskreda" />
		<tag k="natural" v="valley" />
		<tag k="place" v="locality" />
		<tag k="ssr:stedsnr" v="593256" />
	</node>
	<node id="-590662" lat="61.2302722226" lon="7.71370556268">
		<tag k="name" v="Hundshammar" />
		<tag k="natural" v="hill" />
		<tag k="place" v="locality" />
		<tag k="ssr:stedsnr" v="593076" />
	</node>
	<node id="-590661" lat="61.2595194406" lon="7.78630277466">
		<tag k="name" v="Trollaholene" />
		<tag k="natural" v="gorge" />
		<tag k="ssr:stedsnr" v="593021" />
	</node>
	<node id="-590659" lat="61.2834805588" lon="7.66365278305">
		<tag k="name" v="Klettabrekkane" />
		<tag k="natural" v="slope" />
		<tag k="place" v="locality" />
		<tag k="ssr:stedsnr" v="592386" />
	</node>
	<node id="-590657" lat="61.3822388872" lon="7.70933888789">
		<tag k="name" v="Salen" />
		<tag k="natural" v="valley" />
		<tag k="place" v="locality" />
		<tag k="ssr:stedsnr" v="592189" />
	</node>
	<node id="-590656" lat="61.172241666" lon="7.62539167182">
		<tag k="fixme" v="consider natural=peak for the most distinct mountains in the district" />
		<tag k="name" v="Middagshaugen" />
		<tag k="natural" v="hill" />
		<tag k="place" v="locality" />
		<tag k="ssr:stedsnr" v="573051" />
	</node>
	<node id="-590655" lat="61.4282611138" lon="7.79032500294">
		<tag k="fixme" v="consider natural=peak for the most distinct mountains in the district" />
		<tag k="name" v="Søre Austanbottstind" />
		<tag k="natural" v="hill" />
		<tag k="ssr:stedsnr" v="572826" />
	</node>
	<node id="-590653" lat="61.2835722222" lon="7.74376667003">
		<tag k="name" v="Lambeskorane" />
		<tag k="place" v="locality" />
		<tag k="ssr:stedsnr" v="654979" />
	</node>
	<node id="-590649" lat="61.203069448" lon="7.46328610209">
		<tag k="name" v="Justeskreda" />
		<tag k="natural" v="valley" />
		<tag k="place" v="locality" />
		<tag k="ssr:stedsnr" v="555302" />
	</node>
	<node id="-590647" lat="61.1696000012" lon="7.68819165976">
		<tag k="fixme" v="consider natural=peak for the most distinct mountains in the district" />
		<tag k="name" v="Munkane" />
		<tag k="natural" v="hill" />
		<tag k="place" v="locality" />
		<tag k="ssr:stedsnr" v="555267" />
	</node>
	<node id="-590646" lat="61.1891666709" lon="7.68646666098">
		<tag k="name" v="Årøydalsbotnen" />
		<tag k="natural" v="valley" />
		<tag k="place" v="locality" />
		<tag k="ssr:stedsnr" v="555265" />
	</node>
	<node id="-590645" lat="61.182305557" lon="7.53826110183">
		<tag k="alt_name" v="Vårstølshaugane" />
		<tag k="name" v="Vårstølhaugane" />
		<tag k="natural" v="hill" />
		<tag k="place" v="locality" />
		<tag k="ssr:stedsnr" v="555255" />
	</node>
	<node id="-590642" lat="61.2569083341" lon="7.765450007">
		<tag k="name" v="Steiggjeberg" />
		<tag k="natural" v="hill" />
		<tag k="place" v="locality" />
		<tag k="ssr:stedsnr" v="554903" />
	</node>
	<node id="-590639" lat="61.3275583317" lon="7.88463888797">
		<tag k="name" v="Sprangebakkjuvet" />
		<tag k="natural" v="valley" />
		<tag k="place" v="locality" />
		<tag k="ssr:stedsnr" v="553943" />
	</node>
	<node id="-590637" lat="61.3096111119" lon="8.03865555476">
		<tag k="fixme" v="consider natural=peak for the most distinct mountains in the district" />
		<tag k="name" v="Nordre-Knipen" />
		<tag k="natural" v="hill" />
		<tag k="place" v="locality" />
		<tag k="ssr:stedsnr" v="553925" />
	</node>
	<node id="-590635" lat="61.3229805586" lon="8.16088055207">
		<tag k="name" v="Breikvam" />
		<tag k="natural" v="valley" />
		<tag k="place" v="locality" />
		<tag k="ssr:stedsnr" v="553807" />
	</node>
	<node id="-590631" lat="61.4473027815" lon="7.91651944992">
		<tag k="fixme" v="consider natural=peak for the most distinct mountains in the district" />
		<tag k="name" v="Mannen" />
		<tag k="natural" v="hill" />
		<tag k="place" v="locality" />
		<tag k="ssr:stedsnr" v="553490" />
	</node>
	<node id="-590629" lat="61.3390666703" lon="7.76197222458">
		<tag k="name" v="Brendhaugane" />
		<tag k="natural" v="hill" />
		<tag k="place" v="locality" />
		<tag k="ssr:stedsnr" v="532881" />
	</node>
	<node id="-590625" lat="61.3762222227" lon="7.97628332546">
		<tag k="name" v="Skreda" />
		<tag k="natural" v="valley" />
		<tag k="place" v="locality" />
		<tag k="ssr:stedsnr" v="532506" />
	</node>
	<node id="-590624" lat="61.2243944424" lon="7.54037499856">
		<tag k="name" v="Buforhjellen" />
		<tag k="place" v="locality" />
		<tag k="ssr:stedsnr" v="532489" />
	</node>
	<node id="-590623" lat="61.2125111118" lon="7.55421666022">
		<tag k="name" v="Kyrkjeskori" />
		<tag k="natural" v="hill" />
		<tag k="place" v="locality" />
		<tag k="ssr:stedsnr" v="532452" />
	</node>
	<node id="-590622" lat="61.3419277816" lon="7.91637222586">
		<tag k="name" v="Kleivi" />
		<tag k="natural" v="slope" />
		<tag k="place" v="locality" />
		<tag k="ssr:stedsnr" v="532634" />
	</node>
	<node id="-590620" lat="61.1876527794" lon="7.64767777855">
		<tag k="name" v="Ospedottbergi" />
		<tag k="natural" v="hill" />
		<tag k="place" v="locality" />
		<tag k="ssr:stedsnr" v="532266" />
	</node>
	<node id="-590619" lat="61.178950004" lon="7.66664721753">
		<tag k="name" v="Munkejuvet" />
		<tag k="natural" v="gorge" />
		<tag k="ssr:stedsnr" v="532259" />
	</node>
	<node id="-590618" lat="61.2632138908" lon="7.71832500749">
		<tag k="name" v="Seljeskori" />
		<tag k="place" v="locality" />
		<tag k="ssr:stedsnr" v="532137" />
	</node>
	<node id="-590617" lat="61.2208166687" lon="7.70997778485">
		<tag k="name" v="Kleppurjuvet" />
		<tag k="natural" v="gorge" />
		<tag k="ssr:stedsnr" v="532068" />
	</node>
	<node id="-590616" lat="61.1932923455" lon="7.55663981867">
		<tag k="name" v="Killingsva" />
		<tag k="natural" v="hill" />
		<tag k="place" v="locality" />
		<tag k="ssr:stedsnr" v="532243" />
	</node>
	<node id="-590614" lat="61.2354805543" lon="7.7214305607">
		<tag k="name" v="Nobbi" />
		<tag k="natural" v="hill" />
		<tag k="place" v="locality" />
		<tag k="ssr:stedsnr" v="532166" />
	</node>
	<node id="-590611" lat="61.2890972214" lon="7.64336944843">
		<tag k="name" v="Rundehaug" />
		<tag k="natural" v="hill" />
		<tag k="place" v="locality" />
		<tag k="ssr:stedsnr" v="531137" />
	</node>
	<node id="-590610" lat="61.2908333362" lon="7.64812778414">
		<tag k="name" v="Setane" />
		<tag k="natural" v="slope" />
		<tag k="place" v="locality" />
		<tag k="ssr:stedsnr" v="531135" />
	</node>
	<node id="-590605" lat="61.2168166671" lon="7.71210555918">
		<tag k="fixme" v="consider natural=peak for the most distinct mountains in the district" />
		<tag k="name" v="Middagshaugen" />
		<tag k="natural" v="hill" />
		<tag k="place" v="locality" />
		<tag k="ssr:stedsnr" v="434272" />
	</node>
	<node id="-590604" lat="61.3921555519" lon="7.94258055827">
		<tag k="name" v="Maradalsmorki" />
		<tag k="place" v="locality" />
		<tag k="ssr:stedsnr" v="434000" />
	</node>
	<node id="-590603" lat="61.3963249961" lon="7.7953388949">
		<tag k="fixme" v="consider natural=peak for the most distinct mountains in the district" />
		<tag k="name" v="Kyrvassnosi" />
		<tag k="natural" v="hill" />
		<tag k="place" v="locality" />
		<tag k="ssr:stedsnr" v="433999" />
	</node>
	<node id="-590602" lat="61.4041333365" lon="7.76233611922">
		<tag k="name" v="Austanbotn" />
		<tag k="natural" v="valley" />
		<tag k="place" v="locality" />
		<tag k="ssr:stedsnr" v="433993" />
	</node>
	<node id="-590599" lat="61.3670749975" lon="7.89213332547">
		<tag k="name" v="Vettisbergi" />
		<tag k="natural" v="hill" />
		<tag k="place" v="locality" />
		<tag k="ssr:stedsnr" v="433976" />
	</node>
	<node id="-590598" lat="61.3748166666" lon="7.79322777865">
		<tag k="fixme" v="consider natural=peak for the most distinct mountains in the district" />
		<tag k="name" v="Åsetnosi" />
		<tag k="natural" v="hill" />
		<tag k="place" v="locality" />
		<tag k="ssr:stedsnr" v="433973" />
	</node>
	<node id="-590594" lat="61.4134166708" lon="7.65502777768">
		<tag k="fixme" v="consider natural=peak for the most distinct mountains in the district" />
		<tag k="name" v="Langedalsfjelli" />
		<tag k="natural" v="hill" />
		<tag k="place" v="locality" />
		<tag k="ssr:stedsnr" v="433719" />
	</node>
	<node id="-590590" lat="61.3525499965" lon="7.80827777995">
		<tag k="fixme" v="consider natural=peak for the most distinct mountains in the district" />
		<tag k="name" v="Botnanosi" />
		<tag k="natural" v="hill" />
		<tag k="place" v="locality" />
		<tag k="ssr:stedsnr" v="432968" />
	</node>
	<node id="-590589" lat="61.3445138856" lon="7.7937250086">
		<tag k="name" v="Botnadalen" />
		<tag k="natural" v="valley" />
		<tag k="place" v="locality" />
		<tag k="ssr:stedsnr" v="432959" />
	</node>
	<node id="-590587" lat="61.3284500036" lon="7.93180000903">
		<tag k="name" v="Trollahola" />
		<tag k="natural" v="valley" />
		<tag k="place" v="locality" />
		<tag k="ssr:stedsnr" v="432942" />
	</node>
	<node id="-590584" lat="61.3209083302" lon="7.95323889177">
		<tag k="fixme" v="consider natural=peak for the most distinct mountains in the district" />
		<tag k="name" v="Hovden" />
		<tag k="natural" v="hill" />
		<tag k="place" v="locality" />
		<tag k="ssr:stedsnr" v="432924" />
	</node>
	<node id="-590582" lat="61.4227694436" lon="8.09448888149">
		<tag k="name" v="Skarbotnen" />
		<tag k="natural" v="valley" />
		<tag k="place" v="locality" />
		<tag k="ssr:stedsnr" v="432847" />
	</node>
	<node id="-590581" lat="61.4112249957" lon="8.11668333451">
		<tag k="fixme" v="consider natural=peak for the most distinct mountains in the district" />
		<tag k="name" v="Skarbottsnosi" />
		<tag k="natural" v="hill" />
		<tag k="ssr:stedsnr" v="432837" />
	</node>
	<node id="-590578" lat="61.4032333321" lon="7.68996387987">
		<tag k="name" v="Kvannegrø" />
		<tag k="natural" v="slope" />
		<tag k="place" v="locality" />
		<tag k="ssr:stedsnr" v="432692" />
	</node>
	<node id="-590577" lat="61.3592083367" lon="7.89484722122">
		<tag k="fixme" v="consider natural=peak for the most distinct mountains in the district" />
		<tag k="name" v="Fureholten" />
		<tag k="natural" v="hill" />
		<tag k="place" v="locality" />
		<tag k="ssr:stedsnr" v="411955" />
	</node>
	<node id="-590575" lat="61.3543333349" lon="7.75549722476">
		<tag k="name" v="Tausebakken" />
		<tag k="natural" v="slope" />
		<tag k="place" v="locality" />
		<tag k="ssr:stedsnr" v="411887" />
	</node>
	<node id="-590572" lat="61.3981638894" lon="7.96659444394">
		<tag k="name" v="Fleskenoshalsen" />
		<tag k="natural" v="hill" />
		<tag k="place" v="locality" />
		<tag k="ssr:stedsnr" v="411490" />
	</node>
	<node id="-590568" lat="61.1840861111" lon="7.6025388812">
		<tag k="name" v="Homhammaren" />
		<tag k="natural" v="hill" />
		<tag k="place" v="locality" />
		<tag k="ssr:stedsnr" v="411251" />
	</node>
	<node id="-590567" lat="61.3159305532" lon="7.78322499147">
		<tag k="name" v="Øvsttunhaugen" />
		<tag k="natural" v="hill" />
		<tag k="place" v="locality" />
		<tag k="ssr:stedsnr" v="411120" />
	</node>
	<node id="-590566" lat="61.2310527782" lon="7.73392221697">
		<tag k="name" v="Sauejuvet" />
		<tag k="natural" v="gorge" />
		<tag k="ssr:stedsnr" v="411097" />
	</node>
	<node id="-590565" lat="61.2596083361" lon="7.76629443937">
		<tag k="name" v="Stedjegjeli" />
		<tag k="natural" v="gorge" />
		<tag k="ssr:stedsnr" v="411054" />
	</node>
	<node id="-590564" lat="61.2708055575" lon="7.78139166118">
		<tag k="name" v="Dalen" />
		<tag k="natural" v="valley" />
		<tag k="place" v="locality" />
		<tag k="ssr:stedsnr" v="411020" />
	</node>
	<node id="-590562" lat="61.2334916651" lon="7.62292778066">
		<tag k="name" v="Saltbuskreda" />
		<tag k="natural" v="valley" />
		<tag k="place" v="locality" />
		<tag k="ssr:stedsnr" v="410523" />
	</node>
	<node id="-590558" lat="61.2550027768" lon="7.71036388177">
		<tag k="name" v="Skolmejuvet" />
		<tag k="natural" v="gorge" />
		<tag k="ssr:stedsnr" v="410148" />
	</node>
	<node id="-590557" lat="61.30043333" lon="7.66556388842">
		<tag k="name" v="Torli" />
		<tag k="natural" v="slope" />
		<tag k="place" v="locality" />
		<tag k="ssr:stedsnr" v="410116" />
	</node>
	<node id="-590554" lat="61.1275138878" lon="7.72993056103">
		<tag k="fixme" v="consider natural=peak for the most distinct mountains in the district" />
		<tag k="name" v="Skvettebottshøgdene" />
		<tag k="natural" v="hill" />
		<tag k="place" v="locality" />
		<tag k="ssr:stedsnr" v="373989" />
	</node>
	<node id="-590552" lat="61.1690694461" lon="7.85177500491">
		<tag k="fixme" v="consider natural=peak for the most distinct mountains in the district" />
		<tag k="name" v="Graveggi" />
		<tag k="natural" v="hill" />
		<tag k="place" v="locality" />
		<tag k="ssr:stedsnr" v="373896" />
	</node>
	<node id="-590549" lat="61.2052722207" lon="7.40296667325">
		<tag k="alt_name" v="Lusahandalen" />
		<tag k="name" v="Lusahamndalen" />
		<tag k="natural" v="valley" />
		<tag k="place" v="locality" />
		<tag k="ssr:stedsnr" v="373333" />
	</node>
	<node id="-590548" lat="61.2035499994" lon="7.41315832823">
		<tag k="name" v="Asaldalen" />
		<tag k="natural" v="valley" />
		<tag k="place" v="locality" />
		<tag k="ssr:stedsnr" v="373332" />
	</node>
	<node id="-590547" lat="61.3950055563" lon="8.02973610472">
		<tag k="name" v="Raudnibba" />
		<tag k="natural" v="hill" />
		<tag k="place" v="locality" />
		<tag k="ssr:stedsnr" v="372993" />
	</node>
	<node id="-590546" lat="61.3959694432" lon="8.07127500825">
		<tag k="fixme" v="consider natural=peak for the most distinct mountains in the district" />
		<tag k="name" v="Stølsnostinden" />
		<tag k="natural" v="hill" />
		<tag k="place" v="locality" />
		<tag k="ssr:stedsnr" v="372990" />
	</node>
	<node id="-590541" lat="61.2607916644" lon="7.62338887998">
		<tag k="fixme" v="consider natural=peak for the most distinct mountains in the district" />
		<tag k="name" v="Bjørnaholten" />
		<tag k="natural" v="hill" />
		<tag k="place" v="locality" />
		<tag k="ssr:stedsnr" v="372598" />
	</node>
	<node id="-590540" lat="61.2575361098" lon="7.57850832451">
		<tag k="name" v="Bordhaug" />
		<tag k="natural" v="hill" />
		<tag k="place" v="locality" />
		<tag k="ssr:stedsnr" v="372595" />
	</node>
	<node id="-590538" lat="61.3354388889" lon="7.91718889489">
		<tag k="alt_name" v="Skjenarhaugane" />
		<tag k="name" v="Skjenarhaugen" />
		<tag k="natural" v="slope" />
		<tag k="place" v="locality" />
		<tag k="ssr:stedsnr" v="371944" />
	</node>
	<node id="-590537" lat="61.3374944463" lon="8.04452777741">
		<tag k="name" v="Hjelledalshòlene" />
		<tag k="natural" v="valley" />
		<tag k="place" v="locality" />
		<tag k="ssr:stedsnr" v="371940" />
	</node>
	<node id="-590535" lat="61.3004222233" lon="7.80301666922">
		<tag k="name" v="Breiskredi" />
		<tag k="natural" v="slope" />
		<tag k="place" v="locality" />
		<tag k="ssr:stedsnr" v="371924" />
	</node>
	<node id="-590533" lat="61.4055944409" lon="7.96057500347">
		<tag k="name" v="Gjerdesteigen" />
		<tag k="natural" v="slope" />
		<tag k="place" v="locality" />
		<tag k="ssr:stedsnr" v="371982" />
	</node>
	<node id="-590532" lat="61.2971249966" lon="7.92879444149">
		<tag k="name" v="Kvanntjørnlii" />
		<tag k="natural" v="slope" />
		<tag k="place" v="locality" />
		<tag k="ssr:stedsnr" v="371899" />
	</node>
	<node id="-590530" lat="61.4235833315" lon="8.12992222869">
		<tag k="name" v="Uradalsbandet" />
		<tag k="natural" v="valley" />
		<tag k="place" v="locality" />
		<tag k="ssr:stedsnr" v="371843" />
	</node>
	<node id="-590522" lat="61.3290666692" lon="7.81681666015">
		<tag k="name" v="Bjørnebakkane" />
		<tag k="natural" v="slope" />
		<tag k="place" v="locality" />
		<tag k="ssr:stedsnr" v="350995" />
	</node>
	<node id="-590518" lat="61.2372361068" lon="7.5481638837">
		<tag k="name" v="Kjeldehaugen" />
		<tag k="natural" v="hill" />
		<tag k="place" v="locality" />
		<tag k="ssr:stedsnr" v="350495" />
	</node>
	<node id="-590517" lat="61.3902749977" lon="7.96911944248">
		<tag k="name" v="Strupane" />
		<tag k="natural" v="hill" />
		<tag k="place" v="locality" />
		<tag k="ssr:stedsnr" v="350491" />
	</node>
	<node id="-590516" lat="61.2226805598" lon="7.52892777328">
		<tag k="name" v="Legdene" />
		<tag k="natural" v="slope" />
		<tag k="place" v="locality" />
		<tag k="ssr:stedsnr" v="350478" />
	</node>
	<node id="-590515" lat="61.3371750008" lon="7.76627222948">
		<tag k="name" v="Haugen" />
		<tag k="natural" v="hill" />
		<tag k="place" v="locality" />
		<tag k="ssr:stedsnr" v="350894" />
	</node>
	<node id="-590514" lat="61.2394749964" lon="7.691380553">
		<tag k="name" v="Migangjel" />
		<tag k="natural" v="gorge" />
		<tag k="ssr:stedsnr" v="350210" />
	</node>
	<node id="-590513" lat="61.2467361152" lon="7.70600833193">
		<tag k="name" v="Volleskredene" />
		<tag k="natural" v="valley" />
		<tag k="place" v="locality" />
		<tag k="ssr:stedsnr" v="350205" />
	</node>
	<node id="-590512" lat="61.1858916628" lon="7.54966944646">
		<tag k="fixme" v="consider natural=peak for the most distinct mountains in the district" />
		<tag k="name" v="Breskredhalsen" />
		<tag k="natural" v="hill" />
		<tag k="place" v="locality" />
		<tag k="ssr:stedsnr" v="350333" />
	</node>
	<node id="-590511" lat="61.2490277804" lon="7.59516665983">
		<tag k="name" v="Hesjadalen" />
		<tag k="natural" v="valley" />
		<tag k="place" v="locality" />
		<tag k="ssr:stedsnr" v="349542" />
	</node>
	<node id="-590510" lat="61.2531777778" lon="7.6314055506">
		<tag k="name" v="Hagaskreda" />
		<tag k="natural" v="valley" />
		<tag k="place" v="locality" />
		<tag k="ssr:stedsnr" v="349413" />
	</node>
	<node id="-590508" lat="61.2608833374" lon="7.72358611559">
		<tag k="name" v="Lindvikbakken" />
		<tag k="natural" v="slope" />
		<tag k="place" v="locality" />
		<tag k="ssr:stedsnr" v="349188" />
	</node>
	<node id="-590507" lat="61.2534166693" lon="7.72485833224">
		<tag k="name" v="Strandagjerdet" />
		<tag k="natural" v="slope" />
		<tag k="place" v="locality" />
		<tag k="ssr:stedsnr" v="349183" />
	</node>
	<node id="-590506" lat="61.3944499982" lon="7.92868889437">
		<tag k="name" v="Koddelhaughola" />
		<tag k="natural" v="valley" />
		<tag k="place" v="locality" />
		<tag k="ssr:stedsnr" v="348529" />
	</node>
	<node id="-590505" lat="61.3892194428" lon="7.93614999335">
		<tag k="name" v="Klumra" />
		<tag k="natural" v="ridge" />
		<tag k="place" v="locality" />
		<tag k="ssr:stedsnr" v="348525" />
	</node>
	<node id="-590504" lat="61.191430557" lon="7.64192778131">
		<tag k="fixme" v="consider natural=peak for the most distinct mountains in the district" />
		<tag k="name" v="Drognekleivholten" />
		<tag k="natural" v="hill" />
		<tag k="place" v="locality" />
		<tag k="ssr:stedsnr" v="313300" />
	</node>
	<node id="-590501" lat="61.184291666" lon="7.59272500222">
		<tag k="fixme" v="consider natural=peak for the most distinct mountains in the district" />
		<tag k="name" v="Hornet" />
		<tag k="natural" v="hill" />
		<tag k="place" v="locality" />
		<tag k="ssr:stedsnr" v="313284" />
	</node>
	<node id="-590500" lat="61.2388999978" lon="7.67971665987">
		<tag k="fixme" v="consider natural=peak for the most distinct mountains in the district" />
		<tag k="name" v="Dokki" />
		<tag k="natural" v="hill" />
		<tag k="place" v="locality" />
		<tag k="ssr:stedsnr" v="313345" />
	</node>
	<node id="-590499" lat="61.2152055593" lon="7.44673611718">
		<tag k="name" v="Bolletjørndalen" />
		<tag k="natural" v="valley" />
		<tag k="place" v="locality" />
		<tag k="ssr:stedsnr" v="313339" />
	</node>
	<node id="-590498" lat="61.1659500036" lon="7.81451110754">
		<tag k="fixme" v="consider natural=peak for the most distinct mountains in the district" />
		<tag k="name" v="Øvre Tverrberget" />
		<tag k="natural" v="hill" />
		<tag k="place" v="locality" />
		<tag k="ssr:stedsnr" v="312881" />
	</node>
	<node id="-590497" lat="61.3883305537" lon="7.84510554674">
		<tag k="fixme" v="consider natural=peak for the most distinct mountains in the district" />
		<tag k="name" v="Gravdalsryggen" />
		<tag k="natural" v="hill" />
		<tag k="place" v="locality" />
		<tag k="ssr:stedsnr" v="311997" />
	</node>
	<node id="-590495" lat="61.3590611073" lon="8.00401388596">
		<tag k="fixme" v="consider natural=peak for the most distinct mountains in the district" />
		<tag k="name" v="Øytjørnnosi" />
		<tag k="natural" v="hill" />
		<tag k="place" v="locality" />
		<tag k="ssr:stedsnr" v="311969" />
	</node>
	<node id="-590491" lat="61.2856777739" lon="8.03537500931">
		<tag k="fixme" v="consider natural=peak for the most distinct mountains in the district" />
		<tag k="name" v="Søre-Knipen" />
		<tag k="natural" v="hill" />
		<tag k="place" v="locality" />
		<tag k="ssr:stedsnr" v="311923" />
	</node>
	<node id="-590489" lat="61.3688791248" lon="8.09823075765">
		<tag k="fixme" v="consider natural=peak for the most distinct mountains in the district" />
		<tag k="name" v="Hjelledalstinden" />
		<tag k="natural" v="hill" />
		<tag k="place" v="locality" />
		<tag k="ssr:stedsnr" v="311855" />
	</node>
	<node id="-590487" lat="61.3152611116" lon="8.13703055718">
		<tag k="fixme" v="consider natural=peak for the most distinct mountains in the district" />
		<tag k="name" v="Tyineggi" />
		<tag k="natural" v="hill" />
		<tag k="place" v="locality" />
		<tag k="ssr:stedsnr" v="311833" />
	</node>
	<node id="-590485" lat="61.3901416642" lon="7.70758888315">
		<tag k="fixme" v="consider natural=peak for the most distinct mountains in the district" />
		<tag k="name" v="Stokkesetsalen" />
		<tag k="natural" v="hill" />
		<tag k="place" v="locality" />
		<tag k="ssr:stedsnr" v="311708" />
	</node>
	<node id="-590483" lat="61.3127361125" lon="7.5136888809">
		<tag k="fixme" v="consider natural=peak for the most distinct mountains in the district" />
		<tag k="name" v="Ingebjørgsfjellet" />
		<tag k="natural" v="hill" />
		<tag k="place" v="locality" />
		<tag k="ssr:stedsnr" v="311646" />
	</node>
	<node id="-590482" lat="61.3127073019" lon="7.69955556042">
		<tag k="fixme" v="consider natural=peak for the most distinct mountains in the district" />
		<tag k="name" v="Hovden" />
		<tag k="natural" v="hill" />
		<tag k="place" v="locality" />
		<tag k="ssr:stedsnr" v="311639" />
	</node>
	<node id="-590481" lat="61.2395138867" lon="7.5147416699">
		<tag k="name" v="Ljoteli" />
		<tag k="natural" v="slope" />
		<tag k="place" v="locality" />
		<tag k="ssr:stedsnr" v="311623" />
	</node>
	<node id="-590479" lat="61.4133833338" lon="7.91643889109">
		<tag k="fixme" v="consider natural=peak for the most distinct mountains in the district" />
		<tag k="name" v="Stølsnosi" />
		<tag k="natural" v="hill" />
		<tag k="place" v="locality" />
		<tag k="ssr:stedsnr" v="311558" />
	</node>
	<node id="-590478" lat="61.4457499977" lon="7.85083889402">
		<tag k="fixme" v="consider natural=peak for the most distinct mountains in the district" />
		<tag k="name" v="Midtmaradalstindane" />
		<tag k="natural" v="hill" />
		<tag k="place" v="locality" />
		<tag k="ssr:stedsnr" v="311551" />
	</node>
	<node id="-590474" lat="61.1913361145" lon="7.71088332515">
		<tag k="fixme" v="consider natural=peak for the most distinct mountains in the district" />
		<tag k="name" v="Munkenosi" />
		<tag k="natural" v="hill" />
		<tag k="place" v="locality" />
		<tag k="ssr:stedsnr" v="192353" />
	</node>
	<node id="-590471" lat="61.1910777744" lon="7.8724416711">
		<tag k="fixme" v="consider natural=peak for the most distinct mountains in the district" />
		<tag k="name" v="Fosseken" />
		<tag k="natural" v="hill" />
		<tag k="place" v="locality" />
		<tag k="ssr:stedsnr" v="191862" />
	</node>
	<node id="-590470" lat="61.2291361073" lon="7.55948611898">
		<tag k="name" v="Tunga" />
		<tag k="place" v="locality" />
		<tag k="ssr:stedsnr" v="191295" />
	</node>
	<node id="-590467" lat="61.3782583296" lon="7.8669722207">
		<tag k="name" v="Slufsedalen" />
		<tag k="natural" v="valley" />
		<tag k="place" v="locality" />
		<tag k="ssr:stedsnr" v="190994" />
	</node>
	<node id="-590465" lat="61.3740555548" lon="8.04253332606">
		<tag k="name" v="Store Sandhaugen" />
		<tag k="natural" v="hill" />
		<tag k="place" v="locality" />
		<tag k="ssr:stedsnr" v="190975" />
	</node>
	<node id="-590464" lat="61.308499996" lon="7.85584999905">
		<tag k="name" v="Ljoteli" />
		<tag k="natural" v="slope" />
		<tag k="place" v="locality" />
		<tag k="ssr:stedsnr" v="190925" />
	</node>
	<node id="-590463" lat="61.3122444415" lon="7.87438333077">
		<tag k="name" v="Moadalen" />
		<tag k="natural" v="valley" />
		<tag k="place" v="locality" />
		<tag k="ssr:stedsnr" v="190920" />
	</node>
	<node id="-590461" lat="61.2817250014" lon="7.8042277766">
		<tag k="fixme" v="consider natural=peak for the most distinct mountains in the district" />
		<tag k="name" v="Vardenosi" />
		<tag k="natural" v="hill" />
		<tag k="place" v="locality" />
		<tag k="ssr:stedsnr" v="190914" />
	</node>
	<node id="-590458" lat="61.3090888868" lon="7.66302777692">
		<tag k="name" v="Feningdalen" />
		<tag k="natural" v="valley" />
		<tag k="place" v="locality" />
		<tag k="ssr:stedsnr" v="190601" />
	</node>
	<node id="-590452" lat="61.3359833321" lon="7.95322500501">
		<tag k="name" v="Hovden" />
		<tag k="natural" v="hill" />
		<tag k="place" v="locality" />
		<tag k="ssr:stedsnr" v="189941" />
	</node>
	<node id="-590450" lat="61.3373916632" lon="8.0759249927">
		<tag k="fixme" v="consider natural=peak for the most distinct mountains in the district" />
		<tag k="name" v="Raudenibba" />
		<tag k="natural" v="hill" />
		<tag k="place" v="locality" />
		<tag k="ssr:stedsnr" v="189932" />
	</node>
	<node id="-590448" lat="61.3274138928" lon="7.8034250083">
		<tag k="name" v="Ålmennhagjuvet" />
		<tag k="natural" v="valley" />
		<tag k="place" v="locality" />
		<tag k="ssr:stedsnr" v="189916" />
	</node>
	<node id="-590447" lat="61.426758329" lon="8.14999444991">
		<tag k="fixme" v="consider natural=peak for the most distinct mountains in the district" />
		<tag k="name" v="Uranostinden" />
		<tag k="natural" v="hill" />
		<tag k="ssr:stedsnr" v="189831" />
	</node>
	<node id="-590446" lat="61.4058110063" lon="8.1112343981">
		<tag k="name" v="Smoget" />
		<tag k="natural" v="valley" />
		<tag k="place" v="locality" />
		<tag k="ssr:stedsnr" v="189820" />
	</node>
	<node id="-590443" lat="61.4327833306" lon="7.72958055813">
		<tag k="name" v="Berdalsbandet" />
		<tag k="natural" v="valley" />
		<tag k="place" v="locality" />
		<tag k="ssr:stedsnr" v="189470" />
	</node>
	<node id="-590439" lat="61.3324694482" lon="7.82489167074">
		<tag k="name" v="Tronteigjuvet" />
		<tag k="natural" v="gorge" />
		<tag k="ssr:stedsnr" v="168985" />
	</node>
	<node id="-590438" lat="61.3292138852" lon="7.87634166125">
		<tag k="name" v="Merkeskamben" />
		<tag k="natural" v="ridge" />
		<tag k="place" v="locality" />
		<tag k="ssr:stedsnr" v="168951" />
	</node>
	<node id="-590436" lat="61.3636583293" lon="7.8714583325">
		<tag k="name" v="Slufsedalsli" />
		<tag k="natural" v="slope" />
		<tag k="place" v="locality" />
		<tag k="ssr:stedsnr" v="168840" />
	</node>
	<node id="-590434" lat="61.2035305545" lon="7.64721945145">
		<tag k="name" v="Haugali" />
		<tag k="natural" v="slope" />
		<tag k="place" v="locality" />
		<tag k="ssr:stedsnr" v="168290" />
	</node>
	<node id="-590430" lat="61.2315388922" lon="7.72145832975">
		<tag k="fixme" v="consider natural=peak for the most distinct mountains in the district" />
		<tag k="name" v="Finnsåsen" />
		<tag k="natural" v="hill" />
		<tag k="place" v="locality" />
		<tag k="ssr:stedsnr" v="168185" />
	</node>
	<node id="-590428" lat="61.2373916684" lon="7.73662778519">
		<tag k="name" v="Kyrefosskamben" />
		<tag k="natural" v="hill" />
		<tag k="place" v="locality" />
		<tag k="ssr:stedsnr" v="168037" />
	</node>
	<node id="-590427" lat="61.2462833306" lon="7.56709167272">
		<tag k="name" v="Bråtahamrane" />
		<tag k="natural" v="hill" />
		<tag k="place" v="locality" />
		<tag k="ssr:stedsnr" v="167535" />
	</node>
	<node id="-590425" lat="61.382638886" lon="7.74390554761">
		<tag k="fixme" v="consider natural=peak for the most distinct mountains in the district" />
		<tag k="name" v="Grånosi" />
		<tag k="natural" v="hill" />
		<tag k="place" v="locality" />
		<tag k="ssr:stedsnr" v="131769" />
	</node>
	<node id="-590424" lat="61.3773444445" lon="7.68689444864">
		<tag k="name" v="Grøndalen" />
		<tag k="natural" v="valley" />
		<tag k="place" v="locality" />
		<tag k="ssr:stedsnr" v="131760" />
	</node>
	<node id="-590423" lat="61.1877750002" lon="7.52913610928">
		<tag k="fixme" v="consider natural=peak for the most distinct mountains in the district" />
		<tag k="name" v="Hyttehaugane" />
		<tag k="natural" v="hill" />
		<tag k="place" v="locality" />
		<tag k="ssr:stedsnr" v="131296" />
	</node>
	<node id="-590422" lat="61.1488277755" lon="7.47799999553">
		<tag k="name" v="Nosaskaret" />
		<tag k="natural" v="valley" />
		<tag k="place" v="locality" />
		<tag k="ssr:stedsnr" v="131295" />
	</node>
	<node id="-590420" lat="61.1603666705" lon="7.69898333947">
		<tag k="name" v="Odden" />
		<tag k="place" v="locality" />
		<tag k="ssr:stedsnr" v="131276" />
	</node>
	<node id="-590419" lat="61.1646749983" lon="7.63605833702">
		<tag k="fixme" v="consider natural=peak for the most distinct mountains in the district" />
		<tag k="name" v="Øvre Halsen" />
		<tag k="natural" v="hill" />
		<tag k="place" v="locality" />
		<tag k="ssr:stedsnr" v="131259" />
	</node>
	<node id="-590418" lat="61.127011113" lon="7.83165278352">
		<tag k="fixme" v="consider natural=peak for the most distinct mountains in the district" />
		<tag k="name" v="Kråkebergnosi" />
		<tag k="natural" v="hill" />
		<tag k="place" v="locality" />
		<tag k="ssr:stedsnr" v="130984" />
	</node>
	<node id="-590417" lat="61.1765916672" lon="7.75800554971">
		<tag k="name" v="Klypedalen" />
		<tag k="natural" v="valley" />
		<tag k="place" v="locality" />
		<tag k="ssr:stedsnr" v="130870" />
	</node>
	<node id="-590415" lat="61.3977222258" lon="7.95820277273">
		<tag k="alt_name" v="Styggegjeli" />
		<tag k="name" v="Styggegjelet" />
		<tag k="natural" v="gorge" />
		<tag k="ssr:stedsnr" v="129988" />
	</node>
	<node id="-590413" lat="61.3698555598" lon="8.00647777646">
		<tag k="alt_name" v="Morkakoldedalen" />
		<tag k="name" v="Morka-Koldedalen" />
		<tag k="natural" v="valley" />
		<tag k="place" v="locality" />
		<tag k="ssr:stedsnr" v="129981" />
	</node>
	<node id="-590411" lat="61.2749611104" lon="7.72981666664">
		<tag k="name" v="Hitaneshalsen" />
		<tag k="natural" v="hill" />
		<tag k="place" v="locality" />
		<tag k="ssr:stedsnr" v="129876" />
	</node>
	<node id="-590409" lat="61.2997222235" lon="7.57622777463">
		<tag k="name" v="Steindalen" />
		<tag k="natural" v="valley" />
		<tag k="place" v="locality" />
		<tag k="ssr:stedsnr" v="129594" />
	</node>
	<node id="-590407" lat="61.3006777792" lon="7.58956944598">
		<tag k="fixme" v="consider natural=peak for the most distinct mountains in the district" />
		<tag k="name" v="Steindalsnosi" />
		<tag k="natural" v="hill" />
		<tag k="place" v="locality" />
		<tag k="ssr:stedsnr" v="129591" />
	</node>
	<node id="-590406" lat="61.336850004" lon="7.66380554784">
		<tag k="fixme" v="consider natural=peak for the most distinct mountains in the district" />
		<tag k="name" v="Vardanosi" />
		<tag k="natural" v="hill" />
		<tag k="place" v="locality" />
		<tag k="ssr:stedsnr" v="129638" />
	</node>
	<node id="-590405" lat="61.2783138922" lon="7.69845554973">
		<tag k="name" v="Skaret" />
		<tag k="natural" v="valley" />
		<tag k="place" v="locality" />
		<tag k="ssr:stedsnr" v="129558" />
	</node>
	<node id="-590402" lat="61.3602027785" lon="7.95335277115">
		<tag k="name" v="Morkaskaret" />
		<tag k="natural" v="valley" />
		<tag k="place" v="locality" />
		<tag k="ssr:stedsnr" v="128945" />
	</node>
	<node id="-590400" lat="61.4013472178" lon="7.70399722122">
		<tag k="name" v="Kroken" />
		<tag k="place" v="locality" />
		<tag k="ssr:stedsnr" v="128687" />
	</node>
	<node id="-590399" lat="61.395372222" lon="7.67546388626">
		<tag k="name" v="Styggedalen" />
		<tag k="natural" v="valley" />
		<tag k="place" v="locality" />
		<tag k="ssr:stedsnr" v="128685" />
	</node>
	<node id="-590396" lat="61.3301916632" lon="7.81071944613">
		<tag k="name" v="Lisbetjuvet" />
		<tag k="natural" v="gorge" />
		<tag k="ssr:stedsnr" v="108997" />
	</node>
	<node id="-590393" lat="61.3178222179" lon="7.83827222543">
		<tag k="name" v="Åsane" />
		<tag k="natural" v="hill" />
		<tag k="place" v="locality" />
		<tag k="ssr:stedsnr" v="108985" />
	</node>
	<node id="-590392" lat="61.2893000007" lon="7.74071943715">
		<tag k="name" v="Øvstetunskorane" />
		<tag k="place" v="locality" />
		<tag k="ssr:stedsnr" v="108977" />
	</node>
	<node id="-590388" lat="61.2407694488" lon="7.53758333023">
		<tag k="name" v="Rundehaugen" />
		<tag k="natural" v="hill" />
		<tag k="place" v="locality" />
		<tag k="ssr:stedsnr" v="108550" />
	</node>
	<node id="-590386" lat="61.1925499986" lon="7.52186666504">
		<tag k="name" v="Storevampen" />
		<tag k="natural" v="hill" />
		<tag k="place" v="locality" />
		<tag k="ssr:stedsnr" v="108385" />
	</node>
	<node id="-590385" lat="61.1898000015" lon="7.51427499846">
		<tag k="name" v="Hardløypet" />
		<tag k="natural" v="slope" />
		<tag k="place" v="locality" />
		<tag k="ssr:stedsnr" v="108377" />
	</node>
	<node id="-590384" lat="61.1769472258" lon="7.50980277018">
		<tag k="fixme" v="consider natural=peak for the most distinct mountains in the district" />
		<tag k="name" v="Bermålsholten" />
		<tag k="natural" v="hill" />
		<tag k="place" v="locality" />
		<tag k="ssr:stedsnr" v="108374" />
	</node>
	<node id="-590379" lat="61.2157972184" lon="7.68575555596">
		<tag k="name" v="Torkjelsgjel" />
		<tag k="natural" v="gorge" />
		<tag k="ssr:stedsnr" v="108107" />
	</node>
	<node id="-590378" lat="61.2212694452" lon="7.70090833464">
		<tag k="name" v="Sjurskredi" />
		<tag k="natural" v="valley" />
		<tag k="place" v="locality" />
		<tag k="ssr:stedsnr" v="108082" />
	</node>
	<node id="-590375" lat="61.2684999996" lon="7.78041666942">
		<tag k="name" v="Haugen" />
		<tag k="natural" v="hill" />
		<tag k="place" v="locality" />
		<tag k="ssr:stedsnr" v="108026" />
	</node>
	<node id="-590374" lat="61.4267611121" lon="8.14999444918">
		<tag k="fixme" v="consider natural=peak for the most distinct mountains in the district" />
		<tag k="name" v="Uranostinden" />
		<tag k="natural" v="hill" />
		<tag k="ssr:stedsnr" v="107979" />
	</node>
	<node id="-590369" lat="61.2972333313" lon="7.81820278135">
		<tag k="name" v="Dugurdskaret" />
		<tag k="natural" v="valley" />
		<tag k="place" v="locality" />
		<tag k="ssr:stedsnr" v="108769" />
	</node>
	<node id="-590368" lat="61.3125277757" lon="7.81355555966">
		<tag k="name" v="Sandbakkane" />
		<tag k="natural" v="slope" />
		<tag k="place" v="locality" />
		<tag k="ssr:stedsnr" v="108765" />
	</node>
	<node id="-590362" lat="61.3842916645" lon="7.95003889601">
		<tag k="name" v="Hareløyptene" />
		<tag k="natural" v="valley" />
		<tag k="place" v="locality" />
		<tag k="ssr:stedsnr" v="69996" />
	</node>
	<node id="-590361" lat="61.3868166682" lon="7.99841388545">
		<tag k="name" v="Storebekkdalen" />
		<tag k="natural" v="valley" />
		<tag k="place" v="locality" />
		<tag k="ssr:stedsnr" v="69977" />
	</node>
	<node id="-590357" lat="61.2771944407" lon="8.06923054685">
		<tag k="fixme" v="consider natural=peak for the most distinct mountains in the district" />
		<tag k="name" v="Mannsbergi" />
		<tag k="natural" v="hill" />
		<tag k="place" v="locality" />
		<tag k="ssr:stedsnr" v="69890" />
	</node>
	<node id="-590356" lat="61.2854777757" lon="8.12016110982">
		<tag k="fixme" v="consider natural=peak for the most distinct mountains in the district" />
		<tag k="name" v="Buvassnosi" />
		<tag k="natural" v="hill" />
		<tag k="place" v="locality" />
		<tag k="ssr:stedsnr" v="69828" />
	</node>
	<node id="-590355" lat="61.4129055599" lon="7.69398055309">
		<tag k="name" v="Lovardalen" />
		<tag k="natural" v="valley" />
		<tag k="place" v="locality" />
		<tag k="ssr:stedsnr" v="69735" />
	</node>
	<node id="-590354" lat="61.4098750025" lon="7.87763610206">
		<tag k="fixme" v="consider natural=peak for the most distinct mountains in the district" />
		<tag k="name" v="Stølsmaradalsryggen" />
		<tag k="natural" v="hill" />
		<tag k="place" v="locality" />
		<tag k="ssr:stedsnr" v="68987" />
	</node>
	<node id="-590353" lat="61.4142194432" lon="8.04995555667">
		<tag k="name" v="Storegrunnen" />
		<tag k="place" v="locality" />
		<tag k="ssr:stedsnr" v="68985" />
	</node>
	<node id="-590352" lat="61.410713887" lon="8.0303361051">
		<tag k="name" v="Fleskedalen" />
		<tag k="natural" v="valley" />
		<tag k="place" v="locality" />
		<tag k="ssr:stedsnr" v="68984" />
	</node>
	<node id="-590351" lat="61.352786108" lon="7.72748888864">
		<tag k="fixme" v="consider natural=peak for the most distinct mountains in the district" />
		<tag k="name" v="Hyttefjellet" />
		<tag k="natural" v="hill" />
		<tag k="place" v="locality" />
		<tag k="ssr:stedsnr" v="68951" />
	</node>
	<node id="-590350" lat="61.3568527802" lon="7.78986666845">
		<tag k="name" v="Lægdenosi" />
		<tag k="natural" v="hill" />
		<tag k="place" v="locality" />
		<tag k="ssr:stedsnr" v="68949" />
	</node>
	<node id="-590349" lat="61.3387500038" lon="7.95783888403">
		<tag k="name" v="Hjelledalen" />
		<tag k="natural" v="valley" />
		<tag k="place" v="locality" />
		<tag k="ssr:stedsnr" v="68931" />
	</node>
	<node id="-590348" lat="61.3138000038" lon="7.76333888744">
		<tag k="name" v="Blåberg" />
		<tag k="natural" v="hill" />
		<tag k="place" v="locality" />
		<tag k="ssr:stedsnr" v="68923" />
	</node>
	<node id="-590345" lat="61.3972305573" lon="7.71118889437">
		<tag k="name" v="Johannanosi" />
		<tag k="natural" v="hill" />
		<tag k="place" v="locality" />
		<tag k="ssr:stedsnr" v="68727" />
	</node>
	<node id="-590343" lat="61.3643750033" lon="8.1136416645">
		<tag k="fixme" v="consider natural=peak for the most distinct mountains in the district" />
		<tag k="name" v="Koldedalstinden" />
		<tag k="natural" v="hill" />
		<tag k="place" v="locality" />
		<tag k="ssr:stedsnr" v="68824" />
	</node>
	<node id="-590341" lat="61.227452774" lon="7.73389722874">
		<tag k="name" v="Grøvene" />
		<tag k="natural" v="slope" />
		<tag k="place" v="locality" />
		<tag k="ssr:stedsnr" v="47975" />
	</node>
	<node id="-590340" lat="61.3388222267" lon="7.8677527812">
		<tag k="name" v="Storeskori" />
		<tag k="place" v="locality" />
		<tag k="ssr:stedsnr" v="47943" />
	</node>
	<node id="-590337" lat="61.2743472204" lon="7.77877221957">
		<tag k="name" v="Stakkstøet" />
		<tag k="natural" v="slope" />
		<tag k="place" v="locality" />
		<tag k="ssr:stedsnr" v="47891" />
	</node>
	<node id="-590335" lat="61.3110166674" lon="7.87333055184">
		<tag k="name" v="Nedreløhagen" />
		<tag k="natural" v="slope" />
		<tag k="place" v="locality" />
		<tag k="ssr:stedsnr" v="47857" />
	</node>
	<node id="-590334" lat="61.3146666709" lon="7.85669166983">
		<tag k="name" v="Mølsesvadokki" />
		<tag k="natural" v="hill" />
		<tag k="place" v="locality" />
		<tag k="ssr:stedsnr" v="47855" />
	</node>
	<node id="-590333" lat="61.3003138868" lon="7.80081945239">
		<tag k="name" v="Hanseskredi" />
		<tag k="natural" v="valley" />
		<tag k="place" v="locality" />
		<tag k="ssr:stedsnr" v="47771" />
	</node>
	<node id="-590332" lat="61.3114388862" lon="7.81213889068">
		<tag k="name" v="Mjøbakkane" />
		<tag k="natural" v="slope" />
		<tag k="place" v="locality" />
		<tag k="ssr:stedsnr" v="47768" />
	</node>
	<node id="-590329" lat="61.2194444409" lon="7.517011105">
		<tag k="name" v="Sotane" />
		<tag k="natural" v="hill" />
		<tag k="place" v="locality" />
		<tag k="ssr:stedsnr" v="47488" />
	</node>
	<node id="-590328" lat="61.2697166651" lon="7.57206667093">
		<tag k="name" v="Soleiberget" />
		<tag k="natural" v="hill" />
		<tag k="place" v="locality" />
		<tag k="ssr:stedsnr" v="47452" />
	</node>
	<node id="-590325" lat="61.2398555529" lon="7.72648611604">
		<tag k="name" v="Blikseskredene" />
		<tag k="natural" v="valley" />
		<tag k="place" v="locality" />
		<tag k="ssr:stedsnr" v="47201" />
	</node>
	<node id="-590324" lat="61.3005138856" lon="7.78701388391">
		<tag k="name" v="Endresvaet" />
		<tag k="natural" v="hill" />
		<tag k="place" v="locality" />
		<tag k="ssr:stedsnr" v="47095" />
	</node>
	<node id="-590323" lat="61.2432305539" lon="7.73214722108">
		<tag k="name" v="Kyrebakkskreda" />
		<tag k="natural" v="valley" />
		<tag k="place" v="locality" />
		<tag k="ssr:stedsnr" v="47031" />
	</node>
	<node id="-590322" lat="61.4018194437" lon="7.7137555622">
		<tag k="name" v="Mosahaugane" />
		<tag k="natural" v="hill" />
		<tag k="place" v="locality" />
		<tag k="ssr:stedsnr" v="46185" />
	</node>
	<node id="-590321" lat="61.3908472206" lon="7.95721388223">
		<tag k="name" v="Timrerenna" />
		<tag k="natural" v="hill" />
		<tag k="place" v="locality" />
		<tag k="ssr:stedsnr" v="45551" />
	</node>
	<node id="-590318" lat="61.4403083295" lon="7.87500832457">
		<tag k="fixme" v="consider natural=peak for the most distinct mountains in the district" />
		<tag k="name" v="Vetle Midtmaradalstinden" />
		<tag k="natural" v="hill" />
		<tag k="ssr:stedsnr" v="26451" />
	</node>
	<node id="-590317" lat="61.1469750026" lon="7.51433056452">
		<tag k="fixme" v="consider natural=peak for the most distinct mountains in the district" />
		<tag k="name" v="Tjørnahaugane" />
		<tag k="natural" v="hill" />
		<tag k="place" v="locality" />
		<tag k="ssr:stedsnr" v="10294" />
	</node>
	<node id="-590314" lat="61.1651527759" lon="7.69724166375">
		<tag k="name" v="Hellingane" />
		<tag k="natural" v="slope" />
		<tag k="place" v="locality" />
		<tag k="ssr:stedsnr" v="10313" />
	</node>
	<node id="-590313" lat="61.1620861081" lon="7.66456944156">
		<tag k="name" v="Skeisli" />
		<tag k="natural" v="slope" />
		<tag k="place" v="locality" />
		<tag k="ssr:stedsnr" v="10309" />
	</node>
	<node id="-590309" lat="61.2041500002" lon="7.66816111105">
		<tag k="fixme" v="consider natural=peak for the most distinct mountains in the district" />
		<tag k="name" v="Årdalsnosi" />
		<tag k="natural" v="hill" />
		<tag k="place" v="locality" />
		<tag k="ssr:stedsnr" v="9284" />
	</node>
	<node id="-590307" lat="61.2480388921" lon="7.49294444609">
		<tag k="name" v="Runde Haugen" />
		<tag k="natural" v="hill" />
		<tag k="place" v="locality" />
		<tag k="ssr:stedsnr" v="9347" />
	</node>
	<node id="-590306" lat="61.2471821154" lon="7.5630297021">
		<tag k="alt_name" v="Nevelshaugen" />
		<tag k="name" v="Nevrehaug" />
		<tag k="natural" v="hill" />
		<tag k="place" v="locality" />
		<tag k="ssr:stedsnr" v="9342" />
	</node>
	<node id="-590305" lat="61.2281499986" lon="7.55493333912">
		<tag k="alt_name" v="Offerdalen, indre" />
		<tag k="loc_name" v="Indre Ofredalen" />
		<tag k="name" v="Indre Offerdalen" />
		<tag k="natural" v="valley" />
		<tag k="place" v="locality" />
		<tag k="ssr:stedsnr" v="9341" />
	</node>
	<node id="-590304" lat="61.2252361075" lon="7.45966665922">
		<tag k="name" v="Tungenakkane" />
		<tag k="natural" v="ridge" />
		<tag k="place" v="locality" />
		<tag k="ssr:stedsnr" v="9337" />
	</node>
	<node id="-590302" lat="61.3003749997" lon="8.07776388298">
		<tag k="name" v="Tverrløyptene" />
		<tag k="natural" v="valley" />
		<tag k="place" v="locality" />
		<tag k="ssr:stedsnr" v="8899" />
	</node>
	<node id="-590297" lat="61.3912944411" lon="7.91267500398">
		<tag k="name" v="Kollhaug" />
		<tag k="natural" v="hill" />
		<tag k="place" v="locality" />
		<tag k="ssr:stedsnr" v="8997" />
	</node>
	<node id="-590296" lat="61.3650944407" lon="7.90941111446">
		<tag k="alt_name" v="Hillerlihalsen" />
		<tag k="name" v="Hellerlihalsen" />
		<tag k="natural" v="slope" />
		<tag k="place" v="locality" />
		<tag k="ssr:stedsnr" v="8985" />
	</node>
	<node id="-590295" lat="61.3656555598" lon="7.83738611898">
		<tag k="name" v="Gravdalen" />
		<tag k="natural" v="valley" />
		<tag k="place" v="locality" />
		<tag k="ssr:stedsnr" v="8983" />
	</node>
	<node id="-590294" lat="61.3075000019" lon="8.08433055603">
		<tag k="fixme" v="consider natural=peak for the most distinct mountains in the district" />
		<tag k="name" v="Tverreggi" />
		<tag k="natural" v="hill" />
		<tag k="place" v="locality" />
		<tag k="ssr:stedsnr" v="8924" />
	</node>
	<node id="-590291" lat="61.277227776" lon="7.63274444738">
		<tag k="fixme" v="consider natural=peak for the most distinct mountains in the district" />
		<tag k="name" v="Skrednosi" />
		<tag k="natural" v="hill" />
		<tag k="place" v="locality" />
		<tag k="ssr:stedsnr" v="8592" />
	</node>
	<node id="-590289" lat="61.4437472255" lon="7.67887222633">
		<tag k="fixme" v="consider natural=peak for the most distinct mountains in the district" />
		<tag k="name" v="Hestedalsfjellet" />
		<tag k="natural" v="hill" />
		<tag k="place" v="locality" />
		<tag k="ssr:stedsnr" v="8767" />
	</node>
	<node id="-590288" lat="61.3463249998" lon="7.88284444348">
		<tag k="name" v="Hjellegaldane" />
		<tag k="natural" v="slope" />
		<tag k="place" v="locality" />
		<tag k="ssr:stedsnr" v="7967" />
	</node>
	<node id="-590286" lat="61.3334250032" lon="7.80031388291">
		<tag k="fixme" v="consider natural=peak for the most distinct mountains in the district" />
		<tag k="name" v="Botnanosi" />
		<tag k="natural" v="hill" />
		<tag k="place" v="locality" />
		<tag k="ssr:stedsnr" v="7955" />
	</node>
	<node id="-590282" lat="61.2532916675" lon="7.7801833343">
		<tag k="name" v="Hest" />
		<tag k="natural" v="hill" />
		<tag k="place" v="locality" />
		<tag k="ssr:stedsnr" v="7870" />
	</node>
	<node id="-590280" lat="61.3981499992" lon="8.11015832967">
		<tag k="fixme" v="consider natural=peak for the most distinct mountains in the district" />
		<tag k="name" v="Snøggeknosi" />
		<tag k="natural" v="hill" />
		<tag k="place" v="locality" />
		<tag k="ssr:stedsnr" v="7829" />
	</node>
	<node id="-590279" lat="61.4544444468" lon="7.90087500354">
		<tag k="fixme" v="consider natural=peak for the most distinct mountains in the district" />
		<tag k="name" v="Jernskartinden" />
		<tag k="natural" v="hill" />
		<tag k="place" v="locality" />
		<tag k="ssr:stedsnr" v="7494" />
	</node>
	<node id="-590278" lat="61.1647750033" lon="7.7447000078">
		<tag k="name" v="Urutlekråi" />
		<tag k="natural" v="valley" />
		<tag k="place" v="locality" />
		<tag k="ssr:stedsnr" v="919868" />
	</node>
	<node id="-590275" lat="61.2194138878" lon="7.65852499585">
		<tag k="alt_name" v="Koldenosi" />
		<tag k="fixme" v="consider natural=peak for the most distinct mountains in the district" />
		<tag k="name" v="Kolnosi" />
		<tag k="natural" v="hill" />
		<tag k="place" v="locality" />
		<tag k="ssr:stedsnr" v="919303" />
	</node>
	<node id="-590273" lat="61.4328305561" lon="7.71285278432">
		<tag k="fixme" v="consider natural=peak for the most distinct mountains in the district" />
		<tag k="name" v="Lovardalsnosi" />
		<tag k="natural" v="hill" />
		<tag k="place" v="locality" />
		<tag k="ssr:stedsnr" v="918803" />
	</node>
	<node id="-590272" lat="61.3151777807" lon="7.82828333983">
		<tag k="name" v="Granden" />
		<tag k="place" v="locality" />
		<tag k="ssr:stedsnr" v="897783" />
	</node>
	<node id="-590269" lat="61.2481361099" lon="7.89071111429">
		<tag k="fixme" v="consider natural=peak for the most distinct mountains in the district" />
		<tag k="name" v="Skåpnosi" />
		<tag k="natural" v="hill" />
		<tag k="place" v="locality" />
		<tag k="ssr:stedsnr" v="859905" />
	</node>
	<node id="-590266" lat="61.2106249997" lon="7.47767499849">
		<tag k="fixme" v="consider natural=peak for the most distinct mountains in the district" />
		<tag k="name" v="Løypet" />
		<tag k="natural" v="hill" />
		<tag k="place" v="locality" />
		<tag k="ssr:stedsnr" v="859313" />
	</node>
	<node id="-590265" lat="61.2143055601" lon="7.69231111738">
		<tag k="name" v="Kvannegjel" />
		<tag k="natural" v="valley" />
		<tag k="place" v="locality" />
		<tag k="ssr:stedsnr" v="859281" />
	</node>
	<node id="-590259" lat="61.2890722211" lon="7.84758332553">
		<tag k="name" v="Rausdalen" />
		<tag k="natural" v="valley" />
		<tag k="place" v="locality" />
		<tag k="ssr:stedsnr" v="858903" />
	</node>
	<node id="-590258" lat="61.4235083321" lon="7.68904167265">
		<tag k="fixme" v="consider natural=peak for the most distinct mountains in the district" />
		<tag k="name" v="Korenosi" />
		<tag k="natural" v="hill" />
		<tag k="place" v="locality" />
		<tag k="ssr:stedsnr" v="858717" />
	</node>
	<node id="-590256" lat="61.3013111082" lon="7.62669166149">
		<tag k="fixme" v="consider natural=peak for the most distinct mountains in the district" />
		<tag k="name" v="Trongenosi" />
		<tag k="natural" v="hill" />
		<tag k="place" v="locality" />
		<tag k="ssr:stedsnr" v="858615" />
	</node>
	<node id="-590249" lat="61.2940499967" lon="7.73603055381">
		<tag k="name" v="Byttejuv" />
		<tag k="natural" v="gorge" />
		<tag k="ssr:stedsnr" v="857916" />
	</node>
	<node id="-590248" lat="61.3147749993" lon="7.8330000011">
		<tag k="name" v="Leirdalen" />
		<tag k="natural" v="valley" />
		<tag k="place" v="locality" />
		<tag k="ssr:stedsnr" v="857908" />
	</node>
	<node id="-590246" lat="61.408800001" lon="7.90765278661">
		<tag k="alt_name" v="Maradalen" />
		<tag k="name" v="Stølsmaradalen" />
		<tag k="natural" v="valley" />
		<tag k="place" v="locality" />
		<tag k="ssr:stedsnr" v="857529" />
	</node>
	<node id="-590245" lat="61.3270583299" lon="7.7764611039">
		<tag k="name" v="Purkehaugen" />
		<tag k="natural" v="hill" />
		<tag k="place" v="locality" />
		<tag k="ssr:stedsnr" v="836924" />
	</node>
	<node id="-590243" lat="61.3114253809" lon="7.76416220135">
		<tag k="name" v="Skarpenord" />
		<tag k="natural" v="hill" />
		<tag k="place" v="locality" />
		<tag k="ssr:stedsnr" v="836911" />
	</node>
	<node id="-590242" lat="61.3005555594" lon="7.80909722307">
		<tag k="name" v="Stakkstøbakkane" />
		<tag k="natural" v="slope" />
		<tag k="place" v="locality" />
		<tag k="ssr:stedsnr" v="836774" />
	</node>
	<node id="-590240" lat="61.3036333297" lon="7.89698889236">
		<tag k="name" v="Skansen" />
		<tag k="natural" v="hill" />
		<tag k="place" v="locality" />
		<tag k="ssr:stedsnr" v="836858" />
	</node>
	<node id="-590239" lat="61.3482666663" lon="7.86993610654">
		<tag k="name" v="Evjeskredjuvet" />
		<tag k="natural" v="gorge" />
		<tag k="ssr:stedsnr" v="836810" />
	</node>
	<node id="-590238" lat="61.4186861128" lon="7.97717777078">
		<tag k="name" v="Kyrkjesteigen" />
		<tag k="natural" v="hill" />
		<tag k="place" v="locality" />
		<tag k="ssr:stedsnr" v="836454" />
	</node>
	<node id="-590237" lat="61.2535583363" lon="7.5733972215">
		<tag k="name" v="Rolandshjellen" />
		<tag k="place" v="locality" />
		<tag k="ssr:stedsnr" v="836420" />
	</node>
	<node id="-590236" lat="61.2411555594" lon="7.71691388939">
		<tag k="name" v="Rinden" />
		<tag k="natural" v="hill" />
		<tag k="place" v="locality" />
		<tag k="ssr:stedsnr" v="836195" />
	</node>
	<node id="-590235" lat="61.2451472193" lon="7.69094166441">
		<tag k="name" v="Gjerden" />
		<tag k="natural" v="valley" />
		<tag k="place" v="locality" />
		<tag k="ssr:stedsnr" v="836191" />
	</node>
	<node id="-590232" lat="61.2125277748" lon="7.65161944447">
		<tag k="name" v="Matkista" />
		<tag k="natural" v="slope" />
		<tag k="place" v="locality" />
		<tag k="ssr:stedsnr" v="835360" />
	</node>
	<node id="-590231" lat="61.3820861083" lon="7.97629721766">
		<tag k="name" v="Stølsnosi" />
		<tag k="natural" v="hill" />
		<tag k="place" v="locality" />
		<tag k="ssr:stedsnr" v="834554" />
	</node>
	<node id="-590227" lat="61.2381027737" lon="7.76657499263">
		<tag k="name" v="Kyrfoss" />
		<tag k="natural" v="hill" />
		<tag k="place" v="locality" />
		<tag k="ssr:stedsnr" v="798907" />
	</node>
	<node id="-590224" lat="61.3760138886" lon="8.02991943775">
		<tag k="name" v="Vetle Sandhaugen" />
		<tag k="natural" v="hill" />
		<tag k="place" v="locality" />
		<tag k="ssr:stedsnr" v="797983" />
	</node>
	<node id="-590223" lat="61.3677861148" lon="7.88030277149">
		<tag k="fixme" v="consider natural=peak for the most distinct mountains in the district" />
		<tag k="name" v="Fuglenosi" />
		<tag k="natural" v="hill" />
		<tag k="place" v="locality" />
		<tag k="ssr:stedsnr" v="797977" />
	</node>
	<node id="-590222" lat="61.3889999967" lon="8.05532500204">
		<tag k="fixme" v="consider natural=peak for the most distinct mountains in the district" />
		<tag k="name" v="Stølsnosi" />
		<tag k="natural" v="hill" />
		<tag k="place" v="locality" />
		<tag k="ssr:stedsnr" v="797972" />
	</node>
	<node id="-590220" lat="61.4291111103" lon="7.6271527742">
		<tag k="name" v="Hyttedalen" />
		<tag k="natural" v="valley" />
		<tag k="place" v="locality" />
		<tag k="ssr:stedsnr" v="797755" />
	</node>
	<node id="-590216" lat="61.335583334" lon="8.09911388379">
		<tag k="name" v="Hjelledalssmoget" />
		<tag k="natural" v="valley" />
		<tag k="place" v="locality" />
		<tag k="ssr:stedsnr" v="796823" />
	</node>
	<node id="-590214" lat="61.2923750011" lon="7.55225833102">
		<tag k="name" v="Mjuken" />
		<tag k="natural" v="hill" />
		<tag k="place" v="locality" />
		<tag k="ssr:stedsnr" v="796619" />
	</node>
	<node id="-590213" lat="61.2901666638" lon="7.62572499527">
		<tag k="name" v="Storevarden" />
		<tag k="natural" v="hill" />
		<tag k="place" v="locality" />
		<tag k="ssr:stedsnr" v="796614" />
	</node>
	<node id="-590209" lat="61.2188555536" lon="7.52420556257">
		<tag k="name" v="Heggjedalen" />
		<tag k="natural" v="valley" />
		<tag k="place" v="locality" />
		<tag k="ssr:stedsnr" v="920321" />
	</node>
	<node id="-590206" lat="61.1770999969" lon="7.63917777688">
		<tag k="name" v="Vikadalen" />
		<tag k="natural" v="valley" />
		<tag k="place" v="locality" />
		<tag k="ssr:stedsnr" v="920312" />
	</node>
	<node id="-590205" lat="61.1595249959" lon="7.67090278347">
		<tag k="name" v="Hovlandsli" />
		<tag k="natural" v="slope" />
		<tag k="place" v="locality" />
		<tag k="ssr:stedsnr" v="920307" />
	</node>
	<node id="-590203" lat="61.131549998" lon="7.66986389784">
		<tag k="fixme" v="consider natural=peak for the most distinct mountains in the district" />
		<tag k="name" v="Skimlehovden" />
		<tag k="natural" v="hill" />
		<tag k="place" v="locality" />
		<tag k="ssr:stedsnr" v="920284" />
	</node>
	<node id="-590202" lat="61.1596055571" lon="7.65547500854">
		<tag k="name" v="Smørholeli" />
		<tag k="natural" v="slope" />
		<tag k="place" v="locality" />
		<tag k="ssr:stedsnr" v="920279" />
	</node>
	<node id="-590200" lat="61.2028055587" lon="7.91653610468">
		<tag k="fixme" v="consider natural=peak for the most distinct mountains in the district" />
		<tag k="name" v="Berdalseken" />
		<tag k="natural" v="hill" />
		<tag k="place" v="locality" />
		<tag k="ssr:stedsnr" v="919895" />
	</node>
	<node id="-590198" lat="61.3121916635" lon="7.72261666203">
		<tag k="alt_name" v="Nundalen" />
		<tag k="name" v="Nondalen" />
		<tag k="natural" v="valley" />
		<tag k="place" v="locality" />
		<tag k="ssr:stedsnr" v="918947" />
	</node>
	<node id="-590196" lat="61.4000555539" lon="7.97096944136">
		<tag k="name" v="Utladalen" />
		<tag k="natural" v="valley" />
		<tag k="place" v="locality" />
		<tag k="ssr:stedsnr" v="918981" />
	</node>
	<node id="-590195" lat="61.2984138903" lon="7.79185278173">
		<tag k="name" v="Naustebergi" />
		<tag k="natural" v="hill" />
		<tag k="place" v="locality" />
		<tag k="ssr:stedsnr" v="918938" />
	</node>
	<node id="-590193" lat="61.3142444458" lon="7.80007500795">
		<tag k="name" v="Ramneberg" />
		<tag k="natural" v="hill" />
		<tag k="place" v="locality" />
		<tag k="ssr:stedsnr" v="918931" />
	</node>
	<node id="-590191" lat="61.2825111104" lon="7.78458888803">
		<tag k="name" v="Geithusberget" />
		<tag k="natural" v="hill" />
		<tag k="place" v="locality" />
		<tag k="ssr:stedsnr" v="918920" />
	</node>
	<node id="-590184" lat="61.348763889" lon="7.72193056137">
		<tag k="name" v="Øylobekkdalen" />
		<tag k="natural" v="valley" />
		<tag k="place" v="locality" />
		<tag k="ssr:stedsnr" v="917946" />
	</node>
	<node id="-590179" lat="61.3082111069" lon="7.88250832488">
		<tag k="name" v="Vinkjelda" />
		<tag k="natural" v="gorge" />
		<tag k="ssr:stedsnr" v="775861" />
	</node>
	<node id="-590178" lat="61.3122694486" lon="7.85560277451">
		<tag k="name" v="Brattekleivane" />
		<tag k="natural" v="valley" />
		<tag k="place" v="locality" />
		<tag k="ssr:stedsnr" v="775859" />
	</node>
	<node id="-590176" lat="61.3708888924" lon="7.94223611693">
		<tag k="name" v="Raunebaset" />
		<tag k="place" v="locality" />
		<tag k="ssr:stedsnr" v="775711" />
	</node>
	<node id="-590175" lat="61.2168472232" lon="7.52841666172">
		<tag k="name" v="Ospedokki" />
		<tag k="natural" v="slope" />
		<tag k="place" v="locality" />
		<tag k="ssr:stedsnr" v="775477" />
	</node>
	<node id="-590173" lat="61.1706000004" lon="7.65210832636">
		<tag k="name" v="Storegalden" />
		<tag k="natural" v="ridge" />
		<tag k="place" v="locality" />
		<tag k="ssr:stedsnr" v="775254" />
	</node>
	<node id="-590172" lat="61.219075" lon="7.69671667531">
		<tag k="name" v="Simegen" />
		<tag k="natural" v="hill" />
		<tag k="place" v="locality" />
		<tag k="ssr:stedsnr" v="775078" />
	</node>
	<node id="-590170" lat="61.3370416623" lon="7.87282778544">
		<tag k="name" v="Flisesletti" />
		<tag k="place" v="locality" />
		<tag k="ssr:stedsnr" v="897940" />
	</node>
	<node id="-590169" lat="61.3286333319" lon="7.76403055117">
		<tag k="name" v="Torpesletta" />
		<tag k="place" v="locality" />
		<tag k="ssr:stedsnr" v="897915" />
	</node>
	<node id="-590167" lat="61.3270444427" lon="7.84246944713">
		<tag k="name" v="Kodjestein" />
		<tag k="natural" v="hill" />
		<tag k="place" v="locality" />
		<tag k="ssr:stedsnr" v="897987" />
	</node>
	<node id="-590166" lat="61.3056583304" lon="7.81644721973">
		<tag k="name" v="Vesbakken" />
		<tag k="natural" v="slope" />
		<tag k="place" v="locality" />
		<tag k="ssr:stedsnr" v="897742" />
	</node>
	<node id="-590165" lat="61.3133805531" lon="7.79206388603">
		<tag k="name" v="Lønevadskori" />
		<tag k="place" v="locality" />
		<tag k="ssr:stedsnr" v="897734" />
	</node>
	<node id="-590163" lat="61.2504416628" lon="7.53603611904">
		<tag k="name" v="Rupedalshaugane" />
		<tag k="natural" v="hill" />
		<tag k="place" v="locality" />
		<tag k="ssr:stedsnr" v="897498" />
	</node>
	<node id="-590159" lat="61.2110194442" lon="7.51351666877">
		<tag k="name" v="Markeshammaren" />
		<tag k="natural" v="hill" />
		<tag k="place" v="locality" />
		<tag k="ssr:stedsnr" v="896408" />
	</node>
	<node id="-590158" lat="61.1812499999" lon="7.63619721788">
		<tag k="fixme" v="consider natural=peak for the most distinct mountains in the district" />
		<tag k="name" v="Vikahovden" />
		<tag k="natural" v="hill" />
		<tag k="place" v="locality" />
		<tag k="ssr:stedsnr" v="896324" />
	</node>
	<node id="-590155" lat="61.2664416703" lon="7.71608611728">
		<tag k="name" v="Nakken" />
		<tag k="natural" v="ridge" />
		<tag k="place" v="locality" />
		<tag k="ssr:stedsnr" v="896178" />
	</node>
	<node id="-590152" lat="61.3037027761" lon="7.90464166542">
		<tag k="name" v="Engesete" />
		<tag k="natural" v="slope" />
		<tag k="place" v="locality" />
		<tag k="ssr:stedsnr" v="715845" />
	</node>
	<node id="-590151" lat="61.3648472245" lon="7.90478610559">
		<tag k="name" v="Hellerlii" />
		<tag k="natural" v="slope" />
		<tag k="place" v="locality" />
		<tag k="ssr:stedsnr" v="715823" />
	</node>
	<node id="-590149" lat="61.3263305582" lon="7.83455555484">
		<tag k="name" v="Tronteigbergi" />
		<tag k="natural" v="hill" />
		<tag k="place" v="locality" />
		<tag k="ssr:stedsnr" v="714988" />
	</node>
	<node id="-590148" lat="61.414122224" lon="7.98364167473">
		<tag k="name" v="Baklii" />
		<tag k="natural" v="slope" />
		<tag k="place" v="locality" />
		<tag k="ssr:stedsnr" v="714584" />
	</node>
	<node id="-590141" lat="61.2449944468" lon="7.76910000249">
		<tag k="name" v="Losnosi" />
		<tag k="natural" v="hill" />
		<tag k="place" v="locality" />
		<tag k="ssr:stedsnr" v="677928" />
	</node>
	<node id="-590139" lat="61.1412555518" lon="7.69217500555">
		<tag k="name" v="Dyrebotnen" />
		<tag k="natural" v="valley" />
		<tag k="place" v="locality" />
		<tag k="ssr:stedsnr" v="677269" />
	</node>
	<node id="-590136" lat="61.1650222238" lon="7.80489721929">
		<tag k="name" v="Løypti" />
		<tag k="natural" v="hill" />
		<tag k="place" v="locality" />
		<tag k="ssr:stedsnr" v="676870" />
	</node>
	<node id="-590131" lat="61.3419472243" lon="8.02807500399">
		<tag k="name" v="Hjelledalsholene" />
		<tag k="natural" v="valley" />
		<tag k="place" v="locality" />
		<tag k="ssr:stedsnr" v="675953" />
	</node>
	<node id="-590128" lat="61.2825555575" lon="7.72710832436">
		<tag k="name" v="Øvre Midvaldskreda" />
		<tag k="natural" v="gorge" />
		<tag k="ssr:stedsnr" v="675917" />
	</node>
	<node id="-590127" lat="61.273352781" lon="7.83474445275">
		<tag k="fixme" v="consider natural=peak for the most distinct mountains in the district" />
		<tag k="name" v="Eldegardsnosi" />
		<tag k="natural" v="hill" />
		<tag k="place" v="locality" />
		<tag k="ssr:stedsnr" v="675914" />
	</node>
	<node id="-590126" lat="61.3274027743" lon="8.101574999">
		<tag k="fixme" v="consider natural=peak for the most distinct mountains in the district" />
		<tag k="name" v="Flateggi" />
		<tag k="natural" v="hill" />
		<tag k="place" v="locality" />
		<tag k="ssr:stedsnr" v="675827" />
	</node>
	<node id="-590125" lat="61.3209416694" lon="7.56437500501">
		<tag k="name" v="Breibotnen" />
		<tag k="natural" v="valley" />
		<tag k="place" v="locality" />
		<tag k="ssr:stedsnr" v="675672" />
	</node>
	<node id="-590121" lat="61.3699361074" lon="7.72902222366">
		<tag k="name" v="Leiteskreda" />
		<tag k="natural" v="valley" />
		<tag k="place" v="locality" />
		<tag k="ssr:stedsnr" v="654905" />
	</node>
	<node id="-590118" lat="61.2856277821" lon="7.93956667467">
		<tag k="name" v="Grånesene" />
		<tag k="natural" v="hill" />
		<tag k="place" v="locality" />
		<tag k="ssr:stedsnr" v="653653" />
	</node>
	<node id="-590115" lat="61.3570916653" lon="7.90793332947">
		<tag k="name" v="Vettisgjelet" />
		<tag k="natural" v="slope" />
		<tag k="place" v="locality" />
		<tag k="ssr:stedsnr" v="735951" />
	</node>
	<node id="-590111" lat="61.2191833333" lon="7.71749165901">
		<tag k="name" v="Kjerringskaret" />
		<tag k="natural" v="valley" />
		<tag k="place" v="locality" />
		<tag k="ssr:stedsnr" v="653063" />
	</node>
	<node id="-590110" lat="61.2600861082" lon="7.71713055922">
		<tag k="name" v="Mattishammaren" />
		<tag k="natural" v="ridge" />
		<tag k="place" v="locality" />
		<tag k="ssr:stedsnr" v="653145" />
	</node>
	<node id="-590109" lat="61.3231750024" lon="7.89155276871">
		<tag k="fixme" v="consider natural=peak for the most distinct mountains in the district" />
		<tag k="name" v="Åsenosi" />
		<tag k="natural" v="hill" />
		<tag k="place" v="locality" />
		<tag k="ssr:stedsnr" v="736925" />
	</node>
	<node id="-590108" lat="61.3832361109" lon="7.6870027803">
		<tag k="name" v="Stokkesetdalen" />
		<tag k="natural" v="valley" />
		<tag k="place" v="locality" />
		<tag k="ssr:stedsnr" v="735662" />
	</node>
	<node id="-590104" lat="61.2357583303" lon="7.58902499397">
		<tag k="fixme" v="consider natural=peak for the most distinct mountains in the district" />
		<tag k="name" v="Biskaholten" />
		<tag k="natural" v="hill" />
		<tag k="place" v="locality" />
		<tag k="ssr:stedsnr" v="616354" />
	</node>
	<node id="-590101" lat="61.3549555587" lon="7.93502777123">
		<tag k="fixme" v="consider natural=peak for the most distinct mountains in the district" />
		<tag k="name" v="Ulsnanosi" />
		<tag k="natural" v="hill" />
		<tag k="old_name" v="Ulsanosi" />
		<tag k="place" v="locality" />
		<tag k="ssr:stedsnr" v="614952" />
	</node>
	<node id="-590100" lat="61.3453499976" lon="8.16187222164">
		<tag k="fixme" v="consider natural=peak for the most distinct mountains in the district" />
		<tag k="name" v="Breikvamsnosi" />
		<tag k="natural" v="hill" />
		<tag k="place" v="locality" />
		<tag k="ssr:stedsnr" v="614833" />
	</node>
	<node id="-590098" lat="61.276899996" lon="7.47249444336">
		<tag k="name" v="Tisedalen" />
		<tag k="natural" v="valley" />
		<tag k="place" v="locality" />
		<tag k="ssr:stedsnr" v="614627" />
	</node>
	<node id="-590097" lat="61.2939694484" lon="7.77810278026">
		<tag k="name" v="Kjelda" />
		<tag k="natural" v="hill" />
		<tag k="place" v="locality" />
		<tag k="ssr:stedsnr" v="715905" />
	</node>
	<node id="-590095" lat="61.1870583313" lon="7.65028889685">
		<tag k="name" v="Kambejuvet" />
		<tag k="natural" v="gorge" />
		<tag k="ssr:stedsnr" v="715309" />
	</node>
	<node id="-590094" lat="61.3340555526" lon="7.76585278225">
		<tag k="name" v="Stavledjuvet" />
		<tag k="natural" v="gorge" />
		<tag k="ssr:stedsnr" v="714885" />
	</node>
	<node id="-590093" lat="61.3086361108" lon="7.82645556157">
		<tag k="name" v="Røtisbakken" />
		<tag k="natural" v="hill" />
		<tag k="place" v="locality" />
		<tag k="ssr:stedsnr" v="714793" />
	</node>
	<node id="-590092" lat="61.2098833318" lon="7.40496667281">
		<tag k="name" v="Kvarvnakken" />
		<tag k="natural" v="ridge" />
		<tag k="place" v="locality" />
		<tag k="ssr:stedsnr" v="714777" />
	</node>
	<node id="-590088" lat="61.2678777785" lon="7.79724445164">
		<tag k="name" v="Skrivarfura" />
		<tag k="natural" v="slope" />
		<tag k="place" v="locality" />
		<tag k="ssr:stedsnr" v="714660" />
	</node>
	<node id="-590086" lat="61.3081361146" lon="7.72444721369">
		<tag k="name" v="Tausehaug" />
		<tag k="natural" v="hill" />
		<tag k="place" v="locality" />
		<tag k="ssr:stedsnr" v="714144" />
	</node>
	<node id="-590085" lat="61.1947083315" lon="7.58002221996">
		<tag k="name" v="Ytstadslætte" />
		<tag k="place" v="locality" />
		<tag k="ssr:stedsnr" v="593249" />
	</node>
	<node id="-590084" lat="61.1918250009" lon="7.58428055471">
		<tag k="name" v="Kolgeskreda" />
		<tag k="natural" v="valley" />
		<tag k="place" v="locality" />
		<tag k="ssr:stedsnr" v="593248" />
	</node>
	<node id="-590083" lat="61.1820027752" lon="7.55628333734">
		<tag k="name" v="Hanseskardbotnen" />
		<tag k="natural" v="valley" />
		<tag k="place" v="locality" />
		<tag k="ssr:stedsnr" v="593231" />
	</node>
	<node id="-590082" lat="61.1861972194" lon="7.57061944264">
		<tag k="name" v="Klovningjuvet" />
		<tag k="natural" v="gorge" />
		<tag k="ssr:stedsnr" v="593230" />
	</node>
	<node id="-590080" lat="61.2426805518" lon="7.71487500105">
		<tag k="name" v="Einehaugane" />
		<tag k="natural" v="hill" />
		<tag k="place" v="locality" />
		<tag k="ssr:stedsnr" v="593219" />
	</node>
	<node id="-590071" lat="61.2647999979" lon="7.68357500389">
		<tag k="name" v="Dyreberg" />
		<tag k="natural" v="hill" />
		<tag k="place" v="locality" />
		<tag k="ssr:stedsnr" v="554608" />
	</node>
	<node id="-590070" lat="61.26451944" lon="7.53690833366">
		<tag k="fixme" v="consider natural=peak for the most distinct mountains in the district" />
		<tag k="name" v="Vardanosi" />
		<tag k="natural" v="hill" />
		<tag k="place" v="locality" />
		<tag k="ssr:stedsnr" v="554607" />
	</node>
	<node id="-590069" lat="61.3437500024" lon="7.78675833272">
		<tag k="name" v="Skjerpdalen" />
		<tag k="natural" v="valley" />
		<tag k="place" v="locality" />
		<tag k="ssr:stedsnr" v="553959" />
	</node>
	<node id="-590067" lat="61.2929611076" lon="7.68560834086">
		<tag k="name" v="Strupane" />
		<tag k="natural" v="valley" />
		<tag k="place" v="locality" />
		<tag k="ssr:stedsnr" v="553617" />
	</node>
	<node id="-590066" lat="61.3429166636" lon="7.86698889783">
		<tag k="name" v="Kvernajuvet" />
		<tag k="natural" v="gorge" />
		<tag k="ssr:stedsnr" v="532809" />
	</node>
	<node id="-590063" lat="61.2348361155" lon="7.68611666089">
		<tag k="name" v="Hesthagen" />
		<tag k="natural" v="slope" />
		<tag k="place" v="locality" />
		<tag k="ssr:stedsnr" v="532208" />
	</node>
	<node id="-590062" lat="61.2408499997" lon="7.70170278108">
		<tag k="name" v="Kringlehaugen" />
		<tag k="natural" v="hill" />
		<tag k="place" v="locality" />
		<tag k="ssr:stedsnr" v="532204" />
	</node>
	<node id="-590061" lat="61.3842083337" lon="7.94833888378">
		<tag k="name" v="Morklihalsen" />
		<tag k="natural" v="gorge" />
		<tag k="ssr:stedsnr" v="530583" />
	</node>
	<node id="-590059" lat="61.1746499972" lon="7.62827499939">
		<tag k="fixme" v="consider natural=peak for the most distinct mountains in the district" />
		<tag k="name" v="Hovden" />
		<tag k="natural" v="hill" />
		<tag k="place" v="locality" />
		<tag k="ssr:stedsnr" v="495290" />
	</node>
	<node id="-590058" lat="61.1593750026" lon="7.60439165842">
		<tag k="name" v="Runde Haugen" />
		<tag k="natural" v="hill" />
		<tag k="place" v="locality" />
		<tag k="ssr:stedsnr" v="495274" />
	</node>
	<node id="-590045" lat="61.2027500013" lon="7.47647500674">
		<tag k="loc_name" v="Ofrehelleren" />
		<tag k="name" v="Offerhelleren" />
		<tag k="place" v="locality" />
		<tag k="ssr:stedsnr" v="677329" />
	</node>
	<node id="-590044" lat="61.2146000039" lon="7.51386110693">
		<tag k="name" v="Markaberget" />
		<tag k="natural" v="hill" />
		<tag k="place" v="locality" />
		<tag k="ssr:stedsnr" v="677325" />
	</node>
	<node id="-590043" lat="61.2320638874" lon="7.52376665938">
		<tag k="fixme" v="consider natural=peak for the most distinct mountains in the district" />
		<tag k="name" v="Soten" />
		<tag k="natural" v="hill" />
		<tag k="place" v="locality" />
		<tag k="ssr:stedsnr" v="677302" />
	</node>
	<node id="-590041" lat="61.1988527766" lon="7.68148611434">
		<tag k="fixme" v="consider natural=peak for the most distinct mountains in the district" />
		<tag k="name" v="Sauenosi" />
		<tag k="natural" v="hill" />
		<tag k="place" v="locality" />
		<tag k="ssr:stedsnr" v="677290" />
	</node>
	<node id="-590039" lat="61.1865555521" lon="7.54197500313">
		<tag k="name" v="Temreskredhalsen" />
		<tag k="natural" v="valley" />
		<tag k="place" v="locality" />
		<tag k="ssr:stedsnr" v="677283" />
	</node>
	<node id="-590038" lat="61.2099916706" lon="7.81393055951">
		<tag k="fixme" v="consider natural=peak for the most distinct mountains in the district" />
		<tag k="loc_name" v="Knipenborg" />
		<tag k="name" v="Raudbergsnuten" />
		<tag k="natural" v="hill" />
		<tag k="old_name" v="Ruadbergnuten" />
		<tag k="place" v="locality" />
		<tag k="ssr:stedsnr" v="676888" />
	</node>
	<node id="-590037" lat="61.1982888912" lon="7.74956110567">
		<tag k="fixme" v="consider natural=peak for the most distinct mountains in the district" />
		<tag k="name" v="Klypedalsnosi" />
		<tag k="natural" v="hill" />
		<tag k="place" v="locality" />
		<tag k="ssr:stedsnr" v="676886" />
	</node>
	<node id="-590034" lat="61.40475" lon="7.79644999251">
		<tag k="name" v="Gravdalsbandet" />
		<tag k="natural" v="valley" />
		<tag k="place" v="locality" />
		<tag k="ssr:stedsnr" v="675993" />
	</node>
	<node id="-590029" lat="61.2546277784" lon="7.95731111955">
		<tag k="fixme" v="consider natural=peak for the most distinct mountains in the district" />
		<tag k="name" v="Biskopsnosi" />
		<tag k="natural" v="hill" />
		<tag k="place" v="locality" />
		<tag k="ssr:stedsnr" v="675881" />
	</node>
	<node id="-590027" lat="61.2988944432" lon="7.67921667347">
		<tag k="name" v="Horganosi" />
		<tag k="natural" v="hill" />
		<tag k="place" v="locality" />
		<tag k="ssr:stedsnr" v="675636" />
	</node>
	<node id="-590026" lat="61.4383833314" lon="7.90925555573">
		<tag k="name" v="Midtmaradalen" />
		<tag k="natural" v="valley" />
		<tag k="place" v="locality" />
		<tag k="ssr:stedsnr" v="675544" />
	</node>
	<node id="-590020" lat="61.1737888891" lon="7.65897777934">
		<tag k="name" v="Nedre Halsen" />
		<tag k="natural" v="hill" />
		<tag k="place" v="locality" />
		<tag k="ssr:stedsnr" v="435315" />
	</node>
	<node id="-590016" lat="61.2102833348" lon="7.43646110323">
		<tag k="fixme" v="consider natural=peak for the most distinct mountains in the district" />
		<tag k="name" v="Bollenakken" />
		<tag k="natural" v="hill" />
		<tag k="place" v="locality" />
		<tag k="ssr:stedsnr" v="434313" />
	</node>
	<node id="-590012" lat="61.3577249957" lon="8.09486945391">
		<tag k="name" v="Tjuvaholi" />
		<tag k="natural" v="valley" />
		<tag k="place" v="locality" />
		<tag k="ssr:stedsnr" v="432812" />
	</node>
	<node id="-590009" lat="61.1805083334" lon="7.50548610678">
		<tag k="name" v="Sagahaugen" />
		<tag k="natural" v="hill" />
		<tag k="place" v="locality" />
		<tag k="ssr:stedsnr" v="411368" />
	</node>
	<node id="-590008" lat="61.1753138927" lon="7.54798056289">
		<tag k="name" v="Hjellen" />
		<tag k="place" v="locality" />
		<tag k="ssr:stedsnr" v="411359" />
	</node>
	<node id="-590007" lat="61.1900166658" lon="7.54229999829">
		<tag k="name" v="Timreskreda" />
		<tag k="natural" v="valley" />
		<tag k="place" v="locality" />
		<tag k="ssr:stedsnr" v="411354" />
	</node>
	<node id="-590006" lat="61.1926861081" lon="7.53424999507">
		<tag k="name" v="Skallen" />
		<tag k="natural" v="slope" />
		<tag k="place" v="locality" />
		<tag k="ssr:stedsnr" v="411352" />
	</node>
	<node id="-590003" lat="61.4384083329" lon="7.88407778264">
		<tag k="fixme" v="consider natural=peak for the most distinct mountains in the district" />
		<tag k="name" v="Søre Midtmaradalstinden" />
		<tag k="natural" v="hill" />
		<tag k="ssr:stedsnr" v="390410" />
	</node>
	<node id="-590001" lat="61.1935111143" lon="7.60044723083">
		<tag k="name" v="Mjølkeflaten" />
		<tag k="natural" v="slope" />
		<tag k="place" v="locality" />
		<tag k="ssr:stedsnr" v="374327" />
	</node>
	<node id="-590000" lat="61.1655611073" lon="7.64635000277">
		<tag k="name" v="Gjeljane" />
		<tag k="place" v="locality" />
		<tag k="ssr:stedsnr" v="374306" />
	</node>
	<node id="-589997" lat="61.2355750034" lon="7.97852500773">
		<tag k="fixme" v="consider natural=peak for the most distinct mountains in the district" />
		<tag k="name" v="Krekahøgdi" />
		<tag k="natural" v="hill" />
		<tag k="place" v="locality" />
		<tag k="ssr:stedsnr" v="373915" />
	</node>
	<node id="-589995" lat="61.2277250043" lon="7.78657500131">
		<tag k="name" v="Avdalen" />
		<tag k="natural" v="valley" />
		<tag k="place" v="locality" />
		<tag k="ssr:stedsnr" v="373910" />
	</node>
	<node id="-589993" lat="61.3807111104" lon="7.95538055546">
		<tag k="name" v="Vettismorki" />
		<tag k="natural" v="slope" />
		<tag k="place" v="locality" />
		<tag k="ssr:stedsnr" v="372971" />
	</node>
	<node id="-589991" lat="61.2892083317" lon="8.00688333219">
		<tag k="fixme" v="consider natural=peak for the most distinct mountains in the district" />
		<tag k="name" v="Vetle-Knipen" />
		<tag k="natural" v="hill" />
		<tag k="place" v="locality" />
		<tag k="ssr:stedsnr" v="372915" />
	</node>
	<node id="-589985" lat="61.3305833328" lon="7.71902776938">
		<tag k="name" v="Lovardalen" />
		<tag k="natural" v="valley" />
		<tag k="place" v="locality" />
		<tag k="ssr:stedsnr" v="495766" />
	</node>
	<node id="-589984" lat="61.200536113" lon="7.44183611361">
		<tag k="name" v="Bollen" />
		<tag k="natural" v="hill" />
		<tag k="place" v="locality" />
		<tag k="ssr:stedsnr" v="495357" />
	</node>
	<node id="-589974" lat="61.3392638881" lon="7.76082777484">
		<tag k="name" v="Fardalen" />
		<tag k="natural" v="valley" />
		<tag k="place" v="locality" />
		<tag k="ssr:stedsnr" v="493955" />
	</node>
	<node id="-589973" lat="61.3274583306" lon="7.97370555165">
		<tag k="name" v="Skredshaugdokki" />
		<tag k="natural" v="valley" />
		<tag k="place" v="locality" />
		<tag k="ssr:stedsnr" v="493953" />
	</node>
	<node id="-589970" lat="61.3034861124" lon="7.95836111691">
		<tag k="fixme" v="consider natural=peak for the most distinct mountains in the district" />
		<tag k="name" v="Graveskarnosi" />
		<tag k="natural" v="hill" />
		<tag k="place" v="locality" />
		<tag k="ssr:stedsnr" v="493929" />
	</node>
	<node id="-589967" lat="61.2587499959" lon="7.84211110933">
		<tag k="name" v="Valdresskaret" />
		<tag k="natural" v="valley" />
		<tag k="place" v="locality" />
		<tag k="ssr:stedsnr" v="493899" />
	</node>
	<node id="-589964" lat="61.3818527771" lon="8.1590194516">
		<tag k="fixme" v="consider natural=peak for the most distinct mountains in the district" />
		<tag k="name" v="Raudehaugen" />
		<tag k="natural" v="hill" />
		<tag k="place" v="locality" />
		<tag k="ssr:stedsnr" v="493850" />
	</node>
	<node id="-589961" lat="61.4186250031" lon="7.66441665832">
		<tag k="name" v="Årdals-Langedalen" />
		<tag k="natural" v="valley" />
		<tag k="place" v="locality" />
		<tag k="ssr:stedsnr" v="493720" />
	</node>
	<node id="-589960" lat="61.3508611117" lon="7.70601110183">
		<tag k="name" v="Midtnosi" />
		<tag k="natural" v="hill" />
		<tag k="place" v="locality" />
		<tag k="ssr:stedsnr" v="493641" />
	</node>
	<node id="-589957" lat="61.2678916668" lon="7.69765833909">
		<tag k="name" v="Lindvikdalen" />
		<tag k="natural" v="valley" />
		<tag k="place" v="locality" />
		<tag k="ssr:stedsnr" v="493562" />
	</node>
	<node id="-589955" lat="61.4353777748" lon="7.82677777667">
		<tag k="name" v="Vikingskar" />
		<tag k="natural" v="valley" />
		<tag k="place" v="locality" />
		<tag k="ssr:stedsnr" v="493521" />
	</node>
	<node id="-589951" lat="61.3505499965" lon="8.00172500305">
		<tag k="name" v="Hestebægjet" />
		<tag k="natural" v="slope" />
		<tag k="place" v="locality" />
		<tag k="ssr:stedsnr" v="492962" />
	</node>
	<node id="-589948" lat="61.3318944441" lon="7.73162499368">
		<tag k="fixme" v="consider natural=peak for the most distinct mountains in the district" />
		<tag k="name" v="Synnos" />
		<tag k="natural" v="hill" />
		<tag k="place" v="locality" />
		<tag k="ssr:stedsnr" v="492932" />
	</node>
	<node id="-589945" lat="61.389755553" lon="7.72385554991">
		<tag k="name" v="Murrabrekkene" />
		<tag k="natural" v="slope" />
		<tag k="place" v="locality" />
		<tag k="ssr:stedsnr" v="349212" />
	</node>
	<node id="-589939" lat="61.1509361075" lon="7.78337500128">
		<tag k="fixme" v="consider natural=peak for the most distinct mountains in the district" />
		<tag k="name" v="Kvamsbandet" />
		<tag k="natural" v="hill" />
		<tag k="place" v="locality" />
		<tag k="ssr:stedsnr" v="312868" />
	</node>
	<node id="-589938" lat="61.3329250016" lon="7.83715278145">
		<tag k="name" v="Presteteignakken" />
		<tag k="natural" v="hill" />
		<tag k="place" v="locality" />
		<tag k="ssr:stedsnr" v="471981" />
	</node>
	<node id="-589934" lat="61.3094888917" lon="7.84108334216">
		<tag k="name" v="Gjotelii" />
		<tag k="natural" v="slope" />
		<tag k="place" v="locality" />
		<tag k="ssr:stedsnr" v="471826" />
	</node>
	<node id="-589932" lat="61.3148861148" lon="7.81116943647">
		<tag k="name" v="Mjøhola" />
		<tag k="natural" v="gorge" />
		<tag k="ssr:stedsnr" v="471775" />
	</node>
	<node id="-589929" lat="61.2255694409" lon="7.52791666228">
		<tag k="name" v="Geiteberget" />
		<tag k="natural" v="hill" />
		<tag k="place" v="locality" />
		<tag k="ssr:stedsnr" v="471523" />
	</node>
	<node id="-589928" lat="61.261447225" lon="7.56528334201">
		<tag k="name" v="Vetlelidalen" />
		<tag k="natural" v="valley" />
		<tag k="place" v="locality" />
		<tag k="ssr:stedsnr" v="471487" />
	</node>
	<node id="-589927" lat="61.1918166702" lon="7.54605000369">
		<tag k="name" v="Lauvbakken" />
		<tag k="natural" v="slope" />
		<tag k="place" v="locality" />
		<tag k="ssr:stedsnr" v="471368" />
	</node>
	<node id="-589924" lat="61.2669583375" lon="7.72701388057">
		<tag k="name" v="Kolaflaten" />
		<tag k="natural" v="slope" />
		<tag k="place" v="locality" />
		<tag k="ssr:stedsnr" v="471181" />
	</node>
	<node id="-589922" lat="61.2981527738" lon="7.65921945231">
		<tag k="name" v="Trongane" />
		<tag k="natural" v="slope" />
		<tag k="place" v="locality" />
		<tag k="ssr:stedsnr" v="471120" />
	</node>
	<node id="-589915" lat="61.2866111121" lon="7.5656833418">
		<tag k="name" v="Vardahaug" />
		<tag k="natural" v="hill" />
		<tag k="place" v="locality" />
		<tag k="ssr:stedsnr" v="290359" />
	</node>
	<node id="-589913" lat="61.192274999" lon="7.5731361069">
		<tag k="name" v="Klovningeskreda" />
		<tag k="natural" v="valley" />
		<tag k="place" v="locality" />
		<tag k="ssr:stedsnr" v="290265" />
	</node>
	<node id="-589912" lat="61.2649583295" lon="7.76505834103">
		<tag k="name" v="Gloppa" />
		<tag k="natural" v="slope" />
		<tag k="place" v="locality" />
		<tag k="ssr:stedsnr" v="290061" />
	</node>
	<node id="-589906" lat="61.4420805537" lon="7.87213055675">
		<tag k="fixme" v="consider natural=peak for the most distinct mountains in the district" />
		<tag k="name" v="Store Midtmaradalstinden" />
		<tag k="natural" v="hill" />
		<tag k="ssr:stedsnr" v="269454" />
	</node>
	<node id="-589904" lat="61.21815278" lon="7.62093332597">
		<tag k="name" v="Kongedokki" />
		<tag k="natural" v="hill" />
		<tag k="place" v="locality" />
		<tag k="ssr:stedsnr" v="531372" />
	</node>
	<node id="-589903" lat="61.3140861118" lon="7.83794165886">
		<tag k="name" v="Årehola" />
		<tag k="natural" v="gorge" />
		<tag k="ssr:stedsnr" v="229818" />
	</node>
	<node id="-589902" lat="61.3121361124" lon="7.8027194535">
		<tag k="name" v="Småbakkane" />
		<tag k="natural" v="slope" />
		<tag k="place" v="locality" />
		<tag k="ssr:stedsnr" v="229772" />
	</node>
	<node id="-589899" lat="61.2189944442" lon="7.70709166305">
		<tag k="name" v="Storelii" />
		<tag k="natural" v="slope" />
		<tag k="place" v="locality" />
		<tag k="ssr:stedsnr" v="229072" />
	</node>
	<node id="-589898" lat="61.268683332" lon="7.64469722894">
		<tag k="name" v="Bjørneholten" />
		<tag k="natural" v="hill" />
		<tag k="place" v="locality" />
		<tag k="ssr:stedsnr" v="228405" />
	</node>
	<node id="-589896" lat="61.387527774" lon="7.94109443527">
		<tag k="name" v="Maradalsklubbane" />
		<tag k="natural" v="hill" />
		<tag k="place" v="locality" />
		<tag k="ssr:stedsnr" v="227552" />
	</node>
	<node id="-589894" lat="61.1294888915" lon="7.62817499938">
		<tag k="name" v="Bakkane" />
		<tag k="natural" v="slope" />
		<tag k="place" v="locality" />
		<tag k="ssr:stedsnr" v="192321" />
	</node>
	<node id="-589893" lat="61.1556499966" lon="7.63430554704">
		<tag k="fixme" v="consider natural=peak for the most distinct mountains in the district" />
		<tag k="name" v="Geitefjellet" />
		<tag k="natural" v="hill" />
		<tag k="place" v="locality" />
		<tag k="ssr:stedsnr" v="192320" />
	</node>
	<node id="-589892" lat="61.1665777769" lon="7.77545000678">
		<tag k="name" v="Vikadalen" />
		<tag k="natural" v="valley" />
		<tag k="place" v="locality" />
		<tag k="ssr:stedsnr" v="191847" />
	</node>
	<node id="-589891" lat="61.224408329" lon="7.49334721519">
		<tag k="alt_name" v="Offerdalen, ytre" />
		<tag k="loc_name" v="Ytre Ofredalen" />
		<tag k="name" v="Ytre Offerdalen" />
		<tag k="natural" v="valley" />
		<tag k="place" v="locality" />
		<tag k="ssr:stedsnr" v="191330" />
	</node>
	<node id="-589889" lat="61.2103027749" lon="7.45328611947">
		<tag k="alt_name" v="Kiparhaug" />
		<tag k="fixme" v="consider natural=peak for the most distinct mountains in the district" />
		<tag k="name" v="Kiphaug" />
		<tag k="natural" v="hill" />
		<tag k="place" v="locality" />
		<tag k="ssr:stedsnr" v="191324" />
	</node>
	<node id="-589888" lat="61.2127583344" lon="7.58704721509">
		<tag k="name" v="Sommarbakkane" />
		<tag k="natural" v="slope" />
		<tag k="place" v="locality" />
		<tag k="ssr:stedsnr" v="191308" />
	</node>
	<node id="-589884" lat="61.3377222207" lon="7.62681944711">
		<tag k="name" v="Grøndalen" />
		<tag k="natural" v="valley" />
		<tag k="place" v="locality" />
		<tag k="ssr:stedsnr" v="190647" />
	</node>
	<node id="-589883" lat="61.2847694481" lon="7.61064166512">
		<tag k="fixme" v="consider natural=peak for the most distinct mountains in the district" />
		<tag k="name" v="Vedabakknosi" />
		<tag k="natural" v="hill" />
		<tag k="place" v="locality" />
		<tag k="ssr:stedsnr" v="190611" />
	</node>
	<node id="-589881" lat="61.3113805532" lon="7.84825833861">
		<tag k="name" v="Bremborg" />
		<tag k="natural" v="slope" />
		<tag k="place" v="locality" />
		<tag k="ssr:stedsnr" v="290848" />
	</node>
	<node id="-589880" lat="61.3379833349" lon="7.86952222511">
		<tag k="name" v="Alterskorane" />
		<tag k="place" v="locality" />
		<tag k="ssr:stedsnr" v="290948" />
	</node>
	<node id="-589878" lat="61.2774861115" lon="7.76451111784">
		<tag k="name" v="Okslii" />
		<tag k="natural" v="slope" />
		<tag k="place" v="locality" />
		<tag k="ssr:stedsnr" v="290881" />
	</node>
	<node id="-589875" lat="61.1730527782" lon="7.54128056197">
		<tag k="name" v="Sagadalen" />
		<tag k="natural" v="valley" />
		<tag k="place" v="locality" />
		<tag k="ssr:stedsnr" v="290348" />
	</node>
	<node id="-589872" lat="61.2134027763" lon="7.6794138826">
		<tag k="name" v="Geithustunga" />
		<tag k="natural" v="ridge" />
		<tag k="place" v="locality" />
		<tag k="ssr:stedsnr" v="290122" />
	</node>
	<node id="-589864" lat="61.3786388882" lon="7.97279722444">
		<tag k="name" v="Rotastubbakkane" />
		<tag k="natural" v="slope" />
		<tag k="place" v="locality" />
		<tag k="ssr:stedsnr" v="168511" />
	</node>
	<node id="-589862" lat="61.261294447" lon="7.75224443911">
		<tag k="name" v="Stedjeberget" />
		<tag k="natural" v="hill" />
		<tag k="place" v="locality" />
		<tag k="ssr:stedsnr" v="168063" />
	</node>
	<node id="-589861" lat="61.3125027763" lon="7.77536667272">
		<tag k="name" v="Brennenotholet" />
		<tag k="natural" v="valley" />
		<tag k="place" v="locality" />
		<tag k="ssr:stedsnr" v="168111" />
	</node>
	<node id="-589859" lat="61.3216777757" lon="7.64924721525">
		<tag k="name" v="Rupehaug" />
		<tag k="natural" v="hill" />
		<tag k="place" v="locality" />
		<tag k="ssr:stedsnr" v="167324" />
	</node>
	<node id="-589857" lat="61.2465666702" lon="8.00148333983">
		<tag k="name" v="Sletterustdalen" />
		<tag k="natural" v="valley" />
		<tag k="place" v="locality" />
		<tag k="ssr:stedsnr" v="131940" />
	</node>
	<node id="-589856" lat="61.1711111102" lon="7.66283333875">
		<tag k="name" v="Heimre Neset" />
		<tag k="natural" v="slope" />
		<tag k="place" v="locality" />
		<tag k="ssr:stedsnr" v="131306" />
	</node>
	<node id="-589855" lat="61.240025" lon="7.60931110352">
		<tag k="fixme" v="consider natural=peak for the most distinct mountains in the district" />
		<tag k="name" v="Seimsåsen" />
		<tag k="natural" v="hill" />
		<tag k="place" v="locality" />
		<tag k="ssr:stedsnr" v="130332" />
	</node>
	<node id="-589849" lat="61.3292861142" lon="7.81241389751">
		<tag k="name" v="Lisbetskreda" />
		<tag k="natural" v="gorge" />
		<tag k="ssr:stedsnr" v="129922" />
	</node>
	<node id="-589845" lat="61.2767722262" lon="7.73267777375">
		<tag k="name" v="Nedre Midvaldskreda" />
		<tag k="natural" v="gorge" />
		<tag k="ssr:stedsnr" v="129907" />
	</node>
	<node id="-589844" lat="61.2841138889" lon="7.87795000671">
		<tag k="fixme" v="consider natural=peak for the most distinct mountains in the district" />
		<tag k="name" v="Heirsnosi" />
		<tag k="natural" v="hill" />
		<tag k="place" v="locality" />
		<tag k="ssr:stedsnr" v="129905" />
	</node>
	<node id="-589843" lat="61.2947388867" lon="7.51998889272">
		<tag k="fixme" v="consider natural=peak for the most distinct mountains in the district" />
		<tag k="name" v="Reinsspæl" />
		<tag k="natural" v="hill" />
		<tag k="place" v="locality" />
		<tag k="ssr:stedsnr" v="129612" />
	</node>
	<node id="-589842" lat="61.2871944442" lon="7.63018333302">
		<tag k="name" v="Botnane" />
		<tag k="natural" v="valley" />
		<tag k="place" v="locality" />
		<tag k="ssr:stedsnr" v="129603" />
	</node>
	<node id="-589841" lat="61.4338999996" lon="7.95356111502">
		<tag k="name" v="Skoddedalen" />
		<tag k="natural" v="valley" />
		<tag k="place" v="locality" />
		<tag k="ssr:stedsnr" v="129523" />
	</node>
	<node id="-589840" lat="61.410377778" lon="7.73651665822">
		<tag k="name" v="Murenosi" />
		<tag k="natural" v="hill" />
		<tag k="place" v="locality" />
		<tag k="ssr:stedsnr" v="129512" />
	</node>
	<node id="-589837" lat="61.1744805562" lon="7.58894444643">
		<tag k="fixme" v="consider natural=peak for the most distinct mountains in the district" />
		<tag k="name" v="Hornfjellet" />
		<tag k="natural" v="hill" />
		<tag k="place" v="locality" />
		<tag k="ssr:stedsnr" v="257860" />
	</node>
	<node id="-589832" lat="61.1854055582" lon="7.52134443941">
		<tag k="name" v="Løypet" />
		<tag k="natural" v="slope" />
		<tag k="place" v="locality" />
		<tag k="ssr:stedsnr" v="252287" />
	</node>
	<node id="-589830" lat="61.1847833302" lon="7.57692777915">
		<tag k="fixme" v="consider natural=peak for the most distinct mountains in the district" />
		<tag k="name" v="Vetlehornet" />
		<tag k="natural" v="hill" />
		<tag k="place" v="locality" />
		<tag k="ssr:stedsnr" v="252259" />
	</node>
	<node id="-589829" lat="61.1782833304" lon="7.62247222925">
		<tag k="name" v="Kyrejukulen" />
		<tag k="natural" v="hill" />
		<tag k="place" v="locality" />
		<tag k="ssr:stedsnr" v="252258" />
	</node>
	<node id="-589828" lat="61.2179305601" lon="7.56035000628">
		<tag k="alt_name" v="Brenda" />
		<tag k="name" v="Brenna" />
		<tag k="natural" v="slope" />
		<tag k="place" v="locality" />
		<tag k="ssr:stedsnr" v="251370" />
	</node>
	<node id="-589827" lat="61.2328416678" lon="7.61904445133">
		<tag k="name" v="Saltskredjuvet" />
		<tag k="natural" v="valley" />
		<tag k="place" v="locality" />
		<tag k="ssr:stedsnr" v="251365" />
	</node>
	<node id="-589826" lat="61.2237250023" lon="7.629961109">
		<tag k="name" v="Lindgjerdssvadi" />
		<tag k="natural" v="hill" />
		<tag k="place" v="locality" />
		<tag k="ssr:stedsnr" v="251364" />
	</node>
	<node id="-589825" lat="61.2320583363" lon="7.59503888009">
		<tag k="fixme" v="consider natural=peak for the most distinct mountains in the district" />
		<tag k="name" v="Mastrehaugfjellet" />
		<tag k="natural" v="hill" />
		<tag k="place" v="locality" />
		<tag k="ssr:stedsnr" v="251363" />
	</node>
</osm>
