<?xml version="1.0" encoding="UTF-8"?>
<<<<<<< HEAD
<osm version="0.6" generator="osmapis">
	<node lat="61.232758335291656" lon="7.683438884282708" id="-37408">
=======
<osm generator="osmapis" version="0.6">
	<node id="-678911" lat="61.1916611142" lon="7.51839165972">
		<tag k="alt_name" v="Bakkeneset" />
		<tag k="name" v="Bakkenes" />
		<tag k="natural" v="cape" />
		<tag k="ssr:stedsnr" v="532353" />
	</node>
	<node id="-679646" lat="61.2352222243" lon="7.69332777482">
		<tag k="name" v="Saltviki" />
		<tag k="natural" v="bay" />
		<tag k="ssr:stedsnr" v="775216" />
	</node>
	<node id="-678682" lat="61.2327583353" lon="7.68343888428">
>>>>>>> e1d4bc35ff8a6074a6f2e91616a996b547c36f15
		<tag k="alt_name" v="Raunobbi" />
		<tag k="name" v="Raudnobbi" />
		<tag k="natural" v="cape" />
		<tag k="ssr:stedsnr" v="252320" />
	</node>
<<<<<<< HEAD
	<node lat="61.1945027763591" lon="7.562161109124037" id="-37426">
		<tag k="alt_name" v="Jensehavnen" />
		<tag k="name" v="Jensehamnen" />
		<tag k="natural" v="bay" />
		<tag k="ssr:stedsnr" v="131288" />
	</node>
	<node lat="61.19348888873298" lon="7.608616669403821" id="-37439">
		<tag k="name" v="Vikahamnen" />
		<tag k="natural" v="bay" />
		<tag k="ssr:stedsnr" v="176803" />
	</node>
	<node lat="61.261088892765386" lon="7.7437499976964865" id="-37496">
=======
	<node id="-679672" lat="61.1999305571" lon="7.43076111208">
		<tag k="name" v="Asalneset" />
		<tag k="natural" v="cape" />
		<tag k="ssr:stedsnr" v="798305" />
	</node>
	<node id="-679287" lat="61.1934888887" lon="7.6086166694">
		<tag k="loc_name" v="Nattviki;Natviki" />
		<tag k="name" v="Naddviki" />
		<tag k="natural" v="bay" />
		<tag k="ssr:stedsnr" v="176803" />
	</node>
	<node id="-678870" lat="61.2610888928" lon="7.7437499977">
>>>>>>> e1d4bc35ff8a6074a6f2e91616a996b547c36f15
		<tag k="name" v="Laberg" />
		<tag k="natural" v="cape" />
		<tag k="ssr:stedsnr" v="471042" />
	</node>
<<<<<<< HEAD
	<node lat="61.22006389285369" lon="7.681774990544793" id="-37576">
		<tag k="name" v="Bogaviki" />
		<tag k="natural" v="bay" />
		<tag k="ssr:stedsnr" v="494291" />
	</node>
	<node lat="61.21224999934921" lon="7.650011118006065" id="-37670">
		<tag k="name" v="Lindelistranda" />
		<tag k="natural" v="beach" />
		<tag k="ssr:stedsnr" v="602861" />
	</node>
	<node lat="61.184333329248524" lon="7.491652785817747" id="-37746">
		<tag k="name" v="Saganeset" />
=======
	<node id="-679733" lat="61.2332944457" lon="7.68804165798">
		<tag k="name" v="Svartnobbi" />
>>>>>>> e1d4bc35ff8a6074a6f2e91616a996b547c36f15
		<tag k="natural" v="cape" />
		<tag k="ssr:stedsnr" v="957222" />
	</node>
<<<<<<< HEAD
	<node lat="61.199930557102896" lon="7.430761112083516" id="-37783">
		<tag k="name" v="Asalneset" />
		<tag k="natural" v="cape" />
		<tag k="ssr:stedsnr" v="798305" />
	</node>
	<node lat="61.21481110837594" lon="7.6267138969088775" id="-37808">
=======
	<node id="-679046" lat="61.2148111084" lon="7.62671389691">
>>>>>>> e1d4bc35ff8a6074a6f2e91616a996b547c36f15
		<tag k="alt_name" v="Resnes" />
		<tag k="name" v="Revsnes" />
		<tag k="natural" v="cape" />
		<tag k="ssr:stedsnr" v="919328" />
	</node>
<<<<<<< HEAD
	<node lat="61.23458333171085" lon="7.674530558406795" id="-37816">
=======
	<node id="-679057" lat="61.2345833317" lon="7.67453055841">
>>>>>>> e1d4bc35ff8a6074a6f2e91616a996b547c36f15
		<tag k="name" v="Snipen" />
		<tag k="natural" v="cape" />
		<tag k="ssr:stedsnr" v="920334" />
	</node>
<<<<<<< HEAD
	<node lat="61.211524998915706" lon="7.598047213550964" id="-38096">
		<tag k="name" v="Brannrei" />
		<tag k="natural" v="cape" />
		<tag k="ssr:stedsnr" v="358834" />
	</node>
	<node lat="61.2037999958374" lon="7.40523611104471" id="-38119">
		<tag k="name" v="Lusehamn" />
=======
	<node id="-679576" lat="61.2052250023" lon="7.48783610893">
		<tag k="name" v="Fiskeneset" />
		<tag k="natural" v="cape" />
		<tag k="ssr:stedsnr" v="616337" />
	</node>
	<node id="-679531" lat="61.2122499993" lon="7.65001111801">
		<tag k="name" v="Lindelistranda" />
		<tag k="natural" v="beach" />
		<tag k="place" v="locality" />
		<tag k="ssr:stedsnr" v="602861" />
	</node>
	<node id="-678953" lat="61.1843333292" lon="7.49165278582">
		<tag k="name" v="Saganeset" />
		<tag k="natural" v="cape" />
		<tag k="ssr:stedsnr" v="722831" />
	</node>
	<node id="-678825" lat="61.2200638929" lon="7.68177499054">
		<tag k="name" v="Bogaviki" />
>>>>>>> e1d4bc35ff8a6074a6f2e91616a996b547c36f15
		<tag k="natural" v="bay" />
		<tag k="ssr:stedsnr" v="373335" />
	</node>
<<<<<<< HEAD
	<node lat="61.19166111417539" lon="7.518391659723292" id="-38191">
		<tag k="alt_name" v="Bakkeneset" />
		<tag k="name" v="Bakkenes" />
		<tag k="natural" v="cape" />
		<tag k="ssr:stedsnr" v="532353" />
	</node>
	<node lat="61.205225002267134" lon="7.487836108929923" id="-38272">
		<tag k="name" v="Fiskeneset" />
		<tag k="natural" v="cape" />
		<tag k="ssr:stedsnr" v="616337" />
	</node>
	<node lat="61.23522222432766" lon="7.693327774819925" id="-38340">
		<tag k="name" v="Saltviki" />
=======
	<node id="-679397" lat="61.2037999958" lon="7.40523611104">
		<tag k="name" v="Lusehamn" />
>>>>>>> e1d4bc35ff8a6074a6f2e91616a996b547c36f15
		<tag k="natural" v="bay" />
		<tag k="ssr:stedsnr" v="775216" />
	</node>
<<<<<<< HEAD
	<node lat="61.22697222542033" lon="7.683444452406062" id="-38417">
		<tag k="bay" v="fjord" />
		<tag k="name" v="Årdalsfjorden" />
=======
	<node id="-679268" lat="61.1945027764" lon="7.56216110912">
		<tag k="alt_name" v="Jensehavnen" />
		<tag k="name" v="Jensehamnen" />
>>>>>>> e1d4bc35ff8a6074a6f2e91616a996b547c36f15
		<tag k="natural" v="bay" />
		<tag k="ssr:stedsnr" v="859298" />
	</node>
<<<<<<< HEAD
	<node lat="61.23329444567075" lon="7.688041657982787" id="-38430">
		<tag k="name" v="Svartnobbi" />
		<tag k="natural" v="cape" />
		<tag k="ssr:stedsnr" v="957222" />
	</node>
=======
	<node id="-679718" lat="61.2269722254" lon="7.68344445241">
		<tag k="bay" v="fjord" />
		<tag k="name" v="Årdalsfjorden" />
		<tag k="natural" v="bay" />
		<tag k="ssr:stedsnr" v="859298" />
	</node>
	<node id="-679371" lat="61.2115249989" lon="7.59804721355">
		<tag k="name" v="Brannrei" />
		<tag k="natural" v="cape" />
		<tag k="ssr:stedsnr" v="358834" />
	</node>
>>>>>>> e1d4bc35ff8a6074a6f2e91616a996b547c36f15
</osm>
