<?xml version="1.0" encoding="UTF-8"?>
<osm version="0.6" generator="osmapis">
	<node lat="61.21958611515451" lon="7.686488884292064" id="-51029">
		<tag k="bridge" v="yes" />
		<tag k="layer" v="1" />
		<tag k="name" v="Kvannagjel" />
		<tag k="ssr:stedsnr" v="107283" />
	</node>
	<node lat="61.1870972239087" lon="7.5043749915162135" id="-51030">
		<tag k="bridge" v="yes" />
		<tag k="layer" v="1" />
		<tag k="name" v="Sagelva" />
		<tag k="ssr:stedsnr" v="107284" />
	</node>
	<node lat="61.299762889577956" lon="7.904347892526974" id="-51031">
		<tag k="bridge" v="yes" />
		<tag k="layer" v="1" />
		<tag k="name" v="Holsbru" />
		<tag k="ssr:stedsnr" v="107286" />
	</node>
	<node lat="61.30537777501204" lon="7.831675002615423" id="-51094">
		<tag k="layer" v="-1" />
		<tag k="name" v="Jåteli II" />
		<tag k="ssr:stedsnr" v="165257" />
		<tag k="tunnel" v="yes" />
	</node>
	<node lat="61.236294445183205" lon="7.700438889236977" id="-51140">
		<tag k="bridge" v="yes" />
		<tag k="layer" v="1" />
		<tag k="name" v="Hæreid" />
		<tag k="ssr:stedsnr" v="289276" />
	</node>
	<node lat="61.30660000113984" lon="7.8275305536001305" id="-51195">
		<tag k="layer" v="-1" />
		<tag k="name" v="Rausdal II" />
		<tag k="ssr:stedsnr" v="408402" />
		<tag k="tunnel" v="yes" />
	</node>
	<node lat="61.418305556708695" lon="7.973405556770521" id="-51248">
		<tag k="highway" v="path" />
		<tag k="name" v="Kyrkjestigen" />
		<tag k="ssr:stedsnr" v="675538" />
	</node>
	<node lat="61.34373333453139" lon="7.8798305589389885" id="-51250">
		<tag k="bridge" v="yes" />
		<tag k="layer" v="1" />
		<tag k="name" v="Hjelle" />
		<tag k="ssr:stedsnr" v="470264" />
	</node>
	<node lat="61.271886106969795" lon="7.765780561491757" id="-51331">
		<tag k="bridge" v="yes" />
		<tag k="layer" v="1" />
		<tag k="name" v="Bremborg" />
		<tag k="ssr:stedsnr" v="592306" />
	</node>
	<node lat="61.31766111489427" lon="7.816155554625965" id="-51385">
		<tag k="bridge" v="yes" />
		<tag k="layer" v="1" />
		<tag k="name" v="Øyni" />
		<tag k="ssr:stedsnr" v="896291" />
	</node>
	<node lat="61.30711666236742" lon="7.846966676014058" id="-51386">
		<tag k="bridge" v="yes" />
		<tag k="layer" v="1" />
		<tag k="name" v="Moadalen" />
		<tag k="ssr:stedsnr" v="896294" />
	</node>
	<node lat="61.27448888919911" lon="8.139905564337136" id="-51434">
		<tag k="bridge" v="yes" />
		<tag k="layer" v="1" />
		<tag k="name" v="Tyinoset" />
		<tag k="ssr:stedsnr" v="774321" />
	</node>
	<node lat="61.308741669674056" lon="7.84462778594309" id="-51519">
		<tag k="layer" v="-1" />
		<tag k="name" v="Rausdal I" />
		<tag k="ssr:stedsnr" v="894419" />
		<tag k="tunnel" v="yes" />
	</node>
	<node lat="61.30688611379693" lon="7.808508336804008" id="-51748">
		<tag k="bridge" v="yes" />
		<tag k="layer" v="1" />
		<tag k="name" v="Krokåkerhole" />
		<tag k="ssr:stedsnr" v="349344" />
	</node>
	<node lat="61.274719441261674" lon="8.021441674668637" id="-51801">
		<tag k="bridge" v="yes" />
		<tag k="layer" v="1" />
		<tag k="name" v="Mansberg" />
		<tag k="ssr:stedsnr" v="410301" />
	</node>
	<node lat="61.30795556000629" lon="7.8121638887227665" id="-51849">
		<tag k="bridge" v="yes" />
		<tag k="layer" v="1" />
		<tag k="name" v="Vee Lille" />
		<tag k="ssr:stedsnr" v="531298" />
	</node>
	<node lat="61.24268611537922" lon="7.635419436633311" id="-51881">
		<tag k="highway" v="path" />
		<tag k="name" v="Åsavegen" />
		<tag k="ssr:stedsnr" v="592536" />
	</node>
	<node lat="61.30897777515343" lon="7.8154361149966824" id="-51945">
		<tag k="bridge" v="yes" />
		<tag k="layer" v="1" />
		<tag k="name" v="Rausdøla" />
		<tag k="ssr:stedsnr" v="652253" />
	</node>
	<node lat="61.30788333674306" lon="7.856505563483526" id="-51996">
		<tag k="layer" v="-1" />
		<tag k="name" v="Jåteli I" />
		<tag k="ssr:stedsnr" v="772280" />
		<tag k="tunnel" v="yes" />
	</node>
	<node lat="61.25254166579593" lon="7.655205560963588" id="-52045">
		<tag k="bridge" v="yes" />
		<tag k="layer" v="1" />
		<tag k="name" v="Dalaker" />
		<tag k="ssr:stedsnr" v="835305" />
	</node>
</osm>
