<?xml version="1.0" encoding="UTF-8"?>
<<<<<<< HEAD
<osm version="0.6" generator="osmapis">
	<node lat="61.345478053879596" lon="7.8807621338177745" id="-37300">
		<tag k="fixme" v="consider place=hamlet" />
		<tag k="name" v="Hjelle" />
		<tag k="place" v="farm" />
		<tag k="ssr:stedsnr" v="7950" />
	</node>
	<node lat="61.33400555527125" lon="7.868933324581577" id="-37301">
		<tag k="name" v="Ramsøyni" />
		<tag k="place" v="locality" />
		<tag k="ssr:stedsnr" v="7953" />
	</node>
	<node lat="61.22521110992875" lon="7.549400008362923" id="-37312">
		<tag k="alt_name" v="Masterhaugen" />
		<tag k="name" v="Mastrehaugen" />
		<tag k="place" v="farm" />
		<tag k="ssr:stedsnr" v="9304" />
	</node>
	<node lat="61.244977781381465" lon="7.799158339634503" id="-37315">
		<tag k="name" v="Melsete" />
		<tag k="place" v="isolated_dwelling" />
		<tag k="ssr:stedsnr" v="9905" />
	</node>
	<node lat="61.18734167031433" lon="7.505086118611877" id="-37316">
		<tag k="alt_name" v="Sagi" />
		<tag k="name" v="Kvitingsagi" />
		<tag k="place" v="isolated_dwelling" />
		<tag k="ssr:stedsnr" v="10287" />
	</node>
	<node lat="61.19154270092151" lon="7.615046623108736" id="-37317">
		<tag k="fixme" v="multiple name tags, choose one and add the other to alt_name; consider place=hamlet" />
		<tag k="name" v="Natvik;Viki" />
		<tag k="place" v="farm" />
		<tag k="ssr:stedsnr" v="10290" />
	</node>
	<node lat="61.349980554992385" lon="7.756680564413298" id="-37331">
		<tag k="name" v="Høyseter" />
		<tag k="place" v="farm" />
		<tag k="ssr:stedsnr" v="47870" />
	</node>
	<node lat="61.25227777806259" lon="7.551605551870077" id="-37347">
		<tag k="historic" v="shieling" />
		<tag k="name" v="Fagerbu" />
		<tag k="place" v="isolated_dwelling" />
		<tag k="ssr:stedsnr" v="69632" />
	</node>
	<node lat="61.191761111128656" lon="7.610999998738474" id="-37372">
		<tag k="name" v="Sva" />
		<tag k="place" v="farm" />
		<tag k="ssr:stedsnr" v="108279" />
	</node>
	<node lat="61.308636110746534" lon="7.824383324845402" id="-37376">
		<tag k="name" v="Røti" />
		<tag k="place" v="quarter" />
		<tag k="ssr:stedsnr" v="108791" />
	</node>
	<node lat="61.31151666375352" lon="7.8244222142820075" id="-37384">
		<tag k="building" v="industrial" />
		<tag k="industrial" v="factory" />
		<tag k="name" v="Årdal og Sunndal verk" />
		<tag k="ssr:stedsnr" v="250898" />
	</node>
	<node lat="61.359352777268896" lon="7.873016662696382" id="-37389">
		<tag k="name" v="Vårstølen" />
		<tag k="place" v="isolated_dwelling" />
		<tag k="ssr:stedsnr" v="250948" />
	</node>
	<node lat="61.348215481862624" lon="7.879046450495555" id="-37390">
		<tag k="name" v="Skori" />
		<tag k="place" v="farm" />
		<tag k="ssr:stedsnr" v="250956" />
	</node>
	<node lat="61.24520555999182" lon="7.5169527864086785" id="-37405">
		<tag k="historic" v="shieling" />
		<tag k="name" v="Ljotelistølen" />
		<tag k="place" v="isolated_dwelling" />
		<tag k="ssr:stedsnr" v="252337" />
	</node>
	<node lat="61.32208333628316" lon="7.831349996522781" id="-37415">
		<tag k="alt_name" v="Teigen" />
		<tag k="fixme" v="consider place=suburb, village or hamlet" />
		<tag k="name" v="Tronteigen" />
		<tag k="place" v="quarter" />
		<tag k="ssr:stedsnr" v="129925" />
	</node>
	<node lat="61.237966667279615" lon="7.553227784257936" id="-37421">
		<tag k="name" v="Hagane" />
		<tag k="place" v="farm" />
		<tag k="ssr:stedsnr" v="130328" />
	</node>
	<node lat="61.31748888556233" lon="7.817197220348255" id="-37438">
		<tag k="name" v="Ytre Moa" />
		<tag k="place" v="farm" />
		<tag k="ssr:stedsnr" v="168768" />
	</node>
	<node lat="61.31441666589965" lon="7.724788896973064" id="-37445">
		<tag k="name" v="Buhaug" />
		<tag k="place" v="locality" />
		<tag k="ssr:stedsnr" v="189925" />
	</node>
	<node lat="61.28612777929827" lon="7.675461118869348" id="-37447">
		<tag k="historic" v="shieling" />
		<tag k="name" v="Kaldesete" />
		<tag k="place" v="isolated_dwelling" />
		<tag k="ssr:stedsnr" v="190607" />
	</node>
	<node lat="61.299552781006255" lon="7.8450833285135495" id="-37451">
		<tag k="name" v="Toppen" />
		<tag k="place" v="isolated_dwelling" />
		<tag k="ssr:stedsnr" v="190902" />
	</node>
	<node lat="61.295808330707175" lon="7.8353333256760145" id="-37452">
		<tag k="historic" v="shieling" />
		<tag k="name" v="Rausdalen" />
		<tag k="place" v="isolated_dwelling" />
		<tag k="ssr:stedsnr" v="190904" />
	</node>
	<node lat="61.19084999614966" lon="7.614836108901116" id="-37478">
		<tag k="name" v="Lunden" />
		<tag k="place" v="farm" />
		<tag k="ssr:stedsnr" v="290275" />
	</node>
	<node lat="61.31020277819945" lon="7.8238583324561235" id="-37479">
		<tag k="name" v="Resaland" />
		<tag k="place" v="quarter" />
		<tag k="ssr:stedsnr" v="290729" />
	</node>
	<node lat="61.24893466337388" lon="7.586609410758315" id="-37494">
		<tag k="name" v="Åsete" />
		<tag k="place" v="farm" />
		<tag k="ssr:stedsnr" v="313373" />
	</node>
	<node lat="61.28238333157281" lon="7.935588886834307" id="-37498">
		<tag k="name" v="Kyrkjehytta" />
		<tag k="place" v="isolated_dwelling" />
		<tag k="ssr:stedsnr" v="471640" />
	</node>
	<node lat="61.28813888716033" lon="7.763341675577136" id="-37509">
		<tag k="name" v="Geithus" />
		<tag k="place" v="isolated_dwelling" />
		<tag k="ssr:stedsnr" v="371907" />
	</node>
	<node lat="61.32118055430259" lon="7.717619449424453" id="-37512">
		<tag k="historic" v="shieling" />
		<tag k="name" v="Bakken" />
		<tag k="place" v="isolated_dwelling" />
		<tag k="ssr:stedsnr" v="372616" />
	</node>
	<node lat="61.15969999737016" lon="7.742150003681146" id="-37529">
		<tag k="name" v="Nyset" />
		<tag k="place" v="locality" />
		<tag k="ssr:stedsnr" v="494874" />
	</node>
	<node lat="61.35661110907051" lon="7.877041658373099" id="-37537">
=======
<osm generator="osmapis" version="0.6">
	<node id="-679420" lat="61.3566111091" lon="7.87704165837">
>>>>>>> e1d4bc35ff8a6074a6f2e91616a996b547c36f15
		<tag k="name" v="Syne" />
		<tag k="place" v="locality" />
		<tag k="ssr:stedsnr" v="411789" />
	</node>
<<<<<<< HEAD
	<node lat="61.3449249965946" lon="7.945258342706802" id="-37544">
		<tag k="name" v="Fremre Hjelledalen" />
		<tag k="place" v="isolated_dwelling" />
		<tag k="ssr:stedsnr" v="432937" />
	</node>
	<node lat="61.316905644562894" lon="7.717457612684434" id="-37547">
=======
	<node id="-678903" lat="61.2090172411" lon="7.53296750637">
		<tag k="alt_name" v="Offerdal, indre;Offerdal;Ofredal;Indre Ofredal" />
>>>>>>> e1d4bc35ff8a6074a6f2e91616a996b547c36f15
		<tag k="fixme" v="consider place=hamlet" />
		<tag k="name" v="Torpen" />
		<tag k="place" v="farm" />
		<tag k="ssr:stedsnr" v="433582" />
	</node>
	<node lat="61.30631028682667" lon="7.814610466921301" id="-37549">
		<tag k="fixme" v="consider place=hamlet" />
		<tag k="name" v="Ve" />
		<tag k="place" v="farm" />
		<tag k="ssr:stedsnr" v="433915" />
	</node>
	<node lat="61.35871389171375" lon="7.849641658798013" id="-37557">
		<tag k="alt_name" v="Gravdalen turisthytte" />
		<tag k="fixme" v="consider tourism=alpine_hut or tourism=chalet" />
		<tag k="name" v="Gravdalen" />
		<tag k="old_name" v="Gravdal" />
		<tag k="ssr:stedsnr" v="492954" />
		<tag k="tourism" v="wilderness_hut" />
	</node>
<<<<<<< HEAD
	<node lat="61.290291663780884" lon="7.689244445772966" id="-37563">
=======
	<node id="-678900" lat="61.1641333348" lon="7.68175000151">
>>>>>>> e1d4bc35ff8a6074a6f2e91616a996b547c36f15
		<tag k="historic" v="shieling" />
		<tag k="name" v="Skor" />
		<tag k="place" v="isolated_dwelling" />
		<tag k="ssr:stedsnr" v="493620" />
	</node>
<<<<<<< HEAD
	<node lat="61.364138893016296" lon="7.763055564618799" id="-37573">
		<tag k="historic" v="shieling" />
		<tag k="name" v="Åsete" />
		<tag k="place" v="isolated_dwelling" />
		<tag k="ssr:stedsnr" v="493987" />
	</node>
	<node lat="61.24665833416274" lon="7.655469450271352" id="-37575">
		<tag k="name" v="Hjellsengane" />
		<tag k="place" v="farm" />
		<tag k="ssr:stedsnr" v="494336" />
	</node>
	<node lat="61.26859721934567" lon="7.708649998562167" id="-37590">
		<tag k="name" v="Lindvikdalstølen" />
=======
	<node id="-679251" lat="61.2679277808" lon="7.66285555396">
		<tag k="historic" v="shieling" />
		<tag k="name" v="Dalen" />
		<tag k="place" v="locality" />
		<tag k="ssr:stedsnr" v="129557" />
	</node>
	<node id="-678896" lat="61.1596999974" lon="7.74215000368">
		<tag k="name" v="Nyset" />
		<tag k="place" v="locality" />
		<tag k="ssr:stedsnr" v="494874" />
	</node>
	<node id="-678893" lat="61.2425888934" lon="7.54381111696">
		<tag k="name" v="Meinsete" />
>>>>>>> e1d4bc35ff8a6074a6f2e91616a996b547c36f15
		<tag k="place" v="locality" />
		<tag k="ssr:stedsnr" v="471180" />
	</node>
<<<<<<< HEAD
	<node lat="61.32482777420601" lon="7.722233332763864" id="-37595">
		<tag k="alt_name" v="Ormesete" />
		<tag k="historic" v="shieling" />
		<tag k="name" v="Ormsete" />
		<tag k="place" v="isolated_dwelling" />
		<tag k="ssr:stedsnr" v="675957" />
	</node>
	<node lat="61.32680586584538" lon="7.852626137815553" id="-37600">
=======
	<node id="-678889" lat="61.195055556" lon="7.66553610841">
		<tag k="historic" v="shieling" />
		<tag k="name" v="Fremre Årøydalen" />
		<tag k="place" v="locality" />
		<tag k="ssr:stedsnr" v="677291" />
	</node>
	<node id="-678879" lat="61.3829852337" lon="7.96615131945">
		<tag k="name" v="Ingjerdbu" />
		<tag k="place" v="isolated_dwelling" />
		<tag k="ssr:stedsnr" v="675983" />
	</node>
	<node id="-679390" lat="61.2696500007" lon="7.79061111554">
		<tag k="historic" v="shieling" />
		<tag k="name" v="Liastølen" />
		<tag k="place" v="locality" />
		<tag k="ssr:stedsnr" v="372892" />
	</node>
	<node id="-678877" lat="61.3268058658" lon="7.85262613782">
>>>>>>> e1d4bc35ff8a6074a6f2e91616a996b547c36f15
		<tag k="fixme" v="consider place=hamlet" />
		<tag k="name" v="Svalheim" />
		<tag k="place" v="farm" />
		<tag k="ssr:stedsnr" v="675936" />
	</node>
<<<<<<< HEAD
	<node lat="61.307930552224406" lon="7.806538887209659" id="-37601">
		<tag k="leisure" v="pitch" />
		<tag k="name" v="Tennegranden" />
		<tag k="ssr:stedsnr" v="471764" />
	</node>
	<node lat="61.332180557764445" lon="7.867002785971412" id="-37604">
		<tag k="name" v="Øygarden" />
		<tag k="place" v="farm" />
		<tag k="ssr:stedsnr" v="675961" />
	</node>
	<node lat="61.3345102496135" lon="7.77089571603767" id="-37605">
=======
	<node id="-679378" lat="61.2881388872" lon="7.76334167558">
		<tag k="name" v="Geithus" />
		<tag k="place" v="isolated_dwelling" />
		<tag k="ssr:stedsnr" v="371907" />
	</node>
	<node id="-678864" lat="61.241888885" lon="7.56028611091">
		<tag k="name" v="Fornebu" />
		<tag k="place" v="farm" />
		<tag k="ssr:stedsnr" v="434316" />
	</node>
	<node id="-679375" lat="61.2855388892" lon="7.66313333697">
		<tag k="historic" v="shieling" />
		<tag k="name" v="Kletta" />
		<tag k="place" v="locality" />
		<tag k="ssr:stedsnr" v="371600" />
	</node>
	<node id="-678862" lat="61.3063102868" lon="7.81461046692">
>>>>>>> e1d4bc35ff8a6074a6f2e91616a996b547c36f15
		<tag k="fixme" v="consider place=hamlet" />
		<tag k="name" v="Åbøle" />
		<tag k="place" v="farm" />
<<<<<<< HEAD
		<tag k="ssr:stedsnr" v="675962" />
	</node>
	<node lat="61.38298523365605" lon="7.966151319448253" id="-37606">
		<tag k="name" v="Ingjerdbu" />
=======
		<tag k="ssr:stedsnr" v="433915" />
	</node>
	<node id="-678733" lat="61.299552781" lon="7.84508332851">
		<tag k="name" v="Toppen" />
		<tag k="place" v="isolated_dwelling" />
		<tag k="ssr:stedsnr" v="190902" />
	</node>
	<node id="-678860" lat="61.3202972192" lon="7.66419444266">
		<tag k="historic" v="shieling" />
		<tag k="name" v="Feninga" />
		<tag k="place" v="locality" />
		<tag k="ssr:stedsnr" v="433648" />
	</node>
	<node id="-679754" lat="61.3216158499" lon="7.83583382239">
		<tag k="name" v="Volldal" />
		<tag k="place" v="locality" />
		<tag k="ssr:stedsnr" v="979271" />
	</node>
	<node id="-679350" lat="61.1482749994" lon="7.65013610855">
		<tag k="name" v="Smørhola" />
>>>>>>> e1d4bc35ff8a6074a6f2e91616a996b547c36f15
		<tag k="place" v="isolated_dwelling" />
		<tag k="ssr:stedsnr" v="675983" />
	</node>
<<<<<<< HEAD
	<node lat="61.19505555595297" lon="7.665536108405754" id="-37614">
		<tag k="historic" v="shieling" />
		<tag k="name" v="Fremre Årøydalen" />
=======
	<node id="-678729" lat="61.2861277793" lon="7.67546111887">
		<tag k="historic" v="shieling" />
		<tag k="name" v="Kaldesete" />
		<tag k="place" v="locality" />
		<tag k="ssr:stedsnr" v="190607" />
	</node>
	<node id="-678836" lat="61.3211805543" lon="7.71761944942">
		<tag k="historic" v="shieling" />
		<tag k="name" v="Bakken" />
		<tag k="place" v="locality" />
		<tag k="ssr:stedsnr" v="372616" />
	</node>
	<node id="-679340" lat="61.3220527742" lon="7.75567500633">
		<tag k="name" v="Li" />
>>>>>>> e1d4bc35ff8a6074a6f2e91616a996b547c36f15
		<tag k="place" v="isolated_dwelling" />
		<tag k="ssr:stedsnr" v="677291" />
	</node>
<<<<<<< HEAD
	<node lat="61.23510086875173" lon="7.5476273966329455" id="-37619">
		<tag k="fixme" v="multiple name tags, choose one and add the other to alt_name; consider place=hamlet" />
		<tag k="name" v="Skogli;Nedre Ofredal" />
		<tag k="place" v="farm" />
		<tag k="ssr:stedsnr" v="484819" />
	</node>
	<node lat="61.316838889541025" lon="7.721213897836534" id="-37628">
=======
	<node id="-678827" lat="61.2466583342" lon="7.65546945027">
		<tag k="name" v="Hjellsengane" />
		<tag k="place" v="farm" />
		<tag k="ssr:stedsnr" v="494336" />
	</node>
	<node id="-678824" lat="61.364138893" lon="7.76305556462">
		<tag k="historic" v="shieling" />
		<tag k="name" v="Åsete" />
		<tag k="place" v="locality" />
		<tag k="ssr:stedsnr" v="493987" />
	</node>
	<node id="-678789" lat="61.2491500032" lon="7.58676666632">
		<tag k="name" v="Åsete" />
		<tag k="place" v="farm" />
		<tag k="ssr:stedsnr" v="313373" />
	</node>
	<node id="-678819" lat="61.3168388895" lon="7.72121389784">
>>>>>>> e1d4bc35ff8a6074a6f2e91616a996b547c36f15
		<tag k="name" v="Haugstad" />
		<tag k="place" v="farm" />
		<tag k="ssr:stedsnr" v="493943" />
	</node>
<<<<<<< HEAD
	<node lat="61.235613890933394" lon="7.701397213095731" id="-37639">
		<tag k="name" v="Tangen" />
=======
	<node id="-679748" lat="61.3324333336" lon="7.77202777021">
		<tag k="name" v="Hagahaugen" />
		<tag k="place" v="farm" />
		<tag k="ssr:stedsnr" v="957933" />
	</node>
	<node id="-678806" lat="61.2902916638" lon="7.68924444577">
		<tag k="historic" v="shieling" />
		<tag k="name" v="Skor" />
>>>>>>> e1d4bc35ff8a6074a6f2e91616a996b547c36f15
		<tag k="place" v="locality" />
		<tag k="ssr:stedsnr" v="532170" />
	</node>
<<<<<<< HEAD
	<node lat="61.30500277348184" lon="7.79511388338611" id="-37644">
		<tag k="name" v="Nausteplassen" />
		<tag k="place" v="quarter" />
		<tag k="ssr:stedsnr" v="532774" />
	</node>
	<node lat="61.279727776853875" lon="7.666702772533657" id="-37655">
		<tag k="name" v="Leitet" />
		<tag k="place" v="locality" />
		<tag k="ssr:stedsnr" v="554609" />
	</node>
	<node lat="61.25208938975555" lon="7.658075873936767" id="-37656">
		<tag k="fixme" v="consider place=hamlet" />
		<tag k="name" v="Asperheim" />
		<tag k="place" v="farm" />
		<tag k="ssr:stedsnr" v="554625" />
	</node>
	<node lat="61.25981271292277" lon="7.656708466869793" id="-37657">
		<tag k="alt_name" v="Dalaker" />
		<tag k="fixme" v="consider place=hamlet" />
		<tag k="name" v="Dalåkre" />
		<tag k="place" v="farm" />
		<tag k="ssr:stedsnr" v="554626" />
	</node>
	<node lat="61.16780555909534" lon="7.559461117190683" id="-37659">
		<tag k="historic" v="shieling" />
		<tag k="name" v="Morki" />
=======
	<node id="-679316" lat="61.2390916676" lon="7.49980000243">
		<tag k="name" v="Rosendal" />
		<tag k="place" v="isolated_dwelling" />
		<tag k="ssr:stedsnr" v="191334" />
	</node>
	<node id="-679313" lat="61.3982083304" lon="7.72465000199">
		<tag k="alt_name" v="Murrane" />
		<tag k="name" v="Murane" />
>>>>>>> e1d4bc35ff8a6074a6f2e91616a996b547c36f15
		<tag k="place" v="isolated_dwelling" />
		<tag k="ssr:stedsnr" v="555228" />
	</node>
<<<<<<< HEAD
	<node lat="61.35615000344976" lon="7.880216668264991" id="-37665">
=======
	<node id="-678796" lat="61.3587138917" lon="7.8496416588">
		<tag k="alt_name" v="Gravdalen turisthytte" />
>>>>>>> e1d4bc35ff8a6074a6f2e91616a996b547c36f15
		<tag k="fixme" v="consider tourism=alpine_hut or tourism=chalet" />
		<tag k="name" v="Avdal gard" />
		<tag k="ssr:stedsnr" v="572097" />
		<tag k="tourism" v="wilderness_hut" />
	</node>
<<<<<<< HEAD
	<node lat="61.27216667083523" lon="7.76447500594296" id="-37675">
		<tag k="name" v="Brennborg" />
		<tag k="place" v="locality" />
		<tag k="ssr:stedsnr" v="614869" />
	</node>
	<node lat="61.272045011427196" lon="7.7731077310999845" id="-37676">
=======
	<node id="-679307" lat="61.2681555586" lon="8.02352777564">
		<tag k="name" v="Sletterust" />
		<tag k="place" v="isolated_dwelling" />
		<tag k="ssr:stedsnr" v="190886" />
	</node>
	<node id="-678790" lat="61.2351008688" lon="7.54762739663">
		<tag k="alt_name" v="Nedre Ofredal" />
>>>>>>> e1d4bc35ff8a6074a6f2e91616a996b547c36f15
		<tag k="fixme" v="consider place=hamlet" />
		<tag k="name" v="Eldegarden" />
		<tag k="place" v="farm" />
		<tag k="ssr:stedsnr" v="614870" />
	</node>
<<<<<<< HEAD
	<node lat="61.32684752326106" lon="7.77288904289044" id="-37679">
		<tag k="fixme" v="consider place=hamlet" />
		<tag k="name" v="Holsete" />
		<tag k="place" v="farm" />
		<tag k="ssr:stedsnr" v="614950" />
	</node>
	<node lat="61.33594444253904" lon="7.7668777743875745" id="-37681">
		<tag k="name" v="Haug" />
		<tag k="place" v="farm" />
		<tag k="ssr:stedsnr" v="614962" />
	</node>
	<node lat="61.24102139210234" lon="7.65779595038653" id="-37688">
		<tag k="fixme" v="consider place=hamlet" />
		<tag k="name" v="Årebru" />
		<tag k="place" v="farm" />
		<tag k="ssr:stedsnr" v="616351" />
	</node>
	<node lat="61.25615555192362" lon="7.655194447761225" id="-37701">
		<tag k="name" v="Nyheim" />
		<tag k="place" v="farm" />
		<tag k="ssr:stedsnr" v="665311" />
	</node>
	<node lat="61.31139166775146" lon="7.788125007308859" id="-37706">
		<tag k="fixme" v="consider place=hamlet" />
		<tag k="name" v="Øvstetun" />
		<tag k="place" v="farm" />
		<tag k="ssr:stedsnr" v="675918" />
	</node>
	<node lat="61.20053888606631" lon="7.6422611067727395" id="-37710">
		<tag k="name" v="Årøyhaugen" />
=======
	<node id="-679301" lat="61.3573277778" lon="7.88881666356">
		<tag k="alt_name" v="Hageberg" />
		<tag k="name" v="Hagaberg" />
		<tag k="place" v="isolated_dwelling" />
		<tag k="ssr:stedsnr" v="189954" />
	</node>
	<node id="-679300" lat="61.3206083353" lon="7.7198111148">
		<tag k="fixme" v="multiple name tags, choose one and add the other to alt_name" />
		<tag k="name" v="Bakken;Odden" />
		<tag k="place" v="isolated_dwelling" />
		<tag k="ssr:stedsnr" v="189943" />
	</node>
	<node id="-679296" lat="61.3144166659" lon="7.72478889697">
		<tag k="name" v="Buhaug" />
		<tag k="place" v="locality" />
		<tag k="ssr:stedsnr" v="189925" />
	</node>
	<node id="-678720" lat="61.2337194486" lon="7.71101389437">
		<tag k="name" v="Sanden" />
		<tag k="place" v="quarter" />
		<tag k="ssr:stedsnr" v="290200" />
	</node>
	<node id="-678778" lat="61.3079305522" lon="7.80653888721">
		<tag k="leisure" v="pitch" />
		<tag k="name" v="Tennegranden" />
		<tag k="ssr:stedsnr" v="471764" />
	</node>
	<node id="-678777" lat="61.2823833316" lon="7.93558888683">
		<tag k="name" v="Kyrkjehytta" />
		<tag k="place" v="isolated_dwelling" />
		<tag k="ssr:stedsnr" v="471640" />
	</node>
	<node id="-678770" lat="61.2685972193" lon="7.70864999856">
		<tag k="name" v="Lindvikdalstølen" />
>>>>>>> e1d4bc35ff8a6074a6f2e91616a996b547c36f15
		<tag k="place" v="locality" />
		<tag k="ssr:stedsnr" v="676317" />
	</node>
<<<<<<< HEAD
	<node lat="61.24258889337341" lon="7.543811116962277" id="-37714">
		<tag k="name" v="Meinsete" />
		<tag k="place" v="locality" />
		<tag k="ssr:stedsnr" v="677337" />
	</node>
	<node lat="61.249991666717435" lon="7.651150006704824" id="-37725">
		<tag k="name" v="Seimshagane" />
=======
	<node id="-679279" lat="61.2418583336" lon="7.7093749928">
		<tag k="name" v="Nedrevollane" />
>>>>>>> e1d4bc35ff8a6074a6f2e91616a996b547c36f15
		<tag k="place" v="quarter" />
		<tag k="ssr:stedsnr" v="706970" />
	</node>
<<<<<<< HEAD
	<node lat="61.31042943143981" lon="7.791890028161353" id="-37754">
		<tag k="alt_name" v="Midtun" />
		<tag k="fixme" v="consider place=hamlet" />
		<tag k="name" v="Midttun" />
=======
	<node id="-678763" lat="61.2097333376" lon="7.53152221977">
		<tag k="name" v="Morland" />
>>>>>>> e1d4bc35ff8a6074a6f2e91616a996b547c36f15
		<tag k="place" v="farm" />
		<tag k="ssr:stedsnr" v="736909" />
	</node>
<<<<<<< HEAD
	<node lat="61.30352777656308" lon="7.9011694423027805" id="-37756">
		<tag k="historic" v="shieling" />
		<tag k="name" v="Øyestølen" />
		<tag k="place" v="isolated_dwelling" />
		<tag k="ssr:stedsnr" v="736916" />
	</node>
	<node lat="61.322063888341944" lon="7.776669442358735" id="-37757">
		<tag k="fixme" v="multiple name tags, choose one and add the other to alt_name" />
		<tag k="name" v="Nedregjerdet;Muregjerde" />
=======
	<node id="-678761" lat="61.1908499961" lon="7.6148361089">
		<tag k="name" v="Lunden" />
>>>>>>> e1d4bc35ff8a6074a6f2e91616a996b547c36f15
		<tag k="place" v="farm" />
		<tag k="ssr:stedsnr" v="736920" />
	</node>
<<<<<<< HEAD
	<node lat="61.31629444052629" lon="7.731661108141734" id="-37759">
		<tag k="name" v="Bjørkhaug" />
		<tag k="place" v="farm" />
		<tag k="ssr:stedsnr" v="736929" />
	</node>
	<node lat="61.30815555460673" lon="7.747969452861541" id="-37760">
		<tag k="name" v="Ekra" />
		<tag k="place" v="isolated_dwelling" />
		<tag k="ssr:stedsnr" v="736933" />
	</node>
	<node lat="61.22486110973611" lon="7.527724998958224" id="-37761">
		<tag k="name" v="Soten" />
		<tag k="place" v="isolated_dwelling" />
		<tag k="ssr:stedsnr" v="737320" />
	</node>
	<node lat="61.18718611168973" lon="7.627136117161455" id="-37765">
		<tag k="fixme" v="consider place=hamlet" />
		<tag k="name" v="Hovland" />
=======
	<node id="-678748" lat="61.2170583298" lon="7.54531389628">
		<tag k="name" v="Jordi" />
		<tag k="place" v="farm" />
		<tag k="ssr:stedsnr" v="229512" />
	</node>
	<node id="-678744" lat="61.3744555578" lon="7.92186944986">
		<tag k="name" v="Flaten" />
>>>>>>> e1d4bc35ff8a6074a6f2e91616a996b547c36f15
		<tag k="place" v="farm" />
		<tag k="ssr:stedsnr" v="738309" />
	</node>
<<<<<<< HEAD
	<node lat="61.23580555382207" lon="7.7037000002398175" id="-37784">
		<tag k="name" v="Årdalstangen" />
		<tag k="place" v="village" />
		<tag k="ssr:stedsnr" v="798311" />
	</node>
	<node lat="61.24242777516192" lon="7.728375000431307" id="-37790">
		<tag k="name" v="Vatne" />
=======
	<node id="-679255" lat="61.3012777752" lon="7.6944250024">
		<tag k="historic" v="shieling" />
		<tag k="name" v="Sjursete" />
		<tag k="place" v="locality" />
		<tag k="ssr:stedsnr" v="129592" />
	</node>
	<node id="-679763" lat="61.3182427057" lon="7.82692243023">
		<tag k="name" v="Moakamben" />
>>>>>>> e1d4bc35ff8a6074a6f2e91616a996b547c36f15
		<tag k="place" v="locality" />
		<tag k="ssr:stedsnr" v="798905" />
	</node>
<<<<<<< HEAD
	<node lat="61.19233055935667" lon="7.618924998763194" id="-37794">
		<tag k="fixme" v="consider place=hamlet" />
		<tag k="loc_name" v="Natvik;Nattvik" />
		<tag k="name" v="Naddvik" />
		<tag k="place" v="village" />
		<tag k="ssr:stedsnr" v="799317" />
	</node>
	<node lat="61.34235555473642" lon="7.904544451124043" id="-37796">
		<tag k="name" v="Heimre Hjelledalen" />
		<tag k="place" v="isolated_dwelling" />
		<tag k="ssr:stedsnr" v="917929" />
	</node>
	<node lat="61.30850277906838" lon="7.796938896853151" id="-37801">
		<tag k="fixme" v="consider place=suburb, village or hamlet" />
		<tag k="name" v="Farnes" />
		<tag k="place" v="quarter" />
		<tag k="ssr:stedsnr" v="918930" />
	</node>
	<node lat="61.40450305734174" lon="7.997242395471267" id="-37806">
		<tag k="historic" v="shieling" />
		<tag k="name" v="Fleskedalen" />
		<tag k="place" v="isolated_dwelling" />
		<tag k="ssr:stedsnr" v="918992" />
	</node>
	<node lat="61.208861914781785" lon="7.498019667675843" id="-37813">
=======
	<node id="-678737" lat="61.2477555533" lon="7.53944166935">
		<tag k="alt_name" v="Langemuren" />
		<tag k="barrier" v="fence" />
		<tag k="name" v="Langmuren" />
		<tag k="ssr:stedsnr" v="191327" />
	</node>
	<node id="-679248" lat="61.328924999" lon="7.7453111105">
		<tag k="name" v="Osestølen" />
		<tag k="place" v="locality" />
		<tag k="ssr:stedsnr" v="128927" />
	</node>
	<node id="-678734" lat="61.2958083307" lon="7.83533332568">
		<tag k="historic" v="shieling" />
		<tag k="name" v="Rausdalen" />
		<tag k="place" v="locality" />
		<tag k="ssr:stedsnr" v="190904" />
	</node>
	<node id="-679757" lat="61.2429474085" lon="7.65171025001">
>>>>>>> e1d4bc35ff8a6074a6f2e91616a996b547c36f15
		<tag k="fixme" v="consider place=hamlet" />
		<tag k="name" v="Ytre Ofredal" />
		<tag k="place" v="farm" />
		<tag k="ssr:stedsnr" v="920319" />
	</node>
<<<<<<< HEAD
	<node lat="61.24396110993844" lon="7.712624991643686" id="-37822">
		<tag k="name" v="Øvrevollene" />
		<tag k="place" v="quarter" />
		<tag k="ssr:stedsnr" v="836205" />
	</node>
	<node lat="61.19213333414469" lon="7.607094448286302" id="-37824">
		<tag k="barrier" v="fence" />
		<tag k="name" v="Svagjerdet" />
		<tag k="ssr:stedsnr" v="836234" />
	</node>
	<node lat="61.32553889050896" lon="7.774591657560812" id="-37836">
		<tag k="name" v="Vigardsletti" />
		<tag k="place" v="farm" />
		<tag k="ssr:stedsnr" v="857918" />
	</node>
	<node lat="61.312231902012556" lon="7.7414870551197446" id="-37837">
		<tag k="alt_name" v="Nondalen, austre;Nundalen" />
=======
	<node id="-679756" lat="61.3108509882" lon="7.79280941815">
		<tag k="name" v="Hestetun" />
		<tag k="place" v="locality" />
		<tag k="ssr:stedsnr" v="979274" />
	</node>
	<node id="-679755" lat="61.3089561118" lon="7.79224745965">
		<tag k="name" v="Øyri" />
		<tag k="place" v="locality" />
		<tag k="ssr:stedsnr" v="979273" />
	</node>
	<node id="-679242" lat="61.3219111122" lon="7.83552222555">
		<tag k="name" v="Volldal" />
		<tag k="place" v="quarter" />
		<tag k="ssr:stedsnr" v="108990" />
	</node>
	<node id="-679753" lat="61.3751631283" lon="7.92559957488">
>>>>>>> e1d4bc35ff8a6074a6f2e91616a996b547c36f15
		<tag k="fixme" v="consider place=hamlet" />
		<tag k="name" v="Austre Nondalen" />
		<tag k="place" v="farm" />
		<tag k="ssr:stedsnr" v="857928" />
	</node>
	<node lat="61.32063333572131" lon="7.69683333252113" id="-37841">
		<tag k="alt_name" v="Fenadbu" />
		<tag k="name" v="Fenabu" />
		<tag k="place" v="locality" />
		<tag k="ssr:stedsnr" v="858688" />
	</node>
<<<<<<< HEAD
	<node lat="61.26578055832225" lon="7.570174991469964" id="-37842">
		<tag k="historic" v="shieling" />
		<tag k="name" v="Soleiberg" />
		<tag k="place" v="isolated_dwelling" />
		<tag k="ssr:stedsnr" v="858581" />
	</node>
	<node lat="61.30375833108444" lon="7.661258333456349" id="-37855">
		<tag k="name" v="Feninggarden" />
		<tag k="place" v="locality" />
		<tag k="ssr:stedsnr" v="896113" />
	</node>
	<node lat="61.19702499873867" lon="7.6557194478289725" id="-37870">
		<tag k="historic" v="shieling" />
		<tag k="name" v="Heimre Årøydalen" />
		<tag k="place" v="isolated_dwelling" />
		<tag k="ssr:stedsnr" v="919307" />
	</node>
	<node lat="61.24413168301744" lon="7.652835165251565" id="-37871">
		<tag k="fixme" v="consider place=suburb, village or hamlet" />
		<tag k="name" v="Seim" />
		<tag k="place" v="quarter" />
		<tag k="ssr:stedsnr" v="919360" />
	</node>
	<node lat="61.21681341797559" lon="7.5465830493646795" id="-37876">
		<tag k="fixme" v="multiple name tags, choose one and add the other to alt_name" />
		<tag k="name" v="Jordi;Indre Ofredal" />
		<tag k="place" v="farm" />
		<tag k="ssr:stedsnr" v="229512" />
	</node>
	<node lat="61.340797218270204" lon="7.877608329677575" id="-37883">
=======
	<node id="-679236" lat="61.3086361107" lon="7.82438332485">
		<tag k="name" v="Røti" />
		<tag k="place" v="quarter" />
		<tag k="ssr:stedsnr" v="108791" />
	</node>
	<node id="-679744" lat="61.3407972183" lon="7.87760832968">
>>>>>>> e1d4bc35ff8a6074a6f2e91616a996b547c36f15
		<tag k="name" v="Hjellen" />
		<tag k="place" v="farm" />
		<tag k="ssr:stedsnr" v="957813" />
	</node>
<<<<<<< HEAD
	<node lat="61.37516312832972" lon="7.925599574883928" id="-37885">
		<tag k="fixme" v="consider place=hamlet" />
		<tag k="name" v="Vetti" />
		<tag k="place" v="farm" />
		<tag k="ssr:stedsnr" v="979269" />
	</node>
	<node lat="61.321615849882825" lon="7.835833822391808" id="-37886">
		<tag k="name" v="Volldal" />
		<tag k="place" v="locality" />
		<tag k="ssr:stedsnr" v="979271" />
	</node>
	<node lat="61.308956111758974" lon="7.792247459645062" id="-37887">
		<tag k="name" v="Øyri" />
=======
	<node id="-679229" lat="61.1917611111" lon="7.61099999874">
		<tag k="name" v="Sva" />
		<tag k="place" v="farm" />
		<tag k="ssr:stedsnr" v="108279" />
	</node>
	<node id="-678713" lat="61.3174888856" lon="7.81719722035">
		<tag k="name" v="Ytre Moa" />
		<tag k="place" v="farm" />
		<tag k="ssr:stedsnr" v="168768" />
	</node>
	<node id="-679224" lat="61.2480611153" lon="7.73595833973">
		<tag k="name" v="Storegalden" />
>>>>>>> e1d4bc35ff8a6074a6f2e91616a996b547c36f15
		<tag k="place" v="locality" />
		<tag k="ssr:stedsnr" v="979273" />
	</node>
<<<<<<< HEAD
	<node lat="61.31085098824846" lon="7.7928094181507515" id="-37888">
		<tag k="name" v="Hestetun" />
=======
	<node id="-679223" lat="61.2448833295" lon="7.73418610579">
		<tag k="name" v="Vetlegalden" />
>>>>>>> e1d4bc35ff8a6074a6f2e91616a996b547c36f15
		<tag k="place" v="locality" />
		<tag k="ssr:stedsnr" v="979274" />
	</node>
<<<<<<< HEAD
	<node lat="61.24294740845011" lon="7.651710250011633" id="-37889">
		<tag k="fixme" v="consider place=hamlet" />
		<tag k="name" v="Seim" />
		<tag k="place" v="farm" />
		<tag k="ssr:stedsnr" v="979277" />
	</node>
	<node lat="61.320925001030226" lon="7.848705553427037" id="-37898">
		<tag k="alt_name" v="Lykja" />
		<tag k="name" v="Lykkja" />
=======
	<node id="-679217" lat="61.373461107" lon="7.92207221424">
		<tag k="name" v="Lauvhaugen" />
		<tag k="place" v="farm" />
		<tag k="ssr:stedsnr" v="106716" />
	</node>
	<node id="-679214" lat="61.3835333366" lon="7.96344721858">
		<tag k="historic" v="shieling" />
		<tag k="name" v="Vettismorki" />
		<tag k="place" v="locality" />
		<tag k="ssr:stedsnr" v="94134" />
	</node>
	<node id="-678701" lat="61.2379666673" lon="7.55322778426">
		<tag k="name" v="Hagane" />
>>>>>>> e1d4bc35ff8a6074a6f2e91616a996b547c36f15
		<tag k="place" v="farm" />
		<tag k="ssr:stedsnr" v="7930" />
	</node>
<<<<<<< HEAD
	<node lat="61.28881666975463" lon="7.560486119584891" id="-37901">
		<tag k="historic" v="shieling" />
		<tag k="name" v="Slettedalen" />
		<tag k="place" v="isolated_dwelling" />
		<tag k="ssr:stedsnr" v="8637" />
	</node>
	<node lat="61.26582500303916" lon="7.787808324407427" id="-37904">
		<tag k="name" v="Onsete" />
		<tag k="place" v="isolated_dwelling" />
		<tag k="ssr:stedsnr" v="8882" />
	</node>
	<node lat="61.308858329292114" lon="7.802844451324124" id="-37909">
		<tag k="name" v="Øvre Årdal" />
		<tag k="place" v="village" />
		<tag k="ssr:stedsnr" v="8921" />
	</node>
	<node lat="61.374484164233074" lon="7.926793595671481" id="-37943">
=======
	<node id="-678699" lat="61.2281111078" lon="7.50193611875">
		<tag k="name" v="Plassen" />
		<tag k="place" v="locality" />
		<tag k="ssr:stedsnr" v="130320" />
	</node>
	<node id="-678697" lat="61.3220833363" lon="7.83134999652">
		<tag k="alt_name" v="Teigen" />
		<tag k="fixme" v="consider place=suburb, village or hamlet" />
		<tag k="name" v="Tronteigen" />
		<tag k="place" v="quarter" />
		<tag k="ssr:stedsnr" v="129925" />
	</node>
	<node id="-679720" lat="61.2150111135" lon="7.54778611697">
		<tag k="name" v="Dokki" />
		<tag k="place" v="locality" />
		<tag k="ssr:stedsnr" v="859301" />
	</node>
	<node id="-679207" lat="61.3744841642" lon="7.92679359567">
>>>>>>> e1d4bc35ff8a6074a6f2e91616a996b547c36f15
		<tag k="fixme" v="consider tourism=alpine_hut or tourism=chalet" />
		<tag k="name" v="Vetti Gard" />
		<tag k="old_name" v="Vetti turisthytte;Vetti" />
		<tag k="ssr:stedsnr" v="69970" />
		<tag k="tourism" v="wilderness_hut" />
	</node>
<<<<<<< HEAD
	<node lat="61.2745305550866" lon="7.580894445137864" id="-37944">
		<tag k="historic" v="shieling" />
		<tag k="name" v="Nystølen" />
		<tag k="place" v="isolated_dwelling" />
		<tag k="ssr:stedsnr" v="69619" />
	</node>
	<node lat="61.240069092435796" lon="7.70361348279664" id="-37945">
=======
	<node id="-678693" lat="61.3152425646" lon="7.83628428179">
>>>>>>> e1d4bc35ff8a6074a6f2e91616a996b547c36f15
		<tag k="fixme" v="consider place=hamlet" />
		<tag k="name" v="Hæreid" />
		<tag k="place" v="farm" />
<<<<<<< HEAD
		<tag k="ssr:stedsnr" v="70318" />
	</node>
	<node lat="61.383533336640724" lon="7.963447218582118" id="-37951">
=======
		<tag k="ssr:stedsnr" v="129911" />
	</node>
	<node id="-679302" lat="61.3561214491" lon="7.8809665605">
		<tag k="alt_name" v="Avdal" />
		<tag k="fixme" v="consider place=hamlet" />
		<tag k="name" v="Avdalen" />
		<tag k="place" v="farm" />
		<tag k="ssr:stedsnr" v="189955" />
	</node>
	<node id="-679711" lat="61.3206333357" lon="7.69683333252">
		<tag k="alt_name" v="Fenadbu" />
		<tag k="name" v="Fenabu" />
		<tag k="place" v="locality" />
		<tag k="ssr:stedsnr" v="858688" />
	</node>
	<node id="-679710" lat="61.2657805583" lon="7.57017499147">
>>>>>>> e1d4bc35ff8a6074a6f2e91616a996b547c36f15
		<tag k="historic" v="shieling" />
		<tag k="name" v="Vettismorki" />
		<tag k="place" v="isolated_dwelling" />
		<tag k="ssr:stedsnr" v="94134" />
	</node>
	<node lat="61.22811110778413" lon="7.5019361187521705" id="-37952">
		<tag k="name" v="Plassen" />
		<tag k="place" v="locality" />
		<tag k="ssr:stedsnr" v="130320" />
	</node>
<<<<<<< HEAD
	<node lat="61.37346110696531" lon="7.922072214241842" id="-37953">
		<tag k="name" v="Lauvhaugen" />
=======
	<node id="-679709" lat="61.329777776" lon="7.85993332575">
		<tag k="name" v="Temresletti" />
>>>>>>> e1d4bc35ff8a6074a6f2e91616a996b547c36f15
		<tag k="place" v="farm" />
		<tag k="ssr:stedsnr" v="106716" />
	</node>
<<<<<<< HEAD
	<node lat="61.24488332947706" lon="7.734186105787124" id="-37959">
		<tag k="name" v="Vetlegalden" />
=======
	<node id="-678683" lat="61.24520556" lon="7.51695278641">
		<tag k="historic" v="shieling" />
		<tag k="name" v="Ljotelistølen" />
>>>>>>> e1d4bc35ff8a6074a6f2e91616a996b547c36f15
		<tag k="place" v="locality" />
		<tag k="ssr:stedsnr" v="108036" />
	</node>
<<<<<<< HEAD
	<node lat="61.24806111534949" lon="7.735958339726967" id="-37960">
		<tag k="name" v="Storegalden" />
		<tag k="place" v="locality" />
		<tag k="ssr:stedsnr" v="108038" />
	</node>
	<node lat="61.32191111222873" lon="7.8355222255520065" id="-37968">
		<tag k="name" v="Volldal" />
		<tag k="place" v="quarter" />
		<tag k="ssr:stedsnr" v="108990" />
	</node>
	<node lat="61.32892499903667" lon="7.74531111049928" id="-37973">
		<tag k="name" v="Osestølen" />
=======
	<node id="-679044" lat="61.4045030573" lon="7.99724239547">
		<tag k="historic" v="shieling" />
		<tag k="name" v="Fleskedalen" />
		<tag k="place" v="locality" />
		<tag k="ssr:stedsnr" v="918992" />
	</node>
	<node id="-679699" lat="61.2413658046" lon="7.55994761902">
		<tag k="alt_name" v="Øvre Ofredal" />
		<tag k="fixme" v="consider place=hamlet" />
		<tag k="name" v="Øvre Offerdal" />
		<tag k="place" v="farm" />
		<tag k="ssr:stedsnr" v="849848" />
	</node>
	<node id="-679698" lat="61.2388689008" lon="7.70325364385">
		<tag k="fixme" v="consider place=hamlet" />
		<tag k="loc_name" v="Brekka" />
		<tag k="name" v="Brekken" />
		<tag k="place" v="farm" />
		<tag k="ssr:stedsnr" v="846865" />
	</node>
	<node id="-679696" lat="61.2109361078" lon="7.40807777261">
		<tag k="name" v="Trondskogstølen" />
>>>>>>> e1d4bc35ff8a6074a6f2e91616a996b547c36f15
		<tag k="place" v="locality" />
		<tag k="ssr:stedsnr" v="128927" />
	</node>
<<<<<<< HEAD
	<node lat="61.26792778078918" lon="7.662855553962109" id="-37974">
		<tag k="historic" v="shieling" />
		<tag k="name" v="Dalen" />
		<tag k="place" v="isolated_dwelling" />
		<tag k="ssr:stedsnr" v="129557" />
	</node>
	<node lat="61.301277775158646" lon="7.694425002398222" id="-37977">
		<tag k="historic" v="shieling" />
		<tag k="name" v="Sjursete" />
		<tag k="place" v="isolated_dwelling" />
		<tag k="ssr:stedsnr" v="129592" />
	</node>
	<node lat="61.315242564568905" lon="7.836284281786011" id="-37985">
		<tag k="fixme" v="consider place=hamlet" />
		<tag k="name" v="Moa" />
		<tag k="place" v="farm" />
		<tag k="ssr:stedsnr" v="129911" />
	</node>
	<node lat="61.24185833356902" lon="7.709374992797754" id="-38003">
		<tag k="name" v="Nedrevollane" />
=======
	<node id="-679183" lat="61.349980555" lon="7.75668056441">
		<tag k="name" v="Høyseter" />
		<tag k="place" v="farm" />
		<tag k="ssr:stedsnr" v="47870" />
	</node>
	<node id="-679692" lat="61.1921333341" lon="7.60709444829">
		<tag k="barrier" v="fence" />
		<tag k="name" v="Svagjerdet" />
		<tag k="ssr:stedsnr" v="836234" />
	</node>
	<node id="-679391" lat="61.2690194464" lon="7.80103610416">
		<tag k="name" v="Kvernli" />
		<tag k="place" v="isolated_dwelling" />
		<tag k="ssr:stedsnr" v="372897" />
	</node>
	<node id="-679690" lat="61.2439611099" lon="7.71262499164">
		<tag k="name" v="Øvrevollene" />
>>>>>>> e1d4bc35ff8a6074a6f2e91616a996b547c36f15
		<tag k="place" v="quarter" />
		<tag k="ssr:stedsnr" v="168234" />
	</node>
<<<<<<< HEAD
	<node lat="61.320608335318276" lon="7.71981111479628" id="-38015">
		<tag k="fixme" v="multiple name tags, choose one and add the other to alt_name" />
		<tag k="name" v="Bakken;Odden" />
		<tag k="place" v="isolated_dwelling" />
		<tag k="ssr:stedsnr" v="189943" />
	</node>
	<node lat="61.3573277777737" lon="7.888816663560127" id="-38016">
		<tag k="alt_name" v="Hageberg" />
		<tag k="name" v="Hagaberg" />
=======
	<node id="-678665" lat="61.3482154819" lon="7.8790464505">
		<tag k="name" v="Skori" />
		<tag k="place" v="farm" />
		<tag k="ssr:stedsnr" v="250956" />
	</node>
	<node id="-678664" lat="61.3593527773" lon="7.8730166627">
		<tag k="name" v="Vårstølen" />
>>>>>>> e1d4bc35ff8a6074a6f2e91616a996b547c36f15
		<tag k="place" v="isolated_dwelling" />
		<tag k="ssr:stedsnr" v="189954" />
	</node>
<<<<<<< HEAD
	<node lat="61.35612144910269" lon="7.880966560495395" id="-38017">
		<tag k="alt_name" v="Avdal" />
		<tag k="fixme" v="consider place=hamlet" />
		<tag k="name" v="Avdalen" />
		<tag k="place" v="farm" />
		<tag k="ssr:stedsnr" v="189955" />
	</node>
	<node lat="61.24775555329321" lon="7.539441669354924" id="-38018">
		<tag k="alt_name" v="Langemuren" />
		<tag k="barrier" v="fence" />
		<tag k="name" v="Langmuren" />
		<tag k="ssr:stedsnr" v="191327" />
	</node>
	<node lat="61.239091667613096" lon="7.49980000243456" id="-38020">
		<tag k="name" v="Rosendal" />
		<tag k="place" v="isolated_dwelling" />
		<tag k="ssr:stedsnr" v="191334" />
	</node>
	<node lat="61.268155558640636" lon="8.023527775644549" id="-38024">
		<tag k="name" v="Sletterust" />
		<tag k="place" v="isolated_dwelling" />
		<tag k="ssr:stedsnr" v="190886" />
	</node>
	<node lat="61.39820833037501" lon="7.724650001990025" id="-38026">
		<tag k="alt_name" v="Murrane" />
		<tag k="name" v="Murane" />
=======
	<node id="-679684" lat="61.1923305594" lon="7.61892499876">
		<tag k="fixme" v="consider place=hamlet" />
		<tag k="loc_name" v="Natvik;Nattvik" />
		<tag k="name" v="Naddvik" />
		<tag k="place" v="village" />
		<tag k="ssr:stedsnr" v="799317" />
	</node>
	<node id="-678659" lat="61.3115166638" lon="7.82442221428">
		<tag k="building" v="industrial" />
		<tag k="industrial" v="factory" />
		<tag k="name" v="Årdal og Sunndal verk" />
		<tag k="ssr:stedsnr" v="250898" />
	</node>
	<node id="-679163" lat="61.1915427009" lon="7.61504662311">
		<tag k="alt_name" v="Nattvik" />
		<tag k="fixme" v="consider place=hamlet" />
		<tag k="loc_name" v="Natvik" />
		<tag k="name" v="Naddvik" />
		<tag k="place" v="farm" />
		<tag k="ssr:stedsnr" v="10290" />
	</node>
	<node id="-679162" lat="61.1873416703" lon="7.50508611861">
		<tag k="alt_name" v="Sagi" />
		<tag k="name" v="Kvitingsagi" />
>>>>>>> e1d4bc35ff8a6074a6f2e91616a996b547c36f15
		<tag k="place" v="isolated_dwelling" />
		<tag k="ssr:stedsnr" v="190981" />
	</node>
<<<<<<< HEAD
	<node lat="61.37445555781496" lon="7.921869449857728" id="-38038">
		<tag k="name" v="Flaten" />
		<tag k="place" v="farm" />
		<tag k="ssr:stedsnr" v="227709" />
	</node>
	<node lat="61.233719448618515" lon="7.711013894371991" id="-38049">
		<tag k="name" v="Sanden" />
		<tag k="place" v="quarter" />
		<tag k="ssr:stedsnr" v="290200" />
	</node>
	<node lat="61.20973333763888" lon="7.531522219772973" id="-38055">
		<tag k="name" v="Morland" />
=======
	<node id="-679673" lat="61.2358055538" lon="7.70370000024">
		<tag k="name" v="Årdalstangen" />
		<tag k="place" v="village" />
		<tag k="ssr:stedsnr" v="798311" />
	</node>
	<node id="-679157" lat="61.2449777814" lon="7.79915833963">
		<tag k="name" v="Melsete" />
		<tag k="place" v="isolated_dwelling" />
		<tag k="ssr:stedsnr" v="9905" />
	</node>
	<node id="-678644" lat="61.2400690924" lon="7.7036134828">
		<tag k="fixme" v="consider place=hamlet" />
		<tag k="name" v="Hæreid" />
>>>>>>> e1d4bc35ff8a6074a6f2e91616a996b547c36f15
		<tag k="place" v="farm" />
		<tag k="ssr:stedsnr" v="290454" />
	</node>
<<<<<<< HEAD
	<node lat="61.32205277419227" lon="7.755675006328084" id="-38069">
		<tag k="name" v="Li" />
=======
	<node id="-679664" lat="61.2499361106" lon="7.58690555086">
		<tag k="name" v="Åsete" />
>>>>>>> e1d4bc35ff8a6074a6f2e91616a996b547c36f15
		<tag k="place" v="isolated_dwelling" />
		<tag k="ssr:stedsnr" v="311943" />
	</node>
<<<<<<< HEAD
	<node lat="61.14827499940675" lon="7.650136108550324" id="-38073">
		<tag k="name" v="Smørhola" />
		<tag k="place" v="isolated_dwelling" />
		<tag k="ssr:stedsnr" v="313290" />
	</node>
	<node lat="61.28553888921758" lon="7.663133336970822" id="-38099">
		<tag k="historic" v="shieling" />
		<tag k="name" v="Kletta" />
=======
	<node id="-678639" lat="61.2522777781" lon="7.55160555187">
		<tag k="historic" v="shieling" />
		<tag k="name" v="Fagerbu" />
		<tag k="place" v="locality" />
		<tag k="ssr:stedsnr" v="69632" />
	</node>
	<node id="-678638" lat="61.2745305551" lon="7.58089444514">
		<tag k="historic" v="shieling" />
		<tag k="name" v="Nystølen" />
		<tag k="place" v="locality" />
		<tag k="ssr:stedsnr" v="69619" />
	</node>
	<node id="-679146" lat="61.265825003" lon="7.78780832441">
		<tag k="name" v="Onsete" />
>>>>>>> e1d4bc35ff8a6074a6f2e91616a996b547c36f15
		<tag k="place" v="isolated_dwelling" />
		<tag k="ssr:stedsnr" v="371600" />
	</node>
<<<<<<< HEAD
	<node lat="61.26965000069248" lon="7.790611115542921" id="-38113">
		<tag k="historic" v="shieling" />
		<tag k="name" v="Liastølen" />
		<tag k="place" v="isolated_dwelling" />
		<tag k="ssr:stedsnr" v="372892" />
	</node>
	<node lat="61.26901944644857" lon="7.80103610415581" id="-38114">
		<tag k="name" v="Kvernli" />
		<tag k="place" v="isolated_dwelling" />
		<tag k="ssr:stedsnr" v="372897" />
	</node>
	<node lat="61.1641333348199" lon="7.681750001513651" id="-38127">
		<tag k="historic" v="shieling" />
		<tag k="name" v="Liastølen" />
		<tag k="place" v="isolated_dwelling" />
		<tag k="ssr:stedsnr" v="495332" />
	</node>
	<node lat="61.20901724114215" lon="7.532967506369466" id="-38130">
		<tag k="fixme" v="multiple name tags, choose one and add the other to alt_name; consider place=hamlet" />
		<tag k="name" v="Indre Ofredal;Ofredal" />
=======
	<node id="-679657" lat="61.3774388859" lon="7.71655278532">
		<tag k="historic" v="shieling" />
		<tag k="name" v="Stokkesete" />
		<tag k="place" v="locality" />
		<tag k="ssr:stedsnr" v="796680" />
	</node>
	<node id="-679140" lat="61.3088583293" lon="7.80284445132">
		<tag k="name" v="Øvre Årdal" />
		<tag k="place" v="village" />
		<tag k="ssr:stedsnr" v="8921" />
	</node>
	<node id="-679132" lat="61.3340055553" lon="7.86893332458">
		<tag k="name" v="Ramsøyni" />
		<tag k="place" v="locality" />
		<tag k="ssr:stedsnr" v="7953" />
	</node>
	<node id="-679131" lat="61.3454780539" lon="7.88076213382">
		<tag k="fixme" v="consider place=hamlet" />
		<tag k="name" v="Hjelle" />
		<tag k="place" v="farm" />
		<tag k="ssr:stedsnr" v="7950" />
	</node>
	<node id="-679130" lat="61.320925001" lon="7.84870555343">
		<tag k="alt_name" v="Lykja" />
		<tag k="name" v="Lykkja" />
>>>>>>> e1d4bc35ff8a6074a6f2e91616a996b547c36f15
		<tag k="place" v="farm" />
		<tag k="ssr:stedsnr" v="495336" />
	</node>
<<<<<<< HEAD
	<node lat="61.35874166743455" lon="7.733474990844773" id="-38158">
		<tag k="name" v="Hytta" />
		<tag k="place" v="isolated_dwelling" />
		<tag k="ssr:stedsnr" v="432955" />
	</node>
	<node lat="61.25406489966113" lon="7.6522508658032535" id="-38161">
		<tag k="fixme" v="consider place=hamlet" />
		<tag k="name" v="Jamnåkre" />
		<tag k="place" v="farm" />
		<tag k="ssr:stedsnr" v="433572" />
	</node>
	<node lat="61.32029721921993" lon="7.664194442664652" id="-38162">
=======
	<node id="-678614" lat="61.2252111099" lon="7.54940000836">
		<tag k="alt_name" v="Masterhaugen" />
		<tag k="name" v="Mastrehaugen" />
		<tag k="place" v="farm" />
		<tag k="ssr:stedsnr" v="9304" />
	</node>
	<node id="-679124" lat="61.244131683" lon="7.65283516525">
		<tag k="fixme" v="consider place=suburb, village or hamlet" />
		<tag k="name" v="Seim" />
		<tag k="place" v="quarter" />
		<tag k="ssr:stedsnr" v="919360" />
	</node>
	<node id="-679123" lat="61.1970249987" lon="7.65571944783">
>>>>>>> e1d4bc35ff8a6074a6f2e91616a996b547c36f15
		<tag k="historic" v="shieling" />
		<tag k="name" v="Feninga" />
		<tag k="place" v="isolated_dwelling" />
		<tag k="ssr:stedsnr" v="433648" />
	</node>
<<<<<<< HEAD
	<node lat="61.24188888498582" lon="7.5602861109118455" id="-38177">
		<tag k="name" v="Fornabu" />
		<tag k="place" v="farm" />
		<tag k="ssr:stedsnr" v="434316" />
	</node>
	<node lat="61.33111666652428" lon="7.770094436102152" id="-38203">
		<tag k="alt_name" v="Øvre - Gjerdet" />
		<tag k="name" v="Øvregjerdet" />
=======
	<node id="-678608" lat="61.2888166698" lon="7.56048611958">
		<tag k="historic" v="shieling" />
		<tag k="name" v="Slettedalen" />
		<tag k="place" v="locality" />
		<tag k="ssr:stedsnr" v="8637" />
	</node>
	<node id="-679630" lat="61.1871861117" lon="7.62713611716">
		<tag k="fixme" v="consider place=hamlet" />
		<tag k="name" v="Hovland" />
>>>>>>> e1d4bc35ff8a6074a6f2e91616a996b547c36f15
		<tag k="place" v="farm" />
		<tag k="ssr:stedsnr" v="553947" />
	</node>
	<node lat="61.40114102046763" lon="7.935927848151196" id="-38205">
		<tag k="fixme" v="consider tourism=alpine_hut or tourism=chalet" />
		<tag k="name" v="Stølsmaradalen" />
		<tag k="old_name" v="Stølsmaradalen turisthytte" />
		<tag k="ssr:stedsnr" v="553976" />
		<tag k="tourism" v="wilderness_hut" />
	</node>
<<<<<<< HEAD
	<node lat="61.23732958292911" lon="7.711839357663399" id="-38207">
		<tag k="fixme" v="consider place=hamlet" />
		<tag k="name" v="Lægreid" />
=======
	<node id="-678724" lat="61.3102027782" lon="7.82385833246">
		<tag k="name" v="Resaland" />
		<tag k="place" v="quarter" />
		<tag k="ssr:stedsnr" v="290729" />
	</node>
	<node id="-679115" lat="61.234358329" lon="7.54756111117">
		<tag k="name" v="Skogli" />
>>>>>>> e1d4bc35ff8a6074a6f2e91616a996b547c36f15
		<tag k="place" v="farm" />
		<tag k="ssr:stedsnr" v="555289" />
	</node>
<<<<<<< HEAD
	<node lat="61.26138611466831" lon="7.653141664897406" id="-38215">
		<tag k="barrier" v="fence" />
		<tag k="name" v="Stølslegarden" />
		<tag k="ssr:stedsnr" v="592399" />
	</node>
	<node lat="61.33014166457669" lon="7.842541676031759" id="-38241">
		<tag k="name" v="Bergastølen" />
=======
	<node id="-679111" lat="61.2104277819" lon="7.66603611726">
		<tag k="historic" v="shieling" />
		<tag k="name" v="Øyestølen" />
		<tag k="place" v="locality" />
		<tag k="ssr:stedsnr" v="859280" />
	</node>
	<node id="-679110" lat="61.2121444419" lon="7.65485278486">
		<tag k="name" v="Bø" />
>>>>>>> e1d4bc35ff8a6074a6f2e91616a996b547c36f15
		<tag k="place" v="locality" />
		<tag k="ssr:stedsnr" v="593987" />
	</node>
<<<<<<< HEAD
	<node lat="61.319460347791" lon="7.781224132817186" id="-38244">
		<tag k="fixme" v="consider place=hamlet" />
		<tag k="name" v="Melheim" />
		<tag k="place" v="farm" />
		<tag k="ssr:stedsnr" v="614923" />
	</node>
	<node lat="61.317944442075294" lon="7.8625249908576" id="-38246">
		<tag k="name" v="Åsen" />
=======
	<node id="-679621" lat="61.2248611097" lon="7.52772499896">
		<tag k="name" v="Soten" />
		<tag k="place" v="isolated_dwelling" />
		<tag k="ssr:stedsnr" v="737320" />
	</node>
	<node id="-679617" lat="61.3081555546" lon="7.74796945286">
		<tag k="name" v="Ekra" />
>>>>>>> e1d4bc35ff8a6074a6f2e91616a996b547c36f15
		<tag k="place" v="isolated_dwelling" />
		<tag k="ssr:stedsnr" v="614930" />
	</node>
<<<<<<< HEAD
	<node lat="61.31522777535876" lon="7.731383334882061" id="-38247">
		<tag k="alt_name" v="Brattlii" />
		<tag k="name" v="Brattli" />
=======
	<node id="-679616" lat="61.3162944405" lon="7.73166110814">
		<tag k="name" v="Bjørkhaug" />
>>>>>>> e1d4bc35ff8a6074a6f2e91616a996b547c36f15
		<tag k="place" v="farm" />
		<tag k="ssr:stedsnr" v="614933" />
	</node>
<<<<<<< HEAD
	<node lat="61.31348489644073" lon="7.733535472395378" id="-38248">
		<tag k="alt_name" v="Nondalen, vestre;Vestre Nundalen" />
		<tag k="fixme" v="consider place=hamlet" />
		<tag k="name" v="Vestre Nondalen" />
=======
	<node id="-679615" lat="61.3220638883" lon="7.77666944236">
		<tag k="fixme" v="multiple name tags, choose one and add the other to alt_name" />
		<tag k="name" v="Muregjerde;Nedregjerdet" />
>>>>>>> e1d4bc35ff8a6074a6f2e91616a996b547c36f15
		<tag k="place" v="farm" />
		<tag k="ssr:stedsnr" v="614937" />
	</node>
<<<<<<< HEAD
	<node lat="61.414138890754955" lon="8.01547221647139" id="-38250">
=======
	<node id="-679614" lat="61.3035277766" lon="7.9011694423">
>>>>>>> e1d4bc35ff8a6074a6f2e91616a996b547c36f15
		<tag k="historic" v="shieling" />
		<tag k="name" v="Selsbøen" />
		<tag k="place" v="isolated_dwelling" />
		<tag k="ssr:stedsnr" v="614523" />
	</node>
<<<<<<< HEAD
	<node lat="61.25565833458371" lon="7.740477779524932" id="-38259">
		<tag k="name" v="Loi" />
		<tag k="place" v="isolated_dwelling" />
		<tag k="ssr:stedsnr" v="614878" />
	</node>
	<node lat="61.36429444640517" lon="7.734877781171088" id="-38264">
		<tag k="alt_name" v="Årestølen" />
=======
	<node id="-679101" lat="61.346725004" lon="7.75777776932">
		<tag k="alt_name" v="Høystølen" />
>>>>>>> e1d4bc35ff8a6074a6f2e91616a996b547c36f15
		<tag k="historic" v="shieling" />
		<tag k="name" v="Åresete" />
		<tag k="place" v="isolated_dwelling" />
		<tag k="ssr:stedsnr" v="614981" />
	</node>
<<<<<<< HEAD
	<node lat="61.21896111255751" lon="7.544249995856145" id="-38269">
		<tag k="name" v="Solstad" />
=======
	<node id="-679612" lat="61.3104294314" lon="7.79189002816">
		<tag k="alt_name" v="Midtun" />
		<tag k="fixme" v="consider place=hamlet" />
		<tag k="name" v="Midttun" />
>>>>>>> e1d4bc35ff8a6074a6f2e91616a996b547c36f15
		<tag k="place" v="farm" />
		<tag k="ssr:stedsnr" v="616317" />
	</node>
<<<<<<< HEAD
	<node lat="61.27181111223637" lon="7.745727780960751" id="-38281">
		<tag k="name" v="Frammanesteigane" />
		<tag k="place" v="locality" />
		<tag k="ssr:stedsnr" v="653035" />
	</node>
	<node lat="61.30897221944742" lon="7.792233339534372" id="-38290">
		<tag k="fixme" v="consider place=suburb, village or hamlet" />
		<tag k="name" v="Øyri" />
		<tag k="place" v="quarter" />
		<tag k="ssr:stedsnr" v="653797" />
	</node>
	<node lat="61.236530553606165" lon="7.710002782917456" id="-38297">
		<tag k="building" v="industrial" />
		<tag k="industrial" v="factory" />
		<tag k="name" v="Årdal og Sunndal verk" />
		<tag k="ssr:stedsnr" v="663871" />
	</node>
	<node lat="61.30626944677003" lon="7.801263897178496" id="-38304">
		<tag k="name" v="Nausthaugen" />
		<tag k="place" v="quarter" />
		<tag k="ssr:stedsnr" v="714770" />
	</node>
	<node lat="61.19068055594403" lon="7.619530546537423" id="-38306">
		<tag k="name" v="Haugen" />
=======
	<node id="-679098" lat="61.312231902" lon="7.74148705512">
		<tag k="alt_name" v="Nondalen, austre;Nundalen" />
		<tag k="fixme" v="consider place=hamlet" />
		<tag k="name" v="Austre Nondalen" />
>>>>>>> e1d4bc35ff8a6074a6f2e91616a996b547c36f15
		<tag k="place" v="farm" />
		<tag k="ssr:stedsnr" v="715313" />
	</node>
<<<<<<< HEAD
	<node lat="61.25796666475447" lon="7.779738897490627" id="-38309">
=======
	<node id="-679609" lat="61.2579666648" lon="7.77973889749">
>>>>>>> e1d4bc35ff8a6074a6f2e91616a996b547c36f15
		<tag k="alt_name" v="Lyst" />
		<tag k="name" v="Løst" />
		<tag k="place" v="isolated_dwelling" />
		<tag k="ssr:stedsnr" v="736886" />
	</node>
<<<<<<< HEAD
	<node lat="61.45577047133329" lon="7.859695617715893" id="-38318">
=======
	<node id="-679607" lat="61.3268027795" lon="7.69422221593">
		<tag k="historic" v="shieling" />
		<tag k="name" v="Voss" />
		<tag k="place" v="locality" />
		<tag k="ssr:stedsnr" v="736653" />
	</node>
	<node id="-679601" lat="61.453613889" lon="7.86139167459">
>>>>>>> e1d4bc35ff8a6074a6f2e91616a996b547c36f15
		<tag k="fixme" v="consider tourism=alpine_hut or tourism=chalet" />
		<tag k="name" v="Skagastølsbu" />
		<tag k="old_name" v="Skagastølsbandet;Skardstølsbandet" />
		<tag k="ssr:stedsnr" v="736496" />
		<tag k="tourism" v="wilderness_hut" />
	</node>
<<<<<<< HEAD
	<node lat="61.32680277953909" lon="7.694222215925286" id="-38320">
		<tag k="historic" v="shieling" />
		<tag k="name" v="Voss" />
		<tag k="place" v="isolated_dwelling" />
		<tag k="ssr:stedsnr" v="736653" />
	</node>
	<node lat="61.37743888590022" lon="7.7165527853215705" id="-38358">
		<tag k="historic" v="shieling" />
		<tag k="name" v="Stokkesete" />
		<tag k="place" v="isolated_dwelling" />
		<tag k="ssr:stedsnr" v="796680" />
	</node>
	<node lat="61.235380558961936" lon="7.709938888112582" id="-38384">
=======
	<node id="-679081" lat="61.2418694406" lon="7.72674167048">
		<tag k="barrier" v="fence" />
		<tag k="name" v="Vassbuggjerdet" />
		<tag k="ssr:stedsnr" v="836175" />
	</node>
	<node id="-679080" lat="61.235380559" lon="7.70993888811">
>>>>>>> e1d4bc35ff8a6074a6f2e91616a996b547c36f15
		<tag k="name" v="Langvollen" />
		<tag k="place" v="quarter" />
		<tag k="ssr:stedsnr" v="836155" />
	</node>
<<<<<<< HEAD
	<node lat="61.241869440574284" lon="7.726741670483533" id="-38385">
		<tag k="barrier" v="fence" />
		<tag k="name" v="Vassbuggjerdet" />
		<tag k="ssr:stedsnr" v="836175" />
	</node>
	<node lat="61.21093610781124" lon="7.408077772614568" id="-38388">
		<tag k="name" v="Trondskogstølen" />
=======
	<node id="-679590" lat="61.3089722194" lon="7.79223333953">
		<tag k="fixme" v="consider place=suburb, village or hamlet" />
		<tag k="name" v="Øyri" />
		<tag k="place" v="quarter" />
		<tag k="ssr:stedsnr" v="653797" />
	</node>
	<node id="-679073" lat="61.2424277752" lon="7.72837500043">
		<tag k="name" v="Vatne" />
		<tag k="place" v="locality" />
		<tag k="ssr:stedsnr" v="798905" />
	</node>
	<node id="-679583" lat="61.2718111122" lon="7.74572778096">
		<tag k="name" v="Frammanesteigane" />
>>>>>>> e1d4bc35ff8a6074a6f2e91616a996b547c36f15
		<tag k="place" v="locality" />
		<tag k="ssr:stedsnr" v="836789" />
	</node>
<<<<<<< HEAD
	<node lat="61.23886890080267" lon="7.703253643849348" id="-38394">
		<tag k="fixme" v="consider place=hamlet" />
		<tag k="loc_name" v="Brekka" />
		<tag k="name" v="Brekken" />
=======
	<node id="-679578" lat="61.2410213921" lon="7.65779595039">
		<tag k="fixme" v="consider place=hamlet" />
		<tag k="name" v="Årebru" />
		<tag k="place" v="farm" />
		<tag k="ssr:stedsnr" v="616351" />
	</node>
	<node id="-679572" lat="61.2189611126" lon="7.54424999586">
		<tag k="name" v="Solstad" />
>>>>>>> e1d4bc35ff8a6074a6f2e91616a996b547c36f15
		<tag k="place" v="farm" />
		<tag k="ssr:stedsnr" v="846865" />
	</node>
<<<<<<< HEAD
	<node lat="61.241365804637525" lon="7.559947619022043" id="-38397">
		<tag k="fixme" v="multiple name tags, choose one and add the other to alt_name; consider place=hamlet" />
		<tag k="name" v="Fornabu;Øvre Ofredal" />
=======
	<node id="-679054" lat="61.2088619148" lon="7.49801966768">
		<tag k="alt_name" v="Offerdal, ytre" />
		<tag k="fixme" v="consider place=hamlet" />
		<tag k="loc_name" v="Ytre Ofredal" />
		<tag k="name" v="Ytre Offerdal" />
>>>>>>> e1d4bc35ff8a6074a6f2e91616a996b547c36f15
		<tag k="place" v="farm" />
		<tag k="ssr:stedsnr" v="849848" />
	</node>
<<<<<<< HEAD
	<node lat="61.32977777597313" lon="7.859933325745456" id="-38402">
		<tag k="name" v="Temresletti" />
=======
	<node id="-679560" lat="61.3268475233" lon="7.77288904289">
		<tag k="fixme" v="consider place=hamlet" />
		<tag k="name" v="Holsete" />
>>>>>>> e1d4bc35ff8a6074a6f2e91616a996b547c36f15
		<tag k="place" v="farm" />
		<tag k="ssr:stedsnr" v="857943" />
	</node>
<<<<<<< HEAD
	<node lat="61.33825555909422" lon="7.78247222603893" id="-38404">
		<tag k="historic" v="shieling" />
		<tag k="name" v="Botnen" />
		<tag k="place" v="isolated_dwelling" />
		<tag k="ssr:stedsnr" v="857959" />
	</node>
	<node lat="61.34672500395978" lon="7.757777769320744" id="-38405">
		<tag k="alt_name" v="Høystølen" />
		<tag k="historic" v="shieling" />
		<tag k="name" v="Høysete" />
		<tag k="place" v="isolated_dwelling" />
		<tag k="ssr:stedsnr" v="857963" />
	</node>
	<node lat="61.212144441949576" lon="7.654852784860916" id="-38412">
		<tag k="name" v="Bø" />
		<tag k="place" v="locality" />
		<tag k="ssr:stedsnr" v="859275" />
	</node>
	<node lat="61.210427781880824" lon="7.666036117263076" id="-38413">
		<tag k="historic" v="shieling" />
		<tag k="name" v="Øyestølen" />
=======
	<node id="-679558" lat="61.3134848964" lon="7.7335354724">
		<tag k="alt_name" v="Nondalen, vestre;Vestre Nundalen" />
		<tag k="fixme" v="consider place=hamlet" />
		<tag k="name" v="Vestre Nondalen" />
		<tag k="place" v="farm" />
		<tag k="ssr:stedsnr" v="614937" />
	</node>
	<node id="-679557" lat="61.3152277754" lon="7.73138333488">
		<tag k="alt_name" v="Brattlii" />
		<tag k="name" v="Brattli" />
		<tag k="place" v="farm" />
		<tag k="ssr:stedsnr" v="614933" />
	</node>
	<node id="-679556" lat="61.3179444421" lon="7.86252499086">
		<tag k="name" v="Åsen" />
>>>>>>> e1d4bc35ff8a6074a6f2e91616a996b547c36f15
		<tag k="place" v="isolated_dwelling" />
		<tag k="ssr:stedsnr" v="859280" />
	</node>
<<<<<<< HEAD
	<node lat="61.213118128560474" lon="7.541767517582769" id="-38418">
		<tag k="alt_name" v="Kleivli" />
		<tag k="name" v="Kleivi" />
		<tag k="place" v="farm" />
		<tag k="ssr:stedsnr" v="859300" />
	</node>
	<node lat="61.215011113528135" lon="7.5477861169712925" id="-38419">
		<tag k="name" v="Dokki" />
		<tag k="place" v="locality" />
		<tag k="ssr:stedsnr" v="859301" />
	</node>
	<node lat="61.2343583290048" lon="7.547561111166567" id="-38420">
		<tag k="fixme" v="multiple name tags, choose one and add the other to alt_name" />
		<tag k="name" v="Skogli;Kyrkjejordi" />
		<tag k="place" v="farm" />
		<tag k="ssr:stedsnr" v="859323" />
	</node>
	<node lat="61.3324333335577" lon="7.772027770206235" id="-38441">
		<tag k="name" v="Hagahaugen" />
		<tag k="place" v="farm" />
		<tag k="ssr:stedsnr" v="957933" />
	</node>
	<node lat="61.3182427056739" lon="7.826922430225192" id="-38449">
		<tag k="name" v="Moakamben" />
=======
	<node id="-679554" lat="61.3194603478" lon="7.78122413282">
		<tag k="fixme" v="consider place=hamlet" />
		<tag k="name" v="Melheim" />
		<tag k="place" v="farm" />
		<tag k="ssr:stedsnr" v="614923" />
	</node>
	<node id="-679039" lat="61.3085027791" lon="7.79693889685">
		<tag k="fixme" v="consider place=suburb, village or hamlet" />
		<tag k="name" v="Farnes" />
		<tag k="place" v="quarter" />
		<tag k="ssr:stedsnr" v="918930" />
	</node>
	<node id="-679547" lat="61.2556583346" lon="7.74047777952">
		<tag k="name" v="Loi" />
		<tag k="place" v="isolated_dwelling" />
		<tag k="ssr:stedsnr" v="614878" />
	</node>
	<node id="-679545" lat="61.3642944464" lon="7.73487778117">
		<tag k="alt_name" v="Årestølen" />
		<tag k="historic" v="shieling" />
		<tag k="name" v="Åresete" />
		<tag k="place" v="locality" />
		<tag k="ssr:stedsnr" v="614981" />
	</node>
	<node id="-679030" lat="61.3423555547" lon="7.90454445112">
		<tag k="name" v="Heimre Hjelledalen" />
		<tag k="place" v="isolated_dwelling" />
		<tag k="ssr:stedsnr" v="917929" />
	</node>
	<node id="-679536" lat="61.2720450114" lon="7.7731077311">
		<tag k="fixme" v="consider place=hamlet" />
		<tag k="name" v="Eldegarden" />
		<tag k="place" v="farm" />
		<tag k="ssr:stedsnr" v="614870" />
	</node>
	<node id="-679535" lat="61.2721666708" lon="7.76447500594">
		<tag k="name" v="Brennborg" />
		<tag k="place" v="locality" />
		<tag k="ssr:stedsnr" v="614869" />
	</node>
	<node id="-679533" lat="61.4141388908" lon="8.01547221647">
		<tag k="historic" v="shieling" />
		<tag k="name" v="Selsbøen" />
		<tag k="place" v="locality" />
		<tag k="ssr:stedsnr" v="614523" />
	</node>
	<node id="-679529" lat="61.3301416646" lon="7.84254167603">
		<tag k="name" v="Bergastølen" />
>>>>>>> e1d4bc35ff8a6074a6f2e91616a996b547c36f15
		<tag k="place" v="locality" />
		<tag k="ssr:stedsnr" v="1072764" />
	</node>
<<<<<<< HEAD
	<node lat="61.19131148556909" lon="7.616687599437561" id="-38451">
		<tag k="fixme" v="multiple name tags, choose one and add the other to alt_name" />
		<tag k="name" v="Viki;Natvik" />
		<tag k="place" v="farm" />
		<tag k="ssr:stedsnr" v="1077519" />
=======
	<node id="-679100" lat="61.3382555591" lon="7.78247222604">
		<tag k="historic" v="shieling" />
		<tag k="name" v="Botnen" />
		<tag k="place" v="locality" />
		<tag k="ssr:stedsnr" v="857959" />
	</node>
	<node id="-679000" lat="61.3037583311" lon="7.66125833346">
		<tag k="name" v="Feninggarden" />
		<tag k="place" v="locality" />
		<tag k="ssr:stedsnr" v="896113" />
	</node>
	<node id="-679097" lat="61.3255388905" lon="7.77459165756">
		<tag k="name" v="Vigardsletti" />
		<tag k="place" v="farm" />
		<tag k="ssr:stedsnr" v="857918" />
	</node>
	<node id="-679507" lat="61.2613861147" lon="7.6531416649">
		<tag k="barrier" v="fence" />
		<tag k="name" v="Stølslegarden" />
		<tag k="ssr:stedsnr" v="592399" />
	</node>
	<node id="-679501" lat="61.3561500034" lon="7.88021666826">
		<tag k="fixme" v="consider tourism=alpine_hut or tourism=chalet" />
		<tag k="name" v="Avdal gard" />
		<tag k="ssr:stedsnr" v="572097" />
		<tag k="tourism" v="wilderness_hut" />
	</node>
	<node id="-679497" lat="61.1678055591" lon="7.55946111719">
		<tag k="historic" v="shieling" />
		<tag k="name" v="Morki" />
		<tag k="place" v="locality" />
		<tag k="ssr:stedsnr" v="555228" />
	</node>
	<node id="-679495" lat="61.2373295829" lon="7.71183935766">
		<tag k="fixme" v="consider place=hamlet" />
		<tag k="name" v="Lægreid" />
		<tag k="place" v="farm" />
		<tag k="ssr:stedsnr" v="555289" />
	</node>
	<node id="-678982" lat="61.2005388861" lon="7.64226110677">
		<tag k="name" v="Årøyhaugen" />
		<tag k="place" v="locality" />
		<tag k="ssr:stedsnr" v="676317" />
	</node>
	<node id="-678981" lat="61.3345102496" lon="7.77089571604">
		<tag k="fixme" v="consider place=hamlet" />
		<tag k="name" v="Åbøle" />
		<tag k="place" v="farm" />
		<tag k="ssr:stedsnr" v="675962" />
	</node>
	<node id="-678980" lat="61.3321805578" lon="7.86700278597">
		<tag k="name" v="Øygarden" />
		<tag k="place" v="farm" />
		<tag k="ssr:stedsnr" v="675961" />
	</node>
	<node id="-678979" lat="61.3248277742" lon="7.72223333276">
		<tag k="alt_name" v="Ormesete" />
		<tag k="historic" v="shieling" />
		<tag k="name" v="Ormsete" />
		<tag k="place" v="locality" />
		<tag k="ssr:stedsnr" v="675957" />
	</node>
	<node id="-678923" lat="61.2499916667" lon="7.6511500067">
		<tag k="name" v="Seimshagane" />
		<tag k="place" v="quarter" />
		<tag k="ssr:stedsnr" v="706970" />
	</node>
	<node id="-678976" lat="61.3113916678" lon="7.78812500731">
		<tag k="fixme" v="consider place=hamlet" />
		<tag k="name" v="Øvstetun" />
		<tag k="place" v="farm" />
		<tag k="ssr:stedsnr" v="675918" />
	</node>
	<node id="-679487" lat="61.3311166665" lon="7.7700944361">
		<tag k="alt_name" v="Øvre - Gjerdet" />
		<tag k="name" v="Øvregjerdet" />
		<tag k="place" v="farm" />
		<tag k="ssr:stedsnr" v="553947" />
	</node>
	<node id="-679483" lat="61.3988916642" lon="7.9377805477">
		<tag k="fixme" v="consider tourism=alpine_hut or tourism=chalet" />
		<tag k="name" v="Stølsmaradalen" />
		<tag k="old_name" v="Stølsmaradalen turisthytte" />
		<tag k="ssr:stedsnr" v="553976" />
		<tag k="tourism" v="wilderness_hut" />
	</node>
	<node id="-678970" lat="61.2561555519" lon="7.65519444776">
		<tag k="name" v="Nyheim" />
		<tag k="place" v="farm" />
		<tag k="ssr:stedsnr" v="665311" />
	</node>
	<node id="-678969" lat="61.2365305536" lon="7.71000278292">
		<tag k="building" v="industrial" />
		<tag k="industrial" v="factory" />
		<tag k="name" v="Årdal og Sunndal verk" />
		<tag k="ssr:stedsnr" v="663871" />
	</node>
	<node id="-679719" lat="61.2131181286" lon="7.54176751758">
		<tag k="alt_name" v="Kleivli" />
		<tag k="name" v="Kleivi" />
		<tag k="place" v="farm" />
		<tag k="ssr:stedsnr" v="859300" />
	</node>
	<node id="-679473" lat="61.3050027735" lon="7.79511388339">
		<tag k="name" v="Nausteplassen" />
		<tag k="place" v="quarter" />
		<tag k="ssr:stedsnr" v="532774" />
	</node>
	<node id="-679462" lat="61.2356138909" lon="7.7013972131">
		<tag k="name" v="Tangen" />
		<tag k="place" v="locality" />
		<tag k="ssr:stedsnr" v="532170" />
	</node>
	<node id="-678949" lat="61.3359444425" lon="7.76687777439">
		<tag k="name" v="Haug" />
		<tag k="place" v="farm" />
		<tag k="ssr:stedsnr" v="614962" />
	</node>
	<node id="-678921" lat="61.2598127129" lon="7.65670846687">
		<tag k="alt_name" v="Dalaker" />
		<tag k="fixme" v="consider place=hamlet" />
		<tag k="name" v="Dalåkre" />
		<tag k="place" v="farm" />
		<tag k="ssr:stedsnr" v="554626" />
	</node>
	<node id="-678943" lat="61.1906805559" lon="7.61953054654">
		<tag k="name" v="Haugen" />
		<tag k="place" v="farm" />
		<tag k="ssr:stedsnr" v="715313" />
	</node>
	<node id="-679453" lat="61.2170666672" lon="7.54680000035">
		<tag k="name" v="Offerdal" />
		<tag k="place" v="farm" />
		<tag k="ssr:stedsnr" v="434289" />
	</node>
	<node id="-678938" lat="61.3062694468" lon="7.80126389718">
		<tag k="name" v="Nausthaugen" />
		<tag k="place" v="quarter" />
		<tag k="ssr:stedsnr" v="714770" />
	</node>
	<node id="-679439" lat="61.3169056446" lon="7.71745761268">
		<tag k="fixme" v="consider place=hamlet" />
		<tag k="name" v="Torpen" />
		<tag k="place" v="farm" />
		<tag k="ssr:stedsnr" v="433582" />
	</node>
	<node id="-679438" lat="61.2540648997" lon="7.6522508658">
		<tag k="fixme" v="consider place=hamlet" />
		<tag k="name" v="Jamnåkre" />
		<tag k="place" v="farm" />
		<tag k="ssr:stedsnr" v="433572" />
	</node>
	<node id="-679435" lat="61.3587416674" lon="7.73347499084">
		<tag k="name" v="Hytta" />
		<tag k="place" v="isolated_dwelling" />
		<tag k="ssr:stedsnr" v="432955" />
>>>>>>> e1d4bc35ff8a6074a6f2e91616a996b547c36f15
	</node>
	<node id="-679433" lat="61.3449249966" lon="7.94525834271">
		<tag k="name" v="Fremre Hjelledalen" />
		<tag k="place" v="isolated_dwelling" />
		<tag k="ssr:stedsnr" v="432937" />
	</node>
	<node id="-678920" lat="61.2520893898" lon="7.65807587394">
		<tag k="fixme" v="consider place=hamlet" />
		<tag k="name" v="Asperheim" />
		<tag k="place" v="farm" />
		<tag k="ssr:stedsnr" v="554625" />
	</node>
	<node id="-678919" lat="61.2797277769" lon="7.66670277253">
		<tag k="name" v="Leitet" />
		<tag k="place" v="locality" />
		<tag k="ssr:stedsnr" v="554609" />
	</node>
</osm>
