<?xml version="1.0" encoding="UTF-8"?>
<<<<<<< HEAD
<osm version="0.6" generator="osmapis">
	<node lat="61.23817222339489" lon="7.706975003409998" id="-37528">
=======
<osm generator="osmapis" version="0.6">
	<node id="-679488" lat="61.2165861102" lon="7.66308611937">
		<tag k="name" v="Nosabøen" />
		<tag k="place" v="locality" />
		<tag k="ssr:stedsnr" v="554342" />
	</node>
	<node id="-679740" lat="61.3097444461" lon="7.8003083365">
		<tag k="name" v="Muren" />
		<tag k="place" v="locality" />
		<tag k="ssr:stedsnr" v="957758" />
	</node>
	<node id="-678907" lat="61.1353416701" lon="7.65004166281">
		<tag k="name" v="Fremre Smørhola" />
		<tag k="place" v="locality" />
		<tag k="ssr:stedsnr" v="495293" />
	</node>
	<node id="-678871" lat="61.2381722234" lon="7.70697500341">
>>>>>>> e1d4bc35ff8a6074a6f2e91616a996b547c36f15
		<tag k="alt_name" v="Årdal" />
		<tag k="amenity" v="place_of_worship" />
		<tag k="denomination" v="lutheran" />
		<tag k="name" v="Årdal kyrkje" />
		<tag k="religion" v="christian" />
		<tag k="ssr:stedsnr" v="481870" />
	</node>
<<<<<<< HEAD
	<node lat="61.19777499842032" lon="7.63406111223355" id="-37763">
		<tag k="name" v="Smørkleiv" />
=======
	<node id="-679670" lat="61.2182416681" lon="7.67855833868">
		<tag k="name" v="Geithus" />
		<tag k="place" v="locality" />
		<tag k="ssr:stedsnr" v="798277" />
	</node>
	<node id="-679186" lat="61.3279277766" lon="7.77524999286">
		<tag k="name" v="Fanterøysi" />
>>>>>>> e1d4bc35ff8a6074a6f2e91616a996b547c36f15
		<tag k="place" v="locality" />
		<tag k="ssr:stedsnr" v="738303" />
	</node>
<<<<<<< HEAD
	<node lat="61.310332073452244" lon="7.801184765109029" id="-37890">
=======
	<node id="-679633" lat="61.3030999987" lon="7.84071944477">
		<tag k="name" v="Rausdalssvingen" />
		<tag k="place" v="locality" />
		<tag k="ssr:stedsnr" v="754468" />
	</node>
	<node id="-679760" lat="61.3103320735" lon="7.80118476511">
>>>>>>> e1d4bc35ff8a6074a6f2e91616a996b547c36f15
		<tag k="amenity" v="place_of_worship" />
		<tag k="denomination" v="lutheran" />
		<tag k="name" v="Farnes kyrkje" />
		<tag k="religion" v="christian" />
		<tag k="ssr:stedsnr" v="991238" />
	</node>
<<<<<<< HEAD
	<node lat="61.32792777660733" lon="7.775249992862785" id="-37933">
		<tag k="name" v="Fanterøysi" />
		<tag k="place" v="locality" />
		<tag k="ssr:stedsnr" v="47918" />
	</node>
	<node lat="61.22146111515041" lon="7.5563000053216385" id="-38129">
		<tag k="name" v="Hansehjellen" />
=======
	<node id="-679758" lat="61.3485740984" lon="7.87975908015">
		<tag k="name" v="Utladalen Naturhus" />
		<tag k="ssr:stedsnr" v="985800" />
		<tag k="tourism" v="museum" />
	</node>
	<node id="-679628" lat="61.1977749984" lon="7.63406111223">
		<tag k="name" v="Smørkleiv" />
>>>>>>> e1d4bc35ff8a6074a6f2e91616a996b547c36f15
		<tag k="place" v="locality" />
		<tag k="ssr:stedsnr" v="495335" />
	</node>
	<node lat="61.135341670068804" lon="7.650041662814792" id="-38179">
		<tag k="name" v="Fremre Smørhola" />
		<tag k="place" v="locality" />
		<tag k="ssr:stedsnr" v="495293" />
	</node>
<<<<<<< HEAD
	<node lat="61.216586110218934" lon="7.663086119366271" id="-38197">
		<tag k="name" v="Nosabøen" />
		<tag k="place" v="locality" />
		<tag k="ssr:stedsnr" v="554342" />
	</node>
	<node lat="61.30309999866896" lon="7.840719444766202" id="-38329">
		<tag k="name" v="Rausdalssvingen" />
		<tag k="place" v="locality" />
		<tag k="ssr:stedsnr" v="754468" />
	</node>
	<node lat="61.218241668056365" lon="7.6785583386818885" id="-38373">
		<tag k="name" v="Geithus" />
=======
	<node id="-678902" lat="61.2214611152" lon="7.55630000532">
		<tag k="name" v="Hansehjellen" />
>>>>>>> e1d4bc35ff8a6074a6f2e91616a996b547c36f15
		<tag k="place" v="locality" />
		<tag k="ssr:stedsnr" v="495335" />
	</node>
	<node lat="61.309744446126885" lon="7.800308336498903" id="-38435">
		<tag k="name" v="Muren" />
		<tag k="place" v="locality" />
		<tag k="ssr:stedsnr" v="957758" />
	</node>
	<node lat="61.34857409840597" lon="7.879759080146984" id="-38445">
		<tag k="name" v="Utladalen Naturhus" />
		<tag k="ssr:stedsnr" v="985800" />
		<tag k="tourism" v="museum" />
	</node>
</osm>
