<?xml version="1.0" encoding="UTF-8"?>
<osm generator="osmapis" version="0.6">
	<node id="-555184" lat="59.290024601" lon="7.4915011074">
		<tag k="name" v="Brakamo hyttegrend" />
		<tag k="ssr:date" v="2019-12-27" />
		<tag k="ssr:gruppe" v="veg" />
		<tag k="ssr:hovedgruppe" v="infrastruktur" />
		<tag k="ssr:stedsnr" v="973975" />
		<tag k="ssr:type" v="adressenavn" />
	</node>
	<node id="-555189" lat="59.2853527731" lon="7.49715647795">
		<tag k="name" v="Bakkebu hyttegrend" />
		<tag k="ssr:date" v="2019-12-27" />
		<tag k="ssr:gruppe" v="veg" />
		<tag k="ssr:hovedgruppe" v="infrastruktur" />
		<tag k="ssr:stedsnr" v="973976" />
		<tag k="ssr:type" v="adressenavn" />
	</node>
	<node id="-554541" lat="59.2119055536" lon="7.53339722568">
		<tag k="name" v="Valle kommune" />
		<tag k="ssr:date" v="2019-12-27" />
		<tag k="ssr:gruppe" v="administrativeIndelinger" />
		<tag k="ssr:hovedgruppe" v="offentligAdministrasjon" />
		<tag k="ssr:stedsnr" v="510932" />
		<tag k="ssr:type" v="kommune" />
	</node>
	<node id="-555193" lat="59.2828877378" lon="7.49914301894">
		<tag k="name" v="Veiåstøylen hyttegrend" />
		<tag k="ssr:date" v="2019-12-27" />
		<tag k="ssr:gruppe" v="veg" />
		<tag k="ssr:hovedgruppe" v="infrastruktur" />
		<tag k="ssr:stedsnr" v="973977" />
		<tag k="ssr:type" v="adressenavn" />
	</node>
</osm>
