<?xml version="1.0" encoding="UTF-8"?>
<<<<<<< HEAD
<osm version="0.6" generator="osmapis">
	<node lat="67.23325000355678" lon="15.247636102384952" id="-5326">
		<tag k="name" v="Øynes" />
		<tag k="ssr:date" v="2016-05-10" />
		<tag k="ssr:gruppe" v="navigasjon" />
		<tag k="ssr:hovedgruppe" v="infrastruktur" />
		<tag k="ssr:stedsnr" v="144766" />
		<tag k="ssr:type" v="fyrlykt" />
	</node>
	<node lat="67.27435065817821" lon="15.034761823371229" id="-6188">
		<tag k="name" v="Alvnestangen" />
		<tag k="old_name" v="Alvenestangen" />
		<tag k="ssr:date" v="2020-09-17" />
		<tag k="ssr:gruppe" v="navigasjon" />
		<tag k="ssr:hovedgruppe" v="infrastruktur" />
		<tag k="ssr:stedsnr" v="930670" />
		<tag k="ssr:type" v="fyrlykt" />
	</node>
	<node lat="67.25305465763151" lon="15.536945298134084" id="-6299">
		<tag k="name" v="Lusbakken" />
		<tag k="ssr:date" v="2019-05-30" />
		<tag k="ssr:gruppe" v="veg" />
		<tag k="ssr:hovedgruppe" v="infrastruktur" />
		<tag k="ssr:stedsnr" v="1000875" />
		<tag k="ssr:type" v="adressenavn" />
	</node>
	<node lat="67.05427818435165" lon="16.372405406257737" id="-6300">
		<tag k="name" v="Muorkivatnet" />
		<tag k="ssr:date" v="2019-05-30" />
		<tag k="ssr:gruppe" v="veg" />
		<tag k="ssr:hovedgruppe" v="infrastruktur" />
		<tag k="ssr:stedsnr" v="1000920" />
		<tag k="ssr:type" v="adressenavn" />
	</node>
	<node lat="67.09425559319644" lon="16.092058729344735" id="-6301">
		<tag k="name" v="Middagshågen" />
		<tag k="ssr:date" v="2019-05-30" />
		<tag k="ssr:gruppe" v="veg" />
		<tag k="ssr:hovedgruppe" v="infrastruktur" />
		<tag k="ssr:stedsnr" v="1000925" />
		<tag k="ssr:type" v="adressenavn" />
	</node>
	<node lat="67.27758619897553" lon="15.14719330788853" id="-6302">
		<tag k="name" v="Medberget" />
		<tag k="ssr:date" v="2020-02-27" />
		<tag k="ssr:gruppe" v="veg" />
		<tag k="ssr:hovedgruppe" v="infrastruktur" />
		<tag k="ssr:stedsnr" v="1000932" />
		<tag k="ssr:type" v="adressenavn" />
	</node>
	<node lat="67.0714759283105" lon="16.037797701563214" id="-6303">
		<tag k="name" v="Langholmen" />
		<tag k="ssr:date" v="2019-05-30" />
		<tag k="ssr:gruppe" v="veg" />
		<tag k="ssr:hovedgruppe" v="infrastruktur" />
		<tag k="ssr:stedsnr" v="1000977" />
		<tag k="ssr:type" v="adressenavn" />
	</node>
	<node lat="67.19872596406624" lon="15.46182385230052" id="-6304">
		<tag k="name" v="Kvænflåget" />
		<tag k="ssr:date" v="2019-05-30" />
		<tag k="ssr:gruppe" v="veg" />
		<tag k="ssr:hovedgruppe" v="infrastruktur" />
		<tag k="ssr:stedsnr" v="1000981" />
		<tag k="ssr:type" v="adressenavn" />
	</node>
	<node lat="67.44023954669231" lon="15.355312277339198" id="-6305">
		<tag k="name" v="Krubblihaugen" />
		<tag k="ssr:date" v="2019-05-30" />
		<tag k="ssr:gruppe" v="veg" />
		<tag k="ssr:hovedgruppe" v="infrastruktur" />
		<tag k="ssr:stedsnr" v="1000986" />
		<tag k="ssr:type" v="adressenavn" />
	</node>
	<node lat="67.06001232725633" lon="16.0315682949796" id="-6306">
		<tag k="name" v="Kulstadholmen" />
		<tag k="ssr:date" v="2019-05-30" />
		<tag k="ssr:gruppe" v="veg" />
		<tag k="ssr:hovedgruppe" v="infrastruktur" />
		<tag k="ssr:stedsnr" v="1000987" />
		<tag k="ssr:type" v="adressenavn" />
	</node>
	<node lat="67.36092788049619" lon="15.302921630217464" id="-6307">
		<tag k="name" v="Reinlia" />
		<tag k="ssr:date" v="2019-05-30" />
		<tag k="ssr:gruppe" v="veg" />
		<tag k="ssr:hovedgruppe" v="infrastruktur" />
		<tag k="ssr:stedsnr" v="1001217" />
		<tag k="ssr:type" v="adressenavn" />
	</node>
	<node lat="67.07558485786271" lon="16.04808350658114" id="-6308">
		<tag k="name" v="Raadebukta" />
		<tag k="ssr:date" v="2019-05-30" />
		<tag k="ssr:gruppe" v="veg" />
		<tag k="ssr:hovedgruppe" v="infrastruktur" />
		<tag k="ssr:stedsnr" v="1001180" />
		<tag k="ssr:type" v="adressenavn" />
	</node>
	<node lat="67.28676548798474" lon="15.31992568628501" id="-6309">
		<tag k="name" v="Rulengvatnet" />
		<tag k="ssr:date" v="2019-05-30" />
		<tag k="ssr:gruppe" v="veg" />
		<tag k="ssr:hovedgruppe" v="infrastruktur" />
		<tag k="ssr:stedsnr" v="1001187" />
		<tag k="ssr:type" v="adressenavn" />
	</node>
	<node lat="67.28696309241627" lon="15.35686021088704" id="-6310">
		<tag k="name" v="Erikstadvatnet" />
		<tag k="ssr:date" v="2019-05-30" />
		<tag k="ssr:gruppe" v="veg" />
		<tag k="ssr:hovedgruppe" v="infrastruktur" />
		<tag k="ssr:stedsnr" v="1001337" />
		<tag k="ssr:type" v="adressenavn" />
	</node>
	<node lat="67.28852106845521" lon="15.344602888412785" id="-6311">
		<tag k="name" v="Bentevasslia" />
		<tag k="ssr:date" v="2019-05-30" />
		<tag k="ssr:gruppe" v="veg" />
		<tag k="ssr:hovedgruppe" v="infrastruktur" />
		<tag k="ssr:stedsnr" v="1001469" />
		<tag k="ssr:type" v="adressenavn" />
	</node>
	<node lat="67.28516832236652" lon="15.3338215543756" id="-6312">
		<tag k="name" v="Beinteinvatnet" />
		<tag k="ssr:date" v="2019-05-30" />
		<tag k="ssr:gruppe" v="veg" />
		<tag k="ssr:hovedgruppe" v="infrastruktur" />
		<tag k="ssr:stedsnr" v="1001471" />
		<tag k="ssr:type" v="adressenavn" />
	</node>
	<node lat="67.12030917794219" lon="15.854089334601323" id="-6313">
		<tag k="name" v="Bajep Skuorttajávrre" />
		<tag k="ssr:date" v="2019-05-30" />
		<tag k="ssr:gruppe" v="veg" />
		<tag k="ssr:hovedgruppe" v="infrastruktur" />
		<tag k="ssr:stedsnr" v="1001479" />
		<tag k="ssr:type" v="adressenavn" />
	</node>
	<node lat="67.20680425448124" lon="16.25606591907599" id="-6314">
		<tag k="name" v="Bajep Sårjåsjávrre" />
		<tag k="ssr:date" v="2019-05-30" />
		<tag k="ssr:gruppe" v="veg" />
		<tag k="ssr:hovedgruppe" v="infrastruktur" />
		<tag k="ssr:stedsnr" v="1001480" />
		<tag k="ssr:type" v="adressenavn" />
	</node>
	<node lat="67.2775872289136" lon="15.540383820515201" id="-6315">
		<tag k="name" v="Bjørnhågen" />
		<tag k="ssr:date" v="2019-05-30" />
		<tag k="ssr:gruppe" v="veg" />
		<tag k="ssr:hovedgruppe" v="infrastruktur" />
		<tag k="ssr:stedsnr" v="1001481" />
		<tag k="ssr:type" v="adressenavn" />
	</node>
	<node lat="67.17644908658758" lon="15.825980360921443" id="-6316">
		<tag k="name" v="Bjørnmyr" />
		<tag k="ssr:date" v="2020-03-09" />
		<tag k="ssr:gruppe" v="veg" />
		<tag k="ssr:hovedgruppe" v="infrastruktur" />
		<tag k="ssr:stedsnr" v="1001487" />
		<tag k="ssr:type" v="adressenavn" />
	</node>
	<node lat="67.29135044105854" lon="15.336908970354058" id="-6317">
		<tag k="name" v="Trollhaugen" />
		<tag k="ssr:date" v="2019-05-30" />
		<tag k="ssr:gruppe" v="veg" />
		<tag k="ssr:hovedgruppe" v="infrastruktur" />
		<tag k="ssr:stedsnr" v="1001867" />
		<tag k="ssr:type" v="adressenavn" />
	</node>
	<node lat="67.14164319913763" lon="15.86511263885627" id="-6318">
		<tag k="name" v="Tvetjønna" />
		<tag k="ssr:date" v="2019-05-30" />
		<tag k="ssr:gruppe" v="veg" />
		<tag k="ssr:hovedgruppe" v="infrastruktur" />
		<tag k="ssr:stedsnr" v="1001878" />
		<tag k="ssr:type" v="adressenavn" />
	</node>
	<node lat="67.2050571700865" lon="15.578486348848426" id="-6319">
		<tag k="name" v="Svartvatnet" />
		<tag k="ssr:date" v="2019-05-30" />
		<tag k="ssr:gruppe" v="veg" />
		<tag k="ssr:hovedgruppe" v="infrastruktur" />
		<tag k="ssr:stedsnr" v="1001883" />
		<tag k="ssr:type" v="adressenavn" />
	</node>
	<node lat="67.18493611487338" lon="15.756564942362912" id="-6320">
		<tag k="name" v="Tverråmoskogen" />
		<tag k="ssr:date" v="2019-05-30" />
		<tag k="ssr:gruppe" v="veg" />
		<tag k="ssr:hovedgruppe" v="infrastruktur" />
		<tag k="ssr:stedsnr" v="1001887" />
		<tag k="ssr:type" v="adressenavn" />
	</node>
	<node lat="67.26737110265032" lon="15.556030656095945" id="-6321">
		<tag k="name" v="Tjønnhågen" />
		<tag k="ssr:date" v="2019-05-30" />
		<tag k="ssr:gruppe" v="veg" />
		<tag k="ssr:hovedgruppe" v="infrastruktur" />
		<tag k="ssr:stedsnr" v="1001914" />
		<tag k="ssr:type" v="adressenavn" />
	</node>
	<node lat="67.06151824311713" lon="16.036581157022177" id="-6322">
		<tag k="name" v="Tjalanisodden" />
		<tag k="ssr:date" v="2019-05-30" />
		<tag k="ssr:gruppe" v="veg" />
		<tag k="ssr:hovedgruppe" v="infrastruktur" />
		<tag k="ssr:stedsnr" v="1001920" />
		<tag k="ssr:type" v="adressenavn" />
	</node>
	<node lat="67.22898207047153" lon="15.609820386746035" id="-6323">
		<tag k="name" v="Stifjellet" />
		<tag k="ssr:date" v="2019-05-30" />
		<tag k="ssr:gruppe" v="veg" />
		<tag k="ssr:hovedgruppe" v="infrastruktur" />
		<tag k="ssr:stedsnr" v="1001932" />
		<tag k="ssr:type" v="adressenavn" />
	</node>
	<node lat="67.25160420059083" lon="15.516423970211859" id="-6324">
		<tag k="name" v="Stengvatnet" />
		<tag k="ssr:date" v="2019-05-30" />
		<tag k="ssr:gruppe" v="veg" />
		<tag k="ssr:hovedgruppe" v="infrastruktur" />
		<tag k="ssr:stedsnr" v="1001934" />
		<tag k="ssr:type" v="adressenavn" />
	</node>
	<node lat="67.14418965908396" lon="15.84162449050876" id="-6325">
		<tag k="name" v="Øvre Gamvatnet" />
		<tag k="ssr:date" v="2019-05-30" />
		<tag k="ssr:gruppe" v="veg" />
		<tag k="ssr:hovedgruppe" v="infrastruktur" />
		<tag k="ssr:stedsnr" v="1002289" />
		<tag k="ssr:type" v="adressenavn" />
	</node>
	<node lat="67.07182060320953" lon="16.05432317571091" id="-6326">
		<tag k="name" v="Østre Kjelvatnet" />
		<tag k="ssr:date" v="2019-05-30" />
		<tag k="ssr:gruppe" v="veg" />
		<tag k="ssr:hovedgruppe" v="infrastruktur" />
		<tag k="ssr:stedsnr" v="1002300" />
		<tag k="ssr:type" v="adressenavn" />
	</node>
	<node lat="67.2804027758844" lon="14.376388898255625" id="-6966">
		<tag k="alt_name:no" v="Nordland" />
		<tag k="loc_name:se" v="Nordlándda fylka" />
		<tag k="loc_name:sma" v="Nordlaanten fylhke" />
		<tag k="name" v="Nordland fylke - Nordlánda fylkka" />
		<tag k="name:no" v="Nordland fylke" />
		<tag k="name:smj" v="Nordlánda fylkka" />
		<tag k="ssr:date" v="2021-02-03" />
		<tag k="ssr:gruppe" v="administrativeIndelinger" />
		<tag k="ssr:hovedgruppe" v="offentligAdministrasjon" />
		<tag k="ssr:stedsnr" v="511766" />
		<tag k="ssr:type" v="fylke" />
	</node>
	<node lat="67.25961514337483" lon="15.394098226264383" id="-7554">
		<tag k="name" v="Fauske kommune - Fuosko suohkan" />
		<tag k="name:no" v="Fauske kommune" />
		<tag k="name:smj" v="Fuosko suohkan" />
		<tag k="ssr:date" v="2021-11-01" />
		<tag k="ssr:gruppe" v="administrativeIndelinger" />
		<tag k="ssr:hovedgruppe" v="offentligAdministrasjon" />
		<tag k="ssr:stedsnr" v="936298" />
		<tag k="ssr:type" v="kommune" />
	</node>
	<node lat="67.38687354161416" lon="15.397298376821574" id="-7599">
		<tag k="name" v="Hansvatnet" />
		<tag k="ssr:date" v="2019-05-30" />
		<tag k="ssr:gruppe" v="veg" />
		<tag k="ssr:hovedgruppe" v="infrastruktur" />
		<tag k="ssr:stedsnr" v="1000997" />
		<tag k="ssr:type" v="adressenavn" />
	</node>
	<node lat="67.15863865815784" lon="15.855756018996896" id="-7600">
		<tag k="name" v="Littj-Tjårrisvatnet" />
		<tag k="ssr:date" v="2019-05-30" />
		<tag k="ssr:gruppe" v="veg" />
		<tag k="ssr:hovedgruppe" v="infrastruktur" />
		<tag k="ssr:stedsnr" v="1000894" />
		<tag k="ssr:type" v="adressenavn" />
	</node>
	<node lat="67.09130640784039" lon="16.08830498953318" id="-7601">
		<tag k="name" v="Langtjønna" />
		<tag k="ssr:date" v="2019-05-30" />
		<tag k="ssr:gruppe" v="veg" />
		<tag k="ssr:hovedgruppe" v="infrastruktur" />
		<tag k="ssr:stedsnr" v="1000895" />
		<tag k="ssr:type" v="adressenavn" />
	</node>
	<node lat="67.2920865293971" lon="15.515451902565935" id="-7602">
		<tag k="name" v="Lomtjønna" />
		<tag k="ssr:date" v="2019-05-30" />
		<tag k="ssr:gruppe" v="veg" />
		<tag k="ssr:hovedgruppe" v="infrastruktur" />
		<tag k="ssr:stedsnr" v="1000898" />
		<tag k="ssr:type" v="adressenavn" />
	</node>
	<node lat="67.10321253952326" lon="15.914614329658923" id="-7603">
		<tag k="name" v="Lillyvatnet" />
		<tag k="ssr:date" v="2019-05-30" />
		<tag k="ssr:gruppe" v="veg" />
		<tag k="ssr:hovedgruppe" v="infrastruktur" />
		<tag k="ssr:stedsnr" v="1000905" />
		<tag k="ssr:type" v="adressenavn" />
	</node>
	<node lat="67.14915283059497" lon="15.950385501068299" id="-7604">
		<tag k="name" v="Melvatnan" />
		<tag k="ssr:date" v="2019-05-30" />
		<tag k="ssr:gruppe" v="veg" />
		<tag k="ssr:hovedgruppe" v="infrastruktur" />
		<tag k="ssr:stedsnr" v="1000906" />
		<tag k="ssr:type" v="adressenavn" />
	</node>
	<node lat="67.2673146195836" lon="15.509231787216951" id="-7605">
		<tag k="name" v="Melkerdalen" />
		<tag k="ssr:date" v="2019-05-30" />
		<tag k="ssr:gruppe" v="veg" />
		<tag k="ssr:hovedgruppe" v="infrastruktur" />
		<tag k="ssr:stedsnr" v="1000908" />
		<tag k="ssr:type" v="adressenavn" />
	</node>
	<node lat="67.2821265572875" lon="15.305393918387516" id="-7606">
		<tag k="name" v="Maritvatnet" />
		<tag k="ssr:date" v="2019-05-30" />
		<tag k="ssr:gruppe" v="veg" />
		<tag k="ssr:hovedgruppe" v="infrastruktur" />
		<tag k="ssr:stedsnr" v="1000910" />
		<tag k="ssr:type" v="adressenavn" />
	</node>
	<node lat="67.28075181256752" lon="15.457605518202644" id="-7607">
=======
<osm generator="osmapis" version="0.6">
	<node id="-174840" lat="67.2807518126" lon="15.4576055182">
>>>>>>> e1d4bc35ff8a6074a6f2e91616a996b547c36f15
		<tag k="name" v="Solvollen" />
		<tag k="ssr:date" v="2019-05-30" />
		<tag k="ssr:gruppe" v="veg" />
		<tag k="ssr:hovedgruppe" v="infrastruktur" />
		<tag k="ssr:stedsnr" v="1001936" />
		<tag k="ssr:type" v="adressenavn" />
	</node>
<<<<<<< HEAD
	<node lat="67.20027797307259" lon="15.486042780554678" id="-7608">
		<tag k="name" v="Kattdalen" />
=======
	<node id="-174839" lat="67.2516042006" lon="15.5164239702">
		<tag k="name" v="Stengvatnet" />
>>>>>>> e1d4bc35ff8a6074a6f2e91616a996b547c36f15
		<tag k="ssr:date" v="2019-05-30" />
		<tag k="ssr:gruppe" v="veg" />
		<tag k="ssr:hovedgruppe" v="infrastruktur" />
		<tag k="ssr:stedsnr" v="1000945" />
		<tag k="ssr:type" v="adressenavn" />
	</node>
<<<<<<< HEAD
	<node lat="67.29163802572046" lon="15.314512327825298" id="-7609">
		<tag k="name" v="Klipvatnet" />
=======
	<node id="-174838" lat="67.2289820705" lon="15.6098203867">
		<tag k="name" v="Stifjellet" />
>>>>>>> e1d4bc35ff8a6074a6f2e91616a996b547c36f15
		<tag k="ssr:date" v="2019-05-30" />
		<tag k="ssr:gruppe" v="veg" />
		<tag k="ssr:hovedgruppe" v="infrastruktur" />
		<tag k="ssr:stedsnr" v="1000947" />
		<tag k="ssr:type" v="adressenavn" />
	</node>
<<<<<<< HEAD
	<node lat="67.05351939145467" lon="16.051980214753982" id="-7610">
		<tag k="name" v="Tjálanisjávrre" />
=======
	<node id="-174837" lat="67.0615182431" lon="16.036581157">
		<tag k="name" v="Tjalanisodden" />
>>>>>>> e1d4bc35ff8a6074a6f2e91616a996b547c36f15
		<tag k="ssr:date" v="2019-05-30" />
		<tag k="ssr:gruppe" v="veg" />
		<tag k="ssr:hovedgruppe" v="infrastruktur" />
		<tag k="ssr:stedsnr" v="1000951" />
		<tag k="ssr:type" v="adressenavn" />
	</node>
<<<<<<< HEAD
	<node lat="67.07294917677947" lon="16.039860925344133" id="-7611">
		<tag k="name" v="Kjeldsenholmen" />
=======
	<node id="-174836" lat="67.2673711027" lon="15.5560306561">
		<tag k="name" v="Tjønnhågen" />
>>>>>>> e1d4bc35ff8a6074a6f2e91616a996b547c36f15
		<tag k="ssr:date" v="2019-05-30" />
		<tag k="ssr:gruppe" v="veg" />
		<tag k="ssr:hovedgruppe" v="infrastruktur" />
		<tag k="ssr:stedsnr" v="1000957" />
		<tag k="ssr:type" v="adressenavn" />
	</node>
	<node lat="67.07906226821937" lon="16.033600323661094" id="-7612">
		<tag k="name" v="Vestre Kjelvatnet" />
		<tag k="ssr:date" v="2019-05-30" />
		<tag k="ssr:gruppe" v="veg" />
		<tag k="ssr:hovedgruppe" v="infrastruktur" />
		<tag k="ssr:stedsnr" v="1000958" />
		<tag k="ssr:type" v="adressenavn" />
	</node>
	<node lat="67.29544147967819" lon="15.511412013499477" id="-7613">
		<tag k="name" v="Korsådalen" />
		<tag k="ssr:date" v="2019-05-30" />
		<tag k="ssr:gruppe" v="veg" />
		<tag k="ssr:hovedgruppe" v="infrastruktur" />
		<tag k="ssr:stedsnr" v="1000959" />
		<tag k="ssr:type" v="adressenavn" />
	</node>
	<node lat="67.2820115525389" lon="15.315244783406634" id="-7614">
		<tag k="name" v="Helskaret" />
		<tag k="ssr:date" v="2019-05-30" />
		<tag k="ssr:gruppe" v="veg" />
		<tag k="ssr:hovedgruppe" v="infrastruktur" />
		<tag k="ssr:stedsnr" v="1001027" />
		<tag k="ssr:type" v="adressenavn" />
	</node>
	<node lat="67.1704836048533" lon="15.792327294294719" id="-7615">
		<tag k="name" v="Fjellmo" />
		<tag k="ssr:date" v="2019-05-30" />
		<tag k="ssr:gruppe" v="veg" />
		<tag k="ssr:hovedgruppe" v="infrastruktur" />
		<tag k="ssr:stedsnr" v="1001063" />
		<tag k="ssr:type" v="adressenavn" />
	</node>
	<node lat="67.41590160571695" lon="15.377194118294675" id="-7616">
		<tag k="name" v="Halsvatnet" />
		<tag k="ssr:date" v="2019-05-30" />
		<tag k="ssr:gruppe" v="veg" />
		<tag k="ssr:hovedgruppe" v="infrastruktur" />
		<tag k="ssr:stedsnr" v="1001127" />
		<tag k="ssr:type" v="adressenavn" />
	</node>
	<node lat="67.29870688522574" lon="15.25551875874842" id="-7617">
		<tag k="name" v="Hagnes-Hellskarlia" />
		<tag k="ssr:date" v="2019-05-30" />
		<tag k="ssr:gruppe" v="veg" />
		<tag k="ssr:hovedgruppe" v="infrastruktur" />
		<tag k="ssr:stedsnr" v="1001128" />
		<tag k="ssr:type" v="adressenavn" />
	</node>
	<node lat="67.15105579772916" lon="15.912346597843731" id="-7618">
		<tag k="name" v="Grovvatnet" />
		<tag k="ssr:date" v="2019-05-30" />
		<tag k="ssr:gruppe" v="veg" />
		<tag k="ssr:hovedgruppe" v="infrastruktur" />
		<tag k="ssr:stedsnr" v="1001134" />
		<tag k="ssr:type" v="adressenavn" />
	</node>
	<node lat="67.26151849160586" lon="15.54539268458783" id="-7619">
		<tag k="name" v="Grønlivatnet" />
		<tag k="ssr:date" v="2019-05-30" />
		<tag k="ssr:gruppe" v="veg" />
		<tag k="ssr:hovedgruppe" v="infrastruktur" />
		<tag k="ssr:stedsnr" v="1001137" />
		<tag k="ssr:type" v="adressenavn" />
	</node>
	<node lat="67.17081131851843" lon="15.8930365655662" id="-7620">
		<tag k="name" v="Hellarmo" />
		<tag k="ssr:date" v="2019-05-30" />
		<tag k="ssr:gruppe" v="veg" />
		<tag k="ssr:hovedgruppe" v="infrastruktur" />
		<tag k="ssr:stedsnr" v="1001007" />
		<tag k="ssr:type" v="adressenavn" />
	</node>
	<node lat="67.3220274822948" lon="15.307894174529874" id="-7621">
		<tag k="name" v="Per Sjursodalen" />
		<tag k="ssr:date" v="2019-05-30" />
		<tag k="ssr:gruppe" v="veg" />
		<tag k="ssr:hovedgruppe" v="infrastruktur" />
		<tag k="ssr:stedsnr" v="1001203" />
		<tag k="ssr:type" v="adressenavn" />
	</node>
	<node lat="67.3881654914496" lon="15.241808319162605" id="-7622">
		<tag k="name" v="Olånsodalen" />
		<tag k="ssr:date" v="2019-05-30" />
		<tag k="ssr:gruppe" v="veg" />
		<tag k="ssr:hovedgruppe" v="infrastruktur" />
		<tag k="ssr:stedsnr" v="1001204" />
		<tag k="ssr:type" v="adressenavn" />
	</node>
	<node lat="67.22991290169483" lon="15.371024416289242" id="-7623">
		<tag k="name" v="Pinvika" />
		<tag k="ssr:date" v="2019-05-30" />
		<tag k="ssr:gruppe" v="veg" />
		<tag k="ssr:hovedgruppe" v="infrastruktur" />
		<tag k="ssr:stedsnr" v="1001212" />
		<tag k="ssr:type" v="adressenavn" />
	</node>
	<node lat="67.23085608452888" lon="15.583517299125543" id="-7624">
		<tag k="name" v="Engan" />
		<tag k="ssr:date" v="2019-05-30" />
		<tag k="ssr:gruppe" v="veg" />
		<tag k="ssr:hovedgruppe" v="infrastruktur" />
		<tag k="ssr:stedsnr" v="1001311" />
		<tag k="ssr:type" v="adressenavn" />
	</node>
	<node lat="67.19600276400152" lon="15.767752176326246" id="-7625">
		<tag k="name" v="Elidavatnet" />
		<tag k="ssr:date" v="2019-05-30" />
		<tag k="ssr:gruppe" v="veg" />
		<tag k="ssr:hovedgruppe" v="infrastruktur" />
		<tag k="ssr:stedsnr" v="1001313" />
		<tag k="ssr:type" v="adressenavn" />
	</node>
	<node lat="67.1926650684627" lon="15.775905692503605" id="-7626">
		<tag k="name" v="Nermivatnet" />
		<tag k="ssr:date" v="2019-05-30" />
		<tag k="ssr:gruppe" v="veg" />
		<tag k="ssr:hovedgruppe" v="infrastruktur" />
		<tag k="ssr:stedsnr" v="1001240" />
		<tag k="ssr:type" v="adressenavn" />
	</node>
	<node lat="67.23987109577776" lon="15.409156960006642" id="-7627">
		<tag k="name" v="Nermarka" />
		<tag k="ssr:date" v="2019-05-30" />
		<tag k="ssr:gruppe" v="veg" />
		<tag k="ssr:hovedgruppe" v="infrastruktur" />
		<tag k="ssr:stedsnr" v="1001244" />
		<tag k="ssr:type" v="adressenavn" />
	</node>
	<node lat="67.08614422654973" lon="16.03363547139211" id="-7628">
		<tag k="name" v="Nordre Såki" />
		<tag k="ssr:date" v="2019-05-30" />
		<tag k="ssr:gruppe" v="veg" />
		<tag k="ssr:hovedgruppe" v="infrastruktur" />
		<tag k="ssr:stedsnr" v="1001253" />
		<tag k="ssr:type" v="adressenavn" />
	</node>
<<<<<<< HEAD
	<node lat="67.31353256753715" lon="15.181126052420385" id="-7629">
=======
	<node id="-174835" lat="67.3135325675" lon="15.1811260524">
>>>>>>> e1d4bc35ff8a6074a6f2e91616a996b547c36f15
		<tag k="name" v="Djupvika" />
		<tag k="ssr:date" v="2019-05-30" />
		<tag k="ssr:gruppe" v="veg" />
		<tag k="ssr:hovedgruppe" v="infrastruktur" />
		<tag k="ssr:stedsnr" v="1001434" />
		<tag k="ssr:type" v="adressenavn" />
	</node>
<<<<<<< HEAD
	<node lat="67.08074332617086" lon="16.002157682578858" id="-7630">
		<tag k="name" v="Annavatnet" />
		<tag k="ssr:date" v="2019-05-30" />
		<tag k="ssr:gruppe" v="veg" />
		<tag k="ssr:hovedgruppe" v="infrastruktur" />
		<tag k="ssr:stedsnr" v="1001453" />
		<tag k="ssr:type" v="adressenavn" />
	</node>
	<node lat="67.0842215792465" lon="16.008552768894397" id="-7631">
		<tag k="name" v="Annabekken" />
=======
	<node id="-174834" lat="67.1926650685" lon="15.7759056925">
		<tag k="name" v="Nermivatnet" />
		<tag k="ssr:date" v="2019-05-30" />
		<tag k="ssr:gruppe" v="veg" />
		<tag k="ssr:hovedgruppe" v="infrastruktur" />
		<tag k="ssr:stedsnr" v="1001240" />
		<tag k="ssr:type" v="adressenavn" />
	</node>
	<node id="-174833" lat="67.3609278805" lon="15.3029216302">
		<tag k="name" v="Reinlia" />
>>>>>>> e1d4bc35ff8a6074a6f2e91616a996b547c36f15
		<tag k="ssr:date" v="2019-05-30" />
		<tag k="ssr:gruppe" v="veg" />
		<tag k="ssr:hovedgruppe" v="infrastruktur" />
		<tag k="ssr:stedsnr" v="1001463" />
		<tag k="ssr:type" v="adressenavn" />
	</node>
<<<<<<< HEAD
	<node lat="67.31606233355046" lon="15.302146408974163" id="-7632">
		<tag k="name" v="Djuposfjellet" />
=======
	<node id="-174832" lat="67.2869630924" lon="15.3568602109">
		<tag k="name" v="Erikstadvatnet" />
>>>>>>> e1d4bc35ff8a6074a6f2e91616a996b547c36f15
		<tag k="ssr:date" v="2019-05-30" />
		<tag k="ssr:gruppe" v="veg" />
		<tag k="ssr:hovedgruppe" v="infrastruktur" />
		<tag k="ssr:stedsnr" v="1001395" />
		<tag k="ssr:type" v="adressenavn" />
	</node>
<<<<<<< HEAD
	<node lat="67.0733089536695" lon="16.032655991128085" id="-7633">
		<tag k="name" v="Direktørholmen" />
=======
	<node id="-174831" lat="67.2820115525" lon="15.3152447834">
		<tag k="name" v="Helskaret" />
>>>>>>> e1d4bc35ff8a6074a6f2e91616a996b547c36f15
		<tag k="ssr:date" v="2019-05-30" />
		<tag k="ssr:gruppe" v="veg" />
		<tag k="ssr:hovedgruppe" v="infrastruktur" />
		<tag k="ssr:stedsnr" v="1001402" />
		<tag k="ssr:type" v="adressenavn" />
	</node>
<<<<<<< HEAD
	<node lat="67.28628074675004" lon="15.32457008808652" id="-7634">
		<tag k="name" v="Bonlia" />
=======
	<node id="-174830" lat="67.2954414797" lon="15.5114120135">
		<tag k="name" v="Korsådalen" />
>>>>>>> e1d4bc35ff8a6074a6f2e91616a996b547c36f15
		<tag k="ssr:date" v="2019-05-30" />
		<tag k="ssr:gruppe" v="veg" />
		<tag k="ssr:hovedgruppe" v="infrastruktur" />
		<tag k="ssr:stedsnr" v="1001507" />
		<tag k="ssr:type" v="adressenavn" />
	</node>
<<<<<<< HEAD
	<node lat="67.02503147780195" lon="16.140308067854665" id="-7635">
		<tag k="name" v="Botnvasstjønnene" />
=======
	<node id="-174829" lat="67.0790622682" lon="16.0336003237">
		<tag k="name" v="Vestre Kjelvatnet" />
>>>>>>> e1d4bc35ff8a6074a6f2e91616a996b547c36f15
		<tag k="ssr:date" v="2019-05-30" />
		<tag k="ssr:gruppe" v="veg" />
		<tag k="ssr:hovedgruppe" v="infrastruktur" />
		<tag k="ssr:stedsnr" v="1001509" />
		<tag k="ssr:type" v="adressenavn" />
	</node>
<<<<<<< HEAD
	<node lat="67.30287264482685" lon="15.2884978200593" id="-7636">
		<tag k="name" v="Tverrlia" />
=======
	<node id="-174828" lat="67.0729491768" lon="16.0398609253">
		<tag k="name" v="Kjeldsenholmen" />
>>>>>>> e1d4bc35ff8a6074a6f2e91616a996b547c36f15
		<tag k="ssr:date" v="2019-05-30" />
		<tag k="ssr:gruppe" v="veg" />
		<tag k="ssr:hovedgruppe" v="infrastruktur" />
		<tag k="ssr:stedsnr" v="1001888" />
		<tag k="ssr:type" v="adressenavn" />
	</node>
<<<<<<< HEAD
	<node lat="67.43404662330921" lon="15.40054357659798" id="-7637">
		<tag k="name" v="Sætervatnet" />
		<tag k="ssr:date" v="2019-05-30" />
		<tag k="ssr:gruppe" v="veg" />
		<tag k="ssr:hovedgruppe" v="infrastruktur" />
		<tag k="ssr:stedsnr" v="1001896" />
		<tag k="ssr:type" v="adressenavn" />
	</node>
	<node lat="67.07715529771903" lon="16.002078452739223" id="-7638">
		<tag k="name" v="Såkidalen" />
=======
	<node id="-176107" lat="69.6388889725" lon="30.5666644427">
		<tag k="fixme" v="multiple name tags, choose one and add the other to alt_name" />
		<tag k="loc_name:se" v="Norgga gonagasriika" />
		<tag k="loc_name:sma" v="Nöörjen gånkarïjhke" />
		<tag k="loc_name:smj" v="Vuona gånågisrijkka" />
		<tag k="name" v="Noreg;Norge" />
		<tag k="name:en" v="Norway" />
		<tag k="name:no" v="Noreg;Norge" />
		<tag k="ssr:date" v="2020-06-04" />
		<tag k="ssr:gruppe" v="administrativeIndelinger" />
		<tag k="ssr:hovedgruppe" v="offentligAdministrasjon" />
		<tag k="ssr:stedsnr" v="26330" />
		<tag k="ssr:type" v="nasjon" />
	</node>
	<node id="-174826" lat="67.2916380257" lon="15.3145123278">
		<tag k="name" v="Klipvatnet" />
>>>>>>> e1d4bc35ff8a6074a6f2e91616a996b547c36f15
		<tag k="ssr:date" v="2019-05-30" />
		<tag k="ssr:gruppe" v="veg" />
		<tag k="ssr:hovedgruppe" v="infrastruktur" />
		<tag k="ssr:stedsnr" v="1001902" />
		<tag k="ssr:type" v="adressenavn" />
	</node>
<<<<<<< HEAD
	<node lat="67.05289701400041" lon="16.027464769986825" id="-7639">
		<tag k="name" v="Søndre Kjelvatnet" />
=======
	<node id="-174825" lat="67.2002779731" lon="15.4860427806">
		<tag k="name" v="Kattdalen" />
>>>>>>> e1d4bc35ff8a6074a6f2e91616a996b547c36f15
		<tag k="ssr:date" v="2019-05-30" />
		<tag k="ssr:gruppe" v="veg" />
		<tag k="ssr:hovedgruppe" v="infrastruktur" />
		<tag k="ssr:stedsnr" v="1001903" />
		<tag k="ssr:type" v="adressenavn" />
	</node>
<<<<<<< HEAD
	<node lat="67.0639270434258" lon="15.995640259814023" id="-7640">
		<tag k="name" v="Såki" />
		<tag k="ssr:date" v="2019-05-30" />
=======
	<node id="-174824" lat="67.277586199" lon="15.1471933079">
		<tag k="name" v="Medberget" />
		<tag k="ssr:date" v="2020-02-27" />
>>>>>>> e1d4bc35ff8a6074a6f2e91616a996b547c36f15
		<tag k="ssr:gruppe" v="veg" />
		<tag k="ssr:hovedgruppe" v="infrastruktur" />
		<tag k="ssr:stedsnr" v="1001905" />
		<tag k="ssr:type" v="adressenavn" />
	</node>
<<<<<<< HEAD
	<node lat="67.07066543529966" lon="16.008343432289355" id="-7641">
		<tag k="name" v="Såkiåsen" />
		<tag k="ssr:date" v="2019-05-30" />
		<tag k="ssr:gruppe" v="veg" />
=======
	<node id="-174823" lat="67.0942555932" lon="16.0920587293">
		<tag k="name" v="Middagshågen" />
		<tag k="ssr:date" v="2019-05-30" />
		<tag k="ssr:gruppe" v="veg" />
		<tag k="ssr:hovedgruppe" v="infrastruktur" />
		<tag k="ssr:stedsnr" v="1000925" />
		<tag k="ssr:type" v="adressenavn" />
	</node>
	<node id="-174822" lat="67.0542781844" lon="16.3724054063">
		<tag k="name" v="Muorkivatnet" />
		<tag k="ssr:date" v="2019-05-30" />
		<tag k="ssr:gruppe" v="veg" />
		<tag k="ssr:hovedgruppe" v="infrastruktur" />
		<tag k="ssr:stedsnr" v="1000920" />
		<tag k="ssr:type" v="adressenavn" />
	</node>
	<node id="-174695" lat="67.2743138847" lon="15.0347722282">
		<tag k="name" v="Alvnestangen" />
		<tag k="old_name" v="Alvenestangen" />
		<tag k="ssr:date" v="2016-05-11" />
		<tag k="ssr:gruppe" v="navigasjon" />
>>>>>>> e1d4bc35ff8a6074a6f2e91616a996b547c36f15
		<tag k="ssr:hovedgruppe" v="infrastruktur" />
		<tag k="ssr:stedsnr" v="1001906" />
		<tag k="ssr:type" v="adressenavn" />
	</node>
<<<<<<< HEAD
	<node lat="67.06209625786309" lon="16.046183309632525" id="-7642">
		<tag k="name" v="Tjalanisbukta" />
		<tag k="ssr:date" v="2019-05-30" />
		<tag k="ssr:gruppe" v="veg" />
		<tag k="ssr:hovedgruppe" v="infrastruktur" />
		<tag k="ssr:stedsnr" v="1001912" />
		<tag k="ssr:type" v="adressenavn" />
	</node>
	<node lat="67.20570244009187" lon="15.628661358834325" id="-7643">
		<tag k="name" v="Storvik" />
		<tag k="ssr:date" v="2019-05-30" />
		<tag k="ssr:gruppe" v="veg" />
		<tag k="ssr:hovedgruppe" v="infrastruktur" />
		<tag k="ssr:stedsnr" v="1001942" />
		<tag k="ssr:type" v="adressenavn" />
	</node>
	<node lat="67.15588984028128" lon="15.814361200320848" id="-7644">
		<tag k="name" v="Stor-Tjårrisvatnet" />
		<tag k="ssr:date" v="2019-05-30" />
		<tag k="ssr:gruppe" v="veg" />
		<tag k="ssr:hovedgruppe" v="infrastruktur" />
		<tag k="ssr:stedsnr" v="1001943" />
		<tag k="ssr:type" v="adressenavn" />
	</node>
	<node lat="67.2969362154793" lon="15.286469148976758" id="-7645">
		<tag k="name" v="Storvatnet" />
		<tag k="ssr:date" v="2019-05-30" />
		<tag k="ssr:gruppe" v="veg" />
		<tag k="ssr:hovedgruppe" v="infrastruktur" />
		<tag k="ssr:stedsnr" v="1001946" />
		<tag k="ssr:type" v="adressenavn" />
	</node>
	<node lat="67.19913417525024" lon="15.849096520759037" id="-7646">
=======
	<node id="-176086" lat="67.0718206032" lon="16.0543231757">
		<tag k="name" v="Østre Kjelvatnet" />
		<tag k="ssr:date" v="2019-05-30" />
		<tag k="ssr:gruppe" v="veg" />
		<tag k="ssr:hovedgruppe" v="infrastruktur" />
		<tag k="ssr:stedsnr" v="1002300" />
		<tag k="ssr:type" v="adressenavn" />
	</node>
	<node id="-176085" lat="67.1441896591" lon="15.8416244905">
		<tag k="name" v="Øvre Gamvatnet" />
		<tag k="ssr:date" v="2019-05-30" />
		<tag k="ssr:gruppe" v="veg" />
		<tag k="ssr:hovedgruppe" v="infrastruktur" />
		<tag k="ssr:stedsnr" v="1002289" />
		<tag k="ssr:type" v="adressenavn" />
	</node>
	<node id="-176084" lat="67.0549195114" lon="16.0418785419">
		<tag k="name" v="Ydalen" />
		<tag k="ssr:date" v="2019-05-30" />
		<tag k="ssr:gruppe" v="veg" />
		<tag k="ssr:hovedgruppe" v="infrastruktur" />
		<tag k="ssr:stedsnr" v="1002281" />
		<tag k="ssr:type" v="adressenavn" />
	</node>
	<node id="-176083" lat="67.1485974737" lon="15.9241087049">
		<tag k="name" v="Villumelva" />
		<tag k="ssr:date" v="2019-05-30" />
		<tag k="ssr:gruppe" v="veg" />
		<tag k="ssr:hovedgruppe" v="infrastruktur" />
		<tag k="ssr:stedsnr" v="1002251" />
		<tag k="ssr:type" v="adressenavn" />
	</node>
	<node id="-176082" lat="67.1259598732" lon="15.9487439001">
		<tag k="name" v="Villumvatnet" />
		<tag k="ssr:date" v="2019-05-30" />
		<tag k="ssr:gruppe" v="veg" />
		<tag k="ssr:hovedgruppe" v="infrastruktur" />
		<tag k="ssr:stedsnr" v="1002250" />
		<tag k="ssr:type" v="adressenavn" />
	</node>
	<node id="-176081" lat="67.0620962579" lon="16.0461833096">
		<tag k="name" v="Tjalanisbukta" />
		<tag k="ssr:date" v="2019-05-30" />
		<tag k="ssr:gruppe" v="veg" />
		<tag k="ssr:hovedgruppe" v="infrastruktur" />
		<tag k="ssr:stedsnr" v="1001912" />
		<tag k="ssr:type" v="adressenavn" />
	</node>
	<node id="-176080" lat="67.0706654353" lon="16.0083434323">
		<tag k="name" v="Såkiåsen" />
		<tag k="ssr:date" v="2019-05-30" />
		<tag k="ssr:gruppe" v="veg" />
		<tag k="ssr:hovedgruppe" v="infrastruktur" />
		<tag k="ssr:stedsnr" v="1001906" />
		<tag k="ssr:type" v="adressenavn" />
	</node>
	<node id="-176079" lat="67.0639270434" lon="15.9956402598">
		<tag k="name" v="Såki" />
		<tag k="ssr:date" v="2019-05-30" />
		<tag k="ssr:gruppe" v="veg" />
		<tag k="ssr:hovedgruppe" v="infrastruktur" />
		<tag k="ssr:stedsnr" v="1001905" />
		<tag k="ssr:type" v="adressenavn" />
	</node>
	<node id="-176078" lat="67.052897014" lon="16.02746477">
		<tag k="name" v="Søndre Kjelvatnet" />
		<tag k="ssr:date" v="2019-05-30" />
		<tag k="ssr:gruppe" v="veg" />
		<tag k="ssr:hovedgruppe" v="infrastruktur" />
		<tag k="ssr:stedsnr" v="1001903" />
		<tag k="ssr:type" v="adressenavn" />
	</node>
	<node id="-176077" lat="67.0771552977" lon="16.0020784527">
		<tag k="name" v="Såkidalen" />
		<tag k="ssr:date" v="2019-05-30" />
		<tag k="ssr:gruppe" v="veg" />
		<tag k="ssr:hovedgruppe" v="infrastruktur" />
		<tag k="ssr:stedsnr" v="1001902" />
		<tag k="ssr:type" v="adressenavn" />
	</node>
	<node id="-176076" lat="67.1991341753" lon="15.8490965208">
>>>>>>> e1d4bc35ff8a6074a6f2e91616a996b547c36f15
		<tag k="name" v="Skoffedalsvatnet" />
		<tag k="ssr:date" v="2019-05-30" />
		<tag k="ssr:gruppe" v="veg" />
		<tag k="ssr:hovedgruppe" v="infrastruktur" />
		<tag k="ssr:stedsnr" v="1001957" />
		<tag k="ssr:type" v="adressenavn" />
	</node>
<<<<<<< HEAD
	<node lat="67.12595987323247" lon="15.948743900126845" id="-7647">
		<tag k="name" v="Villumvatnet" />
		<tag k="ssr:date" v="2019-05-30" />
		<tag k="ssr:gruppe" v="veg" />
		<tag k="ssr:hovedgruppe" v="infrastruktur" />
		<tag k="ssr:stedsnr" v="1002250" />
		<tag k="ssr:type" v="adressenavn" />
	</node>
	<node lat="67.1485974736668" lon="15.924108704865876" id="-7648">
		<tag k="name" v="Villumelva" />
		<tag k="ssr:date" v="2019-05-30" />
		<tag k="ssr:gruppe" v="veg" />
		<tag k="ssr:hovedgruppe" v="infrastruktur" />
		<tag k="ssr:stedsnr" v="1002251" />
		<tag k="ssr:type" v="adressenavn" />
	</node>
	<node lat="67.05491951140944" lon="16.041878541881132" id="-7649">
		<tag k="name" v="Ydalen" />
		<tag k="ssr:date" v="2019-05-30" />
		<tag k="ssr:gruppe" v="veg" />
		<tag k="ssr:hovedgruppe" v="infrastruktur" />
		<tag k="ssr:stedsnr" v="1002281" />
		<tag k="ssr:type" v="adressenavn" />
	</node>
	<node lat="67.13595788407548" lon="16.049080075925993" id="-7672">
		<tag k="name" v="Charlottatippen" />
		<tag k="ssr:date" v="2020-08-11" />
		<tag k="ssr:gruppe" v="veg" />
		<tag k="ssr:hovedgruppe" v="infrastruktur" />
		<tag k="ssr:stedsnr" v="1077861" />
		<tag k="ssr:type" v="adressenavn" />
	</node>
	<node lat="67.27310755167898" lon="15.37796274282289" id="-7673">
		<tag k="name" v="Lagerveien" />
		<tag k="ssr:date" v="2021-01-25" />
		<tag k="ssr:gruppe" v="veg" />
		<tag k="ssr:hovedgruppe" v="infrastruktur" />
		<tag k="ssr:stedsnr" v="1079741" />
		<tag k="ssr:type" v="adressenavn" />
	</node>
	<node lat="67.24794434892638" lon="15.428692238586304" id="-7681">
		<tag k="name" v="Finneidstraumen" />
		<tag k="ssr:date" v="2021-11-09" />
		<tag k="ssr:gruppe" v="veg" />
		<tag k="ssr:hovedgruppe" v="infrastruktur" />
		<tag k="ssr:stedsnr" v="1082850" />
=======
	<node id="-176075" lat="67.2969362155" lon="15.286469149">
		<tag k="name" v="Storvatnet" />
		<tag k="ssr:date" v="2019-05-30" />
		<tag k="ssr:gruppe" v="veg" />
		<tag k="ssr:hovedgruppe" v="infrastruktur" />
		<tag k="ssr:stedsnr" v="1001946" />
		<tag k="ssr:type" v="adressenavn" />
	</node>
	<node id="-176074" lat="67.1558898403" lon="15.8143612003">
		<tag k="name" v="Stor-Tjårrisvatnet" />
		<tag k="ssr:date" v="2019-05-30" />
		<tag k="ssr:gruppe" v="veg" />
		<tag k="ssr:hovedgruppe" v="infrastruktur" />
		<tag k="ssr:stedsnr" v="1001943" />
		<tag k="ssr:type" v="adressenavn" />
	</node>
	<node id="-176073" lat="67.2057024401" lon="15.6286613588">
		<tag k="name" v="Storvik" />
		<tag k="ssr:date" v="2019-05-30" />
		<tag k="ssr:gruppe" v="veg" />
		<tag k="ssr:hovedgruppe" v="infrastruktur" />
		<tag k="ssr:stedsnr" v="1001942" />
		<tag k="ssr:type" v="adressenavn" />
	</node>
	<node id="-176072" lat="67.4340466233" lon="15.4005435766">
		<tag k="name" v="Sætervatnet" />
		<tag k="ssr:date" v="2019-05-30" />
		<tag k="ssr:gruppe" v="veg" />
		<tag k="ssr:hovedgruppe" v="infrastruktur" />
		<tag k="ssr:stedsnr" v="1001896" />
		<tag k="ssr:type" v="adressenavn" />
	</node>
	<node id="-176071" lat="67.3028726448" lon="15.2884978201">
		<tag k="name" v="Tverrlia" />
		<tag k="ssr:date" v="2019-05-30" />
		<tag k="ssr:gruppe" v="veg" />
		<tag k="ssr:hovedgruppe" v="infrastruktur" />
		<tag k="ssr:stedsnr" v="1001888" />
		<tag k="ssr:type" v="adressenavn" />
	</node>
	<node id="-176070" lat="67.1849361149" lon="15.7565649424">
		<tag k="name" v="Tverråmoskogen" />
		<tag k="ssr:date" v="2019-05-30" />
		<tag k="ssr:gruppe" v="veg" />
		<tag k="ssr:hovedgruppe" v="infrastruktur" />
		<tag k="ssr:stedsnr" v="1001887" />
		<tag k="ssr:type" v="adressenavn" />
	</node>
	<node id="-176069" lat="67.2050571701" lon="15.5784863488">
		<tag k="name" v="Svartvatnet" />
		<tag k="ssr:date" v="2019-05-30" />
		<tag k="ssr:gruppe" v="veg" />
		<tag k="ssr:hovedgruppe" v="infrastruktur" />
		<tag k="ssr:stedsnr" v="1001883" />
		<tag k="ssr:type" v="adressenavn" />
	</node>
	<node id="-176068" lat="67.1416431991" lon="15.8651126389">
		<tag k="name" v="Tvetjønna" />
		<tag k="ssr:date" v="2019-05-30" />
		<tag k="ssr:gruppe" v="veg" />
		<tag k="ssr:hovedgruppe" v="infrastruktur" />
		<tag k="ssr:stedsnr" v="1001878" />
		<tag k="ssr:type" v="adressenavn" />
	</node>
	<node id="-176067" lat="67.2913504411" lon="15.3369089704">
		<tag k="name" v="Trollhaugen" />
		<tag k="ssr:date" v="2019-05-30" />
		<tag k="ssr:gruppe" v="veg" />
		<tag k="ssr:hovedgruppe" v="infrastruktur" />
		<tag k="ssr:stedsnr" v="1001867" />
		<tag k="ssr:type" v="adressenavn" />
	</node>
	<node id="-176066" lat="67.0733089537" lon="16.0326559911">
		<tag k="name" v="Direktørholmen" />
		<tag k="ssr:date" v="2019-05-30" />
		<tag k="ssr:gruppe" v="veg" />
		<tag k="ssr:hovedgruppe" v="infrastruktur" />
		<tag k="ssr:stedsnr" v="1001402" />
		<tag k="ssr:type" v="adressenavn" />
	</node>
	<node id="-176065" lat="67.3160623336" lon="15.302146409">
		<tag k="name" v="Djuposfjellet" />
		<tag k="ssr:date" v="2019-05-30" />
		<tag k="ssr:gruppe" v="veg" />
		<tag k="ssr:hovedgruppe" v="infrastruktur" />
		<tag k="ssr:stedsnr" v="1001395" />
		<tag k="ssr:type" v="adressenavn" />
	</node>
	<node id="-176064" lat="67.196002764" lon="15.7677521763">
		<tag k="name" v="Elidavatnet" />
		<tag k="ssr:date" v="2019-05-30" />
		<tag k="ssr:gruppe" v="veg" />
		<tag k="ssr:hovedgruppe" v="infrastruktur" />
		<tag k="ssr:stedsnr" v="1001313" />
		<tag k="ssr:type" v="adressenavn" />
	</node>
	<node id="-176063" lat="67.2308560845" lon="15.5835172991">
		<tag k="name" v="Engan" />
		<tag k="ssr:date" v="2019-05-30" />
		<tag k="ssr:gruppe" v="veg" />
		<tag k="ssr:hovedgruppe" v="infrastruktur" />
		<tag k="ssr:stedsnr" v="1001311" />
		<tag k="ssr:type" v="adressenavn" />
	</node>
	<node id="-176062" lat="67.0250314778" lon="16.1403080679">
		<tag k="name" v="Botnvasstjønnene" />
		<tag k="ssr:date" v="2019-05-30" />
		<tag k="ssr:gruppe" v="veg" />
		<tag k="ssr:hovedgruppe" v="infrastruktur" />
		<tag k="ssr:stedsnr" v="1001509" />
		<tag k="ssr:type" v="adressenavn" />
	</node>
	<node id="-176061" lat="67.2862807468" lon="15.3245700881">
		<tag k="name" v="Bonlia" />
		<tag k="ssr:date" v="2019-05-30" />
		<tag k="ssr:gruppe" v="veg" />
		<tag k="ssr:hovedgruppe" v="infrastruktur" />
		<tag k="ssr:stedsnr" v="1001507" />
		<tag k="ssr:type" v="adressenavn" />
	</node>
	<node id="-176060" lat="67.1764490866" lon="15.8259803609">
		<tag k="name" v="Bjørnmyr" />
		<tag k="ssr:date" v="2020-03-09" />
		<tag k="ssr:gruppe" v="veg" />
		<tag k="ssr:hovedgruppe" v="infrastruktur" />
		<tag k="ssr:stedsnr" v="1001487" />
		<tag k="ssr:type" v="adressenavn" />
	</node>
	<node id="-176059" lat="67.2775872289" lon="15.5403838205">
		<tag k="name" v="Bjørnhågen" />
		<tag k="ssr:date" v="2019-05-30" />
		<tag k="ssr:gruppe" v="veg" />
		<tag k="ssr:hovedgruppe" v="infrastruktur" />
		<tag k="ssr:stedsnr" v="1001481" />
		<tag k="ssr:type" v="adressenavn" />
	</node>
	<node id="-176058" lat="67.2068042545" lon="16.2560659191">
		<tag k="name" v="Bajep Sårjåsjávrre" />
		<tag k="ssr:date" v="2019-05-30" />
		<tag k="ssr:gruppe" v="veg" />
		<tag k="ssr:hovedgruppe" v="infrastruktur" />
		<tag k="ssr:stedsnr" v="1001480" />
		<tag k="ssr:type" v="adressenavn" />
	</node>
	<node id="-176057" lat="67.1203091779" lon="15.8540893346">
		<tag k="name" v="Bajep Skuorttajávrre" />
		<tag k="ssr:date" v="2019-05-30" />
		<tag k="ssr:gruppe" v="veg" />
		<tag k="ssr:hovedgruppe" v="infrastruktur" />
		<tag k="ssr:stedsnr" v="1001479" />
		<tag k="ssr:type" v="adressenavn" />
	</node>
	<node id="-176056" lat="67.2851683224" lon="15.3338215544">
		<tag k="name" v="Beinteinvatnet" />
		<tag k="ssr:date" v="2019-05-30" />
		<tag k="ssr:gruppe" v="veg" />
		<tag k="ssr:hovedgruppe" v="infrastruktur" />
		<tag k="ssr:stedsnr" v="1001471" />
		<tag k="ssr:type" v="adressenavn" />
	</node>
	<node id="-176055" lat="67.2885210685" lon="15.3446028884">
		<tag k="name" v="Bentevasslia" />
		<tag k="ssr:date" v="2019-05-30" />
		<tag k="ssr:gruppe" v="veg" />
		<tag k="ssr:hovedgruppe" v="infrastruktur" />
		<tag k="ssr:stedsnr" v="1001469" />
		<tag k="ssr:type" v="adressenavn" />
	</node>
	<node id="-176054" lat="67.0842215792" lon="16.0085527689">
		<tag k="name" v="Annabekken" />
		<tag k="ssr:date" v="2019-05-30" />
		<tag k="ssr:gruppe" v="veg" />
		<tag k="ssr:hovedgruppe" v="infrastruktur" />
		<tag k="ssr:stedsnr" v="1001463" />
		<tag k="ssr:type" v="adressenavn" />
	</node>
	<node id="-176053" lat="67.0807433262" lon="16.0021576826">
		<tag k="name" v="Annavatnet" />
		<tag k="ssr:date" v="2019-05-30" />
		<tag k="ssr:gruppe" v="veg" />
		<tag k="ssr:hovedgruppe" v="infrastruktur" />
		<tag k="ssr:stedsnr" v="1001453" />
		<tag k="ssr:type" v="adressenavn" />
	</node>
	<node id="-176052" lat="67.2299129017" lon="15.3710244163">
		<tag k="name" v="Pinvika" />
		<tag k="ssr:date" v="2019-05-30" />
		<tag k="ssr:gruppe" v="veg" />
		<tag k="ssr:hovedgruppe" v="infrastruktur" />
		<tag k="ssr:stedsnr" v="1001212" />
		<tag k="ssr:type" v="adressenavn" />
	</node>
	<node id="-176051" lat="67.3881654914" lon="15.2418083192">
		<tag k="name" v="Olånsodalen" />
		<tag k="ssr:date" v="2019-05-30" />
		<tag k="ssr:gruppe" v="veg" />
		<tag k="ssr:hovedgruppe" v="infrastruktur" />
		<tag k="ssr:stedsnr" v="1001204" />
		<tag k="ssr:type" v="adressenavn" />
	</node>
	<node id="-176050" lat="67.3220274823" lon="15.3078941745">
		<tag k="name" v="Per Sjursodalen" />
		<tag k="ssr:date" v="2019-05-30" />
		<tag k="ssr:gruppe" v="veg" />
		<tag k="ssr:hovedgruppe" v="infrastruktur" />
		<tag k="ssr:stedsnr" v="1001203" />
		<tag k="ssr:type" v="adressenavn" />
	</node>
	<node id="-176049" lat="67.286765488" lon="15.3199256863">
		<tag k="name" v="Rulengvatnet" />
		<tag k="ssr:date" v="2019-05-30" />
		<tag k="ssr:gruppe" v="veg" />
		<tag k="ssr:hovedgruppe" v="infrastruktur" />
		<tag k="ssr:stedsnr" v="1001187" />
		<tag k="ssr:type" v="adressenavn" />
	</node>
	<node id="-176048" lat="67.0755848579" lon="16.0480835066">
		<tag k="name" v="Raadebukta" />
		<tag k="ssr:date" v="2019-05-30" />
		<tag k="ssr:gruppe" v="veg" />
		<tag k="ssr:hovedgruppe" v="infrastruktur" />
		<tag k="ssr:stedsnr" v="1001180" />
		<tag k="ssr:type" v="adressenavn" />
	</node>
	<node id="-176047" lat="67.2615184916" lon="15.5453926846">
		<tag k="name" v="Grønlivatnet" />
		<tag k="ssr:date" v="2019-05-30" />
		<tag k="ssr:gruppe" v="veg" />
		<tag k="ssr:hovedgruppe" v="infrastruktur" />
		<tag k="ssr:stedsnr" v="1001137" />
		<tag k="ssr:type" v="adressenavn" />
	</node>
	<node id="-176046" lat="67.1510557977" lon="15.9123465978">
		<tag k="name" v="Grovvatnet" />
		<tag k="ssr:date" v="2019-05-30" />
		<tag k="ssr:gruppe" v="veg" />
		<tag k="ssr:hovedgruppe" v="infrastruktur" />
		<tag k="ssr:stedsnr" v="1001134" />
		<tag k="ssr:type" v="adressenavn" />
	</node>
	<node id="-176045" lat="67.2987068852" lon="15.2555187587">
		<tag k="name" v="Hagnes-Hellskarlia" />
		<tag k="ssr:date" v="2019-05-30" />
		<tag k="ssr:gruppe" v="veg" />
		<tag k="ssr:hovedgruppe" v="infrastruktur" />
		<tag k="ssr:stedsnr" v="1001128" />
		<tag k="ssr:type" v="adressenavn" />
	</node>
	<node id="-176044" lat="67.4159016057" lon="15.3771941183">
		<tag k="name" v="Halsvatnet" />
		<tag k="ssr:date" v="2019-05-30" />
		<tag k="ssr:gruppe" v="veg" />
		<tag k="ssr:hovedgruppe" v="infrastruktur" />
		<tag k="ssr:stedsnr" v="1001127" />
		<tag k="ssr:type" v="adressenavn" />
	</node>
	<node id="-176043" lat="67.1708113185" lon="15.8930365656">
		<tag k="name" v="Hellarmo" />
		<tag k="ssr:date" v="2019-05-30" />
		<tag k="ssr:gruppe" v="veg" />
		<tag k="ssr:hovedgruppe" v="infrastruktur" />
		<tag k="ssr:stedsnr" v="1001007" />
		<tag k="ssr:type" v="adressenavn" />
	</node>
	<node id="-176042" lat="67.3868735416" lon="15.3972983768">
		<tag k="name" v="Hansvatnet" />
		<tag k="ssr:date" v="2019-05-30" />
		<tag k="ssr:gruppe" v="veg" />
		<tag k="ssr:hovedgruppe" v="infrastruktur" />
		<tag k="ssr:stedsnr" v="1000997" />
		<tag k="ssr:type" v="adressenavn" />
	</node>
	<node id="-176041" lat="67.0861442265" lon="16.0336354714">
		<tag k="name" v="Nordre Såki" />
		<tag k="ssr:date" v="2019-05-30" />
		<tag k="ssr:gruppe" v="veg" />
		<tag k="ssr:hovedgruppe" v="infrastruktur" />
		<tag k="ssr:stedsnr" v="1001253" />
		<tag k="ssr:type" v="adressenavn" />
	</node>
	<node id="-176040" lat="67.2398710958" lon="15.40915696">
		<tag k="name" v="Nermarka" />
		<tag k="ssr:date" v="2019-05-30" />
		<tag k="ssr:gruppe" v="veg" />
		<tag k="ssr:hovedgruppe" v="infrastruktur" />
		<tag k="ssr:stedsnr" v="1001244" />
		<tag k="ssr:type" v="adressenavn" />
	</node>
	<node id="-176039" lat="67.1704836049" lon="15.7923272943">
		<tag k="name" v="Fjellmo" />
		<tag k="ssr:date" v="2019-05-30" />
		<tag k="ssr:gruppe" v="veg" />
		<tag k="ssr:hovedgruppe" v="infrastruktur" />
		<tag k="ssr:stedsnr" v="1001063" />
		<tag k="ssr:type" v="adressenavn" />
	</node>
	<node id="-176038" lat="67.2821265573" lon="15.3053939184">
		<tag k="name" v="Maritvatnet" />
		<tag k="ssr:date" v="2019-05-30" />
		<tag k="ssr:gruppe" v="veg" />
		<tag k="ssr:hovedgruppe" v="infrastruktur" />
		<tag k="ssr:stedsnr" v="1000910" />
		<tag k="ssr:type" v="adressenavn" />
	</node>
	<node id="-176037" lat="67.2673146196" lon="15.5092317872">
		<tag k="name" v="Melkerdalen" />
		<tag k="ssr:date" v="2019-05-30" />
		<tag k="ssr:gruppe" v="veg" />
		<tag k="ssr:hovedgruppe" v="infrastruktur" />
		<tag k="ssr:stedsnr" v="1000908" />
		<tag k="ssr:type" v="adressenavn" />
	</node>
	<node id="-176036" lat="67.1491528306" lon="15.9503855011">
		<tag k="name" v="Melvatnan" />
		<tag k="ssr:date" v="2019-05-30" />
		<tag k="ssr:gruppe" v="veg" />
		<tag k="ssr:hovedgruppe" v="infrastruktur" />
		<tag k="ssr:stedsnr" v="1000906" />
		<tag k="ssr:type" v="adressenavn" />
	</node>
	<node id="-176035" lat="67.1032125395" lon="15.9146143297">
		<tag k="name" v="Lillyvatnet" />
		<tag k="ssr:date" v="2019-05-30" />
		<tag k="ssr:gruppe" v="veg" />
		<tag k="ssr:hovedgruppe" v="infrastruktur" />
		<tag k="ssr:stedsnr" v="1000905" />
		<tag k="ssr:type" v="adressenavn" />
	</node>
	<node id="-176034" lat="67.2920865294" lon="15.5154519026">
		<tag k="name" v="Lomtjønna" />
		<tag k="ssr:date" v="2019-05-30" />
		<tag k="ssr:gruppe" v="veg" />
		<tag k="ssr:hovedgruppe" v="infrastruktur" />
		<tag k="ssr:stedsnr" v="1000898" />
		<tag k="ssr:type" v="adressenavn" />
	</node>
	<node id="-176033" lat="67.0913064078" lon="16.0883049895">
		<tag k="name" v="Langtjønna" />
		<tag k="ssr:date" v="2019-05-30" />
		<tag k="ssr:gruppe" v="veg" />
		<tag k="ssr:hovedgruppe" v="infrastruktur" />
		<tag k="ssr:stedsnr" v="1000895" />
		<tag k="ssr:type" v="adressenavn" />
	</node>
	<node id="-176032" lat="67.1586386582" lon="15.855756019">
		<tag k="name" v="Littj-Tjårrisvatnet" />
		<tag k="ssr:date" v="2019-05-30" />
		<tag k="ssr:gruppe" v="veg" />
		<tag k="ssr:hovedgruppe" v="infrastruktur" />
		<tag k="ssr:stedsnr" v="1000894" />
		<tag k="ssr:type" v="adressenavn" />
	</node>
	<node id="-176031" lat="67.0600123273" lon="16.031568295">
		<tag k="name" v="Kulstadholmen" />
		<tag k="ssr:date" v="2019-05-30" />
		<tag k="ssr:gruppe" v="veg" />
		<tag k="ssr:hovedgruppe" v="infrastruktur" />
		<tag k="ssr:stedsnr" v="1000987" />
		<tag k="ssr:type" v="adressenavn" />
	</node>
	<node id="-176030" lat="67.4402395467" lon="15.3553122773">
		<tag k="name" v="Krubblihaugen" />
		<tag k="ssr:date" v="2019-05-30" />
		<tag k="ssr:gruppe" v="veg" />
		<tag k="ssr:hovedgruppe" v="infrastruktur" />
		<tag k="ssr:stedsnr" v="1000986" />
		<tag k="ssr:type" v="adressenavn" />
	</node>
	<node id="-176029" lat="67.1987259641" lon="15.4618238523">
		<tag k="name" v="Kvænflåget" />
		<tag k="ssr:date" v="2019-05-30" />
		<tag k="ssr:gruppe" v="veg" />
		<tag k="ssr:hovedgruppe" v="infrastruktur" />
		<tag k="ssr:stedsnr" v="1000981" />
		<tag k="ssr:type" v="adressenavn" />
	</node>
	<node id="-176028" lat="67.0714759283" lon="16.0377977016">
		<tag k="name" v="Langholmen" />
		<tag k="ssr:date" v="2019-05-30" />
		<tag k="ssr:gruppe" v="veg" />
		<tag k="ssr:hovedgruppe" v="infrastruktur" />
		<tag k="ssr:stedsnr" v="1000977" />
		<tag k="ssr:type" v="adressenavn" />
	</node>
	<node id="-176027" lat="67.2530546576" lon="15.5369452981">
		<tag k="name" v="Lusbakken" />
		<tag k="ssr:date" v="2019-05-30" />
		<tag k="ssr:gruppe" v="veg" />
		<tag k="ssr:hovedgruppe" v="infrastruktur" />
		<tag k="ssr:stedsnr" v="1000875" />
		<tag k="ssr:type" v="adressenavn" />
	</node>
	<node id="-174739" lat="67.2596249984" lon="15.3940944322">
		<tag k="name" v="Fauske kommune - Fuosko suohkan" />
		<tag k="name:no" v="Fauske kommune" />
		<tag k="name:smj" v="Fuosko suohkan" />
		<tag k="ssr:date" v="2017-11-13" />
		<tag k="ssr:gruppe" v="administrativeIndelinger" />
		<tag k="ssr:hovedgruppe" v="offentligAdministrasjon" />
		<tag k="ssr:stedsnr" v="936298" />
		<tag k="ssr:type" v="kommune" />
	</node>
	<node id="-175110" lat="67.2332500036" lon="15.2476361024">
		<tag k="name" v="Øynes" />
		<tag k="ssr:date" v="2016-05-10" />
		<tag k="ssr:gruppe" v="navigasjon" />
		<tag k="ssr:hovedgruppe" v="infrastruktur" />
		<tag k="ssr:stedsnr" v="144766" />
		<tag k="ssr:type" v="fyrlykt" />
	</node>
	<node id="-174827" lat="67.0535193915" lon="16.0519802148">
		<tag k="name" v="Tjálanisjávrre" />
		<tag k="ssr:date" v="2019-05-30" />
		<tag k="ssr:gruppe" v="veg" />
		<tag k="ssr:hovedgruppe" v="infrastruktur" />
		<tag k="ssr:stedsnr" v="1000951" />
>>>>>>> e1d4bc35ff8a6074a6f2e91616a996b547c36f15
		<tag k="ssr:type" v="adressenavn" />
	</node>
</osm>
