<?xml version="1.0" encoding="UTF-8"?>
<osm version="0.6" generator="osmapis">
	<node lat="59.488688887519224" lon="10.865505553897805" id="-28012">
		<tag k="alt_name" v="Våler" />
		<tag k="name" v="Våler kommune" />
		<tag k="ssr:date" v="2019-12-27" />
		<tag k="ssr:gruppe" v="administrativeIndelinger" />
		<tag k="ssr:hovedgruppe" v="offentligAdministrasjon" />
		<tag k="ssr:stedsnr" v="935059" />
		<tag k="ssr:type" v="kommune" />
	</node>
	<node lat="59.49185381648316" lon="10.87566650384418" id="-28329">
		<tag k="name" v="Stor Eli veien" />
		<tag k="ssr:date" v="2019-12-27" />
		<tag k="ssr:gruppe" v="veg" />
		<tag k="ssr:hovedgruppe" v="infrastruktur" />
		<tag k="ssr:stedsnr" v="1062440" />
		<tag k="ssr:type" v="adressenavn" />
	</node>
	<node lat="59.49389964683811" lon="10.878518078651547" id="-28330">
		<tag k="name" v="Sandåsveien" />
		<tag k="ssr:date" v="2019-12-27" />
		<tag k="ssr:gruppe" v="veg" />
		<tag k="ssr:hovedgruppe" v="infrastruktur" />
		<tag k="ssr:stedsnr" v="1062443" />
		<tag k="ssr:type" v="adressenavn" />
	</node>
	<node lat="59.490942782109144" lon="10.874202691013224" id="-28331">
		<tag k="name" v="Liveien" />
		<tag k="ssr:date" v="2019-12-27" />
		<tag k="ssr:gruppe" v="veg" />
		<tag k="ssr:hovedgruppe" v="infrastruktur" />
		<tag k="ssr:stedsnr" v="1062445" />
		<tag k="ssr:type" v="adressenavn" />
	</node>
	<node lat="59.4902331323092" lon="10.873654705306276" id="-28332">
		<tag k="name" v="Kråkåsveien" />
		<tag k="ssr:date" v="2019-12-27" />
		<tag k="ssr:gruppe" v="veg" />
		<tag k="ssr:hovedgruppe" v="infrastruktur" />
		<tag k="ssr:stedsnr" v="1062447" />
		<tag k="ssr:type" v="adressenavn" />
	</node>
	<node lat="59.426155731382266" lon="11.007152860522988" id="-28333">
		<tag k="name" v="Langliveien" />
		<tag k="ssr:date" v="2019-12-27" />
		<tag k="ssr:gruppe" v="veg" />
		<tag k="ssr:hovedgruppe" v="infrastruktur" />
		<tag k="ssr:stedsnr" v="1062450" />
		<tag k="ssr:type" v="adressenavn" />
	</node>
	<node lat="59.46102722002653" lon="10.805185635883412" id="-28335">
		<tag k="name" v="Tunveien" />
		<tag k="ssr:date" v="2019-12-27" />
		<tag k="ssr:gruppe" v="veg" />
		<tag k="ssr:hovedgruppe" v="infrastruktur" />
		<tag k="ssr:stedsnr" v="1062455" />
		<tag k="ssr:type" v="adressenavn" />
	</node>
	<node lat="59.45807570920989" lon="10.806654099848208" id="-28336">
		<tag k="name" v="Våkveien" />
		<tag k="ssr:date" v="2019-12-27" />
		<tag k="ssr:gruppe" v="veg" />
		<tag k="ssr:hovedgruppe" v="infrastruktur" />
		<tag k="ssr:stedsnr" v="1062458" />
		<tag k="ssr:type" v="adressenavn" />
	</node>
	<node lat="59.464103524438805" lon="10.801196275730032" id="-28337">
		<tag k="name" v="Damli" />
		<tag k="ssr:date" v="2019-12-27" />
		<tag k="ssr:gruppe" v="veg" />
		<tag k="ssr:hovedgruppe" v="infrastruktur" />
		<tag k="ssr:stedsnr" v="1062460" />
		<tag k="ssr:type" v="adressenavn" />
	</node>
	<node lat="59.46269216104142" lon="10.80411336533435" id="-28338">
		<tag k="name" v="Dammyråsen" />
		<tag k="ssr:date" v="2019-12-27" />
		<tag k="ssr:gruppe" v="veg" />
		<tag k="ssr:hovedgruppe" v="infrastruktur" />
		<tag k="ssr:stedsnr" v="1062463" />
		<tag k="ssr:type" v="adressenavn" />
	</node>
	<node lat="59.46136233435883" lon="10.807331012487303" id="-28339">
		<tag k="name" v="Dammyr" />
		<tag k="ssr:date" v="2019-12-27" />
		<tag k="ssr:gruppe" v="veg" />
		<tag k="ssr:hovedgruppe" v="infrastruktur" />
		<tag k="ssr:stedsnr" v="1062465" />
		<tag k="ssr:type" v="adressenavn" />
	</node>
	<node lat="59.489214873003" lon="10.873737414159875" id="-28341">
		<tag k="name" v="Brødrene Bergs vei" />
		<tag k="ssr:date" v="2019-12-27" />
		<tag k="ssr:gruppe" v="veg" />
		<tag k="ssr:hovedgruppe" v="infrastruktur" />
		<tag k="ssr:stedsnr" v="1062470" />
		<tag k="ssr:type" v="adressenavn" />
	</node>
	<node lat="59.460112667856954" lon="10.800934212416772" id="-28342">
		<tag k="name" v="Karl Toverudsvei" />
		<tag k="ssr:date" v="2019-12-27" />
		<tag k="ssr:gruppe" v="veg" />
		<tag k="ssr:hovedgruppe" v="infrastruktur" />
		<tag k="ssr:stedsnr" v="1062472" />
		<tag k="ssr:type" v="adressenavn" />
	</node>
	<node lat="59.46259707243757" lon="10.806469439885785" id="-28343">
		<tag k="name" v="Åkerveien" />
		<tag k="ssr:date" v="2019-12-27" />
		<tag k="ssr:gruppe" v="veg" />
		<tag k="ssr:hovedgruppe" v="infrastruktur" />
		<tag k="ssr:stedsnr" v="1062474" />
		<tag k="ssr:type" v="adressenavn" />
	</node>
	<node lat="59.46192959349571" lon="10.806905041230243" id="-28344">
		<tag k="name" v="Hesteskoen" />
		<tag k="ssr:date" v="2019-12-27" />
		<tag k="ssr:gruppe" v="veg" />
		<tag k="ssr:hovedgruppe" v="infrastruktur" />
		<tag k="ssr:stedsnr" v="1062478" />
		<tag k="ssr:type" v="adressenavn" />
	</node>
	<node lat="59.45962975602258" lon="10.793926661436965" id="-28346">
		<tag k="name" v="Texnesstubben" />
		<tag k="ssr:date" v="2019-12-27" />
		<tag k="ssr:gruppe" v="veg" />
		<tag k="ssr:hovedgruppe" v="infrastruktur" />
		<tag k="ssr:stedsnr" v="1062482" />
		<tag k="ssr:type" v="adressenavn" />
	</node>
	<node lat="59.45847622797723" lon="10.794683133471809" id="-28347">
		<tag k="name" v="Texnestoppen" />
		<tag k="ssr:date" v="2019-12-27" />
		<tag k="ssr:gruppe" v="veg" />
		<tag k="ssr:hovedgruppe" v="infrastruktur" />
		<tag k="ssr:stedsnr" v="1062485" />
		<tag k="ssr:type" v="adressenavn" />
	</node>
	<node lat="59.45749495845707" lon="10.795149104397293" id="-28414">
		<tag k="name" v="Kordahlveien" />
		<tag k="ssr:date" v="2019-12-27" />
		<tag k="ssr:gruppe" v="veg" />
		<tag k="ssr:hovedgruppe" v="infrastruktur" />
		<tag k="ssr:stedsnr" v="1062488" />
		<tag k="ssr:type" v="adressenavn" />
	</node>
	<node lat="59.45799985840245" lon="10.79494021375761" id="-28419">
		<tag k="name" v="Texnesåsen" />
		<tag k="ssr:date" v="2019-12-27" />
		<tag k="ssr:gruppe" v="veg" />
		<tag k="ssr:hovedgruppe" v="infrastruktur" />
		<tag k="ssr:stedsnr" v="1062504" />
		<tag k="ssr:type" v="adressenavn" />
	</node>
	<node lat="59.45749495845707" lon="10.795149104397293" id="-28420">
		<tag k="name" v="Texneslia" />
		<tag k="ssr:date" v="2019-12-27" />
		<tag k="ssr:gruppe" v="veg" />
		<tag k="ssr:hovedgruppe" v="infrastruktur" />
		<tag k="ssr:stedsnr" v="1062506" />
		<tag k="ssr:type" v="adressenavn" />
	</node>
	<node lat="59.45680933476975" lon="10.795528110794212" id="-28421">
		<tag k="name" v="Texnesbakken" />
		<tag k="ssr:date" v="2019-12-27" />
		<tag k="ssr:gruppe" v="veg" />
		<tag k="ssr:hovedgruppe" v="infrastruktur" />
		<tag k="ssr:stedsnr" v="1062509" />
		<tag k="ssr:type" v="adressenavn" />
	</node>
	<node lat="59.49215182969005" lon="10.84810308850295" id="-28444">
		<tag k="name" v="Midtveien" />
		<tag k="ssr:date" v="2019-12-27" />
		<tag k="ssr:gruppe" v="veg" />
		<tag k="ssr:hovedgruppe" v="infrastruktur" />
		<tag k="ssr:stedsnr" v="1062736" />
		<tag k="ssr:type" v="adressenavn" />
	</node>
	<node lat="59.49095399266616" lon="10.849539287035041" id="-28445">
		<tag k="name" v="Vestlia" />
		<tag k="ssr:date" v="2019-12-27" />
		<tag k="ssr:gruppe" v="veg" />
		<tag k="ssr:hovedgruppe" v="infrastruktur" />
		<tag k="ssr:stedsnr" v="1062739" />
		<tag k="ssr:type" v="adressenavn" />
	</node>
	<node lat="59.48835178291027" lon="10.848366009433057" id="-28447">
		<tag k="name" v="Vadbakken" />
		<tag k="ssr:date" v="2019-12-27" />
		<tag k="ssr:gruppe" v="veg" />
		<tag k="ssr:hovedgruppe" v="infrastruktur" />
		<tag k="ssr:stedsnr" v="1062746" />
		<tag k="ssr:type" v="adressenavn" />
	</node>
	<node lat="59.492162711959956" lon="10.849208582543914" id="-28448">
		<tag k="name" v="Klokkerstien" />
		<tag k="ssr:date" v="2019-12-27" />
		<tag k="ssr:gruppe" v="veg" />
		<tag k="ssr:hovedgruppe" v="infrastruktur" />
		<tag k="ssr:stedsnr" v="1062749" />
		<tag k="ssr:type" v="adressenavn" />
	</node>
	<node lat="59.491707148287254" lon="10.848143637060451" id="-28449">
		<tag k="name" v="Vestlistubben" />
		<tag k="ssr:date" v="2019-12-27" />
		<tag k="ssr:gruppe" v="veg" />
		<tag k="ssr:hovedgruppe" v="infrastruktur" />
		<tag k="ssr:stedsnr" v="1062752" />
		<tag k="ssr:type" v="adressenavn" />
	</node>
	<node lat="59.49127810751919" lon="10.851221521746375" id="-28451">
		<tag k="name" v="Åslia" />
		<tag k="ssr:date" v="2019-12-27" />
		<tag k="ssr:gruppe" v="veg" />
		<tag k="ssr:hovedgruppe" v="infrastruktur" />
		<tag k="ssr:stedsnr" v="1062760" />
		<tag k="ssr:type" v="adressenavn" />
	</node>
	<node lat="59.430740519699775" lon="11.00191611803065" id="-28467">
		<tag k="name" v="Stuttingen" />
		<tag k="ssr:date" v="2019-12-27" />
		<tag k="ssr:gruppe" v="veg" />
		<tag k="ssr:hovedgruppe" v="infrastruktur" />
		<tag k="ssr:stedsnr" v="1062713" />
		<tag k="ssr:type" v="adressenavn" />
	</node>
	<node lat="59.430740519699775" lon="11.00191611803065" id="-28468">
		<tag k="name" v="Sledeveien" />
		<tag k="ssr:date" v="2019-12-27" />
		<tag k="ssr:gruppe" v="veg" />
		<tag k="ssr:hovedgruppe" v="infrastruktur" />
		<tag k="ssr:stedsnr" v="1062717" />
		<tag k="ssr:type" v="adressenavn" />
	</node>
	<node lat="59.43224708387238" lon="11.00190757908439" id="-28469">
		<tag k="name" v="Lunneveien" />
		<tag k="ssr:date" v="2019-12-27" />
		<tag k="ssr:gruppe" v="veg" />
		<tag k="ssr:hovedgruppe" v="infrastruktur" />
		<tag k="ssr:stedsnr" v="1062720" />
		<tag k="ssr:type" v="adressenavn" />
	</node>
	<node lat="59.41960980578966" lon="11.012033409759171" id="-28473">
		<tag k="name" v="Hjulstadåsen" />
		<tag k="ssr:date" v="2019-12-27" />
		<tag k="ssr:gruppe" v="veg" />
		<tag k="ssr:hovedgruppe" v="infrastruktur" />
		<tag k="ssr:stedsnr" v="1062763" />
		<tag k="ssr:type" v="adressenavn" />
	</node>
	<node lat="59.423580778233706" lon="11.016675168278415" id="-28474">
		<tag k="name" v="Fjellveien" />
		<tag k="ssr:date" v="2019-12-27" />
		<tag k="ssr:gruppe" v="veg" />
		<tag k="ssr:hovedgruppe" v="infrastruktur" />
		<tag k="ssr:stedsnr" v="1062767" />
		<tag k="ssr:type" v="adressenavn" />
	</node>
	<node lat="59.42386797215597" lon="11.01148243759806" id="-28475">
		<tag k="name" v="Lyngveien" />
		<tag k="ssr:date" v="2019-12-27" />
		<tag k="ssr:gruppe" v="veg" />
		<tag k="ssr:hovedgruppe" v="infrastruktur" />
		<tag k="ssr:stedsnr" v="1062770" />
		<tag k="ssr:type" v="adressenavn" />
	</node>
	<node lat="59.42358053453584" lon="11.01266665258856" id="-28476">
		<tag k="name" v="Gunnerødveien" />
		<tag k="ssr:date" v="2019-12-27" />
		<tag k="ssr:gruppe" v="veg" />
		<tag k="ssr:hovedgruppe" v="infrastruktur" />
		<tag k="ssr:stedsnr" v="1062772" />
		<tag k="ssr:type" v="adressenavn" />
	</node>
	<node lat="59.430250127168655" lon="11.004689913828413" id="-28477">
		<tag k="name" v="Elvebakken" />
		<tag k="ssr:date" v="2019-12-27" />
		<tag k="ssr:gruppe" v="veg" />
		<tag k="ssr:hovedgruppe" v="infrastruktur" />
		<tag k="ssr:stedsnr" v="1062774" />
		<tag k="ssr:type" v="adressenavn" />
	</node>
	<node lat="59.43054294046257" lon="11.016494683895056" id="-28478">
		<tag k="name" v="Fosseveien" />
		<tag k="ssr:date" v="2019-12-27" />
		<tag k="ssr:gruppe" v="veg" />
		<tag k="ssr:hovedgruppe" v="infrastruktur" />
		<tag k="ssr:stedsnr" v="1062777" />
		<tag k="ssr:type" v="adressenavn" />
	</node>
	<node lat="59.421306550563344" lon="11.013481339745955" id="-28479">
		<tag k="name" v="Tyritoppen" />
		<tag k="ssr:date" v="2019-12-27" />
		<tag k="ssr:gruppe" v="veg" />
		<tag k="ssr:hovedgruppe" v="infrastruktur" />
		<tag k="ssr:stedsnr" v="1062781" />
		<tag k="ssr:type" v="adressenavn" />
	</node>
	<node lat="59.49339620924516" lon="10.84598287630306" id="-28483">
		<tag k="name" v="Torsnesveien" />
		<tag k="ssr:date" v="2020-09-15" />
		<tag k="ssr:gruppe" v="veg" />
		<tag k="ssr:hovedgruppe" v="infrastruktur" />
		<tag k="ssr:stedsnr" v="1078275" />
		<tag k="ssr:type" v="adressenavn" />
	</node>
</osm>
