<?xml version="1.0" encoding="UTF-8"?>
<osm generator="osmapis" version="0.6">
	<node id="-223232" lat="59.0290611143" lon="11.0379222168">
		<tag k="fixme" v="consider natural=peak for the most distinct mountains in the district" />
		<tag k="name" v="Kristinelundfjellet" />
		<tag k="natural" v="hill" />
		<tag k="place" v="locality" />
		<tag k="ssr:stedsnr" v="600108" />
	</node>
	<node id="-222207" lat="58.9842583305" lon="10.956544444">
		<tag k="name" v="Slottsfjellet" />
		<tag k="natural" v="hill" />
		<tag k="place" v="locality" />
		<tag k="ssr:stedsnr" v="296075" />
	</node>
	<node id="-222205" lat="59.0980638893" lon="11.1266472164">
		<tag k="name" v="Presten" />
		<tag k="natural" v="hill" />
		<tag k="place" v="locality" />
		<tag k="ssr:stedsnr" v="204363" />
	</node>
	<node id="-223223" lat="59.0986166701" lon="10.8951694483">
		<tag k="fixme" v="consider natural=peak for the most distinct mountains in the district" />
		<tag k="name" v="Bankerødkollen" />
		<tag k="natural" v="hill" />
		<tag k="place" v="locality" />
		<tag k="ssr:stedsnr" v="599636" />
	</node>
	<node id="-222182" lat="59.0559250019" lon="11.0645861135">
		<tag k="fixme" v="consider natural=peak for the most distinct mountains in the district" />
		<tag k="name" v="Konnefjell" />
		<tag k="natural" v="hill" />
		<tag k="place" v="locality" />
		<tag k="ssr:stedsnr" v="265386" />
	</node>
	<node id="-223313" lat="59.0551111131" lon="11.0046555593">
		<tag k="name" v="Reveklova" />
		<tag k="natural" v="valley" />
		<tag k="place" v="locality" />
		<tag k="ssr:stedsnr" v="782856" />
	</node>
	<node id="-223204" lat="59.0416245495" lon="11.0538866511">
		<tag k="fixme" v="multiple name tags, choose one and add the other to alt_name; consider natural=peak for the most distinct mountains in the district" />
		<tag k="name" v="Nesberget;Ursås" />
		<tag k="natural" v="hill" />
		<tag k="place" v="locality" />
		<tag k="ssr:stedsnr" v="548613" />
	</node>
	<node id="-222687" lat="59.049913885" lon="10.9910333336">
		<tag k="fixme" v="consider natural=peak for the most distinct mountains in the district" />
		<tag k="name" v="Kloberget" />
		<tag k="natural" v="hill" />
		<tag k="place" v="locality" />
		<tag k="ssr:stedsnr" v="851584" />
	</node>
	<node id="-223198" lat="59.0945988149" lon="10.8880985733">
		<tag k="fixme" v="multiple name tags, choose one and add the other to alt_name; consider natural=peak for the most distinct mountains in the district" />
		<tag k="name" v="Deleberget;Utgårdsfjellet" />
		<tag k="natural" v="hill" />
		<tag k="place" v="locality" />
		<tag k="ssr:stedsnr" v="548548" />
	</node>
	<node id="-222675" lat="59.0941250037" lon="10.8939250048">
		<tag k="name" v="Harebakkskogen" />
		<tag k="natural" v="valley" />
		<tag k="place" v="locality" />
		<tag k="ssr:stedsnr" v="843633" />
	</node>
	<node id="-222673" lat="59.0431666656" lon="11.0171750059">
		<tag k="name" v="Svanekilneset" />
		<tag k="natural" v="hill" />
		<tag k="place" v="locality" />
		<tag k="ssr:stedsnr" v="843603" />
	</node>
	<node id="-223183" lat="59.0687916656" lon="10.9558388933">
		<tag k="alt_name" v="Lubbefjell" />
		<tag k="fixme" v="consider natural=peak for the most distinct mountains in the district" />
		<tag k="name" v="Lubbeberget" />
		<tag k="natural" v="hill" />
		<tag k="place" v="locality" />
		<tag k="ssr:stedsnr" v="547546" />
	</node>
	<node id="-223177" lat="59.0536527756" lon="11.052491673">
		<tag k="name" v="Rakkerbakkene" />
		<tag k="natural" v="slope" />
		<tag k="place" v="locality" />
		<tag k="ssr:stedsnr" v="540878" />
	</node>
	<node id="-222659" lat="59.0925472251" lon="10.9016777745">
		<tag k="alt_name" v="Veten;Skjælsbuveten" />
		<tag k="fixme" v="consider natural=peak for the most distinct mountains in the district" />
		<tag k="name" v="Skjelsbuveten" />
		<tag k="natural" v="hill" />
		<tag k="place" v="locality" />
		<tag k="ssr:stedsnr" v="790560" />
	</node>
	<node id="-222135" lat="59.0601277776" lon="10.9484583387">
		<tag k="name" v="Dordiklova" />
		<tag k="natural" v="valley" />
		<tag k="place" v="locality" />
		<tag k="ssr:stedsnr" v="54912" />
	</node>
	<node id="-223157" lat="59.0760638883" lon="10.8720972152">
		<tag k="name" v="Metebratta" />
		<tag k="place" v="locality" />
		<tag k="ssr:stedsnr" v="539596" />
	</node>
	<node id="-222644" lat="59.0477027767" lon="10.8827749975">
		<tag k="fixme" v="consider natural=peak for the most distinct mountains in the district" />
		<tag k="name" v="Reduten" />
		<tag k="natural" v="hill" />
		<tag k="place" v="locality" />
		<tag k="ssr:stedsnr" v="912630" />
	</node>
	<node id="-223155" lat="59.0386944408" lon="10.9926500039">
		<tag k="fixme" v="consider natural=peak for the most distinct mountains in the district" />
		<tag k="name" v="Storefjell" />
		<tag k="natural" v="hill" />
		<tag k="place" v="locality" />
		<tag k="ssr:stedsnr" v="539577" />
	</node>
	<node id="-223154" lat="59.0758250008" lon="10.8543055507">
		<tag k="fixme" v="consider natural=peak for the most distinct mountains in the district" />
		<tag k="name" v="Ørnekollen" />
		<tag k="natural" v="hill" />
		<tag k="place" v="locality" />
		<tag k="ssr:stedsnr" v="539572" />
	</node>
	<node id="-223148" lat="58.9810638923" lon="10.9604861093">
		<tag k="name" v="Ørnekollen" />
		<tag k="natural" v="hill" />
		<tag k="place" v="locality" />
		<tag k="ssr:stedsnr" v="539070" />
	</node>
	<node id="-222122" lat="59.0846583355" lon="10.9183972192">
		<tag k="name" v="Linddalen" />
		<tag k="natural" v="valley" />
		<tag k="place" v="locality" />
		<tag k="ssr:stedsnr" v="236982" />
	</node>
	<node id="-222633" lat="59.0377340705" lon="10.9422510642">
		<tag k="fixme" v="multiple name tags, choose one and add the other to alt_name; consider natural=peak for the most distinct mountains in the district" />
		<tag k="name" v="Varden;Vikervarden" />
		<tag k="natural" v="hill" />
		<tag k="place" v="locality" />
		<tag k="ssr:stedsnr" v="912327" />
	</node>
	<node id="-222614" lat="59.0754305519" lon="10.9918472206">
		<tag k="name" v="Furusnaret" />
		<tag k="natural" v="valley" />
		<tag k="place" v="locality" />
		<tag k="ssr:stedsnr" v="904930" />
	</node>
	<node id="-222612" lat="59.0766777776" lon="10.8637388931">
		<tag k="name" v="Tohella" />
		<tag k="place" v="locality" />
		<tag k="ssr:stedsnr" v="904571" />
	</node>
	<node id="-222099" lat="59.0803722223" lon="10.9928666708">
		<tag k="fixme" v="consider natural=peak for the most distinct mountains in the district" />
		<tag k="name" v="Ørnefjell" />
		<tag k="natural" v="hill" />
		<tag k="place" v="locality" />
		<tag k="ssr:stedsnr" v="236384" />
	</node>
	<node id="-222096" lat="59.0357416677" lon="11.0295500084">
		<tag k="fixme" v="consider natural=peak for the most distinct mountains in the district" />
		<tag k="name" v="Kirkeås" />
		<tag k="natural" v="hill" />
		<tag k="place" v="locality" />
		<tag k="ssr:stedsnr" v="236091" />
	</node>
	<node id="-223116" lat="59.083708336" lon="10.9212777747">
		<tag k="fixme" v="consider natural=peak for the most distinct mountains in the district" />
		<tag k="name" v="Kvislervarden" />
		<tag k="natural" v="hill" />
		<tag k="place" v="locality" />
		<tag k="ssr:stedsnr" v="418977" />
	</node>
	<node id="-222089" lat="59.1202361113" lon="10.9064083284">
		<tag k="name" v="Økbergskjæra" />
		<tag k="natural" v="hill" />
		<tag k="place" v="locality" />
		<tag k="ssr:stedsnr" v="236045" />
	</node>
	<node id="-223110" lat="59.0806111147" lon="10.9393222271">
		<tag k="fixme" v="consider natural=peak for the most distinct mountains in the district" />
		<tag k="name" v="Ulafjellet" />
		<tag k="natural" v="hill" />
		<tag k="place" v="locality" />
		<tag k="ssr:stedsnr" v="418890" />
	</node>
	<node id="-222597" lat="59.0994472192" lon="10.8407000015">
		<tag k="alt_name" v="Storsfjellet" />
		<tag k="fixme" v="consider natural=peak for the most distinct mountains in the district" />
		<tag k="name" v="Stolsfjellet" />
		<tag k="natural" v="hill" />
		<tag k="old_name" v="Stolsberget;Stoelsbjerget" />
		<tag k="place" v="locality" />
		<tag k="ssr:stedsnr" v="730754" />
	</node>
	<node id="-222084" lat="59.0416083375" lon="11.0587305566">
		<tag k="name" v="Langeland" />
		<tag k="natural" v="slope" />
		<tag k="place" v="locality" />
		<tag k="ssr:stedsnr" v="23415" />
	</node>
	<node id="-222595" lat="59.067630553" lon="11.0399277791">
		<tag k="name" v="Mathiasholmen" />
		<tag k="natural" v="hill" />
		<tag k="place" v="locality" />
		<tag k="ssr:stedsnr" v="722420" />
	</node>
	<node id="-222594" lat="59.0686444431" lon="11.0423777697">
		<tag k="name" v="Hanseklova" />
		<tag k="natural" v="valley" />
		<tag k="place" v="locality" />
		<tag k="ssr:stedsnr" v="722419" />
	</node>
	<node id="-222591" lat="59.0856972257" lon="11.0028805516">
		<tag k="fixme" v="consider natural=peak for the most distinct mountains in the district" />
		<tag k="name" v="Furuholmberget" />
		<tag k="natural" v="hill" />
		<tag k="place" v="locality" />
		<tag k="ssr:stedsnr" v="722388" />
	</node>
	<node id="-222590" lat="59.0906527762" lon="11.0401250048">
		<tag k="name" v="Vinterstødalen" />
		<tag k="natural" v="valley" />
		<tag k="place" v="locality" />
		<tag k="ssr:stedsnr" v="722027" />
	</node>
	<node id="-222574" lat="59.0728222248" lon="10.9132527744">
		<tag k="fixme" v="consider natural=peak for the most distinct mountains in the district" />
		<tag k="name" v="Ødegårdsfjellet" />
		<tag k="natural" v="hill" />
		<tag k="place" v="locality" />
		<tag k="ssr:stedsnr" v="660294" />
	</node>
	<node id="-222570" lat="59.0212222213" lon="11.0319694494">
		<tag k="loc_name" v="Ommen" />
		<tag k="name" v="Ovnen" />
		<tag k="natural" v="cave_entrance" />
		<tag k="ssr:stedsnr" v="659277" />
	</node>
	<node id="-222569" lat="59.0211777739" lon="11.0308166719">
		<tag k="fixme" v="consider natural=peak for the most distinct mountains in the district" />
		<tag k="loc_name" v="Wieleberget" />
		<tag k="name" v="Hvileberget" />
		<tag k="natural" v="hill" />
		<tag k="place" v="locality" />
		<tag k="ssr:stedsnr" v="659274" />
	</node>
	<node id="-223368" lat="59.0664166704" lon="10.9018027766">
		<tag k="fixme" v="consider natural=peak for the most distinct mountains in the district" />
		<tag k="name" v="Spjærevarden" />
		<tag k="natural" v="hill" />
		<tag k="place" v="locality" />
		<tag k="ssr:stedsnr" v="843278" />
	</node>
	<node id="-222544" lat="59.0923777812" lon="10.8500472284">
		<tag k="fixme" v="consider natural=peak for the most distinct mountains in the district" />
		<tag k="name" v="Varden" />
		<tag k="natural" v="hill" />
		<tag k="place" v="locality" />
		<tag k="ssr:stedsnr" v="729531" />
	</node>
	<node id="-223050" lat="59.0666555561" lon="10.9432111024">
		<tag k="fixme" v="consider natural=peak for the most distinct mountains in the district" />
		<tag k="name" v="Fotvarden" />
		<tag k="natural" v="hill" />
		<tag k="place" v="locality" />
		<tag k="ssr:stedsnr" v="365514" />
	</node>
	<node id="-222531" lat="59.0599666647" lon="11.0169916646">
		<tag k="fixme" v="consider natural=peak for the most distinct mountains in the district" />
		<tag k="name" v="Buråsen" />
		<tag k="natural" v="hill" />
		<tag k="place" v="locality" />
		<tag k="ssr:stedsnr" v="722832" />
	</node>
	<node id="-222529" lat="59.1113861149" lon="10.8683111124">
		<tag k="loc_name" v="Tjuvedalen" />
		<tag k="name" v="Tjuedalen" />
		<tag k="natural" v="valley" />
		<tag k="place" v="locality" />
		<tag k="ssr:stedsnr" v="722736" />
	</node>
	<node id="-223038" lat="59.0890194411" lon="10.8687527693">
		<tag k="name" v="Harestokken" />
		<tag k="natural" v="valley" />
		<tag k="place" v="locality" />
		<tag k="ssr:stedsnr" v="357883" />
	</node>
	<node id="-222525" lat="59.1063694431" lon="10.8846638831">
		<tag k="name" v="Nesklova" />
		<tag k="natural" v="valley" />
		<tag k="place" v="locality" />
		<tag k="ssr:stedsnr" v="722699" />
	</node>
	<node id="-222521" lat="59.0072583368" lon="11.005738886">
		<tag k="name" v="Djupe klove" />
		<tag k="natural" v="valley" />
		<tag k="place" v="locality" />
		<tag k="ssr:stedsnr" v="721908" />
	</node>
	<node id="-222519" lat="59.0901638881" lon="10.8616777696">
		<tag k="name" v="Pigges hule" />
		<tag k="natural" v="valley" />
		<tag k="place" v="locality" />
		<tag k="ssr:stedsnr" v="721897" />
	</node>
	<node id="-223029" lat="59.0661333366" lon="11.0328249989">
		<tag k="name" v="Leret" />
		<tag k="place" v="locality" />
		<tag k="ssr:stedsnr" v="357475" />
	</node>
	<node id="-223023" lat="58.9798333301" lon="10.9588333295">
		<tag k="name" v="Signalberget" />
		<tag k="natural" v="hill" />
		<tag k="place" v="locality" />
		<tag k="ssr:stedsnr" v="357091" />
	</node>
	<node id="-222510" lat="59.0767333368" lon="10.9094749942">
		<tag k="name" v="Ramsen" />
		<tag k="natural" v="valley" />
		<tag k="place" v="locality" />
		<tag k="ssr:stedsnr" v="721270" />
	</node>
	<node id="-223014" lat="59.1038888932" lon="11.1290055617">
		<tag k="fixme" v="consider natural=peak for the most distinct mountains in the district" />
		<tag k="name" v="Løvberget" />
		<tag k="natural" v="hill" />
		<tag k="place" v="locality" />
		<tag k="ssr:stedsnr" v="326428" />
	</node>
	<node id="-223109" lat="59.0947361094" lon="10.8848305477">
		<tag k="fixme" v="consider natural=peak for the most distinct mountains in the district" />
		<tag k="name" v="Ørnefjell" />
		<tag k="natural" v="hill" />
		<tag k="place" v="locality" />
		<tag k="ssr:stedsnr" v="418871" />
	</node>
	<node id="-223000" lat="59.0227722205" lon="11.1115361037">
		<tag k="name" v="Fleskeberget" />
		<tag k="natural" v="hill" />
		<tag k="place" v="locality" />
		<tag k="ssr:stedsnr" v="325329" />
	</node>
	<node id="-222996" lat="59.0310472206" lon="11.097672221">
		<tag k="fixme" v="consider natural=peak for the most distinct mountains in the district" />
		<tag k="name" v="Signalen" />
		<tag k="natural" v="hill" />
		<tag k="place" v="locality" />
		<tag k="ssr:stedsnr" v="325312" />
	</node>
	<node id="-222479" lat="59.0698944437" lon="11.0405861116">
		<tag k="name" v="Bestefarholmen" />
		<tag k="natural" v="hill" />
		<tag k="place" v="locality" />
		<tag k="ssr:stedsnr" v="540428" />
	</node>
	<node id="-222464" lat="59.0090888927" lon="11.0778805558">
		<tag k="fixme" v="consider natural=peak for the most distinct mountains in the district" />
		<tag k="name" v="Dalfjell" />
		<tag k="natural" v="hill" />
		<tag k="place" v="locality" />
		<tag k="ssr:stedsnr" v="507305" />
	</node>
	<node id="-222463" lat="59.0702305525" lon="10.9969194465">
		<tag k="fixme" v="consider natural=peak for the most distinct mountains in the district" />
		<tag k="name" v="Orebuktskollen" />
		<tag k="natural" v="hill" />
		<tag k="place" v="locality" />
		<tag k="ssr:stedsnr" v="673938" />
	</node>
	<node id="-222453" lat="59.079877774" lon="10.8642777713">
		<tag k="name" v="Tokollen" />
		<tag k="natural" v="hill" />
		<tag k="place" v="locality" />
		<tag k="ssr:stedsnr" v="479819" />
	</node>
	<node id="-222443" lat="59.0774194449" lon="10.8683666657">
		<tag k="name" v="Otergjelet" />
		<tag k="natural" v="valley" />
		<tag k="place" v="locality" />
		<tag k="ssr:stedsnr" v="478613" />
	</node>
	<node id="-223453" lat="59.0748777748" lon="10.9213750024">
		<tag k="name" v="Grønnet" />
		<tag k="natural" v="valley" />
		<tag k="place" v="locality" />
		<tag k="ssr:stedsnr" v="967886" />
	</node>
	<node id="-223447" lat="59.0986555544" lon="10.8546805573">
		<tag k="fixme" v="consider natural=peak for the most distinct mountains in the district" />
		<tag k="name" v="Ramsvikberget" />
		<tag k="natural" v="hill" />
		<tag k="place" v="locality" />
		<tag k="ssr:stedsnr" v="964877" />
	</node>
	<node id="-222422" lat="58.9908694491" lon="11.0495888827">
		<tag k="alt_name" v="Lingkreppen" />
		<tag k="fixme" v="consider natural=peak for the most distinct mountains in the district" />
		<tag k="name" v="Linnekleppen" />
		<tag k="natural" v="hill" />
		<tag k="place" v="locality" />
		<tag k="ssr:stedsnr" v="668778" />
	</node>
	<node id="-222932" lat="59.0823833334" lon="11.0294583357">
		<tag k="name" v="Redalen" />
		<tag k="natural" v="valley" />
		<tag k="place" v="locality" />
		<tag k="ssr:stedsnr" v="176001" />
	</node>
	<node id="-222927" lat="59.0951222253" lon="10.8579305643">
		<tag k="fixme" v="consider natural=peak for the most distinct mountains in the district" />
		<tag k="name" v="Bingeberget" />
		<tag k="natural" v="hill" />
		<tag k="place" v="locality" />
		<tag k="ssr:stedsnr" v="175906" />
	</node>
	<node id="-222412" lat="59.0616666633" lon="11.0053361127">
		<tag k="name" v="Bølingshavnfjellet" />
		<tag k="natural" v="hill" />
		<tag k="place" v="locality" />
		<tag k="ssr:stedsnr" v="661801" />
	</node>
	<node id="-223435" lat="59.098319446" lon="10.8327000049">
		<tag k="name" v="Stolsberget" />
		<tag k="natural" v="ridge" />
		<tag k="old_name" v="Stoelsbjerget" />
		<tag k="place" v="locality" />
		<tag k="ssr:stedsnr" v="964578" />
	</node>
	<node id="-222408" lat="59.0651166676" lon="11.0266944384">
		<tag k="name" v="Jonskas" />
		<tag k="natural" v="valley" />
		<tag k="place" v="locality" />
		<tag k="ssr:stedsnr" v="661459" />
	</node>
	<node id="-223436" lat="59.0442555582" lon="11.0077888849">
		<tag k="name" v="Revelia" />
		<tag k="natural" v="slope" />
		<tag k="place" v="locality" />
		<tag k="ssr:stedsnr" v="964582" />
	</node>
	<node id="-223430" lat="59.0742444445" lon="11.0213888824">
		<tag k="fixme" v="consider natural=peak for the most distinct mountains in the district" />
		<tag k="name" v="Røsseberget" />
		<tag k="natural" v="hill" />
		<tag k="place" v="locality" />
		<tag k="ssr:stedsnr" v="964476" />
	</node>
	<node id="-223429" lat="59.073033329" lon="11.0132916605">
		<tag k="fixme" v="consider natural=peak for the most distinct mountains in the district" />
		<tag k="name" v="Reffsberga" />
		<tag k="natural" v="hill" />
		<tag k="place" v="locality" />
		<tag k="ssr:stedsnr" v="964469" />
	</node>
	<node id="-223428" lat="59.0386833345" lon="10.9881694413">
		<tag k="loc_name" v="Tjueberget" />
		<tag k="name" v="Tjuveberget" />
		<tag k="natural" v="hill" />
		<tag k="place" v="locality" />
		<tag k="ssr:stedsnr" v="964571" />
	</node>
	<node id="-222399" lat="59.0522805538" lon="11.0081361122">
		<tag k="fixme" v="consider natural=peak for the most distinct mountains in the district" />
		<tag k="name" v="Stakalifjellet" />
		<tag k="natural" v="hill" />
		<tag k="place" v="locality" />
		<tag k="ssr:stedsnr" v="661085" />
	</node>
	<node id="-222910" lat="59.0244444416" lon="11.0367416613">
		<tag k="name" v="Kollen" />
		<tag k="natural" v="hill" />
		<tag k="place" v="locality" />
		<tag k="ssr:stedsnr" v="175089" />
	</node>
	<node id="-222395" lat="59.0995472258" lon="10.8855305497">
		<tag k="fixme" v="consider natural=peak for the most distinct mountains in the district" />
		<tag k="name" v="Ilemyrkollen" />
		<tag k="natural" v="hill" />
		<tag k="place" v="locality" />
		<tag k="ssr:stedsnr" v="660634" />
	</node>
	<node id="-223415" lat="59.0175666623" lon="11.0887861032">
		<tag k="fixme" v="consider natural=peak for the most distinct mountains in the district" />
		<tag k="name" v="Utsikten" />
		<tag k="natural" v="hill" />
		<tag k="place" v="locality" />
		<tag k="ssr:stedsnr" v="872346" />
	</node>
	<node id="-222388" lat="59.0626611126" lon="10.9357638881">
		<tag k="fixme" v="consider natural=peak for the most distinct mountains in the district" />
		<tag k="name" v="Storskausberg" />
		<tag k="natural" v="hill" />
		<tag k="place" v="locality" />
		<tag k="ssr:stedsnr" v="660686" />
	</node>
	<node id="-222382" lat="59.054094442" lon="10.9241027743">
		<tag k="name" v="Skjellvik" />
		<tag k="natural" v="valley" />
		<tag k="place" v="locality" />
		<tag k="ssr:stedsnr" v="660045" />
	</node>
	<node id="-222376" lat="59.0835611132" lon="11.005233341">
		<tag k="fixme" v="consider natural=peak for the most distinct mountains in the district" />
		<tag k="name" v="Rebekkberget" />
		<tag k="natural" v="hill" />
		<tag k="place" v="locality" />
		<tag k="ssr:stedsnr" v="419032" />
	</node>
	<node id="-222375" lat="59.0876777785" lon="11.0367027727">
		<tag k="fixme" v="consider natural=peak for the most distinct mountains in the district" />
		<tag k="name" v="Ulafjellet" />
		<tag k="natural" v="hill" />
		<tag k="place" v="locality" />
		<tag k="ssr:stedsnr" v="419027" />
	</node>
	<node id="-222371" lat="59.0804805529" lon="10.8624083305">
		<tag k="name" v="Tomyr" />
		<tag k="place" v="locality" />
		<tag k="ssr:stedsnr" v="418816" />
	</node>
	<node id="-222872" lat="59.1073611124" lon="10.8469777835">
		<tag k="fixme" v="consider natural=peak for the most distinct mountains in the district" />
		<tag k="name" v="Hvalene" />
		<tag k="natural" v="hill" />
		<tag k="place" v="locality" />
		<tag k="ssr:stedsnr" v="122706" />
	</node>
	<node id="-222356" lat="59.0448722228" lon="11.0543166587">
		<tag k="fixme" v="consider natural=peak for the most distinct mountains in the district" />
		<tag k="name" v="Sofiaberget" />
		<tag k="natural" v="hill" />
		<tag k="place" v="locality" />
		<tag k="ssr:stedsnr" v="507344" />
	</node>
	<node id="-222866" lat="59.064650002" lon="11.0781749986">
		<tag k="fixme" v="consider natural=peak for the most distinct mountains in the district" />
		<tag k="name" v="Vakthusberget" />
		<tag k="natural" v="hill" />
		<tag k="place" v="locality" />
		<tag k="ssr:stedsnr" v="122505" />
	</node>
	<node id="-223373" lat="59.0844416711" lon="10.8622916649">
		<tag k="name" v="Barlinddalen" />
		<tag k="natural" v="valley" />
		<tag k="place" v="locality" />
		<tag k="ssr:stedsnr" v="843834" />
	</node>
	<node id="-222859" lat="59.0131222182" lon="11.0127666702">
		<tag k="name" v="Ormeklova" />
		<tag k="natural" v="valley" />
		<tag k="place" v="locality" />
		<tag k="ssr:stedsnr" v="115946" />
	</node>
	<node id="-222856" lat="59.0642833296" lon="10.9811361106">
		<tag k="name" v="Torneklova" />
		<tag k="natural" v="valley" />
		<tag k="place" v="locality" />
		<tag k="ssr:stedsnr" v="115897" />
	</node>
	<node id="-222854" lat="59.0880777771" lon="10.8543722201">
		<tag k="fixme" v="consider natural=peak for the most distinct mountains in the district" />
		<tag k="name" v="Dyrefjell" />
		<tag k="natural" v="hill" />
		<tag k="place" v="locality" />
		<tag k="ssr:stedsnr" v="115886" />
	</node>
	<node id="-222853" lat="59.0951444421" lon="10.8769249936">
		<tag k="fixme" v="consider natural=peak for the most distinct mountains in the district" />
		<tag k="name" v="Stangeberget" />
		<tag k="natural" v="hill" />
		<tag k="place" v="locality" />
		<tag k="ssr:stedsnr" v="115876" />
	</node>
	<node id="-223364" lat="59.0314972178" lon="11.0166638922">
		<tag k="name" v="Gråterfjellet" />
		<tag k="natural" v="hill" />
		<tag k="place" v="locality" />
		<tag k="ssr:stedsnr" v="843084" />
	</node>
	<node id="-222337" lat="59.0400500043" lon="10.9916111052">
		<tag k="name" v="Ravneklova" />
		<tag k="natural" v="cave_entrance" />
		<tag k="ssr:stedsnr" v="489619" />
	</node>
	<node id="-223358" lat="59.0366277795" lon="11.0977694497">
		<tag k="fixme" v="consider natural=peak for the most distinct mountains in the district" />
		<tag k="name" v="Lintønnfjell" />
		<tag k="natural" v="hill" />
		<tag k="place" v="locality" />
		<tag k="ssr:stedsnr" v="812393" />
	</node>
	<node id="-223355" lat="59.0420083355" lon="11.0539749953">
		<tag k="fixme" v="consider natural=peak for the most distinct mountains in the district" />
		<tag k="name" v="Ursås" />
		<tag k="natural" v="hill" />
		<tag k="place" v="locality" />
		<tag k="ssr:stedsnr" v="812365" />
	</node>
	<node id="-223347" lat="59.068666664" lon="11.0576333322">
		<tag k="name" v="Rekkdalen" />
		<tag k="natural" v="valley" />
		<tag k="place" v="locality" />
		<tag k="ssr:stedsnr" v="811332" />
	</node>
	<node id="-222826" lat="59.0979277779" lon="10.9170250022">
		<tag k="name" v="Kattestupet" />
		<tag k="natural" v="cliff" />
		<tag k="ssr:stedsnr" v="114557" />
	</node>
	<node id="-222822" lat="59.0405694457" lon="11.1001416646">
		<tag k="fixme" v="consider natural=peak for the most distinct mountains in the district" />
		<tag k="name" v="Høytomsvarden" />
		<tag k="natural" v="hill" />
		<tag k="place" v="locality" />
		<tag k="ssr:stedsnr" v="84374" />
	</node>
	<node id="-223332" lat="59.1142499964" lon="10.866250008">
		<tag k="fixme" v="consider natural=peak for the most distinct mountains in the district" />
		<tag k="name" v="Pappertoppen" />
		<tag k="natural" v="hill" />
		<tag k="place" v="locality" />
		<tag k="ssr:stedsnr" v="790721" />
	</node>
	<node id="-223331" lat="59.0674472245" lon="11.0624666672">
		<tag k="fixme" v="consider natural=peak for the most distinct mountains in the district" />
		<tag k="name" v="Bjetarberget" />
		<tag k="natural" v="hill" />
		<tag k="place" v="locality" />
		<tag k="ssr:stedsnr" v="790550" />
	</node>
	<node id="-222816" lat="59.005577774" lon="11.0859888924">
		<tag k="name" v="Oterklova" />
		<tag k="natural" v="valley" />
		<tag k="place" v="locality" />
		<tag k="ssr:stedsnr" v="83341" />
	</node>
	<node id="-222815" lat="59.0127583319" lon="11.0927888839">
		<tag k="name" v="Svarteberget" />
		<tag k="natural" v="hill" />
		<tag k="place" v="locality" />
		<tag k="ssr:stedsnr" v="83333" />
	</node>
	<node id="-222808" lat="58.9957999956" lon="11.0478805587">
		<tag k="fixme" v="consider natural=peak for the most distinct mountains in the district" />
		<tag k="name" v="Ekeberget" />
		<tag k="natural" v="hill" />
		<tag k="place" v="locality" />
		<tag k="ssr:stedsnr" v="62756" />
	</node>
	<node id="-222801" lat="59.062325002" lon="11.0466249958">
		<tag k="fixme" v="consider natural=peak for the most distinct mountains in the district" />
		<tag k="name" v="Botneveten" />
		<tag k="natural" v="hill" />
		<tag k="place" v="locality" />
		<tag k="ssr:stedsnr" v="62610" />
	</node>
	<node id="-223307" lat="59.1068999969" lon="10.8515638879">
		<tag k="name" v="Stensdalen" />
		<tag k="natural" v="valley" />
		<tag k="place" v="locality" />
		<tag k="ssr:stedsnr" v="782642" />
	</node>
	<node id="-222278" lat="59.099427779" lon="10.8451194507">
		<tag k="fixme" v="consider natural=peak for the most distinct mountains in the district" />
		<tag k="name" v="Bjørnevarden" />
		<tag k="natural" v="hill" />
		<tag k="place" v="locality" />
		<tag k="ssr:stedsnr" v="297903" />
	</node>
	<node id="-223298" lat="59.0423249983" lon="11.0274111159">
		<tag k="name" v="Langeto" />
		<tag k="place" v="locality" />
		<tag k="ssr:stedsnr" v="782479" />
	</node>
	<node id="-223292" lat="59.1003555548" lon="10.9078194458">
		<tag k="fixme" v="consider natural=peak for the most distinct mountains in the district" />
		<tag k="name" v="Liatoppen" />
		<tag k="natural" v="hill" />
		<tag k="place" v="locality" />
		<tag k="ssr:stedsnr" v="782176" />
	</node>
	<node id="-222774" lat="59.0380444478" lon="10.9911999955">
		<tag k="name" v="Grønne bakke" />
		<tag k="natural" v="slope" />
		<tag k="place" v="locality" />
		<tag k="ssr:stedsnr" v="54590" />
	</node>
	<node id="-222771" lat="59.0433250038" lon="11.0346000046">
		<tag k="name" v="Kalsås" />
		<tag k="natural" v="hill" />
		<tag k="place" v="locality" />
		<tag k="ssr:stedsnr" v="54525" />
	</node>
	<node id="-222763" lat="59.0809833369" lon="10.9882250047">
		<tag k="fixme" v="consider natural=peak for the most distinct mountains in the district" />
		<tag k="name" v="Kasevarden" />
		<tag k="natural" v="hill" />
		<tag k="place" v="locality" />
		<tag k="ssr:stedsnr" v="54427" />
	</node>
	<node id="-222761" lat="59.0279861117" lon="11.0008111143">
		<tag k="name" v="Bergsnebbhøla" />
		<tag k="place" v="locality" />
		<tag k="ssr:stedsnr" v="54091" />
	</node>
	<node id="-222760" lat="58.9789972245" lon="10.9540361064">
		<tag k="name" v="Skjellerfjella" />
		<tag k="natural" v="hill" />
		<tag k="place" v="locality" />
		<tag k="ssr:stedsnr" v="54085" />
	</node>
	<node id="-222246" lat="59.0018305548" lon="11.0471750005">
		<tag k="fixme" v="consider natural=peak for the most distinct mountains in the district" />
		<tag k="loc_name" v="Herfølsåta" />
		<tag k="name" v="Herfølrøsset" />
		<tag k="natural" v="hill" />
		<tag k="place" v="locality" />
		<tag k="ssr:stedsnr" v="297900" />
	</node>
	<node id="-222752" lat="59.0813638861" lon="11.0838416645">
		<tag k="fixme" v="consider natural=peak for the most distinct mountains in the district" />
		<tag k="name" v="Bjørnekollen" />
		<tag k="natural" v="hill" />
		<tag k="place" v="locality" />
		<tag k="ssr:stedsnr" v="22382" />
	</node>
	<node id="-222239" lat="59.1051555577" lon="10.8717277769">
		<tag k="fixme" v="consider natural=peak for the most distinct mountains in the district" />
		<tag k="loc_name" v="Stormmusfjellet" />
		<tag k="name" v="Stormnesfjellet" />
		<tag k="natural" v="hill" />
		<tag k="place" v="locality" />
		<tag k="ssr:stedsnr" v="297673" />
	</node>
	<node id="-222238" lat="59.1070499961" lon="10.84166945">
		<tag k="name" v="Pattene" />
		<tag k="natural" v="hill" />
		<tag k="place" v="locality" />
		<tag k="ssr:stedsnr" v="297664" />
	</node>
	<node id="-222711" lat="59.0869611145" lon="10.8607861082">
		<tag k="fixme" v="consider natural=peak for the most distinct mountains in the district" />
		<tag k="name" v="Risvardefjell" />
		<tag k="natural" v="hill" />
		<tag k="place" v="locality" />
		<tag k="ssr:stedsnr" v="904869" />
	</node>
	<node id="-222220" lat="59.086955553" lon="11.0272499993">
		<tag k="fixme" v="consider natural=peak for the most distinct mountains in the district" />
		<tag k="name" v="Røsseberget" />
		<tag k="natural" v="hill" />
		<tag k="place" v="locality" />
		<tag k="ssr:stedsnr" v="297039" />
	</node>
	<node id="-222731" lat="59.0741527787" lon="10.9180722307">
		<tag k="fixme" v="consider natural=peak for the most distinct mountains in the district" />
		<tag k="name" v="Lykollen" />
		<tag k="natural" v="hill" />
		<tag k="place" v="locality" />
		<tag k="ssr:stedsnr" v="964314" />
	</node>
	<node id="-222727" lat="59.0340611152" lon="11.0158055507">
		<tag k="name" v="Lille Gråterfjellet" />
		<tag k="natural" v="hill" />
		<tag k="place" v="locality" />
		<tag k="ssr:stedsnr" v="964104" />
	</node>
</osm>
