<?xml version="1.0" encoding="UTF-8"?>
<osm generator="osmapis" version="0.6">
	<node id="-220222" lat="59.1051711771" lon="10.8436582172">
		<tag k="alt_name" v="Papperhavna" />
		<tag k="landuse" v="harbour" />
		<tag k="name" v="Papperhavn" />
		<tag k="seamark:type" v="harbour" />
		<tag k="ssr:stedsnr" v="729734" />
	</node>
	<node id="-219861" lat="59.0748583371" lon="10.9380944499">
		<tag k="bridge" v="yes" />
		<tag k="layer" v="1" />
		<tag k="name" v="Skipstad" />
		<tag k="ssr:stedsnr" v="289548" />
	</node>
	<node id="-220951" lat="59.1103999981" lon="10.87124445">
		<tag k="bridge" v="yes" />
		<tag k="layer" v="1" />
		<tag k="name" v="Hvalsund" />
		<tag k="ssr:stedsnr" v="774581" />
	</node>
	<node id="-221078" lat="59.071794441" lon="11.0775027761">
		<tag k="man_made" v="quay" />
		<tag k="name" v="Schraderbrygga" />
		<tag k="place" v="locality" />
		<tag k="ssr:stedsnr" v="872386" />
	</node>
	<node id="-220949" lat="59.0731051482" lon="10.9949369659">
		<tag k="landuse" v="harbour" />
		<tag k="name" v="Korshavn" />
		<tag k="seamark:type" v="harbour" />
		<tag k="ssr:stedsnr" v="752155" />
	</node>
	<node id="-220756" lat="58.9843222203" lon="10.9564611069">
		<tag k="man_made" v="cairn" />
		<tag k="name" v="Varden" />
		<tag k="place" v="locality" />
		<tag k="ssr:stedsnr" v="418084" />
	</node>
	<node id="-220338" lat="59.0802444457" lon="10.9303666702">
		<tag k="bridge" v="yes" />
		<tag k="layer" v="1" />
		<tag k="name" v="Grønnetkilen" />
		<tag k="ssr:stedsnr" v="835559" />
	</node>
	<node id="-219793" lat="59.0236694473" lon="11.0374111093">
		<tag k="man_made" v="quay" />
		<tag k="name" v="Vabenken" />
		<tag k="place" v="locality" />
		<tag k="ssr:stedsnr" v="54106" />
	</node>
	<node id="-221135" lat="58.996600801" lon="11.0651170261">
		<tag k="name" v="Herfølflaket" />
		<tag k="place" v="locality" />
		<tag k="ssr:stedsnr" v="989702" />
	</node>
	<node id="-220685" lat="59.0783410705" lon="10.934240279">
		<tag k="bridge" v="yes" />
		<tag k="layer" v="1" />
		<tag k="name" v="Asmalsund" />
		<tag k="ssr:stedsnr" v="349579" />
	</node>
	<node id="-219954" lat="59.1242305545" lon="10.9155416653">
		<tag k="bridge" v="yes" />
		<tag k="layer" v="1" />
		<tag k="name" v="Revholmen" />
		<tag k="ssr:stedsnr" v="470513" />
	</node>
	<node id="-220201" lat="59.0593749988" lon="10.9463749957">
		<tag k="junction" v="yes" />
		<tag k="name" v="Trekanten" />
		<tag k="place" v="locality" />
		<tag k="ssr:stedsnr" v="722912" />
	</node>
	<node id="-220616" lat="59.0561320925" lon="10.9192697966">
		<tag k="landuse" v="harbour" />
		<tag k="name" v="Brattestø" />
		<tag k="seamark:type" v="harbour" />
		<tag k="ssr:stedsnr" v="184518" />
	</node>
	<node id="-220583" lat="59.0367922357" lon="10.9490754848">
		<tag k="landuse" v="harbour" />
		<tag k="name" v="Vikerhavna" />
		<tag k="seamark:type" v="harbour" />
		<tag k="ssr:stedsnr" v="175445" />
	</node>
	<node id="-220998" lat="59.0591694451" lon="11.0034972267">
		<tag k="man_made" v="quay" />
		<tag k="name" v="Bølingshavn" />
		<tag k="place" v="locality" />
		<tag k="ssr:stedsnr" v="790548" />
	</node>
	<node id="-220529" lat="58.968636111" lon="10.8218694454">
		<tag k="name" v="Kuskjærrenna" />
		<tag k="place" v="locality" />
		<tag k="ssr:stedsnr" v="121760" />
	</node>
	<node id="-219847" lat="59.0625333375" lon="11.0814000012">
		<tag k="man_made" v="quay" />
		<tag k="name" v="Søndre Kilebrygga" />
		<tag k="place" v="locality" />
		<tag k="ssr:stedsnr" v="265373" />
	</node>
	<node id="-219970" lat="59.0421083343" lon="11.0444972159">
		<tag k="man_made" v="quay" />
		<tag k="name" v="Neumannbrygga" />
		<tag k="place" v="locality" />
		<tag k="ssr:stedsnr" v="479494" />
	</node>
	<node id="-219860" lat="59.0979596474" lon="10.9180528859">
		<tag k="bridge" v="yes" />
		<tag k="layer" v="1" />
		<tag k="name" v="Skjelsbusund" />
		<tag k="ssr:stedsnr" v="289547" />
	</node>
</osm>
