<?xml version="1.0" encoding="UTF-8"?>
<osm generator="osmapis" version="0.6">
	<node id="-22528" lat="59.0930712169" lon="10.8546049013">
		<tag k="fixme" v="consider place=hamlet" />
		<tag k="name" v="Vauer" />
		<tag k="place" v="farm" />
		<tag k="ssr:stedsnr" v="790751" />
	</node>
	<node id="-22010" lat="59.0500194471" lon="11.0619361032">
		<tag k="name" v="Stangeberget" />
		<tag k="place" v="isolated_dwelling" />
		<tag k="ssr:stedsnr" v="83380" />
	</node>
	<node id="-22520" lat="59.071250003" lon="10.9384750082">
		<tag k="name" v="Brente" />
		<tag k="place" v="isolated_dwelling" />
		<tag k="ssr:stedsnr" v="790531" />
	</node>
	<node id="-22517" lat="59.036297219" lon="11.0461222135">
		<tag k="name" v="Kasa" />
		<tag k="place" v="farm" />
		<tag k="ssr:stedsnr" v="790660" />
	</node>
	<node id="-22004" lat="59.0726083306" lon="10.9367583307">
		<tag k="name" v="Søndre Rød" />
		<tag k="place" v="farm" />
		<tag k="ssr:stedsnr" v="63335" />
	</node>
	<node id="-21491" lat="59.083294446" lon="10.9401027839">
		<tag k="name" v="Kalveklova" />
		<tag k="place" v="farm" />
		<tag k="ssr:stedsnr" v="478995" />
	</node>
	<node id="-21490" lat="59.0293388887" lon="10.9923861075">
		<tag k="name" v="Rødshuet" />
		<tag k="place" v="farm" />
		<tag k="ssr:stedsnr" v="478740" />
	</node>
	<node id="-21999" lat="59.0999388868" lon="10.8490416652">
		<tag k="name" v="Løkker" />
		<tag k="place" v="farm" />
		<tag k="ssr:stedsnr" v="62718" />
	</node>
	<node id="-21998" lat="59.1099277782" lon="10.8608805561">
		<tag k="alt_name" v="Ladenga" />
		<tag k="name" v="Laenga" />
		<tag k="place" v="neighbourhood" />
		<tag k="ssr:stedsnr" v="62713" />
	</node>
	<node id="-22617" lat="59.0786888884" lon="10.9971833309">
		<tag k="name" v="Myra" />
		<tag k="place" v="farm" />
		<tag k="ssr:stedsnr" v="964427" />
	</node>
	<node id="-21577" lat="59.0624416664" lon="11.0743194385">
		<tag k="name" v="Kilebryggkasene" />
		<tag k="place" v="locality" />
		<tag k="ssr:stedsnr" v="447326" />
	</node>
	<node id="-22507" lat="59.0496888928" lon="11.0137027814">
		<tag k="name" v="Grønnvoll" />
		<tag k="place" v="farm" />
		<tag k="ssr:stedsnr" v="782859" />
	</node>
	<node id="-21991" lat="59.0854302151" lon="11.033724748">
		<tag k="fixme" v="consider place=hamlet" />
		<tag k="name" v="Urdal" />
		<tag k="place" v="farm" />
		<tag k="ssr:stedsnr" v="62558" />
	</node>
	<node id="-21990" lat="59.0875055515" lon="11.0127249937">
		<tag k="name" v="Saltvik" />
		<tag k="place" v="isolated_dwelling" />
		<tag k="ssr:stedsnr" v="62557" />
	</node>
	<node id="-21476" lat="59.0614444415" lon="10.9432638933">
		<tag k="name" v="Kasene" />
		<tag k="place" v="farm" />
		<tag k="ssr:stedsnr" v="297919" />
	</node>
	<node id="-21986" lat="59.0979055565" lon="10.9336999928">
		<tag k="name" v="Oppdal" />
		<tag k="place" v="farm" />
		<tag k="ssr:stedsnr" v="62534" />
	</node>
	<node id="-22497" lat="59.0381472256" lon="11.0059861161">
		<tag k="name" v="Søndre Bøbakke" />
		<tag k="place" v="farm" />
		<tag k="ssr:stedsnr" v="782584" />
	</node>
	<node id="-21984" lat="59.0752749997" lon="11.0778972249">
		<tag k="name" v="Strand" />
		<tag k="place" v="isolated_dwelling" />
		<tag k="ssr:stedsnr" v="62505" />
	</node>
	<node id="-22495" lat="59.0355583368" lon="11.0383055576">
		<tag k="name" v="Rove" />
		<tag k="place" v="isolated_dwelling" />
		<tag k="ssr:stedsnr" v="782570" />
	</node>
	<node id="-21941" lat="59.0592471969" lon="11.0574576978">
		<tag k="fixme" v="consider place=hamlet" />
		<tag k="name" v="Høkeli" />
		<tag k="place" v="farm" />
		<tag k="ssr:stedsnr" v="22349" />
	</node>
	<node id="-21468" lat="59.0809583322" lon="10.9042833279">
		<tag k="name" v="Lindemyra" />
		<tag k="place" v="isolated_dwelling" />
		<tag k="ssr:stedsnr" v="285915" />
	</node>
	<node id="-22522" lat="59.0736472263" lon="11.0803749938">
		<tag k="name" v="Kolvika" />
		<tag k="place" v="isolated_dwelling" />
		<tag k="ssr:stedsnr" v="790540" />
	</node>
	<node id="-22490" lat="59.0636083343" lon="11.0063888893">
		<tag k="name" v="Løkka" />
		<tag k="place" v="farm" />
		<tag k="ssr:stedsnr" v="782463" />
	</node>
	<node id="-21976" lat="59.0469666686" lon="11.0067444399">
		<tag k="name" v="Ekeli" />
		<tag k="place" v="farm" />
		<tag k="ssr:stedsnr" v="54893" />
	</node>
	<node id="-21974" lat="59.0886083318" lon="10.8866583361">
		<tag k="name" v="Nedre Utgård" />
		<tag k="place" v="farm" />
		<tag k="ssr:stedsnr" v="54890" />
	</node>
	<node id="-21973" lat="59.1100222235" lon="10.8831361117">
		<tag k="name" v="Duekasa" />
		<tag k="place" v="isolated_dwelling" />
		<tag k="ssr:stedsnr" v="54722" />
	</node>
	<node id="-22480" lat="59.1057861079" lon="10.9171666745">
		<tag k="name" v="Norderhaug" />
		<tag k="place" v="farm" />
		<tag k="ssr:stedsnr" v="782043" />
	</node>
	<node id="-21496" lat="59.0687416654" lon="11.0228805541">
		<tag k="name" v="Oppegård" />
		<tag k="place" v="farm" />
		<tag k="ssr:stedsnr" v="479434" />
	</node>
	<node id="-21966" lat="59.0885972218" lon="10.9108138938">
		<tag k="name" v="Hobekk" />
		<tag k="place" v="isolated_dwelling" />
		<tag k="ssr:stedsnr" v="54539" />
	</node>
	<node id="-22477" lat="59.0047472177" lon="11.050300007">
		<tag k="name" v="Skjelleren" />
		<tag k="place" v="farm" />
		<tag k="ssr:stedsnr" v="778399" />
	</node>
	<node id="-21963" lat="59.069272226" lon="11.0002833315">
		<tag k="name" v="Vestgård" />
		<tag k="place" v="farm" />
		<tag k="ssr:stedsnr" v="54445" />
	</node>
	<node id="-21962" lat="59.0671388885" lon="10.9977333401">
		<tag k="name" v="Riberg" />
		<tag k="place" v="isolated_dwelling" />
		<tag k="ssr:stedsnr" v="54443" />
	</node>
	<node id="-21958" lat="59.0392472184" lon="10.9557805538">
		<tag k="name" v="Støet" />
		<tag k="place" v="farm" />
		<tag k="ssr:stedsnr" v="54479" />
	</node>
	<node id="-22469" lat="59.080341669" lon="11.0629249952">
		<tag k="name" v="Vadbukta" />
		<tag k="place" v="locality" />
		<tag k="ssr:stedsnr" v="750370" />
	</node>
	<node id="-22468" lat="59.0821472251" lon="11.0847611106">
		<tag k="name" v="Trøkkmot" />
		<tag k="place" v="isolated_dwelling" />
		<tag k="ssr:stedsnr" v="750369" />
	</node>
	<node id="-22466" lat="59.0679444406" lon="11.0854861035">
		<tag k="name" v="Skattenborg" />
		<tag k="place" v="isolated_dwelling" />
		<tag k="ssr:stedsnr" v="750323" />
	</node>
	<node id="-21664" lat="59.0660997338" lon="11.0691240102">
		<tag k="fixme" v="consider place=hamlet" />
		<tag k="name" v="Kile" />
		<tag k="place" v="farm" />
		<tag k="ssr:stedsnr" v="690406" />
	</node>
	<node id="-22461" lat="59.0320944415" lon="11.0935305576">
		<tag k="name" v="Sanne" />
		<tag k="place" v="isolated_dwelling" />
		<tag k="ssr:stedsnr" v="750275" />
	</node>
	<node id="-22457" lat="59.0612250025" lon="11.0656666639">
		<tag k="name" v="Stinteren" />
		<tag k="place" v="locality" />
		<tag k="ssr:stedsnr" v="628342" />
	</node>
	<node id="-22455" lat="59.0768666683" lon="11.0569527756">
		<tag k="name" v="Halsen" />
		<tag k="place" v="isolated_dwelling" />
		<tag k="ssr:stedsnr" v="628333" />
	</node>
	<node id="-22453" lat="59.0540722246" lon="11.0228888967">
		<tag k="leisure" v="pitch" />
		<tag k="name" v="Hvaler Golfbane" />
		<tag k="ssr:stedsnr" v="612879" />
	</node>
	<node id="-22452" lat="59.0562444426" lon="11.0224416691">
		<tag k="name" v="Rønningen" />
		<tag k="place" v="locality" />
		<tag k="ssr:stedsnr" v="612878" />
	</node>
	<node id="-21939" lat="59.0401929984" lon="11.0419401888">
		<tag k="fixme" v="consider place=hamlet" />
		<tag k="name" v="Koltorp" />
		<tag k="place" v="farm" />
		<tag k="ssr:stedsnr" v="2630" />
	</node>
	<node id="-21428" lat="59.0364611136" lon="10.9476055544">
		<tag k="name" v="Tauløs" />
		<tag k="place" v="isolated_dwelling" />
		<tag k="ssr:stedsnr" v="297432" />
	</node>
	<node id="-22447" lat="59.0383381894" lon="10.9486639323">
		<tag k="name" v="Viker" />
		<tag k="place" v="hamlet" />
		<tag k="ssr:stedsnr" v="608657" />
	</node>
	<node id="-22446" lat="59.0397407486" lon="11.0401358123">
		<tag k="fixme" v="consider place=hamlet" />
		<tag k="name" v="Kjølholt" />
		<tag k="place" v="farm" />
		<tag k="ssr:stedsnr" v="608656" />
	</node>
	<node id="-21420" lat="59.1093361152" lon="10.9096638832">
		<tag k="name" v="Ødegården" />
		<tag k="place" v="isolated_dwelling" />
		<tag k="ssr:stedsnr" v="297085" />
	</node>
	<node id="-21419" lat="59.1020749957" lon="10.9154416579">
		<tag k="name" v="Knektemoen" />
		<tag k="place" v="farm" />
		<tag k="ssr:stedsnr" v="297073" />
	</node>
	<node id="-22442" lat="59.1058249965" lon="10.856572225">
		<tag k="name" v="Skottet" />
		<tag k="place" v="isolated_dwelling" />
		<tag k="ssr:stedsnr" v="607706" />
	</node>
	<node id="-21416" lat="59.1130444438" lon="10.8969611197">
		<tag k="name" v="Belleville" />
		<tag k="place" v="isolated_dwelling" />
		<tag k="ssr:stedsnr" v="297047" />
	</node>
	<node id="-21830" lat="59.0697250698" lon="11.0349416631">
		<tag k="fixme" v="consider place=hamlet" />
		<tag k="name" v="Brenne" />
		<tag k="place" v="farm" />
		<tag k="ssr:stedsnr" v="912557" />
	</node>
	<node id="-21410" lat="59.0441250006" lon="10.9522750039">
		<tag k="name" v="Øvre Viker" />
		<tag k="place" v="farm" />
		<tag k="ssr:stedsnr" v="296670" />
	</node>
	<node id="-22431" lat="59.0879444462" lon="10.8817500061">
		<tag k="name" v="Nedre Utgård" />
		<tag k="place" v="farm" />
		<tag k="ssr:stedsnr" v="600867" />
	</node>
	<node id="-22430" lat="59.1074158922" lon="10.8563002567">
		<tag k="alt_name" v="Tuten" />
		<tag k="name" v="Graffstua" />
		<tag k="place" v="farm" />
		<tag k="ssr:stedsnr" v="600655" />
	</node>
	<node id="-22429" lat="59.1068416648" lon="10.8449416703">
		<tag k="name" v="Finskjærbukta" />
		<tag k="place" v="isolated_dwelling" />
		<tag k="ssr:stedsnr" v="600650" />
	</node>
	<node id="-21404" lat="59.0028305518" lon="11.0543749913">
		<tag k="fixme" v="consider place=hamlet" />
		<tag k="name" v="Herføl" />
		<tag k="place" v="farm" />
		<tag k="ssr:stedsnr" v="296564" />
	</node>
	<node id="-21403" lat="59.0578777811" lon="10.9475277789">
		<tag k="name" v="Nedre Skipstad" />
		<tag k="place" v="farm" />
		<tag k="ssr:stedsnr" v="296178" />
	</node>
	<node id="-21402" lat="59.0605083364" lon="10.9564666726">
		<tag k="name" v="Skipstadhavn" />
		<tag k="place" v="farm" />
		<tag k="ssr:stedsnr" v="296175" />
	</node>
	<node id="-21487" lat="59.0412999982" lon="11.0065722245">
		<tag k="name" v="Nordre Bøbakke" />
		<tag k="place" v="farm" />
		<tag k="ssr:stedsnr" v="478630" />
	</node>
	<node id="-21912" lat="59.0033250036" lon="11.083341661">
		<tag k="alt_name" v="Kasa (Apelvik)" />
		<tag k="name" v="Kasa" />
		<tag k="place" v="isolated_dwelling" />
		<tag k="ssr:stedsnr" v="932322" />
	</node>
	<node id="-21911" lat="59.0070083379" lon="11.0701749931">
		<tag k="name" v="Tranget" />
		<tag k="place" v="locality" />
		<tag k="ssr:stedsnr" v="932314" />
	</node>
	<node id="-22421" lat="59.1132944418" lon="10.8921555586">
		<tag k="name" v="Sandberg" />
		<tag k="place" v="isolated_dwelling" />
		<tag k="ssr:stedsnr" v="600392" />
	</node>
	<node id="-22420" lat="59.0818694443" lon="10.9404749971">
		<tag k="name" v="Kålvika" />
		<tag k="place" v="farm" />
		<tag k="ssr:stedsnr" v="599978" />
	</node>
	<node id="-21394" lat="59.0612638876" lon="11.0781388963">
		<tag k="name" v="Sørenskas" />
		<tag k="place" v="isolated_dwelling" />
		<tag k="ssr:stedsnr" v="204314" />
	</node>
	<node id="-21905" lat="59.0915472203" lon="10.8754194455">
		<tag k="name" v="Gåsebakke" />
		<tag k="place" v="isolated_dwelling" />
		<tag k="ssr:stedsnr" v="904873" />
	</node>
	<node id="-21903" lat="59.0569083374" lon="11.00465556">
		<tag k="name" v="Brunsvik" />
		<tag k="place" v="farm" />
		<tag k="ssr:stedsnr" v="904820" />
	</node>
	<node id="-21390" lat="59.0176972244" lon="11.0655666742">
		<tag k="name" v="Hval" />
		<tag k="place" v="locality" />
		<tag k="ssr:stedsnr" v="204275" />
	</node>
	<node id="-22411" lat="59.0754638901" lon="10.9343555563">
		<tag k="name" v="Strandbakken" />
		<tag k="place" v="farm" />
		<tag k="ssr:stedsnr" v="599158" />
	</node>
	<node id="-21897" lat="59.0838055585" lon="11.0166805548">
		<tag k="name" v="Saltvik" />
		<tag k="place" v="farm" />
		<tag k="ssr:stedsnr" v="904024" />
	</node>
	<node id="-21893" lat="59.0363611133" lon="11.0116694374">
		<tag k="name" v="Lammenes" />
		<tag k="place" v="farm" />
		<tag k="ssr:stedsnr" v="903715" />
	</node>
	<node id="-21379" lat="59.0749305527" lon="10.9388972206">
		<tag k="fixme" v="consider place=suburb, village or hamlet" />
		<tag k="name" v="Rød" />
		<tag k="place" v="quarter" />
		<tag k="ssr:stedsnr" v="267087" />
	</node>
	<node id="-21890" lat="59.075097224" lon="11.0586194424">
		<tag k="name" v="Kasene" />
		<tag k="place" v="locality" />
		<tag k="ssr:stedsnr" v="872374" />
	</node>
	<node id="-21483" lat="59.0523750012" lon="10.947025">
		<tag k="name" v="Øvre Skipstad" />
		<tag k="place" v="farm" />
		<tag k="ssr:stedsnr" v="478191" />
	</node>
	<node id="-21888" lat="58.9956861156" lon="11.0576722194">
		<tag k="name" v="Tøfte" />
		<tag k="place" v="isolated_dwelling" />
		<tag k="ssr:stedsnr" v="872369" />
	</node>
	<node id="-21374" lat="59.0645416644" lon="11.0540444509">
		<tag k="name" v="Kileløkkene" />
		<tag k="place" v="locality" />
		<tag k="ssr:stedsnr" v="265383" />
	</node>
	<node id="-21371" lat="58.9923944438" lon="11.0531611055">
		<tag k="name" v="Langrøset" />
		<tag k="place" v="locality" />
		<tag k="ssr:stedsnr" v="265362" />
	</node>
	<node id="-21881" lat="59.0355305571" lon="11.0542694509">
		<tag k="name" v="Nygård" />
		<tag k="place" v="isolated_dwelling" />
		<tag k="ssr:stedsnr" v="851604" />
	</node>
	<node id="-22164" lat="59.0153793389" lon="11.0677590413">
		<tag k="alt_name" v="Negården" />
		<tag k="fixme" v="consider place=hamlet" />
		<tag k="name" v="Nedgården" />
		<tag k="place" v="farm" />
		<tag k="ssr:stedsnr" v="304576" />
	</node>
	<node id="-21878" lat="59.025261111" lon="11.0368611173">
		<tag k="name" v="Skjærhalden" />
		<tag k="place" v="village" />
		<tag k="ssr:stedsnr" v="851551" />
	</node>
	<node id="-21877" lat="59.0207916624" lon="11.0784083278">
		<tag k="name" v="Bakkevik" />
		<tag k="place" v="farm" />
		<tag k="ssr:stedsnr" v="851549" />
	</node>
	<node id="-21872" lat="59.0887750036" lon="10.856724998">
		<tag k="alt_name" v="Botn" />
		<tag k="name" v="Botten" />
		<tag k="place" v="isolated_dwelling" />
		<tag k="ssr:stedsnr" v="851512" />
	</node>
	<node id="-21871" lat="59.068908336" lon="11.0528611149">
		<tag k="name" v="Limilen" />
		<tag k="place" v="farm" />
		<tag k="ssr:stedsnr" v="851503" />
	</node>
	<node id="-21870" lat="59.058928712" lon="11.03614214">
		<tag k="fixme" v="consider place=hamlet" />
		<tag k="name" v="Snekotta" />
		<tag k="place" v="farm" />
		<tag k="ssr:stedsnr" v="844812" />
	</node>
	<node id="-22381" lat="59.0486305532" lon="11.00835834">
		<tag k="name" v="Holm" />
		<tag k="place" v="farm" />
		<tag k="ssr:stedsnr" v="547648" />
	</node>
	<node id="-22380" lat="59.0515880575" lon="11.0195074408">
		<tag k="fixme" v="consider place=hamlet" />
		<tag k="name" v="Ørdal" />
		<tag k="place" v="farm" />
		<tag k="ssr:stedsnr" v="547646" />
	</node>
	<node id="-22418" lat="59.0642305585" lon="10.9395138902">
		<tag k="name" v="Allerød" />
		<tag k="place" v="farm" />
		<tag k="ssr:stedsnr" v="599692" />
	</node>
	<node id="-21354" lat="59.0306333358" lon="11.0555611054">
		<tag k="name" v="Skårsnes" />
		<tag k="place" v="isolated_dwelling" />
		<tag k="ssr:stedsnr" v="83303" />
	</node>
	<node id="-22377" lat="59.0720076104" lon="11.0069022187">
		<tag k="fixme" v="consider place=hamlet" />
		<tag k="name" v="Korshavn" />
		<tag k="place" v="farm" />
		<tag k="ssr:stedsnr" v="547551" />
	</node>
	<node id="-21861" lat="59.0215999972" lon="11.0904194449">
		<tag k="name" v="Dypsand" />
		<tag k="place" v="isolated_dwelling" />
		<tag k="ssr:stedsnr" v="932302" />
	</node>
	<node id="-21348" lat="59.0325402335" lon="11.0363437248">
		<tag k="name" v="Tjernet" />
		<tag k="place" v="farm" />
		<tag k="ssr:stedsnr" v="244651" />
	</node>
	<node id="-22371" lat="59.0730611133" lon="10.9527499981">
		<tag k="name" v="Brekkerød" />
		<tag k="place" v="farm" />
		<tag k="ssr:stedsnr" v="540917" />
	</node>
	<node id="-22368" lat="59.0745805558" lon="11.0085138973">
		<tag k="alt_name" v="Øvre Granhøy" />
		<tag k="name" v="Granli" />
		<tag k="place" v="farm" />
		<tag k="ssr:stedsnr" v="540451" />
	</node>
	<node id="-22367" lat="59.0706083349" lon="11.0425999971">
		<tag k="name" v="Storbukta" />
		<tag k="place" v="farm" />
		<tag k="ssr:stedsnr" v="540381" />
	</node>
	<node id="-21853" lat="59.0940638902" lon="10.9207222176">
		<tag k="alt_name" v="Nordgard;Nordgarden" />
		<tag k="name" v="Nordgården" />
		<tag k="place" v="farm" />
		<tag k="ssr:stedsnr" v="790565" />
	</node>
	<node id="-21306" lat="59.0674805518" lon="10.9355277704">
		<tag k="name" v="Brente" />
		<tag k="place" v="farm" />
		<tag k="ssr:stedsnr" v="236643" />
	</node>
	<node id="-21525" lat="59.0389260271" lon="11.0050413843">
		<tag k="name" v="Bøbakke" />
		<tag k="place" v="farm" />
		<tag k="ssr:stedsnr" v="487670" />
	</node>
	<node id="-21337" lat="59.0239888861" lon="11.1007111125">
		<tag k="name" v="Buvika" />
		<tag k="place" v="isolated_dwelling" />
		<tag k="ssr:stedsnr" v="244231" />
	</node>
	<node id="-22360" lat="59.0549972251" lon="10.9334666647">
		<tag k="alt_name" v="Huser søndre" />
		<tag k="name" v="Søndre Huser" />
		<tag k="place" v="farm" />
		<tag k="ssr:stedsnr" v="539866" />
	</node>
	<node id="-21847" lat="59.0265361107" lon="11.085980563">
		<tag k="name" v="Tussehytta" />
		<tag k="place" v="isolated_dwelling" />
		<tag k="ssr:stedsnr" v="787021" />
	</node>
	<node id="-22358" lat="59.089758333" lon="11.0345916593">
		<tag k="name" v="Langkasa" />
		<tag k="place" v="farm" />
		<tag k="ssr:stedsnr" v="540038" />
	</node>
	<node id="-22585" lat="59.0548833353" lon="11.0007027692">
		<tag k="name" v="Haslevika" />
		<tag k="place" v="farm" />
		<tag k="ssr:stedsnr" v="844903" />
	</node>
	<node id="-22355" lat="59.1187388883" lon="10.8723472187">
		<tag k="name" v="Nordstrand" />
		<tag k="place" v="isolated_dwelling" />
		<tag k="ssr:stedsnr" v="539674" />
	</node>
	<node id="-22354" lat="59.0362055572" lon="11.0365833373">
		<tag k="name" v="Rove" />
		<tag k="place" v="isolated_dwelling" />
		<tag k="ssr:stedsnr" v="539510" />
	</node>
	<node id="-22353" lat="59.0905194446" lon="10.9082500082">
		<tag k="alt_name" v="Bråten søndre" />
		<tag k="loc_name" v="Bråten" />
		<tag k="name" v="Søndre Bråten" />
		<tag k="place" v="farm" />
		<tag k="ssr:stedsnr" v="539494" />
	</node>
	<node id="-22352" lat="59.092397219" lon="10.909524998">
		<tag k="alt_name" v="Bråten nordre" />
		<tag k="name" v="Nordre Bråten" />
		<tag k="place" v="farm" />
		<tag k="ssr:stedsnr" v="539490" />
	</node>
	<node id="-21839" lat="59.1059084385" lon="10.8874022832">
		<tag k="fixme" v="consider place=hamlet" />
		<tag k="name" v="Langekil" />
		<tag k="place" v="farm" />
		<tag k="ssr:stedsnr" v="912713" />
	</node>
	<node id="-21836" lat="59.049081396" lon="11.0410480631">
		<tag k="fixme" v="consider place=hamlet" />
		<tag k="name" v="Holte" />
		<tag k="place" v="farm" />
		<tag k="ssr:stedsnr" v="912626" />
	</node>
	<node id="-21833" lat="59.0901055515" lon="11.0198611035">
		<tag k="name" v="Utengen" />
		<tag k="place" v="farm" />
		<tag k="ssr:stedsnr" v="912577" />
	</node>
	<node id="-22344" lat="59.0314361156" lon="11.000891661">
		<tag k="name" v="Tobakksbukta" />
		<tag k="place" v="farm" />
		<tag k="ssr:stedsnr" v="539079" />
	</node>
	<node id="-21831" lat="59.0686623756" lon="11.0273223566">
		<tag k="name" v="Rev" />
		<tag k="old_name" v="Ræf;Reff;Ref" />
		<tag k="place" v="hamlet" />
		<tag k="ssr:stedsnr" v="912561" />
	</node>
	<node id="-22342" lat="59.0322111127" lon="11.0244083331">
		<tag k="name" v="Hvaler prestebolig" />
		<tag k="place" v="isolated_dwelling" />
		<tag k="ssr:stedsnr" v="539073" />
	</node>
	<node id="-21985" lat="59.0639849145" lon="11.0323055503">
		<tag k="fixme" v="consider place=hamlet" />
		<tag k="name" v="Botne" />
		<tag k="place" v="farm" />
		<tag k="ssr:stedsnr" v="62519" />
	</node>
	<node id="-21387" lat="59.0311055537" lon="11.1049583303">
		<tag k="name" v="Annas lund" />
		<tag k="place" v="locality" />
		<tag k="ssr:stedsnr" v="204264" />
	</node>
	<node id="-21301" lat="59.037030552" lon="11.0446333334">
		<tag k="name" v="Dapa" />
		<tag k="place" v="isolated_dwelling" />
		<tag k="ssr:stedsnr" v="236565" />
	</node>
	<node id="-21818" lat="59.1148722219" lon="10.9045916611">
		<tag k="alt_name" v="Lærdalen" />
		<tag k="name" v="Lerdalen" />
		<tag k="place" v="isolated_dwelling" />
		<tag k="ssr:stedsnr" v="911722" />
	</node>
	<node id="-21305" lat="59.1024472232" lon="10.866480549">
		<tag k="name" v="Båsvika" />
		<tag k="place" v="isolated_dwelling" />
		<tag k="ssr:stedsnr" v="236641" />
	</node>
	<node id="-22328" lat="59.0862944421" lon="10.9060277713">
		<tag k="name" v="Alsvik" />
		<tag k="place" v="isolated_dwelling" />
		<tag k="ssr:stedsnr" v="426544" />
	</node>
	<node id="-21303" lat="59.0383444474" lon="11.029041661">
		<tag k="loc_name" v="Grina" />
		<tag k="name" v="Grinda" />
		<tag k="place" v="farm" />
		<tag k="ssr:stedsnr" v="236574" />
	</node>
	<node id="-22326" lat="59.0798888924" lon="10.874749997">
		<tag k="fixme" v="consider place=suburb, village or hamlet" />
		<tag k="name" v="Utgård" />
		<tag k="place" v="quarter" />
		<tag k="ssr:stedsnr" v="426539" />
	</node>
	<node id="-21813" lat="59.0730797285" lon="11.0653497806">
		<tag k="alt_name" v="Stafseng;Stavseng;Stafsengen" />
		<tag k="fixme" v="consider place=hamlet" />
		<tag k="name" v="Stafsenga" />
		<tag k="old_name" v="Stabseng" />
		<tag k="place" v="farm" />
		<tag k="ssr:stedsnr" v="908714" />
	</node>
	<node id="-21812" lat="59.0689037033" lon="11.0797616322">
		<tag k="fixme" v="consider place=hamlet" />
		<tag k="name" v="Ødegården" />
		<tag k="place" v="farm" />
		<tag k="ssr:stedsnr" v="908704" />
	</node>
	<node id="-21299" lat="59.0947916623" lon="10.9328083381">
		<tag k="name" v="Nepegravningen" />
		<tag k="place" v="farm" />
		<tag k="ssr:stedsnr" v="236525" />
	</node>
	<node id="-21810" lat="59.085394443" lon="10.8544972277">
		<tag k="name" v="Lanterna" />
		<tag k="place" v="isolated_dwelling" />
		<tag k="ssr:stedsnr" v="908025" />
	</node>
	<node id="-21297" lat="59.0622972205" lon="11.008755553">
		<tag k="name" v="Engedal" />
		<tag k="place" v="farm" />
		<tag k="ssr:stedsnr" v="236465" />
	</node>
	<node id="-21808" lat="59.0707777775" lon="11.0413888956">
		<tag k="name" v="Storbukta" />
		<tag k="place" v="farm" />
		<tag k="ssr:stedsnr" v="904940" />
	</node>
	<node id="-21294" lat="59.0652833377" lon="11.0367361099">
		<tag k="name" v="Strandbakken" />
		<tag k="place" v="isolated_dwelling" />
		<tag k="ssr:stedsnr" v="236423" />
	</node>
	<node id="-22317" lat="59.0500750022" lon="11.0274999993">
		<tag k="name" v="Lekvollen" />
		<tag k="place" v="farm" />
		<tag k="ssr:stedsnr" v="420000" />
	</node>
	<node id="-22316" lat="59.0509388846" lon="11.03995">
		<tag k="alt_name" v="Bartelund" />
		<tag k="name" v="Bartslund" />
		<tag k="place" v="farm" />
		<tag k="ssr:stedsnr" v="419997" />
	</node>
	<node id="-22315" lat="59.0517333294" lon="11.0092888887">
		<tag k="name" v="Stakallen" />
		<tag k="place" v="farm" />
		<tag k="ssr:stedsnr" v="419870" />
	</node>
	<node id="-22651" lat="59.0863210605" lon="10.8530998025">
		<tag k="name" v="Dyrefjell" />
		<tag k="place" v="neighbourhood" />
		<tag k="ssr:stedsnr" v="981866" />
	</node>
	<node id="-21287" lat="59.03201389" lon="11.0231611084">
		<tag k="name" v="Brimnes" />
		<tag k="place" v="farm" />
		<tag k="ssr:stedsnr" v="236086" />
	</node>
	<node id="-22327" lat="59.0747111119" lon="10.891058325">
		<tag k="alt_name" v="Kjellvik" />
		<tag k="name" v="Kjelvika" />
		<tag k="place" v="isolated_dwelling" />
		<tag k="ssr:stedsnr" v="426541" />
	</node>
	<node id="-21797" lat="59.042108332" lon="11.0095111043">
		<tag k="name" v="Kitterød" />
		<tag k="place" v="isolated_dwelling" />
		<tag k="ssr:stedsnr" v="903593" />
	</node>
	<node id="-21304" lat="59.0358194427" lon="11.0095111114">
		<tag k="name" v="Tangen" />
		<tag k="place" v="isolated_dwelling" />
		<tag k="ssr:stedsnr" v="236578" />
	</node>
	<node id="-21321" lat="59.1039444472" lon="10.8478777712">
		<tag k="name" v="Grønnet" />
		<tag k="place" v="isolated_dwelling" />
		<tag k="ssr:stedsnr" v="54604" />
	</node>
	<node id="-22305" lat="59.0935611138" lon="10.8635527731">
		<tag k="name" v="Røa" />
		<tag k="place" v="isolated_dwelling" />
		<tag k="ssr:stedsnr" v="418897" />
	</node>
	<node id="-22304" lat="58.9958750014" lon="11.0437222232">
		<tag k="name" v="Rognhavn" />
		<tag k="place" v="farm" />
		<tag k="ssr:stedsnr" v="418895" />
	</node>
	<node id="-21789" lat="59.0552750023" lon="11.0125472276">
		<tag k="name" v="Putten" />
		<tag k="place" v="farm" />
		<tag k="ssr:stedsnr" v="730555" />
	</node>
	<node id="-21276" lat="59.0674388891" lon="11.0808416643">
		<tag k="fixme" v="multiple name tags, choose one and add the other to alt_name" />
		<tag k="name" v="Kilemyra;Myra" />
		<tag k="place" v="farm" />
		<tag k="ssr:stedsnr" v="22338" />
	</node>
	<node id="-22299" lat="59.1142472252" lon="10.8542138958">
		<tag k="name" v="Bukta" />
		<tag k="place" v="isolated_dwelling" />
		<tag k="ssr:stedsnr" v="418667" />
	</node>
	<node id="-21429" lat="59.0504222251" lon="11.045358335">
		<tag k="name" v="Holtekasene" />
		<tag k="place" v="farm" />
		<tag k="ssr:stedsnr" v="297543" />
	</node>
	<node id="-21785" lat="59.0772166688" lon="11.0059444448">
		<tag k="name" v="Kroken" />
		<tag k="place" v="farm" />
		<tag k="ssr:stedsnr" v="722393" />
	</node>
	<node id="-22296" lat="59.1065888887" lon="10.8788972242">
		<tag k="name" v="Neset" />
		<tag k="place" v="isolated_dwelling" />
		<tag k="ssr:stedsnr" v="418647" />
	</node>
	<node id="-21270" lat="59.0660000028" lon="11.040791665">
		<tag k="name" v="Vik" />
		<tag k="place" v="farm" />
		<tag k="ssr:stedsnr" v="224935" />
	</node>
	<node id="-21269" lat="59.0484138866" lon="11.0043361096">
		<tag k="name" v="Engene" />
		<tag k="place" v="farm" />
		<tag k="ssr:stedsnr" v="6888" />
	</node>
	<node id="-22291" lat="59.0419583311" lon="10.964913896">
		<tag k="alt_name" v="Vassgarden" />
		<tag k="name" v="Vassgaren" />
		<tag k="place" v="farm" />
		<tag k="ssr:stedsnr" v="418554" />
	</node>
	<node id="-22290" lat="59.0882444479" lon="10.9146000041">
		<tag k="name" v="Gunnersenga" />
		<tag k="place" v="farm" />
		<tag k="ssr:stedsnr" v="418499" />
	</node>
	<node id="-21891" lat="59.0740638895" lon="11.0638666732">
		<tag k="name" v="Kviet" />
		<tag k="place" v="locality" />
		<tag k="ssr:stedsnr" v="872376" />
	</node>
	<node id="-21776" lat="59.0779083364" lon="10.9015138931">
		<tag k="alt_name" v="Hamna" />
		<tag k="name" v="Havna" />
		<tag k="place" v="farm" />
		<tag k="ssr:stedsnr" v="668563" />
	</node>
	<node id="-21262" lat="59.0544548452" lon="11.0595279988">
		<tag k="alt_name" v="Kjenvik" />
		<tag k="fixme" v="consider place=hamlet" />
		<tag k="loc_name" v="Tjennvik" />
		<tag k="name" v="Kjennvik" />
		<tag k="place" v="farm" />
		<tag k="ssr:stedsnr" v="1619" />
	</node>
	<node id="-21768" lat="59.0824138911" lon="10.8968944364">
		<tag k="name" v="Sekkevika" />
		<tag k="place" v="isolated_dwelling" />
		<tag k="ssr:stedsnr" v="660860" />
	</node>
	<node id="-21766" lat="59.0342805552" lon="10.945494437">
		<tag k="name" v="Halsen" />
		<tag k="place" v="isolated_dwelling" />
		<tag k="ssr:stedsnr" v="660265" />
	</node>
	<node id="-21764" lat="59.078044441" lon="10.8958666736">
		<tag k="name" v="Markento" />
		<tag k="place" v="isolated_dwelling" />
		<tag k="ssr:stedsnr" v="660308" />
	</node>
	<node id="-21761" lat="59.1007194469" lon="10.9360222231">
		<tag k="alt_name" v="Dypedal;Norsted" />
		<tag k="loc_name" v="Nordsted" />
		<tag k="name" v="Djupedal" />
		<tag k="old_name" v="Dybedal" />
		<tag k="place" v="farm" />
		<tag k="ssr:stedsnr" v="647074" />
	</node>
	<node id="-22272" lat="59.0360833289" lon="11.0574583347">
		<tag k="name" v="Havna" />
		<tag k="place" v="farm" />
		<tag k="ssr:stedsnr" v="387395" />
	</node>
	<node id="-21759" lat="59.1041472238" lon="10.8755972273">
		<tag k="name" v="Haugeli" />
		<tag k="place" v="isolated_dwelling" />
		<tag k="ssr:stedsnr" v="730747" />
	</node>
	<node id="-22104" lat="59.052666665" lon="10.99420833">
		<tag k="name" v="Kvernskau" />
		<tag k="place" v="farm" />
		<tag k="ssr:stedsnr" v="175191" />
	</node>
	<node id="-21746" lat="59.1099111097" lon="10.8932249939">
		<tag k="name" v="Nordenga" />
		<tag k="place" v="farm" />
		<tag k="ssr:stedsnr" v="729727" />
	</node>
	<node id="-22256" lat="59.0335083313" lon="11.1063972284">
		<tag k="alt_name" v="Kjerringklova" />
		<tag k="name" v="Klova" />
		<tag k="place" v="isolated_dwelling" />
		<tag k="ssr:stedsnr" v="366222" />
	</node>
	<node id="-21738" lat="59.0842194489" lon="10.8783888809">
		<tag k="name" v="Øvre Utgård" />
		<tag k="old_name" v="Øvre Ultgård" />
		<tag k="place" v="hamlet" />
		<tag k="ssr:stedsnr" v="729534" />
	</node>
	<node id="-22567" lat="59.0819444448" lon="10.8735694437">
		<tag k="name" v="Bekkevika" />
		<tag k="place" v="isolated_dwelling" />
		<tag k="ssr:stedsnr" v="843860" />
	</node>
	<node id="-21736" lat="59.0736638893" lon="11.0470722159">
		<tag k="alt_name" v="Øgårdene" />
		<tag k="name" v="Ødegårdene" />
		<tag k="place" v="farm" />
		<tag k="ssr:stedsnr" v="729504" />
	</node>
	<node id="-21735" lat="59.0141259395" lon="11.0728446607">
		<tag k="fixme" v="consider place=hamlet" />
		<tag k="name" v="Løkkeberg" />
		<tag k="place" v="farm" />
		<tag k="ssr:stedsnr" v="729564" />
	</node>
	<node id="-22245" lat="59.08473056" lon="10.9443555578">
		<tag k="name" v="Nordenga" />
		<tag k="place" v="farm" />
		<tag k="ssr:stedsnr" v="365563" />
	</node>
	<node id="-21732" lat="59.0823111103" lon="11.0709944477">
		<tag k="name" v="Strandli" />
		<tag k="place" v="isolated_dwelling" />
		<tag k="ssr:stedsnr" v="629404" />
	</node>
	<node id="-21729" lat="59.0049555545" lon="11.0754833247">
		<tag k="name" v="Havna" />
		<tag k="place" v="farm" />
		<tag k="ssr:stedsnr" v="628323" />
	</node>
	<node id="-22238" lat="59.0446777813" lon="11.0349222233">
		<tag k="name" v="Svanholm" />
		<tag k="place" v="farm" />
		<tag k="ssr:stedsnr" v="358531" />
	</node>
	<node id="-22236" lat="59.0815083315" lon="11.0112583299">
		<tag k="name" v="Brantemyr" />
		<tag k="place" v="farm" />
		<tag k="ssr:stedsnr" v="358001" />
	</node>
	<node id="-22235" lat="59.08646667" lon="10.9004333356">
		<tag k="name" v="Almvika" />
		<tag k="place" v="farm" />
		<tag k="ssr:stedsnr" v="357973" />
	</node>
	<node id="-22228" lat="59.1144055595" lon="10.857488886">
		<tag k="name" v="Husdalen" />
		<tag k="place" v="isolated_dwelling" />
		<tag k="ssr:stedsnr" v="357691" />
	</node>
	<node id="-21710" lat="59.0566444431" lon="10.9362972208">
		<tag k="alt_name" v="Huser nordre" />
		<tag k="name" v="Nordre Huser" />
		<tag k="place" v="farm" />
		<tag k="ssr:stedsnr" v="721875" />
	</node>
	<node id="-21965" lat="59.0374027793" lon="11.0421611085">
		<tag k="name" v="Myra" />
		<tag k="place" v="isolated_dwelling" />
		<tag k="ssr:stedsnr" v="54530" />
	</node>
	<node id="-22562" lat="59.0883944421" lon="10.9050944455">
		<tag k="name" v="Stranda" />
		<tag k="place" v="isolated_dwelling" />
		<tag k="ssr:stedsnr" v="843526" />
	</node>
	<node id="-22218" lat="59.0647250009" lon="10.9085638892">
		<tag k="name" v="Spjærholmen" />
		<tag k="place" v="farm" />
		<tag k="ssr:stedsnr" v="357266" />
	</node>
	<node id="-22647" lat="59.0965789258" lon="10.938229048">
		<tag k="loc_name" v="Vesta" />
		<tag k="name" v="Vestad" />
		<tag k="place" v="farm" />
		<tag k="ssr:stedsnr" v="976272" />
	</node>
	<node id="-22258" lat="59.1018666646" lon="10.9051805548">
		<tag k="name" v="Langero" />
		<tag k="place" v="farm" />
		<tag k="ssr:stedsnr" v="366556" />
	</node>
	<node id="-22212" lat="59.0044305527" lon="11.0515861164">
		<tag k="name" v="Moa" />
		<tag k="place" v="farm" />
		<tag k="ssr:stedsnr" v="353409" />
	</node>
	<node id="-22211" lat="59.0062833308" lon="11.0494805591">
		<tag k="name" v="Snøtten" />
		<tag k="place" v="farm" />
		<tag k="ssr:stedsnr" v="353408" />
	</node>
	<node id="-21744" lat="59.1121250039" lon="10.8567999934">
		<tag k="name" v="Løkkeberg" />
		<tag k="place" v="farm" />
		<tag k="ssr:stedsnr" v="729712" />
	</node>
	<node id="-21451" lat="59.0543500013" lon="11.0822861045">
		<tag k="name" v="Storsand" />
		<tag k="place" v="isolated_dwelling" />
		<tag k="ssr:stedsnr" v="447345" />
	</node>
	<node id="-21696" lat="59.067947224" lon="11.0705499927">
		<tag k="name" v="Øgården" />
		<tag k="place" v="farm" />
		<tag k="ssr:stedsnr" v="608572" />
	</node>
	<node id="-21694" lat="59.0306361101" lon="11.0032305602">
		<tag k="name" v="Hogget" />
		<tag k="place" v="isolated_dwelling" />
		<tag k="ssr:stedsnr" v="608648" />
	</node>
	<node id="-21692" lat="59.0523108963" lon="10.9465238965">
		<tag k="fixme" v="consider place=hamlet" />
		<tag k="name" v="Skipstad" />
		<tag k="place" v="farm" />
		<tag k="ssr:stedsnr" v="608640" />
	</node>
	<node id="-21706" lat="59.0212472219" lon="11.0908222237">
		<tag k="name" v="Gravningsund" />
		<tag k="place" v="farm" />
		<tag k="ssr:stedsnr" v="721539" />
	</node>
	<node id="-22202" lat="59.0832111132" lon="11.0865916751">
		<tag k="name" v="Kornmo" />
		<tag k="place" v="isolated_dwelling" />
		<tag k="ssr:stedsnr" v="325392" />
	</node>
	<node id="-22201" lat="59.0538083301" lon="11.0688527745">
		<tag k="name" v="Brattli" />
		<tag k="place" v="isolated_dwelling" />
		<tag k="ssr:stedsnr" v="325376" />
	</node>
	<node id="-22200" lat="59.0508333356" lon="11.0623166684">
		<tag k="name" v="Solli" />
		<tag k="place" v="isolated_dwelling" />
		<tag k="ssr:stedsnr" v="325374" />
	</node>
	<node id="-21681" lat="59.0703527799" lon="11.0473999969">
		<tag k="name" v="Kollekasene" />
		<tag k="place" v="farm" />
		<tag k="ssr:stedsnr" v="600419" />
	</node>
	<node id="-22192" lat="59.0228083343" lon="11.0998722261">
		<tag k="name" v="Torbal" />
		<tag k="old_name" v="Torbøl" />
		<tag k="place" v="farm" />
		<tag k="ssr:stedsnr" v="325324" />
	</node>
	<node id="-22188" lat="59.0523833344" lon="10.9526055492">
		<tag k="name" v="Attjuka" />
		<tag k="place" v="farm" />
		<tag k="ssr:stedsnr" v="309601" />
	</node>
	<node id="-22215" lat="58.9816888933" lon="10.9571638935">
		<tag k="name" v="Enga" />
		<tag k="place" v="isolated_dwelling" />
		<tag k="ssr:stedsnr" v="357089" />
	</node>
	<node id="-21671" lat="59.0609416699" lon="10.9836138817">
		<tag k="name" v="Styvehavn" />
		<tag k="place" v="farm" />
		<tag k="ssr:stedsnr" v="539785" />
	</node>
	<node id="-21670" lat="59.0794027797" lon="10.9485888873">
		<tag k="name" v="Li" />
		<tag k="place" v="farm" />
		<tag k="ssr:stedsnr" v="539358" />
	</node>
	<node id="-22179" lat="59.0973220289" lon="10.9103044333">
		<tag k="fixme" v="consider place=suburb, village or hamlet" />
		<tag k="name" v="Skjelsbu" />
		<tag k="place" v="quarter" />
		<tag k="ssr:stedsnr" v="305598" />
	</node>
	<node id="-22178" lat="59.0630694468" lon="11.0231388806">
		<tag k="name" v="Ramsholt" />
		<tag k="place" v="isolated_dwelling" />
		<tag k="ssr:stedsnr" v="305587" />
	</node>
	<node id="-22176" lat="59.0713459725" lon="10.9067637892">
		<tag k="name" v="Spjær" />
		<tag k="place" v="hamlet" />
		<tag k="ssr:stedsnr" v="305551" />
	</node>
	<node id="-22175" lat="59.1011866729" lon="10.8920693203">
		<tag k="fixme" v="consider place=hamlet" />
		<tag k="name" v="Bankerød" />
		<tag k="place" v="farm" />
		<tag k="ssr:stedsnr" v="305719" />
	</node>
	<node id="-22174" lat="59.1022499999" lon="10.933874999">
		<tag k="name" v="Myrvoll" />
		<tag k="place" v="isolated_dwelling" />
		<tag k="ssr:stedsnr" v="305717" />
	</node>
	<node id="-21786" lat="59.0639944465" lon="11.0058194499">
		<tag k="name" v="Berget" />
		<tag k="place" v="isolated_dwelling" />
		<tag k="ssr:stedsnr" v="722411" />
	</node>
	<node id="-21658" lat="59.0763722231" lon="11.0540916586">
		<tag k="name" v="Havna" />
		<tag k="place" v="isolated_dwelling" />
		<tag k="ssr:stedsnr" v="507326" />
	</node>
	<node id="-22677" lat="59.0802648518" lon="11.0814476629">
		<tag k="fixme" v="consider place=hamlet" />
		<tag k="name" v="Etholmen" />
		<tag k="place" v="farm" />
		<tag k="ssr:stedsnr" v="1078339" />
	</node>
	<node id="-22676" lat="59.0313324836" lon="11.0238083251">
		<tag k="fixme" v="consider place=hamlet" />
		<tag k="name" v="Hvaler prestegård" />
		<tag k="place" v="farm" />
		<tag k="ssr:stedsnr" v="1078335" />
	</node>
	<node id="-22161" lat="59.0837694408" lon="10.9969555609">
		<tag k="name" v="Pulservik" />
		<tag k="place" v="neighbourhood" />
		<tag k="ssr:stedsnr" v="304566" />
	</node>
	<node id="-22160" lat="59.0847805567" lon="10.9283527694">
		<tag k="fixme" v="consider place=suburb, village or hamlet" />
		<tag k="name" v="Sand" />
		<tag k="place" v="quarter" />
		<tag k="ssr:stedsnr" v="304564" />
	</node>
	<node id="-22159" lat="59.0761972178" lon="10.9230250083">
		<tag k="name" v="Langeli" />
		<tag k="place" v="farm" />
		<tag k="ssr:stedsnr" v="304560" />
	</node>
	<node id="-21869" lat="59.0617138849" lon="11.0420694433">
		<tag k="name" v="Løkkebakken" />
		<tag k="place" v="isolated_dwelling" />
		<tag k="ssr:stedsnr" v="844810" />
	</node>
	<node id="-21644" lat="59.0811055546" lon="10.9554583408">
		<tag k="name" v="Lineset" />
		<tag k="place" v="farm" />
		<tag k="ssr:stedsnr" v="479406" />
	</node>
	<node id="-21643" lat="59.0790666694" lon="10.9398805495">
		<tag k="building" v="commercial" />
		<tag k="name" v="Nordre Rød" />
		<tag k="ssr:stedsnr" v="478980" />
	</node>
	<node id="-21641" lat="59.0819027769" lon="10.9489944358">
		<tag k="name" v="Neset" />
		<tag k="place" v="isolated_dwelling" />
		<tag k="ssr:stedsnr" v="478864" />
	</node>
	<node id="-22150" lat="59.101097226" lon="10.9257055606">
		<tag k="name" v="Tredalen" />
		<tag k="place" v="isolated_dwelling" />
		<tag k="ssr:stedsnr" v="184702" />
	</node>
	<node id="-21697" lat="59.0643666692" lon="11.0841277785">
		<tag k="name" v="Kilebrygga" />
		<tag k="place" v="isolated_dwelling" />
		<tag k="ssr:stedsnr" v="608574" />
	</node>
	<node id="-22148" lat="59.0423068115" lon="11.0315010669">
		<tag k="fixme" v="consider place=hamlet" />
		<tag k="name" v="Brekke" />
		<tag k="place" v="farm" />
		<tag k="ssr:stedsnr" v="184622" />
	</node>
	<node id="-22145" lat="59.0514482696" lon="11.0366384304">
		<tag k="alt_name" v="Gjurød" />
		<tag k="fixme" v="consider place=hamlet" />
		<tag k="name" v="Gjuerød" />
		<tag k="place" v="farm" />
		<tag k="ssr:stedsnr" v="184606" />
	</node>
	<node id="-22144" lat="59.0455221162" lon="11.0325298172">
		<tag k="fixme" v="consider place=hamlet" />
		<tag k="name" v="Svanekil" />
		<tag k="place" v="farm" />
		<tag k="ssr:stedsnr" v="184604" />
	</node>
	<node id="-21631" lat="59.1173999985" lon="11.1270249922">
		<tag k="name" v="Løkka" />
		<tag k="place" v="isolated_dwelling" />
		<tag k="ssr:stedsnr" v="669851" />
	</node>
	<node id="-22142" lat="59.0955444452" lon="10.9413888908">
		<tag k="alt_name" v="Østa" />
		<tag k="name" v="Østad" />
		<tag k="place" v="farm" />
		<tag k="ssr:stedsnr" v="184546" />
	</node>
	<node id="-21629" lat="59.1027264807" lon="10.8718780205">
		<tag k="fixme" v="consider place=suburb, village or hamlet" />
		<tag k="name" v="Hauge" />
		<tag k="place" v="quarter" />
		<tag k="ssr:stedsnr" v="669701" />
	</node>
	<node id="-21628" lat="59.1049972254" lon="10.9049166743">
		<tag k="alt_name" v="Ødegården" />
		<tag k="name" v="Øgarden" />
		<tag k="place" v="isolated_dwelling" />
		<tag k="ssr:stedsnr" v="669698" />
	</node>
	<node id="-22139" lat="59.0452440121" lon="11.1106091403">
		<tag k="alt_name" v="Makøy" />
		<tag k="fixme" v="consider place=hamlet" />
		<tag k="name" v="Makø" />
		<tag k="place" v="farm" />
		<tag k="ssr:stedsnr" v="184224" />
	</node>
	<node id="-22650" lat="59.1008321746" lon="10.9453597101">
		<tag k="name" v="Torbjørnsmyr" />
		<tag k="place" v="neighbourhood" />
		<tag k="ssr:stedsnr" v="981865" />
	</node>
	<node id="-21625" lat="59.0648499993" lon="11.0489000072">
		<tag k="name" v="Kasa" />
		<tag k="place" v="farm" />
		<tag k="ssr:stedsnr" v="669537" />
	</node>
	<node id="-22648" lat="59.0958474424" lon="10.9388087653">
		<tag k="alt_name" v="Sydenga" />
		<tag k="loc_name" v="Sørenga" />
		<tag k="name" v="Sydengen" />
		<tag k="place" v="farm" />
		<tag k="ssr:stedsnr" v="976273" />
	</node>
	<node id="-21623" lat="59.0555955525" lon="10.9367916266">
		<tag k="name" v="Huser" />
		<tag k="place" v="hamlet" />
		<tag k="ssr:stedsnr" v="669531" />
	</node>
	<node id="-22134" lat="59.0777250018" lon="10.8603000025">
		<tag k="name" v="Kasa" />
		<tag k="place" v="farm" />
		<tag k="ssr:stedsnr" v="183511" />
	</node>
	<node id="-22133" lat="59.0708500031" lon="11.0837972308">
		<tag k="alt_name" v="Røtet" />
		<tag k="name" v="Røte" />
		<tag k="place" v="isolated_dwelling" />
		<tag k="ssr:stedsnr" v="183479" />
	</node>
	<node id="-21355" lat="59.0292222236" lon="11.0943083406">
		<tag k="name" v="Sanne" />
		<tag k="place" v="isolated_dwelling" />
		<tag k="ssr:stedsnr" v="83311" />
	</node>
	<node id="-21619" lat="59.0294027755" lon="11.1007777782">
		<tag k="name" v="Dalsberg" />
		<tag k="place" v="isolated_dwelling" />
		<tag k="ssr:stedsnr" v="669206" />
	</node>
	<node id="-21618" lat="59.0173638868" lon="11.1053750076">
		<tag k="name" v="Gjøkvika" />
		<tag k="place" v="isolated_dwelling" />
		<tag k="ssr:stedsnr" v="669204" />
	</node>
	<node id="-21614" lat="59.0107166709" lon="11.0708583363">
		<tag k="name" v="Skjelleren" />
		<tag k="place" v="isolated_dwelling" />
		<tag k="ssr:stedsnr" v="668580" />
	</node>
	<node id="-21613" lat="59.0025749978" lon="11.0692638809">
		<tag k="alt_name" v="Venderen;Vennern" />
		<tag k="name" v="Venneren" />
		<tag k="place" v="locality" />
		<tag k="ssr:stedsnr" v="668576" />
	</node>
	<node id="-22124" lat="59.0897555599" lon="10.935072229">
		<tag k="alt_name" v="Bast;Bastø" />
		<tag k="name" v="Basto" />
		<tag k="place" v="farm" />
		<tag k="ssr:stedsnr" v="175987" />
	</node>
	<node id="-22123" lat="59.1106055571" lon="10.8531250051">
		<tag k="name" v="Langero" />
		<tag k="place" v="isolated_dwelling" />
		<tag k="ssr:stedsnr" v="175975" />
	</node>
	<node id="-22634" lat="59.0493694483" lon="11.0288888937">
		<tag k="alt_name" v="Tuten" />
		<tag k="name" v="Vestre Gjurød" />
		<tag k="place" v="farm" />
		<tag k="ssr:stedsnr" v="964847" />
	</node>
	<node id="-22440" lat="59.080080672" lon="10.8545429654">
		<tag k="name" v="Barm" />
		<tag k="place" v="farm" />
		<tag k="ssr:stedsnr" v="607547" />
	</node>
	<node id="-22631" lat="59.0580611129" lon="11.0333083381">
		<tag k="name" v="Bakken" />
		<tag k="place" v="isolated_dwelling" />
		<tag k="ssr:stedsnr" v="964795" />
	</node>
	<node id="-21606" lat="59.0780444409" lon="10.8712638964">
		<tag k="name" v="Bekkeviktangen" />
		<tag k="place" v="isolated_dwelling" />
		<tag k="ssr:stedsnr" v="661830" />
	</node>
	<node id="-21265" lat="59.0761226163" lon="10.9421524459">
		<tag k="name" v="Rød" />
		<tag k="place" v="hamlet" />
		<tag k="ssr:stedsnr" v="1558" />
	</node>
	<node id="-22115" lat="59.0800083297" lon="10.9028861047">
		<tag k="name" v="Ødegård" />
		<tag k="place" v="isolated_dwelling" />
		<tag k="ssr:stedsnr" v="175696" />
	</node>
	<node id="-22114" lat="59.0599361145" lon="10.9317916745">
		<tag k="name" v="Gravningen" />
		<tag k="place" v="farm" />
		<tag k="ssr:stedsnr" v="175684" />
	</node>
	<node id="-22112" lat="59.0442333319" lon="10.9964388966">
		<tag k="name" v="Store Rød" />
		<tag k="place" v="farm" />
		<tag k="ssr:stedsnr" v="175578" />
	</node>
	<node id="-21264" lat="59.0827583353" lon="10.9027416667">
		<tag k="name" v="Nygård" />
		<tag k="place" v="isolated_dwelling" />
		<tag k="ssr:stedsnr" v="1557" />
	</node>
	<node id="-21598" lat="59.0771000013" lon="11.0087472288">
		<tag k="name" v="Bakken" />
		<tag k="place" v="isolated_dwelling" />
		<tag k="ssr:stedsnr" v="661366" />
	</node>
	<node id="-22620" lat="59.0441472216" lon="10.9996250024">
		<tag k="name" v="Store Rød" />
		<tag k="place" v="farm" />
		<tag k="ssr:stedsnr" v="964567" />
	</node>
	<node id="-22107" lat="59.0660888866" lon="11.0051555587">
		<tag k="name" v="Bjerkelia" />
		<tag k="place" v="isolated_dwelling" />
		<tag k="ssr:stedsnr" v="175443" />
	</node>
	<node id="-22618" lat="59.067327774" lon="11.000030561">
		<tag k="name" v="Verpet" />
		<tag k="place" v="isolated_dwelling" />
		<tag k="ssr:stedsnr" v="964443" />
	</node>
	<node id="-21593" lat="59.0275972217" lon="11.0138583405">
		<tag k="name" v="Vadholmen" />
		<tag k="place" v="farm" />
		<tag k="ssr:stedsnr" v="661087" />
	</node>
	<node id="-21928" lat="59.0465305544" lon="11.0376138834">
		<tag k="name" v="Lønne" />
		<tag k="place" v="farm" />
		<tag k="ssr:stedsnr" v="965119" />
	</node>
	<node id="-21591" lat="59.0969694424" lon="10.8724861104">
		<tag k="name" v="Løkkeberg" />
		<tag k="place" v="isolated_dwelling" />
		<tag k="ssr:stedsnr" v="660893" />
	</node>
	<node id="-22102" lat="59.0303111141" lon="11.0401722141">
		<tag k="name" v="Skogen" />
		<tag k="place" v="farm" />
		<tag k="ssr:stedsnr" v="175084" />
	</node>
	<node id="-22613" lat="59.1096861106" lon="10.9067666741">
		<tag k="name" v="Storeklov" />
		<tag k="place" v="isolated_dwelling" />
		<tag k="ssr:stedsnr" v="964078" />
	</node>
	<node id="-22096" lat="59.0904112305" lon="10.9161877273">
		<tag k="alt_name" v="Djupedal" />
		<tag k="fixme" v="consider place=suburb, village or hamlet" />
		<tag k="name" v="Dypedal" />
		<tag k="place" v="quarter" />
		<tag k="ssr:stedsnr" v="162600" />
	</node>
	<node id="-22094" lat="59.1147972205" lon="10.8596055579">
		<tag k="fixme" v="consider place=hamlet" />
		<tag k="name" v="Papper" />
		<tag k="place" v="village" />
		<tag k="ssr:stedsnr" v="145167" />
	</node>
	<node id="-22604" lat="59.056194448" lon="11.0708138894">
		<tag k="name" v="Vesle Kjennvik" />
		<tag k="place" v="isolated_dwelling" />
		<tag k="ssr:stedsnr" v="872392" />
	</node>
	<node id="-21723" lat="59.0523676065" lon="11.0285653429">
		<tag k="fixme" v="consider place=hamlet" />
		<tag k="name" v="Sandbrekke" />
		<tag k="place" v="farm" />
		<tag k="ssr:stedsnr" v="722997" />
	</node>
	<node id="-22602" lat="59.0608166661" lon="11.076458327">
		<tag k="fixme" v="multiple name tags, choose one and add the other to alt_name" />
		<tag k="name" v="Skottet;Østli" />
		<tag k="place" v="isolated_dwelling" />
		<tag k="ssr:stedsnr" v="872384" />
	</node>
	<node id="-22089" lat="59.0831138847" lon="11.0726000075">
		<tag k="alt_name" v="Brevik" />
		<tag k="name" v="Bredvik" />
		<tag k="place" v="isolated_dwelling" />
		<tag k="ssr:stedsnr" v="143353" />
	</node>
	<node id="-22088" lat="59.0584805558" lon="11.0647666723">
		<tag k="name" v="Myra" />
		<tag k="place" v="farm" />
		<tag k="ssr:stedsnr" v="143331" />
	</node>
	<node id="-21573" lat="59.1162638885" lon="10.8948694496">
		<tag k="name" v="Sildevika" />
		<tag k="place" v="isolated_dwelling" />
		<tag k="ssr:stedsnr" v="660072" />
	</node>
	<node id="-21570" lat="59.046538891" lon="10.9642333406">
		<tag k="name" v="Håbu" />
		<tag k="place" v="farm" />
		<tag k="ssr:stedsnr" v="426625" />
	</node>
	<node id="-22594" lat="59.0611055521" lon="10.9567972212">
		<tag k="fixme" v="consider place=suburb, village or hamlet" />
		<tag k="name" v="Skipstadsand" />
		<tag k="place" v="quarter" />
		<tag k="ssr:stedsnr" v="851500" />
	</node>
	<node id="-21566" lat="59.0676750002" lon="11.0427916723">
		<tag k="name" v="Båtebakken" />
		<tag k="place" v="isolated_dwelling" />
		<tag k="ssr:stedsnr" v="418919" />
	</node>
	<node id="-22077" lat="59.09702965" lon="10.9375978481">
		<tag k="alt_name" v="Sydenga" />
		<tag k="name" v="Sydengen" />
		<tag k="place" v="quarter" />
		<tag k="ssr:stedsnr" v="123582" />
	</node>
	<node id="-22588" lat="59.0437491474" lon="10.9972272926">
		<tag k="fixme" v="consider place=hamlet" />
		<tag k="name" v="Rød" />
		<tag k="place" v="farm" />
		<tag k="ssr:stedsnr" v="851622" />
	</node>
	<node id="-21673" lat="59.0669861115" lon="11.0494666679">
		<tag k="name" v="Fjellholt" />
		<tag k="place" v="farm" />
		<tag k="ssr:stedsnr" v="540433" />
	</node>
	<node id="-21343" lat="59.087195211" lon="10.8843555345">
		<tag k="fixme" v="consider place=hamlet" />
		<tag k="name" v="Nedre Utgård" />
		<tag k="old_name" v="Nedre Ultgård" />
		<tag k="place" v="farm" />
		<tag k="ssr:stedsnr" v="244579" />
	</node>
	<node id="-22643" lat="59.0978333324" lon="10.8638027693">
		<tag k="name" v="Løkkevika" />
		<tag k="place" v="isolated_dwelling" />
		<tag k="ssr:stedsnr" v="964887" />
	</node>
	<node id="-22071" lat="59.1019749962" lon="11.1326999982">
		<tag k="alt_name" v="Skjærje" />
		<tag k="name" v="Skjerje" />
		<tag k="place" v="isolated_dwelling" />
		<tag k="ssr:stedsnr" v="122818" />
	</node>
	<node id="-22582" lat="59.0881472197" lon="11.0342499944">
		<tag k="name" v="Brønnløkka" />
		<tag k="place" v="farm" />
		<tag k="ssr:stedsnr" v="844029" />
	</node>
	<node id="-21427" lat="59.0723861146" lon="11.0074083251">
		<tag k="name" v="Østgård" />
		<tag k="place" v="farm" />
		<tag k="ssr:stedsnr" v="297424" />
	</node>
	<node id="-22576" lat="59.1019777795" lon="10.8698249959">
		<tag k="name" v="Damenga" />
		<tag k="place" v="isolated_dwelling" />
		<tag k="ssr:stedsnr" v="843702" />
	</node>
	<node id="-22536" lat="59.0209833358" lon="11.0880305496">
		<tag k="name" v="Skjellsand" />
		<tag k="place" v="locality" />
		<tag k="ssr:stedsnr" v="811295" />
	</node>
	<node id="-22062" lat="59.0021750041" lon="11.0780666659">
		<tag k="alt_name" v="Stuevik;Stuvika" />
		<tag k="name" v="Stuevika" />
		<tag k="old_name" v="Stueviken" />
		<tag k="place" v="farm" />
		<tag k="ssr:stedsnr" v="122579" />
	</node>
	<node id="-22060" lat="59.0976555587" lon="10.9043361041">
		<tag k="name" v="Lia" />
		<tag k="place" v="farm" />
		<tag k="ssr:stedsnr" v="122512" />
	</node>
	<node id="-21543" lat="58.9918250033" lon="11.0533527774">
		<tag k="name" v="Tårnebakken" />
		<tag k="place" v="locality" />
		<tag k="ssr:stedsnr" v="386877" />
	</node>
	<node id="-22053" lat="59.0730972227" lon="11.0680111051">
		<tag k="fixme" v="multiple name tags, choose one and add the other to alt_name" />
		<tag k="loc_name" v="Stavsenga" />
		<tag k="name" v="Stavsengen;Stavseng;Stafseng;Stafsengen" />
		<tag k="place" v="farm" />
		<tag k="ssr:stedsnr" v="119689" />
	</node>
	<node id="-21540" lat="59.0588638928" lon="11.0769861073">
		<tag k="name" v="Stensvik" />
		<tag k="place" v="isolated_dwelling" />
		<tag k="ssr:stedsnr" v="386357" />
	</node>
	<node id="-22051" lat="59.0588055548" lon="11.0090749932">
		<tag k="name" v="Sandvad" />
		<tag k="place" v="isolated_dwelling" />
		<tag k="ssr:stedsnr" v="115792" />
	</node>
	<node id="-21538" lat="59.0055010637" lon="11.0724950417">
		<tag k="fixme" v="consider place=hamlet" />
		<tag k="name" v="Sandø-Rød" />
		<tag k="place" v="farm" />
		<tag k="ssr:stedsnr" v="386321" />
	</node>
	<node id="-21595" lat="59.0875444467" lon="10.9236388923">
		<tag k="name" v="Kasa" />
		<tag k="place" v="farm" />
		<tag k="ssr:stedsnr" v="660992" />
	</node>
	<node id="-21680" lat="59.1155611079" lon="10.9010833323">
		<tag k="name" v="Latangen" />
		<tag k="place" v="isolated_dwelling" />
		<tag k="ssr:stedsnr" v="600027" />
	</node>
	<node id="-21534" lat="59.0092416654" lon="11.0128194479">
		<tag k="name" v="Sildebauen" />
		<tag k="place" v="isolated_dwelling" />
		<tag k="ssr:stedsnr" v="357939" />
	</node>
	<node id="-21949" lat="59.0999611118" lon="10.9422138964">
		<tag k="name" v="Nordsted" />
		<tag k="place" v="isolated_dwelling" />
		<tag k="ssr:stedsnr" v="53637" />
	</node>
	<node id="-22042" lat="59.0381888915" lon="11.0085499978">
		<tag k="name" v="Tangen" />
		<tag k="place" v="isolated_dwelling" />
		<tag k="ssr:stedsnr" v="115691" />
	</node>
	<node id="-22038" lat="59.0364611147" lon="10.9476222165">
		<tag k="name" v="Tauløs" />
		<tag k="place" v="isolated_dwelling" />
		<tag k="ssr:stedsnr" v="115648" />
	</node>
	<node id="-22037" lat="59.0342916658" lon="10.9454777765">
		<tag k="name" v="Halsen" />
		<tag k="place" v="isolated_dwelling" />
		<tag k="ssr:stedsnr" v="115647" />
	</node>
	<node id="-22036" lat="59.1030611121" lon="10.8649944369">
		<tag k="name" v="Saltvik" />
		<tag k="place" v="isolated_dwelling" />
		<tag k="ssr:stedsnr" v="115646" />
	</node>
	<node id="-22031" lat="59.0780722232" lon="10.8656111025">
		<tag k="name" v="Tangen" />
		<tag k="place" v="isolated_dwelling" />
		<tag k="ssr:stedsnr" v="115092" />
	</node>
	<node id="-22542" lat="59.0576944402" lon="11.0747472205">
		<tag k="name" v="Sundsvik" />
		<tag k="place" v="isolated_dwelling" />
		<tag k="ssr:stedsnr" v="811335" />
	</node>
	<node id="-22029" lat="59.1112833357" lon="10.8865055594">
		<tag k="name" v="Sandvika" />
		<tag k="place" v="isolated_dwelling" />
		<tag k="ssr:stedsnr" v="115066" />
	</node>
	<node id="-21516" lat="59.0762786146" lon="10.9484764148">
		<tag k="fixme" v="consider place=hamlet" />
		<tag k="name" v="Li" />
		<tag k="place" v="farm" />
		<tag k="ssr:stedsnr" v="486560" />
	</node>
	<node id="-21514" lat="59.1071749972" lon="11.1236250064">
		<tag k="name" v="Kverndalen" />
		<tag k="place" v="isolated_dwelling" />
		<tag k="ssr:stedsnr" v="486842" />
	</node>
	<node id="-22024" lat="59.0824333376" lon="11.0326555577">
		<tag k="name" v="Berget" />
		<tag k="place" v="locality" />
		<tag k="ssr:stedsnr" v="115001" />
	</node>
	<node id="-22535" lat="59.0215111136" lon="11.0956666646">
		<tag k="name" v="Gravningen" />
		<tag k="place" v="isolated_dwelling" />
		<tag k="ssr:stedsnr" v="811292" />
	</node>
	<node id="-21510" lat="59.0804944403" lon="11.0255777694">
		<tag k="name" v="Dammyr" />
		<tag k="place" v="farm" />
		<tag k="ssr:stedsnr" v="486519" />
	</node>
	<node id="-21509" lat="59.0791722238" lon="10.9896722252">
		<tag k="alt_name" v="Alkestein" />
		<tag k="name" v="Alkesten" />
		<tag k="place" v="farm" />
		<tag k="ssr:stedsnr" v="486518" />
	</node>
	<node id="-21846" lat="59.0656916663" lon="11.0064083364">
		<tag k="name" v="Korsmo" />
		<tag k="place" v="isolated_dwelling" />
		<tag k="ssr:stedsnr" v="782408" />
	</node>
	<node id="-21466" lat="59.1069959642" lon="11.1307727244">
		<tag k="alt_name" v="Singlø" />
		<tag k="fixme" v="consider place=hamlet" />
		<tag k="name" v="Singløy" />
		<tag k="place" v="farm" />
		<tag k="ssr:stedsnr" v="244855" />
	</node>
</osm>
