<?xml version="1.0" encoding="UTF-8"?>
<<<<<<< HEAD
<osm version="0.6" generator="osmapis">
	<node lat="59.02784444744205" lon="11.018733329233042" id="-20979">
=======
<osm generator="osmapis" version="0.6">
	<node id="-233277" lat="58.9837222209" lon="10.9718277692">
>>>>>>> e1d4bc35ff8a6074a6f2e91616a996b547c36f15
		<tag k="fixme" v="consider boundary=protected_area and relevant protect_class if not nature reserve" />
		<tag k="leisure" v="nature_reserve" />
		<tag k="name" v="Hvaler prestegårdsskog 1 naturreservat" />
		<tag k="ssr:stedsnr" v="600105" />
	</node>
<<<<<<< HEAD
	<node lat="59.03226111146709" lon="11.017702782894787" id="-20981">
=======
	<node id="-232892" lat="59.0426972233" lon="10.8892138953">
>>>>>>> e1d4bc35ff8a6074a6f2e91616a996b547c36f15
		<tag k="fixme" v="consider boundary=protected_area and relevant protect_class if not nature reserve" />
		<tag k="leisure" v="nature_reserve" />
		<tag k="name" v="Hvaler prestegårdsskog 2 naturreservat" />
		<tag k="ssr:stedsnr" v="600109" />
	</node>
<<<<<<< HEAD
	<node lat="58.95439166847296" lon="10.877583334366129" id="-21227">
=======
	<node id="-233273" lat="59.0406611136" lon="10.8439722187">
>>>>>>> e1d4bc35ff8a6074a6f2e91616a996b547c36f15
		<tag k="fixme" v="consider boundary=protected_area and relevant protect_class if not nature reserve" />
		<tag k="leisure" v="nature_reserve" />
		<tag k="name" v="Heia naturreservat" />
		<tag k="ssr:stedsnr" v="908106" />
	</node>
	<node lat="59.04269722334446" lon="10.889213895289817" id="-21348">
		<tag k="fixme" v="consider boundary=protected_area and relevant protect_class if not nature reserve" />
		<tag k="leisure" v="nature_reserve" />
		<tag k="name" v="Akerøya naturreservat" />
		<tag k="ssr:stedsnr" v="115060" />
	</node>
<<<<<<< HEAD
	<node lat="59.106550003427046" lon="10.851563890330537" id="-21397">
=======
	<node id="-232978" lat="59.1065500034" lon="10.8515638903">
>>>>>>> e1d4bc35ff8a6074a6f2e91616a996b547c36f15
		<tag k="fixme" v="consider boundary=protected_area and relevant protect_class if not nature reserve" />
		<tag k="leisure" v="nature_reserve" />
		<tag k="name" v="Stensdalen naturreservat" />
		<tag k="ssr:stedsnr" v="175682" />
	</node>
<<<<<<< HEAD
	<node lat="59.04300555670656" lon="11.014183341090797" id="-21436">
=======
	<node id="-232270" lat="59.0430055567" lon="11.0141833411">
>>>>>>> e1d4bc35ff8a6074a6f2e91616a996b547c36f15
		<tag k="fixme" v="consider boundary=protected_area and relevant protect_class if not nature reserve" />
		<tag k="leisure" v="nature_reserve" />
		<tag k="name" v="Arekilen naturreservat" />
		<tag k="ssr:stedsnr" v="296578" />
	</node>
<<<<<<< HEAD
	<node lat="59.040661113584186" lon="10.843972218711281" id="-21650">
=======
	<node id="-233291" lat="59.0322611115" lon="11.0177027829">
		<tag k="fixme" v="consider boundary=protected_area and relevant protect_class if not nature reserve" />
		<tag k="leisure" v="nature_reserve" />
		<tag k="name" v="Hvaler prestegårdsskog 2 naturreservat" />
		<tag k="ssr:stedsnr" v="600109" />
	</node>
	<node id="-233289" lat="59.0278444474" lon="11.0187333292">
>>>>>>> e1d4bc35ff8a6074a6f2e91616a996b547c36f15
		<tag k="fixme" v="consider boundary=protected_area and relevant protect_class if not nature reserve" />
		<tag k="leisure" v="nature_reserve" />
		<tag k="name" v="Ytre Hvaler nasjonalpark" />
		<tag k="ssr:stedsnr" v="586235" />
	</node>
<<<<<<< HEAD
	<node lat="58.98372222091022" lon="10.971827769228932" id="-21652">
=======
	<node id="-232676" lat="58.9543916685" lon="10.8775833344">
>>>>>>> e1d4bc35ff8a6074a6f2e91616a996b547c36f15
		<tag k="fixme" v="consider boundary=protected_area and relevant protect_class if not nature reserve" />
		<tag k="leisure" v="nature_reserve" />
		<tag k="name" v="Møren naturreservat" />
		<tag k="ssr:stedsnr" v="599074" />
	</node>
</osm>
