<?xml version="1.0" encoding="UTF-8"?>
<osm version="0.6" generator="osmapis">
	<node lat="59.04910834957194" lon="11.104568596286324" id="-25737">
		<tag k="alt_name" v="Apalvika" />
		<tag k="name" v="Apalvik" />
		<tag k="natural" v="bay" />
		<tag k="ssr:stedsnr" v="1220" />
	</node>
	<node lat="59.07776944532359" lon="11.09476666580911" id="-25738">
		<tag k="name" v="Hvitsten" />
		<tag k="place" v="islet" />
		<tag k="ssr:stedsnr" v="1229" />
	</node>
	<node lat="59.04631666824939" lon="10.930119440249609" id="-25739">
		<tag k="name" v="Landfastodden" />
		<tag k="natural" v="cape" />
		<tag k="ssr:stedsnr" v="1606" />
	</node>
	<node lat="59.031697225981624" lon="10.915972216683583" id="-25740">
		<tag k="name" v="Gjøtegrunnen" />
		<tag k="natural" v="shoal" />
		<tag k="place" v="locality" />
		<tag k="ssr:stedsnr" v="2624" />
	</node>
	<node lat="58.999202781037624" lon="11.054802770329347" id="-25742">
		<tag k="fixme" v="consider seamark:type=rock or natural=shoal" />
		<tag k="name" v="Gule Knubben" />
		<tag k="place" v="islet" />
		<tag k="ssr:stedsnr" v="22306" />
	</node>
	<node lat="58.99783055425506" lon="11.074758340271284" id="-25743">
		<tag k="name" v="Store Bryggeholmen" />
		<tag k="place" v="islet" />
		<tag k="ssr:stedsnr" v="22318" />
	</node>
	<node lat="59.06155833508156" lon="11.08383056361075" id="-25744">
		<tag k="fixme" v="consider seamark:type=rock or natural=shoal" />
		<tag k="name" v="Vadskjær" />
		<tag k="place" v="islet" />
		<tag k="ssr:stedsnr" v="22332" />
	</node>
	<node lat="59.09668611188853" lon="11.128883337951475" id="-25746">
		<tag k="name" v="Ankerstokken" />
		<tag k="place" v="islet" />
		<tag k="ssr:stedsnr" v="22394" />
	</node>
	<node lat="59.08001110722832" lon="10.96827499787583" id="-25758">
		<tag k="alt_name" v="Løperhodet" />
		<tag k="name" v="Løperhuet" />
		<tag k="natural" v="cape" />
		<tag k="ssr:stedsnr" v="54414" />
	</node>
	<node lat="59.055247226100484" lon="10.87044167073774" id="-25761">
		<tag k="fixme" v="consider seamark:type=rock or natural=shoal" />
		<tag k="name" v="Øyflu" />
		<tag k="place" v="islet" />
		<tag k="ssr:stedsnr" v="54702" />
	</node>
	<node lat="59.04206388967635" lon="10.921775006556814" id="-25762">
		<tag k="name" v="Landfastgrunnene" />
		<tag k="natural" v="shoal" />
		<tag k="place" v="locality" />
		<tag k="ssr:stedsnr" v="54718" />
	</node>
	<node lat="58.987872225919176" lon="11.033416660381658" id="-25764">
		<tag k="name" v="Lassekrakken" />
		<tag k="natural" v="shoal" />
		<tag k="place" v="locality" />
		<tag k="ssr:stedsnr" v="54613" />
	</node>
	<node lat="59.087941663546175" lon="11.042180550437815" id="-25766">
		<tag k="name" v="Ødegårdskilen" />
		<tag k="natural" v="bay" />
		<tag k="ssr:stedsnr" v="54905" />
	</node>
	<node lat="59.00168611002454" lon="11.001322221120146" id="-25768">
		<tag k="loc_name" v="Lauerflu" />
		<tag k="name" v="Vestre Lauerflu" />
		<tag k="place" v="locality" />
		<tag k="seamark:type" v="rock" />
		<tag k="ssr:stedsnr" v="54916" />
	</node>
	<node lat="58.98929722337546" lon="11.068258329917086" id="-25770">
		<tag k="name" v="Hollendergrunnen" />
		<tag k="natural" v="shoal" />
		<tag k="place" v="locality" />
		<tag k="ssr:stedsnr" v="54921" />
	</node>
	<node lat="59.07113055809611" lon="11.096977784899671" id="-25771">
		<tag k="name" v="Edsflua" />
		<tag k="place" v="locality" />
		<tag k="seamark:type" v="rock" />
		<tag k="ssr:stedsnr" v="54872" />
	</node>
	<node lat="59.08918333067048" lon="11.0877972252611" id="-25772">
		<tag k="name" v="Våtteskjærgrunnen" />
		<tag k="natural" v="shoal" />
		<tag k="place" v="locality" />
		<tag k="ssr:stedsnr" v="54873" />
	</node>
	<node lat="59.07464999661662" lon="11.095427778218857" id="-25779">
		<tag k="name" v="Trefura" />
		<tag k="place" v="islet" />
		<tag k="ssr:stedsnr" v="62204" />
	</node>
	<node lat="59.107258330943544" lon="10.958799994933829" id="-25780">
		<tag k="name" v="Ingerholmen" />
		<tag k="place" v="islet" />
		<tag k="ssr:stedsnr" v="62708" />
	</node>
	<node lat="59.09317499747778" lon="10.835474999323907" id="-25783">
		<tag k="name" v="Hverven" />
		<tag k="natural" v="bay" />
		<tag k="ssr:stedsnr" v="62721" />
	</node>
	<node lat="59.01234999788415" lon="11.041599995566505" id="-25785">
		<tag k="name" v="Børholmen" />
		<tag k="place" v="islet" />
		<tag k="ssr:stedsnr" v="62567" />
	</node>
	<node lat="59.03094698018212" lon="10.945219631670103" id="-25786">
		<tag k="name" v="Vikertangen" />
		<tag k="natural" v="cape" />
		<tag k="ssr:stedsnr" v="62623" />
	</node>
	<node lat="59.05339999785581" lon="11.104149994827099" id="-25787">
		<tag k="name" v="Skånholmen" />
		<tag k="place" v="islet" />
		<tag k="ssr:stedsnr" v="63309" />
	</node>
	<node lat="59.025644441464124" lon="10.898575000926632" id="-25788">
		<tag k="name" v="Trestenene" />
		<tag k="place" v="islet" />
		<tag k="ssr:stedsnr" v="296053" />
	</node>
	<node lat="59.10398888557393" lon="10.957441659615803" id="-25789">
		<tag k="fixme" v="consider seamark:type=rock or natural=shoal" />
		<tag k="name" v="Skjæret" />
		<tag k="place" v="islet" />
		<tag k="ssr:stedsnr" v="67403" />
	</node>
	<node lat="59.10009444738367" lon="11.042291672481154" id="-25790">
		<tag k="name" v="Vestre Damholmen" />
		<tag k="place" v="islet" />
		<tag k="ssr:stedsnr" v="67408" />
	</node>
	<node lat="59.048683331607826" lon="10.964511104271745" id="-25791">
		<tag k="name" v="Håbubukta" />
		<tag k="natural" v="bay" />
		<tag k="ssr:stedsnr" v="67587" />
	</node>
	<node lat="59.07026388651532" lon="10.990186112159446" id="-25792">
		<tag k="name" v="Renna" />
		<tag k="natural" v="strait" />
		<tag k="ssr:stedsnr" v="67932" />
	</node>
	<node lat="59.12474999821462" lon="10.85893888635774" id="-25793">
		<tag k="name" v="Reiersbukta" />
		<tag k="natural" v="bay" />
		<tag k="ssr:stedsnr" v="297376" />
	</node>
	<node lat="59.097713886503094" lon="11.046863897127663" id="-25794">
		<tag k="name" v="Østre Damholmen" />
		<tag k="place" v="islet" />
		<tag k="ssr:stedsnr" v="69405" />
	</node>
	<node lat="59.024655559797985" lon="11.096572218406159" id="-25797">
		<tag k="name" v="Buholmen" />
		<tag k="place" v="islet" />
		<tag k="ssr:stedsnr" v="83315" />
	</node>
	<node lat="59.02887777563249" lon="11.053344445025568" id="-25798">
		<tag k="name" v="Skårsnesbukta" />
		<tag k="natural" v="bay" />
		<tag k="ssr:stedsnr" v="83316" />
	</node>
	<node lat="59.085852776126266" lon="11.088838888574035" id="-25801">
		<tag k="fixme" v="consider seamark:type=rock or natural=shoal" />
		<tag k="name" v="Vellingsten" />
		<tag k="place" v="islet" />
		<tag k="ssr:stedsnr" v="83419" />
	</node>
	<node lat="59.13394722289519" lon="10.849755553356534" id="-25806">
		<tag k="fixme" v="consider seamark:type=rock or natural=shoal" />
		<tag k="name" v="Pilleren" />
		<tag k="place" v="islet" />
		<tag k="ssr:stedsnr" v="235290" />
	</node>
	<node lat="59.04617778215225" lon="10.865225001781434" id="-25807">
		<tag k="name" v="Veslehavna" />
		<tag k="natural" v="strait" />
		<tag k="ssr:stedsnr" v="236067" />
	</node>
	<node lat="58.98055277933818" lon="10.946274996549807" id="-25809">
		<tag k="fixme" v="consider seamark:type=rock or natural=shoal" />
		<tag k="name" v="Knubben" />
		<tag k="place" v="islet" />
		<tag k="ssr:stedsnr" v="236087" />
	</node>
	<node lat="59.08943055108304" lon="11.006047225201668" id="-25811">
		<tag k="name" v="Furuholmsundet" />
		<tag k="natural" v="strait" />
		<tag k="ssr:stedsnr" v="236362" />
	</node>
	<node lat="59.075186113776965" lon="11.040480547215873" id="-25814">
		<tag k="name" v="Skipholmen" />
		<tag k="place" v="islet" />
		<tag k="ssr:stedsnr" v="236431" />
	</node>
	<node lat="59.04472500383748" lon="11.046641670354779" id="-25816">
		<tag k="name" v="Karvika" />
		<tag k="natural" v="bay" />
		<tag k="ssr:stedsnr" v="236476" />
	</node>
	<node lat="59.07424444248365" lon="10.868719441748226" id="-25817">
		<tag k="fixme" v="consider seamark:type=rock or natural=shoal" />
		<tag k="name" v="Torskeskjær" />
		<tag k="place" v="islet" />
		<tag k="ssr:stedsnr" v="236558" />
	</node>
	<node lat="59.10527777701498" lon="10.847547230898552" id="-25819">
		<tag k="name" v="Grunnet" />
		<tag k="natural" v="strait" />
		<tag k="ssr:stedsnr" v="236570" />
	</node>
	<node lat="59.103813890030494" lon="10.839297223231595" id="-25823">
		<tag k="name" v="Salterbukta" />
		<tag k="natural" v="bay" />
		<tag k="ssr:stedsnr" v="114613" />
	</node>
	<node lat="59.04719444151784" lon="10.868347228302472" id="-25824">
		<tag k="loc_name" v="Veslesundet" />
		<tag k="name" v="Veslesund" />
		<tag k="natural" v="strait" />
		<tag k="ssr:stedsnr" v="115064" />
	</node>
	<node lat="59.11950555142411" lon="10.894419443723844" id="-25826">
		<tag k="name" v="Snørn" />
		<tag k="place" v="islet" />
		<tag k="ssr:stedsnr" v="115082" />
	</node>
	<node lat="58.98358888599205" lon="10.869461116134078" id="-25827">
		<tag k="name" v="Søndre Kollekrakken" />
		<tag k="natural" v="shoal" />
		<tag k="place" v="locality" />
		<tag k="ssr:stedsnr" v="236691" />
	</node>
	<node lat="59.057676492391565" lon="10.880064028154287" id="-25828">
		<tag k="name" v="Kalkegrunnen" />
		<tag k="natural" v="shoal" />
		<tag k="place" v="locality" />
		<tag k="ssr:stedsnr" v="115669" />
	</node>
	<node lat="59.069330557953485" lon="10.98240554966574" id="-25829">
		<tag k="name" v="Kjerringholmsundet" />
		<tag k="natural" v="strait" />
		<tag k="ssr:stedsnr" v="115916" />
	</node>
	<node lat="58.995722218066426" lon="11.03913610659674" id="-25831">
		<tag k="name" v="Kaffebukta" />
		<tag k="natural" v="bay" />
		<tag k="ssr:stedsnr" v="236937" />
	</node>
	<node lat="59.11135833454091" lon="10.803544449240224" id="-25837">
		<tag k="name" v="Skorstenene" />
		<tag k="natural" v="shoal" />
		<tag k="place" v="locality" />
		<tag k="ssr:stedsnr" v="122678" />
	</node>
	<node lat="59.102044446693846" lon="10.818352773248954" id="-25838">
		<tag k="fixme" v="consider seamark:type=rock or natural=shoal" />
		<tag k="name" v="Nordbåene" />
		<tag k="place" v="islet" />
		<tag k="ssr:stedsnr" v="122683" />
	</node>
	<node lat="58.98871388795856" lon="11.037538890216622" id="-25840">
		<tag k="name" v="Blykista" />
		<tag k="natural" v="shoal" />
		<tag k="place" v="locality" />
		<tag k="ssr:stedsnr" v="122764" />
	</node>
	<node lat="58.98060555904472" lon="10.914330548076645" id="-25841">
		<tag k="name" v="Alnadjupet" />
		<tag k="natural" v="strait" />
		<tag k="ssr:stedsnr" v="122765" />
	</node>
	<node lat="58.975975004047825" lon="10.956091663146614" id="-25842">
		<tag k="name" v="Kløveren" />
		<tag k="place" v="island" />
		<tag k="ssr:stedsnr" v="122766" />
	</node>
	<node lat="58.94913611015444" lon="10.919958326193093" id="-25843">
		<tag k="name" v="Nordre Breidgrunnen" />
		<tag k="natural" v="shoal" />
		<tag k="place" v="locality" />
		<tag k="ssr:stedsnr" v="122778" />
	</node>
	<node lat="59.07930000414624" lon="11.103180561996979" id="-25844">
		<tag k="name" v="Sletta" />
		<tag k="place" v="islet" />
		<tag k="ssr:stedsnr" v="123215" />
	</node>
	<node lat="59.092908334940155" lon="11.046347218736905" id="-25845">
		<tag k="name" v="Kuholmene" />
		<tag k="place" v="islet" />
		<tag k="ssr:stedsnr" v="123577" />
	</node>
	<node lat="59.02978055282656" lon="10.98462222635749" id="-25847">
		<tag k="fixme" v="consider seamark:type=rock or natural=shoal" />
		<tag k="name" v="Galtene" />
		<tag k="place" v="islet" />
		<tag k="ssr:stedsnr" v="123660" />
	</node>
	<node lat="59.03042499951302" lon="11.010499999057112" id="-25848">
		<tag k="name" v="Ørekroken" />
		<tag k="natural" v="bay" />
		<tag k="ssr:stedsnr" v="123661" />
	</node>
	<node lat="59.038150004454586" lon="10.987788887641297" id="-25849">
		<tag k="name" v="Lille Rødshue" />
		<tag k="natural" v="cape" />
		<tag k="ssr:stedsnr" v="123670" />
	</node>
	<node lat="59.12979721960169" lon="10.899391667333875" id="-25850">
		<tag k="alt_name" v="Johanholmene" />
		<tag k="name" v="Måsholmene" />
		<tag k="place" v="islet" />
		<tag k="ssr:stedsnr" v="123756" />
	</node>
	<node lat="59.02450278157148" lon="11.083908337614519" id="-25857">
		<tag k="name" v="Hollungholmen" />
		<tag k="place" v="islet" />
		<tag k="ssr:stedsnr" v="143280" />
	</node>
	<node lat="59.015480552075104" lon="11.059430554883816" id="-25858">
		<tag k="name" v="Krossholmen" />
		<tag k="place" v="islet" />
		<tag k="ssr:stedsnr" v="143282" />
	</node>
	<node lat="58.99639722520627" lon="11.077041665138397" id="-25859">
		<tag k="name" v="Ringtangen" />
		<tag k="natural" v="cape" />
		<tag k="ssr:stedsnr" v="143304" />
	</node>
	<node lat="58.99998248325019" lon="11.074957513520483" id="-25860">
		<tag k="name" v="Feholmen" />
		<tag k="natural" v="cape" />
		<tag k="ssr:stedsnr" v="143309" />
	</node>
	<node lat="59.043944443563326" lon="11.090350005781946" id="-25861">
		<tag k="name" v="Alteren" />
		<tag k="natural" v="cape" />
		<tag k="ssr:stedsnr" v="143327" />
	</node>
	<node lat="59.04607778197651" lon="11.061249996092208" id="-25863">
		<tag k="name" v="Gittholmen" />
		<tag k="place" v="islet" />
		<tag k="ssr:stedsnr" v="144386" />
	</node>
	<node lat="59.051338893018155" lon="11.109338891325757" id="-25864">
		<tag k="name" v="Tordenskjoldbukta" />
		<tag k="natural" v="bay" />
		<tag k="ssr:stedsnr" v="144395" />
	</node>
	<node lat="59.04963055647014" lon="11.1150472258599" id="-25865">
		<tag k="name" v="Dypsund" />
		<tag k="natural" v="strait" />
		<tag k="ssr:stedsnr" v="326393" />
	</node>
	<node lat="58.97383611341457" lon="10.847863887437114" id="-25866">
		<tag k="fixme" v="consider seamark:type=rock or natural=shoal" />
		<tag k="name" v="Storribba" />
		<tag k="place" v="islet" />
		<tag k="ssr:stedsnr" v="243775" />
	</node>
	<node lat="59.023774685440124" lon="11.09971915672258" id="-25867">
		<tag k="name" v="Buvika" />
		<tag k="natural" v="bay" />
		<tag k="ssr:stedsnr" v="244231" />
	</node>
	<node lat="59.03366110855918" lon="10.97519166340052" id="-25868">
		<tag k="fixme" v="consider seamark:type=rock or natural=shoal" />
		<tag k="name" v="Kvernskjær" />
		<tag k="place" v="islet" />
		<tag k="ssr:stedsnr" v="244657" />
	</node>
	<node lat="59.06464722528773" lon="10.8328388894698" id="-25869">
		<tag k="name" v="Bliagrunnene" />
		<tag k="natural" v="shoal" />
		<tag k="place" v="locality" />
		<tag k="ssr:stedsnr" v="244565" />
	</node>
	<node lat="59.08872499848706" lon="10.83895000732792" id="-25870">
		<tag k="name" v="Tjeldholmen" />
		<tag k="place" v="islet" />
		<tag k="ssr:stedsnr" v="244572" />
	</node>
	<node lat="59.09159999753653" lon="10.961600001225564" id="-25872">
		<tag k="name" v="Møren" />
		<tag k="place" v="islet" />
		<tag k="ssr:stedsnr" v="244582" />
	</node>
	<node lat="59.08272222435725" lon="10.846858328295562" id="-25873">
		<tag k="name" v="Guttormsvauen" />
		<tag k="natural" v="bay" />
		<tag k="ssr:stedsnr" v="244588" />
	</node>
	<node lat="59.06820555680325" lon="10.970286111350633" id="-25874">
		<tag k="name" v="Løperen" />
		<tag k="natural" v="strait" />
		<tag k="ssr:stedsnr" v="244661" />
	</node>
	<node lat="59.04224999875498" lon="10.878588886016356" id="-25875">
		<tag k="fixme" v="consider seamark:type=rock or natural=shoal" />
		<tag k="loc_name" v="Øfluene" />
		<tag k="name" v="Øyskjæra" />
		<tag k="place" v="islet" />
		<tag k="ssr:stedsnr" v="244631" />
	</node>
	<node lat="59.0446722202634" lon="11.071472216252106" id="-25876">
		<tag k="name" v="Høkeliholmen" />
		<tag k="place" v="islet" />
		<tag k="ssr:stedsnr" v="244639" />
	</node>
	<node lat="59.100819448765776" lon="11.093219440875115" id="-25877">
		<tag k="alt_name" v="Gunilla" />
		<tag k="name" v="Gunnilla" />
		<tag k="place" v="islet" />
		<tag k="ssr:stedsnr" v="244731" />
	</node>
	<node lat="59.10447500285626" lon="11.037225003438321" id="-25878">
		<tag k="fixme" v="consider seamark:type=rock or natural=shoal" />
		<tag k="name" v="Hollenderen" />
		<tag k="place" v="islet" />
		<tag k="ssr:stedsnr" v="244737" />
	</node>
	<node lat="59.116799999461286" lon="10.911999999561223" id="-25879">
		<tag k="name" v="Dalsholmen" />
		<tag k="natural" v="cape" />
		<tag k="ssr:stedsnr" v="244754" />
	</node>
	<node lat="59.12197500020761" lon="10.901975005187847" id="-25880">
		<tag k="name" v="Langenesholmen" />
		<tag k="place" v="islet" />
		<tag k="ssr:stedsnr" v="244763" />
	</node>
	<node lat="58.980391669968235" lon="10.956255563983971" id="-25881">
		<tag k="name" v="Tisler" />
		<tag k="place" v="island" />
		<tag k="ssr:stedsnr" v="244786" />
	</node>
	<node lat="59.09770277964008" lon="11.13757500072185" id="-25882">
		<tag k="alt_name" v="Singløkalven;Singløykalven" />
		<tag k="name" v="Singlekalven" />
		<tag k="place" v="islet" />
		<tag k="ssr:stedsnr" v="244837" />
	</node>
	<node lat="58.99888333427173" lon="11.011641668207712" id="-25887">
		<tag k="name" v="Tvillingene" />
		<tag k="place" v="islet" />
		<tag k="ssr:stedsnr" v="174210" />
	</node>
	<node lat="59.07935278143143" lon="10.966055548198637" id="-25888">
		<tag k="name" v="Russebukta" />
		<tag k="natural" v="bay" />
		<tag k="ssr:stedsnr" v="175407" />
	</node>
	<node lat="59.0810694426223" lon="10.95899722747828" id="-25889">
		<tag k="name" v="Lille Ingerholmen" />
		<tag k="place" v="islet" />
		<tag k="ssr:stedsnr" v="175408" />
	</node>
	<node lat="59.124708331262354" lon="10.868233327023075" id="-25890">
		<tag k="fixme" v="consider seamark:type=rock or natural=shoal" />
		<tag k="name" v="Seiløystanga" />
		<tag k="place" v="islet" />
		<tag k="ssr:stedsnr" v="175482" />
	</node>
	<node lat="59.09233888703591" lon="10.837652773050612" id="-25893">
		<tag k="name" v="Kuvautangen" />
		<tag k="natural" v="cape" />
		<tag k="ssr:stedsnr" v="175904" />
	</node>
	<node lat="58.994419441009555" lon="11.035752780005751" id="-25895">
		<tag k="name" v="Hytta" />
		<tag k="natural" v="bay" />
		<tag k="ssr:stedsnr" v="175918" />
	</node>
	<node lat="59.12757500234074" lon="10.879991661280899" id="-25896">
		<tag k="alt_name" v="Bommegrunnen, n" />
		<tag k="name" v="Nordre Bommegrunnen" />
		<tag k="natural" v="shoal" />
		<tag k="place" v="locality" />
		<tag k="ssr:stedsnr" v="175872" />
	</node>
	<node lat="58.97088055640284" lon="10.891208340224658" id="-25905">
		<tag k="name" v="Heiholet" />
		<tag k="natural" v="strait" />
		<tag k="ssr:stedsnr" v="182757" />
	</node>
	<node lat="59.11528611459497" lon="10.961947227759447" id="-25907">
		<tag k="fixme" v="consider seamark:type=rock or natural=shoal" />
		<tag k="name" v="Gåseskjær" />
		<tag k="place" v="islet" />
		<tag k="ssr:stedsnr" v="183701" />
	</node>
	<node lat="59.05961666522507" lon="11.110663880702228" id="-25908">
		<tag k="fixme" v="consider seamark:type=rock or natural=shoal" />
		<tag k="name" v="Vestre Rødskjær" />
		<tag k="place" v="islet" />
		<tag k="ssr:stedsnr" v="184209" />
	</node>
	<node lat="59.04295000277922" lon="11.112150001436817" id="-25910">
		<tag k="alt_name" v="Makøsundet" />
		<tag k="name" v="Makøysundet" />
		<tag k="natural" v="strait" />
		<tag k="ssr:stedsnr" v="184225" />
	</node>
	<node lat="59.07722500088545" lon="11.059630550552507" id="-25912">
		<tag k="fixme" v="consider seamark:type=rock or natural=shoal" />
		<tag k="name" v="Vaskekluten" />
		<tag k="place" v="islet" />
		<tag k="ssr:stedsnr" v="204311" />
	</node>
	<node lat="59.08766944678353" lon="11.05504166041242" id="-25913">
		<tag k="name" v="Ertholmsundet" />
		<tag k="natural" v="strait" />
		<tag k="ssr:stedsnr" v="204352" />
	</node>
	<node lat="59.08401944837594" lon="11.085602774759362" id="-25914">
		<tag k="name" v="Vrangbenet" />
		<tag k="natural" v="strait" />
		<tag k="ssr:stedsnr" v="204354" />
	</node>
	<node lat="59.053297225461165" lon="10.88920277614331" id="-25921">
		<tag k="name" v="Trelltangen" />
		<tag k="natural" v="cape" />
		<tag k="ssr:stedsnr" v="236050" />
	</node>
	<node lat="59.11605277638388" lon="10.884688891347777" id="-25922">
		<tag k="name" v="Granholmen" />
		<tag k="place" v="islet" />
		<tag k="ssr:stedsnr" v="236052" />
	</node>
	<node lat="59.05213333106599" lon="10.871544439695457" id="-25923">
		<tag k="fixme" v="consider seamark:type=rock or natural=shoal" />
		<tag k="name" v="Øflu" />
		<tag k="place" v="islet" />
		<tag k="ssr:stedsnr" v="236057" />
	</node>
	<node lat="59.026241666029065" lon="11.009666664927193" id="-25924">
		<tag k="name" v="Vadholmtangen" />
		<tag k="natural" v="cape" />
		<tag k="ssr:stedsnr" v="236101" />
	</node>
	<node lat="59.123161110460934" lon="10.912075006844173" id="-25926">
		<tag k="name" v="Børsekroken" />
		<tag k="natural" v="strait" />
		<tag k="ssr:stedsnr" v="236451" />
	</node>
	<node lat="59.09411111389211" lon="10.949494450323916" id="-25927">
		<tag k="fixme" v="consider seamark:type=rock or natural=shoal" />
		<tag k="name" v="Tjeldholmskjær" />
		<tag k="place" v="islet" />
		<tag k="ssr:stedsnr" v="236392" />
	</node>
	<node lat="59.11663611367023" lon="10.847966659507254" id="-25930">
		<tag k="name" v="Salteriholmen" />
		<tag k="place" v="islet" />
		<tag k="ssr:stedsnr" v="236651" />
	</node>
	<node lat="59.02881111491046" lon="10.908019448607476" id="-25931">
		<tag k="name" v="Stengrunnen" />
		<tag k="natural" v="shoal" />
		<tag k="place" v="locality" />
		<tag k="ssr:stedsnr" v="236693" />
	</node>
	<node lat="59.012266666304335" lon="10.97851111285609" id="-25932">
		<tag k="name" v="Kyrre" />
		<tag k="natural" v="shoal" />
		<tag k="place" v="locality" />
		<tag k="ssr:stedsnr" v="236700" />
	</node>
	<node lat="59.057122225729955" lon="11.111594451948624" id="-25933">
		<tag k="name" v="Ludvikgrunnen" />
		<tag k="natural" v="shoal" />
		<tag k="place" v="locality" />
		<tag k="ssr:stedsnr" v="236856" />
	</node>
	<node lat="59.09065555539999" lon="10.84054722634278" id="-25934">
		<tag k="loc_name" v="Pølsa" />
		<tag k="name" v="Pølsesund" />
		<tag k="natural" v="strait" />
		<tag k="ssr:stedsnr" v="236914" />
	</node>
	<node lat="59.09304722306421" lon="10.858691675273208" id="-25935">
		<tag k="name" v="Nordneset" />
		<tag k="natural" v="cape" />
		<tag k="ssr:stedsnr" v="236916" />
	</node>
	<node lat="59.09722500417833" lon="11.129975002563732" id="-25940">
		<tag k="name" v="Ruholmen" />
		<tag k="place" v="islet" />
		<tag k="ssr:stedsnr" v="244208" />
	</node>
	<node lat="59.08552222284165" lon="11.067922220132164" id="-25941">
		<tag k="name" v="Røsholmungen" />
		<tag k="place" v="islet" />
		<tag k="ssr:stedsnr" v="244603" />
	</node>
	<node lat="59.07362500414024" lon="10.84952499573431" id="-25943">
		<tag k="alt_name" v="Grytvika" />
		<tag k="name" v="Grøtvika" />
		<tag k="natural" v="bay" />
		<tag k="ssr:stedsnr" v="244547" />
	</node>
	<node lat="59.0553749988859" lon="10.974199997495024" id="-25944">
		<tag k="alt_name" v="Kråkøya;Kråka store" />
		<tag k="name" v="Store Kråka" />
		<tag k="place" v="islet" />
		<tag k="ssr:stedsnr" v="244556" />
	</node>
	<node lat="59.063224995756144" lon="10.985975004164132" id="-25945">
		<tag k="name" v="Kjerringholmen" />
		<tag k="place" v="islet" />
		<tag k="ssr:stedsnr" v="244560" />
	</node>
	<node lat="58.998352776853345" lon="11.080733341911168" id="-25946">
		<tag k="name" v="Søndre Sandøy" />
		<tag k="place" v="island" />
		<tag k="ssr:stedsnr" v="244767" />
	</node>
	<node lat="58.9940999961461" lon="11.062191673278083" id="-25947">
		<tag k="alt_name" v="Arnholmen" />
		<tag k="name" v="Andholmen" />
		<tag k="natural" v="cape" />
		<tag k="ssr:stedsnr" v="244770" />
	</node>
	<node lat="58.99220701674987" lon="11.073125762085125" id="-25948">
		<tag k="alt_name" v="Fisbuskjæra" />
		<tag k="name" v="Fiskebuskjæra" />
		<tag k="place" v="islet" />
		<tag k="ssr:stedsnr" v="244771" />
	</node>
	<node lat="58.98838888798183" lon="10.922508338267026" id="-25949">
		<tag k="alt_name" v="Ærne" />
		<tag k="name" v="Alne" />
		<tag k="place" v="islet" />
		<tag k="ssr:stedsnr" v="244776" />
	</node>
	<node lat="58.993691667918476" lon="11.050333332652176" id="-25950">
		<tag k="name" v="Herføl" />
		<tag k="place" v="island" />
		<tag k="ssr:stedsnr" v="244781" />
	</node>
	<node lat="59.07431944696248" lon="10.847244442761381" id="-25952">
		<tag k="name" v="Mølodden" />
		<tag k="natural" v="cape" />
		<tag k="ssr:stedsnr" v="539570" />
	</node>
	<node lat="59.02368610775905" lon="11.091213892287957" id="-25953">
		<tag k="name" v="Skuteholmen" />
		<tag k="place" v="islet" />
		<tag k="ssr:stedsnr" v="447282" />
	</node>
	<node lat="59.010280556169484" lon="11.086741669210246" id="-25954">
		<tag k="name" v="Batteritangen" />
		<tag k="natural" v="cape" />
		<tag k="ssr:stedsnr" v="447289" />
	</node>
	<node lat="59.04796389170282" lon="11.056019453318306" id="-25956">
		<tag k="name" v="Sildevika" />
		<tag k="natural" v="bay" />
		<tag k="ssr:stedsnr" v="447346" />
	</node>
	<node lat="59.00082778213368" lon="11.05951667123909" id="-25957">
		<tag k="fixme" v="consider seamark:type=rock or natural=shoal" />
		<tag k="name" v="Høyeman" />
		<tag k="place" v="islet" />
		<tag k="ssr:stedsnr" v="447296" />
	</node>
	<node lat="59.08591944794522" lon="11.081877771458322" id="-25959">
		<tag k="name" v="Lille Vrangholmen" />
		<tag k="place" v="islet" />
		<tag k="ssr:stedsnr" v="447373" />
	</node>
	<node lat="59.032423940546664" lon="11.071849074500292" id="-25960">
		<tag k="name" v="Brattskjæra" />
		<tag k="place" v="islet" />
		<tag k="ssr:stedsnr" v="265321" />
	</node>
	<node lat="59.07805555499117" lon="11.062877775905415" id="-25961">
		<tag k="name" v="Kongstangen" />
		<tag k="natural" v="cape" />
		<tag k="ssr:stedsnr" v="265410" />
	</node>
	<node lat="59.080011113748256" lon="11.087794443847661" id="-25962">
		<tag k="name" v="Soldatersundet" />
		<tag k="natural" v="strait" />
		<tag k="ssr:stedsnr" v="265413" />
	</node>
	<node lat="59.1037361127174" lon="10.858080553421152" id="-25967">
		<tag k="fixme" v="consider seamark:type=rock or natural=shoal" />
		<tag k="name" v="Kavringen" />
		<tag k="place" v="islet" />
		<tag k="ssr:stedsnr" v="296587" />
	</node>
	<node lat="59.079636115484135" lon="11.047741666959832" id="-25970">
		<tag k="name" v="Tørkelen" />
		<tag k="place" v="islet" />
		<tag k="ssr:stedsnr" v="297044" />
	</node>
	<node lat="59.02296666529626" lon="11.0376305608559" id="-25973">
		<tag k="name" v="Vekkopp" />
		<tag k="place" v="islet" />
		<tag k="ssr:stedsnr" v="297135" />
	</node>
	<node lat="59.00090278146026" lon="11.033069445339434" id="-25978">
		<tag k="name" v="Fløyholmfluene" />
		<tag k="place" v="islet" />
		<tag k="ssr:stedsnr" v="297898" />
	</node>
	<node lat="59.09394166737604" lon="10.859525007233536" id="-25981">
		<tag k="fixme" v="consider seamark:type=rock or natural=shoal" />
		<tag k="name" v="Nesskjæra" />
		<tag k="place" v="islet" />
		<tag k="ssr:stedsnr" v="297906" />
	</node>
	<node lat="58.996850001502644" lon="11.03310832995006" id="-25982">
		<tag k="fixme" v="consider seamark:type=rock or natural=shoal" />
		<tag k="name" v="Hytteskjærene mellem" />
		<tag k="place" v="islet" />
		<tag k="ssr:stedsnr" v="297936" />
	</node>
	<node lat="59.07070833212963" lon="10.849666670240001" id="-25983">
		<tag k="name" v="Grøtviksten" />
		<tag k="place" v="locality" />
		<tag k="seamark:type" v="rock" />
		<tag k="ssr:stedsnr" v="297937" />
	</node>
	<node lat="59.08551667019331" lon="10.83044443657952" id="-25992">
		<tag k="fixme" v="consider seamark:type=rock or natural=shoal" />
		<tag k="name" v="Svartebåene" />
		<tag k="place" v="islet" />
		<tag k="ssr:stedsnr" v="304536" />
	</node>
	<node lat="59.095419442630956" lon="11.078241673448357" id="-25993">
		<tag k="alt_name" v="Kalkegrunn" />
		<tag k="loc_name" v="Kalkegrunnen" />
		<tag k="name" v="Kalkgrunnen" />
		<tag k="natural" v="shoal" />
		<tag k="place" v="locality" />
		<tag k="ssr:stedsnr" v="304537" />
	</node>
	<node lat="58.96898889342757" lon="10.945813883700541" id="-25994">
		<tag k="name" v="Kløverhausene" />
		<tag k="natural" v="shoal" />
		<tag k="place" v="locality" />
		<tag k="ssr:stedsnr" v="304782" />
	</node>
	<node lat="58.95515555471043" lon="10.859558325213682" id="-25995">
		<tag k="name" v="Hummerløs" />
		<tag k="natural" v="shoal" />
		<tag k="place" v="locality" />
		<tag k="ssr:stedsnr" v="304787" />
	</node>
	<node lat="58.99710277688118" lon="11.042069444106621" id="-25996">
		<tag k="name" v="Rognhavn" />
		<tag k="natural" v="bay" />
		<tag k="ssr:stedsnr" v="304983" />
	</node>
	<node lat="58.996816671129366" lon="11.03296944056694" id="-25997">
		<tag k="fixme" v="consider seamark:type=rock or natural=shoal" />
		<tag k="name" v="Hytteskjæra" />
		<tag k="place" v="islet" />
		<tag k="ssr:stedsnr" v="304985" />
	</node>
	<node lat="59.04552777762118" lon="11.097975005262995" id="-25998">
		<tag k="alt_name" v="Tesebukt" />
		<tag k="name" v="Tesebukta" />
		<tag k="natural" v="bay" />
		<tag k="ssr:stedsnr" v="305202" />
	</node>
	<node lat="59.13197499887337" lon="10.868022229587694" id="-25999">
		<tag k="fixme" v="consider seamark:type=rock or natural=shoal" />
		<tag k="name" v="Tennebåene" />
		<tag k="place" v="islet" />
		<tag k="ssr:stedsnr" v="305737" />
	</node>
	<node lat="59.03017499989803" lon="11.0808888877738" id="-26002">
		<tag k="name" v="Gifterholmen" />
		<tag k="place" v="islet" />
		<tag k="ssr:stedsnr" v="325317" />
	</node>
	<node lat="59.027925003895945" lon="11.097941666333485" id="-26003">
		<tag k="name" v="Sildeholmen" />
		<tag k="place" v="islet" />
		<tag k="ssr:stedsnr" v="325319" />
	</node>
	<node lat="59.10113055745718" lon="11.138919444517125" id="-26005">
		<tag k="fixme" v="consider seamark:type=rock or natural=shoal" />
		<tag k="name" v="Kalvskjæra" />
		<tag k="place" v="islet" />
		<tag k="ssr:stedsnr" v="325402" />
	</node>
	<node lat="59.05061944486783" lon="10.889194444118198" id="-26011">
		<tag k="name" v="Akerøybukta" />
		<tag k="natural" v="bay" />
		<tag k="ssr:stedsnr" v="357066" />
	</node>
	<node lat="58.978027777035656" lon="10.959391657998603" id="-26012">
		<tag k="name" v="Hestebukta" />
		<tag k="natural" v="bay" />
		<tag k="ssr:stedsnr" v="357086" />
	</node>
	<node lat="59.08616666251564" lon="10.975363883122892" id="-26014">
		<tag k="name" v="Løperungen" />
		<tag k="place" v="islet" />
		<tag k="ssr:stedsnr" v="357410" />
	</node>
	<node lat="59.08294166630755" lon="10.98943888336024" id="-26015">
		<tag k="name" v="Brennevinsbuktene" />
		<tag k="natural" v="bay" />
		<tag k="ssr:stedsnr" v="357415" />
	</node>
	<node lat="59.07235555841561" lon="10.87440832886905" id="-26017">
		<tag k="name" v="Østre kilen" />
		<tag k="natural" v="bay" />
		<tag k="ssr:stedsnr" v="357580" />
	</node>
	<node lat="58.989358332783844" lon="10.968702784936983" id="-26018">
		<tag k="name" v="Møregrunnen" />
		<tag k="natural" v="shoal" />
		<tag k="place" v="locality" />
		<tag k="ssr:stedsnr" v="357660" />
	</node>
	<node lat="58.977952773886436" lon="11.008697229277084" id="-26025">
		<tag k="name" v="Skreia" />
		<tag k="natural" v="shoal" />
		<tag k="place" v="locality" />
		<tag k="ssr:stedsnr" v="364784" />
	</node>
	<node lat="59.08500833201929" lon="11.12423334150268" id="-26026">
		<tag k="fixme" v="consider seamark:type=rock or natural=shoal" />
		<tag k="name" v="Bjørneskjær" />
		<tag k="place" v="islet" />
		<tag k="ssr:stedsnr" v="365203" />
	</node>
	<node lat="59.077524997120335" lon="10.914122220492494" id="-26028">
		<tag k="name" v="Spjærøy" />
		<tag k="place" v="island" />
		<tag k="ssr:stedsnr" v="365556" />
	</node>
	<node lat="59.115900004370346" lon="10.952325006514144" id="-26031">
		<tag k="name" v="Ribba" />
		<tag k="place" v="islet" />
		<tag k="ssr:stedsnr" v="365711" />
	</node>
	<node lat="59.11345000103692" lon="10.929247218336066" id="-26032">
		<tag k="name" v="Skomakerskjæra" />
		<tag k="place" v="islet" />
		<tag k="ssr:stedsnr" v="365716" />
	</node>
	<node lat="59.10973055347701" lon="10.951533335621377" id="-26033">
		<tag k="name" v="Aspholmen" />
		<tag k="place" v="islet" />
		<tag k="ssr:stedsnr" v="365717" />
	</node>
	<node lat="59.04918849663323" lon="10.922763186558448" id="-26034">
		<tag k="alt_name" v="Teneskjæra" />
		<tag k="fixme" v="multiple name tags, choose one and add the other to alt_name; consider seamark:type=rock or natural=shoal" />
		<tag k="name" v="Knubbeskjæra;Tenneskjæra" />
		<tag k="place" v="islet" />
		<tag k="ssr:stedsnr" v="365619" />
	</node>
	<node lat="59.10170000247473" lon="11.009647224860638" id="-26035">
		<tag k="name" v="Stamholmene" />
		<tag k="place" v="islet" />
		<tag k="ssr:stedsnr" v="366704" />
	</node>
	<node lat="59.10402221835501" lon="10.981891659787788" id="-26036">
		<tag k="fixme" v="consider seamark:type=rock or natural=shoal" />
		<tag k="name" v="Store Møkkalasset" />
		<tag k="place" v="islet" />
		<tag k="ssr:stedsnr" v="366706" />
	</node>
	<node lat="59.09952499825738" lon="10.859699995701485" id="-26037">
		<tag k="name" v="Vauerkilen" />
		<tag k="natural" v="bay" />
		<tag k="ssr:stedsnr" v="366709" />
	</node>
	<node lat="59.12650130143538" lon="10.921325695789811" id="-26038">
		<tag k="name" v="Stokken" />
		<tag k="place" v="islet" />
		<tag k="ssr:stedsnr" v="366719" />
	</node>
	<node lat="59.12324999952275" lon="10.819722221610085" id="-26039">
		<tag k="name" v="Osgrunn" />
		<tag k="natural" v="shoal" />
		<tag k="place" v="locality" />
		<tag k="ssr:stedsnr" v="366723" />
	</node>
	<node lat="59.122113884973025" lon="10.842863882489041" id="-26040">
		<tag k="fixme" v="consider seamark:type=rock or natural=shoal" />
		<tag k="name" v="Skjelholmen" />
		<tag k="place" v="islet" />
		<tag k="ssr:stedsnr" v="366725" />
	</node>
	<node lat="59.024138885326956" lon="11.10896945119444" id="-26044">
		<tag k="name" v="Grana" />
		<tag k="natural" v="beach" />
		<tag k="old_name" v="Grane" />
		<tag k="ssr:stedsnr" v="386310" />
	</node>
	<node lat="59.00166389094731" lon="11.073183336624117" id="-26046">
		<tag k="name" v="Ødegårdstranda" />
		<tag k="natural" v="beach" />
		<tag k="ssr:stedsnr" v="386329" />
	</node>
	<node lat="59.07692777966254" lon="11.11444166991026" id="-26047">
		<tag k="fixme" v="consider seamark:type=rock or natural=shoal" />
		<tag k="name" v="Glorakaskjæra" />
		<tag k="place" v="islet" />
		<tag k="ssr:stedsnr" v="386356" />
	</node>
	<node lat="59.09614166623476" lon="11.09423888133894" id="-26049">
		<tag k="fixme" v="consider seamark:type=rock or natural=shoal" />
		<tag k="name" v="Gunillaskjær" />
		<tag k="place" v="islet" />
		<tag k="ssr:stedsnr" v="386375" />
	</node>
	<node lat="59.07805833535805" lon="11.053630563462537" id="-26050">
		<tag k="name" v="Haslesundet" />
		<tag k="natural" v="strait" />
		<tag k="ssr:stedsnr" v="386378" />
	</node>
	<node lat="59.11469999883468" lon="10.82337222555112" id="-26051">
		<tag k="name" v="Langegrunnen" />
		<tag k="natural" v="shoal" />
		<tag k="place" v="locality" />
		<tag k="ssr:stedsnr" v="387814" />
	</node>
	<node lat="59.01464167015763" lon="11.021999991969134" id="-26056">
		<tag k="name" v="Lauersvelgen" />
		<tag k="natural" v="strait" />
		<tag k="ssr:stedsnr" v="417257" />
	</node>
	<node lat="58.98853888638328" lon="11.06280000817019" id="-26057">
		<tag k="alt_name" v="Mellom Gylteholmen" />
		<tag k="name" v="Mellom-Gylteholmen" />
		<tag k="place" v="islet" />
		<tag k="ssr:stedsnr" v="417904" />
	</node>
	<node lat="58.98521111048194" lon="10.959572230194386" id="-26059">
		<tag k="name" v="Losholmen" />
		<tag k="natural" v="cape" />
		<tag k="ssr:stedsnr" v="418055" />
	</node>
	<node lat="58.987652777884755" lon="10.954944437977122" id="-26060">
		<tag k="name" v="Lille Ølbergholmen" />
		<tag k="place" v="islet" />
		<tag k="ssr:stedsnr" v="418057" />
	</node>
	<node lat="59.08401111358864" lon="10.959272224232393" id="-26061">
		<tag k="name" v="Store Ingerholmen" />
		<tag k="place" v="islet" />
		<tag k="ssr:stedsnr" v="418402" />
	</node>
	<node lat="59.12374722007042" lon="10.916861118623867" id="-26062">
		<tag k="name" v="Måsholmene" />
		<tag k="place" v="islet" />
		<tag k="ssr:stedsnr" v="418476" />
	</node>
	<node lat="59.12609167063623" lon="10.855675001077556" id="-26063">
		<tag k="name" v="Vierholmen" />
		<tag k="place" v="islet" />
		<tag k="ssr:stedsnr" v="418352" />
	</node>
	<node lat="59.03629444744133" lon="10.954986108269127" id="-26064">
		<tag k="name" v="Støodden" />
		<tag k="natural" v="cape" />
		<tag k="ssr:stedsnr" v="418606" />
	</node>
	<node lat="59.031158331989865" lon="10.93036666611777" id="-26066">
		<tag k="name" v="Knatten" />
		<tag k="natural" v="shoal" />
		<tag k="place" v="locality" />
		<tag k="ssr:stedsnr" v="418649" />
	</node>
	<node lat="59.10481388708839" lon="10.864269436412753" id="-26067">
		<tag k="fixme" v="consider seamark:type=rock or natural=shoal" />
		<tag k="name" v="Grisen" />
		<tag k="place" v="islet" />
		<tag k="ssr:stedsnr" v="418651" />
	</node>
	<node lat="59.09865278224666" lon="10.862347214349247" id="-26069">
		<tag k="name" v="Katten" />
		<tag k="natural" v="cape" />
		<tag k="ssr:stedsnr" v="418899" />
	</node>
	<node lat="59.08048055539894" lon="11.039661114121902" id="-26072">
		<tag k="name" v="Søstertangen" />
		<tag k="natural" v="cape" />
		<tag k="ssr:stedsnr" v="419038" />
	</node>
	<node lat="59.008977777965136" lon="11.034363883833771" id="-26074">
		<tag k="name" v="Dypsund" />
		<tag k="natural" v="strait" />
		<tag k="ssr:stedsnr" v="418949" />
	</node>
	<node lat="59.06000000289482" lon="10.978150001502717" id="-26087">
		<tag k="name" v="Filletassen" />
		<tag k="place" v="islet" />
		<tag k="ssr:stedsnr" v="426506" />
	</node>
	<node lat="59.07864721790491" lon="10.788422220469265" id="-26088">
		<tag k="name" v="Seikrakk" />
		<tag k="natural" v="shoal" />
		<tag k="place" v="locality" />
		<tag k="ssr:stedsnr" v="426534" />
	</node>
	<node lat="59.00674999772154" lon="11.015824992205506" id="-26092">
		<tag k="alt_name" v="Sval-Lauer" />
		<tag k="name" v="Svalelauer" />
		<tag k="place" v="islet" />
		<tag k="ssr:stedsnr" v="426554" />
	</node>
	<node lat="59.0041500042051" lon="10.77322500566321" id="-26093">
		<tag k="alt_name" v="Berggaltflu" />
		<tag k="name" v="Berggyltflu" />
		<tag k="natural" v="shoal" />
		<tag k="place" v="locality" />
		<tag k="ssr:stedsnr" v="426555" />
	</node>
	<node lat="59.11302299155431" lon="10.88677966245866" id="-26095">
		<tag k="name" v="Sauhella" />
		<tag k="natural" v="cape" />
		<tag k="ssr:stedsnr" v="426690" />
	</node>
	<node lat="59.12090000090122" lon="10.8721249978203" id="-26096">
		<tag k="name" v="Rognholmen" />
		<tag k="place" v="islet" />
		<tag k="ssr:stedsnr" v="427715" />
	</node>
	<node lat="59.02236110675348" lon="11.03449166759724" id="-26098">
		<tag k="name" v="Stolen" />
		<tag k="natural" v="cape" />
		<tag k="ssr:stedsnr" v="478096" />
	</node>
	<node lat="59.0773666669638" lon="10.929158325776294" id="-26099">
		<tag k="name" v="Holmetangen" />
		<tag k="natural" v="cape" />
		<tag k="ssr:stedsnr" v="478297" />
	</node>
	<node lat="59.07595555616216" lon="10.873469437819264" id="-26100">
		<tag k="name" v="Sørlendingen" />
		<tag k="natural" v="bay" />
		<tag k="ssr:stedsnr" v="478615" />
	</node>
	<node lat="59.09405832975098" lon="10.912672225776705" id="-26101">
		<tag k="name" v="Koven" />
		<tag k="natural" v="bay" />
		<tag k="ssr:stedsnr" v="478545" />
	</node>
	<node lat="58.988466666928495" lon="11.057138895137085" id="-26107">
		<tag k="name" v="Tjeldholmen" />
		<tag k="place" v="islet" />
		<tag k="ssr:stedsnr" v="478872" />
	</node>
	<node lat="59.044986112987765" lon="10.931336104675497" id="-26110">
		<tag k="name" v="Tangebukta" />
		<tag k="natural" v="bay" />
		<tag k="ssr:stedsnr" v="479053" />
	</node>
	<node lat="59.04493611131833" lon="10.937050005171123" id="-26111">
		<tag k="name" v="Fløskebukta" />
		<tag k="natural" v="bay" />
		<tag k="ssr:stedsnr" v="661049" />
	</node>
	<node lat="59.041900002281324" lon="10.890930548646576" id="-26112">
		<tag k="name" v="Tangbukta" />
		<tag k="natural" v="bay" />
		<tag k="ssr:stedsnr" v="661054" />
	</node>
	<node lat="59.077583335983924" lon="11.047952776245863" id="-26114">
		<tag k="fixme" v="consider seamark:type=rock or natural=shoal" />
		<tag k="name" v="Terneskjær" />
		<tag k="place" v="islet" />
		<tag k="ssr:stedsnr" v="661362" />
	</node>
	<node lat="59.07658333481577" lon="11.039027785006885" id="-26116">
		<tag k="name" v="Brennesund" />
		<tag k="natural" v="bay" />
		<tag k="ssr:stedsnr" v="661422" />
	</node>
	<node lat="59.10899444138844" lon="10.86957778410441" id="-26118">
		<tag k="name" v="Hvalsund" />
		<tag k="natural" v="strait" />
		<tag k="ssr:stedsnr" v="661682" />
	</node>
	<node lat="59.053619446134384" lon="10.975344443707" id="-26119">
		<tag k="alt_name" v="Kråkeflu, s" />
		<tag k="fixme" v="consider seamark:type=rock or natural=shoal" />
		<tag k="name" v="Søndre Kråkeflu" />
		<tag k="place" v="islet" />
		<tag k="ssr:stedsnr" v="661788" />
	</node>
	<node lat="59.005822221387774" lon="11.063402771883279" id="-26122">
		<tag k="name" v="Askjærsund" />
		<tag k="natural" v="strait" />
		<tag k="ssr:stedsnr" v="447302" />
	</node>
	<node lat="59.04990833407751" lon="11.06309444983332" id="-26123">
		<tag k="name" v="Kuhaugen" />
		<tag k="natural" v="cape" />
		<tag k="ssr:stedsnr" v="447343" />
	</node>
	<node lat="59.00906944335369" lon="11.020924993377756" id="-26126">
		<tag k="fixme" v="consider seamark:type=rock or natural=shoal" />
		<tag k="name" v="Pereskjær" />
		<tag k="place" v="islet" />
		<tag k="ssr:stedsnr" v="661965" />
	</node>
	<node lat="59.04879444229186" lon="11.11440833845157" id="-26127">
		<tag k="name" v="Den høye holmen" />
		<tag k="place" v="islet" />
		<tag k="ssr:stedsnr" v="448403" />
	</node>
	<node lat="59.109088892075995" lon="11.107327773070939" id="-26128">
		<tag k="fixme" v="consider seamark:type=rock or natural=shoal" />
		<tag k="name" v="Lauvskjær" />
		<tag k="place" v="islet" />
		<tag k="ssr:stedsnr" v="448405" />
	</node>
	<node lat="59.01674722655881" lon="11.038341667460523" id="-26140">
		<tag k="name" v="Lille Ellingholmen" />
		<tag k="place" v="islet" />
		<tag k="ssr:stedsnr" v="477280" />
	</node>
	<node lat="59.01960277779767" lon="11.019452781852147" id="-26141">
		<tag k="name" v="Døvika" />
		<tag k="natural" v="bay" />
		<tag k="ssr:stedsnr" v="477283" />
	</node>
	<node lat="59.12202222138727" lon="10.871999998329317" id="-26143">
		<tag k="name" v="Pappertangen" />
		<tag k="natural" v="cape" />
		<tag k="ssr:stedsnr" v="478472" />
	</node>
	<node lat="59.023083329000684" lon="11.050216674301108" id="-26144">
		<tag k="name" v="Hjelpegrunnen" />
		<tag k="natural" v="shoal" />
		<tag k="place" v="locality" />
		<tag k="ssr:stedsnr" v="478567" />
	</node>
	<node lat="59.01847222455072" lon="11.052658340400122" id="-26145">
		<tag k="name" v="Nedgårdsgrunnen" />
		<tag k="natural" v="shoal" />
		<tag k="place" v="locality" />
		<tag k="ssr:stedsnr" v="478573" />
	</node>
	<node lat="59.10455833718847" lon="10.851402782543074" id="-26147">
		<tag k="fixme" v="consider seamark:type=rock or natural=shoal" />
		<tag k="name" v="Merrskjær" />
		<tag k="place" v="islet" />
		<tag k="ssr:stedsnr" v="478623" />
	</node>
	<node lat="59.08493333672032" lon="10.947002769980372" id="-26151">
		<tag k="name" v="Bredengkilen" />
		<tag k="natural" v="bay" />
		<tag k="ssr:stedsnr" v="479415" />
	</node>
	<node lat="59.079047226704695" lon="10.874616659349725" id="-26153">
		<tag k="fixme" v="consider seamark:type=rock or natural=shoal" />
		<tag k="name" v="Selskjær" />
		<tag k="place" v="islet" />
		<tag k="ssr:stedsnr" v="479867" />
	</node>
	<node lat="59.050158336130046" lon="11.129336116895038" id="-26154">
		<tag k="name" v="Rødskjærgrunnen" />
		<tag k="natural" v="shoal" />
		<tag k="place" v="locality" />
		<tag k="ssr:stedsnr" v="479870" />
	</node>
	<node lat="59.06125277585103" lon="10.981347215356024" id="-26155">
		<tag k="name" v="Filletass-sundet" />
		<tag k="natural" v="strait" />
		<tag k="ssr:stedsnr" v="479912" />
	</node>
	<node lat="59.00754444559864" lon="11.049919437130677" id="-26156">
		<tag k="fixme" v="consider seamark:type=rock or natural=shoal" />
		<tag k="name" v="Snøtteskjæra" />
		<tag k="place" v="islet" />
		<tag k="ssr:stedsnr" v="479915" />
	</node>
	<node lat="59.00713610884982" lon="11.046777784693587" id="-26157">
		<tag k="name" v="Kupallen" />
		<tag k="natural" v="bay" />
		<tag k="ssr:stedsnr" v="479917" />
	</node>
	<node lat="59.0029083289198" lon="11.040327781260231" id="-26158">
		<tag k="name" v="Havna" />
		<tag k="natural" v="bay" />
		<tag k="ssr:stedsnr" v="479919" />
	</node>
	<node lat="59.00871944402769" lon="11.03424443805366" id="-26159">
		<tag k="name" v="Småholmene" />
		<tag k="place" v="islet" />
		<tag k="ssr:stedsnr" v="479965" />
	</node>
	<node lat="59.01378055953229" lon="11.01719443809233" id="-26166">
		<tag k="name" v="Saltholmen" />
		<tag k="place" v="islet" />
		<tag k="ssr:stedsnr" v="721947" />
	</node>
	<node lat="58.96900555297665" lon="10.912138883588845" id="-26167">
		<tag k="name" v="Søndre Heiskrakk" />
		<tag k="natural" v="shoal" />
		<tag k="place" v="locality" />
		<tag k="ssr:stedsnr" v="485726" />
	</node>
	<node lat="58.96334166235438" lon="10.846188891853403" id="-26168">
		<tag k="fixme" v="consider seamark:type=rock or natural=shoal" />
		<tag k="name" v="Store Gråbein" />
		<tag k="place" v="islet" />
		<tag k="ssr:stedsnr" v="485728" />
	</node>
	<node lat="59.073350002074974" lon="10.868650004035121" id="-26171">
		<tag k="name" v="Sandeskjær" />
		<tag k="place" v="islet" />
		<tag k="ssr:stedsnr" v="486520" />
	</node>
	<node lat="59.083216664740455" lon="10.9659805572863" id="-26173">
		<tag k="alt_name" v="Løperen" />
		<tag k="name" v="Løperholmen" />
		<tag k="place" v="island" />
		<tag k="ssr:stedsnr" v="486566" />
	</node>
	<node lat="59.1178499994837" lon="10.844777782250416" id="-26174">
		<tag k="name" v="Alholmene" />
		<tag k="place" v="islet" />
		<tag k="ssr:stedsnr" v="486709" />
	</node>
	<node lat="59.11917500003217" lon="10.857791664751932" id="-26175">
		<tag k="alt_name" v="Seilø" />
		<tag k="name" v="Seiløy" />
		<tag k="place" v="island" />
		<tag k="ssr:stedsnr" v="486712" />
	</node>
	<node lat="59.05757500255361" lon="11.10980834034517" id="-26176">
		<tag k="fixme" v="multiple name tags, choose one and add the other to alt_name; consider seamark:type=rock or natural=shoal" />
		<tag k="name" v="Hatten;Skyttebåen" />
		<tag k="place" v="islet" />
		<tag k="ssr:stedsnr" v="487212" />
	</node>
	<node lat="59.06557500273206" lon="11.095300006071279" id="-26177">
		<tag k="fixme" v="consider seamark:type=rock or natural=shoal" />
		<tag k="name" v="Ribba" />
		<tag k="place" v="islet" />
		<tag k="ssr:stedsnr" v="487215" />
	</node>
	<node lat="59.02562222561698" lon="10.96039167216699" id="-26178">
		<tag k="name" v="Vidgrunnen" />
		<tag k="natural" v="shoal" />
		<tag k="place" v="locality" />
		<tag k="ssr:stedsnr" v="487618" />
	</node>
	<node lat="59.059700000652384" lon="10.851775008377876" id="-26179">
		<tag k="name" v="Basgrunnene" />
		<tag k="natural" v="shoal" />
		<tag k="place" v="locality" />
		<tag k="ssr:stedsnr" v="487572" />
	</node>
	<node lat="59.08917777681033" lon="11.077516663438432" id="-26180">
		<tag k="name" v="Måholmene" />
		<tag k="place" v="islet" />
		<tag k="ssr:stedsnr" v="487579" />
	</node>
	<node lat="59.120872225043406" lon="10.854477786256174" id="-26181">
		<tag k="name" v="Fredagshølet" />
		<tag k="natural" v="bay" />
		<tag k="ssr:stedsnr" v="487760" />
	</node>
	<node lat="59.077288218732804" lon="10.825279106581148" id="-26184">
		<tag k="name" v="Seihausene" />
		<tag k="natural" v="shoal" />
		<tag k="place" v="locality" />
		<tag k="ssr:stedsnr" v="668556" />
	</node>
	<node lat="59.10946388823843" lon="10.965475006423675" id="-26187">
		<tag k="fixme" v="consider seamark:type=rock or natural=shoal" />
		<tag k="name" v="Knubben" />
		<tag k="place" v="islet" />
		<tag k="ssr:stedsnr" v="491404" />
	</node>
	<node lat="59.10340833708791" lon="10.956083334606506" id="-26188">
		<tag k="name" v="Kilen" />
		<tag k="natural" v="strait" />
		<tag k="ssr:stedsnr" v="491411" />
	</node>
	<node lat="59.07869999978898" lon="11.110724997301828" id="-26191">
		<tag k="name" v="Kålholmen" />
		<tag k="place" v="islet" />
		<tag k="ssr:stedsnr" v="669194" />
	</node>
	<node lat="59.07647221981338" lon="11.047136109049198" id="-26192">
		<tag k="name" v="Botnekilen" />
		<tag k="natural" v="bay" />
		<tag k="ssr:stedsnr" v="669522" />
	</node>
	<node lat="59.077877778315624" lon="11.057942093093013" id="-26193">
		<tag k="name" v="Halsen" />
		<tag k="natural" v="strait" />
		<tag k="ssr:stedsnr" v="669524" />
	</node>
	<node lat="59.07237191462731" lon="11.085332405365255" id="-26194">
		<tag k="name" v="Ed" />
		<tag k="place" v="locality" />
		<tag k="ssr:stedsnr" v="669527" />
	</node>
	<node lat="59.125758334182464" lon="10.898411109936866" id="-26196">
		<tag k="name" v="Blinda" />
		<tag k="natural" v="shoal" />
		<tag k="place" v="locality" />
		<tag k="ssr:stedsnr" v="670660" />
	</node>
	<node lat="59.047180557207845" lon="11.058780552254712" id="-26200">
		<tag k="name" v="Koltorpneset" />
		<tag k="natural" v="cape" />
		<tag k="ssr:stedsnr" v="507345" />
	</node>
	<node lat="59.07934444291146" lon="11.065661116536374" id="-26201">
		<tag k="name" v="Trekvartsundet" />
		<tag k="natural" v="strait" />
		<tag k="ssr:stedsnr" v="507369" />
	</node>
	<node lat="59.04970732327195" lon="11.116257275776704" id="-26202">
		<tag k="name" v="Lyngholmen" />
		<tag k="place" v="islet" />
		<tag k="ssr:stedsnr" v="508402" />
	</node>
	<node lat="59.103719442963644" lon="11.096172227659833" id="-26203">
		<tag k="fixme" v="consider seamark:type=rock or natural=shoal" />
		<tag k="name" v="Vesle Gunilla" />
		<tag k="place" v="islet" />
		<tag k="ssr:stedsnr" v="508403" />
	</node>
	<node lat="59.103661110119475" lon="10.952427772646752" id="-26206">
		<tag k="name" v="Bukkholmen" />
		<tag k="place" v="islet" />
		<tag k="ssr:stedsnr" v="673398" />
	</node>
	<node lat="59.0243166709901" lon="11.004047226882843" id="-26215">
		<tag k="fixme" v="consider seamark:type=rock or natural=shoal" />
		<tag k="name" v="Gylteskjæra" />
		<tag k="place" v="islet" />
		<tag k="ssr:stedsnr" v="538280" />
	</node>
	<node lat="58.98335833182992" lon="10.964949996501355" id="-26218">
		<tag k="name" v="Hestholmene" />
		<tag k="place" v="islet" />
		<tag k="ssr:stedsnr" v="539074" />
	</node>
	<node lat="59.001355551731784" lon="10.975341669971602" id="-26226">
		<tag k="name" v="Bergholen" />
		<tag k="natural" v="shoal" />
		<tag k="place" v="locality" />
		<tag k="ssr:stedsnr" v="539713" />
	</node>
	<node lat="59.00803055345669" lon="11.004669437749222" id="-26228">
		<tag k="name" v="Kokkholmsundet" />
		<tag k="natural" v="strait" />
		<tag k="ssr:stedsnr" v="539902" />
	</node>
	<node lat="59.00532222253315" lon="11.041080552856464" id="-26229">
		<tag k="name" v="Ekholmsundet" />
		<tag k="natural" v="strait" />
		<tag k="ssr:stedsnr" v="539904" />
	</node>
	<node lat="58.99099721950368" lon="11.036297230176157" id="-26230">
		<tag k="name" v="Sørvestbukta" />
		<tag k="natural" v="bay" />
		<tag k="ssr:stedsnr" v="539874" />
	</node>
	<node lat="58.99914722260803" lon="11.034447214120412" id="-26231">
		<tag k="name" v="Rognanflaket" />
		<tag k="natural" v="bay" />
		<tag k="ssr:stedsnr" v="539892" />
	</node>
	<node lat="59.08774444094346" lon="10.868858329271717" id="-26237">
		<tag k="alt_name" v="Vesterø" />
		<tag k="name" v="Vesterøy" />
		<tag k="place" v="island" />
		<tag k="ssr:stedsnr" v="730749" />
	</node>
	<node lat="58.97229444604222" lon="10.988397228077776" id="-26240">
		<tag k="name" v="Høystakk" />
		<tag k="natural" v="shoal" />
		<tag k="place" v="locality" />
		<tag k="ssr:stedsnr" v="546740" />
	</node>
	<node lat="58.96268333662654" lon="10.900169448515676" id="-26241">
		<tag k="name" v="Blåkollrenna" />
		<tag k="natural" v="strait" />
		<tag k="ssr:stedsnr" v="546742" />
	</node>
	<node lat="59.004761108866106" lon="11.007977775393964" id="-26242">
		<tag k="loc_name" v="Sør-Lauer" />
		<tag k="name" v="Søndre Lauer" />
		<tag k="place" v="island" />
		<tag k="ssr:stedsnr" v="547610" />
	</node>
	<node lat="59.113600002171694" lon="10.94450000520345" id="-26243">
		<tag k="name" v="Kjempeholmen" />
		<tag k="place" v="islet" />
		<tag k="ssr:stedsnr" v="547729" />
	</node>
	<node lat="59.125699997849814" lon="10.91380278093537" id="-26244">
		<tag k="name" v="Revholmen" />
		<tag k="place" v="islet" />
		<tag k="ssr:stedsnr" v="547781" />
	</node>
	<node lat="58.936386112580564" lon="10.825216660385307" id="-26245">
		<tag k="alt_name" v="Skjøttegrunnen" />
		<tag k="name" v="Midtre Skjøttegrunn" />
		<tag k="natural" v="shoal" />
		<tag k="place" v="locality" />
		<tag k="ssr:stedsnr" v="547807" />
	</node>
	<node lat="59.03926389006228" lon="10.960052778666444" id="-26246">
		<tag k="name" v="Ekevika" />
		<tag k="natural" v="bay" />
		<tag k="ssr:stedsnr" v="547870" />
	</node>
	<node lat="59.02346944552581" lon="11.060413896854715" id="-26248">
		<tag k="name" v="Skjærhaldfjorden" />
		<tag k="natural" v="strait" />
		<tag k="ssr:stedsnr" v="548571" />
	</node>
	<node lat="59.03186944207044" lon="11.071094447354971" id="-26249">
		<tag k="name" v="Sandholmene" />
		<tag k="place" v="islet" />
		<tag k="ssr:stedsnr" v="548605" />
	</node>
	<node lat="59.02363839448868" lon="11.11193647113487" id="-26252">
		<tag k="name" v="Grønnhavna" />
		<tag k="natural" v="bay" />
		<tag k="ssr:stedsnr" v="568315" />
	</node>
	<node lat="59.05263055676451" lon="11.075022224201405" id="-26253">
		<tag k="name" v="Søndre Rom" />
		<tag k="place" v="island" />
		<tag k="ssr:stedsnr" v="568365" />
	</node>
	<node lat="59.0808750006577" lon="11.087716668656402" id="-26254">
		<tag k="name" v="Soldaterbukta" />
		<tag k="natural" v="bay" />
		<tag k="ssr:stedsnr" v="568402" />
	</node>
	<node lat="59.093274999186846" lon="11.030347218851215" id="-26267">
		<tag k="fixme" v="consider seamark:type=rock or natural=shoal" />
		<tag k="name" v="Kuskjær" />
		<tag k="place" v="islet" />
		<tag k="ssr:stedsnr" v="600370" />
	</node>
	<node lat="59.12054444089584" lon="10.870941663604075" id="-26269">
		<tag k="name" v="Knutehølet" />
		<tag k="natural" v="bay" />
		<tag k="ssr:stedsnr" v="600665" />
	</node>
	<node lat="59.11766389139614" lon="10.919963889140496" id="-26274">
		<tag k="name" v="Daumannsskjæra" />
		<tag k="place" v="islet" />
		<tag k="ssr:stedsnr" v="607701" />
	</node>
	<node lat="59.08252500290358" lon="11.058549997589122" id="-26275">
		<tag k="name" v="Røsholmen" />
		<tag k="place" v="island" />
		<tag k="ssr:stedsnr" v="607561" />
	</node>
	<node lat="58.99341944129362" lon="10.780627770432806" id="-26277">
		<tag k="fixme" v="consider seamark:type=rock or natural=shoal" />
		<tag k="name" v="Søndre Knubb" />
		<tag k="place" v="islet" />
		<tag k="ssr:stedsnr" v="607762" />
	</node>
	<node lat="59.048591667450864" lon="11.132236106272865" id="-26278">
		<tag k="fixme" v="consider seamark:type=rock or natural=shoal" />
		<tag k="name" v="Østre Rødskjær" />
		<tag k="place" v="islet" />
		<tag k="ssr:stedsnr" v="608196" />
	</node>
	<node lat="59.069550004300105" lon="10.877549992411161" id="-26279">
		<tag k="name" v="Stangholmen" />
		<tag k="place" v="islet" />
		<tag k="ssr:stedsnr" v="608548" />
	</node>
	<node lat="59.06142499565587" lon="10.998500000710251" id="-26280">
		<tag k="name" v="Skipholmen" />
		<tag k="place" v="islet" />
		<tag k="ssr:stedsnr" v="608563" />
	</node>
	<node lat="59.02574166719125" lon="11.094613889617852" id="-26281">
		<tag k="alt_name" v="Gravningsundet" />
		<tag k="name" v="Gravningsund" />
		<tag k="natural" v="strait" />
		<tag k="ssr:stedsnr" v="608609" />
	</node>
	<node lat="59.0197249970064" lon="11.016336105096492" id="-26282">
		<tag k="name" v="Sjursholmen" />
		<tag k="natural" v="cape" />
		<tag k="ssr:stedsnr" v="608611" />
	</node>
	<node lat="58.94869722363552" lon="10.885616668032304" id="-26286">
		<tag k="name" v="Heifluene" />
		<tag k="natural" v="shoal" />
		<tag k="place" v="locality" />
		<tag k="ssr:stedsnr" v="608817" />
	</node>
	<node lat="59.12755000163101" lon="10.82449723004207" id="-26287">
		<tag k="name" v="Hummerkrakk" />
		<tag k="natural" v="shoal" />
		<tag k="place" v="locality" />
		<tag k="ssr:stedsnr" v="608764" />
	</node>
	<node lat="59.102880554989795" lon="10.943933331311976" id="-26288">
		<tag k="name" v="Storengkilen" />
		<tag k="natural" v="bay" />
		<tag k="ssr:stedsnr" v="612407" />
	</node>
	<node lat="59.019188887088745" lon="11.068972229853657" id="-26290">
		<tag k="name" v="Rusevika" />
		<tag k="natural" v="bay" />
		<tag k="ssr:stedsnr" v="690358" />
	</node>
	<node lat="58.994011107857126" lon="11.068563891461677" id="-26292">
		<tag k="name" v="Glan" />
		<tag k="place" v="islet" />
		<tag k="ssr:stedsnr" v="690379" />
	</node>
	<node lat="59.119647225773434" lon="11.130899996997139" id="-26293">
		<tag k="name" v="Rysetangbukta" />
		<tag k="natural" v="bay" />
		<tag k="ssr:stedsnr" v="690423" />
	</node>
	<node lat="59.03800555860226" lon="11.065197222771381" id="-26294">
		<tag k="fixme" v="consider seamark:type=rock or natural=shoal" />
		<tag k="name" v="Fluene" />
		<tag k="place" v="islet" />
		<tag k="ssr:stedsnr" v="690429" />
	</node>
	<node lat="59.0138888844589" lon="11.100719448351578" id="-26295">
		<tag k="name" v="Grøtvika" />
		<tag k="natural" v="bay" />
		<tag k="ssr:stedsnr" v="628309" />
	</node>
	<node lat="58.99866666690779" lon="11.05689444131821" id="-26296">
		<tag k="fixme" v="consider seamark:type=rock or natural=shoal" />
		<tag k="name" v="Jomfrulandskjær" />
		<tag k="place" v="islet" />
		<tag k="ssr:stedsnr" v="628321" />
	</node>
	<node lat="58.993405553166696" lon="11.064013881284472" id="-26298">
		<tag k="fixme" v="consider seamark:type=rock or natural=shoal" />
		<tag k="name" v="Fleskeskjær" />
		<tag k="place" v="islet" />
		<tag k="ssr:stedsnr" v="628326" />
	</node>
	<node lat="59.0352722226367" lon="11.069158334391089" id="-26299">
		<tag k="name" v="Skjellsundholmene" />
		<tag k="place" v="islet" />
		<tag k="ssr:stedsnr" v="629397" />
	</node>
	<node lat="59.03565277827757" lon="10.966486118563514" id="-26303">
		<tag k="fixme" v="consider seamark:type=rock or natural=shoal" />
		<tag k="loc_name" v="Fugleskjær" />
		<tag k="name" v="Fugletangskjær" />
		<tag k="place" v="islet" />
		<tag k="ssr:stedsnr" v="657588" />
	</node>
	<node lat="59.126811114565484" lon="10.90759722086161" id="-26307">
		<tag k="name" v="Den kløvne sten" />
		<tag k="place" v="islet" />
		<tag k="ssr:stedsnr" v="660502" />
	</node>
	<node lat="58.989005555228815" lon="10.934238887377123" id="-26310">
		<tag k="name" v="Samsongrunnen" />
		<tag k="natural" v="shoal" />
		<tag k="place" v="locality" />
		<tag k="ssr:stedsnr" v="661626" />
	</node>
	<node lat="58.98444444544033" lon="10.985738895056278" id="-26311">
		<tag k="name" v="Snøtten" />
		<tag k="natural" v="shoal" />
		<tag k="place" v="locality" />
		<tag k="ssr:stedsnr" v="661638" />
	</node>
	<node lat="59.118255554191535" lon="10.875899994684623" id="-26312">
		<tag k="name" v="Håholmen" />
		<tag k="natural" v="cape" />
		<tag k="ssr:stedsnr" v="661653" />
	</node>
	<node lat="59.12008332987873" lon="10.873661110909943" id="-26313">
		<tag k="name" v="Bringebærholmen" />
		<tag k="place" v="islet" />
		<tag k="ssr:stedsnr" v="661654" />
	</node>
	<node lat="59.115613887108616" lon="10.833219436011168" id="-26314">
		<tag k="alt_name" v="Møsterskjæra" />
		<tag k="fixme" v="consider seamark:type=rock or natural=shoal" />
		<tag k="name" v="Mosterskjær" />
		<tag k="place" v="islet" />
		<tag k="ssr:stedsnr" v="661657" />
	</node>
	<node lat="58.989077775814636" lon="11.049255560646966" id="-26316">
		<tag k="name" v="Rotebukta" />
		<tag k="natural" v="bay" />
		<tag k="ssr:stedsnr" v="661896" />
	</node>
	<node lat="59.05819166568924" lon="10.991791673170693" id="-26317">
		<tag k="name" v="Skjellholmene" />
		<tag k="place" v="islet" />
		<tag k="ssr:stedsnr" v="661898" />
	</node>
	<node lat="59.05838610710941" lon="10.958508330250712" id="-26318">
		<tag k="name" v="Lille Krossholmen" />
		<tag k="place" v="islet" />
		<tag k="ssr:stedsnr" v="661901" />
	</node>
	<node lat="59.003677779441276" lon="11.085594443005728" id="-26323">
		<tag k="name" v="Kasaskjæra" />
		<tag k="place" v="islet" />
		<tag k="ssr:stedsnr" v="668609" />
	</node>
	<node lat="59.05062499681403" lon="11.112377774317832" id="-26325">
		<tag k="name" v="Furuholmen" />
		<tag k="place" v="islet" />
		<tag k="ssr:stedsnr" v="669181" />
	</node>
	<node lat="59.05844999990837" lon="11.033555560486613" id="-26329">
		<tag k="name" v="Kirkøy" />
		<tag k="place" v="island" />
		<tag k="ssr:stedsnr" v="669533" />
	</node>
	<node lat="59.043644444041675" lon="11.040650006984537" id="-26331">
		<tag k="name" v="Holtekilen" />
		<tag k="natural" v="bay" />
		<tag k="ssr:stedsnr" v="669609" />
	</node>
	<node lat="59.008925000731836" lon="11.004200002989538" id="-26334">
		<tag k="alt_name" v="Kokholmen" />
		<tag k="name" v="Kokkholmen" />
		<tag k="place" v="islet" />
		<tag k="ssr:stedsnr" v="669582" />
	</node>
	<node lat="59.10902500408916" lon="11.052100007386217" id="-26335">
		<tag k="name" v="Svala" />
		<tag k="place" v="islet" />
		<tag k="ssr:stedsnr" v="669707" />
	</node>
	<node lat="59.03449999672834" lon="11.059924994695692" id="-26336">
		<tag k="alt_name" v="Herrvika" />
		<tag k="name" v="Rennvika" />
		<tag k="natural" v="bay" />
		<tag k="ssr:stedsnr" v="690336" />
	</node>
	<node lat="59.03218333554641" lon="11.089941670806608" id="-26337">
		<tag k="name" v="Kåven" />
		<tag k="natural" v="bay" />
		<tag k="ssr:stedsnr" v="690347" />
	</node>
	<node lat="59.05815277511419" lon="11.083061103761105" id="-26339">
		<tag k="name" v="Lundbergbukta" />
		<tag k="natural" v="bay" />
		<tag k="ssr:stedsnr" v="690410" />
	</node>
	<node lat="59.00071666714151" lon="10.81646943995295" id="-26341">
		<tag k="name" v="Nilsflu" />
		<tag k="natural" v="shoal" />
		<tag k="place" v="locality" />
		<tag k="ssr:stedsnr" v="693079" />
	</node>
	<node lat="58.981925001732755" lon="10.948041660709087" id="-26347">
		<tag k="name" v="Krappsundholmen" />
		<tag k="place" v="islet" />
		<tag k="ssr:stedsnr" v="721075" />
	</node>
	<node lat="58.98327221884722" lon="10.948116673903934" id="-26348">
		<tag k="name" v="Hytteholmen" />
		<tag k="place" v="islet" />
		<tag k="ssr:stedsnr" v="721076" />
	</node>
	<node lat="59.103188886597096" lon="10.853005548950636" id="-26349">
		<tag k="name" v="Grønntangen" />
		<tag k="natural" v="cape" />
		<tag k="ssr:stedsnr" v="721580" />
	</node>
	<node lat="59.05271944561003" lon="10.862630553438255" id="-26350">
		<tag k="fixme" v="consider seamark:type=rock or natural=shoal" />
		<tag k="name" v="Veslesten" />
		<tag k="place" v="islet" />
		<tag k="ssr:stedsnr" v="721687" />
	</node>
	<node lat="58.96685833596505" lon="10.834480558298292" id="-26358">
		<tag k="name" v="Hankerflu" />
		<tag k="natural" v="shoal" />
		<tag k="place" v="locality" />
		<tag k="ssr:stedsnr" v="722728" />
	</node>
	<node lat="59.11363611500495" lon="10.884102770016929" id="-26359">
		<tag k="name" v="Jordbærholmen" />
		<tag k="place" v="islet" />
		<tag k="ssr:stedsnr" v="722731" />
	</node>
	<node lat="58.95828611496218" lon="10.873047229661568" id="-26365">
		<tag k="name" v="Heia" />
		<tag k="place" v="islet" />
		<tag k="ssr:stedsnr" v="728746" />
	</node>
	<node lat="59.108500002688025" lon="10.829775006496615" id="-26371">
		<tag k="name" v="Lyngholmen" />
		<tag k="place" v="islet" />
		<tag k="ssr:stedsnr" v="729722" />
	</node>
	<node lat="58.99473055582662" lon="10.837130551558893" id="-26374">
		<tag k="name" v="Veddøygrunnen" />
		<tag k="natural" v="shoal" />
		<tag k="place" v="locality" />
		<tag k="ssr:stedsnr" v="729991" />
	</node>
	<node lat="58.99835833094889" lon="10.827086118801958" id="-26375">
		<tag k="fixme" v="consider seamark:type=rock or natural=shoal" />
		<tag k="name" v="Kolleribba" />
		<tag k="place" v="islet" />
		<tag k="ssr:stedsnr" v="729992" />
	</node>
	<node lat="59.01108332931178" lon="11.014494444857045" id="-26377">
		<tag k="loc_name" v="Nord-Lauer" />
		<tag k="name" v="Nordre Lauer" />
		<tag k="place" v="island" />
		<tag k="ssr:stedsnr" v="730614" />
	</node>
	<node lat="59.020272223756244" lon="11.035363891299768" id="-26378">
		<tag k="name" v="Tareholmrenna" />
		<tag k="natural" v="strait" />
		<tag k="ssr:stedsnr" v="730619" />
	</node>
	<node lat="59.03935000047592" lon="11.0574750012864" id="-26379">
		<tag k="name" v="Hellekilen" />
		<tag k="natural" v="bay" />
		<tag k="ssr:stedsnr" v="730676" />
	</node>
	<node lat="58.99491944394435" lon="11.06058055914477" id="-26385">
		<tag k="name" v="Tøftebukta" />
		<tag k="natural" v="bay" />
		<tag k="ssr:stedsnr" v="750308" />
	</node>
	<node lat="59.11904167101662" lon="11.139611113784277" id="-26388">
		<tag k="name" v="Kinnervika" />
		<tag k="natural" v="bay" />
		<tag k="ssr:stedsnr" v="751403" />
	</node>
	<node lat="59.0385916697263" lon="11.057400005699412" id="-26389">
		<tag k="name" v="Jevika" />
		<tag k="natural" v="bay" />
		<tag k="ssr:stedsnr" v="751405" />
	</node>
	<node lat="59.03565832983973" lon="11.061905560794147" id="-26390">
		<tag k="name" v="Rennevikholmen" />
		<tag k="place" v="islet" />
		<tag k="ssr:stedsnr" v="751407" />
	</node>
	<node lat="59.10419444866017" lon="11.12151389551203" id="-26391">
		<tag k="name" v="Kverndalstangen" />
		<tag k="natural" v="cape" />
		<tag k="ssr:stedsnr" v="751419" />
	</node>
	<node lat="58.98719444196504" lon="11.053077778465145" id="-26398">
		<tag k="name" v="Stormonhue" />
		<tag k="natural" v="cape" />
		<tag k="ssr:stedsnr" v="781901" />
	</node>
	<node lat="58.98592222208102" lon="10.958325001557307" id="-26399">
		<tag k="name" v="Lyngholmen" />
		<tag k="place" v="islet" />
		<tag k="ssr:stedsnr" v="782053" />
	</node>
	<node lat="58.982275000615786" lon="10.934347229011166" id="-26400">
		<tag k="alt_name" v="Alnefluene;Ærnefluene" />
		<tag k="name" v="Alneflua" />
		<tag k="place" v="islet" />
		<tag k="ssr:stedsnr" v="782064" />
	</node>
	<node lat="59.06355833493795" lon="10.892050006508375" id="-26401">
		<tag k="fixme" v="consider seamark:type=rock or natural=shoal" />
		<tag k="name" v="Laksen" />
		<tag k="place" v="islet" />
		<tag k="ssr:stedsnr" v="782264" />
	</node>
	<node lat="59.095674995548926" lon="10.827844448501907" id="-26402">
		<tag k="name" v="Svana" />
		<tag k="place" v="islet" />
		<tag k="ssr:stedsnr" v="782104" />
	</node>
	<node lat="59.06400833530089" lon="10.920052781202486" id="-26405">
		<tag k="fixme" v="consider seamark:type=rock or natural=shoal" />
		<tag k="name" v="Gjeteryggen" />
		<tag k="place" v="islet" />
		<tag k="ssr:stedsnr" v="782622" />
	</node>
	<node lat="59.09659722334722" lon="11.036269446955826" id="-26406">
		<tag k="name" v="Revtangholmen" />
		<tag k="place" v="islet" />
		<tag k="ssr:stedsnr" v="782350" />
	</node>
	<node lat="59.07629722580426" lon="10.86643889592627" id="-26407">
		<tag k="name" v="Hærsnestangen" />
		<tag k="natural" v="cape" />
		<tag k="ssr:stedsnr" v="782581" />
	</node>
	<node lat="58.995633334183935" lon="11.017858325697057" id="-26409">
		<tag k="loc_name" v="Angrøthavna" />
		<tag k="name" v="Angerethavna" />
		<tag k="natural" v="bay" />
		<tag k="ssr:stedsnr" v="782915" />
	</node>
	<node lat="59.08500277792136" lon="10.93206388670175" id="-26410">
		<tag k="fixme" v="consider seamark:type=rock or natural=shoal" />
		<tag k="name" v="Olaskjær" />
		<tag k="place" v="islet" />
		<tag k="ssr:stedsnr" v="782956" />
	</node>
	<node lat="59.07152222072349" lon="10.879874993902236" id="-26413">
		<tag k="name" v="Gode havne" />
		<tag k="natural" v="bay" />
		<tag k="ssr:stedsnr" v="782865" />
	</node>
	<node lat="59.11654444857156" lon="10.838547222678157" id="-26425">
		<tag k="name" v="Slepholmene" />
		<tag k="place" v="islet" />
		<tag k="ssr:stedsnr" v="790724" />
	</node>
	<node lat="59.09575000164785" lon="10.830300004503524" id="-26427">
		<tag k="alt_name" v="Storen" />
		<tag k="name" v="Stolen" />
		<tag k="natural" v="bay" />
		<tag k="ssr:stedsnr" v="790752" />
	</node>
	<node lat="59.02500938816449" lon="11.017594743453856" id="-26428">
		<tag k="alt_name" v="Prestesand" />
		<tag k="name" v="Storesand" />
		<tag k="natural" v="beach" />
		<tag k="ssr:stedsnr" v="790604" />
	</node>
	<node lat="59.02829444583326" lon="11.086038897666606" id="-26429">
		<tag k="name" v="Nordre Sandøy" />
		<tag k="place" v="island" />
		<tag k="ssr:stedsnr" v="790611" />
	</node>
	<node lat="59.04272499696961" lon="10.94387499685703" id="-26432">
		<tag k="name" v="Vikerkilen" />
		<tag k="natural" v="bay" />
		<tag k="ssr:stedsnr" v="790663" />
	</node>
	<node lat="59.037749997818054" lon="10.964774992946223" id="-26433">
		<tag k="name" v="Fugletangen" />
		<tag k="natural" v="cape" />
		<tag k="ssr:stedsnr" v="790665" />
	</node>
	<node lat="59.12781944768461" lon="10.847836110737433" id="-26434">
		<tag k="fixme" v="consider seamark:type=rock or natural=shoal" />
		<tag k="name" v="Knubben" />
		<tag k="place" v="islet" />
		<tag k="ssr:stedsnr" v="790797" />
	</node>
	<node lat="59.01872500127636" lon="11.01421111220846" id="-26435">
		<tag k="name" v="Sildevika" />
		<tag k="natural" v="bay" />
		<tag k="ssr:stedsnr" v="902282" />
	</node>
	<node lat="58.98097777959595" lon="10.94666388492416" id="-26436">
		<tag k="name" v="Knubbholmen" />
		<tag k="place" v="islet" />
		<tag k="ssr:stedsnr" v="903079" />
	</node>
	<node lat="59.071561114171196" lon="10.862866667328" id="-26439">
		<tag k="name" v="Gylteholmen" />
		<tag k="old_name" v="Gyltehomen" />
		<tag k="place" v="islet" />
		<tag k="ssr:stedsnr" v="903681" />
	</node>
	<node lat="59.01750833698002" lon="10.96351666026644" id="-26441">
		<tag k="name" v="Duken" />
		<tag k="natural" v="shoal" />
		<tag k="place" v="locality" />
		<tag k="ssr:stedsnr" v="903718" />
	</node>
	<node lat="59.080352777572486" lon="10.95993610251855" id="-26442">
		<tag k="name" v="Lisundet" />
		<tag k="natural" v="strait" />
		<tag k="ssr:stedsnr" v="903783" />
	</node>
	<node lat="58.987247221711506" lon="11.059363880283586" id="-26443">
		<tag k="name" v="Vestre Gylteholmen" />
		<tag k="place" v="islet" />
		<tag k="ssr:stedsnr" v="903877" />
	</node>
	<node lat="58.98677222478826" lon="11.056480548132372" id="-26444">
		<tag k="fixme" v="consider seamark:type=rock or natural=shoal" />
		<tag k="name" v="Rokka" />
		<tag k="place" v="islet" />
		<tag k="ssr:stedsnr" v="903880" />
	</node>
	<node lat="59.12675555106356" lon="10.905250004921902" id="-26447">
		<tag k="name" v="Den gule sten" />
		<tag k="place" v="islet" />
		<tag k="ssr:stedsnr" v="904469" />
	</node>
	<node lat="59.00699722181313" lon="11.033341667631403" id="-26450">
		<tag k="name" v="Holmengrå" />
		<tag k="place" v="islet" />
		<tag k="ssr:stedsnr" v="904927" />
	</node>
	<node lat="58.99759721825681" lon="11.03078610613406" id="-26453">
		<tag k="alt_name" v="Hytteskjærene vestre" />
		<tag k="fixme" v="consider seamark:type=rock or natural=shoal" />
		<tag k="name" v="Vestre Hytteskjærene" />
		<tag k="place" v="islet" />
		<tag k="ssr:stedsnr" v="904949" />
	</node>
	<node lat="59.04050555658044" lon="11.063874996268396" id="-26454">
		<tag k="name" v="Helleskilholmen" />
		<tag k="place" v="islet" />
		<tag k="ssr:stedsnr" v="812386" />
	</node>
	<node lat="59.11629444684941" lon="11.141405547151125" id="-26456">
		<tag k="name" v="Orebukta" />
		<tag k="natural" v="bay" />
		<tag k="ssr:stedsnr" v="812399" />
	</node>
	<node lat="58.988549999443876" lon="11.064436105714016" id="-26462">
		<tag k="name" v="Østre Gylteholmen" />
		<tag k="place" v="islet" />
		<tag k="ssr:stedsnr" v="842889" />
	</node>
	<node lat="59.03198610801905" lon="11.013505552951298" id="-26464">
		<tag k="name" v="Gråtersand" />
		<tag k="natural" v="beach" />
		<tag k="ssr:stedsnr" v="843087" />
	</node>
	<node lat="59.091969446647596" lon="10.839655559619736" id="-26466">
		<tag k="name" v="Kuvauen" />
		<tag k="natural" v="bay" />
		<tag k="ssr:stedsnr" v="911540" />
	</node>
	<node lat="59.12720277843537" lon="10.891872229605935" id="-26469">
		<tag k="name" v="Blindskjæra" />
		<tag k="place" v="islet" />
		<tag k="ssr:stedsnr" v="843487" />
	</node>
	<node lat="59.01671944045369" lon="11.109761102615156" id="-26473">
		<tag k="name" v="Reiertangen" />
		<tag k="natural" v="cape" />
		<tag k="ssr:stedsnr" v="843577" />
	</node>
	<node lat="59.11521944308923" lon="11.122574997943167" id="-26474">
		<tag k="name" v="Ekevika" />
		<tag k="natural" v="bay" />
		<tag k="ssr:stedsnr" v="843592" />
	</node>
	<node lat="59.11392222004825" lon="10.878669448281146" id="-26475">
		<tag k="name" v="Lille Bjerkholmen" />
		<tag k="place" v="islet" />
		<tag k="ssr:stedsnr" v="843727" />
	</node>
	<node lat="58.99086944393211" lon="11.046733335906742" id="-26478">
		<tag k="fixme" v="consider seamark:type=rock or natural=shoal" />
		<tag k="name" v="Guleknubben" />
		<tag k="place" v="islet" />
		<tag k="ssr:stedsnr" v="843890" />
	</node>
	<node lat="59.08561666634083" lon="10.842372222850791" id="-26479">
		<tag k="name" v="Slettevika" />
		<tag k="natural" v="bay" />
		<tag k="ssr:stedsnr" v="843891" />
	</node>
	<node lat="58.99191944322349" lon="11.042166665843608" id="-26480">
		<tag k="name" v="Grønnbauen" />
		<tag k="natural" v="bay" />
		<tag k="ssr:stedsnr" v="843901" />
	</node>
	<node lat="59.08971389232594" lon="11.052305560862793" id="-26482">
		<tag k="name" v="Jensholmen" />
		<tag k="place" v="islet" />
		<tag k="ssr:stedsnr" v="844033" />
	</node>
	<node lat="59.09271944554239" lon="11.025758334414038" id="-26483">
		<tag k="name" v="Kristianklova" />
		<tag k="natural" v="bay" />
		<tag k="ssr:stedsnr" v="844376" />
	</node>
	<node lat="58.98857499679396" lon="11.062750004362496" id="-26486">
		<tag k="alt_name" v="Jultholmene" />
		<tag k="name" v="Gylteholmene" />
		<tag k="place" v="islet" />
		<tag k="ssr:stedsnr" v="911776" />
	</node>
	<node lat="58.9608361090848" lon="10.922327775925051" id="-26487">
		<tag k="name" v="Skomakerhausene" />
		<tag k="natural" v="shoal" />
		<tag k="place" v="locality" />
		<tag k="ssr:stedsnr" v="911783" />
	</node>
	<node lat="58.99041944185463" lon="11.040475001597255" id="-26490">
		<tag k="name" v="Svanetangen" />
		<tag k="natural" v="cape" />
		<tag k="ssr:stedsnr" v="911981" />
	</node>
	<node lat="58.99643055728805" lon="11.007755547454787" id="-26491">
		<tag k="alt_name" v="Lille Angeret" />
		<tag k="loc_name" v="Lille Angrøt" />
		<tag k="name" v="Lille Angret" />
		<tag k="place" v="islet" />
		<tag k="ssr:stedsnr" v="911984" />
	</node>
	<node lat="58.995963886926255" lon="11.019163883036958" id="-26493">
		<tag k="alt_name" v="Store Angeret" />
		<tag k="loc_name" v="Store Angrøt" />
		<tag k="name" v="Store Angret" />
		<tag k="place" v="islet" />
		<tag k="ssr:stedsnr" v="911986" />
	</node>
	<node lat="59.020563890681125" lon="11.110763894001678" id="-26494">
		<tag k="name" v="Storhavna" />
		<tag k="natural" v="bay" />
		<tag k="ssr:stedsnr" v="912231" />
	</node>
	<node lat="59.059475004386826" lon="10.905250000061589" id="-26498">
		<tag k="alt_name" v="Spjæreræva" />
		<tag k="name" v="Spjærodden" />
		<tag k="natural" v="cape" />
		<tag k="ssr:stedsnr" v="912550" />
	</node>
	<node lat="59.07110277822036" lon="10.973522215446039" id="-26499">
		<tag k="alt_name" v="Kirkeskjær" />
		<tag k="fixme" v="consider seamark:type=rock or natural=shoal" />
		<tag k="name" v="Kjerkeskjæret" />
		<tag k="place" v="islet" />
		<tag k="ssr:stedsnr" v="912533" />
	</node>
	<node lat="59.034144444805854" lon="11.084947221316384" id="-26502">
		<tag k="alt_name" v="Andholmen" />
		<tag k="name" v="Andholmene" />
		<tag k="place" v="islet" />
		<tag k="ssr:stedsnr" v="912631" />
	</node>
	<node lat="59.09600000306159" lon="10.968330557413928" id="-26505">
		<tag k="alt_name" v="Morenggrunnen" />
		<tag k="name" v="Mørengrunnen" />
		<tag k="natural" v="shoal" />
		<tag k="place" v="locality" />
		<tag k="ssr:stedsnr" v="912576" />
	</node>
	<node lat="59.03770000045378" lon="10.683586114408875" id="-26507">
		<tag k="name" v="Søndre Storegrunn" />
		<tag k="natural" v="shoal" />
		<tag k="place" v="locality" />
		<tag k="ssr:stedsnr" v="851418" />
	</node>
	<node lat="59.094349999076876" lon="11.136627772933" id="-26508">
		<tag k="fixme" v="consider seamark:type=rock or natural=shoal" />
		<tag k="loc_name" v="Kalvekosten" />
		<tag k="name" v="Kalvkosten" />
		<tag k="place" v="islet" />
		<tag k="ssr:stedsnr" v="851183" />
	</node>
	<node lat="59.08295000417182" lon="10.843899996621136" id="-26511">
		<tag k="name" v="Guttormstangen" />
		<tag k="natural" v="cape" />
		<tag k="ssr:stedsnr" v="851513" />
	</node>
	<node lat="59.08894999669947" lon="10.84155000193615" id="-26512">
		<tag k="alt_name" v="Kråkevika" />
		<tag k="name" v="Kråkvika" />
		<tag k="natural" v="bay" />
		<tag k="ssr:stedsnr" v="851515" />
	</node>
	<node lat="59.03832500199206" lon="10.885900006316309" id="-26514">
		<tag k="name" v="Øytangen" />
		<tag k="natural" v="cape" />
		<tag k="ssr:stedsnr" v="851609" />
	</node>
	<node lat="59.04932499795997" lon="10.940174997800343" id="-26517">
		<tag k="name" v="Skipstadkilen" />
		<tag k="natural" v="bay" />
		<tag k="ssr:stedsnr" v="851588" />
	</node>
	<node lat="59.1061111137245" lon="11.09036389161792" id="-26519">
		<tag k="name" v="Lyngholmen" />
		<tag k="place" v="islet" />
		<tag k="ssr:stedsnr" v="851703" />
	</node>
	<node lat="59.043363887924365" lon="10.907344445396056" id="-26520">
		<tag k="fixme" v="consider seamark:type=rock or natural=shoal" />
		<tag k="name" v="Svartskjær" />
		<tag k="place" v="islet" />
		<tag k="ssr:stedsnr" v="852319" />
	</node>
	<node lat="59.0441249995539" lon="10.989408330602673" id="-26522">
		<tag k="name" v="Rørvik" />
		<tag k="natural" v="bay" />
		<tag k="ssr:stedsnr" v="858586" />
	</node>
	<node lat="59.05722222450009" lon="11.000036116188399" id="-26523">
		<tag k="name" v="Bukta" />
		<tag k="natural" v="bay" />
		<tag k="ssr:stedsnr" v="916941" />
	</node>
	<node lat="59.014183331672" lon="11.058977775334647" id="-26524">
		<tag k="name" v="Krossholmsundet" />
		<tag k="natural" v="strait" />
		<tag k="ssr:stedsnr" v="872321" />
	</node>
	<node lat="58.99656944405145" lon="11.074874998210769" id="-26525">
		<tag k="name" v="Lille Bryggeholmen" />
		<tag k="place" v="islet" />
		<tag k="ssr:stedsnr" v="872365" />
	</node>
	<node lat="59.09065833408533" lon="10.911733325966873" id="-26530">
		<tag k="loc_name" v="Vikuholmen" />
		<tag k="name" v="Trollholmen" />
		<tag k="place" v="islet" />
		<tag k="ssr:stedsnr" v="903501" />
	</node>
	<node lat="59.05454167085185" lon="10.991369449437563" id="-26531">
		<tag k="fixme" v="consider seamark:type=rock or natural=shoal" />
		<tag k="name" v="Helgeskjær" />
		<tag k="place" v="islet" />
		<tag k="ssr:stedsnr" v="903610" />
	</node>
	<node lat="59.049872224244595" lon="10.926516673857098" id="-26532">
		<tag k="name" v="Kompallen" />
		<tag k="natural" v="strait" />
		<tag k="ssr:stedsnr" v="904051" />
	</node>
	<node lat="59.08724722445645" lon="10.90553889536888" id="-26534">
		<tag k="name" v="Brattholmen" />
		<tag k="place" v="islet" />
		<tag k="ssr:stedsnr" v="903981" />
	</node>
	<node lat="59.02891388634602" lon="11.007122224231887" id="-26535">
		<tag k="name" v="Ørekroktangen" />
		<tag k="natural" v="cape" />
		<tag k="ssr:stedsnr" v="904104" />
	</node>
	<node lat="59.124061113760746" lon="10.845658328581258" id="-26536">
		<tag k="fixme" v="consider seamark:type=rock or natural=shoal" />
		<tag k="name" v="Svartskjær" />
		<tag k="place" v="islet" />
		<tag k="ssr:stedsnr" v="904407" />
	</node>
	<node lat="59.08942500131796" lon="10.968341663371127" id="-26537">
		<tag k="name" v="Løpertangen" />
		<tag k="natural" v="cape" />
		<tag k="ssr:stedsnr" v="904408" />
	</node>
	<node lat="59.12893055179099" lon="10.903327773513567" id="-26538">
		<tag k="name" v="Kristinaholmen" />
		<tag k="place" v="islet" />
		<tag k="ssr:stedsnr" v="904417" />
	</node>
	<node lat="59.12960833509748" lon="10.917852779913733" id="-26539">
		<tag k="alt_name" v="Hundreogen" />
		<tag k="name" v="Ringholmen" />
		<tag k="place" v="islet" />
		<tag k="ssr:stedsnr" v="904427" />
	</node>
	<node lat="59.05862222229735" lon="10.957075007341595" id="-26542">
		<tag k="fixme" v="consider seamark:type=rock or natural=shoal" />
		<tag k="name" v="Sandholmen" />
		<tag k="place" v="islet" />
		<tag k="ssr:stedsnr" v="904910" />
	</node>
	<node lat="59.093108336867125" lon="11.04611945194488" id="-26543">
		<tag k="name" v="Uleskjæra" />
		<tag k="place" v="islet" />
		<tag k="ssr:stedsnr" v="904911" />
	</node>
	<node lat="59.1060499962534" lon="11.102649999165354" id="-26553">
		<tag k="name" v="Lina" />
		<tag k="place" v="islet" />
		<tag k="ssr:stedsnr" v="911826" />
	</node>
	<node lat="59.07567500342014" lon="10.863519441956146" id="-26554">
		<tag k="name" v="Kilen" />
		<tag k="natural" v="bay" />
		<tag k="ssr:stedsnr" v="911560" />
	</node>
	<node lat="59.11077221952355" lon="10.875877776617571" id="-26556">
		<tag k="alt_name" v="Hestehella" />
		<tag k="name" v="Hesthella" />
		<tag k="natural" v="cape" />
		<tag k="ssr:stedsnr" v="911719" />
	</node>
	<node lat="59.07197500219605" lon="10.855274995316902" id="-26558">
		<tag k="name" v="Bastangen" />
		<tag k="natural" v="cape" />
		<tag k="ssr:stedsnr" v="912541" />
	</node>
	<node lat="59.02259721934705" lon="10.851999994803295" id="-26559">
		<tag k="name" v="Djupekrakk" />
		<tag k="natural" v="shoal" />
		<tag k="place" v="locality" />
		<tag k="ssr:stedsnr" v="912603" />
	</node>
	<node lat="59.02716944008384" lon="11.08337499668807" id="-26560">
		<tag k="alt_name" v="Holungen" />
		<tag k="name" v="Hollungen" />
		<tag k="natural" v="cape" />
		<tag k="ssr:stedsnr" v="912607" />
	</node>
	<node lat="59.12657500001432" lon="10.858150004818484" id="-26563">
		<tag k="name" v="Fleskeknollen" />
		<tag k="place" v="islet" />
		<tag k="ssr:stedsnr" v="912751" />
	</node>
	<node lat="59.013691670450335" lon="11.06277778185964" id="-26564">
		<tag k="name" v="Salta" />
		<tag k="place" v="locality" />
		<tag k="ssr:stedsnr" v="932307" />
	</node>
	<node lat="59.06422777687584" lon="11.087391671318535" id="-26565">
		<tag k="fixme" v="consider seamark:type=rock or natural=shoal" />
		<tag k="name" v="Saltkjelen" />
		<tag k="place" v="islet" />
		<tag k="ssr:stedsnr" v="932338" />
	</node>
	<node lat="59.05046666294114" lon="11.06625277571654" id="-26566">
		<tag k="name" v="Trearna" />
		<tag k="natural" v="strait" />
		<tag k="ssr:stedsnr" v="932354" />
	</node>
	<node lat="59.07731039218947" lon="10.825250725434861" id="-26568">
		<tag k="name" v="Torskebakkgrunnen" />
		<tag k="natural" v="shoal" />
		<tag k="place" v="locality" />
		<tag k="ssr:stedsnr" v="936036" />
	</node>
	<node lat="58.990022222130634" lon="11.059355559397146" id="-26570">
		<tag k="name" v="Stormon" />
		<tag k="natural" v="cape" />
		<tag k="ssr:stedsnr" v="963908" />
	</node>
	<node lat="58.98611111105516" lon="11.062933330962666" id="-26571">
		<tag k="fixme" v="consider seamark:type=rock or natural=shoal" />
		<tag k="name" v="Havkattskjær" />
		<tag k="place" v="islet" />
		<tag k="ssr:stedsnr" v="963912" />
	</node>
	<node lat="59.046958337781405" lon="10.97918055329147" id="-26573">
		<tag k="fixme" v="consider seamark:type=rock or natural=shoal" />
		<tag k="name" v="Hestrompa" />
		<tag k="place" v="islet" />
		<tag k="ssr:stedsnr" v="964239" />
	</node>
	<node lat="59.123566666537286" lon="10.927858334524755" id="-26574">
		<tag k="name" v="Siljeholmrenna" />
		<tag k="natural" v="strait" />
		<tag k="ssr:stedsnr" v="964486" />
	</node>
	<node lat="58.98933611311596" lon="10.861436103335931" id="-26575">
		<tag k="name" v="Nordre Kollekrakken" />
		<tag k="natural" v="shoal" />
		<tag k="place" v="locality" />
		<tag k="ssr:stedsnr" v="964692" />
	</node>
	<node lat="59.034411107969504" lon="10.887502784335087" id="-26576">
		<tag k="name" v="Øykrakken" />
		<tag k="natural" v="shoal" />
		<tag k="place" v="locality" />
		<tag k="ssr:stedsnr" v="964696" />
	</node>
	<node lat="59.00601389149933" lon="11.013555563339882" id="-26580">
		<tag k="name" v="Olas holme" />
		<tag k="place" v="islet" />
		<tag k="ssr:stedsnr" v="964945" />
	</node>
	<node lat="59.010991668164685" lon="11.03709721379268" id="-26581">
		<tag k="name" v="Børholmsundet" />
		<tag k="natural" v="strait" />
		<tag k="ssr:stedsnr" v="964948" />
	</node>
	<node lat="58.9873831731604" lon="10.95689980962606" id="-26588">
		<tag k="name" v="Ølbergholmene" />
		<tag k="place" v="islet" />
		<tag k="ssr:stedsnr" v="989628" />
	</node>
	<node lat="58.98199113455713" lon="10.934634652658188" id="-26589">
		<tag k="fixme" v="consider seamark:type=rock or natural=shoal" />
		<tag k="name" v="Alnefluene" />
		<tag k="place" v="islet" />
		<tag k="ssr:stedsnr" v="989629" />
	</node>
	<node lat="59.08242500142024" lon="11.044775001549068" id="-26593">
		<tag k="name" v="Saltholmen" />
		<tag k="place" v="islet" />
		<tag k="ssr:stedsnr" v="1565" />
	</node>
	<node lat="59.08419999971214" lon="11.083699994121725" id="-26594">
		<tag k="alt_name" v="Store Vrangholmen" />
		<tag k="name" v="Vrangholmen" />
		<tag k="place" v="islet" />
		<tag k="ssr:stedsnr" v="1568" />
	</node>
	<node lat="59.064349996643244" lon="10.89339999308423" id="-26595">
		<tag k="name" v="Makrelltangen" />
		<tag k="natural" v="cape" />
		<tag k="ssr:stedsnr" v="1527" />
	</node>
	<node lat="59.0553000039823" lon="10.87799999680712" id="-26596">
		<tag k="name" v="Nordøytangen" />
		<tag k="natural" v="cape" />
		<tag k="ssr:stedsnr" v="1528" />
	</node>
	<node lat="59.00219722658473" lon="10.798949994922365" id="-26597">
		<tag k="alt_name" v="Skjersribba" />
		<tag k="name" v="Skjærsribba" />
		<tag k="natural" v="shoal" />
		<tag k="place" v="locality" />
		<tag k="ssr:stedsnr" v="1570" />
	</node>
	<node lat="59.05237499574833" lon="10.854450000194296" id="-26599">
		<tag k="name" v="Langgrunnen" />
		<tag k="natural" v="shoal" />
		<tag k="place" v="locality" />
		<tag k="ssr:stedsnr" v="1622" />
	</node>
	<node lat="58.99581944286466" lon="11.081113887662829" id="-26600">
		<tag k="name" v="Gjølertangen" />
		<tag k="natural" v="cape" />
		<tag k="ssr:stedsnr" v="1757" />
	</node>
	<node lat="58.98652777586238" lon="10.865583333547782" id="-26601">
		<tag k="name" v="Kollekrakk" />
		<tag k="natural" v="shoal" />
		<tag k="place" v="locality" />
		<tag k="ssr:stedsnr" v="1762" />
	</node>
	<node lat="59.02233333296936" lon="11.113502776345015" id="-26602">
		<tag k="alt_name" v="Mølen" />
		<tag k="name" v="Mølla" />
		<tag k="natural" v="cape" />
		<tag k="ssr:stedsnr" v="2224" />
	</node>
	<node lat="59.028838887614114" lon="11.055908338614115" id="-26603">
		<tag k="alt_name" v="Skarsneset" />
		<tag k="loc_name" v="Skårsnesholmen" />
		<tag k="name" v="Skårsnes" />
		<tag k="natural" v="cape" />
		<tag k="ssr:stedsnr" v="2620" />
	</node>
	<node lat="59.11782500388716" lon="11.144850006926841" id="-26604">
		<tag k="name" v="Singletangen" />
		<tag k="natural" v="cape" />
		<tag k="ssr:stedsnr" v="2851" />
	</node>
	<node lat="58.99433889102799" lon="11.064766669191517" id="-26606">
		<tag k="name" v="Terneholmen" />
		<tag k="place" v="islet" />
		<tag k="ssr:stedsnr" v="22294" />
	</node>
	<node lat="59.009316663088526" lon="11.085361105447952" id="-26607">
		<tag k="name" v="Lille Stuevika" />
		<tag k="natural" v="bay" />
		<tag k="ssr:stedsnr" v="22296" />
	</node>
	<node lat="59.00273333711317" lon="11.060763897664613" id="-26608">
		<tag k="name" v="Skjellsund" />
		<tag k="natural" v="strait" />
		<tag k="ssr:stedsnr" v="22299" />
	</node>
	<node lat="59.077177773652416" lon="11.090288894252165" id="-26609">
		<tag k="name" v="Mølskeholmene" />
		<tag k="place" v="islet" />
		<tag k="ssr:stedsnr" v="22321" />
	</node>
	<node lat="59.07197222216692" lon="11.091961110131429" id="-26610">
		<tag k="name" v="Edsholmen" />
		<tag k="place" v="islet" />
		<tag k="ssr:stedsnr" v="22331" />
	</node>
	<node lat="59.05876388585591" lon="11.088677775322875" id="-26612">
		<tag k="name" v="Lundbergholmene" />
		<tag k="place" v="islet" />
		<tag k="ssr:stedsnr" v="22347" />
	</node>
	<node lat="59.04577500386237" lon="11.094263882679384" id="-26614">
		<tag k="name" v="Teseholmene" />
		<tag k="place" v="islet" />
		<tag k="ssr:stedsnr" v="23435" />
	</node>
	<node lat="59.03770833240074" lon="11.068308325243482" id="-26615">
		<tag k="name" v="Stenholmen" />
		<tag k="place" v="islet" />
		<tag k="ssr:stedsnr" v="23439" />
	</node>
	<node lat="59.09970277499029" lon="11.127275005786714" id="-26616">
		<tag k="name" v="Sand" />
		<tag k="natural" v="shoal" />
		<tag k="place" v="locality" />
		<tag k="ssr:stedsnr" v="23456" />
	</node>
	<node lat="59.04843055363347" lon="10.93286944377417" id="-26625">
		<tag k="name" v="Svanebukta" />
		<tag k="natural" v="bay" />
		<tag k="ssr:stedsnr" v="54056" />
	</node>
	<node lat="59.04135833431913" lon="10.937911104609826" id="-26626">
		<tag k="name" v="Kutangen" />
		<tag k="natural" v="cape" />
		<tag k="ssr:stedsnr" v="54058" />
	</node>
	<node lat="59.11259166495685" lon="10.912586104256956" id="-26627">
		<tag k="name" v="Ødegårdskilen" />
		<tag k="natural" v="bay" />
		<tag k="ssr:stedsnr" v="54074" />
	</node>
	<node lat="58.97759166606754" lon="10.957958340858811" id="-26628">
		<tag k="name" v="Kløversundet" />
		<tag k="natural" v="strait" />
		<tag k="ssr:stedsnr" v="54079" />
	</node>
	<node lat="58.97969166873219" lon="10.961000007361449" id="-26629">
		<tag k="name" v="Skjellmøren" />
		<tag k="natural" v="bay" />
		<tag k="ssr:stedsnr" v="54080" />
	</node>
	<node lat="59.02473055623831" lon="11.04477222583463" id="-26632">
		<tag k="name" v="Gilbergodden" />
		<tag k="natural" v="cape" />
		<tag k="ssr:stedsnr" v="54092" />
	</node>
	<node lat="59.09649999681703" lon="11.040733326936884" id="-26634">
		<tag k="fixme" v="consider seamark:type=rock or natural=shoal" />
		<tag k="name" v="Hermannskjær" />
		<tag k="place" v="islet" />
		<tag k="ssr:stedsnr" v="54381" />
	</node>
	<node lat="59.124011109990406" lon="10.88783611570199" id="-26636">
		<tag k="name" v="Bommeskjæra" />
		<tag k="place" v="islet" />
		<tag k="ssr:stedsnr" v="54485" />
	</node>
	<node lat="59.09415278108074" lon="10.942024999877978" id="-26637">
		<tag k="name" v="Sørengkilen" />
		<tag k="natural" v="bay" />
		<tag k="ssr:stedsnr" v="54437" />
	</node>
	<node lat="59.086763890413984" lon="10.96012499478852" id="-26638">
		<tag k="fixme" v="consider seamark:type=rock or natural=shoal" />
		<tag k="name" v="Knubben" />
		<tag k="place" v="islet" />
		<tag k="ssr:stedsnr" v="54442" />
	</node>
	<node lat="59.118122219870855" lon="10.86015277015332" id="-26644">
		<tag k="name" v="Seiløysundet" />
		<tag k="natural" v="strait" />
		<tag k="ssr:stedsnr" v="54687" />
	</node>
	<node lat="59.12058333098706" lon="10.850222216558027" id="-26646">
		<tag k="name" v="Jordbærholmen" />
		<tag k="place" v="islet" />
		<tag k="ssr:stedsnr" v="54692" />
	</node>
	<node lat="58.99072777331455" lon="11.00009445241048" id="-26647">
		<tag k="name" v="Angretrenna" />
		<tag k="natural" v="strait" />
		<tag k="ssr:stedsnr" v="54699" />
	</node>
	<node lat="59.008225003697824" lon="11.015163888559522" id="-26649">
		<tag k="loc_name" v="Rolighøja" />
		<tag k="name" v="Rolighøla" />
		<tag k="natural" v="bay" />
		<tag k="ssr:stedsnr" v="54955" />
	</node>
	<node lat="59.121194440644885" lon="10.877722221842676" id="-26651">
		<tag k="alt_name" v="Bommegrunnen, s" />
		<tag k="name" v="Søndre Bommegrunnen" />
		<tag k="natural" v="shoal" />
		<tag k="place" v="locality" />
		<tag k="ssr:stedsnr" v="54892" />
	</node>
	<node lat="59.07573888659777" lon="10.95440278152548" id="-26654">
		<tag k="name" v="Libauen" />
		<tag k="natural" v="bay" />
		<tag k="ssr:stedsnr" v="55923" />
	</node>
	<node lat="58.97008888875476" lon="10.866102782186143" id="-26662">
		<tag k="fixme" v="consider seamark:type=rock or natural=shoal" />
		<tag k="name" v="Lilleribba" />
		<tag k="place" v="islet" />
		<tag k="ssr:stedsnr" v="61758" />
	</node>
	<node lat="59.10228889030195" lon="10.957572224750201" id="-26664">
		<tag k="alt_name" v="Kjellholmen;Tjelholmen" />
		<tag k="name" v="Tjeldholmen" />
		<tag k="place" v="island" />
		<tag k="ssr:stedsnr" v="62536" />
	</node>
	<node lat="59.09656944202297" lon="11.018424999889179" id="-26665">
		<tag k="fixme" v="consider seamark:type=rock or natural=shoal" />
		<tag k="name" v="Utengskjæra" />
		<tag k="place" v="islet" />
		<tag k="ssr:stedsnr" v="62538" />
	</node>
	<node lat="59.0852499955311" lon="10.900925003376294" id="-26666">
		<tag k="name" v="Almvika" />
		<tag k="natural" v="bay" />
		<tag k="ssr:stedsnr" v="62552" />
	</node>
	<node lat="59.066600003704345" lon="10.882022223221998" id="-26667">
		<tag k="name" v="Skjelholmen" />
		<tag k="place" v="islet" />
		<tag k="ssr:stedsnr" v="62499" />
	</node>
	<node lat="59.04107500209693" lon="10.932525006938475" id="-26670">
		<tag k="name" v="Fløsken" />
		<tag k="place" v="islet" />
		<tag k="ssr:stedsnr" v="62599" />
	</node>
	<node lat="59.11232081604556" lon="10.864161381037926" id="-26672">
		<tag k="name" v="Papperøy" />
		<tag k="place" v="island" />
		<tag k="ssr:stedsnr" v="62692" />
	</node>
	<node lat="58.98403889083294" lon="10.99399999239724" id="-26676">
		<tag k="name" v="Hatten" />
		<tag k="natural" v="shoal" />
		<tag k="place" v="locality" />
		<tag k="ssr:stedsnr" v="62763" />
	</node>
	<node lat="59.131400001885" lon="10.889150006467593" id="-26678">
		<tag k="fixme" v="consider seamark:type=rock or natural=shoal" />
		<tag k="name" v="Kråka" />
		<tag k="place" v="islet" />
		<tag k="ssr:stedsnr" v="63720" />
	</node>
	<node lat="59.12738611418343" lon="10.83800833436699" id="-26679">
		<tag k="name" v="Halvor" />
		<tag k="natural" v="shoal" />
		<tag k="place" v="locality" />
		<tag k="ssr:stedsnr" v="63727" />
	</node>
	<node lat="59.01194722419442" lon="11.088061111207537" id="-26680">
		<tag k="name" v="Fiskekroken" />
		<tag k="natural" v="bay" />
		<tag k="ssr:stedsnr" v="83324" />
	</node>
	<node lat="58.992927781837736" lon="11.0732111163341" id="-26681">
		<tag k="fixme" v="consider seamark:type=rock or natural=shoal" />
		<tag k="loc_name" v="Store Fisbuskjær" />
		<tag k="name" v="Store Fiskebuskjær" />
		<tag k="place" v="islet" />
		<tag k="ssr:stedsnr" v="83326" />
	</node>
	<node lat="58.99253888805366" lon="11.066122215372822" id="-26682">
		<tag k="fixme" v="consider seamark:type=rock or natural=shoal" />
		<tag k="name" v="Gule Knubben" />
		<tag k="place" v="islet" />
		<tag k="ssr:stedsnr" v="83358" />
	</node>
	<node lat="59.11856388871685" lon="11.126066675072332" id="-26683">
		<tag k="name" v="Ørnebukta" />
		<tag k="natural" v="bay" />
		<tag k="ssr:stedsnr" v="84368" />
	</node>
	<node lat="59.04431666462837" lon="11.079530554640124" id="-26684">
		<tag k="name" v="Sandholmene" />
		<tag k="place" v="islet" />
		<tag k="ssr:stedsnr" v="84369" />
	</node>
	<node lat="59.04151388572694" lon="11.071591660041673" id="-26685">
		<tag k="name" v="Agnilholmen" />
		<tag k="place" v="islet" />
		<tag k="ssr:stedsnr" v="84371" />
	</node>
	<node lat="59.0376361148155" lon="11.092563882646596" id="-26686">
		<tag k="fixme" v="consider seamark:type=rock or natural=shoal" />
		<tag k="name" v="Nysledeskjær" />
		<tag k="place" v="islet" />
		<tag k="ssr:stedsnr" v="84373" />
	</node>
	<node lat="59.03549722635056" lon="11.093555552021382" id="-26688">
		<tag k="name" v="Sandbukta" />
		<tag k="natural" v="bay" />
		<tag k="ssr:stedsnr" v="84375" />
	</node>
	<node lat="58.996955551966806" lon="10.782794449657908" id="-26690">
		<tag k="name" v="Torbjørnskjær" />
		<tag k="place" v="island" />
		<tag k="ssr:stedsnr" v="102749" />
	</node>
	<node lat="59.028130559734585" lon="10.992630558602182" id="-26692">
		<tag k="name" v="Rødshue" />
		<tag k="natural" v="cape" />
		<tag k="ssr:stedsnr" v="114261" />
	</node>
	<node lat="59.05030000117737" lon="10.89510554717861" id="-26696">
		<tag k="name" v="Festningsholmen" />
		<tag k="place" v="islet" />
		<tag k="ssr:stedsnr" v="115057" />
	</node>
	<node lat="58.986455553564866" lon="11.056549993678676" id="-26698">
		<tag k="name" v="Smalsundskjæra" />
		<tag k="place" v="islet" />
		<tag k="ssr:stedsnr" v="114894" />
	</node>
	<node lat="58.985172219722706" lon="11.058647214327468" id="-26699">
		<tag k="name" v="Sekkeskjæra" />
		<tag k="place" v="islet" />
		<tag k="ssr:stedsnr" v="114898" />
	</node>
	<node lat="58.981141670000376" lon="10.952486111141011" id="-26702">
		<tag k="alt_name" v="Tislerkilen" />
		<tag k="name" v="Kilen" />
		<tag k="natural" v="bay" />
		<tag k="ssr:stedsnr" v="115099" />
	</node>
	<node lat="59.12930833168955" lon="10.901636103868807" id="-26703">
		<tag k="name" v="Kristinahølet" />
		<tag k="natural" v="strait" />
		<tag k="ssr:stedsnr" v="115425" />
	</node>
	<node lat="59.125972221383044" lon="10.859074996141048" id="-26704">
		<tag k="name" v="Johannesstredet" />
		<tag k="natural" v="strait" />
		<tag k="ssr:stedsnr" v="115387" />
	</node>
	<node lat="59.09197777400202" lon="11.020825006528277" id="-26705">
		<tag k="name" v="Flåholmen" />
		<tag k="natural" v="cape" />
		<tag k="ssr:stedsnr" v="115392" />
	</node>
	<node lat="59.08726110699774" lon="11.118855547899708" id="-26707">
		<tag k="fixme" v="consider seamark:type=rock or natural=shoal" />
		<tag k="name" v="Bjørneskjærflua" />
		<tag k="place" v="islet" />
		<tag k="ssr:stedsnr" v="115857" />
	</node>
	<node lat="59.01392777503438" lon="11.004855552181471" id="-26709">
		<tag k="name" v="Søndre Kirkekrakk" />
		<tag k="natural" v="shoal" />
		<tag k="place" v="locality" />
		<tag k="ssr:stedsnr" v="115698" />
	</node>
	<node lat="59.103552781400914" lon="10.858891667872866" id="-26712">
		<tag k="fixme" v="consider seamark:type=rock or natural=shoal" />
		<tag k="name" v="Klaraskjæret" />
		<tag k="place" v="islet" />
		<tag k="ssr:stedsnr" v="115643" />
	</node>
	<node lat="59.121208333964674" lon="10.841555553786135" id="-26716">
		<tag k="name" v="Sandholmen" />
		<tag k="place" v="islet" />
		<tag k="ssr:stedsnr" v="115655" />
	</node>
	<node lat="59.12124444570143" lon="10.854766668849363" id="-26717">
		<tag k="name" v="Fredagsholmen" />
		<tag k="place" v="islet" />
		<tag k="ssr:stedsnr" v="115657" />
	</node>
	<node lat="59.13408865847351" lon="10.901223793021478" id="-26718">
		<tag k="fixme" v="consider seamark:type=rock or natural=shoal" />
		<tag k="name" v="Tenneskjær" />
		<tag k="place" v="islet" />
		<tag k="ssr:stedsnr" v="115871" />
	</node>
	<node lat="59.05814722509712" lon="10.99072499153014" id="-26721">
		<tag k="name" v="Skjellsund" />
		<tag k="natural" v="strait" />
		<tag k="ssr:stedsnr" v="115894" />
	</node>
	<node lat="59.00731388730633" lon="11.009730550994755" id="-26723">
		<tag k="loc_name" v="Flintesund" />
		<tag k="name" v="Furnøsund" />
		<tag k="natural" v="strait" />
		<tag k="ssr:stedsnr" v="115901" />
	</node>
	<node lat="59.00326944205082" lon="11.02131667468294" id="-26724">
		<tag k="loc_name" v="Angrøtrenna" />
		<tag k="name" v="Angeretrenna" />
		<tag k="natural" v="strait" />
		<tag k="ssr:stedsnr" v="115909" />
	</node>
	<node lat="58.99721110738463" lon="11.02505278556898" id="-26725">
		<tag k="fixme" v="consider seamark:type=rock or natural=shoal" />
		<tag k="name" v="Torskeskjær" />
		<tag k="place" v="islet" />
		<tag k="ssr:stedsnr" v="115911" />
	</node>
	<node lat="58.970469444485346" lon="10.809747219968411" id="-26733">
		<tag k="name" v="Djupflua" />
		<tag k="natural" v="shoal" />
		<tag k="place" v="locality" />
		<tag k="ssr:stedsnr" v="121762" />
	</node>
	<node lat="58.974644448976235" lon="10.908572214091445" id="-26734">
		<tag k="name" v="Nordre Heiskrakk" />
		<tag k="natural" v="shoal" />
		<tag k="place" v="locality" />
		<tag k="ssr:stedsnr" v="121765" />
	</node>
	<node lat="58.96877500055596" lon="11.006824995406644" id="-26735">
		<tag k="name" v="Tåkegrunnen" />
		<tag k="natural" v="shoal" />
		<tag k="place" v="locality" />
		<tag k="ssr:stedsnr" v="121766" />
	</node>
	<node lat="59.073691666927274" lon="10.979166665588641" id="-26736">
		<tag k="name" v="Brattholmene" />
		<tag k="place" v="islet" />
		<tag k="ssr:stedsnr" v="122489" />
	</node>
	<node lat="59.07632499959738" lon="10.888200008613477" id="-26737">
		<tag k="alt_name" v="Sauvika" />
		<tag k="name" v="Sauevika" />
		<tag k="natural" v="bay" />
		<tag k="ssr:stedsnr" v="122530" />
	</node>
	<node lat="58.98693611451566" lon="10.839463887159656" id="-26739">
		<tag k="name" v="Musa" />
		<tag k="natural" v="shoal" />
		<tag k="place" v="locality" />
		<tag k="ssr:stedsnr" v="122757" />
	</node>
	<node lat="58.99944999821137" lon="11.02856388123161" id="-26741">
		<tag k="name" v="Fløyholmen" />
		<tag k="place" v="islet" />
		<tag k="ssr:stedsnr" v="122991" />
	</node>
	<node lat="59.052749995878195" lon="10.982899995333895" id="-26742">
		<tag k="name" v="Hestholmen" />
		<tag k="place" v="islet" />
		<tag k="ssr:stedsnr" v="123654" />
	</node>
	<node lat="59.076549995824074" lon="11.111174999931217" id="-26743">
		<tag k="name" v="Gloraka" />
		<tag k="place" v="islet" />
		<tag k="ssr:stedsnr" v="123245" />
	</node>
	<node lat="59.115338885482274" lon="11.146672228309322" id="-26746">
		<tag k="fixme" v="consider seamark:type=rock or natural=shoal" />
		<tag k="name" v="Kallerholmskjær" />
		<tag k="place" v="islet" />
		<tag k="ssr:stedsnr" v="144419" />
	</node>
	<node lat="59.10914166358492" lon="11.139316661357581" id="-26747">
		<tag k="name" v="Kubauen" />
		<tag k="natural" v="bay" />
		<tag k="ssr:stedsnr" v="144422" />
	</node>
	<node lat="59.04894444098951" lon="10.921166668035676" id="-26758">
		<tag k="fixme" v="consider seamark:type=rock or natural=shoal" />
		<tag k="name" v="Knubben" />
		<tag k="place" v="islet" />
		<tag k="ssr:stedsnr" v="175028" />
	</node>
	<node lat="59.106433330717415" lon="10.927980561255234" id="-26759">
		<tag k="name" v="Vesle Granholmen" />
		<tag k="place" v="islet" />
		<tag k="ssr:stedsnr" v="175032" />
	</node>
	<node lat="59.051325001777144" lon="10.926652771462097" id="-26760">
		<tag k="name" v="Huserstøet" />
		<tag k="natural" v="bay" />
		<tag k="ssr:stedsnr" v="175033" />
	</node>
	<node lat="59.01214999791406" lon="11.030180559601307" id="-26769">
		<tag k="name" v="Søpla" />
		<tag k="place" v="islet" />
		<tag k="ssr:stedsnr" v="175947" />
	</node>
	<node lat="59.08765278096835" lon="11.050366666326772" id="-26770">
		<tag k="name" v="Bringebærholmen" />
		<tag k="place" v="islet" />
		<tag k="ssr:stedsnr" v="176032" />
	</node>
	<node lat="59.08527222044555" lon="11.038897222714528" id="-26771">
		<tag k="name" v="Urholmen" />
		<tag k="natural" v="cape" />
		<tag k="ssr:stedsnr" v="176034" />
	</node>
	<node lat="59.08382500026315" lon="11.038463881417426" id="-26772">
		<tag k="name" v="Kattholmen" />
		<tag k="place" v="islet" />
		<tag k="ssr:stedsnr" v="176035" />
	</node>
	<node lat="59.05851335586232" lon="10.973855337583979" id="-26773">
		<tag k="alt_name" v="Kråkeflu, n" />
		<tag k="fixme" v="multiple name tags, choose one and add the other to alt_name; consider seamark:type=rock or natural=shoal" />
		<tag k="name" v="Filletassflu;Nordre Kråkeflu" />
		<tag k="place" v="islet" />
		<tag k="ssr:stedsnr" v="175799" />
	</node>
	<node lat="58.98710278038443" lon="11.05483055752199" id="-26774">
		<tag k="name" v="Piren" />
		<tag k="natural" v="bay" />
		<tag k="ssr:stedsnr" v="175874" />
	</node>
	<node lat="59.080311110250044" lon="11.113733324880435" id="-26777">
		<tag k="name" v="Glorakbåen" />
		<tag k="place" v="locality" />
		<tag k="seamark:type" v="rock" />
		<tag k="ssr:stedsnr" v="176836" />
	</node>
	<node lat="59.063099996503944" lon="10.97607500597311" id="-26783">
		<tag k="fixme" v="consider seamark:type=rock or natural=shoal" />
		<tag k="name" v="Styve" />
		<tag k="place" v="islet" />
		<tag k="ssr:stedsnr" v="183463" />
	</node>
	<node lat="58.951905559361045" lon="10.903591669273268" id="-26785">
		<tag k="name" v="Blåkollene" />
		<tag k="natural" v="shoal" />
		<tag k="place" v="locality" />
		<tag k="ssr:stedsnr" v="183796" />
	</node>
	<node lat="59.11700000093188" lon="10.881625003492696" id="-26786">
		<tag k="name" v="Kollholmen" />
		<tag k="place" v="islet" />
		<tag k="ssr:stedsnr" v="183753" />
	</node>
	<node lat="58.99273889048804" lon="10.805674995048893" id="-26787">
		<tag k="fixme" v="consider seamark:type=rock or natural=shoal" />
		<tag k="name" v="Midtflua" />
		<tag k="place" v="islet" />
		<tag k="ssr:stedsnr" v="183769" />
	</node>
	<node lat="59.02031111390751" lon="11.039111114369861" id="-26788">
		<tag k="name" v="Tareholmen" />
		<tag k="place" v="islet" />
		<tag k="ssr:stedsnr" v="184582" />
	</node>
	<node lat="59.05280555551578" lon="11.071222216278331" id="-26791">
		<tag k="name" v="Romsundet" />
		<tag k="natural" v="strait" />
		<tag k="ssr:stedsnr" v="184611" />
	</node>
	<node lat="59.03547221853708" lon="10.951100003127241" id="-26792">
		<tag k="name" v="Vikerbogen" />
		<tag k="natural" v="bay" />
		<tag k="ssr:stedsnr" v="184621" />
	</node>
	<node lat="59.04292500076305" lon="11.082427774644998" id="-26794">
		<tag k="name" v="Granholmene" />
		<tag k="place" v="islet" />
		<tag k="ssr:stedsnr" v="184626" />
	</node>
	<node lat="59.12689444337035" lon="10.852852785003444" id="-26795">
		<tag k="fixme" v="consider seamark:type=rock or natural=shoal" />
		<tag k="name" v="Grindskjæra" />
		<tag k="place" v="islet" />
		<tag k="ssr:stedsnr" v="184731" />
	</node>
	<node lat="59.109336109154874" lon="11.046405554129745" id="-26799">
		<tag k="fixme" v="consider seamark:type=rock or natural=shoal" />
		<tag k="name" v="Svaleskjæra" />
		<tag k="place" v="islet" />
		<tag k="ssr:stedsnr" v="188430" />
	</node>
	<node lat="59.05751388667407" lon="11.076758330349454" id="-26801">
		<tag k="fixme" v="consider seamark:type=rock or natural=shoal" />
		<tag k="name" v="Eriksskjær" />
		<tag k="place" v="islet" />
		<tag k="ssr:stedsnr" v="204318" />
	</node>
	<node lat="59.03021666735656" lon="11.106397216232157" id="-26803">
		<tag k="name" v="Lønnstangen" />
		<tag k="natural" v="cape" />
		<tag k="ssr:stedsnr" v="204266" />
	</node>
	<node lat="59.023529609181644" lon="11.112526840738868" id="-26804">
		<tag k="name" v="Pannemann" />
		<tag k="natural" v="bay" />
		<tag k="ssr:stedsnr" v="204272" />
	</node>
	<node lat="59.00906944888092" lon="11.065749999170995" id="-26806">
		<tag k="name" v="Pølen" />
		<tag k="natural" v="bay" />
		<tag k="ssr:stedsnr" v="204284" />
	</node>
	<node lat="59.002024999893564" lon="11.06621665855641" id="-26807">
		<tag k="name" v="Småholmene" />
		<tag k="place" v="islet" />
		<tag k="ssr:stedsnr" v="204291" />
	</node>
	<node lat="59.04932222206251" lon="11.112194442831449" id="-26808">
		<tag k="name" v="Godthøl" />
		<tag k="natural" v="strait" />
		<tag k="ssr:stedsnr" v="205411" />
	</node>
	<node lat="59.03663055512296" lon="11.1053138840647" id="-26809">
		<tag k="name" v="Tresvika" />
		<tag k="natural" v="bay" />
		<tag k="ssr:stedsnr" v="205421" />
	</node>
	<node lat="59.10023610989054" lon="10.839436118769278" id="-26810">
		<tag k="name" v="Hvaler" />
		<tag k="place" v="island" />
		<tag k="ssr:stedsnr" v="206274" />
	</node>
	<node lat="58.99783889110998" lon="11.056444453180235" id="-26811">
		<tag k="name" v="Jomfruland" />
		<tag k="place" v="islet" />
		<tag k="ssr:stedsnr" v="265351" />
	</node>
	<node lat="59.00000555253696" lon="11.060302773508017" id="-26812">
		<tag k="fixme" v="consider seamark:type=rock or natural=shoal" />
		<tag k="name" v="Måneskjær" />
		<tag k="place" v="islet" />
		<tag k="ssr:stedsnr" v="265354" />
	</node>
	<node lat="59.06646666654699" lon="11.089761108846071" id="-26815">
		<tag k="fixme" v="consider seamark:type=rock or natural=shoal" />
		<tag k="name" v="Gullfat" />
		<tag k="place" v="islet" />
		<tag k="ssr:stedsnr" v="265380" />
	</node>
	<node lat="59.00661389116501" lon="11.060625000703856" id="-26818">
		<tag k="name" v="Listen" />
		<tag k="natural" v="cape" />
		<tag k="ssr:stedsnr" v="265349" />
	</node>
	<node lat="59.00028055627103" lon="10.783366669550354" id="-26820">
		<tag k="name" v="Steinen" />
		<tag k="natural" v="shoal" />
		<tag k="place" v="locality" />
		<tag k="ssr:stedsnr" v="269071" />
	</node>
	<node lat="58.98419444266987" lon="10.950222230389508" id="-26830">
		<tag k="name" v="Båsholmen" />
		<tag k="place" v="islet" />
		<tag k="ssr:stedsnr" v="296078" />
	</node>
	<node lat="59.05483611159237" lon="10.978675001862992" id="-26834">
		<tag k="alt_name" v="Kråka lille" />
		<tag k="name" v="Lille Kråka" />
		<tag k="place" v="islet" />
		<tag k="ssr:stedsnr" v="296618" />
	</node>
	<node lat="59.055355558511756" lon="10.995183325177717" id="-26835">
		<tag k="fixme" v="consider seamark:type=rock or natural=shoal" />
		<tag k="name" v="Likkista" />
		<tag k="place" v="islet" />
		<tag k="ssr:stedsnr" v="296620" />
	</node>
	<node lat="59.04627499561612" lon="10.935208330479647" id="-26840">
		<tag k="name" v="Landfasten" />
		<tag k="natural" v="cape" />
		<tag k="ssr:stedsnr" v="297068" />
	</node>
	<node lat="59.10419166763566" lon="10.926019438249526" id="-26841">
		<tag k="fixme" v="consider seamark:type=rock or natural=shoal" />
		<tag k="name" v="Flyndra" />
		<tag k="place" v="islet" />
		<tag k="ssr:stedsnr" v="297071" />
	</node>
	<node lat="59.112897224332755" lon="10.85173055138945" id="-26843">
		<tag k="name" v="Papperbukta" />
		<tag k="natural" v="bay" />
		<tag k="ssr:stedsnr" v="296965" />
	</node>
	<node lat="59.09753333189279" lon="10.95611389737285" id="-26844">
		<tag k="name" v="Tjeldholmbukta" />
		<tag k="natural" v="bay" />
		<tag k="ssr:stedsnr" v="297367" />
	</node>
	<node lat="59.129924999459774" lon="10.92543889460903" id="-26846">
		<tag k="name" v="Kollen" />
		<tag k="place" v="islet" />
		<tag k="ssr:stedsnr" v="297419" />
	</node>
	<node lat="59.092013892942376" lon="11.031249996933683" id="-26849">
		<tag k="name" v="Kuvika" />
		<tag k="natural" v="bay" />
		<tag k="ssr:stedsnr" v="297383" />
	</node>
	<node lat="59.06796944149021" lon="11.087575000785362" id="-26851">
		<tag k="name" v="Sildebukta" />
		<tag k="natural" v="bay" />
		<tag k="ssr:stedsnr" v="297855" />
	</node>
	<node lat="59.00950555816206" lon="11.044061113253045" id="-26852">
		<tag k="fixme" v="consider seamark:type=rock or natural=shoal" />
		<tag k="name" v="Ekholmflu" />
		<tag k="place" v="islet" />
		<tag k="ssr:stedsnr" v="297960" />
	</node>
	<node lat="59.01104722156113" lon="11.046624996182981" id="-26853">
		<tag k="name" v="Sniken" />
		<tag k="natural" v="bay" />
		<tag k="ssr:stedsnr" v="297961" />
	</node>
	<node lat="59.11063888744743" lon="10.846369452431635" id="-26854">
		<tag k="name" v="Sandbukta" />
		<tag k="natural" v="bay" />
		<tag k="ssr:stedsnr" v="297693" />
	</node>
	<node lat="58.98942778068797" lon="10.916091661958399" id="-26855">
		<tag k="name" v="Skaten" />
		<tag k="natural" v="shoal" />
		<tag k="place" v="locality" />
		<tag k="ssr:stedsnr" v="297703" />
	</node>
	<node lat="59.11155278040582" lon="10.8753249969493" id="-26856">
		<tag k="name" v="Maritangsundet" />
		<tag k="natural" v="strait" />
		<tag k="ssr:stedsnr" v="297706" />
	</node>
	<node lat="59.06576389090842" lon="10.990780557063045" id="-26857">
		<tag k="name" v="Brudeskjær" />
		<tag k="place" v="islet" />
		<tag k="ssr:stedsnr" v="297907" />
	</node>
	<node lat="59.003466665860024" lon="11.013266661846847" id="-26858">
		<tag k="fixme" v="consider seamark:type=rock or natural=shoal" />
		<tag k="name" v="Stråseskjær" />
		<tag k="place" v="islet" />
		<tag k="ssr:stedsnr" v="297912" />
	</node>
	<node lat="59.00594722654203" lon="11.029430557467652" id="-26859">
		<tag k="fixme" v="consider seamark:type=rock or natural=shoal" />
		<tag k="name" v="Slengeskjær" />
		<tag k="place" v="islet" />
		<tag k="ssr:stedsnr" v="297918" />
	</node>
	<node lat="58.99251111170968" lon="11.035463891653201" id="-26861">
		<tag k="name" v="Nordvestbukta" />
		<tag k="natural" v="bay" />
		<tag k="ssr:stedsnr" v="297927" />
	</node>
	<node lat="59.087766664663725" lon="11.085983334001787" id="-26868">
		<tag k="fixme" v="consider seamark:type=rock or natural=shoal" />
		<tag k="name" v="Våtteskjær" />
		<tag k="place" v="islet" />
		<tag k="ssr:stedsnr" v="304567" />
	</node>
	<node lat="59.00657500196113" lon="11.03862499542489" id="-26869">
		<tag k="name" v="Ekholmen" />
		<tag k="place" v="islet" />
		<tag k="ssr:stedsnr" v="304569" />
	</node>
	<node lat="58.9964444462955" lon="11.070758325971255" id="-26871">
		<tag k="name" v="Herfølrenna" />
		<tag k="natural" v="strait" />
		<tag k="ssr:stedsnr" v="304767" />
	</node>
	<node lat="58.984513887528784" lon="10.971663892763218" id="-26873">
		<tag k="name" v="Møren" />
		<tag k="place" v="island" />
		<tag k="ssr:stedsnr" v="304772" />
	</node>
	<node lat="59.10889999575503" lon="11.141750006424791" id="-26874">
		<tag k="alt_name" v="Kålholmen" />
		<tag k="name" v="Kolholmen" />
		<tag k="place" v="islet" />
		<tag k="ssr:stedsnr" v="304860" />
	</node>
	<node lat="59.09442499951105" lon="11.10431667056105" id="-26875">
		<tag k="alt_name" v="Medfjordholmene" />
		<tag k="name" v="Mefjordholmen" />
		<tag k="place" v="islet" />
		<tag k="ssr:stedsnr" v="305195" />
	</node>
	<node lat="59.046933330795675" lon="10.884547227071529" id="-26882">
		<tag k="loc_name" v="Akerø" />
		<tag k="name" v="Akerøy" />
		<tag k="place" v="island" />
		<tag k="ssr:stedsnr" v="305647" />
	</node>
	<node lat="59.04717500189292" lon="10.863425007673055" id="-26883">
		<tag k="alt_name" v="Vesleøya" />
		<tag k="loc_name" v="Vesleø" />
		<tag k="name" v="Vesleøy" />
		<tag k="place" v="islet" />
		<tag k="ssr:stedsnr" v="305655" />
	</node>
	<node lat="59.03384722188023" lon="10.899349999561801" id="-26884">
		<tag k="name" v="Storgrunnen" />
		<tag k="natural" v="shoal" />
		<tag k="place" v="locality" />
		<tag k="ssr:stedsnr" v="305660" />
	</node>
	<node lat="59.035872218847906" lon="10.920699994809462" id="-26885">
		<tag k="name" v="Arvehausene" />
		<tag k="natural" v="shoal" />
		<tag k="place" v="locality" />
		<tag k="ssr:stedsnr" v="305661" />
	</node>
	<node lat="59.12439999993338" lon="10.866075005440598" id="-26886">
		<tag k="name" v="Seiløytangen" />
		<tag k="natural" v="cape" />
		<tag k="ssr:stedsnr" v="305746" />
	</node>
	<node lat="59.12035000378864" lon="11.13677499397665" id="-26887">
		<tag k="alt_name" v="Bellen" />
		<tag k="name" v="Ballen" />
		<tag k="place" v="islet" />
		<tag k="ssr:stedsnr" v="305868" />
	</node>
	<node lat="59.099786109669985" lon="10.97995555413846" id="-26888">
		<tag k="name" v="Møkkalassa" />
		<tag k="place" v="islet" />
		<tag k="ssr:stedsnr" v="309428" />
	</node>
	<node lat="59.00287222324779" lon="11.06005000117244" id="-26889">
		<tag k="fixme" v="consider seamark:type=rock or natural=shoal" />
		<tag k="name" v="Vedholmskjær" />
		<tag k="place" v="islet" />
		<tag k="ssr:stedsnr" v="325332" />
	</node>
	<node lat="58.99833332977073" lon="11.064777784877005" id="-26890">
		<tag k="fixme" v="consider seamark:type=rock or natural=shoal" />
		<tag k="name" v="Kuskinn" />
		<tag k="place" v="islet" />
		<tag k="ssr:stedsnr" v="325338" />
	</node>
	<node lat="59.00026666645416" lon="11.061333327897142" id="-26891">
		<tag k="name" v="Flatman" />
		<tag k="place" v="islet" />
		<tag k="ssr:stedsnr" v="325340" />
	</node>
	<node lat="58.99937778049476" lon="11.069786106079956" id="-26892">
		<tag k="fixme" v="consider seamark:type=rock or natural=shoal" />
		<tag k="name" v="Vennerskjæra" />
		<tag k="place" v="islet" />
		<tag k="ssr:stedsnr" v="325345" />
	</node>
	<node lat="59.07703055515098" lon="11.099961114374775" id="-26893">
		<tag k="name" v="Kjerringa" />
		<tag k="place" v="islet" />
		<tag k="ssr:stedsnr" v="325354" />
	</node>
	<node lat="59.07016667093693" lon="11.091672214699885" id="-26894">
		<tag k="fixme" v="consider seamark:type=rock or natural=shoal" />
		<tag k="name" v="Selskjæra" />
		<tag k="place" v="islet" />
		<tag k="ssr:stedsnr" v="325363" />
	</node>
	<node lat="59.0977138894698" lon="11.125602785920941" id="-26895">
		<tag k="name" v="Tangen" />
		<tag k="natural" v="cape" />
		<tag k="ssr:stedsnr" v="325416" />
	</node>
	<node lat="59.04694166639553" lon="11.06271110409741" id="-26897">
		<tag k="fixme" v="consider seamark:type=rock or natural=shoal" />
		<tag k="name" v="Det gule skjæret" />
		<tag k="place" v="islet" />
		<tag k="ssr:stedsnr" v="325373" />
	</node>
	<node lat="59.111988891736125" lon="11.138208340284102" id="-26900">
		<tag k="name" v="Rødskilen" />
		<tag k="natural" v="bay" />
		<tag k="ssr:stedsnr" v="326422" />
	</node>
	<node lat="59.103747223736804" lon="11.125122218953743" id="-26901">
		<tag k="name" v="Kasetangen" />
		<tag k="natural" v="cape" />
		<tag k="ssr:stedsnr" v="326425" />
	</node>
	<node lat="59.03606944216058" lon="11.111011106511354" id="-26903">
		<tag k="name" v="Furuneset" />
		<tag k="natural" v="cape" />
		<tag k="ssr:stedsnr" v="326395" />
	</node>
	<node lat="59.12047222469205" lon="11.134663886532808" id="-26904">
		<tag k="name" v="Rysetangen" />
		<tag k="natural" v="cape" />
		<tag k="ssr:stedsnr" v="326400" />
	</node>
	<node lat="58.98236666617029" lon="10.960472229080978" id="-26910">
		<tag k="name" v="Sommerstø" />
		<tag k="natural" v="bay" />
		<tag k="ssr:stedsnr" v="357094" />
	</node>
	<node lat="58.93742222537172" lon="10.847794441142794" id="-26911">
		<tag k="name" v="Vauergrunnen" />
		<tag k="natural" v="shoal" />
		<tag k="place" v="locality" />
		<tag k="ssr:stedsnr" v="357688" />
	</node>
	<node lat="59.080861111064635" lon="10.960347229735014" id="-26913">
		<tag k="name" v="Steinsund" />
		<tag k="natural" v="strait" />
		<tag k="ssr:stedsnr" v="357397" />
	</node>
	<node lat="59.074938884535065" lon="10.87545555375184" id="-26914">
		<tag k="name" v="Tømmertangen" />
		<tag k="natural" v="cape" />
		<tag k="ssr:stedsnr" v="357583" />
	</node>
	<node lat="59.10229166292155" lon="10.85403889175663" id="-26915">
		<tag k="name" v="Vellebubukta" />
		<tag k="natural" v="bay" />
		<tag k="ssr:stedsnr" v="357584" />
	</node>
	<node lat="59.06993333407215" lon="10.861733327350722" id="-26918">
		<tag k="name" v="Gylteodden" />
		<tag k="natural" v="cape" />
		<tag k="ssr:stedsnr" v="357886" />
	</node>
	<node lat="58.999580556146526" lon="11.041819439571709" id="-26919">
		<tag k="name" v="Finneguttens stø" />
		<tag k="natural" v="bay" />
		<tag k="ssr:stedsnr" v="357891" />
	</node>
	<node lat="59.00271944879387" lon="11.009427780946464" id="-26920">
		<tag k="name" v="Holmetangkilen" />
		<tag k="natural" v="bay" />
		<tag k="ssr:stedsnr" v="357901" />
	</node>
	<node lat="59.087291664543685" lon="11.043591667704009" id="-26922">
		<tag k="name" v="Garnholmen" />
		<tag k="place" v="islet" />
		<tag k="ssr:stedsnr" v="358037" />
	</node>
	<node lat="59.09258055345483" lon="11.040919438130162" id="-26924">
		<tag k="name" v="Lille Kuholmen" />
		<tag k="place" v="islet" />
		<tag k="ssr:stedsnr" v="358369" />
	</node>
	<node lat="59.061544442298455" lon="10.99168888832038" id="-26925">
		<tag k="name" v="Sildevika" />
		<tag k="natural" v="bay" />
		<tag k="ssr:stedsnr" v="358898" />
	</node>
	<node lat="58.980433329341984" lon="10.951158328380748" id="-26926">
		<tag k="name" v="Skjelltangen" />
		<tag k="natural" v="cape" />
		<tag k="ssr:stedsnr" v="358128" />
	</node>
	<node lat="59.06461388774804" lon="11.144969439769794" id="-26927">
		<tag k="fixme" v="consider seamark:type=rock or natural=shoal" />
		<tag k="name" v="Lofotskjær" />
		<tag k="place" v="islet" />
		<tag k="ssr:stedsnr" v="358846" />
	</node>
	<node lat="59.00930555415645" lon="11.061377771350664" id="-26934">
		<tag k="name" v="Sauholmen" />
		<tag k="place" v="islet" />
		<tag k="ssr:stedsnr" v="365571" />
	</node>
	<node lat="59.053425001085074" lon="10.91082499516131" id="-26935">
		<tag k="fixme" v="consider seamark:type=rock or natural=shoal" />
		<tag k="name" v="Kobbernaglen" />
		<tag k="place" v="islet" />
		<tag k="ssr:stedsnr" v="365627" />
	</node>
	<node lat="58.9909888917084" lon="10.844413892490806" id="-26936">
		<tag k="name" v="Husegrunnen" />
		<tag k="natural" v="shoal" />
		<tag k="place" v="locality" />
		<tag k="ssr:stedsnr" v="365778" />
	</node>
	<node lat="58.98784722015823" lon="10.959322215390793" id="-26937">
		<tag k="alt_name" v="Ølbergholmen" />
		<tag k="name" v="Store Ølbergholmen" />
		<tag k="place" v="islet" />
		<tag k="ssr:stedsnr" v="365780" />
	</node>
	<node lat="58.97273888981247" lon="10.972138884233724" id="-26938">
		<tag k="name" v="Svartskjæra" />
		<tag k="place" v="islet" />
		<tag k="ssr:stedsnr" v="365787" />
	</node>
	<node lat="59.042174996186915" lon="11.116183331100238" id="-26940">
		<tag k="alt_name" v="Bråteholmen" />
		<tag k="name" v="Brattholmen" />
		<tag k="place" v="islet" />
		<tag k="ssr:stedsnr" v="366225" />
	</node>
	<node lat="59.090124995624535" lon="10.983100005570993" id="-26942">
		<tag k="alt_name" v="Skåren" />
		<tag k="name" v="Skålholmen" />
		<tag k="place" v="islet" />
		<tag k="ssr:stedsnr" v="366561" />
	</node>
	<node lat="59.0163500985557" lon="10.808093658541083" id="-26944">
		<tag k="name" v="Nygrunnene" />
		<tag k="natural" v="shoal" />
		<tag k="place" v="locality" />
		<tag k="ssr:stedsnr" v="366581" />
	</node>
	<node lat="59.05797778056497" lon="10.999905562874586" id="-26945">
		<tag k="fixme" v="consider seamark:type=rock or natural=shoal" />
		<tag k="name" v="Bakkeskjær" />
		<tag k="place" v="islet" />
		<tag k="ssr:stedsnr" v="370843" />
	</node>
	<node lat="59.06222222424558" lon="11.08631667199643" id="-26946">
		<tag k="fixme" v="multiple name tags, choose one and add the other to alt_name" />
		<tag k="name" v="Kilebryggholmene;Grønholmen" />
		<tag k="place" v="islet" />
		<tag k="ssr:stedsnr" v="386338" />
	</node>
	<node lat="59.04671389279083" lon="11.118038888539406" id="-26948">
		<tag k="fixme" v="consider seamark:type=rock or natural=shoal" />
		<tag k="name" v="Smårødskjæra" />
		<tag k="place" v="islet" />
		<tag k="ssr:stedsnr" v="387383" />
	</node>
	<node lat="58.97345555200078" lon="10.81329444957073" id="-26950">
		<tag k="name" v="Grunnegrunnen" />
		<tag k="natural" v="shoal" />
		<tag k="place" v="locality" />
		<tag k="ssr:stedsnr" v="390074" />
	</node>
	<node lat="58.99765833128289" lon="10.778008335444799" id="-26951">
		<tag k="name" v="Tårngrunnen" />
		<tag k="natural" v="shoal" />
		<tag k="place" v="locality" />
		<tag k="ssr:stedsnr" v="390091" />
	</node>
	<node lat="59.117808331577606" lon="10.873936112329607" id="-26952">
		<tag k="name" v="Grana" />
		<tag k="natural" v="bay" />
		<tag k="ssr:stedsnr" v="479686" />
	</node>
	<node lat="59.115847226036976" lon="10.878477769987423" id="-26953">
		<tag k="name" v="Bjerkholmen" />
		<tag k="place" v="islet" />
		<tag k="ssr:stedsnr" v="479700" />
	</node>
	<node lat="59.11500833361883" lon="10.897769444565922" id="-26961">
		<tag k="name" v="Bellevillekilen" />
		<tag k="natural" v="bay" />
		<tag k="ssr:stedsnr" v="418030" />
	</node>
	<node lat="59.044111110942254" lon="10.939444448338742" id="-26962">
		<tag k="name" v="Vadholmen" />
		<tag k="natural" v="cape" />
		<tag k="ssr:stedsnr" v="418042" />
	</node>
	<node lat="59.105513887896414" lon="10.93487778468125" id="-26963">
		<tag k="fixme" v="consider seamark:type=rock or natural=shoal" />
		<tag k="name" v="Lønnvikskjæret" />
		<tag k="place" v="islet" />
		<tag k="ssr:stedsnr" v="418043" />
	</node>
	<node lat="59.071097225948996" lon="10.826100000206283" id="-26964">
		<tag k="name" v="Bråtegrunnene" />
		<tag k="natural" v="shoal" />
		<tag k="place" v="locality" />
		<tag k="ssr:stedsnr" v="417992" />
	</node>
	<node lat="58.982822224183366" lon="10.950527775426533" id="-26965">
		<tag k="name" v="Båsen" />
		<tag k="natural" v="bay" />
		<tag k="ssr:stedsnr" v="418083" />
	</node>
	<node lat="59.025172223533" lon="11.051630556201479" id="-26967">
		<tag k="fixme" v="consider seamark:type=rock or natural=shoal" />
		<tag k="name" v="Hjelp" />
		<tag k="place" v="islet" />
		<tag k="ssr:stedsnr" v="418086" />
	</node>
	<node lat="59.1254805527842" lon="10.858211116777708" id="-26968">
		<tag k="name" v="Oterhølet" />
		<tag k="natural" v="bay" />
		<tag k="ssr:stedsnr" v="418462" />
	</node>
	<node lat="59.123977779498965" lon="10.864733337675366" id="-26969">
		<tag k="name" v="Seiløydammen" />
		<tag k="natural" v="bay" />
		<tag k="ssr:stedsnr" v="418466" />
	</node>
	<node lat="58.99283610783378" lon="10.961991662216588" id="-26970">
		<tag k="name" v="Båeskjæra" />
		<tag k="place" v="islet" />
		<tag k="ssr:stedsnr" v="418635" />
	</node>
	<node lat="59.1065194485543" lon="10.837869439231055" id="-26971">
		<tag k="name" v="Havneholmen" />
		<tag k="place" v="islet" />
		<tag k="ssr:stedsnr" v="418643" />
	</node>
	<node lat="59.09602499705352" lon="11.033094438071403" id="-26973">
		<tag k="name" v="Paradisbukta" />
		<tag k="natural" v="bay" />
		<tag k="ssr:stedsnr" v="418365" />
	</node>
	<node lat="59.094183329233836" lon="11.039461104571377" id="-26974">
		<tag k="name" v="Store Kuholmen" />
		<tag k="place" v="islet" />
		<tag k="ssr:stedsnr" v="418367" />
	</node>
	<node lat="59.04161388532047" lon="10.988008341793465" id="-26976">
		<tag k="fixme" v="consider seamark:type=rock or natural=shoal" />
		<tag k="name" v="Rørvikskjæra" />
		<tag k="place" v="islet" />
		<tag k="ssr:stedsnr" v="418557" />
	</node>
	<node lat="59.074022218059774" lon="10.863016666137248" id="-26977">
		<tag k="name" v="Sandholmen" />
		<tag k="place" v="islet" />
		<tag k="ssr:stedsnr" v="418561" />
	</node>
	<node lat="59.06171111329194" lon="11.000175008843533" id="-26978">
		<tag k="name" v="Skipholmsundet" />
		<tag k="natural" v="strait" />
		<tag k="ssr:stedsnr" v="418421" />
	</node>
	<node lat="59.06186944666401" lon="10.878372218784742" id="-26982">
		<tag k="fixme" v="consider seamark:type=rock or natural=shoal" />
		<tag k="name" v="Skjelholmflu" />
		<tag k="place" v="islet" />
		<tag k="ssr:stedsnr" v="418672" />
	</node>
	<node lat="59.00451388635811" lon="11.033719442557059" id="-26983">
		<tag k="loc_name" v="Hågjelingsundet" />
		<tag k="name" v="Hågjellingsundet" />
		<tag k="natural" v="bay" />
		<tag k="ssr:stedsnr" v="418944" />
	</node>
	<node lat="59.02066944376822" lon="10.994186109653175" id="-26984">
		<tag k="name" v="Nordre Kirkekrakk" />
		<tag k="natural" v="shoal" />
		<tag k="place" v="locality" />
		<tag k="ssr:stedsnr" v="418700" />
	</node>
	<node lat="59.08814444416135" lon="10.937583332500228" id="-26986">
		<tag k="fixme" v="consider seamark:type=rock or natural=shoal" />
		<tag k="name" v="Ellingskjær" />
		<tag k="place" v="islet" />
		<tag k="ssr:stedsnr" v="418986" />
	</node>
	<node lat="59.090600000836226" lon="10.830488885457884" id="-26987">
		<tag k="name" v="Vervegrunnen" />
		<tag k="natural" v="shoal" />
		<tag k="place" v="locality" />
		<tag k="ssr:stedsnr" v="418988" />
	</node>
	<node lat="58.9955111088521" lon="11.033255554442357" id="-26992">
		<tag k="alt_name" v="Hytteskjærene østre" />
		<tag k="fixme" v="consider seamark:type=rock or natural=shoal" />
		<tag k="name" v="Østre Hytteskjærene" />
		<tag k="place" v="islet" />
		<tag k="ssr:stedsnr" v="418922" />
	</node>
	<node lat="58.99154166337349" lon="11.044563890275644" id="-26993">
		<tag k="name" v="Linnekleppstranda" />
		<tag k="natural" v="beach" />
		<tag k="ssr:stedsnr" v="419138" />
	</node>
	<node lat="59.04446944028039" lon="11.044622217448296" id="-26994">
		<tag k="alt_name" v="Katteværpet" />
		<tag k="name" v="Katteverpet" />
		<tag k="natural" v="cape" />
		<tag k="ssr:stedsnr" v="419493" />
	</node>
	<node lat="59.06863055957506" lon="10.927569441850238" id="-26998">
		<tag k="alt_name" v="Asmalsundet" />
		<tag k="name" v="Asmalsund" />
		<tag k="natural" v="strait" />
		<tag k="ssr:stedsnr" v="426479" />
	</node>
	<node lat="59.06705607681094" lon="10.908370770682833" id="-26999">
		<tag k="alt_name" v="Spjærkilen" />
		<tag k="name" v="Spjærøykilen" />
		<tag k="natural" v="bay" />
		<tag k="ssr:stedsnr" v="426482" />
	</node>
	<node lat="59.0658499955412" lon="10.95975000823637" id="-27000">
		<tag k="name" v="Døvika" />
		<tag k="natural" v="bay" />
		<tag k="ssr:stedsnr" v="426484" />
	</node>
	<node lat="59.037849999168515" lon="10.908272230211976" id="-27001">
		<tag k="name" v="Vidgrunnen" />
		<tag k="natural" v="shoal" />
		<tag k="place" v="locality" />
		<tag k="ssr:stedsnr" v="426594" />
	</node>
	<node lat="59.005119444813694" lon="10.763680551873533" id="-27002">
		<tag k="alt_name" v="Skjerskrakkene" />
		<tag k="name" v="Skjærskrakkene" />
		<tag k="natural" v="shoal" />
		<tag k="place" v="locality" />
		<tag k="ssr:stedsnr" v="426558" />
	</node>
	<node lat="58.9992583353433" lon="11.056230549178641" id="-27003">
		<tag k="name" v="Tofte" />
		<tag k="natural" v="bay" />
		<tag k="ssr:stedsnr" v="426761" />
	</node>
	<node lat="59.125374999513994" lon="11.130997217488538" id="-27004">
		<tag k="fixme" v="consider seamark:type=rock or natural=shoal" />
		<tag k="name" v="Tretteskjæra" />
		<tag k="place" v="islet" />
		<tag k="ssr:stedsnr" v="426766" />
	</node>
	<node lat="59.107450000861085" lon="11.143199994107833" id="-27005">
		<tag k="alt_name" v="Aspholmen" />
		<tag k="name" v="Ospholmen" />
		<tag k="place" v="islet" />
		<tag k="ssr:stedsnr" v="426850" />
	</node>
	<node lat="59.110644448438556" lon="11.142652782956285" id="-27006">
		<tag k="name" v="Garnholmen" />
		<tag k="place" v="islet" />
		<tag k="ssr:stedsnr" v="426852" />
	</node>
	<node lat="59.11563055663584" lon="11.143947229183262" id="-27007">
		<tag k="name" v="Kallerholmene" />
		<tag k="place" v="islet" />
		<tag k="ssr:stedsnr" v="427822" />
	</node>
	<node lat="59.091624996889585" lon="11.004249996272842" id="-27008">
		<tag k="name" v="Furuholmen" />
		<tag k="place" v="islet" />
		<tag k="ssr:stedsnr" v="427555" />
	</node>
	<node lat="58.99739722601125" lon="11.036572218795051" id="-27009">
		<tag k="name" v="Kromkamholmene" />
		<tag k="place" v="islet" />
		<tag k="ssr:stedsnr" v="479930" />
	</node>
	<node lat="59.01299999615256" lon="11.014849996652645" id="-27010">
		<tag k="name" v="Øsa" />
		<tag k="natural" v="bay" />
		<tag k="ssr:stedsnr" v="479960" />
	</node>
	<node lat="59.09654166282044" lon="11.032355553782534" id="-27011">
		<tag k="name" v="Revtangen" />
		<tag k="natural" v="cape" />
		<tag k="ssr:stedsnr" v="479894" />
	</node>
	<node lat="59.05786666485552" lon="10.994319437682844" id="-27012">
		<tag k="name" v="Granholmen" />
		<tag k="place" v="islet" />
		<tag k="ssr:stedsnr" v="479896" />
	</node>
	<node lat="58.962130557689484" lon="10.976194449743135" id="-27022">
		<tag k="name" v="Ankerrenna" />
		<tag k="natural" v="strait" />
		<tag k="ssr:stedsnr" v="485734" />
	</node>
	<node lat="59.09083055939251" lon="11.071383332549225" id="-27023">
		<tag k="fixme" v="consider seamark:type=rock or natural=shoal" />
		<tag k="name" v="Iseskjær" />
		<tag k="place" v="islet" />
		<tag k="ssr:stedsnr" v="486543" />
	</node>
	<node lat="59.12415000136206" lon="10.924424999769215" id="-27025">
		<tag k="name" v="Siljeholmen" />
		<tag k="place" v="islet" />
		<tag k="ssr:stedsnr" v="486758" />
	</node>
	<node lat="59.12467499647017" lon="10.883799999121539" id="-27026">
		<tag k="name" v="Bomme" />
		<tag k="place" v="islet" />
		<tag k="ssr:stedsnr" v="486760" />
	</node>
	<node lat="59.03760000356763" lon="10.935533341366256" id="-27027">
		<tag k="name" v="Skinnarholmen" />
		<tag k="place" v="islet" />
		<tag k="ssr:stedsnr" v="487646" />
	</node>
	<node lat="59.10054817014398" lon="11.046369124464462" id="-27029">
		<tag k="name" v="Damholmene" />
		<tag k="place" v="islet" />
		<tag k="ssr:stedsnr" v="487741" />
	</node>
	<node lat="59.099427776827554" lon="10.980511106451402" id="-27030">
		<tag k="fixme" v="consider seamark:type=rock or natural=shoal" />
		<tag k="name" v="Lille Møkkalasset" />
		<tag k="place" v="islet" />
		<tag k="ssr:stedsnr" v="487742" />
	</node>
	<node lat="59.01567777874926" lon="11.034916665156404" id="-27031">
		<tag k="fixme" v="consider seamark:type=rock or natural=shoal" />
		<tag k="name" v="Pilleren" />
		<tag k="place" v="islet" />
		<tag k="ssr:stedsnr" v="487758" />
	</node>
	<node lat="59.06763333129634" lon="10.885488883867252" id="-27033">
		<tag k="name" v="Skjelholmsundet" />
		<tag k="natural" v="strait" />
		<tag k="ssr:stedsnr" v="660870" />
	</node>
	<node lat="59.0840750005345" lon="10.840769445529352" id="-27034">
		<tag k="fixme" v="consider seamark:type=rock or natural=shoal" />
		<tag k="name" v="Slettevikskjæra" />
		<tag k="place" v="islet" />
		<tag k="ssr:stedsnr" v="660876" />
	</node>
	<node lat="59.08686944284767" lon="10.936480551097032" id="-27035">
		<tag k="name" v="Østtangen" />
		<tag k="natural" v="cape" />
		<tag k="ssr:stedsnr" v="660965" />
	</node>
	<node lat="59.02901944707292" lon="11.100022224272031" id="-27036">
		<tag k="name" v="Speilebukta" />
		<tag k="natural" v="bay" />
		<tag k="ssr:stedsnr" v="507285" />
	</node>
	<node lat="59.02031944478685" lon="11.072358328503842" id="-27037">
		<tag k="name" v="Lervik" />
		<tag k="natural" v="bay" />
		<tag k="ssr:stedsnr" v="507291" />
	</node>
	<node lat="59.01574722657571" lon="11.104172214945464" id="-27038">
		<tag k="name" v="Gjøkvikholmen" />
		<tag k="place" v="islet" />
		<tag k="ssr:stedsnr" v="507295" />
	</node>
	<node lat="59.09962222653261" lon="11.132686117746497" id="-27039">
		<tag k="name" v="Kaninholmen" />
		<tag k="place" v="islet" />
		<tag k="ssr:stedsnr" v="508440" />
	</node>
	<node lat="59.118405558805165" lon="10.907494450325588" id="-27040">
		<tag k="name" v="Økholmen" />
		<tag k="natural" v="cape" />
		<tag k="ssr:stedsnr" v="539039" />
	</node>
	<node lat="58.98496666342064" lon="10.963230555244348" id="-27041">
		<tag k="name" v="Skuteholmen" />
		<tag k="place" v="islet" />
		<tag k="ssr:stedsnr" v="539053" />
	</node>
	<node lat="59.080124996200716" lon="10.931408327253752" id="-27043">
		<tag k="name" v="Grønnetkilen" />
		<tag k="natural" v="bay" />
		<tag k="ssr:stedsnr" v="539253" />
	</node>
	<node lat="59.07554166242022" lon="10.878455556890826" id="-27045">
		<tag k="name" v="Daumannsskjæra" />
		<tag k="place" v="islet" />
		<tag k="ssr:stedsnr" v="539593" />
	</node>
	<node lat="59.10999444426206" lon="10.868777784820477" id="-27047">
		<tag k="loc_name" v="Tjuveholmen" />
		<tag k="name" v="Tjueholmen" />
		<tag k="natural" v="cape" />
		<tag k="old_name" v="Tjueeholmen" />
		<tag k="ssr:stedsnr" v="539697" />
	</node>
	<node lat="58.994136106992116" lon="11.019997225029584" id="-27048">
		<tag k="name" v="Skogrunnen" />
		<tag k="natural" v="shoal" />
		<tag k="place" v="locality" />
		<tag k="ssr:stedsnr" v="539621" />
	</node>
	<node lat="59.11253333160938" lon="10.917038883446024" id="-27051">
		<tag k="name" v="Skjelsbutangen" />
		<tag k="natural" v="cape" />
		<tag k="ssr:stedsnr" v="539940" />
	</node>
	<node lat="59.01002499713057" lon="11.018455554358747" id="-27052">
		<tag k="name" v="Rødskjær" />
		<tag k="place" v="islet" />
		<tag k="ssr:stedsnr" v="539942" />
	</node>
	<node lat="59.07333055722821" lon="10.997519450977123" id="-27056">
		<tag k="name" v="Korshavnkilen" />
		<tag k="natural" v="bay" />
		<tag k="ssr:stedsnr" v="540463" />
	</node>
	<node lat="58.98763333681579" lon="11.057088896027874" id="-27065">
		<tag k="name" v="Smalesund" />
		<tag k="natural" v="strait" />
		<tag k="ssr:stedsnr" v="547797" />
	</node>
	<node lat="58.983922218124256" lon="11.057755549298347" id="-27066">
		<tag k="fixme" v="consider seamark:type=rock or natural=shoal" />
		<tag k="name" v="Basen" />
		<tag k="place" v="islet" />
		<tag k="ssr:stedsnr" v="547798" />
	</node>
	<node lat="58.984847224667895" lon="10.822124993793805" id="-27067">
		<tag k="name" v="Flatekollen" />
		<tag k="place" v="islet" />
		<tag k="ssr:stedsnr" v="547799" />
	</node>
	<node lat="59.07029999634334" lon="10.869824995773204" id="-27070">
		<tag k="name" v="Sauholmen" />
		<tag k="place" v="islet" />
		<tag k="ssr:stedsnr" v="547543" />
	</node>
	<node lat="59.08123611032604" lon="10.948536110896184" id="-27072">
		<tag k="name" v="Asmaløy" />
		<tag k="place" v="island" />
		<tag k="ssr:stedsnr" v="547547" />
	</node>
	<node lat="59.06318738766955" lon="10.88674802184375" id="-27074">
		<tag k="alt_name" v="Akersund" />
		<tag k="name" v="Akersundet" />
		<tag k="natural" v="strait" />
		<tag k="ssr:stedsnr" v="547570" />
	</node>
	<node lat="59.06504722368884" lon="10.927561109462859" id="-27076">
		<tag k="alt_name" v="Gjetvikskjær" />
		<tag k="fixme" v="consider seamark:type=rock or natural=shoal" />
		<tag k="name" v="Geitevikskjær" />
		<tag k="place" v="islet" />
		<tag k="ssr:stedsnr" v="547859" />
	</node>
	<node lat="59.029283329391355" lon="10.946902784543434" id="-27077">
		<tag k="alt_name" v="Vikertangflue" />
		<tag k="name" v="Vikertangflu" />
		<tag k="natural" v="shoal" />
		<tag k="place" v="locality" />
		<tag k="ssr:stedsnr" v="548573" />
	</node>
	<node lat="59.00406944889981" lon="11.063366658443218" id="-27079">
		<tag k="name" v="Askjærholmen" />
		<tag k="place" v="islet" />
		<tag k="ssr:stedsnr" v="568326" />
	</node>
	<node lat="59.007511107599015" lon="11.068249992460085" id="-27080">
		<tag k="name" v="Skjellerlera" />
		<tag k="natural" v="shoal" />
		<tag k="place" v="locality" />
		<tag k="ssr:stedsnr" v="568329" />
	</node>
	<node lat="58.99952221808337" lon="11.053480555497783" id="-27081">
		<tag k="name" v="Vassgardskjær" />
		<tag k="natural" v="cape" />
		<tag k="ssr:stedsnr" v="568338" />
	</node>
	<node lat="59.002041669778464" lon="11.09151944529648" id="-27082">
		<tag k="name" v="Stuvikskjær" />
		<tag k="place" v="islet" />
		<tag k="ssr:stedsnr" v="568339" />
	</node>
	<node lat="59.07654166638875" lon="11.06406666062325" id="-27083">
		<tag k="name" v="Stavsengkilen" />
		<tag k="natural" v="bay" />
		<tag k="ssr:stedsnr" v="568353" />
	</node>
	<node lat="59.03021388859548" lon="11.06042778158231" id="-27084">
		<tag k="name" v="Skårsnesholmene" />
		<tag k="place" v="islet" />
		<tag k="ssr:stedsnr" v="568301" />
	</node>
	<node lat="59.04466666281822" lon="11.064772229537292" id="-27085">
		<tag k="name" v="Nøtholmen" />
		<tag k="place" v="islet" />
		<tag k="ssr:stedsnr" v="569347" />
	</node>
	<node lat="58.986519442200276" lon="10.957419438704308" id="-27091">
		<tag k="name" v="Hatten" />
		<tag k="place" v="islet" />
		<tag k="ssr:stedsnr" v="599057" />
	</node>
	<node lat="58.9912527741768" lon="11.072952781073502" id="-27093">
		<tag k="fixme" v="consider seamark:type=rock or natural=shoal" />
		<tag k="loc_name" v="Lille Fisbuskjær" />
		<tag k="name" v="Lille Fiskebuskjær" />
		<tag k="place" v="islet" />
		<tag k="ssr:stedsnr" v="599237" />
	</node>
	<node lat="59.098313888781384" lon="10.918305554662716" id="-27094">
		<tag k="name" v="Mosepotten" />
		<tag k="natural" v="strait" />
		<tag k="ssr:stedsnr" v="599528" />
	</node>
	<node lat="59.06898610939823" lon="10.885719447463378" id="-27097">
		<tag k="fixme" v="consider seamark:type=rock or natural=shoal" />
		<tag k="name" v="Kuskjær" />
		<tag k="place" v="islet" />
		<tag k="ssr:stedsnr" v="599704" />
	</node>
	<node lat="59.064424995799904" lon="10.993111106338219" id="-27100">
		<tag k="name" v="Renna" />
		<tag k="natural" v="strait" />
		<tag k="ssr:stedsnr" v="599809" />
	</node>
	<node lat="58.98622499787486" lon="11.061461109073983" id="-27102">
		<tag k="fixme" v="consider seamark:type=rock or natural=shoal" />
		<tag k="name" v="Lille Havkatten" />
		<tag k="place" v="islet" />
		<tag k="ssr:stedsnr" v="599877" />
	</node>
	<node lat="59.07533332904263" lon="10.92996944596452" id="-27103">
		<tag k="name" v="Båsebukta" />
		<tag k="natural" v="bay" />
		<tag k="ssr:stedsnr" v="600294" />
	</node>
	<node lat="59.11368333329334" lon="10.875180547669366" id="-27107">
		<tag k="name" v="Strøknesholmen" />
		<tag k="place" v="islet" />
		<tag k="ssr:stedsnr" v="600683" />
	</node>
	<node lat="59.12146666549121" lon="10.868180563779147" id="-27109">
		<tag k="name" v="Båthølet" />
		<tag k="natural" v="strait" />
		<tag k="ssr:stedsnr" v="600436" />
	</node>
	<node lat="59.12186666544326" lon="10.868341664798093" id="-27110">
		<tag k="name" v="Støvelen" />
		<tag k="natural" v="cape" />
		<tag k="ssr:stedsnr" v="600437" />
	</node>
	<node lat="59.109075000554974" lon="10.877827783641784" id="-27112">
		<tag k="name" v="Neskilen" />
		<tag k="natural" v="bay" />
		<tag k="ssr:stedsnr" v="600696" />
	</node>
	<node lat="59.00756666364384" lon="11.011380556676109" id="-27114">
		<tag k="name" v="Mellemholmen" />
		<tag k="place" v="islet" />
		<tag k="ssr:stedsnr" v="600912" />
	</node>
	<node lat="59.00879444674446" lon="11.009205548656567" id="-27115">
		<tag k="name" v="Losholmen" />
		<tag k="place" v="islet" />
		<tag k="ssr:stedsnr" v="600915" />
	</node>
	<node lat="58.993927781064116" lon="11.034416669171627" id="-27116">
		<tag k="name" v="Mærra" />
		<tag k="place" v="islet" />
		<tag k="ssr:stedsnr" v="600940" />
	</node>
	<node lat="58.95439166847296" lon="10.877583334366129" id="-27126">
		<tag k="fixme" v="consider seamark:type=rock or natural=shoal" />
		<tag k="name" v="Knubben" />
		<tag k="place" v="islet" />
		<tag k="ssr:stedsnr" v="604089" />
	</node>
	<node lat="59.08871944341305" lon="11.148622214158319" id="-27128">
		<tag k="name" v="Singlefjorden" />
		<tag k="natural" v="bay" />
		<tag k="ssr:stedsnr" v="607817" />
	</node>
	<node lat="58.99311389143255" lon="10.953702780240294" id="-27129">
		<tag k="fixme" v="consider seamark:type=rock or natural=shoal" />
		<tag k="name" v="Båene" />
		<tag k="place" v="islet" />
		<tag k="ssr:stedsnr" v="607986" />
	</node>
	<node lat="59.07727499962721" lon="11.079874992752522" id="-27130">
		<tag k="alt_name" v="Edholmen" />
		<tag k="name" v="Etholmen" />
		<tag k="natural" v="cape" />
		<tag k="ssr:stedsnr" v="608318" />
	</node>
	<node lat="59.096775000380305" lon="11.049775003636036" id="-27133">
		<tag k="name" v="Rundholmen" />
		<tag k="place" v="islet" />
		<tag k="ssr:stedsnr" v="608583" />
	</node>
	<node lat="59.04850260400653" lon="10.965593495071728" id="-27134">
		<tag k="name" v="Håbuodden" />
		<tag k="natural" v="cape" />
		<tag k="ssr:stedsnr" v="608639" />
	</node>
	<node lat="59.05558888577789" lon="11.080980556787669" id="-27136">
		<tag k="name" v="Rom" />
		<tag k="place" v="island" />
		<tag k="ssr:stedsnr" v="608641" />
	</node>
	<node lat="59.10616110796366" lon="11.08058610959956" id="-27137">
		<tag k="name" v="Kjeppingene" />
		<tag k="place" v="islet" />
		<tag k="ssr:stedsnr" v="608738" />
	</node>
	<node lat="59.02606589918649" lon="11.069010337173257" id="-27139">
		<tag k="name" v="Hvalholmen" />
		<tag k="place" v="islet" />
		<tag k="ssr:stedsnr" v="628300" />
	</node>
	<node lat="59.07483333748175" lon="11.070777785708952" id="-27141">
		<tag k="name" v="Trollholmen" />
		<tag k="natural" v="cape" />
		<tag k="ssr:stedsnr" v="628336" />
	</node>
	<node lat="59.049463890572696" lon="11.067011108059274" id="-27143">
		<tag k="name" v="Kjennvikholmene" />
		<tag k="place" v="islet" />
		<tag k="ssr:stedsnr" v="628365" />
	</node>
	<node lat="59.08097221900436" lon="11.089358334108958" id="-27144">
		<tag k="name" v="Bringebærholmen" />
		<tag k="place" v="islet" />
		<tag k="ssr:stedsnr" v="629407" />
	</node>
	<node lat="59.105230556869714" lon="11.063888896218547" id="-27145">
		<tag k="fixme" v="consider seamark:type=rock or natural=shoal" />
		<tag k="name" v="Kjeppingskjæra" />
		<tag k="place" v="islet" />
		<tag k="ssr:stedsnr" v="629384" />
	</node>
	<node lat="59.037797223985955" lon="11.075494439358788" id="-27146">
		<tag k="fixme" v="consider seamark:type=rock or natural=shoal" />
		<tag k="name" v="Tåkeskjæra" />
		<tag k="place" v="islet" />
		<tag k="ssr:stedsnr" v="629392" />
	</node>
	<node lat="58.986872218217684" lon="10.949502775525804" id="-27153">
		<tag k="fixme" v="consider seamark:type=rock or natural=shoal" />
		<tag k="name" v="Flatskjær" />
		<tag k="place" v="islet" />
		<tag k="ssr:stedsnr" v="660062" />
	</node>
	<node lat="59.11928055431991" lon="10.896886115241958" id="-27155">
		<tag k="fixme" v="consider seamark:type=rock or natural=shoal" />
		<tag k="name" v="Knubben" />
		<tag k="place" v="islet" />
		<tag k="ssr:stedsnr" v="660079" />
	</node>
	<node lat="59.09401111040966" lon="10.916475008683987" id="-27157">
		<tag k="name" v="Løkholmen" />
		<tag k="natural" v="cape" />
		<tag k="ssr:stedsnr" v="660562" />
	</node>
	<node lat="59.09332221881011" lon="10.914463880411958" id="-27158">
		<tag k="name" v="Båtholmen" />
		<tag k="place" v="islet" />
		<tag k="ssr:stedsnr" v="660564" />
	</node>
	<node lat="58.947788892751525" lon="10.825611105129878" id="-27159">
		<tag k="name" v="Nordre Skjøttegrunn" />
		<tag k="natural" v="shoal" />
		<tag k="place" v="locality" />
		<tag k="ssr:stedsnr" v="660569" />
	</node>
	<node lat="59.01651389011779" lon="11.024533335107002" id="-27160">
		<tag k="name" v="Homlungen" />
		<tag k="place" v="islet" />
		<tag k="ssr:stedsnr" v="660585" />
	</node>
	<node lat="59.03668055443093" lon="10.963950002478818" id="-27161">
		<tag k="fixme" v="consider seamark:type=rock or natural=shoal" />
		<tag k="name" v="Fugleskjær" />
		<tag k="place" v="islet" />
		<tag k="ssr:stedsnr" v="660649" />
	</node>
	<node lat="59.07459722176032" lon="10.868580560027679" id="-27162">
		<tag k="fixme" v="consider seamark:type=rock or natural=shoal" />
		<tag k="name" v="Knubben" />
		<tag k="place" v="islet" />
		<tag k="ssr:stedsnr" v="660595" />
	</node>
	<node lat="59.1099472259011" lon="10.952013889138904" id="-27163">
		<tag k="name" v="Bukkholmen" />
		<tag k="place" v="islet" />
		<tag k="ssr:stedsnr" v="660619" />
	</node>
	<node lat="59.00178333115023" lon="11.010713893584347" id="-27165">
		<tag k="name" v="Holmetangen" />
		<tag k="natural" v="cape" />
		<tag k="ssr:stedsnr" v="660892" />
	</node>
	<node lat="59.08994999904401" lon="11.057919440815864" id="-27167">
		<tag k="alt_name" v="Erteholmen" />
		<tag k="name" v="Ertholmen" />
		<tag k="old_name" v="Etholmen;Ethl." />
		<tag k="place" v="islet" />
		<tag k="ssr:stedsnr" v="708546" />
	</node>
	<node lat="59.01795000102381" lon="11.035522215671172" id="-27170">
		<tag k="name" v="Store Ellingholmen" />
		<tag k="place" v="islet" />
		<tag k="ssr:stedsnr" v="720285" />
	</node>
	<node lat="59.13131111198338" lon="10.907024994013241" id="-27173">
		<tag k="name" v="Jakteholmen" />
		<tag k="place" v="islet" />
		<tag k="ssr:stedsnr" v="721436" />
	</node>
	<node lat="59.07208332949622" lon="10.860888890682086" id="-27178">
		<tag k="name" v="Vestre kilen" />
		<tag k="natural" v="bay" />
		<tag k="ssr:stedsnr" v="721896" />
	</node>
	<node lat="58.99920833557294" lon="11.040352773309763" id="-27180">
		<tag k="name" v="Rognane" />
		<tag k="natural" v="cape" />
		<tag k="ssr:stedsnr" v="721900" />
	</node>
	<node lat="59.08480278141511" lon="10.903011104223053" id="-27181">
		<tag k="fixme" v="consider seamark:type=rock or natural=shoal" />
		<tag k="name" v="Torskeskjær" />
		<tag k="place" v="islet" />
		<tag k="ssr:stedsnr" v="721975" />
	</node>
	<node lat="59.01066944896698" lon="11.029483327388514" id="-27184">
		<tag k="fixme" v="consider seamark:type=rock or natural=shoal" />
		<tag k="name" v="Søpleskjær" />
		<tag k="place" v="islet" />
		<tag k="ssr:stedsnr" v="721953" />
	</node>
	<node lat="59.05843333285136" lon="10.989588890355273" id="-27185">
		<tag k="name" v="Kiletangen" />
		<tag k="natural" v="cape" />
		<tag k="ssr:stedsnr" v="722908" />
	</node>
	<node lat="59.0724833303863" lon="11.041505552556238" id="-27187">
		<tag k="name" v="Skjellholmen" />
		<tag k="place" v="islet" />
		<tag k="ssr:stedsnr" v="722468" />
	</node>
	<node lat="58.97917500356105" lon="10.980719451983642" id="-27188">
		<tag k="name" v="Skansegrunnen" />
		<tag k="natural" v="shoal" />
		<tag k="place" v="locality" />
		<tag k="ssr:stedsnr" v="722687" />
	</node>
	<node lat="59.118899998186116" lon="10.907200006189887" id="-27201">
		<tag k="name" v="Sildeodden" />
		<tag k="natural" v="cape" />
		<tag k="ssr:stedsnr" v="729773" />
	</node>
	<node lat="58.991463889513135" lon="10.831005558348492" id="-27202">
		<tag k="fixme" v="consider seamark:type=rock or natural=shoal" />
		<tag k="name" v="Store Kollen" />
		<tag k="place" v="islet" />
		<tag k="ssr:stedsnr" v="729778" />
	</node>
	<node lat="58.97948055192856" lon="10.831880558376639" id="-27203">
		<tag k="fixme" v="consider seamark:type=rock or natural=shoal" />
		<tag k="name" v="Kuskjær" />
		<tag k="place" v="islet" />
		<tag k="ssr:stedsnr" v="729781" />
	</node>
	<node lat="58.97902777779767" lon="10.947233331617932" id="-27204">
		<tag k="name" v="Kilholmen" />
		<tag k="place" v="islet" />
		<tag k="ssr:stedsnr" v="729782" />
	</node>
	<node lat="58.977911106639525" lon="10.940502783209533" id="-27205">
		<tag k="alt_name" v="Kløverenna" />
		<tag k="name" v="Kløverrenna" />
		<tag k="natural" v="strait" />
		<tag k="ssr:stedsnr" v="729783" />
	</node>
	<node lat="59.081049999208965" lon="11.136499999255776" id="-27207">
		<tag k="name" v="Nygrunnen" />
		<tag k="natural" v="shoal" />
		<tag k="place" v="locality" />
		<tag k="ssr:stedsnr" v="730198" />
	</node>
	<node lat="59.05156110826378" lon="11.075938893090468" id="-27209">
		<tag k="name" v="Skånholmen" />
		<tag k="place" v="islet" />
		<tag k="ssr:stedsnr" v="730651" />
	</node>
	<node lat="59.10463611066573" lon="10.94771667439355" id="-27211">
		<tag k="alt_name" v="Sauedauden" />
		<tag k="name" v="Sauedauen" />
		<tag k="place" v="islet" />
		<tag k="ssr:stedsnr" v="730743" />
	</node>
	<node lat="59.02437222362921" lon="11.106511105779607" id="-27214">
		<tag k="name" v="Kåvika" />
		<tag k="natural" v="bay" />
		<tag k="ssr:stedsnr" v="750277" />
	</node>
	<node lat="58.992013892079626" lon="11.062561105845598" id="-27215">
		<tag k="alt_name" v="Strutehavnskjær" />
		<tag k="fixme" v="consider seamark:type=rock or natural=shoal" />
		<tag k="name" v="Stutehavnskjær" />
		<tag k="place" v="islet" />
		<tag k="ssr:stedsnr" v="750290" />
	</node>
	<node lat="59.0021277748582" lon="11.060788881119146" id="-27216">
		<tag k="name" v="Vedholmen" />
		<tag k="place" v="islet" />
		<tag k="ssr:stedsnr" v="750295" />
	</node>
	<node lat="59.06016110702004" lon="11.082402776496897" id="-27218">
		<tag k="name" v="Jettehølet" />
		<tag k="natural" v="strait" />
		<tag k="ssr:stedsnr" v="750338" />
	</node>
	<node lat="59.04847500413892" lon="11.118344447829598" id="-27219">
		<tag k="name" v="Mellemholmen" />
		<tag k="place" v="islet" />
		<tag k="ssr:stedsnr" v="751398" />
	</node>
	<node lat="58.975572218379774" lon="10.816016666905115" id="-27221">
		<tag k="name" v="Brinkegrunnen" />
		<tag k="natural" v="shoal" />
		<tag k="place" v="locality" />
		<tag k="ssr:stedsnr" v="754080" />
	</node>
	<node lat="59.088452780683724" lon="10.94819721387428" id="-27239">
		<tag k="name" v="Nordenggrunnen" />
		<tag k="natural" v="shoal" />
		<tag k="place" v="locality" />
		<tag k="ssr:stedsnr" v="781618" />
	</node>
	<node lat="59.07764444358561" lon="10.891988891933737" id="-27243">
		<tag k="name" v="Ovnen" />
		<tag k="natural" v="bay" />
		<tag k="ssr:stedsnr" v="782276" />
	</node>
	<node lat="58.992827780590545" lon="10.945958330062213" id="-27244">
		<tag k="name" v="Vrakgrunnen" />
		<tag k="natural" v="shoal" />
		<tag k="place" v="locality" />
		<tag k="ssr:stedsnr" v="782631" />
	</node>
	<node lat="59.052613890945885" lon="10.990647223243725" id="-27246">
		<tag k="name" v="Storerødbrygga" />
		<tag k="natural" v="bay" />
		<tag k="ssr:stedsnr" v="782537" />
	</node>
	<node lat="59.112672219326946" lon="10.843613896224463" id="-27247">
		<tag k="fixme" v="consider seamark:type=rock or natural=shoal" />
		<tag k="name" v="Knubben" />
		<tag k="place" v="islet" />
		<tag k="ssr:stedsnr" v="782651" />
	</node>
	<node lat="59.084672223638044" lon="10.95114166477229" id="-27248">
		<tag k="name" v="Løkkebukta" />
		<tag k="natural" v="bay" />
		<tag k="ssr:stedsnr" v="782387" />
	</node>
	<node lat="59.05297221794026" lon="11.088791658364196" id="-27253">
		<tag k="name" v="Romgrunnen" />
		<tag k="natural" v="shoal" />
		<tag k="place" v="locality" />
		<tag k="ssr:stedsnr" v="782835" />
	</node>
	<node lat="59.059505555242275" lon="10.988813880683711" id="-27254">
		<tag k="name" v="Holmekilen" />
		<tag k="natural" v="bay" />
		<tag k="ssr:stedsnr" v="782881" />
	</node>
	<node lat="59.06240000112078" lon="10.960358336953234" id="-27255">
		<tag k="loc_name" v="Krossdalsknubben" />
		<tag k="name" v="Korsdalsknubben" />
		<tag k="natural" v="cape" />
		<tag k="ssr:stedsnr" v="782891" />
	</node>
	<node lat="59.12040833169809" lon="10.844100007253951" id="-27256">
		<tag k="name" v="Hansholmen" />
		<tag k="place" v="islet" />
		<tag k="ssr:stedsnr" v="782657" />
	</node>
	<node lat="58.9584222190314" lon="10.865366674494817" id="-27257">
		<tag k="name" v="Langeflu" />
		<tag k="natural" v="shoal" />
		<tag k="place" v="locality" />
		<tag k="ssr:stedsnr" v="782673" />
	</node>
	<node lat="58.99821944427276" lon="10.99603611625079" id="-27258">
		<tag k="name" v="Skallene" />
		<tag k="natural" v="shoal" />
		<tag k="place" v="locality" />
		<tag k="ssr:stedsnr" v="782689" />
	</node>
	<node lat="59.09116111456843" lon="11.015663891683968" id="-27259">
		<tag k="name" v="Mattisbukta" />
		<tag k="natural" v="bay" />
		<tag k="ssr:stedsnr" v="783384" />
	</node>
	<node lat="58.96681389100787" lon="10.852236106124908" id="-27264">
		<tag k="name" v="Rokrasfluene" />
		<tag k="natural" v="shoal" />
		<tag k="place" v="locality" />
		<tag k="ssr:stedsnr" v="789779" />
	</node>
	<node lat="59.060699996773" lon="11.0945000033702" id="-27265">
		<tag k="fixme" v="consider seamark:type=rock or natural=shoal" />
		<tag k="name" v="Kilebåen" />
		<tag k="place" v="islet" />
		<tag k="ssr:stedsnr" v="790177" />
	</node>
	<node lat="59.04140000049878" lon="10.872669446797529" id="-27266">
		<tag k="fixme" v="consider seamark:type=rock or natural=shoal" />
		<tag k="name" v="Svartskjær" />
		<tag k="place" v="islet" />
		<tag k="ssr:stedsnr" v="790634" />
	</node>
	<node lat="59.07172499865141" lon="10.839427779103293" id="-27268">
		<tag k="alt_name" v="Vauerbråtta" />
		<tag k="name" v="Vauerbråttet" />
		<tag k="natural" v="shoal" />
		<tag k="place" v="locality" />
		<tag k="ssr:stedsnr" v="790539" />
	</node>
	<node lat="58.98768889193941" lon="10.796408325911411" id="-27270">
		<tag k="name" v="Revet" />
		<tag k="natural" v="bay" />
		<tag k="ssr:stedsnr" v="790774" />
	</node>
	<node lat="58.98665277638862" lon="10.927544439721249" id="-27271">
		<tag k="alt_name" v="Ærneknubben" />
		<tag k="name" v="Alneknubben" />
		<tag k="place" v="islet" />
		<tag k="ssr:stedsnr" v="790778" />
	</node>
	<node lat="59.10097221981877" lon="10.82802222036389" id="-27273">
		<tag k="name" v="Langholmen" />
		<tag k="place" v="islet" />
		<tag k="ssr:stedsnr" v="790732" />
	</node>
	<node lat="59.11050000266816" lon="11.129499991601955" id="-27274">
		<tag k="name" v="Singløya" />
		<tag k="place" v="island" />
		<tag k="ssr:stedsnr" v="790868" />
	</node>
	<node lat="59.068366663049794" lon="10.987355557397583" id="-27276">
		<tag k="name" v="Kuholmen" />
		<tag k="place" v="islet" />
		<tag k="ssr:stedsnr" v="795931" />
	</node>
	<node lat="59.069730552671075" lon="10.988044449504605" id="-27277">
		<tag k="fixme" v="consider seamark:type=rock or natural=shoal" />
		<tag k="name" v="Kuskjæra" />
		<tag k="place" v="islet" />
		<tag k="ssr:stedsnr" v="795937" />
	</node>
	<node lat="59.121719447627704" lon="11.127744441264474" id="-27278">
		<tag k="name" v="Hærtangen" />
		<tag k="natural" v="cape" />
		<tag k="ssr:stedsnr" v="811415" />
	</node>
	<node lat="59.02561388477567" lon="11.099825003735749" id="-27279">
		<tag k="fixme" v="consider seamark:type=rock or natural=shoal" />
		<tag k="name" v="Kuskjær" />
		<tag k="place" v="islet" />
		<tag k="ssr:stedsnr" v="811290" />
	</node>
	<node lat="59.07474166487111" lon="11.06311388235301" id="-27282">
		<tag k="name" v="Lindskjæret" />
		<tag k="natural" v="cape" />
		<tag k="ssr:stedsnr" v="811334" />
	</node>
	<node lat="59.06051944704598" lon="11.082016668444341" id="-27284">
		<tag k="name" v="Romsungen" />
		<tag k="place" v="islet" />
		<tag k="ssr:stedsnr" v="811340" />
	</node>
	<node lat="59.04957499955395" lon="11.059524991743952" id="-27285">
		<tag k="name" v="Odden" />
		<tag k="natural" v="cape" />
		<tag k="ssr:stedsnr" v="811345" />
	</node>
	<node lat="59.06878888544222" lon="11.130233326094682" id="-27286">
		<tag k="name" v="Sekken" />
		<tag k="natural" v="bay" />
		<tag k="ssr:stedsnr" v="811347" />
	</node>
	<node lat="59.04636388654224" lon="11.056674998041643" id="-27287">
		<tag k="name" v="Artos høl" />
		<tag k="natural" v="bay" />
		<tag k="ssr:stedsnr" v="811358" />
	</node>
	<node lat="59.009502776935626" lon="11.053641675106729" id="-27288">
		<tag k="fixme" v="consider seamark:type=rock or natural=shoal" />
		<tag k="name" v="Lyngholmskjæra" />
		<tag k="place" v="islet" />
		<tag k="ssr:stedsnr" v="811311" />
	</node>
	<node lat="59.00004444039851" lon="11.06575277447407" id="-27289">
		<tag k="fixme" v="consider seamark:type=rock or natural=shoal" />
		<tag k="name" v="Buman" />
		<tag k="place" v="islet" />
		<tag k="ssr:stedsnr" v="811314" />
	</node>
	<node lat="59.07545277570274" lon="11.092266674298218" id="-27290">
		<tag k="name" v="Grassholmen" />
		<tag k="place" v="islet" />
		<tag k="ssr:stedsnr" v="811331" />
	</node>
	<node lat="59.108825003711665" lon="11.098586112013189" id="-27293">
		<tag k="fixme" v="consider seamark:type=rock or natural=shoal" />
		<tag k="name" v="Linaskjæra" />
		<tag k="place" v="islet" />
		<tag k="ssr:stedsnr" v="812380" />
	</node>
	<node lat="59.05618055730333" lon="10.902108339967864" id="-27299">
		<tag k="fixme" v="consider seamark:type=rock or natural=shoal" />
		<tag k="name" v="Spjærflu" />
		<tag k="place" v="islet" />
		<tag k="ssr:stedsnr" v="843045" />
	</node>
	<node lat="59.050200000337284" lon="10.874752773761788" id="-27300">
		<tag k="name" v="Ringåsbukta" />
		<tag k="natural" v="bay" />
		<tag k="ssr:stedsnr" v="843060" />
	</node>
	<node lat="58.98666944411424" lon="10.961641669174204" id="-27301">
		<tag k="name" v="Gule skjæret" />
		<tag k="place" v="islet" />
		<tag k="ssr:stedsnr" v="843067" />
	</node>
	<node lat="59.11704722407583" lon="10.896552782286482" id="-27302">
		<tag k="name" v="Nestangen" />
		<tag k="natural" v="cape" />
		<tag k="ssr:stedsnr" v="843071" />
	</node>
	<node lat="59.004750003647764" lon="11.00797500403407" id="-27303">
		<tag k="name" v="Lauer" />
		<tag k="place" v="island" />
		<tag k="ssr:stedsnr" v="843945" />
	</node>
	<node lat="59.09408333634525" lon="11.046405547110018" id="-27304">
		<tag k="name" v="Tofura" />
		<tag k="place" v="islet" />
		<tag k="ssr:stedsnr" v="843371" />
	</node>
	<node lat="59.07309166986582" lon="11.03828055847524" id="-27305">
		<tag k="name" v="Mjøsund" />
		<tag k="natural" v="bay" />
		<tag k="ssr:stedsnr" v="843472" />
	</node>
	<node lat="58.982008334376026" lon="11.005558340634943" id="-27307">
		<tag k="name" v="Dypskreia" />
		<tag k="natural" v="shoal" />
		<tag k="place" v="locality" />
		<tag k="ssr:stedsnr" v="843691" />
	</node>
	<node lat="59.081561111134526" lon="10.8803027735266" id="-27310">
		<tag k="name" v="Engeskjæra" />
		<tag k="place" v="islet" />
		<tag k="ssr:stedsnr" v="843862" />
	</node>
	<node lat="59.009700000979535" lon="11.051075006854974" id="-27312">
		<tag k="name" v="Lyngholmen" />
		<tag k="place" v="islet" />
		<tag k="ssr:stedsnr" v="843946" />
	</node>
	<node lat="59.009616664125325" lon="11.040463888849063" id="-27313">
		<tag k="fixme" v="consider seamark:type=rock or natural=shoal" />
		<tag k="name" v="Kua" />
		<tag k="place" v="islet" />
		<tag k="ssr:stedsnr" v="843947" />
	</node>
	<node lat="59.00796388636712" lon="11.02094721970945" id="-27314">
		<tag k="fixme" v="consider seamark:type=rock or natural=shoal" />
		<tag k="name" v="Persribba" />
		<tag k="place" v="islet" />
		<tag k="ssr:stedsnr" v="843948" />
	</node>
	<node lat="59.06321143638853" lon="10.912932448431837" id="-27322">
		<tag k="fixme" v="multiple name tags, choose one and add the other to alt_name" />
		<tag k="name" v="Labukta;Holmebukta" />
		<tag k="natural" v="bay" />
		<tag k="ssr:stedsnr" v="851489" />
	</node>
	<node lat="59.0588750029516" lon="10.96092500464593" id="-27323">
		<tag k="name" v="Krossholmen" />
		<tag k="place" v="islet" />
		<tag k="ssr:stedsnr" v="851491" />
	</node>
	<node lat="59.05505555939272" lon="10.91557778003657" id="-27324">
		<tag k="loc_name" v="Piggsten" />
		<tag k="name" v="Pikesten" />
		<tag k="natural" v="cape" />
		<tag k="ssr:stedsnr" v="851494" />
	</node>
	<node lat="59.06849167121984" lon="10.880216659431468" id="-27326">
		<tag k="name" v="Skjelsbusundet" />
		<tag k="natural" v="strait" />
		<tag k="ssr:stedsnr" v="851520" />
	</node>
	<node lat="59.07562499856068" lon="10.956950007453683" id="-27327">
		<tag k="name" v="Sandholmen" />
		<tag k="place" v="islet" />
		<tag k="ssr:stedsnr" v="851528" />
	</node>
	<node lat="59.024122219837615" lon="10.784627774890277" id="-27330">
		<tag k="name" v="Mefjordbåen" />
		<tag k="natural" v="shoal" />
		<tag k="place" v="locality" />
		<tag k="ssr:stedsnr" v="851555" />
	</node>
	<node lat="59.10944722149737" lon="10.941038881039917" id="-27331">
		<tag k="fixme" v="consider seamark:type=rock or natural=shoal" />
		<tag k="name" v="Hvalsten" />
		<tag k="place" v="islet" />
		<tag k="ssr:stedsnr" v="851688" />
	</node>
	<node lat="58.99317777861234" lon="11.06091945244161" id="-27332">
		<tag k="alt_name" v="Stutehavna" />
		<tag k="name" v="Stuthavna" />
		<tag k="natural" v="bay" />
		<tag k="ssr:stedsnr" v="851739" />
	</node>
	<node lat="58.98539721826557" lon="10.764169452114995" id="-27333">
		<tag k="name" v="Seihausen" />
		<tag k="natural" v="shoal" />
		<tag k="place" v="locality" />
		<tag k="ssr:stedsnr" v="851744" />
	</node>
	<node lat="58.991366665124325" lon="10.934372216105139" id="-27334">
		<tag k="name" v="Samson" />
		<tag k="place" v="islet" />
		<tag k="ssr:stedsnr" v="851750" />
	</node>
	<node lat="59.130088886373166" lon="10.89792221759377" id="-27335">
		<tag k="name" v="Johanhølet" />
		<tag k="natural" v="strait" />
		<tag k="ssr:stedsnr" v="854430" />
	</node>
	<node lat="59.11064721935432" lon="10.94245000490012" id="-27336">
		<tag k="name" v="Kjempeholmsundet" />
		<tag k="natural" v="strait" />
		<tag k="ssr:stedsnr" v="855381" />
	</node>
	<node lat="59.02455000255612" lon="11.087205555800526" id="-27337">
		<tag k="name" v="Brauerholmen" />
		<tag k="place" v="islet" />
		<tag k="ssr:stedsnr" v="872332" />
	</node>
	<node lat="59.018061110464075" lon="11.064880554332774" id="-27338">
		<tag k="name" v="Holkeskjærodden" />
		<tag k="natural" v="cape" />
		<tag k="ssr:stedsnr" v="872336" />
	</node>
	<node lat="58.9957222219265" lon="11.061166660698936" id="-27340">
		<tag k="name" v="Batteribukta" />
		<tag k="natural" v="bay" />
		<tag k="ssr:stedsnr" v="872362" />
	</node>
	<node lat="59.09202777546375" lon="11.092972222982661" id="-27341">
		<tag k="name" v="Mefjorden" />
		<tag k="natural" v="bay" />
		<tag k="ssr:stedsnr" v="872429" />
	</node>
	<node lat="59.0801611145574" lon="11.09036944030502" id="-27342">
		<tag k="name" v="Kvernholmen" />
		<tag k="place" v="islet" />
		<tag k="ssr:stedsnr" v="872437" />
	</node>
	<node lat="58.99813055827807" lon="11.085280548458474" id="-27345">
		<tag k="name" v="Barlindholmen" />
		<tag k="place" v="islet" />
		<tag k="ssr:stedsnr" v="872370" />
	</node>
	<node lat="59.05768333293347" lon="11.089747227367162" id="-27351">
		<tag k="fixme" v="consider seamark:type=rock or natural=shoal" />
		<tag k="name" v="Flyndreskjær" />
		<tag k="place" v="islet" />
		<tag k="ssr:stedsnr" v="872397" />
	</node>
	<node lat="59.12213611109772" lon="10.893219440415649" id="-27352">
		<tag k="name" v="Ilemyrgrunn" />
		<tag k="natural" v="shoal" />
		<tag k="place" v="locality" />
		<tag k="ssr:stedsnr" v="924459" />
	</node>
	<node lat="58.99421388641867" lon="11.064166663556644" id="-27355">
		<tag k="name" v="Terneholmsund" />
		<tag k="natural" v="strait" />
		<tag k="ssr:stedsnr" v="932323" />
	</node>
	<node lat="59.000652773673785" lon="11.06906389308097" id="-27356">
		<tag k="name" v="Grønnbauen" />
		<tag k="natural" v="bay" />
		<tag k="ssr:stedsnr" v="932329" />
	</node>
	<node lat="59.09685555706528" lon="11.084155549469957" id="-27357">
		<tag k="name" v="Kalkebåene" />
		<tag k="place" v="locality" />
		<tag k="seamark:type" v="rock" />
		<tag k="ssr:stedsnr" v="933418" />
	</node>
	<node lat="59.10383055494689" lon="11.126986106858743" id="-27358">
		<tag k="name" v="Singløkilen" />
		<tag k="natural" v="bay" />
		<tag k="ssr:stedsnr" v="933435" />
	</node>
	<node lat="59.10912777717365" lon="10.931047218883858" id="-27365">
		<tag k="fixme" v="consider seamark:type=rock or natural=shoal" />
		<tag k="name" v="Lastene" />
		<tag k="place" v="islet" />
		<tag k="ssr:stedsnr" v="964045" />
	</node>
	<node lat="59.10353610938304" lon="10.93497778428764" id="-27366">
		<tag k="name" v="Lønnvikbukta" />
		<tag k="natural" v="bay" />
		<tag k="ssr:stedsnr" v="964060" />
	</node>
	<node lat="59.105516663258136" lon="10.929952777641978" id="-27367">
		<tag k="fixme" v="consider seamark:type=rock or natural=shoal" />
		<tag k="name" v="Taterbakskjæret" />
		<tag k="place" v="islet" />
		<tag k="ssr:stedsnr" v="964063" />
	</node>
	<node lat="59.080436114032565" lon="10.847905559848696" id="-27371">
		<tag k="name" v="Stenbukta" />
		<tag k="natural" v="bay" />
		<tag k="ssr:stedsnr" v="964117" />
	</node>
	<node lat="58.98573888655118" lon="10.951319442963348" id="-27374">
		<tag k="name" v="Tangen" />
		<tag k="natural" v="cape" />
		<tag k="ssr:stedsnr" v="964081" />
	</node>
	<node lat="59.13328610818343" lon="10.89365833483717" id="-27376">
		<tag k="name" v="Kråkerungene" />
		<tag k="place" v="islet" />
		<tag k="ssr:stedsnr" v="964447" />
	</node>
	<node lat="59.014447226155475" lon="11.023505560854773" id="-27377">
		<tag k="name" v="Homlunggrunnen" />
		<tag k="natural" v="shoal" />
		<tag k="place" v="locality" />
		<tag k="ssr:stedsnr" v="964563" />
	</node>
	<node lat="58.94970277640805" lon="10.854500002872944" id="-27385">
		<tag k="name" v="Heigrunnene" />
		<tag k="natural" v="shoal" />
		<tag k="place" v="locality" />
		<tag k="ssr:stedsnr" v="964671" />
	</node>
	<node lat="59.0568138907767" lon="10.911455552952246" id="-27386">
		<tag k="fixme" v="consider seamark:type=rock or natural=shoal" />
		<tag k="name" v="Siverlaks" />
		<tag k="place" v="islet" />
		<tag k="ssr:stedsnr" v="964672" />
	</node>
	<node lat="59.054191670125974" lon="11.115547219198799" id="-27388">
		<tag k="name" v="Øykrakkene" />
		<tag k="natural" v="shoal" />
		<tag k="ssr:stedsnr" v="964831" />
	</node>
	<node lat="59.07958968693894" lon="10.8773537177647" id="-27391">
		<tag k="name" v="Utgårdskilen" />
		<tag k="natural" v="bay" />
		<tag k="ssr:stedsnr" v="964858" />
	</node>
	<node lat="59.0830111084692" lon="10.957086113668533" id="-27392">
		<tag k="name" v="Stensund" />
		<tag k="place" v="locality" />
		<tag k="ssr:stedsnr" v="964861" />
	</node>
	<node lat="59.004533329082186" lon="11.092716670264167" id="-27394">
		<tag k="name" v="Stuevikgrunnene" />
		<tag k="natural" v="shoal" />
		<tag k="place" v="locality" />
		<tag k="ssr:stedsnr" v="964872" />
	</node>
	<node lat="59.10205000164002" lon="10.83055832874428" id="-27398">
		<tag k="name" v="Langholmsund" />
		<tag k="natural" v="strait" />
		<tag k="ssr:stedsnr" v="964975" />
	</node>
	<node lat="58.98342054896979" lon="10.967955503817365" id="-27409">
		<tag k="name" v="Møresundet" />
		<tag k="natural" v="strait" />
		<tag k="ssr:stedsnr" v="989627" />
	</node>
	<node lat="59.08443330781154" lon="11.119411204662658" id="-27410">
		<tag k="name" v="Bjørneskjærbåen" />
		<tag k="natural" v="shoal" />
		<tag k="place" v="locality" />
		<tag k="ssr:stedsnr" v="989700" />
	</node>
	<node lat="59.02116199049487" lon="11.075249817713045" id="-27412">
		<tag k="name" v="Bakkevikpynten" />
		<tag k="natural" v="cape" />
		<tag k="ssr:stedsnr" v="989703" />
	</node>
	<node lat="59.04317664352091" lon="11.085626562223627" id="-27413">
		<tag k="name" v="Østre Granholmen" />
		<tag k="place" v="islet" />
		<tag k="ssr:stedsnr" v="989707" />
	</node>
	<node lat="59.05699313676877" lon="10.999163670308784" id="-27414">
		<tag k="name" v="Haslevikodden" />
		<tag k="natural" v="cape" />
		<tag k="ssr:stedsnr" v="989712" />
	</node>
	<node lat="59.043700942110455" lon="10.918752759137929" id="-27415">
		<tag k="name" v="Skjelgrunnen" />
		<tag k="natural" v="shoal" />
		<tag k="place" v="locality" />
		<tag k="ssr:stedsnr" v="989721" />
	</node>
	<node lat="59.10916665239297" lon="10.827969162534503" id="-27416">
		<tag k="fixme" v="consider seamark:type=rock or natural=shoal" />
		<tag k="name" v="Lyngholmskjær" />
		<tag k="place" v="islet" />
		<tag k="ssr:stedsnr" v="989798" />
	</node>
	<node lat="59.114151097898976" lon="10.843796275203962" id="-27417">
		<tag k="name" v="Søndre Alholmen" />
		<tag k="place" v="islet" />
		<tag k="ssr:stedsnr" v="990329" />
	</node>
</osm>
