<?xml version="1.0" encoding="UTF-8"?>
<osm version="0.6" generator="osmapis">
	<node lat="59.08944444727716" lon="11.040908336540825" id="-14456">
		<tag k="name" v="Dauløkkene" />
		<tag k="place" v="locality" />
		<tag k="ssr:stedsnr" v="237025" />
	</node>
	<node lat="59.05599444348506" lon="10.953211114628978" id="-14467">
		<tag k="name" v="Tuva" />
		<tag k="place" v="locality" />
		<tag k="ssr:stedsnr" v="54617" />
	</node>
	<node lat="58.98140000132129" lon="10.959652779502735" id="-14559">
		<tag k="loc_name" v="Aspeskauen" />
		<tag k="name" v="Aspeskaven" />
		<tag k="place" v="locality" />
		<tag k="ssr:stedsnr" v="175076" />
	</node>
	<node lat="59.05297221797045" lon="10.948713892699645" id="-14586">
		<tag k="name" v="Storli" />
		<tag k="place" v="locality" />
		<tag k="ssr:stedsnr" v="188616" />
	</node>
	<node lat="59.097063891437934" lon="10.89265555992537" id="-14701">
		<tag k="name" v="Harebakke" />
		<tag k="place" v="locality" />
		<tag k="ssr:stedsnr" v="478646" />
	</node>
	<node lat="59.028725001918524" lon="11.031366660444146" id="-14708">
		<tag k="name" v="Floren" />
		<tag k="place" v="locality" />
		<tag k="ssr:stedsnr" v="479101" />
	</node>
	<node lat="59.04345278232034" lon="11.049302772982685" id="-14759">
		<tag k="name" v="Bukkemyr" />
		<tag k="place" v="locality" />
		<tag k="ssr:stedsnr" v="419496" />
	</node>
	<node lat="59.10403889135956" lon="10.96072777790268" id="-14784">
		<tag k="name" v="Storengen" />
		<tag k="place" v="locality" />
		<tag k="ssr:stedsnr" v="673396" />
	</node>
	<node lat="59.013705551765106" lon="11.097733336953082" id="-14856">
		<tag k="name" v="Blykista" />
		<tag k="place" v="locality" />
		<tag k="ssr:stedsnr" v="690361" />
	</node>
	<node lat="59.09416110741909" lon="10.925161110647446" id="-14870">
		<tag k="name" v="Flinkeløkka" />
		<tag k="place" v="locality" />
		<tag k="ssr:stedsnr" v="600097" />
	</node>
	<node lat="59.11630555217801" lon="10.872213895468917" id="-14949">
		<tag k="name" v="Melkebakken" />
		<tag k="place" v="locality" />
		<tag k="ssr:stedsnr" v="722721" />
	</node>
	<node lat="59.09541111315402" lon="10.926836104120394" id="-14967">
		<tag k="name" v="Bekkene" />
		<tag k="place" v="locality" />
		<tag k="ssr:stedsnr" v="903541" />
	</node>
	<node lat="59.03472777581685" lon="11.01854444937009" id="-14976">
		<tag k="name" v="Sandbakken" />
		<tag k="place" v="locality" />
		<tag k="ssr:stedsnr" v="904080" />
	</node>
	<node lat="59.087944447594616" lon="10.965972222102488" id="-15056">
		<tag k="name" v="Løperkasa" />
		<tag k="place" v="locality" />
		<tag k="ssr:stedsnr" v="843430" />
	</node>
	<node lat="59.086147226537534" lon="10.879908325143065" id="-15063">
		<tag k="name" v="Gardimellem" />
		<tag k="place" v="locality" />
		<tag k="ssr:stedsnr" v="843875" />
	</node>
	<node lat="59.06833333598006" lon="10.960680547428584" id="-15086">
		<tag k="name" v="Lubben" />
		<tag k="place" v="locality" />
		<tag k="ssr:stedsnr" v="856934" />
	</node>
	<node lat="59.10538889023454" lon="10.903872230934937" id="-15103">
		<tag k="name" v="Bratte bakke" />
		<tag k="place" v="locality" />
		<tag k="ssr:stedsnr" v="904059" />
	</node>
	<node lat="59.07962222290837" lon="10.938708330498493" id="-15112">
		<tag k="name" v="Kattepallen" />
		<tag k="place" v="locality" />
		<tag k="ssr:stedsnr" v="904916" />
	</node>
	<node lat="59.075136108231696" lon="11.02356943950032" id="-15190">
		<tag k="name" v="Banken" />
		<tag k="place" v="locality" />
		<tag k="ssr:stedsnr" v="54405" />
	</node>
	<node lat="59.08175277595042" lon="11.038794448311652" id="-15232">
		<tag k="name" v="Skottene" />
		<tag k="place" v="locality" />
		<tag k="ssr:stedsnr" v="115036" />
	</node>
	<node lat="59.0799500036036" lon="10.874855556324121" id="-15248">
		<tag k="name" v="Stranda" />
		<tag k="place" v="locality" />
		<tag k="ssr:stedsnr" v="115839" />
	</node>
	<node lat="59.09261667026849" lon="10.92688888443269" id="-15282">
		<tag k="name" v="Perekasa" />
		<tag k="place" v="locality" />
		<tag k="ssr:stedsnr" v="175548" />
	</node>
	<node lat="59.07911944204827" lon="11.036647219539212" id="-15331">
		<tag k="name" v="Sagene" />
		<tag k="place" v="locality" />
		<tag k="ssr:stedsnr" v="297041" />
	</node>
	<node lat="59.062644442212985" lon="11.04048610569073" id="-15344">
		<tag k="name" v="Løkka" />
		<tag k="place" v="locality" />
		<tag k="ssr:stedsnr" v="297807" />
	</node>
	<node lat="59.075761108333936" lon="10.860025004048655" id="-15538">
		<tag k="name" v="Fiskebakke" />
		<tag k="place" v="locality" />
		<tag k="ssr:stedsnr" v="600082" />
	</node>
	<node lat="59.052744447927516" lon="10.99489444871286" id="-15543">
		<tag k="alt_name" v="Kvernskau" />
		<tag k="name" v="Kverneskau" />
		<tag k="place" v="locality" />
		<tag k="ssr:stedsnr" v="599641" />
	</node>
	<node lat="59.07889999899619" lon="11.018958327466752" id="-15636">
		<tag k="name" v="Pershogget" />
		<tag k="place" v="locality" />
		<tag k="ssr:stedsnr" v="722001" />
	</node>
	<node lat="58.980783335475635" lon="10.96010555014033" id="-15682">
		<tag k="name" v="Revelia" />
		<tag k="place" v="locality" />
		<tag k="ssr:stedsnr" v="782073" />
	</node>
	<node lat="59.08835000371974" lon="10.918391665356586" id="-15704">
		<tag k="amenity" v="place_of_worship" />
		<tag k="denomination" v="lutheran" />
		<tag k="name" v="Spjærøy kirke" />
		<tag k="religion" v="christian" />
		<tag k="ssr:stedsnr" v="790578" />
	</node>
	<node lat="59.032666666258635" lon="11.025761115026949" id="-15706">
		<tag k="amenity" v="place_of_worship" />
		<tag k="denomination" v="lutheran" />
		<tag k="name" v="Hvaler kirke" />
		<tag k="religion" v="christian" />
		<tag k="ssr:stedsnr" v="790650" />
	</node>
	<node lat="59.07999444621881" lon="10.955186105903547" id="-15735">
		<tag k="name" v="Kilebakken" />
		<tag k="place" v="locality" />
		<tag k="ssr:stedsnr" v="843403" />
	</node>
	<node lat="59.09960277748072" lon="10.917416670029017" id="-15738">
		<tag k="name" v="Grana" />
		<tag k="place" v="locality" />
		<tag k="ssr:stedsnr" v="843617" />
	</node>
	<node lat="59.069894441720905" lon="10.931372213756159" id="-15784">
		<tag k="name" v="Åsebu" />
		<tag k="place" v="locality" />
		<tag k="ssr:stedsnr" v="964627" />
	</node>
</osm>
