<?xml version="1.0" encoding="UTF-8"?>
<osm generator="osmapis" version="0.6">
	<node id="-790711" lat="70.478927782" lon="22.1738443951">
		<tag k="name" v="Hasvik ytre molo" />
		<tag k="ssr:date" v="2016-05-10" />
		<tag k="ssr:gruppe" v="navigasjon" />
		<tag k="ssr:hovedgruppe" v="infrastruktur" />
		<tag k="ssr:stedsnr" v="37253" />
		<tag k="ssr:type" v="lanterne" />
	</node>
	<node id="-791280" lat="70.3462722193" lon="22.4725888487">
		<tag k="name" v="Sørfjorden, Nedre" />
		<tag k="ssr:date" v="2016-05-10" />
		<tag k="ssr:gruppe" v="navigasjon" />
		<tag k="ssr:hovedgruppe" v="infrastruktur" />
		<tag k="ssr:stedsnr" v="643832" />
		<tag k="ssr:type" v="lanterne" />
	</node>
	<node id="-790511" lat="70.34576389" lon="22.4741249463">
		<tag k="name" v="Sørfjorden, Øvre" />
		<tag k="ssr:date" v="2016-05-10" />
		<tag k="ssr:gruppe" v="navigasjon" />
		<tag k="ssr:hovedgruppe" v="infrastruktur" />
		<tag k="ssr:stedsnr" v="340839" />
		<tag k="ssr:type" v="lanterne" />
	</node>
	<node id="-790583" lat="70.673077239" lon="22.4708320263">
		<tag k="name" v="Bølestraumen" />
		<tag k="ssr:date" v="2019-05-31" />
		<tag k="ssr:gruppe" v="veg" />
		<tag k="ssr:hovedgruppe" v="infrastruktur" />
		<tag k="ssr:stedsnr" v="1055132" />
		<tag k="ssr:type" v="adressenavn" />
	</node>
	<node id="-791148" lat="70.5941277773" lon="22.1283305257">
		<tag k="name" v="Breivik" />
		<tag k="ssr:date" v="2016-05-10" />
		<tag k="ssr:gruppe" v="navigasjon" />
		<tag k="ssr:hovedgruppe" v="infrastruktur" />
		<tag k="ssr:stedsnr" v="565739" />
		<tag k="ssr:type" v="fyrlykt" />
	</node>
	<node id="-790588" lat="70.6232824911" lon="22.7227197342">
		<tag k="name" v="Børrabukta" />
		<tag k="ssr:date" v="2019-05-31" />
		<tag k="ssr:gruppe" v="veg" />
		<tag k="ssr:hovedgruppe" v="infrastruktur" />
		<tag k="ssr:stedsnr" v="1055153" />
		<tag k="ssr:type" v="adressenavn" />
	</node>
	<node id="-790755" lat="70.6349666709" lon="21.9773360874">
		<tag k="name" v="Øvre Sørvær" />
		<tag k="ssr:date" v="2016-05-10" />
		<tag k="ssr:gruppe" v="navigasjon" />
		<tag k="ssr:hovedgruppe" v="infrastruktur" />
		<tag k="ssr:stedsnr" v="81719" />
		<tag k="ssr:type" v="fyrlykt" />
	</node>
	<node id="-790587" lat="70.6354586699" lon="22.7135091296">
		<tag k="name" v="Børrfjordvik" />
		<tag k="ssr:date" v="2019-05-31" />
		<tag k="ssr:gruppe" v="veg" />
		<tag k="ssr:hovedgruppe" v="infrastruktur" />
		<tag k="ssr:stedsnr" v="1055151" />
		<tag k="ssr:type" v="adressenavn" />
	</node>
	<node id="-791389" lat="70.5916333311" lon="22.3027194055">
		<tag k="name" v="Hasvik kommune" />
		<tag k="ssr:date" v="2016-05-11" />
		<tag k="ssr:gruppe" v="administrativeIndelinger" />
		<tag k="ssr:hovedgruppe" v="offentligAdministrasjon" />
		<tag k="ssr:stedsnr" v="754360" />
		<tag k="ssr:type" v="kommune" />
	</node>
	<node id="-791128" lat="70.4814444423" lon="22.1673138581">
		<tag k="name" v="Hasvik, Nordre molo" />
		<tag k="ssr:date" v="2016-05-10" />
		<tag k="ssr:gruppe" v="navigasjon" />
		<tag k="ssr:hovedgruppe" v="infrastruktur" />
		<tag k="ssr:stedsnr" v="519566" />
		<tag k="ssr:type" v="fyrlykt" />
	</node>
	<node id="-790565" lat="70.3551781892" lon="22.4134540019">
		<tag k="name" v="Roren" />
		<tag k="ssr:date" v="2019-05-31" />
		<tag k="ssr:gruppe" v="veg" />
		<tag k="ssr:hovedgruppe" v="infrastruktur" />
		<tag k="ssr:stedsnr" v="1055093" />
		<tag k="ssr:type" v="adressenavn" />
	</node>
	<node id="-791247" lat="70.7175250037" lon="22.6838888282">
		<tag k="name" v="Flatøy" />
		<tag k="old_name" v="Flatøya" />
		<tag k="ssr:date" v="2016-05-10" />
		<tag k="ssr:gruppe" v="navigasjon" />
		<tag k="ssr:hovedgruppe" v="infrastruktur" />
		<tag k="ssr:stedsnr" v="626757" />
		<tag k="ssr:type" v="fyrlykt" />
	</node>
	<node id="-790602" lat="70.5240730007" lon="22.5899243588">
		<tag k="name" v="Karkefjordbotn" />
		<tag k="ssr:date" v="2019-05-31" />
		<tag k="ssr:gruppe" v="veg" />
		<tag k="ssr:hovedgruppe" v="infrastruktur" />
		<tag k="ssr:stedsnr" v="1055185" />
		<tag k="ssr:type" v="adressenavn" />
	</node>
	<node id="-790601" lat="70.6727602612" lon="22.5926594896">
		<tag k="name" v="Klubben" />
		<tag k="ssr:date" v="2019-05-31" />
		<tag k="ssr:gruppe" v="veg" />
		<tag k="ssr:hovedgruppe" v="infrastruktur" />
		<tag k="ssr:stedsnr" v="1055183" />
		<tag k="ssr:type" v="adressenavn" />
	</node>
	<node id="-790600" lat="70.6791574269" lon="22.5201117691">
		<tag k="name" v="Langkeila" />
		<tag k="ssr:date" v="2019-05-31" />
		<tag k="ssr:gruppe" v="veg" />
		<tag k="ssr:hovedgruppe" v="infrastruktur" />
		<tag k="ssr:stedsnr" v="1055181" />
		<tag k="ssr:type" v="adressenavn" />
	</node>
	<node id="-790599" lat="70.6120371556" lon="22.2171257003">
		<tag k="name" v="Langnesbukt" />
		<tag k="ssr:date" v="2019-05-31" />
		<tag k="ssr:gruppe" v="veg" />
		<tag k="ssr:hovedgruppe" v="infrastruktur" />
		<tag k="ssr:stedsnr" v="1055180" />
		<tag k="ssr:type" v="adressenavn" />
	</node>
	<node id="-790598" lat="70.5812362088" lon="22.2375461387">
		<tag k="name" v="Holmbukta" />
		<tag k="ssr:date" v="2019-05-31" />
		<tag k="ssr:gruppe" v="veg" />
		<tag k="ssr:hovedgruppe" v="infrastruktur" />
		<tag k="ssr:stedsnr" v="1055177" />
		<tag k="ssr:type" v="adressenavn" />
	</node>
	<node id="-790597" lat="70.6071683718" lon="22.3067815391">
		<tag k="name" v="Høivika" />
		<tag k="ssr:date" v="2019-05-31" />
		<tag k="ssr:gruppe" v="veg" />
		<tag k="ssr:hovedgruppe" v="infrastruktur" />
		<tag k="ssr:stedsnr" v="1055176" />
		<tag k="ssr:type" v="adressenavn" />
	</node>
	<node id="-790596" lat="70.5301098588" lon="22.6847862544">
		<tag k="name" v="Indre Oksevika" />
		<tag k="ssr:date" v="2019-05-31" />
		<tag k="ssr:gruppe" v="veg" />
		<tag k="ssr:hovedgruppe" v="infrastruktur" />
		<tag k="ssr:stedsnr" v="1055174" />
		<tag k="ssr:type" v="adressenavn" />
	</node>
	<node id="-791619" lat="68.4849327361" lon="16.2297866207">
		<tag k="fixme" v="multiple name tags, choose one and add the other to alt_name" />
		<tag k="name" v="Nord-Noreg;Nord-Norge" />
		<tag k="ssr:date" v="2017-05-18" />
		<tag k="ssr:gruppe" v="administrativeIndelinger" />
		<tag k="ssr:hovedgruppe" v="offentligAdministrasjon" />
		<tag k="ssr:stedsnr" v="976106" />
		<tag k="ssr:type" v="annenAdministrativInndeling" />
	</node>
	<node id="-790594" lat="70.6197666385" lon="22.6956217976">
		<tag k="name" v="Melkenes" />
		<tag k="ssr:date" v="2019-05-31" />
		<tag k="ssr:gruppe" v="veg" />
		<tag k="ssr:hovedgruppe" v="infrastruktur" />
		<tag k="ssr:stedsnr" v="1055171" />
		<tag k="ssr:type" v="adressenavn" />
	</node>
	<node id="-790593" lat="70.4960754631" lon="22.3544080001">
		<tag k="name" v="Meltefjorden søndre" />
		<tag k="ssr:date" v="2019-05-31" />
		<tag k="ssr:gruppe" v="veg" />
		<tag k="ssr:hovedgruppe" v="infrastruktur" />
		<tag k="ssr:stedsnr" v="1055170" />
		<tag k="ssr:type" v="adressenavn" />
	</node>
	<node id="-790592" lat="70.3616720599" lon="22.5527873621">
		<tag k="name" v="Midtbukta" />
		<tag k="ssr:date" v="2019-05-31" />
		<tag k="ssr:gruppe" v="veg" />
		<tag k="ssr:hovedgruppe" v="infrastruktur" />
		<tag k="ssr:stedsnr" v="1055169" />
		<tag k="ssr:type" v="adressenavn" />
	</node>
	<node id="-790591" lat="70.6497663512" lon="22.6228369047">
		<tag k="name" v="Midtøya" />
		<tag k="ssr:date" v="2019-05-31" />
		<tag k="ssr:gruppe" v="veg" />
		<tag k="ssr:hovedgruppe" v="infrastruktur" />
		<tag k="ssr:stedsnr" v="1055168" />
		<tag k="ssr:type" v="adressenavn" />
	</node>
	<node id="-790590" lat="70.6177607034" lon="22.7536383286">
		<tag k="name" v="Multebærtoppen" />
		<tag k="ssr:date" v="2019-05-31" />
		<tag k="ssr:gruppe" v="veg" />
		<tag k="ssr:hovedgruppe" v="infrastruktur" />
		<tag k="ssr:stedsnr" v="1055167" />
		<tag k="ssr:type" v="adressenavn" />
	</node>
	<node id="-790589" lat="70.5565410007" lon="22.6406710521">
		<tag k="name" v="Mebotnen" />
		<tag k="ssr:date" v="2019-05-31" />
		<tag k="ssr:gruppe" v="veg" />
		<tag k="ssr:hovedgruppe" v="infrastruktur" />
		<tag k="ssr:stedsnr" v="1055160" />
		<tag k="ssr:type" v="adressenavn" />
	</node>
	<node id="-791612" lat="70.4761444458" lon="22.0884388593">
		<tag k="name" v="Lille Håen" />
		<tag k="ssr:date" v="2016-05-11" />
		<tag k="ssr:gruppe" v="navigasjon" />
		<tag k="ssr:hovedgruppe" v="infrastruktur" />
		<tag k="ssr:stedsnr" v="944034" />
		<tag k="ssr:type" v="lanterne" />
	</node>
	<node id="-791355" lat="70.4910138874" lon="22.263072179">
		<tag k="name" v="Svartskjær" />
		<tag k="old_name" v="Svartskjer" />
		<tag k="ssr:date" v="2016-05-11" />
		<tag k="ssr:gruppe" v="navigasjon" />
		<tag k="ssr:hovedgruppe" v="infrastruktur" />
		<tag k="ssr:stedsnr" v="747187" />
		<tag k="ssr:type" v="fyrlykt" />
	</node>
	<node id="-790586" lat="70.6178939266" lon="22.7115843407">
		<tag k="name" v="Børstrand" />
		<tag k="ssr:date" v="2019-05-31" />
		<tag k="ssr:gruppe" v="veg" />
		<tag k="ssr:hovedgruppe" v="infrastruktur" />
		<tag k="ssr:stedsnr" v="1055149" />
		<tag k="ssr:type" v="adressenavn" />
	</node>
	<node id="-790585" lat="70.6024103177" lon="22.3586422727">
		<tag k="name" v="Dalvatnet" />
		<tag k="ssr:date" v="2019-05-31" />
		<tag k="ssr:gruppe" v="veg" />
		<tag k="ssr:hovedgruppe" v="infrastruktur" />
		<tag k="ssr:stedsnr" v="1055146" />
		<tag k="ssr:type" v="adressenavn" />
	</node>
	<node id="-790584" lat="70.673495838" lon="22.6020645198">
		<tag k="name" v="Gammelheim" />
		<tag k="ssr:date" v="2019-05-31" />
		<tag k="ssr:gruppe" v="veg" />
		<tag k="ssr:hovedgruppe" v="infrastruktur" />
		<tag k="ssr:stedsnr" v="1055136" />
		<tag k="ssr:type" v="adressenavn" />
	</node>
	<node id="-791351" lat="70.6285472247" lon="21.9645777436">
		<tag k="name" v="Sørvær molo" />
		<tag k="ssr:date" v="2016-05-11" />
		<tag k="ssr:gruppe" v="navigasjon" />
		<tag k="ssr:hovedgruppe" v="infrastruktur" />
		<tag k="ssr:stedsnr" v="724157" />
		<tag k="ssr:type" v="lanterne" />
	</node>
	<node id="-790582" lat="70.5035771308" lon="22.5396735839">
		<tag k="name" v="Grunnfjorden" />
		<tag k="ssr:date" v="2019-05-31" />
		<tag k="ssr:gruppe" v="veg" />
		<tag k="ssr:hovedgruppe" v="infrastruktur" />
		<tag k="ssr:stedsnr" v="1055130" />
		<tag k="ssr:type" v="adressenavn" />
	</node>
	<node id="-791349" lat="70.4805305603" lon="22.1658916295">
		<tag k="name" v="Hasvik, Søre molo" />
		<tag k="ssr:date" v="2016-05-11" />
		<tag k="ssr:gruppe" v="navigasjon" />
		<tag k="ssr:hovedgruppe" v="infrastruktur" />
		<tag k="ssr:stedsnr" v="704259" />
		<tag k="ssr:type" v="lanterne" />
	</node>
	<node id="-790580" lat="70.3394919343" lon="22.4568053416">
		<tag k="name" v="Hamnebukta" />
		<tag k="ssr:date" v="2019-05-31" />
		<tag k="ssr:gruppe" v="veg" />
		<tag k="ssr:hovedgruppe" v="infrastruktur" />
		<tag k="ssr:stedsnr" v="1055127" />
		<tag k="ssr:type" v="adressenavn" />
	</node>
	<node id="-790707" lat="70.6696944468" lon="21.980236076">
		<tag k="name" v="Fuglen" />
		<tag k="ssr:date" v="2016-05-10" />
		<tag k="ssr:gruppe" v="navigasjon" />
		<tag k="ssr:hovedgruppe" v="infrastruktur" />
		<tag k="ssr:stedsnr" v="34660" />
		<tag k="ssr:type" v="lanterne" />
	</node>
	<node id="-790581" lat="70.3415731616" lon="22.45452909">
		<tag k="name" v="Hammarbukta" />
		<tag k="ssr:date" v="2019-05-31" />
		<tag k="ssr:gruppe" v="veg" />
		<tag k="ssr:hovedgruppe" v="infrastruktur" />
		<tag k="ssr:stedsnr" v="1055128" />
		<tag k="ssr:type" v="adressenavn" />
	</node>
	<node id="-790579" lat="70.6032979634" lon="22.0461654954">
		<tag k="name" v="Finnkollvatnet" />
		<tag k="ssr:date" v="2019-05-31" />
		<tag k="ssr:gruppe" v="veg" />
		<tag k="ssr:hovedgruppe" v="infrastruktur" />
		<tag k="ssr:stedsnr" v="1055118" />
		<tag k="ssr:type" v="adressenavn" />
	</node>
	<node id="-790576" lat="70.6908780639" lon="22.4175480714">
		<tag k="name" v="Ytter Bøle" />
		<tag k="ssr:date" v="2019-05-31" />
		<tag k="ssr:gruppe" v="veg" />
		<tag k="ssr:hovedgruppe" v="infrastruktur" />
		<tag k="ssr:stedsnr" v="1055111" />
		<tag k="ssr:type" v="adressenavn" />
	</node>
	<node id="-790575" lat="70.5976339471" lon="22.384863523">
		<tag k="name" v="Øvre Eggevann" />
		<tag k="ssr:date" v="2019-05-31" />
		<tag k="ssr:gruppe" v="veg" />
		<tag k="ssr:hovedgruppe" v="infrastruktur" />
		<tag k="ssr:stedsnr" v="1055110" />
		<tag k="ssr:type" v="adressenavn" />
	</node>
	<node id="-790574" lat="70.5230770766" lon="22.6652199652">
		<tag k="name" v="Øyfjordholmen" />
		<tag k="ssr:date" v="2019-05-31" />
		<tag k="ssr:gruppe" v="veg" />
		<tag k="ssr:hovedgruppe" v="infrastruktur" />
		<tag k="ssr:stedsnr" v="1055109" />
		<tag k="ssr:type" v="adressenavn" />
	</node>
	<node id="-790445" lat="70.6310833369" lon="21.9706499659">
		<tag k="name" v="Sørvær, Nedre" />
		<tag k="ssr:date" v="2016-05-10" />
		<tag k="ssr:gruppe" v="navigasjon" />
		<tag k="ssr:hovedgruppe" v="infrastruktur" />
		<tag k="ssr:stedsnr" v="299192" />
		<tag k="ssr:type" v="fyrlykt" />
	</node>
	<node id="-791340" lat="70.6530472253" lon="22.6283527151">
		<tag k="name" v="Dønnesfjord" />
		<tag k="ssr:date" v="2016-05-11" />
		<tag k="ssr:gruppe" v="navigasjon" />
		<tag k="ssr:hovedgruppe" v="infrastruktur" />
		<tag k="ssr:stedsnr" v="701485" />
		<tag k="ssr:type" v="fyrlykt" />
	</node>
	<node id="-790571" lat="70.6539287229" lon="21.9930093549">
		<tag k="name" v="Darup" />
		<tag k="ssr:date" v="2019-05-31" />
		<tag k="ssr:gruppe" v="veg" />
		<tag k="ssr:hovedgruppe" v="infrastruktur" />
		<tag k="ssr:stedsnr" v="1055100" />
		<tag k="ssr:type" v="adressenavn" />
	</node>
	<node id="-790570" lat="70.6281348429" lon="22.1094843835">
		<tag k="name" v="Sandfjordvatnet" />
		<tag k="ssr:date" v="2019-05-31" />
		<tag k="ssr:gruppe" v="veg" />
		<tag k="ssr:hovedgruppe" v="infrastruktur" />
		<tag k="ssr:stedsnr" v="1055099" />
		<tag k="ssr:type" v="adressenavn" />
	</node>
	<node id="-790569" lat="70.7119367713" lon="22.3954139854">
		<tag k="name" v="Steinskardbukta Østre" />
		<tag k="ssr:date" v="2019-05-31" />
		<tag k="ssr:gruppe" v="veg" />
		<tag k="ssr:hovedgruppe" v="infrastruktur" />
		<tag k="ssr:stedsnr" v="1055098" />
		<tag k="ssr:type" v="adressenavn" />
	</node>
	<node id="-790568" lat="70.6465952758" lon="22.8067673761">
		<tag k="name" v="Nordfjorden" />
		<tag k="ssr:date" v="2019-05-31" />
		<tag k="ssr:gruppe" v="veg" />
		<tag k="ssr:hovedgruppe" v="infrastruktur" />
		<tag k="ssr:stedsnr" v="1055096" />
		<tag k="ssr:type" v="adressenavn" />
	</node>
	<node id="-790567" lat="70.5073132966" lon="22.369569301">
		<tag k="name" v="Langnes Meltefjorden" />
		<tag k="ssr:date" v="2019-05-31" />
		<tag k="ssr:gruppe" v="veg" />
		<tag k="ssr:hovedgruppe" v="infrastruktur" />
		<tag k="ssr:stedsnr" v="1055095" />
		<tag k="ssr:type" v="adressenavn" />
	</node>
	<node id="-790566" lat="70.5351412775" lon="22.2964157453">
		<tag k="name" v="Hasfjordbotn" />
		<tag k="ssr:date" v="2019-05-31" />
		<tag k="ssr:gruppe" v="veg" />
		<tag k="ssr:hovedgruppe" v="infrastruktur" />
		<tag k="ssr:stedsnr" v="1055094" />
		<tag k="ssr:type" v="adressenavn" />
	</node>
	<node id="-790577" lat="70.7215693504" lon="22.7191591958">
		<tag k="name" v="Galten" />
		<tag k="ssr:date" v="2019-05-31" />
		<tag k="ssr:gruppe" v="veg" />
		<tag k="ssr:hovedgruppe" v="infrastruktur" />
		<tag k="ssr:stedsnr" v="1055114" />
		<tag k="ssr:type" v="adressenavn" />
	</node>
	<node id="-790561" lat="70.5583547251" lon="22.7209524016">
		<tag k="name" v="Nordbotndalen" />
		<tag k="ssr:date" v="2019-05-31" />
		<tag k="ssr:gruppe" v="veg" />
		<tag k="ssr:hovedgruppe" v="infrastruktur" />
		<tag k="ssr:stedsnr" v="1055090" />
		<tag k="ssr:type" v="adressenavn" />
	</node>
	<node id="-790560" lat="70.6491392574" lon="22.6008810241">
		<tag k="name" v="Vesterøya" />
		<tag k="ssr:date" v="2019-05-31" />
		<tag k="ssr:gruppe" v="veg" />
		<tag k="ssr:hovedgruppe" v="infrastruktur" />
		<tag k="ssr:stedsnr" v="1055089" />
		<tag k="ssr:type" v="adressenavn" />
	</node>
	<node id="-790559" lat="70.6506426551" lon="22.6344050208">
		<tag k="name" v="Nordøya" />
		<tag k="ssr:date" v="2019-05-31" />
		<tag k="ssr:gruppe" v="veg" />
		<tag k="ssr:hovedgruppe" v="infrastruktur" />
		<tag k="ssr:stedsnr" v="1055088" />
		<tag k="ssr:type" v="adressenavn" />
	</node>
	<node id="-790558" lat="70.5484580994" lon="22.6032984241">
		<tag k="name" v="Offervatnet" />
		<tag k="ssr:date" v="2019-05-31" />
		<tag k="ssr:gruppe" v="veg" />
		<tag k="ssr:hovedgruppe" v="infrastruktur" />
		<tag k="ssr:stedsnr" v="1055087" />
		<tag k="ssr:type" v="adressenavn" />
	</node>
	<node id="-790557" lat="70.6536893555" lon="22.5491237333">
		<tag k="name" v="Storbukta" />
		<tag k="ssr:date" v="2019-05-31" />
		<tag k="ssr:gruppe" v="veg" />
		<tag k="ssr:hovedgruppe" v="infrastruktur" />
		<tag k="ssr:stedsnr" v="1055083" />
		<tag k="ssr:type" v="adressenavn" />
	</node>
	<node id="-790556" lat="70.6107827049" lon="22.7137835197">
		<tag k="name" v="Storvatnet" />
		<tag k="ssr:date" v="2019-05-31" />
		<tag k="ssr:gruppe" v="veg" />
		<tag k="ssr:hovedgruppe" v="infrastruktur" />
		<tag k="ssr:stedsnr" v="1055082" />
		<tag k="ssr:type" v="adressenavn" />
	</node>
	<node id="-790555" lat="70.676265224" lon="22.5113560912">
		<tag k="name" v="Søndre Langkjeila" />
		<tag k="ssr:date" v="2019-05-31" />
		<tag k="ssr:gruppe" v="veg" />
		<tag k="ssr:hovedgruppe" v="infrastruktur" />
		<tag k="ssr:stedsnr" v="1055081" />
		<tag k="ssr:type" v="adressenavn" />
	</node>
	<node id="-790554" lat="70.5478153017" lon="22.6107441941">
		<tag k="name" v="Sørbotn" />
		<tag k="ssr:date" v="2019-05-31" />
		<tag k="ssr:gruppe" v="veg" />
		<tag k="ssr:hovedgruppe" v="infrastruktur" />
		<tag k="ssr:stedsnr" v="1055080" />
		<tag k="ssr:type" v="adressenavn" />
	</node>
	<node id="-790553" lat="70.3218629268" lon="22.4961484266">
		<tag k="name" v="Sørfjorden" />
		<tag k="ssr:date" v="2019-05-31" />
		<tag k="ssr:gruppe" v="veg" />
		<tag k="ssr:hovedgruppe" v="infrastruktur" />
		<tag k="ssr:stedsnr" v="1055079" />
		<tag k="ssr:type" v="adressenavn" />
	</node>
	<node id="-790552" lat="70.6433290687" lon="22.7724479823">
		<tag k="name" v="Seinnesbuktvatnet" />
		<tag k="ssr:date" v="2019-05-31" />
		<tag k="ssr:gruppe" v="veg" />
		<tag k="ssr:hovedgruppe" v="infrastruktur" />
		<tag k="ssr:stedsnr" v="1055078" />
		<tag k="ssr:type" v="adressenavn" />
	</node>
	<node id="-790551" lat="70.3466799779" lon="22.4485231792">
		<tag k="name" v="Sennanes" />
		<tag k="ssr:date" v="2019-05-31" />
		<tag k="ssr:gruppe" v="veg" />
		<tag k="ssr:hovedgruppe" v="infrastruktur" />
		<tag k="ssr:stedsnr" v="1055077" />
		<tag k="ssr:type" v="adressenavn" />
	</node>
	<node id="-790806" lat="70.4915500013" lon="22.5880110479">
		<tag k="name" v="Karken" />
		<tag k="ssr:date" v="2016-05-10" />
		<tag k="ssr:gruppe" v="navigasjon" />
		<tag k="ssr:hovedgruppe" v="infrastruktur" />
		<tag k="ssr:stedsnr" v="141200" />
		<tag k="ssr:type" v="fyrlykt" />
	</node>
	<node id="-790549" lat="70.6052505924" lon="22.4427835278">
		<tag k="name" v="Sluskefjellet" />
		<tag k="ssr:date" v="2019-05-31" />
		<tag k="ssr:gruppe" v="veg" />
		<tag k="ssr:hovedgruppe" v="infrastruktur" />
		<tag k="ssr:stedsnr" v="1055074" />
		<tag k="ssr:type" v="adressenavn" />
	</node>
	<node id="-790548" lat="70.3491515602" lon="22.5908556602">
		<tag k="name" v="Smalfjordbotn" />
		<tag k="ssr:date" v="2019-05-31" />
		<tag k="ssr:gruppe" v="veg" />
		<tag k="ssr:hovedgruppe" v="infrastruktur" />
		<tag k="ssr:stedsnr" v="1055073" />
		<tag k="ssr:type" v="adressenavn" />
	</node>
	<node id="-790547" lat="70.6008637998" lon="22.378003912">
		<tag k="name" v="Smalvatnet" />
		<tag k="ssr:date" v="2019-05-31" />
		<tag k="ssr:gruppe" v="veg" />
		<tag k="ssr:hovedgruppe" v="infrastruktur" />
		<tag k="ssr:stedsnr" v="1055072" />
		<tag k="ssr:type" v="adressenavn" />
	</node>
	<node id="-790595" lat="70.6888938353" lon="22.4272262746">
		<tag k="name" v="Inner Bøle" />
		<tag k="ssr:date" v="2019-05-31" />
		<tag k="ssr:gruppe" v="veg" />
		<tag k="ssr:hovedgruppe" v="infrastruktur" />
		<tag k="ssr:stedsnr" v="1055173" />
		<tag k="ssr:type" v="adressenavn" />
	</node>
	<node id="-790872" lat="70.4967666688" lon="22.118883284">
		<tag k="name" v="Stangeneset" />
		<tag k="old_name" v="Stangneset" />
		<tag k="ssr:date" v="2016-05-10" />
		<tag k="ssr:gruppe" v="navigasjon" />
		<tag k="ssr:hovedgruppe" v="infrastruktur" />
		<tag k="ssr:stedsnr" v="201262" />
		<tag k="ssr:type" v="fyrlykt" />
	</node>
	<node id="-790573" lat="70.6670959193" lon="22.5752622695">
		<tag k="name" v="Internatbukta" />
		<tag k="ssr:date" v="2019-05-31" />
		<tag k="ssr:gruppe" v="veg" />
		<tag k="ssr:hovedgruppe" v="infrastruktur" />
		<tag k="ssr:stedsnr" v="1055105" />
		<tag k="ssr:type" v="adressenavn" />
	</node>
	<node id="-790572" lat="70.6324000858" lon="22.7046787593">
		<tag k="name" v="Thomasnes" />
		<tag k="ssr:date" v="2019-05-31" />
		<tag k="ssr:gruppe" v="veg" />
		<tag k="ssr:hovedgruppe" v="infrastruktur" />
		<tag k="ssr:stedsnr" v="1055104" />
		<tag k="ssr:type" v="adressenavn" />
	</node>
	<node id="-790532" lat="70.6301555539" lon="21.947630526">
		<tag k="name" v="Kåja" />
		<tag k="ssr:date" v="2016-05-10" />
		<tag k="ssr:gruppe" v="navigasjon" />
		<tag k="ssr:hovedgruppe" v="infrastruktur" />
		<tag k="ssr:stedsnr" v="384704" />
		<tag k="ssr:type" v="fyrlykt" />
	</node>
	<node id="-790550" lat="70.4893918421" lon="22.4511552343">
		<tag k="name" v="Skallneset" />
		<tag k="ssr:date" v="2019-05-31" />
		<tag k="ssr:gruppe" v="veg" />
		<tag k="ssr:hovedgruppe" v="infrastruktur" />
		<tag k="ssr:stedsnr" v="1055076" />
		<tag k="ssr:type" v="adressenavn" />
	</node>
</osm>
