<?xml version="1.0" encoding="UTF-8"?>
<osm version="0.6" generator="osmapis">
	<node id="301212305" lat="61.2620326" lon="10.606838" version="6" timestamp="2022-02-01T16:51:09Z" changeset="116876628" uid="3497659" user="NKA">
		<tag k="junction" v="yes" />
		<tag k="name" v="Sjøsæterkrysset" />
		<tag k="ssr:stedsnr" v="951512" />
	</node>
	<node id="428582658" lat="61.2067542" lon="10.432314" version="6" timestamp="2022-02-01T16:51:09Z" changeset="116876628" uid="3497659" user="NKA">
		<tag k="junction" v="yes" />
		<tag k="name" v="Bruvoll" />
		<tag k="ssr:stedsnr" v="102611" />
	</node>
	<node id="457566631" lat="61.248524" lon="10.458615" version="4" timestamp="2022-01-31T06:16:31Z" changeset="116806593" uid="3497659" user="NKA">
		<tag k="junction" v="yes" />
		<tag k="name" v="Molbosmoget" />
		<tag k="ssr:stedsnr" v="587786" />
	</node>
	<node id="457567081" lat="61.2960384" lon="10.4131203" version="6" timestamp="2022-02-01T16:51:09Z" changeset="116876628" uid="3497659" user="NKA">
		<tag k="junction" v="yes" />
		<tag k="name" v="Båsen" />
		<tag k="ssr:stedsnr" v="716624" />
	</node>
	<node id="457571845" lat="61.3357323" lon="10.2997912" version="5" timestamp="2022-01-31T06:16:31Z" changeset="116806593" uid="3497659" user="NKA">
		<tag k="alt_name" v="Tårstadkrysset" />
		<tag k="junction" v="yes" />
		<tag k="name" v="Torstadkrysset" />
		<tag k="ssr:stedsnr" v="645295" />
	</node>
	<node id="457572173" lat="61.3126945" lon="10.3017835" version="6" timestamp="2022-02-01T16:51:09Z" changeset="116876628" uid="3497659" user="NKA">
		<tag k="junction" v="yes" />
		<tag k="name" v="Brustad" />
		<tag k="ssr:stedsnr" v="767379" />
	</node>
	<node id="685223241" lat="61.3145095" lon="10.300658" version="6" timestamp="2022-04-12T04:53:01Z" changeset="119603148" uid="3497659" user="NKA">
		<tag k="name" v="Tretten" />
		<tag k="place" v="village" />
		<tag k="population" v="860" />
		<tag k="population:date" v="2021-01-01" />
		<tag k="ref:ssb_tettsted" v="1612" />
		<tag k="source:population" v="SSB - befolkning i tettstedet" />
		<tag k="ssr:stedsnr" v="329083" />
	</node>
	<node id="685223246" lat="61.2630319" lon="10.416242" version="6" timestamp="2022-04-12T04:53:01Z" changeset="119603148" uid="3497659" user="NKA">
		<tag k="name" v="Øyer" />
		<tag k="place" v="village" />
		<tag k="population" v="435" />
		<tag k="population:date" v="2021-01-01" />
		<tag k="ref:ssb_tettsted" v="1613" />
		<tag k="source:population" v="SSB - befolkning i tettstedet" />
		<tag k="ssr:stedsnr" v="273174" />
	</node>
	<node id="2334793228" lat="61.2908045" lon="10.428981" version="4" timestamp="2022-02-01T16:51:09Z" changeset="116876628" uid="3497659" user="NKA">
		<tag k="junction" v="yes" />
		<tag k="name" v="Korsbakken" />
		<tag k="ssr:stedsnr" v="250262" />
	</node>
	<node id="2350260598" lat="61.2422669" lon="10.4389639" version="5" timestamp="2022-04-12T04:53:01Z" changeset="119603148" uid="3497659" user="NKA">
		<tag k="name" v="Granrudmoen" />
		<tag k="place" v="village" />
		<tag k="population" v="1678" />
		<tag k="population:date" v="2021-01-01" />
		<tag k="ref:ssb_tettsted" v="1611" />
		<tag k="source:population" v="SSB - befolkning i tettstedet" />
		<tag k="ssr:stedsnr" v="451107" />
	</node>
	<node id="2350260601" lat="61.2422751" lon="10.4463471" version="3" timestamp="2022-04-12T04:53:01Z" changeset="119603148" uid="3497659" user="NKA">
		<tag k="name" v="Slettmoen" />
		<tag k="place" v="neighbourhood" />
		<tag k="ssr:stedsnr" v="129164" />
	</node>
	<node id="2350278149" lat="61.2786816" lon="10.7612675" version="2" timestamp="2022-01-31T06:16:31Z" changeset="116806593" uid="3497659" user="NKA">
		<tag k="name" v="Korsen" />
		<tag k="place" v="locality" />
		<tag k="ssr:stedsnr" v="216686" />
	</node>
	<node id="2696848297" lat="61.3256718" lon="10.2936989" version="5" timestamp="2022-02-01T16:51:09Z" changeset="116876628" uid="3497659" user="NKA">
		<tag k="junction" v="yes" />
		<tag k="name" v="Brattbakken" />
		<tag k="ssr:stedsnr" v="765920" />
	</node>
	<node id="2703514400" lat="61.2781472" lon="10.3861331" version="4" timestamp="2022-02-01T16:51:09Z" changeset="116876628" uid="3497659" user="NKA">
		<tag k="junction" v="yes" />
		<tag k="name" v="Oddvang" />
		<tag k="ssr:stedsnr" v="102649" />
	</node>
	<node id="2704858632" lat="61.2637253" lon="10.5848076" version="3" timestamp="2022-02-01T16:51:09Z" changeset="116876628" uid="3497659" user="NKA">
		<tag k="junction" v="yes" />
		<tag k="name" v="Liendkrysset" />
		<tag k="ssr:stedsnr" v="160578" />
	</node>
	<node id="2710174474" lat="61.289495" lon="10.8081614" version="2" timestamp="2022-01-31T06:16:31Z" changeset="116806593" uid="3497659" user="NKA">
		<tag k="junction" v="yes" />
		<tag k="name" v="Kaldholsæterkrysset" />
		<tag k="ssr:stedsnr" v="282737" />
	</node>
	<node id="9659906234" lat="61.21286" lon="10.4751689" version="1" timestamp="2022-04-12T04:53:01Z" changeset="119603148" uid="3497659" user="NKA">
		<tag k="name" v="Bomhytta" />
		<tag k="place" v="isolated_dwelling" />
		<tag k="ssr:stedsnr" v="974682" />
	</node>
	<node id="9659906235" lat="61.25765" lon="10.7855805" version="1" timestamp="2022-04-12T04:53:01Z" changeset="119603148" uid="3497659" user="NKA">
		<tag k="name" v="Hynna" />
		<tag k="place" v="hamlet" />
		<tag k="ssr:stedsnr" v="9359" />
	</node>
	<node id="9659906236" lat="61.290975" lon="10.3556083" version="1" timestamp="2022-04-12T04:53:01Z" changeset="119603148" uid="3497659" user="NKA">
		<tag k="name" v="Høgberg" />
		<tag k="place" v="locality" />
		<tag k="ssr:stedsnr" v="465434" />
	</node>
	<node id="9659906237" lat="61.2305916" lon="10.4526861" version="1" timestamp="2022-04-12T04:53:01Z" changeset="119603148" uid="3497659" user="NKA">
		<tag k="name" v="Sørlia" />
		<tag k="place" v="neighbourhood" />
		<tag k="ssr:stedsnr" v="526631" />
	</node>
	<node id="9659906238" lat="61.2340111" lon="10.4299834" version="1" timestamp="2022-04-12T04:53:01Z" changeset="119603148" uid="3497659" user="NKA">
		<tag k="name" v="Myrom" />
		<tag k="place" v="farm" />
		<tag k="ssr:stedsnr" v="675175" />
	</node>
	<node id="9659906239" lat="61.3725889" lon="10.6113917" version="1" timestamp="2022-04-12T04:53:01Z" changeset="119603148" uid="3497659" user="NKA">
		<tag k="name" v="Nedreåsta" />
		<tag k="place" v="isolated_dwelling" />
		<tag k="ssr:stedsnr" v="918363" />
	</node>
	<node id="9659906240" lat="61.2680523" lon="10.3876066" version="1" timestamp="2022-04-12T04:53:01Z" changeset="119603148" uid="3497659" user="NKA">
		<tag k="name" v="Nymoen" />
		<tag k="place" v="farm" />
		<tag k="ssr:stedsnr" v="828407" />
	</node>
	<node id="9659906241" lat="61.2661983" lon="10.4191984" version="1" timestamp="2022-04-12T04:53:01Z" changeset="119603148" uid="3497659" user="NKA">
		<tag k="alt_name" v="Klukkargarden" />
		<tag k="name" v="Klukkergarden" />
		<tag k="place" v="farm" />
		<tag k="ssr:stedsnr" v="524365" />
	</node>
	<node id="9659906242" lat="61.2744716" lon="10.3690741" version="1" timestamp="2022-04-12T04:53:01Z" changeset="119603148" uid="3497659" user="NKA">
		<tag k="alt_name" v="Lågårud" />
		<tag k="name" v="Lagerud" />
		<tag k="place" v="farm" />
		<tag k="ssr:stedsnr" v="614269" />
	</node>
	<node id="9659906243" lat="61.2566467" lon="10.376762" version="1" timestamp="2022-04-12T04:53:01Z" changeset="119603148" uid="3497659" user="NKA">
		<tag k="name" v="Berdonslia" />
		<tag k="place" v="locality" />
		<tag k="ssr:stedsnr" v="985863" />
	</node>
	<node id="9659906244" lat="61.2849268" lon="10.380015" version="1" timestamp="2022-04-12T04:53:01Z" changeset="119603148" uid="3497659" user="NKA">
		<tag k="name" v="Nordlund" />
		<tag k="place" v="farm" />
		<tag k="ssr:stedsnr" v="587627" />
	</node>
	<node id="9659906245" lat="61.2727331" lon="10.3813131" version="1" timestamp="2022-04-12T04:53:01Z" changeset="119603148" uid="3497659" user="NKA">
		<tag k="name" v="Lunheim" />
		<tag k="place" v="farm" />
		<tag k="ssr:stedsnr" v="614500" />
	</node>
	<node id="9659906246" lat="61.2798525" lon="10.3665544" version="1" timestamp="2022-04-12T04:53:01Z" changeset="119603148" uid="3497659" user="NKA">
		<tag k="name" v="Vollen" />
		<tag k="place" v="farm" />
		<tag k="ssr:stedsnr" v="493269" />
	</node>
	<node id="9659906247" lat="61.2890448" lon="10.3756832" version="1" timestamp="2022-04-12T04:53:01Z" changeset="119603148" uid="3497659" user="NKA">
		<tag k="name" v="Skjønsberg" />
		<tag k="place" v="hamlet" />
		<tag k="ssr:stedsnr" v="614262" />
	</node>
	<node id="9659906248" lat="61.2583528" lon="10.3691944" version="1" timestamp="2022-04-12T04:53:01Z" changeset="119603148" uid="3497659" user="NKA">
		<tag k="historic" v="shieling" />
		<tag k="name" v="Liasætra" />
		<tag k="place" v="isolated_dwelling" />
		<tag k="ssr:stedsnr" v="250478" />
	</node>
	<node id="9659906249" lat="61.264879" lon="10.3823509" version="1" timestamp="2022-04-12T04:53:01Z" changeset="119603148" uid="3497659" user="NKA">
		<tag k="name" v="Lia" />
		<tag k="place" v="farm" />
		<tag k="ssr:stedsnr" v="493479" />
	</node>
	<node id="9659906250" lat="61.2692223" lon="10.3701879" version="1" timestamp="2022-04-12T04:53:01Z" changeset="119603148" uid="3497659" user="NKA">
		<tag k="name" v="Kampen" />
		<tag k="place" v="farm" />
		<tag k="ssr:stedsnr" v="129486" />
	</node>
	<node id="9659906251" lat="61.2835074" lon="10.3902656" version="1" timestamp="2022-04-12T04:53:01Z" changeset="119603148" uid="3497659" user="NKA">
		<tag k="name" v="Lånke" />
		<tag k="place" v="hamlet" />
		<tag k="ssr:stedsnr" v="129274" />
	</node>
	<node id="9659906252" lat="61.2791757" lon="10.3899663" version="1" timestamp="2022-04-12T04:53:01Z" changeset="119603148" uid="3497659" user="NKA">
		<tag k="name" v="Steinsli" />
		<tag k="place" v="farm" />
		<tag k="ssr:stedsnr" v="68512" />
	</node>
	<node id="9659906253" lat="61.267001" lon="10.3858006" version="1" timestamp="2022-04-12T04:53:01Z" changeset="119603148" uid="3497659" user="NKA">
		<tag k="name" v="Bjerke" />
		<tag k="place" v="farm" />
		<tag k="ssr:stedsnr" v="68500" />
	</node>
	<node id="9659906254" lat="61.2800671" lon="10.365952" version="1" timestamp="2022-04-12T04:53:01Z" changeset="119603148" uid="3497659" user="NKA">
		<tag k="name" v="Svarverstugua" />
		<tag k="place" v="farm" />
		<tag k="ssr:stedsnr" v="344610" />
	</node>
	<node id="9659906255" lat="61.262766" lon="10.3873633" version="1" timestamp="2022-04-12T04:53:01Z" changeset="119603148" uid="3497659" user="NKA">
		<tag k="alt_name" v="Nørdre Strømsøygarden;Nørdre Strømsødegården" />
		<tag k="name" v="Øygarden" />
		<tag k="place" v="farm" />
		<tag k="ssr:stedsnr" v="68499" />
	</node>
	<node id="9659906256" lat="61.2729057" lon="10.3781896" version="1" timestamp="2022-04-12T04:53:01Z" changeset="119603148" uid="3497659" user="NKA">
		<tag k="name" v="Trångrud" />
		<tag k="place" v="farm" />
		<tag k="ssr:stedsnr" v="221391" />
	</node>
	<node id="9659906257" lat="61.2683277" lon="10.3839752" version="1" timestamp="2022-04-12T04:53:01Z" changeset="119603148" uid="3497659" user="NKA">
		<tag k="name" v="Ringen" />
		<tag k="place" v="farm" />
		<tag k="ssr:stedsnr" v="403415" />
	</node>
	<node id="9659906258" lat="61.2561298" lon="10.4321246" version="1" timestamp="2022-04-12T04:53:01Z" changeset="119603148" uid="3497659" user="NKA">
		<tag k="alt_name" v="Jemnhagen" />
		<tag k="name" v="Jemnhågån" />
		<tag k="place" v="farm" />
		<tag k="ssr:stedsnr" v="918532" />
	</node>
	<node id="9659906259" lat="61.2596" lon="10.4428555" version="1" timestamp="2022-04-12T04:53:01Z" changeset="119603148" uid="3497659" user="NKA">
		<tag k="name" v="Holme" />
		<tag k="place" v="farm" />
		<tag k="ssr:stedsnr" v="918536" />
	</node>
	<node id="9659906260" lat="61.2207802" lon="10.4570112" version="1" timestamp="2022-04-12T04:53:01Z" changeset="119603148" uid="3497659" user="NKA">
		<tag k="name" v="Ile" />
		<tag k="place" v="farm" />
		<tag k="ssr:stedsnr" v="918180" />
	</node>
	<node id="9659906261" lat="61.2545366" lon="10.4570125" version="1" timestamp="2022-04-12T04:53:01Z" changeset="119603148" uid="3497659" user="NKA">
		<tag k="name" v="Bottrud" />
		<tag k="place" v="farm" />
		<tag k="ssr:stedsnr" v="918533" />
	</node>
	<node id="9659906262" lat="61.2409857" lon="10.4579096" version="1" timestamp="2022-04-12T04:53:01Z" changeset="119603148" uid="3497659" user="NKA">
		<tag k="name" v="Mo" />
		<tag k="place" v="hamlet" />
		<tag k="ssr:stedsnr" v="918153" />
	</node>
	<node id="9659906263" lat="61.2593792" lon="10.4121959" version="1" timestamp="2022-04-12T04:53:01Z" changeset="119603148" uid="3497659" user="NKA">
		<tag k="name" v="Brandborg" />
		<tag k="place" v="farm" />
		<tag k="ssr:stedsnr" v="914466" />
	</node>
	<node id="9659906264" lat="61.2511588" lon="10.4500778" version="1" timestamp="2022-04-12T04:53:01Z" changeset="119603148" uid="3497659" user="NKA">
		<tag k="name" v="Øvermoen" />
		<tag k="place" v="farm" />
		<tag k="ssr:stedsnr" v="797467" />
	</node>
	<node id="9659906265" lat="61.2563673" lon="10.468687" version="1" timestamp="2022-04-12T04:53:01Z" changeset="119603148" uid="3497659" user="NKA">
		<tag k="name" v="Lyusvea" />
		<tag k="place" v="farm" />
		<tag k="ssr:stedsnr" v="797462" />
	</node>
	<node id="9659906266" lat="61.2912614" lon="10.3999138" version="1" timestamp="2022-04-12T04:53:01Z" changeset="119603148" uid="3497659" user="NKA">
		<tag k="name" v="Oppdal" />
		<tag k="place" v="farm" />
		<tag k="ssr:stedsnr" v="797263" />
	</node>
	<node id="9659906267" lat="61.2336778" lon="10.4268223" version="1" timestamp="2022-04-12T04:53:01Z" changeset="119603148" uid="3497659" user="NKA">
		<tag k="name" v="Svarverud" />
		<tag k="place" v="farm" />
		<tag k="ssr:stedsnr" v="797150" />
	</node>
	<node id="9659906268" lat="61.2517278" lon="10.4155972" version="1" timestamp="2022-04-12T04:53:01Z" changeset="119603148" uid="3497659" user="NKA">
		<tag k="name" v="Sveajordet" />
		<tag k="place" v="farm" />
		<tag k="ssr:stedsnr" v="769150" />
	</node>
	<node id="9659906269" lat="61.2420223" lon="10.4257084" version="1" timestamp="2022-04-12T04:53:01Z" changeset="119603148" uid="3497659" user="NKA">
		<tag k="alt_name" v="Skriua" />
		<tag k="name" v="Viksvea" />
		<tag k="place" v="farm" />
		<tag k="ssr:stedsnr" v="796135" />
	</node>
	<node id="9659906270" lat="61.2588982" lon="10.3995457" version="1" timestamp="2022-04-12T04:53:01Z" changeset="119603148" uid="3497659" user="NKA">
		<tag k="name" v="Flatstulen" />
		<tag k="place" v="farm" />
		<tag k="ssr:stedsnr" v="736475" />
	</node>
	<node id="9659906271" lat="61.2218195" lon="10.466825" version="1" timestamp="2022-04-12T04:53:01Z" changeset="119603148" uid="3497659" user="NKA">
		<tag k="name" v="Ilsveen" />
		<tag k="place" v="farm" />
		<tag k="ssr:stedsnr" v="768133" />
	</node>
	<node id="9659906272" lat="61.2451261" lon="10.5021424" version="1" timestamp="2022-04-12T04:53:01Z" changeset="119603148" uid="3497659" user="NKA">
		<tag k="historic" v="shieling" />
		<tag k="name" v="Mosætra" />
		<tag k="place" v="isolated_dwelling" />
		<tag k="ssr:stedsnr" v="736139" />
	</node>
	<node id="9659906273" lat="61.3129018" lon="10.392801" version="1" timestamp="2022-04-12T04:53:01Z" changeset="119603148" uid="3497659" user="NKA">
		<tag k="alt_name" v="Hundbergsætra;Hundbergslia" />
		<tag k="historic" v="shieling" />
		<tag k="name" v="Hundberget" />
		<tag k="old_name" v="Hundbjerg;Hunberget;Hundbergslisætrene;Hundbergsli Sre" />
		<tag k="place" v="isolated_dwelling" />
		<tag k="ssr:stedsnr" v="766271" />
	</node>
	<node id="9659906274" lat="61.3452139" lon="10.5245305" version="1" timestamp="2022-04-12T04:53:01Z" changeset="119603148" uid="3497659" user="NKA">
		<tag k="historic" v="shieling" />
		<tag k="name" v="Nysætra" />
		<tag k="place" v="hamlet" />
		<tag k="ssr:stedsnr" v="676278" />
	</node>
	<node id="9659906275" lat="61.2475173" lon="10.4664792" version="1" timestamp="2022-04-12T04:53:01Z" changeset="119603148" uid="3497659" user="NKA">
		<tag k="name" v="Brenna" />
		<tag k="place" v="farm" />
		<tag k="ssr:stedsnr" v="708802" />
	</node>
	<node id="9659906276" lat="61.3352722" lon="10.5618777" version="1" timestamp="2022-04-12T04:53:01Z" changeset="119603148" uid="3497659" user="NKA">
		<tag k="name" v="Brettdalen" />
		<tag k="place" v="hamlet" />
		<tag k="ssr:stedsnr" v="676273" />
	</node>
	<node id="9659906277" lat="61.2585908" lon="10.440737" version="1" timestamp="2022-04-12T04:53:01Z" changeset="119603148" uid="3497659" user="NKA">
		<tag k="name" v="Brynssvea" />
		<tag k="place" v="farm" />
		<tag k="ssr:stedsnr" v="675498" />
	</node>
	<node id="9659906278" lat="61.2702549" lon="10.4350518" version="1" timestamp="2022-04-12T04:53:01Z" changeset="119603148" uid="3497659" user="NKA">
		<tag k="name" v="Vedem" />
		<tag k="place" v="hamlet" />
		<tag k="ssr:stedsnr" v="675513" />
	</node>
	<node id="9659906279" lat="61.2930513" lon="10.3958443" version="1" timestamp="2022-04-12T04:53:01Z" changeset="119603148" uid="3497659" user="NKA">
		<tag k="name" v="Kråbøl" />
		<tag k="place" v="farm" />
		<tag k="ssr:stedsnr" v="675314" />
	</node>
	<node id="9659906280" lat="61.2604626" lon="10.4565893" version="1" timestamp="2022-04-12T04:53:01Z" changeset="119603148" uid="3497659" user="NKA">
		<tag k="name" v="Jordbakken" />
		<tag k="place" v="farm" />
		<tag k="ssr:stedsnr" v="614480" />
	</node>
	<node id="9659906281" lat="61.2298036" lon="10.470087" version="1" timestamp="2022-04-12T04:53:01Z" changeset="119603148" uid="3497659" user="NKA">
		<tag k="alt_name" v="Nestingshagan;Nestinghågån" />
		<tag k="name" v="Nestingshågån" />
		<tag k="place" v="locality" />
		<tag k="ssr:stedsnr" v="675186" />
	</node>
	<node id="9659906282" lat="61.2871084" lon="10.4441749" version="1" timestamp="2022-04-12T04:53:01Z" changeset="119603148" uid="3497659" user="NKA">
		<tag k="historic" v="shieling" />
		<tag k="name" v="Høvresætra" />
		<tag k="place" v="hamlet" />
		<tag k="ssr:stedsnr" v="614274" />
	</node>
	<node id="9659906283" lat="61.249427" lon="10.4497848" version="1" timestamp="2022-04-12T04:53:01Z" changeset="119603148" uid="3497659" user="NKA">
		<tag k="name" v="Moen" />
		<tag k="place" v="farm" />
		<tag k="ssr:stedsnr" v="614126" />
	</node>
	<node id="9659906284" lat="61.3138914" lon="10.5537081" version="1" timestamp="2022-04-12T04:53:01Z" changeset="119603148" uid="3497659" user="NKA">
		<tag k="historic" v="shieling" />
		<tag k="name" v="Vedemslia" />
		<tag k="place" v="hamlet" />
		<tag k="ssr:stedsnr" v="494234" />
	</node>
	<node id="9659906285" lat="61.2596625" lon="10.4243181" version="1" timestamp="2022-04-12T04:53:01Z" changeset="119603148" uid="3497659" user="NKA">
		<tag k="alt_name" v="Jevne" />
		<tag k="name" v="Jemne" />
		<tag k="place" v="farm" />
		<tag k="ssr:stedsnr" v="493467" />
	</node>
	<node id="9659906286" lat="61.2636427" lon="10.4214436" version="1" timestamp="2022-04-12T04:53:01Z" changeset="119603148" uid="3497659" user="NKA">
		<tag k="name" v="Moshus" />
		<tag k="place" v="farm" />
		<tag k="ssr:stedsnr" v="493485" />
	</node>
	<node id="9659906287" lat="61.2676667" lon="10.4419194" version="1" timestamp="2022-04-12T04:53:01Z" changeset="119603148" uid="3497659" user="NKA">
		<tag k="name" v="Dal" />
		<tag k="place" v="farm" />
		<tag k="ssr:stedsnr" v="493483" />
	</node>
	<node id="9659906288" lat="61.2637679" lon="10.4546367" version="1" timestamp="2022-04-12T04:53:01Z" changeset="119603148" uid="3497659" user="NKA">
		<tag k="name" v="Øverli" />
		<tag k="place" v="farm" />
		<tag k="ssr:stedsnr" v="493476" />
	</node>
	<node id="9659906289" lat="61.3563778" lon="10.4014722" version="1" timestamp="2022-04-12T04:53:01Z" changeset="119603148" uid="3497659" user="NKA">
		<tag k="name" v="Brennlia" />
		<tag k="place" v="hamlet" />
		<tag k="ssr:stedsnr" v="493313" />
	</node>
	<node id="9659906290" lat="61.3203639" lon="10.4239223" version="1" timestamp="2022-04-12T04:53:01Z" changeset="119603148" uid="3497659" user="NKA">
		<tag k="name" v="Gammelpølen" />
		<tag k="place" v="locality" />
		<tag k="ssr:stedsnr" v="466299" />
	</node>
	<node id="9659906291" lat="61.2405388" lon="10.4635819" version="1" timestamp="2022-04-12T04:53:01Z" changeset="119603148" uid="3497659" user="NKA">
		<tag k="name" v="Sørhaugen" />
		<tag k="place" v="farm" />
		<tag k="ssr:stedsnr" v="466814" />
	</node>
	<node id="9659906292" lat="61.2578111" lon="10.4634999" version="1" timestamp="2022-04-12T04:53:01Z" changeset="119603148" uid="3497659" user="NKA">
		<tag k="name" v="Lykkja" />
		<tag k="place" v="farm" />
		<tag k="ssr:stedsnr" v="433455" />
	</node>
	<node id="9659906293" lat="61.2831777" lon="10.4175166" version="1" timestamp="2022-04-12T04:53:01Z" changeset="119603148" uid="3497659" user="NKA">
		<tag k="alt_name" v="Lundstad" />
		<tag k="name" v="Bøshaugen" />
		<tag k="place" v="farm" />
		<tag k="ssr:stedsnr" v="372282" />
	</node>
	<node id="9659906294" lat="61.244016" lon="10.4715025" version="1" timestamp="2022-04-12T04:53:01Z" changeset="119603148" uid="3497659" user="NKA">
		<tag k="name" v="Svegarden" />
		<tag k="place" v="farm" />
		<tag k="ssr:stedsnr" v="311162" />
	</node>
	<node id="9659906295" lat="61.2623651" lon="10.4408344" version="1" timestamp="2022-04-12T04:53:01Z" changeset="119603148" uid="3497659" user="NKA">
		<tag k="name" v="Bryn" />
		<tag k="place" v="hamlet" />
		<tag k="ssr:stedsnr" v="311517" />
	</node>
	<node id="9659906296" lat="61.2755528" lon="10.407436" version="1" timestamp="2022-04-12T04:53:01Z" changeset="119603148" uid="3497659" user="NKA">
		<tag k="name" v="Bergset" />
		<tag k="place" v="farm" />
		<tag k="ssr:stedsnr" v="292582" />
	</node>
	<node id="9659906297" lat="61.2372287" lon="10.4440999" version="1" timestamp="2022-04-12T04:53:01Z" changeset="119603148" uid="3497659" user="NKA">
		<tag k="name" v="Aronsvea" />
		<tag k="place" v="farm" />
		<tag k="ssr:stedsnr" v="311179" />
	</node>
	<node id="9659906298" lat="61.2615289" lon="10.4297942" version="1" timestamp="2022-04-12T04:53:01Z" changeset="119603148" uid="3497659" user="NKA">
		<tag k="name" v="Haug" />
		<tag k="place" v="farm" />
		<tag k="ssr:stedsnr" v="250463" />
	</node>
	<node id="9659906299" lat="61.3225612" lon="10.4396416" version="1" timestamp="2022-04-12T04:53:01Z" changeset="119603148" uid="3497659" user="NKA">
		<tag k="name" v="Pølen" />
		<tag k="place" v="hamlet" />
		<tag k="ssr:stedsnr" v="251325" />
	</node>
	<node id="9659906300" lat="61.2486779" lon="10.4387793" version="1" timestamp="2022-04-12T04:53:01Z" changeset="119603148" uid="3497659" user="NKA">
		<tag k="name" v="Ruglykkja" />
		<tag k="place" v="farm" />
		<tag k="ssr:stedsnr" v="250133" />
	</node>
	<node id="9659906301" lat="61.2526948" lon="10.4573339" version="1" timestamp="2022-04-12T04:53:01Z" changeset="119603148" uid="3497659" user="NKA">
		<tag k="alt_name" v="Jitustad" />
		<tag k="name" v="Jutulstad" />
		<tag k="place" v="farm" />
		<tag k="ssr:stedsnr" v="250465" />
	</node>
	<node id="9659906302" lat="61.2444898" lon="10.4582418" version="1" timestamp="2022-04-12T04:53:01Z" changeset="119603148" uid="3497659" user="NKA">
		<tag k="name" v="Nermo" />
		<tag k="place" v="farm" />
		<tag k="ssr:stedsnr" v="250128" />
	</node>
	<node id="9659906303" lat="61.2399735" lon="10.5166005" version="1" timestamp="2022-04-12T04:53:01Z" changeset="119603148" uid="3497659" user="NKA">
		<tag k="historic" v="shieling" />
		<tag k="name" v="Nysætra" />
		<tag k="place" v="hamlet" />
		<tag k="ssr:stedsnr" v="250153" />
	</node>
	<node id="9659906304" lat="61.2525391" lon="10.449225" version="1" timestamp="2022-04-12T04:53:01Z" changeset="119603148" uid="3497659" user="NKA">
		<tag k="name" v="Sørheim" />
		<tag k="place" v="farm" />
		<tag k="ssr:stedsnr" v="208773" />
	</node>
	<node id="9659906305" lat="61.2888877" lon="10.3952144" version="1" timestamp="2022-04-12T04:53:01Z" changeset="119603148" uid="3497659" user="NKA">
		<tag k="name" v="Olstad" />
		<tag k="place" v="farm" />
		<tag k="ssr:stedsnr" v="250263" />
	</node>
	<node id="9659906306" lat="61.2763732" lon="10.4221119" version="1" timestamp="2022-04-12T04:53:01Z" changeset="119603148" uid="3497659" user="NKA">
		<tag k="name" v="Kruke" />
		<tag k="place" v="hamlet" />
		<tag k="ssr:stedsnr" v="129496" />
	</node>
	<node id="9659906307" lat="61.254959" lon="10.4638698" version="1" timestamp="2022-04-12T04:53:01Z" changeset="119603148" uid="3497659" user="NKA">
		<tag k="name" v="Riseng" />
		<tag k="place" v="farm" />
		<tag k="ssr:stedsnr" v="102247" />
	</node>
	<node id="9659906308" lat="61.2324238" lon="10.4490882" version="1" timestamp="2022-04-12T04:53:01Z" changeset="119603148" uid="3497659" user="NKA">
		<tag k="name" v="Myromstugua" />
		<tag k="place" v="farm" />
		<tag k="ssr:stedsnr" v="102157" />
	</node>
	<node id="9659906309" lat="61.2530833" lon="10.4171862" version="1" timestamp="2022-04-12T04:53:01Z" changeset="119603148" uid="3497659" user="NKA">
		<tag k="name" v="Dokka" />
		<tag k="place" v="locality" />
		<tag k="ssr:stedsnr" v="102177" />
	</node>
	<node id="9659906310" lat="61.273478" lon="10.4186983" version="1" timestamp="2022-04-12T04:53:01Z" changeset="119603148" uid="3497659" user="NKA">
		<tag k="name" v="Klukkerhågån" />
		<tag k="place" v="farm" />
		<tag k="ssr:stedsnr" v="39365" />
	</node>
	<node id="9659906311" lat="61.2582917" lon="10.398964" version="1" timestamp="2022-04-12T04:53:01Z" changeset="119603148" uid="3497659" user="NKA">
		<tag k="name" v="Bortmillom" />
		<tag k="place" v="farm" />
		<tag k="ssr:stedsnr" v="100441" />
	</node>
	<node id="9659906312" lat="61.2702893" lon="10.4399969" version="1" timestamp="2022-04-12T04:53:01Z" changeset="119603148" uid="3497659" user="NKA">
		<tag k="name" v="Vedemsdalen" />
		<tag k="place" v="farm" />
		<tag k="ssr:stedsnr" v="39022" />
	</node>
	<node id="9659906313" lat="61.2603494" lon="10.4108974" version="1" timestamp="2022-04-12T04:53:01Z" changeset="119603148" uid="3497659" user="NKA">
		<tag k="name" v="Strømsjordet" />
		<tag k="place" v="farm" />
		<tag k="ssr:stedsnr" v="39382" />
	</node>
	<node id="9659906314" lat="61.2459554" lon="10.4253346" version="1" timestamp="2022-04-12T04:53:01Z" changeset="119603148" uid="3497659" user="NKA">
		<tag k="name" v="Rybakken" />
		<tag k="place" v="farm" />
		<tag k="ssr:stedsnr" v="8141" />
	</node>
	<node id="9659906315" lat="61.2424359" lon="10.420621" version="1" timestamp="2022-04-12T04:53:01Z" changeset="119603148" uid="3497659" user="NKA">
		<tag k="name" v="Vika" />
		<tag k="place" v="farm" />
		<tag k="ssr:stedsnr" v="68142" />
	</node>
	<node id="9659906316" lat="61.283589" lon="10.4078972" version="1" timestamp="2022-04-12T04:53:01Z" changeset="119603148" uid="3497659" user="NKA">
		<tag k="name" v="Skåe" />
		<tag k="place" v="hamlet" />
		<tag k="ssr:stedsnr" v="918310" />
	</node>
	<node id="9659907517" lat="61.2848473" lon="10.4640361" version="1" timestamp="2022-04-12T04:53:01Z" changeset="119603148" uid="3497659" user="NKA">
		<tag k="historic" v="shieling" />
		<tag k="name" v="Vedemsætra" />
		<tag k="old_name" v="Vedemsætrene" />
		<tag k="place" v="hamlet" />
		<tag k="ssr:stedsnr" v="918312" />
	</node>
	<node id="9659907518" lat="61.2460195" lon="10.4083139" version="1" timestamp="2022-04-12T04:53:01Z" changeset="119603148" uid="3497659" user="NKA">
		<tag k="name" v="Dokksætra" />
		<tag k="place" v="locality" />
		<tag k="ssr:stedsnr" v="891184" />
	</node>
	<node id="9659907519" lat="61.2905889" lon="10.5137917" version="1" timestamp="2022-04-12T04:53:01Z" changeset="119603148" uid="3497659" user="NKA">
		<tag k="historic" v="shieling" />
		<tag k="name" v="Svartåsen" />
		<tag k="place" v="isolated_dwelling" />
		<tag k="ssr:stedsnr" v="858254" />
	</node>
	<node id="9659907520" lat="61.2719481" lon="10.4312715" version="1" timestamp="2022-04-12T04:53:01Z" changeset="119603148" uid="3497659" user="NKA">
		<tag k="name" v="Nordjordet" />
		<tag k="place" v="farm" />
		<tag k="ssr:stedsnr" v="614503" />
	</node>
	<node id="9659907521" lat="61.2783769" lon="10.3989073" version="1" timestamp="2022-04-12T04:53:01Z" changeset="119603148" uid="3497659" user="NKA">
		<tag k="name" v="Austli" />
		<tag k="place" v="farm" />
		<tag k="ssr:stedsnr" v="716596" />
	</node>
	<node id="9659907522" lat="61.278706" lon="10.4179128" version="1" timestamp="2022-04-12T04:53:01Z" changeset="119603148" uid="3497659" user="NKA">
		<tag k="name" v="Hov" />
		<tag k="place" v="farm" />
		<tag k="ssr:stedsnr" v="371472" />
	</node>
	<node id="9659907523" lat="61.2280432" lon="10.4553053" version="1" timestamp="2022-04-12T04:53:01Z" changeset="119603148" uid="3497659" user="NKA">
		<tag k="name" v="Grimsrud" />
		<tag k="place" v="farm" />
		<tag k="ssr:stedsnr" v="190157" />
	</node>
	<node id="9659907524" lat="61.2397167" lon="10.421989" version="1" timestamp="2022-04-12T04:53:01Z" changeset="119603148" uid="3497659" user="NKA">
		<tag k="name" v="Glotten" />
		<tag k="place" v="farm" />
		<tag k="ssr:stedsnr" v="830796" />
	</node>
	<node id="9659907525" lat="61.2332823" lon="10.4455002" version="1" timestamp="2022-04-12T04:53:01Z" changeset="119603148" uid="3497659" user="NKA">
		<tag k="name" v="Myrvoll" />
		<tag k="place" v="farm" />
		<tag k="ssr:stedsnr" v="223150" />
	</node>
	<node id="9659907526" lat="61.2691253" lon="10.5798492" version="1" timestamp="2022-04-12T04:53:01Z" changeset="119603148" uid="3497659" user="NKA">
		<tag k="historic" v="shieling" />
		<tag k="name" v="Lienden" />
		<tag k="place" v="hamlet" />
		<tag k="ssr:stedsnr" v="796490" />
	</node>
	<node id="9659907527" lat="61.4343598" lon="10.6606212" version="1" timestamp="2022-04-12T04:53:01Z" changeset="119603148" uid="3497659" user="NKA">
		<tag k="loc_name" v="Hardland;Halland" />
		<tag k="name" v="Harland" />
		<tag k="place" v="locality" />
		<tag k="ssr:stedsnr" v="987528" />
	</node>
	<node id="9659907528" lat="61.4072111" lon="10.5175306" version="1" timestamp="2022-04-12T04:53:01Z" changeset="119603148" uid="3497659" user="NKA">
		<tag k="historic" v="shieling" />
		<tag k="name" v="Ledemsslæen" />
		<tag k="place" v="isolated_dwelling" />
		<tag k="ssr:stedsnr" v="433325" />
	</node>
	<node id="9659907529" lat="61.4026334" lon="10.6217694" version="1" timestamp="2022-04-12T04:53:01Z" changeset="119603148" uid="3497659" user="NKA">
		<tag k="historic" v="shieling" />
		<tag k="name" v="Tittersætra" />
		<tag k="place" v="isolated_dwelling" />
		<tag k="ssr:stedsnr" v="736319" />
	</node>
	<node id="9659907530" lat="61.3842555" lon="10.4488056" version="1" timestamp="2022-04-12T04:53:01Z" changeset="119603148" uid="3497659" user="NKA">
		<tag k="alt_name" v="Våsdalen" />
		<tag k="historic" v="shieling" />
		<tag k="name" v="Vålsdalen" />
		<tag k="place" v="hamlet" />
		<tag k="ssr:stedsnr" v="251338" />
	</node>
	<node id="9659907531" lat="61.4024584" lon="10.4927277" version="1" timestamp="2022-04-12T04:53:01Z" changeset="119603148" uid="3497659" user="NKA">
		<tag k="name" v="Laukamslæen" />
		<tag k="place" v="locality" />
		<tag k="ssr:stedsnr" v="463993" />
	</node>
	<node id="9659907532" lat="61.4368917" lon="10.670575" version="1" timestamp="2022-04-12T04:53:01Z" changeset="119603148" uid="3497659" user="NKA">
		<tag k="name" v="Gammellægret" />
		<tag k="place" v="locality" />
		<tag k="ssr:stedsnr" v="524158" />
	</node>
	<node id="9659907533" lat="61.3957433" lon="10.4695828" version="1" timestamp="2022-04-12T04:53:01Z" changeset="119603148" uid="3497659" user="NKA">
		<tag k="alt_name" v="Raubergsletta" />
		<tag k="historic" v="shieling" />
		<tag k="name" v="Raudbergsletta" />
		<tag k="place" v="isolated_dwelling" />
		<tag k="ssr:stedsnr" v="69343" />
	</node>
	<node id="9659907534" lat="61.3017667" lon="10.6715611" version="1" timestamp="2022-04-12T04:53:01Z" changeset="119603148" uid="3497659" user="NKA">
		<tag k="alt_name" v="Augesætra" />
		<tag k="historic" v="shieling" />
		<tag k="name" v="Augsætra" />
		<tag k="place" v="hamlet" />
		<tag k="ssr:stedsnr" v="493284" />
	</node>
	<node id="9659907535" lat="61.3939919" lon="10.6667641" version="1" timestamp="2022-04-12T04:53:01Z" changeset="119603148" uid="3497659" user="NKA">
		<tag k="name" v="Skjelbua" />
		<tag k="place" v="isolated_dwelling" />
		<tag k="ssr:stedsnr" v="493334" />
	</node>
	<node id="9659907536" lat="61.2937584" lon="10.7208806" version="1" timestamp="2022-04-12T04:53:01Z" changeset="119603148" uid="3497659" user="NKA">
		<tag k="historic" v="shieling" />
		<tag k="name" v="Gardfestsætra" />
		<tag k="place" v="hamlet" />
		<tag k="ssr:stedsnr" v="433371" />
	</node>
	<node id="9659907537" lat="61.2677" lon="10.6248027" version="1" timestamp="2022-04-12T04:53:01Z" changeset="119603148" uid="3497659" user="NKA">
		<tag k="historic" v="shieling" />
		<tag k="name" v="Sjøsætra" />
		<tag k="place" v="hamlet" />
		<tag k="ssr:stedsnr" v="433476" />
	</node>
	<node id="9659907538" lat="61.3209649" lon="10.2911093" version="1" timestamp="2022-04-12T04:53:01Z" changeset="119603148" uid="3497659" user="NKA">
		<tag k="name" v="Båtstø" />
		<tag k="place" v="farm" />
		<tag k="ssr:stedsnr" v="985897" />
	</node>
	<node id="9659907539" lat="61.2952514" lon="10.2679965" version="1" timestamp="2022-04-12T04:53:01Z" changeset="119603148" uid="3497659" user="NKA">
		<tag k="name" v="Dulven" />
		<tag k="place" v="locality" />
		<tag k="ssr:stedsnr" v="985924" />
	</node>
	<node id="9659907540" lat="61.31377" lon="10.3191659" version="1" timestamp="2022-04-12T04:53:01Z" changeset="119603148" uid="3497659" user="NKA">
		<tag k="name" v="Lykkjom" />
		<tag k="place" v="farm" />
		<tag k="ssr:stedsnr" v="966284" />
	</node>
	<node id="9659907541" lat="61.2740306" lon="10.2589306" version="1" timestamp="2022-04-12T04:53:01Z" changeset="119603148" uid="3497659" user="NKA">
		<tag k="historic" v="shieling" />
		<tag k="name" v="Svartsvesætra" />
		<tag k="place" v="isolated_dwelling" />
		<tag k="ssr:stedsnr" v="965426" />
	</node>
	<node id="9659907542" lat="61.2889471" lon="10.340331" version="1" timestamp="2022-04-12T04:53:01Z" changeset="119603148" uid="3497659" user="NKA">
		<tag k="name" v="Brekke" />
		<tag k="place" v="farm" />
		<tag k="ssr:stedsnr" v="951460" />
	</node>
	<node id="9659907543" lat="61.2769222" lon="10.7202944" version="1" timestamp="2022-04-12T04:53:01Z" changeset="119603148" uid="3497659" user="NKA">
		<tag k="alt_name" v="Pålsmyrbua" />
		<tag k="name" v="Pålsbakkhytta" />
		<tag k="place" v="isolated_dwelling" />
		<tag k="ssr:stedsnr" v="312361" />
	</node>
	<node id="9659907544" lat="61.3000316" lon="10.2667375" version="1" timestamp="2022-04-12T04:53:01Z" changeset="119603148" uid="3497659" user="NKA">
		<tag k="alt_name" v="Offigstad" />
		<tag k="name" v="Ofigstad" />
		<tag k="place" v="farm" />
		<tag k="ssr:stedsnr" v="919764" />
	</node>
	<node id="9659907545" lat="61.3024712" lon="10.2734916" version="1" timestamp="2022-04-12T04:53:01Z" changeset="119603148" uid="3497659" user="NKA">
		<tag k="name" v="Skyberg" />
		<tag k="place" v="farm" />
		<tag k="ssr:stedsnr" v="919767" />
	</node>
	<node id="9659907546" lat="61.3626883" lon="10.2588207" version="1" timestamp="2022-04-12T04:53:01Z" changeset="119603148" uid="3497659" user="NKA">
		<tag k="name" v="Bekken" />
		<tag k="place" v="isolated_dwelling" />
		<tag k="ssr:stedsnr" v="828268" />
	</node>
	<node id="9659907547" lat="61.2791014" lon="10.2816442" version="1" timestamp="2022-04-12T04:53:01Z" changeset="119603148" uid="3497659" user="NKA">
		<tag k="name" v="Sletta" />
		<tag k="place" v="farm" />
		<tag k="ssr:stedsnr" v="918898" />
	</node>
	<node id="9659907548" lat="61.3525195" lon="10.2494583" version="1" timestamp="2022-04-12T04:53:01Z" changeset="119603148" uid="3497659" user="NKA">
		<tag k="name" v="Midtlia" />
		<tag k="place" v="farm" />
		<tag k="ssr:stedsnr" v="828202" />
	</node>
	<node id="9659907549" lat="61.2796889" lon="10.3401805" version="1" timestamp="2022-04-12T04:53:01Z" changeset="119603148" uid="3497659" user="NKA">
		<tag k="name" v="Modokka" />
		<tag k="place" v="locality" />
		<tag k="ssr:stedsnr" v="830446" />
	</node>
	<node id="9659907550" lat="61.3196681" lon="10.3111118" version="1" timestamp="2022-04-12T04:53:01Z" changeset="119603148" uid="3497659" user="NKA">
		<tag k="name" v="Fossli" />
		<tag k="place" v="farm" />
		<tag k="ssr:stedsnr" v="767322" />
	</node>
	<node id="9659907551" lat="61.3198444" lon="10.6705251" version="1" timestamp="2022-04-12T04:53:01Z" changeset="119603148" uid="3497659" user="NKA">
		<tag k="name" v="Hovsmyrbakkbua" />
		<tag k="place" v="locality" />
		<tag k="ssr:stedsnr" v="102186" />
	</node>
	<node id="9659907552" lat="61.2831509" lon="10.2781601" version="1" timestamp="2022-04-12T04:53:01Z" changeset="119603148" uid="3497659" user="NKA">
		<tag k="name" v="Holsteinstad" />
		<tag k="place" v="farm" />
		<tag k="ssr:stedsnr" v="737756" />
	</node>
	<node id="9659907553" lat="61.3511389" lon="10.3323305" version="1" timestamp="2022-04-12T04:53:01Z" changeset="119603148" uid="3497659" user="NKA">
		<tag k="name" v="Glømmebua" />
		<tag k="place" v="locality" />
		<tag k="ssr:stedsnr" v="767876" />
	</node>
	<node id="9659907554" lat="61.2820563" lon="10.2735006" version="1" timestamp="2022-04-12T04:53:01Z" changeset="119603148" uid="3497659" user="NKA">
		<tag k="alt_name" v="Aspelund" />
		<tag k="name" v="Asplund" />
		<tag k="place" v="farm" />
		<tag k="ssr:stedsnr" v="737741" />
	</node>
	<node id="9659907555" lat="61.3308417" lon="10.3283112" version="1" timestamp="2022-04-12T04:53:01Z" changeset="119603148" uid="3497659" user="NKA">
		<tag k="name" v="Hjelmstadstugua" />
		<tag k="place" v="farm" />
		<tag k="ssr:stedsnr" v="767305" />
	</node>
	<node id="9659907556" lat="61.3352804" lon="10.2678386" version="1" timestamp="2022-04-12T04:53:01Z" changeset="119603148" uid="3497659" user="NKA">
		<tag k="name" v="Vike" />
		<tag k="place" v="hamlet" />
		<tag k="ssr:stedsnr" v="735944" />
	</node>
	<node id="9659907557" lat="61.2886596" lon="10.3079382" version="1" timestamp="2022-04-12T04:53:01Z" changeset="119603148" uid="3497659" user="NKA">
		<tag k="name" v="Hågå" />
		<tag k="place" v="farm" />
		<tag k="ssr:stedsnr" v="737752" />
	</node>
	<node id="9659907558" lat="61.335567" lon="10.2688552" version="1" timestamp="2022-04-12T04:53:01Z" changeset="119603148" uid="3497659" user="NKA">
		<tag k="name" v="Nordre Vike" />
		<tag k="place" v="farm" />
		<tag k="ssr:stedsnr" v="704873" />
	</node>
	<node id="9659907559" lat="61.3085414" lon="10.3128362" version="1" timestamp="2022-04-12T04:53:01Z" changeset="119603148" uid="3497659" user="NKA">
		<tag k="alt_name" v="Fonstad" />
		<tag k="name" v="Fonnstad" />
		<tag k="place" v="farm" />
		<tag k="ssr:stedsnr" v="736819" />
	</node>
	<node id="9659907560" lat="61.3210566" lon="10.3350176" version="1" timestamp="2022-04-12T04:53:01Z" changeset="119603148" uid="3497659" user="NKA">
		<tag k="name" v="Øvsteng" />
		<tag k="place" v="farm" />
		<tag k="ssr:stedsnr" v="675955" />
	</node>
	<node id="9659907561" lat="61.2978789" lon="10.2729988" version="1" timestamp="2022-04-12T04:53:01Z" changeset="119603148" uid="3497659" user="NKA">
		<tag k="name" v="Rønningen" />
		<tag k="place" v="farm" />
		<tag k="ssr:stedsnr" v="725556" />
	</node>
	<node id="9659907562" lat="61.3048889" lon="10.3242444" version="1" timestamp="2022-04-12T04:53:01Z" changeset="119603148" uid="3497659" user="NKA">
		<tag k="name" v="Nilsenget" />
		<tag k="place" v="farm" />
		<tag k="ssr:stedsnr" v="615768" />
	</node>
	<node id="9659907563" lat="61.3161217" lon="10.3121315" version="1" timestamp="2022-04-12T04:53:01Z" changeset="119603148" uid="3497659" user="NKA">
		<tag k="name" v="Mo" />
		<tag k="place" v="farm" />
		<tag k="ssr:stedsnr" v="676801" />
	</node>
	<node id="9659907564" lat="61.36845" lon="10.2482251" version="1" timestamp="2022-04-12T04:53:01Z" changeset="119603148" uid="3497659" user="NKA">
		<tag k="alt_name" v="Solhjem" />
		<tag k="name" v="Solheim" />
		<tag k="place" v="farm" />
		<tag k="ssr:stedsnr" v="614986" />
	</node>
	<node id="9659907565" lat="61.3203379" lon="10.2719236" version="1" timestamp="2022-04-12T04:53:01Z" changeset="119603148" uid="3497659" user="NKA">
		<tag k="name" v="Stavslibakken" />
		<tag k="place" v="farm" />
		<tag k="ssr:stedsnr" v="675952" />
	</node>
	<node id="9659907566" lat="61.301249" lon="10.3274799" version="1" timestamp="2022-04-12T04:53:01Z" changeset="119603148" uid="3497659" user="NKA">
		<tag k="name" v="Kråbøl" />
		<tag k="old_name" v="Kårbøl" />
		<tag k="place" v="farm" />
		<tag k="ssr:stedsnr" v="615767" />
	</node>
	<node id="9659907567" lat="61.385966" lon="10.3570157" version="1" timestamp="2022-04-12T04:53:01Z" changeset="119603148" uid="3497659" user="NKA">
		<tag k="alt_name" v="Veslsætra" />
		<tag k="historic" v="shieling" />
		<tag k="name" v="Nørdre Veslesætra" />
		<tag k="place" v="hamlet" />
		<tag k="ssr:stedsnr" v="797310" />
	</node>
	<node id="9659907568" lat="61.3796305" lon="10.3566194" version="1" timestamp="2022-04-12T04:53:01Z" changeset="119603148" uid="3497659" user="NKA">
		<tag k="historic" v="shieling" />
		<tag k="name" v="Bakkestugusætra" />
		<tag k="place" v="isolated_dwelling" />
		<tag k="ssr:stedsnr" v="587329" />
	</node>
	<node id="9659907569" lat="61.3744211" lon="10.2437153" version="1" timestamp="2022-04-12T04:53:01Z" changeset="119603148" uid="3497659" user="NKA">
		<tag k="name" v="Pålsrud" />
		<tag k="place" v="hamlet" />
		<tag k="ssr:stedsnr" v="553997" />
	</node>
	<node id="9659907570" lat="61.2744985" lon="10.281981" version="1" timestamp="2022-04-12T04:53:01Z" changeset="119603148" uid="3497659" user="NKA">
		<tag k="name" v="Skuggen" />
		<tag k="place" v="isolated_dwelling" />
		<tag k="ssr:stedsnr" v="600348" />
	</node>
	<node id="9659907571" lat="61.3022167" lon="10.2321305" version="1" timestamp="2022-04-12T04:53:01Z" changeset="119603148" uid="3497659" user="NKA">
		<tag k="alt_name" v="Galtrudhaugen" />
		<tag k="name" v="Haug" />
		<tag k="place" v="farm" />
		<tag k="ssr:stedsnr" v="190809" />
	</node>
	<node id="9659907572" lat="61.2940722" lon="10.3053306" version="1" timestamp="2022-04-12T04:53:01Z" changeset="119603148" uid="3497659" user="NKA">
		<tag k="name" v="Stubsvea" />
		<tag k="place" v="locality" />
		<tag k="ssr:stedsnr" v="587535" />
	</node>
	<node id="9659907573" lat="61.2897581" lon="10.3032933" version="1" timestamp="2022-04-12T04:53:01Z" changeset="119603148" uid="3497659" user="NKA">
		<tag k="name" v="Hågålykkja" />
		<tag k="place" v="farm" />
		<tag k="ssr:stedsnr" v="587532" />
	</node>
	<node id="9659907574" lat="61.3316565" lon="10.3035055" version="1" timestamp="2022-04-12T04:53:01Z" changeset="119603148" uid="3497659" user="NKA">
		<tag k="name" v="Nørdre Moen" />
		<tag k="place" v="farm" />
		<tag k="ssr:stedsnr" v="585273" />
	</node>
	<node id="9659907575" lat="61.2577472" lon="10.4490722" version="1" timestamp="2022-04-12T04:53:01Z" changeset="119603148" uid="3497659" user="NKA">
		<tag k="name" v="Nerli" />
		<tag k="place" v="farm" />
		<tag k="ssr:stedsnr" v="614479" />
	</node>
	<node id="9659907576" lat="61.2584567" lon="10.4553322" version="1" timestamp="2022-04-12T04:53:01Z" changeset="119603148" uid="3497659" user="NKA">
		<tag k="name" v="Li" />
		<tag k="place" v="hamlet" />
		<tag k="ssr:stedsnr" v="614482" />
	</node>
	<node id="9659907577" lat="61.2009115" lon="10.4215501" version="1" timestamp="2022-04-12T04:53:01Z" changeset="119603148" uid="3497659" user="NKA">
		<tag k="name" v="Andersstugua" />
		<tag k="place" v="farm" />
		<tag k="ssr:stedsnr" v="526584" />
	</node>
	<node id="9659907578" lat="61.3106325" lon="10.3219014" version="1" timestamp="2022-04-12T04:53:01Z" changeset="119603148" uid="3497659" user="NKA">
		<tag k="name" v="Sletten" />
		<tag k="place" v="farm" />
		<tag k="ssr:stedsnr" v="524331" />
	</node>
	<node id="9659907579" lat="61.2700329" lon="10.3809656" version="1" timestamp="2022-04-12T04:53:01Z" changeset="119603148" uid="3497659" user="NKA">
		<tag k="name" v="Kolbu" />
		<tag k="place" v="farm" />
		<tag k="ssr:stedsnr" v="493481" />
	</node>
	<node id="9659907580" lat="61.3439928" lon="10.3013752" version="1" timestamp="2022-04-12T04:53:01Z" changeset="119603148" uid="3497659" user="NKA">
		<tag k="name" v="Brubakken" />
		<tag k="place" v="farm" />
		<tag k="ssr:stedsnr" v="524809" />
	</node>
	<node id="9659907581" lat="61.2731565" lon="10.4155482" version="1" timestamp="2022-04-12T04:53:01Z" changeset="119603148" uid="3497659" user="NKA">
		<tag k="name" v="Solheim" />
		<tag k="place" v="farm" />
		<tag k="ssr:stedsnr" v="493490" />
	</node>
	<node id="9659907582" lat="61.2781194" lon="10.2701604" version="1" timestamp="2022-04-12T04:53:01Z" changeset="119603148" uid="3497659" user="NKA">
		<tag k="name" v="Brennom" />
		<tag k="place" v="farm" />
		<tag k="ssr:stedsnr" v="494864" />
	</node>
	<node id="9659907583" lat="61.329" lon="10.3646527" version="1" timestamp="2022-04-12T04:53:01Z" changeset="119603148" uid="3497659" user="NKA">
		<tag k="alt_name" v="Graanstulen" />
		<tag k="historic" v="shieling" />
		<tag k="name" v="Fossumssætra" />
		<tag k="place" v="isolated_dwelling" />
		<tag k="ssr:stedsnr" v="494252" />
	</node>
	<node id="9659907584" lat="61.3673965" lon="10.2930911" version="1" timestamp="2022-04-12T04:53:01Z" changeset="119603148" uid="3497659" user="NKA">
		<tag k="alt_name" v="Mågåli, midtre;Mågåli;Midt-Mågåli" />
		<tag k="name" v="Midtre Mågåli" />
		<tag k="place" v="farm" />
		<tag k="ssr:stedsnr" v="493996" />
	</node>
	<node id="9659907585" lat="61.2385334" lon="10.4714222" version="1" timestamp="2022-04-12T04:53:01Z" changeset="119603148" uid="3497659" user="NKA">
		<tag k="name" v="Oppheim" />
		<tag k="place" v="farm" />
		<tag k="ssr:stedsnr" v="432135" />
	</node>
	<node id="9659907586" lat="61.3203628" lon="10.3280901" version="1" timestamp="2022-04-12T04:53:01Z" changeset="119603148" uid="3497659" user="NKA">
		<tag k="name" v="Simengard" />
		<tag k="place" v="farm" />
		<tag k="ssr:stedsnr" v="493951" />
	</node>
	<node id="9659907587" lat="61.3461506" lon="10.2979008" version="1" timestamp="2022-04-12T04:53:01Z" changeset="119603148" uid="3497659" user="NKA">
		<tag k="alt_name" v="Børke, nordre;Nord-Børkje" />
		<tag k="name" v="Nordre Børke" />
		<tag k="place" v="farm" />
		<tag k="ssr:stedsnr" v="493962" />
	</node>
	<node id="9659907588" lat="61.3379496" lon="10.4196525" version="1" timestamp="2022-04-12T04:53:01Z" changeset="119603148" uid="3497659" user="NKA">
		<tag k="historic" v="shieling" />
		<tag k="name" v="Sydda" />
		<tag k="place" v="hamlet" />
		<tag k="ssr:stedsnr" v="433281" />
	</node>
	<node id="9659907589" lat="61.3189962" lon="10.2981243" version="1" timestamp="2022-04-12T04:53:01Z" changeset="119603148" uid="3497659" user="NKA">
		<tag k="name" v="Stav" />
		<tag k="place" v="farm" />
		<tag k="ssr:stedsnr" v="493947" />
	</node>
	<node id="9659907590" lat="61.3109128" lon="10.2723855" version="1" timestamp="2022-04-12T04:53:01Z" changeset="119603148" uid="3497659" user="NKA">
		<tag k="name" v="Nysvea" />
		<tag k="place" v="farm" />
		<tag k="ssr:stedsnr" v="493832" />
	</node>
	<node id="9659907591" lat="61.3253917" lon="10.2738445" version="1" timestamp="2022-04-12T04:53:01Z" changeset="119603148" uid="3497659" user="NKA">
		<tag k="name" v="Stalenget" />
		<tag k="place" v="locality" />
		<tag k="ssr:stedsnr" v="466939" />
	</node>
	<node id="9659907592" lat="61.3513148" lon="10.2968488" version="1" timestamp="2022-04-12T04:53:01Z" changeset="119603148" uid="3497659" user="NKA">
		<tag k="name" v="Laukam" />
		<tag k="place" v="farm" />
		<tag k="ssr:stedsnr" v="251975" />
	</node>
	<node id="9659907593" lat="61.3161168" lon="10.3272554" version="1" timestamp="2022-04-12T04:53:01Z" changeset="119603148" uid="3497659" user="NKA">
		<tag k="name" v="Solstad" />
		<tag k="place" v="farm" />
		<tag k="ssr:stedsnr" v="464384" />
	</node>
	<node id="9659907594" lat="61.3141694" lon="10.3464139" version="1" timestamp="2022-04-12T04:53:01Z" changeset="119603148" uid="3497659" user="NKA">
		<tag k="name" v="Blekahemsætra" />
		<tag k="place" v="locality" />
		<tag k="ssr:stedsnr" v="949350" />
	</node>
	<node id="9659907595" lat="61.2716179" lon="10.3386141" version="1" timestamp="2022-04-12T04:53:01Z" changeset="119603148" uid="3497659" user="NKA">
		<tag k="alt_name" v="Lønnberg" />
		<tag k="name" v="Lønberg" />
		<tag k="place" v="farm" />
		<tag k="ssr:stedsnr" v="433860" />
	</node>
	<node id="9659907596" lat="61.3569947" lon="10.3087128" version="1" timestamp="2022-04-12T04:53:01Z" changeset="119603148" uid="3497659" user="NKA">
		<tag k="name" v="Glomstad" />
		<tag k="place" v="farm" />
		<tag k="ssr:stedsnr" v="797963" />
	</node>
	<node id="9659907597" lat="61.30651" lon="10.3090586" version="1" timestamp="2022-04-12T04:53:01Z" changeset="119603148" uid="3497659" user="NKA">
		<tag k="alt_name" v="Solberg" />
		<tag k="name" v="Solbjørg" />
		<tag k="place" v="farm" />
		<tag k="ssr:stedsnr" v="433803" />
	</node>
	<node id="9659907598" lat="61.2896445" lon="10.2637166" version="1" timestamp="2022-04-12T04:53:01Z" changeset="119603148" uid="3497659" user="NKA">
		<tag k="name" v="Midtle" />
		<tag k="place" v="locality" />
		<tag k="ssr:stedsnr" v="449389" />
	</node>
	<node id="9659907599" lat="61.286604" lon="10.3369974" version="1" timestamp="2022-04-12T04:53:01Z" changeset="119603148" uid="3497659" user="NKA">
		<tag k="name" v="Skard" />
		<tag k="place" v="farm" />
		<tag k="ssr:stedsnr" v="312733" />
	</node>
	<node id="9659907600" lat="61.2524722" lon="10.4487" version="1" timestamp="2022-04-12T04:53:01Z" changeset="119603148" uid="3497659" user="NKA">
		<tag k="name" v="Bakken" />
		<tag k="place" v="farm" />
		<tag k="ssr:stedsnr" v="372491" />
	</node>
	<node id="9659907601" lat="61.320918" lon="10.3184749" version="1" timestamp="2022-04-12T04:53:01Z" changeset="119603148" uid="3497659" user="NKA">
		<tag k="name" v="Fossum" />
		<tag k="place" v="farm" />
		<tag k="ssr:stedsnr" v="311962" />
	</node>
	<node id="9659907602" lat="61.3642944" lon="10.3024589" version="1" timestamp="2022-04-12T04:53:01Z" changeset="119603148" uid="3497659" user="NKA">
		<tag k="name" v="Vedem" />
		<tag k="place" v="hamlet" />
		<tag k="ssr:stedsnr" v="614990" />
	</node>
	<node id="9659907603" lat="61.3663198" lon="10.2515703" version="1" timestamp="2022-04-12T04:53:01Z" changeset="119603148" uid="3497659" user="NKA">
		<tag k="name" v="Romundgard" />
		<tag k="place" v="farm" />
		<tag k="ssr:stedsnr" v="311994" />
	</node>
	<node id="9659907604" lat="61.3585611" lon="10.3473473" version="1" timestamp="2022-04-12T04:53:01Z" changeset="119603148" uid="3497659" user="NKA">
		<tag k="name" v="Glømmebrenna" />
		<tag k="place" v="locality" />
		<tag k="ssr:stedsnr" v="282857" />
	</node>
	<node id="9659907605" lat="61.31219" lon="10.3112042" version="1" timestamp="2022-04-12T04:53:01Z" changeset="119603148" uid="3497659" user="NKA">
		<tag k="alt_name" v="Melum" />
		<tag k="name" v="Mælum" />
		<tag k="place" v="farm" />
		<tag k="ssr:stedsnr" v="311840" />
	</node>
	<node id="9659907606" lat="61.3063583" lon="10.3206278" version="1" timestamp="2022-04-12T04:53:01Z" changeset="119603148" uid="3497659" user="NKA">
		<tag k="name" v="Monslykkja" />
		<tag k="place" v="farm" />
		<tag k="ssr:stedsnr" v="282352" />
	</node>
	<node id="9659907607" lat="61.3028561" lon="10.3044649" version="1" timestamp="2022-04-12T04:53:01Z" changeset="119603148" uid="3497659" user="NKA">
		<tag k="name" v="Holmen" />
		<tag k="place" v="farm" />
		<tag k="ssr:stedsnr" v="251820" />
	</node>
	<node id="9659907608" lat="61.3294639" lon="10.6491556" version="1" timestamp="2022-04-12T04:53:01Z" changeset="119603148" uid="3497659" user="NKA">
		<tag k="alt_name" v="Åstdalsætra" />
		<tag k="historic" v="shieling" />
		<tag k="name" v="Åstdalssætra" />
		<tag k="place" v="isolated_dwelling" />
		<tag k="ssr:stedsnr" v="312286" />
	</node>
	<node id="9659907609" lat="61.2871507" lon="10.301936" version="1" timestamp="2022-04-12T04:53:01Z" changeset="119603148" uid="3497659" user="NKA">
		<tag k="alt_name" v="Mellemberg" />
		<tag k="name" v="Mellomberg" />
		<tag k="place" v="farm" />
		<tag k="ssr:stedsnr" v="251791" />
	</node>
	<node id="9659907610" lat="61.2848364" lon="10.273726" version="1" timestamp="2022-04-12T04:53:01Z" changeset="119603148" uid="3497659" user="NKA">
		<tag k="alt_name" v="Lindrud" />
		<tag k="name" v="Linderud" />
		<tag k="place" v="farm" />
		<tag k="ssr:stedsnr" v="251778" />
	</node>
	<node id="9659907611" lat="61.3033079" lon="10.2620199" version="1" timestamp="2022-04-12T04:53:01Z" changeset="119603148" uid="3497659" user="NKA">
		<tag k="name" v="Haugen" />
		<tag k="place" v="farm" />
		<tag k="ssr:stedsnr" v="240640" />
	</node>
	<node id="9659907612" lat="61.3031241" lon="10.2602913" version="1" timestamp="2022-04-12T04:53:01Z" changeset="119603148" uid="3497659" user="NKA">
		<tag k="name" v="Øvre Berg" />
		<tag k="place" v="farm" />
		<tag k="ssr:stedsnr" v="240557" />
	</node>
	<node id="9659907613" lat="61.3455223" lon="10.2663416" version="1" timestamp="2022-04-12T04:53:01Z" changeset="119603148" uid="3497659" user="NKA">
		<tag k="name" v="Øvre Øygarden" />
		<tag k="place" v="farm" />
		<tag k="ssr:stedsnr" v="180301" />
	</node>
	<node id="9659907614" lat="61.3171894" lon="10.3164138" version="1" timestamp="2022-04-12T04:53:01Z" changeset="119603148" uid="3497659" user="NKA">
		<tag k="name" v="Gråv" />
		<tag k="place" v="farm" />
		<tag k="ssr:stedsnr" v="100347" />
	</node>
	<node id="9659907615" lat="61.3499942" lon="10.2632403" version="1" timestamp="2022-04-12T04:53:01Z" changeset="119603148" uid="3497659" user="NKA">
		<tag k="name" v="Botterud" />
		<tag k="place" v="hamlet" />
		<tag k="ssr:stedsnr" v="129976" />
	</node>
	<node id="9659907616" lat="61.3517756" lon="10.3055082" version="1" timestamp="2022-04-12T04:53:01Z" changeset="119603148" uid="3497659" user="NKA">
		<tag k="name" v="Systugun Johnsgard" />
		<tag k="place" v="farm" />
		<tag k="ssr:stedsnr" v="100801" />
	</node>
	<node id="9659907617" lat="61.3320336" lon="10.314058" version="1" timestamp="2022-04-12T04:53:01Z" changeset="119603148" uid="3497659" user="NKA">
		<tag k="name" v="Steinsåker" />
		<tag k="place" v="farm" />
		<tag k="ssr:stedsnr" v="39260" />
	</node>
	<node id="9659907618" lat="61.3323138" lon="10.3266139" version="1" timestamp="2022-04-12T04:53:01Z" changeset="119603148" uid="3497659" user="NKA">
		<tag k="name" v="Tandhågån" />
		<tag k="place" v="farm" />
		<tag k="ssr:stedsnr" v="100287" />
	</node>
	<node id="9659907619" lat="61.3247216" lon="10.3319007" version="1" timestamp="2022-04-12T04:53:01Z" changeset="119603148" uid="3497659" user="NKA">
		<tag k="alt_name" v="Børkerud" />
		<tag k="name" v="Borkerud" />
		<tag k="place" v="farm" />
		<tag k="ssr:stedsnr" v="8945" />
	</node>
	<node id="9659907620" lat="61.3671965" lon="10.2920685" version="1" timestamp="2022-04-12T04:53:01Z" changeset="119603148" uid="3497659" user="NKA">
		<tag k="name" v="Mågåli" />
		<tag k="place" v="hamlet" />
		<tag k="ssr:stedsnr" v="985899" />
	</node>
	<node id="9659907621" lat="61.3202433" lon="10.3222093" version="1" timestamp="2022-04-12T04:53:01Z" changeset="119603148" uid="3497659" user="NKA">
		<tag k="name" v="Brekken" />
		<tag k="place" v="farm" />
		<tag k="ssr:stedsnr" v="100314" />
	</node>
	<node id="9659907622" lat="61.3530555" lon="10.2892686" version="1" timestamp="2022-04-12T04:53:01Z" changeset="119603148" uid="3497659" user="NKA">
		<tag k="name" v="Flåtåmo" />
		<tag k="place" v="hamlet" />
		<tag k="ssr:stedsnr" v="69968" />
	</node>
	<node id="9659907623" lat="61.3399167" lon="10.2949419" version="1" timestamp="2022-04-12T04:53:01Z" changeset="119603148" uid="3497659" user="NKA">
		<tag k="name" v="Kleiva" />
		<tag k="place" v="farm" />
		<tag k="ssr:stedsnr" v="39181" />
	</node>
	<node id="9659907624" lat="61.3234538" lon="10.3086545" version="1" timestamp="2022-04-12T04:53:01Z" changeset="119603148" uid="3497659" user="NKA">
		<tag k="name" v="Tutrud" />
		<tag k="place" v="farm" />
		<tag k="ssr:stedsnr" v="69948" />
	</node>
	<node id="9659907625" lat="61.3704333" lon="10.3084361" version="1" timestamp="2022-04-12T04:53:01Z" changeset="119603148" uid="3497659" user="NKA">
		<tag k="name" v="Bakkesvea" />
		<tag k="place" v="farm" />
		<tag k="ssr:stedsnr" v="857976" />
	</node>
	<node id="9659907626" lat="61.2869565" lon="10.3592981" version="1" timestamp="2022-04-12T04:53:01Z" changeset="119603148" uid="3497659" user="NKA">
		<tag k="name" v="Hasli" />
		<tag k="place" v="farm" />
		<tag k="ssr:stedsnr" v="69255" />
	</node>
	<node id="9659907627" lat="61.3243722" lon="10.3264059" version="1" timestamp="2022-04-12T04:53:01Z" changeset="119603148" uid="3497659" user="NKA">
		<tag k="name" v="Åa" />
		<tag k="place" v="farm" />
		<tag k="ssr:stedsnr" v="69951" />
	</node>
	<node id="9659907628" lat="61.36465" lon="10.2932306" version="1" timestamp="2022-04-12T04:53:01Z" changeset="119603148" uid="3497659" user="NKA">
		<tag k="alt_name" v="Mågåli, søre;Sørli" />
		<tag k="name" v="Søre Mågåli" />
		<tag k="place" v="farm" />
		<tag k="ssr:stedsnr" v="68989" />
	</node>
	<node id="9659907629" lat="61.288313" lon="10.3506322" version="1" timestamp="2022-04-12T04:53:01Z" changeset="119603148" uid="3497659" user="NKA">
		<tag k="name" v="Kvam" />
		<tag k="place" v="hamlet" />
		<tag k="ssr:stedsnr" v="69256" />
	</node>
	<node id="9659907630" lat="61.3317176" lon="10.2867537" version="1" timestamp="2022-04-12T04:53:01Z" changeset="119603148" uid="3497659" user="NKA">
		<tag k="alt_name" v="Hestneset" />
		<tag k="name" v="Hesteneset" />
		<tag k="place" v="farm" />
		<tag k="ssr:stedsnr" v="68939" />
	</node>
	<node id="9659907631" lat="61.372994" lon="10.297929" version="1" timestamp="2022-04-12T04:53:01Z" changeset="119603148" uid="3497659" user="NKA">
		<tag k="name" v="Nordjordet" />
		<tag k="place" v="farm" />
		<tag k="ssr:stedsnr" v="69000" />
	</node>
	<node id="9659907632" lat="61.2795288" lon="10.2805876" version="1" timestamp="2022-04-12T04:53:01Z" changeset="119603148" uid="3497659" user="NKA">
		<tag k="name" v="Svea" />
		<tag k="place" v="farm" />
		<tag k="ssr:stedsnr" v="951406" />
	</node>
	<node id="9659907633" lat="61.366" lon="10.3108528" version="1" timestamp="2022-04-12T04:53:01Z" changeset="119603148" uid="3497659" user="NKA">
		<tag k="name" v="Brenna" />
		<tag k="place" v="farm" />
		<tag k="ssr:stedsnr" v="951307" />
	</node>
	<node id="9659907634" lat="61.3582197" lon="10.294942" version="1" timestamp="2022-04-12T04:53:01Z" changeset="119603148" uid="3497659" user="NKA">
		<tag k="name" v="Engejordet" />
		<tag k="place" v="farm" />
		<tag k="ssr:stedsnr" v="8972" />
	</node>
	<node id="9659907635" lat="61.2714973" lon="10.3408573" version="1" timestamp="2022-04-12T04:53:01Z" changeset="119603148" uid="3497659" user="NKA">
		<tag k="name" v="Gurisvea" />
		<tag k="place" v="farm" />
		<tag k="ssr:stedsnr" v="904010" />
	</node>
	<node id="9659907636" lat="61.2788275" lon="10.2748968" version="1" timestamp="2022-04-12T04:53:01Z" changeset="119603148" uid="3497659" user="NKA">
		<tag k="name" v="Bakken" />
		<tag k="place" v="farm" />
		<tag k="ssr:stedsnr" v="891422" />
	</node>
	<node id="9659907637" lat="61.2626153" lon="10.3177489" version="1" timestamp="2022-04-12T04:53:01Z" changeset="119603148" uid="3497659" user="NKA">
		<tag k="historic" v="shieling" />
		<tag k="name" v="Smedpersætra" />
		<tag k="place" v="hamlet" />
		<tag k="ssr:stedsnr" v="858854" />
	</node>
	<node id="9659907638" lat="61.2876805" lon="10.3337084" version="1" timestamp="2022-04-12T04:53:01Z" changeset="119603148" uid="3497659" user="NKA">
		<tag k="name" v="Klevenberg" />
		<tag k="place" v="farm" />
		<tag k="ssr:stedsnr" v="891521" />
	</node>
	<node id="9659907639" lat="61.3665583" lon="10.4681723" version="1" timestamp="2022-04-12T04:53:01Z" changeset="119603148" uid="3497659" user="NKA">
		<tag k="historic" v="shieling" />
		<tag k="name" v="Bollstulen" />
		<tag k="old_name" v="Vollstulen" />
		<tag k="place" v="isolated_dwelling" />
		<tag k="ssr:stedsnr" v="433305" />
	</node>
	<node id="9659907640" lat="61.3184639" lon="10.2743473" version="1" timestamp="2022-04-12T04:53:01Z" changeset="119603148" uid="3497659" user="NKA">
		<tag k="name" v="Heggeroa" />
		<tag k="place" v="locality" />
		<tag k="ssr:stedsnr" v="891944" />
	</node>
	<node id="9659907641" lat="61.3642417" lon="10.2881445" version="1" timestamp="2022-04-12T04:53:01Z" changeset="119603148" uid="3497659" user="NKA">
		<tag k="name" v="Nerli" />
		<tag k="place" v="farm" />
		<tag k="ssr:stedsnr" v="889291" />
	</node>
	<node id="9659907642" lat="61.322923" lon="10.3288187" version="1" timestamp="2022-04-12T04:53:01Z" changeset="119603148" uid="3497659" user="NKA">
		<tag k="name" v="Prestgardshaugen" />
		<tag k="place" v="farm" />
		<tag k="ssr:stedsnr" v="707334" />
	</node>
	<node id="9659907643" lat="61.3570921" lon="10.2892747" version="1" timestamp="2022-04-12T04:53:01Z" changeset="119603148" uid="3497659" user="NKA">
		<tag k="name" v="Grønlund" />
		<tag k="place" v="farm" />
		<tag k="ssr:stedsnr" v="889232" />
	</node>
	<node id="9659907644" lat="61.3017139" lon="10.23325" version="1" timestamp="2022-04-12T04:53:01Z" changeset="119603148" uid="3497659" user="NKA">
		<tag k="name" v="Galtrud" />
		<tag k="place" v="locality" />
		<tag k="ssr:stedsnr" v="543875" />
	</node>
	<node id="9659907645" lat="61.3335861" lon="10.2539555" version="1" timestamp="2022-04-12T04:53:01Z" changeset="119603148" uid="3497659" user="NKA">
		<tag k="historic" v="shieling" />
		<tag k="name" v="Viksætra" />
		<tag k="place" v="isolated_dwelling" />
		<tag k="ssr:stedsnr" v="647898" />
	</node>
	<node id="9659907646" lat="61.3143857" lon="10.3287608" version="1" timestamp="2022-04-12T04:53:01Z" changeset="119603148" uid="3497659" user="NKA">
		<tag k="name" v="Øverjordet" />
		<tag k="place" v="farm" />
		<tag k="ssr:stedsnr" v="282340" />
	</node>
	<node id="9659907647" lat="61.3701685" lon="10.3021306" version="1" timestamp="2022-04-12T04:53:01Z" changeset="119603148" uid="3497659" user="NKA">
		<tag k="alt_name" v="Ljøsbakken" />
		<tag k="name" v="Lysbakken" />
		<tag k="place" v="farm" />
		<tag k="ssr:stedsnr" v="190968" />
	</node>
	<node id="9659907648" lat="61.3429107" lon="10.2955447" version="1" timestamp="2022-04-12T04:53:01Z" changeset="119603148" uid="3497659" user="NKA">
		<tag k="alt_name" v="Børkjestugua" />
		<tag k="name" v="Børkestugua" />
		<tag k="place" v="farm" />
		<tag k="ssr:stedsnr" v="190954" />
	</node>
	<node id="9659907649" lat="61.4036417" lon="10.6065361" version="1" timestamp="2022-04-12T04:53:01Z" changeset="119603148" uid="3497659" user="NKA">
		<tag k="alt_name" v="Tautern" />
		<tag k="historic" v="shieling" />
		<tag k="name" v="Tauteren" />
		<tag k="place" v="isolated_dwelling" />
		<tag k="ssr:stedsnr" v="190348" />
	</node>
	<node id="9659907650" lat="61.2668225" lon="10.3356401" version="1" timestamp="2022-04-12T04:53:01Z" changeset="119603148" uid="3497659" user="NKA">
		<tag k="name" v="Rognstad" />
		<tag k="place" v="farm" />
		<tag k="ssr:stedsnr" v="190857" />
	</node>
	<node id="9659907651" lat="61.3718084" lon="10.5782001" version="1" timestamp="2022-04-12T04:53:01Z" changeset="119603148" uid="3497659" user="NKA">
		<tag k="historic" v="shieling" />
		<tag k="name" v="Djupslia" />
		<tag k="place" v="hamlet" />
		<tag k="ssr:stedsnr" v="190317" />
	</node>
	<node id="9659907652" lat="61.3716065" lon="10.3020927" version="1" timestamp="2022-04-12T04:53:01Z" changeset="119603148" uid="3497659" user="NKA">
		<tag k="name" v="Bakkestugua" />
		<tag k="place" v="farm" />
		<tag k="ssr:stedsnr" v="190999" />
	</node>
	<node id="9659907653" lat="61.2999667" lon="10.3534972" version="1" timestamp="2022-04-12T04:53:01Z" changeset="119603148" uid="3497659" user="NKA">
		<tag k="historic" v="shieling" />
		<tag k="name" v="Kvamsætra" />
		<tag k="place" v="isolated_dwelling" />
		<tag k="ssr:stedsnr" v="221309" />
	</node>
	<node id="9659907654" lat="61.3179793" lon="10.3042158" version="1" timestamp="2022-04-12T04:53:01Z" changeset="119603148" uid="3497659" user="NKA">
		<tag k="name" v="Stavshaugen" />
		<tag k="place" v="farm" />
		<tag k="ssr:stedsnr" v="403292" />
	</node>
	<node id="9659907655" lat="61.3243738" lon="10.3202125" version="1" timestamp="2022-04-12T04:53:01Z" changeset="119603148" uid="3497659" user="NKA">
		<tag k="name" v="Frydenlund" />
		<tag k="place" v="farm" />
		<tag k="ssr:stedsnr" v="403314" />
	</node>
	<node id="9659907656" lat="61.3648305" lon="10.3122055" version="1" timestamp="2022-04-12T04:53:01Z" changeset="119603148" uid="3497659" user="NKA">
		<tag k="name" v="Skogli" />
		<tag k="place" v="farm" />
		<tag k="ssr:stedsnr" v="190969" />
	</node>
	<node id="9659907657" lat="61.3375833" lon="10.3189065" version="1" timestamp="2022-04-12T04:53:01Z" changeset="119603148" uid="3497659" user="NKA">
		<tag k="name" v="Krukhaugen" />
		<tag k="place" v="farm" />
		<tag k="ssr:stedsnr" v="403294" />
	</node>
	<node id="9659907658" lat="61.3004314" lon="10.2444442" version="1" timestamp="2022-04-12T04:53:01Z" changeset="119603148" uid="3497659" user="NKA">
		<tag k="name" v="Nordjordet" />
		<tag k="place" v="farm" />
		<tag k="ssr:stedsnr" v="907578" />
	</node>
	<node id="9659907659" lat="61.3325661" lon="10.3208604" version="1" timestamp="2022-04-12T04:53:01Z" changeset="119603148" uid="3497659" user="NKA">
		<tag k="name" v="Øverbu" />
		<tag k="place" v="farm" />
		<tag k="ssr:stedsnr" v="403289" />
	</node>
	<node id="9659907660" lat="61.2845569" lon="10.2913436" version="1" timestamp="2022-04-12T04:53:01Z" changeset="119603148" uid="3497659" user="NKA">
		<tag k="name" v="Rogndalsvea" />
		<tag k="place" v="farm" />
		<tag k="ssr:stedsnr" v="465384" />
	</node>
	<node id="9659907661" lat="61.3329474" lon="10.4149469" version="1" timestamp="2022-04-12T04:53:01Z" changeset="119603148" uid="3497659" user="NKA">
		<tag k="historic" v="shieling" />
		<tag k="name" v="Holmsætra" />
		<tag k="place" v="hamlet" />
		<tag k="ssr:stedsnr" v="8326" />
	</node>
	<node id="9659907662" lat="61.2831065" lon="10.2608085" version="1" timestamp="2022-04-12T04:53:01Z" changeset="119603148" uid="3497659" user="NKA">
		<tag k="name" v="Hågåbakken" />
		<tag k="place" v="farm" />
		<tag k="ssr:stedsnr" v="372766" />
	</node>
	<node id="9659907663" lat="61.4026678" lon="10.5204719" version="1" timestamp="2022-04-12T04:53:01Z" changeset="119603148" uid="3497659" user="NKA">
		<tag k="alt_name" v="Flåtåmo-slæen" />
		<tag k="historic" v="shieling" />
		<tag k="name" v="Flåtåmoslæen" />
		<tag k="place" v="isolated_dwelling" />
		<tag k="ssr:stedsnr" v="8338" />
	</node>
	<node id="9659907664" lat="61.4023401" lon="10.5527275" version="1" timestamp="2022-04-12T04:53:01Z" changeset="119603148" uid="3497659" user="NKA">
		<tag k="name" v="Uksbåsen" />
		<tag k="place" v="farm" />
		<tag k="ssr:stedsnr" v="493329" />
	</node>
	<node id="9659907665" lat="61.3560851" lon="10.2685093" version="1" timestamp="2022-04-12T04:53:01Z" changeset="119603148" uid="3497659" user="NKA">
		<tag k="name" v="Bottheim" />
		<tag k="place" v="farm" />
		<tag k="ssr:stedsnr" v="433982" />
	</node>
	<node id="9659907666" lat="61.2178755" lon="10.4599607" version="1" timestamp="2022-04-12T04:53:01Z" changeset="119603148" uid="3497659" user="NKA">
		<tag k="name" v="Skalmstad" />
		<tag k="place" v="farm" />
		<tag k="ssr:stedsnr" v="736177" />
	</node>
	<node id="9659907667" lat="61.3332907" lon="10.2910473" version="1" timestamp="2022-04-12T04:53:01Z" changeset="119603148" uid="3497659" user="NKA">
		<tag k="name" v="Haugland" />
		<tag k="place" v="farm" />
		<tag k="ssr:stedsnr" v="102935" />
	</node>
	<node id="9659907668" lat="61.2270833" lon="10.4693055" version="1" timestamp="2022-04-12T04:53:01Z" changeset="119603148" uid="3497659" user="NKA">
		<tag k="name" v="Buenget" />
		<tag k="place" v="farm" />
		<tag k="ssr:stedsnr" v="250162" />
	</node>
	<node id="9659907669" lat="61.3042408" lon="10.2700831" version="1" timestamp="2022-04-12T04:53:01Z" changeset="119603148" uid="3497659" user="NKA">
		<tag k="name" v="Skybergsrønningen" />
		<tag k="place" v="isolated_dwelling" />
		<tag k="ssr:stedsnr" v="240639" />
	</node>
	<node id="9659907670" lat="61.3645833" lon="10.2575528" version="1" timestamp="2022-04-12T04:53:01Z" changeset="119603148" uid="3497659" user="NKA">
		<tag k="alt_name" v="Lognset" />
		<tag k="name" v="Langset" />
		<tag k="place" v="farm" />
		<tag k="ssr:stedsnr" v="918994" />
	</node>
	<node id="9659907671" lat="61.3075049" lon="10.2476693" version="1" timestamp="2022-04-12T04:53:01Z" changeset="119603148" uid="3497659" user="NKA">
		<tag k="name" v="Elstadlykkja" />
		<tag k="place" v="farm" />
		<tag k="ssr:stedsnr" v="118575" />
	</node>
	<node id="9659907672" lat="61.3696472" lon="10.2833694" version="1" timestamp="2022-04-12T04:53:01Z" changeset="119603148" uid="3497659" user="NKA">
		<tag k="name" v="Brudal" />
		<tag k="place" v="farm" />
		<tag k="ssr:stedsnr" v="797991" />
	</node>
	<node id="9659907673" lat="61.4004639" lon="10.6409667" version="1" timestamp="2022-04-12T04:53:01Z" changeset="119603148" uid="3497659" user="NKA">
		<tag k="historic" v="shieling" />
		<tag k="name" v="Jogrimslia" />
		<tag k="place" v="isolated_dwelling" />
		<tag k="ssr:stedsnr" v="190327" />
	</node>
	<node id="9659907674" lat="61.2864401" lon="10.2555636" version="1" timestamp="2022-04-12T04:53:01Z" changeset="119603148" uid="3497659" user="NKA">
		<tag k="name" v="Bjørnstadjordet" />
		<tag k="place" v="farm" />
		<tag k="ssr:stedsnr" v="737743" />
	</node>
	<node id="9659907675" lat="61.3602437" lon="10.3074188" version="1" timestamp="2022-04-12T04:53:01Z" changeset="119603148" uid="3497659" user="NKA">
		<tag k="alt_name" v="Enge" />
		<tag k="name" v="Engje" />
		<tag k="place" v="farm" />
		<tag k="ssr:stedsnr" v="493968" />
	</node>
	<node id="9659907676" lat="61.3693611" lon="10.2910861" version="1" timestamp="2022-04-12T04:53:01Z" changeset="119603148" uid="3497659" user="NKA">
		<tag k="alt_name" v="Mågåli, nordre;Nord-Mågåli" />
		<tag k="name" v="Nordre Mågåli" />
		<tag k="place" v="farm" />
		<tag k="ssr:stedsnr" v="857993" />
	</node>
	<node id="9659907677" lat="61.3445341" lon="10.2665625" version="1" timestamp="2022-04-12T04:53:01Z" changeset="119603148" uid="3497659" user="NKA">
		<tag k="name" v="Nørdre Øygarden" />
		<tag k="place" v="farm" />
		<tag k="ssr:stedsnr" v="707268" />
	</node>
	<node id="9659907678" lat="61.34973" lon="10.2872262" version="1" timestamp="2022-04-12T04:53:01Z" changeset="119603148" uid="3497659" user="NKA">
		<tag k="name" v="Strande" />
		<tag k="place" v="farm" />
		<tag k="ssr:stedsnr" v="858956" />
	</node>
	<node id="9659907679" lat="61.3588966" lon="10.201477" version="1" timestamp="2022-04-12T04:53:01Z" changeset="119603148" uid="3497659" user="NKA">
		<tag k="name" v="Roåker" />
		<tag k="place" v="hamlet" />
		<tag k="ssr:stedsnr" v="847850" />
	</node>
	<node id="9659907680" lat="61.3350723" lon="10.2937305" version="1" timestamp="2022-04-12T04:53:01Z" changeset="119603148" uid="3497659" user="NKA">
		<tag k="alt_name" v="Kolobekken" />
		<tag k="name" v="Kålåbekken" />
		<tag k="place" v="farm" />
		<tag k="ssr:stedsnr" v="614948" />
	</node>
	<node id="9659907681" lat="61.3428101" lon="10.2290375" version="1" timestamp="2022-04-12T04:53:01Z" changeset="119603148" uid="3497659" user="NKA">
		<tag k="alt_name" v="Djupdalssætra" />
		<tag k="historic" v="shieling" />
		<tag k="name" v="Djupdalen" />
		<tag k="place" v="isolated_dwelling" />
		<tag k="ssr:stedsnr" v="554970" />
	</node>
	<node id="9659907682" lat="61.2919526" lon="10.2656756" version="1" timestamp="2022-04-12T04:53:01Z" changeset="119603148" uid="3497659" user="NKA">
		<tag k="name" v="Musdalslia" />
		<tag k="place" v="farm" />
		<tag k="ssr:stedsnr" v="494725" />
	</node>
	<node id="9659907683" lat="61.3448424" lon="10.2702566" version="1" timestamp="2022-04-12T04:53:01Z" changeset="119603148" uid="3497659" user="NKA">
		<tag k="name" v="Øygarden" />
		<tag k="old_name" v="Vike-Ødegaarden" />
		<tag k="place" v="farm" />
		<tag k="ssr:stedsnr" v="250968" />
	</node>
	<node id="9659907684" lat="61.3584945" lon="10.2635555" version="1" timestamp="2022-04-12T04:53:01Z" changeset="119603148" uid="3497659" user="NKA">
		<tag k="name" v="Sprekkenhusmoen" />
		<tag k="place" v="locality" />
		<tag k="ssr:stedsnr" v="524213" />
	</node>
	<node id="9659907685" lat="61.3530985" lon="10.3077985" version="1" timestamp="2022-04-12T04:53:01Z" changeset="119603148" uid="3497659" user="NKA">
		<tag k="alt_name" v="Johnsgard nordistugun" />
		<tag k="name" v="Jonsgard" />
		<tag k="place" v="farm" />
		<tag k="ssr:stedsnr" v="554974" />
	</node>
	<node id="9659907686" lat="61.3540289" lon="10.2473071" version="1" timestamp="2022-04-12T04:53:01Z" changeset="119603148" uid="3497659" user="NKA">
		<tag k="name" v="Høglia" />
		<tag k="place" v="farm" />
		<tag k="ssr:stedsnr" v="250977" />
	</node>
	<node id="9659907687" lat="61.3590419" lon="10.2964329" version="1" timestamp="2022-04-12T04:53:01Z" changeset="119603148" uid="3497659" user="NKA">
		<tag k="name" v="Engelund" />
		<tag k="place" v="farm" />
		<tag k="ssr:stedsnr" v="160180" />
	</node>
	<node id="9659907688" lat="61.3516865" lon="10.2498747" version="1" timestamp="2022-04-12T04:53:01Z" changeset="119603148" uid="3497659" user="NKA">
		<tag k="alt_name" v="Toresgard" />
		<tag k="name" v="Høgvik" />
		<tag k="place" v="farm" />
		<tag k="ssr:stedsnr" v="554984" />
	</node>
	<node id="9659907689" lat="61.3717472" lon="10.2977333" version="1" timestamp="2022-04-12T04:53:01Z" changeset="119603148" uid="3497659" user="NKA">
		<tag k="name" v="Mågålihågån" />
		<tag k="place" v="farm" />
		<tag k="ssr:stedsnr" v="675995" />
	</node>
	<node id="9659907690" lat="61.288528" lon="10.2764968" version="1" timestamp="2022-04-12T04:53:01Z" changeset="119603148" uid="3497659" user="NKA">
		<tag k="name" v="Sveom" />
		<tag k="place" v="farm" />
		<tag k="ssr:stedsnr" v="767408" />
	</node>
	<node id="9659907691" lat="61.3349558" lon="10.2700582" version="1" timestamp="2022-04-12T04:53:01Z" changeset="119603148" uid="3497659" user="NKA">
		<tag k="name" v="Søre Vike" />
		<tag k="place" v="farm" />
		<tag k="ssr:stedsnr" v="949713" />
	</node>
	<node id="9659907692" lat="61.33745" lon="10.2603917" version="1" timestamp="2022-04-12T04:53:01Z" changeset="119603148" uid="3497659" user="NKA">
		<tag k="name" v="Vikbergan" />
		<tag k="place" v="locality" />
		<tag k="ssr:stedsnr" v="223905" />
	</node>
	<node id="9659907693" lat="61.3507125" lon="10.3091775" version="1" timestamp="2022-04-12T04:53:01Z" changeset="119603148" uid="3497659" user="NKA">
		<tag k="name" v="Glømme" />
		<tag k="place" v="hamlet" />
		<tag k="ssr:stedsnr" v="918971" />
	</node>
	<node id="9659907694" lat="61.3648361" lon="10.3105972" version="1" timestamp="2022-04-12T04:53:01Z" changeset="119603148" uid="3497659" user="NKA">
		<tag k="name" v="Vedumstugua" />
		<tag k="place" v="farm" />
		<tag k="ssr:stedsnr" v="284329" />
	</node>
	<node id="9659907695" lat="61.2793" lon="10.2807777" version="1" timestamp="2022-04-12T04:53:01Z" changeset="119603148" uid="3497659" user="NKA">
		<tag k="name" v="Holstein" />
		<tag k="place" v="farm" />
		<tag k="ssr:stedsnr" v="798838" />
	</node>
	<node id="9659907696" lat="61.3467796" lon="10.2874665" version="1" timestamp="2022-04-12T04:53:01Z" changeset="119603148" uid="3497659" user="NKA">
		<tag k="name" v="Rønningen" />
		<tag k="place" v="farm" />
		<tag k="ssr:stedsnr" v="190967" />
	</node>
	<node id="9659907697" lat="61.3228777" lon="10.2743493" version="1" timestamp="2022-04-12T04:53:01Z" changeset="119603148" uid="3497659" user="NKA">
		<tag k="name" v="Stavslia" />
		<tag k="place" v="farm" />
		<tag k="ssr:stedsnr" v="797931" />
	</node>
	<node id="9659907698" lat="61.3666318" lon="10.2553478" version="1" timestamp="2022-04-12T04:53:01Z" changeset="119603148" uid="3497659" user="NKA">
		<tag k="alt_name" v="Kapelrud" />
		<tag k="name" v="Kappelrud" />
		<tag k="place" v="farm" />
		<tag k="ssr:stedsnr" v="190982" />
	</node>
	<node id="9659907699" lat="61.3435379" lon="10.2667864" version="1" timestamp="2022-04-12T04:53:01Z" changeset="119603148" uid="3497659" user="NKA">
		<tag k="alt_name" v="Søristuen" />
		<tag k="name" v="Søre Øygarden" />
		<tag k="place" v="farm" />
		<tag k="ssr:stedsnr" v="403221" />
	</node>
	<node id="9659907700" lat="61.3605616" lon="10.2907998" version="1" timestamp="2022-04-12T04:53:01Z" changeset="119603148" uid="3497659" user="NKA">
		<tag k="name" v="Ledem" />
		<tag k="place" v="farm" />
		<tag k="ssr:stedsnr" v="797989" />
	</node>
	<node id="9659907701" lat="61.3487742" lon="10.2933602" version="1" timestamp="2022-04-12T04:53:01Z" changeset="119603148" uid="3497659" user="NKA">
		<tag k="name" v="Bergmo" />
		<tag k="place" v="farm" />
		<tag k="ssr:stedsnr" v="403210" />
	</node>
	<node id="9659907702" lat="61.294381" lon="10.2559835" version="1" timestamp="2022-04-12T04:53:01Z" changeset="119603148" uid="3497659" user="NKA">
		<tag k="name" v="Holoa" />
		<tag k="place" v="farm" />
		<tag k="ssr:stedsnr" v="797765" />
	</node>
	<node id="9659907703" lat="61.2706278" lon="10.2951445" version="1" timestamp="2022-04-12T04:53:01Z" changeset="119603148" uid="3497659" user="NKA">
		<tag k="name" v="Krokhaugen" />
		<tag k="place" v="locality" />
		<tag k="ssr:stedsnr" v="783393" />
	</node>
	<node id="9659907704" lat="61.3535556" lon="10.2675278" version="1" timestamp="2022-04-12T04:53:01Z" changeset="119603148" uid="3497659" user="NKA">
		<tag k="name" v="Vik" />
		<tag k="place" v="locality" />
		<tag k="ssr:stedsnr" v="403211" />
	</node>
	<node id="9659907705" lat="61.3288653" lon="10.2866763" version="1" timestamp="2022-04-12T04:53:01Z" changeset="119603148" uid="3497659" user="NKA">
		<tag k="alt_name" v="Mortenstugua" />
		<tag k="name" v="Mortensstugua" />
		<tag k="place" v="farm" />
		<tag k="ssr:stedsnr" v="735945" />
	</node>
	<node id="9659907706" lat="61.3388518" lon="10.2956674" version="1" timestamp="2022-04-12T04:53:01Z" changeset="119603148" uid="3497659" user="NKA">
		<tag k="name" v="Granom" />
		<tag k="place" v="farm" />
		<tag k="ssr:stedsnr" v="41926" />
	</node>
	<node id="9659907707" lat="61.271032" lon="10.314056" version="1" timestamp="2022-04-12T04:53:01Z" changeset="119603148" uid="3497659" user="NKA">
		<tag k="name" v="Nordlia" />
		<tag k="place" v="farm" />
		<tag k="ssr:stedsnr" v="129853" />
	</node>
	<node id="9659907708" lat="61.3165805" lon="10.3692473" version="1" timestamp="2022-04-12T04:53:01Z" changeset="119603148" uid="3497659" user="NKA">
		<tag k="alt_name" v="Smørkampen" />
		<tag k="historic" v="shieling" />
		<tag k="name" v="Smørkampsætra" />
		<tag k="place" v="isolated_dwelling" />
		<tag k="ssr:stedsnr" v="494265" />
	</node>
	<node id="9659907709" lat="61.3057845" lon="10.3150631" version="1" timestamp="2022-04-12T04:53:01Z" changeset="119603148" uid="3497659" user="NKA">
		<tag k="name" v="Solbergbakken" />
		<tag k="place" v="farm" />
		<tag k="ssr:stedsnr" v="464393" />
	</node>
	<node id="9659907710" lat="61.3721244" lon="10.2523444" version="1" timestamp="2022-04-12T04:53:01Z" changeset="119603148" uid="3497659" user="NKA">
		<tag k="alt_name" v="Pålsrudmoen" />
		<tag k="name" v="Moen" />
		<tag k="place" v="farm" />
		<tag k="ssr:stedsnr" v="553999" />
	</node>
	<node id="9659907711" lat="61.3011059" lon="10.2544866" version="1" timestamp="2022-04-12T04:53:01Z" changeset="119603148" uid="3497659" user="NKA">
		<tag k="name" v="Hong" />
		<tag k="place" v="hamlet" />
		<tag k="ssr:stedsnr" v="494760" />
	</node>
	<node id="9659907712" lat="61.3135262" lon="10.3318506" version="1" timestamp="2022-04-12T04:53:01Z" changeset="119603148" uid="3497659" user="NKA">
		<tag k="name" v="Nybakken" />
		<tag k="place" v="farm" />
		<tag k="ssr:stedsnr" v="949330" />
	</node>
	<node id="9659907713" lat="61.3448588" lon="10.2868556" version="1" timestamp="2022-04-12T04:53:01Z" changeset="119603148" uid="3497659" user="NKA">
		<tag k="name" v="Sandviksberget" />
		<tag k="place" v="farm" />
		<tag k="ssr:stedsnr" v="524194" />
	</node>
	<node id="9659907714" lat="61.2739113" lon="10.3043538" version="1" timestamp="2022-04-12T04:53:01Z" changeset="119603148" uid="3497659" user="NKA">
		<tag k="name" v="Krokfossen" />
		<tag k="place" v="farm" />
		<tag k="ssr:stedsnr" v="69884" />
	</node>
	<node id="9659907715" lat="61.2853221" lon="10.3471251" version="1" timestamp="2022-04-12T04:53:01Z" changeset="119603148" uid="3497659" user="NKA">
		<tag k="name" v="Kvamsmoen" />
		<tag k="old_name" v="Kvam fjøstomt" />
		<tag k="place" v="farm" />
		<tag k="ssr:stedsnr" v="1082884" />
	</node>
	<node id="9659907716" lat="61.284483" lon="10.3810369" version="1" timestamp="2022-04-12T04:53:01Z" changeset="119603148" uid="3497659" user="NKA">
		<tag k="name" v="Brattland" />
		<tag k="place" v="farm" />
		<tag k="ssr:stedsnr" v="891617" />
	</node>
	<node id="9659907717" lat="61.3199008" lon="10.3318873" version="1" timestamp="2022-04-12T04:53:01Z" changeset="119603148" uid="3497659" user="NKA">
		<tag k="name" v="Veslehågån" />
		<tag k="place" v="farm" />
		<tag k="ssr:stedsnr" v="645307" />
	</node>
	<node id="9659907718" lat="61.2826535" lon="10.2943261" version="1" timestamp="2022-04-12T04:53:01Z" changeset="119603148" uid="3497659" user="NKA">
		<tag k="alt_name" v="Rinheim" />
		<tag k="name" v="Rindheim" />
		<tag k="place" v="farm" />
		<tag k="ssr:stedsnr" v="494739" />
	</node>
	<node id="9659907719" lat="61.2857643" lon="10.3823404" version="1" timestamp="2022-04-12T04:53:01Z" changeset="119603148" uid="3497659" user="NKA">
		<tag k="name" v="Nordeng" />
		<tag k="place" v="farm" />
		<tag k="ssr:stedsnr" v="858251" />
	</node>
	<node id="9659907720" lat="61.2727444" lon="10.3091743" version="1" timestamp="2022-04-12T04:53:01Z" changeset="119603148" uid="3497659" user="NKA">
		<tag k="name" v="Bårdseng" />
		<tag k="place" v="farm" />
		<tag k="ssr:stedsnr" v="311893" />
	</node>
	<node id="9659907721" lat="61.3002527" lon="10.3265943" version="1" timestamp="2022-04-12T04:53:01Z" changeset="119603148" uid="3497659" user="NKA">
		<tag k="name" v="Kråbølstugua" />
		<tag k="place" v="farm" />
		<tag k="ssr:stedsnr" v="645300" />
	</node>
	<node id="9659907722" lat="61.330378" lon="10.3222898" version="1" timestamp="2022-04-12T04:53:01Z" changeset="119603148" uid="3497659" user="NKA">
		<tag k="name" v="Hjelmstad" />
		<tag k="place" v="farm" />
		<tag k="ssr:stedsnr" v="311963" />
	</node>
	<node id="9659907723" lat="61.2746222" lon="10.2962223" version="1" timestamp="2022-04-12T04:53:01Z" changeset="119603148" uid="3497659" user="NKA">
		<tag k="name" v="Linlykkjejordet" />
		<tag k="place" v="isolated_dwelling" />
		<tag k="ssr:stedsnr" v="297399" />
	</node>
	<node id="9659907724" lat="61.2721317" lon="10.3274547" version="1" timestamp="2022-04-12T04:53:01Z" changeset="119603148" uid="3497659" user="NKA">
		<tag k="name" v="Sæter" />
		<tag k="place" v="farm" />
		<tag k="ssr:stedsnr" v="297049" />
	</node>
	<node id="9659907725" lat="61.2903639" lon="10.381486" version="1" timestamp="2022-04-12T04:53:01Z" changeset="119603148" uid="3497659" user="NKA">
		<tag k="name" v="Høystad" />
		<tag k="place" v="farm" />
		<tag k="ssr:stedsnr" v="554299" />
	</node>
	<node id="9659907726" lat="61.33435" lon="10.3145416" version="1" timestamp="2022-04-12T04:53:01Z" changeset="119603148" uid="3497659" user="NKA">
		<tag k="name" v="Tande" />
		<tag k="place" v="hamlet" />
		<tag k="ssr:stedsnr" v="250936" />
	</node>
	<node id="9659907727" lat="61.29881" lon="10.2785296" version="1" timestamp="2022-04-12T04:53:01Z" changeset="119603148" uid="3497659" user="NKA">
		<tag k="alt_name" v="Lågåton" />
		<tag k="name" v="Lagatun" />
		<tag k="place" v="farm" />
		<tag k="ssr:stedsnr" v="251826" />
	</node>
	<node id="9659907728" lat="61.2845222" lon="10.313311" version="1" timestamp="2022-04-12T04:53:01Z" changeset="119603148" uid="3497659" user="NKA">
		<tag k="name" v="Helset" />
		<tag k="place" v="farm" />
		<tag k="ssr:stedsnr" v="554794" />
	</node>
	<node id="9659907729" lat="61.2890646" lon="10.363875" version="1" timestamp="2022-04-12T04:53:01Z" changeset="119603148" uid="3497659" user="NKA">
		<tag k="name" v="Bergaust" />
		<tag k="place" v="farm" />
		<tag k="ssr:stedsnr" v="311340" />
	</node>
	<node id="9659907730" lat="61.273377" lon="10.3762965" version="1" timestamp="2022-04-12T04:53:01Z" changeset="119603148" uid="3497659" user="NKA">
		<tag k="name" v="Kåje" />
		<tag k="place" v="farm" />
		<tag k="ssr:stedsnr" v="888390" />
	</node>
	<node id="9659907731" lat="61.2799778" lon="10.3573667" version="1" timestamp="2022-04-12T04:53:01Z" changeset="119603148" uid="3497659" user="NKA">
		<tag k="name" v="Rustberg" />
		<tag k="place" v="farm" />
		<tag k="ssr:stedsnr" v="190262" />
	</node>
	<node id="9659907732" lat="61.3430875" lon="10.3049221" version="1" timestamp="2022-04-12T04:53:01Z" changeset="119603148" uid="3497659" user="NKA">
		<tag k="name" v="Sustad" />
		<tag k="place" v="farm" />
		<tag k="ssr:stedsnr" v="160861" />
	</node>
	<node id="9659907733" lat="61.3598195" lon="10.258873" version="1" timestamp="2022-04-12T04:53:01Z" changeset="119603148" uid="3497659" user="NKA">
		<tag k="name" v="Sprekkenhus" />
		<tag k="place" v="farm" />
		<tag k="ssr:stedsnr" v="69986" />
	</node>
	<node id="9659907734" lat="61.2844806" lon="10.3037556" version="1" timestamp="2022-04-12T04:53:01Z" changeset="119603148" uid="3497659" user="NKA">
		<tag k="name" v="Brentnes" />
		<tag k="place" v="locality" />
		<tag k="ssr:stedsnr" v="102562" />
	</node>
	<node id="9659907735" lat="61.3441188" lon="10.3111151" version="1" timestamp="2022-04-12T04:53:01Z" changeset="119603148" uid="3497659" user="NKA">
		<tag k="alt_name" v="Klevahaugen" />
		<tag k="name" v="Klevhaugen" />
		<tag k="place" v="farm" />
		<tag k="ssr:stedsnr" v="69961" />
	</node>
	<node id="9659907736" lat="61.3155628" lon="10.3296329" version="1" timestamp="2022-04-12T04:53:01Z" changeset="119603148" uid="3497659" user="NKA">
		<tag k="alt_name" v="Langgardshågån" />
		<tag k="name" v="Hågån" />
		<tag k="place" v="farm" />
		<tag k="ssr:stedsnr" v="129808" />
	</node>
	<node id="9659907737" lat="61.2966623" lon="10.3205101" version="1" timestamp="2022-04-12T04:53:01Z" changeset="119603148" uid="3497659" user="NKA">
		<tag k="name" v="Kløv" />
		<tag k="place" v="farm" />
		<tag k="ssr:stedsnr" v="69783" />
	</node>
	<node id="9659907738" lat="61.3015699" lon="10.3044852" version="1" timestamp="2022-04-12T04:53:01Z" changeset="119603148" uid="3497659" user="NKA">
		<tag k="name" v="Nygard" />
		<tag k="place" v="farm" />
		<tag k="ssr:stedsnr" v="9762" />
	</node>
	<node id="9659907739" lat="61.3714861" lon="10.2509833" version="1" timestamp="2022-04-12T04:53:01Z" changeset="119603148" uid="3497659" user="NKA">
		<tag k="name" v="Vesleøygarden" />
		<tag k="place" v="locality" />
		<tag k="ssr:stedsnr" v="889296" />
	</node>
	<node id="9659907740" lat="61.3307334" lon="10.519665" version="1" timestamp="2022-04-12T04:53:01Z" changeset="119603148" uid="3497659" user="NKA">
		<tag k="historic" v="shieling" />
		<tag k="name" v="Keiken" />
		<tag k="place" v="isolated_dwelling" />
		<tag k="ssr:stedsnr" v="797290" />
	</node>
	<node id="9659907741" lat="61.2649201" lon="10.439242" version="1" timestamp="2022-04-12T04:53:01Z" changeset="119603148" uid="3497659" user="NKA">
		<tag k="name" v="Åset" />
		<tag k="place" v="farm" />
		<tag k="ssr:stedsnr" v="796485" />
	</node>
	<node id="9659907742" lat="61.3851028" lon="10.6363362" version="1" timestamp="2022-04-12T04:53:01Z" changeset="119603148" uid="3497659" user="NKA">
		<tag k="historic" v="shieling" />
		<tag k="name" v="Skyttilsætra" />
		<tag k="place" v="isolated_dwelling" />
		<tag k="ssr:stedsnr" v="736321" />
	</node>
	<node id="9659907743" lat="61.3364817" lon="10.3185466" version="1" timestamp="2022-04-12T04:53:01Z" changeset="119603148" uid="3497659" user="NKA">
		<tag k="name" v="Tandlykkja" />
		<tag k="place" v="farm" />
		<tag k="ssr:stedsnr" v="857948" />
	</node>
	<node id="9659907744" lat="61.3028323" lon="10.3204196" version="1" timestamp="2022-04-12T04:53:01Z" changeset="119603148" uid="3497659" user="NKA">
		<tag k="name" v="Kolsvea" />
		<tag k="place" v="farm" />
		<tag k="ssr:stedsnr" v="797802" />
	</node>
	<node id="9659907745" lat="61.3233408" lon="10.6754143" version="1" timestamp="2022-04-12T04:53:01Z" changeset="119603148" uid="3497659" user="NKA">
		<tag k="historic" v="shieling" />
		<tag k="name" v="Blekasætra" />
		<tag k="place" v="isolated_dwelling" />
		<tag k="ssr:stedsnr" v="797285" />
	</node>
	<node id="9659907746" lat="61.3693183" lon="10.2461265" version="1" timestamp="2022-04-12T04:53:01Z" changeset="119603148" uid="3497659" user="NKA">
		<tag k="alt_name" v="Myrenget" />
		<tag k="name" v="Myrliuenget" />
		<tag k="place" v="farm" />
		<tag k="ssr:stedsnr" v="250985" />
	</node>
	<node id="9659907747" lat="61.2238" lon="10.4887055" version="1" timestamp="2022-04-12T04:53:01Z" changeset="119603148" uid="3497659" user="NKA">
		<tag k="historic" v="shieling" />
		<tag k="name" v="Stubberudsætra" />
		<tag k="place" v="isolated_dwelling" />
		<tag k="ssr:stedsnr" v="432161" />
	</node>
	<node id="9659907748" lat="61.2357161" lon="10.4255237" version="1" timestamp="2022-04-12T04:53:01Z" changeset="119603148" uid="3497659" user="NKA">
		<tag k="alt_name" v="Klophaugen" />
		<tag k="name" v="Klopphaugen" />
		<tag k="place" v="farm" />
		<tag k="ssr:stedsnr" v="614133" />
	</node>
	<node id="9659907749" lat="61.3163112" lon="10.2703194" version="1" timestamp="2022-04-12T04:53:01Z" changeset="119603148" uid="3497659" user="NKA">
		<tag k="name" v="Langsvea" />
		<tag k="place" v="farm" />
		<tag k="ssr:stedsnr" v="8825" />
	</node>
	<node id="9659907750" lat="61.2674324" lon="10.4199167" version="1" timestamp="2022-04-12T04:53:01Z" changeset="119603148" uid="3497659" user="NKA">
		<tag k="name" v="Svingen" />
		<tag k="place" v="farm" />
		<tag k="ssr:stedsnr" v="311531" />
	</node>
	<node id="9659907751" lat="61.3078558" lon="10.3063146" version="1" timestamp="2022-04-12T04:53:01Z" changeset="119603148" uid="3497659" user="NKA">
		<tag k="name" v="Tautrom" />
		<tag k="place" v="farm" />
		<tag k="ssr:stedsnr" v="828370" />
	</node>
	<node id="9659907752" lat="61.3171592" lon="10.3210741" version="1" timestamp="2022-04-12T04:53:01Z" changeset="119603148" uid="3497659" user="NKA">
		<tag k="name" v="Langgard" />
		<tag k="place" v="hamlet" />
		<tag k="ssr:stedsnr" v="858939" />
	</node>
	<node id="9659907753" lat="61.2957188" lon="10.2743253" version="1" timestamp="2022-04-12T04:53:01Z" changeset="119603148" uid="3497659" user="NKA">
		<tag k="alt_name" v="Søre Hovde" />
		<tag k="name" v="Hovde" />
		<tag k="place" v="farm" />
		<tag k="ssr:stedsnr" v="858785" />
	</node>
	<node id="9659907754" lat="61.2765685" lon="10.2791019" version="1" timestamp="2022-04-12T04:53:01Z" changeset="119603148" uid="3497659" user="NKA">
		<tag k="name" v="Rugsvea" />
		<tag k="place" v="farm" />
		<tag k="ssr:stedsnr" v="191833" />
	</node>
	<node id="9659907755" lat="61.3205181" lon="10.280665" version="1" timestamp="2022-04-12T04:53:01Z" changeset="119603148" uid="3497659" user="NKA">
		<tag k="name" v="Granlund" />
		<tag k="place" v="farm" />
		<tag k="ssr:stedsnr" v="708927" />
	</node>
	<node id="9659907756" lat="61.2699167" lon="10.2734417" version="1" timestamp="2022-04-12T04:53:01Z" changeset="119603148" uid="3497659" user="NKA">
		<tag k="historic" v="shieling" />
		<tag k="name" v="Lassesætra" />
		<tag k="place" v="hamlet" />
		<tag k="ssr:stedsnr" v="614860" />
	</node>
	<node id="9659907757" lat="61.2253583" lon="10.6481527" version="1" timestamp="2022-04-12T04:53:01Z" changeset="119603148" uid="3497659" user="NKA">
		<tag k="alt_name" v="Reina, in;Reina" />
		<tag k="name" v="Indre Reina" />
		<tag k="place" v="hamlet" />
		<tag k="ssr:stedsnr" v="675189" />
	</node>
	<node id="9659907758" lat="61.2682861" lon="10.2749445" version="1" timestamp="2022-04-12T04:53:01Z" changeset="119603148" uid="3497659" user="NKA">
		<tag k="historic" v="shieling" />
		<tag k="name" v="Sveasætra" />
		<tag k="place" v="isolated_dwelling" />
		<tag k="ssr:stedsnr" v="614858" />
	</node>
	<node id="9659907759" lat="61.3082027" lon="10.2656857" version="1" timestamp="2022-04-12T04:53:01Z" changeset="119603148" uid="3497659" user="NKA">
		<tag k="name" v="Granli" />
		<tag k="place" v="farm" />
		<tag k="ssr:stedsnr" v="494774" />
	</node>
	<node id="9659907760" lat="61.3059222" lon="10.2578195" version="1" timestamp="2022-04-12T04:53:01Z" changeset="119603148" uid="3497659" user="NKA">
		<tag k="name" v="Steinbakken" />
		<tag k="place" v="farm" />
		<tag k="ssr:stedsnr" v="482606" />
	</node>
	<node id="9659907761" lat="61.3028475" lon="10.2820633" version="1" timestamp="2022-04-12T04:53:01Z" changeset="119603148" uid="3497659" user="NKA">
		<tag k="name" v="Aurom" />
		<tag k="place" v="farm" />
		<tag k="ssr:stedsnr" v="554834" />
	</node>
	<node id="9659907762" lat="61.3013197" lon="10.3072529" version="1" timestamp="2022-04-12T04:53:01Z" changeset="119603148" uid="3497659" user="NKA">
		<tag k="name" v="Nordgard" />
		<tag k="place" v="farm" />
		<tag k="ssr:stedsnr" v="554828" />
	</node>
	<node id="9659907763" lat="61.2963643" lon="10.2770815" version="1" timestamp="2022-04-12T04:53:01Z" changeset="119603148" uid="3497659" user="NKA">
		<tag k="name" v="Nordre Hovde" />
		<tag k="place" v="farm" />
		<tag k="ssr:stedsnr" v="543608" />
	</node>
	<node id="9659907764" lat="61.2925095" lon="10.2556873" version="1" timestamp="2022-04-12T04:53:01Z" changeset="119603148" uid="3497659" user="NKA">
		<tag k="name" v="Bergslia" />
		<tag k="place" v="farm" />
		<tag k="ssr:stedsnr" v="554785" />
	</node>
	<node id="9659907765" lat="61.3126284" lon="10.3926278" version="1" timestamp="2022-04-12T04:53:01Z" changeset="119603148" uid="3497659" user="NKA">
		<tag k="alt_name" v="Søndre Hundberget" />
		<tag k="historic" v="shieling" />
		<tag k="name" v="Søre Hundberget" />
		<tag k="place" v="isolated_dwelling" />
		<tag k="ssr:stedsnr" v="949725" />
	</node>
	<node id="9659907766" lat="61.2606846" lon="10.4090167" version="1" timestamp="2022-04-12T04:53:01Z" changeset="119603148" uid="3497659" user="NKA">
		<tag k="name" v="Strøm" />
		<tag k="place" v="farm" />
		<tag k="ssr:stedsnr" v="985864" />
	</node>
	<node id="9659907767" lat="61.3000121" lon="10.3205317" version="1" timestamp="2022-04-12T04:53:01Z" changeset="119603148" uid="3497659" user="NKA">
		<tag k="name" v="Stalsbjørsvea" />
		<tag k="place" v="farm" />
		<tag k="ssr:stedsnr" v="949297" />
	</node>
	<node id="9659907768" lat="61.3029809" lon="10.241276" version="1" timestamp="2022-04-12T04:53:01Z" changeset="119603148" uid="3497659" user="NKA">
		<tag k="name" v="Winge" />
		<tag k="place" v="farm" />
		<tag k="ssr:stedsnr" v="422622" />
	</node>
	<node id="9659907769" lat="61.3240111" lon="10.2736389" version="1" timestamp="2022-04-12T04:53:01Z" changeset="119603148" uid="3497659" user="NKA">
		<tag k="name" v="Sætasvea" />
		<tag k="place" v="locality" />
		<tag k="ssr:stedsnr" v="344933" />
	</node>
	<node id="9659907770" lat="61.2684588" lon="10.4406768" version="1" timestamp="2022-04-12T04:53:01Z" changeset="119603148" uid="3497659" user="NKA">
		<tag k="name" v="Dalbu" />
		<tag k="place" v="farm" />
		<tag k="ssr:stedsnr" v="918549" />
	</node>
	<node id="9659907771" lat="61.2561782" lon="10.4053848" version="1" timestamp="2022-04-12T04:53:01Z" changeset="119603148" uid="3497659" user="NKA">
		<tag k="name" v="Slettjordet" />
		<tag k="place" v="farm" />
		<tag k="ssr:stedsnr" v="918543" />
	</node>
	<node id="9659907772" lat="61.2625375" lon="10.4928019" version="1" timestamp="2022-04-12T04:53:01Z" changeset="119603148" uid="3497659" user="NKA">
		<tag k="historic" v="shieling" />
		<tag k="name" v="Lisætra" />
		<tag k="place" v="hamlet" />
		<tag k="ssr:stedsnr" v="918540" />
	</node>
	<node id="9659907773" lat="61.3539306" lon="10.3596028" version="1" timestamp="2022-04-12T04:53:01Z" changeset="119603148" uid="3497659" user="NKA">
		<tag k="alt_name" v="Veslestulen" />
		<tag k="name" v="Veslstølen" />
		<tag k="place" v="locality" />
		<tag k="ssr:stedsnr" v="918350" />
	</node>
	<node id="9659907774" lat="61.3076132" lon="10.2581203" version="1" timestamp="2022-04-12T04:53:01Z" changeset="119603148" uid="3497659" user="NKA">
		<tag k="name" v="Bakkom" />
		<tag k="place" v="farm" />
		<tag k="ssr:stedsnr" v="179607" />
	</node>
	<node id="9659907775" lat="61.2649528" lon="10.5386277" version="1" timestamp="2022-04-12T04:53:01Z" changeset="119603148" uid="3497659" user="NKA">
		<tag k="name" v="Steinmyrhaugen" />
		<tag k="place" v="isolated_dwelling" />
		<tag k="ssr:stedsnr" v="918537" />
	</node>
	<node id="9659907776" lat="61.298382" lon="10.2648324" version="1" timestamp="2022-04-12T04:53:01Z" changeset="119603148" uid="3497659" user="NKA">
		<tag k="name" v="Solby" />
		<tag k="place" v="farm" />
		<tag k="ssr:stedsnr" v="179614" />
	</node>
	<node id="9659907777" lat="61.3046857" lon="10.2546066" version="1" timestamp="2022-04-12T04:53:01Z" changeset="119603148" uid="3497659" user="NKA">
		<tag k="name" v="Elstad" />
		<tag k="place" v="farm" />
		<tag k="ssr:stedsnr" v="190819" />
	</node>
	<node id="9659907778" lat="61.3277716" lon="10.3191923" version="1" timestamp="2022-04-12T04:53:01Z" changeset="119603148" uid="3497659" user="NKA">
		<tag k="alt_name" v="Tårstad" />
		<tag k="name" v="Torstad" />
		<tag k="place" v="farm" />
		<tag k="ssr:stedsnr" v="189947" />
	</node>
	<node id="9659907779" lat="61.3217675" lon="10.3242102" version="1" timestamp="2022-04-12T04:53:01Z" changeset="119603148" uid="3497659" user="NKA">
		<tag k="name" v="Prestgarden" />
		<tag k="place" v="farm" />
		<tag k="ssr:stedsnr" v="100309" />
	</node>
	<node id="9659907780" lat="61.2382418" lon="10.4255852" version="1" timestamp="2022-04-12T04:53:01Z" changeset="119603148" uid="3497659" user="NKA">
		<tag k="alt_name" v="Hauglykkja" />
		<tag k="name" v="Klopphauglykkja" />
		<tag k="place" v="farm" />
		<tag k="ssr:stedsnr" v="918141" />
	</node>
	<node id="9659907781" lat="61.2537993" lon="10.4068878" version="1" timestamp="2022-04-12T04:53:01Z" changeset="119603148" uid="3497659" user="NKA">
		<tag k="name" v="Sletta" />
		<tag k="place" v="farm" />
		<tag k="ssr:stedsnr" v="796466" />
	</node>
	<node id="9659907782" lat="61.2497525" lon="10.5870014" version="1" timestamp="2022-04-12T04:53:01Z" changeset="119603148" uid="3497659" user="NKA">
		<tag k="name" v="Hita" />
		<tag k="place" v="hamlet" />
		<tag k="ssr:stedsnr" v="799790" />
	</node>
	<node id="9659907783" lat="61.3114361" lon="10.3318902" version="1" timestamp="2022-04-12T04:53:01Z" changeset="119603148" uid="3497659" user="NKA">
		<tag k="name" v="Strangstadlia" />
		<tag k="place" v="farm" />
		<tag k="ssr:stedsnr" v="792363" />
	</node>
	<node id="9659907784" lat="61.2313255" lon="10.466428" version="1" timestamp="2022-04-12T04:53:01Z" changeset="119603148" uid="3497659" user="NKA">
		<tag k="name" v="Lykkja" />
		<tag k="place" v="farm" />
		<tag k="ssr:stedsnr" v="797153" />
	</node>
	<node id="9659907785" lat="61.2880389" lon="10.2576056" version="1" timestamp="2022-04-12T04:53:01Z" changeset="119603148" uid="3497659" user="NKA">
		<tag k="name" v="Heimkollen" />
		<tag k="place" v="locality" />
		<tag k="ssr:stedsnr" v="41417" />
	</node>
	<node id="9659907786" lat="61.2845194" lon="10.2567944" version="1" timestamp="2022-04-12T04:53:01Z" changeset="119603148" uid="3497659" user="NKA">
		<tag k="name" v="Hågån" />
		<tag k="place" v="farm" />
		<tag k="ssr:stedsnr" v="9752" />
	</node>
	<node id="9659907787" lat="61.2770902" lon="10.2872357" version="1" timestamp="2022-04-12T04:53:01Z" changeset="119603148" uid="3497659" user="NKA">
		<tag k="name" v="Linlykkja" />
		<tag k="old_name" v="Lilykkja" />
		<tag k="place" v="farm" />
		<tag k="ssr:stedsnr" v="8876" />
	</node>
	<node id="9659907788" lat="61.2351204" lon="10.4666113" version="1" timestamp="2022-04-12T04:53:01Z" changeset="119603148" uid="3497659" user="NKA">
		<tag k="name" v="Råbøl" />
		<tag k="place" v="farm" />
		<tag k="ssr:stedsnr" v="796139" />
	</node>
	<node id="9659907789" lat="61.1937239" lon="10.4154399" version="1" timestamp="2022-04-12T04:53:01Z" changeset="119603148" uid="3497659" user="NKA">
		<tag k="name" v="Teinlagsvea" />
		<tag k="place" v="farm" />
		<tag k="ssr:stedsnr" v="957591" />
	</node>
	<node id="9659907790" lat="61.2763082" lon="10.3163461" version="1" timestamp="2022-04-12T04:53:01Z" changeset="119603148" uid="3497659" user="NKA">
		<tag k="alt_name" v="Søre Skarmoen" />
		<tag k="name" v="Skardsmoen" />
		<tag k="place" v="farm" />
		<tag k="ssr:stedsnr" v="8880" />
	</node>
	<node id="9659907791" lat="61.3928015" lon="10.3523527" version="1" timestamp="2022-04-12T04:53:01Z" changeset="119603148" uid="3497659" user="NKA">
		<tag k="historic" v="shieling" />
		<tag k="name" v="Tretteslæen" />
		<tag k="place" v="isolated_dwelling" />
		<tag k="ssr:stedsnr" v="767272" />
	</node>
	<node id="9659907792" lat="61.3292914" lon="10.3888592" version="1" timestamp="2022-04-12T04:53:01Z" changeset="119603148" uid="3497659" user="NKA">
		<tag k="historic" v="shieling" />
		<tag k="name" v="Søre Veslesætra" />
		<tag k="old_name" v="Vestsætra" />
		<tag k="place" v="isolated_dwelling" />
		<tag k="ssr:stedsnr" v="433277" />
	</node>
	<node id="9659907793" lat="61.2849465" lon="10.4112925" version="1" timestamp="2022-04-12T04:53:01Z" changeset="119603148" uid="3497659" user="NKA">
		<tag k="name" v="Oppheim" />
		<tag k="place" v="farm" />
		<tag k="ssr:stedsnr" v="221463" />
	</node>
	<node id="9659907794" lat="61.2759133" lon="10.3966759" version="1" timestamp="2022-04-12T04:53:01Z" changeset="119603148" uid="3497659" user="NKA">
		<tag k="name" v="Kramperud" />
		<tag k="place" v="farm" />
		<tag k="ssr:stedsnr" v="736484" />
	</node>
	<node id="9659907795" lat="61.290532" lon="10.5627028" version="1" timestamp="2022-04-12T04:53:01Z" changeset="119603148" uid="3497659" user="NKA">
		<tag k="historic" v="shieling" />
		<tag k="name" v="Rognhaugen" />
		<tag k="place" v="isolated_dwelling" />
		<tag k="ssr:stedsnr" v="797243" />
	</node>
	<node id="9659907796" lat="61.2549227" lon="10.3784475" version="1" timestamp="2022-04-12T04:53:01Z" changeset="119603148" uid="3497659" user="NKA">
		<tag k="alt_name" v="Berdonslia" />
		<tag k="historic" v="shieling" />
		<tag k="name" v="Berdonslisætra" />
		<tag k="place" v="isolated_dwelling" />
		<tag k="ssr:stedsnr" v="675499" />
	</node>
	<node id="9659907797" lat="61.2738088" lon="10.7783993" version="1" timestamp="2022-04-12T04:53:01Z" changeset="119603148" uid="3497659" user="NKA">
		<tag k="name" v="Sagbua" />
		<tag k="place" v="locality" />
		<tag k="ssr:stedsnr" v="736370" />
	</node>
	<node id="9659907798" lat="61.3404507" lon="10.4919009" version="1" timestamp="2022-04-12T04:53:01Z" changeset="119603148" uid="3497659" user="NKA">
		<tag k="historic" v="shieling" />
		<tag k="name" v="Svartsætra" />
		<tag k="place" v="hamlet" />
		<tag k="ssr:stedsnr" v="676274" />
	</node>
	<node id="9659907799" lat="61.2892719" lon="10.3867678" version="1" timestamp="2022-04-12T04:53:01Z" changeset="119603148" uid="3497659" user="NKA">
		<tag k="alt_name" v="Melum" />
		<tag k="name" v="Mælum" />
		<tag k="place" v="farm" />
		<tag k="ssr:stedsnr" v="675293" />
	</node>
	<node id="9659907800" lat="61.2807472" lon="10.392164" version="1" timestamp="2022-04-12T04:53:01Z" changeset="119603148" uid="3497659" user="NKA">
		<tag k="name" v="Bakkelund" />
		<tag k="place" v="farm" />
		<tag k="ssr:stedsnr" v="614273" />
	</node>
	<node id="9659907801" lat="61.3307108" lon="10.3065796" version="1" timestamp="2022-04-12T04:53:01Z" changeset="119603148" uid="3497659" user="NKA">
		<tag k="alt_name" v="Midt-Moen" />
		<tag k="name" v="Midtmoen" />
		<tag k="place" v="farm" />
		<tag k="ssr:stedsnr" v="432938" />
	</node>
	<node id="9659907802" lat="61.257227" lon="10.4432323" version="1" timestamp="2022-04-12T04:53:01Z" changeset="119603148" uid="3497659" user="NKA">
		<tag k="name" v="Stein" />
		<tag k="place" v="farm" />
		<tag k="ssr:stedsnr" v="493463" />
	</node>
	<node id="9659907803" lat="61.2669" lon="10.7910084" version="1" timestamp="2022-04-12T04:53:01Z" changeset="119603148" uid="3497659" user="NKA">
		<tag k="name" v="Åstbua" />
		<tag k="place" v="isolated_dwelling" />
		<tag k="ssr:stedsnr" v="736372" />
	</node>
	<node id="9659907804" lat="61.2692672" lon="10.3830276" version="1" timestamp="2022-04-12T04:53:01Z" changeset="119603148" uid="3497659" user="NKA">
		<tag k="name" v="Kolbustugua" />
		<tag k="place" v="farm" />
		<tag k="ssr:stedsnr" v="463421" />
	</node>
	<node id="9659907805" lat="61.2569291" lon="10.4029613" version="1" timestamp="2022-04-12T04:53:01Z" changeset="119603148" uid="3497659" user="NKA">
		<tag k="name" v="Nordre Slettjordet" />
		<tag k="place" v="farm" />
		<tag k="ssr:stedsnr" v="99457" />
	</node>
	<node id="9659907806" lat="61.2903824" lon="10.332882" version="1" timestamp="2022-04-12T04:53:01Z" changeset="119603148" uid="3497659" user="NKA">
		<tag k="alt_name" v="Rindal" />
		<tag k="name" v="Rinddal" />
		<tag k="place" v="hamlet" />
		<tag k="ssr:stedsnr" v="69780" />
	</node>
	<node id="9659907807" lat="61.3056737" lon="10.7564842" version="1" timestamp="2022-04-12T04:53:01Z" changeset="119603148" uid="3497659" user="NKA">
		<tag k="name" v="Lyngåbua" />
		<tag k="place" v="locality" />
		<tag k="ssr:stedsnr" v="708806" />
	</node>
	<node id="9659907808" lat="61.2596139" lon="10.4600278" version="1" timestamp="2022-04-12T04:53:01Z" changeset="119603148" uid="3497659" user="NKA">
		<tag k="name" v="Brattli" />
		<tag k="place" v="farm" />
		<tag k="ssr:stedsnr" v="41210" />
	</node>
	<node id="9659907809" lat="61.2894889" lon="10.7156805" version="1" timestamp="2022-04-12T04:53:01Z" changeset="119603148" uid="3497659" user="NKA">
		<tag k="name" v="Grava" />
		<tag k="place" v="hamlet" />
		<tag k="ssr:stedsnr" v="614259" />
	</node>
	<node id="9659907810" lat="61.2999895" lon="10.309802" version="1" timestamp="2022-04-12T04:53:01Z" changeset="119603148" uid="3497659" user="NKA">
		<tag k="alt_name" v="Stalsbjør" />
		<tag k="name" v="Stalsbjørg" />
		<tag k="place" v="farm" />
		<tag k="ssr:stedsnr" v="736807" />
	</node>
	<node id="9659907811" lat="61.3812675" lon="10.5303355" version="1" timestamp="2022-04-12T04:53:01Z" changeset="119603148" uid="3497659" user="NKA">
		<tag k="alt_name" v="Grunnsætra" />
		<tag k="historic" v="shieling" />
		<tag k="name" v="Grunna" />
		<tag k="place" v="hamlet" />
		<tag k="ssr:stedsnr" v="736308" />
	</node>
	<node id="9659907812" lat="61.2805834" lon="10.2725501" version="1" timestamp="2022-04-12T04:53:01Z" changeset="119603148" uid="3497659" user="NKA">
		<tag k="name" v="Bjørnhaug" />
		<tag k="place" v="farm" />
		<tag k="ssr:stedsnr" v="858877" />
	</node>
	<node id="9659907813" lat="61.3131184" lon="10.2672809" version="1" timestamp="2022-04-12T04:53:01Z" changeset="119603148" uid="3497659" user="NKA">
		<tag k="name" v="Storsvea" />
		<tag k="place" v="farm" />
		<tag k="ssr:stedsnr" v="858829" />
	</node>
	<node id="9659907814" lat="61.2582615" lon="10.4155574" version="1" timestamp="2022-04-12T04:53:01Z" changeset="119603148" uid="3497659" user="NKA">
		<tag k="alt_name" v="Sundgard" />
		<tag k="name" v="Sundgarden" />
		<tag k="place" v="farm" />
		<tag k="ssr:stedsnr" v="858493" />
	</node>
	<node id="9659907815" lat="61.3632556" lon="10.3760389" version="1" timestamp="2022-04-12T04:53:01Z" changeset="119603148" uid="3497659" user="NKA">
		<tag k="historic" v="shieling" />
		<tag k="name" v="Strandesætra" />
		<tag k="place" v="isolated_dwelling" />
		<tag k="ssr:stedsnr" v="858319" />
	</node>
	<node id="9659907816" lat="61.3229779" lon="10.3348614" version="1" timestamp="2022-04-12T04:53:01Z" changeset="119603148" uid="3497659" user="NKA">
		<tag k="name" v="Hågåbakken" />
		<tag k="place" v="farm" />
		<tag k="ssr:stedsnr" v="707333" />
	</node>
	<node id="9659907817" lat="61.3182833" lon="10.7636582" version="1" timestamp="2022-04-12T04:53:01Z" changeset="119603148" uid="3497659" user="NKA">
		<tag k="historic" v="shieling" />
		<tag k="name" v="Kaldholsætra" />
		<tag k="place" v="isolated_dwelling" />
		<tag k="ssr:stedsnr" v="251409" />
	</node>
	<node id="9659907818" lat="61.3382493" lon="10.2934529" version="1" timestamp="2022-04-12T04:53:01Z" changeset="119603148" uid="3497659" user="NKA">
		<tag k="name" v="Midtvoll" />
		<tag k="place" v="farm" />
		<tag k="ssr:stedsnr" v="647939" />
	</node>
	<node id="9659907819" lat="61.2844028" lon="10.8146805" version="1" timestamp="2022-04-12T04:53:01Z" changeset="119603148" uid="3497659" user="NKA">
		<tag k="historic" v="shieling" />
		<tag k="name" v="Smestadsætra" />
		<tag k="place" v="isolated_dwelling" />
		<tag k="ssr:stedsnr" v="282734" />
	</node>
	<node id="9659907820" lat="61.2992625" lon="10.2634785" version="1" timestamp="2022-04-12T04:53:01Z" changeset="119603148" uid="3497659" user="NKA">
		<tag k="alt_name" v="Nedre Berg" />
		<tag k="name" v="Berg" />
		<tag k="place" v="farm" />
		<tag k="ssr:stedsnr" v="494771" />
	</node>
	<node id="9659907821" lat="61.3100917" lon="10.2604306" version="1" timestamp="2022-04-12T04:53:01Z" changeset="119603148" uid="3497659" user="NKA">
		<tag k="name" v="Dokkalykkja" />
		<tag k="place" v="locality" />
		<tag k="ssr:stedsnr" v="847537" />
	</node>
	<node id="9659907822" lat="61.34279" lon="10.2988657" version="1" timestamp="2022-04-12T04:53:01Z" changeset="119603148" uid="3497659" user="NKA">
		<tag k="alt_name" v="Børke, søre;Sør-Børke" />
		<tag k="name" v="Søre Børke" />
		<tag k="place" v="farm" />
		<tag k="ssr:stedsnr" v="554966" />
	</node>
	<node id="9659907823" lat="61.2555717" lon="10.4679443" version="1" timestamp="2022-04-12T04:53:01Z" changeset="119603148" uid="3497659" user="NKA">
		<tag k="name" v="Skansen" />
		<tag k="place" v="farm" />
		<tag k="ssr:stedsnr" v="769213" />
	</node>
	<node id="9659907824" lat="61.3033906" lon="10.2890736" version="1" timestamp="2022-04-12T04:53:01Z" changeset="119603148" uid="3497659" user="NKA">
		<tag k="name" v="Vassrud" />
		<tag k="place" v="farm" />
		<tag k="ssr:stedsnr" v="554831" />
	</node>
	<node id="9659907825" lat="61.2238639" lon="10.5479695" version="1" timestamp="2022-04-12T04:53:01Z" changeset="119603148" uid="3497659" user="NKA">
		<tag k="historic" v="shieling" />
		<tag k="name" v="Hundersætra" />
		<tag k="place" v="hamlet" />
		<tag k="ssr:stedsnr" v="432162" />
	</node>
	<node id="9659907826" lat="61.2227555" lon="10.4633862" version="1" timestamp="2022-04-12T04:53:01Z" changeset="119603148" uid="3497659" user="NKA">
		<tag k="name" v="Snippen" />
		<tag k="place" v="farm" />
		<tag k="ssr:stedsnr" v="830670" />
	</node>
	<node id="9659907827" lat="61.2729349" lon="10.3381583" version="1" timestamp="2022-04-12T04:53:01Z" changeset="119603148" uid="3497659" user="NKA">
		<tag k="name" v="Svea" />
		<tag k="place" v="farm" />
		<tag k="ssr:stedsnr" v="358032" />
	</node>
	<node id="9659907828" lat="61.2532274" lon="10.7185017" version="1" timestamp="2022-04-12T04:53:01Z" changeset="119603148" uid="3497659" user="NKA">
		<tag k="historic" v="shieling" />
		<tag k="name" v="Hornsjø" />
		<tag k="place" v="hamlet" />
		<tag k="ssr:stedsnr" v="433464" />
	</node>
	<node id="9659907829" lat="61.24335" lon="10.4678472" version="1" timestamp="2022-04-12T04:53:01Z" changeset="119603148" uid="3497659" user="NKA">
		<tag k="name" v="Lyseng" />
		<tag k="place" v="farm" />
		<tag k="ssr:stedsnr" v="371131" />
	</node>
	<node id="9659907830" lat="61.3011639" lon="10.2244166" version="1" timestamp="2022-04-12T04:53:01Z" changeset="119603148" uid="3497659" user="NKA">
		<tag k="historic" v="shieling" />
		<tag k="name" v="Fubbrud" />
		<tag k="place" v="isolated_dwelling" />
		<tag k="ssr:stedsnr" v="664908" />
	</node>
	<node id="9659907831" lat="61.3311222" lon="10.7187806" version="1" timestamp="2022-04-12T04:53:01Z" changeset="119603148" uid="3497659" user="NKA">
		<tag k="historic" v="shieling" />
		<tag k="name" v="Bøsætra" />
		<tag k="place" v="hamlet" />
		<tag k="ssr:stedsnr" v="494382" />
	</node>
	<node id="9659907832" lat="61.3008698" lon="10.2405367" version="1" timestamp="2022-04-12T04:53:01Z" changeset="119603148" uid="3497659" user="NKA">
		<tag k="name" v="Gonstad" />
		<tag k="place" v="farm" />
		<tag k="ssr:stedsnr" v="251813" />
	</node>
	<node id="9659907833" lat="61.3030528" lon="10.2370916" version="1" timestamp="2022-04-12T04:53:01Z" changeset="119603148" uid="3497659" user="NKA">
		<tag k="name" v="Stor-Galtrud" />
		<tag k="place" v="farm" />
		<tag k="ssr:stedsnr" v="725896" />
	</node>
	<node id="9659907834" lat="61.2822388" lon="10.3702895" version="1" timestamp="2022-04-12T04:53:01Z" changeset="119603148" uid="3497659" user="NKA">
		<tag k="name" v="Gillebu" />
		<tag k="place" v="hamlet" />
		<tag k="ssr:stedsnr" v="493263" />
	</node>
	<node id="9659907835" lat="61.3370549" lon="10.3055236" version="1" timestamp="2022-04-12T04:53:01Z" changeset="119603148" uid="3497659" user="NKA">
		<tag k="alt_name" v="Steinset" />
		<tag k="name" v="Skogheim" />
		<tag k="place" v="farm" />
		<tag k="ssr:stedsnr" v="68946" />
	</node>
	<node id="9659907836" lat="61.3143432" lon="10.3269347" version="1" timestamp="2022-04-12T04:53:01Z" changeset="119603148" uid="3497659" user="NKA">
		<tag k="name" v="Bleka" />
		<tag k="place" v="farm" />
		<tag k="ssr:stedsnr" v="736822" />
	</node>
	<node id="9659907837" lat="61.2744639" lon="10.2814806" version="1" timestamp="2022-04-12T04:53:01Z" changeset="119603148" uid="3497659" user="NKA">
		<tag k="name" v="Høybakken" />
		<tag k="place" v="isolated_dwelling" />
		<tag k="ssr:stedsnr" v="858878" />
	</node>
	<node id="9659907838" lat="61.298892" lon="10.2702073" version="1" timestamp="2022-04-12T04:53:01Z" changeset="119603148" uid="3497659" user="NKA">
		<tag k="name" v="Holen" />
		<tag k="place" v="farm" />
		<tag k="ssr:stedsnr" v="847636" />
	</node>
	<node id="9659907839" lat="61.2975206" lon="10.2669468" version="1" timestamp="2022-04-12T04:53:01Z" changeset="119603148" uid="3497659" user="NKA">
		<tag k="name" v="Musdalen" />
		<tag k="place" v="quarter" />
		<tag k="ssr:stedsnr" v="858786" />
	</node>
	<node id="9659907840" lat="61.2876387" lon="10.3079534" version="1" timestamp="2022-04-12T04:53:01Z" changeset="119603148" uid="3497659" user="NKA">
		<tag k="name" v="Moheim" />
		<tag k="place" v="farm" />
		<tag k="ssr:stedsnr" v="769501" />
	</node>
	<node id="9659907841" lat="61.3306361" lon="10.2698722" version="1" timestamp="2022-04-12T04:53:01Z" changeset="119603148" uid="3497659" user="NKA">
		<tag k="name" v="Vikmoen" />
		<tag k="place" v="locality" />
		<tag k="ssr:stedsnr" v="891894" />
	</node>
	<node id="9659907842" lat="61.3088596" lon="10.3267207" version="1" timestamp="2022-04-12T04:53:01Z" changeset="119603148" uid="3497659" user="NKA">
		<tag k="alt_name" v="Søre Strangstad" />
		<tag k="name" v="Strangstad" />
		<tag k="place" v="farm" />
		<tag k="ssr:stedsnr" v="858825" />
	</node>
	<node id="9659907843" lat="61.3200002" lon="10.2802369" version="1" timestamp="2022-04-12T04:53:01Z" changeset="119603148" uid="3497659" user="NKA">
		<tag k="name" v="Granro" />
		<tag k="place" v="farm" />
		<tag k="ssr:stedsnr" v="647941" />
	</node>
	<node id="9659907844" lat="61.3368139" lon="10.3391612" version="1" timestamp="2022-04-12T04:53:01Z" changeset="119603148" uid="3497659" user="NKA">
		<tag k="name" v="Nilsholmen" />
		<tag k="place" v="locality" />
		<tag k="ssr:stedsnr" v="708338" />
	</node>
	<node id="9659907845" lat="61.2852696" lon="10.2634442" version="1" timestamp="2022-04-12T04:53:01Z" changeset="119603148" uid="3497659" user="NKA">
		<tag k="name" v="Bjørnstad" />
		<tag k="place" v="hamlet" />
		<tag k="ssr:stedsnr" v="463372" />
	</node>
	<node id="9659907846" lat="61.3118399" lon="10.3239353" version="1" timestamp="2022-04-12T04:53:01Z" changeset="119603148" uid="3497659" user="NKA">
		<tag k="name" v="Nørdre Strangstad" />
		<tag k="place" v="farm" />
		<tag k="ssr:stedsnr" v="645361" />
	</node>
	<node id="9659907847" lat="61.3138721" lon="10.2612026" version="1" timestamp="2022-04-12T04:53:01Z" changeset="119603148" uid="3497659" user="NKA">
		<tag k="name" v="Hanssvea" />
		<tag k="place" v="farm" />
		<tag k="ssr:stedsnr" v="311837" />
	</node>
	<node id="9659907848" lat="61.3411269" lon="10.3130407" version="1" timestamp="2022-04-12T04:53:01Z" changeset="119603148" uid="3497659" user="NKA">
		<tag k="name" v="Kleva" />
		<tag k="place" v="hamlet" />
		<tag k="ssr:stedsnr" v="371952" />
	</node>
	<node id="9659907849" lat="61.2790916" lon="10.3047279" version="1" timestamp="2022-04-12T04:53:01Z" changeset="119603148" uid="3497659" user="NKA">
		<tag k="name" v="Nørdre Skarmoen" />
		<tag k="place" v="locality" />
		<tag k="ssr:stedsnr" v="405477" />
	</node>
	<node id="9659907850" lat="61.2793331" lon="10.3630762" version="1" timestamp="2022-04-12T04:53:01Z" changeset="119603148" uid="3497659" user="NKA">
		<tag k="name" v="Tolstad" />
		<tag k="place" v="farm" />
		<tag k="ssr:stedsnr" v="830591" />
	</node>
	<node id="9659907851" lat="61.2851167" lon="10.3793528" version="1" timestamp="2022-04-12T04:53:01Z" changeset="119603148" uid="3497659" user="NKA">
		<tag k="name" v="Bratt" />
		<tag k="place" v="farm" />
		<tag k="ssr:stedsnr" v="344618" />
	</node>
	<node id="9659907852" lat="61.3064152" lon="10.3266732" version="1" timestamp="2022-04-12T04:53:01Z" changeset="119603148" uid="3497659" user="NKA">
		<tag k="name" v="Strangstadstugua" />
		<tag k="place" v="farm" />
		<tag k="ssr:stedsnr" v="282396" />
	</node>
	<node id="9659907853" lat="61.2889601" lon="10.265649" version="1" timestamp="2022-04-12T04:53:01Z" changeset="119603148" uid="3497659" user="NKA">
		<tag k="name" v="Øygarden" />
		<tag k="place" v="farm" />
		<tag k="ssr:stedsnr" v="191704" />
	</node>
	<node id="9659907854" lat="61.3209614" lon="10.3329573" version="1" timestamp="2022-04-12T04:53:01Z" changeset="119603148" uid="3497659" user="NKA">
		<tag k="name" v="Haugen" />
		<tag k="place" v="farm" />
		<tag k="ssr:stedsnr" v="282293" />
	</node>
	<node id="9659907855" lat="61.3010471" lon="10.342325" version="1" timestamp="2022-04-12T04:53:01Z" changeset="119603148" uid="3497659" user="NKA">
		<tag k="name" v="Veslestulen" />
		<tag k="place" v="locality" />
		<tag k="ssr:stedsnr" v="221311" />
	</node>
	<node id="9659907856" lat="61.2934489" lon="10.2866064" version="1" timestamp="2022-04-12T04:53:01Z" changeset="119603148" uid="3497659" user="NKA">
		<tag k="name" v="Kampen" />
		<tag k="place" v="farm" />
		<tag k="ssr:stedsnr" v="344430" />
	</node>
	<node id="9659907857" lat="61.2284495" lon="10.4712079" version="1" timestamp="2022-04-12T04:53:01Z" changeset="119603148" uid="3497659" user="NKA">
		<tag k="name" v="Høgset" />
		<tag k="place" v="farm" />
		<tag k="ssr:stedsnr" v="951135" />
	</node>
	<node id="9659907858" lat="61.3290583" lon="10.3069077" version="1" timestamp="2022-04-12T04:53:01Z" changeset="119603148" uid="3497659" user="NKA">
		<tag k="name" v="Svehaugen" />
		<tag k="place" v="farm" />
		<tag k="ssr:stedsnr" v="917935" />
	</node>
	<node id="9659907859" lat="61.2907139" lon="10.3894166" version="1" timestamp="2022-04-12T04:53:01Z" changeset="119603148" uid="3497659" user="NKA">
		<tag k="name" v="Nylund" />
		<tag k="place" v="farm" />
		<tag k="ssr:stedsnr" v="828487" />
	</node>
	<node id="9659907860" lat="61.2174945" lon="10.4690445" version="1" timestamp="2022-04-12T04:53:01Z" changeset="119603148" uid="3497659" user="NKA">
		<tag k="name" v="Bekkelund" />
		<tag k="place" v="farm" />
		<tag k="ssr:stedsnr" v="830119" />
	</node>
	<node id="9659907861" lat="61.3288639" lon="10.346875" version="1" timestamp="2022-04-12T04:53:01Z" changeset="119603148" uid="3497659" user="NKA">
		<tag k="historic" v="shieling" />
		<tag k="name" v="Prestgardshemsætra" />
		<tag k="place" v="isolated_dwelling" />
		<tag k="ssr:stedsnr" v="466365" />
	</node>
	<node id="9659907862" lat="61.2186573" lon="10.4699311" version="1" timestamp="2022-04-12T04:53:01Z" changeset="119603148" uid="3497659" user="NKA">
		<tag k="name" v="Simenrud" />
		<tag k="place" v="farm" />
		<tag k="ssr:stedsnr" v="251171" />
	</node>
	<node id="9659907863" lat="61.3814278" lon="10.3771861" version="1" timestamp="2022-04-12T04:53:01Z" changeset="119603148" uid="3497659" user="NKA">
		<tag k="historic" v="shieling" />
		<tag k="name" v="Slåsætra" />
		<tag k="place" v="isolated_dwelling" />
		<tag k="ssr:stedsnr" v="493307" />
	</node>
	<node id="9659907864" lat="61.3787222" lon="10.3749166" version="1" timestamp="2022-04-12T04:53:01Z" changeset="119603148" uid="3497659" user="NKA">
		<tag k="historic" v="shieling" />
		<tag k="name" v="Vedemssætra" />
		<tag k="place" v="isolated_dwelling" />
		<tag k="ssr:stedsnr" v="676292" />
	</node>
	<node id="9659907865" lat="61.3695508" lon="10.3743877" version="1" timestamp="2022-04-12T04:53:01Z" changeset="119603148" uid="3497659" user="NKA">
		<tag k="historic" v="shieling" />
		<tag k="name" v="Glømmesætra" />
		<tag k="place" v="isolated_dwelling" />
		<tag k="ssr:stedsnr" v="554334" />
	</node>
	<node id="9659907866" lat="61.4080166" lon="10.4712416" version="1" timestamp="2022-04-12T04:53:01Z" changeset="119603148" uid="3497659" user="NKA">
		<tag k="alt_name" v="Svarttangslia" />
		<tag k="historic" v="shieling" />
		<tag k="name" v="Svartangslia" />
		<tag k="place" v="isolated_dwelling" />
		<tag k="ssr:stedsnr" v="191307" />
	</node>
	<node id="9659907867" lat="61.3647389" lon="10.3768889" version="1" timestamp="2022-04-12T04:53:01Z" changeset="119603148" uid="3497659" user="NKA">
		<tag k="name" v="Vangakvea" />
		<tag k="place" v="locality" />
		<tag k="ssr:stedsnr" v="344068" />
	</node>
	<node id="9659907868" lat="61.2717347" lon="10.4250537" version="1" timestamp="2022-04-12T04:53:01Z" changeset="119603148" uid="3497659" user="NKA">
		<tag k="alt_name" v="Høvren" />
		<tag k="name" v="Høvre" />
		<tag k="place" v="hamlet" />
		<tag k="ssr:stedsnr" v="796492" />
	</node>
	<node id="9659907869" lat="61.2637794" lon="10.4983667" version="1" timestamp="2022-04-12T04:53:01Z" changeset="119603148" uid="3497659" user="NKA">
		<tag k="name" v="Nermo fjellstue" />
		<tag k="place" v="isolated_dwelling" />
		<tag k="ssr:stedsnr" v="796473" />
	</node>
	<node id="9659907870" lat="61.2602072" lon="10.3913218" version="1" timestamp="2022-04-12T04:53:01Z" changeset="119603148" uid="3497659" user="NKA">
		<tag k="name" v="Bjørkheim" />
		<tag k="place" v="farm" />
		<tag k="ssr:stedsnr" v="614491" />
	</node>
	<node id="9659907871" lat="61.211227" lon="10.4625808" version="1" timestamp="2022-04-12T04:53:01Z" changeset="119603148" uid="3497659" user="NKA">
		<tag k="name" v="Rugsvea" />
		<tag k="place" v="farm" />
		<tag k="ssr:stedsnr" v="796181" />
	</node>
	<node id="9659907872" lat="61.2462166" lon="10.4693583" version="1" timestamp="2022-04-12T04:53:01Z" changeset="119603148" uid="3497659" user="NKA">
		<tag k="name" v="Berge" />
		<tag k="place" v="farm" />
		<tag k="ssr:stedsnr" v="493140" />
	</node>
	<node id="9659907873" lat="61.2514904" lon="10.436907" version="1" timestamp="2022-04-12T04:53:01Z" changeset="119603148" uid="3497659" user="NKA">
		<tag k="name" v="Langvik" />
		<tag k="place" v="farm" />
		<tag k="ssr:stedsnr" v="372494" />
	</node>
	<node id="9659907874" lat="61.2108" lon="10.4678388" version="1" timestamp="2022-04-12T04:53:01Z" changeset="119603148" uid="3497659" user="NKA">
		<tag k="name" v="Brenna" />
		<tag k="place" v="farm" />
		<tag k="ssr:stedsnr" v="128150" />
	</node>
	<node id="9659907875" lat="61.2151278" lon="10.4729361" version="1" timestamp="2022-04-12T04:53:01Z" changeset="119603148" uid="3497659" user="NKA">
		<tag k="name" v="Dølda" />
		<tag k="place" v="farm" />
		<tag k="ssr:stedsnr" v="250189" />
	</node>
	<node id="9659907876" lat="61.2467374" lon="10.4499448" version="1" timestamp="2022-04-12T04:53:01Z" changeset="119603148" uid="3497659" user="NKA">
		<tag k="name" v="Enge" />
		<tag k="place" v="farm" />
		<tag k="ssr:stedsnr" v="68123" />
	</node>
	<node id="9659907877" lat="61.2248076" lon="10.4667253" version="1" timestamp="2022-04-12T04:53:01Z" changeset="119603148" uid="3497659" user="NKA">
		<tag k="name" v="Bjørge" />
		<tag k="place" v="farm" />
		<tag k="ssr:stedsnr" v="129190" />
	</node>
	<node id="9659907878" lat="61.2554334" lon="10.4479584" version="1" timestamp="2022-04-12T04:53:01Z" changeset="119603148" uid="3497659" user="NKA">
		<tag k="name" v="Trodalen" />
		<tag k="place" v="farm" />
		<tag k="ssr:stedsnr" v="951204" />
	</node>
	<node id="9659907879" lat="61.3063694" lon="10.4523611" version="1" timestamp="2022-04-12T04:53:01Z" changeset="119603148" uid="3497659" user="NKA">
		<tag k="historic" v="shieling" />
		<tag k="name" v="Steinsætra" />
		<tag k="place" v="hamlet" />
		<tag k="ssr:stedsnr" v="69293" />
	</node>
	<node id="9659907880" lat="61.2492139" lon="10.4699589" version="1" timestamp="2022-04-12T04:53:01Z" changeset="119603148" uid="3497659" user="NKA">
		<tag k="name" v="Haugen" />
		<tag k="place" v="farm" />
		<tag k="ssr:stedsnr" v="858488" />
	</node>
	<node id="9659907881" lat="61.2086892" lon="10.4448586" version="1" timestamp="2022-04-12T04:53:01Z" changeset="119603148" uid="3497659" user="NKA">
		<tag k="name" v="Skogen" />
		<tag k="place" v="farm" />
		<tag k="ssr:stedsnr" v="891570" />
	</node>
	<node id="9659907882" lat="61.2543989" lon="10.4486986" version="1" timestamp="2022-04-12T04:53:01Z" changeset="119603148" uid="3497659" user="NKA">
		<tag k="name" v="Nordheim" />
		<tag k="place" v="farm" />
		<tag k="ssr:stedsnr" v="736470" />
	</node>
	<node id="9659907883" lat="61.2757082" lon="10.3920426" version="1" timestamp="2022-04-12T04:53:01Z" changeset="119603148" uid="3497659" user="NKA">
		<tag k="name" v="Odden" />
		<tag k="place" v="farm" />
		<tag k="ssr:stedsnr" v="858524" />
	</node>
	<node id="9659907884" lat="61.2154222" lon="10.4975277" version="1" timestamp="2022-04-12T04:53:01Z" changeset="119603148" uid="3497659" user="NKA">
		<tag k="historic" v="shieling" />
		<tag k="name" v="Sandstulen" />
		<tag k="place" v="isolated_dwelling" />
		<tag k="ssr:stedsnr" v="857198" />
	</node>
	<node id="9659907885" lat="61.2023555" lon="10.4912111" version="1" timestamp="2022-04-12T04:53:01Z" changeset="119603148" uid="3497659" user="NKA">
		<tag k="name" v="Hunderhytta" />
		<tag k="place" v="locality" />
		<tag k="ssr:stedsnr" v="645312" />
	</node>
	<node id="9659907886" lat="61.2744883" lon="10.4093914" version="1" timestamp="2022-04-12T04:53:01Z" changeset="119603148" uid="3497659" user="NKA">
		<tag k="name" v="Engjom" />
		<tag k="place" v="farm" />
		<tag k="ssr:stedsnr" v="553481" />
	</node>
	<node id="9659907887" lat="61.2705389" lon="10.4110556" version="1" timestamp="2022-04-12T04:53:01Z" changeset="119603148" uid="3497659" user="NKA">
		<tag k="name" v="Hemen" />
		<tag k="place" v="locality" />
		<tag k="ssr:stedsnr" v="524367" />
	</node>
	<node id="9659907888" lat="61.2133444" lon="10.4568971" version="1" timestamp="2022-04-12T04:53:01Z" changeset="119603148" uid="3497659" user="NKA">
		<tag k="name" v="Svea" />
		<tag k="place" v="farm" />
		<tag k="ssr:stedsnr" v="553165" />
	</node>
	<node id="9659907889" lat="61.183725" lon="10.4175861" version="1" timestamp="2022-04-12T04:53:01Z" changeset="119603148" uid="3497659" user="NKA">
		<tag k="name" v="Nilsstugua" />
		<tag k="place" v="locality" />
		<tag k="ssr:stedsnr" v="466573" />
	</node>
	<node id="9659907890" lat="61.1960639" lon="10.4241314" version="1" timestamp="2022-04-12T04:53:01Z" changeset="119603148" uid="3497659" user="NKA">
		<tag k="name" v="Perstu" />
		<tag k="place" v="farm" />
		<tag k="ssr:stedsnr" v="284576" />
	</node>
	<node id="9659907891" lat="61.2510609" lon="10.4618482" version="1" timestamp="2022-04-12T04:53:01Z" changeset="119603148" uid="3497659" user="NKA">
		<tag k="name" v="Jutulstadhaugen" />
		<tag k="place" v="farm" />
		<tag k="ssr:stedsnr" v="405793" />
	</node>
	<node id="9659907892" lat="61.2767222" lon="10.3924527" version="1" timestamp="2022-04-12T04:53:01Z" changeset="119603148" uid="3497659" user="NKA">
		<tag k="name" v="Bollvika" />
		<tag k="place" v="farm" />
		<tag k="ssr:stedsnr" v="284604" />
	</node>
	<node id="9659907893" lat="61.2040256" lon="10.4572517" version="1" timestamp="2022-04-12T04:53:01Z" changeset="119603148" uid="3497659" user="NKA">
		<tag k="alt_name" v="Øygarden;Bagstadøygarden" />
		<tag k="name" v="Bakstadøygarden" />
		<tag k="place" v="farm" />
		<tag k="ssr:stedsnr" v="250902" />
	</node>
	<node id="9659907894" lat="61.2374444" lon="10.4858111" version="1" timestamp="2022-04-12T04:53:01Z" changeset="119603148" uid="3497659" user="NKA">
		<tag k="historic" v="shieling" />
		<tag k="name" v="Jaersætra" />
		<tag k="place" v="isolated_dwelling" />
		<tag k="ssr:stedsnr" v="282644" />
	</node>
	<node id="9659907895" lat="61.2700523" lon="10.3926342" version="1" timestamp="2022-04-12T04:53:01Z" changeset="119603148" uid="3497659" user="NKA">
		<tag k="name" v="Purkeøygarden" />
		<tag k="place" v="farm" />
		<tag k="ssr:stedsnr" v="282409" />
	</node>
	<node id="9659907896" lat="61.2557928" lon="10.4646572" version="1" timestamp="2022-04-12T04:53:01Z" changeset="119603148" uid="3497659" user="NKA">
		<tag k="name" v="Solberg" />
		<tag k="place" v="farm" />
		<tag k="ssr:stedsnr" v="223213" />
	</node>
	<node id="9659907897" lat="61.2123528" lon="10.4688972" version="1" timestamp="2022-04-12T04:53:01Z" changeset="119603148" uid="3497659" user="NKA">
		<tag k="name" v="Rønningen" />
		<tag k="place" v="farm" />
		<tag k="ssr:stedsnr" v="189162" />
	</node>
	<node id="9659907898" lat="61.25769" lon="10.4877006" version="1" timestamp="2022-04-12T04:53:01Z" changeset="119603148" uid="3497659" user="NKA">
		<tag k="name" v="Bottrudlyua" />
		<tag k="place" v="locality" />
		<tag k="ssr:stedsnr" v="403844" />
	</node>
	<node id="9659907899" lat="61.2974917" lon="10.4488138" version="1" timestamp="2022-04-12T04:53:01Z" changeset="119603148" uid="3497659" user="NKA">
		<tag k="name" v="Bårdstulen" />
		<tag k="place" v="locality" />
		<tag k="ssr:stedsnr" v="221761" />
	</node>
	<node id="9659907900" lat="61.2093338" lon="10.4317534" version="1" timestamp="2022-04-12T04:53:01Z" changeset="119603148" uid="3497659" user="NKA">
		<tag k="alt_name" v="Sletta" />
		<tag k="name" v="Midtskog" />
		<tag k="place" v="farm" />
		<tag k="ssr:stedsnr" v="917144" />
	</node>
	<node id="9659907901" lat="61.3080889" lon="10.332036" version="1" timestamp="2022-04-12T04:53:01Z" changeset="119603148" uid="3497659" user="NKA">
		<tag k="name" v="Strangstadhågån" />
		<tag k="place" v="farm" />
		<tag k="ssr:stedsnr" v="949348" />
	</node>
	<node id="9659907902" lat="61.2115408" lon="10.4557791" version="1" timestamp="2022-04-12T04:53:01Z" changeset="119603148" uid="3497659" user="NKA">
		<tag k="name" v="Asplund" />
		<tag k="place" v="farm" />
		<tag k="ssr:stedsnr" v="830623" />
	</node>
	<node id="9659907903" lat="61.2911" lon="10.3485611" version="1" timestamp="2022-04-12T04:53:01Z" changeset="119603148" uid="3497659" user="NKA">
		<tag k="alt_name" v="Nordhagen" />
		<tag k="name" v="Nordhågån" />
		<tag k="place" v="farm" />
		<tag k="ssr:stedsnr" v="918319" />
	</node>
	<node id="9659907904" lat="61.3969054" lon="10.4763274" version="1" timestamp="2022-04-12T04:53:01Z" changeset="119603148" uid="3497659" user="NKA">
		<tag k="historic" v="shieling" />
		<tag k="name" v="Kaldbekken" />
		<tag k="place" v="isolated_dwelling" />
		<tag k="ssr:stedsnr" v="433312" />
	</node>
	<node id="9659907905" lat="61.2198155" lon="10.4646886" version="1" timestamp="2022-04-12T04:53:01Z" changeset="119603148" uid="3497659" user="NKA">
		<tag k="name" v="Lauvlia" />
		<tag k="place" v="farm" />
		<tag k="ssr:stedsnr" v="675194" />
	</node>
	<node id="9659907906" lat="61.2961611" lon="10.6123112" version="1" timestamp="2022-04-12T04:53:01Z" changeset="119603148" uid="3497659" user="NKA">
		<tag k="historic" v="shieling" />
		<tag k="name" v="Gullbringen" />
		<tag k="old_name" v="Gullbringa;Guldbringen" />
		<tag k="place" v="hamlet" />
		<tag k="ssr:stedsnr" v="190291" />
	</node>
	<node id="9659907907" lat="61.3054389" lon="10.6360723" version="1" timestamp="2022-04-12T04:53:01Z" changeset="119603148" uid="3497659" user="NKA">
		<tag k="name" v="Brennlia" />
		<tag k="place" v="hamlet" />
		<tag k="ssr:stedsnr" v="554291" />
	</node>
	<node id="9659907908" lat="61.3341079" lon="10.3287138" version="1" timestamp="2022-04-12T04:53:01Z" changeset="119603148" uid="3497659" user="NKA">
		<tag k="name" v="Granheim" />
		<tag k="place" v="farm" />
		<tag k="ssr:stedsnr" v="585283" />
	</node>
	<node id="9659907909" lat="61.2626292" lon="10.5737176" version="1" timestamp="2022-04-12T04:53:01Z" changeset="119603148" uid="3497659" user="NKA">
		<tag k="historic" v="shieling" />
		<tag k="name" v="Veslsætra" />
		<tag k="place" v="isolated_dwelling" />
		<tag k="ssr:stedsnr" v="8505" />
	</node>
	<node id="9659907910" lat="61.2324973" lon="10.4450611" version="1" timestamp="2022-04-12T04:53:01Z" changeset="119603148" uid="3497659" user="NKA">
		<tag k="name" v="Åberg" />
		<tag k="place" v="locality" />
		<tag k="ssr:stedsnr" v="466157" />
	</node>
	<node id="9659907911" lat="61.2344981" lon="10.4619483" version="1" timestamp="2022-04-12T04:53:01Z" changeset="119603148" uid="3497659" user="NKA">
		<tag k="name" v="Kaldhol" />
		<tag k="place" v="farm" />
		<tag k="ssr:stedsnr" v="554159" />
	</node>
	<node id="9659907912" lat="61.3444507" lon="10.2926626" version="1" timestamp="2022-04-12T04:53:01Z" changeset="119603148" uid="3497659" user="NKA">
		<tag k="name" v="Sandvik" />
		<tag k="place" v="farm" />
		<tag k="ssr:stedsnr" v="433958" />
	</node>
	<node id="9659907913" lat="61.4487825" lon="10.6422061" version="1" timestamp="2022-04-12T04:53:01Z" changeset="119603148" uid="3497659" user="NKA">
		<tag k="alt_name" v="Eldåhytta" />
		<tag k="name" v="Eldåbua" />
		<tag k="place" v="locality" />
		<tag k="ssr:stedsnr" v="372367" />
	</node>
	<node id="9659907914" lat="61.3400168" lon="10.60393" version="1" timestamp="2022-04-12T04:53:01Z" changeset="119603148" uid="3497659" user="NKA">
		<tag k="historic" v="shieling" />
		<tag k="name" v="Akksjøsætra" />
		<tag k="place" v="hamlet" />
		<tag k="ssr:stedsnr" v="919272" />
	</node>
	<node id="9659907915" lat="61.2533755" lon="10.4097531" version="1" timestamp="2022-04-12T04:53:01Z" changeset="119603148" uid="3497659" user="NKA">
		<tag k="name" v="Svea" />
		<tag k="place" v="farm" />
		<tag k="ssr:stedsnr" v="129469" />
	</node>
	<node id="9659907916" lat="61.2780649" lon="10.3872692" version="1" timestamp="2022-04-12T04:53:01Z" changeset="119603148" uid="3497659" user="NKA">
		<tag k="name" v="Blomberg" />
		<tag k="place" v="farm" />
		<tag k="ssr:stedsnr" v="344622" />
	</node>
	<node id="9659907917" lat="61.2152834" lon="10.4569694" version="1" timestamp="2022-04-12T04:53:01Z" changeset="119603148" uid="3497659" user="NKA">
		<tag k="name" v="Solli" />
		<tag k="place" v="farm" />
		<tag k="ssr:stedsnr" v="250183" />
	</node>
	<node id="9659907918" lat="61.4012084" lon="10.7194" version="1" timestamp="2022-04-12T04:53:01Z" changeset="119603148" uid="3497659" user="NKA">
		<tag k="name" v="Steinhytta" />
		<tag k="place" v="isolated_dwelling" />
		<tag k="ssr:stedsnr" v="129421" />
	</node>
	<node id="9659907919" lat="61.2338472" lon="10.4798111" version="1" timestamp="2022-04-12T04:53:01Z" changeset="119603148" uid="3497659" user="NKA">
		<tag k="historic" v="shieling" />
		<tag k="name" v="Kaldholsætra" />
		<tag k="place" v="isolated_dwelling" />
		<tag k="ssr:stedsnr" v="129177" />
	</node>
	<node id="9659907920" lat="61.2133972" lon="10.4383583" version="1" timestamp="2022-04-12T04:53:01Z" changeset="119603148" uid="3497659" user="NKA">
		<tag k="name" v="Langsvea" />
		<tag k="place" v="locality" />
		<tag k="ssr:stedsnr" v="128149" />
	</node>
	<node id="9659907921" lat="61.3003" lon="10.2137805" version="1" timestamp="2022-04-12T04:53:01Z" changeset="119603148" uid="3497659" user="NKA">
		<tag k="alt_name" v="Ingridskogen" />
		<tag k="name" v="Ingeridskogen" />
		<tag k="place" v="hamlet" />
		<tag k="ssr:stedsnr" v="554806" />
	</node>
	<node id="9659907922" lat="61.3207036" lon="10.2070595" version="1" timestamp="2022-04-12T04:53:01Z" changeset="119603148" uid="3497659" user="NKA">
		<tag k="alt_name" v="Musdalsætra" />
		<tag k="historic" v="shieling" />
		<tag k="name" v="Musdalssætra" />
		<tag k="place" v="hamlet" />
		<tag k="ssr:stedsnr" v="493948" />
	</node>
	<node id="9659907923" lat="61.2800967" lon="10.411813" version="1" timestamp="2022-04-12T04:53:01Z" changeset="119603148" uid="3497659" user="NKA">
		<tag k="name" v="Bøbakken" />
		<tag k="place" v="farm" />
		<tag k="ssr:stedsnr" v="736279" />
	</node>
	<node id="9659907924" lat="61.3050345" lon="10.2345772" version="1" timestamp="2022-04-12T04:53:01Z" changeset="119603148" uid="3497659" user="NKA">
		<tag k="name" v="Opptun" />
		<tag k="place" v="farm" />
		<tag k="ssr:stedsnr" v="494759" />
	</node>
	<node id="9659907925" lat="61.2445555" lon="10.439186" version="1" timestamp="2022-04-12T04:53:01Z" changeset="119603148" uid="3497659" user="NKA">
		<tag k="name" v="Granrud" />
		<tag k="place" v="farm" />
		<tag k="ssr:stedsnr" v="493141" />
	</node>
	<node id="9659907926" lat="61.2823387" lon="10.4199369" version="1" timestamp="2022-04-12T04:53:01Z" changeset="119603148" uid="3497659" user="NKA">
		<tag k="name" v="Åsheim" />
		<tag k="place" v="farm" />
		<tag k="ssr:stedsnr" v="525548" />
	</node>
	<node id="9659907927" lat="61.2191593" lon="10.4686938" version="1" timestamp="2022-04-12T04:53:01Z" changeset="119603148" uid="3497659" user="NKA">
		<tag k="alt_name" v="Høyby" />
		<tag k="name" v="Bjørgesætra" />
		<tag k="old_name" v="Høiby" />
		<tag k="place" v="farm" />
		<tag k="ssr:stedsnr" v="433166" />
	</node>
	<node id="9659907928" lat="61.2499946" lon="10.4255122" version="1" timestamp="2022-04-12T04:53:01Z" changeset="119603148" uid="3497659" user="NKA">
		<tag k="name" v="Langlykkja" />
		<tag k="place" v="farm" />
		<tag k="ssr:stedsnr" v="493457" />
	</node>
	<node id="9659907929" lat="61.237054" lon="10.4624779" version="1" timestamp="2022-04-12T04:53:01Z" changeset="119603148" uid="3497659" user="NKA">
		<tag k="alt_name" v="Jaer" />
		<tag k="name" v="Jar" />
		<tag k="place" v="farm" />
		<tag k="ssr:stedsnr" v="371145" />
	</node>
	<node id="9659907930" lat="61.2815359" lon="10.4208394" version="1" timestamp="2022-04-12T04:53:01Z" changeset="119603148" uid="3497659" user="NKA">
		<tag k="name" v="Hågålykkja" />
		<tag k="place" v="farm" />
		<tag k="ssr:stedsnr" v="433254" />
	</node>
	<node id="9659907931" lat="61.2258473" lon="10.4861584" version="1" timestamp="2022-04-12T04:53:01Z" changeset="119603148" uid="3497659" user="NKA">
		<tag k="historic" v="shieling" />
		<tag k="name" v="Nestingsætra" />
		<tag k="place" v="isolated_dwelling" />
		<tag k="ssr:stedsnr" v="129176" />
	</node>
	<node id="9659907932" lat="61.2303094" lon="10.461646" version="1" timestamp="2022-04-12T04:53:01Z" changeset="119603148" uid="3497659" user="NKA">
		<tag k="name" v="Nestingen" />
		<tag k="place" v="farm" />
		<tag k="ssr:stedsnr" v="433151" />
	</node>
	<node id="9659907933" lat="61.1979306" lon="10.4269334" version="1" timestamp="2022-04-12T04:53:01Z" changeset="119603148" uid="3497659" user="NKA">
		<tag k="alt_name" v="Ensbybrenna" />
		<tag k="name" v="Einsbybrenna" />
		<tag k="place" v="farm" />
		<tag k="ssr:stedsnr" v="128917" />
	</node>
	<node id="9659907934" lat="61.2214944" lon="10.4475865" version="1" timestamp="2022-04-12T04:53:01Z" changeset="119603148" uid="3497659" user="NKA">
		<tag k="alt_name" v="Fossegarden" />
		<tag k="name" v="Fossøygarden" />
		<tag k="place" v="farm" />
		<tag k="ssr:stedsnr" v="129184" />
	</node>
	<node id="9659907935" lat="61.2550502" lon="10.4114593" version="1" timestamp="2022-04-12T04:53:01Z" changeset="119603148" uid="3497659" user="NKA">
		<tag k="name" v="Sletthaugen" />
		<tag k="place" v="farm" />
		<tag k="ssr:stedsnr" v="39385" />
	</node>
	<node id="9659907936" lat="61.2241565" lon="10.4612816" version="1" timestamp="2022-04-12T04:53:01Z" changeset="119603148" uid="3497659" user="NKA">
		<tag k="name" v="Haverlykkja" />
		<tag k="place" v="farm" />
		<tag k="ssr:stedsnr" v="101661" />
	</node>
	<node id="9659907937" lat="61.2867487" lon="10.4077267" version="1" timestamp="2022-04-12T04:53:01Z" changeset="119603148" uid="3497659" user="NKA">
		<tag k="name" v="Høglia" />
		<tag k="place" v="farm" />
		<tag k="ssr:stedsnr" v="39448" />
	</node>
	<node id="9659907938" lat="61.1935889" lon="10.4215277" version="1" timestamp="2022-04-12T04:53:01Z" changeset="119603148" uid="3497659" user="NKA">
		<tag k="alt_name" v="Ensbybakken" />
		<tag k="name" v="Einsbybakken" />
		<tag k="place" v="farm" />
		<tag k="ssr:stedsnr" v="68918" />
	</node>
	<node id="9659907939" lat="61.2858927" lon="10.4097291" version="1" timestamp="2022-04-12T04:53:01Z" changeset="119603148" uid="3497659" user="NKA">
		<tag k="name" v="Teige" />
		<tag k="place" v="farm" />
		<tag k="ssr:stedsnr" v="949432" />
	</node>
	<node id="9659907940" lat="61.2166432" lon="10.4512791" version="1" timestamp="2022-04-12T04:53:01Z" changeset="119603148" uid="3497659" user="NKA">
		<tag k="name" v="Hunder" />
		<tag k="place" v="hamlet" />
		<tag k="ssr:stedsnr" v="7185" />
	</node>
	<node id="9659907941" lat="61.227798" lon="10.4598304" version="1" timestamp="2022-04-12T04:53:01Z" changeset="119603148" uid="3497659" user="NKA">
		<tag k="name" v="Stubberud" />
		<tag k="place" v="farm" />
		<tag k="ssr:stedsnr" v="858159" />
	</node>
	<node id="9659907942" lat="61.2045715" lon="10.4357218" version="1" timestamp="2022-04-12T04:53:01Z" changeset="119603148" uid="3497659" user="NKA">
		<tag k="alt_name" v="Sagstugua" />
		<tag k="name" v="Sagstua" />
		<tag k="place" v="isolated_dwelling" />
		<tag k="ssr:stedsnr" v="735911" />
	</node>
	<node id="9659907943" lat="61.273208" lon="10.4688446" version="1" timestamp="2022-04-12T04:53:01Z" changeset="119603148" uid="3497659" user="NKA">
		<tag k="alt_name" v="Brynsætra" />
		<tag k="historic" v="shieling" />
		<tag k="name" v="Brynssætra" />
		<tag k="place" v="isolated_dwelling" />
		<tag k="ssr:stedsnr" v="614502" />
	</node>
	<node id="9659907944" lat="61.2638444" lon="10.407311" version="1" timestamp="2022-04-12T04:53:01Z" changeset="119603148" uid="3497659" user="NKA">
		<tag k="name" v="Vestheim" />
		<tag k="place" v="farm" />
		<tag k="ssr:stedsnr" v="706404" />
	</node>
	<node id="9659907945" lat="61.2315649" lon="10.4697957" version="1" timestamp="2022-04-12T04:53:01Z" changeset="119603148" uid="3497659" user="NKA">
		<tag k="name" v="Larshågån" />
		<tag k="place" v="farm" />
		<tag k="ssr:stedsnr" v="647670" />
	</node>
	<node id="9659907946" lat="61.1875611" lon="10.4157138" version="1" timestamp="2022-04-12T04:53:01Z" changeset="119603148" uid="3497659" user="NKA">
		<tag k="name" v="Kallykkja" />
		<tag k="place" v="locality" />
		<tag k="ssr:stedsnr" v="647570" />
	</node>
	<node id="9659907947" lat="61.2619614" lon="10.38783" version="1" timestamp="2022-04-12T04:53:01Z" changeset="119603148" uid="3497659" user="NKA">
		<tag k="name" v="Skog" />
		<tag k="place" v="farm" />
		<tag k="ssr:stedsnr" v="646449" />
	</node>
	<node id="9659907948" lat="61.2196399" lon="10.4674299" version="1" timestamp="2022-04-12T04:53:01Z" changeset="119603148" uid="3497659" user="NKA">
		<tag k="name" v="Sveen" />
		<tag k="place" v="farm" />
		<tag k="ssr:stedsnr" v="647160" />
	</node>
	<node id="9659907949" lat="61.275312" lon="10.4267879" version="1" timestamp="2022-04-12T04:53:01Z" changeset="119603148" uid="3497659" user="NKA">
		<tag k="name" v="Krukhaugen" />
		<tag k="place" v="farm" />
		<tag k="ssr:stedsnr" v="645512" />
	</node>
	<node id="9659907950" lat="61.2573934" lon="10.39161" version="1" timestamp="2022-04-12T04:53:01Z" changeset="119603148" uid="3497659" user="NKA">
		<tag k="name" v="Flatstulsbakken" />
		<tag k="place" v="farm" />
		<tag k="ssr:stedsnr" v="646450" />
	</node>
	<node id="9659907951" lat="61.2318487" lon="10.4627615" version="1" timestamp="2022-04-12T04:53:01Z" changeset="119603148" uid="3497659" user="NKA">
		<tag k="name" v="Solberg" />
		<tag k="place" v="farm" />
		<tag k="ssr:stedsnr" v="554158" />
	</node>
	<node id="9659907952" lat="61.2658237" lon="10.4396449" version="1" timestamp="2022-04-12T04:53:01Z" changeset="119603148" uid="3497659" user="NKA">
		<tag k="name" v="Midtli" />
		<tag k="place" v="farm" />
		<tag k="ssr:stedsnr" v="526212" />
	</node>
	<node id="9659907953" lat="61.2873573" lon="10.3893458" version="1" timestamp="2022-04-12T04:53:01Z" changeset="119603148" uid="3497659" user="NKA">
		<tag k="name" v="Roa" />
		<tag k="place" v="farm" />
		<tag k="ssr:stedsnr" v="655502" />
	</node>
	<node id="9659907954" lat="61.2631778" lon="10.4767723" version="1" timestamp="2022-04-12T04:53:01Z" changeset="119603148" uid="3497659" user="NKA">
		<tag k="alt_name" v="Øverli hemsætra" />
		<tag k="historic" v="shieling" />
		<tag k="name" v="Øverlisætra" />
		<tag k="place" v="isolated_dwelling" />
		<tag k="ssr:stedsnr" v="675503" />
	</node>
	<node id="9659907955" lat="61.2916273" lon="10.3950838" version="1" timestamp="2022-04-12T04:53:01Z" changeset="119603148" uid="3497659" user="NKA">
		<tag k="name" v="Olstadjordet" />
		<tag k="place" v="farm" />
		<tag k="ssr:stedsnr" v="412539" />
	</node>
	<node id="9659907956" lat="61.2744944" lon="10.4071666" version="1" timestamp="2022-04-12T04:53:01Z" changeset="119603148" uid="3497659" user="NKA">
		<tag k="name" v="Gunnerstugu" />
		<tag k="place" v="locality" />
		<tag k="ssr:stedsnr" v="888385" />
	</node>
	<node id="9659907957" lat="61.2439561" lon="10.4261829" version="1" timestamp="2022-04-12T04:53:01Z" changeset="119603148" uid="3497659" user="NKA">
		<tag k="name" v="Linde" />
		<tag k="place" v="farm" />
		<tag k="ssr:stedsnr" v="830797" />
	</node>
	<node id="9659907958" lat="61.2056033" lon="10.4601842" version="1" timestamp="2022-04-12T04:53:01Z" changeset="119603148" uid="3497659" user="NKA">
		<tag k="alt_name" v="Bagstad" />
		<tag k="name" v="Bakstad" />
		<tag k="place" v="hamlet" />
		<tag k="ssr:stedsnr" v="371923" />
	</node>
	<node id="9659907959" lat="61.2638607" lon="10.4246354" version="1" timestamp="2022-04-12T04:53:01Z" changeset="119603148" uid="3497659" user="NKA">
		<tag k="name" v="Øyer prestegard" />
		<tag k="place" v="farm" />
		<tag k="ssr:stedsnr" v="405197" />
	</node>
	<node id="9659907960" lat="61.2451333" lon="10.4523111" version="1" timestamp="2022-04-12T04:53:01Z" changeset="119603148" uid="3497659" user="NKA">
		<tag k="name" v="Lillenermo" />
		<tag k="place" v="farm" />
		<tag k="ssr:stedsnr" v="830824" />
	</node>
	<node id="9659907961" lat="61.2176032" lon="10.4655644" version="1" timestamp="2022-04-12T04:53:01Z" changeset="119603148" uid="3497659" user="NKA">
		<tag k="name" v="Rusta" />
		<tag k="place" v="farm" />
		<tag k="ssr:stedsnr" v="283102" />
	</node>
	<node id="9659907962" lat="61.2221228" lon="10.4612654" version="1" timestamp="2022-04-12T04:53:01Z" changeset="119603148" uid="3497659" user="NKA">
		<tag k="name" v="Ilhågån" />
		<tag k="place" v="farm" />
		<tag k="ssr:stedsnr" v="283646" />
	</node>
	<node id="9659907963" lat="61.2213873" lon="10.4649001" version="1" timestamp="2022-04-12T04:53:01Z" changeset="119603148" uid="3497659" user="NKA">
		<tag k="name" v="Liom" />
		<tag k="place" v="farm" />
		<tag k="ssr:stedsnr" v="223134" />
	</node>
	<node id="9659907964" lat="61.2311583" lon="10.4751194" version="1" timestamp="2022-04-12T04:53:01Z" changeset="119603148" uid="3497659" user="NKA">
		<tag k="name" v="Gunnerheimen" />
		<tag k="place" v="locality" />
		<tag k="ssr:stedsnr" v="283578" />
	</node>
	<node id="9659907965" lat="61.2763175" lon="10.4174148" version="1" timestamp="2022-04-12T04:53:01Z" changeset="119603148" uid="3497659" user="NKA">
		<tag k="name" v="Bjørkli" />
		<tag k="place" v="farm" />
		<tag k="ssr:stedsnr" v="342439" />
	</node>
	<node id="9659907966" lat="61.2577027" lon="10.4012695" version="1" timestamp="2022-04-12T04:53:01Z" changeset="119603148" uid="3497659" user="NKA">
		<tag k="name" v="Smerud" />
		<tag k="place" v="farm" />
		<tag k="ssr:stedsnr" v="342407" />
	</node>
	<node id="9659907967" lat="61.2274915" lon="10.4508029" version="1" timestamp="2022-04-12T04:53:01Z" changeset="119603148" uid="3497659" user="NKA">
		<tag k="alt_name" v="Mokrud" />
		<tag k="name" v="Måkrud" />
		<tag k="place" v="farm" />
		<tag k="ssr:stedsnr" v="190160" />
	</node>
	<node id="9659907968" lat="61.1914073" lon="10.4203854" version="1" timestamp="2022-04-12T04:53:01Z" changeset="119603148" uid="3497659" user="NKA">
		<tag k="alt_name" v="Ensby" />
		<tag k="name" v="Einsby" />
		<tag k="place" v="hamlet" />
		<tag k="ssr:stedsnr" v="189921" />
	</node>
	<node id="9659907969" lat="61.2058416" lon="10.4286695" version="1" timestamp="2022-04-12T04:53:01Z" changeset="119603148" uid="3497659" user="NKA">
		<tag k="name" v="Berg" />
		<tag k="place" v="farm" />
		<tag k="ssr:stedsnr" v="189901" />
	</node>
	<node id="9659907970" lat="61.2674722" lon="10.5059168" version="1" timestamp="2022-04-12T04:53:01Z" changeset="119603148" uid="3497659" user="NKA">
		<tag k="name" v="Nerlisætra" />
		<tag k="place" v="farm" />
		<tag k="ssr:stedsnr" v="39810" />
	</node>
	<node id="9659907971" lat="61.199986" lon="10.428625" version="1" timestamp="2022-04-12T04:53:01Z" changeset="119603148" uid="3497659" user="NKA">
		<tag k="name" v="Nordby" />
		<tag k="place" v="farm" />
		<tag k="ssr:stedsnr" v="68908" />
	</node>
	<node id="9659907972" lat="61.2662556" lon="10.4571277" version="1" timestamp="2022-04-12T04:53:01Z" changeset="119603148" uid="3497659" user="NKA">
		<tag k="name" v="Snurubakken" />
		<tag k="place" v="locality" />
		<tag k="ssr:stedsnr" v="41255" />
	</node>
	<node id="9659907973" lat="61.2693312" lon="10.4218898" version="1" timestamp="2022-04-12T04:53:01Z" changeset="119603148" uid="3497659" user="NKA">
		<tag k="name" v="Skarpjordet" />
		<tag k="place" v="farm" />
		<tag k="ssr:stedsnr" v="41223" />
	</node>
	<node id="9659907974" lat="61.2190666" lon="10.4524888" version="1" timestamp="2022-04-12T04:53:01Z" changeset="119603148" uid="3497659" user="NKA">
		<tag k="name" v="Sygardsjordet" />
		<tag k="place" v="locality" />
		<tag k="ssr:stedsnr" v="40619" />
	</node>
	<node id="9659907975" lat="61.2208337" lon="10.4597846" version="1" timestamp="2022-04-12T04:53:01Z" changeset="119603148" uid="3497659" user="NKA">
		<tag k="name" v="Ilhaugen" />
		<tag k="place" v="farm" />
		<tag k="ssr:stedsnr" v="40677" />
	</node>
	<node id="9659907976" lat="61.2792261" lon="10.4059903" version="1" timestamp="2022-04-12T04:53:01Z" changeset="119603148" uid="3497659" user="NKA">
		<tag k="name" v="Bø" />
		<tag k="place" v="farm" />
		<tag k="ssr:stedsnr" v="8521" />
	</node>
	<node id="9659907977" lat="61.2704545" lon="10.4202779" version="1" timestamp="2022-04-12T04:53:01Z" changeset="119603148" uid="3497659" user="NKA">
		<tag k="name" v="Bergom" />
		<tag k="place" v="farm" />
		<tag k="ssr:stedsnr" v="8514" />
	</node>
	<node id="9659907978" lat="61.2499381" lon="10.4171671" version="1" timestamp="2022-04-12T04:53:01Z" changeset="119603148" uid="3497659" user="NKA">
		<tag k="name" v="Rusta" />
		<tag k="place" v="farm" />
		<tag k="ssr:stedsnr" v="8494" />
	</node>
	<node id="9659907979" lat="61.2355931" lon="10.4457415" version="1" timestamp="2022-04-12T04:53:01Z" changeset="119603148" uid="3497659" user="NKA">
		<tag k="name" v="Åsletta" />
		<tag k="place" v="farm" />
		<tag k="ssr:stedsnr" v="8152" />
	</node>
	<node id="9659907980" lat="61.2800472" lon="10.8268" version="1" timestamp="2022-04-12T04:53:01Z" changeset="119603148" uid="3497659" user="NKA">
		<tag k="historic" v="shieling" />
		<tag k="name" v="Snultra" />
		<tag k="place" v="isolated_dwelling" />
		<tag k="ssr:stedsnr" v="69397" />
	</node>
	<node id="9659907981" lat="61.2064722" lon="10.5184333" version="1" timestamp="2022-04-12T04:53:01Z" changeset="119603148" uid="3497659" user="NKA">
		<tag k="historic" v="shieling" />
		<tag k="name" v="Slåsætra" />
		<tag k="place" v="isolated_dwelling" />
		<tag k="ssr:stedsnr" v="7916" />
	</node>
	<node id="9659907982" lat="61.3058361" lon="10.7691029" version="1" timestamp="2022-04-12T04:53:01Z" changeset="119603148" uid="3497659" user="NKA">
		<tag k="name" v="Perbua" />
		<tag k="place" v="isolated_dwelling" />
		<tag k="ssr:stedsnr" v="8423" />
	</node>
</osm>
