<?xml version="1.0" encoding="UTF-8"?>
<<<<<<< HEAD
<osm version="0.6" generator="osmapis">
	<node lat="60.73481110868793" lon="10.667619436732567" id="-17436">
		<tag k="name" v="Lerudmyra" />
		<tag k="natural" v="wetland" />
		<tag k="ssr:stedsnr" v="7417" />
	</node>
	<node lat="60.59704166442994" lon="10.554883331740786" id="-17446">
		<tag k="name" v="Mærramyra" />
		<tag k="natural" v="wetland" />
		<tag k="ssr:stedsnr" v="39534" />
	</node>
	<node lat="60.706852774442496" lon="10.560075000582597" id="-17449">
		<tag k="name" v="Rundmyra" />
		<tag k="natural" v="wetland" />
		<tag k="ssr:stedsnr" v="40440" />
	</node>
	<node lat="60.66768055228068" lon="10.571188879596058" id="-17458">
		<tag k="alt_name" v="Setermyra" />
		<tag k="name" v="Sætermyrene" />
		<tag k="natural" v="wetland" />
		<tag k="ssr:stedsnr" v="67305" />
	</node>
	<node lat="60.68934166687353" lon="10.516902772879723" id="-17461">
		<tag k="name" v="Lunnasætermyra" />
		<tag k="natural" v="wetland" />
		<tag k="ssr:stedsnr" v="68342" />
	</node>
	<node lat="60.70948332927313" lon="10.697538886021508" id="-17476">
		<tag k="name" v="Helsetmyra" />
		<tag k="natural" v="wetland" />
		<tag k="ssr:stedsnr" v="249397" />
	</node>
	<node lat="60.5175297038494" lon="10.647477272832969" id="-17483">
		<tag k="name" v="Stormyra" />
		<tag k="natural" v="wetland" />
		<tag k="ssr:stedsnr" v="250065" />
	</node>
	<node lat="60.67585555680509" lon="10.686649993732173" id="-17492">
		<tag k="landuse" v="meadow" />
		<tag k="name" v="Blåflat" />
		<tag k="ssr:stedsnr" v="116521" />
	</node>
	<node lat="60.63500833441682" lon="10.547919442636157" id="-17545">
		<tag k="name" v="Skjelbreimyra" />
		<tag k="natural" v="wetland" />
		<tag k="ssr:stedsnr" v="223388" />
	</node>
	<node lat="60.61166666949906" lon="10.564375009055786" id="-17546">
		<tag k="name" v="Hågårmoen" />
		<tag k="place" v="locality" />
		<tag k="ssr:stedsnr" v="223638" />
	</node>
	<node lat="60.684669446720044" lon="10.514852775751669" id="-17566">
		<tag k="historic" v="shieling" />
		<tag k="name" v="Lunnasetervollen" />
		<tag k="place" v="locality" />
		<tag k="ssr:stedsnr" v="465450" />
	</node>
	<node lat="60.629316667702206" lon="10.639444441405608" id="-17570">
		<tag k="name" v="Fjerdingsmyra" />
		<tag k="natural" v="wetland" />
		<tag k="ssr:stedsnr" v="310207" />
	</node>
	<node lat="60.71806388645399" lon="10.697936115596615" id="-17589">
		<tag k="name" v="Refsmyra" />
=======
<osm generator="osmapis" version="0.6">
	<node id="-384768" lat="60.6366111134" lon="10.5493416633">
		<tag k="name" v="Jønnmyra" />
>>>>>>> e1d4bc35ff8a6074a6f2e91616a996b547c36f15
		<tag k="natural" v="wetland" />
		<tag k="ssr:stedsnr" v="466798" />
	</node>
<<<<<<< HEAD
	<node lat="60.63243610863112" lon="10.588891672171842" id="-17593">
		<tag k="name" v="Vadmyra" />
		<tag k="natural" v="wetland" />
		<tag k="ssr:stedsnr" v="344403" />
	</node>
	<node lat="60.67964444496685" lon="10.685786107957803" id="-17612">
		<tag k="name" v="Danmark" />
		<tag k="natural" v="wetland" />
		<tag k="ssr:stedsnr" v="419499" />
	</node>
	<node lat="60.69460833497195" lon="10.530483341329" id="-17642">
		<tag k="name" v="Driterbakkmyra" />
		<tag k="natural" v="wetland" />
		<tag k="ssr:stedsnr" v="492362" />
	</node>
	<node lat="60.51838611075493" lon="10.667633329390808" id="-17646">
		<tag k="historic" v="shieling" />
		<tag k="name" v="Lundvollen" />
		<tag k="place" v="locality" />
		<tag k="ssr:stedsnr" v="457524" />
	</node>
	<node lat="60.654055553103355" lon="10.565752786724863" id="-17661">
=======
	<node id="-384637" lat="60.6540555531" lon="10.5657527867">
>>>>>>> e1d4bc35ff8a6074a6f2e91616a996b547c36f15
		<tag k="name" v="Saksebøle" />
		<tag k="place" v="locality" />
		<tag k="ssr:stedsnr" v="466408" />
	</node>
<<<<<<< HEAD
	<node lat="60.70704999615554" lon="10.61571388826534" id="-17691">
		<tag k="name" v="Dragerskogen" />
		<tag k="place" v="locality" />
		<tag k="ssr:stedsnr" v="552439" />
	</node>
	<node lat="60.66140000414681" lon="10.575077769219906" id="-17719">
		<tag k="alt_name" v="Sorgenmyra" />
		<tag k="name" v="Sørgenmyra" />
		<tag k="natural" v="wetland" />
		<tag k="ssr:stedsnr" v="613314" />
	</node>
	<node lat="60.556569442831346" lon="10.574825004925673" id="-17728">
=======
	<node id="-384764" lat="60.5186000026" lon="10.6998277827">
		<tag k="name" v="Rundmyra" />
		<tag k="natural" v="wetland" />
		<tag k="ssr:stedsnr" v="917060" />
	</node>
	<node id="-384888" lat="60.5752277793" lon="10.5534166676">
		<tag k="name" v="Teljemyra" />
		<tag k="natural" v="wetland" />
		<tag k="ssr:stedsnr" v="97591" />
	</node>
	<node id="-385143" lat="60.5565694428" lon="10.5748250049">
>>>>>>> e1d4bc35ff8a6074a6f2e91616a996b547c36f15
		<tag k="name" v="Prestemarka" />
		<tag k="place" v="locality" />
		<tag k="ssr:stedsnr" v="639716" />
	</node>
<<<<<<< HEAD
	<node lat="60.67566111317358" lon="10.49345000031829" id="-17740">
		<tag k="name" v="Skjærdalsmarka" />
		<tag k="place" v="locality" />
		<tag k="ssr:stedsnr" v="890493" />
	</node>
	<node lat="60.574191668523056" lon="10.591069452034784" id="-17755">
=======
	<node id="-384501" lat="60.6570583316" lon="10.5437444464">
		<tag k="name" v="Stormyra" />
		<tag k="natural" v="wetland" />
		<tag k="ssr:stedsnr" v="128225" />
	</node>
	<node id="-385011" lat="60.6374805513" lon="10.5492972186">
		<tag k="name" v="Skriverskogen" />
		<tag k="place" v="locality" />
		<tag k="ssr:stedsnr" v="344384" />
	</node>
	<node id="-384498" lat="60.6758555568" lon="10.6866499937">
		<tag k="landuse" v="meadow" />
		<tag k="name" v="Blåflat" />
		<tag k="ssr:stedsnr" v="116521" />
	</node>
	<node id="-384752" lat="60.5741916685" lon="10.591069452">
>>>>>>> e1d4bc35ff8a6074a6f2e91616a996b547c36f15
		<tag k="name" v="Stormyra" />
		<tag k="natural" v="wetland" />
		<tag k="ssr:stedsnr" v="703611" />
	</node>
<<<<<<< HEAD
	<node lat="60.63661111339515" lon="10.54934166325252" id="-17799">
		<tag k="name" v="Jønnmyra" />
		<tag k="natural" v="wetland" />
		<tag k="ssr:stedsnr" v="917185" />
	</node>
	<node lat="60.70288610990414" lon="10.527838881122008" id="-17806">
		<tag k="name" v="Rørmyra" />
=======
	<node id="-384750" lat="60.6756611132" lon="10.4934500003">
		<tag k="name" v="Skjærdalsmarka" />
		<tag k="place" v="locality" />
		<tag k="ssr:stedsnr" v="890493" />
	</node>
	<node id="-384877" lat="60.6893416669" lon="10.5169027729">
		<tag k="name" v="Lunnasætermyra" />
		<tag k="natural" v="wetland" />
		<tag k="ssr:stedsnr" v="68342" />
	</node>
	<node id="-385131" lat="60.7376777786" lon="10.5869750028">
		<tag k="alt_name" v="Villåsengen" />
		<tag k="landuse" v="meadow" />
		<tag k="name" v="Villåsenga" />
		<tag k="ssr:stedsnr" v="613461" />
	</node>
	<node id="-384490" lat="60.5175297038" lon="10.6474772728">
		<tag k="name" v="Stormyra" />
>>>>>>> e1d4bc35ff8a6074a6f2e91616a996b547c36f15
		<tag k="natural" v="wetland" />
		<tag k="ssr:stedsnr" v="917327" />
	</node>
<<<<<<< HEAD
	<node lat="60.710536109820744" lon="10.554536115157203" id="-17831">
		<tag k="name" v="Bradalsmyra" />
=======
	<node id="-384865" lat="60.5640166649" lon="10.5478250038">
		<tag k="name" v="Demningsmyra" />
>>>>>>> e1d4bc35ff8a6074a6f2e91616a996b547c36f15
		<tag k="natural" v="wetland" />
		<tag k="ssr:stedsnr" v="857438" />
	</node>
<<<<<<< HEAD
	<node lat="60.51860000262025" lon="10.699827782737447" id="-17843">
		<tag k="name" v="Rundmyra" />
=======
	<node id="-384992" lat="60.6293166677" lon="10.6394444414">
		<tag k="name" v="Fjerdingsmyra" />
>>>>>>> e1d4bc35ff8a6074a6f2e91616a996b547c36f15
		<tag k="natural" v="wetland" />
		<tag k="ssr:stedsnr" v="917060" />
	</node>
<<<<<<< HEAD
	<node lat="60.71775277349218" lon="10.695202776780244" id="-17848">
		<tag k="alt_name" v="Malterudmyra" />
		<tag k="name" v="Malterudmyrene" />
=======
	<node id="-384479" lat="60.7094833293" lon="10.697538886">
		<tag k="name" v="Helsetmyra" />
>>>>>>> e1d4bc35ff8a6074a6f2e91616a996b547c36f15
		<tag k="natural" v="wetland" />
		<tag k="ssr:stedsnr" v="917357" />
	</node>
<<<<<<< HEAD
	<node lat="60.65666944468086" lon="10.587708341063674" id="-17853">
		<tag k="name" v="Evjumyra" />
=======
	<node id="-384861" lat="60.7068527744" lon="10.5600750006">
		<tag k="name" v="Rundmyra" />
>>>>>>> e1d4bc35ff8a6074a6f2e91616a996b547c36f15
		<tag k="natural" v="wetland" />
		<tag k="ssr:stedsnr" v="951381" />
	</node>
<<<<<<< HEAD
	<node lat="60.678894444667684" lon="10.515455554957995" id="-17874">
		<tag k="name" v="Hellingsmyra" />
=======
	<node id="-384731" lat="60.7192388916" lon="10.5614972181">
		<tag k="name" v="Rosetmyra" />
>>>>>>> e1d4bc35ff8a6074a6f2e91616a996b547c36f15
		<tag k="natural" v="wetland" />
		<tag k="ssr:stedsnr" v="7330" />
	</node>
<<<<<<< HEAD
	<node lat="60.564016664893785" lon="10.547825003825514" id="-17890">
		<tag k="name" v="Demningsmyra" />
=======
	<node id="-384858" lat="60.5970416644" lon="10.5548833317">
		<tag k="name" v="Mærramyra" />
>>>>>>> e1d4bc35ff8a6074a6f2e91616a996b547c36f15
		<tag k="natural" v="wetland" />
		<tag k="ssr:stedsnr" v="67156" />
	</node>
<<<<<<< HEAD
	<node lat="60.57522777928602" lon="10.553416667635418" id="-17906">
		<tag k="name" v="Teljemyra" />
=======
	<node id="-384985" lat="60.585211111" lon="10.5399083314">
		<tag k="name" v="Smalvikmyra" />
>>>>>>> e1d4bc35ff8a6074a6f2e91616a996b547c36f15
		<tag k="natural" v="wetland" />
		<tag k="ssr:stedsnr" v="97591" />
	</node>
<<<<<<< HEAD
	<node lat="60.657058331596225" lon="10.543744446397879" id="-17922">
		<tag k="name" v="Stormyra" />
=======
	<node id="-384469" lat="60.6676805523" lon="10.5711888796">
		<tag k="alt_name" v="Setermyra" />
		<tag k="name" v="Sætermyrene" />
>>>>>>> e1d4bc35ff8a6074a6f2e91616a996b547c36f15
		<tag k="natural" v="wetland" />
		<tag k="ssr:stedsnr" v="128225" />
	</node>
<<<<<<< HEAD
	<node lat="60.605330556594474" lon="10.558402778760156" id="-17924">
		<tag k="name" v="Snurumyra" />
=======
	<node id="-384851" lat="60.7348111087" lon="10.6676194367">
		<tag k="name" v="Lerudmyra" />
>>>>>>> e1d4bc35ff8a6074a6f2e91616a996b547c36f15
		<tag k="natural" v="wetland" />
		<tag k="ssr:stedsnr" v="128171" />
	</node>
<<<<<<< HEAD
	<node lat="60.71455278194817" lon="10.529216670026727" id="-17933">
		<tag k="historic" v="shieling" />
		<tag k="name" v="Nordsetervollen" />
		<tag k="place" v="locality" />
		<tag k="ssr:stedsnr" v="162339" />
	</node>
	<node lat="60.67106389275653" lon="10.538447223684395" id="-17938">
		<tag k="name" v="Granumsmyra" />
=======
	<node id="-384847" lat="60.6788944447" lon="10.515455555">
		<tag k="name" v="Hellingsmyra" />
>>>>>>> e1d4bc35ff8a6074a6f2e91616a996b547c36f15
		<tag k="natural" v="wetland" />
		<tag k="ssr:stedsnr" v="162783" />
	</node>
<<<<<<< HEAD
	<node lat="60.52250555598173" lon="10.715419448732003" id="-17964">
=======
	<node id="-384974" lat="60.522505556" lon="10.7154194487">
>>>>>>> e1d4bc35ff8a6074a6f2e91616a996b547c36f15
		<tag k="name" v="Sauengmyra" />
		<tag k="natural" v="wetland" />
		<tag k="ssr:stedsnr" v="215599" />
	</node>
<<<<<<< HEAD
	<node lat="60.63770000293682" lon="10.58655555868169" id="-17977">
		<tag k="historic" v="shieling" />
		<tag k="name" v="Hermanrudvollen" />
		<tag k="place" v="locality" />
		<tag k="ssr:stedsnr" v="284386" />
	</node>
	<node lat="60.585211110982875" lon="10.53990833139486" id="-17989">
		<tag k="name" v="Smalvikmyra" />
		<tag k="natural" v="wetland" />
		<tag k="ssr:stedsnr" v="310151" />
	</node>
	<node lat="60.637480551309785" lon="10.54929721862256" id="-18004">
		<tag k="name" v="Skriverskogen" />
		<tag k="place" v="locality" />
		<tag k="ssr:stedsnr" v="344384" />
	</node>
	<node lat="60.69688888890455" lon="10.557811110340902" id="-18025">
		<tag k="name" v="Langmyra" />
=======
	<node id="-385227" lat="60.574708335" lon="10.5337722286">
		<tag k="name" v="Skreppmarka" />
		<tag k="place" v="locality" />
		<tag k="ssr:stedsnr" v="951819" />
	</node>
	<node id="-385225" lat="60.6566694447" lon="10.5877083411">
		<tag k="name" v="Evjumyra" />
		<tag k="natural" v="wetland" />
		<tag k="ssr:stedsnr" v="951381" />
	</node>
	<node id="-385224" lat="60.7090611101" lon="10.5248527826">
		<tag k="name" v="Koppmyra" />
>>>>>>> e1d4bc35ff8a6074a6f2e91616a996b547c36f15
		<tag k="natural" v="wetland" />
		<tag k="ssr:stedsnr" v="371335" />
	</node>
<<<<<<< HEAD
	<node lat="60.69439999935029" lon="10.685897224054662" id="-18067">
		<tag k="alt_name" v="Finstadmyra" />
		<tag k="name" v="Finnstadmyra" />
		<tag k="natural" v="wetland" />
		<tag k="ssr:stedsnr" v="541083" />
	</node>
	<node lat="60.655419443224936" lon="10.55817221788077" id="-18078">
		<tag k="name" v="Langmyra" />
		<tag k="natural" v="wetland" />
		<tag k="ssr:stedsnr" v="552276" />
	</node>
	<node lat="60.56555000255316" lon="10.6777361145173" id="-18081">
=======
	<node id="-385223" lat="60.7105361098" lon="10.5545361152">
		<tag k="name" v="Bradalsmyra" />
		<tag k="natural" v="wetland" />
		<tag k="ssr:stedsnr" v="857438" />
	</node>
	<node id="-384453" lat="60.6116666695" lon="10.5643750091">
		<tag k="name" v="Hågårmoen" />
		<tag k="place" v="locality" />
		<tag k="ssr:stedsnr" v="223638" />
	</node>
	<node id="-384587" lat="60.694608335" lon="10.5304833413">
		<tag k="name" v="Driterbakkmyra" />
		<tag k="natural" v="wetland" />
		<tag k="ssr:stedsnr" v="492362" />
	</node>
	<node id="-384700" lat="60.7255444464" lon="10.5492944493">
		<tag k="name" v="Nysetermarka" />
		<tag k="place" v="locality" />
		<tag k="ssr:stedsnr" v="647933" />
	</node>
	<node id="-385083" lat="60.5655500026" lon="10.6777361145">
>>>>>>> e1d4bc35ff8a6074a6f2e91616a996b547c36f15
		<tag k="alt_name" v="Geitryggmyra" />
		<tag k="name" v="Geiteryggmyra" />
		<tag k="natural" v="wetland" />
		<tag k="ssr:stedsnr" v="553119" />
	</node>
<<<<<<< HEAD
	<node lat="60.72088610871371" lon="10.58546944172506" id="-18096">
=======
	<node id="-385109" lat="60.7208861087" lon="10.5854694417">
>>>>>>> e1d4bc35ff8a6074a6f2e91616a996b547c36f15
		<tag k="name" v="Nysethagen" />
		<tag k="place" v="locality" />
		<tag k="ssr:stedsnr" v="587928" />
	</node>
<<<<<<< HEAD
	<node lat="60.7376777785658" lon="10.586975002778692" id="-18112">
		<tag k="alt_name" v="Villåsengen" />
		<tag k="landuse" v="meadow" />
		<tag k="name" v="Villåsenga" />
		<tag k="ssr:stedsnr" v="613461" />
	</node>
	<node lat="60.59702777433209" lon="10.540530561786275" id="-18121">
		<tag k="name" v="Hågårmoen" />
		<tag k="place" v="locality" />
		<tag k="ssr:stedsnr" v="645569" />
	</node>
	<node lat="60.72554444642654" lon="10.549294449325146" id="-18128">
		<tag k="name" v="Nysetermarka" />
		<tag k="place" v="locality" />
		<tag k="ssr:stedsnr" v="647933" />
	</node>
	<node lat="60.71923889159486" lon="10.561497218090116" id="-18155">
		<tag k="name" v="Rosetmyra" />
=======
	<node id="-384563" lat="60.6324361086" lon="10.5888916722">
		<tag k="name" v="Vadmyra" />
		<tag k="natural" v="wetland" />
		<tag k="ssr:stedsnr" v="344403" />
	</node>
	<node id="-385072" lat="60.6554194432" lon="10.5581722179">
		<tag k="name" v="Langmyra" />
>>>>>>> e1d4bc35ff8a6074a6f2e91616a996b547c36f15
		<tag k="natural" v="wetland" />
		<tag k="ssr:stedsnr" v="735414" />
	</node>
<<<<<<< HEAD
	<node lat="60.59240832933789" lon="10.589061105457652" id="-18165">
		<tag k="name" v="Prestmarka" />
		<tag k="place" v="locality" />
		<tag k="ssr:stedsnr" v="767580" />
	</node>
	<node lat="60.74198055373603" lon="10.607366663409085" id="-18184">
		<tag k="name" v="Nedre Napstad" />
		<tag k="place" v="locality" />
		<tag k="ssr:stedsnr" v="796434" />
	</node>
	<node lat="60.631166668497315" lon="10.66600000194179" id="-18216">
		<tag k="name" v="Furumyra" />
=======
	<node id="-384556" lat="60.7180638865" lon="10.6979361156">
		<tag k="name" v="Refsmyra" />
>>>>>>> e1d4bc35ff8a6074a6f2e91616a996b547c36f15
		<tag k="natural" v="wetland" />
		<tag k="ssr:stedsnr" v="936555" />
	</node>
<<<<<<< HEAD
	<node lat="60.57470833503821" lon="10.533772228610443" id="-18220">
		<tag k="name" v="Skreppmarka" />
=======
	<node id="-384554" lat="60.6846694467" lon="10.5148527758">
		<tag k="historic" v="shieling" />
		<tag k="name" v="Lunnasetervollen" />
>>>>>>> e1d4bc35ff8a6074a6f2e91616a996b547c36f15
		<tag k="place" v="locality" />
		<tag k="ssr:stedsnr" v="951819" />
	</node>
<<<<<<< HEAD
	<node lat="60.709061110075986" lon="10.524852782615602" id="-18221">
		<tag k="name" v="Koppmyra" />
=======
	<node id="-385064" lat="60.6943999994" lon="10.6858972241">
		<tag k="alt_name" v="Finstadmyra" />
		<tag k="name" v="Finnstadmyra" />
>>>>>>> e1d4bc35ff8a6074a6f2e91616a996b547c36f15
		<tag k="natural" v="wetland" />
		<tag k="ssr:stedsnr" v="951324" />
	</node>
	<node id="-384807" lat="60.7177527735" lon="10.6952027768">
		<tag k="alt_name" v="Malterudmyra" />
		<tag k="name" v="Malterudmyrene" />
		<tag k="natural" v="wetland" />
		<tag k="ssr:stedsnr" v="917357" />
	</node>
	<node id="-384806" lat="60.7028861099" lon="10.5278388811">
		<tag k="name" v="Rørmyra" />
		<tag k="natural" v="wetland" />
		<tag k="ssr:stedsnr" v="917327" />
	</node>
	<node id="-384932" lat="60.6710638928" lon="10.5384472237">
		<tag k="name" v="Granumsmyra" />
		<tag k="natural" v="wetland" />
		<tag k="ssr:stedsnr" v="162783" />
	</node>
	<node id="-384546" lat="60.5183861108" lon="10.6676333294">
		<tag k="historic" v="shieling" />
		<tag k="name" v="Lundvollen" />
		<tag k="place" v="locality" />
		<tag k="ssr:stedsnr" v="457524" />
	</node>
	<node id="-384929" lat="60.7145527819" lon="10.52921667">
		<tag k="historic" v="shieling" />
		<tag k="name" v="Nordsetervollen" />
		<tag k="place" v="locality" />
		<tag k="ssr:stedsnr" v="162339" />
	</node>
	<node id="-385079" lat="60.7070499962" lon="10.6157138883">
		<tag k="name" v="Dragerskogen" />
		<tag k="place" v="locality" />
		<tag k="ssr:stedsnr" v="552439" />
	</node>
	<node id="-384918" lat="60.6053305566" lon="10.5584027788">
		<tag k="name" v="Snurumyra" />
		<tag k="natural" v="wetland" />
		<tag k="ssr:stedsnr" v="128171" />
	</node>
	<node id="-385044" lat="60.679644445" lon="10.685786108">
		<tag k="name" v="Danmark" />
		<tag k="natural" v="wetland" />
		<tag k="ssr:stedsnr" v="419499" />
	</node>
	<node id="-384785" lat="60.6311666685" lon="10.6660000019">
		<tag k="name" v="Furumyra" />
		<tag k="natural" v="wetland" />
		<tag k="ssr:stedsnr" v="936555" />
	</node>
	<node id="-385144" lat="60.5970277743" lon="10.5405305618">
		<tag k="name" v="Hågårmoen" />
		<tag k="place" v="locality" />
		<tag k="ssr:stedsnr" v="645569" />
	</node>
	<node id="-385133" lat="60.6614000041" lon="10.5750777692">
		<tag k="alt_name" v="Sorgenmyra" />
		<tag k="name" v="Sørgenmyra" />
		<tag k="natural" v="wetland" />
		<tag k="ssr:stedsnr" v="613314" />
	</node>
	<node id="-384522" lat="60.6377000029" lon="10.5865555587">
		<tag k="historic" v="shieling" />
		<tag k="name" v="Hermanrudvollen" />
		<tag k="place" v="locality" />
		<tag k="ssr:stedsnr" v="284386" />
	</node>
	<node id="-385158" lat="60.5924083293" lon="10.5890611055">
		<tag k="name" v="Prestmarka" />
		<tag k="place" v="locality" />
		<tag k="ssr:stedsnr" v="767580" />
	</node>
	<node id="-384449" lat="60.6350083344" lon="10.5479194426">
		<tag k="name" v="Skjelbreimyra" />
		<tag k="natural" v="wetland" />
		<tag k="ssr:stedsnr" v="223388" />
	</node>
	<node id="-385028" lat="60.6968888889" lon="10.5578111103">
		<tag k="name" v="Langmyra" />
		<tag k="natural" v="wetland" />
		<tag k="ssr:stedsnr" v="371335" />
	</node>
</osm>
