<?xml version="1.0" encoding="UTF-8"?>
<osm generator="osmapis" version="0.6">
	<node id="-385024" lat="60.7055530638" lon="10.6849682314">
		<tag k="name" v="Tåsås" />
		<tag k="place" v="hamlet" />
		<tag k="ssr:stedsnr" v="370445" />
	</node>
	<node id="-385023" lat="60.6614833309" lon="10.5244138972">
		<tag k="alt_name" v="Pålsrud" />
		<tag k="name" v="Paulsrud" />
		<tag k="place" v="farm" />
		<tag k="ssr:stedsnr" v="370353" />
	</node>
	<node id="-385021" lat="60.6716527756" lon="10.6985111082">
		<tag k="fixme" v="consider place=hamlet" />
		<tag k="name" v="Berg" />
		<tag k="place" v="farm" />
		<tag k="ssr:stedsnr" v="370342" />
	</node>
	<node id="-385020" lat="60.6762888892" lon="10.5581749958">
		<tag k="name" v="Sæterenga" />
		<tag k="place" v="farm" />
		<tag k="ssr:stedsnr" v="370332" />
	</node>
	<node id="-385019" lat="60.6728568134" lon="10.5518601408">
		<tag k="alt_name" v="Alfstadseter" />
		<tag k="fixme" v="consider place=hamlet" />
		<tag k="name" v="Alstadsæter" />
		<tag k="place" v="farm" />
		<tag k="ssr:stedsnr" v="370331" />
	</node>
	<node id="-385018" lat="60.6210414222" lon="10.6790999933">
		<tag k="alt_name" v="Midtbu" />
		<tag k="fixme" v="consider place=hamlet" />
		<tag k="name" v="Midtbua" />
		<tag k="place" v="farm" />
		<tag k="ssr:stedsnr" v="370254" />
	</node>
	<node id="-385015" lat="60.5687833371" lon="10.5585805633">
		<tag k="alt_name" v="Vesteren" />
		<tag k="name" v="Vestern" />
		<tag k="place" v="farm" />
		<tag k="ssr:stedsnr" v="370184" />
	</node>
	<node id="-385014" lat="60.5687388853" lon="10.6093027741">
		<tag k="alt_name" v="Thorsbakken" />
		<tag k="name" v="Torsbakken" />
		<tag k="place" v="farm" />
		<tag k="ssr:stedsnr" v="370181" />
	</node>
	<node id="-385013" lat="60.7509111134" lon="10.6314277712">
		<tag k="name" v="Bratland" />
		<tag k="place" v="isolated_dwelling" />
		<tag k="ssr:stedsnr" v="344434" />
	</node>
	<node id="-385012" lat="60.680261502" lon="10.6046822692">
		<tag k="fixme" v="consider place=hamlet" />
		<tag k="name" v="Enkenhus" />
		<tag k="place" v="farm" />
		<tag k="ssr:stedsnr" v="344391" />
	</node>
	<node id="-385010" lat="60.615749997" lon="10.6219305559">
		<tag k="amenity" v="school" />
		<tag k="name" v="Thune skole" />
		<tag k="ssr:stedsnr" v="344069" />
	</node>
	<node id="-385008" lat="60.7110895071" lon="10.7406107604">
		<tag k="name" v="Husbystuen" />
		<tag k="place" v="farm" />
		<tag k="ssr:stedsnr" v="329676" />
	</node>
	<node id="-385005" lat="60.7471638926" lon="10.6345777767">
		<tag k="name" v="Grøndalen" />
		<tag k="place" v="farm" />
		<tag k="ssr:stedsnr" v="310461" />
	</node>
	<node id="-385004" lat="60.7413666666" lon="10.5703638829">
		<tag k="alt_name" v="Villåsstuen" />
		<tag k="name" v="Villåsstugua" />
		<tag k="place" v="farm" />
		<tag k="ssr:stedsnr" v="310459" />
	</node>
	<node id="-385003" lat="60.7323888845" lon="10.6611694506">
		<tag k="name" v="Fagerlund" />
		<tag k="place" v="farm" />
		<tag k="ssr:stedsnr" v="310431" />
	</node>
	<node id="-385002" lat="60.7141508352" lon="10.6869627561">
		<tag k="alt_name" v="Malterud, velt;Lille Malterud" />
		<tag k="fixme" v="consider place=hamlet" />
		<tag k="name" v="Velt-Malterud" />
		<tag k="place" v="farm" />
		<tag k="ssr:stedsnr" v="310388" />
	</node>
	<node id="-385001" lat="60.6990303907" lon="10.6994630251">
		<tag k="alt_name" v="Gaukum" />
		<tag k="fixme" v="consider place=hamlet" />
		<tag k="name" v="Gaukom" />
		<tag k="place" v="farm" />
		<tag k="ssr:stedsnr" v="310365" />
	</node>
	<node id="-384999" lat="60.6804172641" lon="10.5877223175">
		<tag k="fixme" v="consider place=hamlet" />
		<tag k="name" v="Danielrud" />
		<tag k="place" v="farm" />
		<tag k="ssr:stedsnr" v="310343" />
	</node>
	<node id="-384998" lat="60.6671833339" lon="10.6443388974">
		<tag k="alt_name" v="Bernsgård" />
		<tag k="name" v="Bernsgard" />
		<tag k="place" v="farm" />
		<tag k="ssr:stedsnr" v="310308" />
	</node>
	<node id="-384997" lat="60.6709833345" lon="10.5068527766">
		<tag k="alt_name" v="Snekkerhaugen" />
		<tag k="name" v="Snikkerhaugen" />
		<tag k="place" v="farm" />
		<tag k="ssr:stedsnr" v="310283" />
	</node>
	<node id="-384996" lat="60.6436250029" lon="10.6396277833">
		<tag k="alt_name" v="Hagebakken" />
		<tag k="name" v="Hågåbakken" />
		<tag k="place" v="farm" />
		<tag k="ssr:stedsnr" v="310267" />
	</node>
	<node id="-384995" lat="60.6549611088" lon="10.6349166632">
		<tag k="name" v="Nyjordet" />
		<tag k="place" v="farm" />
		<tag k="ssr:stedsnr" v="310248" />
	</node>
	<node id="-384994" lat="60.6547555569" lon="10.6590000092">
		<tag k="name" v="Tangsvea" />
		<tag k="place" v="farm" />
		<tag k="ssr:stedsnr" v="310241" />
	</node>
	<node id="-384993" lat="60.6499277816" lon="10.6718055521">
		<tag k="alt_name" v="Asplund" />
		<tag k="name" v="Aspelund" />
		<tag k="place" v="farm" />
		<tag k="ssr:stedsnr" v="310240" />
	</node>
	<node id="-384991" lat="60.6360333313" lon="10.6597138947">
		<tag k="alt_name" v="Sivesindtajet" />
		<tag k="name" v="Sivesintajet" />
		<tag k="place" v="farm" />
		<tag k="ssr:stedsnr" v="310206" />
	</node>
	<node id="-384990" lat="60.6057373333" lon="10.6702778388">
		<tag k="fixme" v="consider place=hamlet" />
		<tag k="name" v="Blien" />
		<tag k="place" v="farm" />
		<tag k="ssr:stedsnr" v="310191" />
	</node>
	<node id="-384989" lat="60.6056528482" lon="10.6194845959">
		<tag k="alt_name" v="Næs" />
		<tag k="fixme" v="consider place=hamlet" />
		<tag k="name" v="Nes" />
		<tag k="place" v="farm" />
		<tag k="ssr:stedsnr" v="310186" />
	</node>
	<node id="-384987" lat="60.6118038098" lon="10.6464959082">
		<tag k="alt_name" v="Blilie" />
		<tag k="fixme" v="consider place=hamlet" />
		<tag k="name" v="Blili" />
		<tag k="place" v="farm" />
		<tag k="ssr:stedsnr" v="310182" />
	</node>
	<node id="-384986" lat="60.5902029998" lon="10.6115743262">
		<tag k="fixme" v="consider place=hamlet" />
		<tag k="name" v="Jutulrud" />
		<tag k="old_name" v="Juterud" />
		<tag k="place" v="farm" />
		<tag k="ssr:stedsnr" v="310161" />
	</node>
	<node id="-384984" lat="60.5840410367" lon="10.5623693913">
		<tag k="alt_name" v="Skreppen" />
		<tag k="fixme" v="consider place=hamlet" />
		<tag k="name" v="Skreppa" />
		<tag k="place" v="farm" />
		<tag k="ssr:stedsnr" v="310149" />
	</node>
	<node id="-384983" lat="60.5829083314" lon="10.6226194371">
		<tag k="alt_name" v="Gråsten" />
		<tag k="name" v="Gråstein" />
		<tag k="place" v="farm" />
		<tag k="ssr:stedsnr" v="310146" />
	</node>
	<node id="-384981" lat="60.5715194436" lon="10.6572138908">
		<tag k="alt_name" v="Johnsrudbakken" />
		<tag k="name" v="Jonsrudbakken" />
		<tag k="place" v="farm" />
		<tag k="ssr:stedsnr" v="310134" />
	</node>
	<node id="-384979" lat="60.5626337767" lon="10.6186273614">
		<tag k="fixme" v="consider place=hamlet" />
		<tag k="name" v="Amlien" />
		<tag k="place" v="farm" />
		<tag k="ssr:stedsnr" v="310125" />
	</node>
	<node id="-384978" lat="60.5568555518" lon="10.6880722285">
		<tag k="name" v="Kjølvegen" />
		<tag k="place" v="farm" />
		<tag k="ssr:stedsnr" v="310112" />
	</node>
	<node id="-384977" lat="60.534833337" lon="10.6633000029">
		<tag k="name" v="Bjerke" />
		<tag k="place" v="farm" />
		<tag k="ssr:stedsnr" v="310108" />
	</node>
	<node id="-384976" lat="60.5336701523" lon="10.6310357909">
		<tag k="fixme" v="consider place=hamlet" />
		<tag k="name" v="Dyrud" />
		<tag k="place" v="farm" />
		<tag k="ssr:stedsnr" v="310105" />
	</node>
	<node id="-384975" lat="60.5233861093" lon="10.6302777828">
		<tag k="alt_name" v="Smedstua" />
		<tag k="name" v="Smedstugua" />
		<tag k="place" v="isolated_dwelling" />
		<tag k="ssr:stedsnr" v="310070" />
	</node>
	<node id="-384973" lat="60.5274305562" lon="10.654669448">
		<tag k="building" v="industrial" />
		<tag k="name" v="Almenningssaga" />
		<tag k="ssr:stedsnr" v="214643" />
	</node>
	<node id="-384972" lat="60.5370972179" lon="10.6577666655">
		<tag k="name" v="Gårder" />
		<tag k="place" v="farm" />
		<tag k="ssr:stedsnr" v="214567" />
	</node>
	<node id="-384971" lat="60.6183194481" lon="10.6742087217">
		<tag k="fixme" v="consider place=hamlet" />
		<tag k="name" v="Midtbakken" />
		<tag k="place" v="farm" />
		<tag k="ssr:stedsnr" v="207581" />
	</node>
	<node id="-384970" lat="60.5520999966" lon="10.6283722199">
		<tag k="name" v="Dotset" />
		<tag k="place" v="farm" />
		<tag k="ssr:stedsnr" v="205795" />
	</node>
	<node id="-384969" lat="60.5649567301" lon="10.6276184341">
		<tag k="alt_name" v="Søndre Amlien" />
		<tag k="fixme" v="consider place=hamlet" />
		<tag k="name" v="Amlien" />
		<tag k="place" v="farm" />
		<tag k="ssr:stedsnr" v="205791" />
	</node>
	<node id="-384968" lat="60.575666664" lon="10.6228972166">
		<tag k="alt_name" v="Sangnæs" />
		<tag k="name" v="Sangnes" />
		<tag k="place" v="farm" />
		<tag k="ssr:stedsnr" v="205790" />
	</node>
	<node id="-384967" lat="60.7142861069" lon="10.73733888">
		<tag k="name" v="Trosterud" />
		<tag k="place" v="farm" />
		<tag k="ssr:stedsnr" v="189928" />
	</node>
	<node id="-384965" lat="60.7381561783" lon="10.7156223081">
		<tag k="fixme" v="consider place=hamlet" />
		<tag k="name" v="Li" />
		<tag k="place" v="farm" />
		<tag k="ssr:stedsnr" v="189442" />
	</node>
	<node id="-384964" lat="60.7433638921" lon="10.6876416743">
		<tag k="alt_name" v="Markestad, s;Markestad" />
		<tag k="name" v="Søndre Markestad" />
		<tag k="place" v="farm" />
		<tag k="ssr:stedsnr" v="189441" />
	</node>
	<node id="-384963" lat="60.7466814221" lon="10.6566586406">
		<tag k="alt_name" v="Drengsrud" />
		<tag k="name" v="Østre Drengsrud" />
		<tag k="place" v="farm" />
		<tag k="ssr:stedsnr" v="189436" />
	</node>
	<node id="-384962" lat="60.7288027736" lon="10.6729027747">
		<tag k="name" v="Lerudåsen" />
		<tag k="place" v="farm" />
		<tag k="ssr:stedsnr" v="189414" />
	</node>
	<node id="-384961" lat="60.7153333366" lon="10.5658749927">
		<tag k="alt_name" v="Flatlien" />
		<tag k="name" v="Flatlia" />
		<tag k="place" v="farm" />
		<tag k="ssr:stedsnr" v="189404" />
	</node>
	<node id="-384960" lat="60.7342722259" lon="10.7001305518">
		<tag k="alt_name" v="Frognli" />
		<tag k="name" v="Frognerlia" />
		<tag k="place" v="farm" />
		<tag k="ssr:stedsnr" v="189400" />
	</node>
	<node id="-384958" lat="60.7142833339" lon="10.5766555535">
		<tag k="name" v="Roset" />
		<tag k="place" v="farm" />
		<tag k="ssr:stedsnr" v="189362" />
	</node>
	<node id="-384957" lat="60.6857882389" lon="10.5845523239">
		<tag k="fixme" v="consider place=hamlet" />
		<tag k="name" v="Ninive" />
		<tag k="place" v="farm" />
		<tag k="ssr:stedsnr" v="189343" />
	</node>
	<node id="-384956" lat="60.6993854438" lon="10.6289329796">
		<tag k="fixme" v="consider place=hamlet" />
		<tag k="name" v="Morterud" />
		<tag k="place" v="farm" />
		<tag k="ssr:stedsnr" v="189331" />
	</node>
	<node id="-384953" lat="60.679772225" lon="10.6217472285">
		<tag k="name" v="Reinsvoll" />
		<tag k="place" v="village" />
		<tag k="ssr:stedsnr" v="189311" />
	</node>
	<node id="-384952" lat="60.6822638848" lon="10.5908111184">
		<tag k="name" v="Enga" />
		<tag k="place" v="farm" />
		<tag k="ssr:stedsnr" v="189308" />
	</node>
	<node id="-384951" lat="60.6850401156" lon="10.5509131319">
		<tag k="alt_name" v="Bratlien" />
		<tag k="fixme" v="consider place=hamlet" />
		<tag k="name" v="Brattlia" />
		<tag k="place" v="farm" />
		<tag k="ssr:stedsnr" v="189306" />
	</node>
	<node id="-384950" lat="60.6660333343" lon="10.6458916714">
		<tag k="name" v="Flaten" />
		<tag k="place" v="farm" />
		<tag k="ssr:stedsnr" v="189275" />
	</node>
	<node id="-384949" lat="60.6582343612" lon="10.6419517263">
		<tag k="fixme" v="consider place=hamlet" />
		<tag k="name" v="Dølbakken" />
		<tag k="place" v="farm" />
		<tag k="ssr:stedsnr" v="189271" />
	</node>
	<node id="-384948" lat="60.6522722224" lon="10.6534194388">
		<tag k="alt_name" v="Hemstadmoen" />
		<tag k="name" v="Moen" />
		<tag k="place" v="farm" />
		<tag k="ssr:stedsnr" v="189233" />
	</node>
	<node id="-384947" lat="60.6467539851" lon="10.6824842327">
		<tag k="fixme" v="consider place=hamlet" />
		<tag k="name" v="Glæserud" />
		<tag k="place" v="farm" />
		<tag k="ssr:stedsnr" v="189221" />
	</node>
	<node id="-384946" lat="60.6412111116" lon="10.6600166652">
		<tag k="name" v="Linnerud" />
		<tag k="place" v="farm" />
		<tag k="ssr:stedsnr" v="189220" />
	</node>
	<node id="-384945" lat="60.6035444413" lon="10.6715305616">
		<tag k="name" v="Sandberg" />
		<tag k="place" v="farm" />
		<tag k="ssr:stedsnr" v="189163" />
	</node>
	<node id="-384944" lat="60.5296416626" lon="10.6305888836">
		<tag k="name" v="Sandbakken" />
		<tag k="place" v="farm" />
		<tag k="ssr:stedsnr" v="189075" />
	</node>
	<node id="-384943" lat="60.7127666629" lon="10.6237555539">
		<tag k="name" v="Alvstad" />
		<tag k="place" v="farm" />
		<tag k="ssr:stedsnr" v="188449" />
	</node>
	<node id="-384942" lat="60.7036583316" lon="10.6622333327">
		<tag k="alt_name" v="Gårder" />
		<tag k="name" v="Garder" />
		<tag k="place" v="farm" />
		<tag k="ssr:stedsnr" v="188447" />
	</node>
	<node id="-384941" lat="60.709155556" lon="10.6604999914">
		<tag k="alt_name" v="Holm" />
		<tag k="name" v="Gårdersveen" />
		<tag k="place" v="farm" />
		<tag k="ssr:stedsnr" v="188438" />
	</node>
	<node id="-384940" lat="60.6638972268" lon="10.5220388819">
		<tag k="alt_name" v="Gauplien" />
		<tag k="name" v="Gaupelia" />
		<tag k="place" v="farm" />
		<tag k="ssr:stedsnr" v="188317" />
	</node>
	<node id="-384939" lat="60.666138888" lon="10.5144750069">
		<tag k="name" v="Blikset" />
		<tag k="place" v="farm" />
		<tag k="ssr:stedsnr" v="188316" />
	</node>
	<node id="-384937" lat="60.5082722191" lon="10.6470666697">
		<tag k="alt_name" v="Helgedalssaga, nedre" />
		<tag k="name" v="Nedre Helgedalssaga" />
		<tag k="place" v="farm" />
		<tag k="ssr:stedsnr" v="188085" />
	</node>
	<node id="-384936" lat="60.7165694473" lon="10.6063722236">
		<tag k="amenity" v="school" />
		<tag k="name" v="Raufoss ungdomsskole" />
		<tag k="ssr:stedsnr" v="177881" />
	</node>
	<node id="-384935" lat="60.6768749977" lon="10.608144443">
		<tag k="name" v="Dammen camping" />
		<tag k="ssr:stedsnr" v="177243" />
		<tag k="tourism" v="camp_site" />
	</node>
	<node id="-384933" lat="60.7205999982" lon="10.5502555526">
		<tag k="name" v="Bjørklund" />
		<tag k="place" v="isolated_dwelling" />
		<tag k="ssr:stedsnr" v="162936" />
	</node>
	<node id="-384927" lat="60.6479570542" lon="10.6229555233">
		<tag k="fixme" v="consider place=hamlet" />
		<tag k="name" v="Gamme" />
		<tag k="place" v="farm" />
		<tag k="ssr:stedsnr" v="144761" />
	</node>
	<node id="-384925" lat="60.7087638887" lon="10.7410611134">
		<tag k="alt_name" v="Eriksrud;Eriksrud, s" />
		<tag k="name" v="Søndre Eriksrud" />
		<tag k="place" v="farm" />
		<tag k="ssr:stedsnr" v="128937" />
	</node>
	<node id="-384924" lat="60.7441583317" lon="10.6987638867">
		<tag k="name" v="Røste" />
		<tag k="place" v="isolated_dwelling" />
		<tag k="ssr:stedsnr" v="128446" />
	</node>
	<node id="-384923" lat="60.7395861154" lon="10.6853888879">
		<tag k="building" v="industrial" />
		<tag k="name" v="Landheim" />
		<tag k="ssr:stedsnr" v="128444" />
	</node>
	<node id="-384922" lat="60.7362999966" lon="10.6367027838">
		<tag k="name" v="Øverby" />
		<tag k="place" v="hamlet" />
		<tag k="ssr:stedsnr" v="128439" />
	</node>
	<node id="-384921" lat="60.727005557" lon="10.6909444386">
		<tag k="name" v="Årvoll" />
		<tag k="place" v="farm" />
		<tag k="ssr:stedsnr" v="128413" />
	</node>
	<node id="-384920" lat="60.6853416628" lon="10.6654444368">
		<tag k="alt_name" v="Inndal, nedre;Inndal" />
		<tag k="name" v="Nedre Inndal" />
		<tag k="place" v="farm" />
		<tag k="ssr:stedsnr" v="128288" />
	</node>
	<node id="-384919" lat="60.6367752095" lon="10.5657594318">
		<tag k="fixme" v="consider place=hamlet" />
		<tag k="name" v="Storhaugen" />
		<tag k="place" v="farm" />
		<tag k="ssr:stedsnr" v="128201" />
	</node>
	<node id="-384917" lat="60.6013527809" lon="10.6661444385">
		<tag k="name" v="Bakkeli" />
		<tag k="place" v="farm" />
		<tag k="ssr:stedsnr" v="128152" />
	</node>
	<node id="-384915" lat="60.5858555546" lon="10.6136416637">
		<tag k="name" v="Jutulrudbakken" />
		<tag k="place" v="farm" />
		<tag k="ssr:stedsnr" v="128145" />
	</node>
	<node id="-384914" lat="60.6651361143" lon="10.7011499985">
		<tag k="name" v="Kirkevoll" />
		<tag k="place" v="farm" />
		<tag k="ssr:stedsnr" v="128279" />
	</node>
	<node id="-384913" lat="60.6413250028" lon="10.6093166661">
		<tag k="name" v="Slåttsvea" />
		<tag k="place" v="farm" />
		<tag k="ssr:stedsnr" v="128250" />
	</node>
	<node id="-384912" lat="60.6523222255" lon="10.6185194489">
		<tag k="alt_name" v="Nyhagen" />
		<tag k="name" v="Nyhågån" />
		<tag k="place" v="farm" />
		<tag k="ssr:stedsnr" v="128242" />
	</node>
	<node id="-384911" lat="60.6541360543" lon="10.6383103829">
		<tag k="name" v="Heksum" />
		<tag k="place" v="hamlet" />
		<tag k="ssr:stedsnr" v="128241" />
	</node>
	<node id="-384910" lat="60.5594999992" lon="10.6239638908">
		<tag k="name" v="Nyvoll" />
		<tag k="place" v="farm" />
		<tag k="ssr:stedsnr" v="128096" />
	</node>
	<node id="-384908" lat="60.5446250027" lon="10.6570777854">
		<tag k="alt_name" v="Klæmma" />
		<tag k="name" v="Klemma" />
		<tag k="place" v="farm" />
		<tag k="ssr:stedsnr" v="128069" />
	</node>
	<node id="-384907" lat="60.523530559" lon="10.6263527807">
		<tag k="name" v="Dyrudberget" />
		<tag k="old_name" v="Dyreberget" />
		<tag k="place" v="farm" />
		<tag k="ssr:stedsnr" v="128051" />
	</node>
	<node id="-384906" lat="60.5926972224" lon="10.6475444361">
		<tag k="alt_name" v="Bjørnerudsvea, nordre;Bjørnerudsveen" />
		<tag k="name" v="Nordre Bjørnerudsvea" />
		<tag k="place" v="farm" />
		<tag k="ssr:stedsnr" v="128138" />
	</node>
	<node id="-384905" lat="60.5700138863" lon="10.5644972153">
		<tag k="name" v="Sønstebygrenda" />
		<tag k="place" v="hamlet" />
		<tag k="ssr:stedsnr" v="128116" />
	</node>
	<node id="-384904" lat="60.5701916649" lon="10.5694333244">
		<tag k="name" v="Ringstad" />
		<tag k="place" v="farm" />
		<tag k="ssr:stedsnr" v="128113" />
	</node>
	<node id="-384902" lat="60.5714722247" lon="10.6443638966">
		<tag k="name" v="Odden" />
		<tag k="place" v="farm" />
		<tag k="ssr:stedsnr" v="128108" />
	</node>
	<node id="-384901" lat="60.6416388854" lon="10.6440249964">
		<tag k="name" v="Solheim" />
		<tag k="place" v="farm" />
		<tag k="ssr:stedsnr" v="116966" />
	</node>
	<node id="-384900" lat="60.6363222202" lon="10.6301694486">
		<tag k="name" v="Nordre Romshus" />
		<tag k="place" v="farm" />
		<tag k="ssr:stedsnr" v="116948" />
	</node>
	<node id="-384895" lat="60.6222888862" lon="10.6000527847">
		<tag k="name" v="Sundsvik" />
		<tag k="place" v="quarter" />
		<tag k="ssr:stedsnr" v="102633" />
	</node>
	<node id="-384893" lat="60.7439500012" lon="10.6301750009">
		<tag k="name" v="Helgeby" />
		<tag k="place" v="farm" />
		<tag k="ssr:stedsnr" v="101489" />
	</node>
	<node id="-384892" lat="60.7419194435" lon="10.6303111111">
		<tag k="name" v="Nereng" />
		<tag k="place" v="farm" />
		<tag k="ssr:stedsnr" v="101484" />
	</node>
	<node id="-384891" lat="60.7142444429" lon="10.5660611148">
		<tag k="name" v="Flatlien" />
		<tag k="place" v="farm" />
		<tag k="ssr:stedsnr" v="101438" />
	</node>
	<node id="-384890" lat="60.6178944443" lon="10.6116416615">
		<tag k="name" v="Nysveen" />
		<tag k="place" v="farm" />
		<tag k="ssr:stedsnr" v="101075" />
	</node>
	<node id="-384887" lat="60.5403361094" lon="10.6558277708">
		<tag k="amenity" v="nursing_home" />
		<tag k="name" v="Blåkorshjemmet" />
		<tag k="ssr:stedsnr" v="93499" />
	</node>
	<node id="-384886" lat="60.5429916684" lon="10.6245749927">
		<tag k="name" v="Strandbakken" />
		<tag k="place" v="farm" />
		<tag k="ssr:stedsnr" v="93461" />
	</node>
	<node id="-384885" lat="60.7067111097" lon="10.7265749929">
		<tag k="name" v="Thorsrudødegård" />
		<tag k="place" v="farm" />
		<tag k="ssr:stedsnr" v="86671" />
	</node>
	<node id="-384884" lat="60.7515747985" lon="10.68336173">
		<tag k="fixme" v="consider place=hamlet" />
		<tag k="name" v="Markestad" />
		<tag k="place" v="farm" />
		<tag k="ssr:stedsnr" v="70100" />
	</node>
	<node id="-384882" lat="60.7363305595" lon="10.6407583419">
		<tag k="alt_name" v="Loe" />
		<tag k="name" v="Lo" />
		<tag k="place" v="farm" />
		<tag k="ssr:stedsnr" v="68480" />
	</node>
	<node id="-384881" lat="60.7209500033" lon="10.5478166754">
		<tag k="alt_name" v="Bradal, n" />
		<tag k="name" v="Nordre Bradal" />
		<tag k="place" v="farm" />
		<tag k="ssr:stedsnr" v="68443" />
	</node>
	<node id="-384880" lat="60.6706694465" lon="10.5004666688">
		<tag k="alt_name" v="Bjørlien" />
		<tag k="name" v="Bjørlia" />
		<tag k="place" v="farm" />
		<tag k="ssr:stedsnr" v="68287" />
	</node>
	<node id="-384879" lat="60.6825611073" lon="10.5806888947">
		<tag k="alt_name" v="Buer, østre;Buer" />
		<tag k="name" v="Østre Buer" />
		<tag k="place" v="farm" />
		<tag k="ssr:stedsnr" v="68348" />
	</node>
	<node id="-384878" lat="60.6827861096" lon="10.5723861048">
		<tag k="alt_name" v="Buer, vestre;Buer" />
		<tag k="name" v="Vestre Buer" />
		<tag k="place" v="farm" />
		<tag k="ssr:stedsnr" v="68345" />
	</node>
	<node id="-384876" lat="60.6820496382" lon="10.5029475439">
		<tag k="alt_name" v="Skjerrdalen, nordre;Nordre Skjærdalen" />
		<tag k="fixme" v="consider place=hamlet" />
		<tag k="name" v="Nordre Skjerrdalen" />
		<tag k="place" v="farm" />
		<tag k="ssr:stedsnr" v="68339" />
	</node>
	<node id="-384874" lat="60.5443250031" lon="10.6757499914">
		<tag k="alt_name" v="Norstad" />
		<tag k="name" v="Nordstad" />
		<tag k="place" v="farm" />
		<tag k="ssr:stedsnr" v="68095" />
	</node>
	<node id="-384873" lat="60.5300712149" lon="10.6551740858">
		<tag k="fixme" v="consider place=hamlet" />
		<tag k="name" v="Teiterud" />
		<tag k="place" v="farm" />
		<tag k="ssr:stedsnr" v="68084" />
	</node>
	<node id="-384872" lat="60.5806611119" lon="10.561050003">
		<tag k="alt_name" v="Skreppen" />
		<tag k="name" v="Skreppa" />
		<tag k="place" v="farm" />
		<tag k="ssr:stedsnr" v="67899" />
	</node>
	<node id="-384871" lat="60.6995524577" lon="10.6443145239">
		<tag k="fixme" v="consider place=hamlet" />
		<tag k="name" v="Ånnerud" />
		<tag k="place" v="farm" />
		<tag k="ssr:stedsnr" v="67383" />
	</node>
	<node id="-384870" lat="60.7395511426" lon="10.6453020561">
		<tag k="fixme" v="consider place=hamlet" />
		<tag k="name" v="Grøthaug" />
		<tag k="place" v="farm" />
		<tag k="ssr:stedsnr" v="67491" />
	</node>
	<node id="-384868" lat="60.6651388894" lon="10.673222219">
		<tag k="name" v="Bøverbru" />
		<tag k="place" v="village" />
		<tag k="ssr:stedsnr" v="67328" />
	</node>
	<node id="-384867" lat="60.583299996" lon="10.6164166602">
		<tag k="name" v="Hanshaugen" />
		<tag k="place" v="farm" />
		<tag k="ssr:stedsnr" v="67179" />
	</node>
	<node id="-384866" lat="60.5693287374" lon="10.6489770319">
		<tag k="fixme" v="multiple name tags, choose one and add the other to alt_name; consider place=hamlet" />
		<tag k="name" v="Jonsrudøgarden;Sundsødegård" />
		<tag k="place" v="farm" />
		<tag k="ssr:stedsnr" v="67164" />
	</node>
	<node id="-384864" lat="60.689341666" lon="10.6456722154">
		<tag k="name" v="Grønvoll" />
		<tag k="place" v="farm" />
		<tag k="ssr:stedsnr" v="56233" />
	</node>
	<node id="-384863" lat="60.725113889" lon="10.607605551">
		<tag k="amenity" v="school" />
		<tag k="name" v="Raufoss skole" />
		<tag k="ssr:stedsnr" v="55796" />
	</node>
	<node id="-384862" lat="60.683215267" lon="10.6040855053">
		<tag k="fixme" v="consider place=hamlet" />
		<tag k="name" v="Gudmundsveen" />
		<tag k="place" v="farm" />
		<tag k="ssr:stedsnr" v="41383" />
	</node>
	<node id="-384857" lat="60.7271944476" lon="10.6031805528">
		<tag k="name" v="Tollerud" />
		<tag k="place" v="quarter" />
		<tag k="ssr:stedsnr" v="23782" />
	</node>
	<node id="-384856" lat="60.6877500012" lon="10.7354861054">
		<tag k="name" v="Valheim" />
		<tag k="place" v="farm" />
		<tag k="ssr:stedsnr" v="7965" />
	</node>
	<node id="-384855" lat="60.7362913448" lon="10.5691328918">
		<tag k="fixme" v="consider place=hamlet" />
		<tag k="name" v="Villåsen" />
		<tag k="place" v="farm" />
		<tag k="ssr:stedsnr" v="7447" />
	</node>
	<node id="-384854" lat="60.7222666673" lon="10.6342277857">
		<tag k="name" v="Karsrudskogen" />
		<tag k="place" v="farm" />
		<tag k="ssr:stedsnr" v="7431" />
	</node>
	<node id="-384853" lat="60.7268500007" lon="10.6465638974">
		<tag k="alt_name" v="Karsrud, øvre" />
		<tag k="name" v="Øvre Karsrud" />
		<tag k="place" v="farm" />
		<tag k="ssr:stedsnr" v="7430" />
	</node>
	<node id="-384852" lat="60.7291194469" lon="10.6618805609">
		<tag k="name" v="Lerudbakken" />
		<tag k="place" v="farm" />
		<tag k="ssr:stedsnr" v="7418" />
	</node>
	<node id="-384850" lat="60.726172221" lon="10.5644083282">
		<tag k="alt_name" v="Nyset-Vestbakken" />
		<tag k="name" v="Vestbakken" />
		<tag k="place" v="farm" />
		<tag k="ssr:stedsnr" v="7406" />
	</node>
	<node id="-384849" lat="60.7000500021" lon="10.6729305617">
		<tag k="alt_name" v="Nerbrott" />
		<tag k="name" v="Nybrott" />
		<tag k="place" v="farm" />
		<tag k="ssr:stedsnr" v="7359" />
	</node>
	<node id="-384848" lat="60.6982861097" lon="10.6367861098">
		<tag k="alt_name" v="Sellanrå" />
		<tag k="name" v="Sellanråd" />
		<tag k="place" v="farm" />
		<tag k="ssr:stedsnr" v="7355" />
	</node>
	<node id="-384846" lat="60.6887722189" lon="10.6429138876">
		<tag k="alt_name" v="Kysethengen" />
		<tag k="name" v="Kysetenga" />
		<tag k="place" v="farm" />
		<tag k="ssr:stedsnr" v="7315" />
	</node>
	<node id="-384845" lat="60.6879305596" lon="10.6596083414">
		<tag k="alt_name" v="Velt-Kyset" />
		<tag k="name" v="Kyset" />
		<tag k="place" v="farm" />
		<tag k="ssr:stedsnr" v="7313" />
	</node>
	<node id="-384844" lat="60.6933055575" lon="10.6209999998">
		<tag k="name" v="Lønnum" />
		<tag k="place" v="farm" />
		<tag k="ssr:stedsnr" v="7312" />
	</node>
	<node id="-384843" lat="60.658405668" lon="10.6363671195">
		<tag k="fixme" v="consider place=hamlet" />
		<tag k="name" v="Stangjordet" />
		<tag k="place" v="farm" />
		<tag k="ssr:stedsnr" v="7305" />
	</node>
	<node id="-384842" lat="60.6689111122" lon="10.5000527728">
		<tag k="alt_name" v="Ringelien" />
		<tag k="name" v="Ringelia" />
		<tag k="place" v="farm" />
		<tag k="ssr:stedsnr" v="7285" />
	</node>
	<node id="-384840" lat="60.6473444443" lon="10.6576666646">
		<tag k="name" v="Lier" />
		<tag k="place" v="farm" />
		<tag k="ssr:stedsnr" v="7278" />
	</node>
	<node id="-384839" lat="60.645041669" lon="10.65873888">
		<tag k="alt_name" v="Nærli" />
		<tag k="name" v="Nerli" />
		<tag k="place" v="farm" />
		<tag k="ssr:stedsnr" v="7258" />
	</node>
	<node id="-384838" lat="60.6286388866" lon="10.5986305488">
		<tag k="name" v="Eina" />
		<tag k="place" v="village" />
		<tag k="ssr:stedsnr" v="7244" />
	</node>
	<node id="-384837" lat="60.6364753927" lon="10.6832394129">
		<tag k="fixme" v="consider place=hamlet" />
		<tag k="name" v="Sandbakke" />
		<tag k="old_name" v="Sandbakken" />
		<tag k="place" v="farm" />
		<tag k="ssr:stedsnr" v="7231" />
	</node>
	<node id="-384836" lat="60.6161944488" lon="10.6133472135">
		<tag k="alt_name" v="Thunestuen" />
		<tag k="name" v="Tunestugua" />
		<tag k="place" v="farm" />
		<tag k="ssr:stedsnr" v="7228" />
	</node>
	<node id="-384835" lat="60.5766472195" lon="10.565711113">
		<tag k="alt_name" v="Grinna" />
		<tag k="name" v="Sønstebygrinda" />
		<tag k="place" v="farm" />
		<tag k="ssr:stedsnr" v="7161" />
	</node>
	<node id="-384834" lat="60.5725500023" lon="10.577211111">
		<tag k="name" v="Karlshus" />
		<tag k="place" v="isolated_dwelling" />
		<tag k="ssr:stedsnr" v="7157" />
	</node>
	<node id="-384833" lat="60.5753583306" lon="10.6554749937">
		<tag k="alt_name" v="Tømten" />
		<tag k="name" v="Tomta" />
		<tag k="place" v="farm" />
		<tag k="ssr:stedsnr" v="7153" />
	</node>
	<node id="-384832" lat="60.5684777818" lon="10.5671888955">
		<tag k="fixme" v="multiple name tags, choose one and add the other to alt_name" />
		<tag k="name" v="Østgard;Østre Sønsteby" />
		<tag k="place" v="farm" />
		<tag k="ssr:stedsnr" v="7148" />
	</node>
	<node id="-384831" lat="60.5602915773" lon="10.5610882042">
		<tag k="fixme" v="consider place=hamlet" />
		<tag k="name" v="Rognlia" />
		<tag k="place" v="farm" />
		<tag k="ssr:stedsnr" v="7125" />
	</node>
	<node id="-384830" lat="60.5383083296" lon="10.6577083382">
		<tag k="alt_name" v="Lønnhaug" />
		<tag k="name" v="Lønhaug" />
		<tag k="place" v="farm" />
		<tag k="ssr:stedsnr" v="7120" />
	</node>
	<node id="-384829" lat="60.7071388915" lon="10.6355138972">
		<tag k="name" v="Dragerbakken" />
		<tag k="place" v="farm" />
		<tag k="ssr:stedsnr" v="6434" />
	</node>
	<node id="-384828" lat="60.712794441" lon="10.6297694355">
		<tag k="alt_name" v="Nærby" />
		<tag k="name" v="Nerby" />
		<tag k="place" v="farm" />
		<tag k="ssr:stedsnr" v="6416" />
	</node>
	<node id="-384827" lat="60.6690130308" lon="10.6899667165">
		<tag k="fixme" v="consider place=hamlet" />
		<tag k="name" v="Åsjordet" />
		<tag k="place" v="farm" />
		<tag k="ssr:stedsnr" v="6311" />
	</node>
	<node id="-384826" lat="60.6756499565" lon="10.7135472197">
		<tag k="fixme" v="consider place=hamlet" />
		<tag k="name" v="Holte" />
		<tag k="place" v="farm" />
		<tag k="ssr:stedsnr" v="6310" />
	</node>
	<node id="-384821" lat="60.6576500027" lon="10.6536055489">
		<tag k="name" v="Nordre Løvstad" />
		<tag k="place" v="farm" />
		<tag k="ssr:stedsnr" v="966724" />
	</node>
	<node id="-384820" lat="60.6279555519" lon="10.5941555626">
		<tag k="name" v="Vadet" />
		<tag k="place" v="quarter" />
		<tag k="ssr:stedsnr" v="951621" />
	</node>
	<node id="-384817" lat="60.5728777736" lon="10.6189249923">
		<tag k="name" v="Bekkeli" />
		<tag k="place" v="farm" />
		<tag k="ssr:stedsnr" v="934738" />
	</node>
	<node id="-384816" lat="60.6782055514" lon="10.7165055563">
		<tag k="name" v="Holtstein" />
		<tag k="place" v="farm" />
		<tag k="ssr:stedsnr" v="934724" />
	</node>
	<node id="-384815" lat="60.7327472235" lon="10.6224749985">
		<tag k="name" v="Vestrumenga" />
		<tag k="place" v="quarter" />
		<tag k="ssr:stedsnr" v="934722" />
	</node>
	<node id="-384814" lat="60.6823326528" lon="10.7485611675">
		<tag k="alt_name" v="Listerud" />
		<tag k="fixme" v="consider place=hamlet" />
		<tag k="name" v="Lesterud" />
		<tag k="place" v="farm" />
		<tag k="ssr:stedsnr" v="917978" />
	</node>
	<node id="-384813" lat="60.721774998" lon="10.7429527801">
		<tag k="alt_name" v="Svartås" />
		<tag k="name" v="Nedre Svartås" />
		<tag k="place" v="farm" />
		<tag k="ssr:stedsnr" v="917914" />
	</node>
	<node id="-384812" lat="60.7386027735" lon="10.6186972294">
		<tag k="alt_name" v="Finsveen" />
		<tag k="name" v="Finnsvea" />
		<tag k="place" v="farm" />
		<tag k="ssr:stedsnr" v="917414" />
	</node>
	<node id="-384811" lat="60.6745013786" lon="10.6783416946">
		<tag k="fixme" v="consider place=hamlet" />
		<tag k="name" v="Gjestrum" />
		<tag k="place" v="farm" />
		<tag k="ssr:stedsnr" v="917261" />
	</node>
	<node id="-384810" lat="60.6529861098" lon="10.5260055643">
		<tag k="alt_name" v="Sørlien" />
		<tag k="name" v="Sørlia" />
		<tag k="place" v="farm" />
		<tag k="ssr:stedsnr" v="917208" />
	</node>
	<node id="-384809" lat="60.7061805597" lon="10.5820861051">
		<tag k="name" v="Bakke" />
		<tag k="place" v="farm" />
		<tag k="ssr:stedsnr" v="917371" />
	</node>
	<node id="-384808" lat="60.7117944484" lon="10.6061888816">
		<tag k="name" v="Prøven" />
		<tag k="place" v="farm" />
		<tag k="ssr:stedsnr" v="917364" />
	</node>
	<node id="-384805" lat="60.6959563735" lon="10.5711482474">
		<tag k="alt_name" v="Austlia;Østlien" />
		<tag k="fixme" v="consider place=hamlet" />
		<tag k="name" v="Østlia" />
		<tag k="place" v="farm" />
		<tag k="ssr:stedsnr" v="917325" />
	</node>
	<node id="-384804" lat="60.6144471335" lon="10.6164627683">
		<tag k="alt_name" v="Thune" />
		<tag k="fixme" v="consider place=hamlet" />
		<tag k="name" v="Tune" />
		<tag k="place" v="farm" />
		<tag k="ssr:stedsnr" v="917179" />
	</node>
	<node id="-384803" lat="60.6982638932" lon="10.7005916672">
		<tag k="name" v="Gaukom" />
		<tag k="place" v="farm" />
		<tag k="ssr:stedsnr" v="905070" />
	</node>
	<node id="-384802" lat="60.6986027776" lon="10.7098611104">
		<tag k="name" v="Lyngås" />
		<tag k="place" v="farm" />
		<tag k="ssr:stedsnr" v="905010" />
	</node>
	<node id="-384801" lat="60.7406833321" lon="10.6589333354">
		<tag k="name" v="Vestli" />
		<tag k="place" v="locality" />
		<tag k="ssr:stedsnr" v="890551" />
	</node>
	<node id="-384799" lat="60.6846436204" lon="10.5890209424">
		<tag k="alt_name" v="Målstad" />
		<tag k="fixme" v="consider place=hamlet" />
		<tag k="name" v="Moldstad" />
		<tag k="place" v="farm" />
		<tag k="ssr:stedsnr" v="857355" />
	</node>
	<node id="-384798" lat="60.722563886" lon="10.5487249985">
		<tag k="name" v="Putten" />
		<tag k="place" v="farm" />
		<tag k="ssr:stedsnr" v="857429" />
	</node>
	<node id="-384797" lat="60.7186444455" lon="10.5882000042">
		<tag k="alt_name" v="Nordsveen" />
		<tag k="name" v="Nordsvea" />
		<tag k="place" v="farm" />
		<tag k="ssr:stedsnr" v="857417" />
	</node>
	<node id="-384796" lat="60.6461722227" lon="10.6789888799">
		<tag k="name" v="Håkerud" />
		<tag k="place" v="locality" />
		<tag k="ssr:stedsnr" v="857270" />
	</node>
	<node id="-384795" lat="60.6431055551" lon="10.6576500003">
		<tag k="alt_name" v="Lie" />
		<tag k="name" v="Li" />
		<tag k="place" v="farm" />
		<tag k="ssr:stedsnr" v="857266" />
	</node>
	<node id="-384793" lat="60.739494442" lon="10.6272166596">
		<tag k="alt_name" v="Åkersveen" />
		<tag k="name" v="Åkersvea" />
		<tag k="place" v="farm" />
		<tag k="ssr:stedsnr" v="856505" />
	</node>
	<node id="-384792" lat="60.7176500036" lon="10.628311114">
		<tag k="name" v="Vestby" />
		<tag k="place" v="farm" />
		<tag k="ssr:stedsnr" v="856422" />
	</node>
	<node id="-384790" lat="60.534252775" lon="10.6587916674">
		<tag k="name" v="Bekkevoll" />
		<tag k="place" v="farm" />
		<tag k="ssr:stedsnr" v="942619" />
	</node>
	<node id="-384789" lat="60.5427055588" lon="10.657136109">
		<tag k="name" v="Sjøli" />
		<tag k="place" v="farm" />
		<tag k="ssr:stedsnr" v="942559" />
	</node>
	<node id="-384787" lat="60.7082416682" lon="10.7440833295">
		<tag k="name" v="Knappengen" />
		<tag k="place" v="farm" />
		<tag k="ssr:stedsnr" v="936663" />
	</node>
	<node id="-384786" lat="60.601825004" lon="10.6813833333">
		<tag k="name" v="Solli" />
		<tag k="place" v="farm" />
		<tag k="ssr:stedsnr" v="936596" />
	</node>
	<node id="-384784" lat="60.5492242601" lon="10.6600453816">
		<tag k="name" v="Hegernes" />
		<tag k="place" v="hamlet" />
		<tag k="ssr:stedsnr" v="933338" />
	</node>
	<node id="-384783" lat="60.5156027808" lon="10.6409138932">
		<tag k="name" v="Sløbakken" />
		<tag k="place" v="isolated_dwelling" />
		<tag k="ssr:stedsnr" v="822564" />
	</node>
	<node id="-384782" lat="60.6952289549" lon="10.7271705642">
		<tag k="fixme" v="consider place=hamlet" />
		<tag k="name" v="Tjernholm" />
		<tag k="place" v="farm" />
		<tag k="ssr:stedsnr" v="796953" />
	</node>
	<node id="-384780" lat="60.696752778" lon="10.6270166614">
		<tag k="name" v="Kjelsrud" />
		<tag k="place" v="farm" />
		<tag k="ssr:stedsnr" v="796359" />
	</node>
	<node id="-384779" lat="60.6954194472" lon="10.6507638942">
		<tag k="name" v="Elstad" />
		<tag k="place" v="farm" />
		<tag k="ssr:stedsnr" v="796358" />
	</node>
	<node id="-384778" lat="60.7215722233" lon="10.6403166577">
		<tag k="name" v="Østvoll" />
		<tag k="place" v="quarter" />
		<tag k="ssr:stedsnr" v="796431" />
	</node>
	<node id="-384777" lat="60.7354249961" lon="10.7084083402">
		<tag k="alt_name" v="Øvergård" />
		<tag k="name" v="Øvergard" />
		<tag k="place" v="farm" />
		<tag k="ssr:stedsnr" v="796415" />
	</node>
	<node id="-384776" lat="60.5901111101" lon="10.5677694433">
		<tag k="alt_name" v="Stenberg" />
		<tag k="name" v="Steinberg" />
		<tag k="place" v="farm" />
		<tag k="ssr:stedsnr" v="796172" />
	</node>
	<node id="-384775" lat="60.6933146637" lon="10.7216880362">
		<tag k="fixme" v="consider place=hamlet" />
		<tag k="name" v="Ersrud" />
		<tag k="place" v="farm" />
		<tag k="ssr:stedsnr" v="917942" />
	</node>
	<node id="-384774" lat="60.7043107037" lon="10.753636489">
		<tag k="alt_name" v="Stenberg" />
		<tag k="fixme" v="consider place=hamlet" />
		<tag k="name" v="Steinberg" />
		<tag k="place" v="farm" />
		<tag k="ssr:stedsnr" v="917937" />
	</node>
	<node id="-384773" lat="60.6894939263" lon="10.5641927325">
		<tag k="alt_name" v="Vestlien" />
		<tag k="fixme" v="consider place=hamlet" />
		<tag k="name" v="Vestlia" />
		<tag k="place" v="farm" />
		<tag k="ssr:stedsnr" v="917352" />
	</node>
	<node id="-384772" lat="60.698961405" lon="10.6848680693">
		<tag k="fixme" v="consider place=hamlet" />
		<tag k="name" v="Knatterud" />
		<tag k="place" v="farm" />
		<tag k="ssr:stedsnr" v="917339" />
	</node>
	<node id="-384771" lat="60.7238333344" lon="10.6558333244">
		<tag k="name" v="Løvstad" />
		<tag k="place" v="farm" />
		<tag k="ssr:stedsnr" v="917395" />
	</node>
	<node id="-384770" lat="60.6927274328" lon="10.7073775082">
		<tag k="fixme" v="consider place=hamlet" />
		<tag k="name" v="Hørsrud" />
		<tag k="place" v="farm" />
		<tag k="ssr:stedsnr" v="917287" />
	</node>
	<node id="-384769" lat="60.6910227418" lon="10.680475001">
		<tag k="alt_name" v="Finstad" />
		<tag k="fixme" v="consider place=hamlet" />
		<tag k="name" v="Finnstad" />
		<tag k="place" v="farm" />
		<tag k="ssr:stedsnr" v="917283" />
	</node>
	<node id="-384766" lat="60.5370194411" lon="10.6306416623">
		<tag k="name" v="Smerud" />
		<tag k="place" v="farm" />
		<tag k="ssr:stedsnr" v="917087" />
	</node>
	<node id="-384765" lat="60.5586338709" lon="10.6573381598">
		<tag k="fixme" v="consider place=hamlet" />
		<tag k="name" v="Mjørlund" />
		<tag k="place" v="farm" />
		<tag k="ssr:stedsnr" v="917109" />
	</node>
	<node id="-384762" lat="60.6572861069" lon="10.654830549">
		<tag k="name" v="Løvstad" />
		<tag k="place" v="farm" />
		<tag k="ssr:stedsnr" v="905720" />
	</node>
	<node id="-384761" lat="60.6662777745" lon="10.6035166734">
		<tag k="name" v="Ødegård" />
		<tag k="place" v="farm" />
		<tag k="ssr:stedsnr" v="905789" />
	</node>
	<node id="-384758" lat="60.6543805555" lon="10.5093805523">
		<tag k="name" v="Furuset" />
		<tag k="place" v="farm" />
		<tag k="ssr:stedsnr" v="905229" />
	</node>
	<node id="-384757" lat="60.715769446" lon="10.6464916609">
		<tag k="name" v="Drager" />
		<tag k="place" v="farm" />
		<tag k="ssr:stedsnr" v="723827" />
	</node>
	<node id="-384756" lat="60.6823166693" lon="10.6457527828">
		<tag k="amenity" v="hospital" />
		<tag k="name" v="Sykehuset Innlandet Reinsvoll" />
		<tag k="old_name" v="Presteseter;Prestsæter" />
		<tag k="ssr:stedsnr" v="723762" />
	</node>
	<node id="-384754" lat="60.5554111105" lon="10.6270416672">
		<tag k="name" v="Dotset" />
		<tag k="place" v="farm" />
		<tag k="ssr:stedsnr" v="708112" />
	</node>
	<node id="-384753" lat="60.7470861106" lon="10.6277111046">
		<tag k="name" v="Vestre Grøndalen" />
		<tag k="place" v="farm" />
		<tag k="ssr:stedsnr" v="891004" />
	</node>
	<node id="-384751" lat="60.7373555586" lon="10.6363527857">
		<tag k="fixme" v="consider place=hamlet" />
		<tag k="name" v="Øverby" />
		<tag k="place" v="farm" />
		<tag k="ssr:stedsnr" v="890673" />
	</node>
	<node id="-384747" lat="60.595022218" lon="10.6403750066">
		<tag k="name" v="Ødegården" />
		<tag k="place" v="farm" />
		<tag k="ssr:stedsnr" v="890156" />
	</node>
	<node id="-384746" lat="60.5956111146" lon="10.6450805619">
		<tag k="name" v="Nøkleby" />
		<tag k="place" v="farm" />
		<tag k="ssr:stedsnr" v="890154" />
	</node>
	<node id="-384745" lat="60.6453083332" lon="10.6840527863">
		<tag k="name" v="Glæserudstuen" />
		<tag k="place" v="farm" />
		<tag k="ssr:stedsnr" v="693583" />
	</node>
	<node id="-384744" lat="60.6440527098" lon="10.6849277146">
		<tag k="fixme" v="consider place=hamlet" />
		<tag k="name" v="Glæserudbakken" />
		<tag k="place" v="farm" />
		<tag k="ssr:stedsnr" v="693581" />
	</node>
	<node id="-384743" lat="60.7240694448" lon="10.6484000054">
		<tag k="name" v="Karsrudødegård" />
		<tag k="place" v="farm" />
		<tag k="ssr:stedsnr" v="906850" />
	</node>
	<node id="-384741" lat="60.5064638908" lon="10.6746805647">
		<tag k="name" v="Husumenga" />
		<tag k="place" v="locality" />
		<tag k="ssr:stedsnr" v="882490" />
	</node>
	<node id="-384737" lat="60.5863666638" lon="10.5942416717">
		<tag k="name" v="Granum" />
		<tag k="place" v="farm" />
		<tag k="ssr:stedsnr" v="674158" />
	</node>
	<node id="-384736" lat="60.6845339492" lon="10.7508407285">
		<tag k="fixme" v="consider place=hamlet" />
		<tag k="name" v="Skarten" />
		<tag k="place" v="farm" />
		<tag k="ssr:stedsnr" v="735959" />
	</node>
	<node id="-384735" lat="60.7134999968" lon="10.7241916673">
		<tag k="name" v="Midtskogen" />
		<tag k="place" v="farm" />
		<tag k="ssr:stedsnr" v="735931" />
	</node>
	<node id="-384734" lat="60.7374888857" lon="10.7040972169">
		<tag k="alt_name" v="Sveen" />
		<tag k="name" v="Svea" />
		<tag k="place" v="farm" />
		<tag k="ssr:stedsnr" v="735453" />
	</node>
	<node id="-384733" lat="60.7403893178" lon="10.6533680892">
		<tag k="fixme" v="consider place=hamlet" />
		<tag k="name" v="Ripe" />
		<tag k="place" v="farm" />
		<tag k="ssr:stedsnr" v="735450" />
	</node>
	<node id="-384732" lat="60.7250656781" lon="10.6658941075">
		<tag k="fixme" v="consider place=hamlet" />
		<tag k="name" v="Lerud" />
		<tag k="place" v="farm" />
		<tag k="ssr:stedsnr" v="735421" />
	</node>
	<node id="-384730" lat="60.732408337" lon="10.6912833302">
		<tag k="name" v="Frogner" />
		<tag k="place" v="farm" />
		<tag k="ssr:stedsnr" v="735411" />
	</node>
	<node id="-384729" lat="60.7091888896" lon="10.5143944361">
		<tag k="name" v="Trollheim" />
		<tag k="place" v="isolated_dwelling" />
		<tag k="ssr:stedsnr" v="735396" />
	</node>
	<node id="-384728" lat="60.719411115" lon="10.5749277864">
		<tag k="name" v="Nyberg" />
		<tag k="place" v="farm" />
		<tag k="ssr:stedsnr" v="735378" />
	</node>
	<node id="-384727" lat="60.7186043668" lon="10.6442220918">
		<tag k="alt_name" v="Nedre Karsrud" />
		<tag k="fixme" v="consider place=hamlet" />
		<tag k="name" v="Karsrud" />
		<tag k="place" v="farm" />
		<tag k="ssr:stedsnr" v="735377" />
	</node>
	<node id="-384726" lat="60.6897171299" lon="10.5820788891">
		<tag k="alt_name" v="Berger, nedre" />
		<tag k="fixme" v="consider place=hamlet" />
		<tag k="name" v="Nedre Berger" />
		<tag k="place" v="farm" />
		<tag k="ssr:stedsnr" v="735355" />
	</node>
	<node id="-384724" lat="60.6774722185" lon="10.5752222254">
		<tag k="name" v="Buerskogen" />
		<tag k="place" v="farm" />
		<tag k="ssr:stedsnr" v="735339" />
	</node>
	<node id="-384723" lat="60.6727055514" lon="10.5023194395">
		<tag k="name" v="Skjerven" />
		<tag k="place" v="farm" />
		<tag k="ssr:stedsnr" v="735277" />
	</node>
	<node id="-384722" lat="60.6487052659" lon="10.6497200132">
		<tag k="alt_name" v="Sivesind" />
		<tag k="name" v="Sivesin" />
		<tag k="place" v="hamlet" />
		<tag k="ssr:stedsnr" v="735266" />
	</node>
	<node id="-384720" lat="60.6553166696" lon="10.6272138897">
		<tag k="name" v="Fremstad" />
		<tag k="place" v="isolated_dwelling" />
		<tag k="ssr:stedsnr" v="735252" />
	</node>
	<node id="-384719" lat="60.6583472182" lon="10.5182277829">
		<tag k="name" v="Furuly" />
		<tag k="place" v="farm" />
		<tag k="ssr:stedsnr" v="735247" />
	</node>
	<node id="-384718" lat="60.6558106918" lon="10.5996716514">
		<tag k="fixme" v="consider place=hamlet" />
		<tag k="name" v="Kvernum" />
		<tag k="place" v="farm" />
		<tag k="ssr:stedsnr" v="735241" />
	</node>
	<node id="-384716" lat="60.6128197178" lon="10.6001956188">
		<tag k="fixme" v="consider place=hamlet" />
		<tag k="name" v="Sund" />
		<tag k="place" v="farm" />
		<tag k="ssr:stedsnr" v="735201" />
	</node>
	<node id="-384715" lat="60.6038555581" lon="10.6660499982">
		<tag k="name" v="Bakke" />
		<tag k="place" v="farm" />
		<tag k="ssr:stedsnr" v="735197" />
	</node>
	<node id="-384714" lat="60.5977138895" lon="10.6434166698">
		<tag k="name" v="Vik" />
		<tag k="place" v="farm" />
		<tag k="ssr:stedsnr" v="735182" />
	</node>
	<node id="-384713" lat="60.5947864204" lon="10.5811054881">
		<tag k="fixme" v="consider place=hamlet" />
		<tag k="name" v="Sætra" />
		<tag k="place" v="farm" />
		<tag k="ssr:stedsnr" v="735172" />
	</node>
	<node id="-384712" lat="60.5867666684" lon="10.5650694432">
		<tag k="alt_name" v="Nordengen" />
		<tag k="name" v="Nordenga" />
		<tag k="place" v="farm" />
		<tag k="ssr:stedsnr" v="735171" />
	</node>
	<node id="-384710" lat="60.5686277769" lon="10.5572222303">
		<tag k="name" v="Skogsrud" />
		<tag k="place" v="farm" />
		<tag k="ssr:stedsnr" v="735127" />
	</node>
	<node id="-384709" lat="60.5671055512" lon="10.6553999926">
		<tag k="name" v="Tollevsrudhågån" />
		<tag k="place" v="farm" />
		<tag k="ssr:stedsnr" v="735121" />
	</node>
	<node id="-384708" lat="60.5635007263" lon="10.658271413">
		<tag k="alt_name" v="Tollefsrud" />
		<tag k="fixme" v="consider place=hamlet" />
		<tag k="name" v="Tollevsrud" />
		<tag k="place" v="farm" />
		<tag k="ssr:stedsnr" v="735119" />
	</node>
	<node id="-384707" lat="60.5501354135" lon="10.6759597084">
		<tag k="alt_name" v="Snipstadsetra" />
		<tag k="fixme" v="consider place=hamlet" />
		<tag k="name" v="Snippstadsætra" />
		<tag k="place" v="farm" />
		<tag k="ssr:stedsnr" v="735107" />
	</node>
	<node id="-384706" lat="60.5466694476" lon="10.6594055501">
		<tag k="name" v="Brubakken" />
		<tag k="place" v="farm" />
		<tag k="ssr:stedsnr" v="735090" />
	</node>
	<node id="-384705" lat="60.5280000044" lon="10.6306111069">
		<tag k="name" v="Sandbekk" />
		<tag k="place" v="farm" />
		<tag k="ssr:stedsnr" v="735086" />
	</node>
	<node id="-384704" lat="60.5300972228" lon="10.6139944396">
		<tag k="name" v="Marka" />
		<tag k="place" v="farm" />
		<tag k="ssr:stedsnr" v="735076" />
	</node>
	<node id="-384702" lat="60.7370750003" lon="10.5706222176">
		<tag k="name" v="Østre Villåsen" />
		<tag k="place" v="farm" />
		<tag k="ssr:stedsnr" v="647893" />
	</node>
	<node id="-384701" lat="60.7478674462" lon="10.6750571446">
		<tag k="name" v="Flikkeshaug" />
		<tag k="place" v="hamlet" />
		<tag k="ssr:stedsnr" v="647673" />
	</node>
	<node id="-384699" lat="60.7386000033" lon="10.6270055477">
		<tag k="name" v="Frydenlund" />
		<tag k="place" v="farm" />
		<tag k="ssr:stedsnr" v="647482" />
	</node>
	<node id="-384697" lat="60.6996111088" lon="10.7350888834">
		<tag k="name" v="Toten Hotel Sillongen" />
		<tag k="ssr:stedsnr" v="632670" />
		<tag k="tourism" v="hotel" />
	</node>
	<node id="-384696" lat="60.5912388858" lon="10.6103111151">
		<tag k="name" v="Nordre Jutulrud" />
		<tag k="place" v="farm" />
		<tag k="ssr:stedsnr" v="727482" />
	</node>
	<node id="-384694" lat="60.6614327735" lon="10.6938853545">
		<tag k="alt_name" v="Ås" />
		<tag k="fixme" v="consider place=hamlet" />
		<tag k="name" v="Prestegården" />
		<tag k="place" v="farm" />
		<tag k="ssr:stedsnr" v="723770" />
	</node>
	<node id="-384693" lat="60.6908444483" lon="10.6583666601">
		<tag k="name" v="Nordvestre Kyset" />
		<tag k="place" v="farm" />
		<tag k="ssr:stedsnr" v="723076" />
	</node>
	<node id="-384692" lat="60.7017333557" lon="10.5851868028">
		<tag k="alt_name" v="Sagvoll" />
		<tag k="fixme" v="consider place=hamlet" />
		<tag k="name" v="Sagvollen" />
		<tag k="place" v="farm" />
		<tag k="ssr:stedsnr" v="613363" />
	</node>
	<node id="-384690" lat="60.7074333349" lon="10.5640444469">
		<tag k="name" v="Rosethaugen" />
		<tag k="place" v="farm" />
		<tag k="ssr:stedsnr" v="613414" />
	</node>
	<node id="-384689" lat="60.71051111" lon="10.6046388927">
		<tag k="name" v="Kildal" />
		<tag k="place" v="farm" />
		<tag k="ssr:stedsnr" v="613407" />
	</node>
	<node id="-384688" lat="60.6171299522" lon="10.6746990875">
		<tag k="fixme" v="consider place=hamlet" />
		<tag k="name" v="Kjelsrud" />
		<tag k="place" v="farm" />
		<tag k="ssr:stedsnr" v="613214" />
	</node>
	<node id="-384687" lat="60.6215138898" lon="10.5845166739">
		<tag k="name" v="Strømstad" />
		<tag k="place" v="isolated_dwelling" />
		<tag k="ssr:stedsnr" v="613210" />
	</node>
	<node id="-384681" lat="60.7230111147" lon="10.6764888827">
		<tag k="name" v="Raulåven" />
		<tag k="place" v="isolated_dwelling" />
		<tag k="ssr:stedsnr" v="708773" />
	</node>
	<node id="-384680" lat="60.7427194409" lon="10.6732055596">
		<tag k="amenity" v="school" />
		<tag k="name" v="Elton" />
		<tag k="ssr:stedsnr" v="708660" />
	</node>
	<node id="-384677" lat="60.7101500008" lon="10.5934249945">
		<tag k="name" v="Rosetlia" />
		<tag k="place" v="quarter" />
		<tag k="ssr:stedsnr" v="708458" />
	</node>
	<node id="-384676" lat="60.5232583372" lon="10.6586305552">
		<tag k="name" v="Fosslien" />
		<tag k="place" v="farm" />
		<tag k="ssr:stedsnr" v="578614" />
	</node>
	<node id="-384674" lat="60.6702638928" lon="10.5559750055">
		<tag k="name" v="Sæterbakken" />
		<tag k="old_name" v="Bakkeli" />
		<tag k="place" v="farm" />
		<tag k="ssr:stedsnr" v="552320" />
	</node>
	<node id="-384673" lat="60.6975710344" lon="10.6805546181">
		<tag k="alt_name" v="Engødegård" />
		<tag k="fixme" v="consider place=hamlet" />
		<tag k="name" v="Engøgard" />
		<tag k="place" v="farm" />
		<tag k="ssr:stedsnr" v="552403" />
	</node>
	<node id="-384672" lat="60.6520361133" lon="10.6014499989">
		<tag k="name" v="Fredrikstad" />
		<tag k="place" v="farm" />
		<tag k="ssr:stedsnr" v="552292" />
	</node>
	<node id="-384670" lat="60.6012222234" lon="10.6759083275">
		<tag k="name" v="Grønland" />
		<tag k="place" v="farm" />
		<tag k="ssr:stedsnr" v="693615" />
	</node>
	<node id="-384669" lat="60.6421500018" lon="10.6302805563">
		<tag k="name" v="Vestheim" />
		<tag k="place" v="farm" />
		<tag k="ssr:stedsnr" v="541953" />
	</node>
	<node id="-384668" lat="60.643719444" lon="10.6014444361">
		<tag k="alt_name" v="Vestre Gamme" />
		<tag k="name" v="Gamme" />
		<tag k="place" v="farm" />
		<tag k="ssr:stedsnr" v="691743" />
	</node>
	<node id="-384667" lat="60.5471611156" lon="10.659011111">
		<tag k="name" v="Bruhagen" />
		<tag k="place" v="farm" />
		<tag k="ssr:stedsnr" v="690364" />
	</node>
	<node id="-384666" lat="60.5453013444" lon="10.6303719457">
		<tag k="name" v="Nygårdslunden" />
		<tag k="place" v="farm" />
		<tag k="ssr:stedsnr" v="690344" />
	</node>
	<node id="-384664" lat="60.6792357106" lon="10.6098545894">
		<tag k="fixme" v="consider place=hamlet" />
		<tag k="name" v="Reinsvoll" />
		<tag k="place" v="farm" />
		<tag k="ssr:stedsnr" v="526365" />
	</node>
	<node id="-384663" lat="60.6938530974" lon="10.7487473429">
		<tag k="fixme" v="consider place=hamlet" />
		<tag k="name" v="Kverndalen" />
		<tag k="place" v="farm" />
		<tag k="ssr:stedsnr" v="674941" />
	</node>
	<node id="-384661" lat="60.7096444443" lon="10.7384249961">
		<tag k="alt_name" v="Eriksrud, nordre;Eriksrud" />
		<tag k="name" v="Nordre Eriksrud" />
		<tag k="place" v="farm" />
		<tag k="ssr:stedsnr" v="674930" />
	</node>
	<node id="-384660" lat="60.7411083339" lon="10.681341669">
		<tag k="name" v="Jemtland" />
		<tag k="place" v="farm" />
		<tag k="ssr:stedsnr" v="674449" />
	</node>
	<node id="-384659" lat="60.7230916665" lon="10.5854999972">
		<tag k="name" v="Rukkerud" />
		<tag k="place" v="farm" />
		<tag k="ssr:stedsnr" v="674418" />
	</node>
	<node id="-384658" lat="60.7206527766" lon="10.6450722194">
		<tag k="name" v="Hermannrud" />
		<tag k="place" v="farm" />
		<tag k="ssr:stedsnr" v="674415" />
	</node>
	<node id="-384657" lat="60.7165777805" lon="10.6286222199">
		<tag k="name" v="Skogsrud" />
		<tag k="place" v="farm" />
		<tag k="ssr:stedsnr" v="674370" />
	</node>
	<node id="-384656" lat="60.7132174268" lon="10.700122483">
		<tag k="alt_name" v="Myren" />
		<tag k="fixme" v="consider place=hamlet" />
		<tag k="name" v="Myra" />
		<tag k="place" v="farm" />
		<tag k="ssr:stedsnr" v="674367" />
	</node>
	<node id="-384655" lat="60.6956250015" lon="10.6495472283">
		<tag k="name" v="Vien" />
		<tag k="place" v="farm" />
		<tag k="ssr:stedsnr" v="674351" />
	</node>
	<node id="-384654" lat="60.6969805545" lon="10.6244999982">
		<tag k="name" v="Morterudenga" />
		<tag k="place" v="farm" />
		<tag k="ssr:stedsnr" v="674345" />
	</node>
	<node id="-384653" lat="60.6932988151" lon="10.5789922157">
		<tag k="alt_name" v="Berger, midtre;Berger" />
		<tag k="fixme" v="consider place=hamlet" />
		<tag k="name" v="Midtre Berger" />
		<tag k="place" v="farm" />
		<tag k="ssr:stedsnr" v="674338" />
	</node>
	<node id="-384652" lat="60.6953500002" lon="10.6138111103">
		<tag k="alt_name" v="Finrøstø" />
		<tag k="name" v="Finnrøste" />
		<tag k="old_name" v="Myre" />
		<tag k="place" v="farm" />
		<tag k="ssr:stedsnr" v="674336" />
	</node>
	<node id="-384651" lat="60.6686543328" lon="10.5998484147">
		<tag k="alt_name" v="Elgeberget" />
		<tag k="fixme" v="consider place=hamlet" />
		<tag k="name" v="Berget" />
		<tag k="place" v="farm" />
		<tag k="ssr:stedsnr" v="674288" />
	</node>
	<node id="-384650" lat="60.6742638872" lon="10.6499361054">
		<tag k="name" v="Arnli" />
		<tag k="place" v="farm" />
		<tag k="ssr:stedsnr" v="674287" />
	</node>
	<node id="-384649" lat="60.5753583337" lon="10.5675666583">
		<tag k="name" v="Bjerkvoll" />
		<tag k="place" v="farm" />
		<tag k="ssr:stedsnr" v="674151" />
	</node>
	<node id="-384648" lat="60.5305583317" lon="10.6646277732">
		<tag k="name" v="Teiterudbakken" />
		<tag k="place" v="farm" />
		<tag k="ssr:stedsnr" v="674093" />
	</node>
	<node id="-384645" lat="60.6577083295" lon="10.6001444501">
		<tag k="name" v="Børthus" />
		<tag k="place" v="farm" />
		<tag k="ssr:stedsnr" v="674242" />
	</node>
	<node id="-384644" lat="60.6688888852" lon="10.6670305523">
		<tag k="leisure" v="pitch" />
		<tag k="name" v="Bøverbru idrettsplass" />
		<tag k="ssr:stedsnr" v="481108" />
	</node>
	<node id="-384643" lat="60.6516805554" lon="10.6446833349">
		<tag k="name" v="Melby" />
		<tag k="place" v="farm" />
		<tag k="ssr:stedsnr" v="480789" />
	</node>
	<node id="-384642" lat="60.6656361142" lon="10.6771277833">
		<tag k="amenity" v="nursing_home" />
		<tag k="name" v="Gimle aldershjem" />
		<tag k="ssr:stedsnr" v="480772" />
	</node>
	<node id="-384641" lat="60.689161109" lon="10.6492694474">
		<tag k="name" v="Bjørge" />
		<tag k="place" v="farm" />
		<tag k="ssr:stedsnr" v="480209" />
	</node>
	<node id="-384640" lat="60.6256916708" lon="10.5904444399">
		<tag k="name" v="Røyskattlia" />
		<tag k="place" v="quarter" />
		<tag k="ssr:stedsnr" v="466617" />
	</node>
	<node id="-384639" lat="60.6937083371" lon="10.625433325">
		<tag k="name" v="Ringelien" />
		<tag k="place" v="farm" />
		<tag k="ssr:stedsnr" v="466417" />
	</node>
	<node id="-384635" lat="60.6777833299" lon="10.6731111147">
		<tag k="name" v="Rustad" />
		<tag k="place" v="farm" />
		<tag k="ssr:stedsnr" v="662535" />
	</node>
	<node id="-384634" lat="60.5583666634" lon="10.6196388877">
		<tag k="name" v="Grefsrud" />
		<tag k="place" v="farm" />
		<tag k="ssr:stedsnr" v="662237" />
	</node>
	<node id="-384633" lat="60.6035888869" lon="10.6713055577">
		<tag k="name" v="Nyborg" />
		<tag k="place" v="farm" />
		<tag k="ssr:stedsnr" v="450605" />
	</node>
	<node id="-384632" lat="60.7152166708" lon="10.5573833337">
		<tag k="alt_name" v="Bradal, s" />
		<tag k="name" v="Søndre Bradal" />
		<tag k="place" v="farm" />
		<tag k="ssr:stedsnr" v="432403" />
	</node>
	<node id="-384631" lat="60.689852774" lon="10.5961666651">
		<tag k="name" v="Brustuskogen" />
		<tag k="place" v="isolated_dwelling" />
		<tag k="ssr:stedsnr" v="432341" />
	</node>
	<node id="-384630" lat="60.6974947311" lon="10.6671785278">
		<tag k="name" v="Øystad" />
		<tag k="place" v="farm" />
		<tag k="ssr:stedsnr" v="432332" />
	</node>
	<node id="-384628" lat="60.679615927" lon="10.5504731875">
		<tag k="alt_name" v="Granum, nedre" />
		<tag k="name" v="Nedre Granum" />
		<tag k="place" v="farm" />
		<tag k="ssr:stedsnr" v="432309" />
	</node>
	<node id="-384627" lat="60.6775000003" lon="10.5450888799">
		<tag k="alt_name" v="Granum, øvre;Granum" />
		<tag k="name" v="Øvre Granum" />
		<tag k="place" v="farm" />
		<tag k="ssr:stedsnr" v="432308" />
	</node>
	<node id="-384626" lat="60.6528399371" lon="10.5148663181">
		<tag k="fixme" v="consider place=hamlet" />
		<tag k="name" v="Furuset" />
		<tag k="place" v="farm" />
		<tag k="ssr:stedsnr" v="432242" />
	</node>
	<node id="-384625" lat="60.6455416671" lon="10.6780749951">
		<tag k="name" v="Bekkevoll" />
		<tag k="place" v="farm" />
		<tag k="ssr:stedsnr" v="432233" />
	</node>
	<node id="-384624" lat="60.6398257596" lon="10.5663036556">
		<tag k="alt_name" v="Storhaugstuen" />
		<tag k="name" v="Storhaugstugua" />
		<tag k="place" v="farm" />
		<tag k="ssr:stedsnr" v="432218" />
	</node>
	<node id="-384622" lat="60.6368840107" lon="10.5952808317">
		<tag k="name" v="Amerika" />
		<tag k="place" v="isolated_dwelling" />
		<tag k="ssr:stedsnr" v="432213" />
	</node>
	<node id="-384621" lat="60.5428888879" lon="10.6179777846">
		<tag k="alt_name" v="Hopopp" />
		<tag k="name" v="Hoppopp" />
		<tag k="place" v="farm" />
		<tag k="ssr:stedsnr" v="432114" />
	</node>
	<node id="-384620" lat="60.5487388893" lon="10.6657305575">
		<tag k="alt_name" v="Hegernes, øvre;Hegernes" />
		<tag k="name" v="Øvre Hegernes" />
		<tag k="place" v="farm" />
		<tag k="ssr:stedsnr" v="432109" />
	</node>
	<node id="-384619" lat="60.5495084677" lon="10.6552351559">
		<tag k="alt_name" v="Hegernes, nedre;Hegernes" />
		<tag k="name" v="Nedre Hegernes" />
		<tag k="place" v="farm" />
		<tag k="ssr:stedsnr" v="432106" />
	</node>
	<node id="-384618" lat="60.66322664" lon="10.5374125813">
		<tag k="alt_name" v="Valleseter" />
		<tag k="fixme" v="consider place=hamlet" />
		<tag k="name" v="Vallesæter" />
		<tag k="place" v="farm" />
		<tag k="ssr:stedsnr" v="431338" />
	</node>
	<node id="-384617" lat="60.6595583366" lon="10.5206638847">
		<tag k="name" v="Furusethagen" />
		<tag k="place" v="farm" />
		<tag k="ssr:stedsnr" v="431327" />
	</node>
	<node id="-384616" lat="60.6681638889" lon="10.6919388849">
		<tag k="name" v="Nærsten" />
		<tag k="place" v="farm" />
		<tag k="ssr:stedsnr" v="420816" />
	</node>
	<node id="-384615" lat="60.7089027746" lon="10.6032388877">
		<tag k="name" v="Dragerfløyten" />
		<tag k="place" v="quarter" />
		<tag k="ssr:stedsnr" v="420922" />
	</node>
	<node id="-384613" lat="60.7334749969" lon="10.6625833296">
		<tag k="name" v="Lerudmyra" />
		<tag k="place" v="farm" />
		<tag k="ssr:stedsnr" v="512829" />
	</node>
	<node id="-384612" lat="60.7069611116" lon="10.728169443">
		<tag k="name" v="Østby" />
		<tag k="place" v="farm" />
		<tag k="ssr:stedsnr" v="511657" />
	</node>
	<node id="-384611" lat="60.7163833315" lon="10.6202916728">
		<tag k="name" v="Grimåsfeltet" />
		<tag k="place" v="quarter" />
		<tag k="ssr:stedsnr" v="508767" />
	</node>
	<node id="-384608" lat="60.7211305595" lon="10.7406305525">
		<tag k="name" v="Øvre Svartås" />
		<tag k="place" v="farm" />
		<tag k="ssr:stedsnr" v="389315" />
	</node>
	<node id="-384607" lat="60.6903447173" lon="10.6082732038">
		<tag k="fixme" v="consider place=hamlet" />
		<tag k="name" v="Roksvoll" />
		<tag k="place" v="farm" />
		<tag k="ssr:stedsnr" v="371304" />
	</node>
	<node id="-384606" lat="60.723052779" lon="10.5793361119">
		<tag k="name" v="Fredly" />
		<tag k="place" v="farm" />
		<tag k="ssr:stedsnr" v="371417" />
	</node>
	<node id="-384603" lat="60.6380333338" lon="10.6589999956">
		<tag k="name" v="Nordby" />
		<tag k="place" v="farm" />
		<tag k="ssr:stedsnr" v="371206" />
	</node>
	<node id="-384602" lat="60.5234194415" lon="10.6156000042">
		<tag k="name" v="Flata" />
		<tag k="place" v="farm" />
		<tag k="ssr:stedsnr" v="371057" />
	</node>
	<node id="-384601" lat="60.5974083301" lon="10.6049944532">
		<tag k="name" v="Steinodden" />
		<tag k="place" v="farm" />
		<tag k="ssr:stedsnr" v="371175" />
	</node>
	<node id="-384600" lat="60.5882194452" lon="10.5634972259">
		<tag k="name" v="Engebakken" />
		<tag k="place" v="farm" />
		<tag k="ssr:stedsnr" v="371172" />
	</node>
	<node id="-384599" lat="60.5678694402" lon="10.6104638851">
		<tag k="name" v="Petersbakken" />
		<tag k="place" v="farm" />
		<tag k="ssr:stedsnr" v="371130" />
	</node>
	<node id="-384598" lat="60.5549527817" lon="10.625669441">
		<tag k="name" v="Dotset" />
		<tag k="place" v="farm" />
		<tag k="ssr:stedsnr" v="371109" />
	</node>
	<node id="-384597" lat="60.6328972189" lon="10.6237972209">
		<tag k="name" v="Romshus" />
		<tag k="place" v="farm" />
		<tag k="ssr:stedsnr" v="359961" />
	</node>
	<node id="-384596" lat="60.7178914848" lon="10.6376633791">
		<tag k="name" v="Sveum" />
		<tag k="place" v="farm" />
		<tag k="ssr:stedsnr" v="359858" />
	</node>
	<node id="-384595" lat="60.7295083343" lon="10.5852694506">
		<tag k="alt_name" v="Sørlien" />
		<tag k="name" v="Sørligrenda" />
		<tag k="place" v="hamlet" />
		<tag k="ssr:stedsnr" v="492431" />
	</node>
	<node id="-384594" lat="60.7441361082" lon="10.6413583397">
		<tag k="name" v="Hanstad" />
		<tag k="place" v="farm" />
		<tag k="ssr:stedsnr" v="492417" />
	</node>
	<node id="-384592" lat="60.573538885" lon="10.6535944532">
		<tag k="name" v="Kirkeby" />
		<tag k="place" v="farm" />
		<tag k="ssr:stedsnr" v="359215" />
	</node>
	<node id="-384591" lat="60.7022694467" lon="10.6474000033">
		<tag k="name" v="Hager" />
		<tag k="place" v="farm" />
		<tag k="ssr:stedsnr" v="492382" />
	</node>
	<node id="-384590" lat="60.7176638901" lon="10.5944388828">
		<tag k="name" v="Lønnberget" />
		<tag k="place" v="quarter" />
		<tag k="ssr:stedsnr" v="492375" />
	</node>
	<node id="-384589" lat="60.712544448" lon="10.6450444406">
		<tag k="name" v="Østeng" />
		<tag k="place" v="farm" />
		<tag k="ssr:stedsnr" v="492370" />
	</node>
	<node id="-384588" lat="60.7122694486" lon="10.6908305484">
		<tag k="alt_name" v="Thune" />
		<tag k="name" v="Tune" />
		<tag k="place" v="farm" />
		<tag k="ssr:stedsnr" v="492366" />
	</node>
	<node id="-384586" lat="60.6895750021" lon="10.6026805648">
		<tag k="alt_name" v="Brustuen" />
		<tag k="name" v="Brustugua" />
		<tag k="place" v="farm" />
		<tag k="ssr:stedsnr" v="492361" />
	</node>
	<node id="-384585" lat="60.6987388929" lon="10.7133861066">
		<tag k="alt_name" v="Westby" />
		<tag k="name" v="Myrvang" />
		<tag k="place" v="farm" />
		<tag k="ssr:stedsnr" v="492344" />
	</node>
	<node id="-384584" lat="60.6974273026" lon="10.5867145163">
		<tag k="alt_name" v="Skartseter" />
		<tag k="fixme" v="consider place=hamlet" />
		<tag k="name" v="Skartsætra" />
		<tag k="place" v="farm" />
		<tag k="ssr:stedsnr" v="492335" />
	</node>
	<node id="-384583" lat="60.7004701146" lon="10.5787440003">
		<tag k="fixme" v="consider place=hamlet" />
		<tag k="name" v="Brattberg" />
		<tag k="place" v="farm" />
		<tag k="ssr:stedsnr" v="492331" />
	</node>
	<node id="-384582" lat="60.6858722206" lon="10.6755083384">
		<tag k="name" v="Rønås" />
		<tag k="place" v="farm" />
		<tag k="ssr:stedsnr" v="492291" />
	</node>
	<node id="-384579" lat="60.6744590722" lon="10.6910632084">
		<tag k="alt_name" v="Øfstås" />
		<tag k="fixme" v="consider place=hamlet" />
		<tag k="name" v="Øvstås" />
		<tag k="old_name" v="Øfstaas;Øvstaas" />
		<tag k="place" v="farm" />
		<tag k="ssr:stedsnr" v="492267" />
	</node>
	<node id="-384577" lat="60.6550277808" lon="10.6026472239">
		<tag k="name" v="Bruflat" />
		<tag k="place" v="hamlet" />
		<tag k="ssr:stedsnr" v="492225" />
	</node>
	<node id="-384576" lat="60.6575583309" lon="10.5188305465">
		<tag k="name" v="Grønlund" />
		<tag k="place" v="farm" />
		<tag k="ssr:stedsnr" v="492213" />
	</node>
	<node id="-384575" lat="60.6554388908" lon="10.5292499981">
		<tag k="alt_name" v="Sveen" />
		<tag k="name" v="Svea" />
		<tag k="place" v="farm" />
		<tag k="ssr:stedsnr" v="492207" />
	</node>
	<node id="-384574" lat="60.6315138897" lon="10.6164694426">
		<tag k="name" v="Nygard" />
		<tag k="place" v="farm" />
		<tag k="ssr:stedsnr" v="492192" />
	</node>
	<node id="-384573" lat="60.6198999988" lon="10.6114305554">
		<tag k="name" v="Dokke" />
		<tag k="place" v="farm" />
		<tag k="ssr:stedsnr" v="492176" />
	</node>
	<node id="-384572" lat="60.6073361074" lon="10.6431388891">
		<tag k="name" v="Sønsteli" />
		<tag k="place" v="farm" />
		<tag k="ssr:stedsnr" v="492159" />
	</node>
	<node id="-384570" lat="60.6009335781" lon="10.6754049511">
		<tag k="name" v="Hermanrud" />
		<tag k="place" v="farm" />
		<tag k="ssr:stedsnr" v="492149" />
	</node>
	<node id="-384569" lat="60.5884506711" lon="10.6440299073">
		<tag k="fixme" v="consider place=hamlet" />
		<tag k="name" v="Bjørnerud" />
		<tag k="place" v="farm" />
		<tag k="ssr:stedsnr" v="492130" />
	</node>
	<node id="-384568" lat="60.5842388894" lon="10.5768138948">
		<tag k="name" v="Korsen" />
		<tag k="place" v="farm" />
		<tag k="ssr:stedsnr" v="492121" />
	</node>
	<node id="-384567" lat="60.5475861117" lon="10.6316638884">
		<tag k="alt_name" v="Bjørnsløkken" />
		<tag k="name" v="Bjørnslykkja" />
		<tag k="place" v="farm" />
		<tag k="ssr:stedsnr" v="492094" />
	</node>
	<node id="-384566" lat="60.5522861078" lon="10.6225277807">
		<tag k="alt_name" v="Sveen" />
		<tag k="name" v="Dotsetsvea" />
		<tag k="place" v="farm" />
		<tag k="ssr:stedsnr" v="492088" />
	</node>
	<node id="-384560" lat="60.533536114" lon="10.6605777689">
		<tag k="name" v="Rustad" />
		<tag k="place" v="farm" />
		<tag k="ssr:stedsnr" v="329731" />
	</node>
	<node id="-384559" lat="60.6445666665" lon="10.6441555567">
		<tag k="name" v="Vestre Sivesind" />
		<tag k="place" v="farm" />
		<tag k="ssr:stedsnr" v="298957" />
	</node>
	<node id="-384558" lat="60.6872320346" lon="10.7256392015">
		<tag k="fixme" v="consider place=hamlet" />
		<tag k="name" v="Kauserud" />
		<tag k="place" v="farm" />
		<tag k="ssr:stedsnr" v="310959" />
	</node>
	<node id="-384555" lat="60.6602666645" lon="10.5214833416">
		<tag k="name" v="Solvoll" />
		<tag k="place" v="farm" />
		<tag k="ssr:stedsnr" v="466760" />
	</node>
	<node id="-384553" lat="60.6989111113" lon="10.5839638801">
		<tag k="name" v="Skartseterbakken" />
		<tag k="place" v="farm" />
		<tag k="ssr:stedsnr" v="465420" />
	</node>
	<node id="-384552" lat="60.6945611122" lon="10.6105861027">
		<tag k="name" v="Torsteinstuen" />
		<tag k="place" v="farm" />
		<tag k="ssr:stedsnr" v="298885" />
	</node>
	<node id="-384551" lat="60.6867888005" lon="10.6692174333">
		<tag k="fixme" v="consider place=hamlet" />
		<tag k="name" v="Inndal" />
		<tag k="place" v="farm" />
		<tag k="ssr:stedsnr" v="465401" />
	</node>
	<node id="-384550" lat="60.6776972205" lon="10.561208336">
		<tag k="name" v="Lognset" />
		<tag k="place" v="farm" />
		<tag k="ssr:stedsnr" v="465035" />
	</node>
	<node id="-384549" lat="60.5858999981" lon="10.5752333349">
		<tag k="name" v="Prestvoll" />
		<tag k="place" v="farm" />
		<tag k="ssr:stedsnr" v="279610" />
	</node>
	<node id="-384547" lat="60.6985333306" lon="10.7408166672">
		<tag k="name" v="Løken" />
		<tag k="place" v="farm" />
		<tag k="ssr:stedsnr" v="268664" />
	</node>
	<node id="-384545" lat="60.7091191334" lon="10.7331614634">
		<tag k="fixme" v="consider place=hamlet" />
		<tag k="name" v="Eriksrud" />
		<tag k="place" v="farm" />
		<tag k="ssr:stedsnr" v="451752" />
	</node>
	<node id="-384544" lat="60.7131166631" lon="10.7265388858">
		<tag k="name" v="Skjønsby" />
		<tag k="place" v="farm" />
		<tag k="ssr:stedsnr" v="451749" />
	</node>
	<node id="-384543" lat="60.7378916628" lon="10.6986694516">
		<tag k="alt_name" v="Li, vestre" />
		<tag k="name" v="Vestre Li" />
		<tag k="place" v="farm" />
		<tag k="ssr:stedsnr" v="250461" />
	</node>
	<node id="-384542" lat="60.7220825721" lon="10.6269716227">
		<tag k="fixme" v="consider place=hamlet" />
		<tag k="name" v="Korterud" />
		<tag k="place" v="farm" />
		<tag k="ssr:stedsnr" v="250428" />
	</node>
	<node id="-384541" lat="60.7324694428" lon="10.6814388866">
		<tag k="name" v="Torstad" />
		<tag k="place" v="farm" />
		<tag k="ssr:stedsnr" v="250410" />
	</node>
	<node id="-384539" lat="60.7295166693" lon="10.698375007">
		<tag k="alt_name" v="Flaterud" />
		<tag k="name" v="Flatrud" />
		<tag k="place" v="farm" />
		<tag k="ssr:stedsnr" v="250406" />
	</node>
	<node id="-384538" lat="60.699037711" lon="10.7183284846">
		<tag k="fixme" v="consider place=hamlet" />
		<tag k="name" v="Kvaksrud" />
		<tag k="place" v="farm" />
		<tag k="ssr:stedsnr" v="450690" />
	</node>
	<node id="-384536" lat="60.662038892" lon="10.5331861119">
		<tag k="name" v="Vallevoll" />
		<tag k="place" v="farm" />
		<tag k="ssr:stedsnr" v="222733" />
	</node>
	<node id="-384535" lat="60.6541336583" lon="10.6568008851">
		<tag k="alt_name" v="Sivesindhagen" />
		<tag k="fixme" v="consider place=hamlet" />
		<tag k="name" v="Sivesinhagen" />
		<tag k="place" v="farm" />
		<tag k="ssr:stedsnr" v="298686" />
	</node>
	<node id="-384534" lat="60.6893722237" lon="10.6591888977">
		<tag k="name" v="Borgen" />
		<tag k="place" v="farm" />
		<tag k="ssr:stedsnr" v="298502" />
	</node>
	<node id="-384533" lat="60.648833337" lon="10.5211694486">
		<tag k="leisure" v="pitch" />
		<tag k="name" v="Solvoll idrettsplass" />
		<tag k="ssr:stedsnr" v="298214" />
	</node>
	<node id="-384532" lat="60.5638138868" lon="10.612377769">
		<tag k="name" v="Øvre Amlien" />
		<tag k="place" v="farm" />
		<tag k="ssr:stedsnr" v="298208" />
	</node>
	<node id="-384531" lat="60.6785972182" lon="10.502263895">
		<tag k="alt_name" v="Midtre Skjerdalen;Skjerrdalen, midtre;Skjerrdalen;Midtre Skjærdalen" />
		<tag k="name" v="Midtre Skjerrdalen" />
		<tag k="place" v="farm" />
		<tag k="ssr:stedsnr" v="298135" />
	</node>
	<node id="-384530" lat="60.5807611125" lon="10.6535972138">
		<tag k="alt_name" v="Bjørnerudsvea, s;Bjørnerudsveen" />
		<tag k="name" v="Søndre Bjørnerudsvea" />
		<tag k="place" v="farm" />
		<tag k="ssr:stedsnr" v="189144" />
	</node>
	<node id="-384529" lat="60.5785749995" lon="10.6535749962">
		<tag k="alt_name" v="Nordengen" />
		<tag k="name" v="Nordenga" />
		<tag k="place" v="farm" />
		<tag k="ssr:stedsnr" v="189143" />
	</node>
	<node id="-384528" lat="60.5775333304" lon="10.658086105">
		<tag k="name" v="Lauvbakken" />
		<tag k="place" v="farm" />
		<tag k="ssr:stedsnr" v="189141" />
	</node>
	<node id="-384527" lat="60.5616194423" lon="10.6719750017">
		<tag k="alt_name" v="Bråten" />
		<tag k="name" v="Bråtån" />
		<tag k="place" v="farm" />
		<tag k="ssr:stedsnr" v="189117" />
	</node>
	<node id="-384526" lat="60.6620138875" lon="10.6565722252">
		<tag k="name" v="Tjernsrud" />
		<tag k="place" v="farm" />
		<tag k="ssr:stedsnr" v="177806" />
	</node>
	<node id="-384525" lat="60.7285861089" lon="10.7052027806">
		<tag k="name" v="Skogstad" />
		<tag k="place" v="farm" />
		<tag k="ssr:stedsnr" v="284822" />
	</node>
	<node id="-384524" lat="60.6129583353" lon="10.594219436">
		<tag k="name" v="Sund" />
		<tag k="place" v="farm" />
		<tag k="ssr:stedsnr" v="284585" />
	</node>
	<node id="-384523" lat="60.6304999902" lon="10.5943760643">
		<tag k="fixme" v="consider place=hamlet" />
		<tag k="name" v="Vadet" />
		<tag k="place" v="farm" />
		<tag k="ssr:stedsnr" v="284387" />
	</node>
	<node id="-384520" lat="60.6401472197" lon="10.5959111097">
		<tag k="fixme" v="consider place=hamlet" />
		<tag k="name" v="Fiskevollberget" />
		<tag k="place" v="farm" />
		<tag k="ssr:stedsnr" v="284371" />
	</node>
	<node id="-384519" lat="60.7505250024" lon="10.6279055586">
		<tag k="name" v="Nordby" />
		<tag k="place" v="farm" />
		<tag k="ssr:stedsnr" v="284007" />
	</node>
	<node id="-384518" lat="60.7450861138" lon="10.6510194483">
		<tag k="name" v="Vestre Drengsrud" />
		<tag k="place" v="farm" />
		<tag k="ssr:stedsnr" v="284004" />
	</node>
	<node id="-384516" lat="60.6850788443" lon="10.581255644">
		<tag k="name" v="Bjørkebakken" />
		<tag k="place" v="farm" />
		<tag k="ssr:stedsnr" v="283388" />
	</node>
	<node id="-384515" lat="60.5914499984" lon="10.5622833305">
		<tag k="name" v="Skjellsveen" />
		<tag k="place" v="farm" />
		<tag k="ssr:stedsnr" v="282583" />
	</node>
	<node id="-384513" lat="60.7421499962" lon="10.6194083418">
		<tag k="name" v="Breiskallengen" />
		<tag k="place" v="farm" />
		<tag k="ssr:stedsnr" v="162420" />
	</node>
	<node id="-384511" lat="60.7178638894" lon="10.5874083281">
		<tag k="leisure" v="pitch" />
		<tag k="name" v="Lønnbergbakken" />
		<tag k="ssr:stedsnr" v="162173" />
	</node>
	<node id="-384510" lat="60.7415138896" lon="10.6449666689">
		<tag k="name" v="Nordre Grøthaug" />
		<tag k="place" v="farm" />
		<tag k="ssr:stedsnr" v="162013" />
	</node>
	<node id="-384509" lat="60.6774083302" lon="10.7236805622">
		<tag k="name" v="Holtebråten" />
		<tag k="place" v="farm" />
		<tag k="ssr:stedsnr" v="269046" />
	</node>
	<node id="-384508" lat="60.6419527816" lon="10.6889555649">
		<tag k="alt_name" v="Stikbakke" />
		<tag k="name" v="Stikkbakke" />
		<tag k="place" v="farm" />
		<tag k="ssr:stedsnr" v="268558" />
	</node>
	<node id="-384507" lat="60.7114732814" lon="10.6767473341">
		<tag k="fixme" v="consider place=hamlet" />
		<tag k="name" v="Malterud" />
		<tag k="place" v="farm" />
		<tag k="ssr:stedsnr" v="128352" />
	</node>
	<node id="-384506" lat="60.6919034599" lon="10.5492280286">
		<tag k="fixme" v="consider place=hamlet" />
		<tag k="name" v="Skjellerud" />
		<tag k="place" v="farm" />
		<tag k="ssr:stedsnr" v="128350" />
	</node>
	<node id="-384505" lat="60.6867750604" lon="10.5735031964">
		<tag k="alt_name" v="Stenberg" />
		<tag k="fixme" v="consider place=hamlet" />
		<tag k="name" v="Steinberg" />
		<tag k="place" v="farm" />
		<tag k="ssr:stedsnr" v="128347" />
	</node>
	<node id="-384503" lat="60.6848840242" lon="10.5607290005">
		<tag k="alt_name" v="Undlien" />
		<tag k="fixme" v="consider place=hamlet" />
		<tag k="name" v="Undlia" />
		<tag k="place" v="farm" />
		<tag k="ssr:stedsnr" v="128303" />
	</node>
	<node id="-384502" lat="60.6573555554" lon="10.6665611084">
		<tag k="alt_name" v="Børsvollsveen" />
		<tag k="name" v="Børsvollsvea" />
		<tag k="place" v="farm" />
		<tag k="ssr:stedsnr" v="128236" />
	</node>
	<node id="-384500" lat="60.6582638921" lon="10.5279749997">
		<tag k="alt_name" v="Smetop" />
		<tag k="name" v="Smettopp" />
		<tag k="place" v="farm" />
		<tag k="ssr:stedsnr" v="128223" />
	</node>
	<node id="-384495" lat="60.6861720252" lon="10.7459456538">
		<tag k="fixme" v="consider place=hamlet" />
		<tag k="name" v="Evenrud" />
		<tag k="place" v="farm" />
		<tag k="ssr:stedsnr" v="250952" />
	</node>
	<node id="-384494" lat="60.6781472267" lon="10.6031361135">
		<tag k="name" v="Skogly" />
		<tag k="place" v="farm" />
		<tag k="ssr:stedsnr" v="250340" />
	</node>
	<node id="-384492" lat="60.5366638886" lon="10.6559777866">
		<tag k="name" v="Tveito" />
		<tag k="place" v="farm" />
		<tag k="ssr:stedsnr" v="250108" />
	</node>
	<node id="-384491" lat="60.526311115" lon="10.61641112">
		<tag k="alt_name" v="Bråten" />
		<tag k="name" v="Bråtån" />
		<tag k="place" v="farm" />
		<tag k="ssr:stedsnr" v="250091" />
	</node>
	<node id="-384489" lat="60.7130884707" lon="10.743218972">
		<tag k="alt_name" v="Husby" />
		<tag k="fixme" v="consider place=hamlet" />
		<tag k="name" v="Huseby" />
		<tag k="place" v="farm" />
		<tag k="ssr:stedsnr" v="249929" />
	</node>
	<node id="-384488" lat="60.7332003288" lon="10.7271947866">
		<tag k="fixme" v="consider place=hamlet" />
		<tag k="name" v="Alm" />
		<tag k="place" v="farm" />
		<tag k="ssr:stedsnr" v="249913" />
	</node>
	<node id="-384487" lat="60.7075472257" lon="10.5789277726">
		<tag k="name" v="Berglund" />
		<tag k="place" v="farm" />
		<tag k="ssr:stedsnr" v="249410" />
	</node>
	<node id="-384485" lat="60.6638388859" lon="10.6039444527">
		<tag k="alt_name" v="Reinsvollsveen" />
		<tag k="name" v="Reinsvollsvea" />
		<tag k="place" v="farm" />
		<tag k="ssr:stedsnr" v="249306" />
	</node>
	<node id="-384484" lat="60.6648901379" lon="10.5816934994">
		<tag k="alt_name" v="Sorgen" />
		<tag k="fixme" v="consider place=hamlet" />
		<tag k="name" v="Sørgen" />
		<tag k="place" v="farm" />
		<tag k="ssr:stedsnr" v="249305" />
	</node>
	<node id="-384483" lat="60.6747777692" lon="10.6689117771">
		<tag k="fixme" v="consider place=hamlet" />
		<tag k="name" v="Rud" />
		<tag k="place" v="farm" />
		<tag k="ssr:stedsnr" v="249295" />
	</node>
	<node id="-384481" lat="60.6420185031" lon="10.5994506039">
		<tag k="alt_name" v="Fiskevoll" />
		<tag k="fixme" v="consider place=hamlet" />
		<tag k="name" v="Fiskevollen" />
		<tag k="place" v="farm" />
		<tag k="ssr:stedsnr" v="249275" />
	</node>
	<node id="-384480" lat="60.7024333338" lon="10.6434083398">
		<tag k="name" v="Grindstad" />
		<tag k="place" v="farm" />
		<tag k="ssr:stedsnr" v="249406" />
	</node>
	<node id="-384478" lat="60.7308655667" lon="10.6838939226">
		<tag k="fixme" v="consider place=hamlet" />
		<tag k="name" v="Ringvoll" />
		<tag k="place" v="farm" />
		<tag k="ssr:stedsnr" v="68437" />
	</node>
	<node id="-384477" lat="60.7301305525" lon="10.7170583409">
		<tag k="name" v="Bøle" />
		<tag k="place" v="farm" />
		<tag k="ssr:stedsnr" v="68434" />
	</node>
	<node id="-384476" lat="60.7251749983" lon="10.5787277816">
		<tag k="name" v="Nysetbakken" />
		<tag k="place" v="farm" />
		<tag k="ssr:stedsnr" v="68422" />
	</node>
	<node id="-384475" lat="60.5375222235" lon="10.6194722218">
		<tag k="alt_name" v="Hovelsrud" />
		<tag k="name" v="Håvelsrud" />
		<tag k="place" v="farm" />
		<tag k="ssr:stedsnr" v="68104" />
	</node>
	<node id="-384474" lat="60.7038194443" lon="10.5767111031">
		<tag k="name" v="Granli" />
		<tag k="place" v="farm" />
		<tag k="ssr:stedsnr" v="67423" />
	</node>
	<node id="-384473" lat="60.7060777757" lon="10.5711555586">
		<tag k="name" v="Skoglund" />
		<tag k="place" v="farm" />
		<tag k="ssr:stedsnr" v="67421" />
	</node>
	<node id="-384472" lat="60.7095000004" lon="10.6654861065">
		<tag k="alt_name" v="Tåsåsstuen" />
		<tag k="name" v="Tåsåsstugua" />
		<tag k="place" v="farm" />
		<tag k="ssr:stedsnr" v="67416" />
	</node>
	<node id="-384471" lat="60.7052027816" lon="10.7163333319">
		<tag k="name" v="Lierengen" />
		<tag k="old_name" v="Lier" />
		<tag k="place" v="farm" />
		<tag k="ssr:stedsnr" v="67409" />
	</node>
	<node id="-384470" lat="60.7139388931" lon="10.612986115">
		<tag k="name" v="Furuset" />
		<tag k="place" v="farm" />
		<tag k="ssr:stedsnr" v="67407" />
	</node>
	<node id="-384468" lat="60.5599833293" lon="10.607572225">
		<tag k="name" v="Bremenholm" />
		<tag k="place" v="farm" />
		<tag k="ssr:stedsnr" v="67150" />
	</node>
	<node id="-384467" lat="60.5612898509" lon="10.6282012179">
		<tag k="alt_name" v="Amlihagen" />
		<tag k="fixme" v="consider place=hamlet" />
		<tag k="name" v="Amlihågån" />
		<tag k="place" v="farm" />
		<tag k="ssr:stedsnr" v="67149" />
	</node>
	<node id="-384466" lat="60.5637944443" lon="10.6214083308">
		<tag k="alt_name" v="Noraker" />
		<tag k="name" v="Nordåker" />
		<tag k="place" v="farm" />
		<tag k="ssr:stedsnr" v="67148" />
	</node>
	<node id="-384465" lat="60.6048138848" lon="10.6430111037">
		<tag k="name" v="Lervoll" />
		<tag k="place" v="farm" />
		<tag k="ssr:stedsnr" v="67224" />
	</node>
	<node id="-384464" lat="60.6645138893" lon="10.6808027795">
		<tag k="amenity" v="school" />
		<tag k="name" v="Bøverbru skole" />
		<tag k="ssr:stedsnr" v="238808" />
	</node>
	<node id="-384463" lat="60.6710194455" lon="10.6147361077">
		<tag k="name" v="Skauge" />
		<tag k="place" v="farm" />
		<tag k="ssr:stedsnr" v="238798" />
	</node>
	<node id="-384462" lat="60.6668861086" lon="10.6029250065">
		<tag k="name" v="Vestbakken" />
		<tag k="place" v="farm" />
		<tag k="ssr:stedsnr" v="238797" />
	</node>
	<node id="-384461" lat="60.546113888" lon="10.6191000038">
		<tag k="name" v="Ørjasveen" />
		<tag k="place" v="isolated_dwelling" />
		<tag k="ssr:stedsnr" v="238307" />
	</node>
	<node id="-384460" lat="60.5824611137" lon="10.6497416639">
		<tag k="name" v="Bjørnsgård" />
		<tag k="place" v="farm" />
		<tag k="ssr:stedsnr" v="238226" />
	</node>
	<node id="-384457" lat="60.5540344164" lon="10.6302401322">
		<tag k="fixme" v="consider place=hamlet" />
		<tag k="name" v="Dotset" />
		<tag k="place" v="farm" />
		<tag k="ssr:stedsnr" v="40103" />
	</node>
	<node id="-384456" lat="60.5843944414" lon="10.5954944375">
		<tag k="name" v="Hoelsveen" />
		<tag k="place" v="farm" />
		<tag k="ssr:stedsnr" v="39452" />
	</node>
	<node id="-384455" lat="60.7490388903" lon="10.6711500033">
		<tag k="name" v="Nordre Flikkeshaug" />
		<tag k="place" v="farm" />
		<tag k="ssr:stedsnr" v="223695" />
	</node>
	<node id="-384454" lat="60.6985611082" lon="10.7361861047">
		<tag k="name" v="Løkenlia" />
		<tag k="place" v="farm" />
		<tag k="ssr:stedsnr" v="223665" />
	</node>
	<node id="-384452" lat="60.7400861098" lon="10.6296305491">
		<tag k="name" v="Lundby" />
		<tag k="place" v="farm" />
		<tag k="ssr:stedsnr" v="223517" />
	</node>
	<node id="-384450" lat="60.6630277813" lon="10.5981583294">
		<tag k="name" v="Karlstad" />
		<tag k="place" v="locality" />
		<tag k="ssr:stedsnr" v="223402" />
	</node>
	<node id="-384447" lat="60.589536107" lon="10.6138416703">
		<tag k="name" v="Søndre Jutulrud" />
		<tag k="place" v="farm" />
		<tag k="ssr:stedsnr" v="223227" />
	</node>
	<node id="-384446" lat="60.6212388846" lon="10.6031638878">
		<tag k="name" v="Sundskog" />
		<tag k="place" v="quarter" />
		<tag k="ssr:stedsnr" v="223079" />
	</node>
	<node id="-384445" lat="60.5845388926" lon="10.5649999967">
		<tag k="name" v="Kjelsberg" />
		<tag k="place" v="isolated_dwelling" />
		<tag k="ssr:stedsnr" v="218567" />
	</node>
	<node id="-385245" lat="60.7022527582" lon="10.5185987832">
		<tag k="name" v="Rognlihaughytta" />
		<tag k="place" v="locality" />
		<tag k="ssr:stedsnr" v="1076450" />
	</node>
	<node id="-385241" lat="60.5686381641" lon="10.5649817112">
		<tag k="fixme" v="consider place=hamlet" />
		<tag k="name" v="Sønsteby" />
		<tag k="place" v="farm" />
		<tag k="ssr:stedsnr" v="988921" />
	</node>
	<node id="-385240" lat="60.7029580505" lon="10.5775777374">
		<tag k="fixme" v="consider place=hamlet" />
		<tag k="name" v="Kørret" />
		<tag k="place" v="farm" />
		<tag k="ssr:stedsnr" v="988920" />
	</node>
	<node id="-385239" lat="60.68303411" lon="10.5770331504">
		<tag k="fixme" v="consider place=hamlet" />
		<tag k="name" v="Buer" />
		<tag k="place" v="farm" />
		<tag k="ssr:stedsnr" v="988919" />
	</node>
	<node id="-385238" lat="60.6837243615" lon="10.5974921563">
		<tag k="name" v="Brenna" />
		<tag k="place" v="locality" />
		<tag k="ssr:stedsnr" v="988918" />
	</node>
	<node id="-385237" lat="60.6898647542" lon="10.6582527019">
		<tag k="name" v="Kyset" />
		<tag k="place" v="hamlet" />
		<tag k="ssr:stedsnr" v="988912" />
	</node>
	<node id="-385236" lat="60.6817091006" lon="10.6407582854">
		<tag k="fixme" v="consider place=hamlet" />
		<tag k="name" v="Presteseter" />
		<tag k="place" v="farm" />
		<tag k="ssr:stedsnr" v="988911" />
	</node>
	<node id="-385235" lat="60.7047983793" lon="10.6539174172">
		<tag k="fixme" v="consider place=hamlet" />
		<tag k="name" v="Grevlaus" />
		<tag k="place" v="farm" />
		<tag k="ssr:stedsnr" v="988910" />
	</node>
	<node id="-385234" lat="60.7206323137" lon="10.7432023396">
		<tag k="fixme" v="consider place=hamlet" />
		<tag k="name" v="Svartås" />
		<tag k="place" v="farm" />
		<tag k="ssr:stedsnr" v="988909" />
	</node>
	<node id="-385233" lat="60.7470351097" lon="10.6534124262">
		<tag k="fixme" v="consider place=hamlet" />
		<tag k="name" v="Drengsrud" />
		<tag k="place" v="farm" />
		<tag k="ssr:stedsnr" v="988906" />
	</node>
	<node id="-385232" lat="60.7352537481" lon="10.5715731029">
		<tag k="name" v="Vestre Villåsen" />
		<tag k="place" v="locality" />
		<tag k="ssr:stedsnr" v="988376" />
	</node>
	<node id="-385230" lat="60.6680055585" lon="10.7078166725">
		<tag k="name" v="Jordet" />
		<tag k="place" v="farm" />
		<tag k="ssr:stedsnr" v="966828" />
	</node>
	<node id="-385229" lat="60.6987527794" lon="10.6881611022">
		<tag k="name" v="Knatterud" />
		<tag k="place" v="farm" />
		<tag k="ssr:stedsnr" v="966085" />
	</node>
	<node id="-385226" lat="60.7435194453" lon="10.6945833248">
		<tag k="name" v="Haugom" />
		<tag k="place" v="farm" />
		<tag k="ssr:stedsnr" v="951759" />
	</node>
	<node id="-385221" lat="60.5986638876" lon="10.6450888797">
		<tag k="alt_name" v="Øvergård" />
		<tag k="name" v="Øvergard" />
		<tag k="place" v="farm" />
		<tag k="ssr:stedsnr" v="857197" />
	</node>
	<node id="-385220" lat="60.601854642" lon="10.6460853077">
		<tag k="alt_name" v="Skinderviken" />
		<tag k="fixme" v="consider place=hamlet" />
		<tag k="name" v="Skinnervika" />
		<tag k="place" v="farm" />
		<tag k="ssr:stedsnr" v="857195" />
	</node>
	<node id="-385219" lat="60.6809217667" lon="10.566682975">
		<tag k="fixme" v="consider place=hamlet" />
		<tag k="name" v="Olsby" />
		<tag k="place" v="farm" />
		<tag k="ssr:stedsnr" v="857352" />
	</node>
	<node id="-385217" lat="60.6450194404" lon="10.6128499908">
		<tag k="alt_name" v="Gamengen" />
		<tag k="name" v="Gamenga" />
		<tag k="place" v="farm" />
		<tag k="ssr:stedsnr" v="857296" />
	</node>
	<node id="-385216" lat="60.6440249996" lon="10.6310333265">
		<tag k="alt_name" v="Nordsveen" />
		<tag k="name" v="Nordsvea" />
		<tag k="place" v="farm" />
		<tag k="ssr:stedsnr" v="857295" />
	</node>
	<node id="-385214" lat="60.7091694487" lon="10.6448166757">
		<tag k="alt_name" v="Dragerengen" />
		<tag k="name" v="Dragerenga" />
		<tag k="place" v="farm" />
		<tag k="ssr:stedsnr" v="856437" />
	</node>
	<node id="-385213" lat="60.7060048791" lon="10.6424362215">
		<tag k="fixme" v="consider place=hamlet" />
		<tag k="name" v="Drager" />
		<tag k="place" v="farm" />
		<tag k="ssr:stedsnr" v="856435" />
	</node>
	<node id="-385212" lat="60.7064688686" lon="10.6979832349">
		<tag k="fixme" v="consider place=hamlet" />
		<tag k="name" v="Helset" />
		<tag k="place" v="farm" />
		<tag k="ssr:stedsnr" v="856433" />
	</node>
	<node id="-385211" lat="60.6650444482" lon="10.5544472244">
		<tag k="name" v="Engevoll" />
		<tag k="place" v="farm" />
		<tag k="ssr:stedsnr" v="856340" />
	</node>
	<node id="-385210" lat="60.6621416665" lon="10.5835861151">
		<tag k="alt_name" v="Sørgenseter" />
		<tag k="name" v="Sorgensætra" />
		<tag k="place" v="farm" />
		<tag k="ssr:stedsnr" v="856338" />
	</node>
	<node id="-385209" lat="60.6495111088" lon="10.6768749987">
		<tag k="name" v="Kjelsberg" />
		<tag k="place" v="farm" />
		<tag k="ssr:stedsnr" v="856281" />
	</node>
	<node id="-385208" lat="60.6521566048" lon="10.6627919081">
		<tag k="alt_name" v="Børsvollen" />
		<tag k="fixme" v="consider place=hamlet" />
		<tag k="name" v="Børsvoll" />
		<tag k="place" v="farm" />
		<tag k="ssr:stedsnr" v="856277" />
	</node>
	<node id="-385206" lat="60.563241668" lon="10.6211611118">
		<tag k="fixme" v="consider place=hamlet" />
		<tag k="name" v="Einastranda" />
		<tag k="place" v="village" />
		<tag k="ssr:stedsnr" v="856145" />
	</node>
	<node id="-385205" lat="60.5679041377" lon="10.5622143628">
		<tag k="fixme" v="multiple name tags, choose one and add the other to alt_name" />
		<tag k="name" v="Søndre Sønsteby;Sørgard" />
		<tag k="place" v="farm" />
		<tag k="ssr:stedsnr" v="856132" />
	</node>
	<node id="-385204" lat="60.5662305559" lon="10.6004388889">
		<tag k="name" v="Dambråtan" />
		<tag k="place" v="farm" />
		<tag k="ssr:stedsnr" v="856131" />
	</node>
	<node id="-385203" lat="60.6615348158" lon="10.6020786996">
		<tag k="alt_name" v="Reinsvollsveen" />
		<tag k="fixme" v="consider place=hamlet" />
		<tag k="name" v="Reinsvollsvea" />
		<tag k="place" v="farm" />
		<tag k="ssr:stedsnr" v="845753" />
	</node>
	<node id="-385199" lat="60.6202666626" lon="10.5875444516">
		<tag k="name" v="Kvernhaugen" />
		<tag k="place" v="quarter" />
		<tag k="ssr:stedsnr" v="830577" />
	</node>
	<node id="-385194" lat="60.61066111" lon="10.64157223">
		<tag k="name" v="Vestre Blilie" />
		<tag k="place" v="farm" />
		<tag k="ssr:stedsnr" v="830073" />
	</node>
	<node id="-385193" lat="60.6840525297" lon="10.5691548339">
		<tag k="fixme" v="consider place=hamlet" />
		<tag k="name" v="Bekkelien" />
		<tag k="place" v="farm" />
		<tag k="ssr:stedsnr" v="830049" />
	</node>
	<node id="-385191" lat="60.6731388876" lon="10.6746638949">
		<tag k="name" v="Gjestrumsbakken" />
		<tag k="place" v="farm" />
		<tag k="ssr:stedsnr" v="812777" />
	</node>
	<node id="-385190" lat="60.6854083312" lon="10.5705750009">
		<tag k="name" v="Gotterud" />
		<tag k="place" v="isolated_dwelling" />
		<tag k="ssr:stedsnr" v="812773" />
	</node>
	<node id="-385188" lat="60.7508805574" lon="10.671244438">
		<tag k="name" v="Nyland" />
		<tag k="place" v="farm" />
		<tag k="ssr:stedsnr" v="798116" />
	</node>
	<node id="-385187" lat="60.6805305554" lon="10.7266277784">
		<tag k="name" v="Augustenborg" />
		<tag k="place" v="farm" />
		<tag k="ssr:stedsnr" v="796973" />
	</node>
	<node id="-385186" lat="60.7452777744" lon="10.680530549">
		<tag k="name" v="Lauvlia" />
		<tag k="place" v="farm" />
		<tag k="ssr:stedsnr" v="796463" />
	</node>
	<node id="-385185" lat="60.7318166672" lon="10.5746000027">
		<tag k="name" v="Nyjordet" />
		<tag k="place" v="farm" />
		<tag k="ssr:stedsnr" v="796457" />
	</node>
	<node id="-385182" lat="60.6879277751" lon="10.6386777716">
		<tag k="name" v="Nereng" />
		<tag k="place" v="farm" />
		<tag k="ssr:stedsnr" v="796312" />
	</node>
	<node id="-385181" lat="60.6400269346" lon="10.6882500044">
		<tag k="alt_name" v="Stikbakke" />
		<tag k="fixme" v="consider place=hamlet" />
		<tag k="name" v="Stikkbakke" />
		<tag k="place" v="farm" />
		<tag k="ssr:stedsnr" v="796244" />
	</node>
	<node id="-385179" lat="60.5434027819" lon="10.6315638809">
		<tag k="name" v="Strande" />
		<tag k="place" v="farm" />
		<tag k="ssr:stedsnr" v="796113" />
	</node>
	<node id="-385178" lat="60.5576583166" lon="10.6222526009">
		<tag k="fixme" v="consider place=hamlet" />
		<tag k="name" v="Grefsrud" />
		<tag k="place" v="farm" />
		<tag k="ssr:stedsnr" v="796106" />
	</node>
	<node id="-385177" lat="60.5322000015" lon="10.6727305508">
		<tag k="alt_name" v="Løvlien" />
		<tag k="name" v="Lauvlia" />
		<tag k="place" v="farm" />
		<tag k="ssr:stedsnr" v="796096" />
	</node>
	<node id="-385176" lat="60.524327776" lon="10.6316055605">
		<tag k="alt_name" v="Sløbråten" />
		<tag k="name" v="Sløbråtån" />
		<tag k="place" v="farm" />
		<tag k="ssr:stedsnr" v="796079" />
	</node>
	<node id="-385174" lat="60.7102150292" lon="10.5812622568">
		<tag k="fixme" v="consider place=hamlet" />
		<tag k="name" v="Roset" />
		<tag k="place" v="farm" />
		<tag k="ssr:stedsnr" v="795899" />
	</node>
	<node id="-385173" lat="60.709097224" lon="10.5799388866">
		<tag k="name" v="Rosetenga" />
		<tag k="place" v="farm" />
		<tag k="ssr:stedsnr" v="795457" />
	</node>
	<node id="-385172" lat="60.6685267489" lon="10.6041348929">
		<tag k="alt_name" v="Voldengen" />
		<tag k="fixme" v="consider place=hamlet" />
		<tag k="name" v="Vollenga" />
		<tag k="place" v="farm" />
		<tag k="ssr:stedsnr" v="795332" />
	</node>
	<node id="-385171" lat="60.668063317" lon="10.5546319655">
		<tag k="alt_name" v="Engeseter" />
		<tag k="fixme" v="consider place=hamlet" />
		<tag k="name" v="Engesætra" />
		<tag k="place" v="farm" />
		<tag k="ssr:stedsnr" v="795321" />
	</node>
	<node id="-385170" lat="60.6732645126" lon="10.5586392591">
		<tag k="alt_name" v="Festadseter" />
		<tag k="fixme" v="consider place=hamlet" />
		<tag k="name" v="Festadsætra" />
		<tag k="place" v="farm" />
		<tag k="ssr:stedsnr" v="795320" />
	</node>
	<node id="-385167" lat="60.6576138874" lon="10.6565472255">
		<tag k="name" v="Heksumengen" />
		<tag k="place" v="farm" />
		<tag k="ssr:stedsnr" v="784802" />
	</node>
	<node id="-385166" lat="60.5859388913" lon="10.6465416672">
		<tag k="name" v="Bjørnerud" />
		<tag k="place" v="farm" />
		<tag k="ssr:stedsnr" v="784238" />
	</node>
	<node id="-385165" lat="60.7051638901" lon="10.6789666587">
		<tag k="name" v="Lille Vestre Tåsås" />
		<tag k="place" v="farm" />
		<tag k="ssr:stedsnr" v="784121" />
	</node>
	<node id="-385164" lat="60.7075944473" lon="10.6934444531">
		<tag k="building" v="industrial" />
		<tag k="name" v="Helset sag" />
		<tag k="ssr:stedsnr" v="784083" />
	</node>
	<node id="-385163" lat="60.5784750033" lon="10.6217972169">
		<tag k="name" v="Rasmussveen" />
		<tag k="old_name" v="Amlund" />
		<tag k="place" v="farm" />
		<tag k="ssr:stedsnr" v="783140" />
	</node>
	<node id="-385162" lat="60.7121805547" lon="10.5758749911">
		<tag k="name" v="Nedre Roset" />
		<tag k="place" v="farm" />
		<tag k="ssr:stedsnr" v="783083" />
	</node>
	<node id="-385160" lat="60.6873900212" lon="10.6020575473">
		<tag k="name" v="Skarseterhagen" />
		<tag k="place" v="farm" />
		<tag k="ssr:stedsnr" v="769374" />
	</node>
	<node id="-385154" lat="60.5418424018" lon="10.6318063832">
		<tag k="fixme" v="consider place=hamlet" />
		<tag k="name" v="Strande" />
		<tag k="place" v="farm" />
		<tag k="ssr:stedsnr" v="751798" />
	</node>
	<node id="-385153" lat="60.5547888915" lon="10.6273944529">
		<tag k="name" v="Tomlevoll" />
		<tag k="place" v="isolated_dwelling" />
		<tag k="ssr:stedsnr" v="751789" />
	</node>
	<node id="-385150" lat="60.7348333302" lon="10.703388884">
		<tag k="name" v="Nordli" />
		<tag k="place" v="farm" />
		<tag k="ssr:stedsnr" v="647787" />
	</node>
	<node id="-385148" lat="60.7521333323" lon="10.6951111196">
		<tag k="name" v="Østre søndre Hjelpstein" />
		<tag k="place" v="farm" />
		<tag k="ssr:stedsnr" v="647746" />
	</node>
	<node id="-385146" lat="60.679030415" lon="10.5477178442">
		<tag k="fixme" v="consider place=hamlet" />
		<tag k="name" v="Granum" />
		<tag k="place" v="farm" />
		<tag k="ssr:stedsnr" v="647050" />
	</node>
	<node id="-385145" lat="60.7381749964" lon="10.6435666693">
		<tag k="name" v="Vestre Grøthaug" />
		<tag k="place" v="farm" />
		<tag k="ssr:stedsnr" v="647006" />
	</node>
	<node id="-385141" lat="60.6909444406" lon="10.6143055555">
		<tag k="alt_name" v="Morterud vestre" />
		<tag k="name" v="Vestre Morterud" />
		<tag k="place" v="farm" />
		<tag k="ssr:stedsnr" v="633837" />
	</node>
	<node id="-385139" lat="60.7000909857" lon="10.7451246209">
		<tag k="fixme" v="consider place=hamlet" />
		<tag k="name" v="Stepperud" />
		<tag k="place" v="farm" />
		<tag k="ssr:stedsnr" v="613945" />
	</node>
	<node id="-385138" lat="60.7022076392" lon="10.7307686234">
		<tag k="fixme" v="consider place=hamlet" />
		<tag k="name" v="Knappen" />
		<tag k="place" v="farm" />
		<tag k="ssr:stedsnr" v="613937" />
	</node>
	<node id="-385137" lat="60.6785222261" lon="10.7050972235">
		<tag k="name" v="Kallerud" />
		<tag k="place" v="farm" />
		<tag k="ssr:stedsnr" v="613338" />
	</node>
	<node id="-385136" lat="60.6814741726" lon="10.7036697076">
		<tag k="fixme" v="consider place=hamlet" />
		<tag k="name" v="Steffensrud" />
		<tag k="place" v="farm" />
		<tag k="ssr:stedsnr" v="613337" />
	</node>
	<node id="-385135" lat="60.6870305587" lon="10.6712277788">
		<tag k="name" v="Inndal" />
		<tag k="place" v="farm" />
		<tag k="ssr:stedsnr" v="613320" />
	</node>
	<node id="-385134" lat="60.6672669437" lon="10.5474731338">
		<tag k="alt_name" v="Evangseter" />
		<tag k="fixme" v="consider place=hamlet" />
		<tag k="name" v="Evangssætra" />
		<tag k="place" v="farm" />
		<tag k="ssr:stedsnr" v="613317" />
	</node>
	<node id="-385132" lat="60.7420341518" lon="10.6689969512">
		<tag k="fixme" v="consider place=hamlet" />
		<tag k="name" v="Elton" />
		<tag k="place" v="farm" />
		<tag k="ssr:stedsnr" v="613473" />
	</node>
	<node id="-385130" lat="60.7117702943" lon="10.636846379">
		<tag k="fixme" v="consider place=hamlet" />
		<tag k="name" v="Grimås" />
		<tag k="place" v="farm" />
		<tag k="ssr:stedsnr" v="613391" />
	</node>
	<node id="-385129" lat="60.7169694465" lon="10.6394027798">
		<tag k="name" v="Revoll" />
		<tag k="place" v="farm" />
		<tag k="ssr:stedsnr" v="613390" />
	</node>
	<node id="-385128" lat="60.7130194403" lon="10.6926833322">
		<tag k="name" v="Fåreng" />
		<tag k="place" v="farm" />
		<tag k="ssr:stedsnr" v="613387" />
	</node>
	<node id="-385127" lat="60.569663892" lon="10.5644611038">
		<tag k="alt_name" v="Sønsteby" />
		<tag k="name" v="Nordre Sønsteby" />
		<tag k="place" v="farm" />
		<tag k="ssr:stedsnr" v="613145" />
	</node>
	<node id="-385126" lat="60.5697611096" lon="10.6079305607">
		<tag k="name" v="Nordby" />
		<tag k="place" v="farm" />
		<tag k="ssr:stedsnr" v="613143" />
	</node>
	<node id="-385125" lat="60.524461112" lon="10.6163805468">
		<tag k="name" v="Svarverud" />
		<tag k="place" v="farm" />
		<tag k="ssr:stedsnr" v="613090" />
	</node>
	<node id="-385123" lat="60.5225416643" lon="10.6615749964">
		<tag k="alt_name" v="Fosslien" />
		<tag k="name" v="Fosslia" />
		<tag k="place" v="farm" />
		<tag k="ssr:stedsnr" v="613075" />
	</node>
	<node id="-385122" lat="60.6729888905" lon="10.4986361136">
		<tag k="alt_name" v="Storsveen" />
		<tag k="name" v="Storsvea" />
		<tag k="place" v="farm" />
		<tag k="ssr:stedsnr" v="613288" />
	</node>
	<node id="-385121" lat="60.6472341714" lon="10.5607088855">
		<tag k="fixme" v="consider place=hamlet" />
		<tag k="name" v="Vesterås" />
		<tag k="place" v="farm" />
		<tag k="ssr:stedsnr" v="613283" />
	</node>
	<node id="-385119" lat="60.6503666673" lon="10.5313499925">
		<tag k="name" v="Smørstad" />
		<tag k="place" v="farm" />
		<tag k="ssr:stedsnr" v="613247" />
	</node>
	<node id="-385117" lat="60.6008152366" lon="10.6843122744">
		<tag k="fixme" v="consider place=hamlet" />
		<tag k="name" v="Sandbekken" />
		<tag k="place" v="farm" />
		<tag k="ssr:stedsnr" v="613172" />
	</node>
	<node id="-385116" lat="60.59409167" lon="10.6409138897">
		<tag k="alt_name" v="Ødegården" />
		<tag k="name" v="Bjørnerudøgarden" />
		<tag k="place" v="farm" />
		<tag k="ssr:stedsnr" v="613168" />
	</node>
	<node id="-385114" lat="60.5232444412" lon="10.6674055541">
		<tag k="alt_name" v="Hågån" />
		<tag k="name" v="Hagan" />
		<tag k="old_name" v="Hagen" />
		<tag k="place" v="farm" />
		<tag k="ssr:stedsnr" v="603066" />
	</node>
	<node id="-385110" lat="60.7258499987" lon="10.5826333388">
		<tag k="name" v="Løvlien" />
		<tag k="place" v="quarter" />
		<tag k="ssr:stedsnr" v="587930" />
	</node>
	<node id="-385107" lat="60.6119722213" lon="10.5834638892">
		<tag k="name" v="Støen" />
		<tag k="place" v="farm" />
		<tag k="ssr:stedsnr" v="587611" />
	</node>
	<node id="-385103" lat="60.7353555594" lon="10.6294666674">
		<tag k="name" v="Bergsland" />
		<tag k="place" v="farm" />
		<tag k="ssr:stedsnr" v="586651" />
	</node>
	<node id="-385100" lat="60.6059277778" lon="10.6604555551">
		<tag k="name" v="Vegli" />
		<tag k="place" v="farm" />
		<tag k="ssr:stedsnr" v="586182" />
	</node>
	<node id="-385097" lat="60.690994442" lon="10.6979916686">
		<tag k="name" v="Hørsrud" />
		<tag k="place" v="farm" />
		<tag k="ssr:stedsnr" v="569730" />
	</node>
	<node id="-385096" lat="60.7260416703" lon="10.6132972186">
		<tag k="name" v="Raufoss" />
		<tag k="place" v="village" />
		<tag k="ssr:stedsnr" v="553447" />
	</node>
	<node id="-385095" lat="60.7423333376" lon="10.6939888927">
		<tag k="alt_name" v="Markestadmyren" />
		<tag k="name" v="Markestadmyra" />
		<tag k="place" v="farm" />
		<tag k="ssr:stedsnr" v="553456" />
	</node>
	<node id="-385094" lat="60.7285833306" lon="10.7082472248">
		<tag k="name" v="Solstad" />
		<tag k="place" v="farm" />
		<tag k="ssr:stedsnr" v="553424" />
	</node>
	<node id="-385093" lat="60.7204611149" lon="10.7035805633">
		<tag k="name" v="Dagfinnrud" />
		<tag k="place" v="isolated_dwelling" />
		<tag k="ssr:stedsnr" v="553421" />
	</node>
	<node id="-385092" lat="60.7289444404" lon="10.5738555555">
		<tag k="alt_name" v="Nordengen" />
		<tag k="name" v="Nordenga" />
		<tag k="place" v="farm" />
		<tag k="ssr:stedsnr" v="553398" />
	</node>
	<node id="-385090" lat="60.6765684484" lon="10.5008920025">
		<tag k="alt_name" v="Skjerrdalen, s;Søndre Skjærdalen" />
		<tag k="fixme" v="consider place=hamlet" />
		<tag k="name" v="Søndre Skjerrdalen" />
		<tag k="place" v="farm" />
		<tag k="ssr:stedsnr" v="553315" />
	</node>
	<node id="-385089" lat="60.6875628832" lon="10.6269709129">
		<tag k="alt_name" v="Røste" />
		<tag k="fixme" v="consider place=hamlet" />
		<tag k="name" v="Røstøen" />
		<tag k="place" v="farm" />
		<tag k="ssr:stedsnr" v="553298" />
	</node>
	<node id="-385088" lat="60.6437500003" lon="10.633688881">
		<tag k="alt_name" v="Vestre Hagen" />
		<tag k="name" v="Hågån" />
		<tag k="place" v="farm" />
		<tag k="ssr:stedsnr" v="553259" />
	</node>
	<node id="-385087" lat="60.5905361133" lon="10.647325008">
		<tag k="name" v="Bjørnstad" />
		<tag k="place" v="farm" />
		<tag k="ssr:stedsnr" v="553148" />
	</node>
	<node id="-385086" lat="60.6347148273" lon="10.6027064448">
		<tag k="fixme" v="consider place=hamlet" />
		<tag k="name" v="Blåvarp" />
		<tag k="place" v="farm" />
		<tag k="ssr:stedsnr" v="553218" />
	</node>
	<node id="-385082" lat="60.5343972251" lon="10.6549138956">
		<tag k="alt_name" v="Teiterud, nordre" />
		<tag k="name" v="Nordre Teiterud" />
		<tag k="place" v="farm" />
		<tag k="ssr:stedsnr" v="553097" />
	</node>
	<node id="-385081" lat="60.5430222259" lon="10.6745888864">
		<tag k="name" v="Nyland" />
		<tag k="place" v="farm" />
		<tag k="ssr:stedsnr" v="553084" />
	</node>
	<node id="-385080" lat="60.7492114174" lon="10.6751272089">
		<tag k="name" v="Flikkeshaug" />
		<tag k="place" v="farm" />
		<tag k="ssr:stedsnr" v="552524" />
	</node>
	<node id="-385078" lat="60.7086527748" lon="10.5819888975">
		<tag k="name" v="Lunde" />
		<tag k="place" v="farm" />
		<tag k="ssr:stedsnr" v="552438" />
	</node>
	<node id="-385077" lat="60.7044916625" lon="10.5829388834">
		<tag k="name" v="Rognstad" />
		<tag k="place" v="farm" />
		<tag k="ssr:stedsnr" v="552436" />
	</node>
	<node id="-385076" lat="60.7027500024" lon="10.6534472185">
		<tag k="alt_name" v="Grevløsengen" />
		<tag k="name" v="Grevlausenga" />
		<tag k="place" v="farm" />
		<tag k="ssr:stedsnr" v="552397" />
	</node>
	<node id="-385075" lat="60.6953188434" lon="10.5790340198">
		<tag k="alt_name" v="Berger, øvre;Berger" />
		<tag k="fixme" v="consider place=hamlet" />
		<tag k="name" v="Øvre Berger" />
		<tag k="place" v="farm" />
		<tag k="ssr:stedsnr" v="552396" />
	</node>
	<node id="-385074" lat="60.6569999955" lon="10.5336777852">
		<tag k="alt_name" v="Rudsveen" />
		<tag k="name" v="Rudsvea" />
		<tag k="place" v="farm" />
		<tag k="ssr:stedsnr" v="552349" />
	</node>
	<node id="-385073" lat="60.6645277738" lon="10.5124972151">
		<tag k="alt_name" v="Sveum" />
		<tag k="name" v="Sveom" />
		<tag k="place" v="farm" />
		<tag k="ssr:stedsnr" v="552335" />
	</node>
	<node id="-385071" lat="60.5727606696" lon="10.6497681411">
		<tag k="alt_name" v="Johnsrud" />
		<tag k="fixme" v="consider place=hamlet" />
		<tag k="name" v="Jonsrud" />
		<tag k="place" v="farm" />
		<tag k="ssr:stedsnr" v="552150" />
	</node>
	<node id="-385070" lat="60.6001865601" lon="10.5691806488">
		<tag k="fixme" v="consider place=hamlet" />
		<tag k="name" v="Hågår" />
		<tag k="place" v="farm" />
		<tag k="ssr:stedsnr" v="552211" />
	</node>
	<node id="-385069" lat="60.5827388877" lon="10.610766675">
		<tag k="name" v="Engeli" />
		<tag k="place" v="farm" />
		<tag k="ssr:stedsnr" v="552173" />
	</node>
	<node id="-385067" lat="60.5730361893" lon="10.6278536628">
		<tag k="alt_name" v="Sangnæs" />
		<tag k="fixme" v="consider place=hamlet" />
		<tag k="name" v="Sangnes" />
		<tag k="place" v="farm" />
		<tag k="ssr:stedsnr" v="552156" />
	</node>
	<node id="-385066" lat="60.5077350549" lon="10.6653120828">
		<tag k="fixme" v="consider place=hamlet" />
		<tag k="name" v="Villåsen" />
		<tag k="place" v="farm" />
		<tag k="ssr:stedsnr" v="552066" />
	</node>
	<node id="-385065" lat="60.6752388853" lon="10.682755559">
		<tag k="loc_name" v="Kapperanbakken" />
		<tag k="name" v="Østrum" />
		<tag k="place" v="farm" />
		<tag k="ssr:stedsnr" v="541547" />
	</node>
	<node id="-385063" lat="60.5707722235" lon="10.6252972169">
		<tag k="name" v="Østre Sangnæs" />
		<tag k="place" v="farm" />
		<tag k="ssr:stedsnr" v="541224" />
	</node>
	<node id="-385062" lat="60.7216694438" lon="10.5989666645">
		<tag k="leisure" v="pitch" />
		<tag k="name" v="Øvre idrettsplass" />
		<tag k="ssr:stedsnr" v="526948" />
	</node>
	<node id="-385061" lat="60.7261222247" lon="10.6675944507">
		<tag k="name" v="Lerudjordet" />
		<tag k="place" v="farm" />
		<tag k="ssr:stedsnr" v="526793" />
	</node>
	<node id="-385058" lat="60.7376016206" lon="10.6273553478">
		<tag k="fixme" v="consider place=hamlet" />
		<tag k="name" v="Negard" />
		<tag k="place" v="farm" />
		<tag k="ssr:stedsnr" v="432441" />
	</node>
	<node id="-385057" lat="60.7334986424" lon="10.6340598281">
		<tag k="fixme" v="consider place=hamlet" />
		<tag k="name" v="Vestrum" />
		<tag k="place" v="farm" />
		<tag k="ssr:stedsnr" v="432440" />
	</node>
	<node id="-385056" lat="60.744522221" lon="10.6317638855">
		<tag k="name" v="Nerby" />
		<tag k="place" v="farm" />
		<tag k="ssr:stedsnr" v="432420" />
	</node>
	<node id="-385054" lat="60.7180972191" lon="10.5752111068">
		<tag k="alt_name" v="Gudbrandsstuen" />
		<tag k="name" v="Gudbrandstugua" />
		<tag k="place" v="farm" />
		<tag k="ssr:stedsnr" v="432356" />
	</node>
	<node id="-385053" lat="60.6906527764" lon="10.659402779">
		<tag k="alt_name" v="Stor-Kyset;Kyset" />
		<tag k="name" v="Nordøstre Kyset" />
		<tag k="place" v="farm" />
		<tag k="ssr:stedsnr" v="432296" />
	</node>
	<node id="-385052" lat="60.5169916683" lon="10.6324027842">
		<tag k="alt_name" v="Einavollen" />
		<tag k="name" v="Einavoll" />
		<tag k="place" v="isolated_dwelling" />
		<tag k="ssr:stedsnr" v="432056" />
	</node>
	<node id="-385051" lat="60.5829027749" lon="10.6217083334">
		<tag k="name" v="Lervoll" />
		<tag k="place" v="farm" />
		<tag k="ssr:stedsnr" v="431189" />
	</node>
	<node id="-385050" lat="60.5729750007" lon="10.5670138836">
		<tag k="name" v="Solberg" />
		<tag k="place" v="farm" />
		<tag k="ssr:stedsnr" v="431171" />
	</node>
	<node id="-385049" lat="60.6175055543" lon="10.6710666669">
		<tag k="alt_name" v="Midtbustuen" />
		<tag k="name" v="Midtbustugua" />
		<tag k="place" v="farm" />
		<tag k="ssr:stedsnr" v="431244" />
	</node>
	<node id="-385048" lat="60.6699805598" lon="10.676019437">
		<tag k="name" v="Karlsborg" />
		<tag k="place" v="farm" />
		<tag k="ssr:stedsnr" v="420779" />
	</node>
	<node id="-385047" lat="60.7235555562" lon="10.6404361166">
		<tag k="name" v="Solhaug" />
		<tag k="place" v="farm" />
		<tag k="ssr:stedsnr" v="420843" />
	</node>
	<node id="-385046" lat="60.7249805579" lon="10.6364027798">
		<tag k="name" v="Øvre Karsrudskogen" />
		<tag k="place" v="farm" />
		<tag k="ssr:stedsnr" v="420841" />
	</node>
	<node id="-385045" lat="60.656616668" lon="10.6242611026">
		<tag k="name" v="Gjerdingen" />
		<tag k="place" v="farm" />
		<tag k="ssr:stedsnr" v="420820" />
	</node>
	<node id="-385041" lat="60.7458222247" lon="10.6750194463">
		<tag k="name" v="Søndre Flikkeshaug" />
		<tag k="place" v="farm" />
		<tag k="ssr:stedsnr" v="405683" />
	</node>
	<node id="-385040" lat="60.6886583324" lon="10.6682555509">
		<tag k="name" v="Inndal" />
		<tag k="place" v="farm" />
		<tag k="ssr:stedsnr" v="405445" />
	</node>
	<node id="-385038" lat="60.6786972226" lon="10.5952555594">
		<tag k="name" v="Danielrudstuen" />
		<tag k="place" v="isolated_dwelling" />
		<tag k="ssr:stedsnr" v="404039" />
	</node>
	<node id="-385037" lat="60.6862722208" lon="10.7512416611">
		<tag k="name" v="Skarten" />
		<tag k="place" v="farm" />
		<tag k="ssr:stedsnr" v="390045" />
	</node>
	<node id="-385036" lat="60.5325972195" lon="10.6671555583">
		<tag k="name" v="Hvalstad" />
		<tag k="place" v="farm" />
		<tag k="ssr:stedsnr" v="389748" />
	</node>
	<node id="-385035" lat="60.7072999961" lon="10.7470500072">
		<tag k="name" v="Roland" />
		<tag k="place" v="farm" />
		<tag k="ssr:stedsnr" v="389685" />
	</node>
	<node id="-385034" lat="60.7512666639" lon="10.6668444492">
		<tag k="alt_name" v="Flikkeshauglangen" />
		<tag k="name" v="Langen" />
		<tag k="place" v="farm" />
		<tag k="ssr:stedsnr" v="373099" />
	</node>
	<node id="-385033" lat="60.751480594" lon="10.6971783618">
		<tag k="fixme" v="consider place=hamlet" />
		<tag k="name" v="Hjelpstein" />
		<tag k="place" v="farm" />
		<tag k="ssr:stedsnr" v="373098" />
	</node>
	<node id="-385032" lat="60.7073311966" lon="10.7231764537">
		<tag k="alt_name" v="Thorsrud" />
		<tag k="fixme" v="consider place=hamlet" />
		<tag k="name" v="Torsrud" />
		<tag k="place" v="farm" />
		<tag k="ssr:stedsnr" v="371943" />
	</node>
	<node id="-385031" lat="60.719058332" lon="10.7253111064">
		<tag k="name" v="Almsbakken" />
		<tag k="place" v="farm" />
		<tag k="ssr:stedsnr" v="371930" />
	</node>
	<node id="-385030" lat="60.7230750011" lon="10.5735972191">
		<tag k="fixme" v="consider place=hamlet" />
		<tag k="name" v="Nyset" />
		<tag k="old_name" v="Nyseth" />
		<tag k="place" v="farm" />
		<tag k="ssr:stedsnr" v="371386" />
	</node>
	<node id="-385029" lat="60.6980194482" lon="10.6468666701">
		<tag k="name" v="Eng" />
		<tag k="place" v="farm" />
		<tag k="ssr:stedsnr" v="371340" />
	</node>
	<node id="-385027" lat="60.6527901885" lon="10.5976148568">
		<tag k="fixme" v="consider place=hamlet" />
		<tag k="name" v="Vestbakken" />
		<tag k="place" v="farm" />
		<tag k="ssr:stedsnr" v="371250" />
	</node>
	<node id="-385026" lat="60.6410638914" lon="10.6578944377">
		<tag k="name" v="Sinnerud" />
		<tag k="place" v="farm" />
		<tag k="ssr:stedsnr" v="371232" />
	</node>
	<node id="-385025" lat="60.5358361133" lon="10.6770555521">
		<tag k="name" v="Berg" />
		<tag k="place" v="farm" />
		<tag k="ssr:stedsnr" v="371101" />
	</node>
</osm>
