<?xml version="1.0" encoding="UTF-8"?>
<osm generator="osmapis" version="0.6">
	<node id="-383315" lat="60.7514120834" lon="10.6262147983">
		<tag k="name" v="Breiskallen stasjon" />
		<tag k="railway" v="station" />
		<tag k="ssr:stedsnr" v="70099" />
		<tag k="train" v="yes" />
	</node>
	<node id="-382969" lat="60.540636112" lon="10.6575361069">
		<tag k="bridge" v="yes" />
		<tag k="layer" v="1" />
		<tag k="name" v="Blåkorshjemmet" />
		<tag k="ssr:stedsnr" v="228113" />
	</node>
	<node id="-383220" lat="60.6788111118" lon="10.6081888845">
		<tag k="bridge" v="yes" />
		<tag k="layer" v="1" />
		<tag k="name" v="Reinsvoll" />
		<tag k="ssr:stedsnr" v="835103" />
	</node>
	<node id="-383475" lat="60.7228138892" lon="10.6115916714">
		<tag k="bridge" v="yes" />
		<tag k="layer" v="1" />
		<tag k="name" v="Raufoss" />
		<tag k="ssr:stedsnr" v="410107" />
	</node>
	<node id="-383474" lat="60.6209527819" lon="10.5843777784">
		<tag k="bridge" v="yes" />
		<tag k="layer" v="1" />
		<tag k="name" v="Strømselva" />
		<tag k="ssr:stedsnr" v="410066" />
	</node>
	<node id="-382931" lat="60.6318647767" lon="10.596934062">
		<tag k="name" v="Eina stasjon" />
		<tag k="railway" v="station" />
		<tag k="ssr:stedsnr" v="128204" />
		<tag k="train" v="yes" />
	</node>
	<node id="-383471" lat="60.6590611084" lon="10.5295694407">
		<tag k="junction" v="yes" />
		<tag k="name" v="Smetoptåjet" />
		<tag k="place" v="locality" />
		<tag k="ssr:stedsnr" v="404721" />
	</node>
	<node id="-383250" lat="60.7496388901" lon="10.6200611141">
		<tag k="landuse" v="industrial" />
		<tag k="name" v="Elvelia" />
		<tag k="power" v="plant" />
		<tag k="ssr:stedsnr" v="951419" />
	</node>
	<node id="-383593" lat="60.5171916636" lon="10.6378972189">
		<tag k="bridge" v="yes" />
		<tag k="layer" v="1" />
		<tag k="name" v="Evjua" />
		<tag k="ssr:stedsnr" v="774113" />
	</node>
	<node id="-383330" lat="60.5915333364" lon="10.5738666582">
		<tag k="bridge" v="yes" />
		<tag k="layer" v="1" />
		<tag k="name" v="Skreppa" />
		<tag k="ssr:stedsnr" v="107080" />
	</node>
	<node id="-383329" lat="60.5276333325" lon="10.6314000012">
		<tag k="bridge" v="yes" />
		<tag k="layer" v="1" />
		<tag k="name" v="Sandbakken" />
		<tag k="ssr:stedsnr" v="107078" />
	</node>
	<node id="-383584" lat="60.6282083316" lon="10.5968722145">
		<tag k="bridge" v="yes" />
		<tag k="layer" v="1" />
		<tag k="name" v="Eina" />
		<tag k="ssr:stedsnr" v="653095" />
	</node>
	<node id="-383583" lat="60.7503916624" lon="10.6208999943">
		<tag k="bridge" v="yes" />
		<tag k="layer" v="1" />
		<tag k="name" v="Hunnselva" />
		<tag k="ssr:stedsnr" v="653093" />
	</node>
	<node id="-383070" lat="60.6568638897" lon="10.5642444424">
		<tag k="junction" v="yes" />
		<tag k="name" v="Vesteråsvegskillet" />
		<tag k="place" v="locality" />
		<tag k="ssr:stedsnr" v="466409" />
	</node>
	<node id="-383097" lat="60.6596444479" lon="10.537480552">
		<tag k="junction" v="yes" />
		<tag k="name" v="Rudsvebakken" />
		<tag k="place" v="locality" />
		<tag k="ssr:stedsnr" v="526772" />
	</node>
	<node id="-383187" lat="60.6543805572" lon="10.6038472169">
		<tag k="bridge" v="yes" />
		<tag k="layer" v="1" />
		<tag k="name" v="Bruflat" />
		<tag k="ssr:stedsnr" v="896092" />
	</node>
	<node id="-382946" lat="60.6638611112" lon="10.6727694471">
		<tag k="bridge" v="yes" />
		<tag k="layer" v="1" />
		<tag k="name" v="Bøvra" />
		<tag k="ssr:stedsnr" v="168120" />
	</node>
	<node id="-383328" lat="60.6193722184" lon="10.6045583253">
		<tag k="bridge" v="yes" />
		<tag k="layer" v="1" />
		<tag k="name" v="Thune" />
		<tag k="ssr:stedsnr" v="107062" />
	</node>
	<node id="-383544" lat="60.7528027791" lon="10.6239888932">
		<tag k="bridge" v="yes" />
		<tag k="layer" v="1" />
		<tag k="name" v="Breiskallen" />
		<tag k="ssr:stedsnr" v="592111" />
	</node>
	<node id="-383543" lat="60.5167222205" lon="10.6364833279">
		<tag k="bridge" v="yes" />
		<tag k="layer" v="1" />
		<tag k="name" v="Einavoll" />
		<tag k="ssr:stedsnr" v="592109" />
	</node>
	<node id="-383660" lat="60.6598472235" lon="10.6029722269">
		<tag k="bridge" v="yes" />
		<tag k="layer" v="1" />
		<tag k="name" v="Reinsvollsveen" />
		<tag k="ssr:stedsnr" v="957105" />
	</node>
	<node id="-383530" lat="60.5163444459" lon="10.6356138961">
		<tag k="junction" v="yes" />
		<tag k="name" v="Einavollen" />
		<tag k="place" v="locality" />
		<tag k="ssr:stedsnr" v="578473" />
	</node>
	<node id="-383601" lat="60.6728833303" lon="10.5666861105">
		<tag k="aeroway" v="aerodrome" />
		<tag k="alt_name" v="Reinsvoll" />
		<tag k="name" v="Reinsvoll flyplass" />
		<tag k="ssr:stedsnr" v="787252" />
	</node>
	<node id="-383523" lat="60.6788556793" lon="10.6167293382">
		<tag k="name" v="Reinsvoll stasjon" />
		<tag k="railway" v="station" />
		<tag k="ssr:stedsnr" v="553323" />
		<tag k="train" v="yes" />
	</node>
	<node id="-383103" lat="60.7221285007" lon="10.6133520439">
		<tag k="name" v="Raufoss stasjon" />
		<tag k="railway" v="station" />
		<tag k="ssr:stedsnr" v="694790" />
		<tag k="train" v="yes" />
	</node>
	<node id="-383386" lat="60.6776611083" lon="10.6743305633">
		<tag k="junction" v="yes" />
		<tag k="name" v="Krekerud" />
		<tag k="place" v="locality" />
		<tag k="ssr:stedsnr" v="189313" />
	</node>
	<node id="-383634" lat="60.6769527801" lon="10.6156111164">
		<tag k="bridge" v="yes" />
		<tag k="layer" v="1" />
		<tag k="name" v="Reinsvoll" />
		<tag k="ssr:stedsnr" v="835102" />
	</node>
	<node id="-383633" lat="60.5224555551" lon="10.6311138959">
		<tag k="bridge" v="yes" />
		<tag k="layer" v="1" />
		<tag k="name" v="Sløbråten" />
		<tag k="ssr:stedsnr" v="835100" />
	</node>
	<node id="-383632" lat="60.7212666675" lon="10.6063861127">
		<tag k="bridge" v="yes" />
		<tag k="layer" v="1" />
		<tag k="name" v="Veltmannå" />
		<tag k="ssr:stedsnr" v="835064" />
	</node>
	<node id="-383116" lat="60.657152778" lon="10.6014333412">
		<tag k="bridge" v="yes" />
		<tag k="layer" v="1" />
		<tag k="name" v="Bruflat" />
		<tag k="ssr:stedsnr" v="714094" />
	</node>
	<node id="-383115" lat="60.6297222208" lon="10.6015722237">
		<tag k="bridge" v="yes" />
		<tag k="layer" v="1" />
		<tag k="name" v="Eina" />
		<tag k="ssr:stedsnr" v="714092" />
	</node>
</osm>
