<?xml version="1.0" encoding="UTF-8"?>
<<<<<<< HEAD
<osm version="0.6" generator="osmapis">
	<node lat="60.66958611491952" lon="10.69938888409771" id="-17475">
		<tag k="amenity" v="place_of_worship" />
		<tag k="denomination" v="lutheran" />
		<tag k="name" v="Ås kirke" />
		<tag k="old_name" v="Vestre Toten" />
		<tag k="religion" v="christian" />
		<tag k="ssr:stedsnr" v="249289" />
	</node>
	<node lat="60.57187499950181" lon="10.653927777743087" id="-17495">
=======
<osm generator="osmapis" version="0.6">
	<node id="-384636" lat="60.7234805579" lon="10.6179722179">
		<tag k="amenity" v="community_centre" />
		<tag k="name" v="Raufosstun" />
		<tag k="ssr:stedsnr" v="662852" />
	</node>
	<node id="-384504" lat="60.6946977973" lon="10.7142898706">
		<tag k="amenity" v="community_centre" />
		<tag k="name" v="Granvang" />
		<tag k="ssr:stedsnr" v="128332" />
	</node>
	<node id="-384561" lat="60.7308416677" lon="10.6158305615">
		<tag k="amenity" v="community_centre" />
		<tag k="name" v="Folkets hus" />
		<tag k="ssr:stedsnr" v="480831" />
	</node>
	<node id="-385168" lat="60.7294472198" lon="10.6176138906">
		<tag k="amenity" v="place_of_worship" />
		<tag k="fixme" v="specify religion=*, denomination=*, building=* etc" />
		<tag k="name" v="Baptistkirken" />
		<tag k="ssr:stedsnr" v="784842" />
	</node>
	<node id="-385231" lat="60.6690972239" lon="10.700536113">
		<tag k="amenity" v="community_centre" />
		<tag k="name" v="Ås kommunelokale" />
		<tag k="ssr:stedsnr" v="966829" />
	</node>
	<node id="-384685" lat="60.7228999962" lon="10.6130861108">
		<tag k="name" v="Fugleparken" />
		<tag k="ssr:stedsnr" v="601806" />
		<tag k="tourism" v="attraction" />
	</node>
	<node id="-384903" lat="60.5718749995" lon="10.6539277777">
>>>>>>> e1d4bc35ff8a6074a6f2e91616a996b547c36f15
		<tag k="amenity" v="place_of_worship" />
		<tag k="denomination" v="lutheran" />
		<tag k="name" v="Eina kirke" />
		<tag k="religion" v="christian" />
		<tag k="ssr:stedsnr" v="128109" />
	</node>
<<<<<<< HEAD
	<node lat="60.730841667656016" lon="10.615830561519575" id="-17606">
		<tag k="amenity" v="community_centre" />
		<tag k="name" v="Folkets hus" />
		<tag k="ssr:stedsnr" v="480831" />
	</node>
	<node lat="60.72483888900059" lon="10.611019450298405" id="-17613">
=======
	<node id="-384614" lat="60.724838889" lon="10.6110194503">
>>>>>>> e1d4bc35ff8a6074a6f2e91616a996b547c36f15
		<tag k="amenity" v="place_of_worship" />
		<tag k="denomination" v="lutheran" />
		<tag k="name" v="Raufoss kirke" />
		<tag k="religion" v="christian" />
		<tag k="ssr:stedsnr" v="419804" />
	</node>
<<<<<<< HEAD
	<node lat="60.72289999621399" lon="10.613086110836715" id="-17710">
		<tag k="name" v="Fugleparken" />
		<tag k="ssr:stedsnr" v="601806" />
		<tag k="tourism" v="attraction" />
	</node>
	<node lat="60.663288885650836" lon="10.669486105555174" id="-17914">
=======
	<node id="-385156" lat="60.7039499957" lon="10.7531805591">
		<tag k="name" v="Toten museum" />
		<tag k="ssr:stedsnr" v="753679" />
		<tag k="tourism" v="museum" />
	</node>
	<node id="-384899" lat="60.6632888857" lon="10.6694861056">
>>>>>>> e1d4bc35ff8a6074a6f2e91616a996b547c36f15
		<tag k="amenity" v="community_centre" />
		<tag k="name" v="Håkonshallen" />
		<tag k="ssr:stedsnr" v="116752" />
	</node>
<<<<<<< HEAD
	<node lat="60.69469779730421" lon="10.714289870573701" id="-17923">
		<tag k="amenity" v="community_centre" />
		<tag k="name" v="Granvang" />
		<tag k="ssr:stedsnr" v="128332" />
	</node>
	<node lat="60.72348055792842" lon="10.617972217871992" id="-18131">
		<tag k="amenity" v="community_centre" />
		<tag k="name" v="Raufosstun" />
		<tag k="ssr:stedsnr" v="662852" />
	</node>
	<node lat="60.70394999569729" lon="10.75318055905698" id="-18164">
		<tag k="name" v="Toten museum" />
		<tag k="ssr:stedsnr" v="753679" />
		<tag k="tourism" v="museum" />
	</node>
	<node lat="60.729447219788135" lon="10.617613890630926" id="-18171">
		<tag k="amenity" v="place_of_worship" />
		<tag k="fixme" v="specify religion=*, denomination=*, building=* etc" />
		<tag k="name" v="Baptistkirken" />
		<tag k="ssr:stedsnr" v="784842" />
	</node>
	<node lat="60.66909722385267" lon="10.700536112973627" id="-18227">
		<tag k="amenity" v="community_centre" />
		<tag k="name" v="Ås kommunelokale" />
		<tag k="ssr:stedsnr" v="966829" />
=======
	<node id="-384482" lat="60.6695861149" lon="10.6993888841">
		<tag k="amenity" v="place_of_worship" />
		<tag k="denomination" v="lutheran" />
		<tag k="name" v="Ås kirke" />
		<tag k="old_name" v="Vestre Toten" />
		<tag k="religion" v="christian" />
		<tag k="ssr:stedsnr" v="249289" />
>>>>>>> e1d4bc35ff8a6074a6f2e91616a996b547c36f15
	</node>
</osm>
