<?xml version="1.0" encoding="UTF-8"?>
<osm version="0.6" generator="osmapis">
	<node lat="60.675649956508046" lon="10.713547219677894" id="-43648">
		<tag k="fixme" v="consider place=hamlet" />
		<tag k="name" v="Holte" />
		<tag k="place" v="farm" />
		<tag k="ssr:stedsnr" v="6310" />
	</node>
	<node lat="60.669013030786736" lon="10.689966716498764" id="-43649">
		<tag k="fixme" v="consider place=hamlet" />
		<tag k="name" v="Åsjordet" />
		<tag k="place" v="farm" />
		<tag k="ssr:stedsnr" v="6311" />
	</node>
	<node lat="60.538308329602984" lon="10.657708338217603" id="-43650">
		<tag k="alt_name" v="Lønnhaug" />
		<tag k="name" v="Lønhaug" />
		<tag k="place" v="farm" />
		<tag k="ssr:stedsnr" v="7120" />
	</node>
	<node lat="60.560291577252094" lon="10.561088204188794" id="-43651">
		<tag k="fixme" v="consider place=hamlet" />
		<tag k="name" v="Rognlia" />
		<tag k="place" v="farm" />
		<tag k="ssr:stedsnr" v="7125" />
	</node>
	<node lat="60.64504166899392" lon="10.658738880025439" id="-43652">
		<tag k="alt_name" v="Nærli" />
		<tag k="name" v="Nerli" />
		<tag k="place" v="farm" />
		<tag k="ssr:stedsnr" v="7258" />
	</node>
	<node lat="60.72617222104771" lon="10.564408328244383" id="-43653">
		<tag k="alt_name" v="Nyset-Vestbakken" />
		<tag k="name" v="Vestbakken" />
		<tag k="place" v="farm" />
		<tag k="ssr:stedsnr" v="7406" />
	</node>
	<node lat="60.73481110868793" lon="10.667619436732567" id="-43654">
		<tag k="name" v="Lerudmyra" />
		<tag k="natural" v="wetland" />
		<tag k="ssr:stedsnr" v="7417" />
	</node>
	<node lat="60.72911944692033" lon="10.66188056088221" id="-43655">
		<tag k="name" v="Lerudbakken" />
		<tag k="place" v="farm" />
		<tag k="ssr:stedsnr" v="7418" />
	</node>
	<node lat="60.65840566796065" lon="10.63636711948794" id="-43656">
		<tag k="fixme" v="consider place=hamlet" />
		<tag k="name" v="Stangjordet" />
		<tag k="place" v="farm" />
		<tag k="ssr:stedsnr" v="7305" />
	</node>
	<node lat="60.693305557462644" lon="10.62099999982908" id="-43657">
		<tag k="name" v="Lønnum" />
		<tag k="place" v="farm" />
		<tag k="ssr:stedsnr" v="7312" />
	</node>
	<node lat="60.68793055961964" lon="10.65960834144688" id="-43658">
		<tag k="alt_name" v="Velt-Kyset" />
		<tag k="name" v="Kyset" />
		<tag k="place" v="farm" />
		<tag k="ssr:stedsnr" v="7313" />
	</node>
	<node lat="60.68877221891684" lon="10.64291388756886" id="-43659">
		<tag k="alt_name" v="Kysethengen" />
		<tag k="name" v="Kysetenga" />
		<tag k="place" v="farm" />
		<tag k="ssr:stedsnr" v="7315" />
	</node>
	<node lat="60.698286109679145" lon="10.636786109793583" id="-43660">
		<tag k="alt_name" v="Sellanrå" />
		<tag k="name" v="Sellanråd" />
		<tag k="place" v="farm" />
		<tag k="ssr:stedsnr" v="7355" />
	</node>
	<node lat="60.700050002073134" lon="10.672930561674926" id="-43661">
		<tag k="alt_name" v="Nerbrott" />
		<tag k="name" v="Nybrott" />
		<tag k="place" v="farm" />
		<tag k="ssr:stedsnr" v="7359" />
	</node>
	<node lat="60.73629134476747" lon="10.569132891848804" id="-43662">
		<tag k="fixme" v="consider place=hamlet" />
		<tag k="name" v="Villåsen" />
		<tag k="place" v="farm" />
		<tag k="ssr:stedsnr" v="7447" />
	</node>
	<node lat="60.7271944476204" lon="10.60318055278357" id="-43663">
		<tag k="name" v="Tollerud" />
		<tag k="place" v="quarter" />
		<tag k="ssr:stedsnr" v="23782" />
	</node>
	<node lat="60.59704166442994" lon="10.554883331740786" id="-43664">
		<tag k="name" v="Mærramyra" />
		<tag k="natural" v="wetland" />
		<tag k="ssr:stedsnr" v="39534" />
	</node>
	<node lat="60.5989416635905" lon="10.598569451919326" id="-43665">
		<tag k="name" v="Larsholmen" />
		<tag k="place" v="islet" />
		<tag k="ssr:stedsnr" v="39535" />
	</node>
	<node lat="60.69814722028976" lon="10.726627780351334" id="-43666">
		<tag k="alt_name" v="Sillongen" />
		<tag k="name" v="Sillungen" />
		<tag k="natural" v="water" />
		<tag k="ssr:stedsnr" v="236955" />
	</node>
	<node lat="60.706852774442496" lon="10.560075000582597" id="-43667">
		<tag k="name" v="Rundmyra" />
		<tag k="natural" v="wetland" />
		<tag k="ssr:stedsnr" v="40440" />
	</node>
	<node lat="60.66514444042875" lon="10.492633335895688" id="-43668">
		<tag k="name" v="Larsvefløyta" />
		<tag k="natural" v="water" />
		<tag k="ssr:stedsnr" v="40768" />
		<tag k="water" v="lake" />
	</node>
	<node lat="60.68321526702037" lon="10.604085505259095" id="-43669">
		<tag k="fixme" v="consider place=hamlet" />
		<tag k="name" v="Gudmundsveen" />
		<tag k="place" v="farm" />
		<tag k="ssr:stedsnr" v="41383" />
	</node>
	<node lat="60.58246111370489" lon="10.649741663934316" id="-43670">
		<tag k="name" v="Bjørnsgård" />
		<tag k="place" v="farm" />
		<tag k="ssr:stedsnr" v="238226" />
	</node>
	<node lat="60.71393889314209" lon="10.612986115032665" id="-43671">
		<tag k="name" v="Furuset" />
		<tag k="place" v="farm" />
		<tag k="ssr:stedsnr" v="67407" />
	</node>
	<node lat="60.70520278158175" lon="10.716333331927368" id="-43672">
		<tag k="name" v="Lierengen" />
		<tag k="old_name" v="Lier" />
		<tag k="place" v="farm" />
		<tag k="ssr:stedsnr" v="67409" />
	</node>
	<node lat="60.70950000042387" lon="10.66548610652231" id="-43673">
		<tag k="alt_name" v="Tåsåsstuen" />
		<tag k="name" v="Tåsåsstugua" />
		<tag k="place" v="farm" />
		<tag k="ssr:stedsnr" v="67416" />
	</node>
	<node lat="60.70607777570179" lon="10.571155558572805" id="-43674">
		<tag k="name" v="Skoglund" />
		<tag k="place" v="farm" />
		<tag k="ssr:stedsnr" v="67421" />
	</node>
	<node lat="60.70381944430306" lon="10.576711103124357" id="-43675">
		<tag k="name" v="Granli" />
		<tag k="place" v="farm" />
		<tag k="ssr:stedsnr" v="67423" />
	</node>
	<node lat="60.66768055228068" lon="10.571188879596058" id="-43676">
		<tag k="alt_name" v="Setermyra" />
		<tag k="name" v="Sætermyrene" />
		<tag k="natural" v="wetland" />
		<tag k="ssr:stedsnr" v="67305" />
	</node>
	<node lat="60.58066111189664" lon="10.561050003018206" id="-43677">
		<tag k="alt_name" v="Skreppen" />
		<tag k="name" v="Skreppa" />
		<tag k="place" v="farm" />
		<tag k="ssr:stedsnr" v="67899" />
	</node>
	<node lat="60.537522223474916" lon="10.619472221845777" id="-43678">
		<tag k="alt_name" v="Hovelsrud" />
		<tag k="name" v="Håvelsrud" />
		<tag k="place" v="farm" />
		<tag k="ssr:stedsnr" v="68104" />
	</node>
	<node lat="60.68934166687353" lon="10.516902772879723" id="-43679">
		<tag k="name" v="Lunnasætermyra" />
		<tag k="natural" v="wetland" />
		<tag k="ssr:stedsnr" v="68342" />
	</node>
	<node lat="60.682786109603164" lon="10.57238610482709" id="-43680">
		<tag k="alt_name" v="Buer, vestre;Buer" />
		<tag k="name" v="Vestre Buer" />
		<tag k="place" v="farm" />
		<tag k="ssr:stedsnr" v="68345" />
	</node>
	<node lat="60.68256110725469" lon="10.580688894664366" id="-43681">
		<tag k="alt_name" v="Buer, østre;Buer" />
		<tag k="name" v="Østre Buer" />
		<tag k="place" v="farm" />
		<tag k="ssr:stedsnr" v="68348" />
	</node>
	<node lat="60.67066944646231" lon="10.500466668773193" id="-43682">
		<tag k="alt_name" v="Bjørlien" />
		<tag k="name" v="Bjørlia" />
		<tag k="place" v="farm" />
		<tag k="ssr:stedsnr" v="68287" />
	</node>
	<node lat="60.7301305524612" lon="10.717058340899086" id="-43683">
		<tag k="name" v="Bøle" />
		<tag k="place" v="farm" />
		<tag k="ssr:stedsnr" v="68434" />
	</node>
	<node lat="60.73086556668583" lon="10.683893922567034" id="-43684">
		<tag k="fixme" v="consider place=hamlet" />
		<tag k="name" v="Ringvoll" />
		<tag k="place" v="farm" />
		<tag k="ssr:stedsnr" v="68437" />
	</node>
	<node lat="60.720950003262125" lon="10.5478166754286" id="-43685">
		<tag k="alt_name" v="Bradal, n" />
		<tag k="name" v="Nordre Bradal" />
		<tag k="place" v="farm" />
		<tag k="ssr:stedsnr" v="68443" />
	</node>
	<node lat="60.751574798492086" lon="10.68336173000335" id="-43687">
		<tag k="fixme" v="consider place=hamlet" />
		<tag k="name" v="Markestad" />
		<tag k="place" v="farm" />
		<tag k="ssr:stedsnr" v="70100" />
	</node>
	<node lat="60.54299166843104" lon="10.624574992715273" id="-43688">
		<tag k="name" v="Strandbakken" />
		<tag k="place" v="farm" />
		<tag k="ssr:stedsnr" v="93461" />
	</node>
	<node lat="60.61820833471634" lon="10.625672228497873" id="-43689">
		<tag k="name" v="Thunetjernet" />
		<tag k="natural" v="water" />
		<tag k="ssr:stedsnr" v="101071" />
	</node>
	<node lat="60.61789444425034" lon="10.611641661485013" id="-43690">
		<tag k="name" v="Nysveen" />
		<tag k="place" v="farm" />
		<tag k="ssr:stedsnr" v="101075" />
	</node>
	<node lat="60.71424444292347" lon="10.566061114791083" id="-43691">
		<tag k="name" v="Flatlien" />
		<tag k="place" v="farm" />
		<tag k="ssr:stedsnr" v="101438" />
	</node>
	<node lat="60.64201850311333" lon="10.599450603940289" id="-43692">
		<tag k="alt_name" v="Fiskevoll" />
		<tag k="fixme" v="consider place=hamlet" />
		<tag k="name" v="Fiskevollen" />
		<tag k="place" v="farm" />
		<tag k="ssr:stedsnr" v="249275" />
	</node>
	<node lat="60.66958611491952" lon="10.69938888409771" id="-43693">
		<tag k="amenity" v="place_of_worship" />
		<tag k="denomination" v="lutheran" />
		<tag k="name" v="Ås kirke" />
		<tag k="old_name" v="Vestre Toten" />
		<tag k="religion" v="christian" />
		<tag k="ssr:stedsnr" v="249289" />
	</node>
	<node lat="60.70948332927313" lon="10.697538886021508" id="-43694">
		<tag k="name" v="Helsetmyra" />
		<tag k="natural" v="wetland" />
		<tag k="ssr:stedsnr" v="249397" />
	</node>
	<node lat="60.7024333337538" lon="10.643408339831687" id="-43695">
		<tag k="name" v="Grindstad" />
		<tag k="place" v="farm" />
		<tag k="ssr:stedsnr" v="249406" />
	</node>
	<node lat="60.7075472257447" lon="10.578927772604617" id="-43696">
		<tag k="name" v="Berglund" />
		<tag k="place" v="farm" />
		<tag k="ssr:stedsnr" v="249410" />
	</node>
	<node lat="60.733200328844326" lon="10.727194786556224" id="-43697">
		<tag k="fixme" v="consider place=hamlet" />
		<tag k="name" v="Alm" />
		<tag k="place" v="farm" />
		<tag k="ssr:stedsnr" v="249913" />
	</node>
	<node lat="60.71308847073658" lon="10.74321897203467" id="-43698">
		<tag k="alt_name" v="Husby" />
		<tag k="fixme" v="consider place=hamlet" />
		<tag k="name" v="Huseby" />
		<tag k="place" v="farm" />
		<tag k="ssr:stedsnr" v="249929" />
	</node>
	<node lat="60.526311115041956" lon="10.616411120024276" id="-43699">
		<tag k="alt_name" v="Bråten" />
		<tag k="name" v="Bråtån" />
		<tag k="place" v="farm" />
		<tag k="ssr:stedsnr" v="250091" />
	</node>
	<node lat="60.53666388863517" lon="10.655977786599898" id="-43700">
		<tag k="name" v="Tveito" />
		<tag k="place" v="farm" />
		<tag k="ssr:stedsnr" v="250108" />
	</node>
	<node lat="60.5175297038494" lon="10.647477272832969" id="-43701">
		<tag k="name" v="Stormyra" />
		<tag k="natural" v="wetland" />
		<tag k="ssr:stedsnr" v="250065" />
	</node>
	<node lat="60.54554166939233" lon="10.580691658817923" id="-43702">
		<tag k="name" v="Dotsettjernet" />
		<tag k="natural" v="water" />
		<tag k="ssr:stedsnr" v="250123" />
	</node>
	<node lat="60.6781472266833" lon="10.603136113536152" id="-43703">
		<tag k="name" v="Skogly" />
		<tag k="place" v="farm" />
		<tag k="ssr:stedsnr" v="250340" />
	</node>
	<node lat="60.72951666930003" lon="10.69837500699717" id="-43704">
		<tag k="alt_name" v="Flaterud" />
		<tag k="name" v="Flatrud" />
		<tag k="place" v="farm" />
		<tag k="ssr:stedsnr" v="250406" />
	</node>
	<node lat="60.73246944277997" lon="10.681438886617421" id="-43706">
		<tag k="name" v="Torstad" />
		<tag k="place" v="farm" />
		<tag k="ssr:stedsnr" v="250410" />
	</node>
	<node lat="60.722082572136614" lon="10.626971622655475" id="-43707">
		<tag k="fixme" v="consider place=hamlet" />
		<tag k="name" v="Korterud" />
		<tag k="place" v="farm" />
		<tag k="ssr:stedsnr" v="250428" />
	</node>
	<node lat="60.7378916627887" lon="10.698669451612952" id="-43708">
		<tag k="alt_name" v="Li, vestre" />
		<tag k="name" v="Vestre Li" />
		<tag k="place" v="farm" />
		<tag k="ssr:stedsnr" v="250461" />
	</node>
	<node lat="60.648522221424585" lon="10.528083327495377" id="-43709">
		<tag k="name" v="Sørlibekken" />
		<tag k="ssr:stedsnr" v="116225" />
		<tag k="waterway" v="stream" />
	</node>
	<node lat="60.67585555680509" lon="10.686649993732173" id="-43710">
		<tag k="landuse" v="meadow" />
		<tag k="name" v="Blåflat" />
		<tag k="ssr:stedsnr" v="116521" />
	</node>
	<node lat="60.68617202515126" lon="10.745945653778199" id="-43711">
		<tag k="fixme" v="consider place=hamlet" />
		<tag k="name" v="Evenrud" />
		<tag k="place" v="farm" />
		<tag k="ssr:stedsnr" v="250952" />
	</node>
	<node lat="60.57147222473358" lon="10.644363896619305" id="-43712">
		<tag k="name" v="Odden" />
		<tag k="place" v="farm" />
		<tag k="ssr:stedsnr" v="128108" />
	</node>
	<node lat="60.57187499950181" lon="10.653927777743087" id="-43713">
		<tag k="amenity" v="place_of_worship" />
		<tag k="denomination" v="lutheran" />
		<tag k="name" v="Eina kirke" />
		<tag k="religion" v="christian" />
		<tag k="ssr:stedsnr" v="128109" />
	</node>
	<node lat="60.59269722244922" lon="10.647544436062907" id="-43714">
		<tag k="alt_name" v="Bjørnerudsvea, nordre;Bjørnerudsveen" />
		<tag k="name" v="Nordre Bjørnerudsvea" />
		<tag k="place" v="farm" />
		<tag k="ssr:stedsnr" v="128138" />
	</node>
	<node lat="60.58585555456955" lon="10.613641663687014" id="-43715">
		<tag k="name" v="Jutulrudbakken" />
		<tag k="place" v="farm" />
		<tag k="ssr:stedsnr" v="128145" />
	</node>
	<node lat="60.58729166639503" lon="10.548697216512792" id="-43716">
		<tag k="name" v="Hardtjernet" />
		<tag k="natural" v="water" />
		<tag k="ssr:stedsnr" v="128147" />
	</node>
	<node lat="60.60135278088674" lon="10.666144438488963" id="-43717">
		<tag k="name" v="Bakkeli" />
		<tag k="place" v="farm" />
		<tag k="ssr:stedsnr" v="128152" />
	</node>
	<node lat="60.636775209531294" lon="10.565759431839227" id="-43718">
		<tag k="fixme" v="consider place=hamlet" />
		<tag k="name" v="Storhaugen" />
		<tag k="place" v="farm" />
		<tag k="ssr:stedsnr" v="128201" />
	</node>
	<node lat="60.68488402416908" lon="10.56072900045701" id="-43719">
		<tag k="alt_name" v="Undlien" />
		<tag k="fixme" v="consider place=hamlet" />
		<tag k="name" v="Undlia" />
		<tag k="place" v="farm" />
		<tag k="ssr:stedsnr" v="128303" />
	</node>
	<node lat="60.68677506042995" lon="10.573503196359075" id="-43720">
		<tag k="alt_name" v="Stenberg" />
		<tag k="fixme" v="consider place=hamlet" />
		<tag k="name" v="Steinberg" />
		<tag k="place" v="farm" />
		<tag k="ssr:stedsnr" v="128347" />
	</node>
	<node lat="60.691903459904886" lon="10.549228028606485" id="-43721">
		<tag k="fixme" v="consider place=hamlet" />
		<tag k="name" v="Skjellerud" />
		<tag k="place" v="farm" />
		<tag k="ssr:stedsnr" v="128350" />
	</node>
	<node lat="60.544172224517574" lon="10.601694437489986" id="-43722">
		<tag k="name" v="Strandhøgda" />
		<tag k="natural" v="hill" />
		<tag k="place" v="locality" />
		<tag k="ssr:stedsnr" v="128090" />
	</node>
	<node lat="60.55949999920618" lon="10.623963890797244" id="-43723">
		<tag k="name" v="Nyvoll" />
		<tag k="place" v="farm" />
		<tag k="ssr:stedsnr" v="128096" />
	</node>
	<node lat="60.63186477665588" lon="10.596934061951623" id="-43724">
		<tag k="name" v="Eina stasjon" />
		<tag k="railway" v="station" />
		<tag k="ssr:stedsnr" v="128204" />
		<tag k="train" v="yes" />
	</node>
	<node lat="60.65735555535227" lon="10.666561108440552" id="-43725">
		<tag k="alt_name" v="Børsvollsveen" />
		<tag k="name" v="Børsvollsvea" />
		<tag k="place" v="farm" />
		<tag k="ssr:stedsnr" v="128236" />
	</node>
	<node lat="60.65413605433972" lon="10.638310382903688" id="-43726">
		<tag k="name" v="Heksum" />
		<tag k="place" v="hamlet" />
		<tag k="ssr:stedsnr" v="128241" />
	</node>
	<node lat="60.65232222551461" lon="10.618519448927222" id="-43727">
		<tag k="alt_name" v="Nyhagen" />
		<tag k="name" v="Nyhågån" />
		<tag k="place" v="farm" />
		<tag k="ssr:stedsnr" v="128242" />
	</node>
	<node lat="60.6413250027914" lon="10.609316666082494" id="-43728">
		<tag k="name" v="Slåttsvea" />
		<tag k="place" v="farm" />
		<tag k="ssr:stedsnr" v="128250" />
	</node>
	<node lat="60.685341662831235" lon="10.665444436848189" id="-43729">
		<tag k="alt_name" v="Inndal, nedre;Inndal" />
		<tag k="name" v="Nedre Inndal" />
		<tag k="place" v="farm" />
		<tag k="ssr:stedsnr" v="128288" />
	</node>
	<node lat="60.72700555699528" lon="10.690944438594496" id="-43730">
		<tag k="name" v="Årvoll" />
		<tag k="place" v="farm" />
		<tag k="ssr:stedsnr" v="128413" />
	</node>
	<node lat="60.70876388866719" lon="10.741061113354728" id="-43731">
		<tag k="alt_name" v="Eriksrud;Eriksrud, s" />
		<tag k="name" v="Søndre Eriksrud" />
		<tag k="place" v="farm" />
		<tag k="ssr:stedsnr" v="128937" />
	</node>
	<node lat="60.7728722180478" lon="10.639888888541659" id="-43732">
		<tag k="name" v="Hunnselva" />
		<tag k="ssr:stedsnr" v="252586" />
		<tag k="waterway" v="river" />
	</node>
	<node lat="60.647957054192425" lon="10.622955523278444" id="-43733">
		<tag k="fixme" v="consider place=hamlet" />
		<tag k="name" v="Gamme" />
		<tag k="place" v="farm" />
		<tag k="ssr:stedsnr" v="144761" />
	</node>
	<node lat="60.65429444611416" lon="10.596316658765126" id="-43735">
		<tag k="name" v="Bakkeberget" />
		<tag k="natural" v="hill" />
		<tag k="place" v="locality" />
		<tag k="ssr:stedsnr" v="162254" />
	</node>
	<node lat="60.66386111124941" lon="10.672769447129543" id="-43736">
		<tag k="bridge" v="yes" />
		<tag k="layer" v="1" />
		<tag k="name" v="Bøvra" />
		<tag k="ssr:stedsnr" v="168120" />
	</node>
	<node lat="60.5719333298801" lon="10.62509999823349" id="-43737">
		<tag k="name" v="Sangnæsbekken" />
		<tag k="ssr:stedsnr" v="177214" />
		<tag k="waterway" v="stream" />
	</node>
	<node lat="60.50827221912864" lon="10.647066669670082" id="-43738">
		<tag k="alt_name" v="Helgedalssaga, nedre" />
		<tag k="name" v="Nedre Helgedalssaga" />
		<tag k="place" v="farm" />
		<tag k="ssr:stedsnr" v="188085" />
	</node>
	<node lat="60.66613888799145" lon="10.514475006911496" id="-43740">
		<tag k="name" v="Blikset" />
		<tag k="place" v="farm" />
		<tag k="ssr:stedsnr" v="188316" />
	</node>
	<node lat="60.6638972267598" lon="10.522038881895103" id="-43741">
		<tag k="alt_name" v="Gauplien" />
		<tag k="name" v="Gaupelia" />
		<tag k="place" v="farm" />
		<tag k="ssr:stedsnr" v="188317" />
	</node>
	<node lat="60.52964166260988" lon="10.630588883582499" id="-43742">
		<tag k="name" v="Sandbakken" />
		<tag k="place" v="farm" />
		<tag k="ssr:stedsnr" v="189075" />
	</node>
	<node lat="60.561619442282996" lon="10.67197500166939" id="-43743">
		<tag k="alt_name" v="Bråten" />
		<tag k="name" v="Bråtån" />
		<tag k="place" v="farm" />
		<tag k="ssr:stedsnr" v="189117" />
	</node>
	<node lat="60.5775333304183" lon="10.658086104962678" id="-43744">
		<tag k="name" v="Lauvbakken" />
		<tag k="place" v="farm" />
		<tag k="ssr:stedsnr" v="189141" />
	</node>
	<node lat="60.57857499946555" lon="10.653574996178385" id="-43745">
		<tag k="alt_name" v="Nordengen" />
		<tag k="name" v="Nordenga" />
		<tag k="place" v="farm" />
		<tag k="ssr:stedsnr" v="189143" />
	</node>
	<node lat="60.58076111253948" lon="10.653597213757319" id="-43746">
		<tag k="alt_name" v="Bjørnerudsvea, s;Bjørnerudsveen" />
		<tag k="name" v="Søndre Bjørnerudsvea" />
		<tag k="place" v="farm" />
		<tag k="ssr:stedsnr" v="189144" />
	</node>
	<node lat="60.67766110827074" lon="10.674330563325546" id="-43747">
		<tag k="junction" v="yes" />
		<tag k="name" v="Krekerud" />
		<tag k="place" v="locality" />
		<tag k="ssr:stedsnr" v="189313" />
	</node>
	<node lat="60.70172499924859" lon="10.547236106038767" id="-43748">
		<tag k="alt_name" v="Veltmanntjern" />
		<tag k="name" v="Veltmanntjernet" />
		<tag k="natural" v="water" />
		<tag k="ssr:stedsnr" v="189327" />
	</node>
	<node lat="60.703236112467515" lon="10.698377785178936" id="-43749">
		<tag k="name" v="Helsettjernet" />
		<tag k="natural" v="water" />
		<tag k="ssr:stedsnr" v="189374" />
	</node>
	<node lat="60.658234361172624" lon="10.641951726263164" id="-43750">
		<tag k="fixme" v="consider place=hamlet" />
		<tag k="name" v="Dølbakken" />
		<tag k="place" v="farm" />
		<tag k="ssr:stedsnr" v="189271" />
	</node>
	<node lat="60.666033334316694" lon="10.645891671415038" id="-43751">
		<tag k="name" v="Flaten" />
		<tag k="place" v="farm" />
		<tag k="ssr:stedsnr" v="189275" />
	</node>
	<node lat="60.71533333664661" lon="10.565874992695864" id="-43752">
		<tag k="alt_name" v="Flatlien" />
		<tag k="name" v="Flatlia" />
		<tag k="place" v="farm" />
		<tag k="ssr:stedsnr" v="189404" />
	</node>
	<node lat="60.728802773580355" lon="10.672902774697672" id="-43753">
		<tag k="name" v="Lerudåsen" />
		<tag k="place" v="farm" />
		<tag k="ssr:stedsnr" v="189414" />
	</node>
	<node lat="60.57566666402599" lon="10.622897216624125" id="-43754">
		<tag k="alt_name" v="Sangnæs" />
		<tag k="name" v="Sangnes" />
		<tag k="place" v="farm" />
		<tag k="ssr:stedsnr" v="205790" />
	</node>
	<node lat="60.56495673008794" lon="10.627618434089616" id="-43755">
		<tag k="alt_name" v="Søndre Amlien" />
		<tag k="fixme" v="consider place=hamlet" />
		<tag k="name" v="Amlien" />
		<tag k="place" v="farm" />
		<tag k="ssr:stedsnr" v="205791" />
	</node>
	<node lat="60.552099996592375" lon="10.628372219947725" id="-43756">
		<tag k="name" v="Dotset" />
		<tag k="place" v="farm" />
		<tag k="ssr:stedsnr" v="205795" />
	</node>
	<node lat="60.64195278158418" lon="10.688955564872959" id="-43757">
		<tag k="alt_name" v="Stikbakke" />
		<tag k="name" v="Stikkbakke" />
		<tag k="place" v="farm" />
		<tag k="ssr:stedsnr" v="268558" />
	</node>
	<node lat="60.698533330559336" lon="10.74081666721977" id="-43758">
		<tag k="name" v="Løken" />
		<tag k="place" v="farm" />
		<tag k="ssr:stedsnr" v="268664" />
	</node>
	<node lat="60.67740833022002" lon="10.723680562161132" id="-43759">
		<tag k="name" v="Holtebråten" />
		<tag k="place" v="farm" />
		<tag k="ssr:stedsnr" v="269046" />
	</node>
	<node lat="60.62123888462253" lon="10.603163887768794" id="-43760">
		<tag k="name" v="Sundskog" />
		<tag k="place" v="quarter" />
		<tag k="ssr:stedsnr" v="223079" />
	</node>
	<node lat="60.58953610703462" lon="10.613841670347483" id="-43761">
		<tag k="name" v="Søndre Jutulrud" />
		<tag k="place" v="farm" />
		<tag k="ssr:stedsnr" v="223227" />
	</node>
	<node lat="60.66302778134345" lon="10.598158329430078" id="-43762">
		<tag k="name" v="Karlstad" />
		<tag k="place" v="locality" />
		<tag k="ssr:stedsnr" v="223402" />
	</node>
	<node lat="60.63500833441682" lon="10.547919442636157" id="-43763">
		<tag k="name" v="Skjelbreimyra" />
		<tag k="natural" v="wetland" />
		<tag k="ssr:stedsnr" v="223388" />
	</node>
	<node lat="60.61166666949906" lon="10.564375009055786" id="-43764">
		<tag k="name" v="Hågårmoen" />
		<tag k="place" v="locality" />
		<tag k="ssr:stedsnr" v="223638" />
	</node>
	<node lat="60.54611388804337" lon="10.619100003771088" id="-43765">
		<tag k="name" v="Ørjasveen" />
		<tag k="place" v="isolated_dwelling" />
		<tag k="ssr:stedsnr" v="238307" />
	</node>
	<node lat="60.69903771102244" lon="10.718328484612101" id="-43766">
		<tag k="fixme" v="consider place=hamlet" />
		<tag k="name" v="Kvaksrud" />
		<tag k="place" v="farm" />
		<tag k="ssr:stedsnr" v="450690" />
	</node>
	<node lat="60.66451388926337" lon="10.680802779528173" id="-43767">
		<tag k="amenity" v="school" />
		<tag k="name" v="Bøverbru skole" />
		<tag k="ssr:stedsnr" v="238808" />
	</node>
	<node lat="60.66688610859023" lon="10.602925006524293" id="-43768">
		<tag k="name" v="Vestbakken" />
		<tag k="place" v="farm" />
		<tag k="ssr:stedsnr" v="238797" />
	</node>
	<node lat="60.67101944552564" lon="10.614736107738254" id="-43769">
		<tag k="name" v="Skauge" />
		<tag k="place" v="farm" />
		<tag k="ssr:stedsnr" v="238798" />
	</node>
	<node lat="60.71311666311269" lon="10.726538885782903" id="-43770">
		<tag k="name" v="Skjønsby" />
		<tag k="place" v="farm" />
		<tag k="ssr:stedsnr" v="451749" />
	</node>
	<node lat="60.70911913341804" lon="10.733161463387068" id="-43771">
		<tag k="fixme" v="consider place=hamlet" />
		<tag k="name" v="Eriksrud" />
		<tag k="place" v="farm" />
		<tag k="ssr:stedsnr" v="451752" />
	</node>
	<node lat="60.6648901378533" lon="10.58169349943966" id="-43772">
		<tag k="alt_name" v="Sorgen" />
		<tag k="fixme" v="consider place=hamlet" />
		<tag k="name" v="Sørgen" />
		<tag k="place" v="farm" />
		<tag k="ssr:stedsnr" v="249305" />
	</node>
	<node lat="60.6638388859253" lon="10.603944452724738" id="-43773">
		<tag k="alt_name" v="Reinsvollsveen" />
		<tag k="name" v="Reinsvollsvea" />
		<tag k="place" v="farm" />
		<tag k="ssr:stedsnr" v="249306" />
	</node>
	<node lat="60.674777769221095" lon="10.668911777106908" id="-43775">
		<tag k="fixme" v="consider place=hamlet" />
		<tag k="name" v="Rud" />
		<tag k="place" v="farm" />
		<tag k="ssr:stedsnr" v="249295" />
	</node>
	<node lat="60.66655833534796" lon="10.666102776594307" id="-43776">
		<tag k="alt_name" v="Bergsjøen vesle" />
		<tag k="name" v="Vesle Bergsjøen" />
		<tag k="natural" v="water" />
		<tag k="ssr:stedsnr" v="269807" />
	</node>
	<node lat="60.58589999806247" lon="10.575233334888642" id="-43777">
		<tag k="name" v="Prestvoll" />
		<tag k="place" v="farm" />
		<tag k="ssr:stedsnr" v="279610" />
	</node>
	<node lat="60.68507884431669" lon="10.581255644017869" id="-43778">
		<tag k="name" v="Bjørkebakken" />
		<tag k="place" v="farm" />
		<tag k="ssr:stedsnr" v="283388" />
	</node>
	<node lat="60.745086113788716" lon="10.651019448275356" id="-43779">
		<tag k="name" v="Vestre Drengsrud" />
		<tag k="place" v="farm" />
		<tag k="ssr:stedsnr" v="284004" />
	</node>
	<node lat="60.750525002398305" lon="10.627905558619986" id="-43780">
		<tag k="name" v="Nordby" />
		<tag k="place" v="farm" />
		<tag k="ssr:stedsnr" v="284007" />
	</node>
	<node lat="60.612958335317316" lon="10.594219436049695" id="-43781">
		<tag k="name" v="Sund" />
		<tag k="place" v="farm" />
		<tag k="ssr:stedsnr" v="284585" />
	</node>
	<node lat="60.689372223714216" lon="10.659188897718842" id="-43782">
		<tag k="name" v="Borgen" />
		<tag k="place" v="farm" />
		<tag k="ssr:stedsnr" v="298502" />
	</node>
	<node lat="60.69456111215657" lon="10.61058610270541" id="-43783">
		<tag k="name" v="Torsteinstuen" />
		<tag k="place" v="farm" />
		<tag k="ssr:stedsnr" v="298885" />
	</node>
	<node lat="60.684669446720044" lon="10.514852775751669" id="-43784">
		<tag k="historic" v="shieling" />
		<tag k="name" v="Lunnasetervollen" />
		<tag k="place" v="locality" />
		<tag k="ssr:stedsnr" v="465450" />
	</node>
	<node lat="60.67769722046276" lon="10.561208335995904" id="-43785">
		<tag k="name" v="Lognset" />
		<tag k="place" v="farm" />
		<tag k="ssr:stedsnr" v="465035" />
	</node>
	<node lat="60.68678880053588" lon="10.669217433266528" id="-43786">
		<tag k="fixme" v="consider place=hamlet" />
		<tag k="name" v="Inndal" />
		<tag k="place" v="farm" />
		<tag k="ssr:stedsnr" v="465401" />
	</node>
	<node lat="60.63603333130989" lon="10.659713894682753" id="-43787">
		<tag k="alt_name" v="Sivesindtajet" />
		<tag k="name" v="Sivesintajet" />
		<tag k="place" v="farm" />
		<tag k="ssr:stedsnr" v="310206" />
	</node>
	<node lat="60.629316667702206" lon="10.639444441405608" id="-43788">
		<tag k="name" v="Fjerdingsmyra" />
		<tag k="natural" v="wetland" />
		<tag k="ssr:stedsnr" v="310207" />
	</node>
	<node lat="60.649927781638" lon="10.67180555206639" id="-43789">
		<tag k="alt_name" v="Asplund" />
		<tag k="name" v="Aspelund" />
		<tag k="place" v="farm" />
		<tag k="ssr:stedsnr" v="310240" />
	</node>
	<node lat="60.65475555692015" lon="10.659000009164226" id="-43790">
		<tag k="name" v="Tangsvea" />
		<tag k="place" v="farm" />
		<tag k="ssr:stedsnr" v="310241" />
	</node>
	<node lat="60.53367015234576" lon="10.631035790949253" id="-43791">
		<tag k="fixme" v="consider place=hamlet" />
		<tag k="name" v="Dyrud" />
		<tag k="place" v="farm" />
		<tag k="ssr:stedsnr" v="310105" />
	</node>
	<node lat="60.53483333699874" lon="10.663300002940527" id="-43792">
		<tag k="name" v="Bjerke" />
		<tag k="place" v="farm" />
		<tag k="ssr:stedsnr" v="310108" />
	</node>
	<node lat="60.556855551770305" lon="10.688072228533459" id="-43793">
		<tag k="name" v="Kjølvegen" />
		<tag k="place" v="farm" />
		<tag k="ssr:stedsnr" v="310112" />
	</node>
	<node lat="60.56212500143085" lon="10.557516667173147" id="-43794">
		<tag k="name" v="Rognlitjernet" />
		<tag k="natural" v="water" />
		<tag k="ssr:stedsnr" v="310127" />
	</node>
	<node lat="60.57151944355311" lon="10.657213890798275" id="-43795">
		<tag k="alt_name" v="Johnsrudbakken" />
		<tag k="name" v="Jonsrudbakken" />
		<tag k="place" v="farm" />
		<tag k="ssr:stedsnr" v="310134" />
	</node>
	<node lat="60.58118055731992" lon="10.566497225428677" id="-43796">
		<tag k="alt_name" v="Skreppelva" />
		<tag k="name" v="Skreppeelva" />
		<tag k="ssr:stedsnr" v="310138" />
		<tag k="waterway" v="river" />
	</node>
	<node lat="60.61180380984642" lon="10.646495908238979" id="-43797">
		<tag k="alt_name" v="Blilie" />
		<tag k="fixme" v="consider place=hamlet" />
		<tag k="name" v="Blili" />
		<tag k="place" v="farm" />
		<tag k="ssr:stedsnr" v="310182" />
	</node>
	<node lat="60.60789444210263" lon="10.626230553957646" id="-43798">
		<tag k="name" v="Blilisanden" />
		<tag k="natural" v="beach" />
		<tag k="ssr:stedsnr" v="310183" />
	</node>
	<node lat="60.60565284818642" lon="10.619484595925467" id="-43799">
		<tag k="alt_name" v="Næs" />
		<tag k="fixme" v="consider place=hamlet" />
		<tag k="name" v="Nes" />
		<tag k="place" v="farm" />
		<tag k="ssr:stedsnr" v="310186" />
	</node>
	<node lat="60.605737333334126" lon="10.67027783881422" id="-43800">
		<tag k="fixme" v="consider place=hamlet" />
		<tag k="name" v="Blien" />
		<tag k="place" v="farm" />
		<tag k="ssr:stedsnr" v="310191" />
	</node>
	<node lat="60.67098333445217" lon="10.506852776631021" id="-43801">
		<tag k="alt_name" v="Snekkerhaugen" />
		<tag k="name" v="Snikkerhaugen" />
		<tag k="place" v="farm" />
		<tag k="ssr:stedsnr" v="310283" />
	</node>
	<node lat="60.73238888451239" lon="10.661169450619461" id="-43802">
		<tag k="name" v="Fagerlund" />
		<tag k="place" v="farm" />
		<tag k="ssr:stedsnr" v="310431" />
	</node>
	<node lat="60.71415083521789" lon="10.68696275613078" id="-43803">
		<tag k="alt_name" v="Malterud, velt;Lille Malterud" />
		<tag k="fixme" v="consider place=hamlet" />
		<tag k="name" v="Velt-Malterud" />
		<tag k="place" v="farm" />
		<tag k="ssr:stedsnr" v="310388" />
	</node>
	<node lat="60.70460026640814" lon="10.72644974844597" id="-43804">
		<tag k="fixme" v="multiple name tags, choose one and add the other to alt_name" />
		<tag k="name" v="Eriksrudtjernet;Nordtjernet" />
		<tag k="natural" v="water" />
		<tag k="ssr:stedsnr" v="310932" />
	</node>
	<node lat="60.65686388966896" lon="10.564244442413905" id="-43805">
		<tag k="junction" v="yes" />
		<tag k="name" v="Vesteråsvegskillet" />
		<tag k="place" v="locality" />
		<tag k="ssr:stedsnr" v="466409" />
	</node>
	<node lat="60.69370833713931" lon="10.625433324977681" id="-43806">
		<tag k="name" v="Ringelien" />
		<tag k="place" v="farm" />
		<tag k="ssr:stedsnr" v="466417" />
	</node>
	<node lat="60.71806388645399" lon="10.697936115596615" id="-43807">
		<tag k="name" v="Refsmyra" />
		<tag k="natural" v="wetland" />
		<tag k="ssr:stedsnr" v="466798" />
	</node>
	<node lat="60.738147221677586" lon="10.56576110731617" id="-43808">
		<tag k="fixme" v="consider natural=peak for the most distinct mountains in the district" />
		<tag k="name" v="Villåsen" />
		<tag k="natural" v="hill" />
		<tag k="place" v="locality" />
		<tag k="ssr:stedsnr" v="466889" />
	</node>
	<node lat="60.711089507123866" lon="10.740610760369025" id="-43809">
		<tag k="name" v="Husbystuen" />
		<tag k="place" v="farm" />
		<tag k="ssr:stedsnr" v="329676" />
	</node>
	<node lat="60.523216669552966" lon="10.649216660149778" id="-43810">
		<tag k="name" v="Odden" />
		<tag k="natural" v="cape" />
		<tag k="ssr:stedsnr" v="335633" />
	</node>
	<node lat="60.63243610863112" lon="10.588891672171842" id="-43811">
		<tag k="name" v="Vadmyra" />
		<tag k="natural" v="wetland" />
		<tag k="ssr:stedsnr" v="344403" />
	</node>
	<node lat="60.71784722043334" lon="10.580350008090509" id="-43812">
		<tag k="fixme" v="consider natural=peak for the most distinct mountains in the district" />
		<tag k="name" v="Lønnberget" />
		<tag k="natural" v="hill" />
		<tag k="place" v="locality" />
		<tag k="ssr:stedsnr" v="344925" />
	</node>
	<node lat="60.57353888499313" lon="10.653594453211102" id="-43813">
		<tag k="name" v="Kirkeby" />
		<tag k="place" v="farm" />
		<tag k="ssr:stedsnr" v="359215" />
	</node>
	<node lat="60.67873610867867" lon="10.622702776454023" id="-43814">
		<tag k="name" v="Prestseterbekken" />
		<tag k="ssr:stedsnr" v="359252" />
		<tag k="waterway" v="stream" />
	</node>
	<node lat="60.71789148478312" lon="10.637663379145751" id="-43815">
		<tag k="name" v="Sveum" />
		<tag k="place" v="farm" />
		<tag k="ssr:stedsnr" v="359858" />
	</node>
	<node lat="60.63289721885484" lon="10.623797220878094" id="-43816">
		<tag k="name" v="Romshus" />
		<tag k="place" v="farm" />
		<tag k="ssr:stedsnr" v="359961" />
	</node>
	<node lat="60.56873888529262" lon="10.609302774058827" id="-43817">
		<tag k="alt_name" v="Thorsbakken" />
		<tag k="name" v="Torsbakken" />
		<tag k="place" v="farm" />
		<tag k="ssr:stedsnr" v="370181" />
	</node>
	<node lat="60.568783337110474" lon="10.55858056325957" id="-43818">
		<tag k="alt_name" v="Vesteren" />
		<tag k="name" v="Vestern" />
		<tag k="place" v="farm" />
		<tag k="ssr:stedsnr" v="370184" />
	</node>
	<node lat="60.554952781701374" lon="10.625669441044655" id="-43819">
		<tag k="name" v="Dotset" />
		<tag k="place" v="farm" />
		<tag k="ssr:stedsnr" v="371109" />
	</node>
	<node lat="60.69034471728933" lon="10.60827320377165" id="-43820">
		<tag k="fixme" v="consider place=hamlet" />
		<tag k="name" v="Roksvoll" />
		<tag k="place" v="farm" />
		<tag k="ssr:stedsnr" v="371304" />
	</node>
	<node lat="60.72148055209198" lon="10.518583338404211" id="-43822">
		<tag k="alt_name" v="Øytjennet" />
		<tag k="name" v="Øytjernet" />
		<tag k="natural" v="water" />
		<tag k="ssr:stedsnr" v="371406" />
	</node>
	<node lat="60.665636114214124" lon="10.677127783273269" id="-43823">
		<tag k="amenity" v="nursing_home" />
		<tag k="name" v="Gimle aldershjem" />
		<tag k="ssr:stedsnr" v="480772" />
	</node>
	<node lat="60.730841667656016" lon="10.615830561519575" id="-43824">
		<tag k="amenity" v="community_centre" />
		<tag k="name" v="Folkets hus" />
		<tag k="ssr:stedsnr" v="480831" />
	</node>
	<node lat="60.651680555358915" lon="10.644683334944474" id="-43825">
		<tag k="name" v="Melby" />
		<tag k="place" v="farm" />
		<tag k="ssr:stedsnr" v="480789" />
	</node>
	<node lat="60.53259721952967" lon="10.66715555833872" id="-43826">
		<tag k="name" v="Hvalstad" />
		<tag k="place" v="farm" />
		<tag k="ssr:stedsnr" v="389748" />
	</node>
	<node lat="60.68627222081023" lon="10.751241661103181" id="-43827">
		<tag k="name" v="Skarten" />
		<tag k="place" v="farm" />
		<tag k="ssr:stedsnr" v="390045" />
	</node>
	<node lat="60.68865833241029" lon="10.668255550891558" id="-43828">
		<tag k="name" v="Inndal" />
		<tag k="place" v="farm" />
		<tag k="ssr:stedsnr" v="405445" />
	</node>
	<node lat="60.7228138891889" lon="10.611591671354192" id="-43829">
		<tag k="bridge" v="yes" />
		<tag k="layer" v="1" />
		<tag k="name" v="Raufoss" />
		<tag k="ssr:stedsnr" v="410107" />
	</node>
	<node lat="60.67964444496685" lon="10.685786107957803" id="-43830">
		<tag k="name" v="Danmark" />
		<tag k="natural" v="wetland" />
		<tag k="ssr:stedsnr" v="419499" />
	</node>
	<node lat="60.72483888900059" lon="10.611019450298405" id="-43831">
		<tag k="amenity" v="place_of_worship" />
		<tag k="denomination" v="lutheran" />
		<tag k="name" v="Raufoss kirke" />
		<tag k="religion" v="christian" />
		<tag k="ssr:stedsnr" v="419804" />
	</node>
	<node lat="60.724980557915664" lon="10.6364027798038" id="-43832">
		<tag k="name" v="Øvre Karsrudskogen" />
		<tag k="place" v="farm" />
		<tag k="ssr:stedsnr" v="420841" />
	</node>
	<node lat="60.72355555623637" lon="10.64043611659325" id="-43833">
		<tag k="name" v="Solhaug" />
		<tag k="place" v="farm" />
		<tag k="ssr:stedsnr" v="420843" />
	</node>
	<node lat="60.61750555431169" lon="10.67106666686511" id="-43834">
		<tag k="alt_name" v="Midtbustuen" />
		<tag k="name" v="Midtbustugua" />
		<tag k="place" v="farm" />
		<tag k="ssr:stedsnr" v="431244" />
	</node>
	<node lat="60.549508467663046" lon="10.655235155853775" id="-43835">
		<tag k="alt_name" v="Hegernes, nedre;Hegernes" />
		<tag k="name" v="Nedre Hegernes" />
		<tag k="place" v="farm" />
		<tag k="ssr:stedsnr" v="432106" />
	</node>
	<node lat="60.54873888927599" lon="10.665730557478376" id="-43836">
		<tag k="alt_name" v="Hegernes, øvre;Hegernes" />
		<tag k="name" v="Øvre Hegernes" />
		<tag k="place" v="farm" />
		<tag k="ssr:stedsnr" v="432109" />
	</node>
	<node lat="60.54288888793631" lon="10.61797778458969" id="-43837">
		<tag k="alt_name" v="Hopopp" />
		<tag k="name" v="Hoppopp" />
		<tag k="place" v="farm" />
		<tag k="ssr:stedsnr" v="432114" />
	</node>
	<node lat="60.63688401071864" lon="10.5952808316654" id="-43838">
		<tag k="name" v="Amerika" />
		<tag k="place" v="isolated_dwelling" />
		<tag k="ssr:stedsnr" v="432213" />
	</node>
	<node lat="60.62839083960526" lon="10.564104723189406" id="-43839">
		<tag k="name" v="Skjelbreida" />
		<tag k="natural" v="water" />
		<tag k="old_name" v="Skjellbreia;Skjelbreia" />
		<tag k="ssr:stedsnr" v="432215" />
		<tag k="water" v="lake" />
	</node>
	<node lat="60.6455416671497" lon="10.678074995146138" id="-43840">
		<tag k="name" v="Bekkevoll" />
		<tag k="place" v="farm" />
		<tag k="ssr:stedsnr" v="432233" />
	</node>
	<node lat="60.65283993708203" lon="10.514866318061587" id="-43841">
		<tag k="fixme" v="consider place=hamlet" />
		<tag k="name" v="Furuset" />
		<tag k="place" v="farm" />
		<tag k="ssr:stedsnr" v="432242" />
	</node>
	<node lat="60.71521667075436" lon="10.557383333654352" id="-43842">
		<tag k="alt_name" v="Bradal, s" />
		<tag k="name" v="Søndre Bradal" />
		<tag k="place" v="farm" />
		<tag k="ssr:stedsnr" v="432403" />
	</node>
	<node lat="60.74452222102102" lon="10.631763885531923" id="-43843">
		<tag k="name" v="Nerby" />
		<tag k="place" v="farm" />
		<tag k="ssr:stedsnr" v="432420" />
	</node>
	<node lat="60.6775000003154" lon="10.54508887985774" id="-43844">
		<tag k="alt_name" v="Granum, øvre;Granum" />
		<tag k="name" v="Øvre Granum" />
		<tag k="place" v="farm" />
		<tag k="ssr:stedsnr" v="432308" />
	</node>
	<node lat="60.67961592703781" lon="10.550473187487574" id="-43845">
		<tag k="alt_name" v="Granum, nedre" />
		<tag k="name" v="Nedre Granum" />
		<tag k="place" v="farm" />
		<tag k="ssr:stedsnr" v="432309" />
	</node>
	<node lat="60.55228610782437" lon="10.622527780738741" id="-43846">
		<tag k="alt_name" v="Sveen" />
		<tag k="name" v="Dotsetsvea" />
		<tag k="place" v="farm" />
		<tag k="ssr:stedsnr" v="492088" />
	</node>
	<node lat="60.54758611173385" lon="10.631663888375806" id="-43847">
		<tag k="alt_name" v="Bjørnsløkken" />
		<tag k="name" v="Bjørnslykkja" />
		<tag k="place" v="farm" />
		<tag k="ssr:stedsnr" v="492094" />
	</node>
	<node lat="60.588450671146695" lon="10.64402990730666" id="-43848">
		<tag k="fixme" v="consider place=hamlet" />
		<tag k="name" v="Bjørnerud" />
		<tag k="place" v="farm" />
		<tag k="ssr:stedsnr" v="492130" />
	</node>
	<node lat="60.600933578084245" lon="10.675404951118258" id="-43849">
		<tag k="name" v="Hermanrud" />
		<tag k="place" v="farm" />
		<tag k="ssr:stedsnr" v="492149" />
	</node>
	<node lat="60.59762499915913" lon="10.584291663728308" id="-43850">
		<tag k="name" v="Sætervika" />
		<tag k="natural" v="bay" />
		<tag k="ssr:stedsnr" v="492155" />
	</node>
	<node lat="60.60733610741613" lon="10.643138889139145" id="-43851">
		<tag k="name" v="Sønsteli" />
		<tag k="place" v="farm" />
		<tag k="ssr:stedsnr" v="492159" />
	</node>
	<node lat="60.63151388967127" lon="10.61646944258659" id="-43852">
		<tag k="name" v="Nygard" />
		<tag k="place" v="farm" />
		<tag k="ssr:stedsnr" v="492192" />
	</node>
	<node lat="60.6575583309046" lon="10.518830546527902" id="-43853">
		<tag k="name" v="Grønlund" />
		<tag k="place" v="farm" />
		<tag k="ssr:stedsnr" v="492213" />
	</node>
	<node lat="60.67568332956263" lon="10.571852780278462" id="-43854">
		<tag k="name" v="Buertjernet" />
		<tag k="natural" v="water" />
		<tag k="ssr:stedsnr" v="492254" />
	</node>
	<node lat="60.67445907215936" lon="10.691063208361898" id="-43855">
		<tag k="alt_name" v="Øfstås" />
		<tag k="fixme" v="consider place=hamlet" />
		<tag k="name" v="Øvstås" />
		<tag k="old_name" v="Øfstaas;Øvstaas" />
		<tag k="place" v="farm" />
		<tag k="ssr:stedsnr" v="492267" />
	</node>
	<node lat="60.70047011458284" lon="10.578744000255599" id="-43856">
		<tag k="fixme" v="consider place=hamlet" />
		<tag k="name" v="Brattberg" />
		<tag k="place" v="farm" />
		<tag k="ssr:stedsnr" v="492331" />
	</node>
	<node lat="60.69742730259798" lon="10.586714516281678" id="-43857">
		<tag k="alt_name" v="Skartseter" />
		<tag k="fixme" v="consider place=hamlet" />
		<tag k="name" v="Skartsætra" />
		<tag k="place" v="farm" />
		<tag k="ssr:stedsnr" v="492335" />
	</node>
	<node lat="60.69873889290009" lon="10.71338610657508" id="-43858">
		<tag k="alt_name" v="Westby" />
		<tag k="name" v="Myrvang" />
		<tag k="place" v="farm" />
		<tag k="ssr:stedsnr" v="492344" />
	</node>
	<node lat="60.68957500211" lon="10.60268056477081" id="-43859">
		<tag k="alt_name" v="Brustuen" />
		<tag k="name" v="Brustugua" />
		<tag k="place" v="farm" />
		<tag k="ssr:stedsnr" v="492361" />
	</node>
	<node lat="60.69460833497195" lon="10.530483341329" id="-43860">
		<tag k="name" v="Driterbakkmyra" />
		<tag k="natural" v="wetland" />
		<tag k="ssr:stedsnr" v="492362" />
	</node>
	<node lat="60.71226944855485" lon="10.69083054843273" id="-43861">
		<tag k="alt_name" v="Thune" />
		<tag k="name" v="Tune" />
		<tag k="place" v="farm" />
		<tag k="ssr:stedsnr" v="492366" />
	</node>
	<node lat="60.72950833425236" lon="10.585269450558993" id="-43862">
		<tag k="alt_name" v="Sørlien" />
		<tag k="name" v="Sørligrenda" />
		<tag k="place" v="hamlet" />
		<tag k="ssr:stedsnr" v="492431" />
	</node>
	<node lat="60.6035888868803" lon="10.671305557684505" id="-43863">
		<tag k="name" v="Nyborg" />
		<tag k="place" v="farm" />
		<tag k="ssr:stedsnr" v="450605" />
	</node>
	<node lat="60.51838611075493" lon="10.667633329390808" id="-43864">
		<tag k="historic" v="shieling" />
		<tag k="name" v="Lundvollen" />
		<tag k="place" v="locality" />
		<tag k="ssr:stedsnr" v="457524" />
	</node>
	<node lat="60.67426388719067" lon="10.649936105384867" id="-43865">
		<tag k="name" v="Arnli" />
		<tag k="place" v="farm" />
		<tag k="ssr:stedsnr" v="674287" />
	</node>
	<node lat="60.6686543328437" lon="10.599848414729898" id="-43866">
		<tag k="alt_name" v="Elgeberget" />
		<tag k="fixme" v="consider place=hamlet" />
		<tag k="name" v="Berget" />
		<tag k="place" v="farm" />
		<tag k="ssr:stedsnr" v="674288" />
	</node>
	<node lat="60.51037499640028" lon="10.649080553976832" id="-43867">
		<tag k="name" v="Helgedalselva" />
		<tag k="ssr:stedsnr" v="674077" />
		<tag k="waterway" v="stream" />
	</node>
	<node lat="60.530558331704086" lon="10.664627773222605" id="-43868">
		<tag k="name" v="Teiterudbakken" />
		<tag k="place" v="farm" />
		<tag k="ssr:stedsnr" v="674093" />
	</node>
	<node lat="60.58636666382023" lon="10.594241671738153" id="-43869">
		<tag k="name" v="Granum" />
		<tag k="place" v="farm" />
		<tag k="ssr:stedsnr" v="674158" />
	</node>
	<node lat="60.575358333678096" lon="10.567566658320343" id="-43870">
		<tag k="name" v="Bjerkvoll" />
		<tag k="place" v="farm" />
		<tag k="ssr:stedsnr" v="674151" />
	</node>
	<node lat="60.695350000234" lon="10.613811110322361" id="-43871">
		<tag k="alt_name" v="Finrøstø" />
		<tag k="name" v="Finnrøste" />
		<tag k="old_name" v="Myre" />
		<tag k="place" v="farm" />
		<tag k="ssr:stedsnr" v="674336" />
	</node>
	<node lat="60.65770832953975" lon="10.600144450075438" id="-43872">
		<tag k="name" v="Børthus" />
		<tag k="place" v="farm" />
		<tag k="ssr:stedsnr" v="674242" />
	</node>
	<node lat="60.71321742678301" lon="10.700122483016466" id="-43873">
		<tag k="alt_name" v="Myren" />
		<tag k="fixme" v="consider place=hamlet" />
		<tag k="name" v="Myra" />
		<tag k="place" v="farm" />
		<tag k="ssr:stedsnr" v="674367" />
	</node>
	<node lat="60.71657778051947" lon="10.62862221990664" id="-43874">
		<tag k="name" v="Skogsrud" />
		<tag k="place" v="farm" />
		<tag k="ssr:stedsnr" v="674370" />
	</node>
	<node lat="60.693298815069554" lon="10.578992215719277" id="-43875">
		<tag k="alt_name" v="Berger, midtre;Berger" />
		<tag k="fixme" v="consider place=hamlet" />
		<tag k="name" v="Midtre Berger" />
		<tag k="place" v="farm" />
		<tag k="ssr:stedsnr" v="674338" />
	</node>
	<node lat="60.696980554470905" lon="10.624499998170062" id="-43876">
		<tag k="name" v="Morterudenga" />
		<tag k="place" v="farm" />
		<tag k="ssr:stedsnr" v="674345" />
	</node>
	<node lat="60.74110833392187" lon="10.681341668984183" id="-43877">
		<tag k="name" v="Jemtland" />
		<tag k="place" v="farm" />
		<tag k="ssr:stedsnr" v="674449" />
	</node>
	<node lat="60.698911111270675" lon="10.583963880051954" id="-43878">
		<tag k="name" v="Skartseterbakken" />
		<tag k="place" v="farm" />
		<tag k="ssr:stedsnr" v="465420" />
	</node>
	<node lat="60.654055553103355" lon="10.565752786724863" id="-43879">
		<tag k="name" v="Saksebøle" />
		<tag k="place" v="locality" />
		<tag k="ssr:stedsnr" v="466408" />
	</node>
	<node lat="60.62569167078582" lon="10.590444439892005" id="-43880">
		<tag k="name" v="Røyskattlia" />
		<tag k="place" v="quarter" />
		<tag k="ssr:stedsnr" v="466617" />
	</node>
	<node lat="60.66026666450329" lon="10.521483341595564" id="-43881">
		<tag k="name" v="Solvoll" />
		<tag k="place" v="farm" />
		<tag k="ssr:stedsnr" v="466760" />
	</node>
	<node lat="60.70964444434157" lon="10.738424996092201" id="-43882">
		<tag k="alt_name" v="Eriksrud, nordre;Eriksrud" />
		<tag k="name" v="Nordre Eriksrud" />
		<tag k="place" v="farm" />
		<tag k="ssr:stedsnr" v="674930" />
	</node>
	<node lat="60.69385309738969" lon="10.748747342930526" id="-43883">
		<tag k="fixme" v="consider place=hamlet" />
		<tag k="name" v="Kverndalen" />
		<tag k="place" v="farm" />
		<tag k="ssr:stedsnr" v="674941" />
	</node>
	<node lat="60.58981388544125" lon="10.532327785738495" id="-43884">
		<tag k="name" v="Granlia" />
		<tag k="natural" v="slope" />
		<tag k="place" v="locality" />
		<tag k="ssr:stedsnr" v="675209" />
	</node>
	<node lat="60.689161109004296" lon="10.649269447352538" id="-43885">
		<tag k="name" v="Bjørge" />
		<tag k="place" v="farm" />
		<tag k="ssr:stedsnr" v="480209" />
	</node>
	<node lat="60.668888885151446" lon="10.667030552294985" id="-43886">
		<tag k="leisure" v="pitch" />
		<tag k="name" v="Bøverbru idrettsplass" />
		<tag k="ssr:stedsnr" v="481108" />
	</node>
	<node lat="60.584238889411644" lon="10.576813894791755" id="-43887">
		<tag k="name" v="Korsen" />
		<tag k="place" v="farm" />
		<tag k="ssr:stedsnr" v="492121" />
	</node>
	<node lat="60.655438890798756" lon="10.529249998088318" id="-43888">
		<tag k="alt_name" v="Sveen" />
		<tag k="name" v="Svea" />
		<tag k="place" v="farm" />
		<tag k="ssr:stedsnr" v="492207" />
	</node>
	<node lat="60.655027780754814" lon="10.602647223933902" id="-43889">
		<tag k="name" v="Bruflat" />
		<tag k="place" v="hamlet" />
		<tag k="ssr:stedsnr" v="492225" />
	</node>
	<node lat="60.677516662882155" lon="10.605811102051868" id="-43890">
		<tag k="name" v="Reinsvolldammen" />
		<tag k="natural" v="water" />
		<tag k="ssr:stedsnr" v="492271" />
	</node>
	<node lat="60.660280558206395" lon="10.65875278429706" id="-43891">
		<tag k="alt_name" v="Holtjernet" />
		<tag k="name" v="Holetjernet" />
		<tag k="natural" v="water" />
		<tag k="ssr:stedsnr" v="492282" />
	</node>
	<node lat="60.68587222064815" lon="10.675508338446093" id="-43892">
		<tag k="name" v="Rønås" />
		<tag k="place" v="farm" />
		<tag k="ssr:stedsnr" v="492291" />
	</node>
	<node lat="60.74413610816736" lon="10.641358339731388" id="-43893">
		<tag k="name" v="Hanstad" />
		<tag k="place" v="farm" />
		<tag k="ssr:stedsnr" v="492417" />
	</node>
	<node lat="60.61989999883755" lon="10.611430555439195" id="-43894">
		<tag k="name" v="Dokke" />
		<tag k="place" v="farm" />
		<tag k="ssr:stedsnr" v="492176" />
	</node>
	<node lat="60.71254444803454" lon="10.645044440594235" id="-43895">
		<tag k="name" v="Østeng" />
		<tag k="place" v="farm" />
		<tag k="ssr:stedsnr" v="492370" />
	</node>
	<node lat="60.71766389007993" lon="10.594438882809857" id="-43896">
		<tag k="name" v="Lønnberget" />
		<tag k="place" v="quarter" />
		<tag k="ssr:stedsnr" v="492375" />
	</node>
	<node lat="60.70226944669377" lon="10.647400003340929" id="-43897">
		<tag k="name" v="Hager" />
		<tag k="place" v="farm" />
		<tag k="ssr:stedsnr" v="492382" />
	</node>
	<node lat="60.67923571060988" lon="10.609854589427757" id="-43898">
		<tag k="fixme" v="consider place=hamlet" />
		<tag k="name" v="Reinsvoll" />
		<tag k="place" v="farm" />
		<tag k="ssr:stedsnr" v="526365" />
	</node>
	<node lat="60.673558335889375" lon="10.538016674233996" id="-43900">
		<tag k="name" v="Granumslia" />
		<tag k="natural" v="slope" />
		<tag k="place" v="locality" />
		<tag k="ssr:stedsnr" v="526480" />
	</node>
	<node lat="60.61930277343568" lon="10.56799721888652" id="-43901">
		<tag k="name" v="Langvika" />
		<tag k="natural" v="bay" />
		<tag k="ssr:stedsnr" v="526621" />
	</node>
	<node lat="60.659644447947336" lon="10.537480551978254" id="-43902">
		<tag k="junction" v="yes" />
		<tag k="name" v="Rudsvebakken" />
		<tag k="place" v="locality" />
		<tag k="ssr:stedsnr" v="526772" />
	</node>
	<node lat="60.726122224746476" lon="10.667594450734256" id="-43903">
		<tag k="name" v="Lerudjordet" />
		<tag k="place" v="farm" />
		<tag k="ssr:stedsnr" v="526793" />
	</node>
	<node lat="60.60018656012063" lon="10.56918064876163" id="-43904">
		<tag k="fixme" v="consider place=hamlet" />
		<tag k="name" v="Hågår" />
		<tag k="place" v="farm" />
		<tag k="ssr:stedsnr" v="552211" />
	</node>
	<node lat="60.57276066958993" lon="10.649768141128876" id="-43905">
		<tag k="alt_name" v="Johnsrud" />
		<tag k="fixme" v="consider place=hamlet" />
		<tag k="name" v="Jonsrud" />
		<tag k="place" v="farm" />
		<tag k="ssr:stedsnr" v="552150" />
	</node>
	<node lat="60.67026389282016" lon="10.555975005514354" id="-43906">
		<tag k="name" v="Sæterbakken" />
		<tag k="old_name" v="Bakkeli" />
		<tag k="place" v="farm" />
		<tag k="ssr:stedsnr" v="552320" />
	</node>
	<node lat="60.697571034364984" lon="10.680554618089674" id="-43907">
		<tag k="alt_name" v="Engødegård" />
		<tag k="fixme" v="consider place=hamlet" />
		<tag k="name" v="Engøgard" />
		<tag k="place" v="farm" />
		<tag k="ssr:stedsnr" v="552403" />
	</node>
	<node lat="60.704491662509746" lon="10.5829388833786" id="-43908">
		<tag k="name" v="Rognstad" />
		<tag k="place" v="farm" />
		<tag k="ssr:stedsnr" v="552436" />
	</node>
	<node lat="60.70865277480754" lon="10.581988897517162" id="-43909">
		<tag k="name" v="Lunde" />
		<tag k="place" v="farm" />
		<tag k="ssr:stedsnr" v="552438" />
	</node>
	<node lat="60.70704999615554" lon="10.61571388826534" id="-43910">
		<tag k="name" v="Dragerskogen" />
		<tag k="place" v="locality" />
		<tag k="ssr:stedsnr" v="552439" />
	</node>
	<node lat="60.66452777384291" lon="10.51249721514412" id="-43911">
		<tag k="alt_name" v="Sveum" />
		<tag k="name" v="Sveom" />
		<tag k="place" v="farm" />
		<tag k="ssr:stedsnr" v="552335" />
	</node>
	<node lat="60.74921141740899" lon="10.675127208905225" id="-43912">
		<tag k="name" v="Flikkeshaug" />
		<tag k="place" v="farm" />
		<tag k="ssr:stedsnr" v="552524" />
	</node>
	<node lat="60.67656844843439" lon="10.50089200246189" id="-43913">
		<tag k="alt_name" v="Skjerrdalen, s;Søndre Skjærdalen" />
		<tag k="fixme" v="consider place=hamlet" />
		<tag k="name" v="Søndre Skjerrdalen" />
		<tag k="place" v="farm" />
		<tag k="ssr:stedsnr" v="553315" />
	</node>
	<node lat="60.67885567926902" lon="10.616729338194999" id="-43914">
		<tag k="name" v="Reinsvoll stasjon" />
		<tag k="railway" v="station" />
		<tag k="ssr:stedsnr" v="553323" />
		<tag k="train" v="yes" />
	</node>
	<node lat="60.534397225081015" lon="10.654913895593705" id="-43915">
		<tag k="alt_name" v="Teiterud, nordre" />
		<tag k="name" v="Nordre Teiterud" />
		<tag k="place" v="farm" />
		<tag k="ssr:stedsnr" v="553097" />
	</node>
	<node lat="60.6347148273213" lon="10.602706444827485" id="-43916">
		<tag k="fixme" v="consider place=hamlet" />
		<tag k="name" v="Blåvarp" />
		<tag k="place" v="farm" />
		<tag k="ssr:stedsnr" v="553218" />
	</node>
	<node lat="60.72046111494239" lon="10.703580563273267" id="-43917">
		<tag k="name" v="Dagfinnrud" />
		<tag k="place" v="isolated_dwelling" />
		<tag k="ssr:stedsnr" v="553421" />
	</node>
	<node lat="60.72858333060476" lon="10.70824722484167" id="-43918">
		<tag k="name" v="Solstad" />
		<tag k="place" v="farm" />
		<tag k="ssr:stedsnr" v="553424" />
	</node>
	<node lat="60.64371944399072" lon="10.601444436073193" id="-43919">
		<tag k="alt_name" v="Vestre Gamme" />
		<tag k="name" v="Gamme" />
		<tag k="place" v="farm" />
		<tag k="ssr:stedsnr" v="691743" />
	</node>
	<node lat="60.54530134437109" lon="10.630371945691149" id="-43920">
		<tag k="name" v="Nygårdslunden" />
		<tag k="place" v="farm" />
		<tag k="ssr:stedsnr" v="690344" />
	</node>
	<node lat="60.54716111557054" lon="10.659011111003178" id="-43921">
		<tag k="name" v="Bruhagen" />
		<tag k="place" v="farm" />
		<tag k="ssr:stedsnr" v="690364" />
	</node>
	<node lat="60.5175638865637" lon="10.701097218958628" id="-43922">
		<tag k="name" v="Lushattsletta" />
		<tag k="place" v="locality" />
		<tag k="ssr:stedsnr" v="578515" />
	</node>
	<node lat="60.65700832935929" lon="10.49033611276518" id="-43923">
		<tag k="name" v="Furusetdammen" />
		<tag k="natural" v="water" />
		<tag k="ssr:stedsnr" v="586747" />
		<tag k="water" v="pond" />
	</node>
	<node lat="60.654638890381335" lon="10.55482500305821" id="-43924">
		<tag k="name" v="Stormyrbakken" />
		<tag k="natural" v="slope" />
		<tag k="place" v="locality" />
		<tag k="ssr:stedsnr" v="587401" />
	</node>
	<node lat="60.61468888822787" lon="10.586722217827973" id="-43925">
		<tag k="name" v="Korpnebben" />
		<tag k="natural" v="cape" />
		<tag k="ssr:stedsnr" v="587608" />
	</node>
	<node lat="60.611972221298636" lon="10.58346388921366" id="-43926">
		<tag k="name" v="Støen" />
		<tag k="place" v="farm" />
		<tag k="ssr:stedsnr" v="587611" />
	</node>
	<node lat="60.73244721990444" lon="10.557394438347599" id="-43927">
		<tag k="fixme" v="specify shooting=range, clay_pigeon etc" />
		<tag k="leisure" v="pitch" />
		<tag k="name" v="Vestre Toten skytebane" />
		<tag k="sport" v="shooting" />
		<tag k="ssr:stedsnr" v="587926" />
	</node>
	<node lat="60.516722220455854" lon="10.636483327934984" id="-43928">
		<tag k="bridge" v="yes" />
		<tag k="layer" v="1" />
		<tag k="name" v="Einavoll" />
		<tag k="ssr:stedsnr" v="592109" />
	</node>
	<node lat="60.72289999621399" lon="10.613086110836715" id="-43929">
		<tag k="name" v="Fugleparken" />
		<tag k="ssr:stedsnr" v="601806" />
		<tag k="tourism" v="attraction" />
	</node>
	<node lat="60.52324444115982" lon="10.667405554134994" id="-43930">
		<tag k="alt_name" v="Hågån" />
		<tag k="name" v="Hagan" />
		<tag k="old_name" v="Hagen" />
		<tag k="place" v="farm" />
		<tag k="ssr:stedsnr" v="603066" />
	</node>
	<node lat="60.673866670380804" lon="10.66247777434013" id="-43931">
		<tag k="name" v="Rudsbekken" />
		<tag k="ssr:stedsnr" v="605260" />
		<tag k="waterway" v="stream" />
	</node>
	<node lat="60.5225416643112" lon="10.661574996439825" id="-43932">
		<tag k="alt_name" v="Fosslien" />
		<tag k="name" v="Fosslia" />
		<tag k="place" v="farm" />
		<tag k="ssr:stedsnr" v="613075" />
	</node>
	<node lat="60.61727500412836" lon="10.58267777586554" id="-43933">
		<tag k="name" v="Gørvika" />
		<tag k="natural" v="bay" />
		<tag k="ssr:stedsnr" v="613205" />
	</node>
	<node lat="60.62151388982946" lon="10.584516673948855" id="-43934">
		<tag k="name" v="Strømstad" />
		<tag k="place" v="isolated_dwelling" />
		<tag k="ssr:stedsnr" v="613210" />
	</node>
	<node lat="60.61712995217183" lon="10.67469908748523" id="-43935">
		<tag k="fixme" v="consider place=hamlet" />
		<tag k="name" v="Kjelsrud" />
		<tag k="place" v="farm" />
		<tag k="ssr:stedsnr" v="613214" />
	</node>
	<node lat="60.59409166998676" lon="10.640913889658256" id="-43936">
		<tag k="alt_name" v="Ødegården" />
		<tag k="name" v="Bjørnerudøgarden" />
		<tag k="place" v="farm" />
		<tag k="ssr:stedsnr" v="613168" />
	</node>
	<node lat="60.60081523661912" lon="10.684312274375184" id="-43937">
		<tag k="fixme" v="consider place=hamlet" />
		<tag k="name" v="Sandbekken" />
		<tag k="place" v="farm" />
		<tag k="ssr:stedsnr" v="613172" />
	</node>
	<node lat="60.66140000414681" lon="10.575077769219906" id="-43938">
		<tag k="alt_name" v="Sorgenmyra" />
		<tag k="name" v="Sørgenmyra" />
		<tag k="natural" v="wetland" />
		<tag k="ssr:stedsnr" v="613314" />
	</node>
	<node lat="60.66726694367329" lon="10.54747313383877" id="-43939">
		<tag k="alt_name" v="Evangseter" />
		<tag k="fixme" v="consider place=hamlet" />
		<tag k="name" v="Evangssætra" />
		<tag k="place" v="farm" />
		<tag k="ssr:stedsnr" v="613317" />
	</node>
	<node lat="60.68703055865675" lon="10.671227778764532" id="-43940">
		<tag k="name" v="Inndal" />
		<tag k="place" v="farm" />
		<tag k="ssr:stedsnr" v="613320" />
	</node>
	<node lat="60.710511110046966" lon="10.604638892659144" id="-43941">
		<tag k="name" v="Kildal" />
		<tag k="place" v="farm" />
		<tag k="ssr:stedsnr" v="613407" />
	</node>
	<node lat="60.707433334853306" lon="10.564044446913064" id="-43942">
		<tag k="name" v="Rosethaugen" />
		<tag k="place" v="farm" />
		<tag k="ssr:stedsnr" v="613414" />
	</node>
	<node lat="60.68672499610964" lon="10.497297228173464" id="-43943">
		<tag k="name" v="Korperuddalen" />
		<tag k="natural" v="valley" />
		<tag k="place" v="locality" />
		<tag k="ssr:stedsnr" v="613360" />
	</node>
	<node lat="60.70173335567325" lon="10.585186802825893" id="-43944">
		<tag k="alt_name" v="Sagvoll" />
		<tag k="fixme" v="consider place=hamlet" />
		<tag k="name" v="Sagvollen" />
		<tag k="place" v="farm" />
		<tag k="ssr:stedsnr" v="613363" />
	</node>
	<node lat="60.56385277891633" lon="10.678844451088244" id="-43945">
		<tag k="name" v="Geitryggen" />
		<tag k="natural" v="ridge" />
		<tag k="place" v="locality" />
		<tag k="ssr:stedsnr" v="632732" />
	</node>
	<node lat="60.69094444062358" lon="10.614305555517987" id="-43946">
		<tag k="alt_name" v="Morterud vestre" />
		<tag k="name" v="Vestre Morterud" />
		<tag k="place" v="farm" />
		<tag k="ssr:stedsnr" v="633837" />
	</node>
	<node lat="60.556569442831346" lon="10.574825004925673" id="-43947">
		<tag k="name" v="Prestemarka" />
		<tag k="place" v="locality" />
		<tag k="ssr:stedsnr" v="639716" />
	</node>
	<node lat="60.73860000326079" lon="10.62700554770569" id="-43948">
		<tag k="name" v="Frydenlund" />
		<tag k="place" v="farm" />
		<tag k="ssr:stedsnr" v="647482" />
	</node>
	<node lat="60.73707500027963" lon="10.570622217608573" id="-43949">
		<tag k="name" v="Østre Villåsen" />
		<tag k="place" v="farm" />
		<tag k="ssr:stedsnr" v="647893" />
	</node>
	<node lat="60.73483333022487" lon="10.703388883962075" id="-43950">
		<tag k="name" v="Nordli" />
		<tag k="place" v="farm" />
		<tag k="ssr:stedsnr" v="647787" />
	</node>
	<node lat="60.712205552761176" lon="10.522563885909264" id="-43951">
		<tag k="name" v="Øytjernslia" />
		<tag k="natural" v="slope" />
		<tag k="place" v="locality" />
		<tag k="ssr:stedsnr" v="708335" />
	</node>
	<node lat="60.71015000079217" lon="10.593424994540994" id="-43952">
		<tag k="name" v="Rosetlia" />
		<tag k="place" v="quarter" />
		<tag k="ssr:stedsnr" v="708458" />
	</node>
	<node lat="60.74271944094759" lon="10.673205559598918" id="-43953">
		<tag k="amenity" v="school" />
		<tag k="name" v="Elton" />
		<tag k="ssr:stedsnr" v="708660" />
	</node>
	<node lat="60.61784444125864" lon="10.594752769709679" id="-43954">
		<tag k="name" v="Brenna" />
		<tag k="natural" v="cape" />
		<tag k="ssr:stedsnr" v="708584" />
	</node>
	<node lat="60.717638887229" lon="10.537063897891077" id="-43955">
		<tag k="name" v="Bradalslia" />
		<tag k="natural" v="slope" />
		<tag k="place" v="locality" />
		<tag k="ssr:stedsnr" v="708945" />
	</node>
	<node lat="60.558366663393784" lon="10.619638887714622" id="-43956">
		<tag k="name" v="Grefsrud" />
		<tag k="place" v="farm" />
		<tag k="ssr:stedsnr" v="662237" />
	</node>
	<node lat="60.67778332990875" lon="10.673111114670936" id="-43957">
		<tag k="name" v="Rustad" />
		<tag k="place" v="farm" />
		<tag k="ssr:stedsnr" v="662535" />
	</node>
	<node lat="60.59502221795186" lon="10.640375006567522" id="-43958">
		<tag k="name" v="Ødegården" />
		<tag k="place" v="farm" />
		<tag k="ssr:stedsnr" v="890156" />
	</node>
	<node lat="60.67566111317358" lon="10.49345000031829" id="-43959">
		<tag k="name" v="Skjærdalsmarka" />
		<tag k="place" v="locality" />
		<tag k="ssr:stedsnr" v="890493" />
	</node>
	<node lat="60.73735555855485" lon="10.636352785720037" id="-43960">
		<tag k="fixme" v="consider place=hamlet" />
		<tag k="name" v="Øverby" />
		<tag k="place" v="farm" />
		<tag k="ssr:stedsnr" v="890673" />
	</node>
	<node lat="60.740683332102904" lon="10.65893333540969" id="-43961">
		<tag k="name" v="Vestli" />
		<tag k="place" v="locality" />
		<tag k="ssr:stedsnr" v="890551" />
	</node>
	<node lat="60.65530277865174" lon="10.68809444960103" id="-43962">
		<tag k="name" v="Bøvra" />
		<tag k="ssr:stedsnr" v="674252" />
		<tag k="waterway" v="stream" />
	</node>
	<node lat="60.64639999932391" lon="10.572658337686716" id="-43963">
		<tag k="alt_name" v="Kulltjernet" />
		<tag k="name" v="Koltjernet" />
		<tag k="natural" v="water" />
		<tag k="ssr:stedsnr" v="674269" />
	</node>
	<node lat="60.72065277659977" lon="10.64507221937919" id="-43964">
		<tag k="name" v="Hermannrud" />
		<tag k="place" v="farm" />
		<tag k="ssr:stedsnr" v="674415" />
	</node>
	<node lat="60.72309166650191" lon="10.585499997212004" id="-43965">
		<tag k="name" v="Rukkerud" />
		<tag k="place" v="farm" />
		<tag k="ssr:stedsnr" v="674418" />
	</node>
	<node lat="60.69562500145356" lon="10.64954722828862" id="-43966">
		<tag k="name" v="Vien" />
		<tag k="place" v="farm" />
		<tag k="ssr:stedsnr" v="674351" />
	</node>
	<node lat="60.69551388983765" lon="10.744625008971921" id="-43967">
		<tag k="name" v="Slomma" />
		<tag k="natural" v="water" />
		<tag k="ssr:stedsnr" v="674954" />
	</node>
	<node lat="60.593222225872374" lon="10.555869447189496" id="-43968">
		<tag k="name" v="Abbortjernet" />
		<tag k="natural" v="water" />
		<tag k="ssr:stedsnr" v="675198" />
	</node>
	<node lat="60.6012222233718" lon="10.675908327513133" id="-43969">
		<tag k="name" v="Grønland" />
		<tag k="place" v="farm" />
		<tag k="ssr:stedsnr" v="693615" />
	</node>
	<node lat="60.64405270979534" lon="10.6849277145824" id="-43970">
		<tag k="fixme" v="consider place=hamlet" />
		<tag k="name" v="Glæserudbakken" />
		<tag k="place" v="farm" />
		<tag k="ssr:stedsnr" v="693581" />
	</node>
	<node lat="60.64530833315209" lon="10.684052786336258" id="-43971">
		<tag k="name" v="Glæserudstuen" />
		<tag k="place" v="farm" />
		<tag k="ssr:stedsnr" v="693583" />
	</node>
	<node lat="60.722128500674785" lon="10.613352043941664" id="-43972">
		<tag k="name" v="Raufoss stasjon" />
		<tag k="railway" v="station" />
		<tag k="ssr:stedsnr" v="694790" />
		<tag k="train" v="yes" />
	</node>
	<node lat="60.65438055715046" lon="10.603847216906225" id="-43973">
		<tag k="bridge" v="yes" />
		<tag k="layer" v="1" />
		<tag k="name" v="Bruflat" />
		<tag k="ssr:stedsnr" v="896092" />
	</node>
	<node lat="60.574191668523056" lon="10.591069452034784" id="-43974">
		<tag k="name" v="Stormyra" />
		<tag k="natural" v="wetland" />
		<tag k="ssr:stedsnr" v="703611" />
	</node>
	<node lat="60.55541111052496" lon="10.627041667222896" id="-43975">
		<tag k="name" v="Dotset" />
		<tag k="place" v="farm" />
		<tag k="ssr:stedsnr" v="708112" />
	</node>
	<node lat="60.747874996340855" lon="10.62050278107518" id="-43976">
		<tag k="name" v="Elvelia" />
		<tag k="natural" v="slope" />
		<tag k="place" v="locality" />
		<tag k="ssr:stedsnr" v="708524" />
	</node>
	<node lat="60.72301111472841" lon="10.676488882661301" id="-43977">
		<tag k="name" v="Raulåven" />
		<tag k="place" v="isolated_dwelling" />
		<tag k="ssr:stedsnr" v="708773" />
	</node>
	<node lat="60.6908444482804" lon="10.658366660070463" id="-43978">
		<tag k="name" v="Nordvestre Kyset" />
		<tag k="place" v="farm" />
		<tag k="ssr:stedsnr" v="723076" />
	</node>
	<node lat="60.71576944604597" lon="10.646491660880587" id="-43979">
		<tag k="name" v="Drager" />
		<tag k="place" v="farm" />
		<tag k="ssr:stedsnr" v="723827" />
	</node>
	<node lat="60.591238885805005" lon="10.610311115063494" id="-43980">
		<tag k="name" v="Nordre Jutulrud" />
		<tag k="place" v="farm" />
		<tag k="ssr:stedsnr" v="727482" />
	</node>
	<node lat="60.550135413485506" lon="10.675959708400107" id="-43981">
		<tag k="alt_name" v="Snipstadsetra" />
		<tag k="fixme" v="consider place=hamlet" />
		<tag k="name" v="Snippstadsætra" />
		<tag k="place" v="farm" />
		<tag k="ssr:stedsnr" v="735107" />
	</node>
	<node lat="60.568627776923826" lon="10.557222230277116" id="-43982">
		<tag k="name" v="Skogsrud" />
		<tag k="place" v="farm" />
		<tag k="ssr:stedsnr" v="735127" />
	</node>
	<node lat="60.530097222834804" lon="10.613994439574599" id="-43983">
		<tag k="name" v="Marka" />
		<tag k="place" v="farm" />
		<tag k="ssr:stedsnr" v="735076" />
	</node>
	<node lat="60.52800000440291" lon="10.63061110686899" id="-43984">
		<tag k="name" v="Sandbekk" />
		<tag k="place" v="farm" />
		<tag k="ssr:stedsnr" v="735086" />
	</node>
	<node lat="60.54666944764803" lon="10.659405550138715" id="-43985">
		<tag k="name" v="Brubakken" />
		<tag k="place" v="farm" />
		<tag k="ssr:stedsnr" v="735090" />
	</node>
	<node lat="60.677472218512534" lon="10.575222225397377" id="-43986">
		<tag k="name" v="Buerskogen" />
		<tag k="place" v="farm" />
		<tag k="ssr:stedsnr" v="735339" />
	</node>
	<node lat="60.67935833476277" lon="10.692649995283883" id="-43987">
		<tag k="name" v="Steffensrudtjernet" />
		<tag k="natural" v="water" />
		<tag k="ssr:stedsnr" v="735341" />
	</node>
	<node lat="60.71860436676303" lon="10.644222091751752" id="-43988">
		<tag k="alt_name" v="Nedre Karsrud" />
		<tag k="fixme" v="consider place=hamlet" />
		<tag k="name" v="Karsrud" />
		<tag k="place" v="farm" />
		<tag k="ssr:stedsnr" v="735377" />
	</node>
	<node lat="60.719411114991495" lon="10.57492778640803" id="-43989">
		<tag k="name" v="Nyberg" />
		<tag k="place" v="farm" />
		<tag k="ssr:stedsnr" v="735378" />
	</node>
	<node lat="60.7091888895716" lon="10.514394436060611" id="-43990">
		<tag k="name" v="Trollheim" />
		<tag k="place" v="isolated_dwelling" />
		<tag k="ssr:stedsnr" v="735396" />
	</node>
	<node lat="60.66610832914018" lon="10.657369451572057" id="-43991">
		<tag k="alt_name" v="Bergsjøen, store" />
		<tag k="name" v="Store Bergsjøen" />
		<tag k="natural" v="water" />
		<tag k="ssr:stedsnr" v="755817" />
	</node>
	<node lat="60.65438055552859" lon="10.509380552332972" id="-43992">
		<tag k="name" v="Furuset" />
		<tag k="place" v="farm" />
		<tag k="ssr:stedsnr" v="905229" />
	</node>
	<node lat="60.6662777745183" lon="10.60351667343765" id="-43994">
		<tag k="name" v="Ødegård" />
		<tag k="place" v="farm" />
		<tag k="ssr:stedsnr" v="905789" />
	</node>
	<node lat="60.70188332993349" lon="10.519547225785823" id="-43995">
		<tag k="name" v="Rognlihaugen" />
		<tag k="natural" v="hill" />
		<tag k="place" v="locality" />
		<tag k="ssr:stedsnr" v="768295" />
	</node>
	<node lat="60.51719166355851" lon="10.637897218901363" id="-43996">
		<tag k="bridge" v="yes" />
		<tag k="layer" v="1" />
		<tag k="name" v="Evjua" />
		<tag k="ssr:stedsnr" v="774113" />
	</node>
	<node lat="60.70516389005555" lon="10.678966658727877" id="-43997">
		<tag k="name" v="Lille Vestre Tåsås" />
		<tag k="place" v="farm" />
		<tag k="ssr:stedsnr" v="784121" />
	</node>
	<node lat="60.5859388912516" lon="10.646541667236463" id="-43998">
		<tag k="name" v="Bjørnerud" />
		<tag k="place" v="farm" />
		<tag k="ssr:stedsnr" v="784238" />
	</node>
	<node lat="60.65761388743929" lon="10.65654722550029" id="-43999">
		<tag k="name" v="Heksumengen" />
		<tag k="place" v="farm" />
		<tag k="ssr:stedsnr" v="784802" />
	</node>
	<node lat="60.67326451262905" lon="10.558639259050343" id="-44000">
		<tag k="alt_name" v="Festadseter" />
		<tag k="fixme" v="consider place=hamlet" />
		<tag k="name" v="Festadsætra" />
		<tag k="place" v="farm" />
		<tag k="ssr:stedsnr" v="795320" />
	</node>
	<node lat="60.668063317005725" lon="10.554631965459942" id="-44001">
		<tag k="alt_name" v="Engeseter" />
		<tag k="fixme" v="consider place=hamlet" />
		<tag k="name" v="Engesætra" />
		<tag k="place" v="farm" />
		<tag k="ssr:stedsnr" v="795321" />
	</node>
	<node lat="60.70909722402974" lon="10.579938886633071" id="-44002">
		<tag k="name" v="Rosetenga" />
		<tag k="place" v="farm" />
		<tag k="ssr:stedsnr" v="795457" />
	</node>
	<node lat="60.51814721892013" lon="10.67563055616678" id="-44003">
		<tag k="name" v="Hågåbekken" />
		<tag k="ssr:stedsnr" v="796062" />
		<tag k="waterway" v="stream" />
	</node>
	<node lat="60.55765831664571" lon="10.622252600873344" id="-44004">
		<tag k="fixme" v="consider place=hamlet" />
		<tag k="name" v="Grefsrud" />
		<tag k="place" v="farm" />
		<tag k="ssr:stedsnr" v="796106" />
	</node>
	<node lat="60.54340278189524" lon="10.631563880911447" id="-44005">
		<tag k="name" v="Strande" />
		<tag k="place" v="farm" />
		<tag k="ssr:stedsnr" v="796113" />
	</node>
	<node lat="60.73542499609721" lon="10.708408340245109" id="-44006">
		<tag k="alt_name" v="Øvergård" />
		<tag k="name" v="Øvergard" />
		<tag k="place" v="farm" />
		<tag k="ssr:stedsnr" v="796415" />
	</node>
	<node lat="60.68792777511545" lon="10.638677771626064" id="-44007">
		<tag k="name" v="Nereng" />
		<tag k="place" v="farm" />
		<tag k="ssr:stedsnr" v="796312" />
	</node>
	<node lat="60.687716667992454" lon="10.706975008257547" id="-44008">
		<tag k="name" v="Hørsrudputten" />
		<tag k="natural" v="water" />
		<tag k="ssr:stedsnr" v="796322" />
	</node>
	<node lat="60.69541944719018" lon="10.650763894193997" id="-44009">
		<tag k="name" v="Elstad" />
		<tag k="place" v="farm" />
		<tag k="ssr:stedsnr" v="796358" />
	</node>
	<node lat="60.69675277798901" lon="10.627016661447605" id="-44010">
		<tag k="name" v="Kjelsrud" />
		<tag k="place" v="farm" />
		<tag k="ssr:stedsnr" v="796359" />
	</node>
	<node lat="60.6945042539921" lon="10.69085348634949" id="-44011">
		<tag k="alt_name" v="Finstadputten" />
		<tag k="name" v="Finnstadputten" />
		<tag k="natural" v="water" />
		<tag k="ssr:stedsnr" v="796367" />
	</node>
	<node lat="60.6952289548553" lon="10.727170564236825" id="-44012">
		<tag k="fixme" v="consider place=hamlet" />
		<tag k="name" v="Tjernholm" />
		<tag k="place" v="farm" />
		<tag k="ssr:stedsnr" v="796953" />
	</node>
	<node lat="60.680530555351055" lon="10.726627778363287" id="-44013">
		<tag k="name" v="Augustenborg" />
		<tag k="place" v="farm" />
		<tag k="ssr:stedsnr" v="796973" />
	</node>
	<node lat="60.750880557408586" lon="10.671244438023379" id="-44014">
		<tag k="name" v="Nyland" />
		<tag k="place" v="farm" />
		<tag k="ssr:stedsnr" v="798116" />
	</node>
	<node lat="60.53701944109797" lon="10.630641662297165" id="-44015">
		<tag k="name" v="Smerud" />
		<tag k="place" v="farm" />
		<tag k="ssr:stedsnr" v="917087" />
	</node>
	<node lat="60.55255000170429" lon="10.590947226465538" id="-44016">
		<tag k="name" v="Sangnesbekken" />
		<tag k="ssr:stedsnr" v="917094" />
		<tag k="waterway" v="stream" />
	</node>
	<node lat="60.614447133540025" lon="10.616462768298936" id="-44017">
		<tag k="alt_name" v="Thune" />
		<tag k="fixme" v="consider place=hamlet" />
		<tag k="name" v="Tune" />
		<tag k="place" v="farm" />
		<tag k="ssr:stedsnr" v="917179" />
	</node>
	<node lat="60.63661111339515" lon="10.54934166325252" id="-44018">
		<tag k="name" v="Jønnmyra" />
		<tag k="natural" v="wetland" />
		<tag k="ssr:stedsnr" v="917185" />
	</node>
	<node lat="60.69102274176605" lon="10.680475001027366" id="-44019">
		<tag k="alt_name" v="Finstad" />
		<tag k="fixme" v="consider place=hamlet" />
		<tag k="name" v="Finnstad" />
		<tag k="place" v="farm" />
		<tag k="ssr:stedsnr" v="917283" />
	</node>
	<node lat="60.69272743275628" lon="10.707377508167156" id="-44020">
		<tag k="fixme" v="consider place=hamlet" />
		<tag k="name" v="Hørsrud" />
		<tag k="place" v="farm" />
		<tag k="ssr:stedsnr" v="917287" />
	</node>
	<node lat="60.711794448383856" lon="10.606188881608391" id="-44021">
		<tag k="name" v="Prøven" />
		<tag k="place" v="farm" />
		<tag k="ssr:stedsnr" v="917364" />
	</node>
	<node lat="60.70618055969895" lon="10.582086105059684" id="-44022">
		<tag k="name" v="Bakke" />
		<tag k="place" v="farm" />
		<tag k="ssr:stedsnr" v="917371" />
	</node>
	<node lat="60.72383333440673" lon="10.655833324420197" id="-44023">
		<tag k="name" v="Løvstad" />
		<tag k="place" v="farm" />
		<tag k="ssr:stedsnr" v="917395" />
	</node>
	<node lat="60.69595637351812" lon="10.571148247376124" id="-44024">
		<tag k="alt_name" v="Austlia;Østlien" />
		<tag k="fixme" v="consider place=hamlet" />
		<tag k="name" v="Østlia" />
		<tag k="place" v="farm" />
		<tag k="ssr:stedsnr" v="917325" />
	</node>
	<node lat="60.70288610990414" lon="10.527838881122008" id="-44025">
		<tag k="name" v="Rørmyra" />
		<tag k="natural" v="wetland" />
		<tag k="ssr:stedsnr" v="917327" />
	</node>
	<node lat="60.698961405007104" lon="10.68486806932834" id="-44026">
		<tag k="fixme" v="consider place=hamlet" />
		<tag k="name" v="Knatterud" />
		<tag k="place" v="farm" />
		<tag k="ssr:stedsnr" v="917339" />
	</node>
	<node lat="60.6894939262894" lon="10.564192732531597" id="-44027">
		<tag k="alt_name" v="Vestlien" />
		<tag k="fixme" v="consider place=hamlet" />
		<tag k="name" v="Vestlia" />
		<tag k="place" v="farm" />
		<tag k="ssr:stedsnr" v="917352" />
	</node>
	<node lat="60.7043107037064" lon="10.7536364890422" id="-44028">
		<tag k="alt_name" v="Stenberg" />
		<tag k="fixme" v="consider place=hamlet" />
		<tag k="name" v="Steinberg" />
		<tag k="place" v="farm" />
		<tag k="ssr:stedsnr" v="917937" />
	</node>
	<node lat="60.6933146637159" lon="10.721688036216564" id="-44029">
		<tag k="fixme" v="consider place=hamlet" />
		<tag k="name" v="Ersrud" />
		<tag k="place" v="farm" />
		<tag k="ssr:stedsnr" v="917942" />
	</node>
	<node lat="60.68233265282463" lon="10.74856116754698" id="-44030">
		<tag k="alt_name" v="Listerud" />
		<tag k="fixme" v="consider place=hamlet" />
		<tag k="name" v="Lesterud" />
		<tag k="place" v="farm" />
		<tag k="ssr:stedsnr" v="917978" />
	</node>
	<node lat="60.515602780811804" lon="10.640913893175496" id="-44031">
		<tag k="name" v="Sløbakken" />
		<tag k="place" v="isolated_dwelling" />
		<tag k="ssr:stedsnr" v="822564" />
	</node>
	<node lat="60.61066111003857" lon="10.641572230017557" id="-44032">
		<tag k="name" v="Vestre Blilie" />
		<tag k="place" v="farm" />
		<tag k="ssr:stedsnr" v="830073" />
	</node>
	<node lat="60.69199444279163" lon="10.500599992382893" id="-44033">
		<tag k="name" v="Korperudbekken" />
		<tag k="ssr:stedsnr" v="830472" />
		<tag k="waterway" v="stream" />
	</node>
	<node lat="60.67633888889129" lon="10.489711108994186" id="-44034">
		<tag k="name" v="Skjerra" />
		<tag k="ssr:stedsnr" v="830479" />
		<tag k="waterway" v="river" />
	</node>
	<node lat="60.6202666625964" lon="10.587544451562595" id="-44035">
		<tag k="name" v="Kvernhaugen" />
		<tag k="place" v="quarter" />
		<tag k="ssr:stedsnr" v="830577" />
	</node>
	<node lat="60.56790413765656" lon="10.562214362783674" id="-44036">
		<tag k="fixme" v="multiple name tags, choose one and add the other to alt_name" />
		<tag k="name" v="Sørgard;Søndre Sønsteby" />
		<tag k="place" v="farm" />
		<tag k="ssr:stedsnr" v="856132" />
	</node>
	<node lat="60.56324166804616" lon="10.621161111786149" id="-44037">
		<tag k="fixme" v="consider place=hamlet" />
		<tag k="name" v="Einastranda" />
		<tag k="place" v="village" />
		<tag k="ssr:stedsnr" v="856145" />
	</node>
	<node lat="60.64951110879135" lon="10.676874998719352" id="-44038">
		<tag k="name" v="Kjelsberg" />
		<tag k="place" v="farm" />
		<tag k="ssr:stedsnr" v="856281" />
	</node>
	<node lat="60.70646886863899" lon="10.69798323493065" id="-44039">
		<tag k="fixme" v="consider place=hamlet" />
		<tag k="name" v="Helset" />
		<tag k="place" v="farm" />
		<tag k="ssr:stedsnr" v="856433" />
	</node>
	<node lat="60.706004879106146" lon="10.642436221512465" id="-44040">
		<tag k="fixme" v="consider place=hamlet" />
		<tag k="name" v="Drager" />
		<tag k="place" v="farm" />
		<tag k="ssr:stedsnr" v="856435" />
	</node>
	<node lat="60.70916944869366" lon="10.644816675700053" id="-44041">
		<tag k="alt_name" v="Dragerengen" />
		<tag k="name" v="Dragerenga" />
		<tag k="place" v="farm" />
		<tag k="ssr:stedsnr" v="856437" />
	</node>
	<node lat="60.745128666563446" lon="10.605381420551975" id="-44042">
		<tag k="alt_name" v="Napstad, øvre" />
		<tag k="name" v="Øvre Napstad" />
		<tag k="place" v="locality" />
		<tag k="ssr:stedsnr" v="856502" />
	</node>
	<node lat="60.73949444198333" lon="10.627216659551872" id="-44043">
		<tag k="alt_name" v="Åkersveen" />
		<tag k="name" v="Åkersvea" />
		<tag k="place" v="farm" />
		<tag k="ssr:stedsnr" v="856505" />
	</node>
	<node lat="60.68092176667723" lon="10.566682975023648" id="-44044">
		<tag k="fixme" v="consider place=hamlet" />
		<tag k="name" v="Olsby" />
		<tag k="place" v="farm" />
		<tag k="ssr:stedsnr" v="857352" />
	</node>
	<node lat="60.684643620420516" lon="10.589020942449896" id="-44045">
		<tag k="alt_name" v="Målstad" />
		<tag k="fixme" v="consider place=hamlet" />
		<tag k="name" v="Moldstad" />
		<tag k="place" v="farm" />
		<tag k="ssr:stedsnr" v="857355" />
	</node>
	<node lat="60.60411944402282" lon="10.600811102752505" id="-44046">
		<tag k="name" v="Brurholmen" />
		<tag k="place" v="islet" />
		<tag k="ssr:stedsnr" v="857204" />
	</node>
	<node lat="60.718644445469046" lon="10.588200004193807" id="-44047">
		<tag k="alt_name" v="Nordsveen" />
		<tag k="name" v="Nordsvea" />
		<tag k="place" v="farm" />
		<tag k="ssr:stedsnr" v="857417" />
	</node>
	<node lat="60.72256388598914" lon="10.548724998510428" id="-44048">
		<tag k="name" v="Putten" />
		<tag k="place" v="farm" />
		<tag k="ssr:stedsnr" v="857429" />
	</node>
	<node lat="60.725975000153205" lon="10.546952771829691" id="-44049">
		<tag k="name" v="Veltmannåa" />
		<tag k="ssr:stedsnr" v="857432" />
		<tag k="waterway" v="stream" />
	</node>
	<node lat="60.710536109820744" lon="10.554536115157203" id="-44050">
		<tag k="name" v="Bradalsmyra" />
		<tag k="natural" v="wetland" />
		<tag k="ssr:stedsnr" v="857438" />
	</node>
	<node lat="60.732747223485326" lon="10.622474998517815" id="-44051">
		<tag k="name" v="Vestrumenga" />
		<tag k="place" v="quarter" />
		<tag k="ssr:stedsnr" v="934722" />
	</node>
	<node lat="60.67820555142787" lon="10.71650555630627" id="-44052">
		<tag k="name" v="Holtstein" />
		<tag k="place" v="farm" />
		<tag k="ssr:stedsnr" v="934724" />
	</node>
	<node lat="60.59561111457836" lon="10.64508056185303" id="-44053">
		<tag k="name" v="Nøkleby" />
		<tag k="place" v="farm" />
		<tag k="ssr:stedsnr" v="890154" />
	</node>
	<node lat="60.713163888176325" lon="10.531333330885523" id="-44054">
		<tag k="name" v="Kleggedalen" />
		<tag k="natural" v="valley" />
		<tag k="place" v="locality" />
		<tag k="ssr:stedsnr" v="890333" />
	</node>
	<node lat="60.70468888941426" lon="10.546777776291552" id="-44055">
		<tag k="name" v="Sjurshaugen" />
		<tag k="natural" v="hill" />
		<tag k="place" v="locality" />
		<tag k="ssr:stedsnr" v="890451" />
	</node>
	<node lat="60.74708611064228" lon="10.627711104557319" id="-44056">
		<tag k="name" v="Vestre Grøndalen" />
		<tag k="place" v="farm" />
		<tag k="ssr:stedsnr" v="891004" />
	</node>
	<node lat="60.69860277759877" lon="10.70986111035878" id="-44057">
		<tag k="name" v="Lyngås" />
		<tag k="place" v="farm" />
		<tag k="ssr:stedsnr" v="905010" />
	</node>
	<node lat="60.69826389323758" lon="10.700591667177124" id="-44058">
		<tag k="name" v="Gaukom" />
		<tag k="place" v="farm" />
		<tag k="ssr:stedsnr" v="905070" />
	</node>
	<node lat="60.65728610694979" lon="10.654830549033873" id="-44059">
		<tag k="name" v="Løvstad" />
		<tag k="place" v="farm" />
		<tag k="ssr:stedsnr" v="905720" />
	</node>
	<node lat="60.68923611342831" lon="10.717677773528685" id="-44060">
		<tag k="name" v="Ersruddalen" />
		<tag k="natural" v="valley" />
		<tag k="place" v="locality" />
		<tag k="ssr:stedsnr" v="905656" />
	</node>
	<node lat="60.724069444782366" lon="10.648400005393261" id="-44061">
		<tag k="name" v="Karsrudødegård" />
		<tag k="place" v="farm" />
		<tag k="ssr:stedsnr" v="906850" />
	</node>
	<node lat="60.51860000262025" lon="10.699827782737447" id="-44062">
		<tag k="name" v="Rundmyra" />
		<tag k="natural" v="wetland" />
		<tag k="ssr:stedsnr" v="917060" />
	</node>
	<node lat="60.65298610979974" lon="10.526005564334765" id="-44063">
		<tag k="alt_name" v="Sørlien" />
		<tag k="name" v="Sørlia" />
		<tag k="place" v="farm" />
		<tag k="ssr:stedsnr" v="917208" />
	</node>
	<node lat="60.67450137861299" lon="10.678341694609296" id="-44064">
		<tag k="fixme" v="consider place=hamlet" />
		<tag k="name" v="Gjestrum" />
		<tag k="place" v="farm" />
		<tag k="ssr:stedsnr" v="917261" />
	</node>
	<node lat="60.55863387085706" lon="10.657338159754664" id="-44065">
		<tag k="fixme" v="consider place=hamlet" />
		<tag k="name" v="Mjørlund" />
		<tag k="place" v="farm" />
		<tag k="ssr:stedsnr" v="917109" />
	</node>
	<node lat="60.738602773491756" lon="10.618697229424287" id="-44066">
		<tag k="alt_name" v="Finsveen" />
		<tag k="name" v="Finnsvea" />
		<tag k="place" v="farm" />
		<tag k="ssr:stedsnr" v="917414" />
	</node>
	<node lat="60.71775277349218" lon="10.695202776780244" id="-44067">
		<tag k="alt_name" v="Malterudmyra" />
		<tag k="name" v="Malterudmyrene" />
		<tag k="natural" v="wetland" />
		<tag k="ssr:stedsnr" v="917357" />
	</node>
	<node lat="60.72177499798283" lon="10.742952780129453" id="-44068">
		<tag k="alt_name" v="Svartås" />
		<tag k="name" v="Nedre Svartås" />
		<tag k="place" v="farm" />
		<tag k="ssr:stedsnr" v="917914" />
	</node>
	<node lat="60.54922426012655" lon="10.660045381616168" id="-44069">
		<tag k="name" v="Hegernes" />
		<tag k="place" v="hamlet" />
		<tag k="ssr:stedsnr" v="933338" />
	</node>
	<node lat="60.572877773577474" lon="10.618924992344814" id="-44070">
		<tag k="name" v="Bekkeli" />
		<tag k="place" v="farm" />
		<tag k="ssr:stedsnr" v="934738" />
	</node>
	<node lat="60.60182500400124" lon="10.681383333279038" id="-44071">
		<tag k="name" v="Solli" />
		<tag k="place" v="farm" />
		<tag k="ssr:stedsnr" v="936596" />
	</node>
	<node lat="60.65666944468086" lon="10.587708341063674" id="-44072">
		<tag k="name" v="Evjumyra" />
		<tag k="natural" v="wetland" />
		<tag k="ssr:stedsnr" v="951381" />
	</node>
	<node lat="60.65984722350615" lon="10.602972226876602" id="-44073">
		<tag k="bridge" v="yes" />
		<tag k="layer" v="1" />
		<tag k="name" v="Reinsvollsveen" />
		<tag k="ssr:stedsnr" v="957105" />
	</node>
	<node lat="60.69875277941979" lon="10.68816110216612" id="-44074">
		<tag k="name" v="Knatterud" />
		<tag k="place" v="farm" />
		<tag k="ssr:stedsnr" v="966085" />
	</node>
	<node lat="60.65765000272769" lon="10.653605548922517" id="-44075">
		<tag k="name" v="Nordre Løvstad" />
		<tag k="place" v="farm" />
		<tag k="ssr:stedsnr" v="966724" />
	</node>
	<node lat="60.735253748089676" lon="10.571573102929971" id="-44076">
		<tag k="name" v="Vestre Villåsen" />
		<tag k="place" v="locality" />
		<tag k="ssr:stedsnr" v="988376" />
	</node>
	<node lat="60.74350550846173" lon="10.60588982686673" id="-44077">
		<tag k="fixme" v="consider place=hamlet" />
		<tag k="name" v="Napstad" />
		<tag k="place" v="farm" />
		<tag k="ssr:stedsnr" v="988378" />
	</node>
	<node lat="60.68170910055009" lon="10.640758285371712" id="-44078">
		<tag k="fixme" v="consider place=hamlet" />
		<tag k="name" v="Presteseter" />
		<tag k="place" v="farm" />
		<tag k="ssr:stedsnr" v="988911" />
	</node>
	<node lat="60.68986475415707" lon="10.658252701935668" id="-44079">
		<tag k="name" v="Kyset" />
		<tag k="place" v="hamlet" />
		<tag k="ssr:stedsnr" v="988912" />
	</node>
	<node lat="60.68372436151255" lon="10.597492156295814" id="-44080">
		<tag k="name" v="Brenna" />
		<tag k="place" v="locality" />
		<tag k="ssr:stedsnr" v="988918" />
	</node>
	<node lat="60.68303410995758" lon="10.577033150370179" id="-44081">
		<tag k="fixme" v="consider place=hamlet" />
		<tag k="name" v="Buer" />
		<tag k="place" v="farm" />
		<tag k="ssr:stedsnr" v="988919" />
	</node>
	<node lat="60.56863816411251" lon="10.564981711181481" id="-44083">
		<tag k="fixme" v="consider place=hamlet" />
		<tag k="name" v="Sønsteby" />
		<tag k="place" v="farm" />
		<tag k="ssr:stedsnr" v="988921" />
	</node>
	<node lat="60.57535833061011" lon="10.655474993695028" id="-44084">
		<tag k="alt_name" v="Tømten" />
		<tag k="name" v="Tomta" />
		<tag k="place" v="farm" />
		<tag k="ssr:stedsnr" v="7153" />
	</node>
	<node lat="60.57255000232437" lon="10.577211111000471" id="-44085">
		<tag k="name" v="Karlshus" />
		<tag k="place" v="isolated_dwelling" />
		<tag k="ssr:stedsnr" v="7157" />
	</node>
	<node lat="60.57664721949217" lon="10.565711112985115" id="-44086">
		<tag k="alt_name" v="Grinna" />
		<tag k="name" v="Sønstebygrinda" />
		<tag k="place" v="farm" />
		<tag k="ssr:stedsnr" v="7161" />
	</node>
	<node lat="60.51232500325547" lon="10.637827769679635" id="-44087">
		<tag k="alt_name" v="Evjubekken" />
		<tag k="name" v="Evjua" />
		<tag k="ssr:stedsnr" v="6084" />
		<tag k="waterway" v="stream" />
	</node>
	<node lat="60.71279444104255" lon="10.62976943554349" id="-44088">
		<tag k="alt_name" v="Nærby" />
		<tag k="name" v="Nerby" />
		<tag k="place" v="farm" />
		<tag k="ssr:stedsnr" v="6416" />
	</node>
	<node lat="60.707138891511306" lon="10.63551389721945" id="-44089">
		<tag k="name" v="Dragerbakken" />
		<tag k="place" v="farm" />
		<tag k="ssr:stedsnr" v="6434" />
	</node>
	<node lat="60.61619444877976" lon="10.613347213521763" id="-44090">
		<tag k="alt_name" v="Thunestuen" />
		<tag k="name" v="Tunestugua" />
		<tag k="place" v="farm" />
		<tag k="ssr:stedsnr" v="7228" />
	</node>
	<node lat="60.63647539272603" lon="10.683239412863127" id="-44091">
		<tag k="fixme" v="consider place=hamlet" />
		<tag k="name" v="Sandbakke" />
		<tag k="old_name" v="Sandbakken" />
		<tag k="place" v="farm" />
		<tag k="ssr:stedsnr" v="7231" />
	</node>
	<node lat="60.62863888655109" lon="10.598630548809847" id="-44092">
		<tag k="name" v="Eina" />
		<tag k="place" v="village" />
		<tag k="ssr:stedsnr" v="7244" />
	</node>
	<node lat="60.678894444667684" lon="10.515455554957995" id="-44093">
		<tag k="name" v="Hellingsmyra" />
		<tag k="natural" v="wetland" />
		<tag k="ssr:stedsnr" v="7330" />
	</node>
	<node lat="60.726850000663234" lon="10.646563897385503" id="-44094">
		<tag k="alt_name" v="Karsrud, øvre" />
		<tag k="name" v="Øvre Karsrud" />
		<tag k="place" v="farm" />
		<tag k="ssr:stedsnr" v="7430" />
	</node>
	<node lat="60.72226666726796" lon="10.634227785699624" id="-44095">
		<tag k="name" v="Karsrudskogen" />
		<tag k="place" v="farm" />
		<tag k="ssr:stedsnr" v="7431" />
	</node>
	<node lat="60.56847778182059" lon="10.567188895504108" id="-44096">
		<tag k="fixme" v="multiple name tags, choose one and add the other to alt_name" />
		<tag k="name" v="Østgard;Østre Sønsteby" />
		<tag k="place" v="farm" />
		<tag k="ssr:stedsnr" v="7148" />
	</node>
	<node lat="60.647344444334955" lon="10.657666664624008" id="-44097">
		<tag k="name" v="Lier" />
		<tag k="place" v="farm" />
		<tag k="ssr:stedsnr" v="7278" />
	</node>
	<node lat="60.64546110993892" lon="10.585177776527402" id="-44098">
		<tag k="name" v="Lortputten" />
		<tag k="natural" v="water" />
		<tag k="ssr:stedsnr" v="7281" />
	</node>
	<node lat="60.668911112187956" lon="10.500052772836248" id="-44099">
		<tag k="alt_name" v="Ringelien" />
		<tag k="name" v="Ringelia" />
		<tag k="place" v="farm" />
		<tag k="ssr:stedsnr" v="7285" />
	</node>
	<node lat="60.68775000122939" lon="10.735486105433713" id="-44100">
		<tag k="name" v="Valheim" />
		<tag k="place" v="farm" />
		<tag k="ssr:stedsnr" v="7965" />
	</node>
	<node lat="60.584394441375835" lon="10.595494437476281" id="-44101">
		<tag k="name" v="Hoelsveen" />
		<tag k="place" v="farm" />
		<tag k="ssr:stedsnr" v="39452" />
	</node>
	<node lat="60.554034416422155" lon="10.630240132220678" id="-44102">
		<tag k="fixme" v="consider place=hamlet" />
		<tag k="name" v="Dotset" />
		<tag k="place" v="farm" />
		<tag k="ssr:stedsnr" v="40103" />
	</node>
	<node lat="60.69509722118794" lon="10.534430554714458" id="-44103">
		<tag k="name" v="Driterbakken" />
		<tag k="natural" v="slope" />
		<tag k="place" v="locality" />
		<tag k="ssr:stedsnr" v="40329" />
	</node>
	<node lat="60.725113888981156" lon="10.60760555102562" id="-44105">
		<tag k="amenity" v="school" />
		<tag k="name" v="Raufoss skole" />
		<tag k="ssr:stedsnr" v="55796" />
	</node>
	<node lat="60.68934166604328" lon="10.645672215435624" id="-44106">
		<tag k="name" v="Grønvoll" />
		<tag k="place" v="farm" />
		<tag k="ssr:stedsnr" v="56233" />
	</node>
	<node lat="60.56379444428241" lon="10.62140833082565" id="-44107">
		<tag k="alt_name" v="Noraker" />
		<tag k="name" v="Nordåker" />
		<tag k="place" v="farm" />
		<tag k="ssr:stedsnr" v="67148" />
	</node>
	<node lat="60.56128985093763" lon="10.62820121786509" id="-44108">
		<tag k="alt_name" v="Amlihagen" />
		<tag k="fixme" v="consider place=hamlet" />
		<tag k="name" v="Amlihågån" />
		<tag k="place" v="farm" />
		<tag k="ssr:stedsnr" v="67149" />
	</node>
	<node lat="60.559983329296905" lon="10.607572225007013" id="-44109">
		<tag k="name" v="Bremenholm" />
		<tag k="place" v="farm" />
		<tag k="ssr:stedsnr" v="67150" />
	</node>
	<node lat="60.564016664893785" lon="10.547825003825514" id="-44110">
		<tag k="name" v="Demningsmyra" />
		<tag k="natural" v="wetland" />
		<tag k="ssr:stedsnr" v="67156" />
	</node>
	<node lat="60.56932873741807" lon="10.648977031856683" id="-44111">
		<tag k="fixme" v="multiple name tags, choose one and add the other to alt_name; consider place=hamlet" />
		<tag k="name" v="Jonsrudøgarden;Sundsødegård" />
		<tag k="place" v="farm" />
		<tag k="ssr:stedsnr" v="67164" />
	</node>
	<node lat="60.58329999604879" lon="10.616416660242576" id="-44112">
		<tag k="name" v="Hanshaugen" />
		<tag k="place" v="farm" />
		<tag k="ssr:stedsnr" v="67179" />
	</node>
	<node lat="60.60481388475671" lon="10.643011103662964" id="-44113">
		<tag k="name" v="Lervoll" />
		<tag k="place" v="farm" />
		<tag k="ssr:stedsnr" v="67224" />
	</node>
	<node lat="60.72517499830555" lon="10.578727781564137" id="-44114">
		<tag k="name" v="Nysetbakken" />
		<tag k="place" v="farm" />
		<tag k="ssr:stedsnr" v="68422" />
	</node>
	<node lat="60.66513888943624" lon="10.673222218951349" id="-44115">
		<tag k="name" v="Bøverbru" />
		<tag k="place" v="village" />
		<tag k="ssr:stedsnr" v="67328" />
	</node>
	<node lat="60.66634166286043" lon="10.657252768671334" id="-44116">
		<tag k="name" v="Bergsjøane" />
		<tag k="natural" v="water" />
		<tag k="ssr:stedsnr" v="67333" />
	</node>
	<node lat="60.73955114264787" lon="10.645302056093112" id="-44117">
		<tag k="fixme" v="consider place=hamlet" />
		<tag k="name" v="Grøthaug" />
		<tag k="place" v="farm" />
		<tag k="ssr:stedsnr" v="67491" />
	</node>
	<node lat="60.69955245770846" lon="10.64431452385274" id="-44118">
		<tag k="fixme" v="consider place=hamlet" />
		<tag k="name" v="Ånnerud" />
		<tag k="place" v="farm" />
		<tag k="ssr:stedsnr" v="67383" />
	</node>
	<node lat="60.53007121490939" lon="10.655174085771572" id="-44119">
		<tag k="fixme" v="consider place=hamlet" />
		<tag k="name" v="Teiterud" />
		<tag k="place" v="farm" />
		<tag k="ssr:stedsnr" v="68084" />
	</node>
	<node lat="60.5443250030783" lon="10.675749991445594" id="-44120">
		<tag k="alt_name" v="Norstad" />
		<tag k="name" v="Nordstad" />
		<tag k="place" v="farm" />
		<tag k="ssr:stedsnr" v="68095" />
	</node>
	<node lat="60.601486109314145" lon="10.601411113939362" id="-44121">
		<tag k="name" v="Lauvodden" />
		<tag k="natural" v="cape" />
		<tag k="ssr:stedsnr" v="68192" />
	</node>
	<node lat="60.68204963816605" lon="10.50294754389382" id="-44122">
		<tag k="alt_name" v="Skjerrdalen, nordre;Nordre Skjærdalen" />
		<tag k="fixme" v="consider place=hamlet" />
		<tag k="name" v="Nordre Skjerrdalen" />
		<tag k="place" v="farm" />
		<tag k="ssr:stedsnr" v="68339" />
	</node>
	<node lat="60.736330559520994" lon="10.640758341858565" id="-44123">
		<tag k="alt_name" v="Loe" />
		<tag k="name" v="Lo" />
		<tag k="place" v="farm" />
		<tag k="ssr:stedsnr" v="68480" />
	</node>
	<node lat="60.70671110969316" lon="10.726574992871212" id="-44124">
		<tag k="name" v="Thorsrudødegård" />
		<tag k="place" v="farm" />
		<tag k="ssr:stedsnr" v="86671" />
	</node>
	<node lat="60.540336109371836" lon="10.655827770824965" id="-44125">
		<tag k="amenity" v="nursing_home" />
		<tag k="name" v="Blåkorshjemmet" />
		<tag k="ssr:stedsnr" v="93499" />
	</node>
	<node lat="60.57522777928602" lon="10.553416667635418" id="-44126">
		<tag k="name" v="Teljemyra" />
		<tag k="natural" v="wetland" />
		<tag k="ssr:stedsnr" v="97591" />
	</node>
	<node lat="60.74191944347352" lon="10.630311111121072" id="-44127">
		<tag k="name" v="Nereng" />
		<tag k="place" v="farm" />
		<tag k="ssr:stedsnr" v="101484" />
	</node>
	<node lat="60.743950001169246" lon="10.630175000867908" id="-44128">
		<tag k="name" v="Helgeby" />
		<tag k="place" v="farm" />
		<tag k="ssr:stedsnr" v="101489" />
	</node>
	<node lat="60.62228888618959" lon="10.600052784679358" id="-44129">
		<tag k="name" v="Sundsvik" />
		<tag k="place" v="quarter" />
		<tag k="ssr:stedsnr" v="102633" />
	</node>
	<node lat="60.653930551041825" lon="10.59831111949899" id="-44130">
		<tag k="name" v="Vestbakkdammen" />
		<tag k="natural" v="water" />
		<tag k="ssr:stedsnr" v="102444" />
		<tag k="water" v="pond" />
	</node>
	<node lat="60.5276333324856" lon="10.631400001153061" id="-44131">
		<tag k="bridge" v="yes" />
		<tag k="layer" v="1" />
		<tag k="name" v="Sandbakken" />
		<tag k="ssr:stedsnr" v="107078" />
	</node>
	<node lat="60.591533336380884" lon="10.573866658190843" id="-44132">
		<tag k="bridge" v="yes" />
		<tag k="layer" v="1" />
		<tag k="name" v="Skreppa" />
		<tag k="ssr:stedsnr" v="107080" />
	</node>
	<node lat="60.619372218379546" lon="10.604558325342298" id="-44133">
		<tag k="bridge" v="yes" />
		<tag k="layer" v="1" />
		<tag k="name" v="Thune" />
		<tag k="ssr:stedsnr" v="107062" />
	</node>
	<node lat="60.663288885650836" lon="10.669486105555174" id="-44134">
		<tag k="amenity" v="community_centre" />
		<tag k="name" v="Håkonshallen" />
		<tag k="ssr:stedsnr" v="116752" />
	</node>
	<node lat="60.63632222024946" lon="10.630169448571225" id="-44135">
		<tag k="name" v="Nordre Romshus" />
		<tag k="place" v="farm" />
		<tag k="ssr:stedsnr" v="116948" />
	</node>
	<node lat="60.641638885359015" lon="10.644024996379919" id="-44136">
		<tag k="name" v="Solheim" />
		<tag k="place" v="farm" />
		<tag k="ssr:stedsnr" v="116966" />
	</node>
	<node lat="60.52353055903254" lon="10.626352780702394" id="-44137">
		<tag k="name" v="Dyrudberget" />
		<tag k="old_name" v="Dyreberget" />
		<tag k="place" v="farm" />
		<tag k="ssr:stedsnr" v="128051" />
	</node>
	<node lat="60.54462500271215" lon="10.657077785371332" id="-44138">
		<tag k="alt_name" v="Klæmma" />
		<tag k="name" v="Klemma" />
		<tag k="place" v="farm" />
		<tag k="ssr:stedsnr" v="128069" />
	</node>
	<node lat="60.57019166490387" lon="10.56943332443757" id="-44139">
		<tag k="name" v="Ringstad" />
		<tag k="place" v="farm" />
		<tag k="ssr:stedsnr" v="128113" />
	</node>
	<node lat="60.57001388628516" lon="10.564497215293615" id="-44140">
		<tag k="name" v="Sønstebygrenda" />
		<tag k="place" v="hamlet" />
		<tag k="ssr:stedsnr" v="128116" />
	</node>
	<node lat="60.6582638920666" lon="10.527974999710276" id="-44141">
		<tag k="alt_name" v="Smetop" />
		<tag k="name" v="Smettopp" />
		<tag k="place" v="farm" />
		<tag k="ssr:stedsnr" v="128223" />
	</node>
	<node lat="60.657058331596225" lon="10.543744446397879" id="-44142">
		<tag k="name" v="Stormyra" />
		<tag k="natural" v="wetland" />
		<tag k="ssr:stedsnr" v="128225" />
	</node>
	<node lat="60.69469779730421" lon="10.714289870573701" id="-44143">
		<tag k="amenity" v="community_centre" />
		<tag k="name" v="Granvang" />
		<tag k="ssr:stedsnr" v="128332" />
	</node>
	<node lat="60.605330556594474" lon="10.558402778760156" id="-44144">
		<tag k="name" v="Snurumyra" />
		<tag k="natural" v="wetland" />
		<tag k="ssr:stedsnr" v="128171" />
	</node>
	<node lat="60.66513611430669" lon="10.701149998467992" id="-44145">
		<tag k="name" v="Kirkevoll" />
		<tag k="place" v="farm" />
		<tag k="ssr:stedsnr" v="128279" />
	</node>
	<node lat="60.7114732813532" lon="10.676747334065864" id="-44146">
		<tag k="fixme" v="consider place=hamlet" />
		<tag k="name" v="Malterud" />
		<tag k="place" v="farm" />
		<tag k="ssr:stedsnr" v="128352" />
	</node>
	<node lat="60.73629999660424" lon="10.636702783773726" id="-44147">
		<tag k="name" v="Øverby" />
		<tag k="place" v="hamlet" />
		<tag k="ssr:stedsnr" v="128439" />
	</node>
	<node lat="60.73958611541477" lon="10.685388887903757" id="-44148">
		<tag k="building" v="industrial" />
		<tag k="name" v="Landheim" />
		<tag k="ssr:stedsnr" v="128444" />
	</node>
	<node lat="60.74415833171958" lon="10.698763886683986" id="-44149">
		<tag k="name" v="Røste" />
		<tag k="place" v="isolated_dwelling" />
		<tag k="ssr:stedsnr" v="128446" />
	</node>
	<node lat="60.69129706062037" lon="10.727813740113922" id="-44150">
		<tag k="name" v="Kauserudtjernet" />
		<tag k="natural" v="water" />
		<tag k="ssr:stedsnr" v="128958" />
	</node>
	<node lat="60.74151388957354" lon="10.644966668906193" id="-44151">
		<tag k="name" v="Nordre Grøthaug" />
		<tag k="place" v="farm" />
		<tag k="ssr:stedsnr" v="162013" />
	</node>
	<node lat="60.71786388941211" lon="10.58740832807196" id="-44152">
		<tag k="leisure" v="pitch" />
		<tag k="name" v="Lønnbergbakken" />
		<tag k="ssr:stedsnr" v="162173" />
	</node>
	<node lat="60.71455278194817" lon="10.529216670026727" id="-44153">
		<tag k="historic" v="shieling" />
		<tag k="name" v="Nordsetervollen" />
		<tag k="place" v="locality" />
		<tag k="ssr:stedsnr" v="162339" />
	</node>
	<node lat="60.74214999615391" lon="10.619408341763874" id="-44154">
		<tag k="name" v="Breiskallengen" />
		<tag k="place" v="farm" />
		<tag k="ssr:stedsnr" v="162420" />
	</node>
	<node lat="60.62108333395411" lon="10.562347218021857" id="-44155">
		<tag k="name" v="Langvikodden" />
		<tag k="natural" v="cape" />
		<tag k="ssr:stedsnr" v="162639" />
	</node>
	<node lat="60.72059999823438" lon="10.550255552606847" id="-44156">
		<tag k="name" v="Bjørklund" />
		<tag k="place" v="isolated_dwelling" />
		<tag k="ssr:stedsnr" v="162936" />
	</node>
	<node lat="60.67163888848771" lon="10.526813891074312" id="-44157">
		<tag k="name" v="Snuruberget" />
		<tag k="natural" v="hill" />
		<tag k="place" v="locality" />
		<tag k="ssr:stedsnr" v="162776" />
	</node>
	<node lat="60.67106389275653" lon="10.538447223684395" id="-44158">
		<tag k="name" v="Granumsmyra" />
		<tag k="natural" v="wetland" />
		<tag k="ssr:stedsnr" v="162783" />
	</node>
	<node lat="60.6768749977364" lon="10.608144442980905" id="-44159">
		<tag k="name" v="Dammen camping" />
		<tag k="ssr:stedsnr" v="177243" />
		<tag k="tourism" v="camp_site" />
	</node>
	<node lat="60.6620138875481" lon="10.656572225166988" id="-44160">
		<tag k="name" v="Tjernsrud" />
		<tag k="place" v="farm" />
		<tag k="ssr:stedsnr" v="177806" />
	</node>
	<node lat="60.71656944732421" lon="10.606372223573276" id="-44161">
		<tag k="amenity" v="school" />
		<tag k="name" v="Raufoss ungdomsskole" />
		<tag k="ssr:stedsnr" v="177881" />
	</node>
	<node lat="60.70915555604294" lon="10.66049999144835" id="-44162">
		<tag k="alt_name" v="Holm" />
		<tag k="name" v="Gårdersveen" />
		<tag k="place" v="farm" />
		<tag k="ssr:stedsnr" v="188438" />
	</node>
	<node lat="60.70365833163416" lon="10.662233332656438" id="-44163">
		<tag k="alt_name" v="Gårder" />
		<tag k="name" v="Garder" />
		<tag k="place" v="farm" />
		<tag k="ssr:stedsnr" v="188447" />
	</node>
	<node lat="60.712766662901586" lon="10.623755553912249" id="-44164">
		<tag k="name" v="Alvstad" />
		<tag k="place" v="farm" />
		<tag k="ssr:stedsnr" v="188449" />
	</node>
	<node lat="60.60354444130727" lon="10.67153056161728" id="-44165">
		<tag k="name" v="Sandberg" />
		<tag k="place" v="farm" />
		<tag k="ssr:stedsnr" v="189163" />
	</node>
	<node lat="60.68504011559775" lon="10.550913131873875" id="-44166">
		<tag k="alt_name" v="Bratlien" />
		<tag k="fixme" v="consider place=hamlet" />
		<tag k="name" v="Brattlia" />
		<tag k="place" v="farm" />
		<tag k="ssr:stedsnr" v="189306" />
	</node>
	<node lat="60.682263884805195" lon="10.590811118441895" id="-44167">
		<tag k="name" v="Enga" />
		<tag k="place" v="farm" />
		<tag k="ssr:stedsnr" v="189308" />
	</node>
	<node lat="60.67977222504131" lon="10.621747228469259" id="-44168">
		<tag k="name" v="Reinsvoll" />
		<tag k="place" v="village" />
		<tag k="ssr:stedsnr" v="189311" />
	</node>
	<node lat="60.74668142206823" lon="10.656658640643911" id="-44169">
		<tag k="alt_name" v="Drengsrud" />
		<tag k="name" v="Østre Drengsrud" />
		<tag k="place" v="farm" />
		<tag k="ssr:stedsnr" v="189436" />
	</node>
	<node lat="60.74336389208156" lon="10.687641674296987" id="-44170">
		<tag k="alt_name" v="Markestad, s;Markestad" />
		<tag k="name" v="Søndre Markestad" />
		<tag k="place" v="farm" />
		<tag k="ssr:stedsnr" v="189441" />
	</node>
	<node lat="60.73815617833067" lon="10.715622308087113" id="-44171">
		<tag k="fixme" v="consider place=hamlet" />
		<tag k="name" v="Li" />
		<tag k="place" v="farm" />
		<tag k="ssr:stedsnr" v="189442" />
	</node>
	<node lat="60.641211111585356" lon="10.660016665168449" id="-44172">
		<tag k="name" v="Linnerud" />
		<tag k="place" v="farm" />
		<tag k="ssr:stedsnr" v="189220" />
	</node>
	<node lat="60.64675398505887" lon="10.68248423271671" id="-44173">
		<tag k="fixme" v="consider place=hamlet" />
		<tag k="name" v="Glæserud" />
		<tag k="place" v="farm" />
		<tag k="ssr:stedsnr" v="189221" />
	</node>
	<node lat="60.652272222423306" lon="10.6534194387859" id="-44174">
		<tag k="alt_name" v="Hemstadmoen" />
		<tag k="name" v="Moen" />
		<tag k="place" v="farm" />
		<tag k="ssr:stedsnr" v="189233" />
	</node>
	<node lat="60.699385443835354" lon="10.62893297955206" id="-44175">
		<tag k="fixme" v="consider place=hamlet" />
		<tag k="name" v="Morterud" />
		<tag k="place" v="farm" />
		<tag k="ssr:stedsnr" v="189331" />
	</node>
	<node lat="60.685788238860916" lon="10.584552323910723" id="-44176">
		<tag k="fixme" v="consider place=hamlet" />
		<tag k="name" v="Ninive" />
		<tag k="place" v="farm" />
		<tag k="ssr:stedsnr" v="189343" />
	</node>
	<node lat="60.714283333897995" lon="10.576655553488564" id="-44177">
		<tag k="name" v="Roset" />
		<tag k="place" v="farm" />
		<tag k="ssr:stedsnr" v="189362" />
	</node>
	<node lat="60.7342722258897" lon="10.700130551796974" id="-44178">
		<tag k="alt_name" v="Frognli" />
		<tag k="name" v="Frognerlia" />
		<tag k="place" v="farm" />
		<tag k="ssr:stedsnr" v="189400" />
	</node>
	<node lat="60.71428610692874" lon="10.737338880022241" id="-44179">
		<tag k="name" v="Trosterud" />
		<tag k="place" v="farm" />
		<tag k="ssr:stedsnr" v="189928" />
	</node>
	<node lat="60.52588611368246" lon="10.713330562086606" id="-44180">
		<tag k="alt_name" v="Brannelva;Brennelva" />
		<tag k="name" v="Brandelva" />
		<tag k="ssr:stedsnr" v="189868" />
		<tag k="waterway" v="river" />
	</node>
	<node lat="60.618319448125995" lon="10.674208721712166" id="-44181">
		<tag k="fixme" v="consider place=hamlet" />
		<tag k="name" v="Midtbakken" />
		<tag k="place" v="farm" />
		<tag k="ssr:stedsnr" v="207581" />
	</node>
	<node lat="60.53709721787968" lon="10.657766665457226" id="-44182">
		<tag k="name" v="Gårder" />
		<tag k="place" v="farm" />
		<tag k="ssr:stedsnr" v="214567" />
	</node>
	<node lat="60.527430556220764" lon="10.654669447984471" id="-44183">
		<tag k="building" v="industrial" />
		<tag k="name" v="Almenningssaga" />
		<tag k="ssr:stedsnr" v="214643" />
	</node>
	<node lat="60.52250555598173" lon="10.715419448732003" id="-44184">
		<tag k="name" v="Sauengmyra" />
		<tag k="natural" v="wetland" />
		<tag k="ssr:stedsnr" v="215599" />
	</node>
	<node lat="60.58453889256509" lon="10.564999996691753" id="-44185">
		<tag k="name" v="Kjelsberg" />
		<tag k="place" v="isolated_dwelling" />
		<tag k="ssr:stedsnr" v="218567" />
	</node>
	<node lat="60.66203889195097" lon="10.533186111919935" id="-44186">
		<tag k="name" v="Vallevoll" />
		<tag k="place" v="farm" />
		<tag k="ssr:stedsnr" v="222733" />
	</node>
	<node lat="60.69856110824153" lon="10.736186104684482" id="-44187">
		<tag k="name" v="Løkenlia" />
		<tag k="place" v="farm" />
		<tag k="ssr:stedsnr" v="223665" />
	</node>
	<node lat="60.74008610984198" lon="10.629630549065327" id="-44188">
		<tag k="name" v="Lundby" />
		<tag k="place" v="farm" />
		<tag k="ssr:stedsnr" v="223517" />
	</node>
	<node lat="60.70930833402591" lon="10.534666664447698" id="-44189">
		<tag k="name" v="Nordseterhøgda" />
		<tag k="natural" v="hill" />
		<tag k="place" v="locality" />
		<tag k="ssr:stedsnr" v="223346" />
	</node>
	<node lat="60.71126944616102" lon="10.561719437483976" id="-44190">
		<tag k="name" v="Rosettoppen" />
		<tag k="natural" v="hill" />
		<tag k="place" v="locality" />
		<tag k="ssr:stedsnr" v="223464" />
	</node>
	<node lat="60.74903889025994" lon="10.671150003323893" id="-44191">
		<tag k="name" v="Nordre Flikkeshaug" />
		<tag k="place" v="farm" />
		<tag k="ssr:stedsnr" v="223695" />
	</node>
	<node lat="60.5406361120049" lon="10.657536106890559" id="-44192">
		<tag k="bridge" v="yes" />
		<tag k="layer" v="1" />
		<tag k="name" v="Blåkorshjemmet" />
		<tag k="ssr:stedsnr" v="228113" />
	</node>
	<node lat="60.59144999837717" lon="10.562283330490743" id="-44193">
		<tag k="name" v="Skjellsveen" />
		<tag k="place" v="farm" />
		<tag k="ssr:stedsnr" v="282583" />
	</node>
	<node lat="60.72858610885641" lon="10.705202780570422" id="-44194">
		<tag k="name" v="Skogstad" />
		<tag k="place" v="farm" />
		<tag k="ssr:stedsnr" v="284822" />
	</node>
	<node lat="60.66554444345018" lon="10.491463889826779" id="-44195">
		<tag k="name" v="Sollidammen" />
		<tag k="natural" v="water" />
		<tag k="ssr:stedsnr" v="283735" />
		<tag k="water" v="pond" />
	</node>
	<node lat="60.66549999805365" lon="10.571561106431034" id="-44196">
		<tag k="name" v="Seterputten" />
		<tag k="natural" v="water" />
		<tag k="ssr:stedsnr" v="284377" />
		<tag k="water" v="pond" />
	</node>
	<node lat="60.63770000293682" lon="10.58655555868169" id="-44197">
		<tag k="historic" v="shieling" />
		<tag k="name" v="Hermanrudvollen" />
		<tag k="place" v="locality" />
		<tag k="ssr:stedsnr" v="284386" />
	</node>
	<node lat="60.630499990236004" lon="10.594376064282141" id="-44198">
		<tag k="fixme" v="consider place=hamlet" />
		<tag k="name" v="Vadet" />
		<tag k="place" v="farm" />
		<tag k="ssr:stedsnr" v="284387" />
	</node>
	<node lat="60.64014721971057" lon="10.595911109691448" id="-44199">
		<tag k="fixme" v="consider place=hamlet" />
		<tag k="name" v="Fiskevollberget" />
		<tag k="place" v="farm" />
		<tag k="ssr:stedsnr" v="284371" />
	</node>
	<node lat="60.56381388682498" lon="10.612377768956733" id="-44200">
		<tag k="name" v="Øvre Amlien" />
		<tag k="place" v="farm" />
		<tag k="ssr:stedsnr" v="298208" />
	</node>
	<node lat="60.64883333699736" lon="10.521169448582253" id="-44201">
		<tag k="leisure" v="pitch" />
		<tag k="name" v="Solvoll idrettsplass" />
		<tag k="ssr:stedsnr" v="298214" />
	</node>
	<node lat="60.67859721824192" lon="10.502263895000063" id="-44202">
		<tag k="alt_name" v="Midtre Skjerdalen;Skjerrdalen, midtre;Midtre Skjærdalen" />
		<tag k="name" v="Midtre Skjerrdalen" />
		<tag k="place" v="farm" />
		<tag k="ssr:stedsnr" v="298135" />
	</node>
	<node lat="60.654133658256995" lon="10.656800885058045" id="-44203">
		<tag k="alt_name" v="Sivesindhagen" />
		<tag k="fixme" v="consider place=hamlet" />
		<tag k="name" v="Sivesinhagen" />
		<tag k="place" v="farm" />
		<tag k="ssr:stedsnr" v="298686" />
	</node>
	<node lat="60.644566666460825" lon="10.64415555667044" id="-44204">
		<tag k="name" v="Vestre Sivesind" />
		<tag k="place" v="farm" />
		<tag k="ssr:stedsnr" v="298957" />
	</node>
	<node lat="60.562633776660896" lon="10.61862736136013" id="-44205">
		<tag k="fixme" v="consider place=hamlet" />
		<tag k="name" v="Amlien" />
		<tag k="place" v="farm" />
		<tag k="ssr:stedsnr" v="310125" />
	</node>
	<node lat="60.52338610928238" lon="10.63027778278497" id="-44206">
		<tag k="alt_name" v="Smedstua" />
		<tag k="name" v="Smedstugua" />
		<tag k="place" v="isolated_dwelling" />
		<tag k="ssr:stedsnr" v="310070" />
	</node>
	<node lat="60.58290833144318" lon="10.622619437127678" id="-44207">
		<tag k="alt_name" v="Gråsten" />
		<tag k="name" v="Gråstein" />
		<tag k="place" v="farm" />
		<tag k="ssr:stedsnr" v="310146" />
	</node>
	<node lat="60.584041036663805" lon="10.562369391296327" id="-44208">
		<tag k="alt_name" v="Skreppen" />
		<tag k="fixme" v="consider place=hamlet" />
		<tag k="name" v="Skreppa" />
		<tag k="place" v="farm" />
		<tag k="ssr:stedsnr" v="310149" />
	</node>
	<node lat="60.585211110982875" lon="10.53990833139486" id="-44209">
		<tag k="name" v="Smalvikmyra" />
		<tag k="natural" v="wetland" />
		<tag k="ssr:stedsnr" v="310151" />
	</node>
	<node lat="60.59020299981539" lon="10.61157432623703" id="-44210">
		<tag k="fixme" v="consider place=hamlet" />
		<tag k="name" v="Jutulrud" />
		<tag k="old_name" v="Juterud" />
		<tag k="place" v="farm" />
		<tag k="ssr:stedsnr" v="310161" />
	</node>
	<node lat="60.65496110884871" lon="10.634916663157018" id="-44211">
		<tag k="name" v="Nyjordet" />
		<tag k="place" v="farm" />
		<tag k="ssr:stedsnr" v="310248" />
	</node>
	<node lat="60.64362500289377" lon="10.639627783332498" id="-44212">
		<tag k="alt_name" v="Hagebakken" />
		<tag k="name" v="Hågåbakken" />
		<tag k="place" v="farm" />
		<tag k="ssr:stedsnr" v="310267" />
	</node>
	<node lat="60.680417264127215" lon="10.58772231748574" id="-44213">
		<tag k="fixme" v="consider place=hamlet" />
		<tag k="name" v="Danielrud" />
		<tag k="place" v="farm" />
		<tag k="ssr:stedsnr" v="310343" />
	</node>
	<node lat="60.69903039069268" lon="10.699463025130648" id="-44215">
		<tag k="alt_name" v="Gaukum" />
		<tag k="fixme" v="consider place=hamlet" />
		<tag k="name" v="Gaukom" />
		<tag k="place" v="farm" />
		<tag k="ssr:stedsnr" v="310365" />
	</node>
	<node lat="60.74136666657817" lon="10.570363882945394" id="-44216">
		<tag k="alt_name" v="Villåsstuen" />
		<tag k="name" v="Villåsstugua" />
		<tag k="place" v="farm" />
		<tag k="ssr:stedsnr" v="310459" />
	</node>
	<node lat="60.74716389255186" lon="10.634577776683345" id="-44217">
		<tag k="name" v="Grøndalen" />
		<tag k="place" v="farm" />
		<tag k="ssr:stedsnr" v="310461" />
	</node>
	<node lat="60.66718333391053" lon="10.644338897382571" id="-44218">
		<tag k="alt_name" v="Bernsgård" />
		<tag k="name" v="Bernsgard" />
		<tag k="place" v="farm" />
		<tag k="ssr:stedsnr" v="310308" />
	</node>
	<node lat="60.687232034567856" lon="10.72563920146695" id="-44219">
		<tag k="fixme" v="consider place=hamlet" />
		<tag k="name" v="Kauserud" />
		<tag k="place" v="farm" />
		<tag k="ssr:stedsnr" v="310959" />
	</node>
	<node lat="60.5508777793631" lon="10.620230563041543" id="-44220">
		<tag k="name" v="Sveberg" />
		<tag k="natural" v="hill" />
		<tag k="place" v="locality" />
		<tag k="ssr:stedsnr" v="326301" />
	</node>
	<node lat="60.53353611395407" lon="10.660577768854921" id="-44221">
		<tag k="name" v="Rustad" />
		<tag k="place" v="farm" />
		<tag k="ssr:stedsnr" v="329731" />
	</node>
	<node lat="60.5194514266582" lon="10.646145059551406" id="-44222">
		<tag k="fixme" v="consider boundary=protected_area and relevant protect_class if not nature reserve" />
		<tag k="leisure" v="nature_reserve" />
		<tag k="name" v="Stormyra naturreservat" />
		<tag k="ssr:stedsnr" v="344035" />
	</node>
	<node lat="60.61574999698292" lon="10.621930555893403" id="-44223">
		<tag k="amenity" v="school" />
		<tag k="name" v="Thune skole" />
		<tag k="ssr:stedsnr" v="344069" />
	</node>
	<node lat="60.637480551309785" lon="10.54929721862256" id="-44224">
		<tag k="name" v="Skriverskogen" />
		<tag k="place" v="locality" />
		<tag k="ssr:stedsnr" v="344384" />
	</node>
	<node lat="60.68026150204865" lon="10.604682269223275" id="-44225">
		<tag k="fixme" v="consider place=hamlet" />
		<tag k="name" v="Enkenhus" />
		<tag k="place" v="farm" />
		<tag k="ssr:stedsnr" v="344391" />
	</node>
	<node lat="60.75091111341652" lon="10.631427771238435" id="-44226">
		<tag k="name" v="Bratland" />
		<tag k="place" v="isolated_dwelling" />
		<tag k="ssr:stedsnr" v="344434" />
	</node>
	<node lat="60.64202132245164" lon="10.545211029012497" id="-44227">
		<tag k="name" v="Veitjernsbekken" />
		<tag k="ssr:stedsnr" v="346254" />
		<tag k="waterway" v="stream" />
	</node>
	<node lat="60.58195447925398" lon="10.550219279759123" id="-44228">
		<tag k="alt_name" v="Totjernet" />
		<tag k="name" v="Totjerna" />
		<tag k="natural" v="water" />
		<tag k="ssr:stedsnr" v="370199" />
		<tag k="water" v="lake" />
	</node>
	<node lat="60.672856813401225" lon="10.551860140836611" id="-44229">
		<tag k="alt_name" v="Alfstadseter" />
		<tag k="fixme" v="consider place=hamlet" />
		<tag k="name" v="Alstadsæter" />
		<tag k="place" v="farm" />
		<tag k="ssr:stedsnr" v="370331" />
	</node>
	<node lat="60.67628888918459" lon="10.558174995782968" id="-44230">
		<tag k="name" v="Sæterenga" />
		<tag k="place" v="farm" />
		<tag k="ssr:stedsnr" v="370332" />
	</node>
	<node lat="60.61621944400708" lon="10.554455547599973" id="-44231">
		<tag k="alt_name" v="Hågårbekken" />
		<tag k="name" v="Hågårtjernbekken" />
		<tag k="ssr:stedsnr" v="370247" />
		<tag k="waterway" v="stream" />
	</node>
	<node lat="60.62104142219856" lon="10.679099993297024" id="-44232">
		<tag k="alt_name" v="Midtbu" />
		<tag k="fixme" v="consider place=hamlet" />
		<tag k="name" v="Midtbua" />
		<tag k="place" v="farm" />
		<tag k="ssr:stedsnr" v="370254" />
	</node>
	<node lat="60.52341944153843" lon="10.615600004228005" id="-44233">
		<tag k="name" v="Flata" />
		<tag k="place" v="farm" />
		<tag k="ssr:stedsnr" v="371057" />
	</node>
	<node lat="60.56786944021135" lon="10.610463885131601" id="-44234">
		<tag k="name" v="Petersbakken" />
		<tag k="place" v="farm" />
		<tag k="ssr:stedsnr" v="371130" />
	</node>
	<node lat="60.64106389140575" lon="10.657894437680085" id="-44235">
		<tag k="name" v="Sinnerud" />
		<tag k="place" v="farm" />
		<tag k="ssr:stedsnr" v="371232" />
	</node>
	<node lat="60.671652775633774" lon="10.698511108186725" id="-44236">
		<tag k="fixme" v="consider place=hamlet" />
		<tag k="name" v="Berg" />
		<tag k="place" v="farm" />
		<tag k="ssr:stedsnr" v="370342" />
	</node>
	<node lat="60.67323888506235" lon="10.584747213341693" id="-44237">
		<tag k="name" v="Tjernsbekken" />
		<tag k="ssr:stedsnr" v="370349" />
		<tag k="waterway" v="stream" />
	</node>
	<node lat="60.66148333088018" lon="10.524413897203836" id="-44238">
		<tag k="alt_name" v="Pålsrud" />
		<tag k="name" v="Paulsrud" />
		<tag k="place" v="farm" />
		<tag k="ssr:stedsnr" v="370353" />
	</node>
	<node lat="60.705553063810264" lon="10.684968231393398" id="-44239">
		<tag k="name" v="Tåsås" />
		<tag k="place" v="hamlet" />
		<tag k="ssr:stedsnr" v="370445" />
	</node>
	<node lat="60.53583611326872" lon="10.677055552081278" id="-44240">
		<tag k="name" v="Berg" />
		<tag k="place" v="farm" />
		<tag k="ssr:stedsnr" v="371101" />
	</node>
	<node lat="60.58821944516045" lon="10.563497225884873" id="-44241">
		<tag k="name" v="Engebakken" />
		<tag k="place" v="farm" />
		<tag k="ssr:stedsnr" v="371172" />
	</node>
	<node lat="60.597408330139416" lon="10.60499445317882" id="-44242">
		<tag k="name" v="Steinodden" />
		<tag k="place" v="farm" />
		<tag k="ssr:stedsnr" v="371175" />
	</node>
	<node lat="60.63803333377251" lon="10.658999995638203" id="-44243">
		<tag k="name" v="Nordby" />
		<tag k="place" v="farm" />
		<tag k="ssr:stedsnr" v="371206" />
	</node>
	<node lat="60.65279018848706" lon="10.597614856814427" id="-44244">
		<tag k="fixme" v="consider place=hamlet" />
		<tag k="name" v="Vestbakken" />
		<tag k="place" v="farm" />
		<tag k="ssr:stedsnr" v="371250" />
	</node>
	<node lat="60.69688888890455" lon="10.557811110340902" id="-44245">
		<tag k="name" v="Langmyra" />
		<tag k="natural" v="wetland" />
		<tag k="ssr:stedsnr" v="371335" />
	</node>
	<node lat="60.69801944818293" lon="10.646866670129198" id="-44246">
		<tag k="name" v="Eng" />
		<tag k="place" v="farm" />
		<tag k="ssr:stedsnr" v="371340" />
	</node>
	<node lat="60.72305277898057" lon="10.5793361118944" id="-44247">
		<tag k="name" v="Fredly" />
		<tag k="place" v="farm" />
		<tag k="ssr:stedsnr" v="371417" />
	</node>
	<node lat="60.72307500109049" lon="10.573597219134937" id="-44248">
		<tag k="fixme" v="consider place=hamlet" />
		<tag k="name" v="Nyset" />
		<tag k="old_name" v="Nyseth" />
		<tag k="place" v="farm" />
		<tag k="ssr:stedsnr" v="371386" />
	</node>
	<node lat="60.719058331994546" lon="10.725311106350638" id="-44249">
		<tag k="name" v="Almsbakken" />
		<tag k="place" v="farm" />
		<tag k="ssr:stedsnr" v="371930" />
	</node>
	<node lat="60.70733119663139" lon="10.723176453745333" id="-44250">
		<tag k="alt_name" v="Thorsrud" />
		<tag k="fixme" v="consider place=hamlet" />
		<tag k="name" v="Torsrud" />
		<tag k="place" v="farm" />
		<tag k="ssr:stedsnr" v="371943" />
	</node>
	<node lat="60.75148059397213" lon="10.697178361755196" id="-44251">
		<tag k="fixme" v="consider place=hamlet" />
		<tag k="name" v="Hjelpstein" />
		<tag k="place" v="farm" />
		<tag k="ssr:stedsnr" v="373098" />
	</node>
	<node lat="60.75126666390123" lon="10.666844449241875" id="-44252">
		<tag k="alt_name" v="Flikkeshauglangen" />
		<tag k="name" v="Langen" />
		<tag k="place" v="farm" />
		<tag k="ssr:stedsnr" v="373099" />
	</node>
	<node lat="60.72113055951479" lon="10.740630552469565" id="-44253">
		<tag k="name" v="Øvre Svartås" />
		<tag k="place" v="farm" />
		<tag k="ssr:stedsnr" v="389315" />
	</node>
	<node lat="60.707299996124775" lon="10.747050007217252" id="-44254">
		<tag k="name" v="Roland" />
		<tag k="place" v="farm" />
		<tag k="ssr:stedsnr" v="389685" />
	</node>
	<node lat="60.51999444282231" lon="10.692375000273403" id="-44255">
		<tag k="name" v="Storberget" />
		<tag k="natural" v="hill" />
		<tag k="place" v="locality" />
		<tag k="ssr:stedsnr" v="396517" />
	</node>
	<node lat="60.6786972225802" lon="10.595255559413664" id="-44256">
		<tag k="name" v="Danielrudstuen" />
		<tag k="place" v="isolated_dwelling" />
		<tag k="ssr:stedsnr" v="404039" />
	</node>
	<node lat="60.6590611084058" lon="10.529569440736953" id="-44257">
		<tag k="junction" v="yes" />
		<tag k="name" v="Smetoptåjet" />
		<tag k="place" v="locality" />
		<tag k="ssr:stedsnr" v="404721" />
	</node>
	<node lat="60.745822224685206" lon="10.675019446288252" id="-44258">
		<tag k="name" v="Søndre Flikkeshaug" />
		<tag k="place" v="farm" />
		<tag k="ssr:stedsnr" v="405683" />
	</node>
	<node lat="60.62095278187463" lon="10.584377778384924" id="-44259">
		<tag k="bridge" v="yes" />
		<tag k="layer" v="1" />
		<tag k="name" v="Strømselva" />
		<tag k="ssr:stedsnr" v="410066" />
	</node>
	<node lat="60.668163888913625" lon="10.691938884909252" id="-44260">
		<tag k="name" v="Nærsten" />
		<tag k="place" v="farm" />
		<tag k="ssr:stedsnr" v="420816" />
	</node>
	<node lat="60.65661666798533" lon="10.624261102550099" id="-44261">
		<tag k="name" v="Gjerdingen" />
		<tag k="place" v="farm" />
		<tag k="ssr:stedsnr" v="420820" />
	</node>
	<node lat="60.66998055975339" lon="10.676019437049456" id="-44262">
		<tag k="name" v="Karlsborg" />
		<tag k="place" v="farm" />
		<tag k="ssr:stedsnr" v="420779" />
	</node>
	<node lat="60.70890277464743" lon="10.603238887744618" id="-44263">
		<tag k="name" v="Dragerfløyten" />
		<tag k="place" v="quarter" />
		<tag k="ssr:stedsnr" v="420922" />
	</node>
	<node lat="60.6595583366358" lon="10.520663884723144" id="-44264">
		<tag k="name" v="Furusethagen" />
		<tag k="place" v="farm" />
		<tag k="ssr:stedsnr" v="431327" />
	</node>
	<node lat="60.66322663996601" lon="10.537412581313994" id="-44265">
		<tag k="alt_name" v="Valleseter" />
		<tag k="fixme" v="consider place=hamlet" />
		<tag k="name" v="Vallesæter" />
		<tag k="place" v="farm" />
		<tag k="ssr:stedsnr" v="431338" />
	</node>
	<node lat="60.7067527787672" lon="10.511780563102738" id="-44266">
		<tag k="alt_name" v="Skjærsjøen" />
		<tag k="name" v="Skjersjøen" />
		<tag k="natural" v="water" />
		<tag k="ssr:stedsnr" v="431436" />
	</node>
	<node lat="60.572975000747576" lon="10.56701388361759" id="-44267">
		<tag k="name" v="Solberg" />
		<tag k="place" v="farm" />
		<tag k="ssr:stedsnr" v="431171" />
	</node>
	<node lat="60.58290277488991" lon="10.621708333377994" id="-44268">
		<tag k="name" v="Lervoll" />
		<tag k="place" v="farm" />
		<tag k="ssr:stedsnr" v="431189" />
	</node>
	<node lat="60.639825759643124" lon="10.56630365557028" id="-44269">
		<tag k="alt_name" v="Storhaugstuen" />
		<tag k="name" v="Storhaugstugua" />
		<tag k="place" v="farm" />
		<tag k="ssr:stedsnr" v="432218" />
	</node>
	<node lat="60.51699166831374" lon="10.632402784183844" id="-44270">
		<tag k="alt_name" v="Einavollen" />
		<tag k="name" v="Einavoll" />
		<tag k="place" v="isolated_dwelling" />
		<tag k="ssr:stedsnr" v="432056" />
	</node>
	<node lat="60.60013611213997" lon="10.621694444709286" id="-44271">
		<tag k="name" v="Skavangen" />
		<tag k="natural" v="cape" />
		<tag k="ssr:stedsnr" v="432168" />
	</node>
	<node lat="60.69065277643918" lon="10.65940277904197" id="-44272">
		<tag k="alt_name" v="Stor-Kyset;Kyset" />
		<tag k="name" v="Nordøstre Kyset" />
		<tag k="place" v="farm" />
		<tag k="ssr:stedsnr" v="432296" />
	</node>
	<node lat="60.69974722007792" lon="10.563211119904619" id="-44273">
		<tag k="name" v="Trettrota" />
		<tag k="natural" v="hill" />
		<tag k="place" v="locality" />
		<tag k="ssr:stedsnr" v="432313" />
	</node>
	<node lat="60.73349864243513" lon="10.63405982811523" id="-44274">
		<tag k="fixme" v="consider place=hamlet" />
		<tag k="name" v="Vestrum" />
		<tag k="place" v="farm" />
		<tag k="ssr:stedsnr" v="432440" />
	</node>
	<node lat="60.73760162064169" lon="10.627355347758355" id="-44275">
		<tag k="fixme" v="consider place=hamlet" />
		<tag k="name" v="Negard" />
		<tag k="place" v="farm" />
		<tag k="ssr:stedsnr" v="432441" />
	</node>
	<node lat="60.69749473106044" lon="10.667178527828389" id="-44276">
		<tag k="name" v="Øystad" />
		<tag k="place" v="farm" />
		<tag k="ssr:stedsnr" v="432332" />
	</node>
	<node lat="60.68985277400324" lon="10.596166665085336" id="-44277">
		<tag k="name" v="Brustuskogen" />
		<tag k="place" v="isolated_dwelling" />
		<tag k="ssr:stedsnr" v="432341" />
	</node>
	<node lat="60.71809721912211" lon="10.57521110681167" id="-44278">
		<tag k="alt_name" v="Gudbrandsstuen" />
		<tag k="name" v="Gudbrandstugua" />
		<tag k="place" v="farm" />
		<tag k="ssr:stedsnr" v="432356" />
	</node>
	<node lat="60.71800277592288" lon="10.639255555998647" id="-44279">
		<tag k="name" v="Korta" />
		<tag k="ssr:stedsnr" v="508757" />
		<tag k="waterway" v="stream" />
	</node>
	<node lat="60.71638333150622" lon="10.620291672779299" id="-44280">
		<tag k="name" v="Grimåsfeltet" />
		<tag k="place" v="quarter" />
		<tag k="ssr:stedsnr" v="508767" />
	</node>
	<node lat="60.70696111159622" lon="10.728169443025607" id="-44281">
		<tag k="name" v="Østby" />
		<tag k="place" v="farm" />
		<tag k="ssr:stedsnr" v="511657" />
	</node>
	<node lat="60.73347499692029" lon="10.662583329647912" id="-44282">
		<tag k="name" v="Lerudmyra" />
		<tag k="place" v="farm" />
		<tag k="ssr:stedsnr" v="512829" />
	</node>
	<node lat="60.73985555588448" lon="10.613561116345736" id="-44283">
		<tag k="name" v="Brovoll" />
		<tag k="place" v="locality" />
		<tag k="ssr:stedsnr" v="526632" />
	</node>
	<node lat="60.744988887191404" lon="10.615269436300638" id="-44284">
		<tag k="name" v="Persholmen" />
		<tag k="natural" v="cape" />
		<tag k="ssr:stedsnr" v="526633" />
	</node>
	<node lat="60.72166944383793" lon="10.598966664477462" id="-44285">
		<tag k="leisure" v="pitch" />
		<tag k="name" v="Øvre idrettsplass" />
		<tag k="ssr:stedsnr" v="526948" />
	</node>
	<node lat="60.57077222352451" lon="10.625297216914396" id="-44286">
		<tag k="name" v="Østre Sangnæs" />
		<tag k="place" v="farm" />
		<tag k="ssr:stedsnr" v="541224" />
	</node>
	<node lat="60.69439999935029" lon="10.685897224054662" id="-44287">
		<tag k="alt_name" v="Finstadmyra" />
		<tag k="name" v="Finnstadmyra" />
		<tag k="natural" v="wetland" />
		<tag k="ssr:stedsnr" v="541083" />
	</node>
	<node lat="60.67523888528272" lon="10.68275555903169" id="-44288">
		<tag k="loc_name" v="Kapperanbakken" />
		<tag k="name" v="Østrum" />
		<tag k="place" v="farm" />
		<tag k="ssr:stedsnr" v="541547" />
	</node>
	<node lat="60.64215000179552" lon="10.630280556293714" id="-44289">
		<tag k="name" v="Vestheim" />
		<tag k="place" v="farm" />
		<tag k="ssr:stedsnr" v="541953" />
	</node>
	<node lat="60.65203611329361" lon="10.601449998868302" id="-44290">
		<tag k="name" v="Fredrikstad" />
		<tag k="place" v="farm" />
		<tag k="ssr:stedsnr" v="552292" />
	</node>
	<node lat="60.695318843444696" lon="10.579034019780737" id="-44291">
		<tag k="alt_name" v="Berger, øvre;Berger" />
		<tag k="fixme" v="consider place=hamlet" />
		<tag k="name" v="Øvre Berger" />
		<tag k="place" v="farm" />
		<tag k="ssr:stedsnr" v="552396" />
	</node>
	<node lat="60.70275000240054" lon="10.653447218512948" id="-44292">
		<tag k="alt_name" v="Grevløsengen" />
		<tag k="name" v="Grevlausenga" />
		<tag k="place" v="farm" />
		<tag k="ssr:stedsnr" v="552397" />
	</node>
	<node lat="60.72604167030143" lon="10.613297218552857" id="-44293">
		<tag k="name" v="Raufoss" />
		<tag k="place" v="village" />
		<tag k="ssr:stedsnr" v="553447" />
	</node>
	<node lat="60.50773505491713" lon="10.665312082841279" id="-44294">
		<tag k="fixme" v="consider place=hamlet" />
		<tag k="name" v="Villåsen" />
		<tag k="place" v="farm" />
		<tag k="ssr:stedsnr" v="552066" />
	</node>
	<node lat="60.57303618931866" lon="10.62785366279032" id="-44295">
		<tag k="alt_name" v="Sangnæs" />
		<tag k="fixme" v="consider place=hamlet" />
		<tag k="name" v="Sangnes" />
		<tag k="place" v="farm" />
		<tag k="ssr:stedsnr" v="552156" />
	</node>
	<node lat="60.58092499645041" lon="10.66694166515263" id="-44296">
		<tag k="alt_name" v="Bjørnerudelva" />
		<tag k="name" v="Vigga" />
		<tag k="ssr:stedsnr" v="552170" />
		<tag k="waterway" v="river" />
	</node>
	<node lat="60.582738887734145" lon="10.610766675000933" id="-44297">
		<tag k="name" v="Engeli" />
		<tag k="place" v="farm" />
		<tag k="ssr:stedsnr" v="552173" />
	</node>
	<node lat="60.655419443224936" lon="10.55817221788077" id="-44298">
		<tag k="name" v="Langmyra" />
		<tag k="natural" v="wetland" />
		<tag k="ssr:stedsnr" v="552276" />
	</node>
	<node lat="60.65699999547707" lon="10.533677785194826" id="-44299">
		<tag k="alt_name" v="Rudsveen" />
		<tag k="name" v="Rudsvea" />
		<tag k="place" v="farm" />
		<tag k="ssr:stedsnr" v="552349" />
	</node>
	<node lat="60.543022225931644" lon="10.674588886378453" id="-44300">
		<tag k="name" v="Nyland" />
		<tag k="place" v="farm" />
		<tag k="ssr:stedsnr" v="553084" />
	</node>
	<node lat="60.56555000255316" lon="10.6777361145173" id="-44301">
		<tag k="alt_name" v="Geitryggmyra" />
		<tag k="name" v="Geiteryggmyra" />
		<tag k="natural" v="wetland" />
		<tag k="ssr:stedsnr" v="553119" />
	</node>
	<node lat="60.61445833601232" lon="10.582105553748038" id="-44302">
		<tag k="name" v="Støvika" />
		<tag k="natural" v="bay" />
		<tag k="ssr:stedsnr" v="553194" />
	</node>
	<node lat="60.59053611326715" lon="10.647325008047593" id="-44303">
		<tag k="name" v="Bjørnstad" />
		<tag k="place" v="farm" />
		<tag k="ssr:stedsnr" v="553148" />
	</node>
	<node lat="60.59841389033424" lon="10.599377781687002" id="-44304">
		<tag k="name" v="Trangvika" />
		<tag k="natural" v="bay" />
		<tag k="ssr:stedsnr" v="553171" />
	</node>
	<node lat="60.687562883233696" lon="10.626970912871684" id="-44305">
		<tag k="alt_name" v="Røste" />
		<tag k="fixme" v="consider place=hamlet" />
		<tag k="name" v="Røstøen" />
		<tag k="place" v="farm" />
		<tag k="ssr:stedsnr" v="553298" />
	</node>
	<node lat="60.6437500002504" lon="10.6336888810259" id="-44306">
		<tag k="alt_name" v="Vestre Hagen" />
		<tag k="name" v="Hågån" />
		<tag k="place" v="farm" />
		<tag k="ssr:stedsnr" v="553259" />
	</node>
	<node lat="60.72894444041358" lon="10.573855555475566" id="-44307">
		<tag k="alt_name" v="Nordengen" />
		<tag k="name" v="Nordenga" />
		<tag k="place" v="farm" />
		<tag k="ssr:stedsnr" v="553398" />
	</node>
	<node lat="60.74233333757774" lon="10.693988892697393" id="-44308">
		<tag k="alt_name" v="Markestadmyren" />
		<tag k="name" v="Markestadmyra" />
		<tag k="place" v="farm" />
		<tag k="ssr:stedsnr" v="553456" />
	</node>
	<node lat="60.69099444200924" lon="10.69799166861988" id="-44309">
		<tag k="name" v="Hørsrud" />
		<tag k="place" v="farm" />
		<tag k="ssr:stedsnr" v="569730" />
	</node>
	<node lat="60.5232583372215" lon="10.658630555237327" id="-44310">
		<tag k="name" v="Fosslien" />
		<tag k="place" v="farm" />
		<tag k="ssr:stedsnr" v="578614" />
	</node>
	<node lat="60.5163444459082" lon="10.635613896147602" id="-44311">
		<tag k="junction" v="yes" />
		<tag k="name" v="Einavollen" />
		<tag k="place" v="locality" />
		<tag k="ssr:stedsnr" v="578473" />
	</node>
	<node lat="60.70406667088732" lon="10.536836115718128" id="-44312">
		<tag k="name" v="Sjurshaugdalen" />
		<tag k="natural" v="valley" />
		<tag k="place" v="locality" />
		<tag k="ssr:stedsnr" v="586335" />
	</node>
	<node lat="60.6059277777627" lon="10.66045555510565" id="-44313">
		<tag k="name" v="Vegli" />
		<tag k="place" v="farm" />
		<tag k="ssr:stedsnr" v="586182" />
	</node>
	<node lat="60.603183332423434" lon="10.628002781660435" id="-44314">
		<tag k="name" v="Næsvika" />
		<tag k="natural" v="bay" />
		<tag k="ssr:stedsnr" v="586185" />
	</node>
	<node lat="60.73535555942344" lon="10.629466667422825" id="-44315">
		<tag k="name" v="Bergsland" />
		<tag k="place" v="farm" />
		<tag k="ssr:stedsnr" v="586651" />
	</node>
	<node lat="60.72088610871371" lon="10.58546944172506" id="-44316">
		<tag k="name" v="Nysethagen" />
		<tag k="place" v="locality" />
		<tag k="ssr:stedsnr" v="587928" />
	</node>
	<node lat="60.725849998667556" lon="10.58263333876406" id="-44317">
		<tag k="name" v="Løvlien" />
		<tag k="place" v="quarter" />
		<tag k="ssr:stedsnr" v="587930" />
	</node>
	<node lat="60.75280277912277" lon="10.623988893239437" id="-44318">
		<tag k="bridge" v="yes" />
		<tag k="layer" v="1" />
		<tag k="name" v="Breiskallen" />
		<tag k="ssr:stedsnr" v="592111" />
	</node>
	<node lat="60.68001666473738" lon="10.678336102595344" id="-44319">
		<tag k="name" v="Fredagsputten" />
		<tag k="natural" v="water" />
		<tag k="ssr:stedsnr" v="602537" />
		<tag k="water" v="pond" />
	</node>
	<node lat="60.524461111963404" lon="10.616380546791465" id="-44321">
		<tag k="name" v="Svarverud" />
		<tag k="place" v="farm" />
		<tag k="ssr:stedsnr" v="613090" />
	</node>
	<node lat="60.56976110961526" lon="10.607930560674369" id="-44322">
		<tag k="name" v="Nordby" />
		<tag k="place" v="farm" />
		<tag k="ssr:stedsnr" v="613143" />
	</node>
	<node lat="60.56966389201702" lon="10.56446110375588" id="-44323">
		<tag k="alt_name" v="Sønsteby" />
		<tag k="name" v="Nordre Sønsteby" />
		<tag k="place" v="farm" />
		<tag k="ssr:stedsnr" v="613145" />
	</node>
	<node lat="60.60453055491622" lon="10.566016675399505" id="-44324">
		<tag k="fixme" v="consider natural=peak for the most distinct mountains in the district" />
		<tag k="name" v="Hågårkampen" />
		<tag k="natural" v="hill" />
		<tag k="place" v="locality" />
		<tag k="ssr:stedsnr" v="613185" />
	</node>
	<node lat="60.65036666730026" lon="10.531349992498884" id="-44325">
		<tag k="name" v="Smørstad" />
		<tag k="place" v="farm" />
		<tag k="ssr:stedsnr" v="613247" />
	</node>
	<node lat="60.64670555539671" lon="10.64329444534118" id="-44326">
		<tag k="alt_name" v="Sivesintjernet" />
		<tag k="name" v="Sivesintjern" />
		<tag k="natural" v="water" />
		<tag k="ssr:stedsnr" v="613276" />
	</node>
	<node lat="60.64723417143686" lon="10.560708885521493" id="-44327">
		<tag k="fixme" v="consider place=hamlet" />
		<tag k="name" v="Vesterås" />
		<tag k="place" v="farm" />
		<tag k="ssr:stedsnr" v="613283" />
	</node>
	<node lat="60.67298889046404" lon="10.498636113583617" id="-44328">
		<tag k="alt_name" v="Storsveen" />
		<tag k="name" v="Storsvea" />
		<tag k="place" v="farm" />
		<tag k="ssr:stedsnr" v="613288" />
	</node>
	<node lat="60.71301944029709" lon="10.692683332171013" id="-44329">
		<tag k="name" v="Fåreng" />
		<tag k="place" v="farm" />
		<tag k="ssr:stedsnr" v="613387" />
	</node>
	<node lat="60.716969446507285" lon="10.639402779839381" id="-44330">
		<tag k="name" v="Revoll" />
		<tag k="place" v="farm" />
		<tag k="ssr:stedsnr" v="613390" />
	</node>
	<node lat="60.711770294298915" lon="10.636846379003865" id="-44331">
		<tag k="fixme" v="consider place=hamlet" />
		<tag k="name" v="Grimås" />
		<tag k="place" v="farm" />
		<tag k="ssr:stedsnr" v="613391" />
	</node>
	<node lat="60.7376777785658" lon="10.586975002778692" id="-44332">
		<tag k="alt_name" v="Villåsengen" />
		<tag k="landuse" v="meadow" />
		<tag k="name" v="Villåsenga" />
		<tag k="ssr:stedsnr" v="613461" />
	</node>
	<node lat="60.742034151753096" lon="10.668996951183729" id="-44333">
		<tag k="fixme" v="consider place=hamlet" />
		<tag k="name" v="Elton" />
		<tag k="place" v="farm" />
		<tag k="ssr:stedsnr" v="613473" />
	</node>
	<node lat="60.68147417263903" lon="10.703669707622801" id="-44334">
		<tag k="fixme" v="consider place=hamlet" />
		<tag k="name" v="Steffensrud" />
		<tag k="place" v="farm" />
		<tag k="ssr:stedsnr" v="613337" />
	</node>
	<node lat="60.6785222260993" lon="10.705097223490357" id="-44335">
		<tag k="name" v="Kallerud" />
		<tag k="place" v="farm" />
		<tag k="ssr:stedsnr" v="613338" />
	</node>
	<node lat="60.70220763920394" lon="10.730768623399824" id="-44336">
		<tag k="fixme" v="consider place=hamlet" />
		<tag k="name" v="Knappen" />
		<tag k="place" v="farm" />
		<tag k="ssr:stedsnr" v="613937" />
	</node>
	<node lat="60.70009098569775" lon="10.745124620893773" id="-44337">
		<tag k="fixme" v="consider place=hamlet" />
		<tag k="name" v="Stepperud" />
		<tag k="place" v="farm" />
		<tag k="ssr:stedsnr" v="613945" />
	</node>
	<node lat="60.68966666461973" lon="10.736272222914986" id="-44338">
		<tag k="name" v="Valbakken" />
		<tag k="natural" v="hill" />
		<tag k="place" v="locality" />
		<tag k="ssr:stedsnr" v="633055" />
	</node>
	<node lat="60.699611108795686" lon="10.735088883446247" id="-44339">
		<tag k="name" v="Toten Hotel Sillongen" />
		<tag k="ssr:stedsnr" v="632670" />
		<tag k="tourism" v="hotel" />
	</node>
	<node lat="60.52096666372625" lon="10.702133328867854" id="-44340">
		<tag k="name" v="Storberglia" />
		<tag k="natural" v="slope" />
		<tag k="place" v="locality" />
		<tag k="ssr:stedsnr" v="639570" />
	</node>
	<node lat="60.59702777433209" lon="10.540530561786275" id="-44341">
		<tag k="name" v="Hågårmoen" />
		<tag k="place" v="locality" />
		<tag k="ssr:stedsnr" v="645569" />
	</node>
	<node lat="60.7521333323316" lon="10.695111119566095" id="-44342">
		<tag k="name" v="Østre søndre Hjelpstein" />
		<tag k="place" v="farm" />
		<tag k="ssr:stedsnr" v="647746" />
	</node>
	<node lat="60.653933337395614" lon="10.54063056379592" id="-44343">
		<tag k="name" v="Gauplibekken" />
		<tag k="ssr:stedsnr" v="647764" />
		<tag k="waterway" v="stream" />
	</node>
	<node lat="60.73817499637569" lon="10.643566669333627" id="-44344">
		<tag k="name" v="Vestre Grøthaug" />
		<tag k="place" v="farm" />
		<tag k="ssr:stedsnr" v="647006" />
	</node>
	<node lat="60.67903041501966" lon="10.547717844165565" id="-44345">
		<tag k="fixme" v="consider place=hamlet" />
		<tag k="name" v="Granum" />
		<tag k="place" v="farm" />
		<tag k="ssr:stedsnr" v="647050" />
	</node>
	<node lat="60.63613333634331" lon="10.59289722958768" id="-44346">
		<tag k="name" v="Amerikaberget" />
		<tag k="natural" v="hill" />
		<tag k="place" v="locality" />
		<tag k="ssr:stedsnr" v="647396" />
	</node>
	<node lat="60.747867446156164" lon="10.675057144604807" id="-44347">
		<tag k="name" v="Flikkeshaug" />
		<tag k="place" v="hamlet" />
		<tag k="ssr:stedsnr" v="647673" />
	</node>
	<node lat="60.72554444642654" lon="10.549294449325146" id="-44348">
		<tag k="name" v="Nysetermarka" />
		<tag k="place" v="locality" />
		<tag k="ssr:stedsnr" v="647933" />
	</node>
	<node lat="60.750391662358226" lon="10.620899994258263" id="-44349">
		<tag k="bridge" v="yes" />
		<tag k="layer" v="1" />
		<tag k="name" v="Hunnselva" />
		<tag k="ssr:stedsnr" v="653093" />
	</node>
	<node lat="60.62820833157995" lon="10.596872214512917" id="-44350">
		<tag k="bridge" v="yes" />
		<tag k="layer" v="1" />
		<tag k="name" v="Eina" />
		<tag k="ssr:stedsnr" v="653095" />
	</node>
	<node lat="60.72348055792842" lon="10.617972217871992" id="-44351">
		<tag k="amenity" v="community_centre" />
		<tag k="name" v="Raufosstun" />
		<tag k="ssr:stedsnr" v="662852" />
	</node>
	<node lat="60.62972222075023" lon="10.60157222372224" id="-44352">
		<tag k="bridge" v="yes" />
		<tag k="layer" v="1" />
		<tag k="name" v="Eina" />
		<tag k="ssr:stedsnr" v="714092" />
	</node>
	<node lat="60.657152777972264" lon="10.601433341154584" id="-44353">
		<tag k="bridge" v="yes" />
		<tag k="layer" v="1" />
		<tag k="name" v="Bruflat" />
		<tag k="ssr:stedsnr" v="714094" />
	</node>
	<node lat="60.68231666928519" lon="10.645752782752213" id="-44354">
		<tag k="amenity" v="hospital" />
		<tag k="name" v="Sykehuset Innlandet Reinsvoll" />
		<tag k="old_name" v="Presteseter;Prestsæter" />
		<tag k="ssr:stedsnr" v="723762" />
	</node>
	<node lat="60.661432773457804" lon="10.69388535448075" id="-44355">
		<tag k="alt_name" v="Ås" />
		<tag k="fixme" v="consider place=hamlet" />
		<tag k="name" v="Prestegården" />
		<tag k="place" v="farm" />
		<tag k="ssr:stedsnr" v="723770" />
	</node>
	<node lat="60.709400002848746" lon="10.653991669320968" id="-44356">
		<tag k="name" v="Gårderputten" />
		<tag k="natural" v="water" />
		<tag k="ssr:stedsnr" v="723895" />
		<tag k="water" v="pond" />
	</node>
	<node lat="60.56350072630856" lon="10.658271413006963" id="-44357">
		<tag k="alt_name" v="Tollefsrud" />
		<tag k="fixme" v="consider place=hamlet" />
		<tag k="name" v="Tollevsrud" />
		<tag k="place" v="farm" />
		<tag k="ssr:stedsnr" v="735119" />
	</node>
	<node lat="60.567105551232444" lon="10.655399992555337" id="-44358">
		<tag k="name" v="Tollevsrudhågån" />
		<tag k="place" v="farm" />
		<tag k="ssr:stedsnr" v="735121" />
	</node>
	<node lat="60.59771388951884" lon="10.643416669818674" id="-44359">
		<tag k="name" v="Vik" />
		<tag k="place" v="farm" />
		<tag k="ssr:stedsnr" v="735182" />
	</node>
	<node lat="60.603855558086494" lon="10.666049998168502" id="-44360">
		<tag k="name" v="Bakke" />
		<tag k="place" v="farm" />
		<tag k="ssr:stedsnr" v="735197" />
	</node>
	<node lat="60.61281971783923" lon="10.600195618816805" id="-44361">
		<tag k="fixme" v="consider place=hamlet" />
		<tag k="name" v="Sund" />
		<tag k="place" v="farm" />
		<tag k="ssr:stedsnr" v="735201" />
	</node>
	<node lat="60.6207861076339" lon="10.52769722992259" id="-44362">
		<tag k="alt_name" v="Svarttjennsbekken" />
		<tag k="name" v="Svarttjernbekken" />
		<tag k="ssr:stedsnr" v="735219" />
		<tag k="waterway" v="stream" />
	</node>
	<node lat="60.65581069182667" lon="10.599671651383844" id="-44363">
		<tag k="fixme" v="consider place=hamlet" />
		<tag k="name" v="Kvernum" />
		<tag k="place" v="farm" />
		<tag k="ssr:stedsnr" v="735241" />
	</node>
	<node lat="60.65834721822877" lon="10.518227782945992" id="-44364">
		<tag k="name" v="Furuly" />
		<tag k="place" v="farm" />
		<tag k="ssr:stedsnr" v="735247" />
	</node>
	<node lat="60.65531666955836" lon="10.627213889725288" id="-44365">
		<tag k="name" v="Fremstad" />
		<tag k="place" v="isolated_dwelling" />
		<tag k="ssr:stedsnr" v="735252" />
	</node>
	<node lat="60.64740555453393" lon="10.48965278008877" id="-44366">
		<tag k="name" v="Skjerra" />
		<tag k="ssr:stedsnr" v="735260" />
		<tag k="waterway" v="river" />
	</node>
	<node lat="60.64870526586471" lon="10.649720013244755" id="-44367">
		<tag k="alt_name" v="Sivesind" />
		<tag k="name" v="Sivesin" />
		<tag k="place" v="hamlet" />
		<tag k="ssr:stedsnr" v="735266" />
	</node>
	<node lat="60.689717129863425" lon="10.58207888908038" id="-44368">
		<tag k="alt_name" v="Berger, nedre" />
		<tag k="fixme" v="consider place=hamlet" />
		<tag k="name" v="Nedre Berger" />
		<tag k="place" v="farm" />
		<tag k="ssr:stedsnr" v="735355" />
	</node>
	<node lat="60.514616665224075" lon="10.692869441668924" id="-44369">
		<tag k="name" v="Rundhaugen" />
		<tag k="natural" v="hill" />
		<tag k="place" v="locality" />
		<tag k="ssr:stedsnr" v="735047" />
	</node>
	<node lat="60.572100000620345" lon="10.63283889469691" id="-44370">
		<tag k="alt_name" v="Einafjorden" />
		<tag k="name" v="Einavatnet" />
		<tag k="natural" v="water" />
		<tag k="old_name" v="Enevand;Eina-Vd;Eina Vd;Eina" />
		<tag k="ssr:stedsnr" v="735133" />
		<tag k="water" v="lake" />
	</node>
	<node lat="60.58676666835652" lon="10.56506944323178" id="-44371">
		<tag k="alt_name" v="Nordengen" />
		<tag k="name" v="Nordenga" />
		<tag k="place" v="farm" />
		<tag k="ssr:stedsnr" v="735171" />
	</node>
	<node lat="60.594786420373254" lon="10.581105488053561" id="-44372">
		<tag k="fixme" v="consider place=hamlet" />
		<tag k="name" v="Sætra" />
		<tag k="place" v="farm" />
		<tag k="ssr:stedsnr" v="735172" />
	</node>
	<node lat="60.67270555142055" lon="10.502319439546245" id="-44373">
		<tag k="name" v="Skjerven" />
		<tag k="place" v="farm" />
		<tag k="ssr:stedsnr" v="735277" />
	</node>
	<node lat="60.732408336970195" lon="10.691283330230345" id="-44374">
		<tag k="name" v="Frogner" />
		<tag k="place" v="farm" />
		<tag k="ssr:stedsnr" v="735411" />
	</node>
	<node lat="60.71923889159486" lon="10.561497218090116" id="-44375">
		<tag k="name" v="Rosetmyra" />
		<tag k="natural" v="wetland" />
		<tag k="ssr:stedsnr" v="735414" />
	</node>
	<node lat="60.72506567810733" lon="10.665894107515935" id="-44376">
		<tag k="fixme" v="consider place=hamlet" />
		<tag k="name" v="Lerud" />
		<tag k="place" v="farm" />
		<tag k="ssr:stedsnr" v="735421" />
	</node>
	<node lat="60.74038931778284" lon="10.653368089177935" id="-44377">
		<tag k="fixme" v="consider place=hamlet" />
		<tag k="name" v="Ripe" />
		<tag k="place" v="farm" />
		<tag k="ssr:stedsnr" v="735450" />
	</node>
	<node lat="60.737488885695335" lon="10.704097216914093" id="-44378">
		<tag k="alt_name" v="Sveen" />
		<tag k="name" v="Svea" />
		<tag k="place" v="farm" />
		<tag k="ssr:stedsnr" v="735453" />
	</node>
	<node lat="60.71349999677592" lon="10.724191667287371" id="-44379">
		<tag k="name" v="Midtskogen" />
		<tag k="place" v="farm" />
		<tag k="ssr:stedsnr" v="735931" />
	</node>
	<node lat="60.68453394920392" lon="10.75084072848149" id="-44380">
		<tag k="fixme" v="consider place=hamlet" />
		<tag k="name" v="Skarten" />
		<tag k="place" v="farm" />
		<tag k="ssr:stedsnr" v="735959" />
	</node>
	<node lat="60.55478889151251" lon="10.627394452864278" id="-44381">
		<tag k="name" v="Tomlevoll" />
		<tag k="place" v="isolated_dwelling" />
		<tag k="ssr:stedsnr" v="751789" />
	</node>
	<node lat="60.54184240176041" lon="10.631806383222125" id="-44382">
		<tag k="fixme" v="consider place=hamlet" />
		<tag k="name" v="Strande" />
		<tag k="place" v="farm" />
		<tag k="ssr:stedsnr" v="751798" />
	</node>
	<node lat="60.70394999569729" lon="10.75318055905698" id="-44384">
		<tag k="name" v="Toten museum" />
		<tag k="ssr:stedsnr" v="753679" />
		<tag k="tourism" v="museum" />
	</node>
	<node lat="60.59240832933789" lon="10.589061105457652" id="-44385">
		<tag k="name" v="Prestmarka" />
		<tag k="place" v="locality" />
		<tag k="ssr:stedsnr" v="767580" />
	</node>
	<node lat="60.6119222226403" lon="10.627183338905258" id="-44386">
		<tag k="name" v="Thunebekken" />
		<tag k="ssr:stedsnr" v="769071" />
		<tag k="waterway" v="stream" />
	</node>
	<node lat="60.687390021218114" lon="10.602057547348041" id="-44387">
		<tag k="name" v="Skarseterhagen" />
		<tag k="place" v="farm" />
		<tag k="ssr:stedsnr" v="769374" />
	</node>
	<node lat="60.71218055469708" lon="10.575874991127177" id="-44388">
		<tag k="name" v="Nedre Roset" />
		<tag k="place" v="farm" />
		<tag k="ssr:stedsnr" v="783083" />
	</node>
	<node lat="60.57847500325038" lon="10.621797216932364" id="-44389">
		<tag k="name" v="Rasmussveen" />
		<tag k="old_name" v="Amlund" />
		<tag k="place" v="farm" />
		<tag k="ssr:stedsnr" v="783140" />
	</node>
	<node lat="60.707594447332845" lon="10.69344445314981" id="-44390">
		<tag k="building" v="industrial" />
		<tag k="name" v="Helset sag" />
		<tag k="ssr:stedsnr" v="784083" />
	</node>
	<node lat="60.729447219788135" lon="10.617613890630926" id="-44391">
		<tag k="amenity" v="place_of_worship" />
		<tag k="fixme" v="specify religion=*, denomination=*, building=* etc" />
		<tag k="name" v="Baptistkirken" />
		<tag k="ssr:stedsnr" v="784842" />
	</node>
	<node lat="60.67288333029687" lon="10.566686110482928" id="-44392">
		<tag k="aeroway" v="aerodrome" />
		<tag k="alt_name" v="Reinsvoll" />
		<tag k="name" v="Reinsvoll flyplass" />
		<tag k="ssr:stedsnr" v="787252" />
	</node>
	<node lat="60.66852674886503" lon="10.604134892941813" id="-44393">
		<tag k="alt_name" v="Voldengen" />
		<tag k="fixme" v="consider place=hamlet" />
		<tag k="name" v="Vollenga" />
		<tag k="place" v="farm" />
		<tag k="ssr:stedsnr" v="795332" />
	</node>
	<node lat="60.524327775989505" lon="10.631605560501244" id="-44394">
		<tag k="alt_name" v="Sløbråten" />
		<tag k="name" v="Sløbråtån" />
		<tag k="place" v="farm" />
		<tag k="ssr:stedsnr" v="796079" />
	</node>
	<node lat="60.71021502923814" lon="10.581262256768364" id="-44395">
		<tag k="fixme" v="consider place=hamlet" />
		<tag k="name" v="Roset" />
		<tag k="place" v="farm" />
		<tag k="ssr:stedsnr" v="795899" />
	</node>
	<node lat="60.53220000154464" lon="10.672730550801202" id="-44396">
		<tag k="alt_name" v="Løvlien" />
		<tag k="name" v="Lauvlia" />
		<tag k="place" v="farm" />
		<tag k="ssr:stedsnr" v="796096" />
	</node>
	<node lat="60.5901111101492" lon="10.567769443301067" id="-44397">
		<tag k="alt_name" v="Stenberg" />
		<tag k="name" v="Steinberg" />
		<tag k="place" v="farm" />
		<tag k="ssr:stedsnr" v="796172" />
	</node>
	<node lat="60.59700277574225" lon="10.554205557482911" id="-44398">
		<tag k="name" v="Frosketjernet" />
		<tag k="natural" v="water" />
		<tag k="ssr:stedsnr" v="796195" />
	</node>
	<node lat="60.73181666724621" lon="10.574600002663304" id="-44399">
		<tag k="name" v="Nyjordet" />
		<tag k="place" v="farm" />
		<tag k="ssr:stedsnr" v="796457" />
	</node>
	<node lat="60.745277774436374" lon="10.6805305489818" id="-44400">
		<tag k="name" v="Lauvlia" />
		<tag k="place" v="farm" />
		<tag k="ssr:stedsnr" v="796463" />
	</node>
	<node lat="60.640026934621" lon="10.688250004401995" id="-44401">
		<tag k="alt_name" v="Stikbakke" />
		<tag k="fixme" v="consider place=hamlet" />
		<tag k="name" v="Stikkbakke" />
		<tag k="place" v="farm" />
		<tag k="ssr:stedsnr" v="796244" />
	</node>
	<node lat="60.68741667088663" lon="10.532397231477843" id="-44402">
		<tag k="fixme" v="consider natural=peak for the most distinct mountains in the district" />
		<tag k="name" v="Lauvhøgda" />
		<tag k="natural" v="hill" />
		<tag k="place" v="locality" />
		<tag k="ssr:stedsnr" v="796334" />
	</node>
	<node lat="60.721572223260026" lon="10.64031665770939" id="-44403">
		<tag k="name" v="Østvoll" />
		<tag k="place" v="quarter" />
		<tag k="ssr:stedsnr" v="796431" />
	</node>
	<node lat="60.74198055373603" lon="10.607366663409085" id="-44404">
		<tag k="name" v="Nedre Napstad" />
		<tag k="place" v="locality" />
		<tag k="ssr:stedsnr" v="796434" />
	</node>
	<node lat="60.685408331165675" lon="10.570575000887825" id="-44406">
		<tag k="name" v="Gotterud" />
		<tag k="place" v="isolated_dwelling" />
		<tag k="ssr:stedsnr" v="812773" />
	</node>
	<node lat="60.67313888758981" lon="10.674663894859068" id="-44407">
		<tag k="name" v="Gjestrumsbakken" />
		<tag k="place" v="farm" />
		<tag k="ssr:stedsnr" v="812777" />
	</node>
	<node lat="60.68135833180225" lon="10.595074999236171" id="-44408">
		<tag k="name" v="Brennbekken" />
		<tag k="ssr:stedsnr" v="830046" />
		<tag k="waterway" v="stream" />
	</node>
	<node lat="60.68405252974813" lon="10.569154833871789" id="-44409">
		<tag k="fixme" v="consider place=hamlet" />
		<tag k="name" v="Bekkelien" />
		<tag k="place" v="farm" />
		<tag k="ssr:stedsnr" v="830049" />
	</node>
	<node lat="60.6751055521439" lon="10.592955562362718" id="-44411">
		<tag k="name" v="Buertjernsbekken" />
		<tag k="ssr:stedsnr" v="830365" />
		<tag k="waterway" v="stream" />
	</node>
	<node lat="60.52245555506435" lon="10.631113895891723" id="-44412">
		<tag k="bridge" v="yes" />
		<tag k="layer" v="1" />
		<tag k="name" v="Sløbråten" />
		<tag k="ssr:stedsnr" v="835100" />
	</node>
	<node lat="60.67695278008978" lon="10.615611116381295" id="-44413">
		<tag k="bridge" v="yes" />
		<tag k="layer" v="1" />
		<tag k="name" v="Reinsvoll" />
		<tag k="ssr:stedsnr" v="835102" />
	</node>
	<node lat="60.67881111183045" lon="10.60818888448868" id="-44414">
		<tag k="bridge" v="yes" />
		<tag k="layer" v="1" />
		<tag k="name" v="Reinsvoll" />
		<tag k="ssr:stedsnr" v="835103" />
	</node>
	<node lat="60.72126666750939" lon="10.606386112680452" id="-44415">
		<tag k="bridge" v="yes" />
		<tag k="layer" v="1" />
		<tag k="name" v="Veltmannå" />
		<tag k="ssr:stedsnr" v="835064" />
	</node>
	<node lat="60.6615348157654" lon="10.602078699553777" id="-44416">
		<tag k="alt_name" v="Reinsvollsveen" />
		<tag k="fixme" v="consider place=hamlet" />
		<tag k="name" v="Reinsvollsvea" />
		<tag k="place" v="farm" />
		<tag k="ssr:stedsnr" v="845753" />
	</node>
	<node lat="60.56623055592745" lon="10.600438888918864" id="-44417">
		<tag k="name" v="Dambråtan" />
		<tag k="place" v="farm" />
		<tag k="ssr:stedsnr" v="856131" />
	</node>
	<node lat="60.66214166646784" lon="10.583586115105241" id="-44418">
		<tag k="alt_name" v="Sørgenseter" />
		<tag k="name" v="Sorgensætra" />
		<tag k="place" v="farm" />
		<tag k="ssr:stedsnr" v="856338" />
	</node>
	<node lat="60.66504444817365" lon="10.554447224405827" id="-44419">
		<tag k="name" v="Engevoll" />
		<tag k="place" v="farm" />
		<tag k="ssr:stedsnr" v="856340" />
	</node>
	<node lat="60.5703138917045" lon="10.52905555363589" id="-44420">
		<tag k="alt_name" v="Søstebyelva" />
		<tag k="name" v="Steinbekken" />
		<tag k="ssr:stedsnr" v="856152" />
		<tag k="waterway" v="stream" />
	</node>
	<node lat="60.58412500112121" lon="10.544711104616642" id="-44421">
		<tag k="name" v="Lomtjernet" />
		<tag k="natural" v="water" />
		<tag k="ssr:stedsnr" v="856176" />
	</node>
	<node lat="60.652156604790676" lon="10.662791908124854" id="-44422">
		<tag k="alt_name" v="Børsvollen" />
		<tag k="fixme" v="consider place=hamlet" />
		<tag k="name" v="Børsvoll" />
		<tag k="place" v="farm" />
		<tag k="ssr:stedsnr" v="856277" />
	</node>
	<node lat="60.71765000355139" lon="10.628311113950655" id="-44423">
		<tag k="name" v="Vestby" />
		<tag k="place" v="farm" />
		<tag k="ssr:stedsnr" v="856422" />
	</node>
	<node lat="60.64909999883448" lon="10.496350000455317" id="-44424">
		<tag k="name" v="Vadbekken" />
		<tag k="ssr:stedsnr" v="857293" />
		<tag k="waterway" v="stream" />
	</node>
	<node lat="60.644024999647065" lon="10.631033326465277" id="-44425">
		<tag k="alt_name" v="Nordsveen" />
		<tag k="name" v="Nordsvea" />
		<tag k="place" v="farm" />
		<tag k="ssr:stedsnr" v="857295" />
	</node>
	<node lat="60.64501944039678" lon="10.612849990821479" id="-44426">
		<tag k="alt_name" v="Gamengen" />
		<tag k="name" v="Gamenga" />
		<tag k="place" v="farm" />
		<tag k="ssr:stedsnr" v="857296" />
	</node>
	<node lat="60.6453944477585" lon="10.545069443817644" id="-44427">
		<tag k="alt_name" v="Vegtjernet" />
		<tag k="name" v="Veitjernet" />
		<tag k="natural" v="water" />
		<tag k="ssr:stedsnr" v="857301" />
	</node>
	<node lat="60.68154166329534" lon="10.655852782013856" id="-44428">
		<tag k="name" v="Klopptjernet" />
		<tag k="natural" v="water" />
		<tag k="ssr:stedsnr" v="857356" />
	</node>
	<node lat="60.601854642019184" lon="10.646085307675438" id="-44429">
		<tag k="alt_name" v="Skinderviken" />
		<tag k="fixme" v="consider place=hamlet" />
		<tag k="name" v="Skinnervika" />
		<tag k="place" v="farm" />
		<tag k="ssr:stedsnr" v="857195" />
	</node>
	<node lat="60.598663887608616" lon="10.645088879701223" id="-44430">
		<tag k="alt_name" v="Øvergård" />
		<tag k="name" v="Øvergard" />
		<tag k="place" v="farm" />
		<tag k="ssr:stedsnr" v="857197" />
	</node>
	<node lat="60.64310555513045" lon="10.657650000324413" id="-44431">
		<tag k="alt_name" v="Lie" />
		<tag k="name" v="Li" />
		<tag k="place" v="farm" />
		<tag k="ssr:stedsnr" v="857266" />
	</node>
	<node lat="60.64617222274271" lon="10.67898887986297" id="-44432">
		<tag k="name" v="Håkerud" />
		<tag k="place" v="locality" />
		<tag k="ssr:stedsnr" v="857270" />
	</node>
	<node lat="60.50646389079514" lon="10.674680564695938" id="-44433">
		<tag k="name" v="Husumenga" />
		<tag k="place" v="locality" />
		<tag k="ssr:stedsnr" v="882490" />
	</node>
	<node lat="60.599569441792454" lon="10.589688892673777" id="-44434">
		<tag k="name" v="Mørkodden" />
		<tag k="natural" v="cape" />
		<tag k="ssr:stedsnr" v="888572" />
	</node>
	<node lat="60.708241668248895" lon="10.74408332949758" id="-44435">
		<tag k="name" v="Knappengen" />
		<tag k="place" v="farm" />
		<tag k="ssr:stedsnr" v="936663" />
	</node>
	<node lat="60.631166668497315" lon="10.66600000194179" id="-44436">
		<tag k="name" v="Furumyra" />
		<tag k="natural" v="wetland" />
		<tag k="ssr:stedsnr" v="936555" />
	</node>
	<node lat="60.542705558786736" lon="10.657136108955587" id="-44437">
		<tag k="name" v="Sjøli" />
		<tag k="place" v="farm" />
		<tag k="ssr:stedsnr" v="942559" />
	</node>
	<node lat="60.5342527749661" lon="10.65879166739776" id="-44438">
		<tag k="name" v="Bekkevoll" />
		<tag k="place" v="farm" />
		<tag k="ssr:stedsnr" v="942619" />
	</node>
	<node lat="60.743519445277" lon="10.694583324784471" id="-44439">
		<tag k="name" v="Haugom" />
		<tag k="place" v="farm" />
		<tag k="ssr:stedsnr" v="951759" />
	</node>
	<node lat="60.57470833503821" lon="10.533772228610443" id="-44440">
		<tag k="name" v="Skreppmarka" />
		<tag k="place" v="locality" />
		<tag k="ssr:stedsnr" v="951819" />
	</node>
	<node lat="60.709061110075986" lon="10.524852782615602" id="-44441">
		<tag k="name" v="Koppmyra" />
		<tag k="natural" v="wetland" />
		<tag k="ssr:stedsnr" v="951324" />
	</node>
	<node lat="60.74963889013475" lon="10.620061114131836" id="-44442">
		<tag k="building" v="industrial" />
		<tag k="name" v="Elvelia" />
		<tag k="ssr:stedsnr" v="951419" />
	</node>
	<node lat="60.621166662994625" lon="10.580516668631619" id="-44443">
		<tag k="name" v="Strømstadelva" />
		<tag k="ssr:stedsnr" v="951620" />
		<tag k="waterway" v="river" />
	</node>
	<node lat="60.627955551887815" lon="10.594155562571308" id="-44444">
		<tag k="name" v="Vadet" />
		<tag k="place" v="quarter" />
		<tag k="ssr:stedsnr" v="951621" />
	</node>
	<node lat="60.66964999760965" lon="10.65134722951225" id="-44445">
		<tag k="name" v="Rauputten" />
		<tag k="natural" v="water" />
		<tag k="ssr:stedsnr" v="966809" />
	</node>
	<node lat="60.66800555853378" lon="10.707816672464752" id="-44446">
		<tag k="name" v="Jordet" />
		<tag k="place" v="farm" />
		<tag k="ssr:stedsnr" v="966828" />
	</node>
	<node lat="60.66909722385267" lon="10.700536112973627" id="-44447">
		<tag k="amenity" v="community_centre" />
		<tag k="name" v="Ås kommunelokale" />
		<tag k="ssr:stedsnr" v="966829" />
	</node>
	<node lat="60.74703510970717" lon="10.65341242619526" id="-44448">
		<tag k="fixme" v="consider place=hamlet" />
		<tag k="name" v="Drengsrud" />
		<tag k="place" v="farm" />
		<tag k="ssr:stedsnr" v="988906" />
	</node>
	<node lat="60.72063231370937" lon="10.743202339578081" id="-44449">
		<tag k="fixme" v="consider place=hamlet" />
		<tag k="name" v="Svartås" />
		<tag k="place" v="farm" />
		<tag k="ssr:stedsnr" v="988909" />
	</node>
	<node lat="60.704798379310006" lon="10.653917417158405" id="-44450">
		<tag k="fixme" v="consider place=hamlet" />
		<tag k="name" v="Grevlaus" />
		<tag k="place" v="farm" />
		<tag k="ssr:stedsnr" v="988910" />
	</node>
	<node lat="60.70225275816996" lon="10.518598783220956" id="-44772">
		<tag k="name" v="Rognlihaughytta" />
		<tag k="place" v="locality" />
		<tag k="ssr:stedsnr" v="1076450" />
	</node>
	<node lat="60.67946495741904" lon="10.50411569234905" id="-44773">
		<tag k="name" v="Skjerrdalen" />
		<tag k="place" v="hamlet" />
		<tag k="ssr:stedsnr" v="1080589" />
	</node>
	<node lat="60.571850325945114" lon="10.653715515031044" id="-44774">
		<tag k="fixme" v="consider place=hamlet" />
		<tag k="name" v="Eina" />
		<tag k="place" v="village" />
		<tag k="ssr:stedsnr" v="1081734" />
	</node>
</osm>
