<?xml version="1.0" encoding="UTF-8"?>
<<<<<<< HEAD
<osm version="0.6" generator="osmapis">
	<node lat="60.544172224517574" lon="10.601694437489986" id="-17504">
		<tag k="name" v="Strandhøgda" />
		<tag k="natural" v="hill" />
		<tag k="place" v="locality" />
		<tag k="ssr:stedsnr" v="128090" />
	</node>
	<node lat="60.65429444611416" lon="10.596316658765126" id="-17517">
		<tag k="name" v="Bakkeberget" />
		<tag k="natural" v="hill" />
		<tag k="place" v="locality" />
		<tag k="ssr:stedsnr" v="162254" />
	</node>
	<node lat="60.738147221677586" lon="10.56576110731617" id="-17590">
		<tag k="fixme" v="consider natural=peak for the most distinct mountains in the district" />
		<tag k="name" v="Villåsen" />
		<tag k="natural" v="hill" />
		<tag k="place" v="locality" />
		<tag k="ssr:stedsnr" v="466889" />
	</node>
	<node lat="60.71784722043334" lon="10.580350008090509" id="-17594">
		<tag k="fixme" v="consider natural=peak for the most distinct mountains in the district" />
		<tag k="name" v="Lønnberget" />
		<tag k="natural" v="hill" />
		<tag k="place" v="locality" />
		<tag k="ssr:stedsnr" v="344925" />
	</node>
	<node lat="60.58981388544125" lon="10.532327785738495" id="-17666">
		<tag k="name" v="Granlia" />
		<tag k="natural" v="slope" />
		<tag k="place" v="locality" />
		<tag k="ssr:stedsnr" v="675209" />
	</node>
	<node lat="60.673558335889375" lon="10.538016674233996" id="-17681">
		<tag k="name" v="Granumslia" />
		<tag k="natural" v="slope" />
		<tag k="place" v="locality" />
		<tag k="ssr:stedsnr" v="526480" />
	</node>
	<node lat="60.5175638865637" lon="10.701097218958628" id="-17703">
		<tag k="name" v="Lushattsletta" />
=======
<osm generator="osmapis" version="0.6">
	<node id="-384512" lat="60.6542944461" lon="10.5963166588">
		<tag k="name" v="Bakkeberget" />
		<tag k="natural" v="hill" />
>>>>>>> e1d4bc35ff8a6074a6f2e91616a996b547c36f15
		<tag k="place" v="locality" />
		<tag k="ssr:stedsnr" v="578515" />
	</node>
<<<<<<< HEAD
	<node lat="60.654638890381335" lon="10.55482500305821" id="-17705">
		<tag k="name" v="Stormyrbakken" />
		<tag k="natural" v="slope" />
=======
	<node id="-384763" lat="60.7018833299" lon="10.5195472258">
		<tag k="name" v="Rognlihaugen" />
		<tag k="natural" v="hill" />
>>>>>>> e1d4bc35ff8a6074a6f2e91616a996b547c36f15
		<tag k="place" v="locality" />
		<tag k="ssr:stedsnr" v="587401" />
	</node>
<<<<<<< HEAD
	<node lat="60.68672499610964" lon="10.497297228173464" id="-17724">
		<tag k="name" v="Korperuddalen" />
=======
	<node id="-384760" lat="60.6892361134" lon="10.7176777735">
		<tag k="name" v="Ersruddalen" />
>>>>>>> e1d4bc35ff8a6074a6f2e91616a996b547c36f15
		<tag k="natural" v="valley" />
		<tag k="place" v="locality" />
		<tag k="ssr:stedsnr" v="613360" />
	</node>
<<<<<<< HEAD
	<node lat="60.56385277891633" lon="10.678844451088244" id="-17726">
		<tag k="name" v="Geitryggen" />
		<tag k="natural" v="ridge" />
=======
	<node id="-385142" lat="60.5209666637" lon="10.7021333289">
		<tag k="name" v="Storberglia" />
		<tag k="natural" v="slope" />
>>>>>>> e1d4bc35ff8a6074a6f2e91616a996b547c36f15
		<tag k="place" v="locality" />
		<tag k="ssr:stedsnr" v="632732" />
	</node>
<<<<<<< HEAD
	<node lat="60.712205552761176" lon="10.522563885909264" id="-17732">
		<tag k="name" v="Øytjernslia" />
		<tag k="natural" v="slope" />
=======
	<node id="-384629" lat="60.6997472201" lon="10.5632111199">
		<tag k="name" v="Trettrota" />
		<tag k="natural" v="hill" />
>>>>>>> e1d4bc35ff8a6074a6f2e91616a996b547c36f15
		<tag k="place" v="locality" />
		<tag k="ssr:stedsnr" v="708335" />
	</node>
<<<<<<< HEAD
	<node lat="60.717638887229" lon="10.537063897891077" id="-17736">
		<tag k="name" v="Bradalslia" />
		<tag k="natural" v="slope" />
=======
	<node id="-385140" lat="60.5638527789" lon="10.6788444511">
		<tag k="name" v="Geitryggen" />
		<tag k="natural" v="ridge" />
>>>>>>> e1d4bc35ff8a6074a6f2e91616a996b547c36f15
		<tag k="place" v="locality" />
		<tag k="ssr:stedsnr" v="708945" />
	</node>
<<<<<<< HEAD
	<node lat="60.747874996340855" lon="10.62050278107518" id="-17757">
		<tag k="name" v="Elvelia" />
		<tag k="natural" v="slope" />
=======
	<node id="-385007" lat="60.5508777794" lon="10.620230563">
		<tag k="name" v="Sveberg" />
		<tag k="natural" v="hill" />
>>>>>>> e1d4bc35ff8a6074a6f2e91616a996b547c36f15
		<tag k="place" v="locality" />
		<tag k="ssr:stedsnr" v="708524" />
	</node>
<<<<<<< HEAD
	<node lat="60.70188332993349" lon="10.519547225785823" id="-17776">
		<tag k="name" v="Rognlihaugen" />
=======
	<node id="-384749" lat="60.7046888894" lon="10.5467777763">
		<tag k="name" v="Sjurshaugen" />
>>>>>>> e1d4bc35ff8a6074a6f2e91616a996b547c36f15
		<tag k="natural" v="hill" />
		<tag k="place" v="locality" />
		<tag k="ssr:stedsnr" v="768295" />
	</node>
<<<<<<< HEAD
	<node lat="60.713163888176325" lon="10.531333330885523" id="-17835">
=======
	<node id="-384748" lat="60.7131638882" lon="10.5313333309">
>>>>>>> e1d4bc35ff8a6074a6f2e91616a996b547c36f15
		<tag k="name" v="Kleggedalen" />
		<tag k="natural" v="valley" />
		<tag k="place" v="locality" />
		<tag k="ssr:stedsnr" v="890333" />
	</node>
<<<<<<< HEAD
	<node lat="60.70468888941426" lon="10.546777776291552" id="-17836">
		<tag k="name" v="Sjurshaugen" />
=======
	<node id="-385147" lat="60.6361333363" lon="10.5928972296">
		<tag k="name" v="Amerikaberget" />
		<tag k="natural" v="hill" />
		<tag k="place" v="locality" />
		<tag k="ssr:stedsnr" v="647396" />
	</node>
	<node id="-384740" lat="60.5898138854" lon="10.5323277857">
		<tag k="name" v="Granlia" />
		<tag k="natural" v="slope" />
		<tag k="place" v="locality" />
		<tag k="ssr:stedsnr" v="675209" />
	</node>
	<node id="-384609" lat="60.5199944428" lon="10.6923750003">
		<tag k="name" v="Storberget" />
>>>>>>> e1d4bc35ff8a6074a6f2e91616a996b547c36f15
		<tag k="natural" v="hill" />
		<tag k="place" v="locality" />
		<tag k="ssr:stedsnr" v="890451" />
	</node>
<<<<<<< HEAD
	<node lat="60.68923611342831" lon="10.717677773528685" id="-17841">
		<tag k="name" v="Ersruddalen" />
		<tag k="natural" v="valley" />
=======
	<node id="-385118" lat="60.6045305549" lon="10.5660166754">
		<tag k="fixme" v="consider natural=peak for the most distinct mountains in the district" />
		<tag k="name" v="Hågårkampen" />
		<tag k="natural" v="hill" />
>>>>>>> e1d4bc35ff8a6074a6f2e91616a996b547c36f15
		<tag k="place" v="locality" />
		<tag k="ssr:stedsnr" v="905656" />
	</node>
<<<<<<< HEAD
	<node lat="60.69509722118794" lon="10.534430554714458" id="-17884">
=======
	<node id="-384860" lat="60.6950972212" lon="10.5344305547">
>>>>>>> e1d4bc35ff8a6074a6f2e91616a996b547c36f15
		<tag k="name" v="Driterbakken" />
		<tag k="natural" v="slope" />
		<tag k="place" v="locality" />
		<tag k="ssr:stedsnr" v="40329" />
	</node>
<<<<<<< HEAD
	<node lat="60.67163888848771" lon="10.526813891074312" id="-17937">
		<tag k="name" v="Snuruberget" />
		<tag k="natural" v="hill" />
=======
	<node id="-385105" lat="60.6546388904" lon="10.5548250031">
		<tag k="name" v="Stormyrbakken" />
		<tag k="natural" v="slope" />
		<tag k="place" v="locality" />
		<tag k="ssr:stedsnr" v="587401" />
	</node>
	<node id="-385102" lat="60.7040666709" lon="10.5368361157">
		<tag k="name" v="Sjurshaugdalen" />
		<tag k="natural" v="valley" />
>>>>>>> e1d4bc35ff8a6074a6f2e91616a996b547c36f15
		<tag k="place" v="locality" />
		<tag k="ssr:stedsnr" v="162776" />
	</node>
<<<<<<< HEAD
	<node lat="60.70930833402591" lon="10.534666664447698" id="-17969">
		<tag k="name" v="Nordseterhøgda" />
		<tag k="natural" v="hill" />
=======
	<node id="-385099" lat="60.5175638866" lon="10.701097219">
		<tag k="name" v="Lushattsletta" />
>>>>>>> e1d4bc35ff8a6074a6f2e91616a996b547c36f15
		<tag k="place" v="locality" />
		<tag k="ssr:stedsnr" v="223346" />
	</node>
<<<<<<< HEAD
	<node lat="60.71126944616102" lon="10.561719437483976" id="-17970">
=======
	<node id="-384451" lat="60.7112694462" lon="10.5617194375">
>>>>>>> e1d4bc35ff8a6074a6f2e91616a996b547c36f15
		<tag k="name" v="Rosettoppen" />
		<tag k="natural" v="hill" />
		<tag k="place" v="locality" />
		<tag k="ssr:stedsnr" v="223464" />
	</node>
<<<<<<< HEAD
	<node lat="60.5508777793631" lon="10.620230563041543" id="-18000">
		<tag k="name" v="Sveberg" />
=======
	<node id="-384448" lat="60.709308334" lon="10.5346666644">
		<tag k="name" v="Nordseterhøgda" />
>>>>>>> e1d4bc35ff8a6074a6f2e91616a996b547c36f15
		<tag k="natural" v="hill" />
		<tag k="place" v="locality" />
		<tag k="ssr:stedsnr" v="326301" />
	</node>
<<<<<<< HEAD
	<node lat="60.51999444282231" lon="10.692375000273403" id="-18035">
		<tag k="name" v="Storberget" />
=======
	<node id="-384703" lat="60.5146166652" lon="10.6928694417">
		<tag k="name" v="Rundhaugen" />
>>>>>>> e1d4bc35ff8a6074a6f2e91616a996b547c36f15
		<tag k="natural" v="hill" />
		<tag k="place" v="locality" />
		<tag k="ssr:stedsnr" v="396517" />
	</node>
<<<<<<< HEAD
	<node lat="60.69974722007792" lon="10.563211119904619" id="-18053">
		<tag k="name" v="Trettrota" />
=======
	<node id="-384698" lat="60.6896666646" lon="10.7362722229">
		<tag k="name" v="Valbakken" />
>>>>>>> e1d4bc35ff8a6074a6f2e91616a996b547c36f15
		<tag k="natural" v="hill" />
		<tag k="place" v="locality" />
		<tag k="ssr:stedsnr" v="432313" />
	</node>
	<node lat="60.70406667088732" lon="10.536836115718128" id="-18092">
		<tag k="name" v="Sjurshaugdalen" />
		<tag k="natural" v="valley" />
		<tag k="place" v="locality" />
		<tag k="ssr:stedsnr" v="586335" />
	</node>
<<<<<<< HEAD
	<node lat="60.60453055491622" lon="10.566016675399505" id="-18104">
=======
	<node id="-384564" lat="60.7178472204" lon="10.5803500081">
>>>>>>> e1d4bc35ff8a6074a6f2e91616a996b547c36f15
		<tag k="fixme" v="consider natural=peak for the most distinct mountains in the district" />
		<tag k="name" v="Hågårkampen" />
		<tag k="natural" v="hill" />
		<tag k="place" v="locality" />
		<tag k="ssr:stedsnr" v="613185" />
	</node>
<<<<<<< HEAD
	<node lat="60.68966666461973" lon="10.736272222914986" id="-18118">
		<tag k="name" v="Valbakken" />
		<tag k="natural" v="hill" />
=======
	<node id="-384691" lat="60.6867249961" lon="10.4972972282">
		<tag k="name" v="Korperuddalen" />
		<tag k="natural" v="valley" />
>>>>>>> e1d4bc35ff8a6074a6f2e91616a996b547c36f15
		<tag k="place" v="locality" />
		<tag k="ssr:stedsnr" v="633055" />
	</node>
<<<<<<< HEAD
	<node lat="60.52096666372625" lon="10.702133328867854" id="-18120">
		<tag k="name" v="Storberglia" />
		<tag k="natural" v="slope" />
		<tag k="place" v="locality" />
		<tag k="ssr:stedsnr" v="639570" />
	</node>
	<node lat="60.63613333634331" lon="10.59289722958768" id="-18126">
		<tag k="name" v="Amerikaberget" />
=======
	<node id="-384557" lat="60.7381472217" lon="10.5657611073">
		<tag k="fixme" v="consider natural=peak for the most distinct mountains in the district" />
		<tag k="name" v="Villåsen" />
>>>>>>> e1d4bc35ff8a6074a6f2e91616a996b547c36f15
		<tag k="natural" v="hill" />
		<tag k="place" v="locality" />
		<tag k="ssr:stedsnr" v="647396" />
	</node>
<<<<<<< HEAD
	<node lat="60.514616665224075" lon="10.692869441668924" id="-18149">
		<tag k="name" v="Rundhaugen" />
		<tag k="natural" v="hill" />
=======
	<node id="-384682" lat="60.7176388872" lon="10.5370638979">
		<tag k="name" v="Bradalslia" />
		<tag k="natural" v="slope" />
>>>>>>> e1d4bc35ff8a6074a6f2e91616a996b547c36f15
		<tag k="place" v="locality" />
		<tag k="ssr:stedsnr" v="735047" />
	</node>
	<node lat="60.68741667088663" lon="10.532397231477843" id="-18182">
		<tag k="fixme" v="consider natural=peak for the most distinct mountains in the district" />
		<tag k="name" v="Lauvhøgda" />
		<tag k="natural" v="hill" />
		<tag k="place" v="locality" />
		<tag k="ssr:stedsnr" v="796334" />
	</node>
	<node id="-384678" lat="60.7478749963" lon="10.6205027811">
		<tag k="name" v="Elvelia" />
		<tag k="natural" v="slope" />
		<tag k="place" v="locality" />
		<tag k="ssr:stedsnr" v="708524" />
	</node>
	<node id="-384931" lat="60.6716388885" lon="10.5268138911">
		<tag k="name" v="Snuruberget" />
		<tag k="natural" v="hill" />
		<tag k="place" v="locality" />
		<tag k="ssr:stedsnr" v="162776" />
	</node>
	<node id="-385184" lat="60.6874166709" lon="10.5323972315">
		<tag k="fixme" v="consider natural=peak for the most distinct mountains in the district" />
		<tag k="name" v="Lauvhøgda" />
		<tag k="natural" v="hill" />
		<tag k="place" v="locality" />
		<tag k="ssr:stedsnr" v="796334" />
	</node>
	<node id="-385059" lat="60.6735583359" lon="10.5380166742">
		<tag k="name" v="Granumslia" />
		<tag k="natural" v="slope" />
		<tag k="place" v="locality" />
		<tag k="ssr:stedsnr" v="526480" />
	</node>
	<node id="-384909" lat="60.5441722245" lon="10.6016944375">
		<tag k="name" v="Strandhøgda" />
		<tag k="natural" v="hill" />
		<tag k="place" v="locality" />
		<tag k="ssr:stedsnr" v="128090" />
	</node>
	<node id="-384675" lat="60.7122055528" lon="10.5225638859">
		<tag k="name" v="Øytjernslia" />
		<tag k="natural" v="slope" />
		<tag k="place" v="locality" />
		<tag k="ssr:stedsnr" v="708335" />
	</node>
</osm>
