<?xml version="1.0" encoding="UTF-8"?>
<osm version="0.6" generator="osmapis">
	<node lat="60.73244721990444" lon="10.557394438347599" id="-44867">
		<tag k="fixme" v="specify shooting=range, clay_pigeon etc" />
		<tag k="leisure" v="pitch" />
		<tag k="name" v="Vestre Toten skytebane" />
		<tag k="sport" v="shooting" />
		<tag k="ssr:stedsnr" v="587926" />
	</node>
	<node lat="60.5194514266582" lon="10.646145059551406" id="-45330">
		<tag k="fixme" v="consider boundary=protected_area and relevant protect_class if not nature reserve" />
		<tag k="leisure" v="nature_reserve" />
		<tag k="name" v="Stormyra naturreservat" />
		<tag k="ssr:stedsnr" v="344035" />
	</node>
	<node lat="60.706115517542614" lon="10.73854365662094" id="-45733">
		<tag k="fixme" v="consider boundary=protected_area and relevant protect_class if not nature reserve" />
		<tag k="leisure" v="nature_reserve" />
		<tag k="name" v="Eriksrudtjernet naturreservat" />
		<tag k="ssr:stedsnr" v="1083974" />
	</node>
	<node lat="60.690163833348414" lon="10.739848756905944" id="-45734">
		<tag k="fixme" v="consider boundary=protected_area and relevant protect_class if not nature reserve" />
		<tag k="leisure" v="nature_reserve" />
		<tag k="name" v="Kauserudtjernet naturreservat" />
		<tag k="ssr:stedsnr" v="1083975" />
	</node>
</osm>
