<?xml version="1.0" encoding="UTF-8"?>
<osm generator="osmapis" version="0.6">
	<node id="-226975" lat="59.0527812584" lon="8.7196860484">
		<tag k="name" v="Vestre Blekapynten" />
		<tag k="ssr:date" v="2019-12-13" />
		<tag k="ssr:gruppe" v="veg" />
		<tag k="ssr:hovedgruppe" v="infrastruktur" />
		<tag k="ssr:stedsnr" v="1074278" />
		<tag k="ssr:type" v="adressenavn" />
	</node>
	<node id="-229066" lat="59.2414222222" lon="8.79094166854">
		<tag k="name" v="Homleivegen" />
		<tag k="ssr:date" v="2016-11-16" />
		<tag k="ssr:gruppe" v="veg" />
		<tag k="ssr:hovedgruppe" v="infrastruktur" />
		<tag k="ssr:stedsnr" v="467117" />
		<tag k="ssr:type" v="vegstrekning" />
	</node>
	<node id="-231354" lat="59.0975555568" lon="9.06214166878">
		<tag k="name" v="Drangedal kommune" />
		<tag k="ssr:date" v="2016-05-11" />
		<tag k="ssr:gruppe" v="administrativeIndelinger" />
		<tag k="ssr:hovedgruppe" v="offentligAdministrasjon" />
		<tag k="ssr:stedsnr" v="813333" />
		<tag k="ssr:type" v="kommune" />
	</node>
	<node id="-232377" lat="60.5908609473" lon="9.63819281559">
		<tag k="fixme" v="multiple name tags, choose one and add the other to alt_name" />
		<tag k="name" v="Austlandet;Østlandet" />
		<tag k="ssr:date" v="2018-01-09" />
		<tag k="ssr:gruppe" v="administrativeIndelinger" />
		<tag k="ssr:hovedgruppe" v="offentligAdministrasjon" />
		<tag k="ssr:stedsnr" v="974775" />
		<tag k="ssr:type" v="annenAdministrativInndeling" />
	</node>
	<node id="-226290" lat="58.9763806919" lon="9.20744076878">
		<tag k="name" v="Kjennbakkveien" />
		<tag k="ssr:date" v="2019-05-31" />
		<tag k="ssr:gruppe" v="veg" />
		<tag k="ssr:hovedgruppe" v="infrastruktur" />
		<tag k="ssr:stedsnr" v="1048228" />
		<tag k="ssr:type" v="adressenavn" />
	</node>
	<node id="-226417" lat="59.0509267692" lon="8.72177551068">
		<tag k="name" v="Blekapynten" />
		<tag k="ssr:date" v="2019-05-31" />
		<tag k="ssr:gruppe" v="veg" />
		<tag k="ssr:hovedgruppe" v="infrastruktur" />
		<tag k="ssr:stedsnr" v="1049694" />
		<tag k="ssr:type" v="adressenavn" />
	</node>
	<node id="-226288" lat="58.9565064666" lon="9.08345974749">
		<tag k="name" v="Vølaneveien" />
		<tag k="ssr:date" v="2019-05-31" />
		<tag k="ssr:gruppe" v="veg" />
		<tag k="ssr:hovedgruppe" v="infrastruktur" />
		<tag k="ssr:stedsnr" v="1048190" />
		<tag k="ssr:type" v="adressenavn" />
	</node>
	<node id="-226287" lat="59.0522407734" lon="9.13233798951">
		<tag k="name" v="Sannesveien" />
		<tag k="ssr:date" v="2019-05-31" />
		<tag k="ssr:gruppe" v="veg" />
		<tag k="ssr:hovedgruppe" v="infrastruktur" />
		<tag k="ssr:stedsnr" v="1048293" />
		<tag k="ssr:type" v="adressenavn" />
	</node>
	<node id="-226286" lat="59.242508074" lon="8.77811566128">
		<tag k="name" v="Homleidveien" />
		<tag k="ssr:date" v="2019-05-31" />
		<tag k="ssr:gruppe" v="veg" />
		<tag k="ssr:hovedgruppe" v="infrastruktur" />
		<tag k="ssr:stedsnr" v="1047998" />
		<tag k="ssr:type" v="adressenavn" />
	</node>
	<node id="-226285" lat="59.0468754861" lon="8.69726746041">
		<tag k="name" v="Brattsbergfjellet" />
		<tag k="ssr:date" v="2019-05-31" />
		<tag k="ssr:gruppe" v="veg" />
		<tag k="ssr:hovedgruppe" v="infrastruktur" />
		<tag k="ssr:stedsnr" v="1047901" />
		<tag k="ssr:type" v="adressenavn" />
	</node>
	<node id="-226284" lat="58.8889717082" lon="9.16650728301">
		<tag k="name" v="Gamle Sørlandske" />
		<tag k="ssr:date" v="2019-05-31" />
		<tag k="ssr:gruppe" v="veg" />
		<tag k="ssr:hovedgruppe" v="infrastruktur" />
		<tag k="ssr:stedsnr" v="1047837" />
		<tag k="ssr:type" v="adressenavn" />
	</node>
	<node id="-226418" lat="59.0627838472" lon="8.73069660121">
		<tag k="name" v="Tunringen" />
		<tag k="ssr:date" v="2019-05-31" />
		<tag k="ssr:gruppe" v="veg" />
		<tag k="ssr:hovedgruppe" v="infrastruktur" />
		<tag k="ssr:stedsnr" v="1049696" />
		<tag k="ssr:type" v="adressenavn" />
	</node>
	<node id="-226986" lat="59.0525772362" lon="8.71304247005">
		<tag k="name" v="Langmyrveien" />
		<tag k="ssr:date" v="2019-05-31" />
		<tag k="ssr:gruppe" v="veg" />
		<tag k="ssr:hovedgruppe" v="infrastruktur" />
		<tag k="ssr:stedsnr" v="1049523" />
		<tag k="ssr:type" v="adressenavn" />
	</node>
	<node id="-226289" lat="58.9177097806" lon="9.09128602168">
		<tag k="name" v="Måvannsveien" />
		<tag k="ssr:date" v="2019-05-31" />
		<tag k="ssr:gruppe" v="veg" />
		<tag k="ssr:hovedgruppe" v="infrastruktur" />
		<tag k="ssr:stedsnr" v="1048196" />
		<tag k="ssr:type" v="adressenavn" />
	</node>
	<node id="-226283" lat="59.0795229512" lon="9.00218074807">
		<tag k="name" v="Nortveitveien" />
		<tag k="ssr:date" v="2019-05-31" />
		<tag k="ssr:gruppe" v="veg" />
		<tag k="ssr:hovedgruppe" v="infrastruktur" />
		<tag k="ssr:stedsnr" v="1047696" />
		<tag k="ssr:type" v="adressenavn" />
	</node>
</osm>
