<?xml version="1.0" encoding="UTF-8"?>
<osm generator="osmapis" version="0.6">
	<node id="-492223" lat="60.8002138854" lon="5.18843333765">
		<tag k="name" v="Terneskjeret" />
		<tag k="ssr:date" v="2016-05-10" />
		<tag k="ssr:gruppe" v="navigasjon" />
		<tag k="ssr:hovedgruppe" v="infrastruktur" />
		<tag k="ssr:stedsnr" v="69668" />
		<tag k="ssr:type" v="fyrlykt" />
	</node>
	<node id="-492183" lat="60.885880559" lon="5.48091111167">
		<tag k="alt_name" v="Solheimsøy" />
		<tag k="name" v="Solheimsøy lykt" />
		<tag k="ssr:date" v="2016-05-10" />
		<tag k="ssr:gruppe" v="navigasjon" />
		<tag k="ssr:hovedgruppe" v="infrastruktur" />
		<tag k="ssr:stedsnr" v="54666" />
		<tag k="ssr:type" v="fyrlykt" />
	</node>
	<node id="-492755" lat="60.7790583303" lon="5.25352499162">
		<tag k="name" v="Stavneset" />
		<tag k="ssr:date" v="2016-05-10" />
		<tag k="ssr:gruppe" v="navigasjon" />
		<tag k="ssr:hovedgruppe" v="infrastruktur" />
		<tag k="ssr:stedsnr" v="268040" />
		<tag k="ssr:type" v="fyrlykt" />
	</node>
	<node id="-493326" lat="60.7994666627" lon="5.3003777701">
		<tag k="alt_name" v="Masfjorden" />
		<tag k="name" v="Masfjorden kommune" />
		<tag k="ssr:date" v="2019-05-09" />
		<tag k="ssr:gruppe" v="administrativeIndelinger" />
		<tag k="ssr:hovedgruppe" v="offentligAdministrasjon" />
		<tag k="ssr:stedsnr" v="630137" />
		<tag k="ssr:type" v="kommune" />
	</node>
	<node id="-493510" lat="60.7790527757" lon="5.25352499744">
		<tag k="name" v="Kvamsøya" />
		<tag k="ssr:date" v="2016-05-11" />
		<tag k="ssr:gruppe" v="navigasjon" />
		<tag k="ssr:hovedgruppe" v="infrastruktur" />
		<tag k="ssr:stedsnr" v="736698" />
		<tag k="ssr:type" v="fyrlykt" />
	</node>
	<node id="-494021" lat="60.8816104596" lon="6.30047518531">
		<tag k="name" v="Vestlandet" />
		<tag k="ssr:date" v="2019-01-06" />
		<tag k="ssr:gruppe" v="administrativeIndelinger" />
		<tag k="ssr:hovedgruppe" v="offentligAdministrasjon" />
		<tag k="ssr:stedsnr" v="974777" />
		<tag k="ssr:type" v="annenAdministrativInndeling" />
	</node>
	<node id="-491750" lat="60.8236027821" lon="5.32895277369">
		<tag k="name" v="Mollandsøyna" />
		<tag k="ssr:date" v="2019-05-31" />
		<tag k="ssr:gruppe" v="veg" />
		<tag k="ssr:hovedgruppe" v="infrastruktur" />
		<tag k="ssr:stedsnr" v="303304" />
		<tag k="ssr:type" v="adressenavn" />
	</node>
	<node id="-493473" lat="60.8150583298" lon="5.33033889226">
		<tag k="alt_name" v="Stavenes" />
		<tag k="name" v="Stavenes lykt" />
		<tag k="ssr:date" v="2016-05-11" />
		<tag k="ssr:gruppe" v="navigasjon" />
		<tag k="ssr:hovedgruppe" v="infrastruktur" />
		<tag k="ssr:stedsnr" v="693037" />
		<tag k="ssr:type" v="fyrlykt" />
	</node>
</osm>
