<?xml version="1.0" encoding="UTF-8"?>
<osm generator="osmapis" version="0.6">
	<node id="-93696" lat="63.2538611098" lon="8.37909721737">
		<tag k="historic" v="shieling" />
		<tag k="name" v="Høgtrøa" />
		<tag k="place" v="locality" />
		<tag k="ssr:stedsnr" v="169794" />
	</node>
	<node id="-94717" lat="63.2915194433" lon="8.82333056478">
		<tag k="name" v="Flathaugmyran" />
		<tag k="natural" v="wetland" />
		<tag k="ssr:stedsnr" v="596599" />
	</node>
	<node id="-92659" lat="63.2188972217" lon="8.77201389105">
		<tag k="name" v="Porktangen" />
		<tag k="natural" v="wetland" />
		<tag k="ssr:stedsnr" v="718652" />
	</node>
	<node id="-94704" lat="63.2083305512" lon="8.68534444179">
		<tag k="name" v="Gravarapet" />
		<tag k="natural" v="scree" />
		<tag k="ssr:stedsnr" v="596294" />
	</node>
	<node id="-94691" lat="63.3788444409" lon="8.62651111335">
		<tag k="name" v="Oterura" />
		<tag k="natural" v="scree" />
		<tag k="ssr:stedsnr" v="596058" />
	</node>
	<node id="-91616" lat="63.2574777739" lon="8.58848889006">
		<tag k="name" v="Øyran" />
		<tag k="natural" v="wetland" />
		<tag k="ssr:stedsnr" v="73311" />
	</node>
	<node id="-95199" lat="63.3811972232" lon="8.62706388572">
		<tag k="name" v="Rognmyra" />
		<tag k="natural" v="wetland" />
		<tag k="ssr:stedsnr" v="839052" />
	</node>
	<node id="-95195" lat="63.2293805514" lon="8.48989722883">
		<tag k="name" v="Middagshaugen" />
		<tag k="natural" v="wetland" />
		<tag k="ssr:stedsnr" v="839100" />
	</node>
	<node id="-94679" lat="63.3844083293" lon="8.57176388266">
		<tag k="historic" v="shieling" />
		<tag k="name" v="Mjølkplassen" />
		<tag k="place" v="locality" />
		<tag k="ssr:stedsnr" v="595677" />
	</node>
	<node id="-94678" lat="63.2289694485" lon="8.60199722579">
		<tag k="name" v="Kvannhusmyrane" />
		<tag k="natural" v="wetland" />
		<tag k="ssr:stedsnr" v="595675" />
	</node>
	<node id="-94457" lat="63.2618916656" lon="8.27506666497">
		<tag k="name" v="Skortura" />
		<tag k="natural" v="scree" />
		<tag k="ssr:stedsnr" v="534949" />
	</node>
	<node id="-94675" lat="63.1878833326" lon="8.51624721442">
		<tag k="name" v="Fonna" />
		<tag k="place" v="locality" />
		<tag k="ssr:stedsnr" v="595601" />
	</node>
	<node id="-91599" lat="63.3070611156" lon="8.64880833787">
		<tag k="name" v="Setermyra" />
		<tag k="natural" v="wetland" />
		<tag k="ssr:stedsnr" v="50958" />
	</node>
	<node id="-95182" lat="63.1586444451" lon="8.0420472255">
		<tag k="name" v="Tverrteigane" />
		<tag k="place" v="locality" />
		<tag k="ssr:stedsnr" v="838884" />
	</node>
	<node id="-94669" lat="63.2312250002" lon="8.76169167051">
		<tag k="name" v="Amerika" />
		<tag k="natural" v="wetland" />
		<tag k="ssr:stedsnr" v="595545" />
	</node>
	<node id="-92107" lat="63.2056138914" lon="8.38431944952">
		<tag k="name" v="Mekvelsmyra" />
		<tag k="natural" v="wetland" />
		<tag k="ssr:stedsnr" v="473443" />
	</node>
	<node id="-95178" lat="63.1740027782" lon="8.54113056465">
		<tag k="name" v="Rapet" />
		<tag k="natural" v="scree" />
		<tag k="ssr:stedsnr" v="838647" />
	</node>
	<node id="-94664" lat="63.2162972191" lon="8.75836666497">
		<tag k="name" v="Myran" />
		<tag k="natural" v="wetland" />
		<tag k="ssr:stedsnr" v="595525" />
	</node>
	<node id="-95171" lat="63.3291444439" lon="8.63130277826">
		<tag k="name" v="Kjerringmyra" />
		<tag k="natural" v="wetland" />
		<tag k="ssr:stedsnr" v="838493" />
	</node>
	<node id="-93085" lat="63.1811138912" lon="8.56864443933">
		<tag k="name" v="Mjølkplassmyra" />
		<tag k="natural" v="wetland" />
		<tag k="ssr:stedsnr" v="838353" />
	</node>
	<node id="-91573" lat="63.2840499966" lon="8.5167277764">
		<tag k="name" v="Hamnamyra" />
		<tag k="natural" v="wetland" />
		<tag k="ssr:stedsnr" v="232798" />
	</node>
	<node id="-93598" lat="63.3537750002" lon="8.55361111967">
		<tag k="name" v="Setermyra" />
		<tag k="natural" v="wetland" />
		<tag k="ssr:stedsnr" v="111080" />
	</node>
	<node id="-94641" lat="63.2478222208" lon="8.42011944749">
		<tag k="name" v="Uran" />
		<tag k="natural" v="scree" />
		<tag k="ssr:stedsnr" v="595109" />
	</node>
	<node id="-93104" lat="63.2883055556" lon="8.65615555097">
		<tag k="name" v="Tverrbotnmyran" />
		<tag k="natural" v="wetland" />
		<tag k="ssr:stedsnr" v="839911" />
	</node>
	<node id="-93615" lat="63.2708749957" lon="8.59136110211">
		<tag k="name" v="Åbakkmelan" />
		<tag k="place" v="locality" />
		<tag k="ssr:stedsnr" v="111569" />
	</node>
	<node id="-94638" lat="63.3623222263" lon="8.65056666122">
		<tag k="name" v="Gråura" />
		<tag k="natural" v="scree" />
		<tag k="ssr:stedsnr" v="595092" />
	</node>
	<node id="-93613" lat="63.213752781" lon="8.73861388045">
		<tag k="name" v="Kjøllmyra" />
		<tag k="natural" v="wetland" />
		<tag k="ssr:stedsnr" v="111550" />
	</node>
	<node id="-91559" lat="63.3292361092" lon="8.84050554635">
		<tag k="name" v="Bytmyra" />
		<tag k="natural" v="wetland" />
		<tag k="ssr:stedsnr" v="232493" />
	</node>
	<node id="-93093" lat="63.1846138861" lon="8.02958333658">
		<tag k="historic" v="shieling" />
		<tag k="name" v="Sagvollen" />
		<tag k="place" v="locality" />
		<tag k="ssr:stedsnr" v="838728" />
	</node>
	<node id="-92066" lat="63.158563889" lon="7.96597499701">
		<tag k="name" v="Sommarfjøsmyra" />
		<tag k="natural" v="wetland" />
		<tag k="ssr:stedsnr" v="472165" />
	</node>
	<node id="-95136" lat="63.2257777777" lon="8.35338888766">
		<tag k="name" v="Klavamyra" />
		<tag k="natural" v="wetland" />
		<tag k="ssr:stedsnr" v="837738" />
	</node>
	<node id="-92656" lat="63.2705166653" lon="8.58222222503">
		<tag k="name" v="Åbakkmyra" />
		<tag k="natural" v="wetland" />
		<tag k="ssr:stedsnr" v="718591" />
	</node>
	<node id="-94622" lat="63.2495444409" lon="8.36783054866">
		<tag k="name" v="Balsmyra" />
		<tag k="natural" v="wetland" />
		<tag k="ssr:stedsnr" v="594775" />
	</node>
	<node id="-94621" lat="63.2397277779" lon="8.32503888141">
		<tag k="name" v="Holbekkmyra" />
		<tag k="natural" v="wetland" />
		<tag k="ssr:stedsnr" v="594744" />
	</node>
	<node id="-92060" lat="63.2239722189" lon="8.77711388224">
		<tag k="name" v="Storseterurene" />
		<tag k="natural" v="scree" />
		<tag k="ssr:stedsnr" v="293652" />
	</node>
	<node id="-92571" lat="63.2633472265" lon="8.30461388577">
		<tag k="name" v="Otersteinen" />
		<tag k="natural" v="stone" />
		<tag k="ssr:stedsnr" v="595931" />
	</node>
	<node id="-93082" lat="63.2581333374" lon="8.40097776977">
		<tag k="name" v="Haltbakkmyra" />
		<tag k="natural" v="wetland" />
		<tag k="ssr:stedsnr" v="838413" />
	</node>
	<node id="-92057" lat="63.2454194443" lon="8.59257222736">
		<tag k="name" v="Veltmyra" />
		<tag k="natural" v="wetland" />
		<tag k="ssr:stedsnr" v="293397" />
	</node>
	<node id="-91460" lat="63.1614944418" lon="7.90838332671">
		<tag k="name" v="Stormyra" />
		<tag k="natural" v="wetland" />
		<tag k="ssr:stedsnr" v="229322" />
	</node>
	<node id="-95125" lat="63.183211112" lon="8.39538889661">
		<tag k="name" v="Stormyra" />
		<tag k="natural" v="wetland" />
		<tag k="ssr:stedsnr" v="837640" />
	</node>
	<node id="-95123" lat="63.1914166638" lon="8.41205277283">
		<tag k="name" v="Sagøra" />
		<tag k="place" v="locality" />
		<tag k="ssr:stedsnr" v="837637" />
	</node>
	<node id="-92050" lat="63.2829277772" lon="8.66838056021">
		<tag k="name" v="Aurdalsmyran" />
		<tag k="natural" v="wetland" />
		<tag k="ssr:stedsnr" v="292954" />
	</node>
	<node id="-93507" lat="63.1573694423" lon="7.99642777395">
		<tag k="name" v="Aspamyra" />
		<tag k="natural" v="wetland" />
		<tag k="ssr:stedsnr" v="108158" />
	</node>
	<node id="-95120" lat="63.230638889" lon="8.10014166835">
		<tag k="name" v="Hundtjønnmyra" />
		<tag k="natural" v="wetland" />
		<tag k="ssr:stedsnr" v="837671" />
	</node>
	<node id="-92572" lat="63.2604027737" lon="8.27595000957">
		<tag k="name" v="Storura" />
		<tag k="natural" v="scree" />
		<tag k="ssr:stedsnr" v="595942" />
	</node>
	<node id="-93070" lat="63.1774611125" lon="8.04317221257">
		<tag k="name" v="Apotekura" />
		<tag k="natural" v="scree" />
		<tag k="ssr:stedsnr" v="837705" />
	</node>
	<node id="-93580" lat="63.2657722232" lon="8.42806667508">
		<tag k="name" v="Hisåsmyra" />
		<tag k="natural" v="wetland" />
		<tag k="ssr:stedsnr" v="110399" />
	</node>
	<node id="-95107" lat="63.1583861073" lon="7.91783888273">
		<tag k="name" v="Kjøvhaugmyra" />
		<tag k="natural" v="wetland" />
		<tag k="ssr:stedsnr" v="836277" />
	</node>
	<node id="-95105" lat="63.1691694482" lon="7.98155832714">
		<tag k="name" v="Svortmyra" />
		<tag k="natural" v="wetland" />
		<tag k="ssr:stedsnr" v="836103" />
	</node>
	<node id="-92020" lat="63.3208666632" lon="8.57518610567">
		<tag k="name" v="Oterbekkmyra" />
		<tag k="natural" v="wetland" />
		<tag k="ssr:stedsnr" v="255314" />
	</node>
	<node id="-92222" lat="63.2807527743" lon="8.54583334048">
		<tag k="name" v="Tingstadmyra" />
		<tag k="natural" v="wetland" />
		<tag k="ssr:stedsnr" v="475809" />
	</node>
	<node id="-94062" lat="63.2837305578" lon="8.75745000901">
		<tag k="name" v="Kvitsteinan" />
		<tag k="natural" v="stone" />
		<tag k="ssr:stedsnr" v="353999" />
	</node>
	<node id="-91501" lat="63.1655416653" lon="8.36154444728">
		<tag k="historic" v="shieling" />
		<tag k="name" v="Bergesetra" />
		<tag k="place" v="locality" />
		<tag k="ssr:stedsnr" v="231110" />
	</node>
	<node id="-92522" lat="63.3549555584" lon="8.71229166969">
		<tag k="name" v="Gråura" />
		<tag k="natural" v="scree" />
		<tag k="ssr:stedsnr" v="536013" />
	</node>
	<node id="-91495" lat="63.2423416698" lon="8.36727777325">
		<tag k="name" v="Gråora" />
		<tag k="natural" v="scree" />
		<tag k="ssr:stedsnr" v="230812" />
	</node>
	<node id="-91701" lat="63.3185638867" lon="8.84197499311">
		<tag k="name" v="Kvilarsteinen" />
		<tag k="natural" v="stone" />
		<tag k="ssr:stedsnr" v="112517" />
	</node>
	<node id="-94558" lat="63.2600916626" lon="8.57212499399">
		<tag k="name" v="Sørpå" />
		<tag k="natural" v="wetland" />
		<tag k="ssr:stedsnr" v="655100" />
	</node>
	<node id="-92509" lat="63.2546083378" lon="8.34079443852">
		<tag k="name" v="Mjølkplassmyra" />
		<tag k="natural" v="wetland" />
		<tag k="ssr:stedsnr" v="534754" />
	</node>
	<node id="-94041" lat="63.2035305554" lon="8.76453332934">
		<tag k="name" v="Damtjønnmyra" />
		<tag k="natural" v="wetland" />
		<tag k="ssr:stedsnr" v="353450" />
	</node>
	<node id="-91987" lat="63.402658334" lon="8.74928611386">
		<tag k="name" v="Kjellmyra" />
		<tag k="natural" v="wetland" />
		<tag k="ssr:stedsnr" v="232264" />
	</node>
	<node id="-93517" lat="63.2032611144" lon="8.39727500906">
		<tag k="name" v="Langmyra" />
		<tag k="natural" v="wetland" />
		<tag k="ssr:stedsnr" v="109177" />
	</node>
	<node id="-91974" lat="63.1908638928" lon="8.03892221455">
		<tag k="name" v="Kariura" />
		<tag k="natural" v="scree" />
		<tag k="ssr:stedsnr" v="231752" />
	</node>
	<node id="-95044" lat="63.3966472187" lon="8.6778666604">
		<tag k="name" v="Kleivmyra" />
		<tag k="natural" v="wetland" />
		<tag k="ssr:stedsnr" v="794724" />
	</node>
	<node id="-94019" lat="63.3675000009" lon="8.61845834249">
		<tag k="name" v="Bukkholmyra" />
		<tag k="natural" v="wetland" />
		<tag k="ssr:stedsnr" v="353106" />
	</node>
	<node id="-91970" lat="63.2518611073" lon="8.40009721661">
		<tag k="name" v="Kobbstein" />
		<tag k="natural" v="stone" />
		<tag k="ssr:stedsnr" v="231169" />
	</node>
	<node id="-95037" lat="63.3456472261" lon="8.67717778428">
		<tag k="name" v="Liura" />
		<tag k="natural" v="scree" />
		<tag k="ssr:stedsnr" v="779089" />
	</node>
	<node id="-95035" lat="63.3182999973" lon="8.6818305568">
		<tag k="name" v="Åsamyrane" />
		<tag k="natural" v="wetland" />
		<tag k="ssr:stedsnr" v="778970" />
	</node>
	<node id="-94260" lat="63.2418722242" lon="8.57647221833">
		<tag k="name" v="Asplimyra" />
		<tag k="natural" v="wetland" />
		<tag k="ssr:stedsnr" v="414339" />
	</node>
	<node id="-92382" lat="63.3599277777" lon="8.72757221515">
		<tag k="name" v="Vassmyra" />
		<tag k="natural" v="wetland" />
		<tag k="ssr:stedsnr" v="657015" />
	</node>
	<node id="-93488" lat="63.3378000025" lon="8.86497499652">
		<tag k="name" v="Kleivamyrin" />
		<tag k="natural" v="wetland" />
		<tag k="ssr:stedsnr" v="73563" />
	</node>
	<node id="-95023" lat="63.2853611118" lon="8.6159472279">
		<tag k="name" v="Strumpan" />
		<tag k="natural" v="wetland" />
		<tag k="ssr:stedsnr" v="778811" />
	</node>
	<node id="-92973" lat="63.2772416627" lon="8.62776667059">
		<tag k="name" v="Gammelseterøran" />
		<tag k="natural" v="wetland" />
		<tag k="ssr:stedsnr" v="778534" />
	</node>
	<node id="-95015" lat="63.2235277775" lon="8.52564722269">
		<tag k="name" v="Hyllstimyra" />
		<tag k="natural" v="wetland" />
		<tag k="ssr:stedsnr" v="778690" />
	</node>
	<node id="-92966" lat="63.2279999984" lon="8.49782778747">
		<tag k="name" v="Hjellmyran" />
		<tag k="natural" v="wetland" />
		<tag k="ssr:stedsnr" v="778111" />
	</node>
	<node id="-92964" lat="63.3319249974" lon="8.66564167551">
		<tag k="name" v="Hålbekkmyra" />
		<tag k="natural" v="wetland" />
		<tag k="ssr:stedsnr" v="778233" />
	</node>
	<node id="-94683" lat="63.2365138914" lon="8.64848888933">
		<tag k="name" v="Pallmyra" />
		<tag k="natural" v="wetland" />
		<tag k="ssr:stedsnr" v="595728" />
	</node>
	<node id="-94494" lat="63.2749416643" lon="8.63623334328">
		<tag k="name" v="Setermyran" />
		<tag k="natural" v="wetland" />
		<tag k="ssr:stedsnr" v="536537" />
	</node>
	<node id="-94493" lat="63.2092388903" lon="8.6896638924">
		<tag k="name" v="Mettirapet" />
		<tag k="natural" v="scree" />
		<tag k="ssr:stedsnr" v="536288" />
	</node>
	<node id="-91928" lat="63.2823416672" lon="8.60367500724">
		<tag k="name" v="Unnlimyra" />
		<tag k="natural" v="wetland" />
		<tag k="ssr:stedsnr" v="293872" />
	</node>
	<node id="-92950" lat="63.2258997034" lon="8.28159666597">
		<tag k="name" v="Dammen" />
		<tag k="natural" v="wetland" />
		<tag k="ssr:stedsnr" v="776507" />
	</node>
	<node id="-94483" lat="63.2459472204" lon="8.68420555668">
		<tag k="name" v="Skyggsteinmyrane" />
		<tag k="natural" v="wetland" />
		<tag k="ssr:stedsnr" v="535654" />
	</node>
	<node id="-93571" lat="63.1710333344" lon="8.40648056022">
		<tag k="name" v="Kvennamyra" />
		<tag k="natural" v="wetland" />
		<tag k="ssr:stedsnr" v="110173" />
	</node>
	<node id="-94475" lat="63.2387694447" lon="8.60003333554">
		<tag k="name" v="Brekkmyrane" />
		<tag k="natural" v="wetland" />
		<tag k="ssr:stedsnr" v="535344" />
	</node>
	<node id="-93962" lat="63.205850002" lon="8.20264444595">
		<tag k="name" v="Yttre Brekkmyra" />
		<tag k="natural" v="wetland" />
		<tag k="ssr:stedsnr" v="352154" />
	</node>
	<node id="-92937" lat="63.4028388907" lon="8.70710554927">
		<tag k="name" v="Teinhaugmyra" />
		<tag k="natural" v="wetland" />
		<tag k="ssr:stedsnr" v="741268" />
	</node>
	<node id="-91908" lat="63.3386972239" lon="8.84724166088">
		<tag k="name" v="Sommerfjøsmyrene" />
		<tag k="natural" v="wetland" />
		<tag k="ssr:stedsnr" v="293548" />
	</node>
	<node id="-91906" lat="63.3050611136" lon="8.84762500526">
		<tag k="name" v="Aunane" />
		<tag k="natural" v="wetland" />
		<tag k="ssr:stedsnr" v="293541" />
	</node>
	<node id="-93441" lat="63.3123666697" lon="8.70449166047">
		<tag k="name" v="Trollsteinmyrane" />
		<tag k="natural" v="wetland" />
		<tag k="ssr:stedsnr" v="50924" />
	</node>
	<node id="-95485" lat="63.3290020544" lon="8.76175931506">
		<tag k="name" v="Hjelldalsmyra" />
		<tag k="natural" v="wetland" />
		<tag k="ssr:stedsnr" v="1074799" />
	</node>
	<node id="-94970" lat="63.1725555527" lon="8.00148333304">
		<tag k="name" v="Plassmyra" />
		<tag k="natural" v="wetland" />
		<tag k="ssr:stedsnr" v="777798" />
	</node>
	<node id="-93945" lat="63.1849249978" lon="8.04300555915">
		<tag k="name" v="Nysetura" />
		<tag k="natural" v="scree" />
		<tag k="ssr:stedsnr" v="351693" />
	</node>
	<node id="-92408" lat="63.2488888878" lon="8.28258333771">
		<tag k="name" v="Buktamyra" />
		<tag k="natural" v="wetland" />
		<tag k="ssr:stedsnr" v="473621" />
	</node>
	<node id="-93430" lat="63.320775004" lon="8.83837778576">
		<tag k="name" v="Stakkmyrane" />
		<tag k="natural" v="wetland" />
		<tag k="ssr:stedsnr" v="50513" />
	</node>
	<node id="-93941" lat="63.1784361108" lon="8.44345556536">
		<tag k="name" v="Stormyra" />
		<tag k="natural" v="wetland" />
		<tag k="ssr:stedsnr" v="351658" />
	</node>
	<node id="-93939" lat="63.200144446" lon="8.00522500109">
		<tag k="name" v="Styggmyra" />
		<tag k="natural" v="wetland" />
		<tag k="ssr:stedsnr" v="351637" />
	</node>
	<node id="-93938" lat="63.2427361102" lon="8.29941945072">
		<tag k="name" v="Hjortåsmyra" />
		<tag k="natural" v="wetland" />
		<tag k="ssr:stedsnr" v="351634" />
	</node>
	<node id="-93936" lat="63.1864277783" lon="8.41915833777">
		<tag k="name" v="Buøra" />
		<tag k="place" v="locality" />
		<tag k="ssr:stedsnr" v="351618" />
	</node>
	<node id="-93422" lat="63.3085555519" lon="8.57176666924">
		<tag k="name" v="Myren" />
		<tag k="natural" v="wetland" />
		<tag k="ssr:stedsnr" v="50278" />
	</node>
	<node id="-93421" lat="63.201094447" lon="8.67754999714">
		<tag k="name" v="Ormura" />
		<tag k="natural" v="scree" />
		<tag k="ssr:stedsnr" v="50276" />
	</node>
	<node id="-92908" lat="63.2590166674" lon="8.57768888491">
		<tag k="name" v="Sørpa" />
		<tag k="natural" v="wetland" />
		<tag k="ssr:stedsnr" v="900601" />
	</node>
	<node id="-94440" lat="63.2239138855" lon="8.27587222001">
		<tag k="name" v="Grønura" />
		<tag k="natural" v="scree" />
		<tag k="ssr:stedsnr" v="534547" />
	</node>
	<node id="-92123" lat="63.1655611151" lon="8.03085000585">
		<tag k="name" v="Valane" />
		<tag k="natural" v="wetland" />
		<tag k="ssr:stedsnr" v="473877" />
	</node>
	<node id="-92897" lat="63.2073611132" lon="8.70659721686">
		<tag k="name" v="Råttamyra" />
		<tag k="natural" v="wetland" />
		<tag k="ssr:stedsnr" v="900427" />
	</node>
	<node id="-93918" lat="63.1600055519" lon="7.97075556095">
		<tag k="name" v="Småkloppmyra" />
		<tag k="natural" v="wetland" />
		<tag k="ssr:stedsnr" v="351177" />
	</node>
	<node id="-94429" lat="63.2746194488" lon="8.44985277614">
		<tag k="name" v="Porsmyra" />
		<tag k="natural" v="wetland" />
		<tag k="ssr:stedsnr" v="534305" />
	</node>
	<node id="-91868" lat="63.3912138865" lon="8.6909916748">
		<tag k="name" v="Trølimyra" />
		<tag k="natural" v="wetland" />
		<tag k="ssr:stedsnr" v="195236" />
	</node>
	<node id="-92889" lat="63.2197888911" lon="8.59818610802">
		<tag k="name" v="Børtremyra" />
		<tag k="natural" v="wetland" />
		<tag k="ssr:stedsnr" v="899727" />
	</node>
	<node id="-91861" lat="63.1978972238" lon="8.55970276788">
		<tag k="name" v="Porsmyra" />
		<tag k="natural" v="wetland" />
		<tag k="ssr:stedsnr" v="292627" />
	</node>
	<node id="-92366" lat="63.3260527752" lon="8.42862778495">
		<tag k="name" v="Stormyra" />
		<tag k="natural" v="wetland" />
		<tag k="ssr:stedsnr" v="656385" />
	</node>
	<node id="-95432" lat="63.2212500036" lon="8.53165834183">
		<tag k="name" v="Stormyra" />
		<tag k="natural" v="wetland" />
		<tag k="ssr:stedsnr" v="960699" />
	</node>
	<node id="-95430" lat="63.2183027762" lon="8.52523888961">
		<tag k="name" v="Stormyra" />
		<tag k="natural" v="wetland" />
		<tag k="ssr:stedsnr" v="960693" />
	</node>
	<node id="-94917" lat="63.1816472244" lon="8.4231861098">
		<tag k="historic" v="shieling" />
		<tag k="name" v="Midtbuvollen" />
		<tag k="place" v="locality" />
		<tag k="ssr:stedsnr" v="776652" />
	</node>
	<node id="-92356" lat="63.244952781" lon="8.60163332551">
		<tag k="name" v="Røhaugmyra" />
		<tag k="natural" v="wetland" />
		<tag k="ssr:stedsnr" v="656324" />
	</node>
	<node id="-94400" lat="63.2764083369" lon="8.46193055417">
		<tag k="name" v="Kalvtrøa" />
		<tag k="place" v="locality" />
		<tag k="ssr:stedsnr" v="534293" />
	</node>
	<node id="-94397" lat="63.3177833377" lon="8.46343332511">
		<tag k="name" v="Garmyra" />
		<tag k="natural" v="wetland" />
		<tag k="ssr:stedsnr" v="534266" />
	</node>
	<node id="-95420" lat="63.329374999" lon="8.53322222497">
		<tag k="name" v="Tjønnmyra" />
		<tag k="natural" v="wetland" />
		<tag k="ssr:stedsnr" v="960299" />
	</node>
	<node id="-94393" lat="63.2234027783" lon="8.43924443766">
		<tag k="name" v="Slånnann" />
		<tag k="natural" v="wetland" />
		<tag k="ssr:stedsnr" v="534183" />
	</node>
	<node id="-92855" lat="63.2333694422" lon="8.37024999578">
		<tag k="name" v="Vikarapa" />
		<tag k="natural" v="scree" />
		<tag k="ssr:stedsnr" v="898745" />
	</node>
	<node id="-94899" lat="63.1561138856" lon="7.91682500854">
		<tag k="name" v="Langmyra" />
		<tag k="natural" v="wetland" />
		<tag k="ssr:stedsnr" v="776172" />
	</node>
	<node id="-94386" lat="63.1867722195" lon="8.04159167342">
		<tag k="name" v="Jøsøra" />
		<tag k="natural" v="scree" />
		<tag k="ssr:stedsnr" v="533719" />
	</node>
	<node id="-94385" lat="63.1799027809" lon="8.42886110764">
		<tag k="name" v="Hermannsteinen" />
		<tag k="natural" v="stone" />
		<tag k="ssr:stedsnr" v="533688" />
	</node>
	<node id="-92335" lat="63.2537611085" lon="8.35837223159">
		<tag k="name" v="Setermyren" />
		<tag k="natural" v="wetland" />
		<tag k="ssr:stedsnr" v="655783" />
	</node>
	<node id="-93358" lat="63.1619833341" lon="8.37347499393">
		<tag k="name" v="Gråora" />
		<tag k="natural" v="scree" />
		<tag k="ssr:stedsnr" v="49109" />
	</node>
	<node id="-92701" lat="63.2376777822" lon="8.18638333221">
		<tag k="name" v="Orhaugmyra" />
		<tag k="natural" v="wetland" />
		<tag k="ssr:stedsnr" v="655075" />
	</node>
	<node id="-91820" lat="63.2877166661" lon="8.50678332681">
		<tag k="name" v="Vågsnesmyra" />
		<tag k="natural" v="wetland" />
		<tag k="ssr:stedsnr" v="292108" />
	</node>
	<node id="-92329" lat="63.1803777811" lon="8.01831666911">
		<tag k="name" v="Sinnsettmyrane" />
		<tag k="natural" v="wetland" />
		<tag k="ssr:stedsnr" v="655691" />
	</node>
	<node id="-93351" lat="63.2720944419" lon="8.55995834231">
		<tag k="name" v="Langmyra" />
		<tag k="natural" v="wetland" />
		<tag k="ssr:stedsnr" v="49039" />
	</node>
	<node id="-92838" lat="63.2099222209" lon="8.43135000176">
		<tag k="name" v="Erkmyra" />
		<tag k="natural" v="wetland" />
		<tag k="ssr:stedsnr" v="898128" />
	</node>
	<node id="-94918" lat="63.2421555563" lon="8.3453916604">
		<tag k="historic" v="shieling" />
		<tag k="name" v="Gammelsetra" />
		<tag k="place" v="locality" />
		<tag k="ssr:stedsnr" v="776742" />
	</node>
	<node id="-91809" lat="63.2740805566" lon="8.55628333255">
		<tag k="name" v="Hjortåsmyra" />
		<tag k="natural" v="wetland" />
		<tag k="ssr:stedsnr" v="292034" />
	</node>
	<node id="-92869" lat="63.2827638887" lon="8.50911666541">
		<tag k="name" v="Langmyra" />
		<tag k="natural" v="wetland" />
		<tag k="ssr:stedsnr" v="899126" />
	</node>
	<node id="-95387" lat="63.211063885" lon="8.73313333216">
		<tag k="name" v="Kallmyra" />
		<tag k="natural" v="wetland" />
		<tag k="ssr:stedsnr" v="959362" />
	</node>
	<node id="-91799" lat="63.2549111086" lon="8.37493332641">
		<tag k="historic" v="shieling" />
		<tag k="name" v="Stølen" />
		<tag k="place" v="locality" />
		<tag k="ssr:stedsnr" v="291789" />
	</node>
	<node id="-93236" lat="63.397733335" lon="8.68728334019">
		<tag k="name" v="Røkhaugmyra" />
		<tag k="natural" v="wetland" />
		<tag k="ssr:stedsnr" v="6734" />
	</node>
	<node id="-94846" lat="63.2237916655" lon="8.05755277584">
		<tag k="name" v="Naustmyra" />
		<tag k="natural" v="wetland" />
		<tag k="ssr:stedsnr" v="655630" />
	</node>
	<node id="-91498" lat="63.2108831241" lon="8.28753719652">
		<tag k="historic" v="shieling" />
		<tag k="name" v="Seterholen" />
		<tag k="place" v="locality" />
		<tag k="ssr:stedsnr" v="231040" />
	</node>
	<node id="-91766" lat="63.2184611111" lon="8.26714444935">
		<tag k="name" v="Digermulmyra" />
		<tag k="natural" v="wetland" />
		<tag k="ssr:stedsnr" v="291536" />
	</node>
	<node id="-92358" lat="63.2540861145" lon="8.59594443639">
		<tag k="name" v="Seterørane" />
		<tag k="place" v="locality" />
		<tag k="ssr:stedsnr" v="656328" />
	</node>
	<node id="-94836" lat="63.2187635887" lon="8.28542384598">
		<tag k="name" v="Langora" />
		<tag k="natural" v="scree" />
		<tag k="ssr:stedsnr" v="655518" />
	</node>
	<node id="-91756" lat="63.2101388905" lon="8.31079166565">
		<tag k="name" v="Stormyra" />
		<tag k="natural" v="wetland" />
		<tag k="ssr:stedsnr" v="291030" />
	</node>
	<node id="-93794" lat="63.2329194476" lon="8.82537500918">
		<tag k="name" v="Rauberget" />
		<tag k="natural" v="scree" />
		<tag k="ssr:stedsnr" v="172675" />
	</node>
	<node id="-93791" lat="63.3124222192" lon="8.68312777169">
		<tag k="name" v="Øran" />
		<tag k="place" v="locality" />
		<tag k="ssr:stedsnr" v="171967" />
	</node>
	<node id="-94223" lat="63.1999361098" lon="8.55196387959">
		<tag k="name" v="Klokkmyra" />
		<tag k="natural" v="wetland" />
		<tag k="ssr:stedsnr" v="413656" />
	</node>
	<node id="-92174" lat="63.2343888927" lon="8.59753889621">
		<tag k="name" v="Novmyra" />
		<tag k="natural" v="wetland" />
		<tag k="ssr:stedsnr" v="474322" />
	</node>
	<node id="-93777" lat="63.2726138931" lon="8.5909777695">
		<tag k="name" v="Ormsetmyra" />
		<tag k="natural" v="wetland" />
		<tag k="ssr:stedsnr" v="171615" />
	</node>
	<node id="-93775" lat="63.2732027821" lon="8.57490277043">
		<tag k="name" v="Kroken" />
		<tag k="natural" v="wetland" />
		<tag k="ssr:stedsnr" v="171578" />
	</node>
	<node id="-93765" lat="63.2375138929" lon="8.63784999081">
		<tag k="name" v="Øran" />
		<tag k="place" v="locality" />
		<tag k="ssr:stedsnr" v="171302" />
	</node>
	<node id="-94276" lat="63.2574583293" lon="8.66804166871">
		<tag k="name" v="Strumpen" />
		<tag k="natural" v="wetland" />
		<tag k="ssr:stedsnr" v="414795" />
	</node>
	<node id="-95499" lat="63.3159612318" lon="8.76513368516">
		<tag k="name" v="Rapet" />
		<tag k="natural" v="scree" />
		<tag k="ssr:stedsnr" v="1075729" />
	</node>
	<node id="-93246" lat="63.3345277744" lon="8.66158611153">
		<tag k="name" v="Lomtjønnmyra" />
		<tag k="natural" v="wetland" />
		<tag k="ssr:stedsnr" v="12142" />
	</node>
	<node id="-92221" lat="63.2766999992" lon="8.55118611247">
		<tag k="name" v="Kjerkskarmyrane" />
		<tag k="natural" v="wetland" />
		<tag k="ssr:stedsnr" v="475800" />
	</node>
	<node id="-92725" lat="63.2152194417" lon="8.41867221333">
		<tag k="name" v="Sagmyra" />
		<tag k="natural" v="wetland" />
		<tag k="ssr:stedsnr" v="656059" />
	</node>
	<node id="-91700" lat="63.3041777795" lon="8.7314055467">
		<tag k="name" v="Evjan" />
		<tag k="natural" v="wetland" />
		<tag k="ssr:stedsnr" v="111930" />
	</node>
	<node id="-93746" lat="63.3687777776" lon="8.52193889552">
		<tag k="name" v="Tjukkskogen" />
		<tag k="place" v="locality" />
		<tag k="ssr:stedsnr" v="170709" />
	</node>
	<node id="-94256" lat="63.2101805599" lon="8.69348888446">
		<tag k="name" v="Storrapet" />
		<tag k="natural" v="scree" />
		<tag k="ssr:stedsnr" v="414287" />
	</node>
	<node id="-92204" lat="63.210255559" lon="8.72704999045">
		<tag k="name" v="Beljamyra" />
		<tag k="natural" v="wetland" />
		<tag k="ssr:stedsnr" v="475422" />
	</node>
	<node id="-92197" lat="63.2054888934" lon="8.60122500587">
		<tag k="name" v="Knubbura" />
		<tag k="natural" v="scree" />
		<tag k="ssr:stedsnr" v="475182" />
	</node>
	<node id="-92707" lat="63.360172226" lon="8.50744166417">
		<tag k="historic" v="shieling" />
		<tag k="name" v="Mjølkplassen" />
		<tag k="place" v="locality" />
		<tag k="ssr:stedsnr" v="655257" />
	</node>
	<node id="-91682" lat="63.1954777757" lon="8.45798888346">
		<tag k="name" v="Sannan" />
		<tag k="natural" v="wetland" />
		<tag k="ssr:stedsnr" v="110338" />
	</node>
	<node id="-92704" lat="63.2612500042" lon="8.4549611197">
		<tag k="name" v="Stormyra" />
		<tag k="natural" v="wetland" />
		<tag k="ssr:stedsnr" v="655327" />
	</node>
	<node id="-91568" lat="63.1971305558" lon="8.54206110584">
		<tag k="name" v="Stormyra" />
		<tag k="place" v="locality" />
		<tag k="ssr:stedsnr" v="232663" />
	</node>
	<node id="-93213" lat="63.2764555556" lon="8.59300833062">
		<tag k="name" v="Kvilarsteinen" />
		<tag k="natural" v="stone" />
		<tag k="ssr:stedsnr" v="960560" />
	</node>
	<node id="-95151" lat="63.23895556" lon="8.42986111632">
		<tag k="name" v="Dugurdsteinen" />
		<tag k="natural" v="stone" />
		<tag k="ssr:stedsnr" v="838177" />
	</node>
	<node id="-93720" lat="63.2036805547" lon="8.21019167095">
		<tag k="name" v="Indre Brekkmyr" />
		<tag k="natural" v="wetland" />
		<tag k="ssr:stedsnr" v="170181" />
	</node>
	<node id="-92183" lat="63.3267166666" lon="8.80436111477">
		<tag k="alt_name" v="Ørbuslettet" />
		<tag k="name" v="Ørbuslættet" />
		<tag k="natural" v="wetland" />
		<tag k="ssr:stedsnr" v="474692" />
	</node>
	<node id="-93017" lat="63.4030000039" lon="8.67865277644">
		<tag k="name" v="Bakliåsmyran" />
		<tag k="natural" v="wetland" />
		<tag k="ssr:stedsnr" v="923249" />
	</node>
	<node id="-94228" lat="63.2266194476" lon="8.59976111655">
		<tag k="name" v="Bjønnamyrane" />
		<tag k="natural" v="wetland" />
		<tag k="ssr:stedsnr" v="413725" />
	</node>
	<node id="-94382" lat="63.1843472238" lon="8.42024999058">
		<tag k="historic" v="shieling" />
		<tag k="name" v="Buvollen" />
		<tag k="place" v="locality" />
		<tag k="ssr:stedsnr" v="533650" />
	</node>
	<node id="-93711" lat="63.2102749956" lon="8.41804999226">
		<tag k="name" v="Kjesmyra" />
		<tag k="natural" v="wetland" />
		<tag k="ssr:stedsnr" v="170142" />
	</node>
	<node id="-93198" lat="63.1589361103" lon="7.9105472226">
		<tag k="name" v="Sommerfjøsmyra" />
		<tag k="natural" v="wetland" />
		<tag k="ssr:stedsnr" v="957307" />
	</node>
	<node id="-92168" lat="63.2480305588" lon="8.40988888352">
		<tag k="name" v="Stavnesmyra" />
		<tag k="natural" v="wetland" />
		<tag k="ssr:stedsnr" v="474147" />
	</node>
	<node id="-94726" lat="63.2778666662" lon="8.52387500578">
		<tag k="name" v="Jellmyra" />
		<tag k="natural" v="wetland" />
		<tag k="ssr:stedsnr" v="596776" />
	</node>
	<node id="-93701" lat="63.2059861115" lon="8.31173611555">
		<tag k="name" v="Stormyra" />
		<tag k="natural" v="wetland" />
		<tag k="ssr:stedsnr" v="170059" />
	</node>
	<node id="-95406" lat="63.262550004" lon="8.26686111895">
		<tag k="name" v="Djupmyra" />
		<tag k="natural" v="wetland" />
		<tag k="ssr:stedsnr" v="959945" />
	</node>
	<node id="-92163" lat="63.2850055591" lon="8.5106194368">
		<tag k="name" v="Vollmyra" />
		<tag k="natural" v="wetland" />
		<tag k="ssr:stedsnr" v="474108" />
	</node>
	<node id="-94721" lat="63.2050944458" lon="8.537813894">
		<tag k="name" v="Øyklimyra" />
		<tag k="natural" v="wetland" />
		<tag k="ssr:stedsnr" v="596680" />
	</node>
</osm>
