<?xml version="1.0" encoding="UTF-8"?>
<osm version="0.6" generator="osmapis">
	<node lat="63.14946388755198" lon="7.947677782965168" id="-10781">
		<tag k="name" v="Leirvågneset" />
		<tag k="natural" v="cape" />
		<tag k="ssr:stedsnr" v="230163" />
	</node>
	<node lat="63.346905555203875" lon="8.48038333286896" id="-10789">
		<tag k="name" v="Finnfløa" />
		<tag k="natural" v="shoal" />
		<tag k="place" v="locality" />
		<tag k="ssr:stedsnr" v="230249" />
	</node>
	<node lat="63.1656499984167" lon="7.868161105930132" id="-10795">
		<tag k="name" v="Risøya" />
		<tag k="place" v="island" />
		<tag k="ssr:stedsnr" v="230400" />
	</node>
	<node lat="63.36134722660472" lon="8.702611112061206" id="-10796">
		<tag k="name" v="Vardnesskaget" />
		<tag k="natural" v="cape" />
		<tag k="ssr:stedsnr" v="230852" />
	</node>
	<node lat="63.20636666925188" lon="8.024322215293418" id="-10800">
		<tag k="name" v="Holmen" />
		<tag k="place" v="island" />
		<tag k="ssr:stedsnr" v="230625" />
	</node>
	<node lat="63.19785000415618" lon="8.27398611332135" id="-10807">
		<tag k="name" v="Møtnesset" />
		<tag k="natural" v="cape" />
		<tag k="ssr:stedsnr" v="231047" />
	</node>
	<node lat="63.27447221822592" lon="8.516191656824862" id="-10808">
		<tag k="name" v="Barlaupbukta" />
		<tag k="natural" v="bay" />
		<tag k="ssr:stedsnr" v="231051" />
	</node>
	<node lat="63.197688889241775" lon="7.98081945170677" id="-10810">
		<tag k="name" v="Inner Breivika" />
		<tag k="natural" v="bay" />
		<tag k="ssr:stedsnr" v="231113" />
	</node>
	<node lat="63.1956138915552" lon="8.309777772826548" id="-10812">
		<tag k="name" v="Vålebukta" />
		<tag k="natural" v="bay" />
		<tag k="ssr:stedsnr" v="231061" />
	</node>
	<node lat="63.17525277507032" lon="7.8516694393322615" id="-10822">
		<tag k="name" v="Manndreparen" />
		<tag k="place" v="island" />
		<tag k="ssr:stedsnr" v="231335" />
	</node>
	<node lat="63.265413891437575" lon="8.506911113423406" id="-10828">
		<tag k="name" v="Porktrøbukta" />
		<tag k="natural" v="bay" />
		<tag k="ssr:stedsnr" v="231458" />
	</node>
	<node lat="63.2012638857424" lon="8.601158340821772" id="-10835">
		<tag k="fixme" v="consider seamark:type=rock or natural=shoal" />
		<tag k="name" v="Vikaskjæret" />
		<tag k="place" v="islet" />
		<tag k="ssr:stedsnr" v="231757" />
	</node>
	<node lat="63.26988055538835" lon="8.290452777070836" id="-10853">
		<tag k="name" v="Vorpbukta" />
		<tag k="natural" v="bay" />
		<tag k="ssr:stedsnr" v="231940" />
	</node>
	<node lat="63.26742499553158" lon="8.359672215197676" id="-10854">
		<tag k="name" v="Litlsula" />
		<tag k="natural" v="bay" />
		<tag k="ssr:stedsnr" v="231944" />
	</node>
	<node lat="63.264399997221076" lon="8.354997232148502" id="-10856">
		<tag k="name" v="Kvennaholmen" />
		<tag k="place" v="islet" />
		<tag k="ssr:stedsnr" v="231949" />
	</node>
	<node lat="63.208088886746225" lon="8.000191661559233" id="-10857">
		<tag k="name" v="Rotvikbukta" />
		<tag k="natural" v="bay" />
		<tag k="ssr:stedsnr" v="231952" />
	</node>
	<node lat="63.27357500150647" lon="8.266294436584976" id="-10858">
		<tag k="name" v="Ytre Styrsundet" />
		<tag k="natural" v="strait" />
		<tag k="ssr:stedsnr" v="231953" />
	</node>
	<node lat="63.262077775554346" lon="8.233575008777352" id="-10866">
		<tag k="fixme" v="consider seamark:type=rock or natural=shoal" />
		<tag k="name" v="Kvalen" />
		<tag k="place" v="islet" />
		<tag k="ssr:stedsnr" v="12275" />
	</node>
	<node lat="63.17418888499262" lon="7.910100003512726" id="-10870">
		<tag k="name" v="Hestvika" />
		<tag k="natural" v="cape" />
		<tag k="ssr:stedsnr" v="12286" />
	</node>
	<node lat="63.2674694468751" lon="8.497069440075366" id="-10871">
		<tag k="name" v="Ruøya" />
		<tag k="place" v="island" />
		<tag k="ssr:stedsnr" v="12287" />
	</node>
	<node lat="63.262399999355985" lon="8.531602784919304" id="-10872">
		<tag k="name" v="Tevikbukta" />
		<tag k="natural" v="bay" />
		<tag k="ssr:stedsnr" v="12290" />
	</node>
	<node lat="63.38213888714107" lon="8.602827783041597" id="-10879">
		<tag k="alt_name" v="Skardsbugen" />
		<tag k="name" v="Skardsbukta" />
		<tag k="natural" v="bay" />
		<tag k="ssr:stedsnr" v="13215" />
	</node>
	<node lat="63.228588888418706" lon="8.531511105773191" id="-10897">
		<tag k="name" v="Ostervikskaget" />
		<tag k="natural" v="cape" />
		<tag k="ssr:stedsnr" v="232657" />
	</node>
	<node lat="63.22437222636156" lon="8.54410555700071" id="-10898">
		<tag k="name" v="Hjellberget" />
		<tag k="natural" v="cape" />
		<tag k="ssr:stedsnr" v="232658" />
	</node>
	<node lat="63.40467221880391" lon="8.653413895327112" id="-10913">
		<tag k="name" v="Storvika" />
		<tag k="natural" v="bay" />
		<tag k="ssr:stedsnr" v="233765" />
	</node>
	<node lat="63.262955552285725" lon="8.515977780813966" id="-10916">
		<tag k="name" v="Tevikflua" />
		<tag k="natural" v="shoal" />
		<tag k="place" v="locality" />
		<tag k="ssr:stedsnr" v="47211" />
	</node>
	<node lat="63.207855555019314" lon="8.395269439880048" id="-10917">
		<tag k="name" v="Skjellingbuholman" />
		<tag k="place" v="islet" />
		<tag k="ssr:stedsnr" v="48109" />
	</node>
	<node lat="63.302722219363524" lon="8.40296945438196" id="-10919">
		<tag k="name" v="Avløysa" />
		<tag k="place" v="islet" />
		<tag k="ssr:stedsnr" v="48319" />
	</node>
	<node lat="63.15280277993074" lon="7.892980559648884" id="-10922">
		<tag k="name" v="Ausfallet" />
		<tag k="natural" v="shoal" />
		<tag k="place" v="locality" />
		<tag k="ssr:stedsnr" v="48404" />
	</node>
	<node lat="63.24256110884832" lon="8.195225004697019" id="-10924">
		<tag k="name" v="Husmannsvika" />
		<tag k="natural" v="bay" />
		<tag k="ssr:stedsnr" v="48572" />
	</node>
	<node lat="63.23564444319822" lon="8.104152785806228" id="-10927">
		<tag k="name" v="Hyttneset" />
		<tag k="natural" v="cape" />
		<tag k="ssr:stedsnr" v="48714" />
	</node>
	<node lat="63.19797500256253" lon="8.60641110727319" id="-10937">
		<tag k="name" v="Småvikan" />
		<tag k="natural" v="bay" />
		<tag k="ssr:stedsnr" v="49723" />
	</node>
	<node lat="63.1415027821995" lon="8.032636110092536" id="-10938">
		<tag k="name" v="Hammartåa" />
		<tag k="natural" v="cape" />
		<tag k="ssr:stedsnr" v="49775" />
	</node>
	<node lat="63.26018055761825" lon="8.320313883914856" id="-10939">
		<tag k="name" v="Araneset" />
		<tag k="natural" v="cape" />
		<tag k="ssr:stedsnr" v="49987" />
	</node>
	<node lat="63.28676666350478" lon="8.49727222459036" id="-10941">
		<tag k="name" v="Grønvikholmen" />
		<tag k="place" v="islet" />
		<tag k="ssr:stedsnr" v="50105" />
	</node>
	<node lat="63.278680552780294" lon="8.49796111724628" id="-10943">
		<tag k="name" v="Kalvtrøbukta" />
		<tag k="natural" v="bay" />
		<tag k="ssr:stedsnr" v="50108" />
	</node>
	<node lat="63.36137778101186" lon="8.66154721547057" id="-10944">
		<tag k="name" v="Tjæreholet" />
		<tag k="natural" v="bay" />
		<tag k="ssr:stedsnr" v="50109" />
	</node>
	<node lat="63.345180555516386" lon="8.748388891668737" id="-10945">
		<tag k="name" v="Vestre Hellandsbukt" />
		<tag k="natural" v="bay" />
		<tag k="ssr:stedsnr" v="50003" />
	</node>
	<node lat="63.38304166599579" lon="8.613341661311656" id="-10949">
		<tag k="fixme" v="consider seamark:type=rock or natural=shoal" />
		<tag k="name" v="Kobbskjeret" />
		<tag k="place" v="islet" />
		<tag k="ssr:stedsnr" v="50078" />
	</node>
	<node lat="63.1490272102389" lon="7.8396227051331415" id="-10978">
		<tag k="bay" v="fjord" />
		<tag k="name" v="Talgsjøen" />
		<tag k="natural" v="bay" />
		<tag k="ssr:stedsnr" v="73301" />
	</node>
	<node lat="63.29093055544522" lon="8.509680552601816" id="-10980">
		<tag k="name" v="Vorpholmen" />
		<tag k="place" v="islet" />
		<tag k="ssr:stedsnr" v="73359" />
	</node>
	<node lat="63.195766662800025" lon="7.9290666582603455" id="-10985">
		<tag k="name" v="Kalvøya" />
		<tag k="place" v="islet" />
		<tag k="ssr:stedsnr" v="73518" />
	</node>
	<node lat="63.21158611006786" lon="8.157355556412446" id="-10995">
		<tag k="name" v="Torsholmen" />
		<tag k="place" v="islet" />
		<tag k="ssr:stedsnr" v="106025" />
	</node>
	<node lat="63.274677774835936" lon="8.498263888418565" id="-10996">
		<tag k="name" v="Haugeflua" />
		<tag k="natural" v="shoal" />
		<tag k="place" v="locality" />
		<tag k="ssr:stedsnr" v="107178" />
	</node>
	<node lat="63.164688887461715" lon="7.930161113162178" id="-10998">
		<tag k="name" v="Sjåvikholmen" />
		<tag k="place" v="islet" />
		<tag k="ssr:stedsnr" v="108322" />
	</node>
	<node lat="63.20172777836049" lon="7.997197215782328" id="-11000">
		<tag k="name" v="Vikaneset" />
		<tag k="natural" v="cape" />
		<tag k="ssr:stedsnr" v="109116" />
	</node>
	<node lat="63.21435277880499" lon="8.266686118361646" id="-11009">
		<tag k="name" v="Olvikbukta" />
		<tag k="natural" v="bay" />
		<tag k="ssr:stedsnr" v="109480" />
	</node>
	<node lat="63.27893889197885" lon="8.456894444676651" id="-11015">
		<tag k="fixme" v="consider seamark:type=rock or natural=shoal" />
		<tag k="name" v="Blomvikskjera" />
		<tag k="place" v="islet" />
		<tag k="ssr:stedsnr" v="110107" />
	</node>
	<node lat="63.27313055457198" lon="8.468774993208955" id="-11016">
		<tag k="name" v="Bekkeneset" />
		<tag k="natural" v="cape" />
		<tag k="ssr:stedsnr" v="110316" />
	</node>
	<node lat="63.15462499761169" lon="8.135638888791972" id="-11022">
		<tag k="name" v="Ramsvika" />
		<tag k="natural" v="bay" />
		<tag k="ssr:stedsnr" v="110571" />
	</node>
	<node lat="63.38098055176603" lon="8.514022218739608" id="-11026">
		<tag k="name" v="Nordavindshamna" />
		<tag k="natural" v="bay" />
		<tag k="ssr:stedsnr" v="110721" />
	</node>
	<node lat="63.30905555265797" lon="8.556622220812608" id="-11035">
		<tag k="fixme" v="consider seamark:type=rock or natural=shoal" />
		<tag k="name" v="Flessa" />
		<tag k="place" v="islet" />
		<tag k="ssr:stedsnr" v="111278" />
	</node>
	<node lat="63.315211111062844" lon="8.561905551006717" id="-11037">
		<tag k="name" v="Alfartangen" />
		<tag k="natural" v="cape" />
		<tag k="ssr:stedsnr" v="111288" />
	</node>
	<node lat="63.22812222062181" lon="8.52267499656042" id="-11045">
		<tag k="name" v="Kalvikstraumen" />
		<tag k="natural" v="strait" />
		<tag k="ssr:stedsnr" v="111679" />
	</node>
	<node lat="63.37870278093967" lon="8.670630555814551" id="-11047">
		<tag k="name" v="Apalvika" />
		<tag k="natural" v="bay" />
		<tag k="ssr:stedsnr" v="111813" />
	</node>
	<node lat="63.32328611141846" lon="8.548061103574534" id="-11069">
		<tag k="name" v="Ramsvikskaget" />
		<tag k="natural" v="cape" />
		<tag k="ssr:stedsnr" v="133276" />
	</node>
	<node lat="63.19004444865802" lon="8.783736107659493" id="-11070">
		<tag k="bay" v="fjord" />
		<tag k="name" v="Vinjefjorden" />
		<tag k="natural" v="bay" />
		<tag k="ssr:stedsnr" v="133404" />
	</node>
	<node lat="63.20816944802925" lon="8.018016664981756" id="-11074">
		<tag k="name" v="Vorpneset" />
		<tag k="natural" v="cape" />
		<tag k="ssr:stedsnr" v="134515" />
	</node>
	<node lat="63.224844446577656" lon="8.584119453133692" id="-11077">
		<tag k="name" v="Bjøringbukta" />
		<tag k="natural" v="bay" />
		<tag k="ssr:stedsnr" v="255038" />
	</node>
	<node lat="63.241216662514816" lon="8.28416112012975" id="-11080">
		<tag k="name" v="Mjølkenesbukta" />
		<tag k="natural" v="bay" />
		<tag k="ssr:stedsnr" v="255054" />
	</node>
	<node lat="63.16453888523635" lon="7.875424996958648" id="-11088">
		<tag k="name" v="Hallarøya" />
		<tag k="place" v="islet" />
		<tag k="ssr:stedsnr" v="255298" />
	</node>
	<node lat="63.29476110735361" lon="8.273755556784621" id="-11100">
		<tag k="name" v="Sørklakken" />
		<tag k="natural" v="shoal" />
		<tag k="place" v="locality" />
		<tag k="ssr:stedsnr" v="255356" />
	</node>
	<node lat="63.202686308773806" lon="7.996731606621396" id="-11102">
		<tag k="name" v="Leirsundet" />
		<tag k="natural" v="strait" />
		<tag k="ssr:stedsnr" v="255487" />
	</node>
	<node lat="63.235824998868424" lon="8.153847227018437" id="-11114">
		<tag k="name" v="Ytre Kystvik" />
		<tag k="natural" v="bay" />
		<tag k="ssr:stedsnr" v="169604" />
	</node>
	<node lat="63.21400000340221" lon="8.40747778023661" id="-11117">
		<tag k="name" v="Sagdalsbukta" />
		<tag k="natural" v="bay" />
		<tag k="ssr:stedsnr" v="170060" />
	</node>
	<node lat="63.206513889089386" lon="7.982702771373028" id="-11118">
		<tag k="name" v="Veddøysundet" />
		<tag k="natural" v="strait" />
		<tag k="ssr:stedsnr" v="170063" />
	</node>
	<node lat="63.2145750023854" lon="8.389763892690265" id="-11119">
		<tag k="name" v="Kvitneset" />
		<tag k="natural" v="cape" />
		<tag k="ssr:stedsnr" v="170064" />
	</node>
	<node lat="63.16568055365491" lon="8.345149996487391" id="-11120">
		<tag k="name" v="Steisnesbukta" />
		<tag k="natural" v="bay" />
		<tag k="ssr:stedsnr" v="170068" />
	</node>
	<node lat="63.23776944302375" lon="8.486027782126003" id="-11127">
		<tag k="name" v="Trøbugen" />
		<tag k="natural" v="bay" />
		<tag k="ssr:stedsnr" v="170171" />
	</node>
	<node lat="63.30188889063315" lon="8.390747216146451" id="-11130">
		<tag k="fixme" v="consider seamark:type=rock or natural=shoal" />
		<tag k="name" v="Småskjera" />
		<tag k="place" v="islet" />
		<tag k="ssr:stedsnr" v="170363" />
	</node>
	<node lat="63.18883333560733" lon="8.298416662059182" id="-11136">
		<tag k="name" v="Skarveberghammaren" />
		<tag k="natural" v="cape" />
		<tag k="ssr:stedsnr" v="170876" />
	</node>
	<node lat="63.32620000406293" lon="8.674927784641389" id="-11142">
		<tag k="name" v="Langskaget" />
		<tag k="natural" v="cape" />
		<tag k="ssr:stedsnr" v="171211" />
	</node>
	<node lat="63.41685277941033" lon="8.707219452752458" id="-11148">
		<tag k="name" v="Ystvikskaget" />
		<tag k="natural" v="cape" />
		<tag k="ssr:stedsnr" v="171673" />
	</node>
	<node lat="63.158358333809645" lon="8.234552772419988" id="-11152">
		<tag k="name" v="Storhaugen" />
		<tag k="natural" v="cape" />
		<tag k="ssr:stedsnr" v="171911" />
	</node>
	<node lat="63.16574444479093" lon="8.326669452401791" id="-11153">
		<tag k="name" v="Aukanflua" />
		<tag k="place" v="locality" />
		<tag k="seamark:type" v="rock" />
		<tag k="ssr:stedsnr" v="171920" />
	</node>
	<node lat="63.30291388962287" lon="8.380800000686031" id="-11162">
		<tag k="name" v="Grøtnesvågen" />
		<tag k="natural" v="bay" />
		<tag k="ssr:stedsnr" v="195374" />
	</node>
	<node lat="63.208894445481505" lon="8.001088891845567" id="-11165">
		<tag k="name" v="Rotvikskaget" />
		<tag k="natural" v="cape" />
		<tag k="ssr:stedsnr" v="195497" />
	</node>
	<node lat="63.27005000278721" lon="8.315669435083032" id="-11170">
		<tag k="name" v="Småfløan" />
		<tag k="natural" v="shoal" />
		<tag k="place" v="locality" />
		<tag k="ssr:stedsnr" v="219286" />
	</node>
	<node lat="63.24601389228298" lon="8.5147694427247" id="-11172">
		<tag k="name" v="Rottøybukta" />
		<tag k="natural" v="bay" />
		<tag k="ssr:stedsnr" v="229190" />
	</node>
	<node lat="63.14382221908835" lon="7.956669434919531" id="-11173">
		<tag k="name" v="Bremsundet" />
		<tag k="natural" v="strait" />
		<tag k="ssr:stedsnr" v="229302" />
	</node>
	<node lat="63.241974996225565" lon="8.392900008016241" id="-11174">
		<tag k="name" v="Straumen" />
		<tag k="natural" v="strait" />
		<tag k="ssr:stedsnr" v="229084" />
	</node>
	<node lat="63.22461944094983" lon="8.554022230227185" id="-11175">
		<tag k="name" v="Spjøtnesflua" />
		<tag k="natural" v="shoal" />
		<tag k="place" v="locality" />
		<tag k="ssr:stedsnr" v="229205" />
	</node>
	<node lat="63.252052774104385" lon="8.550194448930423" id="-11176">
		<tag k="name" v="Gressetbukta" />
		<tag k="natural" v="bay" />
		<tag k="ssr:stedsnr" v="229208" />
	</node>
	<node lat="63.176716664042424" lon="8.17503612012257" id="-11180">
		<tag k="name" v="Sæterbukta" />
		<tag k="natural" v="bay" />
		<tag k="ssr:stedsnr" v="230135" />
	</node>
	<node lat="63.20714721956303" lon="8.405802785382818" id="-11181">
		<tag k="name" v="Ålmovågen" />
		<tag k="natural" v="bay" />
		<tag k="ssr:stedsnr" v="230136" />
	</node>
	<node lat="63.199972223137834" lon="8.178883341103235" id="-11182">
		<tag k="name" v="Grautneset" />
		<tag k="natural" v="cape" />
		<tag k="ssr:stedsnr" v="230317" />
	</node>
	<node lat="63.230197225910636" lon="8.257427782108335" id="-11183">
		<tag k="fixme" v="consider seamark:type=rock or natural=shoal" />
		<tag k="name" v="Stokkvikskjeret" />
		<tag k="place" v="islet" />
		<tag k="ssr:stedsnr" v="230504" />
	</node>
	<node lat="63.157113884943044" lon="7.870502785886406" id="-11187">
		<tag k="name" v="Litle Ramsøya" />
		<tag k="place" v="islet" />
		<tag k="ssr:stedsnr" v="230419" />
	</node>
	<node lat="63.16178610858018" lon="8.503394436585065" id="-11189">
		<tag k="name" v="Sør bukta" />
		<tag k="natural" v="bay" />
		<tag k="ssr:stedsnr" v="230423" />
	</node>
	<node lat="63.15259999603145" lon="7.907238880284011" id="-11190">
		<tag k="name" v="Sandvikneset" />
		<tag k="natural" v="cape" />
		<tag k="ssr:stedsnr" v="230424" />
	</node>
	<node lat="63.21568610850651" lon="8.263399991975756" id="-11191">
		<tag k="name" v="Djupbukta" />
		<tag k="natural" v="bay" />
		<tag k="ssr:stedsnr" v="230492" />
	</node>
	<node lat="63.34025000227504" lon="8.72200556345349" id="-11200">
		<tag k="name" v="Rusten" />
		<tag k="place" v="locality" />
		<tag k="seamark:type" v="rock" />
		<tag k="ssr:stedsnr" v="230733" />
	</node>
	<node lat="63.181208336483685" lon="8.31555832833148" id="-11201">
		<tag k="fixme" v="consider seamark:type=rock or natural=shoal" />
		<tag k="name" v="Krabbeskjeret" />
		<tag k="place" v="islet" />
		<tag k="ssr:stedsnr" v="230738" />
	</node>
	<node lat="63.16039166990406" lon="8.36085276981617" id="-11204">
		<tag k="alt_name" v="Bergeskjera" />
		<tag k="fixme" v="consider seamark:type=rock or natural=shoal" />
		<tag k="name" v="Bergeskjæret" />
		<tag k="place" v="islet" />
		<tag k="ssr:stedsnr" v="231109" />
	</node>
	<node lat="63.28961111411277" lon="8.496347218580603" id="-11206">
		<tag k="name" v="Maltsekken" />
		<tag k="place" v="islet" />
		<tag k="ssr:stedsnr" v="231143" />
	</node>
	<node lat="63.25921944660972" lon="8.511108327974645" id="-11210">
		<tag k="name" v="Lurvika" />
		<tag k="natural" v="bay" />
		<tag k="ssr:stedsnr" v="231478" />
	</node>
	<node lat="63.27473332939074" lon="8.324602780958548" id="-11214">
		<tag k="name" v="Steinholmen" />
		<tag k="place" v="islet" />
		<tag k="ssr:stedsnr" v="231939" />
	</node>
	<node lat="63.342244445810984" lon="8.70336110225401" id="-11227">
		<tag k="fixme" v="consider seamark:type=rock or natural=shoal" />
		<tag k="name" v="Langskjeret" />
		<tag k="place" v="islet" />
		<tag k="ssr:stedsnr" v="232079" />
	</node>
	<node lat="63.34386944575848" lon="8.532791656760413" id="-11229">
		<tag k="name" v="Djupvika" />
		<tag k="natural" v="bay" />
		<tag k="ssr:stedsnr" v="232086" />
	</node>
	<node lat="63.21819722297357" lon="8.578963883948004" id="-11254">
		<tag k="name" v="Hauganeset" />
		<tag k="natural" v="cape" />
		<tag k="ssr:stedsnr" v="255025" />
	</node>
	<node lat="63.3449694424019" lon="8.525083328936882" id="-11261">
		<tag k="name" v="Drageidet" />
		<tag k="place" v="locality" />
		<tag k="ssr:stedsnr" v="255166" />
	</node>
	<node lat="63.32131389113956" lon="8.537113896976269" id="-11267">
		<tag k="name" v="Geithalsen" />
		<tag k="natural" v="cape" />
		<tag k="ssr:stedsnr" v="255317" />
	</node>
	<node lat="63.27305555285721" lon="8.259274999569884" id="-11268">
		<tag k="name" v="Styrsøya" />
		<tag k="place" v="island" />
		<tag k="ssr:stedsnr" v="255263" />
	</node>
	<node lat="63.16658889140524" lon="7.8896611105061485" id="-11283">
		<tag k="name" v="Mjølkvikneset" />
		<tag k="natural" v="cape" />
		<tag k="ssr:stedsnr" v="290190" />
	</node>
	<node lat="63.161055555815075" lon="8.360536116862775" id="-11288">
		<tag k="alt_name" v="Bergebokta" />
		<tag k="name" v="Bergebukta" />
		<tag k="natural" v="bay" />
		<tag k="ssr:stedsnr" v="291085" />
	</node>
	<node lat="63.22599166377303" lon="8.1715083373099" id="-11297">
		<tag k="name" v="Tennskaget" />
		<tag k="natural" v="cape" />
		<tag k="ssr:stedsnr" v="291681" />
	</node>
	<node lat="63.26124722226686" lon="8.246852772107928" id="-11299">
		<tag k="fixme" v="consider seamark:type=rock or natural=shoal" />
		<tag k="name" v="Svaglasvågskjeret" />
		<tag k="place" v="islet" />
		<tag k="ssr:stedsnr" v="291698" />
	</node>
	<node lat="63.22561110874797" lon="8.206613895966422" id="-11302">
		<tag k="name" v="Bløktahammaren" />
		<tag k="natural" v="cape" />
		<tag k="ssr:stedsnr" v="291733" />
	</node>
	<node lat="63.240430557508645" lon="8.552475006450369" id="-11309">
		<tag k="name" v="Kjerringtåa" />
		<tag k="natural" v="cape" />
		<tag k="ssr:stedsnr" v="292081" />
	</node>
	<node lat="63.23702221789609" lon="8.390402783124767" id="-11315">
		<tag k="name" v="Innervika" />
		<tag k="natural" v="bay" />
		<tag k="ssr:stedsnr" v="292127" />
	</node>
	<node lat="63.24031388464042" lon="8.396888897322622" id="-11316">
		<tag k="name" v="Follbukta" />
		<tag k="natural" v="bay" />
		<tag k="ssr:stedsnr" v="292130" />
	</node>
	<node lat="63.41977500015875" lon="8.735405554750525" id="-11321">
		<tag k="name" v="Kjørsvikskaget" />
		<tag k="natural" v="cape" />
		<tag k="ssr:stedsnr" v="292628" />
	</node>
	<node lat="63.27148889326775" lon="8.271205549504806" id="-11328">
		<tag k="name" v="Styrsundet" />
		<tag k="natural" v="strait" />
		<tag k="ssr:stedsnr" v="292945" />
	</node>
	<node lat="63.26227499735874" lon="8.327516672946041" id="-11329">
		<tag k="fixme" v="consider seamark:type=rock or natural=shoal" />
		<tag k="name" v="Aranesskjeret" />
		<tag k="place" v="islet" />
		<tag k="ssr:stedsnr" v="292987" />
	</node>
	<node lat="63.3164750009629" lon="8.359952781445344" id="-11344">
		<tag k="alt_name" v="Store Morvikholmen" />
		<tag k="name" v="Morvikholmen" />
		<tag k="place" v="islet" />
		<tag k="ssr:stedsnr" v="315156" />
	</node>
	<node lat="63.32538610817726" lon="8.653025001572468" id="-11345">
		<tag k="name" v="Romundsetholmen" />
		<tag k="natural" v="cape" />
		<tag k="ssr:stedsnr" v="315164" />
	</node>
	<node lat="63.22701944149743" lon="8.515316667810108" id="-11356">
		<tag k="name" v="Mjosundet" />
		<tag k="natural" v="strait" />
		<tag k="ssr:stedsnr" v="316062" />
	</node>
	<node lat="63.315475003653425" lon="8.572875006733366" id="-11357">
		<tag k="name" v="Grøtneset" />
		<tag k="natural" v="cape" />
		<tag k="ssr:stedsnr" v="316402" />
	</node>
	<node lat="63.34973055953526" lon="8.469399996039783" id="-11369">
		<tag k="name" v="Sandvikflua" />
		<tag k="natural" v="shoal" />
		<tag k="place" v="locality" />
		<tag k="ssr:stedsnr" v="471238" />
	</node>
	<node lat="63.359455555092204" lon="8.440216657329422" id="-11370">
		<tag k="name" v="Friskjærfløin" />
		<tag k="natural" v="shoal" />
		<tag k="place" v="locality" />
		<tag k="ssr:stedsnr" v="471525" />
	</node>
	<node lat="63.15570278189" lon="7.950955547478968" id="-11371">
		<tag k="name" v="Skagvikbukta" />
		<tag k="natural" v="bay" />
		<tag k="ssr:stedsnr" v="472140" />
	</node>
	<node lat="63.197372222801576" lon="7.897355546165546" id="-11372">
		<tag k="fixme" v="consider seamark:type=rock or natural=shoal" />
		<tag k="name" v="Linvågsvortna" />
		<tag k="place" v="islet" />
		<tag k="ssr:stedsnr" v="472143" />
	</node>
	<node lat="63.19482499777092" lon="8.311308327989263" id="-11373">
		<tag k="name" v="Myrbukta" />
		<tag k="natural" v="bay" />
		<tag k="ssr:stedsnr" v="473065" />
	</node>
	<node lat="63.20272421262217" lon="8.292470735204768" id="-11374">
		<tag k="name" v="Måvika" />
		<tag k="natural" v="bay" />
		<tag k="ssr:stedsnr" v="473068" />
	</node>
	<node lat="63.20456389192086" lon="7.953774990467986" id="-11375">
		<tag k="fixme" v="consider seamark:type=rock or natural=shoal" />
		<tag k="name" v="Heimskjeret" />
		<tag k="place" v="islet" />
		<tag k="ssr:stedsnr" v="473079" />
	</node>
	<node lat="63.1987638888939" lon="7.96492778086894" id="-11376">
		<tag k="name" v="Gautøybukta" />
		<tag k="natural" v="bay" />
		<tag k="ssr:stedsnr" v="473080" />
	</node>
	<node lat="63.26088055433583" lon="8.223811109737207" id="-11377">
		<tag k="fixme" v="consider seamark:type=rock or natural=shoal" />
		<tag k="name" v="Gråskjæret" />
		<tag k="place" v="islet" />
		<tag k="ssr:stedsnr" v="340446" />
	</node>
	<node lat="63.24901944632859" lon="8.25848056337596" id="-11378">
		<tag k="fixme" v="multiple name tags, choose one and add the other to alt_name" />
		<tag k="name" v="Langnesholmen;Lanesholmen" />
		<tag k="place" v="islet" />
		<tag k="ssr:stedsnr" v="340450" />
	</node>
	<node lat="63.23185555799491" lon="8.121158325462456" id="-11379">
		<tag k="name" v="Sandvikbukta" />
		<tag k="natural" v="bay" />
		<tag k="ssr:stedsnr" v="472644" />
	</node>
	<node lat="63.196411109911985" lon="7.966452776276851" id="-11384">
		<tag k="name" v="Mariholmen" />
		<tag k="place" v="islet" />
		<tag k="ssr:stedsnr" v="473087" />
	</node>
	<node lat="63.17453888923616" lon="8.176144448372945" id="-11390">
		<tag k="name" v="Sæterholmen" />
		<tag k="natural" v="bay" />
		<tag k="ssr:stedsnr" v="473187" />
	</node>
	<node lat="63.364630552101865" lon="8.50668056266126" id="-11395">
		<tag k="name" v="Bryggholmen" />
		<tag k="place" v="islet" />
		<tag k="ssr:stedsnr" v="473285" />
	</node>
	<node lat="63.30595278046061" lon="8.45686111973161" id="-11396">
		<tag k="name" v="Tjæråbløkta" />
		<tag k="natural" v="bay" />
		<tag k="ssr:stedsnr" v="473287" />
	</node>
	<node lat="63.198825001201584" lon="7.847924991956857" id="-11399">
		<tag k="bay" v="fjord" />
		<tag k="name" v="Ytrefjorden" />
		<tag k="natural" v="bay" />
		<tag k="ssr:stedsnr" v="473441" />
	</node>
	<node lat="63.16363332907487" lon="8.188947225164895" id="-11403">
		<tag k="name" v="Åsneset" />
		<tag k="natural" v="cape" />
		<tag k="ssr:stedsnr" v="473472" />
	</node>
	<node lat="63.25437222539405" lon="8.27278610991351" id="-11409">
		<tag k="name" v="Isvika" />
		<tag k="natural" v="bay" />
		<tag k="ssr:stedsnr" v="473625" />
	</node>
	<node lat="63.34611389020198" lon="8.727522229234228" id="-11415">
		<tag k="fixme" v="consider seamark:type=rock or natural=shoal" />
		<tag k="name" v="Brørne" />
		<tag k="place" v="islet" />
		<tag k="ssr:stedsnr" v="473879" />
	</node>
	<node lat="63.152522218807114" lon="8.118836102809253" id="-11417">
		<tag k="name" v="Segelråa" />
		<tag k="natural" v="bay" />
		<tag k="ssr:stedsnr" v="473851" />
	</node>
	<node lat="63.224241666523454" lon="8.58257778196449" id="-11418">
		<tag k="name" v="Bjøringvikan" />
		<tag k="natural" v="bay" />
		<tag k="ssr:stedsnr" v="474729" />
	</node>
	<node lat="63.17361944193685" lon="8.340133337199704" id="-11419">
		<tag k="name" v="Litleklavbukta" />
		<tag k="natural" v="bay" />
		<tag k="ssr:stedsnr" v="473987" />
	</node>
	<node lat="63.20351667120892" lon="7.954466671534145" id="-11420">
		<tag k="name" v="Litl-Ringholmen" />
		<tag k="place" v="islet" />
		<tag k="ssr:stedsnr" v="473997" />
	</node>
	<node lat="63.262641663448946" lon="8.307086118326806" id="-11422">
		<tag k="name" v="Inner Seterneset" />
		<tag k="natural" v="cape" />
		<tag k="ssr:stedsnr" v="473938" />
	</node>
	<node lat="63.33549166514455" lon="8.569325008512774" id="-11423">
		<tag k="name" v="Vorpbugen" />
		<tag k="natural" v="bay" />
		<tag k="ssr:stedsnr" v="474033" />
	</node>
	<node lat="63.22801388844901" lon="8.385986115613637" id="-11425">
		<tag k="name" v="Ytter Kvitneset" />
		<tag k="natural" v="cape" />
		<tag k="ssr:stedsnr" v="474063" />
	</node>
	<node lat="63.16394444289164" lon="8.309288880475039" id="-11430">
		<tag k="name" v="Storvika" />
		<tag k="natural" v="bay" />
		<tag k="ssr:stedsnr" v="351152" />
	</node>
	<node lat="63.15704166921038" lon="7.8870861095307525" id="-11432">
		<tag k="name" v="Valvika" />
		<tag k="natural" v="bay" />
		<tag k="ssr:stedsnr" v="351168" />
	</node>
	<node lat="63.14274166789166" lon="7.96715554586856" id="-11433">
		<tag k="name" v="Kråkerøy" />
		<tag k="place" v="islet" />
		<tag k="ssr:stedsnr" v="351310" />
	</node>
	<node lat="63.239325000078956" lon="8.11514167014579" id="-11434">
		<tag k="fixme" v="consider seamark:type=rock or natural=shoal" />
		<tag k="name" v="Oddskjæra" />
		<tag k="place" v="islet" />
		<tag k="ssr:stedsnr" v="351311" />
	</node>
	<node lat="63.18857777824542" lon="8.643880563328766" id="-11437">
		<tag k="name" v="Pershamna" />
		<tag k="natural" v="bay" />
		<tag k="ssr:stedsnr" v="474191" />
	</node>
	<node lat="63.215319446691794" lon="8.146061103544486" id="-11446">
		<tag k="fixme" v="consider seamark:type=rock or natural=shoal" />
		<tag k="name" v="Klubben" />
		<tag k="place" v="islet" />
		<tag k="ssr:stedsnr" v="351665" />
	</node>
	<node lat="63.217127781118315" lon="8.261324991429763" id="-11449">
		<tag k="alt_name" v="Hestvika" />
		<tag k="name" v="Hestbukta" />
		<tag k="natural" v="bay" />
		<tag k="ssr:stedsnr" v="351511" />
	</node>
	<node lat="63.364916666632595" lon="8.681041663087228" id="-11450">
		<tag k="name" v="Vikaflua" />
		<tag k="natural" v="shoal" />
		<tag k="place" v="locality" />
		<tag k="ssr:stedsnr" v="351855" />
	</node>
	<node lat="63.17349722195239" lon="7.900183323429498" id="-11451">
		<tag k="name" v="Randholmen" />
		<tag k="place" v="islet" />
		<tag k="ssr:stedsnr" v="351882" />
	</node>
	<node lat="63.31444444180715" lon="8.480638893367603" id="-11454">
		<tag k="name" v="Svaet" />
		<tag k="natural" v="bay" />
		<tag k="ssr:stedsnr" v="352257" />
	</node>
	<node lat="63.26679166533282" lon="8.500702775828447" id="-11455">
		<tag k="name" v="Skiphamnbukta" />
		<tag k="natural" v="bay" />
		<tag k="ssr:stedsnr" v="352405" />
	</node>
	<node lat="63.38743333427457" lon="8.54731389372025" id="-11461">
		<tag k="fixme" v="consider seamark:type=rock or natural=shoal" />
		<tag k="name" v="Skjera" />
		<tag k="place" v="islet" />
		<tag k="ssr:stedsnr" v="352803" />
	</node>
	<node lat="63.267166664155795" lon="8.370886102963263" id="-11466">
		<tag k="name" v="Slyngsteinbugen" />
		<tag k="natural" v="bay" />
		<tag k="ssr:stedsnr" v="352761" />
	</node>
	<node lat="63.25725000447298" lon="8.260352777562586" id="-11469">
		<tag k="name" v="Ytter bukta" />
		<tag k="natural" v="bay" />
		<tag k="ssr:stedsnr" v="352954" />
	</node>
	<node lat="63.38397777360379" lon="8.626691660140294" id="-11471">
		<tag k="name" v="Metterbukta" />
		<tag k="natural" v="bay" />
		<tag k="ssr:stedsnr" v="353105" />
	</node>
	<node lat="63.33728333035999" lon="8.756177782759604" id="-11476">
		<tag k="name" v="Bulibukta" />
		<tag k="natural" v="bay" />
		<tag k="ssr:stedsnr" v="353160" />
	</node>
	<node lat="63.229047222656696" lon="8.529302780469221" id="-11480">
		<tag k="fixme" v="consider seamark:type=rock or natural=shoal" />
		<tag k="name" v="Kalvikskjeret" />
		<tag k="place" v="islet" />
		<tag k="ssr:stedsnr" v="353705" />
	</node>
	<node lat="63.22406388862745" lon="8.54073612038047" id="-11481">
		<tag k="name" v="Geitavika" />
		<tag k="natural" v="bay" />
		<tag k="ssr:stedsnr" v="353707" />
	</node>
	<node lat="63.31955277632219" lon="8.660794444864829" id="-11485">
		<tag k="name" v="Stakkneset" />
		<tag k="natural" v="cape" />
		<tag k="ssr:stedsnr" v="353953" />
	</node>
	<node lat="63.42009166297361" lon="8.729702776195563" id="-11486">
		<tag k="fixme" v="consider seamark:type=rock or natural=shoal" />
		<tag k="name" v="Notskjeret" />
		<tag k="place" v="islet" />
		<tag k="ssr:stedsnr" v="353667" />
	</node>
	<node lat="63.28793055125655" lon="8.522822217965501" id="-11488">
		<tag k="name" v="Hallarbukta" />
		<tag k="natural" v="cape" />
		<tag k="ssr:stedsnr" v="353807" />
	</node>
	<node lat="63.41651944136496" lon="8.711122218595225" id="-11495">
		<tag k="fixme" v="consider seamark:type=rock or natural=shoal" />
		<tag k="name" v="Vikaskjeret" />
		<tag k="place" v="islet" />
		<tag k="ssr:stedsnr" v="474656" />
	</node>
	<node lat="63.30623055420771" lon="8.55084722300968" id="-11503">
		<tag k="loc_name" v="Eidsstranda" />
		<tag k="name" v="Eidestranda" />
		<tag k="natural" v="beach" />
		<tag k="ssr:stedsnr" v="475279" />
	</node>
	<node lat="63.19321388626586" lon="8.732894439793665" id="-11507">
		<tag k="name" v="Hommelvika" />
		<tag k="natural" v="bay" />
		<tag k="ssr:stedsnr" v="475429" />
	</node>
	<node lat="63.22919999838771" lon="8.568800000881586" id="-11518">
		<tag k="name" v="Øygardskaget" />
		<tag k="natural" v="cape" />
		<tag k="ssr:stedsnr" v="475686" />
	</node>
	<node lat="63.34529999773127" lon="8.79454444636052" id="-11523">
		<tag k="name" v="Krabbhylltåa" />
		<tag k="natural" v="cape" />
		<tag k="ssr:stedsnr" v="475866" />
	</node>
	<node lat="63.15780072455049" lon="8.189536718696555" id="-11535">
		<tag k="alt_name" v="Halsneset" />
		<tag k="name" v="Halsnes" />
		<tag k="natural" v="cape" />
		<tag k="ssr:stedsnr" v="376308" />
	</node>
	<node lat="63.35674166841722" lon="8.691261106691805" id="-11538">
		<tag k="name" v="Ulvsnesbukta" />
		<tag k="natural" v="bay" />
		<tag k="ssr:stedsnr" v="376226" />
	</node>
	<node lat="63.27031944056303" lon="8.264030554829235" id="-11557">
		<tag k="name" v="Indre Styrsundet" />
		<tag k="natural" v="strait" />
		<tag k="ssr:stedsnr" v="401282" />
	</node>
	<node lat="63.14000833035719" lon="7.947347220160511" id="-11558">
		<tag k="name" v="Seisundet" />
		<tag k="natural" v="strait" />
		<tag k="ssr:stedsnr" v="412309" />
	</node>
	<node lat="63.24508889289826" lon="8.194113883738112" id="-11560">
		<tag k="name" v="Vorpneset" />
		<tag k="natural" v="cape" />
		<tag k="ssr:stedsnr" v="412538" />
	</node>
	<node lat="63.159472219172216" lon="8.490069443581836" id="-11565">
		<tag k="name" v="Haganesbukta" />
		<tag k="natural" v="bay" />
		<tag k="ssr:stedsnr" v="412398" />
	</node>
	<node lat="63.14506111462382" lon="7.919330554435926" id="-11566">
		<tag k="name" v="Vaholmflua" />
		<tag k="natural" v="shoal" />
		<tag k="place" v="locality" />
		<tag k="ssr:stedsnr" v="412402" />
	</node>
	<node lat="63.254036114008244" lon="8.176813889989505" id="-11569">
		<tag k="name" v="Ramshola" />
		<tag k="natural" v="bay" />
		<tag k="ssr:stedsnr" v="412459" />
	</node>
	<node lat="63.162291665989386" lon="8.436836112820735" id="-11573">
		<tag k="name" v="Gjerdavika" />
		<tag k="natural" v="bay" />
		<tag k="ssr:stedsnr" v="412790" />
	</node>
	<node lat="63.184025000395856" lon="8.373997216891919" id="-11575">
		<tag k="name" v="Kjeilen" />
		<tag k="natural" v="bay" />
		<tag k="ssr:stedsnr" v="412992" />
	</node>
	<node lat="63.21283889134373" lon="8.269691671946463" id="-11577">
		<tag k="name" v="Hjellbukta" />
		<tag k="natural" v="bay" />
		<tag k="ssr:stedsnr" v="413042" />
	</node>
	<node lat="63.162597225524806" lon="8.353152776075044" id="-11578">
		<tag k="name" v="Sør-Bergebukta" />
		<tag k="natural" v="bay" />
		<tag k="ssr:stedsnr" v="413089" />
	</node>
	<node lat="63.18086944746097" lon="8.186286120758735" id="-11583">
		<tag k="name" v="Storvika" />
		<tag k="natural" v="bay" />
		<tag k="ssr:stedsnr" v="413186" />
	</node>
	<node lat="63.259747223646976" lon="8.38576387890505" id="-11586">
		<tag k="name" v="Straumskaget" />
		<tag k="natural" v="cape" />
		<tag k="ssr:stedsnr" v="413404" />
	</node>
	<node lat="63.189138890280056" lon="8.619424993669186" id="-11588">
		<tag k="name" v="Skaget" />
		<tag k="natural" v="cape" />
		<tag k="ssr:stedsnr" v="413602" />
	</node>
	<node lat="63.222833330446" lon="8.582613882900418" id="-11590">
		<tag k="name" v="Gammelhaugtåa" />
		<tag k="natural" v="cape" />
		<tag k="ssr:stedsnr" v="413735" />
	</node>
	<node lat="63.224824997677274" lon="8.201469436795902" id="-11591">
		<tag k="name" v="Storkista" />
		<tag k="natural" v="cape" />
		<tag k="ssr:stedsnr" v="413745" />
	</node>
	<node lat="63.189086112197884" lon="7.878008340735478" id="-11594">
		<tag k="fixme" v="consider seamark:type=rock or natural=shoal" />
		<tag k="name" v="Tvillingskjeret" />
		<tag k="place" v="islet" />
		<tag k="ssr:stedsnr" v="413890" />
	</node>
	<node lat="63.31059722272779" lon="8.358633325388718" id="-11595">
		<tag k="name" v="Draugholmen" />
		<tag k="place" v="islet" />
		<tag k="ssr:stedsnr" v="413993" />
	</node>
	<node lat="63.19409444263845" lon="8.674472213316468" id="-11602">
		<tag k="name" v="Todalsbukta" />
		<tag k="natural" v="bay" />
		<tag k="ssr:stedsnr" v="414294" />
	</node>
	<node lat="63.193258333584815" lon="8.606947215569567" id="-11605">
		<tag k="name" v="Oksbåsen" />
		<tag k="natural" v="bay" />
		<tag k="ssr:stedsnr" v="414195" />
	</node>
	<node lat="63.21241389092855" lon="8.245436103978534" id="-11616">
		<tag k="name" v="Storneset" />
		<tag k="natural" v="cape" />
		<tag k="ssr:stedsnr" v="414903" />
	</node>
	<node lat="63.204663890247154" lon="8.256772213083817" id="-11617">
		<tag k="name" v="Breidneset" />
		<tag k="natural" v="cape" />
		<tag k="ssr:stedsnr" v="414904" />
	</node>
	<node lat="63.33447499939507" lon="8.497877775483015" id="-11633">
		<tag k="name" v="Lesundøya" />
		<tag k="place" v="island" />
		<tag k="ssr:stedsnr" v="437167" />
	</node>
	<node lat="63.25639166958168" lon="8.3303111161749" id="-11640">
		<tag k="name" v="Sagvågen" />
		<tag k="natural" v="bay" />
		<tag k="ssr:stedsnr" v="437321" />
	</node>
	<node lat="63.35350277339124" lon="8.501402772999553" id="-11642">
		<tag k="name" v="Storholmen" />
		<tag k="natural" v="cape" />
		<tag k="ssr:stedsnr" v="437249" />
	</node>
	<node lat="63.37210555845832" lon="8.651525006443073" id="-11643">
		<tag k="name" v="Hennholhammaren" />
		<tag k="natural" v="cape" />
		<tag k="ssr:stedsnr" v="437265" />
	</node>
	<node lat="63.31993709214833" lon="8.62617692142676" id="-11647">
		<tag k="name" v="Torsetsundet" />
		<tag k="natural" v="strait" />
		<tag k="ssr:stedsnr" v="437353" />
	</node>
	<node lat="63.25583889336705" lon="8.161086106221221" id="-11660">
		<tag k="name" v="Stabbflua" />
		<tag k="natural" v="shoal" />
		<tag k="place" v="locality" />
		<tag k="ssr:stedsnr" v="461114" />
	</node>
	<node lat="63.28520555628464" lon="8.476108339342021" id="-11661">
		<tag k="name" v="Flistaren" />
		<tag k="natural" v="shoal" />
		<tag k="place" v="locality" />
		<tag k="ssr:stedsnr" v="471186" />
	</node>
	<node lat="63.15401111078976" lon="7.970741671567483" id="-11663">
		<tag k="name" v="Arnvikleira" />
		<tag k="natural" v="shoal" />
		<tag k="place" v="locality" />
		<tag k="ssr:stedsnr" v="472168" />
	</node>
	<node lat="63.153877774005174" lon="7.900730548740725" id="-11664">
		<tag k="name" v="Prestholmen" />
		<tag k="place" v="islet" />
		<tag k="ssr:stedsnr" v="472172" />
	</node>
	<node lat="63.24620833079789" lon="8.551599998192032" id="-11669">
		<tag k="name" v="Gressetvikan" />
		<tag k="natural" v="bay" />
		<tag k="ssr:stedsnr" v="473114" />
	</node>
	<node lat="63.19109999738068" lon="7.89700555892493" id="-11673">
		<tag k="name" v="Indre Skarvskjærståga" />
		<tag k="natural" v="shoal" />
		<tag k="place" v="locality" />
		<tag k="ssr:stedsnr" v="473423" />
	</node>
	<node lat="63.24520832977499" lon="8.278575009733437" id="-11676">
		<tag k="name" v="Ytre Vågen" />
		<tag k="natural" v="bay" />
		<tag k="ssr:stedsnr" v="473619" />
	</node>
	<node lat="63.221044442421125" lon="8.049511115027713" id="-11678">
		<tag k="name" v="Meltaren" />
		<tag k="natural" v="shoal" />
		<tag k="place" v="locality" />
		<tag k="ssr:stedsnr" v="473622" />
	</node>
	<node lat="63.26118888729201" lon="8.251333332845432" id="-11680">
		<tag k="name" v="Gråneset" />
		<tag k="natural" v="cape" />
		<tag k="ssr:stedsnr" v="473704" />
	</node>
	<node lat="63.145058337674165" lon="8.052483341387234" id="-11683">
		<tag k="name" v="Slåvika" />
		<tag k="natural" v="bay" />
		<tag k="ssr:stedsnr" v="473770" />
	</node>
	<node lat="63.282741665525805" lon="8.492655558301712" id="-11686">
		<tag k="name" v="Skjelsundet" />
		<tag k="natural" v="strait" />
		<tag k="ssr:stedsnr" v="474105" />
	</node>
	<node lat="63.277411107530405" lon="8.419455559139406" id="-11689">
		<tag k="name" v="Røviksanden" />
		<tag k="natural" v="beach" />
		<tag k="ssr:stedsnr" v="474396" />
	</node>
	<node lat="63.16009167029765" lon="8.392286101472727" id="-11690">
		<tag k="name" v="Skjerjevika" />
		<tag k="natural" v="bay" />
		<tag k="ssr:stedsnr" v="474820" />
	</node>
	<node lat="63.17236389244519" lon="8.320019448007628" id="-11692">
		<tag k="name" v="Naustneset" />
		<tag k="natural" v="cape" />
		<tag k="ssr:stedsnr" v="474906" />
	</node>
	<node lat="63.35662777808063" lon="8.706755548122967" id="-11695">
		<tag k="name" v="Geiturskaget" />
		<tag k="natural" v="cape" />
		<tag k="ssr:stedsnr" v="475017" />
	</node>
	<node lat="63.19918055376607" lon="8.577488898177588" id="-11696">
		<tag k="name" v="Hammartåa" />
		<tag k="natural" v="cape" />
		<tag k="ssr:stedsnr" v="475174" />
	</node>
	<node lat="63.31303333276404" lon="8.596666658863592" id="-11701">
		<tag k="fixme" v="consider seamark:type=rock or natural=shoal" />
		<tag k="name" v="Veaskjeret" />
		<tag k="place" v="islet" />
		<tag k="ssr:stedsnr" v="475609" />
	</node>
	<node lat="63.22852500054995" lon="8.528938893194471" id="-11702">
		<tag k="name" v="Ostervikbukta" />
		<tag k="natural" v="bay" />
		<tag k="ssr:stedsnr" v="475707" />
	</node>
	<node lat="63.332186109183596" lon="8.38471943678961" id="-11709">
		<tag k="name" v="Grisvågbåen" />
		<tag k="natural" v="shoal" />
		<tag k="place" v="locality" />
		<tag k="ssr:stedsnr" v="679168" />
	</node>
	<node lat="63.3335250043283" lon="8.431591670539175" id="-11710">
		<tag k="name" v="Aukskaget" />
		<tag k="natural" v="cape" />
		<tag k="ssr:stedsnr" v="679131" />
	</node>
	<node lat="63.357099999720795" lon="8.498041672610116" id="-11711">
		<tag k="name" v="Livsneset" />
		<tag k="natural" v="cape" />
		<tag k="ssr:stedsnr" v="679202" />
	</node>
	<node lat="63.27188611316158" lon="8.512694438094817" id="-11714">
		<tag k="name" v="Barlauphammaren" />
		<tag k="natural" v="cape" />
		<tag k="ssr:stedsnr" v="679234" />
	</node>
	<node lat="63.16171944091609" lon="8.109150008657794" id="-11715">
		<tag k="name" v="Tustna" />
		<tag k="place" v="island" />
		<tag k="ssr:stedsnr" v="679246" />
	</node>
	<node lat="63.26239444688016" lon="8.212074990799891" id="-11719">
		<tag k="name" v="Keipholmen" />
		<tag k="old_name" v="Kjeppholmen;Kjepholmen" />
		<tag k="place" v="islet" />
		<tag k="ssr:stedsnr" v="679901" />
	</node>
	<node lat="63.23223889172268" lon="8.243961113014256" id="-11722">
		<tag k="loc_name" v="Henriksøya" />
		<tag k="name" v="Henrikøya" />
		<tag k="old_name" v="Henrikø" />
		<tag k="place" v="islet" />
		<tag k="ssr:stedsnr" v="680041" />
	</node>
	<node lat="63.399744442553285" lon="8.618519443927132" id="-11724">
		<tag k="fixme" v="consider seamark:type=rock or natural=shoal" />
		<tag k="name" v="Galten" />
		<tag k="place" v="islet" />
		<tag k="ssr:stedsnr" v="680051" />
	</node>
	<node lat="63.39630555601095" lon="8.5924249997472" id="-11725">
		<tag k="alt_name" v="Skipnesflua" />
		<tag k="name" v="Skipnestaren" />
		<tag k="natural" v="shoal" />
		<tag k="place" v="locality" />
		<tag k="ssr:stedsnr" v="680052" />
	</node>
	<node lat="63.161325002332376" lon="8.357341658097775" id="-11729">
		<tag k="name" v="Bergeneset" />
		<tag k="natural" v="cape" />
		<tag k="ssr:stedsnr" v="680082" />
	</node>
	<node lat="63.14175278034283" lon="8.034486104615153" id="-11734">
		<tag k="name" v="Haganeset" />
		<tag k="natural" v="cape" />
		<tag k="ssr:stedsnr" v="680287" />
	</node>
	<node lat="63.14723333475374" lon="7.935897218001124" id="-11745">
		<tag k="alt_name" v="Store Fårøya;Forrøya" />
		<tag k="name" v="Furøya" />
		<tag k="place" v="islet" />
		<tag k="ssr:stedsnr" v="680345" />
	</node>
	<node lat="63.277016663664924" lon="8.313438896981534" id="-11759">
		<tag k="alt_name" v="Skarvholmen" />
		<tag k="name" v="Ramnholmen" />
		<tag k="place" v="islet" />
		<tag k="ssr:stedsnr" v="497249" />
	</node>
	<node lat="63.27476110992934" lon="8.324324994887359" id="-11760">
		<tag k="name" v="Knubbholmen" />
		<tag k="place" v="islet" />
		<tag k="ssr:stedsnr" v="497250" />
	</node>
	<node lat="63.26475277518589" lon="8.354841663813882" id="-11764">
		<tag k="name" v="Kvernavågen" />
		<tag k="natural" v="bay" />
		<tag k="ssr:stedsnr" v="497262" />
	</node>
	<node lat="63.25576111284503" lon="8.492491673606454" id="-11765">
		<tag k="name" v="Storbukta" />
		<tag k="natural" v="bay" />
		<tag k="ssr:stedsnr" v="497296" />
	</node>
	<node lat="63.40752500123548" lon="8.653375004793421" id="-11768">
		<tag k="name" v="Storvika" />
		<tag k="natural" v="bay" />
		<tag k="ssr:stedsnr" v="498051" />
	</node>
	<node lat="63.40217499830376" lon="8.65161665969197" id="-11769">
		<tag k="name" v="Skarpneset" />
		<tag k="natural" v="cape" />
		<tag k="ssr:stedsnr" v="498053" />
	</node>
	<node lat="63.24104166597031" lon="8.235330553692682" id="-11770">
		<tag k="alt_name" v="Kunnøya" />
		<tag k="name" v="Kunna" />
		<tag k="place" v="islet" />
		<tag k="ssr:stedsnr" v="498064" />
	</node>
	<node lat="63.2201916711906" lon="8.55293611577229" id="-11780">
		<tag k="name" v="Vorpnesflua" />
		<tag k="natural" v="shoal" />
		<tag k="place" v="locality" />
		<tag k="ssr:stedsnr" v="532175" />
	</node>
	<node lat="63.22954166507264" lon="8.569327768355793" id="-11781">
		<tag k="name" v="Øygardneset" />
		<tag k="natural" v="cape" />
		<tag k="ssr:stedsnr" v="532176" />
	</node>
	<node lat="63.1558611070164" lon="7.935616672688727" id="-11782">
		<tag k="name" v="Klokkvika" />
		<tag k="natural" v="bay" />
		<tag k="ssr:stedsnr" v="533332" />
	</node>
	<node lat="63.20150833270165" lon="8.003630561487066" id="-11783">
		<tag k="name" v="Storbåtvika" />
		<tag k="natural" v="bay" />
		<tag k="ssr:stedsnr" v="533338" />
	</node>
	<node lat="63.201197220446296" lon="8.162455555617017" id="-11784">
		<tag k="name" v="Langvika" />
		<tag k="natural" v="bay" />
		<tag k="ssr:stedsnr" v="533271" />
	</node>
	<node lat="63.25018333216257" lon="8.172541676153156" id="-11787">
		<tag k="name" v="Skrubbholmen" />
		<tag k="place" v="islet" />
		<tag k="ssr:stedsnr" v="533504" />
	</node>
	<node lat="63.17086871482727" lon="7.88892619940747" id="-11794">
		<tag k="alt_name" v="Nordre Hestøy" />
		<tag k="name" v="Nordre Hestøya" />
		<tag k="place" v="island" />
		<tag k="ssr:stedsnr" v="533916" />
	</node>
	<node lat="63.17243610718316" lon="8.18640278279828" id="-11803">
		<tag k="alt_name" v="Inderbergskjeret" />
		<tag k="fixme" v="consider seamark:type=rock or natural=shoal" />
		<tag k="name" v="Innerbergskjæret" />
		<tag k="place" v="islet" />
		<tag k="ssr:stedsnr" v="534175" />
	</node>
	<node lat="63.14544722129689" lon="8.06071111613436" id="-11814">
		<tag k="name" v="Akavika" />
		<tag k="natural" v="bay" />
		<tag k="ssr:stedsnr" v="534767" />
	</node>
	<node lat="63.22478888957216" lon="8.189277770566214" id="-11817">
		<tag k="name" v="Litlmolta" />
		<tag k="place" v="islet" />
		<tag k="ssr:stedsnr" v="534686" />
	</node>
	<node lat="63.19028055210363" lon="7.914874990560162" id="-11823">
		<tag k="name" v="Erskfallet" />
		<tag k="natural" v="shoal" />
		<tag k="place" v="locality" />
		<tag k="ssr:stedsnr" v="534876" />
	</node>
	<node lat="63.33609444713029" lon="8.572294437078847" id="-11824">
		<tag k="name" v="Mjølkvika" />
		<tag k="natural" v="bay" />
		<tag k="ssr:stedsnr" v="535021" />
	</node>
	<node lat="63.32414444333251" lon="8.628758341813136" id="-11827">
		<tag k="name" v="Eineset" />
		<tag k="natural" v="cape" />
		<tag k="ssr:stedsnr" v="535475" />
	</node>
	<node lat="63.20200833722798" lon="8.563794448219276" id="-11829">
		<tag k="name" v="Yttre Lindåsbukta" />
		<tag k="natural" v="bay" />
		<tag k="ssr:stedsnr" v="535704" />
	</node>
	<node lat="63.28688333750341" lon="8.515352774042029" id="-11836">
		<tag k="name" v="Hamna" />
		<tag k="natural" v="bay" />
		<tag k="ssr:stedsnr" v="535810" />
	</node>
	<node lat="63.16456667062441" lon="8.345516672335208" id="-11843">
		<tag k="name" v="Steinsneset" />
		<tag k="natural" v="cape" />
		<tag k="ssr:stedsnr" v="558109" />
	</node>
	<node lat="63.386950003521356" lon="8.663266660092335" id="-11873">
		<tag k="name" v="Dromnesbukta" />
		<tag k="natural" v="bay" />
		<tag k="ssr:stedsnr" v="559192" />
	</node>
	<node lat="63.269550003646835" lon="8.383333335320371" id="-11878">
		<tag k="name" v="Karitaren" />
		<tag k="place" v="locality" />
		<tag k="seamark:type" v="rock" />
		<tag k="ssr:stedsnr" v="592071" />
	</node>
	<node lat="63.299841666972874" lon="8.35294444880118" id="-11879">
		<tag k="name" v="Skafferiet" />
		<tag k="natural" v="shoal" />
		<tag k="place" v="locality" />
		<tag k="ssr:stedsnr" v="592073" />
	</node>
	<node lat="63.404844445917846" lon="8.634772217339583" id="-11881">
		<tag k="name" v="Storflua" />
		<tag k="natural" v="shoal" />
		<tag k="place" v="locality" />
		<tag k="ssr:stedsnr" v="592862" />
	</node>
	<node lat="63.19049167098404" lon="8.654338884545098" id="-11884">
		<tag k="name" v="Porkvika" />
		<tag k="natural" v="bay" />
		<tag k="ssr:stedsnr" v="593963" />
	</node>
	<node lat="63.163791663320715" lon="7.865019452503462" id="-11888">
		<tag k="name" v="Daumannsøya" />
		<tag k="place" v="island" />
		<tag k="ssr:stedsnr" v="594414" />
	</node>
	<node lat="63.28091388685142" lon="8.317775000719852" id="-11889">
		<tag k="name" v="Steinholman" />
		<tag k="place" v="islet" />
		<tag k="ssr:stedsnr" v="594419" />
	</node>
	<node lat="63.32471944095223" lon="8.382886110087851" id="-11891">
		<tag k="name" v="Hampnesset" />
		<tag k="natural" v="cape" />
		<tag k="ssr:stedsnr" v="594454" />
	</node>
	<node lat="63.218344440882575" lon="8.046402771777364" id="-11892">
		<tag k="name" v="Litlvika" />
		<tag k="natural" v="bay" />
		<tag k="ssr:stedsnr" v="594603" />
	</node>
	<node lat="63.23903610966929" lon="8.270819445885204" id="-11893">
		<tag k="loc_name" v="Brandsvika" />
		<tag k="name" v="Brandvika" />
		<tag k="natural" v="bay" />
		<tag k="ssr:stedsnr" v="594604" />
	</node>
	<node lat="63.216041666800535" lon="8.143650009253042" id="-11897">
		<tag k="name" v="Knarrvikbukta" />
		<tag k="natural" v="bay" />
		<tag k="ssr:stedsnr" v="594654" />
	</node>
	<node lat="63.28560833113468" lon="8.498025008511823" id="-11904">
		<tag k="name" v="Grønvika" />
		<tag k="natural" v="bay" />
		<tag k="ssr:stedsnr" v="595102" />
	</node>
	<node lat="63.15519999807668" lon="8.186683335771109" id="-11915">
		<tag k="name" v="Kjerringvikskaget" />
		<tag k="natural" v="cape" />
		<tag k="ssr:stedsnr" v="595599" />
	</node>
	<node lat="63.19609167013271" lon="8.678527775552482" id="-11917">
		<tag k="name" v="Todalsvika" />
		<tag k="natural" v="bay" />
		<tag k="ssr:stedsnr" v="595658" />
	</node>
	<node lat="63.18794999714547" lon="8.321144447761899" id="-11920">
		<tag k="name" v="Fuglvågbukta" />
		<tag k="natural" v="bay" />
		<tag k="ssr:stedsnr" v="595863" />
	</node>
	<node lat="63.31849444203591" lon="8.642666669006868" id="-11922">
		<tag k="name" v="Storskjeret" />
		<tag k="natural" v="cape" />
		<tag k="ssr:stedsnr" v="595960" />
	</node>
	<node lat="63.32871111417434" lon="8.702297216186993" id="-11927">
		<tag k="name" v="Holmen" />
		<tag k="place" v="islet" />
		<tag k="ssr:stedsnr" v="596218" />
	</node>
	<node lat="63.35443055767192" lon="8.509899992734335" id="-11945">
		<tag k="name" v="Mellandsvågen" />
		<tag k="natural" v="bay" />
		<tag k="ssr:stedsnr" v="618192" />
	</node>
	<node lat="63.34144999701164" lon="8.76593610478812" id="-11949">
		<tag k="alt_name" v="Hjelaneset" />
		<tag k="name" v="Gjelaneset" />
		<tag k="natural" v="cape" />
		<tag k="ssr:stedsnr" v="618527" />
	</node>
	<node lat="63.265150001603104" lon="8.314944435995892" id="-11958">
		<tag k="name" v="Sjåholmen" />
		<tag k="place" v="islet" />
		<tag k="ssr:stedsnr" v="619318" />
	</node>
	<node lat="63.2652249966566" lon="8.390972217094573" id="-11959">
		<tag k="name" v="Roksvågen" />
		<tag k="natural" v="bay" />
		<tag k="ssr:stedsnr" v="619326" />
	</node>
	<node lat="63.309275003713545" lon="8.468344451187658" id="-11962">
		<tag k="name" v="Korsneset" />
		<tag k="natural" v="cape" />
		<tag k="ssr:stedsnr" v="619375" />
	</node>
	<node lat="63.30393055969132" lon="8.534538894841285" id="-11963">
		<tag k="name" v="Eidsholmen" />
		<tag k="place" v="islet" />
		<tag k="ssr:stedsnr" v="619388" />
	</node>
	<node lat="63.191922223729165" lon="8.661622222457977" id="-11966">
		<tag k="name" v="Spjøtneset" />
		<tag k="natural" v="cape" />
		<tag k="ssr:stedsnr" v="619514" />
	</node>
	<node lat="63.15196388843157" lon="8.360866667025945" id="-11970">
		<tag k="name" v="Glomskallen" />
		<tag k="natural" v="shoal" />
		<tag k="place" v="locality" />
		<tag k="ssr:stedsnr" v="704792" />
	</node>
	<node lat="63.36102778030024" lon="8.420675006603531" id="-11972">
		<tag k="name" v="Friskjærtaren" />
		<tag k="place" v="locality" />
		<tag k="seamark:type" v="rock" />
		<tag k="ssr:stedsnr" v="653507" />
	</node>
	<node lat="63.15453889074357" lon="7.946113893855101" id="-11973">
		<tag k="name" v="Ørnholmen" />
		<tag k="place" v="islet" />
		<tag k="ssr:stedsnr" v="654133" />
	</node>
	<node lat="63.1532361087116" lon="7.948255563180448" id="-11974">
		<tag k="name" v="Skagvikneset" />
		<tag k="natural" v="cape" />
		<tag k="ssr:stedsnr" v="654134" />
	</node>
	<node lat="63.198072225670046" lon="7.938016667338421" id="-11975">
		<tag k="fixme" v="consider seamark:type=rock or natural=shoal" />
		<tag k="name" v="Stongdraget" />
		<tag k="place" v="islet" />
		<tag k="ssr:stedsnr" v="654138" />
	</node>
	<node lat="63.145297223211486" lon="8.069519444611197" id="-11978">
		<tag k="name" v="Akkarvika" />
		<tag k="natural" v="bay" />
		<tag k="ssr:stedsnr" v="654885" />
	</node>
	<node lat="63.25224166504764" lon="8.170694450202667" id="-11993">
		<tag k="name" v="Ytre Storøyvåg" />
		<tag k="natural" v="bay" />
		<tag k="ssr:stedsnr" v="655495" />
	</node>
	<node lat="63.15461666997527" lon="8.168294449302415" id="-11994">
		<tag k="name" v="Vikafjøra" />
		<tag k="natural" v="beach" />
		<tag k="ssr:stedsnr" v="655615" />
	</node>
	<node lat="63.18893055552165" lon="8.626522216099493" id="-11997">
		<tag k="name" v="Hålåtåa" />
		<tag k="natural" v="cape" />
		<tag k="ssr:stedsnr" v="655590" />
	</node>
	<node lat="63.1810999991648" lon="8.582152772806147" id="-11998">
		<tag k="name" v="Arøysundet" />
		<tag k="natural" v="strait" />
		<tag k="ssr:stedsnr" v="655595" />
	</node>
	<node lat="63.264866665742076" lon="8.24167778060106" id="-12004">
		<tag k="name" v="Styrstangen" />
		<tag k="natural" v="cape" />
		<tag k="ssr:stedsnr" v="655696" />
	</node>
	<node lat="63.26798055582571" lon="8.293963888112582" id="-12009">
		<tag k="name" v="Sommarfjøsbukta" />
		<tag k="natural" v="bay" />
		<tag k="ssr:stedsnr" v="655940" />
	</node>
	<node lat="63.26928333595165" lon="8.364411102471573" id="-12010">
		<tag k="name" v="Storsula" />
		<tag k="natural" v="bay" />
		<tag k="ssr:stedsnr" v="655941" />
	</node>
	<node lat="63.31830555357292" lon="8.370655557347693" id="-12011">
		<tag k="name" v="Morvikskaget" />
		<tag k="natural" v="cape" />
		<tag k="ssr:stedsnr" v="655990" />
	</node>
	<node lat="63.36266666429968" lon="8.702147221614245" id="-12016">
		<tag k="name" v="Mjølkplassvika" />
		<tag k="natural" v="bay" />
		<tag k="ssr:stedsnr" v="656104" />
	</node>
	<node lat="63.345924999567885" lon="8.762419453479321" id="-12033">
		<tag k="name" v="Austre Hellandsbukt" />
		<tag k="natural" v="bay" />
		<tag k="ssr:stedsnr" v="657003" />
	</node>
	<node lat="63.185391666718964" lon="8.305905561829674" id="-12037">
		<tag k="name" v="Fuglsneset" />
		<tag k="natural" v="cape" />
		<tag k="ssr:stedsnr" v="656914" />
	</node>
	<node lat="63.37197221863812" lon="8.652833333768871" id="-12047">
		<tag k="name" v="Gardsneset" />
		<tag k="natural" v="cape" />
		<tag k="ssr:stedsnr" v="657788" />
	</node>
	<node lat="63.21920939882582" lon="8.261403638240644" id="-12057">
		<tag k="name" v="Digermulen" />
		<tag k="natural" v="cape" />
		<tag k="ssr:stedsnr" v="680020" />
	</node>
	<node lat="63.276308330051606" lon="8.332408326905746" id="-12061">
		<tag k="name" v="Langøya" />
		<tag k="place" v="island" />
		<tag k="ssr:stedsnr" v="680264" />
	</node>
	<node lat="63.35057499985876" lon="8.504849990680102" id="-12062">
		<tag k="name" v="Langneset" />
		<tag k="natural" v="cape" />
		<tag k="ssr:stedsnr" v="680270" />
	</node>
	<node lat="63.23195833524208" lon="8.213580559618881" id="-12063">
		<tag k="name" v="Kvitneset" />
		<tag k="natural" v="cape" />
		<tag k="ssr:stedsnr" v="680427" />
	</node>
	<node lat="63.22969722088503" lon="8.177502773687635" id="-12064">
		<tag k="name" v="Bogabukta" />
		<tag k="natural" v="bay" />
		<tag k="ssr:stedsnr" v="680435" />
	</node>
	<node lat="63.24338055623353" lon="8.392333325698957" id="-12074">
		<tag k="name" v="Indre Kjeften" />
		<tag k="natural" v="strait" />
		<tag k="ssr:stedsnr" v="896079" />
	</node>
	<node lat="63.39683332959599" lon="8.61896111077361" id="-12075">
		<tag k="name" v="Indre Galtflua" />
		<tag k="natural" v="shoal" />
		<tag k="place" v="locality" />
		<tag k="ssr:stedsnr" v="896845" />
	</node>
	<node lat="63.234472220318544" lon="8.110627782529045" id="-12078">
		<tag k="name" v="Litldalskaget" />
		<tag k="natural" v="cape" />
		<tag k="ssr:stedsnr" v="897651" />
	</node>
	<node lat="63.14500277678606" lon="8.070275008673761" id="-12080">
		<tag k="name" v="Naustneset" />
		<tag k="natural" v="cape" />
		<tag k="ssr:stedsnr" v="897846" />
	</node>
	<node lat="63.18781111504089" lon="8.172988891831043" id="-12084">
		<tag k="name" v="Sagholmen" />
		<tag k="place" v="islet" />
		<tag k="ssr:stedsnr" v="898097" />
	</node>
	<node lat="63.1628222263447" lon="8.29657222207934" id="-12086">
		<tag k="name" v="Omnvika" />
		<tag k="natural" v="bay" />
		<tag k="ssr:stedsnr" v="898134" />
	</node>
	<node lat="63.19966300929811" lon="8.300090510621377" id="-12088">
		<tag k="alt_name" v="Hundhammerbukta" />
		<tag k="name" v="Hundhammarbukta" />
		<tag k="natural" v="bay" />
		<tag k="ssr:stedsnr" v="898053" />
	</node>
	<node lat="63.17123333077487" lon="8.19240832849638" id="-12090">
		<tag k="name" v="Melkvika" />
		<tag k="natural" v="bay" />
		<tag k="ssr:stedsnr" v="898167" />
	</node>
	<node lat="63.312136113164854" lon="8.473749992639386" id="-12094">
		<tag k="name" v="Karivikskaget" />
		<tag k="natural" v="cape" />
		<tag k="ssr:stedsnr" v="898265" />
	</node>
	<node lat="63.303269446937236" lon="8.406919445396907" id="-12097">
		<tag k="name" v="Rosthollet" />
		<tag k="natural" v="bay" />
		<tag k="ssr:stedsnr" v="898332" />
	</node>
	<node lat="63.1565388874419" lon="8.188480555510234" id="-12101">
		<tag k="name" v="Kjerringvika" />
		<tag k="natural" v="beach" />
		<tag k="ssr:stedsnr" v="898611" />
	</node>
	<node lat="63.246227775155084" lon="8.275386115108226" id="-12102">
		<tag k="name" v="Robertbukta" />
		<tag k="natural" v="bay" />
		<tag k="ssr:stedsnr" v="898614" />
	</node>
	<node lat="63.171780553786796" lon="7.909086107724116" id="-12114">
		<tag k="name" v="Tvinntrådbukta" />
		<tag k="natural" v="bay" />
		<tag k="ssr:stedsnr" v="898886" />
	</node>
	<node lat="63.42056110784381" lon="8.733186105045158" id="-12115">
		<tag k="fixme" v="consider seamark:type=rock or natural=shoal" />
		<tag k="name" v="Skogskjæret" />
		<tag k="place" v="islet" />
		<tag k="ssr:stedsnr" v="715816" />
	</node>
	<node lat="63.16992222305986" lon="7.898694439969993" id="-12116">
		<tag k="name" v="Bjønnskottøyholmane" />
		<tag k="place" v="islet" />
		<tag k="ssr:stedsnr" v="898898" />
	</node>
	<node lat="63.1791027775416" lon="7.918519452455659" id="-12122">
		<tag k="name" v="Linvågodden" />
		<tag k="natural" v="cape" />
		<tag k="ssr:stedsnr" v="716425" />
	</node>
	<node lat="63.27133610826979" lon="8.49484444925104" id="-12124">
		<tag k="name" v="Valøya" />
		<tag k="place" v="islet" />
		<tag k="ssr:stedsnr" v="716428" />
	</node>
	<node lat="63.26029167039081" lon="8.495044446789894" id="-12125">
		<tag k="name" v="Litleruøya" />
		<tag k="place" v="islet" />
		<tag k="ssr:stedsnr" v="716429" />
	</node>
	<node lat="63.24249166611696" lon="8.203980559803037" id="-12128">
		<tag k="fixme" v="consider seamark:type=rock or natural=shoal" />
		<tag k="name" v="Vålongskjera" />
		<tag k="place" v="islet" />
		<tag k="ssr:stedsnr" v="716615" />
	</node>
	<node lat="63.2513027772656" lon="8.189791674894613" id="-12129">
		<tag k="name" v="Stongdraget" />
		<tag k="place" v="islet" />
		<tag k="ssr:stedsnr" v="716530" />
	</node>
	<node lat="63.27138055897554" lon="8.526849990965275" id="-12133">
		<tag k="name" v="Leirdalsbukta" />
		<tag k="natural" v="bay" />
		<tag k="ssr:stedsnr" v="899052" />
	</node>
	<node lat="63.20632777511291" lon="8.592049999247596" id="-12140">
		<tag k="name" v="Grunnbugen" />
		<tag k="natural" v="bay" />
		<tag k="ssr:stedsnr" v="717182" />
	</node>
	<node lat="63.250163886619745" lon="8.551822230266016" id="-12142">
		<tag k="name" v="Naustneset" />
		<tag k="natural" v="cape" />
		<tag k="ssr:stedsnr" v="899100" />
	</node>
	<node lat="63.38475555170911" lon="8.62267222684552" id="-12144">
		<tag k="name" v="Hanen" />
		<tag k="natural" v="cape" />
		<tag k="ssr:stedsnr" v="717731" />
	</node>
	<node lat="63.348213892209984" lon="8.733727768047546" id="-12147">
		<tag k="name" v="Løvikbukta" />
		<tag k="natural" v="bay" />
		<tag k="ssr:stedsnr" v="718010" />
	</node>
	<node lat="63.17719444355668" lon="7.840988897398246" id="-12151">
		<tag k="name" v="Langholmrompa" />
		<tag k="place" v="islet" />
		<tag k="ssr:stedsnr" v="899300" />
	</node>
	<node lat="63.26723333398681" lon="8.472005548803757" id="-12161">
		<tag k="name" v="Klaksvikneset" />
		<tag k="natural" v="cape" />
		<tag k="ssr:stedsnr" v="899331" />
	</node>
	<node lat="63.26432499759723" lon="8.473888887907957" id="-12162">
		<tag k="name" v="Hestvika" />
		<tag k="natural" v="bay" />
		<tag k="ssr:stedsnr" v="899333" />
	</node>
	<node lat="63.265066662285655" lon="8.299850006312504" id="-12178">
		<tag k="name" v="Litlsetersanden" />
		<tag k="natural" v="beach" />
		<tag k="ssr:stedsnr" v="899941" />
	</node>
	<node lat="63.347833331134126" lon="8.43244444607118" id="-12201">
		<tag k="name" v="Grunnflua" />
		<tag k="natural" v="shoal" />
		<tag k="place" v="locality" />
		<tag k="ssr:stedsnr" v="740144" />
	</node>
	<node lat="63.272452781217545" lon="8.26736111334349" id="-12210">
		<tag k="name" v="Hestøya" />
		<tag k="place" v="islet" />
		<tag k="ssr:stedsnr" v="740252" />
	</node>
	<node lat="63.24993888767819" lon="8.251063896461687" id="-12216">
		<tag k="name" v="Gråholmen" />
		<tag k="place" v="islet" />
		<tag k="ssr:stedsnr" v="740307" />
	</node>
	<node lat="63.29102500289278" lon="8.50141666314976" id="-12218">
		<tag k="name" v="Vågsneset" />
		<tag k="natural" v="cape" />
		<tag k="ssr:stedsnr" v="740345" />
	</node>
	<node lat="63.28155833598272" lon="8.488530555695341" id="-12219">
		<tag k="name" v="Lavaholmen" />
		<tag k="place" v="islet" />
		<tag k="ssr:stedsnr" v="740354" />
	</node>
	<node lat="63.30551944366098" lon="8.480430553184467" id="-12236">
		<tag k="fixme" v="consider seamark:type=rock or natural=shoal" />
		<tag k="name" v="Moltskjæret" />
		<tag k="place" v="islet" />
		<tag k="ssr:stedsnr" v="776253" />
	</node>
	<node lat="63.279322225508885" lon="8.314152779275569" id="-12237">
		<tag k="fixme" v="consider seamark:type=rock or natural=shoal" />
		<tag k="name" v="Ramnholmskjera" />
		<tag k="place" v="islet" />
		<tag k="ssr:stedsnr" v="776404" />
	</node>
	<node lat="63.166744448664666" lon="7.802649991483654" id="-12239">
		<tag k="name" v="Klakkan" />
		<tag k="natural" v="shoal" />
		<tag k="place" v="locality" />
		<tag k="ssr:stedsnr" v="776420" />
	</node>
	<node lat="63.20720277947478" lon="8.031666674771225" id="-12242">
		<tag k="name" v="Målabukta" />
		<tag k="natural" v="bay" />
		<tag k="ssr:stedsnr" v="776620" />
	</node>
	<node lat="63.3483194409458" lon="8.731297213175937" id="-12245">
		<tag k="name" v="Løvikbugen" />
		<tag k="natural" v="bay" />
		<tag k="ssr:stedsnr" v="776868" />
	</node>
	<node lat="63.3441833303805" lon="8.737469440971603" id="-12246">
		<tag k="fixme" v="consider seamark:type=rock or natural=shoal" />
		<tag k="name" v="Rognskjæret" />
		<tag k="place" v="islet" />
		<tag k="ssr:stedsnr" v="776869" />
	</node>
	<node lat="63.203174995914154" lon="8.258247228106956" id="-12254">
		<tag k="name" v="Vikabukta" />
		<tag k="natural" v="bay" />
		<tag k="ssr:stedsnr" v="777052" />
	</node>
	<node lat="63.26383888808919" lon="8.500972223130338" id="-12255">
		<tag k="name" v="Oldervika" />
		<tag k="natural" v="bay" />
		<tag k="ssr:stedsnr" v="777403" />
	</node>
	<node lat="63.265397220672405" lon="8.35463610401141" id="-12261">
		<tag k="fixme" v="consider seamark:type=rock or natural=shoal" />
		<tag k="name" v="Kvernholmskjæret" />
		<tag k="place" v="islet" />
		<tag k="ssr:stedsnr" v="777937" />
	</node>
	<node lat="63.342808332240644" lon="8.548452785888806" id="-12295">
		<tag k="name" v="Langbergvika" />
		<tag k="natural" v="bay" />
		<tag k="ssr:stedsnr" v="801126" />
	</node>
	<node lat="63.27202499768627" lon="8.149633338456677" id="-12296">
		<tag k="bay" v="fjord" />
		<tag k="name" v="Edøyfjorden" />
		<tag k="natural" v="bay" />
		<tag k="ssr:stedsnr" v="801371" />
	</node>
	<node lat="63.336933332242246" lon="8.72151389527357" id="-12300">
		<tag k="name" v="Litløya" />
		<tag k="place" v="islet" />
		<tag k="ssr:stedsnr" v="801526" />
	</node>
	<node lat="63.2026888906539" lon="7.978994438894102" id="-12305">
		<tag k="name" v="Gautøya" />
		<tag k="place" v="island" />
		<tag k="ssr:stedsnr" v="801475" />
	</node>
	<node lat="63.33910278195778" lon="8.45147500177676" id="-12315">
		<tag k="name" v="Åkvikskaget" />
		<tag k="natural" v="cape" />
		<tag k="ssr:stedsnr" v="922139" />
	</node>
	<node lat="63.317541667191776" lon="8.338230549227472" id="-12316">
		<tag k="name" v="Langflua" />
		<tag k="natural" v="shoal" />
		<tag k="place" v="locality" />
		<tag k="ssr:stedsnr" v="922151" />
	</node>
	<node lat="63.2769249968171" lon="8.492877778749243" id="-12325">
		<tag k="name" v="Matneset" />
		<tag k="natural" v="cape" />
		<tag k="ssr:stedsnr" v="922244" />
	</node>
	<node lat="63.26240000002862" lon="8.344016662927878" id="-12326">
		<tag k="name" v="Marøya" />
		<tag k="place" v="island" />
		<tag k="ssr:stedsnr" v="922255" />
	</node>
	<node lat="63.19226666522429" lon="7.949508332297201" id="-12330">
		<tag k="name" v="Ramsøya" />
		<tag k="place" v="island" />
		<tag k="ssr:stedsnr" v="922400" />
	</node>
	<node lat="63.28071111006286" lon="8.482825005536004" id="-12332">
		<tag k="name" v="Sveholmen" />
		<tag k="place" v="islet" />
		<tag k="ssr:stedsnr" v="922338" />
	</node>
	<node lat="63.243538886231875" lon="8.18847777016489" id="-12333">
		<tag k="name" v="Solskjelsvågen" />
		<tag k="natural" v="bay" />
		<tag k="ssr:stedsnr" v="922347" />
	</node>
	<node lat="63.169636113994606" lon="7.906180553135471" id="-12335">
		<tag k="fixme" v="multiple name tags, choose one and add the other to alt_name" />
		<tag k="name" v="Bjørnskotøya;Bjønnskottøya" />
		<tag k="place" v="islet" />
		<tag k="ssr:stedsnr" v="922420" />
	</node>
	<node lat="63.26375555252564" lon="8.517647214859766" id="-12345">
		<tag k="name" v="Aursundet" />
		<tag k="natural" v="strait" />
		<tag k="ssr:stedsnr" v="923071" />
	</node>
	<node lat="63.31606666803477" lon="8.519591667376254" id="-12360">
		<tag k="name" v="Kalvøya" />
		<tag k="place" v="islet" />
		<tag k="ssr:stedsnr" v="923362" />
	</node>
	<node lat="63.236425000682544" lon="8.126752771113692" id="-12363">
		<tag k="name" v="Sandvikneset" />
		<tag k="natural" v="cape" />
		<tag k="ssr:stedsnr" v="923446" />
	</node>
	<node lat="63.1975888897066" lon="7.897372230948262" id="-12364">
		<tag k="fixme" v="consider seamark:type=rock or natural=shoal" />
		<tag k="name" v="Svortna" />
		<tag k="place" v="islet" />
		<tag k="ssr:stedsnr" v="923544" />
	</node>
	<node lat="63.17018055976026" lon="7.832744450685973" id="-12370">
		<tag k="name" v="Søre Havboltane" />
		<tag k="place" v="islet" />
		<tag k="ssr:stedsnr" v="837443" />
	</node>
	<node lat="63.30557500172437" lon="8.43685555524461" id="-12382">
		<tag k="name" v="Mensvika" />
		<tag k="natural" v="bay" />
		<tag k="ssr:stedsnr" v="838382" />
	</node>
	<node lat="63.22236848353806" lon="8.265193221273895" id="-12386">
		<tag k="name" v="Klakken" />
		<tag k="natural" v="cape" />
		<tag k="ssr:stedsnr" v="838579" />
	</node>
	<node lat="63.161469447739265" lon="8.184316658324091" id="-12393">
		<tag k="name" v="Strandholmen" />
		<tag k="place" v="islet" />
		<tag k="ssr:stedsnr" v="838636" />
	</node>
	<node lat="63.14326666890091" lon="8.060397216430088" id="-12396">
		<tag k="fixme" v="consider seamark:type=rock or natural=shoal" />
		<tag k="name" v="Skjeret" />
		<tag k="place" v="islet" />
		<tag k="ssr:stedsnr" v="838785" />
	</node>
	<node lat="63.18800555940877" lon="7.90802221834928" id="-12400">
		<tag k="fixme" v="consider seamark:type=rock or natural=shoal" />
		<tag k="name" v="Skarveskjeret" />
		<tag k="place" v="islet" />
		<tag k="ssr:stedsnr" v="838894" />
	</node>
	<node lat="63.33526952834698" lon="8.745436153076666" id="-12402">
		<tag k="name" v="Hjelaosen" />
		<tag k="natural" v="bay" />
		<tag k="ssr:stedsnr" v="839141" />
	</node>
	<node lat="63.32089167062591" lon="8.534269440977718" id="-12411">
		<tag k="name" v="Ramsviktåa" />
		<tag k="natural" v="cape" />
		<tag k="ssr:stedsnr" v="839298" />
	</node>
	<node lat="63.21879722453412" lon="8.549255555897494" id="-12416">
		<tag k="name" v="Notnausttåa" />
		<tag k="natural" v="cape" />
		<tag k="ssr:stedsnr" v="839710" />
	</node>
	<node lat="63.32474444051311" lon="8.38538333184066" id="-12430">
		<tag k="name" v="Hampneset" />
		<tag k="natural" v="cape" />
		<tag k="ssr:stedsnr" v="862213" />
	</node>
	<node lat="63.25983611102476" lon="8.498116666808764" id="-12432">
		<tag k="name" v="Smalsundet" />
		<tag k="natural" v="strait" />
		<tag k="ssr:stedsnr" v="862309" />
	</node>
	<node lat="63.163719446105226" lon="7.896930549967241" id="-12437">
		<tag k="name" v="Golmvågen" />
		<tag k="natural" v="bay" />
		<tag k="ssr:stedsnr" v="862319" />
	</node>
	<node lat="63.25813055895391" lon="8.310988895822375" id="-12438">
		<tag k="name" v="Borvika" />
		<tag k="natural" v="bay" />
		<tag k="ssr:stedsnr" v="862320" />
	</node>
	<node lat="63.29916666919984" lon="8.32434999716895" id="-12443">
		<tag k="name" v="Krongelholmen" />
		<tag k="place" v="islet" />
		<tag k="ssr:stedsnr" v="862357" />
	</node>
	<node lat="63.30277500172259" lon="8.39622500108786" id="-12445">
		<tag k="alt_name" v="Rosthollvågen" />
		<tag k="name" v="Rostollvågen" />
		<tag k="natural" v="bay" />
		<tag k="ssr:stedsnr" v="862359" />
	</node>
	<node lat="63.222552777226184" lon="8.049300003116157" id="-12448">
		<tag k="name" v="Brandsvikneset" />
		<tag k="natural" v="cape" />
		<tag k="ssr:stedsnr" v="862398" />
	</node>
	<node lat="63.16874721846352" lon="7.823722223008501" id="-12453">
		<tag k="name" v="Gjeva" />
		<tag k="place" v="islet" />
		<tag k="ssr:stedsnr" v="862448" />
	</node>
	<node lat="63.197352781903405" lon="7.972183338237109" id="-12456">
		<tag k="name" v="Vestneset" />
		<tag k="natural" v="cape" />
		<tag k="ssr:stedsnr" v="862471" />
	</node>
	<node lat="63.3481638849439" lon="8.807705549749729" id="-12458">
		<tag k="alt_name" v="Årvågfjorden" />
		<tag k="bay" v="fjord" />
		<tag k="name" v="Årvågsfjorden" />
		<tag k="natural" v="bay" />
		<tag k="ssr:stedsnr" v="862710" />
	</node>
	<node lat="63.2532916642106" lon="8.176791668027652" id="-12459">
		<tag k="name" v="Storøya" />
		<tag k="place" v="island" />
		<tag k="ssr:stedsnr" v="862903" />
	</node>
	<node lat="63.38348611261107" lon="8.527088879520495" id="-12463">
		<tag k="name" v="Skipnesstranda" />
		<tag k="natural" v="beach" />
		<tag k="ssr:stedsnr" v="863210" />
	</node>
	<node lat="63.1644138848521" lon="7.9231777763075275" id="-12475">
		<tag k="name" v="Båtvika" />
		<tag k="natural" v="bay" />
		<tag k="ssr:stedsnr" v="897318" />
	</node>
	<node lat="63.17885277357065" lon="8.175438882642018" id="-12477">
		<tag k="name" v="Djupvikbukta" />
		<tag k="natural" v="bay" />
		<tag k="ssr:stedsnr" v="898120" />
	</node>
	<node lat="63.13949721830611" lon="8.020994450397426" id="-12488">
		<tag k="name" v="Ljustadflua" />
		<tag k="natural" v="shoal" />
		<tag k="place" v="locality" />
		<tag k="ssr:stedsnr" v="898422" />
	</node>
	<node lat="63.260186111149224" lon="8.253788892369693" id="-12490">
		<tag k="name" v="Fartyneset" />
		<tag k="natural" v="cape" />
		<tag k="ssr:stedsnr" v="898704" />
	</node>
	<node lat="63.34938889261069" lon="8.83956944680623" id="-12494">
		<tag k="name" v="Flua" />
		<tag k="natural" v="shoal" />
		<tag k="place" v="locality" />
		<tag k="ssr:stedsnr" v="898856" />
	</node>
	<node lat="63.17914722643307" lon="8.382022229406708" id="-12495">
		<tag k="name" v="Krokvassholmen" />
		<tag k="place" v="islet" />
		<tag k="ssr:stedsnr" v="898867" />
	</node>
	<node lat="63.1824000042913" lon="7.9034861032563795" id="-12496">
		<tag k="fixme" v="consider seamark:type=rock or natural=shoal" />
		<tag k="name" v="Stamnesskjeret" />
		<tag k="place" v="islet" />
		<tag k="ssr:stedsnr" v="898870" />
	</node>
	<node lat="63.20646111441347" lon="7.9866777751952664" id="-12497">
		<tag k="name" v="Sør-Rotvikbukta" />
		<tag k="natural" v="bay" />
		<tag k="ssr:stedsnr" v="898954" />
	</node>
	<node lat="63.219094445058275" lon="8.412152776682731" id="-12500">
		<tag k="name" v="Asphaugbukta" />
		<tag k="natural" v="bay" />
		<tag k="ssr:stedsnr" v="899172" />
	</node>
	<node lat="63.2236972217037" lon="8.408558334429497" id="-12501">
		<tag k="name" v="Inner Semundsetneset" />
		<tag k="natural" v="cape" />
		<tag k="ssr:stedsnr" v="899173" />
	</node>
	<node lat="63.17339722161473" lon="7.866633333270559" id="-12503">
		<tag k="name" v="Møyslåttkalven" />
		<tag k="place" v="islet" />
		<tag k="ssr:stedsnr" v="899306" />
	</node>
	<node lat="63.17397777503164" lon="8.32139166799034" id="-12506">
		<tag k="fixme" v="consider seamark:type=rock or natural=shoal" />
		<tag k="name" v="Karlsvikskjæret" />
		<tag k="place" v="islet" />
		<tag k="ssr:stedsnr" v="899921" />
	</node>
	<node lat="63.26480555676419" lon="8.243205546945735" id="-12538">
		<tag k="name" v="Styret" />
		<tag k="natural" v="cape" />
		<tag k="ssr:stedsnr" v="922254" />
	</node>
	<node lat="63.32798888479328" lon="8.40334443884202" id="-12539">
		<tag k="name" v="Stangneset" />
		<tag k="natural" v="cape" />
		<tag k="ssr:stedsnr" v="922176" />
	</node>
	<node lat="63.30719166636056" lon="8.490908339411437" id="-12544">
		<tag k="name" v="Molta" />
		<tag k="place" v="islet" />
		<tag k="ssr:stedsnr" v="923375" />
	</node>
	<node lat="63.21339722369028" lon="8.003180562438555" id="-12545">
		<tag k="alt_name" v="Tangeroddskjæra" />
		<tag k="fixme" v="consider seamark:type=rock or natural=shoal" />
		<tag k="name" v="Tangarodden" />
		<tag k="place" v="islet" />
		<tag k="ssr:stedsnr" v="923518" />
	</node>
	<node lat="63.24381389222199" lon="8.163047229326542" id="-12559">
		<tag k="name" v="Litlhamna" />
		<tag k="natural" v="bay" />
		<tag k="ssr:stedsnr" v="946090" />
	</node>
	<node lat="63.35515277700833" lon="8.403866675052656" id="-12560">
		<tag k="fixme" v="consider seamark:type=rock or natural=shoal" />
		<tag k="name" v="Klakksbroren" />
		<tag k="place" v="islet" />
		<tag k="ssr:stedsnr" v="229498" />
	</node>
	<node lat="63.23293611044809" lon="8.570352786113467" id="-12561">
		<tag k="name" v="Torsetbukta" />
		<tag k="natural" v="bay" />
		<tag k="ssr:stedsnr" v="957197" />
	</node>
	<node lat="63.167008337807786" lon="7.907019450145063" id="-12564">
		<tag k="name" v="Golmsundet" />
		<tag k="natural" v="strait" />
		<tag k="ssr:stedsnr" v="957310" />
	</node>
	<node lat="63.2518194438616" lon="8.486075007985221" id="-12565">
		<tag k="name" v="Rotøyskaget" />
		<tag k="natural" v="cape" />
		<tag k="ssr:stedsnr" v="958143" />
	</node>
	<node lat="63.1539527755851" lon="7.906641663801957" id="-12566">
		<tag k="name" v="Sandvika" />
		<tag k="natural" v="bay" />
		<tag k="ssr:stedsnr" v="958184" />
	</node>
	<node lat="63.24884167019393" lon="8.194644436013217" id="-12567">
		<tag k="name" v="Helvete" />
		<tag k="natural" v="cape" />
		<tag k="ssr:stedsnr" v="958607" />
	</node>
	<node lat="63.32745832914617" lon="8.70669443530388" id="-12569">
		<tag k="name" v="Stemshaugøra" />
		<tag k="natural" v="beach" />
		<tag k="ssr:stedsnr" v="958790" />
	</node>
	<node lat="63.36568055622817" lon="8.505263890140505" id="-12579">
		<tag k="fixme" v="consider seamark:type=rock or natural=shoal" />
		<tag k="name" v="Skarvskjeret" />
		<tag k="place" v="islet" />
		<tag k="ssr:stedsnr" v="959239" />
	</node>
	<node lat="63.17911944703179" lon="7.8426027772707245" id="-12580">
		<tag k="name" v="Sandholmane" />
		<tag k="place" v="islet" />
		<tag k="ssr:stedsnr" v="959266" />
	</node>
	<node lat="63.1776611120772" lon="7.932852779745136" id="-12586">
		<tag k="name" v="Bomneset" />
		<tag k="natural" v="cape" />
		<tag k="ssr:stedsnr" v="959885" />
	</node>
	<node lat="63.346288886988724" lon="8.736019454271563" id="-12587">
		<tag k="name" v="Notnausttåa" />
		<tag k="natural" v="cape" />
		<tag k="ssr:stedsnr" v="960003" />
	</node>
	<node lat="63.180424997479314" lon="8.33118611667725" id="-12591">
		<tag k="name" v="Klakken" />
		<tag k="natural" v="bay" />
		<tag k="ssr:stedsnr" v="959958" />
	</node>
	<node lat="63.303627782218285" lon="8.542002784106632" id="-12594">
		<tag k="name" v="Klipa" />
		<tag k="natural" v="cape" />
		<tag k="ssr:stedsnr" v="960274" />
	</node>
	<node lat="63.32852221781053" lon="8.547027786270165" id="-12597">
		<tag k="fixme" v="consider seamark:type=rock or natural=shoal" />
		<tag k="name" v="Seternesskjeret" />
		<tag k="place" v="islet" />
		<tag k="ssr:stedsnr" v="960300" />
	</node>
	<node lat="63.197294440294364" lon="8.568477775964098" id="-12605">
		<tag k="name" v="Inner Lindåsbukta" />
		<tag k="natural" v="bay" />
		<tag k="ssr:stedsnr" v="960696" />
	</node>
	<node lat="63.1590999975886" lon="8.421730545770535" id="-12609">
		<tag k="name" v="Rakøra" />
		<tag k="natural" v="cape" />
		<tag k="ssr:stedsnr" v="960804" />
	</node>
	<node lat="63.28609166480256" lon="8.333733339480931" id="-12701">
		<tag k="name" v="Geitryggen" />
		<tag k="natural" v="shoal" />
		<tag k="place" v="locality" />
		<tag k="ssr:stedsnr" v="229073" />
	</node>
	<node lat="63.27268332933792" lon="8.295255549756945" id="-12705">
		<tag k="name" v="Vorpholmen" />
		<tag k="place" v="islet" />
		<tag k="ssr:stedsnr" v="12252" />
	</node>
	<node lat="63.13891667005605" lon="7.94496945097593" id="-12706">
		<tag k="name" v="Klubben" />
		<tag k="place" v="islet" />
		<tag k="ssr:stedsnr" v="12254" />
	</node>
	<node lat="63.15433611355086" lon="8.166261113473336" id="-12715">
		<tag k="alt_name" v="Bogaskaget" />
		<tag k="name" v="Krokneset" />
		<tag k="natural" v="cape" />
		<tag k="ssr:stedsnr" v="12316" />
	</node>
	<node lat="63.1964083308964" lon="8.281986115750042" id="-12717">
		<tag k="name" v="Holabukta" />
		<tag k="natural" v="bay" />
		<tag k="ssr:stedsnr" v="12138" />
	</node>
	<node lat="63.30040000049072" lon="8.515286103017841" id="-12725">
		<tag k="name" v="Eidsflua" />
		<tag k="natural" v="shoal" />
		<tag k="place" v="locality" />
		<tag k="ssr:stedsnr" v="12340" />
	</node>
	<node lat="63.212616670745916" lon="8.21579721395331" id="-12729">
		<tag k="name" v="Stabblandet" />
		<tag k="place" v="island" />
		<tag k="ssr:stedsnr" v="12436" />
	</node>
	<node lat="63.174527774147165" lon="7.8178611089829975" id="-12730">
		<tag k="fixme" v="consider seamark:type=rock or natural=shoal" />
		<tag k="name" v="Oddskjæra" />
		<tag k="place" v="islet" />
		<tag k="ssr:stedsnr" v="12439" />
	</node>
	<node lat="63.17643889062839" lon="7.871894444009812" id="-12731">
		<tag k="name" v="Oksøya" />
		<tag k="place" v="islet" />
		<tag k="ssr:stedsnr" v="12448" />
	</node>
	<node lat="63.243358329858985" lon="8.121566669611576" id="-12752">
		<tag k="name" v="Sandvikbåen" />
		<tag k="place" v="locality" />
		<tag k="seamark:type" v="rock" />
		<tag k="ssr:stedsnr" v="36089" />
	</node>
	<node lat="63.20564722104055" lon="7.971069441984284" id="-12754">
		<tag k="name" v="Veddøyholmen" />
		<tag k="place" v="islet" />
		<tag k="ssr:stedsnr" v="49080" />
	</node>
	<node lat="63.19366666334445" lon="7.97050556479174" id="-12755">
		<tag k="fixme" v="consider seamark:type=rock or natural=shoal" />
		<tag k="name" v="Moldvågskjera" />
		<tag k="place" v="islet" />
		<tag k="ssr:stedsnr" v="49086" />
	</node>
	<node lat="63.24799444831705" lon="8.387099993136477" id="-12759">
		<tag k="name" v="Markaleira" />
		<tag k="natural" v="shoal" />
		<tag k="place" v="locality" />
		<tag k="ssr:stedsnr" v="49177" />
	</node>
	<node lat="63.31316666352429" lon="8.54491111741776" id="-12764">
		<tag k="name" v="Ålfarskjærbåen" />
		<tag k="natural" v="shoal" />
		<tag k="place" v="locality" />
		<tag k="ssr:stedsnr" v="47245" />
	</node>
	<node lat="63.32257500108988" lon="8.37503332658603" id="-12765">
		<tag k="fixme" v="consider seamark:type=rock or natural=shoal" />
		<tag k="name" v="Kurren" />
		<tag k="place" v="islet" />
		<tag k="ssr:stedsnr" v="47541" />
	</node>
	<node lat="63.376361109773676" lon="8.502530554849212" id="-12772">
		<tag k="name" v="Oksbåsen" />
		<tag k="natural" v="cape" />
		<tag k="ssr:stedsnr" v="48245" />
	</node>
	<node lat="63.309166667981714" lon="8.47080833300723" id="-12773">
		<tag k="name" v="Korsneset" />
		<tag k="natural" v="cape" />
		<tag k="ssr:stedsnr" v="48248" />
	</node>
	<node lat="63.157694443830444" lon="7.880963888599518" id="-12775">
		<tag k="name" v="Spelstrandvikane" />
		<tag k="natural" v="bay" />
		<tag k="ssr:stedsnr" v="48136" />
	</node>
	<node lat="63.156397223088796" lon="7.8797555630571985" id="-12777">
		<tag k="fixme" v="consider seamark:type=rock or natural=shoal" />
		<tag k="name" v="Langkniven" />
		<tag k="place" v="islet" />
		<tag k="ssr:stedsnr" v="48141" />
	</node>
	<node lat="63.19420555507158" lon="7.898377776174207" id="-12781">
		<tag k="name" v="Ytre Skarvskjærståga" />
		<tag k="natural" v="shoal" />
		<tag k="place" v="locality" />
		<tag k="ssr:stedsnr" v="48360" />
	</node>
	<node lat="63.31549722606119" lon="8.49239443648706" id="-12783">
		<tag k="name" v="Værholmsundet" />
		<tag k="natural" v="strait" />
		<tag k="ssr:stedsnr" v="48253" />
	</node>
	<node lat="63.309130556386236" lon="8.486944437117069" id="-12784">
		<tag k="name" v="Moltsvaet" />
		<tag k="natural" v="bay" />
		<tag k="ssr:stedsnr" v="48254" />
	</node>
	<node lat="63.15996666313819" lon="7.937697227584422" id="-12792">
		<tag k="name" v="Bussholmen" />
		<tag k="place" v="islet" />
		<tag k="ssr:stedsnr" v="229324" />
	</node>
	<node lat="63.16394428964968" lon="7.933486926597354" id="-12793">
		<tag k="alt_name" v="Bakkeholmen" />
		<tag k="name" v="Bekkholmen" />
		<tag k="place" v="islet" />
		<tag k="ssr:stedsnr" v="229325" />
	</node>
	<node lat="63.17328889230519" lon="8.317699992408317" id="-12798">
		<tag k="name" v="Kåkkhålet" />
		<tag k="natural" v="bay" />
		<tag k="ssr:stedsnr" v="48738" />
	</node>
	<node lat="63.16069999834431" lon="8.388308324891813" id="-12799">
		<tag k="name" v="Grasneset" />
		<tag k="natural" v="cape" />
		<tag k="ssr:stedsnr" v="48822" />
	</node>
	<node lat="63.211294441201545" lon="8.279199999655978" id="-12803">
		<tag k="name" v="Viavikbukta" />
		<tag k="natural" v="bay" />
		<tag k="ssr:stedsnr" v="49047" />
	</node>
	<node lat="63.23669999923384" lon="8.12632499248075" id="-12806">
		<tag k="name" v="Sandvikskaget" />
		<tag k="natural" v="cape" />
		<tag k="ssr:stedsnr" v="48865" />
	</node>
	<node lat="63.18669166773635" lon="7.8608916712064865" id="-12811">
		<tag k="name" v="Nordre Langholmane" />
		<tag k="place" v="islet" />
		<tag k="ssr:stedsnr" v="49350" />
	</node>
	<node lat="63.32382500333452" lon="8.522422224967173" id="-12812">
		<tag k="name" v="Storbugen" />
		<tag k="natural" v="bay" />
		<tag k="ssr:stedsnr" v="49361" />
	</node>
	<node lat="63.27603055291168" lon="8.392755558946417" id="-12814">
		<tag k="name" v="Gjerdevika" />
		<tag k="natural" v="bay" />
		<tag k="ssr:stedsnr" v="49421" />
	</node>
	<node lat="63.27130832963256" lon="8.468172217269085" id="-12815">
		<tag k="name" v="Skaget" />
		<tag k="natural" v="cape" />
		<tag k="ssr:stedsnr" v="49422" />
	</node>
	<node lat="63.25923611093239" lon="8.392294448589112" id="-12816">
		<tag k="name" v="Espesetbukta" />
		<tag k="natural" v="bay" />
		<tag k="ssr:stedsnr" v="49432" />
	</node>
	<node lat="63.183744447403456" lon="8.33036665677276" id="-12826">
		<tag k="name" v="Fuglvågen" />
		<tag k="natural" v="bay" />
		<tag k="ssr:stedsnr" v="49958" />
	</node>
	<node lat="63.19007222529124" lon="8.620441670508939" id="-12827">
		<tag k="name" v="Klakken" />
		<tag k="natural" v="cape" />
		<tag k="ssr:stedsnr" v="49631" />
	</node>
	<node lat="63.167683330157544" lon="8.338280556753258" id="-12833">
		<tag k="name" v="Klavaflua" />
		<tag k="natural" v="shoal" />
		<tag k="place" v="locality" />
		<tag k="ssr:stedsnr" v="49864" />
	</node>
	<node lat="63.192263888374725" lon="8.689591673050833" id="-12838">
		<tag k="name" v="Geitatåa" />
		<tag k="natural" v="cape" />
		<tag k="ssr:stedsnr" v="50281" />
	</node>
	<node lat="63.33754722002272" lon="8.751027779974718" id="-12841">
		<tag k="name" v="Hjelavika" />
		<tag k="natural" v="bay" />
		<tag k="ssr:stedsnr" v="50131" />
	</node>
	<node lat="63.349763893370465" lon="8.516911118708702" id="-12844">
		<tag k="name" v="Langneset" />
		<tag k="natural" v="cape" />
		<tag k="ssr:stedsnr" v="50147" />
	</node>
	<node lat="63.31226111034136" lon="8.59823610894263" id="-12861">
		<tag k="name" v="Taterbukta" />
		<tag k="natural" v="bay" />
		<tag k="ssr:stedsnr" v="50567" />
	</node>
	<node lat="63.15935555508301" lon="8.421030563425914" id="-12878">
		<tag k="name" v="Rakørneset" />
		<tag k="natural" v="cape" />
		<tag k="ssr:stedsnr" v="73075" />
	</node>
	<node lat="63.34031944844968" lon="8.704341662737304" id="-12882">
		<tag k="name" v="Båtstrandneset" />
		<tag k="natural" v="cape" />
		<tag k="ssr:stedsnr" v="73179" />
	</node>
	<node lat="63.3286555546817" lon="8.370825008215196" id="-12883">
		<tag k="name" v="Langtaren" />
		<tag k="natural" v="shoal" />
		<tag k="place" v="locality" />
		<tag k="ssr:stedsnr" v="73182" />
	</node>
	<node lat="63.317355558892125" lon="8.41697777624889" id="-12890">
		<tag k="name" v="Grisvågøya" />
		<tag k="place" v="island" />
		<tag k="ssr:stedsnr" v="73160" />
	</node>
	<node lat="63.15307777746693" lon="7.9654166626355805" id="-12897">
		<tag k="name" v="Tømmervågen" />
		<tag k="natural" v="bay" />
		<tag k="ssr:stedsnr" v="73296" />
	</node>
	<node lat="63.30188611543995" lon="8.381661105884676" id="-12906">
		<tag k="alt_name" v="Grøtneset" />
		<tag k="name" v="Grøtneståa" />
		<tag k="natural" v="cape" />
		<tag k="ssr:stedsnr" v="73355" />
	</node>
	<node lat="63.41408055783189" lon="8.730497228193869" id="-12910">
		<tag k="name" v="Kjørsvikbugen" />
		<tag k="natural" v="bay" />
		<tag k="ssr:stedsnr" v="73444" />
	</node>
	<node lat="63.18790277492982" lon="7.919461117091243" id="-12911">
		<tag k="name" v="Gunhildøya" />
		<tag k="place" v="islet" />
		<tag k="ssr:stedsnr" v="73455" />
	</node>
	<node lat="63.19084166943916" lon="7.932566661146639" id="-12912">
		<tag k="fixme" v="consider seamark:type=rock or natural=shoal" />
		<tag k="name" v="Halla" />
		<tag k="place" v="islet" />
		<tag k="ssr:stedsnr" v="73456" />
	</node>
	<node lat="63.26908055831365" lon="8.36949166855252" id="-12913">
		<tag k="alt_name" v="Bogabukta;Bogabukta" />
		<tag k="fixme" v="multiple name tags, choose one and add the other to alt_name" />
		<tag k="name" v="Djupvika;Djupbugen" />
		<tag k="natural" v="bay" />
		<tag k="ssr:stedsnr" v="74242" />
	</node>
	<node lat="63.396805558137515" lon="8.651419449817237" id="-12923">
		<tag k="name" v="Grinvika" />
		<tag k="natural" v="bay" />
		<tag k="ssr:stedsnr" v="75774" />
	</node>
	<node lat="63.21476666628732" lon="8.554472228212568" id="-12927">
		<tag k="name" v="Gardsflua" />
		<tag k="natural" v="shoal" />
		<tag k="place" v="locality" />
		<tag k="ssr:stedsnr" v="107168" />
	</node>
	<node lat="63.2816555546745" lon="8.450636115694218" id="-12930">
		<tag k="name" v="Husfesthammaren" />
		<tag k="natural" v="cape" />
		<tag k="ssr:stedsnr" v="108183" />
	</node>
	<node lat="63.175319443418005" lon="7.831733325350622" id="-12931">
		<tag k="name" v="Søndre Huslangholmen" />
		<tag k="place" v="islet" />
		<tag k="ssr:stedsnr" v="108441" />
	</node>
	<node lat="63.22479722096293" lon="8.030386106580366" id="-12932">
		<tag k="name" v="Brandsvikskallen" />
		<tag k="natural" v="shoal" />
		<tag k="place" v="locality" />
		<tag k="ssr:stedsnr" v="109342" />
	</node>
	<node lat="63.413038889192485" lon="8.668230547507413" id="-12935">
		<tag k="fixme" v="consider seamark:type=rock or natural=shoal" />
		<tag k="name" v="Stongnesskjæret" />
		<tag k="place" v="islet" />
		<tag k="ssr:stedsnr" v="108829" />
	</node>
	<node lat="63.168466666871545" lon="7.885458334579026" id="-12936">
		<tag k="alt_name" v="Søre Hestøy" />
		<tag k="name" v="Søre Hestøya" />
		<tag k="place" v="island" />
		<tag k="ssr:stedsnr" v="109157" />
	</node>
	<node lat="63.3262222203361" lon="8.471016658556556" id="-12937">
		<tag k="name" v="Strømtåa" />
		<tag k="natural" v="cape" />
		<tag k="ssr:stedsnr" v="109307" />
	</node>
	<node lat="63.186188887466805" lon="8.174847222868362" id="-12938">
		<tag k="name" v="Klovningan" />
		<tag k="natural" v="cape" />
		<tag k="ssr:stedsnr" v="109092" />
	</node>
	<node lat="63.37370833081138" lon="8.498941662489248" id="-12941">
		<tag k="name" v="Stangholmvågen" />
		<tag k="natural" v="bay" />
		<tag k="ssr:stedsnr" v="109255" />
	</node>
	<node lat="63.309611114213716" lon="8.464247228565892" id="-12942">
		<tag k="name" v="Oldervika" />
		<tag k="natural" v="bay" />
		<tag k="ssr:stedsnr" v="109262" />
	</node>
	<node lat="63.16172500094146" lon="8.172599990264713" id="-12948">
		<tag k="name" v="Halsbukta" />
		<tag k="natural" v="bay" />
		<tag k="ssr:stedsnr" v="109415" />
	</node>
	<node lat="63.25438610739675" lon="8.267969440191019" id="-12949">
		<tag k="name" v="Høvika" />
		<tag k="natural" v="bay" />
		<tag k="ssr:stedsnr" v="109577" />
	</node>
	<node lat="63.24875277583147" lon="8.270719439844232" id="-12950">
		<tag k="name" v="Langnesbukta" />
		<tag k="natural" v="bay" />
		<tag k="ssr:stedsnr" v="109578" />
	</node>
	<node lat="63.20611388995987" lon="8.017172213837487" id="-12953">
		<tag k="name" v="Litlvalen" />
		<tag k="natural" v="strait" />
		<tag k="ssr:stedsnr" v="109601" />
	</node>
	<node lat="63.25159444889163" lon="8.175058339749901" id="-12955">
		<tag k="name" v="Indre Storøyvåg" />
		<tag k="natural" v="bay" />
		<tag k="ssr:stedsnr" v="109462" />
	</node>
	<node lat="63.234252777259314" lon="8.11325554671106" id="-12962">
		<tag k="name" v="Karholmsundet" />
		<tag k="natural" v="strait" />
		<tag k="ssr:stedsnr" v="109699" />
	</node>
	<node lat="63.19092777854706" lon="7.963533334530316" id="-12985">
		<tag k="name" v="Moldevågen" />
		<tag k="natural" v="bay" />
		<tag k="ssr:stedsnr" v="110000" />
	</node>
	<node lat="63.27256944613413" lon="8.489730546967623" id="-12998">
		<tag k="name" v="Seiholmen" />
		<tag k="place" v="islet" />
		<tag k="ssr:stedsnr" v="110426" />
	</node>
	<node lat="63.269866669141635" lon="8.504780555848424" id="-12999">
		<tag k="name" v="Hamna" />
		<tag k="natural" v="bay" />
		<tag k="ssr:stedsnr" v="110434" />
	</node>
	<node lat="63.16007222531242" lon="8.186449997787813" id="-13001">
		<tag k="name" v="Myraholmen" />
		<tag k="place" v="islet" />
		<tag k="ssr:stedsnr" v="110642" />
	</node>
	<node lat="63.15488888969954" lon="8.17027778497436" id="-13002">
		<tag k="name" v="Vika" />
		<tag k="natural" v="bay" />
		<tag k="ssr:stedsnr" v="110643" />
	</node>
	<node lat="63.186441666368204" lon="8.321800000918367" id="-13004">
		<tag k="name" v="Kuskaget" />
		<tag k="natural" v="cape" />
		<tag k="ssr:stedsnr" v="110953" />
	</node>
	<node lat="63.18258055900032" lon="8.315250007041072" id="-13008">
		<tag k="name" v="Krabbskjærflua" />
		<tag k="place" v="locality" />
		<tag k="seamark:type" v="rock" />
		<tag k="ssr:stedsnr" v="110917" />
	</node>
	<node lat="63.27018055733723" lon="8.375644451945362" id="-13009">
		<tag k="name" v="Slyngstein" />
		<tag k="natural" v="cape" />
		<tag k="ssr:stedsnr" v="110997" />
	</node>
	<node lat="63.34315832890519" lon="8.462705561554268" id="-13038">
		<tag k="name" v="Kåvikbukta" />
		<tag k="natural" v="bay" />
		<tag k="ssr:stedsnr" v="133145" />
	</node>
	<node lat="63.308799999853825" lon="8.327258340321192" id="-13041">
		<tag k="name" v="Rundhaugflua" />
		<tag k="natural" v="shoal" />
		<tag k="place" v="locality" />
		<tag k="ssr:stedsnr" v="133283" />
	</node>
	<node lat="63.31101111542282" lon="8.473025004858348" id="-13044">
		<tag k="name" v="Karivika" />
		<tag k="natural" v="bay" />
		<tag k="ssr:stedsnr" v="133301" />
	</node>
	<node lat="63.339883329243655" lon="8.71469722663415" id="-13046">
		<tag k="name" v="Storøya" />
		<tag k="place" v="islet" />
		<tag k="ssr:stedsnr" v="133167" />
	</node>
	<node lat="63.365463886118754" lon="8.65945833796332" id="-13048">
		<tag k="name" v="Grønneset" />
		<tag k="natural" v="cape" />
		<tag k="ssr:stedsnr" v="133217" />
	</node>
	<node lat="63.1584111135748" lon="7.942047221140713" id="-13050">
		<tag k="name" v="Kråksundet" />
		<tag k="natural" v="strait" />
		<tag k="ssr:stedsnr" v="133253" />
	</node>
	<node lat="63.28523611406245" lon="8.474413885240105" id="-13055">
		<tag k="fixme" v="consider seamark:type=rock or natural=shoal" />
		<tag k="name" v="Flisa" />
		<tag k="place" v="islet" />
		<tag k="ssr:stedsnr" v="133339" />
	</node>
	<node lat="63.254627773947576" lon="8.189141671303073" id="-13061">
		<tag k="fixme" v="consider seamark:type=rock or natural=shoal" />
		<tag k="name" v="Skjela" />
		<tag k="place" v="islet" />
		<tag k="ssr:stedsnr" v="133895" />
	</node>
	<node lat="63.33183333136386" lon="8.54043888661368" id="-13067">
		<tag k="name" v="Kvitneset" />
		<tag k="natural" v="cape" />
		<tag k="ssr:stedsnr" v="134291" />
	</node>
	<node lat="63.20589166507645" lon="8.173902786250846" id="-13068">
		<tag k="name" v="Smedneset" />
		<tag k="natural" v="cape" />
		<tag k="ssr:stedsnr" v="134537" />
	</node>
	<node lat="63.23706944315371" lon="8.150044447837528" id="-13075">
		<tag k="name" v="Gallhammaren" />
		<tag k="natural" v="cape" />
		<tag k="ssr:stedsnr" v="157091" />
	</node>
	<node lat="63.319977775805214" lon="8.368241676078954" id="-13076">
		<tag k="name" v="Litl Morvikholmen" />
		<tag k="place" v="islet" />
		<tag k="ssr:stedsnr" v="168532" />
	</node>
	<node lat="63.32518611095806" lon="8.469830551261808" id="-13077">
		<tag k="name" v="Gjøtaholmen" />
		<tag k="place" v="islet" />
		<tag k="ssr:stedsnr" v="168493" />
	</node>
	<node lat="63.32795278218849" lon="8.470663882673621" id="-13079">
		<tag k="name" v="Neset" />
		<tag k="natural" v="cape" />
		<tag k="ssr:stedsnr" v="170337" />
	</node>
	<node lat="63.1669888900359" lon="7.893663882925916" id="-13088">
		<tag k="name" v="Haraholmen" />
		<tag k="place" v="islet" />
		<tag k="ssr:stedsnr" v="169177" />
	</node>
	<node lat="63.15478610993326" lon="7.896391658889179" id="-13091">
		<tag k="name" v="Aussundet" />
		<tag k="natural" v="strait" />
		<tag k="ssr:stedsnr" v="169152" />
	</node>
	<node lat="63.16676666714091" lon="7.849752772471726" id="-13092">
		<tag k="bay" v="fjord" />
		<tag k="name" v="Møyslåttsvaet" />
		<tag k="natural" v="bay" />
		<tag k="ssr:stedsnr" v="169436" />
	</node>
	<node lat="63.20598055941089" lon="8.028283338549784" id="-13097">
		<tag k="name" v="Leirvalen" />
		<tag k="natural" v="strait" />
		<tag k="ssr:stedsnr" v="169633" />
	</node>
	<node lat="63.1966666645443" lon="8.569897220919504" id="-13100">
		<tag k="name" v="Lindåsbukta" />
		<tag k="natural" v="bay" />
		<tag k="ssr:stedsnr" v="169736" />
	</node>
	<node lat="63.24719722379451" lon="8.556105555431994" id="-13109">
		<tag k="name" v="Hestklonken" />
		<tag k="natural" v="cape" />
		<tag k="ssr:stedsnr" v="170096" />
	</node>
	<node lat="63.163344445566025" lon="8.283074993429988" id="-13118">
		<tag k="name" v="Skomakeren" />
		<tag k="natural" v="bay" />
		<tag k="ssr:stedsnr" v="170144" />
	</node>
	<node lat="63.34362777560842" lon="8.752522225894882" id="-13121">
		<tag k="name" v="Hellandsneset" />
		<tag k="natural" v="cape" />
		<tag k="ssr:stedsnr" v="171093" />
	</node>
	<node lat="63.339647223499675" lon="8.445658328799077" id="-13123">
		<tag k="name" v="Kobbeskaftet" />
		<tag k="natural" v="cape" />
		<tag k="ssr:stedsnr" v="170450" />
	</node>
	<node lat="63.22704444236172" lon="8.262116665209394" id="-13125">
		<tag k="name" v="Lauvvika" />
		<tag k="natural" v="bay" />
		<tag k="ssr:stedsnr" v="170549" />
	</node>
	<node lat="63.20394721802645" lon="8.569391666553573" id="-13130">
		<tag k="fixme" v="consider seamark:type=rock or natural=shoal" />
		<tag k="name" v="Lindåsskjeret" />
		<tag k="place" v="islet" />
		<tag k="ssr:stedsnr" v="170636" />
	</node>
	<node lat="63.322341663379625" lon="8.380730551143783" id="-13131">
		<tag k="name" v="Kuskhålbugen" />
		<tag k="natural" v="bay" />
		<tag k="ssr:stedsnr" v="170480" />
	</node>
	<node lat="63.1763916677509" lon="8.318686119487365" id="-13132">
		<tag k="alt_name" v="Haltskaget" />
		<tag k="name" v="Blomtuskaget" />
		<tag k="natural" v="cape" />
		<tag k="ssr:stedsnr" v="170777" />
	</node>
	<node lat="63.33622778036593" lon="8.563775005653135" id="-13142">
		<tag k="name" v="Kobbskaget" />
		<tag k="natural" v="cape" />
		<tag k="ssr:stedsnr" v="171027" />
	</node>
	<node lat="63.22991666645802" lon="8.568425006990156" id="-13148">
		<tag k="name" v="Tangstua" />
		<tag k="natural" v="bay" />
		<tag k="ssr:stedsnr" v="171724" />
	</node>
	<node lat="63.2025388916497" lon="8.58660832887287" id="-13176">
		<tag k="name" v="Vikaneset" />
		<tag k="natural" v="cape" />
		<tag k="ssr:stedsnr" v="194115" />
	</node>
	<node lat="63.191841664756225" lon="8.291044448264692" id="-13178">
		<tag k="name" v="Oterneset" />
		<tag k="natural" v="cape" />
		<tag k="ssr:stedsnr" v="194126" />
	</node>
	<node lat="63.426516669211935" lon="8.855647217747569" id="-13181">
		<tag k="name" v="Stranda" />
		<tag k="natural" v="bay" />
		<tag k="ssr:stedsnr" v="194239" />
	</node>
	<node lat="63.2112527799382" lon="8.404122214377713" id="-13186">
		<tag k="name" v="Ålmoneset" />
		<tag k="natural" v="cape" />
		<tag k="ssr:stedsnr" v="194001" />
	</node>
	<node lat="63.22404444014296" lon="8.260438885452848" id="-13188">
		<tag k="name" v="Jørnøya" />
		<tag k="place" v="island" />
		<tag k="ssr:stedsnr" v="194034" />
	</node>
	<node lat="63.23131389275804" lon="8.525436111392125" id="-13193">
		<tag k="name" v="Rottøya" />
		<tag k="place" v="island" />
		<tag k="ssr:stedsnr" v="194058" />
	</node>
	<node lat="63.32776944500845" lon="8.490544440722772" id="-13202">
		<tag k="name" v="Sandvika" />
		<tag k="natural" v="bay" />
		<tag k="ssr:stedsnr" v="194173" />
	</node>
	<node lat="63.24412778125937" lon="8.28317221412757" id="-13203">
		<tag k="name" v="Vinsternes" />
		<tag k="natural" v="cape" />
		<tag k="ssr:stedsnr" v="194181" />
	</node>
	<node lat="63.32166110747805" lon="8.531216671561342" id="-13207">
		<tag k="name" v="Storvikbugen" />
		<tag k="natural" v="bay" />
		<tag k="ssr:stedsnr" v="194288" />
	</node>
	<node lat="63.32248889089552" lon="8.477602770796926" id="-13208">
		<tag k="name" v="Gjøtaneset" />
		<tag k="natural" v="cape" />
		<tag k="ssr:stedsnr" v="194291" />
	</node>
	<node lat="63.313013889451355" lon="8.470830556937083" id="-13209">
		<tag k="name" v="Djupvika" />
		<tag k="natural" v="bay" />
		<tag k="ssr:stedsnr" v="194305" />
	</node>
	<node lat="63.28175277918641" lon="8.355200005227022" id="-13212">
		<tag k="name" v="Brattholmen" />
		<tag k="place" v="islet" />
		<tag k="ssr:stedsnr" v="194333" />
	</node>
	<node lat="63.282480557260044" lon="8.3245249953732" id="-13213">
		<tag k="name" v="Steinholmen" />
		<tag k="place" v="islet" />
		<tag k="ssr:stedsnr" v="194335" />
	</node>
	<node lat="63.25570277678428" lon="8.212594444580956" id="-13230">
		<tag k="name" v="Laukholmen" />
		<tag k="place" v="islet" />
		<tag k="ssr:stedsnr" v="194887" />
	</node>
	<node lat="63.3447388898097" lon="8.47539999762197" id="-13232">
		<tag k="name" v="Sandvikbukta" />
		<tag k="natural" v="bay" />
		<tag k="ssr:stedsnr" v="195169" />
	</node>
	<node lat="63.328938892200576" lon="8.54320554583768" id="-13249">
		<tag k="name" v="Seternesbukta" />
		<tag k="natural" v="bay" />
		<tag k="ssr:stedsnr" v="289217" />
	</node>
	<node lat="63.38766944523449" lon="8.559355547315203" id="-13259">
		<tag k="name" v="Rønsvikbukta" />
		<tag k="natural" v="bay" />
		<tag k="ssr:stedsnr" v="292815" />
	</node>
	<node lat="63.19304444256444" lon="8.317713897279841" id="-13262">
		<tag k="name" v="Hallardalbukta" />
		<tag k="natural" v="bay" />
		<tag k="ssr:stedsnr" v="291050" />
	</node>
	<node lat="63.206155553575286" lon="7.95800277044315" id="-13264">
		<tag k="fixme" v="consider seamark:type=rock or natural=shoal" />
		<tag k="name" v="Nordskjeret" />
		<tag k="place" v="islet" />
		<tag k="ssr:stedsnr" v="291059" />
	</node>
	<node lat="63.256369442604196" lon="8.497138880424313" id="-13266">
		<tag k="name" v="Sørbukta" />
		<tag k="natural" v="bay" />
		<tag k="ssr:stedsnr" v="291146" />
	</node>
	<node lat="63.320252776621174" lon="8.491394440946548" id="-13270">
		<tag k="name" v="Slagbotten" />
		<tag k="natural" v="bay" />
		<tag k="ssr:stedsnr" v="291298" />
	</node>
	<node lat="63.15465000397655" lon="8.171827783056669" id="-13278">
		<tag k="name" v="Vikaholmen" />
		<tag k="natural" v="cape" />
		<tag k="ssr:stedsnr" v="291620" />
	</node>
	<node lat="63.22713055128218" lon="8.224486115835372" id="-13287">
		<tag k="name" v="Kuvika" />
		<tag k="natural" v="bay" />
		<tag k="ssr:stedsnr" v="291724" />
	</node>
	<node lat="63.18356111283161" lon="7.88116666518573" id="-13289">
		<tag k="fixme" v="consider seamark:type=rock or natural=shoal" />
		<tag k="name" v="Tennskjeret" />
		<tag k="place" v="islet" />
		<tag k="ssr:stedsnr" v="291877" />
	</node>
	<node lat="63.33921111428279" lon="8.559999991595024" id="-13296">
		<tag k="name" v="Sagbugen" />
		<tag k="natural" v="bay" />
		<tag k="ssr:stedsnr" v="292020" />
	</node>
	<node lat="63.231638886502815" lon="8.404327778236931" id="-13305">
		<tag k="name" v="Svennhaugbukta" />
		<tag k="natural" v="bay" />
		<tag k="ssr:stedsnr" v="292152" />
	</node>
	<node lat="63.23029444486908" lon="8.401383338290799" id="-13306">
		<tag k="name" v="Ytter Semundsetneset" />
		<tag k="natural" v="cape" />
		<tag k="ssr:stedsnr" v="292153" />
	</node>
	<node lat="63.1435111145329" lon="7.997705559060358" id="-13309">
		<tag k="name" v="Rovikøysundet" />
		<tag k="natural" v="strait" />
		<tag k="ssr:stedsnr" v="292254" />
	</node>
	<node lat="63.18763333395546" lon="7.873605546010626" id="-13310">
		<tag k="fixme" v="consider seamark:type=rock or natural=shoal" />
		<tag k="name" v="Tvillingskjera" />
		<tag k="place" v="islet" />
		<tag k="ssr:stedsnr" v="292282" />
	</node>
	<node lat="63.32185833088285" lon="8.533833326998753" id="-13311">
		<tag k="name" v="Vester Ramsvikbukta" />
		<tag k="natural" v="bay" />
		<tag k="ssr:stedsnr" v="292294" />
	</node>
	<node lat="63.32551944166842" lon="8.396297219116708" id="-13314">
		<tag k="fixme" v="consider seamark:type=rock or natural=shoal" />
		<tag k="name" v="Garnskjera" />
		<tag k="place" v="islet" />
		<tag k="ssr:stedsnr" v="292397" />
	</node>
	<node lat="63.336630554143056" lon="8.447988890215749" id="-13319">
		<tag k="name" v="Hårtuva" />
		<tag k="natural" v="cape" />
		<tag k="ssr:stedsnr" v="292362" />
	</node>
	<node lat="63.30263888806808" lon="8.525116658081403" id="-13324">
		<tag k="name" v="Vorpneset" />
		<tag k="natural" v="cape" />
		<tag k="ssr:stedsnr" v="293336" />
	</node>
	<node lat="63.317611113922034" lon="8.653733326394846" id="-13332">
		<tag k="name" v="Hamneset" />
		<tag k="natural" v="cape" />
		<tag k="ssr:stedsnr" v="292953" />
	</node>
	<node lat="63.384644441565776" lon="8.596355557081457" id="-13338">
		<tag k="name" v="Vorpskaget" />
		<tag k="natural" v="cape" />
		<tag k="ssr:stedsnr" v="293109" />
	</node>
	<node lat="63.252094442787374" lon="8.517649990462056" id="-13350">
		<tag k="name" v="Nyingshamn" />
		<tag k="natural" v="bay" />
		<tag k="ssr:stedsnr" v="293420" />
	</node>
	<node lat="63.37564166598484" lon="8.648438884787806" id="-13381">
		<tag k="alt_name" v="Rognneset" />
		<tag k="name" v="Neset" />
		<tag k="natural" v="cape" />
		<tag k="ssr:stedsnr" v="315231" />
	</node>
	<node lat="63.34242777991882" lon="8.691813887682848" id="-13395">
		<tag k="alt_name" v="Vihalsbugen" />
		<tag k="name" v="Vihalsbukta" />
		<tag k="natural" v="bay" />
		<tag k="ssr:stedsnr" v="316162" />
	</node>
	<node lat="63.40140555577792" lon="8.602802777040328" id="-13402">
		<tag k="name" v="Åleflua" />
		<tag k="natural" v="shoal" />
		<tag k="place" v="locality" />
		<tag k="ssr:stedsnr" v="316046" />
	</node>
	<node lat="63.234558335599175" lon="8.103999994003221" id="-13406">
		<tag k="name" v="Hyttneset" />
		<tag k="natural" v="cape" />
		<tag k="ssr:stedsnr" v="316430" />
	</node>
	<node lat="63.24531667094728" lon="8.52055277386116" id="-13422">
		<tag k="name" v="Rottøyflua" />
		<tag k="natural" v="shoal" />
		<tag k="place" v="locality" />
		<tag k="ssr:stedsnr" v="350173" />
	</node>
	<node lat="63.37487777917387" lon="8.486336119567536" id="-13424">
		<tag k="name" v="Stangholmtaren" />
		<tag k="natural" v="shoal" />
		<tag k="place" v="locality" />
		<tag k="ssr:stedsnr" v="350477" />
	</node>
	<node lat="63.19090277953666" lon="8.170383329455593" id="-13426">
		<tag k="name" v="Baggflua" />
		<tag k="natural" v="shoal" />
		<tag k="place" v="locality" />
		<tag k="ssr:stedsnr" v="351085" />
	</node>
	<node lat="63.247080554698066" lon="8.48806944619754" id="-13431">
		<tag k="name" v="Ramsvika" />
		<tag k="natural" v="bay" />
		<tag k="ssr:stedsnr" v="351142" />
	</node>
	<node lat="63.193077777754006" lon="8.180411110172715" id="-13432">
		<tag k="name" v="Trongstineset" />
		<tag k="natural" v="cape" />
		<tag k="ssr:stedsnr" v="351326" />
	</node>
	<node lat="63.255008329677686" lon="8.171611103654563" id="-13435">
		<tag k="fixme" v="consider seamark:type=rock or natural=shoal" />
		<tag k="name" v="Avløsa" />
		<tag k="place" v="islet" />
		<tag k="ssr:stedsnr" v="351494" />
	</node>
	<node lat="63.160324999454424" lon="8.46143887923076" id="-13439">
		<tag k="name" v="Vikan Yttre" />
		<tag k="natural" v="bay" />
		<tag k="ssr:stedsnr" v="351420" />
	</node>
	<node lat="63.176252779663734" lon="7.834374997355894" id="-13440">
		<tag k="name" v="Nordre Huslangholmen" />
		<tag k="place" v="islet" />
		<tag k="ssr:stedsnr" v="351427" />
	</node>
	<node lat="63.140505557633105" lon="7.982947227244029" id="-13441">
		<tag k="name" v="Vambuholmen" />
		<tag k="place" v="islet" />
		<tag k="ssr:stedsnr" v="351433" />
	</node>
	<node lat="63.14957777946202" lon="7.932519446759945" id="-13442">
		<tag k="name" v="Litle Fårøya" />
		<tag k="place" v="islet" />
		<tag k="ssr:stedsnr" v="351435" />
	</node>
	<node lat="63.41941388480301" lon="8.725163883063162" id="-13448">
		<tag k="fixme" v="consider seamark:type=rock or natural=shoal" />
		<tag k="name" v="Sørskjæret" />
		<tag k="place" v="islet" />
		<tag k="ssr:stedsnr" v="351818" />
	</node>
	<node lat="63.261391662920936" lon="8.532269448500031" id="-13453">
		<tag k="name" v="Kleivatåa" />
		<tag k="natural" v="cape" />
		<tag k="ssr:stedsnr" v="352045" />
	</node>
	<node lat="63.25388889325382" lon="8.538361109782622" id="-13460">
		<tag k="name" v="Slyngrompa" />
		<tag k="natural" v="cape" />
		<tag k="ssr:stedsnr" v="352090" />
	</node>
	<node lat="63.19069444442637" lon="8.181847219953442" id="-13463">
		<tag k="name" v="Sauvika" />
		<tag k="natural" v="bay" />
		<tag k="ssr:stedsnr" v="352145" />
	</node>
	<node lat="63.22265833709074" lon="8.411819438738831" id="-13465">
		<tag k="name" v="Inner Semundsetbukta" />
		<tag k="natural" v="bay" />
		<tag k="ssr:stedsnr" v="352151" />
	</node>
	<node lat="63.20828888441119" lon="8.153097213461026" id="-13466">
		<tag k="name" v="Gullsteinsfjøra" />
		<tag k="natural" v="bay" />
		<tag k="ssr:stedsnr" v="352228" />
	</node>
	<node lat="63.21075555377544" lon="8.152341673472039" id="-13467">
		<tag k="fixme" v="consider seamark:type=rock or natural=shoal" />
		<tag k="name" v="Gullsteinsskjeret" />
		<tag k="place" v="islet" />
		<tag k="ssr:stedsnr" v="352231" />
	</node>
	<node lat="63.27177499678478" lon="8.280088896931987" id="-13475">
		<tag k="name" v="Litlsandbukta" />
		<tag k="natural" v="bay" />
		<tag k="ssr:stedsnr" v="352948" />
	</node>
	<node lat="63.18217500172824" lon="8.326377769308628" id="-13476">
		<tag k="name" v="Vorpneset" />
		<tag k="natural" v="cape" />
		<tag k="ssr:stedsnr" v="352951" />
	</node>
	<node lat="63.21758333153906" lon="8.043208328785978" id="-13498">
		<tag k="name" v="Langskaget" />
		<tag k="natural" v="cape" />
		<tag k="ssr:stedsnr" v="352614" />
	</node>
	<node lat="63.200361114664226" lon="8.572222231398342" id="-13499">
		<tag k="name" v="Ytter Hammarbukta" />
		<tag k="natural" v="bay" />
		<tag k="ssr:stedsnr" v="352621" />
	</node>
	<node lat="63.17998610759339" lon="8.31242222394644" id="-13504">
		<tag k="name" v="Litl-Jektvika" />
		<tag k="natural" v="bay" />
		<tag k="ssr:stedsnr" v="352743" />
	</node>
	<node lat="63.17010833507073" lon="7.927513888510471" id="-13507">
		<tag k="name" v="Engvikbukta" />
		<tag k="natural" v="bay" />
		<tag k="ssr:stedsnr" v="352865" />
	</node>
	<node lat="63.18839166751463" lon="8.641758330418904" id="-13517">
		<tag k="name" v="Ytter Digermulen" />
		<tag k="natural" v="cape" />
		<tag k="ssr:stedsnr" v="353222" />
	</node>
	<node lat="63.253233337317575" lon="8.531191663103701" id="-13523">
		<tag k="fixme" v="consider seamark:type=rock or natural=shoal" />
		<tag k="name" v="Gyltgalten" />
		<tag k="place" v="islet" />
		<tag k="ssr:stedsnr" v="353392" />
	</node>
	<node lat="63.40504166448534" lon="8.6518166707555" id="-13540">
		<tag k="fixme" v="consider seamark:type=rock or natural=shoal" />
		<tag k="name" v="Storvikskjeret" />
		<tag k="place" v="islet" />
		<tag k="ssr:stedsnr" v="354735" />
	</node>
	<node lat="63.35316944713415" lon="8.407019437134934" id="-13551">
		<tag k="fixme" v="consider seamark:type=rock or natural=shoal" />
		<tag k="name" v="Lesundklakken" />
		<tag k="place" v="islet" />
		<tag k="ssr:stedsnr" v="376233" />
	</node>
	<node lat="63.32874166596833" lon="8.558477774763547" id="-13558">
		<tag k="fixme" v="consider seamark:type=rock or natural=shoal" />
		<tag k="name" v="Ausa" />
		<tag k="place" v="islet" />
		<tag k="ssr:stedsnr" v="376161" />
	</node>
	<node lat="63.254024999333275" lon="8.265500006883917" id="-13565">
		<tag k="name" v="Høvikbukta" />
		<tag k="natural" v="bay" />
		<tag k="ssr:stedsnr" v="376299" />
	</node>
	<node lat="63.303124997484105" lon="8.28256111677578" id="-13575">
		<tag k="name" v="Nordklakken" />
		<tag k="natural" v="shoal" />
		<tag k="place" v="locality" />
		<tag k="ssr:stedsnr" v="376337" />
	</node>
	<node lat="63.39046944879637" lon="8.652158336572654" id="-13598">
		<tag k="name" v="Kvitberget" />
		<tag k="natural" v="cape" />
		<tag k="ssr:stedsnr" v="377189" />
	</node>
	<node lat="63.266783331289524" lon="8.328958330249721" id="-13603">
		<tag k="name" v="Jøssøyvika" />
		<tag k="natural" v="bay" />
		<tag k="ssr:stedsnr" v="401267" />
	</node>
	<node lat="63.24954444282835" lon="8.2659333249023" id="-13604">
		<tag k="fixme" v="multiple name tags, choose one and add the other to alt_name" />
		<tag k="name" v="Langneset;Laneset" />
		<tag k="natural" v="cape" />
		<tag k="ssr:stedsnr" v="401463" />
	</node>
	<node lat="63.23446389051276" lon="8.256941666902916" id="-13605">
		<tag k="name" v="Storvikskaget" />
		<tag k="natural" v="bay" />
		<tag k="ssr:stedsnr" v="401464" />
	</node>
	<node lat="63.249997225246574" lon="8.231013891503578" id="-13606">
		<tag k="name" v="Litle Herringsøya" />
		<tag k="place" v="islet" />
		<tag k="ssr:stedsnr" v="401473" />
	</node>
	<node lat="63.232372221902075" lon="8.530997231744701" id="-13607">
		<tag k="name" v="Korren" />
		<tag k="natural" v="cape" />
		<tag k="ssr:stedsnr" v="411200" />
	</node>
	<node lat="63.203727774150956" lon="8.023780557119293" id="-13608">
		<tag k="name" v="Labergneset" />
		<tag k="natural" v="cape" />
		<tag k="ssr:stedsnr" v="411631" />
	</node>
	<node lat="63.354249997816346" lon="8.49573055826558" id="-13614">
		<tag k="name" v="Litlholmen" />
		<tag k="place" v="islet" />
		<tag k="ssr:stedsnr" v="412229" />
	</node>
	<node lat="63.24828055270552" lon="8.27237499333149" id="-13618">
		<tag k="name" v="Grindbukta" />
		<tag k="natural" v="bay" />
		<tag k="ssr:stedsnr" v="412586" />
	</node>
	<node lat="63.17550000157662" lon="8.559941671234155" id="-13620">
		<tag k="name" v="Brattsetstranda" />
		<tag k="natural" v="beach" />
		<tag k="ssr:stedsnr" v="412689" />
	</node>
	<node lat="63.34085278006071" lon="8.692055546534213" id="-13622">
		<tag k="name" v="Litlneset" />
		<tag k="natural" v="cape" />
		<tag k="ssr:stedsnr" v="412715" />
	</node>
	<node lat="63.228277774671014" lon="8.069875005288075" id="-13627">
		<tag k="name" v="Smørvika" />
		<tag k="natural" v="bay" />
		<tag k="ssr:stedsnr" v="412613" />
	</node>
	<node lat="63.21382499807817" lon="8.147824990728674" id="-13631">
		<tag k="fixme" v="consider seamark:type=rock or natural=shoal" />
		<tag k="name" v="Blindskjeret" />
		<tag k="place" v="islet" />
		<tag k="ssr:stedsnr" v="412627" />
	</node>
	<node lat="63.27550000441086" lon="8.465891662659898" id="-13633">
		<tag k="name" v="Fløvika" />
		<tag k="natural" v="bay" />
		<tag k="ssr:stedsnr" v="413325" />
	</node>
	<node lat="63.20155278167563" lon="8.29539444252483" id="-13637">
		<tag k="name" v="Måvikneset" />
		<tag k="natural" v="cape" />
		<tag k="ssr:stedsnr" v="413060" />
	</node>
	<node lat="63.238247220150754" lon="8.558200000336052" id="-13639">
		<tag k="name" v="Nessatangen" />
		<tag k="natural" v="cape" />
		<tag k="ssr:stedsnr" v="413113" />
	</node>
	<node lat="63.20547499655334" lon="7.96194723013788" id="-13642">
		<tag k="fixme" v="consider seamark:type=rock or natural=shoal" />
		<tag k="name" v="Skjeringsskjeret" />
		<tag k="place" v="islet" />
		<tag k="ssr:stedsnr" v="413067" />
	</node>
	<node lat="63.1978055511395" lon="7.950538889357327" id="-13643">
		<tag k="name" v="Stongdragsvaet" />
		<tag k="natural" v="strait" />
		<tag k="ssr:stedsnr" v="413072" />
	</node>
	<node lat="63.19258333282969" lon="7.964938890458339" id="-13644">
		<tag k="name" v="Moldvågneset" />
		<tag k="natural" v="cape" />
		<tag k="ssr:stedsnr" v="413073" />
	</node>
	<node lat="63.25043611195714" lon="8.395619435735313" id="-13645">
		<tag k="name" v="Stavneset" />
		<tag k="natural" v="cape" />
		<tag k="ssr:stedsnr" v="413167" />
	</node>
	<node lat="63.32716944237794" lon="8.401963889430991" id="-13648">
		<tag k="name" v="Stongnesset" />
		<tag k="natural" v="cape" />
		<tag k="ssr:stedsnr" v="413449" />
	</node>
	<node lat="63.15835278163583" lon="8.189658339835773" id="-13657">
		<tag k="name" v="Tåa" />
		<tag k="natural" v="cape" />
		<tag k="ssr:stedsnr" v="413634" />
	</node>
	<node lat="63.20313889142306" lon="8.558266666906338" id="-13662">
		<tag k="name" v="Furuneset" />
		<tag k="natural" v="cape" />
		<tag k="ssr:stedsnr" v="413652" />
	</node>
	<node lat="63.20865277906939" lon="8.01290555179616" id="-13665">
		<tag k="fixme" v="consider seamark:type=rock or natural=shoal" />
		<tag k="name" v="Britskjeret" />
		<tag k="place" v="islet" />
		<tag k="ssr:stedsnr" v="413663" />
	</node>
	<node lat="63.144152779679544" lon="8.06348334254393" id="-13666">
		<tag k="fixme" v="consider seamark:type=rock or natural=shoal" />
		<tag k="name" v="Flatskjeret" />
		<tag k="place" v="islet" />
		<tag k="ssr:stedsnr" v="413771" />
	</node>
	<node lat="63.18626111451845" lon="8.301641670655142" id="-13672">
		<tag k="alt_name" v="Fugelsnesbukta" />
		<tag k="name" v="Fuglsnesbogen" />
		<tag k="natural" v="bay" />
		<tag k="ssr:stedsnr" v="413869" />
	</node>
	<node lat="63.21271666283265" lon="7.993211120949277" id="-13674">
		<tag k="fixme" v="consider seamark:type=rock or natural=shoal" />
		<tag k="name" v="Stor-Klakkskjeret" />
		<tag k="place" v="islet" />
		<tag k="ssr:stedsnr" v="413952" />
	</node>
	<node lat="63.30518611438048" lon="8.365858328837524" id="-13675">
		<tag k="name" v="Skånholmen" />
		<tag k="place" v="islet" />
		<tag k="ssr:stedsnr" v="413976" />
	</node>
	<node lat="63.41378610756717" lon="8.693633332387298" id="-13688">
		<tag k="name" v="Kuppelvika" />
		<tag k="natural" v="bay" />
		<tag k="ssr:stedsnr" v="414814" />
	</node>
	<node lat="63.35087778032533" lon="8.817033335910851" id="-13693">
		<tag k="name" v="Rapbukta" />
		<tag k="natural" v="bay" />
		<tag k="ssr:stedsnr" v="415853" />
	</node>
	<node lat="63.347252773745666" lon="8.782047213355863" id="-13695">
		<tag k="name" v="Urbukta" />
		<tag k="natural" v="bay" />
		<tag k="ssr:stedsnr" v="415877" />
	</node>
	<node lat="63.28582500263075" lon="8.2846472195385" id="-13699">
		<tag k="name" v="Balsflua" />
		<tag k="natural" v="shoal" />
		<tag k="place" v="locality" />
		<tag k="ssr:stedsnr" v="437384" />
	</node>
	<node lat="63.14808333268896" lon="8.296658342398255" id="-13703">
		<tag k="bay" v="fjord" />
		<tag k="name" v="Korsnesfjorden" />
		<tag k="natural" v="bay" />
		<tag k="ssr:stedsnr" v="437084" />
	</node>
	<node lat="63.20331389020113" lon="8.603336102431738" id="-13707">
		<tag k="name" v="Vikabukta" />
		<tag k="natural" v="bay" />
		<tag k="ssr:stedsnr" v="437142" />
	</node>
	<node lat="63.154625002928434" lon="8.13621944403245" id="-13712">
		<tag k="name" v="Ramsvikbukta" />
		<tag k="natural" v="bay" />
		<tag k="ssr:stedsnr" v="437331" />
	</node>
	<node lat="63.226022218014165" lon="8.060669451559534" id="-13727">
		<tag k="name" v="Brandsvikstranda" />
		<tag k="natural" v="beach" />
		<tag k="ssr:stedsnr" v="437421" />
	</node>
	<node lat="63.17973333169215" lon="7.8865083429593765" id="-13732">
		<tag k="fixme" v="consider seamark:type=rock or natural=shoal" />
		<tag k="name" v="Karihatten" />
		<tag k="place" v="islet" />
		<tag k="ssr:stedsnr" v="437487" />
	</node>
	<node lat="63.267977782021056" lon="8.33428610587905" id="-13739">
		<tag k="name" v="Flatholmflua" />
		<tag k="natural" v="shoal" />
		<tag k="place" v="locality" />
		<tag k="ssr:stedsnr" v="497266" />
	</node>
	<node lat="63.36409999759637" lon="8.673930550780776" id="-13748">
		<tag k="alt_name" v="Vikasteinen" />
		<tag k="name" v="Ulvsnessteinen" />
		<tag k="natural" v="shoal" />
		<tag k="place" v="locality" />
		<tag k="ssr:stedsnr" v="497223" />
	</node>
	<node lat="63.24288333272993" lon="8.16070277149343" id="-13757">
		<tag k="fixme" v="consider seamark:type=rock or natural=shoal" />
		<tag k="name" v="Båsen" />
		<tag k="place" v="islet" />
		<tag k="ssr:stedsnr" v="497378" />
	</node>
	<node lat="63.20757222557633" lon="7.980372229682323" id="-13771">
		<tag k="name" v="Veddøya" />
		<tag k="place" v="islet" />
		<tag k="ssr:stedsnr" v="498516" />
	</node>
	<node lat="63.22584721917181" lon="8.202038895103232" id="-13778">
		<tag k="name" v="Nordheimsundet" />
		<tag k="natural" v="strait" />
		<tag k="ssr:stedsnr" v="498458" />
	</node>
	<node lat="63.25022500196634" lon="8.191199992287377" id="-13790">
		<tag k="name" v="Hamnasundet" />
		<tag k="natural" v="strait" />
		<tag k="ssr:stedsnr" v="521093" />
	</node>
	<node lat="63.24752221825394" lon="8.22014723039333" id="-13791">
		<tag k="name" v="Kvitholmen" />
		<tag k="place" v="islet" />
		<tag k="ssr:stedsnr" v="522463" />
	</node>
	<node lat="63.24458611074265" lon="8.220027771368343" id="-13792">
		<tag k="fixme" v="multiple name tags, choose one and add the other to alt_name; consider seamark:type=rock or natural=shoal" />
		<tag k="name" v="Skarvknollane;Skarvskjæra" />
		<tag k="place" v="islet" />
		<tag k="ssr:stedsnr" v="522452" />
	</node>
	<node lat="63.29024166927431" lon="8.496019453996585" id="-13794">
		<tag k="name" v="Vågsnestaren" />
		<tag k="natural" v="shoal" />
		<tag k="place" v="locality" />
		<tag k="ssr:stedsnr" v="532160" />
	</node>
	<node lat="63.193355551442465" lon="8.166749997924855" id="-13795">
		<tag k="name" v="Inner Baggbogen" />
		<tag k="natural" v="bay" />
		<tag k="ssr:stedsnr" v="533263" />
	</node>
	<node lat="63.15644166473955" lon="7.943563894472263" id="-13796">
		<tag k="name" v="Klokkvika" />
		<tag k="natural" v="bay" />
		<tag k="ssr:stedsnr" v="533133" />
	</node>
	<node lat="63.254749995943264" lon="8.490822230995791" id="-13797">
		<tag k="fixme" v="consider seamark:type=rock or natural=shoal" />
		<tag k="name" v="Kobbskjeret" />
		<tag k="place" v="islet" />
		<tag k="ssr:stedsnr" v="533134" />
	</node>
	<node lat="63.194211108044854" lon="7.914572212618834" id="-13798">
		<tag k="fixme" v="consider seamark:type=rock or natural=shoal" />
		<tag k="name" v="Kalvøydraget" />
		<tag k="place" v="islet" />
		<tag k="ssr:stedsnr" v="533144" />
	</node>
	<node lat="63.16775555376935" lon="7.889858328693635" id="-13799">
		<tag k="name" v="Tangsundholmen" />
		<tag k="place" v="islet" />
		<tag k="ssr:stedsnr" v="533151" />
	</node>
	<node lat="63.2217555585859" lon="8.018649990478938" id="-13800">
		<tag k="name" v="Magnhildbergsgrunnen" />
		<tag k="natural" v="shoal" />
		<tag k="place" v="locality" />
		<tag k="ssr:stedsnr" v="533344" />
	</node>
	<node lat="63.17173055858581" lon="7.836566668559186" id="-13801">
		<tag k="name" v="Nordre Hareboltane" />
		<tag k="place" v="islet" />
		<tag k="ssr:stedsnr" v="533440" />
	</node>
	<node lat="63.3472444473888" lon="8.7330055581685" id="-13806">
		<tag k="name" v="Løvikneset" />
		<tag k="natural" v="cape" />
		<tag k="ssr:stedsnr" v="533889" />
	</node>
	<node lat="63.19878889034583" lon="8.573941662735406" id="-13811">
		<tag k="name" v="Lindåshammaren" />
		<tag k="natural" v="cape" />
		<tag k="ssr:stedsnr" v="533752" />
	</node>
	<node lat="63.42310278040465" lon="8.738991665623331" id="-13812">
		<tag k="fixme" v="consider seamark:type=rock or natural=shoal" />
		<tag k="name" v="Nordskjæret" />
		<tag k="place" v="islet" />
		<tag k="ssr:stedsnr" v="533827" />
	</node>
	<node lat="63.19020277972121" lon="7.882041656941624" id="-13813">
		<tag k="name" v="Linvågfallet" />
		<tag k="natural" v="shoal" />
		<tag k="place" v="locality" />
		<tag k="ssr:stedsnr" v="533899" />
	</node>
	<node lat="63.25960000082479" lon="8.512372221110796" id="-13814">
		<tag k="name" v="Leirvika" />
		<tag k="natural" v="bay" />
		<tag k="ssr:stedsnr" v="534047" />
	</node>
	<node lat="63.349358331791336" lon="8.498027773843374" id="-13834">
		<tag k="name" v="Kvalvika" />
		<tag k="natural" v="bay" />
		<tag k="ssr:stedsnr" v="534253" />
	</node>
	<node lat="63.14013333045292" lon="7.983236103377848" id="-13835">
		<tag k="name" v="Kråkøyvarden" />
		<tag k="place" v="islet" />
		<tag k="ssr:stedsnr" v="534261" />
	</node>
	<node lat="63.17889722637704" lon="7.833730562177651" id="-13840">
		<tag k="fixme" v="consider seamark:type=rock or natural=shoal" />
		<tag k="name" v="Bruaskjeret" />
		<tag k="place" v="islet" />
		<tag k="ssr:stedsnr" v="534284" />
	</node>
	<node lat="63.20212777802015" lon="8.55901389234623" id="-13857">
		<tag k="name" v="Svarthålet" />
		<tag k="natural" v="bay" />
		<tag k="ssr:stedsnr" v="534645" />
	</node>
	<node lat="63.2562694458677" lon="8.324683341177364" id="-13863">
		<tag k="name" v="Sagneset" />
		<tag k="natural" v="cape" />
		<tag k="ssr:stedsnr" v="534756" />
	</node>
	<node lat="63.161066667641435" lon="8.034736108769968" id="-13868">
		<tag k="name" v="Solnes" />
		<tag k="natural" v="cape" />
		<tag k="ssr:stedsnr" v="534860" />
	</node>
	<node lat="63.26725555990354" lon="8.297174999757402" id="-13869">
		<tag k="name" v="Bossvika" />
		<tag k="natural" v="bay" />
		<tag k="ssr:stedsnr" v="534945" />
	</node>
	<node lat="63.212152779770825" lon="7.999997223927003" id="-13871">
		<tag k="fixme" v="consider seamark:type=rock or natural=shoal" />
		<tag k="name" v="Tangerodden" />
		<tag k="place" v="islet" />
		<tag k="ssr:stedsnr" v="534958" />
	</node>
	<node lat="63.19448333036424" lon="8.602783338792129" id="-13875">
		<tag k="name" v="Halsvika" />
		<tag k="natural" v="bay" />
		<tag k="ssr:stedsnr" v="535184" />
	</node>
	<node lat="63.332097219966805" lon="8.687761115854864" id="-13877">
		<tag k="name" v="Furuneset" />
		<tag k="natural" v="cape" />
		<tag k="ssr:stedsnr" v="535236" />
	</node>
	<node lat="63.27659444000315" lon="8.465158330162225" id="-13879">
		<tag k="name" v="Porktrøbugen" />
		<tag k="natural" v="bay" />
		<tag k="ssr:stedsnr" v="535395" />
	</node>
	<node lat="63.41396388982141" lon="8.722422222345726" id="-13890">
		<tag k="alt_name" v="Havnvikskaget" />
		<tag k="name" v="Hamnvikskaget" />
		<tag k="natural" v="cape" />
		<tag k="ssr:stedsnr" v="535626" />
	</node>
	<node lat="63.3406444453036" lon="8.52831110583688" id="-13908">
		<tag k="name" v="Bårdsholmen" />
		<tag k="place" v="islet" />
		<tag k="ssr:stedsnr" v="557116" />
	</node>
	<node lat="63.287113891763916" lon="8.257875009344048" id="-13916">
		<tag k="name" v="Grunnskallen" />
		<tag k="natural" v="shoal" />
		<tag k="place" v="locality" />
		<tag k="ssr:stedsnr" v="557343" />
	</node>
	<node lat="63.1863361110223" lon="8.301411101572118" id="-13918">
		<tag k="name" v="Bukta" />
		<tag k="natural" v="bay" />
		<tag k="ssr:stedsnr" v="558124" />
	</node>
	<node lat="63.22953333055474" lon="8.569963886588644" id="-13921">
		<tag k="name" v="Bjøringen" />
		<tag k="natural" v="cape" />
		<tag k="ssr:stedsnr" v="558043" />
	</node>
	<node lat="63.27066944298316" lon="8.333605564831721" id="-13928">
		<tag k="name" v="Flatholmen" />
		<tag k="place" v="islet" />
		<tag k="ssr:stedsnr" v="558274" />
	</node>
	<node lat="63.321130553350656" lon="8.56430277967922" id="-13931">
		<tag k="name" v="Rotneset" />
		<tag k="natural" v="cape" />
		<tag k="ssr:stedsnr" v="558320" />
	</node>
	<node lat="63.31910833026895" lon="8.62944999793785" id="-13932">
		<tag k="name" v="Glomstadholmen" />
		<tag k="place" v="islet" />
		<tag k="ssr:stedsnr" v="558335" />
	</node>
	<node lat="63.17199722490969" lon="7.848236108951912" id="-13944">
		<tag k="name" v="Møyslåtten" />
		<tag k="place" v="island" />
		<tag k="ssr:stedsnr" v="558485" />
	</node>
	<node lat="63.33734444584966" lon="8.532180549686768" id="-13951">
		<tag k="name" v="Langneset" />
		<tag k="natural" v="cape" />
		<tag k="ssr:stedsnr" v="559230" />
	</node>
	<node lat="63.24273055655415" lon="8.39380000060444" id="-13960">
		<tag k="name" v="Skagtåa" />
		<tag k="natural" v="cape" />
		<tag k="ssr:stedsnr" v="592085" />
	</node>
	<node lat="63.23983055549225" lon="8.522594443532148" id="-13961">
		<tag k="name" v="Rottøyholman" />
		<tag k="place" v="islet" />
		<tag k="ssr:stedsnr" v="592197" />
	</node>
	<node lat="63.208691668241464" lon="8.007497213412412" id="-13964">
		<tag k="fixme" v="consider seamark:type=rock or natural=shoal" />
		<tag k="name" v="Hummarvågskjeret" />
		<tag k="place" v="islet" />
		<tag k="ssr:stedsnr" v="593581" />
	</node>
	<node lat="63.19407221943569" lon="7.950216664545806" id="-13966">
		<tag k="name" v="Linnvåg-Ramsøya" />
		<tag k="place" v="islet" />
		<tag k="ssr:stedsnr" v="594076" />
	</node>
	<node lat="63.19581111413431" lon="7.983033338841131" id="-13967">
		<tag k="name" v="Ørnholmen" />
		<tag k="place" v="islet" />
		<tag k="ssr:stedsnr" v="594095" />
	</node>
	<node lat="63.195252779733515" lon="7.9761055541942385" id="-13968">
		<tag k="name" v="Singsøya" />
		<tag k="place" v="island" />
		<tag k="ssr:stedsnr" v="594096" />
	</node>
	<node lat="63.19610278012588" lon="7.972099991658397" id="-13969">
		<tag k="name" v="Sørnes" />
		<tag k="natural" v="cape" />
		<tag k="ssr:stedsnr" v="594097" />
	</node>
	<node lat="63.176341667000926" lon="8.189077785400743" id="-13970">
		<tag k="name" v="Brentvikan" />
		<tag k="natural" v="bay" />
		<tag k="ssr:stedsnr" v="594173" />
	</node>
	<node lat="63.163491666421436" lon="8.27648611552193" id="-13971">
		<tag k="name" v="Kariholet" />
		<tag k="natural" v="bay" />
		<tag k="ssr:stedsnr" v="594143" />
	</node>
	<node lat="63.246194442927454" lon="8.48826388830279" id="-13972">
		<tag k="name" v="Oksbåsen" />
		<tag k="natural" v="bay" />
		<tag k="ssr:stedsnr" v="594145" />
	</node>
	<node lat="63.24309166612995" lon="8.495775001318814" id="-13973">
		<tag k="name" v="Sør-Rotøybukt" />
		<tag k="natural" v="bay" />
		<tag k="ssr:stedsnr" v="594146" />
	</node>
	<node lat="63.16470833110479" lon="7.898147218734114" id="-13975">
		<tag k="name" v="Sjøbuholmen" />
		<tag k="place" v="islet" />
		<tag k="ssr:stedsnr" v="594181" />
	</node>
	<node lat="63.1837000043681" lon="7.919977773897247" id="-13979">
		<tag k="name" v="Litle Ringholmen" />
		<tag k="place" v="islet" />
		<tag k="ssr:stedsnr" v="594388" />
	</node>
	<node lat="63.21487499735481" lon="7.988569448371428" id="-13984">
		<tag k="name" v="Klakken" />
		<tag k="natural" v="shoal" />
		<tag k="place" v="locality" />
		<tag k="ssr:stedsnr" v="594347" />
	</node>
	<node lat="63.15878333733121" lon="8.472586115773067" id="-13985">
		<tag k="name" v="Inner Vikan" />
		<tag k="natural" v="bay" />
		<tag k="ssr:stedsnr" v="594427" />
	</node>
	<node lat="63.165405551252036" lon="7.777088887660867" id="-13986">
		<tag k="name" v="Talsgrunnan" />
		<tag k="natural" v="shoal" />
		<tag k="place" v="locality" />
		<tag k="ssr:stedsnr" v="594429" />
	</node>
	<node lat="63.15396388472237" lon="8.15146666797772" id="-13987">
		<tag k="name" v="Vorpskaget" />
		<tag k="natural" v="cape" />
		<tag k="ssr:stedsnr" v="594438" />
	</node>
	<node lat="63.16362222518253" lon="8.517238884916052" id="-13989">
		<tag k="name" v="Geistadflua" />
		<tag k="natural" v="shoal" />
		<tag k="place" v="locality" />
		<tag k="ssr:stedsnr" v="594722" />
	</node>
	<node lat="63.184416667658226" lon="8.597636101447554" id="-13990">
		<tag k="name" v="Arøygrunnen" />
		<tag k="natural" v="shoal" />
		<tag k="place" v="locality" />
		<tag k="ssr:stedsnr" v="594723" />
	</node>
	<node lat="63.21886388536731" lon="8.334866672444914" id="-13991">
		<tag k="name" v="Fiskarneset" />
		<tag k="natural" v="cape" />
		<tag k="ssr:stedsnr" v="594732" />
	</node>
	<node lat="63.12009999839735" lon="7.965202770866997" id="-13994">
		<tag k="bay" v="fjord" />
		<tag k="name" v="Årsundfjorden" />
		<tag k="natural" v="bay" />
		<tag k="ssr:stedsnr" v="594572" />
	</node>
	<node lat="63.245533337267894" lon="8.159758329306788" id="-13995">
		<tag k="name" v="Ytterøyskaget" />
		<tag k="natural" v="cape" />
		<tag k="ssr:stedsnr" v="594597" />
	</node>
	<node lat="63.166508330775805" lon="8.520163888068126" id="-13997">
		<tag k="alt_name" v="Geistadbogen" />
		<tag k="name" v="Gjestadbugen" />
		<tag k="natural" v="bay" />
		<tag k="ssr:stedsnr" v="594679" />
	</node>
	<node lat="63.211547223222865" lon="7.998494437707577" id="-14000">
		<tag k="fixme" v="consider seamark:type=rock or natural=shoal" />
		<tag k="name" v="Seiskjeret" />
		<tag k="place" v="islet" />
		<tag k="ssr:stedsnr" v="594945" />
	</node>
	<node lat="63.1858444465454" lon="7.879855561195665" id="-14006">
		<tag k="name" v="Lyngholmen" />
		<tag k="place" v="islet" />
		<tag k="ssr:stedsnr" v="594870" />
	</node>
	<node lat="63.17823055907031" lon="7.914238883568774" id="-14007">
		<tag k="name" v="Linvågneset" />
		<tag k="natural" v="cape" />
		<tag k="ssr:stedsnr" v="594878" />
	</node>
	<node lat="63.1887666667855" lon="8.647852777517425" id="-14012">
		<tag k="name" v="Øver Digermulen" />
		<tag k="natural" v="cape" />
		<tag k="ssr:stedsnr" v="595174" />
	</node>
	<node lat="63.3543527784713" lon="8.512686102909411" id="-14013">
		<tag k="name" v="Klakken" />
		<tag k="natural" v="shoal" />
		<tag k="place" v="locality" />
		<tag k="ssr:stedsnr" v="595129" />
	</node>
	<node lat="63.141472218914444" lon="7.996783334448776" id="-14020">
		<tag k="name" v="Rovikøya" />
		<tag k="place" v="islet" />
		<tag k="ssr:stedsnr" v="595248" />
	</node>
	<node lat="63.27573888883566" lon="8.46850278043498" id="-14021">
		<tag k="name" v="Langskaget" />
		<tag k="natural" v="cape" />
		<tag k="ssr:stedsnr" v="595272" />
	</node>
	<node lat="63.32451944362823" lon="8.54554444763291" id="-14022">
		<tag k="name" v="Remsvikbukta" />
		<tag k="natural" v="bay" />
		<tag k="ssr:stedsnr" v="595273" />
	</node>
	<node lat="63.267958332202305" lon="8.384727783486944" id="-14027">
		<tag k="name" v="Kjelholmen" />
		<tag k="place" v="islet" />
		<tag k="ssr:stedsnr" v="595356" />
	</node>
	<node lat="63.154908331636165" lon="8.176288897162756" id="-14031">
		<tag k="name" v="Kleivhaugfjøra" />
		<tag k="natural" v="beach" />
		<tag k="ssr:stedsnr" v="595530" />
	</node>
	<node lat="63.18976388909196" lon="8.630591675865809" id="-14037">
		<tag k="name" v="Hålåbukta indre" />
		<tag k="natural" v="bay" />
		<tag k="ssr:stedsnr" v="595571" />
	</node>
	<node lat="63.201363890746556" lon="8.586466668914689" id="-14059">
		<tag k="name" v="Sjømatvika" />
		<tag k="natural" v="bay" />
		<tag k="ssr:stedsnr" v="596177" />
	</node>
	<node lat="63.20815833462003" lon="8.591513890851887" id="-14060">
		<tag k="name" v="Furuneset" />
		<tag k="natural" v="cape" />
		<tag k="ssr:stedsnr" v="596180" />
	</node>
	<node lat="63.2337194455267" lon="8.2154833258184" id="-14093">
		<tag k="name" v="Storbogen" />
		<tag k="natural" v="cape" />
		<tag k="ssr:stedsnr" v="619451" />
	</node>
	<node lat="63.34940277454152" lon="8.493958325310448" id="-14103">
		<tag k="name" v="Kvalvikskaget" />
		<tag k="natural" v="cape" />
		<tag k="ssr:stedsnr" v="619181" />
	</node>
	<node lat="63.31774166760991" lon="8.360441675577514" id="-14104">
		<tag k="name" v="Kalven" />
		<tag k="natural" v="shoal" />
		<tag k="place" v="locality" />
		<tag k="ssr:stedsnr" v="619183" />
	</node>
	<node lat="63.39065555570128" lon="8.584325003992774" id="-14106">
		<tag k="name" v="Skipnesodden" />
		<tag k="natural" v="cape" />
		<tag k="ssr:stedsnr" v="619249" />
	</node>
	<node lat="63.16329999748265" lon="7.856441660756341" id="-14114">
		<tag k="name" v="Tjønnøya" />
		<tag k="place" v="islet" />
		<tag k="ssr:stedsnr" v="619342" />
	</node>
	<node lat="63.160016669326694" lon="7.908030557493378" id="-14116">
		<tag k="name" v="Golma" />
		<tag k="place" v="island" />
		<tag k="ssr:stedsnr" v="619345" />
	</node>
	<node lat="63.16293888665028" lon="7.879680554810489" id="-14133">
		<tag k="name" v="Skjelsundet" />
		<tag k="natural" v="strait" />
		<tag k="ssr:stedsnr" v="654150" />
	</node>
	<node lat="63.15876666993023" lon="7.877333329782815" id="-14134">
		<tag k="name" v="Korssundet" />
		<tag k="natural" v="strait" />
		<tag k="ssr:stedsnr" v="654151" />
	</node>
	<node lat="63.25572222369566" lon="8.193394447069839" id="-14135">
		<tag k="name" v="Skjelsundet" />
		<tag k="natural" v="strait" />
		<tag k="ssr:stedsnr" v="643150" />
	</node>
	<node lat="63.2332222215744" lon="8.563880554364713" id="-14143">
		<tag k="name" v="Torsetflua" />
		<tag k="natural" v="shoal" />
		<tag k="place" v="locality" />
		<tag k="ssr:stedsnr" v="653179" />
	</node>
	<node lat="63.333991665035455" lon="8.41776388169418" id="-14144">
		<tag k="name" v="Knubbholmen" />
		<tag k="place" v="islet" />
		<tag k="ssr:stedsnr" v="653547" />
	</node>
	<node lat="63.209688885855684" lon="8.279291673831006" id="-14145">
		<tag k="alt_name" v="Viavikholmen" />
		<tag k="name" v="Vikaholmen" />
		<tag k="place" v="islet" />
		<tag k="ssr:stedsnr" v="654070" />
	</node>
	<node lat="63.292266668206764" lon="8.28881945323975" id="-14146">
		<tag k="fixme" v="consider seamark:type=rock or natural=shoal" />
		<tag k="name" v="Svartskjæret" />
		<tag k="place" v="islet" />
		<tag k="ssr:stedsnr" v="654071" />
	</node>
	<node lat="63.20176666601936" lon="8.163722231813141" id="-14149">
		<tag k="name" v="Otergildra" />
		<tag k="natural" v="bay" />
		<tag k="ssr:stedsnr" v="654271" />
	</node>
	<node lat="63.23374999604453" lon="8.126213896211356" id="-14152">
		<tag k="fixme" v="consider seamark:type=rock or natural=shoal" />
		<tag k="name" v="Sandvikmusa" />
		<tag k="place" v="islet" />
		<tag k="ssr:stedsnr" v="654658" />
	</node>
	<node lat="63.171852776393365" lon="7.893719437256993" id="-14155">
		<tag k="name" v="Hestøyhamna" />
		<tag k="natural" v="bay" />
		<tag k="ssr:stedsnr" v="654892" />
	</node>
	<node lat="63.2123721481028" lon="8.274446704606605" id="-14156">
		<tag k="name" v="Larsvikbukta" />
		<tag k="natural" v="bay" />
		<tag k="ssr:stedsnr" v="655049" />
	</node>
	<node lat="63.188658330953" lon="7.9374083309094745" id="-14160">
		<tag k="name" v="Ramsøysundet" />
		<tag k="natural" v="strait" />
		<tag k="ssr:stedsnr" v="655079" />
	</node>
	<node lat="63.18616388925266" lon="7.873888884209373" id="-14163">
		<tag k="name" v="Kjøvholmen" />
		<tag k="place" v="islet" />
		<tag k="ssr:stedsnr" v="655300" />
	</node>
	<node lat="63.27432777666857" lon="8.398075001777187" id="-14173">
		<tag k="name" v="Kannbukta" />
		<tag k="natural" v="bay" />
		<tag k="ssr:stedsnr" v="655364" />
	</node>
	<node lat="63.266619445990315" lon="8.394747215652234" id="-14174">
		<tag k="fixme" v="consider seamark:type=rock or natural=shoal" />
		<tag k="name" v="Tennskjeret" />
		<tag k="place" v="islet" />
		<tag k="ssr:stedsnr" v="655369" />
	</node>
	<node lat="63.227163888817216" lon="8.213347220985092" id="-14183">
		<tag k="fixme" v="consider seamark:type=rock or natural=shoal" />
		<tag k="name" v="Klakken" />
		<tag k="place" v="islet" />
		<tag k="ssr:stedsnr" v="655720" />
	</node>
	<node lat="63.21923055940403" lon="8.146169437709363" id="-14189">
		<tag k="name" v="Kalvikbukta" />
		<tag k="natural" v="bay" />
		<tag k="ssr:stedsnr" v="655670" />
	</node>
	<node lat="63.18014722174117" lon="8.309402771147004" id="-14191">
		<tag k="name" v="Jektvika" />
		<tag k="natural" v="bay" />
		<tag k="ssr:stedsnr" v="655747" />
	</node>
	<node lat="63.14445277482042" lon="8.065800007226871" id="-14192">
		<tag k="name" v="Tømmerholmen" />
		<tag k="place" v="islet" />
		<tag k="ssr:stedsnr" v="655753" />
	</node>
	<node lat="63.174947223804025" lon="7.909647230186588" id="-14194">
		<tag k="name" v="Galgeneset" />
		<tag k="natural" v="cape" />
		<tag k="ssr:stedsnr" v="655877" />
	</node>
	<node lat="63.258341669553616" lon="8.25755833724671" id="-14196">
		<tag k="name" v="Jektskaget" />
		<tag k="natural" v="cape" />
		<tag k="ssr:stedsnr" v="655959" />
	</node>
	<node lat="63.17891110839742" lon="8.334288883143792" id="-14197">
		<tag k="name" v="Båtvika" />
		<tag k="natural" v="bay" />
		<tag k="ssr:stedsnr" v="655968" />
	</node>
	<node lat="63.23867222239872" lon="8.390263891164073" id="-14202">
		<tag k="name" v="Mittervika" />
		<tag k="natural" v="bay" />
		<tag k="ssr:stedsnr" v="656134" />
	</node>
	<node lat="63.235497218452394" lon="8.396450007524983" id="-14203">
		<tag k="name" v="Gjæresvika" />
		<tag k="natural" v="bay" />
		<tag k="ssr:stedsnr" v="656135" />
	</node>
	<node lat="63.163394445440474" lon="8.290091657019447" id="-14212">
		<tag k="name" v="Skarvhammaren" />
		<tag k="natural" v="cape" />
		<tag k="ssr:stedsnr" v="656915" />
	</node>
	<node lat="63.165405551252036" lon="7.777088887660867" id="-14239">
		<tag k="name" v="Fausken" />
		<tag k="place" v="locality" />
		<tag k="seamark:type" v="rock" />
		<tag k="ssr:stedsnr" v="662662" />
	</node>
	<node lat="63.27713611444284" lon="8.400613879613237" id="-14240">
		<tag k="name" v="Kannflua" />
		<tag k="natural" v="shoal" />
		<tag k="place" v="locality" />
		<tag k="ssr:stedsnr" v="714068" />
	</node>
	<node lat="63.30551388506397" lon="8.344897219462524" id="-14241">
		<tag k="name" v="Nasen" />
		<tag k="natural" v="cape" />
		<tag k="ssr:stedsnr" v="714146" />
	</node>
	<node lat="63.28372222554262" lon="8.490111114595877" id="-14244">
		<tag k="fixme" v="consider seamark:type=rock or natural=shoal" />
		<tag k="name" v="Tennskjæret" />
		<tag k="place" v="islet" />
		<tag k="ssr:stedsnr" v="714173" />
	</node>
	<node lat="63.35461389288611" lon="8.46711110454848" id="-14245">
		<tag k="name" v="Mellandsgrunnen" />
		<tag k="natural" v="shoal" />
		<tag k="place" v="locality" />
		<tag k="ssr:stedsnr" v="714461" />
	</node>
	<node lat="63.141925003550575" lon="7.9611194372748" id="-14246">
		<tag k="name" v="Rognlauholmen" />
		<tag k="place" v="islet" />
		<tag k="ssr:stedsnr" v="715337" />
	</node>
	<node lat="63.143108336125614" lon="7.949263883059247" id="-14247">
		<tag k="name" v="Kjeholmen" />
		<tag k="place" v="islet" />
		<tag k="ssr:stedsnr" v="715364" />
	</node>
	<node lat="63.15419166824058" lon="7.96524444243614" id="-14248">
		<tag k="name" v="Gjengstøbukta" />
		<tag k="natural" v="bay" />
		<tag k="ssr:stedsnr" v="715175" />
	</node>
	<node lat="63.26512222001648" lon="8.524322218154069" id="-14251">
		<tag k="name" v="Storøra" />
		<tag k="natural" v="cape" />
		<tag k="ssr:stedsnr" v="716041" />
	</node>
	<node lat="63.26064999915394" lon="8.513438884569773" id="-14252">
		<tag k="name" v="Nesset" />
		<tag k="natural" v="cape" />
		<tag k="ssr:stedsnr" v="716053" />
	</node>
	<node lat="63.23278611224722" lon="8.093119452643805" id="-14256">
		<tag k="name" v="Nordavindshamna" />
		<tag k="natural" v="bay" />
		<tag k="ssr:stedsnr" v="715665" />
	</node>
	<node lat="63.234197221181795" lon="8.10718889057424" id="-14258">
		<tag k="name" v="Hyttnesvågen" />
		<tag k="natural" v="bay" />
		<tag k="ssr:stedsnr" v="715866" />
	</node>
	<node lat="63.179255551217395" lon="8.290899995383299" id="-14259">
		<tag k="name" v="Fugelsneselva" />
		<tag k="natural" v="bay" />
		<tag k="ssr:stedsnr" v="716774" />
	</node>
	<node lat="63.14561944552584" lon="8.094366664991346" id="-14260">
		<tag k="fixme" v="consider seamark:type=rock or natural=shoal" />
		<tag k="name" v="Skjeret" />
		<tag k="place" v="islet" />
		<tag k="ssr:stedsnr" v="715872" />
	</node>
	<node lat="63.18853611392235" lon="8.643833325443492" id="-14261">
		<tag k="name" v="Perhamna" />
		<tag k="natural" v="bay" />
		<tag k="ssr:stedsnr" v="715966" />
	</node>
	<node lat="63.1890055558912" lon="8.16833055176737" id="-14263">
		<tag k="name" v="Sagbukta" />
		<tag k="natural" v="bay" />
		<tag k="ssr:stedsnr" v="716100" />
	</node>
	<node lat="63.24688888957627" lon="8.4826750042615" id="-14270">
		<tag k="name" v="Hosteggnasen" />
		<tag k="natural" v="cape" />
		<tag k="ssr:stedsnr" v="716188" />
	</node>
	<node lat="63.15404999693173" lon="8.150088883603331" id="-14273">
		<tag k="name" v="Vorpbukta" />
		<tag k="natural" v="bay" />
		<tag k="ssr:stedsnr" v="716547" />
	</node>
	<node lat="63.31551944758294" lon="8.615211116711166" id="-14277">
		<tag k="name" v="Tuvbukta" />
		<tag k="natural" v="bay" />
		<tag k="ssr:stedsnr" v="716566" />
	</node>
	<node lat="63.316038891055804" lon="8.609308330445577" id="-14278">
		<tag k="fixme" v="consider seamark:type=rock or natural=shoal" />
		<tag k="name" v="Tuvskjeret" />
		<tag k="place" v="islet" />
		<tag k="ssr:stedsnr" v="716567" />
	</node>
	<node lat="63.235827782214066" lon="8.26223611178167" id="-14282">
		<tag k="name" v="Storvikbukta" />
		<tag k="natural" v="bay" />
		<tag k="ssr:stedsnr" v="716650" />
	</node>
	<node lat="63.2446694438831" lon="8.2783194454753" id="-14283">
		<tag k="name" v="Vågaskaget" />
		<tag k="natural" v="cape" />
		<tag k="ssr:stedsnr" v="716651" />
	</node>
	<node lat="63.21409166576778" lon="8.582963884967642" id="-14285">
		<tag k="name" v="Vabeinneset" />
		<tag k="natural" v="cape" />
		<tag k="ssr:stedsnr" v="716735" />
	</node>
	<node lat="63.17478055752506" lon="7.913322226197675" id="-14301">
		<tag k="name" v="Vorpbukta" />
		<tag k="natural" v="strait" />
		<tag k="ssr:stedsnr" v="716875" />
	</node>
	<node lat="63.26816944011525" lon="8.2621361054152" id="-14302">
		<tag k="name" v="Valan" />
		<tag k="natural" v="shoal" />
		<tag k="place" v="locality" />
		<tag k="ssr:stedsnr" v="716948" />
	</node>
	<node lat="63.23376944411675" lon="8.497413896022385" id="-14307">
		<tag k="name" v="Kartrøbukta" />
		<tag k="natural" v="bay" />
		<tag k="ssr:stedsnr" v="717094" />
	</node>
	<node lat="63.332519443426285" lon="8.731583331869098" id="-14312">
		<tag k="name" v="Hamnaosen" />
		<tag k="natural" v="bay" />
		<tag k="ssr:stedsnr" v="717142" />
	</node>
	<node lat="63.31292500386096" lon="8.431322231702223" id="-14313">
		<tag k="name" v="Storøya" />
		<tag k="place" v="island" />
		<tag k="ssr:stedsnr" v="717367" />
	</node>
	<node lat="63.22542777556754" lon="8.52019722636315" id="-14323">
		<tag k="name" v="Krokabukta" />
		<tag k="natural" v="bay" />
		<tag k="ssr:stedsnr" v="717711" />
	</node>
	<node lat="63.317230552214234" lon="8.655525005919452" id="-14324">
		<tag k="name" v="Hamna" />
		<tag k="natural" v="bay" />
		<tag k="ssr:stedsnr" v="717951" />
	</node>
	<node lat="63.33987499870658" lon="8.522397224299342" id="-14332">
		<tag k="name" v="Pølå" />
		<tag k="natural" v="shoal" />
		<tag k="place" v="locality" />
		<tag k="ssr:stedsnr" v="718330" />
	</node>
	<node lat="63.34351944549013" lon="8.779122226294405" id="-14351">
		<tag k="name" v="Kåvika" />
		<tag k="natural" v="bay" />
		<tag k="ssr:stedsnr" v="718850" />
	</node>
	<node lat="63.22942499864898" lon="8.229766663093313" id="-14355">
		<tag k="name" v="Aukan" />
		<tag k="natural" v="cape" />
		<tag k="ssr:stedsnr" v="740031" />
	</node>
	<node lat="63.18055833100949" lon="8.589622214157465" id="-14358">
		<tag k="name" v="Arøya" />
		<tag k="place" v="islet" />
		<tag k="ssr:stedsnr" v="740075" />
	</node>
	<node lat="63.327680559739434" lon="8.461416659220836" id="-14360">
		<tag k="name" v="Lesundet" />
		<tag k="natural" v="strait" />
		<tag k="ssr:stedsnr" v="740167" />
	</node>
	<node lat="63.2574027753702" lon="8.241475004383286" id="-14364">
		<tag k="name" v="Herringsøya" />
		<tag k="place" v="island" />
		<tag k="ssr:stedsnr" v="740280" />
	</node>
	<node lat="63.19380555512112" lon="8.684436106397927" id="-14365">
		<tag k="name" v="Røyrneset" />
		<tag k="natural" v="cape" />
		<tag k="ssr:stedsnr" v="740097" />
	</node>
	<node lat="63.16073610966438" lon="7.8702222306908185" id="-14372">
		<tag k="name" v="Klubbøya" />
		<tag k="place" v="islet" />
		<tag k="ssr:stedsnr" v="740288" />
	</node>
	<node lat="63.40184167002894" lon="8.624136103138007" id="-14381">
		<tag k="alt_name" v="Galtfluin" />
		<tag k="name" v="Storflutaren" />
		<tag k="natural" v="shoal" />
		<tag k="place" v="locality" />
		<tag k="ssr:stedsnr" v="741059" />
	</node>
	<node lat="63.38563333582914" lon="8.624027781848646" id="-14383">
		<tag k="alt_name" v="Hanetangen" />
		<tag k="name" v="Hanen" />
		<tag k="natural" v="cape" />
		<tag k="ssr:stedsnr" v="741247" />
	</node>
	<node lat="63.387488892108586" lon="8.613899998339823" id="-14385">
		<tag k="alt_name" v="Skjåflua" />
		<tag k="name" v="Hanefluin" />
		<tag k="natural" v="shoal" />
		<tag k="place" v="locality" />
		<tag k="ssr:stedsnr" v="741262" />
	</node>
	<node lat="63.26625278075746" lon="8.298983325954737" id="-14392">
		<tag k="name" v="Ytre Seterneset" />
		<tag k="natural" v="cape" />
		<tag k="ssr:stedsnr" v="765277" />
	</node>
	<node lat="63.22834166535641" lon="8.5307833267224" id="-14394">
		<tag k="name" v="Oterhalsen" />
		<tag k="natural" v="cape" />
		<tag k="ssr:stedsnr" v="775179" />
	</node>
	<node lat="63.22542222231453" lon="8.552458331879414" id="-14395">
		<tag k="name" v="Råsgrunnen" />
		<tag k="natural" v="shoal" />
		<tag k="place" v="locality" />
		<tag k="ssr:stedsnr" v="775183" />
	</node>
	<node lat="63.253266665353905" lon="8.33134167079736" id="-14396">
		<tag k="name" v="Sagosen" />
		<tag k="natural" v="cape" />
		<tag k="ssr:stedsnr" v="775075" />
	</node>
	<node lat="63.23378888916311" lon="8.216716668810758" id="-14397">
		<tag k="name" v="Øyaneset" />
		<tag k="natural" v="cape" />
		<tag k="ssr:stedsnr" v="775081" />
	</node>
	<node lat="63.202405554440205" lon="8.005811112309335" id="-14399">
		<tag k="fixme" v="consider seamark:type=rock or natural=shoal" />
		<tag k="name" v="Tennskjeret" />
		<tag k="place" v="islet" />
		<tag k="ssr:stedsnr" v="776623" />
	</node>
	<node lat="63.23356666899121" lon="8.161563894961184" id="-14401">
		<tag k="name" v="Inner Kystvika" />
		<tag k="natural" v="bay" />
		<tag k="ssr:stedsnr" v="776649" />
	</node>
	<node lat="63.34295000187775" lon="8.462777771287124" id="-14405">
		<tag k="name" v="Kåvika" />
		<tag k="natural" v="bay" />
		<tag k="ssr:stedsnr" v="776237" />
	</node>
	<node lat="63.197311111000296" lon="8.161055548163224" id="-14406">
		<tag k="name" v="Ytter Baggbogen" />
		<tag k="natural" v="bay" />
		<tag k="ssr:stedsnr" v="776249" />
	</node>
	<node lat="63.303524997198366" lon="8.430669450307585" id="-14407">
		<tag k="name" v="Holmen" />
		<tag k="place" v="islet" />
		<tag k="ssr:stedsnr" v="776315" />
	</node>
	<node lat="63.207711115167676" lon="8.556708331803959" id="-14411">
		<tag k="name" v="Storvikflua" />
		<tag k="natural" v="shoal" />
		<tag k="place" v="locality" />
		<tag k="ssr:stedsnr" v="776718" />
	</node>
	<node lat="63.17276389113297" lon="7.8957083340363" id="-14422">
		<tag k="name" v="Rognøyholmen" />
		<tag k="place" v="islet" />
		<tag k="ssr:stedsnr" v="776877" />
	</node>
	<node lat="63.17563888486866" lon="8.339475002957137" id="-14424">
		<tag k="name" v="Hagabukta" />
		<tag k="natural" v="bay" />
		<tag k="ssr:stedsnr" v="776992" />
	</node>
	<node lat="63.261044444048146" lon="8.536863887568348" id="-14426">
		<tag k="name" v="Tevikhaugen" />
		<tag k="natural" v="cape" />
		<tag k="ssr:stedsnr" v="777048" />
	</node>
	<node lat="63.189997225676805" lon="7.908086117962582" id="-14429">
		<tag k="fixme" v="consider seamark:type=rock or natural=shoal" />
		<tag k="name" v="Svortna" />
		<tag k="place" v="islet" />
		<tag k="ssr:stedsnr" v="777843" />
	</node>
	<node lat="63.18600833770858" lon="7.890436112824" id="-14430">
		<tag k="fixme" v="consider seamark:type=rock or natural=shoal" />
		<tag k="name" v="Storkvalen" />
		<tag k="place" v="islet" />
		<tag k="ssr:stedsnr" v="777848" />
	</node>
	<node lat="63.18256667015034" lon="7.896294452600899" id="-14431">
		<tag k="fixme" v="consider seamark:type=rock or natural=shoal" />
		<tag k="name" v="Litlkvolen" />
		<tag k="place" v="islet" />
		<tag k="ssr:stedsnr" v="777850" />
	</node>
	<node lat="63.35002777849243" lon="8.49213889035683" id="-14443">
		<tag k="name" v="Gråklakken" />
		<tag k="natural" v="cape" />
		<tag k="ssr:stedsnr" v="777247" />
	</node>
	<node lat="63.33524444390838" lon="8.457588889581539" id="-14445">
		<tag k="name" v="Åkviksand" />
		<tag k="natural" v="bay" />
		<tag k="ssr:stedsnr" v="777301" />
	</node>
	<node lat="63.31443333532787" lon="8.428749991687459" id="-14452">
		<tag k="name" v="Lauholmen" />
		<tag k="place" v="islet" />
		<tag k="ssr:stedsnr" v="777349" />
	</node>
	<node lat="63.16263889141438" lon="7.868752786436576" id="-14453">
		<tag k="name" v="Klubbøyholman" />
		<tag k="place" v="islet" />
		<tag k="ssr:stedsnr" v="777410" />
	</node>
	<node lat="63.16248610792585" lon="7.873836113233737" id="-14454">
		<tag k="name" v="Hallarøyholmen" />
		<tag k="place" v="islet" />
		<tag k="ssr:stedsnr" v="777414" />
	</node>
	<node lat="63.34049166965277" lon="8.439850000890782" id="-14456">
		<tag k="fixme" v="consider seamark:type=rock or natural=shoal" />
		<tag k="name" v="Ungane" />
		<tag k="place" v="islet" />
		<tag k="ssr:stedsnr" v="777419" />
	</node>
	<node lat="63.21517221943939" lon="8.040336116052947" id="-14460">
		<tag k="name" v="Steinviksanden" />
		<tag k="natural" v="beach" />
		<tag k="ssr:stedsnr" v="777630" />
	</node>
	<node lat="63.200766669811685" lon="8.82689444848873" id="-14461">
		<tag k="name" v="Bølihammaren" />
		<tag k="natural" v="cape" />
		<tag k="ssr:stedsnr" v="777684" />
	</node>
	<node lat="63.17510833067671" lon="8.31759721925482" id="-14463">
		<tag k="name" v="Sigridvika" />
		<tag k="natural" v="bay" />
		<tag k="ssr:stedsnr" v="777753" />
	</node>
	<node lat="63.14465833120558" lon="8.06456667596662" id="-14465">
		<tag k="name" v="Tangvika" />
		<tag k="natural" v="bay" />
		<tag k="ssr:stedsnr" v="777757" />
	</node>
	<node lat="63.189655557415946" lon="7.94309444028526" id="-14467">
		<tag k="name" v="Hamarsundet" />
		<tag k="natural" v="strait" />
		<tag k="ssr:stedsnr" v="777866" />
	</node>
	<node lat="63.30695555568302" lon="8.547819436795962" id="-14482">
		<tag k="name" v="Saltskjertangane" />
		<tag k="natural" v="bay" />
		<tag k="ssr:stedsnr" v="778279" />
	</node>
	<node lat="63.412669446229216" lon="8.72046667121442" id="-14501">
		<tag k="alt_name" v="Havna" />
		<tag k="name" v="Hamna" />
		<tag k="natural" v="bay" />
		<tag k="ssr:stedsnr" v="778634" />
	</node>
	<node lat="63.17592500114944" lon="8.329033332099156" id="-14515">
		<tag k="name" v="Buholmflua" />
		<tag k="place" v="locality" />
		<tag k="seamark:type" v="rock" />
		<tag k="ssr:stedsnr" v="778898" />
	</node>
	<node lat="63.19332082113347" lon="8.5982766828258" id="-14533">
		<tag k="alt_name" v="Vorpholmen" />
		<tag k="name" v="Vikaholmen" />
		<tag k="place" v="islet" />
		<tag k="ssr:stedsnr" v="801100" />
	</node>
	<node lat="63.2750666662663" lon="8.280011106329308" id="-14537">
		<tag k="name" v="Kjeøya" />
		<tag k="place" v="islet" />
		<tag k="ssr:stedsnr" v="801240" />
	</node>
	<node lat="63.26061388963314" lon="8.348999993164192" id="-14539">
		<tag k="name" v="Marøysundet" />
		<tag k="natural" v="strait" />
		<tag k="ssr:stedsnr" v="801265" />
	</node>
	<node lat="63.29961666962938" lon="8.275608342598241" id="-14540">
		<tag k="name" v="Meklakken" />
		<tag k="natural" v="shoal" />
		<tag k="place" v="locality" />
		<tag k="ssr:stedsnr" v="801328" />
	</node>
	<node lat="63.29961388920776" lon="8.52399722125769" id="-14542">
		<tag k="name" v="Eidsneset" />
		<tag k="natural" v="cape" />
		<tag k="ssr:stedsnr" v="801340" />
	</node>
	<node lat="63.37484444616543" lon="8.501291669734977" id="-14560">
		<tag k="name" v="Korsvika" />
		<tag k="natural" v="bay" />
		<tag k="ssr:stedsnr" v="802224" />
	</node>
	<node lat="63.37493055993352" lon="8.658549996234006" id="-14561">
		<tag k="name" v="Dromnessundet" />
		<tag k="natural" v="strait" />
		<tag k="ssr:stedsnr" v="802227" />
	</node>
	<node lat="63.15054166436717" lon="8.418586111401732" id="-14562">
		<tag k="bay" v="fjord" />
		<tag k="name" v="Arasvikfjorden" />
		<tag k="natural" v="bay" />
		<tag k="old_name" v="Aresvikfjorden" />
		<tag k="ssr:stedsnr" v="802953" />
	</node>
	<node lat="63.24430277846695" lon="8.283986111209922" id="-14570">
		<tag k="fixme" v="multiple name tags, choose one and add the other to alt_name" />
		<tag k="name" v="Sør Vingsnesvågen;Sørvågen" />
		<tag k="natural" v="bay" />
		<tag k="ssr:stedsnr" v="826470" />
	</node>
	<node lat="63.2743805581156" lon="8.361566660526845" id="-14571">
		<tag k="fixme" v="consider seamark:type=rock or natural=shoal" />
		<tag k="name" v="Jøssøyskjæret" />
		<tag k="place" v="islet" />
		<tag k="ssr:stedsnr" v="836057" />
	</node>
	<node lat="63.25963888960519" lon="8.384580554078907" id="-14572">
		<tag k="name" v="Ytre Kjeften" />
		<tag k="natural" v="strait" />
		<tag k="ssr:stedsnr" v="836064" />
	</node>
	<node lat="63.306424999275116" lon="8.364249999353248" id="-14573">
		<tag k="name" v="Gavlhovudbukta" />
		<tag k="natural" v="bay" />
		<tag k="ssr:stedsnr" v="836138" />
	</node>
	<node lat="63.25548333227176" lon="8.495841659442913" id="-14575">
		<tag k="name" v="Litlebukta" />
		<tag k="natural" v="bay" />
		<tag k="ssr:stedsnr" v="837120" />
	</node>
	<node lat="63.15550277585062" lon="7.9478833295907885" id="-14576">
		<tag k="name" v="Ørnholmleira" />
		<tag k="natural" v="shoal" />
		<tag k="place" v="locality" />
		<tag k="ssr:stedsnr" v="837123" />
	</node>
	<node lat="63.24958055818941" lon="8.172188886707403" id="-14577">
		<tag k="name" v="Skrubbholmsundet" />
		<tag k="natural" v="strait" />
		<tag k="ssr:stedsnr" v="837499" />
	</node>
	<node lat="63.155880557722305" lon="7.895936116912802" id="-14579">
		<tag k="name" v="Ytterausa" />
		<tag k="natural" v="bay" />
		<tag k="ssr:stedsnr" v="837158" />
	</node>
	<node lat="63.16872500273134" lon="7.8924416662819" id="-14580">
		<tag k="name" v="Nordre Hestøy" />
		<tag k="place" v="island" />
		<tag k="ssr:stedsnr" v="837174" />
	</node>
	<node lat="63.14639167004936" lon="7.943422213108445" id="-14581">
		<tag k="fixme" v="consider seamark:type=rock or natural=shoal" />
		<tag k="name" v="Skipsskjer" />
		<tag k="place" v="islet" />
		<tag k="ssr:stedsnr" v="837342" />
	</node>
	<node lat="63.19686704344731" lon="8.27959375733777" id="-14585">
		<tag k="alt_name" v="Hålåneset;Holoneset" />
		<tag k="name" v="Holaneset" />
		<tag k="natural" v="cape" />
		<tag k="ssr:stedsnr" v="839895" />
	</node>
	<node lat="63.2213805571859" lon="8.329094444867854" id="-14599">
		<tag k="name" v="Tangen" />
		<tag k="natural" v="cape" />
		<tag k="ssr:stedsnr" v="837746" />
	</node>
	<node lat="63.18862778121222" lon="8.579991663843744" id="-14600">
		<tag k="name" v="Russen" />
		<tag k="place" v="locality" />
		<tag k="seamark:type" v="rock" />
		<tag k="ssr:stedsnr" v="837749" />
	</node>
	<node lat="63.211207633082196" lon="8.276550932838145" id="-14608">
		<tag k="name" v="Viavikneset" />
		<tag k="natural" v="cape" />
		<tag k="ssr:stedsnr" v="838049" />
	</node>
	<node lat="63.261747223426276" lon="8.512277785616178" id="-14609">
		<tag k="name" v="Storholmen" />
		<tag k="place" v="islet" />
		<tag k="ssr:stedsnr" v="838067" />
	</node>
	<node lat="63.31032777766477" lon="8.481744434690974" id="-14618">
		<tag k="fixme" v="consider seamark:type=rock or natural=shoal" />
		<tag k="name" v="Litlkvitskjeret" />
		<tag k="place" v="islet" />
		<tag k="ssr:stedsnr" v="838310" />
	</node>
	<node lat="63.20817777935051" lon="8.392227787073033" id="-14619">
		<tag k="name" v="Håbrannvika" />
		<tag k="natural" v="bay" />
		<tag k="ssr:stedsnr" v="838164" />
	</node>
	<node lat="63.27741110794155" lon="8.465777770336825" id="-14620">
		<tag k="name" v="Otterskaget" />
		<tag k="natural" v="cape" />
		<tag k="ssr:stedsnr" v="838338" />
	</node>
	<node lat="63.33435277472084" lon="8.449999997682138" id="-14623">
		<tag k="fixme" v="consider seamark:type=rock or natural=shoal" />
		<tag k="name" v="Småskjera" />
		<tag k="place" v="islet" />
		<tag k="ssr:stedsnr" v="838348" />
	</node>
	<node lat="63.21462778173934" lon="8.264575008856704" id="-14630">
		<tag k="alt_name" v="Olvikskaget" />
		<tag k="name" v="Olvikneset" />
		<tag k="natural" v="cape" />
		<tag k="ssr:stedsnr" v="838583" />
	</node>
	<node lat="63.18971389292771" lon="8.613930560492383" id="-14631">
		<tag k="fixme" v="consider seamark:type=rock or natural=shoal" />
		<tag k="name" v="Skjeret" />
		<tag k="place" v="islet" />
		<tag k="ssr:stedsnr" v="838623" />
	</node>
	<node lat="63.275541665092796" lon="8.509186107217479" id="-14632">
		<tag k="name" v="Klakkhålet" />
		<tag k="natural" v="bay" />
		<tag k="ssr:stedsnr" v="838437" />
	</node>
	<node lat="63.27563888900525" lon="8.500816671712519" id="-14633">
		<tag k="name" v="Strømsvika" />
		<tag k="natural" v="bay" />
		<tag k="ssr:stedsnr" v="838438" />
	</node>
	<node lat="63.27529999776801" lon="8.496791661246755" id="-14634">
		<tag k="name" v="Høghaugtåa" />
		<tag k="natural" v="cape" />
		<tag k="ssr:stedsnr" v="838442" />
	</node>
	<node lat="63.19835555688343" lon="8.570775001933919" id="-14640">
		<tag k="name" v="Hammarbukta" />
		<tag k="natural" v="bay" />
		<tag k="ssr:stedsnr" v="838651" />
	</node>
	<node lat="63.22561666771799" lon="8.196391660026753" id="-14641">
		<tag k="name" v="Kåvika" />
		<tag k="natural" v="bay" />
		<tag k="ssr:stedsnr" v="838742" />
	</node>
	<node lat="63.31998333764694" lon="8.367999995677513" id="-14650">
		<tag k="fixme" v="consider seamark:type=rock or natural=shoal" />
		<tag k="name" v="Morvikskjera" />
		<tag k="place" v="islet" />
		<tag k="ssr:stedsnr" v="838993" />
	</node>
	<node lat="63.270719443316324" lon="8.262263884460054" id="-14654">
		<tag k="fixme" v="consider seamark:type=rock or natural=shoal" />
		<tag k="name" v="Hamnaskjeret" />
		<tag k="place" v="islet" />
		<tag k="ssr:stedsnr" v="838957" />
	</node>
	<node lat="63.233286108802645" lon="8.509108326509406" id="-14657">
		<tag k="name" v="Djupvika" />
		<tag k="natural" v="bay" />
		<tag k="ssr:stedsnr" v="839095" />
	</node>
	<node lat="63.28425555936343" lon="8.49427500932547" id="-14659">
		<tag k="name" v="Klubbskaget" />
		<tag k="natural" v="cape" />
		<tag k="ssr:stedsnr" v="839108" />
	</node>
	<node lat="63.280136113914594" lon="8.451577783378745" id="-14660">
		<tag k="name" v="Mjøkplassen" />
		<tag k="natural" v="bay" />
		<tag k="ssr:stedsnr" v="839109" />
	</node>
	<node lat="63.42334444346885" lon="8.743219440323278" id="-14676">
		<tag k="fixme" v="consider seamark:type=rock or natural=shoal" />
		<tag k="name" v="Burmannskjeret" />
		<tag k="place" v="islet" />
		<tag k="ssr:stedsnr" v="839659" />
	</node>
	<node lat="63.34496111474747" lon="8.787369437167131" id="-14698">
		<tag k="name" v="Langstranda" />
		<tag k="natural" v="beach" />
		<tag k="ssr:stedsnr" v="840871" />
	</node>
	<node lat="63.3194166690482" lon="8.325013880469516" id="-14704">
		<tag k="name" v="Kvitholmen" />
		<tag k="place" v="islet" />
		<tag k="ssr:stedsnr" v="862185" />
	</node>
	<node lat="63.22329167008193" lon="8.546005557260443" id="-14705">
		<tag k="name" v="Spjøtneset" />
		<tag k="natural" v="cape" />
		<tag k="ssr:stedsnr" v="862032" />
	</node>
	<node lat="63.20342500208046" lon="8.552697230033726" id="-14711">
		<tag k="name" v="Lindåsvika" />
		<tag k="natural" v="bay" />
		<tag k="ssr:stedsnr" v="862136" />
	</node>
	<node lat="63.25379444018159" lon="8.400316669459258" id="-14715">
		<tag k="name" v="Haltbakkbukta" />
		<tag k="natural" v="bay" />
		<tag k="ssr:stedsnr" v="862326" />
	</node>
	<node lat="63.31715555955141" lon="8.491491668339927" id="-14716">
		<tag k="name" v="Værholmen" />
		<tag k="place" v="islet" />
		<tag k="ssr:stedsnr" v="862332" />
	</node>
	<node lat="63.40805277814873" lon="8.662663878950061" id="-14748">
		<tag k="name" v="Tjeldbergodden" />
		<tag k="natural" v="cape" />
		<tag k="ssr:stedsnr" v="937984" />
	</node>
	<node lat="63.217311115488066" lon="8.166358341948671" id="-14752">
		<tag k="name" v="Nygardsvaet" />
		<tag k="natural" v="bay" />
		<tag k="ssr:stedsnr" v="955018" />
	</node>
	<node lat="63.21983611187203" lon="8.182141660242383" id="-14753">
		<tag k="name" v="Haltvika" />
		<tag k="natural" v="bay" />
		<tag k="ssr:stedsnr" v="955019" />
	</node>
	<node lat="63.208830551834346" lon="8.40409444591365" id="-14756">
		<tag k="name" v="Grannavågen" />
		<tag k="natural" v="bay" />
		<tag k="ssr:stedsnr" v="957079" />
	</node>
	<node lat="63.32174999653951" lon="8.521458342143255" id="-14758">
		<tag k="name" v="Skjåvikflua" />
		<tag k="natural" v="shoal" />
		<tag k="place" v="locality" />
		<tag k="ssr:stedsnr" v="957228" />
	</node>
	<node lat="63.237902775504686" lon="8.264316669458601" id="-14760">
		<tag k="fixme" v="consider seamark:type=rock or natural=shoal" />
		<tag k="name" v="Julkaka" />
		<tag k="place" v="islet" />
		<tag k="ssr:stedsnr" v="958642" />
	</node>
	<node lat="63.25174166748272" lon="8.27102499045257" id="-14761">
		<tag k="name" v="Holmvika" />
		<tag k="natural" v="bay" />
		<tag k="ssr:stedsnr" v="958652" />
	</node>
	<node lat="63.26199166475999" lon="8.474897219141518" id="-14764">
		<tag k="name" v="Hallvika" />
		<tag k="natural" v="bay" />
		<tag k="ssr:stedsnr" v="959292" />
	</node>
	<node lat="63.16530555350847" lon="7.821513887246599" id="-14771">
		<tag k="name" v="Gjevataren" />
		<tag k="natural" v="shoal" />
		<tag k="place" v="locality" />
		<tag k="ssr:stedsnr" v="958456" />
	</node>
	<node lat="63.15934999955016" lon="8.452944436525193" id="-14773">
		<tag k="alt_name" v="Gjerdeskjera" />
		<tag k="fixme" v="consider seamark:type=rock or natural=shoal" />
		<tag k="name" v="Gjerdaskjæra" />
		<tag k="place" v="islet" />
		<tag k="ssr:stedsnr" v="958467" />
	</node>
	<node lat="63.343961111869156" lon="8.728702772659833" id="-14779">
		<tag k="fixme" v="consider seamark:type=rock or natural=shoal" />
		<tag k="name" v="Slåttaskjæret" />
		<tag k="place" v="islet" />
		<tag k="ssr:stedsnr" v="958886" />
	</node>
	<node lat="63.17347499922332" lon="7.890733324577738" id="-14780">
		<tag k="name" v="Linvågråset" />
		<tag k="natural" v="bay" />
		<tag k="ssr:stedsnr" v="958895" />
	</node>
	<node lat="63.17594444590456" lon="7.894124998370975" id="-14781">
		<tag k="name" v="Myrbærholm" />
		<tag k="place" v="islet" />
		<tag k="ssr:stedsnr" v="958899" />
	</node>
	<node lat="63.39497221940577" lon="8.65288888031007" id="-14784">
		<tag k="name" v="Grindvikneset" />
		<tag k="natural" v="cape" />
		<tag k="ssr:stedsnr" v="958862" />
	</node>
	<node lat="63.36516111022594" lon="8.698452771486018" id="-14785">
		<tag k="name" v="Engvika" />
		<tag k="natural" v="bay" />
		<tag k="ssr:stedsnr" v="958863" />
	</node>
	<node lat="63.183802782235794" lon="8.173794448924346" id="-14789">
		<tag k="name" v="Hundbergbukta" />
		<tag k="natural" v="bay" />
		<tag k="ssr:stedsnr" v="959117" />
	</node>
	<node lat="63.18060277683616" lon="8.176558328388422" id="-14790">
		<tag k="name" v="Langneset" />
		<tag k="natural" v="cape" />
		<tag k="ssr:stedsnr" v="959119" />
	</node>
	<node lat="63.20088333654827" lon="7.999969441319684" id="-14791">
		<tag k="name" v="Nordvika" />
		<tag k="natural" v="bay" />
		<tag k="ssr:stedsnr" v="959121" />
	</node>
	<node lat="63.32449166700712" lon="8.468377770139996" id="-14804">
		<tag k="name" v="Valen" />
		<tag k="natural" v="shoal" />
		<tag k="place" v="locality" />
		<tag k="ssr:stedsnr" v="959276" />
	</node>
	<node lat="63.29521388972518" lon="8.51046388042552" id="-14815">
		<tag k="name" v="Hjartet" />
		<tag k="place" v="islet" />
		<tag k="ssr:stedsnr" v="960107" />
	</node>
	<node lat="63.344227774668504" lon="8.73773332568601" id="-14822">
		<tag k="fixme" v="consider seamark:type=rock or natural=shoal" />
		<tag k="name" v="Rognskjeret" />
		<tag k="place" v="islet" />
		<tag k="ssr:stedsnr" v="960001" />
	</node>
	<node lat="63.324610401072576" lon="8.573876072070112" id="-14823">
		<tag k="alt_name" v="Nøstviken" />
		<tag k="name" v="Naustvika" />
		<tag k="natural" v="bay" />
		<tag k="ssr:stedsnr" v="960016" />
	</node>
	<node lat="63.34014166969608" lon="8.764238895572024" id="-14828">
		<tag k="name" v="Nessabukta" />
		<tag k="natural" v="bay" />
		<tag k="ssr:stedsnr" v="960124" />
	</node>
	<node lat="63.3233583322294" lon="8.665261117821755" id="-14829">
		<tag k="name" v="Skagan" />
		<tag k="natural" v="cape" />
		<tag k="ssr:stedsnr" v="960225" />
	</node>
	<node lat="63.3350555559524" lon="8.697394446045257" id="-14830">
		<tag k="name" v="Seterbukta" />
		<tag k="natural" v="bay" />
		<tag k="ssr:stedsnr" v="960231" />
	</node>
	<node lat="63.31899444178034" lon="8.662386109923101" id="-14851">
		<tag k="name" v="Aunfjøra" />
		<tag k="natural" v="shoal" />
		<tag k="place" v="locality" />
		<tag k="ssr:stedsnr" v="960972" />
	</node>
	<node lat="63.23103680465573" lon="8.252735370144865" id="-14988">
		<tag k="loc_name" v="Jakopholmen" />
		<tag k="name" v="Jakobsholmen" />
		<tag k="place" v="islet" />
		<tag k="ssr:stedsnr" v="1074773" />
	</node>
	<node lat="63.23094533353713" lon="8.257571454624287" id="-14989">
		<tag k="name" v="Stokkvika" />
		<tag k="natural" v="bay" />
		<tag k="ssr:stedsnr" v="1074774" />
	</node>
	<node lat="63.22364991835467" lon="8.255374231107002" id="-15004">
		<tag k="name" v="Aspvika" />
		<tag k="natural" v="bay" />
		<tag k="ssr:stedsnr" v="1074807" />
	</node>
	<node lat="63.20973482906456" lon="8.282882809491808" id="-15005">
		<tag k="name" v="Myllåbukta" />
		<tag k="natural" v="bay" />
		<tag k="ssr:stedsnr" v="1074809" />
	</node>
	<node lat="63.20749544951141" lon="8.286215170660318" id="-15006">
		<tag k="name" v="Naustbukta" />
		<tag k="natural" v="bay" />
		<tag k="ssr:stedsnr" v="1074810" />
	</node>
	<node lat="63.20701940599453" lon="8.288363097132523" id="-15007">
		<tag k="name" v="Kuskaget" />
		<tag k="natural" v="cape" />
		<tag k="ssr:stedsnr" v="1074812" />
	</node>
	<node lat="63.19734976630776" lon="8.271444135010581" id="-15008">
		<tag k="name" v="Holastranda" />
		<tag k="natural" v="beach" />
		<tag k="ssr:stedsnr" v="1074815" />
	</node>
	<node lat="63.293536287538664" lon="8.301915902041594" id="-15033">
		<tag k="name" v="Fiskholmane" />
		<tag k="place" v="islet" />
		<tag k="ssr:stedsnr" v="1078041" />
	</node>
	<node lat="63.13645174160209" lon="7.946564571568285" id="-15035">
		<tag k="fixme" v="consider seamark:type=rock or natural=shoal" />
		<tag k="name" v="Klubbskjæret" />
		<tag k="place" v="islet" />
		<tag k="ssr:stedsnr" v="1078641" />
	</node>
</osm>
