<?xml version="1.0" encoding="UTF-8"?>
<<<<<<< HEAD
<osm version="0.6" generator="osmapis">
	<node lat="63.327741663282154" lon="8.695105548764229" id="-2414">
=======
<osm generator="osmapis" version="0.6">
	<node id="-95679" lat="63.3277416633" lon="8.69510554876">
>>>>>>> e1d4bc35ff8a6074a6f2e91616a996b547c36f15
		<tag k="alt_name" v="Stemshaug" />
		<tag k="amenity" v="place_of_worship" />
		<tag k="denomination" v="lutheran" />
		<tag k="name" v="Stemshaug kirke" />
		<tag k="religion" v="christian" />
		<tag k="ssr:stedsnr" v="133156" />
	</node>
<<<<<<< HEAD
	<node lat="63.26571111253443" lon="8.528261112823495" id="-3653">
		<tag k="alt_name" v="Aure" />
=======
	<node id="-96797" lat="63.2054059989" lon="8.15320828663">
>>>>>>> e1d4bc35ff8a6074a6f2e91616a996b547c36f15
		<tag k="amenity" v="place_of_worship" />
		<tag k="denomination" v="lutheran" />
		<tag k="name" v="Aure kirke" />
		<tag k="religion" v="christian" />
		<tag k="ssr:stedsnr" v="801276" />
	</node>
<<<<<<< HEAD
	<node lat="63.205586112535876" lon="8.152424997814983" id="-4221">
		<tag k="alt_name" v="Gullstein" />
=======
	<node id="-97115" lat="63.2657111125" lon="8.52826111282">
		<tag k="alt_name" v="Aure" />
>>>>>>> e1d4bc35ff8a6074a6f2e91616a996b547c36f15
		<tag k="amenity" v="place_of_worship" />
		<tag k="denomination" v="lutheran" />
		<tag k="name" v="Gullstein kirke" />
		<tag k="religion" v="christian" />
		<tag k="ssr:stedsnr" v="109268" />
	</node>
	<node lat="63.223758334997555" lon="8.183938879863472" id="-4346">
		<tag k="amenity" v="community_centre" />
		<tag k="name" v="Nordvang" />
		<tag k="ssr:stedsnr" v="141221" />
	</node>
<<<<<<< HEAD
	<node lat="63.22251666238929" lon="8.20766943589882" id="-4519">
=======
	<node id="-95898" lat="63.2225166624" lon="8.2076694359">
>>>>>>> e1d4bc35ff8a6074a6f2e91616a996b547c36f15
		<tag k="amenity" v="community_centre" />
		<tag k="name" v="Nordvang" />
		<tag k="ssr:stedsnr" v="203588" />
	</node>
<<<<<<< HEAD
	<node lat="63.20540599888565" lon="8.153208286632164" id="-5360">
=======
	<node id="-95572" lat="63.2055861125" lon="8.15242499781">
		<tag k="alt_name" v="Gullstein" />
>>>>>>> e1d4bc35ff8a6074a6f2e91616a996b547c36f15
		<tag k="amenity" v="place_of_worship" />
		<tag k="denomination" v="lutheran" />
		<tag k="name" v="Tustna" />
		<tag k="religion" v="christian" />
		<tag k="ssr:stedsnr" v="618423" />
	</node>
	<node id="-95717" lat="63.223758335" lon="8.18393887986">
		<tag k="amenity" v="community_centre" />
		<tag k="name" v="Nordvang" />
		<tag k="ssr:stedsnr" v="141221" />
	</node>
</osm>
