<?xml version="1.0" encoding="UTF-8"?>
<osm generator="osmapis" version="0.6">
	<node id="-12287" lat="63.1974750014" lon="8.09316388923">
		<tag k="name" v="Vassdalsbekken" />
		<tag k="ssr:stedsnr" v="48579" />
		<tag k="waterway" v="stream" />
	</node>
	<node id="-12285" lat="63.16978889" lon="8.46358610995">
		<tag k="name" v="Tunga" />
		<tag k="natural" v="cape" />
		<tag k="ssr:stedsnr" v="48408" />
	</node>
	<node id="-14329" lat="63.2369111123" lon="8.46821667457">
		<tag k="name" v="Haltabekken" />
		<tag k="ssr:stedsnr" v="959145" />
		<tag k="waterway" v="stream" />
	</node>
	<node id="-14322" lat="63.2394472227" lon="8.57512499594">
		<tag k="name" v="Tverrbekken" />
		<tag k="ssr:stedsnr" v="959103" />
		<tag k="waterway" v="stream" />
	</node>
	<node id="-14316" lat="63.2715361104" lon="8.5621222199">
		<tag k="name" v="Svartdalsbekken" />
		<tag k="ssr:stedsnr" v="959044" />
		<tag k="waterway" v="stream" />
	</node>
	<node id="-14311" lat="63.1520777763" lon="8.08588888902">
		<tag k="name" v="Halsneselva" />
		<tag k="ssr:stedsnr" v="958884" />
		<tag k="waterway" v="river" />
	</node>
	<node id="-12262" lat="63.144058337" lon="8.07381666242">
		<tag k="name" v="Finfjøra" />
		<tag k="ssr:stedsnr" v="47863" />
		<tag k="waterway" v="river" />
	</node>
	<node id="-14304" lat="63.2520388921" lon="8.33197777028">
		<tag k="name" v="Vinsterneselva" />
		<tag k="ssr:stedsnr" v="958782" />
		<tag k="waterway" v="stream" />
	</node>
	<node id="-14301" lat="63.2284499963" lon="8.35129723172">
		<tag k="name" v="Klavabekken" />
		<tag k="ssr:stedsnr" v="958771" />
		<tag k="waterway" v="stream" />
	</node>
	<node id="-14299" lat="63.1750944479" lon="8.43378055778">
		<tag k="name" v="Mjølkholmen" />
		<tag k="place" v="islet" />
		<tag k="ssr:stedsnr" v="958709" />
	</node>
	<node id="-12250" lat="63.2220194477" lon="8.70746388375">
		<tag k="name" v="Kvistdalselva" />
		<tag k="ssr:stedsnr" v="13028" />
		<tag k="waterway" v="stream" />
	</node>
	<node id="-12246" lat="63.359497226" lon="8.86135832432">
		<tag k="name" v="Nordfjelltjønna" />
		<tag k="natural" v="water" />
		<tag k="ssr:stedsnr" v="12695" />
	</node>
	<node id="-11598" lat="63.3437000003" lon="8.81363333322">
		<tag k="name" v="Bakkelva" />
		<tag k="ssr:stedsnr" v="717697" />
		<tag k="waterway" v="stream" />
	</node>
	<node id="-14287" lat="63.1988888903" lon="8.15440556439">
		<tag k="name" v="Raftabekken" />
		<tag k="ssr:stedsnr" v="958289" />
		<tag k="waterway" v="stream" />
	</node>
	<node id="-12227" lat="63.32621111" lon="8.82531665774">
		<tag k="name" v="Kalvskinnet" />
		<tag k="natural" v="water" />
		<tag k="ssr:stedsnr" v="12561" />
	</node>
	<node id="-14270" lat="63.4082500015" lon="8.69895834236">
		<tag k="name" v="Kvernavatnet" />
		<tag k="natural" v="water" />
		<tag k="ssr:stedsnr" v="863043" />
	</node>
	<node id="-14268" lat="63.2060305519" lon="8.81733610824">
		<tag k="name" v="Stakabruntjønna" />
		<tag k="natural" v="water" />
		<tag k="ssr:stedsnr" v="862820" />
	</node>
	<node id="-14253" lat="63.2076666638" lon="8.07568054587">
		<tag k="name" v="Vettalivatnet" />
		<tag k="natural" v="water" />
		<tag k="ssr:stedsnr" v="862462" />
	</node>
	<node id="-14248" lat="63.4214416662" lon="8.75656943512">
		<tag k="name" v="Eiteråa" />
		<tag k="ssr:stedsnr" v="862429" />
		<tag k="waterway" v="stream" />
	</node>
	<node id="-12183" lat="63.3129611107" lon="8.68690555548">
		<tag k="name" v="Melkambekken" />
		<tag k="ssr:stedsnr" v="960965" />
		<tag k="waterway" v="stream" />
	</node>
	<node id="-12181" lat="63.2655722205" lon="8.72804165762">
		<tag k="name" v="Kjøltjønna" />
		<tag k="natural" v="water" />
		<tag k="ssr:stedsnr" v="960858" />
	</node>
	<node id="-12180" lat="63.3865250019" lon="8.69190556168">
		<tag k="name" v="Kvennavikbekken" />
		<tag k="ssr:stedsnr" v="960813" />
		<tag k="waterway" v="stream" />
	</node>
	<node id="-14222" lat="63.4013611128" lon="8.80070000785">
		<tag k="name" v="Gammelnaustbukta" />
		<tag k="natural" v="bay" />
		<tag k="ssr:stedsnr" v="862660" />
	</node>
	<node id="-14218" lat="63.3490833336" lon="8.53426944734">
		<tag k="name" v="Torelva" />
		<tag k="ssr:stedsnr" v="862180" />
		<tag k="waterway" v="river" />
	</node>
	<node id="-12167" lat="63.255980559" lon="8.59084999921">
		<tag k="name" v="Seterelva" />
		<tag k="ssr:stedsnr" v="960309" />
		<tag k="waterway" v="stream" />
	</node>
	<node id="-12161" lat="63.2185666697" lon="8.1151361087">
		<tag k="alt_name" v="Fållåelva" />
		<tag k="name" v="Follåelva" />
		<tag k="ssr:stedsnr" v="958653" />
		<tag k="waterway" v="river" />
	</node>
	<node id="-14203" lat="63.2813499666" lon="8.82986983314">
		<tag k="name" v="Setervatnet" />
		<tag k="natural" v="water" />
		<tag k="ssr:stedsnr" v="840638" />
		<tag k="water" v="lake" />
	</node>
	<node id="-12146" lat="63.3636388931" lon="8.70678056169">
		<tag k="name" v="Engvikbekken" />
		<tag k="ssr:stedsnr" v="922220" />
		<tag k="waterway" v="stream" />
	</node>
	<node id="-14191" lat="63.2200527734" lon="8.52208611888">
		<tag k="name" v="Sandeelva" />
		<tag k="ssr:stedsnr" v="839715" />
		<tag k="waterway" v="stream" />
	</node>
	<node id="-14190" lat="63.2035222207" lon="8.54865556378">
		<tag k="name" v="Sagelva" />
		<tag k="ssr:stedsnr" v="839714" />
		<tag k="waterway" v="stream" />
	</node>
	<node id="-10702" lat="63.1656194463" lon="8.42975554949">
		<tag k="name" v="Haffellbekken" />
		<tag k="ssr:stedsnr" v="171833" />
		<tag k="waterway" v="stream" />
	</node>
	<node id="-12139" lat="63.2861111081" lon="8.63617499213">
		<tag k="name" v="Hamnabekken" />
		<tag k="ssr:stedsnr" v="900824" />
		<tag k="waterway" v="stream" />
	</node>
	<node id="-12138" lat="63.3621638846" lon="8.78520832956">
		<tag k="name" v="Skålvasselva" />
		<tag k="ssr:stedsnr" v="900812" />
		<tag k="waterway" v="river" />
	</node>
	<node id="-14185" lat="63.2596277801" lon="8.58770555496">
		<tag k="name" v="Løkåa" />
		<tag k="ssr:stedsnr" v="839612" />
		<tag k="waterway" v="stream" />
	</node>
	<node id="-13907" lat="63.1912638899" lon="8.46648333778">
		<tag k="name" v="Evjene" />
		<tag k="natural" v="bay" />
		<tag k="ssr:stedsnr" v="777335" />
	</node>
	<node id="-12134" lat="63.3933694468" lon="8.79442221988">
		<tag k="name" v="Suner Langvågneset" />
		<tag k="natural" v="cape" />
		<tag k="ssr:stedsnr" v="900765" />
	</node>
	<node id="-12126" lat="63.3291027759" lon="8.74507500124">
		<tag k="name" v="Hamnabekken" />
		<tag k="ssr:stedsnr" v="900170" />
		<tag k="waterway" v="stream" />
	</node>
	<node id="-12125" lat="63.3303166697" lon="8.75764444109">
		<tag k="name" v="Hjelldalsbekken" />
		<tag k="ssr:stedsnr" v="900161" />
		<tag k="waterway" v="stream" />
	</node>
	<node id="-14172" lat="63.2410583303" lon="8.61905000426">
		<tag k="name" v="Lomtjønna" />
		<tag k="natural" v="water" />
		<tag k="ssr:stedsnr" v="839330" />
	</node>
	<node id="-12123" lat="63.2568222203" lon="8.69035554667">
		<tag k="name" v="Klubba" />
		<tag k="natural" v="cape" />
		<tag k="ssr:stedsnr" v="899793" />
	</node>
	<node id="-12122" lat="63.1669888852" lon="8.40667778461">
		<tag k="name" v="Storbekken" />
		<tag k="ssr:stedsnr" v="899855" />
		<tag k="waterway" v="stream" />
	</node>
	<node id="-12120" lat="63.2025166684" lon="8.46120555852">
		<tag k="name" v="Tverrelva" />
		<tag k="ssr:stedsnr" v="899324" />
		<tag k="waterway" v="stream" />
	</node>
	<node id="-14167" lat="63.2001111151" lon="8.66171389249">
		<tag k="name" v="Setertjønna" />
		<tag k="natural" v="water" />
		<tag k="ssr:stedsnr" v="839273" />
	</node>
	<node id="-14166" lat="63.3921555556" lon="8.75153610494">
		<tag k="name" v="Lonene" />
		<tag k="natural" v="water" />
		<tag k="ssr:stedsnr" v="839267" />
		<tag k="water" v="lake" />
	</node>
	<node id="-12116" lat="63.2513222223" lon="8.41546667155">
		<tag k="name" v="Haltbakkbekken" />
		<tag k="ssr:stedsnr" v="899154" />
		<tag k="waterway" v="stream" />
	</node>
	<node id="-11918" lat="63.1607416642" lon="8.16017222194">
		<tag k="name" v="Ekrebekken" />
		<tag k="ssr:stedsnr" v="777545" />
		<tag k="waterway" v="stream" />
	</node>
	<node id="-14158" lat="63.2127722261" lon="8.63102499808">
		<tag k="name" v="Sagvatnet" />
		<tag k="natural" v="water" />
		<tag k="ssr:stedsnr" v="839172" />
	</node>
	<node id="-14150" lat="63.3414722182" lon="8.5646916627">
		<tag k="name" v="Sagbekken" />
		<tag k="ssr:stedsnr" v="839020" />
		<tag k="waterway" v="river" />
	</node>
	<node id="-10891" lat="63.3870388897" lon="8.79739723048">
		<tag k="name" v="Raplibekken" />
		<tag k="ssr:stedsnr" v="211835" />
		<tag k="waterway" v="stream" />
	</node>
	<node id="-14144" lat="63.1785055589" lon="7.94678055465">
		<tag k="name" v="Linvågelva" />
		<tag k="ssr:stedsnr" v="838844" />
		<tag k="waterway" v="river" />
	</node>
	<node id="-10549" lat="63.2468666695" lon="8.69032500952">
		<tag k="name" v="Bjøringelva" />
		<tag k="ssr:stedsnr" v="50620" />
		<tag k="waterway" v="stream" />
	</node>
	<node id="-12092" lat="63.1863416677" lon="8.38404999845">
		<tag k="name" v="Litlvatnet" />
		<tag k="natural" v="water" />
		<tag k="ssr:stedsnr" v="870772" />
		<tag k="water" v="lake" />
	</node>
	<node id="-12088" lat="63.3946805528" lon="8.72697777231">
		<tag k="name" v="Skulpen" />
		<tag k="natural" v="water" />
		<tag k="ssr:stedsnr" v="862622" />
	</node>
	<node id="-12078" lat="63.2176583301" lon="8.65181388218">
		<tag k="name" v="Nørdre Vikavatnet" />
		<tag k="natural" v="water" />
		<tag k="ssr:stedsnr" v="862042" />
	</node>
	<node id="-14121" lat="63.3411944454" lon="8.4991361087">
		<tag k="name" v="Trollå" />
		<tag k="ssr:stedsnr" v="838397" />
		<tag k="waterway" v="stream" />
	</node>
	<node id="-14120" lat="63.3355305571" lon="8.4791888927">
		<tag k="name" v="Åsabakken" />
		<tag k="ssr:stedsnr" v="838394" />
		<tag k="waterway" v="stream" />
	</node>
	<node id="-12066" lat="63.3672333316" lon="8.77216666443">
		<tag k="name" v="Storlibekken" />
		<tag k="ssr:stedsnr" v="840858" />
		<tag k="waterway" v="stream" />
	</node>
	<node id="-12063" lat="63.2998972184" lon="8.69994999691">
		<tag k="name" v="Seterbekken" />
		<tag k="ssr:stedsnr" v="839955" />
		<tag k="waterway" v="stream" />
	</node>
	<node id="-10885" lat="63.2807083297" lon="8.60821666081">
		<tag k="name" v="Løfallbekken" />
		<tag k="ssr:stedsnr" v="293861" />
		<tag k="waterway" v="stream" />
	</node>
	<node id="-12050" lat="63.363297226" lon="8.5325861053">
		<tag k="name" v="Seljedalsbekken" />
		<tag k="ssr:stedsnr" v="838724" />
		<tag k="waterway" v="stream" />
	</node>
	<node id="-14093" lat="63.1684944444" lon="8.51527222848">
		<tag k="name" v="Lubbelva" />
		<tag k="ssr:stedsnr" v="837702" />
		<tag k="waterway" v="stream" />
	</node>
	<node id="-14088" lat="63.2447694424" lon="8.35515833779">
		<tag k="name" v="Tjønna" />
		<tag k="natural" v="water" />
		<tag k="ssr:stedsnr" v="837828" />
	</node>
	<node id="-12037" lat="63.2173416683" lon="8.43394445175">
		<tag k="name" v="Sagelven" />
		<tag k="ssr:stedsnr" v="838219" />
		<tag k="waterway" v="stream" />
	</node>
	<node id="-12019" lat="63.2053916703" lon="8.75144999179">
		<tag k="name" v="Kaldmyrbekken" />
		<tag k="ssr:stedsnr" v="931652" />
		<tag k="waterway" v="stream" />
	</node>
	<node id="-14058" lat="63.2362128227" lon="8.78539754712">
		<tag k="name" v="Nedre Sleipådalsvatnet" />
		<tag k="natural" v="water" />
		<tag k="ssr:stedsnr" v="809876" />
		<tag k="water" v="lake" />
	</node>
	<node id="-14052" lat="63.3175277812" lon="8.82127776845">
		<tag k="alt_name" v="Sæterelva" />
		<tag k="name" v="Seterelva" />
		<tag k="ssr:stedsnr" v="802159" />
		<tag k="waterway" v="river" />
	</node>
	<node id="-14049" lat="63.2253499973" lon="8.66308056085">
		<tag k="name" v="Hestvatnet" />
		<tag k="natural" v="water" />
		<tag k="ssr:stedsnr" v="802063" />
	</node>
	<node id="-14043" lat="63.395875003" lon="8.75148333042">
		<tag k="name" v="Svartosen" />
		<tag k="natural" v="water" />
		<tag k="ssr:stedsnr" v="801629" />
	</node>
	<node id="-14042" lat="63.3894888907" lon="8.73062778168">
		<tag k="name" v="Fonnvatnet" />
		<tag k="natural" v="water" />
		<tag k="ssr:stedsnr" v="801628" />
	</node>
	<node id="-11992" lat="63.2501861085" lon="8.34321944142">
		<tag k="name" v="Storbullvatnet" />
		<tag k="natural" v="water" />
		<tag k="ssr:stedsnr" v="923496" />
	</node>
	<node id="-11990" lat="63.2268916625" lon="8.10630555688">
		<tag k="name" v="Kokvasstjønna" />
		<tag k="natural" v="water" />
		<tag k="ssr:stedsnr" v="923434" />
	</node>
	<node id="-11981" lat="63.1607694483" lon="8.03024166296">
		<tag k="name" v="Bjørnavatnet" />
		<tag k="natural" v="water" />
		<tag k="ssr:stedsnr" v="923341" />
	</node>
	<node id="-11977" lat="63.2708388899" lon="8.59304165882">
		<tag k="name" v="Aurelva" />
		<tag k="ssr:stedsnr" v="923278" />
		<tag k="waterway" v="river" />
	</node>
	<node id="-11976" lat="63.4018666637" lon="8.66321111369">
		<tag k="name" v="Seterbuktbekken" />
		<tag k="ssr:stedsnr" v="923250" />
		<tag k="waterway" v="stream" />
	</node>
	<node id="-11973" lat="63.3962555542" lon="8.70768888317">
		<tag k="name" v="Gangåslivatnet" />
		<tag k="natural" v="water" />
		<tag k="ssr:stedsnr" v="923240" />
	</node>
	<node id="-11972" lat="63.1764055595" lon="8.48530278268">
		<tag k="name" v="Langlitjørnin" />
		<tag k="natural" v="water" />
		<tag k="ssr:stedsnr" v="923105" />
	</node>
	<node id="-11969" lat="63.2417638854" lon="8.413966663">
		<tag k="name" v="Foldelva" />
		<tag k="ssr:stedsnr" v="923079" />
		<tag k="waterway" v="stream" />
	</node>
	<node id="-11967" lat="63.2485666706" lon="8.62366389826">
		<tag k="name" v="Småvatna" />
		<tag k="natural" v="water" />
		<tag k="ssr:stedsnr" v="923066" />
	</node>
	<node id="-11963" lat="63.2151277743" lon="8.22954999342">
		<tag k="alt_name" v="Sagvik-vatnet" />
		<tag k="name" v="Sagvikvatnet" />
		<tag k="natural" v="water" />
		<tag k="ssr:stedsnr" v="923030" />
		<tag k="water" v="lake" />
	</node>
	<node id="-11958" lat="63.1920250044" lon="8.08599721786">
		<tag k="name" v="Nonshaugvatnet" />
		<tag k="natural" v="water" />
		<tag k="ssr:stedsnr" v="922406" />
	</node>
	<node id="-11208" lat="63.3328999972" lon="8.63849999985">
		<tag k="name" v="Bjørnatjønna" />
		<tag k="natural" v="water" />
		<tag k="ssr:stedsnr" v="497158" />
	</node>
	<node id="-13994" lat="63.2783111117" lon="8.70441944809">
		<tag k="name" v="Mogstadtangen" />
		<tag k="natural" v="cape" />
		<tag k="ssr:stedsnr" v="778989" />
	</node>
	<node id="-13991" lat="63.283680556" lon="8.66390278761">
		<tag k="name" v="Aureelva" />
		<tag k="ssr:stedsnr" v="778896" />
		<tag k="waterway" v="river" />
	</node>
	<node id="-13990" lat="63.3199833368" lon="8.75446111738">
		<tag k="name" v="Marikollbekken" />
		<tag k="ssr:stedsnr" v="778876" />
		<tag k="waterway" v="stream" />
	</node>
	<node id="-13989" lat="63.2739305546" lon="8.75185832775">
		<tag k="name" v="Tverrbekken" />
		<tag k="ssr:stedsnr" v="778872" />
		<tag k="waterway" v="stream" />
	</node>
	<node id="-13988" lat="63.2744333376" lon="8.76982778546">
		<tag k="name" v="Holmvassbekken" />
		<tag k="ssr:stedsnr" v="778871" />
		<tag k="waterway" v="stream" />
	</node>
	<node id="-11939" lat="63.2094972238" lon="8.38564444397">
		<tag k="name" v="Sagelva" />
		<tag k="ssr:stedsnr" v="922003" />
		<tag k="waterway" v="stream" />
	</node>
	<node id="-11936" lat="63.3000694416" lon="8.71169721578">
		<tag k="name" v="Strumpbekken" />
		<tag k="ssr:stedsnr" v="778929" />
		<tag k="waterway" v="stream" />
	</node>
	<node id="-11935" lat="63.2875888922" lon="8.65555000624">
		<tag k="name" v="Tverrbotnbekken" />
		<tag k="ssr:stedsnr" v="778907" />
		<tag k="waterway" v="stream" />
	</node>
	<node id="-13980" lat="63.3873111091" lon="8.72921389504">
		<tag k="name" v="Fonnelva" />
		<tag k="ssr:stedsnr" v="778802" />
		<tag k="waterway" v="stream" />
	</node>
	<node id="-13974" lat="63.2245805586" lon="8.51624445276">
		<tag k="name" v="Osen" />
		<tag k="natural" v="bay" />
		<tag k="ssr:stedsnr" v="778692" />
	</node>
	<node id="-13970" lat="63.2321249971" lon="8.57396944867">
		<tag k="name" v="Bubekken" />
		<tag k="ssr:stedsnr" v="778678" />
		<tag k="waterway" v="stream" />
	</node>
	<node id="-11921" lat="63.3244611068" lon="8.70049444353">
		<tag k="name" v="Dalabekken" />
		<tag k="ssr:stedsnr" v="778213" />
		<tag k="waterway" v="stream" />
	</node>
	<node id="-11920" lat="63.3636972254" lon="8.70691389111">
		<tag k="name" v="Mjølkplassvikbekken" />
		<tag k="ssr:stedsnr" v="778010" />
		<tag k="waterway" v="stream" />
	</node>
	<node id="-13966" lat="63.2272000006" lon="8.74195000949">
		<tag k="name" v="Osmarka" />
		<tag k="natural" v="bay" />
		<tag k="ssr:stedsnr" v="778579" />
	</node>
	<node id="-11916" lat="63.2478444428" lon="8.43106666085">
		<tag k="name" v="Stavnestjønnene" />
		<tag k="natural" v="water" />
		<tag k="ssr:stedsnr" v="777132" />
	</node>
	<node id="-11202" lat="63.4064944428" lon="8.70086111749">
		<tag k="name" v="Litlvatnet" />
		<tag k="natural" v="water" />
		<tag k="ssr:stedsnr" v="491723" />
	</node>
	<node id="-13953" lat="63.1978083295" lon="8.61860278029">
		<tag k="name" v="Vikatjønna" />
		<tag k="natural" v="water" />
		<tag k="ssr:stedsnr" v="778192" />
	</node>
	<node id="-13945" lat="63.4049805593" lon="8.73916944511">
		<tag k="name" v="Furuneset" />
		<tag k="natural" v="cape" />
		<tag k="ssr:stedsnr" v="778270" />
	</node>
	<node id="-13943" lat="63.3999472259" lon="8.77040277765">
		<tag k="name" v="Reinsjøelva" />
		<tag k="ssr:stedsnr" v="778261" />
		<tag k="waterway" v="river" />
	</node>
	<node id="-13926" lat="63.1758250037" lon="8.3132666727">
		<tag k="name" v="Blomtuelva" />
		<tag k="ssr:stedsnr" v="777756" />
		<tag k="waterway" v="stream" />
	</node>
	<node id="-11877" lat="63.3308777821" lon="8.5920138971">
		<tag k="name" v="Kallandselva" />
		<tag k="ssr:stedsnr" v="740162" />
		<tag k="waterway" v="stream" />
	</node>
	<node id="-11874" lat="63.2067138901" lon="8.65781112073">
		<tag k="name" v="Spjøtnesbekken" />
		<tag k="ssr:stedsnr" v="740123" />
		<tag k="waterway" v="stream" />
	</node>
	<node id="-13921" lat="63.1759916623" lon="8.51931110506">
		<tag k="name" v="Gryttjønna" />
		<tag k="natural" v="water" />
		<tag k="ssr:stedsnr" v="777629" />
	</node>
	<node id="-13919" lat="63.1986944433" lon="8.56490000019">
		<tag k="name" v="Lindåselva" />
		<tag k="ssr:stedsnr" v="777700" />
		<tag k="waterway" v="stream" />
	</node>
	<node id="-10511" lat="63.3373277765" lon="8.66920833046">
		<tag k="name" v="Romundsetelva" />
		<tag k="ssr:stedsnr" v="232241" />
		<tag k="waterway" v="stream" />
	</node>
	<node id="-11193" lat="63.1871666656" lon="8.18604166768">
		<tag k="name" v="Skrebekken" />
		<tag k="ssr:stedsnr" v="352146" />
		<tag k="waterway" v="stream" />
	</node>
	<node id="-11859" lat="63.3169861105" lon="8.79065277711">
		<tag k="name" v="Fossøyan" />
		<tag k="place" v="island" />
		<tag k="ssr:stedsnr" v="900538" />
	</node>
	<node id="-11858" lat="63.318430556" lon="8.81218332905">
		<tag k="name" v="Stillelva" />
		<tag k="ssr:stedsnr" v="900534" />
		<tag k="waterway" v="stream" />
	</node>
	<node id="-11857" lat="63.3138194444" lon="8.79679444663">
		<tag k="name" v="Kupbekken" />
		<tag k="ssr:stedsnr" v="900532" />
		<tag k="waterway" v="stream" />
	</node>
	<node id="-13902" lat="63.3560194435" lon="8.50518611023">
		<tag k="name" v="Butjønna" />
		<tag k="natural" v="water" />
		<tag k="ssr:stedsnr" v="777242" />
	</node>
	<node id="-13901" lat="63.3596666666" lon="8.50931665863">
		<tag k="name" v="Mellandselva" />
		<tag k="ssr:stedsnr" v="777239" />
		<tag k="waterway" v="stream" />
	</node>
	<node id="-11852" lat="63.3717055588" lon="8.57781110666">
		<tag k="name" v="Småvikelva" />
		<tag k="ssr:stedsnr" v="900093" />
		<tag k="waterway" v="stream" />
	</node>
	<node id="-13898" lat="63.2279972206" lon="8.43611111966">
		<tag k="name" v="Stallåkerbekken" />
		<tag k="ssr:stedsnr" v="777161" />
		<tag k="waterway" v="stream" />
	</node>
	<node id="-13897" lat="63.2104638866" lon="8.2360305481">
		<tag k="name" v="Tennholmen" />
		<tag k="place" v="islet" />
		<tag k="ssr:stedsnr" v="777160" />
	</node>
	<node id="-11845" lat="63.2315083333" lon="8.58593889362">
		<tag k="name" v="Bubekken" />
		<tag k="ssr:stedsnr" v="899719" />
		<tag k="waterway" v="stream" />
	</node>
	<node id="-11842" lat="63.2666750022" lon="8.64657499712">
		<tag k="name" v="Ormsetdalstjønna" />
		<tag k="natural" v="water" />
		<tag k="ssr:stedsnr" v="899833" />
	</node>
	<node id="-13881" lat="63.2471611126" lon="8.37593333299">
		<tag k="name" v="Surnadalsbekken" />
		<tag k="ssr:stedsnr" v="776776" />
		<tag k="waterway" v="stream" />
	</node>
	<node id="-11825" lat="63.2636305557" lon="8.54393889528">
		<tag k="name" v="Tevikbekken" />
		<tag k="ssr:stedsnr" v="899101" />
		<tag k="waterway" v="stream" />
	</node>
	<node id="-13870" lat="63.251647223" lon="8.27695832876">
		<tag k="name" v="Holmvikbekken" />
		<tag k="ssr:stedsnr" v="776605" />
		<tag k="waterway" v="stream" />
	</node>
	<node id="-13869" lat="63.1950944437" lon="8.09618610195">
		<tag k="name" v="Nonshaugbekken" />
		<tag k="ssr:stedsnr" v="776600" />
		<tag k="waterway" v="stream" />
	</node>
	<node id="-11816" lat="63.2366416692" lon="8.32815000284">
		<tag k="name" v="Holbekken" />
		<tag k="ssr:stedsnr" v="898767" />
		<tag k="waterway" v="stream" />
	</node>
	<node id="-13862" lat="63.2335116835" lon="8.28571430141">
		<tag k="alt_name" v="Skipensbekken" />
		<tag k="loc_name" v="Skiftesbekken" />
		<tag k="name" v="Skipnesbekken" />
		<tag k="ssr:stedsnr" v="776502" />
		<tag k="waterway" v="stream" />
	</node>
	<node id="-13856" lat="63.2202861149" lon="8.48368055604">
		<tag k="name" v="Stortjønna" />
		<tag k="natural" v="water" />
		<tag k="ssr:stedsnr" v="776097" />
	</node>
	<node id="-13855" lat="63.1852499991" lon="8.1596611049">
		<tag k="name" v="Baggelva" />
		<tag k="ssr:stedsnr" v="776093" />
		<tag k="waterway" v="river" />
	</node>
	<node id="-11799" lat="63.1974388912" lon="8.33605833696">
		<tag k="name" v="Sagbekken" />
		<tag k="ssr:stedsnr" v="898400" />
		<tag k="waterway" v="stream" />
	</node>
	<node id="-13846" lat="63.1632361144" lon="8.28723610992">
		<tag k="name" v="Skarvbergvika" />
		<tag k="natural" v="bay" />
		<tag k="ssr:stedsnr" v="748791" />
	</node>
	<node id="-10841" lat="63.2419027746" lon="8.65028611279">
		<tag k="name" v="Bjøringelva" />
		<tag k="ssr:stedsnr" v="292743" />
		<tag k="waterway" v="river" />
	</node>
	<node id="-13841" lat="63.3714027802" lon="8.58080000289">
		<tag k="name" v="Tømmerdalsvatnet" />
		<tag k="natural" v="water" />
		<tag k="ssr:stedsnr" v="741232" />
	</node>
	<node id="-13838" lat="63.4003500037" lon="8.7777472178">
		<tag k="alt_name" v="Reinsjøen, l;Litl Reinsjøen" />
		<tag k="name" v="Litle Reinsjøen" />
		<tag k="natural" v="water" />
		<tag k="ssr:stedsnr" v="740684" />
	</node>
	<node id="-12205" lat="63.3378361121" lon="8.67264999508">
		<tag k="name" v="Buktelva" />
		<tag k="ssr:stedsnr" v="12145" />
		<tag k="waterway" v="stream" />
	</node>
	<node id="-11787" lat="63.1876111097" lon="8.16476666611">
		<tag k="name" v="Kvennabakken" />
		<tag k="ssr:stedsnr" v="898094" />
		<tag k="waterway" v="stream" />
	</node>
	<node id="-11783" lat="63.2318027755" lon="8.10764999046">
		<tag k="name" v="Hundtjønna" />
		<tag k="natural" v="water" />
		<tag k="ssr:stedsnr" v="897648" />
	</node>
	<node id="-11782" lat="63.1963833343" lon="8.0738222271">
		<tag k="name" v="Vassdalstjønna" />
		<tag k="natural" v="water" />
		<tag k="ssr:stedsnr" v="897590" />
	</node>
	<node id="-13824" lat="63.3429388886" lon="8.57207499275">
		<tag k="name" v="Sagelva" />
		<tag k="ssr:stedsnr" v="740138" />
		<tag k="waterway" v="stream" />
	</node>
	<node id="-11771" lat="63.2968250012" lon="8.84833332413">
		<tag k="name" v="Klakkelva" />
		<tag k="ssr:stedsnr" v="718640" />
		<tag k="waterway" v="river" />
	</node>
	<node id="-13817" lat="63.3622305529" lon="8.56582499649">
		<tag k="name" v="Kvitsikkeltjønna" />
		<tag k="natural" v="water" />
		<tag k="ssr:stedsnr" v="740232" />
	</node>
	<node id="-13816" lat="63.3508000013" lon="8.62966110904">
		<tag k="name" v="Skardselva" />
		<tag k="ssr:stedsnr" v="740229" />
		<tag k="waterway" v="river" />
	</node>
	<node id="-11761" lat="63.3294388898" lon="8.44134723092">
		<tag k="name" v="Fløvalsvatnet" />
		<tag k="natural" v="water" />
		<tag k="ssr:stedsnr" v="717392" />
	</node>
	<node id="-13806" lat="63.1901555599" lon="8.43505277757">
		<tag k="name" v="Haltbakkbekken" />
		<tag k="ssr:stedsnr" v="655637" />
		<tag k="waterway" v="stream" />
	</node>
	<node id="-11757" lat="63.2581222202" lon="8.36390277388">
		<tag k="name" v="Storbugen" />
		<tag k="natural" v="bay" />
		<tag k="ssr:stedsnr" v="716994" />
	</node>
	<node id="-13796" lat="63.2345722238" lon="8.26455000309">
		<tag k="name" v="Storvikbekken" />
		<tag k="ssr:stedsnr" v="655529" />
		<tag k="waterway" v="stream" />
	</node>
	<node id="-11747" lat="63.2170333363" lon="8.30091110398">
		<tag k="name" v="Krokvassbekken" />
		<tag k="ssr:stedsnr" v="716554" />
		<tag k="waterway" v="stream" />
	</node>
	<node id="-11746" lat="63.3333666697" lon="8.58597777483">
		<tag k="name" v="Bønnabekken" />
		<tag k="ssr:stedsnr" v="716459" />
		<tag k="waterway" v="stream" />
	</node>
	<node id="-13793" lat="63.1628944411" lon="8.16093055414">
		<tag k="name" v="Kvennabekken" />
		<tag k="ssr:stedsnr" v="655517" />
		<tag k="waterway" v="stream" />
	</node>
	<node id="-13789" lat="63.2009527786" lon="8.35075556506">
		<tag k="name" v="Dyrtjønna" />
		<tag k="natural" v="water" />
		<tag k="ssr:stedsnr" v="655397" />
	</node>
	<node id="-11739" lat="63.2766138912" lon="8.44405833017">
		<tag k="name" v="Blomvikbekken" />
		<tag k="ssr:stedsnr" v="716415" />
		<tag k="waterway" v="stream" />
	</node>
	<node id="-11738" lat="63.1837138853" lon="8.57031945117">
		<tag k="name" v="Bergfallvikelva" />
		<tag k="ssr:stedsnr" v="716335" />
		<tag k="waterway" v="stream" />
	</node>
	<node id="-11735" lat="63.1643888889" lon="8.29118888225">
		<tag k="name" v="Skarvbergsbekken" />
		<tag k="ssr:stedsnr" v="716153" />
		<tag k="waterway" v="stream" />
	</node>
	<node id="-10830" lat="63.2542666683" lon="8.69749443495">
		<tag k="name" v="Klubbekken" />
		<tag k="old_name" v="Klubb-bekken" />
		<tag k="ssr:stedsnr" v="292673" />
		<tag k="waterway" v="stream" />
	</node>
	<node id="-11730" lat="63.1619055585" lon="7.97009166866">
		<tag k="name" v="Tømmervågbekken" />
		<tag k="ssr:stedsnr" v="715171" />
		<tag k="waterway" v="stream" />
	</node>
	<node id="-11714" lat="63.3439749998" lon="8.64057499617">
		<tag k="name" v="Øvre Ulvsnesvatnet" />
		<tag k="natural" v="water" />
		<tag k="ssr:stedsnr" v="680155" />
	</node>
	<node id="-11710" lat="63.3713083344" lon="8.79403334169">
		<tag k="name" v="Høgfjellstjønnin" />
		<tag k="natural" v="water" />
		<tag k="ssr:stedsnr" v="679715" />
	</node>
	<node id="-11709" lat="63.180466671" lon="8.00222500733">
		<tag k="name" v="Dyrkolltjønna" />
		<tag k="natural" v="water" />
		<tag k="ssr:stedsnr" v="679423" />
	</node>
	<node id="-13754" lat="63.3779527785" lon="8.57064445343">
		<tag k="name" v="Småvikelva" />
		<tag k="ssr:stedsnr" v="620202" />
		<tag k="waterway" v="stream" />
	</node>
	<node id="-10484" lat="63.2155222237" lon="8.04714999057">
		<tag k="name" v="Kvennhusbekken" />
		<tag k="ssr:stedsnr" v="231690" />
		<tag k="waterway" v="stream" />
	</node>
	<node id="-11702" lat="63.2089111082" lon="8.61489166422">
		<tag k="name" v="Sagelva" />
		<tag k="ssr:stedsnr" v="679017" />
		<tag k="waterway" v="stream" />
	</node>
	<node id="-13748" lat="63.3564111119" lon="8.77119444161">
		<tag k="fixme" v="multiple name tags, choose one and add the other to alt_name" />
		<tag k="name" v="Ordsvatnet;Gammelsetertjønna" />
		<tag k="natural" v="water" />
		<tag k="ssr:stedsnr" v="619724" />
	</node>
	<node id="-13746" lat="63.3234777815" lon="8.82899999841">
		<tag k="name" v="Ordsvatnet" />
		<tag k="natural" v="water" />
		<tag k="ssr:stedsnr" v="619550" />
	</node>
	<node id="-11696" lat="63.2033277771" lon="8.67281944875">
		<tag k="name" v="Litlhusbekken" />
		<tag k="ssr:stedsnr" v="657284" />
		<tag k="waterway" v="stream" />
	</node>
	<node id="-13743" lat="63.2343500023" lon="8.18103610921">
		<tag k="name" v="Solskjelsvatnet" />
		<tag k="natural" v="water" />
		<tag k="ssr:stedsnr" v="619452" />
	</node>
	<node id="-11693" lat="63.2934527816" lon="8.64882500845">
		<tag k="name" v="Skarbekken" />
		<tag k="ssr:stedsnr" v="656918" />
		<tag k="waterway" v="stream" />
	</node>
	<node id="-13740" lat="63.301716668" lon="8.65596388334">
		<tag k="name" v="Rostolvatnet" />
		<tag k="natural" v="water" />
		<tag k="ssr:stedsnr" v="619393" />
	</node>
	<node id="-11688" lat="63.2146222252" lon="8.54376388218">
		<tag k="name" v="Ertvågelva" />
		<tag k="ssr:stedsnr" v="656703" />
		<tag k="waterway" v="stream" />
	</node>
	<node id="-11685" lat="63.4004805521" lon="8.74145554682">
		<tag k="name" v="Elva" />
		<tag k="ssr:stedsnr" v="656259" />
		<tag k="waterway" v="river" />
	</node>
	<node id="-11679" lat="63.3559027773" lon="8.62496111794">
		<tag k="name" v="Tårndalsbekken" />
		<tag k="ssr:stedsnr" v="656136" />
		<tag k="waterway" v="stream" />
	</node>
	<node id="-11669" lat="63.2148388913" lon="8.59550277153">
		<tag k="name" v="Gjengstøbekken" />
		<tag k="ssr:stedsnr" v="655710" />
		<tag k="waterway" v="stream" />
	</node>
	<node id="-13712" lat="63.3436277757" lon="8.59063332441">
		<tag k="name" v="Damvatnet" />
		<tag k="natural" v="water" />
		<tag k="ssr:stedsnr" v="619169" />
	</node>
	<node id="-10818" lat="63.1721083306" lon="8.51280276861">
		<tag k="name" v="Lubbelva" />
		<tag k="ssr:stedsnr" v="292619" />
		<tag k="waterway" v="stream" />
	</node>
	<node id="-13705" lat="63.210766663" lon="8.43028334185">
		<tag k="name" v="Kjeselva" />
		<tag k="ssr:stedsnr" v="618001" />
		<tag k="waterway" v="stream" />
	</node>
	<node id="-13701" lat="63.3592666679" lon="8.58035832659">
		<tag k="name" v="Knubbvatnet" />
		<tag k="natural" v="water" />
		<tag k="ssr:stedsnr" v="618185" />
	</node>
	<node id="-13700" lat="63.3651638923" lon="8.81880556441">
		<tag k="name" v="Vasslivatnet" />
		<tag k="natural" v="water" />
		<tag k="ssr:stedsnr" v="597854" />
	</node>
	<node id="-13699" lat="63.2875944437" lon="8.72933611225">
		<tag k="name" v="Lakstjønna" />
		<tag k="natural" v="water" />
		<tag k="ssr:stedsnr" v="596991" />
	</node>
	<node id="-13696" lat="63.3145694414" lon="8.73057222996">
		<tag k="name" v="Tjønnene" />
		<tag k="natural" v="water" />
		<tag k="ssr:stedsnr" v="596887" />
	</node>
	<node id="-13695" lat="63.3171638873" lon="8.7621861012">
		<tag k="name" v="Seterbekken" />
		<tag k="ssr:stedsnr" v="596883" />
		<tag k="waterway" v="stream" />
	</node>
	<node id="-11646" lat="63.2752435593" lon="8.80615873124">
		<tag k="name" v="Blomlivatnet" />
		<tag k="natural" v="water" />
		<tag k="ssr:stedsnr" v="619943" />
	</node>
	<node id="-11635" lat="63.2179111117" lon="8.67213888391">
		<tag k="name" v="Botnelva" />
		<tag k="ssr:stedsnr" v="619024" />
		<tag k="waterway" v="stream" />
	</node>
	<node id="-11630" lat="63.3238638889" lon="8.80495278162">
		<tag k="name" v="Ytter Ørtjønna" />
		<tag k="natural" v="water" />
		<tag k="ssr:stedsnr" v="720248" />
	</node>
	<node id="-11629" lat="63.3047861075" lon="8.72052500272">
		<tag k="name" v="Svarthammarbekken" />
		<tag k="ssr:stedsnr" v="718938" />
		<tag k="waterway" v="stream" />
	</node>
	<node id="-11628" lat="63.3132333316" lon="8.73017777752">
		<tag k="name" v="Fjellbekken" />
		<tag k="ssr:stedsnr" v="718867" />
		<tag k="waterway" v="stream" />
	</node>
	<node id="-13673" lat="63.2676361137" lon="8.58266666194">
		<tag k="name" v="Kvennaelva" />
		<tag k="ssr:stedsnr" v="596564" />
		<tag k="waterway" v="stream" />
	</node>
	<node id="-11624" lat="63.3688972182" lon="8.81828055374">
		<tag k="name" v="Kvennavatnet" />
		<tag k="natural" v="water" />
		<tag k="ssr:stedsnr" v="718829" />
	</node>
	<node id="-13671" lat="63.2175194417" lon="8.64591388064">
		<tag k="name" v="Nørvasselva" />
		<tag k="ssr:stedsnr" v="596532" />
		<tag k="waterway" v="stream" />
	</node>
	<node id="-11621" lat="63.3773583336" lon="8.756308343">
		<tag k="name" v="Fonntjønna" />
		<tag k="natural" v="water" />
		<tag k="ssr:stedsnr" v="718798" />
	</node>
	<node id="-11619" lat="63.2073638933" lon="8.71311944722">
		<tag k="name" v="Flene" />
		<tag k="natural" v="strait" />
		<tag k="ssr:stedsnr" v="718427" />
	</node>
	<node id="-13666" lat="63.2037333313" lon="8.72004721664">
		<tag k="name" v="Moldbakkbekken" />
		<tag k="ssr:stedsnr" v="596392" />
		<tag k="waterway" v="stream" />
	</node>
	<node id="-11615" lat="63.2684833316" lon="8.58192499922">
		<tag k="name" v="Øran" />
		<tag k="natural" v="cape" />
		<tag k="ssr:stedsnr" v="718592" />
	</node>
	<node id="-11611" lat="63.3989972248" lon="8.73489445335">
		<tag k="name" v="Bekkabekken" />
		<tag k="ssr:stedsnr" v="718279" />
		<tag k="waterway" v="stream" />
	</node>
	<node id="-11610" lat="63.4002166673" lon="8.72404443653">
		<tag k="name" v="Vassenden" />
		<tag k="natural" v="bay" />
		<tag k="ssr:stedsnr" v="718278" />
	</node>
	<node id="-13647" lat="63.1819555555" lon="8.33831388682">
		<tag k="name" v="Ekkerbekken" />
		<tag k="ssr:stedsnr" v="595976" />
		<tag k="waterway" v="stream" />
	</node>
	<node id="-13646" lat="63.3092666678" lon="8.67781111909">
		<tag k="name" v="Randsteinbekken" />
		<tag k="ssr:stedsnr" v="595969" />
		<tag k="waterway" v="stream" />
	</node>
	<node id="-11594" lat="63.2712972241" lon="8.72286943696">
		<tag k="name" v="Kjøltjønnene" />
		<tag k="natural" v="water" />
		<tag k="ssr:stedsnr" v="717867" />
	</node>
	<node id="-11593" lat="63.3422305555" lon="8.65765278047">
		<tag k="name" v="Sandbekken" />
		<tag k="ssr:stedsnr" v="717236" />
		<tag k="waterway" v="stream" />
	</node>
	<node id="-11588" lat="63.3279388847" lon="8.74757499226">
		<tag k="name" v="Gorrtjønna" />
		<tag k="natural" v="water" />
		<tag k="ssr:stedsnr" v="717141" />
	</node>
	<node id="-11584" lat="63.2444833326" lon="8.4203555581">
		<tag k="name" v="Dalabekken" />
		<tag k="ssr:stedsnr" v="717111" />
		<tag k="waterway" v="stream" />
	</node>
	<node id="-11575" lat="63.2223527817" lon="8.41526111439">
		<tag k="name" v="Asphaugmyrbakken" />
		<tag k="ssr:stedsnr" v="717058" />
		<tag k="waterway" v="stream" />
	</node>
	<node id="-11568" lat="63.1805944432" lon="8.4265583386">
		<tag k="name" v="Mjosundholmen" />
		<tag k="place" v="islet" />
		<tag k="ssr:stedsnr" v="716702" />
	</node>
	<node id="-13613" lat="63.2008416678" lon="8.45774443818">
		<tag k="name" v="Krokan" />
		<tag k="ssr:stedsnr" v="595290" />
		<tag k="waterway" v="stream" />
	</node>
	<node id="-13206" lat="63.2090472251" lon="8.61864166373">
		<tag k="name" v="Kokvassbekken" />
		<tag k="ssr:stedsnr" v="414176" />
		<tag k="waterway" v="stream" />
	</node>
	<node id="-11558" lat="63.3205805596" lon="8.42175555775">
		<tag k="name" v="Gorrtjønna" />
		<tag k="natural" v="water" />
		<tag k="ssr:stedsnr" v="716360" />
	</node>
	<node id="-11556" lat="63.2414636275" lon="8.29135603937">
		<tag k="name" v="Kvennhusbekken" />
		<tag k="ssr:stedsnr" v="716667" />
		<tag k="waterway" v="stream" />
	</node>
	<node id="-11552" lat="63.2240555537" lon="8.49349722871">
		<tag k="name" v="Skrøåbekken" />
		<tag k="ssr:stedsnr" v="716114" />
		<tag k="waterway" v="stream" />
	</node>
	<node id="-13595" lat="63.2679444423" lon="8.54927499972">
		<tag k="name" v="Fagerhaugfossen" />
		<tag k="natural" v="waterfall" />
		<tag k="ssr:stedsnr" v="595082" />
	</node>
	<node id="-13593" lat="63.2651222219" lon="8.5653111066">
		<tag k="name" v="Stampfossen" />
		<tag k="natural" v="waterfall" />
		<tag k="ssr:stedsnr" v="595074" />
	</node>
	<node id="-11542" lat="63.2080944423" lon="8.23466944219">
		<tag k="name" v="Sagvatnet" />
		<tag k="natural" v="water" />
		<tag k="ssr:stedsnr" v="716201" />
		<tag k="water" v="lake" />
	</node>
	<node id="-11540" lat="63.1825555519" lon="8.06108332447">
		<tag k="name" v="Tverbekken" />
		<tag k="ssr:stedsnr" v="715705" />
		<tag k="waterway" v="stream" />
	</node>
	<node id="-11527" lat="63.1714333348" lon="8.43506388367">
		<tag k="name" v="Vågoselva" />
		<tag k="ssr:stedsnr" v="595839" />
		<tag k="waterway" v="river" />
	</node>
	<node id="-10795" lat="63.2057277749" lon="8.49466388348">
		<tag k="name" v="Ertvågstjønna" />
		<tag k="natural" v="water" />
		<tag k="ssr:stedsnr" v="292316" />
	</node>
	<node id="-13566" lat="63.224675001" lon="8.05986943551">
		<tag k="name" v="Naustmyrbekken" />
		<tag k="ssr:stedsnr" v="594612" />
		<tag k="waterway" v="stream" />
	</node>
	<node id="-11511" lat="63.2508444433" lon="8.35945277042">
		<tag k="name" v="Litlbullvatnet" />
		<tag k="natural" v="water" />
		<tag k="ssr:stedsnr" v="558313" />
	</node>
	<node id="-13554" lat="63.2038083346" lon="8.36406667462">
		<tag k="name" v="Skiftesbekken" />
		<tag k="ssr:stedsnr" v="594411" />
		<tag k="waterway" v="stream" />
	</node>
	<node id="-13553" lat="63.1981361106" lon="8.32874444304">
		<tag k="name" v="Olvikvatnet" />
		<tag k="natural" v="water" />
		<tag k="ssr:stedsnr" v="594401" />
	</node>
	<node id="-11500" lat="63.1761222216" lon="8.39155278709">
		<tag k="name" v="Krokvatnet" />
		<tag k="natural" v="water" />
		<tag k="ssr:stedsnr" v="558121" />
		<tag k="water" v="lake" />
	</node>
	<node id="-13547" lat="63.3125444488" lon="8.39684999548">
		<tag k="name" v="Ildrivatnet" />
		<tag k="natural" v="water" />
		<tag k="ssr:stedsnr" v="594342" />
	</node>
	<node id="-13542" lat="63.2004083323" lon="8.40140834319">
		<tag k="name" v="Kudalsbekken" />
		<tag k="ssr:stedsnr" v="594179" />
		<tag k="waterway" v="stream" />
	</node>
	<node id="-11492" lat="63.211194441" lon="8.3249749994">
		<tag k="name" v="Svarttjønna" />
		<tag k="natural" v="water" />
		<tag k="ssr:stedsnr" v="558006" />
	</node>
	<node id="-11491" lat="63.2072444461" lon="8.37559166052">
		<tag k="name" v="Sagvikvatnet" />
		<tag k="natural" v="water" />
		<tag k="ssr:stedsnr" v="558005" />
	</node>
	<node id="-11490" lat="63.3697083296" lon="8.70698056546">
		<tag k="name" v="Kudalsbekken" />
		<tag k="ssr:stedsnr" v="557226" />
		<tag k="waterway" v="stream" />
	</node>
	<node id="-13537" lat="63.2178333328" lon="8.47794721277">
		<tag k="name" v="Auskarvatnet" />
		<tag k="natural" v="water" />
		<tag k="ssr:stedsnr" v="594108" />
	</node>
	<node id="-11486" lat="63.3926361109" lon="8.78728888442">
		<tag k="name" v="Langvågen" />
		<tag k="natural" v="bay" />
		<tag k="ssr:stedsnr" v="536778" />
	</node>
	<node id="-13530" lat="63.228580552" lon="8.1118388837">
		<tag k="name" v="Klopptjønna" />
		<tag k="natural" v="water" />
		<tag k="ssr:stedsnr" v="593620" />
	</node>
	<node id="-11476" lat="63.1684527751" lon="8.39981110257">
		<tag k="name" v="Lomtjønna" />
		<tag k="natural" v="water" />
		<tag k="ssr:stedsnr" v="535804" />
	</node>
	<node id="-11472" lat="63.2610305553" lon="8.37200556045">
		<tag k="name" v="Mjølkneset" />
		<tag k="natural" v="cape" />
		<tag k="ssr:stedsnr" v="534992" />
	</node>
	<node id="-13519" lat="63.3488666633" lon="8.89725556132">
		<tag k="name" v="Svartvasstjønnin" />
		<tag k="natural" v="water" />
		<tag k="ssr:stedsnr" v="591979" />
	</node>
	<node id="-11463" lat="63.1760583361" lon="8.53141388282">
		<tag k="name" v="Vabekken" />
		<tag k="ssr:stedsnr" v="534633" />
		<tag k="waterway" v="stream" />
	</node>
	<node id="-13510" lat="63.2100222197" lon="8.29328055656">
		<tag k="loc_name" v="Løftesbekken" />
		<tag k="name" v="Storstibekken" />
		<tag k="ssr:stedsnr" v="655036" />
		<tag k="waterway" v="stream" />
	</node>
	<node id="-10785" lat="63.2344472214" lon="8.44381944981">
		<tag k="name" v="Semundsetelva" />
		<tag k="ssr:stedsnr" v="292156" />
		<tag k="waterway" v="stream" />
	</node>
	<node id="-11457" lat="63.1840333325" lon="8.1921222301">
		<tag k="name" v="Storvikbekken" />
		<tag k="ssr:stedsnr" v="534169" />
		<tag k="waterway" v="stream" />
	</node>
	<node id="-11456" lat="63.2413055567" lon="8.47093610239">
		<tag k="name" v="Haugastibekken" />
		<tag k="ssr:stedsnr" v="534165" />
		<tag k="waterway" v="stream" />
	</node>
	<node id="-13501" lat="63.4114527763" lon="8.69406110718">
		<tag k="name" v="Kvernabekken" />
		<tag k="ssr:stedsnr" v="559046" />
		<tag k="waterway" v="stream" />
	</node>
	<node id="-11448" lat="63.1982472232" lon="8.77138889695">
		<tag k="name" v="Breibekken" />
		<tag k="ssr:stedsnr" v="688646" />
		<tag k="waterway" v="stream" />
	</node>
	<node id="-13494" lat="63.3009388914" lon="8.77388611926">
		<tag k="name" v="Skardbekken" />
		<tag k="ssr:stedsnr" v="558636" />
		<tag k="waterway" v="stream" />
	</node>
	<node id="-11443" lat="63.2969861106" lon="8.7403083351">
		<tag k="name" v="Svartvatnet" />
		<tag k="natural" v="water" />
		<tag k="ssr:stedsnr" v="498652" />
	</node>
	<node id="-13483" lat="63.1874305539" lon="7.97663054672">
		<tag k="name" v="Raudlitjønna" />
		<tag k="natural" v="water" />
		<tag k="ssr:stedsnr" v="558465" />
	</node>
	<node id="-11433" lat="63.271372226" lon="8.80625833776">
		<tag k="alt_name" v="Hallarstjønna" />
		<tag k="name" v="Hallartjønna" />
		<tag k="natural" v="water" />
		<tag k="ssr:stedsnr" v="680940" />
	</node>
	<node id="-13480" lat="63.3135499966" lon="8.68065000797">
		<tag k="alt_name" v="Øravatnet;Melavatnet" />
		<tag k="name" v="Øyravatnet" />
		<tag k="natural" v="water" />
		<tag k="ssr:stedsnr" v="558342" />
	</node>
	<node id="-13476" lat="63.1693694474" lon="8.03235277486">
		<tag k="name" v="Røsvatnet" />
		<tag k="natural" v="water" />
		<tag k="ssr:stedsnr" v="558298" />
		<tag k="water" v="lake" />
	</node>
	<node id="-13475" lat="63.2780861139" lon="8.70557499581">
		<tag k="name" v="Steingeitvatnet" />
		<tag k="natural" v="water" />
		<tag k="ssr:stedsnr" v="558288" />
		<tag k="water" v="lake" />
	</node>
	<node id="-11119" lat="63.2324194459" lon="8.47914722806">
		<tag k="name" v="Kokvassbekken" />
		<tag k="natural" v="water" />
		<tag k="ssr:stedsnr" v="474095" />
	</node>
	<node id="-11416" lat="63.3397944441" lon="8.48026667646">
		<tag k="name" v="Åkvikvatnet" />
		<tag k="natural" v="water" />
		<tag k="ssr:stedsnr" v="497134" />
	</node>
	<node id="-13463" lat="63.2349472241" lon="8.44843611585">
		<tag k="name" v="Lomtjønna" />
		<tag k="natural" v="water" />
		<tag k="ssr:stedsnr" v="558064" />
	</node>
	<node id="-11413" lat="63.1864388884" lon="8.35710277727">
		<tag k="name" v="Larsvatnet" />
		<tag k="natural" v="water" />
		<tag k="ssr:stedsnr" v="497103" />
	</node>
	<node id="-13458" lat="63.2851999992" lon="8.60886945395">
		<tag k="name" v="Bergsvatnet" />
		<tag k="natural" v="water" />
		<tag k="ssr:stedsnr" v="557239" />
	</node>
	<node id="-13454" lat="63.2769444454" lon="8.80442222911">
		<tag k="name" v="Tverrelva" />
		<tag k="ssr:stedsnr" v="536644" />
		<tag k="waterway" v="river" />
	</node>
	<node id="-13453" lat="63.2951666649" lon="8.80641944963">
		<tag k="name" v="Klavabekken" />
		<tag k="ssr:stedsnr" v="536640" />
		<tag k="waterway" v="stream" />
	</node>
	<node id="-13450" lat="63.1984972192" lon="8.65091110421">
		<tag k="name" v="Stortjønna" />
		<tag k="natural" v="water" />
		<tag k="ssr:stedsnr" v="536284" />
	</node>
	<node id="-11397" lat="63.3093527759" lon="8.66590278026">
		<tag k="name" v="Fjellbekken" />
		<tag k="ssr:stedsnr" v="680379" />
		<tag k="waterway" v="stream" />
	</node>
	<node id="-13444" lat="63.3331916658" lon="8.81774999232">
		<tag k="name" v="Gammelsetertjønna" />
		<tag k="natural" v="water" />
		<tag k="ssr:stedsnr" v="535696" />
	</node>
	<node id="-13442" lat="63.2497666691" lon="8.68003332834">
		<tag k="name" v="Kryptjønna" />
		<tag k="natural" v="water" />
		<tag k="ssr:stedsnr" v="535666" />
	</node>
	<node id="-13440" lat="63.3331194485" lon="8.78057776784">
		<tag k="name" v="Litlfjelldalstjønna" />
		<tag k="natural" v="water" />
		<tag k="ssr:stedsnr" v="535571" />
	</node>
	<node id="-13438" lat="63.1628944403" lon="8.42383889677">
		<tag k="name" v="Kokvassbekken" />
		<tag k="ssr:stedsnr" v="535818" />
		<tag k="waterway" v="stream" />
	</node>
	<node id="-12821" lat="63.2889305525" lon="8.59258611366">
		<tag k="name" v="Vasslivatnet" />
		<tag k="natural" v="water" />
		<tag k="ssr:stedsnr" v="315339" />
	</node>
	<node id="-11768" lat="63.3358888928" lon="8.83889167278">
		<tag k="name" v="Reinvasstjønna" />
		<tag k="natural" v="water" />
		<tag k="ssr:stedsnr" v="718558" />
	</node>
	<node id="-13432" lat="63.2570138927" lon="8.61490833053">
		<tag k="name" v="Fjellseterbekken" />
		<tag k="ssr:stedsnr" v="535341" />
		<tag k="waterway" v="stream" />
	</node>
	<node id="-11383" lat="63.2243249957" lon="8.69458610254">
		<tag k="name" v="Kneppholtjønna" />
		<tag k="natural" v="water" />
		<tag k="ssr:stedsnr" v="680030" />
	</node>
	<node id="-11381" lat="63.3272027757" lon="8.86025276935">
		<tag k="name" v="Krottosjøen" />
		<tag k="natural" v="water" />
		<tag k="ssr:stedsnr" v="679514" />
	</node>
	<node id="-11369" lat="63.1872722213" lon="8.54574722138">
		<tag k="name" v="Bergfallelva" />
		<tag k="ssr:stedsnr" v="473633" />
		<tag k="waterway" v="stream" />
	</node>
	<node id="-13416" lat="63.2110222186" lon="8.61412221764">
		<tag k="name" v="Korsbekken" />
		<tag k="ssr:stedsnr" v="535181" />
		<tag k="waterway" v="stream" />
	</node>
	<node id="-11361" lat="63.3571083316" lon="8.84162221266">
		<tag k="name" v="Buskarelva" />
		<tag k="ssr:stedsnr" v="657835" />
		<tag k="waterway" v="stream" />
	</node>
	<node id="-11358" lat="63.4097527756" lon="8.66558889821">
		<tag k="name" v="Oterskogbekken" />
		<tag k="ssr:stedsnr" v="657811" />
		<tag k="waterway" v="stream" />
	</node>
	<node id="-11355" lat="63.2831972191" lon="8.56008333503">
		<tag k="name" v="Grønbekken" />
		<tag k="ssr:stedsnr" v="657760" />
		<tag k="waterway" v="stream" />
	</node>
	<node id="-11354" lat="63.3956444482" lon="8.77560833637">
		<tag k="name" v="Seterlineset" />
		<tag k="natural" v="cape" />
		<tag k="ssr:stedsnr" v="657740" />
	</node>
	<node id="-11353" lat="63.2856916658" lon="8.78473889292">
		<tag k="name" v="Skålvassøyan" />
		<tag k="natural" v="strait" />
		<tag k="ssr:stedsnr" v="657625" />
	</node>
	<node id="-13392" lat="63.3162972185" lon="8.43350276914">
		<tag k="name" v="Furuskaget" />
		<tag k="natural" v="cape" />
		<tag k="ssr:stedsnr" v="534351" />
	</node>
	<node id="-13390" lat="63.1807833324" lon="8.54354166877">
		<tag k="name" v="Sluppelva" />
		<tag k="ssr:stedsnr" v="534317" />
		<tag k="waterway" v="stream" />
	</node>
	<node id="-13384" lat="63.2050527794" lon="8.35549999726">
		<tag k="name" v="Gulltjønna" />
		<tag k="natural" v="water" />
		<tag k="ssr:stedsnr" v="534415" />
	</node>
	<node id="-11335" lat="63.2719833289" lon="8.64633333807">
		<tag k="name" v="Seterelva" />
		<tag k="ssr:stedsnr" v="656840" />
		<tag k="waterway" v="river" />
	</node>
	<node id="-13381" lat="63.1644333305" lon="8.30389166862">
		<tag k="name" v="Latraua" />
		<tag k="ssr:stedsnr" v="534140" />
		<tag k="waterway" v="stream" />
	</node>
	<node id="-13372" lat="63.2684249963" lon="8.54600832632">
		<tag k="name" v="Aureelva" />
		<tag k="ssr:stedsnr" v="534096" />
		<tag k="waterway" v="river" />
	</node>
	<node id="-11322" lat="63.1837444411" lon="8.54623889133">
		<tag k="name" v="Grøa" />
		<tag k="ssr:stedsnr" v="656577" />
		<tag k="waterway" v="stream" />
	</node>
	<node id="-13368" lat="63.1991388926" lon="8.31038333627">
		<tag k="name" v="Kvernstadelva" />
		<tag k="ssr:stedsnr" v="534054" />
		<tag k="waterway" v="stream" />
	</node>
	<node id="-11315" lat="63.2486972238" lon="8.62363055893">
		<tag k="name" v="Heimste Småvatnet" />
		<tag k="natural" v="water" />
		<tag k="ssr:stedsnr" v="656325" />
		<tag k="water" v="lake" />
	</node>
	<node id="-13362" lat="63.1675694443" lon="8.50577778201">
		<tag k="name" v="Gjestadelva" />
		<tag k="ssr:stedsnr" v="534300" />
		<tag k="waterway" v="stream" />
	</node>
	<node id="-12124" lat="63.2074722229" lon="8.64204999523">
		<tag k="name" v="Grøndalsbekken" />
		<tag k="ssr:stedsnr" v="900221" />
		<tag k="waterway" v="stream" />
	</node>
	<node id="-10674" lat="63.2155277741" lon="8.09233610239">
		<tag k="name" v="Liatjønna" />
		<tag k="natural" v="water" />
		<tag k="ssr:stedsnr" v="133420" />
	</node>
	<node id="-11296" lat="63.1598416693" lon="8.08215555281">
		<tag k="name" v="Søndre Halsnestjønna" />
		<tag k="natural" v="water" />
		<tag k="ssr:stedsnr" v="655846" />
	</node>
	<node id="-13342" lat="63.223411112" lon="8.09705278014">
		<tag k="name" v="Lomtjønna" />
		<tag k="natural" v="water" />
		<tag k="ssr:stedsnr" v="533682" />
	</node>
	<node id="-11290" lat="63.2305111153" lon="8.60354722629">
		<tag k="name" v="Kvilarsteinan" />
		<tag k="natural" v="water" />
		<tag k="ssr:stedsnr" v="655702" />
		<tag k="water" v="lake" />
	</node>
	<node id="-11288" lat="63.2283027744" lon="8.58440554814">
		<tag k="name" v="Bjøringelva" />
		<tag k="ssr:stedsnr" v="655694" />
		<tag k="waterway" v="stream" />
	</node>
	<node id="-11286" lat="63.2247805514" lon="8.11828055225">
		<tag k="name" v="Middagstjønna" />
		<tag k="natural" v="water" />
		<tag k="ssr:stedsnr" v="655673" />
	</node>
	<node id="-13330" lat="63.1926305529" lon="8.15078333054">
		<tag k="name" v="Slådalsbekken" />
		<tag k="ssr:stedsnr" v="533273" />
		<tag k="waterway" v="stream" />
	</node>
	<node id="-13401" lat="63.2443444423" lon="8.33989444966">
		<tag k="name" v="Merkesbukta" />
		<tag k="natural" v="bay" />
		<tag k="ssr:stedsnr" v="534764" />
	</node>
	<node id="-11271" lat="63.1692361088" lon="7.95683610129">
		<tag k="name" v="Kipervikbekken" />
		<tag k="ssr:stedsnr" v="437312" />
		<tag k="waterway" v="stream" />
	</node>
	<node id="-12118" lat="63.1851000031" lon="8.23320554994">
		<tag k="name" v="Solemselva" />
		<tag k="ssr:stedsnr" v="899305" />
		<tag k="waterway" v="river" />
	</node>
	<node id="-13312" lat="63.3770749971" lon="8.51425832842">
		<tag k="name" v="Rotholtjønna" />
		<tag k="natural" v="water" />
		<tag k="ssr:stedsnr" v="438175" />
	</node>
	<node id="-13307" lat="63.3511805559" lon="8.87760000586">
		<tag k="name" v="Svartvatnet" />
		<tag k="natural" v="water" />
		<tag k="ssr:stedsnr" v="437709" />
	</node>
	<node id="-11255" lat="63.2582916706" lon="8.69487222784">
		<tag k="name" v="Torsetvatnet" />
		<tag k="natural" v="water" />
		<tag k="ssr:stedsnr" v="498375" />
		<tag k="water" v="lake" />
	</node>
	<node id="-13302" lat="63.3159027797" lon="8.77026944107">
		<tag k="name" v="Gjelaelva" />
		<tag k="ssr:stedsnr" v="437521" />
		<tag k="waterway" v="river" />
	</node>
	<node id="-11249" lat="63.31046667" lon="8.39113888076">
		<tag k="name" v="Lomtjønna" />
		<tag k="natural" v="water" />
		<tag k="ssr:stedsnr" v="376336" />
	</node>
	<node id="-13294" lat="63.1886277799" lon="7.96376945104">
		<tag k="name" v="Moldvågtjønna" />
		<tag k="natural" v="water" />
		<tag k="ssr:stedsnr" v="437461" />
	</node>
	<node id="-11244" lat="63.3163583328" lon="8.7174833398">
		<tag k="name" v="Haugaelva" />
		<tag k="ssr:stedsnr" v="376319" />
		<tag k="waterway" v="stream" />
	</node>
	<node id="-11237" lat="63.1910694416" lon="8.44899444502">
		<tag k="name" v="Mymaurhaugvatnet" />
		<tag k="natural" v="water" />
		<tag k="ssr:stedsnr" v="376102" />
	</node>
	<node id="-11233" lat="63.374702781" lon="8.54641666353">
		<tag k="fixme" v="multiple name tags, choose one and add the other to alt_name" />
		<tag k="name" v="Vettaheitjønna;Vettatjønna" />
		<tag k="natural" v="water" />
		<tag k="ssr:stedsnr" v="498228" />
	</node>
	<node id="-11231" lat="63.2969999985" lon="8.84976944218">
		<tag k="name" v="Tverrelva" />
		<tag k="ssr:stedsnr" v="498150" />
		<tag k="waterway" v="river" />
	</node>
	<node id="-13278" lat="63.1912750013" lon="8.24566666111">
		<tag k="name" v="Ørbogvatna" />
		<tag k="natural" v="water" />
		<tag k="ssr:stedsnr" v="437149" />
	</node>
	<node id="-11229" lat="63.2242999979" lon="8.66281388745">
		<tag k="name" v="Kuvatnet" />
		<tag k="natural" v="water" />
		<tag k="ssr:stedsnr" v="498038" />
	</node>
	<node id="-11228" lat="63.2204944437" lon="8.2988166737">
		<tag k="name" v="Krokvatnet" />
		<tag k="natural" v="water" />
		<tag k="ssr:stedsnr" v="498026" />
	</node>
	<node id="-11226" lat="63.2513027762" lon="8.78337499779">
		<tag k="alt_name" v="Sleipådalsvatnet" />
		<tag k="name" v="Ytter Sleipådalsvatnet" />
		<tag k="natural" v="water" />
		<tag k="ssr:stedsnr" v="497888" />
		<tag k="water" v="lake" />
	</node>
	<node id="-11225" lat="63.3885777744" lon="8.75788889365">
		<tag k="name" v="Skålvatnet" />
		<tag k="natural" v="water" />
		<tag k="ssr:stedsnr" v="497632" />
	</node>
	<node id="-11224" lat="63.1810694423" lon="7.98210000824">
		<tag k="name" v="Linvågvatnet" />
		<tag k="natural" v="water" />
		<tag k="ssr:stedsnr" v="497440" />
		<tag k="water" v="lake" />
	</node>
	<node id="-13263" lat="63.212841671" lon="8.35256112087">
		<tag k="name" v="Trollhaugtjønna" />
		<tag k="natural" v="water" />
		<tag k="ssr:stedsnr" v="437010" />
	</node>
	<node id="-11209" lat="63.3299750021" lon="8.44935278081">
		<tag k="name" v="Kiplesundvatnet" />
		<tag k="natural" v="water" />
		<tag k="ssr:stedsnr" v="497162" />
	</node>
	<node id="-13256" lat="63.3524222208" lon="8.77496667657">
		<tag k="name" v="Urbekken" />
		<tag k="ssr:stedsnr" v="415879" />
		<tag k="waterway" v="stream" />
	</node>
	<node id="-13253" lat="63.3548083335" lon="8.80708333028">
		<tag k="name" v="Gauplibekken" />
		<tag k="ssr:stedsnr" v="415849" />
		<tag k="waterway" v="stream" />
	</node>
	<node id="-11204" lat="63.2152833307" lon="8.62829165699">
		<tag k="name" v="Vikavatnet" />
		<tag k="natural" v="water" />
		<tag k="ssr:stedsnr" v="497016" />
	</node>
	<node id="-13250" lat="63.2815916631" lon="8.77188889473">
		<tag k="name" v="Vihalselva" />
		<tag k="ssr:stedsnr" v="414999" />
		<tag k="waterway" v="river" />
	</node>
	<node id="-13249" lat="63.2831472216" lon="8.71676666131">
		<tag k="name" v="Rådyrtjønna" />
		<tag k="natural" v="water" />
		<tag k="ssr:stedsnr" v="414996" />
	</node>
	<node id="-13244" lat="63.3015527792" lon="8.72268055996">
		<tag k="name" v="Nordfjellstibekken" />
		<tag k="ssr:stedsnr" v="414920" />
		<tag k="waterway" v="stream" />
	</node>
	<node id="-11194" lat="63.2340666673" lon="8.42408333234">
		<tag k="name" v="Svennhaugbuktbekken" />
		<tag k="ssr:stedsnr" v="352214" />
		<tag k="waterway" v="stream" />
	</node>
	<node id="-13241" lat="63.2923694423" lon="8.58090556182">
		<tag k="name" v="Ytterbekken" />
		<tag k="ssr:stedsnr" v="414865" />
		<tag k="waterway" v="stream" />
	</node>
	<node id="-11191" lat="63.3911888878" lon="8.80017222957">
		<tag k="name" v="Rapneset" />
		<tag k="natural" v="cape" />
		<tag k="ssr:stedsnr" v="333831" />
	</node>
	<node id="-13238" lat="63.3470277793" lon="8.84282222682">
		<tag k="name" v="Inner Vågen" />
		<tag k="natural" v="bay" />
		<tag k="ssr:stedsnr" v="414848" />
	</node>
	<node id="-13237" lat="63.3511194449" lon="8.85407222828">
		<tag k="name" v="Svartvasselva" />
		<tag k="ssr:stedsnr" v="414837" />
		<tag k="waterway" v="stream" />
	</node>
	<node id="-13230" lat="63.3967999968" lon="8.77968332659">
		<tag k="name" v="Dammholmen" />
		<tag k="place" v="islet" />
		<tag k="ssr:stedsnr" v="414746" />
	</node>
	<node id="-13227" lat="63.2018361079" lon="8.55059723116">
		<tag k="name" v="Lindåsvikelva" />
		<tag k="ssr:stedsnr" v="414689" />
		<tag k="waterway" v="stream" />
	</node>
	<node id="-13225" lat="63.2738583347" lon="8.81919999203">
		<tag k="name" v="Storfiskvatnet" />
		<tag k="natural" v="water" />
		<tag k="ssr:stedsnr" v="414675" />
		<tag k="water" v="lake" />
	</node>
	<node id="-13224" lat="63.3076249958" lon="8.59934443683">
		<tag k="name" v="Veaelva" />
		<tag k="ssr:stedsnr" v="414599" />
		<tag k="waterway" v="river" />
	</node>
	<node id="-11172" lat="63.2965944416" lon="8.83289721941">
		<tag k="name" v="Klakkbekken" />
		<tag k="ssr:stedsnr" v="475635" />
		<tag k="waterway" v="stream" />
	</node>
	<node id="-11159" lat="63.3062305542" lon="8.55084722301">
		<tag k="loc_name" v="Eidsstranda" />
		<tag k="name" v="Eidestranda" />
		<tag k="natural" v="beach" />
		<tag k="ssr:stedsnr" v="475279" />
	</node>
	<node id="-11158" lat="63.1979055563" lon="8.75678888447">
		<tag k="name" v="Ringstadelva" />
		<tag k="ssr:stedsnr" v="475261" />
		<tag k="waterway" v="stream" />
	</node>
	<node id="-13193" lat="63.170094443" lon="8.44343889381">
		<tag k="name" v="Stordalsbekken" />
		<tag k="ssr:stedsnr" v="413843" />
		<tag k="waterway" v="stream" />
	</node>
	<node id="-11142" lat="63.2286416653" lon="8.58807777353">
		<tag k="name" v="Klevfossen" />
		<tag k="natural" v="waterfall" />
		<tag k="ssr:stedsnr" v="474715" />
	</node>
	<node id="-11139" lat="63.233597225" lon="8.72068888072">
		<tag k="name" v="Heimer Kvistdalsvatn" />
		<tag k="natural" v="water" />
		<tag k="ssr:stedsnr" v="474586" />
		<tag k="water" v="lake" />
	</node>
	<node id="-11134" lat="63.1895444453" lon="8.45940556009">
		<tag k="name" v="Durmålsvatnet" />
		<tag k="natural" v="water" />
		<tag k="ssr:stedsnr" v="474341" />
	</node>
	<node id="-11127" lat="63.3549888863" lon="8.59365555196">
		<tag k="name" v="Langlibakken" />
		<tag k="ssr:stedsnr" v="474149" />
		<tag k="waterway" v="stream" />
	</node>
	<node id="-13173" lat="63.3330444479" lon="8.62709722732">
		<tag k="name" v="Kvennavatnet" />
		<tag k="natural" v="water" />
		<tag k="ssr:stedsnr" v="413473" />
	</node>
	<node id="-11122" lat="63.2762444437" lon="8.77673054785">
		<tag k="name" v="Holmvatnet" />
		<tag k="natural" v="water" />
		<tag k="ssr:stedsnr" v="316963" />
	</node>
	<node id="-13168" lat="63.2648888852" lon="8.44246389445">
		<tag k="name" v="Bekkan" />
		<tag k="ssr:stedsnr" v="413418" />
		<tag k="waterway" v="stream" />
	</node>
	<node id="-13167" lat="63.2735166679" lon="8.41686111975">
		<tag k="name" v="Dreyertjønna" />
		<tag k="natural" v="water" />
		<tag k="ssr:stedsnr" v="413413" />
	</node>
	<node id="-11117" lat="63.3021694416" lon="8.68202777621">
		<tag k="name" v="Salholbekken" />
		<tag k="ssr:stedsnr" v="474078" />
		<tag k="waterway" v="stream" />
	</node>
	<node id="-13164" lat="63.2727472197" lon="8.45915278009">
		<tag k="name" v="Ånesbekken" />
		<tag k="ssr:stedsnr" v="413355" />
		<tag k="waterway" v="stream" />
	</node>
	<node id="-11410" lat="63.2210222227" lon="8.11967777166">
		<tag k="name" v="Storelva" />
		<tag k="ssr:stedsnr" v="680526" />
		<tag k="waterway" v="stream" />
	</node>
	<node id="-13160" lat="63.1861249998" lon="8.19222778515">
		<tag k="name" v="Trobekken" />
		<tag k="ssr:stedsnr" v="413180" />
		<tag k="waterway" v="stream" />
	</node>
	<node id="-13157" lat="63.2434277817" lon="8.44385554688">
		<tag k="name" v="Folltjønna" />
		<tag k="natural" v="water" />
		<tag k="ssr:stedsnr" v="413139" />
	</node>
	<node id="-11102" lat="63.2416999963" lon="8.60643333706">
		<tag k="name" v="Torsetelva" />
		<tag k="ssr:stedsnr" v="316060" />
		<tag k="waterway" v="stream" />
	</node>
	<node id="-11100" lat="63.2248777811" lon="8.75201944626">
		<tag k="name" v="Fjellsbekkelva" />
		<tag k="ssr:stedsnr" v="315770" />
		<tag k="waterway" v="stream" />
	</node>
	<node id="-11091" lat="63.3372305577" lon="8.65242222885">
		<tag k="name" v="Romundsetvatnet" />
		<tag k="natural" v="water" />
		<tag k="ssr:stedsnr" v="315126" />
		<tag k="water" v="lake" />
	</node>
	<node id="-11090" lat="63.1889290582" lon="8.33295499119">
		<tag k="name" v="Fuglvågvatnet" />
		<tag k="natural" v="water" />
		<tag k="ssr:stedsnr" v="315120" />
	</node>
	<node id="-11089" lat="63.2197527774" lon="8.7772138944">
		<tag k="name" v="Todalselva" />
		<tag k="ssr:stedsnr" v="315117" />
		<tag k="waterway" v="river" />
	</node>
	<node id="-11087" lat="63.2598333349" lon="8.37074722945">
		<tag k="name" v="Grimsvikvatnet" />
		<tag k="natural" v="water" />
		<tag k="ssr:stedsnr" v="315266" />
	</node>
	<node id="-13134" lat="63.2435166681" lon="8.33103889517">
		<tag k="name" v="Grønneset" />
		<tag k="natural" v="cape" />
		<tag k="ssr:stedsnr" v="412717" />
	</node>
	<node id="-13128" lat="63.2307305537" lon="8.10939167069">
		<tag k="name" v="Sandvikbekken" />
		<tag k="ssr:stedsnr" v="412626" />
		<tag k="waterway" v="stream" />
	</node>
	<node id="-11078" lat="63.2507500042" lon="8.38512777255">
		<tag k="name" v="Husbybekken" />
		<tag k="ssr:stedsnr" v="473792" />
		<tag k="waterway" v="stream" />
	</node>
	<node id="-11071" lat="63.1745805558" lon="8.44126389403">
		<tag k="name" v="Vassbotnbekken" />
		<tag k="ssr:stedsnr" v="473681" />
		<tag k="waterway" v="stream" />
	</node>
	<node id="-13116" lat="63.222886108" lon="8.29001665955">
		<tag k="name" v="Sørtjønna" />
		<tag k="natural" v="water" />
		<tag k="ssr:stedsnr" v="412497" />
	</node>
	<node id="-11066" lat="63.193919444" lon="8.35527777221">
		<tag k="name" v="Rishaugtjønna" />
		<tag k="natural" v="water" />
		<tag k="ssr:stedsnr" v="473456" />
	</node>
	<node id="-11063" lat="63.1659833299" lon="8.24553333573">
		<tag k="name" v="Fjellingselva" />
		<tag k="ssr:stedsnr" v="473436" />
		<tag k="waterway" v="river" />
	</node>
	<node id="-13108" lat="63.1961222199" lon="8.15870000138">
		<tag k="name" v="Baggtrøbekken" />
		<tag k="ssr:stedsnr" v="412239" />
		<tag k="waterway" v="stream" />
	</node>
	<node id="-13106" lat="63.1979583289" lon="8.41203888359">
		<tag k="name" v="Nessaslettet" />
		<tag k="natural" v="cape" />
		<tag k="ssr:stedsnr" v="412162" />
	</node>
	<node id="-11051" lat="63.2557777815" lon="8.50721110526">
		<tag k="name" v="Stordammen" />
		<tag k="natural" v="water" />
		<tag k="ssr:stedsnr" v="473189" />
	</node>
	<node id="-13094" lat="63.420041663" lon="8.75790832802">
		<tag k="name" v="Eiteråa" />
		<tag k="ssr:stedsnr" v="393397" />
		<tag k="waterway" v="stream" />
	</node>
	<node id="-13093" lat="63.2184166633" lon="8.56239445376">
		<tag k="name" v="Storbekkvatnet" />
		<tag k="natural" v="water" />
		<tag k="ssr:stedsnr" v="389739" />
	</node>
	<node id="-13090" lat="63.237905552" lon="8.73512776962">
		<tag k="name" v="Kvistdalsvatna" />
		<tag k="natural" v="water" />
		<tag k="ssr:stedsnr" v="376871" />
	</node>
	<node id="-13089" lat="63.2285583362" lon="8.81062777581">
		<tag k="name" v="Skardelva" />
		<tag k="ssr:stedsnr" v="376782" />
		<tag k="waterway" v="stream" />
	</node>
	<node id="-13088" lat="63.3627027806" lon="8.81811944287">
		<tag k="name" v="Vasslivatna" />
		<tag k="natural" v="water" />
		<tag k="ssr:stedsnr" v="376766" />
	</node>
	<node id="-13087" lat="63.3688999976" lon="8.81841944237">
		<tag k="name" v="Kvernavatnet" />
		<tag k="natural" v="water" />
		<tag k="ssr:stedsnr" v="376764" />
	</node>
	<node id="-13083" lat="63.3809416703" lon="8.79528333314">
		<tag k="name" v="Rapbekktjønna" />
		<tag k="natural" v="water" />
		<tag k="ssr:stedsnr" v="376664" />
	</node>
	<node id="-11031" lat="63.2311694484" lon="8.25951387944">
		<tag k="name" v="Stokkvikbekken" />
		<tag k="ssr:stedsnr" v="473535" />
		<tag k="waterway" v="stream" />
	</node>
	<node id="-11415" lat="63.1997388892" lon="8.35336943895">
		<tag k="fixme" v="multiple name tags, choose one and add the other to alt_name" />
		<tag k="name" v="Skiftesvatna;Setertjønnin" />
		<tag k="natural" v="water" />
		<tag k="ssr:stedsnr" v="497113" />
	</node>
	<node id="-13070" lat="63.2526900857" lon="8.72729101515">
		<tag k="name" v="Kuvatna" />
		<tag k="natural" v="water" />
		<tag k="ssr:stedsnr" v="376465" />
		<tag k="water" v="lake" />
	</node>
	<node id="-13063" lat="63.2869499993" lon="8.69806943641">
		<tag k="name" v="Sølømsbekken" />
		<tag k="ssr:stedsnr" v="376367" />
		<tag k="waterway" v="stream" />
	</node>
	<node id="-11011" lat="63.3495388919" lon="8.74584721474">
		<tag k="name" v="Rønningsbekken" />
		<tag k="ssr:stedsnr" v="293009" />
		<tag k="waterway" v="stream" />
	</node>
	<node id="-11004" lat="63.2597833366" lon="8.39745277863">
		<tag k="name" v="Espesetelva" />
		<tag k="ssr:stedsnr" v="292365" />
		<tag k="waterway" v="stream" />
	</node>
	<node id="-10997" lat="63.1819694473" lon="8.28251111402">
		<tag k="name" v="Ørbogvatnet" />
		<tag k="natural" v="water" />
		<tag k="ssr:stedsnr" v="291856" />
	</node>
	<node id="-13042" lat="63.3155249991" lon="8.66811110197">
		<tag k="name" v="Melaelva" />
		<tag k="ssr:stedsnr" v="376345" />
		<tag k="waterway" v="stream" />
	</node>
	<node id="-12072" lat="63.408560589" lon="8.77132727086">
		<tag k="name" v="Småvatna" />
		<tag k="natural" v="water" />
		<tag k="ssr:stedsnr" v="940692" />
		<tag k="water" v="lake" />
	</node>
	<node id="-10988" lat="63.3656888906" lon="8.80234999537">
		<tag k="name" v="Holmvatnet" />
		<tag k="natural" v="water" />
		<tag k="ssr:stedsnr" v="255768" />
	</node>
	<node id="-10987" lat="63.2182166699" lon="8.79611667358">
		<tag k="name" v="Bølielva" />
		<tag k="ssr:stedsnr" v="255816" />
		<tag k="waterway" v="stream" />
	</node>
	<node id="-10984" lat="63.3112111138" lon="8.79805555042">
		<tag k="name" v="Kuptjønna" />
		<tag k="natural" v="water" />
		<tag k="ssr:stedsnr" v="255520" />
	</node>
	<node id="-13031" lat="63.3307083343" lon="8.63239165756">
		<tag k="name" v="Setervatnet" />
		<tag k="natural" v="water" />
		<tag k="ssr:stedsnr" v="376159" />
	</node>
	<node id="-13030" lat="63.3156750025" lon="8.43204165887">
		<tag k="name" v="Gjerdavatnet" />
		<tag k="natural" v="water" />
		<tag k="ssr:stedsnr" v="376156" />
		<tag k="water" v="lake" />
	</node>
	<node id="-11046" lat="63.224375" lon="8.50063889259">
		<tag k="name" v="Oraelva" />
		<tag k="ssr:stedsnr" v="473127" />
		<tag k="waterway" v="stream" />
	</node>
	<node id="-10977" lat="63.2621361105" lon="8.58469999867">
		<tag k="name" v="Ormsetvatnet" />
		<tag k="natural" v="water" />
		<tag k="ssr:stedsnr" v="255308" />
		<tag k="water" v="lake" />
	</node>
	<node id="-13024" lat="63.3764527781" lon="8.78360554957">
		<tag k="name" v="Nordlibekken" />
		<tag k="ssr:stedsnr" v="354848" />
		<tag k="waterway" v="stream" />
	</node>
	<node id="-11386" lat="63.2240333341" lon="8.61447223137">
		<tag k="name" v="Tverrelva" />
		<tag k="ssr:stedsnr" v="680035" />
		<tag k="waterway" v="stream" />
	</node>
	<node id="-13012" lat="63.3503583317" lon="8.84267500043">
		<tag k="name" v="Ytter Vågen" />
		<tag k="natural" v="bay" />
		<tag k="ssr:stedsnr" v="353846" />
	</node>
	<node id="-13011" lat="63.3468527755" lon="8.85250555549">
		<tag k="name" v="Åsgårdelva" />
		<tag k="ssr:stedsnr" v="353841" />
		<tag k="waterway" v="stream" />
	</node>
	<node id="-10957" lat="63.3947250005" lon="8.78777777323">
		<tag k="name" v="Ytterlangvågneset" />
		<tag k="natural" v="cape" />
		<tag k="ssr:stedsnr" v="232727" />
	</node>
	<node id="-10956" lat="63.2389888881" lon="8.69147777429">
		<tag k="name" v="Lykkjetjønna" />
		<tag k="natural" v="water" />
		<tag k="ssr:stedsnr" v="232613" />
	</node>
	<node id="-13000" lat="63.1995944489" lon="8.76283333427">
		<tag k="name" v="Bukkhagbekken" />
		<tag k="ssr:stedsnr" v="353451" />
		<tag k="waterway" v="stream" />
	</node>
	<node id="-10951" lat="63.2152944452" lon="8.74593889605">
		<tag k="name" v="Pallen" />
		<tag k="natural" v="strait" />
		<tag k="ssr:stedsnr" v="232510" />
	</node>
	<node id="-12996" lat="63.2028805521" lon="8.7348027806">
		<tag k="name" v="Vassgåstjønna" />
		<tag k="natural" v="water" />
		<tag k="ssr:stedsnr" v="353415" />
	</node>
	<node id="-10946" lat="63.2454222196" lon="8.63003055124">
		<tag k="name" v="Stillelva" />
		<tag k="ssr:stedsnr" v="232304" />
		<tag k="waterway" v="stream" />
	</node>
	<node id="-10944" lat="63.3940583349" lon="8.7370555586">
		<tag k="name" v="Svartosbekken" />
		<tag k="ssr:stedsnr" v="232263" />
		<tag k="waterway" v="stream" />
	</node>
	<node id="-10943" lat="63.354283333" lon="8.73130278192">
		<tag k="name" v="Sagstibekken" />
		<tag k="ssr:stedsnr" v="232007" />
		<tag k="waterway" v="stream" />
	</node>
	<node id="-12984" lat="63.3287361089" lon="8.65373610348">
		<tag k="name" v="Einbekken" />
		<tag k="ssr:stedsnr" v="353256" />
		<tag k="waterway" v="stream" />
	</node>
	<node id="-12979" lat="63.2260944438" lon="8.49000555351">
		<tag k="name" v="Kokvassbekken" />
		<tag k="ssr:stedsnr" v="353123" />
		<tag k="waterway" v="stream" />
	</node>
	<node id="-12974" lat="63.3678138918" lon="8.58678888262">
		<tag k="name" v="Gammelseterbekken" />
		<tag k="ssr:stedsnr" v="353099" />
		<tag k="waterway" v="stream" />
	</node>
	<node id="-10925" lat="63.2032583335" lon="8.29761388319">
		<tag k="name" v="Måvikbekken" />
		<tag k="ssr:stedsnr" v="231066" />
		<tag k="waterway" v="stream" />
	</node>
	<node id="-12972" lat="63.3027611123" lon="8.69999999173">
		<tag k="name" v="Innvasshaugbekken" />
		<tag k="ssr:stedsnr" v="353092" />
		<tag k="waterway" v="stream" />
	</node>
	<node id="-12965" lat="63.177680552" lon="8.28435278125">
		<tag k="alt_name" v="Fugelsnesvatnet" />
		<tag k="name" v="Fuglsnesvatnet" />
		<tag k="natural" v="water" />
		<tag k="ssr:stedsnr" v="352837" />
	</node>
	<node id="-10915" lat="63.1993194489" lon="8.02651944361">
		<tag k="name" v="Leirelva" />
		<tag k="ssr:stedsnr" v="230712" />
		<tag k="waterway" v="stream" />
	</node>
	<node id="-12961" lat="63.1757277765" lon="7.96290278028">
		<tag k="name" v="Seterbekken" />
		<tag k="ssr:stedsnr" v="352797" />
		<tag k="waterway" v="stream" />
	</node>
	<node id="-10912" lat="63.1885138869" lon="8.39536943493">
		<tag k="name" v="Inner Sagelva" />
		<tag k="ssr:stedsnr" v="230564" />
		<tag k="waterway" v="stream" />
	</node>
	<node id="-12953" lat="63.1753611126" lon="8.52247500012">
		<tag k="name" v="Brattsetelva" />
		<tag k="ssr:stedsnr" v="352613" />
		<tag k="waterway" v="stream" />
	</node>
	<node id="-10900" lat="63.1901722252" lon="8.14061389259">
		<tag k="name" v="Skrebekken" />
		<tag k="ssr:stedsnr" v="230105" />
		<tag k="waterway" v="stream" />
	</node>
	<node id="-12941" lat="63.2591388921" lon="8.43442776975">
		<tag k="name" v="Nør Haltbakktjønna" />
		<tag k="natural" v="water" />
		<tag k="ssr:stedsnr" v="352389" />
	</node>
	<node id="-12939" lat="63.265005559" lon="8.40637776816">
		<tag k="name" v="Roksvågbekken" />
		<tag k="ssr:stedsnr" v="352383" />
		<tag k="waterway" v="stream" />
	</node>
	<node id="-12938" lat="63.3276250012" lon="8.4464722179">
		<tag k="name" v="Evjene" />
		<tag k="ssr:stedsnr" v="352376" />
		<tag k="waterway" v="stream" />
	</node>
	<node id="-10889" lat="63.2626361126" lon="8.79036667236">
		<tag k="name" v="Hallartjønna" />
		<tag k="natural" v="water" />
		<tag k="ssr:stedsnr" v="295240" />
	</node>
	<node id="-12936" lat="63.3174916704" lon="8.43585833308">
		<tag k="name" v="Sandbukta" />
		<tag k="natural" v="bay" />
		<tag k="ssr:stedsnr" v="352342" />
	</node>
	<node id="-12933" lat="63.1930527821" lon="8.47689722698">
		<tag k="name" v="Skarfjellråa" />
		<tag k="ssr:stedsnr" v="352315" />
		<tag k="waterway" v="stream" />
	</node>
	<node id="-12932" lat="63.2588555568" lon="8.47000833533">
		<tag k="name" v="Setervikbekken" />
		<tag k="ssr:stedsnr" v="352314" />
		<tag k="waterway" v="stream" />
	</node>
	<node id="-12924" lat="63.1779250009" lon="8.3911583364">
		<tag k="name" v="Krokvassneset" />
		<tag k="natural" v="cape" />
		<tag k="ssr:stedsnr" v="352172" />
	</node>
	<node id="-12922" lat="63.2120472245" lon="8.22978055687">
		<tag k="name" v="Sæterholmen" />
		<tag k="place" v="islet" />
		<tag k="ssr:stedsnr" v="352157" />
	</node>
	<node id="-12914" lat="63.2188361109" lon="8.41589167072">
		<tag k="name" v="Krokåtbekken" />
		<tag k="ssr:stedsnr" v="352065" />
		<tag k="waterway" v="stream" />
	</node>
	<node id="-12909" lat="63.17553333" lon="8.34616666779">
		<tag k="name" v="Hagabekken" />
		<tag k="ssr:stedsnr" v="351988" />
		<tag k="waterway" v="stream" />
	</node>
	<node id="-12637" lat="63.1721138849" lon="7.97607778618">
		<tag k="name" v="Sjåvikbekken" />
		<tag k="ssr:stedsnr" v="169136" />
		<tag k="waterway" v="stream" />
	</node>
	<node id="-12906" lat="63.1591638864" lon="8.08893054942">
		<tag k="name" v="Nordre Halsnestjønna" />
		<tag k="natural" v="water" />
		<tag k="ssr:stedsnr" v="351839" />
	</node>
	<node id="-12902" lat="63.1700111123" lon="8.52651389188">
		<tag k="name" v="Brattsetelva" />
		<tag k="ssr:stedsnr" v="351691" />
		<tag k="waterway" v="stream" />
	</node>
	<node id="-12895" lat="63.1875333303" lon="8.40289721708">
		<tag k="name" v="Gammelseterbekken" />
		<tag k="ssr:stedsnr" v="351624" />
		<tag k="waterway" v="stream" />
	</node>
	<node id="-10846" lat="63.262536115" lon="8.36405832417">
		<tag k="name" v="Kvennaelva" />
		<tag k="ssr:stedsnr" v="292989" />
		<tag k="waterway" v="stream" />
	</node>
	<node id="-11706" lat="63.3375194481" lon="8.60815834097">
		<tag k="name" v="Bengtsvatnet" />
		<tag k="natural" v="water" />
		<tag k="ssr:stedsnr" v="679123" />
	</node>
	<node id="-12889" lat="63.2161277814" lon="8.37984444776">
		<tag k="name" v="Kvennaelva" />
		<tag k="ssr:stedsnr" v="351493" />
		<tag k="waterway" v="stream" />
	</node>
	<node id="-10839" lat="63.347322218" lon="8.88609444806">
		<tag k="name" v="Søre Svartvasstjønna" />
		<tag k="natural" v="water" />
		<tag k="ssr:stedsnr" v="195710" />
	</node>
	<node id="-12881" lat="63.1510305511" lon="8.00510277016">
		<tag k="name" v="Jørenvågelva" />
		<tag k="ssr:stedsnr" v="351312" />
		<tag k="waterway" v="river" />
	</node>
	<node id="-10831" lat="63.2433583324" lon="8.65704999551">
		<tag k="name" v="Øyran" />
		<tag k="natural" v="strait" />
		<tag k="ssr:stedsnr" v="292676" />
	</node>
	<node id="-12878" lat="63.1882277766" lon="8.47541111722">
		<tag k="name" v="Skausetelva" />
		<tag k="ssr:stedsnr" v="351205" />
		<tag k="waterway" v="river" />
	</node>
	<node id="-10829" lat="63.2292750039" lon="8.70028611689">
		<tag k="name" v="Lykkjebekken" />
		<tag k="ssr:stedsnr" v="292658" />
		<tag k="waterway" v="stream" />
	</node>
	<node id="-10678" lat="63.3008638909" lon="8.7131444493">
		<tag k="name" v="Setervatnet" />
		<tag k="natural" v="water" />
		<tag k="ssr:stedsnr" v="133326" />
	</node>
	<node id="-12866" lat="63.163819445" lon="8.46770000598">
		<tag k="name" v="Seterbekken" />
		<tag k="ssr:stedsnr" v="351439" />
		<tag k="waterway" v="stream" />
	</node>
	<node id="-10817" lat="63.2315583334" lon="8.71174167286">
		<tag k="name" v="Kvistdalsfossen" />
		<tag k="natural" v="waterfall" />
		<tag k="ssr:stedsnr" v="292559" />
	</node>
	<node id="-10811" lat="63.1843305596" lon="7.99951943791">
		<tag k="name" v="Sagelva" />
		<tag k="ssr:stedsnr" v="194410" />
		<tag k="waterway" v="stream" />
	</node>
	<node id="-12854" lat="63.1865388851" lon="8.38541667404">
		<tag k="name" v="Litlevatnet" />
		<tag k="natural" v="water" />
		<tag k="ssr:stedsnr" v="330971" />
		<tag k="water" v="lake" />
	</node>
	<node id="-10803" lat="63.1834500002" lon="8.49036388381">
		<tag k="name" v="Gjuvvatnet" />
		<tag k="natural" v="water" />
		<tag k="ssr:stedsnr" v="194106" />
	</node>
	<node id="-10802" lat="63.1878305521" lon="8.46612499472">
		<tag k="name" v="Rognlivatnet" />
		<tag k="natural" v="water" />
		<tag k="ssr:stedsnr" v="194103" />
	</node>
	<node id="-12849" lat="63.4088194446" lon="8.7357944459">
		<tag k="name" v="Ledalsvatnet" />
		<tag k="natural" v="water" />
		<tag k="ssr:stedsnr" v="316728" />
		<tag k="water" v="lake" />
	</node>
	<node id="-10800" lat="63.3084749982" lon="8.43121667488">
		<tag k="name" v="Gjerdebekken" />
		<tag k="ssr:stedsnr" v="292334" />
		<tag k="waterway" v="stream" />
	</node>
	<node id="-12847" lat="63.2835888918" lon="8.82950833994">
		<tag k="name" v="Setertjønnin" />
		<tag k="natural" v="water" />
		<tag k="ssr:stedsnr" v="316625" />
	</node>
	<node id="-10798" lat="63.173886107" lon="8.45023612005">
		<tag k="name" v="Stordalsbekken" />
		<tag k="ssr:stedsnr" v="292325" />
		<tag k="waterway" v="stream" />
	</node>
	<node id="-12843" lat="63.3076000017" lon="8.40582500571">
		<tag k="name" v="Litlvatnet" />
		<tag k="natural" v="water" />
		<tag k="ssr:stedsnr" v="316393" />
	</node>
	<node id="-12836" lat="63.1672555517" lon="8.40171110593">
		<tag k="name" v="Svarttjønna" />
		<tag k="natural" v="water" />
		<tag k="ssr:stedsnr" v="316093" />
	</node>
	<node id="-12835" lat="63.2426638856" lon="8.33621666832">
		<tag k="name" v="Vinsternesvatnet" />
		<tag k="natural" v="water" />
		<tag k="ssr:stedsnr" v="316049" />
		<tag k="water" v="lake" />
	</node>
	<node id="-10786" lat="63.1855555551" lon="8.4694666724">
		<tag k="name" v="Rognlitjønnen" />
		<tag k="natural" v="water" />
		<tag k="ssr:stedsnr" v="292229" />
	</node>
	<node id="-12833" lat="63.2294055597" lon="8.609744449">
		<tag k="name" v="Bjøringelva" />
		<tag k="ssr:stedsnr" v="316040" />
		<tag k="waterway" v="stream" />
	</node>
	<node id="-12832" lat="63.2337805514" lon="8.63429166223">
		<tag k="name" v="Bjøringvatnet" />
		<tag k="natural" v="water" />
		<tag k="ssr:stedsnr" v="316037" />
		<tag k="water" v="lake" />
	</node>
	<node id="-12830" lat="63.2188583372" lon="8.61941665724">
		<tag k="name" v="Sultjønna" />
		<tag k="natural" v="water" />
		<tag k="ssr:stedsnr" v="316029" />
	</node>
	<node id="-12828" lat="63.3238638907" lon="8.8050722256">
		<tag k="name" v="Ørtjønnin" />
		<tag k="natural" v="water" />
		<tag k="ssr:stedsnr" v="315498" />
	</node>
	<node id="-11695" lat="63.3923666629" lon="8.72731389512">
		<tag k="name" v="Stettjønna" />
		<tag k="natural" v="water" />
		<tag k="ssr:stedsnr" v="657281" />
	</node>
	<node id="-10774" lat="63.2338194419" lon="8.4913861207">
		<tag k="name" v="Kvennaelva" />
		<tag k="natural" v="water" />
		<tag k="ssr:stedsnr" v="292095" />
	</node>
	<node id="-10773" lat="63.3549277793" lon="8.6662611041">
		<tag k="name" v="Ulfsneselva" />
		<tag k="ssr:stedsnr" v="292088" />
		<tag k="waterway" v="river" />
	</node>
	<node id="-12815" lat="63.1908916704" lon="8.41555000798">
		<tag k="name" v="Skausetvatnet" />
		<tag k="natural" v="water" />
		<tag k="ssr:stedsnr" v="315096" />
		<tag k="water" v="lake" />
	</node>
	<node id="-10762" lat="63.1783055536" lon="8.34393888848">
		<tag k="name" v="Almbakkbekken" />
		<tag k="ssr:stedsnr" v="291981" />
		<tag k="waterway" v="stream" />
	</node>
	<node id="-10668" lat="63.3337250043" lon="8.61674166607">
		<tag k="alt_name" v="Synstjønna" />
		<tag k="name" v="Sundstjønna" />
		<tag k="natural" v="water" />
		<tag k="ssr:stedsnr" v="133122" />
	</node>
	<node id="-12797" lat="63.2293166642" lon="8.78919165792">
		<tag k="name" v="Sleipå" />
		<tag k="ssr:stedsnr" v="194735" />
		<tag k="waterway" v="stream" />
	</node>
	<node id="-12794" lat="63.3286500008" lon="8.81404167132">
		<tag k="name" v="Krokvatnet" />
		<tag k="natural" v="water" />
		<tag k="ssr:stedsnr" v="194500" />
		<tag k="water" v="lake" />
	</node>
	<node id="-12793" lat="63.3322388889" lon="8.8457111157">
		<tag k="name" v="Åsgardvatnet" />
		<tag k="natural" v="water" />
		<tag k="ssr:stedsnr" v="194484" />
		<tag k="water" v="lake" />
	</node>
	<node id="-12791" lat="63.3091777808" lon="8.84094444756">
		<tag k="name" v="Sandvatnet" />
		<tag k="natural" v="water" />
		<tag k="ssr:stedsnr" v="194463" />
	</node>
	<node id="-10737" lat="63.2014138872" lon="8.386227773">
		<tag k="name" v="Skjellingbubekken" />
		<tag k="ssr:stedsnr" v="291432" />
		<tag k="waterway" v="stream" />
	</node>
	<node id="-12784" lat="63.2694527806" lon="8.71730278346">
		<tag k="name" v="Øvre Kjøltjønna" />
		<tag k="natural" v="water" />
		<tag k="ssr:stedsnr" v="194262" />
	</node>
	<node id="-10715" lat="63.2074472263" lon="8.29396388637">
		<tag k="fixme" v="multiple name tags, choose one and add the other to alt_name" />
		<tag k="name" v="Krokvassbekken;Sollielva" />
		<tag k="ssr:stedsnr" v="291031" />
		<tag k="waterway" v="stream" />
	</node>
	<node id="-12762" lat="63.3328694444" lon="8.62727221543">
		<tag k="name" v="Kvernavatnet" />
		<tag k="natural" v="water" />
		<tag k="ssr:stedsnr" v="194163" />
	</node>
	<node id="-12760" lat="63.3392694433" lon="8.49931110264">
		<tag k="name" v="Lesundvatnet" />
		<tag k="natural" v="water" />
		<tag k="ssr:stedsnr" v="194143" />
	</node>
	<node id="-12756" lat="63.2286444488" lon="8.29352499663">
		<tag k="name" v="Gulltjønna" />
		<tag k="natural" v="water" />
		<tag k="ssr:stedsnr" v="194029" />
	</node>
	<node id="-12750" lat="63.2986861111" lon="8.74683334316">
		<tag k="name" v="Bjørkelifjelltjønnen" />
		<tag k="natural" v="water" />
		<tag k="ssr:stedsnr" v="171999" />
	</node>
	<node id="-12748" lat="63.3108027821" lon="8.69813333497">
		<tag k="name" v="Flessatjønna" />
		<tag k="natural" v="water" />
		<tag k="ssr:stedsnr" v="171964" />
	</node>
	<node id="-12745" lat="63.306430557" lon="8.71569723041">
		<tag k="name" v="Stillelva" />
		<tag k="ssr:stedsnr" v="171940" />
		<tag k="waterway" v="river" />
	</node>
	<node id="-10694" lat="63.3393833352" lon="8.5670472123">
		<tag k="name" v="Kåvikbekken" />
		<tag k="ssr:stedsnr" v="171022" />
		<tag k="waterway" v="stream" />
	</node>
	<node id="-12740" lat="63.2983611152" lon="8.61797777083">
		<tag k="name" v="Rostolbekken" />
		<tag k="ssr:stedsnr" v="171874" />
		<tag k="waterway" v="stream" />
	</node>
	<node id="-12727" lat="63.2439138894" lon="8.78756943476">
		<tag k="name" v="Metter Sleipådalsvatnet" />
		<tag k="natural" v="water" />
		<tag k="ssr:stedsnr" v="171340" />
		<tag k="water" v="lake" />
	</node>
	<node id="-12726" lat="63.184211107" lon="8.45327499822">
		<tag k="name" v="Knaustjønna" />
		<tag k="natural" v="water" />
		<tag k="ssr:stedsnr" v="171327" />
	</node>
	<node id="-12724" lat="63.2522361077" lon="8.6060583309">
		<tag k="name" v="Skreppheibekken" />
		<tag k="ssr:stedsnr" v="171315" />
		<tag k="waterway" v="stream" />
	</node>
	<node id="-12722" lat="63.252666671" lon="8.64037778756">
		<tag k="name" v="Nordre Småvatnet" />
		<tag k="natural" v="water" />
		<tag k="ssr:stedsnr" v="171277" />
		<tag k="water" v="lake" />
	</node>
	<node id="-10672" lat="63.3603861144" lon="8.52746944307">
		<tag k="name" v="Mellandselva" />
		<tag k="ssr:stedsnr" v="133203" />
		<tag k="waterway" v="stream" />
	</node>
	<node id="-10994" lat="63.2083833333" lon="8.41445276809">
		<tag k="name" v="Kvennabekken" />
		<tag k="ssr:stedsnr" v="291119" />
		<tag k="waterway" v="stream" />
	</node>
	<node id="-12717" lat="63.2022138851" lon="8.61167500171">
		<tag k="name" v="Kalvtrøbekken" />
		<tag k="ssr:stedsnr" v="171170" />
		<tag k="waterway" v="stream" />
	</node>
	<node id="-12716" lat="63.3534333335" lon="8.5175638985">
		<tag k="name" v="Inner Osen" />
		<tag k="natural" v="bay" />
		<tag k="ssr:stedsnr" v="171135" />
	</node>
	<node id="-12715" lat="63.3536055526" lon="8.60138888927">
		<tag k="name" v="Gammelsetertjønna" />
		<tag k="natural" v="water" />
		<tag k="ssr:stedsnr" v="171130" />
	</node>
	<node id="-14407" lat="63.2496032985" lon="8.78847323438">
		<tag k="name" v="Sleipådalsvatna" />
		<tag k="natural" v="water" />
		<tag k="ssr:stedsnr" v="964979" />
		<tag k="water" v="lake" />
	</node>
	<node id="-12712" lat="63.2584277818" lon="8.26295555552">
		<tag k="name" v="Molddamman" />
		<tag k="natural" v="water" />
		<tag k="ssr:stedsnr" v="170958" />
	</node>
	<node id="-10651" lat="63.338827779" lon="8.85664999262">
		<tag k="name" v="Åsgårdelva" />
		<tag k="ssr:stedsnr" v="111512" />
		<tag k="waterway" v="stream" />
	</node>
	<node id="-10650" lat="63.3578027794" lon="8.73016387955">
		<tag k="name" v="Løvikvatnet" />
		<tag k="natural" v="water" />
		<tag k="ssr:stedsnr" v="111008" />
	</node>
	<node id="-10649" lat="63.3880138914" lon="8.56517778586">
		<tag k="name" v="Rønsvikbekken" />
		<tag k="ssr:stedsnr" v="110835" />
		<tag k="waterway" v="stream" />
	</node>
	<node id="-12695" lat="63.3556055523" lon="8.6590361054">
		<tag k="name" v="Katthammarbekken" />
		<tag k="ssr:stedsnr" v="171090" />
		<tag k="waterway" v="stream" />
	</node>
	<node id="-12684" lat="63.3302249958" lon="8.47023055826">
		<tag k="name" v="Lesundbekken" />
		<tag k="ssr:stedsnr" v="170331" />
		<tag k="waterway" v="stream" />
	</node>
	<node id="-12674" lat="63.1906583289" lon="8.1877472146">
		<tag k="name" v="Sauvikbekken" />
		<tag k="ssr:stedsnr" v="170170" />
		<tag k="waterway" v="stream" />
	</node>
	<node id="-12673" lat="63.2443055587" lon="8.46573054732">
		<tag k="name" v="Rotbekken" />
		<tag k="ssr:stedsnr" v="170166" />
		<tag k="waterway" v="stream" />
	</node>
	<node id="-10623" lat="63.2300694485" lon="8.75927777941">
		<tag k="name" v="Amerikavatnet" />
		<tag k="natural" v="water" />
		<tag k="ssr:stedsnr" v="255784" />
	</node>
	<node id="-10619" lat="63.2917666706" lon="8.7352333336">
		<tag k="fixme" v="multiple name tags, choose one and add the other to alt_name" />
		<tag k="name" v="Kvitsteintjønnene;Strumptjønnin" />
		<tag k="natural" v="water" />
		<tag k="ssr:stedsnr" v="255630" />
	</node>
	<node id="-12664" lat="63.1889388926" lon="8.23239165703">
		<tag k="name" v="Berghølen" />
		<tag k="place" v="locality" />
		<tag k="ssr:stedsnr" v="170081" />
	</node>
	<node id="-10603" lat="63.3602944434" lon="8.55461665847">
		<tag k="name" v="Kvitsikla" />
		<tag k="ssr:stedsnr" v="255244" />
		<tag k="waterway" v="stream" />
	</node>
	<node id="-10597" lat="63.1741694488" lon="8.49755833442">
		<tag k="name" v="Geistaddamman" />
		<tag k="natural" v="water" />
		<tag k="ssr:stedsnr" v="255100" />
	</node>
	<node id="-12644" lat="63.2115999999" lon="8.11796389373">
		<tag k="name" v="Tverrbekken" />
		<tag k="ssr:stedsnr" v="169629" />
		<tag k="waterway" v="stream" />
	</node>
	<node id="-11664" lat="63.2724277794" lon="8.45600277457">
		<tag k="name" v="Fossan" />
		<tag k="natural" v="waterfall" />
		<tag k="ssr:stedsnr" v="655329" />
	</node>
	<node id="-10589" lat="63.2174388858" lon="8.36888887912">
		<tag k="name" v="Kvernavatnet" />
		<tag k="natural" v="water" />
		<tag k="ssr:stedsnr" v="255031" />
	</node>
	<node id="-12629" lat="63.1896055578" lon="8.36865833256">
		<tag k="name" v="Lomlitjørnin" />
		<tag k="natural" v="water" />
		<tag k="ssr:stedsnr" v="141755" />
	</node>
	<node id="-12627" lat="63.2779277785" lon="8.76312499412">
		<tag k="name" v="Vihalsbekken" />
		<tag k="ssr:stedsnr" v="134943" />
		<tag k="waterway" v="stream" />
	</node>
	<node id="-10575" lat="63.1597333318" lon="8.0821305495">
		<tag k="name" v="Halsnestjørnin" />
		<tag k="natural" v="water" />
		<tag k="ssr:stedsnr" v="73313" />
	</node>
	<node id="-12617" lat="63.3490555556" lon="8.89791666832">
		<tag k="alt_name" v="Nøre Svartvasstjønna" />
		<tag k="name" v="Nørdre Svartvasstjønna" />
		<tag k="natural" v="water" />
		<tag k="ssr:stedsnr" v="133691" />
	</node>
	<node id="-12616" lat="63.2938702176" lon="8.77446067682">
		<tag k="name" v="Skardvatnet" />
		<tag k="natural" v="water" />
		<tag k="ssr:stedsnr" v="133588" />
		<tag k="water" v="lake" />
	</node>
	<node id="-10566" lat="63.3489500011" lon="8.65897500908">
		<tag k="name" v="Nedre Ulvsnesvatnet" />
		<tag k="natural" v="water" />
		<tag k="ssr:stedsnr" v="73146" />
	</node>
	<node id="-10562" lat="63.1982138851" lon="8.70561665758">
		<tag k="name" v="Dalabekken" />
		<tag k="ssr:stedsnr" v="73116" />
		<tag k="waterway" v="stream" />
	</node>
	<node id="-12607" lat="63.2547508011" lon="8.70693112665">
		<tag k="name" v="Klubbtjønna" />
		<tag k="natural" v="water" />
		<tag k="ssr:stedsnr" v="133274" />
	</node>
	<node id="-12602" lat="63.2850694441" lon="8.54746388894">
		<tag k="name" v="Vågselva" />
		<tag k="ssr:stedsnr" v="133340" />
		<tag k="waterway" v="stream" />
	</node>
	<node id="-12597" lat="63.1896222217" lon="8.36867778214">
		<tag k="name" v="Grasvatnet" />
		<tag k="natural" v="water" />
		<tag k="ssr:stedsnr" v="133095" />
	</node>
	<node id="-12596" lat="63.1964277736" lon="8.4653888805">
		<tag k="name" v="Seterelva" />
		<tag k="ssr:stedsnr" v="133090" />
		<tag k="waterway" v="stream" />
	</node>
	<node id="-12594" lat="63.1756888922" lon="8.23951666775">
		<tag k="name" v="Fjelnesdalsvatnet" />
		<tag k="natural" v="water" />
		<tag k="ssr:stedsnr" v="133076" />
	</node>
	<node id="-10542" lat="63.2910527772" lon="8.75642500653">
		<tag k="name" v="Svahyllbekken" />
		<tag k="ssr:stedsnr" v="233000" />
		<tag k="waterway" v="stream" />
	</node>
	<node id="-10971" lat="63.2053222209" lon="8.31314166519">
		<tag k="name" v="Hundhammarvatnet" />
		<tag k="natural" v="water" />
		<tag k="ssr:stedsnr" v="255125" />
	</node>
	<node id="-10528" lat="63.2758805552" lon="8.53686111654">
		<tag k="name" v="Leirdalsbekken" />
		<tag k="ssr:stedsnr" v="232763" />
		<tag k="waterway" v="stream" />
	</node>
	<node id="-12575" lat="63.3200444434" lon="8.81919166806">
		<tag k="name" v="Ordvassbekken" />
		<tag k="ssr:stedsnr" v="111660" />
		<tag k="waterway" v="stream" />
	</node>
	<node id="-12574" lat="63.2853472184" lon="8.55817499377">
		<tag k="name" v="Bergselva" />
		<tag k="ssr:stedsnr" v="111746" />
		<tag k="waterway" v="stream" />
	</node>
	<node id="-10525" lat="63.1993416662" lon="8.54022500838">
		<tag k="name" v="Tverrelva" />
		<tag k="ssr:stedsnr" v="232661" />
		<tag k="waterway" v="stream" />
	</node>
	<node id="-10522" lat="63.3398694404" lon="8.83721666158">
		<tag k="name" v="Skarbekken" />
		<tag k="ssr:stedsnr" v="232651" />
		<tag k="waterway" v="stream" />
	</node>
	<node id="-10520" lat="63.23834167" lon="8.73619722966">
		<tag k="name" v="Nøre Kvistdalsvatn" />
		<tag k="natural" v="water" />
		<tag k="ssr:stedsnr" v="232543" />
		<tag k="water" v="lake" />
	</node>
	<node id="-12565" lat="63.2472000005" lon="8.61505555293">
		<tag k="name" v="Åbekken" />
		<tag k="ssr:stedsnr" v="111334" />
		<tag k="waterway" v="stream" />
	</node>
	<node id="-10515" lat="63.2325472263" lon="8.7148972298">
		<tag k="name" v="Kvistdalselva" />
		<tag k="ssr:stedsnr" v="232385" />
		<tag k="waterway" v="stream" />
	</node>
	<node id="-12561" lat="63.2042972265" lon="8.68543611583">
		<tag k="name" v="Rabekken" />
		<tag k="ssr:stedsnr" v="111276" />
		<tag k="waterway" v="stream" />
	</node>
	<node id="-12559" lat="63.1968888852" lon="8.66907776794">
		<tag k="name" v="Hamnabekken" />
		<tag k="ssr:stedsnr" v="111268" />
		<tag k="waterway" v="stream" />
	</node>
	<node id="-12558" lat="63.3832444435" lon="8.5893277875">
		<tag k="name" v="Småvikelva" />
		<tag k="ssr:stedsnr" v="111093" />
		<tag k="waterway" v="river" />
	</node>
	<node id="-12548" lat="63.1842138929" lon="8.33429721817">
		<tag k="name" v="Kvernhusbekken" />
		<tag k="ssr:stedsnr" v="110952" />
		<tag k="waterway" v="stream" />
	</node>
	<node id="-10490" lat="63.1609055586" lon="8.38681111625">
		<tag k="name" v="Tappmildribekken" />
		<tag k="ssr:stedsnr" v="231848" />
		<tag k="waterway" v="stream" />
	</node>
	<node id="-12534" lat="63.3298222217" lon="8.42348333243">
		<tag k="name" v="Auktjønna" />
		<tag k="natural" v="water" />
		<tag k="ssr:stedsnr" v="110444" />
	</node>
	<node id="-12532" lat="63.1692638924" lon="8.45310278636">
		<tag k="name" v="Slåbekken" />
		<tag k="ssr:stedsnr" v="110348" />
		<tag k="waterway" v="stream" />
	</node>
	<node id="-10483" lat="63.1818638868" lon="8.52946667336">
		<tag k="name" v="Skorvheitjønna" />
		<tag k="ssr:stedsnr" v="231686" />
		<tag k="waterway" v="stream" />
	</node>
	<node id="-12522" lat="63.3880444455" lon="8.75606388885">
		<tag k="name" v="Seterneset" />
		<tag k="natural" v="cape" />
		<tag k="ssr:stedsnr" v="110253" />
	</node>
	<node id="-12519" lat="63.1839333301" lon="8.2258638895">
		<tag k="name" v="Stokkslettbekken" />
		<tag k="ssr:stedsnr" v="110078" />
		<tag k="waterway" v="stream" />
	</node>
	<node id="-10469" lat="63.2330916692" lon="8.46619722284">
		<tag k="name" v="Brattdalselva" />
		<tag k="ssr:stedsnr" v="231177" />
		<tag k="waterway" v="stream" />
	</node>
	<node id="-10468" lat="63.2538333365" lon="8.4672472152">
		<tag k="name" v="Sagelva" />
		<tag k="ssr:stedsnr" v="231175" />
		<tag k="waterway" v="stream" />
	</node>
	<node id="-12511" lat="63.2556361151" lon="8.29740833241">
		<tag k="name" v="Høviktjønna" />
		<tag k="natural" v="water" />
		<tag k="ssr:stedsnr" v="109841" />
	</node>
	<node id="-12507" lat="63.2404666711" lon="8.33606110518">
		<tag k="name" v="Karihavet" />
		<tag k="natural" v="water" />
		<tag k="ssr:stedsnr" v="109726" />
		<tag k="water" v="lake" />
	</node>
	<node id="-12506" lat="63.2366972189" lon="8.33180832949">
		<tag k="name" v="Holbekkneset" />
		<tag k="natural" v="cape" />
		<tag k="ssr:stedsnr" v="109723" />
	</node>
	<node id="-10455" lat="63.3463694424" lon="8.57868888242">
		<tag k="name" v="Seterbekken" />
		<tag k="ssr:stedsnr" v="231027" />
		<tag k="waterway" v="stream" />
	</node>
	<node id="-12502" lat="63.2200611126" lon="8.27067778482">
		<tag k="name" v="Ekkerbekken" />
		<tag k="ssr:stedsnr" v="109477" />
		<tag k="waterway" v="stream" />
	</node>
	<node id="-10446" lat="63.2375055511" lon="8.2729333334">
		<tag k="name" v="Brandvikbekken" />
		<tag k="ssr:stedsnr" v="230596" />
		<tag k="waterway" v="stream" />
	</node>
	<node id="-11873" lat="63.2048694469" lon="8.46205277497">
		<tag k="name" v="Innergardsvatnet" />
		<tag k="natural" v="water" />
		<tag k="ssr:stedsnr" v="740120" />
	</node>
	<node id="-10442" lat="63.2128694425" lon="8.37270833698">
		<tag k="name" v="Tjønna" />
		<tag k="natural" v="water" />
		<tag k="ssr:stedsnr" v="230395" />
	</node>
	<node id="-12487" lat="63.2095972222" lon="8.3872805486">
		<tag k="name" v="Ytter Sagelva" />
		<tag k="ssr:stedsnr" v="109394" />
		<tag k="waterway" v="river" />
	</node>
	<node id="-12486" lat="63.2111138847" lon="8.34177777281">
		<tag k="name" v="Bytbekken" />
		<tag k="ssr:stedsnr" v="109388" />
		<tag k="waterway" v="stream" />
	</node>
	<node id="-10433" lat="63.1922750023" lon="8.24790832423">
		<tag k="name" v="Brøntjønna" />
		<tag k="natural" v="water" />
		<tag k="ssr:stedsnr" v="230196" />
	</node>
	<node id="-10426" lat="63.1649388846" lon="8.30666667287">
		<tag k="name" v="Storvikbekken" />
		<tag k="ssr:stedsnr" v="230143" />
		<tag k="waterway" v="stream" />
	</node>
	<node id="-10413" lat="63.181030552" lon="8.24307221719">
		<tag k="name" v="Tverrelva" />
		<tag k="ssr:stedsnr" v="20801" />
		<tag k="waterway" v="river" />
	</node>
	<node id="-10411" lat="63.3967638865" lon="8.78696667641">
		<tag k="name" v="Rennsjøen" />
		<tag k="natural" v="water" />
		<tag k="ssr:stedsnr" v="12636" />
		<tag k="water" v="lake" />
	</node>
	<node id="-10409" lat="63.3089361149" lon="8.71733610986">
		<tag k="name" v="Kammavatnet" />
		<tag k="natural" v="water" />
		<tag k="ssr:stedsnr" v="12335" />
	</node>
	<node id="-10405" lat="63.2557277787" lon="8.60448610461">
		<tag k="name" v="Løkjo" />
		<tag k="ssr:stedsnr" v="12313" />
		<tag k="waterway" v="stream" />
	</node>
	<node id="-10401" lat="63.2536444434" lon="8.37171943492">
		<tag k="name" v="Vollavatnet" />
		<tag k="natural" v="water" />
		<tag k="ssr:stedsnr" v="12304" />
	</node>
	<node id="-11462" lat="63.2145638897" lon="8.05211388236">
		<tag k="name" v="Kvennhustjønna" />
		<tag k="natural" v="water" />
		<tag k="ssr:stedsnr" v="534628" />
	</node>
	<node id="-12436" lat="63.3031138913" lon="8.68625000483">
		<tag k="name" v="Øyraelva" />
		<tag k="ssr:stedsnr" v="73363" />
		<tag k="waterway" v="stream" />
	</node>
	<node id="-11871" lat="63.4035249982" lon="8.67587500277">
		<tag k="name" v="Vilhelmstjønna" />
		<tag k="natural" v="water" />
		<tag k="ssr:stedsnr" v="734736" />
	</node>
	<node id="-14467" lat="63.3302798838" lon="8.76705211131">
		<tag k="name" v="Gammelseterfossen" />
		<tag k="natural" v="waterfall" />
		<tag k="ssr:stedsnr" v="1075739" />
	</node>
	<node id="-14466" lat="63.3269666467" lon="8.77006908941">
		<tag k="loc_name" v="Varskardbekken" />
		<tag k="name" v="Varskarbekken" />
		<tag k="ssr:stedsnr" v="1075738" />
		<tag k="waterway" v="stream" />
	</node>
	<node id="-12416" lat="63.3497083315" lon="8.61846388864">
		<tag k="name" v="Krokvatnet" />
		<tag k="natural" v="water" />
		<tag k="ssr:stedsnr" v="73148" />
	</node>
	<node id="-14459" lat="63.3192272731" lon="8.7779716388">
		<tag k="name" v="Langlibekken" />
		<tag k="ssr:stedsnr" v="1075731" />
		<tag k="waterway" v="stream" />
	</node>
	<node id="-14458" lat="63.315234791" lon="8.76380714895">
		<tag k="name" v="Rapbekken" />
		<tag k="ssr:stedsnr" v="1075730" />
		<tag k="waterway" v="stream" />
	</node>
	<node id="-12409" lat="63.2090416684" lon="8.33063332378">
		<tag k="name" v="Vollvatnet" />
		<tag k="natural" v="water" />
		<tag k="ssr:stedsnr" v="73011" />
	</node>
	<node id="-12406" lat="63.2791361086" lon="8.7933750032">
		<tag k="name" v="Holmvassbekken" />
		<tag k="ssr:stedsnr" v="51684" />
		<tag k="waterway" v="stream" />
	</node>
	<node id="-11625" lat="63.3432666642" lon="8.8413055577">
		<tag k="name" v="Asmalbekken" />
		<tag k="ssr:stedsnr" v="718838" />
		<tag k="waterway" v="stream" />
	</node>
	<node id="-14446" lat="63.3174500924" lon="8.78976588266">
		<tag k="name" v="Fossøyfossen" />
		<tag k="natural" v="waterfall" />
		<tag k="ssr:stedsnr" v="1074804" />
	</node>
	<node id="-12393" lat="63.3391444419" lon="8.80114721411">
		<tag k="name" v="Hestholbekken" />
		<tag k="ssr:stedsnr" v="50641" />
		<tag k="waterway" v="stream" />
	</node>
	<node id="-12392" lat="63.3318611088" lon="8.79676945284">
		<tag k="name" v="Høgslåbekken" />
		<tag k="ssr:stedsnr" v="50638" />
		<tag k="waterway" v="stream" />
	</node>
	<node id="-12390" lat="63.3208250038" lon="8.8097027687">
		<tag k="name" v="Inner Ørtjønna" />
		<tag k="natural" v="water" />
		<tag k="ssr:stedsnr" v="50536" />
	</node>
	<node id="-12386" lat="63.2558138877" lon="8.6661388961">
		<tag k="name" v="Tjønna" />
		<tag k="natural" v="water" />
		<tag k="ssr:stedsnr" v="50687" />
	</node>
	<node id="-12378" lat="63.3087111073" lon="8.56960277838">
		<tag k="name" v="Hålbekken" />
		<tag k="ssr:stedsnr" v="50273" />
		<tag k="waterway" v="stream" />
	</node>
	<node id="-12375" lat="63.2083222249" lon="8.62440556113">
		<tag k="name" v="Inner elva" />
		<tag k="ssr:stedsnr" v="50192" />
		<tag k="waterway" v="stream" />
	</node>
	<node id="-12372" lat="63.3558166685" lon="8.59960555435">
		<tag k="name" v="Langlitjønna" />
		<tag k="natural" v="water" />
		<tag k="ssr:stedsnr" v="50144" />
	</node>
	<node id="-11618" lat="63.3013277801" lon="8.621236119">
		<tag k="name" v="Seterbekken" />
		<tag k="ssr:stedsnr" v="718399" />
		<tag k="waterway" v="stream" />
	</node>
	<node id="-12359" lat="63.3431166654" lon="8.53682221556">
		<tag k="name" v="Vorptjønna" />
		<tag k="natural" v="water" />
		<tag k="ssr:stedsnr" v="50074" />
	</node>
	<node id="-14406" lat="63.3438638924" lon="8.81006110933">
		<tag k="name" v="Bakkhaugen" />
		<tag k="ssr:stedsnr" v="961875" />
		<tag k="waterway" v="stream" />
	</node>
	<node id="-14405" lat="63.2677916682" lon="8.7759666753">
		<tag k="name" v="Vaulane" />
		<tag k="ssr:stedsnr" v="961733" />
		<tag k="waterway" v="stream" />
	</node>
	<node id="-14404" lat="63.2721666693" lon="8.79046944155">
		<tag k="name" v="Slettdalselva" />
		<tag k="ssr:stedsnr" v="961732" />
		<tag k="waterway" v="river" />
	</node>
	<node id="-14401" lat="63.2885666641" lon="8.71270277116">
		<tag k="name" v="Kvitsteinbekken" />
		<tag k="ssr:stedsnr" v="960942" />
		<tag k="waterway" v="stream" />
	</node>
	<node id="-14400" lat="63.3658944427" lon="8.70749722227">
		<tag k="name" v="Engvikbekken" />
		<tag k="ssr:stedsnr" v="960922" />
		<tag k="waterway" v="stream" />
	</node>
	<node id="-12350" lat="63.179252782" lon="7.98701667052">
		<tag k="name" v="Kvitsteinsbekken" />
		<tag k="ssr:stedsnr" v="49815" />
		<tag k="waterway" v="stream" />
	</node>
	<node id="-12348" lat="63.2216999956" lon="8.58776666512">
		<tag k="name" v="Vollabekken" />
		<tag k="ssr:stedsnr" v="49738" />
		<tag k="waterway" v="stream" />
	</node>
	<node id="-12342" lat="63.1827805538" lon="8.52839167589">
		<tag k="name" v="Lindåselva" />
		<tag k="ssr:stedsnr" v="49667" />
		<tag k="waterway" v="stream" />
	</node>
	<node id="-12339" lat="63.3284444412" lon="8.59427222311">
		<tag k="name" v="Mettervikbakken" />
		<tag k="ssr:stedsnr" v="49486" />
		<tag k="waterway" v="stream" />
	</node>
	<node id="-12335" lat="63.2586222215" lon="8.42921110317">
		<tag k="name" v="Sør Haltbakktjønna" />
		<tag k="natural" v="water" />
		<tag k="ssr:stedsnr" v="49441" />
	</node>
	<node id="-11254" lat="63.1562666638" lon="8.05965278296">
		<tag k="name" v="Jørenvågvatnet" />
		<tag k="natural" v="water" />
		<tag k="ssr:stedsnr" v="498374" />
		<tag k="water" v="lake" />
	</node>
	<node id="-14381" lat="63.1889472194" lon="8.45273056143">
		<tag k="name" v="Durmålstjønna" />
		<tag k="natural" v="water" />
		<tag k="ssr:stedsnr" v="960332" />
	</node>
	<node id="-12327" lat="63.1727749985" lon="8.40596667465">
		<tag k="name" v="Tjønnen" />
		<tag k="natural" v="water" />
		<tag k="ssr:stedsnr" v="49225" />
	</node>
	<node id="-14342" lat="63.168911111" lon="8.4598333277">
		<tag k="name" v="Gjerdeelva" />
		<tag k="ssr:stedsnr" v="959305" />
		<tag k="waterway" v="stream" />
	</node>
	<node id="-14369" lat="63.1867083374" lon="8.36783888388">
		<tag k="name" v="Bulibekken" />
		<tag k="ssr:stedsnr" v="959992" />
		<tag k="waterway" v="stream" />
	</node>
	<node id="-12305" lat="63.1959083311" lon="8.26868889519">
		<tag k="name" v="Hållåelva" />
		<tag k="ssr:stedsnr" v="48842" />
		<tag k="waterway" v="stream" />
	</node>
	<node id="-12303" lat="63.2533833337" lon="8.35853056169">
		<tag k="name" v="Tjærehjellbekken" />
		<tag k="ssr:stedsnr" v="48782" />
		<tag k="waterway" v="stream" />
	</node>
	<node id="-14343" lat="63.3368388861" lon="8.46513889395">
		<tag k="name" v="Åkvikbekken" />
		<tag k="ssr:stedsnr" v="959327" />
		<tag k="waterway" v="stream" />
	</node>
	<node id="-12294" lat="63.2139027749" lon="8.18732499044">
		<tag k="name" v="Grønbekken" />
		<tag k="ssr:stedsnr" v="48645" />
		<tag k="waterway" v="stream" />
	</node>
</osm>
