<?xml version="1.0" encoding="UTF-8"?>
<osm version="0.6" generator="osmapis">
	<node lat="63.16890833267361" lon="8.445680562174882" id="-10839">
		<tag k="highway" v="path" />
		<tag k="name" v="Kalvtrøa" />
		<tag k="ssr:stedsnr" v="231855" />
	</node>
	<node lat="63.24538333437562" lon="8.363416658060402" id="-11115">
		<tag k="highway" v="path" />
		<tag k="name" v="Fjellstigen" />
		<tag k="ssr:stedsnr" v="169820" />
	</node>
	<node lat="63.228788892798114" lon="8.231558328980155" id="-11169">
		<tag k="amenity" v="ferry_terminal" />
		<tag k="name" v="Aukan ferjekai" />
		<tag k="ssr:stedsnr" v="216304" />
	</node>
	<node lat="63.1985333346032" lon="8.102511116201548" id="-11561">
		<tag k="ford" v="yes" />
		<tag k="name" v="Leirvadet" />
		<tag k="place" v="locality" />
		<tag k="ssr:stedsnr" v="412587" />
	</node>
	<node lat="63.22055832955469" lon="8.377177774546018" id="-11568">
		<tag k="highway" v="path" />
		<tag k="name" v="Øykstien" />
		<tag k="ssr:stedsnr" v="412458" />
	</node>
	<node lat="63.199736113150585" lon="8.700033325408116" id="-11603">
		<tag k="highway" v="path" />
		<tag k="name" v="Hauststigan" />
		<tag k="ssr:stedsnr" v="414298" />
	</node>
	<node lat="63.383263891581144" lon="8.569480548174548" id="-11681">
		<tag k="highway" v="path" />
		<tag k="name" v="Skipnesstien" />
		<tag k="ssr:stedsnr" v="473706" />
	</node>
	<node lat="63.400052774633586" lon="8.771705551313485" id="-12159">
		<tag k="ford" v="yes" />
		<tag k="name" v="Setervaet" />
		<tag k="place" v="locality" />
		<tag k="ssr:stedsnr" v="718764" />
	</node>
	<node lat="63.165350003591826" lon="8.435549993532089" id="-12228">
		<tag k="amenity" v="ferry_terminal" />
		<tag k="name" v="Arasvika ferjekai" />
		<tag k="ssr:stedsnr" v="762319" />
	</node>
	<node lat="63.198966663383835" lon="8.717241657236128" id="-12273">
		<tag k="highway" v="path" />
		<tag k="name" v="Brurastien" />
		<tag k="ssr:stedsnr" v="778419" />
	</node>
	<node lat="63.21195832921544" lon="8.591349990776774" id="-12404">
		<tag k="fixme" v="verify maritime location" />
		<tag k="mooring" v="yes" />
		<tag k="name" v="Gjengstøa" />
		<tag k="place" v="locality" />
		<tag k="ssr:stedsnr" v="839176" />
	</node>
	<node lat="63.26105833395259" lon="8.387058340548633" id="-12991">
		<tag k="fixme" v="verify maritime location" />
		<tag k="mooring" v="yes" />
		<tag k="name" v="Gjengstøa" />
		<tag k="place" v="locality" />
		<tag k="ssr:stedsnr" v="110388" />
	</node>
	<node lat="63.17676388957662" lon="8.427586117578949" id="-13093">
		<tag k="highway" v="path" />
		<tag k="name" v="Gammeltrøa" />
		<tag k="ssr:stedsnr" v="169661" />
	</node>
	<node lat="63.41711110705344" lon="8.682377784098458" id="-13236">
		<tag k="name" v="Trondheimsleia" />
		<tag k="place" v="locality" />
		<tag k="ssr:stedsnr" v="195235" />
	</node>
	<node lat="63.153011115491296" lon="7.954569443415554" id="-13247">
		<tag k="amenity" v="ferry_terminal" />
		<tag k="name" v="Tømmervåg ferjekai" />
		<tag k="ssr:stedsnr" v="277293" />
	</node>
	<node lat="63.242252777565405" lon="8.610116675982429" id="-13348">
		<tag k="ford" v="yes" />
		<tag k="name" v="Tortlivaet" />
		<tag k="place" v="locality" />
		<tag k="ssr:stedsnr" v="293394" />
	</node>
	<node lat="63.227719448130394" lon="8.80614166894378" id="-13360">
		<tag k="ford" v="yes" />
		<tag k="name" v="Dalamannsbrua" />
		<tag k="place" v="locality" />
		<tag k="ssr:stedsnr" v="293650" />
	</node>
	<node lat="63.26998837392697" lon="8.536694762788407" id="-13363">
		<tag k="fixme" v="consider highway=path" />
		<tag k="highway" v="track" />
		<tag k="name" v="Gammelvegen" />
		<tag k="ssr:stedsnr" v="293814" />
	</node>
	<node lat="63.26926110847625" lon="8.4552388881373" id="-13488">
		<tag k="highway" v="path" />
		<tag k="name" v="Moldstien" />
		<tag k="ssr:stedsnr" v="352327" />
	</node>
	<node lat="63.23817222110325" lon="8.58976666343562" id="-13531">
		<tag k="highway" v="path" />
		<tag k="name" v="Brekkvegen" />
		<tag k="ssr:stedsnr" v="353350" />
	</node>
	<node lat="63.24162777819622" lon="8.60490276851459" id="-13886">
		<tag k="ford" v="yes" />
		<tag k="name" v="Geitabrua" />
		<tag k="place" v="locality" />
		<tag k="ssr:stedsnr" v="535345" />
	</node>
	<node lat="63.244644445270595" lon="8.281563897001947" id="-13958">
		<tag k="amenity" v="ferry_terminal" />
		<tag k="name" v="Vinsternes ferjekai" />
		<tag k="ssr:stedsnr" v="580265" />
	</node>
	<node lat="63.39323055538477" lon="8.749108327086045" id="-14019">
		<tag k="landuse" v="industrial" />
		<tag k="name" v="Ledalssaga" />
		<tag k="power" v="plant" />
		<tag k="ssr:stedsnr" v="595243" />
	</node>
	<node lat="63.2624749987172" lon="8.276400000240868" id="-14051">
		<tag k="highway" v="path" />
		<tag k="name" v="Geitstien" />
		<tag k="ssr:stedsnr" v="595944" />
	</node>
	<node lat="63.37168333046024" lon="8.548027771354496" id="-14286">
		<tag k="highway" v="path" />
		<tag k="name" v="Finnsetstien" />
		<tag k="ssr:stedsnr" v="716736" />
	</node>
	<node lat="63.19896388868862" lon="7.974663894220821" id="-14436">
		<tag k="man_made" v="quay" />
		<tag k="name" v="Vestneskaia" />
		<tag k="place" v="locality" />
		<tag k="ssr:stedsnr" v="777098" />
	</node>
	<node lat="63.28369722114377" lon="8.81436389186592" id="-14519">
		<tag k="highway" v="path" />
		<tag k="name" v="Trongstien" />
		<tag k="ssr:stedsnr" v="779648" />
	</node>
	<node lat="63.23963333073221" lon="8.116508337081408" id="-14786">
		<tag k="name" v="Vergjemannsleia" />
		<tag k="place" v="locality" />
		<tag k="ssr:stedsnr" v="958881" />
	</node>
	<node lat="63.21911666871469" lon="8.49990278185799" id="-14788">
		<tag k="highway" v="path" />
		<tag k="name" v="Nyseterstigan" />
		<tag k="ssr:stedsnr" v="959098" />
	</node>
	<node lat="63.412900193073575" lon="8.723960677494984" id="-14862">
		<tag k="man_made" v="quay" />
		<tag k="name" v="Kjørsvikbugen hurtigbåtkai" />
		<tag k="place" v="locality" />
		<tag k="ssr:stedsnr" v="981024" />
	</node>
</osm>
