<?xml version="1.0" encoding="UTF-8"?>
<osm version="0.6" generator="osmapis">
	<node lat="63.24733055662265" lon="8.274269441656907" id="-5042">
		<tag k="name" v="Grinbukta" />
		<tag k="place" v="isolated_dwelling" />
		<tag k="ssr:stedsnr" v="230598" />
	</node>
	<node lat="63.16812777737003" lon="8.3220055609187" id="-5047">
		<tag k="name" v="Indre Aukan" />
		<tag k="place" v="hamlet" />
		<tag k="ssr:stedsnr" v="230161" />
	</node>
	<node lat="63.200069442019604" lon="8.434216656945727" id="-5048">
		<tag k="historic" v="shieling" />
		<tag k="name" v="Stølen" />
		<tag k="place" v="isolated_dwelling" />
		<tag k="ssr:stedsnr" v="230162" />
	</node>
	<node lat="63.238694444721375" lon="8.202352783123407" id="-5066">
		<tag k="name" v="Valen" />
		<tag k="place" v="isolated_dwelling" />
		<tag k="ssr:stedsnr" v="230561" />
	</node>
	<node lat="63.25509166855789" lon="8.339497230765211" id="-5071">
		<tag k="name" v="Moen" />
		<tag k="place" v="isolated_dwelling" />
		<tag k="ssr:stedsnr" v="230725" />
	</node>
	<node lat="63.197336109435454" lon="8.309394449905291" id="-5082">
		<tag k="name" v="Kvernstad" />
		<tag k="place" v="isolated_dwelling" />
		<tag k="ssr:stedsnr" v="231068" />
	</node>
	<node lat="63.22797020739116" lon="8.579961035702539" id="-5101">
		<tag k="fixme" v="consider place=hamlet" />
		<tag k="name" v="Bjøring" />
		<tag k="place" v="farm" />
		<tag k="ssr:stedsnr" v="231754" />
	</node>
	<node lat="63.20328610805018" lon="8.612144436595262" id="-5102">
		<tag k="name" v="Storgarden" />
		<tag k="place" v="farm" />
		<tag k="ssr:stedsnr" v="231756" />
	</node>
	<node lat="63.22601111272964" lon="8.210908341532985" id="-5104">
		<tag k="name" v="Øvre Nordvoll" />
		<tag k="place" v="isolated_dwelling" />
		<tag k="ssr:stedsnr" v="231767" />
	</node>
	<node lat="63.16909789795367" lon="8.318324256227552" id="-5112">
		<tag k="fixme" v="consider place=hamlet" />
		<tag k="name" v="Karlsvika" />
		<tag k="place" v="farm" />
		<tag k="ssr:stedsnr" v="12101" />
	</node>
	<node lat="63.32806666316321" lon="8.65964166557023" id="-5116">
		<tag k="name" v="Trøa" />
		<tag k="place" v="farm" />
		<tag k="ssr:stedsnr" v="12169" />
	</node>
	<node lat="63.33046975195977" lon="8.670058462504407" id="-5117">
		<tag k="fixme" v="consider place=hamlet" />
		<tag k="name" v="Romundset" />
		<tag k="place" v="farm" />
		<tag k="ssr:stedsnr" v="12173" />
	</node>
	<node lat="63.328213892023456" lon="8.428019441698742" id="-5118">
		<tag k="alt_name" v="Eidan" />
		<tag k="name" v="Einan" />
		<tag k="place" v="farm" />
		<tag k="ssr:stedsnr" v="12177" />
	</node>
	<node lat="63.32484166629354" lon="8.406783338128614" id="-5120">
		<tag k="name" v="Postvollen" />
		<tag k="place" v="farm" />
		<tag k="ssr:stedsnr" v="12188" />
	</node>
	<node lat="63.30440000101686" lon="8.339933331657186" id="-5129">
		<tag k="name" v="Bærøya" />
		<tag k="place" v="isolated_dwelling" />
		<tag k="ssr:stedsnr" v="231973" />
	</node>
	<node lat="63.27805277606641" lon="8.611455565062327" id="-5133">
		<tag k="name" v="Løfall" />
		<tag k="place" v="farm" />
		<tag k="ssr:stedsnr" v="12268" />
	</node>
	<node lat="63.27511111118558" lon="8.643205560608404" id="-5135">
		<tag k="historic" v="shieling" />
		<tag k="name" v="Ormsetsetra" />
		<tag k="place" v="isolated_dwelling" />
		<tag k="ssr:stedsnr" v="12278" />
	</node>
	<node lat="63.19611110919544" lon="8.16181945154634" id="-5141">
		<tag k="name" v="Nyheim" />
		<tag k="place" v="farm" />
		<tag k="ssr:stedsnr" v="12426" />
	</node>
	<node lat="63.2051735634266" lon="8.154296552201307" id="-5142">
		<tag k="name" v="Åsheim" />
		<tag k="place" v="farm" />
		<tag k="ssr:stedsnr" v="12430" />
	</node>
	<node lat="63.410973658649816" lon="8.72464535178701" id="-5143">
		<tag k="name" v="Vollen" />
		<tag k="place" v="farm" />
		<tag k="ssr:stedsnr" v="12669" />
	</node>
	<node lat="63.222402776394716" lon="8.787672229643706" id="-5145">
		<tag k="historic" v="shieling" />
		<tag k="name" v="Todalssetra" />
		<tag k="place" v="isolated_dwelling" />
		<tag k="ssr:stedsnr" v="12773" />
	</node>
	<node lat="63.36217500355973" lon="8.658099994046294" id="-5146">
		<tag k="historic" v="shieling" />
		<tag k="name" v="Rognsetra" />
		<tag k="place" v="isolated_dwelling" />
		<tag k="ssr:stedsnr" v="232118" />
	</node>
	<node lat="63.23330277788141" lon="8.20168333112291" id="-5183">
		<tag k="name" v="Storbogen" />
		<tag k="place" v="farm" />
		<tag k="ssr:stedsnr" v="47080" />
	</node>
	<node lat="63.16684444072191" lon="8.50581667564108" id="-5189">
		<tag k="historic" v="shieling" />
		<tag k="name" v="Gjestadsetra" />
		<tag k="place" v="isolated_dwelling" />
		<tag k="ssr:stedsnr" v="48402" />
	</node>
	<node lat="63.16083055839018" lon="8.499238888314965" id="-5198">
		<tag k="name" v="Rabben" />
		<tag k="place" v="isolated_dwelling" />
		<tag k="ssr:stedsnr" v="48722" />
	</node>
	<node lat="63.35360278007799" lon="8.690700007680617" id="-5208">
		<tag k="name" v="Solberg" />
		<tag k="place" v="farm" />
		<tag k="ssr:stedsnr" v="50104" />
	</node>
	<node lat="63.19322778169467" lon="8.642924997019309" id="-5224">
		<tag k="historic" v="shieling" />
		<tag k="name" v="Hamnasetra" />
		<tag k="place" v="isolated_dwelling" />
		<tag k="ssr:stedsnr" v="50270" />
	</node>
	<node lat="63.315699995968394" lon="8.677555563661501" id="-5231">
		<tag k="name" v="Lauvheim" />
		<tag k="place" v="farm" />
		<tag k="ssr:stedsnr" v="50969" />
	</node>
	<node lat="63.19907500356046" lon="8.25242221456081" id="-5237">
		<tag k="name" v="Myra" />
		<tag k="place" v="farm" />
		<tag k="ssr:stedsnr" v="73012" />
	</node>
	<node lat="63.22290529246116" lon="8.532352942929267" id="-5238">
		<tag k="fixme" v="consider place=hamlet" />
		<tag k="name" v="Espvika" />
		<tag k="place" v="farm" />
		<tag k="ssr:stedsnr" v="73021" />
	</node>
	<node lat="63.16244722333552" lon="8.421980547335949" id="-5239">
		<tag k="name" v="Arasvika" />
		<tag k="place" v="farm" />
		<tag k="ssr:stedsnr" v="73107" />
	</node>
	<node lat="63.354525001202816" lon="8.678994440169179" id="-5242">
		<tag k="fixme" v="multiple name tags, choose one and add the other to alt_name" />
		<tag k="name" v="Nygard;Nygård" />
		<tag k="place" v="farm" />
		<tag k="ssr:stedsnr" v="73217" />
	</node>
	<node lat="63.22800833654997" lon="8.131724995216956" id="-5243">
		<tag k="alt_name" v="Follå;Foldåa" />
		<tag k="name" v="Follåa" />
		<tag k="place" v="farm" />
		<tag k="ssr:stedsnr" v="73401" />
	</node>
	<node lat="63.167698805640136" lon="8.169575072562072" id="-5246">
		<tag k="fixme" v="consider place=hamlet" />
		<tag k="name" v="Innersetra" />
		<tag k="place" v="farm" />
		<tag k="ssr:stedsnr" v="73302" />
	</node>
	<node lat="63.20891111238363" lon="8.20442222943575" id="-5250">
		<tag k="fixme" v="multiple name tags, choose one and add the other to alt_name" />
		<tag k="name" v="Ådalen;Ådal" />
		<tag k="place" v="farm" />
		<tag k="ssr:stedsnr" v="73513" />
	</node>
	<node lat="63.215581275986764" lon="8.142527439517108" id="-5253">
		<tag k="fixme" v="consider place=hamlet" />
		<tag k="name" v="Knarvika" />
		<tag k="place" v="farm" />
		<tag k="ssr:stedsnr" v="73503" />
	</node>
	<node lat="63.41315925057104" lon="8.744643179283383" id="-5255">
		<tag k="fixme" v="consider place=hamlet" />
		<tag k="name" v="Kjørsvik" />
		<tag k="place" v="farm" />
		<tag k="ssr:stedsnr" v="73672" />
	</node>
	<node lat="63.343043025927784" lon="8.85333204294668" id="-5256">
		<tag k="fixme" v="consider place=hamlet" />
		<tag k="name" v="Åsgard" />
		<tag k="place" v="farm" />
		<tag k="ssr:stedsnr" v="73717" />
	</node>
	<node lat="63.40056944021999" lon="8.709586106098008" id="-5259">
		<tag k="name" v="Veiset" />
		<tag k="place" v="farm" />
		<tag k="ssr:stedsnr" v="74205" />
	</node>
	<node lat="63.27456388623504" lon="8.82332222224476" id="-5260">
		<tag k="fixme" v="consider tourism=alpine_hut or tourism=chalet" />
		<tag k="name" v="Storfiskhytta" />
		<tag k="ssr:stedsnr" v="98184" />
		<tag k="tourism" v="wilderness_hut" />
	</node>
	<node lat="63.38755000138678" lon="8.678555552377857" id="-5261">
		<tag k="name" v="Vesterheim" />
		<tag k="place" v="farm" />
		<tag k="ssr:stedsnr" v="248746" />
	</node>
	<node lat="63.20679444293457" lon="8.155236119934042" id="-5266">
		<tag k="amenity" v="nursing_home" />
		<tag k="name" v="Kvila" />
		<tag k="ssr:stedsnr" v="109270" />
	</node>
	<node lat="63.180291662812046" lon="7.955688888971337" id="-5280">
		<tag k="name" v="Sommerro" />
		<tag k="place" v="isolated_dwelling" />
		<tag k="ssr:stedsnr" v="109789" />
	</node>
	<node lat="63.32342500417837" lon="8.577116659267272" id="-5294">
		<tag k="alt_name" v="Indreviken" />
		<tag k="name" v="Innervika" />
		<tag k="place" v="farm" />
		<tag k="ssr:stedsnr" v="110476" />
	</node>
	<node lat="63.21224166895017" lon="8.743525003301968" id="-5306">
		<tag k="historic" v="shieling" />
		<tag k="name" v="Litlsetra" />
		<tag k="place" v="isolated_dwelling" />
		<tag k="ssr:stedsnr" v="111419" />
	</node>
	<node lat="63.229083330491534" lon="8.52321388675943" id="-5313">
		<tag k="name" v="Kalvik" />
		<tag k="place" v="farm" />
		<tag k="ssr:stedsnr" v="111681" />
	</node>
	<node lat="63.31684166531402" lon="8.713499994681891" id="-5315">
		<tag k="name" v="Fredheim" />
		<tag k="place" v="isolated_dwelling" />
		<tag k="ssr:stedsnr" v="111921" />
	</node>
	<node lat="63.20022975600574" lon="8.563716714963508" id="-5318">
		<tag k="fixme" v="consider place=hamlet" />
		<tag k="name" v="Lindåsen" />
		<tag k="place" v="farm" />
		<tag k="ssr:stedsnr" v="133110" />
	</node>
	<node lat="63.207469743528065" lon="8.548432788740662" id="-5322">
		<tag k="fixme" v="consider place=hamlet" />
		<tag k="name" v="Storvika" />
		<tag k="place" v="farm" />
		<tag k="ssr:stedsnr" v="133010" />
	</node>
	<node lat="63.17671209875073" lon="8.314522766839113" id="-5325">
		<tag k="fixme" v="consider place=hamlet" />
		<tag k="name" v="Blomtua" />
		<tag k="place" v="farm" />
		<tag k="ssr:stedsnr" v="133078" />
	</node>
	<node lat="63.32836388492281" lon="8.644902787739554" id="-5328">
		<tag k="fixme" v="multiple name tags, choose one and add the other to alt_name" />
		<tag k="name" v="Setra;Stranden" />
		<tag k="place" v="farm" />
		<tag k="ssr:stedsnr" v="133161" />
	</node>
	<node lat="63.30083910177473" lon="8.537521781534807" id="-5330">
		<tag k="fixme" v="consider place=hamlet" />
		<tag k="name" v="Eidet" />
		<tag k="place" v="farm" />
		<tag k="ssr:stedsnr" v="133317" />
	</node>
	<node lat="63.288736107379364" lon="8.50864166343858" id="-5331">
		<tag k="name" v="Vollsjøen" />
		<tag k="place" v="farm" />
		<tag k="ssr:stedsnr" v="133322" />
	</node>
	<node lat="63.35551929502665" lon="8.522760985364622" id="-5342">
		<tag k="fixme" v="consider place=hamlet" />
		<tag k="name" v="Melland" />
		<tag k="place" v="farm" />
		<tag k="ssr:stedsnr" v="255222" />
	</node>
	<node lat="63.23605277377684" lon="8.264563883590563" id="-5348">
		<tag k="name" v="Storvika" />
		<tag k="place" v="farm" />
		<tag k="ssr:stedsnr" v="255057" />
	</node>
	<node lat="63.244707460658205" lon="8.506349944110836" id="-5349">
		<tag k="fixme" v="consider place=hamlet" />
		<tag k="name" v="Rottøya" />
		<tag k="place" v="farm" />
		<tag k="ssr:stedsnr" v="255058" />
	</node>
	<node lat="63.1788277772031" lon="8.447100000010842" id="-5351">
		<tag k="historic" v="shieling" />
		<tag k="name" v="Vågossetra" />
		<tag k="place" v="isolated_dwelling" />
		<tag k="ssr:stedsnr" v="255098" />
	</node>
	<node lat="63.27638333527379" lon="8.60209166195413" id="-5353">
		<tag k="name" v="Midtlyng" />
		<tag k="place" v="farm" />
		<tag k="ssr:stedsnr" v="255285" />
	</node>
	<node lat="63.15446908964035" lon="7.942383115515369" id="-5356">
		<tag k="fixme" v="consider place=hamlet" />
		<tag k="name" v="Fætta" />
		<tag k="place" v="farm" />
		<tag k="ssr:stedsnr" v="255301" />
	</node>
	<node lat="63.350286108962024" lon="8.632761113229998" id="-5357">
		<tag k="name" v="Ulvsnessetra" />
		<tag k="place" v="locality" />
		<tag k="ssr:stedsnr" v="255151" />
	</node>
	<node lat="63.34421261262406" lon="8.471092304039509" id="-5359">
		<tag k="fixme" v="consider place=hamlet" />
		<tag k="name" v="Sandvika" />
		<tag k="place" v="farm" />
		<tag k="ssr:stedsnr" v="255163" />
	</node>
	<node lat="63.14811666549965" lon="8.075174992218335" id="-5364">
		<tag k="name" v="Sørhalsnes" />
		<tag k="place" v="farm" />
		<tag k="ssr:stedsnr" v="255260" />
	</node>
	<node lat="63.32050075358399" lon="8.610819077149236" id="-5365">
		<tag k="fixme" v="consider place=hamlet" />
		<tag k="name" v="Torset" />
		<tag k="place" v="farm" />
		<tag k="ssr:stedsnr" v="255326" />
	</node>
	<node lat="63.415669441753" lon="8.74502499350808" id="-5368">
		<tag k="name" v="Bukta" />
		<tag k="place" v="farm" />
		<tag k="ssr:stedsnr" v="255426" />
	</node>
	<node lat="63.28762777645837" lon="8.817500000839884" id="-5371">
		<tag k="historic" v="shieling" />
		<tag k="name" v="Ulfsnessetra" />
		<tag k="place" v="isolated_dwelling" />
		<tag k="ssr:stedsnr" v="255593" />
	</node>
	<node lat="63.335274047181194" lon="8.748790664860538" id="-5373">
		<tag k="alt_name" v="Gjelen" />
		<tag k="fixme" v="consider place=hamlet" />
		<tag k="name" v="Gjela" />
		<tag k="place" v="farm" />
		<tag k="ssr:stedsnr" v="255540" />
	</node>
	<node lat="63.32425555799907" lon="8.57890833984853" id="-5399">
		<tag k="name" v="Innervikbekken" />
		<tag k="place" v="farm" />
		<tag k="ssr:stedsnr" v="170470" />
	</node>
	<node lat="63.32691111057784" lon="8.688105551158767" id="-5408">
		<tag k="name" v="Bunes" />
		<tag k="place" v="farm" />
		<tag k="ssr:stedsnr" v="171204" />
	</node>
	<node lat="63.28216666504451" lon="8.550622225480167" id="-5416">
		<tag k="historic" v="shieling" />
		<tag k="name" v="Grønseter" />
		<tag k="place" v="isolated_dwelling" />
		<tag k="ssr:stedsnr" v="171814" />
	</node>
	<node lat="63.252047050923316" lon="8.310093638488143" id="-5427">
		<tag k="fixme" v="consider place=hamlet" />
		<tag k="name" v="Vinsternes" />
		<tag k="place" v="village" />
		<tag k="ssr:stedsnr" v="195343" />
	</node>
	<node lat="63.25274166857559" lon="8.668075008142159" id="-5428">
		<tag k="historic" v="shieling" />
		<tag k="name" v="Nordsetra" />
		<tag k="place" v="isolated_dwelling" />
		<tag k="ssr:stedsnr" v="195345" />
	</node>
	<node lat="63.28468610870501" lon="8.77991388316004" id="-5430">
		<tag k="historic" v="shieling" />
		<tag k="name" v="Vihalssætra" />
		<tag k="place" v="isolated_dwelling" />
		<tag k="ssr:stedsnr" v="195589" />
	</node>
	<node lat="63.30217778200437" lon="8.850519451782478" id="-5433">
		<tag k="historic" v="shieling" />
		<tag k="name" v="Sjølisætra" />
		<tag k="place" v="isolated_dwelling" />
		<tag k="ssr:stedsnr" v="195608" />
	</node>
	<node lat="63.190847219487196" lon="8.107049997025499" id="-5438">
		<tag k="fixme" v="consider tourism=alpine_hut or tourism=chalet" />
		<tag k="name" v="Gullsteinvollen" />
		<tag k="ssr:stedsnr" v="221418" />
		<tag k="tourism" v="wilderness_hut" />
	</node>
	<node lat="63.22370555120427" lon="8.133483339375104" id="-5460">
		<tag k="name" v="Hylla" />
		<tag k="place" v="isolated_dwelling" />
		<tag k="ssr:stedsnr" v="230640" />
	</node>
	<node lat="63.32549721862499" lon="8.75862222477167" id="-5484">
		<tag k="historic" v="shieling" />
		<tag k="name" v="Gammelsetra" />
		<tag k="place" v="isolated_dwelling" />
		<tag k="ssr:stedsnr" v="232139" />
	</node>
	<node lat="63.2960666709814" lon="8.53714165949309" id="-5508">
		<tag k="name" v="Kårstad" />
		<tag k="place" v="farm" />
		<tag k="ssr:stedsnr" v="232789" />
	</node>
	<node lat="63.29776110841325" lon="8.55987222720358" id="-5509">
		<tag k="historic" v="shieling" />
		<tag k="name" v="Eidssetra" />
		<tag k="place" v="isolated_dwelling" />
		<tag k="ssr:stedsnr" v="232790" />
	</node>
	<node lat="63.344047220765404" lon="8.852380558046956" id="-5512">
		<tag k="name" v="Bakken" />
		<tag k="place" v="isolated_dwelling" />
		<tag k="ssr:stedsnr" v="232835" />
	</node>
	<node lat="63.207865318703696" lon="8.4341576323724" id="-5516">
		<tag k="historic" v="shieling" />
		<tag k="name" v="Ålmosetra" />
		<tag k="place" v="isolated_dwelling" />
		<tag k="ssr:stedsnr" v="255002" />
	</node>
	<node lat="63.20712777373647" lon="8.706816667949681" id="-5517">
		<tag k="name" v="Moldbakkan" />
		<tag k="place" v="farm" />
		<tag k="ssr:stedsnr" v="255010" />
	</node>
	<node lat="63.20031482977904" lon="8.303090098373062" id="-5518">
		<tag k="fixme" v="consider place=hamlet" />
		<tag k="name" v="Hundhammaren" />
		<tag k="place" v="farm" />
		<tag k="ssr:stedsnr" v="255011" />
	</node>
	<node lat="63.21977500122454" lon="8.237861109845694" id="-5521">
		<tag k="fixme" v="consider place=hamlet" />
		<tag k="name" v="Haltvika" />
		<tag k="place" v="farm" />
		<tag k="ssr:stedsnr" v="255028" />
	</node>
	<node lat="63.1658416652616" lon="8.513844447171985" id="-5523">
		<tag k="fixme" v="multiple name tags, choose one and add the other to alt_name" />
		<tag k="name" v="Geistad;Gjestad" />
		<tag k="place" v="farm" />
		<tag k="ssr:stedsnr" v="255068" />
	</node>
	<node lat="63.16273611280467" lon="8.454274992101318" id="-5524">
		<tag k="name" v="Gjerda" />
		<tag k="place" v="farm" />
		<tag k="ssr:stedsnr" v="255070" />
	</node>
	<node lat="63.17127778196092" lon="8.536808335703919" id="-5525">
		<tag k="name" v="Brattset" />
		<tag k="place" v="farm" />
		<tag k="ssr:stedsnr" v="255103" />
	</node>
	<node lat="63.327491669108056" lon="8.581558335043953" id="-5528">
		<tag k="name" v="Kristianvika" />
		<tag k="place" v="farm" />
		<tag k="ssr:stedsnr" v="255174" />
	</node>
	<node lat="63.16047222328462" lon="8.181013891644739" id="-5530">
		<tag k="name" v="Stranda" />
		<tag k="place" v="farm" />
		<tag k="ssr:stedsnr" v="255306" />
	</node>
	<node lat="63.20769105618333" lon="8.149524309060888" id="-5537">
		<tag k="fixme" v="consider place=hamlet" />
		<tag k="name" v="Gullstein" />
		<tag k="place" v="farm" />
		<tag k="ssr:stedsnr" v="255468" />
	</node>
	<node lat="63.296555552060745" lon="8.808563894733831" id="-5541">
		<tag k="historic" v="shieling" />
		<tag k="name" v="Klavasætra" />
		<tag k="place" v="isolated_dwelling" />
		<tag k="ssr:stedsnr" v="255570" />
	</node>
	<node lat="63.41002500141454" lon="8.740149990645792" id="-5542">
		<tag k="alt_name" v="Tømmerdal" />
		<tag k="name" v="Tømmervik" />
		<tag k="place" v="farm" />
		<tag k="ssr:stedsnr" v="255682" />
	</node>
	<node lat="63.39017318204292" lon="8.664572315737482" id="-5545">
		<tag k="fixme" v="consider place=hamlet" />
		<tag k="name" v="Dromnes" />
		<tag k="place" v="farm" />
		<tag k="ssr:stedsnr" v="256208" />
	</node>
	<node lat="63.225474998637736" lon="8.502916658437641" id="-5548">
		<tag k="name" v="Bogøra" />
		<tag k="place" v="farm" />
		<tag k="ssr:stedsnr" v="289186" />
	</node>
	<node lat="63.32353602306526" lon="8.464500255952778" id="-5557">
		<tag k="fixme" v="consider place=hamlet" />
		<tag k="name" v="Kiplesundbugen" />
		<tag k="place" v="farm" />
		<tag k="ssr:stedsnr" v="291333" />
	</node>
	<node lat="63.3383083374064" lon="8.470175008996488" id="-5558">
		<tag k="name" v="Vangsmo" />
		<tag k="place" v="isolated_dwelling" />
		<tag k="ssr:stedsnr" v="291395" />
	</node>
	<node lat="63.22367222184632" lon="8.107391673859041" id="-5562">
		<tag k="name" v="Haugmo" />
		<tag k="place" v="farm" />
		<tag k="ssr:stedsnr" v="291678" />
	</node>
	<node lat="63.1900555530026" lon="8.539566659555222" id="-5588">
		<tag k="historic" v="shieling" />
		<tag k="name" v="Bronsetra" />
		<tag k="place" v="isolated_dwelling" />
		<tag k="ssr:stedsnr" v="292630" />
	</node>
	<node lat="63.32978055999153" lon="8.809216659134322" id="-5603">
		<tag k="historic" v="shieling" />
		<tag k="name" v="Gammelsetra" />
		<tag k="place" v="isolated_dwelling" />
		<tag k="ssr:stedsnr" v="293691" />
	</node>
	<node lat="63.38391666638691" lon="8.766550007919244" id="-5604">
		<tag k="historic" v="shieling" />
		<tag k="name" v="Vollasetra" />
		<tag k="place" v="isolated_dwelling" />
		<tag k="ssr:stedsnr" v="293823" />
	</node>
	<node lat="63.28832777898113" lon="8.539169454281353" id="-5606">
		<tag k="name" v="Vågshaug" />
		<tag k="place" v="farm" />
		<tag k="ssr:stedsnr" v="293825" />
	</node>
	<node lat="63.338977775087514" lon="8.706452771233964" id="-5612">
		<tag k="name" v="Båtstranda" />
		<tag k="place" v="farm" />
		<tag k="ssr:stedsnr" v="315176" />
	</node>
	<node lat="63.277541667326396" lon="8.576366671807328" id="-5613">
		<tag k="name" v="Kråklia" />
		<tag k="place" v="farm" />
		<tag k="ssr:stedsnr" v="315258" />
	</node>
	<node lat="63.26140277707853" lon="8.395077783883323" id="-5616">
		<tag k="fixme" v="consider place=hamlet" />
		<tag k="name" v="Espset" />
		<tag k="place" v="farm" />
		<tag k="ssr:stedsnr" v="315268" />
	</node>
	<node lat="63.407063886126885" lon="8.728905548078043" id="-5619">
		<tag k="alt_name" v="Buslættet" />
		<tag k="name" v="Ledal" />
		<tag k="place" v="farm" />
		<tag k="ssr:stedsnr" v="315666" />
	</node>
	<node lat="63.15499956690979" lon="7.97515673932055" id="-5627">
		<tag k="fixme" v="consider place=hamlet" />
		<tag k="name" v="Tømmervika" />
		<tag k="place" v="farm" />
		<tag k="ssr:stedsnr" v="316356" />
	</node>
	<node lat="63.40513083282302" lon="8.726957766669667" id="-5630">
		<tag k="fixme" v="consider place=hamlet" />
		<tag k="name" v="Ledal" />
		<tag k="place" v="farm" />
		<tag k="ssr:stedsnr" v="316727" />
	</node>
	<node lat="63.21687777541824" lon="8.079463881060411" id="-5646">
		<tag k="name" v="Veiset" />
		<tag k="place" v="farm" />
		<tag k="ssr:stedsnr" v="472646" />
	</node>
	<node lat="63.197394446989534" lon="8.0351666629711" id="-5647">
		<tag k="name" v="Skogset" />
		<tag k="place" v="farm" />
		<tag k="ssr:stedsnr" v="472742" />
	</node>
	<node lat="63.336692453528" lon="8.461794117641789" id="-5667">
		<tag k="fixme" v="consider place=hamlet" />
		<tag k="name" v="Åkvik" />
		<tag k="place" v="farm" />
		<tag k="ssr:stedsnr" v="473398" />
	</node>
	<node lat="63.24500000289248" lon="8.389747213378113" id="-5695">
		<tag k="name" v="Bokta" />
		<tag k="place" v="farm" />
		<tag k="ssr:stedsnr" v="474135" />
	</node>
	<node lat="63.38766110715802" lon="8.751199999279995" id="-5718">
		<tag k="historic" v="shieling" />
		<tag k="name" v="Nessasetra" />
		<tag k="place" v="isolated_dwelling" />
		<tag k="ssr:stedsnr" v="474264" />
	</node>
	<node lat="63.20654722154118" lon="8.248452771574483" id="-5725">
		<tag k="name" v="Sagbukt" />
		<tag k="place" v="farm" />
		<tag k="ssr:stedsnr" v="352159" />
	</node>
	<node lat="63.17650555362905" lon="8.451730562966652" id="-5730">
		<tag k="historic" v="shieling" />
		<tag k="name" v="Vassbotnbekken" />
		<tag k="place" v="isolated_dwelling" />
		<tag k="ssr:stedsnr" v="474338" />
	</node>
	<node lat="63.35274166613513" lon="8.687294448764241" id="-5741">
		<tag k="name" v="Vestre" />
		<tag k="place" v="farm" />
		<tag k="ssr:stedsnr" v="353126" />
	</node>
	<node lat="63.31645833438988" lon="8.650808338588822" id="-5750">
		<tag k="name" v="Slettet" />
		<tag k="place" v="farm" />
		<tag k="ssr:stedsnr" v="353952" />
	</node>
	<node lat="63.373169448688486" lon="8.695024998033558" id="-5764">
		<tag k="name" v="Dalen" />
		<tag k="place" v="farm" />
		<tag k="ssr:stedsnr" v="474833" />
	</node>
	<node lat="63.28922778170587" lon="8.827780564777647" id="-5775">
		<tag k="historic" v="shieling" />
		<tag k="name" v="Vitsøsetra" />
		<tag k="place" v="isolated_dwelling" />
		<tag k="ssr:stedsnr" v="475630" />
	</node>
	<node lat="63.223891663205954" lon="8.518202776642953" id="-5795">
		<tag k="name" v="Kroken" />
		<tag k="place" v="farm" />
		<tag k="ssr:stedsnr" v="376025" />
	</node>
	<node lat="63.16544709829887" lon="8.193448360626192" id="-5798">
		<tag k="fixme" v="consider place=hamlet" />
		<tag k="name" v="Innerberg" />
		<tag k="place" v="farm" />
		<tag k="ssr:stedsnr" v="376304" />
	</node>
	<node lat="63.259819447386114" lon="8.47562778741491" id="-5799">
		<tag k="name" v="Setervika" />
		<tag k="place" v="farm" />
		<tag k="ssr:stedsnr" v="376305" />
	</node>
	<node lat="63.1606277786666" lon="8.108327769836682" id="-5800">
		<tag k="name" v="Ersviksetra" />
		<tag k="place" v="isolated_dwelling" />
		<tag k="ssr:stedsnr" v="376307" />
	</node>
	<node lat="63.166247219078954" lon="8.44050833451824" id="-5802">
		<tag k="name" v="Vågosen" />
		<tag k="place" v="farm" />
		<tag k="ssr:stedsnr" v="376074" />
	</node>
	<node lat="63.221099325985854" lon="8.054496242475869" id="-5811">
		<tag k="fixme" v="consider place=hamlet" />
		<tag k="name" v="Brandsvika" />
		<tag k="place" v="farm" />
		<tag k="ssr:stedsnr" v="376404" />
	</node>
	<node lat="63.19869722552924" lon="8.00603055025997" id="-5814">
		<tag k="name" v="Vonheim" />
		<tag k="place" v="farm" />
		<tag k="ssr:stedsnr" v="376502" />
	</node>
	<node lat="63.17942222292373" lon="8.034086104938538" id="-5815">
		<tag k="name" v="Soltun" />
		<tag k="place" v="farm" />
		<tag k="ssr:stedsnr" v="376472" />
	</node>
	<node lat="63.20576666300216" lon="8.007080549177104" id="-5820">
		<tag k="name" v="Hammarbukta" />
		<tag k="place" v="isolated_dwelling" />
		<tag k="ssr:stedsnr" v="376488" />
	</node>
	<node lat="63.18946110986167" lon="8.412011112621668" id="-5829">
		<tag k="historic" v="shieling" />
		<tag k="name" v="Gammelsetra" />
		<tag k="place" v="isolated_dwelling" />
		<tag k="ssr:stedsnr" v="412592" />
	</node>
	<node lat="63.401261108551694" lon="8.708644445453801" id="-5836">
		<tag k="fixme" v="multiple name tags, choose one and add the other to alt_name" />
		<tag k="name" v="Bergheim;Bergem" />
		<tag k="place" v="farm" />
		<tag k="ssr:stedsnr" v="412824" />
	</node>
	<node lat="63.196083170356864" lon="7.991200509200361" id="-5842">
		<tag k="name" v="Artvågen" />
		<tag k="place" v="farm" />
		<tag k="ssr:stedsnr" v="413004" />
	</node>
	<node lat="63.21158333546455" lon="8.712672212834578" id="-5870">
		<tag k="historic" v="shieling" />
		<tag k="name" v="Heimseterstølen" />
		<tag k="place" v="isolated_dwelling" />
		<tag k="ssr:stedsnr" v="414412" />
	</node>
	<node lat="63.24929444444948" lon="8.642127783020879" id="-5877">
		<tag k="historic" v="shieling" />
		<tag k="name" v="Dyrlisetra" />
		<tag k="place" v="isolated_dwelling" />
		<tag k="ssr:stedsnr" v="414740" />
	</node>
	<node lat="63.37722777719935" lon="8.643605552813755" id="-5880">
		<tag k="name" v="Kvennhushaugen" />
		<tag k="place" v="farm" />
		<tag k="ssr:stedsnr" v="414791" />
	</node>
	<node lat="63.229880553593574" lon="8.569869439459977" id="-5894">
		<tag k="name" v="Øygarden" />
		<tag k="place" v="farm" />
		<tag k="ssr:stedsnr" v="437060" />
	</node>
	<node lat="63.328199998060704" lon="8.479816659434734" id="-5900">
		<tag k="name" v="Stranda" />
		<tag k="place" v="farm" />
		<tag k="ssr:stedsnr" v="437200" />
	</node>
	<node lat="63.159477781708674" lon="7.927744452687198" id="-5904">
		<tag k="name" v="Breivika" />
		<tag k="place" v="farm" />
		<tag k="ssr:stedsnr" v="437314" />
	</node>
	<node lat="63.194266640362855" lon="8.16350311732378" id="-5912">
		<tag k="fixme" v="consider place=hamlet" />
		<tag k="name" v="Baggan" />
		<tag k="place" v="farm" />
		<tag k="ssr:stedsnr" v="437464" />
	</node>
	<node lat="63.3156777777239" lon="8.677930550051338" id="-5914">
		<tag k="name" v="Setrin" />
		<tag k="place" v="farm" />
		<tag k="ssr:stedsnr" v="437358" />
	</node>
	<node lat="63.33480833779698" lon="8.76271389533616" id="-5916">
		<tag k="name" v="Åsbø" />
		<tag k="place" v="farm" />
		<tag k="ssr:stedsnr" v="437550" />
	</node>
	<node lat="63.35145833256645" lon="8.858816672140826" id="-5918">
		<tag k="name" v="Sandmo" />
		<tag k="place" v="farm" />
		<tag k="ssr:stedsnr" v="437710" />
	</node>
	<node lat="63.34359444078696" lon="8.791250003995106" id="-5919">
		<tag k="name" v="Bakkmyr" />
		<tag k="place" v="farm" />
		<tag k="ssr:stedsnr" v="437713" />
	</node>
	<node lat="63.34885875189721" lon="8.738139406438666" id="-5920">
		<tag k="fixme" v="consider place=hamlet" />
		<tag k="name" v="Løvik" />
		<tag k="place" v="farm" />
		<tag k="ssr:stedsnr" v="437715" />
	</node>
	<node lat="63.215742729355064" lon="8.17077025141054" id="-5921">
		<tag k="fixme" v="consider place=hamlet" />
		<tag k="name" v="Nygarden" />
		<tag k="place" v="farm" />
		<tag k="ssr:stedsnr" v="437499" />
	</node>
	<node lat="63.15745555609428" lon="8.18779722690127" id="-5941">
		<tag k="name" v="Nesset" />
		<tag k="place" v="farm" />
		<tag k="ssr:stedsnr" v="473611" />
	</node>
	<node lat="63.21972778131144" lon="8.215897215295984" id="-5948">
		<tag k="amenity" v="school" />
		<tag k="name" v="Skogmo" />
		<tag k="ssr:stedsnr" v="473721" />
	</node>
	<node lat="63.28889444068412" lon="8.649144441952407" id="-5959">
		<tag k="historic" v="shieling" />
		<tag k="name" v="Tverrbotnsetra" />
		<tag k="place" v="isolated_dwelling" />
		<tag k="ssr:stedsnr" v="474912" />
	</node>
	<node lat="63.205306373256235" lon="8.611501755887447" id="-5974">
		<tag k="fixme" v="consider place=hamlet" />
		<tag k="name" v="Vik" />
		<tag k="place" v="farm" />
		<tag k="ssr:stedsnr" v="679114" />
	</node>
	<node lat="63.272519445244534" lon="8.529963897708505" id="-5979">
		<tag k="name" v="Indre Leirdalen" />
		<tag k="place" v="farm" />
		<tag k="ssr:stedsnr" v="679232" />
	</node>
	<node lat="63.39038333186077" lon="8.78124999959081" id="-5984">
		<tag k="historic" v="shieling" />
		<tag k="name" v="Kjørviksætrin" />
		<tag k="place" v="isolated_dwelling" />
		<tag k="ssr:stedsnr" v="679600" />
	</node>
	<node lat="63.23053055493193" lon="8.423169442463433" id="-5992">
		<tag k="name" v="Sæmundsetsetra" />
		<tag k="place" v="isolated_dwelling" />
		<tag k="ssr:stedsnr" v="680053" />
	</node>
	<node lat="63.22535080096964" lon="8.414481718312354" id="-5993">
		<tag k="fixme" v="consider place=hamlet" />
		<tag k="name" v="Sæmundset" />
		<tag k="place" v="farm" />
		<tag k="ssr:stedsnr" v="680054" />
	</node>
	<node lat="63.18243611099844" lon="8.57471667455477" id="-5994">
		<tag k="name" v="Rumpa" />
		<tag k="place" v="farm" />
		<tag k="ssr:stedsnr" v="680127" />
	</node>
	<node lat="63.159372223063215" lon="8.473972222869723" id="-5996">
		<tag k="name" v="Espneset" />
		<tag k="place" v="farm" />
		<tag k="ssr:stedsnr" v="680084" />
	</node>
	<node lat="63.14972777925679" lon="8.085363897049367" id="-5999">
		<tag k="name" v="Nyvoll" />
		<tag k="place" v="farm" />
		<tag k="ssr:stedsnr" v="680277" />
	</node>
	<node lat="63.38743333731602" lon="8.67852778510669" id="-6001">
		<tag k="name" v="Vestrem" />
		<tag k="place" v="farm" />
		<tag k="ssr:stedsnr" v="680229" />
	</node>
	<node lat="63.256556882177584" lon="8.340363177402086" id="-6004">
		<tag k="fixme" v="consider place=hamlet" />
		<tag k="name" v="Maridalen" />
		<tag k="place" v="farm" />
		<tag k="ssr:stedsnr" v="680330" />
	</node>
	<node lat="63.2962194480988" lon="8.531691665291802" id="-6009">
		<tag k="name" v="Sandvika" />
		<tag k="place" v="farm" />
		<tag k="ssr:stedsnr" v="680395" />
	</node>
	<node lat="63.25881111502203" lon="8.497399996789323" id="-6010">
		<tag k="name" v="Odemo" />
		<tag k="place" v="farm" />
		<tag k="ssr:stedsnr" v="680341" />
	</node>
	<node lat="63.22378610872514" lon="8.129819440632934" id="-6013">
		<tag k="name" v="Myra" />
		<tag k="place" v="farm" />
		<tag k="ssr:stedsnr" v="680524" />
	</node>
	<node lat="63.20286944734465" lon="7.985449998879103" id="-6015">
		<tag k="name" v="Øya" />
		<tag k="place" v="farm" />
		<tag k="ssr:stedsnr" v="680542" />
	</node>
	<node lat="63.19753333072066" lon="7.997502770272909" id="-6016">
		<tag k="name" v="Myra" />
		<tag k="place" v="farm" />
		<tag k="ssr:stedsnr" v="680548" />
	</node>
	<node lat="63.36101111121851" lon="8.835202771373272" id="-6017">
		<tag k="historic" v="shieling" />
		<tag k="name" v="Fevelsetra" />
		<tag k="place" v="isolated_dwelling" />
		<tag k="ssr:stedsnr" v="680788" />
	</node>
	<node lat="63.21316110870416" lon="8.277413885076562" id="-6019">
		<tag k="name" v="Viavika" />
		<tag k="place" v="farm" />
		<tag k="ssr:stedsnr" v="497007" />
	</node>
	<node lat="63.1847960475721" lon="8.306221705861391" id="-6023">
		<tag k="fixme" v="consider place=hamlet" />
		<tag k="name" v="Fuglsnes" />
		<tag k="place" v="farm" />
		<tag k="ssr:stedsnr" v="497105" />
	</node>
	<node lat="63.27007499846294" lon="8.492399999504247" id="-6029">
		<tag k="name" v="Valen" />
		<tag k="place" v="farm" />
		<tag k="ssr:stedsnr" v="497259" />
	</node>
	<node lat="63.3858694831681" lon="8.590737327472617" id="-6033">
		<tag k="fixme" v="consider place=hamlet" />
		<tag k="name" v="Skipnes" />
		<tag k="place" v="farm" />
		<tag k="ssr:stedsnr" v="681195" />
	</node>
	<node lat="63.38082500175326" lon="8.625391669948472" id="-6038">
		<tag k="name" v="Hanbugen" />
		<tag k="place" v="farm" />
		<tag k="ssr:stedsnr" v="498248" />
	</node>
	<node lat="63.25168888800158" lon="8.381958342976585" id="-6040">
		<tag k="name" v="Husby" />
		<tag k="place" v="farm" />
		<tag k="ssr:stedsnr" v="498298" />
	</node>
	<node lat="63.250061113838335" lon="8.64303610966519" id="-6043">
		<tag k="historic" v="shieling" />
		<tag k="name" v="Dyrlia" />
		<tag k="place" v="isolated_dwelling" />
		<tag k="ssr:stedsnr" v="498502" />
	</node>
	<node lat="63.34313168593465" lon="8.801695270438252" id="-6044">
		<tag k="fixme" v="consider place=hamlet" />
		<tag k="name" v="Øverbakk" />
		<tag k="place" v="farm" />
		<tag k="ssr:stedsnr" v="498742" />
	</node>
	<node lat="63.210233334718154" lon="8.317349996880337" id="-6059">
		<tag k="historic" v="shieling" />
		<tag k="name" v="Hundhammersetra" />
		<tag k="place" v="isolated_dwelling" />
		<tag k="ssr:stedsnr" v="534035" />
	</node>
	<node lat="63.328311108395305" lon="8.45745278031484" id="-6072">
		<tag k="name" v="Haugen" />
		<tag k="place" v="farm" />
		<tag k="ssr:stedsnr" v="534303" />
	</node>
	<node lat="63.32837777395119" lon="8.493558332244236" id="-6075">
		<tag k="name" v="Solheim" />
		<tag k="place" v="farm" />
		<tag k="ssr:stedsnr" v="534312" />
	</node>
	<node lat="63.21733888474354" lon="8.140219439502241" id="-6082">
		<tag k="name" v="Skogly" />
		<tag k="place" v="farm" />
		<tag k="ssr:stedsnr" v="534684" />
	</node>
	<node lat="63.25036944834911" lon="8.422411113219725" id="-6087">
		<tag k="historic" v="shieling" />
		<tag k="name" v="Stavnessetra" />
		<tag k="place" v="isolated_dwelling" />
		<tag k="ssr:stedsnr" v="535115" />
	</node>
	<node lat="63.32671860717432" lon="8.694961774665924" id="-6092">
		<tag k="fixme" v="consider place=hamlet" />
		<tag k="name" v="Stemshaug" />
		<tag k="place" v="farm" />
		<tag k="ssr:stedsnr" v="535077" />
	</node>
	<node lat="63.213385603390776" lon="8.539765503495317" id="-6108">
		<tag k="fixme" v="consider place=hamlet" />
		<tag k="name" v="Ertvågen" />
		<tag k="place" v="farm" />
		<tag k="ssr:stedsnr" v="558001" />
	</node>
	<node lat="63.169868990282964" lon="8.34271184846686" id="-6110">
		<tag k="fixme" v="consider place=hamlet" />
		<tag k="name" v="Klaven" />
		<tag k="place" v="farm" />
		<tag k="ssr:stedsnr" v="558112" />
	</node>
	<node lat="63.1939440999779" lon="8.423556329316735" id="-6111">
		<tag k="fixme" v="consider place=hamlet" />
		<tag k="name" v="Skauset" />
		<tag k="place" v="farm" />
		<tag k="ssr:stedsnr" v="558116" />
	</node>
	<node lat="63.19166010178002" lon="8.624377953473193" id="-6112">
		<tag k="fixme" v="consider place=hamlet" />
		<tag k="name" v="Ervika" />
		<tag k="place" v="farm" />
		<tag k="ssr:stedsnr" v="558117" />
	</node>
	<node lat="63.220700876942324" lon="8.38412894884102" id="-6116">
		<tag k="fixme" v="consider place=hamlet" />
		<tag k="name" v="Bårset" />
		<tag k="place" v="farm" />
		<tag k="ssr:stedsnr" v="558014" />
	</node>
	<node lat="63.2161944425982" lon="8.386277777007619" id="-6117">
		<tag k="name" v="Sørlia" />
		<tag k="place" v="farm" />
		<tag k="ssr:stedsnr" v="558015" />
	</node>
	<node lat="63.23170555222752" lon="8.499205554960167" id="-6119">
		<tag k="name" v="Sletta" />
		<tag k="place" v="farm" />
		<tag k="ssr:stedsnr" v="558044" />
	</node>
	<node lat="63.24917225718459" lon="8.384101791559049" id="-6120">
		<tag k="fixme" v="consider place=hamlet" />
		<tag k="name" v="Husby" />
		<tag k="place" v="farm" />
		<tag k="ssr:stedsnr" v="558058" />
	</node>
	<node lat="63.17238333066639" lon="7.933683332700083" id="-6121">
		<tag k="name" v="Engvika" />
		<tag k="place" v="farm" />
		<tag k="ssr:stedsnr" v="558303" />
	</node>
	<node lat="63.26577221941355" lon="8.542688892229823" id="-6122">
		<tag k="name" v="Stormyra" />
		<tag k="place" v="farm" />
		<tag k="ssr:stedsnr" v="558306" />
	</node>
	<node lat="63.162684553312715" lon="7.943252812866263" id="-6123">
		<tag k="fixme" v="consider place=hamlet" />
		<tag k="name" v="Svensvika" />
		<tag k="place" v="farm" />
		<tag k="ssr:stedsnr" v="558308" />
	</node>
	<node lat="63.30046389102556" lon="8.615763880924014" id="-6127">
		<tag k="historic" v="shieling" />
		<tag k="name" v="Veasetra" />
		<tag k="place" v="isolated_dwelling" />
		<tag k="ssr:stedsnr" v="558348" />
	</node>
	<node lat="63.17953091961398" lon="7.946484124271985" id="-6132">
		<tag k="fixme" v="consider place=hamlet" />
		<tag k="name" v="Linvågen" />
		<tag k="place" v="farm" />
		<tag k="ssr:stedsnr" v="558494" />
	</node>
	<node lat="63.211827781780705" lon="8.144958343157308" id="-6133">
		<tag k="name" v="Bruvika" />
		<tag k="place" v="farm" />
		<tag k="ssr:stedsnr" v="558500" />
	</node>
	<node lat="63.407933330192776" lon="8.74475277551623" id="-6134">
		<tag k="name" v="Lia" />
		<tag k="place" v="farm" />
		<tag k="ssr:stedsnr" v="558692" />
	</node>
	<node lat="63.343306931694855" lon="8.832975079927053" id="-6135">
		<tag k="fixme" v="consider place=hamlet" />
		<tag k="name" v="Sjøli" />
		<tag k="place" v="farm" />
		<tag k="ssr:stedsnr" v="558745" />
	</node>
	<node lat="63.411120396902994" lon="8.726768875480047" id="-6136">
		<tag k="fixme" v="consider place=suburb, village or hamlet" />
		<tag k="name" v="Kjørsvikbugen" />
		<tag k="place" v="quarter" />
		<tag k="ssr:stedsnr" v="559041" />
	</node>
	<node lat="63.41043889198255" lon="8.71269166574019" id="-6138">
		<tag k="name" v="Saglia" />
		<tag k="place" v="farm" />
		<tag k="ssr:stedsnr" v="559051" />
	</node>
	<node lat="63.16146443904618" lon="8.362316640929027" id="-6141">
		<tag k="name" v="Berget" />
		<tag k="place" v="locality" />
		<tag k="ssr:stedsnr" v="566766" />
	</node>
	<node lat="63.2083666629224" lon="8.602772216241686" id="-6145">
		<tag k="name" v="Myran" />
		<tag k="place" v="farm" />
		<tag k="ssr:stedsnr" v="592207" />
	</node>
	<node lat="63.214080553562155" lon="8.068083337051693" id="-6147">
		<tag k="name" v="Skarset" />
		<tag k="place" v="farm" />
		<tag k="ssr:stedsnr" v="593615" />
	</node>
	<node lat="63.18779444476573" lon="8.41393610441513" id="-6161">
		<tag k="historic" v="shieling" />
		<tag k="name" v="Nysetra" />
		<tag k="place" v="isolated_dwelling" />
		<tag k="ssr:stedsnr" v="594621" />
	</node>
	<node lat="63.18966388528787" lon="8.344497221644247" id="-6168">
		<tag k="historic" v="shieling" />
		<tag k="name" v="Setra" />
		<tag k="place" v="isolated_dwelling" />
		<tag k="ssr:stedsnr" v="594999" />
	</node>
	<node lat="63.253580559642046" lon="8.425044434463242" id="-6171">
		<tag k="historic" v="shieling" />
		<tag k="name" v="Haltbakksetra" />
		<tag k="place" v="isolated_dwelling" />
		<tag k="ssr:stedsnr" v="595111" />
	</node>
	<node lat="63.15835278163583" lon="8.189658339835773" id="-6179">
		<tag k="name" v="Hals" />
		<tag k="place" v="farm" />
		<tag k="ssr:stedsnr" v="595551" />
	</node>
	<node lat="63.330394442106574" lon="8.72674722890251" id="-6193">
		<tag k="name" v="Hjelahamn" />
		<tag k="place" v="farm" />
		<tag k="ssr:stedsnr" v="596151" />
	</node>
	<node lat="63.2205194452517" lon="8.776608332262775" id="-6197">
		<tag k="name" v="Storsetra" />
		<tag k="place" v="isolated_dwelling" />
		<tag k="ssr:stedsnr" v="596619" />
	</node>
	<node lat="63.31038889025391" lon="8.58893054600227" id="-6200">
		<tag k="name" v="Vesterberg" />
		<tag k="place" v="farm" />
		<tag k="ssr:stedsnr" v="596570" />
	</node>
	<node lat="63.200669003207295" lon="8.484259399487332" id="-6207">
		<tag k="historic" v="shieling" />
		<tag k="name" v="Ertvågssetra" />
		<tag k="place" v="isolated_dwelling" />
		<tag k="ssr:stedsnr" v="618099" />
	</node>
	<node lat="63.362391663543654" lon="8.515400009713291" id="-6208">
		<tag k="name" v="Fredheim" />
		<tag k="place" v="farm" />
		<tag k="ssr:stedsnr" v="618203" />
	</node>
	<node lat="63.26745833177046" lon="8.254374995993684" id="-6222">
		<tag k="name" v="Styrshamna" />
		<tag k="place" v="farm" />
		<tag k="ssr:stedsnr" v="619311" />
	</node>
	<node lat="63.173749662176505" lon="8.169698162880637" id="-6225">
		<tag k="fixme" v="consider place=hamlet" />
		<tag k="name" v="Yttersetra" />
		<tag k="place" v="farm" />
		<tag k="ssr:stedsnr" v="619329" />
	</node>
	<node lat="63.263138891755574" lon="8.497825007596887" id="-6226">
		<tag k="name" v="Oldervika" />
		<tag k="place" v="farm" />
		<tag k="ssr:stedsnr" v="619333" />
	</node>
	<node lat="63.30054166471919" lon="8.658458334842784" id="-6236">
		<tag k="fixme" v="consider tourism=alpine_hut or tourism=chalet" />
		<tag k="name" v="Rovangen" />
		<tag k="ssr:stedsnr" v="706989" />
		<tag k="tourism" v="wilderness_hut" />
	</node>
	<node lat="63.26425833199294" lon="8.55933610662842" id="-6249">
		<tag k="historic" v="shieling" />
		<tag k="name" v="Heimsetra" />
		<tag k="place" v="isolated_dwelling" />
		<tag k="ssr:stedsnr" v="655103" />
	</node>
	<node lat="63.17913332945835" lon="7.943930547564429" id="-6271">
		<tag k="name" v="Solli" />
		<tag k="place" v="isolated_dwelling" />
		<tag k="ssr:stedsnr" v="655806" />
	</node>
	<node lat="63.26751666983373" lon="8.371702784962533" id="-6278">
		<tag k="name" v="Sandeidet" />
		<tag k="place" v="farm" />
		<tag k="ssr:stedsnr" v="655994" />
	</node>
	<node lat="63.35443888631418" lon="8.744349996141413" id="-6300">
		<tag k="historic" v="shieling" />
		<tag k="name" v="Løviksetra" />
		<tag k="place" v="isolated_dwelling" />
		<tag k="ssr:stedsnr" v="657007" />
	</node>
	<node lat="63.32832222189177" lon="8.654888886832717" id="-6303">
		<tag k="name" v="Einan" />
		<tag k="place" v="farm" />
		<tag k="ssr:stedsnr" v="657238" />
	</node>
	<node lat="63.410702776769405" lon="8.76495278659806" id="-6318">
		<tag k="name" v="Nordgard" />
		<tag k="place" v="farm" />
		<tag k="ssr:stedsnr" v="679642" />
	</node>
	<node lat="63.19292333336654" lon="8.564190726377674" id="-6323">
		<tag k="fixme" v="consider place=hamlet" />
		<tag k="name" v="Bergfall" />
		<tag k="place" v="farm" />
		<tag k="ssr:stedsnr" v="680117" />
	</node>
	<node lat="63.19582499966514" lon="8.536675009091983" id="-6324">
		<tag k="historic" v="shieling" />
		<tag k="name" v="Lindåssetra" />
		<tag k="place" v="isolated_dwelling" />
		<tag k="ssr:stedsnr" v="680118" />
	</node>
	<node lat="63.18545251359403" lon="8.331476235962045" id="-6325">
		<tag k="name" v="Fuglvågen" />
		<tag k="place" v="hamlet" />
		<tag k="ssr:stedsnr" v="680120" />
	</node>
	<node lat="63.26643630517001" lon="8.462976150688188" id="-6330">
		<tag k="fixme" v="consider place=hamlet" />
		<tag k="name" v="Klakksvika" />
		<tag k="place" v="farm" />
		<tag k="ssr:stedsnr" v="680317" />
	</node>
	<node lat="63.26615555656484" lon="8.4980666701015" id="-6332">
		<tag k="name" v="Skiphamna" />
		<tag k="place" v="farm" />
		<tag k="ssr:stedsnr" v="680319" />
	</node>
	<node lat="63.26573610912406" lon="8.504411117788003" id="-6333">
		<tag k="name" v="Skaget" />
		<tag k="place" v="farm" />
		<tag k="ssr:stedsnr" v="680320" />
	</node>
	<node lat="63.161624996334936" lon="8.244611110382088" id="-6337">
		<tag k="fixme" v="consider place=hamlet" />
		<tag k="name" v="Fjelnesdalen" />
		<tag k="place" v="farm" />
		<tag k="ssr:stedsnr" v="693820" />
	</node>
	<node lat="63.22576944757688" lon="8.531841672907237" id="-6338">
		<tag k="name" v="Hammarvik" />
		<tag k="place" v="farm" />
		<tag k="ssr:stedsnr" v="896197" />
	</node>
	<node lat="63.38335833009687" lon="8.591994445370053" id="-6341">
		<tag k="name" v="Vollen" />
		<tag k="place" v="farm" />
		<tag k="ssr:stedsnr" v="896847" />
	</node>
	<node lat="63.197277773433115" lon="7.975005562317948" id="-6346">
		<tag k="name" v="Aspvika" />
		<tag k="place" v="farm" />
		<tag k="ssr:stedsnr" v="898090" />
	</node>
	<node lat="63.167611107006245" lon="8.3217444374815" id="-6357">
		<tag k="name" v="Indre Karlsvika" />
		<tag k="place" v="farm" />
		<tag k="ssr:stedsnr" v="898149" />
	</node>
	<node lat="63.22556388509731" lon="8.119305564364339" id="-6371">
		<tag k="name" v="Høgdatun" />
		<tag k="place" v="farm" />
		<tag k="ssr:stedsnr" v="898683" />
	</node>
	<node lat="63.199358336898875" lon="8.445480563889616" id="-6385">
		<tag k="historic" v="shieling" />
		<tag k="name" v="Sigridsetra" />
		<tag k="place" v="isolated_dwelling" />
		<tag k="ssr:stedsnr" v="716177" />
	</node>
	<node lat="63.14528889333403" lon="8.011088894252246" id="-6396">
		<tag k="name" v="Grasvika" />
		<tag k="place" v="farm" />
		<tag k="ssr:stedsnr" v="716773" />
	</node>
	<node lat="63.20234999864915" lon="8.587547230206033" id="-6404">
		<tag k="name" v="Nessagarden" />
		<tag k="place" v="farm" />
		<tag k="ssr:stedsnr" v="717181" />
	</node>
	<node lat="63.28576944014422" lon="8.525330552066432" id="-6421">
		<tag k="name" v="Vang" />
		<tag k="place" v="farm" />
		<tag k="ssr:stedsnr" v="718806" />
	</node>
	<node lat="63.172508334924856" lon="8.461249993506364" id="-6429">
		<tag k="historic" v="shieling" />
		<tag k="name" v="Middagssetra" />
		<tag k="place" v="isolated_dwelling" />
		<tag k="ssr:stedsnr" v="899345" />
	</node>
	<node lat="63.40633055570414" lon="8.769205557677543" id="-6446">
		<tag k="name" v="Østrem" />
		<tag k="place" v="farm" />
		<tag k="ssr:stedsnr" v="900361" />
	</node>
	<node lat="63.34997499899551" lon="8.803497214702883" id="-6461">
		<tag k="name" v="Fjellplassen" />
		<tag k="place" v="isolated_dwelling" />
		<tag k="ssr:stedsnr" v="901828" />
	</node>
	<node lat="63.20098611546095" lon="8.259150009774103" id="-6462">
		<tag k="name" v="Vikan" />
		<tag k="place" v="farm" />
		<tag k="ssr:stedsnr" v="740008" />
	</node>
	<node lat="63.280177775447825" lon="8.618286109164508" id="-6470">
		<tag k="name" v="Liabø" />
		<tag k="place" v="farm" />
		<tag k="ssr:stedsnr" v="740240" />
	</node>
	<node lat="63.14517777393588" lon="7.996413893149423" id="-6472">
		<tag k="name" v="Rovika" />
		<tag k="place" v="farm" />
		<tag k="ssr:stedsnr" v="740244" />
	</node>
	<node lat="63.14401111220673" lon="8.037825006199254" id="-6474">
		<tag k="fixme" v="consider place=hamlet" />
		<tag k="name" v="Hagan" />
		<tag k="place" v="farm" />
		<tag k="ssr:stedsnr" v="740247" />
	</node>
	<node lat="63.30519721446933" lon="8.423638538976073" id="-6482">
		<tag k="fixme" v="consider place=hamlet" />
		<tag k="name" v="Gjerda" />
		<tag k="place" v="farm" />
		<tag k="ssr:stedsnr" v="740344" />
	</node>
	<node lat="63.28632285594335" lon="8.540271181786462" id="-6485">
		<tag k="fixme" v="consider place=hamlet" />
		<tag k="name" v="Våg" />
		<tag k="place" v="village" />
		<tag k="ssr:stedsnr" v="740356" />
	</node>
	<node lat="63.22238332967717" lon="8.441952769533696" id="-6487">
		<tag k="name" v="Øversetra" />
		<tag k="place" v="isolated_dwelling" />
		<tag k="ssr:stedsnr" v="741026" />
	</node>
	<node lat="63.20733611364328" lon="8.035225004162944" id="-6489">
		<tag k="name" v="Innermolen" />
		<tag k="place" v="farm" />
		<tag k="ssr:stedsnr" v="741549" />
	</node>
	<node lat="63.20745353475502" lon="8.18776154696673" id="-6493">
		<tag k="fixme" v="consider place=hamlet" />
		<tag k="name" v="Solem" />
		<tag k="place" v="farm" />
		<tag k="ssr:stedsnr" v="906741" />
	</node>
	<node lat="63.16011388927412" lon="8.467472219962964" id="-6502">
		<tag k="amenity" v="school" />
		<tag k="name" v="Vågos skole" />
		<tag k="ssr:stedsnr" v="776416" />
	</node>
	<node lat="63.1988194428694" lon="8.252483333858255" id="-6514">
		<tag k="name" v="Bjørkheim" />
		<tag k="place" v="isolated_dwelling" />
		<tag k="ssr:stedsnr" v="777162" />
	</node>
	<node lat="63.32806666751934" lon="8.709355561646117" id="-6527">
		<tag k="name" v="Bratt" />
		<tag k="place" v="farm" />
		<tag k="ssr:stedsnr" v="778150" />
	</node>
	<node lat="63.407925004438695" lon="8.73045832386009" id="-6542">
		<tag k="name" v="Neset" />
		<tag k="place" v="isolated_dwelling" />
		<tag k="ssr:stedsnr" v="778623" />
	</node>
	<node lat="63.196152777860654" lon="8.221350000887314" id="-6551">
		<tag k="name" v="Solemssetra" />
		<tag k="place" v="isolated_dwelling" />
		<tag k="ssr:stedsnr" v="801010" />
	</node>
	<node lat="63.376499995666535" lon="8.679608329207237" id="-6554">
		<tag k="name" v="Solbu" />
		<tag k="place" v="farm" />
		<tag k="ssr:stedsnr" v="801228" />
	</node>
	<node lat="63.20245069756973" lon="8.413227677929582" id="-6558">
		<tag k="fixme" v="consider place=hamlet" />
		<tag k="name" v="Ålmo" />
		<tag k="place" v="farm" />
		<tag k="ssr:stedsnr" v="801111" />
	</node>
	<node lat="63.24872222020772" lon="8.180066671409584" id="-6561">
		<tag k="name" v="Hamna" />
		<tag k="place" v="isolated_dwelling" />
		<tag k="ssr:stedsnr" v="801372" />
	</node>
	<node lat="63.22783055763209" lon="8.202708332540476" id="-6562">
		<tag k="name" v="Øygarden" />
		<tag k="place" v="farm" />
		<tag k="ssr:stedsnr" v="801385" />
	</node>
	<node lat="63.16689167004771" lon="7.935136105553025" id="-6567">
		<tag k="fixme" v="multiple name tags, choose one and add the other to alt_name" />
		<tag k="name" v="Kipervika;Kippervika" />
		<tag k="place" v="farm" />
		<tag k="ssr:stedsnr" v="801279" />
	</node>
	<node lat="63.2516944436741" lon="8.273163890707197" id="-6568">
		<tag k="name" v="Holmvika" />
		<tag k="place" v="farm" />
		<tag k="ssr:stedsnr" v="801282" />
	</node>
	<node lat="63.20116110926906" lon="8.69353611567328" id="-6575">
		<tag k="name" v="Leitet" />
		<tag k="place" v="farm" />
		<tag k="ssr:stedsnr" v="809782" />
	</node>
	<node lat="63.20669721900687" lon="8.411752781112767" id="-6576">
		<tag k="name" v="Haltbakkan" />
		<tag k="place" v="farm" />
		<tag k="ssr:stedsnr" v="922002" />
	</node>
	<node lat="63.18683611055753" lon="8.569902775594413" id="-6578">
		<tag k="name" v="Bergfallvika" />
		<tag k="place" v="farm" />
		<tag k="ssr:stedsnr" v="922111" />
	</node>
	<node lat="63.326683330006055" lon="8.705425001191468" id="-6581">
		<tag k="fixme" v="consider place=hamlet" />
		<tag k="name" v="Stemshaug" />
		<tag k="place" v="village" />
		<tag k="ssr:stedsnr" v="922154" />
	</node>
	<node lat="63.32763142664009" lon="8.575368407474938" id="-6582">
		<tag k="fixme" v="consider place=hamlet" />
		<tag k="name" v="Kalland" />
		<tag k="place" v="farm" />
		<tag k="ssr:stedsnr" v="922158" />
	</node>
	<node lat="63.20449999958348" lon="8.405455552342868" id="-6584">
		<tag k="name" v="Dalen" />
		<tag k="place" v="farm" />
		<tag k="ssr:stedsnr" v="922120" />
	</node>
	<node lat="63.19822222658477" lon="8.463169446845729" id="-6585">
		<tag k="historic" v="shieling" />
		<tag k="name" v="Skausetsetra" />
		<tag k="place" v="isolated_dwelling" />
		<tag k="ssr:stedsnr" v="922122" />
	</node>
	<node lat="63.17384722480094" lon="7.936191660219395" id="-6593">
		<tag k="name" v="Botnen" />
		<tag k="place" v="farm" />
		<tag k="ssr:stedsnr" v="922262" />
	</node>
	<node lat="63.40638333622759" lon="8.767450009793055" id="-6601">
		<tag k="name" v="Østrem" />
		<tag k="place" v="farm" />
		<tag k="ssr:stedsnr" v="922649" />
	</node>
	<node lat="63.14892048013523" lon="8.077572453681515" id="-6602">
		<tag k="alt_name" v="Halsneset" />
		<tag k="fixme" v="consider place=hamlet" />
		<tag k="name" v="Halsnes" />
		<tag k="place" v="farm" />
		<tag k="ssr:stedsnr" v="830573" />
	</node>
	<node lat="63.22719722777925" lon="8.500944185011473" id="-6607">
		<tag k="name" v="Mjosundet" />
		<tag k="place" v="farm" />
		<tag k="ssr:stedsnr" v="923055" />
	</node>
	<node lat="63.16108055801311" lon="8.49903333361454" id="-6610">
		<tag k="name" v="Olderskog" />
		<tag k="place" v="farm" />
		<tag k="ssr:stedsnr" v="923085" />
	</node>
	<node lat="63.25326666689587" lon="8.331361108656324" id="-6617">
		<tag k="name" v="Sagvågen" />
		<tag k="place" v="farm" />
		<tag k="ssr:stedsnr" v="923337" />
	</node>
	<node lat="63.25600349997243" lon="8.403675542126031" id="-6620">
		<tag k="fixme" v="consider place=hamlet" />
		<tag k="name" v="Haltbakkan" />
		<tag k="place" v="farm" />
		<tag k="ssr:stedsnr" v="923342" />
	</node>
	<node lat="63.25835330519297" lon="8.50824816567042" id="-6623">
		<tag k="fixme" v="consider place=hamlet" />
		<tag k="name" v="Lurvika" />
		<tag k="place" v="farm" />
		<tag k="ssr:stedsnr" v="923349" />
	</node>
	<node lat="63.16301389293399" lon="7.893650005354166" id="-6633">
		<tag k="name" v="Slettet" />
		<tag k="place" v="farm" />
		<tag k="ssr:stedsnr" v="837177" />
	</node>
	<node lat="63.23508889056186" lon="8.20156110690211" id="-6635">
		<tag k="name" v="Ytre Storbog" />
		<tag k="place" v="isolated_dwelling" />
		<tag k="ssr:stedsnr" v="837581" />
	</node>
	<node lat="63.23142777762279" lon="8.182408325719388" id="-6638">
		<tag k="name" v="Vassli" />
		<tag k="place" v="farm" />
		<tag k="ssr:stedsnr" v="837679" />
	</node>
	<node lat="63.1452337442422" lon="8.084520064558637" id="-6640">
		<tag k="fixme" v="consider place=hamlet" />
		<tag k="name" v="Ersvik" />
		<tag k="place" v="farm" />
		<tag k="ssr:stedsnr" v="837876" />
	</node>
	<node lat="63.19881388832092" lon="7.990897217138934" id="-6644">
		<tag k="fixme" v="consider place=hamlet" />
		<tag k="name" v="Leirøygarden" />
		<tag k="place" v="farm" />
		<tag k="ssr:stedsnr" v="838128" />
	</node>
	<node lat="63.3291000012304" lon="8.433083342099552" id="-6652">
		<tag k="name" v="Postvik" />
		<tag k="place" v="isolated_dwelling" />
		<tag k="ssr:stedsnr" v="838411" />
	</node>
	<node lat="63.20604444661297" lon="8.609366658145158" id="-6669">
		<tag k="name" v="Mettergarden" />
		<tag k="place" v="farm" />
		<tag k="ssr:stedsnr" v="839178" />
	</node>
	<node lat="63.340855557459385" lon="8.769500005861053" id="-6678">
		<tag k="name" v="Neset" />
		<tag k="place" v="farm" />
		<tag k="ssr:stedsnr" v="839593" />
	</node>
	<node lat="63.19038333053131" lon="8.53835278450451" id="-6689">
		<tag k="historic" v="shieling" />
		<tag k="name" v="Bergfallsetra" />
		<tag k="place" v="isolated_dwelling" />
		<tag k="ssr:stedsnr" v="862118" />
	</node>
	<node lat="63.161327777040775" lon="8.40490832890904" id="-6692">
		<tag k="name" v="Sørheim" />
		<tag k="place" v="farm" />
		<tag k="ssr:stedsnr" v="862078" />
	</node>
	<node lat="63.16536666800396" lon="7.917222231977561" id="-6697">
		<tag k="name" v="Jektvika" />
		<tag k="place" v="farm" />
		<tag k="ssr:stedsnr" v="862311" />
	</node>
	<node lat="63.16074092425059" lon="7.945501704908134" id="-6698">
		<tag k="fixme" v="consider place=hamlet" />
		<tag k="name" v="Hannasvik" />
		<tag k="place" v="farm" />
		<tag k="ssr:stedsnr" v="862314" />
	</node>
	<node lat="63.258157471882676" lon="8.271345231506869" id="-6700">
		<tag k="fixme" v="consider place=hamlet" />
		<tag k="name" v="Høvika" />
		<tag k="place" v="farm" />
		<tag k="ssr:stedsnr" v="862318" />
	</node>
	<node lat="63.25900000113057" lon="8.37425277685034" id="-6704">
		<tag k="name" v="Myrset" />
		<tag k="place" v="farm" />
		<tag k="ssr:stedsnr" v="862322" />
	</node>
	<node lat="63.31646944675277" lon="8.641077784050193" id="-6705">
		<tag k="name" v="Glomstad" />
		<tag k="place" v="farm" />
		<tag k="ssr:stedsnr" v="862350" />
	</node>
	<node lat="63.229966666344275" lon="8.135047221023383" id="-6713">
		<tag k="name" v="Solhaug" />
		<tag k="place" v="farm" />
		<tag k="ssr:stedsnr" v="862401" />
	</node>
	<node lat="63.26042500438992" lon="8.302886111893706" id="-6716">
		<tag k="name" v="Setervika" />
		<tag k="place" v="farm" />
		<tag k="ssr:stedsnr" v="862301" />
	</node>
	<node lat="63.4091388928067" lon="8.718549993180213" id="-6724">
		<tag k="name" v="Myra" />
		<tag k="place" v="farm" />
		<tag k="ssr:stedsnr" v="862652" />
	</node>
	<node lat="63.3305833343878" lon="8.563802782180696" id="-6732">
		<tag k="name" v="Haugen" />
		<tag k="place" v="farm" />
		<tag k="ssr:stedsnr" v="931481" />
	</node>
	<node lat="63.412191667238275" lon="8.684380551444944" id="-6737">
		<tag k="building" v="industrial" />
		<tag k="industrial" v="factory" />
		<tag k="name" v="Tjeldbergodden industrianlegg" />
		<tag k="old_name" v="StatoilHydro Tjeldbergodden" />
		<tag k="ssr:stedsnr" v="935170" />
	</node>
	<node lat="63.193994445428345" lon="7.993705548075083" id="-6744">
		<tag k="name" v="Haugatun" />
		<tag k="place" v="farm" />
		<tag k="ssr:stedsnr" v="898012" />
	</node>
	<node lat="63.19393055749296" lon="7.9870527819236" id="-6745">
		<tag k="name" v="Myrvang" />
		<tag k="place" v="farm" />
		<tag k="ssr:stedsnr" v="898013" />
	</node>
	<node lat="63.2397555558384" lon="8.202466657319228" id="-6753">
		<tag k="name" v="Vallund" />
		<tag k="place" v="farm" />
		<tag k="ssr:stedsnr" v="898572" />
	</node>
	<node lat="63.376163889774354" lon="8.6467333314811" id="-6788">
		<tag k="name" v="Stranda" />
		<tag k="place" v="farm" />
		<tag k="ssr:stedsnr" v="900811" />
	</node>
	<node lat="63.34605555786538" lon="8.85233334169962" id="-6791">
		<tag k="name" v="Åsly" />
		<tag k="place" v="isolated_dwelling" />
		<tag k="ssr:stedsnr" v="900852" />
	</node>
	<node lat="63.21330555376631" lon="8.310047227007786" id="-6796">
		<tag k="fixme" v="consider place=hamlet" />
		<tag k="name" v="Lia" />
		<tag k="place" v="farm" />
		<tag k="ssr:stedsnr" v="922008" />
	</node>
	<node lat="63.27552777381187" lon="8.575813890567778" id="-6801">
		<tag k="name" v="Skogly" />
		<tag k="place" v="farm" />
		<tag k="ssr:stedsnr" v="922248" />
	</node>
	<node lat="63.21382499849087" lon="8.144797229401982" id="-6810">
		<tag k="name" v="Bakken" />
		<tag k="place" v="farm" />
		<tag k="ssr:stedsnr" v="923522" />
	</node>
	<node lat="63.220189680662095" lon="8.140797226222238" id="-6811">
		<tag k="fixme" v="consider place=hamlet" />
		<tag k="name" v="Kalvika" />
		<tag k="place" v="farm" />
		<tag k="ssr:stedsnr" v="923524" />
	</node>
	<node lat="63.28911388503808" lon="8.827836118679881" id="-6814">
		<tag k="historic" v="shieling" />
		<tag k="name" v="Vestsesætra" />
		<tag k="place" v="isolated_dwelling" />
		<tag k="ssr:stedsnr" v="923611" />
	</node>
	<node lat="63.351575002387484" lon="8.83360000696746" id="-6815">
		<tag k="name" v="Haugen" />
		<tag k="place" v="farm" />
		<tag k="ssr:stedsnr" v="923722" />
	</node>
	<node lat="63.217975002897276" lon="8.139855563047513" id="-6834">
		<tag k="name" v="Solstein" />
		<tag k="place" v="farm" />
		<tag k="ssr:stedsnr" v="958689" />
	</node>
	<node lat="63.23066111222169" lon="8.135013889021362" id="-6835">
		<tag k="name" v="Utheim" />
		<tag k="place" v="farm" />
		<tag k="ssr:stedsnr" v="958691" />
	</node>
	<node lat="63.162988889310185" lon="8.168986111942262" id="-6849">
		<tag k="name" v="Trøa" />
		<tag k="place" v="farm" />
		<tag k="ssr:stedsnr" v="959541" />
	</node>
	<node lat="63.369258334322666" lon="8.694583329168232" id="-6875">
		<tag k="name" v="Myra" />
		<tag k="place" v="farm" />
		<tag k="ssr:stedsnr" v="960810" />
	</node>
	<node lat="63.28796666590766" lon="8.531580563271772" id="-6877">
		<tag k="name" v="Nedre Våg" />
		<tag k="place" v="farm" />
		<tag k="ssr:stedsnr" v="960785" />
	</node>
	<node lat="63.21099444141328" lon="8.27633610893253" id="-6883">
		<tag k="fixme" v="consider tourism=alpine_hut or tourism=chalet" />
		<tag k="name" v="Imarbu" />
		<tag k="ssr:stedsnr" v="964998" />
		<tag k="tourism" v="wilderness_hut" />
	</node>
	<node lat="63.27490031515584" lon="8.356375078162255" id="-6884">
		<tag k="fixme" v="consider place=hamlet" />
		<tag k="name" v="Jøssøya" />
		<tag k="place" v="farm" />
		<tag k="ssr:stedsnr" v="977727" />
	</node>
	<node lat="63.250987604018384" lon="8.30855155602891" id="-6885">
		<tag k="fixme" v="consider place=hamlet" />
		<tag k="name" v="Vinsternes" />
		<tag k="place" v="farm" />
		<tag k="ssr:stedsnr" v="977729" />
	</node>
	<node lat="63.23935467321907" lon="8.232632179978502" id="-6886">
		<tag k="name" v="Kunna" />
		<tag k="place" v="locality" />
		<tag k="ssr:stedsnr" v="977736" />
	</node>
	<node lat="63.176908184524805" lon="7.83414655317534" id="-6887">
		<tag k="fixme" v="consider place=hamlet" />
		<tag k="name" v="Langholmen" />
		<tag k="place" v="farm" />
		<tag k="ssr:stedsnr" v="977741" />
	</node>
	<node lat="63.20093444532903" lon="8.022152366526889" id="-6888">
		<tag k="fixme" v="consider place=hamlet" />
		<tag k="name" v="Leira" />
		<tag k="place" v="farm" />
		<tag k="ssr:stedsnr" v="977745" />
	</node>
	<node lat="63.266226235733576" lon="8.530285490655343" id="-6889">
		<tag k="fixme" v="consider place=hamlet" />
		<tag k="name" v="Aure" />
		<tag k="place" v="farm" />
		<tag k="ssr:stedsnr" v="977684" />
	</node>
	<node lat="63.23086944837988" lon="8.20638610520239" id="-6890">
		<tag k="name" v="Solstad" />
		<tag k="place" v="farm" />
		<tag k="ssr:stedsnr" v="229062" />
	</node>
	<node lat="63.15007494944701" lon="7.962468017066295" id="-6902">
		<tag k="fixme" v="consider place=hamlet" />
		<tag k="name" v="Leirvåg" />
		<tag k="place" v="farm" />
		<tag k="ssr:stedsnr" v="12310" />
	</node>
	<node lat="63.256397223599734" lon="8.56226110471812" id="-6903">
		<tag k="name" v="Rimstad" />
		<tag k="place" v="farm" />
		<tag k="ssr:stedsnr" v="12312" />
	</node>
	<node lat="63.34210833265001" lon="8.46030555481593" id="-6910">
		<tag k="fixme" v="multiple name tags, choose one and add the other to alt_name" />
		<tag k="name" v="Kåvika;Kåvik" />
		<tag k="place" v="farm" />
		<tag k="ssr:stedsnr" v="12150" />
	</node>
	<node lat="63.244947224605546" lon="8.290736120932127" id="-6911">
		<tag k="name" v="Vågahaugen" />
		<tag k="place" v="farm" />
		<tag k="ssr:stedsnr" v="12196" />
	</node>
	<node lat="63.30925000169571" lon="8.577136107995099" id="-6912">
		<tag k="name" v="Festbugen" />
		<tag k="place" v="farm" />
		<tag k="ssr:stedsnr" v="12326" />
	</node>
	<node lat="63.24517429213486" lon="8.188521223512325" id="-6917">
		<tag k="fixme" v="consider place=hamlet" />
		<tag k="name" v="Solskjel" />
		<tag k="place" v="farm" />
		<tag k="ssr:stedsnr" v="12365" />
	</node>
	<node lat="63.224281045954655" lon="8.213233221491377" id="-6923">
		<tag k="fixme" v="consider place=hamlet" />
		<tag k="name" v="Nordheim" />
		<tag k="place" v="farm" />
		<tag k="ssr:stedsnr" v="12472" />
	</node>
	<node lat="63.19987222573946" lon="7.9643611069783296" id="-6924">
		<tag k="name" v="Bukta" />
		<tag k="place" v="isolated_dwelling" />
		<tag k="ssr:stedsnr" v="12474" />
	</node>
	<node lat="63.199227775855704" lon="7.992394441879115" id="-6925">
		<tag k="name" v="Øygarden" />
		<tag k="place" v="farm" />
		<tag k="ssr:stedsnr" v="12476" />
	</node>
	<node lat="63.41863888573398" lon="8.739588882235136" id="-6930">
		<tag k="name" v="Tuvik" />
		<tag k="place" v="farm" />
		<tag k="ssr:stedsnr" v="12414" />
	</node>
	<node lat="63.34495037156507" lon="8.813427814253819" id="-6935">
		<tag k="fixme" v="consider place=hamlet" />
		<tag k="name" v="Nerbakk" />
		<tag k="place" v="farm" />
		<tag k="ssr:stedsnr" v="12715" />
	</node>
	<node lat="63.21755833266022" lon="8.41861388437291" id="-6937">
		<tag k="name" v="Grønenga" />
		<tag k="place" v="farm" />
		<tag k="ssr:stedsnr" v="13017" />
	</node>
	<node lat="63.19761666420913" lon="7.9707666656467735" id="-6946">
		<tag k="name" v="Vestnes" />
		<tag k="place" v="farm" />
		<tag k="ssr:stedsnr" v="49117" />
	</node>
	<node lat="63.14793611007307" lon="8.091663891980843" id="-6955">
		<tag k="name" v="Sjøholt" />
		<tag k="place" v="farm" />
		<tag k="ssr:stedsnr" v="47856" />
	</node>
	<node lat="63.38358055568795" lon="8.670733340362338" id="-6994">
		<tag k="alt_name" v="Kvennavik" />
		<tag k="name" v="Kvernavika" />
		<tag k="place" v="farm" />
		<tag k="ssr:stedsnr" v="48851" />
	</node>
	<node lat="63.19849721915467" lon="7.980449995506971" id="-6997">
		<tag k="name" v="Nyheim" />
		<tag k="place" v="farm" />
		<tag k="ssr:stedsnr" v="49126" />
	</node>
	<node lat="63.324916667103565" lon="8.406913884273788" id="-7008">
		<tag k="name" v="Vollan" />
		<tag k="place" v="farm" />
		<tag k="ssr:stedsnr" v="49466" />
	</node>
	<node lat="63.158563888540726" lon="7.968355548710535" id="-7009">
		<tag k="name" v="Skogly" />
		<tag k="place" v="farm" />
		<tag k="ssr:stedsnr" v="229166" />
	</node>
	<node lat="63.229527776306234" lon="8.716033329635046" id="-7046">
		<tag k="historic" v="shieling" />
		<tag k="name" v="Råsetra" />
		<tag k="place" v="isolated_dwelling" />
		<tag k="ssr:stedsnr" v="50545" />
	</node>
	<node lat="63.308374998779904" lon="8.586477779686302" id="-7048">
		<tag k="name" v="Nygård" />
		<tag k="place" v="farm" />
		<tag k="ssr:stedsnr" v="50559" />
	</node>
	<node lat="63.32279712085213" lon="8.395697605135547" id="-7069">
		<tag k="fixme" v="consider place=hamlet" />
		<tag k="name" v="Grisvågen" />
		<tag k="place" v="farm" />
		<tag k="ssr:stedsnr" v="73165" />
	</node>
	<node lat="63.32576111542883" lon="8.50162499012164" id="-7070">
		<tag k="name" v="Tømmernes" />
		<tag k="place" v="farm" />
		<tag k="ssr:stedsnr" v="73172" />
	</node>
	<node lat="63.333900003909825" lon="8.465874991131292" id="-7074">
		<tag k="name" v="Åsen" />
		<tag k="place" v="farm" />
		<tag k="ssr:stedsnr" v="73141" />
	</node>
	<node lat="63.28142777489831" lon="8.632680550270758" id="-7081">
		<tag k="historic" v="shieling" />
		<tag k="name" v="Aurdalssetra" />
		<tag k="place" v="isolated_dwelling" />
		<tag k="ssr:stedsnr" v="73250" />
	</node>
	<node lat="63.284952775751236" lon="8.688102775526614" id="-7082">
		<tag k="historic" v="shieling" />
		<tag k="name" v="Sølømen" />
		<tag k="place" v="isolated_dwelling" />
		<tag k="ssr:stedsnr" v="73260" />
	</node>
	<node lat="63.27836849539391" lon="8.507536428829997" id="-7084">
		<tag k="fixme" v="consider place=hamlet" />
		<tag k="name" v="Barlaupen" />
		<tag k="place" v="farm" />
		<tag k="ssr:stedsnr" v="73271" />
	</node>
	<node lat="63.17619911668333" lon="7.920241875439711" id="-7085">
		<tag k="name" v="Fitjan" />
		<tag k="old_name" v="Fikkan" />
		<tag k="place" v="farm" />
		<tag k="ssr:stedsnr" v="73285" />
	</node>
	<node lat="63.25264444251333" lon="8.477291675233795" id="-7087">
		<tag k="fixme" v="consider place=hamlet" />
		<tag k="name" v="Giset" />
		<tag k="place" v="farm" />
		<tag k="ssr:stedsnr" v="73299" />
	</node>
	<node lat="63.252466669926584" lon="8.490519443737528" id="-7088">
		<tag k="fixme" v="multiple name tags, choose one and add the other to alt_name" />
		<tag k="name" v="Strand;Stranda" />
		<tag k="place" v="farm" />
		<tag k="ssr:stedsnr" v="73305" />
	</node>
	<node lat="63.15749444485119" lon="7.954183327615283" id="-7089">
		<tag k="fixme" v="consider place=hamlet" />
		<tag k="name" v="Tømmervåg" />
		<tag k="place" v="village" />
		<tag k="ssr:stedsnr" v="73310" />
	</node>
	<node lat="63.32314911731704" lon="8.47082015151594" id="-7092">
		<tag k="alt_name" v="Gjøten" />
		<tag k="fixme" v="consider place=hamlet" />
		<tag k="name" v="Gjøta" />
		<tag k="place" v="farm" />
		<tag k="ssr:stedsnr" v="73320" />
	</node>
	<node lat="63.30797777383858" lon="8.43514445208583" id="-7093">
		<tag k="name" v="Gjerdavika" />
		<tag k="place" v="farm" />
		<tag k="ssr:stedsnr" v="73335" />
	</node>
	<node lat="63.336680556329284" lon="8.76541667475978" id="-7097">
		<tag k="name" v="Åsen" />
		<tag k="place" v="farm" />
		<tag k="ssr:stedsnr" v="73554" />
	</node>
	<node lat="63.34090277846709" lon="8.779544442904223" id="-7098">
		<tag k="name" v="Myrvang" />
		<tag k="place" v="farm" />
		<tag k="ssr:stedsnr" v="73559" />
	</node>
	<node lat="63.33211388568285" lon="8.735916674264239" id="-7105">
		<tag k="name" v="Gjelahamn" />
		<tag k="place" v="farm" />
		<tag k="ssr:stedsnr" v="73572" />
	</node>
	<node lat="63.216227775450406" lon="8.045469437964648" id="-7107">
		<tag k="name" v="Sørvika" />
		<tag k="place" v="farm" />
		<tag k="ssr:stedsnr" v="73500" />
	</node>
	<node lat="63.35423611486601" lon="8.861661113063983" id="-7109">
		<tag k="name" v="Mebakkan" />
		<tag k="place" v="farm" />
		<tag k="ssr:stedsnr" v="73699" />
	</node>
	<node lat="63.41359191790706" lon="8.711407468811911" id="-7110">
		<tag k="fixme" v="multiple name tags, choose one and add the other to alt_name" />
		<tag k="name" v="Buhaugen;Sagmestervik" />
		<tag k="place" v="farm" />
		<tag k="ssr:stedsnr" v="74043" />
	</node>
	<node lat="63.19792222554174" lon="8.759427772563173" id="-7114">
		<tag k="historic" v="shieling" />
		<tag k="name" v="Ringstad" />
		<tag k="place" v="isolated_dwelling" />
		<tag k="ssr:stedsnr" v="81661" />
	</node>
	<node lat="63.1982416627816" lon="7.988383333662763" id="-7128">
		<tag k="name" v="Strandli" />
		<tag k="place" v="farm" />
		<tag k="ssr:stedsnr" v="109093" />
	</node>
	<node lat="63.345177778726224" lon="8.487227775446277" id="-7129">
		<tag k="name" v="Åsheim" />
		<tag k="place" v="farm" />
		<tag k="ssr:stedsnr" v="109247" />
	</node>
	<node lat="63.15931111016589" lon="8.473858332797404" id="-7136">
		<tag k="name" v="Espenes" />
		<tag k="place" v="isolated_dwelling" />
		<tag k="ssr:stedsnr" v="109413" />
	</node>
	<node lat="63.219513884588395" lon="8.054877768899958" id="-7146">
		<tag k="name" v="Brandsvikhaugen" />
		<tag k="place" v="farm" />
		<tag k="ssr:stedsnr" v="109568" />
	</node>
	<node lat="63.2070611145464" lon="8.036697219027817" id="-7149">
		<tag k="name" v="Målen" />
		<tag k="place" v="farm" />
		<tag k="ssr:stedsnr" v="109695" />
	</node>
	<node lat="63.25325833399715" lon="8.329511116840058" id="-7153">
		<tag k="name" v="Sagvågen" />
		<tag k="place" v="hamlet" />
		<tag k="ssr:stedsnr" v="109713" />
	</node>
	<node lat="63.16069166530582" lon="8.403177772028418" id="-7157">
		<tag k="name" v="Vika" />
		<tag k="place" v="isolated_dwelling" />
		<tag k="ssr:stedsnr" v="109797" />
	</node>
	<node lat="63.22340833120949" lon="8.210547231315493" id="-7160">
		<tag k="name" v="Søgarden" />
		<tag k="place" v="farm" />
		<tag k="ssr:stedsnr" v="110733" />
	</node>
	<node lat="63.38829721786009" lon="8.57543888663781" id="-7164">
		<tag k="name" v="Nyengen" />
		<tag k="place" v="farm" />
		<tag k="ssr:stedsnr" v="110836" />
	</node>
	<node lat="63.20612183894054" lon="8.290432653727052" id="-7166">
		<tag k="name" v="Trommå" />
		<tag k="place" v="farm" />
		<tag k="ssr:stedsnr" v="110030" />
	</node>
	<node lat="63.210538886725516" lon="8.717627781955501" id="-7200">
		<tag k="historic" v="shieling" />
		<tag k="name" v="Heimsetra" />
		<tag k="place" v="isolated_dwelling" />
		<tag k="ssr:stedsnr" v="111394" />
	</node>
	<node lat="63.380797224496256" lon="8.625347223764239" id="-7201">
		<tag k="name" v="Havnebugen" />
		<tag k="place" v="farm" />
		<tag k="ssr:stedsnr" v="111063" />
	</node>
	<node lat="63.2358555547745" lon="8.57367221996958" id="-7206">
		<tag k="alt_name" v="Torset søndre" />
		<tag k="name" v="Søndre Torset" />
		<tag k="place" v="farm" />
		<tag k="ssr:stedsnr" v="111362" />
	</node>
	<node lat="63.344941665054044" lon="8.797494452697046" id="-7218">
		<tag k="name" v="Fennerommet" />
		<tag k="place" v="farm" />
		<tag k="ssr:stedsnr" v="112855" />
	</node>
	<node lat="63.24848454761603" lon="8.400140856194271" id="-7224">
		<tag k="fixme" v="consider place=hamlet" />
		<tag k="name" v="Stavneset" />
		<tag k="place" v="farm" />
		<tag k="ssr:stedsnr" v="133049" />
	</node>
	<node lat="63.33606944615164" lon="8.694677769213058" id="-7225">
		<tag k="name" v="Bjørnås" />
		<tag k="place" v="farm" />
		<tag k="ssr:stedsnr" v="133128" />
	</node>
	<node lat="63.33648611059282" lon="8.458058328476652" id="-7226">
		<tag k="fixme" v="consider place=hamlet" />
		<tag k="name" v="Åkvika" />
		<tag k="place" v="village" />
		<tag k="ssr:stedsnr" v="133129" />
	</node>
	<node lat="63.31783862172185" lon="8.710602563303091" id="-7232">
		<tag k="fixme" v="consider place=hamlet" />
		<tag k="name" v="Kammen" />
		<tag k="place" v="farm" />
		<tag k="ssr:stedsnr" v="133287" />
	</node>
	<node lat="63.34129444605898" lon="8.807927779199392" id="-7234">
		<tag k="name" v="Dalen" />
		<tag k="place" v="farm" />
		<tag k="ssr:stedsnr" v="133493" />
	</node>
	<node lat="63.15076944691034" lon="8.106547213512782" id="-7238">
		<tag k="name" v="Myrvang" />
		<tag k="place" v="farm" />
		<tag k="ssr:stedsnr" v="133231" />
	</node>
	<node lat="63.161704291992194" lon="7.899700460086476" id="-7240">
		<tag k="fixme" v="consider place=hamlet" />
		<tag k="name" v="Golma" />
		<tag k="place" v="farm" />
		<tag k="ssr:stedsnr" v="133254" />
	</node>
	<node lat="63.29455555368628" lon="8.533691658243747" id="-7243">
		<tag k="name" v="Vågsand" />
		<tag k="place" v="farm" />
		<tag k="ssr:stedsnr" v="133335" />
	</node>
	<node lat="63.21781666077319" lon="8.43079447531317" id="-7251">
		<tag k="fixme" v="consider place=hamlet" />
		<tag k="name" v="Nersetra" />
		<tag k="place" v="farm" />
		<tag k="ssr:stedsnr" v="134029" />
	</node>
	<node lat="63.377491663412556" lon="8.597991658504304" id="-7252">
		<tag k="name" v="Åsheim" />
		<tag k="place" v="farm" />
		<tag k="ssr:stedsnr" v="134226" />
	</node>
	<node lat="63.38184999922071" lon="8.671949993959082" id="-7254">
		<tag k="name" v="Åsen" />
		<tag k="place" v="farm" />
		<tag k="ssr:stedsnr" v="134234" />
	</node>
	<node lat="63.39029999770877" lon="8.579644439573327" id="-7255">
		<tag k="alt_name" v="Myra" />
		<tag k="name" v="Nordstrand" />
		<tag k="place" v="farm" />
		<tag k="ssr:stedsnr" v="134245" />
	</node>
	<node lat="63.20857777922299" lon="8.129044448014904" id="-7284">
		<tag k="name" v="Resset" />
		<tag k="place" v="isolated_dwelling" />
		<tag k="ssr:stedsnr" v="169627" />
	</node>
	<node lat="63.20521389338947" lon="8.036819441832819" id="-7288">
		<tag k="name" v="Øvregård" />
		<tag k="place" v="farm" />
		<tag k="ssr:stedsnr" v="169733" />
	</node>
	<node lat="63.205902780259265" lon="8.043705550281656" id="-7290">
		<tag k="name" v="Furuly" />
		<tag k="place" v="farm" />
		<tag k="ssr:stedsnr" v="169740" />
	</node>
	<node lat="63.20039166714245" lon="8.03496943897022" id="-7292">
		<tag k="name" v="Lyngmo" />
		<tag k="place" v="farm" />
		<tag k="ssr:stedsnr" v="169746" />
	</node>
	<node lat="63.25359722524562" lon="8.544350009076105" id="-7299">
		<tag k="name" v="Kjerringneset" />
		<tag k="place" v="farm" />
		<tag k="ssr:stedsnr" v="170099" />
	</node>
	<node lat="63.38116944375952" lon="8.596008342923064" id="-7308">
		<tag k="name" v="Vorphaugen" />
		<tag k="place" v="farm" />
		<tag k="ssr:stedsnr" v="171083" />
	</node>
	<node lat="63.225954117906475" lon="8.250503936529777" id="-7322">
		<tag k="fixme" v="consider place=hamlet" />
		<tag k="name" v="Jørnøya" />
		<tag k="place" v="farm" />
		<tag k="ssr:stedsnr" v="170736" />
	</node>
	<node lat="63.404611113517" lon="8.71741111231316" id="-7332">
		<tag k="name" v="Solbakken" />
		<tag k="place" v="isolated_dwelling" />
		<tag k="ssr:stedsnr" v="171326" />
	</node>
	<node lat="63.32553611006611" lon="8.835836114285424" id="-7342">
		<tag k="historic" v="shieling" />
		<tag k="name" v="Litlsetra" />
		<tag k="place" v="isolated_dwelling" />
		<tag k="ssr:stedsnr" v="171570" />
	</node>
	<node lat="63.159450000386556" lon="8.020513897376619" id="-7360">
		<tag k="fixme" v="consider tourism=alpine_hut or tourism=chalet" />
		<tag k="name" v="Trollstua" />
		<tag k="ssr:stedsnr" v="174685" />
		<tag k="tourism" v="wilderness_hut" />
	</node>
	<node lat="63.1611277763933" lon="8.410750006067406" id="-7361">
		<tag k="name" v="Storslett" />
		<tag k="place" v="farm" />
		<tag k="ssr:stedsnr" v="194088" />
	</node>
	<node lat="63.188555551646665" lon="8.32432778255573" id="-7366">
		<tag k="name" v="Ytre Fuglvågen" />
		<tag k="place" v="farm" />
		<tag k="ssr:stedsnr" v="194123" />
	</node>
	<node lat="63.26751388754262" lon="8.389091660680734" id="-7371">
		<tag k="fixme" v="consider place=hamlet" />
		<tag k="name" v="Øygarden" />
		<tag k="place" v="farm" />
		<tag k="ssr:stedsnr" v="194256" />
	</node>
	<node lat="63.241858334996735" lon="8.643061105262749" id="-7378">
		<tag k="historic" v="shieling" />
		<tag k="name" v="Bjøringsetra" />
		<tag k="place" v="isolated_dwelling" />
		<tag k="ssr:stedsnr" v="194037" />
	</node>
	<node lat="63.24317500414567" lon="8.38859445267244" id="-7379">
		<tag k="name" v="Straumen" />
		<tag k="place" v="farm" />
		<tag k="ssr:stedsnr" v="194049" />
	</node>
	<node lat="63.24505555691642" lon="8.389888896144802" id="-7380">
		<tag k="name" v="Lauvset" />
		<tag k="place" v="farm" />
		<tag k="ssr:stedsnr" v="194055" />
	</node>
	<node lat="63.329091668198" lon="8.69601111457569" id="-7390">
		<tag k="name" v="Hammaren" />
		<tag k="place" v="farm" />
		<tag k="ssr:stedsnr" v="194167" />
	</node>
	<node lat="63.285527779704246" lon="8.680380553460179" id="-7395">
		<tag k="historic" v="shieling" />
		<tag k="name" v="Nysetra" />
		<tag k="place" v="isolated_dwelling" />
		<tag k="ssr:stedsnr" v="194231" />
	</node>
	<node lat="63.25595833587839" lon="8.529752785347881" id="-7400">
		<tag k="name" v="Gylthalsen" />
		<tag k="place" v="farm" />
		<tag k="ssr:stedsnr" v="194278" />
	</node>
	<node lat="63.22654166700454" lon="8.134074993127653" id="-7404">
		<tag k="name" v="Elva" />
		<tag k="place" v="farm" />
		<tag k="ssr:stedsnr" v="194355" />
	</node>
	<node lat="63.20104166460833" lon="8.037719440152259" id="-7408">
		<tag k="name" v="Skogstad" />
		<tag k="place" v="farm" />
		<tag k="ssr:stedsnr" v="194432" />
	</node>
	<node lat="63.19708055160565" lon="8.0319277732925" id="-7409">
		<tag k="name" v="Vangen" />
		<tag k="place" v="farm" />
		<tag k="ssr:stedsnr" v="194433" />
	</node>
	<node lat="63.336202778941875" lon="8.764480560344476" id="-7412">
		<tag k="name" v="Solheim" />
		<tag k="place" v="farm" />
		<tag k="ssr:stedsnr" v="194481" />
	</node>
	<node lat="63.22549166615197" lon="8.521277774078838" id="-7418">
		<tag k="name" v="Sanden" />
		<tag k="place" v="farm" />
		<tag k="ssr:stedsnr" v="195042" />
	</node>
	<node lat="63.218727088149116" lon="8.585521590070169" id="-7420">
		<tag k="fixme" v="consider place=hamlet" />
		<tag k="name" v="Haugen" />
		<tag k="place" v="farm" />
		<tag k="ssr:stedsnr" v="195025" />
	</node>
	<node lat="63.38101666485606" lon="8.59018334255217" id="-7424">
		<tag k="name" v="Skogly" />
		<tag k="place" v="farm" />
		<tag k="ssr:stedsnr" v="195221" />
	</node>
	<node lat="63.387405552484985" lon="8.56574165772674" id="-7427">
		<tag k="name" v="Rønsvika" />
		<tag k="place" v="farm" />
		<tag k="ssr:stedsnr" v="195241" />
	</node>
	<node lat="63.20363055285445" lon="8.039502784074081" id="-7428">
		<tag k="name" v="Rønningen" />
		<tag k="place" v="farm" />
		<tag k="ssr:stedsnr" v="195522" />
	</node>
	<node lat="63.20823888634283" lon="8.194777785453377" id="-7431">
		<tag k="name" v="Solem" />
		<tag k="place" v="farm" />
		<tag k="ssr:stedsnr" v="195527" />
	</node>
	<node lat="63.2331555523464" lon="8.102763885660856" id="-7433">
		<tag k="name" v="Hyttneset" />
		<tag k="place" v="farm" />
		<tag k="ssr:stedsnr" v="207823" />
	</node>
	<node lat="63.21855555679081" lon="8.434030565393698" id="-7435">
		<tag k="fixme" v="consider tourism=alpine_hut or tourism=chalet" />
		<tag k="name" v="Nersetra" />
		<tag k="ssr:stedsnr" v="219019" />
		<tag k="tourism" v="wilderness_hut" />
	</node>
	<node lat="63.20563333396507" lon="8.195433323661472" id="-7442">
		<tag k="name" v="Brekkvoll" />
		<tag k="place" v="farm" />
		<tag k="ssr:stedsnr" v="291180" />
	</node>
	<node lat="63.16479444604317" lon="8.472247231178102" id="-7462">
		<tag k="historic" v="shieling" />
		<tag k="name" v="Gjerdesetra" />
		<tag k="place" v="isolated_dwelling" />
		<tag k="ssr:stedsnr" v="291458" />
	</node>
	<node lat="63.22778611287205" lon="8.203061106766313" id="-7472">
		<tag k="fixme" v="consider place=hamlet" />
		<tag k="name" v="Solskjeløygarden" />
		<tag k="place" v="farm" />
		<tag k="ssr:stedsnr" v="291735" />
	</node>
	<node lat="63.20798888939671" lon="8.048750003544216" id="-7473">
		<tag k="leisure" v="pitch" />
		<tag k="name" v="Høgda" />
		<tag k="ssr:stedsnr" v="291746" />
	</node>
	<node lat="63.22309166843128" lon="8.21599722505475" id="-7476">
		<tag k="name" v="Vassmyra" />
		<tag k="place" v="farm" />
		<tag k="ssr:stedsnr" v="291723" />
	</node>
	<node lat="63.32157500401765" lon="8.565016671913348" id="-7485">
		<tag k="name" v="Rotnesset" />
		<tag k="place" v="farm" />
		<tag k="ssr:stedsnr" v="292009" />
	</node>
	<node lat="63.36339999866134" lon="8.654394434994295" id="-7488">
		<tag k="historic" v="shieling" />
		<tag k="name" v="Gammelsetra" />
		<tag k="place" v="isolated_dwelling" />
		<tag k="ssr:stedsnr" v="292104" />
	</node>
	<node lat="63.14469722599605" lon="7.9919388866507175" id="-7498">
		<tag k="name" v="Bjørkvang" />
		<tag k="place" v="farm" />
		<tag k="ssr:stedsnr" v="292251" />
	</node>
	<node lat="63.269519892429514" lon="8.460334214111795" id="-7503">
		<tag k="fixme" v="consider place=hamlet" />
		<tag k="name" v="Ånesbug" />
		<tag k="place" v="farm" />
		<tag k="ssr:stedsnr" v="292323" />
	</node>
	<node lat="63.31759120919836" lon="8.636646494578143" id="-7506">
		<tag k="fixme" v="consider place=hamlet" />
		<tag k="name" v="Glomstad" />
		<tag k="place" v="farm" />
		<tag k="ssr:stedsnr" v="292537" />
	</node>
	<node lat="63.34121111072932" lon="8.687316658653286" id="-7526">
		<tag k="name" v="Vihalsbukt" />
		<tag k="place" v="isolated_dwelling" />
		<tag k="ssr:stedsnr" v="293104" />
	</node>
	<node lat="63.30138055783936" lon="8.535605552250303" id="-7531">
		<tag k="name" v="Eidet" />
		<tag k="place" v="farm" />
		<tag k="ssr:stedsnr" v="293344" />
	</node>
	<node lat="63.34468055657432" lon="8.836394451887347" id="-7557">
		<tag k="name" v="Myren" />
		<tag k="place" v="isolated_dwelling" />
		<tag k="ssr:stedsnr" v="293856" />
	</node>
	<node lat="63.246119445271695" lon="8.280933330278799" id="-7563">
		<tag k="name" v="Bergsli" />
		<tag k="place" v="farm" />
		<tag k="ssr:stedsnr" v="315183" />
	</node>
	<node lat="63.335919443477955" lon="8.64500833201122" id="-7567">
		<tag k="historic" v="shieling" />
		<tag k="name" v="Romundsetsetra" />
		<tag k="place" v="isolated_dwelling" />
		<tag k="ssr:stedsnr" v="315128" />
	</node>
	<node lat="63.16649166798412" lon="7.942875001236281" id="-7568">
		<tag k="name" v="Myrvoll" />
		<tag k="place" v="farm" />
		<tag k="ssr:stedsnr" v="315277" />
	</node>
	<node lat="63.32349756072911" lon="8.460875590187033" id="-7569">
		<tag k="name" v="Bugen" />
		<tag k="place" v="farm" />
		<tag k="ssr:stedsnr" v="315290" />
	</node>
	<node lat="63.3658364104254" lon="8.513184387792013" id="-7570">
		<tag k="fixme" v="consider place=hamlet" />
		<tag k="name" v="Finnset" />
		<tag k="place" v="farm" />
		<tag k="ssr:stedsnr" v="315229" />
	</node>
	<node lat="63.19560555434058" lon="8.034183338842867" id="-7576">
		<tag k="name" v="Fjellvang" />
		<tag k="place" v="farm" />
		<tag k="ssr:stedsnr" v="315425" />
	</node>
	<node lat="63.20057499622964" lon="8.154174998448578" id="-7577">
		<tag k="name" v="Røstet" />
		<tag k="place" v="farm" />
		<tag k="ssr:stedsnr" v="315430" />
	</node>
	<node lat="63.33349444444551" lon="8.755577775194723" id="-7580">
		<tag k="name" v="Åsheim" />
		<tag k="place" v="farm" />
		<tag k="ssr:stedsnr" v="315539" />
	</node>
	<node lat="63.22672500039098" lon="8.218616674639659" id="-7589">
		<tag k="name" v="Strand" />
		<tag k="place" v="farm" />
		<tag k="ssr:stedsnr" v="316035" />
	</node>
	<node lat="63.39816111552358" lon="8.703127779126046" id="-7593">
		<tag k="name" v="Lidarheim" />
		<tag k="place" v="farm" />
		<tag k="ssr:stedsnr" v="316233" />
	</node>
	<node lat="63.14687500213259" lon="7.999272223882484" id="-7595">
		<tag k="name" v="Skaret" />
		<tag k="place" v="farm" />
		<tag k="ssr:stedsnr" v="316284" />
	</node>
	<node lat="63.31695589498716" lon="8.660707794060585" id="-7597">
		<tag k="fixme" v="consider place=hamlet" />
		<tag k="name" v="Melan" />
		<tag k="place" v="farm" />
		<tag k="ssr:stedsnr" v="316377" />
	</node>
	<node lat="63.32483333239009" lon="8.678327771314203" id="-7598">
		<tag k="name" v="Øygarden" />
		<tag k="place" v="farm" />
		<tag k="ssr:stedsnr" v="316379" />
	</node>
	<node lat="63.20917222565296" lon="8.196858336858348" id="-7600">
		<tag k="name" v="Solbakken" />
		<tag k="place" v="farm" />
		<tag k="ssr:stedsnr" v="316560" />
	</node>
	<node lat="63.218774995831275" lon="8.133750008487123" id="-7601">
		<tag k="name" v="Skaret" />
		<tag k="place" v="farm" />
		<tag k="ssr:stedsnr" v="316538" />
	</node>
	<node lat="63.20079721796855" lon="8.687522218905116" id="-7608">
		<tag k="name" v="Todalen" />
		<tag k="place" v="hamlet" />
		<tag k="ssr:stedsnr" v="336945" />
	</node>
	<node lat="63.24928889329271" lon="8.175294451916105" id="-7623">
		<tag k="name" v="Hamnes" />
		<tag k="place" v="farm" />
		<tag k="ssr:stedsnr" v="351485" />
	</node>
	<node lat="63.34327500116013" lon="8.474002785714584" id="-7657">
		<tag k="name" v="Sandhamn" />
		<tag k="place" v="farm" />
		<tag k="ssr:stedsnr" v="352234" />
	</node>
	<node lat="63.20806944265142" lon="8.166516676138066" id="-7659">
		<tag k="name" v="Smedneset" />
		<tag k="place" v="farm" />
		<tag k="ssr:stedsnr" v="352285" />
	</node>
	<node lat="63.26213610841883" lon="8.486986110134383" id="-7667">
		<tag k="name" v="Ruø" />
		<tag k="place" v="farm" />
		<tag k="ssr:stedsnr" v="352384" />
	</node>
	<node lat="63.31714166605677" lon="8.592258326620298" id="-7671">
		<tag k="name" v="Kallhammaren" />
		<tag k="place" v="isolated_dwelling" />
		<tag k="ssr:stedsnr" v="352549" />
	</node>
	<node lat="63.16095833541576" lon="8.16707778573711" id="-7679">
		<tag k="name" v="Dalen" />
		<tag k="place" v="farm" />
		<tag k="ssr:stedsnr" v="352552" />
	</node>
	<node lat="63.15665833287234" lon="8.164908327286842" id="-7680">
		<tag k="name" v="Kjerringvika" />
		<tag k="place" v="farm" />
		<tag k="ssr:stedsnr" v="352590" />
	</node>
	<node lat="63.16487222318771" lon="8.194097231853474" id="-7681">
		<tag k="name" v="Åsnes" />
		<tag k="place" v="farm" />
		<tag k="ssr:stedsnr" v="352601" />
	</node>
	<node lat="63.21755555957954" lon="8.050149992742604" id="-7685">
		<tag k="name" v="Litlvika" />
		<tag k="place" v="farm" />
		<tag k="ssr:stedsnr" v="352608" />
	</node>
	<node lat="63.174711114061196" lon="7.916163880426806" id="-7697">
		<tag k="name" v="Strand" />
		<tag k="place" v="farm" />
		<tag k="ssr:stedsnr" v="352869" />
	</node>
	<node lat="63.372952778658764" lon="8.605263879635118" id="-7704">
		<tag k="historic" v="shieling" />
		<tag k="name" v="Gammelsetra" />
		<tag k="place" v="isolated_dwelling" />
		<tag k="ssr:stedsnr" v="353102" />
	</node>
	<node lat="63.23620555482127" lon="8.577749998534275" id="-7708">
		<tag k="name" v="Vollan" />
		<tag k="place" v="farm" />
		<tag k="ssr:stedsnr" v="353357" />
	</node>
	<node lat="63.32999999944457" lon="8.717086111639174" id="-7737">
		<tag k="name" v="Klakkmyra" />
		<tag k="place" v="farm" />
		<tag k="ssr:stedsnr" v="376151" />
	</node>
	<node lat="63.19827928921159" lon="8.261381539993256" id="-7738">
		<tag k="fixme" v="consider place=hamlet" />
		<tag k="name" v="Ørbogen" />
		<tag k="place" v="farm" />
		<tag k="ssr:stedsnr" v="376020" />
	</node>
	<node lat="63.37488888856996" lon="8.699750004445631" id="-7741">
		<tag k="name" v="Skogly" />
		<tag k="place" v="farm" />
		<tag k="ssr:stedsnr" v="376246" />
	</node>
	<node lat="63.37197480065576" lon="8.689060546223265" id="-7742">
		<tag k="fixme" v="consider place=hamlet" />
		<tag k="name" v="Vikan" />
		<tag k="place" v="village" />
		<tag k="ssr:stedsnr" v="376248" />
	</node>
	<node lat="63.1508499974609" lon="8.083899996513194" id="-7743">
		<tag k="name" v="Austmarka" />
		<tag k="place" v="farm" />
		<tag k="ssr:stedsnr" v="376254" />
	</node>
	<node lat="63.14872323620913" lon="7.98690574574523" id="-7744">
		<tag k="fixme" v="consider place=hamlet" />
		<tag k="name" v="Jørenvåg" />
		<tag k="place" v="farm" />
		<tag k="ssr:stedsnr" v="376264" />
	</node>
	<node lat="63.330467610101636" lon="8.45364773450883" id="-7748">
		<tag k="fixme" v="consider place=hamlet" />
		<tag k="name" v="Kiplesund" />
		<tag k="place" v="farm" />
		<tag k="ssr:stedsnr" v="376166" />
	</node>
	<node lat="63.328669440767534" lon="8.42285833999909" id="-7749">
		<tag k="name" v="Aukan" />
		<tag k="place" v="farm" />
		<tag k="ssr:stedsnr" v="376168" />
	</node>
	<node lat="63.32976110679324" lon="8.424513892075819" id="-7750">
		<tag k="name" v="Bergheim" />
		<tag k="place" v="farm" />
		<tag k="ssr:stedsnr" v="376170" />
	</node>
	<node lat="63.26765457183383" lon="8.593948373798355" id="-7751">
		<tag k="fixme" v="consider place=hamlet" />
		<tag k="name" v="Ormset" />
		<tag k="place" v="farm" />
		<tag k="ssr:stedsnr" v="376295" />
	</node>
	<node lat="63.16014721845501" lon="7.904016668092709" id="-7752">
		<tag k="name" v="Øverås" />
		<tag k="place" v="farm" />
		<tag k="ssr:stedsnr" v="376296" />
	</node>
	<node lat="63.31851427063869" lon="8.476140334434634" id="-7755">
		<tag k="fixme" v="consider place=hamlet" />
		<tag k="name" v="Svinvika" />
		<tag k="place" v="farm" />
		<tag k="ssr:stedsnr" v="376316" />
	</node>
	<node lat="63.301469442365665" lon="8.705800000143968" id="-7766">
		<tag k="historic" v="shieling" />
		<tag k="name" v="Melasetra" />
		<tag k="place" v="isolated_dwelling" />
		<tag k="ssr:stedsnr" v="376366" />
	</node>
	<node lat="63.21606389261563" lon="8.139499990203301" id="-7769">
		<tag k="name" v="Åsland" />
		<tag k="place" v="farm" />
		<tag k="ssr:stedsnr" v="376496" />
	</node>
	<node lat="63.18839292330341" lon="8.185772975971483" id="-7770">
		<tag k="fixme" v="consider place=hamlet" />
		<tag k="name" v="Stabben" />
		<tag k="place" v="farm" />
		<tag k="ssr:stedsnr" v="376454" />
	</node>
	<node lat="63.20246944202661" lon="8.190863894125206" id="-7771">
		<tag k="name" v="Haugen" />
		<tag k="place" v="farm" />
		<tag k="ssr:stedsnr" v="376461" />
	</node>
	<node lat="63.25024166869095" lon="8.590841668329455" id="-7774">
		<tag k="historic" v="shieling" />
		<tag k="name" v="Gressetsetra" />
		<tag k="place" v="isolated_dwelling" />
		<tag k="ssr:stedsnr" v="376468" />
	</node>
	<node lat="63.330627780333444" lon="8.722852786861214" id="-7776">
		<tag k="name" v="Gjelahaugen" />
		<tag k="place" v="farm" />
		<tag k="ssr:stedsnr" v="376558" />
	</node>
	<node lat="63.41541389340434" lon="8.710477778447938" id="-7786">
		<tag k="name" v="Ystvika" />
		<tag k="place" v="farm" />
		<tag k="ssr:stedsnr" v="377039" />
	</node>
	<node lat="63.22355833406792" lon="8.509405557019283" id="-7801">
		<tag k="historic" v="shieling" />
		<tag k="name" v="Nedere Ertvågseter" />
		<tag k="place" v="isolated_dwelling" />
		<tag k="ssr:stedsnr" v="412081" />
	</node>
	<node lat="63.25393467915532" lon="8.240059563255711" id="-7804">
		<tag k="fixme" v="consider place=hamlet" />
		<tag k="name" v="Herringsøya" />
		<tag k="place" v="farm" />
		<tag k="ssr:stedsnr" v="412569" />
	</node>
	<node lat="63.17879166418833" lon="8.171508333588278" id="-7829">
		<tag k="name" v="Djupvika" />
		<tag k="place" v="farm" />
		<tag k="ssr:stedsnr" v="413117" />
	</node>
	<node lat="63.14588333379825" lon="8.01966945226039" id="-7856">
		<tag k="name" v="Rønningen" />
		<tag k="place" v="farm" />
		<tag k="ssr:stedsnr" v="413774" />
	</node>
	<node lat="63.209594445516345" lon="8.62451943456426" id="-7860">
		<tag k="historic" v="shieling" />
		<tag k="name" v="Vikasetra" />
		<tag k="place" v="isolated_dwelling" />
		<tag k="ssr:stedsnr" v="414206" />
	</node>
	<node lat="63.31385555322507" lon="8.622727771468131" id="-7887">
		<tag k="name" v="Olderbakkan" />
		<tag k="place" v="farm" />
		<tag k="ssr:stedsnr" v="437360" />
	</node>
	<node lat="63.239057266592866" lon="8.399848711070785" id="-7891">
		<tag k="fixme" v="consider place=hamlet" />
		<tag k="name" v="Foldan" />
		<tag k="place" v="farm" />
		<tag k="ssr:stedsnr" v="437076" />
	</node>
	<node lat="63.202580552395176" lon="8.416608330569447" id="-7895">
		<tag k="name" v="Haugen" />
		<tag k="place" v="farm" />
		<tag k="ssr:stedsnr" v="437138" />
	</node>
	<node lat="63.25454166739065" lon="8.532386102759817" id="-7900">
		<tag k="name" v="Gylta" />
		<tag k="place" v="farm" />
		<tag k="ssr:stedsnr" v="437329" />
	</node>
	<node lat="63.31886388954556" lon="8.572163884532053" id="-7902">
		<tag k="name" v="Ålfarbugen" />
		<tag k="place" v="farm" />
		<tag k="ssr:stedsnr" v="437335" />
	</node>
	<node lat="63.206103079483306" lon="8.249452033277812" id="-7905">
		<tag k="fixme" v="consider place=hamlet" />
		<tag k="name" v="Saga" />
		<tag k="place" v="farm" />
		<tag k="ssr:stedsnr" v="437040" />
	</node>
	<node lat="63.14741667085608" lon="8.094583323941668" id="-7909">
		<tag k="name" v="Myrholt" />
		<tag k="place" v="farm" />
		<tag k="ssr:stedsnr" v="437271" />
	</node>
	<node lat="63.28615205771054" lon="8.55522637335643" id="-7910">
		<tag k="fixme" v="consider place=hamlet" />
		<tag k="name" v="Berg" />
		<tag k="place" v="farm" />
		<tag k="ssr:stedsnr" v="437272" />
	</node>
	<node lat="63.271486044196855" lon="8.46543588116202" id="-7914">
		<tag k="fixme" v="consider place=hamlet" />
		<tag k="name" v="Ånes" />
		<tag k="place" v="farm" />
		<tag k="ssr:stedsnr" v="437283" />
	</node>
	<node lat="63.27579444323422" lon="8.593888884788601" id="-7915">
		<tag k="name" v="Jonsrud" />
		<tag k="place" v="farm" />
		<tag k="ssr:stedsnr" v="437290" />
	</node>
	<node lat="63.386950003811464" lon="8.681094450507477" id="-7926">
		<tag k="name" v="Østrem" />
		<tag k="place" v="farm" />
		<tag k="ssr:stedsnr" v="438186" />
	</node>
	<node lat="63.388283329564516" lon="8.701450004618426" id="-7927">
		<tag k="name" v="Alstad" />
		<tag k="place" v="farm" />
		<tag k="ssr:stedsnr" v="438194" />
	</node>
	<node lat="63.26563055461007" lon="8.368630560495157" id="-7929">
		<tag k="name" v="Slyngsteinbugen" />
		<tag k="place" v="farm" />
		<tag k="ssr:stedsnr" v="497269" />
	</node>
	<node lat="63.26789999789165" lon="8.529124997242262" id="-7930">
		<tag k="name" v="Aure" />
		<tag k="place" v="village" />
		<tag k="ssr:stedsnr" v="497275" />
	</node>
	<node lat="63.17157500188314" lon="7.937150008346907" id="-7931">
		<tag k="name" v="Engdalen" />
		<tag k="place" v="farm" />
		<tag k="ssr:stedsnr" v="497276" />
	</node>
	<node lat="63.26322577963165" lon="8.536280192571628" id="-7932">
		<tag k="fixme" v="consider place=hamlet" />
		<tag k="name" v="Tevika" />
		<tag k="place" v="farm" />
		<tag k="ssr:stedsnr" v="497277" />
	</node>
	<node lat="63.25659669700707" lon="8.381792016184859" id="-7933">
		<tag k="fixme" v="consider place=hamlet" />
		<tag k="name" v="Vika" />
		<tag k="place" v="farm" />
		<tag k="ssr:stedsnr" v="497290" />
	</node>
	<node lat="63.245858337623" lon="8.284125007763835" id="-7941">
		<tag k="name" v="Sørvågen" />
		<tag k="place" v="farm" />
		<tag k="ssr:stedsnr" v="497182" />
	</node>
	<node lat="63.3073694405817" lon="8.563355557569965" id="-7942">
		<tag k="name" v="Leivstad" />
		<tag k="place" v="farm" />
		<tag k="ssr:stedsnr" v="497320" />
	</node>
	<node lat="63.29103611028329" lon="8.578900005874894" id="-7944">
		<tag k="historic" v="shieling" />
		<tag k="name" v="Vågssetra" />
		<tag k="place" v="isolated_dwelling" />
		<tag k="ssr:stedsnr" v="497363" />
	</node>
	<node lat="63.23514444701025" lon="8.470008337159099" id="-7953">
		<tag k="name" v="Sundsbøsetra" />
		<tag k="place" v="isolated_dwelling" />
		<tag k="ssr:stedsnr" v="498074" />
	</node>
	<node lat="63.230486111225964" lon="8.708530555740754" id="-7954">
		<tag k="name" v="Kvistdalssetra" />
		<tag k="place" v="isolated_dwelling" />
		<tag k="ssr:stedsnr" v="498025" />
	</node>
	<node lat="63.163736109456835" lon="8.506375000789735" id="-7958">
		<tag k="name" v="Geistadhaugen" />
		<tag k="place" v="farm" />
		<tag k="ssr:stedsnr" v="498076" />
	</node>
	<node lat="63.16775833426041" lon="8.44357777715722" id="-7959">
		<tag k="name" v="Vågosen" />
		<tag k="place" v="farm" />
		<tag k="ssr:stedsnr" v="498077" />
	</node>
	<node lat="63.15883333721552" lon="8.167641670905537" id="-7965">
		<tag k="fixme" v="consider place=hamlet" />
		<tag k="name" v="Hals" />
		<tag k="place" v="village" />
		<tag k="ssr:stedsnr" v="498376" />
	</node>
	<node lat="63.22815555562903" lon="8.17923889363586" id="-7966">
		<tag k="name" v="Skaret" />
		<tag k="place" v="farm" />
		<tag k="ssr:stedsnr" v="498456" />
	</node>
	<node lat="63.22120833365753" lon="8.141277784275283" id="-7971">
		<tag k="name" v="Ytre Knarvika" />
		<tag k="place" v="farm" />
		<tag k="ssr:stedsnr" v="498527" />
	</node>
	<node lat="63.2647444436918" lon="8.376483336388596" id="-7982">
		<tag k="name" v="Grimsvika" />
		<tag k="place" v="farm" />
		<tag k="ssr:stedsnr" v="532067" />
	</node>
	<node lat="63.19936666887011" lon="8.013183336873823" id="-7999">
		<tag k="name" v="Åsen" />
		<tag k="place" v="farm" />
		<tag k="ssr:stedsnr" v="533665" />
	</node>
	<node lat="63.200322221068795" lon="7.998230555756526" id="-8013">
		<tag k="name" v="Nordvika" />
		<tag k="place" v="farm" />
		<tag k="ssr:stedsnr" v="534129" />
	</node>
	<node lat="63.20858611454505" lon="8.17629166219881" id="-8028">
		<tag k="name" v="Løkkemyra" />
		<tag k="place" v="farm" />
		<tag k="ssr:stedsnr" v="534281" />
	</node>
	<node lat="63.329219446101824" lon="8.485258334389755" id="-8031">
		<tag k="name" v="Solvang" />
		<tag k="place" v="farm" />
		<tag k="ssr:stedsnr" v="534295" />
	</node>
	<node lat="63.32760833240025" lon="8.581658331839554" id="-8037">
		<tag k="name" v="Haugly" />
		<tag k="place" v="farm" />
		<tag k="ssr:stedsnr" v="534446" />
	</node>
	<node lat="63.18225555114897" lon="8.576213887846528" id="-8047">
		<tag k="name" v="Bergvang" />
		<tag k="place" v="farm" />
		<tag k="ssr:stedsnr" v="534596" />
	</node>
	<node lat="63.165538890068994" lon="8.025413887087561" id="-8048">
		<tag k="historic" v="shieling" />
		<tag k="name" v="Lervågsetra" />
		<tag k="place" v="isolated_dwelling" />
		<tag k="ssr:stedsnr" v="534858" />
	</node>
	<node lat="63.22094444666373" lon="8.332574995792521" id="-8050">
		<tag k="historic" v="shieling" />
		<tag k="name" v="Bårdsetsetra" />
		<tag k="place" v="isolated_dwelling" />
		<tag k="ssr:stedsnr" v="534750" />
	</node>
	<node lat="63.20373889090102" lon="8.627677785123641" id="-8065">
		<tag k="historic" v="shieling" />
		<tag k="name" v="Inner Vikasetra" />
		<tag k="place" v="isolated_dwelling" />
		<tag k="ssr:stedsnr" v="535189" />
	</node>
	<node lat="63.23517329994296" lon="8.487888678784945" id="-8101">
		<tag k="fixme" v="consider place=hamlet" />
		<tag k="name" v="Sundsbøen" />
		<tag k="place" v="farm" />
		<tag k="ssr:stedsnr" v="558065" />
	</node>
	<node lat="63.28081111113196" lon="8.587277776508268" id="-8103">
		<tag k="historic" v="shieling" />
		<tag k="name" v="Bergssetra" />
		<tag k="place" v="isolated_dwelling" />
		<tag k="ssr:stedsnr" v="557243" />
	</node>
	<node lat="63.233980559213045" lon="8.609563898291755" id="-8109">
		<tag k="fixme" v="consider place=hamlet" />
		<tag k="loc_name" v="Bjøringlia" />
		<tag k="name" v="Lia" />
		<tag k="place" v="farm" />
		<tag k="ssr:stedsnr" v="558041" />
	</node>
	<node lat="63.347149998251794" lon="8.581752768544396" id="-8111">
		<tag k="historic" v="shieling" />
		<tag k="name" v="Kallandsetra" />
		<tag k="place" v="isolated_dwelling" />
		<tag k="ssr:stedsnr" v="558158" />
	</node>
	<node lat="63.32457500295348" lon="8.513580551421922" id="-8115">
		<tag k="fixme" v="multiple name tags, choose one and add the other to alt_name" />
		<tag k="name" v="Kålåvika;Kolvika" />
		<tag k="place" v="farm" />
		<tag k="ssr:stedsnr" v="558189" />
	</node>
	<node lat="63.27062499867985" lon="8.545877787136446" id="-8118">
		<tag k="name" v="Snebro" />
		<tag k="place" v="farm" />
		<tag k="ssr:stedsnr" v="558281" />
	</node>
	<node lat="63.23204419596978" lon="8.117011795553356" id="-8122">
		<tag k="fixme" v="consider place=hamlet" />
		<tag k="name" v="Sandvika" />
		<tag k="place" v="farm" />
		<tag k="ssr:stedsnr" v="558421" />
	</node>
	<node lat="63.196775001808355" lon="8.026669450814529" id="-8123">
		<tag k="name" v="Øverland" />
		<tag k="place" v="farm" />
		<tag k="ssr:stedsnr" v="558517" />
	</node>
	<node lat="63.21058889229081" lon="8.162613890364385" id="-8124">
		<tag k="name" v="Mevika" />
		<tag k="place" v="farm" />
		<tag k="ssr:stedsnr" v="558521" />
	</node>
	<node lat="63.35337778195267" lon="8.746633325034278" id="-8138">
		<tag k="name" v="Løviksætra" />
		<tag k="place" v="locality" />
		<tag k="ssr:stedsnr" v="558726" />
	</node>
	<node lat="63.382186108580264" lon="8.620711111068001" id="-8139">
		<tag k="name" v="Haugly" />
		<tag k="place" v="farm" />
		<tag k="ssr:stedsnr" v="559180" />
	</node>
	<node lat="63.198341669927224" lon="8.697205555433099" id="-8143">
		<tag k="name" v="Liastua" />
		<tag k="place" v="farm" />
		<tag k="ssr:stedsnr" v="566783" />
	</node>
	<node lat="63.234261108591646" lon="8.210872217861109" id="-8150">
		<tag k="name" v="Vollen" />
		<tag k="place" v="farm" />
		<tag k="ssr:stedsnr" v="593092" />
	</node>
	<node lat="63.19751388542779" lon="8.158588879082954" id="-8164">
		<tag k="name" v="Baggtrøa" />
		<tag k="place" v="farm" />
		<tag k="ssr:stedsnr" v="594278" />
	</node>
	<node lat="63.20647500280051" lon="8.158419446167786" id="-8165">
		<tag k="name" v="Gjengstøa" />
		<tag k="place" v="farm" />
		<tag k="ssr:stedsnr" v="594289" />
	</node>
	<node lat="63.15862470846804" lon="8.175008196870616" id="-8184">
		<tag k="fixme" v="consider place=hamlet" />
		<tag k="name" v="Hals" />
		<tag k="place" v="farm" />
		<tag k="ssr:stedsnr" v="594598" />
	</node>
	<node lat="63.17694444632769" lon="7.94420278638279" id="-8193">
		<tag k="name" v="Skoglund" />
		<tag k="place" v="farm" />
		<tag k="ssr:stedsnr" v="594798" />
	</node>
	<node lat="63.38183888574312" lon="8.68583889713883" id="-8259">
		<tag k="historic" v="shieling" />
		<tag k="name" v="Inner Setra" />
		<tag k="place" v="isolated_dwelling" />
		<tag k="ssr:stedsnr" v="596840" />
	</node>
	<node lat="63.29064722036331" lon="8.55490555671615" id="-8263">
		<tag k="historic" v="shieling" />
		<tag k="name" v="Litlsetra" />
		<tag k="place" v="isolated_dwelling" />
		<tag k="ssr:stedsnr" v="596783" />
	</node>
	<node lat="63.2888055579761" lon="8.534483332795425" id="-8265">
		<tag k="name" v="Nervåg" />
		<tag k="place" v="farm" />
		<tag k="ssr:stedsnr" v="596796" />
	</node>
	<node lat="63.27006944812591" lon="8.282186107958847" id="-8277">
		<tag k="name" v="Sandshamna" />
		<tag k="place" v="farm" />
		<tag k="ssr:stedsnr" v="618223" />
	</node>
	<node lat="63.23021388809877" lon="8.32851111253178" id="-8286">
		<tag k="name" v="Vinsternessetra" />
		<tag k="place" v="isolated_dwelling" />
		<tag k="ssr:stedsnr" v="619035" />
	</node>
	<node lat="63.17953075237759" lon="8.569647116010305" id="-8290">
		<tag k="fixme" v="consider place=hamlet" />
		<tag k="name" v="Einneset" />
		<tag k="place" v="farm" />
		<tag k="ssr:stedsnr" v="619093" />
	</node>
	<node lat="63.356970171927955" lon="8.684477139292936" id="-8296">
		<tag k="alt_name" v="Ulfsnes" />
		<tag k="fixme" v="consider place=hamlet" />
		<tag k="name" v="Ulvsnes" />
		<tag k="place" v="farm" />
		<tag k="ssr:stedsnr" v="619254" />
	</node>
	<node lat="63.20826666888789" lon="8.034894453273129" id="-8298">
		<tag k="name" v="Yttermolen" />
		<tag k="place" v="farm" />
		<tag k="ssr:stedsnr" v="619517" />
	</node>
	<node lat="63.37808611000829" lon="8.604644451147173" id="-8300">
		<tag k="name" v="Haltskardet" />
		<tag k="place" v="farm" />
		<tag k="ssr:stedsnr" v="620241" />
	</node>
	<node lat="63.25734722315306" lon="8.317061107063534" id="-8304">
		<tag k="alt_name" v="Vågen, nordre" />
		<tag k="name" v="Nordre Vågen" />
		<tag k="place" v="farm" />
		<tag k="ssr:stedsnr" v="619344" />
	</node>
	<node lat="63.15976110673921" lon="7.947627786559957" id="-8306">
		<tag k="name" v="Berg" />
		<tag k="place" v="farm" />
		<tag k="ssr:stedsnr" v="619347" />
	</node>
	<node lat="63.25352903180459" lon="8.554812179174002" id="-8308">
		<tag k="fixme" v="consider place=hamlet" />
		<tag k="name" v="Gresset" />
		<tag k="place" v="farm" />
		<tag k="ssr:stedsnr" v="619356" />
	</node>
	<node lat="63.34639999989001" lon="8.757983330516247" id="-8313">
		<tag k="name" v="Hellandet" />
		<tag k="place" v="farm" />
		<tag k="ssr:stedsnr" v="619750" />
	</node>
	<node lat="63.379922066570614" lon="8.640619881576523" id="-8314">
		<tag k="fixme" v="consider place=hamlet" />
		<tag k="name" v="Rognan" />
		<tag k="place" v="farm" />
		<tag k="ssr:stedsnr" v="620189" />
	</node>
	<node lat="63.38709999828587" lon="8.69387778050723" id="-8315">
		<tag k="name" v="Bjørkly" />
		<tag k="place" v="farm" />
		<tag k="ssr:stedsnr" v="620194" />
	</node>
	<node lat="63.379383495863884" lon="8.613682969333487" id="-8316">
		<tag k="fixme" v="consider place=hamlet" />
		<tag k="name" v="Skard" />
		<tag k="place" v="farm" />
		<tag k="ssr:stedsnr" v="620196" />
	</node>
	<node lat="63.347683329249776" lon="8.644241659600445" id="-8326">
		<tag k="historic" v="shieling" />
		<tag k="name" v="Ulfsnessetra" />
		<tag k="place" v="isolated_dwelling" />
		<tag k="ssr:stedsnr" v="656094" />
	</node>
	<node lat="63.22679722633643" lon="8.500508326247328" id="-8327">
		<tag k="name" v="Djupbug" />
		<tag k="place" v="farm" />
		<tag k="ssr:stedsnr" v="656098" />
	</node>
	<node lat="63.358408331919144" lon="8.692269450722877" id="-8330">
		<tag k="name" v="Nordheim" />
		<tag k="place" v="farm" />
		<tag k="ssr:stedsnr" v="656105" />
	</node>
	<node lat="63.204399996210576" lon="8.034027784071798" id="-8341">
		<tag k="name" v="Haugen" />
		<tag k="place" v="farm" />
		<tag k="ssr:stedsnr" v="654748" />
	</node>
	<node lat="63.198383334962934" lon="8.027980549403368" id="-8342">
		<tag k="name" v="Austmark" />
		<tag k="place" v="farm" />
		<tag k="ssr:stedsnr" v="654758" />
	</node>
	<node lat="63.274850000684395" lon="8.45762223167466" id="-8353">
		<tag k="historic" v="shieling" />
		<tag k="name" v="Stølan" />
		<tag k="place" v="isolated_dwelling" />
		<tag k="ssr:stedsnr" v="655328" />
	</node>
	<node lat="63.31440277367977" lon="8.609363885837288" id="-8363">
		<tag k="name" v="Knausane" />
		<tag k="place" v="farm" />
		<tag k="ssr:stedsnr" v="655544" />
	</node>
	<node lat="63.17300277544864" lon="8.529108327884828" id="-8368">
		<tag k="historic" v="shieling" />
		<tag k="name" v="Brattsetsetra" />
		<tag k="place" v="isolated_dwelling" />
		<tag k="ssr:stedsnr" v="655625" />
	</node>
	<node lat="63.18484722569246" lon="8.324783329781312" id="-8383">
		<tag k="name" v="Vika" />
		<tag k="place" v="isolated_dwelling" />
		<tag k="ssr:stedsnr" v="655954" />
	</node>
	<node lat="63.230163892601944" lon="8.422088889229894" id="-8396">
		<tag k="historic" v="shieling" />
		<tag k="name" v="Gammelsetra" />
		<tag k="place" v="isolated_dwelling" />
		<tag k="ssr:stedsnr" v="656167" />
	</node>
	<node lat="63.38850277357815" lon="8.74893055689377" id="-8398">
		<tag k="historic" v="shieling" />
		<tag k="name" v="Ledalssetra" />
		<tag k="place" v="isolated_dwelling" />
		<tag k="ssr:stedsnr" v="656252" />
	</node>
	<node lat="63.292172219892784" lon="8.641558338640715" id="-8401">
		<tag k="historic" v="shieling" />
		<tag k="name" v="Skarsetra" />
		<tag k="place" v="isolated_dwelling" />
		<tag k="ssr:stedsnr" v="656917" />
	</node>
	<node lat="63.41099999974693" lon="8.724650005215342" id="-8404">
		<tag k="alt_name" v="Ledalsvold" />
		<tag k="name" v="Ledalsvoll" />
		<tag k="place" v="farm" />
		<tag k="ssr:stedsnr" v="656650" />
	</node>
	<node lat="63.31277500332284" lon="8.676827771080838" id="-8410">
		<tag k="name" v="Sørsetra" />
		<tag k="place" v="isolated_dwelling" />
		<tag k="ssr:stedsnr" v="656970" />
	</node>
	<node lat="63.33433333702441" lon="8.695291669374276" id="-8413">
		<tag k="name" v="Røberg" />
		<tag k="place" v="farm" />
		<tag k="ssr:stedsnr" v="657250" />
	</node>
	<node lat="63.31441110895914" lon="8.609405564056596" id="-8423">
		<tag k="name" v="Bergset" />
		<tag k="place" v="farm" />
		<tag k="ssr:stedsnr" v="657578" />
	</node>
	<node lat="63.15324444739398" lon="7.941336115087842" id="-8426">
		<tag k="alt_name" v="Fætten industriområde" />
		<tag k="name" v="Fætta industriområde" />
		<tag k="place" v="quarter" />
		<tag k="ssr:stedsnr" v="661873" />
	</node>
	<node lat="63.228147462574086" lon="8.580744816623755" id="-8431">
		<tag k="name" v="Bjøring" />
		<tag k="place" v="farm" />
		<tag k="ssr:stedsnr" v="714161" />
	</node>
	<node lat="63.19458333549346" lon="8.047855547837829" id="-8442">
		<tag k="historic" v="shieling" />
		<tag k="name" v="Leirsetra" />
		<tag k="place" v="isolated_dwelling" />
		<tag k="ssr:stedsnr" v="715758" />
	</node>
	<node lat="63.14925833566955" lon="8.101191668602498" id="-8483">
		<tag k="name" v="Ertervik" />
		<tag k="place" v="isolated_dwelling" />
		<tag k="ssr:stedsnr" v="716844" />
	</node>
	<node lat="63.17144166386578" lon="7.920544447254801" id="-8488">
		<tag k="name" v="Bekken" />
		<tag k="place" v="farm" />
		<tag k="ssr:stedsnr" v="716872" />
	</node>
	<node lat="63.262615093249515" lon="8.37976025828207" id="-8493">
		<tag k="fixme" v="consider place=hamlet" />
		<tag k="loc_name" v="Grimsvika" />
		<tag k="name" v="Strømsvik" />
		<tag k="place" v="farm" />
		<tag k="ssr:stedsnr" v="716995" />
	</node>
	<node lat="63.24020472969174" lon="8.389505055412315" id="-8497">
		<tag k="alt_name" v="Olsvik" />
		<tag k="fixme" v="consider place=hamlet" />
		<tag k="name" v="Vikan" />
		<tag k="place" v="farm" />
		<tag k="ssr:stedsnr" v="717132" />
	</node>
	<node lat="63.30772778092163" lon="8.64755833398538" id="-8513">
		<tag k="historic" v="shieling" />
		<tag k="name" v="Glomstadsetra" />
		<tag k="place" v="isolated_dwelling" />
		<tag k="ssr:stedsnr" v="717952" />
	</node>
	<node lat="63.315663889174424" lon="8.663969442565655" id="-8514">
		<tag k="name" v="Vang" />
		<tag k="place" v="farm" />
		<tag k="ssr:stedsnr" v="717964" />
	</node>
	<node lat="63.287805554698764" lon="8.81707499492787" id="-8525">
		<tag k="historic" v="shieling" />
		<tag k="name" v="Klakksetra" />
		<tag k="place" v="isolated_dwelling" />
		<tag k="ssr:stedsnr" v="718638" />
	</node>
	<node lat="63.29031388840166" lon="8.574302786583456" id="-8530">
		<tag k="historic" v="shieling" />
		<tag k="name" v="Vågsetra" />
		<tag k="place" v="isolated_dwelling" />
		<tag k="ssr:stedsnr" v="718795" />
	</node>
	<node lat="63.20884166708324" lon="8.287486107755809" id="-8542">
		<tag k="name" v="Bukta" />
		<tag k="place" v="farm" />
		<tag k="ssr:stedsnr" v="740002" />
	</node>
	<node lat="63.32712777773875" lon="8.539733330007259" id="-8549">
		<tag k="name" v="Seterneset" />
		<tag k="place" v="farm" />
		<tag k="ssr:stedsnr" v="740172" />
	</node>
	<node lat="63.33122296749022" lon="8.46895956821966" id="-8550">
		<tag k="fixme" v="consider place=hamlet" />
		<tag k="name" v="Lesund" />
		<tag k="place" v="farm" />
		<tag k="ssr:stedsnr" v="740175" />
	</node>
	<node lat="63.31700555937669" lon="8.583927786234298" id="-8557">
		<tag k="name" v="Klakken" />
		<tag k="place" v="farm" />
		<tag k="ssr:stedsnr" v="740308" />
	</node>
	<node lat="63.172911114540014" lon="8.191547225482493" id="-8559">
		<tag k="name" v="Yttervika" />
		<tag k="place" v="isolated_dwelling" />
		<tag k="ssr:stedsnr" v="740284" />
	</node>
	<node lat="63.16167222272863" lon="7.901297212844686" id="-8561">
		<tag k="name" v="Nytun" />
		<tag k="place" v="farm" />
		<tag k="ssr:stedsnr" v="740289" />
	</node>
	<node lat="63.28284798055242" lon="8.441884642936008" id="-8563">
		<tag k="fixme" v="consider place=hamlet" />
		<tag k="name" v="Husfesta" />
		<tag k="place" v="farm" />
		<tag k="ssr:stedsnr" v="740361" />
	</node>
	<node lat="63.383254681700755" lon="8.695824441257027" id="-8570">
		<tag k="name" v="Fremstad" />
		<tag k="old_name" v="Fredstad" />
		<tag k="place" v="locality" />
		<tag k="ssr:stedsnr" v="741244" />
	</node>
	<node lat="63.39346944031177" lon="8.67239444013167" id="-8572">
		<tag k="name" v="Setra" />
		<tag k="place" v="farm" />
		<tag k="ssr:stedsnr" v="741253" />
	</node>
	<node lat="63.169080555855594" lon="7.988072220574924" id="-8586">
		<tag k="historic" v="shieling" />
		<tag k="name" v="Setra" />
		<tag k="place" v="isolated_dwelling" />
		<tag k="ssr:stedsnr" v="775126" />
	</node>
	<node lat="63.201213887576266" lon="8.038058337461282" id="-8600">
		<tag k="name" v="Skogly" />
		<tag k="place" v="farm" />
		<tag k="ssr:stedsnr" v="776730" />
	</node>
	<node lat="63.25077222633716" lon="8.326208327004709" id="-8603">
		<tag k="name" v="Nygarden" />
		<tag k="place" v="farm" />
		<tag k="ssr:stedsnr" v="776747" />
	</node>
	<node lat="63.17929166661286" lon="8.345547226357251" id="-8611">
		<tag k="historic" v="shieling" />
		<tag k="name" v="Fuglvågsetra" />
		<tag k="place" v="isolated_dwelling" />
		<tag k="ssr:stedsnr" v="776990" />
	</node>
	<node lat="63.3458194406058" lon="8.48071944635785" id="-8630">
		<tag k="name" v="Melkvik" />
		<tag k="place" v="farm" />
		<tag k="ssr:stedsnr" v="777245" />
	</node>
	<node lat="63.176638888970075" lon="8.565316667085385" id="-8634">
		<tag k="name" v="Solstrand" />
		<tag k="place" v="farm" />
		<tag k="ssr:stedsnr" v="777302" />
	</node>
	<node lat="63.3060249971115" lon="8.432527768125402" id="-8639">
		<tag k="name" v="Viken" />
		<tag k="place" v="farm" />
		<tag k="ssr:stedsnr" v="777345" />
	</node>
	<node lat="63.34610000218386" lon="8.760444450096108" id="-8657">
		<tag k="name" v="Indre Helland" />
		<tag k="place" v="isolated_dwelling" />
		<tag k="ssr:stedsnr" v="778002" />
	</node>
	<node lat="63.35750555482132" lon="8.516175005219475" id="-8664">
		<tag k="name" v="Vatnegård" />
		<tag k="place" v="farm" />
		<tag k="ssr:stedsnr" v="778138" />
	</node>
	<node lat="63.33978055236207" lon="8.771822226862056" id="-8675">
		<tag k="name" v="Skaret" />
		<tag k="place" v="farm" />
		<tag k="ssr:stedsnr" v="778557" />
	</node>
	<node lat="63.37514721813275" lon="8.648044435844128" id="-8693">
		<tag k="name" v="Rognneset" />
		<tag k="place" v="farm" />
		<tag k="ssr:stedsnr" v="778833" />
	</node>
	<node lat="63.15653571158334" lon="7.9599711545129965" id="-8708">
		<tag k="alt_name" v="Tømmervågen" />
		<tag k="fixme" v="consider place=hamlet" />
		<tag k="name" v="Tømmervåg" />
		<tag k="place" v="farm" />
		<tag k="ssr:stedsnr" v="785090" />
	</node>
	<node lat="63.3478570915354" lon="8.685292824979093" id="-8712">
		<tag k="fixme" v="consider place=hamlet" />
		<tag k="name" v="Vihalsen" />
		<tag k="place" v="village" />
		<tag k="ssr:stedsnr" v="801141" />
	</node>
	<node lat="63.33000555948962" lon="8.634519441451486" id="-8715">
		<tag k="historic" v="shieling" />
		<tag k="name" v="Torsetsetra" />
		<tag k="place" v="isolated_dwelling" />
		<tag k="ssr:stedsnr" v="801163" />
	</node>
	<node lat="63.331724996957895" lon="8.487680560377218" id="-8717">
		<tag k="fixme" v="multiple name tags, choose one and add the other to alt_name" />
		<tag k="name" v="Øveråsen;Øverås" />
		<tag k="place" v="farm" />
		<tag k="ssr:stedsnr" v="801170" />
	</node>
	<node lat="63.236877331673945" lon="8.571405412325763" id="-8718">
		<tag k="fixme" v="consider place=hamlet" />
		<tag k="name" v="Torset" />
		<tag k="place" v="farm" />
		<tag k="ssr:stedsnr" v="801051" />
	</node>
	<node lat="63.18863611488029" lon="8.430461106447847" id="-8720">
		<tag k="name" v="Myran" />
		<tag k="place" v="farm" />
		<tag k="ssr:stedsnr" v="801096" />
	</node>
	<node lat="63.27273610726809" lon="8.52491666887098" id="-8726">
		<tag k="name" v="Ytre Leirdalen" />
		<tag k="place" v="farm" />
		<tag k="ssr:stedsnr" v="801250" />
	</node>
	<node lat="63.311012044335165" lon="8.592457173306054" id="-8729">
		<tag k="fixme" v="consider place=hamlet" />
		<tag k="name" v="Vean" />
		<tag k="place" v="farm" />
		<tag k="ssr:stedsnr" v="801337" />
	</node>
	<node lat="63.29584166506644" lon="8.537102785594927" id="-8732">
		<tag k="name" v="Trøan" />
		<tag k="place" v="farm" />
		<tag k="ssr:stedsnr" v="801358" />
	</node>
	<node lat="63.19008888759823" lon="8.166783331824616" id="-8735">
		<tag k="name" v="Fossheim" />
		<tag k="place" v="farm" />
		<tag k="ssr:stedsnr" v="801430" />
	</node>
	<node lat="63.205738887490305" lon="8.195800007913856" id="-8736">
		<tag k="name" v="Brekkvollen" />
		<tag k="place" v="farm" />
		<tag k="ssr:stedsnr" v="801432" />
	</node>
	<node lat="63.18528055257971" lon="8.107530552614124" id="-8737">
		<tag k="historic" v="shieling" />
		<tag k="name" v="Gullsteinsetra" />
		<tag k="place" v="isolated_dwelling" />
		<tag k="ssr:stedsnr" v="801444" />
	</node>
	<node lat="63.34832065577113" lon="8.847919151598953" id="-8741">
		<tag k="fixme" v="consider place=hamlet" />
		<tag k="name" v="Årvågen" />
		<tag k="place" v="farm" />
		<tag k="ssr:stedsnr" v="801700" />
	</node>
	<node lat="63.35402499938992" lon="8.856944441251162" id="-8743">
		<tag k="name" v="Solli" />
		<tag k="place" v="farm" />
		<tag k="ssr:stedsnr" v="801668" />
	</node>
	<node lat="63.2229025367939" lon="8.268300658333576" id="-8744">
		<tag k="fixme" v="consider place=hamlet" />
		<tag k="name" v="Ormbostad" />
		<tag k="place" v="farm" />
		<tag k="ssr:stedsnr" v="802038" />
	</node>
	<node lat="63.19651388759259" lon="8.691122227502168" id="-8752">
		<tag k="name" v="Kjerra" />
		<tag k="place" v="farm" />
		<tag k="ssr:stedsnr" v="809781" />
	</node>
	<node lat="63.198722122146094" lon="8.69358096822026" id="-8754">
		<tag k="fixme" v="consider place=hamlet" />
		<tag k="name" v="Todalen" />
		<tag k="place" v="farm" />
		<tag k="ssr:stedsnr" v="814164" />
	</node>
	<node lat="63.200138884704046" lon="8.156441663133297" id="-8770">
		<tag k="name" v="Røsthaugen" />
		<tag k="place" v="isolated_dwelling" />
		<tag k="ssr:stedsnr" v="837268" />
	</node>
	<node lat="63.20141944885324" lon="8.015980554206632" id="-8777">
		<tag k="name" v="Lunheim" />
		<tag k="place" v="farm" />
		<tag k="ssr:stedsnr" v="837643" />
	</node>
	<node lat="63.20248610745114" lon="8.019086107856564" id="-8778">
		<tag k="name" v="Nerås" />
		<tag k="place" v="farm" />
		<tag k="ssr:stedsnr" v="837644" />
	</node>
	<node lat="63.21153610859053" lon="8.05449443977898" id="-8781">
		<tag k="name" v="Reiten" />
		<tag k="place" v="farm" />
		<tag k="ssr:stedsnr" v="837739" />
	</node>
	<node lat="63.41168180612261" lon="8.717110423248847" id="-8785">
		<tag k="fixme" v="consider place=hamlet" />
		<tag k="name" v="Hamnvik" />
		<tag k="place" v="farm" />
		<tag k="ssr:stedsnr" v="837819" />
	</node>
	<node lat="63.19913333466563" lon="7.983958334690229" id="-8799">
		<tag k="name" v="Breivika" />
		<tag k="place" v="farm" />
		<tag k="ssr:stedsnr" v="838121" />
	</node>
	<node lat="63.26014166765241" lon="8.502052783424398" id="-8823">
		<tag k="name" v="Nordstrand" />
		<tag k="place" v="farm" />
		<tag k="ssr:stedsnr" v="838451" />
	</node>
	<node lat="63.175930555337686" lon="7.958413897065847" id="-8832">
		<tag k="historic" v="shieling" />
		<tag k="name" v="Linvågsetra" />
		<tag k="place" v="isolated_dwelling" />
		<tag k="ssr:stedsnr" v="838842" />
	</node>
	<node lat="63.224791665446695" lon="8.128819441871894" id="-8834">
		<tag k="name" v="Åheim" />
		<tag k="place" v="farm" />
		<tag k="ssr:stedsnr" v="838702" />
	</node>
	<node lat="63.32633055876451" lon="8.690736106514745" id="-8844">
		<tag k="name" v="Trøa" />
		<tag k="place" v="farm" />
		<tag k="ssr:stedsnr" v="839067" />
	</node>
	<node lat="63.40901944004025" lon="8.727208328876491" id="-8863">
		<tag k="name" v="Myren" />
		<tag k="place" v="farm" />
		<tag k="ssr:stedsnr" v="839645" />
	</node>
	<node lat="63.254616669170645" lon="8.674616665420517" id="-8865">
		<tag k="name" v="Hulderheimen" />
		<tag k="place" v="isolated_dwelling" />
		<tag k="ssr:stedsnr" v="839739" />
	</node>
	<node lat="63.28336389027925" lon="8.65531111269081" id="-8867">
		<tag k="historic" v="shieling" />
		<tag k="name" v="Tverrhaugsetra" />
		<tag k="place" v="isolated_dwelling" />
		<tag k="ssr:stedsnr" v="839950" />
	</node>
	<node lat="63.368027776074676" lon="8.695208328343279" id="-8873">
		<tag k="name" v="Lervik" />
		<tag k="place" v="farm" />
		<tag k="ssr:stedsnr" v="839819" />
	</node>
	<node lat="63.37415555815253" lon="8.682280560682559" id="-8874">
		<tag k="name" v="Bakken" />
		<tag k="place" v="isolated_dwelling" />
		<tag k="ssr:stedsnr" v="839824" />
	</node>
	<node lat="63.16621667026789" lon="8.439855545897236" id="-8875">
		<tag k="alt_name" v="Vågos" />
		<tag k="name" v="Vågosen" />
		<tag k="place" v="hamlet" />
		<tag k="ssr:stedsnr" v="839836" />
	</node>
	<node lat="63.19558413151171" lon="8.3145527835692" id="-8888">
		<tag k="fixme" v="consider place=hamlet" />
		<tag k="name" v="Olvika" />
		<tag k="place" v="farm" />
		<tag k="ssr:stedsnr" v="862149" />
	</node>
	<node lat="63.34861111405162" lon="8.683055565226013" id="-8890">
		<tag k="name" v="Haltbakkan" />
		<tag k="place" v="farm" />
		<tag k="ssr:stedsnr" v="862175" />
	</node>
	<node lat="63.21814999911572" lon="8.59981110509076" id="-8894">
		<tag k="historic" v="shieling" />
		<tag k="name" v="Haugasetra" />
		<tag k="place" v="isolated_dwelling" />
		<tag k="ssr:stedsnr" v="862037" />
	</node>
	<node lat="63.227068284865815" lon="8.483209252199535" id="-8896">
		<tag k="historic" v="shieling" />
		<tag k="name" v="Bugasetra" />
		<tag k="place" v="isolated_dwelling" />
		<tag k="ssr:stedsnr" v="862050" />
	</node>
	<node lat="63.20096388713529" lon="8.658833323662403" id="-8900">
		<tag k="historic" v="shieling" />
		<tag k="name" v="Erviksetra" />
		<tag k="place" v="isolated_dwelling" />
		<tag k="ssr:stedsnr" v="862145" />
	</node>
	<node lat="63.35593333090537" lon="8.620797228761363" id="-8901">
		<tag k="historic" v="shieling" />
		<tag k="name" v="Skardssetra" />
		<tag k="place" v="isolated_dwelling" />
		<tag k="ssr:stedsnr" v="862245" />
	</node>
	<node lat="63.323448319936105" lon="8.540199525067308" id="-8905">
		<tag k="fixme" v="consider place=hamlet" />
		<tag k="name" v="Ramsvika" />
		<tag k="place" v="farm" />
		<tag k="ssr:stedsnr" v="862333" />
	</node>
	<node lat="63.41706111338634" lon="8.745852778561963" id="-8908">
		<tag k="name" v="Solvang" />
		<tag k="place" v="farm" />
		<tag k="ssr:stedsnr" v="862428" />
	</node>
	<node lat="63.20227499935239" lon="8.190847215732948" id="-8911">
		<tag k="name" v="Solemshaugen" />
		<tag k="place" v="farm" />
		<tag k="ssr:stedsnr" v="862447" />
	</node>
	<node lat="63.28086389274804" lon="8.622202773420682" id="-8913">
		<tag k="name" v="Austli" />
		<tag k="place" v="farm" />
		<tag k="ssr:stedsnr" v="862269" />
	</node>
	<node lat="63.288155552962024" lon="8.60743333555921" id="-8914">
		<tag k="historic" v="shieling" />
		<tag k="name" v="Bergssetra" />
		<tag k="place" v="isolated_dwelling" />
		<tag k="ssr:stedsnr" v="862270" />
	</node>
	<node lat="63.146264901657865" lon="8.02711885743823" id="-8915">
		<tag k="fixme" v="consider place=hamlet" />
		<tag k="name" v="Ljustad" />
		<tag k="place" v="farm" />
		<tag k="ssr:stedsnr" v="862275" />
	</node>
	<node lat="63.19673332939104" lon="7.998663886451529" id="-8916">
		<tag k="name" v="Myrset" />
		<tag k="place" v="farm" />
		<tag k="ssr:stedsnr" v="862472" />
	</node>
	<node lat="63.19990175843157" lon="8.025858411478518" id="-8917">
		<tag k="fixme" v="consider place=hamlet" />
		<tag k="name" v="Leira" />
		<tag k="place" v="village" />
		<tag k="ssr:stedsnr" v="862473" />
	</node>
	<node lat="63.1981916647238" lon="8.03433612074729" id="-8918">
		<tag k="name" v="Myrstad" />
		<tag k="place" v="farm" />
		<tag k="ssr:stedsnr" v="862475" />
	</node>
	<node lat="63.31785569023102" lon="8.767012834757505" id="-8920">
		<tag k="alt_name" v="Hjelasetra" />
		<tag k="historic" v="shieling" />
		<tag k="name" v="Gjelasetra" />
		<tag k="place" v="isolated_dwelling" />
		<tag k="ssr:stedsnr" v="862489" />
	</node>
	<node lat="63.31575832932072" lon="8.827216661374019" id="-8921">
		<tag k="historic" v="shieling" />
		<tag k="name" v="Bakksetra" />
		<tag k="place" v="isolated_dwelling" />
		<tag k="ssr:stedsnr" v="862494" />
	</node>
	<node lat="63.352299996429196" lon="8.84564166497342" id="-8923">
		<tag k="fixme" v="consider place=hamlet" />
		<tag k="name" v="Fevelen" />
		<tag k="place" v="farm" />
		<tag k="ssr:stedsnr" v="862691" />
	</node>
	<node lat="63.38401666992326" lon="8.766388890345729" id="-8926">
		<tag k="historic" v="shieling" />
		<tag k="name" v="Vollasætra" />
		<tag k="place" v="isolated_dwelling" />
		<tag k="ssr:stedsnr" v="862640" />
	</node>
	<node lat="63.21089167037662" lon="8.137969453767198" id="-8943">
		<tag k="name" v="Gammeltrøa" />
		<tag k="place" v="locality" />
		<tag k="ssr:stedsnr" v="958294" />
	</node>
	<node lat="63.16311111370563" lon="8.506474990285202" id="-8958">
		<tag k="name" v="Gjestad" />
		<tag k="place" v="farm" />
		<tag k="ssr:stedsnr" v="958455" />
	</node>
	<node lat="63.230888889922134" lon="8.346024991313945" id="-8962">
		<tag k="historic" v="shieling" />
		<tag k="name" v="Nysetra" />
		<tag k="place" v="isolated_dwelling" />
		<tag k="ssr:stedsnr" v="958765" />
	</node>
	<node lat="63.1470583366202" lon="7.99890833808766" id="-8990">
		<tag k="name" v="Øvre Rovik" />
		<tag k="place" v="farm" />
		<tag k="ssr:stedsnr" v="959248" />
	</node>
	<node lat="63.1465064389975" lon="8.003542669694484" id="-8991">
		<tag k="name" v="Myrdal" />
		<tag k="place" v="farm" />
		<tag k="ssr:stedsnr" v="959249" />
	</node>
	<node lat="63.325688887817265" lon="8.57705555301307" id="-8993">
		<tag k="alt_name" v="Mitreviken" />
		<tag k="name" v="Midtervika" />
		<tag k="place" v="farm" />
		<tag k="ssr:stedsnr" v="959410" />
	</node>
	<node lat="63.26151111549428" lon="8.509008341076434" id="-8998">
		<tag k="name" v="Grønvik" />
		<tag k="place" v="farm" />
		<tag k="ssr:stedsnr" v="959372" />
	</node>
	<node lat="63.3360277763432" lon="8.6990416658745" id="-9001">
		<tag k="name" v="Knorrå" />
		<tag k="place" v="farm" />
		<tag k="ssr:stedsnr" v="960077" />
	</node>
	<node lat="63.18535833545991" lon="8.487361120367398" id="-9025">
		<tag k="historic" v="shieling" />
		<tag k="name" v="Bergfallsetra" />
		<tag k="place" v="isolated_dwelling" />
		<tag k="ssr:stedsnr" v="960334" />
	</node>
	<node lat="63.17622340316718" lon="7.922926975549227" id="-9046">
		<tag k="name" v="Fitjan" />
		<tag k="place" v="farm" />
		<tag k="ssr:stedsnr" v="978519" />
	</node>
	<node lat="63.28718425320922" lon="8.540469933875872" id="-9047">
		<tag k="fixme" v="consider place=hamlet" />
		<tag k="name" v="Våg" />
		<tag k="place" v="farm" />
		<tag k="ssr:stedsnr" v="977701" />
	</node>
	<node lat="63.37258758810334" lon="8.684039129992783" id="-9048">
		<tag k="fixme" v="consider place=hamlet" />
		<tag k="name" v="Vikan" />
		<tag k="place" v="farm" />
		<tag k="ssr:stedsnr" v="977710" />
	</node>
	<node lat="63.346169525850684" lon="8.687313129967633" id="-9049">
		<tag k="fixme" v="consider place=hamlet" />
		<tag k="name" v="Vihalsen" />
		<tag k="place" v="farm" />
		<tag k="ssr:stedsnr" v="977715" />
	</node>
	<node lat="63.206829037315174" lon="8.187674225230973" id="-9052">
		<tag k="name" v="Solem" />
		<tag k="place" v="farm" />
		<tag k="ssr:stedsnr" v="982148" />
	</node>
	<node lat="63.20699471748479" lon="8.1884334802871" id="-9053">
		<tag k="name" v="Solem" />
		<tag k="place" v="farm" />
		<tag k="ssr:stedsnr" v="982149" />
	</node>
	<node lat="63.20511764498574" lon="8.193304540202336" id="-9054">
		<tag k="name" v="Solem" />
		<tag k="place" v="farm" />
		<tag k="ssr:stedsnr" v="982162" />
	</node>
	<node lat="63.2079762809749" lon="8.184216744631835" id="-9055">
		<tag k="name" v="Solem" />
		<tag k="place" v="farm" />
		<tag k="ssr:stedsnr" v="982164" />
	</node>
	<node lat="63.213292011366235" lon="8.137537287279631" id="-9111">
		<tag k="name" v="Ressheim" />
		<tag k="old_name" v="ROSSHEIM" />
		<tag k="place" v="farm" />
		<tag k="ssr:stedsnr" v="1076914" />
	</node>
</osm>
