<?xml version="1.0" encoding="UTF-8"?>
<osm generator="osmapis" version="0.6">
	<node id="-74495" lat="60.9568749991" lon="11.5811694443">
		<tag k="fixme" v="consider highway=path" />
		<tag k="highway" v="track" />
		<tag k="name" v="Torvvegen" />
		<tag k="ssr:stedsnr" v="419724" />
	</node>
	<node id="-75641" lat="61.0090583296" lon="11.4009944457">
		<tag k="bridge" v="yes" />
		<tag k="layer" v="1" />
		<tag k="name" v="Søndre Rustad" />
		<tag k="ssr:stedsnr" v="835741" />
	</node>
	<node id="-75640" lat="60.9520638885" lon="11.6998499999">
		<tag k="bridge" v="yes" />
		<tag k="layer" v="1" />
		<tag k="name" v="Røa" />
		<tag k="ssr:stedsnr" v="835742" />
	</node>
	<node id="-75639" lat="61.0123361079" lon="11.7336694453">
		<tag k="bridge" v="yes" />
		<tag k="layer" v="1" />
		<tag k="name" v="Julussa bru" />
		<tag k="ssr:stedsnr" v="835734" />
	</node>
	<node id="-76022" lat="60.913297226" lon="11.6752916741">
		<tag k="bridge" v="yes" />
		<tag k="layer" v="1" />
		<tag k="name" v="Jordbrua" />
		<tag k="ssr:stedsnr" v="969139" />
	</node>
	<node id="-75635" lat="60.7879888888" lon="11.5313666724">
		<tag k="fixme" v="consider highway=path" />
		<tag k="highway" v="track" />
		<tag k="name" v="Gamle-Militærvegen" />
		<tag k="ssr:stedsnr" v="831374" />
	</node>
	<node id="-73601" lat="60.9840888902" lon="11.4571888872">
		<tag k="bridge" v="yes" />
		<tag k="layer" v="1" />
		<tag k="name" v="Gjedselmobekk" />
		<tag k="ssr:stedsnr" v="410703" />
	</node>
	<node id="-73963" lat="61.0949527806" lon="11.6331638894">
		<tag k="name" v="Blikbergsvelta" />
		<tag k="place" v="locality" />
		<tag k="ssr:stedsnr" v="116939" />
	</node>
	<node id="-74473" lat="60.9955555586" lon="11.3727972227">
		<tag k="fixme" v="consider highway=path" />
		<tag k="highway" v="track" />
		<tag k="name" v="Svinga" />
		<tag k="ssr:stedsnr" v="479542" />
	</node>
	<node id="-74984" lat="60.8618111096" lon="11.5553000023">
		<tag k="bridge" v="yes" />
		<tag k="layer" v="1" />
		<tag k="name" v="Terningå" />
		<tag k="ssr:stedsnr" v="592757" />
	</node>
	<node id="-74983" lat="60.950549999" lon="11.6731250011">
		<tag k="bridge" v="yes" />
		<tag k="layer" v="1" />
		<tag k="name" v="Horna bru" />
		<tag k="ssr:stedsnr" v="592743" />
	</node>
	<node id="-74982" lat="61.0108055557" lon="11.8138666618">
		<tag k="bridge" v="yes" />
		<tag k="layer" v="1" />
		<tag k="name" v="Midtre Bergekvernbekk" />
		<tag k="ssr:stedsnr" v="592740" />
	</node>
	<node id="-73957" lat="61.0107805526" lon="11.4803249958">
		<tag k="junction" v="yes" />
		<tag k="name" v="Vollsvekrysset" />
		<tag k="place" v="locality" />
		<tag k="ssr:stedsnr" v="103854" />
	</node>
	<node id="-74980" lat="61.0770972217" lon="11.6099166593">
		<tag k="name" v="Rødsvelta" />
		<tag k="place" v="locality" />
		<tag k="ssr:stedsnr" v="587954" />
	</node>
	<node id="-75360" lat="60.9114361106" lon="11.6871444519">
		<tag k="bridge" v="yes" />
		<tag k="layer" v="1" />
		<tag k="name" v="Kavlebruene" />
		<tag k="ssr:stedsnr" v="726135" />
	</node>
	<node id="-75103" lat="60.8829499989" lon="11.5465638818">
		<tag k="name" v="Elverum stasjon" />
		<tag k="railway" v="station" />
		<tag k="ssr:stedsnr" v="616122" />
		<tag k="train" v="yes" />
	</node>
	<node id="-75993" lat="61.0929277818" lon="11.5793305599">
		<tag k="name" v="Dølvelta" />
		<tag k="place" v="locality" />
		<tag k="ssr:stedsnr" v="966937" />
	</node>
	<node id="-75480" lat="60.9937111142" lon="11.3550583318">
		<tag k="fixme" v="consider highway=path" />
		<tag k="highway" v="track" />
		<tag k="name" v="Gamle Nordhuevegen" />
		<tag k="ssr:stedsnr" v="783535" />
	</node>
	<node id="-75474" lat="60.8765305579" lon="11.4674138898">
		<tag k="bridge" v="yes" />
		<tag k="layer" v="1" />
		<tag k="name" v="Vestre Terningå" />
		<tag k="ssr:stedsnr" v="774742" />
	</node>
	<node id="-73221" lat="61.0042555586" lon="11.4076444418">
		<tag k="bridge" v="yes" />
		<tag k="layer" v="1" />
		<tag k="name" v="Nubekk" />
		<tag k="ssr:stedsnr" v="289757" />
	</node>
	<node id="-74827" lat="61.0738694487" lon="11.7174833347">
		<tag k="highway" v="path" />
		<tag k="name" v="Gamle Tøråsvegen" />
		<tag k="ssr:stedsnr" v="541663" />
	</node>
	<node id="-74826" lat="60.9091916707" lon="11.5257916735">
		<tag k="landuse" v="industrial" />
		<tag k="name" v="Strandfossen kraftverk" />
		<tag k="power" v="plant" />
		<tag k="ssr:stedsnr" v="541634" />
	</node>
	<node id="-74309" lat="61.0458027782" lon="11.8784722307">
		<tag k="bridge" v="yes" />
		<tag k="layer" v="1" />
		<tag k="name" v="Ørbekken" />
		<tag k="ssr:stedsnr" v="228749" />
	</node>
	<node id="-73412" lat="60.8838527787" lon="11.5300944432">
		<tag k="bridge" v="yes" />
		<tag k="layer" v="1" />
		<tag k="name" v="Terningmoen" />
		<tag k="ssr:stedsnr" v="349737" />
	</node>
	<node id="-75971" lat="60.9500472225" lon="11.8187861085">
		<tag k="bridge" v="yes" />
		<tag k="layer" v="1" />
		<tag k="name" v="Kynna" />
		<tag k="ssr:stedsnr" v="957690" />
	</node>
	<node id="-74049" lat="61.01885833" lon="12.0012805598">
		<tag k="highway" v="path" />
		<tag k="name" v="Korsvegen" />
		<tag k="ssr:stedsnr" v="129897" />
	</node>
	<node id="-74048" lat="61.0135472206" lon="12.052888887">
		<tag k="ford" v="yes" />
		<tag k="name" v="Gråbergsvadet" />
		<tag k="place" v="locality" />
		<tag k="ssr:stedsnr" v="129896" />
	</node>
	<node id="-73931" lat="60.8799055528" lon="11.6709833352">
		<tag k="aeroway" v="airstrip" />
		<tag k="alt_name" v="Starmoen flyplass" />
		<tag k="name" v="Elverum flyplass, Starmoen" />
		<tag k="old_name" v="Hornmoen flyplass" />
		<tag k="ssr:stedsnr" v="94842" />
	</node>
	<node id="-74810" lat="60.9340805531" lon="11.7012527728">
		<tag k="alt_name" v="Hornbrua" />
		<tag k="bridge" v="yes" />
		<tag k="layer" v="1" />
		<tag k="name" v="Horna bru" />
		<tag k="ssr:stedsnr" v="532692" />
	</node>
	<node id="-73951" lat="61.0233305579" lon="12.0145388934">
		<tag k="highway" v="path" />
		<tag k="name" v="Vintervegen" />
		<tag k="ssr:stedsnr" v="102677" />
	</node>
	<node id="-75316" lat="60.8322888901" lon="11.6123944444">
		<tag k="bridge" v="yes" />
		<tag k="layer" v="1" />
		<tag k="name" v="Skjefstadfossen" />
		<tag k="ssr:stedsnr" v="714682" />
	</node>
	<node id="-75696" lat="60.9087805581" lon="11.6819777695">
		<tag k="bridge" v="yes" />
		<tag k="layer" v="1" />
		<tag k="name" v="Lortbrua" />
		<tag k="ssr:stedsnr" v="848133" />
	</node>
	<node id="-73629" lat="60.883325004" lon="11.510772222">
		<tag k="bridge" v="yes" />
		<tag k="layer" v="1" />
		<tag k="name" v="Østre Terningå" />
		<tag k="ssr:stedsnr" v="896753" />
	</node>
	<node id="-75305" lat="60.9109194459" lon="11.5517333334">
		<tag k="fixme" v="consider highway=path" />
		<tag k="highway" v="track" />
		<tag k="name" v="Eidskogsvegen" />
		<tag k="ssr:stedsnr" v="709126" />
	</node>
	<node id="-73256" lat="61.0073472182" lon="11.7533000038">
		<tag k="bridge" v="yes" />
		<tag k="layer" v="1" />
		<tag k="name" v="Høymokloppen" />
		<tag k="ssr:stedsnr" v="300426" />
	</node>
	<node id="-75153" lat="61.0117888928" lon="11.8068277772">
		<tag k="bridge" v="yes" />
		<tag k="layer" v="1" />
		<tag k="name" v="Nedre Bergekvernbekk" />
		<tag k="ssr:stedsnr" v="653710" />
	</node>
	<node id="-74660" lat="61.0178666663" lon="11.7360999928">
		<tag k="bridge" v="yes" />
		<tag k="layer" v="1" />
		<tag k="name" v="Storbekken bru" />
		<tag k="ssr:stedsnr" v="471704" />
	</node>
	<node id="-73763" lat="60.8977277766" lon="11.5171944473">
		<tag k="fixme" v="consider highway=path" />
		<tag k="highway" v="track" />
		<tag k="name" v="Slåttmyrkoievegen" />
		<tag k="ssr:stedsnr" v="41611" />
	</node>
	<node id="-74651" lat="61.0431555528" lon="11.7017138834">
		<tag k="highway" v="path" />
		<tag k="name" v="Gamle Løvhaugvegen" />
		<tag k="ssr:stedsnr" v="466335" />
	</node>
	<node id="-74656" lat="61.003911108" lon="11.4779055629">
		<tag k="name" v="Eslet" />
		<tag k="place" v="locality" />
		<tag k="ssr:stedsnr" v="466878" />
	</node>
	<node id="-75184" lat="60.8788166696" lon="11.9139500034">
		<tag k="highway" v="path" />
		<tag k="name" v="Houmsvegen" />
		<tag k="ssr:stedsnr" v="664059" />
	</node>
	<node id="-75806" lat="61.0719222261" lon="11.7695694411">
		<tag k="highway" v="path" />
		<tag k="name" v="Hestvegen" />
		<tag k="ssr:stedsnr" v="905672" />
	</node>
	<node id="-75973" lat="60.9486138913" lon="11.6959222148">
		<tag k="bridge" v="yes" />
		<tag k="layer" v="1" />
		<tag k="name" v="Horna bru" />
		<tag k="ssr:stedsnr" v="956727" />
	</node>
	<node id="-73628" lat="60.9588055542" lon="11.6886361058">
		<tag k="bridge" v="yes" />
		<tag k="layer" v="1" />
		<tag k="name" v="Bjørnbekk" />
		<tag k="ssr:stedsnr" v="896744" />
	</node>
	<node id="-73627" lat="60.7574578504" lon="11.7109807093">
		<tag k="bridge" v="yes" />
		<tag k="layer" v="1" />
		<tag k="name" v="Bronken bru" />
		<tag k="ssr:stedsnr" v="896743" />
	</node>
	<node id="-75161" lat="61.0287638927" lon="11.7623750041">
		<tag k="highway" v="path" />
		<tag k="name" v="Bjørnåsvegen" />
		<tag k="ssr:stedsnr" v="662396" />
	</node>
	<node id="-74136" lat="60.9726249971" lon="11.7069638845">
		<tag k="bridge" v="yes" />
		<tag k="layer" v="1" />
		<tag k="name" v="Røa bru" />
		<tag k="ssr:stedsnr" v="168708" />
	</node>
	<node id="-74308" lat="60.8713444452" lon="11.5623277783">
		<tag k="bridge" v="yes" />
		<tag k="layer" v="1" />
		<tag k="name" v="Skogbruksmuseet O/G-Sveg" />
		<tag k="ssr:stedsnr" v="228743" />
	</node>
	<node id="-75158" lat="60.9680916658" lon="12.0363722198">
		<tag k="ford" v="yes" />
		<tag k="name" v="Embretsvadet" />
		<tag k="place" v="locality" />
		<tag k="ssr:stedsnr" v="661527" />
	</node>
	<node id="-74641" lat="61.0314944407" lon="12.1047388911">
		<tag k="bridge" v="yes" />
		<tag k="layer" v="1" />
		<tag k="name" v="Halåbrua" />
		<tag k="ssr:stedsnr" v="464553" />
	</node>
	<node id="-75843" lat="60.9665388896" lon="11.7037333288">
		<tag k="fixme" v="consider highway=path" />
		<tag k="highway" v="track" />
		<tag k="name" v="Gamle Trysilveg" />
		<tag k="ssr:stedsnr" v="908486" />
	</node>
	<node id="-75152" lat="60.9230999971" lon="11.512749996">
		<tag k="bridge" v="yes" />
		<tag k="layer" v="1" />
		<tag k="name" v="Grundsetbekken" />
		<tag k="ssr:stedsnr" v="653708" />
	</node>
	<node id="-74127" lat="61.0898527777" lon="11.6269944369">
		<tag k="name" v="Langlandsvelta" />
		<tag k="place" v="locality" />
		<tag k="ssr:stedsnr" v="162963" />
	</node>
	<node id="-73229" lat="60.9986388898" lon="11.384800001">
		<tag k="highway" v="path" />
		<tag k="name" v="Nysæterslepen" />
		<tag k="ssr:stedsnr" v="298535" />
	</node>
	<node id="-73228" lat="61.0011805592" lon="11.3863861069">
		<tag k="fixme" v="consider highway=path" />
		<tag k="highway" v="track" />
		<tag k="name" v="Nordhuevegen" />
		<tag k="ssr:stedsnr" v="298534" />
	</node>
	<node id="-75638" lat="60.9985527774" lon="11.4780944479">
		<tag k="junction" v="yes" />
		<tag k="name" v="Bekkekoiekrysset" />
		<tag k="place" v="locality" />
		<tag k="ssr:stedsnr" v="831844" />
	</node>
	<node id="-73223" lat="60.9643638893" lon="11.5004833359">
		<tag k="bridge" v="yes" />
		<tag k="layer" v="1" />
		<tag k="name" v="Ørbekken" />
		<tag k="ssr:stedsnr" v="46745" />
	</node>
	<node id="-73222" lat="60.9119944431" lon="11.6384833423">
		<tag k="bridge" v="yes" />
		<tag k="layer" v="1" />
		<tag k="name" v="Nistilkroken" />
		<tag k="ssr:stedsnr" v="289761" />
	</node>
	<node id="-75972" lat="60.9870777798" lon="11.4488277756">
		<tag k="bridge" v="yes" />
		<tag k="layer" v="1" />
		<tag k="name" v="Purkskinnbru" />
		<tag k="ssr:stedsnr" v="957695" />
	</node>
	<node id="-73603" lat="60.983741666" lon="11.4778527854">
		<tag k="bridge" v="yes" />
		<tag k="layer" v="1" />
		<tag k="name" v="Øksetbekken" />
		<tag k="ssr:stedsnr" v="410718" />
	</node>
	<node id="-73602" lat="60.9208027765" lon="11.6192055494">
		<tag k="bridge" v="yes" />
		<tag k="layer" v="1" />
		<tag k="name" v="Nistil bru" />
		<tag k="ssr:stedsnr" v="410714" />
	</node>
	<node id="-74781" lat="60.7878027809" lon="11.7823333313">
		<tag k="fixme" v="consider highway=path" />
		<tag k="highway" v="track" />
		<tag k="name" v="Kløftfuruvegen" />
		<tag k="ssr:stedsnr" v="525337" />
	</node>
</osm>
