<?xml version="1.0" encoding="UTF-8"?>
<osm generator="osmapis" version="0.6">
	<node id="-75776" lat="60.760577775" lon="11.6386277693">
		<tag k="alt_name" v="Breidmyra" />
		<tag k="name" v="Breimyra" />
		<tag k="natural" v="wetland" />
		<tag k="ssr:stedsnr" v="859390" />
	</node>
	<node id="-75747" lat="60.9815611125" lon="11.5214000045">
		<tag k="name" v="Torvmyra" />
		<tag k="natural" v="wetland" />
		<tag k="ssr:stedsnr" v="859043" />
	</node>
	<node id="-75739" lat="61.1007611083" lon="11.785858336">
		<tag k="name" v="Steinkjølen" />
		<tag k="natural" v="wetland" />
		<tag k="ssr:stedsnr" v="858189" />
	</node>
	<node id="-75736" lat="61.0801250036" lon="11.7834111155">
		<tag k="name" v="Knettkjølen" />
		<tag k="natural" v="wetland" />
		<tag k="ssr:stedsnr" v="858166" />
	</node>
	<node id="-75732" lat="61.0426249988" lon="11.8578305471">
		<tag k="name" v="Ulvåkjølen" />
		<tag k="natural" v="wetland" />
		<tag k="ssr:stedsnr" v="857890" />
	</node>
	<node id="-73682" lat="60.9803916629" lon="11.5487583299">
		<tag k="name" v="Langmyra" />
		<tag k="natural" v="wetland" />
		<tag k="ssr:stedsnr" v="9032" />
	</node>
	<node id="-75728" lat="61.0031277792" lon="11.8809222181">
		<tag k="historic" v="shieling" />
		<tag k="name" v="Bossåsen" />
		<tag k="old_name" v="Bossåssætra" />
		<tag k="place" v="locality" />
		<tag k="ssr:stedsnr" v="857845" />
	</node>
	<node id="-73675" lat="61.1039499964" lon="11.7229555485">
		<tag k="name" v="Ringsåskjølen" />
		<tag k="natural" v="wetland" />
		<tag k="ssr:stedsnr" v="8199" />
	</node>
	<node id="-73673" lat="61.094375002" lon="11.7519861137">
		<tag k="name" v="Ulvåkjølen" />
		<tag k="natural" v="wetland" />
		<tag k="ssr:stedsnr" v="8174" />
	</node>
	<node id="-75720" lat="61.0534611076" lon="11.5961861195">
		<tag k="name" v="Tverrkjølen" />
		<tag k="natural" v="wetland" />
		<tag k="ssr:stedsnr" v="857241" />
	</node>
	<node id="-73668" lat="61.0709805564" lon="12.1210583265">
		<tag k="name" v="Ørtjennmyra" />
		<tag k="natural" v="wetland" />
		<tag k="ssr:stedsnr" v="7934" />
	</node>
	<node id="-73667" lat="61.0632166699" lon="11.9866527792">
		<tag k="name" v="Svankjølen" />
		<tag k="natural" v="wetland" />
		<tag k="ssr:stedsnr" v="7929" />
	</node>
	<node id="-75711" lat="61.1309750037" lon="11.7664305503">
		<tag k="name" v="Langkjølkloppmyra" />
		<tag k="natural" v="wetland" />
		<tag k="ssr:stedsnr" v="857138" />
	</node>
	<node id="-75710" lat="61.130624997" lon="11.8200333261">
		<tag k="name" v="Graslandskjølen" />
		<tag k="natural" v="wetland" />
		<tag k="ssr:stedsnr" v="857136" />
	</node>
	<node id="-73658" lat="61.0293833301" lon="11.5725361131">
		<tag k="name" v="Jomfrubrenna" />
		<tag k="place" v="locality" />
		<tag k="ssr:stedsnr" v="7205" />
	</node>
	<node id="-73657" lat="61.0717361068" lon="11.736633336">
		<tag k="name" v="Elgkjølen" />
		<tag k="natural" v="wetland" />
		<tag k="ssr:stedsnr" v="7175" />
	</node>
	<node id="-75702" lat="60.9413638903" lon="11.8233750019">
		<tag k="name" v="Tovmyra" />
		<tag k="natural" v="wetland" />
		<tag k="ssr:stedsnr" v="848823" />
	</node>
	<node id="-75697" lat="60.9172000043" lon="11.7077805528">
		<tag k="name" v="Rørmyra" />
		<tag k="natural" v="wetland" />
		<tag k="ssr:stedsnr" v="848143" />
	</node>
	<node id="-75695" lat="61.0203527771" lon="11.8877388963">
		<tag k="landuse" v="meadow" />
		<tag k="name" v="Tittnabbstranda" />
		<tag k="ssr:stedsnr" v="848125" />
	</node>
	<node id="-75692" lat="61.1769833314" lon="11.7580916735">
		<tag k="name" v="Vestre Grasbergbekken" />
		<tag k="natural" v="wetland" />
		<tag k="ssr:stedsnr" v="847910" />
	</node>
	<node id="-75691" lat="60.8128000035" lon="11.9279972313">
		<tag k="name" v="Dansketjennsmyra" />
		<tag k="natural" v="wetland" />
		<tag k="ssr:stedsnr" v="848089" />
	</node>
	<node id="-73637" lat="60.9955822913" lon="11.8397435155">
		<tag k="loc_name" v="Langmyra" />
		<tag k="name" v="Langkjølen" />
		<tag k="natural" v="wetland" />
		<tag k="ssr:stedsnr" v="1071904" />
	</node>
	<node id="-75683" lat="61.0250222194" lon="11.7866138849">
		<tag k="name" v="Svartbekkrønningen" />
		<tag k="place" v="locality" />
		<tag k="ssr:stedsnr" v="847021" />
	</node>
	<node id="-75682" lat="60.9640111071" lon="11.4568361081">
		<tag k="name" v="Nedre Brattbakkmyra" />
		<tag k="natural" v="wetland" />
		<tag k="ssr:stedsnr" v="846757" />
	</node>
	<node id="-75680" lat="60.9377694413" lon="11.4933083379">
		<tag k="name" v="Motakmyra" />
		<tag k="natural" v="wetland" />
		<tag k="ssr:stedsnr" v="846626" />
	</node>
	<node id="-75677" lat="60.8390194439" lon="11.5344583405">
		<tag k="name" v="Fløtningsmyra" />
		<tag k="natural" v="wetland" />
		<tag k="ssr:stedsnr" v="846575" />
	</node>
	<node id="-73625" lat="61.0980277778" lon="11.6095777839">
		<tag k="name" v="Slåttmyra" />
		<tag k="natural" v="wetland" />
		<tag k="ssr:stedsnr" v="891958" />
	</node>
	<node id="-75666" lat="60.9162722246" lon="11.5186888863">
		<tag k="name" v="Gravningen" />
		<tag k="place" v="locality" />
		<tag k="ssr:stedsnr" v="845662" />
	</node>
	<node id="-73615" lat="60.9094333357" lon="11.9146888799">
		<tag k="name" v="Østre Gildermyra" />
		<tag k="natural" v="wetland" />
		<tag k="ssr:stedsnr" v="891090" />
	</node>
	<node id="-73612" lat="61.0017777798" lon="11.4949166732">
		<tag k="name" v="Eggemyra" />
		<tag k="natural" v="wetland" />
		<tag k="ssr:stedsnr" v="890806" />
	</node>
	<node id="-75655" lat="60.963411113" lon="11.5228222217">
		<tag k="name" v="Sætermyra" />
		<tag k="natural" v="wetland" />
		<tag k="ssr:stedsnr" v="844653" />
	</node>
	<node id="-75649" lat="61.0490333297" lon="11.6457305571">
		<tag k="name" v="Skavhaugrønningen" />
		<tag k="place" v="locality" />
		<tag k="ssr:stedsnr" v="844543" />
	</node>
	<node id="-75648" lat="60.9866527767" lon="11.365447221">
		<tag k="name" v="Jerpåsmyra" />
		<tag k="natural" v="wetland" />
		<tag k="ssr:stedsnr" v="844540" />
	</node>
	<node id="-75647" lat="60.9707896705" lon="11.36634614">
		<tag k="name" v="Brennmyra" />
		<tag k="natural" v="wetland" />
		<tag k="ssr:stedsnr" v="844538" />
	</node>
	<node id="-75644" lat="60.9081222237" lon="11.8693000009">
		<tag k="name" v="Vintermyra" />
		<tag k="natural" v="wetland" />
		<tag k="ssr:stedsnr" v="847830" />
	</node>
	<node id="-73595" lat="60.9051555569" lon="11.5313666589">
		<tag k="name" v="Vesterenga" />
		<tag k="place" v="locality" />
		<tag k="ssr:stedsnr" v="406606" />
	</node>
	<node id="-73593" lat="61.0804055538" lon="11.6437916638">
		<tag k="name" v="Storkjølen" />
		<tag k="natural" v="wetland" />
		<tag k="ssr:stedsnr" v="405958" />
	</node>
	<node id="-73591" lat="60.966822221" lon="11.8543527829">
		<tag k="name" v="Jordsmyra" />
		<tag k="natural" v="wetland" />
		<tag k="ssr:stedsnr" v="405172" />
	</node>
	<node id="-73589" lat="60.9667055544" lon="11.8754722269">
		<tag k="name" v="Annemyra" />
		<tag k="natural" v="wetland" />
		<tag k="ssr:stedsnr" v="405133" />
	</node>
	<node id="-73586" lat="60.9009361117" lon="11.7044777851">
		<tag k="name" v="Tullperholtet" />
		<tag k="place" v="locality" />
		<tag k="ssr:stedsnr" v="404780" />
	</node>
	<node id="-75633" lat="61.0351638916" lon="11.7714111133">
		<tag k="name" v="Slettrønningen" />
		<tag k="place" v="locality" />
		<tag k="ssr:stedsnr" v="830234" />
	</node>
	<node id="-73584" lat="61.0024666632" lon="11.5014583379">
		<tag k="name" v="Karlsmyra" />
		<tag k="natural" v="wetland" />
		<tag k="ssr:stedsnr" v="404764" />
	</node>
	<node id="-73580" lat="60.937299999" lon="11.5927777851">
		<tag k="name" v="Hølbjørka" />
		<tag k="place" v="locality" />
		<tag k="ssr:stedsnr" v="404066" />
	</node>
	<node id="-75623" lat="60.9644166669" lon="11.9527499971">
		<tag k="name" v="Storkjølen" />
		<tag k="natural" v="wetland" />
		<tag k="ssr:stedsnr" v="829416" />
	</node>
	<node id="-75621" lat="60.9430750015" lon="11.5564444503">
		<tag k="name" v="Båneruds Ramsteig" />
		<tag k="place" v="locality" />
		<tag k="ssr:stedsnr" v="829084" />
	</node>
	<node id="-75616" lat="60.9871305572" lon="11.6611555586">
		<tag k="name" v="Hushaugkjølen" />
		<tag k="natural" v="wetland" />
		<tag k="ssr:stedsnr" v="798990" />
	</node>
	<node id="-75614" lat="60.9019944413" lon="11.4581333251">
		<tag k="name" v="Stormyra" />
		<tag k="natural" v="wetland" />
		<tag k="ssr:stedsnr" v="798626" />
	</node>
	<node id="-75594" lat="60.7962749982" lon="11.5777972173">
		<tag k="name" v="Svevollen" />
		<tag k="place" v="locality" />
		<tag k="ssr:stedsnr" v="798302" />
	</node>
	<node id="-75591" lat="60.8260388895" lon="11.8164805522">
		<tag k="loc_name" v="Breimyra" />
		<tag k="name" v="Breidmyra" />
		<tag k="natural" v="wetland" />
		<tag k="ssr:stedsnr" v="798262" />
	</node>
	<node id="-75588" lat="60.8034277811" lon="11.7771666629">
		<tag k="name" v="Kalvmyra" />
		<tag k="natural" v="wetland" />
		<tag k="ssr:stedsnr" v="798247" />
	</node>
	<node id="-75584" lat="60.8606138928" lon="11.6222166687">
		<tag k="fixme" v="multiple name tags, choose one and add the other to alt_name" />
		<tag k="name" v="Fuglleikmyra;Mosamyra" />
		<tag k="natural" v="wetland" />
		<tag k="ssr:stedsnr" v="798217" />
	</node>
	<node id="-73531" lat="60.8358861135" lon="11.5125444419">
		<tag k="alt_name" v="Orreleikmyra" />
		<tag k="name" v="Orrleikkjølen" />
		<tag k="natural" v="wetland" />
		<tag k="ssr:stedsnr" v="373168" />
	</node>
	<node id="-73511" lat="60.9752111082" lon="11.5637416618">
		<tag k="name" v="Disen" />
		<tag k="natural" v="wetland" />
		<tag k="ssr:stedsnr" v="373032" />
	</node>
	<node id="-75539" lat="61.0591499972" lon="11.814061106">
		<tag k="name" v="Bergerkjølen" />
		<tag k="natural" v="wetland" />
		<tag k="ssr:stedsnr" v="796218" />
	</node>
	<node id="-75537" lat="61.071725002" lon="11.7144249968">
		<tag k="name" v="Løvmyra" />
		<tag k="natural" v="wetland" />
		<tag k="ssr:stedsnr" v="796203" />
	</node>
	<node id="-73485" lat="61.0756750022" lon="11.7947249975">
		<tag k="name" v="Ankjølen" />
		<tag k="natural" v="wetland" />
		<tag k="ssr:stedsnr" v="371166" />
	</node>
	<node id="-73482" lat="61.1184249982" lon="11.7057499918">
		<tag k="name" v="Kavlemyra" />
		<tag k="natural" v="wetland" />
		<tag k="ssr:stedsnr" v="371137" />
	</node>
	<node id="-73481" lat="60.8348527738" lon="11.8280222131">
		<tag k="name" v="Hansmyra" />
		<tag k="natural" v="wetland" />
		<tag k="ssr:stedsnr" v="362985" />
	</node>
	<node id="-73480" lat="60.8166861107" lon="11.8676250023">
		<tag k="name" v="Torvdammyra" />
		<tag k="natural" v="wetland" />
		<tag k="ssr:stedsnr" v="362979" />
	</node>
	<node id="-75525" lat="60.9148555571" lon="11.496958328">
		<tag k="name" v="Kvernmyra" />
		<tag k="natural" v="wetland" />
		<tag k="ssr:stedsnr" v="787642" />
	</node>
	<node id="-75523" lat="60.9283638882" lon="11.4581555473">
		<tag k="name" v="Langmyra" />
		<tag k="natural" v="wetland" />
		<tag k="ssr:stedsnr" v="787572" />
	</node>
	<node id="-73468" lat="61.0161749978" lon="11.3157833273">
		<tag k="name" v="Stortjennsmyra" />
		<tag k="natural" v="wetland" />
		<tag k="ssr:stedsnr" v="362254" />
	</node>
	<node id="-73466" lat="61.0417861136" lon="11.8204166753">
		<tag k="name" v="Øvre Svartbergsmyra" />
		<tag k="natural" v="wetland" />
		<tag k="ssr:stedsnr" v="362103" />
	</node>
	<node id="-75513" lat="61.0033500039" lon="11.8671500088">
		<tag k="name" v="Rogstadkjølen" />
		<tag k="natural" v="wetland" />
		<tag k="ssr:stedsnr" v="787030" />
	</node>
	<node id="-73462" lat="60.9130972253" lon="11.5013222147">
		<tag k="name" v="Igletjennsmyra" />
		<tag k="natural" v="wetland" />
		<tag k="ssr:stedsnr" v="362621" />
	</node>
	<node id="-75509" lat="60.885644444" lon="11.8600388895">
		<tag k="name" v="Tollefsmyra" />
		<tag k="natural" v="wetland" />
		<tag k="ssr:stedsnr" v="786822" />
	</node>
	<node id="-73459" lat="61.1453999994" lon="11.7811388973">
		<tag k="name" v="Røtkjølen" />
		<tag k="natural" v="wetland" />
		<tag k="ssr:stedsnr" v="361917" />
	</node>
	<node id="-75502" lat="61.010377782" lon="11.3137527707">
		<tag k="name" v="Småtjennsmyrene" />
		<tag k="natural" v="wetland" />
		<tag k="ssr:stedsnr" v="785560" />
	</node>
	<node id="-73451" lat="60.9669916691" lon="11.4294305494">
		<tag k="name" v="Brennkjølen" />
		<tag k="natural" v="wetland" />
		<tag k="ssr:stedsnr" v="360751" />
	</node>
	<node id="-73450" lat="60.9627694458" lon="11.4521194384">
		<tag k="name" v="Kloppmyra" />
		<tag k="natural" v="wetland" />
		<tag k="ssr:stedsnr" v="360747" />
	</node>
	<node id="-75497" lat="60.875797218" lon="11.6057583365">
		<tag k="name" v="Fuglemyra" />
		<tag k="natural" v="wetland" />
		<tag k="ssr:stedsnr" v="785018" />
	</node>
	<node id="-73446" lat="60.941549998" lon="11.5207777685">
		<tag k="name" v="Brubakken" />
		<tag k="place" v="locality" />
		<tag k="ssr:stedsnr" v="360622" />
	</node>
	<node id="-73445" lat="60.9444305558" lon="11.4867000023">
		<tag k="name" v="Rustadmyra" />
		<tag k="natural" v="wetland" />
		<tag k="ssr:stedsnr" v="360615" />
	</node>
	<node id="-75491" lat="61.0608666713" lon="11.6887055474">
		<tag k="name" v="Skjæråskjølen" />
		<tag k="natural" v="wetland" />
		<tag k="ssr:stedsnr" v="784668" />
	</node>
	<node id="-73442" lat="60.9855583307" lon="11.3600111091">
		<tag k="name" v="Stannarholtmyra" />
		<tag k="natural" v="wetland" />
		<tag k="ssr:stedsnr" v="237549" />
	</node>
	<node id="-73440" lat="60.8841861127" lon="11.9515361187">
		<tag k="name" v="Fuglleikmyra" />
		<tag k="natural" v="wetland" />
		<tag k="ssr:stedsnr" v="360054" />
	</node>
	<node id="-75485" lat="60.9702055534" lon="11.5666638878">
		<tag k="name" v="Disenkjølen" />
		<tag k="natural" v="wetland" />
		<tag k="ssr:stedsnr" v="783708" />
	</node>
	<node id="-75484" lat="60.9534472252" lon="11.6277500077">
		<tag k="name" v="Vardemyrene" />
		<tag k="natural" v="wetland" />
		<tag k="ssr:stedsnr" v="783703" />
	</node>
	<node id="-75483" lat="60.961952782" lon="11.6518444466">
		<tag k="landuse" v="meadow" />
		<tag k="name" v="Horndalsengene" />
		<tag k="ssr:stedsnr" v="783701" />
	</node>
	<node id="-73432" lat="61.0996083336" lon="11.5970500013">
		<tag k="name" v="Nedre Måsåmyra" />
		<tag k="natural" v="wetland" />
		<tag k="ssr:stedsnr" v="359931" />
	</node>
	<node id="-73431" lat="60.7924277738" lon="11.6098694371">
		<tag k="historic" v="shieling" />
		<tag k="name" v="Bergmyrvollen" />
		<tag k="place" v="locality" />
		<tag k="ssr:stedsnr" v="359413" />
	</node>
	<node id="-73425" lat="61.0308499986" lon="11.4895361118">
		<tag k="historic" v="shieling" />
		<tag k="name" v="Odden sæter" />
		<tag k="place" v="locality" />
		<tag k="ssr:stedsnr" v="358900" />
	</node>
	<node id="-73336" lat="60.7689555545" lon="11.7742555604">
		<tag k="name" v="Stormyra" />
		<tag k="natural" v="wetland" />
		<tag k="ssr:stedsnr" v="312328" />
	</node>
	<node id="-75469" lat="60.9032555538" lon="11.5385777722">
		<tag k="name" v="Østerenga" />
		<tag k="place" v="locality" />
		<tag k="ssr:stedsnr" v="770580" />
	</node>
	<node id="-73420" lat="61.0964888881" lon="11.7183777824">
		<tag k="landuse" v="meadow" />
		<tag k="name" v="Slagghølrønningen" />
		<tag k="ssr:stedsnr" v="358654" />
	</node>
	<node id="-75459" lat="60.9777250034" lon="11.5228666636">
		<tag k="name" v="Storstensmyra" />
		<tag k="natural" v="wetland" />
		<tag k="ssr:stedsnr" v="768805" />
	</node>
	<node id="-73408" lat="60.9116777768" lon="11.9055194421">
		<tag k="historic" v="shieling" />
		<tag k="name" v="Løvhaugsætra" />
		<tag k="place" v="locality" />
		<tag k="ssr:stedsnr" v="345090" />
	</node>
	<node id="-73407" lat="61.053750004" lon="11.5669972285">
		<tag k="name" v="Svellmyra" />
		<tag k="natural" v="wetland" />
		<tag k="ssr:stedsnr" v="344575" />
	</node>
	<node id="-73406" lat="60.9627250005" lon="11.8612027793">
		<tag k="name" v="Stormyra" />
		<tag k="natural" v="wetland" />
		<tag k="ssr:stedsnr" v="344174" />
	</node>
	<node id="-73405" lat="60.9623361141" lon="11.8701611107">
		<tag k="name" v="Oksmyra" />
		<tag k="natural" v="wetland" />
		<tag k="ssr:stedsnr" v="344171" />
	</node>
	<node id="-73402" lat="60.9155027758" lon="11.627355548">
		<tag k="landuse" v="meadow" />
		<tag k="name" v="Brovollsrønningen" />
		<tag k="ssr:stedsnr" v="344100" />
	</node>
	<node id="-73399" lat="61.0254555596" lon="11.4153972244">
		<tag k="name" v="Nordre Lønnbergsvea" />
		<tag k="place" v="locality" />
		<tag k="ssr:stedsnr" v="343190" />
	</node>
	<node id="-73398" lat="61.0626750044" lon="11.6137361091">
		<tag k="landuse" v="meadow" />
		<tag k="name" v="Lille Jensgangrydningen" />
		<tag k="ssr:stedsnr" v="344960" />
	</node>
	<node id="-73397" lat="61.0640194413" lon="11.6139583336">
		<tag k="name" v="Storkjølen" />
		<tag k="natural" v="wetland" />
		<tag k="ssr:stedsnr" v="344958" />
	</node>
	<node id="-73394" lat="60.9318222196" lon="11.5763249954">
		<tag k="name" v="Søndre Stavåsmyra" />
		<tag k="natural" v="wetland" />
		<tag k="ssr:stedsnr" v="343070" />
	</node>
	<node id="-75437" lat="60.8557999987" lon="11.7464972281">
		<tag k="alt_name" v="Måsamyra" />
		<tag k="name" v="Mosamyra" />
		<tag k="natural" v="wetland" />
		<tag k="ssr:stedsnr" v="738226" />
	</node>
	<node id="-73379" lat="60.9459250002" lon="11.4181000066">
		<tag k="name" v="Kvitkjølen" />
		<tag k="natural" v="wetland" />
		<tag k="ssr:stedsnr" v="313573" />
	</node>
	<node id="-73378" lat="60.9689499996" lon="11.4243500037">
		<tag k="name" v="Storkjølen" />
		<tag k="natural" v="wetland" />
		<tag k="ssr:stedsnr" v="313539" />
	</node>
	<node id="-73371" lat="60.8190861128" lon="11.7509499976">
		<tag k="name" v="Melåsmyra" />
		<tag k="natural" v="wetland" />
		<tag k="ssr:stedsnr" v="313297" />
	</node>
	<node id="-75716" lat="61.0640750009" lon="11.7403277776">
		<tag k="name" v="Skarpbergmyra" />
		<tag k="natural" v="wetland" />
		<tag k="ssr:stedsnr" v="857227" />
	</node>
	<node id="-73363" lat="60.8705777819" lon="11.6902833291">
		<tag k="name" v="Skrivermyra" />
		<tag k="natural" v="wetland" />
		<tag k="ssr:stedsnr" v="313231" />
	</node>
	<node id="-73359" lat="60.8781944447" lon="11.6894722143">
		<tag k="name" v="Engemyra" />
		<tag k="natural" v="wetland" />
		<tag k="ssr:stedsnr" v="313146" />
	</node>
	<node id="-75404" lat="60.8963000002" lon="11.7907555574">
		<tag k="name" v="Prestmyra" />
		<tag k="natural" v="wetland" />
		<tag k="ssr:stedsnr" v="737139" />
	</node>
	<node id="-75403" lat="60.890244448" lon="11.6255027855">
		<tag k="name" v="Årtjennskjølen" />
		<tag k="natural" v="wetland" />
		<tag k="ssr:stedsnr" v="737130" />
	</node>
	<node id="-75396" lat="60.9400277764" lon="11.5810750045">
		<tag k="alt_name" v="Nordre Stavåsmyra" />
		<tag k="name" v="Stavåsmyra" />
		<tag k="natural" v="wetland" />
		<tag k="ssr:stedsnr" v="737092" />
	</node>
	<node id="-73347" lat="60.985052779" lon="11.3893750038">
		<tag k="name" v="Lassmyra" />
		<tag k="natural" v="wetland" />
		<tag k="ssr:stedsnr" v="312554" />
	</node>
	<node id="-75384" lat="61.0906555524" lon="11.6945499954">
		<tag k="name" v="Gåsengkjølen" />
		<tag k="natural" v="wetland" />
		<tag k="ssr:stedsnr" v="736165" />
	</node>
	<node id="-75383" lat="61.1204361083" lon="11.7414250049">
		<tag k="name" v="Tørråsstorkjølen" />
		<tag k="natural" v="wetland" />
		<tag k="ssr:stedsnr" v="736142" />
	</node>
	<node id="-75374" lat="61.0732500022" lon="11.7886749945">
		<tag k="name" v="Skardkjølen" />
		<tag k="natural" v="wetland" />
		<tag k="ssr:stedsnr" v="735162" />
	</node>
	<node id="-75411" lat="60.8384666705" lon="11.7673999924">
		<tag k="name" v="Stormyra" />
		<tag k="natural" v="wetland" />
		<tag k="ssr:stedsnr" v="737191" />
	</node>
	<node id="-73318" lat="61.102347223" lon="11.8616000047">
		<tag k="name" v="Botningkjølen" />
		<tag k="natural" v="wetland" />
		<tag k="ssr:stedsnr" v="311979" />
	</node>
	<node id="-75365" lat="61.0046972216" lon="11.5505166739">
		<tag k="name" v="Øksetmyra" />
		<tag k="natural" v="wetland" />
		<tag k="ssr:stedsnr" v="726607" />
	</node>
	<node id="-75364" lat="61.1251666646" lon="11.7725388886">
		<tag k="name" v="Brattkjølen" />
		<tag k="natural" v="wetland" />
		<tag k="ssr:stedsnr" v="726577" />
	</node>
	<node id="-75366" lat="61.0069944444" lon="11.6070722201">
		<tag k="landuse" v="meadow" />
		<tag k="name" v="Gjefsåsrønningen" />
		<tag k="ssr:stedsnr" v="726609" />
	</node>
	<node id="-75359" lat="60.9075805518" lon="11.6879111031">
		<tag k="name" v="Rogstadrønningsmyra" />
		<tag k="natural" v="wetland" />
		<tag k="ssr:stedsnr" v="726126" />
	</node>
	<node id="-73310" lat="61.1724500011" lon="11.734108333">
		<tag k="name" v="Ulvåkjølen" />
		<tag k="natural" v="wetland" />
		<tag k="ssr:stedsnr" v="311424" />
	</node>
	<node id="-75353" lat="60.9405749968" lon="11.5325055471">
		<tag k="name" v="Hellebakkmyra" />
		<tag k="natural" v="wetland" />
		<tag k="ssr:stedsnr" v="725570" />
	</node>
	<node id="-73299" lat="61.1455972183" lon="11.8322166654">
		<tag k="name" v="Storløkjølen" />
		<tag k="natural" v="wetland" />
		<tag k="ssr:stedsnr" v="311197" />
	</node>
	<node id="-75345" lat="60.9617305574" lon="11.446761104">
		<tag k="name" v="Øvre Brattbakkmyra" />
		<tag k="natural" v="wetland" />
		<tag k="ssr:stedsnr" v="724744" />
	</node>
	<node id="-75338" lat="61.0715249968" lon="11.6856750083">
		<tag k="name" v="Nødselkjølen" />
		<tag k="natural" v="wetland" />
		<tag k="ssr:stedsnr" v="723642" />
	</node>
	<node id="-75337" lat="61.0676416672" lon="11.6813527859">
		<tag k="name" v="Mellomkjølen" />
		<tag k="natural" v="wetland" />
		<tag k="ssr:stedsnr" v="723641" />
	</node>
	<node id="-75336" lat="61.0754111116" lon="11.6930388871">
		<tag k="name" v="Svenskmyra" />
		<tag k="natural" v="wetland" />
		<tag k="ssr:stedsnr" v="723623" />
	</node>
	<node id="-75328" lat="60.9815472227" lon="12.0284638816">
		<tag k="name" v="Storkjølen" />
		<tag k="natural" v="wetland" />
		<tag k="ssr:stedsnr" v="722970" />
	</node>
	<node id="-73277" lat="60.8802944465" lon="11.5165222167">
		<tag k="name" v="Svartmyra" />
		<tag k="natural" v="wetland" />
		<tag k="ssr:stedsnr" v="301595" />
	</node>
	<node id="-75323" lat="61.0297555599" lon="11.5474888954">
		<tag k="historic" v="shieling" />
		<tag k="name" v="Søgardsvollen" />
		<tag k="place" v="locality" />
		<tag k="ssr:stedsnr" v="722554" />
	</node>
	<node id="-73270" lat="60.7712861152" lon="11.7384416663">
		<tag k="name" v="Rokmyra" />
		<tag k="natural" v="wetland" />
		<tag k="ssr:stedsnr" v="301278" />
	</node>
	<node id="-75313" lat="60.9968555517" lon="11.9908333275">
		<tag k="name" v="Øvre Vårmorkjølen" />
		<tag k="natural" v="wetland" />
		<tag k="ssr:stedsnr" v="709923" />
	</node>
	<node id="-73263" lat="60.9593277759" lon="11.4362749946">
		<tag k="name" v="Slåttmyra" />
		<tag k="natural" v="wetland" />
		<tag k="ssr:stedsnr" v="300763" />
	</node>
	<node id="-73261" lat="60.9463500016" lon="11.4579805622">
		<tag k="name" v="Høyhaugmyrene" />
		<tag k="natural" v="wetland" />
		<tag k="ssr:stedsnr" v="300688" />
	</node>
	<node id="-75308" lat="60.9640444447" lon="11.8493249981">
		<tag k="name" v="Ruskåsmyra" />
		<tag k="natural" v="wetland" />
		<tag k="ssr:stedsnr" v="709184" />
	</node>
	<node id="-75307" lat="60.9151666671" lon="11.5602111177">
		<tag k="name" v="Elgbakken" />
		<tag k="place" v="locality" />
		<tag k="ssr:stedsnr" v="709133" />
	</node>
	<node id="-75304" lat="60.9080166642" lon="11.6382388966">
		<tag k="landuse" v="meadow" />
		<tag k="name" v="Larsrønningen" />
		<tag k="ssr:stedsnr" v="709109" />
	</node>
	<node id="-75295" lat="60.9004805537" lon="11.6817083416">
		<tag k="landuse" v="meadow" />
		<tag k="name" v="Husrønningen" />
		<tag k="ssr:stedsnr" v="707797" />
	</node>
	<node id="-75294" lat="60.9028722203" lon="11.6723638823">
		<tag k="name" v="Langmyrkorsen" />
		<tag k="natural" v="wetland" />
		<tag k="ssr:stedsnr" v="707796" />
	</node>
	<node id="-75293" lat="61.015983329" lon="12.0558166682">
		<tag k="name" v="Gråbergsvadfloen" />
		<tag k="natural" v="wetland" />
		<tag k="ssr:stedsnr" v="707551" />
	</node>
	<node id="-75291" lat="61.010580555" lon="11.5124916694">
		<tag k="name" v="Lemyra" />
		<tag k="natural" v="wetland" />
		<tag k="ssr:stedsnr" v="707785" />
	</node>
	<node id="-75290" lat="61.0062777794" lon="11.5023083299">
		<tag k="name" v="Rismyra" />
		<tag k="natural" v="wetland" />
		<tag k="ssr:stedsnr" v="707782" />
	</node>
	<node id="-75284" lat="60.9960888882" lon="11.6613888969">
		<tag k="name" v="Rølikjølen" />
		<tag k="natural" v="wetland" />
		<tag k="ssr:stedsnr" v="677981" />
	</node>
	<node id="-73235" lat="60.9581972195" lon="11.5949194362">
		<tag k="name" v="Møystadstumyra" />
		<tag k="natural" v="wetland" />
		<tag k="ssr:stedsnr" v="298688" />
	</node>
	<node id="-73232" lat="60.9171666623" lon="11.4915027827">
		<tag k="name" v="Fredagsmyra" />
		<tag k="natural" v="wetland" />
		<tag k="ssr:stedsnr" v="298603" />
	</node>
	<node id="-73230" lat="60.9801138858" lon="11.4102000014">
		<tag k="name" v="Hansmyra" />
		<tag k="natural" v="wetland" />
		<tag k="ssr:stedsnr" v="298539" />
	</node>
	<node id="-75272" lat="60.8778527753" lon="11.8222083246">
		<tag k="name" v="Lensmannskjølen" />
		<tag k="natural" v="wetland" />
		<tag k="ssr:stedsnr" v="677226" />
	</node>
	<node id="-75271" lat="60.8649555547" lon="11.8241694428">
		<tag k="alt_name" v="Langmyra, østre;Langmyra" />
		<tag k="name" v="Østre Langmyra" />
		<tag k="natural" v="wetland" />
		<tag k="ssr:stedsnr" v="677223" />
	</node>
	<node id="-73213" lat="60.8916111115" lon="11.5011666734">
		<tag k="landuse" v="meadow" />
		<tag k="name" v="Heyerdalsrønningen" />
		<tag k="ssr:stedsnr" v="284619" />
	</node>
	<node id="-75259" lat="60.7915805553" lon="11.5780277794">
		<tag k="name" v="Hellemundsmyra" />
		<tag k="natural" v="wetland" />
		<tag k="ssr:stedsnr" v="676359" />
	</node>
	<node id="-73210" lat="60.90133889" lon="11.6212249979">
		<tag k="name" v="Posttjennsmyra" />
		<tag k="natural" v="wetland" />
		<tag k="ssr:stedsnr" v="284111" />
	</node>
	<node id="-73209" lat="60.909486114" lon="11.6360333307">
		<tag k="landuse" v="meadow" />
		<tag k="name" v="Skjulstadsaga" />
		<tag k="ssr:stedsnr" v="284110" />
	</node>
	<node id="-73208" lat="60.9087361118" lon="11.6537222202">
		<tag k="landuse" v="meadow" />
		<tag k="name" v="Brennrønningen" />
		<tag k="ssr:stedsnr" v="284104" />
	</node>
	<node id="-73206" lat="60.9116999988" lon="11.9121749975">
		<tag k="name" v="Vestre Gildermyra" />
		<tag k="natural" v="wetland" />
		<tag k="ssr:stedsnr" v="284068" />
	</node>
	<node id="-73199" lat="60.9318527767" lon="11.9076861049">
		<tag k="name" v="Enmyra" />
		<tag k="natural" v="wetland" />
		<tag k="ssr:stedsnr" v="282069" />
	</node>
	<node id="-75220" lat="61.1306750027" lon="11.7331333341">
		<tag k="name" v="Kavlbrukjølen" />
		<tag k="natural" v="wetland" />
		<tag k="ssr:stedsnr" v="675148" />
	</node>
	<node id="-75216" lat="61.0018777756" lon="11.8142805606">
		<tag k="name" v="Husmyra" />
		<tag k="natural" v="wetland" />
		<tag k="ssr:stedsnr" v="675018" />
	</node>
	<node id="-75215" lat="60.9787611127" lon="11.7158638839">
		<tag k="name" v="Astridkjølen" />
		<tag k="natural" v="wetland" />
		<tag k="ssr:stedsnr" v="677029" />
	</node>
	<node id="-75212" lat="61.1095694454" lon="11.8155500041">
		<tag k="name" v="Kobberkjølen" />
		<tag k="natural" v="wetland" />
		<tag k="ssr:stedsnr" v="666105" />
	</node>
	<node id="-75205" lat="60.9930444459" lon="11.6397805609">
		<tag k="name" v="Rennarmyra" />
		<tag k="natural" v="wetland" />
		<tag k="ssr:stedsnr" v="665637" />
	</node>
	<node id="-75201" lat="60.8858222221" lon="11.774238886">
		<tag k="landuse" v="meadow" />
		<tag k="name" v="Lergraven" />
		<tag k="ssr:stedsnr" v="665153" />
	</node>
	<node id="-75196" lat="60.9262138882" lon="11.6714388821">
		<tag k="name" v="Grandal" />
		<tag k="place" v="locality" />
		<tag k="ssr:stedsnr" v="665130" />
	</node>
	<node id="-75188" lat="60.8194527794" lon="11.5137638951">
		<tag k="name" v="Slettskjærmarka" />
		<tag k="place" v="locality" />
		<tag k="ssr:stedsnr" v="664556" />
	</node>
	<node id="-75185" lat="60.8793805541" lon="11.9616638846">
		<tag k="name" v="Storsteinmyra" />
		<tag k="natural" v="wetland" />
		<tag k="ssr:stedsnr" v="664067" />
	</node>
	<node id="-75177" lat="60.9343388928" lon="11.4567249928">
		<tag k="name" v="Eslemyra" />
		<tag k="natural" v="wetland" />
		<tag k="ssr:stedsnr" v="663692" />
	</node>
	<node id="-75175" lat="60.9395666701" lon="11.4576944389">
		<tag k="name" v="Bjørnmyra" />
		<tag k="natural" v="wetland" />
		<tag k="ssr:stedsnr" v="663685" />
	</node>
	<node id="-75165" lat="60.966897224" lon="11.5500333375">
		<tag k="name" v="Skarpberget" />
		<tag k="place" v="locality" />
		<tag k="ssr:stedsnr" v="662722" />
	</node>
	<node id="-75146" lat="61.1032611131" lon="11.599672223">
		<tag k="name" v="Øvre Måsåmyra" />
		<tag k="natural" v="wetland" />
		<tag k="ssr:stedsnr" v="648649" />
	</node>
	<node id="-75137" lat="60.921197226" lon="11.5758944512">
		<tag k="landuse" v="quarry" />
		<tag k="name" v="Møystadbrottet" />
		<tag k="ssr:stedsnr" v="647141" />
	</node>
	<node id="-75135" lat="60.9149361077" lon="11.6500888806">
		<tag k="name" v="Skjulstadmarka" />
		<tag k="place" v="locality" />
		<tag k="ssr:stedsnr" v="647125" />
	</node>
	<node id="-75130" lat="60.9626194477" lon="11.9209444412">
		<tag k="name" v="Rensjømyrene" />
		<tag k="natural" v="wetland" />
		<tag k="ssr:stedsnr" v="646398" />
	</node>
	<node id="-75104" lat="60.8817833345" lon="11.4885833298">
		<tag k="name" v="Gampmyra" />
		<tag k="natural" v="wetland" />
		<tag k="ssr:stedsnr" v="616124" />
	</node>
	<node id="-75059" lat="61.0064777811" lon="11.9069972176">
		<tag k="name" v="Knappkjølen" />
		<tag k="natural" v="wetland" />
		<tag k="ssr:stedsnr" v="614849" />
	</node>
	<node id="-75050" lat="61.0413750021" lon="11.5564500038">
		<tag k="name" v="Strandkjølen" />
		<tag k="natural" v="wetland" />
		<tag k="ssr:stedsnr" v="614195" />
	</node>
	<node id="-75045" lat="61.053486111" lon="11.539791664">
		<tag k="historic" v="shieling" />
		<tag k="name" v="Kråkbergsrønningen" />
		<tag k="place" v="locality" />
		<tag k="ssr:stedsnr" v="605840" />
	</node>
	<node id="-75044" lat="60.8706305534" lon="11.4803333404">
		<tag k="name" v="Stolpdalsmyra" />
		<tag k="natural" v="wetland" />
		<tag k="ssr:stedsnr" v="604623" />
	</node>
	<node id="-75041" lat="60.9845722179" lon="11.6129694414">
		<tag k="name" v="Hestvangmyra" />
		<tag k="natural" v="wetland" />
		<tag k="ssr:stedsnr" v="604585" />
	</node>
	<node id="-75035" lat="61.0219249962" lon="11.8832833363">
		<tag k="landuse" v="meadow" />
		<tag k="name" v="Søndre Ulvåstranda" />
		<tag k="ssr:stedsnr" v="604133" />
	</node>
	<node id="-75030" lat="61.0915666626" lon="11.789497213">
		<tag k="name" v="Mellomkjølen" />
		<tag k="natural" v="wetland" />
		<tag k="ssr:stedsnr" v="603076" />
	</node>
	<node id="-75028" lat="60.8987305539" lon="11.9412083337">
		<tag k="name" v="Teabrenna" />
		<tag k="place" v="locality" />
		<tag k="ssr:stedsnr" v="603054" />
	</node>
	<node id="-75015" lat="61.0291250019" lon="11.5119527722">
		<tag k="name" v="Aksalmyra" />
		<tag k="natural" v="wetland" />
		<tag k="ssr:stedsnr" v="601902" />
	</node>
	<node id="-75014" lat="61.0307361113" lon="11.5262583357">
		<tag k="name" v="Kontusmarka" />
		<tag k="place" v="locality" />
		<tag k="ssr:stedsnr" v="601899" />
	</node>
	<node id="-75012" lat="60.9614666689" lon="11.5970027777">
		<tag k="name" v="Skrythildsmyra" />
		<tag k="natural" v="wetland" />
		<tag k="ssr:stedsnr" v="601696" />
	</node>
	<node id="-75011" lat="60.963719443" lon="11.6079944356">
		<tag k="name" v="Bråtelia" />
		<tag k="place" v="locality" />
		<tag k="ssr:stedsnr" v="601693" />
	</node>
	<node id="-75006" lat="60.9542472215" lon="11.48885277">
		<tag k="name" v="Svingen" />
		<tag k="place" v="locality" />
		<tag k="ssr:stedsnr" v="601626" />
	</node>
	<node id="-75004" lat="60.9175249964" lon="11.5083250048">
		<tag k="name" v="Motappmyra" />
		<tag k="natural" v="wetland" />
		<tag k="ssr:stedsnr" v="601612" />
	</node>
	<node id="-74985" lat="60.9806083374" lon="12.082622221">
		<tag k="name" v="Nordre Orrleikkjølen" />
		<tag k="natural" v="wetland" />
		<tag k="ssr:stedsnr" v="600522" />
	</node>
	<node id="-74981" lat="60.9976333318" lon="11.4753916705">
		<tag k="name" v="Kloppmyra" />
		<tag k="natural" v="wetland" />
		<tag k="ssr:stedsnr" v="588892" />
	</node>
	<node id="-74972" lat="60.9235416648" lon="11.5828527823">
		<tag k="name" v="Vindfallet" />
		<tag k="place" v="locality" />
		<tag k="ssr:stedsnr" v="587123" />
	</node>
	<node id="-74971" lat="60.9129166645" lon="11.6368861086">
		<tag k="landuse" v="meadow" />
		<tag k="name" v="Nistilkroken" />
		<tag k="ssr:stedsnr" v="587109" />
	</node>
	<node id="-74966" lat="61.025858332" lon="12.0717694491">
		<tag k="name" v="Halvvegessteinen" />
		<tag k="natural" v="stone" />
		<tag k="ssr:stedsnr" v="586557" />
	</node>
	<node id="-73933" lat="60.9520250038" lon="11.9222805532">
		<tag k="name" v="Ola-Bjørnstadkjølen" />
		<tag k="natural" v="wetland" />
		<tag k="ssr:stedsnr" v="100380" />
	</node>
	<node id="-74952" lat="60.9913750025" lon="11.5626999924">
		<tag k="name" v="Sagkjølen" />
		<tag k="natural" v="wetland" />
		<tag k="ssr:stedsnr" v="555990" />
	</node>
	<node id="-74947" lat="60.9682750041" lon="11.4174027728">
		<tag k="name" v="Fjøskjølen" />
		<tag k="natural" v="wetland" />
		<tag k="ssr:stedsnr" v="555536" />
	</node>
	<node id="-74924" lat="60.8287027816" lon="11.5986999987">
		<tag k="name" v="Flomyra" />
		<tag k="natural" v="wetland" />
		<tag k="ssr:stedsnr" v="555236" />
	</node>
	<node id="-75634" lat="60.8832750005" lon="11.7498277751">
		<tag k="name" v="Agåsmyra" />
		<tag k="natural" v="wetland" />
		<tag k="ssr:stedsnr" v="830923" />
	</node>
	<node id="-74912" lat="60.8608388875" lon="11.8104694368">
		<tag k="alt_name" v="Langmyra, vestre" />
		<tag k="name" v="Vestre Langmyra" />
		<tag k="natural" v="wetland" />
		<tag k="ssr:stedsnr" v="555179" />
	</node>
	<node id="-74899" lat="60.9776499965" lon="11.5427888838">
		<tag k="name" v="Lemyra" />
		<tag k="natural" v="wetland" />
		<tag k="ssr:stedsnr" v="555057" />
	</node>
	<node id="-74895" lat="60.9713055568" lon="11.5786555494">
		<tag k="name" v="Rørmyra" />
		<tag k="natural" v="wetland" />
		<tag k="ssr:stedsnr" v="555041" />
	</node>
	<node id="-74894" lat="60.9689777799" lon="11.5974861113">
		<tag k="alt_name" v="Breidmyra" />
		<tag k="name" v="Breimyra" />
		<tag k="natural" v="wetland" />
		<tag k="ssr:stedsnr" v="555040" />
	</node>
	<node id="-74889" lat="60.9652666663" lon="11.6087499995">
		<tag k="name" v="Gåsmyra" />
		<tag k="natural" v="wetland" />
		<tag k="ssr:stedsnr" v="555007" />
	</node>
	<node id="-75628" lat="61.0112722246" lon="11.4888222281">
		<tag k="name" v="Fugleleiken" />
		<tag k="place" v="locality" />
		<tag k="ssr:stedsnr" v="829775" />
	</node>
	<node id="-74883" lat="61.0795749961" lon="11.830602784">
		<tag k="name" v="Storkjølen" />
		<tag k="natural" v="wetland" />
		<tag k="ssr:stedsnr" v="554167" />
	</node>
	<node id="-74882" lat="61.0854333313" lon="11.7112555482">
		<tag k="name" v="Stamyra" />
		<tag k="natural" v="wetland" />
		<tag k="ssr:stedsnr" v="554165" />
	</node>
	<node id="-74871" lat="61.0164861138" lon="11.8179000064">
		<tag k="name" v="Røtkjølen" />
		<tag k="natural" v="wetland" />
		<tag k="ssr:stedsnr" v="553205" />
	</node>
	<node id="-74870" lat="61.0157999977" lon="11.549549994">
		<tag k="name" v="Tresnippen" />
		<tag k="place" v="locality" />
		<tag k="ssr:stedsnr" v="553204" />
	</node>
	<node id="-74869" lat="61.0233083339" lon="11.7492472178">
		<tag k="name" v="Lykkja" />
		<tag k="place" v="locality" />
		<tag k="ssr:stedsnr" v="553202" />
	</node>
	<node id="-74864" lat="60.9202416637" lon="11.987024993">
		<tag k="name" v="Mosemyra" />
		<tag k="natural" v="wetland" />
		<tag k="ssr:stedsnr" v="544947" />
	</node>
	<node id="-74862" lat="61.0514444418" lon="11.5106388813">
		<tag k="name" v="Finngolmyra" />
		<tag k="natural" v="wetland" />
		<tag k="ssr:stedsnr" v="544835" />
	</node>
	<node id="-74861" lat="60.8724222204" lon="11.4981194437">
		<tag k="name" v="Stolpedalsmyra" />
		<tag k="natural" v="wetland" />
		<tag k="ssr:stedsnr" v="544590" />
	</node>
	<node id="-74860" lat="60.9822277735" lon="11.6386194486">
		<tag k="name" v="Nordjordet" />
		<tag k="place" v="locality" />
		<tag k="ssr:stedsnr" v="544577" />
	</node>
	<node id="-74857" lat="61.018222225" lon="11.7179583341">
		<tag k="name" v="Lemyrstykket" />
		<tag k="place" v="locality" />
		<tag k="ssr:stedsnr" v="544417" />
	</node>
	<node id="-74855" lat="60.8869972245" lon="11.7419722246">
		<tag k="name" v="Måråsmyra" />
		<tag k="natural" v="wetland" />
		<tag k="ssr:stedsnr" v="544144" />
	</node>
	<node id="-74854" lat="60.9105694469" lon="11.7051805602">
		<tag k="landuse" v="meadow" />
		<tag k="name" v="Amundsrønningen" />
		<tag k="ssr:stedsnr" v="544125" />
	</node>
	<node id="-74846" lat="60.9104805546" lon="11.7865166727">
		<tag k="name" v="Djupmyra" />
		<tag k="natural" v="wetland" />
		<tag k="ssr:stedsnr" v="543812" />
	</node>
	<node id="-74839" lat="60.9584194473" lon="11.4580916696">
		<tag k="name" v="Langmyra" />
		<tag k="natural" v="wetland" />
		<tag k="ssr:stedsnr" v="542767" />
	</node>
	<node id="-74830" lat="60.8671361077" lon="11.6314722178">
		<tag k="name" v="Blekemyra" />
		<tag k="natural" v="wetland" />
		<tag k="ssr:stedsnr" v="542011" />
	</node>
	<node id="-74825" lat="61.0315611118" lon="11.7719749938">
		<tag k="name" v="Johannesrønningen" />
		<tag k="place" v="locality" />
		<tag k="ssr:stedsnr" v="541421" />
	</node>
	<node id="-74819" lat="60.958747224" lon="11.6312416733">
		<tag k="name" v="Hovinlia" />
		<tag k="place" v="locality" />
		<tag k="ssr:stedsnr" v="540687" />
	</node>
	<node id="-74814" lat="61.0081666635" lon="11.3820388835">
		<tag k="name" v="Langmyra" />
		<tag k="natural" v="wetland" />
		<tag k="ssr:stedsnr" v="540562" />
	</node>
	<node id="-74806" lat="60.8921638916" lon="11.506519439">
		<tag k="name" v="Stortjennsmyra" />
		<tag k="natural" v="wetland" />
		<tag k="ssr:stedsnr" v="527613" />
	</node>
	<node id="-74804" lat="61.0530666646" lon="11.7270861092">
		<tag k="name" v="Nyberget" />
		<tag k="place" v="locality" />
		<tag k="ssr:stedsnr" v="527270" />
	</node>
	<node id="-74801" lat="61.062852782" lon="11.6397055566">
		<tag k="name" v="Langmyra" />
		<tag k="natural" v="wetland" />
		<tag k="ssr:stedsnr" v="526964" />
	</node>
	<node id="-74800" lat="60.8818444459" lon="11.7595055526">
		<tag k="name" v="Mangmannsmyra" />
		<tag k="natural" v="wetland" />
		<tag k="ssr:stedsnr" v="526945" />
	</node>
	<node id="-74792" lat="60.9943611073" lon="11.4957888943">
		<tag k="name" v="Vintermyra" />
		<tag k="natural" v="wetland" />
		<tag k="ssr:stedsnr" v="525752" />
	</node>
	<node id="-74791" lat="60.9804333303" lon="11.5138861053">
		<tag k="name" v="Veslemyra" />
		<tag k="natural" v="wetland" />
		<tag k="ssr:stedsnr" v="525748" />
	</node>
	<node id="-74780" lat="60.7865166692" lon="11.7906444369">
		<tag k="name" v="Gråbeinmyra" />
		<tag k="natural" v="wetland" />
		<tag k="ssr:stedsnr" v="525336" />
	</node>
	<node id="-74778" lat="60.9329333336" lon="11.559238884">
		<tag k="name" v="Hurrabrenna" />
		<tag k="place" v="locality" />
		<tag k="ssr:stedsnr" v="525073" />
	</node>
	<node id="-74771" lat="60.8075000037" lon="11.5547416708">
		<tag k="name" v="Stormosamyra" />
		<tag k="natural" v="wetland" />
		<tag k="ssr:stedsnr" v="495278" />
	</node>
	<node id="-74768" lat="60.869075" lon="11.8064527868">
		<tag k="name" v="Buamyra" />
		<tag k="natural" v="wetland" />
		<tag k="ssr:stedsnr" v="495248" />
	</node>
	<node id="-74762" lat="60.9760249997" lon="11.7039500073">
		<tag k="alt_name" v="Måsåmyra" />
		<tag k="name" v="Mosamyra" />
		<tag k="natural" v="wetland" />
		<tag k="ssr:stedsnr" v="495074" />
	</node>
	<node id="-74751" lat="60.9292611075" lon="11.8621861049">
		<tag k="name" v="Stormyra" />
		<tag k="natural" v="wetland" />
		<tag k="ssr:stedsnr" v="494462" />
	</node>
	<node id="-74749" lat="60.9331750044" lon="11.8712527765">
		<tag k="name" v="Husmyra" />
		<tag k="natural" v="wetland" />
		<tag k="ssr:stedsnr" v="494451" />
	</node>
	<node id="-74714" lat="61.0758333301" lon="11.7515083389">
		<tag k="name" v="Langmyra" />
		<tag k="natural" v="wetland" />
		<tag k="ssr:stedsnr" v="492129" />
	</node>
	<node id="-74712" lat="60.966011111" lon="11.7424138889">
		<tag k="name" v="Monsmyra" />
		<tag k="natural" v="wetland" />
		<tag k="ssr:stedsnr" v="484408" />
	</node>
	<node id="-74710" lat="60.9294277792" lon="11.8332361031">
		<tag k="name" v="Postmyra" />
		<tag k="natural" v="wetland" />
		<tag k="ssr:stedsnr" v="483869" />
	</node>
	<node id="-74696" lat="61.0456583328" lon="11.8097388945">
		<tag k="name" v="Tjennsmyra" />
		<tag k="natural" v="wetland" />
		<tag k="ssr:stedsnr" v="483125" />
	</node>
	<node id="-74694" lat="60.8783972215" lon="11.9735611029">
		<tag k="name" v="Tranmyrholtet" />
		<tag k="place" v="locality" />
		<tag k="ssr:stedsnr" v="482996" />
	</node>
	<node id="-74687" lat="60.880766665" lon="11.9592861106">
		<tag k="name" v="Kvernhusbrenna" />
		<tag k="place" v="locality" />
		<tag k="ssr:stedsnr" v="482066" />
	</node>
	<node id="-74684" lat="61.0334083321" lon="11.8185916633">
		<tag k="name" v="Ankjølen" />
		<tag k="natural" v="wetland" />
		<tag k="ssr:stedsnr" v="482013" />
	</node>
	<node id="-74682" lat="60.9576555583" lon="11.4486416624">
		<tag k="name" v="Limyra" />
		<tag k="natural" v="wetland" />
		<tag k="ssr:stedsnr" v="481746" />
	</node>
	<node id="-74680" lat="60.9272027739" lon="11.4749444465">
		<tag k="name" v="Sagteigen" />
		<tag k="place" v="locality" />
		<tag k="ssr:stedsnr" v="481683" />
	</node>
	<node id="-74664" lat="61.0246805568" lon="11.6049583257">
		<tag k="historic" v="shieling" />
		<tag k="name" v="Retvollen" />
		<tag k="place" v="locality" />
		<tag k="ssr:stedsnr" v="480553" />
	</node>
	<node id="-74657" lat="60.8775138896" lon="11.6990083278">
		<tag k="name" v="Kvernhusslåttene" />
		<tag k="place" v="locality" />
		<tag k="ssr:stedsnr" v="466934" />
	</node>
	<node id="-74655" lat="60.9997222206" lon="11.4513583279">
		<tag k="name" v="Eftasmyra" />
		<tag k="natural" v="wetland" />
		<tag k="ssr:stedsnr" v="466839" />
	</node>
	<node id="-74653" lat="61.1027111106" lon="11.5779250027">
		<tag k="name" v="Dolpmyra" />
		<tag k="natural" v="wetland" />
		<tag k="ssr:stedsnr" v="466662" />
	</node>
	<node id="-74652" lat="60.9879638921" lon="12.0140138939">
		<tag k="name" v="Nedre Vårmorkjølen" />
		<tag k="natural" v="wetland" />
		<tag k="ssr:stedsnr" v="467915" />
	</node>
	<node id="-74640" lat="60.9371277757" lon="11.9638722165">
		<tag k="name" v="Gilderkjølen" />
		<tag k="natural" v="wetland" />
		<tag k="ssr:stedsnr" v="464412" />
	</node>
	<node id="-74612" lat="60.7873027752" lon="11.6381611054">
		<tag k="name" v="Stormyra" />
		<tag k="natural" v="wetland" />
		<tag k="ssr:stedsnr" v="434320" />
	</node>
	<node id="-74600" lat="60.8578638872" lon="11.5111416614">
		<tag k="name" v="Kringlemyra" />
		<tag k="natural" v="wetland" />
		<tag k="ssr:stedsnr" v="434206" />
	</node>
	<node id="-74595" lat="60.8468805597" lon="11.4958888885">
		<tag k="name" v="Dølholtet" />
		<tag k="place" v="locality" />
		<tag k="ssr:stedsnr" v="434188" />
	</node>
	<node id="-74594" lat="60.8444138858" lon="11.5315000008">
		<tag k="alt_name" v="Mosemyra" />
		<tag k="name" v="Mosamyra" />
		<tag k="natural" v="wetland" />
		<tag k="ssr:stedsnr" v="434186" />
	</node>
	<node id="-74585" lat="60.8918666634" lon="11.7060166623">
		<tag k="alt_name" v="Toremyra" />
		<tag k="name" v="Tormyra" />
		<tag k="natural" v="wetland" />
		<tag k="ssr:stedsnr" v="434119" />
	</node>
	<node id="-74563" lat="61.1074749975" lon="11.7664555564">
		<tag k="name" v="Krokkjølen" />
		<tag k="natural" v="wetland" />
		<tag k="ssr:stedsnr" v="433181" />
	</node>
	<node id="-74550" lat="61.1420277793" lon="11.7937750053">
		<tag k="name" v="Vierriskjølen" />
		<tag k="natural" v="wetland" />
		<tag k="ssr:stedsnr" v="432152" />
	</node>
	<node id="-74540" lat="60.9041194452" lon="11.5679749935">
		<tag k="name" v="Mosevegen" />
		<tag k="natural" v="wetland" />
		<tag k="ssr:stedsnr" v="423722" />
	</node>
	<node id="-74531" lat="60.9183111102" lon="11.702100004">
		<tag k="landuse" v="meadow" />
		<tag k="loc_name" v="Skjærbekkrønningen" />
		<tag k="name" v="Skærbekkrønningen" />
		<tag k="ssr:stedsnr" v="423148" />
	</node>
	<node id="-74529" lat="60.9071833299" lon="11.6958055521">
		<tag k="landuse" v="meadow" />
		<tag k="name" v="Rogstadrønningen" />
		<tag k="ssr:stedsnr" v="423140" />
	</node>
	<node id="-74528" lat="60.9141749971" lon="11.6968861063">
		<tag k="name" v="Amundsmyra" />
		<tag k="natural" v="wetland" />
		<tag k="ssr:stedsnr" v="423138" />
	</node>
	<node id="-74526" lat="60.9107833296" lon="11.6767833291">
		<tag k="name" v="Flisbanehaugen" />
		<tag k="place" v="locality" />
		<tag k="ssr:stedsnr" v="423130" />
	</node>
	<node id="-74524" lat="61.0168249963" lon="11.9003138954">
		<tag k="landuse" v="meadow" />
		<tag k="name" v="Syverstranda" />
		<tag k="ssr:stedsnr" v="423116" />
	</node>
	<node id="-74521" lat="60.834344763" lon="11.5794289346">
		<tag k="fixme" v="multiple name tags, choose one and add the other to alt_name" />
		<tag k="name" v="Hestmyra;Lintjennsmyra" />
		<tag k="natural" v="wetland" />
		<tag k="ssr:stedsnr" v="422985" />
	</node>
	<node id="-74513" lat="61.0276972237" lon="11.8253861175">
		<tag k="name" v="Fuglleikmyra" />
		<tag k="natural" v="wetland" />
		<tag k="ssr:stedsnr" v="422017" />
	</node>
	<node id="-74512" lat="60.8742166712" lon="11.9725999957">
		<tag k="name" v="Mattismyra" />
		<tag k="natural" v="wetland" />
		<tag k="ssr:stedsnr" v="421992" />
	</node>
	<node id="-74510" lat="60.9132861101" lon="11.4730138948">
		<tag k="name" v="Langmyra" />
		<tag k="natural" v="wetland" />
		<tag k="ssr:stedsnr" v="421682" />
	</node>
	<node id="-74509" lat="60.9424972208" lon="11.4619500056">
		<tag k="name" v="Storstensmoen" />
		<tag k="place" v="locality" />
		<tag k="ssr:stedsnr" v="421674" />
	</node>
	<node id="-74505" lat="60.8467166663" lon="11.5854222197">
		<tag k="name" v="Haugsenga" />
		<tag k="place" v="locality" />
		<tag k="ssr:stedsnr" v="421048" />
	</node>
	<node id="-74483" lat="60.9625694453" lon="11.9998027794">
		<tag k="name" v="Finjokjølen" />
		<tag k="natural" v="wetland" />
		<tag k="ssr:stedsnr" v="479973" />
	</node>
	<node id="-75559" lat="60.9693555557" lon="11.6921805527">
		<tag k="name" v="Stormyra" />
		<tag k="natural" v="wetland" />
		<tag k="ssr:stedsnr" v="798025" />
	</node>
	<node id="-74472" lat="60.9942777754" lon="11.7339500022">
		<tag k="name" v="Vollfeltet" />
		<tag k="place" v="locality" />
		<tag k="ssr:stedsnr" v="252999" />
	</node>
	<node id="-74468" lat="60.9896416677" lon="11.5167861038">
		<tag k="name" v="Dalsmyra" />
		<tag k="natural" v="wetland" />
		<tag k="ssr:stedsnr" v="252982" />
	</node>
	<node id="-74466" lat="60.9971750023" lon="11.8143861035">
		<tag k="name" v="Strikunta" />
		<tag k="natural" v="wetland" />
		<tag k="ssr:stedsnr" v="252964" />
	</node>
	<node id="-74463" lat="60.9740249959" lon="11.4208666689">
		<tag k="name" v="Blomkjølen" />
		<tag k="natural" v="wetland" />
		<tag k="ssr:stedsnr" v="252497" />
	</node>
	<node id="-73850" lat="61.1193972231" lon="11.7019000073">
		<tag k="name" v="Bjørbekkmyra" />
		<tag k="natural" v="wetland" />
		<tag k="ssr:stedsnr" v="69186" />
	</node>
	<node id="-74446" lat="60.8172749994" lon="11.5425361125">
		<tag k="name" v="Håkåsmyra" />
		<tag k="natural" v="wetland" />
		<tag k="ssr:stedsnr" v="252281" />
	</node>
	<node id="-74426" lat="60.8408888885" lon="11.4931888932">
		<tag k="name" v="Høgmyra" />
		<tag k="natural" v="wetland" />
		<tag k="ssr:stedsnr" v="252156" />
	</node>
	<node id="-74416" lat="60.8928500033" lon="11.7969499955">
		<tag k="alt_name" v="Stensmyra" />
		<tag k="name" v="Steinsmyra" />
		<tag k="natural" v="wetland" />
		<tag k="ssr:stedsnr" v="252110" />
	</node>
	<node id="-74415" lat="60.8881916661" lon="11.4980999963">
		<tag k="name" v="Rundhaugmyra" />
		<tag k="natural" v="wetland" />
		<tag k="ssr:stedsnr" v="252108" />
	</node>
	<node id="-74400" lat="60.8524277775" lon="11.506999998">
		<tag k="name" v="Kvitkjølen" />
		<tag k="natural" v="wetland" />
		<tag k="ssr:stedsnr" v="251248" />
	</node>
	<node id="-74394" lat="60.9249694414" lon="11.7677444428">
		<tag k="name" v="Brennfeltet" />
		<tag k="place" v="locality" />
		<tag k="ssr:stedsnr" v="251201" />
	</node>
	<node id="-74378" lat="61.0612750039" lon="11.5846111087">
		<tag k="name" v="Ballrupmyra" />
		<tag k="natural" v="wetland" />
		<tag k="ssr:stedsnr" v="250224" />
	</node>
	<node id="-74361" lat="60.9362138912" lon="11.8277000073">
		<tag k="name" v="Tjennsmyra" />
		<tag k="natural" v="wetland" />
		<tag k="ssr:stedsnr" v="241826" />
	</node>
	<node id="-74355" lat="61.0398555569" lon="11.8103749938">
		<tag k="name" v="Mellomste Svartbergsmyra" />
		<tag k="natural" v="wetland" />
		<tag k="ssr:stedsnr" v="241090" />
	</node>
	<node id="-74351" lat="60.8222222264" lon="11.5788055537">
		<tag k="name" v="Hestmyra" />
		<tag k="natural" v="wetland" />
		<tag k="ssr:stedsnr" v="240985" />
	</node>
	<node id="-74344" lat="60.9132861101" lon="11.4730138948">
		<tag k="name" v="Ormmyra" />
		<tag k="natural" v="wetland" />
		<tag k="ssr:stedsnr" v="239664" />
	</node>
	<node id="-74343" lat="60.9434861145" lon="11.5014166618">
		<tag k="name" v="Nordre" />
		<tag k="place" v="locality" />
		<tag k="ssr:stedsnr" v="239635" />
	</node>
	<node id="-74341" lat="60.9321999975" lon="11.5428805489">
		<tag k="name" v="Merramyra" />
		<tag k="natural" v="wetland" />
		<tag k="ssr:stedsnr" v="239621" />
	</node>
	<node id="-74340" lat="60.8156805598" lon="11.5321027817">
		<tag k="historic" v="shieling" />
		<tag k="name" v="Bakksvea" />
		<tag k="place" v="locality" />
		<tag k="ssr:stedsnr" v="239586" />
	</node>
	<node id="-74337" lat="60.8828222243" lon="11.960141658">
		<tag k="name" v="Nedre Hansmyra" />
		<tag k="natural" v="wetland" />
		<tag k="ssr:stedsnr" v="239071" />
	</node>
	<node id="-74336" lat="60.8461277751" lon="11.5906111092">
		<tag k="name" v="Ulvenga" />
		<tag k="place" v="locality" />
		<tag k="ssr:stedsnr" v="239056" />
	</node>
	<node id="-74322" lat="61.0163555533" lon="11.5008722136">
		<tag k="name" v="Langmyra" />
		<tag k="natural" v="wetland" />
		<tag k="ssr:stedsnr" v="237915" />
	</node>
	<node id="-74317" lat="60.9767055555" lon="11.406116663">
		<tag k="name" v="Nersæterkjølen" />
		<tag k="natural" v="wetland" />
		<tag k="ssr:stedsnr" v="237563" />
	</node>
	<node id="-74315" lat="60.7676111115" lon="11.6247805543">
		<tag k="name" v="Skrikmyra" />
		<tag k="natural" v="wetland" />
		<tag k="ssr:stedsnr" v="238420" />
	</node>
	<node id="-74314" lat="61.0202222203" lon="11.7575277696">
		<tag k="name" v="Nyrønningen" />
		<tag k="place" v="locality" />
		<tag k="ssr:stedsnr" v="237373" />
	</node>
	<node id="-74301" lat="60.9458888931" lon="11.6427583308">
		<tag k="landuse" v="meadow" />
		<tag k="name" v="Gravningen" />
		<tag k="ssr:stedsnr" v="224094" />
	</node>
	<node id="-74300" lat="61.0590111071" lon="11.6382055629">
		<tag k="name" v="Merramyra" />
		<tag k="natural" v="wetland" />
		<tag k="ssr:stedsnr" v="223974" />
	</node>
	<node id="-74297" lat="61.0382055538" lon="11.7072777818">
		<tag k="name" v="Løvhaugmyra" />
		<tag k="natural" v="wetland" />
		<tag k="ssr:stedsnr" v="223320" />
	</node>
	<node id="-74296" lat="60.9193888923" lon="11.5522833266">
		<tag k="name" v="Vollmyra" />
		<tag k="natural" v="wetland" />
		<tag k="ssr:stedsnr" v="223128" />
	</node>
	<node id="-74295" lat="60.9138055558" lon="11.5453750028">
		<tag k="name" v="Ormdalen" />
		<tag k="place" v="locality" />
		<tag k="ssr:stedsnr" v="223122" />
	</node>
	<node id="-74289" lat="60.9904333301" lon="11.5043583418">
		<tag k="landuse" v="meadow" />
		<tag k="name" v="Dalsenga" />
		<tag k="ssr:stedsnr" v="222761" />
	</node>
	<node id="-74279" lat="61.0417999997" lon="11.9190916669">
		<tag k="name" v="Langjordet" />
		<tag k="natural" v="wetland" />
		<tag k="ssr:stedsnr" v="206139" />
	</node>
	<node id="-74277" lat="60.8600555584" lon="11.6392249953">
		<tag k="name" v="Skjærmyra" />
		<tag k="natural" v="wetland" />
		<tag k="ssr:stedsnr" v="192244" />
	</node>
	<node id="-74274" lat="60.9950361106" lon="11.5140277774">
		<tag k="landuse" v="meadow" />
		<tag k="name" v="Svanåsrønningen" />
		<tag k="ssr:stedsnr" v="191965" />
	</node>
	<node id="-73260" lat="60.9477777764" lon="11.5008777731">
		<tag k="landuse" v="meadow" />
		<tag k="name" v="Enga" />
		<tag k="ssr:stedsnr" v="300644" />
	</node>
	<node id="-74257" lat="60.9826611084" lon="12.0196972287">
		<tag k="name" v="Vårmorkjølen" />
		<tag k="natural" v="wetland" />
		<tag k="ssr:stedsnr" v="191387" />
	</node>
	<node id="-74256" lat="61.0157638858" lon="12.0256972194">
		<tag k="alt_name" v="Juskjølen;Jysskjølen" />
		<tag k="name" v="Gyskjølen" />
		<tag k="natural" v="wetland" />
		<tag k="ssr:stedsnr" v="191386" />
	</node>
	<node id="-74254" lat="60.9701111105" lon="12.0535888978">
		<tag k="name" v="Gråbeinkjølen" />
		<tag k="natural" v="wetland" />
		<tag k="ssr:stedsnr" v="191366" />
	</node>
	<node id="-74248" lat="60.8018138909" lon="11.5369749967">
		<tag k="name" v="Styggmyra" />
		<tag k="natural" v="wetland" />
		<tag k="ssr:stedsnr" v="191311" />
	</node>
	<node id="-74224" lat="60.9380500036" lon="11.4836750061">
		<tag k="name" v="Stensmyra" />
		<tag k="natural" v="wetland" />
		<tag k="ssr:stedsnr" v="191069" />
	</node>
	<node id="-74210" lat="60.9601611113" lon="11.7488277719">
		<tag k="name" v="Stormyra" />
		<tag k="natural" v="wetland" />
		<tag k="ssr:stedsnr" v="191002" />
	</node>
	<node id="-74204" lat="61.0772527748" lon="11.6482611112">
		<tag k="name" v="Vinterkjølen" />
		<tag k="natural" v="wetland" />
		<tag k="ssr:stedsnr" v="190177" />
	</node>
	<node id="-74203" lat="61.0815500035" lon="11.5704444402">
		<tag k="name" v="Sjømyra" />
		<tag k="natural" v="wetland" />
		<tag k="ssr:stedsnr" v="190176" />
	</node>
	<node id="-74198" lat="61.0558749971" lon="11.8021333243">
		<tag k="name" v="Åsmyra" />
		<tag k="natural" v="wetland" />
		<tag k="ssr:stedsnr" v="189195" />
	</node>
	<node id="-74192" lat="60.876483336" lon="11.5161888962">
		<tag k="name" v="Fuglemyra" />
		<tag k="natural" v="wetland" />
		<tag k="ssr:stedsnr" v="180591" />
	</node>
	<node id="-74191" lat="60.8453499958" lon="11.5018972297">
		<tag k="name" v="Gildretjennskjølen" />
		<tag k="natural" v="wetland" />
		<tag k="ssr:stedsnr" v="180588" />
	</node>
	<node id="-74190" lat="61.0039194422" lon="11.6427194375">
		<tag k="name" v="Stokkbekkroa" />
		<tag k="place" v="locality" />
		<tag k="ssr:stedsnr" v="180573" />
	</node>
	<node id="-74188" lat="60.9821138854" lon="11.5623805485">
		<tag k="landuse" v="meadow" />
		<tag k="name" v="Starslåtten" />
		<tag k="ssr:stedsnr" v="180558" />
	</node>
	<node id="-74185" lat="60.9100749976" lon="11.6714000077">
		<tag k="name" v="Stormyra" />
		<tag k="natural" v="wetland" />
		<tag k="ssr:stedsnr" v="180132" />
	</node>
	<node id="-74182" lat="60.9870694438" lon="11.8996361038">
		<tag k="historic" v="shieling" />
		<tag k="name" v="Høgberget sæter" />
		<tag k="place" v="locality" />
		<tag k="ssr:stedsnr" v="180020" />
	</node>
	<node id="-74163" lat="60.8705916678" lon="11.8969277701">
		<tag k="name" v="Stensmyra" />
		<tag k="natural" v="wetland" />
		<tag k="ssr:stedsnr" v="178085" />
	</node>
	<node id="-74159" lat="60.8393249998" lon="11.6352444505">
		<tag k="name" v="Bjørnåsen" />
		<tag k="place" v="locality" />
		<tag k="ssr:stedsnr" v="177988" />
	</node>
	<node id="-74158" lat="61.0936166667" lon="11.5867277701">
		<tag k="landuse" v="meadow" />
		<tag k="name" v="Strandrønningen" />
		<tag k="ssr:stedsnr" v="177940" />
	</node>
	<node id="-74156" lat="61.0167055539" lon="11.7334833329">
		<tag k="loc_name" v="Godbakkrønningen" />
		<tag k="name" v="Gobakkrønningen" />
		<tag k="place" v="locality" />
		<tag k="ssr:stedsnr" v="177939" />
	</node>
	<node id="-74143" lat="61.0204388932" lon="11.5298444411">
		<tag k="name" v="Stormyra" />
		<tag k="natural" v="wetland" />
		<tag k="ssr:stedsnr" v="176904" />
	</node>
	<node id="-73454" lat="60.8988222188" lon="11.8557916665">
		<tag k="name" v="Tørrhaldamyra" />
		<tag k="natural" v="wetland" />
		<tag k="ssr:stedsnr" v="361813" />
	</node>
	<node id="-74126" lat="60.8694527747" lon="11.7369027688">
		<tag k="name" v="Olamyra" />
		<tag k="natural" v="wetland" />
		<tag k="ssr:stedsnr" v="162956" />
	</node>
	<node id="-74125" lat="60.8826500038" lon="11.687527776">
		<tag k="name" v="Elverumsengene" />
		<tag k="place" v="locality" />
		<tag k="ssr:stedsnr" v="162933" />
	</node>
	<node id="-74123" lat="60.9171944412" lon="11.5575722224">
		<tag k="name" v="Gravningen" />
		<tag k="place" v="locality" />
		<tag k="ssr:stedsnr" v="162104" />
	</node>
	<node id="-74117" lat="60.922155555" lon="11.6057527759">
		<tag k="name" v="Stabbursholtet" />
		<tag k="place" v="locality" />
		<tag k="ssr:stedsnr" v="162094" />
	</node>
	<node id="-74105" lat="60.988327781" lon="11.7177166615">
		<tag k="name" v="Kloppmyra" />
		<tag k="natural" v="wetland" />
		<tag k="ssr:stedsnr" v="131991" />
	</node>
	<node id="-74101" lat="60.8079833354" lon="11.5676527869">
		<tag k="name" v="Kavlemyra" />
		<tag k="natural" v="wetland" />
		<tag k="ssr:stedsnr" v="131267" />
	</node>
	<node id="-74091" lat="60.9956111066" lon="11.5957027831">
		<tag k="name" v="Saumyra" />
		<tag k="natural" v="wetland" />
		<tag k="ssr:stedsnr" v="130970" />
	</node>
	<node id="-74088" lat="60.9097083374" lon="11.9279361119">
		<tag k="name" v="Vesterkjølen" />
		<tag k="natural" v="wetland" />
		<tag k="ssr:stedsnr" v="130394" />
	</node>
	<node id="-74069" lat="60.8410000031" lon="11.5116388949">
		<tag k="name" v="Bjørnholtet" />
		<tag k="place" v="locality" />
		<tag k="ssr:stedsnr" v="130166" />
	</node>
	<node id="-74062" lat="60.9042833336" lon="11.6608666731">
		<tag k="name" v="Langmyrkorsen" />
		<tag k="natural" v="wetland" />
		<tag k="ssr:stedsnr" v="130137" />
	</node>
	<node id="-74043" lat="61.0232500041" lon="11.5972249915">
		<tag k="name" v="Slåttmyra" />
		<tag k="natural" v="wetland" />
		<tag k="ssr:stedsnr" v="129264" />
	</node>
	<node id="-74033" lat="61.0425194475" lon="11.4956666586">
		<tag k="name" v="Hyttmyra" />
		<tag k="natural" v="wetland" />
		<tag k="ssr:stedsnr" v="128166" />
	</node>
	<node id="-74025" lat="60.8343472192" lon="11.7950527837">
		<tag k="name" v="Gunhildbrenna" />
		<tag k="place" v="locality" />
		<tag k="ssr:stedsnr" v="119991" />
	</node>
	<node id="-74020" lat="60.8653027807" lon="11.4732305494">
		<tag k="name" v="Åkransmyra" />
		<tag k="natural" v="wetland" />
		<tag k="ssr:stedsnr" v="119628" />
	</node>
	<node id="-74013" lat="60.8899444414" lon="11.7245694445">
		<tag k="historic" v="shieling" />
		<tag k="name" v="Halvorsetvollen" />
		<tag k="place" v="locality" />
		<tag k="ssr:stedsnr" v="119155" />
	</node>
	<node id="-74011" lat="61.025033337" lon="11.8724833355">
		<tag k="landuse" v="meadow" />
		<tag k="name" v="Nordre Ulvåstranda" />
		<tag k="ssr:stedsnr" v="119131" />
	</node>
	<node id="-74004" lat="60.9626694403" lon="11.4355583327">
		<tag k="name" v="Veslekjølen" />
		<tag k="natural" v="wetland" />
		<tag k="ssr:stedsnr" v="118746" />
	</node>
	<node id="-74001" lat="60.9412861142" lon="11.4858861111">
		<tag k="name" v="Bumyra" />
		<tag k="natural" v="wetland" />
		<tag k="ssr:stedsnr" v="118597" />
	</node>
	<node id="-73999" lat="60.8355250031" lon="11.4985138959">
		<tag k="name" v="Rådelsmyra" />
		<tag k="natural" v="wetland" />
		<tag k="ssr:stedsnr" v="118542" />
	</node>
	<node id="-73998" lat="60.9978444482" lon="11.3656555627">
		<tag k="name" v="Kjeldmyra" />
		<tag k="natural" v="wetland" />
		<tag k="ssr:stedsnr" v="118522" />
	</node>
	<node id="-73987" lat="60.9627249966" lon="11.5600583302">
		<tag k="name" v="Ørtjennsbrenna" />
		<tag k="place" v="locality" />
		<tag k="ssr:stedsnr" v="116707" />
	</node>
	<node id="-73984" lat="60.9556138904" lon="11.5265944429">
		<tag k="name" v="Kjurrudalsmyra" />
		<tag k="natural" v="wetland" />
		<tag k="ssr:stedsnr" v="116645" />
	</node>
	<node id="-76031" lat="61.0154194452" lon="11.4565805543">
		<tag k="name" v="Folesvea" />
		<tag k="place" v="locality" />
		<tag k="ssr:stedsnr" v="969800" />
	</node>
	<node id="-73982" lat="60.9207166676" lon="11.4999027786">
		<tag k="name" v="Treerbrenna" />
		<tag k="place" v="locality" />
		<tag k="ssr:stedsnr" v="116629" />
	</node>
	<node id="-73977" lat="60.7731611122" lon="11.6177972236">
		<tag k="name" v="Fugleleken" />
		<tag k="place" v="locality" />
		<tag k="ssr:stedsnr" v="116371" />
	</node>
	<node id="-73976" lat="61.0199611138" lon="11.752655559">
		<tag k="name" v="Storbekkrønningen" />
		<tag k="place" v="locality" />
		<tag k="ssr:stedsnr" v="116348" />
	</node>
	<node id="-73973" lat="60.9449583298" lon="11.6179888969">
		<tag k="name" v="Reten" />
		<tag k="place" v="locality" />
		<tag k="ssr:stedsnr" v="116081" />
	</node>
	<node id="-76018" lat="61.0798777755" lon="11.7576777867">
		<tag k="name" v="Graskjølen" />
		<tag k="natural" v="wetland" />
		<tag k="ssr:stedsnr" v="968678" />
	</node>
	<node id="-76016" lat="60.8734777746" lon="11.4894027728">
		<tag k="name" v="Skirbakkmyra" />
		<tag k="natural" v="wetland" />
		<tag k="ssr:stedsnr" v="968614" />
	</node>
	<node id="-76015" lat="60.853650001" lon="11.638797214">
		<tag k="name" v="Langmyra" />
		<tag k="natural" v="wetland" />
		<tag k="ssr:stedsnr" v="968610" />
	</node>
	<node id="-76014" lat="61.0654861106" lon="11.836052778">
		<tag k="landuse" v="meadow" />
		<tag k="name" v="Gottenborgstranda" />
		<tag k="ssr:stedsnr" v="968110" />
	</node>
	<node id="-76013" lat="61.0610555594" lon="11.8001555483">
		<tag k="name" v="Tuvmyra" />
		<tag k="natural" v="wetland" />
		<tag k="ssr:stedsnr" v="968111" />
	</node>
	<node id="-73962" lat="61.0937527754" lon="11.5749583348">
		<tag k="landuse" v="meadow" />
		<tag k="name" v="Håkenengen" />
		<tag k="ssr:stedsnr" v="116934" />
	</node>
	<node id="-73949" lat="61.0507250014" lon="11.7764416663">
		<tag k="name" v="Fjøsbrennmyra" />
		<tag k="natural" v="wetland" />
		<tag k="ssr:stedsnr" v="102320" />
	</node>
	<node id="-75981" lat="60.9649888899" lon="11.5923722139">
		<tag k="name" v="Benstimyra" />
		<tag k="natural" v="wetland" />
		<tag k="ssr:stedsnr" v="965703" />
	</node>
	<node id="-75979" lat="61.0861861102" lon="11.6886611049">
		<tag k="name" v="Måsåkjølen" />
		<tag k="natural" v="wetland" />
		<tag k="ssr:stedsnr" v="965647" />
	</node>
	<node id="-73930" lat="61.0777277743" lon="12.0738805557">
		<tag k="name" v="Rønningsmyra" />
		<tag k="natural" v="wetland" />
		<tag k="ssr:stedsnr" v="84169" />
	</node>
	<node id="-73925" lat="60.934486108" lon="11.4490444513">
		<tag k="name" v="Tjennslimyra" />
		<tag k="natural" v="wetland" />
		<tag k="ssr:stedsnr" v="70603" />
	</node>
	<node id="-73920" lat="60.988475004" lon="11.394474998">
		<tag k="name" v="Rustadmarka" />
		<tag k="place" v="locality" />
		<tag k="ssr:stedsnr" v="70534" />
	</node>
	<node id="-73918" lat="60.9619749983" lon="11.4380500088">
		<tag k="name" v="Sæternmarka" />
		<tag k="place" v="locality" />
		<tag k="ssr:stedsnr" v="70523" />
	</node>
	<node id="-75965" lat="60.8757666688" lon="11.7608916663">
		<tag k="name" v="Østre Nysæterskog" />
		<tag k="place" v="locality" />
		<tag k="ssr:stedsnr" v="951942" />
	</node>
	<node id="-75962" lat="60.9275361137" lon="11.5614027869">
		<tag k="name" v="Ballerupmyra" />
		<tag k="natural" v="wetland" />
		<tag k="ssr:stedsnr" v="951125" />
	</node>
	<node id="-75957" lat="60.9479666671" lon="11.5622722248">
		<tag k="name" v="Barbrenna" />
		<tag k="place" v="locality" />
		<tag k="ssr:stedsnr" v="950078" />
	</node>
	<node id="-75956" lat="60.9407888903" lon="11.5861027716">
		<tag k="name" v="Handklemyra" />
		<tag k="natural" v="wetland" />
		<tag k="ssr:stedsnr" v="950075" />
	</node>
	<node id="-75944" lat="60.9333000028" lon="11.4339750071">
		<tag k="name" v="Grundsetskogen" />
		<tag k="place" v="locality" />
		<tag k="ssr:stedsnr" v="920615" />
	</node>
	<node id="-75940" lat="60.9662749956" lon="11.8835500048">
		<tag k="name" v="Høkmyra" />
		<tag k="natural" v="wetland" />
		<tag k="ssr:stedsnr" v="920360" />
	</node>
	<node id="-75928" lat="60.8622000039" lon="11.6484666674">
		<tag k="name" v="Lisætermyra" />
		<tag k="natural" v="wetland" />
		<tag k="ssr:stedsnr" v="920220" />
	</node>
	<node id="-73753" lat="60.9475222237" lon="11.5512833314">
		<tag k="name" v="Engeteigene" />
		<tag k="place" v="locality" />
		<tag k="ssr:stedsnr" v="40071" />
	</node>
	<node id="-75921" lat="60.8202611152" lon="11.9202361174">
		<tag k="name" v="Tjennsbergmyra" />
		<tag k="natural" v="wetland" />
		<tag k="ssr:stedsnr" v="919577" />
	</node>
	<node id="-75919" lat="60.8194888852" lon="11.9455500075">
		<tag k="name" v="Kumyra" />
		<tag k="natural" v="wetland" />
		<tag k="ssr:stedsnr" v="919572" />
	</node>
	<node id="-75912" lat="60.9431722187" lon="12.0934499967">
		<tag k="name" v="Benkemyra" />
		<tag k="natural" v="wetland" />
		<tag k="ssr:stedsnr" v="919466" />
	</node>
	<node id="-73862" lat="60.9813555542" lon="11.581675002">
		<tag k="alt_name" v="Øpinrosa" />
		<tag k="name" v="Øppinrosa" />
		<tag k="natural" v="wetland" />
		<tag k="ssr:stedsnr" v="70054" />
	</node>
	<node id="-73857" lat="60.9683249959" lon="11.5699750034">
		<tag k="name" v="Ørtjennskjølen" />
		<tag k="natural" v="wetland" />
		<tag k="ssr:stedsnr" v="70035" />
	</node>
	<node id="-75898" lat="60.8267333339" lon="11.7650972163">
		<tag k="name" v="Bløtmyra" />
		<tag k="natural" v="wetland" />
		<tag k="ssr:stedsnr" v="919290" />
	</node>
	<node id="-75883" lat="60.8941000037" lon="11.6911027843">
		<tag k="name" v="Fjøsmyra" />
		<tag k="natural" v="wetland" />
		<tag k="ssr:stedsnr" v="919138" />
	</node>
	<node id="-75873" lat="61.0150138906" lon="11.8506250014">
		<tag k="name" v="Fløta" />
		<tag k="natural" v="wetland" />
		<tag k="ssr:stedsnr" v="918922" />
	</node>
	<node id="-73819" lat="60.757180553" lon="11.7271916613">
		<tag k="name" v="Fekja" />
		<tag k="place" v="locality" />
		<tag k="ssr:stedsnr" v="59314" />
	</node>
	<node id="-73817" lat="61.0209249976" lon="11.8849472173">
		<tag k="landuse" v="meadow" />
		<tag k="name" v="Bergestranda" />
		<tag k="ssr:stedsnr" v="59101" />
	</node>
	<node id="-73815" lat="61.0487499986" lon="11.7957777777">
		<tag k="landuse" v="meadow" />
		<tag k="name" v="Uthusvollen" />
		<tag k="ssr:stedsnr" v="59084" />
	</node>
	<node id="-73814" lat="61.0380361142" lon="11.8044083427">
		<tag k="name" v="Nedre Svartbergsmyra" />
		<tag k="natural" v="wetland" />
		<tag k="ssr:stedsnr" v="59083" />
	</node>
	<node id="-73813" lat="61.1381833366" lon="11.8394111068">
		<tag k="name" v="Storløkjølen" />
		<tag k="natural" v="wetland" />
		<tag k="ssr:stedsnr" v="59074" />
	</node>
	<node id="-73812" lat="61.1519666701" lon="11.8177055561">
		<tag k="landuse" v="meadow" />
		<tag k="name" v="Horndalsrønningen" />
		<tag k="ssr:stedsnr" v="59073" />
	</node>
	<node id="-73804" lat="61.0101888891" lon="11.3339194483">
		<tag k="name" v="Fjøsmyra" />
		<tag k="natural" v="wetland" />
		<tag k="ssr:stedsnr" v="57554" />
	</node>
	<node id="-75850" lat="60.9410111123" lon="11.8357972238">
		<tag k="name" v="Skjærmyra" />
		<tag k="natural" v="wetland" />
		<tag k="ssr:stedsnr" v="908874" />
	</node>
	<node id="-75839" lat="60.912786112" lon="11.6927527807">
		<tag k="name" v="Kvernmyra" />
		<tag k="natural" v="wetland" />
		<tag k="ssr:stedsnr" v="908145" />
	</node>
	<node id="-75838" lat="60.9141000013" lon="11.6645694484">
		<tag k="name" v="Rørmyra" />
		<tag k="natural" v="wetland" />
		<tag k="ssr:stedsnr" v="908143" />
	</node>
	<node id="-73783" lat="60.9734361081" lon="12.084580548">
		<tag k="name" v="Søndre Orrleikkjølen" />
		<tag k="natural" v="wetland" />
		<tag k="ssr:stedsnr" v="55530" />
	</node>
	<node id="-75828" lat="61.0927694456" lon="11.774411104">
		<tag k="historic" v="shieling" />
		<tag k="name" v="Skjærvik" />
		<tag k="place" v="locality" />
		<tag k="ssr:stedsnr" v="907589" />
	</node>
	<node id="-75826" lat="60.834050002" lon="11.5312444518">
		<tag k="name" v="Kolbotnmyra" />
		<tag k="natural" v="wetland" />
		<tag k="ssr:stedsnr" v="907542" />
	</node>
	<node id="-75825" lat="61.0138222245" lon="11.3555499965">
		<tag k="name" v="Bergmyra" />
		<tag k="natural" v="wetland" />
		<tag k="ssr:stedsnr" v="907539" />
	</node>
	<node id="-73770" lat="60.8811111111" lon="11.6893777701">
		<tag k="name" v="Lensmannsenga" />
		<tag k="place" v="locality" />
		<tag k="ssr:stedsnr" v="41924" />
	</node>
	<node id="-75815" lat="60.869213891" lon="11.5982694504">
		<tag k="name" v="Stormyra" />
		<tag k="natural" v="wetland" />
		<tag k="ssr:stedsnr" v="907014" />
	</node>
	<node id="-73766" lat="60.9473861114" lon="11.4750333383">
		<tag k="name" v="Maritmyra" />
		<tag k="natural" v="wetland" />
		<tag k="ssr:stedsnr" v="41690" />
	</node>
	<node id="-75811" lat="61.0938805534" lon="11.5888833298">
		<tag k="landuse" v="meadow" />
		<tag k="name" v="Børønningen" />
		<tag k="ssr:stedsnr" v="905940" />
	</node>
	<node id="-75810" lat="61.0866666637" lon="11.6041250027">
		<tag k="landuse" v="meadow" />
		<tag k="name" v="Røtosengen" />
		<tag k="ssr:stedsnr" v="905939" />
	</node>
	<node id="-75801" lat="61.0502472193" lon="11.6376027847">
		<tag k="name" v="Klokkerrønningen" />
		<tag k="place" v="locality" />
		<tag k="ssr:stedsnr" v="905562" />
	</node>
	<node id="-73752" lat="60.850416666" lon="11.6275027739">
		<tag k="name" v="Skjefstadlimyra" />
		<tag k="natural" v="wetland" />
		<tag k="ssr:stedsnr" v="40013" />
	</node>
	<node id="-73750" lat="61.0248305549" lon="11.957566663">
		<tag k="name" v="Gråbergskogen" />
		<tag k="place" v="locality" />
		<tag k="ssr:stedsnr" v="39319" />
	</node>
	<node id="-75793" lat="61.0230333317" lon="11.8762500039">
		<tag k="landuse" v="meadow" />
		<tag k="name" v="Ulvåstrendene" />
		<tag k="ssr:stedsnr" v="874134" />
	</node>
	<node id="-73741" lat="60.7855027783" lon="11.7312888966">
		<tag k="name" v="Osmyra" />
		<tag k="natural" v="wetland" />
		<tag k="ssr:stedsnr" v="10351" />
	</node>
	<node id="-75786" lat="60.9987777787" lon="11.6276166742">
		<tag k="name" v="Fly" />
		<tag k="natural" v="wetland" />
		<tag k="ssr:stedsnr" v="859953" />
	</node>
	<node id="-73730" lat="60.9484250021" lon="11.4414250054">
		<tag k="name" v="Ragnhildmyra" />
		<tag k="natural" v="wetland" />
		<tag k="ssr:stedsnr" v="9573" />
	</node>
</osm>
