<?xml version="1.0" encoding="UTF-8"?>
<osm generator="osmapis" version="0.6">
	<node id="-261373" lat="59.0669916702" lon="7.99795277547">
		<tag k="name" v="Gakkenskilbakkane" />
		<tag k="ssr:date" v="2016-05-10" />
		<tag k="ssr:gruppe" v="veg" />
		<tag k="ssr:hovedgruppe" v="infrastruktur" />
		<tag k="ssr:stedsnr" v="595881" />
		<tag k="ssr:type" v="vegstrekning" />
	</node>
	<node id="-262525" lat="59.334805556" lon="8.14473889668">
		<tag k="name" v="Gamlevegen" />
		<tag k="ssr:date" v="2016-05-11" />
		<tag k="ssr:gruppe" v="veg" />
		<tag k="ssr:hovedgruppe" v="infrastruktur" />
		<tag k="ssr:stedsnr" v="838935" />
		<tag k="ssr:type" v="vegstrekning" />
	</node>
	<node id="-260074" lat="59.2265750021" lon="7.83260000749">
		<tag k="name" v="Øysævegen" />
		<tag k="ssr:date" v="2016-05-10" />
		<tag k="ssr:gruppe" v="veg" />
		<tag k="ssr:hovedgruppe" v="infrastruktur" />
		<tag k="ssr:stedsnr" v="156161" />
		<tag k="ssr:type" v="vegstrekning" />
	</node>
	<node id="-261479" lat="59.2455861149" lon="8.10039165889">
		<tag k="name" v="Rolevstadvegen" />
		<tag k="ssr:date" v="2016-05-10" />
		<tag k="ssr:gruppe" v="veg" />
		<tag k="ssr:hovedgruppe" v="infrastruktur" />
		<tag k="ssr:stedsnr" v="640107" />
		<tag k="ssr:type" v="vegstrekning" />
	</node>
	<node id="-260710" lat="59.1937499974" lon="7.94560832643">
		<tag k="name" v="Brokkelinja" />
		<tag k="ssr:date" v="2016-05-10" />
		<tag k="ssr:gruppe" v="energi" />
		<tag k="ssr:hovedgruppe" v="infrastruktur" />
		<tag k="ssr:stedsnr" v="460583" />
		<tag k="ssr:type" v="kraftledning" />
	</node>
	<node id="-261343" lat="59.1854694489" lon="8.10116111746">
		<tag k="name" v="Tøddebakkane" />
		<tag k="ssr:date" v="2016-05-10" />
		<tag k="ssr:gruppe" v="veg" />
		<tag k="ssr:hovedgruppe" v="infrastruktur" />
		<tag k="ssr:stedsnr" v="594950" />
		<tag k="ssr:type" v="vegstrekning" />
	</node>
	<node id="-259933" lat="59.1343527761" lon="8.14365000205">
		<tag k="name" v="Napevegen" />
		<tag k="ssr:date" v="2016-05-10" />
		<tag k="ssr:gruppe" v="veg" />
		<tag k="ssr:hovedgruppe" v="infrastruktur" />
		<tag k="ssr:stedsnr" v="109582" />
		<tag k="ssr:type" v="vegstrekning" />
	</node>
	<node id="-262927" lat="60.5908609473" lon="9.63819281559">
		<tag k="fixme" v="multiple name tags, choose one and add the other to alt_name" />
		<tag k="name" v="Austlandet;Østlandet" />
		<tag k="ssr:date" v="2018-01-09" />
		<tag k="ssr:gruppe" v="administrativeIndelinger" />
		<tag k="ssr:hovedgruppe" v="offentligAdministrasjon" />
		<tag k="ssr:stedsnr" v="974775" />
		<tag k="ssr:type" v="annenAdministrativInndeling" />
	</node>
	<node id="-262457" lat="59.2015000026" lon="8.19754443604">
		<tag k="name" v="Stavskleiv" />
		<tag k="ssr:date" v="2016-05-11" />
		<tag k="ssr:gruppe" v="veg" />
		<tag k="ssr:hovedgruppe" v="infrastruktur" />
		<tag k="ssr:stedsnr" v="837371" />
		<tag k="ssr:type" v="vegstrekning" />
	</node>
	<node id="-262867" lat="59.134013891" lon="8.13993054999">
		<tag k="name" v="Skitmyrbakken" />
		<tag k="ssr:date" v="2016-05-11" />
		<tag k="ssr:gruppe" v="veg" />
		<tag k="ssr:hovedgruppe" v="infrastruktur" />
		<tag k="ssr:stedsnr" v="958650" />
		<tag k="ssr:type" v="vegstrekning" />
	</node>
	<node id="-262096" lat="59.1860166655" lon="7.88304443731">
		<tag k="name" v="Skrimdalsvegen" />
		<tag k="ssr:date" v="2016-05-11" />
		<tag k="ssr:gruppe" v="veg" />
		<tag k="ssr:hovedgruppe" v="infrastruktur" />
		<tag k="ssr:stedsnr" v="763860" />
		<tag k="ssr:type" v="vegstrekning" />
	</node>
	<node id="-262735" lat="59.1829234192" lon="8.08508889747">
		<tag k="name" v="Fyresdal kommune" />
		<tag k="ssr:date" v="2019-08-05" />
		<tag k="ssr:gruppe" v="administrativeIndelinger" />
		<tag k="ssr:hovedgruppe" v="offentligAdministrasjon" />
		<tag k="ssr:stedsnr" v="935529" />
		<tag k="ssr:type" v="kommune" />
	</node>
	<node id="-260673" lat="59.2267305594" lon="7.84130278121">
		<tag k="name" v="Tordalsvegen" />
		<tag k="ssr:date" v="2016-05-10" />
		<tag k="ssr:gruppe" v="veg" />
		<tag k="ssr:hovedgruppe" v="infrastruktur" />
		<tag k="ssr:stedsnr" v="459177" />
		<tag k="ssr:type" v="vegstrekning" />
	</node>
	<node id="-261824" lat="59.1386277733" lon="7.98899721776">
		<tag k="name" v="Borggrendsvegen" />
		<tag k="ssr:date" v="2016-05-11" />
		<tag k="ssr:gruppe" v="veg" />
		<tag k="ssr:hovedgruppe" v="infrastruktur" />
		<tag k="ssr:stedsnr" v="703502" />
		<tag k="ssr:type" v="vegstrekning" />
	</node>
	<node id="-262176" lat="59.13663333" lon="8.11725556416">
		<tag k="name" v="Gamleveg" />
		<tag k="ssr:date" v="2016-05-11" />
		<tag k="ssr:gruppe" v="veg" />
		<tag k="ssr:hovedgruppe" v="infrastruktur" />
		<tag k="ssr:stedsnr" v="776688" />
		<tag k="ssr:type" v="vegstrekning" />
	</node>
	<node id="-259390" lat="59.106069444" lon="8.05321943636">
		<tag k="name" v="Breivikskleivane" />
		<tag k="ssr:date" v="2016-05-10" />
		<tag k="ssr:gruppe" v="veg" />
		<tag k="ssr:hovedgruppe" v="infrastruktur" />
		<tag k="ssr:stedsnr" v="413784" />
		<tag k="ssr:type" v="vegstrekning" />
	</node>
	<node id="-260319" lat="59.2178611088" lon="8.07096389386">
		<tag k="name" v="Brokkelinja" />
		<tag k="ssr:date" v="2016-05-10" />
		<tag k="ssr:gruppe" v="energi" />
		<tag k="ssr:hovedgruppe" v="infrastruktur" />
		<tag k="ssr:stedsnr" v="216452" />
		<tag k="ssr:type" v="kraftledning" />
	</node>
	<node id="-260663" lat="59.2093333364" lon="8.07570000157">
		<tag k="name" v="Finndølalinja" />
		<tag k="ssr:date" v="2016-05-10" />
		<tag k="ssr:gruppe" v="energi" />
		<tag k="ssr:hovedgruppe" v="infrastruktur" />
		<tag k="ssr:stedsnr" v="458571" />
		<tag k="ssr:type" v="kraftledning" />
	</node>
	<node id="-261813" lat="59.2593111102" lon="7.81723610544">
		<tag k="name" v="Mørktjønnvegen" />
		<tag k="ssr:date" v="2016-05-11" />
		<tag k="ssr:gruppe" v="veg" />
		<tag k="ssr:hovedgruppe" v="infrastruktur" />
		<tag k="ssr:stedsnr" v="702859" />
		<tag k="ssr:type" v="vegstrekning" />
	</node>
	<node id="-261037" lat="59.1451611082" lon="8.1749527789">
		<tag k="name" v="Stavkleiv" />
		<tag k="ssr:date" v="2016-05-10" />
		<tag k="ssr:gruppe" v="veg" />
		<tag k="ssr:hovedgruppe" v="infrastruktur" />
		<tag k="ssr:stedsnr" v="533429" />
		<tag k="ssr:type" v="vegstrekning" />
	</node>
	<node id="-260140" lat="59.0615916632" lon="8.28078333057">
		<tag k="name" v="Leikmyrsvingen" />
		<tag k="ssr:date" v="2016-05-10" />
		<tag k="ssr:gruppe" v="veg" />
		<tag k="ssr:hovedgruppe" v="infrastruktur" />
		<tag k="ssr:stedsnr" v="168939" />
		<tag k="ssr:type" v="vegstrekning" />
	</node>
	<node id="-258603" lat="59.0601083333" lon="8.27793055623">
		<tag k="name" v="Uppå Kleivane" />
		<tag k="ssr:date" v="2016-05-10" />
		<tag k="ssr:gruppe" v="veg" />
		<tag k="ssr:hovedgruppe" v="infrastruktur" />
		<tag k="ssr:stedsnr" v="290921" />
		<tag k="ssr:type" v="vegstrekning" />
	</node>
	<node id="-259239" lat="59.2001166668" lon="8.15336388143">
		<tag k="name" v="Grimhollbakkane" />
		<tag k="ssr:date" v="2016-05-11" />
		<tag k="ssr:gruppe" v="veg" />
		<tag k="ssr:hovedgruppe" v="infrastruktur" />
		<tag k="ssr:stedsnr" v="883152" />
		<tag k="ssr:type" v="vegstrekning" />
	</node>
	<node id="-262053" lat="59.2464749967" lon="8.13516943576">
		<tag k="name" v="Osebakkane" />
		<tag k="ssr:date" v="2016-05-11" />
		<tag k="ssr:gruppe" v="veg" />
		<tag k="ssr:hovedgruppe" v="infrastruktur" />
		<tag k="ssr:stedsnr" v="762297" />
		<tag k="ssr:type" v="vegstrekning" />
	</node>
	<node id="-259876" lat="59.1584305539" lon="8.13066388549">
		<tag k="name" v="Brennebakkane" />
		<tag k="ssr:date" v="2016-05-10" />
		<tag k="ssr:gruppe" v="veg" />
		<tag k="ssr:hovedgruppe" v="infrastruktur" />
		<tag k="ssr:stedsnr" v="108263" />
		<tag k="ssr:type" v="vegstrekning" />
	</node>
	<node id="-259363" lat="59.323897226" lon="8.17910278282">
		<tag k="name" v="Sveinsdalsvegen" />
		<tag k="ssr:date" v="2016-05-11" />
		<tag k="ssr:gruppe" v="veg" />
		<tag k="ssr:hovedgruppe" v="infrastruktur" />
		<tag k="ssr:stedsnr" v="898671" />
		<tag k="ssr:type" v="vegstrekning" />
	</node>
	<node id="-262050" lat="59.1878916672" lon="8.12550834128">
		<tag k="name" v="Sløyfa" />
		<tag k="ssr:date" v="2016-05-11" />
		<tag k="ssr:gruppe" v="veg" />
		<tag k="ssr:hovedgruppe" v="infrastruktur" />
		<tag k="ssr:stedsnr" v="762214" />
		<tag k="ssr:type" v="vegstrekning" />
	</node>
	<node id="-262048" lat="59.2407249971" lon="8.07875833085">
		<tag k="name" v="Fantevegen" />
		<tag k="ssr:date" v="2016-05-11" />
		<tag k="ssr:gruppe" v="veg" />
		<tag k="ssr:hovedgruppe" v="infrastruktur" />
		<tag k="ssr:stedsnr" v="762085" />
		<tag k="ssr:type" v="vegstrekning" />
	</node>
	<node id="-262431" lat="59.0593333371" lon="8.27517778124">
		<tag k="name" v="Jons veg" />
		<tag k="ssr:date" v="2016-05-11" />
		<tag k="ssr:gruppe" v="veg" />
		<tag k="ssr:hovedgruppe" v="infrastruktur" />
		<tag k="ssr:stedsnr" v="836936" />
		<tag k="ssr:type" v="vegstrekning" />
	</node>
	<node id="-261784" lat="59.2217527789" lon="8.01284167159">
		<tag k="name" v="Russlandsvegen" />
		<tag k="ssr:date" v="2016-05-11" />
		<tag k="ssr:gruppe" v="veg" />
		<tag k="ssr:hovedgruppe" v="infrastruktur" />
		<tag k="ssr:stedsnr" v="701923" />
		<tag k="ssr:type" v="vegstrekning" />
	</node>
	<node id="-258831" lat="59.1116305543" lon="8.08772499458">
		<tag k="name" v="Kåsesvingen" />
		<tag k="ssr:date" v="2016-05-10" />
		<tag k="ssr:gruppe" v="veg" />
		<tag k="ssr:hovedgruppe" v="infrastruktur" />
		<tag k="ssr:stedsnr" v="351173" />
		<tag k="ssr:type" v="vegstrekning" />
	</node>
	<node id="-259336" lat="59.0600194466" lon="8.28139999709">
		<tag k="name" v="Åbogstjønnsvingen" />
		<tag k="ssr:date" v="2016-05-11" />
		<tag k="ssr:gruppe" v="veg" />
		<tag k="ssr:hovedgruppe" v="infrastruktur" />
		<tag k="ssr:stedsnr" v="897912" />
		<tag k="ssr:type" v="vegstrekning" />
	</node>
	<node id="-260353" lat="59.2396027757" lon="7.96143056105">
		<tag k="name" v="Ækrevegen" />
		<tag k="ssr:date" v="2016-05-10" />
		<tag k="ssr:gruppe" v="veg" />
		<tag k="ssr:hovedgruppe" v="infrastruktur" />
		<tag k="ssr:stedsnr" v="217576" />
		<tag k="ssr:type" v="vegstrekning" />
	</node>
</osm>
