<?xml version="1.0" encoding="UTF-8"?>
<osm generator="osmapis" version="0.6">
	<node id="-258818" lat="59.316694443" lon="8.15089167129">
		<tag k="old_name" v="Røyningdalsvegen" />
		<tag k="ssr:date" v="2016-05-10" />
		<tag k="ssr:gruppe" v="veg" />
		<tag k="ssr:hovedgruppe" v="infrastruktur" />
		<tag k="ssr:stedsnr" v="412852" />
		<tag k="ssr:type" v="vegstrekning" />
	</node>
	<node id="-261246" lat="59.2549472224" lon="8.06898888078">
		<tag k="old_name" v="Møanvegen" />
		<tag k="ssr:date" v="2016-05-10" />
		<tag k="ssr:gruppe" v="veg" />
		<tag k="ssr:hovedgruppe" v="infrastruktur" />
		<tag k="ssr:stedsnr" v="654483" />
		<tag k="ssr:type" v="vegstrekning" />
	</node>
	<node id="-260708" lat="59.1388666689" lon="8.12960554882">
		<tag k="old_name" v="Skvettedamsvegen" />
		<tag k="ssr:date" v="2016-05-10" />
		<tag k="ssr:gruppe" v="veg" />
		<tag k="ssr:hovedgruppe" v="infrastruktur" />
		<tag k="ssr:stedsnr" v="533746" />
		<tag k="ssr:type" v="vegstrekning" />
	</node>
	<node id="-259979" lat="59.2148138848" lon="8.0033916682">
		<tag k="old_name" v="Votnevegen" />
		<tag k="ssr:date" v="2016-05-10" />
		<tag k="ssr:gruppe" v="veg" />
		<tag k="ssr:hovedgruppe" v="infrastruktur" />
		<tag k="ssr:stedsnr" v="216913" />
		<tag k="ssr:type" v="vegstrekning" />
	</node>
	<node id="-260410" lat="59.2971000005" lon="8.16708611031">
		<tag k="old_name" v="Roanvegen" />
		<tag k="ssr:date" v="2016-05-10" />
		<tag k="ssr:gruppe" v="veg" />
		<tag k="ssr:hovedgruppe" v="infrastruktur" />
		<tag k="ssr:stedsnr" v="472314" />
		<tag k="ssr:type" v="vegstrekning" />
	</node>
</osm>
