<?xml version="1.0" encoding="UTF-8"?>
<osm generator="osmapis" version="0.6">
	<node id="-451584" lat="60.2798389478" lon="6.36018649539">
		<tag k="name" v="Lauvbrufossen" />
		<tag k="natural" v="waterfall" />
		<tag k="ssr:stedsnr" v="584863" />
	</node>
	<node id="-451072" lat="60.3150861082" lon="6.39250833792">
		<tag k="name" v="Orrebekken" />
		<tag k="ssr:stedsnr" v="66047" />
		<tag k="waterway" v="stream" />
	</node>
	<node id="-451580" lat="60.2005855401" lon="6.1035486962">
		<tag k="name" v="Heimdalsviki" />
		<tag k="natural" v="bay" />
		<tag k="ssr:stedsnr" v="584841" />
	</node>
	<node id="-451577" lat="60.2630388898" lon="6.27954722577">
		<tag k="name" v="Pappiholena" />
		<tag k="place" v="locality" />
		<tag k="ssr:stedsnr" v="584738" />
	</node>
	<node id="-451064" lat="60.231371827" lon="6.31784607692">
		<tag k="name" v="Freddalsvatnet" />
		<tag k="natural" v="water" />
		<tag k="ssr:stedsnr" v="65808" />
	</node>
	<node id="-451156" lat="60.2514083376" lon="6.29138333854">
		<tag k="name" v="Tverrbrekka" />
		<tag k="natural" v="strait" />
		<tag k="ssr:stedsnr" v="126398" />
	</node>
	<node id="-451062" lat="60.1473137324" lon="6.18682991244">
		<tag k="name" v="Årsandsvatnet" />
		<tag k="natural" v="water" />
		<tag k="ssr:stedsnr" v="65583" />
	</node>
	<node id="-451572" lat="60.2046648228" lon="6.11023213409">
		<tag k="name" v="Osen" />
		<tag k="natural" v="bay" />
		<tag k="ssr:stedsnr" v="584674" />
	</node>
	<node id="-451567" lat="60.1947333335" lon="6.09071388886">
		<tag k="name" v="Mjelkeviki" />
		<tag k="natural" v="bay" />
		<tag k="ssr:stedsnr" v="584647" />
	</node>
	<node id="-451050" lat="60.3320250012" lon="6.49461389774">
		<tag k="name" v="Lonena" />
		<tag k="natural" v="water" />
		<tag k="ssr:stedsnr" v="38879" />
		<tag k="water" v="lake" />
	</node>
	<node id="-451318" lat="60.3231138911" lon="6.42815277447">
		<tag k="alt_name" v="Fonnastølsvatnet" />
		<tag k="name" v="Fodnasetvatnet" />
		<tag k="natural" v="water" />
		<tag k="ssr:stedsnr" v="248002" />
	</node>
	<node id="-451550" lat="60.1479416689" lon="6.15328055396">
		<tag k="name" v="Skotelva" />
		<tag k="ssr:stedsnr" v="584465" />
		<tag k="waterway" v="river" />
	</node>
	<node id="-451546" lat="60.1724916659" lon="6.12382500053">
		<tag k="name" v="Olderlibekken" />
		<tag k="ssr:stedsnr" v="584439" />
		<tag k="waterway" v="stream" />
	</node>
	<node id="-451542" lat="60.3222919431" lon="6.50196526024">
		<tag k="name" v="Kjeaneset" />
		<tag k="natural" v="cape" />
		<tag k="ssr:stedsnr" v="584080" />
	</node>
	<node id="-451522" lat="60.2596981569" lon="6.34894326327">
		<tag k="name" v="Skardtjørni" />
		<tag k="natural" v="water" />
		<tag k="ssr:stedsnr" v="551368" />
	</node>
	<node id="-451540" lat="60.3412304546" lon="6.37722098494">
		<tag k="name" v="Sendingsneset" />
		<tag k="natural" v="cape" />
		<tag k="ssr:stedsnr" v="584051" />
	</node>
	<node id="-451538" lat="60.3519075809" lon="6.35453338625">
		<tag k="name" v="Killingvikneset" />
		<tag k="natural" v="cape" />
		<tag k="ssr:stedsnr" v="583606" />
	</node>
	<node id="-450979" lat="60.2521270463" lon="6.41328640741">
		<tag k="name" v="Heimstetjørni" />
		<tag k="natural" v="water" />
		<tag k="ssr:stedsnr" v="5375" />
	</node>
	<node id="-450808" lat="60.2140444439" lon="6.11066388427">
		<tag k="name" v="Kysnesstrondi" />
		<tag k="natural" v="beach" />
		<tag k="ssr:stedsnr" v="342583" />
	</node>
	<node id="-451532" lat="60.1949912131" lon="6.1478506206">
		<tag k="alt_name" v="Raunlivatnet, stora" />
		<tag k="name" v="Stora Raunlivatnet" />
		<tag k="natural" v="water" />
		<tag k="ssr:stedsnr" v="551552" />
	</node>
	<node id="-451528" lat="60.281122219" lon="6.2787611099">
		<tag k="name" v="Jondalsholmane" />
		<tag k="place" v="islet" />
		<tag k="ssr:stedsnr" v="551466" />
	</node>
	<node id="-451523" lat="60.2541821808" lon="6.28694957389">
		<tag k="name" v="Lomtjørni" />
		<tag k="natural" v="water" />
		<tag k="ssr:stedsnr" v="551367" />
	</node>
	<node id="-451010" lat="60.2482280071" lon="6.41659143543">
		<tag k="name" v="Ytstetjørn" />
		<tag k="natural" v="water" />
		<tag k="ssr:stedsnr" v="38064" />
	</node>
	<node id="-451001" lat="60.1983833319" lon="6.23091388027">
		<tag k="name" v="Demmevatnet" />
		<tag k="natural" v="water" />
		<tag k="ssr:stedsnr" v="5817" />
	</node>
	<node id="-451512" lat="60.2324951707" lon="6.47100824086">
		<tag k="name" v="Jukladalsvatnet" />
		<tag k="natural" v="water" />
		<tag k="ssr:stedsnr" v="550821" />
	</node>
	<node id="-451511" lat="60.2447942307" lon="6.35105121125">
		<tag k="name" v="Langavatnet" />
		<tag k="natural" v="water" />
		<tag k="ssr:stedsnr" v="550797" />
	</node>
	<node id="-451510" lat="60.2465022917" lon="6.43454772506">
		<tag k="name" v="Dravladalsvatnet" />
		<tag k="natural" v="water" />
		<tag k="ssr:stedsnr" v="550791" />
		<tag k="water" v="lake" />
	</node>
	<node id="-451508" lat="60.2372876052" lon="6.25244468268">
		<tag k="alt_name" v="Torsnesvatn" />
		<tag k="name" v="Torsnesvatnet" />
		<tag k="natural" v="water" />
		<tag k="ssr:stedsnr" v="550783" />
		<tag k="water" v="lake" />
	</node>
	<node id="-451506" lat="60.1661868473" lon="6.18702364805">
		<tag k="name" v="Stutafjellsvatna" />
		<tag k="natural" v="water" />
		<tag k="ssr:stedsnr" v="550562" />
	</node>
	<node id="-450991" lat="60.1828918385" lon="6.15718067909">
		<tag k="name" v="Lambavatnet" />
		<tag k="natural" v="water" />
		<tag k="ssr:stedsnr" v="5530" />
	</node>
	<node id="-450990" lat="60.1870702999" lon="6.17076228255">
		<tag k="name" v="Ljosavatnet" />
		<tag k="natural" v="water" />
		<tag k="ssr:stedsnr" v="5529" />
	</node>
	<node id="-450989" lat="60.1914579642" lon="6.17739867407">
		<tag k="name" v="Langavatnet" />
		<tag k="natural" v="water" />
		<tag k="ssr:stedsnr" v="5521" />
	</node>
	<node id="-452007" lat="60.2822750022" lon="6.27382222096">
		<tag k="name" v="Vikeholmane" />
		<tag k="place" v="islet" />
		<tag k="ssr:stedsnr" v="949653" />
	</node>
	<node id="-451491" lat="60.2607972262" lon="6.23169166616">
		<tag k="name" v="Sellabukti" />
		<tag k="natural" v="bay" />
		<tag k="ssr:stedsnr" v="524687" />
	</node>
	<node id="-450976" lat="60.2608435044" lon="6.26865689576">
		<tag k="name" v="Kroktjørni" />
		<tag k="natural" v="water" />
		<tag k="ssr:stedsnr" v="5366" />
	</node>
	<node id="-450973" lat="60.3133027823" lon="6.42068333702">
		<tag k="name" v="Vasslibekken" />
		<tag k="ssr:stedsnr" v="5036" />
		<tag k="waterway" v="stream" />
	</node>
	<node id="-450970" lat="60.3166472248" lon="6.32989166878">
		<tag k="alt_name" v="Manavikelvi" />
		<tag k="name" v="Monavikelvi" />
		<tag k="ssr:stedsnr" v="5008" />
		<tag k="waterway" v="stream" />
	</node>
	<node id="-450964" lat="60.1751786955" lon="6.15671139511">
		<tag k="name" v="Småbotna" />
		<tag k="natural" v="water" />
		<tag k="ssr:stedsnr" v="4586" />
	</node>
	<node id="-450963" lat="60.1768583301" lon="6.12685833894">
		<tag k="name" v="Årvikeelva" />
		<tag k="ssr:stedsnr" v="4582" />
		<tag k="waterway" v="stream" />
	</node>
	<node id="-450960" lat="60.1468301232" lon="6.20222241787">
		<tag k="name" v="Måvatnet" />
		<tag k="natural" v="water" />
		<tag k="ssr:stedsnr" v="126590" />
	</node>
	<node id="-451470" lat="60.2762527816" lon="6.37377499217">
		<tag k="name" v="Geitelvi" />
		<tag k="ssr:stedsnr" v="523609" />
		<tag k="waterway" v="river" />
	</node>
	<node id="-451467" lat="60.2832722247" lon="6.32052777479">
		<tag k="name" v="Svabekken" />
		<tag k="ssr:stedsnr" v="523580" />
		<tag k="waterway" v="stream" />
	</node>
	<node id="-451466" lat="60.2309040009" lon="6.31947839565">
		<tag k="name" v="Lomholmen" />
		<tag k="place" v="islet" />
		<tag k="ssr:stedsnr" v="523577" />
	</node>
	<node id="-450953" lat="60.2040902957" lon="6.34952003132">
		<tag k="name" v="Juklavatnet hovuddam" />
		<tag k="ssr:stedsnr" v="983732" />
		<tag k="waterway" v="dam" />
	</node>
	<node id="-451905" lat="60.336461108" lon="6.48971111187">
		<tag k="name" v="Botnaåni" />
		<tag k="ssr:stedsnr" v="855020" />
		<tag k="waterway" v="stream" />
	</node>
	<node id="-451458" lat="60.135951044" lon="6.18740329166">
		<tag k="name" v="Pyttatjørna" />
		<tag k="natural" v="water" />
		<tag k="ssr:stedsnr" v="523188" />
	</node>
	<node id="-451456" lat="60.3433022379" lon="6.45441551045">
		<tag k="name" v="Bikkja" />
		<tag k="natural" v="cape" />
		<tag k="ssr:stedsnr" v="523113" />
	</node>
	<node id="-451453" lat="60.3434555571" lon="6.37457222018">
		<tag k="name" v="Neset" />
		<tag k="natural" v="cape" />
		<tag k="ssr:stedsnr" v="523069" />
	</node>
	<node id="-451963" lat="60.2520625173" lon="6.3478685403">
		<tag k="name" v="Mjølkeneset" />
		<tag k="natural" v="cape" />
		<tag k="ssr:stedsnr" v="947780" />
	</node>
	<node id="-451448" lat="60.2662555584" lon="6.29042777549">
		<tag k="name" v="Stølsdalselvi" />
		<tag k="ssr:stedsnr" v="491522" />
		<tag k="waterway" v="river" />
	</node>
	<node id="-451446" lat="60.2632916637" lon="6.39406389694">
		<tag k="name" v="Flatabøelvi" />
		<tag k="ssr:stedsnr" v="491486" />
		<tag k="waterway" v="stream" />
	</node>
	<node id="-451957" lat="60.2916419181" lon="6.38871465854">
		<tag k="name" v="Dammatjørni" />
		<tag k="natural" v="water" />
		<tag k="ssr:stedsnr" v="916471" />
	</node>
	<node id="-450929" lat="60.2191138867" lon="6.18071389169">
		<tag k="name" v="Uravik-klubben" />
		<tag k="natural" v="cape" />
		<tag k="ssr:stedsnr" v="888646" />
	</node>
	<node id="-451950" lat="60.3117017585" lon="6.46451173652">
		<tag k="name" v="Ljosevatnet" />
		<tag k="natural" v="water" />
		<tag k="ssr:stedsnr" v="916040" />
	</node>
	<node id="-451437" lat="60.2278574187" lon="6.34915673263">
		<tag k="name" v="Mysevatnet" />
		<tag k="natural" v="water" />
		<tag k="ssr:stedsnr" v="490805" />
	</node>
	<node id="-451436" lat="60.2368978367" lon="6.30809849777">
		<tag k="name" v="Nipevatnet" />
		<tag k="natural" v="water" />
		<tag k="ssr:stedsnr" v="490804" />
	</node>
	<node id="-451947" lat="60.1273032502" lon="6.19658057607">
		<tag k="name" v="Hammarsvatnet" />
		<tag k="natural" v="water" />
		<tag k="ssr:stedsnr" v="915874" />
	</node>
	<node id="-451946" lat="60.1891228703" lon="6.21908716293">
		<tag k="alt_name" v="Solbjørgsvatnet, store;Solbjørgsvatnet, stora" />
		<tag k="name" v="Stora Solbjørgsvatnet" />
		<tag k="natural" v="water" />
		<tag k="ssr:stedsnr" v="915843" />
		<tag k="water" v="lake" />
	</node>
	<node id="-451433" lat="60.2168666686" lon="6.20070000643">
		<tag k="name" v="Storbekken" />
		<tag k="ssr:stedsnr" v="490517" />
		<tag k="waterway" v="stream" />
	</node>
	<node id="-451943" lat="60.2128759815" lon="6.37194460327">
		<tag k="name" v="Juklavatnet" />
		<tag k="natural" v="water" />
		<tag k="ssr:stedsnr" v="915827" />
		<tag k="water" v="lake" />
	</node>
	<node id="-451941" lat="60.2314305548" lon="6.23031110609">
		<tag k="name" v="Maristeinbekken" />
		<tag k="ssr:stedsnr" v="915792" />
		<tag k="waterway" v="stream" />
	</node>
	<node id="-451428" lat="60.1793460111" lon="6.13918130574">
		<tag k="name" v="Skitnatjørna" />
		<tag k="natural" v="water" />
		<tag k="ssr:stedsnr" v="489614" />
	</node>
	<node id="-450912" lat="60.2416404274" lon="6.32189306477">
		<tag k="name" v="Nottatjørn" />
		<tag k="natural" v="water" />
		<tag k="ssr:stedsnr" v="888528" />
	</node>
	<node id="-451934" lat="60.2003428387" lon="6.14003133062">
		<tag k="name" v="Demmevatnet" />
		<tag k="natural" v="water" />
		<tag k="ssr:stedsnr" v="915533" />
	</node>
	<node id="-451927" lat="60.2574689042" lon="6.32544494582">
		<tag k="name" v="Espelandsgrytingsvatnet" />
		<tag k="natural" v="water" />
		<tag k="ssr:stedsnr" v="915358" />
	</node>
	<node id="-451925" lat="60.3144699882" lon="6.38213557226">
		<tag k="alt_name" v="Langhaugtjørni" />
		<tag k="name" v="Langhaugstjørni" />
		<tag k="natural" v="water" />
		<tag k="ssr:stedsnr" v="915042" />
	</node>
	<node id="-451214" lat="60.1939777795" lon="6.09005554779">
		<tag k="name" v="Kuneset" />
		<tag k="natural" v="cape" />
		<tag k="ssr:stedsnr" v="160568" />
	</node>
	<node id="-451922" lat="60.3249749994" lon="6.47787778522">
		<tag k="name" v="Djupadalsneset" />
		<tag k="natural" v="cape" />
		<tag k="ssr:stedsnr" v="915001" />
	</node>
	<node id="-451296" lat="60.2030207567" lon="6.10790338585">
		<tag k="name" v="Nautaneset" />
		<tag k="natural" v="cape" />
		<tag k="ssr:stedsnr" v="220694" />
	</node>
	<node id="-451408" lat="60.234747219" lon="6.19201666003">
		<tag k="name" v="Ytrestø" />
		<tag k="natural" v="beach" />
		<tag k="ssr:stedsnr" v="463646" />
	</node>
	<node id="-451919" lat="60.2797747085" lon="6.25770213614">
		<tag k="name" v="Jondalselvi" />
		<tag k="ssr:stedsnr" v="855464" />
		<tag k="waterway" v="river" />
	</node>
	<node id="-451914" lat="60.2670216647" lon="6.39329904708">
		<tag k="name" v="Vassdalsvatnet" />
		<tag k="natural" v="water" />
		<tag k="ssr:stedsnr" v="855380" />
		<tag k="water" v="lake" />
	</node>
	<node id="-451401" lat="60.3052344769" lon="6.37411124367">
		<tag k="name" v="Kvitaneset" />
		<tag k="natural" v="cape" />
		<tag k="ssr:stedsnr" v="463560" />
	</node>
	<node id="-451894" lat="60.1696583367" lon="6.15240833741">
		<tag k="name" v="Øvstavatnet" />
		<tag k="natural" v="water" />
		<tag k="ssr:stedsnr" v="854554" />
	</node>
	<node id="-451393" lat="60.228412465" lon="6.32846279904">
		<tag k="name" v="Veslefreidalselvi" />
		<tag k="ssr:stedsnr" v="463478" />
		<tag k="waterway" v="river" />
	</node>
	<node id="-451904" lat="60.3277584256" lon="6.45609241798">
		<tag k="alt_name" v="Magnetjørni" />
		<tag k="name" v="Magnehølen" />
		<tag k="natural" v="water" />
		<tag k="ssr:stedsnr" v="855007" />
	</node>
	<node id="-450879" lat="60.2805773263" lon="6.26424970108">
		<tag k="name" v="Haugafossen" />
		<tag k="natural" v="waterfall" />
		<tag k="ssr:stedsnr" v="402736" />
	</node>
	<node id="-451901" lat="60.2353444444" lon="6.27554999565">
		<tag k="name" v="Kvitelva" />
		<tag k="ssr:stedsnr" v="854800" />
		<tag k="waterway" v="stream" />
	</node>
	<node id="-451388" lat="60.1788416676" lon="6.15733055239">
		<tag k="name" v="Småbotnabekken" />
		<tag k="ssr:stedsnr" v="463393" />
		<tag k="waterway" v="stream" />
	</node>
	<node id="-451387" lat="60.3427982657" lon="6.37534396995">
		<tag k="name" v="Høyneset" />
		<tag k="natural" v="cape" />
		<tag k="ssr:stedsnr" v="463042" />
	</node>
	<node id="-451897" lat="60.1462499967" lon="6.13551389264">
		<tag k="name" v="Leirvikeelva" />
		<tag k="ssr:stedsnr" v="854582" />
		<tag k="waterway" v="stream" />
	</node>
	<node id="-451896" lat="60.1724401864" lon="6.17278795817">
		<tag k="name" v="Movatnet" />
		<tag k="natural" v="water" />
		<tag k="ssr:stedsnr" v="854576" />
	</node>
	<node id="-451383" lat="60.1349638849" lon="6.17536388854">
		<tag k="name" v="Hessvikelva" />
		<tag k="ssr:stedsnr" v="462150" />
		<tag k="waterway" v="stream" />
	</node>
	<node id="-451382" lat="60.3175855637" lon="6.41828417041">
		<tag k="name" v="Vatnasetvatnet" />
		<tag k="natural" v="water" />
		<tag k="ssr:stedsnr" v="431596" />
		<tag k="water" v="lake" />
	</node>
	<node id="-451381" lat="60.3459409514" lon="6.38071422557">
		<tag k="name" v="Storelvi" />
		<tag k="ssr:stedsnr" v="431595" />
		<tag k="waterway" v="river" />
	</node>
	<node id="-451380" lat="60.2571771281" lon="6.33321028265">
		<tag k="name" v="Svartavatnet" />
		<tag k="natural" v="water" />
		<tag k="ssr:stedsnr" v="431592" />
	</node>
	<node id="-451891" lat="60.2414888876" lon="6.19981666945">
		<tag k="name" v="Plommevika" />
		<tag k="natural" v="bay" />
		<tag k="old_name" v="Plommevikane" />
		<tag k="ssr:stedsnr" v="845749" />
	</node>
	<node id="-451379" lat="60.2658004987" lon="6.40266347066">
		<tag k="name" v="Sprengsbekken" />
		<tag k="ssr:stedsnr" v="431413" />
		<tag k="waterway" v="stream" />
	</node>
	<node id="-451346" lat="60.1630222097" lon="6.17518468296">
		<tag k="name" v="Tjørnaskardtjørna" />
		<tag k="natural" v="water" />
		<tag k="ssr:stedsnr" v="429551" />
	</node>
	<node id="-451370" lat="60.2073661211" lon="6.20562485815">
		<tag k="alt_name" v="Elleveskardtjørna" />
		<tag k="name" v="Elleveskarstjørni" />
		<tag k="natural" v="water" />
		<tag k="ssr:stedsnr" v="430494" />
	</node>
	<node id="-451207" lat="60.2800916653" lon="6.25885000329">
		<tag k="name" v="Fjøringen" />
		<tag k="natural" v="beach" />
		<tag k="ssr:stedsnr" v="159745" />
	</node>
	<node id="-451772" lat="60.2690333348" lon="6.45149999135">
		<tag k="name" v="Langedalstjørni" />
		<tag k="natural" v="water" />
		<tag k="ssr:stedsnr" v="734424" />
	</node>
	<node id="-450865" lat="60.2545583321" lon="6.32527777193">
		<tag k="name" v="Fossane" />
		<tag k="ssr:stedsnr" v="402581" />
		<tag k="waterway" v="rapids" />
	</node>
	<node id="-451364" lat="60.3444792821" lon="6.4526096562">
		<tag k="alt_name" v="Vatnasetevatnet" />
		<tag k="name" v="Vatnasetvatnet" />
		<tag k="natural" v="water" />
		<tag k="ssr:stedsnr" v="430097" />
		<tag k="water" v="lake" />
	</node>
	<node id="-451870" lat="60.3087694429" lon="6.29798610503">
		<tag k="name" v="Tverrbekken" />
		<tag k="ssr:stedsnr" v="827626" />
		<tag k="waterway" v="stream" />
	</node>
	<node id="-451355" lat="60.3310166657" lon="6.41421388385">
		<tag k="name" v="Åsvadet" />
		<tag k="place" v="locality" />
		<tag k="ssr:stedsnr" v="430009" />
	</node>
	<node id="-451354" lat="60.3224031503" lon="6.49375419465">
		<tag k="name" v="Vierosen" />
		<tag k="natural" v="bay" />
		<tag k="ssr:stedsnr" v="430007" />
	</node>
	<node id="-451351" lat="60.2407416671" lon="6.27815277011">
		<tag k="name" v="Røyrlibekken" />
		<tag k="ssr:stedsnr" v="429788" />
		<tag k="waterway" v="stream" />
	</node>
	<node id="-450837" lat="60.1863912821" lon="6.19550742697">
		<tag k="name" v="Krokavatnet" />
		<tag k="natural" v="water" />
		<tag k="ssr:stedsnr" v="369483" />
	</node>
	<node id="-451860" lat="60.1358277797" lon="6.18039167109">
		<tag k="name" v="Pyttafossen" />
		<tag k="natural" v="waterfall" />
		<tag k="ssr:stedsnr" v="827408" />
	</node>
	<node id="-451859" lat="60.323518155" lon="6.42170980423">
		<tag k="name" v="Fonnastølsfossen" />
		<tag k="natural" v="waterfall" />
		<tag k="ssr:stedsnr" v="827078" />
	</node>
	<node id="-450834" lat="60.2806472247" lon="6.39903332735">
		<tag k="name" v="Brattabøelvi" />
		<tag k="ssr:stedsnr" v="369412" />
		<tag k="waterway" v="stream" />
	</node>
	<node id="-450833" lat="60.2881529904" lon="6.30945637037">
		<tag k="name" v="Espelandsvatnet" />
		<tag k="natural" v="water" />
		<tag k="ssr:stedsnr" v="369389" />
		<tag k="water" v="lake" />
	</node>
	<node id="-451856" lat="60.2266386542" lon="6.36630790927">
		<tag k="name" v="Mosadalstjørni" />
		<tag k="natural" v="water" />
		<tag k="ssr:stedsnr" v="794816" />
	</node>
	<node id="-451853" lat="60.1974606332" lon="6.14564708973">
		<tag k="alt_name" v="Raunlivatnet, vesla" />
		<tag k="name" v="Vetla Raunlivatnet" />
		<tag k="natural" v="water" />
		<tag k="ssr:stedsnr" v="794554" />
	</node>
	<node id="-451339" lat="60.1991150212" lon="6.14559130884">
		<tag k="name" v="Lomavatnet" />
		<tag k="natural" v="water" />
		<tag k="ssr:stedsnr" v="248558" />
	</node>
	<node id="-451849" lat="60.2660138923" lon="6.28122500323">
		<tag k="name" v="Fletebekken" />
		<tag k="ssr:stedsnr" v="794470" />
		<tag k="waterway" v="stream" />
	</node>
	<node id="-451334" lat="60.2531472462" lon="6.3441745998">
		<tag k="name" v="Grytingsvatnet" />
		<tag k="natural" v="water" />
		<tag k="ssr:stedsnr" v="248376" />
		<tag k="water" v="lake" />
	</node>
	<node id="-450821" lat="60.1697638919" lon="6.12695555767">
		<tag k="name" v="Kvisla" />
		<tag k="ssr:stedsnr" v="368620" />
		<tag k="waterway" v="stream" />
	</node>
	<node id="-451843" lat="60.2897004353" lon="6.2679506806">
		<tag k="name" v="Lomtjørni" />
		<tag k="natural" v="water" />
		<tag k="ssr:stedsnr" v="794424" />
	</node>
	<node id="-451320" lat="60.3259424354" lon="6.46878892775">
		<tag k="alt_name" v="Vidalsvatnet" />
		<tag k="name" v="Viddalsvatnet" />
		<tag k="natural" v="water" />
		<tag k="ssr:stedsnr" v="248006" />
		<tag k="water" v="lake" />
	</node>
	<node id="-451319" lat="60.3201354147" lon="6.44798629106">
		<tag k="name" v="Tjørnadalstjørn" />
		<tag k="natural" v="water" />
		<tag k="ssr:stedsnr" v="248007" />
	</node>
	<node id="-451830" lat="60.3060381421" lon="6.37882617277">
		<tag k="name" v="Vedaneset" />
		<tag k="natural" v="cape" />
		<tag k="ssr:stedsnr" v="794031" />
	</node>
	<node id="-451317" lat="60.2293861105" lon="6.22094999478">
		<tag k="name" v="Halvgjengesbekkene" />
		<tag k="ssr:stedsnr" v="247793" />
		<tag k="waterway" v="stream" />
	</node>
	<node id="-451316" lat="60.2389030193" lon="6.23434983138">
		<tag k="name" v="Vassvikane" />
		<tag k="natural" v="bay" />
		<tag k="ssr:stedsnr" v="247781" />
	</node>
	<node id="-451315" lat="60.2370138886" lon="6.2038944361">
		<tag k="name" v="Torsneselva" />
		<tag k="ssr:stedsnr" v="247721" />
		<tag k="waterway" v="stream" />
	</node>
	<node id="-451826" lat="60.1368187828" lon="6.19146785432">
		<tag k="name" v="Dukavatnet" />
		<tag k="natural" v="water" />
		<tag k="ssr:stedsnr" v="793893" />
	</node>
	<node id="-451825" lat="60.2476944449" lon="6.42210833633">
		<tag k="name" v="Dravladalsfossen" />
		<tag k="natural" v="waterfall" />
		<tag k="ssr:stedsnr" v="793807" />
	</node>
	<node id="-451824" lat="60.2406000024" lon="6.37711389297">
		<tag k="name" v="Svartavatnet" />
		<tag k="natural" v="water" />
		<tag k="ssr:stedsnr" v="793803" />
	</node>
	<node id="-451303" lat="60.2621583377" lon="6.23274445171">
		<tag k="name" v="Hauganeset" />
		<tag k="natural" v="cape" />
		<tag k="ssr:stedsnr" v="220790" />
	</node>
	<node id="-451810" lat="60.2587305523" lon="6.22638888295">
		<tag k="name" v="Skoraneset" />
		<tag k="natural" v="cape" />
		<tag k="ssr:stedsnr" v="766757" />
	</node>
	<node id="-451297" lat="60.2192999983" lon="6.14980833986">
		<tag k="name" v="Blokkebærvika" />
		<tag k="natural" v="bay" />
		<tag k="ssr:stedsnr" v="220715" />
	</node>
	<node id="-451808" lat="60.242461112" lon="6.20885000771">
		<tag k="name" v="Hjellastigfossen" />
		<tag k="natural" v="waterfall" />
		<tag k="ssr:stedsnr" v="766732" />
	</node>
	<node id="-451280" lat="60.3632027781" lon="6.41759166029">
		<tag k="name" v="Storåselvi" />
		<tag k="ssr:stedsnr" v="220111" />
		<tag k="waterway" v="river" />
	</node>
	<node id="-450782" lat="60.1454699643" lon="6.19396727128">
		<tag k="name" v="Beinahaugvika" />
		<tag k="natural" v="bay" />
		<tag k="ssr:stedsnr" v="341415" />
	</node>
	<node id="-451805" lat="60.2391833297" lon="6.23659445374">
		<tag k="name" v="Lomaholmen" />
		<tag k="place" v="islet" />
		<tag k="ssr:stedsnr" v="766713" />
	</node>
	<node id="-451292" lat="60.2640861081" lon="6.39507777755">
		<tag k="name" v="Osane" />
		<tag k="natural" v="bay" />
		<tag k="ssr:stedsnr" v="220595" />
	</node>
	<node id="-451288" lat="60.2945694484" lon="6.35416944702">
		<tag k="name" v="Bjørneforfossen" />
		<tag k="natural" v="waterfall" />
		<tag k="ssr:stedsnr" v="220646" />
	</node>
	<node id="-451799" lat="60.3591196571" lon="6.39068797561">
		<tag k="name" v="Samlatjørn" />
		<tag k="natural" v="water" />
		<tag k="ssr:stedsnr" v="766633" />
	</node>
	<node id="-450766" lat="60.140799997" lon="6.15238333158">
		<tag k="name" v="Fosselva" />
		<tag k="ssr:stedsnr" v="308889" />
		<tag k="waterway" v="stream" />
	</node>
	<node id="-450770" lat="60.3060805523" lon="6.38679999198">
		<tag k="name" v="Åreibekken" />
		<tag k="ssr:stedsnr" v="309033" />
		<tag k="waterway" v="stream" />
	</node>
	<node id="-451793" lat="60.3009022457" lon="6.38231106397">
		<tag k="name" v="Gullbekk" />
		<tag k="ssr:stedsnr" v="766589" />
		<tag k="waterway" v="stream" />
	</node>
	<node id="-451792" lat="60.3007340531" lon="6.37722664818">
		<tag k="name" v="Håselineset" />
		<tag k="natural" v="cape" />
		<tag k="ssr:stedsnr" v="766587" />
	</node>
	<node id="-451790" lat="60.3246749986" lon="6.38900833183">
		<tag k="name" v="Reishellarbekken" />
		<tag k="ssr:stedsnr" v="766573" />
		<tag k="waterway" v="stream" />
	</node>
	<node id="-451276" lat="60.3386005636" lon="6.34650916375">
		<tag k="name" v="Laholmen" />
		<tag k="place" v="islet" />
		<tag k="ssr:stedsnr" v="220082" />
	</node>
	<node id="-451787" lat="60.3688944463" lon="6.44155000839">
		<tag k="name" v="Bjotveitelvi" />
		<tag k="ssr:stedsnr" v="766074" />
		<tag k="waterway" v="stream" />
	</node>
	<node id="-451786" lat="60.32511667" lon="6.41578610413">
		<tag k="name" v="Sotbekk" />
		<tag k="ssr:stedsnr" v="766061" />
		<tag k="waterway" v="stream" />
	</node>
	<node id="-450758" lat="60.2356500006" lon="6.22733611638">
		<tag k="name" v="Veslavatnet" />
		<tag k="natural" v="water" />
		<tag k="ssr:stedsnr" v="308784" />
	</node>
	<node id="-450757" lat="60.2378333354" lon="6.23479444814">
		<tag k="name" v="Vassneset" />
		<tag k="natural" v="cape" />
		<tag k="ssr:stedsnr" v="308783" />
	</node>
	<node id="-451268" lat="60.3423138434" lon="6.4415635979">
		<tag k="alt_name" v="Grimevatn" />
		<tag k="name" v="Grimevatnet" />
		<tag k="natural" v="water" />
		<tag k="ssr:stedsnr" v="188130" />
	</node>
	<node id="-451775" lat="60.2799611098" lon="6.32561943824">
		<tag k="name" v="Byrkjesetbekken" />
		<tag k="ssr:stedsnr" v="734523" />
		<tag k="waterway" v="stream" />
	</node>
	<node id="-451262" lat="60.2008151914" lon="6.26160533812">
		<tag k="name" v="Kufjellsvatnet" />
		<tag k="natural" v="water" />
		<tag k="ssr:stedsnr" v="187821" />
	</node>
	<node id="-451773" lat="60.3001359131" lon="6.36735264281">
		<tag k="name" v="Grønaviki" />
		<tag k="natural" v="bay" />
		<tag k="ssr:stedsnr" v="734483" />
	</node>
	<node id="-451260" lat="60.1971916657" lon="6.2089777713">
		<tag k="alt_name" v="Solbjørgsvatnet, vesla;Vesla Solbjørgsvatn" />
		<tag k="name" v="Vetla Solbjørgsvatnet" />
		<tag k="natural" v="water" />
		<tag k="ssr:stedsnr" v="187507" />
		<tag k="water" v="lake" />
	</node>
	<node id="-451768" lat="60.3386555549" lon="6.4171055528">
		<tag k="name" v="Drivfoss" />
		<tag k="natural" v="waterfall" />
		<tag k="ssr:stedsnr" v="734097" />
	</node>
	<node id="-451766" lat="60.3020545059" lon="6.3734223987">
		<tag k="name" v="Vassendvatnet" />
		<tag k="natural" v="water" />
		<tag k="ssr:stedsnr" v="734035" />
		<tag k="water" v="lake" />
	</node>
	<node id="-451765" lat="60.1247884992" lon="6.19244601979">
		<tag k="name" v="Moltetjørna" />
		<tag k="natural" v="water" />
		<tag k="ssr:stedsnr" v="733894" />
	</node>
	<node id="-451764" lat="60.1403583301" lon="6.18818333264">
		<tag k="name" v="Dukelva" />
		<tag k="ssr:stedsnr" v="733881" />
		<tag k="waterway" v="stream" />
	</node>
	<node id="-450846" lat="60.2258938943" lon="6.32847991001">
		<tag k="name" v="Kvanndalsvatnet" />
		<tag k="natural" v="water" />
		<tag k="ssr:stedsnr" v="369804" />
	</node>
	<node id="-450738" lat="60.3302388849" lon="6.4803749951">
		<tag k="name" v="Holmane" />
		<tag k="place" v="islet" />
		<tag k="ssr:stedsnr" v="281908" />
	</node>
	<node id="-451761" lat="60.2384499982" lon="6.24972499223">
		<tag k="name" v="Halvroddsneset" />
		<tag k="natural" v="cape" />
		<tag k="ssr:stedsnr" v="733762" />
	</node>
	<node id="-451247" lat="60.2532970435" lon="6.33629439723">
		<tag k="name" v="Småosane" />
		<tag k="natural" v="water" />
		<tag k="ssr:stedsnr" v="187359" />
	</node>
	<node id="-451758" lat="60.147750001" lon="6.15378332776">
		<tag k="name" v="Årsandselva" />
		<tag k="ssr:stedsnr" v="733562" />
		<tag k="waterway" v="stream" />
	</node>
	<node id="-451753" lat="60.2539805096" lon="6.34193966047">
		<tag k="name" v="Bruraholmen" />
		<tag k="place" v="islet" />
		<tag k="ssr:stedsnr" v="733366" />
	</node>
	<node id="-451240" lat="60.3289697607" lon="6.49263207808">
		<tag k="alt_name" v="Tostølhøljane" />
		<tag k="name" v="Tostølshøljane" />
		<tag k="natural" v="water" />
		<tag k="ssr:stedsnr" v="187017" />
	</node>
	<node id="-451239" lat="60.1852923269" lon="6.22712340147">
		<tag k="name" v="Kjersvatnet" />
		<tag k="natural" v="water" />
		<tag k="ssr:stedsnr" v="186858" />
	</node>
	<node id="-451750" lat="60.3188000014" lon="6.49054166499">
		<tag k="name" v="Bjørndøla" />
		<tag k="ssr:stedsnr" v="733063" />
		<tag k="waterway" v="stream" />
	</node>
	<node id="-451749" lat="60.3379527635" lon="6.45855937565">
		<tag k="name" v="Iglatjørni" />
		<tag k="natural" v="water" />
		<tag k="ssr:stedsnr" v="733033" />
	</node>
	<node id="-450954" lat="60.2490091146" lon="6.42528035954">
		<tag k="name" v="Dravladalsvatnet hovuddam" />
		<tag k="ssr:stedsnr" v="983733" />
		<tag k="waterway" v="dam" />
	</node>
	<node id="-450718" lat="60.2124583361" lon="6.10997221622">
		<tag k="name" v="Vetle Grotnes" />
		<tag k="natural" v="cape" />
		<tag k="ssr:stedsnr" v="281680" />
	</node>
	<node id="-450712" lat="60.288565633" lon="6.30527879075">
		<tag k="name" v="Djupavik" />
		<tag k="natural" v="bay" />
		<tag k="ssr:stedsnr" v="281622" />
	</node>
	<node id="-450711" lat="60.2865054383" lon="6.29896448424">
		<tag k="name" v="Eidesfossen" />
		<tag k="natural" v="waterfall" />
		<tag k="ssr:stedsnr" v="281624" />
	</node>
	<node id="-450710" lat="60.2959722187" lon="6.34396945113">
		<tag k="name" v="Djupadalsbekken" />
		<tag k="ssr:stedsnr" v="281607" />
		<tag k="waterway" v="stream" />
	</node>
	<node id="-451730" lat="60.275026762" lon="6.24988795638">
		<tag k="name" v="Kjeret" />
		<tag k="place" v="islet" />
		<tag k="ssr:stedsnr" v="706658" />
	</node>
	<node id="-451011" lat="60.3219055563" lon="6.46457222678">
		<tag k="name" v="Ljosåni" />
		<tag k="ssr:stedsnr" v="38075" />
		<tag k="waterway" v="stream" />
	</node>
	<node id="-451728" lat="60.2160918528" lon="6.17456721829">
		<tag k="name" v="Uravikneset" />
		<tag k="natural" v="cape" />
		<tag k="ssr:stedsnr" v="706642" />
	</node>
	<node id="-451726" lat="60.190701273" lon="6.1366715045">
		<tag k="name" v="Nybbevatnet" />
		<tag k="natural" v="water" />
		<tag k="ssr:stedsnr" v="706603" />
		<tag k="water" v="lake" />
	</node>
	<node id="-451211" lat="60.256383333" lon="6.23015555639">
		<tag k="name" v="Skarabekken" />
		<tag k="ssr:stedsnr" v="159790" />
		<tag k="waterway" v="stream" />
	</node>
	<node id="-451948" lat="60.1312694564" lon="6.19340749249">
		<tag k="name" v="Kjeringevatnet" />
		<tag k="natural" v="water" />
		<tag k="ssr:stedsnr" v="915875" />
	</node>
	<node id="-450693" lat="60.3410800147" lon="6.34700785398">
		<tag k="name" v="Midtholmen" />
		<tag k="place" v="islet" />
		<tag k="ssr:stedsnr" v="281062" />
	</node>
	<node id="-451202" lat="60.276230554" lon="6.3350833405">
		<tag k="name" v="Selebekk" />
		<tag k="ssr:stedsnr" v="159570" />
		<tag k="waterway" v="stream" />
	</node>
	<node id="-451200" lat="60.2363007395" lon="6.32290508028">
		<tag k="name" v="Botnatjørn" />
		<tag k="natural" v="water" />
		<tag k="ssr:stedsnr" v="159565" />
	</node>
	<node id="-451706" lat="60.3407057038" lon="6.37157471813">
		<tag k="name" v="Kolgardsviki" />
		<tag k="natural" v="bay" />
		<tag k="ssr:stedsnr" v="705079" />
	</node>
	<node id="-451263" lat="60.1292749987" lon="6.16893888198">
		<tag k="name" v="Øyrabekken" />
		<tag k="ssr:stedsnr" v="187867" />
		<tag k="waterway" v="stream" />
	</node>
	<node id="-451092" lat="60.1823500044" lon="6.20721111023">
		<tag k="name" v="Botnavatnet" />
		<tag k="natural" v="water" />
		<tag k="ssr:stedsnr" v="66515" />
	</node>
	<node id="-451185" lat="60.1260694465" lon="6.17079721329">
		<tag k="name" v="Kalvaskorbekken" />
		<tag k="ssr:stedsnr" v="159177" />
		<tag k="waterway" v="stream" />
	</node>
	<node id="-451183" lat="60.2527805588" lon="6.34884999516">
		<tag k="name" v="Sumet" />
		<tag k="natural" v="strait" />
		<tag k="ssr:stedsnr" v="158821" />
	</node>
	<node id="-451182" lat="60.2816442947" lon="6.29662824211">
		<tag k="alt_name" v="Eidesvatnet" />
		<tag k="name" v="Byrkjelandsvatnet" />
		<tag k="natural" v="water" />
		<tag k="ssr:stedsnr" v="127614" />
		<tag k="water" v="lake" />
	</node>
	<node id="-451261" lat="60.203050002" lon="6.12278054985">
		<tag k="name" v="Kysneselva" />
		<tag k="ssr:stedsnr" v="187520" />
		<tag k="waterway" v="stream" />
	</node>
	<node id="-451180" lat="60.2655138847" lon="6.3660416706">
		<tag k="name" v="Gjætingselvi" />
		<tag k="ssr:stedsnr" v="127532" />
		<tag k="waterway" v="stream" />
	</node>
	<node id="-451179" lat="60.2678861108" lon="6.33810834099">
		<tag k="name" v="Kaldabekk" />
		<tag k="ssr:stedsnr" v="127533" />
		<tag k="waterway" v="stream" />
	</node>
	<node id="-451177" lat="60.2571944402" lon="6.23650555905">
		<tag k="name" v="Skredbekken" />
		<tag k="ssr:stedsnr" v="127399" />
		<tag k="waterway" v="stream" />
	</node>
	<node id="-451688" lat="60.2391658104" lon="6.42237970465">
		<tag k="name" v="Veslavatn" />
		<tag k="natural" v="water" />
		<tag k="ssr:stedsnr" v="672819" />
	</node>
	<node id="-451687" lat="60.2446435291" lon="6.29969316625">
		<tag k="name" v="Svartavatnet" />
		<tag k="natural" v="water" />
		<tag k="ssr:stedsnr" v="672795" />
	</node>
	<node id="-451683" lat="60.1732638875" lon="6.12349445135">
		<tag k="name" v="Kvitingen" />
		<tag k="natural" v="waterfall" />
		<tag k="ssr:stedsnr" v="672548" />
	</node>
	<node id="-451168" lat="60.2357833333" lon="6.26505000467">
		<tag k="name" v="Seljenes" />
		<tag k="natural" v="cape" />
		<tag k="ssr:stedsnr" v="126771" />
	</node>
	<node id="-450832" lat="60.3438499994" lon="6.41886943941">
		<tag k="name" v="Grimeelvi" />
		<tag k="ssr:stedsnr" v="369098" />
		<tag k="waterway" v="stream" />
	</node>
	<node id="-451675" lat="60.2553996234" lon="6.36088570677">
		<tag k="name" v="Nonskardvatnet" />
		<tag k="natural" v="water" />
		<tag k="ssr:stedsnr" v="672370" />
	</node>
	<node id="-451673" lat="60.251774802" lon="6.35976613826">
		<tag k="name" v="Ryggvatnet" />
		<tag k="natural" v="water" />
		<tag k="ssr:stedsnr" v="672364" />
	</node>
	<node id="-451160" lat="60.1642194436" lon="6.20247777406">
		<tag k="name" v="Hillerskardsvatna" />
		<tag k="natural" v="water" />
		<tag k="ssr:stedsnr" v="126569" />
		<tag k="water" v="lake" />
	</node>
	<node id="-451671" lat="60.3380497473" lon="6.37533582894">
		<tag k="name" v="Haugselvi" />
		<tag k="ssr:stedsnr" v="672017" />
		<tag k="waterway" v="stream" />
	</node>
	<node id="-451669" lat="60.3255141944" lon="6.50493275106">
		<tag k="alt_name" v="Tostølvatnet" />
		<tag k="name" v="Tostølsvatnet" />
		<tag k="natural" v="water" />
		<tag k="ssr:stedsnr" v="672008" />
		<tag k="water" v="lake" />
	</node>
	<node id="-451668" lat="60.3249384187" lon="6.40654896401">
		<tag k="name" v="Lomatjørni" />
		<tag k="natural" v="water" />
		<tag k="ssr:stedsnr" v="672003" />
	</node>
	<node id="-451152" lat="60.3206467298" lon="6.38138783868">
		<tag k="name" v="Løfalltjørni" />
		<tag k="natural" v="water" />
		<tag k="ssr:stedsnr" v="126023" />
	</node>
	<node id="-450744" lat="60.3343169432" lon="6.45081823143">
		<tag k="alt_name" v="Såtatjørni" />
		<tag k="name" v="Såtetjørn" />
		<tag k="natural" v="water" />
		<tag k="ssr:stedsnr" v="308015" />
	</node>
	<node id="-451085" lat="60.2801095796" lon="6.36356354581">
		<tag k="name" v="Krossdalselvi" />
		<tag k="ssr:stedsnr" v="66439" />
		<tag k="waterway" v="stream" />
	</node>
	<node id="-450999" lat="60.2296228934" lon="6.33422131767">
		<tag k="name" v="Veslafreddalsvatnet" />
		<tag k="natural" v="water" />
		<tag k="ssr:stedsnr" v="5783" />
	</node>
	<node id="-451648" lat="60.2952472262" lon="6.35939722525">
		<tag k="name" v="Vassendelvi" />
		<tag k="ssr:stedsnr" v="644637" />
		<tag k="waterway" v="river" />
	</node>
	<node id="-451167" lat="60.2253611121" lon="6.20687500104">
		<tag k="name" v="Stampelva" />
		<tag k="ssr:stedsnr" v="126528" />
		<tag k="waterway" v="stream" />
	</node>
	<node id="-450996" lat="60.189493316" lon="6.13523154649">
		<tag k="name" v="Holmavatnet" />
		<tag k="natural" v="water" />
		<tag k="ssr:stedsnr" v="5552" />
	</node>
	<node id="-451337" lat="60.2640395225" lon="6.31352774038">
		<tag k="name" v="Snodalstjørni" />
		<tag k="natural" v="water" />
		<tag k="ssr:stedsnr" v="248480" />
	</node>
	<node id="-451631" lat="60.1789055586" lon="6.16393054639">
		<tag k="name" v="Vassdalselva" />
		<tag k="ssr:stedsnr" v="644455" />
		<tag k="waterway" v="river" />
	</node>
	<node id="-451628" lat="60.3697857599" lon="6.42374058427">
		<tag k="name" v="Austeneset" />
		<tag k="natural" v="cape" />
		<tag k="ssr:stedsnr" v="644076" />
	</node>
	<node id="-451115" lat="60.2690166682" lon="6.36961665994">
		<tag k="name" v="Holmane" />
		<tag k="place" v="islet" />
		<tag k="ssr:stedsnr" v="99551" />
	</node>
	<node id="-451113" lat="60.2790194453" lon="6.3730527768">
		<tag k="name" v="Storholmen" />
		<tag k="place" v="islet" />
		<tag k="ssr:stedsnr" v="99535" />
	</node>
	<node id="-451451" lat="60.1573999992" lon="6.12674166952">
		<tag k="name" v="Damsbekken" />
		<tag k="ssr:stedsnr" v="523469" />
		<tag k="waterway" v="stream" />
	</node>
	<node id="-451163" lat="60.2700166649" lon="6.31415276945">
		<tag k="name" v="Storesteinsbekken" />
		<tag k="ssr:stedsnr" v="126482" />
		<tag k="waterway" v="stream" />
	</node>
	<node id="-451611" lat="60.3481594723" lon="6.39137741944">
		<tag k="name" v="Herandsvatnet" />
		<tag k="natural" v="water" />
		<tag k="ssr:stedsnr" v="612134" />
	</node>
	<node id="-451097" lat="60.1324250015" lon="6.17010833089">
		<tag k="name" v="Hessvikelva" />
		<tag k="ssr:stedsnr" v="98160" />
		<tag k="waterway" v="river" />
	</node>
	<node id="-451604" lat="60.2313814147" lon="6.44650930816">
		<tag k="name" v="Jukladalstjørni" />
		<tag k="natural" v="water" />
		<tag k="ssr:stedsnr" v="611830" />
	</node>
	<node id="-451602" lat="60.2432044854" lon="6.35984635778">
		<tag k="name" v="Osadalvatnet" />
		<tag k="natural" v="water" />
		<tag k="ssr:stedsnr" v="611810" />
	</node>
	<node id="-451088" lat="60.2675174475" lon="6.30914252048">
		<tag k="name" v="Laurdalstjørni" />
		<tag k="natural" v="water" />
		<tag k="ssr:stedsnr" v="66453" />
	</node>
	<node id="-451087" lat="60.2636266045" lon="6.32743959907">
		<tag k="name" v="Blomsterlitjørni" />
		<tag k="natural" v="water" />
		<tag k="ssr:stedsnr" v="66450" />
	</node>
	<node id="-451598" lat="60.1694997587" lon="6.14715247829">
		<tag k="name" v="Nedstavatnet" />
		<tag k="natural" v="water" />
		<tag k="ssr:stedsnr" v="611572" />
	</node>
	<node id="-451597" lat="60.1942188449" lon="6.15571766632">
		<tag k="name" v="Gangdalstjørna" />
		<tag k="natural" v="water" />
		<tag k="ssr:stedsnr" v="611562" />
	</node>
	<node id="-451592" lat="60.2540256137" lon="6.33200964179">
		<tag k="name" v="Jondalstjørni" />
		<tag k="natural" v="water" />
		<tag k="ssr:stedsnr" v="611418" />
	</node>
	<node id="-451585" lat="60.325799997" lon="6.51437499666">
		<tag k="name" v="Tostølsholmane" />
		<tag k="place" v="islet" />
		<tag k="ssr:stedsnr" v="584868" />
	</node>
</osm>
