<?xml version="1.0" encoding="UTF-8"?>
<osm generator="osmapis" version="0.6">
	<node id="-450558" lat="60.129411444" lon="6.15716838455">
		<tag k="alt_name" v="Hessvikevika" />
		<tag k="fixme" v="consider seamark:type=rock or natural=shoal" />
		<tag k="name" v="Hessvikskjeret" />
		<tag k="place" v="islet" />
		<tag k="ssr:stedsnr" v="126885" />
	</node>
	<node id="-451065" lat="60.2141666709" lon="6.15718333545">
		<tag k="name" v="Gangdalsviki" />
		<tag k="natural" v="bay" />
		<tag k="old_name" v="Gangdalsvika" />
		<tag k="ssr:stedsnr" v="672490" />
	</node>
	<node id="-450545" lat="60.2884388895" lon="6.23834167506">
		<tag k="name" v="Kåpeviki" />
		<tag k="natural" v="bay" />
		<tag k="ssr:stedsnr" v="126444" />
	</node>
	<node id="-450543" lat="60.2755805516" lon="6.23460833108">
		<tag k="name" v="Sætveitneset" />
		<tag k="natural" v="cape" />
		<tag k="ssr:stedsnr" v="126456" />
	</node>
	<node id="-451051" lat="60.322366667" lon="6.32865832511">
		<tag k="name" v="Høganeset" />
		<tag k="natural" v="cape" />
		<tag k="ssr:stedsnr" v="650917" />
	</node>
	<node id="-450530" lat="60.1377861089" lon="6.1454611131">
		<tag k="name" v="Tømmerneset" />
		<tag k="natural" v="cape" />
		<tag k="ssr:stedsnr" v="104436" />
	</node>
	<node id="-450529" lat="60.1438416656" lon="6.13091665995">
		<tag k="name" v="Apalvikneset" />
		<tag k="natural" v="cape" />
		<tag k="ssr:stedsnr" v="104433" />
	</node>
	<node id="-451039" lat="60.2222805595" lon="6.18537776942">
		<tag k="name" v="Ytre Skiparviknes" />
		<tag k="natural" v="cape" />
		<tag k="ssr:stedsnr" v="645622" />
	</node>
	<node id="-450511" lat="60.2392361114" lon="6.19136666525">
		<tag k="name" v="Torsneset" />
		<tag k="natural" v="cape" />
		<tag k="ssr:stedsnr" v="99676" />
	</node>
	<node id="-450510" lat="60.2400861126" lon="6.19491111952">
		<tag k="name" v="Laberg" />
		<tag k="natural" v="cape" />
		<tag k="ssr:stedsnr" v="99675" />
	</node>
	<node id="-451021" lat="60.1318222262" lon="6.15016945195">
		<tag k="name" v="Bjøllevika" />
		<tag k="natural" v="bay" />
		<tag k="ssr:stedsnr" v="644476" />
	</node>
	<node id="-450496" lat="60.1673944438" lon="6.10416667249">
		<tag k="name" v="Sydvesten" />
		<tag k="natural" v="cape" />
		<tag k="ssr:stedsnr" v="99433" />
	</node>
	<node id="-450486" lat="60.3382416704" lon="6.34952499249">
		<tag k="fixme" v="consider seamark:type=rock or natural=shoal" />
		<tag k="name" v="Kjerringaskjer" />
		<tag k="place" v="islet" />
		<tag k="ssr:stedsnr" v="99059" />
	</node>
	<node id="-450996" lat="60.3395197381" lon="6.34558703295">
		<tag k="name" v="Herandsholmen" />
		<tag k="place" v="islet" />
		<tag k="ssr:stedsnr" v="612124" />
	</node>
	<node id="-450994" lat="60.305686108" lon="6.28955000539">
		<tag k="name" v="Viki" />
		<tag k="natural" v="bay" />
		<tag k="ssr:stedsnr" v="612070" />
	</node>
	<node id="-450481" lat="60.2260611122" lon="6.19444166085">
		<tag k="name" v="Hamnen" />
		<tag k="natural" v="bay" />
		<tag k="ssr:stedsnr" v="66709" />
	</node>
	<node id="-450992" lat="60.2958583376" lon="6.23159166055">
		<tag k="name" v="Dragsviki" />
		<tag k="natural" v="bay" />
		<tag k="ssr:stedsnr" v="612052" />
	</node>
	<node id="-450717" lat="60.350259264" lon="6.35361647058">
		<tag k="name" v="Mulen" />
		<tag k="natural" v="cape" />
		<tag k="ssr:stedsnr" v="248107" />
	</node>
	<node id="-450981" lat="60.180300004" lon="6.09345833243">
		<tag k="alt_name" v="Store Gausvika" />
		<tag k="name" v="Gausvika" />
		<tag k="natural" v="bay" />
		<tag k="ssr:stedsnr" v="611553" />
	</node>
	<node id="-450464" lat="60.3401325535" lon="6.35094290787">
		<tag k="name" v="Vesleklubben" />
		<tag k="place" v="islet" />
		<tag k="ssr:stedsnr" v="66109" />
	</node>
	<node id="-450460" lat="60.3033388878" lon="6.256141664">
		<tag k="name" v="Flataskarv" />
		<tag k="natural" v="cape" />
		<tag k="ssr:stedsnr" v="66055" />
	</node>
	<node id="-450968" lat="60.2495916682" lon="6.20107222602">
		<tag k="name" v="Kveldslendi" />
		<tag k="place" v="locality" />
		<tag k="ssr:stedsnr" v="584848" />
	</node>
	<node id="-450628" lat="60.3013444454" lon="6.24441667403">
		<tag k="alt_name" v="Bjørkebeinneset" />
		<tag k="name" v="Byrkjebein" />
		<tag k="natural" v="cape" />
		<tag k="ssr:stedsnr" v="187045" />
	</node>
	<node id="-450452" lat="60.136719442" lon="6.14742500227">
		<tag k="name" v="Tømmervika" />
		<tag k="natural" v="bay" />
		<tag k="ssr:stedsnr" v="65902" />
	</node>
	<node id="-450449" lat="60.2481111117" lon="6.20466665905">
		<tag k="name" v="Saltkjelsfjøra" />
		<tag k="natural" v="bay" />
		<tag k="old_name" v="Saltkjelen" />
		<tag k="ssr:stedsnr" v="65754" />
	</node>
	<node id="-450960" lat="60.2259361086" lon="6.18904444341">
		<tag k="alt_name" v="Skipparvikneset" />
		<tag k="name" v="Indre Skiparviknes" />
		<tag k="natural" v="cape" />
		<tag k="ssr:stedsnr" v="584680" />
	</node>
	<node id="-450441" lat="60.313072224" lon="6.30531388633">
		<tag k="name" v="Doktorflui" />
		<tag k="old_name" v="Doktorflesa" />
		<tag k="place" v="locality" />
		<tag k="seamark:type" v="rock" />
		<tag k="ssr:stedsnr" v="44909" />
	</node>
	<node id="-450440" lat="60.3647476942" lon="6.34957923814">
		<tag k="name" v="Langneset" />
		<tag k="natural" v="cape" />
		<tag k="ssr:stedsnr" v="44096" />
	</node>
	<node id="-450922" lat="60.2514722205" lon="6.20217499388">
		<tag k="name" v="Hardinghola" />
		<tag k="natural" v="bay" />
		<tag k="ssr:stedsnr" v="551770" />
	</node>
	<node id="-450921" lat="60.2526305557" lon="6.20075833203">
		<tag k="alt_name" v="Belsneset, yt;Belsneset, ytre;Ytre Belsneset" />
		<tag k="name" v="Høyskarneset" />
		<tag k="natural" v="cape" />
		<tag k="ssr:stedsnr" v="551769" />
	</node>
	<node id="-450920" lat="60.2443666682" lon="6.20176943643">
		<tag k="name" v="Øydjordsneset" />
		<tag k="natural" v="cape" />
		<tag k="ssr:stedsnr" v="551754" />
	</node>
	<node id="-450404" lat="60.1412722213" lon="6.13464166414">
		<tag k="name" v="Klubben" />
		<tag k="natural" v="cape" />
		<tag k="ssr:stedsnr" v="38475" />
	</node>
	<node id="-450403" lat="60.181586108" lon="6.09286388838">
		<tag k="name" v="Eikevika" />
		<tag k="natural" v="bay" />
		<tag k="ssr:stedsnr" v="38462" />
	</node>
	<node id="-450906" lat="60.3366271261" lon="6.34335816545">
		<tag k="name" v="Holmsundet" />
		<tag k="natural" v="strait" />
		<tag k="ssr:stedsnr" v="551112" />
	</node>
	<node id="-450392" lat="60.2580333348" lon="6.20450555012">
		<tag k="alt_name" v="Belsneset, in;Belsneset, indre;Indre Belsneset" />
		<tag k="name" v="Belsneset" />
		<tag k="natural" v="cape" />
		<tag k="ssr:stedsnr" v="6773" />
	</node>
	<node id="-450391" lat="60.1684000042" lon="6.10632499875">
		<tag k="name" v="Klubben" />
		<tag k="natural" v="cape" />
		<tag k="ssr:stedsnr" v="6646" />
	</node>
	<node id="-451407" lat="60.2805638925" lon="6.24806944295">
		<tag k="name" v="Vikesanden" />
		<tag k="natural" v="bay" />
		<tag k="ssr:stedsnr" v="954997" />
	</node>
	<node id="-451406" lat="60.217205556" lon="6.11903333914">
		<tag k="name" v="Grotnesviki" />
		<tag k="natural" v="bay" />
		<tag k="old_name" v="Grotnesvika" />
		<tag k="ssr:stedsnr" v="953689" />
	</node>
	<node id="-450893" lat="60.1712194431" lon="6.10383611545">
		<tag k="name" v="Årvika" />
		<tag k="natural" v="bay" />
		<tag k="ssr:stedsnr" v="550569" />
	</node>
	<node id="-450378" lat="60.1853305594" lon="6.09398610757">
		<tag k="alt_name" v="Gausvika, vesla;Vesle Gausvika" />
		<tag k="name" v="Vetla Gausvika" />
		<tag k="natural" v="bay" />
		<tag k="ssr:stedsnr" v="5535" />
	</node>
	<node id="-451394" lat="60.2456555518" lon="6.20426667477">
		<tag k="alt_name" v="Stakkstong" />
		<tag k="name" v="Olalendi" />
		<tag k="natural" v="bay" />
		<tag k="ssr:stedsnr" v="949670" />
	</node>
	<node id="-450878" lat="60.2896638883" lon="6.2406111089">
		<tag k="name" v="Urevik" />
		<tag k="natural" v="bay" />
		<tag k="ssr:stedsnr" v="524694" />
	</node>
	<node id="-450865" lat="60.3731691752" lon="6.32329931688">
		<tag k="bay" v="fjord" />
		<tag k="name" v="Samlafjorden" />
		<tag k="natural" v="bay" />
		<tag k="ssr:stedsnr" v="523697" />
	</node>
	<node id="-451375" lat="60.3045777771" lon="6.26361944994">
		<tag k="name" v="Smidjeneset" />
		<tag k="natural" v="cape" />
		<tag k="ssr:stedsnr" v="948800" />
	</node>
	<node id="-450849" lat="60.1770249956" lon="6.09377777596">
		<tag k="name" v="Neset" />
		<tag k="natural" v="cape" />
		<tag k="ssr:stedsnr" v="523522" />
	</node>
	<node id="-451358" lat="60.1410111137" lon="6.13696389002">
		<tag k="name" v="Samsofjæra" />
		<tag k="natural" v="beach" />
		<tag k="place" v="locality" />
		<tag k="ssr:stedsnr" v="948537" />
	</node>
	<node id="-451357" lat="60.1298166701" lon="6.15525555171">
		<tag k="name" v="Hamnavika" />
		<tag k="natural" v="bay" />
		<tag k="ssr:stedsnr" v="948501" />
	</node>
	<node id="-451356" lat="60.140469444" lon="6.13835832796">
		<tag k="name" v="Fløytet" />
		<tag k="natural" v="cape" />
		<tag k="ssr:stedsnr" v="948498" />
	</node>
	<node id="-450330" lat="60.2152467698" lon="6.17000834197">
		<tag k="name" v="Vesle Uravik" />
		<tag k="natural" v="bay" />
		<tag k="ssr:stedsnr" v="888784" />
	</node>
	<node id="-450325" lat="60.2395194429" lon="6.30414167352">
		<tag k="name" v="Greleleitet" />
		<tag k="natural" v="bay" />
		<tag k="ssr:stedsnr" v="888725" />
	</node>
	<node id="-451348" lat="60.2575555556" lon="6.20740555396">
		<tag k="name" v="Sandviki" />
		<tag k="natural" v="bay" />
		<tag k="ssr:stedsnr" v="916781" />
	</node>
	<node id="-450829" lat="60.3351083373" lon="6.34185832612">
		<tag k="name" v="Lassaviki" />
		<tag k="natural" v="bay" />
		<tag k="ssr:stedsnr" v="491104" />
	</node>
	<node id="-451340" lat="60.3324187752" lon="6.33878673052">
		<tag k="name" v="Midtviki" />
		<tag k="natural" v="bay" />
		<tag k="ssr:stedsnr" v="916110" />
	</node>
	<node id="-451339" lat="60.3387917455" lon="6.34069036024">
		<tag k="name" v="Storeklubben" />
		<tag k="place" v="islet" />
		<tag k="ssr:stedsnr" v="916104" />
	</node>
	<node id="-450812" lat="60.1631055522" lon="6.10819722684">
		<tag k="alt_name" v="Stegen" />
		<tag k="name" v="Stigen" />
		<tag k="natural" v="cape" />
		<tag k="ssr:stedsnr" v="489598" />
	</node>
	<node id="-451319" lat="60.1826999973" lon="6.09337777654">
		<tag k="name" v="Kalvaneset" />
		<tag k="natural" v="cape" />
		<tag k="ssr:stedsnr" v="915523" />
	</node>
	<node id="-450294" lat="60.1274277806" lon="6.15935556359">
		<tag k="name" v="Ytrebøneset" />
		<tag k="natural" v="cape" />
		<tag k="ssr:stedsnr" v="888391" />
	</node>
	<node id="-450293" lat="60.1206805533" lon="6.15934165884">
		<tag k="name" v="Uravikklubben" />
		<tag k="natural" v="cape" />
		<tag k="old_name" v="Urdaviksklubben" />
		<tag k="ssr:stedsnr" v="888389" />
	</node>
	<node id="-450803" lat="60.3040861127" lon="6.26652777068">
		<tag k="name" v="Mekjelsviki" />
		<tag k="natural" v="bay" />
		<tag k="ssr:stedsnr" v="463723" />
	</node>
	<node id="-450285" lat="60.3186111141" lon="6.32065278385">
		<tag k="name" v="Bruraskjeret" />
		<tag k="natural" v="shoal" />
		<tag k="place" v="locality" />
		<tag k="ssr:stedsnr" v="408931" />
	</node>
	<node id="-451298" lat="60.3268966312" lon="6.33430211148">
		<tag k="name" v="Hereitangen" />
		<tag k="natural" v="cape" />
		<tag k="ssr:stedsnr" v="855103" />
	</node>
	<node id="-450085" lat="60.1420305577" lon="6.12873056322">
		<tag k="fixme" v="consider seamark:type=rock or natural=shoal" />
		<tag k="name" v="Årsandskjeret" />
		<tag k="place" v="islet" />
		<tag k="ssr:stedsnr" v="281479" />
	</node>
	<node id="-450268" lat="60.2774139233" lon="6.24939587541">
		<tag k="name" v="Katanes" />
		<tag k="natural" v="cape" />
		<tag k="ssr:stedsnr" v="402738" />
	</node>
	<node id="-450775" lat="60.1692774419" lon="6.10718285226">
		<tag k="name" v="Hamnaneset" />
		<tag k="natural" v="cape" />
		<tag k="ssr:stedsnr" v="463394" />
	</node>
	<node id="-451022" lat="60.1540861083" lon="6.11887778274">
		<tag k="name" v="Ytsta Knarrvika" />
		<tag k="natural" v="bay" />
		<tag k="ssr:stedsnr" v="644490" />
	</node>
	<node id="-451281" lat="60.1751333364" lon="6.09493055752">
		<tag k="name" v="Årvikeneset" />
		<tag k="natural" v="cape" />
		<tag k="old_name" v="Årvikneset" />
		<tag k="ssr:stedsnr" v="854567" />
	</node>
	<node id="-450764" lat="60.1309138897" lon="6.15199444364">
		<tag k="name" v="Hamnaneset" />
		<tag k="natural" v="cape" />
		<tag k="ssr:stedsnr" v="430868" />
	</node>
	<node id="-451269" lat="60.2959777818" lon="6.22656388636">
		<tag k="name" v="Kalvavik" />
		<tag k="natural" v="bay" />
		<tag k="ssr:stedsnr" v="827802" />
	</node>
	<node id="-450244" lat="60.1282277783" lon="6.15718889538">
		<tag k="name" v="Øykjaneset" />
		<tag k="natural" v="cape" />
		<tag k="ssr:stedsnr" v="402476" />
	</node>
	<node id="-451260" lat="60.3691166625" lon="6.37143333683">
		<tag k="name" v="Sandvikfjøra" />
		<tag k="natural" v="bay" />
		<tag k="ssr:stedsnr" v="827656" />
	</node>
	<node id="-450744" lat="60.296777776" lon="6.23733055113">
		<tag k="name" v="Tryglavik" />
		<tag k="natural" v="bay" />
		<tag k="ssr:stedsnr" v="430037" />
	</node>
	<node id="-451188" lat="60.2263222208" lon="6.19216667263">
		<tag k="name" v="Indre Skiparvik" />
		<tag k="natural" v="bay" />
		<tag k="ssr:stedsnr" v="766683" />
	</node>
	<node id="-451249" lat="60.1840944413" lon="6.09534999869">
		<tag k="name" v="Ospeneset" />
		<tag k="natural" v="cape" />
		<tag k="ssr:stedsnr" v="827494" />
	</node>
	<node id="-450219" lat="60.3281666691" lon="6.3355999921">
		<tag k="name" v="Hereipollen" />
		<tag k="natural" v="bay" />
		<tag k="ssr:stedsnr" v="369093" />
	</node>
	<node id="-450215" lat="60.2908555575" lon="6.23594166438">
		<tag k="name" v="Kyrkjene" />
		<tag k="natural" v="cape" />
		<tag k="ssr:stedsnr" v="369026" />
	</node>
	<node id="-451238" lat="60.2169353958" lon="6.17759729065">
		<tag k="name" v="Urdavika" />
		<tag k="natural" v="bay" />
		<tag k="ssr:stedsnr" v="794515" />
	</node>
	<node id="-450206" lat="60.3013472206" lon="6.24219443589">
		<tag k="fixme" v="consider seamark:type=rock or natural=shoal" />
		<tag k="name" v="Bjørkebeinskjeret" />
		<tag k="place" v="islet" />
		<tag k="ssr:stedsnr" v="347944" />
	</node>
	<node id="-450205" lat="60.2696555592" lon="6.23113611311">
		<tag k="name" v="Låenholmen" />
		<tag k="place" v="islet" />
		<tag k="ssr:stedsnr" v="346587" />
	</node>
	<node id="-450204" lat="60.2710500027" lon="6.23004167077">
		<tag k="name" v="Snauholmen" />
		<tag k="place" v="islet" />
		<tag k="ssr:stedsnr" v="346585" />
	</node>
	<node id="-450712" lat="60.3599500022" lon="6.35113055609">
		<tag k="name" v="Dysviki" />
		<tag k="natural" v="bay" />
		<tag k="ssr:stedsnr" v="248069" />
	</node>
	<node id="-450185" lat="60.3698053374" lon="6.35252874328">
		<tag k="name" v="Høyviki" />
		<tag k="natural" v="bay" />
		<tag k="ssr:stedsnr" v="341690" />
	</node>
	<node id="-450696" lat="60.1355694423" lon="6.1488416717">
		<tag k="name" v="Bandavikklubben" />
		<tag k="natural" v="cape" />
		<tag k="ssr:stedsnr" v="225475" />
	</node>
	<node id="-450695" lat="60.2408361099" lon="6.19726944329">
		<tag k="name" v="Saghaugskulten" />
		<tag k="natural" v="bay" />
		<tag k="ssr:stedsnr" v="221814" />
	</node>
	<node id="-451204" lat="60.2709833333" lon="6.23154721789">
		<tag k="name" v="Djupevikneset" />
		<tag k="natural" v="cape" />
		<tag k="ssr:stedsnr" v="771612" />
	</node>
	<node id="-450172" lat="60.1210333357" lon="6.16154167507">
		<tag k="name" v="Uraviko" />
		<tag k="natural" v="bay" />
		<tag k="ssr:stedsnr" v="341485" />
	</node>
	<node id="-450164" lat="60.3371541534" lon="6.34799572565">
		<tag k="name" v="Sjursvik" />
		<tag k="natural" v="bay" />
		<tag k="ssr:stedsnr" v="341061" />
	</node>
	<node id="-450163" lat="60.3341277744" lon="6.34087222843">
		<tag k="name" v="Kringstein" />
		<tag k="natural" v="cape" />
		<tag k="old_name" v="Kringskin" />
		<tag k="ssr:stedsnr" v="340623" />
	</node>
	<node id="-450743" lat="60.2913305581" lon="6.22825000069">
		<tag k="name" v="Jonaneset" />
		<tag k="natural" v="cape" />
		<tag k="ssr:stedsnr" v="430031" />
	</node>
	<node id="-450236" lat="60.2713024462" lon="6.2306696327">
		<tag k="name" v="Holmsundet" />
		<tag k="natural" v="strait" />
		<tag k="ssr:stedsnr" v="370588" />
	</node>
	<node id="-451169" lat="60.3399057001" lon="6.36806491999">
		<tag k="name" v="Kalvaviki" />
		<tag k="natural" v="bay" />
		<tag k="ssr:stedsnr" v="766048" />
	</node>
	<node id="-450650" lat="60.222811108" lon="6.18813055372">
		<tag k="alt_name" v="Skiparvik, yt" />
		<tag k="name" v="Ytre Skiparvik" />
		<tag k="natural" v="bay" />
		<tag k="ssr:stedsnr" v="187689" />
	</node>
	<node id="-450136" lat="60.3638861111" lon="6.34984999482">
		<tag k="name" v="Langevikfjøra" />
		<tag k="natural" v="bay" />
		<tag k="ssr:stedsnr" v="308076" />
	</node>
	<node id="-450915" lat="60.2187083291" lon="6.15157221659">
		<tag k="name" v="Gangdalsneset" />
		<tag k="natural" v="cape" />
		<tag k="ssr:stedsnr" v="551513" />
	</node>
	<node id="-450639" lat="60.2719703155" lon="6.23364841842">
		<tag k="name" v="Djupaviki" />
		<tag k="natural" v="bay" />
		<tag k="ssr:stedsnr" v="187425" />
	</node>
	<node id="-450637" lat="60.2831416306" lon="6.24419635185">
		<tag k="name" v="Sjursviki" />
		<tag k="natural" v="bay" />
		<tag k="ssr:stedsnr" v="187415" />
	</node>
	<node id="-451145" lat="60.1568750023" lon="6.11265278036">
		<tag k="name" v="Knarrvikeneset" />
		<tag k="natural" v="cape" />
		<tag k="ssr:stedsnr" v="733581" />
	</node>
	<node id="-450632" lat="60.3562500011" lon="6.35520277197">
		<tag k="name" v="Mælsviki" />
		<tag k="natural" v="bay" />
		<tag k="ssr:stedsnr" v="187068" />
	</node>
	<node id="-450118" lat="60.3392233923" lon="6.35708331485">
		<tag k="name" v="Hustangodden" />
		<tag k="natural" v="cape" />
		<tag k="ssr:stedsnr" v="281855" />
	</node>
	<node id="-450117" lat="60.2303750115" lon="6.31984614144">
		<tag k="name" v="Neset" />
		<tag k="natural" v="cape" />
		<tag k="ssr:stedsnr" v="281831" />
	</node>
	<node id="-450116" lat="60.2863138923" lon="6.24296388393">
		<tag k="name" v="Eikevik" />
		<tag k="natural" v="bay" />
		<tag k="ssr:stedsnr" v="281776" />
	</node>
	<node id="-450109" lat="60.2827722304" lon="6.24481065991">
		<tag k="alt_name" v="Huhamaren" />
		<tag k="name" v="Huhammar" />
		<tag k="natural" v="cape" />
		<tag k="ssr:stedsnr" v="281703" />
	</node>
	<node id="-450615" lat="60.3704757156" lon="6.35430401021">
		<tag k="name" v="Samlaneset" />
		<tag k="natural" v="cape" />
		<tag k="ssr:stedsnr" v="165085" />
	</node>
	<node id="-451126" lat="60.3592500028" lon="6.35095555562">
		<tag k="name" v="Dysvikneset" />
		<tag k="natural" v="cape" />
		<tag k="ssr:stedsnr" v="711110" />
	</node>
	<node id="-450612" lat="60.1906361072" lon="6.08408610633">
		<tag k="name" v="Hylkjesviki" />
		<tag k="natural" v="bay" />
		<tag k="ssr:stedsnr" v="160855" />
	</node>
	<node id="-450603" lat="60.2313166689" lon="6.19396944954">
		<tag k="name" v="Gåsaviki" />
		<tag k="natural" v="bay" />
		<tag k="old_name" v="Gåsavika" />
		<tag k="ssr:stedsnr" v="160610" />
	</node>
	<node id="-450602" lat="60.2266916651" lon="6.19464166572">
		<tag k="name" v="Saghola" />
		<tag k="natural" v="bay" />
		<tag k="ssr:stedsnr" v="160601" />
	</node>
	<node id="-451109" lat="60.1185138923" lon="6.15581943881">
		<tag k="name" v="Midtvika" />
		<tag k="natural" v="bay" />
		<tag k="ssr:stedsnr" v="706395" />
	</node>
	<node id="-450079" lat="60.3401780062" lon="6.36901944325">
		<tag k="name" v="Naustneset" />
		<tag k="natural" v="cape" />
		<tag k="ssr:stedsnr" v="281048" />
	</node>
	<node id="-450585" lat="60.1529861124" lon="6.12043611368">
		<tag k="fixme" v="consider seamark:type=rock or natural=shoal" />
		<tag k="name" v="Fureskjeret" />
		<tag k="place" v="islet" />
		<tag k="ssr:stedsnr" v="159506" />
	</node>
	<node id="-451096" lat="60.2781055601" lon="6.24260000766">
		<tag k="name" v="Jondalsviki" />
		<tag k="natural" v="bay" />
		<tag k="ssr:stedsnr" v="705127" />
	</node>
	<node id="-450582" lat="60.1395138926" lon="6.14062499259">
		<tag k="name" v="Naustneset" />
		<tag k="natural" v="cape" />
		<tag k="ssr:stedsnr" v="159482" />
	</node>
	<node id="-450904" lat="60.3677166701" lon="6.3499555538">
		<tag k="name" v="Krossaneset" />
		<tag k="natural" v="cape" />
		<tag k="ssr:stedsnr" v="551093" />
	</node>
</osm>
