<?xml version="1.0" encoding="UTF-8"?>
<osm generator="osmapis" version="0.6">
	<node id="-452019" lat="60.3338694457" lon="6.42726111185">
		<tag k="name" v="Gråskallen" />
		<tag k="natural" v="hill" />
		<tag k="place" v="locality" />
		<tag k="ssr:stedsnr" v="949852" />
	</node>
	<node id="-452018" lat="60.1901250001" lon="6.11281943644">
		<tag k="name" v="Svoene" />
		<tag k="natural" v="hill" />
		<tag k="place" v="locality" />
		<tag k="ssr:stedsnr" v="949839" />
	</node>
	<node id="-452017" lat="60.3435472222" lon="6.43072222836">
		<tag k="name" v="Vårhaug" />
		<tag k="natural" v="hill" />
		<tag k="place" v="locality" />
		<tag k="ssr:stedsnr" v="949802" />
	</node>
	<node id="-452016" lat="60.3433500024" lon="6.49989166171">
		<tag k="name" v="Paradis" />
		<tag k="place" v="locality" />
		<tag k="ssr:stedsnr" v="949799" />
	</node>
	<node id="-452015" lat="60.3541666646" lon="6.41420277264">
		<tag k="name" v="Ulvskjeften" />
		<tag k="place" v="locality" />
		<tag k="ssr:stedsnr" v="949798" />
	</node>
	<node id="-452012" lat="60.2298194431" lon="6.33114721364">
		<tag k="name" v="Kleivi" />
		<tag k="natural" v="slope" />
		<tag k="place" v="locality" />
		<tag k="ssr:stedsnr" v="949770" />
	</node>
	<node id="-452010" lat="60.2420277797" lon="6.21120833319">
		<tag k="name" v="Hjellastigen" />
		<tag k="natural" v="slope" />
		<tag k="place" v="locality" />
		<tag k="ssr:stedsnr" v="949695" />
	</node>
	<node id="-452009" lat="60.2598638874" lon="6.24988056294">
		<tag k="name" v="Raundalshaugen" />
		<tag k="natural" v="hill" />
		<tag k="place" v="locality" />
		<tag k="ssr:stedsnr" v="949693" />
	</node>
	<node id="-452006" lat="60.2819416696" lon="6.25088610958">
		<tag k="name" v="Kolaskar" />
		<tag k="natural" v="valley" />
		<tag k="place" v="locality" />
		<tag k="ssr:stedsnr" v="949645" />
	</node>
	<node id="-452004" lat="60.2352888904" lon="6.28117222725">
		<tag k="name" v="Glomsdalen" />
		<tag k="natural" v="valley" />
		<tag k="place" v="locality" />
		<tag k="ssr:stedsnr" v="949628" />
	</node>
	<node id="-452003" lat="60.2331444488" lon="6.268711105">
		<tag k="name" v="Seljeneshammaren" />
		<tag k="natural" v="hill" />
		<tag k="place" v="locality" />
		<tag k="ssr:stedsnr" v="949626" />
	</node>
	<node id="-452002" lat="60.2277027817" lon="6.2628194458">
		<tag k="fixme" v="consider natural=peak for the most distinct mountains in the district" />
		<tag k="name" v="Helletaket" />
		<tag k="natural" v="hill" />
		<tag k="ssr:stedsnr" v="949620" />
	</node>
	<node id="-452001" lat="60.2150472247" lon="6.2023861193">
		<tag k="name" v="Geitasvoena" />
		<tag k="natural" v="hill" />
		<tag k="place" v="locality" />
		<tag k="ssr:stedsnr" v="949619" />
	</node>
	<node id="-451999" lat="60.2358749978" lon="6.2178555585">
		<tag k="name" v="Kattugledalsgjelet" />
		<tag k="natural" v="valley" />
		<tag k="place" v="locality" />
		<tag k="ssr:stedsnr" v="949587" />
	</node>
	<node id="-451997" lat="60.1880916648" lon="6.10285832554">
		<tag k="name" v="Store Ravnaberg" />
		<tag k="natural" v="hill" />
		<tag k="place" v="locality" />
		<tag k="ssr:stedsnr" v="949578" />
	</node>
	<node id="-451996" lat="60.1902333305" lon="6.14670555016">
		<tag k="name" v="Storafjellskorane" />
		<tag k="natural" v="valley" />
		<tag k="place" v="locality" />
		<tag k="ssr:stedsnr" v="949572" />
	</node>
	<node id="-451995" lat="60.2007416659" lon="6.10621944453">
		<tag k="name" v="Heimdalen" />
		<tag k="natural" v="valley" />
		<tag k="place" v="locality" />
		<tag k="ssr:stedsnr" v="949559" />
	</node>
	<node id="-451994" lat="60.1362972234" lon="6.1854166585">
		<tag k="name" v="Duken" />
		<tag k="place" v="locality" />
		<tag k="ssr:stedsnr" v="949216" />
	</node>
	<node id="-451993" lat="60.1790611087" lon="6.09840833297">
		<tag k="name" v="Heiabrotet" />
		<tag k="natural" v="slope" />
		<tag k="place" v="locality" />
		<tag k="ssr:stedsnr" v="949210" />
	</node>
	<node id="-451986" lat="60.2882861153" lon="6.34717778505">
		<tag k="name" v="Kleivi" />
		<tag k="natural" v="slope" />
		<tag k="place" v="locality" />
		<tag k="ssr:stedsnr" v="948676" />
	</node>
	<node id="-451984" lat="60.2904694459" lon="6.30664721979">
		<tag k="name" v="Hundhaug" />
		<tag k="natural" v="hill" />
		<tag k="place" v="locality" />
		<tag k="ssr:stedsnr" v="948673" />
	</node>
	<node id="-451982" lat="60.2902722235" lon="6.34283888145">
		<tag k="name" v="Kløv" />
		<tag k="place" v="locality" />
		<tag k="ssr:stedsnr" v="948669" />
	</node>
	<node id="-451981" lat="60.299144441" lon="6.32617221584">
		<tag k="name" v="Middagshaugen" />
		<tag k="natural" v="hill" />
		<tag k="place" v="locality" />
		<tag k="ssr:stedsnr" v="948658" />
	</node>
	<node id="-451980" lat="60.3059444488" lon="6.3955916613">
		<tag k="name" v="Sjonarhaug" />
		<tag k="natural" v="hill" />
		<tag k="place" v="locality" />
		<tag k="ssr:stedsnr" v="948651" />
	</node>
	<node id="-451979" lat="60.3045166646" lon="6.3325944449">
		<tag k="name" v="Svarthamrane" />
		<tag k="natural" v="hill" />
		<tag k="place" v="locality" />
		<tag k="ssr:stedsnr" v="948648" />
	</node>
	<node id="-451977" lat="60.2576694414" lon="6.28898889136">
		<tag k="name" v="Stadrinden" />
		<tag k="place" v="locality" />
		<tag k="ssr:stedsnr" v="948617" />
	</node>
	<node id="-451976" lat="60.2700444455" lon="6.38765277432">
		<tag k="name" v="Sandhaugane" />
		<tag k="natural" v="hill" />
		<tag k="place" v="locality" />
		<tag k="ssr:stedsnr" v="948612" />
	</node>
	<node id="-451975" lat="60.2806833305" lon="6.38229721706">
		<tag k="name" v="Reset" />
		<tag k="place" v="locality" />
		<tag k="ssr:stedsnr" v="948607" />
	</node>
	<node id="-451974" lat="60.2706583371" lon="6.34751943712">
		<tag k="name" v="Neverhaug" />
		<tag k="natural" v="hill" />
		<tag k="place" v="locality" />
		<tag k="ssr:stedsnr" v="948604" />
	</node>
	<node id="-451973" lat="60.2656999968" lon="6.29469166284">
		<tag k="name" v="Tveitane" />
		<tag k="place" v="locality" />
		<tag k="ssr:stedsnr" v="948597" />
	</node>
	<node id="-451969" lat="60.1822527775" lon="6.13574166223">
		<tag k="name" v="Botnane" />
		<tag k="natural" v="valley" />
		<tag k="place" v="locality" />
		<tag k="ssr:stedsnr" v="948482" />
	</node>
	<node id="-451968" lat="60.3677790917" lon="6.42251731159">
		<tag k="name" v="Eikhaugen" />
		<tag k="natural" v="hill" />
		<tag k="place" v="locality" />
		<tag k="ssr:stedsnr" v="948105" />
	</node>
	<node id="-451967" lat="60.317861108" lon="6.4010222239">
		<tag k="name" v="Bjørndalane" />
		<tag k="natural" v="valley" />
		<tag k="place" v="locality" />
		<tag k="ssr:stedsnr" v="948104" />
	</node>
	<node id="-451966" lat="60.3212111068" lon="6.42446111414">
		<tag k="name" v="Husaleitet" />
		<tag k="natural" v="hill" />
		<tag k="place" v="locality" />
		<tag k="ssr:stedsnr" v="948099" />
	</node>
	<node id="-451964" lat="60.2457166686" lon="6.36330834142">
		<tag k="name" v="Nordli" />
		<tag k="natural" v="slope" />
		<tag k="place" v="locality" />
		<tag k="ssr:stedsnr" v="947800" />
	</node>
	<node id="-451961" lat="60.297419444" lon="6.34151667424">
		<tag k="name" v="Djupadalen" />
		<tag k="natural" v="valley" />
		<tag k="place" v="locality" />
		<tag k="ssr:stedsnr" v="916591" />
	</node>
	<node id="-451960" lat="60.2656666691" lon="6.24691111496">
		<tag k="name" v="Renndalen" />
		<tag k="natural" v="valley" />
		<tag k="place" v="locality" />
		<tag k="ssr:stedsnr" v="916517" />
	</node>
	<node id="-451958" lat="60.2941999984" lon="6.36516111235">
		<tag k="name" v="Kleberslii" />
		<tag k="natural" v="slope" />
		<tag k="place" v="locality" />
		<tag k="ssr:stedsnr" v="916475" />
	</node>
	<node id="-451955" lat="60.3460833337" lon="6.4370388975">
		<tag k="fixme" v="consider natural=peak for the most distinct mountains in the district" />
		<tag k="name" v="Grimenuten" />
		<tag k="natural" v="hill" />
		<tag k="place" v="locality" />
		<tag k="ssr:stedsnr" v="916111" />
	</node>
	<node id="-451951" lat="60.2968527784" lon="6.29466388578">
		<tag k="name" v="Tjørehallen" />
		<tag k="natural" v="valley" />
		<tag k="place" v="locality" />
		<tag k="ssr:stedsnr" v="916047" />
	</node>
	<node id="-451949" lat="60.3066083364" lon="6.35661111374">
		<tag k="name" v="Rundhaugen" />
		<tag k="natural" v="hill" />
		<tag k="place" v="locality" />
		<tag k="ssr:stedsnr" v="916030" />
	</node>
	<node id="-451945" lat="60.2159083349" lon="6.34676666985">
		<tag k="name" v="Sauaholene" />
		<tag k="natural" v="valley" />
		<tag k="place" v="locality" />
		<tag k="ssr:stedsnr" v="915842" />
	</node>
	<node id="-451944" lat="60.2096027763" lon="6.34863056133">
		<tag k="fixme" v="consider natural=peak for the most distinct mountains in the district" />
		<tag k="name" v="Såta" />
		<tag k="natural" v="hill" />
		<tag k="place" v="locality" />
		<tag k="ssr:stedsnr" v="915828" />
	</node>
	<node id="-451942" lat="60.2283888909" lon="6.28385555683">
		<tag k="name" v="Glomsdal" />
		<tag k="natural" v="valley" />
		<tag k="place" v="locality" />
		<tag k="ssr:stedsnr" v="915803" />
	</node>
	<node id="-451938" lat="60.1514666694" lon="6.13504167112">
		<tag k="name" v="Gråskoltane" />
		<tag k="natural" v="hill" />
		<tag k="place" v="locality" />
		<tag k="ssr:stedsnr" v="915588" />
	</node>
	<node id="-451937" lat="60.1492499998" lon="6.17727777311">
		<tag k="fixme" v="consider natural=peak for the most distinct mountains in the district" />
		<tag k="name" v="Botnafjellet" />
		<tag k="natural" v="hill" />
		<tag k="place" v="locality" />
		<tag k="ssr:stedsnr" v="915573" />
	</node>
	<node id="-451931" lat="60.2109444415" lon="6.19212500359">
		<tag k="name" v="Timberhaugen" />
		<tag k="natural" v="hill" />
		<tag k="place" v="locality" />
		<tag k="ssr:stedsnr" v="915493" />
	</node>
	<node id="-451926" lat="60.2996388897" lon="6.26629999722">
		<tag k="fixme" v="consider natural=peak for the most distinct mountains in the district" />
		<tag k="name" v="Furekammen" />
		<tag k="natural" v="hill" />
		<tag k="place" v="locality" />
		<tag k="ssr:stedsnr" v="915060" />
	</node>
	<node id="-451924" lat="60.3198277809" lon="6.35018055608">
		<tag k="name" v="Storevarden" />
		<tag k="natural" v="hill" />
		<tag k="place" v="locality" />
		<tag k="ssr:stedsnr" v="915029" />
	</node>
	<node id="-451921" lat="60.2240583374" lon="6.2676527835">
		<tag k="fixme" v="consider natural=peak for the most distinct mountains in the district" />
		<tag k="name" v="Helvetesnuten" />
		<tag k="natural" v="hill" />
		<tag k="place" v="locality" />
		<tag k="ssr:stedsnr" v="855850" />
	</node>
	<node id="-451920" lat="60.2530305544" lon="6.20791666737">
		<tag k="name" v="Furehaugen" />
		<tag k="natural" v="hill" />
		<tag k="place" v="locality" />
		<tag k="ssr:stedsnr" v="855567" />
	</node>
	<node id="-451918" lat="60.2801416701" lon="6.27057500425">
		<tag k="name" v="Teglhaugen" />
		<tag k="natural" v="hill" />
		<tag k="place" v="locality" />
		<tag k="ssr:stedsnr" v="855462" />
	</node>
	<node id="-451917" lat="60.279100004" lon="6.41118610444">
		<tag k="name" v="Kvannhaugen" />
		<tag k="natural" v="hill" />
		<tag k="place" v="locality" />
		<tag k="ssr:stedsnr" v="855454" />
	</node>
	<node id="-451916" lat="60.289250001" lon="6.41633611837">
		<tag k="name" v="Ekrehaugen" />
		<tag k="natural" v="hill" />
		<tag k="place" v="locality" />
		<tag k="ssr:stedsnr" v="855437" />
	</node>
	<node id="-451908" lat="60.3133333361" lon="6.47667499521">
		<tag k="fixme" v="consider natural=peak for the most distinct mountains in the district" />
		<tag k="name" v="Middagsnuten" />
		<tag k="natural" v="hill" />
		<tag k="place" v="locality" />
		<tag k="ssr:stedsnr" v="855045" />
	</node>
	<node id="-451907" lat="60.2935194421" lon="6.24138333519">
		<tag k="name" v="Furedokki" />
		<tag k="natural" v="slope" />
		<tag k="place" v="locality" />
		<tag k="ssr:stedsnr" v="855035" />
	</node>
	<node id="-451902" lat="60.140999999" lon="6.18272500184">
		<tag k="fixme" v="consider natural=peak for the most distinct mountains in the district" />
		<tag k="name" v="Horgi" />
		<tag k="natural" v="hill" />
		<tag k="place" v="locality" />
		<tag k="ssr:stedsnr" v="854892" />
	</node>
	<node id="-451900" lat="60.2219499979" lon="6.25723056243">
		<tag k="fixme" v="consider natural=peak for the most distinct mountains in the district" />
		<tag k="name" v="Helvetessvodene" />
		<tag k="natural" v="hill" />
		<tag k="place" v="locality" />
		<tag k="ssr:stedsnr" v="854797" />
	</node>
	<node id="-451898" lat="60.1561305557" lon="6.1997749911">
		<tag k="fixme" v="consider natural=peak for the most distinct mountains in the district" />
		<tag k="name" v="Tindafjell" />
		<tag k="natural" v="hill" />
		<tag k="place" v="locality" />
		<tag k="ssr:stedsnr" v="854601" />
	</node>
	<node id="-451893" lat="60.162033337" lon="6.11724999688">
		<tag k="name" v="Brunene" />
		<tag k="natural" v="hill" />
		<tag k="place" v="locality" />
		<tag k="ssr:stedsnr" v="854549" />
	</node>
	<node id="-451892" lat="60.1614750012" lon="6.12666944455">
		<tag k="name" v="Djupagilet" />
		<tag k="natural" v="valley" />
		<tag k="place" v="locality" />
		<tag k="ssr:stedsnr" v="854548" />
	</node>
	<node id="-451888" lat="60.335183336" lon="6.39984445244">
		<tag k="name" v="Middagsgjelet" />
		<tag k="place" v="locality" />
		<tag k="ssr:stedsnr" v="828861" />
	</node>
	<node id="-451887" lat="60.3383388886" lon="6.40342778553">
		<tag k="name" v="Grøtliled" />
		<tag k="place" v="locality" />
		<tag k="ssr:stedsnr" v="828856" />
	</node>
	<node id="-451886" lat="60.2782444414" lon="6.39292777852">
		<tag k="name" v="Håvarhaug" />
		<tag k="natural" v="hill" />
		<tag k="place" v="locality" />
		<tag k="ssr:stedsnr" v="828839" />
	</node>
	<node id="-451884" lat="60.3294666684" lon="6.39939999505">
		<tag k="name" v="Storespehaugen" />
		<tag k="natural" v="hill" />
		<tag k="place" v="locality" />
		<tag k="ssr:stedsnr" v="828811" />
	</node>
	<node id="-451882" lat="60.2737361098" lon="6.27000000826">
		<tag k="name" v="Hovhaug" />
		<tag k="natural" v="hill" />
		<tag k="place" v="locality" />
		<tag k="ssr:stedsnr" v="827765" />
	</node>
	<node id="-451881" lat="60.2688777744" lon="6.27426110553">
		<tag k="name" v="Kjeglefurahaugen" />
		<tag k="natural" v="hill" />
		<tag k="place" v="locality" />
		<tag k="ssr:stedsnr" v="827763" />
	</node>
	<node id="-451880" lat="60.2797666645" lon="6.28019166942">
		<tag k="name" v="Hovløysehammaren" />
		<tag k="natural" v="hill" />
		<tag k="place" v="locality" />
		<tag k="ssr:stedsnr" v="827747" />
	</node>
	<node id="-451879" lat="60.2386833307" lon="6.26440832478">
		<tag k="name" v="Geitshelrane" />
		<tag k="place" v="locality" />
		<tag k="ssr:stedsnr" v="827733" />
	</node>
	<node id="-451878" lat="60.2324055539" lon="6.2053500019">
		<tag k="name" v="Store Lauvåshaugen" />
		<tag k="natural" v="hill" />
		<tag k="place" v="locality" />
		<tag k="ssr:stedsnr" v="827721" />
	</node>
	<node id="-451877" lat="60.2311611132" lon="6.19669722696">
		<tag k="name" v="Knusa" />
		<tag k="place" v="locality" />
		<tag k="ssr:stedsnr" v="827714" />
	</node>
	<node id="-451875" lat="60.3477472214" lon="6.38390832603">
		<tag k="name" v="Storaberg" />
		<tag k="natural" v="hill" />
		<tag k="place" v="locality" />
		<tag k="ssr:stedsnr" v="827669" />
	</node>
	<node id="-451873" lat="60.2863999998" lon="6.34730277695">
		<tag k="name" v="Orregjelet" />
		<tag k="natural" v="gorge" />
		<tag k="ssr:stedsnr" v="827649" />
	</node>
	<node id="-451872" lat="60.3087749999" lon="6.3099777829">
		<tag k="name" v="Trongasmog" />
		<tag k="place" v="locality" />
		<tag k="ssr:stedsnr" v="827628" />
	</node>
	<node id="-451871" lat="60.3070194438" lon="6.29950000748">
		<tag k="name" v="Reikheller" />
		<tag k="place" v="locality" />
		<tag k="ssr:stedsnr" v="827629" />
	</node>
	<node id="-451869" lat="60.2481305581" lon="6.3028250015">
		<tag k="name" v="Andverena" />
		<tag k="place" v="locality" />
		<tag k="ssr:stedsnr" v="827611" />
	</node>
	<node id="-451868" lat="60.2620472203" lon="6.32133611135">
		<tag k="name" v="Hodn" />
		<tag k="natural" v="hill" />
		<tag k="place" v="locality" />
		<tag k="ssr:stedsnr" v="827599" />
	</node>
	<node id="-451867" lat="60.2554472265" lon="6.28813333649">
		<tag k="name" v="Perskorane" />
		<tag k="natural" v="valley" />
		<tag k="place" v="locality" />
		<tag k="ssr:stedsnr" v="827596" />
	</node>
	<node id="-451866" lat="60.2652972184" lon="6.30554721879">
		<tag k="name" v="Fogerli" />
		<tag k="natural" v="slope" />
		<tag k="place" v="locality" />
		<tag k="ssr:stedsnr" v="827569" />
	</node>
	<node id="-451865" lat="60.2336555586" lon="6.32465832714">
		<tag k="name" v="Botnane" />
		<tag k="natural" v="valley" />
		<tag k="place" v="locality" />
		<tag k="ssr:stedsnr" v="827549" />
	</node>
	<node id="-451864" lat="60.14471389" lon="6.1587194529">
		<tag k="name" v="Orrheiane" />
		<tag k="natural" v="hill" />
		<tag k="place" v="locality" />
		<tag k="ssr:stedsnr" v="827506" />
	</node>
	<node id="-451862" lat="60.1636027809" lon="6.12669443787">
		<tag k="name" v="Storemyrskamben" />
		<tag k="natural" v="ridge" />
		<tag k="place" v="locality" />
		<tag k="ssr:stedsnr" v="827475" />
	</node>
	<node id="-451861" lat="60.1852916634" lon="6.11313055217">
		<tag k="name" v="Fureskorane" />
		<tag k="natural" v="valley" />
		<tag k="place" v="locality" />
		<tag k="ssr:stedsnr" v="827473" />
	</node>
	<node id="-451858" lat="60.1334111104" lon="6.17323055498">
		<tag k="fixme" v="consider natural=peak for the most distinct mountains in the district" />
		<tag k="name" v="Bruskorfjellet" />
		<tag k="natural" v="hill" />
		<tag k="place" v="locality" />
		<tag k="ssr:stedsnr" v="794869" />
	</node>
	<node id="-451857" lat="60.2118638922" lon="6.33398888334">
		<tag k="name" v="Soleiebakkane" />
		<tag k="natural" v="slope" />
		<tag k="place" v="locality" />
		<tag k="ssr:stedsnr" v="794825" />
	</node>
	<node id="-451854" lat="60.1943694445" lon="6.12179166629">
		<tag k="name" v="Langedalen" />
		<tag k="natural" v="valley" />
		<tag k="place" v="locality" />
		<tag k="ssr:stedsnr" v="794555" />
	</node>
	<node id="-451851" lat="60.2645166622" lon="6.25518332782">
		<tag k="fixme" v="consider natural=peak for the most distinct mountains in the district" />
		<tag k="name" v="Skjeggafjellet" />
		<tag k="natural" v="hill" />
		<tag k="place" v="locality" />
		<tag k="ssr:stedsnr" v="794476" />
	</node>
	<node id="-451850" lat="60.2698277815" lon="6.29371389626">
		<tag k="name" v="Hals" />
		<tag k="natural" v="hill" />
		<tag k="place" v="locality" />
		<tag k="ssr:stedsnr" v="794473" />
	</node>
	<node id="-451848" lat="60.2785305581" lon="6.28488889623">
		<tag k="name" v="Furehaugane" />
		<tag k="natural" v="hill" />
		<tag k="place" v="locality" />
		<tag k="ssr:stedsnr" v="794458" />
	</node>
	<node id="-451846" lat="60.2815027751" lon="6.31838332702">
		<tag k="alt_name" v="Krossdalen, nedre" />
		<tag k="name" v="Nedre Krossdalen" />
		<tag k="natural" v="valley" />
		<tag k="place" v="locality" />
		<tag k="ssr:stedsnr" v="794447" />
	</node>
	<node id="-451845" lat="60.2926916671" lon="6.37253888864">
		<tag k="name" v="Vassendskori" />
		<tag k="natural" v="valley" />
		<tag k="place" v="locality" />
		<tag k="ssr:stedsnr" v="794431" />
	</node>
	<node id="-451844" lat="60.2826611156" lon="6.2492138905">
		<tag k="name" v="Kolaskardhaugen" />
		<tag k="natural" v="hill" />
		<tag k="place" v="locality" />
		<tag k="ssr:stedsnr" v="794426" />
	</node>
	<node id="-451842" lat="60.2875083304" lon="6.25875555214">
		<tag k="name" v="Husanotten" />
		<tag k="natural" v="hill" />
		<tag k="place" v="locality" />
		<tag k="ssr:stedsnr" v="794425" />
	</node>
	<node id="-451841" lat="60.2582249971" lon="6.40459166166">
		<tag k="name" v="Skori" />
		<tag k="natural" v="valley" />
		<tag k="place" v="locality" />
		<tag k="ssr:stedsnr" v="794372" />
	</node>
	<node id="-451840" lat="60.2671194444" lon="6.38502499858">
		<tag k="name" v="Stolshaugen" />
		<tag k="natural" v="hill" />
		<tag k="place" v="locality" />
		<tag k="ssr:stedsnr" v="794360" />
	</node>
	<node id="-451839" lat="60.353725" lon="6.4060499918">
		<tag k="name" v="Løypehaugen" />
		<tag k="natural" v="hill" />
		<tag k="place" v="locality" />
		<tag k="ssr:stedsnr" v="794122" />
	</node>
	<node id="-451838" lat="60.351188886" lon="6.42395000893">
		<tag k="name" v="Grimoksli" />
		<tag k="natural" v="slope" />
		<tag k="place" v="locality" />
		<tag k="ssr:stedsnr" v="794123" />
	</node>
	<node id="-451834" lat="60.3475388852" lon="6.52953888219">
		<tag k="fixme" v="consider natural=peak for the most distinct mountains in the district" />
		<tag k="name" v="Ruklehaugnuten" />
		<tag k="natural" v="hill" />
		<tag k="place" v="locality" />
		<tag k="ssr:stedsnr" v="794100" />
	</node>
	<node id="-451832" lat="60.2963305531" lon="6.30882500029">
		<tag k="name" v="Krosstuvdalen" />
		<tag k="natural" v="valley" />
		<tag k="place" v="locality" />
		<tag k="ssr:stedsnr" v="794050" />
	</node>
	<node id="-451831" lat="60.3167750009" lon="6.45201389406">
		<tag k="name" v="Tjørndalen" />
		<tag k="natural" v="valley" />
		<tag k="place" v="locality" />
		<tag k="ssr:stedsnr" v="794042" />
	</node>
	<node id="-451829" lat="60.3192999974" lon="6.32633333628">
		<tag k="name" v="Hals" />
		<tag k="natural" v="hill" />
		<tag k="place" v="locality" />
		<tag k="ssr:stedsnr" v="794026" />
	</node>
	<node id="-451828" lat="60.3340750004" lon="6.41440555939">
		<tag k="name" v="Koloftehaugen" />
		<tag k="natural" v="hill" />
		<tag k="place" v="locality" />
		<tag k="ssr:stedsnr" v="794018" />
	</node>
	<node id="-451817" lat="60.1496666655" lon="6.12444444761">
		<tag k="name" v="Bjørgene" />
		<tag k="natural" v="slope" />
		<tag k="place" v="locality" />
		<tag k="ssr:stedsnr" v="771467" />
	</node>
	<node id="-451816" lat="60.2302416664" lon="6.27588889548">
		<tag k="fixme" v="consider natural=peak for the most distinct mountains in the district" />
		<tag k="name" v="Stovena" />
		<tag k="natural" v="hill" />
		<tag k="place" v="locality" />
		<tag k="ssr:stedsnr" v="767790" />
	</node>
	<node id="-451815" lat="60.2233722233" lon="6.29053889481">
		<tag k="name" v="Reppa" />
		<tag k="place" v="locality" />
		<tag k="ssr:stedsnr" v="767783" />
	</node>
	<node id="-451814" lat="60.3195527807" lon="6.38748056254">
		<tag k="name" v="Øvre Dåraleitet" />
		<tag k="natural" v="slope" />
		<tag k="place" v="locality" />
		<tag k="ssr:stedsnr" v="766849" />
	</node>
	<node id="-451813" lat="60.2958194437" lon="6.28025832776">
		<tag k="name" v="Hermannshjallen" />
		<tag k="place" v="locality" />
		<tag k="ssr:stedsnr" v="766845" />
	</node>
	<node id="-451812" lat="60.3489611145" lon="6.42087222571">
		<tag k="name" v="Grimelii" />
		<tag k="natural" v="slope" />
		<tag k="place" v="locality" />
		<tag k="ssr:stedsnr" v="766834" />
	</node>
	<node id="-451811" lat="60.2993833354" lon="6.26907499949">
		<tag k="name" v="Kvelvet" />
		<tag k="natural" v="hill" />
		<tag k="place" v="locality" />
		<tag k="ssr:stedsnr" v="766781" />
	</node>
	<node id="-451807" lat="60.2486805534" lon="6.21107777692">
		<tag k="name" v="Skori" />
		<tag k="natural" v="valley" />
		<tag k="place" v="locality" />
		<tag k="ssr:stedsnr" v="766729" />
	</node>
	<node id="-451804" lat="60.2354833355" lon="6.20421944984">
		<tag k="name" v="Lunderdalshaugane" />
		<tag k="natural" v="hill" />
		<tag k="place" v="locality" />
		<tag k="ssr:stedsnr" v="766701" />
	</node>
	<node id="-451803" lat="60.2350527795" lon="6.20023055652">
		<tag k="name" v="Smalaskarvet" />
		<tag k="natural" v="valley" />
		<tag k="place" v="locality" />
		<tag k="ssr:stedsnr" v="766698" />
	</node>
	<node id="-451800" lat="60.347663885" lon="6.39699165961">
		<tag k="name" v="Eikhaugen" />
		<tag k="natural" v="hill" />
		<tag k="place" v="locality" />
		<tag k="ssr:stedsnr" v="766643" />
	</node>
	<node id="-451798" lat="60.2854138847" lon="6.36462778121">
		<tag k="name" v="Storskor" />
		<tag k="natural" v="valley" />
		<tag k="place" v="locality" />
		<tag k="ssr:stedsnr" v="766623" />
	</node>
	<node id="-451795" lat="60.2954111149" lon="6.38893888689">
		<tag k="fixme" v="consider natural=peak for the most distinct mountains in the district" />
		<tag k="name" v="Grånut" />
		<tag k="natural" v="hill" />
		<tag k="ssr:stedsnr" v="766598" />
	</node>
	<node id="-451789" lat="60.2594083343" lon="6.28755833144">
		<tag k="name" v="Knutskorane" />
		<tag k="natural" v="valley" />
		<tag k="place" v="locality" />
		<tag k="ssr:stedsnr" v="766552" />
	</node>
	<node id="-451788" lat="60.1219805534" lon="6.17721389509">
		<tag k="name" v="Dyrshei" />
		<tag k="natural" v="hill" />
		<tag k="place" v="locality" />
		<tag k="ssr:stedsnr" v="766360" />
	</node>
	<node id="-451785" lat="60.2520611073" lon="6.41633611794">
		<tag k="name" v="Utom skori" />
		<tag k="natural" v="valley" />
		<tag k="place" v="locality" />
		<tag k="ssr:stedsnr" v="766059" />
	</node>
	<node id="-451782" lat="60.2666416633" lon="6.37053611293">
		<tag k="name" v="Storhellerbrekkena" />
		<tag k="natural" v="slope" />
		<tag k="place" v="locality" />
		<tag k="ssr:stedsnr" v="766548" />
	</node>
	<node id="-451781" lat="60.2805777817" lon="6.38886111937">
		<tag k="name" v="Gjelet" />
		<tag k="natural" v="gorge" />
		<tag k="ssr:stedsnr" v="766544" />
	</node>
	<node id="-451780" lat="60.2829250007" lon="6.32314443613">
		<tag k="name" v="Kvilehaug" />
		<tag k="natural" v="hill" />
		<tag k="place" v="locality" />
		<tag k="ssr:stedsnr" v="766523" />
	</node>
	<node id="-451779" lat="60.2351055565" lon="6.3001805619">
		<tag k="name" v="Slaget" />
		<tag k="place" v="locality" />
		<tag k="ssr:stedsnr" v="766514" />
	</node>
	<node id="-451778" lat="60.2767027784" lon="6.42069167171">
		<tag k="name" v="Bordmyrdalen" />
		<tag k="natural" v="valley" />
		<tag k="place" v="locality" />
		<tag k="ssr:stedsnr" v="734553" />
	</node>
	<node id="-451777" lat="60.2725833308" lon="6.23761388961">
		<tag k="name" v="Krokshaugen" />
		<tag k="natural" v="hill" />
		<tag k="place" v="locality" />
		<tag k="ssr:stedsnr" v="734532" />
	</node>
	<node id="-451776" lat="60.2721250009" lon="6.26040554996">
		<tag k="name" v="Kvitaberg" />
		<tag k="natural" v="hill" />
		<tag k="place" v="locality" />
		<tag k="ssr:stedsnr" v="734528" />
	</node>
	<node id="-451771" lat="60.255958332" lon="6.26276944325">
		<tag k="name" v="Småheiane" />
		<tag k="natural" v="hill" />
		<tag k="place" v="locality" />
		<tag k="ssr:stedsnr" v="734416" />
	</node>
	<node id="-451763" lat="60.2030055529" lon="6.25621110494">
		<tag k="fixme" v="consider natural=peak for the most distinct mountains in the district" />
		<tag k="name" v="Kufjellshorga" />
		<tag k="natural" v="hill" />
		<tag k="place" v="locality" />
		<tag k="ssr:stedsnr" v="733822" />
	</node>
	<node id="-451762" lat="60.2472111112" lon="6.24159444658">
		<tag k="fixme" v="consider natural=peak for the most distinct mountains in the district" />
		<tag k="name" v="Tungenuten" />
		<tag k="natural" v="hill" />
		<tag k="place" v="locality" />
		<tag k="ssr:stedsnr" v="733766" />
	</node>
	<node id="-451760" lat="60.1532388914" lon="6.18421666379">
		<tag k="name" v="Årsandsdalen" />
		<tag k="natural" v="valley" />
		<tag k="place" v="locality" />
		<tag k="ssr:stedsnr" v="733585" />
	</node>
	<node id="-451756" lat="60.2046250016" lon="6.21616388925">
		<tag k="fixme" v="consider natural=peak for the most distinct mountains in the district" />
		<tag k="name" v="Daurmålsnuten" />
		<tag k="natural" v="hill" />
		<tag k="place" v="locality" />
		<tag k="ssr:stedsnr" v="733518" />
	</node>
	<node id="-451754" lat="60.2145055535" lon="6.21482499639">
		<tag k="name" v="Nova" />
		<tag k="natural" v="hill" />
		<tag k="place" v="locality" />
		<tag k="ssr:stedsnr" v="733474" />
	</node>
	<node id="-451748" lat="60.3340638859" lon="6.44539165972">
		<tag k="fixme" v="consider natural=peak for the most distinct mountains in the district" />
		<tag k="name" v="Såta" />
		<tag k="natural" v="hill" />
		<tag k="place" v="locality" />
		<tag k="ssr:stedsnr" v="733031" />
	</node>
	<node id="-451747" lat="60.308861108" lon="6.32693334142">
		<tag k="name" v="Ranshaugen" />
		<tag k="natural" v="hill" />
		<tag k="place" v="locality" />
		<tag k="ssr:stedsnr" v="733019" />
	</node>
	<node id="-451746" lat="60.3115583343" lon="6.32706665914">
		<tag k="name" v="Storhaugen" />
		<tag k="natural" v="hill" />
		<tag k="place" v="locality" />
		<tag k="ssr:stedsnr" v="733017" />
	</node>
	<node id="-451745" lat="60.3262277758" lon="6.39473888407">
		<tag k="name" v="Reishellarhaugen" />
		<tag k="natural" v="hill" />
		<tag k="place" v="locality" />
		<tag k="ssr:stedsnr" v="733008" />
	</node>
	<node id="-451744" lat="60.3274500016" lon="6.41003888344">
		<tag k="fixme" v="consider natural=peak for the most distinct mountains in the district" />
		<tag k="name" v="Havåsen" />
		<tag k="natural" v="hill" />
		<tag k="place" v="locality" />
		<tag k="ssr:stedsnr" v="733006" />
	</node>
	<node id="-451737" lat="60.3526861124" lon="6.40244443885">
		<tag k="name" v="Kjællhamar" />
		<tag k="natural" v="hill" />
		<tag k="place" v="locality" />
		<tag k="ssr:stedsnr" v="706809" />
	</node>
	<node id="-451736" lat="60.2386722224" lon="6.29333889519">
		<tag k="name" v="Hjallane" />
		<tag k="place" v="locality" />
		<tag k="ssr:stedsnr" v="706731" />
	</node>
	<node id="-451735" lat="60.2893388851" lon="6.24589721741">
		<tag k="name" v="Fuglaskor" />
		<tag k="natural" v="valley" />
		<tag k="place" v="locality" />
		<tag k="ssr:stedsnr" v="706724" />
	</node>
	<node id="-451734" lat="60.2558694454" lon="6.21292777958">
		<tag k="name" v="Skiftesgjel" />
		<tag k="natural" v="gorge" />
		<tag k="ssr:stedsnr" v="706700" />
	</node>
	<node id="-451733" lat="60.2469749963" lon="6.20995834163">
		<tag k="name" v="Saltkjelsgjelet" />
		<tag k="natural" v="gorge" />
		<tag k="ssr:stedsnr" v="706684" />
	</node>
	<node id="-451732" lat="60.2813555545" lon="6.27193056458">
		<tag k="name" v="Moldbakken" />
		<tag k="natural" v="slope" />
		<tag k="place" v="locality" />
		<tag k="ssr:stedsnr" v="706666" />
	</node>
	<node id="-451729" lat="60.2385416703" lon="6.27768332906">
		<tag k="name" v="Leitet" />
		<tag k="natural" v="slope" />
		<tag k="place" v="locality" />
		<tag k="ssr:stedsnr" v="706649" />
	</node>
	<node id="-451725" lat="60.1914972222" lon="6.10635278454">
		<tag k="name" v="Uradalen" />
		<tag k="natural" v="valley" />
		<tag k="place" v="locality" />
		<tag k="ssr:stedsnr" v="706599" />
	</node>
	<node id="-451724" lat="60.203686107" lon="6.12717776991">
		<tag k="name" v="Grasdalsberget" />
		<tag k="natural" v="hill" />
		<tag k="place" v="locality" />
		<tag k="ssr:stedsnr" v="706588" />
	</node>
	<node id="-451722" lat="60.2546000021" lon="6.35031666423">
		<tag k="name" v="Matli" />
		<tag k="natural" v="slope" />
		<tag k="place" v="locality" />
		<tag k="ssr:stedsnr" v="705848" />
	</node>
	<node id="-451721" lat="60.3495305521" lon="6.38445000742">
		<tag k="name" v="Solhaug" />
		<tag k="natural" v="hill" />
		<tag k="place" v="locality" />
		<tag k="ssr:stedsnr" v="705693" />
	</node>
	<node id="-451720" lat="60.3612111143" lon="6.3560694362">
		<tag k="name" v="Botnane" />
		<tag k="natural" v="valley" />
		<tag k="place" v="locality" />
		<tag k="ssr:stedsnr" v="705689" />
	</node>
	<node id="-451719" lat="60.3661611108" lon="6.35005833325">
		<tag k="name" v="Vasselteigen" />
		<tag k="place" v="locality" />
		<tag k="ssr:stedsnr" v="705685" />
	</node>
	<node id="-451718" lat="60.2861194406" lon="6.35920554802">
		<tag k="name" v="Stølshaug" />
		<tag k="natural" v="hill" />
		<tag k="place" v="locality" />
		<tag k="ssr:stedsnr" v="705679" />
	</node>
	<node id="-451716" lat="60.292019449" lon="6.3511527804">
		<tag k="name" v="Smalabrukleivane" />
		<tag k="natural" v="slope" />
		<tag k="place" v="locality" />
		<tag k="ssr:stedsnr" v="705664" />
	</node>
	<node id="-451715" lat="60.2932361101" lon="6.37802222798">
		<tag k="name" v="Vassendeskori" />
		<tag k="natural" v="valley" />
		<tag k="place" v="locality" />
		<tag k="ssr:stedsnr" v="705660" />
	</node>
	<node id="-451714" lat="60.2441749961" lon="6.30597221734">
		<tag k="name" v="Storaskarhaugen" />
		<tag k="natural" v="hill" />
		<tag k="place" v="locality" />
		<tag k="ssr:stedsnr" v="705633" />
	</node>
	<node id="-451713" lat="60.2288277815" lon="6.31607778524">
		<tag k="name" v="Kjerringaskar" />
		<tag k="natural" v="valley" />
		<tag k="place" v="locality" />
		<tag k="ssr:stedsnr" v="705577" />
	</node>
	<node id="-451712" lat="60.1333055594" lon="6.18972499742">
		<tag k="fixme" v="consider natural=peak for the most distinct mountains in the district" />
		<tag k="name" v="Pyttafjell" />
		<tag k="natural" v="hill" />
		<tag k="place" v="locality" />
		<tag k="ssr:stedsnr" v="705417" />
	</node>
	<node id="-451711" lat="60.1189611145" lon="6.1729638918">
		<tag k="fixme" v="consider natural=peak for the most distinct mountains in the district" />
		<tag k="name" v="Såta" />
		<tag k="natural" v="hill" />
		<tag k="ssr:stedsnr" v="705397" />
	</node>
	<node id="-451709" lat="60.351255556" lon="6.45056388467">
		<tag k="fixme" v="consider natural=peak for the most distinct mountains in the district" />
		<tag k="name" v="Stavdalsnut" />
		<tag k="natural" v="hill" />
		<tag k="ssr:stedsnr" v="705117" />
	</node>
	<node id="-451707" lat="60.3388222245" lon="6.38091945166">
		<tag k="name" v="Kalvagjerdet" />
		<tag k="place" v="locality" />
		<tag k="ssr:stedsnr" v="705084" />
	</node>
	<node id="-451704" lat="60.1721722192" lon="6.13633333647">
		<tag k="name" v="Langebotnen" />
		<tag k="natural" v="valley" />
		<tag k="place" v="locality" />
		<tag k="ssr:stedsnr" v="705509" />
	</node>
	<node id="-451703" lat="60.1665027767" lon="6.12211666292">
		<tag k="name" v="Furekamben" />
		<tag k="natural" v="ridge" />
		<tag k="place" v="locality" />
		<tag k="ssr:stedsnr" v="705506" />
	</node>
	<node id="-451702" lat="60.2982777779" lon="6.358750003">
		<tag k="name" v="Lyingahaugen" />
		<tag k="natural" v="hill" />
		<tag k="place" v="locality" />
		<tag k="ssr:stedsnr" v="673576" />
	</node>
	<node id="-451701" lat="60.2759861097" lon="6.36454999867">
		<tag k="name" v="Gjætingshaugen" />
		<tag k="natural" v="hill" />
		<tag k="place" v="locality" />
		<tag k="ssr:stedsnr" v="673489" />
	</node>
	<node id="-451700" lat="60.2908250042" lon="6.4280833364">
		<tag k="name" v="Søthaugane" />
		<tag k="natural" v="hill" />
		<tag k="place" v="locality" />
		<tag k="ssr:stedsnr" v="673470" />
	</node>
	<node id="-451695" lat="60.2916527802" lon="6.29527499662">
		<tag k="fixme" v="consider natural=peak for the most distinct mountains in the district" />
		<tag k="name" v="Tofjellet" />
		<tag k="natural" v="hill" />
		<tag k="place" v="locality" />
		<tag k="ssr:stedsnr" v="673050" />
	</node>
	<node id="-451694" lat="60.3096500008" lon="6.42051944238">
		<tag k="fixme" v="consider natural=peak for the most distinct mountains in the district" />
		<tag k="name" v="Vasslifjellet" />
		<tag k="natural" v="hill" />
		<tag k="place" v="locality" />
		<tag k="ssr:stedsnr" v="673039" />
	</node>
	<node id="-451693" lat="60.1369361138" lon="6.19917500209">
		<tag k="fixme" v="consider natural=peak for the most distinct mountains in the district" />
		<tag k="name" v="Fagerlifjellet" />
		<tag k="natural" v="hill" />
		<tag k="place" v="locality" />
		<tag k="ssr:stedsnr" v="672897" />
	</node>
	<node id="-451691" lat="60.1280083336" lon="6.18752499378">
		<tag k="name" v="Bjørkhaug" />
		<tag k="natural" v="hill" />
		<tag k="place" v="locality" />
		<tag k="ssr:stedsnr" v="672877" />
	</node>
	<node id="-451690" lat="60.2189500034" lon="6.3345305547">
		<tag k="name" v="Kvanndal" />
		<tag k="natural" v="valley" />
		<tag k="place" v="locality" />
		<tag k="ssr:stedsnr" v="672832" />
	</node>
	<node id="-451689" lat="60.2151861137" lon="6.26435000624">
		<tag k="fixme" v="consider natural=peak for the most distinct mountains in the district" />
		<tag k="name" v="Gråheivarden" />
		<tag k="natural" v="hill" />
		<tag k="place" v="locality" />
		<tag k="ssr:stedsnr" v="672825" />
	</node>
	<node id="-451684" lat="60.1708194461" lon="6.14843056041">
		<tag k="name" v="Såta" />
		<tag k="natural" v="hill" />
		<tag k="place" v="locality" />
		<tag k="ssr:stedsnr" v="672555" />
	</node>
	<node id="-451682" lat="60.2024361123" lon="6.14958611922">
		<tag k="fixme" v="consider natural=peak for the most distinct mountains in the district" />
		<tag k="name" v="Horgene" />
		<tag k="natural" v="hill" />
		<tag k="place" v="locality" />
		<tag k="ssr:stedsnr" v="672514" />
	</node>
	<node id="-451681" lat="60.1813555519" lon="6.18056389302">
		<tag k="fixme" v="consider natural=peak for the most distinct mountains in the district" />
		<tag k="name" v="Ljosavasshorga" />
		<tag k="natural" v="hill" />
		<tag k="place" v="locality" />
		<tag k="ssr:stedsnr" v="672505" />
	</node>
	<node id="-451680" lat="60.2161249965" lon="6.18718333265">
		<tag k="name" v="Ørnareirskulten" />
		<tag k="natural" v="hill" />
		<tag k="place" v="locality" />
		<tag k="ssr:stedsnr" v="672492" />
	</node>
	<node id="-451678" lat="60.2164055591" lon="6.13336665831">
		<tag k="name" v="Storehillerane" />
		<tag k="natural" v="hill" />
		<tag k="place" v="locality" />
		<tag k="ssr:stedsnr" v="672483" />
	</node>
	<node id="-451676" lat="60.2661416704" lon="6.43257778336">
		<tag k="fixme" v="consider natural=peak for the most distinct mountains in the district" />
		<tag k="name" v="Saksaklepp" />
		<tag k="natural" v="hill" />
		<tag k="place" v="locality" />
		<tag k="ssr:stedsnr" v="672371" />
	</node>
	<node id="-451674" lat="60.252725004" lon="6.37894444886">
		<tag k="fixme" v="consider natural=peak for the most distinct mountains in the district" />
		<tag k="name" v="Storafjellet" />
		<tag k="natural" v="hill" />
		<tag k="place" v="locality" />
		<tag k="ssr:stedsnr" v="672365" />
	</node>
	<node id="-451670" lat="60.3296555515" lon="6.36998610883">
		<tag k="fixme" v="consider natural=peak for the most distinct mountains in the district" />
		<tag k="name" v="Varden" />
		<tag k="natural" v="hill" />
		<tag k="place" v="locality" />
		<tag k="ssr:stedsnr" v="672015" />
	</node>
	<node id="-451661" lat="60.2933944423" lon="6.30101945017">
		<tag k="name" v="Hestabekkskaret" />
		<tag k="natural" v="valley" />
		<tag k="place" v="locality" />
		<tag k="ssr:stedsnr" v="645830" />
	</node>
	<node id="-451660" lat="60.290986112" lon="6.27793611286">
		<tag k="name" v="Røndalsklypet" />
		<tag k="place" v="locality" />
		<tag k="ssr:stedsnr" v="645719" />
	</node>
	<node id="-451659" lat="60.2434777741" lon="6.21139443846">
		<tag k="name" v="Gadden" />
		<tag k="place" v="locality" />
		<tag k="ssr:stedsnr" v="645686" />
	</node>
	<node id="-451658" lat="60.2466027813" lon="6.20646944395">
		<tag k="name" v="Sjøskarane" />
		<tag k="natural" v="valley" />
		<tag k="place" v="locality" />
		<tag k="ssr:stedsnr" v="645681" />
	</node>
	<node id="-451656" lat="60.2729194421" lon="6.24695833892">
		<tag k="name" v="Nonshaug" />
		<tag k="natural" v="hill" />
		<tag k="place" v="locality" />
		<tag k="ssr:stedsnr" v="645662" />
	</node>
	<node id="-451655" lat="60.233388886" lon="6.23012499314">
		<tag k="name" v="Maristeinslii" />
		<tag k="natural" v="slope" />
		<tag k="place" v="locality" />
		<tag k="ssr:stedsnr" v="645644" />
	</node>
	<node id="-451650" lat="60.1845166697" lon="6.14581944125">
		<tag k="name" v="Såtedalen" />
		<tag k="natural" v="valley" />
		<tag k="place" v="locality" />
		<tag k="ssr:stedsnr" v="644854" />
	</node>
	<node id="-451645" lat="60.2989111081" lon="6.35579166541">
		<tag k="name" v="Nygardsrustena" />
		<tag k="place" v="locality" />
		<tag k="ssr:stedsnr" v="644625" />
	</node>
	<node id="-451643" lat="60.2461821039" lon="6.31825537202">
		<tag k="name" v="Staberget" />
		<tag k="natural" v="hill" />
		<tag k="place" v="locality" />
		<tag k="ssr:stedsnr" v="644604" />
	</node>
	<node id="-451642" lat="60.2443805536" lon="6.31121944538">
		<tag k="name" v="Middagshaugane" />
		<tag k="natural" v="hill" />
		<tag k="place" v="locality" />
		<tag k="ssr:stedsnr" v="644595" />
	</node>
	<node id="-451641" lat="60.2721138849" lon="6.39253333176">
		<tag k="name" v="Brekkena" />
		<tag k="natural" v="slope" />
		<tag k="place" v="locality" />
		<tag k="ssr:stedsnr" v="644582" />
	</node>
	<node id="-451640" lat="60.2739083319" lon="6.3857611075">
		<tag k="name" v="Drevet" />
		<tag k="place" v="locality" />
		<tag k="ssr:stedsnr" v="644580" />
	</node>
	<node id="-451639" lat="60.2828388903" lon="6.3797388973">
		<tag k="fixme" v="consider natural=peak for the most distinct mountains in the district" />
		<tag k="name" v="Gråskallen" />
		<tag k="natural" v="hill" />
		<tag k="ssr:stedsnr" v="644576" />
	</node>
	<node id="-451638" lat="60.2352083339" lon="6.28661111026">
		<tag k="name" v="Tverrbrekkena" />
		<tag k="natural" v="slope" />
		<tag k="place" v="locality" />
		<tag k="ssr:stedsnr" v="644550" />
	</node>
	<node id="-451637" lat="60.144525002" lon="6.15173054752">
		<tag k="name" v="Kvilebrotet" />
		<tag k="natural" v="hill" />
		<tag k="place" v="locality" />
		<tag k="ssr:stedsnr" v="644496" />
	</node>
	<node id="-451633" lat="60.1728138873" lon="6.11890555007">
		<tag k="name" v="Furehaugen" />
		<tag k="natural" v="hill" />
		<tag k="place" v="locality" />
		<tag k="ssr:stedsnr" v="644464" />
	</node>
	<node id="-451624" lat="60.310374996" lon="6.37220555647">
		<tag k="name" v="Storhaugen" />
		<tag k="natural" v="hill" />
		<tag k="place" v="locality" />
		<tag k="ssr:stedsnr" v="612587" />
	</node>
	<node id="-451623" lat="60.2692777821" lon="6.29813333874">
		<tag k="name" v="Nonsnipen" />
		<tag k="natural" v="hill" />
		<tag k="place" v="locality" />
		<tag k="ssr:stedsnr" v="612513" />
	</node>
	<node id="-451622" lat="60.2779749968" lon="6.27334167534">
		<tag k="name" v="Brunene" />
		<tag k="place" v="locality" />
		<tag k="ssr:stedsnr" v="612508" />
	</node>
	<node id="-451621" lat="60.2777083299" lon="6.308438888">
		<tag k="name" v="Katlabergdalen" />
		<tag k="natural" v="valley" />
		<tag k="place" v="locality" />
		<tag k="ssr:stedsnr" v="612506" />
	</node>
	<node id="-451619" lat="60.2880555596" lon="6.38928888624">
		<tag k="name" v="Dammane" />
		<tag k="natural" v="slope" />
		<tag k="place" v="locality" />
		<tag k="ssr:stedsnr" v="612489" />
	</node>
	<node id="-451618" lat="60.2879194409" lon="6.36011111233">
		<tag k="name" v="Mørkalii" />
		<tag k="natural" v="slope" />
		<tag k="place" v="locality" />
		<tag k="ssr:stedsnr" v="612487" />
	</node>
	<node id="-451615" lat="60.2920361143" lon="6.39535834206">
		<tag k="fixme" v="consider natural=peak for the most distinct mountains in the district" />
		<tag k="name" v="Skoltane" />
		<tag k="natural" v="hill" />
		<tag k="place" v="locality" />
		<tag k="ssr:stedsnr" v="612474" />
	</node>
	<node id="-451607" lat="60.3120444408" lon="6.38015000289">
		<tag k="name" v="Kvamshaugen" />
		<tag k="natural" v="hill" />
		<tag k="place" v="locality" />
		<tag k="ssr:stedsnr" v="612060" />
	</node>
	<node id="-451603" lat="60.234227779" lon="6.34768611604">
		<tag k="fixme" v="consider natural=peak for the most distinct mountains in the district" />
		<tag k="name" v="Mysenuten" />
		<tag k="natural" v="hill" />
		<tag k="place" v="locality" />
		<tag k="ssr:stedsnr" v="611822" />
	</node>
	<node id="-451601" lat="60.1571111069" lon="6.16140833708">
		<tag k="name" v="Breidaskardet" />
		<tag k="natural" v="valley" />
		<tag k="place" v="locality" />
		<tag k="ssr:stedsnr" v="611626" />
	</node>
	<node id="-451600" lat="60.1758416699" lon="6.11434167307">
		<tag k="name" v="Nuten" />
		<tag k="natural" v="hill" />
		<tag k="place" v="locality" />
		<tag k="ssr:stedsnr" v="611583" />
	</node>
	<node id="-451599" lat="60.1603055596" lon="6.17681388664">
		<tag k="name" v="Tjørnaskard" />
		<tag k="natural" v="valley" />
		<tag k="place" v="locality" />
		<tag k="ssr:stedsnr" v="611575" />
	</node>
	<node id="-451596" lat="60.2014444486" lon="6.17508333037">
		<tag k="fixme" v="consider natural=peak for the most distinct mountains in the district" />
		<tag k="name" v="Middagsnuten" />
		<tag k="natural" v="hill" />
		<tag k="place" v="locality" />
		<tag k="ssr:stedsnr" v="611558" />
	</node>
	<node id="-451594" lat="60.1855750038" lon="6.10290000488">
		<tag k="name" v="Ramnaberg" />
		<tag k="natural" v="hill" />
		<tag k="place" v="locality" />
		<tag k="ssr:stedsnr" v="611551" />
	</node>
	<node id="-451591" lat="60.3180388867" lon="6.33799166493">
		<tag k="name" v="Skorpa" />
		<tag k="natural" v="slope" />
		<tag k="place" v="locality" />
		<tag k="ssr:stedsnr" v="611036" />
	</node>
	<node id="-451590" lat="60.3398416627" lon="6.45616110788">
		<tag k="name" v="Bergsdalen" />
		<tag k="natural" v="valley" />
		<tag k="place" v="locality" />
		<tag k="ssr:stedsnr" v="611020" />
	</node>
	<node id="-451586" lat="60.2915055544" lon="6.4221722203">
		<tag k="name" v="Håmannhaugane" />
		<tag k="natural" v="hill" />
		<tag k="place" v="locality" />
		<tag k="ssr:stedsnr" v="584869" />
	</node>
	<node id="-451583" lat="60.3012222214" lon="6.26533332913">
		<tag k="name" v="Gjelet" />
		<tag k="natural" v="gorge" />
		<tag k="ssr:stedsnr" v="584853" />
	</node>
	<node id="-451581" lat="60.3176805546" lon="6.43506388961">
		<tag k="name" v="Geithaug" />
		<tag k="natural" v="hill" />
		<tag k="place" v="locality" />
		<tag k="ssr:stedsnr" v="584843" />
	</node>
	<node id="-451576" lat="60.2837333371" lon="6.25140277205">
		<tag k="name" v="Angdal" />
		<tag k="natural" v="valley" />
		<tag k="place" v="locality" />
		<tag k="ssr:stedsnr" v="584709" />
	</node>
	<node id="-451575" lat="60.2242555535" lon="6.20532777932">
		<tag k="name" v="Fossadalen" />
		<tag k="natural" v="valley" />
		<tag k="place" v="locality" />
		<tag k="ssr:stedsnr" v="584681" />
	</node>
	<node id="-451573" lat="60.2205583352" lon="6.19651944724">
		<tag k="name" v="Bleket" />
		<tag k="natural" v="hill" />
		<tag k="place" v="locality" />
		<tag k="ssr:stedsnr" v="584677" />
	</node>
	<node id="-451571" lat="60.2167833353" lon="6.12230834211">
		<tag k="name" v="Grotneshaugen" />
		<tag k="natural" v="hill" />
		<tag k="place" v="locality" />
		<tag k="ssr:stedsnr" v="584672" />
	</node>
	<node id="-451570" lat="60.1856555531" lon="6.1272249938">
		<tag k="fixme" v="consider natural=peak for the most distinct mountains in the district" />
		<tag k="name" v="Høgstenut" />
		<tag k="natural" v="hill" />
		<tag k="ssr:stedsnr" v="584659" />
	</node>
	<node id="-451569" lat="60.1871027811" lon="6.15703889086">
		<tag k="name" v="Påskahaugen" />
		<tag k="natural" v="hill" />
		<tag k="place" v="locality" />
		<tag k="ssr:stedsnr" v="584657" />
	</node>
	<node id="-451565" lat="60.3531666664" lon="6.38451665865">
		<tag k="name" v="Hals" />
		<tag k="place" v="locality" />
		<tag k="ssr:stedsnr" v="584633" />
	</node>
	<node id="-451564" lat="60.3516361129" lon="6.37990554798">
		<tag k="name" v="Ingeleivskorane" />
		<tag k="natural" v="valley" />
		<tag k="place" v="locality" />
		<tag k="ssr:stedsnr" v="584630" />
	</node>
	<node id="-451563" lat="60.2884083294" lon="6.35927499386">
		<tag k="name" v="Kjosen" />
		<tag k="place" v="locality" />
		<tag k="ssr:stedsnr" v="584621" />
	</node>
	<node id="-451561" lat="60.2901166697" lon="6.32926666709">
		<tag k="name" v="Skukkefurhaugane" />
		<tag k="natural" v="hill" />
		<tag k="place" v="locality" />
		<tag k="ssr:stedsnr" v="584608" />
	</node>
	<node id="-451559" lat="60.2933111101" lon="6.34681388321">
		<tag k="name" v="Djupadal" />
		<tag k="natural" v="valley" />
		<tag k="place" v="locality" />
		<tag k="ssr:stedsnr" v="584600" />
	</node>
	<node id="-451558" lat="60.3166722254" lon="6.39212500824">
		<tag k="name" v="Vikestokkane" />
		<tag k="place" v="locality" />
		<tag k="ssr:stedsnr" v="584580" />
	</node>
	<node id="-451557" lat="60.3163361133" lon="6.32540278496">
		<tag k="name" v="Sagbakken" />
		<tag k="natural" v="slope" />
		<tag k="place" v="locality" />
		<tag k="ssr:stedsnr" v="584579" />
	</node>
	<node id="-451556" lat="60.245327777" lon="6.31801667318">
		<tag k="name" v="Detelen" />
		<tag k="place" v="locality" />
		<tag k="ssr:stedsnr" v="584567" />
	</node>
	<node id="-451555" lat="60.2497888897" lon="6.3295666692">
		<tag k="name" v="Jondalskori" />
		<tag k="natural" v="valley" />
		<tag k="place" v="locality" />
		<tag k="ssr:stedsnr" v="584566" />
	</node>
	<node id="-451554" lat="60.2709138845" lon="6.36124722337">
		<tag k="name" v="Snytedalen" />
		<tag k="natural" v="valley" />
		<tag k="place" v="locality" />
		<tag k="ssr:stedsnr" v="584547" />
	</node>
	<node id="-451553" lat="60.2740722213" lon="6.30903888369">
		<tag k="name" v="Burtnadalane" />
		<tag k="natural" v="valley" />
		<tag k="place" v="locality" />
		<tag k="ssr:stedsnr" v="584516" />
	</node>
	<node id="-451551" lat="60.2797472229" lon="6.31699722201">
		<tag k="name" v="Skori" />
		<tag k="natural" v="valley" />
		<tag k="place" v="locality" />
		<tag k="ssr:stedsnr" v="584511" />
	</node>
	<node id="-451549" lat="60.1480916677" lon="6.14726389065">
		<tag k="name" v="Torseldehaug" />
		<tag k="natural" v="hill" />
		<tag k="place" v="locality" />
		<tag k="ssr:stedsnr" v="584463" />
	</node>
	<node id="-451548" lat="60.1807166654" lon="6.10638334192">
		<tag k="name" v="Storefurehaugen" />
		<tag k="natural" v="hill" />
		<tag k="place" v="locality" />
		<tag k="ssr:stedsnr" v="584451" />
	</node>
	<node id="-451547" lat="60.1396111073" lon="6.15200277676">
		<tag k="name" v="Småskorane" />
		<tag k="natural" v="valley" />
		<tag k="place" v="locality" />
		<tag k="ssr:stedsnr" v="584443" />
	</node>
	<node id="-451545" lat="60.1779833376" lon="6.15131110604">
		<tag k="name" v="Storheiskarva" />
		<tag k="natural" v="hill" />
		<tag k="place" v="locality" />
		<tag k="ssr:stedsnr" v="584434" />
	</node>
	<node id="-451544" lat="60.3625277797" lon="6.40163610326">
		<tag k="name" v="Nautahaugen" />
		<tag k="natural" v="hill" />
		<tag k="place" v="locality" />
		<tag k="ssr:stedsnr" v="584097" />
	</node>
	<node id="-451539" lat="60.2486916691" lon="6.34272500805">
		<tag k="name" v="Klippet" />
		<tag k="place" v="locality" />
		<tag k="ssr:stedsnr" v="583818" />
	</node>
	<node id="-451537" lat="60.2063444436" lon="6.26519167451">
		<tag k="fixme" v="consider natural=peak for the most distinct mountains in the district" />
		<tag k="name" v="Bukkegjotene" />
		<tag k="natural" v="hill" />
		<tag k="place" v="locality" />
		<tag k="ssr:stedsnr" v="551852" />
	</node>
	<node id="-451533" lat="60.1935055568" lon="6.10697777335">
		<tag k="name" v="Ospelia" />
		<tag k="natural" v="slope" />
		<tag k="place" v="locality" />
		<tag k="ssr:stedsnr" v="551556" />
	</node>
	<node id="-451531" lat="60.179761107" lon="6.12193333905">
		<tag k="name" v="Furekamben" />
		<tag k="natural" v="hill" />
		<tag k="place" v="locality" />
		<tag k="ssr:stedsnr" v="551537" />
	</node>
	<node id="-451530" lat="60.1886361133" lon="6.20662500713">
		<tag k="fixme" v="consider natural=peak for the most distinct mountains in the district" />
		<tag k="name" v="Solbjørgsnibba" />
		<tag k="natural" v="hill" />
		<tag k="place" v="locality" />
		<tag k="ssr:stedsnr" v="551530" />
	</node>
	<node id="-451527" lat="60.2801499969" lon="6.34698888837">
		<tag k="name" v="Såtedokki" />
		<tag k="place" v="locality" />
		<tag k="ssr:stedsnr" v="551460" />
	</node>
	<node id="-451524" lat="60.2940527789" lon="6.3366666634">
		<tag k="name" v="Brannhaugen" />
		<tag k="natural" v="hill" />
		<tag k="place" v="locality" />
		<tag k="ssr:stedsnr" v="551430" />
	</node>
	<node id="-451521" lat="60.3486055533" lon="6.47796110556">
		<tag k="alt_name" v="Vatnasetenut" />
		<tag k="fixme" v="multiple name tags, choose one and add the other to alt_name; consider natural=peak for the most distinct mountains in the district" />
		<tag k="name" v="Geitsnut;Vatnasetnuten" />
		<tag k="natural" v="hill" />
		<tag k="place" v="locality" />
		<tag k="ssr:stedsnr" v="551132" />
	</node>
	<node id="-451516" lat="60.3154666665" lon="6.40128055028">
		<tag k="name" v="Storedalen" />
		<tag k="natural" v="valley" />
		<tag k="place" v="locality" />
		<tag k="ssr:stedsnr" v="551046" />
	</node>
	<node id="-451502" lat="60.3341472245" lon="6.40139999716">
		<tag k="name" v="Buskor" />
		<tag k="natural" v="valley" />
		<tag k="place" v="locality" />
		<tag k="ssr:stedsnr" v="524858" />
	</node>
	<node id="-451501" lat="60.3362805553" lon="6.40690833883">
		<tag k="name" v="Skiftaskarv" />
		<tag k="natural" v="valley" />
		<tag k="place" v="locality" />
		<tag k="ssr:stedsnr" v="524855" />
	</node>
	<node id="-451500" lat="60.3397805543" lon="6.43974166047">
		<tag k="fixme" v="consider natural=peak for the most distinct mountains in the district" />
		<tag k="name" v="Veslevarden" />
		<tag k="natural" v="hill" />
		<tag k="ssr:stedsnr" v="524842" />
	</node>
	<node id="-451499" lat="60.2860222237" lon="6.36915833973">
		<tag k="name" v="Gjotagjelet" />
		<tag k="natural" v="gorge" />
		<tag k="ssr:stedsnr" v="524820" />
	</node>
	<node id="-451498" lat="60.3407944486" lon="6.40901944789">
		<tag k="name" v="Furehaugen" />
		<tag k="natural" v="hill" />
		<tag k="place" v="locality" />
		<tag k="ssr:stedsnr" v="524813" />
	</node>
	<node id="-451497" lat="60.3425250023" lon="6.47766666933">
		<tag k="name" v="Samdalsskarvet" />
		<tag k="natural" v="valley" />
		<tag k="place" v="locality" />
		<tag k="ssr:stedsnr" v="524791" />
	</node>
	<node id="-451496" lat="60.2983527754" lon="6.25683610485">
		<tag k="name" v="Stølshelleberget" />
		<tag k="natural" v="hill" />
		<tag k="place" v="locality" />
		<tag k="ssr:stedsnr" v="524716" />
	</node>
	<node id="-451495" lat="60.2916361106" lon="6.24631944364">
		<tag k="name" v="Allskar" />
		<tag k="natural" v="valley" />
		<tag k="place" v="locality" />
		<tag k="ssr:stedsnr" v="524712" />
	</node>
	<node id="-451494" lat="60.2401338093" lon="6.32223314617">
		<tag k="fixme" v="consider natural=peak for the most distinct mountains in the district" />
		<tag k="name" v="Nipenotten" />
		<tag k="natural" v="hill" />
		<tag k="ssr:stedsnr" v="524699" />
	</node>
	<node id="-451489" lat="60.2728194429" lon="6.27988889567">
		<tag k="name" v="Raudbergdalen" />
		<tag k="natural" v="valley" />
		<tag k="place" v="locality" />
		<tag k="ssr:stedsnr" v="524664" />
	</node>
	<node id="-451486" lat="60.2335083367" lon="6.27911667315">
		<tag k="name" v="Leitet" />
		<tag k="natural" v="slope" />
		<tag k="place" v="locality" />
		<tag k="ssr:stedsnr" v="524627" />
	</node>
	<node id="-451485" lat="60.232963886" lon="6.19693055778">
		<tag k="name" v="Klippehaugane" />
		<tag k="natural" v="hill" />
		<tag k="place" v="locality" />
		<tag k="ssr:stedsnr" v="524614" />
	</node>
	<node id="-451484" lat="60.2321916706" lon="6.20158054784">
		<tag k="name" v="Vesle Lauvåshaugen" />
		<tag k="natural" v="hill" />
		<tag k="place" v="locality" />
		<tag k="ssr:stedsnr" v="524615" />
	</node>
	<node id="-451483" lat="60.1900222241" lon="6.15441945177">
		<tag k="name" v="Storedalen" />
		<tag k="natural" v="valley" />
		<tag k="place" v="locality" />
		<tag k="ssr:stedsnr" v="524580" />
	</node>
	<node id="-451481" lat="60.3489638898" lon="6.35980832653">
		<tag k="name" v="Djupaberg" />
		<tag k="natural" v="hill" />
		<tag k="place" v="locality" />
		<tag k="ssr:stedsnr" v="523709" />
	</node>
	<node id="-451480" lat="60.2845361086" lon="6.33345833984">
		<tag k="name" v="Gritle" />
		<tag k="place" v="locality" />
		<tag k="ssr:stedsnr" v="523699" />
	</node>
	<node id="-451478" lat="60.2932777749" lon="6.328672215">
		<tag k="name" v="Tømmergota" />
		<tag k="place" v="locality" />
		<tag k="ssr:stedsnr" v="523678" />
	</node>
	<node id="-451477" lat="60.2972472252" lon="6.39014166172">
		<tag k="name" v="Håseliskaret" />
		<tag k="natural" v="valley" />
		<tag k="place" v="locality" />
		<tag k="ssr:stedsnr" v="523673" />
	</node>
	<node id="-451476" lat="60.3041861132" lon="6.33519166918">
		<tag k="name" v="Kleppsbrekkena" />
		<tag k="natural" v="slope" />
		<tag k="place" v="locality" />
		<tag k="ssr:stedsnr" v="523664" />
	</node>
	<node id="-451475" lat="60.2501527763" lon="6.28468333938">
		<tag k="name" v="Røyrli" />
		<tag k="natural" v="slope" />
		<tag k="place" v="locality" />
		<tag k="ssr:stedsnr" v="523650" />
	</node>
	<node id="-451473" lat="60.2687305518" lon="6.36089444913">
		<tag k="name" v="Tronderkleiv" />
		<tag k="natural" v="slope" />
		<tag k="place" v="locality" />
		<tag k="ssr:stedsnr" v="523625" />
	</node>
	<node id="-451472" lat="60.2647861139" lon="6.38974723033">
		<tag k="name" v="Lii" />
		<tag k="natural" v="slope" />
		<tag k="place" v="locality" />
		<tag k="ssr:stedsnr" v="523622" />
	</node>
	<node id="-451471" lat="60.2730194437" lon="6.3959694534">
		<tag k="name" v="Hals" />
		<tag k="place" v="locality" />
		<tag k="ssr:stedsnr" v="523619" />
	</node>
	<node id="-451469" lat="60.2642083345" lon="6.33313055881">
		<tag k="name" v="Skrott" />
		<tag k="place" v="locality" />
		<tag k="ssr:stedsnr" v="523605" />
	</node>
	<node id="-451468" lat="60.2721638884" lon="6.28424444691">
		<tag k="name" v="Leitet" />
		<tag k="natural" v="slope" />
		<tag k="place" v="locality" />
		<tag k="ssr:stedsnr" v="523586" />
	</node>
	<node id="-451465" lat="60.1494111089" lon="6.12782499678">
		<tag k="name" v="Bjørghaugen" />
		<tag k="natural" v="hill" />
		<tag k="place" v="locality" />
		<tag k="ssr:stedsnr" v="523537" />
	</node>
	<node id="-451462" lat="60.1197222251" lon="6.16382222279">
		<tag k="name" v="Ospelondo" />
		<tag k="natural" v="slope" />
		<tag k="place" v="locality" />
		<tag k="ssr:stedsnr" v="523517" />
	</node>
	<node id="-451461" lat="60.1370083363" lon="6.15071944038">
		<tag k="name" v="Olderskotet" />
		<tag k="place" v="locality" />
		<tag k="ssr:stedsnr" v="523508" />
	</node>
	<node id="-451460" lat="60.1645888889" lon="6.11121667365">
		<tag k="name" v="Svea" />
		<tag k="natural" v="slope" />
		<tag k="place" v="locality" />
		<tag k="ssr:stedsnr" v="523502" />
	</node>
	<node id="-451457" lat="60.1314333373" lon="6.17448332483">
		<tag k="name" v="Gåddalen" />
		<tag k="natural" v="valley" />
		<tag k="place" v="locality" />
		<tag k="ssr:stedsnr" v="523182" />
	</node>
	<node id="-451452" lat="60.2488305526" lon="6.35146388525">
		<tag k="fixme" v="consider natural=peak for the most distinct mountains in the district" />
		<tag k="name" v="Nuten" />
		<tag k="natural" v="hill" />
		<tag k="ssr:stedsnr" v="522792" />
	</node>
	<node id="-451450" lat="60.1424083372" lon="6.18910000426">
		<tag k="name" v="Beinahaugdalen" />
		<tag k="natural" v="valley" />
		<tag k="place" v="locality" />
		<tag k="ssr:stedsnr" v="523437" />
	</node>
	<node id="-451445" lat="60.2965250015" lon="6.35136389729">
		<tag k="name" v="Dyrselhaugen" />
		<tag k="natural" v="hill" />
		<tag k="place" v="locality" />
		<tag k="ssr:stedsnr" v="491469" />
	</node>
	<node id="-451444" lat="60.3541500021" lon="6.42195554684">
		<tag k="name" v="Dyrshaugen" />
		<tag k="natural" v="hill" />
		<tag k="place" v="locality" />
		<tag k="ssr:stedsnr" v="491125" />
	</node>
	<node id="-451441" lat="60.2962249981" lon="6.25885832727">
		<tag k="name" v="Vetlehornet" />
		<tag k="natural" v="hill" />
		<tag k="place" v="locality" />
		<tag k="ssr:stedsnr" v="491046" />
	</node>
	<node id="-451439" lat="60.3045499973" lon="6.34205833213">
		<tag k="name" v="Bjørkelii" />
		<tag k="natural" v="slope" />
		<tag k="place" v="locality" />
		<tag k="ssr:stedsnr" v="491032" />
	</node>
	<node id="-451438" lat="60.2357944441" lon="6.38315276968">
		<tag k="fixme" v="consider natural=peak for the most distinct mountains in the district" />
		<tag k="name" v="Svartavassberget" />
		<tag k="natural" v="hill" />
		<tag k="place" v="locality" />
		<tag k="ssr:stedsnr" v="490811" />
	</node>
	<node id="-451435" lat="60.2493666645" lon="6.25659999583">
		<tag k="fixme" v="consider natural=peak for the most distinct mountains in the district" />
		<tag k="name" v="Vikanuten" />
		<tag k="natural" v="hill" />
		<tag k="place" v="locality" />
		<tag k="ssr:stedsnr" v="490780" />
	</node>
	<node id="-451434" lat="60.1615750018" lon="6.15622778222">
		<tag k="name" v="Dalafjell" />
		<tag k="natural" v="hill" />
		<tag k="place" v="locality" />
		<tag k="ssr:stedsnr" v="490594" />
	</node>
	<node id="-451430" lat="60.3173111108" lon="6.47035555781">
		<tag k="name" v="Storaskardet" />
		<tag k="natural" v="valley" />
		<tag k="place" v="locality" />
		<tag k="ssr:stedsnr" v="490058" />
	</node>
	<node id="-451427" lat="60.1622527779" lon="6.14396389695">
		<tag k="name" v="Graslia" />
		<tag k="natural" v="slope" />
		<tag k="place" v="locality" />
		<tag k="ssr:stedsnr" v="489602" />
	</node>
	<node id="-451425" lat="60.2260388906" lon="6.19701388269">
		<tag k="name" v="Stamparen" />
		<tag k="natural" v="valley" />
		<tag k="place" v="locality" />
		<tag k="ssr:stedsnr" v="468367" />
	</node>
	<node id="-451424" lat="60.3310111098" lon="6.47500554989">
		<tag k="name" v="Djupadal" />
		<tag k="natural" v="valley" />
		<tag k="place" v="locality" />
		<tag k="ssr:stedsnr" v="463886" />
	</node>
	<node id="-451423" lat="60.32893333" lon="6.45967221688">
		<tag k="name" v="Stadena" />
		<tag k="place" v="locality" />
		<tag k="ssr:stedsnr" v="463853" />
	</node>
	<node id="-451422" lat="60.3452805596" lon="6.51031388015">
		<tag k="name" v="Gråfjellskarvet" />
		<tag k="natural" v="hill" />
		<tag k="place" v="locality" />
		<tag k="ssr:stedsnr" v="463819" />
	</node>
	<node id="-451421" lat="60.3399944449" lon="6.46596666473">
		<tag k="name" v="Stovedalen" />
		<tag k="natural" v="valley" />
		<tag k="place" v="locality" />
		<tag k="ssr:stedsnr" v="463818" />
	</node>
	<node id="-451420" lat="60.2214777805" lon="6.32807223012">
		<tag k="name" v="Soleiebakkane" />
		<tag k="natural" v="slope" />
		<tag k="place" v="locality" />
		<tag k="ssr:stedsnr" v="463799" />
	</node>
	<node id="-451419" lat="60.2523166692" lon="6.24308332755">
		<tag k="name" v="Moane" />
		<tag k="place" v="locality" />
		<tag k="ssr:stedsnr" v="463738" />
	</node>
	<node id="-451418" lat="60.2543583341" lon="6.22567499523">
		<tag k="name" v="Bustehaugen" />
		<tag k="natural" v="hill" />
		<tag k="place" v="locality" />
		<tag k="ssr:stedsnr" v="463736" />
	</node>
	<node id="-451415" lat="60.2438749962" lon="6.27102221753">
		<tag k="name" v="Gråuregjelet" />
		<tag k="natural" v="gorge" />
		<tag k="ssr:stedsnr" v="463710" />
	</node>
	<node id="-451414" lat="60.2562472259" lon="6.21025277183">
		<tag k="name" v="Tjuvagjel" />
		<tag k="natural" v="gorge" />
		<tag k="ssr:stedsnr" v="463706" />
	</node>
	<node id="-451412" lat="60.2527305521" lon="6.20306944343">
		<tag k="name" v="Eikesletta" />
		<tag k="place" v="locality" />
		<tag k="ssr:stedsnr" v="463688" />
	</node>
	<node id="-451411" lat="60.2813749997" lon="6.26168056173">
		<tag k="name" v="Bakkane" />
		<tag k="natural" v="slope" />
		<tag k="place" v="locality" />
		<tag k="ssr:stedsnr" v="463681" />
	</node>
	<node id="-451406" lat="60.2243777796" lon="6.19934721422">
		<tag k="name" v="Stampasvoena" />
		<tag k="natural" v="hill" />
		<tag k="place" v="locality" />
		<tag k="ssr:stedsnr" v="463639" />
	</node>
	<node id="-451405" lat="60.201747223" lon="6.11168611885">
		<tag k="name" v="Mosesletta" />
		<tag k="place" v="locality" />
		<tag k="ssr:stedsnr" v="463608" />
	</node>
	<node id="-451404" lat="60.3490694425" lon="6.37564721648">
		<tag k="name" v="Gjerdeberg" />
		<tag k="natural" v="hill" />
		<tag k="place" v="locality" />
		<tag k="ssr:stedsnr" v="463602" />
	</node>
	<node id="-451403" lat="60.288002778" lon="6.31686667169">
		<tag k="name" v="Nedre Krossdalen" />
		<tag k="natural" v="valley" />
		<tag k="place" v="locality" />
		<tag k="ssr:stedsnr" v="463581" />
	</node>
	<node id="-451399" lat="60.3108388882" lon="6.39040000645">
		<tag k="name" v="Langhaug" />
		<tag k="natural" v="hill" />
		<tag k="place" v="locality" />
		<tag k="ssr:stedsnr" v="463556" />
	</node>
	<node id="-451398" lat="60.3141194475" lon="6.31690555082">
		<tag k="name" v="Kalhaugane" />
		<tag k="natural" v="hill" />
		<tag k="place" v="locality" />
		<tag k="ssr:stedsnr" v="463551" />
	</node>
	<node id="-451397" lat="60.2520249957" lon="6.29933333877">
		<tag k="name" v="Fåren" />
		<tag k="place" v="locality" />
		<tag k="ssr:stedsnr" v="463543" />
	</node>
	<node id="-451396" lat="60.2662472215" lon="6.36081943971">
		<tag k="name" v="Harpiperhaugen" />
		<tag k="natural" v="hill" />
		<tag k="place" v="locality" />
		<tag k="ssr:stedsnr" v="463515" />
	</node>
	<node id="-451395" lat="60.2658583332" lon="6.34509167427">
		<tag k="fixme" v="consider natural=peak for the most distinct mountains in the district" />
		<tag k="name" v="Drebrekkefjellet" />
		<tag k="natural" v="hill" />
		<tag k="place" v="locality" />
		<tag k="ssr:stedsnr" v="463514" />
	</node>
	<node id="-451394" lat="60.2810611106" lon="6.39643056134">
		<tag k="name" v="Gjerdet" />
		<tag k="natural" v="gorge" />
		<tag k="ssr:stedsnr" v="463512" />
	</node>
	<node id="-451392" lat="60.1444805543" lon="6.13312500278">
		<tag k="name" v="Seterhaugen" />
		<tag k="natural" v="hill" />
		<tag k="place" v="locality" />
		<tag k="ssr:stedsnr" v="463437" />
	</node>
	<node id="-451391" lat="60.1542388885" lon="6.14625554868">
		<tag k="name" v="Svahammar" />
		<tag k="natural" v="hill" />
		<tag k="place" v="locality" />
		<tag k="ssr:stedsnr" v="463432" />
	</node>
	<node id="-451390" lat="60.1787638845" lon="6.10259167105">
		<tag k="name" v="Heiakulten" />
		<tag k="natural" v="hill" />
		<tag k="place" v="locality" />
		<tag k="ssr:stedsnr" v="463420" />
	</node>
	<node id="-451386" lat="60.2532472217" lon="6.35518610242">
		<tag k="name" v="Rygg" />
		<tag k="natural" v="ridge" />
		<tag k="place" v="locality" />
		<tag k="ssr:stedsnr" v="462807" />
	</node>
	<node id="-451385" lat="60.25591389" lon="6.39103054834">
		<tag k="name" v="Langedalskorane" />
		<tag k="natural" v="valley" />
		<tag k="place" v="locality" />
		<tag k="ssr:stedsnr" v="462805" />
	</node>
	<node id="-451384" lat="60.3491111085" lon="6.35586388087">
		<tag k="name" v="Perskor" />
		<tag k="natural" v="valley" />
		<tag k="place" v="locality" />
		<tag k="ssr:stedsnr" v="462618" />
	</node>
	<node id="-451377" lat="60.2077444435" lon="6.22572499286">
		<tag k="name" v="Daurmålsdalen" />
		<tag k="natural" v="valley" />
		<tag k="place" v="locality" />
		<tag k="ssr:stedsnr" v="430822" />
	</node>
	<node id="-451376" lat="60.2130194487" lon="6.23056388484">
		<tag k="name" v="Skjorta" />
		<tag k="natural" v="hill" />
		<tag k="place" v="locality" />
		<tag k="ssr:stedsnr" v="430820" />
	</node>
	<node id="-451375" lat="60.2377249974" lon="6.3962249951">
		<tag k="fixme" v="consider natural=peak for the most distinct mountains in the district" />
		<tag k="name" v="Smolnuten" />
		<tag k="natural" v="hill" />
		<tag k="place" v="locality" />
		<tag k="ssr:stedsnr" v="430804" />
	</node>
	<node id="-451374" lat="60.2317138931" lon="6.29315555635">
		<tag k="name" v="Torsnes-Kvanndal" />
		<tag k="natural" v="valley" />
		<tag k="place" v="locality" />
		<tag k="ssr:stedsnr" v="430799" />
	</node>
	<node id="-451373" lat="60.2351833295" lon="6.23998611996">
		<tag k="name" v="Åmundsstig" />
		<tag k="natural" v="slope" />
		<tag k="place" v="locality" />
		<tag k="ssr:stedsnr" v="430786" />
	</node>
	<node id="-451368" lat="60.280280559" lon="6.30716110571">
		<tag k="name" v="Langhaugdalen" />
		<tag k="natural" v="valley" />
		<tag k="place" v="locality" />
		<tag k="ssr:stedsnr" v="430453" />
	</node>
	<node id="-451367" lat="60.2831250039" lon="6.35089166467">
		<tag k="name" v="Stølshaugen" />
		<tag k="natural" v="hill" />
		<tag k="place" v="locality" />
		<tag k="ssr:stedsnr" v="430441" />
	</node>
	<node id="-451366" lat="60.287266667" lon="6.28586389473">
		<tag k="name" v="Skardet" />
		<tag k="natural" v="valley" />
		<tag k="place" v="locality" />
		<tag k="ssr:stedsnr" v="430422" />
	</node>
	<node id="-451362" lat="60.3034388869" lon="6.27536112018">
		<tag k="name" v="Hellebrotet" />
		<tag k="natural" v="hill" />
		<tag k="place" v="locality" />
		<tag k="ssr:stedsnr" v="430055" />
	</node>
	<node id="-451361" lat="60.2964166623" lon="6.26854444008">
		<tag k="name" v="Ospelii" />
		<tag k="natural" v="slope" />
		<tag k="place" v="locality" />
		<tag k="ssr:stedsnr" v="430042" />
	</node>
	<node id="-451359" lat="60.2969583312" lon="6.26386388196">
		<tag k="fixme" v="consider natural=peak for the most distinct mountains in the district" />
		<tag k="name" v="Jonahornet" />
		<tag k="natural" v="hill" />
		<tag k="old_name" v="Jonshorn" />
		<tag k="place" v="locality" />
		<tag k="ssr:stedsnr" v="430038" />
	</node>
	<node id="-451356" lat="60.3318888896" lon="6.35170276947">
		<tag k="name" v="Strandateigane" />
		<tag k="natural" v="slope" />
		<tag k="place" v="locality" />
		<tag k="ssr:stedsnr" v="430011" />
	</node>
	<node id="-451353" lat="60.1893194468" lon="6.23961666293">
		<tag k="name" v="Isdalsskardet" />
		<tag k="natural" v="valley" />
		<tag k="place" v="locality" />
		<tag k="ssr:stedsnr" v="429847" />
	</node>
	<node id="-451350" lat="60.2432777816" lon="6.24501944237">
		<tag k="name" v="Furehaugen" />
		<tag k="natural" v="hill" />
		<tag k="place" v="locality" />
		<tag k="ssr:stedsnr" v="429783" />
	</node>
	<node id="-451349" lat="60.2461750001" lon="6.25830832999">
		<tag k="fixme" v="consider natural=peak for the most distinct mountains in the district" />
		<tag k="name" v="Raudenuten" />
		<tag k="natural" v="hill" />
		<tag k="place" v="locality" />
		<tag k="ssr:stedsnr" v="429781" />
	</node>
	<node id="-451347" lat="60.1631555536" lon="6.19708889272">
		<tag k="fixme" v="consider natural=peak for the most distinct mountains in the district" />
		<tag k="name" v="Kvitafjellet" />
		<tag k="natural" v="hill" />
		<tag k="place" v="locality" />
		<tag k="ssr:stedsnr" v="429552" />
	</node>
	<node id="-451345" lat="60.1226500045" lon="6.18846944654">
		<tag k="alt_name" v="Molthaugen" />
		<tag k="fixme" v="consider natural=peak for the most distinct mountains in the district" />
		<tag k="name" v="Molthaug" />
		<tag k="natural" v="hill" />
		<tag k="place" v="locality" />
		<tag k="ssr:stedsnr" v="248913" />
	</node>
	<node id="-451344" lat="60.1314111138" lon="6.16423611483">
		<tag k="name" v="Husafjellet" />
		<tag k="natural" v="hill" />
		<tag k="place" v="locality" />
		<tag k="ssr:stedsnr" v="248885" />
	</node>
	<node id="-451343" lat="60.2070888886" lon="6.34096667456">
		<tag k="name" v="Skyrdalsskardet" />
		<tag k="natural" v="valley" />
		<tag k="place" v="locality" />
		<tag k="ssr:stedsnr" v="248854" />
	</node>
	<node id="-451340" lat="60.1989750002" lon="6.14270555184">
		<tag k="fixme" v="consider natural=peak for the most distinct mountains in the district" />
		<tag k="name" v="Demmenuten" />
		<tag k="natural" v="hill" />
		<tag k="place" v="locality" />
		<tag k="ssr:stedsnr" v="248562" />
	</node>
	<node id="-451335" lat="60.2876527749" lon="6.2740888853">
		<tag k="alt_name" v="Gullbergnotten" />
		<tag k="fixme" v="consider natural=peak for the most distinct mountains in the district" />
		<tag k="name" v="Gulbergnotten" />
		<tag k="natural" v="hill" />
		<tag k="place" v="locality" />
		<tag k="ssr:stedsnr" v="248427" />
	</node>
	<node id="-451333" lat="60.2719444479" lon="6.37639443857">
		<tag k="name" v="Vedahaugen" />
		<tag k="natural" v="hill" />
		<tag k="place" v="locality" />
		<tag k="ssr:stedsnr" v="248368" />
	</node>
	<node id="-451330" lat="60.3392249967" lon="6.47565278625">
		<tag k="fixme" v="consider natural=peak for the most distinct mountains in the district" />
		<tag k="name" v="Samdalsnuten" />
		<tag k="natural" v="hill" />
		<tag k="place" v="locality" />
		<tag k="ssr:stedsnr" v="248103" />
	</node>
	<node id="-451328" lat="60.3413250038" lon="6.41988611858">
		<tag k="name" v="Marhellelii" />
		<tag k="natural" v="slope" />
		<tag k="place" v="locality" />
		<tag k="ssr:stedsnr" v="248089" />
	</node>
	<node id="-451322" lat="60.3358388921" lon="6.50438333726">
		<tag k="name" v="Soleidalen" />
		<tag k="natural" v="valley" />
		<tag k="place" v="locality" />
		<tag k="ssr:stedsnr" v="248023" />
	</node>
	<node id="-451321" lat="60.3316111098" lon="6.46422776909">
		<tag k="name" v="Saurdalen" />
		<tag k="natural" v="valley" />
		<tag k="place" v="locality" />
		<tag k="ssr:stedsnr" v="248017" />
	</node>
	<node id="-451314" lat="60.1552527787" lon="6.17032778579">
		<tag k="fixme" v="consider natural=peak for the most distinct mountains in the district" />
		<tag k="name" v="Saualifjell" />
		<tag k="natural" v="hill" />
		<tag k="place" v="locality" />
		<tag k="ssr:stedsnr" v="247594" />
	</node>
	<node id="-451313" lat="60.1725555573" lon="6.16400555497">
		<tag k="fixme" v="consider natural=peak for the most distinct mountains in the district" />
		<tag k="name" v="Vassdalshorga" />
		<tag k="natural" v="hill" />
		<tag k="place" v="locality" />
		<tag k="ssr:stedsnr" v="247563" />
	</node>
	<node id="-451308" lat="60.3602194459" lon="6.3752444373">
		<tag k="fixme" v="consider natural=peak for the most distinct mountains in the district" />
		<tag k="name" v="Vesle Samlen" />
		<tag k="natural" v="hill" />
		<tag k="place" v="locality" />
		<tag k="ssr:stedsnr" v="221790" />
	</node>
	<node id="-451307" lat="60.1705833325" lon="6.16553333577">
		<tag k="name" v="Skaret" />
		<tag k="natural" v="valley" />
		<tag k="place" v="locality" />
		<tag k="ssr:stedsnr" v="221191" />
	</node>
	<node id="-451306" lat="60.2405138931" lon="6.30398055209">
		<tag k="alt_name" v="Steinaløpet" />
		<tag k="name" v="Steinalopet" />
		<tag k="place" v="locality" />
		<tag k="ssr:stedsnr" v="220805" />
	</node>
	<node id="-451305" lat="60.2592027804" lon="6.25645556059">
		<tag k="name" v="Nutadalen" />
		<tag k="natural" v="valley" />
		<tag k="place" v="locality" />
		<tag k="ssr:stedsnr" v="220796" />
	</node>
	<node id="-451304" lat="60.2463972242" lon="6.22983888408">
		<tag k="name" v="Langedalen" />
		<tag k="natural" v="valley" />
		<tag k="place" v="locality" />
		<tag k="ssr:stedsnr" v="220794" />
	</node>
	<node id="-451302" lat="60.2667666664" lon="6.24462500765">
		<tag k="name" v="Tryglahaug" />
		<tag k="natural" v="hill" />
		<tag k="place" v="locality" />
		<tag k="ssr:stedsnr" v="220777" />
	</node>
	<node id="-451301" lat="60.2828305568" lon="6.26671388893">
		<tag k="name" v="Brakaskar" />
		<tag k="natural" v="valley" />
		<tag k="place" v="locality" />
		<tag k="ssr:stedsnr" v="220758" />
	</node>
	<node id="-451299" lat="60.2341833343" lon="6.20680555508">
		<tag k="name" v="Libru" />
		<tag k="natural" v="slope" />
		<tag k="place" v="locality" />
		<tag k="ssr:stedsnr" v="220728" />
	</node>
	<node id="-451298" lat="60.2300138924" lon="6.21569722597">
		<tag k="name" v="Lauvåsgjelet" />
		<tag k="place" v="locality" />
		<tag k="ssr:stedsnr" v="220721" />
	</node>
	<node id="-451293" lat="60.3580138851" lon="6.38719167013">
		<tag k="name" v="Nonsnebbena" />
		<tag k="place" v="locality" />
		<tag k="ssr:stedsnr" v="220677" />
	</node>
	<node id="-451291" lat="60.2816416683" lon="6.37757499684">
		<tag k="name" v="Espehaug" />
		<tag k="natural" v="hill" />
		<tag k="place" v="locality" />
		<tag k="ssr:stedsnr" v="220585" />
	</node>
	<node id="-451290" lat="60.2341777823" lon="6.30893055888">
		<tag k="name" v="Kovhaug" />
		<tag k="natural" v="hill" />
		<tag k="place" v="locality" />
		<tag k="ssr:stedsnr" v="220565" />
	</node>
	<node id="-451289" lat="60.1426972225" lon="6.15451943798">
		<tag k="name" v="Ørnhaug" />
		<tag k="natural" v="hill" />
		<tag k="place" v="locality" />
		<tag k="ssr:stedsnr" v="220523" />
	</node>
	<node id="-451287" lat="60.2961500044" lon="6.33941111768">
		<tag k="name" v="Legena" />
		<tag k="place" v="locality" />
		<tag k="ssr:stedsnr" v="220643" />
	</node>
	<node id="-451286" lat="60.3118027791" lon="6.3038083416">
		<tag k="name" v="Svult" />
		<tag k="place" v="locality" />
		<tag k="ssr:stedsnr" v="220628" />
	</node>
	<node id="-451285" lat="60.3214833303" lon="6.38974444703">
		<tag k="name" v="Hestasteglii" />
		<tag k="natural" v="slope" />
		<tag k="place" v="locality" />
		<tag k="ssr:stedsnr" v="220623" />
	</node>
	<node id="-451284" lat="60.2486194441" lon="6.32138055063">
		<tag k="name" v="Kvanngrøhaugane" />
		<tag k="natural" v="hill" />
		<tag k="place" v="locality" />
		<tag k="ssr:stedsnr" v="220613" />
	</node>
	<node id="-451283" lat="60.1309416699" lon="6.16385555674">
		<tag k="name" v="Stolen" />
		<tag k="place" v="locality" />
		<tag k="ssr:stedsnr" v="220494" />
	</node>
	<node id="-451282" lat="60.1667999978" lon="6.13609444537">
		<tag k="name" v="Storekleiv" />
		<tag k="natural" v="slope" />
		<tag k="place" v="locality" />
		<tag k="ssr:stedsnr" v="220484" />
	</node>
	<node id="-451281" lat="60.1789277788" lon="6.11911388923">
		<tag k="name" v="Fureli" />
		<tag k="natural" v="slope" />
		<tag k="place" v="locality" />
		<tag k="ssr:stedsnr" v="220482" />
	</node>
	<node id="-451279" lat="60.3624277801" lon="6.43550277749">
		<tag k="fixme" v="consider natural=peak for the most distinct mountains in the district" />
		<tag k="name" v="Hædena" />
		<tag k="natural" v="hill" />
		<tag k="ssr:stedsnr" v="220110" />
	</node>
	<node id="-451277" lat="60.2418888882" lon="6.42654721469">
		<tag k="fixme" v="consider natural=peak for the most distinct mountains in the district" />
		<tag k="name" v="Jorfjellet" />
		<tag k="natural" v="hill" />
		<tag k="place" v="locality" />
		<tag k="ssr:stedsnr" v="220097" />
	</node>
	<node id="-451275" lat="60.3438944431" lon="6.38045555232">
		<tag k="name" v="Eldhushaugen" />
		<tag k="natural" v="hill" />
		<tag k="place" v="locality" />
		<tag k="ssr:stedsnr" v="220078" />
	</node>
	<node id="-451274" lat="60.3468722222" lon="6.38615000243">
		<tag k="loc_name" v="Bakkahaugane" />
		<tag k="name" v="Bakkehaugane" />
		<tag k="natural" v="hill" />
		<tag k="place" v="locality" />
		<tag k="ssr:stedsnr" v="220076" />
	</node>
	<node id="-451273" lat="60.2472500018" lon="6.37684444849">
		<tag k="fixme" v="consider natural=peak for the most distinct mountains in the district" />
		<tag k="name" v="Raudenuten" />
		<tag k="natural" v="hill" />
		<tag k="ssr:stedsnr" v="219823" />
	</node>
	<node id="-451271" lat="60.2694884699" lon="6.31059563242">
		<tag k="name" v="Skoltane" />
		<tag k="natural" v="hill" />
		<tag k="place" v="locality" />
		<tag k="ssr:stedsnr" v="188548" />
	</node>
	<node id="-451270" lat="60.2647749996" lon="6.32449166176">
		<tag k="fixme" v="consider natural=peak for the most distinct mountains in the district" />
		<tag k="name" v="Espelandsfjellet" />
		<tag k="natural" v="hill" />
		<tag k="place" v="locality" />
		<tag k="ssr:stedsnr" v="188545" />
	</node>
	<node id="-451267" lat="60.2265611142" lon="6.25741944122">
		<tag k="fixme" v="consider natural=peak for the most distinct mountains in the district" />
		<tag k="name" v="Helletaket" />
		<tag k="natural" v="hill" />
		<tag k="place" v="locality" />
		<tag k="ssr:stedsnr" v="187790" />
	</node>
	<node id="-451266" lat="60.2248611132" lon="6.3038000081">
		<tag k="alt_name" v="Kvanndalsnuten, store" />
		<tag k="fixme" v="consider natural=peak for the most distinct mountains in the district" />
		<tag k="name" v="Store Kvanndalsnuten" />
		<tag k="natural" v="hill" />
		<tag k="place" v="locality" />
		<tag k="ssr:stedsnr" v="187786" />
	</node>
	<node id="-451265" lat="60.2279749984" lon="6.20589166572">
		<tag k="fixme" v="consider natural=peak for the most distinct mountains in the district" />
		<tag k="name" v="Lauvåsen" />
		<tag k="natural" v="hill" />
		<tag k="place" v="locality" />
		<tag k="ssr:stedsnr" v="187695" />
	</node>
	<node id="-451259" lat="60.2115250028" lon="6.15108888971">
		<tag k="name" v="Gangdalsberget" />
		<tag k="natural" v="hill" />
		<tag k="place" v="locality" />
		<tag k="ssr:stedsnr" v="187470" />
	</node>
	<node id="-451258" lat="60.2673361109" lon="6.25821943978">
		<tag k="name" v="Liastølmorki" />
		<tag k="natural" v="slope" />
		<tag k="place" v="locality" />
		<tag k="ssr:stedsnr" v="187459" />
	</node>
	<node id="-451256" lat="60.144480555" lon="6.16401111642">
		<tag k="name" v="Varden" />
		<tag k="natural" v="hill" />
		<tag k="place" v="locality" />
		<tag k="ssr:stedsnr" v="187557" />
	</node>
	<node id="-451254" lat="60.2837749984" lon="6.38034999775">
		<tag k="alt_name" v="Krossdalen, øvre" />
		<tag k="name" v="Øvre Krossdalen" />
		<tag k="natural" v="valley" />
		<tag k="place" v="locality" />
		<tag k="ssr:stedsnr" v="187434" />
	</node>
	<node id="-451252" lat="60.2943388881" lon="6.37939443762">
		<tag k="name" v="Håselii" />
		<tag k="natural" v="slope" />
		<tag k="place" v="locality" />
		<tag k="ssr:stedsnr" v="187417" />
	</node>
	<node id="-451249" lat="60.2527055587" lon="6.27182499526">
		<tag k="name" v="Grasdalen" />
		<tag k="natural" v="valley" />
		<tag k="place" v="locality" />
		<tag k="ssr:stedsnr" v="187376" />
	</node>
	<node id="-451248" lat="60.2616222242" lon="6.42213888906">
		<tag k="fixme" v="consider natural=peak for the most distinct mountains in the district" />
		<tag k="name" v="Bjørnafetet" />
		<tag k="natural" v="hill" />
		<tag k="place" v="locality" />
		<tag k="ssr:stedsnr" v="187370" />
	</node>
	<node id="-451245" lat="60.3556166692" lon="6.41525556434">
		<tag k="name" v="Storhaugen" />
		<tag k="natural" v="hill" />
		<tag k="place" v="locality" />
		<tag k="ssr:stedsnr" v="187064" />
	</node>
	<node id="-451244" lat="60.3519333375" lon="6.36409166417">
		<tag k="name" v="Mælsheiane" />
		<tag k="natural" v="slope" />
		<tag k="place" v="locality" />
		<tag k="ssr:stedsnr" v="187109" />
	</node>
	<node id="-451243" lat="60.2997527777" lon="6.31268888499">
		<tag k="name" v="Gjeskadalen" />
		<tag k="natural" v="valley" />
		<tag k="place" v="locality" />
		<tag k="ssr:stedsnr" v="187052" />
	</node>
	<node id="-451241" lat="60.3192805564" lon="6.48606943961">
		<tag k="name" v="Samladalen" />
		<tag k="natural" v="valley" />
		<tag k="place" v="locality" />
		<tag k="ssr:stedsnr" v="187043" />
	</node>
	<node id="-451238" lat="60.2439083327" lon="6.31182776928">
		<tag k="fixme" v="consider natural=peak for the most distinct mountains in the district" />
		<tag k="name" v="Middagsnuten" />
		<tag k="natural" v="hill" />
		<tag k="place" v="locality" />
		<tag k="ssr:stedsnr" v="186813" />
	</node>
	<node id="-451237" lat="60.2416805524" lon="6.40438334082">
		<tag k="name" v="Hestadalen" />
		<tag k="natural" v="valley" />
		<tag k="place" v="locality" />
		<tag k="ssr:stedsnr" v="186809" />
	</node>
	<node id="-451235" lat="60.2462333303" lon="6.23565832902">
		<tag k="fixme" v="consider natural=peak for the most distinct mountains in the district" />
		<tag k="name" v="Vassvikenuten" />
		<tag k="natural" v="hill" />
		<tag k="old_name" v="Vassviknut" />
		<tag k="place" v="locality" />
		<tag k="ssr:stedsnr" v="186805" />
	</node>
	<node id="-451234" lat="60.1682138918" lon="6.19249166694">
		<tag k="fixme" v="consider natural=peak for the most distinct mountains in the district" />
		<tag k="name" v="Stutafjellet" />
		<tag k="natural" v="hill" />
		<tag k="place" v="locality" />
		<tag k="ssr:stedsnr" v="186624" />
	</node>
	<node id="-451228" lat="60.3328416624" lon="6.41254166856">
		<tag k="name" v="Åsled" />
		<tag k="place" v="locality" />
		<tag k="ssr:stedsnr" v="160876" />
	</node>
	<node id="-451227" lat="60.3381972246" lon="6.40006111617">
		<tag k="name" v="Smellabrekka" />
		<tag k="natural" v="slope" />
		<tag k="place" v="locality" />
		<tag k="ssr:stedsnr" v="160868" />
	</node>
	<node id="-451225" lat="60.2854194481" lon="6.41763888187">
		<tag k="name" v="Kleivi" />
		<tag k="natural" v="slope" />
		<tag k="place" v="locality" />
		<tag k="ssr:stedsnr" v="160849" />
	</node>
	<node id="-451224" lat="60.2879805562" lon="6.40759999452">
		<tag k="name" v="Dyrteloni" />
		<tag k="place" v="locality" />
		<tag k="ssr:stedsnr" v="160843" />
	</node>
	<node id="-451223" lat="60.2749111144" lon="6.36032221517">
		<tag k="name" v="Gjetingsdalen" />
		<tag k="natural" v="valley" />
		<tag k="place" v="locality" />
		<tag k="ssr:stedsnr" v="160833" />
	</node>
	<node id="-451221" lat="60.3420222213" lon="6.4314611195">
		<tag k="name" v="Søtehaug" />
		<tag k="natural" v="hill" />
		<tag k="place" v="locality" />
		<tag k="ssr:stedsnr" v="160806" />
	</node>
	<node id="-451220" lat="60.3393555554" lon="6.50028888994">
		<tag k="name" v="Geitshellovbrotet" />
		<tag k="place" v="locality" />
		<tag k="ssr:stedsnr" v="160799" />
	</node>
	<node id="-451219" lat="60.2701500003" lon="6.27112500472">
		<tag k="name" v="Botnane" />
		<tag k="natural" v="valley" />
		<tag k="place" v="locality" />
		<tag k="ssr:stedsnr" v="160666" />
	</node>
	<node id="-451218" lat="60.2332583322" lon="6.27555277362">
		<tag k="name" v="Kvitali" />
		<tag k="natural" v="slope" />
		<tag k="place" v="locality" />
		<tag k="ssr:stedsnr" v="160627" />
	</node>
	<node id="-451215" lat="60.234852781" lon="6.21449722777">
		<tag k="name" v="Kattugledalen" />
		<tag k="natural" v="valley" />
		<tag k="place" v="locality" />
		<tag k="ssr:stedsnr" v="160580" />
	</node>
	<node id="-451213" lat="60.2944361139" lon="6.2557138879">
		<tag k="name" v="Kolhellerdalen" />
		<tag k="natural" v="valley" />
		<tag k="place" v="locality" />
		<tag k="ssr:stedsnr" v="159806" />
	</node>
	<node id="-451210" lat="60.2623805601" lon="6.25303334095">
		<tag k="fixme" v="consider natural=peak for the most distinct mountains in the district" />
		<tag k="name" v="Hengjefjell" />
		<tag k="natural" v="hill" />
		<tag k="place" v="locality" />
		<tag k="ssr:stedsnr" v="159786" />
	</node>
	<node id="-451209" lat="60.2690472261" lon="6.23703054956">
		<tag k="name" v="Kolgrovhaugen" />
		<tag k="natural" v="hill" />
		<tag k="place" v="locality" />
		<tag k="ssr:stedsnr" v="159768" />
	</node>
	<node id="-451208" lat="60.2492916693" lon="6.22263889048">
		<tag k="fixme" v="consider natural=peak for the most distinct mountains in the district" />
		<tag k="name" v="Nuten" />
		<tag k="natural" v="hill" />
		<tag k="ssr:stedsnr" v="159760" />
	</node>
	<node id="-451204" lat="60.2702055597" lon="6.32843611645">
		<tag k="name" v="Grøndal" />
		<tag k="natural" v="valley" />
		<tag k="place" v="locality" />
		<tag k="ssr:stedsnr" v="159586" />
	</node>
	<node id="-451201" lat="60.2332583306" lon="6.31095277061">
		<tag k="name" v="Koven" />
		<tag k="place" v="locality" />
		<tag k="ssr:stedsnr" v="159567" />
	</node>
	<node id="-451198" lat="60.1864361127" lon="6.10505278595">
		<tag k="name" v="Vasen" />
		<tag k="natural" v="hill" />
		<tag k="place" v="locality" />
		<tag k="ssr:stedsnr" v="159492" />
	</node>
	<node id="-451197" lat="60.1744444431" lon="6.126275003">
		<tag k="name" v="Fossalia" />
		<tag k="natural" v="slope" />
		<tag k="place" v="locality" />
		<tag k="ssr:stedsnr" v="159481" />
	</node>
	<node id="-451195" lat="60.3541111156" lon="6.37635277756">
		<tag k="name" v="Buføreled" />
		<tag k="place" v="locality" />
		<tag k="ssr:stedsnr" v="159680" />
	</node>
	<node id="-451193" lat="60.2879861074" lon="6.3650138826">
		<tag k="name" v="Gjotena" />
		<tag k="place" v="locality" />
		<tag k="ssr:stedsnr" v="159671" />
	</node>
	<node id="-451191" lat="60.291958334" lon="6.31616111155">
		<tag k="name" v="Buskor" />
		<tag k="natural" v="valley" />
		<tag k="place" v="locality" />
		<tag k="ssr:stedsnr" v="159662" />
	</node>
	<node id="-451189" lat="60.2989388881" lon="6.36417777667">
		<tag k="name" v="Lyingahaug" />
		<tag k="natural" v="hill" />
		<tag k="place" v="locality" />
		<tag k="ssr:stedsnr" v="159638" />
	</node>
	<node id="-451188" lat="60.3174472202" lon="6.39680277815">
		<tag k="name" v="Bjørndalen" />
		<tag k="natural" v="valley" />
		<tag k="place" v="locality" />
		<tag k="ssr:stedsnr" v="159628" />
	</node>
	<node id="-451187" lat="60.2526833335" lon="6.30219722487">
		<tag k="name" v="Ormhaug" />
		<tag k="natural" v="hill" />
		<tag k="place" v="locality" />
		<tag k="ssr:stedsnr" v="159622" />
	</node>
	<node id="-451186" lat="60.3643055574" lon="6.4071777857">
		<tag k="name" v="Åslii" />
		<tag k="natural" v="slope" />
		<tag k="place" v="locality" />
		<tag k="ssr:stedsnr" v="159092" />
	</node>
	<node id="-451184" lat="60.2570222238" lon="6.39877777319">
		<tag k="name" v="Heiane" />
		<tag k="natural" v="hill" />
		<tag k="place" v="locality" />
		<tag k="ssr:stedsnr" v="159072" />
	</node>
	<node id="-451181" lat="60.2785000005" lon="6.45027499644">
		<tag k="fixme" v="consider natural=peak for the most distinct mountains in the district" />
		<tag k="name" v="Oksli" />
		<tag k="natural" v="hill" />
		<tag k="place" v="locality" />
		<tag k="ssr:stedsnr" v="127548" />
	</node>
	<node id="-451178" lat="60.2949694438" lon="6.40334444178">
		<tag k="name" v="Dåren" />
		<tag k="natural" v="hill" />
		<tag k="place" v="locality" />
		<tag k="ssr:stedsnr" v="127492" />
	</node>
	<node id="-451173" lat="60.3423416666" lon="6.48710277527">
		<tag k="name" v="Botnane" />
		<tag k="natural" v="valley" />
		<tag k="place" v="locality" />
		<tag k="ssr:stedsnr" v="127102" />
	</node>
	<node id="-451171" lat="60.139394448" lon="6.16734999618">
		<tag k="name" v="Tømmerhaugen" />
		<tag k="natural" v="hill" />
		<tag k="place" v="locality" />
		<tag k="ssr:stedsnr" v="126881" />
	</node>
	<node id="-451170" lat="60.2368805599" lon="6.20253610499">
		<tag k="name" v="Lunderdal" />
		<tag k="natural" v="valley" />
		<tag k="place" v="locality" />
		<tag k="ssr:stedsnr" v="126696" />
	</node>
	<node id="-451165" lat="60.2075638879" lon="6.1419555594">
		<tag k="name" v="Hujareholten" />
		<tag k="natural" v="hill" />
		<tag k="place" v="locality" />
		<tag k="ssr:stedsnr" v="126505" />
	</node>
	<node id="-451162" lat="60.2775972192" lon="6.35233611324">
		<tag k="name" v="Hovden" />
		<tag k="natural" v="hill" />
		<tag k="place" v="locality" />
		<tag k="ssr:stedsnr" v="126480" />
	</node>
	<node id="-451155" lat="60.2601000043" lon="6.26095833983">
		<tag k="name" v="Smørskarddalen" />
		<tag k="natural" v="valley" />
		<tag k="place" v="locality" />
		<tag k="ssr:stedsnr" v="126376" />
	</node>
	<node id="-451153" lat="60.3212638897" lon="6.41384443664">
		<tag k="name" v="Hovden" />
		<tag k="natural" v="hill" />
		<tag k="place" v="locality" />
		<tag k="ssr:stedsnr" v="126001" />
	</node>
	<node id="-451151" lat="60.3260055514" lon="6.37435556231">
		<tag k="fixme" v="consider natural=peak for the most distinct mountains in the district" />
		<tag k="name" v="Skorpa" />
		<tag k="natural" v="hill" />
		<tag k="place" v="locality" />
		<tag k="ssr:stedsnr" v="126022" />
	</node>
	<node id="-451150" lat="60.335991666" lon="6.46825556191">
		<tag k="fixme" v="consider natural=peak for the most distinct mountains in the district" />
		<tag k="name" v="Samdalsbrotet" />
		<tag k="natural" v="hill" />
		<tag k="place" v="locality" />
		<tag k="ssr:stedsnr" v="126018" />
	</node>
	<node id="-451149" lat="60.3169055599" lon="6.35768055504">
		<tag k="name" v="Sekk" />
		<tag k="natural" v="valley" />
		<tag k="place" v="locality" />
		<tag k="ssr:stedsnr" v="126006" />
	</node>
	<node id="-451148" lat="60.1782908166" lon="6.22772516397">
		<tag k="alt_name" v="Grøna" />
		<tag k="fixme" v="consider natural=peak for the most distinct mountains in the district" />
		<tag k="name" v="Grønhaug" />
		<tag k="natural" v="hill" />
		<tag k="place" v="locality" />
		<tag k="ssr:stedsnr" v="125881" />
	</node>
	<node id="-451142" lat="60.3399749981" lon="6.43663610245">
		<tag k="name" v="Kvitakjetta" />
		<tag k="place" v="locality" />
		<tag k="ssr:stedsnr" v="99885" />
	</node>
	<node id="-451140" lat="60.3283111155" lon="6.41541389054">
		<tag k="name" v="Tossegjelet" />
		<tag k="place" v="locality" />
		<tag k="ssr:stedsnr" v="99872" />
	</node>
	<node id="-451138" lat="60.3508333294" lon="6.41140556493">
		<tag k="name" v="Orrelii" />
		<tag k="natural" v="slope" />
		<tag k="place" v="locality" />
		<tag k="ssr:stedsnr" v="99855" />
	</node>
	<node id="-451137" lat="60.241002782" lon="6.24239444615">
		<tag k="name" v="Skuffo" />
		<tag k="place" v="locality" />
		<tag k="ssr:stedsnr" v="99818" />
	</node>
	<node id="-451133" lat="60.2474027766" lon="6.22853889401">
		<tag k="fixme" v="consider natural=peak for the most distinct mountains in the district" />
		<tag k="name" v="Legenolten" />
		<tag k="natural" v="hill" />
		<tag k="ssr:stedsnr" v="99760" />
	</node>
	<node id="-451132" lat="60.2483611148" lon="6.23406666491">
		<tag k="fixme" v="consider natural=peak for the most distinct mountains in the district" />
		<tag k="name" v="Veranuten" />
		<tag k="natural" v="hill" />
		<tag k="ssr:stedsnr" v="99759" />
	</node>
	<node id="-451131" lat="60.2463500031" lon="6.20736110657">
		<tag k="name" v="Paddebakken" />
		<tag k="natural" v="slope" />
		<tag k="place" v="locality" />
		<tag k="ssr:stedsnr" v="99746" />
	</node>
	<node id="-451130" lat="60.2774444456" lon="6.28015832788">
		<tag k="name" v="Brattabrekka" />
		<tag k="natural" v="slope" />
		<tag k="place" v="locality" />
		<tag k="ssr:stedsnr" v="99737" />
	</node>
	<node id="-451129" lat="60.2753222214" lon="6.27595277773">
		<tag k="name" v="Stokkakleiv" />
		<tag k="natural" v="slope" />
		<tag k="place" v="locality" />
		<tag k="ssr:stedsnr" v="99731" />
	</node>
	<node id="-451128" lat="60.2335305529" lon="6.24225000554">
		<tag k="name" v="Amundsstegsgjelet" />
		<tag k="place" v="locality" />
		<tag k="ssr:stedsnr" v="99709" />
	</node>
	<node id="-451127" lat="60.2042055567" lon="6.20581111795">
		<tag k="name" v="Elleveskar" />
		<tag k="natural" v="valley" />
		<tag k="place" v="locality" />
		<tag k="ssr:stedsnr" v="99703" />
	</node>
	<node id="-451126" lat="60.2319888922" lon="6.2091055495">
		<tag k="name" v="Tjorehjellane" />
		<tag k="place" v="locality" />
		<tag k="ssr:stedsnr" v="99700" />
	</node>
	<node id="-451121" lat="60.3071750029" lon="6.37027222567">
		<tag k="name" v="Storalii" />
		<tag k="natural" v="slope" />
		<tag k="place" v="locality" />
		<tag k="ssr:stedsnr" v="99587" />
	</node>
	<node id="-451120" lat="60.3070722197" lon="6.3869472191">
		<tag k="name" v="Åreiane" />
		<tag k="place" v="locality" />
		<tag k="ssr:stedsnr" v="99586" />
	</node>
	<node id="-451119" lat="60.2476472209" lon="6.29836945098">
		<tag k="name" v="Osterli" />
		<tag k="natural" v="slope" />
		<tag k="place" v="locality" />
		<tag k="ssr:stedsnr" v="99570" />
	</node>
	<node id="-451118" lat="60.2439805555" lon="6.30188055088">
		<tag k="name" v="Andvereleitet" />
		<tag k="natural" v="slope" />
		<tag k="place" v="locality" />
		<tag k="ssr:stedsnr" v="99568" />
	</node>
	<node id="-451117" lat="60.2440138909" lon="6.31659167">
		<tag k="name" v="Korkatrekkjaren" />
		<tag k="place" v="locality" />
		<tag k="ssr:stedsnr" v="99566" />
	</node>
	<node id="-451116" lat="60.2578166703" lon="6.30136943534">
		<tag k="name" v="Breiseterindane" />
		<tag k="place" v="locality" />
		<tag k="ssr:stedsnr" v="99554" />
	</node>
	<node id="-451114" lat="60.282619444" lon="6.37301667513">
		<tag k="name" v="Roddegjel" />
		<tag k="natural" v="gorge" />
		<tag k="ssr:stedsnr" v="99543" />
	</node>
	<node id="-451112" lat="60.2750694479" lon="6.30485555661">
		<tag k="name" v="Trollagjelet" />
		<tag k="natural" v="gorge" />
		<tag k="ssr:stedsnr" v="99531" />
	</node>
	<node id="-451111" lat="60.278538892" lon="6.31271111494">
		<tag k="name" v="Katlaberg" />
		<tag k="natural" v="hill" />
		<tag k="place" v="locality" />
		<tag k="ssr:stedsnr" v="99527" />
	</node>
	<node id="-451109" lat="60.1817805516" lon="6.11374722621">
		<tag k="name" v="Kvilet" />
		<tag k="place" v="locality" />
		<tag k="ssr:stedsnr" v="99427" />
	</node>
	<node id="-451108" lat="60.1402555584" lon="6.18990834049">
		<tag k="name" v="Fossalia" />
		<tag k="natural" v="slope" />
		<tag k="place" v="locality" />
		<tag k="ssr:stedsnr" v="99388" />
	</node>
	<node id="-451107" lat="60.1245166622" lon="6.1758749972">
		<tag k="name" v="Kalvaskor" />
		<tag k="natural" v="valley" />
		<tag k="place" v="locality" />
		<tag k="ssr:stedsnr" v="99249" />
	</node>
	<node id="-451106" lat="60.350969442" lon="6.44570834019">
		<tag k="name" v="Smørhoft" />
		<tag k="natural" v="hill" />
		<tag k="place" v="locality" />
		<tag k="ssr:stedsnr" v="99092" />
	</node>
	<node id="-451105" lat="60.3264777804" lon="6.4087277847">
		<tag k="name" v="Bjørnespjot" />
		<tag k="natural" v="hill" />
		<tag k="place" v="locality" />
		<tag k="ssr:stedsnr" v="99078" />
	</node>
	<node id="-451104" lat="60.3146444434" lon="6.41978333656">
		<tag k="name" v="Vasslii" />
		<tag k="natural" v="slope" />
		<tag k="place" v="locality" />
		<tag k="ssr:stedsnr" v="99076" />
	</node>
	<node id="-451103" lat="60.3268138846" lon="6.40034444922">
		<tag k="name" v="Haugskvilet" />
		<tag k="natural" v="hill" />
		<tag k="place" v="locality" />
		<tag k="ssr:stedsnr" v="99077" />
	</node>
	<node id="-451102" lat="60.2608333349" lon="6.40451667231">
		<tag k="name" v="Kjeaskori" />
		<tag k="natural" v="valley" />
		<tag k="place" v="locality" />
		<tag k="ssr:stedsnr" v="99072" />
	</node>
	<node id="-451098" lat="60.2489916709" lon="6.35803054703">
		<tag k="name" v="Osadalskaret" />
		<tag k="natural" v="valley" />
		<tag k="place" v="locality" />
		<tag k="ssr:stedsnr" v="98816" />
	</node>
	<node id="-451096" lat="60.2587250044" lon="6.38884167142">
		<tag k="name" v="Langedalen" />
		<tag k="natural" v="valley" />
		<tag k="place" v="locality" />
		<tag k="ssr:stedsnr" v="67588" />
	</node>
	<node id="-451084" lat="60.2905055523" lon="6.35282777046">
		<tag k="name" v="Mørkhaugen" />
		<tag k="natural" v="hill" />
		<tag k="place" v="locality" />
		<tag k="ssr:stedsnr" v="66429" />
	</node>
	<node id="-451081" lat="60.2959000028" lon="6.33244444325">
		<tag k="fixme" v="consider natural=peak for the most distinct mountains in the district" />
		<tag k="name" v="Hædna" />
		<tag k="natural" v="hill" />
		<tag k="place" v="locality" />
		<tag k="ssr:stedsnr" v="66416" />
	</node>
	<node id="-451080" lat="60.2518527815" lon="6.22170000074">
		<tag k="name" v="Vasaberget" />
		<tag k="natural" v="hill" />
		<tag k="place" v="locality" />
		<tag k="ssr:stedsnr" v="66384" />
	</node>
	<node id="-451079" lat="60.3487111073" lon="6.36872500742">
		<tag k="name" v="Ravnaberg" />
		<tag k="natural" v="hill" />
		<tag k="place" v="locality" />
		<tag k="ssr:stedsnr" v="66115" />
	</node>
	<node id="-451076" lat="60.3596111147" lon="6.38065000133">
		<tag k="alt_name" v="Samlahovd" />
		<tag k="fixme" v="consider natural=peak for the most distinct mountains in the district" />
		<tag k="name" v="Samlen" />
		<tag k="natural" v="hill" />
		<tag k="place" v="locality" />
		<tag k="ssr:stedsnr" v="66077" />
	</node>
	<node id="-451073" lat="60.3120805539" lon="6.43747777856">
		<tag k="name" v="Torsteinskorfjellet" />
		<tag k="natural" v="hill" />
		<tag k="place" v="locality" />
		<tag k="ssr:stedsnr" v="66051" />
	</node>
	<node id="-451070" lat="60.3031249975" lon="6.35084999875">
		<tag k="fixme" v="consider natural=peak for the most distinct mountains in the district" />
		<tag k="name" v="Gaddane" />
		<tag k="natural" v="hill" />
		<tag k="place" v="locality" />
		<tag k="ssr:stedsnr" v="66024" />
	</node>
	<node id="-451069" lat="60.3077444448" lon="6.30723333093">
		<tag k="name" v="Lyingahaugen" />
		<tag k="natural" v="hill" />
		<tag k="place" v="locality" />
		<tag k="ssr:stedsnr" v="66016" />
	</node>
	<node id="-451068" lat="60.3224583348" lon="6.48403055262">
		<tag k="name" v="Djupadalen" />
		<tag k="natural" v="valley" />
		<tag k="place" v="locality" />
		<tag k="ssr:stedsnr" v="66010" />
	</node>
	<node id="-451065" lat="60.228024998" lon="6.38366389591">
		<tag k="fixme" v="consider natural=peak for the most distinct mountains in the district" />
		<tag k="name" v="Steinafjell" />
		<tag k="natural" v="hill" />
		<tag k="place" v="locality" />
		<tag k="ssr:stedsnr" v="65812" />
	</node>
	<node id="-451061" lat="60.1760749997" lon="6.15280832445">
		<tag k="fixme" v="consider natural=peak for the most distinct mountains in the district" />
		<tag k="name" v="Storhei" />
		<tag k="natural" v="hill" />
		<tag k="place" v="locality" />
		<tag k="ssr:stedsnr" v="65572" />
	</node>
	<node id="-451059" lat="60.1678833351" lon="6.12688610874">
		<tag k="name" v="Sørlikultane" />
		<tag k="natural" v="hill" />
		<tag k="place" v="locality" />
		<tag k="ssr:stedsnr" v="65553" />
	</node>
	<node id="-451053" lat="60.330533332" lon="6.41271666899">
		<tag k="name" v="Krisfisess" />
		<tag k="old_name" v="KLristisess" />
		<tag k="place" v="locality" />
		<tag k="ssr:stedsnr" v="38899" />
	</node>
	<node id="-451052" lat="60.3377583321" lon="6.45468611203">
		<tag k="name" v="Halasterta" />
		<tag k="place" v="locality" />
		<tag k="ssr:stedsnr" v="38894" />
	</node>
	<node id="-451051" lat="60.2879861077" lon="6.432302778">
		<tag k="name" v="Slettena" />
		<tag k="place" v="locality" />
		<tag k="ssr:stedsnr" v="38888" />
	</node>
	<node id="-451049" lat="60.2666305584" lon="6.29674722098">
		<tag k="name" v="Tveddalsrindane" />
		<tag k="natural" v="hill" />
		<tag k="place" v="locality" />
		<tag k="ssr:stedsnr" v="38866" />
	</node>
	<node id="-451048" lat="60.3460777761" lon="6.40954444724">
		<tag k="name" v="Rodna" />
		<tag k="place" v="locality" />
		<tag k="ssr:stedsnr" v="38860" />
	</node>
	<node id="-451047" lat="60.3465888845" lon="6.49698333777">
		<tag k="name" v="Sundet" />
		<tag k="place" v="locality" />
		<tag k="ssr:stedsnr" v="38852" />
	</node>
	<node id="-451046" lat="60.2169583314" lon="6.21832499179">
		<tag k="name" v="Daurmålsdalen" />
		<tag k="natural" v="valley" />
		<tag k="place" v="locality" />
		<tag k="ssr:stedsnr" v="38837" />
	</node>
	<node id="-451045" lat="60.2943861107" lon="6.25271944412">
		<tag k="name" v="Lindeløypet" />
		<tag k="place" v="locality" />
		<tag k="ssr:stedsnr" v="38798" />
	</node>
	<node id="-451044" lat="60.302602776" lon="6.26316389161">
		<tag k="name" v="Rundehaugen" />
		<tag k="natural" v="hill" />
		<tag k="place" v="locality" />
		<tag k="ssr:stedsnr" v="38793" />
	</node>
	<node id="-451043" lat="60.2561972189" lon="6.23516388757">
		<tag k="name" v="Lynghaugen" />
		<tag k="natural" v="hill" />
		<tag k="place" v="locality" />
		<tag k="ssr:stedsnr" v="38778" />
	</node>
	<node id="-451041" lat="60.2826500013" lon="6.26846944611">
		<tag k="name" v="Jondalsleitet" />
		<tag k="natural" v="slope" />
		<tag k="place" v="locality" />
		<tag k="ssr:stedsnr" v="38728" />
	</node>
	<node id="-451035" lat="60.2336944465" lon="6.19396944752">
		<tag k="name" v="Sauaskarvet" />
		<tag k="natural" v="valley" />
		<tag k="place" v="locality" />
		<tag k="ssr:stedsnr" v="38681" />
	</node>
	<node id="-451034" lat="60.228716666" lon="6.20933055166">
		<tag k="name" v="Heia" />
		<tag k="natural" v="hill" />
		<tag k="place" v="locality" />
		<tag k="ssr:stedsnr" v="38675" />
	</node>
	<node id="-451033" lat="60.2237916696" lon="6.19496665798">
		<tag k="name" v="Myrlidalen" />
		<tag k="natural" v="valley" />
		<tag k="place" v="locality" />
		<tag k="ssr:stedsnr" v="38670" />
	</node>
	<node id="-451032" lat="60.2335527807" lon="6.22131666319">
		<tag k="name" v="Kleivgardsskarvet" />
		<tag k="natural" v="valley" />
		<tag k="place" v="locality" />
		<tag k="ssr:stedsnr" v="38660" />
	</node>
	<node id="-451031" lat="60.1881305547" lon="6.1220722291">
		<tag k="name" v="Dombseggi" />
		<tag k="natural" v="ridge" />
		<tag k="place" v="locality" />
		<tag k="ssr:stedsnr" v="38653" />
	</node>
	<node id="-451030" lat="60.1984249982" lon="6.09872778345">
		<tag k="name" v="Streitet" />
		<tag k="place" v="locality" />
		<tag k="ssr:stedsnr" v="38650" />
	</node>
	<node id="-451029" lat="60.3526472183" lon="6.38696111213">
		<tag k="name" v="Moldbakkeled" />
		<tag k="natural" v="slope" />
		<tag k="place" v="locality" />
		<tag k="ssr:stedsnr" v="38637" />
	</node>
	<node id="-451028" lat="60.3560166701" lon="6.39602222821">
		<tag k="name" v="Hjellestadhamrane" />
		<tag k="natural" v="hill" />
		<tag k="place" v="locality" />
		<tag k="ssr:stedsnr" v="38628" />
	</node>
	<node id="-451027" lat="60.2862472256" lon="6.38018055665">
		<tag k="name" v="Omnskor" />
		<tag k="natural" v="valley" />
		<tag k="place" v="locality" />
		<tag k="ssr:stedsnr" v="38624" />
	</node>
	<node id="-451026" lat="60.286055557" lon="6.39075832676">
		<tag k="name" v="Koprebakkane" />
		<tag k="natural" v="slope" />
		<tag k="place" v="locality" />
		<tag k="ssr:stedsnr" v="38622" />
	</node>
	<node id="-451025" lat="60.3003416644" lon="6.28753332508">
		<tag k="name" v="Lausaberg" />
		<tag k="natural" v="hill" />
		<tag k="place" v="locality" />
		<tag k="ssr:stedsnr" v="38596" />
	</node>
	<node id="-451024" lat="60.304233336" lon="6.36224444982">
		<tag k="name" v="Storelii" />
		<tag k="natural" v="slope" />
		<tag k="place" v="locality" />
		<tag k="ssr:stedsnr" v="38592" />
	</node>
	<node id="-451023" lat="60.3124055547" lon="6.33811389111">
		<tag k="fixme" v="consider natural=peak for the most distinct mountains in the district" />
		<tag k="name" v="Åsen" />
		<tag k="natural" v="hill" />
		<tag k="place" v="locality" />
		<tag k="ssr:stedsnr" v="38576" />
	</node>
	<node id="-451021" lat="60.2676722242" lon="6.37534166486">
		<tag k="name" v="Novi" />
		<tag k="natural" v="ridge" />
		<tag k="place" v="locality" />
		<tag k="ssr:stedsnr" v="38551" />
	</node>
	<node id="-451020" lat="60.2782499982" lon="6.3649361069">
		<tag k="name" v="Ståhaug" />
		<tag k="natural" v="hill" />
		<tag k="place" v="locality" />
		<tag k="ssr:stedsnr" v="38540" />
	</node>
	<node id="-451019" lat="60.2727833325" lon="6.29488888843">
		<tag k="name" v="Halsgjelet" />
		<tag k="natural" v="gorge" />
		<tag k="ssr:stedsnr" v="38522" />
	</node>
	<node id="-451016" lat="60.1170277745" lon="6.16088611017">
		<tag k="name" v="Trolladalsbrotet" />
		<tag k="natural" v="ridge" />
		<tag k="place" v="locality" />
		<tag k="ssr:stedsnr" v="38450" />
	</node>
	<node id="-451013" lat="60.1504888932" lon="6.18979444717">
		<tag k="fixme" v="consider natural=peak for the most distinct mountains in the district" />
		<tag k="name" v="Vetlafjellet" />
		<tag k="natural" v="hill" />
		<tag k="place" v="locality" />
		<tag k="ssr:stedsnr" v="38411" />
	</node>
	<node id="-451012" lat="60.1458500041" lon="6.13778887999">
		<tag k="name" v="Kolamila" />
		<tag k="natural" v="slope" />
		<tag k="place" v="locality" />
		<tag k="ssr:stedsnr" v="38269" />
	</node>
	<node id="-451009" lat="60.3306444408" lon="6.39403055923">
		<tag k="name" v="Ingeleivsleitet" />
		<tag k="natural" v="slope" />
		<tag k="place" v="locality" />
		<tag k="ssr:stedsnr" v="38059" />
	</node>
	<node id="-451008" lat="60.2572500001" lon="6.35688888411">
		<tag k="name" v="Mosadalen" />
		<tag k="natural" v="valley" />
		<tag k="place" v="locality" />
		<tag k="ssr:stedsnr" v="37828" />
	</node>
	<node id="-451004" lat="60.2649777813" lon="6.27631943791">
		<tag k="name" v="Fletane" />
		<tag k="natural" v="slope" />
		<tag k="place" v="locality" />
		<tag k="ssr:stedsnr" v="6536" />
	</node>
	<node id="-451003" lat="60.2619666703" lon="6.34314444804">
		<tag k="fixme" v="consider natural=peak for the most distinct mountains in the district" />
		<tag k="name" v="Grytingsfjellet" />
		<tag k="natural" v="hill" />
		<tag k="place" v="locality" />
		<tag k="ssr:stedsnr" v="6529" />
	</node>
	<node id="-451002" lat="60.2717555586" lon="6.35412500005">
		<tag k="name" v="Mørkedalen" />
		<tag k="natural" v="valley" />
		<tag k="place" v="locality" />
		<tag k="ssr:stedsnr" v="6527" />
	</node>
	<node id="-451000" lat="60.2226361152" lon="6.38741666203">
		<tag k="name" v="Urdadalen" />
		<tag k="natural" v="valley" />
		<tag k="place" v="locality" />
		<tag k="ssr:stedsnr" v="5801" />
	</node>
	<node id="-450998" lat="60.2375277771" lon="6.21492778132">
		<tag k="fixme" v="consider natural=peak for the most distinct mountains in the district" />
		<tag k="name" v="Øydjordsfjellet" />
		<tag k="natural" v="hill" />
		<tag k="place" v="locality" />
		<tag k="ssr:stedsnr" v="5709" />
	</node>
	<node id="-450995" lat="60.2032750012" lon="6.14426111265">
		<tag k="name" v="Smaladalen" />
		<tag k="natural" v="valley" />
		<tag k="place" v="locality" />
		<tag k="ssr:stedsnr" v="5546" />
	</node>
	<node id="-450994" lat="60.2027166627" lon="6.16692499141">
		<tag k="fixme" v="consider natural=peak for the most distinct mountains in the district" />
		<tag k="name" v="Gangdalsnuten" />
		<tag k="natural" v="hill" />
		<tag k="place" v="locality" />
		<tag k="ssr:stedsnr" v="5545" />
	</node>
	<node id="-450993" lat="60.2073277774" lon="6.1884999938">
		<tag k="name" v="Middagsdalen" />
		<tag k="natural" v="valley" />
		<tag k="place" v="locality" />
		<tag k="ssr:stedsnr" v="5541" />
	</node>
	<node id="-450988" lat="60.2089583308" lon="6.17557499189">
		<tag k="name" v="Kvanngrød" />
		<tag k="natural" v="slope" />
		<tag k="place" v="locality" />
		<tag k="ssr:stedsnr" v="5477" />
	</node>
	<node id="-450987" lat="60.2062777774" lon="6.1344111123">
		<tag k="name" v="Kyrkjeberget" />
		<tag k="natural" v="hill" />
		<tag k="place" v="locality" />
		<tag k="ssr:stedsnr" v="5475" />
	</node>
	<node id="-450983" lat="60.2932351218" lon="6.343116508">
		<tag k="name" v="Oddmundshaugen" />
		<tag k="natural" v="hill" />
		<tag k="place" v="locality" />
		<tag k="ssr:stedsnr" v="5436" />
	</node>
	<node id="-450982" lat="60.293033331" lon="6.32350277383">
		<tag k="name" v="Ilaskori" />
		<tag k="natural" v="slope" />
		<tag k="place" v="locality" />
		<tag k="ssr:stedsnr" v="5431" />
	</node>
	<node id="-450981" lat="60.290327776" lon="6.29674166541">
		<tag k="name" v="Toni" />
		<tag k="place" v="locality" />
		<tag k="ssr:stedsnr" v="5418" />
	</node>
	<node id="-450980" lat="60.2616000013" lon="6.3743999945">
		<tag k="name" v="Kvernabekknutane" />
		<tag k="natural" v="hill" />
		<tag k="place" v="locality" />
		<tag k="ssr:stedsnr" v="5380" />
	</node>
	<node id="-450977" lat="60.260113889" lon="6.36269999702">
		<tag k="name" v="Nonskarddalen" />
		<tag k="natural" v="valley" />
		<tag k="place" v="locality" />
		<tag k="ssr:stedsnr" v="5368" />
	</node>
	<node id="-450975" lat="60.2561611133" lon="6.30821943779">
		<tag k="name" v="Breidsetenotten" />
		<tag k="natural" v="hill" />
		<tag k="place" v="locality" />
		<tag k="ssr:stedsnr" v="5365" />
	</node>
	<node id="-450972" lat="60.3020916675" lon="6.35677778029">
		<tag k="name" v="Langedalen" />
		<tag k="natural" v="valley" />
		<tag k="place" v="locality" />
		<tag k="ssr:stedsnr" v="5020" />
	</node>
	<node id="-450969" lat="60.3101194408" lon="6.34033888043">
		<tag k="name" v="Espedalen" />
		<tag k="natural" v="valley" />
		<tag k="place" v="locality" />
		<tag k="ssr:stedsnr" v="5007" />
	</node>
	<node id="-450968" lat="60.3118527739" lon="6.35752776968">
		<tag k="name" v="Raudsteindalen" />
		<tag k="natural" v="valley" />
		<tag k="place" v="locality" />
		<tag k="ssr:stedsnr" v="5005" />
	</node>
	<node id="-450967" lat="60.2460333302" lon="6.33661111993">
		<tag k="fixme" v="consider natural=peak for the most distinct mountains in the district" />
		<tag k="name" v="Øykjafjell" />
		<tag k="natural" v="hill" />
		<tag k="place" v="locality" />
		<tag k="ssr:stedsnr" v="4821" />
	</node>
	<node id="-450966" lat="60.2489944482" lon="6.39475000618">
		<tag k="name" v="Svartavassleitet" />
		<tag k="natural" v="valley" />
		<tag k="place" v="locality" />
		<tag k="ssr:stedsnr" v="4815" />
	</node>
	<node id="-450965" lat="60.2434583323" lon="6.2482361178">
		<tag k="name" v="Mørkelii" />
		<tag k="natural" v="slope" />
		<tag k="place" v="locality" />
		<tag k="ssr:stedsnr" v="4806" />
	</node>
	<node id="-450962" lat="60.1629694455" lon="6.16313889697">
		<tag k="fixme" v="consider natural=peak for the most distinct mountains in the district" />
		<tag k="name" v="Storahorga" />
		<tag k="natural" v="hill" />
		<tag k="place" v="locality" />
		<tag k="ssr:stedsnr" v="4564" />
	</node>
	<node id="-450961" lat="60.3042531203" lon="6.43690680454">
		<tag k="alt_name" v="Kringlehaugen" />
		<tag k="fixme" v="consider natural=peak for the most distinct mountains in the district" />
		<tag k="name" v="Kringlehaug" />
		<tag k="natural" v="hill" />
		<tag k="ssr:stedsnr" v="491037" />
	</node>
	<node id="-450948" lat="60.3410138911" lon="6.45129166346">
		<tag k="name" v="Skygget" />
		<tag k="place" v="locality" />
		<tag k="ssr:stedsnr" v="888858" />
	</node>
	<node id="-450947" lat="60.3392833334" lon="6.43384722801">
		<tag k="name" v="Reistehaug" />
		<tag k="natural" v="hill" />
		<tag k="place" v="locality" />
		<tag k="ssr:stedsnr" v="888853" />
	</node>
	<node id="-450946" lat="60.1897277768" lon="6.09872776893">
		<tag k="name" v="Svarthammar" />
		<tag k="natural" v="hill" />
		<tag k="place" v="locality" />
		<tag k="ssr:stedsnr" v="888846" />
	</node>
	<node id="-450944" lat="60.2414999978" lon="6.25966388565">
		<tag k="name" v="Svartaholet" />
		<tag k="natural" v="valley" />
		<tag k="place" v="locality" />
		<tag k="ssr:stedsnr" v="888820" />
	</node>
	<node id="-450943" lat="60.3452416706" lon="6.41771944184">
		<tag k="name" v="Bjørgena" />
		<tag k="natural" v="hill" />
		<tag k="place" v="locality" />
		<tag k="ssr:stedsnr" v="888810" />
	</node>
	<node id="-450941" lat="60.2848916678" lon="6.30311389101">
		<tag k="name" v="Hovden" />
		<tag k="natural" v="hill" />
		<tag k="place" v="locality" />
		<tag k="ssr:stedsnr" v="888776" />
	</node>
	<node id="-450940" lat="60.2759138846" lon="6.37368888359">
		<tag k="name" v="Klårsteinsberget" />
		<tag k="natural" v="hill" />
		<tag k="place" v="locality" />
		<tag k="ssr:stedsnr" v="888774" />
	</node>
	<node id="-450939" lat="60.2975361143" lon="6.25359999729">
		<tag k="name" v="Rustena" />
		<tag k="natural" v="hill" />
		<tag k="place" v="locality" />
		<tag k="ssr:stedsnr" v="888741" />
	</node>
	<node id="-450938" lat="60.291747226" lon="6.23453056083">
		<tag k="name" v="Laksegildra" />
		<tag k="place" v="locality" />
		<tag k="ssr:stedsnr" v="888740" />
	</node>
	<node id="-450936" lat="60.2568472217" lon="6.24406389277">
		<tag k="name" v="Skukkane" />
		<tag k="natural" v="hill" />
		<tag k="place" v="locality" />
		<tag k="ssr:stedsnr" v="888719" />
	</node>
	<node id="-450933" lat="60.2840055567" lon="6.26494444319">
		<tag k="name" v="Bjørndalen" />
		<tag k="natural" v="valley" />
		<tag k="place" v="locality" />
		<tag k="ssr:stedsnr" v="888669" />
	</node>
	<node id="-450930" lat="60.2385833352" lon="6.25395555351">
		<tag k="name" v="Sovarebakken" />
		<tag k="natural" v="slope" />
		<tag k="place" v="locality" />
		<tag k="ssr:stedsnr" v="888656" />
	</node>
	<node id="-450928" lat="60.2276583373" lon="6.20345554882">
		<tag k="name" v="Revskor" />
		<tag k="natural" v="valley" />
		<tag k="place" v="locality" />
		<tag k="ssr:stedsnr" v="888630" />
	</node>
	<node id="-450927" lat="60.2258888918" lon="6.21670555508">
		<tag k="name" v="Vesle Daurmålsdalen" />
		<tag k="natural" v="valley" />
		<tag k="place" v="locality" />
		<tag k="ssr:stedsnr" v="888628" />
	</node>
	<node id="-450925" lat="60.2397166668" lon="6.19370833781">
		<tag k="name" v="Russahola" />
		<tag k="natural" v="valley" />
		<tag k="place" v="locality" />
		<tag k="ssr:stedsnr" v="888616" />
	</node>
	<node id="-450924" lat="60.2155555539" lon="6.14516944164">
		<tag k="name" v="Svartesvoene" />
		<tag k="natural" v="hill" />
		<tag k="place" v="locality" />
		<tag k="ssr:stedsnr" v="888617" />
	</node>
	<node id="-450923" lat="60.1903027741" lon="6.08862777413">
		<tag k="name" v="Leitet" />
		<tag k="natural" v="slope" />
		<tag k="place" v="locality" />
		<tag k="ssr:stedsnr" v="888612" />
	</node>
	<node id="-450922" lat="60.1876111149" lon="6.11286110785">
		<tag k="name" v="Kuskaret" />
		<tag k="natural" v="valley" />
		<tag k="place" v="locality" />
		<tag k="ssr:stedsnr" v="888602" />
	</node>
	<node id="-450921" lat="60.1905777746" lon="6.16079722424">
		<tag k="name" v="Kleivane" />
		<tag k="natural" v="slope" />
		<tag k="place" v="locality" />
		<tag k="ssr:stedsnr" v="888599" />
	</node>
	<node id="-450918" lat="60.293508336" lon="6.32065832578">
		<tag k="name" v="Seljetoni" />
		<tag k="place" v="locality" />
		<tag k="ssr:stedsnr" v="888560" />
	</node>
	<node id="-450916" lat="60.2928083317" lon="6.34231388077">
		<tag k="name" v="Oddmundshaug" />
		<tag k="natural" v="hill" />
		<tag k="place" v="locality" />
		<tag k="ssr:stedsnr" v="888549" />
	</node>
	<node id="-450913" lat="60.3044166695" lon="6.39473056073">
		<tag k="name" v="Husaleitet" />
		<tag k="natural" v="slope" />
		<tag k="place" v="locality" />
		<tag k="ssr:stedsnr" v="888536" />
	</node>
	<node id="-450911" lat="60.2473444419" lon="6.3107138811">
		<tag k="name" v="Stadhaug" />
		<tag k="natural" v="hill" />
		<tag k="place" v="locality" />
		<tag k="ssr:stedsnr" v="888515" />
	</node>
	<node id="-450910" lat="60.2744166703" lon="6.3825027732">
		<tag k="name" v="Bringebærhaugen" />
		<tag k="natural" v="hill" />
		<tag k="place" v="locality" />
		<tag k="ssr:stedsnr" v="888510" />
	</node>
	<node id="-450909" lat="60.2606194482" lon="6.29340277661">
		<tag k="name" v="Koven" />
		<tag k="place" v="locality" />
		<tag k="ssr:stedsnr" v="888505" />
	</node>
	<node id="-450907" lat="60.1857361101" lon="6.13762222937">
		<tag k="name" v="Hestadalsgarden" />
		<tag k="place" v="locality" />
		<tag k="ssr:stedsnr" v="888402" />
	</node>
	<node id="-450904" lat="60.1760694404" lon="6.12979444981">
		<tag k="name" v="Olderliflaten" />
		<tag k="place" v="locality" />
		<tag k="ssr:stedsnr" v="888383" />
	</node>
	<node id="-450903" lat="60.1827083298" lon="6.12153889518">
		<tag k="name" v="Dalaklypet" />
		<tag k="natural" v="valley" />
		<tag k="place" v="locality" />
		<tag k="ssr:stedsnr" v="888378" />
	</node>
	<node id="-450902" lat="60.1775611135" lon="6.13386944541">
		<tag k="name" v="Olderlia" />
		<tag k="natural" v="slope" />
		<tag k="place" v="locality" />
		<tag k="ssr:stedsnr" v="888373" />
	</node>
	<node id="-450901" lat="60.1427444436" lon="6.20184444298">
		<tag k="name" v="Måvassdalen" />
		<tag k="natural" v="valley" />
		<tag k="place" v="locality" />
		<tag k="ssr:stedsnr" v="888334" />
	</node>
	<node id="-450900" lat="60.251369441" lon="6.40125554711">
		<tag k="name" v="Hestedalen" />
		<tag k="natural" v="valley" />
		<tag k="place" v="locality" />
		<tag k="ssr:stedsnr" v="888054" />
	</node>
	<node id="-450899" lat="60.348047218" lon="6.46701666802">
		<tag k="fixme" v="consider natural=peak for the most distinct mountains in the district" />
		<tag k="name" v="Fuglanuten" />
		<tag k="natural" v="hill" />
		<tag k="ssr:stedsnr" v="887111" />
	</node>
	<node id="-450896" lat="60.3392888857" lon="6.44633611548">
		<tag k="fixme" v="consider natural=peak for the most distinct mountains in the district" />
		<tag k="name" v="Storevarden" />
		<tag k="natural" v="hill" />
		<tag k="ssr:stedsnr" v="402891" />
	</node>
	<node id="-450895" lat="60.2851833352" lon="6.41110000609">
		<tag k="name" v="Allgjeli" />
		<tag k="place" v="locality" />
		<tag k="ssr:stedsnr" v="402878" />
	</node>
	<node id="-450892" lat="60.2476361097" lon="6.24386389049">
		<tag k="name" v="Vikaskaret" />
		<tag k="natural" v="valley" />
		<tag k="place" v="locality" />
		<tag k="ssr:stedsnr" v="402866" />
	</node>
	<node id="-450891" lat="60.3389333333" lon="6.42105556089">
		<tag k="name" v="Storalii" />
		<tag k="natural" v="slope" />
		<tag k="place" v="locality" />
		<tag k="ssr:stedsnr" v="402858" />
	</node>
	<node id="-450890" lat="60.3425055549" lon="6.43749722999">
		<tag k="name" v="Kvinareleitet" />
		<tag k="natural" v="slope" />
		<tag k="place" v="locality" />
		<tag k="ssr:stedsnr" v="402856" />
	</node>
	<node id="-450889" lat="60.347277782" lon="6.41459165888">
		<tag k="name" v="Tveiti" />
		<tag k="place" v="locality" />
		<tag k="ssr:stedsnr" v="402851" />
	</node>
	<node id="-450888" lat="60.3433944465" lon="6.51028610292">
		<tag k="fixme" v="consider natural=peak for the most distinct mountains in the district" />
		<tag k="name" v="Gråfjellsnolten" />
		<tag k="natural" v="hill" />
		<tag k="ssr:stedsnr" v="402850" />
	</node>
	<node id="-450886" lat="60.2846277764" lon="6.27470554664">
		<tag k="name" v="Vesle Bjørndalen" />
		<tag k="natural" v="valley" />
		<tag k="place" v="locality" />
		<tag k="ssr:stedsnr" v="402792" />
	</node>
	<node id="-450885" lat="60.2922305512" lon="6.24568332565">
		<tag k="name" v="Ilaget" />
		<tag k="place" v="locality" />
		<tag k="ssr:stedsnr" v="402788" />
	</node>
	<node id="-450883" lat="60.2451277821" lon="6.28059722211">
		<tag k="name" v="Fagerhaug" />
		<tag k="natural" v="hill" />
		<tag k="place" v="locality" />
		<tag k="ssr:stedsnr" v="402763" />
	</node>
	<node id="-450882" lat="60.2466222227" lon="6.21497223115">
		<tag k="name" v="Høgaberg" />
		<tag k="natural" v="hill" />
		<tag k="place" v="locality" />
		<tag k="ssr:stedsnr" v="402755" />
	</node>
	<node id="-450878" lat="60.2159111076" lon="6.18800556368">
		<tag k="name" v="Ospedalen" />
		<tag k="natural" v="valley" />
		<tag k="place" v="locality" />
		<tag k="ssr:stedsnr" v="402720" />
	</node>
	<node id="-450877" lat="60.2006583296" lon="6.17909722011">
		<tag k="name" v="Middagsdalen" />
		<tag k="natural" v="valley" />
		<tag k="place" v="locality" />
		<tag k="ssr:stedsnr" v="402718" />
	</node>
	<node id="-450876" lat="60.2394305528" lon="6.20768055381">
		<tag k="name" v="Lii" />
		<tag k="natural" v="slope" />
		<tag k="place" v="locality" />
		<tag k="ssr:stedsnr" v="402703" />
	</node>
	<node id="-450873" lat="60.1975027796" lon="6.0958000023">
		<tag k="name" v="Hansanakken" />
		<tag k="natural" v="ridge" />
		<tag k="place" v="locality" />
		<tag k="ssr:stedsnr" v="402666" />
	</node>
	<node id="-450872" lat="60.2879944471" lon="6.39441666062">
		<tag k="name" v="Småskorane" />
		<tag k="natural" v="valley" />
		<tag k="place" v="locality" />
		<tag k="ssr:stedsnr" v="402644" />
	</node>
	<node id="-450869" lat="60.2900499965" lon="6.33690832722">
		<tag k="name" v="Kallheller" />
		<tag k="place" v="locality" />
		<tag k="ssr:stedsnr" v="402631" />
	</node>
	<node id="-450868" lat="60.297280552" lon="6.30429721514">
		<tag k="name" v="Krosstu" />
		<tag k="place" v="locality" />
		<tag k="ssr:stedsnr" v="402624" />
	</node>
	<node id="-450867" lat="60.2497194432" lon="6.31869999896">
		<tag k="name" v="Jondalslii" />
		<tag k="natural" v="slope" />
		<tag k="place" v="locality" />
		<tag k="ssr:stedsnr" v="402602" />
	</node>
	<node id="-450866" lat="60.2591888928" lon="6.29721389731">
		<tag k="name" v="Svinadalen" />
		<tag k="natural" v="valley" />
		<tag k="place" v="locality" />
		<tag k="ssr:stedsnr" v="402583" />
	</node>
	<node id="-450863" lat="60.2823999967" lon="6.3464999974">
		<tag k="name" v="Stegen" />
		<tag k="place" v="locality" />
		<tag k="ssr:stedsnr" v="402562" />
	</node>
	<node id="-450862" lat="60.2660361118" lon="6.32672222214">
		<tag k="fixme" v="consider natural=peak for the most distinct mountains in the district" />
		<tag k="name" v="Hattavarden" />
		<tag k="natural" v="hill" />
		<tag k="ssr:stedsnr" v="402557" />
	</node>
	<node id="-450861" lat="60.2836222203" lon="6.34810833752">
		<tag k="fixme" v="consider natural=peak for the most distinct mountains in the district" />
		<tag k="name" v="Såta" />
		<tag k="natural" v="hill" />
		<tag k="ssr:stedsnr" v="402555" />
	</node>
	<node id="-450859" lat="60.2747861118" lon="6.28406943753">
		<tag k="name" v="Hogsel" />
		<tag k="place" v="locality" />
		<tag k="ssr:stedsnr" v="402543" />
	</node>
	<node id="-450858" lat="60.2217083363" lon="6.32245834047">
		<tag k="fixme" v="consider natural=peak for the most distinct mountains in the district" />
		<tag k="name" v="Kvanndalsnuten" />
		<tag k="natural" v="hill" />
		<tag k="ssr:stedsnr" v="402536" />
	</node>
	<node id="-450855" lat="60.1709388904" lon="6.15530000818">
		<tag k="fixme" v="consider natural=peak for the most distinct mountains in the district" />
		<tag k="name" v="Knapreinuten" />
		<tag k="natural" v="hill" />
		<tag k="ssr:stedsnr" v="402468" />
	</node>
	<node id="-450854" lat="60.1817749962" lon="6.13238332917">
		<tag k="name" v="Botnahaugen" />
		<tag k="natural" v="hill" />
		<tag k="place" v="locality" />
		<tag k="ssr:stedsnr" v="402460" />
	</node>
	<node id="-450853" lat="60.1796027797" lon="6.16127777812">
		<tag k="name" v="Lambalia" />
		<tag k="natural" v="slope" />
		<tag k="place" v="locality" />
		<tag k="ssr:stedsnr" v="402455" />
	</node>
	<node id="-450852" lat="60.3154083323" lon="6.40398055435">
		<tag k="name" v="Eggjaseterindane" />
		<tag k="natural" v="ridge" />
		<tag k="place" v="locality" />
		<tag k="ssr:stedsnr" v="402074" />
	</node>
	<node id="-450850" lat="60.2415611132" lon="6.41237500483">
		<tag k="name" v="Leitet" />
		<tag k="natural" v="slope" />
		<tag k="place" v="locality" />
		<tag k="ssr:stedsnr" v="402067" />
	</node>
	<node id="-450847" lat="60.2971138918" lon="6.29862777832">
		<tag k="name" v="Langedalen" />
		<tag k="natural" v="valley" />
		<tag k="place" v="locality" />
		<tag k="ssr:stedsnr" v="370586" />
	</node>
	<node id="-450845" lat="60.2215444462" lon="6.31654999266">
		<tag k="name" v="Kjerringaskard" />
		<tag k="natural" v="valley" />
		<tag k="place" v="locality" />
		<tag k="ssr:stedsnr" v="369799" />
	</node>
	<node id="-450841" lat="60.1469166705" lon="6.14535000471">
		<tag k="name" v="Lønningehaugen" />
		<tag k="natural" v="hill" />
		<tag k="place" v="locality" />
		<tag k="ssr:stedsnr" v="369540" />
	</node>
	<node id="-450839" lat="60.1860249978" lon="6.13123889523">
		<tag k="alt_name" v="Domben" />
		<tag k="fixme" v="consider natural=peak for the most distinct mountains in the district" />
		<tag k="name" v="Dumben" />
		<tag k="natural" v="hill" />
		<tag k="place" v="locality" />
		<tag k="ssr:stedsnr" v="369485" />
	</node>
	<node id="-450838" lat="60.1845166629" lon="6.15027500569">
		<tag k="fixme" v="consider natural=peak for the most distinct mountains in the district" />
		<tag k="name" v="Såta" />
		<tag k="natural" v="hill" />
		<tag k="place" v="locality" />
		<tag k="ssr:stedsnr" v="369484" />
	</node>
	<node id="-450836" lat="60.2819027793" lon="6.43213333682">
		<tag k="name" v="Stavbergsdalen" />
		<tag k="natural" v="valley" />
		<tag k="place" v="locality" />
		<tag k="ssr:stedsnr" v="369435" />
	</node>
	<node id="-450835" lat="60.2724583345" lon="6.32867499846">
		<tag k="name" v="Daurmålshaugen" />
		<tag k="natural" v="hill" />
		<tag k="place" v="locality" />
		<tag k="ssr:stedsnr" v="369417" />
	</node>
	<node id="-450829" lat="60.3022166665" lon="6.33209167047">
		<tag k="name" v="Espelunden" />
		<tag k="natural" v="slope" />
		<tag k="place" v="locality" />
		<tag k="ssr:stedsnr" v="369043" />
	</node>
	<node id="-450828" lat="60.3041833302" lon="6.31733888328">
		<tag k="name" v="Ratjørndalen" />
		<tag k="natural" v="valley" />
		<tag k="place" v="locality" />
		<tag k="ssr:stedsnr" v="369042" />
	</node>
	<node id="-450815" lat="60.3325583358" lon="6.46930833582">
		<tag k="name" v="Attanskar" />
		<tag k="natural" v="valley" />
		<tag k="place" v="locality" />
		<tag k="ssr:stedsnr" v="342838" />
	</node>
	<node id="-450814" lat="60.330541664" lon="6.42308054945">
		<tag k="name" v="Sjonarhaug" />
		<tag k="natural" v="hill" />
		<tag k="place" v="locality" />
		<tag k="ssr:stedsnr" v="342832" />
	</node>
	<node id="-450813" lat="60.3329194465" lon="6.39998332715">
		<tag k="name" v="Nautheller" />
		<tag k="place" v="locality" />
		<tag k="ssr:stedsnr" v="342830" />
	</node>
	<node id="-450812" lat="60.334494446" lon="6.41659999429">
		<tag k="name" v="Remane" />
		<tag k="place" v="locality" />
		<tag k="ssr:stedsnr" v="342827" />
	</node>
	<node id="-450809" lat="60.2335083318" lon="6.25113889756">
		<tag k="name" v="Halvroddsnesgjelet" />
		<tag k="place" v="locality" />
		<tag k="ssr:stedsnr" v="342616" />
	</node>
	<node id="-450807" lat="60.2123555568" lon="6.15185276901">
		<tag k="name" v="Jonaskor" />
		<tag k="natural" v="valley" />
		<tag k="place" v="locality" />
		<tag k="ssr:stedsnr" v="342578" />
	</node>
	<node id="-450806" lat="60.2323388906" lon="6.21658056186">
		<tag k="name" v="Moldbakken" />
		<tag k="natural" v="slope" />
		<tag k="place" v="locality" />
		<tag k="ssr:stedsnr" v="342570" />
	</node>
	<node id="-450803" lat="60.182297218" lon="6.11126389236">
		<tag k="name" v="Skitnabrekka" />
		<tag k="natural" v="slope" />
		<tag k="place" v="locality" />
		<tag k="ssr:stedsnr" v="342205" />
	</node>
	<node id="-450801" lat="60.2865999976" lon="6.24766110716">
		<tag k="name" v="Tømmerdal" />
		<tag k="natural" v="valley" />
		<tag k="place" v="locality" />
		<tag k="ssr:stedsnr" v="341794" />
	</node>
	<node id="-450800" lat="60.2670138893" lon="6.24859721957">
		<tag k="name" v="Gjelet" />
		<tag k="natural" v="valley" />
		<tag k="place" v="locality" />
		<tag k="ssr:stedsnr" v="341780" />
	</node>
	<node id="-450798" lat="60.2786138917" lon="6.27389999409">
		<tag k="name" v="Heggeli" />
		<tag k="natural" v="slope" />
		<tag k="place" v="locality" />
		<tag k="ssr:stedsnr" v="341768" />
	</node>
	<node id="-450796" lat="60.3546249975" lon="6.39602221395">
		<tag k="name" v="Bjørgaledkleivi" />
		<tag k="natural" v="slope" />
		<tag k="place" v="locality" />
		<tag k="ssr:stedsnr" v="341686" />
	</node>
	<node id="-450795" lat="60.2913722258" lon="6.33829166901">
		<tag k="name" v="Dammane" />
		<tag k="place" v="locality" />
		<tag k="ssr:stedsnr" v="341665" />
	</node>
	<node id="-450794" lat="60.298999999" lon="6.34478889054">
		<tag k="name" v="Veslelii" />
		<tag k="natural" v="slope" />
		<tag k="place" v="locality" />
		<tag k="ssr:stedsnr" v="341654" />
	</node>
	<node id="-450793" lat="60.3040611086" lon="6.2949666601">
		<tag k="fixme" v="consider natural=peak for the most distinct mountains in the district" />
		<tag k="name" v="Kabbåsen" />
		<tag k="natural" v="hill" />
		<tag k="place" v="locality" />
		<tag k="ssr:stedsnr" v="341650" />
	</node>
	<node id="-450791" lat="60.2676138911" lon="6.34242778587">
		<tag k="name" v="Kaldabekkgjelet" />
		<tag k="natural" v="gorge" />
		<tag k="ssr:stedsnr" v="341604" />
	</node>
	<node id="-450790" lat="60.2680333316" lon="6.29791667027">
		<tag k="name" v="Røyrskorane" />
		<tag k="natural" v="valley" />
		<tag k="place" v="locality" />
		<tag k="ssr:stedsnr" v="341601" />
	</node>
	<node id="-450786" lat="60.2318611122" lon="6.3346277723">
		<tag k="name" v="Veslefreidalsdalen" />
		<tag k="natural" v="valley" />
		<tag k="place" v="locality" />
		<tag k="ssr:stedsnr" v="341573" />
	</node>
	<node id="-450785" lat="60.1843444456" lon="6.12981111551">
		<tag k="name" v="Langeskarva" />
		<tag k="natural" v="hill" />
		<tag k="place" v="locality" />
		<tag k="ssr:stedsnr" v="341496" />
	</node>
	<node id="-450783" lat="60.1820500012" lon="6.12389444791">
		<tag k="name" v="Moltehei" />
		<tag k="natural" v="hill" />
		<tag k="place" v="locality" />
		<tag k="ssr:stedsnr" v="341460" />
	</node>
	<node id="-450781" lat="60.1342944437" lon="6.19672778281">
		<tag k="name" v="Fagerlibakkane" />
		<tag k="natural" v="slope" />
		<tag k="place" v="locality" />
		<tag k="ssr:stedsnr" v="341410" />
	</node>
	<node id="-450780" lat="60.3642194417" lon="6.40275000376">
		<tag k="name" v="Botnahaugen" />
		<tag k="natural" v="hill" />
		<tag k="place" v="locality" />
		<tag k="ssr:stedsnr" v="341083" />
	</node>
	<node id="-450779" lat="60.3628000005" lon="6.42082500314">
		<tag k="name" v="Demmehaugane" />
		<tag k="natural" v="hill" />
		<tag k="place" v="locality" />
		<tag k="ssr:stedsnr" v="341082" />
	</node>
	<node id="-450777" lat="60.3365888925" lon="6.38955000363">
		<tag k="name" v="Bjørkeli" />
		<tag k="natural" v="slope" />
		<tag k="place" v="locality" />
		<tag k="ssr:stedsnr" v="341064" />
	</node>
	<node id="-450773" lat="60.3191666701" lon="6.4640166656">
		<tag k="name" v="Soleidalen" />
		<tag k="natural" v="valley" />
		<tag k="place" v="locality" />
		<tag k="ssr:stedsnr" v="309606" />
	</node>
	<node id="-450772" lat="60.3572027759" lon="6.40038889365">
		<tag k="name" v="Sekk" />
		<tag k="natural" v="hill" />
		<tag k="place" v="locality" />
		<tag k="ssr:stedsnr" v="309072" />
	</node>
	<node id="-450771" lat="60.290280559" lon="6.25117500222">
		<tag k="name" v="Brotehaugen" />
		<tag k="natural" v="hill" />
		<tag k="place" v="locality" />
		<tag k="ssr:stedsnr" v="309044" />
	</node>
	<node id="-450769" lat="60.272424996" lon="6.27562777268">
		<tag k="name" v="Lynghamrane" />
		<tag k="place" v="locality" />
		<tag k="ssr:stedsnr" v="309514" />
	</node>
	<node id="-450765" lat="60.2241666668" lon="6.24553611486">
		<tag k="fixme" v="consider natural=peak for the most distinct mountains in the district" />
		<tag k="name" v="Gråheia" />
		<tag k="natural" v="hill" />
		<tag k="place" v="locality" />
		<tag k="ssr:stedsnr" v="308821" />
	</node>
	<node id="-450763" lat="60.2375250024" lon="6.29739165925">
		<tag k="alt_name" v="Kvanndalsnuten, vle" />
		<tag k="fixme" v="consider natural=peak for the most distinct mountains in the district" />
		<tag k="name" v="Vesle Kvanndalsnuten" />
		<tag k="natural" v="hill" />
		<tag k="place" v="locality" />
		<tag k="ssr:stedsnr" v="308813" />
	</node>
	<node id="-450762" lat="60.233297218" lon="6.25774445287">
		<tag k="name" v="Langebakken" />
		<tag k="natural" v="slope" />
		<tag k="place" v="locality" />
		<tag k="ssr:stedsnr" v="308811" />
	</node>
	<node id="-450761" lat="60.2301861151" lon="6.26546110179">
		<tag k="name" v="Helveteshola" />
		<tag k="natural" v="valley" />
		<tag k="place" v="locality" />
		<tag k="ssr:stedsnr" v="308809" />
	</node>
	<node id="-450760" lat="60.2341694457" lon="6.36155000435">
		<tag k="name" v="Mosadalen" />
		<tag k="natural" v="valley" />
		<tag k="place" v="locality" />
		<tag k="ssr:stedsnr" v="308808" />
	</node>
	<node id="-450759" lat="60.2385666709" lon="6.41641110855">
		<tag k="name" v="Jordalen" />
		<tag k="natural" v="valley" />
		<tag k="place" v="locality" />
		<tag k="ssr:stedsnr" v="308787" />
	</node>
	<node id="-450755" lat="60.1572805576" lon="6.13641111811">
		<tag k="name" v="Grasliheiane" />
		<tag k="natural" v="hill" />
		<tag k="place" v="locality" />
		<tag k="ssr:stedsnr" v="308584" />
	</node>
	<node id="-450752" lat="60.2888000014" lon="6.32857499148">
		<tag k="name" v="Rosshagahaugen" />
		<tag k="natural" v="hill" />
		<tag k="place" v="locality" />
		<tag k="ssr:stedsnr" v="308426" />
	</node>
	<node id="-450750" lat="60.2859305597" lon="6.40044167268">
		<tag k="name" v="Kaprebakkane" />
		<tag k="natural" v="slope" />
		<tag k="place" v="locality" />
		<tag k="ssr:stedsnr" v="308418" />
	</node>
	<node id="-450749" lat="60.2884944409" lon="6.37060000319">
		<tag k="name" v="Steinhatten" />
		<tag k="natural" v="hill" />
		<tag k="place" v="locality" />
		<tag k="ssr:stedsnr" v="308417" />
	</node>
	<node id="-450742" lat="60.3214416708" lon="6.40230833103">
		<tag k="name" v="Rasediken" />
		<tag k="natural" v="hill" />
		<tag k="place" v="locality" />
		<tag k="ssr:stedsnr" v="308002" />
	</node>
	<node id="-450739" lat="60.3337861153" lon="6.44235834041">
		<tag k="name" v="Såterindane" />
		<tag k="natural" v="hill" />
		<tag k="place" v="locality" />
		<tag k="ssr:stedsnr" v="281912" />
	</node>
	<node id="-450737" lat="60.3318305552" lon="6.40074722">
		<tag k="name" v="Gløsdalen" />
		<tag k="natural" v="valley" />
		<tag k="place" v="locality" />
		<tag k="ssr:stedsnr" v="281902" />
	</node>
	<node id="-450736" lat="60.1896527735" lon="6.10640277385">
		<tag k="name" v="Grondalshorgi" />
		<tag k="natural" v="hill" />
		<tag k="place" v="locality" />
		<tag k="ssr:stedsnr" v="281889" />
	</node>
	<node id="-450735" lat="60.3000666703" lon="6.2814111106">
		<tag k="name" v="Klypet" />
		<tag k="natural" v="hill" />
		<tag k="place" v="locality" />
		<tag k="ssr:stedsnr" v="281877" />
	</node>
	<node id="-450734" lat="60.3532527773" lon="6.41743332864">
		<tag k="name" v="Dyrshaug" />
		<tag k="natural" v="hill" />
		<tag k="place" v="locality" />
		<tag k="ssr:stedsnr" v="281863" />
	</node>
	<node id="-450733" lat="60.3494388878" lon="6.41022778039">
		<tag k="name" v="Seljestokk" />
		<tag k="place" v="locality" />
		<tag k="ssr:stedsnr" v="281864" />
	</node>
	<node id="-450732" lat="60.3446500035" lon="6.42700278261">
		<tag k="name" v="Kjellarbroti" />
		<tag k="place" v="locality" />
		<tag k="ssr:stedsnr" v="281861" />
	</node>
	<node id="-450731" lat="60.3573027803" lon="6.40263055017">
		<tag k="name" v="Åsleitet" />
		<tag k="natural" v="slope" />
		<tag k="place" v="locality" />
		<tag k="ssr:stedsnr" v="281857" />
	</node>
	<node id="-450726" lat="60.2713111115" lon="6.24604999253">
		<tag k="name" v="Tverrliane" />
		<tag k="natural" v="slope" />
		<tag k="place" v="locality" />
		<tag k="ssr:stedsnr" v="281749" />
	</node>
	<node id="-450720" lat="60.2289055516" lon="6.1938527861">
		<tag k="name" v="Hagaberget" />
		<tag k="natural" v="hill" />
		<tag k="place" v="locality" />
		<tag k="ssr:stedsnr" v="281693" />
	</node>
	<node id="-450719" lat="60.2307444431" lon="6.21902500161">
		<tag k="name" v="Rauneskor" />
		<tag k="natural" v="valley" />
		<tag k="place" v="locality" />
		<tag k="ssr:stedsnr" v="281690" />
	</node>
	<node id="-450717" lat="60.2095555524" lon="6.13911944527">
		<tag k="name" v="Rennadalen" />
		<tag k="natural" v="valley" />
		<tag k="place" v="locality" />
		<tag k="ssr:stedsnr" v="281675" />
	</node>
	<node id="-450716" lat="60.3457138896" lon="6.39732222473">
		<tag k="name" v="Byrkjeleitet" />
		<tag k="natural" v="slope" />
		<tag k="place" v="locality" />
		<tag k="ssr:stedsnr" v="281651" />
	</node>
	<node id="-450715" lat="60.3575555572" lon="6.38698611328">
		<tag k="name" v="Fureskorane" />
		<tag k="place" v="locality" />
		<tag k="ssr:stedsnr" v="281645" />
	</node>
	<node id="-450714" lat="60.3518999989" lon="6.38221667475">
		<tag k="name" v="Fletone" />
		<tag k="place" v="locality" />
		<tag k="ssr:stedsnr" v="281644" />
	</node>
	<node id="-450713" lat="60.3534416705" lon="6.39363333774">
		<tag k="name" v="Øykjaskor" />
		<tag k="natural" v="valley" />
		<tag k="place" v="locality" />
		<tag k="ssr:stedsnr" v="281641" />
	</node>
	<node id="-450709" lat="60.3099416698" lon="6.3160500068">
		<tag k="name" v="Skarshaugane" />
		<tag k="natural" v="hill" />
		<tag k="place" v="locality" />
		<tag k="ssr:stedsnr" v="281592" />
	</node>
	<node id="-450708" lat="60.3079833341" lon="6.33148334156">
		<tag k="name" v="Vasen" />
		<tag k="place" v="locality" />
		<tag k="ssr:stedsnr" v="281590" />
	</node>
	<node id="-450707" lat="60.3130805577" lon="6.31198334078">
		<tag k="name" v="Nysundsletta" />
		<tag k="place" v="locality" />
		<tag k="ssr:stedsnr" v="281586" />
	</node>
	<node id="-450706" lat="60.255169447" lon="6.2941277773">
		<tag k="name" v="Stadena" />
		<tag k="place" v="locality" />
		<tag k="ssr:stedsnr" v="281561" />
	</node>
	<node id="-450705" lat="60.265175002" lon="6.36221667088">
		<tag k="name" v="Botnsbrekkena" />
		<tag k="natural" v="slope" />
		<tag k="place" v="locality" />
		<tag k="ssr:stedsnr" v="281556" />
	</node>
	<node id="-450704" lat="60.2788833339" lon="6.3529388847">
		<tag k="name" v="Gjeli" />
		<tag k="natural" v="gorge" />
		<tag k="ssr:stedsnr" v="281545" />
	</node>
	<node id="-450703" lat="60.2701166682" lon="6.29936667411">
		<tag k="fixme" v="consider natural=peak for the most distinct mountains in the district" />
		<tag k="name" v="Storafjell" />
		<tag k="natural" v="hill" />
		<tag k="place" v="locality" />
		<tag k="ssr:stedsnr" v="281538" />
	</node>
	<node id="-450702" lat="60.2678166642" lon="6.29046389134">
		<tag k="name" v="Tveddal" />
		<tag k="natural" v="valley" />
		<tag k="place" v="locality" />
		<tag k="ssr:stedsnr" v="281528" />
	</node>
	<node id="-450701" lat="60.2783777791" lon="6.3042416664">
		<tag k="name" v="Gjerdet" />
		<tag k="place" v="locality" />
		<tag k="ssr:stedsnr" v="281523" />
	</node>
	<node id="-450699" lat="60.2251055512" lon="6.32432221863">
		<tag k="name" v="Bakken" />
		<tag k="natural" v="slope" />
		<tag k="place" v="locality" />
		<tag k="ssr:stedsnr" v="281515" />
	</node>
	<node id="-450698" lat="60.1451972247" lon="6.14504166093">
		<tag k="name" v="Sekhaug" />
		<tag k="natural" v="hill" />
		<tag k="place" v="locality" />
		<tag k="ssr:stedsnr" v="281478" />
	</node>
	<node id="-450696" lat="60.1431666641" lon="6.16244443595">
		<tag k="name" v="Siriskorane" />
		<tag k="natural" v="hill" />
		<tag k="place" v="locality" />
		<tag k="ssr:stedsnr" v="281474" />
	</node>
	<node id="-450695" lat="60.181680558" lon="6.09569443617">
		<tag k="name" v="Laberget" />
		<tag k="natural" v="hill" />
		<tag k="place" v="locality" />
		<tag k="ssr:stedsnr" v="281459" />
	</node>
	<node id="-450694" lat="60.3497000026" lon="6.44773889715">
		<tag k="name" v="Stavdal" />
		<tag k="natural" v="valley" />
		<tag k="place" v="locality" />
		<tag k="ssr:stedsnr" v="281077" />
	</node>
	<node id="-450690" lat="60.2602388894" lon="6.35688889278">
		<tag k="name" v="Moldsteg" />
		<tag k="place" v="locality" />
		<tag k="ssr:stedsnr" v="280821" />
	</node>
	<node id="-450689" lat="60.2434500007" lon="6.3482222143">
		<tag k="name" v="Langavassbakkane" />
		<tag k="natural" v="slope" />
		<tag k="place" v="locality" />
		<tag k="ssr:stedsnr" v="280818" />
	</node>
	<node id="-450688" lat="60.249330559" lon="6.37950556382">
		<tag k="name" v="Skrottdalane" />
		<tag k="natural" v="valley" />
		<tag k="place" v="locality" />
		<tag k="ssr:stedsnr" v="280816" />
	</node>
</osm>
