<?xml version="1.0" encoding="UTF-8"?>
<osm generator="osmapis" version="0.6">
	<node id="-451071" lat="60.3107249962" lon="6.38126666949">
		<tag k="historic" v="shieling" />
		<tag k="name" v="Maursete" />
		<tag k="place" v="locality" />
		<tag k="ssr:stedsnr" v="66045" />
	</node>
	<node id="-451579" lat="60.3055972246" lon="6.27130277924">
		<tag k="name" v="Pilen" />
		<tag k="place" v="farm" />
		<tag k="ssr:stedsnr" v="584745" />
	</node>
	<node id="-451578" lat="60.3058138902" lon="6.27843333597">
		<tag k="name" v="Reet" />
		<tag k="place" v="farm" />
		<tag k="ssr:stedsnr" v="584743" />
	</node>
	<node id="-451060" lat="60.1731888896" lon="6.11219444342">
		<tag k="name" v="Øvrebøen" />
		<tag k="place" v="farm" />
		<tag k="ssr:stedsnr" v="65571" />
	</node>
	<node id="-451568" lat="60.1998416694" lon="6.10996667233">
		<tag k="name" v="Heimdal" />
		<tag k="place" v="farm" />
		<tag k="ssr:stedsnr" v="584650" />
	</node>
	<node id="-451566" lat="60.3454999971" lon="6.39148611508">
		<tag k="name" v="Brotet" />
		<tag k="place" v="farm" />
		<tag k="ssr:stedsnr" v="584640" />
	</node>
	<node id="-451325" lat="60.3014641301" lon="6.28567355533">
		<tag k="fixme" v="consider place=hamlet" />
		<tag k="name" v="Selsvik" />
		<tag k="place" v="farm" />
		<tag k="ssr:stedsnr" v="248054" />
	</node>
	<node id="-450727" lat="60.2790777811" lon="6.26380278383">
		<tag k="name" v="Bøen" />
		<tag k="place" v="farm" />
		<tag k="ssr:stedsnr" v="281753" />
	</node>
	<node id="-451560" lat="60.2857750008" lon="6.31794722872">
		<tag k="name" v="Nitun" />
		<tag k="place" v="farm" />
		<tag k="ssr:stedsnr" v="584609" />
	</node>
	<node id="-451324" lat="60.3111250029" lon="6.43103611178">
		<tag k="name" v="Håvasete" />
		<tag k="place" v="locality" />
		<tag k="ssr:stedsnr" v="248050" />
	</node>
	<node id="-451067" lat="60.3199416659" lon="6.4146916593">
		<tag k="historic" v="shieling" />
		<tag k="name" v="Vatnasete" />
		<tag k="place" v="locality" />
		<tag k="ssr:stedsnr" v="66002" />
	</node>
	<node id="-451039" lat="60.2744138885" lon="6.25699999934">
		<tag k="name" v="Kinn" />
		<tag k="place" v="farm" />
		<tag k="ssr:stedsnr" v="38718" />
	</node>
	<node id="-451038" lat="60.2764999979" lon="6.25483332897">
		<tag k="fixme" v="consider place=hamlet" />
		<tag k="name" v="Underhaug" />
		<tag k="place" v="farm" />
		<tag k="ssr:stedsnr" v="38713" />
	</node>
	<node id="-451037" lat="60.2312888873" lon="6.23250834128">
		<tag k="name" v="Stokke" />
		<tag k="place" v="farm" />
		<tag k="ssr:stedsnr" v="38702" />
	</node>
	<node id="-451036" lat="60.2338333289" lon="6.19780277125">
		<tag k="name" v="Stølheim" />
		<tag k="place" v="farm" />
		<tag k="ssr:stedsnr" v="38686" />
	</node>
	<node id="-450830" lat="60.361375004" lon="6.35208611378">
		<tag k="name" v="Grimsdalen" />
		<tag k="place" v="farm" />
		<tag k="ssr:stedsnr" v="369058" />
	</node>
	<node id="-450840" lat="60.1902583296" lon="6.15152500542">
		<tag k="historic" v="shieling" />
		<tag k="name" v="Grønrimb" />
		<tag k="place" v="locality" />
		<tag k="ssr:stedsnr" v="369496" />
	</node>
	<node id="-451022" lat="60.2420555591" lon="6.3042222287">
		<tag k="barrier" v="fence" />
		<tag k="name" v="Nipegard" />
		<tag k="ssr:stedsnr" v="38557" />
	</node>
	<node id="-450978" lat="60.2557991028" lon="6.34416004344">
		<tag k="historic" v="shieling" />
		<tag k="name" v="Flatabøgrytingen" />
		<tag k="place" v="locality" />
		<tag k="ssr:stedsnr" v="5369" />
	</node>
	<node id="-451526" lat="60.2791926055" lon="6.38688359478">
		<tag k="fixme" v="consider place=hamlet" />
		<tag k="name" v="Brattabø" />
		<tag k="place" v="farm" />
		<tag k="ssr:stedsnr" v="551450" />
	</node>
	<node id="-451525" lat="60.2855038715" lon="6.32086432084">
		<tag k="fixme" v="consider place=hamlet" />
		<tag k="name" v="Espeland" />
		<tag k="place" v="farm" />
		<tag k="ssr:stedsnr" v="551446" />
	</node>
	<node id="-452000" lat="60.213589312" lon="6.11937768077">
		<tag k="alt_name" v="Lillesletten" />
		<tag k="loc_name" v="Litlasletta" />
		<tag k="name" v="Stykket" />
		<tag k="place" v="farm" />
		<tag k="ssr:stedsnr" v="949593" />
	</node>
	<node id="-451517" lat="60.313436112" lon="6.4078166651">
		<tag k="historic" v="shieling" />
		<tag k="name" v="Eggjasete" />
		<tag k="place" v="locality" />
		<tag k="ssr:stedsnr" v="551045" />
	</node>
	<node id="-451515" lat="60.318205559" lon="6.37380555541">
		<tag k="historic" v="shieling" />
		<tag k="name" v="Løefall" />
		<tag k="place" v="locality" />
		<tag k="ssr:stedsnr" v="551043" />
	</node>
	<node id="-451514" lat="60.3259250006" lon="6.43838333777">
		<tag k="name" v="Skipasete" />
		<tag k="place" v="locality" />
		<tag k="ssr:stedsnr" v="551007" />
	</node>
	<node id="-451513" lat="60.3265083379" lon="6.42716111581">
		<tag k="historic" v="shieling" />
		<tag k="name" v="Galtasete" />
		<tag k="place" v="locality" />
		<tag k="ssr:stedsnr" v="551001" />
	</node>
	<node id="-452023" lat="60.2119916695" lon="6.11313611179">
		<tag k="name" v="Vetle Grotnes" />
		<tag k="place" v="neighbourhood" />
		<tag k="ssr:stedsnr" v="965556" />
	</node>
	<node id="-452022" lat="60.2563138872" lon="6.20633610348">
		<tag k="name" v="Belsnes" />
		<tag k="place" v="neighbourhood" />
		<tag k="ssr:stedsnr" v="965540" />
	</node>
	<node id="-450997" lat="60.1487750008" lon="6.18335555035">
		<tag k="historic" v="shieling" />
		<tag k="name" v="Årsandssætret" />
		<tag k="place" v="locality" />
		<tag k="ssr:stedsnr" v="5587" />
	</node>
	<node id="-451231" lat="60.3163777756" lon="6.32431388224">
		<tag k="name" v="Solhaug" />
		<tag k="place" v="isolated_dwelling" />
		<tag k="ssr:stedsnr" v="165929" />
	</node>
	<node id="-450986" lat="60.2767361091" lon="6.26443332941">
		<tag k="name" v="Rabben" />
		<tag k="place" v="farm" />
		<tag k="ssr:stedsnr" v="5461" />
	</node>
	<node id="-450985" lat="60.2816574315" lon="6.36472843137">
		<tag k="fixme" v="consider place=hamlet" />
		<tag k="name" v="Baggarden" />
		<tag k="place" v="farm" />
		<tag k="ssr:stedsnr" v="5456" />
	</node>
	<node id="-450984" lat="60.284583333" lon="6.30716666666">
		<tag k="name" v="Leitet" />
		<tag k="place" v="farm" />
		<tag k="ssr:stedsnr" v="5452" />
	</node>
	<node id="-451490" lat="60.2614416654" lon="6.24151110663">
		<tag k="name" v="Tortveit" />
		<tag k="place" v="farm" />
		<tag k="ssr:stedsnr" v="524682" />
	</node>
	<node id="-451077" lat="60.3404213907" lon="6.37795455293">
		<tag k="fixme" v="consider place=hamlet" />
		<tag k="name" v="Vik" />
		<tag k="place" v="farm" />
		<tag k="ssr:stedsnr" v="66099" />
	</node>
	<node id="-451488" lat="60.2432250015" lon="6.20411944508">
		<tag k="name" v="Ødegård" />
		<tag k="place" v="farm" />
		<tag k="ssr:stedsnr" v="524658" />
	</node>
	<node id="-450974" lat="60.3471194444" lon="6.42135000672">
		<tag k="historic" v="shieling" />
		<tag k="name" v="Grimestølen" />
		<tag k="place" v="locality" />
		<tag k="ssr:stedsnr" v="5118" />
	</node>
	<node id="-450971" lat="60.325216665" lon="6.39139166061">
		<tag k="historic" v="shieling" />
		<tag k="name" v="Reishellar" />
		<tag k="place" v="locality" />
		<tag k="ssr:stedsnr" v="5018" />
	</node>
	<node id="-451991" lat="60.3020222183" lon="6.28220832983">
		<tag k="name" v="Fossen" />
		<tag k="place" v="farm" />
		<tag k="ssr:stedsnr" v="948821" />
	</node>
	<node id="-451987" lat="60.2857805545" lon="6.32318888241">
		<tag k="name" v="Oppitun" />
		<tag k="place" v="farm" />
		<tag k="ssr:stedsnr" v="948678" />
	</node>
	<node id="-450959" lat="60.2414921223" lon="6.36022091347">
		<tag k="name" v="Gamle Osadal" />
		<tag k="place" v="locality" />
		<tag k="ssr:stedsnr" v="991024" />
	</node>
	<node id="-450956" lat="60.3459930237" lon="6.40089700624">
		<tag k="fixme" v="consider place=hamlet" />
		<tag k="name" v="Øvre Trå" />
		<tag k="place" v="farm" />
		<tag k="ssr:stedsnr" v="987888" />
	</node>
	<node id="-450955" lat="60.2595941335" lon="6.23413257657">
		<tag k="name" v="Vikane" />
		<tag k="place" v="hamlet" />
		<tag k="ssr:stedsnr" v="987887" />
	</node>
	<node id="-451449" lat="60.2691583373" lon="6.26676666715">
		<tag k="historic" v="shieling" />
		<tag k="name" v="Fjellstølen" />
		<tag k="place" v="locality" />
		<tag k="ssr:stedsnr" v="491524" />
	</node>
	<node id="-451959" lat="60.280066668" lon="6.38128054991">
		<tag k="name" v="Sandbrun" />
		<tag k="place" v="farm" />
		<tag k="ssr:stedsnr" v="916489" />
	</node>
	<node id="-450934" lat="60.2439500045" lon="6.20414166949">
		<tag k="name" v="Øyjordi" />
		<tag k="place" v="farm" />
		<tag k="ssr:stedsnr" v="888688" />
	</node>
	<node id="-451956" lat="60.3514138893" lon="6.40568889354">
		<tag k="name" v="Tveit" />
		<tag k="place" v="locality" />
		<tag k="ssr:stedsnr" v="916136" />
	</node>
	<node id="-451442" lat="60.3388305515" lon="6.37175277619">
		<tag k="fixme" v="consider place=hamlet" />
		<tag k="name" v="Haugen" />
		<tag k="place" v="farm" />
		<tag k="ssr:stedsnr" v="491099" />
	</node>
	<node id="-451952" lat="60.2915861152" lon="6.28489166239">
		<tag k="name" v="Liasete" />
		<tag k="place" v="locality" />
		<tag k="ssr:stedsnr" v="916049" />
	</node>
	<node id="-450926" lat="60.1926777789" lon="6.08679999669">
		<tag k="name" v="Breivik" />
		<tag k="place" v="farm" />
		<tag k="ssr:stedsnr" v="888620" />
	</node>
	<node id="-451432" lat="60.2512444466" lon="6.30363334006">
		<tag k="alt_name" v="Breidsete" />
		<tag k="historic" v="shieling" />
		<tag k="name" v="Breisete" />
		<tag k="place" v="locality" />
		<tag k="ssr:stedsnr" v="490390" />
	</node>
	<node id="-451431" lat="60.3054527739" lon="6.29366110285">
		<tag k="name" v="Sjøtun" />
		<tag k="place" v="farm" />
		<tag k="ssr:stedsnr" v="490063" />
	</node>
	<node id="-451940" lat="60.2451691037" lon="6.37034915142">
		<tag k="historic" v="shieling" />
		<tag k="name" v="Osadal" />
		<tag k="place" v="locality" />
		<tag k="ssr:stedsnr" v="915789" />
	</node>
	<node id="-451939" lat="60.2398583294" lon="6.20076110839">
		<tag k="name" v="Slåtta" />
		<tag k="place" v="farm" />
		<tag k="ssr:stedsnr" v="915712" />
	</node>
	<node id="-451936" lat="60.1924805559" lon="6.17103611522">
		<tag k="historic" v="shieling" />
		<tag k="name" v="Skitnasætret" />
		<tag k="place" v="locality" />
		<tag k="ssr:stedsnr" v="915536" />
	</node>
	<node id="-451932" lat="60.1809833299" lon="6.0986333292">
		<tag k="alt_name" v="Gausvik" />
		<tag k="fixme" v="consider place=hamlet" />
		<tag k="name" v="Gausvika" />
		<tag k="place" v="farm" />
		<tag k="ssr:stedsnr" v="915521" />
	</node>
	<node id="-451930" lat="60.2043749989" lon="6.11362500522">
		<tag k="fixme" v="consider place=hamlet" />
		<tag k="name" v="Kysnesstranda" />
		<tag k="place" v="village" />
		<tag k="ssr:stedsnr" v="915485" />
	</node>
	<node id="-451929" lat="60.2820572303" lon="6.30317907898">
		<tag k="fixme" v="consider place=hamlet" />
		<tag k="name" v="Eide" />
		<tag k="place" v="farm" />
		<tag k="ssr:stedsnr" v="915450" />
	</node>
	<node id="-451928" lat="60.2872111079" lon="6.37477500107">
		<tag k="historic" v="shieling" />
		<tag k="name" v="Knutstølen" />
		<tag k="place" v="locality" />
		<tag k="ssr:stedsnr" v="915446" />
	</node>
	<node id="-451923" lat="60.3322916648" lon="6.50441944028">
		<tag k="historic" v="shieling" />
		<tag k="name" v="Tostølen" />
		<tag k="place" v="locality" />
		<tag k="ssr:stedsnr" v="915026" />
	</node>
	<node id="-451407" lat="60.2330388878" lon="6.19432222118">
		<tag k="alt_name" v="Tveit" />
		<tag k="name" v="Tveita" />
		<tag k="place" v="farm" />
		<tag k="ssr:stedsnr" v="463642" />
	</node>
	<node id="-450894" lat="60.2390777814" lon="6.19474443958">
		<tag k="name" v="Nedre Torsnes" />
		<tag k="place" v="farm" />
		<tag k="ssr:stedsnr" v="402868" />
	</node>
	<node id="-450893" lat="60.2780609112" lon="6.25744875844">
		<tag k="fixme" v="consider place=hamlet" />
		<tag k="name" v="Prestegard" />
		<tag k="place" v="farm" />
		<tag k="ssr:stedsnr" v="402867" />
	</node>
	<node id="-451915" lat="60.2758638885" lon="6.25242777774">
		<tag k="name" v="Jondal" />
		<tag k="place" v="village" />
		<tag k="ssr:stedsnr" v="855436" />
	</node>
	<node id="-451911" lat="60.3379138856" lon="6.34485277321">
		<tag k="name" v="Havnen" />
		<tag k="place" v="farm" />
		<tag k="ssr:stedsnr" v="855099" />
	</node>
	<node id="-451910" lat="60.3553715631" lon="6.36078412128">
		<tag k="fixme" v="consider place=hamlet" />
		<tag k="name" v="Mæle" />
		<tag k="place" v="farm" />
		<tag k="ssr:stedsnr" v="855066" />
	</node>
	<node id="-451909" lat="60.3070555591" lon="6.32825832789">
		<tag k="historic" v="shieling" />
		<tag k="name" v="Dalen" />
		<tag k="place" v="locality" />
		<tag k="ssr:stedsnr" v="855054" />
	</node>
	<node id="-450881" lat="60.2779861083" lon="6.26521111428">
		<tag k="fixme" v="consider place=hamlet" />
		<tag k="name" v="Guntveit" />
		<tag k="place" v="farm" />
		<tag k="ssr:stedsnr" v="402751" />
	</node>
	<node id="-451903" lat="60.3206888871" lon="6.47413334053">
		<tag k="alt_name" v="Vidal;Vidalsstølen" />
		<tag k="historic" v="shieling" />
		<tag k="name" v="Viddal" />
		<tag k="place" v="locality" />
		<tag k="ssr:stedsnr" v="855004" />
	</node>
	<node id="-451899" lat="60.233386111" lon="6.31435277715">
		<tag k="historic" v="shieling" />
		<tag k="name" v="Freddal" />
		<tag k="place" v="locality" />
		<tag k="ssr:stedsnr" v="854793" />
	</node>
	<node id="-450871" lat="60.2878361129" lon="6.33980556439">
		<tag k="name" v="Plasset" />
		<tag k="place" v="farm" />
		<tag k="ssr:stedsnr" v="402641" />
	</node>
	<node id="-451294" lat="60.3453846831" lon="6.39564483118">
		<tag k="alt_name" v="Trå Nedre" />
		<tag k="name" v="Nedre Trå" />
		<tag k="place" v="farm" />
		<tag k="ssr:stedsnr" v="220687" />
	</node>
	<node id="-450864" lat="60.2700842609" lon="6.39869301238">
		<tag k="alt_name" v="Logardane" />
		<tag k="barrier" v="fence" />
		<tag k="name" v="Løgardane" />
		<tag k="ssr:stedsnr" v="402573" />
	</node>
	<node id="-451372" lat="60.2220388866" lon="6.19381111281">
		<tag k="name" v="Myrli" />
		<tag k="place" v="farm" />
		<tag k="ssr:stedsnr" v="430520" />
	</node>
	<node id="-451371" lat="60.2180111125" lon="6.12466945036">
		<tag k="alt_name" v="Myralandet" />
		<tag k="name" v="Myra" />
		<tag k="place" v="farm" />
		<tag k="ssr:stedsnr" v="430503" />
	</node>
	<node id="-451369" lat="60.2751536378" lon="6.24163781528">
		<tag k="fixme" v="consider place=hamlet" />
		<tag k="name" v="Sætveit" />
		<tag k="place" v="farm" />
		<tag k="ssr:stedsnr" v="430460" />
	</node>
	<node id="-451365" lat="60.3493611124" lon="6.38804999952">
		<tag k="fixme" v="consider place=hamlet" />
		<tag k="name" v="Vassel" />
		<tag k="place" v="farm" />
		<tag k="ssr:stedsnr" v="430107" />
	</node>
	<node id="-451363" lat="60.3380315303" lon="6.36177253324">
		<tag k="name" v="Låto" />
		<tag k="place" v="farm" />
		<tag k="ssr:stedsnr" v="430095" />
	</node>
	<node id="-450849" lat="60.3460194468" lon="6.38179722903">
		<tag k="name" v="Gjelet" />
		<tag k="place" v="farm" />
		<tag k="ssr:stedsnr" v="402059" />
	</node>
	<node id="-450844" lat="60.2340888861" lon="6.19939166156">
		<tag k="name" v="Mjøsstølen" />
		<tag k="place" v="farm" />
		<tag k="ssr:stedsnr" v="369695" />
	</node>
	<node id="-450843" lat="60.2258388872" lon="6.19590555324">
		<tag k="alt_name" v="Skipparvik" />
		<tag k="name" v="Skiparvika" />
		<tag k="place" v="farm" />
		<tag k="ssr:stedsnr" v="369684" />
	</node>
	<node id="-450842" lat="60.1419472265" lon="6.13879443837">
		<tag k="alt_name" v="Lio" />
		<tag k="name" v="Lia" />
		<tag k="place" v="farm" />
		<tag k="ssr:stedsnr" v="369554" />
	</node>
	<node id="-451352" lat="60.2371916675" lon="6.2754111144">
		<tag k="historic" v="shieling" />
		<tag k="name" v="Fjelltveit" />
		<tag k="place" v="locality" />
		<tag k="ssr:stedsnr" v="429798" />
	</node>
	<node id="-451348" lat="60.172602774" lon="6.10775834163">
		<tag k="alt_name" v="Årvik" />
		<tag k="fixme" v="consider place=hamlet" />
		<tag k="name" v="Årvika" />
		<tag k="place" v="farm" />
		<tag k="ssr:stedsnr" v="429563" />
	</node>
	<node id="-451855" lat="60.2437837557" lon="6.20191860635">
		<tag k="alt_name" v="Øyjordi" />
		<tag k="name" v="Øydjorda" />
		<tag k="place" v="farm" />
		<tag k="ssr:stedsnr" v="794748" />
	</node>
	<node id="-451342" lat="60.1891611119" lon="6.08626944544">
		<tag k="alt_name" v="Hamaren" />
		<tag k="name" v="Hammaren" />
		<tag k="place" v="farm" />
		<tag k="ssr:stedsnr" v="248574" />
	</node>
	<node id="-451338" lat="60.212321576" lon="6.15662133518">
		<tag k="fixme" v="consider place=hamlet" />
		<tag k="name" v="Gangdal" />
		<tag k="place" v="farm" />
		<tag k="ssr:stedsnr" v="248497" />
	</node>
	<node id="-450825" lat="60.3342861113" lon="6.48252499555">
		<tag k="historic" v="shieling" />
		<tag k="name" v="Samdalsstølen" />
		<tag k="place" v="locality" />
		<tag k="ssr:stedsnr" v="369012" />
	</node>
	<node id="-451336" lat="60.2859777782" lon="6.34070832478">
		<tag k="fixme" v="consider place=hamlet" />
		<tag k="loc_name" v="Mølve" />
		<tag k="name" v="Molve" />
		<tag k="place" v="farm" />
		<tag k="ssr:stedsnr" v="248456" />
	</node>
	<node id="-451847" lat="60.2807611106" lon="6.38616111383">
		<tag k="fixme" v="consider place=hamlet" />
		<tag k="name" v="Kopre" />
		<tag k="place" v="farm" />
		<tag k="ssr:stedsnr" v="794454" />
	</node>
	<node id="-450822" lat="60.2398805599" lon="6.31125555188">
		<tag k="historic" v="shieling" />
		<tag k="name" v="Nipe" />
		<tag k="place" v="locality" />
		<tag k="ssr:stedsnr" v="368830" />
	</node>
	<node id="-451332" lat="60.3468472189" lon="6.37155833697">
		<tag k="name" v="Hallgrim" />
		<tag k="place" v="farm" />
		<tag k="ssr:stedsnr" v="248109" />
	</node>
	<node id="-450819" lat="60.3412305526" lon="6.38094721477">
		<tag k="name" v="Tveitehagen" />
		<tag k="place" v="quarter" />
		<tag k="ssr:stedsnr" v="359565" />
	</node>
	<node id="-451329" lat="60.3447027752" lon="6.39005277151">
		<tag k="fixme" v="consider place=hamlet" />
		<tag k="name" v="Eiki" />
		<tag k="place" v="farm" />
		<tag k="ssr:stedsnr" v="248092" />
	</node>
	<node id="-451327" lat="60.3697722225" lon="6.36520833427">
		<tag k="alt_name" v="Vikane, in;Vikane" />
		<tag k="name" v="Indre Vikane" />
		<tag k="place" v="farm" />
		<tag k="ssr:stedsnr" v="248081" />
	</node>
	<node id="-451837" lat="60.3463619557" lon="6.3872189624">
		<tag k="alt_name" v="Bakko" />
		<tag k="fixme" v="consider place=hamlet" />
		<tag k="name" v="Bokko" />
		<tag k="place" v="farm" />
		<tag k="ssr:stedsnr" v="794121" />
	</node>
	<node id="-451836" lat="60.347063705" lon="6.38094833892">
		<tag k="name" v="Langvoll" />
		<tag k="place" v="farm" />
		<tag k="ssr:stedsnr" v="794111" />
	</node>
	<node id="-451835" lat="60.3379333299" lon="6.35525555426">
		<tag k="alt_name" v="Hundstangen" />
		<tag k="name" v="Hustangen" />
		<tag k="place" v="farm" />
		<tag k="ssr:stedsnr" v="794102" />
	</node>
	<node id="-451833" lat="60.3678256652" lon="6.37891021599">
		<tag k="name" v="Fagertveit" />
		<tag k="place" v="isolated_dwelling" />
		<tag k="ssr:stedsnr" v="794080" />
	</node>
	<node id="-450804" lat="60.1959194408" lon="6.09241389138">
		<tag k="name" v="Børvagarden" />
		<tag k="place" v="farm" />
		<tag k="ssr:stedsnr" v="342556" />
	</node>
	<node id="-451827" lat="60.3135474915" lon="6.31898019215">
		<tag k="fixme" v="consider place=hamlet" />
		<tag k="name" v="Svåsand" />
		<tag k="place" v="farm" />
		<tag k="ssr:stedsnr" v="794014" />
	</node>
	<node id="-451312" lat="60.1688388847" lon="6.15276944541">
		<tag k="historic" v="shieling" />
		<tag k="name" v="Heimasætret" />
		<tag k="place" v="locality" />
		<tag k="ssr:stedsnr" v="247541" />
	</node>
	<node id="-451823" lat="60.1564222221" lon="6.11902221449">
		<tag k="alt_name" v="Knarrevik" />
		<tag k="name" v="Knarrvika" />
		<tag k="place" v="farm" />
		<tag k="ssr:stedsnr" v="793640" />
	</node>
	<node id="-450792" lat="60.2461293648" lon="6.29505299702">
		<tag k="barrier" v="fence" />
		<tag k="name" v="Torsnesgarden" />
		<tag k="ssr:stedsnr" v="341631" />
	</node>
	<node id="-450788" lat="60.2800611128" lon="6.30025277183">
		<tag k="name" v="Neset" />
		<tag k="place" v="farm" />
		<tag k="ssr:stedsnr" v="341580" />
	</node>
	<node id="-450787" lat="60.2345722224" lon="6.31150833697">
		<tag k="name" v="Øyri" />
		<tag k="place" v="farm" />
		<tag k="ssr:stedsnr" v="341577" />
	</node>
	<node id="-451809" lat="60.2651777792" lon="6.23920833032">
		<tag k="name" v="Gottveit" />
		<tag k="place" v="locality" />
		<tag k="ssr:stedsnr" v="766741" />
	</node>
	<node id="-451806" lat="60.2744722235" lon="6.24839444482">
		<tag k="name" v="Borga" />
		<tag k="place" v="farm" />
		<tag k="ssr:stedsnr" v="766719" />
	</node>
	<node id="-450778" lat="60.3685750002" lon="6.43370278563">
		<tag k="name" v="Bjotveit" />
		<tag k="place" v="farm" />
		<tag k="ssr:stedsnr" v="341076" />
	</node>
	<node id="-450768" lat="60.2777178232" lon="6.38624276281">
		<tag k="fixme" v="consider place=hamlet" />
		<tag k="name" v="Flatabø" />
		<tag k="place" v="farm" />
		<tag k="ssr:stedsnr" v="309503" />
	</node>
	<node id="-450767" lat="60.1290999989" lon="6.19524999561">
		<tag k="historic" v="shieling" />
		<tag k="name" v="Hessvikesætret" />
		<tag k="place" v="locality" />
		<tag k="ssr:stedsnr" v="308905" />
	</node>
	<node id="-451447" lat="60.2667361076" lon="6.29286388699">
		<tag k="historic" v="shieling" />
		<tag k="name" v="Tvidal" />
		<tag k="place" v="locality" />
		<tag k="ssr:stedsnr" v="491517" />
	</node>
	<node id="-451784" lat="60.3430722212" lon="6.39645555925">
		<tag k="name" v="Skarpen" />
		<tag k="place" v="farm" />
		<tag k="ssr:stedsnr" v="766055" />
	</node>
	<node id="-451269" lat="60.2577984023" lon="6.22633613265">
		<tag k="alt_name" v="Vikane, ytre" />
		<tag k="fixme" v="consider place=hamlet" />
		<tag k="name" v="Ytre Vikane" />
		<tag k="place" v="farm" />
		<tag k="ssr:stedsnr" v="188414" />
	</node>
	<node id="-450756" lat="60.2430527816" lon="6.2144416582">
		<tag k="name" v="Ospehaugen" />
		<tag k="place" v="farm" />
		<tag k="ssr:stedsnr" v="308731" />
	</node>
	<node id="-450754" lat="60.2152500044" lon="6.117341673">
		<tag k="name" v="Solheim" />
		<tag k="place" v="farm" />
		<tag k="ssr:stedsnr" v="308479" />
	</node>
	<node id="-450753" lat="60.2040214048" lon="6.11157907317">
		<tag k="fixme" v="consider place=hamlet" />
		<tag k="name" v="Kysnes" />
		<tag k="place" v="farm" />
		<tag k="ssr:stedsnr" v="308470" />
	</node>
	<node id="-450751" lat="60.2885249988" lon="6.32113889228">
		<tag k="fixme" v="consider place=hamlet" />
		<tag k="name" v="Handagard" />
		<tag k="place" v="farm" />
		<tag k="ssr:stedsnr" v="308421" />
	</node>
	<node id="-451774" lat="60.275738887" lon="6.35123611733">
		<tag k="fixme" v="consider place=hamlet" />
		<tag k="name" v="Drebrekke" />
		<tag k="place" v="farm" />
		<tag k="ssr:stedsnr" v="734520" />
	</node>
	<node id="-450747" lat="60.368280558" lon="6.35288889505">
		<tag k="name" v="Ytsteviki" />
		<tag k="place" v="farm" />
		<tag k="ssr:stedsnr" v="308074" />
	</node>
	<node id="-451770" lat="60.3308277801" lon="6.34019722411">
		<tag k="name" v="Strondi" />
		<tag k="place" v="farm" />
		<tag k="ssr:stedsnr" v="734108" />
	</node>
	<node id="-451257" lat="60.1405332449" lon="6.14368614402">
		<tag k="fixme" v="consider place=hamlet" />
		<tag k="name" v="Årsand" />
		<tag k="place" v="farm" />
		<tag k="ssr:stedsnr" v="187565" />
	</node>
	<node id="-450932" lat="60.2764491374" lon="6.25716281658">
		<tag k="fixme" v="consider place=hamlet" />
		<tag k="name" v="Brekke" />
		<tag k="place" v="farm" />
		<tag k="ssr:stedsnr" v="888664" />
	</node>
	<node id="-450741" lat="60.2695527782" lon="6.23662499802">
		<tag k="name" v="Sætveithagen" />
		<tag k="place" v="quarter" />
		<tag k="ssr:stedsnr" v="298520" />
	</node>
	<node id="-451250" lat="60.2791500014" lon="6.25111388346">
		<tag k="fixme" v="consider place=hamlet" />
		<tag k="name" v="Vik" />
		<tag k="place" v="farm" />
		<tag k="ssr:stedsnr" v="187412" />
	</node>
	<node id="-451272" lat="60.2535361088" lon="6.20342499178">
		<tag k="fixme" v="consider place=hamlet" />
		<tag k="name" v="Belsnes" />
		<tag k="place" v="farm" />
		<tag k="ssr:stedsnr" v="188790" />
	</node>
	<node id="-450745" lat="60.3237944486" lon="6.33683333318">
		<tag k="name" v="Hereiane" />
		<tag k="place" v="farm" />
		<tag k="ssr:stedsnr" v="308020" />
	</node>
	<node id="-451757" lat="60.1903194467" lon="6.13058889624">
		<tag k="historic" v="shieling" />
		<tag k="name" v="Dumben" />
		<tag k="place" v="locality" />
		<tag k="ssr:stedsnr" v="733528" />
	</node>
	<node id="-451755" lat="60.2175638865" lon="6.12172499526">
		<tag k="name" v="Grotnes" />
		<tag k="place" v="farm" />
		<tag k="ssr:stedsnr" v="733483" />
	</node>
	<node id="-451752" lat="60.258517767" lon="6.32359237014">
		<tag k="historic" v="shieling" />
		<tag k="name" v="Espelandsgrytingen" />
		<tag k="place" v="locality" />
		<tag k="ssr:stedsnr" v="733359" />
	</node>
	<node id="-451751" lat="60.3693611083" lon="6.35570554996">
		<tag k="fixme" v="consider place=hamlet" />
		<tag k="name" v="Samlaneset" />
		<tag k="place" v="farm" />
		<tag k="ssr:stedsnr" v="733098" />
	</node>
	<node id="-450725" lat="60.2434694483" lon="6.20138888282">
		<tag k="name" v="Nesheim" />
		<tag k="place" v="farm" />
		<tag k="ssr:stedsnr" v="281743" />
	</node>
	<node id="-451236" lat="60.2386083323" lon="6.23176944984">
		<tag k="name" v="Kroken" />
		<tag k="place" v="locality" />
		<tag k="ssr:stedsnr" v="186807" />
	</node>
	<node id="-451743" lat="60.2504583303" lon="6.2055722304">
		<tag k="name" v="Belsnes" />
		<tag k="place" v="quarter" />
		<tag k="ssr:stedsnr" v="723544" />
	</node>
	<node id="-451230" lat="60.3122111103" lon="6.31914722035">
		<tag k="name" v="Eikjehaug" />
		<tag k="place" v="farm" />
		<tag k="ssr:stedsnr" v="165928" />
	</node>
	<node id="-451738" lat="60.2796722208" lon="6.26094999857">
		<tag k="name" v="Brotet" />
		<tag k="place" v="farm" />
		<tag k="ssr:stedsnr" v="706837" />
	</node>
	<node id="-451767" lat="60.3440222239" lon="6.37581111718">
		<tag k="fixme" v="consider place=hamlet" />
		<tag k="name" v="Herand" />
		<tag k="place" v="village" />
		<tag k="ssr:stedsnr" v="734096" />
	</node>
	<node id="-451727" lat="60.2809297711" lon="6.2495928079">
		<tag k="name" v="Nordbøen" />
		<tag k="place" v="farm" />
		<tag k="ssr:stedsnr" v="706638" />
	</node>
	<node id="-451212" lat="60.2849416675" lon="6.24378334204">
		<tag k="name" v="Hesthammar" />
		<tag k="place" v="farm" />
		<tag k="ssr:stedsnr" v="159792" />
	</node>
	<node id="-451205" lat="60.2315972248" lon="6.19839445182">
		<tag k="name" v="Klippet" />
		<tag k="place" v="farm" />
		<tag k="ssr:stedsnr" v="159718" />
	</node>
	<node id="-450692" lat="60.3341500042" lon="6.39291389266">
		<tag k="name" v="Skåri" />
		<tag k="place" v="farm" />
		<tag k="ssr:stedsnr" v="281052" />
	</node>
	<node id="-451519" lat="60.3411499989" lon="6.34930278189">
		<tag k="name" v="Lindviki" />
		<tag k="place" v="farm" />
		<tag k="ssr:stedsnr" v="551109" />
	</node>
	<node id="-451699" lat="60.296716666" lon="6.37109444464">
		<tag k="historic" v="shieling" />
		<tag k="name" v="Vassenden" />
		<tag k="place" v="locality" />
		<tag k="ssr:stedsnr" v="673455" />
	</node>
	<node id="-450743" lat="60.332927781" lon="6.38563055411">
		<tag k="historic" v="shieling" />
		<tag k="name" v="Unndal" />
		<tag k="place" v="locality" />
		<tag k="ssr:stedsnr" v="308011" />
	</node>
	<node id="-451101" lat="60.3386222257" lon="6.36530278554">
		<tag k="name" v="Plasset" />
		<tag k="place" v="farm" />
		<tag k="ssr:stedsnr" v="99061" />
	</node>
	<node id="-451696" lat="60.3032249981" lon="6.2877083415">
		<tag k="name" v="Fellene" />
		<tag k="place" v="farm" />
		<tag k="ssr:stedsnr" v="673070" />
	</node>
	<node id="-450920" lat="60.197098265" lon="6.15448642154">
		<tag k="barrier" v="fence" />
		<tag k="name" v="Stølsgarden" />
		<tag k="ssr:stedsnr" v="888598" />
	</node>
	<node id="-451692" lat="60.1303015857" lon="6.15814077597">
		<tag k="alt_name" v="Hessvik" />
		<tag k="fixme" v="consider place=hamlet" />
		<tag k="name" v="Hessvika" />
		<tag k="place" v="farm" />
		<tag k="ssr:stedsnr" v="672880" />
	</node>
	<node id="-451176" lat="60.2588444446" lon="6.23301944655">
		<tag k="name" v="Vikasanden" />
		<tag k="place" v="farm" />
		<tag k="ssr:stedsnr" v="127398" />
	</node>
	<node id="-451175" lat="60.273261112" lon="6.39073888479">
		<tag k="historic" v="shieling" />
		<tag k="name" v="Haugane" />
		<tag k="place" v="locality" />
		<tag k="ssr:stedsnr" v="127404" />
	</node>
	<node id="-451686" lat="60.2364027795" lon="6.19513333783">
		<tag k="fixme" v="consider place=hamlet" />
		<tag k="name" v="Torsnes" />
		<tag k="place" v="farm" />
		<tag k="ssr:stedsnr" v="672737" />
	</node>
	<node id="-451685" lat="60.173413888" lon="6.16964999885">
		<tag k="historic" v="shieling" />
		<tag k="name" v="Vassdalen" />
		<tag k="place" v="locality" />
		<tag k="ssr:stedsnr" v="672556" />
	</node>
	<node id="-451174" lat="60.3501750022" lon="6.3922805636">
		<tag k="name" v="Fredheim" />
		<tag k="place" v="farm" />
		<tag k="ssr:stedsnr" v="127122" />
	</node>
	<node id="-451169" lat="60.2183611131" lon="6.22520277143">
		<tag k="name" v="Stekkagjota" />
		<tag k="place" v="isolated_dwelling" />
		<tag k="ssr:stedsnr" v="126807" />
	</node>
	<node id="-451166" lat="60.2002916663" lon="6.10972499353">
		<tag k="name" v="Heimdalen" />
		<tag k="place" v="farm" />
		<tag k="ssr:stedsnr" v="126514" />
	</node>
	<node id="-451677" lat="60.2104527743" lon="6.11216944675">
		<tag k="name" v="Furevik" />
		<tag k="place" v="farm" />
		<tag k="ssr:stedsnr" v="672458" />
	</node>
	<node id="-451164" lat="60.2776564111" lon="6.29375645281">
		<tag k="fixme" v="consider place=hamlet" />
		<tag k="name" v="Byrkjeland" />
		<tag k="place" v="farm" />
		<tag k="ssr:stedsnr" v="126483" />
	</node>
	<node id="-450746" lat="60.3074972261" lon="6.29485556306">
		<tag k="alt_name" v="Tømmervik" />
		<tag k="name" v="Tømmerviki" />
		<tag k="place" v="farm" />
		<tag k="ssr:stedsnr" v="308049" />
	</node>
	<node id="-451161" lat="60.280383874" lon="6.37672505914">
		<tag k="fixme" v="consider place=hamlet" />
		<tag k="name" v="Kvåle" />
		<tag k="place" v="farm" />
		<tag k="ssr:stedsnr" v="126478" />
	</node>
	<node id="-451672" lat="60.3177111093" lon="6.32428889072">
		<tag k="name" v="Monaviki" />
		<tag k="place" v="farm" />
		<tag k="ssr:stedsnr" v="672032" />
	</node>
	<node id="-451158" lat="60.2864305533" lon="6.33511666489">
		<tag k="name" v="Steintveithaugen" />
		<tag k="place" v="farm" />
		<tag k="ssr:stedsnr" v="126471" />
	</node>
	<node id="-451769" lat="60.3455028495" lon="6.39889578409">
		<tag k="name" v="Trå" />
		<tag k="place" v="hamlet" />
		<tag k="ssr:stedsnr" v="734100" />
	</node>
	<node id="-451667" lat="60.2202722188" lon="6.18612777331">
		<tag k="name" v="Ytre Skiparvik" />
		<tag k="place" v="neighbourhood" />
		<tag k="ssr:stedsnr" v="662544" />
	</node>
	<node id="-451154" lat="60.2976916637" lon="6.24351666112">
		<tag k="alt_name" v="Bordheller" />
		<tag k="name" v="Buhiller" />
		<tag k="place" v="farm" />
		<tag k="ssr:stedsnr" v="126049" />
	</node>
	<node id="-451147" lat="60.1709500032" lon="6.10824444606">
		<tag k="name" v="Øyra" />
		<tag k="place" v="farm" />
		<tag k="ssr:stedsnr" v="125586" />
	</node>
	<node id="-451146" lat="60.224583334" lon="6.19076110897">
		<tag k="name" v="Skiparvik" />
		<tag k="place" v="neighbourhood" />
		<tag k="ssr:stedsnr" v="116548" />
	</node>
	<node id="-451657" lat="60.2782904357" lon="6.24931268183">
		<tag k="name" v="Akkjerhaugen" />
		<tag k="place" v="farm" />
		<tag k="ssr:stedsnr" v="645661" />
	</node>
	<node id="-451651" lat="60.2031444424" lon="6.11005555646">
		<tag k="name" v="Teigen" />
		<tag k="place" v="farm" />
		<tag k="ssr:stedsnr" v="645583" />
	</node>
	<node id="-451135" lat="60.2372666652" lon="6.3129444527">
		<tag k="name" v="Omsgard" />
		<tag k="place" v="farm" />
		<tag k="ssr:stedsnr" v="99786" />
	</node>
	<node id="-451134" lat="60.3052972256" lon="6.2804916596">
		<tag k="name" v="Kyrkjesteg" />
		<tag k="place" v="farm" />
		<tag k="ssr:stedsnr" v="99765" />
	</node>
	<node id="-451644" lat="60.3074749965" lon="6.29633055131">
		<tag k="name" v="Øvrabøen" />
		<tag k="place" v="farm" />
		<tag k="ssr:stedsnr" v="644619" />
	</node>
	<node id="-451440" lat="60.3047388883" lon="6.39756944395">
		<tag k="alt_name" v="Stuvasete" />
		<tag k="historic" v="shieling" />
		<tag k="name" v="Slåsete" />
		<tag k="place" v="locality" />
		<tag k="ssr:stedsnr" v="491039" />
	</node>
	<node id="-450824" lat="60.3335138886" lon="6.39527777367">
		<tag k="historic" v="shieling" />
		<tag k="name" v="Skoraset" />
		<tag k="place" v="locality" />
		<tag k="ssr:stedsnr" v="369007" />
	</node>
	<node id="-451627" lat="60.3400777823" lon="6.3809583374">
		<tag k="name" v="Raustveit" />
		<tag k="place" v="farm" />
		<tag k="ssr:stedsnr" v="644063" />
	</node>
	<node id="-451625" lat="60.3440642584" lon="6.37826209787">
		<tag k="alt_name" v="Tveiten" />
		<tag k="fixme" v="consider place=hamlet" />
		<tag k="name" v="Tveiti" />
		<tag k="place" v="farm" />
		<tag k="ssr:stedsnr" v="644053" />
	</node>
	<node id="-451620" lat="60.2787777782" lon="6.34451388166">
		<tag k="name" v="Slettbakken" />
		<tag k="place" v="farm" />
		<tag k="ssr:stedsnr" v="612501" />
	</node>
	<node id="-451616" lat="60.2993888893" lon="6.34026943614">
		<tag k="historic" v="shieling" />
		<tag k="name" v="Klepp" />
		<tag k="place" v="locality" />
		<tag k="ssr:stedsnr" v="612476" />
	</node>
	<node id="-451614" lat="60.2702611086" lon="6.40588055414">
		<tag k="name" v="Geitastølen" />
		<tag k="place" v="locality" />
		<tag k="ssr:stedsnr" v="612408" />
	</node>
	<node id="-451613" lat="60.2615892405" lon="6.23544061332">
		<tag k="alt_name" v="Vikane, indre" />
		<tag k="fixme" v="consider place=hamlet" />
		<tag k="name" v="Indre Vikane" />
		<tag k="place" v="farm" />
		<tag k="ssr:stedsnr" v="612395" />
	</node>
	<node id="-451612" lat="60.3488712287" lon="6.40242989786">
		<tag k="fixme" v="consider place=hamlet" />
		<tag k="name" v="Samland" />
		<tag k="place" v="farm" />
		<tag k="ssr:stedsnr" v="612147" />
	</node>
	<node id="-451099" lat="60.3385999982" lon="6.38011943553">
		<tag k="name" v="Træstad" />
		<tag k="place" v="farm" />
		<tag k="ssr:stedsnr" v="99057" />
	</node>
	<node id="-451609" lat="60.3456083376" lon="6.37696944982">
		<tag k="fixme" v="consider place=hamlet" />
		<tag k="name" v="Sævarhagen" />
		<tag k="place" v="farm" />
		<tag k="ssr:stedsnr" v="612119" />
	</node>
	<node id="-450820" lat="60.1696416662" lon="6.11059444605">
		<tag k="name" v="Teigen" />
		<tag k="place" v="farm" />
		<tag k="ssr:stedsnr" v="368617" />
	</node>
	<node id="-451094" lat="60.194580558" lon="6.09301111654">
		<tag k="name" v="Mjelkevik" />
		<tag k="place" v="farm" />
		<tag k="ssr:stedsnr" v="66538" />
	</node>
	<node id="-451093" lat="60.1911305548" lon="6.08715833356">
		<tag k="name" v="Breidvik" />
		<tag k="place" v="farm" />
		<tag k="ssr:stedsnr" v="66537" />
	</node>
	<node id="-451091" lat="60.2161444438" lon="6.11872499228">
		<tag k="name" v="Kolgrovvika" />
		<tag k="place" v="farm" />
		<tag k="ssr:stedsnr" v="66490" />
	</node>
	<node id="-451090" lat="60.2075805519" lon="6.11126388519">
		<tag k="name" v="Trædet" />
		<tag k="place" v="farm" />
		<tag k="ssr:stedsnr" v="66469" />
	</node>
	<node id="-451089" lat="60.2654138908" lon="6.23604999495">
		<tag k="name" v="Stekka" />
		<tag k="place" v="farm" />
		<tag k="ssr:stedsnr" v="66463" />
	</node>
	<node id="-451086" lat="60.2633777754" lon="6.35983056451">
		<tag k="name" v="Botnen" />
		<tag k="place" v="locality" />
		<tag k="ssr:stedsnr" v="66448" />
	</node>
	<node id="-451083" lat="60.2845388864" lon="6.42074443797">
		<tag k="historic" v="shieling" />
		<tag k="name" v="Jammerdal" />
		<tag k="place" v="locality" />
		<tag k="ssr:stedsnr" v="66425" />
	</node>
	<node id="-451082" lat="60.2876666704" lon="6.42370000537">
		<tag k="historic" v="shieling" />
		<tag k="name" v="Sjusete" />
		<tag k="place" v="locality" />
		<tag k="ssr:stedsnr" v="66423" />
	</node>
	<node id="-451593" lat="60.2143972215" lon="6.12132221445">
		<tag k="alt_name" v="Storesletta" />
		<tag k="name" v="Storasletta" />
		<tag k="place" v="farm" />
		<tag k="ssr:stedsnr" v="611517" />
	</node>
	<node id="-451589" lat="60.3355249982" lon="6.40312777132">
		<tag k="historic" v="shieling" />
		<tag k="name" v="Solhaugstølen" />
		<tag k="place" v="locality" />
		<tag k="ssr:stedsnr" v="611014" />
	</node>
	<node id="-451588" lat="60.3193305578" lon="6.42955556145">
		<tag k="alt_name" v="Fonnastøl" />
		<tag k="historic" v="shieling" />
		<tag k="name" v="Fodnasete" />
		<tag k="place" v="locality" />
		<tag k="ssr:stedsnr" v="611008" />
	</node>
	<node id="-451075" lat="60.3063287477" lon="6.27615564753">
		<tag k="fixme" v="consider place=hamlet" />
		<tag k="name" v="Solesnes" />
		<tag k="place" v="farm" />
		<tag k="ssr:stedsnr" v="66056" />
	</node>
</osm>
