<?xml version="1.0" encoding="UTF-8"?>
<osm generator="osmapis" version="0.6">
	<node id="-450302" lat="60.303422224" lon="6.2906888914">
		<tag k="highway" v="path" />
		<tag k="name" v="Borkavegen" />
		<tag k="ssr:stedsnr" v="888535" />
	</node>
	<node id="-451391" lat="60.2803555514" lon="6.25689165856">
		<tag k="highway" v="path" />
		<tag k="name" v="Lindesteg" />
		<tag k="ssr:stedsnr" v="949638" />
	</node>
	<node id="-451183" lat="60.2912805535" lon="6.32759443626">
		<tag k="highway" v="path" />
		<tag k="name" v="Bjørnsteg" />
		<tag k="ssr:stedsnr" v="766610" />
	</node>
	<node id="-450286" lat="60.3469222179" lon="6.40132777266">
		<tag k="bridge" v="yes" />
		<tag k="layer" v="1" />
		<tag k="name" v="Herandselva" />
		<tag k="ssr:stedsnr" v="411850" />
	</node>
	<node id="-451180" lat="60.3026611155" lon="6.31673056216">
		<tag k="highway" v="path" />
		<tag k="name" v="Smalastigen" />
		<tag k="ssr:stedsnr" v="766592" />
	</node>
	<node id="-450531" lat="60.2795277812" lon="6.38163888379">
		<tag k="bridge" v="yes" />
		<tag k="layer" v="1" />
		<tag k="name" v="Sand" />
		<tag k="ssr:stedsnr" v="107869" />
	</node>
	<node id="-450527" lat="60.2891305575" lon="6.42924722468">
		<tag k="ford" v="yes" />
		<tag k="name" v="Smalabruvad" />
		<tag k="place" v="locality" />
		<tag k="ssr:stedsnr" v="99875" />
	</node>
	<node id="-450525" lat="60.342186109" lon="6.42493055526">
		<tag k="ford" v="yes" />
		<tag k="name" v="Ingebriktsvad" />
		<tag k="place" v="locality" />
		<tag k="ssr:stedsnr" v="99859" />
	</node>
	<node id="-451032" lat="60.3022527809" lon="6.28824167082">
		<tag k="highway" v="path" />
		<tag k="name" v="Moldstigen" />
		<tag k="ssr:stedsnr" v="644632" />
	</node>
	<node id="-451411" lat="60.2757189996" lon="6.25134973374">
		<tag k="amenity" v="ferry_terminal" />
		<tag k="name" v="Jondal ferjekai" />
		<tag k="ssr:stedsnr" v="978599" />
	</node>
	<node id="-450128" lat="60.2795083342" lon="6.28899443657">
		<tag k="bridge" v="yes" />
		<tag k="layer" v="1" />
		<tag k="name" v="Byrkjeland" />
		<tag k="ssr:stedsnr" v="289907" />
	</node>
	<node id="-451276" lat="60.1711555592" lon="6.10795276889">
		<tag k="bridge" v="yes" />
		<tag k="layer" v="1" />
		<tag k="name" v="Årvik" />
		<tag k="ssr:stedsnr" v="836865" />
	</node>
	<node id="-451275" lat="60.3035777769" lon="6.28363333803">
		<tag k="bridge" v="yes" />
		<tag k="layer" v="1" />
		<tag k="name" v="Selsvik" />
		<tag k="ssr:stedsnr" v="835868" />
	</node>
	<node id="-450890" lat="60.2873388858" lon="6.24588889363">
		<tag k="layer" v="-1" />
		<tag k="name" v="Monsa" />
		<tag k="ssr:stedsnr" v="529329" />
		<tag k="tunnel" v="yes" />
	</node>
	<node id="-451020" lat="60.1696777741" lon="6.13238611286">
		<tag k="highway" v="path" />
		<tag k="name" v="Heimesetravegen" />
		<tag k="ssr:stedsnr" v="644467" />
	</node>
	<node id="-450239" lat="60.3245555536" lon="6.41916110653">
		<tag k="ford" v="yes" />
		<tag k="name" v="Sæverhagen-vad" />
		<tag k="place" v="locality" />
		<tag k="ssr:stedsnr" v="402072" />
	</node>
	<node id="-450619" lat="60.3169416671" lon="6.32411111299">
		<tag k="bridge" v="yes" />
		<tag k="layer" v="1" />
		<tag k="name" v="Månevikelva" />
		<tag k="ssr:stedsnr" v="168857" />
	</node>
	<node id="-450618" lat="60.2265833339" lon="6.19695000727">
		<tag k="bridge" v="yes" />
		<tag k="layer" v="1" />
		<tag k="name" v="Stampefossen" />
		<tag k="ssr:stedsnr" v="167868" />
	</node>
	<node id="-451128" lat="60.2778666676" lon="6.25136667">
		<tag k="bridge" v="yes" />
		<tag k="layer" v="1" />
		<tag k="name" v="Jondal" />
		<tag k="ssr:stedsnr" v="714863" />
	</node>
	<node id="-451127" lat="60.2593277778" lon="6.23444722683">
		<tag k="bridge" v="yes" />
		<tag k="layer" v="1" />
		<tag k="name" v="Vikane" />
		<tag k="ssr:stedsnr" v="713872" />
	</node>
	<node id="-451125" lat="60.3316999975" lon="6.41484166654">
		<tag k="ford" v="yes" />
		<tag k="name" v="Åsvad" />
		<tag k="place" v="locality" />
		<tag k="ssr:stedsnr" v="706885" />
	</node>
	<node id="-451052" lat="60.2797888897" lon="6.36021944109">
		<tag k="bridge" v="yes" />
		<tag k="layer" v="1" />
		<tag k="name" v="Bakgården" />
		<tag k="ssr:stedsnr" v="653868" />
	</node>
	<node id="-451374" lat="60.2415388906" lon="6.27143333985">
		<tag k="highway" v="path" />
		<tag k="name" v="Bjørnsteg" />
		<tag k="ssr:stedsnr" v="948793" />
	</node>
	<node id="-450860" lat="60.3251583324" lon="6.38400555976">
		<tag k="ford" v="yes" />
		<tag k="name" v="Tømmervadet" />
		<tag k="place" v="locality" />
		<tag k="ssr:stedsnr" v="523642" />
	</node>
	<node id="-450211" lat="60.3221833367" lon="6.45268055538">
		<tag k="highway" v="path" />
		<tag k="name" v="Gåsekleivi" />
		<tag k="ssr:stedsnr" v="369002" />
	</node>
	<node id="-450337" lat="60.1385138896" lon="6.14530833394">
		<tag k="bridge" v="yes" />
		<tag k="layer" v="1" />
		<tag k="name" v="Årsand" />
		<tag k="ssr:stedsnr" v="896881" />
	</node>
	<node id="-450973" lat="60.2847305523" lon="6.32818055089">
		<tag k="bridge" v="yes" />
		<tag k="layer" v="1" />
		<tag k="name" v="Espeland" />
		<tag k="ssr:stedsnr" v="592899" />
	</node>
	<node id="-450799" lat="60.2708888872" lon="6.26147222456">
		<tag k="fixme" v="consider highway=path" />
		<tag k="highway" v="track" />
		<tag k="name" v="Husastien" />
		<tag k="ssr:stedsnr" v="463702" />
	</node>
	<node id="-450444" lat="60.1952833333" lon="6.25021943965">
		<tag k="layer" v="-1" />
		<tag k="name" v="Jondalstunnelen" />
		<tag k="ssr:stedsnr" v="57061" />
		<tag k="tunnel" v="yes" />
	</node>
	<node id="-450443" lat="60.347936114" lon="6.40138889101">
		<tag k="bridge" v="yes" />
		<tag k="layer" v="1" />
		<tag k="name" v="Samland" />
		<tag k="ssr:stedsnr" v="46874" />
	</node>
	<node id="-450442" lat="60.3154083309" lon="6.32262777375">
		<tag k="bridge" v="yes" />
		<tag k="layer" v="1" />
		<tag k="name" v="Månevik" />
		<tag k="ssr:stedsnr" v="46872" />
	</node>
	<node id="-450697" lat="60.2418722213" lon="6.20659167161">
		<tag k="layer" v="-1" />
		<tag k="name" v="Torsnestunnelen" />
		<tag k="ssr:stedsnr" v="237068" />
		<tag k="tunnel" v="yes" />
	</node>
	<node id="-451208" lat="60.3398194437" lon="6.37163611325">
		<tag k="bridge" v="yes" />
		<tag k="layer" v="1" />
		<tag k="name" v="Haugen" />
		<tag k="ssr:stedsnr" v="775847" />
	</node>
	<node id="-451207" lat="60.2130333335" lon="6.15801944725">
		<tag k="bridge" v="yes" />
		<tag k="layer" v="1" />
		<tag k="name" v="Gangdal" />
		<tag k="ssr:stedsnr" v="775844" />
	</node>
	<node id="-451206" lat="60.2393083323" lon="6.20097777344">
		<tag k="bridge" v="yes" />
		<tag k="layer" v="1" />
		<tag k="name" v="Torsnes" />
		<tag k="ssr:stedsnr" v="774871" />
	</node>
	<node id="-451205" lat="60.2938444435" lon="6.23803888028">
		<tag k="layer" v="-1" />
		<tag k="name" v="Jona" />
		<tag k="ssr:stedsnr" v="772282" />
		<tag k="tunnel" v="yes" />
	</node>
	<node id="-450948" lat="60.2890833341" lon="6.37674167003">
		<tag k="highway" v="path" />
		<tag k="name" v="Hestastigen" />
		<tag k="ssr:stedsnr" v="584618" />
	</node>
</osm>
