<?xml version="1.0" encoding="UTF-8"?>
<osm generator="osmapis" version="0.6">
	<node id="-451042" lat="60.250513888" lon="6.21645833808">
		<tag k="historic" v="shieling" />
		<tag k="name" v="Belnesstølen" />
		<tag k="place" v="locality" />
		<tag k="ssr:stedsnr" v="38735" />
	</node>
	<node id="-450811" lat="60.2149111086" lon="6.22080277888">
		<tag k="name" v="Kaldesteinane" />
		<tag k="natural" v="stone" />
		<tag k="ssr:stedsnr" v="342758" />
	</node>
	<node id="-451552" lat="60.2785222254" lon="6.32752777474">
		<tag k="historic" v="shieling" />
		<tag k="name" v="Byrkjesete" />
		<tag k="place" v="locality" />
		<tag k="ssr:stedsnr" v="584512" />
	</node>
	<node id="-451541" lat="60.3382222264" lon="6.39609999845">
		<tag k="name" v="Rosshagen" />
		<tag k="place" v="locality" />
		<tag k="ssr:stedsnr" v="584061" />
	</node>
	<node id="-451015" lat="60.1815277778" lon="6.14539722984">
		<tag k="name" v="Fallemyrane" />
		<tag k="natural" v="wetland" />
		<tag k="ssr:stedsnr" v="38437" />
	</node>
	<node id="-451014" lat="60.1666916645" lon="6.13035555853">
		<tag k="name" v="Storemyr" />
		<tag k="natural" v="wetland" />
		<tag k="ssr:stedsnr" v="38438" />
	</node>
	<node id="-451007" lat="60.3494694445" lon="6.35516944629">
		<tag k="name" v="Hundstein" />
		<tag k="natural" v="stone" />
		<tag k="ssr:stedsnr" v="37636" />
	</node>
	<node id="-451509" lat="60.2485888897" lon="6.28840000399">
		<tag k="name" v="Torsnesmyrane" />
		<tag k="natural" v="wetland" />
		<tag k="ssr:stedsnr" v="550785" />
	</node>
	<node id="-451505" lat="60.3034222188" lon="6.2586222216">
		<tag k="name" v="Helleuri" />
		<tag k="natural" v="scree" />
		<tag k="ssr:stedsnr" v="530901" />
	</node>
	<node id="-451503" lat="60.3312583369" lon="6.4028972139">
		<tag k="name" v="Fogelimyr" />
		<tag k="natural" v="wetland" />
		<tag k="ssr:stedsnr" v="524861" />
	</node>
	<node id="-452014" lat="60.359241671" lon="6.41328055728">
		<tag k="name" v="Ulvsmyr" />
		<tag k="natural" v="wetland" />
		<tag k="ssr:stedsnr" v="949797" />
	</node>
	<node id="-452013" lat="60.2376472208" lon="6.27078055769">
		<tag k="name" v="Vesleura" />
		<tag k="natural" v="scree" />
		<tag k="ssr:stedsnr" v="949774" />
	</node>
	<node id="-452011" lat="60.2383166652" lon="6.31643610826">
		<tag k="name" v="Nipeuri" />
		<tag k="natural" v="scree" />
		<tag k="ssr:stedsnr" v="949705" />
	</node>
	<node id="-451493" lat="60.2931916681" lon="6.25175277133">
		<tag k="landuse" v="quarry" />
		<tag k="name" v="Myrabrotet" />
		<tag k="ssr:stedsnr" v="524698" />
	</node>
	<node id="-451487" lat="60.2517666693" lon="6.21877777727">
		<tag k="historic" v="shieling" />
		<tag k="name" v="Vikastølen" />
		<tag k="place" v="locality" />
		<tag k="ssr:stedsnr" v="524655" />
	</node>
	<node id="-451998" lat="60.2385888923" lon="6.20526110662">
		<tag k="name" v="Svaena" />
		<tag k="place" v="locality" />
		<tag k="ssr:stedsnr" v="949583" />
	</node>
	<node id="-451482" lat="60.1841499963" lon="6.10260555085">
		<tag k="historic" v="shieling" />
		<tag k="name" v="Stølen" />
		<tag k="place" v="locality" />
		<tag k="ssr:stedsnr" v="523853" />
	</node>
	<node id="-451992" lat="60.2957138853" lon="6.26273611153">
		<tag k="name" v="Hornsmyrane" />
		<tag k="natural" v="wetland" />
		<tag k="ssr:stedsnr" v="948829" />
	</node>
	<node id="-451990" lat="60.2972611077" lon="6.28076944613">
		<tag k="historic" v="shieling" />
		<tag k="name" v="Gamlestøl" />
		<tag k="place" v="locality" />
		<tag k="ssr:stedsnr" v="948817" />
	</node>
	<node id="-451985" lat="60.2912361143" lon="6.31191388451">
		<tag k="name" v="Bjørnesteguri" />
		<tag k="natural" v="scree" />
		<tag k="ssr:stedsnr" v="948674" />
	</node>
	<node id="-451983" lat="60.290530557" lon="6.33290832465">
		<tag k="name" v="Slåttetveit" />
		<tag k="place" v="locality" />
		<tag k="ssr:stedsnr" v="948670" />
	</node>
	<node id="-450957" lat="60.0208749982" lon="6.30709165878">
		<tag k="name" v="Folgefonna" />
		<tag k="natural" v="glacier" />
		<tag k="ssr:stedsnr" v="307423" />
	</node>
	<node id="-451978" lat="60.310311112" lon="6.32731943928">
		<tag k="name" v="Ranshaugmyri" />
		<tag k="natural" v="wetland" />
		<tag k="ssr:stedsnr" v="948645" />
	</node>
	<node id="-451464" lat="60.1836194434" lon="6.12976388927">
		<tag k="name" v="Dukamyr" />
		<tag k="natural" v="wetland" />
		<tag k="ssr:stedsnr" v="523525" />
	</node>
	<node id="-451459" lat="60.1609694484" lon="6.13229721327">
		<tag k="name" v="Graslimyra" />
		<tag k="natural" v="wetland" />
		<tag k="ssr:stedsnr" v="523499" />
	</node>
	<node id="-450945" lat="60.2862694426" lon="6.43526945087">
		<tag k="name" v="Klovningsteinane" />
		<tag k="natural" v="stone" />
		<tag k="ssr:stedsnr" v="888843" />
	</node>
	<node id="-451455" lat="60.3564092469" lon="6.39489424803">
		<tag k="name" v="Langemyr" />
		<tag k="natural" v="wetland" />
		<tag k="ssr:stedsnr" v="523107" />
	</node>
	<node id="-451454" lat="60.3354944476" lon="6.39211943769">
		<tag k="loc_name" v="Bakkaslåttene" />
		<tag k="name" v="Bakkeslåttena" />
		<tag k="place" v="locality" />
		<tag k="ssr:stedsnr" v="523082" />
	</node>
	<node id="-451965" lat="60.3362694454" lon="6.36569444774">
		<tag k="landuse" v="meadow" />
		<tag k="name" v="Haugshagen" />
		<tag k="ssr:stedsnr" v="948081" />
	</node>
	<node id="-450935" lat="60.2442166644" lon="6.22263333829">
		<tag k="name" v="Skaramyri" />
		<tag k="natural" v="wetland" />
		<tag k="ssr:stedsnr" v="888712" />
	</node>
	<node id="-450931" lat="60.2396416638" lon="6.24014167523">
		<tag k="name" v="Ryssur" />
		<tag k="natural" v="scree" />
		<tag k="ssr:stedsnr" v="888658" />
	</node>
	<node id="-450919" lat="60.2013305534" lon="6.10998888209">
		<tag k="name" v="Hagen" />
		<tag k="place" v="locality" />
		<tag k="ssr:stedsnr" v="888595" />
	</node>
	<node id="-451429" lat="60.3321583294" lon="6.43365555448">
		<tag k="name" v="Såtesteinane" />
		<tag k="natural" v="stone" />
		<tag k="ssr:stedsnr" v="490032" />
	</node>
	<node id="-450915" lat="60.3007861127" lon="6.31904444874">
		<tag k="name" v="Tverrmyri" />
		<tag k="natural" v="wetland" />
		<tag k="ssr:stedsnr" v="888539" />
	</node>
	<node id="-451935" lat="60.1967999999" lon="6.13698889022">
		<tag k="name" v="Storemyr" />
		<tag k="natural" v="wetland" />
		<tag k="ssr:stedsnr" v="915537" />
	</node>
	<node id="-450908" lat="60.2761666655" lon="6.38471111609">
		<tag k="name" v="Åkerriket" />
		<tag k="place" v="locality" />
		<tag k="ssr:stedsnr" v="888482" />
	</node>
	<node id="-451416" lat="60.3033555571" lon="6.25087221588">
		<tag k="name" v="Kjeasteinane" />
		<tag k="natural" v="stone" />
		<tag k="ssr:stedsnr" v="463719" />
	</node>
	<node id="-451410" lat="60.2347583343" lon="6.23067499878">
		<tag k="name" v="Maristeinane" />
		<tag k="natural" v="stone" />
		<tag k="ssr:stedsnr" v="463660" />
	</node>
	<node id="-451409" lat="60.2194722198" lon="6.19480556309">
		<tag k="name" v="Lisbet-slåttena" />
		<tag k="place" v="locality" />
		<tag k="ssr:stedsnr" v="463655" />
	</node>
	<node id="-451402" lat="60.290899998" lon="6.32311944911">
		<tag k="name" v="Rosshagen" />
		<tag k="place" v="locality" />
		<tag k="ssr:stedsnr" v="463570" />
	</node>
	<node id="-451913" lat="60.2713944448" lon="6.37312777941">
		<tag k="name" v="Stormyri" />
		<tag k="natural" v="wetland" />
		<tag k="ssr:stedsnr" v="855377" />
	</node>
	<node id="-451400" lat="60.3070555575" lon="6.36522500493">
		<tag k="name" v="Raudstein" />
		<tag k="natural" v="stone" />
		<tag k="ssr:stedsnr" v="463559" />
	</node>
	<node id="-450887" lat="60.2352055555" lon="6.25430833843">
		<tag k="name" v="Bjørnuri" />
		<tag k="natural" v="scree" />
		<tag k="ssr:stedsnr" v="402830" />
	</node>
	<node id="-450884" lat="60.2475166667" lon="6.27040832445">
		<tag k="landuse" v="quarry" />
		<tag k="name" v="Gråurebrotet" />
		<tag k="ssr:stedsnr" v="402765" />
	</node>
	<node id="-451906" lat="60.3216750026" lon="6.39524444813">
		<tag k="name" v="Leitesmyrane" />
		<tag k="natural" v="wetland" />
		<tag k="ssr:stedsnr" v="855024" />
	</node>
	<node id="-451040" lat="60.2729555565" lon="6.26369445156">
		<tag k="name" v="Urane" />
		<tag k="natural" v="scree" />
		<tag k="ssr:stedsnr" v="38721" />
	</node>
	<node id="-450875" lat="60.2118666704" lon="6.13691667195">
		<tag k="name" v="Plassasteinen" />
		<tag k="natural" v="stone" />
		<tag k="ssr:stedsnr" v="402696" />
	</node>
	<node id="-450874" lat="60.2376777751" lon="6.19723888706">
		<tag k="name" v="Storaveti" />
		<tag k="place" v="locality" />
		<tag k="ssr:stedsnr" v="402686" />
	</node>
	<node id="-450870" lat="60.288988887" lon="6.35114999626">
		<tag k="name" v="Slåttena" />
		<tag k="place" v="locality" />
		<tag k="ssr:stedsnr" v="402640" />
	</node>
	<node id="-451885" lat="60.2989555572" lon="6.28570555944">
		<tag k="name" v="Storesteinane" />
		<tag k="natural" v="stone" />
		<tag k="ssr:stedsnr" v="828837" />
	</node>
	<node id="-450860" lat="60.2798611133" lon="6.33068611991">
		<tag k="name" v="Langemyrane" />
		<tag k="natural" v="wetland" />
		<tag k="ssr:stedsnr" v="402550" />
	</node>
	<node id="-450857" lat="60.151524997" lon="6.12746388629">
		<tag k="name" v="Sirimyr" />
		<tag k="natural" v="wetland" />
		<tag k="ssr:stedsnr" v="402490" />
	</node>
	<node id="-451876" lat="60.2398833357" lon="6.19033055348">
		<tag k="name" v="Otrasteinane" />
		<tag k="natural" v="stone" />
		<tag k="ssr:stedsnr" v="827690" />
	</node>
	<node id="-451360" lat="60.2928249996" lon="6.25592499773">
		<tag k="name" v="Hornsmyrane" />
		<tag k="natural" v="wetland" />
		<tag k="ssr:stedsnr" v="430039" />
	</node>
	<node id="-451323" lat="60.3037249961" lon="6.3897944427">
		<tag k="name" v="Brennemyrane" />
		<tag k="natural" v="wetland" />
		<tag k="ssr:stedsnr" v="248033" />
	</node>
	<node id="-450810" lat="60.2386583295" lon="6.25874167367">
		<tag k="name" v="Batasteinane" />
		<tag k="natural" v="stone" />
		<tag k="ssr:stedsnr" v="342753" />
	</node>
	<node id="-450805" lat="60.1900111087" lon="6.15100556146">
		<tag k="historic" v="shieling" />
		<tag k="name" v="Kysnesstølen" />
		<tag k="place" v="locality" />
		<tag k="ssr:stedsnr" v="342559" />
	</node>
	<node id="-450802" lat="60.3012944415" lon="6.25925276958">
		<tag k="name" v="Kvernuri" />
		<tag k="natural" v="scree" />
		<tag k="ssr:stedsnr" v="341800" />
	</node>
	<node id="-450799" lat="60.2686111095" lon="6.24467221518">
		<tag k="historic" v="shieling" />
		<tag k="name" v="Nystøl" />
		<tag k="place" v="locality" />
		<tag k="ssr:stedsnr" v="341777" />
	</node>
	<node id="-450789" lat="60.2817694418" lon="6.33484445245">
		<tag k="historic" v="shieling" />
		<tag k="name" v="Liastøl" />
		<tag k="place" v="locality" />
		<tag k="ssr:stedsnr" v="341584" />
	</node>
	<node id="-451300" lat="60.2338194476" lon="6.21050556026">
		<tag k="name" v="Øyjordena" />
		<tag k="place" v="locality" />
		<tag k="ssr:stedsnr" v="220733" />
	</node>
	<node id="-451295" lat="60.1962777804" lon="6.16162221529">
		<tag k="name" v="Grønemyrane" />
		<tag k="natural" v="wetland" />
		<tag k="ssr:stedsnr" v="220690" />
	</node>
	<node id="-451801" lat="60.1895000008" lon="6.13043889614">
		<tag k="historic" v="shieling" />
		<tag k="name" v="Dombasete" />
		<tag k="place" v="locality" />
		<tag k="ssr:stedsnr" v="766664" />
	</node>
	<node id="-451796" lat="60.2904194442" lon="6.37160278396">
		<tag k="name" v="Ridaremyr" />
		<tag k="natural" v="wetland" />
		<tag k="ssr:stedsnr" v="766601" />
	</node>
	<node id="-451791" lat="60.3063388867" lon="6.31151945052">
		<tag k="name" v="Råtjørnmyri" />
		<tag k="natural" v="wetland" />
		<tag k="ssr:stedsnr" v="766578" />
	</node>
	<node id="-451278" lat="60.3644333305" lon="6.43673611533">
		<tag k="name" v="Barnamyr" />
		<tag k="natural" v="wetland" />
		<tag k="ssr:stedsnr" v="220108" />
	</node>
	<node id="-450764" lat="60.2352777736" lon="6.43536666375">
		<tag k="name" v="Sandosen" />
		<tag k="place" v="locality" />
		<tag k="ssr:stedsnr" v="308815" />
	</node>
	<node id="-450724" lat="60.2797916652" lon="6.26579722955">
		<tag k="historic" v="shieling" />
		<tag k="name" v="Mjåstølen" />
		<tag k="place" v="locality" />
		<tag k="ssr:stedsnr" v="281718" />
	</node>
	<node id="-450723" lat="60.2378666668" lon="6.23068888217">
		<tag k="name" v="Stora Vassmyri" />
		<tag k="natural" v="wetland" />
		<tag k="ssr:stedsnr" v="281717" />
	</node>
	<node id="-450722" lat="60.2359527771" lon="6.27568611372">
		<tag k="historic" v="shieling" />
		<tag k="name" v="Torsnesstølen" />
		<tag k="place" v="locality" />
		<tag k="ssr:stedsnr" v="281711" />
	</node>
	<node id="-451222" lat="60.2823499986" lon="6.28429444495">
		<tag k="name" v="Fureskukken" />
		<tag k="place" v="locality" />
		<tag k="ssr:stedsnr" v="160822" />
	</node>
	<node id="-451731" lat="60.283175001" lon="6.25585833759">
		<tag k="name" v="Fureskukken" />
		<tag k="place" v="locality" />
		<tag k="ssr:stedsnr" v="706663" />
	</node>
	<node id="-450700" lat="60.2338972251" lon="6.31736389552">
		<tag k="landuse" v="quarry" />
		<tag k="name" v="Botnabrotet" />
		<tag k="ssr:stedsnr" v="281519" />
	</node>
	<node id="-451206" lat="60.2840611124" lon="6.24789722171">
		<tag k="name" v="Angdalsmyri" />
		<tag k="natural" v="wetland" />
		<tag k="ssr:stedsnr" v="159724" />
	</node>
	<node id="-451717" lat="60.2871833352" lon="6.35620277902">
		<tag k="name" v="Armodstiguri" />
		<tag k="natural" v="scree" />
		<tag k="ssr:stedsnr" v="705672" />
	</node>
	<node id="-451203" lat="60.2647638899" lon="6.28929445165">
		<tag k="name" v="Kovurane" />
		<tag k="natural" v="scree" />
		<tag k="ssr:stedsnr" v="159581" />
	</node>
	<node id="-451708" lat="60.3364638845" lon="6.3798138841">
		<tag k="name" v="Vikehagen" />
		<tag k="place" v="locality" />
		<tag k="ssr:stedsnr" v="705091" />
	</node>
	<node id="-451194" lat="60.3576666698" lon="6.35483054906">
		<tag k="landuse" v="quarry" />
		<tag k="name" v="Kisgruva" />
		<tag k="ssr:stedsnr" v="159677" />
	</node>
	<node id="-451705" lat="60.1751111137" lon="6.12115278279">
		<tag k="name" v="Nutahagen" />
		<tag k="place" v="locality" />
		<tag k="ssr:stedsnr" v="705513" />
	</node>
	<node id="-451192" lat="60.2893861127" lon="6.31723333773">
		<tag k="name" v="Framtun" />
		<tag k="place" v="locality" />
		<tag k="ssr:stedsnr" v="159665" />
	</node>
	<node id="-451190" lat="60.2936694456" lon="6.36521666772">
		<tag k="name" v="Rotastimyri" />
		<tag k="natural" v="wetland" />
		<tag k="ssr:stedsnr" v="159646" />
	</node>
	<node id="-451698" lat="60.3605249986" lon="6.39272500341">
		<tag k="alt_name" v="Åsmyr" />
		<tag k="name" v="Åsmyri" />
		<tag k="natural" v="wetland" />
		<tag k="ssr:stedsnr" v="673089" />
	</node>
	<node id="-451697" lat="60.3590333349" lon="6.41086943924">
		<tag k="name" v="Renningsmyri" />
		<tag k="natural" v="wetland" />
		<tag k="ssr:stedsnr" v="673088" />
	</node>
	<node id="-450917" lat="60.2926916702" lon="6.3354333279">
		<tag k="name" v="Damsmyri" />
		<tag k="natural" v="wetland" />
		<tag k="ssr:stedsnr" v="888551" />
	</node>
	<node id="-451663" lat="60.2849999983" lon="6.42451111859">
		<tag k="name" v="Galtamyr" />
		<tag k="natural" v="wetland" />
		<tag k="ssr:stedsnr" v="645844" />
	</node>
	<node id="-451662" lat="60.2867027752" lon="6.41626389518">
		<tag k="name" v="Langamyr" />
		<tag k="natural" v="wetland" />
		<tag k="ssr:stedsnr" v="645842" />
	</node>
	<node id="-451654" lat="60.2214416661" lon="6.20559167298">
		<tag k="name" v="Moltemyr" />
		<tag k="natural" v="wetland" />
		<tag k="ssr:stedsnr" v="645624" />
	</node>
	<node id="-451652" lat="60.1975694411" lon="6.12675277137">
		<tag k="historic" v="shieling" />
		<tag k="name" v="Gamlasete" />
		<tag k="place" v="locality" />
		<tag k="ssr:stedsnr" v="645594" />
	</node>
	<node id="-451649" lat="60.2904166698" lon="6.34820555072">
		<tag k="name" v="Storamyr" />
		<tag k="natural" v="wetland" />
		<tag k="ssr:stedsnr" v="644642" />
	</node>
	<node id="-451136" lat="60.2925416672" lon="6.23669722569">
		<tag k="historic" v="shieling" />
		<tag k="name" v="Gamlestøl" />
		<tag k="place" v="locality" />
		<tag k="ssr:stedsnr" v="99797" />
	</node>
	<node id="-451647" lat="60.2951944425" lon="6.35543888634">
		<tag k="name" v="Stokkamyri" />
		<tag k="natural" v="wetland" />
		<tag k="ssr:stedsnr" v="644636" />
	</node>
	<node id="-451123" lat="60.2379972239" lon="6.20216111425">
		<tag k="name" v="Jonaslåtta" />
		<tag k="place" v="locality" />
		<tag k="ssr:stedsnr" v="99669" />
	</node>
	<node id="-451122" lat="60.2933916694" lon="6.3148666668">
		<tag k="name" v="Grasdalsmyri" />
		<tag k="natural" v="wetland" />
		<tag k="ssr:stedsnr" v="99616" />
	</node>
	<node id="-451632" lat="60.1717833368" lon="6.12115554822">
		<tag k="name" v="Knutsteinane" />
		<tag k="natural" v="stone" />
		<tag k="ssr:stedsnr" v="644463" />
	</node>
	<node id="-451630" lat="60.1321750037" lon="6.19583055941">
		<tag k="name" v="Kjerringemyrane" />
		<tag k="natural" v="wetland" />
		<tag k="ssr:stedsnr" v="644383" />
	</node>
	<node id="-451629" lat="60.357644445" lon="6.42641111158">
		<tag k="name" v="Dosane" />
		<tag k="place" v="locality" />
		<tag k="ssr:stedsnr" v="644085" />
	</node>
	<node id="-451626" lat="60.3335888872" lon="6.36652499553">
		<tag k="name" v="Lunden" />
		<tag k="place" v="locality" />
		<tag k="ssr:stedsnr" v="644059" />
	</node>
	<node id="-451617" lat="60.2765160869" lon="6.24976763604">
		<tag k="name" v="Jondalsøyri" />
		<tag k="place" v="locality" />
		<tag k="ssr:stedsnr" v="612483" />
	</node>
	<node id="-451605" lat="60.3054250007" lon="6.35982499454">
		<tag k="name" v="Raudsteinmyrane" />
		<tag k="natural" v="wetland" />
		<tag k="ssr:stedsnr" v="612040" />
	</node>
</osm>
