<?xml version="1.0" encoding="UTF-8"?>
<osm version="0.6" generator="osmapis">
	<node lat="58.504758334817026" lon="8.9126222187941" id="-26668">
		<tag k="name" v="Hånestangen" />
		<tag k="natural" v="cape" />
		<tag k="ssr:stedsnr" v="27275" />
	</node>
	<node lat="58.53524444110892" lon="9.01073333297147" id="-26670">
		<tag k="name" v="Håvikbåen" />
		<tag k="place" v="locality" />
		<tag k="seamark:type" v="rock" />
		<tag k="ssr:stedsnr" v="28310" />
	</node>
	<node lat="58.462752781166714" lon="8.781669444486155" id="-26683">
		<tag k="name" v="Kuviga" />
		<tag k="natural" v="bay" />
		<tag k="ssr:stedsnr" v="29620" />
	</node>
	<node lat="58.420247223636046" lon="8.750169451698826" id="-26687">
		<tag k="name" v="Langviga" />
		<tag k="natural" v="bay" />
		<tag k="ssr:stedsnr" v="29776" />
	</node>
	<node lat="58.50719722271527" lon="8.886152773291343" id="-26701">
		<tag k="name" v="Breiviksfjorden" />
		<tag k="natural" v="bay" />
		<tag k="ssr:stedsnr" v="30066" />
	</node>
	<node lat="58.44607222441001" lon="8.775627783290433" id="-26711">
		<tag k="name" v="Helsviga" />
		<tag k="natural" v="bay" />
		<tag k="ssr:stedsnr" v="30621" />
	</node>
	<node lat="58.426644448501214" lon="8.752774999366478" id="-26718">
		<tag k="name" v="Flødevigen" />
		<tag k="natural" v="bay" />
		<tag k="ssr:stedsnr" v="55216" />
	</node>
	<node lat="58.51341944100204" lon="8.899116672237007" id="-26734">
		<tag k="name" v="Furuholmen" />
		<tag k="place" v="islet" />
		<tag k="ssr:stedsnr" v="243188" />
	</node>
	<node lat="58.50714444241946" lon="8.94015832574168" id="-26735">
		<tag k="alt_name" v="Gitmertangen" />
		<tag k="name" v="Gitmartangen" />
		<tag k="natural" v="cape" />
		<tag k="ssr:stedsnr" v="243183" />
	</node>
	<node lat="58.41188610786853" lon="8.792891673416973" id="-26736">
		<tag k="alt_name" v="Torungen, in" />
		<tag k="name" v="Lille Torungen" />
		<tag k="place" v="islet" />
		<tag k="ssr:stedsnr" v="243559" />
	</node>
	<node lat="58.42168888765582" lon="8.736186107832983" id="-26738">
		<tag k="name" v="Ramsøya" />
		<tag k="place" v="islet" />
		<tag k="ssr:stedsnr" v="243579" />
	</node>
	<node lat="58.46495555919594" lon="8.918325008159943" id="-26748">
		<tag k="name" v="Ravnåsknatten" />
		<tag k="place" v="locality" />
		<tag k="seamark:type" v="rock" />
		<tag k="ssr:stedsnr" v="87703" />
	</node>
	<node lat="58.41446667061781" lon="8.744080553074479" id="-26749">
		<tag k="fixme" v="consider seamark:type=rock or natural=shoal" />
		<tag k="name" v="Rødskjær" />
		<tag k="place" v="islet" />
		<tag k="ssr:stedsnr" v="87709" />
	</node>
	<node lat="58.41967499701329" lon="8.810941671650541" id="-26750">
		<tag k="name" v="Hellebåene" />
		<tag k="place" v="locality" />
		<tag k="seamark:type" v="rock" />
		<tag k="ssr:stedsnr" v="87712" />
	</node>
	<node lat="58.46627778193655" lon="8.792247215556259" id="-26751">
		<tag k="name" v="Halvøya" />
		<tag k="natural" v="cape" />
		<tag k="ssr:stedsnr" v="87714" />
	</node>
	<node lat="58.49594166703277" lon="8.88383888569794" id="-26752">
		<tag k="name" v="Skalle" />
		<tag k="natural" v="cape" />
		<tag k="ssr:stedsnr" v="88225" />
	</node>
	<node lat="58.50134166322474" lon="8.886377781101563" id="-26753">
		<tag k="name" v="Bleksund" />
		<tag k="natural" v="strait" />
		<tag k="ssr:stedsnr" v="88228" />
	</node>
	<node lat="58.55425555136448" lon="8.998152770156036" id="-26772">
		<tag k="name" v="Hålholmen" />
		<tag k="place" v="islet" />
		<tag k="ssr:stedsnr" v="90169" />
	</node>
	<node lat="58.40317222102904" lon="8.716513887676491" id="-26773">
		<tag k="name" v="Båsen" />
		<tag k="place" v="islet" />
		<tag k="ssr:stedsnr" v="90177" />
	</node>
	<node lat="58.48762500330395" lon="8.919030557026858" id="-26774">
		<tag k="name" v="Klove" />
		<tag k="natural" v="bay" />
		<tag k="ssr:stedsnr" v="90365" />
	</node>
	<node lat="58.42532777675514" lon="8.810338892041077" id="-26781">
		<tag k="name" v="Laksebergbukta" />
		<tag k="natural" v="bay" />
		<tag k="ssr:stedsnr" v="90515" />
	</node>
	<node lat="58.442886107225114" lon="8.822072222049902" id="-26782">
		<tag k="name" v="Furuholmen" />
		<tag k="natural" v="cape" />
		<tag k="ssr:stedsnr" v="90603" />
	</node>
	<node lat="58.43752222397335" lon="8.811805548292746" id="-26783">
		<tag k="name" v="Sildevig" />
		<tag k="natural" v="bay" />
		<tag k="ssr:stedsnr" v="90607" />
	</node>
	<node lat="58.39952777846516" lon="8.78755833514404" id="-26813">
		<tag k="alt_name" v="Torungen, ytre" />
		<tag k="name" v="Store Torungen" />
		<tag k="place" v="islet" />
		<tag k="ssr:stedsnr" v="121562" />
	</node>
	<node lat="58.46726944761448" lon="8.913211118254608" id="-26829">
		<tag k="name" v="Teinebåen" />
		<tag k="place" v="locality" />
		<tag k="seamark:type" v="rock" />
		<tag k="ssr:stedsnr" v="147666" />
	</node>
	<node lat="58.46310277391334" lon="8.783766670650879" id="-26830">
		<tag k="name" v="Flyndra" />
		<tag k="place" v="islet" />
		<tag k="ssr:stedsnr" v="147713" />
	</node>
	<node lat="58.523224999616126" lon="8.976169448748294" id="-26831">
		<tag k="name" v="Østre Romlingsbåen" />
		<tag k="place" v="locality" />
		<tag k="seamark:type" v="rock" />
		<tag k="ssr:stedsnr" v="148312" />
	</node>
	<node lat="58.41712499851062" lon="8.7940083248611" id="-26833">
		<tag k="name" v="Kankene" />
		<tag k="natural" v="shoal" />
		<tag k="place" v="locality" />
		<tag k="ssr:stedsnr" v="148776" />
	</node>
	<node lat="58.55540000113042" lon="8.999313882344188" id="-26835">
		<tag k="name" v="Hesvika" />
		<tag k="natural" v="bay" />
		<tag k="ssr:stedsnr" v="150210" />
	</node>
	<node lat="58.47010555224771" lon="8.899427777010553" id="-26837">
		<tag k="name" v="Ytre Vonholla" />
		<tag k="natural" v="bay" />
		<tag k="ssr:stedsnr" v="150305" />
	</node>
	<node lat="58.506002779878706" lon="8.943652775038707" id="-26852">
		<tag k="name" v="Skjeggerota" />
		<tag k="natural" v="bay" />
		<tag k="ssr:stedsnr" v="151157" />
	</node>
	<node lat="58.539961115089476" lon="8.98662500738533" id="-26853">
		<tag k="fixme" v="consider seamark:type=rock or natural=shoal" />
		<tag k="name" v="Kalvøyskjæra" />
		<tag k="place" v="islet" />
		<tag k="ssr:stedsnr" v="151162" />
	</node>
	<node lat="58.45856110958212" lon="8.901338881417201" id="-26855">
		<tag k="name" v="Store Tallagen" />
		<tag k="place" v="locality" />
		<tag k="seamark:type" v="rock" />
		<tag k="ssr:stedsnr" v="151303" />
	</node>
	<node lat="58.45455000336691" lon="8.886030547070146" id="-26856">
		<tag k="fixme" v="consider seamark:type=rock or natural=shoal" />
		<tag k="name" v="Mågeskjær" />
		<tag k="place" v="islet" />
		<tag k="ssr:stedsnr" v="151308" />
	</node>
	<node lat="58.48115832893883" lon="8.920575008062766" id="-26859">
		<tag k="name" v="Østre Tangva" />
		<tag k="natural" v="bay" />
		<tag k="ssr:stedsnr" v="151368" />
	</node>
	<node lat="58.51241666906722" lon="8.900455557245131" id="-26860">
		<tag k="name" v="Skarsholmen" />
		<tag k="place" v="islet" />
		<tag k="ssr:stedsnr" v="151057" />
	</node>
	<node lat="58.51632777672012" lon="8.89711388443618" id="-26861">
		<tag k="name" v="Skrinodden" />
		<tag k="natural" v="cape" />
		<tag k="ssr:stedsnr" v="151058" />
	</node>
	<node lat="58.52204444277415" lon="8.930547224645949" id="-26862">
		<tag k="name" v="Skibeholmen" />
		<tag k="place" v="islet" />
		<tag k="ssr:stedsnr" v="151202" />
	</node>
	<node lat="58.450091667340835" lon="8.75009165883535" id="-26865">
		<tag k="name" v="Hansnes" />
		<tag k="natural" v="cape" />
		<tag k="ssr:stedsnr" v="151255" />
	</node>
	<node lat="58.44049166778655" lon="8.786291668967719" id="-26873">
		<tag k="loc_name" v="Iankersbakke" />
		<tag k="name" v="Jankesbakke" />
		<tag k="natural" v="cape" />
		<tag k="ssr:stedsnr" v="151655" />
	</node>
	<node lat="58.459908335682336" lon="8.785841659834075" id="-26877">
		<tag k="name" v="Pusnesbukta" />
		<tag k="natural" v="bay" />
		<tag k="ssr:stedsnr" v="177003" />
	</node>
	<node lat="58.5379472212138" lon="8.994194446696323" id="-26878">
		<tag k="fixme" v="consider seamark:type=rock or natural=shoal" />
		<tag k="name" v="Indre Møkkalasset" />
		<tag k="place" v="islet" />
		<tag k="ssr:stedsnr" v="177107" />
	</node>
	<node lat="58.4545249986866" lon="8.76748888651836" id="-26880">
		<tag k="name" v="Kolbjørnsvikbukta" />
		<tag k="natural" v="bay" />
		<tag k="ssr:stedsnr" v="178780" />
	</node>
	<node lat="58.41453333367668" lon="8.730027777236286" id="-26883">
		<tag k="name" v="Gjervoldsøy" />
		<tag k="place" v="island" />
		<tag k="ssr:stedsnr" v="182561" />
	</node>
	<node lat="58.5698805544303" lon="8.96254999458915" id="-26909">
		<tag k="name" v="Bergyltholmen" />
		<tag k="place" v="islet" />
		<tag k="ssr:stedsnr" v="272714" />
	</node>
	<node lat="58.46531238539864" lon="8.829853864737123" id="-26915">
		<tag k="name" v="Gjerstadkilen" />
		<tag k="natural" v="bay" />
		<tag k="ssr:stedsnr" v="209748" />
	</node>
	<node lat="58.38645277644712" lon="8.788322220765874" id="-26916">
		<tag k="name" v="Heksebåen" />
		<tag k="place" v="locality" />
		<tag k="seamark:type" v="rock" />
		<tag k="ssr:stedsnr" v="209682" />
	</node>
	<node lat="58.54348055556193" lon="8.997922229264958" id="-26917">
		<tag k="name" v="Fjordbåen" />
		<tag k="place" v="locality" />
		<tag k="seamark:type" v="rock" />
		<tag k="ssr:stedsnr" v="210311" />
	</node>
	<node lat="58.55466944534108" lon="9.00511944885389" id="-26919">
		<tag k="name" v="Rundholmen" />
		<tag k="place" v="islet" />
		<tag k="ssr:stedsnr" v="211204" />
	</node>
	<node lat="58.499033332740844" lon="8.932663896826584" id="-26924">
		<tag k="name" v="Klevsund" />
		<tag k="natural" v="strait" />
		<tag k="ssr:stedsnr" v="212038" />
	</node>
	<node lat="58.5222444421876" lon="8.89006944963818" id="-26928">
		<tag k="name" v="Hestøya" />
		<tag k="place" v="island" />
		<tag k="ssr:stedsnr" v="212184" />
	</node>
	<node lat="58.536886108687185" lon="8.933136106426206" id="-26933">
		<tag k="name" v="Langesand" />
		<tag k="natural" v="beach" />
		<tag k="ssr:stedsnr" v="212080" />
	</node>
	<node lat="58.45482499574514" lon="8.888958332708828" id="-26938">
		<tag k="fixme" v="consider seamark:type=rock or natural=shoal" />
		<tag k="name" v="Lakseskjær" />
		<tag k="place" v="islet" />
		<tag k="ssr:stedsnr" v="212289" />
	</node>
	<node lat="58.42267777515176" lon="8.802552780828568" id="-26943">
		<tag k="name" v="Lille havn" />
		<tag k="natural" v="bay" />
		<tag k="ssr:stedsnr" v="212526" />
	</node>
	<node lat="58.43018611029949" lon="8.825527781474403" id="-26965">
		<tag k="fixme" v="consider seamark:type=rock or natural=shoal" />
		<tag k="name" v="Oddebåen" />
		<tag k="place" v="islet" />
		<tag k="ssr:stedsnr" v="269748" />
	</node>
	<node lat="58.45572499623377" lon="8.786227784458614" id="-26981">
		<tag k="name" v="Grunnesundsbukta" />
		<tag k="natural" v="bay" />
		<tag k="ssr:stedsnr" v="238004" />
	</node>
	<node lat="58.404880556683544" lon="8.73793889504759" id="-26984">
		<tag k="name" v="Badstuholmen" />
		<tag k="place" v="islet" />
		<tag k="ssr:stedsnr" v="451768" />
	</node>
	<node lat="58.560294448497764" lon="9.002319437555553" id="-27004">
		<tag k="name" v="Korporalsund" />
		<tag k="natural" v="strait" />
		<tag k="ssr:stedsnr" v="454791" />
	</node>
	<node lat="58.531466666903924" lon="8.918816659954063" id="-27013">
		<tag k="name" v="Tjuvholla" />
		<tag k="natural" v="bay" />
		<tag k="ssr:stedsnr" v="454187" />
	</node>
	<node lat="58.46151388645475" lon="8.850958336806704" id="-27017">
		<tag k="name" v="Fislevig" />
		<tag k="natural" v="bay" />
		<tag k="ssr:stedsnr" v="454316" />
	</node>
	<node lat="58.508455552361994" lon="8.893141669354772" id="-27024">
		<tag k="name" v="Indre Stølen" />
		<tag k="natural" v="bay" />
		<tag k="ssr:stedsnr" v="454044" />
	</node>
	<node lat="58.50575833078048" lon="8.887027776874834" id="-27026">
		<tag k="name" v="Pinseholmen" />
		<tag k="place" v="islet" />
		<tag k="ssr:stedsnr" v="454047" />
	</node>
	<node lat="58.53797777348356" lon="8.975655558711736" id="-27029">
		<tag k="name" v="Skjøllvika" />
		<tag k="natural" v="bay" />
		<tag k="ssr:stedsnr" v="454222" />
	</node>
	<node lat="58.55716944069109" lon="8.970825003861357" id="-27032">
		<tag k="name" v="Staubøfjorden" />
		<tag k="natural" v="bay" />
		<tag k="ssr:stedsnr" v="454250" />
	</node>
	<node lat="58.41018055721538" lon="8.73646111238333" id="-27033">
		<tag k="name" v="Ytre Skallviga" />
		<tag k="natural" v="bay" />
		<tag k="ssr:stedsnr" v="454251" />
	</node>
	<node lat="58.405094448820684" lon="8.710205555661611" id="-27034">
		<tag k="name" v="Mauås" />
		<tag k="natural" v="bay" />
		<tag k="ssr:stedsnr" v="454252" />
	</node>
	<node lat="58.44518610881501" lon="8.864569446368963" id="-27036">
		<tag k="name" v="Lillespornes" />
		<tag k="natural" v="cape" />
		<tag k="ssr:stedsnr" v="454286" />
	</node>
	<node lat="58.48907499563495" lon="8.869399994211383" id="-27037">
		<tag k="name" v="Dybdalsbukta" />
		<tag k="natural" v="bay" />
		<tag k="ssr:stedsnr" v="454292" />
	</node>
	<node lat="58.48865277875683" lon="8.843419447756808" id="-27040">
		<tag k="name" v="Saltrødbukta" />
		<tag k="natural" v="bay" />
		<tag k="ssr:stedsnr" v="454395" />
	</node>
	<node lat="58.45971110800776" lon="8.768119447980608" id="-27046">
		<tag k="name" v="Pollen" />
		<tag k="natural" v="bay" />
		<tag k="ssr:stedsnr" v="454579" />
	</node>
	<node lat="58.454463884451094" lon="8.771333340935385" id="-27048">
		<tag k="name" v="Tangen" />
		<tag k="natural" v="cape" />
		<tag k="ssr:stedsnr" v="454610" />
	</node>
	<node lat="58.420605554039184" lon="8.779644450749712" id="-27051">
		<tag k="name" v="Karensholmen" />
		<tag k="place" v="islet" />
		<tag k="ssr:stedsnr" v="454553" />
	</node>
	<node lat="58.43055833724058" lon="8.81483889367924" id="-27052">
		<tag k="fixme" v="consider seamark:type=rock or natural=shoal" />
		<tag k="name" v="Gjessøyskjæret" />
		<tag k="place" v="islet" />
		<tag k="ssr:stedsnr" v="454554" />
	</node>
	<node lat="58.426136112036204" lon="8.79442222679661" id="-27053">
		<tag k="name" v="Gravene steina" />
		<tag k="natural" v="beach" />
		<tag k="ssr:stedsnr" v="454556" />
	</node>
	<node lat="58.42084999795211" lon="8.77899444839721" id="-27054">
		<tag k="name" v="Røverhola" />
		<tag k="natural" v="bay" />
		<tag k="ssr:stedsnr" v="454559" />
	</node>
	<node lat="58.44473610750411" lon="8.816622230570767" id="-27058">
		<tag k="name" v="Slåttøya" />
		<tag k="natural" v="cape" />
		<tag k="ssr:stedsnr" v="454638" />
	</node>
	<node lat="58.43664722672363" lon="8.789813886614883" id="-27059">
		<tag k="fixme" v="consider seamark:type=rock or natural=shoal" />
		<tag k="name" v="Østre Nabbeskjær" />
		<tag k="place" v="islet" />
		<tag k="ssr:stedsnr" v="454652" />
	</node>
	<node lat="58.43248055945035" lon="8.792552785126624" id="-27060">
		<tag k="fixme" v="consider seamark:type=rock or natural=shoal" />
		<tag k="name" v="Jordbærholmen" />
		<tag k="place" v="islet" />
		<tag k="ssr:stedsnr" v="454654" />
	</node>
	<node lat="58.436261110657966" lon="8.787566665926619" id="-27061">
		<tag k="fixme" v="consider seamark:type=rock or natural=shoal" />
		<tag k="name" v="Vestre Nabbeskjær" />
		<tag k="place" v="islet" />
		<tag k="ssr:stedsnr" v="454656" />
	</node>
	<node lat="58.45999722001144" lon="8.79615833124656" id="-27082">
		<tag k="fixme" v="consider seamark:type=rock or natural=shoal" />
		<tag k="name" v="Sankt Helena" />
		<tag k="place" v="islet" />
		<tag k="ssr:stedsnr" v="269729" />
	</node>
	<node lat="58.47642778110138" lon="8.90622777743263" id="-27083">
		<tag k="name" v="Skarekilen" />
		<tag k="natural" v="strait" />
		<tag k="ssr:stedsnr" v="270277" />
	</node>
	<node lat="58.40970555727165" lon="8.725752783614418" id="-27102">
		<tag k="name" v="Blikkmakerbukt" />
		<tag k="natural" v="bay" />
		<tag k="ssr:stedsnr" v="272216" />
	</node>
	<node lat="58.53465555117832" lon="8.942011112973187" id="-27103">
		<tag k="name" v="Låddalsholmene" />
		<tag k="place" v="islet" />
		<tag k="ssr:stedsnr" v="272218" />
	</node>
	<node lat="58.51902500316335" lon="8.95172778234855" id="-27105">
		<tag k="fixme" v="consider seamark:type=rock or natural=shoal" />
		<tag k="name" v="Skinnfellskjæret" />
		<tag k="place" v="islet" />
		<tag k="ssr:stedsnr" v="272222" />
	</node>
	<node lat="58.52495277509513" lon="8.95361388566859" id="-27106">
		<tag k="name" v="Store Sandvika" />
		<tag k="natural" v="bay" />
		<tag k="ssr:stedsnr" v="272223" />
	</node>
	<node lat="58.55141388866748" lon="8.969572213881621" id="-27107">
		<tag k="name" v="Sønningen" />
		<tag k="natural" v="strait" />
		<tag k="ssr:stedsnr" v="272231" />
	</node>
	<node lat="58.4707555529675" lon="8.908058335630441" id="-27109">
		<tag k="fixme" v="consider seamark:type=rock or natural=shoal" />
		<tag k="name" v="Østre Tromlingskjær" />
		<tag k="place" v="islet" />
		<tag k="ssr:stedsnr" v="272277" />
	</node>
	<node lat="58.47334999837114" lon="8.902438889458821" id="-27110">
		<tag k="name" v="Båsen" />
		<tag k="natural" v="cape" />
		<tag k="ssr:stedsnr" v="272279" />
	</node>
	<node lat="58.46953611183265" lon="8.897980559961201" id="-27111">
		<tag k="fixme" v="consider seamark:type=rock or natural=shoal" />
		<tag k="name" v="Stangeskjær" />
		<tag k="place" v="islet" />
		<tag k="ssr:stedsnr" v="272280" />
	</node>
	<node lat="58.46750833703039" lon="8.832169441423726" id="-27115">
		<tag k="name" v="Rørendalsbukta" />
		<tag k="natural" v="bay" />
		<tag k="ssr:stedsnr" v="272302" />
	</node>
	<node lat="58.46961389126752" lon="8.82825833762561" id="-27116">
		<tag k="name" v="Gjerstadholmen" />
		<tag k="place" v="islet" />
		<tag k="ssr:stedsnr" v="272307" />
	</node>
	<node lat="58.4845111124126" lon="8.912852770966566" id="-27119">
		<tag k="name" v="Krøglevik" />
		<tag k="natural" v="bay" />
		<tag k="ssr:stedsnr" v="272372" />
	</node>
	<node lat="58.448422224454454" lon="8.773305558806621" id="-27128">
		<tag k="name" v="Gimlebukta" />
		<tag k="natural" v="bay" />
		<tag k="ssr:stedsnr" v="272604" />
	</node>
	<node lat="58.43031111490255" lon="8.800783340021415" id="-27150">
		<tag k="name" v="Langrumpa" />
		<tag k="place" v="islet" />
		<tag k="ssr:stedsnr" v="303081" />
	</node>
	<node lat="58.43929444162602" lon="8.731669438821237" id="-27154">
		<tag k="name" v="Hølen" />
		<tag k="natural" v="strait" />
		<tag k="ssr:stedsnr" v="303595" />
	</node>
	<node lat="58.55182222496016" lon="8.985361113351008" id="-27158">
		<tag k="alt_name" v="Kilsundfjorden" />
		<tag k="name" v="Kilsundet" />
		<tag k="natural" v="strait" />
		<tag k="ssr:stedsnr" v="304205" />
	</node>
	<node lat="58.578116669492246" lon="8.989216662826259" id="-27162">
		<tag k="bay" v="fjord" />
		<tag k="name" v="Oksefjorden" />
		<tag k="natural" v="bay" />
		<tag k="ssr:stedsnr" v="304283" />
	</node>
	<node lat="58.518147222666514" lon="8.945130555157421" id="-27164">
		<tag k="name" v="Skinnfelltangen" />
		<tag k="natural" v="cape" />
		<tag k="ssr:stedsnr" v="304179" />
	</node>
	<node lat="58.51501389060578" lon="8.924061109681956" id="-27165">
		<tag k="name" v="Storbukta" />
		<tag k="natural" v="bay" />
		<tag k="ssr:stedsnr" v="304180" />
	</node>
	<node lat="58.538341664663506" lon="8.979491669632235" id="-27172">
		<tag k="name" v="Værholmen" />
		<tag k="place" v="islet" />
		<tag k="ssr:stedsnr" v="331290" />
	</node>
	<node lat="58.53634722275322" lon="8.997613888880238" id="-27173">
		<tag k="fixme" v="consider seamark:type=rock or natural=shoal" />
		<tag k="name" v="Skibeskjær" />
		<tag k="place" v="islet" />
		<tag k="ssr:stedsnr" v="331293" />
	</node>
	<node lat="58.50753889131246" lon="8.890869443125144" id="-27177">
		<tag k="name" v="Juleholmen" />
		<tag k="place" v="islet" />
		<tag k="ssr:stedsnr" v="333053" />
	</node>
	<node lat="58.5163944442646" lon="8.90441110857512" id="-27178">
		<tag k="name" v="Rørvikholmene" />
		<tag k="place" v="islet" />
		<tag k="ssr:stedsnr" v="333054" />
	</node>
	<node lat="58.50826944025" lon="8.895563889177339" id="-27179">
		<tag k="name" v="Ytre Stølen" />
		<tag k="natural" v="bay" />
		<tag k="ssr:stedsnr" v="333055" />
	</node>
	<node lat="58.52859722349821" lon="8.970536105757887" id="-27182">
		<tag k="fixme" v="consider seamark:type=rock or natural=shoal" />
		<tag k="name" v="Korshavnskjæret" />
		<tag k="place" v="islet" />
		<tag k="ssr:stedsnr" v="333224" />
	</node>
	<node lat="58.50498889140602" lon="8.941636114633713" id="-27189">
		<tag k="name" v="Spruta" />
		<tag k="natural" v="bay" />
		<tag k="ssr:stedsnr" v="333164" />
	</node>
	<node lat="58.52559167019363" lon="8.896130555650917" id="-27190">
		<tag k="name" v="Strengereidfjorden" />
		<tag k="natural" v="bay" />
		<tag k="ssr:stedsnr" v="333199" />
	</node>
	<node lat="58.47121666738217" lon="8.830499993201926" id="-27192">
		<tag k="name" v="Furuholmen" />
		<tag k="place" v="islet" />
		<tag k="ssr:stedsnr" v="333350" />
	</node>
	<node lat="58.47364444353278" lon="8.909166663547875" id="-27193">
		<tag k="name" v="Vabukta" />
		<tag k="natural" v="bay" />
		<tag k="ssr:stedsnr" v="333358" />
	</node>
	<node lat="58.455119441826845" lon="8.756338887169592" id="-27198">
		<tag k="name" v="Svinodden" />
		<tag k="natural" v="cape" />
		<tag k="ssr:stedsnr" v="333553" />
	</node>
	<node lat="58.49883888652946" lon="8.933716668314107" id="-27242">
		<tag k="alt_name" v="Saueholmen" />
		<tag k="name" v="Sauholmane" />
		<tag k="place" v="islet" />
		<tag k="ssr:stedsnr" v="364934" />
	</node>
	<node lat="58.47042222025859" lon="8.82566944578292" id="-27245">
		<tag k="name" v="Sauholmene" />
		<tag k="place" v="islet" />
		<tag k="ssr:stedsnr" v="481044" />
	</node>
	<node lat="58.399600002205716" lon="8.804411110274616" id="-27246">
		<tag k="name" v="Skånegrunnene" />
		<tag k="natural" v="shoal" />
		<tag k="place" v="locality" />
		<tag k="ssr:stedsnr" v="390737" />
	</node>
	<node lat="58.420838886838425" lon="8.79018611260147" id="-27247">
		<tag k="name" v="Vestergab" />
		<tag k="natural" v="strait" />
		<tag k="ssr:stedsnr" v="390740" />
	</node>
	<node lat="58.54938611401613" lon="9.023883340359912" id="-27250">
		<tag k="name" v="Østre Kirkegrunnen" />
		<tag k="natural" v="shoal" />
		<tag k="place" v="locality" />
		<tag k="ssr:stedsnr" v="392303" />
	</node>
	<node lat="58.49708055510214" lon="8.928466671526762" id="-27256">
		<tag k="name" v="Gronestjønn" />
		<tag k="natural" v="bay" />
		<tag k="ssr:stedsnr" v="393050" />
	</node>
	<node lat="58.53249444533315" lon="8.918324993686763" id="-27257">
		<tag k="name" v="Bekkevika" />
		<tag k="natural" v="bay" />
		<tag k="ssr:stedsnr" v="393091" />
	</node>
	<node lat="58.553733335057" lon="8.99583611347341" id="-27258">
		<tag k="name" v="Bjørnsvik" />
		<tag k="natural" v="bay" />
		<tag k="ssr:stedsnr" v="393207" />
	</node>
	<node lat="58.405383332256" lon="8.71424999427897" id="-27259">
		<tag k="name" v="Ytre Skauholmen" />
		<tag k="place" v="islet" />
		<tag k="ssr:stedsnr" v="393215" />
	</node>
	<node lat="58.43344444827595" lon="8.721880552925832" id="-27260">
		<tag k="name" v="Engholmen" />
		<tag k="place" v="islet" />
		<tag k="ssr:stedsnr" v="393237" />
	</node>
	<node lat="58.55543333451263" lon="8.970005548616152" id="-27261">
		<tag k="name" v="Paddelandet" />
		<tag k="natural" v="beach" />
		<tag k="ssr:stedsnr" v="393241" />
	</node>
	<node lat="58.42577222501366" lon="8.792691659075386" id="-27269">
		<tag k="name" v="Tørnforbi" />
		<tag k="natural" v="cape" />
		<tag k="ssr:stedsnr" v="393543" />
	</node>
	<node lat="58.516508335281536" lon="8.923119448381598" id="-27287">
		<tag k="alt_name" v="Bukkholmen/Dalsholmen" />
		<tag k="name" v="Dalsholmen" />
		<tag k="place" v="islet" />
		<tag k="ssr:stedsnr" v="393813" />
	</node>
	<node lat="58.58357499982435" lon="8.976313893806022" id="-27301">
		<tag k="name" v="Øytangen" />
		<tag k="natural" v="cape" />
		<tag k="ssr:stedsnr" v="485083" />
	</node>
	<node lat="58.40740833682279" lon="8.74560278222737" id="-27303">
		<tag k="alt_name" v="Skjellbergholmene;Skjelbergholmane" />
		<tag k="name" v="Skjelbergholmene" />
		<tag k="place" v="islet" />
		<tag k="ssr:stedsnr" v="485496" />
	</node>
	<node lat="58.52980277981971" lon="8.92298610716889" id="-27313">
		<tag k="name" v="Espenes" />
		<tag k="natural" v="cape" />
		<tag k="ssr:stedsnr" v="272183" />
	</node>
	<node lat="58.474444440737074" lon="8.912077777516481" id="-27315">
		<tag k="alt_name" v="Tromlinga" />
		<tag k="name" v="Tromlingene" />
		<tag k="place" v="island" />
		<tag k="ssr:stedsnr" v="485935" />
	</node>
	<node lat="58.46171472532559" lon="8.846830218625808" id="-27318">
		<tag k="alt_name" v="Tromøy" />
		<tag k="name" v="Tromøya" />
		<tag k="place" v="island" />
		<tag k="ssr:stedsnr" v="485945" />
	</node>
	<node lat="58.57271388815837" lon="8.968738882888871" id="-27346">
		<tag k="bay" v="fjord" />
		<tag k="name" v="Eikelandsfjorden" />
		<tag k="natural" v="bay" />
		<tag k="ssr:stedsnr" v="426289" />
	</node>
	<node lat="58.43485833488419" lon="8.82728333787112" id="-27348">
		<tag k="name" v="Hoveodden" />
		<tag k="natural" v="cape" />
		<tag k="ssr:stedsnr" v="451710" />
	</node>
	<node lat="58.41079982608587" lon="8.811951701344396" id="-27349">
		<tag k="name" v="Makrellbåen" />
		<tag k="place" v="locality" />
		<tag k="seamark:type" v="rock" />
		<tag k="ssr:stedsnr" v="451727" />
	</node>
	<node lat="58.500883330524125" lon="8.885261119343808" id="-27351">
		<tag k="name" v="Langnes" />
		<tag k="natural" v="cape" />
		<tag k="ssr:stedsnr" v="272050" />
	</node>
	<node lat="58.427494444528676" lon="8.80814444226551" id="-27355">
		<tag k="name" v="Lille Brekkvateret" />
		<tag k="natural" v="cape" />
		<tag k="ssr:stedsnr" v="272492" />
	</node>
	<node lat="58.4556750010663" lon="8.757691662381653" id="-27356">
		<tag k="name" v="Varmekrogen" />
		<tag k="natural" v="bay" />
		<tag k="ssr:stedsnr" v="272517" />
	</node>
	<node lat="58.56144166530275" lon="8.99793611915594" id="-27357">
		<tag k="name" v="Store Havneholmen" />
		<tag k="place" v="islet" />
		<tag k="ssr:stedsnr" v="452318" />
	</node>
	<node lat="58.509900004204795" lon="8.961075007189539" id="-27358">
		<tag k="name" v="Svartskjærgrunnen" />
		<tag k="natural" v="shoal" />
		<tag k="place" v="locality" />
		<tag k="ssr:stedsnr" v="452248" />
	</node>
	<node lat="58.54124166904949" lon="8.985966661300559" id="-27359">
		<tag k="name" v="Krøgleholmen" />
		<tag k="place" v="islet" />
		<tag k="ssr:stedsnr" v="452280" />
	</node>
	<node lat="58.52689166947826" lon="9.00841389254443" id="-27360">
		<tag k="name" v="Dalsgrunnen" />
		<tag k="natural" v="shoal" />
		<tag k="place" v="locality" />
		<tag k="ssr:stedsnr" v="453315" />
	</node>
	<node lat="58.52797221893326" lon="8.91135833264954" id="-27368">
		<tag k="name" v="Ørna" />
		<tag k="place" v="islet" />
		<tag k="ssr:stedsnr" v="454161" />
	</node>
	<node lat="58.52508056002611" lon="8.897144439012209" id="-27370">
		<tag k="name" v="Sødderholmen" />
		<tag k="place" v="islet" />
		<tag k="ssr:stedsnr" v="454168" />
	</node>
	<node lat="58.4774944435391" lon="8.91121111114092" id="-27381">
		<tag k="name" v="Vestre Buholmbukta" />
		<tag k="natural" v="bay" />
		<tag k="ssr:stedsnr" v="454371" />
	</node>
	<node lat="58.48292222418441" lon="8.912625000051435" id="-27385">
		<tag k="name" v="Bådholla" />
		<tag k="natural" v="bay" />
		<tag k="ssr:stedsnr" v="454388" />
	</node>
	<node lat="58.45328611038009" lon="8.772463889470218" id="-27390">
		<tag k="name" v="Sperreviga" />
		<tag k="natural" v="bay" />
		<tag k="ssr:stedsnr" v="454614" />
	</node>
	<node lat="58.438555556243955" lon="8.787580555498472" id="-27392">
		<tag k="name" v="Torjusholmen" />
		<tag k="natural" v="cape" />
		<tag k="ssr:stedsnr" v="454671" />
	</node>
	<node lat="58.55281944062452" lon="8.988724997523642" id="-27410">
		<tag k="name" v="Landvik" />
		<tag k="natural" v="bay" />
		<tag k="ssr:stedsnr" v="272151" />
	</node>
	<node lat="58.48647499620931" lon="8.840433337996812" id="-27415">
		<tag k="name" v="Granodden" />
		<tag k="natural" v="cape" />
		<tag k="ssr:stedsnr" v="272260" />
	</node>
	<node lat="58.448072221171856" lon="8.870269441419133" id="-27416">
		<tag k="name" v="Osto" />
		<tag k="natural" v="cape" />
		<tag k="ssr:stedsnr" v="272268" />
	</node>
	<node lat="58.397916665507594" lon="8.727708333963959" id="-27418">
		<tag k="fixme" v="consider seamark:type=rock or natural=shoal" />
		<tag k="name" v="Målen" />
		<tag k="place" v="islet" />
		<tag k="ssr:stedsnr" v="480163" />
	</node>
	<node lat="58.489933336620894" lon="8.952830549338199" id="-27423">
		<tag k="name" v="Rossbåen" />
		<tag k="place" v="locality" />
		<tag k="seamark:type" v="rock" />
		<tag k="ssr:stedsnr" v="485903" />
	</node>
	<node lat="58.516669445657705" lon="8.923125001059672" id="-27431">
		<tag k="name" v="Dalsholmen" />
		<tag k="place" v="islet" />
		<tag k="ssr:stedsnr" v="486191" />
	</node>
	<node lat="58.41273055193558" lon="8.7410611153013" id="-27435">
		<tag k="name" v="Hesviga" />
		<tag k="natural" v="bay" />
		<tag k="ssr:stedsnr" v="272190" />
	</node>
	<node lat="58.53410833458464" lon="8.974680558005801" id="-27436">
		<tag k="name" v="Nautholmen" />
		<tag k="natural" v="cape" />
		<tag k="ssr:stedsnr" v="272192" />
	</node>
	<node lat="58.472063888740735" lon="8.799208334016427" id="-27445">
		<tag k="name" v="Songekilen" />
		<tag k="natural" v="bay" />
		<tag k="ssr:stedsnr" v="512306" />
	</node>
	<node lat="58.47880555205452" lon="8.84994445140271" id="-27446">
		<tag k="name" v="Terneholmen" />
		<tag k="place" v="islet" />
		<tag k="ssr:stedsnr" v="512313" />
	</node>
	<node lat="58.449366670199154" lon="8.77692777037074" id="-27447">
		<tag k="name" v="Galten" />
		<tag k="place" v="islet" />
		<tag k="ssr:stedsnr" v="512766" />
	</node>
	<node lat="58.42322376078219" lon="8.725834906891604" id="-27448">
		<tag k="name" v="Rossøya" />
		<tag k="natural" v="cape" />
		<tag k="ssr:stedsnr" v="512774" />
	</node>
	<node lat="58.45339274816476" lon="8.755780983688279" id="-27449">
		<tag k="name" v="Terneholmen" />
		<tag k="place" v="islet" />
		<tag k="ssr:stedsnr" v="512778" />
	</node>
	<node lat="58.418072219198095" lon="8.759974992902864" id="-27450">
		<tag k="fixme" v="consider seamark:type=rock or natural=shoal" />
		<tag k="name" v="Rødskjær" />
		<tag k="place" v="islet" />
		<tag k="ssr:stedsnr" v="512780" />
	</node>
	<node lat="58.514549997945245" lon="8.951047216492565" id="-27451">
		<tag k="name" v="Almebåen" />
		<tag k="place" v="locality" />
		<tag k="seamark:type" v="rock" />
		<tag k="ssr:stedsnr" v="513295" />
	</node>
	<node lat="58.5602999968412" lon="9.018888882343207" id="-27453">
		<tag k="fixme" v="consider seamark:type=rock or natural=shoal" />
		<tag k="name" v="Selskjær" />
		<tag k="place" v="islet" />
		<tag k="ssr:stedsnr" v="513312" />
	</node>
	<node lat="58.55279166825902" lon="9.001752781266855" id="-27454">
		<tag k="name" v="Klåholmen" />
		<tag k="place" v="islet" />
		<tag k="ssr:stedsnr" v="513314" />
	</node>
	<node lat="58.543836112223225" lon="8.95169166936527" id="-27455">
		<tag k="name" v="Blekestrandfjorden" />
		<tag k="natural" v="bay" />
		<tag k="ssr:stedsnr" v="514273" />
	</node>
	<node lat="58.403158334605315" lon="8.732644446896545" id="-27461">
		<tag k="name" v="Sven Johnsens holmer" />
		<tag k="place" v="islet" />
		<tag k="ssr:stedsnr" v="515220" />
	</node>
	<node lat="58.53937509611514" lon="8.979825740745838" id="-27466">
		<tag k="fixme" v="consider seamark:type=rock or natural=shoal" />
		<tag k="name" v="Vestre Ringskjær" />
		<tag k="place" v="islet" />
		<tag k="ssr:stedsnr" v="515246" />
	</node>
	<node lat="58.512786112015824" lon="8.944122218493721" id="-27471">
		<tag k="name" v="Revsholmen" />
		<tag k="place" v="islet" />
		<tag k="ssr:stedsnr" v="515173" />
	</node>
	<node lat="58.52769167106697" lon="8.903533339301184" id="-27472">
		<tag k="name" v="Østrebukt" />
		<tag k="natural" v="bay" />
		<tag k="ssr:stedsnr" v="515175" />
	</node>
	<node lat="58.472822219360594" lon="8.843016660448615" id="-27475">
		<tag k="name" v="Lyngholmen" />
		<tag k="place" v="islet" />
		<tag k="ssr:stedsnr" v="515315" />
	</node>
	<node lat="58.46510555927151" lon="8.830055547041031" id="-27476">
		<tag k="name" v="Ubekilen" />
		<tag k="natural" v="bay" />
		<tag k="ssr:stedsnr" v="515316" />
	</node>
	<node lat="58.474591665578124" lon="8.903411118845302" id="-27478">
		<tag k="fixme" v="consider seamark:type=rock or natural=shoal" />
		<tag k="name" v="Sankt Helena" />
		<tag k="place" v="islet" />
		<tag k="ssr:stedsnr" v="515368" />
	</node>
	<node lat="58.443283336187484" lon="8.813591663508168" id="-27488">
		<tag k="name" v="Storengbukta" />
		<tag k="natural" v="bay" />
		<tag k="ssr:stedsnr" v="515627" />
	</node>
	<node lat="58.436922221535376" lon="8.798783339775957" id="-27490">
		<tag k="name" v="Klomra" />
		<tag k="natural" v="bay" />
		<tag k="ssr:stedsnr" v="515644" />
	</node>
	<node lat="58.56333889160238" lon="9.009852775487984" id="-27496">
		<tag k="bay" v="fjord" />
		<tag k="name" v="Buskjærfjorden" />
		<tag k="natural" v="bay" />
		<tag k="ssr:stedsnr" v="515725" />
	</node>
	<node lat="58.4190527772917" lon="8.745636116800961" id="-27501">
		<tag k="name" v="Kavåga" />
		<tag k="natural" v="bay" />
		<tag k="ssr:stedsnr" v="515782" />
	</node>
	<node lat="58.562961108196504" lon="8.967605555337537" id="-27502">
		<tag k="name" v="Lønvikbukta" />
		<tag k="natural" v="bay" />
		<tag k="ssr:stedsnr" v="515784" />
	</node>
	<node lat="58.522597223747454" lon="8.98557778484277" id="-27514">
		<tag k="name" v="Bonden" />
		<tag k="place" v="islet" />
		<tag k="ssr:stedsnr" v="542121" />
	</node>
	<node lat="58.40226110842622" lon="8.758422223999622" id="-27520">
		<tag k="alt_name" v="Halvorsholmane" />
		<tag k="name" v="Halvorsholmene" />
		<tag k="place" v="islet" />
		<tag k="ssr:stedsnr" v="546516" />
	</node>
	<node lat="58.49929877098327" lon="8.85879462698145" id="-27523">
		<tag k="name" v="Neskilen" />
		<tag k="natural" v="strait" />
		<tag k="ssr:stedsnr" v="546905" />
	</node>
	<node lat="58.53872777738465" lon="8.939858330624672" id="-27524">
		<tag k="alt_name" v="Vrangsund" />
		<tag k="name" v="Vrangesund" />
		<tag k="natural" v="strait" />
		<tag k="ssr:stedsnr" v="547279" />
	</node>
	<node lat="58.533858335823865" lon="8.973241660899529" id="-27531">
		<tag k="name" v="Raudstenkilen" />
		<tag k="natural" v="bay" />
		<tag k="ssr:stedsnr" v="758244" />
	</node>
	<node lat="58.46711110677107" lon="8.88256388794957" id="-27532">
		<tag k="name" v="Pernes" />
		<tag k="natural" v="cape" />
		<tag k="ssr:stedsnr" v="758330" />
	</node>
	<node lat="58.51013003449495" lon="8.977479078132601" id="-27535">
		<tag k="name" v="Teinebåen" />
		<tag k="place" v="locality" />
		<tag k="seamark:type" v="rock" />
		<tag k="ssr:stedsnr" v="573261" />
	</node>
	<node lat="58.506419448484124" lon="8.97436110758786" id="-27536">
		<tag k="name" v="Ytre Torskehausen" />
		<tag k="natural" v="shoal" />
		<tag k="place" v="locality" />
		<tag k="ssr:stedsnr" v="573263" />
	</node>
	<node lat="58.50569421833945" lon="8.968560979010803" id="-27537">
		<tag k="name" v="Østre Fladen" />
		<tag k="natural" v="shoal" />
		<tag k="place" v="locality" />
		<tag k="ssr:stedsnr" v="573265" />
	</node>
	<node lat="58.48592222475586" lon="8.924038890293186" id="-27538">
		<tag k="name" v="Klovebåen" />
		<tag k="place" v="locality" />
		<tag k="seamark:type" v="rock" />
		<tag k="ssr:stedsnr" v="573266" />
	</node>
	<node lat="58.46598332920917" lon="8.877219452430134" id="-27539">
		<tag k="name" v="Alvekilen" />
		<tag k="natural" v="bay" />
		<tag k="ssr:stedsnr" v="573299" />
	</node>
	<node lat="58.469058333191846" lon="8.806802786342596" id="-27540">
		<tag k="name" v="Vindholmen" />
		<tag k="natural" v="cape" />
		<tag k="ssr:stedsnr" v="573302" />
	</node>
	<node lat="58.49329444293175" lon="8.92314722578637" id="-27542">
		<tag k="name" v="Eidsnes" />
		<tag k="natural" v="cape" />
		<tag k="ssr:stedsnr" v="573310" />
	</node>
	<node lat="58.566491670099985" lon="8.964749999793149" id="-27548">
		<tag k="name" v="Knattholmen" />
		<tag k="place" v="islet" />
		<tag k="ssr:stedsnr" v="575202" />
	</node>
	<node lat="58.42610555818896" lon="8.72928054717296" id="-27549">
		<tag k="name" v="Engholmen" />
		<tag k="place" v="islet" />
		<tag k="ssr:stedsnr" v="575209" />
	</node>
	<node lat="58.41404166807583" lon="8.718108332738126" id="-27550">
		<tag k="name" v="Malina" />
		<tag k="natural" v="bay" />
		<tag k="ssr:stedsnr" v="575210" />
	</node>
	<node lat="58.52509722578839" lon="8.9556861036558" id="-27551">
		<tag k="name" v="Fleskenes" />
		<tag k="natural" v="cape" />
		<tag k="ssr:stedsnr" v="575214" />
	</node>
	<node lat="58.475766669871035" lon="8.90174999365585" id="-27559">
		<tag k="name" v="Munkevigen" />
		<tag k="natural" v="bay" />
		<tag k="ssr:stedsnr" v="575311" />
	</node>
	<node lat="58.423763893327646" lon="8.794672228614447" id="-27571">
		<tag k="name" v="Dynnvikbukta" />
		<tag k="natural" v="bay" />
		<tag k="ssr:stedsnr" v="575503" />
	</node>
	<node lat="58.53767777834843" lon="8.994105553586284" id="-27580">
		<tag k="fixme" v="consider seamark:type=rock or natural=shoal" />
		<tag k="name" v="Kalvøysundsbråttene" />
		<tag k="place" v="islet" />
		<tag k="ssr:stedsnr" v="575761" />
	</node>
	<node lat="58.46472499782741" lon="8.81623611490259" id="-27598">
		<tag k="name" v="Tybakkilen" />
		<tag k="natural" v="bay" />
		<tag k="ssr:stedsnr" v="694728" />
	</node>
	<node lat="58.422974995673506" lon="8.773516663308678" id="-27599">
		<tag k="alt_name" v="Havsøysundet" />
		<tag k="name" v="Havsøysund" />
		<tag k="natural" v="strait" />
		<tag k="ssr:stedsnr" v="694742" />
	</node>
	<node lat="58.54593055650763" lon="9.020788881270176" id="-27600">
		<tag k="name" v="Vestre Kirkegrunnen" />
		<tag k="natural" v="shoal" />
		<tag k="place" v="locality" />
		<tag k="ssr:stedsnr" v="695294" />
	</node>
	<node lat="58.5419083355558" lon="8.946594442603807" id="-27602">
		<tag k="fixme" v="consider seamark:type=rock or natural=shoal" />
		<tag k="name" v="Seilskjær" />
		<tag k="place" v="islet" />
		<tag k="ssr:stedsnr" v="696252" />
	</node>
	<node lat="58.525561111762215" lon="8.893266664666003" id="-27610">
		<tag k="name" v="Dernes" />
		<tag k="natural" v="cape" />
		<tag k="ssr:stedsnr" v="697181" />
	</node>
	<node lat="58.520194448954264" lon="8.866738881697596" id="-27611">
		<tag k="name" v="Ubergvika" />
		<tag k="natural" v="bay" />
		<tag k="ssr:stedsnr" v="697136" />
	</node>
	<node lat="58.54414999735272" lon="8.94732221571785" id="-27624">
		<tag k="name" v="Blekodden" />
		<tag k="natural" v="cape" />
		<tag k="ssr:stedsnr" v="697278" />
	</node>
	<node lat="58.489194447076784" lon="8.858633341504698" id="-27630">
		<tag k="name" v="Trulsholla" />
		<tag k="natural" v="bay" />
		<tag k="ssr:stedsnr" v="697291" />
	</node>
	<node lat="58.51339999775363" lon="8.866808336885558" id="-27646">
		<tag k="name" v="Grunnen" />
		<tag k="natural" v="shoal" />
		<tag k="place" v="locality" />
		<tag k="ssr:stedsnr" v="697457" />
	</node>
	<node lat="58.46904722410276" lon="8.80338611690502" id="-27649">
		<tag k="name" v="Løkholmen" />
		<tag k="natural" v="cape" />
		<tag k="ssr:stedsnr" v="697564" />
	</node>
	<node lat="58.39821388768088" lon="8.74091389636515" id="-27683">
		<tag k="alt_name" v="Tjuvholmene" />
		<tag k="name" v="Tjuvholmane" />
		<tag k="place" v="islet" />
		<tag k="ssr:stedsnr" v="606546" />
	</node>
	<node lat="58.53853055990579" lon="8.984947221251312" id="-27687">
		<tag k="name" v="Kalvøya" />
		<tag k="place" v="island" />
		<tag k="ssr:stedsnr" v="607254" />
	</node>
	<node lat="58.50766666264146" lon="8.934211113194808" id="-27689">
		<tag k="alt_name" v="Kjørvika" />
		<tag k="name" v="Kjørviga" />
		<tag k="natural" v="bay" />
		<tag k="ssr:stedsnr" v="607200" />
	</node>
	<node lat="58.50483888866688" lon="8.861969437016667" id="-27696">
		<tag k="name" v="Snekkenes" />
		<tag k="natural" v="cape" />
		<tag k="ssr:stedsnr" v="272445" />
	</node>
	<node lat="58.523224999616126" lon="8.976169448748294" id="-27698">
		<tag k="name" v="Vestre Romlingsbåen" />
		<tag k="place" v="locality" />
		<tag k="seamark:type" v="rock" />
		<tag k="ssr:stedsnr" v="633309" />
	</node>
	<node lat="58.50705277629298" lon="8.959533333541904" id="-27699">
		<tag k="name" v="Eigebåen" />
		<tag k="place" v="locality" />
		<tag k="seamark:type" v="rock" />
		<tag k="ssr:stedsnr" v="633285" />
	</node>
	<node lat="58.51900555343955" lon="8.931624995916604" id="-27700">
		<tag k="name" v="Helgetangen" />
		<tag k="natural" v="cape" />
		<tag k="ssr:stedsnr" v="633289" />
	</node>
	<node lat="58.40929854195278" lon="8.808067895942301" id="-27703">
		<tag k="name" v="Langrumpa" />
		<tag k="natural" v="shoal" />
		<tag k="place" v="locality" />
		<tag k="ssr:stedsnr" v="633780" />
	</node>
	<node lat="58.41484999553683" lon="8.719902772015361" id="-27710">
		<tag k="name" v="Lyngholmen" />
		<tag k="place" v="islet" />
		<tag k="ssr:stedsnr" v="636204" />
	</node>
	<node lat="58.53551666984193" lon="8.97425277833776" id="-27711">
		<tag k="name" v="Taddervika" />
		<tag k="natural" v="bay" />
		<tag k="ssr:stedsnr" v="636206" />
	</node>
	<node lat="58.52217221916589" lon="8.877133331732907" id="-27712">
		<tag k="name" v="Mikkels" />
		<tag k="natural" v="beach" />
		<tag k="ssr:stedsnr" v="636113" />
	</node>
	<node lat="58.45953889067782" lon="8.78064166372641" id="-27729">
		<tag k="name" v="Omsødden" />
		<tag k="natural" v="cape" />
		<tag k="ssr:stedsnr" v="636629" />
	</node>
	<node lat="58.437750001080666" lon="8.728238883479415" id="-27734">
		<tag k="name" v="Kjeholmen" />
		<tag k="place" v="islet" />
		<tag k="ssr:stedsnr" v="636806" />
	</node>
	<node lat="58.42492500329112" lon="8.761444436207633" id="-27748">
		<tag k="name" v="Stølsvigen" />
		<tag k="natural" v="bay" />
		<tag k="ssr:stedsnr" v="636786" />
	</node>
	<node lat="58.49401111207745" lon="8.864666669149447" id="-27762">
		<tag k="alt_name" v="Friisøya" />
		<tag k="name" v="Frisøya" />
		<tag k="place" v="islet" />
		<tag k="ssr:stedsnr" v="667906" />
	</node>
	<node lat="58.4813666640793" lon="8.850480557339495" id="-27770">
		<tag k="name" v="Nautholmen" />
		<tag k="place" v="islet" />
		<tag k="ssr:stedsnr" v="694275" />
	</node>
	<node lat="58.55884721794423" lon="8.999330554524061" id="-27772">
		<tag k="fixme" v="consider seamark:type=rock or natural=shoal" />
		<tag k="name" v="Båtskjær" />
		<tag k="place" v="islet" />
		<tag k="ssr:stedsnr" v="696213" />
	</node>
	<node lat="58.5113472199445" lon="8.90616111238438" id="-27777">
		<tag k="fixme" v="consider seamark:type=rock or natural=shoal" />
		<tag k="name" v="Terneskjæret" />
		<tag k="place" v="islet" />
		<tag k="ssr:stedsnr" v="697076" />
	</node>
	<node lat="58.5346027810987" lon="8.97431388545734" id="-27780">
		<tag k="name" v="Nautholmsbukta" />
		<tag k="natural" v="bay" />
		<tag k="ssr:stedsnr" v="697223" />
	</node>
	<node lat="58.47445833134771" lon="8.917216662655454" id="-27782">
		<tag k="name" v="Vestre Bagrassen" />
		<tag k="natural" v="cape" />
		<tag k="ssr:stedsnr" v="697370" />
	</node>
	<node lat="58.446919447727254" lon="8.783105557972707" id="-27790">
		<tag k="fixme" v="consider seamark:type=rock or natural=shoal" />
		<tag k="name" v="Potta" />
		<tag k="place" v="islet" />
		<tag k="ssr:stedsnr" v="697609" />
	</node>
	<node lat="58.44179444690685" lon="8.821463883613102" id="-27793">
		<tag k="name" v="Sankt Helena" />
		<tag k="place" v="islet" />
		<tag k="ssr:stedsnr" v="697600" />
	</node>
	<node lat="58.46976666663012" lon="8.824011109093936" id="-27799">
		<tag k="alt_name" v="Brunes;Bruneset" />
		<tag k="name" v="Broneset" />
		<tag k="natural" v="cape" />
		<tag k="ssr:stedsnr" v="697727" />
	</node>
	<node lat="58.42822222291936" lon="8.725569437680832" id="-27800">
		<tag k="name" v="Store Willumsholmen" />
		<tag k="place" v="islet" />
		<tag k="ssr:stedsnr" v="697764" />
	</node>
	<node lat="58.42949166882582" lon="8.724983340318358" id="-27802">
		<tag k="name" v="Narret" />
		<tag k="place" v="islet" />
		<tag k="ssr:stedsnr" v="697767" />
	</node>
	<node lat="58.43772222034571" lon="8.715736102601022" id="-27824">
		<tag k="name" v="Vrengen" />
		<tag k="natural" v="strait" />
		<tag k="ssr:stedsnr" v="722710" />
	</node>
	<node lat="58.47508333322649" lon="8.827802781508423" id="-27828">
		<tag k="name" v="Taraldsnes" />
		<tag k="natural" v="cape" />
		<tag k="ssr:stedsnr" v="728620" />
	</node>
	<node lat="58.51993332976578" lon="8.947958326594666" id="-27834">
		<tag k="name" v="Skinnfellholmen" />
		<tag k="place" v="islet" />
		<tag k="ssr:stedsnr" v="729188" />
	</node>
	<node lat="58.555613893093" lon="9.012236102969856" id="-27842">
		<tag k="fixme" v="consider seamark:type=rock or natural=shoal" />
		<tag k="name" v="Lille Buskjær" />
		<tag k="place" v="islet" />
		<tag k="ssr:stedsnr" v="755300" />
	</node>
	<node lat="58.388027780083505" lon="8.764061114832222" id="-27844">
		<tag k="name" v="Grynbåen" />
		<tag k="place" v="locality" />
		<tag k="seamark:type" v="rock" />
		<tag k="ssr:stedsnr" v="755661" />
	</node>
	<node lat="58.465155554726515" lon="8.894738880947676" id="-27845">
		<tag k="name" v="Bottstangen" />
		<tag k="natural" v="cape" />
		<tag k="ssr:stedsnr" v="755710" />
	</node>
	<node lat="58.437180551441934" lon="8.787777785155388" id="-27847">
		<tag k="name" v="Nabben" />
		<tag k="natural" v="cape" />
		<tag k="ssr:stedsnr" v="755759" />
	</node>
	<node lat="58.43024722275895" lon="8.772391668136228" id="-27848">
		<tag k="name" v="Graudviga" />
		<tag k="natural" v="bay" />
		<tag k="ssr:stedsnr" v="755760" />
	</node>
	<node lat="58.42319444582681" lon="8.810511103024421" id="-27849">
		<tag k="name" v="Lakseberget" />
		<tag k="natural" v="cape" />
		<tag k="ssr:stedsnr" v="755766" />
	</node>
	<node lat="58.55647222270458" lon="8.999997215988182" id="-27850">
		<tag k="name" v="Vika" />
		<tag k="natural" v="bay" />
		<tag k="ssr:stedsnr" v="757195" />
	</node>
	<node lat="58.54038889309117" lon="8.950691671312658" id="-27852">
		<tag k="name" v="Finnskottbukta" />
		<tag k="natural" v="bay" />
		<tag k="ssr:stedsnr" v="757248" />
	</node>
	<node lat="58.483694446018106" lon="8.835011104603257" id="-27866">
		<tag k="name" v="Bråtebukta" />
		<tag k="natural" v="bay" />
		<tag k="ssr:stedsnr" v="758408" />
	</node>
	<node lat="58.51801666885376" lon="8.902747215023197" id="-27870">
		<tag k="name" v="Kjenestangen" />
		<tag k="natural" v="cape" />
		<tag k="ssr:stedsnr" v="758161" />
	</node>
	<node lat="58.448805556406555" lon="8.820502772979664" id="-27887">
		<tag k="name" v="Prestholmen" />
		<tag k="natural" v="cape" />
		<tag k="ssr:stedsnr" v="758648" />
	</node>
	<node lat="58.433172218708705" lon="8.820630553787579" id="-27888">
		<tag k="name" v="Øddegabet" />
		<tag k="natural" v="strait" />
		<tag k="ssr:stedsnr" v="758649" />
	</node>
	<node lat="58.50515555317898" lon="8.93431944107818" id="-27890">
		<tag k="name" v="Hølen" />
		<tag k="natural" v="bay" />
		<tag k="ssr:stedsnr" v="758808" />
	</node>
	<node lat="58.47053333064779" lon="8.82011388847725" id="-27896">
		<tag k="name" v="Smålingen" />
		<tag k="natural" v="strait" />
		<tag k="ssr:stedsnr" v="906041" />
	</node>
	<node lat="58.540363887428846" lon="9.003333338350135" id="-27903">
		<tag k="fixme" v="multiple name tags, choose one and add the other to alt_name; consider seamark:type=rock or natural=shoal" />
		<tag k="name" v="Ytre Møkkalasset;Møkkalasset" />
		<tag k="place" v="islet" />
		<tag k="ssr:stedsnr" v="784113" />
	</node>
	<node lat="58.46489722238439" lon="8.799852778049745" id="-27910">
		<tag k="alt_name" v="Tromøysund" />
		<tag k="name" v="Tromøysundet" />
		<tag k="natural" v="strait" />
		<tag k="ssr:stedsnr" v="910630" />
	</node>
	<node lat="58.470152773833476" lon="8.844905562954207" id="-27912">
		<tag k="name" v="Seikilen" />
		<tag k="natural" v="bay" />
		<tag k="ssr:stedsnr" v="786313" />
	</node>
	<node lat="58.575702779876394" lon="8.979022214593611" id="-27923">
		<tag k="name" v="Tverrdalsøya" />
		<tag k="place" v="island" />
		<tag k="ssr:stedsnr" v="789305" />
	</node>
	<node lat="58.557930552730944" lon="9.016458335459442" id="-27927">
		<tag k="name" v="Buskjera" />
		<tag k="place" v="islet" />
		<tag k="ssr:stedsnr" v="789272" />
	</node>
	<node lat="58.49058333096954" lon="8.859102782386149" id="-27932">
		<tag k="alt_name" v="Skipevik;Skibvika" />
		<tag k="name" v="Skibviga" />
		<tag k="natural" v="bay" />
		<tag k="ssr:stedsnr" v="789920" />
	</node>
	<node lat="58.53500000334869" lon="8.920455553573294" id="-27933">
		<tag k="alt_name" v="Jorundstadkilen" />
		<tag k="name" v="Jorunnstadkilen" />
		<tag k="natural" v="bay" />
		<tag k="ssr:stedsnr" v="790211" />
	</node>
	<node lat="58.489377779660096" lon="8.921663890620435" id="-27943">
		<tag k="alt_name" v="Kattsundholmene" />
		<tag k="name" v="Krosseholmene" />
		<tag k="old_name" v="Dyblingsholmane;Dybingsholmen" />
		<tag k="place" v="islet" />
		<tag k="ssr:stedsnr" v="911893" />
	</node>
	<node lat="58.485469444274784" lon="8.848149992012917" id="-27948">
		<tag k="name" v="Paulus holme" />
		<tag k="place" v="islet" />
		<tag k="ssr:stedsnr" v="816326" />
	</node>
	<node lat="58.549505559568466" lon="9.001322229094823" id="-27949">
		<tag k="fixme" v="consider seamark:type=rock or natural=shoal" />
		<tag k="name" v="Teineskjæra" />
		<tag k="place" v="islet" />
		<tag k="ssr:stedsnr" v="817286" />
	</node>
	<node lat="58.41369444212283" lon="8.723488882957565" id="-27956">
		<tag k="name" v="Saulekilen" />
		<tag k="natural" v="bay" />
		<tag k="ssr:stedsnr" v="818216" />
	</node>
	<node lat="58.531988887637034" lon="8.926549992570617" id="-27961">
		<tag k="name" v="Sanden" />
		<tag k="natural" v="beach" />
		<tag k="ssr:stedsnr" v="818187" />
	</node>
	<node lat="58.46935277599221" lon="8.900672226686398" id="-27963">
		<tag k="fixme" v="consider seamark:type=rock or natural=shoal" />
		<tag k="name" v="Stangholmen" />
		<tag k="place" v="islet" />
		<tag k="ssr:stedsnr" v="818306" />
	</node>
	<node lat="58.46188333061135" lon="8.89762221781504" id="-27964">
		<tag k="fixme" v="consider seamark:type=rock or natural=shoal" />
		<tag k="name" v="Lille Tallagen" />
		<tag k="place" v="islet" />
		<tag k="ssr:stedsnr" v="818307" />
	</node>
	<node lat="58.464186106682" lon="8.896011114406184" id="-27965">
		<tag k="name" v="Blåmannen" />
		<tag k="natural" v="cape" />
		<tag k="ssr:stedsnr" v="818309" />
	</node>
	<node lat="58.56598333168995" lon="8.965849994885758" id="-27969">
		<tag k="name" v="Langodden" />
		<tag k="natural" v="cape" />
		<tag k="ssr:stedsnr" v="819225" />
	</node>
	<node lat="58.47571944398257" lon="8.929355553522301" id="-27981">
		<tag k="fixme" v="consider seamark:type=rock or natural=shoal" />
		<tag k="name" v="Brenningane" />
		<tag k="place" v="islet" />
		<tag k="ssr:stedsnr" v="849934" />
	</node>
	<node lat="58.46682221799021" lon="8.892061110413074" id="-27982">
		<tag k="alt_name" v="Botsfjorden" />
		<tag k="bay" v="fjord" />
		<tag k="name" v="Bottsfjorden" />
		<tag k="natural" v="bay" />
		<tag k="ssr:stedsnr" v="849939" />
	</node>
	<node lat="58.44364166233111" lon="8.831980557994607" id="-27985">
		<tag k="name" v="Hovekilen" />
		<tag k="natural" v="bay" />
		<tag k="ssr:stedsnr" v="850609" />
	</node>
	<node lat="58.5221611083994" lon="8.941249997676316" id="-27994">
		<tag k="name" v="Breivika" />
		<tag k="natural" v="bay" />
		<tag k="ssr:stedsnr" v="876311" />
	</node>
	<node lat="58.56760833584898" lon="8.967544448939453" id="-27995">
		<tag k="name" v="Fårholmen" />
		<tag k="place" v="islet" />
		<tag k="ssr:stedsnr" v="876313" />
	</node>
	<node lat="58.511527774164165" lon="8.968299995631813" id="-27996">
		<tag k="name" v="Svartskjærbåen" />
		<tag k="place" v="locality" />
		<tag k="seamark:type" v="rock" />
		<tag k="ssr:stedsnr" v="876253" />
	</node>
	<node lat="58.4827611094024" lon="8.925983338777542" id="-27997">
		<tag k="fixme" v="consider seamark:type=rock or natural=shoal" />
		<tag k="name" v="Finkelskjær" />
		<tag k="place" v="islet" />
		<tag k="ssr:stedsnr" v="876259" />
	</node>
	<node lat="58.463552778051614" lon="8.880122222785214" id="-27998">
		<tag k="name" v="Danmarksfjell" />
		<tag k="natural" v="cape" />
		<tag k="ssr:stedsnr" v="876715" />
	</node>
	<node lat="58.43601328474191" lon="8.78285345375418" id="-27999">
		<tag k="name" v="Sandvigodden" />
		<tag k="natural" v="cape" />
		<tag k="ssr:stedsnr" v="876725" />
	</node>
	<node lat="58.414119420780395" lon="8.80547548822548" id="-28000">
		<tag k="name" v="Lauvåsbåen" />
		<tag k="place" v="locality" />
		<tag k="seamark:type" v="rock" />
		<tag k="ssr:stedsnr" v="876779" />
	</node>
	<node lat="58.51829166516647" lon="8.922622214326017" id="-28006">
		<tag k="name" v="Dalskilen" />
		<tag k="natural" v="bay" />
		<tag k="ssr:stedsnr" v="879154" />
	</node>
	<node lat="58.52750833179669" lon="8.897341668572258" id="-28007">
		<tag k="name" v="Kastet" />
		<tag k="natural" v="bay" />
		<tag k="ssr:stedsnr" v="879165" />
	</node>
	<node lat="58.552161107644785" lon="8.992602775257163" id="-28008">
		<tag k="name" v="Kvaknes" />
		<tag k="natural" v="cape" />
		<tag k="ssr:stedsnr" v="879201" />
	</node>
	<node lat="58.466894440166236" lon="8.829438887234554" id="-28009">
		<tag k="name" v="Speiderholmen" />
		<tag k="place" v="islet" />
		<tag k="ssr:stedsnr" v="879311" />
	</node>
	<node lat="58.55352777565196" lon="9.004316660639292" id="-28015">
		<tag k="name" v="Grisholmen" />
		<tag k="place" v="islet" />
		<tag k="ssr:stedsnr" v="879203" />
	</node>
	<node lat="58.54110833263755" lon="8.942688890766915" id="-28018">
		<tag k="name" v="Rollsøy" />
		<tag k="place" v="island" />
		<tag k="ssr:stedsnr" v="879251" />
	</node>
	<node lat="58.54362500254021" lon="8.944499999699214" id="-28019">
		<tag k="fixme" v="consider seamark:type=rock or natural=shoal" />
		<tag k="name" v="Alveskjærene" />
		<tag k="place" v="islet" />
		<tag k="ssr:stedsnr" v="879254" />
	</node>
	<node lat="58.42176389180952" lon="8.744202778074396" id="-28036">
		<tag k="name" v="Saulekilen" />
		<tag k="natural" v="bay" />
		<tag k="ssr:stedsnr" v="879757" />
	</node>
	<node lat="58.56740555318029" lon="8.963797220001997" id="-28037">
		<tag k="name" v="Landholmen" />
		<tag k="place" v="islet" />
		<tag k="ssr:stedsnr" v="879762" />
	</node>
	<node lat="58.44161388648333" lon="8.821291672391675" id="-28052">
		<tag k="name" v="St.Helena" />
		<tag k="place" v="islet" />
		<tag k="ssr:stedsnr" v="905021" />
	</node>
	<node lat="58.431088887636534" lon="8.776822222558707" id="-28054">
		<tag k="name" v="Graudvighaue" />
		<tag k="natural" v="cape" />
		<tag k="ssr:stedsnr" v="905216" />
	</node>
	<node lat="58.516480558435184" lon="8.977411119001948" id="-28055">
		<tag k="name" v="Flatskjæra" />
		<tag k="place" v="islet" />
		<tag k="ssr:stedsnr" v="906103" />
	</node>
	<node lat="58.39453055328404" lon="8.784424998650227" id="-28056">
		<tag k="name" v="Slurvene" />
		<tag k="place" v="islet" />
		<tag k="ssr:stedsnr" v="906354" />
	</node>
	<node lat="58.3914694447162" lon="8.770791670017665" id="-28057">
		<tag k="alt_name" v="Fladeskjær;Flatskjer" />
		<tag k="fixme" v="consider seamark:type=rock or natural=shoal" />
		<tag k="name" v="Flatskjær" />
		<tag k="place" v="islet" />
		<tag k="ssr:stedsnr" v="910554" />
	</node>
	<node lat="58.395277775693096" lon="8.788213890957499" id="-28058">
		<tag k="name" v="Skurvene" />
		<tag k="place" v="islet" />
		<tag k="ssr:stedsnr" v="910555" />
	</node>
	<node lat="58.424608331021744" lon="8.800213893476997" id="-28061">
		<tag k="name" v="Merdø" />
		<tag k="place" v="island" />
		<tag k="ssr:stedsnr" v="910595" />
	</node>
	<node lat="58.502980558751744" lon="8.889272224950389" id="-28063">
		<tag k="name" v="Buøya" />
		<tag k="place" v="island" />
		<tag k="ssr:stedsnr" v="911202" />
	</node>
	<node lat="58.53710277663625" lon="9.006113890742029" id="-28077">
		<tag k="name" v="Steinmolen" />
		<tag k="natural" v="shoal" />
		<tag k="place" v="locality" />
		<tag k="ssr:stedsnr" v="938289" />
	</node>
	<node lat="58.55143889113666" lon="9.006133329600528" id="-28078">
		<tag k="fixme" v="consider seamark:type=rock or natural=shoal" />
		<tag k="name" v="Guleskjæret" />
		<tag k="place" v="islet" />
		<tag k="ssr:stedsnr" v="939217" />
	</node>
	<node lat="58.53084444595477" lon="8.922800006894931" id="-28079">
		<tag k="name" v="Smalsund" />
		<tag k="natural" v="strait" />
		<tag k="ssr:stedsnr" v="940000" />
	</node>
	<node lat="58.432695855030374" lon="8.81439855484303" id="-28140">
		<tag k="alt_name" v="Gjesøya" />
		<tag k="name" v="Gjessøya" />
		<tag k="place" v="island" />
		<tag k="ssr:stedsnr" v="586" />
	</node>
	<node lat="58.44062777701284" lon="8.863324993354302" id="-28153">
		<tag k="alt_name" v="Spornesskjera" />
		<tag k="fixme" v="consider seamark:type=rock or natural=shoal" />
		<tag k="name" v="Spornesskjæra" />
		<tag k="place" v="islet" />
		<tag k="ssr:stedsnr" v="926" />
	</node>
	<node lat="58.531774999525936" lon="8.97961665986302" id="-28162">
		<tag k="name" v="Raudsteinbåen" />
		<tag k="place" v="locality" />
		<tag k="seamark:type" v="rock" />
		<tag k="ssr:stedsnr" v="27330" />
	</node>
	<node lat="58.49756388973606" lon="8.87964722593013" id="-28163">
		<tag k="name" v="Bukkevika" />
		<tag k="natural" v="bay" />
		<tag k="ssr:stedsnr" v="27331" />
	</node>
	<node lat="58.47791111050641" lon="8.909875002456607" id="-28164">
		<tag k="name" v="Tromlingsundet" />
		<tag k="natural" v="strait" />
		<tag k="ssr:stedsnr" v="27333" />
	</node>
	<node lat="58.50819444269984" lon="8.905800000972304" id="-28165">
		<tag k="name" v="Stølene" />
		<tag k="natural" v="shoal" />
		<tag k="place" v="locality" />
		<tag k="ssr:stedsnr" v="27268" />
	</node>
	<node lat="58.541924997570085" lon="9.010050001358062" id="-28168">
		<tag k="name" v="Langvikbåene" />
		<tag k="place" v="locality" />
		<tag k="seamark:type" v="rock" />
		<tag k="ssr:stedsnr" v="28299" />
	</node>
	<node lat="58.55234444856635" lon="8.995974998496882" id="-28179">
		<tag k="name" v="Kvaknesholmen" />
		<tag k="place" v="islet" />
		<tag k="ssr:stedsnr" v="29266" />
	</node>
	<node lat="58.43596666520621" lon="8.816680560202256" id="-28185">
		<tag k="name" v="Badeholmen" />
		<tag k="place" v="islet" />
		<tag k="ssr:stedsnr" v="29626" />
	</node>
	<node lat="58.43492500086884" lon="8.781505553370662" id="-28186">
		<tag k="name" v="Steinbukta" />
		<tag k="natural" v="bay" />
		<tag k="ssr:stedsnr" v="29643" />
	</node>
	<node lat="58.55329444536462" lon="8.967461112310575" id="-28219">
		<tag k="name" v="Fantoddsund" />
		<tag k="natural" v="strait" />
		<tag k="ssr:stedsnr" v="30229" />
	</node>
	<node lat="58.55905277797044" lon="8.9967611140334" id="-28222">
		<tag k="name" v="Storeholmen" />
		<tag k="place" v="islet" />
		<tag k="ssr:stedsnr" v="30191" />
	</node>
	<node lat="58.53143889136218" lon="8.970305561959119" id="-28223">
		<tag k="name" v="Stangeneskilen" />
		<tag k="natural" v="bay" />
		<tag k="ssr:stedsnr" v="30195" />
	</node>
	<node lat="58.47849999584501" lon="8.912513887761106" id="-28231">
		<tag k="name" v="Buholmen" />
		<tag k="natural" v="cape" />
		<tag k="ssr:stedsnr" v="30365" />
	</node>
	<node lat="58.475208332619594" lon="8.918030549077784" id="-28232">
		<tag k="name" v="Briggeholla" />
		<tag k="natural" v="bay" />
		<tag k="ssr:stedsnr" v="30368" />
	</node>
	<node lat="58.45996944450184" lon="8.79263610987459" id="-28239">
		<tag k="name" v="Ternenabben" />
		<tag k="natural" v="cape" />
		<tag k="ssr:stedsnr" v="30581" />
	</node>
	<node lat="58.579408335853365" lon="8.987283327705688" id="-28242">
		<tag k="name" v="Trivikspynten" />
		<tag k="natural" v="cape" />
		<tag k="ssr:stedsnr" v="30761" />
	</node>
	<node lat="58.42877222181437" lon="8.793049998870577" id="-28256">
		<tag k="alt_name" v="Skuteholmen" />
		<tag k="name" v="Skudeholmen" />
		<tag k="place" v="islet" />
		<tag k="ssr:stedsnr" v="61581" />
	</node>
	<node lat="58.43010000131279" lon="8.798333327224057" id="-28257">
		<tag k="name" v="Lyngholmen" />
		<tag k="place" v="islet" />
		<tag k="ssr:stedsnr" v="61582" />
	</node>
	<node lat="58.40051667102181" lon="8.738944445045185" id="-28262">
		<tag k="name" v="Jerkholmen" />
		<tag k="place" v="islet" />
		<tag k="ssr:stedsnr" v="61525" />
	</node>
	<node lat="58.42729475477671" lon="8.789105941493212" id="-28268">
		<tag k="name" v="Småholmene" />
		<tag k="place" v="islet" />
		<tag k="ssr:stedsnr" v="87737" />
	</node>
	<node lat="58.445991662450616" lon="8.876602776046955" id="-28269">
		<tag k="fixme" v="consider seamark:type=rock or natural=shoal" />
		<tag k="name" v="Snorreskjær" />
		<tag k="place" v="islet" />
		<tag k="ssr:stedsnr" v="87761" />
	</node>
	<node lat="58.436561109444014" lon="8.869749999239334" id="-28270">
		<tag k="name" v="Flagene" />
		<tag k="natural" v="shoal" />
		<tag k="place" v="locality" />
		<tag k="ssr:stedsnr" v="87763" />
	</node>
	<node lat="58.549505559568466" lon="9.001322229094823" id="-28271">
		<tag k="fixme" v="consider seamark:type=rock or natural=shoal" />
		<tag k="name" v="Ytre Teineskjær" />
		<tag k="place" v="islet" />
		<tag k="ssr:stedsnr" v="88246" />
	</node>
	<node lat="58.53171389159747" lon="8.936149998376223" id="-28272">
		<tag k="name" v="Flosternes" />
		<tag k="natural" v="cape" />
		<tag k="ssr:stedsnr" v="90184" />
	</node>
	<node lat="58.54921110938941" lon="9.014463884662582" id="-28276">
		<tag k="fixme" v="consider seamark:type=rock or natural=shoal" />
		<tag k="name" v="Holmesundbråta" />
		<tag k="place" v="islet" />
		<tag k="ssr:stedsnr" v="90211" />
	</node>
	<node lat="58.46606389098677" lon="8.89118889337702" id="-28278">
		<tag k="fixme" v="consider seamark:type=rock or natural=shoal" />
		<tag k="name" v="Skagen" />
		<tag k="place" v="islet" />
		<tag k="ssr:stedsnr" v="90270" />
	</node>
	<node lat="58.51167777602737" lon="8.913686109449621" id="-28283">
		<tag k="name" v="Vestre Ramsvika" />
		<tag k="natural" v="bay" />
		<tag k="ssr:stedsnr" v="90040" />
	</node>
	<node lat="58.52443889105853" lon="8.888080560179187" id="-28289">
		<tag k="name" v="Langenes" />
		<tag k="natural" v="cape" />
		<tag k="ssr:stedsnr" v="90085" />
	</node>
	<node lat="58.52063610836455" lon="8.925933328024865" id="-28296">
		<tag k="name" v="Mae(id)" />
		<tag k="place" v="locality" />
		<tag k="ssr:stedsnr" v="90151" />
	</node>
	<node lat="58.557925004409505" lon="8.976952772481047" id="-28301">
		<tag k="name" v="Indrestrand" />
		<tag k="natural" v="beach" />
		<tag k="ssr:stedsnr" v="90220" />
	</node>
	<node lat="58.47025277515208" lon="8.895980549436002" id="-28304">
		<tag k="name" v="Gibbergapet" />
		<tag k="natural" v="strait" />
		<tag k="ssr:stedsnr" v="90252" />
	</node>
	<node lat="58.43224722067929" lon="8.825983326599491" id="-28305">
		<tag k="name" v="Krossen" />
		<tag k="natural" v="cape" />
		<tag k="ssr:stedsnr" v="90263" />
	</node>
	<node lat="58.47512778067966" lon="8.84108333435293" id="-28319">
		<tag k="fixme" v="consider seamark:type=rock or natural=shoal" />
		<tag k="name" v="Seilskjærene" />
		<tag k="place" v="islet" />
		<tag k="ssr:stedsnr" v="90356" />
	</node>
	<node lat="58.479116669947004" lon="8.830805560125349" id="-28322">
		<tag k="name" v="Terneholmene" />
		<tag k="place" v="islet" />
		<tag k="ssr:stedsnr" v="90363" />
	</node>
	<node lat="58.4195999966987" lon="8.77454722820063" id="-28326">
		<tag k="name" v="Vestre Breidbukta" />
		<tag k="natural" v="bay" />
		<tag k="ssr:stedsnr" v="90523" />
	</node>
	<node lat="58.453286113371746" lon="8.753163891683418" id="-28327">
		<tag k="name" v="Strømsbuneset" />
		<tag k="natural" v="cape" />
		<tag k="ssr:stedsnr" v="90536" />
	</node>
	<node lat="58.55843154632322" lon="8.978660457748441" id="-28358">
		<tag k="name" v="Ytterbøstranda" />
		<tag k="natural" v="beach" />
		<tag k="ssr:stedsnr" v="117086" />
	</node>
	<node lat="58.445699997030935" lon="8.780427784758256" id="-28363">
		<tag k="name" v="Galtesund" />
		<tag k="natural" v="strait" />
		<tag k="ssr:stedsnr" v="121630" />
	</node>
	<node lat="58.51608888754854" lon="8.977488890137202" id="-28368">
		<tag k="alt_name" v="Fladeskjæra" />
		<tag k="fixme" v="consider seamark:type=rock or natural=shoal" />
		<tag k="name" v="Flatskjera" />
		<tag k="place" v="islet" />
		<tag k="ssr:stedsnr" v="122183" />
	</node>
	<node lat="58.514813888563076" lon="8.89649443956033" id="-28369">
		<tag k="bay" v="fjord" />
		<tag k="name" v="Gartafjorden" />
		<tag k="natural" v="bay" />
		<tag k="ssr:stedsnr" v="122186" />
	</node>
	<node lat="58.55230277627531" lon="9.012241667416367" id="-28370">
		<tag k="alt_name" v="Måkeskjera" />
		<tag k="name" v="Måkeskjæra" />
		<tag k="place" v="islet" />
		<tag k="ssr:stedsnr" v="122283" />
	</node>
	<node lat="58.503905553261646" lon="8.97220277396502" id="-28376">
		<tag k="name" v="Lillegrunnen" />
		<tag k="natural" v="shoal" />
		<tag k="place" v="locality" />
		<tag k="ssr:stedsnr" v="148286" />
	</node>
	<node lat="58.50081388928951" lon="8.969597226789249" id="-28378">
		<tag k="name" v="Meleskjærbåen" />
		<tag k="place" v="locality" />
		<tag k="seamark:type" v="rock" />
		<tag k="ssr:stedsnr" v="148289" />
	</node>
	<node lat="58.48972222244145" lon="8.942263889881566" id="-28379">
		<tag k="name" v="Dybingsbåen" />
		<tag k="place" v="locality" />
		<tag k="seamark:type" v="rock" />
		<tag k="ssr:stedsnr" v="148293" />
	</node>
	<node lat="58.521458330460725" lon="8.999486106240248" id="-28381">
		<tag k="fixme" v="consider seamark:type=rock or natural=shoal" />
		<tag k="name" v="Molen" />
		<tag k="place" v="islet" />
		<tag k="ssr:stedsnr" v="148345" />
	</node>
	<node lat="58.45630555746695" lon="8.778786107352753" id="-28382">
		<tag k="fixme" v="consider seamark:type=rock or natural=shoal" />
		<tag k="name" v="Knubben" />
		<tag k="place" v="islet" />
		<tag k="ssr:stedsnr" v="148728" />
	</node>
	<node lat="58.45030555185663" lon="8.77452222697543" id="-28383">
		<tag k="name" v="Sagholmen" />
		<tag k="place" v="islet" />
		<tag k="ssr:stedsnr" v="148730" />
	</node>
	<node lat="58.51280833763314" lon="8.951494444358472" id="-28384">
		<tag k="fixme" v="consider seamark:type=rock or natural=shoal" />
		<tag k="name" v="Vestre Svartskjær" />
		<tag k="place" v="islet" />
		<tag k="ssr:stedsnr" v="149240" />
	</node>
	<node lat="58.5566000021904" lon="9.024902784586729" id="-28385">
		<tag k="fixme" v="consider seamark:type=rock or natural=shoal" />
		<tag k="name" v="Knubben" />
		<tag k="place" v="islet" />
		<tag k="ssr:stedsnr" v="149267" />
	</node>
	<node lat="58.4487888907776" lon="8.873338892864894" id="-28390">
		<tag k="name" v="Røykpynten" />
		<tag k="natural" v="cape" />
		<tag k="ssr:stedsnr" v="150280" />
	</node>
	<node lat="58.45014722136286" lon="8.874074996735793" id="-28391">
		<tag k="name" v="Listranda" />
		<tag k="natural" v="beach" />
		<tag k="ssr:stedsnr" v="150281" />
	</node>
	<node lat="58.46732221802274" lon="8.877111111701725" id="-28402">
		<tag k="name" v="Skibernes" />
		<tag k="natural" v="cape" />
		<tag k="ssr:stedsnr" v="150723" />
	</node>
	<node lat="58.50975555333858" lon="8.887430557127871" id="-28418">
		<tag k="name" v="Hamnevollneset" />
		<tag k="natural" v="cape" />
		<tag k="ssr:stedsnr" v="151070" />
	</node>
	<node lat="58.518919443099875" lon="8.869380553748012" id="-28419">
		<tag k="name" v="Tangen" />
		<tag k="natural" v="cape" />
		<tag k="ssr:stedsnr" v="151114" />
	</node>
	<node lat="58.544694445704444" lon="8.981386104505654" id="-28433">
		<tag k="name" v="Brårvikkilen" />
		<tag k="natural" v="bay" />
		<tag k="ssr:stedsnr" v="151250" />
	</node>
	<node lat="58.52401944746689" lon="8.902125004512337" id="-28437">
		<tag k="name" v="Lille Klokkøya" />
		<tag k="place" v="islet" />
		<tag k="ssr:stedsnr" v="151092" />
	</node>
	<node lat="58.52256111060871" lon="8.893475001264266" id="-28438">
		<tag k="name" v="Stensholmen" />
		<tag k="place" v="islet" />
		<tag k="ssr:stedsnr" v="151188" />
	</node>
	<node lat="58.49489999761205" lon="8.857197223131072" id="-28439">
		<tag k="name" v="Møllebukta" />
		<tag k="natural" v="bay" />
		<tag k="ssr:stedsnr" v="151279" />
	</node>
	<node lat="58.44611111140965" lon="8.827202782057261" id="-28441">
		<tag k="name" v="Flangeborgholmen" />
		<tag k="place" v="islet" />
		<tag k="ssr:stedsnr" v="151297" />
	</node>
	<node lat="58.474230556161785" lon="8.91476388731752" id="-28443">
		<tag k="name" v="Øybukta" />
		<tag k="natural" v="bay" />
		<tag k="ssr:stedsnr" v="151380" />
	</node>
	<node lat="58.42341388480123" lon="8.792197227519722" id="-28447">
		<tag k="name" v="Lillesand" />
		<tag k="natural" v="bay" />
		<tag k="ssr:stedsnr" v="151524" />
	</node>
	<node lat="58.423355551861235" lon="8.783908341028674" id="-28450">
		<tag k="name" v="Havsøyfjorden" />
		<tag k="natural" v="strait" />
		<tag k="ssr:stedsnr" v="151536" />
	</node>
	<node lat="58.496852777990604" lon="8.866250006896601" id="-28455">
		<tag k="name" v="Stranda" />
		<tag k="natural" v="beach" />
		<tag k="ssr:stedsnr" v="151468" />
	</node>
	<node lat="58.572030557082826" lon="8.966416664847177" id="-28467">
		<tag k="fixme" v="consider seamark:type=rock or natural=shoal" />
		<tag k="name" v="Selskjæra" />
		<tag k="place" v="islet" />
		<tag k="ssr:stedsnr" v="151770" />
	</node>
	<node lat="58.53836388822253" lon="8.980675007380233" id="-28475">
		<tag k="name" v="Koddesund" />
		<tag k="natural" v="strait" />
		<tag k="ssr:stedsnr" v="151825" />
	</node>
	<node lat="58.41281666816539" lon="8.741422216199073" id="-28510">
		<tag k="name" v="Hesvika" />
		<tag k="natural" v="bay" />
		<tag k="ssr:stedsnr" v="204194" />
	</node>
	<node lat="58.50285000233348" lon="8.9597611167199" id="-28512">
		<tag k="name" v="Vestre Fladen" />
		<tag k="natural" v="shoal" />
		<tag k="place" v="locality" />
		<tag k="ssr:stedsnr" v="209277" />
	</node>
	<node lat="58.451891668404215" lon="8.77274722981034" id="-28514">
		<tag k="name" v="Geideholmen" />
		<tag k="place" v="islet" />
		<tag k="ssr:stedsnr" v="209761" />
	</node>
	<node lat="58.494380553966586" lon="8.841744440510908" id="-28515">
		<tag k="name" v="Mørfjærkilen" />
		<tag k="natural" v="bay" />
		<tag k="ssr:stedsnr" v="209303" />
	</node>
	<node lat="58.5459777771754" lon="8.986027785138193" id="-28518">
		<tag k="name" v="Ulvika" />
		<tag k="natural" v="bay" />
		<tag k="ssr:stedsnr" v="212146" />
	</node>
	<node lat="58.40586389111012" lon="8.712263886672142" id="-28525">
		<tag k="name" v="Indre Skauholmen" />
		<tag k="place" v="islet" />
		<tag k="ssr:stedsnr" v="212245" />
	</node>
	<node lat="58.488005558914814" lon="8.856138889037416" id="-28528">
		<tag k="name" v="Gallevika" />
		<tag k="natural" v="bay" />
		<tag k="ssr:stedsnr" v="212260" />
	</node>
	<node lat="58.41057499851557" lon="8.7176388823677" id="-28542">
		<tag k="name" v="Gretesholmen" />
		<tag k="place" v="islet" />
		<tag k="ssr:stedsnr" v="212214" />
	</node>
	<node lat="58.48199999741325" lon="8.840219438550694" id="-28547">
		<tag k="name" v="Breiungen" />
		<tag k="natural" v="strait" />
		<tag k="ssr:stedsnr" v="212362" />
	</node>
	<node lat="58.49811111049655" lon="8.859513887658043" id="-28571">
		<tag k="fixme" v="consider seamark:type=rock or natural=shoal" />
		<tag k="name" v="Nesskjæra" />
		<tag k="place" v="islet" />
		<tag k="ssr:stedsnr" v="212444" />
	</node>
	<node lat="58.43834722474147" lon="8.788516674818268" id="-28579">
		<tag k="alt_name" v="Ytterbukta" />
		<tag k="name" v="Yderbukt" />
		<tag k="natural" v="bay" />
		<tag k="ssr:stedsnr" v="212640" />
	</node>
	<node lat="58.57292499663988" lon="8.963538884582263" id="-28587">
		<tag k="name" v="Lillesund" />
		<tag k="natural" v="strait" />
		<tag k="ssr:stedsnr" v="212764" />
	</node>
	<node lat="58.47094444314501" lon="8.800294451880017" id="-28612">
		<tag k="fixme" v="consider seamark:type=rock or natural=shoal" />
		<tag k="name" v="Kroneskjær" />
		<tag k="place" v="islet" />
		<tag k="ssr:stedsnr" v="299043" />
	</node>
	<node lat="58.47118333336589" lon="8.816819448997796" id="-28613">
		<tag k="name" v="Østerbukta" />
		<tag k="natural" v="bay" />
		<tag k="ssr:stedsnr" v="299046" />
	</node>
	<node lat="58.47196110750207" lon="8.819680548551103" id="-28614">
		<tag k="name" v="Ekevalen" />
		<tag k="natural" v="bay" />
		<tag k="ssr:stedsnr" v="299049" />
	</node>
	<node lat="58.49565833586458" lon="8.924447221878669" id="-28615">
		<tag k="name" v="Sandviga" />
		<tag k="natural" v="bay" />
		<tag k="ssr:stedsnr" v="299134" />
	</node>
	<node lat="58.456277779250655" lon="8.773577785665003" id="-28616">
		<tag k="name" v="Arendalsbåen" />
		<tag k="natural" v="shoal" />
		<tag k="place" v="locality" />
		<tag k="ssr:stedsnr" v="299781" />
	</node>
	<node lat="58.454791665552406" lon="8.781950002124061" id="-28617">
		<tag k="name" v="Skilsøy pynt" />
		<tag k="natural" v="cape" />
		<tag k="ssr:stedsnr" v="299962" />
	</node>
	<node lat="58.492741668343314" lon="8.929616671080554" id="-28641">
		<tag k="name" v="Gronesbåen" />
		<tag k="place" v="locality" />
		<tag k="seamark:type" v="rock" />
		<tag k="ssr:stedsnr" v="330279" />
	</node>
	<node lat="58.47152500299505" lon="8.921669440756801" id="-28642">
		<tag k="name" v="Øyebåen" />
		<tag k="place" v="locality" />
		<tag k="seamark:type" v="rock" />
		<tag k="ssr:stedsnr" v="330283" />
	</node>
	<node lat="58.557975003242134" lon="9.016086107668002" id="-28643">
		<tag k="fixme" v="consider seamark:type=rock or natural=shoal" />
		<tag k="name" v="Store Buskjær" />
		<tag k="place" v="islet" />
		<tag k="ssr:stedsnr" v="330301" />
	</node>
	<node lat="58.427900084548426" lon="8.816169268262218" id="-28644">
		<tag k="name" v="Østergab" />
		<tag k="natural" v="strait" />
		<tag k="ssr:stedsnr" v="330783" />
	</node>
	<node lat="58.57145832910887" lon="9.07939443988029" id="-28647">
		<tag k="name" v="Østre Kjerkegrunnen" />
		<tag k="natural" v="shoal" />
		<tag k="place" v="locality" />
		<tag k="ssr:stedsnr" v="331732" />
	</node>
	<node lat="58.50653611425821" lon="8.945897229222611" id="-28652">
		<tag k="alt_name" v="Hviddingseivholmen" />
		<tag k="name" v="Hviddingsevholmen" />
		<tag k="place" v="islet" />
		<tag k="ssr:stedsnr" v="333169" />
	</node>
	<node lat="58.42264166840364" lon="8.729236111782319" id="-28657">
		<tag k="name" v="Store Bjorholmen" />
		<tag k="place" v="islet" />
		<tag k="ssr:stedsnr" v="333259" />
	</node>
	<node lat="58.43494722436234" lon="8.716541664885257" id="-28659">
		<tag k="name" v="Storeholmen" />
		<tag k="place" v="islet" />
		<tag k="ssr:stedsnr" v="333263" />
	</node>
	<node lat="58.55484722140621" lon="9.018311110384454" id="-28661">
		<tag k="fixme" v="consider seamark:type=rock or natural=shoal" />
		<tag k="name" v="Flateskjær" />
		<tag k="place" v="islet" />
		<tag k="ssr:stedsnr" v="332241" />
	</node>
	<node lat="58.521030552908556" lon="8.874591660194374" id="-28669">
		<tag k="name" v="Gartastranda" />
		<tag k="natural" v="beach" />
		<tag k="ssr:stedsnr" v="333127" />
	</node>
	<node lat="58.58488333375046" lon="8.979858329153801" id="-28671">
		<tag k="name" v="Hummerbukta" />
		<tag k="natural" v="bay" />
		<tag k="ssr:stedsnr" v="333243" />
	</node>
	<node lat="58.40344999968062" lon="8.72555276997005" id="-28672">
		<tag k="name" v="Rusesund" />
		<tag k="natural" v="strait" />
		<tag k="ssr:stedsnr" v="333244" />
	</node>
	<node lat="58.49496111133364" lon="8.874905557591461" id="-28678">
		<tag k="name" v="Pålsodden" />
		<tag k="natural" v="cape" />
		<tag k="ssr:stedsnr" v="333322" />
	</node>
	<node lat="58.47190555693683" lon="8.89957499479649" id="-28679">
		<tag k="name" v="Sønningspyntholmen" />
		<tag k="place" v="islet" />
		<tag k="ssr:stedsnr" v="333326" />
	</node>
	<node lat="58.46619444039568" lon="8.884705549590954" id="-28680">
		<tag k="name" v="Lille Danmark" />
		<tag k="natural" v="cape" />
		<tag k="ssr:stedsnr" v="333335" />
	</node>
	<node lat="58.4281250021128" lon="8.81047222092595" id="-28690">
		<tag k="name" v="Store Brekkvateret" />
		<tag k="natural" v="cape" />
		<tag k="ssr:stedsnr" v="333539" />
	</node>
	<node lat="58.436413886467996" lon="8.809791671115375" id="-28691">
		<tag k="name" v="Kattehaue" />
		<tag k="natural" v="cape" />
		<tag k="ssr:stedsnr" v="333614" />
	</node>
	<node lat="58.432330558683965" lon="8.790766662475736" id="-28695">
		<tag k="name" v="Tvillingholmene" />
		<tag k="place" v="islet" />
		<tag k="ssr:stedsnr" v="333630" />
	</node>
	<node lat="58.55442777741571" lon="8.96584721592562" id="-28697">
		<tag k="name" v="Vindkollvika" />
		<tag k="natural" v="bay" />
		<tag k="ssr:stedsnr" v="333269" />
	</node>
	<node lat="58.55777500209141" lon="8.973869446129532" id="-28698">
		<tag k="name" v="Slottholmen" />
		<tag k="place" v="islet" />
		<tag k="ssr:stedsnr" v="333271" />
	</node>
	<node lat="58.41556110835359" lon="8.74107778188754" id="-28699">
		<tag k="fixme" v="consider seamark:type=rock or natural=shoal" />
		<tag k="name" v="Klauvaskjæra" />
		<tag k="place" v="islet" />
		<tag k="ssr:stedsnr" v="333284" />
	</node>
	<node lat="58.45669166757815" lon="8.785291658259666" id="-28714">
		<tag k="name" v="Fjellvig" />
		<tag k="natural" v="bay" />
		<tag k="ssr:stedsnr" v="333590" />
	</node>
	<node lat="58.462680558213506" lon="8.784050007916907" id="-28716">
		<tag k="name" v="Fluet" />
		<tag k="natural" v="cape" />
		<tag k="ssr:stedsnr" v="333594" />
	</node>
	<node lat="58.573697222222144" lon="8.96549166424463" id="-28722">
		<tag k="name" v="Furuholmen" />
		<tag k="place" v="islet" />
		<tag k="ssr:stedsnr" v="333768" />
	</node>
	<node lat="58.57412499821021" lon="8.964208337080946" id="-28723">
		<tag k="name" v="Eikelandsbukta" />
		<tag k="natural" v="bay" />
		<tag k="ssr:stedsnr" v="333770" />
	</node>
	<node lat="58.420761112563646" lon="8.752802783989608" id="-28724">
		<tag k="loc_name" v="Øsa" />
		<tag k="name" v="Ausa" />
		<tag k="natural" v="bay" />
		<tag k="ssr:stedsnr" v="333777" />
	</node>
	<node lat="58.43471389161643" lon="8.791683333955538" id="-28736">
		<tag k="fixme" v="consider seamark:type=rock or natural=shoal" />
		<tag k="name" v="Abelholmen" />
		<tag k="place" v="islet" />
		<tag k="ssr:stedsnr" v="333645" />
	</node>
	<node lat="58.44396111501586" lon="8.868061113541282" id="-28751">
		<tag k="fixme" v="consider seamark:type=rock or natural=shoal" />
		<tag k="name" v="Svartskjær" />
		<tag k="place" v="islet" />
		<tag k="ssr:stedsnr" v="360372" />
	</node>
	<node lat="58.39397222110399" lon="8.773138888838835" id="-28753">
		<tag k="name" v="Tvesteinen" />
		<tag k="place" v="islet" />
		<tag k="ssr:stedsnr" v="364545" />
	</node>
	<node lat="58.456366665821655" lon="8.783172230232294" id="-28758">
		<tag k="name" v="Skilsøy" />
		<tag k="natural" v="cape" />
		<tag k="ssr:stedsnr" v="364639" />
	</node>
	<node lat="58.44089166664358" lon="8.753188887539883" id="-28759">
		<tag k="name" v="Hisøy" />
		<tag k="place" v="island" />
		<tag k="ssr:stedsnr" v="364640" />
	</node>
	<node lat="58.450152774244046" lon="8.77920277663434" id="-28769">
		<tag k="alt_name" v="Skottholmen, Lille" />
		<tag k="name" v="Lille Skottholmen" />
		<tag k="place" v="islet" />
		<tag k="ssr:stedsnr" v="390633" />
	</node>
	<node lat="58.451027777709285" lon="8.781491674019687" id="-28770">
		<tag k="alt_name" v="Skottholmen, Store;Skottholmen" />
		<tag k="name" v="Store Skottholmen" />
		<tag k="place" v="islet" />
		<tag k="ssr:stedsnr" v="390634" />
	</node>
	<node lat="58.40564506716633" lon="8.800534733823937" id="-28771">
		<tag k="name" v="Hågåsgrunnen" />
		<tag k="natural" v="shoal" />
		<tag k="old_name" v="Haagaasgrunnen" />
		<tag k="place" v="locality" />
		<tag k="ssr:stedsnr" v="390735" />
	</node>
	<node lat="58.469941666648396" lon="8.919325002967488" id="-28772">
		<tag k="name" v="Terjesknatten" />
		<tag k="natural" v="shoal" />
		<tag k="place" v="locality" />
		<tag k="ssr:stedsnr" v="391282" />
	</node>
	<node lat="58.386230553684264" lon="8.773033324898998" id="-28773">
		<tag k="name" v="Fladskjærgrunnen" />
		<tag k="natural" v="shoal" />
		<tag k="place" v="locality" />
		<tag k="ssr:stedsnr" v="390683" />
	</node>
	<node lat="58.47186666639239" lon="8.811536110931923" id="-28774">
		<tag k="name" v="Krøgeneskilen" />
		<tag k="natural" v="bay" />
		<tag k="ssr:stedsnr" v="391329" />
	</node>
	<node lat="58.53085277605423" lon="8.927286107057206" id="-28783">
		<tag k="fixme" v="consider seamark:type=rock or natural=shoal" />
		<tag k="name" v="Sandeskjæra" />
		<tag k="place" v="islet" />
		<tag k="ssr:stedsnr" v="393196" />
	</node>
	<node lat="58.55832778209275" lon="8.997083335639042" id="-28785">
		<tag k="name" v="Teineholmen" />
		<tag k="place" v="islet" />
		<tag k="ssr:stedsnr" v="393200" />
	</node>
	<node lat="58.50250833071693" lon="8.884036112250133" id="-28788">
		<tag k="name" v="Heggedalsbukta" />
		<tag k="natural" v="bay" />
		<tag k="ssr:stedsnr" v="393060" />
	</node>
	<node lat="58.534088887382254" lon="8.937441672306619" id="-28800">
		<tag k="name" v="Gulløya" />
		<tag k="natural" v="cape" />
		<tag k="ssr:stedsnr" v="393217" />
	</node>
	<node lat="58.49373055947787" lon="8.861174998092192" id="-28803">
		<tag k="name" v="Vestre Hellesund" />
		<tag k="natural" v="strait" />
		<tag k="ssr:stedsnr" v="393288" />
	</node>
	<node lat="58.47256666341466" lon="8.840194438733038" id="-28804">
		<tag k="name" v="Rabelsnes" />
		<tag k="natural" v="cape" />
		<tag k="ssr:stedsnr" v="393313" />
	</node>
	<node lat="58.48541389078951" lon="8.917902781016938" id="-28807">
		<tag k="name" v="Krosseholla" />
		<tag k="natural" v="bay" />
		<tag k="ssr:stedsnr" v="393382" />
	</node>
	<node lat="58.483077779261826" lon="8.922774994468634" id="-28808">
		<tag k="name" v="Tavlebergtangen" />
		<tag k="natural" v="cape" />
		<tag k="ssr:stedsnr" v="393383" />
	</node>
	<node lat="58.5672777795034" lon="8.958211109830343" id="-28822">
		<tag k="name" v="Boråskilen" />
		<tag k="natural" v="bay" />
		<tag k="ssr:stedsnr" v="393750" />
	</node>
</osm>
