<?xml version="1.0" encoding="UTF-8"?>
<osm version="0.6" generator="osmapis">
	<node lat="58.409566664222744" lon="8.66197222431881" id="-26676">
		<tag k="name" v="Vadretet" />
		<tag k="place" v="locality" />
		<tag k="ssr:stedsnr" v="29239" />
	</node>
	<node lat="58.438691669023385" lon="8.7862555626999" id="-26688">
		<tag k="name" v="Potta" />
		<tag k="place" v="locality" />
		<tag k="ssr:stedsnr" v="29668" />
	</node>
	<node lat="58.58293333161247" lon="8.981177779462655" id="-26706">
		<tag k="name" v="Kvernhusa" />
		<tag k="place" v="locality" />
		<tag k="ssr:stedsnr" v="30215" />
	</node>
	<node lat="58.4264750005082" lon="8.798574991944808" id="-26709">
		<tag k="name" v="Tollbua" />
		<tag k="place" v="locality" />
		<tag k="ssr:stedsnr" v="30528" />
	</node>
	<node lat="58.43342707525484" lon="8.748004013678893" id="-26719">
		<tag k="amenity" v="place_of_worship" />
		<tag k="denomination" v="lutheran" />
		<tag k="name" v="Hisøy kirke" />
		<tag k="religion" v="christian" />
		<tag k="ssr:stedsnr" v="60574" />
	</node>
	<node lat="58.52858370942976" lon="8.93408951146473" id="-26720">
		<tag k="alt_name" v="Flosta" />
		<tag k="amenity" v="place_of_worship" />
		<tag k="denomination" v="lutheran" />
		<tag k="name" v="Flosta kirke" />
		<tag k="religion" v="christian" />
		<tag k="ssr:stedsnr" v="61233" />
	</node>
	<node lat="58.534097222629605" lon="8.8493055635324" id="-26757">
		<tag k="name" v="Høvdingen" />
		<tag k="place" v="locality" />
		<tag k="ssr:stedsnr" v="90076" />
	</node>
	<node lat="58.48326111154207" lon="8.922991670696918" id="-26775">
		<tag k="name" v="Slave" />
		<tag k="place" v="locality" />
		<tag k="ssr:stedsnr" v="90369" />
	</node>
	<node lat="58.4415977156541" lon="8.698234103738033" id="-26818">
		<tag k="alt_name" v="Øyestad" />
		<tag k="amenity" v="place_of_worship" />
		<tag k="denomination" v="lutheran" />
		<tag k="name" v="Bjorbekk kirke" />
		<tag k="religion" v="christian" />
		<tag k="ssr:stedsnr" v="121618" />
	</node>
	<node lat="58.469883332424715" lon="8.860572220921838" id="-26905">
		<tag k="name" v="Hefte" />
		<tag k="place" v="locality" />
		<tag k="ssr:stedsnr" v="272696" />
	</node>
	<node lat="58.46740833369667" lon="8.88856111967252" id="-26939">
		<tag k="name" v="Geitekjerka" />
		<tag k="place" v="locality" />
		<tag k="ssr:stedsnr" v="212292" />
	</node>
	<node lat="58.42546111266603" lon="8.797375003350156" id="-26944">
		<tag k="name" v="Steinkjerka" />
		<tag k="place" v="locality" />
		<tag k="ssr:stedsnr" v="212530" />
	</node>
	<node lat="58.42208055737338" lon="8.69852778507038" id="-27030">
		<tag k="name" v="Sjøboden" />
		<tag k="place" v="locality" />
		<tag k="ssr:stedsnr" v="454231" />
	</node>
	<node lat="58.44701666863277" lon="8.823075003288736" id="-27057">
		<tag k="name" v="Labakken" />
		<tag k="place" v="locality" />
		<tag k="ssr:stedsnr" v="454633" />
	</node>
	<node lat="58.46001388827848" lon="8.784786108341422" id="-27132">
		<tag k="name" v="Verven" />
		<tag k="place" v="locality" />
		<tag k="ssr:stedsnr" v="272573" />
	</node>
	<node lat="58.42613611480121" lon="8.808319451621479" id="-27268">
		<tag k="name" v="Melleren" />
		<tag k="place" v="locality" />
		<tag k="ssr:stedsnr" v="393536" />
	</node>
	<node lat="58.51766111470416" lon="8.75385000517619" id="-27279">
		<tag k="name" v="Migane" />
		<tag k="place" v="locality" />
		<tag k="ssr:stedsnr" v="393710" />
	</node>
	<node lat="58.43865555694818" lon="8.562636104813638" id="-27291">
		<tag k="name" v="Pengerøysa" />
		<tag k="place" v="locality" />
		<tag k="ssr:stedsnr" v="393830" />
	</node>
	<node lat="58.446866670390435" lon="8.5745944397178" id="-27292">
		<tag k="name" v="Saga" />
		<tag k="place" v="locality" />
		<tag k="ssr:stedsnr" v="393836" />
	</node>
	<node lat="58.534019445577414" lon="8.892763881787495" id="-27365">
		<tag k="amenity" v="community_centre" />
		<tag k="name" v="Strengereid kretslokale" />
		<tag k="ssr:stedsnr" v="454076" />
	</node>
	<node lat="58.451161114692916" lon="8.791394447677403" id="-27391">
		<tag k="name" v="Bredal" />
		<tag k="place" v="locality" />
		<tag k="ssr:stedsnr" v="454663" />
	</node>
	<node lat="58.479563889084254" lon="8.91567221790278" id="-27443">
		<tag k="name" v="Pælen" />
		<tag k="place" v="locality" />
		<tag k="ssr:stedsnr" v="272350" />
	</node>
	<node lat="58.41650278109088" lon="8.717997217472648" id="-27462">
		<tag k="name" v="Verven" />
		<tag k="place" v="locality" />
		<tag k="ssr:stedsnr" v="515225" />
	</node>
	<node lat="58.47401666322115" lon="8.90950277418075" id="-27477">
		<tag k="name" v="Vestre Tangva" />
		<tag k="place" v="locality" />
		<tag k="ssr:stedsnr" v="515364" />
	</node>
	<node lat="58.48362499997656" lon="8.736655555545784" id="-27492">
		<tag k="amenity" v="community_centre" />
		<tag k="name" v="Fredly" />
		<tag k="ssr:stedsnr" v="515703" />
	</node>
	<node lat="58.533958331785136" lon="8.808436118376402" id="-27569">
		<tag k="name" v="Kallarberg" />
		<tag k="place" v="locality" />
		<tag k="ssr:stedsnr" v="575394" />
	</node>
	<node lat="58.55898888862272" lon="8.833613886898549" id="-27603">
		<tag k="name" v="Saga" />
		<tag k="place" v="locality" />
		<tag k="ssr:stedsnr" v="697022" />
	</node>
	<node lat="58.41885277935048" lon="8.723686116590201" id="-27622">
		<tag k="name" v="Buene" />
		<tag k="place" v="locality" />
		<tag k="ssr:stedsnr" v="697241" />
	</node>
	<node lat="58.48976111170055" lon="8.878872214206025" id="-27651">
		<tag k="amenity" v="community_centre" />
		<tag k="name" v="Skogtun" />
		<tag k="ssr:stedsnr" v="697822" />
	</node>
	<node lat="58.479736106712636" lon="8.522377775210236" id="-27670">
		<tag k="name" v="Myrbu" />
		<tag k="place" v="locality" />
		<tag k="ssr:stedsnr" v="697891" />
	</node>
	<node lat="58.570852779469455" lon="8.795219444587637" id="-27697">
		<tag k="name" v="Fliseparken" />
		<tag k="place" v="locality" />
		<tag k="ssr:stedsnr" v="272460" />
	</node>
	<node lat="58.52015555240325" lon="8.896205557189854" id="-27716">
		<tag k="name" v="Horten" />
		<tag k="place" v="locality" />
		<tag k="ssr:stedsnr" v="636178" />
	</node>
	<node lat="58.444892587270765" lon="8.831322595100973" id="-27719">
		<tag k="name" v="Nerte" />
		<tag k="place" v="locality" />
		<tag k="ssr:stedsnr" v="636292" />
	</node>
	<node lat="58.598124995615414" lon="8.816480560053815" id="-27785">
		<tag k="name" v="Halvfallfurua" />
		<tag k="place" v="locality" />
		<tag k="ssr:stedsnr" v="697389" />
	</node>
	<node lat="58.5520916702125" lon="8.810558335748219" id="-27788">
		<tag k="amenity" v="community_centre" />
		<tag k="name" v="Heimtun" />
		<tag k="ssr:stedsnr" v="697420" />
	</node>
	<node lat="58.57587222420414" lon="8.964783335151928" id="-27803">
		<tag k="name" v="Staken" />
		<tag k="place" v="locality" />
		<tag k="ssr:stedsnr" v="697771" />
	</node>
	<node lat="58.46338889048589" lon="8.508311116776685" id="-27862">
		<tag k="name" v="Tjærebrenneriet" />
		<tag k="place" v="locality" />
		<tag k="ssr:stedsnr" v="757911" />
	</node>
	<node lat="58.571463886178705" lon="8.784075001919271" id="-27877">
		<tag k="name" v="Grasteingryta" />
		<tag k="place" v="locality" />
		<tag k="ssr:stedsnr" v="758507" />
	</node>
	<node lat="58.46979722231547" lon="8.759227786179906" id="-27886">
		<tag k="name" v="Langsæ" />
		<tag k="place" v="locality" />
		<tag k="ssr:stedsnr" v="758607" />
	</node>
	<node lat="58.40163610906995" lon="8.69284166272808" id="-27901">
		<tag k="amenity" v="place_of_worship" />
		<tag k="denomination" v="lutheran" />
		<tag k="name" v="Engene kirke" />
		<tag k="old_name" v="Nedenesengene" />
		<tag k="religion" v="christian" />
		<tag k="ssr:stedsnr" v="910567" />
	</node>
	<node lat="58.46582499882511" lon="8.75694721933152" id="-28174">
		<tag k="name" v="Kloppene" />
		<tag k="place" v="locality" />
		<tag k="ssr:stedsnr" v="29588" />
	</node>
	<node lat="58.58290000085222" lon="8.832869442091273" id="-28215">
		<tag k="name" v="Pråmstø" />
		<tag k="place" v="locality" />
		<tag k="ssr:stedsnr" v="30139" />
	</node>
	<node lat="58.53002500183628" lon="8.948377770380912" id="-28221">
		<tag k="name" v="Trollet" />
		<tag k="place" v="locality" />
		<tag k="ssr:stedsnr" v="30188" />
	</node>
	<node lat="58.422577777318054" lon="8.748561108467953" id="-28300">
		<tag k="name" v="Boes utsikt" />
		<tag k="ssr:stedsnr" v="90218" />
		<tag k="tourism" v="viewpoint" />
	</node>
	<node lat="58.418474999106245" lon="8.691166662286232" id="-28387">
		<tag k="name" v="Utsikten" />
		<tag k="ssr:stedsnr" v="150235" />
		<tag k="tourism" v="viewpoint" />
	</node>
	<node lat="58.4460166657433" lon="8.570838882947129" id="-28407">
		<tag k="name" v="Fjølbu" />
		<tag k="place" v="locality" />
		<tag k="ssr:stedsnr" v="150794" />
	</node>
	<node lat="58.45085278171743" lon="8.589513895453297" id="-28414">
		<tag k="name" v="Hestebeita" />
		<tag k="place" v="locality" />
		<tag k="ssr:stedsnr" v="150850" />
	</node>
	<node lat="58.4914861127488" lon="8.719861110484393" id="-28464">
		<tag k="name" v="Holtet" />
		<tag k="place" v="locality" />
		<tag k="ssr:stedsnr" v="151678" />
	</node>
	<node lat="58.48347777428166" lon="8.9195305592176" id="-28551">
		<tag k="name" v="Tavla" />
		<tag k="place" v="locality" />
		<tag k="ssr:stedsnr" v="212370" />
	</node>
	<node lat="58.42598055191776" lon="8.67441667280087" id="-28588">
		<tag k="name" v="Syngopp" />
		<tag k="place" v="locality" />
		<tag k="ssr:stedsnr" v="212767" />
	</node>
	<node lat="58.53240555893113" lon="8.839061108922538" id="-28649">
		<tag k="name" v="Sterk-Ottars graver" />
		<tag k="place" v="locality" />
		<tag k="ssr:stedsnr" v="333075" />
	</node>
	<node lat="58.554077774025316" lon="8.938800007247005" id="-28658">
		<tag k="name" v="Støa" />
		<tag k="place" v="locality" />
		<tag k="ssr:stedsnr" v="333261" />
	</node>
	<node lat="58.43778888636087" lon="8.842600003143325" id="-28677">
		<tag k="name" v="Markopp" />
		<tag k="place" v="locality" />
		<tag k="ssr:stedsnr" v="333319" />
	</node>
	<node lat="58.45896388837608" lon="8.765849999855757" id="-28750">
		<tag k="amenity" v="place_of_worship" />
		<tag k="denomination" v="lutheran" />
		<tag k="name" v="Trefoldighet kirke" />
		<tag k="religion" v="christian" />
		<tag k="ssr:stedsnr" v="358015" />
	</node>
	<node lat="58.51975555749364" lon="8.881527772396133" id="-28782">
		<tag k="name" v="Teigen" />
		<tag k="place" v="locality" />
		<tag k="ssr:stedsnr" v="393189" />
	</node>
</osm>
