<?xml version="1.0" encoding="UTF-8"?>
<osm version="0.6" generator="osmapis">
	<node lat="58.505061110374264" lon="8.817319442775345" id="-26651">
		<tag k="fixme" v="consider natural=peak for the most distinct mountains in the district" />
		<tag k="name" v="Ørnereiråsen" />
		<tag k="natural" v="hill" />
		<tag k="place" v="locality" />
		<tag k="ssr:stedsnr" v="505" />
	</node>
	<node lat="58.50803889324752" lon="8.759586115581387" id="-26652">
		<tag k="name" v="Gangdalen" />
		<tag k="natural" v="valley" />
		<tag k="place" v="locality" />
		<tag k="ssr:stedsnr" v="511" />
	</node>
	<node lat="58.51582222576155" lon="8.794861115324691" id="-26660">
		<tag k="alt_name" v="Røyerfjell" />
		<tag k="fixme" v="consider natural=peak for the most distinct mountains in the district" />
		<tag k="name" v="Røyrfjellet" />
		<tag k="natural" v="hill" />
		<tag k="place" v="locality" />
		<tag k="ssr:stedsnr" v="743" />
	</node>
	<node lat="58.44876666707059" lon="8.764974998402694" id="-26675">
		<tag k="fixme" v="consider natural=peak for the most distinct mountains in the district" />
		<tag k="name" v="Galliåsen" />
		<tag k="natural" v="hill" />
		<tag k="place" v="locality" />
		<tag k="ssr:stedsnr" v="29220" />
	</node>
	<node lat="58.46899721856386" lon="8.879972224908313" id="-26681">
		<tag k="name" v="Brøndhaugen" />
		<tag k="natural" v="hill" />
		<tag k="place" v="locality" />
		<tag k="ssr:stedsnr" v="29323" />
	</node>
	<node lat="58.48221666391192" lon="8.918280553528533" id="-26682">
		<tag k="name" v="Jordfallet" />
		<tag k="place" v="locality" />
		<tag k="ssr:stedsnr" v="29402" />
	</node>
	<node lat="58.50572778121209" lon="8.721338883382558" id="-26689">
		<tag k="name" v="Storekjerrheia" />
		<tag k="natural" v="hill" />
		<tag k="place" v="locality" />
		<tag k="ssr:stedsnr" v="29673" />
	</node>
	<node lat="58.52223889101718" lon="8.922513895016289" id="-26700">
		<tag k="fixme" v="consider natural=peak for the most distinct mountains in the district" />
		<tag k="name" v="Snøråsen" />
		<tag k="natural" v="hill" />
		<tag k="place" v="locality" />
		<tag k="ssr:stedsnr" v="30182" />
	</node>
	<node lat="58.53223333600081" lon="8.825486110248882" id="-26702">
		<tag k="name" v="Dypendal" />
		<tag k="natural" v="valley" />
		<tag k="place" v="locality" />
		<tag k="ssr:stedsnr" v="30081" />
	</node>
	<node lat="58.52553611484533" lon="8.855011107364904" id="-26703">
		<tag k="name" v="Øygardsdalen" />
		<tag k="natural" v="valley" />
		<tag k="place" v="locality" />
		<tag k="ssr:stedsnr" v="30084" />
	</node>
	<node lat="58.56038055444425" lon="8.96860278269845" id="-26705">
		<tag k="fixme" v="consider natural=peak for the most distinct mountains in the district" />
		<tag k="name" v="Teiersnesåsen" />
		<tag k="natural" v="hill" />
		<tag k="place" v="locality" />
		<tag k="ssr:stedsnr" v="30206" />
	</node>
	<node lat="58.586508330560086" lon="8.782322213716292" id="-26707">
		<tag k="fixme" v="consider natural=peak for the most distinct mountains in the district" />
		<tag k="name" v="Grimsåsen" />
		<tag k="natural" v="hill" />
		<tag k="place" v="locality" />
		<tag k="ssr:stedsnr" v="30504" />
	</node>
	<node lat="58.47857500403768" lon="8.693997226447872" id="-26713">
		<tag k="fixme" v="consider natural=peak for the most distinct mountains in the district" />
		<tag k="name" v="Slettåsen" />
		<tag k="natural" v="hill" />
		<tag k="place" v="locality" />
		<tag k="ssr:stedsnr" v="30806" />
	</node>
	<node lat="58.456422220198554" lon="8.640527782384133" id="-26724">
		<tag k="fixme" v="consider natural=peak for the most distinct mountains in the district" />
		<tag k="name" v="Brattåsen" />
		<tag k="natural" v="hill" />
		<tag k="place" v="locality" />
		<tag k="ssr:stedsnr" v="61611" />
	</node>
	<node lat="58.5210638929526" lon="8.760544446003408" id="-26732">
		<tag k="name" v="Skjævestadheiene" />
		<tag k="natural" v="hill" />
		<tag k="place" v="locality" />
		<tag k="ssr:stedsnr" v="62716" />
	</node>
	<node lat="58.47249999866839" lon="8.733133338818504" id="-26741">
		<tag k="fixme" v="consider natural=peak for the most distinct mountains in the district" />
		<tag k="name" v="Varden" />
		<tag k="natural" v="hill" />
		<tag k="place" v="locality" />
		<tag k="ssr:stedsnr" v="243664" />
	</node>
	<node lat="58.439575002618554" lon="8.80283611921835" id="-26746">
		<tag k="fixme" v="consider natural=peak for the most distinct mountains in the district" />
		<tag k="name" v="Veden" />
		<tag k="natural" v="hill" />
		<tag k="place" v="locality" />
		<tag k="ssr:stedsnr" v="87700" />
	</node>
	<node lat="58.457485497693334" lon="8.810314775953476" id="-26747">
		<tag k="fixme" v="consider natural=peak for the most distinct mountains in the district" />
		<tag k="name" v="Vardåsen" />
		<tag k="natural" v="hill" />
		<tag k="place" v="locality" />
		<tag k="ssr:stedsnr" v="87701" />
	</node>
	<node lat="58.54735277679338" lon="8.85810277503494" id="-26754">
		<tag k="name" v="Mørkoppdalen" />
		<tag k="natural" v="valley" />
		<tag k="place" v="locality" />
		<tag k="ssr:stedsnr" v="90004" />
	</node>
	<node lat="58.55111666641985" lon="8.85893610981944" id="-26755">
		<tag k="name" v="Lyngåsdalen" />
		<tag k="natural" v="valley" />
		<tag k="place" v="locality" />
		<tag k="ssr:stedsnr" v="90011" />
	</node>
	<node lat="58.54220555314319" lon="8.977830558556722" id="-26760">
		<tag k="fixme" v="consider natural=peak for the most distinct mountains in the district" />
		<tag k="name" v="Kvennomsheia" />
		<tag k="natural" v="hill" />
		<tag k="place" v="locality" />
		<tag k="ssr:stedsnr" v="90202" />
	</node>
	<node lat="58.4201361099631" lon="8.700280547222372" id="-26761">
		<tag k="name" v="Sønsåslia" />
		<tag k="natural" v="slope" />
		<tag k="place" v="locality" />
		<tag k="ssr:stedsnr" v="90207" />
	</node>
	<node lat="58.503711112665044" lon="8.871669438984942" id="-26766">
		<tag k="fixme" v="consider natural=peak for the most distinct mountains in the district" />
		<tag k="name" v="Ulleråsen" />
		<tag k="natural" v="hill" />
		<tag k="place" v="locality" />
		<tag k="ssr:stedsnr" v="90447" />
	</node>
	<node lat="58.56229721892396" lon="8.78764166567074" id="-26767">
		<tag k="fixme" v="consider natural=peak for the most distinct mountains in the district" />
		<tag k="name" v="Bertestjønnheia" />
		<tag k="natural" v="hill" />
		<tag k="place" v="locality" />
		<tag k="ssr:stedsnr" v="90455" />
	</node>
	<node lat="58.581972224193805" lon="8.778913892031714" id="-26769">
		<tag k="fixme" v="consider natural=peak for the most distinct mountains in the district" />
		<tag k="name" v="Store Romsknatten" />
		<tag k="natural" v="hill" />
		<tag k="place" v="locality" />
		<tag k="ssr:stedsnr" v="90458" />
	</node>
	<node lat="58.434372222591925" lon="8.76407222816598" id="-26771">
		<tag k="fixme" v="consider natural=peak for the most distinct mountains in the district" />
		<tag k="name" v="Trommestad Skibberhei" />
		<tag k="natural" v="hill" />
		<tag k="place" v="locality" />
		<tag k="ssr:stedsnr" v="90166" />
	</node>
	<node lat="58.522224996152005" lon="8.775461106449102" id="-26777">
		<tag k="fixme" v="consider natural=peak for the most distinct mountains in the district" />
		<tag k="name" v="Haugåsen" />
		<tag k="natural" v="hill" />
		<tag k="place" v="locality" />
		<tag k="ssr:stedsnr" v="90386" />
	</node>
	<node lat="58.52927222031934" lon="8.808733329772013" id="-26778">
		<tag k="name" v="Hagebakken" />
		<tag k="natural" v="hill" />
		<tag k="place" v="locality" />
		<tag k="ssr:stedsnr" v="90387" />
	</node>
	<node lat="58.50645555356918" lon="8.707494441724496" id="-26780">
		<tag k="name" v="Sosvadalen" />
		<tag k="natural" v="valley" />
		<tag k="place" v="locality" />
		<tag k="ssr:stedsnr" v="90509" />
	</node>
	<node lat="58.43625833641395" lon="8.77277778393553" id="-26785">
		<tag k="fixme" v="consider natural=peak for the most distinct mountains in the district" />
		<tag k="name" v="Utsikten" />
		<tag k="natural" v="hill" />
		<tag k="place" v="locality" />
		<tag k="ssr:stedsnr" v="90615" />
	</node>
	<node lat="58.47801388846052" lon="8.75283889389122" id="-26786">
		<tag k="fixme" v="consider natural=peak for the most distinct mountains in the district" />
		<tag k="name" v="Torsbuåsen" />
		<tag k="natural" v="hill" />
		<tag k="place" v="locality" />
		<tag k="ssr:stedsnr" v="90665" />
	</node>
	<node lat="58.49565000355932" lon="8.762441669296292" id="-26787">
		<tag k="fixme" v="consider natural=peak for the most distinct mountains in the district" />
		<tag k="name" v="Bronneheia" />
		<tag k="natural" v="hill" />
		<tag k="place" v="locality" />
		<tag k="ssr:stedsnr" v="90673" />
	</node>
	<node lat="58.47757500200106" lon="8.786072219248544" id="-26789">
		<tag k="fixme" v="consider natural=peak for the most distinct mountains in the district" />
		<tag k="name" v="Høyåsen" />
		<tag k="natural" v="hill" />
		<tag k="place" v="locality" />
		<tag k="ssr:stedsnr" v="90683" />
	</node>
	<node lat="58.47292777979214" lon="8.820169445862623" id="-26793">
		<tag k="fixme" v="consider natural=peak for the most distinct mountains in the district" />
		<tag k="name" v="Ekevalen" />
		<tag k="natural" v="hill" />
		<tag k="place" v="locality" />
		<tag k="ssr:stedsnr" v="90583" />
	</node>
	<node lat="58.575483332305865" lon="8.955474995579843" id="-26794">
		<tag k="fixme" v="consider natural=peak for the most distinct mountains in the district" />
		<tag k="name" v="Lille Eikelandsheia" />
		<tag k="natural" v="hill" />
		<tag k="place" v="locality" />
		<tag k="ssr:stedsnr" v="90728" />
	</node>
	<node lat="58.45292500173245" lon="8.667083327043002" id="-26796">
		<tag k="fixme" v="consider natural=peak for the most distinct mountains in the district" />
		<tag k="name" v="Omholtåsen" />
		<tag k="natural" v="hill" />
		<tag k="place" v="locality" />
		<tag k="ssr:stedsnr" v="90774" />
	</node>
	<node lat="58.51817500320312" lon="8.805336112175388" id="-26814">
		<tag k="fixme" v="consider natural=peak for the most distinct mountains in the district" />
		<tag k="name" v="Trælåsen" />
		<tag k="natural" v="hill" />
		<tag k="place" v="locality" />
		<tag k="ssr:stedsnr" v="121724" />
	</node>
	<node lat="58.52331944535423" lon="8.829602779402357" id="-26827">
		<tag k="fixme" v="consider natural=peak for the most distinct mountains in the district" />
		<tag k="name" v="Blåfjell" />
		<tag k="natural" v="hill" />
		<tag k="place" v="locality" />
		<tag k="ssr:stedsnr" v="122711" />
	</node>
	<node lat="58.589869444055836" lon="8.796455555866016" id="-26834">
		<tag k="fixme" v="consider natural=peak for the most distinct mountains in the district" />
		<tag k="name" v="Byttingsheia" />
		<tag k="natural" v="hill" />
		<tag k="place" v="locality" />
		<tag k="ssr:stedsnr" v="150058" />
	</node>
	<node lat="58.434730553757056" lon="8.730533331075767" id="-26838">
		<tag k="fixme" v="consider natural=peak for the most distinct mountains in the district" />
		<tag k="name" v="Brattåsen" />
		<tag k="natural" v="hill" />
		<tag k="place" v="locality" />
		<tag k="ssr:stedsnr" v="150763" />
	</node>
	<node lat="58.46840000181335" lon="8.510891669711144" id="-26842">
		<tag k="fixme" v="consider natural=peak for the most distinct mountains in the district" />
		<tag k="name" v="Rypeheia" />
		<tag k="natural" v="hill" />
		<tag k="place" v="locality" />
		<tag k="ssr:stedsnr" v="150963" />
	</node>
	<node lat="58.54513888716695" lon="8.856936112524462" id="-26848">
		<tag k="name" v="Bjørneliene" />
		<tag k="natural" v="slope" />
		<tag k="place" v="locality" />
		<tag k="ssr:stedsnr" v="151008" />
	</node>
	<node lat="58.55292500114371" lon="8.828772227020814" id="-26850">
		<tag k="fixme" v="consider natural=peak for the most distinct mountains in the district" />
		<tag k="name" v="Rønningheia" />
		<tag k="natural" v="hill" />
		<tag k="place" v="locality" />
		<tag k="ssr:stedsnr" v="151014" />
	</node>
	<node lat="58.5520027803783" lon="8.924155551162514" id="-26851">
		<tag k="name" v="Rørvikheia" />
		<tag k="natural" v="hill" />
		<tag k="place" v="locality" />
		<tag k="ssr:stedsnr" v="151108" />
	</node>
	<node lat="58.507055556152196" lon="8.938527777181665" id="-26854">
		<tag k="name" v="Valen" />
		<tag k="natural" v="hill" />
		<tag k="place" v="locality" />
		<tag k="ssr:stedsnr" v="151172" />
	</node>
	<node lat="58.42159444432203" lon="8.740727770059937" id="-26863">
		<tag k="name" v="Revekjerr" />
		<tag k="place" v="locality" />
		<tag k="ssr:stedsnr" v="151212" />
	</node>
	<node lat="58.429097222376654" lon="8.677527784401653" id="-26866">
		<tag k="fixme" v="consider natural=peak for the most distinct mountains in the district" />
		<tag k="name" v="Gullovsåsen" />
		<tag k="natural" v="hill" />
		<tag k="place" v="locality" />
		<tag k="ssr:stedsnr" v="151272" />
	</node>
	<node lat="58.45990555562764" lon="8.75317777361629" id="-26869">
		<tag k="fixme" v="consider natural=peak for the most distinct mountains in the district" />
		<tag k="name" v="Strømsbuåsen" />
		<tag k="natural" v="hill" />
		<tag k="place" v="locality" />
		<tag k="ssr:stedsnr" v="151564" />
	</node>
	<node lat="58.47078333502159" lon="8.78207778397654" id="-26874">
		<tag k="fixme" v="consider natural=peak for the most distinct mountains in the district" />
		<tag k="name" v="Store Solåsen" />
		<tag k="natural" v="hill" />
		<tag k="place" v="locality" />
		<tag k="ssr:stedsnr" v="151603" />
	</node>
	<node lat="58.45517777584147" lon="8.790127769727661" id="-26882">
		<tag k="fixme" v="consider natural=peak for the most distinct mountains in the district" />
		<tag k="name" v="Pusnestoppen" />
		<tag k="natural" v="hill" />
		<tag k="place" v="locality" />
		<tag k="ssr:stedsnr" v="272565" />
	</node>
	<node lat="58.42239444440408" lon="8.708927785077304" id="-26885">
		<tag k="name" v="Rødsletta" />
		<tag k="place" v="locality" />
		<tag k="ssr:stedsnr" v="182565" />
	</node>
	<node lat="58.46272499796637" lon="8.804963895328267" id="-26902">
		<tag k="name" v="Tørkop" />
		<tag k="place" v="locality" />
		<tag k="ssr:stedsnr" v="272568" />
	</node>
	<node lat="58.46449444349902" lon="8.87355555528077" id="-26906">
		<tag k="fixme" v="consider natural=peak for the most distinct mountains in the district" />
		<tag k="name" v="Alveberget" />
		<tag k="natural" v="hill" />
		<tag k="place" v="locality" />
		<tag k="ssr:stedsnr" v="272698" />
	</node>
	<node lat="58.58089166736862" lon="8.976066673438128" id="-26907">
		<tag k="name" v="Røde berget" />
		<tag k="natural" v="hill" />
		<tag k="place" v="locality" />
		<tag k="ssr:stedsnr" v="272709" />
	</node>
	<node lat="58.57434444103012" lon="8.943177784192748" id="-26908">
		<tag k="name" v="Lindvannsliene" />
		<tag k="natural" v="slope" />
		<tag k="place" v="locality" />
		<tag k="ssr:stedsnr" v="272710" />
	</node>
	<node lat="58.51097778007468" lon="8.729291661641321" id="-26910">
		<tag k="name" v="Styggedal" />
		<tag k="natural" v="valley" />
		<tag k="place" v="locality" />
		<tag k="ssr:stedsnr" v="272630" />
	</node>
	<node lat="58.55754722006882" lon="8.83907778560202" id="-26921">
		<tag k="name" v="Reiersdal" />
		<tag k="natural" v="valley" />
		<tag k="place" v="locality" />
		<tag k="ssr:stedsnr" v="212013" />
	</node>
	<node lat="58.550188887727636" lon="8.829611109238924" id="-26922">
		<tag k="name" v="Revefjell" />
		<tag k="place" v="locality" />
		<tag k="ssr:stedsnr" v="212025" />
	</node>
	<node lat="58.565922225990484" lon="8.842530559735135" id="-26925">
		<tag k="fixme" v="consider natural=peak for the most distinct mountains in the district" />
		<tag k="name" v="Jettefjell" />
		<tag k="natural" v="hill" />
		<tag k="place" v="locality" />
		<tag k="ssr:stedsnr" v="212131" />
	</node>
	<node lat="58.52648055938376" lon="8.919633326343694" id="-26929">
		<tag k="name" v="Sørbudalen" />
		<tag k="natural" v="valley" />
		<tag k="place" v="locality" />
		<tag k="ssr:stedsnr" v="212186" />
	</node>
	<node lat="58.542222220748386" lon="8.981697225289174" id="-26936">
		<tag k="name" v="Persskott" />
		<tag k="natural" v="cliff" />
		<tag k="ssr:stedsnr" v="212234" />
	</node>
	<node lat="58.45450555433421" lon="8.821469451151179" id="-26945">
		<tag k="fixme" v="consider natural=peak for the most distinct mountains in the district" />
		<tag k="name" v="Daleheia" />
		<tag k="natural" v="hill" />
		<tag k="place" v="locality" />
		<tag k="ssr:stedsnr" v="212589" />
	</node>
	<node lat="58.49428055161065" lon="8.805072226834435" id="-26948">
		<tag k="name" v="Elgtråkka" />
		<tag k="natural" v="valley" />
		<tag k="place" v="locality" />
		<tag k="ssr:stedsnr" v="212729" />
	</node>
	<node lat="58.58466944185983" lon="8.770947217656257" id="-26949">
		<tag k="fixme" v="consider natural=peak for the most distinct mountains in the district" />
		<tag k="name" v="Torvheia" />
		<tag k="natural" v="hill" />
		<tag k="place" v="locality" />
		<tag k="ssr:stedsnr" v="212480" />
	</node>
	<node lat="58.58254166543628" lon="8.80564721937633" id="-26951">
		<tag k="name" v="Styggehull" />
		<tag k="natural" v="valley" />
		<tag k="place" v="locality" />
		<tag k="ssr:stedsnr" v="212492" />
	</node>
	<node lat="58.44596110822905" lon="8.535247218576842" id="-26956">
		<tag k="name" v="Bjellandsdalen" />
		<tag k="natural" v="valley" />
		<tag k="place" v="locality" />
		<tag k="ssr:stedsnr" v="212907" />
	</node>
	<node lat="58.45258332926036" lon="8.551341663125276" id="-26957">
		<tag k="name" v="Djupedal" />
		<tag k="natural" v="valley" />
		<tag k="place" v="locality" />
		<tag k="ssr:stedsnr" v="212912" />
	</node>
	<node lat="58.433330558495676" lon="8.57086666134025" id="-26960">
		<tag k="fixme" v="consider natural=peak for the most distinct mountains in the district" />
		<tag k="name" v="Tretjennheia" />
		<tag k="natural" v="hill" />
		<tag k="place" v="locality" />
		<tag k="ssr:stedsnr" v="212876" />
	</node>
	<node lat="58.42149999935467" lon="8.55001944682978" id="-26961">
		<tag k="name" v="Nesbulia" />
		<tag k="natural" v="slope" />
		<tag k="place" v="locality" />
		<tag k="ssr:stedsnr" v="212880" />
	</node>
	<node lat="58.46908333251907" lon="8.88950000027889" id="-26966">
		<tag k="fixme" v="consider natural=peak for the most distinct mountains in the district" />
		<tag k="name" v="Tømmerstøberget" />
		<tag k="natural" v="hill" />
		<tag k="place" v="locality" />
		<tag k="ssr:stedsnr" v="270333" />
	</node>
	<node lat="58.481791665203936" lon="8.759325006115017" id="-26968">
		<tag k="name" v="Jovasslia" />
		<tag k="natural" v="slope" />
		<tag k="place" v="locality" />
		<tag k="ssr:stedsnr" v="272652" />
	</node>
	<node lat="58.54170555525458" lon="8.924838888224958" id="-26980">
		<tag k="fixme" v="consider natural=peak for the most distinct mountains in the district" />
		<tag k="name" v="Storhagheia" />
		<tag k="natural" v="hill" />
		<tag k="place" v="locality" />
		<tag k="ssr:stedsnr" v="272034" />
	</node>
	<node lat="58.44966666798587" lon="8.744166661931953" id="-26982">
		<tag k="fixme" v="consider natural=peak for the most distinct mountains in the district" />
		<tag k="name" v="Gårdalsåsen" />
		<tag k="natural" v="hill" />
		<tag k="place" v="locality" />
		<tag k="ssr:stedsnr" v="238791" />
	</node>
	<node lat="58.404466663106625" lon="8.706941660849283" id="-26983">
		<tag k="name" v="Lille Kaninholmen" />
		<tag k="natural" v="hill" />
		<tag k="place" v="locality" />
		<tag k="ssr:stedsnr" v="451767" />
	</node>
	<node lat="58.523927776645735" lon="8.875525000872981" id="-27001">
		<tag k="fixme" v="consider natural=peak for the most distinct mountains in the district" />
		<tag k="name" v="Nesheia" />
		<tag k="natural" v="hill" />
		<tag k="place" v="locality" />
		<tag k="ssr:stedsnr" v="454099" />
	</node>
	<node lat="58.53131388677577" lon="8.857716667391635" id="-27003">
		<tag k="fixme" v="consider natural=peak for the most distinct mountains in the district" />
		<tag k="name" v="Bjørnbudalsheia" />
		<tag k="natural" v="hill" />
		<tag k="place" v="locality" />
		<tag k="ssr:stedsnr" v="454110" />
	</node>
	<node lat="58.578669442504186" lon="8.945488884430587" id="-27006">
		<tag k="name" v="Svåa" />
		<tag k="natural" v="hill" />
		<tag k="place" v="locality" />
		<tag k="ssr:stedsnr" v="454800" />
	</node>
	<node lat="58.430897219255066" lon="8.552736112299012" id="-27008">
		<tag k="fixme" v="consider natural=peak for the most distinct mountains in the district" />
		<tag k="name" v="Eikeliheia" />
		<tag k="natural" v="hill" />
		<tag k="place" v="locality" />
		<tag k="ssr:stedsnr" v="454886" />
	</node>
	<node lat="58.44519721901848" lon="8.766572214734156" id="-27014">
		<tag k="name" v="Svarteport" />
		<tag k="place" v="locality" />
		<tag k="ssr:stedsnr" v="454200" />
	</node>
	<node lat="58.48838055207814" lon="8.89224167493354" id="-27020">
		<tag k="name" v="Karishei" />
		<tag k="natural" v="hill" />
		<tag k="place" v="locality" />
		<tag k="ssr:stedsnr" v="454345" />
	</node>
	<node lat="58.50347222080095" lon="8.917002784489178" id="-27025">
		<tag k="name" v="Løkheia" />
		<tag k="natural" v="hill" />
		<tag k="place" v="locality" />
		<tag k="ssr:stedsnr" v="454045" />
	</node>
	<node lat="58.57670832909651" lon="8.843658334156943" id="-27027">
		<tag k="fixme" v="consider natural=peak for the most distinct mountains in the district" />
		<tag k="name" v="Stølsåsen" />
		<tag k="natural" v="hill" />
		<tag k="place" v="locality" />
		<tag k="ssr:stedsnr" v="454133" />
	</node>
	<node lat="58.479213891841994" lon="8.857275004687969" id="-27039">
		<tag k="fixme" v="consider natural=peak for the most distinct mountains in the district" />
		<tag k="name" v="Fabakkheia" />
		<tag k="natural" v="hill" />
		<tag k="place" v="locality" />
		<tag k="ssr:stedsnr" v="454394" />
	</node>
	<node lat="58.556794441209604" lon="8.796713881898713" id="-27045">
		<tag k="fixme" v="consider natural=peak for the most distinct mountains in the district" />
		<tag k="name" v="Flatefjell" />
		<tag k="natural" v="hill" />
		<tag k="place" v="locality" />
		<tag k="ssr:stedsnr" v="454445" />
	</node>
	<node lat="58.48656111426374" lon="8.72725555383472" id="-27049">
		<tag k="fixme" v="consider natural=peak for the most distinct mountains in the district" />
		<tag k="name" v="Timmeråsen" />
		<tag k="natural" v="hill" />
		<tag k="place" v="locality" />
		<tag k="ssr:stedsnr" v="454697" />
	</node>
	<node lat="58.49173332913345" lon="8.74755556105415" id="-27062">
		<tag k="fixme" v="consider natural=peak for the most distinct mountains in the district" />
		<tag k="name" v="Uglebuknuten" />
		<tag k="natural" v="hill" />
		<tag k="place" v="locality" />
		<tag k="ssr:stedsnr" v="454719" />
	</node>
	<node lat="58.5364611072965" lon="8.759547219020682" id="-27064">
		<tag k="fixme" v="consider natural=peak for the most distinct mountains in the district" />
		<tag k="name" v="Steilsåsen" />
		<tag k="natural" v="hill" />
		<tag k="place" v="locality" />
		<tag k="ssr:stedsnr" v="454744" />
	</node>
	<node lat="58.52203333305576" lon="8.759430559525859" id="-27068">
		<tag k="fixme" v="consider natural=peak for the most distinct mountains in the district" />
		<tag k="name" v="Åkonheia" />
		<tag k="natural" v="hill" />
		<tag k="place" v="locality" />
		<tag k="ssr:stedsnr" v="454751" />
	</node>
	<node lat="58.51852222261391" lon="8.853016666684052" id="-27071">
		<tag k="fixme" v="consider natural=peak for the most distinct mountains in the district" />
		<tag k="name" v="Lyngmyråsen" />
		<tag k="natural" v="hill" />
		<tag k="place" v="locality" />
		<tag k="ssr:stedsnr" v="454829" />
	</node>
	<node lat="58.44898333603187" lon="8.567211110235972" id="-27072">
		<tag k="name" v="Liene" />
		<tag k="natural" v="slope" />
		<tag k="place" v="locality" />
		<tag k="ssr:stedsnr" v="454834" />
	</node>
	<node lat="58.42916944867345" lon="8.57416945040876" id="-27074">
		<tag k="name" v="Kvitehei" />
		<tag k="natural" v="hill" />
		<tag k="place" v="locality" />
		<tag k="ssr:stedsnr" v="454841" />
	</node>
	<node lat="58.484830559940114" lon="8.51452776930891" id="-27078">
		<tag k="name" v="Gangvannslia" />
		<tag k="natural" v="slope" />
		<tag k="place" v="locality" />
		<tag k="ssr:stedsnr" v="454955" />
	</node>
	<node lat="58.43570277721219" lon="8.657277778219113" id="-27080">
		<tag k="fixme" v="consider natural=peak for the most distinct mountains in the district" />
		<tag k="name" v="Brunås" />
		<tag k="natural" v="hill" />
		<tag k="place" v="locality" />
		<tag k="ssr:stedsnr" v="454984" />
	</node>
	<node lat="58.47502221943229" lon="8.690344440556965" id="-27081">
		<tag k="fixme" v="consider natural=peak for the most distinct mountains in the district" />
		<tag k="name" v="Maurefjell" />
		<tag k="natural" v="hill" />
		<tag k="place" v="locality" />
		<tag k="ssr:stedsnr" v="454993" />
	</node>
	<node lat="58.553402778637775" lon="8.863127772247973" id="-27086">
		<tag k="fixme" v="consider natural=peak for the most distinct mountains in the district" />
		<tag k="name" v="Fiskebekkåsen" />
		<tag k="natural" v="hill" />
		<tag k="place" v="locality" />
		<tag k="ssr:stedsnr" v="272010" />
	</node>
	<node lat="58.54624166896769" lon="8.851455560900089" id="-27087">
		<tag k="fixme" v="consider natural=peak for the most distinct mountains in the district" />
		<tag k="name" v="Valåsen" />
		<tag k="natural" v="hill" />
		<tag k="place" v="locality" />
		<tag k="ssr:stedsnr" v="272024" />
	</node>
	<node lat="58.537336113210635" lon="8.903761107462241" id="-27090">
		<tag k="fixme" v="consider natural=peak for the most distinct mountains in the district" />
		<tag k="name" v="Kjørdalshei" />
		<tag k="natural" v="hill" />
		<tag k="place" v="locality" />
		<tag k="ssr:stedsnr" v="272105" />
	</node>
	<node lat="58.54795278008011" lon="8.929633334699984" id="-27091">
		<tag k="fixme" v="consider natural=peak for the most distinct mountains in the district" />
		<tag k="name" v="Gullbergåsen" />
		<tag k="natural" v="hill" />
		<tag k="place" v="locality" />
		<tag k="ssr:stedsnr" v="272107" />
	</node>
	<node lat="58.57956111274148" lon="8.840961105120595" id="-27095">
		<tag k="name" v="Svarvedalen" />
		<tag k="natural" v="valley" />
		<tag k="place" v="locality" />
		<tag k="ssr:stedsnr" v="272129" />
	</node>
	<node lat="58.588058329623" lon="8.83194999569496" id="-27097">
		<tag k="name" v="Vestre Skålandsdalen" />
		<tag k="natural" v="valley" />
		<tag k="place" v="locality" />
		<tag k="ssr:stedsnr" v="272144" />
	</node>
	<node lat="58.56185555713975" lon="8.943091667585927" id="-27099">
		<tag k="name" v="Stufjelldalen" />
		<tag k="natural" v="valley" />
		<tag k="place" v="locality" />
		<tag k="ssr:stedsnr" v="272208" />
	</node>
	<node lat="58.561963890693576" lon="8.986433329461033" id="-27101">
		<tag k="name" v="Syrdalen" />
		<tag k="natural" v="valley" />
		<tag k="place" v="locality" />
		<tag k="ssr:stedsnr" v="272214" />
	</node>
	<node lat="58.448013892704964" lon="8.858372219779767" id="-27108">
		<tag k="name" v="Flademoen" />
		<tag k="place" v="locality" />
		<tag k="ssr:stedsnr" v="272274" />
	</node>
	<node lat="58.46896388739159" lon="8.729038893602079" id="-27124">
		<tag k="name" v="Lauvheia" />
		<tag k="natural" v="hill" />
		<tag k="place" v="locality" />
		<tag k="ssr:stedsnr" v="272528" />
	</node>
	<node lat="58.441461111445086" lon="8.769997222831977" id="-27129">
		<tag k="fixme" v="consider natural=peak for the most distinct mountains in the district" />
		<tag k="name" v="Nuten" />
		<tag k="natural" v="hill" />
		<tag k="place" v="locality" />
		<tag k="ssr:stedsnr" v="272607" />
	</node>
	<node lat="58.52364166583049" lon="8.76193055531634" id="-27130">
		<tag k="name" v="Trolldalen" />
		<tag k="natural" v="valley" />
		<tag k="place" v="locality" />
		<tag k="ssr:stedsnr" v="272686" />
	</node>
	<node lat="58.5671583336424" lon="8.99197778165451" id="-27134">
		<tag k="name" v="Grandalsheiene" />
		<tag k="natural" v="hill" />
		<tag k="place" v="locality" />
		<tag k="ssr:stedsnr" v="272723" />
	</node>
	<node lat="58.42705555960512" lon="8.719747220773693" id="-27136">
		<tag k="fixme" v="consider natural=peak for the most distinct mountains in the district" />
		<tag k="name" v="Husefjell" />
		<tag k="natural" v="hill" />
		<tag k="place" v="locality" />
		<tag k="ssr:stedsnr" v="272732" />
	</node>
	<node lat="58.46260833081099" lon="8.624069444405908" id="-27144">
		<tag k="fixme" v="consider natural=peak for the most distinct mountains in the district" />
		<tag k="name" v="Husken" />
		<tag k="natural" v="hill" />
		<tag k="place" v="locality" />
		<tag k="ssr:stedsnr" v="272985" />
	</node>
	<node lat="58.576655557164585" lon="8.95218055009721" id="-27163">
		<tag k="fixme" v="consider natural=peak for the most distinct mountains in the district" />
		<tag k="name" v="Eikelandsheia" />
		<tag k="natural" v="hill" />
		<tag k="place" v="locality" />
		<tag k="ssr:stedsnr" v="304285" />
	</node>
	<node lat="58.57185833730216" lon="8.825224998054756" id="-27167">
		<tag k="fixme" v="consider natural=peak for the most distinct mountains in the district" />
		<tag k="name" v="Kjosåsen" />
		<tag k="natural" v="hill" />
		<tag k="place" v="locality" />
		<tag k="ssr:stedsnr" v="304867" />
	</node>
	<node lat="58.556900000543685" lon="8.99473889250204" id="-27174">
		<tag k="name" v="Gaufjell" />
		<tag k="natural" v="hill" />
		<tag k="place" v="locality" />
		<tag k="ssr:stedsnr" v="332198" />
	</node>
	<node lat="58.54428055821377" lon="8.846069448095191" id="-27176">
		<tag k="fixme" v="consider natural=peak for the most distinct mountains in the district" />
		<tag k="name" v="Nofjellheia" />
		<tag k="natural" v="hill" />
		<tag k="place" v="locality" />
		<tag k="ssr:stedsnr" v="333006" />
	</node>
	<node lat="58.5217305513942" lon="8.83014721559859" id="-27180">
		<tag k="fixme" v="consider natural=peak for the most distinct mountains in the district" />
		<tag k="name" v="Lille Blåfjell" />
		<tag k="natural" v="hill" />
		<tag k="place" v="locality" />
		<tag k="ssr:stedsnr" v="333067" />
	</node>
	<node lat="58.529691664336866" lon="8.896638889060275" id="-27181">
		<tag k="fixme" v="consider natural=peak for the most distinct mountains in the district" />
		<tag k="name" v="Museråheia" />
		<tag k="natural" v="hill" />
		<tag k="place" v="locality" />
		<tag k="ssr:stedsnr" v="333215" />
	</node>
	<node lat="58.542638888333144" lon="8.90296388856322" id="-27184">
		<tag k="fixme" v="consider natural=peak for the most distinct mountains in the district" />
		<tag k="name" v="Buråsen" />
		<tag k="natural" v="hill" />
		<tag k="place" v="locality" />
		<tag k="ssr:stedsnr" v="333103" />
	</node>
	<node lat="58.55526111186298" lon="8.921077781392137" id="-27185">
		<tag k="fixme" v="consider natural=peak for the most distinct mountains in the district" />
		<tag k="name" v="Bjellandsåsen" />
		<tag k="natural" v="hill" />
		<tag k="place" v="locality" />
		<tag k="ssr:stedsnr" v="333105" />
	</node>
	<node lat="58.566186109762256" lon="8.852622217298984" id="-27188">
		<tag k="name" v="Byttingsdalen" />
		<tag k="natural" v="valley" />
		<tag k="place" v="locality" />
		<tag k="ssr:stedsnr" v="333149" />
	</node>
	<node lat="58.497994442696005" lon="8.79976945176792" id="-27194">
		<tag k="fixme" v="consider natural=peak for the most distinct mountains in the district" />
		<tag k="name" v="Bjortjønnåsen" />
		<tag k="natural" v="hill" />
		<tag k="place" v="locality" />
		<tag k="ssr:stedsnr" v="333364" />
	</node>
	<node lat="58.58758888643669" lon="8.801922218008265" id="-27196">
		<tag k="fixme" v="consider natural=peak for the most distinct mountains in the district" />
		<tag k="name" v="Moltemyrheia" />
		<tag k="natural" v="hill" />
		<tag k="place" v="locality" />
		<tag k="ssr:stedsnr" v="333514" />
	</node>
	<node lat="58.460075001278206" lon="8.748416667764278" id="-27200">
		<tag k="fixme" v="consider natural=peak for the most distinct mountains in the district" />
		<tag k="name" v="Gåsåsen" />
		<tag k="natural" v="hill" />
		<tag k="place" v="locality" />
		<tag k="ssr:stedsnr" v="333563" />
	</node>
	<node lat="58.52026666576621" lon="8.784016666325707" id="-27202">
		<tag k="fixme" v="consider natural=peak for the most distinct mountains in the district" />
		<tag k="name" v="Storås" />
		<tag k="natural" v="hill" />
		<tag k="place" v="locality" />
		<tag k="ssr:stedsnr" v="333414" />
	</node>
	<node lat="58.52337777557385" lon="8.773261105506986" id="-27203">
		<tag k="fixme" v="consider natural=peak for the most distinct mountains in the district" />
		<tag k="name" v="Lindåsen" />
		<tag k="natural" v="hill" />
		<tag k="place" v="locality" />
		<tag k="ssr:stedsnr" v="333420" />
	</node>
	<node lat="58.528302780626746" lon="8.775544442994521" id="-27204">
		<tag k="fixme" v="consider natural=peak for the most distinct mountains in the district" />
		<tag k="name" v="Reglandsåsen" />
		<tag k="natural" v="hill" />
		<tag k="place" v="locality" />
		<tag k="ssr:stedsnr" v="333421" />
	</node>
	<node lat="58.57164721912389" lon="8.824997214771075" id="-27207">
		<tag k="fixme" v="consider natural=peak for the most distinct mountains in the district" />
		<tag k="name" v="Voksåsen" />
		<tag k="natural" v="hill" />
		<tag k="place" v="locality" />
		<tag k="ssr:stedsnr" v="333497" />
	</node>
	<node lat="58.525680558346565" lon="8.736947218083419" id="-27210">
		<tag k="fixme" v="consider natural=peak for the most distinct mountains in the district" />
		<tag k="name" v="Bukkebladknatten" />
		<tag k="natural" v="hill" />
		<tag k="place" v="locality" />
		<tag k="ssr:stedsnr" v="333747" />
	</node>
	<node lat="58.56915833382257" lon="8.958036112523823" id="-27213">
		<tag k="name" v="Nesheia" />
		<tag k="natural" v="hill" />
		<tag k="place" v="locality" />
		<tag k="ssr:stedsnr" v="333766" />
	</node>
	<node lat="58.467674996000355" lon="8.508769437951527" id="-27215">
		<tag k="name" v="Surtemyrdalen" />
		<tag k="natural" v="valley" />
		<tag k="place" v="locality" />
		<tag k="ssr:stedsnr" v="333910" />
	</node>
	<node lat="58.53820833048614" lon="8.852105550336553" id="-27219">
		<tag k="alt_name" v="Mønåsen" />
		<tag k="fixme" v="consider natural=peak for the most distinct mountains in the district" />
		<tag k="name" v="Møneåsen" />
		<tag k="natural" v="hill" />
		<tag k="place" v="locality" />
		<tag k="ssr:stedsnr" v="333805" />
	</node>
	<node lat="58.45158055433226" lon="8.559499996544252" id="-27221">
		<tag k="fixme" v="consider natural=peak for the most distinct mountains in the district" />
		<tag k="name" v="Nævisdalheia" />
		<tag k="natural" v="hill" />
		<tag k="place" v="locality" />
		<tag k="ssr:stedsnr" v="333822" />
	</node>
	<node lat="58.54617935697211" lon="8.971129825059085" id="-27251">
		<tag k="fixme" v="consider natural=peak for the most distinct mountains in the district" />
		<tag k="name" v="Valåsen" />
		<tag k="natural" v="hill" />
		<tag k="place" v="locality" />
		<tag k="ssr:stedsnr" v="392307" />
	</node>
	<node lat="58.55188333636811" lon="8.91934444366666" id="-27254">
		<tag k="fixme" v="consider natural=peak for the most distinct mountains in the district" />
		<tag k="name" v="Grisåsen" />
		<tag k="natural" v="hill" />
		<tag k="place" v="locality" />
		<tag k="ssr:stedsnr" v="393036" />
	</node>
	<node lat="58.42048888976664" lon="8.633986103410832" id="-27266">
		<tag k="fixme" v="consider natural=peak for the most distinct mountains in the district" />
		<tag k="name" v="Eigeliheia" />
		<tag k="natural" v="hill" />
		<tag k="place" v="locality" />
		<tag k="ssr:stedsnr" v="393515" />
	</node>
	<node lat="58.534541669522795" lon="8.802494450786833" id="-27270">
		<tag k="name" v="Antonskleiva" />
		<tag k="natural" v="slope" />
		<tag k="place" v="locality" />
		<tag k="ssr:stedsnr" v="393408" />
	</node>
	<node lat="58.461380556000236" lon="8.637355559646279" id="-27285">
		<tag k="fixme" v="consider natural=peak for the most distinct mountains in the district" />
		<tag k="name" v="Husfjell" />
		<tag k="natural" v="hill" />
		<tag k="place" v="locality" />
		<tag k="ssr:stedsnr" v="393933" />
	</node>
	<node lat="58.4303416700905" lon="8.590911117466021" id="-27288">
		<tag k="fixme" v="consider natural=peak for the most distinct mountains in the district" />
		<tag k="name" v="Skjersvollåsen" />
		<tag k="natural" v="hill" />
		<tag k="place" v="locality" />
		<tag k="ssr:stedsnr" v="393817" />
	</node>
	<node lat="58.41921389211631" lon="8.573077774402003" id="-27290">
		<tag k="name" v="Urgjelet" />
		<tag k="natural" v="valley" />
		<tag k="place" v="locality" />
		<tag k="ssr:stedsnr" v="393822" />
	</node>
	<node lat="58.44931667020432" lon="8.55365555758237" id="-27294">
		<tag k="name" v="Lauvdalen" />
		<tag k="natural" v="valley" />
		<tag k="place" v="locality" />
		<tag k="ssr:stedsnr" v="393891" />
	</node>
	<node lat="58.455397225428854" lon="8.583366660287899" id="-27296">
		<tag k="fixme" v="consider natural=peak for the most distinct mountains in the district" />
		<tag k="name" v="Bjørndalsheia" />
		<tag k="natural" v="hill" />
		<tag k="place" v="locality" />
		<tag k="ssr:stedsnr" v="393897" />
	</node>
	<node lat="58.443441664360456" lon="8.533241661588782" id="-27297">
		<tag k="name" v="Bordalen" />
		<tag k="natural" v="valley" />
		<tag k="place" v="locality" />
		<tag k="ssr:stedsnr" v="393900" />
	</node>
	<node lat="58.52266666956458" lon="8.883802775105432" id="-27312">
		<tag k="fixme" v="consider natural=peak for the most distinct mountains in the district" />
		<tag k="name" v="Esperåsen" />
		<tag k="natural" v="hill" />
		<tag k="place" v="locality" />
		<tag k="ssr:stedsnr" v="272178" />
	</node>
	<node lat="58.52805555904491" lon="8.947702772901557" id="-27314">
		<tag k="fixme" v="consider natural=peak for the most distinct mountains in the district" />
		<tag k="name" v="Sandvikåsen" />
		<tag k="natural" v="hill" />
		<tag k="place" v="locality" />
		<tag k="ssr:stedsnr" v="272189" />
	</node>
	<node lat="58.54858055492616" lon="8.754463880454583" id="-27322">
		<tag k="name" v="Fjærbuheia" />
		<tag k="natural" v="hill" />
		<tag k="place" v="locality" />
		<tag k="ssr:stedsnr" v="486687" />
	</node>
	<node lat="58.46666666621682" lon="8.533333332746176" id="-27333">
		<tag k="name" v="Homborsundfallet" />
		<tag k="natural" v="cliff" />
		<tag k="ssr:stedsnr" v="423821" />
	</node>
	<node lat="58.60361389287675" lon="8.816911116831887" id="-27343">
		<tag k="name" v="Lomannsringen" />
		<tag k="natural" v="hill" />
		<tag k="place" v="locality" />
		<tag k="ssr:stedsnr" v="425800" />
	</node>
	<node lat="58.514136107562436" lon="8.916769438458225" id="-27350">
		<tag k="fixme" v="consider natural=peak for the most distinct mountains in the district" />
		<tag k="name" v="Lyfjell" />
		<tag k="natural" v="hill" />
		<tag k="place" v="locality" />
		<tag k="ssr:stedsnr" v="272044" />
	</node>
	<node lat="58.52974166767848" lon="8.828011108311557" id="-27353">
		<tag k="name" v="Brovolldalen" />
		<tag k="natural" v="valley" />
		<tag k="place" v="locality" />
		<tag k="ssr:stedsnr" v="272068" />
	</node>
	<node lat="58.53109167037318" lon="8.868161107056725" id="-27362">
		<tag k="fixme" v="consider natural=peak for the most distinct mountains in the district" />
		<tag k="name" v="Rullebordheia" />
		<tag k="natural" v="hill" />
		<tag k="place" v="locality" />
		<tag k="ssr:stedsnr" v="454062" />
	</node>
	<node lat="58.53342777904061" lon="8.841155553996726" id="-27363">
		<tag k="fixme" v="consider natural=peak for the most distinct mountains in the district" />
		<tag k="name" v="Skarpåsen" />
		<tag k="natural" v="hill" />
		<tag k="place" v="locality" />
		<tag k="ssr:stedsnr" v="454065" />
	</node>
	<node lat="58.536458331534874" lon="8.831955551948546" id="-27364">
		<tag k="fixme" v="consider natural=peak for the most distinct mountains in the district" />
		<tag k="name" v="Harstadåsen" />
		<tag k="natural" v="hill" />
		<tag k="place" v="locality" />
		<tag k="ssr:stedsnr" v="454070" />
	</node>
	<node lat="58.529016669836864" lon="8.84759167493621" id="-27366">
		<tag k="fixme" v="consider natural=peak for the most distinct mountains in the district" />
		<tag k="name" v="Træfjell" />
		<tag k="natural" v="hill" />
		<tag k="place" v="locality" />
		<tag k="ssr:stedsnr" v="454120" />
	</node>
	<node lat="58.52911666537749" lon="8.861691673116397" id="-27367">
		<tag k="fixme" v="consider natural=peak for the most distinct mountains in the district" />
		<tag k="name" v="Tjønneråsen" />
		<tag k="natural" v="hill" />
		<tag k="place" v="locality" />
		<tag k="ssr:stedsnr" v="454128" />
	</node>
	<node lat="58.52722777661158" lon="8.927988895215567" id="-27372">
		<tag k="fixme" v="consider natural=peak for the most distinct mountains in the district" />
		<tag k="name" v="Traneheia" />
		<tag k="natural" v="hill" />
		<tag k="place" v="locality" />
		<tag k="ssr:stedsnr" v="454172" />
	</node>
	<node lat="58.52709166232182" lon="8.933566674870368" id="-27373">
		<tag k="fixme" v="consider natural=peak for the most distinct mountains in the district" />
		<tag k="name" v="Bronfjell" />
		<tag k="natural" v="hill" />
		<tag k="place" v="locality" />
		<tag k="ssr:stedsnr" v="454173" />
	</node>
	<node lat="58.54019444602154" lon="8.948466660069807" id="-27376">
		<tag k="fixme" v="consider natural=peak for the most distinct mountains in the district" />
		<tag k="name" v="Finnskottknatten" />
		<tag k="natural" v="hill" />
		<tag k="place" v="locality" />
		<tag k="ssr:stedsnr" v="454263" />
	</node>
	<node lat="58.47794722349674" lon="8.862008338359285" id="-27377">
		<tag k="name" v="Sandneslihaven" />
		<tag k="natural" v="slope" />
		<tag k="place" v="locality" />
		<tag k="ssr:stedsnr" v="454271" />
	</node>
	<node lat="58.59590000390491" lon="8.817566658746125" id="-27378">
		<tag k="name" v="Slåttemyrheia" />
		<tag k="natural" v="hill" />
		<tag k="place" v="locality" />
		<tag k="ssr:stedsnr" v="454402" />
	</node>
	<node lat="58.5137888883418" lon="8.807377769258972" id="-27380">
		<tag k="fixme" v="consider natural=peak for the most distinct mountains in the district" />
		<tag k="name" v="Gjestknatten" />
		<tag k="natural" v="hill" />
		<tag k="place" v="locality" />
		<tag k="ssr:stedsnr" v="454366" />
	</node>
	<node lat="58.48702499817153" lon="8.91172222409951" id="-27382">
		<tag k="fixme" v="consider natural=peak for the most distinct mountains in the district" />
		<tag k="name" v="Valåsen" />
		<tag k="natural" v="hill" />
		<tag k="place" v="locality" />
		<tag k="ssr:stedsnr" v="454372" />
	</node>
	<node lat="58.450611115560264" lon="8.728691663847144" id="-27394">
		<tag k="fixme" v="consider natural=peak for the most distinct mountains in the district" />
		<tag k="name" v="Storefjell" />
		<tag k="natural" v="hill" />
		<tag k="place" v="locality" />
		<tag k="ssr:stedsnr" v="454808" />
	</node>
	<node lat="58.44522777946322" lon="8.730494446817229" id="-27395">
		<tag k="name" v="Trolldalen" />
		<tag k="natural" v="valley" />
		<tag k="place" v="locality" />
		<tag k="ssr:stedsnr" v="454810" />
	</node>
	<node lat="58.43616666238724" lon="8.745486118476231" id="-27397">
		<tag k="fixme" v="consider natural=peak for the most distinct mountains in the district" />
		<tag k="name" v="Solåsen" />
		<tag k="natural" v="hill" />
		<tag k="place" v="locality" />
		<tag k="ssr:stedsnr" v="454820" />
	</node>
	<node lat="58.443822226262206" lon="8.55110000774155" id="-27399">
		<tag k="fixme" v="consider natural=peak for the most distinct mountains in the district" />
		<tag k="name" v="Såbuheia" />
		<tag k="natural" v="hill" />
		<tag k="place" v="locality" />
		<tag k="ssr:stedsnr" v="454874" />
	</node>
	<node lat="58.43546351063096" lon="8.590010536716772" id="-27400">
		<tag k="name" v="Jamsmoen" />
		<tag k="place" v="locality" />
		<tag k="ssr:stedsnr" v="454879" />
	</node>
	<node lat="58.53500833661649" lon="8.745005549254453" id="-27403">
		<tag k="fixme" v="consider natural=peak for the most distinct mountains in the district" />
		<tag k="name" v="Blåfjell" />
		<tag k="natural" v="hill" />
		<tag k="place" v="locality" />
		<tag k="ssr:stedsnr" v="454769" />
	</node>
	<node lat="58.41575555917905" lon="8.67610276931848" id="-27406">
		<tag k="name" v="Kverndalen" />
		<tag k="natural" v="valley" />
		<tag k="place" v="locality" />
		<tag k="ssr:stedsnr" v="454780" />
	</node>
	<node lat="58.45279999662166" lon="8.64662776931451" id="-27408">
		<tag k="fixme" v="consider natural=peak for the most distinct mountains in the district" />
		<tag k="name" v="Ribbåsen" />
		<tag k="natural" v="hill" />
		<tag k="place" v="locality" />
		<tag k="ssr:stedsnr" v="454969" />
	</node>
	<node lat="58.446916667426294" lon="8.718108325229007" id="-27412">
		<tag k="fixme" v="consider natural=peak for the most distinct mountains in the district" />
		<tag k="name" v="Høyåsen" />
		<tag k="natural" v="hill" />
		<tag k="place" v="locality" />
		<tag k="ssr:stedsnr" v="272238" />
	</node>
	<node lat="58.50795555629303" lon="8.702744440955478" id="-27433">
		<tag k="alt_name" v="Tveitheia" />
		<tag k="name" v="Tveiteheia" />
		<tag k="natural" v="hill" />
		<tag k="place" v="locality" />
		<tag k="ssr:stedsnr" v="486517" />
	</node>
	<node lat="58.55242221974086" lon="8.825580559775693" id="-27458">
		<tag k="fixme" v="consider natural=peak for the most distinct mountains in the district" />
		<tag k="name" v="Blautekjerr" />
		<tag k="natural" v="hill" />
		<tag k="place" v="locality" />
		<tag k="ssr:stedsnr" v="515019" />
	</node>
	<node lat="58.41830278179329" lon="8.73190556022515" id="-27459">
		<tag k="name" v="Røysa" />
		<tag k="natural" v="hill" />
		<tag k="place" v="locality" />
		<tag k="ssr:stedsnr" v="515205" />
	</node>
	<node lat="58.48328611116142" lon="8.858822221742443" id="-27467">
		<tag k="fixme" v="consider natural=peak for the most distinct mountains in the district" />
		<tag k="name" v="Fløyheia" />
		<tag k="natural" v="hill" />
		<tag k="place" v="locality" />
		<tag k="ssr:stedsnr" v="515267" />
	</node>
	<node lat="58.57610833560095" lon="8.833924992787622" id="-27470">
		<tag k="fixme" v="consider natural=peak for the most distinct mountains in the district" />
		<tag k="name" v="Landbøåsen" />
		<tag k="natural" v="hill" />
		<tag k="place" v="locality" />
		<tag k="ssr:stedsnr" v="515170" />
	</node>
	<node lat="58.482602777761784" lon="8.887744443798649" id="-27479">
		<tag k="fixme" v="consider natural=peak for the most distinct mountains in the district" />
		<tag k="name" v="Tykkedøl" />
		<tag k="natural" v="hill" />
		<tag k="place" v="locality" />
		<tag k="ssr:stedsnr" v="515372" />
	</node>
	<node lat="58.52570277687455" lon="8.78381388733689" id="-27481">
		<tag k="fixme" v="consider natural=peak for the most distinct mountains in the district" />
		<tag k="name" v="Engelstjønnheia" />
		<tag k="natural" v="hill" />
		<tag k="place" v="locality" />
		<tag k="ssr:stedsnr" v="515402" />
	</node>
	<node lat="58.464636112931714" lon="8.78354999515665" id="-27486">
		<tag k="fixme" v="consider natural=peak for the most distinct mountains in the district" />
		<tag k="name" v="Kuvigheia" />
		<tag k="natural" v="hill" />
		<tag k="place" v="locality" />
		<tag k="ssr:stedsnr" v="515610" />
	</node>
	<node lat="58.46867777929168" lon="8.819333339840375" id="-27487">
		<tag k="name" v="Brattopsa" />
		<tag k="natural" v="cliff" />
		<tag k="ssr:stedsnr" v="515611" />
	</node>
	<node lat="58.46631389262" lon="8.748883328764482" id="-27491">
		<tag k="fixme" v="consider natural=peak for the most distinct mountains in the district" />
		<tag k="name" v="Furukollen" />
		<tag k="natural" v="hill" />
		<tag k="place" v="locality" />
		<tag k="ssr:stedsnr" v="515593" />
	</node>
	<node lat="58.57838055343831" lon="8.98660832777115" id="-27498">
		<tag k="name" v="Simien" />
		<tag k="natural" v="cliff" />
		<tag k="ssr:stedsnr" v="515766" />
	</node>
	<node lat="58.57773611164486" lon="8.981708338798793" id="-27499">
		<tag k="name" v="Bronheiene" />
		<tag k="natural" v="hill" />
		<tag k="place" v="locality" />
		<tag k="ssr:stedsnr" v="515768" />
	</node>
	<node lat="58.42116111408814" lon="8.675866667558827" id="-27500">
		<tag k="fixme" v="consider natural=peak for the most distinct mountains in the district" />
		<tag k="name" v="Brenteheia" />
		<tag k="natural" v="hill" />
		<tag k="place" v="locality" />
		<tag k="ssr:stedsnr" v="515769" />
	</node>
	<node lat="58.50343889292143" lon="8.755944452083945" id="-27503">
		<tag k="fixme" v="consider natural=peak for the most distinct mountains in the district" />
		<tag k="name" v="Blautemyrheia" />
		<tag k="natural" v="hill" />
		<tag k="place" v="locality" />
		<tag k="ssr:stedsnr" v="515677" />
	</node>
	<node lat="58.508805558205545" lon="8.726374996976196" id="-27516">
		<tag k="fixme" v="consider natural=peak for the most distinct mountains in the district" />
		<tag k="name" v="Rautåsen" />
		<tag k="natural" v="hill" />
		<tag k="place" v="locality" />
		<tag k="ssr:stedsnr" v="546471" />
	</node>
	<node lat="58.5752194444224" lon="8.790938895687708" id="-27528">
		<tag k="name" v="Graneheia" />
		<tag k="natural" v="hill" />
		<tag k="place" v="locality" />
		<tag k="ssr:stedsnr" v="547879" />
	</node>
	<node lat="58.52947500147113" lon="8.852794440555977" id="-27529">
		<tag k="fixme" v="consider natural=peak for the most distinct mountains in the district" />
		<tag k="name" v="Myråsen" />
		<tag k="natural" v="hill" />
		<tag k="place" v="locality" />
		<tag k="ssr:stedsnr" v="758082" />
	</node>
	<node lat="58.50657500223362" lon="8.832708341521938" id="-27530">
		<tag k="fixme" v="consider natural=peak for the most distinct mountains in the district" />
		<tag k="name" v="Brunåsen" />
		<tag k="natural" v="hill" />
		<tag k="place" v="locality" />
		<tag k="ssr:stedsnr" v="272439" />
	</node>
	<node lat="58.476330553248005" lon="8.811427772092118" id="-27541">
		<tag k="fixme" v="consider natural=peak for the most distinct mountains in the district" />
		<tag k="name" v="Taksterås" />
		<tag k="natural" v="hill" />
		<tag k="place" v="locality" />
		<tag k="ssr:stedsnr" v="573305" />
	</node>
	<node lat="58.52776666390296" lon="8.842819438452148" id="-27544">
		<tag k="name" v="Ormefjell" />
		<tag k="natural" v="hill" />
		<tag k="place" v="locality" />
		<tag k="ssr:stedsnr" v="575064" />
	</node>
	<node lat="58.541955554248716" lon="8.919080560011395" id="-27546">
		<tag k="fixme" v="consider natural=peak for the most distinct mountains in the district" />
		<tag k="name" v="Bjørnefjell" />
		<tag k="natural" v="hill" />
		<tag k="place" v="locality" />
		<tag k="ssr:stedsnr" v="575095" />
	</node>
	<node lat="58.53581944271475" lon="8.954561104637015" id="-27552">
		<tag k="name" v="Langmyrryggen" />
		<tag k="natural" v="hill" />
		<tag k="place" v="locality" />
		<tag k="ssr:stedsnr" v="575216" />
	</node>
	<node lat="58.5492444482309" lon="8.948155548474647" id="-27554">
		<tag k="fixme" v="consider natural=peak for the most distinct mountains in the district" />
		<tag k="name" v="Buhei" />
		<tag k="natural" v="hill" />
		<tag k="place" v="locality" />
		<tag k="ssr:stedsnr" v="575220" />
	</node>
	<node lat="58.5192527760505" lon="8.920405547240177" id="-27556">
		<tag k="fixme" v="consider natural=peak for the most distinct mountains in the district" />
		<tag k="name" v="Solåsen" />
		<tag k="natural" v="hill" />
		<tag k="place" v="locality" />
		<tag k="ssr:stedsnr" v="575147" />
	</node>
	<node lat="58.50030555891947" lon="8.814227778330318" id="-27558">
		<tag k="name" v="Heftingdalen" />
		<tag k="natural" v="valley" />
		<tag k="place" v="locality" />
		<tag k="ssr:stedsnr" v="575309" />
	</node>
	<node lat="58.57729166763663" lon="8.799988885274049" id="-27564">
		<tag k="name" v="Øynesdalen" />
		<tag k="natural" v="valley" />
		<tag k="place" v="locality" />
		<tag k="ssr:stedsnr" v="575455" />
	</node>
	<node lat="58.43762222418379" lon="8.623499993256909" id="-27566">
		<tag k="fixme" v="consider natural=peak for the most distinct mountains in the district" />
		<tag k="name" v="Svartups" />
		<tag k="natural" v="hill" />
		<tag k="place" v="locality" />
		<tag k="ssr:stedsnr" v="575495" />
	</node>
	<node lat="58.42556944536558" lon="8.612927777063154" id="-27567">
		<tag k="fixme" v="consider natural=peak for the most distinct mountains in the district" />
		<tag k="name" v="Ravnåsen" />
		<tag k="natural" v="hill" />
		<tag k="place" v="locality" />
		<tag k="ssr:stedsnr" v="575498" />
	</node>
	<node lat="58.49704722248155" lon="8.710811117372119" id="-27572">
		<tag k="fixme" v="consider natural=peak for the most distinct mountains in the district" />
		<tag k="name" v="Eikåsen" />
		<tag k="natural" v="hill" />
		<tag k="place" v="locality" />
		<tag k="ssr:stedsnr" v="575505" />
	</node>
	<node lat="58.42618333525552" lon="8.802961102649398" id="-27573">
		<tag k="name" v="Huseberget" />
		<tag k="natural" v="hill" />
		<tag k="place" v="locality" />
		<tag k="ssr:stedsnr" v="575512" />
	</node>
	<node lat="58.425516669954085" lon="8.799452785308764" id="-27574">
		<tag k="name" v="Vestre valen" />
		<tag k="natural" v="hill" />
		<tag k="place" v="locality" />
		<tag k="ssr:stedsnr" v="575519" />
	</node>
	<node lat="58.46772777521025" lon="8.7617194501863" id="-27575">
		<tag k="fixme" v="consider natural=peak for the most distinct mountains in the district" />
		<tag k="name" v="Håveheia" />
		<tag k="natural" v="hill" />
		<tag k="place" v="locality" />
		<tag k="ssr:stedsnr" v="575559" />
	</node>
	<node lat="58.43196667047643" lon="8.52882499506368" id="-27581">
		<tag k="fixme" v="consider natural=peak for the most distinct mountains in the district" />
		<tag k="name" v="Kollåsen" />
		<tag k="natural" v="hill" />
		<tag k="place" v="locality" />
		<tag k="ssr:stedsnr" v="575904" />
	</node>
	<node lat="58.470261111364266" lon="8.643655556561088" id="-27585">
		<tag k="fixme" v="consider natural=peak for the most distinct mountains in the district" />
		<tag k="name" v="Sigurdsåsen" />
		<tag k="natural" v="hill" />
		<tag k="place" v="locality" />
		<tag k="ssr:stedsnr" v="575947" />
	</node>
	<node lat="58.50312500274637" lon="8.740036118642076" id="-27587">
		<tag k="fixme" v="consider natural=peak for the most distinct mountains in the district" />
		<tag k="name" v="Nesheia" />
		<tag k="natural" v="hill" />
		<tag k="place" v="locality" />
		<tag k="ssr:stedsnr" v="575650" />
	</node>
	<node lat="58.42376667049555" lon="8.567241660646387" id="-27588">
		<tag k="name" v="Helvedesskot" />
		<tag k="natural" v="slope" />
		<tag k="old_name" v="Helvdesskot" />
		<tag k="place" v="locality" />
		<tag k="ssr:stedsnr" v="575806" />
	</node>
	<node lat="58.440808332086476" lon="8.570988887603628" id="-27590">
		<tag k="fixme" v="consider natural=peak for the most distinct mountains in the district" />
		<tag k="name" v="Såbuknollen" />
		<tag k="natural" v="hill" />
		<tag k="place" v="locality" />
		<tag k="ssr:stedsnr" v="575813" />
	</node>
	<node lat="58.45144721964884" lon="8.591938882001166" id="-27596">
		<tag k="name" v="Langedal" />
		<tag k="natural" v="valley" />
		<tag k="place" v="locality" />
		<tag k="ssr:stedsnr" v="575863" />
	</node>
	<node lat="58.54323055276397" lon="8.978850004464798" id="-27601">
		<tag k="fixme" v="consider natural=peak for the most distinct mountains in the district" />
		<tag k="name" v="Greven" />
		<tag k="natural" v="hill" />
		<tag k="place" v="locality" />
		<tag k="ssr:stedsnr" v="695296" />
	</node>
	<node lat="58.503644444426676" lon="8.920969435933614" id="-27606">
		<tag k="fixme" v="consider natural=peak for the most distinct mountains in the district" />
		<tag k="name" v="Laråsen" />
		<tag k="natural" v="hill" />
		<tag k="place" v="locality" />
		<tag k="ssr:stedsnr" v="697050" />
	</node>
	<node lat="58.553005554202976" lon="8.932369449339705" id="-27607">
		<tag k="fixme" v="consider natural=peak for the most distinct mountains in the district" />
		<tag k="name" v="Rånåsen" />
		<tag k="natural" v="hill" />
		<tag k="place" v="locality" />
		<tag k="ssr:stedsnr" v="697125" />
	</node>
	<node lat="58.543411113945226" lon="8.917705558714285" id="-27608">
		<tag k="fixme" v="consider natural=peak for the most distinct mountains in the district" />
		<tag k="name" v="Husefjell" />
		<tag k="natural" v="hill" />
		<tag k="place" v="locality" />
		<tag k="ssr:stedsnr" v="697113" />
	</node>
	<node lat="58.57215000316866" lon="8.852655546965295" id="-27613">
		<tag k="fixme" v="consider natural=peak for the most distinct mountains in the district" />
		<tag k="name" v="Middagsheia" />
		<tag k="natural" v="hill" />
		<tag k="place" v="locality" />
		<tag k="ssr:stedsnr" v="697148" />
	</node>
	<node lat="58.52523610676952" lon="8.927127781048139" id="-27614">
		<tag k="fixme" v="consider natural=peak for the most distinct mountains in the district" />
		<tag k="name" v="Ingarsåsen" />
		<tag k="natural" v="hill" />
		<tag k="place" v="locality" />
		<tag k="ssr:stedsnr" v="697199" />
	</node>
	<node lat="58.58179166232437" lon="8.96576111368219" id="-27621">
		<tag k="fixme" v="consider natural=peak for the most distinct mountains in the district" />
		<tag k="name" v="Korsheia" />
		<tag k="natural" v="hill" />
		<tag k="place" v="locality" />
		<tag k="ssr:stedsnr" v="697237" />
	</node>
	<node lat="58.407749995890086" lon="8.705827770284321" id="-27623">
		<tag k="fixme" v="consider natural=peak for the most distinct mountains in the district" />
		<tag k="name" v="Grubenåsen" />
		<tag k="natural" v="hill" />
		<tag k="place" v="locality" />
		<tag k="ssr:stedsnr" v="697277" />
	</node>
	<node lat="58.431716665029946" lon="8.755149993873273" id="-27625">
		<tag k="fixme" v="consider natural=peak for the most distinct mountains in the district" />
		<tag k="name" v="Indre Lundåsen" />
		<tag k="natural" v="hill" />
		<tag k="place" v="locality" />
		<tag k="ssr:stedsnr" v="697280" />
	</node>
	<node lat="58.547483330260576" lon="8.94063056058934" id="-27628">
		<tag k="fixme" v="consider natural=peak for the most distinct mountains in the district" />
		<tag k="name" v="Skifjell" />
		<tag k="natural" v="hill" />
		<tag k="place" v="locality" />
		<tag k="ssr:stedsnr" v="697248" />
	</node>
	<node lat="58.54795277974429" lon="8.765247230184203" id="-27634">
		<tag k="name" v="Byttingsdalen" />
		<tag k="natural" v="valley" />
		<tag k="place" v="locality" />
		<tag k="ssr:stedsnr" v="697343" />
	</node>
	<node lat="58.528241664719076" lon="8.819908341053036" id="-27636">
		<tag k="name" v="Skibakkeheia" />
		<tag k="natural" v="hill" />
		<tag k="place" v="locality" />
		<tag k="ssr:stedsnr" v="697410" />
	</node>
	<node lat="58.582477778910174" lon="8.774338891649174" id="-27637">
		<tag k="name" v="Lille Romsknatten" />
		<tag k="natural" v="hill" />
		<tag k="place" v="locality" />
		<tag k="ssr:stedsnr" v="697489" />
	</node>
	<node lat="58.4207666677697" lon="8.628372225429768" id="-27639">
		<tag k="name" v="Kvassheia" />
		<tag k="natural" v="ridge" />
		<tag k="place" v="locality" />
		<tag k="ssr:stedsnr" v="697496" />
	</node>
	<node lat="58.557513886728856" lon="8.783175004313312" id="-27641">
		<tag k="name" v="Kallestadmoen" />
		<tag k="place" v="locality" />
		<tag k="ssr:stedsnr" v="697435" />
	</node>
	<node lat="58.515288887250975" lon="8.860347223860012" id="-27645">
		<tag k="name" v="Slettheia" />
		<tag k="natural" v="hill" />
		<tag k="place" v="locality" />
		<tag k="ssr:stedsnr" v="697451" />
	</node>
	<node lat="58.42361388479588" lon="8.57386666574327" id="-27652">
		<tag k="fixme" v="consider natural=peak for the most distinct mountains in the district" />
		<tag k="name" v="Mjølbæråsen" />
		<tag k="natural" v="hill" />
		<tag k="place" v="locality" />
		<tag k="ssr:stedsnr" v="697835" />
	</node>
	<node lat="58.51167778078118" lon="8.767286113602296" id="-27659">
		<tag k="fixme" v="consider natural=peak for the most distinct mountains in the district" />
		<tag k="name" v="Loneheia" />
		<tag k="natural" v="hill" />
		<tag k="place" v="locality" />
		<tag k="ssr:stedsnr" v="697638" />
	</node>
	<node lat="58.440252777493065" lon="8.789883328853875" id="-27660">
		<tag k="name" v="Åsen" />
		<tag k="natural" v="slope" />
		<tag k="place" v="locality" />
		<tag k="ssr:stedsnr" v="697641" />
	</node>
	<node lat="58.50649166422347" lon="8.723827770406519" id="-27661">
		<tag k="fixme" v="consider natural=peak for the most distinct mountains in the district" />
		<tag k="name" v="Byttesteinsheia" />
		<tag k="natural" v="hill" />
		<tag k="place" v="locality" />
		<tag k="ssr:stedsnr" v="697647" />
	</node>
	<node lat="58.4423611136178" lon="8.727288888583686" id="-27665">
		<tag k="fixme" v="consider natural=peak for the most distinct mountains in the district" />
		<tag k="name" v="Monehei" />
		<tag k="natural" v="hill" />
		<tag k="place" v="locality" />
		<tag k="ssr:stedsnr" v="697787" />
	</node>
	<node lat="58.44504999566025" lon="8.72938333651264" id="-27667">
		<tag k="fixme" v="consider natural=peak for the most distinct mountains in the district" />
		<tag k="name" v="Monåsen" />
		<tag k="natural" v="hill" />
		<tag k="place" v="locality" />
		<tag k="ssr:stedsnr" v="697795" />
	</node>
	<node lat="58.4461777744949" lon="8.543450002987875" id="-27671">
		<tag k="fixme" v="consider natural=peak for the most distinct mountains in the district" />
		<tag k="name" v="Nordheia" />
		<tag k="natural" v="hill" />
		<tag k="place" v="locality" />
		<tag k="ssr:stedsnr" v="697855" />
	</node>
	<node lat="58.47080000316447" lon="8.532897215206367" id="-27675">
		<tag k="name" v="Krybbedalen" />
		<tag k="natural" v="valley" />
		<tag k="place" v="locality" />
		<tag k="ssr:stedsnr" v="697897" />
	</node>
	<node lat="58.43679722214517" lon="8.646986104762142" id="-27676">
		<tag k="fixme" v="consider natural=peak for the most distinct mountains in the district" />
		<tag k="name" v="Ribbåsen" />
		<tag k="natural" v="hill" />
		<tag k="place" v="locality" />
		<tag k="ssr:stedsnr" v="697929" />
	</node>
	<node lat="58.441244447208646" lon="8.614755553463382" id="-27677">
		<tag k="fixme" v="consider natural=peak for the most distinct mountains in the district" />
		<tag k="name" v="Øysåsen" />
		<tag k="natural" v="hill" />
		<tag k="place" v="locality" />
		<tag k="ssr:stedsnr" v="697944" />
	</node>
	<node lat="58.46780555822896" lon="8.763883329307276" id="-27693">
		<tag k="name" v="Barbudalen" />
		<tag k="natural" v="valley" />
		<tag k="place" v="locality" />
		<tag k="ssr:stedsnr" v="607653" />
	</node>
	<node lat="58.59071388827412" lon="8.803094443878454" id="-27694">
		<tag k="name" v="Skyldkorsheia" />
		<tag k="natural" v="hill" />
		<tag k="place" v="locality" />
		<tag k="ssr:stedsnr" v="607801" />
	</node>
	<node lat="58.568447225065576" lon="8.993966671881276" id="-27704">
		<tag k="fixme" v="consider natural=peak for the most distinct mountains in the district" />
		<tag k="name" v="Askeflu" />
		<tag k="natural" v="hill" />
		<tag k="place" v="locality" />
		<tag k="ssr:stedsnr" v="634303" />
	</node>
	<node lat="58.5550722225056" lon="8.850933327340702" id="-27705">
		<tag k="fixme" v="consider natural=peak for the most distinct mountains in the district" />
		<tag k="name" v="Lyngheia" />
		<tag k="natural" v="hill" />
		<tag k="place" v="locality" />
		<tag k="ssr:stedsnr" v="636005" />
	</node>
	<node lat="58.521822225788455" lon="8.855136117514375" id="-27708">
		<tag k="name" v="Byttingsdalen" />
		<tag k="natural" v="valley" />
		<tag k="place" v="locality" />
		<tag k="ssr:stedsnr" v="636077" />
	</node>
	<node lat="58.53505555913726" lon="8.835944449005073" id="-27709">
		<tag k="name" v="Skallholt" />
		<tag k="natural" v="ridge" />
		<tag k="place" v="locality" />
		<tag k="ssr:stedsnr" v="636092" />
	</node>
	<node lat="58.520399999495325" lon="8.869444443119733" id="-27715">
		<tag k="fixme" v="consider natural=peak for the most distinct mountains in the district" />
		<tag k="name" v="Ubergvikknatten" />
		<tag k="natural" v="hill" />
		<tag k="place" v="locality" />
		<tag k="ssr:stedsnr" v="636133" />
	</node>
	<node lat="58.522491665582024" lon="8.81512499716511" id="-27717">
		<tag k="fixme" v="consider natural=peak for the most distinct mountains in the district" />
		<tag k="name" v="Tømmeråsen" />
		<tag k="natural" v="hill" />
		<tag k="place" v="locality" />
		<tag k="ssr:stedsnr" v="636396" />
	</node>
	<node lat="58.53669999976302" lon="8.786441664147269" id="-27720">
		<tag k="fixme" v="consider natural=peak for the most distinct mountains in the district" />
		<tag k="name" v="Heståsen" />
		<tag k="natural" v="hill" />
		<tag k="place" v="locality" />
		<tag k="ssr:stedsnr" v="636412" />
	</node>
	<node lat="58.55148610668077" lon="8.799836112582874" id="-27721">
		<tag k="fixme" v="consider natural=peak for the most distinct mountains in the district" />
		<tag k="name" v="Mønåsen" />
		<tag k="natural" v="hill" />
		<tag k="place" v="locality" />
		<tag k="ssr:stedsnr" v="636427" />
	</node>
	<node lat="58.55897777982687" lon="8.819833340278981" id="-27722">
		<tag k="fixme" v="consider natural=peak for the most distinct mountains in the district" />
		<tag k="name" v="Vassåsen" />
		<tag k="natural" v="hill" />
		<tag k="place" v="locality" />
		<tag k="ssr:stedsnr" v="636430" />
	</node>
	<node lat="58.55787500259446" lon="8.808733331369167" id="-27723">
		<tag k="name" v="Nilsesbakke" />
		<tag k="natural" v="slope" />
		<tag k="place" v="locality" />
		<tag k="ssr:stedsnr" v="636433" />
	</node>
	<node lat="58.568263885390124" lon="8.794091659397186" id="-27724">
		<tag k="name" v="Roligheten" />
		<tag k="natural" v="valley" />
		<tag k="place" v="locality" />
		<tag k="ssr:stedsnr" v="636480" />
	</node>
	<node lat="58.5735666624866" lon="8.813447227733949" id="-27725">
		<tag k="name" v="Ørkleiv" />
		<tag k="natural" v="slope" />
		<tag k="place" v="locality" />
		<tag k="ssr:stedsnr" v="636482" />
	</node>
	<node lat="58.57336944369016" lon="8.821719452866379" id="-27726">
		<tag k="name" v="Kyrkjekleiva" />
		<tag k="natural" v="slope" />
		<tag k="place" v="locality" />
		<tag k="ssr:stedsnr" v="636485" />
	</node>
	<node lat="58.46879167066542" lon="8.78601111391595" id="-27730">
		<tag k="fixme" v="consider natural=peak for the most distinct mountains in the district" />
		<tag k="name" v="Solåsen" />
		<tag k="natural" v="hill" />
		<tag k="place" v="locality" />
		<tag k="ssr:stedsnr" v="636632" />
	</node>
	<node lat="58.51371388648467" lon="8.74706111694247" id="-27732">
		<tag k="name" v="Lillehei" />
		<tag k="natural" v="hill" />
		<tag k="place" v="locality" />
		<tag k="ssr:stedsnr" v="636683" />
	</node>
	<node lat="58.51111666524109" lon="8.731811106859661" id="-27733">
		<tag k="fixme" v="consider natural=peak for the most distinct mountains in the district" />
		<tag k="name" v="Ribberheia" />
		<tag k="natural" v="hill" />
		<tag k="place" v="locality" />
		<tag k="ssr:stedsnr" v="636689" />
	</node>
	<node lat="58.577688889153784" lon="8.946927776468932" id="-27750">
		<tag k="name" v="Lindvannsdalen" />
		<tag k="natural" v="valley" />
		<tag k="place" v="locality" />
		<tag k="ssr:stedsnr" v="636790" />
	</node>
	<node lat="58.4428805598312" lon="8.730249994292993" id="-27751">
		<tag k="name" v="Monen" />
		<tag k="place" v="locality" />
		<tag k="ssr:stedsnr" v="636793" />
	</node>
	<node lat="58.49539166287831" lon="8.844355548189386" id="-27767">
		<tag k="name" v="Mørfjærlia" />
		<tag k="natural" v="slope" />
		<tag k="place" v="locality" />
		<tag k="ssr:stedsnr" v="940266" />
	</node>
	<node lat="58.55503610666265" lon="8.992674997504437" id="-27773">
		<tag k="name" v="Madseshei" />
		<tag k="natural" v="hill" />
		<tag k="place" v="locality" />
		<tag k="ssr:stedsnr" v="696215" />
	</node>
	<node lat="58.53426389222842" lon="8.902480551101505" id="-27775">
		<tag k="fixme" v="consider natural=peak for the most distinct mountains in the district" />
		<tag k="name" v="Brunåsen" />
		<tag k="natural" v="hill" />
		<tag k="place" v="locality" />
		<tag k="ssr:stedsnr" v="697103" />
	</node>
	<node lat="58.51916388889467" lon="8.91665556121295" id="-27776">
		<tag k="fixme" v="consider natural=peak for the most distinct mountains in the district" />
		<tag k="name" v="Røyråsen" />
		<tag k="natural" v="hill" />
		<tag k="place" v="locality" />
		<tag k="ssr:stedsnr" v="697105" />
	</node>
	<node lat="58.52641110964375" lon="8.788786103987679" id="-27786">
		<tag k="name" v="Kleivene" />
		<tag k="natural" v="slope" />
		<tag k="place" v="locality" />
		<tag k="ssr:stedsnr" v="697405" />
	</node>
	<node lat="58.569533336248334" lon="8.98302499288297" id="-27801">
		<tag k="name" v="Eikeliene" />
		<tag k="natural" v="slope" />
		<tag k="place" v="locality" />
		<tag k="ssr:stedsnr" v="697765" />
	</node>
	<node lat="58.56526944026522" lon="8.981516660179159" id="-27804">
		<tag k="name" v="Granåsen" />
		<tag k="natural" v="hill" />
		<tag k="place" v="locality" />
		<tag k="ssr:stedsnr" v="697772" />
	</node>
	<node lat="58.429619446501455" lon="8.753230557555767" id="-27805">
		<tag k="fixme" v="consider natural=peak for the most distinct mountains in the district" />
		<tag k="name" v="Kvennbekkheia" />
		<tag k="natural" v="hill" />
		<tag k="place" v="locality" />
		<tag k="ssr:stedsnr" v="697774" />
	</node>
	<node lat="58.44802500315095" lon="8.535422221029231" id="-27811">
		<tag k="name" v="Fyllsenden" />
		<tag k="natural" v="ridge" />
		<tag k="place" v="locality" />
		<tag k="ssr:stedsnr" v="697864" />
	</node>
	<node lat="58.51221388587029" lon="8.919975005530956" id="-27835">
		<tag k="alt_name" v="Viddeberget" />
		<tag k="name" v="Kviteberget" />
		<tag k="natural" v="hill" />
		<tag k="place" v="locality" />
		<tag k="ssr:stedsnr" v="729192" />
	</node>
	<node lat="58.43003610868511" lon="8.766880559420311" id="-27851">
		<tag k="fixme" v="consider natural=peak for the most distinct mountains in the district" />
		<tag k="name" v="Gideberget" />
		<tag k="natural" v="hill" />
		<tag k="place" v="locality" />
		<tag k="ssr:stedsnr" v="757198" />
	</node>
	<node lat="58.4369500037193" lon="8.570444445796102" id="-27853">
		<tag k="fixme" v="consider natural=peak for the most distinct mountains in the district" />
		<tag k="name" v="Næveråsen" />
		<tag k="natural" v="hill" />
		<tag k="place" v="locality" />
		<tag k="ssr:stedsnr" v="757849" />
	</node>
	<node lat="58.549530554891305" lon="8.869069449949997" id="-27857">
		<tag k="fixme" v="consider natural=peak for the most distinct mountains in the district" />
		<tag k="name" v="Ringåsen" />
		<tag k="natural" v="hill" />
		<tag k="place" v="locality" />
		<tag k="ssr:stedsnr" v="758059" />
	</node>
	<node lat="58.433763891612294" lon="8.53830277323697" id="-27859">
		<tag k="name" v="Rindane" />
		<tag k="natural" v="ridge" />
		<tag k="place" v="locality" />
		<tag k="ssr:stedsnr" v="757905" />
	</node>
	<node lat="58.54354166946525" lon="8.85750833996429" id="-27864">
		<tag k="name" v="Skarkedalen" />
		<tag k="natural" v="valley" />
		<tag k="place" v="locality" />
		<tag k="ssr:stedsnr" v="758001" />
	</node>
	<node lat="58.49298333392541" lon="8.908513892155273" id="-27867">
		<tag k="fixme" v="consider natural=peak for the most distinct mountains in the district" />
		<tag k="name" v="Glitrefjell" />
		<tag k="natural" v="hill" />
		<tag k="place" v="locality" />
		<tag k="ssr:stedsnr" v="758412" />
	</node>
	<node lat="58.465502779991255" lon="8.846597222779506" id="-27873">
		<tag k="fixme" v="consider natural=peak for the most distinct mountains in the district" />
		<tag k="name" v="Østklammeråsen" />
		<tag k="natural" v="hill" />
		<tag k="place" v="locality" />
		<tag k="ssr:stedsnr" v="758345" />
	</node>
	<node lat="58.48809722491817" lon="8.901952781418625" id="-27874">
		<tag k="name" v="Sandbrekka" />
		<tag k="place" v="locality" />
		<tag k="ssr:stedsnr" v="758394" />
	</node>
	<node lat="58.57731388676986" lon="8.771155559634538" id="-27875">
		<tag k="fixme" v="consider natural=peak for the most distinct mountains in the district" />
		<tag k="name" v="Anne Katrine" />
		<tag k="natural" v="hill" />
		<tag k="place" v="locality" />
		<tag k="ssr:stedsnr" v="758503" />
	</node>
	<node lat="58.490113892007756" lon="8.733874998743241" id="-27880">
		<tag k="fixme" v="consider natural=peak for the most distinct mountains in the district" />
		<tag k="name" v="Heisto" />
		<tag k="natural" v="hill" />
		<tag k="place" v="locality" />
		<tag k="ssr:stedsnr" v="758714" />
	</node>
	<node lat="58.47705000010787" lon="8.78970555203887" id="-27882">
		<tag k="fixme" v="consider natural=peak for the most distinct mountains in the district" />
		<tag k="name" v="Nordre Kirkefjell" />
		<tag k="natural" v="hill" />
		<tag k="place" v="locality" />
		<tag k="ssr:stedsnr" v="758725" />
	</node>
	<node lat="58.46396944830788" lon="8.864847221667745" id="-27883">
		<tag k="name" v="Spedalen" />
		<tag k="natural" v="valley" />
		<tag k="place" v="locality" />
		<tag k="ssr:stedsnr" v="758755" />
	</node>
	<node lat="58.57704999744276" lon="8.94205554828997" id="-27884">
		<tag k="name" v="Ørnåsen" />
		<tag k="natural" v="hill" />
		<tag k="place" v="locality" />
		<tag k="ssr:stedsnr" v="758765" />
	</node>
	<node lat="58.42506944142491" lon="8.793208330677068" id="-27889">
		<tag k="name" v="Sankt Hans-heia" />
		<tag k="natural" v="hill" />
		<tag k="place" v="locality" />
		<tag k="ssr:stedsnr" v="758803" />
	</node>
	<node lat="58.467613887397434" lon="8.700247228384585" id="-27894">
		<tag k="fixme" v="consider natural=peak for the most distinct mountains in the district" />
		<tag k="name" v="Blokkeheia" />
		<tag k="natural" v="hill" />
		<tag k="place" v="locality" />
		<tag k="ssr:stedsnr" v="758995" />
	</node>
	<node lat="58.48212749369338" lon="8.529855670271605" id="-27899">
		<tag k="name" v="Trengsle" />
		<tag k="natural" v="valley" />
		<tag k="place" v="locality" />
		<tag k="ssr:stedsnr" v="777914" />
	</node>
	<node lat="58.449952774004814" lon="8.64401667115013" id="-27909">
		<tag k="fixme" v="consider natural=peak for the most distinct mountains in the district" />
		<tag k="name" v="Løbbåsen" />
		<tag k="natural" v="hill" />
		<tag k="place" v="locality" />
		<tag k="ssr:stedsnr" v="910623" />
	</node>
	<node lat="58.539180559978114" lon="8.771466674435395" id="-27938">
		<tag k="fixme" v="consider natural=peak for the most distinct mountains in the district" />
		<tag k="name" v="Viveråsen" />
		<tag k="natural" v="hill" />
		<tag k="place" v="locality" />
		<tag k="ssr:stedsnr" v="911691" />
	</node>
	<node lat="58.543474996761745" lon="8.962119448722971" id="-27950">
		<tag k="fixme" v="consider natural=peak for the most distinct mountains in the district" />
		<tag k="name" v="Øygardsåsen" />
		<tag k="natural" v="hill" />
		<tag k="place" v="locality" />
		<tag k="ssr:stedsnr" v="817289" />
	</node>
	<node lat="58.545611112871484" lon="8.86061944574635" id="-27953">
		<tag k="name" v="Krossåsflaten" />
		<tag k="place" v="locality" />
		<tag k="ssr:stedsnr" v="818023" />
	</node>
	<node lat="58.5299222206917" lon="8.908033341599184" id="-27962">
		<tag k="fixme" v="consider natural=peak for the most distinct mountains in the district" />
		<tag k="name" v="Svansvikåsen" />
		<tag k="natural" v="hill" />
		<tag k="place" v="locality" />
		<tag k="ssr:stedsnr" v="818189" />
	</node>
	<node lat="58.45514166381121" lon="8.825608339999496" id="-27966">
		<tag k="fixme" v="consider natural=peak for the most distinct mountains in the district" />
		<tag k="name" v="Torsås" />
		<tag k="natural" v="hill" />
		<tag k="place" v="locality" />
		<tag k="ssr:stedsnr" v="818319" />
	</node>
	<node lat="58.532658336246755" lon="8.94550278232563" id="-27970">
		<tag k="name" v="Labakken" />
		<tag k="natural" v="slope" />
		<tag k="place" v="locality" />
		<tag k="ssr:stedsnr" v="819233" />
	</node>
	<node lat="58.47757778023396" lon="8.913830562783044" id="-27972">
		<tag k="name" v="Melkevollen" />
		<tag k="place" v="locality" />
		<tag k="ssr:stedsnr" v="819386" />
	</node>
	<node lat="58.588405555868896" lon="8.815433339462876" id="-27973">
		<tag k="name" v="Kjerrbudalen" />
		<tag k="natural" v="valley" />
		<tag k="place" v="locality" />
		<tag k="ssr:stedsnr" v="819520" />
	</node>
	<node lat="58.579008329696926" lon="8.802511118596456" id="-27977">
		<tag k="fixme" v="consider natural=peak for the most distinct mountains in the district" />
		<tag k="name" v="Fiskebekkåsen" />
		<tag k="natural" v="hill" />
		<tag k="place" v="locality" />
		<tag k="ssr:stedsnr" v="819491" />
	</node>
	<node lat="58.53808055829555" lon="8.926072223715929" id="-27979">
		<tag k="fixme" v="consider natural=peak for the most distinct mountains in the district" />
		<tag k="name" v="Ravnåsen" />
		<tag k="natural" v="hill" />
		<tag k="place" v="locality" />
		<tag k="ssr:stedsnr" v="819821" />
	</node>
	<node lat="58.586294447984216" lon="8.821266659792414" id="-27988">
		<tag k="fixme" v="consider natural=peak for the most distinct mountains in the district" />
		<tag k="name" v="Veveråsen" />
		<tag k="natural" v="hill" />
		<tag k="place" v="locality" />
		<tag k="ssr:stedsnr" v="850810" />
	</node>
	<node lat="58.55740555814238" lon="8.85960833379052" id="-28004">
		<tag k="name" v="Portugalsholla" />
		<tag k="natural" v="valley" />
		<tag k="place" v="locality" />
		<tag k="ssr:stedsnr" v="879014" />
	</node>
	<node lat="58.55939444843052" lon="8.861141664472777" id="-28005">
		<tag k="fixme" v="consider natural=peak for the most distinct mountains in the district" />
		<tag k="name" v="Grasåsen" />
		<tag k="natural" v="hill" />
		<tag k="place" v="locality" />
		<tag k="ssr:stedsnr" v="879020" />
	</node>
	<node lat="58.465197219829115" lon="8.843338883338266" id="-28010">
		<tag k="fixme" v="consider natural=peak for the most distinct mountains in the district" />
		<tag k="name" v="Josfjell" />
		<tag k="natural" v="hill" />
		<tag k="place" v="locality" />
		<tag k="ssr:stedsnr" v="879314" />
	</node>
	<node lat="58.46006666385756" lon="8.848563889653098" id="-28011">
		<tag k="fixme" v="consider natural=peak for the most distinct mountains in the district" />
		<tag k="name" v="Ormenesheia" />
		<tag k="natural" v="hill" />
		<tag k="place" v="locality" />
		<tag k="ssr:stedsnr" v="879317" />
	</node>
	<node lat="58.48333055653473" lon="8.90113055088129" id="-28013">
		<tag k="fixme" v="consider natural=peak for the most distinct mountains in the district" />
		<tag k="name" v="Skifjell" />
		<tag k="natural" v="hill" />
		<tag k="place" v="locality" />
		<tag k="ssr:stedsnr" v="879360" />
	</node>
	<node lat="58.49540833252545" lon="8.833969444280017" id="-28014">
		<tag k="fixme" v="consider natural=peak for the most distinct mountains in the district" />
		<tag k="name" v="Skinneråsen" />
		<tag k="natural" v="hill" />
		<tag k="place" v="locality" />
		<tag k="ssr:stedsnr" v="879365" />
	</node>
	<node lat="58.52027777629666" lon="8.820861108848703" id="-28023">
		<tag k="name" v="Glomskedalen" />
		<tag k="natural" v="valley" />
		<tag k="place" v="locality" />
		<tag k="ssr:stedsnr" v="879409" />
	</node>
	<node lat="58.556263892974606" lon="8.791608325663391" id="-28024">
		<tag k="fixme" v="consider natural=peak for the most distinct mountains in the district" />
		<tag k="name" v="Kringleheia" />
		<tag k="natural" v="hill" />
		<tag k="place" v="locality" />
		<tag k="ssr:stedsnr" v="879422" />
	</node>
	<node lat="58.580616666981314" lon="8.823322214930265" id="-28025">
		<tag k="fixme" v="consider natural=peak for the most distinct mountains in the district" />
		<tag k="name" v="Styggedalsheia" />
		<tag k="natural" v="hill" />
		<tag k="place" v="locality" />
		<tag k="ssr:stedsnr" v="879457" />
	</node>
	<node lat="58.56750277707007" lon="8.799080555938156" id="-28026">
		<tag k="fixme" v="consider natural=peak for the most distinct mountains in the district" />
		<tag k="name" v="Åreknuten" />
		<tag k="natural" v="hill" />
		<tag k="place" v="locality" />
		<tag k="ssr:stedsnr" v="879459" />
	</node>
	<node lat="58.56516389315053" lon="8.764394443592082" id="-28027">
		<tag k="fixme" v="consider natural=peak for the most distinct mountains in the district" />
		<tag k="name" v="Lonemyrheia" />
		<tag k="natural" v="hill" />
		<tag k="place" v="locality" />
		<tag k="ssr:stedsnr" v="879464" />
	</node>
	<node lat="58.473047224394875" lon="8.806602769332173" id="-28030">
		<tag k="fixme" v="consider natural=peak for the most distinct mountains in the district" />
		<tag k="name" v="Jensens utsikt" />
		<tag k="natural" v="hill" />
		<tag k="place" v="locality" />
		<tag k="ssr:stedsnr" v="879555" />
	</node>
	<node lat="58.52656944082065" lon="8.746458340175478" id="-28031">
		<tag k="fixme" v="consider natural=peak for the most distinct mountains in the district" />
		<tag k="name" v="Granåsen" />
		<tag k="natural" v="hill" />
		<tag k="place" v="locality" />
		<tag k="ssr:stedsnr" v="879704" />
	</node>
	<node lat="58.57227500174646" lon="8.98493888033462" id="-28034">
		<tag k="name" v="Fløyfjell" />
		<tag k="natural" v="hill" />
		<tag k="place" v="locality" />
		<tag k="ssr:stedsnr" v="879752" />
	</node>
	<node lat="58.49526666480237" lon="8.688197223540284" id="-28039">
		<tag k="name" v="Brudalen" />
		<tag k="natural" v="valley" />
		<tag k="place" v="locality" />
		<tag k="ssr:stedsnr" v="879770" />
	</node>
	<node lat="58.44717222003027" lon="8.79440277298692" id="-28040">
		<tag k="name" v="Klappedalen" />
		<tag k="natural" v="valley" />
		<tag k="place" v="locality" />
		<tag k="ssr:stedsnr" v="879607" />
	</node>
	<node lat="58.42243055895743" lon="8.579766671391202" id="-28044">
		<tag k="fixme" v="consider natural=peak for the most distinct mountains in the district" />
		<tag k="name" v="Stagernesåsen" />
		<tag k="natural" v="hill" />
		<tag k="place" v="locality" />
		<tag k="ssr:stedsnr" v="879827" />
	</node>
	<node lat="58.42958888572119" lon="8.545316660817663" id="-28045">
		<tag k="fixme" v="consider natural=peak for the most distinct mountains in the district" />
		<tag k="name" v="Grandalsheia" />
		<tag k="natural" v="hill" />
		<tag k="place" v="locality" />
		<tag k="ssr:stedsnr" v="879903" />
	</node>
	<node lat="58.478374998063565" lon="8.857763892712734" id="-28053">
		<tag k="fixme" v="consider natural=peak for the most distinct mountains in the district" />
		<tag k="name" v="Fåbakkheia" />
		<tag k="natural" v="hill" />
		<tag k="place" v="locality" />
		<tag k="ssr:stedsnr" v="905064" />
	</node>
	<node lat="58.56082499566596" lon="8.946419443240211" id="-28069">
		<tag k="fixme" v="consider natural=peak for the most distinct mountains in the district" />
		<tag k="name" v="Stufjell" />
		<tag k="natural" v="hill" />
		<tag k="place" v="locality" />
		<tag k="ssr:stedsnr" v="911272" />
	</node>
	<node lat="58.54492500194423" lon="8.92095555471633" id="-28080">
		<tag k="fixme" v="consider natural=peak for the most distinct mountains in the district" />
		<tag k="name" v="Mauråsen" />
		<tag k="natural" v="hill" />
		<tag k="place" v="locality" />
		<tag k="ssr:stedsnr" v="940104" />
	</node>
	<node lat="58.54120277410453" lon="8.869447216202515" id="-28082">
		<tag k="name" v="Stølshaugheia" />
		<tag k="natural" v="hill" />
		<tag k="place" v="locality" />
		<tag k="ssr:stedsnr" v="940004" />
	</node>
	<node lat="58.5466416655776" lon="8.896613890129903" id="-28083">
		<tag k="fixme" v="consider natural=peak for the most distinct mountains in the district" />
		<tag k="name" v="Haukeliåsen" />
		<tag k="natural" v="hill" />
		<tag k="place" v="locality" />
		<tag k="ssr:stedsnr" v="940033" />
	</node>
	<node lat="58.54870000191071" lon="8.771491667173569" id="-28149">
		<tag k="name" v="Doteheia" />
		<tag k="natural" v="hill" />
		<tag k="place" v="locality" />
		<tag k="ssr:stedsnr" v="677" />
	</node>
	<node lat="58.5413083374158" lon="8.786433326878544" id="-28155">
		<tag k="alt_name" v="Lauvheia" />
		<tag k="fixme" v="consider natural=peak for the most distinct mountains in the district" />
		<tag k="name" v="Lauvåsen" />
		<tag k="natural" v="hill" />
		<tag k="place" v="locality" />
		<tag k="ssr:stedsnr" v="1166" />
	</node>
	<node lat="58.464963892312255" lon="8.736361119057285" id="-28166">
		<tag k="name" v="Heidalen" />
		<tag k="natural" v="valley" />
		<tag k="place" v="locality" />
		<tag k="ssr:stedsnr" v="27765" />
	</node>
	<node lat="58.56527777919105" lon="8.993827775112555" id="-28167">
		<tag k="name" v="Grandalen" />
		<tag k="natural" v="valley" />
		<tag k="place" v="locality" />
		<tag k="ssr:stedsnr" v="28294" />
	</node>
	<node lat="58.59020833130387" lon="8.83906944980812" id="-28172">
		<tag k="name" v="Østre Skålandsdalen" />
		<tag k="natural" v="valley" />
		<tag k="place" v="locality" />
		<tag k="ssr:stedsnr" v="29135" />
	</node>
	<node lat="58.520102775954385" lon="8.92729444239088" id="-28173">
		<tag k="fixme" v="consider natural=peak for the most distinct mountains in the district" />
		<tag k="name" v="Helgeheia" />
		<tag k="natural" v="hill" />
		<tag k="place" v="locality" />
		<tag k="ssr:stedsnr" v="29172" />
	</node>
	<node lat="58.47941111428733" lon="8.784113891243907" id="-28175">
		<tag k="fixme" v="consider natural=peak for the most distinct mountains in the district" />
		<tag k="name" v="Ribberåsen" />
		<tag k="natural" v="hill" />
		<tag k="place" v="locality" />
		<tag k="ssr:stedsnr" v="29722" />
	</node>
	<node lat="58.528058335156295" lon="8.75519999596964" id="-28176">
		<tag k="fixme" v="consider natural=peak for the most distinct mountains in the district" />
		<tag k="name" v="Pølseåsen" />
		<tag k="natural" v="hill" />
		<tag k="place" v="locality" />
		<tag k="ssr:stedsnr" v="29729" />
	</node>
	<node lat="58.44213611005259" lon="8.744619452945031" id="-28180">
		<tag k="fixme" v="consider natural=peak for the most distinct mountains in the district" />
		<tag k="name" v="Lystheia" />
		<tag k="natural" v="hill" />
		<tag k="place" v="locality" />
		<tag k="ssr:stedsnr" v="29280" />
	</node>
	<node lat="58.39738055869755" lon="8.69527778231377" id="-28182">
		<tag k="name" v="Store Kaninholmen" />
		<tag k="natural" v="hill" />
		<tag k="place" v="locality" />
		<tag k="ssr:stedsnr" v="29294" />
	</node>
	<node lat="58.52527777536503" lon="8.752613894019554" id="-28194">
		<tag k="fixme" v="consider natural=peak for the most distinct mountains in the district" />
		<tag k="name" v="Jerpenglennåsen" />
		<tag k="natural" v="hill" />
		<tag k="place" v="locality" />
		<tag k="ssr:stedsnr" v="29735" />
	</node>
	<node lat="58.52097222660377" lon="8.755344447180141" id="-28195">
		<tag k="fixme" v="consider natural=peak for the most distinct mountains in the district" />
		<tag k="name" v="Heståsen" />
		<tag k="natural" v="hill" />
		<tag k="place" v="locality" />
		<tag k="ssr:stedsnr" v="29744" />
	</node>
	<node lat="58.461561108566244" lon="8.535058328172425" id="-28205">
		<tag k="name" v="Grandalen" />
		<tag k="natural" v="valley" />
		<tag k="place" v="locality" />
		<tag k="ssr:stedsnr" v="29914" />
	</node>
	<node lat="58.580988885413504" lon="8.832541673487471" id="-28213">
		<tag k="name" v="Kjerkevollen" />
		<tag k="place" v="locality" />
		<tag k="ssr:stedsnr" v="30126" />
	</node>
	<node lat="58.569813893120816" lon="8.848847228208745" id="-28214">
		<tag k="fixme" v="consider natural=peak for the most distinct mountains in the district" />
		<tag k="name" v="Geiteheia" />
		<tag k="natural" v="hill" />
		<tag k="place" v="locality" />
		<tag k="ssr:stedsnr" v="30131" />
	</node>
	<node lat="58.53421111272936" lon="8.889069448098692" id="-28220">
		<tag k="name" v="Mærrehola" />
		<tag k="natural" v="valley" />
		<tag k="place" v="locality" />
		<tag k="ssr:stedsnr" v="30096" />
	</node>
	<node lat="58.54175833208184" lon="8.744938896309911" id="-28225">
		<tag k="fixme" v="consider natural=peak for the most distinct mountains in the district" />
		<tag k="name" v="Ravnefjell" />
		<tag k="natural" v="hill" />
		<tag k="place" v="locality" />
		<tag k="ssr:stedsnr" v="30439" />
	</node>
	<node lat="58.54335555247645" lon="8.74499723034523" id="-28226">
		<tag k="name" v="Olsokdalen" />
		<tag k="natural" v="valley" />
		<tag k="place" v="locality" />
		<tag k="ssr:stedsnr" v="30440" />
	</node>
	<node lat="58.49932500446929" lon="8.787836108511003" id="-28228">
		<tag k="name" v="Strutsedalen" />
		<tag k="natural" v="valley" />
		<tag k="place" v="locality" />
		<tag k="ssr:stedsnr" v="30331" />
	</node>
	<node lat="58.586736109648506" lon="8.759563893953677" id="-28235">
		<tag k="fixme" v="consider natural=peak for the most distinct mountains in the district" />
		<tag k="name" v="Nordheia" />
		<tag k="natural" v="hill" />
		<tag k="place" v="locality" />
		<tag k="ssr:stedsnr" v="30401" />
	</node>
	<node lat="58.57798889066822" lon="8.768197214685998" id="-28236">
		<tag k="name" v="Storemyrheia" />
		<tag k="natural" v="hill" />
		<tag k="place" v="locality" />
		<tag k="ssr:stedsnr" v="30487" />
	</node>
	<node lat="58.567383329455595" lon="8.81575833357022" id="-28237">
		<tag k="fixme" v="consider natural=peak for the most distinct mountains in the district" />
		<tag k="name" v="Vrangåsen" />
		<tag k="natural" v="hill" />
		<tag k="place" v="locality" />
		<tag k="ssr:stedsnr" v="30488" />
	</node>
	<node lat="58.49083055673275" lon="8.703044443898067" id="-28245">
		<tag k="fixme" v="consider natural=peak for the most distinct mountains in the district" />
		<tag k="name" v="Fransåsen" />
		<tag k="natural" v="hill" />
		<tag k="place" v="locality" />
		<tag k="ssr:stedsnr" v="30947" />
	</node>
	<node lat="58.4561000007179" lon="8.63325278062658" id="-28247">
		<tag k="fixme" v="consider natural=peak for the most distinct mountains in the district" />
		<tag k="name" v="Løddesølåsen" />
		<tag k="natural" v="hill" />
		<tag k="place" v="locality" />
		<tag k="ssr:stedsnr" v="30973" />
	</node>
	<node lat="58.53631389293844" lon="8.971847226408391" id="-28274">
		<tag k="name" v="Skjøllvikheia" />
		<tag k="natural" v="hill" />
		<tag k="place" v="locality" />
		<tag k="ssr:stedsnr" v="90189" />
	</node>
	<node lat="58.55071110982781" lon="8.95924999149088" id="-28275">
		<tag k="fixme" v="consider natural=peak for the most distinct mountains in the district" />
		<tag k="name" v="Sundheiene" />
		<tag k="natural" v="hill" />
		<tag k="place" v="locality" />
		<tag k="ssr:stedsnr" v="90201" />
	</node>
	<node lat="58.551774997597875" lon="8.837072221263382" id="-28280">
		<tag k="name" v="Tunsbergheia" />
		<tag k="natural" v="hill" />
		<tag k="place" v="locality" />
		<tag k="ssr:stedsnr" v="90026" />
	</node>
	<node lat="58.542674996253155" lon="8.907161118748206" id="-28281">
		<tag k="fixme" v="consider natural=peak for the most distinct mountains in the district" />
		<tag k="name" v="Ravnåsen" />
		<tag k="natural" v="hill" />
		<tag k="place" v="locality" />
		<tag k="ssr:stedsnr" v="90033" />
	</node>
	<node lat="58.496827779212296" lon="8.897508329197978" id="-28285">
		<tag k="fixme" v="consider natural=peak for the most distinct mountains in the district" />
		<tag k="name" v="Ospefjell" />
		<tag k="natural" v="hill" />
		<tag k="place" v="locality" />
		<tag k="ssr:stedsnr" v="90049" />
	</node>
	<node lat="58.54474444206339" lon="8.86928054933308" id="-28287">
		<tag k="fixme" v="consider natural=peak for the most distinct mountains in the district" />
		<tag k="name" v="Melåsen" />
		<tag k="natural" v="hill" />
		<tag k="place" v="locality" />
		<tag k="ssr:stedsnr" v="90055" />
	</node>
	<node lat="58.54187500396878" lon="8.89137500669615" id="-28290">
		<tag k="fixme" v="consider natural=peak for the most distinct mountains in the district" />
		<tag k="name" v="Ørnåsen" />
		<tag k="natural" v="hill" />
		<tag k="place" v="locality" />
		<tag k="ssr:stedsnr" v="90095" />
	</node>
	<node lat="58.451122225476915" lon="8.639555550555935" id="-28293">
		<tag k="fixme" v="consider natural=peak for the most distinct mountains in the district" />
		<tag k="name" v="Kollåsen" />
		<tag k="natural" v="hill" />
		<tag k="place" v="locality" />
		<tag k="ssr:stedsnr" v="90938" />
	</node>
	<node lat="58.4824583325189" lon="8.507044441380371" id="-28294">
		<tag k="fixme" v="consider natural=peak for the most distinct mountains in the district" />
		<tag k="name" v="Hesthei" />
		<tag k="natural" v="hill" />
		<tag k="place" v="locality" />
		<tag k="ssr:stedsnr" v="90947" />
	</node>
	<node lat="58.44240555324302" lon="8.754925004037874" id="-28302">
		<tag k="name" v="Badstudalen" />
		<tag k="natural" v="valley" />
		<tag k="place" v="locality" />
		<tag k="ssr:stedsnr" v="90222" />
	</node>
	<node lat="58.57570278155521" lon="8.815705551221507" id="-28306">
		<tag k="name" v="Bjørndalen" />
		<tag k="natural" v="valley" />
		<tag k="place" v="locality" />
		<tag k="ssr:stedsnr" v="90473" />
	</node>
	<node lat="58.56966944651305" lon="8.764733325297946" id="-28309">
		<tag k="name" v="Stillinga" />
		<tag k="natural" v="hill" />
		<tag k="place" v="locality" />
		<tag k="ssr:stedsnr" v="90478" />
	</node>
	<node lat="58.51380555960024" lon="8.796388881054817" id="-28316">
		<tag k="name" v="Blåfjell" />
		<tag k="natural" v="hill" />
		<tag k="place" v="locality" />
		<tag k="ssr:stedsnr" v="90330" />
	</node>
	<node lat="58.48701666948392" lon="8.906308338946431" id="-28317">
		<tag k="name" v="Fladheia" />
		<tag k="natural" v="hill" />
		<tag k="place" v="locality" />
		<tag k="ssr:stedsnr" v="90346" />
	</node>
	<node lat="58.4752777754841" lon="8.854655556200404" id="-28321">
		<tag k="name" v="Ramsdalen" />
		<tag k="natural" v="valley" />
		<tag k="place" v="locality" />
		<tag k="ssr:stedsnr" v="90360" />
	</node>
	<node lat="58.54900833657947" lon="8.783341674814462" id="-28324">
		<tag k="name" v="Geitefjellet" />
		<tag k="natural" v="hill" />
		<tag k="place" v="locality" />
		<tag k="ssr:stedsnr" v="90406" />
	</node>
	<node lat="58.454519445757384" lon="8.790661110941247" id="-28330">
		<tag k="name" v="Knekken" />
		<tag k="natural" v="valley" />
		<tag k="place" v="locality" />
		<tag k="ssr:stedsnr" v="90599" />
	</node>
	<node lat="58.49403333545822" lon="8.822861107629436" id="-28333">
		<tag k="fixme" v="consider natural=peak for the most distinct mountains in the district" />
		<tag k="name" v="Brattåsen" />
		<tag k="natural" v="hill" />
		<tag k="place" v="locality" />
		<tag k="ssr:stedsnr" v="90696" />
	</node>
	<node lat="58.5231916707194" lon="8.747886108326577" id="-28334">
		<tag k="fixme" v="consider natural=peak for the most distinct mountains in the district" />
		<tag k="name" v="Folåsen" />
		<tag k="natural" v="hill" />
		<tag k="place" v="locality" />
		<tag k="ssr:stedsnr" v="90699" />
	</node>
	<node lat="58.44527500148993" lon="8.553327774296324" id="-28337">
		<tag k="name" v="Bjørndalen" />
		<tag k="natural" v="valley" />
		<tag k="place" v="locality" />
		<tag k="ssr:stedsnr" v="90839" />
	</node>
	<node lat="58.41368333186583" lon="8.557841672337034" id="-28339">
		<tag k="fixme" v="consider natural=peak for the most distinct mountains in the district" />
		<tag k="name" v="Sagåsen" />
		<tag k="natural" v="hill" />
		<tag k="place" v="locality" />
		<tag k="ssr:stedsnr" v="90855" />
	</node>
	<node lat="58.442186112677305" lon="8.789327771512038" id="-28342">
		<tag k="fixme" v="consider natural=peak for the most distinct mountains in the district" />
		<tag k="name" v="Fløyheia" />
		<tag k="natural" v="hill" />
		<tag k="place" v="locality" />
		<tag k="ssr:stedsnr" v="90641" />
	</node>
	<node lat="58.575447221221985" lon="8.977963887804048" id="-28346">
		<tag k="fixme" v="consider natural=peak for the most distinct mountains in the district" />
		<tag k="name" v="Øvrebøåsen" />
		<tag k="natural" v="hill" />
		<tag k="place" v="locality" />
		<tag k="ssr:stedsnr" v="90751" />
	</node>
	<node lat="58.57120555381536" lon="8.974577777899908" id="-28347">
		<tag k="fixme" v="consider natural=peak for the most distinct mountains in the district" />
		<tag k="name" v="Steinvalen" />
		<tag k="natural" v="hill" />
		<tag k="place" v="locality" />
		<tag k="ssr:stedsnr" v="90755" />
	</node>
	<node lat="58.58083055500459" lon="8.826413887319646" id="-28350">
		<tag k="fixme" v="consider natural=peak for the most distinct mountains in the district" />
		<tag k="name" v="Syråsen" />
		<tag k="natural" v="hill" />
		<tag k="place" v="locality" />
		<tag k="ssr:stedsnr" v="90797" />
	</node>
	<node lat="58.4759111090768" lon="8.508919439473638" id="-28353">
		<tag k="name" v="Bærulvsdalen" />
		<tag k="natural" v="valley" />
		<tag k="place" v="locality" />
		<tag k="ssr:stedsnr" v="90896" />
	</node>
	<node lat="58.45878889067115" lon="8.51628889692684" id="-28354">
		<tag k="name" v="Skvadderups" />
		<tag k="natural" v="cliff" />
		<tag k="ssr:stedsnr" v="90898" />
	</node>
	<node lat="58.53486944782686" lon="8.793563891564185" id="-28374">
		<tag k="name" v="Holtebekknipen" />
		<tag k="natural" v="hill" />
		<tag k="place" v="locality" />
		<tag k="ssr:stedsnr" v="122688" />
	</node>
	<node lat="58.53340277568299" lon="8.823252780443985" id="-28397">
		<tag k="fixme" v="consider natural=peak for the most distinct mountains in the district" />
		<tag k="name" v="Brunåsen" />
		<tag k="natural" v="hill" />
		<tag k="place" v="locality" />
		<tag k="ssr:stedsnr" v="151422" />
	</node>
	<node lat="58.479227779096675" lon="8.80350000035224" id="-28398">
		<tag k="fixme" v="consider natural=peak for the most distinct mountains in the district" />
		<tag k="name" v="Skibberfjell" />
		<tag k="natural" v="hill" />
		<tag k="place" v="locality" />
		<tag k="ssr:stedsnr" v="151728" />
	</node>
	<node lat="58.51951666699471" lon="8.76679166073712" id="-28399">
		<tag k="fixme" v="consider natural=peak for the most distinct mountains in the district" />
		<tag k="name" v="Krossåsen" />
		<tag k="natural" v="hill" />
		<tag k="place" v="locality" />
		<tag k="ssr:stedsnr" v="150707" />
	</node>
	<node lat="58.52100278140009" lon="8.760336116897214" id="-28400">
		<tag k="fixme" v="consider natural=peak for the most distinct mountains in the district" />
		<tag k="name" v="Bjørneheia" />
		<tag k="natural" v="hill" />
		<tag k="place" v="locality" />
		<tag k="ssr:stedsnr" v="150710" />
	</node>
	<node lat="58.47349999660828" lon="8.5089611079709" id="-28410">
		<tag k="name" v="Hausane" />
		<tag k="natural" v="hill" />
		<tag k="place" v="locality" />
		<tag k="ssr:stedsnr" v="150893" />
	</node>
	<node lat="58.542075001647945" lon="8.887608336731132" id="-28420">
		<tag k="name" v="Skrubbedalen" />
		<tag k="natural" v="valley" />
		<tag k="place" v="locality" />
		<tag k="ssr:stedsnr" v="151118" />
	</node>
	<node lat="58.53318888825213" lon="8.854802770003023" id="-28423">
		<tag k="fixme" v="consider natural=peak for the most distinct mountains in the district" />
		<tag k="name" v="Navnefjell" />
		<tag k="natural" v="hill" />
		<tag k="place" v="locality" />
		<tag k="ssr:stedsnr" v="151122" />
	</node>
	<node lat="58.525677781801896" lon="8.862277783830377" id="-28424">
		<tag k="name" v="Kleivene" />
		<tag k="natural" v="slope" />
		<tag k="place" v="locality" />
		<tag k="ssr:stedsnr" v="151137" />
	</node>
	<node lat="58.54943055820509" lon="8.97886111454539" id="-28431">
		<tag k="name" v="Kåfjell" />
		<tag k="natural" v="hill" />
		<tag k="place" v="locality" />
		<tag k="ssr:stedsnr" v="151246" />
	</node>
	<node lat="58.549247217953486" lon="8.983763891785465" id="-28432">
		<tag k="fixme" v="consider natural=peak for the most distinct mountains in the district" />
		<tag k="name" v="Skifjell" />
		<tag k="natural" v="hill" />
		<tag k="place" v="locality" />
		<tag k="ssr:stedsnr" v="151248" />
	</node>
	<node lat="58.50998888536431" lon="8.787997214371856" id="-28434">
		<tag k="fixme" v="consider natural=peak for the most distinct mountains in the district" />
		<tag k="name" v="Timmeråsen" />
		<tag k="natural" v="hill" />
		<tag k="place" v="locality" />
		<tag k="ssr:stedsnr" v="151327" />
	</node>
	<node lat="58.5287527802418" lon="8.830763889825905" id="-28436">
		<tag k="fixme" v="consider natural=peak for the most distinct mountains in the district" />
		<tag k="name" v="Lauvåsen" />
		<tag k="natural" v="hill" />
		<tag k="place" v="locality" />
		<tag k="ssr:stedsnr" v="151078" />
	</node>
	<node lat="58.47908611222534" lon="8.864719436154253" id="-28440">
		<tag k="fixme" v="consider natural=peak for the most distinct mountains in the district" />
		<tag k="name" v="Bergimellemhei" />
		<tag k="natural" v="hill" />
		<tag k="place" v="locality" />
		<tag k="ssr:stedsnr" v="151282" />
	</node>
	<node lat="58.48299444490012" lon="8.908894436386856" id="-28442">
		<tag k="fixme" v="consider natural=peak for the most distinct mountains in the district" />
		<tag k="name" v="Losheia" />
		<tag k="natural" v="hill" />
		<tag k="place" v="locality" />
		<tag k="ssr:stedsnr" v="151370" />
	</node>
	<node lat="58.55793889188879" lon="8.751697227420243" id="-28445">
		<tag k="fixme" v="consider natural=peak for the most distinct mountains in the district" />
		<tag k="name" v="Napen" />
		<tag k="natural" v="hill" />
		<tag k="place" v="locality" />
		<tag k="ssr:stedsnr" v="151342" />
	</node>
	<node lat="58.55848055426504" lon="8.767333332893152" id="-28446">
		<tag k="fixme" v="consider natural=peak for the most distinct mountains in the district" />
		<tag k="name" v="Voieheia" />
		<tag k="natural" v="hill" />
		<tag k="place" v="locality" />
		<tag k="ssr:stedsnr" v="151344" />
	</node>
	<node lat="58.44905277973114" lon="8.807802785263805" id="-28453">
		<tag k="fixme" v="consider natural=peak for the most distinct mountains in the district" />
		<tag k="name" v="Lensåsen" />
		<tag k="natural" v="hill" />
		<tag k="place" v="locality" />
		<tag k="ssr:stedsnr" v="151621" />
	</node>
	<node lat="58.44114999987896" lon="8.799161110726143" id="-28454">
		<tag k="fixme" v="consider natural=peak for the most distinct mountains in the district" />
		<tag k="name" v="Sandvigåsen" />
		<tag k="natural" v="hill" />
		<tag k="place" v="locality" />
		<tag k="ssr:stedsnr" v="151638" />
	</node>
	<node lat="58.501955552150854" lon="8.864994443764385" id="-28456">
		<tag k="fixme" v="consider natural=peak for the most distinct mountains in the district" />
		<tag k="name" v="Kveheia" />
		<tag k="natural" v="hill" />
		<tag k="place" v="locality" />
		<tag k="ssr:stedsnr" v="151470" />
	</node>
	<node lat="58.56956666872215" lon="8.78327777485655" id="-28458">
		<tag k="fixme" v="consider natural=peak for the most distinct mountains in the district" />
		<tag k="name" v="Tiurspranget" />
		<tag k="natural" v="hill" />
		<tag k="place" v="locality" />
		<tag k="ssr:stedsnr" v="151477" />
	</node>
	<node lat="58.56582778191341" lon="8.79778333854283" id="-28459">
		<tag k="fixme" v="consider natural=peak for the most distinct mountains in the district" />
		<tag k="name" v="Fløyheia" />
		<tag k="natural" v="hill" />
		<tag k="place" v="locality" />
		<tag k="ssr:stedsnr" v="151489" />
	</node>
	<node lat="58.464597223073966" lon="8.811130554874977" id="-28461">
		<tag k="name" v="Marisberg" />
		<tag k="natural" v="hill" />
		<tag k="place" v="locality" />
		<tag k="ssr:stedsnr" v="151591" />
	</node>
	<node lat="58.472880552972285" lon="8.787922222908733" id="-28462">
		<tag k="name" v="Nordbødalen" />
		<tag k="natural" v="valley" />
		<tag k="place" v="locality" />
		<tag k="ssr:stedsnr" v="151594" />
	</node>
	<node lat="58.48198888809926" lon="8.735352779252375" id="-28465">
		<tag k="fixme" v="consider natural=peak for the most distinct mountains in the district" />
		<tag k="name" v="Botteråsen" />
		<tag k="natural" v="hill" />
		<tag k="place" v="locality" />
		<tag k="ssr:stedsnr" v="151681" />
	</node>
	<node lat="58.57951944833236" lon="8.959241659783423" id="-28469">
		<tag k="fixme" v="consider natural=peak for the most distinct mountains in the district" />
		<tag k="name" v="Lydheia" />
		<tag k="natural" v="hill" />
		<tag k="place" v="locality" />
		<tag k="ssr:stedsnr" v="151778" />
	</node>
	<node lat="58.42742499736843" lon="8.662733329405848" id="-28472">
		<tag k="fixme" v="consider natural=peak for the most distinct mountains in the district" />
		<tag k="name" v="Lauvåsen" />
		<tag k="natural" v="hill" />
		<tag k="place" v="locality" />
		<tag k="ssr:stedsnr" v="151793" />
	</node>
	<node lat="58.469455558324285" lon="8.70849443830866" id="-28477">
		<tag k="fixme" v="consider natural=peak for the most distinct mountains in the district" />
		<tag k="name" v="Haugåsen" />
		<tag k="natural" v="hill" />
		<tag k="place" v="locality" />
		<tag k="ssr:stedsnr" v="151947" />
	</node>
	<node lat="58.473986107217314" lon="8.628724991978906" id="-28481">
		<tag k="fixme" v="consider natural=peak for the most distinct mountains in the district" />
		<tag k="name" v="Eikåsen" />
		<tag k="natural" v="hill" />
		<tag k="place" v="locality" />
		<tag k="ssr:stedsnr" v="151988" />
	</node>
	<node lat="58.44513610945634" lon="8.640502781828838" id="-28485">
		<tag k="fixme" v="consider natural=peak for the most distinct mountains in the district" />
		<tag k="name" v="Tjennåsen" />
		<tag k="natural" v="hill" />
		<tag k="place" v="locality" />
		<tag k="ssr:stedsnr" v="272962" />
	</node>
	<node lat="58.47291944375473" lon="8.53026944612345" id="-28502">
		<tag k="fixme" v="consider natural=peak for the most distinct mountains in the district" />
		<tag k="name" v="Fotvardsheia" />
		<tag k="natural" v="hill" />
		<tag k="place" v="locality" />
		<tag k="ssr:stedsnr" v="182657" />
	</node>
	<node lat="58.495619448848466" lon="8.767955561722552" id="-28516">
		<tag k="fixme" v="consider natural=peak for the most distinct mountains in the district" />
		<tag k="name" v="Mønekilheia" />
		<tag k="natural" v="hill" />
		<tag k="place" v="locality" />
		<tag k="ssr:stedsnr" v="212816" />
	</node>
	<node lat="58.581777775302044" lon="8.828255559622137" id="-28519">
		<tag k="name" v="Kvasseberg" />
		<tag k="natural" v="hill" />
		<tag k="place" v="locality" />
		<tag k="ssr:stedsnr" v="212149" />
	</node>
	<node lat="58.57377777764596" lon="8.826000002439825" id="-28520">
		<tag k="name" v="Lia" />
		<tag k="natural" v="slope" />
		<tag k="place" v="locality" />
		<tag k="ssr:stedsnr" v="212158" />
	</node>
	<node lat="58.528399997982085" lon="8.893072227885382" id="-28522">
		<tag k="fixme" v="consider natural=peak for the most distinct mountains in the district" />
		<tag k="name" v="Mokkeheia" />
		<tag k="natural" v="hill" />
		<tag k="place" v="locality" />
		<tag k="ssr:stedsnr" v="212170" />
	</node>
	<node lat="58.48558333558221" lon="8.871780564078385" id="-28526">
		<tag k="fixme" v="consider natural=peak for the most distinct mountains in the district" />
		<tag k="name" v="Høyåshei" />
		<tag k="natural" v="hill" />
		<tag k="place" v="locality" />
		<tag k="ssr:stedsnr" v="212255" />
	</node>
	<node lat="58.48855278184842" lon="8.83538888084178" id="-28529">
		<tag k="fixme" v="consider natural=peak for the most distinct mountains in the district" />
		<tag k="name" v="Saltrødåsen" />
		<tag k="natural" v="hill" />
		<tag k="place" v="locality" />
		<tag k="ssr:stedsnr" v="212265" />
	</node>
	<node lat="58.55488610942097" lon="8.847713895504931" id="-28530">
		<tag k="name" v="Tjønnerdalen" />
		<tag k="natural" v="valley" />
		<tag k="place" v="locality" />
		<tag k="ssr:stedsnr" v="212001" />
	</node>
	<node lat="58.527477781522066" lon="8.873469442771007" id="-28534">
		<tag k="fixme" v="consider natural=peak for the most distinct mountains in the district" />
		<tag k="name" v="Amsterdamheia" />
		<tag k="natural" v="hill" />
		<tag k="place" v="locality" />
		<tag k="ssr:stedsnr" v="212111" />
	</node>
	<node lat="58.520622223996035" lon="8.838705548979746" id="-28537">
		<tag k="fixme" v="consider natural=peak for the most distinct mountains in the district" />
		<tag k="name" v="Hesthagfjell" />
		<tag k="natural" v="hill" />
		<tag k="place" v="locality" />
		<tag k="ssr:stedsnr" v="212060" />
	</node>
	<node lat="58.52927221985585" lon="8.846366667887754" id="-28538">
		<tag k="fixme" v="consider natural=peak for the most distinct mountains in the district" />
		<tag k="name" v="De syv søstre" />
		<tag k="natural" v="hill" />
		<tag k="place" v="locality" />
		<tag k="ssr:stedsnr" v="212065" />
	</node>
	<node lat="58.52671944587608" lon="8.850480552497645" id="-28540">
		<tag k="fixme" v="consider natural=peak for the most distinct mountains in the district" />
		<tag k="name" v="Dypmyråsen" />
		<tag k="natural" v="hill" />
		<tag k="place" v="locality" />
		<tag k="ssr:stedsnr" v="212118" />
	</node>
	<node lat="58.515547226511494" lon="8.82168333271925" id="-28545">
		<tag k="name" v="Storebrot" />
		<tag k="natural" v="slope" />
		<tag k="place" v="locality" />
		<tag k="ssr:stedsnr" v="212343" />
	</node>
	<node lat="58.47022777575577" lon="8.849091665761938" id="-28548">
		<tag k="name" v="Vågsnes gruver" />
		<tag k="place" v="locality" />
		<tag k="ssr:stedsnr" v="212298" />
	</node>
	<node lat="58.48751111065733" lon="8.832644436976437" id="-28550">
		<tag k="fixme" v="consider natural=peak for the most distinct mountains in the district" />
		<tag k="name" v="Kloppeheia" />
		<tag k="natural" v="hill" />
		<tag k="place" v="locality" />
		<tag k="ssr:stedsnr" v="212367" />
	</node>
	<node lat="58.58590000366107" lon="8.811686103769595" id="-28555">
		<tag k="name" v="Fjellsliene" />
		<tag k="natural" v="slope" />
		<tag k="place" v="locality" />
		<tag k="ssr:stedsnr" v="212378" />
	</node>
	<node lat="58.59355555291679" lon="8.81869166993276" id="-28557">
		<tag k="fixme" v="consider natural=peak for the most distinct mountains in the district" />
		<tag k="name" v="Hullefjell" />
		<tag k="natural" v="hill" />
		<tag k="place" v="locality" />
		<tag k="ssr:stedsnr" v="212387" />
	</node>
	<node lat="58.550947222729604" lon="8.79408055629519" id="-28559">
		<tag k="name" v="Folefarkleiva" />
		<tag k="natural" v="slope" />
		<tag k="place" v="locality" />
		<tag k="ssr:stedsnr" v="212401" />
	</node>
	<node lat="58.55821111457795" lon="8.775847223846627" id="-28560">
		<tag k="name" v="Siringmoen" />
		<tag k="place" v="locality" />
		<tag k="ssr:stedsnr" v="212421" />
	</node>
	<node lat="58.467763886161336" lon="8.772747213964651" id="-28563">
		<tag k="fixme" v="consider natural=peak for the most distinct mountains in the district" />
		<tag k="name" v="Esperåsen" />
		<tag k="natural" v="hill" />
		<tag k="place" v="locality" />
		<tag k="ssr:stedsnr" v="212616" />
	</node>
	<node lat="58.56699444204395" lon="8.984724995096702" id="-28566">
		<tag k="name" v="Hovet" />
		<tag k="natural" v="hill" />
		<tag k="place" v="locality" />
		<tag k="ssr:stedsnr" v="212790" />
	</node>
	<node lat="58.44127222498779" lon="8.719916664202886" id="-28568">
		<tag k="name" v="Steindalen" />
		<tag k="natural" v="valley" />
		<tag k="place" v="locality" />
		<tag k="ssr:stedsnr" v="212798" />
	</node>
	<node lat="58.54643333201345" lon="8.75014721493933" id="-28570">
		<tag k="fixme" v="consider natural=peak for the most distinct mountains in the district" />
		<tag k="name" v="Berentshei" />
		<tag k="natural" v="hill" />
		<tag k="place" v="locality" />
		<tag k="ssr:stedsnr" v="212433" />
	</node>
	<node lat="58.500124999275656" lon="8.743988885255483" id="-28581">
		<tag k="fixme" v="consider natural=peak for the most distinct mountains in the district" />
		<tag k="name" v="Draknuten" />
		<tag k="natural" v="hill" />
		<tag k="place" v="locality" />
		<tag k="ssr:stedsnr" v="212660" />
	</node>
	<node lat="58.51155555496416" lon="8.757336118187478" id="-28582">
		<tag k="fixme" v="consider natural=peak for the most distinct mountains in the district" />
		<tag k="name" v="Ørnefjell" />
		<tag k="natural" v="hill" />
		<tag k="place" v="locality" />
		<tag k="ssr:stedsnr" v="212661" />
	</node>
	<node lat="58.49216388607348" lon="8.723952776133117" id="-28583">
		<tag k="name" v="Leirkollen" />
		<tag k="place" v="locality" />
		<tag k="ssr:stedsnr" v="212668" />
	</node>
	<node lat="58.56197222466464" lon="8.99377222071087" id="-28589">
		<tag k="name" v="Skudeberget" />
		<tag k="natural" v="hill" />
		<tag k="place" v="locality" />
		<tag k="ssr:stedsnr" v="212769" />
	</node>
	<node lat="58.445802781172375" lon="8.565955551228521" id="-28591">
		<tag k="fixme" v="consider natural=peak for the most distinct mountains in the district" />
		<tag k="name" v="Basdalsheia" />
		<tag k="natural" v="hill" />
		<tag k="place" v="locality" />
		<tag k="ssr:stedsnr" v="212835" />
	</node>
	<node lat="58.44093611306457" lon="8.669294437047919" id="-28595">
		<tag k="name" v="Kildalen" />
		<tag k="natural" v="valley" />
		<tag k="place" v="locality" />
		<tag k="ssr:stedsnr" v="212817" />
	</node>
	<node lat="58.450069447313105" lon="8.573552783182791" id="-28597">
		<tag k="name" v="Østre Skot" />
		<tag k="natural" v="slope" />
		<tag k="place" v="locality" />
		<tag k="ssr:stedsnr" v="212867" />
	</node>
	<node lat="58.493480555555344" lon="8.502783338413243" id="-28598">
		<tag k="fixme" v="consider natural=peak for the most distinct mountains in the district" />
		<tag k="name" v="Nordheia" />
		<tag k="natural" v="hill" />
		<tag k="place" v="locality" />
		<tag k="ssr:stedsnr" v="212935" />
	</node>
	<node lat="58.43946388813706" lon="8.644794452577687" id="-28600">
		<tag k="fixme" v="consider natural=peak for the most distinct mountains in the district" />
		<tag k="name" v="Kvernåsen" />
		<tag k="natural" v="hill" />
		<tag k="place" v="locality" />
		<tag k="ssr:stedsnr" v="212945" />
	</node>
	<node lat="58.42818055979177" lon="8.626366666800944" id="-28601">
		<tag k="fixme" v="consider natural=peak for the most distinct mountains in the district" />
		<tag k="name" v="Steinsåsen" />
		<tag k="natural" v="hill" />
		<tag k="place" v="locality" />
		<tag k="ssr:stedsnr" v="212958" />
	</node>
	<node lat="58.40814999616021" lon="8.629347224142215" id="-28603">
		<tag k="name" v="Sandberget" />
		<tag k="natural" v="hill" />
		<tag k="place" v="locality" />
		<tag k="ssr:stedsnr" v="212963" />
	</node>
	<node lat="58.56298055788706" lon="8.82930834147404" id="-28631">
		<tag k="fixme" v="consider natural=peak for the most distinct mountains in the district" />
		<tag k="name" v="Husefjell" />
		<tag k="natural" v="hill" />
		<tag k="place" v="locality" />
		<tag k="ssr:stedsnr" v="304646" />
	</node>
	<node lat="58.5652555541677" lon="8.8518666730619" id="-28633">
		<tag k="alt_name" v="Røysefjell" />
		<tag k="fixme" v="consider natural=peak for the most distinct mountains in the district" />
		<tag k="name" v="Røyerfjell" />
		<tag k="natural" v="hill" />
		<tag k="place" v="locality" />
		<tag k="ssr:stedsnr" v="304260" />
	</node>
	<node lat="58.47977500148115" lon="8.781416668170113" id="-28634">
		<tag k="name" v="Ribberlia" />
		<tag k="natural" v="slope" />
		<tag k="place" v="locality" />
		<tag k="ssr:stedsnr" v="304687" />
	</node>
	<node lat="58.5337583363163" lon="8.895327784604603" id="-28650">
		<tag k="fixme" v="consider natural=peak for the most distinct mountains in the district" />
		<tag k="name" v="Vindåsen" />
		<tag k="natural" v="hill" />
		<tag k="place" v="locality" />
		<tag k="ssr:stedsnr" v="333091" />
	</node>
	<node lat="58.56841944762437" lon="8.834111111573538" id="-28653">
		<tag k="fixme" v="consider natural=peak for the most distinct mountains in the district" />
		<tag k="name" v="Tiuråsen" />
		<tag k="natural" v="hill" />
		<tag k="place" v="locality" />
		<tag k="ssr:stedsnr" v="333185" />
	</node>
	<node lat="58.50171666783184" lon="8.845027782606783" id="-28664">
		<tag k="name" v="Budalen" />
		<tag k="natural" v="valley" />
		<tag k="place" v="locality" />
		<tag k="ssr:stedsnr" v="333035" />
	</node>
	<node lat="58.502122223495725" lon="8.930952786058963" id="-28665">
		<tag k="name" v="Bjørneholla" />
		<tag k="natural" v="valley" />
		<tag k="place" v="locality" />
		<tag k="ssr:stedsnr" v="333040" />
	</node>
	<node lat="58.45103333011035" lon="8.720619441288388" id="-28666">
		<tag k="fixme" v="consider natural=peak for the most distinct mountains in the district" />
		<tag k="name" v="Almåsen" />
		<tag k="natural" v="hill" />
		<tag k="place" v="locality" />
		<tag k="ssr:stedsnr" v="333225" />
	</node>
	<node lat="58.56827777400965" lon="8.98632777596398" id="-28673">
		<tag k="name" v="Tverrdalsheia" />
		<tag k="natural" v="hill" />
		<tag k="place" v="locality" />
		<tag k="ssr:stedsnr" v="333245" />
	</node>
	<node lat="58.49904722375376" lon="8.689224996067429" id="-28689">
		<tag k="fixme" v="consider natural=peak for the most distinct mountains in the district" />
		<tag k="name" v="Verpheia" />
		<tag k="natural" v="hill" />
		<tag k="place" v="locality" />
		<tag k="ssr:stedsnr" v="333529" />
	</node>
	<node lat="58.45111389144331" lon="8.816911112344078" id="-28692">
		<tag k="name" v="Helleren" />
		<tag k="place" v="locality" />
		<tag k="ssr:stedsnr" v="333617" />
	</node>
	<node lat="58.45056944119786" lon="8.800463888926151" id="-28693">
		<tag k="name" v="Tjenndalen" />
		<tag k="natural" v="valley" />
		<tag k="place" v="locality" />
		<tag k="ssr:stedsnr" v="333618" />
	</node>
	<node lat="58.44917499722067" lon="8.80058888712369" id="-28694">
		<tag k="name" v="Eggevidden" />
		<tag k="natural" v="hill" />
		<tag k="place" v="locality" />
		<tag k="ssr:stedsnr" v="333624" />
	</node>
	<node lat="58.41173889217585" lon="8.704438894840653" id="-28696">
		<tag k="fixme" v="consider natural=peak for the most distinct mountains in the district" />
		<tag k="name" v="Nedenesåsen" />
		<tag k="natural" v="hill" />
		<tag k="place" v="locality" />
		<tag k="ssr:stedsnr" v="333266" />
	</node>
	<node lat="58.47675000234884" lon="8.916383329203764" id="-28703">
		<tag k="name" v="Kaffikokeheia" />
		<tag k="natural" v="hill" />
		<tag k="place" v="locality" />
		<tag k="ssr:stedsnr" v="333390" />
	</node>
	<node lat="58.545561114204176" lon="8.802938884507638" id="-28705">
		<tag k="fixme" v="consider natural=peak for the most distinct mountains in the district" />
		<tag k="name" v="Trælåsen" />
		<tag k="natural" v="hill" />
		<tag k="place" v="locality" />
		<tag k="ssr:stedsnr" v="333470" />
	</node>
	<node lat="58.57052778000832" lon="8.787336106991425" id="-28707">
		<tag k="name" v="Grastein" />
		<tag k="natural" v="slope" />
		<tag k="place" v="locality" />
		<tag k="ssr:stedsnr" v="333483" />
	</node>
	<node lat="58.469472220293014" lon="8.750586117538864" id="-28711">
		<tag k="name" v="Granheia" />
		<tag k="natural" v="hill" />
		<tag k="place" v="locality" />
		<tag k="ssr:stedsnr" v="333572" />
	</node>
	<node lat="58.47298055499373" lon="8.790152777423764" id="-28713">
		<tag k="fixme" v="consider natural=peak for the most distinct mountains in the district" />
		<tag k="name" v="Kirkefjell" />
		<tag k="natural" v="hill" />
		<tag k="place" v="locality" />
		<tag k="ssr:stedsnr" v="333589" />
	</node>
	<node lat="58.46362500128344" lon="8.782986114794522" id="-28715">
		<tag k="name" v="Sankthansheia" />
		<tag k="natural" v="hill" />
		<tag k="place" v="locality" />
		<tag k="ssr:stedsnr" v="333593" />
	</node>
	<node lat="58.481611114074205" lon="8.718136113777403" id="-28717">
		<tag k="fixme" v="consider natural=peak for the most distinct mountains in the district" />
		<tag k="name" v="Seljåsheia" />
		<tag k="natural" v="hill" />
		<tag k="place" v="locality" />
		<tag k="ssr:stedsnr" v="333662" />
	</node>
	<node lat="58.57720015353002" lon="8.951606959362948" id="-28725">
		<tag k="name" v="Eikelandsklova" />
		<tag k="natural" v="valley" />
		<tag k="place" v="locality" />
		<tag k="ssr:stedsnr" v="333781" />
	</node>
	<node lat="58.45029444846464" lon="8.73448611203525" id="-28726">
		<tag k="name" v="Badstudalen" />
		<tag k="natural" v="valley" />
		<tag k="place" v="locality" />
		<tag k="ssr:stedsnr" v="333783" />
	</node>
	<node lat="58.447511114583484" lon="8.732469444878014" id="-28727">
		<tag k="fixme" v="consider natural=peak for the most distinct mountains in the district" />
		<tag k="name" v="Skibberhei" />
		<tag k="natural" v="hill" />
		<tag k="place" v="locality" />
		<tag k="ssr:stedsnr" v="333787" />
	</node>
	<node lat="58.450763887744024" lon="8.693472221104445" id="-28728">
		<tag k="fixme" v="consider natural=peak for the most distinct mountains in the district" />
		<tag k="name" v="Høyheia" />
		<tag k="natural" v="hill" />
		<tag k="place" v="locality" />
		<tag k="ssr:stedsnr" v="333791" />
	</node>
	<node lat="58.45277778167321" lon="8.704122229202765" id="-28729">
		<tag k="fixme" v="consider natural=peak for the most distinct mountains in the district" />
		<tag k="name" v="Verpåsen" />
		<tag k="natural" v="hill" />
		<tag k="place" v="locality" />
		<tag k="ssr:stedsnr" v="333792" />
	</node>
	<node lat="58.453522219719524" lon="8.576013892944177" id="-28731">
		<tag k="fixme" v="consider natural=peak for the most distinct mountains in the district" />
		<tag k="name" v="Bringebæråsen" />
		<tag k="natural" v="hill" />
		<tag k="place" v="locality" />
		<tag k="ssr:stedsnr" v="333876" />
	</node>
	<node lat="58.451122219175154" lon="8.598319442062474" id="-28733">
		<tag k="fixme" v="consider natural=peak for the most distinct mountains in the district" />
		<tag k="name" v="Store Bøygefjell" />
		<tag k="natural" v="hill" />
		<tag k="place" v="locality" />
		<tag k="ssr:stedsnr" v="333882" />
	</node>
	<node lat="58.52376111370836" lon="8.757583330827353" id="-28737">
		<tag k="name" v="Heståsdalen" />
		<tag k="natural" v="valley" />
		<tag k="place" v="locality" />
		<tag k="ssr:stedsnr" v="333724" />
	</node>
	<node lat="58.46755277753727" lon="8.85553333660151" id="-28738">
		<tag k="name" v="Soltopp" />
		<tag k="natural" v="hill" />
		<tag k="place" v="locality" />
		<tag k="ssr:stedsnr" v="333735" />
	</node>
	<node lat="58.55837778199946" lon="8.826927784895087" id="-28777">
		<tag k="fixme" v="consider natural=peak for the most distinct mountains in the district" />
		<tag k="name" v="Hagefjellheia" />
		<tag k="natural" v="hill" />
		<tag k="place" v="locality" />
		<tag k="ssr:stedsnr" v="393017" />
	</node>
	<node lat="58.50723889123285" lon="8.928711114842939" id="-28787">
		<tag k="fixme" v="consider natural=peak for the most distinct mountains in the district" />
		<tag k="name" v="Kjørvigberget" />
		<tag k="natural" v="hill" />
		<tag k="place" v="locality" />
		<tag k="ssr:stedsnr" v="393055" />
	</node>
	<node lat="58.56335277564932" lon="8.849036103066664" id="-28790">
		<tag k="name" v="Seten" />
		<tag k="place" v="locality" />
		<tag k="ssr:stedsnr" v="393145" />
	</node>
	<node lat="58.48886666699763" lon="8.872919448721742" id="-28796">
		<tag k="name" v="Fogne" />
		<tag k="natural" v="hill" />
		<tag k="place" v="locality" />
		<tag k="ssr:stedsnr" v="393256" />
	</node>
	<node lat="58.4851333360897" lon="8.861016670850594" id="-28797">
		<tag k="name" v="Sandneslia" />
		<tag k="natural" v="slope" />
		<tag k="place" v="locality" />
		<tag k="ssr:stedsnr" v="393260" />
	</node>
	<node lat="58.491311114535854" lon="8.911711111188444" id="-28798">
		<tag k="name" v="Kileheia" />
		<tag k="natural" v="hill" />
		<tag k="place" v="locality" />
		<tag k="ssr:stedsnr" v="393358" />
	</node>
	<node lat="58.48196110844736" lon="8.893677773371843" id="-28799">
		<tag k="name" v="Lindkloppa" />
		<tag k="place" v="locality" />
		<tag k="ssr:stedsnr" v="393367" />
	</node>
	<node lat="58.58282499865305" lon="8.820736119213025" id="-28809">
		<tag k="fixme" v="consider natural=peak for the most distinct mountains in the district" />
		<tag k="name" v="Toksbuhei" />
		<tag k="natural" v="hill" />
		<tag k="place" v="locality" />
		<tag k="ssr:stedsnr" v="393389" />
	</node>
	<node lat="58.53265832982386" lon="8.820955549450645" id="-28813">
		<tag k="fixme" v="consider natural=peak for the most distinct mountains in the district" />
		<tag k="name" v="Revåsen" />
		<tag k="natural" v="hill" />
		<tag k="place" v="locality" />
		<tag k="ssr:stedsnr" v="393419" />
	</node>
	<node lat="58.54467499719793" lon="8.807138892392755" id="-28815">
		<tag k="name" v="Styggedal" />
		<tag k="natural" v="valley" />
		<tag k="place" v="locality" />
		<tag k="ssr:stedsnr" v="393427" />
	</node>
	<node lat="58.53950555715758" lon="8.795199994223118" id="-28817">
		<tag k="fixme" v="consider natural=peak for the most distinct mountains in the district" />
		<tag k="name" v="Bøljåsen" />
		<tag k="natural" v="hill" />
		<tag k="place" v="locality" />
		<tag k="ssr:stedsnr" v="393430" />
	</node>
	<node lat="58.5665999960836" lon="8.814369451788114" id="-28818">
		<tag k="name" v="Glomsdalen" />
		<tag k="natural" v="valley" />
		<tag k="place" v="locality" />
		<tag k="ssr:stedsnr" v="393489" />
	</node>
	<node lat="58.426469446263795" lon="8.721111105042409" id="-28821">
		<tag k="name" v="Fagerli" />
		<tag k="natural" v="slope" />
		<tag k="place" v="locality" />
		<tag k="ssr:stedsnr" v="393748" />
	</node>
</osm>
