<?xml version="1.0" encoding="UTF-8"?>
<osm generator="osmapis" version="0.6">
	<node id="-481275" lat="58.5248666636" lon="8.83611388982">
		<tag k="name" v="Bjørkholt" />
		<tag k="place" v="farm" />
		<tag k="ssr:stedsnr" v="90068" />
	</node>
	<node id="-481273" lat="58.5046722204" lon="8.91564167409">
		<tag k="name" v="Løken" />
		<tag k="place" v="farm" />
		<tag k="ssr:stedsnr" v="90050" />
	</node>
	<node id="-481271" lat="58.5168777816" lon="8.91297221727">
		<tag k="name" v="Rørdalsvik" />
		<tag k="place" v="farm" />
		<tag k="ssr:stedsnr" v="90046" />
	</node>
	<node id="-481269" lat="58.510491666" lon="8.82917778341">
		<tag k="name" v="Engekjær" />
		<tag k="place" v="isolated_dwelling" />
		<tag k="ssr:stedsnr" v="90037" />
	</node>
	<node id="-481261" lat="58.4765416677" lon="8.8023722274">
		<tag k="name" v="Songe terrasse" />
		<tag k="place" v="quarter" />
		<tag k="ssr:stedsnr" v="90689" />
	</node>
	<node id="-481259" lat="58.4835944461" lon="8.74286110964">
		<tag k="alt_name" v="Øygården" />
		<tag k="name" v="Øygarden" />
		<tag k="place" v="locality" />
		<tag k="ssr:stedsnr" v="90677" />
	</node>
	<node id="-481256" lat="58.5165777801" lon="8.72855000788">
		<tag k="name" v="Langehage" />
		<tag k="place" v="isolated_dwelling" />
		<tag k="ssr:stedsnr" v="90657" />
	</node>
	<node id="-479910" lat="58.4556138911" lon="8.6481055471">
		<tag k="name" v="Bjørnsholla" />
		<tag k="place" v="locality" />
		<tag k="ssr:stedsnr" v="333926" />
	</node>
	<node id="-481249" lat="58.5600611079" lon="8.81022777621">
		<tag k="name" v="Dalbu" />
		<tag k="place" v="farm" />
		<tag k="ssr:stedsnr" v="62647" />
	</node>
	<node id="-481248" lat="58.5394944476" lon="8.87864166452">
		<tag k="alt_name" v="Skarvedalen" />
		<tag k="name" v="Skavdalen" />
		<tag k="place" v="farm" />
		<tag k="ssr:stedsnr" v="62235" />
	</node>
	<node id="-481247" lat="58.5433688183" lon="8.95649946912">
		<tag k="name" v="Myra" />
		<tag k="place" v="isolated_dwelling" />
		<tag k="ssr:stedsnr" v="62217" />
	</node>
	<node id="-481246" lat="58.4811583336" lon="8.85906944538">
		<tag k="name" v="Sandstø" />
		<tag k="place" v="farm" />
		<tag k="ssr:stedsnr" v="61912" />
	</node>
	<node id="-481245" lat="58.4865591271" lon="8.91670982218">
		<tag k="name" v="Krossen" />
		<tag k="place" v="farm" />
		<tag k="ssr:stedsnr" v="61908" />
	</node>
	<node id="-481243" lat="58.5808666668" lon="8.81933332553">
		<tag k="name" v="Fjellsøygard" />
		<tag k="place" v="farm" />
		<tag k="ssr:stedsnr" v="61849" />
	</node>
	<node id="-481242" lat="58.530644447" lon="8.79296388985">
		<tag k="fixme" v="consider place=hamlet" />
		<tag k="name" v="Holtebekk" />
		<tag k="place" v="farm" />
		<tag k="ssr:stedsnr" v="61688" />
	</node>
	<node id="-481240" lat="58.4777750042" lon="8.75661388311">
		<tag k="name" v="Torsbudalen" />
		<tag k="place" v="farm" />
		<tag k="ssr:stedsnr" v="61648" />
	</node>
	<node id="-481236" lat="58.4464305536" lon="8.60386111969">
		<tag k="fixme" v="consider place=hamlet" />
		<tag k="name" v="Furre" />
		<tag k="place" v="farm" />
		<tag k="ssr:stedsnr" v="61599" />
	</node>
	<node id="-481232" lat="58.4192944479" lon="8.61360278112">
		<tag k="name" v="Lindtveit" />
		<tag k="place" v="hamlet" />
		<tag k="ssr:stedsnr" v="61571" />
	</node>
	<node id="-481231" lat="58.4147750015" lon="8.64731666978">
		<tag k="fixme" v="consider place=hamlet" />
		<tag k="name" v="Klepp" />
		<tag k="place" v="farm" />
		<tag k="ssr:stedsnr" v="61539" />
	</node>
	<node id="-481229" lat="58.5009222236" lon="8.83768888601">
		<tag k="alt_name" v="Vestre Mørfjær" />
		<tag k="name" v="Mørfjær" />
		<tag k="place" v="farm" />
		<tag k="ssr:stedsnr" v="61490" />
	</node>
	<node id="-481226" lat="58.4369722194" lon="8.76261944918">
		<tag k="fixme" v="consider place=hamlet" />
		<tag k="name" v="Trommestad" />
		<tag k="place" v="farm" />
		<tag k="ssr:stedsnr" v="60589" />
	</node>
	<node id="-481224" lat="58.4874495995" lon="8.9013942445">
		<tag k="name" v="Skare" />
		<tag k="place" v="hamlet" />
		<tag k="ssr:stedsnr" v="57129" />
	</node>
	<node id="-481218" lat="58.4992194445" lon="8.84218888694">
		<tag k="fixme" v="consider place=hamlet" />
		<tag k="name" v="Østre Mørfjær" />
		<tag k="place" v="farm" />
		<tag k="ssr:stedsnr" v="30998" />
	</node>
	<node id="-481217" lat="58.468873804" lon="8.7029616638">
		<tag k="name" v="Blokken" />
		<tag k="place" v="farm" />
		<tag k="ssr:stedsnr" v="30997" />
	</node>
	<node id="-481212" lat="58.4938583307" lon="8.69393888561">
		<tag k="fixme" v="consider place=hamlet" />
		<tag k="name" v="Lille Assev" />
		<tag k="place" v="farm" />
		<tag k="ssr:stedsnr" v="30944" />
	</node>
	<node id="-479903" lat="58.4352472213" lon="8.62915833011">
		<tag k="name" v="Øvrejordet" />
		<tag k="place" v="farm" />
		<tag k="ssr:stedsnr" v="333527" />
	</node>
	<node id="-481208" lat="58.4604222202" lon="8.78857777193">
		<tag k="name" v="Pusnes gård" />
		<tag k="place" v="farm" />
		<tag k="ssr:stedsnr" v="30597" />
	</node>
	<node id="-481207" lat="58.4690361145" lon="8.79207777498">
		<tag k="name" v="Sommerfryd" />
		<tag k="place" v="quarter" />
		<tag k="ssr:stedsnr" v="30594" />
	</node>
	<node id="-481635" lat="58.4407444443" lon="8.69454166234">
		<tag k="fixme" v="consider place=hamlet" />
		<tag k="name" v="(Lille) Lunnerød" />
		<tag k="place" v="farm" />
		<tag k="ssr:stedsnr" v="212773" />
	</node>
	<node id="-479481" lat="58.4254916651" lon="8.74789999721">
		<tag k="name" v="Heimarnes" />
		<tag k="place" v="farm" />
		<tag k="ssr:stedsnr" v="243585" />
	</node>
	<node id="-479958" lat="58.4414388878" lon="8.72745833882">
		<tag k="name" v="Refsnes" />
		<tag k="place" v="locality" />
		<tag k="ssr:stedsnr" v="390669" />
	</node>
	<node id="-481184" lat="58.5829333316" lon="8.98117777946">
		<tag k="name" v="Kvernhusa" />
		<tag k="place" v="locality" />
		<tag k="ssr:stedsnr" v="30215" />
	</node>
	<node id="-481181" lat="58.5611777794" lon="8.96094722681">
		<tag k="name" v="Brokeland" />
		<tag k="place" v="farm" />
		<tag k="ssr:stedsnr" v="30776" />
	</node>
	<node id="-481176" lat="58.4631473011" lon="8.70818893482">
		<tag k="name" v="Einerhaugen" />
		<tag k="place" v="isolated_dwelling" />
		<tag k="ssr:stedsnr" v="29990" />
	</node>
	<node id="-481173" lat="58.458361115" lon="8.65667778535">
		<tag k="name" v="Tjergrovmyr" />
		<tag k="place" v="farm" />
		<tag k="ssr:stedsnr" v="29929" />
	</node>
	<node id="-481162" lat="58.4424944417" lon="8.57805834032">
		<tag k="name" v="Bratteberg" />
		<tag k="place" v="farm" />
		<tag k="ssr:stedsnr" v="29832" />
	</node>
	<node id="-481160" lat="58.4442305579" lon="8.58205277755">
		<tag k="name" v="Myra" />
		<tag k="place" v="farm" />
		<tag k="ssr:stedsnr" v="29826" />
	</node>
	<node id="-481158" lat="58.451247224" lon="8.70746666944">
		<tag k="name" v="Verpet" />
		<tag k="place" v="locality" />
		<tag k="ssr:stedsnr" v="29807" />
	</node>
	<node id="-481156" lat="58.4409194447" lon="8.69024167228">
		<tag k="name" v="Sletta" />
		<tag k="place" v="farm" />
		<tag k="ssr:stedsnr" v="29802" />
	</node>
	<node id="-481155" lat="58.4386083347" lon="8.67565277168">
		<tag k="name" v="Hermannsplass" />
		<tag k="place" v="farm" />
		<tag k="ssr:stedsnr" v="29800" />
	</node>
	<node id="-481154" lat="58.4422361152" lon="8.68565833623">
		<tag k="name" v="Rønningen" />
		<tag k="place" v="farm" />
		<tag k="ssr:stedsnr" v="29799" />
	</node>
	<node id="-481153" lat="58.4292638925" lon="8.66089166223">
		<tag k="name" v="Høgda" />
		<tag k="place" v="farm" />
		<tag k="ssr:stedsnr" v="29782" />
	</node>
	<node id="-481151" lat="58.4194277743" lon="8.66599167208">
		<tag k="name" v="Plassen" />
		<tag k="place" v="locality" />
		<tag k="ssr:stedsnr" v="29767" />
	</node>
	<node id="-481144" lat="58.4764833301" lon="8.76346110334">
		<tag k="amenity" v="school" />
		<tag k="name" v="Moltemyr skole" />
		<tag k="ssr:stedsnr" v="29699" />
	</node>
	<node id="-481143" lat="58.4824888871" lon="8.72647500746">
		<tag k="fixme" v="consider place=hamlet" />
		<tag k="name" v="Flodda" />
		<tag k="place" v="farm" />
		<tag k="ssr:stedsnr" v="29688" />
	</node>
	<node id="-481141" lat="58.4970333322" lon="8.71940832662">
		<tag k="name" v="Eigestø" />
		<tag k="place" v="farm" />
		<tag k="ssr:stedsnr" v="29674" />
	</node>
	<node id="-481134" lat="58.5257320291" lon="8.88469811154">
		<tag k="name" v="Gullknapp" />
		<tag k="place" v="farm" />
		<tag k="ssr:stedsnr" v="30172" />
	</node>
	<node id="-481133" lat="58.5761222226" lon="8.8273750036">
		<tag k="name" v="Lille Landbø" />
		<tag k="place" v="farm" />
		<tag k="ssr:stedsnr" v="30152" />
	</node>
	<node id="-480231" lat="58.4752916641" lon="8.68640277023">
		<tag k="name" v="Mauretangen" />
		<tag k="place" v="farm" />
		<tag k="ssr:stedsnr" v="485611" />
	</node>
	<node id="-481121" lat="58.4346583357" lon="8.82561111757">
		<tag k="name" v="Hove camping" />
		<tag k="ssr:stedsnr" v="29305" />
		<tag k="tourism" v="camp_site" />
	</node>
	<node id="-481120" lat="58.4945407326" lon="8.84009606542">
		<tag k="name" v="Allevika" />
		<tag k="place" v="farm" />
		<tag k="ssr:stedsnr" v="29302" />
	</node>
	<node id="-481118" lat="58.405958329" lon="8.70249166592">
		<tag k="name" v="Gruben" />
		<tag k="place" v="farm" />
		<tag k="ssr:stedsnr" v="29281" />
	</node>
	<node id="-480569" lat="58.484438395" lon="8.88698050407">
		<tag k="name" v="Birketein" />
		<tag k="place" v="isolated_dwelling" />
		<tag k="ssr:stedsnr" v="879352" />
	</node>
	<node id="-481108" lat="58.4870999992" lon="8.90373611318">
		<tag k="fixme" v="consider place=hamlet" />
		<tag k="name" v="Skare" />
		<tag k="place" v="farm" />
		<tag k="ssr:stedsnr" v="27282" />
	</node>
	<node id="-481102" lat="58.4382749998" lon="8.79213889012">
		<tag k="name" v="Rægevig" />
		<tag k="place" v="locality" />
		<tag k="ssr:stedsnr" v="26698" />
	</node>
	<node id="-481099" lat="58.5322222234" lon="8.83206666277">
		<tag k="name" v="Østre Bråvoll" />
		<tag k="place" v="farm" />
		<tag k="ssr:stedsnr" v="1692" />
	</node>
	<node id="-481098" lat="58.536911107" lon="8.83850277933">
		<tag k="fixme" v="consider place=hamlet" />
		<tag k="name" v="Østre Ottersland" />
		<tag k="place" v="farm" />
		<tag k="ssr:stedsnr" v="1689" />
	</node>
	<node id="-481096" lat="58.4998083378" lon="8.7576166723">
		<tag k="fixme" v="consider place=hamlet" />
		<tag k="name" v="Eskestøl" />
		<tag k="place" v="farm" />
		<tag k="ssr:stedsnr" v="1535" />
	</node>
	<node id="-481094" lat="58.5360916674" lon="8.92864444222">
		<tag k="name" v="Øygarden" />
		<tag k="place" v="isolated_dwelling" />
		<tag k="ssr:stedsnr" v="1260" />
	</node>
	<node id="-481093" lat="58.5459772698" lon="8.95997717103">
		<tag k="name" v="Svartnesbu" />
		<tag k="place" v="farm" />
		<tag k="ssr:stedsnr" v="1240" />
	</node>
	<node id="-481092" lat="58.5407999995" lon="8.92052777253">
		<tag k="name" v="Kjenes" />
		<tag k="place" v="farm" />
		<tag k="ssr:stedsnr" v="1234" />
	</node>
	<node id="-481090" lat="58.4639945864" lon="8.88930145513">
		<tag k="name" v="Botne" />
		<tag k="place" v="farm" />
		<tag k="ssr:stedsnr" v="941" />
	</node>
	<node id="-481087" lat="58.4985388879" lon="8.91421111515">
		<tag k="alt_name" v="Uggelsmyr" />
		<tag k="name" v="Ugelsmyra" />
		<tag k="place" v="farm" />
		<tag k="ssr:stedsnr" v="924" />
	</node>
	<node id="-481084" lat="58.548324999" lon="8.80554166639">
		<tag k="fixme" v="consider place=hamlet" />
		<tag k="name" v="Brekka" />
		<tag k="place" v="village" />
		<tag k="ssr:stedsnr" v="635" />
	</node>
	<node id="-481083" lat="58.4611499969" lon="8.69171943958">
		<tag k="alt_name" v="Sagenes" />
		<tag k="fixme" v="consider place=hamlet" />
		<tag k="name" v="Sagneset" />
		<tag k="place" v="farm" />
		<tag k="ssr:stedsnr" v="632" />
	</node>
	<node id="-481081" lat="58.4604083306" lon="8.78858056316">
		<tag k="name" v="Pusnes" />
		<tag k="place" v="farm" />
		<tag k="ssr:stedsnr" v="622" />
	</node>
	<node id="-481080" lat="58.4498666703" lon="8.72023056195">
		<tag k="name" v="Grandalen" />
		<tag k="place" v="farm" />
		<tag k="ssr:stedsnr" v="621" />
	</node>
	<node id="-481079" lat="58.4509277817" lon="8.83804721932">
		<tag k="name" v="Simonstø" />
		<tag k="place" v="farm" />
		<tag k="ssr:stedsnr" v="605" />
	</node>
	<node id="-481076" lat="58.4305166644" lon="8.53247777559">
		<tag k="name" v="Kollåsen" />
		<tag k="place" v="farm" />
		<tag k="ssr:stedsnr" v="590" />
	</node>
	<node id="-481074" lat="58.4271722181" lon="8.68064721455">
		<tag k="name" v="Fogdemyra" />
		<tag k="place" v="farm" />
		<tag k="ssr:stedsnr" v="577" />
	</node>
	<node id="-481073" lat="58.4264333352" lon="8.7551083325">
		<tag k="building" v="commercial" />
		<tag k="name" v="Flødeviga" />
		<tag k="ssr:stedsnr" v="574" />
	</node>
	<node id="-481072" lat="58.4122694402" lon="8.57595278463">
		<tag k="alt_name" v="Holmane" />
		<tag k="name" v="Holmene" />
		<tag k="place" v="farm" />
		<tag k="ssr:stedsnr" v="569" />
	</node>
	<node id="-481071" lat="58.4097388852" lon="8.63843610694">
		<tag k="fixme" v="consider place=hamlet" />
		<tag k="name" v="Rykene" />
		<tag k="place" v="village" />
		<tag k="ssr:stedsnr" v="568" />
	</node>
	<node id="-481065" lat="58.484605559" lon="8.72200832697">
		<tag k="name" v="Smedplassen" />
		<tag k="place" v="farm" />
		<tag k="ssr:stedsnr" v="668" />
	</node>
	<node id="-481064" lat="58.4779388918" lon="8.67618054996">
		<tag k="name" v="Libru" />
		<tag k="place" v="hamlet" />
		<tag k="ssr:stedsnr" v="664" />
	</node>
	<node id="-481063" lat="58.5171138923" lon="8.91479444099">
		<tag k="name" v="Jamseng" />
		<tag k="place" v="farm" />
		<tag k="ssr:stedsnr" v="212" />
	</node>
	<node id="-481057" lat="58.4508027791" lon="8.79252222202">
		<tag k="leisure" v="pitch" />
		<tag k="name" v="Traumabanen" />
		<tag k="ssr:stedsnr" v="940646" />
	</node>
	<node id="-481056" lat="58.4451333328" lon="8.79136111571">
		<tag k="name" v="Salvesmyr" />
		<tag k="place" v="quarter" />
		<tag k="ssr:stedsnr" v="940645" />
	</node>
	<node id="-481055" lat="58.4358361144" lon="8.77168889621">
		<tag k="name" v="Nygård" />
		<tag k="place" v="farm" />
		<tag k="ssr:stedsnr" v="940642" />
	</node>
	<node id="-481054" lat="58.4970083319" lon="8.733694448">
		<tag k="name" v="Bakken" />
		<tag k="place" v="farm" />
		<tag k="ssr:stedsnr" v="940640" />
	</node>
	<node id="-481051" lat="58.4367127065" lon="8.79681545515">
		<tag k="name" v="Marstrand" />
		<tag k="place" v="farm" />
		<tag k="ssr:stedsnr" v="940622" />
	</node>
	<node id="-481043" lat="58.5799442288" lon="8.96626038552">
		<tag k="name" v="Korsen" />
		<tag k="place" v="isolated_dwelling" />
		<tag k="ssr:stedsnr" v="911309" />
	</node>
	<node id="-479779" lat="58.4733694445" lon="8.75065277521">
		<tag k="name" v="Råna" />
		<tag k="place" v="farm" />
		<tag k="ssr:stedsnr" v="454588" />
	</node>
	<node id="-479875" lat="58.502099998" lon="8.74524444697">
		<tag k="alt_name" v="Krakkstad" />
		<tag k="fixme" v="consider place=hamlet" />
		<tag k="name" v="Krakstad" />
		<tag k="place" v="farm" />
		<tag k="ssr:stedsnr" v="304517" />
	</node>
	<node id="-481040" lat="58.5227586747" lon="8.9055406735">
		<tag k="name" v="Bjørkenes" />
		<tag k="place" v="farm" />
		<tag k="ssr:stedsnr" v="911246" />
	</node>
	<node id="-481039" lat="58.5398833348" lon="8.9016027752">
		<tag k="alt_name" v="Slåttekjerr" />
		<tag k="name" v="Slåttekjær" />
		<tag k="place" v="farm" />
		<tag k="ssr:stedsnr" v="911239" />
	</node>
	<node id="-481037" lat="58.5455750041" lon="8.98143056321">
		<tag k="name" v="Brårvik" />
		<tag k="place" v="farm" />
		<tag k="ssr:stedsnr" v="911236" />
	</node>
	<node id="-481036" lat="58.5137111067" lon="8.84823611133">
		<tag k="alt_name" v="Gunnarsbo" />
		<tag k="name" v="Gunnarbu" />
		<tag k="place" v="farm" />
		<tag k="ssr:stedsnr" v="911207" />
	</node>
	<node id="-481035" lat="58.5074694435" lon="8.93160277436">
		<tag k="name" v="Kjørvik" />
		<tag k="place" v="farm" />
		<tag k="ssr:stedsnr" v="911203" />
	</node>
	<node id="-480212" lat="58.5000364231" lon="8.90031484879">
		<tag k="name" v="Ospestø" />
		<tag k="place" v="isolated_dwelling" />
		<tag k="ssr:stedsnr" v="668229" />
	</node>
	<node id="-481014" lat="58.4529444411" lon="8.84621667013">
		<tag k="name" v="Kjerra" />
		<tag k="place" v="farm" />
		<tag k="ssr:stedsnr" v="877070" />
	</node>
	<node id="-481012" lat="58.459280558" lon="8.61439722123">
		<tag k="alt_name" v="Risehagen" />
		<tag k="name" v="Risehaven" />
		<tag k="place" v="farm" />
		<tag k="ssr:stedsnr" v="940993" />
	</node>
	<node id="-480211" lat="58.5119944421" lon="8.8813194374">
		<tag k="name" v="Hamnevollen" />
		<tag k="place" v="farm" />
		<tag k="ssr:stedsnr" v="668206" />
	</node>
	<node id="-481007" lat="58.4314194466" lon="8.64989722906">
		<tag k="name" v="Klidningskleiv" />
		<tag k="place" v="farm" />
		<tag k="ssr:stedsnr" v="940958" />
	</node>
	<node id="-481006" lat="58.4272888932" lon="8.65837500675">
		<tag k="name" v="Bjørndalen" />
		<tag k="place" v="farm" />
		<tag k="ssr:stedsnr" v="940956" />
	</node>
	<node id="-481001" lat="58.469122221" lon="8.65344443637">
		<tag k="name" v="Lille Rossedalen" />
		<tag k="place" v="farm" />
		<tag k="ssr:stedsnr" v="940946" />
	</node>
	<node id="-480993" lat="58.4232305518" lon="8.6408138941">
		<tag k="name" v="Stormoen" />
		<tag k="place" v="farm" />
		<tag k="ssr:stedsnr" v="940903" />
	</node>
	<node id="-480992" lat="58.4117055595" lon="8.62058610567">
		<tag k="name" v="Rønningen" />
		<tag k="place" v="farm" />
		<tag k="ssr:stedsnr" v="940900" />
	</node>
	<node id="-480985" lat="58.4770805545" lon="8.8786833372">
		<tag k="name" v="Solbakken" />
		<tag k="place" v="farm" />
		<tag k="ssr:stedsnr" v="940825" />
	</node>
	<node id="-480982" lat="58.432177781" lon="8.69522221383">
		<tag k="name" v="Madshaven" />
		<tag k="place" v="farm" />
		<tag k="ssr:stedsnr" v="940815" />
	</node>
	<node id="-480974" lat="58.445358337" lon="8.71417222787">
		<tag k="name" v="Skarvedalen" />
		<tag k="place" v="farm" />
		<tag k="ssr:stedsnr" v="940767" />
	</node>
	<node id="-480972" lat="58.4450361149" lon="8.70238888388">
		<tag k="name" v="Askedalen" />
		<tag k="place" v="farm" />
		<tag k="ssr:stedsnr" v="940765" />
	</node>
	<node id="-480963" lat="58.4799472243" lon="8.72785555088">
		<tag k="name" v="Romstølen" />
		<tag k="place" v="farm" />
		<tag k="ssr:stedsnr" v="940668" />
	</node>
	<node id="-480203" lat="58.4612138863" lon="8.76694721833">
		<tag k="name" v="Arendal" />
		<tag k="place" v="town" />
		<tag k="ssr:stedsnr" v="667594" />
	</node>
	<node id="-480960" lat="58.4676472243" lon="8.78954166362">
		<tag k="amenity" v="nursing_home" />
		<tag k="name" v="Bellevue" />
		<tag k="ssr:stedsnr" v="940587" />
	</node>
	<node id="-480959" lat="58.4571304395" lon="8.75004087994">
		<tag k="name" v="Solli" />
		<tag k="place" v="isolated_dwelling" />
		<tag k="ssr:stedsnr" v="940530" />
	</node>
	<node id="-480946" lat="58.5547330111" lon="8.78489246538">
		<tag k="name" v="Volletjenn" />
		<tag k="place" v="farm" />
		<tag k="ssr:stedsnr" v="940419" />
	</node>
	<node id="-480945" lat="58.5474439384" lon="8.81027283527">
		<tag k="fixme" v="consider place=hamlet" />
		<tag k="name" v="Moland prestegård" />
		<tag k="place" v="farm" />
		<tag k="ssr:stedsnr" v="940411" />
	</node>
	<node id="-480944" lat="58.5285111135" lon="8.81092778217">
		<tag k="name" v="Tveite østre" />
		<tag k="place" v="farm" />
		<tag k="ssr:stedsnr" v="940402" />
	</node>
	<node id="-480541" lat="58.4388888867" lon="8.76609166108">
		<tag k="name" v="Slåbervighullet" />
		<tag k="place" v="farm" />
		<tag k="ssr:stedsnr" v="879204" />
	</node>
	<node id="-480940" lat="58.4825055511" lon="8.83394444295">
		<tag k="name" v="Vestre Saltrød" />
		<tag k="place" v="quarter" />
		<tag k="ssr:stedsnr" v="940371" />
	</node>
	<node id="-480933" lat="58.5148603533" lon="8.78581473288">
		<tag k="name" v="Nyli" />
		<tag k="place" v="farm" />
		<tag k="ssr:stedsnr" v="940329" />
	</node>
	<node id="-480921" lat="58.4900166709" lon="8.87215278462">
		<tag k="name" v="Granli" />
		<tag k="place" v="farm" />
		<tag k="ssr:stedsnr" v="940256" />
	</node>
	<node id="-480914" lat="58.4209194432" lon="8.69687778447">
		<tag k="name" v="Langevoll" />
		<tag k="place" v="farm" />
		<tag k="ssr:stedsnr" v="940230" />
	</node>
	<node id="-480913" lat="58.5552805551" lon="8.94871111522">
		<tag k="name" v="Røykjær" />
		<tag k="place" v="locality" />
		<tag k="ssr:stedsnr" v="940228" />
	</node>
	<node id="-480912" lat="58.419197218" lon="8.69569444059">
		<tag k="name" v="Skyttervollen" />
		<tag k="place" v="farm" />
		<tag k="ssr:stedsnr" v="940227" />
	</node>
	<node id="-479512" lat="58.4433334241" lon="8.58831558718">
		<tag k="alt_name" v="Øvre Nævisdal" />
		<tag k="fixme" v="consider place=hamlet" />
		<tag k="name" v="Nævesdal" />
		<tag k="place" v="farm" />
		<tag k="ssr:stedsnr" v="121617" />
	</node>
	<node id="-480907" lat="58.4150833345" lon="8.71636943668">
		<tag k="name" v="Svenskehaven" />
		<tag k="place" v="locality" />
		<tag k="ssr:stedsnr" v="940210" />
	</node>
	<node id="-480535" lat="58.4456749966" lon="8.71854167206">
		<tag k="alt_name" v="Ytre Høiåsen" />
		<tag k="name" v="Øvre Høyåsen" />
		<tag k="place" v="farm" />
		<tag k="ssr:stedsnr" v="879187" />
	</node>
	<node id="-480534" lat="58.4473222254" lon="8.71524999935">
		<tag k="name" v="Nedre Høyåsen" />
		<tag k="place" v="farm" />
		<tag k="ssr:stedsnr" v="879186" />
	</node>
	<node id="-479851" lat="58.4270527802" lon="8.63654444493">
		<tag k="name" v="Langemyr" />
		<tag k="place" v="farm" />
		<tag k="ssr:stedsnr" v="272953" />
	</node>
	<node id="-480895" lat="58.5537694455" lon="8.91357778378">
		<tag k="name" v="Tjønndalen" />
		<tag k="place" v="farm" />
		<tag k="ssr:stedsnr" v="940107" />
	</node>
	<node id="-482335" lat="58.5668500003" lon="8.82134166485">
		<tag k="name" v="Lille Våje" />
		<tag k="place" v="farm" />
		<tag k="ssr:stedsnr" v="785042" />
	</node>
	<node id="-479850" lat="58.4575666649" lon="8.70067778265">
		<tag k="name" v="Lauvbakken" />
		<tag k="place" v="locality" />
		<tag k="ssr:stedsnr" v="272916" />
	</node>
	<node id="-480191" lat="58.4708472189" lon="8.63698333427">
		<tag k="name" v="Nyhagen" />
		<tag k="place" v="farm" />
		<tag k="ssr:stedsnr" v="454959" />
	</node>
	<node id="-480884" lat="58.5058055581" lon="8.84793611365">
		<tag k="name" v="Vroldsmyr" />
		<tag k="place" v="farm" />
		<tag k="ssr:stedsnr" v="940036" />
	</node>
	<node id="-480189" lat="58.4485250009" lon="8.67039444579">
		<tag k="fixme" v="consider place=hamlet" />
		<tag k="name" v="Store Omholt" />
		<tag k="place" v="farm" />
		<tag k="ssr:stedsnr" v="454774" />
	</node>
	<node id="-479506" lat="58.5281861076" lon="8.75299722236">
		<tag k="name" v="Granestua" />
		<tag k="place" v="isolated_dwelling" />
		<tag k="ssr:stedsnr" v="90704" />
	</node>
	<node id="-480867" lat="58.4554388848" lon="8.80405555926">
		<tag k="amenity" v="school" />
		<tag k="name" v="Roligheten skole" />
		<tag k="ssr:stedsnr" v="819818" />
	</node>
	<node id="-480862" lat="58.4983444481" lon="8.90501111917">
		<tag k="name" v="Sokkemyr" />
		<tag k="place" v="farm" />
		<tag k="ssr:stedsnr" v="819053" />
	</node>
	<node id="-480861" lat="58.4661333365" lon="8.61814444391">
		<tag k="name" v="Vesterhave" />
		<tag k="place" v="farm" />
		<tag k="ssr:stedsnr" v="818977" />
	</node>
	<node id="-480854" lat="58.4495833292" lon="8.665625003">
		<tag k="name" v="Skoghaven" />
		<tag k="place" v="farm" />
		<tag k="ssr:stedsnr" v="818803" />
	</node>
	<node id="-480849" lat="58.4052194479" lon="8.67972500703">
		<tag k="name" v="Bjønnum" />
		<tag k="place" v="farm" />
		<tag k="ssr:stedsnr" v="818759" />
	</node>
	<node id="-480848" lat="58.4758888917" lon="8.77952778486">
		<tag k="name" v="Nygård" />
		<tag k="place" v="farm" />
		<tag k="ssr:stedsnr" v="818726" />
	</node>
	<node id="-480847" lat="58.4864388926" lon="8.75818610502">
		<tag k="name" v="Frednes" />
		<tag k="place" v="farm" />
		<tag k="ssr:stedsnr" v="818719" />
	</node>
	<node id="-480841" lat="58.4628888861" lon="8.75720277106">
		<tag k="amenity" v="school" />
		<tag k="name" v="Stinta skole" />
		<tag k="ssr:stedsnr" v="818611" />
	</node>
	<node id="-480824" lat="58.4415222231" lon="8.76501943922">
		<tag k="name" v="Stemmehagen" />
		<tag k="place" v="farm" />
		<tag k="ssr:stedsnr" v="818209" />
	</node>
	<node id="-480823" lat="58.4279277823" lon="8.72958055818">
		<tag k="name" v="Nidelv camp" />
		<tag k="ssr:stedsnr" v="818204" />
		<tag k="tourism" v="camp_site" />
	</node>
	<node id="-480809" lat="58.5236777822" lon="8.83492500372">
		<tag k="name" v="Nedre Hesthag" />
		<tag k="place" v="farm" />
		<tag k="ssr:stedsnr" v="790754" />
	</node>
	<node id="-480807" lat="58.5440979616" lon="8.92183889882">
		<tag k="name" v="Bjørndalen" />
		<tag k="place" v="farm" />
		<tag k="ssr:stedsnr" v="790192" />
	</node>
	<node id="-480806" lat="58.543627782" lon="8.91586665958">
		<tag k="alt_name" v="Jorundstad" />
		<tag k="fixme" v="consider place=hamlet" />
		<tag k="name" v="Jorunnstad" />
		<tag k="place" v="farm" />
		<tag k="ssr:stedsnr" v="790191" />
	</node>
	<node id="-480805" lat="58.5480456836" lon="8.95076539798">
		<tag k="name" v="Blekestrand" />
		<tag k="place" v="farm" />
		<tag k="ssr:stedsnr" v="790189" />
	</node>
	<node id="-480804" lat="58.5324583338" lon="8.87678610582">
		<tag k="name" v="Nerdalen" />
		<tag k="place" v="farm" />
		<tag k="ssr:stedsnr" v="790213" />
	</node>
	<node id="-479494" lat="58.5365055569" lon="8.85569999773">
		<tag k="name" v="Sagene" />
		<tag k="place" v="farm" />
		<tag k="ssr:stedsnr" v="244244" />
	</node>
	<node id="-480799" lat="58.4712111083" lon="8.71217499723">
		<tag k="name" v="Myra" />
		<tag k="place" v="farm" />
		<tag k="ssr:stedsnr" v="789651" />
	</node>
	<node id="-480798" lat="58.5083972254" lon="8.93999166397">
		<tag k="name" v="Øyna" />
		<tag k="place" v="isolated_dwelling" />
		<tag k="ssr:stedsnr" v="789203" />
	</node>
	<node id="-480797" lat="58.4173833321" lon="8.67544444721">
		<tag k="fixme" v="consider place=hamlet" />
		<tag k="name" v="Væding" />
		<tag k="place" v="farm" />
		<tag k="ssr:stedsnr" v="788571" />
	</node>
	<node id="-480796" lat="58.4310694461" lon="8.74404165857">
		<tag k="name" v="His" />
		<tag k="place" v="quarter" />
		<tag k="ssr:stedsnr" v="788565" />
	</node>
	<node id="-480793" lat="58.4754500028" lon="8.86027500615">
		<tag k="fixme" v="consider place=hamlet" />
		<tag k="name" v="Lofstad" />
		<tag k="place" v="farm" />
		<tag k="ssr:stedsnr" v="911899" />
	</node>
	<node id="-480792" lat="58.4886479802" lon="8.91349525112">
		<tag k="name" v="Rønningen" />
		<tag k="place" v="farm" />
		<tag k="ssr:stedsnr" v="911897" />
	</node>
	<node id="-479492" lat="58.5492499985" lon="8.97313888466">
		<tag k="name" v="Sundet" />
		<tag k="place" v="farm" />
		<tag k="ssr:stedsnr" v="244234" />
	</node>
	<node id="-480174" lat="58.4705055578" lon="8.77806945172">
		<tag k="name" v="Løvvold" />
		<tag k="place" v="farm" />
		<tag k="ssr:stedsnr" v="454627" />
	</node>
	<node id="-480786" lat="58.4756888902" lon="8.74511388213">
		<tag k="name" v="Harebakken" />
		<tag k="place" v="farm" />
		<tag k="ssr:stedsnr" v="758707" />
	</node>
	<node id="-479491" lat="58.5452777739" lon="8.97427221551">
		<tag k="fixme" v="consider place=hamlet" />
		<tag k="name" v="Brårvik" />
		<tag k="place" v="farm" />
		<tag k="ssr:stedsnr" v="244232" />
	</node>
	<node id="-480490" lat="58.5711361072" lon="8.83466666439">
		<tag k="name" v="Bubråten" />
		<tag k="place" v="farm" />
		<tag k="ssr:stedsnr" v="729845" />
	</node>
	<node id="-480514" lat="58.4942083343" lon="8.88847499432">
		<tag k="name" v="Taksdalen" />
		<tag k="place" v="farm" />
		<tag k="ssr:stedsnr" v="667904" />
	</node>
	<node id="-480770" lat="58.527852777" lon="8.83564444219">
		<tag k="fixme" v="consider place=hamlet" />
		<tag k="name" v="Nedre Ottersland" />
		<tag k="place" v="farm" />
		<tag k="ssr:stedsnr" v="911742" />
	</node>
	<node id="-480758" lat="58.539892256" lon="8.80148742604">
		<tag k="fixme" v="consider place=hamlet" />
		<tag k="name" v="Skjulestad" />
		<tag k="place" v="farm" />
		<tag k="ssr:stedsnr" v="911711" />
	</node>
	<node id="-480169" lat="58.4338694409" lon="8.61808333136">
		<tag k="name" v="Sørli" />
		<tag k="place" v="farm" />
		<tag k="ssr:stedsnr" v="454524" />
	</node>
	<node id="-480755" lat="58.5434111085" lon="8.82316665874">
		<tag k="alt_name" v="Herveland, nordre" />
		<tag k="name" v="Harvelandsneset" />
		<tag k="place" v="farm" />
		<tag k="ssr:stedsnr" v="911686" />
	</node>
	<node id="-480751" lat="58.4169944448" lon="8.64422778122">
		<tag k="name" v="Lieng" />
		<tag k="place" v="farm" />
		<tag k="ssr:stedsnr" v="757877" />
	</node>
	<node id="-480749" lat="58.4716249957" lon="8.72389444266">
		<tag k="fixme" v="consider place=hamlet" />
		<tag k="name" v="Østensbu" />
		<tag k="place" v="farm" />
		<tag k="ssr:stedsnr" v="911668" />
	</node>
	<node id="-480748" lat="58.5625860003" lon="8.82405305101">
		<tag k="name" v="Store Våje" />
		<tag k="old_name" v="Våje store;Våje" />
		<tag k="place" v="farm" />
		<tag k="ssr:stedsnr" v="911648" />
	</node>
	<node id="-480747" lat="58.4626416652" lon="8.70971388232">
		<tag k="name" v="Skredderplassen" />
		<tag k="place" v="farm" />
		<tag k="ssr:stedsnr" v="757920" />
	</node>
	<node id="-480741" lat="58.4339527817" lon="8.61811388871">
		<tag k="fixme" v="consider place=hamlet" />
		<tag k="name" v="Steine" />
		<tag k="place" v="farm" />
		<tag k="ssr:stedsnr" v="911609" />
	</node>
	<node id="-480738" lat="58.5675027267" lon="8.95209297696">
		<tag k="fixme" v="consider place=hamlet" />
		<tag k="name" v="Borås" />
		<tag k="place" v="farm" />
		<tag k="ssr:stedsnr" v="911294" />
	</node>
	<node id="-480735" lat="58.5490720586" lon="8.84947040893">
		<tag k="fixme" v="consider place=hamlet" />
		<tag k="name" v="Fløystad" />
		<tag k="place" v="farm" />
		<tag k="ssr:stedsnr" v="911101" />
	</node>
	<node id="-480733" lat="58.4845761136" lon="8.74145708679">
		<tag k="fixme" v="consider place=hamlet" />
		<tag k="name" v="Borås" />
		<tag k="place" v="farm" />
		<tag k="ssr:stedsnr" v="910665" />
	</node>
	<node id="-480732" lat="58.4792500012" lon="8.71020278232">
		<tag k="name" v="Seljåsen" />
		<tag k="place" v="farm" />
		<tag k="ssr:stedsnr" v="910662" />
	</node>
	<node id="-480728" lat="58.4458750025" lon="8.65348056306">
		<tag k="name" v="Nygård" />
		<tag k="place" v="farm" />
		<tag k="ssr:stedsnr" v="910611" />
	</node>
	<node id="-480725" lat="58.4245888869" lon="8.66283332725">
		<tag k="alt_name" v="Ginnestad" />
		<tag k="fixme" v="consider place=hamlet" />
		<tag k="name" v="Gjennestad" />
		<tag k="place" v="farm" />
		<tag k="ssr:stedsnr" v="910590" />
	</node>
	<node id="-480719" lat="58.5034333294" lon="8.85396110387">
		<tag k="name" v="Helle" />
		<tag k="place" v="isolated_dwelling" />
		<tag k="ssr:stedsnr" v="729217" />
	</node>
	<node id="-480717" lat="58.5203305591" lon="8.89069166667">
		<tag k="alt_name" v="Helleren, l" />
		<tag k="name" v="Lille Helleren" />
		<tag k="place" v="farm" />
		<tag k="ssr:stedsnr" v="729197" />
	</node>
	<node id="-480710" lat="58.4786027775" lon="8.7821944426">
		<tag k="name" v="Songe" />
		<tag k="place" v="farm" />
		<tag k="ssr:stedsnr" v="723004" />
	</node>
	<node id="-479477" lat="58.4365830928" lon="8.81097918952">
		<tag k="name" v="Katten" />
		<tag k="place" v="farm" />
		<tag k="ssr:stedsnr" v="242573" />
	</node>
	<node id="-480698" lat="58.4396972201" lon="8.57357778328">
		<tag k="name" v="Nedre Benken" />
		<tag k="place" v="farm" />
		<tag k="ssr:stedsnr" v="697870" />
	</node>
	<node id="-480078" lat="58.4640888868" lon="8.76240278232">
		<tag k="fixme" v="consider place=suburb, village or hamlet" />
		<tag k="name" v="Blødekjær" />
		<tag k="place" v="quarter" />
		<tag k="ssr:stedsnr" v="515563" />
	</node>
	<node id="-480692" lat="58.4689749967" lon="8.63482221865">
		<tag k="name" v="Bråstadhagen" />
		<tag k="place" v="farm" />
		<tag k="ssr:stedsnr" v="697959" />
	</node>
	<node id="-480688" lat="58.4462500012" lon="8.67999167428">
		<tag k="name" v="Hovet" />
		<tag k="place" v="farm" />
		<tag k="ssr:stedsnr" v="697777" />
	</node>
	<node id="-480681" lat="58.4231361148" lon="8.66821666362">
		<tag k="name" v="Lien" />
		<tag k="place" v="farm" />
		<tag k="ssr:stedsnr" v="697755" />
	</node>
	<node id="-480675" lat="58.4738694453" lon="8.80580000071">
		<tag k="name" v="Enghaven" />
		<tag k="place" v="quarter" />
		<tag k="ssr:stedsnr" v="697703" />
	</node>
	<node id="-480496" lat="58.4693388926" lon="8.8815611178">
		<tag k="fixme" v="consider place=hamlet" />
		<tag k="name" v="Alve" />
		<tag k="place" v="farm" />
		<tag k="ssr:stedsnr" v="876304" />
	</node>
	<node id="-480668" lat="58.5254861084" lon="8.81125555929">
		<tag k="name" v="Fredheim" />
		<tag k="place" v="farm" />
		<tag k="ssr:stedsnr" v="697407" />
	</node>
	<node id="-480666" lat="58.4796416661" lon="8.89974722813">
		<tag k="name" v="Lysthaven" />
		<tag k="place" v="farm" />
		<tag k="ssr:stedsnr" v="697373" />
	</node>
	<node id="-480664" lat="58.4849777778" lon="8.88402777966">
		<tag k="name" v="Fredheim" />
		<tag k="place" v="farm" />
		<tag k="ssr:stedsnr" v="697368" />
	</node>
	<node id="-481986" lat="58.4407781393" lon="8.69426884897">
		<tag k="name" v="Lunnerød" />
		<tag k="place" v="farm" />
		<tag k="ssr:stedsnr" v="546551" />
	</node>
	<node id="-480647" lat="58.4571666669" lon="8.69336944583">
		<tag k="name" v="Vika" />
		<tag k="place" v="farm" />
		<tag k="ssr:stedsnr" v="879998" />
	</node>
	<node id="-480644" lat="58.4761166653" lon="8.67059166884">
		<tag k="name" v="Nodbø" />
		<tag k="place" v="farm" />
		<tag k="ssr:stedsnr" v="879985" />
	</node>
	<node id="-480643" lat="58.4702305515" lon="8.62229444079">
		<tag k="name" v="Risehaugen" />
		<tag k="place" v="farm" />
		<tag k="ssr:stedsnr" v="879982" />
	</node>
	<node id="-480642" lat="58.4757583357" lon="8.70492222855">
		<tag k="name" v="Haven" />
		<tag k="place" v="farm" />
		<tag k="ssr:stedsnr" v="879978" />
	</node>
	<node id="-480641" lat="58.4752277798" lon="8.70499445187">
		<tag k="amenity" v="school" />
		<tag k="name" v="Bråstad skole, nedl." />
		<tag k="ssr:stedsnr" v="879977" />
	</node>
	<node id="-480640" lat="58.4660111109" lon="8.66599999501">
		<tag k="name" v="Aslakshagen" />
		<tag k="place" v="farm" />
		<tag k="ssr:stedsnr" v="879976" />
	</node>
	<node id="-480635" lat="58.4810194401" lon="8.69631666434">
		<tag k="name" v="Sandkleiva" />
		<tag k="place" v="farm" />
		<tag k="ssr:stedsnr" v="879944" />
	</node>
	<node id="-480632" lat="58.4398305529" lon="8.5473972154">
		<tag k="name" v="Rønningen" />
		<tag k="place" v="locality" />
		<tag k="ssr:stedsnr" v="879913" />
	</node>
	<node id="-482537" lat="58.4518061077" lon="8.73927960146">
		<tag k="fixme" v="consider place=hamlet" />
		<tag k="name" v="Strømsbu" />
		<tag k="place" v="farm" />
		<tag k="ssr:stedsnr" v="971229" />
	</node>
	<node id="-481985" lat="58.4296989995" lon="8.59436109182">
		<tag k="alt_name" v="Nedre Nevisdal" />
		<tag k="fixme" v="consider place=hamlet" />
		<tag k="name" v="Nævesdal" />
		<tag k="place" v="farm" />
		<tag k="ssr:stedsnr" v="546542" />
	</node>
	<node id="-480616" lat="58.4353916701" lon="8.70391389301">
		<tag k="name" v="Møllerplassen" />
		<tag k="place" v="farm" />
		<tag k="ssr:stedsnr" v="879788" />
	</node>
	<node id="-480486" lat="58.5565055555" lon="8.79840555984">
		<tag k="name" v="Flaten" />
		<tag k="place" v="farm" />
		<tag k="ssr:stedsnr" v="729675" />
	</node>
	<node id="-480416" lat="58.5180583353" lon="8.91059722981">
		<tag k="name" v="Rørvik" />
		<tag k="place" v="farm" />
		<tag k="ssr:stedsnr" v="607209" />
	</node>
	<node id="-480605" lat="58.4687416693" lon="8.85576944842">
		<tag k="name" v="Kvernhuskjerr" />
		<tag k="place" v="farm" />
		<tag k="ssr:stedsnr" v="879726" />
	</node>
	<node id="-480143" lat="58.5298611145" lon="8.83731389455">
		<tag k="fixme" v="consider place=hamlet" />
		<tag k="name" v="Øvre Ottersland" />
		<tag k="place" v="farm" />
		<tag k="ssr:stedsnr" v="450227" />
	</node>
	<node id="-482645" lat="58.4402538216" lon="8.62594391206">
		<tag k="loc_name" v="Kålahaugen" />
		<tag k="name" v="Kollehaugen" />
		<tag k="place" v="farm" />
		<tag k="ssr:stedsnr" v="1077372" />
	</node>
	<node id="-482644" lat="58.440759032" lon="8.62817057876">
		<tag k="name" v="Haugen" />
		<tag k="place" v="farm" />
		<tag k="ssr:stedsnr" v="1077371" />
	</node>
	<node id="-480595" lat="58.5025472183" lon="8.7169333386">
		<tag k="name" v="Lyngmyr" />
		<tag k="place" v="locality" />
		<tag k="ssr:stedsnr" v="879647" />
	</node>
	<node id="-480594" lat="58.5059249996" lon="8.7487638916">
		<tag k="name" v="Rønningen" />
		<tag k="place" v="locality" />
		<tag k="ssr:stedsnr" v="879645" />
	</node>
	<node id="-480593" lat="58.4414843949" lon="8.7807252982">
		<tag k="name" v="Urene" />
		<tag k="place" v="farm" />
		<tag k="ssr:stedsnr" v="879642" />
	</node>
	<node id="-481984" lat="58.4074361072" lon="8.56644444219">
		<tag k="fixme" v="consider place=hamlet" />
		<tag k="name" v="Røynåna" />
		<tag k="place" v="farm" />
		<tag k="ssr:stedsnr" v="546535" />
	</node>
	<node id="-480589" lat="58.4738277746" lon="8.77006111931">
		<tag k="name" v="Vagelsgård" />
		<tag k="place" v="farm" />
		<tag k="ssr:stedsnr" v="879591" />
	</node>
	<node id="-480588" lat="58.4548388934" lon="8.81618055805">
		<tag k="name" v="Øvre Færvig" />
		<tag k="place" v="farm" />
		<tag k="ssr:stedsnr" v="879574" />
	</node>
	<node id="-480482" lat="58.5746111124" lon="8.98563888247">
		<tag k="name" v="Bota" />
		<tag k="place" v="isolated_dwelling" />
		<tag k="ssr:stedsnr" v="729308" />
	</node>
	<node id="-480584" lat="58.5013138906" lon="8.87641111902">
		<tag k="name" v="Heggedalen" />
		<tag k="place" v="quarter" />
		<tag k="ssr:stedsnr" v="879440" />
	</node>
	<node id="-480481" lat="58.5577499963" lon="8.99518888057">
		<tag k="alt_name" v="Holmsund" />
		<tag k="name" v="Holmesund" />
		<tag k="place" v="hamlet" />
		<tag k="ssr:stedsnr" v="729293" />
	</node>
	<node id="-480580" lat="58.4460861094" lon="8.84300556346">
		<tag k="amenity" v="school" />
		<tag k="name" v="Hove" />
		<tag k="ssr:stedsnr" v="668644" />
	</node>
	<node id="-480577" lat="58.5230305513" lon="8.80913056138">
		<tag k="name" v="Tveiterød" />
		<tag k="place" v="farm" />
		<tag k="ssr:stedsnr" v="879404" />
	</node>
	<node id="-480576" lat="58.5327888919" lon="8.81407777464">
		<tag k="name" v="Breiland" />
		<tag k="place" v="farm" />
		<tag k="ssr:stedsnr" v="879398" />
	</node>
	<node id="-480480" lat="58.5254173659" lon="8.94107499928">
		<tag k="name" v="Nordstrand" />
		<tag k="place" v="farm" />
		<tag k="ssr:stedsnr" v="729266" />
	</node>
	<node id="-482618" lat="58.5611075224" lon="8.81561117663">
		<tag k="name" v="Våje liene" />
		<tag k="place" v="farm" />
		<tag k="ssr:stedsnr" v="1074698" />
	</node>
	<node id="-482617" lat="58.5635996847" lon="8.82325054574">
		<tag k="name" v="Store Våje" />
		<tag k="place" v="farm" />
		<tag k="ssr:stedsnr" v="1074697" />
	</node>
	<node id="-482616" lat="58.5617819679" lon="8.82367850198">
		<tag k="name" v="Store Våje" />
		<tag k="place" v="farm" />
		<tag k="ssr:stedsnr" v="1074696" />
	</node>
	<node id="-482615" lat="58.5625474616" lon="8.82249854798">
		<tag k="name" v="Store Våje" />
		<tag k="place" v="farm" />
		<tag k="ssr:stedsnr" v="1074695" />
	</node>
	<node id="-482614" lat="58.5625016344" lon="8.8224301815">
		<tag k="name" v="Store Våje" />
		<tag k="place" v="farm" />
		<tag k="ssr:stedsnr" v="1074674" />
	</node>
	<node id="-482613" lat="58.5655409962" lon="8.82120501972">
		<tag k="name" v="Våje" />
		<tag k="place" v="hamlet" />
		<tag k="ssr:stedsnr" v="1074673" />
	</node>
	<node id="-480562" lat="58.4460499973" lon="8.85051666993">
		<tag k="name" v="Breidablikk" />
		<tag k="ssr:stedsnr" v="879288" />
		<tag k="tourism" v="guest_house" />
	</node>
	<node id="-480560" lat="58.4471194478" lon="8.85141666667">
		<tag k="fixme" v="consider place=hamlet" />
		<tag k="name" v="Gjervoll" />
		<tag k="place" v="farm" />
		<tag k="ssr:stedsnr" v="879282" />
	</node>
	<node id="-480559" lat="58.4949194473" lon="8.848588884">
		<tag k="name" v="Blaudemyr" />
		<tag k="place" v="quarter" />
		<tag k="ssr:stedsnr" v="879264" />
	</node>
	<node id="-480558" lat="58.4737223072" lon="8.87561850058">
		<tag k="name" v="Danielshave" />
		<tag k="place" v="farm" />
		<tag k="ssr:stedsnr" v="879259" />
	</node>
	<node id="-480555" lat="58.5429555519" lon="8.93806665811">
		<tag k="name" v="Sjøverstø pensjonat" />
		<tag k="ssr:stedsnr" v="879248" />
		<tag k="tourism" v="guest_house" />
	</node>
	<node id="-480553" lat="58.429476033" lon="8.70631093614">
		<tag k="name" v="Hammeren" />
		<tag k="place" v="farm" />
		<tag k="ssr:stedsnr" v="879238" />
	</node>
	<node id="-482595" lat="58.5735830134" lon="8.98871920041">
		<tag k="name" v="Tverrdal" />
		<tag k="place" v="farm" />
		<tag k="ssr:stedsnr" v="973248" />
	</node>
	<node id="-482594" lat="58.574967808" lon="8.98660565901">
		<tag k="name" v="Tverrdal" />
		<tag k="place" v="farm" />
		<tag k="ssr:stedsnr" v="973247" />
	</node>
	<node id="-482593" lat="58.5714349327" lon="8.98589593982">
		<tag k="name" v="Tverrdal" />
		<tag k="place" v="farm" />
		<tag k="ssr:stedsnr" v="973246" />
	</node>
	<node id="-482592" lat="58.5750362935" lon="8.98629831817">
		<tag k="name" v="Tverrdal" />
		<tag k="place" v="farm" />
		<tag k="ssr:stedsnr" v="973227" />
	</node>
	<node id="-482591" lat="58.5739781347" lon="8.98606816222">
		<tag k="name" v="Tverrdal" />
		<tag k="place" v="farm" />
		<tag k="ssr:stedsnr" v="973226" />
	</node>
	<node id="-482590" lat="58.574155979" lon="8.98663903296">
		<tag k="name" v="Tverrdal" />
		<tag k="place" v="farm" />
		<tag k="ssr:stedsnr" v="973225" />
	</node>
	<node id="-482589" lat="58.5759530145" lon="8.97946283651">
		<tag k="name" v="Tverrdal" />
		<tag k="place" v="farm" />
		<tag k="ssr:stedsnr" v="973222" />
	</node>
	<node id="-482588" lat="58.5739481202" lon="8.9768069634">
		<tag k="name" v="Tverrdal" />
		<tag k="place" v="farm" />
		<tag k="ssr:stedsnr" v="973220" />
	</node>
	<node id="-482587" lat="58.5760589418" lon="8.97843612124">
		<tag k="name" v="Tverrdal" />
		<tag k="place" v="farm" />
		<tag k="ssr:stedsnr" v="973217" />
	</node>
	<node id="-482586" lat="58.5752273519" lon="8.97849703664">
		<tag k="name" v="Tverrdal" />
		<tag k="place" v="farm" />
		<tag k="ssr:stedsnr" v="973215" />
	</node>
	<node id="-482585" lat="58.5742778074" lon="8.97633463301">
		<tag k="name" v="Tverrdal" />
		<tag k="place" v="farm" />
		<tag k="ssr:stedsnr" v="973214" />
	</node>
	<node id="-482584" lat="58.5764145509" lon="8.97857865572">
		<tag k="name" v="Tverrdal" />
		<tag k="place" v="farm" />
		<tag k="ssr:stedsnr" v="973213" />
	</node>
	<node id="-482583" lat="58.5755371597" lon="8.97915015551">
		<tag k="name" v="Tverrdal" />
		<tag k="place" v="farm" />
		<tag k="ssr:stedsnr" v="973212" />
	</node>
	<node id="-482582" lat="58.5749634889" lon="8.97821172115">
		<tag k="name" v="Tverrdal" />
		<tag k="place" v="farm" />
		<tag k="ssr:stedsnr" v="973209" />
	</node>
	<node id="-482581" lat="58.5744184679" lon="8.9771580128">
		<tag k="name" v="Tverrdal" />
		<tag k="place" v="farm" />
		<tag k="ssr:stedsnr" v="973208" />
	</node>
	<node id="-482580" lat="58.5736011011" lon="8.9765985995">
		<tag k="name" v="Tverrdal" />
		<tag k="place" v="farm" />
		<tag k="ssr:stedsnr" v="973207" />
	</node>
	<node id="-482579" lat="58.5732827577" lon="8.97638470131">
		<tag k="name" v="Tverrdal" />
		<tag k="place" v="farm" />
		<tag k="ssr:stedsnr" v="973206" />
	</node>
	<node id="-482578" lat="58.5752987858" lon="8.97697626119">
		<tag k="name" v="Tverrdal" />
		<tag k="place" v="farm" />
		<tag k="ssr:stedsnr" v="973205" />
	</node>
	<node id="-482577" lat="58.5749116099" lon="8.97670751064">
		<tag k="name" v="Tverrdal" />
		<tag k="place" v="farm" />
		<tag k="ssr:stedsnr" v="973204" />
	</node>
	<node id="-482576" lat="58.5746047378" lon="8.97650460004">
		<tag k="name" v="Tverrdal" />
		<tag k="place" v="farm" />
		<tag k="ssr:stedsnr" v="973203" />
	</node>
	<node id="-482575" lat="58.5739938616" lon="8.97607131176">
		<tag k="name" v="Tverrdal" />
		<tag k="place" v="farm" />
		<tag k="ssr:stedsnr" v="973202" />
	</node>
	<node id="-482574" lat="58.5737013715" lon="8.97608249808">
		<tag k="name" v="Tverrdal" />
		<tag k="place" v="farm" />
		<tag k="ssr:stedsnr" v="973200" />
	</node>
	<node id="-482573" lat="58.5735464786" lon="8.97583008095">
		<tag k="name" v="Tverrdal" />
		<tag k="place" v="farm" />
		<tag k="ssr:stedsnr" v="973199" />
	</node>
	<node id="-482572" lat="58.5732252991" lon="8.97577540354">
		<tag k="name" v="Tverrdal" />
		<tag k="place" v="farm" />
		<tag k="ssr:stedsnr" v="973197" />
	</node>
	<node id="-482571" lat="58.5746905748" lon="8.97546420838">
		<tag k="name" v="Tverrdal" />
		<tag k="place" v="farm" />
		<tag k="ssr:stedsnr" v="973196" />
	</node>
	<node id="-482570" lat="58.5782931986" lon="8.9810180091">
		<tag k="name" v="Tverrdal" />
		<tag k="place" v="farm" />
		<tag k="ssr:stedsnr" v="973195" />
	</node>
	<node id="-482569" lat="58.5233324332" lon="8.94284086417">
		<tag k="name" v="Parabollen av Flosta" />
		<tag k="place" v="farm" />
		<tag k="ssr:stedsnr" v="973194" />
	</node>
	<node id="-482568" lat="58.5287736037" lon="8.93312135746">
		<tag k="name" v="Flosta kirkegård" />
		<tag k="place" v="farm" />
		<tag k="ssr:stedsnr" v="973192" />
	</node>
	<node id="-482567" lat="58.5274577585" lon="8.76459064313">
		<tag k="name" v="Engelstjønn" />
		<tag k="place" v="farm" />
		<tag k="ssr:stedsnr" v="973187" />
	</node>
	<node id="-482566" lat="58.5191582896" lon="8.7784251419">
		<tag k="name" v="Engelstjønn" />
		<tag k="place" v="farm" />
		<tag k="ssr:stedsnr" v="973186" />
	</node>
	<node id="-482565" lat="58.5174645665" lon="8.78290410496">
		<tag k="name" v="Engelstjønn" />
		<tag k="place" v="farm" />
		<tag k="ssr:stedsnr" v="973185" />
	</node>
	<node id="-482564" lat="58.5215040139" lon="8.78873917913">
		<tag k="name" v="Engelstjønn" />
		<tag k="place" v="farm" />
		<tag k="ssr:stedsnr" v="973184" />
	</node>
	<node id="-482563" lat="58.523446812" lon="8.78720438975">
		<tag k="name" v="Engelstjønn" />
		<tag k="place" v="farm" />
		<tag k="ssr:stedsnr" v="973182" />
	</node>
	<node id="-482562" lat="58.5261503719" lon="8.79497108658">
		<tag k="name" v="Engelstjønn" />
		<tag k="place" v="farm" />
		<tag k="ssr:stedsnr" v="973181" />
	</node>
	<node id="-482561" lat="58.523409967" lon="8.78590532089">
		<tag k="name" v="Engelstjønn" />
		<tag k="place" v="farm" />
		<tag k="ssr:stedsnr" v="973180" />
	</node>
	<node id="-482560" lat="58.5249791241" lon="8.78545859787">
		<tag k="name" v="Engelstjønn" />
		<tag k="place" v="farm" />
		<tag k="ssr:stedsnr" v="973178" />
	</node>
	<node id="-482559" lat="58.526397843" lon="8.78932123681">
		<tag k="name" v="Engelstjønn" />
		<tag k="place" v="farm" />
		<tag k="ssr:stedsnr" v="973177" />
	</node>
	<node id="-482558" lat="58.5345952491" lon="8.95216790234">
		<tag k="name" v="Flosta" />
		<tag k="place" v="farm" />
		<tag k="ssr:stedsnr" v="973158" />
	</node>
	<node id="-482557" lat="58.5291776249" lon="8.93332280485">
		<tag k="name" v="Flosta" />
		<tag k="place" v="farm" />
		<tag k="ssr:stedsnr" v="973157" />
	</node>
	<node id="-482556" lat="58.5242967762" lon="8.93477549075">
		<tag k="name" v="Flosta" />
		<tag k="place" v="farm" />
		<tag k="ssr:stedsnr" v="973155" />
	</node>
	<node id="-482555" lat="58.5258661598" lon="8.93331931853">
		<tag k="name" v="Flosta" />
		<tag k="place" v="farm" />
		<tag k="ssr:stedsnr" v="973154" />
	</node>
	<node id="-482554" lat="58.5247363486" lon="8.93248129542">
		<tag k="name" v="Flosta" />
		<tag k="place" v="farm" />
		<tag k="ssr:stedsnr" v="973153" />
	</node>
	<node id="-482553" lat="58.5335756847" lon="8.95940046208">
		<tag k="name" v="Flosta" />
		<tag k="place" v="farm" />
		<tag k="ssr:stedsnr" v="973152" />
	</node>
	<node id="-482552" lat="58.5283716798" lon="8.93370782577">
		<tag k="name" v="Flosta" />
		<tag k="place" v="farm" />
		<tag k="ssr:stedsnr" v="973151" />
	</node>
	<node id="-482551" lat="58.5327921263" lon="8.94463152592">
		<tag k="name" v="Flosta" />
		<tag k="place" v="farm" />
		<tag k="ssr:stedsnr" v="973150" />
	</node>
	<node id="-482550" lat="58.5238716424" lon="8.92815522392">
		<tag k="name" v="Flosta" />
		<tag k="place" v="farm" />
		<tag k="ssr:stedsnr" v="973149" />
	</node>
	<node id="-482549" lat="58.528391905" lon="8.93329010739">
		<tag k="name" v="Flosta" />
		<tag k="place" v="farm" />
		<tag k="ssr:stedsnr" v="973148" />
	</node>
	<node id="-482548" lat="58.523909734" lon="8.93512740788">
		<tag k="name" v="Flosta" />
		<tag k="place" v="farm" />
		<tag k="ssr:stedsnr" v="973147" />
	</node>
	<node id="-482547" lat="58.5248436715" lon="8.93496253642">
		<tag k="name" v="Flosta" />
		<tag k="place" v="farm" />
		<tag k="ssr:stedsnr" v="973146" />
	</node>
	<node id="-482546" lat="58.5242317275" lon="8.92146207585">
		<tag k="name" v="Flosta" />
		<tag k="place" v="farm" />
		<tag k="ssr:stedsnr" v="973144" />
	</node>
	<node id="-482545" lat="58.5244263083" lon="8.93413130489">
		<tag k="name" v="Flosta" />
		<tag k="place" v="farm" />
		<tag k="ssr:stedsnr" v="973143" />
	</node>
	<node id="-482544" lat="58.5323928379" lon="8.93572708671">
		<tag k="name" v="Flosta" />
		<tag k="place" v="farm" />
		<tag k="ssr:stedsnr" v="973142" />
	</node>
	<node id="-482543" lat="58.5268177875" lon="8.92898692724">
		<tag k="name" v="Flosta" />
		<tag k="place" v="farm" />
		<tag k="ssr:stedsnr" v="973140" />
	</node>
	<node id="-482542" lat="58.491008101" lon="8.68716090068">
		<tag k="name" v="Assæ" />
		<tag k="place" v="hamlet" />
		<tag k="ssr:stedsnr" v="971235" />
	</node>
	<node id="-482541" lat="58.4495332897" lon="8.67254388692">
		<tag k="name" v="Omholt" />
		<tag k="place" v="hamlet" />
		<tag k="ssr:stedsnr" v="971234" />
	</node>
	<node id="-482540" lat="58.4284307146" lon="8.69176159493">
		<tag k="fixme" v="consider place=hamlet" />
		<tag k="name" v="Ranneklev" />
		<tag k="place" v="farm" />
		<tag k="ssr:stedsnr" v="971232" />
	</node>
	<node id="-482539" lat="58.4322021378" lon="8.70519759365">
		<tag k="fixme" v="consider place=hamlet" />
		<tag k="name" v="Asdal" />
		<tag k="place" v="farm" />
		<tag k="ssr:stedsnr" v="971231" />
	</node>
	<node id="-482538" lat="58.4555868571" lon="8.75477097492">
		<tag k="fixme" v="consider place=hamlet" />
		<tag k="name" v="Klådeborg" />
		<tag k="place" v="farm" />
		<tag k="ssr:stedsnr" v="971230" />
	</node>
	<node id="-480489" lat="58.5405833338" lon="8.80071111493">
		<tag k="name" v="Skjulestad" />
		<tag k="place" v="farm" />
		<tag k="ssr:stedsnr" v="729702" />
	</node>
	<node id="-482536" lat="58.4265302292" lon="8.70639857291">
		<tag k="fixme" v="consider place=hamlet" />
		<tag k="name" v="Rød" />
		<tag k="place" v="farm" />
		<tag k="ssr:stedsnr" v="971228" />
	</node>
	<node id="-482535" lat="58.4220676457" lon="8.71475852113">
		<tag k="fixme" v="consider place=hamlet" />
		<tag k="name" v="Natvig" />
		<tag k="place" v="farm" />
		<tag k="ssr:stedsnr" v="971227" />
	</node>
	<node id="-482534" lat="58.4078853418" lon="8.7100859919">
		<tag k="fixme" v="consider place=hamlet" />
		<tag k="name" v="Nedenenes" />
		<tag k="place" v="farm" />
		<tag k="ssr:stedsnr" v="971226" />
	</node>
	<node id="-482533" lat="58.4179735984" lon="8.6196737058">
		<tag k="fixme" v="consider place=hamlet" />
		<tag k="name" v="Lindtveit" />
		<tag k="place" v="farm" />
		<tag k="ssr:stedsnr" v="971218" />
	</node>
	<node id="-482532" lat="58.4536440775" lon="8.62052993878">
		<tag k="fixme" v="consider place=hamlet" />
		<tag k="name" v="Silleskjær" />
		<tag k="place" v="farm" />
		<tag k="ssr:stedsnr" v="971217" />
	</node>
	<node id="-482531" lat="58.4347907919" lon="8.63151757242">
		<tag k="fixme" v="consider place=hamlet" />
		<tag k="name" v="Søndre Løddesøl" />
		<tag k="place" v="farm" />
		<tag k="ssr:stedsnr" v="971216" />
	</node>
	<node id="-482530" lat="58.4401423999" lon="8.63066411529">
		<tag k="name" v="Løddesøl" />
		<tag k="place" v="hamlet" />
		<tag k="ssr:stedsnr" v="971215" />
	</node>
	<node id="-482529" lat="58.4393104951" lon="8.60249422151">
		<tag k="fixme" v="consider place=hamlet" />
		<tag k="name" v="Furremyr" />
		<tag k="place" v="farm" />
		<tag k="ssr:stedsnr" v="971214" />
	</node>
	<node id="-482528" lat="58.4480328519" lon="8.76636921084">
		<tag k="fixme" v="consider place=hamlet" />
		<tag k="name" v="Slåbervik" />
		<tag k="place" v="farm" />
		<tag k="ssr:stedsnr" v="971213" />
	</node>
	<node id="-482527" lat="58.4457557463" lon="8.74695166531">
		<tag k="fixme" v="consider place=hamlet" />
		<tag k="name" v="His" />
		<tag k="place" v="farm" />
		<tag k="ssr:stedsnr" v="971212" />
	</node>
	<node id="-482526" lat="58.4192253674" lon="8.72852816711">
		<tag k="fixme" v="consider place=hamlet" />
		<tag k="name" v="Gjervoldsøy" />
		<tag k="place" v="farm" />
		<tag k="ssr:stedsnr" v="971210" />
	</node>
	<node id="-482525" lat="58.4524775717" lon="8.83683466464">
		<tag k="fixme" v="consider place=hamlet" />
		<tag k="name" v="Buhaven" />
		<tag k="place" v="farm" />
		<tag k="ssr:stedsnr" v="971209" />
	</node>
	<node id="-482524" lat="58.4425519202" lon="8.84599700859">
		<tag k="fixme" v="consider place=hamlet" />
		<tag k="name" v="Hove" />
		<tag k="place" v="farm" />
		<tag k="ssr:stedsnr" v="971208" />
	</node>
	<node id="-482523" lat="58.4339073248" lon="8.81262980755">
		<tag k="alt_name" v="Gjesøen" />
		<tag k="fixme" v="consider place=hamlet" />
		<tag k="name" v="Gjessøya" />
		<tag k="place" v="farm" />
		<tag k="ssr:stedsnr" v="971207" />
	</node>
	<node id="-482522" lat="58.4521805838" lon="8.81194090871">
		<tag k="name" v="Færvig" />
		<tag k="place" v="hamlet" />
		<tag k="ssr:stedsnr" v="971206" />
	</node>
	<node id="-482521" lat="58.4558419833" lon="8.81796203031">
		<tag k="fixme" v="consider place=hamlet" />
		<tag k="name" v="Østre Færvig" />
		<tag k="place" v="farm" />
		<tag k="ssr:stedsnr" v="971204" />
	</node>
	<node id="-482520" lat="58.4621816659" lon="8.83548300525">
		<tag k="fixme" v="consider place=hamlet" />
		<tag k="name" v="Gjerstad" />
		<tag k="place" v="farm" />
		<tag k="ssr:stedsnr" v="971203" />
	</node>
	<node id="-482519" lat="58.5277160655" lon="8.93235353407">
		<tag k="fixme" v="consider place=hamlet" />
		<tag k="name" v="Flosta" />
		<tag k="place" v="farm" />
		<tag k="ssr:stedsnr" v="971201" />
	</node>
	<node id="-482518" lat="58.5279084935" lon="8.8884241134">
		<tag k="fixme" v="consider place=hamlet" />
		<tag k="name" v="Strengereid" />
		<tag k="place" v="farm" />
		<tag k="ssr:stedsnr" v="971200" />
	</node>
	<node id="-482517" lat="58.5178409976" lon="8.88086662462">
		<tag k="name" v="Garta" />
		<tag k="place" v="hamlet" />
		<tag k="ssr:stedsnr" v="971199" />
	</node>
	<node id="-482516" lat="58.5142115388" lon="8.88829705698">
		<tag k="fixme" v="consider place=hamlet" />
		<tag k="name" v="Vestre Rydningen" />
		<tag k="place" v="farm" />
		<tag k="ssr:stedsnr" v="971198" />
	</node>
	<node id="-482515" lat="58.4951058081" lon="8.72471832543">
		<tag k="fixme" v="consider place=hamlet" />
		<tag k="name" v="Bråstad" />
		<tag k="place" v="farm" />
		<tag k="ssr:stedsnr" v="971197" />
	</node>
	<node id="-482514" lat="58.5052770482" lon="8.89059620077">
		<tag k="fixme" v="consider place=hamlet" />
		<tag k="name" v="Buøen" />
		<tag k="place" v="farm" />
		<tag k="ssr:stedsnr" v="971196" />
	</node>
	<node id="-482513" lat="58.494816752" lon="8.86558348099">
		<tag k="fixme" v="consider place=hamlet" />
		<tag k="name" v="Frisøen" />
		<tag k="place" v="farm" />
		<tag k="ssr:stedsnr" v="971195" />
	</node>
	<node id="-482512" lat="58.530339438" lon="8.83606076568">
		<tag k="name" v="Oddersland" />
		<tag k="place" v="hamlet" />
		<tag k="ssr:stedsnr" v="971194" />
	</node>
	<node id="-482511" lat="58.5224997729" lon="8.83556215533">
		<tag k="fixme" v="consider place=hamlet" />
		<tag k="name" v="Hesthaug" />
		<tag k="place" v="farm" />
		<tag k="ssr:stedsnr" v="971193" />
	</node>
	<node id="-482510" lat="58.4996419343" lon="8.84036366239">
		<tag k="name" v="Mjørfjær" />
		<tag k="place" v="hamlet" />
		<tag k="ssr:stedsnr" v="971192" />
	</node>
	<node id="-482509" lat="58.5014730746" lon="8.83702734102">
		<tag k="fixme" v="consider place=hamlet" />
		<tag k="name" v="Vestre Mjørfjær" />
		<tag k="place" v="farm" />
		<tag k="ssr:stedsnr" v="971191" />
	</node>
	<node id="-482508" lat="58.4895307008" lon="8.84563752136">
		<tag k="name" v="Stauenes" />
		<tag k="place" v="hamlet" />
		<tag k="ssr:stedsnr" v="971190" />
	</node>
	<node id="-482507" lat="58.4936377006" lon="8.84310918695">
		<tag k="fixme" v="consider place=hamlet" />
		<tag k="name" v="Øvre Stauenes" />
		<tag k="place" v="farm" />
		<tag k="ssr:stedsnr" v="971189" />
	</node>
	<node id="-482506" lat="58.4902042666" lon="8.84636233038">
		<tag k="fixme" v="consider place=hamlet" />
		<tag k="name" v="Nedre Staudenes" />
		<tag k="place" v="farm" />
		<tag k="ssr:stedsnr" v="971188" />
	</node>
	<node id="-482505" lat="58.5140749566" lon="8.78283917974">
		<tag k="fixme" v="consider place=hamlet" />
		<tag k="name" v="Øvre Longum" />
		<tag k="place" v="farm" />
		<tag k="ssr:stedsnr" v="971185" />
	</node>
	<node id="-482504" lat="58.5075066996" lon="8.77803436519">
		<tag k="fixme" v="consider place=hamlet" />
		<tag k="name" v="Mellem Longum" />
		<tag k="place" v="farm" />
		<tag k="ssr:stedsnr" v="971184" />
	</node>
	<node id="-482503" lat="58.4995634507" lon="8.77513580153">
		<tag k="fixme" v="consider place=hamlet" />
		<tag k="name" v="Ytre Longum" />
		<tag k="place" v="farm" />
		<tag k="ssr:stedsnr" v="971183" />
	</node>
	<node id="-482502" lat="58.4905205894" lon="8.77393019662">
		<tag k="fixme" v="consider place=hamlet" />
		<tag k="name" v="Longumstølen" />
		<tag k="place" v="farm" />
		<tag k="ssr:stedsnr" v="971182" />
	</node>
	<node id="-482501" lat="58.5128676164" lon="8.81252905911">
		<tag k="fixme" v="consider place=hamlet" />
		<tag k="name" v="Store Mørland" />
		<tag k="place" v="farm" />
		<tag k="ssr:stedsnr" v="971181" />
	</node>
	<node id="-482500" lat="58.511116931" lon="8.82191407631">
		<tag k="fixme" v="consider place=hamlet" />
		<tag k="name" v="Lille Mørland" />
		<tag k="place" v="farm" />
		<tag k="ssr:stedsnr" v="971180" />
	</node>
	<node id="-482499" lat="58.5284704396" lon="8.81397407154">
		<tag k="name" v="Tveite" />
		<tag k="place" v="hamlet" />
		<tag k="ssr:stedsnr" v="971179" />
	</node>
	<node id="-482498" lat="58.5277566071" lon="8.81592764647">
		<tag k="fixme" v="consider place=hamlet" />
		<tag k="name" v="Østre Tveite" />
		<tag k="place" v="farm" />
		<tag k="ssr:stedsnr" v="971178" />
	</node>
	<node id="-482497" lat="58.5270856725" lon="8.82905256089">
		<tag k="fixme" v="consider place=hamlet" />
		<tag k="name" v="Bråvold" />
		<tag k="place" v="farm" />
		<tag k="ssr:stedsnr" v="971177" />
	</node>
	<node id="-482496" lat="58.5381570765" lon="8.86169389726">
		<tag k="fixme" v="consider place=hamlet" />
		<tag k="name" v="Lillestølen" />
		<tag k="place" v="farm" />
		<tag k="ssr:stedsnr" v="971176" />
	</node>
	<node id="-482495" lat="58.5476708257" lon="8.80696371817">
		<tag k="name" v="Brekken" />
		<tag k="place" v="hamlet" />
		<tag k="ssr:stedsnr" v="971174" />
	</node>
	<node id="-482494" lat="58.5543358208" lon="8.81020769406">
		<tag k="fixme" v="consider place=hamlet" />
		<tag k="name" v="Østre Brekken" />
		<tag k="place" v="farm" />
		<tag k="ssr:stedsnr" v="971173" />
	</node>
	<node id="-482493" lat="58.5461935327" lon="8.80195162702">
		<tag k="fixme" v="consider place=hamlet" />
		<tag k="name" v="Vestre Brekken" />
		<tag k="place" v="farm" />
		<tag k="ssr:stedsnr" v="971172" />
	</node>
	<node id="-480437" lat="58.4531277762" lon="8.86857500792">
		<tag k="alt_name" v="Brekke" />
		<tag k="fixme" v="consider place=hamlet" />
		<tag k="name" v="Brekka" />
		<tag k="place" v="farm" />
		<tag k="ssr:stedsnr" v="728923" />
	</node>
	<node id="-480436" lat="58.4965143181" lon="8.91863656187">
		<tag k="alt_name" v="Sandvig" />
		<tag k="name" v="Sandvika" />
		<tag k="place" v="farm" />
		<tag k="ssr:stedsnr" v="728912" />
	</node>
	<node id="-482483" lat="58.5248944459" lon="8.78464167461">
		<tag k="fixme" v="consider place=hamlet" />
		<tag k="name" v="Engelstjønn" />
		<tag k="place" v="farm" />
		<tag k="ssr:stedsnr" v="851702" />
	</node>
	<node id="-482482" lat="58.5293777799" lon="8.81897222226">
		<tag k="fixme" v="consider place=hamlet" />
		<tag k="name" v="Karterød" />
		<tag k="place" v="farm" />
		<tag k="ssr:stedsnr" v="851701" />
	</node>
	<node id="-480432" lat="58.4695888884" lon="8.74168888855">
		<tag k="name" v="Høgedal" />
		<tag k="place" v="farm" />
		<tag k="ssr:stedsnr" v="728629" />
	</node>
	<node id="-482479" lat="58.5313483372" lon="8.91279991782">
		<tag k="alt_name" v="Kjærret" />
		<tag k="name" v="Kjerret" />
		<tag k="place" v="isolated_dwelling" />
		<tag k="ssr:stedsnr" v="851229" />
	</node>
	<node id="-482478" lat="58.5449500012" lon="8.90376666242">
		<tag k="fixme" v="consider place=hamlet" />
		<tag k="name" v="Bjelland" />
		<tag k="place" v="farm" />
		<tag k="ssr:stedsnr" v="851210" />
	</node>
	<node id="-480427" lat="58.4501750017" lon="8.79201666018">
		<tag k="fixme" v="consider place=suburb, village or hamlet" />
		<tag k="name" v="Brattekleiv" />
		<tag k="place" v="quarter" />
		<tag k="ssr:stedsnr" v="728610" />
	</node>
	<node id="-480426" lat="58.4375611072" lon="8.71094167078">
		<tag k="fixme" v="consider place=suburb, village or hamlet" />
		<tag k="name" v="Vrengen" />
		<tag k="place" v="quarter" />
		<tag k="ssr:stedsnr" v="728602" />
	</node>
	<node id="-482473" lat="58.5308166648" lon="8.75616666577">
		<tag k="alt_name" v="Stokkelien" />
		<tag k="name" v="Stokkelia" />
		<tag k="place" v="farm" />
		<tag k="ssr:stedsnr" v="850678" />
	</node>
	<node id="-482472" lat="58.4914888889" lon="8.68431945061">
		<tag k="alt_name" v="Store Assev" />
		<tag k="fixme" v="consider place=hamlet" />
		<tag k="name" v="Assæ" />
		<tag k="place" v="farm" />
		<tag k="ssr:stedsnr" v="850672" />
	</node>
	<node id="-480423" lat="58.4278777738" lon="8.70718611237">
		<tag k="name" v="Munkestø" />
		<tag k="place" v="locality" />
		<tag k="ssr:stedsnr" v="633774" />
	</node>
	<node id="-482468" lat="58.5512777796" lon="8.8364111031">
		<tag k="fixme" v="consider place=hamlet" />
		<tag k="name" v="Noddeland" />
		<tag k="place" v="farm" />
		<tag k="ssr:stedsnr" v="850648" />
	</node>
	<node id="-480419" lat="58.4444194483" lon="8.81252222002">
		<tag k="name" v="Storeng" />
		<tag k="place" v="farm" />
		<tag k="ssr:stedsnr" v="728595" />
	</node>
	<node id="-482466" lat="58.4625666642" lon="8.73788610259">
		<tag k="fixme" v="consider place=hamlet" />
		<tag k="name" v="Solberg" />
		<tag k="place" v="farm" />
		<tag k="ssr:stedsnr" v="850622" />
	</node>
	<node id="-482465" lat="58.4603777808" lon="8.74343611577">
		<tag k="name" v="Bjønnes" />
		<tag k="place" v="farm" />
		<tag k="ssr:stedsnr" v="850620" />
	</node>
	<node id="-482464" lat="58.4545000007" lon="8.61364167407">
		<tag k="alt_name" v="Nedre Ålia" />
		<tag k="name" v="Ålia" />
		<tag k="place" v="farm" />
		<tag k="ssr:stedsnr" v="850614" />
	</node>
	<node id="-480415" lat="58.5174527809" lon="8.87798889478">
		<tag k="fixme" v="consider place=hamlet" />
		<tag k="name" v="Garta" />
		<tag k="place" v="farm" />
		<tag k="ssr:stedsnr" v="607206" />
	</node>
	<node id="-482462" lat="58.4134833324" lon="8.62863888449">
		<tag k="alt_name" v="Tykkeris" />
		<tag k="name" v="Tykkris" />
		<tag k="place" v="farm" />
		<tag k="ssr:stedsnr" v="850582" />
	</node>
	<node id="-482461" lat="58.4217694407" lon="8.68804444827">
		<tag k="alt_name" v="Lærestveit;Lerestveit;Lærestveid" />
		<tag k="fixme" v="consider place=hamlet" />
		<tag k="name" v="Lerestvedt" />
		<tag k="place" v="farm" />
		<tag k="ssr:stedsnr" v="850576" />
	</node>
	<node id="-482460" lat="58.427338893" lon="8.74781111511">
		<tag k="fixme" v="consider place=hamlet" />
		<tag k="name" v="Løvold" />
		<tag k="place" v="farm" />
		<tag k="ssr:stedsnr" v="850575" />
	</node>
	<node id="-482459" lat="58.4261521769" lon="8.77133527353">
		<tag k="name" v="Vragviga" />
		<tag k="place" v="farm" />
		<tag k="ssr:stedsnr" v="850571" />
	</node>
	<node id="-482458" lat="58.40671389" lon="8.67030832642">
		<tag k="fixme" v="consider place=hamlet" />
		<tag k="name" v="Tingstveit" />
		<tag k="place" v="farm" />
		<tag k="ssr:stedsnr" v="850564" />
	</node>
	<node id="-482456" lat="58.5246388845" lon="8.93372499772">
		<tag k="fixme" v="consider place=suburb, village or hamlet" />
		<tag k="name" v="Narestø" />
		<tag k="place" v="quarter" />
		<tag k="ssr:stedsnr" v="850242" />
	</node>
	<node id="-482453" lat="58.4380444458" lon="8.80022500171">
		<tag k="fixme" v="consider place=suburb, village or hamlet" />
		<tag k="name" v="Revesand" />
		<tag k="place" v="quarter" />
		<tag k="ssr:stedsnr" v="849657" />
	</node>
	<node id="-480404" lat="58.4426027819" lon="8.61637222964">
		<tag k="name" v="Oddland" />
		<tag k="place" v="farm" />
		<tag k="ssr:stedsnr" v="575924" />
	</node>
	<node id="-482451" lat="58.4355583338" lon="8.63255000149">
		<tag k="alt_name" v="Monemyr" />
		<tag k="name" v="Momyr" />
		<tag k="place" v="farm" />
		<tag k="ssr:stedsnr" v="849645" />
	</node>
	<node id="-480451" lat="58.5267083313" lon="8.89248055609">
		<tag k="name" v="Mokke" />
		<tag k="place" v="isolated_dwelling" />
		<tag k="ssr:stedsnr" v="636172" />
	</node>
	<node id="-480399" lat="58.4865638882" lon="8.74604999618">
		<tag k="name" v="Øvre Borås" />
		<tag k="place" v="farm" />
		<tag k="ssr:stedsnr" v="575662" />
	</node>
	<node id="-482442" lat="58.5446416674" lon="8.79696110653">
		<tag k="name" v="Plassen" />
		<tag k="place" v="locality" />
		<tag k="ssr:stedsnr" v="819432" />
	</node>
	<node id="-480393" lat="58.4185861132" lon="8.61171388843">
		<tag k="name" v="Drangen" />
		<tag k="place" v="farm" />
		<tag k="ssr:stedsnr" v="575501" />
	</node>
	<node id="-480448" lat="58.5289755309" lon="8.8720801716">
		<tag k="name" v="Krikken" />
		<tag k="place" v="farm" />
		<tag k="ssr:stedsnr" v="636125" />
	</node>
	<node id="-480381" lat="58.4916611136" lon="8.85200000791">
		<tag k="fixme" v="consider place=suburb, village or hamlet" />
		<tag k="name" v="Stuenes" />
		<tag k="place" v="quarter" />
		<tag k="ssr:stedsnr" v="575256" />
	</node>
	<node id="-480408" lat="58.4558027762" lon="8.70602499817">
		<tag k="name" v="Sørsvatn" />
		<tag k="place" v="farm" />
		<tag k="ssr:stedsnr" v="606618" />
	</node>
	<node id="-482414" lat="58.4754083349" lon="8.76204721768">
		<tag k="leisure" v="pitch" />
		<tag k="name" v="Moltemyr" />
		<tag k="ssr:stedsnr" v="818699" />
	</node>
	<node id="-480445" lat="58.4876606623" lon="8.86600156372">
		<tag k="name" v="Nordstrand" />
		<tag k="place" v="farm" />
		<tag k="ssr:stedsnr" v="636262" />
	</node>
	<node id="-480360" lat="58.5409583334" lon="8.9384694409">
		<tag k="name" v="Sandnes" />
		<tag k="place" v="farm" />
		<tag k="ssr:stedsnr" v="573280" />
	</node>
	<node id="-482407" lat="58.4289694448" lon="8.59697499552">
		<tag k="name" v="Sundshagen" />
		<tag k="place" v="farm" />
		<tag k="ssr:stedsnr" v="818846" />
	</node>
	<node id="-482405" lat="58.4121333363" lon="8.5763611097">
		<tag k="fixme" v="consider place=hamlet" />
		<tag k="name" v="Veisebu" />
		<tag k="place" v="farm" />
		<tag k="ssr:stedsnr" v="818831" />
	</node>
	<node id="-482403" lat="58.4818500029" lon="8.71356111884">
		<tag k="name" v="Nordheim" />
		<tag k="place" v="farm" />
		<tag k="ssr:stedsnr" v="818802" />
	</node>
	<node id="-482401" lat="58.4984944407" lon="8.70541944568">
		<tag k="name" v="Plassen" />
		<tag k="place" v="locality" />
		<tag k="ssr:stedsnr" v="818552" />
	</node>
	<node id="-482400" lat="58.4509583363" lon="8.788311113">
		<tag k="name" v="Kaffejordet" />
		<tag k="place" v="farm" />
		<tag k="ssr:stedsnr" v="818664" />
	</node>
	<node id="-482399" lat="58.4489947876" lon="8.81305970466">
		<tag k="fixme" v="consider place=hamlet" />
		<tag k="name" v="Vestre Færvig" />
		<tag k="place" v="farm" />
		<tag k="ssr:stedsnr" v="818654" />
	</node>
	<node id="-480470" lat="58.4206861067" lon="8.66512499865">
		<tag k="name" v="Kroken" />
		<tag k="place" v="farm" />
		<tag k="ssr:stedsnr" v="636787" />
	</node>
	<node id="-480347" lat="58.4597222237" lon="8.66371388191">
		<tag k="name" v="Fensmyr" />
		<tag k="place" v="farm" />
		<tag k="ssr:stedsnr" v="697982" />
	</node>
	<node id="-482394" lat="58.4718138874" lon="8.76801944264">
		<tag k="name" v="Engekjær" />
		<tag k="place" v="farm" />
		<tag k="ssr:stedsnr" v="818580" />
	</node>
	<node id="-482393" lat="58.453736111" lon="8.74067777755">
		<tag k="name" v="Lille Strømsbu" />
		<tag k="place" v="quarter" />
		<tag k="ssr:stedsnr" v="818577" />
	</node>
	<node id="-480343" lat="58.4787913422" lon="8.70636853601">
		<tag k="name" v="Kringlemyr" />
		<tag k="place" v="farm" />
		<tag k="ssr:stedsnr" v="697896" />
	</node>
	<node id="-480342" lat="58.4797361067" lon="8.52237777521">
		<tag k="name" v="Myrbu" />
		<tag k="place" v="locality" />
		<tag k="ssr:stedsnr" v="697891" />
	</node>
	<node id="-482387" lat="58.5513111125" lon="8.796716666">
		<tag k="name" v="Sagemoen" />
		<tag k="place" v="farm" />
		<tag k="ssr:stedsnr" v="818425" />
	</node>
	<node id="-480338" lat="58.4822750009" lon="8.77249166626">
		<tag k="name" v="Gråen" />
		<tag k="place" v="farm" />
		<tag k="ssr:stedsnr" v="697695" />
	</node>
	<node id="-480337" lat="58.4763222191" lon="8.77084444085">
		<tag k="name" v="Kjerra" />
		<tag k="place" v="farm" />
		<tag k="ssr:stedsnr" v="697692" />
	</node>
	<node id="-482384" lat="58.5394138896" lon="8.97622222582">
		<tag k="landuse" v="military" />
		<tag k="name" v="Kalvøysund festning" />
		<tag k="ssr:stedsnr" v="818242" />
	</node>
	<node id="-480335" lat="58.484913886" lon="8.74820556189">
		<tag k="name" v="Nedre Borås" />
		<tag k="place" v="farm" />
		<tag k="ssr:stedsnr" v="697679" />
	</node>
	<node id="-480328" lat="58.4509277787" lon="8.67648889275">
		<tag k="fixme" v="consider place=hamlet" />
		<tag k="name" v="Lille Omholt" />
		<tag k="place" v="farm" />
		<tag k="ssr:stedsnr" v="697821" />
	</node>
	<node id="-480326" lat="58.4414083351" lon="8.70422222351">
		<tag k="name" v="Fjellsted" />
		<tag k="place" v="farm" />
		<tag k="ssr:stedsnr" v="697805" />
	</node>
	<node id="-480325" lat="58.4351000016" lon="8.68656388866">
		<tag k="name" v="Halvorsplass" />
		<tag k="place" v="farm" />
		<tag k="ssr:stedsnr" v="697804" />
	</node>
	<node id="-480324" lat="58.4397916687" lon="8.70856111396">
		<tag k="fixme" v="consider place=suburb, village or hamlet" />
		<tag k="name" v="Bausplass" />
		<tag k="place" v="quarter" />
		<tag k="ssr:stedsnr" v="697802" />
	</node>
	<node id="-480323" lat="58.4456083294" lon="8.73453610841">
		<tag k="name" v="Frilund" />
		<tag k="place" v="farm" />
		<tag k="ssr:stedsnr" v="697796" />
	</node>
	<node id="-480319" lat="58.4708999967" lon="8.76451665943">
		<tag k="name" v="Bjørnsplass" />
		<tag k="place" v="quarter" />
		<tag k="ssr:stedsnr" v="697552" />
	</node>
	<node id="-482366" lat="58.5316527764" lon="8.90566944719">
		<tag k="name" v="Løvøymyra" />
		<tag k="place" v="farm" />
		<tag k="ssr:stedsnr" v="816320" />
	</node>
	<node id="-482360" lat="58.560138886" lon="8.77420000325">
		<tag k="name" v="Siring" />
		<tag k="place" v="farm" />
		<tag k="ssr:stedsnr" v="790680" />
	</node>
	<node id="-482359" lat="58.5584666676" lon="8.80722778542">
		<tag k="name" v="Øygarden" />
		<tag k="place" v="farm" />
		<tag k="ssr:stedsnr" v="790679" />
	</node>
	<node id="-482358" lat="58.47606006" lon="8.8874527673">
		<tag k="fixme" v="consider place=hamlet" />
		<tag k="name" v="Sandå" />
		<tag k="place" v="farm" />
		<tag k="ssr:stedsnr" v="789932" />
	</node>
	<node id="-480309" lat="58.4990388848" lon="8.86181388153">
		<tag k="name" v="haugen" />
		<tag k="place" v="quarter" />
		<tag k="ssr:stedsnr" v="697446" />
	</node>
	<node id="-482355" lat="58.5175861143" lon="8.79052500127">
		<tag k="alt_name" v="Ruhaven" />
		<tag k="name" v="Ruhagen" />
		<tag k="place" v="farm" />
		<tag k="ssr:stedsnr" v="789743" />
	</node>
	<node id="-482354" lat="58.5114777777" lon="8.74914444181">
		<tag k="alt_name" v="Ugland" />
		<tag k="fixme" v="consider place=hamlet" />
		<tag k="name" v="Augland" />
		<tag k="place" v="farm" />
		<tag k="ssr:stedsnr" v="789509" />
	</node>
	<node id="-480435" lat="58.4882586403" lon="8.8401268236">
		<tag k="fixme" v="consider place=hamlet" />
		<tag k="name" v="Saltrød" />
		<tag k="place" v="farm" />
		<tag k="ssr:stedsnr" v="728908" />
	</node>
	<node id="-482350" lat="58.4785972178" lon="8.7926861095">
		<tag k="name" v="Heia" />
		<tag k="place" v="farm" />
		<tag k="ssr:stedsnr" v="789674" />
	</node>
	<node id="-482349" lat="58.4880944466" lon="8.70518610781">
		<tag k="alt_name" v="Steine" />
		<tag k="name" v="Steene" />
		<tag k="place" v="farm" />
		<tag k="ssr:stedsnr" v="789671" />
	</node>
	<node id="-482348" lat="58.4787105772" lon="8.8294223687">
		<tag k="name" v="Trollnes" />
		<tag k="place" v="farm" />
		<tag k="ssr:stedsnr" v="789660" />
	</node>
	<node id="-482347" lat="58.4465611125" lon="8.69452221539">
		<tag k="name" v="Sagmyr" />
		<tag k="place" v="farm" />
		<tag k="ssr:stedsnr" v="789602" />
	</node>
	<node id="-482344" lat="58.5702916684" lon="8.98400833658">
		<tag k="name" v="Klæfet" />
		<tag k="place" v="isolated_dwelling" />
		<tag k="ssr:stedsnr" v="789289" />
	</node>
	<node id="-480295" lat="58.4475638929" lon="8.75878056408">
		<tag k="name" v="His haveby øst" />
		<tag k="place" v="quarter" />
		<tag k="ssr:stedsnr" v="697268" />
	</node>
	<node id="-482341" lat="58.4705222259" lon="8.84444722057">
		<tag k="name" v="Seikilen" />
		<tag k="place" v="farm" />
		<tag k="ssr:stedsnr" v="788928" />
	</node>
	<node id="-482339" lat="58.4224972215" lon="8.77026389691">
		<tag k="name" v="Stølsviga" />
		<tag k="place" v="isolated_dwelling" />
		<tag k="ssr:stedsnr" v="788548" />
	</node>
	<node id="-480289" lat="58.5537249996" lon="8.96289166496">
		<tag k="amenity" v="nursing_home" />
		<tag k="name" v="Flosta aldershjem" />
		<tag k="ssr:stedsnr" v="697250" />
	</node>
	<node id="-480287" lat="58.4290916679" lon="8.691927771">
		<tag k="name" v="Myra" />
		<tag k="place" v="farm" />
		<tag k="ssr:stedsnr" v="697247" />
	</node>
	<node id="-480283" lat="58.4269666686" lon="8.73139443884">
		<tag k="fixme" v="consider place=hamlet" />
		<tag k="name" v="Willumstad" />
		<tag k="place" v="farm" />
		<tag k="ssr:stedsnr" v="697224" />
	</node>
	<node id="-482330" lat="58.4622833298" lon="8.67692222683">
		<tag k="name" v="Bråstadlia" />
		<tag k="place" v="farm" />
		<tag k="ssr:stedsnr" v="758997" />
	</node>
	<node id="-480431" lat="58.4640694435" lon="8.71744443655">
		<tag k="name" v="Stoa" />
		<tag k="place" v="quarter" />
		<tag k="ssr:stedsnr" v="728628" />
	</node>
	<node id="-482325" lat="58.439897218" lon="8.56698889605">
		<tag k="name" v="Øvre Benken" />
		<tag k="place" v="farm" />
		<tag k="ssr:stedsnr" v="758820" />
	</node>
	<node id="-480271" lat="58.5198583335" lon="8.903400007">
		<tag k="name" v="Kjenes" />
		<tag k="place" v="farm" />
		<tag k="ssr:stedsnr" v="694233" />
	</node>
	<node id="-480269" lat="58.4848639718" lon="8.83558230155">
		<tag k="name" v="Bråten" />
		<tag k="place" v="farm" />
		<tag k="ssr:stedsnr" v="694274" />
	</node>
	<node id="-482316" lat="58.4627083353" lon="8.74926666592">
		<tag k="fixme" v="consider place=hamlet" />
		<tag k="name" v="Myrene" />
		<tag k="place" v="village" />
		<tag k="ssr:stedsnr" v="758603" />
	</node>
	<node id="-480263" lat="58.4457111149" lon="8.78748611235">
		<tag k="fixme" v="consider place=suburb, village or hamlet" />
		<tag k="name" v="Ytre Brattekleiv" />
		<tag k="place" v="quarter" />
		<tag k="ssr:stedsnr" v="515634" />
	</node>
	<node id="-480252" lat="58.4245805513" lon="8.70252222093">
		<tag k="name" v="Bomsholmen" />
		<tag k="place" v="quarter" />
		<tag k="ssr:stedsnr" v="515239" />
	</node>
	<node id="-482474" lat="58.5374166709" lon="8.81464444147">
		<tag k="fixme" v="consider place=hamlet" />
		<tag k="name" v="Brømnes" />
		<tag k="place" v="farm" />
		<tag k="ssr:stedsnr" v="850682" />
	</node>
	<node id="-479743" lat="58.5536861105" lon="8.80174722358">
		<tag k="name" v="Barli" />
		<tag k="place" v="farm" />
		<tag k="ssr:stedsnr" v="454443" />
	</node>
	<node id="-480425" lat="58.4772388909" lon="8.88897499317">
		<tag k="name" v="Sandå øvre" />
		<tag k="place" v="farm" />
		<tag k="ssr:stedsnr" v="634071" />
	</node>
	<node id="-480240" lat="58.5304154052" lon="8.76078999091">
		<tag k="alt_name" v="Storemyr" />
		<tag k="name" v="Stormyra" />
		<tag k="place" v="farm" />
		<tag k="ssr:stedsnr" v="486726" />
	</node>
	<node id="-482287" lat="58.5368361143" lon="8.91496111056">
		<tag k="name" v="Kverndalen" />
		<tag k="place" v="farm" />
		<tag k="ssr:stedsnr" v="758238" />
	</node>
	<node id="-482285" lat="58.5199861128" lon="8.90758888535">
		<tag k="name" v="Tønnevika" />
		<tag k="place" v="farm" />
		<tag k="ssr:stedsnr" v="758211" />
	</node>
	<node id="-480236" lat="58.4414305593" lon="8.70900555118">
		<tag k="name" v="Bjorbekk" />
		<tag k="place" v="farm" />
		<tag k="ssr:stedsnr" v="485576" />
	</node>
	<node id="-480235" lat="58.4387722234" lon="8.77793611593">
		<tag k="fixme" v="consider place=suburb, village or hamlet" />
		<tag k="name" v="Sandviga" />
		<tag k="place" v="quarter" />
		<tag k="ssr:stedsnr" v="485558" />
	</node>
	<node id="-480234" lat="58.4230779959" lon="8.58685449236">
		<tag k="alt_name" v="Stagernes" />
		<tag k="name" v="Stagersnes" />
		<tag k="place" v="farm" />
		<tag k="ssr:stedsnr" v="485556" />
	</node>
	<node id="-480232" lat="58.4083611105" lon="8.70936389512">
		<tag k="name" v="Flageborg" />
		<tag k="place" v="farm" />
		<tag k="ssr:stedsnr" v="485522" />
	</node>
	<node id="-482279" lat="58.4843805521" lon="8.87082500517">
		<tag k="name" v="Steinkleivhaven" />
		<tag k="place" v="quarter" />
		<tag k="ssr:stedsnr" v="758302" />
	</node>
	<node id="-480081" lat="58.46404167" lon="8.75587221797">
		<tag k="name" v="Stintetoppen" />
		<tag k="place" v="quarter" />
		<tag k="ssr:stedsnr" v="515581" />
	</node>
	<node id="-480228" lat="58.4818111118" lon="8.88274999422">
		<tag k="name" v="Alvheim" />
		<tag k="place" v="farm" />
		<tag k="ssr:stedsnr" v="668906" />
	</node>
	<node id="-482274" lat="58.5519249957" lon="8.83958611171">
		<tag k="name" v="Engjordet" />
		<tag k="place" v="farm" />
		<tag k="ssr:stedsnr" v="758018" />
	</node>
	<node id="-480225" lat="58.5122200165" lon="8.83443483542">
		<tag k="name" v="Tonesodden" />
		<tag k="place" v="farm" />
		<tag k="ssr:stedsnr" v="668768" />
	</node>
	<node id="-480224" lat="58.5202333347" lon="8.83599166484">
		<tag k="name" v="Øvre Hesthag" />
		<tag k="place" v="farm" />
		<tag k="ssr:stedsnr" v="668741" />
	</node>
	<node id="-482271" lat="58.4418527801" lon="8.63753054783">
		<tag k="name" v="Snippeklev" />
		<tag k="place" v="farm" />
		<tag k="ssr:stedsnr" v="757974" />
	</node>
	<node id="-480221" lat="58.57753941" lon="8.84803276874">
		<tag k="alt_name" v="Vestre Haslestad" />
		<tag k="name" v="Haslestad" />
		<tag k="place" v="farm" />
		<tag k="ssr:stedsnr" v="668306" />
	</node>
	<node id="-480220" lat="58.5615666692" lon="8.96560278487">
		<tag k="name" v="Lønvik" />
		<tag k="place" v="farm" />
		<tag k="ssr:stedsnr" v="668281" />
	</node>
	<node id="-480219" lat="58.5652222188" lon="8.97706944053">
		<tag k="name" v="Øya" />
		<tag k="place" v="hamlet" />
		<tag k="ssr:stedsnr" v="668279" />
	</node>
	<node id="-480218" lat="58.5612250029" lon="8.99092500631">
		<tag k="name" v="Skjeggestø" />
		<tag k="place" v="farm" />
		<tag k="ssr:stedsnr" v="668277" />
	</node>
	<node id="-480217" lat="58.5357805565" lon="8.86732777469">
		<tag k="name" v="Odden" />
		<tag k="place" v="farm" />
		<tag k="ssr:stedsnr" v="668272" />
	</node>
	<node id="-480216" lat="58.5490055266" lon="8.97687055523">
		<tag k="fixme" v="consider place=hamlet" />
		<tag k="name" v="Gjerdalen" />
		<tag k="place" v="farm" />
		<tag k="ssr:stedsnr" v="668256" />
	</node>
	<node id="-480215" lat="58.5478083301" lon="8.8782111154">
		<tag k="fixme" v="consider place=hamlet" />
		<tag k="name" v="Syrdalen" />
		<tag k="place" v="farm" />
		<tag k="ssr:stedsnr" v="668255" />
	</node>
	<node id="-480214" lat="58.5505611121" lon="8.93487500094">
		<tag k="name" v="Kirkedalen" />
		<tag k="place" v="farm" />
		<tag k="ssr:stedsnr" v="668252" />
	</node>
	<node id="-480213" lat="58.5532222178" lon="8.97692221469">
		<tag k="name" v="Kilsund" />
		<tag k="place" v="village" />
		<tag k="ssr:stedsnr" v="668249" />
	</node>
	<node id="-482260" lat="58.4487694402" lon="8.73153888592">
		<tag k="name" v="Moltemyr" />
		<tag k="place" v="farm" />
		<tag k="ssr:stedsnr" v="757762" />
	</node>
	<node id="-482259" lat="58.4009083351" lon="8.68099721542">
		<tag k="name" v="Bjønnum" />
		<tag k="place" v="farm" />
		<tag k="ssr:stedsnr" v="757727" />
	</node>
	<node id="-480208" lat="58.4955111139" lon="8.71360277476">
		<tag k="name" v="Eikås" />
		<tag k="place" v="farm" />
		<tag k="ssr:stedsnr" v="667652" />
	</node>
	<node id="-480207" lat="58.4956874437" lon="8.75500505329">
		<tag k="name" v="Bjelkevik" />
		<tag k="place" v="isolated_dwelling" />
		<tag k="ssr:stedsnr" v="667650" />
	</node>
	<node id="-480206" lat="58.4974388911" lon="8.84165833383">
		<tag k="fixme" v="consider place=suburb, village or hamlet" />
		<tag k="name" v="Mørefjær" />
		<tag k="place" v="quarter" />
		<tag k="ssr:stedsnr" v="667647" />
	</node>
	<node id="-480418" lat="58.4420888888" lon="8.6232499925">
		<tag k="fixme" v="consider place=hamlet" />
		<tag k="name" v="Løddesøl" />
		<tag k="place" v="village" />
		<tag k="ssr:stedsnr" v="728593" />
	</node>
	<node id="-480201" lat="58.4113583313" lon="8.66047777818">
		<tag k="fixme" v="consider place=hamlet" />
		<tag k="name" v="Helle" />
		<tag k="place" v="village" />
		<tag k="ssr:stedsnr" v="667541" />
	</node>
	<node id="-480200" lat="58.4097083325" lon="8.64851388943">
		<tag k="alt_name" v="Øyestad gård" />
		<tag k="fixme" v="consider place=hamlet" />
		<tag k="name" v="Øyestad" />
		<tag k="place" v="farm" />
		<tag k="ssr:stedsnr" v="667539" />
	</node>
	<node id="-480076" lat="58.4565277785" lon="8.74410277822">
		<tag k="name" v="Nygård" />
		<tag k="place" v="farm" />
		<tag k="ssr:stedsnr" v="515551" />
	</node>
	<node id="-480196" lat="58.4261493352" lon="8.77127286591">
		<tag k="name" v="Vragevigen" />
		<tag k="place" v="farm" />
		<tag k="ssr:stedsnr" v="663383" />
	</node>
	<node id="-482239" lat="58.4682666646" lon="8.83737221443">
		<tag k="name" v="Skudereis" />
		<tag k="place" v="farm" />
		<tag k="ssr:stedsnr" v="755316" />
	</node>
	<node id="-482237" lat="58.4794194478" lon="8.85129444168">
		<tag k="name" v="Bjørkestø" />
		<tag k="place" v="farm" />
		<tag k="ssr:stedsnr" v="755286" />
	</node>
	<node id="-480187" lat="58.5238083317" lon="8.74160556233">
		<tag k="name" v="Kjergukjerra" />
		<tag k="place" v="locality" />
		<tag k="ssr:stedsnr" v="454767" />
	</node>
	<node id="-480185" lat="58.4336222209" lon="8.70897222988">
		<tag k="name" v="Nedre Haugerød" />
		<tag k="place" v="quarter" />
		<tag k="ssr:stedsnr" v="454826" />
	</node>
	<node id="-482231" lat="58.453847219" lon="8.67990832664">
		<tag k="name" v="Lille Omholt" />
		<tag k="place" v="farm" />
		<tag k="ssr:stedsnr" v="637000" />
	</node>
	<node id="-482229" lat="58.4710583308" lon="8.71196944203">
		<tag k="name" v="Haugåsdalen" />
		<tag k="place" v="farm" />
		<tag k="ssr:stedsnr" v="636994" />
	</node>
	<node id="-482228" lat="58.472475001" lon="8.65964165839">
		<tag k="name" v="Slåttelia" />
		<tag k="place" v="farm" />
		<tag k="ssr:stedsnr" v="636982" />
	</node>
	<node id="-479447" lat="58.5165750013" lon="8.82314721871">
		<tag k="name" v="Røydalen" />
		<tag k="place" v="farm" />
		<tag k="ssr:stedsnr" v="744" />
	</node>
	<node id="-482222" lat="58.4307777788" lon="8.59388056174">
		<tag k="name" v="Skjersvoll" />
		<tag k="place" v="farm" />
		<tag k="ssr:stedsnr" v="636830" />
	</node>
	<node id="-480173" lat="58.4662388854" lon="8.78465556216">
		<tag k="name" v="Sjølyst" />
		<tag k="place" v="quarter" />
		<tag k="ssr:stedsnr" v="454618" />
	</node>
	<node id="-482220" lat="58.5058638906" lon="8.88066666181">
		<tag k="name" v="Breivik" />
		<tag k="place" v="quarter" />
		<tag k="ssr:stedsnr" v="636818" />
	</node>
	<node id="-482218" lat="58.453544441" lon="8.78822777459">
		<tag k="fixme" v="consider place=suburb, village or hamlet" />
		<tag k="name" v="Indre Bratteklev" />
		<tag k="place" v="quarter" />
		<tag k="ssr:stedsnr" v="636809" />
	</node>
	<node id="-482217" lat="58.4393055517" lon="8.67829166027">
		<tag k="name" v="Myra" />
		<tag k="place" v="farm" />
		<tag k="ssr:stedsnr" v="636807" />
	</node>
	<node id="-482215" lat="58.4660333358" lon="8.63391666757">
		<tag k="name" v="Rise mølle" />
		<tag k="place" v="locality" />
		<tag k="ssr:stedsnr" v="636938" />
	</node>
	<node id="-482214" lat="58.4929583334" lon="8.51013610984">
		<tag k="name" v="Nordheiløa" />
		<tag k="place" v="locality" />
		<tag k="ssr:stedsnr" v="636935" />
	</node>
	<node id="-480165" lat="58.5486194453" lon="8.7967805486">
		<tag k="name" v="Brekkemoen" />
		<tag k="place" v="farm" />
		<tag k="ssr:stedsnr" v="454433" />
	</node>
	<node id="-482212" lat="58.4625416704" lon="8.64519165852">
		<tag k="name" v="Riseplass" />
		<tag k="place" v="farm" />
		<tag k="ssr:stedsnr" v="636931" />
	</node>
	<node id="-480162" lat="58.4669277749" lon="8.82609721456">
		<tag k="name" v="Holtet" />
		<tag k="place" v="farm" />
		<tag k="ssr:stedsnr" v="454322" />
	</node>
	<node id="-480411" lat="58.4490361074" lon="8.73161110888">
		<tag k="fixme" v="consider place=hamlet" />
		<tag k="name" v="Bie" />
		<tag k="place" v="farm" />
		<tag k="ssr:stedsnr" v="606628" />
	</node>
	<node id="-482206" lat="58.4145055562" lon="8.64254444865">
		<tag k="name" v="Bunkene" />
		<tag k="place" v="farm" />
		<tag k="ssr:stedsnr" v="636881" />
	</node>
	<node id="-482205" lat="58.4108972247" lon="8.6345999935">
		<tag k="name" v="Vestre Øyestad" />
		<tag k="place" v="farm" />
		<tag k="ssr:stedsnr" v="636880" />
	</node>
	<node id="-480410" lat="58.4518138876" lon="8.76947500281">
		<tag k="name" v="Kolbjørnsvik" />
		<tag k="place" v="village" />
		<tag k="ssr:stedsnr" v="606626" />
	</node>
	<node id="-482199" lat="58.4807694481" lon="8.74518333044">
		<tag k="name" v="Torsplass" />
		<tag k="place" v="farm" />
		<tag k="ssr:stedsnr" v="636716" />
	</node>
	<node id="-480149" lat="58.4966888932" lon="8.84264444377">
		<tag k="name" v="Møste" />
		<tag k="place" v="quarter" />
		<tag k="ssr:stedsnr" v="454037" />
	</node>
	<node id="-480148" lat="58.5098666701" lon="8.838561108">
		<tag k="name" v="Eikestø" />
		<tag k="place" v="farm" />
		<tag k="ssr:stedsnr" v="454033" />
	</node>
	<node id="-482195" lat="58.4654777742" lon="8.78033889262">
		<tag k="name" v="Vollene" />
		<tag k="place" v="quarter" />
		<tag k="ssr:stedsnr" v="636628" />
	</node>
	<node id="-482192" lat="58.4706555561" lon="8.7886055528">
		<tag k="name" v="Nordbø" />
		<tag k="place" v="quarter" />
		<tag k="ssr:stedsnr" v="636599" />
	</node>
	<node id="-482191" lat="58.497350004" lon="8.85573332521">
		<tag k="name" v="Neskil" />
		<tag k="place" v="hamlet" />
		<tag k="ssr:stedsnr" v="636452" />
	</node>
	<node id="-480142" lat="58.5298777761" lon="8.80496389188">
		<tag k="name" v="Tveite" />
		<tag k="place" v="farm" />
		<tag k="ssr:stedsnr" v="426722" />
	</node>
	<node id="-482189" lat="58.4972250029" lon="8.86256111349">
		<tag k="name" v="Lykka" />
		<tag k="place" v="quarter" />
		<tag k="ssr:stedsnr" v="636449" />
	</node>
	<node id="-480140" lat="58.5450918453" lon="8.98270551724">
		<tag k="name" v="Kilen" />
		<tag k="place" v="farm" />
		<tag k="ssr:stedsnr" v="426223" />
	</node>
	<node id="-480139" lat="58.4779753286" lon="8.86925847141">
		<tag k="name" v="Omholt" />
		<tag k="place" v="isolated_dwelling" />
		<tag k="ssr:stedsnr" v="425910" />
	</node>
	<node id="-480138" lat="58.4821777758" lon="8.90924722964">
		<tag k="alt_name" v="Skarestrand" />
		<tag k="name" v="Skarestranda" />
		<tag k="place" v="hamlet" />
		<tag k="ssr:stedsnr" v="425909" />
	</node>
	<node id="-480137" lat="58.4415888917" lon="8.77593333102">
		<tag k="name" v="Slåbervig" />
		<tag k="place" v="quarter" />
		<tag k="ssr:stedsnr" v="425615" />
	</node>
	<node id="-480135" lat="58.4614083357" lon="8.68306388143">
		<tag k="name" v="Øymoen" />
		<tag k="place" v="farm" />
		<tag k="ssr:stedsnr" v="516000" />
	</node>
	<node id="-480133" lat="58.4962666706" lon="8.72721666655">
		<tag k="name" v="Blågestad" />
		<tag k="place" v="farm" />
		<tag k="ssr:stedsnr" v="425703" />
	</node>
	<node id="-480131" lat="58.4216805577" lon="8.64181665876">
		<tag k="name" v="Skogly" />
		<tag k="place" v="farm" />
		<tag k="ssr:stedsnr" v="515978" />
	</node>
	<node id="-480126" lat="58.4529472239" lon="8.62019722889">
		<tag k="name" v="Seljekjerr" />
		<tag k="place" v="farm" />
		<tag k="ssr:stedsnr" v="515951" />
	</node>
	<node id="-480125" lat="58.4646472193" lon="8.6479444475">
		<tag k="name" v="Bjelkevika" />
		<tag k="place" v="farm" />
		<tag k="ssr:stedsnr" v="515938" />
	</node>
	<node id="-480124" lat="58.4382944429" lon="8.63479999764">
		<tag k="fixme" v="consider place=hamlet" />
		<tag k="name" v="Ytre Løddesøl" />
		<tag k="place" v="farm" />
		<tag k="ssr:stedsnr" v="515935" />
	</node>
	<node id="-479722" lat="58.4220805574" lon="8.69852778507">
		<tag k="name" v="Sjøboden" />
		<tag k="place" v="locality" />
		<tag k="ssr:stedsnr" v="454231" />
	</node>
	<node id="-480120" lat="58.4179805597" lon="8.65476666474">
		<tag k="name" v="Huse" />
		<tag k="place" v="farm" />
		<tag k="ssr:stedsnr" v="515886" />
	</node>
	<node id="-482166" lat="58.5171416652" lon="8.78195832547">
		<tag k="amenity" v="school" />
		<tag k="name" v="Nesheim skole" />
		<tag k="ssr:stedsnr" v="636340" />
	</node>
	<node id="-480117" lat="58.4482416703" lon="8.58535833432">
		<tag k="name" v="Paddeåsen" />
		<tag k="place" v="farm" />
		<tag k="ssr:stedsnr" v="515846" />
	</node>
	<node id="-482163" lat="58.5086027822" lon="8.93943889002">
		<tag k="name" v="Øyna" />
		<tag k="place" v="farm" />
		<tag k="ssr:stedsnr" v="636152" />
	</node>
	<node id="-480114" lat="58.4402750026" lon="8.59152778117">
		<tag k="name" v="Jordet" />
		<tag k="place" v="farm" />
		<tag k="ssr:stedsnr" v="515822" />
	</node>
	<node id="-480403" lat="58.429302782" lon="8.6542333353">
		<tag k="name" v="Ingeborgshage" />
		<tag k="place" v="farm" />
		<tag k="ssr:stedsnr" v="575922" />
	</node>
	<node id="-480112" lat="58.443475002" lon="8.68646111383">
		<tag k="name" v="Liene" />
		<tag k="place" v="locality" />
		<tag k="ssr:stedsnr" v="515811" />
	</node>
	<node id="-480061" lat="58.5353833315" lon="8.80465277041">
		<tag k="name" v="Knatten" />
		<tag k="place" v="farm" />
		<tag k="ssr:stedsnr" v="515428" />
	</node>
	<node id="-482154" lat="58.4342222258" lon="8.74648333921">
		<tag k="amenity" v="nursing_home" />
		<tag k="name" v="Elim" />
		<tag k="ssr:stedsnr" v="636246" />
	</node>
	<node id="-482152" lat="58.4502694466" lon="8.74313610847">
		<tag k="name" v="Vestre Strømsbu" />
		<tag k="place" v="quarter" />
		<tag k="ssr:stedsnr" v="636242" />
	</node>
	<node id="-480401" lat="58.4537027745" lon="8.70956111327">
		<tag k="name" v="Dalen" />
		<tag k="place" v="farm" />
		<tag k="ssr:stedsnr" v="575916" />
	</node>
	<node id="-482147" lat="58.5062499965" lon="8.8465138835">
		<tag k="name" v="Helleheia" />
		<tag k="place" v="quarter" />
		<tag k="ssr:stedsnr" v="636036" />
	</node>
	<node id="-482143" lat="58.5554722257" lon="8.84300276966">
		<tag k="name" v="Spillkleivhagen" />
		<tag k="place" v="farm" />
		<tag k="ssr:stedsnr" v="636011" />
	</node>
	<node id="-480092" lat="58.4901777764" lon="8.76111111234">
		<tag k="name" v="Longum park" />
		<tag k="place" v="quarter" />
		<tag k="ssr:stedsnr" v="515710" />
	</node>
	<node id="-480090" lat="58.4942083359" lon="8.71541667179">
		<tag k="name" v="Øya" />
		<tag k="place" v="farm" />
		<tag k="ssr:stedsnr" v="515699" />
	</node>
	<node id="-480089" lat="58.4844750024" lon="8.72470277701">
		<tag k="name" v="Fjellmannsmyra" />
		<tag k="place" v="locality" />
		<tag k="ssr:stedsnr" v="515682" />
	</node>
	<node id="-482135" lat="58.4983722226" lon="8.86250555529">
		<tag k="fixme" v="consider place=hamlet" />
		<tag k="name" v="Nes" />
		<tag k="place" v="farm" />
		<tag k="ssr:stedsnr" v="633330" />
	</node>
	<node id="-482129" lat="58.5159499975" lon="8.77846666684">
		<tag k="name" v="Neset" />
		<tag k="place" v="farm" />
		<tag k="ssr:stedsnr" v="607737" />
	</node>
	<node id="-482128" lat="58.5216527814" lon="8.74977499951">
		<tag k="name" v="Folåsen" />
		<tag k="place" v="farm" />
		<tag k="ssr:stedsnr" v="607735" />
	</node>
	<node id="-482127" lat="58.538769444" lon="8.82413611833">
		<tag k="fixme" v="consider place=hamlet" />
		<tag k="name" v="Harveland" />
		<tag k="place" v="farm" />
		<tag k="ssr:stedsnr" v="607674" />
	</node>
	<node id="-482126" lat="58.4910083328" lon="8.87584166834">
		<tag k="alt_name" v="Omdalstø" />
		<tag k="name" v="Åmdalsstø" />
		<tag k="place" v="farm" />
		<tag k="ssr:stedsnr" v="607900" />
	</node>
	<node id="-482124" lat="58.5023288027" lon="8.68502293643">
		<tag k="name" v="Soleglad" />
		<tag k="place" v="farm" />
		<tag k="ssr:stedsnr" v="607518" />
	</node>
	<node id="-482123" lat="58.5021388847" lon="8.76019167236">
		<tag k="name" v="Vika" />
		<tag k="place" v="farm" />
		<tag k="ssr:stedsnr" v="607517" />
	</node>
	<node id="-482122" lat="58.4838194402" lon="8.80143611106">
		<tag k="name" v="Fossbekk" />
		<tag k="place" v="farm" />
		<tag k="ssr:stedsnr" v="607670" />
	</node>
	<node id="-482118" lat="58.5799437076" lon="8.85530188616">
		<tag k="fixme" v="consider place=hamlet" />
		<tag k="name" v="Haslestad" />
		<tag k="place" v="farm" />
		<tag k="ssr:stedsnr" v="607287" />
	</node>
	<node id="-482116" lat="58.5608277775" lon="8.95644166621">
		<tag k="name" v="Bjørndalen" />
		<tag k="place" v="farm" />
		<tag k="ssr:stedsnr" v="607259" />
	</node>
	<node id="-480054" lat="58.4932305578" lon="8.91121667483">
		<tag k="amenity" v="school" />
		<tag k="name" v="Skare skole" />
		<tag k="ssr:stedsnr" v="515387" />
	</node>
	<node id="-482113" lat="58.4967027805" lon="8.79839445075">
		<tag k="name" v="Bjorendal" />
		<tag k="place" v="farm" />
		<tag k="ssr:stedsnr" v="606688" />
	</node>
	<node id="-482112" lat="58.4912611083" lon="8.7875166706">
		<tag k="alt_name" v="Bjørnebo" />
		<tag k="name" v="Bjørnebu" />
		<tag k="place" v="farm" />
		<tag k="ssr:stedsnr" v="606680" />
	</node>
	<node id="-482110" lat="58.4374277762" lon="8.71734722624">
		<tag k="fixme" v="consider place=hamlet" />
		<tag k="name" v="Tangen" />
		<tag k="place" v="farm" />
		<tag k="ssr:stedsnr" v="606585" />
	</node>
	<node id="-482109" lat="58.4361277768" lon="8.67734999622">
		<tag k="name" v="Einerkjerr" />
		<tag k="place" v="farm" />
		<tag k="ssr:stedsnr" v="606584" />
	</node>
	<node id="-480059" lat="58.5304657015" lon="8.80498669611">
		<tag k="name" v="Hage" />
		<tag k="place" v="isolated_dwelling" />
		<tag k="ssr:stedsnr" v="515424" />
	</node>
	<node id="-482106" lat="58.410333333" lon="8.69756111893">
		<tag k="fixme" v="consider place=hamlet" />
		<tag k="name" v="Nedenes" />
		<tag k="place" v="village" />
		<tag k="ssr:stedsnr" v="606561" />
	</node>
	<node id="-482102" lat="58.4349694411" lon="8.60138888372">
		<tag k="name" v="Svinehagen" />
		<tag k="place" v="farm" />
		<tag k="ssr:stedsnr" v="575831" />
	</node>
	<node id="-481417" lat="58.5061166627" lon="8.71571667273">
		<tag k="alt_name" v="Tveitsøygarden" />
		<tag k="name" v="Tveiteøygarden" />
		<tag k="place" v="farm" />
		<tag k="ssr:stedsnr" v="122487" />
	</node>
	<node id="-482094" lat="58.4412611129" lon="8.70901666197">
		<tag k="name" v="Nygård" />
		<tag k="place" v="farm" />
		<tag k="ssr:stedsnr" v="575783" />
	</node>
	<node id="-480510" lat="58.5149305591" lon="8.8438111064">
		<tag k="fixme" v="consider place=hamlet" />
		<tag k="name" v="Nasland" />
		<tag k="place" v="farm" />
		<tag k="ssr:stedsnr" v="879042" />
	</node>
	<node id="-480036" lat="58.5065583339" lon="8.93663055182">
		<tag k="name" v="Vahuset" />
		<tag k="place" v="locality" />
		<tag k="ssr:stedsnr" v="515163" />
	</node>
	<node id="-480031" lat="58.4853250022" lon="8.8759083329">
		<tag k="amenity" v="school" />
		<tag k="name" v="Sandnes skole" />
		<tag k="ssr:stedsnr" v="515287" />
	</node>
	<node id="-480026" lat="58.5345833292" lon="8.84663611199">
		<tag k="name" v="Hørdalen" />
		<tag k="place" v="farm" />
		<tag k="ssr:stedsnr" v="515097" />
	</node>
	<node id="-480024" lat="58.5296999979" lon="8.91468611305">
		<tag k="name" v="Svanevik" />
		<tag k="place" v="farm" />
		<tag k="ssr:stedsnr" v="515091" />
	</node>
	<node id="-482070" lat="58.4474666649" lon="8.61818610954">
		<tag k="name" v="Nokkehaugen" />
		<tag k="place" v="farm" />
		<tag k="ssr:stedsnr" v="575736" />
	</node>
	<node id="-482068" lat="58.4477555518" lon="8.66501944434">
		<tag k="name" v="Lyngmyr" />
		<tag k="place" v="farm" />
		<tag k="ssr:stedsnr" v="575731" />
	</node>
	<node id="-480019" lat="58.5625511276" lon="8.82084281746">
		<tag k="fixme" v="consider place=hamlet" />
		<tag k="name" v="Store Våje" />
		<tag k="old_name" v="Vaaje store" />
		<tag k="place" v="farm" />
		<tag k="ssr:stedsnr" v="421044" />
	</node>
	<node id="-482065" lat="58.4889138854" lon="8.79503888799">
		<tag k="name" v="Bjørneboplassen" />
		<tag k="place" v="farm" />
		<tag k="ssr:stedsnr" v="575687" />
	</node>
	<node id="-482062" lat="58.4984999989" lon="8.86387778346">
		<tag k="name" v="Harsten" />
		<tag k="place" v="quarter" />
		<tag k="ssr:stedsnr" v="575430" />
	</node>
	<node id="-482061" lat="58.497413892" lon="8.86268055626">
		<tag k="name" v="Tingstua" />
		<tag k="place" v="quarter" />
		<tag k="ssr:stedsnr" v="575428" />
	</node>
	<node id="-480012" lat="58.5698111073" lon="8.9787861188">
		<tag k="name" v="Bekkevika" />
		<tag k="place" v="farm" />
		<tag k="ssr:stedsnr" v="513311" />
	</node>
	<node id="-482059" lat="58.549808333" lon="8.80190833141">
		<tag k="leisure" v="pitch" />
		<tag k="name" v="Kjerkedalen" />
		<tag k="ssr:stedsnr" v="575408" />
	</node>
	<node id="-482055" lat="58.5322403471" lon="8.81603541056">
		<tag k="name" v="Bjørkelia" />
		<tag k="place" v="farm" />
		<tag k="ssr:stedsnr" v="575381" />
	</node>
	<node id="-480006" lat="58.4657888886" lon="8.81211666515">
		<tag k="name" v="Steina" />
		<tag k="place" v="locality" />
		<tag k="ssr:stedsnr" v="512764" />
	</node>
	<node id="-480000" lat="58.4322777742" lon="8.59834444607">
		<tag k="name" v="Løhaugen" />
		<tag k="place" v="farm" />
		<tag k="ssr:stedsnr" v="393855" />
	</node>
	<node id="-482047" lat="58.4642694468" lon="8.75275278018">
		<tag k="fixme" v="consider place=suburb, village or hamlet" />
		<tag k="name" v="Heimdal" />
		<tag k="place" v="quarter" />
		<tag k="ssr:stedsnr" v="575571" />
	</node>
	<node id="-479997" lat="58.4400638863" lon="8.62202221579">
		<tag k="name" v="Neset" />
		<tag k="place" v="farm" />
		<tag k="ssr:stedsnr" v="393921" />
	</node>
	<node id="-479996" lat="58.4103861081" lon="8.66359166522">
		<tag k="name" v="Vavollen" />
		<tag k="place" v="farm" />
		<tag k="ssr:stedsnr" v="393760" />
	</node>
	<node id="-479991" lat="58.4423777769" lon="8.57021665934">
		<tag k="name" v="Såbulia" />
		<tag k="place" v="locality" />
		<tag k="ssr:stedsnr" v="393819" />
	</node>
	<node id="-479987" lat="58.4965805577" lon="8.72509722378">
		<tag k="name" v="Stupind" />
		<tag k="place" v="farm" />
		<tag k="ssr:stedsnr" v="393653" />
	</node>
	<node id="-479986" lat="58.4457805518" lon="8.79262777737">
		<tag k="name" v="Udkikken" />
		<tag k="place" v="quarter" />
		<tag k="ssr:stedsnr" v="393623" />
	</node>
	<node id="-479985" lat="58.4684277787" lon="8.772197221">
		<tag k="name" v="Barbugårdsjordet" />
		<tag k="place" v="quarter" />
		<tag k="ssr:stedsnr" v="393616" />
	</node>
	<node id="-480413" lat="58.417618943" lon="8.74404321145">
		<tag k="name" v="Utnes" />
		<tag k="place" v="farm" />
		<tag k="ssr:stedsnr" v="606557" />
	</node>
	<node id="-482029" lat="58.4442111089" lon="8.76482222782">
		<tag k="amenity" v="school" />
		<tag k="name" v="Hisøy sentralskole" />
		<tag k="ssr:stedsnr" v="575198" />
	</node>
	<node id="-482028" lat="58.4503250003" lon="8.7239638905">
		<tag k="name" v="Sandersplass" />
		<tag k="place" v="farm" />
		<tag k="ssr:stedsnr" v="575190" />
	</node>
	<node id="-482025" lat="58.5239408951" lon="8.88096894784">
		<tag k="name" v="Kvernvollen" />
		<tag k="place" v="farm" />
		<tag k="ssr:stedsnr" v="575175" />
	</node>
	<node id="-482024" lat="58.5187334856" lon="8.88399081057">
		<tag k="name" v="Bjørnekjærr" />
		<tag k="place" v="farm" />
		<tag k="ssr:stedsnr" v="575172" />
	</node>
	<node id="-479973" lat="58.535602779" lon="8.87750833114">
		<tag k="name" v="Storhage" />
		<tag k="place" v="locality" />
		<tag k="ssr:stedsnr" v="393124" />
	</node>
	<node id="-479972" lat="58.4073861155" lon="8.69400833446">
		<tag k="name" v="Vestre Nedenes" />
		<tag k="place" v="quarter" />
		<tag k="ssr:stedsnr" v="393227" />
	</node>
	<node id="-482019" lat="58.4714361106" lon="8.88227221626">
		<tag k="name" v="Pilmyra" />
		<tag k="place" v="farm" />
		<tag k="ssr:stedsnr" v="575281" />
	</node>
	<node id="-479968" lat="58.4976008123" lon="8.89199666076">
		<tag k="name" v="Slettebakken" />
		<tag k="place" v="farm" />
		<tag k="ssr:stedsnr" v="393063" />
	</node>
	<node id="-482015" lat="58.4503888904" lon="8.84496944907">
		<tag k="name" v="Tågevoll" />
		<tag k="place" v="farm" />
		<tag k="ssr:stedsnr" v="575266" />
	</node>
	<node id="-479965" lat="58.5046250043" lon="8.92372222382">
		<tag k="name" v="Tuftene" />
		<tag k="place" v="locality" />
		<tag k="ssr:stedsnr" v="393054" />
	</node>
	<node id="-482006" lat="58.4559861106" lon="8.75654444164">
		<tag k="fixme" v="consider place=suburb, village or hamlet" />
		<tag k="name" v="Strømsbu" />
		<tag k="place" v="quarter" />
		<tag k="ssr:stedsnr" v="572761" />
	</node>
	<node id="-479957" lat="58.5275111099" lon="8.82870277578">
		<tag k="name" v="Vestre Bråvoll" />
		<tag k="place" v="farm" />
		<tag k="ssr:stedsnr" v="389220" />
	</node>
	<node id="-482002" lat="58.576341663" lon="8.82797222449">
		<tag k="name" v="Landbø" />
		<tag k="place" v="farm" />
		<tag k="ssr:stedsnr" v="547871" />
	</node>
	<node id="-479952" lat="58.4886916642" lon="8.91259167113">
		<tag k="name" v="Dybing" />
		<tag k="place" v="farm" />
		<tag k="ssr:stedsnr" v="360125" />
	</node>
	<node id="-481999" lat="58.5331277793" lon="8.7525972227">
		<tag k="name" v="Støyl" />
		<tag k="place" v="farm" />
		<tag k="ssr:stedsnr" v="547721" />
	</node>
	<node id="-481994" lat="58.5067924261" lon="8.77940820387">
		<tag k="alt_name" v="Ytre Longum" />
		<tag k="name" v="Longum" />
		<tag k="place" v="hamlet" />
		<tag k="ssr:stedsnr" v="546664" />
	</node>
	<node id="-481993" lat="58.488816667" lon="8.80248888432">
		<tag k="alt_name" v="Stea" />
		<tag k="name" v="Steda" />
		<tag k="place" v="farm" />
		<tag k="ssr:stedsnr" v="546635" />
	</node>
	<node id="-479944" lat="58.543133332" lon="8.80775833979">
		<tag k="alt_name" v="Brekkenes" />
		<tag k="name" v="Brekknes" />
		<tag k="place" v="farm" />
		<tag k="ssr:stedsnr" v="486690" />
	</node>
	<node id="-481991" lat="58.4665472265" lon="8.71093332949">
		<tag k="name" v="Slottet" />
		<tag k="place" v="farm" />
		<tag k="ssr:stedsnr" v="546611" />
	</node>
	<node id="-481990" lat="58.46419167" lon="8.8270888825">
		<tag k="fixme" v="consider place=suburb, village or hamlet" />
		<tag k="name" v="Gjerstad" />
		<tag k="place" v="quarter" />
		<tag k="ssr:stedsnr" v="546599" />
	</node>
	<node id="-481989" lat="58.4490527787" lon="8.70296389063">
		<tag k="name" v="Nygårdshaven" />
		<tag k="place" v="farm" />
		<tag k="ssr:stedsnr" v="546587" />
	</node>
	<node id="-481988" lat="58.4447916654" lon="8.71955278251">
		<tag k="alt_name" v="Kladeborg" />
		<tag k="fixme" v="consider place=hamlet" />
		<tag k="name" v="Klodeborg" />
		<tag k="place" v="farm" />
		<tag k="ssr:stedsnr" v="546584" />
	</node>
	<node id="-479938" lat="58.5088416646" lon="8.77716944995">
		<tag k="name" v="Longum" />
		<tag k="place" v="hamlet" />
		<tag k="ssr:stedsnr" v="486513" />
	</node>
	<node id="-479937" lat="58.5245694404" lon="8.87210833254">
		<tag k="fixme" v="consider place=hamlet" />
		<tag k="name" v="Åbelviga" />
		<tag k="place" v="farm" />
		<tag k="ssr:stedsnr" v="486237" />
	</node>
	<node id="-479936" lat="58.5532555514" lon="8.94035555069">
		<tag k="fixme" v="consider place=hamlet" />
		<tag k="name" v="Vatnebu" />
		<tag k="place" v="farm" />
		<tag k="ssr:stedsnr" v="486231" />
	</node>
	<node id="-481982" lat="58.3971583335" lon="8.69286110437">
		<tag k="name" v="Engene" />
		<tag k="place" v="farm" />
		<tag k="ssr:stedsnr" v="546513" />
	</node>
	<node id="-479933" lat="58.4743500007" lon="8.87457778272">
		<tag k="name" v="Alve" />
		<tag k="place" v="farm" />
		<tag k="ssr:stedsnr" v="485940" />
	</node>
	<node id="-479931" lat="58.4571694473" lon="8.87914722988">
		<tag k="fixme" v="consider place=hamlet" />
		<tag k="name" v="Bjelland" />
		<tag k="place" v="farm" />
		<tag k="ssr:stedsnr" v="485927" />
	</node>
	<node id="-481978" lat="58.5609222187" lon="8.82018611605">
		<tag k="name" v="Store Våje" />
		<tag k="old_name" v="Vaaje store" />
		<tag k="place" v="farm" />
		<tag k="ssr:stedsnr" v="543059" />
	</node>
	<node id="-479929" lat="58.4731138886" lon="8.84783888643">
		<tag k="name" v="Vågsnes" />
		<tag k="place" v="farm" />
		<tag k="ssr:stedsnr" v="485906" />
	</node>
	<node id="-479927" lat="58.4838777808" lon="8.85532500594">
		<tag k="alt_name" v="Sandnesøyren" />
		<tag k="name" v="Sandnesøyra" />
		<tag k="place" v="quarter" />
		<tag k="ssr:stedsnr" v="485902" />
	</node>
	<node id="-479925" lat="58.5074916667" lon="8.92293610948">
		<tag k="fixme" v="consider place=hamlet" />
		<tag k="name" v="Hasteinsund" />
		<tag k="place" v="farm" />
		<tag k="ssr:stedsnr" v="486178" />
	</node>
	<node id="-481972" lat="58.5707861076" lon="8.95390277616">
		<tag k="alt_name" v="Eikelandsmyra" />
		<tag k="name" v="Myra" />
		<tag k="place" v="farm" />
		<tag k="ssr:stedsnr" v="426280" />
	</node>
	<node id="-481971" lat="58.571074997" lon="8.98304444792">
		<tag k="fixme" v="consider place=hamlet" />
		<tag k="name" v="Tverrdal" />
		<tag k="place" v="farm" />
		<tag k="ssr:stedsnr" v="426276" />
	</node>
	<node id="-481970" lat="58.5704305525" lon="8.95816666028">
		<tag k="name" v="Kilen" />
		<tag k="place" v="farm" />
		<tag k="ssr:stedsnr" v="426273" />
	</node>
	<node id="-479921" lat="58.4540694476" lon="8.60278055204">
		<tag k="name" v="Reinum" />
		<tag k="place" v="farm" />
		<tag k="ssr:stedsnr" v="485591" />
	</node>
	<node id="-481968" lat="58.4895638888" lon="8.74757777963">
		<tag k="fixme" v="consider place=hamlet" />
		<tag k="name" v="Uglebu" />
		<tag k="place" v="farm" />
		<tag k="ssr:stedsnr" v="425692" />
	</node>
	<node id="-481967" lat="58.4671336078" lon="8.82057693627">
		<tag k="name" v="Tybakken" />
		<tag k="place" v="farm" />
		<tag k="ssr:stedsnr" v="425648" />
	</node>
	<node id="-481966" lat="58.4706111151" lon="8.78937499212">
		<tag k="name" v="Havstad" />
		<tag k="place" v="farm" />
		<tag k="ssr:stedsnr" v="425647" />
	</node>
	<node id="-481965" lat="58.4688111129" lon="8.6837694526">
		<tag k="fixme" v="consider place=hamlet" />
		<tag k="name" v="Bråstad" />
		<tag k="place" v="farm" />
		<tag k="ssr:stedsnr" v="425644" />
	</node>
	<node id="-481964" lat="58.554288893" lon="8.83203332563">
		<tag k="name" v="Rønningen" />
		<tag k="place" v="farm" />
		<tag k="ssr:stedsnr" v="425642" />
	</node>
	<node id="-479911" lat="58.4611694437" lon="8.65231943805">
		<tag k="name" v="Dalen" />
		<tag k="place" v="farm" />
		<tag k="ssr:stedsnr" v="333931" />
	</node>
	<node id="-481958" lat="58.4228583339" lon="8.71162777291">
		<tag k="alt_name" v="Røed" />
		<tag k="name" v="Rød" />
		<tag k="place" v="quarter" />
		<tag k="ssr:stedsnr" v="425563" />
	</node>
	<node id="-481957" lat="58.4058988526" lon="8.69853272159">
		<tag k="name" v="Tukarten" />
		<tag k="place" v="farm" />
		<tag k="ssr:stedsnr" v="425547" />
	</node>
	<node id="-481956" lat="58.4200638911" lon="8.7143722203">
		<tag k="alt_name" v="Natvik" />
		<tag k="fixme" v="consider place=suburb, village or hamlet" />
		<tag k="name" v="Natvig" />
		<tag k="place" v="quarter" />
		<tag k="ssr:stedsnr" v="425544" />
	</node>
	<node id="-481954" lat="58.462708331" lon="8.774136116">
		<tag k="name" v="Barbu" />
		<tag k="place" v="suburb" />
		<tag k="ssr:stedsnr" v="425625" />
	</node>
	<node id="-481952" lat="58.5260250039" lon="8.91319444793">
		<tag k="alt_name" v="Nergården" />
		<tag k="name" v="Nergarden" />
		<tag k="place" v="farm" />
		<tag k="ssr:stedsnr" v="425231" />
	</node>
	<node id="-481951" lat="58.5036138854" lon="8.91213334141">
		<tag k="alt_name" v="Markvig" />
		<tag k="fixme" v="consider place=hamlet" />
		<tag k="name" v="Merkevik" />
		<tag k="old_name" v="Merkavik" />
		<tag k="place" v="farm" />
		<tag k="ssr:stedsnr" v="425213" />
	</node>
	<node id="-479901" lat="58.4644312634" lon="8.63007765021">
		<tag k="name" v="Rønningen" />
		<tag k="place" v="farm" />
		<tag k="ssr:stedsnr" v="333525" />
	</node>
	<node id="-479900" lat="58.4534027742" lon="8.62629722468">
		<tag k="name" v="Øvremyr" />
		<tag k="place" v="farm" />
		<tag k="ssr:stedsnr" v="333524" />
	</node>
	<node id="-479899" lat="58.4480527793" lon="8.61225832616">
		<tag k="name" v="Nokevje" />
		<tag k="place" v="farm" />
		<tag k="ssr:stedsnr" v="333523" />
	</node>
	<node id="-479896" lat="58.4616000018" lon="8.77109444839">
		<tag k="name" v="Skytebanen" />
		<tag k="place" v="quarter" />
		<tag k="ssr:stedsnr" v="333611" />
	</node>
	<node id="-481941" lat="58.4789611082" lon="8.68680556213">
		<tag k="name" v="Nautenes" />
		<tag k="place" v="farm" />
		<tag k="ssr:stedsnr" v="393991" />
	</node>
	<node id="-481940" lat="58.4606437188" lon="8.63167309689">
		<tag k="fixme" v="consider place=hamlet" />
		<tag k="name" v="Risholt" />
		<tag k="place" v="farm" />
		<tag k="ssr:stedsnr" v="393981" />
	</node>
	<node id="-481937" lat="58.4437222236" lon="8.58771667113">
		<tag k="name" v="Håsålen" />
		<tag k="place" v="farm" />
		<tag k="ssr:stedsnr" v="393843" />
	</node>
	<node id="-481936" lat="58.4309305562" lon="8.59756111366">
		<tag k="name" v="Tippen" />
		<tag k="place" v="farm" />
		<tag k="ssr:stedsnr" v="393837" />
	</node>
	<node id="-481933" lat="58.4360111144" lon="8.73620832637">
		<tag k="name" v="Engene" />
		<tag k="place" v="farm" />
		<tag k="ssr:stedsnr" v="393795" />
	</node>
	<node id="-481929" lat="58.4452694402" lon="8.62818611472">
		<tag k="name" v="Jordet" />
		<tag k="place" v="farm" />
		<tag k="ssr:stedsnr" v="393779" />
	</node>
	<node id="-481928" lat="58.4262916658" lon="8.62708055767">
		<tag k="name" v="Havstensmyr" />
		<tag k="place" v="farm" />
		<tag k="ssr:stedsnr" v="393946" />
	</node>
	<node id="-479876" lat="58.4668944448" lon="8.83339999397">
		<tag k="name" v="Rørendal" />
		<tag k="place" v="farm" />
		<tag k="ssr:stedsnr" v="330319" />
	</node>
	<node id="-481923" lat="58.4642083294" lon="8.53384167067">
		<tag k="barrier" v="fence" />
		<tag k="name" v="Mørløsleet" />
		<tag k="ssr:stedsnr" v="393893" />
	</node>
	<node id="-479870" lat="58.5569777739" lon="8.98167499204">
		<tag k="alt_name" v="Ytrebø" />
		<tag k="fixme" v="consider place=hamlet" />
		<tag k="name" v="Ytterbø" />
		<tag k="place" v="farm" />
		<tag k="ssr:stedsnr" v="304218" />
	</node>
	<node id="-479869" lat="58.5408500003" lon="8.89884999778">
		<tag k="fixme" v="consider place=hamlet" />
		<tag k="name" v="Vivesøl" />
		<tag k="place" v="farm" />
		<tag k="ssr:stedsnr" v="304211" />
	</node>
	<node id="-479866" lat="58.5395055512" lon="8.95143334145">
		<tag k="name" v="Finnskott" />
		<tag k="place" v="farm" />
		<tag k="ssr:stedsnr" v="304203" />
	</node>
	<node id="-479865" lat="58.4997944458" lon="8.86436945194">
		<tag k="name" v="Eydehavn" />
		<tag k="place" v="village" />
		<tag k="ssr:stedsnr" v="303915" />
	</node>
	<node id="-479864" lat="58.4886666626" lon="8.84003888324">
		<tag k="name" v="Saltrød" />
		<tag k="place" v="village" />
		<tag k="ssr:stedsnr" v="303672" />
	</node>
	<node id="-479863" lat="58.4780555591" lon="8.77945000087">
		<tag k="name" v="Songe" />
		<tag k="place" v="farm" />
		<tag k="ssr:stedsnr" v="303669" />
	</node>
	<node id="-479862" lat="58.4783333333" lon="8.74128055284">
		<tag k="alt_name" v="Gunhildsbo" />
		<tag k="fixme" v="consider place=hamlet" />
		<tag k="name" v="Gunhildsbu" />
		<tag k="place" v="farm" />
		<tag k="ssr:stedsnr" v="303666" />
	</node>
	<node id="-481908" lat="58.4554194424" lon="8.75350554835">
		<tag k="name" v="Strømsbu gård" />
		<tag k="place" v="farm" />
		<tag k="ssr:stedsnr" v="393551" />
	</node>
	<node id="-479859" lat="58.5461055585" lon="8.80453054934">
		<tag k="name" v="Brekka" />
		<tag k="place" v="farm" />
		<tag k="ssr:stedsnr" v="546641" />
	</node>
	<node id="-479855" lat="58.5784666664" lon="8.93568056133">
		<tag k="name" v="Storemyr" />
		<tag k="place" v="farm" />
		<tag k="ssr:stedsnr" v="546276" />
	</node>
	<node id="-481900" lat="58.4423277768" lon="8.78778054706">
		<tag k="fixme" v="consider place=suburb, village or hamlet" />
		<tag k="name" v="Jonsvold" />
		<tag k="place" v="quarter" />
		<tag k="ssr:stedsnr" v="393644" />
	</node>
	<node id="-481899" lat="58.4547583293" lon="8.79760277635">
		<tag k="name" v="Solli" />
		<tag k="place" v="farm" />
		<tag k="ssr:stedsnr" v="393601" />
	</node>
	<node id="-481898" lat="58.4593361079" lon="8.79909722744">
		<tag k="name" v="Roligheten" />
		<tag k="place" v="farm" />
		<tag k="ssr:stedsnr" v="393595" />
	</node>
	<node id="-481897" lat="58.4611305574" lon="8.81309999505">
		<tag k="name" v="Myra" />
		<tag k="place" v="farm" />
		<tag k="ssr:stedsnr" v="393587" />
	</node>
	<node id="-479843" lat="58.4862027747" lon="8.78189722939">
		<tag k="name" v="Sæden" />
		<tag k="place" v="farm" />
		<tag k="ssr:stedsnr" v="272664" />
	</node>
	<node id="-481884" lat="58.4946555528" lon="8.88867221523">
		<tag k="name" v="Skallhaven" />
		<tag k="place" v="farm" />
		<tag k="ssr:stedsnr" v="393339" />
	</node>
	<node id="-479835" lat="58.448136107" lon="8.68574999305">
		<tag k="name" v="Gausplass" />
		<tag k="place" v="farm" />
		<tag k="ssr:stedsnr" v="272704" />
	</node>
	<node id="-479831" lat="58.4567694422" lon="8.80562778203">
		<tag k="leisure" v="pitch" />
		<tag k="name" v="Tromøyhallen" />
		<tag k="ssr:stedsnr" v="272563" />
	</node>
	<node id="-479830" lat="58.4643944485" lon="8.76750833121">
		<tag k="building" v="commercial" />
		<tag k="name" v="Fylkeshuset" />
		<tag k="ssr:stedsnr" v="272522" />
	</node>
	<node id="-481874" lat="58.4344194486" lon="8.75451389466">
		<tag k="name" v="Myra" />
		<tag k="place" v="farm" />
		<tag k="ssr:stedsnr" v="393251" />
	</node>
	<node id="-481873" lat="58.5504555514" lon="8.97872778116">
		<tag k="fixme" v="consider place=suburb, village or hamlet" />
		<tag k="name" v="Brennvika" />
		<tag k="place" v="quarter" />
		<tag k="ssr:stedsnr" v="393245" />
	</node>
	<node id="-481870" lat="58.5544497383" lon="8.96247223841">
		<tag k="name" v="Vindkoll" />
		<tag k="place" v="isolated_dwelling" />
		<tag k="ssr:stedsnr" v="393228" />
	</node>
	<node id="-479821" lat="58.4903305595" lon="8.87453611201">
		<tag k="name" v="Storhaven" />
		<tag k="place" v="isolated_dwelling" />
		<tag k="ssr:stedsnr" v="272254" />
	</node>
	<node id="-479816" lat="58.5252777777" lon="8.88583055662">
		<tag k="name" v="Lindnes" />
		<tag k="place" v="farm" />
		<tag k="ssr:stedsnr" v="272168" />
	</node>
	<node id="-479814" lat="58.5387055544" lon="8.89990555951">
		<tag k="name" v="Hagen" />
		<tag k="place" v="farm" />
		<tag k="ssr:stedsnr" v="272117" />
	</node>
	<node id="-482299" lat="58.4982888932" lon="8.81933888982">
		<tag k="name" v="Øygarden" />
		<tag k="place" v="locality" />
		<tag k="ssr:stedsnr" v="758379" />
	</node>
	<node id="-481859" lat="58.5342833358" lon="8.86607222572">
		<tag k="name" v="Klampelia" />
		<tag k="place" v="farm" />
		<tag k="ssr:stedsnr" v="393129" />
	</node>
	<node id="-481854" lat="58.5254944453" lon="8.80431388046">
		<tag k="name" v="Einerhaugen" />
		<tag k="place" v="farm" />
		<tag k="ssr:stedsnr" v="393410" />
	</node>
	<node id="-479805" lat="58.4108777806" lon="8.71482221749">
		<tag k="name" v="Barlinddalen" />
		<tag k="place" v="neighbourhood" />
		<tag k="ssr:stedsnr" v="272209" />
	</node>
	<node id="-481852" lat="58.4889777814" lon="8.87001945031">
		<tag k="fixme" v="consider place=hamlet" />
		<tag k="name" v="Dybdal" />
		<tag k="place" v="farm" />
		<tag k="ssr:stedsnr" v="391286" />
	</node>
	<node id="-481851" lat="58.5019369894" lon="8.86386487685">
		<tag k="name" v="Haugebakke" />
		<tag k="place" v="farm" />
		<tag k="ssr:stedsnr" v="391283" />
	</node>
	<node id="-479796" lat="58.4422277762" lon="8.61013888565">
		<tag k="name" v="Frivoll" />
		<tag k="place" v="farm" />
		<tag k="ssr:stedsnr" v="454940" />
	</node>
	<node id="-481843" lat="58.5244166672" lon="8.79312777454">
		<tag k="name" v="Dalen" />
		<tag k="place" v="farm" />
		<tag k="ssr:stedsnr" v="365734" />
	</node>
	<node id="-481841" lat="58.5578751074" lon="8.8646638905">
		<tag k="alt_name" v="Urdalen" />
		<tag k="historic" v="shieling" />
		<tag k="name" v="Urddalen" />
		<tag k="place" v="locality" />
		<tag k="ssr:stedsnr" v="365275" />
	</node>
	<node id="-481840" lat="58.5673086465" lon="8.95184121105">
		<tag k="name" v="Borås" />
		<tag k="place" v="farm" />
		<tag k="ssr:stedsnr" v="365265" />
	</node>
	<node id="-481839" lat="58.5589777748" lon="8.95618611357">
		<tag k="name" v="Kjerret" />
		<tag k="place" v="farm" />
		<tag k="ssr:stedsnr" v="365263" />
	</node>
	<node id="-481838" lat="58.5320361083" lon="8.94155277071">
		<tag k="name" v="Lådalen" />
		<tag k="place" v="isolated_dwelling" />
		<tag k="ssr:stedsnr" v="365261" />
	</node>
	<node id="-481837" lat="58.5365944482" lon="8.87137777009">
		<tag k="name" v="Kjenes" />
		<tag k="place" v="farm" />
		<tag k="ssr:stedsnr" v="365255" />
	</node>
	<node id="-481834" lat="58.4872560329" lon="8.88439014347">
		<tag k="alt_name" v="Omdal" />
		<tag k="fixme" v="consider place=hamlet" />
		<tag k="name" v="Åmdal" />
		<tag k="place" v="farm" />
		<tag k="ssr:stedsnr" v="364931" />
	</node>
	<node id="-481833" lat="58.5211000026" lon="8.79189444422">
		<tag k="name" v="Askedalen" />
		<tag k="place" v="farm" />
		<tag k="ssr:stedsnr" v="364749" />
	</node>
	<node id="-481831" lat="58.5411472188" lon="8.74718055882">
		<tag k="name" v="Brekkedalen" />
		<tag k="place" v="farm" />
		<tag k="ssr:stedsnr" v="364682" />
	</node>
	<node id="-479781" lat="58.4792972216" lon="8.76358611688">
		<tag k="name" v="Steinkleiv" />
		<tag k="place" v="quarter" />
		<tag k="ssr:stedsnr" v="454701" />
	</node>
	<node id="-481828" lat="58.4497500027" lon="8.66593332926">
		<tag k="loc_name" v="Omholt" />
		<tag k="name" v="Åmholt" />
		<tag k="place" v="farm" />
		<tag k="ssr:stedsnr" v="364634" />
	</node>
	<node id="-481827" lat="58.4493055565" lon="8.83200833259">
		<tag k="alt_name" v="Hofstøl" />
		<tag k="fixme" v="consider place=hamlet" />
		<tag k="name" v="Hovstøl" />
		<tag k="place" v="farm" />
		<tag k="ssr:stedsnr" v="364627" />
	</node>
	<node id="-481826" lat="58.4110416661" lon="8.72715833571">
		<tag k="name" v="Moldal" />
		<tag k="place" v="farm" />
		<tag k="ssr:stedsnr" v="364586" />
	</node>
	<node id="-481823" lat="58.5069611086" lon="8.82678055713">
		<tag k="fixme" v="consider place=hamlet" />
		<tag k="name" v="Haugereid" />
		<tag k="place" v="farm" />
		<tag k="ssr:stedsnr" v="364506" />
	</node>
	<node id="-481822" lat="58.5272361111" lon="8.90133334053">
		<tag k="fixme" v="consider place=hamlet" />
		<tag k="name" v="Løvøya" />
		<tag k="place" v="farm" />
		<tag k="ssr:stedsnr" v="364256" />
	</node>
	<node id="-481821" lat="58.5196111137" lon="8.92319444647">
		<tag k="fixme" v="consider place=hamlet" />
		<tag k="name" v="Dal" />
		<tag k="place" v="farm" />
		<tag k="ssr:stedsnr" v="364226" />
	</node>
	<node id="-481820" lat="58.5179111087" lon="8.89527500152">
		<tag k="alt_name" v="Helleren, store" />
		<tag k="name" v="Store Helleren" />
		<tag k="place" v="farm" />
		<tag k="ssr:stedsnr" v="364221" />
	</node>
	<node id="-479771" lat="58.4182277739" lon="8.66122222507">
		<tag k="name" v="Birkelund" />
		<tag k="place" v="farm" />
		<tag k="ssr:stedsnr" v="454801" />
	</node>
	<node id="-481815" lat="58.4727722194" lon="8.66849722415">
		<tag k="name" v="Granlia" />
		<tag k="place" v="farm" />
		<tag k="ssr:stedsnr" v="333991" />
	</node>
	<node id="-479765" lat="58.4191888903" lon="8.67381389364">
		<tag k="name" v="Krogene" />
		<tag k="place" v="farm" />
		<tag k="ssr:stedsnr" v="454779" />
	</node>
	<node id="-481812" lat="58.4257888885" lon="8.64531110893">
		<tag k="name" v="Dyremyr" />
		<tag k="place" v="farm" />
		<tag k="ssr:stedsnr" v="333972" />
	</node>
	<node id="-481811" lat="58.4346416698" lon="8.66682777771">
		<tag k="name" v="Tjenna" />
		<tag k="place" v="isolated_dwelling" />
		<tag k="ssr:stedsnr" v="333801" />
	</node>
	<node id="-480456" lat="58.4485416635" lon="8.7921444451">
		<tag k="leisure" v="pitch" />
		<tag k="name" v="Traumabakken" />
		<tag k="ssr:stedsnr" v="636653" />
	</node>
	<node id="-479760" lat="58.4586138898" lon="8.76456388941">
		<tag k="name" v="Tyholmen" />
		<tag k="place" v="suburb" />
		<tag k="ssr:stedsnr" v="454562" />
	</node>
	<node id="-480183" lat="58.4478722233" lon="8.72855833217">
		<tag k="name" v="Templet" />
		<tag k="place" v="farm" />
		<tag k="ssr:stedsnr" v="454817" />
	</node>
	<node id="-481801" lat="58.4461416672" lon="8.71061666762">
		<tag k="name" v="Rønningen" />
		<tag k="place" v="farm" />
		<tag k="ssr:stedsnr" v="333759" />
	</node>
	<node id="-481800" lat="58.445547224" lon="8.69579722437">
		<tag k="name" v="Ospelunden" />
		<tag k="place" v="farm" />
		<tag k="ssr:stedsnr" v="333758" />
	</node>
	<node id="-479751" lat="58.4770388917" lon="8.85097499245">
		<tag k="name" v="Munnbua" />
		<tag k="place" v="isolated_dwelling" />
		<tag k="ssr:stedsnr" v="454383" />
	</node>
	<node id="-482048" lat="58.4667972206" lon="8.7451083286">
		<tag k="name" v="Torbjørnsbu gård" />
		<tag k="place" v="farm" />
		<tag k="ssr:stedsnr" v="575574" />
	</node>
	<node id="-479739" lat="58.4296138873" lon="8.76009721412">
		<tag k="name" v="Indre Lundåsen" />
		<tag k="place" v="farm" />
		<tag k="ssr:stedsnr" v="454201" />
	</node>
	<node id="-479736" lat="58.5287722207" lon="8.92596666257">
		<tag k="name" v="Budalen" />
		<tag k="place" v="farm" />
		<tag k="ssr:stedsnr" v="454174" />
	</node>
	<node id="-481783" lat="58.4931333361" lon="8.72437776989">
		<tag k="name" v="Monen" />
		<tag k="place" v="farm" />
		<tag k="ssr:stedsnr" v="333677" />
	</node>
	<node id="-480339" lat="58.4034361121" lon="8.67559166918">
		<tag k="fixme" v="consider place=hamlet" />
		<tag k="name" v="Tingstveitkjerret" />
		<tag k="place" v="farm" />
		<tag k="ssr:stedsnr" v="697743" />
	</node>
	<node id="-479727" lat="58.4140472185" lon="8.68351667389">
		<tag k="name" v="Tingstveitåsen" />
		<tag k="place" v="farm" />
		<tag k="ssr:stedsnr" v="454258" />
	</node>
	<node id="-481774" lat="58.4719750004" lon="8.79368888477">
		<tag k="name" v="Birkenlund" />
		<tag k="place" v="quarter" />
		<tag k="ssr:stedsnr" v="333576" />
	</node>
	<node id="-481772" lat="58.4644138914" lon="8.72522222186">
		<tag k="name" v="Vestbø" />
		<tag k="place" v="farm" />
		<tag k="ssr:stedsnr" v="333570" />
	</node>
	<node id="-479723" lat="58.5507416711" lon="8.96778332987">
		<tag k="name" v="Sundet" />
		<tag k="place" v="hamlet" />
		<tag k="ssr:stedsnr" v="454232" />
	</node>
	<node id="-481770" lat="58.4630833305" lon="8.76612499776">
		<tag k="amenity" v="school" />
		<tag k="name" v="Sjømannsskolen" />
		<tag k="ssr:stedsnr" v="333561" />
	</node>
	<node id="-481767" lat="58.4857027767" lon="8.88764722509">
		<tag k="name" v="Lille Omdal" />
		<tag k="place" v="farm" />
		<tag k="ssr:stedsnr" v="333389" />
	</node>
	<node id="-481764" lat="58.4413000001" lon="8.78688055082">
		<tag k="fixme" v="consider place=suburb, village or hamlet" />
		<tag k="name" v="Dalene" />
		<tag k="place" v="quarter" />
		<tag k="ssr:stedsnr" v="333644" />
	</node>
	<node id="-480336" lat="58.484638885" lon="8.76336110534">
		<tag k="name" v="Moland park" />
		<tag k="place" v="quarter" />
		<tag k="ssr:stedsnr" v="697691" />
	</node>
	<node id="-479708" lat="58.4456111155" lon="8.85811944074">
		<tag k="fixme" v="consider place=suburb, village or hamlet" />
		<tag k="name" v="Myrene" />
		<tag k="place" v="quarter" />
		<tag k="ssr:stedsnr" v="451778" />
	</node>
	<node id="-481754" lat="58.4997666649" lon="8.86430000227">
		<tag k="name" v="Prestehaugen" />
		<tag k="place" v="quarter" />
		<tag k="ssr:stedsnr" v="333474" />
	</node>
	<node id="-479704" lat="58.5434138922" lon="8.93758056379">
		<tag k="name" v="Sjøverstø" />
		<tag k="place" v="farm" />
		<tag k="ssr:stedsnr" v="244225" />
	</node>
	<node id="-479652" lat="58.5277055577" lon="8.87930277971">
		<tag k="name" v="Råna" />
		<tag k="place" v="farm" />
		<tag k="ssr:stedsnr" v="209328" />
	</node>
	<node id="-479701" lat="58.5095635757" lon="8.81496950383">
		<tag k="name" v="Mørland" />
		<tag k="place" v="hamlet" />
		<tag k="ssr:stedsnr" v="243506" />
	</node>
	<node id="-481748" lat="58.5514499989" lon="8.78657500691">
		<tag k="name" v="Skau" />
		<tag k="place" v="farm" />
		<tag k="ssr:stedsnr" v="333442" />
	</node>
	<node id="-479699" lat="58.4413972247" lon="8.54086388042">
		<tag k="fixme" v="consider place=hamlet" />
		<tag k="name" v="Bjelland" />
		<tag k="place" v="farm" />
		<tag k="ssr:stedsnr" v="243612" />
	</node>
	<node id="-479698" lat="58.4436333297" lon="8.6828277834">
		<tag k="fixme" v="consider place=hamlet" />
		<tag k="name" v="Hausland" />
		<tag k="place" v="farm" />
		<tag k="ssr:stedsnr" v="243610" />
	</node>
	<node id="-479693" lat="58.4422166688" lon="8.625061103">
		<tag k="fixme" v="consider place=hamlet" />
		<tag k="name" v="Øvre Løddesøl" />
		<tag k="place" v="farm" />
		<tag k="ssr:stedsnr" v="212942" />
	</node>
	<node id="-481738" lat="58.4420666668" lon="8.84486111382">
		<tag k="landuse" v="military" />
		<tag k="name" v="Hoveleiren" />
		<tag k="ssr:stedsnr" v="333315" />
	</node>
	<node id="-481737" lat="58.4435555572" lon="8.83629999175">
		<tag k="name" v="Strandstua" />
		<tag k="place" v="isolated_dwelling" />
		<tag k="ssr:stedsnr" v="333314" />
	</node>
	<node id="-479688" lat="58.4741944417" lon="8.78313333621">
		<tag k="leisure" v="pitch" />
		<tag k="name" v="Nygårdsbakken" />
		<tag k="ssr:stedsnr" v="212610" />
	</node>
	<node id="-479687" lat="58.4620277809" lon="8.89243334135">
		<tag k="name" v="Tromøya" />
		<tag k="place" v="farm" />
		<tag k="ssr:stedsnr" v="298028" />
	</node>
	<node id="-481734" lat="58.5203222262" lon="8.9141305525">
		<tag k="name" v="Vollen" />
		<tag k="place" v="farm" />
		<tag k="ssr:stedsnr" v="333190" />
	</node>
	<node id="-479685" lat="58.4833666678" lon="8.78545834073">
		<tag k="name" v="Langemyr" />
		<tag k="place" v="farm" />
		<tag k="ssr:stedsnr" v="212723" />
	</node>
	<node id="-479684" lat="58.4846277758" lon="8.73599166126">
		<tag k="name" v="Nedre Myra" />
		<tag k="place" v="farm" />
		<tag k="ssr:stedsnr" v="212706" />
	</node>
	<node id="-479680" lat="58.4971111127" lon="8.69552222093">
		<tag k="name" v="Glaværn" />
		<tag k="place" v="farm" />
		<tag k="ssr:stedsnr" v="212514" />
	</node>
	<node id="-479678" lat="58.4775166676" lon="8.88290277344">
		<tag k="name" v="Eplestø" />
		<tag k="place" v="farm" />
		<tag k="ssr:stedsnr" v="212328" />
	</node>
	<node id="-479674" lat="58.4583527817" lon="8.83761389205">
		<tag k="name" v="Øygarden" />
		<tag k="place" v="locality" />
		<tag k="ssr:stedsnr" v="212310" />
	</node>
	<node id="-479671" lat="58.4505388864" lon="8.75486944327">
		<tag k="alt_name" v="Gullsmedenga" />
		<tag k="name" v="Guldsmedenga" />
		<tag k="place" v="village" />
		<tag k="ssr:stedsnr" v="212240" />
	</node>
	<node id="-481718" lat="58.5358083304" lon="8.89258888454">
		<tag k="name" v="Øygarden" />
		<tag k="place" v="locality" />
		<tag k="ssr:stedsnr" v="333093" />
	</node>
	<node id="-479646" lat="58.5749555598" lon="8.96027499472">
		<tag k="fixme" v="consider place=hamlet" />
		<tag k="name" v="Eikeland" />
		<tag k="place" v="farm" />
		<tag k="ssr:stedsnr" v="183255" />
	</node>
	<node id="-479645" lat="58.4545611101" lon="8.87329444727">
		<tag k="alt_name" v="Lia" />
		<tag k="fixme" v="consider place=hamlet" />
		<tag k="name" v="Lien" />
		<tag k="place" v="farm" />
		<tag k="ssr:stedsnr" v="182919" />
	</node>
	<node id="-481704" lat="58.5565027742" lon="8.96733333846">
		<tag k="name" v="Mortens hull" />
		<tag k="place" v="isolated_dwelling" />
		<tag k="ssr:stedsnr" v="332242" />
	</node>
	<node id="-481700" lat="58.4643277816" lon="8.80316111439">
		<tag k="name" v="Færvigøyren" />
		<tag k="place" v="locality" />
		<tag k="ssr:stedsnr" v="330799" />
	</node>
	<node id="-481694" lat="58.513783336" lon="8.81109444787">
		<tag k="name" v="Langerød" />
		<tag k="place" v="farm" />
		<tag k="ssr:stedsnr" v="304762" />
	</node>
	<node id="-481693" lat="58.5371472183" lon="8.74987223042">
		<tag k="name" v="Bjornes" />
		<tag k="place" v="farm" />
		<tag k="ssr:stedsnr" v="304708" />
	</node>
	<node id="-481692" lat="58.5429249991" lon="8.79716111435">
		<tag k="name" v="Vollene" />
		<tag k="place" v="farm" />
		<tag k="ssr:stedsnr" v="304696" />
	</node>
	<node id="-479643" lat="58.4978222207" lon="8.89272499973">
		<tag k="name" v="Grønningen" />
		<tag k="place" v="farm" />
		<tag k="ssr:stedsnr" v="182908" />
	</node>
	<node id="-479642" lat="58.4538166647" lon="8.82522222686">
		<tag k="fixme" v="consider place=hamlet" />
		<tag k="name" v="Flangeborg" />
		<tag k="place" v="farm" />
		<tag k="ssr:stedsnr" v="182616" />
	</node>
	<node id="-481688" lat="58.5113777799" lon="8.77360277676">
		<tag k="name" v="Lona" />
		<tag k="place" v="farm" />
		<tag k="ssr:stedsnr" v="304495" />
	</node>
	<node id="-481687" lat="58.5120318061" lon="8.83799262981">
		<tag k="name" v="Bråten" />
		<tag k="place" v="farm" />
		<tag k="ssr:stedsnr" v="304486" />
	</node>
	<node id="-479638" lat="58.4339861097" lon="8.70023333806">
		<tag k="fixme" v="consider place=hamlet" />
		<tag k="name" v="Asdal" />
		<tag k="place" v="village" />
		<tag k="ssr:stedsnr" v="182594" />
	</node>
	<node id="-481685" lat="58.4723805579" lon="8.66431111092">
		<tag k="name" v="Eikelia" />
		<tag k="place" v="farm" />
		<tag k="ssr:stedsnr" v="304660" />
	</node>
	<node id="-479636" lat="58.4177861112" lon="8.6761805567">
		<tag k="fixme" v="consider place=hamlet" />
		<tag k="name" v="Nersten" />
		<tag k="place" v="farm" />
		<tag k="ssr:stedsnr" v="182562" />
	</node>
	<node id="-481683" lat="58.4610250007" lon="8.52328055157">
		<tag k="fixme" v="consider place=hamlet" />
		<tag k="name" v="Vigeland" />
		<tag k="place" v="farm" />
		<tag k="ssr:stedsnr" v="304649" />
	</node>
	<node id="-479455" lat="58.4273083364" lon="8.70203610863">
		<tag k="name" v="Sandstø" />
		<tag k="place" v="quarter" />
		<tag k="ssr:stedsnr" v="29249" />
	</node>
	<node id="-479640" lat="58.434505555" lon="8.59508889148">
		<tag k="alt_name" v="Mjønnevoll" />
		<tag k="name" v="Mjønnevollen" />
		<tag k="place" v="farm" />
		<tag k="ssr:stedsnr" v="182599" />
	</node>
	<node id="-481677" lat="58.5605455971" lon="8.99200149935">
		<tag k="name" v="Nygård" />
		<tag k="place" v="farm" />
		<tag k="ssr:stedsnr" v="304238" />
	</node>
	<node id="-481676" lat="58.4606166632" lon="8.86416110777">
		<tag k="name" v="Bakke" />
		<tag k="place" v="farm" />
		<tag k="ssr:stedsnr" v="303935" />
	</node>
	<node id="-479627" lat="58.4421611105" lon="8.80945277842">
		<tag k="name" v="Lieng" />
		<tag k="place" v="farm" />
		<tag k="ssr:stedsnr" v="151617" />
	</node>
	<node id="-479626" lat="58.4671055593" lon="8.77613055211">
		<tag k="name" v="Hasselåsen" />
		<tag k="place" v="quarter" />
		<tag k="ssr:stedsnr" v="151613" />
	</node>
	<node id="-479639" lat="58.4387160094" lon="8.5594371187">
		<tag k="name" v="Stokkedalen" />
		<tag k="place" v="farm" />
		<tag k="ssr:stedsnr" v="182597" />
	</node>
	<node id="-479623" lat="58.4261750026" lon="8.80521944413">
		<tag k="fixme" v="consider place=hamlet" />
		<tag k="name" v="Merdø gård" />
		<tag k="place" v="farm" />
		<tag k="ssr:stedsnr" v="151532" />
	</node>
	<node id="-481669" lat="58.4578777808" lon="8.67944444391">
		<tag k="name" v="Moen" />
		<tag k="place" v="farm" />
		<tag k="ssr:stedsnr" v="303629" />
	</node>
	<node id="-481668" lat="58.4260305565" lon="8.72928610517">
		<tag k="name" v="Vippa" />
		<tag k="place" v="farm" />
		<tag k="ssr:stedsnr" v="303583" />
	</node>
	<node id="-479619" lat="58.5821527775" lon="8.98261389168">
		<tag k="name" v="Strand" />
		<tag k="place" v="isolated_dwelling" />
		<tag k="ssr:stedsnr" v="151227" />
	</node>
	<node id="-481665" lat="58.418516667" lon="8.65680000474">
		<tag k="name" v="Fjellmannsplass" />
		<tag k="place" v="farm" />
		<tag k="ssr:stedsnr" v="212898" />
	</node>
	<node id="-479614" lat="58.5826694448" lon="8.83968333908">
		<tag k="name" v="Landbøøygard" />
		<tag k="place" v="locality" />
		<tag k="ssr:stedsnr" v="151148" />
	</node>
	<node id="-481659" lat="58.4405472231" lon="8.58649167175">
		<tag k="name" v="Solbakken" />
		<tag k="place" v="farm" />
		<tag k="ssr:stedsnr" v="212858" />
	</node>
	<node id="-481657" lat="58.4272166639" lon="8.58539167319">
		<tag k="name" v="Sandnes" />
		<tag k="place" v="farm" />
		<tag k="ssr:stedsnr" v="212855" />
	</node>
	<node id="-481684" lat="58.4664190761" lon="8.62869563808">
		<tag k="fixme" v="consider place=hamlet" />
		<tag k="name" v="Rise" />
		<tag k="place" v="farm" />
		<tag k="ssr:stedsnr" v="304657" />
	</node>
	<node id="-479605" lat="58.4271500018" lon="8.58326667448">
		<tag k="name" v="Ulvsmoen" />
		<tag k="place" v="farm" />
		<tag k="ssr:stedsnr" v="150816" />
	</node>
	<node id="-481650" lat="58.4376675248" lon="8.70236155331">
		<tag k="name" v="Bakken" />
		<tag k="place" v="farm" />
		<tag k="ssr:stedsnr" v="212818" />
	</node>
	<node id="-479600" lat="58.4427194421" lon="8.71811110433">
		<tag k="name" v="Dalen" />
		<tag k="place" v="farm" />
		<tag k="ssr:stedsnr" v="150735" />
	</node>
	<node id="-481646" lat="58.4914638919" lon="8.80302499705">
		<tag k="name" v="Øvre Stea" />
		<tag k="place" v="farm" />
		<tag k="ssr:stedsnr" v="212685" />
	</node>
	<node id="-481645" lat="58.4847166625" lon="8.73293889421">
		<tag k="amenity" v="school" />
		<tag k="name" v="Myra skole" />
		<tag k="ssr:stedsnr" v="212678" />
	</node>
	<node id="-481641" lat="58.4971472252" lon="8.71557221621">
		<tag k="name" v="Kittilsplass" />
		<tag k="place" v="locality" />
		<tag k="ssr:stedsnr" v="212656" />
	</node>
	<node id="-481640" lat="58.43981667" lon="8.77610834125">
		<tag k="name" v="Hasseldalen" />
		<tag k="place" v="quarter" />
		<tag k="ssr:stedsnr" v="212645" />
	</node>
	<node id="-481636" lat="58.4275611105" lon="8.7626666707">
		<tag k="name" v="Ytre Lundåsen" />
		<tag k="place" v="farm" />
		<tag k="ssr:stedsnr" v="212785" />
	</node>
	<node id="-479587" lat="58.4313944446" lon="8.74342777235">
		<tag k="name" v="His" />
		<tag k="place" v="village" />
		<tag k="ssr:stedsnr" v="148715" />
	</node>
	<node id="-479700" lat="58.4435305537" lon="8.70715832765">
		<tag k="fixme" v="consider place=hamlet" />
		<tag k="name" v="Seldal" />
		<tag k="place" v="farm" />
		<tag k="ssr:stedsnr" v="243619" />
	</node>
	<node id="-481631" lat="58.4634750037" lon="8.8688888872">
		<tag k="name" v="Øygarden" />
		<tag k="place" v="locality" />
		<tag k="ssr:stedsnr" v="212751" />
	</node>
	<node id="-481629" lat="58.4575361108" lon="8.83487777388">
		<tag k="name" v="Svendsøygard" />
		<tag k="place" v="locality" />
		<tag k="ssr:stedsnr" v="212742" />
	</node>
	<node id="-481628" lat="58.4619694456" lon="8.81578610334">
		<tag k="name" v="Bie" />
		<tag k="place" v="farm" />
		<tag k="ssr:stedsnr" v="212592" />
	</node>
	<node id="-479579" lat="58.4547611075" lon="8.58950277649">
		<tag k="name" v="Furredalen" />
		<tag k="place" v="locality" />
		<tag k="ssr:stedsnr" v="272887" />
	</node>
	<node id="-481625" lat="58.4599083319" lon="8.73001111091">
		<tag k="name" v="Solli" />
		<tag k="place" v="farm" />
		<tag k="ssr:stedsnr" v="212567" />
	</node>
	<node id="-479575" lat="58.4281429714" lon="8.74775259417">
		<tag k="name" v="Thorshaug" />
		<tag k="place" v="farm" />
		<tag k="ssr:stedsnr" v="272738" />
	</node>
	<node id="-479572" lat="58.4166861085" lon="8.56186666829">
		<tag k="name" v="Plassen" />
		<tag k="place" v="locality" />
		<tag k="ssr:stedsnr" v="272800" />
	</node>
	<node id="-481617" lat="58.488338886" lon="8.84503055985">
		<tag k="name" v="Kvasseberg" />
		<tag k="place" v="quarter" />
		<tag k="ssr:stedsnr" v="212375" />
	</node>
	<node id="-479568" lat="58.4863638869" lon="8.7308611112">
		<tag k="name" v="Øvre Myra" />
		<tag k="place" v="farm" />
		<tag k="ssr:stedsnr" v="272634" />
	</node>
	<node id="-480312" lat="58.4711972266" lon="8.81431943615">
		<tag k="name" v="Krøgenes" />
		<tag k="place" v="farm" />
		<tag k="ssr:stedsnr" v="697578" />
	</node>
	<node id="-479562" lat="58.4553777738" lon="8.86837222595">
		<tag k="name" v="Solheim" />
		<tag k="place" v="farm" />
		<tag k="ssr:stedsnr" v="272694" />
	</node>
	<node id="-479561" lat="58.4560916656" lon="8.84063055165">
		<tag k="name" v="Duevik" />
		<tag k="place" v="farm" />
		<tag k="ssr:stedsnr" v="272688" />
	</node>
	<node id="-479557" lat="58.4365416696" lon="8.63302776964">
		<tag k="name" v="Monen" />
		<tag k="place" v="farm" />
		<tag k="ssr:stedsnr" v="272486" />
	</node>
	<node id="-479554" lat="58.5118111112" lon="8.81244166654">
		<tag k="name" v="Solåsen" />
		<tag k="place" v="farm" />
		<tag k="ssr:stedsnr" v="272343" />
	</node>
	<node id="-481594" lat="58.476966667" lon="8.87546388327">
		<tag k="name" v="Blaudekjerr" />
		<tag k="place" v="farm" />
		<tag k="ssr:stedsnr" v="212257" />
	</node>
	<node id="-481733" lat="58.5109972243" lon="8.94145277774">
		<tag k="name" v="Knubben" />
		<tag k="place" v="isolated_dwelling" />
		<tag k="ssr:stedsnr" v="333187" />
	</node>
	<node id="-481579" lat="58.5249021416" lon="8.88455305376">
		<tag k="name" v="Korten" />
		<tag k="place" v="farm" />
		<tag k="ssr:stedsnr" v="212182" />
	</node>
	<node id="-479529" lat="58.43120833" lon="8.75208333233">
		<tag k="name" v="Dalen" />
		<tag k="place" v="farm" />
		<tag k="ssr:stedsnr" v="272197" />
	</node>
	<node id="-481576" lat="58.5246207942" lon="8.88203437677">
		<tag k="name" v="Høymyr" />
		<tag k="place" v="farm" />
		<tag k="ssr:stedsnr" v="212167" />
	</node>
	<node id="-480305" lat="58.5566055557" lon="8.81136110373">
		<tag k="building" v="commercial" />
		<tag k="name" v="Vågskilen sagbruk" />
		<tag k="ssr:stedsnr" v="697432" />
	</node>
	<node id="-479522" lat="58.5088027764" lon="8.93059721874">
		<tag k="name" v="Persholl" />
		<tag k="place" v="isolated_dwelling" />
		<tag k="ssr:stedsnr" v="272051" />
	</node>
	<node id="-481565" lat="58.5331277793" lon="8.7525972227">
		<tag k="name" v="Granestua" />
		<tag k="place" v="isolated_dwelling" />
		<tag k="ssr:stedsnr" v="208708" />
	</node>
	<node id="-481564" lat="58.4158972184" lon="8.71115555639">
		<tag k="name" v="Ranneklev" />
		<tag k="place" v="farm" />
		<tag k="ssr:stedsnr" v="207216" />
	</node>
	<node id="-481562" lat="58.5749749983" lon="8.83943055867">
		<tag k="alt_name" v="Engbråten" />
		<tag k="name" v="Engebråten" />
		<tag k="place" v="farm" />
		<tag k="ssr:stedsnr" v="183865" />
	</node>
	<node id="-481560" lat="58.567310816" lon="8.82125451688">
		<tag k="fixme" v="consider place=hamlet" />
		<tag k="name" v="Lille Våje" />
		<tag k="place" v="farm" />
		<tag k="ssr:stedsnr" v="183850" />
	</node>
	<node id="-481556" lat="58.5011055512" lon="8.71146667439">
		<tag k="fixme" v="consider place=hamlet" />
		<tag k="name" v="Tveiten" />
		<tag k="place" v="farm" />
		<tag k="ssr:stedsnr" v="183490" />
	</node>
	<node id="-481555" lat="58.5125583331" lon="8.7806333303">
		<tag k="alt_name" v="Øvre Longum" />
		<tag k="name" v="Longum" />
		<tag k="place" v="farm" />
		<tag k="ssr:stedsnr" v="183466" />
	</node>
	<node id="-481554" lat="58.5336111133" lon="8.9213249935">
		<tag k="alt_name" v="Vrangsund" />
		<tag k="name" v="Vrangesund" />
		<tag k="place" v="farm" />
		<tag k="ssr:stedsnr" v="183230" />
	</node>
	<node id="-481553" lat="58.538311113" lon="8.95342777882">
		<tag k="name" v="Langmyr" />
		<tag k="place" v="farm" />
		<tag k="ssr:stedsnr" v="183227" />
	</node>
	<node id="-479504" lat="58.447374999" lon="8.7718888908">
		<tag k="fixme" v="consider place=hamlet" />
		<tag k="name" v="Gimle" />
		<tag k="place" v="farm" />
		<tag k="ssr:stedsnr" v="90629" />
	</node>
	<node id="-481551" lat="58.5483047892" lon="8.94354854317">
		<tag k="name" v="Vatnebu" />
		<tag k="place" v="farm" />
		<tag k="ssr:stedsnr" v="183196" />
	</node>
	<node id="-481550" lat="58.519123337" lon="8.77840071036">
		<tag k="name" v="Nordnes" />
		<tag k="place" v="isolated_dwelling" />
		<tag k="ssr:stedsnr" v="182720" />
	</node>
	<node id="-480301" lat="58.4524222225" lon="8.85725554764">
		<tag k="fixme" v="consider place=hamlet" />
		<tag k="name" v="Fredli" />
		<tag k="place" v="farm" />
		<tag k="ssr:stedsnr" v="697300" />
	</node>
	<node id="-481548" lat="58.4926416642" lon="8.77556943788">
		<tag k="name" v="Stølen" />
		<tag k="place" v="farm" />
		<tag k="ssr:stedsnr" v="182681" />
	</node>
	<node id="-481545" lat="58.5507944486" lon="8.82031943987">
		<tag k="fixme" v="consider place=hamlet" />
		<tag k="name" v="Haugenes" />
		<tag k="place" v="farm" />
		<tag k="ssr:stedsnr" v="182648" />
	</node>
	<node id="-480141" lat="58.5284111122" lon="8.81573333845">
		<tag k="name" v="Tveite" />
		<tag k="place" v="farm" />
		<tag k="ssr:stedsnr" v="426720" />
	</node>
	<node id="-481542" lat="58.4473579441" lon="8.84251495877">
		<tag k="fixme" v="consider place=hamlet" />
		<tag k="name" v="Sandum" />
		<tag k="place" v="farm" />
		<tag k="ssr:stedsnr" v="182621" />
	</node>
	<node id="-481541" lat="58.5238666669" lon="8.91501945246">
		<tag k="fixme" v="consider place=hamlet" />
		<tag k="name" v="Arnevik" />
		<tag k="place" v="farm" />
		<tag k="ssr:stedsnr" v="182224" />
	</node>
	<node id="-481540" lat="58.5135750001" lon="8.88859166209">
		<tag k="name" v="Rønningen" />
		<tag k="place" v="farm" />
		<tag k="ssr:stedsnr" v="182192" />
	</node>
	<node id="-481539" lat="58.5073305571" lon="8.85959166051">
		<tag k="name" v="Kastet" />
		<tag k="place" v="farm" />
		<tag k="ssr:stedsnr" v="182184" />
	</node>
	<node id="-479490" lat="58.540727774" lon="8.97677500317">
		<tag k="name" v="Kalvøysund" />
		<tag k="place" v="hamlet" />
		<tag k="ssr:stedsnr" v="244230" />
	</node>
	<node id="-479489" lat="58.5185250006" lon="8.78610277771">
		<tag k="name" v="Lindstølen" />
		<tag k="place" v="farm" />
		<tag k="ssr:stedsnr" v="243747" />
	</node>
	<node id="-481910" lat="58.4822583373" lon="8.75593332848">
		<tag k="name" v="Frivoll" />
		<tag k="place" v="farm" />
		<tag k="ssr:stedsnr" v="393683" />
	</node>
	<node id="-479487" lat="58.4616277766" lon="8.80231388574">
		<tag k="name" v="Sofienlund" />
		<tag k="place" v="farm" />
		<tag k="ssr:stedsnr" v="243635" />
	</node>
	<node id="-479486" lat="58.4567063476" lon="8.81702816053">
		<tag k="fixme" v="consider place=hamlet" />
		<tag k="name" v="Færvik" />
		<tag k="place" v="village" />
		<tag k="ssr:stedsnr" v="243631" />
	</node>
	<node id="-479484" lat="58.5571972256" lon="8.81039722825">
		<tag k="name" v="Rønningen" />
		<tag k="place" v="farm" />
		<tag k="ssr:stedsnr" v="243659" />
	</node>
	<node id="-479483" lat="58.4607674908" lon="8.63014599495">
		<tag k="name" v="Risholt" />
		<tag k="place" v="farm" />
		<tag k="ssr:stedsnr" v="243657" />
	</node>
	<node id="-479482" lat="58.4294583312" lon="8.71561388441">
		<tag k="alt_name" v="Skarpenes" />
		<tag k="fixme" v="consider place=hamlet" />
		<tag k="name" v="Skarpnes" />
		<tag k="place" v="farm" />
		<tag k="ssr:stedsnr" v="243589" />
	</node>
	<node id="-481529" lat="58.4763472188" lon="8.70308333179">
		<tag k="name" v="Åsheim" />
		<tag k="place" v="farm" />
		<tag k="ssr:stedsnr" v="151990" />
	</node>
	<node id="-481527" lat="58.4691472239" lon="8.62044721467">
		<tag k="name" v="Løfjell" />
		<tag k="place" v="farm" />
		<tag k="ssr:stedsnr" v="151983" />
	</node>
	<node id="-481525" lat="58.4478694424" lon="8.6318472165">
		<tag k="name" v="Dalen" />
		<tag k="place" v="farm" />
		<tag k="ssr:stedsnr" v="151950" />
	</node>
	<node id="-481523" lat="58.490680558" lon="8.87876388338">
		<tag k="name" v="Seden" />
		<tag k="place" v="farm" />
		<tag k="ssr:stedsnr" v="151831" />
	</node>
	<node id="-479474" lat="58.4774972221" lon="8.8870194368">
		<tag k="name" v="Øvre Sandå" />
		<tag k="place" v="farm" />
		<tag k="ssr:stedsnr" v="238141" />
	</node>
	<node id="-481521" lat="58.4751861108" lon="8.76049445067">
		<tag k="fixme" v="consider place=suburb, village or hamlet" />
		<tag k="name" v="Steinsås" />
		<tag k="place" v="quarter" />
		<tag k="ssr:stedsnr" v="151819" />
	</node>
	<node id="-480296" lat="58.4497138867" lon="8.68799165985">
		<tag k="name" v="Skauen" />
		<tag k="place" v="locality" />
		<tag k="ssr:stedsnr" v="697274" />
	</node>
	<node id="-481517" lat="58.4335027805" lon="8.67721111503">
		<tag k="name" v="Kringlemyr" />
		<tag k="place" v="farm" />
		<tag k="ssr:stedsnr" v="151783" />
	</node>
	<node id="-481515" lat="58.5625611127" lon="8.9944666586">
		<tag k="name" v="Gamle Skjeggestø" />
		<tag k="place" v="farm" />
		<tag k="ssr:stedsnr" v="151774" />
	</node>
	<node id="-481507" lat="58.5010111146" lon="8.87185277621">
		<tag k="amenity" v="school" />
		<tag k="name" v="Eydehavn skole" />
		<tag k="ssr:stedsnr" v="151473" />
	</node>
	<node id="-479458" lat="58.4603166636" lon="8.77183610432">
		<tag k="name" v="Nesheia" />
		<tag k="place" v="quarter" />
		<tag k="ssr:stedsnr" v="29622" />
	</node>
	<node id="-481504" lat="58.5479444411" lon="8.75851388966">
		<tag k="name" v="Øvre Fjærbu" />
		<tag k="place" v="locality" />
		<tag k="ssr:stedsnr" v="151459" />
	</node>
	<node id="-482000" lat="58.5313055537" lon="8.81196110285">
		<tag k="alt_name" v="Ristøl" />
		<tag k="fixme" v="consider place=hamlet" />
		<tag k="name" v="Risstøl" />
		<tag k="place" v="farm" />
		<tag k="ssr:stedsnr" v="547726" />
	</node>
	<node id="-481501" lat="58.5260250014" lon="8.80695000074">
		<tag k="fixme" v="consider place=hamlet" />
		<tag k="name" v="Tveite vestre" />
		<tag k="place" v="farm" />
		<tag k="ssr:stedsnr" v="151417" />
	</node>
	<node id="-479450" lat="58.4312416634" lon="8.74571944403">
		<tag k="name" v="Solheim" />
		<tag k="place" v="farm" />
		<tag k="ssr:stedsnr" v="29216" />
	</node>
	<node id="-479448" lat="58.3989583364" lon="8.78892500776">
		<tag k="fixme" v="consider tourism=alpine_hut or tourism=chalet" />
		<tag k="name" v="Store Torungen" />
		<tag k="ssr:stedsnr" v="223843" />
		<tag k="tourism" v="wilderness_hut" />
	</node>
	<node id="-481495" lat="58.4801166702" lon="8.88555000475">
		<tag k="name" v="Dybdalsleet" />
		<tag k="place" v="farm" />
		<tag k="ssr:stedsnr" v="151352" />
	</node>
	<node id="-479445" lat="58.5146138918" lon="8.78630277202">
		<tag k="name" v="Tufta" />
		<tag k="place" v="farm" />
		<tag k="ssr:stedsnr" v="741" />
	</node>
	<node id="-479443" lat="58.5437138906" lon="8.75609444909">
		<tag k="name" v="Fjærbu" />
		<tag k="place" v="farm" />
		<tag k="ssr:stedsnr" v="663" />
	</node>
	<node id="-481655" lat="58.4075416683" lon="8.63622221695">
		<tag k="building" v="industrial" />
		<tag k="industrial" v="factory" />
		<tag k="name" v="Rygene tremassefabrikk" />
		<tag k="ssr:stedsnr" v="212961" />
	</node>
	<node id="-481477" lat="58.4711027751" lon="8.78303055332">
		<tag k="name" v="Brinken" />
		<tag k="place" v="quarter" />
		<tag k="ssr:stedsnr" v="151601" />
	</node>
	<node id="-481465" lat="58.5009250023" lon="8.90576111526">
		<tag k="name" v="Nygård" />
		<tag k="place" v="farm" />
		<tag k="ssr:stedsnr" v="151050" />
	</node>
	<node id="-479945" lat="58.5482777792" lon="8.84257499985">
		<tag k="name" v="Fløystad" />
		<tag k="place" v="farm" />
		<tag k="ssr:stedsnr" v="486693" />
	</node>
	<node id="-481459" lat="58.4258972263" lon="8.63223332804">
		<tag k="name" v="Bjørnsteinsmyr" />
		<tag k="place" v="farm" />
		<tag k="ssr:stedsnr" v="150952" />
	</node>
	<node id="-481450" lat="58.4388083326" lon="8.73888054796">
		<tag k="name" v="Kokkeplassen" />
		<tag k="place" v="farm" />
		<tag k="ssr:stedsnr" v="150784" />
	</node>
	<node id="-481449" lat="58.4417444413" lon="8.69150556332">
		<tag k="name" v="Kristensplass" />
		<tag k="place" v="farm" />
		<tag k="ssr:stedsnr" v="150783" />
	</node>
	<node id="-481448" lat="58.4452777743" lon="8.73736666811">
		<tag k="name" v="Biestø" />
		<tag k="place" v="quarter" />
		<tag k="ssr:stedsnr" v="150769" />
	</node>
	<node id="-481444" lat="58.481536109" lon="8.76727222094">
		<tag k="name" v="Rønningen" />
		<tag k="place" v="farm" />
		<tag k="ssr:stedsnr" v="150681" />
	</node>
	<node id="-479942" lat="58.565100004" lon="8.79895832938">
		<tag k="name" v="Moen" />
		<tag k="place" v="farm" />
		<tag k="ssr:stedsnr" v="486659" />
	</node>
	<node id="-481439" lat="58.4923638846" lon="8.71729722804">
		<tag k="name" v="Bråten" />
		<tag k="place" v="locality" />
		<tag k="ssr:stedsnr" v="150658" />
	</node>
	<node id="-479940" lat="58.5872777785" lon="8.82454721402">
		<tag k="name" v="Råbu" />
		<tag k="place" v="farm" />
		<tag k="ssr:stedsnr" v="486814" />
	</node>
	<node id="-482373" lat="58.5317777794" lon="8.92252500536">
		<tag k="name" v="Ryttersvik" />
		<tag k="place" v="farm" />
		<tag k="ssr:stedsnr" v="818186" />
	</node>
	<node id="-480281" lat="58.5212776614" lon="8.88110288252">
		<tag k="name" v="Nordheim" />
		<tag k="place" v="farm" />
		<tag k="ssr:stedsnr" v="697202" />
	</node>
	<node id="-481428" lat="58.5338583355" lon="8.86964721618">
		<tag k="name" v="Bjornes" />
		<tag k="place" v="farm" />
		<tag k="ssr:stedsnr" v="148339" />
	</node>
	<node id="-481424" lat="58.5013638884" lon="8.90149444566">
		<tag k="name" v="Skoddevig" />
		<tag k="place" v="farm" />
		<tag k="ssr:stedsnr" v="148288" />
	</node>
	<node id="-481419" lat="58.540138893" lon="8.75941943886">
		<tag k="name" v="Slottet" />
		<tag k="place" v="farm" />
		<tag k="ssr:stedsnr" v="122661" />
	</node>
	<node id="-481418" lat="58.5019749994" lon="8.73146667253">
		<tag k="name" v="Våland" />
		<tag k="place" v="farm" />
		<tag k="ssr:stedsnr" v="122498" />
	</node>
	<node id="-479761" lat="58.4959694486" lon="8.87594165987">
		<tag k="name" v="Staksnes" />
		<tag k="place" v="quarter" />
		<tag k="ssr:stedsnr" v="454471" />
	</node>
	<node id="-481416" lat="58.5071249989" lon="8.74081944138">
		<tag k="alt_name" v="Midstøl" />
		<tag k="fixme" v="consider place=hamlet" />
		<tag k="name" v="Midtstøl" />
		<tag k="place" v="farm" />
		<tag k="ssr:stedsnr" v="122486" />
	</node>
	<node id="-481413" lat="58.5627027755" lon="8.9826694399">
		<tag k="fixme" v="consider place=hamlet" />
		<tag k="name" v="Staubø" />
		<tag k="place" v="farm" />
		<tag k="ssr:stedsnr" v="122265" />
	</node>
	<node id="-481412" lat="58.5266000022" lon="8.88854444497">
		<tag k="name" v="Strengereid" />
		<tag k="place" v="hamlet" />
		<tag k="ssr:stedsnr" v="122248" />
	</node>
	<node id="-481411" lat="58.5470333358" lon="8.90474165814">
		<tag k="alt_name" v="Oksekjærret" />
		<tag k="name" v="Oksekjerr" />
		<tag k="place" v="farm" />
		<tag k="ssr:stedsnr" v="122235" />
	</node>
	<node id="-481408" lat="58.5111750023" lon="8.86818054821">
		<tag k="alt_name" v="Ulsryggen" />
		<tag k="name" v="Ulfsryggen" />
		<tag k="place" v="farm" />
		<tag k="ssr:stedsnr" v="122179" />
	</node>
	<node id="-481407" lat="58.4809666675" lon="8.86541666565">
		<tag k="fixme" v="consider place=hamlet" />
		<tag k="name" v="Sandnes" />
		<tag k="place" v="farm" />
		<tag k="ssr:stedsnr" v="121910" />
	</node>
	<node id="-481406" lat="58.4945666633" lon="8.88108055702">
		<tag k="alt_name" v="Omdalsøyra;Omdalsøyren" />
		<tag k="fixme" v="consider place=hamlet" />
		<tag k="name" v="Åmdalsøyra" />
		<tag k="place" v="village" />
		<tag k="ssr:stedsnr" v="121908" />
	</node>
	<node id="-481401" lat="58.4758916681" lon="8.66122500514">
		<tag k="name" v="Seljåsen" />
		<tag k="place" v="farm" />
		<tag k="ssr:stedsnr" v="121666" />
	</node>
	<node id="-481400" lat="58.524361109" lon="8.94839999805">
		<tag k="name" v="Sandvika" />
		<tag k="place" v="farm" />
		<tag k="ssr:stedsnr" v="121245" />
	</node>
	<node id="-481399" lat="58.5154833351" lon="8.84362778024">
		<tag k="name" v="Nasland" />
		<tag k="place" v="farm" />
		<tag k="ssr:stedsnr" v="121239" />
	</node>
	<node id="-481398" lat="58.5181333365" lon="8.88686111173">
		<tag k="fixme" v="consider place=hamlet" />
		<tag k="name" v="Garta" />
		<tag k="place" v="farm" />
		<tag k="ssr:stedsnr" v="121201" />
	</node>
	<node id="-479934" lat="58.4672583302" lon="8.86408055393">
		<tag k="alt_name" v="Nordal" />
		<tag k="name" v="Norddal" />
		<tag k="place" v="farm" />
		<tag k="ssr:stedsnr" v="485942" />
	</node>
	<node id="-481394" lat="58.418044448" lon="8.63579999262">
		<tag k="name" v="Spikkelia" />
		<tag k="place" v="farm" />
		<tag k="ssr:stedsnr" v="121594" />
	</node>
	<node id="-479592" lat="58.4423961519" lon="8.76477744743">
		<tag k="name" v="Lunden" />
		<tag k="place" v="farm" />
		<tag k="ssr:stedsnr" v="150212" />
	</node>
	<node id="-481382" lat="58.4711722184" lon="8.62488889231">
		<tag k="name" v="Dalsjordet" />
		<tag k="place" v="farm" />
		<tag k="ssr:stedsnr" v="90982" />
	</node>
	<node id="-481381" lat="58.4788388904" lon="8.68018611654">
		<tag k="name" v="Rosenholt" />
		<tag k="place" v="farm" />
		<tag k="ssr:stedsnr" v="90979" />
	</node>
	<node id="-481380" lat="58.4692694485" lon="8.66647221836">
		<tag k="name" v="Ristangen" />
		<tag k="place" v="farm" />
		<tag k="ssr:stedsnr" v="90970" />
	</node>
	<node id="-481378" lat="58.4211000011" lon="8.64753610914">
		<tag k="name" v="Lillemoen" />
		<tag k="place" v="farm" />
		<tag k="ssr:stedsnr" v="90960" />
	</node>
	<node id="-479930" lat="58.4862055526" lon="8.86344444236">
		<tag k="fixme" v="consider place=hamlet" />
		<tag k="name" v="Kongshavn" />
		<tag k="place" v="village" />
		<tag k="ssr:stedsnr" v="485920" />
	</node>
	<node id="-481367" lat="58.4408000008" lon="8.58441945004">
		<tag k="building" v="industrial" />
		<tag k="industrial" v="factory" />
		<tag k="name" v="Joda" />
		<tag k="ssr:stedsnr" v="90818" />
	</node>
	<node id="-481363" lat="58.4381138872" lon="8.70553611027">
		<tag k="amenity" v="nursing_home" />
		<tag k="name" v="Ås" />
		<tag k="ssr:stedsnr" v="90792" />
	</node>
	<node id="-481362" lat="58.459280558" lon="8.61439722123">
		<tag k="name" v="Risehagen" />
		<tag k="place" v="farm" />
		<tag k="ssr:stedsnr" v="90791" />
	</node>
	<node id="-481361" lat="58.4433888881" lon="8.60361945036">
		<tag k="building" v="industrial" />
		<tag k="name" v="Skogli" />
		<tag k="ssr:stedsnr" v="90777" />
	</node>
	<node id="-481358" lat="58.447811111" lon="8.67961110831">
		<tag k="name" v="Gramsplass" />
		<tag k="place" v="locality" />
		<tag k="ssr:stedsnr" v="90759" />
	</node>
	<node id="-480509" lat="58.543088887" lon="8.93341389494">
		<tag k="name" v="Sannes" />
		<tag k="place" v="farm" />
		<tag k="ssr:stedsnr" v="879035" />
	</node>
	<node id="-481351" lat="58.4647055515" lon="8.77585277135">
		<tag k="name" v="Hauene" />
		<tag k="place" v="quarter" />
		<tag k="ssr:stedsnr" v="90600" />
	</node>
	<node id="-481349" lat="58.4725694467" lon="8.77564443979">
		<tag k="name" v="Nyli" />
		<tag k="place" v="quarter" />
		<tag k="ssr:stedsnr" v="90596" />
	</node>
	<node id="-481347" lat="58.4619861096" lon="8.71961943923">
		<tag k="name" v="Åsbie" />
		<tag k="place" v="farm" />
		<tag k="ssr:stedsnr" v="90565" />
	</node>
	<node id="-481346" lat="58.4704611097" lon="8.76486388371">
		<tag k="name" v="Grasåsen" />
		<tag k="place" v="quarter" />
		<tag k="ssr:stedsnr" v="90562" />
	</node>
	<node id="-481341" lat="58.4393805513" lon="8.62351110661">
		<tag k="name" v="Heimtun" />
		<tag k="place" v="farm" />
		<tag k="ssr:stedsnr" v="90497" />
	</node>
	<node id="-479583" lat="58.4628027772" lon="8.69566666851">
		<tag k="name" v="Slåttene" />
		<tag k="place" v="farm" />
		<tag k="ssr:stedsnr" v="272999" />
	</node>
	<node id="-481395" lat="58.4404583304" lon="8.80210833043">
		<tag k="name" v="Selås" />
		<tag k="place" v="farm" />
		<tag k="ssr:stedsnr" v="121624" />
	</node>
	<node id="-479924" lat="58.490338889" lon="8.72746945175">
		<tag k="name" v="Spirene" />
		<tag k="place" v="farm" />
		<tag k="ssr:stedsnr" v="485635" />
	</node>
	<node id="-479923" lat="58.5135916703" lon="8.76119444717">
		<tag k="fixme" v="consider place=hamlet" />
		<tag k="name" v="Skjævestad" />
		<tag k="place" v="farm" />
		<tag k="ssr:stedsnr" v="485682" />
	</node>
	<node id="-482213" lat="58.4709138887" lon="8.64915833221">
		<tag k="name" v="Fjellmannsplass" />
		<tag k="place" v="farm" />
		<tag k="ssr:stedsnr" v="636932" />
	</node>
	<node id="-479922" lat="58.4628527799" lon="8.66503611319">
		<tag k="name" v="Graskjerr" />
		<tag k="place" v="farm" />
		<tag k="ssr:stedsnr" v="485600" />
	</node>
	<node id="-481312" lat="58.4906250008" lon="8.83707777483">
		<tag k="name" v="Klinkelia" />
		<tag k="place" v="quarter" />
		<tag k="ssr:stedsnr" v="90354" />
	</node>
	<node id="-479920" lat="58.4258083296" lon="8.69727222659">
		<tag k="name" v="Rannekleiv" />
		<tag k="place" v="quarter" />
		<tag k="ssr:stedsnr" v="485537" />
	</node>
	<node id="-481290" lat="58.418236107" lon="8.73872778324">
		<tag k="name" v="Slettebakken" />
		<tag k="place" v="isolated_dwelling" />
		<tag k="ssr:stedsnr" v="90185" />
	</node>
	<node id="-479916" lat="58.4463944478" lon="8.58158889004">
		<tag k="name" v="Øygarden" />
		<tag k="place" v="farm" />
		<tag k="ssr:stedsnr" v="333823" />
	</node>
	<node id="-481285" lat="58.5239370661" lon="8.94256276744">
		<tag k="name" v="Paravollen" />
		<tag k="place" v="farm" />
		<tag k="ssr:stedsnr" v="90158" />
	</node>
	<node id="-481281" lat="58.5281067513" lon="8.8876972711">
		<tag k="name" v="Solkleiv" />
		<tag k="place" v="farm" />
		<tag k="ssr:stedsnr" v="90133" />
	</node>
</osm>
