<?xml version="1.0" encoding="UTF-8"?>
<osm version="0.6" generator="osmapis">
	<node lat="58.50466388627871" lon="8.808791659324061" id="-25238">
		<tag k="name" v="Bjormyr" />
		<tag k="natural" v="wetland" />
		<tag k="ssr:stedsnr" v="503" />
	</node>
	<node lat="58.43642222561307" lon="8.765900001317753" id="-25262">
		<tag k="name" v="Sandvighaven" />
		<tag k="place" v="locality" />
		<tag k="ssr:stedsnr" v="29219" />
	</node>
	<node lat="58.4414027762511" lon="8.680180551320117" id="-25280">
		<tag k="name" v="Vædingskjerr" />
		<tag k="natural" v="wetland" />
		<tag k="ssr:stedsnr" v="29803" />
	</node>
	<node lat="58.48081110967273" lon="8.534383341632543" id="-25283">
		<tag k="name" v="Tverrmyra" />
		<tag k="natural" v="wetland" />
		<tag k="ssr:stedsnr" v="29868" />
	</node>
	<node lat="58.44460555585603" lon="8.642588887371328" id="-25285">
		<tag k="name" v="Bjørnemyra" />
		<tag k="natural" v="wetland" />
		<tag k="ssr:stedsnr" v="29965" />
	</node>
	<node lat="58.5203527735933" lon="8.858105562562386" id="-25292">
		<tag k="name" v="Monemyr" />
		<tag k="natural" v="wetland" />
		<tag k="ssr:stedsnr" v="30087" />
	</node>
	<node lat="58.5106138931618" lon="8.712505563820855" id="-25296">
		<tag k="name" v="Bjorstemmen" />
		<tag k="natural" v="wetland" />
		<tag k="ssr:stedsnr" v="30513" />
	</node>
	<node lat="58.57089721939917" lon="8.781052785796495" id="-25298">
		<tag k="name" v="Moltemyr" />
		<tag k="natural" v="wetland" />
		<tag k="ssr:stedsnr" v="30467" />
	</node>
	<node lat="58.54054166523689" lon="8.792272229017074" id="-25351">
		<tag k="name" v="Torvmyra" />
		<tag k="natural" v="wetland" />
		<tag k="ssr:stedsnr" v="90422" />
	</node>
	<node lat="58.54449166287249" lon="8.801258329103891" id="-25352">
		<tag k="name" v="Sturingen" />
		<tag k="place" v="locality" />
		<tag k="ssr:stedsnr" v="90424" />
	</node>
	<node lat="58.54350277720122" lon="8.74916388645368" id="-25353">
		<tag k="name" v="Tjuvkjerr" />
		<tag k="natural" v="wetland" />
		<tag k="ssr:stedsnr" v="90436" />
	</node>
	<node lat="58.525611111594515" lon="8.814847220889312" id="-25367">
		<tag k="name" v="Linhage" />
		<tag k="place" v="locality" />
		<tag k="ssr:stedsnr" v="90391" />
	</node>
	<node lat="58.44271944623022" lon="8.575611112827767" id="-25432">
		<tag k="name" v="Blekkekjerrene" />
		<tag k="natural" v="wetland" />
		<tag k="ssr:stedsnr" v="150810" />
	</node>
	<node lat="58.413483331366734" lon="8.6579555491737" id="-25435">
		<tag k="name" v="Degnekjerr" />
		<tag k="place" v="locality" />
		<tag k="ssr:stedsnr" v="150852" />
	</node>
	<node lat="58.55751944702697" lon="8.842313896192017" id="-25437">
		<tag k="name" v="Nordmyr" />
		<tag k="natural" v="wetland" />
		<tag k="ssr:stedsnr" v="151013" />
	</node>
	<node lat="58.458686106766166" lon="8.880233329813684" id="-25445">
		<tag k="name" v="Østrejordet" />
		<tag k="place" v="locality" />
		<tag k="ssr:stedsnr" v="151311" />
	</node>
	<node lat="58.56072222556639" lon="8.985961106098019" id="-25452">
		<tag k="name" v="Tjønnmyrene" />
		<tag k="natural" v="wetland" />
		<tag k="ssr:stedsnr" v="151217" />
	</node>
	<node lat="58.59603888521197" lon="8.815036105310355" id="-25455">
		<tag k="name" v="Slåttemyrene" />
		<tag k="natural" v="wetland" />
		<tag k="ssr:stedsnr" v="151404" />
	</node>
	<node lat="58.47155277917415" lon="8.75031945257944" id="-25458">
		<tag k="name" v="Rånaskogen" />
		<tag k="place" v="locality" />
		<tag k="ssr:stedsnr" v="151565" />
	</node>
	<node lat="58.55010555774261" lon="8.753597213800726" id="-25459">
		<tag k="name" v="Røykjerr" />
		<tag k="natural" v="wetland" />
		<tag k="ssr:stedsnr" v="151458" />
	</node>
	<node lat="58.555958334535426" lon="8.855749999807543" id="-25508">
		<tag k="name" v="Lille Lyngmyr" />
		<tag k="natural" v="wetland" />
		<tag k="ssr:stedsnr" v="212004" />
	</node>
	<node lat="58.530513886466075" lon="8.882466658464082" id="-25514">
		<tag k="historic" v="shieling" />
		<tag k="name" v="Sommerfjøsene" />
		<tag k="place" v="locality" />
		<tag k="ssr:stedsnr" v="212176" />
	</node>
	<node lat="58.530583333454544" lon="8.844799994822228" id="-25520">
		<tag k="name" v="Moltemyra" />
		<tag k="natural" v="wetland" />
		<tag k="ssr:stedsnr" v="212075" />
	</node>
	<node lat="58.446777781041185" lon="8.855700004686705" id="-25525">
		<tag k="name" v="Myra" />
		<tag k="place" v="locality" />
		<tag k="ssr:stedsnr" v="212278" />
	</node>
	<node lat="58.54318610996886" lon="8.776519437997004" id="-25528">
		<tag k="name" v="Blautemyr" />
		<tag k="natural" v="wetland" />
		<tag k="ssr:stedsnr" v="212409" />
	</node>
	<node lat="58.48709166792873" lon="8.797966664631002" id="-25543">
		<tag k="name" v="Blåbærkjær" />
		<tag k="natural" v="wetland" />
		<tag k="ssr:stedsnr" v="212686" />
	</node>
	<node lat="58.491163886727506" lon="8.78103055992586" id="-25560">
		<tag k="name" v="Dyblemyr" />
		<tag k="natural" v="wetland" />
		<tag k="ssr:stedsnr" v="272666" />
	</node>
	<node lat="58.552522220189424" lon="8.9190027801085" id="-25588">
		<tag k="name" v="Moltemyr" />
		<tag k="natural" v="wetland" />
		<tag k="ssr:stedsnr" v="454098" />
	</node>
	<node lat="58.54596944695007" lon="8.92601111796838" id="-25590">
		<tag k="name" v="Gullbergmyra" />
		<tag k="natural" v="wetland" />
		<tag k="ssr:stedsnr" v="454109" />
	</node>
	<node lat="58.4585361075759" lon="8.566400003089036" id="-25597">
		<tag k="name" v="Strandebakkmyra" />
		<tag k="natural" v="wetland" />
		<tag k="ssr:stedsnr" v="454888" />
	</node>
	<node lat="58.462911109204725" lon="8.846316672672929" id="-25604">
		<tag k="name" v="Klomrekjerr" />
		<tag k="natural" v="wetland" />
		<tag k="ssr:stedsnr" v="454314" />
	</node>
	<node lat="58.553683335007115" lon="8.764547220540697" id="-25607">
		<tag k="name" v="Svintokskjerret" />
		<tag k="natural" v="wetland" />
		<tag k="ssr:stedsnr" v="454339" />
	</node>
	<node lat="58.52963333216588" lon="8.822133331804457" id="-25609">
		<tag k="name" v="Lillemyr" />
		<tag k="place" v="locality" />
		<tag k="ssr:stedsnr" v="454418" />
	</node>
	<node lat="58.4612083352125" lon="8.889266660724136" id="-25626">
		<tag k="name" v="Botneskogen" />
		<tag k="place" v="locality" />
		<tag k="ssr:stedsnr" v="454303" />
	</node>
	<node lat="58.523744441849786" lon="8.744466665579926" id="-25651">
		<tag k="name" v="Tømmerkjerr" />
		<tag k="natural" v="wetland" />
		<tag k="ssr:stedsnr" v="454742" />
	</node>
	<node lat="58.52840832953254" lon="8.748377769451123" id="-25653">
		<tag k="name" v="Kalstadmyra" />
		<tag k="natural" v="wetland" />
		<tag k="ssr:stedsnr" v="454745" />
	</node>
	<node lat="58.52673610807651" lon="8.753597214418008" id="-25654">
		<tag k="name" v="Vinterkjærr" />
		<tag k="natural" v="wetland" />
		<tag k="ssr:stedsnr" v="454746" />
	</node>
	<node lat="58.53293333183453" lon="8.749197214910446" id="-25655">
		<tag k="name" v="Blåfjellmyra" />
		<tag k="place" v="locality" />
		<tag k="ssr:stedsnr" v="454749" />
	</node>
	<node lat="58.52619166421793" lon="8.759230557945832" id="-25657">
		<tag k="name" v="Elgemyr" />
		<tag k="natural" v="wetland" />
		<tag k="ssr:stedsnr" v="454752" />
	</node>
	<node lat="58.451705555463036" lon="8.556686118248114" id="-25663">
		<tag k="name" v="Kløftemyr" />
		<tag k="natural" v="wetland" />
		<tag k="ssr:stedsnr" v="454842" />
	</node>
	<node lat="58.444844445575264" lon="8.59490555703774" id="-25664">
		<tag k="name" v="Småmyrene" />
		<tag k="natural" v="wetland" />
		<tag k="ssr:stedsnr" v="454858" />
	</node>
	<node lat="58.55683055416331" lon="8.847575003785026" id="-25672">
		<tag k="name" v="Bjellemyr" />
		<tag k="natural" v="wetland" />
		<tag k="ssr:stedsnr" v="272003" />
	</node>
	<node lat="58.54013333773453" lon="8.904036111597458" id="-25680">
		<tag k="name" v="Vivesølmyra" />
		<tag k="natural" v="wetland" />
		<tag k="ssr:stedsnr" v="272109" />
	</node>
	<node lat="58.53293610856865" lon="8.85544722999801" id="-25682">
		<tag k="name" v="Røyersmyr" />
		<tag k="natural" v="wetland" />
		<tag k="ssr:stedsnr" v="272119" />
	</node>
	<node lat="58.46413055713468" lon="8.885566658216934" id="-25700">
		<tag k="name" v="Gamlekjerr" />
		<tag k="natural" v="wetland" />
		<tag k="ssr:stedsnr" v="272288" />
	</node>
	<node lat="58.50933333408849" lon="8.783613890439408" id="-25705">
		<tag k="name" v="Torvmyra" />
		<tag k="natural" v="wetland" />
		<tag k="ssr:stedsnr" v="272311" />
	</node>
	<node lat="58.506080557143775" lon="8.795613895486735" id="-25706">
		<tag k="name" v="Snømyr" />
		<tag k="natural" v="wetland" />
		<tag k="ssr:stedsnr" v="272323" />
	</node>
	<node lat="58.58729167081473" lon="8.75883888645898" id="-25708">
		<tag k="name" v="Høymyr" />
		<tag k="natural" v="wetland" />
		<tag k="ssr:stedsnr" v="272379" />
	</node>
	<node lat="58.588833330101245" lon="8.762311108023145" id="-25710">
		<tag k="name" v="Jerpekjerr" />
		<tag k="natural" v="wetland" />
		<tag k="ssr:stedsnr" v="272392" />
	</node>
	<node lat="58.44130555863613" lon="8.676086113391323" id="-25726">
		<tag k="name" v="Heiremyra" />
		<tag k="natural" v="wetland" />
		<tag k="ssr:stedsnr" v="272786" />
	</node>
	<node lat="58.55641927666042" lon="8.76572324480589" id="-25733">
		<tag k="name" v="Diple" />
		<tag k="natural" v="wetland" />
		<tag k="ssr:stedsnr" v="272994" />
	</node>
	<node lat="58.54071388548798" lon="8.89612221557357" id="-25774">
		<tag k="name" v="Kolbotnjordene" />
		<tag k="place" v="locality" />
		<tag k="ssr:stedsnr" v="333117" />
	</node>
	<node lat="58.56863333626643" lon="8.844944435917903" id="-25775">
		<tag k="name" v="Røyermyr" />
		<tag k="natural" v="wetland" />
		<tag k="ssr:stedsnr" v="333147" />
	</node>
	<node lat="58.48315833013577" lon="8.87078056316518" id="-25789">
		<tag k="alt_name" v="Anntjennmyra;Annkjennmyra" />
		<tag k="name" v="Anntjennsmyra" />
		<tag k="place" v="locality" />
		<tag k="ssr:stedsnr" v="333298" />
	</node>
	<node lat="58.547755555587116" lon="8.788333335071737" id="-25793">
		<tag k="name" v="Myrastokk" />
		<tag k="natural" v="wetland" />
		<tag k="ssr:stedsnr" v="333448" />
	</node>
	<node lat="58.5106083364872" lon="8.71560000027451" id="-25806">
		<tag k="name" v="Bjorstemmen" />
		<tag k="natural" v="wetland" />
		<tag k="ssr:stedsnr" v="333653" />
	</node>
	<node lat="58.48020833423821" lon="8.87901944585814" id="-25808">
		<tag k="name" v="Kjempevollen" />
		<tag k="place" v="locality" />
		<tag k="ssr:stedsnr" v="333809" />
	</node>
	<node lat="58.45526944883174" lon="8.538474993731946" id="-25811">
		<tag k="name" v="Skarkekjerra" />
		<tag k="natural" v="wetland" />
		<tag k="ssr:stedsnr" v="333849" />
	</node>
	<node lat="58.44937221890701" lon="8.540355563505942" id="-25813">
		<tag k="name" v="Storemyr" />
		<tag k="natural" v="wetland" />
		<tag k="ssr:stedsnr" v="333859" />
	</node>
	<node lat="58.52608888887367" lon="8.851622218378736" id="-25840">
		<tag k="name" v="Dypmyr" />
		<tag k="natural" v="wetland" />
		<tag k="ssr:stedsnr" v="393138" />
	</node>
	<node lat="58.50629166392601" lon="8.8356611173533" id="-25843">
		<tag k="name" v="Tjønnimellom" />
		<tag k="natural" v="wetland" />
		<tag k="ssr:stedsnr" v="393038" />
	</node>
	<node lat="58.558472222768756" lon="8.756197229541362" id="-25850">
		<tag k="name" v="Bjørnholtmyra" />
		<tag k="natural" v="wetland" />
		<tag k="ssr:stedsnr" v="393332" />
	</node>
	<node lat="58.44131944266422" lon="8.604861105631977" id="-25853">
		<tag k="name" v="Furremyra" />
		<tag k="place" v="locality" />
		<tag k="ssr:stedsnr" v="393511" />
	</node>
	<node lat="58.54874999811308" lon="8.748291666251328" id="-25860">
		<tag k="name" v="Store Heimyr" />
		<tag k="natural" v="wetland" />
		<tag k="ssr:stedsnr" v="393438" />
	</node>
	<node lat="58.578275000572305" lon="8.81797777471896" id="-25861">
		<tag k="name" v="Knutsøygard" />
		<tag k="place" v="locality" />
		<tag k="ssr:stedsnr" v="393483" />
	</node>
	<node lat="58.52218333662989" lon="8.753288888636613" id="-25865">
		<tag k="name" v="Storemyr" />
		<tag k="natural" v="wetland" />
		<tag k="ssr:stedsnr" v="393708" />
	</node>
	<node lat="58.52971111091219" lon="8.74307499225209" id="-25866">
		<tag k="name" v="Eiesteinen" />
		<tag k="natural" v="stone" />
		<tag k="ssr:stedsnr" v="393709" />
	</node>
	<node lat="58.57868888473095" lon="8.961077780710031" id="-25869">
		<tag k="name" v="Husmyrene" />
		<tag k="place" v="locality" />
		<tag k="ssr:stedsnr" v="393740" />
	</node>
	<node lat="58.53217222578434" lon="8.846916672272908" id="-25899">
		<tag k="name" v="Kvartsbergmyra" />
		<tag k="natural" v="wetland" />
		<tag k="ssr:stedsnr" v="272080" />
	</node>
	<node lat="58.54416944440049" lon="8.783472219795248" id="-25942">
		<tag k="name" v="Langemyr" />
		<tag k="natural" v="wetland" />
		<tag k="ssr:stedsnr" v="272419" />
	</node>
	<node lat="58.55747222255738" lon="8.854066669536655" id="-25949">
		<tag k="name" v="Store Lyngmyr" />
		<tag k="natural" v="wetland" />
		<tag k="ssr:stedsnr" v="454016" />
	</node>
	<node lat="58.53048055468787" lon="8.888819448789564" id="-25957">
		<tag k="name" v="Småhagene" />
		<tag k="place" v="locality" />
		<tag k="ssr:stedsnr" v="454164" />
	</node>
	<node lat="58.52563888991373" lon="8.882269453010887" id="-25959">
		<tag k="name" v="Furuvollen" />
		<tag k="place" v="locality" />
		<tag k="ssr:stedsnr" v="454170" />
	</node>
	<node lat="58.478486108694014" lon="8.892144438480717" id="-25971">
		<tag k="name" v="Gurienga" />
		<tag k="place" v="locality" />
		<tag k="ssr:stedsnr" v="454382" />
	</node>
	<node lat="58.583605557080716" lon="8.822508330182158" id="-25976">
		<tag k="name" v="Kroksmyr" />
		<tag k="natural" v="wetland" />
		<tag k="ssr:stedsnr" v="454512" />
	</node>
	<node lat="58.502263891609466" lon="8.721694439213163" id="-25981">
		<tag k="name" v="Langemyr" />
		<tag k="natural" v="wetland" />
		<tag k="ssr:stedsnr" v="454677" />
	</node>
	<node lat="58.491958333018665" lon="8.896652783849735" id="-26005">
		<tag k="name" v="Kjennemyra" />
		<tag k="natural" v="wetland" />
		<tag k="ssr:stedsnr" v="272330" />
	</node>
	<node lat="58.48177777957112" lon="8.824758325456216" id="-26032">
		<tag k="name" v="Trollnesmyra" />
		<tag k="natural" v="wetland" />
		<tag k="ssr:stedsnr" v="272366" />
	</node>
	<node lat="58.56560833337786" lon="8.984238888467715" id="-26048">
		<tag k="name" v="Stemkjerr" />
		<tag k="natural" v="wetland" />
		<tag k="ssr:stedsnr" v="515216" />
	</node>
	<node lat="58.58151666885852" lon="8.978491666358218" id="-26051">
		<tag k="name" v="Kvernhushaven" />
		<tag k="place" v="locality" />
		<tag k="ssr:stedsnr" v="515227" />
	</node>
	<node lat="58.54070833579984" lon="8.968755559142112" id="-26053">
		<tag k="name" v="Kalvesundmyrene" />
		<tag k="natural" v="wetland" />
		<tag k="ssr:stedsnr" v="515244" />
	</node>
	<node lat="58.56476111000586" lon="8.836616670360359" id="-26057">
		<tag k="name" v="Storestø" />
		<tag k="place" v="locality" />
		<tag k="ssr:stedsnr" v="515169" />
	</node>
	<node lat="58.45839444839129" lon="8.884288895492162" id="-26062">
		<tag k="name" v="Langemyr" />
		<tag k="place" v="locality" />
		<tag k="ssr:stedsnr" v="515307" />
	</node>
	<node lat="58.491313886924836" lon="8.833533339930032" id="-26068">
		<tag k="name" v="Saltrødmyra" />
		<tag k="natural" v="wetland" />
		<tag k="ssr:stedsnr" v="515381" />
	</node>
	<node lat="58.53284166272494" lon="8.800175008451337" id="-26071">
		<tag k="name" v="Holtebekkmyra" />
		<tag k="natural" v="wetland" />
		<tag k="ssr:stedsnr" v="515415" />
	</node>
	<node lat="58.44697500259171" lon="8.55982222748967" id="-26099">
		<tag k="name" v="Fladen" />
		<tag k="natural" v="wetland" />
		<tag k="ssr:stedsnr" v="515905" />
	</node>
	<node lat="58.552297223683574" lon="8.843872214323117" id="-26131">
		<tag k="name" v="Ospelunden" />
		<tag k="place" v="locality" />
		<tag k="ssr:stedsnr" v="575005" />
	</node>
	<node lat="58.52467500449547" lon="8.92424999594234" id="-26133">
		<tag k="name" v="Kortebergmyrene" />
		<tag k="natural" v="wetland" />
		<tag k="ssr:stedsnr" v="575066" />
	</node>
	<node lat="58.53589444293349" lon="8.957983336309013" id="-26141">
		<tag k="name" v="Kringlemyr" />
		<tag k="natural" v="wetland" />
		<tag k="ssr:stedsnr" v="575218" />
	</node>
	<node lat="58.55763055560891" lon="8.79440554728551" id="-26150">
		<tag k="name" v="Langemyr" />
		<tag k="natural" v="wetland" />
		<tag k="ssr:stedsnr" v="575416" />
	</node>
	<node lat="58.565613891987454" lon="8.778511104593385" id="-26151">
		<tag k="name" v="Snørismyr" />
		<tag k="natural" v="wetland" />
		<tag k="ssr:stedsnr" v="575449" />
	</node>
	<node lat="58.57204444844074" lon="8.951738893069459" id="-26165">
		<tag k="name" v="Løvmyra" />
		<tag k="natural" v="wetland" />
		<tag k="ssr:stedsnr" v="575751" />
	</node>
	<node lat="58.44914999921713" lon="8.681197225604178" id="-26166">
		<tag k="name" v="Hovemyra" />
		<tag k="natural" v="wetland" />
		<tag k="ssr:stedsnr" v="575752" />
	</node>
	<node lat="58.4143000022038" lon="8.557119447637668" id="-26181">
		<tag k="name" v="Fiskeura" />
		<tag k="natural" v="scree" />
		<tag k="ssr:stedsnr" v="575853" />
	</node>
	<node lat="58.456175000043515" lon="8.597430550656535" id="-26182">
		<tag k="name" v="Bjelkemyr" />
		<tag k="natural" v="wetland" />
		<tag k="ssr:stedsnr" v="575860" />
	</node>
	<node lat="58.46305833391039" lon="8.525772226885605" id="-26185">
		<tag k="name" v="Halvmannstykket" />
		<tag k="place" v="locality" />
		<tag k="ssr:stedsnr" v="575896" />
	</node>
	<node lat="58.55166666596416" lon="8.847091664018153" id="-26193">
		<tag k="name" v="Folehagen" />
		<tag k="place" v="locality" />
		<tag k="ssr:stedsnr" v="697012" />
	</node>
	<node lat="58.517252777974285" lon="8.858155549953663" id="-26200">
		<tag k="name" v="Diplemyr" />
		<tag k="natural" v="wetland" />
		<tag k="ssr:stedsnr" v="697144" />
	</node>
	<node lat="58.47053333534443" lon="8.848499991591117" id="-26220">
		<tag k="name" v="Marteskjerr" />
		<tag k="place" v="locality" />
		<tag k="ssr:stedsnr" v="697328" />
	</node>
	<node lat="58.54947221890008" lon="8.766063897347983" id="-26221">
		<tag k="name" v="Lille Fjærbumyr" />
		<tag k="natural" v="wetland" />
		<tag k="ssr:stedsnr" v="697341" />
	</node>
	<node lat="58.59032777997033" lon="8.797927785453796" id="-26226">
		<tag k="name" v="Bjørnekjerr" />
		<tag k="natural" v="wetland" />
		<tag k="ssr:stedsnr" v="697493" />
	</node>
	<node lat="58.547086114187884" lon="8.753922228651495" id="-26230">
		<tag k="name" v="Lille Heimyr" />
		<tag k="natural" v="wetland" />
		<tag k="ssr:stedsnr" v="697439" />
	</node>
	<node lat="58.56395832965215" lon="8.785750003408838" id="-26235">
		<tag k="name" v="Kallestadmyra" />
		<tag k="natural" v="wetland" />
		<tag k="ssr:stedsnr" v="697459" />
	</node>
	<node lat="58.46298333238894" lon="8.529069443186575" id="-26261">
		<tag k="name" v="Steene" />
		<tag k="natural" v="wetland" />
		<tag k="ssr:stedsnr" v="697920" />
	</node>
	<node lat="58.52285555222703" lon="8.849158337044628" id="-26274">
		<tag k="name" v="Øygardsmyra" />
		<tag k="natural" v="wetland" />
		<tag k="ssr:stedsnr" v="607252" />
	</node>
	<node lat="58.55636944694098" lon="8.835352785807236" id="-26295">
		<tag k="name" v="Halvorskjerr" />
		<tag k="natural" v="wetland" />
		<tag k="ssr:stedsnr" v="636012" />
	</node>
	<node lat="58.52897222654243" lon="8.850925006268115" id="-26302">
		<tag k="name" v="Træfjellmyra" />
		<tag k="natural" v="wetland" />
		<tag k="ssr:stedsnr" v="636132" />
	</node>
	<node lat="58.572611111123976" lon="8.807077773511802" id="-26315">
		<tag k="name" v="Svåa" />
		<tag k="place" v="locality" />
		<tag k="ssr:stedsnr" v="636487" />
	</node>
	<node lat="58.50658055187729" lon="8.729688895495276" id="-26319">
		<tag k="name" v="Ålemyra" />
		<tag k="natural" v="wetland" />
		<tag k="ssr:stedsnr" v="636681" />
	</node>
	<node lat="58.40186388693922" lon="8.670352772906758" id="-26333">
		<tag k="name" v="Gamlestem" />
		<tag k="place" v="locality" />
		<tag k="ssr:stedsnr" v="636776" />
	</node>
	<node lat="58.44668610716619" lon="8.734302777144801" id="-26340">
		<tag k="name" v="Trygveskjerr" />
		<tag k="place" v="locality" />
		<tag k="ssr:stedsnr" v="636797" />
	</node>
	<node lat="58.521852780326945" lon="8.914066672291044" id="-26367">
		<tag k="name" v="Blåbærkjerr" />
		<tag k="natural" v="wetland" />
		<tag k="ssr:stedsnr" v="697215" />
	</node>
	<node lat="58.57465278099779" lon="8.7899916739646" id="-26377">
		<tag k="name" v="Masovnura" />
		<tag k="natural" v="scree" />
		<tag k="ssr:stedsnr" v="697467" />
	</node>
	<node lat="58.51958889080749" lon="8.76210834051182" id="-26386">
		<tag k="name" v="Engemyr" />
		<tag k="natural" v="wetland" />
		<tag k="ssr:stedsnr" v="697723" />
	</node>
	<node lat="58.42881111168501" lon="8.552758334965585" id="-26402">
		<tag k="name" v="Eikelimyra" />
		<tag k="natural" v="wetland" />
		<tag k="ssr:stedsnr" v="697876" />
	</node>
	<node lat="58.44991388769332" lon="8.587386111058397" id="-26403">
		<tag k="name" v="Solegladmyra" />
		<tag k="natural" v="wetland" />
		<tag k="ssr:stedsnr" v="697881" />
	</node>
	<node lat="58.435600004422454" lon="8.54004999752019" id="-26404">
		<tag k="name" v="Rundmyr" />
		<tag k="natural" v="wetland" />
		<tag k="ssr:stedsnr" v="697911" />
	</node>
	<node lat="58.456583330081884" lon="8.577986116968127" id="-26442">
		<tag k="name" v="Rundemyra" />
		<tag k="natural" v="wetland" />
		<tag k="ssr:stedsnr" v="757897" />
	</node>
	<node lat="58.55493055113168" lon="8.837494439069024" id="-26443">
		<tag k="name" v="Igletjønnmyra" />
		<tag k="natural" v="wetland" />
		<tag k="ssr:stedsnr" v="758010" />
	</node>
	<node lat="58.529972219200715" lon="8.786694449427443" id="-26456">
		<tag k="name" v="Puttjønnmyra" />
		<tag k="natural" v="wetland" />
		<tag k="ssr:stedsnr" v="758453" />
	</node>
	<node lat="58.57330278132439" lon="8.775250003674202" id="-26464">
		<tag k="name" v="Lusemyr" />
		<tag k="natural" v="wetland" />
		<tag k="ssr:stedsnr" v="758504" />
	</node>
	<node lat="58.5221111123513" lon="8.765186116865966" id="-26469">
		<tag k="name" v="Hessmyr" />
		<tag k="natural" v="wetland" />
		<tag k="ssr:stedsnr" v="758719" />
	</node>
	<node lat="58.45152777772742" lon="8.648549995631768" id="-26481">
		<tag k="name" v="Treskollsmyra" />
		<tag k="natural" v="wetland" />
		<tag k="ssr:stedsnr" v="758952" />
	</node>
	<node lat="58.553291665621934" lon="8.854705551303939" id="-26539">
		<tag k="name" v="Lisletjønnmyra" />
		<tag k="natural" v="wetland" />
		<tag k="ssr:stedsnr" v="818006" />
	</node>
	<node lat="58.55883889178052" lon="8.830588889043835" id="-26540">
		<tag k="name" v="Vågsmyra" />
		<tag k="natural" v="wetland" />
		<tag k="ssr:stedsnr" v="818014" />
	</node>
	<node lat="58.555752778891865" lon="8.956869441672074" id="-26546">
		<tag k="name" v="Skaumyra" />
		<tag k="natural" v="wetland" />
		<tag k="ssr:stedsnr" v="818233" />
	</node>
	<node lat="58.52892777386457" lon="8.863500006856125" id="-26547">
		<tag k="name" v="Moltemyra" />
		<tag k="natural" v="wetland" />
		<tag k="ssr:stedsnr" v="818106" />
	</node>
	<node lat="58.513341665765616" lon="8.799638883421688" id="-26559">
		<tag k="name" v="Brommyr" />
		<tag k="natural" v="wetland" />
		<tag k="ssr:stedsnr" v="819371" />
	</node>
	<node lat="58.56728888826533" lon="8.784874998275773" id="-26563">
		<tag k="name" v="Diplemyra" />
		<tag k="natural" v="wetland" />
		<tag k="ssr:stedsnr" v="819474" />
	</node>
	<node lat="58.57237500196717" lon="8.782127775730622" id="-26564">
		<tag k="name" v="Grasteinmyra" />
		<tag k="natural" v="wetland" />
		<tag k="ssr:stedsnr" v="819489" />
	</node>
	<node lat="58.55203055128826" lon="8.853119443390003" id="-26591">
		<tag k="name" v="Stemmyra" />
		<tag k="natural" v="wetland" />
		<tag k="ssr:stedsnr" v="879011" />
	</node>
	<node lat="58.563497220714495" lon="8.759283331091789" id="-26616">
		<tag k="name" v="Lonemyrene" />
		<tag k="natural" v="wetland" />
		<tag k="ssr:stedsnr" v="879466" />
	</node>
	<node lat="58.57230833349489" lon="8.766436102692168" id="-26617">
		<tag k="name" v="Langemyr" />
		<tag k="natural" v="wetland" />
		<tag k="ssr:stedsnr" v="879469" />
	</node>
	<node lat="58.45856388702131" lon="8.535747230508512" id="-26636">
		<tag k="name" v="Lauvåsmyrane" />
		<tag k="natural" v="wetland" />
		<tag k="ssr:stedsnr" v="879916" />
	</node>
	<node lat="58.499313887794735" lon="8.923547223605683" id="-26674">
		<tag k="name" v="Sandvigmyr" />
		<tag k="natural" v="wetland" />
		<tag k="ssr:stedsnr" v="940043" />
	</node>
	<node lat="58.53512499987813" lon="8.913166671334265" id="-26675">
		<tag k="name" v="Sagkjerr" />
		<tag k="natural" v="wetland" />
		<tag k="ssr:stedsnr" v="940084" />
	</node>
	<node lat="58.51521944489984" lon="8.854033330651102" id="-26721">
		<tag k="alt_name" v="Stormyr" />
		<tag k="name" v="Stormyra" />
		<tag k="natural" v="wetland" />
		<tag k="ssr:stedsnr" v="207" />
	</node>
	<node lat="58.53234166963722" lon="8.907947220055467" id="-26759">
		<tag k="name" v="Skauhagen" />
		<tag k="natural" v="wetland" />
		<tag k="ssr:stedsnr" v="30091" />
	</node>
	<node lat="58.43956666824328" lon="8.61068610269649" id="-26772">
		<tag k="name" v="Løddesølmyrene" />
		<tag k="place" v="locality" />
		<tag k="ssr:stedsnr" v="29530" />
	</node>
	<node lat="58.44313611165859" lon="8.797588891194534" id="-26775">
		<tag k="name" v="Nymyr" />
		<tag k="place" v="locality" />
		<tag k="ssr:stedsnr" v="29661" />
	</node>
	<node lat="58.45462778137222" lon="8.869172226173646" id="-26784">
		<tag k="name" v="Lisletta" />
		<tag k="place" v="locality" />
		<tag k="ssr:stedsnr" v="29748" />
	</node>
	<node lat="58.44515277761069" lon="8.584750005829882" id="-26786">
		<tag k="name" v="Paddemyr" />
		<tag k="natural" v="wetland" />
		<tag k="ssr:stedsnr" v="29831" />
	</node>
	<node lat="58.45505832965667" lon="8.572736111268846" id="-26788">
		<tag k="name" v="Storemyr" />
		<tag k="natural" v="wetland" />
		<tag k="ssr:stedsnr" v="29856" />
	</node>
	<node lat="58.46918611306835" lon="8.508633331112655" id="-26791">
		<tag k="name" v="Surtemyr" />
		<tag k="natural" v="wetland" />
		<tag k="ssr:stedsnr" v="29909" />
	</node>
	<node lat="58.488633334271896" lon="8.503166660823233" id="-26794">
		<tag k="name" v="Røyrmyra" />
		<tag k="natural" v="wetland" />
		<tag k="ssr:stedsnr" v="29922" />
	</node>
	<node lat="58.576886108513996" lon="8.778847221718072" id="-26797">
		<tag k="name" v="Ubergtjønnslåtta" />
		<tag k="natural" v="wetland" />
		<tag k="ssr:stedsnr" v="30462" />
	</node>
	<node lat="58.5733611128148" lon="8.841902781873818" id="-26804">
		<tag k="name" v="Smalsund" />
		<tag k="natural" v="wetland" />
		<tag k="ssr:stedsnr" v="30150" />
	</node>
	<node lat="58.567463885198855" lon="8.773844440691574" id="-26815">
		<tag k="name" v="Roksmyr" />
		<tag k="natural" v="wetland" />
		<tag k="ssr:stedsnr" v="30458" />
	</node>
	<node lat="58.49611111207232" lon="8.775544440389226" id="-26817">
		<tag k="name" v="Storemyr" />
		<tag k="place" v="locality" />
		<tag k="ssr:stedsnr" v="30334" />
	</node>
	<node lat="58.54936666811422" lon="8.762547219093303" id="-26818">
		<tag k="name" v="Byttingsmyr" />
		<tag k="natural" v="wetland" />
		<tag k="ssr:stedsnr" v="30339" />
	</node>
	<node lat="58.5847499966714" lon="8.81790000764994" id="-26826">
		<tag k="name" v="Veveråsmyr" />
		<tag k="natural" v="wetland" />
		<tag k="ssr:stedsnr" v="30495" />
	</node>
	<node lat="58.54713333126783" lon="8.966299995933072" id="-26865">
		<tag k="name" v="Sundmyrene" />
		<tag k="natural" v="wetland" />
		<tag k="ssr:stedsnr" v="90213" />
	</node>
	<node lat="58.50761666269805" lon="8.793808337683226" id="-26867">
		<tag k="name" v="Snømyr" />
		<tag k="natural" v="wetland" />
		<tag k="ssr:stedsnr" v="90301" />
	</node>
	<node lat="58.528591664058226" lon="8.880041670723234" id="-26876">
		<tag k="name" v="Tangkjerr" />
		<tag k="natural" v="wetland" />
		<tag k="ssr:stedsnr" v="90137" />
	</node>
	<node lat="58.53323611264574" lon="8.859208336366649" id="-26879">
		<tag k="name" v="Storhogget" />
		<tag k="place" v="locality" />
		<tag k="ssr:stedsnr" v="90100" />
	</node>
	<node lat="58.45210277803377" lon="8.736600000007755" id="-26885">
		<tag k="name" v="Engene" />
		<tag k="place" v="locality" />
		<tag k="ssr:stedsnr" v="90157" />
	</node>
	<node lat="58.5537111155016" lon="8.973663893219033" id="-26887">
		<tag k="name" v="Kilsundskauen" />
		<tag k="place" v="locality" />
		<tag k="ssr:stedsnr" v="90215" />
	</node>
	<node lat="58.571888887623516" lon="8.761330547999828" id="-26895">
		<tag k="name" v="Dølemyr" />
		<tag k="natural" v="wetland" />
		<tag k="ssr:stedsnr" v="90475" />
	</node>
	<node lat="58.58132777764917" lon="8.76632778577885" id="-26896">
		<tag k="name" v="Storemyrmyra" />
		<tag k="natural" v="wetland" />
		<tag k="ssr:stedsnr" v="90477" />
	</node>
	<node lat="58.58918055884707" lon="8.80263334047551" id="-26898">
		<tag k="name" v="Moltemyr" />
		<tag k="natural" v="wetland" />
		<tag k="ssr:stedsnr" v="90490" />
	</node>
	<node lat="58.44872500166822" lon="8.607258326424024" id="-26899">
		<tag k="name" v="Furremyra" />
		<tag k="place" v="locality" />
		<tag k="ssr:stedsnr" v="90494" />
	</node>
	<node lat="58.551063885106934" lon="8.766522223073" id="-26900">
		<tag k="name" v="Store Fjærbumyra" />
		<tag k="natural" v="wetland" />
		<tag k="ssr:stedsnr" v="90313" />
	</node>
	<node lat="58.500866662426695" lon="8.809491660452595" id="-26901">
		<tag k="name" v="Lille Bjormyr" />
		<tag k="natural" v="wetland" />
		<tag k="ssr:stedsnr" v="90317" />
	</node>
	<node lat="58.508508334002464" lon="8.810636111137796" id="-26902">
		<tag k="name" v="Kloppekjerr" />
		<tag k="place" v="locality" />
		<tag k="ssr:stedsnr" v="90319" />
	</node>
	<node lat="58.49324444455871" lon="8.900480556519495" id="-26903">
		<tag k="name" v="Brønnemyra" />
		<tag k="natural" v="wetland" />
		<tag k="ssr:stedsnr" v="90325" />
	</node>
	<node lat="58.55335555504206" lon="8.77355278309509" id="-26911">
		<tag k="name" v="Knut Moens myr" />
		<tag k="natural" v="wetland" />
		<tag k="ssr:stedsnr" v="90403" />
	</node>
	<node lat="58.43079444136611" lon="8.675247227637358" id="-26933">
		<tag k="name" v="Kringlemyrstykket" />
		<tag k="place" v="locality" />
		<tag k="ssr:stedsnr" v="90737" />
	</node>
	<node lat="58.42199722414858" lon="8.576863894114513" id="-26939">
		<tag k="name" v="Moltemyr" />
		<tag k="natural" v="wetland" />
		<tag k="ssr:stedsnr" v="90809" />
	</node>
	<node lat="58.54903333699683" lon="8.96670554829651" id="-26976">
		<tag k="name" v="Sundmyrene" />
		<tag k="natural" v="wetland" />
		<tag k="ssr:stedsnr" v="150247" />
	</node>
	<node lat="58.46383055198816" lon="8.842727781921196" id="-26981">
		<tag k="name" v="Josfjellmyra" />
		<tag k="natural" v="wetland" />
		<tag k="ssr:stedsnr" v="150328" />
	</node>
	<node lat="58.430613889727525" lon="8.672705562162774" id="-26991">
		<tag k="name" v="Langekjerr" />
		<tag k="natural" v="wetland" />
		<tag k="ssr:stedsnr" v="150730" />
	</node>
	<node lat="58.424252780539526" lon="8.566083332759536" id="-26996">
		<tag k="name" v="Bjordammen" />
		<tag k="natural" v="wetland" />
		<tag k="ssr:stedsnr" v="150800" />
	</node>
	<node lat="58.44893888796179" lon="8.55510554719799" id="-27000">
		<tag k="name" v="Kvernemyr" />
		<tag k="natural" v="wetland" />
		<tag k="ssr:stedsnr" v="150834" />
	</node>
	<node lat="58.50747222141821" lon="8.828091671436145" id="-27004">
		<tag k="name" v="Haugereidmyra" />
		<tag k="place" v="locality" />
		<tag k="ssr:stedsnr" v="151039" />
	</node>
	<node lat="58.53949722607269" lon="8.890058326139402" id="-27009">
		<tag k="name" v="Moltemyra" />
		<tag k="natural" v="wetland" />
		<tag k="ssr:stedsnr" v="151119" />
	</node>
	<node lat="58.573922224111314" lon="8.84790832917278" id="-27013">
		<tag k="name" v="Storemyr" />
		<tag k="place" v="locality" />
		<tag k="ssr:stedsnr" v="151142" />
	</node>
	<node lat="58.54212777376935" lon="8.852638886021346" id="-27023">
		<tag k="name" v="Lefseklingen" />
		<tag k="place" v="locality" />
		<tag k="ssr:stedsnr" v="151072" />
	</node>
	<node lat="58.42524444574393" lon="8.803041663311612" id="-27036">
		<tag k="name" v="Myra" />
		<tag k="place" v="locality" />
		<tag k="ssr:stedsnr" v="151527" />
	</node>
	<node lat="58.57506388531684" lon="8.973983340197885" id="-27054">
		<tag k="name" v="Sletta" />
		<tag k="place" v="locality" />
		<tag k="ssr:stedsnr" v="151765" />
	</node>
	<node lat="58.57312778082105" lon="8.980005550478559" id="-27059">
		<tag k="name" v="Slåttekjerr" />
		<tag k="natural" v="wetland" />
		<tag k="ssr:stedsnr" v="151787" />
	</node>
	<node lat="58.4381805548601" lon="8.836277776729762" id="-27085">
		<tag k="alt_name" v="Hoveskog" />
		<tag k="name" v="Hoveskogen" />
		<tag k="place" v="locality" />
		<tag k="ssr:stedsnr" v="182609" />
	</node>
	<node lat="58.58665555287654" lon="8.827530553178761" id="-27105">
		<tag k="name" v="Råbuhagen" />
		<tag k="place" v="locality" />
		<tag k="ssr:stedsnr" v="212137" />
	</node>
	<node lat="58.54378611131661" lon="8.866858329108398" id="-27119">
		<tag k="name" v="Krossmyr" />
		<tag k="natural" v="wetland" />
		<tag k="ssr:stedsnr" v="212016" />
	</node>
	<node lat="58.536805555893885" lon="8.927666659820513" id="-27121">
		<tag k="name" v="Ragnhildshage" />
		<tag k="place" v="locality" />
		<tag k="ssr:stedsnr" v="212091" />
	</node>
	<node lat="58.51762222081707" lon="8.874722216130076" id="-27123">
		<tag k="name" v="Flaten" />
		<tag k="place" v="locality" />
		<tag k="ssr:stedsnr" v="212114" />
	</node>
	<node lat="58.508372220743865" lon="8.928438897208192" id="-27124">
		<tag k="name" v="Pershave" />
		<tag k="place" v="locality" />
		<tag k="ssr:stedsnr" v="212043" />
	</node>
	<node lat="58.531077775453795" lon="8.847433329848037" id="-27127">
		<tag k="name" v="Dypmyr" />
		<tag k="natural" v="wetland" />
		<tag k="ssr:stedsnr" v="212072" />
	</node>
	<node lat="58.576738890804215" lon="8.864233337454552" id="-27129">
		<tag k="name" v="Fjellmyr" />
		<tag k="natural" v="wetland" />
		<tag k="ssr:stedsnr" v="212123" />
	</node>
	<node lat="58.514036110442554" lon="8.804508337868196" id="-27132">
		<tag k="name" v="Stemmekjerr" />
		<tag k="natural" v="wetland" />
		<tag k="ssr:stedsnr" v="212337" />
	</node>
	<node lat="58.49636388502811" lon="8.808355548717149" id="-27134">
		<tag k="name" v="Bjørnemyr" />
		<tag k="natural" v="wetland" />
		<tag k="ssr:stedsnr" v="212344" />
	</node>
	<node lat="58.50224444706038" lon="8.818141668205026" id="-27142">
		<tag k="name" v="Allensmyr" />
		<tag k="natural" v="wetland" />
		<tag k="ssr:stedsnr" v="212322" />
	</node>
	<node lat="58.59840278044915" lon="8.813177782504923" id="-27144">
		<tag k="name" v="Skarkemyr" />
		<tag k="natural" v="wetland" />
		<tag k="ssr:stedsnr" v="212380" />
	</node>
	<node lat="58.5322388853501" lon="8.783613885344701" id="-27146">
		<tag k="name" v="Mosemyra" />
		<tag k="natural" v="wetland" />
		<tag k="ssr:stedsnr" v="212391" />
	</node>
	<node lat="58.566927776971056" lon="8.989174994559844" id="-27155">
		<tag k="name" v="Bløta" />
		<tag k="natural" v="wetland" />
		<tag k="ssr:stedsnr" v="212791" />
	</node>
	<node lat="58.54291389339328" lon="8.760927784969175" id="-27157">
		<tag k="name" v="Svarttjønnmyra" />
		<tag k="natural" v="wetland" />
		<tag k="ssr:stedsnr" v="212431" />
	</node>
	<node lat="58.506827775743915" lon="8.866974997263208" id="-27160">
		<tag k="name" v="Kloppedalsmyra" />
		<tag k="natural" v="wetland" />
		<tag k="ssr:stedsnr" v="212445" />
	</node>
	<node lat="58.5700222179774" lon="8.790086118784464" id="-27161">
		<tag k="name" v="Lille Helgesmyr" />
		<tag k="natural" v="wetland" />
		<tag k="ssr:stedsnr" v="212453" />
	</node>
	<node lat="58.57686388873382" lon="8.809544446414431" id="-27163">
		<tag k="name" v="Bjørnekjerr" />
		<tag k="natural" v="wetland" />
		<tag k="ssr:stedsnr" v="212469" />
	</node>
	<node lat="58.56507222055041" lon="8.818897224548294" id="-27165">
		<tag k="name" v="Likjerra" />
		<tag k="place" v="locality" />
		<tag k="ssr:stedsnr" v="212473" />
	</node>
	<node lat="58.471636106691854" lon="8.853322222247884" id="-27173">
		<tag k="name" v="Fellesbeitet" />
		<tag k="place" v="locality" />
		<tag k="ssr:stedsnr" v="212746" />
	</node>
	<node lat="58.52338888731884" lon="8.858197228670551" id="-27236">
		<tag k="name" v="Bjørnhimyr" />
		<tag k="natural" v="wetland" />
		<tag k="ssr:stedsnr" v="333070" />
	</node>
	<node lat="58.54849999935135" lon="8.827316673063685" id="-27251">
		<tag k="name" v="Stiansrønning" />
		<tag k="place" v="locality" />
		<tag k="ssr:stedsnr" v="333024" />
	</node>
	<node lat="58.53285833653093" lon="8.956458335966358" id="-27255">
		<tag k="name" v="Ulsbumyrene" />
		<tag k="natural" v="wetland" />
		<tag k="ssr:stedsnr" v="333228" />
	</node>
	<node lat="58.585380554052556" lon="8.977383338282873" id="-27256">
		<tag k="name" v="Kjerringura" />
		<tag k="natural" v="scree" />
		<tag k="ssr:stedsnr" v="333242" />
	</node>
	<node lat="58.529022223713675" lon="8.855752781512653" id="-27258">
		<tag k="name" v="Tjønnmyra" />
		<tag k="natural" v="wetland" />
		<tag k="ssr:stedsnr" v="333134" />
	</node>
	<node lat="58.493191670903215" lon="8.835766669486446" id="-27262">
		<tag k="name" v="Allevikmyra" />
		<tag k="place" v="locality" />
		<tag k="ssr:stedsnr" v="333308" />
	</node>
	<node lat="58.53707777898292" lon="8.804461111237673" id="-27269">
		<tag k="name" v="Rønningen" />
		<tag k="place" v="locality" />
		<tag k="ssr:stedsnr" v="333424" />
	</node>
	<node lat="58.42791111308117" lon="8.60596666144078" id="-27275">
		<tag k="name" v="Lindtveitmyra" />
		<tag k="place" v="locality" />
		<tag k="ssr:stedsnr" v="333526" />
	</node>
	<node lat="58.547297220778745" lon="8.76341388276508" id="-27292">
		<tag k="name" v="Langemyr" />
		<tag k="natural" v="wetland" />
		<tag k="ssr:stedsnr" v="333466" />
	</node>
	<node lat="58.564086112108825" lon="8.773680553944121" id="-27297">
		<tag k="name" v="Lille Siringsmyra" />
		<tag k="natural" v="wetland" />
		<tag k="ssr:stedsnr" v="333490" />
	</node>
	<node lat="58.49291666624313" lon="8.741211119398772" id="-27308">
		<tag k="name" v="Storemyr" />
		<tag k="natural" v="wetland" />
		<tag k="ssr:stedsnr" v="333679" />
	</node>
	<node lat="58.42982499774809" lon="8.559925002254781" id="-27318">
		<tag k="name" v="Ingeborgsmyr" />
		<tag k="natural" v="wetland" />
		<tag k="ssr:stedsnr" v="333875" />
	</node>
	<node lat="58.55017777410379" lon="8.855583339536471" id="-27364">
		<tag k="name" v="Myrhagen" />
		<tag k="place" v="locality" />
		<tag k="ssr:stedsnr" v="393013" />
	</node>
	<node lat="58.548855557922266" lon="8.856280559438366" id="-27367">
		<tag k="name" v="Mørkoppmyra" />
		<tag k="place" v="locality" />
		<tag k="ssr:stedsnr" v="393023" />
	</node>
	<node lat="58.45078333415654" lon="8.723522224133001" id="-27372">
		<tag k="landuse" v="quarry" />
		<tag k="name" v="Klodeborg gruber" />
		<tag k="ssr:stedsnr" v="393198" />
	</node>
	<node lat="58.52150833480093" lon="8.820480552827103" id="-27398">
		<tag k="name" v="Paddekjerr" />
		<tag k="natural" v="wetland" />
		<tag k="ssr:stedsnr" v="393413" />
	</node>
	<node lat="58.52547222231489" lon="8.820997230334136" id="-27399">
		<tag k="name" v="Stormyr" />
		<tag k="place" v="locality" />
		<tag k="ssr:stedsnr" v="393416" />
	</node>
	<node lat="58.52364721808442" lon="8.81951666529695" id="-27400">
		<tag k="name" v="Høykjerrene" />
		<tag k="natural" v="wetland" />
		<tag k="ssr:stedsnr" v="393418" />
	</node>
	<node lat="58.55380833481421" lon="8.792891668130908" id="-27402">
		<tag k="name" v="Kringlemoen" />
		<tag k="place" v="locality" />
		<tag k="ssr:stedsnr" v="393425" />
	</node>
	<node lat="58.5670083349709" lon="8.796758325298324" id="-27408">
		<tag k="name" v="Ingreidsmyr" />
		<tag k="natural" v="wetland" />
		<tag k="ssr:stedsnr" v="393476" />
	</node>
	<node lat="58.57131666753345" lon="8.946511112032322" id="-27411">
		<tag k="name" v="Svendsmyra" />
		<tag k="natural" v="wetland" />
		<tag k="ssr:stedsnr" v="393757" />
	</node>
	<node lat="58.419350002574966" lon="8.661427778188047" id="-27412">
		<tag k="name" v="Karten" />
		<tag k="place" v="locality" />
		<tag k="ssr:stedsnr" v="393758" />
	</node>
</osm>
