<?xml version="1.0" encoding="UTF-8"?>
<osm version="0.6" generator="osmapis">
	<node lat="58.48131862482958" lon="8.817667696774073" id="-24870">
		<tag k="alt_name" v="Dyviktjenn" />
		<tag k="name" v="Dyviktjern" />
		<tag k="natural" v="water" />
		<tag k="ssr:stedsnr" v="647" />
	</node>
	<node lat="58.468947220814165" lon="8.51492778427879" id="-24871">
		<tag k="alt_name" v="Grunnetjenn" />
		<tag k="name" v="Grunnetjern" />
		<tag k="natural" v="water" />
		<tag k="ssr:stedsnr" v="649" />
	</node>
	<node lat="58.44368611278649" lon="8.634130550772667" id="-24874">
		<tag k="alt_name" v="Snipptjern" />
		<tag k="name" v="Snippetjenn" />
		<tag k="natural" v="water" />
		<tag k="ssr:stedsnr" v="599" />
	</node>
	<node lat="58.495456249652435" lon="8.784852784256035" id="-24875">
		<tag k="name" v="Østre Piletjenn" />
		<tag k="natural" v="water" />
		<tag k="ssr:stedsnr" v="701" />
	</node>
	<node lat="58.457325000947485" lon="8.844877769895865" id="-24878">
		<tag k="alt_name" v="Gjerstadvatnet" />
		<tag k="name" v="Gjerstadvannet" />
		<tag k="natural" v="water" />
		<tag k="ssr:stedsnr" v="940" />
		<tag k="water" v="lake" />
	</node>
	<node lat="58.47755278012662" lon="8.516750003148948" id="-24883">
		<tag k="name" v="Maristjenn" />
		<tag k="natural" v="water" />
		<tag k="ssr:stedsnr" v="272862" />
	</node>
	<node lat="58.532230551711905" lon="8.873480558323907" id="-24887">
		<tag k="name" v="Øvre Råna" />
		<tag k="natural" v="water" />
		<tag k="ssr:stedsnr" v="29111" />
		<tag k="water" v="lake" />
	</node>
	<node lat="58.52188610748919" lon="8.874686106467333" id="-24888">
		<tag k="name" v="Nesodden" />
		<tag k="natural" v="cape" />
		<tag k="ssr:stedsnr" v="29113" />
	</node>
	<node lat="58.464847222529066" lon="8.888105553442172" id="-24895">
		<tag k="name" v="Rennebekken" />
		<tag k="ssr:stedsnr" v="29315" />
		<tag k="waterway" v="stream" />
	</node>
	<node lat="58.49025278000961" lon="8.715663881179752" id="-24901">
		<tag k="name" v="Lyngtjenn" />
		<tag k="natural" v="water" />
		<tag k="ssr:stedsnr" v="29711" />
	</node>
	<node lat="58.42894722330257" lon="8.532522225111018" id="-24912">
		<tag k="name" v="Kollåsbekken" />
		<tag k="ssr:stedsnr" v="29918" />
		<tag k="waterway" v="stream" />
	</node>
	<node lat="58.58376388619761" lon="8.95309443912587" id="-24937">
		<tag k="alt_name" v="Eikelandstjønn" />
		<tag k="name" v="Eikelandstjern" />
		<tag k="natural" v="water" />
		<tag k="ssr:stedsnr" v="61280" />
	</node>
	<node lat="58.50672222636416" lon="8.747461115032394" id="-24938">
		<tag k="name" v="Krakstadvannet" />
		<tag k="natural" v="water" />
		<tag k="ssr:stedsnr" v="61482" />
	</node>
	<node lat="58.415741670074816" lon="8.567763885459236" id="-24943">
		<tag k="name" v="Kvernvannet" />
		<tag k="natural" v="water" />
		<tag k="ssr:stedsnr" v="61573" />
	</node>
	<node lat="58.53865833682525" lon="8.839230555318087" id="-24974">
		<tag k="name" v="Engesanden" />
		<tag k="natural" v="beach" />
		<tag k="ssr:stedsnr" v="90077" />
	</node>
	<node lat="58.56158888588532" lon="8.789477778349335" id="-24984">
		<tag k="name" v="Bertestjønn" />
		<tag k="natural" v="water" />
		<tag k="ssr:stedsnr" v="90456" />
	</node>
	<node lat="58.580961107117844" lon="8.792994445772903" id="-24986">
		<tag k="name" v="Vassenden" />
		<tag k="natural" v="bay" />
		<tag k="ssr:stedsnr" v="90460" />
	</node>
	<node lat="58.44397558397154" lon="8.807495635384392" id="-25000">
		<tag k="name" v="Karussdammen" />
		<tag k="natural" v="water" />
		<tag k="ssr:stedsnr" v="90609" />
	</node>
	<node lat="58.44877222042989" lon="8.574825007838802" id="-25007">
		<tag k="name" v="Tolleholmen" />
		<tag k="place" v="islet" />
		<tag k="ssr:stedsnr" v="90820" />
	</node>
	<node lat="58.450288884614515" lon="8.736491668522113" id="-25011">
		<tag k="name" v="Biebekken" />
		<tag k="ssr:stedsnr" v="90765" />
		<tag k="waterway" v="stream" />
	</node>
	<node lat="58.49838055770803" lon="8.507772216496663" id="-25016">
		<tag k="name" v="Lonene" />
		<tag k="natural" v="water" />
		<tag k="ssr:stedsnr" v="90965" />
		<tag k="water" v="lake" />
	</node>
	<node lat="58.51658611207314" lon="8.80016665844357" id="-25031">
		<tag k="alt_name" v="Butjønn" />
		<tag k="name" v="Butjerna" />
		<tag k="natural" v="water" />
		<tag k="ssr:stedsnr" v="121726" />
	</node>
	<node lat="58.42918888531435" lon="8.547600005748347" id="-25032">
		<tag k="alt_name" v="Nedre Bjortjenn" />
		<tag k="name" v="Bjortjerna" />
		<tag k="natural" v="water" />
		<tag k="ssr:stedsnr" v="121608" />
	</node>
	<node lat="58.48096111039457" lon="8.518449992476993" id="-25037">
		<tag k="alt_name" v="Ormetjenn" />
		<tag k="name" v="Ormetjern" />
		<tag k="natural" v="water" />
		<tag k="ssr:stedsnr" v="121675" />
	</node>
	<node lat="58.487161112073395" lon="8.771372214691123" id="-25038">
		<tag k="name" v="Jovannet" />
		<tag k="natural" v="water" />
		<tag k="ssr:stedsnr" v="121683" />
	</node>
	<node lat="58.523105554037855" lon="8.78331388469014" id="-25044">
		<tag k="name" v="Engelstjønn" />
		<tag k="natural" v="water" />
		<tag k="old_name" v="Engelstjena" />
		<tag k="ssr:stedsnr" v="122712" />
	</node>
	<node lat="58.4402611145473" lon="8.543541659824218" id="-25056">
		<tag k="name" v="Lebekk" />
		<tag k="ssr:stedsnr" v="150902" />
		<tag k="waterway" v="stream" />
	</node>
	<node lat="58.4180277745198" lon="8.563358329815763" id="-25059">
		<tag k="name" v="Plassetjenn" />
		<tag k="natural" v="water" />
		<tag k="ssr:stedsnr" v="150802" />
	</node>
	<node lat="58.433416670624396" lon="8.710941663560412" id="-25104">
		<tag k="name" v="Nidelva" />
		<tag k="ssr:stedsnr" v="182644" />
		<tag k="waterway" v="river" />
	</node>
	<node lat="58.46639999901697" lon="8.643902769696748" id="-25105">
		<tag k="alt_name" v="Risetjenn" />
		<tag k="name" v="Risetjern" />
		<tag k="natural" v="water" />
		<tag k="ssr:stedsnr" v="182646" />
	</node>
	<node lat="58.556181674688666" lon="8.767125612076434" id="-25107">
		<tag k="name" v="Dipletjern" />
		<tag k="natural" v="water" />
		<tag k="ssr:stedsnr" v="182650" />
	</node>
	<node lat="58.55168333461196" lon="8.948563889836402" id="-25110">
		<tag k="alt_name" v="Kollakstjønn" />
		<tag k="name" v="Kollakstjern" />
		<tag k="natural" v="water" />
		<tag k="ssr:stedsnr" v="183205" />
	</node>
	<node lat="58.53394166876288" lon="8.785711111256724" id="-25116">
		<tag k="name" v="Skjulestadlonene" />
		<tag k="natural" v="water" />
		<tag k="old_name" v="Skjulestradlonene" />
		<tag k="ssr:stedsnr" v="183693" />
	</node>
	<node lat="58.526852777576174" lon="8.763594443531353" id="-25117">
		<tag k="alt_name" v="Skjævestadlonene" />
		<tag k="name" v="Lona" />
		<tag k="natural" v="water" />
		<tag k="ssr:stedsnr" v="183721" />
		<tag k="water" v="lake" />
	</node>
	<node lat="58.49973055298554" lon="8.729547227081763" id="-25119">
		<tag k="name" v="Vålandstjenn" />
		<tag k="natural" v="water" />
		<tag k="ssr:stedsnr" v="272620" />
	</node>
	<node lat="58.545577774368276" lon="8.828902770720665" id="-25139">
		<tag k="name" v="Harvelandsneset" />
		<tag k="natural" v="cape" />
		<tag k="ssr:stedsnr" v="212026" />
	</node>
	<node lat="58.48133032228087" lon="8.881851089673317" id="-25146">
		<tag k="name" v="Arsbekken" />
		<tag k="ssr:stedsnr" v="212327" />
		<tag k="waterway" v="stream" />
	</node>
	<node lat="58.416641664465004" lon="8.71991944841219" id="-25150">
		<tag k="name" v="Aslak" />
		<tag k="place" v="islet" />
		<tag k="ssr:stedsnr" v="212210" />
	</node>
	<node lat="58.560283336866966" lon="8.986197226526645" id="-25151">
		<tag k="name" v="Tjønna" />
		<tag k="natural" v="water" />
		<tag k="ssr:stedsnr" v="212212" />
	</node>
	<node lat="58.432683332400266" lon="8.609027780679655" id="-25158">
		<tag k="name" v="Tollnesevja" />
		<tag k="natural" v="water" />
		<tag k="ssr:stedsnr" v="212513" />
		<tag k="water" v="lake" />
	</node>
	<node lat="58.58335555246579" lon="8.776688885261274" id="-25166">
		<tag k="name" v="Romsknattjønn" />
		<tag k="natural" v="water" />
		<tag k="ssr:stedsnr" v="212481" />
	</node>
	<node lat="58.45039444837799" lon="8.678650003855552" id="-25174">
		<tag k="name" v="Kildalsbekken" />
		<tag k="ssr:stedsnr" v="212827" />
		<tag k="waterway" v="stream" />
	</node>
	<node lat="58.44603610899784" lon="8.743258336501873" id="-25175">
		<tag k="name" v="Sponvika" />
		<tag k="natural" v="bay" />
		<tag k="ssr:stedsnr" v="212828" />
	</node>
	<node lat="58.455541663834815" lon="8.545511104344152" id="-25178">
		<tag k="name" v="Nordneset" />
		<tag k="natural" v="cape" />
		<tag k="ssr:stedsnr" v="212888" />
	</node>
	<node lat="58.41914444445452" lon="8.5556555583767" id="-25179">
		<tag k="name" v="Kvitholmen" />
		<tag k="old_name" v="Kvtholmen" />
		<tag k="place" v="islet" />
		<tag k="ssr:stedsnr" v="212896" />
	</node>
	<node lat="58.48506944599685" lon="8.701230561997173" id="-25183">
		<tag k="name" v="Store Havåstjenn" />
		<tag k="natural" v="water" />
		<tag k="ssr:stedsnr" v="272938" />
	</node>
	<node lat="58.484797222766865" lon="8.75758889084806" id="-25185">
		<tag k="name" v="Sprøkilen" />
		<tag k="natural" v="bay" />
		<tag k="ssr:stedsnr" v="272653" />
	</node>
	<node lat="58.48723610901944" lon="8.779708332270292" id="-25187">
		<tag k="name" v="Lille Ribbervann" />
		<tag k="natural" v="water" />
		<tag k="ssr:stedsnr" v="272665" />
		<tag k="water" v="lake" />
	</node>
	<node lat="58.48258610736934" lon="8.791763894541184" id="-25190">
		<tag k="name" v="Heitjenn" />
		<tag k="natural" v="water" />
		<tag k="ssr:stedsnr" v="272668" />
	</node>
	<node lat="58.56733333572894" lon="8.94038056019205" id="-25192">
		<tag k="name" v="Østre Kroktjønn" />
		<tag k="natural" v="water" />
		<tag k="ssr:stedsnr" v="272740" />
	</node>
	<node lat="58.45202500198817" lon="8.54638056090153" id="-25203">
		<tag k="name" v="Nordvannet" />
		<tag k="natural" v="water" />
		<tag k="ssr:stedsnr" v="243641" />
		<tag k="water" v="lake" />
	</node>
	<node lat="58.53916944410457" lon="8.873441666891784" id="-25211">
		<tag k="name" v="Langangsvannet" />
		<tag k="natural" v="water" />
		<tag k="ssr:stedsnr" v="244236" />
	</node>
	<node lat="58.53965000010935" lon="8.912619440153604" id="-25213">
		<tag k="name" v="Kalvetangen" />
		<tag k="natural" v="cape" />
		<tag k="ssr:stedsnr" v="454087" />
	</node>
	<node lat="58.545863889034635" lon="8.914816667224756" id="-25214">
		<tag k="name" v="Sønningen" />
		<tag k="place" v="islet" />
		<tag k="ssr:stedsnr" v="454088" />
	</node>
	<node lat="58.53852777631411" lon="8.917688883185185" id="-25215">
		<tag k="name" v="Eidet" />
		<tag k="place" v="locality" />
		<tag k="ssr:stedsnr" v="454091" />
	</node>
	<node lat="58.427666663652275" lon="8.682652775386176" id="-25221">
		<tag k="name" v="Gullovsbekken" />
		<tag k="ssr:stedsnr" v="454792" />
		<tag k="waterway" v="stream" />
	</node>
	<node lat="58.45473055655408" lon="8.559494445419638" id="-25226">
		<tag k="name" v="Lomstjenn" />
		<tag k="natural" v="water" />
		<tag k="ssr:stedsnr" v="454908" />
	</node>
	<node lat="58.544228804132224" lon="8.790224013614832" id="-25239">
		<tag k="name" v="Mofjelltjønnene" />
		<tag k="natural" v="water" />
		<tag k="ssr:stedsnr" v="454438" />
		<tag k="water" v="lake" />
	</node>
	<node lat="58.421530551552124" lon="8.732363892768985" id="-25244">
		<tag k="name" v="Skrivaren" />
		<tag k="place" v="islet" />
		<tag k="ssr:stedsnr" v="454221" />
	</node>
	<node lat="58.59201666918871" lon="8.82131389403428" id="-25257">
		<tag k="name" v="Østre Kjerrbutjønn" />
		<tag k="natural" v="water" />
		<tag k="ssr:stedsnr" v="454399" />
	</node>
	<node lat="58.58131944321741" lon="8.760341666184683" id="-25258">
		<tag k="name" v="Pottjønn" />
		<tag k="natural" v="water" />
		<tag k="ssr:stedsnr" v="454501" />
	</node>
	<node lat="58.43262777543062" lon="8.689908330123176" id="-25286">
		<tag k="name" v="Rannekleivbekken" />
		<tag k="ssr:stedsnr" v="454828" />
		<tag k="waterway" v="stream" />
	</node>
	<node lat="58.41734167021937" lon="8.561316669020933" id="-25289">
		<tag k="name" v="Ålekarbekken" />
		<tag k="ssr:stedsnr" v="454839" />
		<tag k="waterway" v="stream" />
	</node>
	<node lat="58.54600555291109" lon="8.839408334509791" id="-25301">
		<tag k="name" v="Fløystadkilen" />
		<tag k="natural" v="bay" />
		<tag k="ssr:stedsnr" v="272007" />
	</node>
	<node lat="58.545302776558195" lon="8.831986102682736" id="-25304">
		<tag k="name" v="Ligomsundet" />
		<tag k="natural" v="strait" />
		<tag k="ssr:stedsnr" v="272025" />
	</node>
	<node lat="58.53793610674598" lon="8.91085276946603" id="-25305">
		<tag k="name" v="Storholmen" />
		<tag k="place" v="islet" />
		<tag k="ssr:stedsnr" v="272104" />
	</node>
	<node lat="58.58466111184509" lon="8.831613887746096" id="-25314">
		<tag k="name" v="Mørnestangen" />
		<tag k="natural" v="cape" />
		<tag k="ssr:stedsnr" v="272145" />
	</node>
	<node lat="58.54092499822454" lon="8.80691389707915" id="-25329">
		<tag k="name" v="Bukta" />
		<tag k="natural" v="bay" />
		<tag k="ssr:stedsnr" v="272416" />
	</node>
	<node lat="58.553966663406285" lon="8.813725001677088" id="-25330">
		<tag k="name" v="Ånes" />
		<tag k="natural" v="cape" />
		<tag k="ssr:stedsnr" v="272425" />
	</node>
	<node lat="58.58991111458518" lon="8.817558335390947" id="-25337">
		<tag k="name" v="Vestre Kjerrbutjønn" />
		<tag k="natural" v="water" />
		<tag k="ssr:stedsnr" v="272380" />
	</node>
	<node lat="58.57549166253405" lon="8.761227777655302" id="-25341">
		<tag k="name" v="Dølemyrtjønn" />
		<tag k="natural" v="water" />
		<tag k="ssr:stedsnr" v="272473" />
	</node>
	<node lat="58.58369166800747" lon="8.801466664638587" id="-25342">
		<tag k="name" v="Grasåstjønn" />
		<tag k="natural" v="water" />
		<tag k="ssr:stedsnr" v="272482" />
	</node>
	<node lat="58.43487499923742" lon="8.714902784959554" id="-25351">
		<tag k="name" v="Lilleholmen" />
		<tag k="place" v="islet" />
		<tag k="ssr:stedsnr" v="272727" />
	</node>
	<node lat="58.41762222449046" lon="8.586241667457402" id="-25355">
		<tag k="name" v="Kjerringraua" />
		<tag k="natural" v="bay" />
		<tag k="ssr:stedsnr" v="272793" />
	</node>
	<node lat="58.447691669227225" lon="8.523911106093054" id="-25357">
		<tag k="name" v="Stornes" />
		<tag k="natural" v="cape" />
		<tag k="ssr:stedsnr" v="272876" />
	</node>
	<node lat="58.45171944030227" lon="8.534511110558437" id="-25358">
		<tag k="name" v="Grunnetjenn" />
		<tag k="natural" v="water" />
		<tag k="ssr:stedsnr" v="272878" />
	</node>
	<node lat="58.48796389053266" lon="8.527783328226151" id="-25365">
		<tag k="name" v="Raundalskilen" />
		<tag k="natural" v="bay" />
		<tag k="ssr:stedsnr" v="292920" />
	</node>
	<node lat="58.434513891706686" lon="8.664499996822618" id="-25369">
		<tag k="alt_name" v="Gjennestadtjenna" />
		<tag k="name" v="Ginnestadtjern" />
		<tag k="natural" v="water" />
		<tag k="ssr:stedsnr" v="303593" />
	</node>
	<node lat="58.555611107460884" lon="8.937561107753783" id="-25375">
		<tag k="name" v="Vatnebuvannet" />
		<tag k="natural" v="water" />
		<tag k="ssr:stedsnr" v="304210" />
		<tag k="water" v="lake" />
	</node>
	<node lat="58.57955833705225" lon="8.773505930597409" id="-25384">
		<tag k="alt_name" v="Store Ubergtjønn" />
		<tag k="name" v="Ubergstjern" />
		<tag k="natural" v="water" />
		<tag k="ssr:stedsnr" v="304878" />
	</node>
	<node lat="58.54479444307016" lon="8.84187778504633" id="-25391">
		<tag k="name" v="Eidet" />
		<tag k="place" v="locality" />
		<tag k="ssr:stedsnr" v="333003" />
	</node>
	<node lat="58.547344444000565" lon="8.925186119279926" id="-25399">
		<tag k="name" v="Ytre Gullbergtjønn" />
		<tag k="natural" v="water" />
		<tag k="ssr:stedsnr" v="333102" />
	</node>
	<node lat="58.46281666933398" lon="8.832174997656" id="-25407">
		<tag k="name" v="Ubekiltjenn" />
		<tag k="natural" v="water" />
		<tag k="ssr:stedsnr" v="333349" />
	</node>
	<node lat="58.58426389093471" lon="8.79225833424371" id="-25411">
		<tag k="name" v="Smalsund" />
		<tag k="natural" v="strait" />
		<tag k="ssr:stedsnr" v="333506" />
	</node>
	<node lat="58.55741944458542" lon="8.772005551989286" id="-25422">
		<tag k="name" v="Hagehøl" />
		<tag k="place" v="locality" />
		<tag k="ssr:stedsnr" v="333452" />
	</node>
	<node lat="58.51857777776758" lon="8.736877770626714" id="-25425">
		<tag k="name" v="Vomma" />
		<tag k="natural" v="water" />
		<tag k="ssr:stedsnr" v="333746" />
	</node>
	<node lat="58.4388499990727" lon="8.535841660943756" id="-25432">
		<tag k="name" v="Lisletjenn" />
		<tag k="natural" v="water" />
		<tag k="ssr:stedsnr" v="333918" />
	</node>
	<node lat="58.43632500179988" lon="8.528466663083284" id="-25433">
		<tag k="name" v="Korvetjenn" />
		<tag k="natural" v="water" />
		<tag k="ssr:stedsnr" v="333920" />
	</node>
	<node lat="58.43905555833803" lon="8.553161119213406" id="-25440">
		<tag k="name" v="Teinelaget" />
		<tag k="place" v="locality" />
		<tag k="ssr:stedsnr" v="333853" />
	</node>
	<node lat="58.43693055709761" lon="8.586183337006155" id="-25442">
		<tag k="name" v="Jamstjenn" />
		<tag k="natural" v="water" />
		<tag k="ssr:stedsnr" v="333866" />
	</node>
	<node lat="58.40976944677068" lon="8.560572223993482" id="-25443">
		<tag k="name" v="Eidet" />
		<tag k="place" v="locality" />
		<tag k="ssr:stedsnr" v="333867" />
	</node>
	<node lat="58.48391666418912" lon="8.685097220709338" id="-25444">
		<tag k="name" v="Flaggersnes" />
		<tag k="natural" v="cape" />
		<tag k="ssr:stedsnr" v="333996" />
	</node>
	<node lat="58.47590277760092" lon="8.65056111485568" id="-25445">
		<tag k="name" v="Utjern" />
		<tag k="natural" v="water" />
		<tag k="ssr:stedsnr" v="337214" />
	</node>
	<node lat="58.5087805589141" lon="8.721975000403015" id="-25455">
		<tag k="alt_name" v="Lindåstjenn" />
		<tag k="name" v="Lindåstjern" />
		<tag k="natural" v="water" />
		<tag k="ssr:stedsnr" v="364512" />
	</node>
	<node lat="58.49477778012587" lon="8.796655552228744" id="-25456">
		<tag k="alt_name" v="Bjortjenn" />
		<tag k="name" v="Bjortjern" />
		<tag k="natural" v="water" />
		<tag k="ssr:stedsnr" v="364709" />
	</node>
	<node lat="58.5404805546759" lon="8.845391670848587" id="-25459">
		<tag k="name" v="Bramshølen" />
		<tag k="natural" v="water" />
		<tag k="ssr:stedsnr" v="365242" />
	</node>
	<node lat="58.54849444613701" lon="8.918672225287665" id="-25469">
		<tag k="name" v="Rørvikbukta" />
		<tag k="natural" v="bay" />
		<tag k="ssr:stedsnr" v="393035" />
	</node>
	<node lat="58.591136108089685" lon="8.81379721483948" id="-25480">
		<tag k="name" v="Tjønnauga" />
		<tag k="natural" v="water" />
		<tag k="ssr:stedsnr" v="393393" />
		<tag k="water" v="pond" />
	</node>
	<node lat="58.49964166266413" lon="8.68399166869388" id="-25483">
		<tag k="name" v="Stemmetjenn" />
		<tag k="natural" v="water" />
		<tag k="ssr:stedsnr" v="393521" />
	</node>
	<node lat="58.41096111268744" lon="8.6667777810803" id="-25496">
		<tag k="name" v="Sævaholmen" />
		<tag k="natural" v="cape" />
		<tag k="ssr:stedsnr" v="393730" />
	</node>
	<node lat="58.48392778132855" lon="8.711947226346814" id="-25499">
		<tag k="name" v="Lille Havåstjenn" />
		<tag k="natural" v="water" />
		<tag k="ssr:stedsnr" v="393927" />
	</node>
	<node lat="58.4878750038232" lon="8.697833334326722" id="-25500">
		<tag k="name" v="Neset" />
		<tag k="natural" v="cape" />
		<tag k="ssr:stedsnr" v="393929" />
	</node>
	<node lat="58.51402536720075" lon="8.878460455922786" id="-25518">
		<tag k="name" v="Gartatjenn" />
		<tag k="natural" v="water" />
		<tag k="ssr:stedsnr" v="485162" />
	</node>
	<node lat="58.55438332911367" lon="8.869836119298542" id="-25536">
		<tag k="alt_name" v="Rosstjønn" />
		<tag k="name" v="Rosstjern" />
		<tag k="natural" v="water" />
		<tag k="ssr:stedsnr" v="486272" />
	</node>
	<node lat="58.595719446675304" lon="8.824472227616393" id="-25542">
		<tag k="name" v="Kobbervann" />
		<tag k="natural" v="water" />
		<tag k="ssr:stedsnr" v="486833" />
	</node>
	<node lat="58.428311107038645" lon="8.61745554805147" id="-25553">
		<tag k="alt_name" v="Grunnetjenn" />
		<tag k="name" v="Grunnetjern" />
		<tag k="natural" v="water" />
		<tag k="ssr:stedsnr" v="425564" />
	</node>
	<node lat="58.44115277523207" lon="8.565774994461005" id="-25554">
		<tag k="name" v="Såbuvannet" />
		<tag k="natural" v="water" />
		<tag k="ssr:stedsnr" v="425602" />
		<tag k="water" v="lake" />
	</node>
	<node lat="58.443905551183406" lon="8.742894448534722" id="-25591">
		<tag k="name" v="Ospeviga" />
		<tag k="natural" v="bay" />
		<tag k="ssr:stedsnr" v="454261" />
	</node>
	<node lat="58.585311111686835" lon="8.804477784013558" id="-25602">
		<tag k="name" v="Hongsmyrtjønn" />
		<tag k="natural" v="water" />
		<tag k="ssr:stedsnr" v="454505" />
	</node>
	<node lat="58.47367778068665" lon="8.815294449023812" id="-25605">
		<tag k="name" v="Krøgenestjenn" />
		<tag k="natural" v="water" />
		<tag k="ssr:stedsnr" v="454603" />
	</node>
	<node lat="58.49129166606903" lon="8.801277783464046" id="-25617">
		<tag k="name" v="Songebekken" />
		<tag k="ssr:stedsnr" v="454711" />
		<tag k="waterway" v="stream" />
	</node>
	<node lat="58.40924497653732" lon="8.60550291522941" id="-25625">
		<tag k="name" v="Storestrøm" />
		<tag k="natural" v="strait" />
		<tag k="ssr:stedsnr" v="455346" />
	</node>
	<node lat="58.41156111263884" lon="8.609077784643883" id="-25636">
		<tag k="name" v="Rossøya" />
		<tag k="place" v="islet" />
		<tag k="ssr:stedsnr" v="485528" />
	</node>
	<node lat="58.54590833465314" lon="8.915930551181441" id="-25643">
		<tag k="name" v="Bjellandsvannet" />
		<tag k="natural" v="water" />
		<tag k="ssr:stedsnr" v="486222" />
		<tag k="water" v="lake" />
	</node>
	<node lat="58.562049999033604" lon="8.937999993413953" id="-25645">
		<tag k="name" v="Kroktjern" />
		<tag k="natural" v="water" />
		<tag k="ssr:stedsnr" v="486261" />
	</node>
	<node lat="58.418488889274165" lon="8.734252783044361" id="-25653">
		<tag k="name" v="Øya" />
		<tag k="place" v="islet" />
		<tag k="ssr:stedsnr" v="272193" />
	</node>
	<node lat="58.44547777456288" lon="8.745288885932382" id="-25655">
		<tag k="name" v="Strømmen" />
		<tag k="ssr:stedsnr" v="272766" />
		<tag k="waterway" v="rapids" />
	</node>
	<node lat="58.41780555876483" lon="8.552330555831269" id="-25656">
		<tag k="name" v="Andesnes" />
		<tag k="natural" v="cape" />
		<tag k="ssr:stedsnr" v="272856" />
	</node>
	<node lat="58.420502776812526" lon="8.654508328393886" id="-25657">
		<tag k="name" v="Kvennebekken" />
		<tag k="ssr:stedsnr" v="272858" />
		<tag k="waterway" v="stream" />
	</node>
	<node lat="58.552655557968144" lon="8.831822224407755" id="-25673">
		<tag k="name" v="Rønningodden" />
		<tag k="natural" v="cape" />
		<tag k="ssr:stedsnr" v="515018" />
	</node>
	<node lat="58.528800001829886" lon="8.882930550815374" id="-25689">
		<tag k="name" v="Refsnespynten" />
		<tag k="natural" v="cape" />
		<tag k="ssr:stedsnr" v="515181" />
	</node>
	<node lat="58.52940000041188" lon="8.7740111108253" id="-25698">
		<tag k="name" v="Bjørnetjønn" />
		<tag k="natural" v="water" />
		<tag k="ssr:stedsnr" v="515404" />
	</node>
	<node lat="58.58231944396291" lon="8.789988887547471" id="-25700">
		<tag k="name" v="Sigaren" />
		<tag k="place" v="islet" />
		<tag k="ssr:stedsnr" v="515496" />
	</node>
	<node lat="58.589788885332695" lon="8.773569441199198" id="-25701">
		<tag k="name" v="Gammeltjønn" />
		<tag k="natural" v="water" />
		<tag k="ssr:stedsnr" v="515498" />
	</node>
	<node lat="58.48977222665345" lon="8.78477777694942" id="-25710">
		<tag k="name" v="Bjørnebotjenn" />
		<tag k="natural" v="water" />
		<tag k="ssr:stedsnr" v="515714" />
	</node>
	<node lat="58.48008888962471" lon="8.792694438649539" id="-25711">
		<tag k="name" v="Heitjenn" />
		<tag k="natural" v="water" />
		<tag k="ssr:stedsnr" v="515721" />
	</node>
	<node lat="58.51769722631844" lon="8.730866669938829" id="-25713">
		<tag k="name" v="Rolandshølen" />
		<tag k="place" v="locality" />
		<tag k="ssr:stedsnr" v="515764" />
	</node>
	<node lat="58.511819448079514" lon="8.725713882731112" id="-25720">
		<tag k="name" v="Lilleelv" />
		<tag k="ssr:stedsnr" v="515680" />
		<tag k="waterway" v="stream" />
	</node>
	<node lat="58.43783611282316" lon="8.60374166543116" id="-25721">
		<tag k="name" v="Neset" />
		<tag k="natural" v="cape" />
		<tag k="ssr:stedsnr" v="515805" />
	</node>
	<node lat="58.49534722541867" lon="8.782000002766" id="-25723">
		<tag k="name" v="Nedre Piletjenn" />
		<tag k="natural" v="water" />
		<tag k="ssr:stedsnr" v="515821" />
	</node>
	<node lat="58.441230551388955" lon="8.528516660939532" id="-25726">
		<tag k="name" v="Haugtjenn" />
		<tag k="natural" v="water" />
		<tag k="ssr:stedsnr" v="515903" />
	</node>
	<node lat="58.51764722080505" lon="8.843202781125303" id="-25731">
		<tag k="alt_name" v="Baffeltjønn" />
		<tag k="name" v="Baffeltjerna" />
		<tag k="natural" v="water" />
		<tag k="ssr:stedsnr" v="546234" />
	</node>
	<node lat="58.54074722424955" lon="8.880705550404013" id="-25763">
		<tag k="name" v="Vivesølstranda" />
		<tag k="natural" v="beach" />
		<tag k="ssr:stedsnr" v="575098" />
	</node>
	<node lat="58.5044388915196" lon="8.770024994528958" id="-25776">
		<tag k="name" v="Smalsund" />
		<tag k="natural" v="strait" />
		<tag k="ssr:stedsnr" v="575295" />
	</node>
	<node lat="58.58058055655511" lon="8.812777781398019" id="-25781">
		<tag k="name" v="Fisketangen" />
		<tag k="natural" v="cape" />
		<tag k="ssr:stedsnr" v="575463" />
	</node>
	<node lat="58.52764999716986" lon="8.757205555755752" id="-25792">
		<tag k="name" v="Kjerstenstjenn" />
		<tag k="natural" v="water" />
		<tag k="ssr:stedsnr" v="575702" />
	</node>
	<node lat="58.45243055350109" lon="8.689002778201695" id="-25795">
		<tag k="name" v="Vassendbukta" />
		<tag k="natural" v="bay" />
		<tag k="ssr:stedsnr" v="575760" />
	</node>
	<node lat="58.459922218684866" lon="8.643483336477187" id="-25799">
		<tag k="name" v="Brattåstjenn" />
		<tag k="natural" v="water" />
		<tag k="ssr:stedsnr" v="575919" />
	</node>
	<node lat="58.50287500403738" lon="8.726677769185205" id="-25802">
		<tag k="name" v="Åletjenn" />
		<tag k="natural" v="water" />
		<tag k="ssr:stedsnr" v="575644" />
	</node>
	<node lat="58.42896111385458" lon="8.56781389264472" id="-25805">
		<tag k="name" v="Tjennheitjenna" />
		<tag k="natural" v="water" />
		<tag k="ssr:stedsnr" v="575807" />
	</node>
	<node lat="58.42586110741195" lon="8.59270556074333" id="-25807">
		<tag k="name" v="Storholmen" />
		<tag k="place" v="islet" />
		<tag k="ssr:stedsnr" v="575818" />
	</node>
	<node lat="58.411219447886566" lon="8.567230551975873" id="-25808">
		<tag k="name" v="Røynånbekken" />
		<tag k="ssr:stedsnr" v="575848" />
		<tag k="waterway" v="stream" />
	</node>
	<node lat="58.45097222362446" lon="8.586880552831566" id="-25811">
		<tag k="name" v="Svartetjenn" />
		<tag k="natural" v="water" />
		<tag k="ssr:stedsnr" v="575862" />
	</node>
	<node lat="58.54637778171538" lon="8.826005563489383" id="-25820">
		<tag k="name" v="Potta" />
		<tag k="place" v="islet" />
		<tag k="ssr:stedsnr" v="697030" />
	</node>
	<node lat="58.582930556817104" lon="8.842605556136016" id="-25834">
		<tag k="name" v="Nesøya" />
		<tag k="natural" v="cape" />
		<tag k="ssr:stedsnr" v="697158" />
	</node>
	<node lat="58.584080554556486" lon="8.83523888565089" id="-25835">
		<tag k="name" v="Skrubbetangen" />
		<tag k="natural" v="cape" />
		<tag k="ssr:stedsnr" v="697161" />
	</node>
	<node lat="58.51331111052525" lon="8.829125001537436" id="-25859">
		<tag k="name" v="Røydalsbekken" />
		<tag k="ssr:stedsnr" v="697441" />
		<tag k="waterway" v="stream" />
	</node>
	<node lat="58.43437500401646" lon="8.616927784072061" id="-25864">
		<tag k="name" v="Nesevja" />
		<tag k="natural" v="water" />
		<tag k="ssr:stedsnr" v="697499" />
		<tag k="water" v="lake" />
	</node>
	<node lat="58.46287221854165" lon="8.735347228719222" id="-25866">
		<tag k="name" v="Solbergvann" />
		<tag k="natural" v="water" />
		<tag k="ssr:stedsnr" v="697570" />
		<tag k="water" v="lake" />
	</node>
	<node lat="58.49453888896275" lon="8.758127776641633" id="-25870">
		<tag k="name" v="Myresholmene" />
		<tag k="place" v="islet" />
		<tag k="ssr:stedsnr" v="697677" />
	</node>
	<node lat="58.51453055174311" lon="8.729411115312026" id="-25878">
		<tag k="name" v="Lonene" />
		<tag k="natural" v="water" />
		<tag k="ssr:stedsnr" v="697650" />
		<tag k="water" v="lake" />
	</node>
	<node lat="58.45710277361384" lon="8.539911104769898" id="-25888">
		<tag k="name" v="Kjerringraua" />
		<tag k="natural" v="bay" />
		<tag k="ssr:stedsnr" v="697857" />
	</node>
	<node lat="58.48829167013772" lon="8.702036110128684" id="-25894">
		<tag k="name" v="Fransåslona" />
		<tag k="natural" v="water" />
		<tag k="ssr:stedsnr" v="697946" />
		<tag k="water" v="lake" />
	</node>
	<node lat="58.45560277668169" lon="8.689508331856574" id="-25897">
		<tag k="name" v="Sagvannet" />
		<tag k="natural" v="water" />
		<tag k="ssr:stedsnr" v="606620" />
		<tag k="water" v="lake" />
	</node>
	<node lat="58.473408331095236" lon="8.7092250021326" id="-25908">
		<tag k="alt_name" v="Skoletjern" />
		<tag k="name" v="Haugåsdalstjenn" />
		<tag k="natural" v="water" />
		<tag k="ssr:stedsnr" v="607651" />
	</node>
	<node lat="58.58566944364708" lon="8.79061666050497" id="-25934">
		<tag k="name" v="Føletjønneset" />
		<tag k="natural" v="cape" />
		<tag k="ssr:stedsnr" v="636510" />
	</node>
	<node lat="58.518702775208936" lon="8.870816658581822" id="-25953">
		<tag k="name" v="Åbelvigfjorden" />
		<tag k="natural" v="bay" />
		<tag k="ssr:stedsnr" v="636817" />
	</node>
	<node lat="58.440263891639624" lon="8.647183335812533" id="-25955">
		<tag k="name" v="Paddetjenn" />
		<tag k="natural" v="water" />
		<tag k="ssr:stedsnr" v="636879" />
	</node>
	<node lat="58.48232778127801" lon="8.779774995544997" id="-25959">
		<tag k="name" v="Store Ribbervann" />
		<tag k="natural" v="water" />
		<tag k="ssr:stedsnr" v="636725" />
		<tag k="water" v="lake" />
	</node>
	<node lat="58.493461110533765" lon="8.791030560538578" id="-25960">
		<tag k="name" v="Enketjenn" />
		<tag k="natural" v="water" />
		<tag k="ssr:stedsnr" v="636735" />
	</node>
	<node lat="58.42766944109552" lon="8.724908338598915" id="-25963">
		<tag k="name" v="Lille Willumsholmen" />
		<tag k="place" v="islet" />
		<tag k="ssr:stedsnr" v="636781" />
	</node>
	<node lat="58.450236113453535" lon="8.57780833886419" id="-25976">
		<tag k="name" v="Breidvannet" />
		<tag k="natural" v="water" />
		<tag k="ssr:stedsnr" v="667597" />
		<tag k="water" v="lake" />
	</node>
	<node lat="58.50298107447684" lon="8.798640629338253" id="-25981">
		<tag k="alt_name" v="Beibitjønn" />
		<tag k="name" v="Beibutjern" />
		<tag k="natural" v="water" />
		<tag k="ssr:stedsnr" v="668531" />
	</node>
	<node lat="58.49588055622573" lon="8.50998334065593" id="-25984">
		<tag k="name" v="Hellarstjenn" />
		<tag k="natural" v="water" />
		<tag k="ssr:stedsnr" v="940940" />
	</node>
	<node lat="58.53095833755043" lon="8.887925003190649" id="-25994">
		<tag k="name" v="Holmen" />
		<tag k="place" v="islet" />
		<tag k="ssr:stedsnr" v="697210" />
	</node>
	<node lat="58.48398333104652" lon="8.830502777933493" id="-26000">
		<tag k="name" v="Ormevikkilen" />
		<tag k="natural" v="water" />
		<tag k="ssr:stedsnr" v="697383" />
	</node>
	<node lat="58.47668055330873" lon="8.746300004649378" id="-26007">
		<tag k="name" v="Katthølen" />
		<tag k="place" v="locality" />
		<tag k="ssr:stedsnr" v="697667" />
	</node>
	<node lat="58.48730278082949" lon="8.812094441189291" id="-26011">
		<tag k="name" v="Sauetjenn" />
		<tag k="natural" v="water" />
		<tag k="ssr:stedsnr" v="697708" />
	</node>
	<node lat="58.534436109767384" lon="8.764108332922632" id="-26012">
		<tag k="name" v="Skuggeviktjenn" />
		<tag k="natural" v="water" />
		<tag k="ssr:stedsnr" v="697709" />
	</node>
	<node lat="58.53031110746521" lon="8.748152782507129" id="-26013">
		<tag k="name" v="Kalstadaua" />
		<tag k="natural" v="water" />
		<tag k="ssr:stedsnr" v="697712" />
	</node>
	<node lat="58.434663891201936" lon="8.57611389588951" id="-26028">
		<tag k="name" v="Langerakstjenn" />
		<tag k="natural" v="water" />
		<tag k="ssr:stedsnr" v="697869" />
	</node>
	<node lat="58.45764444511551" lon="8.521194446952919" id="-26033">
		<tag k="name" v="Tjærebreodden" />
		<tag k="natural" v="cape" />
		<tag k="ssr:stedsnr" v="697964" />
	</node>
	<node lat="58.40814166984631" lon="8.656630554999987" id="-26034">
		<tag k="name" v="Refsnesfossen" />
		<tag k="natural" v="waterfall" />
		<tag k="ssr:stedsnr" v="697978" />
	</node>
	<node lat="58.36598333191291" lon="8.551402780863267" id="-26042">
		<tag k="name" v="Rore" />
		<tag k="natural" v="water" />
		<tag k="ssr:stedsnr" v="728522" />
		<tag k="water" v="lake" />
	</node>
	<node lat="58.46274167090567" lon="8.883449999542963" id="-26049">
		<tag k="alt_name" v="Botnetjenn" />
		<tag k="name" v="Botnetjerna" />
		<tag k="natural" v="water" />
		<tag k="ssr:stedsnr" v="728927" />
	</node>
	<node lat="58.51156673991858" lon="8.833753403510688" id="-26054">
		<tag k="alt_name" v="Totjønn" />
		<tag k="name" v="Totjern" />
		<tag k="natural" v="water" />
		<tag k="ssr:stedsnr" v="729524" />
	</node>
	<node lat="58.549894443558884" lon="8.780674991885784" id="-26055">
		<tag k="alt_name" v="Volletjønn" />
		<tag k="name" v="Volletjerna" />
		<tag k="natural" v="water" />
		<tag k="ssr:stedsnr" v="729671" />
	</node>
	<node lat="58.56916110783241" lon="8.811330553734969" id="-26057">
		<tag k="alt_name" v="Glomstjønn" />
		<tag k="name" v="Glomstjern" />
		<tag k="natural" v="water" />
		<tag k="ssr:stedsnr" v="729848" />
	</node>
	<node lat="58.47492222096943" lon="8.508461107398437" id="-26074">
		<tag k="name" v="Rindetjenn" />
		<tag k="natural" v="water" />
		<tag k="ssr:stedsnr" v="757903" />
	</node>
	<node lat="58.460905553598586" lon="8.511913890457041" id="-26076">
		<tag k="name" v="Rapenes" />
		<tag k="natural" v="cape" />
		<tag k="ssr:stedsnr" v="757907" />
	</node>
	<node lat="58.458638887765225" lon="8.518113885775604" id="-26077">
		<tag k="name" v="Fiskodden" />
		<tag k="natural" v="cape" />
		<tag k="ssr:stedsnr" v="757910" />
	</node>
	<node lat="58.54003333697515" lon="8.782311115190398" id="-26085">
		<tag k="name" v="Småtjønnene" />
		<tag k="natural" v="water" />
		<tag k="ssr:stedsnr" v="758457" />
		<tag k="water" v="lake" />
	</node>
	<node lat="58.46914166486526" lon="8.9055194392062" id="-26087">
		<tag k="name" v="Tromlingpynten" />
		<tag k="natural" v="cape" />
		<tag k="ssr:stedsnr" v="758323" />
	</node>
	<node lat="58.490127780336095" lon="8.810569438945668" id="-26095">
		<tag k="name" v="Simenstjenn" />
		<tag k="natural" v="water" />
		<tag k="ssr:stedsnr" v="758710" />
	</node>
	<node lat="58.41698055530631" lon="8.585080563303844" id="-26107">
		<tag k="name" v="Store Stagernesodde" />
		<tag k="natural" v="cape" />
		<tag k="ssr:stedsnr" v="758819" />
	</node>
	<node lat="58.44167529070518" lon="8.537436582594886" id="-26120">
		<tag k="alt_name" v="Bjellandstjenn" />
		<tag k="name" v="Bjellandstjern" />
		<tag k="natural" v="water" />
		<tag k="ssr:stedsnr" v="910613" />
	</node>
	<node lat="58.485044445405066" lon="8.68990000207712" id="-26123">
		<tag k="name" v="Assævannet" />
		<tag k="natural" v="water" />
		<tag k="ssr:stedsnr" v="910672" />
		<tag k="water" v="lake" />
	</node>
	<node lat="58.553680551094025" lon="8.95882222237302" id="-26134">
		<tag k="alt_name" v="Vindkoltjern" />
		<tag k="name" v="Vindkollvannet" />
		<tag k="natural" v="water" />
		<tag k="ssr:stedsnr" v="911238" />
	</node>
	<node lat="58.58481666718982" lon="8.848774999082234" id="-26140">
		<tag k="name" v="Jorstadvann" />
		<tag k="natural" v="water" />
		<tag k="ssr:stedsnr" v="789322" />
		<tag k="water" v="lake" />
	</node>
	<node lat="58.50021632843941" lon="8.78370477432034" id="-26142">
		<tag k="name" v="Øvre Piletjenn" />
		<tag k="natural" v="water" />
		<tag k="ssr:stedsnr" v="911524" />
	</node>
	<node lat="58.50888888452909" lon="8.805541672455423" id="-26144">
		<tag k="alt_name" v="Lilletjønn" />
		<tag k="name" v="Lilletjern" />
		<tag k="natural" v="water" />
		<tag k="ssr:stedsnr" v="789499" />
	</node>
	<node lat="58.50735555403794" lon="8.802408330544043" id="-26145">
		<tag k="alt_name" v="Storetjønn" />
		<tag k="name" v="Stortjern" />
		<tag k="natural" v="water" />
		<tag k="ssr:stedsnr" v="789500" />
	</node>
	<node lat="58.58571388757191" lon="8.837955560750586" id="-26146">
		<tag k="name" v="Jostadvatn" />
		<tag k="natural" v="water" />
		<tag k="ssr:stedsnr" v="789824" />
		<tag k="water" v="lake" />
	</node>
	<node lat="58.54321944364841" lon="8.81824721756176" id="-26152">
		<tag k="name" v="Molandsvann" />
		<tag k="natural" v="water" />
		<tag k="ssr:stedsnr" v="911683" />
		<tag k="water" v="lake" />
	</node>
	<node lat="58.419241664002094" lon="8.721558327449394" id="-26173">
		<tag k="name" v="Havodden" />
		<tag k="natural" v="cape" />
		<tag k="ssr:stedsnr" v="818227" />
	</node>
	<node lat="58.488616663548434" lon="8.676352774437913" id="-26184">
		<tag k="name" v="Eikelibekken" />
		<tag k="ssr:stedsnr" v="818982" />
		<tag k="waterway" v="stream" />
	</node>
	<node lat="58.50529999626846" lon="8.870463881167648" id="-26190">
		<tag k="name" v="Stemmetjønn" />
		<tag k="natural" v="water" />
		<tag k="ssr:stedsnr" v="819470" />
	</node>
	<node lat="58.48941461597982" lon="8.51911085561269" id="-26196">
		<tag k="name" v="Nordkilen" />
		<tag k="natural" v="bay" />
		<tag k="ssr:stedsnr" v="838937" />
	</node>
	<node lat="58.591340821321324" lon="8.818772125559258" id="-26205">
		<tag k="name" v="Kjerrvatjørnane" />
		<tag k="natural" v="water" />
		<tag k="ssr:stedsnr" v="850811" />
		<tag k="water" v="lake" />
	</node>
	<node lat="58.53217500229473" lon="8.77158054745852" id="-26206">
		<tag k="alt_name" v="Kroktjønn;Kroktjenn" />
		<tag k="name" v="Kroktjern" />
		<tag k="natural" v="water" />
		<tag k="ssr:stedsnr" v="851141" />
	</node>
	<node lat="58.55413055664175" lon="8.844658327897102" id="-26218">
		<tag k="name" v="Tjønnerdalsbekken" />
		<tag k="ssr:stedsnr" v="879004" />
		<tag k="waterway" v="stream" />
	</node>
	<node lat="58.4225611091" lon="8.727466668571154" id="-26233">
		<tag k="name" v="Seksmannsstrømmen" />
		<tag k="ssr:stedsnr" v="879206" />
		<tag k="waterway" v="rapids" />
	</node>
	<node lat="58.564963887830736" lon="8.940352786092646" id="-26251">
		<tag k="name" v="Midtre Kroktjønn" />
		<tag k="natural" v="water" />
		<tag k="ssr:stedsnr" v="879756" />
	</node>
	<node lat="58.44855555849652" lon="8.683161113159727" id="-26254">
		<tag k="name" v="Gausplasstjenn" />
		<tag k="natural" v="water" />
		<tag k="ssr:stedsnr" v="879763" />
	</node>
	<node lat="58.49294999802705" lon="8.784688881632434" id="-26257">
		<tag k="name" v="Piletjennbekken" />
		<tag k="ssr:stedsnr" v="879700" />
		<tag k="waterway" v="stream" />
	</node>
	<node lat="58.4244777810511" lon="8.553869440299396" id="-26258">
		<tag k="name" v="Røynevasskilen" />
		<tag k="natural" v="bay" />
		<tag k="ssr:stedsnr" v="879853" />
	</node>
	<node lat="58.42839722334286" lon="8.575019445195272" id="-26259">
		<tag k="name" v="Runde Rokketjenn" />
		<tag k="natural" v="water" />
		<tag k="ssr:stedsnr" v="879810" />
	</node>
	<node lat="58.4565833313527" lon="8.515930547681215" id="-26262">
		<tag k="name" v="Ropatangen" />
		<tag k="natural" v="cape" />
		<tag k="ssr:stedsnr" v="879908" />
	</node>
	<node lat="58.41704166797403" lon="8.554377781655992" id="-26276">
		<tag k="name" v="Røynevannet" />
		<tag k="natural" v="water" />
		<tag k="ssr:stedsnr" v="910594" />
		<tag k="water" v="lake" />
	</node>
	<node lat="58.531641670250934" lon="8.887800001084212" id="-26284">
		<tag k="name" v="Strengereidvannet" />
		<tag k="natural" v="water" />
		<tag k="ssr:stedsnr" v="911260" />
		<tag k="water" v="lake" />
	</node>
	<node lat="58.50544166785076" lon="8.691077777003185" id="-26286">
		<tag k="alt_name" v="Tversavvegtjenn" />
		<tag k="name" v="Kroktjern" />
		<tag k="natural" v="water" />
		<tag k="ssr:stedsnr" v="911510" />
	</node>
	<node lat="58.53857777392134" lon="8.780702775031807" id="-26287">
		<tag k="alt_name" v="Bukketjønn" />
		<tag k="name" v="Bukketjern" />
		<tag k="natural" v="water" />
		<tag k="ssr:stedsnr" v="911704" />
	</node>
	<node lat="58.52683055331462" lon="8.751488884061569" id="-26289">
		<tag k="alt_name" v="Kalstadtjenn" />
		<tag k="name" v="Kallstadtjern" />
		<tag k="natural" v="water" />
		<tag k="ssr:stedsnr" v="911732" />
	</node>
	<node lat="58.50316388507697" lon="8.838097226391064" id="-26301">
		<tag k="name" v="Nertjønn" />
		<tag k="natural" v="water" />
		<tag k="ssr:stedsnr" v="940042" />
	</node>
	<node lat="58.42662500118378" lon="8.53636389042251" id="-26358">
		<tag k="name" v="Buvannet" />
		<tag k="natural" v="water" />
		<tag k="ssr:stedsnr" v="592" />
		<tag k="water" v="lake" />
	</node>
	<node lat="58.525688831204896" lon="8.774548454993743" id="-26366">
		<tag k="alt_name" v="Lauvtjønn" />
		<tag k="loc_name" v="Laugetjern" />
		<tag k="name" v="Lauvtjern" />
		<tag k="natural" v="water" />
		<tag k="ssr:stedsnr" v="1707" />
	</node>
	<node lat="58.501088890968745" lon="8.7653638955557" id="-26373">
		<tag k="name" v="Longumneset" />
		<tag k="natural" v="cape" />
		<tag k="ssr:stedsnr" v="1532" />
	</node>
	<node lat="58.53893332916056" lon="8.834027777361177" id="-26375">
		<tag k="name" v="Løkilen" />
		<tag k="natural" v="bay" />
		<tag k="ssr:stedsnr" v="1678" />
	</node>
	<node lat="58.48221666347972" lon="8.779686104116365" id="-26376">
		<tag k="name" v="Ribuvanna" />
		<tag k="natural" v="water" />
		<tag k="ssr:stedsnr" v="2439" />
	</node>
	<node lat="58.53480000192707" lon="8.851255550326371" id="-26385">
		<tag k="name" v="Kjærhølen" />
		<tag k="place" v="locality" />
		<tag k="ssr:stedsnr" v="30088" />
	</node>
	<node lat="58.53254166231005" lon="8.85206667188686" id="-26386">
		<tag k="name" v="Leirbekk" />
		<tag k="ssr:stedsnr" v="30089" />
		<tag k="waterway" v="stream" />
	</node>
	<node lat="58.43218333433158" lon="8.606311107872134" id="-26399">
		<tag k="name" v="Bervafjell" />
		<tag k="place" v="locality" />
		<tag k="ssr:stedsnr" v="29526" />
	</node>
	<node lat="58.48691944467329" lon="8.722072222065412" id="-26404">
		<tag k="name" v="Smedplasstjenn" />
		<tag k="natural" v="water" />
		<tag k="ssr:stedsnr" v="29687" />
	</node>
	<node lat="58.456605553331734" lon="8.588133330797213" id="-26417">
		<tag k="name" v="Fompenborgtjenn" />
		<tag k="natural" v="water" />
		<tag k="ssr:stedsnr" v="29894" />
	</node>
	<node lat="58.45525555992087" lon="8.518380561246733" id="-26418">
		<tag k="name" v="Skjæret" />
		<tag k="place" v="islet" />
		<tag k="ssr:stedsnr" v="29908" />
	</node>
	<node lat="58.43139444003384" lon="8.547583326080765" id="-26420">
		<tag k="name" v="Øvre Bjortjenn" />
		<tag k="natural" v="water" />
		<tag k="ssr:stedsnr" v="29912" />
	</node>
	<node lat="58.54102221893247" lon="8.928000000316997" id="-26426">
		<tag k="name" v="Storhagtjønn" />
		<tag k="natural" v="water" />
		<tag k="ssr:stedsnr" v="30028" />
	</node>
	<node lat="58.466413890723054" lon="8.704188889817942" id="-26428">
		<tag k="name" v="Bergtjenn" />
		<tag k="natural" v="water" />
		<tag k="ssr:stedsnr" v="29992" />
	</node>
	<node lat="58.55392778060981" lon="8.966597217543658" id="-26434">
		<tag k="name" v="Fantodden" />
		<tag k="natural" v="cape" />
		<tag k="ssr:stedsnr" v="30228" />
	</node>
	<node lat="58.540452781559004" lon="8.809097223710728" id="-26440">
		<tag k="name" v="Sanden" />
		<tag k="natural" v="beach" />
		<tag k="ssr:stedsnr" v="30424" />
	</node>
	<node lat="58.52970555587502" lon="8.806422218918607" id="-26449">
		<tag k="name" v="Hagebekken" />
		<tag k="ssr:stedsnr" v="30396" />
		<tag k="waterway" v="stream" />
	</node>
	<node lat="58.51882222017211" lon="8.776061111510025" id="-26450">
		<tag k="name" v="Nordnestjønn" />
		<tag k="natural" v="water" />
		<tag k="ssr:stedsnr" v="30397" />
	</node>
	<node lat="58.46937499786627" lon="8.759755551226734" id="-26459">
		<tag k="name" v="Langsævann" />
		<tag k="natural" v="water" />
		<tag k="ssr:stedsnr" v="30929" />
		<tag k="water" v="lake" />
	</node>
	<node lat="58.48844444436848" lon="8.521119440162632" id="-26462">
		<tag k="name" v="Nordneset" />
		<tag k="natural" v="cape" />
		<tag k="ssr:stedsnr" v="30954" />
	</node>
	<node lat="58.45900277423968" lon="8.668330548922201" id="-26464">
		<tag k="name" v="Bjørnsteinstjenn" />
		<tag k="natural" v="water" />
		<tag k="ssr:stedsnr" v="30987" />
	</node>
	<node lat="58.499513890131325" lon="8.505944451497843" id="-26469">
		<tag k="name" v="Sandtjennfossen" />
		<tag k="natural" v="waterfall" />
		<tag k="ssr:stedsnr" v="49463" />
	</node>
	<node lat="58.46737221809271" lon="8.523486107355522" id="-26475">
		<tag k="alt_name" v="Stemmetjenn" />
		<tag k="name" v="Stemmetjern" />
		<tag k="natural" v="water" />
		<tag k="ssr:stedsnr" v="61640" />
	</node>
	<node lat="58.544594444281934" lon="8.816169440031688" id="-26477">
		<tag k="name" v="Tangen" />
		<tag k="natural" v="cape" />
		<tag k="ssr:stedsnr" v="61659" />
	</node>
	<node lat="58.58105832916473" lon="8.760480548376938" id="-26481">
		<tag k="name" v="Pottjern" />
		<tag k="natural" v="water" />
		<tag k="ssr:stedsnr" v="61860" />
	</node>
	<node lat="58.489605557114984" lon="8.706497224313166" id="-26508">
		<tag k="name" v="Saulelona" />
		<tag k="natural" v="water" />
		<tag k="ssr:stedsnr" v="90927" />
		<tag k="water" v="lake" />
	</node>
	<node lat="58.44195278192373" lon="8.648238881160601" id="-26511">
		<tag k="name" v="Iletjenn" />
		<tag k="natural" v="water" />
		<tag k="ssr:stedsnr" v="90956" />
	</node>
	<node lat="58.445186114901674" lon="8.740311116888723" id="-26519">
		<tag k="name" v="Sagodden" />
		<tag k="natural" v="cape" />
		<tag k="ssr:stedsnr" v="90225" />
	</node>
	<node lat="58.48389999849406" lon="8.824769436901446" id="-26536">
		<tag k="name" v="Svartetjenn" />
		<tag k="natural" v="water" />
		<tag k="ssr:stedsnr" v="90359" />
	</node>
	<node lat="58.54979722059387" lon="8.817080559466886" id="-26541">
		<tag k="name" v="Bjørkekjerrbukta" />
		<tag k="natural" v="bay" />
		<tag k="ssr:stedsnr" v="90411" />
	</node>
	<node lat="58.4048939625569" lon="8.644733516932579" id="-26552">
		<tag k="name" v="Kalvehagfossen" />
		<tag k="natural" v="waterfall" />
		<tag k="ssr:stedsnr" v="90711" />
	</node>
	<node lat="58.42136944496872" lon="8.554197226346457" id="-26554">
		<tag k="name" v="Tolleholmen" />
		<tag k="place" v="islet" />
		<tag k="ssr:stedsnr" v="90853" />
	</node>
	<node lat="58.51311944411256" lon="8.73570278364739" id="-26559">
		<tag k="name" v="Nedre Porttjenn" />
		<tag k="natural" v="water" />
		<tag k="ssr:stedsnr" v="90652" />
	</node>
	<node lat="58.434005556145074" lon="8.714830556200615" id="-26565">
		<tag k="name" v="Skarpenestangen" />
		<tag k="natural" v="cape" />
		<tag k="ssr:stedsnr" v="90794" />
	</node>
	<node lat="58.464291662977395" lon="8.683849998658138" id="-26568">
		<tag k="name" v="Bråstadtjenn" />
		<tag k="natural" v="water" />
		<tag k="ssr:stedsnr" v="90993" />
	</node>
	<node lat="58.46235277981215" lon="8.883830562552536" id="-26573">
		<tag k="name" v="Botnekjenn" />
		<tag k="natural" v="water" />
		<tag k="ssr:stedsnr" v="116026" />
	</node>
	<node lat="58.46327500297819" lon="8.585588894005003" id="-26580">
		<tag k="name" v="Reiersølvannet" />
		<tag k="natural" v="water" />
		<tag k="ssr:stedsnr" v="121646" />
		<tag k="water" v="lake" />
	</node>
	<node lat="58.57497777920656" lon="8.936497225412142" id="-26587">
		<tag k="alt_name" v="Åltjenn;Åltjern" />
		<tag k="name" v="Åltjønn" />
		<tag k="natural" v="water" />
		<tag k="ssr:stedsnr" v="122301" />
	</node>
	<node lat="58.49271388777906" lon="8.839400001755237" id="-26605">
		<tag k="name" v="Svartfoss" />
		<tag k="natural" v="waterfall" />
		<tag k="ssr:stedsnr" v="150273" />
	</node>
	<node lat="58.46674166363331" lon="8.858961102618574" id="-26608">
		<tag k="name" v="Lille Gjerstadvannet" />
		<tag k="natural" v="water" />
		<tag k="ssr:stedsnr" v="150323" />
		<tag k="water" v="lake" />
	</node>
	<node lat="58.52087500072593" lon="8.769394436767351" id="-26612">
		<tag k="name" v="Svartefoss" />
		<tag k="natural" v="waterfall" />
		<tag k="ssr:stedsnr" v="150687" />
	</node>
	<node lat="58.45267500379366" lon="8.86060278589031" id="-26617">
		<tag k="name" v="Skottjenn" />
		<tag k="natural" v="water" />
		<tag k="ssr:stedsnr" v="150721" />
	</node>
	<node lat="58.45782107021045" lon="8.591231566530627" id="-26625">
		<tag k="name" v="Tretjennene" />
		<tag k="natural" v="water" />
		<tag k="ssr:stedsnr" v="150884" />
		<tag k="water" v="lake" />
	</node>
	<node lat="58.518566662852955" lon="8.743386114618056" id="-26627">
		<tag k="name" v="Småtjenn" />
		<tag k="natural" v="water" />
		<tag k="ssr:stedsnr" v="150701" />
	</node>
	<node lat="58.430744444365125" lon="8.57533888696574" id="-26629">
		<tag k="name" v="Holme Rokketjenn" />
		<tag k="natural" v="water" />
		<tag k="ssr:stedsnr" v="150845" />
	</node>
	<node lat="58.442286109084094" lon="8.64600833329899" id="-26631">
		<tag k="name" v="Stemmetjenn" />
		<tag k="natural" v="water" />
		<tag k="ssr:stedsnr" v="150945" />
	</node>
	<node lat="58.54487516876489" lon="8.925253896984785" id="-26638">
		<tag k="name" v="Gullbergtjønn" />
		<tag k="natural" v="water" />
		<tag k="ssr:stedsnr" v="151120" />
	</node>
	<node lat="58.58473611369799" lon="8.835863883088265" id="-26643">
		<tag k="name" v="Markusholmen" />
		<tag k="place" v="islet" />
		<tag k="ssr:stedsnr" v="151150" />
	</node>
	<node lat="58.41690833416644" lon="8.739627782826037" id="-26644">
		<tag k="name" v="Gampynten" />
		<tag k="natural" v="cape" />
		<tag k="ssr:stedsnr" v="151225" />
	</node>
	<node lat="58.41635277461519" lon="8.719549992694013" id="-26646">
		<tag k="name" v="Natvigstrømmen" />
		<tag k="ssr:stedsnr" v="151228" />
		<tag k="waterway" v="rapids" />
	</node>
	<node lat="58.474330559987706" lon="8.898377775684642" id="-26660">
		<tag k="name" v="Sandbekken" />
		<tag k="ssr:stedsnr" v="151381" />
		<tag k="waterway" v="stream" />
	</node>
	<node lat="58.468122224467095" lon="8.71581111352254" id="-26676">
		<tag k="name" v="Daletjenn" />
		<tag k="natural" v="water" />
		<tag k="ssr:stedsnr" v="151575" />
	</node>
	<node lat="58.498036106918285" lon="8.503199997029101" id="-26695">
		<tag k="name" v="Sandtjenn" />
		<tag k="natural" v="water" />
		<tag k="ssr:stedsnr" v="151980" />
	</node>
	<node lat="58.46409444701253" lon="8.520327776221958" id="-26700">
		<tag k="name" v="Bikkjetjenn" />
		<tag k="natural" v="water" />
		<tag k="ssr:stedsnr" v="272958" />
	</node>
	<node lat="58.48291987406626" lon="8.527421471243605" id="-26707">
		<tag k="name" v="Bjortjenn" />
		<tag k="natural" v="water" />
		<tag k="ssr:stedsnr" v="171935" />
	</node>
	<node lat="58.48749444280385" lon="8.78023333853959" id="-26720">
		<tag k="name" v="Ribbervanna" />
		<tag k="natural" v="water" />
		<tag k="ssr:stedsnr" v="182683" />
	</node>
	<node lat="58.56969166807902" lon="8.838166667187563" id="-26722">
		<tag k="alt_name" v="Stemstjønn" />
		<tag k="name" v="Stemstjern" />
		<tag k="natural" v="water" />
		<tag k="ssr:stedsnr" v="183848" />
	</node>
	<node lat="58.567844443153916" lon="8.790138895139767" id="-26724">
		<tag k="name" v="Bårtjernbekken" />
		<tag k="ssr:stedsnr" v="183863" />
		<tag k="waterway" v="stream" />
	</node>
	<node lat="58.43331944881744" lon="8.752825001405203" id="-26740">
		<tag k="name" v="Stemmen" />
		<tag k="natural" v="water" />
		<tag k="ssr:stedsnr" v="212241" />
		<tag k="water" v="pond" />
	</node>
	<node lat="58.54856388952425" lon="8.833008340320685" id="-26748">
		<tag k="name" v="Lauvtangen" />
		<tag k="natural" v="cape" />
		<tag k="ssr:stedsnr" v="212018" />
	</node>
	<node lat="58.4181777802534" lon="8.718438895694835" id="-26759">
		<tag k="name" v="Bjørnholmen" />
		<tag k="natural" v="cape" />
		<tag k="ssr:stedsnr" v="212218" />
	</node>
	<node lat="58.514744442945805" lon="8.77773610389698" id="-26769">
		<tag k="name" v="Øvre Longumvannet" />
		<tag k="natural" v="water" />
		<tag k="ssr:stedsnr" v="212313" />
		<tag k="water" v="lake" />
	</node>
	<node lat="58.539783332497684" lon="8.82181388109055" id="-26777">
		<tag k="name" v="Harvelandskilen" />
		<tag k="natural" v="bay" />
		<tag k="ssr:stedsnr" v="212423" />
	</node>
	<node lat="58.58008055222986" lon="8.78216388947681" id="-26790">
		<tag k="name" v="Pyttene" />
		<tag k="natural" v="water" />
		<tag k="ssr:stedsnr" v="212457" />
		<tag k="water" v="pond" />
	</node>
	<node lat="58.579586113448336" lon="8.814872223076563" id="-26792">
		<tag k="name" v="Bjelkevika" />
		<tag k="natural" v="bay" />
		<tag k="ssr:stedsnr" v="212470" />
	</node>
	<node lat="58.44193888916021" lon="8.579663883658109" id="-26809">
		<tag k="name" v="Ålekarbekken" />
		<tag k="ssr:stedsnr" v="212856" />
		<tag k="waterway" v="stream" />
	</node>
	<node lat="58.45925277615344" lon="8.70664722952006" id="-26835">
		<tag k="name" v="Sørsvannet" />
		<tag k="natural" v="water" />
		<tag k="ssr:stedsnr" v="303639" />
		<tag k="water" v="lake" />
	</node>
	<node lat="58.45581111557174" lon="8.518280550997108" id="-26836">
		<tag k="name" v="Vigelandsvannet" />
		<tag k="natural" v="water" />
		<tag k="ssr:stedsnr" v="303641" />
		<tag k="water" v="lake" />
	</node>
	<node lat="58.47986666920464" lon="8.638180561786612" id="-26837">
		<tag k="name" v="Messelvannet" />
		<tag k="natural" v="water" />
		<tag k="ssr:stedsnr" v="303664" />
		<tag k="water" v="lake" />
	</node>
	<node lat="58.49168611378575" lon="8.710974998630585" id="-26841">
		<tag k="name" v="Blågestadvannet" />
		<tag k="natural" v="water" />
		<tag k="ssr:stedsnr" v="303681" />
	</node>
	<node lat="58.49270277918011" lon="8.809913890865378" id="-26842">
		<tag k="name" v="Mjåvann" />
		<tag k="natural" v="water" />
		<tag k="ssr:stedsnr" v="303689" />
	</node>
	<node lat="58.47040833760528" lon="8.662066659759562" id="-26855">
		<tag k="name" v="Rossevannet" />
		<tag k="natural" v="water" />
		<tag k="ssr:stedsnr" v="304662" />
	</node>
	<node lat="58.421122222544064" lon="8.729099997326339" id="-26872">
		<tag k="name" v="Gåresund" />
		<tag k="natural" v="strait" />
		<tag k="ssr:stedsnr" v="333258" />
	</node>
	<node lat="58.54992500044273" lon="8.777702776860382" id="-26900">
		<tag k="name" v="Knut Andersens bukt" />
		<tag k="natural" v="bay" />
		<tag k="ssr:stedsnr" v="333443" />
	</node>
	<node lat="58.500238889059176" lon="8.804566665313262" id="-26916">
		<tag k="name" v="Songetjønn" />
		<tag k="natural" v="water" />
		<tag k="ssr:stedsnr" v="333375" />
	</node>
	<node lat="58.58001944561944" lon="8.771188891234639" id="-26924">
		<tag k="name" v="Lille Ubergtjønn" />
		<tag k="natural" v="water" />
		<tag k="ssr:stedsnr" v="333486" />
	</node>
	<node lat="58.462250000767064" lon="8.72100278208892" id="-26928">
		<tag k="name" v="Sandbekk" />
		<tag k="ssr:stedsnr" v="333580" />
		<tag k="waterway" v="stream" />
	</node>
	<node lat="58.4925555587223" lon="8.754341674531538" id="-26935">
		<tag k="name" v="Skiftingsvika" />
		<tag k="natural" v="bay" />
		<tag k="ssr:stedsnr" v="333678" />
	</node>
	<node lat="58.49550555524763" lon="8.719986113291709" id="-26937">
		<tag k="name" v="Ormsnes" />
		<tag k="natural" v="cape" />
		<tag k="ssr:stedsnr" v="333683" />
	</node>
	<node lat="58.45453611517591" lon="8.541899996935081" id="-26948">
		<tag k="name" v="Bukketjenn" />
		<tag k="natural" v="water" />
		<tag k="ssr:stedsnr" v="333877" />
	</node>
	<node lat="58.47554444341463" lon="8.518274998828804" id="-26950">
		<tag k="name" v="Langetjenn" />
		<tag k="natural" v="water" />
		<tag k="ssr:stedsnr" v="333884" />
	</node>
	<node lat="58.42045555701363" lon="8.564580555551146" id="-26955">
		<tag k="name" v="Veisebukilen" />
		<tag k="natural" v="bay" />
		<tag k="ssr:stedsnr" v="333834" />
	</node>
	<node lat="58.489199999807276" lon="8.704141658323664" id="-26959">
		<tag k="name" v="Kattehølen" />
		<tag k="place" v="locality" />
		<tag k="ssr:stedsnr" v="333941" />
	</node>
	<node lat="58.46718611081973" lon="8.618627777790294" id="-26961">
		<tag k="name" v="Riseevja" />
		<tag k="natural" v="water" />
		<tag k="ssr:stedsnr" v="333978" />
		<tag k="water" v="lake" />
	</node>
	<node lat="58.458633336639316" lon="8.692549996368221" id="-26963">
		<tag k="name" v="Midtre Sagvann" />
		<tag k="natural" v="water" />
		<tag k="ssr:stedsnr" v="333993" />
		<tag k="water" v="lake" />
	</node>
	<node lat="58.52711944329769" lon="8.799122226941272" id="-26977">
		<tag k="alt_name" v="Viddertjønn" />
		<tag k="name" v="Kvitetjern" />
		<tag k="natural" v="water" />
		<tag k="ssr:stedsnr" v="365732" />
	</node>
	<node lat="58.556211111943156" lon="8.83421111050481" id="-26994">
		<tag k="name" v="Kvernhusbekken" />
		<tag k="natural" v="water" />
		<tag k="ssr:stedsnr" v="393020" />
	</node>
	<node lat="58.53214444214089" lon="8.8851055592097" id="-27009">
		<tag k="name" v="Vidergåttvika" />
		<tag k="natural" v="bay" />
		<tag k="ssr:stedsnr" v="393180" />
	</node>
	<node lat="58.50456666952747" lon="8.793600000243387" id="-27021">
		<tag k="name" v="Snømyrtjønn" />
		<tag k="natural" v="water" />
		<tag k="ssr:stedsnr" v="393325" />
	</node>
	<node lat="58.50232222153614" lon="8.77114444832739" id="-27022">
		<tag k="name" v="Longumkilen" />
		<tag k="natural" v="water" />
		<tag k="ssr:stedsnr" v="393327" />
		<tag k="water" v="lake" />
	</node>
	<node lat="58.541738884607746" lon="8.81511944984812" id="-27032">
		<tag k="name" v="Skrattholmen" />
		<tag k="place" v="islet" />
		<tag k="ssr:stedsnr" v="393428" />
	</node>
	<node lat="58.574014998769606" lon="8.784840776747973" id="-27035">
		<tag k="name" v="Grasteintjønnene" />
		<tag k="natural" v="water" />
		<tag k="ssr:stedsnr" v="393465" />
		<tag k="water" v="lake" />
	</node>
</osm>
