<?xml version="1.0" encoding="UTF-8"?>
<osm version="0.6" generator="osmapis">
	<node id="1965509586" lat="65.0886481" lon="12.3737769" version="6" timestamp="2022-07-18T16:45:46Z" changeset="123771884" uid="3497659" user="NKA">
		<tag k="name" v="Terråk" />
		<tag k="name:sma" v="Dearohke" />
		<tag k="place" v="village" />
		<tag k="population" v="515" />
		<tag k="population:date" v="2021-01-01" />
		<tag k="ref:ssb_tettsted" v="7521" />
		<tag k="source:population" v="SSB - befolkning i tettstedet" />
		<tag k="ssr:stedsnr" v="803442" />
	</node>
	<node id="2351108069" lat="65.038936" lon="12.672444" version="2" timestamp="2018-05-02T17:03:47Z" changeset="58620907" uid="3497659" user="NKA">
		<tag k="name" v="Tangan" />
		<tag k="natural" v="cape" />
		<tag k="source" v="Kartverket" />
		<tag k="ssr:stedsnr" v="925636" />
	</node>
	<node id="2638259193" lat="65.1266848" lon="12.2304512" version="3" timestamp="2022-07-18T16:45:46Z" changeset="123771884" uid="3497659" user="NKA">
		<tag k="name" v="Bindalseidet" />
		<tag k="place" v="village" />
		<tag k="ssr:stedsnr" v="136411" />
	</node>
	<node id="2638259194" lat="65.1999396" lon="12.243196" version="2" timestamp="2022-07-18T16:45:46Z" changeset="123771884" uid="3497659" user="NKA">
		<tag k="name" v="Røytvoll" />
		<tag k="place" v="hamlet" />
		<tag k="ssr:stedsnr" v="318277" />
	</node>
	<node id="2638259195" lat="65.1833531" lon="12.124369" version="3" timestamp="2022-07-18T16:45:46Z" changeset="123771884" uid="3497659" user="NKA">
		<tag k="name" v="Holm" />
		<tag k="place" v="village" />
		<tag k="ssr:stedsnr" v="925942" />
	</node>
	<node id="2967297260" lat="65.0501355" lon="12.5086244" version="2" timestamp="2022-07-18T16:45:46Z" changeset="123771884" uid="3497659" user="NKA">
		<tag k="alt_name" v="Horstad" />
		<tag k="name" v="Hårstad" />
		<tag k="place" v="farm" />
		<tag k="ssr:stedsnr" v="136509" />
	</node>
	<node id="4245140122" lat="65.034559" lon="12.5488249" version="2" timestamp="2022-07-18T16:45:46Z" changeset="123771884" uid="3497659" user="NKA">
		<tag k="name" v="Fuglstad" />
		<tag k="place" v="hamlet" />
		<tag k="ssr:stedsnr" v="864651" />
	</node>
	<node id="4247407963" lat="65.1395557" lon="12.4691423" version="2" timestamp="2022-07-18T16:45:46Z" changeset="123771884" uid="3497659" user="NKA">
		<tag k="name" v="Reppa" />
		<tag k="place" v="hamlet" />
		<tag k="ssr:stedsnr" v="621385" />
	</node>
	<node id="4247408278" lat="65.0163843" lon="12.7362809" version="2" timestamp="2022-07-18T16:45:46Z" changeset="123771884" uid="3497659" user="NKA">
		<tag k="name" v="Åbjøra - Diedtjie" />
		<tag k="name:no" v="Åbjøra" />
		<tag k="name:sma" v="Diedtjie" />
		<tag k="place" v="farm" />
		<tag k="ssr:stedsnr" v="621578" />
	</node>
	<node id="6211163265" lat="65.2716216" lon="12.4294717" version="2" timestamp="2022-07-18T16:45:46Z" changeset="123771884" uid="3497659" user="NKA">
		<tag k="alt_name" v="Harangsfjord" />
		<tag k="name" v="Hardangen" />
		<tag k="place" v="hamlet" />
		<tag k="ssr:stedsnr" v="379243" />
	</node>
	<node id="9895615981" lat="65.1461891" lon="12.1991647" version="1" timestamp="2022-07-18T16:45:46Z" changeset="123771884" uid="3497659" user="NKA">
		<tag k="name" v="Storenget" />
		<tag k="place" v="isolated_dwelling" />
		<tag k="ssr:stedsnr" v="906554" />
	</node>
	<node id="9895615982" lat="65.2497927" lon="12.4438178" version="1" timestamp="2022-07-18T16:45:46Z" changeset="123771884" uid="3497659" user="NKA">
		<tag k="name" v="Eidet" />
		<tag k="place" v="farm" />
		<tag k="ssr:stedsnr" v="925224" />
	</node>
	<node id="9895615983" lat="65.0606311" lon="12.2062093" version="1" timestamp="2022-07-18T16:45:46Z" changeset="123771884" uid="3497659" user="NKA">
		<tag k="name" v="Olderskogen" />
		<tag k="place" v="isolated_dwelling" />
		<tag k="ssr:stedsnr" v="906966" />
	</node>
	<node id="9895615984" lat="65.2722746" lon="12.5448105" version="1" timestamp="2022-07-18T16:45:46Z" changeset="123771884" uid="3497659" user="NKA">
		<tag k="alt_name" v="Fjellet" />
		<tag k="name" v="Kvatsteinbukta" />
		<tag k="place" v="locality" />
		<tag k="ssr:stedsnr" v="76259" />
	</node>
	<node id="9895615985" lat="65.1139833" lon="12.2333555" version="1" timestamp="2022-07-18T16:45:46Z" changeset="123771884" uid="3497659" user="NKA">
		<tag k="alt_name" v="Sørheim" />
		<tag k="name" v="Søheim" />
		<tag k="place" v="farm" />
		<tag k="ssr:stedsnr" v="804385" />
	</node>
	<node id="9895615986" lat="65.0631012" lon="12.465015" version="1" timestamp="2022-07-18T16:45:46Z" changeset="123771884" uid="3497659" user="NKA">
		<tag k="name" v="Rossdalen" />
		<tag k="place" v="farm" />
		<tag k="ssr:stedsnr" v="804471" />
	</node>
	<node id="9895615987" lat="65.2264275" lon="12.362588" version="1" timestamp="2022-07-18T16:45:46Z" changeset="123771884" uid="3497659" user="NKA">
		<tag k="name" v="Skotnes" />
		<tag k="place" v="hamlet" />
		<tag k="ssr:stedsnr" v="318225" />
	</node>
	<node id="9895615988" lat="65.11891" lon="12.5183322" version="1" timestamp="2022-07-18T16:45:46Z" changeset="123771884" uid="3497659" user="NKA">
		<tag k="name" v="Sjøhaugen" />
		<tag k="place" v="farm" />
		<tag k="ssr:stedsnr" v="56691" />
	</node>
	<node id="9895615989" lat="65.102575" lon="11.9879556" version="1" timestamp="2022-07-18T16:45:46Z" changeset="123771884" uid="3497659" user="NKA">
		<tag k="name" v="Heimstad" />
		<tag k="place" v="farm" />
		<tag k="ssr:stedsnr" v="743452" />
	</node>
	<node id="9895615990" lat="65.0989555" lon="12.329175" version="1" timestamp="2022-07-18T16:45:46Z" changeset="123771884" uid="3497659" user="NKA">
		<tag k="name" v="Hildringsaunet" />
		<tag k="place" v="locality" />
		<tag k="ssr:stedsnr" v="764518" />
	</node>
	<node id="9895615991" lat="65.0515055" lon="12.5107056" version="1" timestamp="2022-07-18T16:45:46Z" changeset="123771884" uid="3497659" user="NKA">
		<tag k="name" v="Nordgården" />
		<tag k="place" v="locality" />
		<tag k="ssr:stedsnr" v="421501" />
	</node>
	<node id="9895615992" lat="65.044748" lon="12.1492474" version="1" timestamp="2022-07-18T16:45:46Z" changeset="123771884" uid="3497659" user="NKA">
		<tag k="name" v="Årsand" />
		<tag k="place" v="hamlet" />
		<tag k="ssr:stedsnr" v="743149" />
	</node>
	<node id="9895615993" lat="65.1180148" lon="12.5132559" version="1" timestamp="2022-07-18T16:45:46Z" changeset="123771884" uid="3497659" user="NKA">
		<tag k="name" v="Myran" />
		<tag k="place" v="farm" />
		<tag k="ssr:stedsnr" v="420701" />
	</node>
	<node id="9895615994" lat="65.0391922" lon="12.0907876" version="1" timestamp="2022-07-18T16:45:46Z" changeset="123771884" uid="3497659" user="NKA">
		<tag k="alt_name" v="Dybvik" />
		<tag k="name" v="Djupvika" />
		<tag k="place" v="hamlet" />
		<tag k="ssr:stedsnr" v="682155" />
	</node>
	<node id="9895615995" lat="65.1358416" lon="12.5901611" version="1" timestamp="2022-07-18T16:45:46Z" changeset="123771884" uid="3497659" user="NKA">
		<tag k="name" v="Urdeidet" />
		<tag k="place" v="isolated_dwelling" />
		<tag k="ssr:stedsnr" v="743392" />
	</node>
	<node id="9895615996" lat="65.2235721" lon="12.3487289" version="1" timestamp="2022-07-18T16:45:46Z" changeset="123771884" uid="3497659" user="NKA">
		<tag k="name" v="Sponvika" />
		<tag k="place" v="farm" />
		<tag k="ssr:stedsnr" v="257241" />
	</node>
	<node id="9895615997" lat="65.2590165" lon="12.3843595" version="1" timestamp="2022-07-18T16:45:46Z" changeset="123771884" uid="3497659" user="NKA">
		<tag k="name" v="Båtneset" />
		<tag k="place" v="hamlet" />
		<tag k="ssr:stedsnr" v="864138" />
	</node>
	<node id="9895615998" lat="65.1831305" lon="12.4569112" version="1" timestamp="2022-07-18T16:45:46Z" changeset="123771884" uid="3497659" user="NKA">
		<tag k="name" v="Elvan" />
		<tag k="place" v="isolated_dwelling" />
		<tag k="ssr:stedsnr" v="15330" />
	</node>
	<node id="9895615999" lat="65.1124294" lon="12.4897078" version="1" timestamp="2022-07-18T16:45:46Z" changeset="123771884" uid="3497659" user="NKA">
		<tag k="name" v="Løkroken" />
		<tag k="place" v="farm" />
		<tag k="ssr:stedsnr" v="541692" />
	</node>
	<node id="9895616000" lat="65.1135976" lon="12.4923411" version="1" timestamp="2022-07-18T16:45:46Z" changeset="123771884" uid="3497659" user="NKA">
		<tag k="name" v="Hatlan" />
		<tag k="place" v="farm" />
		<tag k="ssr:stedsnr" v="541691" />
	</node>
	<node id="9895616001" lat="65.2569139" lon="12.3269694" version="1" timestamp="2022-07-18T16:45:46Z" changeset="123771884" uid="3497659" user="NKA">
		<tag k="name" v="Melkarvika" />
		<tag k="place" v="locality" />
		<tag k="ssr:stedsnr" v="843871" />
	</node>
	<node id="9895616002" lat="65.1193182" lon="12.5263133" version="1" timestamp="2022-07-18T16:45:46Z" changeset="123771884" uid="3497659" user="NKA">
		<tag k="name" v="Haugen" />
		<tag k="place" v="farm" />
		<tag k="ssr:stedsnr" v="541687" />
	</node>
	<node id="9895616003" lat="65.189011" lon="12.1713544" version="1" timestamp="2022-07-18T16:45:46Z" changeset="123771884" uid="3497659" user="NKA">
		<tag k="name" v="Heimgården" />
		<tag k="place" v="farm" />
		<tag k="ssr:stedsnr" v="602683" />
	</node>
	<node id="9895616004" lat="65.2260198" lon="12.3709079" version="1" timestamp="2022-07-18T16:45:46Z" changeset="123771884" uid="3497659" user="NKA">
		<tag k="name" v="Bakken" />
		<tag k="place" v="isolated_dwelling" />
		<tag k="ssr:stedsnr" v="479846" />
	</node>
	<node id="9895616005" lat="65.1161223" lon="12.4984886" version="1" timestamp="2022-07-18T16:45:46Z" changeset="123771884" uid="3497659" user="NKA">
		<tag k="name" v="Oppgarden" />
		<tag k="place" v="farm" />
		<tag k="ssr:stedsnr" v="602363" />
	</node>
	<node id="9895616006" lat="65.1197994" lon="12.5335347" version="1" timestamp="2022-07-18T16:45:46Z" changeset="123771884" uid="3497659" user="NKA">
		<tag k="name" v="Løenget" />
		<tag k="place" v="farm" />
		<tag k="ssr:stedsnr" v="621413" />
	</node>
	<node id="9895616007" lat="65.1160278" lon="12.5221223" version="1" timestamp="2022-07-18T16:45:46Z" changeset="123771884" uid="3497659" user="NKA">
		<tag k="name" v="Moen" />
		<tag k="place" v="farm" />
		<tag k="ssr:stedsnr" v="621427" />
	</node>
	<node id="9895616008" lat="65.2117203" lon="12.4448978" version="1" timestamp="2022-07-18T16:45:46Z" changeset="123771884" uid="3497659" user="NKA">
		<tag k="alt_name" v="Trætvika" />
		<tag k="name" v="Trettvika" />
		<tag k="place" v="locality" />
		<tag k="ssr:stedsnr" v="197274" />
	</node>
	<node id="9895616009" lat="65.2056952" lon="12.3234979" version="1" timestamp="2022-07-18T16:45:46Z" changeset="123771884" uid="3497659" user="NKA">
		<tag k="name" v="Stavøya" />
		<tag k="place" v="farm" />
		<tag k="ssr:stedsnr" v="257273" />
	</node>
	<node id="9895616010" lat="65.204425" lon="12.7718807" version="1" timestamp="2022-07-18T16:45:46Z" changeset="123771884" uid="3497659" user="NKA">
		<tag k="name" v="Kolsvik kraftlag" />
		<tag k="place" v="locality" />
		<tag k="ssr:stedsnr" v="586191" />
	</node>
	<node id="9895616011" lat="65.1318214" lon="12.324489" version="1" timestamp="2022-07-18T16:45:46Z" changeset="123771884" uid="3497659" user="NKA">
		<tag k="name" v="Liasjøen" />
		<tag k="place" v="farm" />
		<tag k="ssr:stedsnr" v="15350" />
	</node>
	<node id="9895616012" lat="65.2501567" lon="12.304906" version="1" timestamp="2022-07-18T16:45:46Z" changeset="123771884" uid="3497659" user="NKA">
		<tag k="name" v="Gaupa" />
		<tag k="place" v="hamlet" />
		<tag k="ssr:stedsnr" v="258163" />
	</node>
	<node id="9895616013" lat="65.1870506" lon="12.1724359" version="1" timestamp="2022-07-18T16:45:46Z" changeset="123771884" uid="3497659" user="NKA">
		<tag k="name" v="Sørgården" />
		<tag k="place" v="farm" />
		<tag k="ssr:stedsnr" v="117683" />
	</node>
	<node id="9895616014" lat="65.0517139" lon="12.5460834" version="1" timestamp="2022-07-18T16:45:46Z" changeset="123771884" uid="3497659" user="NKA">
		<tag k="name" v="Klevhaugen" />
		<tag k="place" v="locality" />
		<tag k="ssr:stedsnr" v="358963" />
	</node>
	<node id="9895616015" lat="65.1643691" lon="12.2710915" version="1" timestamp="2022-07-18T16:45:46Z" changeset="123771884" uid="3497659" user="NKA">
		<tag k="name" v="Åkvika" />
		<tag k="place" v="hamlet" />
		<tag k="ssr:stedsnr" v="15309" />
	</node>
	<node id="9895616016" lat="65.1896628" lon="12.1517863" version="1" timestamp="2022-07-18T16:45:46Z" changeset="123771884" uid="3497659" user="NKA">
		<tag k="name" v="Torvhaugan" />
		<tag k="place" v="farm" />
		<tag k="ssr:stedsnr" v="785662" />
	</node>
	<node id="9895633617" lat="65.1358114" lon="12.3375067" version="1" timestamp="2022-07-18T16:45:46Z" changeset="123771884" uid="3497659" user="NKA">
		<tag k="alt_name" v="Skårn" />
		<tag k="name" v="Skåren" />
		<tag k="place" v="farm" />
		<tag k="ssr:stedsnr" v="743352" />
	</node>
	<node id="9895633618" lat="65.1176361" lon="12.4957333" version="1" timestamp="2022-07-18T16:45:46Z" changeset="123771884" uid="3497659" user="NKA">
		<tag k="name" v="Helstadløkken" />
		<tag k="place" v="farm" />
		<tag k="ssr:stedsnr" v="218529" />
	</node>
	<node id="9895633619" lat="65.1835531" lon="12.1637777" version="1" timestamp="2022-07-18T16:45:46Z" changeset="123771884" uid="3497659" user="NKA">
		<tag k="name" v="Moen" />
		<tag k="place" v="farm" />
		<tag k="ssr:stedsnr" v="724669" />
	</node>
	<node id="9895633620" lat="65.081531" lon="12.0703286" version="1" timestamp="2022-07-18T16:45:46Z" changeset="123771884" uid="3497659" user="NKA">
		<tag k="name" v="Åsheim" />
		<tag k="place" v="isolated_dwelling" />
		<tag k="ssr:stedsnr" v="722866" />
	</node>
	<node id="9895633621" lat="65.1322264" lon="12.2289383" version="1" timestamp="2022-07-18T16:45:46Z" changeset="123771884" uid="3497659" user="NKA">
		<tag k="name" v="Granly" />
		<tag k="place" v="isolated_dwelling" />
		<tag k="ssr:stedsnr" v="722568" />
	</node>
	<node id="9895633622" lat="65.2439194" lon="12.2904389" version="1" timestamp="2022-07-18T16:45:46Z" changeset="123771884" uid="3497659" user="NKA">
		<tag k="name" v="Storvika" />
		<tag k="place" v="farm" />
		<tag k="ssr:stedsnr" v="803203" />
	</node>
	<node id="9895633623" lat="65.0560666" lon="12.5328667" version="1" timestamp="2022-07-18T16:45:46Z" changeset="123771884" uid="3497659" user="NKA">
		<tag k="name" v="Heimgården" />
		<tag k="place" v="farm" />
		<tag k="ssr:stedsnr" v="178515" />
	</node>
	<node id="9895633624" lat="65.1805166" lon="12.1251227" version="1" timestamp="2022-07-18T16:45:46Z" changeset="123771884" uid="3497659" user="NKA">
		<tag k="name" v="Fjordgløtt" />
		<tag k="place" v="farm" />
		<tag k="ssr:stedsnr" v="117689" />
	</node>
	<node id="9895633625" lat="65.1178624" lon="12.5080059" version="1" timestamp="2022-07-18T16:45:46Z" changeset="123771884" uid="3497659" user="NKA">
		<tag k="name" v="Aunvikmoen" />
		<tag k="place" v="farm" />
		<tag k="ssr:stedsnr" v="443787" />
	</node>
	<node id="9895633626" lat="65.1902266" lon="12.1687364" version="1" timestamp="2022-07-18T16:45:46Z" changeset="123771884" uid="3497659" user="NKA">
		<tag k="name" v="Hall" />
		<tag k="place" v="hamlet" />
		<tag k="ssr:stedsnr" v="864921" />
	</node>
	<node id="9895633627" lat="65.2503735" lon="12.2942988" version="1" timestamp="2022-07-18T16:45:46Z" changeset="123771884" uid="3497659" user="NKA">
		<tag k="name" v="Nyrud" />
		<tag k="place" v="locality" />
		<tag k="ssr:stedsnr" v="421871" />
	</node>
	<node id="9895633628" lat="65.2309144" lon="12.2919335" version="1" timestamp="2022-07-18T16:45:46Z" changeset="123771884" uid="3497659" user="NKA">
		<tag k="name" v="Risøy" />
		<tag k="place" v="farm" />
		<tag k="ssr:stedsnr" v="541854" />
	</node>
	<node id="9895633629" lat="65.1849789" lon="12.1636676" version="1" timestamp="2022-07-18T16:45:46Z" changeset="123771884" uid="3497659" user="NKA">
		<tag k="name" v="Fredheimen" />
		<tag k="place" v="isolated_dwelling" />
		<tag k="ssr:stedsnr" v="481679" />
	</node>
	<node id="9895633630" lat="65.1993356" lon="11.9610702" version="1" timestamp="2022-07-18T16:45:46Z" changeset="123771884" uid="3497659" user="NKA">
		<tag k="name" v="Gimlinga" />
		<tag k="place" v="farm" />
		<tag k="ssr:stedsnr" v="180044" />
	</node>
	<node id="9895633631" lat="65.1572028" lon="12.0221694" version="1" timestamp="2022-07-18T16:45:46Z" changeset="123771884" uid="3497659" user="NKA">
		<tag k="name" v="Myre" />
		<tag k="place" v="farm" />
		<tag k="ssr:stedsnr" v="925926" />
	</node>
	<node id="9895633632" lat="65.188709" lon="12.1647863" version="1" timestamp="2022-07-18T16:45:46Z" changeset="123771884" uid="3497659" user="NKA">
		<tag k="name" v="Tryggstad" />
		<tag k="place" v="farm" />
		<tag k="ssr:stedsnr" v="178653" />
	</node>
	<node id="9895633633" lat="65.06389" lon="12.2911429" version="1" timestamp="2022-07-18T16:45:46Z" changeset="123771884" uid="3497659" user="NKA">
		<tag k="alt_name" v="Myren" />
		<tag k="name" v="Myra" />
		<tag k="place" v="farm" />
		<tag k="ssr:stedsnr" v="439452" />
	</node>
	<node id="9895633634" lat="65.0714583" lon="12.460564" version="1" timestamp="2022-07-18T16:45:46Z" changeset="123771884" uid="3497659" user="NKA">
		<tag k="name" v="Finnheimen" />
		<tag k="place" v="locality" />
		<tag k="ssr:stedsnr" v="785532" />
	</node>
	<node id="9895633635" lat="65.0550838" lon="12.2463726" version="1" timestamp="2022-07-18T16:45:46Z" changeset="123771884" uid="3497659" user="NKA">
		<tag k="name" v="Breivika" />
		<tag k="place" v="farm" />
		<tag k="ssr:stedsnr" v="682549" />
	</node>
	<node id="9895633636" lat="65.0385111" lon="12.5478833" version="1" timestamp="2022-07-18T16:45:46Z" changeset="123771884" uid="3497659" user="NKA">
		<tag k="alt_name" v="Blinnes" />
		<tag k="name" v="Blindneset" />
		<tag k="place" v="farm" />
		<tag k="ssr:stedsnr" v="682542" />
	</node>
	<node id="9895633637" lat="65.1042583" lon="11.9538694" version="1" timestamp="2022-07-18T16:45:46Z" changeset="123771884" uid="3497659" user="NKA">
		<tag k="name" v="Nordli" />
		<tag k="place" v="farm" />
		<tag k="ssr:stedsnr" v="925037" />
	</node>
	<node id="9895633638" lat="65.154825" lon="12.0202999" version="1" timestamp="2022-07-18T16:45:46Z" changeset="123771884" uid="3497659" user="NKA">
		<tag k="name" v="Solbakken" />
		<tag k="place" v="farm" />
		<tag k="ssr:stedsnr" v="803899" />
	</node>
	<node id="9895633639" lat="65.2530398" lon="11.6994794" version="1" timestamp="2022-07-18T16:45:46Z" changeset="123771884" uid="3497659" user="NKA">
		<tag k="name" v="Gimsa" />
		<tag k="place" v="hamlet" />
		<tag k="ssr:stedsnr" v="59049" />
	</node>
	<node id="9895633640" lat="65.0725334" lon="12.251261" version="1" timestamp="2022-07-18T16:45:46Z" changeset="123771884" uid="3497659" user="NKA">
		<tag k="name" v="Nordteigen" />
		<tag k="place" v="locality" />
		<tag k="ssr:stedsnr" v="57582" />
	</node>
	<node id="9895633641" lat="65.0579916" lon="12.4867388" version="1" timestamp="2022-07-18T16:45:46Z" changeset="123771884" uid="3497659" user="NKA">
		<tag k="alt_name" v="Øyra" />
		<tag k="name" v="Øra" />
		<tag k="place" v="farm" />
		<tag k="ssr:stedsnr" v="560450" />
	</node>
	<node id="9895633642" lat="65.0340021" lon="12.5410316" version="1" timestamp="2022-07-18T16:45:46Z" changeset="123771884" uid="3497659" user="NKA">
		<tag k="name" v="Sletten" />
		<tag k="place" v="farm" />
		<tag k="ssr:stedsnr" v="297865" />
	</node>
	<node id="9895633643" lat="65.1022588" lon="12.0817242" version="1" timestamp="2022-07-18T16:45:46Z" changeset="123771884" uid="3497659" user="NKA">
		<tag k="name" v="Løvhaug" />
		<tag k="place" v="farm" />
		<tag k="ssr:stedsnr" v="663877" />
	</node>
	<node id="9895633644" lat="65.1878062" lon="12.2613547" version="1" timestamp="2022-07-18T16:45:46Z" changeset="123771884" uid="3497659" user="NKA">
		<tag k="name" v="Vonstad" />
		<tag k="place" v="farm" />
		<tag k="ssr:stedsnr" v="57054" />
	</node>
	<node id="9895633645" lat="65.1834283" lon="12.2623948" version="1" timestamp="2022-07-18T16:45:46Z" changeset="123771884" uid="3497659" user="NKA">
		<tag k="name" v="Aspvika" />
		<tag k="place" v="farm" />
		<tag k="ssr:stedsnr" v="15337" />
	</node>
	<node id="9895633646" lat="65.2103256" lon="12.7682255" version="1" timestamp="2022-07-18T16:45:46Z" changeset="123771884" uid="3497659" user="NKA">
		<tag k="name" v="Kollsvika" />
		<tag k="place" v="hamlet" />
		<tag k="ssr:stedsnr" v="257636" />
	</node>
	<node id="9895633647" lat="65.0954583" lon="12.0877917" version="1" timestamp="2022-07-18T16:45:46Z" changeset="123771884" uid="3497659" user="NKA">
		<tag k="name" v="Amundslia" />
		<tag k="place" v="isolated_dwelling" />
		<tag k="ssr:stedsnr" v="440085" />
	</node>
	<node id="9895633648" lat="65.1604239" lon="11.9877885" version="1" timestamp="2022-07-18T16:45:46Z" changeset="123771884" uid="3497659" user="NKA">
		<tag k="name" v="Otervika" />
		<tag k="place" v="hamlet" />
		<tag k="ssr:stedsnr" v="560930" />
	</node>
	<node id="9895633649" lat="65.2512695" lon="12.2869472" version="1" timestamp="2022-07-18T16:45:46Z" changeset="123771884" uid="3497659" user="NKA">
		<tag k="name" v="Myrvoll" />
		<tag k="place" v="farm" />
		<tag k="ssr:stedsnr" v="561152" />
	</node>
	<node id="9895633650" lat="65.2511134" lon="12.2891804" version="1" timestamp="2022-07-18T16:45:46Z" changeset="123771884" uid="3497659" user="NKA">
		<tag k="name" v="Solvang" />
		<tag k="place" v="farm" />
		<tag k="ssr:stedsnr" v="481868" />
	</node>
	<node id="9895633651" lat="65.0846945" lon="11.9892972" version="1" timestamp="2022-07-18T16:45:46Z" changeset="123771884" uid="3497659" user="NKA">
		<tag k="alt_name" v="Nordaunet" />
		<tag k="name" v="Nordaune" />
		<tag k="place" v="farm" />
		<tag k="ssr:stedsnr" v="439030" />
	</node>
	<node id="9895633652" lat="65.0249667" lon="12.7781639" version="1" timestamp="2022-07-18T16:45:46Z" changeset="123771884" uid="3497659" user="NKA">
		<tag k="name" v="Buåsen" />
		<tag k="place" v="locality" />
		<tag k="ssr:stedsnr" v="178398" />
	</node>
	<node id="9895633653" lat="65.0767361" lon="12.0660639" version="1" timestamp="2022-07-18T16:45:46Z" changeset="123771884" uid="3497659" user="NKA">
		<tag k="name" v="Nystad" />
		<tag k="place" v="farm" />
		<tag k="ssr:stedsnr" v="399456" />
	</node>
	<node id="9895633654" lat="65.0956258" lon="11.9991684" version="1" timestamp="2022-07-18T16:45:46Z" changeset="123771884" uid="3497659" user="NKA">
		<tag k="alt_name" v="Kjærstadbakken" />
		<tag k="name" v="Bakken" />
		<tag k="place" v="farm" />
		<tag k="ssr:stedsnr" v="440054" />
	</node>
	<node id="9895633655" lat="65.1231092" lon="12.2132594" version="1" timestamp="2022-07-18T16:45:46Z" changeset="123771884" uid="3497659" user="NKA">
		<tag k="name" v="Røttingen" />
		<tag k="place" v="farm" />
		<tag k="ssr:stedsnr" v="989072" />
	</node>
	<node id="9895633656" lat="65.1492467" lon="12.2036018" version="1" timestamp="2022-07-18T16:45:46Z" changeset="123771884" uid="3497659" user="NKA">
		<tag k="name" v="Mark" />
		<tag k="place" v="locality" />
		<tag k="ssr:stedsnr" v="989064" />
	</node>
	<node id="9895633657" lat="65.0509124" lon="12.1099804" version="1" timestamp="2022-07-18T16:45:46Z" changeset="123771884" uid="3497659" user="NKA">
		<tag k="alt_name" v="Langengen" />
		<tag k="name" v="Langenget" />
		<tag k="place" v="farm" />
		<tag k="ssr:stedsnr" v="439086" />
	</node>
	<node id="9895633658" lat="65.1027559" lon="11.9824351" version="1" timestamp="2022-07-18T16:45:46Z" changeset="123771884" uid="3497659" user="NKA">
		<tag k="name" v="Sletten" />
		<tag k="place" v="farm" />
		<tag k="ssr:stedsnr" v="297483" />
	</node>
	<node id="9895633659" lat="65.1514056" lon="12.2291279" version="1" timestamp="2022-07-18T16:45:46Z" changeset="123771884" uid="3497659" user="NKA">
		<tag k="name" v="Husmannli" />
		<tag k="place" v="locality" />
		<tag k="ssr:stedsnr" v="964677" />
	</node>
	<node id="9895633660" lat="64.9855834" lon="12.1839111" version="1" timestamp="2022-07-18T16:45:46Z" changeset="123771884" uid="3497659" user="NKA">
		<tag k="name" v="Sætermoen" />
		<tag k="place" v="farm" />
		<tag k="ssr:stedsnr" v="318647" />
	</node>
	<node id="9895633661" lat="65.1194898" lon="12.5213198" version="1" timestamp="2022-07-18T16:45:46Z" changeset="123771884" uid="3497659" user="NKA">
		<tag k="name" v="Spansklien" />
		<tag k="place" v="farm" />
		<tag k="ssr:stedsnr" v="117663" />
	</node>
	<node id="9895633662" lat="65.1451733" lon="12.0231411" version="1" timestamp="2022-07-18T16:45:46Z" changeset="123771884" uid="3497659" user="NKA">
		<tag k="name" v="Oppdal" />
		<tag k="place" v="hamlet" />
		<tag k="ssr:stedsnr" v="925917" />
	</node>
	<node id="9895633663" lat="65.1369952" lon="12.2228173" version="1" timestamp="2022-07-18T16:45:46Z" changeset="123771884" uid="3497659" user="NKA">
		<tag k="name" v="Dalmo" />
		<tag k="place" v="farm" />
		<tag k="ssr:stedsnr" v="906551" />
	</node>
	<node id="9895633664" lat="65.1508583" lon="12.0214889" version="1" timestamp="2022-07-18T16:45:46Z" changeset="123771884" uid="3497659" user="NKA">
		<tag k="name" v="Tingstad" />
		<tag k="place" v="farm" />
		<tag k="ssr:stedsnr" v="136892" />
	</node>
	<node id="9895633665" lat="65.1152893" lon="12.4970563" version="1" timestamp="2022-07-18T16:45:46Z" changeset="123771884" uid="3497659" user="NKA">
		<tag k="name" v="Vollen" />
		<tag k="place" v="farm" />
		<tag k="ssr:stedsnr" v="117376" />
	</node>
	<node id="9895633666" lat="65.0023806" lon="12.0896194" version="1" timestamp="2022-07-18T16:45:46Z" changeset="123771884" uid="3497659" user="NKA">
		<tag k="name" v="Digermulsetra" />
		<tag k="place" v="isolated_dwelling" />
		<tag k="ssr:stedsnr" v="925198" />
	</node>
	<node id="9895633667" lat="65.0685194" lon="11.9227139" version="1" timestamp="2022-07-18T16:45:46Z" changeset="123771884" uid="3497659" user="NKA">
		<tag k="alt_name" v="Sætervik" />
		<tag k="name" v="Sætervika" />
		<tag k="place" v="farm" />
		<tag k="ssr:stedsnr" v="925094" />
	</node>
	<node id="9895633668" lat="65.1239658" lon="12.233533" version="1" timestamp="2022-07-18T16:45:46Z" changeset="123771884" uid="3497659" user="NKA">
		<tag k="name" v="Skogtrøen" />
		<tag k="place" v="farm" />
		<tag k="ssr:stedsnr" v="906576" />
	</node>
	<node id="9895633669" lat="65.04657" lon="12.5393043" version="1" timestamp="2022-07-18T16:45:46Z" changeset="123771884" uid="3497659" user="NKA">
		<tag k="name" v="Skarstad" />
		<tag k="place" v="hamlet" />
		<tag k="ssr:stedsnr" v="135471" />
	</node>
	<node id="9895633670" lat="65.0575139" lon="12.5162388" version="1" timestamp="2022-07-18T16:45:46Z" changeset="123771884" uid="3497659" user="NKA">
		<tag k="name" v="Heimstad" />
		<tag k="place" v="farm" />
		<tag k="ssr:stedsnr" v="906529" />
	</node>
	<node id="9895633671" lat="65.0789843" lon="12.4643341" version="1" timestamp="2022-07-18T16:45:46Z" changeset="123771884" uid="3497659" user="NKA">
		<tag k="name" v="Heimen" />
		<tag k="place" v="hamlet" />
		<tag k="ssr:stedsnr" v="136476" />
	</node>
	<node id="9895633672" lat="65.1186992" lon="12.5240564" version="1" timestamp="2022-07-18T16:45:46Z" changeset="123771884" uid="3497659" user="NKA">
		<tag k="name" v="Bangstad" />
		<tag k="place" v="farm" />
		<tag k="ssr:stedsnr" v="76417" />
	</node>
	<node id="9895633673" lat="65.0988918" lon="12.0058325" version="1" timestamp="2022-07-18T16:45:46Z" changeset="123771884" uid="3497659" user="NKA">
		<tag k="alt_name" v="Skjevelnes" />
		<tag k="name" v="Skjevelneset" />
		<tag k="place" v="hamlet" />
		<tag k="ssr:stedsnr" v="864012" />
	</node>
	<node id="9895633674" lat="65.0995516" lon="11.9525114" version="1" timestamp="2022-07-18T16:45:46Z" changeset="123771884" uid="3497659" user="NKA">
		<tag k="name" v="Heimly" />
		<tag k="place" v="farm" />
		<tag k="ssr:stedsnr" v="864019" />
	</node>
	<node id="9895633675" lat="65.1061806" lon="11.9769916" version="1" timestamp="2022-07-18T16:45:46Z" changeset="123771884" uid="3497659" user="NKA">
		<tag k="name" v="Kjellvang" />
		<tag k="place" v="farm" />
		<tag k="ssr:stedsnr" v="864017" />
	</node>
	<node id="9895633676" lat="65.0559441" lon="12.2161565" version="1" timestamp="2022-07-18T16:45:46Z" changeset="123771884" uid="3497659" user="NKA">
		<tag k="name" v="Sandvika" />
		<tag k="place" v="farm" />
		<tag k="ssr:stedsnr" v="35486" />
	</node>
	<node id="9895633677" lat="65.1637374" lon="12.2713282" version="1" timestamp="2022-07-18T16:45:46Z" changeset="123771884" uid="3497659" user="NKA">
		<tag k="name" v="Nergård" />
		<tag k="place" v="farm" />
		<tag k="ssr:stedsnr" v="782063" />
	</node>
	<node id="9895633678" lat="65.1635194" lon="12.1860555" version="1" timestamp="2022-07-18T16:45:46Z" changeset="123771884" uid="3497659" user="NKA">
		<tag k="name" v="Gammelfjellgården" />
		<tag k="place" v="locality" />
		<tag k="ssr:stedsnr" v="784774" />
	</node>
	<node id="9895633679" lat="65.1717206" lon="12.2421547" version="1" timestamp="2022-07-18T16:45:46Z" changeset="123771884" uid="3497659" user="NKA">
		<tag k="name" v="Hagan" />
		<tag k="place" v="farm" />
		<tag k="ssr:stedsnr" v="784692" />
	</node>
	<node id="9895633680" lat="65.0845458" lon="11.9730038" version="1" timestamp="2022-07-18T16:45:46Z" changeset="123771884" uid="3497659" user="NKA">
		<tag k="name" v="Nordkjærstad" />
		<tag k="place" v="farm" />
		<tag k="ssr:stedsnr" v="660540" />
	</node>
	<node id="9895633681" lat="65.053267" lon="12.5123703" version="1" timestamp="2022-07-18T16:45:46Z" changeset="123771884" uid="3497659" user="NKA">
		<tag k="name" v="Åbygda" />
		<tag k="place" v="hamlet" />
		<tag k="ssr:stedsnr" v="864517" />
	</node>
	<node id="9895633682" lat="65.131442" lon="12.6430317" version="1" timestamp="2022-07-18T16:45:46Z" changeset="123771884" uid="3497659" user="NKA">
		<tag k="alt_name" v="Urvold" />
		<tag k="name" v="Urdvollan" />
		<tag k="place" v="farm" />
		<tag k="ssr:stedsnr" v="15396" />
	</node>
	<node id="9895633683" lat="65.053192" lon="12.1407701" version="1" timestamp="2022-07-18T16:45:46Z" changeset="123771884" uid="3497659" user="NKA">
		<tag k="name" v="Horsberg" />
		<tag k="place" v="hamlet" />
		<tag k="ssr:stedsnr" v="15121" />
	</node>
	<node id="9895633684" lat="65.0048594" lon="12.5247886" version="1" timestamp="2022-07-18T16:45:46Z" changeset="123771884" uid="3497659" user="NKA">
		<tag k="name" v="Fuglstadsætra" />
		<tag k="place" v="isolated_dwelling" />
		<tag k="ssr:stedsnr" v="864613" />
	</node>
	<node id="9895633685" lat="65.1260329" lon="12.2351764" version="1" timestamp="2022-07-18T16:45:46Z" changeset="123771884" uid="3497659" user="NKA">
		<tag k="name" v="Vangberg" />
		<tag k="place" v="farm" />
		<tag k="ssr:stedsnr" v="724544" />
	</node>
	<node id="9895633686" lat="65.1371139" lon="12.0207583" version="1" timestamp="2022-07-18T16:45:46Z" changeset="123771884" uid="3497659" user="NKA">
		<tag k="name" v="Oppdalsstranda" />
		<tag k="place" v="farm" />
		<tag k="ssr:stedsnr" v="560991" />
	</node>
	<node id="9895633687" lat="65.1700138" lon="12.2531742" version="1" timestamp="2022-07-18T16:45:46Z" changeset="123771884" uid="3497659" user="NKA">
		<tag k="name" v="Fagermo" />
		<tag k="place" v="farm" />
		<tag k="ssr:stedsnr" v="723657" />
	</node>
	<node id="9895633688" lat="65.1248003" lon="12.1331794" version="1" timestamp="2022-07-18T16:45:46Z" changeset="123771884" uid="3497659" user="NKA">
		<tag k="name" v="Lian" />
		<tag k="place" v="farm" />
		<tag k="ssr:stedsnr" v="877106" />
	</node>
	<node id="9895633689" lat="65.1132" lon="11.98545" version="1" timestamp="2022-07-18T16:45:46Z" changeset="123771884" uid="3497659" user="NKA">
		<tag k="name" v="Bakkely" />
		<tag k="place" v="farm" />
		<tag k="ssr:stedsnr" v="196949" />
	</node>
	<node id="9895633690" lat="65.1285" lon="12.0154917" version="1" timestamp="2022-07-18T16:45:46Z" changeset="123771884" uid="3497659" user="NKA">
		<tag k="name" v="Granheim" />
		<tag k="place" v="farm" />
		<tag k="ssr:stedsnr" v="864969" />
	</node>
	<node id="9895633691" lat="65.102175" lon="11.9621832" version="1" timestamp="2022-07-18T16:45:46Z" changeset="123771884" uid="3497659" user="NKA">
		<tag k="name" v="Fagerstrand" />
		<tag k="place" v="farm" />
		<tag k="ssr:stedsnr" v="560019" />
	</node>
	<node id="9895633692" lat="65.0570662" lon="12.5337372" version="1" timestamp="2022-07-18T16:45:46Z" changeset="123771884" uid="3497659" user="NKA">
		<tag k="name" v="Aunet" />
		<tag k="place" v="hamlet" />
		<tag k="ssr:stedsnr" v="197479" />
	</node>
	<node id="9895633693" lat="65.0477664" lon="12.5206398" version="1" timestamp="2022-07-18T16:45:46Z" changeset="123771884" uid="3497659" user="NKA">
		<tag k="name" v="Åsen" />
		<tag k="place" v="farm" />
		<tag k="ssr:stedsnr" v="197540" />
	</node>
	<node id="9895633694" lat="65.1662545" lon="12.2384272" version="1" timestamp="2022-07-18T16:45:46Z" changeset="123771884" uid="3497659" user="NKA">
		<tag k="name" v="Vesterheim" />
		<tag k="place" v="farm" />
		<tag k="ssr:stedsnr" v="682338" />
	</node>
	<node id="9895633695" lat="65.058925" lon="12.4752842" version="1" timestamp="2022-07-18T16:45:46Z" changeset="123771884" uid="3497659" user="NKA">
		<tag k="alt_name" v="Strand" />
		<tag k="name" v="Stranda" />
		<tag k="place" v="farm" />
		<tag k="ssr:stedsnr" v="682521" />
	</node>
	<node id="9895633696" lat="65.2003252" lon="12.4803823" version="1" timestamp="2022-07-18T16:45:46Z" changeset="123771884" uid="3497659" user="NKA">
		<tag k="name" v="Selfjord" />
		<tag k="place" v="farm" />
		<tag k="ssr:stedsnr" v="197306" />
	</node>
	<node id="9895633697" lat="65.1876832" lon="12.4098648" version="1" timestamp="2022-07-18T16:45:46Z" changeset="123771884" uid="3497659" user="NKA">
		<tag k="name" v="Seterneset" />
		<tag k="place" v="farm" />
		<tag k="ssr:stedsnr" v="682279" />
	</node>
	<node id="9895633698" lat="65.0819112" lon="11.9861834" version="1" timestamp="2022-07-18T16:45:46Z" changeset="123771884" uid="3497659" user="NKA">
		<tag k="name" v="Åkergård" />
		<tag k="place" v="farm" />
		<tag k="ssr:stedsnr" v="418524" />
	</node>
	<node id="9895633699" lat="65.1010167" lon="12.4233528" version="1" timestamp="2022-07-18T16:45:46Z" changeset="123771884" uid="3497659" user="NKA">
		<tag k="alt_name" v="Nordskogan" />
		<tag k="name" v="Nordskogen" />
		<tag k="place" v="farm" />
		<tag k="ssr:stedsnr" v="499327" />
	</node>
	<node id="9895633700" lat="65.1342695" lon="12.0112416" version="1" timestamp="2022-07-18T16:45:46Z" changeset="123771884" uid="3497659" user="NKA">
		<tag k="name" v="Heimtun" />
		<tag k="place" v="farm" />
		<tag k="ssr:stedsnr" v="379958" />
	</node>
	<node id="9895633701" lat="65.1653" lon="12.1221833" version="1" timestamp="2022-07-18T16:45:46Z" changeset="123771884" uid="3497659" user="NKA">
		<tag k="name" v="Langmark" />
		<tag k="place" v="farm" />
		<tag k="ssr:stedsnr" v="500913" />
	</node>
	<node id="9895633702" lat="65.2258473" lon="12.3678499" version="1" timestamp="2022-07-18T16:45:46Z" changeset="123771884" uid="3497659" user="NKA">
		<tag k="name" v="Nergarden" />
		<tag k="place" v="farm" />
		<tag k="ssr:stedsnr" v="723812" />
	</node>
	<node id="9895633703" lat="65.2190317" lon="12.4453956" version="1" timestamp="2022-07-18T16:45:46Z" changeset="123771884" uid="3497659" user="NKA">
		<tag k="name" v="Setran" />
		<tag k="place" v="hamlet" />
		<tag k="ssr:stedsnr" v="500267" />
	</node>
	<node id="9895633704" lat="65.1079435" lon="11.9945914" version="1" timestamp="2022-07-18T16:45:46Z" changeset="123771884" uid="3497659" user="NKA">
		<tag k="name" v="Hals" />
		<tag k="place" v="farm" />
		<tag k="ssr:stedsnr" v="318004" />
	</node>
	<node id="9895633705" lat="65.2132998" lon="12.6812574" version="1" timestamp="2022-07-18T16:45:46Z" changeset="123771884" uid="3497659" user="NKA">
		<tag k="name" v="Søbergslia" />
		<tag k="place" v="locality" />
		<tag k="ssr:stedsnr" v="864277" />
	</node>
	<node id="9895633706" lat="65.1686" lon="12.256414" version="1" timestamp="2022-07-18T16:45:46Z" changeset="123771884" uid="3497659" user="NKA">
		<tag k="name" v="Buenget" />
		<tag k="place" v="farm" />
		<tag k="ssr:stedsnr" v="439274" />
	</node>
	<node id="9895633707" lat="65.1574598" lon="12.6794494" version="1" timestamp="2022-07-18T16:45:46Z" changeset="123771884" uid="3497659" user="NKA">
		<tag k="name" v="Innerreppen" />
		<tag k="place" v="locality" />
		<tag k="ssr:stedsnr" v="864356" />
	</node>
	<node id="9895633708" lat="65.1305667" lon="12.2547389" version="1" timestamp="2022-07-18T16:45:46Z" changeset="123771884" uid="3497659" user="NKA">
		<tag k="name" v="Kalvika" />
		<tag k="place" v="hamlet" />
		<tag k="ssr:stedsnr" v="379312" />
	</node>
	<node id="9895633709" lat="65.0576139" lon="12.5357584" version="1" timestamp="2022-07-18T16:45:46Z" changeset="123771884" uid="3497659" user="NKA">
		<tag k="name" v="Oppgården" />
		<tag k="place" v="farm" />
		<tag k="ssr:stedsnr" v="663505" />
	</node>
	<node id="9895633710" lat="65.0547311" lon="12.513988" version="1" timestamp="2022-07-18T16:45:46Z" changeset="123771884" uid="3497659" user="NKA">
		<tag k="name" v="Kvernmoen" />
		<tag k="place" v="farm" />
		<tag k="ssr:stedsnr" v="75464" />
	</node>
	<node id="9895633711" lat="65.1257055" lon="12.1350251" version="1" timestamp="2022-07-18T16:45:46Z" changeset="123771884" uid="3497659" user="NKA">
		<tag k="name" v="Bursvikbotn" />
		<tag k="place" v="farm" />
		<tag k="ssr:stedsnr" v="317959" />
	</node>
	<node id="9895633712" lat="65.0877553" lon="12.0242171" version="1" timestamp="2022-07-18T16:45:46Z" changeset="123771884" uid="3497659" user="NKA">
		<tag k="name" v="Hålop" />
		<tag k="place" v="hamlet" />
		<tag k="ssr:stedsnr" v="257072" />
	</node>
	<node id="9895633713" lat="65.2669546" lon="12.3941603" version="1" timestamp="2022-07-18T16:45:46Z" changeset="123771884" uid="3497659" user="NKA">
		<tag k="name" v="Olderåsen" />
		<tag k="place" v="isolated_dwelling" />
		<tag k="ssr:stedsnr" v="500271" />
	</node>
	<node id="9895633714" lat="65.2829361" lon="12.411086" version="1" timestamp="2022-07-18T16:45:46Z" changeset="123771884" uid="3497659" user="NKA">
		<tag k="name" v="Myrmarka" />
		<tag k="place" v="locality" />
		<tag k="ssr:stedsnr" v="15241" />
	</node>
	<node id="9895633715" lat="65.2254952" lon="12.3614382" version="1" timestamp="2022-07-18T16:45:46Z" changeset="123771884" uid="3497659" user="NKA">
		<tag k="name" v="Haugen" />
		<tag k="place" v="farm" />
		<tag k="ssr:stedsnr" v="117859" />
	</node>
	<node id="9895633716" lat="65.1182335" lon="12.4169857" version="1" timestamp="2022-07-18T16:45:46Z" changeset="123771884" uid="3497659" user="NKA">
		<tag k="name" v="Øyå" />
		<tag k="place" v="hamlet" />
		<tag k="ssr:stedsnr" v="15386" />
	</node>
	<node id="9895633717" lat="65.2268744" lon="12.3775052" version="1" timestamp="2022-07-18T16:45:46Z" changeset="123771884" uid="3497659" user="NKA">
		<tag k="alt_name" v="Sommerset" />
		<tag k="name" v="Sommarset" />
		<tag k="place" v="farm" />
		<tag k="ssr:stedsnr" v="75236" />
	</node>
	<node id="9895633718" lat="65.0742068" lon="11.9466389" version="1" timestamp="2022-07-18T16:45:46Z" changeset="123771884" uid="3497659" user="NKA">
		<tag k="name" v="Bogen" />
		<tag k="place" v="hamlet" />
		<tag k="ssr:stedsnr" v="75052" />
	</node>
	<node id="9895633719" lat="65.0431634" lon="12.6720604" version="1" timestamp="2022-07-18T16:45:46Z" changeset="123771884" uid="3497659" user="NKA">
		<tag k="name" v="Granbostad" />
		<tag k="place" v="hamlet" />
		<tag k="ssr:stedsnr" v="499401" />
	</node>
	<node id="9895633720" lat="65.131373" lon="12.1777121" version="1" timestamp="2022-07-18T16:45:46Z" changeset="123771884" uid="3497659" user="NKA">
		<tag k="name" v="Granli" />
		<tag k="place" v="farm" />
		<tag k="ssr:stedsnr" v="239585" />
	</node>
	<node id="9895633721" lat="65.1418861" lon="12.2065214" version="1" timestamp="2022-07-18T16:45:46Z" changeset="123771884" uid="3497659" user="NKA">
		<tag k="name" v="Kalvikenget" />
		<tag k="place" v="isolated_dwelling" />
		<tag k="ssr:stedsnr" v="239520" />
	</node>
	<node id="9895633722" lat="65.0595472" lon="12.2740194" version="1" timestamp="2022-07-18T16:45:46Z" changeset="123771884" uid="3497659" user="NKA">
		<tag k="name" v="Saltbunesset" />
		<tag k="place" v="locality" />
		<tag k="ssr:stedsnr" v="238280" />
	</node>
	<node id="9895633723" lat="65.121517" lon="12.2425688" version="1" timestamp="2022-07-18T16:45:46Z" changeset="123771884" uid="3497659" user="NKA">
		<tag k="name" v="Vikestad" />
		<tag k="place" v="hamlet" />
		<tag k="ssr:stedsnr" v="804395" />
	</node>
	<node id="9895633724" lat="65.1321175" lon="12.255991" version="1" timestamp="2022-07-18T16:45:46Z" changeset="123771884" uid="3497659" user="NKA">
		<tag k="name" v="Nordgård" />
		<tag k="place" v="farm" />
		<tag k="ssr:stedsnr" v="904522" />
	</node>
	<node id="9895633725" lat="65.1990268" lon="12.2432353" version="1" timestamp="2022-07-18T16:45:46Z" changeset="123771884" uid="3497659" user="NKA">
		<tag k="name" v="Nyheimen" />
		<tag k="place" v="farm" />
		<tag k="ssr:stedsnr" v="783284" />
	</node>
	<node id="9895633726" lat="65.1161815" lon="12.2314494" version="1" timestamp="2022-07-18T16:45:46Z" changeset="123771884" uid="3497659" user="NKA">
		<tag k="name" v="Moen" />
		<tag k="place" v="farm" />
		<tag k="ssr:stedsnr" v="724567" />
	</node>
	<node id="9895633727" lat="65.2182139" lon="12.4439083" version="1" timestamp="2022-07-18T16:45:46Z" changeset="123771884" uid="3497659" user="NKA">
		<tag k="name" v="Nygård" />
		<tag k="place" v="farm" />
		<tag k="ssr:stedsnr" v="339557" />
	</node>
	<node id="9895633728" lat="65.1180906" lon="12.2341437" version="1" timestamp="2022-07-18T16:45:46Z" changeset="123771884" uid="3497659" user="NKA">
		<tag k="name" v="Asphaug" />
		<tag k="place" v="farm" />
		<tag k="ssr:stedsnr" v="57548" />
	</node>
	<node id="9895633729" lat="65.1124226" lon="12.0941396" version="1" timestamp="2022-07-18T16:45:46Z" changeset="123771884" uid="3497659" user="NKA">
		<tag k="name" v="Lysfjord" />
		<tag k="place" v="hamlet" />
		<tag k="ssr:stedsnr" v="742009" />
	</node>
	<node id="9895633730" lat="65.1199788" lon="12.2411292" version="1" timestamp="2022-07-18T16:45:46Z" changeset="123771884" uid="3497659" user="NKA">
		<tag k="name" v="Strandmo" />
		<tag k="place" v="farm" />
		<tag k="ssr:stedsnr" v="663571" />
	</node>
	<node id="9895633731" lat="65.131323" lon="12.2248449" version="1" timestamp="2022-07-18T16:45:46Z" changeset="123771884" uid="3497659" user="NKA">
		<tag k="name" v="Åslia" />
		<tag k="place" v="farm" />
		<tag k="ssr:stedsnr" v="722553" />
	</node>
	<node id="9895633732" lat="65.0435522" lon="12.1593229" version="1" timestamp="2022-07-18T16:45:46Z" changeset="123771884" uid="3497659" user="NKA">
		<tag k="name" v="Roparenget" />
		<tag k="place" v="isolated_dwelling" />
		<tag k="ssr:stedsnr" v="56962" />
	</node>
	<node id="9895633733" lat="65.076725" lon="12.0660611" version="1" timestamp="2022-07-18T16:45:46Z" changeset="123771884" uid="3497659" user="NKA">
		<tag k="name" v="Kjella" />
		<tag k="place" v="hamlet" />
		<tag k="ssr:stedsnr" v="682097" />
	</node>
	<node id="9895633734" lat="65.1462553" lon="12.2111277" version="1" timestamp="2022-07-18T16:45:46Z" changeset="123771884" uid="3497659" user="NKA">
		<tag k="name" v="Kleivenget" />
		<tag k="place" v="farm" />
		<tag k="ssr:stedsnr" v="906552" />
	</node>
	<node id="9895633735" lat="65.2308848" lon="12.4320387" version="1" timestamp="2022-07-18T16:45:46Z" changeset="123771884" uid="3497659" user="NKA">
		<tag k="alt_name" v="Heimark" />
		<tag k="name" v="Hesimarka" />
		<tag k="place" v="farm" />
		<tag k="ssr:stedsnr" v="257255" />
	</node>
	<node id="9895633736" lat="65.1366149" lon="12.1815461" version="1" timestamp="2022-07-18T16:45:46Z" changeset="123771884" uid="3497659" user="NKA">
		<tag k="name" v="Holten" />
		<tag k="place" v="farm" />
		<tag k="ssr:stedsnr" v="197983" />
	</node>
	<node id="9895633737" lat="65.1228913" lon="12.1955272" version="1" timestamp="2022-07-18T16:45:46Z" changeset="123771884" uid="3497659" user="NKA">
		<tag k="name" v="Kveinå" />
		<tag k="old_name" v="Kveina" />
		<tag k="place" v="hamlet" />
		<tag k="ssr:stedsnr" v="378945" />
	</node>
	<node id="9895633738" lat="65.1977552" lon="12.226016" version="1" timestamp="2022-07-18T16:45:46Z" changeset="123771884" uid="3497659" user="NKA">
		<tag k="name" v="Steinbekklia" />
		<tag k="place" v="farm" />
		<tag k="ssr:stedsnr" v="318276" />
	</node>
	<node id="9895633739" lat="65.098697" lon="12.062981" version="1" timestamp="2022-07-18T16:45:46Z" changeset="123771884" uid="3497659" user="NKA">
		<tag k="name" v="Gårdsete" />
		<tag k="place" v="farm" />
		<tag k="ssr:stedsnr" v="379034" />
	</node>
	<node id="9895633740" lat="65.1968008" lon="12.236662" version="1" timestamp="2022-07-18T16:45:46Z" changeset="123771884" uid="3497659" user="NKA">
		<tag k="name" v="Sørhaugen" />
		<tag k="place" v="farm" />
		<tag k="ssr:stedsnr" v="297316" />
	</node>
	<node id="9895633741" lat="65.0481728" lon="12.1742901" version="1" timestamp="2022-07-18T16:45:46Z" changeset="123771884" uid="3497659" user="NKA">
		<tag k="name" v="Hesthagan" />
		<tag k="place" v="isolated_dwelling" />
		<tag k="ssr:stedsnr" v="299914" />
	</node>
	<node id="9895633742" lat="65.0610416" lon="12.2156042" version="1" timestamp="2022-07-18T16:45:46Z" changeset="123771884" uid="3497659" user="NKA">
		<tag k="name" v="Alslia" />
		<tag k="place" v="farm" />
		<tag k="ssr:stedsnr" v="864089" />
	</node>
	<node id="9895633743" lat="65.0412171" lon="12.1159703" version="1" timestamp="2022-07-18T16:45:46Z" changeset="123771884" uid="3497659" user="NKA">
		<tag k="alt_name" v="Juvikenget" />
		<tag k="name" v="Djupvikenget" />
		<tag k="place" v="isolated_dwelling" />
		<tag k="ssr:stedsnr" v="257135" />
	</node>
	<node id="9895633744" lat="65.2278139" lon="12.4442668" version="1" timestamp="2022-07-18T16:45:46Z" changeset="123771884" uid="3497659" user="NKA">
		<tag k="name" v="Skogstutomta" />
		<tag k="place" v="locality" />
		<tag k="ssr:stedsnr" v="357022" />
	</node>
	<node id="9895633745" lat="65.1219192" lon="12.2333218" version="1" timestamp="2022-07-18T16:45:46Z" changeset="123771884" uid="3497659" user="NKA">
		<tag k="name" v="Utgården" />
		<tag k="place" v="farm" />
		<tag k="ssr:stedsnr" v="239555" />
	</node>
	<node id="9895633746" lat="65.2183361" lon="12.4452501" version="1" timestamp="2022-07-18T16:45:46Z" changeset="123771884" uid="3497659" user="NKA">
		<tag k="name" v="Myrvoll" />
		<tag k="place" v="farm" />
		<tag k="ssr:stedsnr" v="177092" />
	</node>
	<node id="9895633747" lat="65.18408" lon="12.6256599" version="1" timestamp="2022-07-18T16:45:46Z" changeset="123771884" uid="3497659" user="NKA">
		<tag k="alt_name" v="Mehammeren" />
		<tag k="name" v="Mehammaren" />
		<tag k="place" v="locality" />
		<tag k="ssr:stedsnr" v="439289" />
	</node>
	<node id="9895633748" lat="65.1264705" lon="12.1661248" version="1" timestamp="2022-07-18T16:45:46Z" changeset="123771884" uid="3497659" user="NKA">
		<tag k="alt_name" v="Bursvikbotten;Bursvikbotn" />
		<tag k="name" v="Bursvikbotnet" />
		<tag k="place" v="farm" />
		<tag k="ssr:stedsnr" v="573101" />
	</node>
	<node id="9895633749" lat="65.1378583" lon="12.2295222" version="1" timestamp="2022-07-18T16:45:46Z" changeset="123771884" uid="3497659" user="NKA">
		<tag k="name" v="Vollan" />
		<tag k="place" v="farm" />
		<tag k="ssr:stedsnr" v="57491" />
	</node>
	<node id="9895633750" lat="65.1798222" lon="12.2630158" version="1" timestamp="2022-07-18T16:45:46Z" changeset="123771884" uid="3497659" user="NKA">
		<tag k="name" v="Nordli" />
		<tag k="place" v="farm" />
		<tag k="ssr:stedsnr" v="967047" />
	</node>
	<node id="9895633751" lat="65.1285472" lon="12.2520618" version="1" timestamp="2022-07-18T16:45:46Z" changeset="123771884" uid="3497659" user="NKA">
		<tag k="name" v="Østgård" />
		<tag k="place" v="farm" />
		<tag k="ssr:stedsnr" v="843553" />
	</node>
	<node id="9895633752" lat="65.1937827" lon="12.1542557" version="1" timestamp="2022-07-18T16:45:46Z" changeset="123771884" uid="3497659" user="NKA">
		<tag k="name" v="Skaret" />
		<tag k="place" v="farm" />
		<tag k="ssr:stedsnr" v="989062" />
	</node>
	<node id="9895633753" lat="65.1218914" lon="12.1684126" version="1" timestamp="2022-07-18T16:45:46Z" changeset="123771884" uid="3497659" user="NKA">
		<tag k="name" v="Kveinsjøen" />
		<tag k="place" v="farm" />
		<tag k="ssr:stedsnr" v="877127" />
	</node>
	<node id="9895633754" lat="65.192225" lon="12.2531889" version="1" timestamp="2022-07-18T16:45:46Z" changeset="123771884" uid="3497659" user="NKA">
		<tag k="name" v="Fiskerosen" />
		<tag k="place" v="farm" />
		<tag k="ssr:stedsnr" v="953721" />
	</node>
	<node id="9895633755" lat="65.1735327" lon="12.2459833" version="1" timestamp="2022-07-18T16:45:46Z" changeset="123771884" uid="3497659" user="NKA">
		<tag k="name" v="Sørgård" />
		<tag k="place" v="isolated_dwelling" />
		<tag k="ssr:stedsnr" v="906696" />
	</node>
	<node id="9895633756" lat="65.1404024" lon="12.120375" version="1" timestamp="2022-07-18T16:45:46Z" changeset="123771884" uid="3497659" user="NKA">
		<tag k="name" v="Storheil" />
		<tag k="place" v="hamlet" />
		<tag k="ssr:stedsnr" v="864987" />
	</node>
	<node id="9895633757" lat="65.11505" lon="11.98775" version="1" timestamp="2022-07-18T16:45:46Z" changeset="123771884" uid="3497659" user="NKA">
		<tag k="name" v="Hagan" />
		<tag k="place" v="farm" />
		<tag k="ssr:stedsnr" v="75959" />
	</node>
	<node id="9895633758" lat="65.1688334" lon="12.2719527" version="1" timestamp="2022-07-18T16:45:46Z" changeset="123771884" uid="3497659" user="NKA">
		<tag k="name" v="Staulaplassen" />
		<tag k="place" v="locality" />
		<tag k="ssr:stedsnr" v="661109" />
	</node>
	<node id="9895633759" lat="65.1327654" lon="12.6332415" version="1" timestamp="2022-07-18T16:45:46Z" changeset="123771884" uid="3497659" user="NKA">
		<tag k="name" v="Urvollvik" />
		<tag k="place" v="locality" />
		<tag k="ssr:stedsnr" v="178646" />
	</node>
	<node id="9895633760" lat="65.0573286" lon="12.0908512" version="1" timestamp="2022-07-18T16:45:46Z" changeset="123771884" uid="3497659" user="NKA">
		<tag k="name" v="Oldervika" />
		<tag k="place" v="farm" />
		<tag k="ssr:stedsnr" v="925110" />
	</node>
	<node id="9895633761" lat="65.2740362" lon="12.398182" version="1" timestamp="2022-07-18T16:45:46Z" changeset="123771884" uid="3497659" user="NKA">
		<tag k="name" v="Granåsen" />
		<tag k="place" v="hamlet" />
		<tag k="ssr:stedsnr" v="500274" />
	</node>
	<node id="9895633762" lat="65.160425" lon="12.2203861" version="1" timestamp="2022-07-18T16:45:46Z" changeset="123771884" uid="3497659" user="NKA">
		<tag k="name" v="Bjørnlia" />
		<tag k="place" v="locality" />
		<tag k="ssr:stedsnr" v="843716" />
	</node>
	<node id="9895633763" lat="65.1973556" lon="12.2177528" version="1" timestamp="2022-07-18T16:45:46Z" changeset="123771884" uid="3497659" user="NKA">
		<tag k="name" v="Djupdalsmoen" />
		<tag k="place" v="locality" />
		<tag k="ssr:stedsnr" v="843302" />
	</node>
	<node id="9895633764" lat="65.0842195" lon="11.997889" version="1" timestamp="2022-07-18T16:45:46Z" changeset="123771884" uid="3497659" user="NKA">
		<tag k="name" v="Hålop" />
		<tag k="place" v="farm" />
		<tag k="ssr:stedsnr" v="846051" />
	</node>
	<node id="9895633765" lat="65.0402917" lon="12.0987333" version="1" timestamp="2022-07-18T16:45:46Z" changeset="123771884" uid="3497659" user="NKA">
		<tag k="name" v="Neset" />
		<tag k="place" v="locality" />
		<tag k="ssr:stedsnr" v="570835" />
	</node>
	<node id="9895633766" lat="65.2733649" lon="12.4174639" version="1" timestamp="2022-07-18T16:45:46Z" changeset="123771884" uid="3497659" user="NKA">
		<tag k="name" v="Vasskroken" />
		<tag k="place" v="farm" />
		<tag k="ssr:stedsnr" v="379240" />
	</node>
	<node id="9895633767" lat="65.2042888" lon="12.2365478" version="1" timestamp="2022-07-18T16:45:46Z" changeset="123771884" uid="3497659" user="NKA">
		<tag k="name" v="Sandvik" />
		<tag k="place" v="farm" />
		<tag k="ssr:stedsnr" v="724340" />
	</node>
	<node id="9895633768" lat="65.1972246" lon="12.2399027" version="1" timestamp="2022-07-18T16:45:46Z" changeset="123771884" uid="3497659" user="NKA">
		<tag k="name" v="Haugen" />
		<tag k="place" v="farm" />
		<tag k="ssr:stedsnr" v="783281" />
	</node>
	<node id="9895633769" lat="65.1744694" lon="12.2507643" version="1" timestamp="2022-07-18T16:45:46Z" changeset="123771884" uid="3497659" user="NKA">
		<tag k="name" v="Nordgård" />
		<tag k="place" v="farm" />
		<tag k="ssr:stedsnr" v="723659" />
	</node>
	<node id="9895633770" lat="65.1972278" lon="12.2446027" version="1" timestamp="2022-07-18T16:45:46Z" changeset="123771884" uid="3497659" user="NKA">
		<tag k="name" v="Langåsen" />
		<tag k="place" v="locality" />
		<tag k="ssr:stedsnr" v="479306" />
	</node>
	<node id="9895633771" lat="65.1306216" lon="12.2508977" version="1" timestamp="2022-07-18T16:45:46Z" changeset="123771884" uid="3497659" user="NKA">
		<tag k="name" v="Sørgård" />
		<tag k="place" v="farm" />
		<tag k="ssr:stedsnr" v="782516" />
	</node>
	<node id="9895633772" lat="65.1975378" lon="12.2472779" version="1" timestamp="2022-07-18T16:45:46Z" changeset="123771884" uid="3497659" user="NKA">
		<tag k="name" v="Villaen" />
		<tag k="place" v="isolated_dwelling" />
		<tag k="ssr:stedsnr" v="479303" />
	</node>
	<node id="9895633773" lat="65.0566258" lon="12.1854191" version="1" timestamp="2022-07-18T16:45:46Z" changeset="123771884" uid="3497659" user="NKA">
		<tag k="name" v="Stien" />
		<tag k="place" v="isolated_dwelling" />
		<tag k="ssr:stedsnr" v="541920" />
	</node>
	<node id="9895633774" lat="65.1179917" lon="12.2370927" version="1" timestamp="2022-07-18T16:45:46Z" changeset="123771884" uid="3497659" user="NKA">
		<tag k="name" v="Nyheimen" />
		<tag k="place" v="farm" />
		<tag k="ssr:stedsnr" v="542565" />
	</node>
	<node id="9895633775" lat="65.0876169" lon="12.3713069" version="1" timestamp="2022-07-18T16:45:46Z" changeset="123771884" uid="3497659" user="NKA">
		<tag k="name" v="Nordre Terråk" />
		<tag k="place" v="neighbourhood" />
		<tag k="ssr:stedsnr" v="906324" />
	</node>
	<node id="9895633776" lat="65.0581222" lon="12.1607028" version="1" timestamp="2022-07-18T16:45:46Z" changeset="123771884" uid="3497659" user="NKA">
		<tag k="name" v="Osen" />
		<tag k="place" v="farm" />
		<tag k="ssr:stedsnr" v="541921" />
	</node>
	<node id="9895633777" lat="65.1645142" lon="12.2695669" version="1" timestamp="2022-07-18T16:45:46Z" changeset="123771884" uid="3497659" user="NKA">
		<tag k="name" v="Bakkejord" />
		<tag k="place" v="farm" />
		<tag k="ssr:stedsnr" v="419086" />
	</node>
	<node id="9895633778" lat="65.0756108" lon="12.070217" version="1" timestamp="2022-07-18T16:45:46Z" changeset="123771884" uid="3497659" user="NKA">
		<tag k="name" v="Skogheim" />
		<tag k="place" v="isolated_dwelling" />
		<tag k="ssr:stedsnr" v="540839" />
	</node>
	<node id="9895633779" lat="65.104817" lon="11.9939284" version="1" timestamp="2022-07-18T16:45:46Z" changeset="123771884" uid="3497659" user="NKA">
		<tag k="name" v="Sørhorsfjord" />
		<tag k="place" v="hamlet" />
		<tag k="ssr:stedsnr" v="75017" />
	</node>
	<node id="9895633780" lat="65.2105611" lon="12.213" version="1" timestamp="2022-07-18T16:45:46Z" changeset="123771884" uid="3497659" user="NKA">
		<tag k="name" v="Løvoll" />
		<tag k="place" v="farm" />
		<tag k="ssr:stedsnr" v="358314" />
	</node>
	<node id="9895633781" lat="65.0978861" lon="12.41005" version="1" timestamp="2022-07-18T16:45:46Z" changeset="123771884" uid="3497659" user="NKA">
		<tag k="name" v="Solheim" />
		<tag k="place" v="farm" />
		<tag k="ssr:stedsnr" v="682476" />
	</node>
	<node id="9895633782" lat="65.2075525" lon="12.2154481" version="1" timestamp="2022-07-18T16:45:46Z" changeset="123771884" uid="3497659" user="NKA">
		<tag k="name" v="Skauvika" />
		<tag k="place" v="hamlet" />
		<tag k="ssr:stedsnr" v="378939" />
	</node>
	<node id="9895633783" lat="65.0973343" lon="12.4225812" version="1" timestamp="2022-07-18T16:45:46Z" changeset="123771884" uid="3497659" user="NKA">
		<tag k="name" v="Vassås" />
		<tag k="place" v="farm" />
		<tag k="ssr:stedsnr" v="682479" />
	</node>
	<node id="9895633784" lat="64.9891581" lon="12.2055884" version="1" timestamp="2022-07-18T16:45:46Z" changeset="123771884" uid="3497659" user="NKA">
		<tag k="name" v="Kolla" />
		<tag k="place" v="farm" />
		<tag k="ssr:stedsnr" v="682724" />
	</node>
	<node id="9895633785" lat="65.1794528" lon="12.1232389" version="1" timestamp="2022-07-18T16:45:46Z" changeset="123771884" uid="3497659" user="NKA">
		<tag k="name" v="Ørnhagen" />
		<tag k="place" v="farm" />
		<tag k="ssr:stedsnr" v="257928" />
	</node>
	<node id="9895633786" lat="65.162057" lon="12.2693517" version="1" timestamp="2022-07-18T16:45:46Z" changeset="123771884" uid="3497659" user="NKA">
		<tag k="name" v="Gjerdet" />
		<tag k="place" v="farm" />
		<tag k="ssr:stedsnr" v="540095" />
	</node>
	<node id="9895633787" lat="65.1295815" lon="12.376503" version="1" timestamp="2022-07-18T16:45:46Z" changeset="123771884" uid="3497659" user="NKA">
		<tag k="name" v="Dalen" />
		<tag k="place" v="farm" />
		<tag k="ssr:stedsnr" v="682393" />
	</node>
	<node id="9895633788" lat="65.1739948" lon="12.2457077" version="1" timestamp="2022-07-18T16:45:46Z" changeset="123771884" uid="3497659" user="NKA">
		<tag k="name" v="Skjelsvika" />
		<tag k="place" v="hamlet" />
		<tag k="ssr:stedsnr" v="136343" />
	</node>
	<node id="9895633789" lat="65.1807805" lon="12.2656354" version="1" timestamp="2022-07-18T16:45:46Z" changeset="123771884" uid="3497659" user="NKA">
		<tag k="name" v="Skjelsviksjøen" />
		<tag k="place" v="hamlet" />
		<tag k="ssr:stedsnr" v="378310" />
	</node>
	<node id="9895633790" lat="65.1935363" lon="12.2426606" version="1" timestamp="2022-07-18T16:45:46Z" changeset="123771884" uid="3497659" user="NKA">
		<tag k="name" v="Fagervoll" />
		<tag k="place" v="farm" />
		<tag k="ssr:stedsnr" v="237317" />
	</node>
	<node id="9895633791" lat="65.1894982" lon="12.1585543" version="1" timestamp="2022-07-18T16:45:46Z" changeset="123771884" uid="3497659" user="NKA">
		<tag k="name" v="Solstad" />
		<tag k="place" v="hamlet" />
		<tag k="ssr:stedsnr" v="117685" />
	</node>
	<node id="9895633792" lat="65.1058212" lon="12.3264898" version="1" timestamp="2022-07-18T16:45:46Z" changeset="123771884" uid="3497659" user="NKA">
		<tag k="name" v="Hildringen" />
		<tag k="place" v="farm" />
		<tag k="ssr:stedsnr" v="318400" />
	</node>
	<node id="9895633793" lat="65.1829083" lon="12.3611557" version="1" timestamp="2022-07-18T16:45:46Z" changeset="123771884" uid="3497659" user="NKA">
		<tag k="alt_name" v="Imøysæter" />
		<tag k="name" v="Sætran" />
		<tag k="place" v="farm" />
		<tag k="ssr:stedsnr" v="682347" />
	</node>
	<node id="9895633794" lat="65.1858444" lon="12.1272345" version="1" timestamp="2022-07-18T16:45:46Z" changeset="123771884" uid="3497659" user="NKA">
		<tag k="name" v="Bortgården" />
		<tag k="place" v="farm" />
		<tag k="ssr:stedsnr" v="57652" />
	</node>
	<node id="9895633795" lat="65.1498464" lon="12.2176401" version="1" timestamp="2022-07-18T16:45:46Z" changeset="123771884" uid="3497659" user="NKA">
		<tag k="name" v="Skogset" />
		<tag k="place" v="farm" />
		<tag k="ssr:stedsnr" v="621988" />
	</node>
	<node id="9895633796" lat="65.1285639" lon="12.1990528" version="1" timestamp="2022-07-18T16:45:46Z" changeset="123771884" uid="3497659" user="NKA">
		<tag k="alt_name" v="Åsaunmoen" />
		<tag k="name" v="Saglia" />
		<tag k="place" v="farm" />
		<tag k="ssr:stedsnr" v="621949" />
	</node>
	<node id="9895633797" lat="65.1895478" lon="12.1469241" version="1" timestamp="2022-07-18T16:45:46Z" changeset="123771884" uid="3497659" user="NKA">
		<tag k="name" v="Gjerdet" />
		<tag k="place" v="farm" />
		<tag k="ssr:stedsnr" v="756102" />
	</node>
	<node id="9895633798" lat="65.1771253" lon="12.2634894" version="1" timestamp="2022-07-18T16:45:46Z" changeset="123771884" uid="3497659" user="NKA">
		<tag k="name" v="Skreddervika" />
		<tag k="place" v="farm" />
		<tag k="ssr:stedsnr" v="15338" />
	</node>
	<node id="9895633799" lat="65.1284379" lon="12.3730108" version="1" timestamp="2022-07-18T16:45:46Z" changeset="123771884" uid="3497659" user="NKA">
		<tag k="name" v="Nystad" />
		<tag k="place" v="locality" />
		<tag k="ssr:stedsnr" v="57079" />
	</node>
	<node id="9895633800" lat="65.0969527" lon="12.4068987" version="1" timestamp="2022-07-18T16:45:46Z" changeset="123771884" uid="3497659" user="NKA">
		<tag k="name" v="Plassen" />
		<tag k="place" v="farm" />
		<tag k="ssr:stedsnr" v="602641" />
	</node>
	<node id="9895633801" lat="65.1165837" lon="12.4969164" version="1" timestamp="2022-07-18T16:45:46Z" changeset="123771884" uid="3497659" user="NKA">
		<tag k="name" v="Helstad" />
		<tag k="place" v="hamlet" />
		<tag k="ssr:stedsnr" v="136443" />
	</node>
	<node id="9895633802" lat="65.1254929" lon="12.2405225" version="1" timestamp="2022-07-18T16:45:46Z" changeset="123771884" uid="3497659" user="NKA">
		<tag k="name" v="Måsåkran" />
		<tag k="place" v="farm" />
		<tag k="ssr:stedsnr" v="360527" />
	</node>
	<node id="9895633803" lat="65.1961622" lon="12.2302805" version="1" timestamp="2022-07-18T16:45:46Z" changeset="123771884" uid="3497659" user="NKA">
		<tag k="name" v="Sandmoen" />
		<tag k="place" v="farm" />
		<tag k="ssr:stedsnr" v="600305" />
	</node>
	<node id="9895633804" lat="65.2269472" lon="12.3640722" version="1" timestamp="2022-07-18T16:45:46Z" changeset="123771884" uid="3497659" user="NKA">
		<tag k="name" v="Oppgarden" />
		<tag k="place" v="farm" />
		<tag k="ssr:stedsnr" v="54858" />
	</node>
	<node id="9895633805" lat="65.0741209" lon="12.3475079" version="1" timestamp="2022-07-18T16:45:46Z" changeset="123771884" uid="3497659" user="NKA">
		<tag k="name" v="Furumo" />
		<tag k="place" v="farm" />
		<tag k="ssr:stedsnr" v="966286" />
	</node>
	<node id="9895633806" lat="65.1126363" lon="12.3359422" version="1" timestamp="2022-07-18T16:45:46Z" changeset="123771884" uid="3497659" user="NKA">
		<tag k="name" v="Grønholmen" />
		<tag k="place" v="farm" />
		<tag k="ssr:stedsnr" v="500467" />
	</node>
	<node id="9895633807" lat="65.1999486" lon="12.2328744" version="1" timestamp="2022-07-18T16:45:46Z" changeset="123771884" uid="3497659" user="NKA">
		<tag k="name" v="Solli" />
		<tag k="place" v="farm" />
		<tag k="ssr:stedsnr" v="844299" />
	</node>
	<node id="9895633808" lat="65.166741" lon="12.2830943" version="1" timestamp="2022-07-18T16:45:46Z" changeset="123771884" uid="3497659" user="NKA">
		<tag k="name" v="Holmstranda" />
		<tag k="place" v="isolated_dwelling" />
		<tag k="ssr:stedsnr" v="621298" />
	</node>
	<node id="9895633809" lat="65.1098361" lon="12.3288751" version="1" timestamp="2022-07-18T16:45:46Z" changeset="123771884" uid="3497659" user="NKA">
		<tag k="name" v="Bakken" />
		<tag k="place" v="farm" />
		<tag k="ssr:stedsnr" v="15447" />
	</node>
	<node id="9895633810" lat="65.0646278" lon="12.0945445" version="1" timestamp="2022-07-18T16:45:46Z" changeset="123771884" uid="3497659" user="NKA">
		<tag k="name" v="Kjesvika" />
		<tag k="place" v="locality" />
		<tag k="ssr:stedsnr" v="358227" />
	</node>
	<node id="9895633811" lat="65.1927752" lon="12.2493166" version="1" timestamp="2022-07-18T16:45:46Z" changeset="123771884" uid="3497659" user="NKA">
		<tag k="name" v="Stranda" />
		<tag k="place" v="farm" />
		<tag k="ssr:stedsnr" v="358299" />
	</node>
	<node id="9895633812" lat="65.131334" lon="12.3309222" version="1" timestamp="2022-07-18T16:45:46Z" changeset="123771884" uid="3497659" user="NKA">
		<tag k="alt_name" v="Lien" />
		<tag k="name" v="Lia" />
		<tag k="place" v="farm" />
		<tag k="ssr:stedsnr" v="15411" />
	</node>
	<node id="9895633813" lat="65.19346" lon="12.2487449" version="1" timestamp="2022-07-18T16:45:46Z" changeset="123771884" uid="3497659" user="NKA">
		<tag k="name" v="Borgen" />
		<tag k="place" v="farm" />
		<tag k="ssr:stedsnr" v="358297" />
	</node>
	<node id="9895633814" lat="65.1656532" lon="12.2748562" version="1" timestamp="2022-07-18T16:45:46Z" changeset="123771884" uid="3497659" user="NKA">
		<tag k="name" v="Skogly" />
		<tag k="place" v="farm" />
		<tag k="ssr:stedsnr" v="358120" />
	</node>
	<node id="9895633815" lat="65.1267333" lon="12.2460222" version="1" timestamp="2022-07-18T16:45:46Z" changeset="123771884" uid="3497659" user="NKA">
		<tag k="name" v="Solvang" />
		<tag k="place" v="farm" />
		<tag k="ssr:stedsnr" v="357508" />
	</node>
	<node id="9895633816" lat="65.1240252" lon="12.372796" version="1" timestamp="2022-07-18T16:45:46Z" changeset="123771884" uid="3497659" user="NKA">
		<tag k="name" v="Øksninga" />
		<tag k="place" v="hamlet" />
		<tag k="ssr:stedsnr" v="440390" />
	</node>
	<node id="9895633817" lat="65.1227353" lon="12.2331064" version="1" timestamp="2022-07-18T16:45:46Z" changeset="123771884" uid="3497659" user="NKA">
		<tag k="name" v="Nordli" />
		<tag k="place" v="farm" />
		<tag k="ssr:stedsnr" v="421555" />
	</node>
	<node id="9895633818" lat="65.1594314" lon="12.1264403" version="1" timestamp="2022-07-18T16:45:46Z" changeset="123771884" uid="3497659" user="NKA">
		<tag k="name" v="Litlheil" />
		<tag k="place" v="hamlet" />
		<tag k="ssr:stedsnr" v="181448" />
	</node>
	<node id="9895633819" lat="65.1605006" lon="12.2296284" version="1" timestamp="2022-07-18T16:45:46Z" changeset="123771884" uid="3497659" user="NKA">
		<tag k="name" v="Grønlia" />
		<tag k="place" v="farm" />
		<tag k="ssr:stedsnr" v="257308" />
	</node>
	<node id="9895633820" lat="65.1827083" lon="12.3460194" version="1" timestamp="2022-07-18T16:45:46Z" changeset="123771884" uid="3497659" user="NKA">
		<tag k="alt_name" v="Nyheim" />
		<tag k="name" v="Husvika" />
		<tag k="place" v="farm" />
		<tag k="ssr:stedsnr" v="318309" />
	</node>
	<node id="9895633821" lat="65.2756529" lon="12.4208649" version="1" timestamp="2022-07-18T16:45:46Z" changeset="123771884" uid="3497659" user="NKA">
		<tag k="name" v="Høgli" />
		<tag k="place" v="farm" />
		<tag k="ssr:stedsnr" v="682268" />
	</node>
	<node id="9895633822" lat="65.08138" lon="12.3468552" version="1" timestamp="2022-07-18T16:45:46Z" changeset="123771884" uid="3497659" user="NKA">
		<tag k="name" v="Stokkvika" />
		<tag k="place" v="farm" />
		<tag k="ssr:stedsnr" v="257462" />
	</node>
	<node id="9895633823" lat="65.042446" lon="12.3389796" version="1" timestamp="2022-07-18T16:45:46Z" changeset="123771884" uid="3497659" user="NKA">
		<tag k="name" v="Bøckmannhytta" />
		<tag k="place" v="isolated_dwelling" />
		<tag k="ssr:stedsnr" v="238384" />
	</node>
	<node id="9895633824" lat="65.0900084" lon="12.3853777" version="1" timestamp="2022-07-18T16:45:46Z" changeset="123771884" uid="3497659" user="NKA">
		<tag k="name" v="Neset" />
		<tag k="place" v="neighbourhood" />
		<tag k="ssr:stedsnr" v="238315" />
	</node>
	<node id="9895633825" lat="65.2560583" lon="12.301339" version="1" timestamp="2022-07-18T16:45:46Z" changeset="123771884" uid="3497659" user="NKA">
		<tag k="name" v="Nordheim" />
		<tag k="place" v="farm" />
		<tag k="ssr:stedsnr" v="501141" />
	</node>
	<node id="9895633826" lat="65.1211108" lon="12.2376368" version="1" timestamp="2022-07-18T16:45:46Z" changeset="123771884" uid="3497659" user="NKA">
		<tag k="name" v="Nergården" />
		<tag k="place" v="farm" />
		<tag k="ssr:stedsnr" v="178546" />
	</node>
	<node id="9895633827" lat="65.1902524" lon="12.2229374" version="1" timestamp="2022-07-18T16:45:46Z" changeset="123771884" uid="3497659" user="NKA">
		<tag k="name" v="Fossenget" />
		<tag k="place" v="farm" />
		<tag k="ssr:stedsnr" v="178299" />
	</node>
	<node id="9895633828" lat="65.0804361" lon="11.961125" version="1" timestamp="2022-07-18T16:45:46Z" changeset="123771884" uid="3497659" user="NKA">
		<tag k="name" v="Berg" />
		<tag k="place" v="farm" />
		<tag k="ssr:stedsnr" v="14049" />
	</node>
	<node id="9895633829" lat="65.0830805" lon="11.9662943" version="1" timestamp="2022-07-18T16:45:46Z" changeset="123771884" uid="3497659" user="NKA">
		<tag k="name" v="Sørkjærstad" />
		<tag k="place" v="farm" />
		<tag k="ssr:stedsnr" v="782515" />
	</node>
	<node id="9895633830" lat="65.2293558" lon="12.290918" version="1" timestamp="2022-07-18T16:45:46Z" changeset="123771884" uid="3497659" user="NKA">
		<tag k="name" v="Sørøya" />
		<tag k="place" v="locality" />
		<tag k="ssr:stedsnr" v="177852" />
	</node>
	<node id="9895633831" lat="65.1609333" lon="12.0192833" version="1" timestamp="2022-07-18T16:45:46Z" changeset="123771884" uid="3497659" user="NKA">
		<tag k="name" v="Kjellsand" />
		<tag k="place" v="farm" />
		<tag k="ssr:stedsnr" v="743896" />
	</node>
	<node id="9895633832" lat="65.1597472" lon="12.1800388" version="1" timestamp="2022-07-18T16:45:46Z" changeset="123771884" uid="3497659" user="NKA">
		<tag k="name" v="Fjellgården" />
		<tag k="place" v="locality" />
		<tag k="ssr:stedsnr" v="177779" />
	</node>
	<node id="9895633833" lat="65.1024916" lon="11.9776305" version="1" timestamp="2022-07-18T16:45:46Z" changeset="123771884" uid="3497659" user="NKA">
		<tag k="alt_name" v="Myrvold" />
		<tag k="name" v="Myrvoll" />
		<tag k="place" v="farm" />
		<tag k="ssr:stedsnr" v="500045" />
	</node>
	<node id="9895633834" lat="65.0871581" lon="12.372473" version="1" timestamp="2022-07-18T16:45:46Z" changeset="123771884" uid="3497659" user="NKA">
		<tag k="name" v="Terråk gård" />
		<tag k="place" v="locality" />
		<tag k="ssr:stedsnr" v="421288" />
	</node>
	<node id="9895633835" lat="65.2401584" lon="12.8140249" version="1" timestamp="2022-07-18T16:45:46Z" changeset="123771884" uid="3497659" user="NKA">
		<tag k="name" v="Finnlia" />
		<tag k="place" v="farm" />
		<tag k="ssr:stedsnr" v="500651" />
	</node>
	<node id="9895633836" lat="65.0508028" lon="12.1875445" version="1" timestamp="2022-07-18T16:45:46Z" changeset="123771884" uid="3497659" user="NKA">
		<tag k="historic" v="shieling" />
		<tag k="name" v="Sandviksætran" />
		<tag k="place" v="isolated_dwelling" />
		<tag k="ssr:stedsnr" v="906926" />
	</node>
	<node id="9895633837" lat="65.19573" lon="12.2411121" version="1" timestamp="2022-07-18T16:45:46Z" changeset="123771884" uid="3497659" user="NKA">
		<tag k="name" v="Storgjerdet" />
		<tag k="place" v="farm" />
		<tag k="ssr:stedsnr" v="176290" />
	</node>
	<node id="9895633838" lat="65.0300415" lon="12.1848409" version="1" timestamp="2022-07-18T16:45:46Z" changeset="123771884" uid="3497659" user="NKA">
		<tag k="alt_name" v="Skarholdt" />
		<tag k="name" v="Skarholt" />
		<tag k="place" v="farm" />
		<tag k="ssr:stedsnr" v="602869" />
	</node>
	<node id="9895633839" lat="65.0967916" lon="12.4201806" version="1" timestamp="2022-07-18T16:45:46Z" changeset="123771884" uid="3497659" user="NKA">
		<tag k="name" v="England" />
		<tag k="place" v="locality" />
		<tag k="ssr:stedsnr" v="420714" />
	</node>
	<node id="9895633840" lat="65.017271" lon="12.1937642" version="1" timestamp="2022-07-18T16:45:46Z" changeset="123771884" uid="3497659" user="NKA">
		<tag k="name" v="Forneset" />
		<tag k="place" v="hamlet" />
		<tag k="ssr:stedsnr" v="682207" />
	</node>
	<node id="9895633841" lat="65.1314093" lon="12.2136807" version="1" timestamp="2022-07-18T16:45:46Z" changeset="123771884" uid="3497659" user="NKA">
		<tag k="name" v="Åsaunet" />
		<tag k="place" v="farm" />
		<tag k="ssr:stedsnr" v="115516" />
	</node>
	<node id="9895633842" lat="65.085418" lon="11.9718322" version="1" timestamp="2022-07-18T16:45:46Z" changeset="123771884" uid="3497659" user="NKA">
		<tag k="name" v="Kjærstad" />
		<tag k="place" v="hamlet" />
		<tag k="ssr:stedsnr" v="317046" />
	</node>
	<node id="9895633843" lat="65.1383778" lon="12.0160167" version="1" timestamp="2022-07-18T16:45:46Z" changeset="123771884" uid="3497659" user="NKA">
		<tag k="name" v="Oppdalsmoen" />
		<tag k="place" v="farm" />
		<tag k="ssr:stedsnr" v="76985" />
	</node>
	<node id="9895633844" lat="65.2005747" lon="12.2388649" version="1" timestamp="2022-07-18T16:45:46Z" changeset="123771884" uid="3497659" user="NKA">
		<tag k="name" v="Fredly" />
		<tag k="place" v="farm" />
		<tag k="ssr:stedsnr" v="115333" />
	</node>
	<node id="9895633845" lat="65.0672602" lon="12.3059196" version="1" timestamp="2022-07-18T16:45:46Z" changeset="123771884" uid="3497659" user="NKA">
		<tag k="name" v="Bogen" />
		<tag k="place" v="farm" />
		<tag k="ssr:stedsnr" v="763497" />
	</node>
	<node id="9895633846" lat="65.0783483" lon="12.2807789" version="1" timestamp="2022-07-18T16:45:46Z" changeset="123771884" uid="3497659" user="NKA">
		<tag k="alt_name" v="Strand" />
		<tag k="name" v="Aspnesstranda" />
		<tag k="place" v="farm" />
		<tag k="ssr:stedsnr" v="378449" />
	</node>
	<node id="9895633847" lat="65.1165476" lon="11.9969309" version="1" timestamp="2022-07-18T16:45:46Z" changeset="123771884" uid="3497659" user="NKA">
		<tag k="name" v="Nordhorsfjord" />
		<tag k="place" v="hamlet" />
		<tag k="ssr:stedsnr" v="75961" />
	</node>
	<node id="9895633848" lat="65.0729059" lon="12.263094" version="1" timestamp="2022-07-18T16:45:46Z" changeset="123771884" uid="3497659" user="NKA">
		<tag k="name" v="Alslimoen" />
		<tag k="place" v="farm" />
		<tag k="ssr:stedsnr" v="136451" />
	</node>
	<node id="9895633849" lat="65.1920584" lon="12.2509976" version="1" timestamp="2022-07-18T16:45:46Z" changeset="123771884" uid="3497659" user="NKA">
		<tag k="name" v="Gunnheim" />
		<tag k="place" v="farm" />
		<tag k="ssr:stedsnr" v="55297" />
	</node>
	<node id="9895633850" lat="65.136881" lon="12.2251921" version="1" timestamp="2022-07-18T16:45:46Z" changeset="123771884" uid="3497659" user="NKA">
		<tag k="name" v="Bøkestad" />
		<tag k="place" v="hamlet" />
		<tag k="ssr:stedsnr" v="15355" />
	</node>
	<node id="9895633851" lat="65.1306255" lon="12.2215567" version="1" timestamp="2022-07-18T16:45:46Z" changeset="123771884" uid="3497659" user="NKA">
		<tag k="name" v="Nystad" />
		<tag k="place" v="farm" />
		<tag k="ssr:stedsnr" v="54546" />
	</node>
	<node id="9895633852" lat="65.081056" lon="11.9782875" version="1" timestamp="2022-07-18T16:45:46Z" changeset="123771884" uid="3497659" user="NKA">
		<tag k="alt_name" v="Aunet" />
		<tag k="name" v="Aune" />
		<tag k="place" v="hamlet" />
		<tag k="ssr:stedsnr" v="742038" />
	</node>
	<node id="9895633853" lat="65.1023611" lon="11.9635416" version="1" timestamp="2022-07-18T16:45:46Z" changeset="123771884" uid="3497659" user="NKA">
		<tag k="name" v="Staulan" />
		<tag k="place" v="farm" />
		<tag k="ssr:stedsnr" v="660511" />
	</node>
	<node id="9895633854" lat="65.0904882" lon="12.3148829" version="1" timestamp="2022-07-18T16:45:46Z" changeset="123771884" uid="3497659" user="NKA">
		<tag k="name" v="Hjartøysundet" />
		<tag k="place" v="isolated_dwelling" />
		<tag k="ssr:stedsnr" v="621457" />
	</node>
	<node id="9895633855" lat="65.0396473" lon="12.3285666" version="1" timestamp="2022-07-18T16:45:46Z" changeset="123771884" uid="3497659" user="NKA">
		<tag k="alt_name" v="Terråksætran" />
		<tag k="name" v="Terråksæter" />
		<tag k="place" v="isolated_dwelling" />
		<tag k="ssr:stedsnr" v="499399" />
	</node>
	<node id="9895633856" lat="65.0671028" lon="12.5513695" version="1" timestamp="2022-07-18T16:45:46Z" changeset="123771884" uid="3497659" user="NKA">
		<tag k="name" v="Gjerde" />
		<tag k="place" v="locality" />
		<tag k="ssr:stedsnr" v="724982" />
	</node>
	<node id="9895633857" lat="64.9833457" lon="12.1857463" version="1" timestamp="2022-07-18T16:45:46Z" changeset="123771884" uid="3497659" user="NKA">
		<tag k="name" v="Kollsæter" />
		<tag k="place" v="farm" />
		<tag k="ssr:stedsnr" v="560630" />
	</node>
	<node id="9895633858" lat="65.0586439" lon="12.4901591" version="1" timestamp="2022-07-18T16:45:46Z" changeset="123771884" uid="3497659" user="NKA">
		<tag k="name" v="Øvjemo" />
		<tag k="place" v="farm" />
		<tag k="ssr:stedsnr" v="663486" />
	</node>
	<node id="9895633859" lat="65.003302" lon="12.1889751" version="1" timestamp="2022-07-18T16:45:46Z" changeset="123771884" uid="3497659" user="NKA">
		<tag k="name" v="Storvika" />
		<tag k="place" v="farm" />
		<tag k="ssr:stedsnr" v="560178" />
	</node>
	<node id="9895633860" lat="65.1102917" lon="12.4888138" version="1" timestamp="2022-07-18T16:45:46Z" changeset="123771884" uid="3497659" user="NKA">
		<tag k="name" v="Myra" />
		<tag k="place" v="farm" />
		<tag k="ssr:stedsnr" v="743412" />
	</node>
	<node id="9895633861" lat="65.1194139" lon="12.5125943" version="1" timestamp="2022-07-18T16:45:46Z" changeset="123771884" uid="3497659" user="NKA">
		<tag k="name" v="Sjybergan" />
		<tag k="place" v="isolated_dwelling" />
		<tag k="ssr:stedsnr" v="906690" />
	</node>
	<node id="9895633862" lat="65.1175394" lon="12.4981811" version="1" timestamp="2022-07-18T16:45:46Z" changeset="123771884" uid="3497659" user="NKA">
		<tag k="name" v="Bergtun" />
		<tag k="place" v="farm" />
		<tag k="ssr:stedsnr" v="723338" />
	</node>
	<node id="9895633863" lat="65.0713" lon="12.2435667" version="1" timestamp="2022-07-18T16:45:46Z" changeset="123771884" uid="3497659" user="NKA">
		<tag k="name" v="Fellesteigen" />
		<tag k="place" v="locality" />
		<tag k="ssr:stedsnr" v="299629" />
	</node>
	<node id="9895633864" lat="65.0373891" lon="12.5254008" version="1" timestamp="2022-07-18T16:45:46Z" changeset="123771884" uid="3497659" user="NKA">
		<tag k="name" v="Gautmoen" />
		<tag k="place" v="farm" />
		<tag k="ssr:stedsnr" v="378496" />
	</node>
	<node id="9895633865" lat="65.0637472" lon="12.5353028" version="1" timestamp="2022-07-18T16:45:46Z" changeset="123771884" uid="3497659" user="NKA">
		<tag k="name" v="Bruvoll" />
		<tag k="place" v="farm" />
		<tag k="ssr:stedsnr" v="379423" />
	</node>
	<node id="9895633866" lat="65.0836889" lon="12.8664416" version="1" timestamp="2022-07-18T16:45:46Z" changeset="123771884" uid="3497659" user="NKA">
		<tag k="name" v="Klarem" />
		<tag k="place" v="locality" />
		<tag k="ssr:stedsnr" v="682561" />
	</node>
	<node id="9895633867" lat="65.2403833" lon="12.6936083" version="1" timestamp="2022-07-18T16:45:46Z" changeset="123771884" uid="3497659" user="NKA">
		<tag k="name" v="Aunvollen" />
		<tag k="place" v="locality" />
		<tag k="ssr:stedsnr" v="257244" />
	</node>
	<node id="9895633868" lat="65.0869417" lon="12.3851722" version="1" timestamp="2022-07-18T16:45:46Z" changeset="123771884" uid="3497659" user="NKA">
		<tag k="name" v="Elva" />
		<tag k="place" v="locality" />
		<tag k="ssr:stedsnr" v="178291" />
	</node>
	<node id="9895633869" lat="65.1151033" lon="12.503044" version="1" timestamp="2022-07-18T16:45:46Z" changeset="123771884" uid="3497659" user="NKA">
		<tag k="name" v="Myrvang" />
		<tag k="place" v="farm" />
		<tag k="ssr:stedsnr" v="663662" />
	</node>
	<node id="9895633870" lat="65.0914128" lon="12.3361493" version="1" timestamp="2022-07-18T16:45:46Z" changeset="123771884" uid="3497659" user="NKA">
		<tag k="name" v="Hjartøya" />
		<tag k="place" v="farm" />
		<tag k="ssr:stedsnr" v="178295" />
	</node>
	<node id="9895633871" lat="65.05933" lon="12.2474028" version="1" timestamp="2022-07-18T16:45:46Z" changeset="123771884" uid="3497659" user="NKA">
		<tag k="name" v="Valvika" />
		<tag k="place" v="farm" />
		<tag k="ssr:stedsnr" v="217462" />
	</node>
	<node id="9895633872" lat="65.1182361" lon="12.5196528" version="1" timestamp="2022-07-18T16:45:46Z" changeset="123771884" uid="3497659" user="NKA">
		<tag k="name" v="Sjøveien" />
		<tag k="place" v="farm" />
		<tag k="ssr:stedsnr" v="238678" />
	</node>
	<node id="9895633873" lat="65.0215119" lon="12.1874827" version="1" timestamp="2022-07-18T16:45:46Z" changeset="123771884" uid="3497659" user="NKA">
		<tag k="name" v="Bakken" />
		<tag k="place" v="farm" />
		<tag k="ssr:stedsnr" v="906882" />
	</node>
	<node id="9895633874" lat="65.0600027" lon="12.4874057" version="1" timestamp="2022-07-18T16:45:46Z" changeset="123771884" uid="3497659" user="NKA">
		<tag k="name" v="Plassen" />
		<tag k="place" v="locality" />
		<tag k="ssr:stedsnr" v="481528" />
	</node>
	<node id="9895633875" lat="65.0961306" lon="12.40725" version="1" timestamp="2022-07-18T16:45:46Z" changeset="123771884" uid="3497659" user="NKA">
		<tag k="name" v="Vassås" />
		<tag k="place" v="hamlet" />
		<tag k="ssr:stedsnr" v="177666" />
	</node>
	<node id="9895633876" lat="65.1229096" lon="12.7202845" version="1" timestamp="2022-07-18T16:45:46Z" changeset="123771884" uid="3497659" user="NKA">
		<tag k="name" v="Glømmen" />
		<tag k="place" v="locality" />
		<tag k="ssr:stedsnr" v="989074" />
	</node>
	<node id="9895633877" lat="65.0621415" lon="12.4793098" version="1" timestamp="2022-07-18T16:45:46Z" changeset="123771884" uid="3497659" user="NKA">
		<tag k="alt_name" v="Sylten" />
		<tag k="name" v="Sylta" />
		<tag k="place" v="hamlet" />
		<tag k="ssr:stedsnr" v="136481" />
	</node>
	<node id="9895633878" lat="65.0422444" lon="12.539111" version="1" timestamp="2022-07-18T16:45:46Z" changeset="123771884" uid="3497659" user="NKA">
		<tag k="name" v="Sørgården" />
		<tag k="place" v="farm" />
		<tag k="ssr:stedsnr" v="75504" />
	</node>
	<node id="9895633879" lat="65.2528639" lon="12.3009111" version="1" timestamp="2022-07-18T16:45:46Z" changeset="123771884" uid="3497659" user="NKA">
		<tag k="name" v="Lundmo" />
		<tag k="place" v="farm" />
		<tag k="ssr:stedsnr" v="56864" />
	</node>
	<node id="9895633880" lat="65.0569362" lon="12.5073462" version="1" timestamp="2022-07-18T16:45:46Z" changeset="123771884" uid="3497659" user="NKA">
		<tag k="name" v="Svartdalsmoen" />
		<tag k="place" v="farm" />
		<tag k="ssr:stedsnr" v="197483" />
	</node>
	<node id="5073466637" lat="65.0671361" lon="12.0404271" version="2" timestamp="2020-03-16T19:01:39Z" changeset="82271133" uid="3497659" user="NKA" />
	<node id="5073468172" lat="65.067327" lon="12.0403725" version="2" timestamp="2020-03-16T19:01:39Z" changeset="82271133" uid="3497659" user="NKA" />
	<node id="5073465227" lat="65.0674916" lon="12.0403615" version="2" timestamp="2020-03-16T19:01:39Z" changeset="82271133" uid="3497659" user="NKA" />
	<node id="7299971039" lat="65.0678268" lon="12.0404375" version="1" timestamp="2020-03-16T19:01:36Z" changeset="82271131" uid="3497659" user="NKA" />
	<node id="7299971040" lat="65.0676727" lon="12.040387" version="1" timestamp="2020-03-16T19:01:36Z" changeset="82271131" uid="3497659" user="NKA" />
	<node id="7299976759" lat="65.067985" lon="12.040524" version="1" timestamp="2020-03-16T19:01:39Z" changeset="82271133" uid="3497659" user="NKA" />
	<node id="7299977246" lat="65.038749" lon="12.532049" version="1" timestamp="2020-03-16T19:01:39Z" changeset="82271133" uid="3497659" user="NKA" />
	<node id="7299977248" lat="65.038834" lon="12.532857" version="1" timestamp="2020-03-16T19:01:39Z" changeset="82271133" uid="3497659" user="NKA" />
	<way id="26213621" version="10" timestamp="2022-01-24T21:00:15Z" changeset="116559033" uid="3497659" user="NKA">
		<tag k="bridge" v="yes" />
		<tag k="bridge:structure" v="beam" />
		<tag k="highway" v="primary" />
		<tag k="layer" v="1" />
		<tag k="maxspeed" v="80" />
		<tag k="name" v="Simlestraumbrua" />
		<tag k="ref" v="17" />
		<tag k="ssr:stedsnr" v="1081919" />
		<tag k="surface" v="asphalt" />
		<nd ref="5073466637" />
		<nd ref="5073468172" />
		<nd ref="5073465227" />
		<nd ref="7299971040" />
		<nd ref="7299971039" />
		<nd ref="7299976759" />
	</way>
	<way id="353446376" version="8" timestamp="2022-01-24T06:56:00Z" changeset="116526664" uid="3497659" user="NKA">
		<tag k="bridge" v="yes" />
		<tag k="bridge:structure" v="truss" />
		<tag k="designation" v="1" />
		<tag k="highway" v="secondary" />
		<tag k="layer" v="1" />
		<tag k="level" v="1" />
		<tag k="maxspeed" v="80" />
		<tag k="maxweight" v="32" />
		<tag k="name" v="Fuglstadbrua" />
		<tag k="old_ref" v="1" />
		<tag k="ref" v="7200" />
		<tag k="ssr:stedsnr" v="56970" />
		<tag k="surface" v="asphalt" />
		<nd ref="7299977248" />
		<nd ref="7299977246" />
	</way>
</osm>
