<?xml version="1.0" encoding="UTF-8"?>
<osm generator="osmapis" version="0.6">
	<node id="-88608" lat="61.2493555529" lon="11.2297722263">
		<tag k="historic" v="boundary_stone" />
		<tag k="man_made" v="cairn" />
		<tag k="name" v="Kneet" />
		<tag k="place" v="locality" />
		<tag k="ssr:stedsnr" v="950509" />
	</node>
	<node id="-88668" lat="61.4989978375" lon="11.0938084219">
		<tag k="fixme" v="consider boundary=protected_area and relevant protect_class if not nature reserve" />
		<tag k="leisure" v="nature_reserve" />
		<tag k="name" v="Veslhammarlia naturreservat" />
		<tag k="ssr:stedsnr" v="971434" />
	</node>
	<node id="-88667" lat="61.5390671775" lon="10.8319412848">
		<tag k="fixme" v="consider boundary=protected_area and relevant protect_class if not nature reserve" />
		<tag k="leisure" v="nature_reserve" />
		<tag k="name" v="Rokkåa naturreservat" />
		<tag k="ssr:stedsnr" v="971433" />
	</node>
	<node id="-88666" lat="61.4403897059" lon="10.8207555496">
		<tag k="fixme" v="consider boundary=protected_area and relevant protect_class if not nature reserve" />
		<tag k="leisure" v="nature_reserve" />
		<tag k="name" v="Eldåa naturreservat" />
		<tag k="ssr:stedsnr" v="971432" />
	</node>
	<node id="-86705" lat="61.4351419452" lon="11.1105363665">
		<tag k="fixme" v="consider boundary=protected_area and relevant protect_class if not nature reserve" />
		<tag k="leisure" v="nature_reserve" />
		<tag k="name" v="Tronkberget naturreservat" />
		<tag k="ssr:stedsnr" v="991094" />
	</node>
	<node id="-86702" lat="61.6468811965" lon="10.7829499499">
		<tag k="fixme" v="consider boundary=protected_area and relevant protect_class if not nature reserve" />
		<tag k="leisure" v="nature_reserve" />
		<tag k="name" v="Kvannskardkletten naturreservat" />
		<tag k="ssr:stedsnr" v="989005" />
	</node>
	<node id="-88653" lat="61.6305138932" lon="10.9119305628">
		<tag k="fixme" v="consider boundary=protected_area and relevant protect_class if not nature reserve" />
		<tag k="leisure" v="nature_reserve" />
		<tag k="name" v="Viengskletten naturreservat" />
		<tag k="ssr:stedsnr" v="969491" />
	</node>
	<node id="-86700" lat="61.419063711" lon="11.1801499944">
		<tag k="fixme" v="consider boundary=protected_area and relevant protect_class if not nature reserve" />
		<tag k="leisure" v="nature_reserve" />
		<tag k="name" v="Gråkletten naturreservat" />
		<tag k="ssr:stedsnr" v="982691" />
	</node>
	<node id="-86699" lat="61.4426529305" lon="11.1860723276">
		<tag k="fixme" v="consider boundary=protected_area and relevant protect_class if not nature reserve" />
		<tag k="leisure" v="nature_reserve" />
		<tag k="name" v="Tøråsen naturreservat" />
		<tag k="ssr:stedsnr" v="982690" />
	</node>
	<node id="-86698" lat="61.3243338254" lon="11.2592913789">
		<tag k="fixme" v="consider boundary=protected_area and relevant protect_class if not nature reserve" />
		<tag k="leisure" v="nature_reserve" />
		<tag k="name" v="Svendstuøyene naturreservat" />
		<tag k="ssr:stedsnr" v="981240" />
	</node>
	<node id="-86697" lat="61.5099989386" lon="10.7169271296">
		<tag k="fixme" v="consider boundary=protected_area and relevant protect_class if not nature reserve" />
		<tag k="leisure" v="nature_reserve" />
		<tag k="name" v="Gålaskarven naturreservat" />
		<tag k="ssr:stedsnr" v="1072110" />
	</node>
	<node id="-88676" lat="61.4853299184" lon="11.0623444807">
		<tag k="fixme" v="consider boundary=protected_area and relevant protect_class if not nature reserve" />
		<tag k="leisure" v="nature_reserve" />
		<tag k="name" v="Solfrittkroken naturreservat" />
		<tag k="ssr:stedsnr" v="976250" />
	</node>
	<node id="-88675" lat="61.903404261" lon="10.0926333026">
		<tag k="fixme" v="consider boundary=protected_area and relevant protect_class if not nature reserve" />
		<tag k="leisure" v="nature_reserve" />
		<tag k="name" v="Atnsjømyrene naturreservat" />
		<tag k="ssr:stedsnr" v="976179" />
	</node>
</osm>
