<?xml version="1.0" encoding="UTF-8"?>
<osm generator="osmapis" version="0.6">
	<node id="-88056" lat="61.7728666656" lon="10.1476888925">
		<tag k="name" v="Brennflytjørna" />
		<tag k="natural" v="water" />
		<tag k="ssr:stedsnr" v="738429" />
	</node>
	<node id="-86356" lat="61.5779249986" lon="10.7783083276">
		<tag k="name" v="Naustertjørna" />
		<tag k="natural" v="water" />
		<tag k="ssr:stedsnr" v="313128" />
	</node>
	<node id="-88052" lat="61.3537944409" lon="11.2024555461">
		<tag k="alt_name" v="Klettjernet" />
		<tag k="name" v="Klettjørna" />
		<tag k="natural" v="water" />
		<tag k="ssr:stedsnr" v="737053" />
	</node>
	<node id="-88044" lat="61.2760333344" lon="11.2529249997">
		<tag k="name" v="Sagbekken" />
		<tag k="ssr:stedsnr" v="736254" />
		<tag k="waterway" v="stream" />
	</node>
	<node id="-88041" lat="61.4554861107" lon="11.2034944385">
		<tag k="alt_name" v="Lektjønna" />
		<tag k="name" v="Leiktjernet" />
		<tag k="natural" v="water" />
		<tag k="ssr:stedsnr" v="736119" />
	</node>
	<node id="-88040" lat="61.462175003" lon="11.1269166598">
		<tag k="alt_name" v="Holmtjønna" />
		<tag k="name" v="Holmtjernet" />
		<tag k="natural" v="water" />
		<tag k="ssr:stedsnr" v="736110" />
	</node>
	<node id="-88037" lat="61.4254500042" lon="11.1078805529">
		<tag k="name" v="Grøfta" />
		<tag k="ssr:stedsnr" v="736076" />
		<tag k="waterway" v="stream" />
	</node>
	<node id="-88033" lat="61.4517388879" lon="10.7519583295">
		<tag k="name" v="Storbekken" />
		<tag k="ssr:stedsnr" v="735440" />
		<tag k="waterway" v="stream" />
	</node>
	<node id="-88032" lat="61.4471277791" lon="11.0721027723">
		<tag k="name" v="Sagbekken" />
		<tag k="ssr:stedsnr" v="735428" />
		<tag k="waterway" v="stream" />
	</node>
	<node id="-88031" lat="61.4402027781" lon="11.036402784">
		<tag k="alt_name" v="Harptjønna" />
		<tag k="name" v="Harptjernet" />
		<tag k="natural" v="water" />
		<tag k="ssr:stedsnr" v="735423" />
	</node>
	<node id="-88030" lat="61.232524998" lon="11.2606944426">
		<tag k="name" v="Gravingsbekken" />
		<tag k="ssr:stedsnr" v="735380" />
		<tag k="waterway" v="stream" />
	</node>
	<node id="-88021" lat="61.7494444474" lon="10.2817999933">
		<tag k="name" v="Kvennbekken" />
		<tag k="ssr:stedsnr" v="726426" />
		<tag k="waterway" v="stream" />
	</node>
	<node id="-88016" lat="61.3833944412" lon="11.1276833246">
		<tag k="alt_name" v="Søndre Stortjønna" />
		<tag k="name" v="Søre Stortjønna" />
		<tag k="natural" v="water" />
		<tag k="ssr:stedsnr" v="726271" />
	</node>
	<node id="-88008" lat="61.5738999963" lon="10.9091555466">
		<tag k="name" v="Måsåmyrbekken" />
		<tag k="ssr:stedsnr" v="725119" />
		<tag k="waterway" v="stream" />
	</node>
	<node id="-87995" lat="61.3746249965" lon="11.0483472192">
		<tag k="name" v="Kolåsmyrtjønna" />
		<tag k="natural" v="water" />
		<tag k="ssr:stedsnr" v="709998" />
	</node>
	<node id="-87993" lat="61.2902277818" lon="11.356802782">
		<tag k="name" v="Hattbekken" />
		<tag k="ssr:stedsnr" v="709867" />
		<tag k="waterway" v="stream" />
	</node>
	<node id="-87991" lat="61.420836107" lon="11.2115194386">
		<tag k="name" v="Nysæterbekken" />
		<tag k="ssr:stedsnr" v="709810" />
		<tag k="waterway" v="stream" />
	</node>
	<node id="-87990" lat="61.2420277785" lon="11.3049333321">
		<tag k="name" v="Sagbekken" />
		<tag k="ssr:stedsnr" v="709529" />
		<tag k="waterway" v="stream" />
	</node>
	<node id="-87983" lat="61.8424388898" lon="10.4035750045">
		<tag k="name" v="Bakevja" />
		<tag k="place" v="locality" />
		<tag k="ssr:stedsnr" v="707906" />
	</node>
	<node id="-87980" lat="61.8437944466" lon="10.4547333354">
		<tag k="name" v="Blankgrytbrottet" />
		<tag k="natural" v="beach" />
		<tag k="ssr:stedsnr" v="707885" />
	</node>
	<node id="-87978" lat="61.6871444428" lon="10.6960083401">
		<tag k="name" v="Lortbekken" />
		<tag k="ssr:stedsnr" v="707808" />
		<tag k="waterway" v="stream" />
	</node>
	<node id="-87976" lat="61.4452027805" lon="10.8591611165">
		<tag k="name" v="Fjerdingsbekken" />
		<tag k="ssr:stedsnr" v="707494" />
		<tag k="waterway" v="stream" />
	</node>
	<node id="-87974" lat="61.5432388852" lon="11.0536277822">
		<tag k="name" v="Nystumoøya" />
		<tag k="place" v="island" />
		<tag k="ssr:stedsnr" v="707473" />
	</node>
	<node id="-87972" lat="61.554538889" lon="11.0257583371">
		<tag k="name" v="Risholmen" />
		<tag k="place" v="islet" />
		<tag k="ssr:stedsnr" v="707469" />
	</node>
	<node id="-86342" lat="61.4939444438" lon="11.1950000025">
		<tag k="alt_name" v="Skjærbekktjønna" />
		<tag k="name" v="Skjerbekktjønnet" />
		<tag k="natural" v="water" />
		<tag k="ssr:stedsnr" v="312085" />
	</node>
	<node id="-87968" lat="61.7321944463" lon="10.7303472278">
		<tag k="name" v="Storfallet" />
		<tag k="natural" v="waterfall" />
		<tag k="ssr:stedsnr" v="707208" />
	</node>
	<node id="-87966" lat="61.6541194444" lon="10.9167166726">
		<tag k="name" v="Stasjonsbekken" />
		<tag k="ssr:stedsnr" v="707125" />
		<tag k="waterway" v="stream" />
	</node>
	<node id="-87959" lat="61.5497833349" lon="11.1258861191">
		<tag k="name" v="Skånsjøbekken" />
		<tag k="ssr:stedsnr" v="678312" />
		<tag k="waterway" v="stream" />
	</node>
	<node id="-87957" lat="61.8239527773" lon="10.3901055593">
		<tag k="name" v="Småtjørnane" />
		<tag k="natural" v="water" />
		<tag k="ssr:stedsnr" v="678297" />
		<tag k="water" v="lake" />
	</node>
	<node id="-87954" lat="61.5510499987" lon="10.6779249993">
		<tag k="alt_name" v="Imsostjønna" />
		<tag k="name" v="Imsostjørna" />
		<tag k="natural" v="water" />
		<tag k="ssr:stedsnr" v="678258" />
	</node>
	<node id="-87953" lat="61.7214138898" lon="10.6643222274">
		<tag k="name" v="Hølbekken" />
		<tag k="ssr:stedsnr" v="678190" />
		<tag k="waterway" v="stream" />
	</node>
	<node id="-87940" lat="61.776694441" lon="10.2405861119">
		<tag k="alt_name" v="Setningsjøen;Setningssjøen" />
		<tag k="name" v="Setningen" />
		<tag k="natural" v="water" />
		<tag k="ssr:stedsnr" v="677409" />
		<tag k="water" v="lake" />
	</node>
	<node id="-87938" lat="61.7924333333" lon="10.0889805514">
		<tag k="name" v="Styggskardbekken" />
		<tag k="ssr:stedsnr" v="677401" />
		<tag k="waterway" v="stream" />
	</node>
	<node id="-87936" lat="61.7954000042" lon="10.1215583288">
		<tag k="name" v="Skjerbekken" />
		<tag k="ssr:stedsnr" v="677398" />
		<tag k="waterway" v="stream" />
	</node>
	<node id="-87935" lat="61.7522194477" lon="10.0632055595">
		<tag k="alt_name" v="Rundhøtjørnane" />
		<tag k="name" v="Rundhøtjørnene" />
		<tag k="natural" v="water" />
		<tag k="ssr:stedsnr" v="677386" />
	</node>
	<node id="-87934" lat="61.7634111082" lon="10.1008388868">
		<tag k="name" v="Svabutjørna" />
		<tag k="natural" v="water" />
		<tag k="ssr:stedsnr" v="677385" />
	</node>
	<node id="-87933" lat="61.8440833317" lon="10.3203416619">
		<tag k="name" v="Finnsjøbekken" />
		<tag k="ssr:stedsnr" v="677382" />
		<tag k="waterway" v="stream" />
	</node>
	<node id="-87927" lat="61.8243611143" lon="10.2520388981">
		<tag k="alt_name" v="Hamnabekken" />
		<tag k="name" v="Hamnbekken" />
		<tag k="ssr:stedsnr" v="677358" />
		<tag k="waterway" v="stream" />
	</node>
	<node id="-87926" lat="61.5174999967" lon="11.1548555628">
		<tag k="alt_name" v="Negardskroktjønna" />
		<tag k="name" v="Nedgardskroktjørna" />
		<tag k="natural" v="water" />
		<tag k="ssr:stedsnr" v="677277" />
	</node>
	<node id="-87925" lat="61.5304027735" lon="11.1403249984">
		<tag k="alt_name" v="Vakkertjønna" />
		<tag k="name" v="Vakkertjørna" />
		<tag k="natural" v="water" />
		<tag k="ssr:stedsnr" v="677274" />
	</node>
	<node id="-87915" lat="61.7085055588" lon="10.9769666635">
		<tag k="name" v="Granbekken" />
		<tag k="ssr:stedsnr" v="677178" />
		<tag k="waterway" v="stream" />
	</node>
	<node id="-87911" lat="61.5774138933" lon="10.8147499957">
		<tag k="name" v="Gardåa" />
		<tag k="ssr:stedsnr" v="677118" />
		<tag k="waterway" v="stream" />
	</node>
	<node id="-87910" lat="61.579858332" lon="10.788666661">
		<tag k="alt_name" v="Gardåtjønna" />
		<tag k="name" v="Gardåtjørna" />
		<tag k="natural" v="water" />
		<tag k="ssr:stedsnr" v="677117" />
	</node>
	<node id="-86331" lat="61.3048611127" lon="11.1334749963">
		<tag k="name" v="Sandbekken" />
		<tag k="ssr:stedsnr" v="311286" />
		<tag k="waterway" v="stream" />
	</node>
	<node id="-87904" lat="61.2883583337" lon="10.9485916635">
		<tag k="alt_name" v="Storbekken, s" />
		<tag k="name" v="Søre Storbekken" />
		<tag k="ssr:stedsnr" v="676386" />
		<tag k="waterway" v="stream" />
	</node>
	<node id="-87903" lat="61.2752466733" lon="11.0367943332">
		<tag k="name" v="Stauptjernet" />
		<tag k="natural" v="water" />
		<tag k="ssr:stedsnr" v="676384" />
	</node>
	<node id="-87901" lat="61.3522250009" lon="11.1302611203">
		<tag k="name" v="Kvernbekken" />
		<tag k="ssr:stedsnr" v="676058" />
		<tag k="waterway" v="stream" />
	</node>
	<node id="-87897" lat="61.5018027785" lon="10.8659694363">
		<tag k="name" v="Sjøbekken" />
		<tag k="ssr:stedsnr" v="675496" />
		<tag k="waterway" v="stream" />
	</node>
	<node id="-87896" lat="61.4463805587" lon="10.7850083365">
		<tag k="alt_name" v="Stortjønn" />
		<tag k="name" v="Stortjernet" />
		<tag k="natural" v="water" />
		<tag k="ssr:stedsnr" v="675474" />
	</node>
	<node id="-87888" lat="61.4441583299" lon="11.1439611067">
		<tag k="alt_name" v="Tronktjønna" />
		<tag k="name" v="Tronktjernet" />
		<tag k="natural" v="water" />
		<tag k="ssr:stedsnr" v="675142" />
	</node>
	<node id="-87870" lat="61.7606749972" lon="10.3216499942">
		<tag k="name" v="Sæterbekken" />
		<tag k="ssr:stedsnr" v="665447" />
		<tag k="waterway" v="stream" />
	</node>
	<node id="-87862" lat="61.7557777775" lon="10.1882888956">
		<tag k="name" v="Lensmannstjønna" />
		<tag k="natural" v="water" />
		<tag k="ssr:stedsnr" v="664263" />
	</node>
	<node id="-87859" lat="61.8514055598" lon="10.2306527815">
		<tag k="name" v="Øverhølen" />
		<tag k="place" v="locality" />
		<tag k="ssr:stedsnr" v="663250" />
	</node>
	<node id="-87853" lat="61.4231805601" lon="10.8518916581">
		<tag k="name" v="Bubekken" />
		<tag k="ssr:stedsnr" v="661532" />
		<tag k="waterway" v="stream" />
	</node>
	<node id="-87850" lat="61.856361112" lon="10.1480555538">
		<tag k="name" v="Voldalsbekken" />
		<tag k="ssr:stedsnr" v="659624" />
		<tag k="waterway" v="stream" />
	</node>
	<node id="-87848" lat="61.8691638912" lon="10.1671055519">
		<tag k="alt_name" v="Søndre Slåbekken" />
		<tag k="name" v="Søre Slåbekken" />
		<tag k="ssr:stedsnr" v="659612" />
		<tag k="waterway" v="stream" />
	</node>
	<node id="-87847" lat="61.9028055601" lon="10.09966111">
		<tag k="name" v="Veslehørsa" />
		<tag k="ssr:stedsnr" v="659560" />
		<tag k="waterway" v="stream" />
	</node>
	<node id="-87845" lat="61.3729749975" lon="11.0692749979">
		<tag k="name" v="Kolåsmyrbekken" />
		<tag k="ssr:stedsnr" v="648957" />
		<tag k="waterway" v="stream" />
	</node>
	<node id="-87840" lat="61.4067111128" lon="11.049861108">
		<tag k="name" v="Østre Rogndammen" />
		<tag k="ssr:stedsnr" v="647901" />
		<tag k="waterway" v="dam" />
	</node>
	<node id="-87839" lat="61.4646444454" lon="11.0394944483">
		<tag k="name" v="Vesle Imsa" />
		<tag k="ssr:stedsnr" v="647812" />
		<tag k="waterway" v="stream" />
	</node>
	<node id="-87838" lat="61.4500750027" lon="11.0462472167">
		<tag k="name" v="Nesset" />
		<tag k="natural" v="cape" />
		<tag k="ssr:stedsnr" v="647776" />
	</node>
	<node id="-87837" lat="61.4560333307" lon="11.0455222154">
		<tag k="name" v="Korsstuholmen" />
		<tag k="place" v="islet" />
		<tag k="ssr:stedsnr" v="647775" />
	</node>
	<node id="-87832" lat="61.8505166656" lon="10.421002781">
		<tag k="name" v="Dalbakkholmen" />
		<tag k="place" v="islet" />
		<tag k="ssr:stedsnr" v="646884" />
	</node>
	<node id="-87830" lat="61.5421805525" lon="10.8298805609">
		<tag k="name" v="Hembekken" />
		<tag k="ssr:stedsnr" v="646854" />
		<tag k="waterway" v="stream" />
	</node>
	<node id="-87828" lat="61.7412694459" lon="10.6414222245">
		<tag k="name" v="Skarbekken" />
		<tag k="ssr:stedsnr" v="646773" />
		<tag k="waterway" v="stream" />
	</node>
	<node id="-87816" lat="61.5420388917" lon="11.0456638946">
		<tag k="name" v="Torsteinsholmen" />
		<tag k="place" v="islet" />
		<tag k="ssr:stedsnr" v="646442" />
	</node>
	<node id="-87813" lat="61.4106972263" lon="11.0914694371">
		<tag k="name" v="Husbekken" />
		<tag k="ssr:stedsnr" v="646231" />
		<tag k="waterway" v="stream" />
	</node>
	<node id="-86315" lat="61.6613555525" lon="10.9891861179">
		<tag k="name" v="Letjønnbekken" />
		<tag k="ssr:stedsnr" v="302727" />
		<tag k="waterway" v="stream" />
	</node>
	<node id="-87807" lat="61.5392111156" lon="11.07880277">
		<tag k="alt_name" v="Nestjønnbekken" />
		<tag k="name" v="Nestjørnbekken" />
		<tag k="ssr:stedsnr" v="626389" />
		<tag k="waterway" v="stream" />
	</node>
	<node id="-87797" lat="61.5608055574" lon="10.6950000065">
		<tag k="alt_name" v="Sørtjønna" />
		<tag k="name" v="Sørtjørna" />
		<tag k="natural" v="water" />
		<tag k="ssr:stedsnr" v="617269" />
	</node>
	<node id="-87795" lat="61.686074999" lon="10.8754361171">
		<tag k="alt_name" v="Karlstadtjørn, søre;Søndre Karlstadtjønna" />
		<tag k="name" v="Søre Karlstadtjørn" />
		<tag k="natural" v="water" />
		<tag k="ssr:stedsnr" v="617233" />
	</node>
	<node id="-87792" lat="61.541741668" lon="10.7405833317">
		<tag k="alt_name" v="Kattskjærbekken" />
		<tag k="name" v="Kattskjerbekken" />
		<tag k="ssr:stedsnr" v="617116" />
		<tag k="waterway" v="stream" />
	</node>
	<node id="-87791" lat="61.5430249973" lon="10.7569305611">
		<tag k="name" v="Kjerkemobekken" />
		<tag k="ssr:stedsnr" v="617115" />
		<tag k="waterway" v="stream" />
	</node>
	<node id="-87782" lat="61.6518999998" lon="11.0665027769">
		<tag k="name" v="Røtbekken" />
		<tag k="ssr:stedsnr" v="617055" />
		<tag k="waterway" v="stream" />
	</node>
	<node id="-87776" lat="61.909916667" lon="10.1419888942">
		<tag k="alt_name" v="Kamptjønna" />
		<tag k="name" v="Kamptjørna" />
		<tag k="natural" v="water" />
		<tag k="ssr:stedsnr" v="616571" />
	</node>
	<node id="-87774" lat="61.9111416695" lon="10.1798472145">
		<tag k="alt_name" v="Gravskarbekken" />
		<tag k="name" v="Gravskardbekken" />
		<tag k="ssr:stedsnr" v="616567" />
		<tag k="waterway" v="stream" />
	</node>
	<node id="-87767" lat="61.9449694463" lon="10.3765055609">
		<tag k="name" v="Sølnsjøbekken" />
		<tag k="old_name" v="Sølensjøbekken" />
		<tag k="ssr:stedsnr" v="616426" />
		<tag k="waterway" v="stream" />
	</node>
	<node id="-87754" lat="61.701402778" lon="10.8038361118">
		<tag k="name" v="Nybubekken" />
		<tag k="ssr:stedsnr" v="616179" />
		<tag k="waterway" v="stream" />
	</node>
	<node id="-87753" lat="61.7045861088" lon="10.9560777705">
		<tag k="name" v="Grasbekken" />
		<tag k="ssr:stedsnr" v="616176" />
		<tag k="waterway" v="stream" />
	</node>
	<node id="-86305" lat="61.7621972264" lon="10.3269138897">
		<tag k="name" v="Brubekken" />
		<tag k="ssr:stedsnr" v="301379" />
		<tag k="waterway" v="stream" />
	</node>
	<node id="-87743" lat="61.260501889" lon="10.9754682637">
		<tag k="alt_name" v="Himmelsjøen" />
		<tag k="name" v="Hemmelsjøen" />
		<tag k="natural" v="water" />
		<tag k="ssr:stedsnr" v="615357" />
		<tag k="water" v="lake" />
	</node>
	<node id="-87734" lat="61.482330553" lon="10.7928000028">
		<tag k="fixme" v="multiple name tags, choose one and add the other to alt_name" />
		<tag k="name" v="Langdalseldåa;Langgårds-Eldåa" />
		<tag k="ssr:stedsnr" v="614466" />
		<tag k="waterway" v="river" />
	</node>
	<node id="-87730" lat="61.4001833361" lon="10.9249111028">
		<tag k="alt_name" v="Eldåa, s;Søndre Eldåa" />
		<tag k="name" v="Søre Eldåa" />
		<tag k="ssr:stedsnr" v="614427" />
		<tag k="waterway" v="river" />
	</node>
	<node id="-87728" lat="61.2877797678" lon="11.1451508638">
		<tag k="name" v="Storhovden" />
		<tag k="natural" v="water" />
		<tag k="ssr:stedsnr" v="614220" />
		<tag k="water" v="lake" />
	</node>
	<node id="-87695" lat="61.8523416691" lon="10.2194500064">
		<tag k="name" v="Sjøendmyrodden" />
		<tag k="natural" v="cape" />
		<tag k="ssr:stedsnr" v="602271" />
	</node>
	<node id="-87687" lat="61.4242194418" lon="10.8870166582">
		<tag k="name" v="Nordre Heievolbekken" />
		<tag k="ssr:stedsnr" v="601543" />
		<tag k="waterway" v="stream" />
	</node>
	<node id="-87683" lat="61.8911833308" lon="10.1115166713">
		<tag k="name" v="Myrkbotn" />
		<tag k="natural" v="shoal" />
		<tag k="place" v="locality" />
		<tag k="ssr:stedsnr" v="598597" />
	</node>
	<node id="-87671" lat="61.3261972235" lon="11.2587083358">
		<tag k="name" v="Støøyene" />
		<tag k="place" v="island" />
		<tag k="ssr:stedsnr" v="586728" />
	</node>
	<node id="-87661" lat="61.6763388926" lon="10.6448416746">
		<tag k="name" v="Søre Hellaktjønna" />
		<tag k="natural" v="water" />
		<tag k="ssr:stedsnr" v="585767" />
	</node>
	<node id="-87651" lat="61.5088111119" lon="10.7839638927">
		<tag k="alt_name" v="Veslebekken" />
		<tag k="name" v="Veslbekken" />
		<tag k="ssr:stedsnr" v="565357" />
		<tag k="waterway" v="stream" />
	</node>
	<node id="-87648" lat="61.7407777812" lon="10.2862527802">
		<tag k="name" v="Grøtørbekken" />
		<tag k="ssr:stedsnr" v="556952" />
		<tag k="waterway" v="stream" />
	</node>
	<node id="-87641" lat="61.8364583363" lon="10.5583888914">
		<tag k="name" v="Lortbekken" />
		<tag k="ssr:stedsnr" v="556340" />
		<tag k="waterway" v="stream" />
	</node>
	<node id="-87638" lat="61.794916667" lon="10.4249500062">
		<tag k="name" v="Kvernbekken" />
		<tag k="ssr:stedsnr" v="556327" />
		<tag k="waterway" v="stream" />
	</node>
	<node id="-87632" lat="61.7931888914" lon="10.564827784">
		<tag k="name" v="Nordstumoøya" />
		<tag k="place" v="island" />
		<tag k="ssr:stedsnr" v="556301" />
	</node>
	<node id="-87626" lat="61.7214666691" lon="10.4986638924">
		<tag k="name" v="Sørebekken" />
		<tag k="ssr:stedsnr" v="556214" />
		<tag k="waterway" v="stream" />
	</node>
	<node id="-87625" lat="61.703433333" lon="10.6131388817">
		<tag k="alt_name" v="Hira, l;Hira" />
		<tag k="name" v="Vesle-Hira" />
		<tag k="ssr:stedsnr" v="556192" />
		<tag k="waterway" v="stream" />
	</node>
	<node id="-87622" lat="61.5588000009" lon="10.8153555642">
		<tag k="alt_name" v="Volltjønna" />
		<tag k="name" v="Volltjørnene" />
		<tag k="natural" v="water" />
		<tag k="ssr:stedsnr" v="556114" />
	</node>
	<node id="-87619" lat="61.5222527797" lon="10.8274555516">
		<tag k="name" v="Rokkåa" />
		<tag k="ssr:stedsnr" v="556079" />
		<tag k="waterway" v="stream" />
	</node>
	<node id="-87612" lat="61.6514416624" lon="10.9249999998">
		<tag k="alt_name" v="Nestjørna, nedre;Nedre Nesttjønna" />
		<tag k="name" v="Nedre Nestjørna" />
		<tag k="natural" v="water" />
		<tag k="ssr:stedsnr" v="556040" />
	</node>
	<node id="-87608" lat="61.7770388892" lon="10.1716166676">
		<tag k="name" v="Fantbekken" />
		<tag k="ssr:stedsnr" v="555366" />
		<tag k="waterway" v="stream" />
	</node>
	<node id="-87606" lat="61.8269972221" lon="10.3386194522">
		<tag k="name" v="Finnsjøen" />
		<tag k="natural" v="water" />
		<tag k="ssr:stedsnr" v="555325" />
		<tag k="water" v="lake" />
	</node>
	<node id="-87605" lat="61.7408222243" lon="10.7822861199">
		<tag k="name" v="Atna" />
		<tag k="ssr:stedsnr" v="555186" />
		<tag k="waterway" v="river" />
	</node>
	<node id="-87594" lat="61.3543805537" lon="10.9673416606">
		<tag k="name" v="Rognsjøbekken" />
		<tag k="ssr:stedsnr" v="554420" />
		<tag k="waterway" v="stream" />
	</node>
	<node id="-87592" lat="61.2781333296" lon="10.981616665">
		<tag k="alt_name" v="Himmelbogen" />
		<tag k="name" v="Hemmelbogen" />
		<tag k="ssr:stedsnr" v="554400" />
		<tag k="waterway" v="stream" />
	</node>
	<node id="-87582" lat="61.3565611152" lon="11.2835388879">
		<tag k="name" v="Åborsjøen" />
		<tag k="natural" v="water" />
		<tag k="ssr:stedsnr" v="554045" />
	</node>
	<node id="-87577" lat="61.3032694451" lon="11.3067027813">
		<tag k="name" v="Kvernbekken" />
		<tag k="ssr:stedsnr" v="554019" />
		<tag k="waterway" v="stream" />
	</node>
	<node id="-87565" lat="61.5266611135" lon="11.0556888982">
		<tag k="name" v="Kvisla" />
		<tag k="place" v="islet" />
		<tag k="ssr:stedsnr" v="544803" />
	</node>
	<node id="-87564" lat="61.5161888921" lon="11.0514805469">
		<tag k="name" v="Moholmen" />
		<tag k="place" v="islet" />
		<tag k="ssr:stedsnr" v="544799" />
	</node>
	<node id="-87563" lat="61.5082055547" lon="11.0572194495">
		<tag k="name" v="Storsand" />
		<tag k="place" v="islet" />
		<tag k="ssr:stedsnr" v="544770" />
	</node>
	<node id="-87561" lat="61.3532000035" lon="11.1987638873">
		<tag k="name" v="Lille Klettjernet" />
		<tag k="natural" v="water" />
		<tag k="ssr:stedsnr" v="544715" />
	</node>
	<node id="-87557" lat="61.8453305574" lon="10.351230552">
		<tag k="name" v="Sætersholmen" />
		<tag k="place" v="islet" />
		<tag k="ssr:stedsnr" v="544654" />
	</node>
	<node id="-87554" lat="61.7598749957" lon="10.2537388815">
		<tag k="name" v="Kvesbekken" />
		<tag k="ssr:stedsnr" v="544393" />
		<tag k="waterway" v="stream" />
	</node>
	<node id="-87550" lat="61.8039777739" lon="10.3335277868">
		<tag k="name" v="Brenntjønna" />
		<tag k="natural" v="water" />
		<tag k="ssr:stedsnr" v="544361" />
	</node>
	<node id="-87546" lat="61.8542111069" lon="10.2856722174">
		<tag k="name" v="Veslebekken" />
		<tag k="ssr:stedsnr" v="544335" />
		<tag k="waterway" v="stream" />
	</node>
	<node id="-87543" lat="61.4027361072" lon="11.1177694437">
		<tag k="name" v="Bjørklundsbekken" />
		<tag k="ssr:stedsnr" v="544252" />
		<tag k="waterway" v="stream" />
	</node>
	<node id="-87541" lat="61.4903055522" lon="11.1667666704">
		<tag k="name" v="Skartjønna" />
		<tag k="natural" v="water" />
		<tag k="ssr:stedsnr" v="543820" />
	</node>
	<node id="-87539" lat="61.8601944475" lon="10.2390777852">
		<tag k="name" v="Storbekken" />
		<tag k="ssr:stedsnr" v="543634" />
		<tag k="waterway" v="stream" />
	</node>
	<node id="-87538" lat="61.8668638892" lon="10.2999333254">
		<tag k="name" v="Mobekkstilla" />
		<tag k="natural" v="water" />
		<tag k="ssr:stedsnr" v="543630" />
		<tag k="water" v="lake" />
	</node>
	<node id="-87535" lat="61.8646972255" lon="10.5322416722">
		<tag k="name" v="Småbekken" />
		<tag k="ssr:stedsnr" v="543283" />
		<tag k="waterway" v="stream" />
	</node>
	<node id="-87530" lat="61.851169445" lon="10.2227750062">
		<tag k="name" v="Osen" />
		<tag k="natural" v="bay" />
		<tag k="ssr:stedsnr" v="542251" />
	</node>
	<node id="-87527" lat="61.4265305544" lon="11.1999361178">
		<tag k="name" v="Rosetbekken" />
		<tag k="ssr:stedsnr" v="541266" />
		<tag k="waterway" v="stream" />
	</node>
	<node id="-87525" lat="61.4857555576" lon="10.8920527779">
		<tag k="name" v="Nybrubekken" />
		<tag k="ssr:stedsnr" v="540523" />
		<tag k="waterway" v="stream" />
	</node>
	<node id="-87521" lat="61.8722861117" lon="10.1645194351">
		<tag k="name" v="Nordre Slåbekken" />
		<tag k="ssr:stedsnr" v="537589" />
		<tag k="waterway" v="stream" />
	</node>
	<node id="-87519" lat="61.9000861101" lon="10.1056916739">
		<tag k="name" v="Lortkvilta" />
		<tag k="ssr:stedsnr" v="537548" />
		<tag k="waterway" v="stream" />
	</node>
	<node id="-87505" lat="61.8292666679" lon="10.3599472157">
		<tag k="name" v="Vollbekken" />
		<tag k="ssr:stedsnr" v="525897" />
		<tag k="waterway" v="stream" />
	</node>
	<node id="-87504" lat="61.8155472217" lon="10.3814138895">
		<tag k="name" v="Måsåbutjønna" />
		<tag k="natural" v="water" />
		<tag k="ssr:stedsnr" v="525895" />
	</node>
	<node id="-87502" lat="61.3334527816" lon="11.2371472291">
		<tag k="name" v="Kalmyrbekken" />
		<tag k="ssr:stedsnr" v="525657" />
		<tag k="waterway" v="stream" />
	</node>
	<node id="-87501" lat="61.4421138857" lon="10.9383000031">
		<tag k="name" v="Kløfte" />
		<tag k="place" v="locality" />
		<tag k="ssr:stedsnr" v="525626" />
	</node>
	<node id="-87479" lat="61.8031416705" lon="10.3485055576">
		<tag k="alt_name" v="Vintertjønna" />
		<tag k="name" v="Vintertjørn" />
		<tag k="natural" v="water" />
		<tag k="ssr:stedsnr" v="496269" />
	</node>
	<node id="-87462" lat="61.8087249993" lon="10.1610777718">
		<tag k="name" v="Vulua" />
		<tag k="ssr:stedsnr" v="495379" />
		<tag k="waterway" v="river" />
	</node>
	<node id="-87461" lat="61.5097999988" lon="11.1724638809">
		<tag k="alt_name" v="Vestgardtjørna" />
		<tag k="name" v="Vestgardstjønna" />
		<tag k="natural" v="water" />
		<tag k="ssr:stedsnr" v="495267" />
	</node>
	<node id="-87452" lat="61.5500999989" lon="10.9557777777">
		<tag k="name" v="Trybekken" />
		<tag k="ssr:stedsnr" v="495113" />
		<tag k="waterway" v="stream" />
	</node>
	<node id="-87449" lat="61.5373944461" lon="10.9682638863">
		<tag k="name" v="Kvernbekken" />
		<tag k="ssr:stedsnr" v="495099" />
		<tag k="waterway" v="stream" />
	</node>
	<node id="-87448" lat="61.5040250031" lon="11.0323250093">
		<tag k="alt_name" v="Sørtjønna" />
		<tag k="name" v="Sørtjørna" />
		<tag k="natural" v="water" />
		<tag k="ssr:stedsnr" v="495085" />
	</node>
	<node id="-87447" lat="61.6838666659" lon="10.8871722171">
		<tag k="alt_name" v="Rønningstjønna" />
		<tag k="name" v="Rønningstjørnene" />
		<tag k="natural" v="water" />
		<tag k="ssr:stedsnr" v="495078" />
	</node>
	<node id="-87444" lat="61.6143527765" lon="10.8510638927">
		<tag k="alt_name" v="Garbekken" />
		<tag k="name" v="Gardbekken" />
		<tag k="ssr:stedsnr" v="495029" />
		<tag k="waterway" v="stream" />
	</node>
	<node id="-87441" lat="61.6115388898" lon="10.942700002">
		<tag k="name" v="Frøsa" />
		<tag k="ssr:stedsnr" v="495016" />
		<tag k="waterway" v="stream" />
	</node>
	<node id="-87440" lat="61.3333166639" lon="10.9320250034">
		<tag k="name" v="Kvitåa" />
		<tag k="ssr:stedsnr" v="494379" />
		<tag k="waterway" v="stream" />
	</node>
	<node id="-87438" lat="61.4966305559" lon="11.1091277685">
		<tag k="alt_name" v="Svestadtjønna" />
		<tag k="name" v="Svestadtjørnet" />
		<tag k="natural" v="water" />
		<tag k="ssr:stedsnr" v="494346" />
	</node>
	<node id="-87436" lat="61.3860194401" lon="11.1609500042">
		<tag k="name" v="Spongøya" />
		<tag k="place" v="island" />
		<tag k="ssr:stedsnr" v="494050" />
	</node>
	<node id="-87434" lat="61.3425277748" lon="11.2476055532">
		<tag k="alt_name" v="Stensøya" />
		<tag k="name" v="Steinøya" />
		<tag k="place" v="island" />
		<tag k="ssr:stedsnr" v="494008" />
	</node>
	<node id="-87431" lat="61.3872583296" lon="11.0029250037">
		<tag k="name" v="Rogna" />
		<tag k="ssr:stedsnr" v="493404" />
		<tag k="waterway" v="stream" />
	</node>
	<node id="-87425" lat="61.3073861147" lon="11.1797555562">
		<tag k="name" v="Etarmyrbekken" />
		<tag k="ssr:stedsnr" v="493039" />
		<tag k="waterway" v="stream" />
	</node>
	<node id="-87424" lat="61.3231999995" lon="11.1857138798">
		<tag k="alt_name" v="Løvenga" />
		<tag k="name" v="Lauvenga" />
		<tag k="ssr:stedsnr" v="493026" />
		<tag k="waterway" v="river" />
	</node>
	<node id="-87416" lat="61.4803222204" lon="11.1809638978">
		<tag k="name" v="Hovdskarbekken" />
		<tag k="ssr:stedsnr" v="483536" />
		<tag k="waterway" v="stream" />
	</node>
	<node id="-87415" lat="61.5570250019" lon="11.029244446">
		<tag k="alt_name" v="Øvergårdsholmen" />
		<tag k="name" v="Øvergardsholmen" />
		<tag k="place" v="islet" />
		<tag k="ssr:stedsnr" v="483521" />
	</node>
	<node id="-87411" lat="61.8224000021" lon="10.3467472248">
		<tag k="name" v="Bubekken" />
		<tag k="ssr:stedsnr" v="483392" />
		<tag k="waterway" v="stream" />
	</node>
	<node id="-87407" lat="61.6933027741" lon="10.7918027727">
		<tag k="name" v="Røskvolldammen" />
		<tag k="ssr:stedsnr" v="483275" />
		<tag k="waterway" v="dam" />
	</node>
	<node id="-87406" lat="61.7391055598" lon="10.815805558">
		<tag k="name" v="Atnoset" />
		<tag k="natural" v="bay" />
		<tag k="ssr:stedsnr" v="483233" />
	</node>
	<node id="-87404" lat="61.687261115" lon="10.9159999958">
		<tag k="name" v="Rønningsbekken" />
		<tag k="ssr:stedsnr" v="483128" />
		<tag k="waterway" v="stream" />
	</node>
	<node id="-87403" lat="61.3050833374" lon="11.2826055598">
		<tag k="name" v="Siljubekken" />
		<tag k="ssr:stedsnr" v="482532" />
		<tag k="waterway" v="stream" />
	</node>
	<node id="-87398" lat="61.7827166694" lon="10.4177055651">
		<tag k="name" v="Oksbekken" />
		<tag k="ssr:stedsnr" v="481530" />
		<tag k="waterway" v="stream" />
	</node>
	<node id="-87396" lat="61.8524083313" lon="10.2277499988">
		<tag k="name" v="Stryken" />
		<tag k="ssr:stedsnr" v="481282" />
		<tag k="waterway" v="rapids" />
	</node>
	<node id="-87393" lat="61.8502944473" lon="10.2213638947">
		<tag k="name" v="Storhella" />
		<tag k="natural" v="cape" />
		<tag k="ssr:stedsnr" v="481271" />
	</node>
	<node id="-87392" lat="61.5226972204" lon="10.7735888849">
		<tag k="name" v="Krokhølen" />
		<tag k="place" v="locality" />
		<tag k="ssr:stedsnr" v="480658" />
	</node>
	<node id="-87391" lat="61.6166277749" lon="11.0565055504">
		<tag k="name" v="Rokkdammen" />
		<tag k="ssr:stedsnr" v="480243" />
		<tag k="waterway" v="dam" />
	</node>
	<node id="-87385" lat="61.438733333" lon="11.0603916732">
		<tag k="name" v="Holmen" />
		<tag k="place" v="islet" />
		<tag k="ssr:stedsnr" v="466891" />
	</node>
	<node id="-87379" lat="61.4586055513" lon="11.0429972267">
		<tag k="name" v="Imsoset" />
		<tag k="natural" v="bay" />
		<tag k="ssr:stedsnr" v="465794" />
	</node>
	<node id="-88427" lat="61.7657833308" lon="10.347930551">
		<tag k="name" v="Gransvingbekken" />
		<tag k="ssr:stedsnr" v="908414" />
		<tag k="waterway" v="stream" />
	</node>
	<node id="-87373" lat="61.3563805513" lon="11.1607000008">
		<tag k="name" v="Gunnarsbekken" />
		<tag k="ssr:stedsnr" v="465087" />
		<tag k="waterway" v="stream" />
	</node>
	<node id="-87370" lat="61.7394138873" lon="10.6986333351">
		<tag k="name" v="Hirdammen" />
		<tag k="ssr:stedsnr" v="464823" />
		<tag k="waterway" v="dam" />
	</node>
	<node id="-87369" lat="61.2645944446" lon="11.1543861123">
		<tag k="name" v="Vassbekken" />
		<tag k="ssr:stedsnr" v="464812" />
		<tag k="waterway" v="stream" />
	</node>
	<node id="-87363" lat="61.5349388851" lon="11.060363885">
		<tag k="name" v="Stensøya" />
		<tag k="place" v="island" />
		<tag k="ssr:stedsnr" v="464464" />
	</node>
	<node id="-87358" lat="61.5106361127" lon="10.7782999948">
		<tag k="name" v="Storbekken" />
		<tag k="ssr:stedsnr" v="444353" />
		<tag k="waterway" v="stream" />
	</node>
	<node id="-87354" lat="61.7260944485" lon="10.1731500002">
		<tag k="name" v="Gututjørnet" />
		<tag k="natural" v="water" />
		<tag k="ssr:stedsnr" v="435974" />
	</node>
	<node id="-87352" lat="61.9114583362" lon="10.4220666694">
		<tag k="alt_name" v="Åstjønna" />
		<tag k="name" v="Åstjørna" />
		<tag k="natural" v="water" />
		<tag k="ssr:stedsnr" v="435516" />
	</node>
	<node id="-87350" lat="61.9256694435" lon="10.3897333402">
		<tag k="name" v="Kvislåbekken" />
		<tag k="ssr:stedsnr" v="435491" />
		<tag k="waterway" v="stream" />
	</node>
	<node id="-86312" lat="61.3916000005" lon="11.1329166672">
		<tag k="name" v="Gullknapptjønna" />
		<tag k="natural" v="water" />
		<tag k="ssr:stedsnr" v="302279" />
	</node>
	<node id="-87346" lat="61.8158388929" lon="10.2111749929">
		<tag k="alt_name" v="Rundtjønna" />
		<tag k="name" v="Rundtjørna" />
		<tag k="natural" v="water" />
		<tag k="ssr:stedsnr" v="435436" />
	</node>
	<node id="-87345" lat="61.822744446" lon="10.3743888849">
		<tag k="alt_name" v="Kletttjønna" />
		<tag k="name" v="Klettjørn" />
		<tag k="natural" v="water" />
		<tag k="ssr:stedsnr" v="435308" />
	</node>
	<node id="-87344" lat="61.8165611136" lon="10.5820194435">
		<tag k="name" v="Gråsjøbekken" />
		<tag k="ssr:stedsnr" v="435292" />
		<tag k="waterway" v="stream" />
	</node>
	<node id="-87343" lat="61.5096611155" lon="11.1554416742">
		<tag k="alt_name" v="Rørtjørna" />
		<tag k="name" v="Rørtjønna" />
		<tag k="natural" v="water" />
		<tag k="ssr:stedsnr" v="435284" />
	</node>
	<node id="-87339" lat="61.7379638903" lon="10.9578166619">
		<tag k="alt_name" v="Gørkjølla" />
		<tag k="name" v="Gørrkjelda" />
		<tag k="natural" v="water" />
		<tag k="ssr:stedsnr" v="435244" />
	</node>
	<node id="-87334" lat="61.5761500017" lon="10.7720666746">
		<tag k="alt_name" v="Øvsttjønna" />
		<tag k="name" v="Øvsttjørna" />
		<tag k="natural" v="water" />
		<tag k="ssr:stedsnr" v="435155" />
	</node>
	<node id="-87332" lat="61.5642583336" lon="10.8234749917">
		<tag k="alt_name" v="Skarvtjønna" />
		<tag k="name" v="Skarvtjørna" />
		<tag k="natural" v="water" />
		<tag k="ssr:stedsnr" v="435138" />
	</node>
	<node id="-87331" lat="61.5643388884" lon="11.0728777835">
		<tag k="name" v="Kjemåa" />
		<tag k="ssr:stedsnr" v="435137" />
		<tag k="waterway" v="stream" />
	</node>
	<node id="-87322" lat="61.6759333314" lon="10.9165277717">
		<tag k="name" v="Vibekken" />
		<tag k="ssr:stedsnr" v="435088" />
		<tag k="waterway" v="stream" />
	</node>
	<node id="-87319" lat="61.6542500031" lon="10.8286555617">
		<tag k="alt_name" v="Bjøråa, søre;Søndre Bjøråa" />
		<tag k="name" v="Søre Bjøråa" />
		<tag k="ssr:stedsnr" v="435053" />
		<tag k="waterway" v="river" />
	</node>
	<node id="-87318" lat="61.6370027755" lon="11.0111861158">
		<tag k="name" v="Gangbekken" />
		<tag k="ssr:stedsnr" v="435049" />
		<tag k="waterway" v="stream" />
	</node>
	<node id="-87316" lat="61.6030416651" lon="10.8271333328">
		<tag k="alt_name" v="Fåfengtjønna" />
		<tag k="name" v="Fåfengtjørna" />
		<tag k="natural" v="water" />
		<tag k="ssr:stedsnr" v="435022" />
	</node>
	<node id="-87314" lat="61.5881583343" lon="10.7719999965">
		<tag k="name" v="Holmstjørna" />
		<tag k="natural" v="water" />
		<tag k="ssr:stedsnr" v="435007" />
	</node>
	<node id="-87311" lat="61.8858638889" lon="10.2626944418">
		<tag k="alt_name" v="Hesjestøtjørn" />
		<tag k="name" v="Hesjestøtjørna" />
		<tag k="natural" v="water" />
		<tag k="ssr:stedsnr" v="434571" />
	</node>
	<node id="-87309" lat="61.8958611136" lon="10.105772221">
		<tag k="alt_name" v="Myrtjørn;Myrtjønna" />
		<tag k="name" v="Myrtjørna" />
		<tag k="natural" v="water" />
		<tag k="ssr:stedsnr" v="434534" />
	</node>
	<node id="-87305" lat="61.3336424749" lon="10.8760361174">
		<tag k="name" v="Helgetjerna" />
		<tag k="natural" v="water" />
		<tag k="ssr:stedsnr" v="433373" />
		<tag k="water" v="lake" />
	</node>
	<node id="-87302" lat="61.4638900242" lon="11.2307052992">
		<tag k="name" v="Netsjøen" />
		<tag k="natural" v="water" />
		<tag k="ssr:stedsnr" v="433123" />
		<tag k="water" v="lake" />
	</node>
	<node id="-87298" lat="61.3862611145" lon="11.1285527756">
		<tag k="alt_name" v="Nordre Stortjønna" />
		<tag k="name" v="Stortjørnet" />
		<tag k="natural" v="water" />
		<tag k="ssr:stedsnr" v="433049" />
	</node>
	<node id="-87291" lat="61.209086113" lon="11.2141999963">
		<tag k="name" v="Bjørnmyrbekken" />
		<tag k="ssr:stedsnr" v="432384" />
		<tag k="waterway" v="stream" />
	</node>
	<node id="-87287" lat="61.3197666664" lon="10.9819277699">
		<tag k="name" v="Løvlibekken" />
		<tag k="ssr:stedsnr" v="423974" />
		<tag k="waterway" v="stream" />
	</node>
	<node id="-87284" lat="61.5109000039" lon="11.0776305517">
		<tag k="name" v="Veslebekken" />
		<tag k="ssr:stedsnr" v="423788" />
		<tag k="waterway" v="stream" />
	</node>
	<node id="-87282" lat="61.8489861088" lon="10.3144777852">
		<tag k="name" v="Vesledalsbekken" />
		<tag k="ssr:stedsnr" v="423675" />
		<tag k="waterway" v="stream" />
	</node>
	<node id="-87281" lat="61.4851833335" lon="11.1314833366">
		<tag k="name" v="Okstjønnbekken" />
		<tag k="ssr:stedsnr" v="423529" />
		<tag k="waterway" v="stream" />
	</node>
	<node id="-87280" lat="61.7541194468" lon="10.2764111192">
		<tag k="name" v="Svarthølen" />
		<tag k="place" v="locality" />
		<tag k="ssr:stedsnr" v="423448" />
	</node>
	<node id="-87278" lat="61.7651305559" lon="10.302066671">
		<tag k="name" v="Laugartjønna" />
		<tag k="natural" v="water" />
		<tag k="ssr:stedsnr" v="423430" />
	</node>
	<node id="-87274" lat="61.8504250014" lon="10.2325111048">
		<tag k="name" v="Øverhølen" />
		<tag k="place" v="locality" />
		<tag k="ssr:stedsnr" v="423394" />
	</node>
	<node id="-87273" lat="61.8548555523" lon="10.2367305612">
		<tag k="name" v="Storbekken" />
		<tag k="ssr:stedsnr" v="423386" />
		<tag k="waterway" v="stream" />
	</node>
	<node id="-87267" lat="61.8852888864" lon="10.1761472191">
		<tag k="name" v="Sæterbekken" />
		<tag k="ssr:stedsnr" v="423289" />
		<tag k="waterway" v="stream" />
	</node>
	<node id="-87264" lat="61.6794527738" lon="10.9030694409">
		<tag k="name" v="Frekkholmen" />
		<tag k="place" v="island" />
		<tag k="ssr:stedsnr" v="423109" />
	</node>
	<node id="-87250" lat="61.7843722222" lon="10.435958332">
		<tag k="name" v="Killingholmen" />
		<tag k="place" v="islet" />
		<tag k="ssr:stedsnr" v="421508" />
	</node>
	<node id="-87241" lat="61.638452775" lon="10.8903250008">
		<tag k="name" v="Daløya" />
		<tag k="place" v="island" />
		<tag k="ssr:stedsnr" v="419126" />
	</node>
	<node id="-87235" lat="61.5117499968" lon="11.0086527702">
		<tag k="alt_name" v="Havtjønnbekken" />
		<tag k="name" v="Havtjørnbekken" />
		<tag k="ssr:stedsnr" v="262373" />
		<tag k="waterway" v="stream" />
	</node>
	<node id="-87233" lat="61.4533194412" lon="11.2340222228">
		<tag k="name" v="Netsjøbekken" />
		<tag k="ssr:stedsnr" v="259236" />
		<tag k="waterway" v="stream" />
	</node>
	<node id="-87226" lat="61.8170999981" lon="10.4494749983">
		<tag k="name" v="Styggbergsbekken" />
		<tag k="ssr:stedsnr" v="253309" />
		<tag k="waterway" v="stream" />
	</node>
	<node id="-87220" lat="61.7028000002" lon="10.7637250093">
		<tag k="alt_name" v="Abortjønna" />
		<tag k="name" v="Åbortjørna" />
		<tag k="natural" v="water" />
		<tag k="ssr:stedsnr" v="253225" />
	</node>
	<node id="-87218" lat="61.6383361096" lon="10.6890916714">
		<tag k="alt_name" v="Bjøråa, s;Søndre Bjøråa" />
		<tag k="name" v="Søre Bjøråa" />
		<tag k="ssr:stedsnr" v="253172" />
		<tag k="waterway" v="stream" />
	</node>
	<node id="-87211" lat="61.6602416627" lon="10.785361113">
		<tag k="name" v="Gustutjørna" />
		<tag k="natural" v="water" />
		<tag k="ssr:stedsnr" v="253041" />
	</node>
	<node id="-87209" lat="61.6389416655" lon="10.7653749907">
		<tag k="name" v="Bjørnvollbekken" />
		<tag k="ssr:stedsnr" v="253033" />
		<tag k="waterway" v="stream" />
	</node>
	<node id="-87205" lat="61.7591861077" lon="10.3329833424">
		<tag k="name" v="Setninga" />
		<tag k="ssr:stedsnr" v="252378" />
		<tag k="waterway" v="river" />
	</node>
	<node id="-87202" lat="61.5374861084" lon="11.135205552">
		<tag k="name" v="Revtjørna" />
		<tag k="natural" v="water" />
		<tag k="ssr:stedsnr" v="252279" />
	</node>
	<node id="-87201" lat="61.5019750039" lon="11.1641944506">
		<tag k="alt_name" v="Fjølbutjørna" />
		<tag k="name" v="Fjølbutjønna" />
		<tag k="natural" v="water" />
		<tag k="ssr:stedsnr" v="252237" />
	</node>
	<node id="-87185" lat="61.3302638904" lon="10.9690166742">
		<tag k="name" v="Graslitjernet" />
		<tag k="natural" v="water" />
		<tag k="ssr:stedsnr" v="241964" />
	</node>
	<node id="-87184" lat="61.5153861138" lon="11.0530138895">
		<tag k="name" v="Storholmen" />
		<tag k="place" v="islet" />
		<tag k="ssr:stedsnr" v="241752" />
	</node>
	<node id="-87181" lat="61.571516663" lon="11.0643749914">
		<tag k="name" v="Blæsterbekken" />
		<tag k="ssr:stedsnr" v="241398" />
		<tag k="waterway" v="stream" />
	</node>
	<node id="-87178" lat="61.8223694405" lon="10.3195361057">
		<tag k="name" v="Kløftbekken" />
		<tag k="ssr:stedsnr" v="241356" />
		<tag k="waterway" v="stream" />
	</node>
	<node id="-87176" lat="61.8497305519" lon="10.2706166663">
		<tag k="name" v="Fosshue" />
		<tag k="natural" v="cape" />
		<tag k="ssr:stedsnr" v="241345" />
	</node>
	<node id="-87167" lat="61.6840944451" lon="10.7291055548">
		<tag k="name" v="Granåsdammen" />
		<tag k="ssr:stedsnr" v="240262" />
		<tag k="waterway" v="dam" />
	</node>
	<node id="-87166" lat="61.6796638907" lon="10.8601222173">
		<tag k="name" v="Eldfløyta" />
		<tag k="ssr:stedsnr" v="240122" />
		<tag k="waterway" v="dam" />
	</node>
	<node id="-87165" lat="61.8686361086" lon="10.2389833333">
		<tag k="name" v="Næråtjønna" />
		<tag k="natural" v="water" />
		<tag k="ssr:stedsnr" v="239657" />
	</node>
	<node id="-87160" lat="61.7885972251" lon="10.2227083395">
		<tag k="name" v="Tjønnhøle" />
		<tag k="natural" v="water" />
		<tag k="ssr:stedsnr" v="239278" />
	</node>
	<node id="-87159" lat="61.8524722222" lon="10.2079749935">
		<tag k="name" v="Nybuvika" />
		<tag k="natural" v="bay" />
		<tag k="ssr:stedsnr" v="239264" />
	</node>
	<node id="-87153" lat="61.4961972213" lon="10.7245416674">
		<tag k="name" v="Skarvtjønna" />
		<tag k="natural" v="water" />
		<tag k="ssr:stedsnr" v="238669" />
	</node>
	<node id="-87151" lat="61.4642750022" lon="11.2001777819">
		<tag k="name" v="Småneta" />
		<tag k="ssr:stedsnr" v="238251" />
		<tag k="waterway" v="stream" />
	</node>
	<node id="-86510" lat="61.6790055514" lon="10.9986694433">
		<tag k="name" v="Tresdammen" />
		<tag k="ssr:stedsnr" v="374068" />
		<tag k="waterway" v="dam" />
	</node>
	<node id="-87138" lat="61.3438333309" lon="11.0177388858">
		<tag k="name" v="Skarvlitjernet" />
		<tag k="natural" v="water" />
		<tag k="ssr:stedsnr" v="224951" />
	</node>
	<node id="-87135" lat="61.4306777813" lon="11.0366972189">
		<tag k="name" v="Nystumotjønna" />
		<tag k="natural" v="water" />
		<tag k="ssr:stedsnr" v="223901" />
	</node>
	<node id="-87130" lat="61.851752782" lon="10.4272583329">
		<tag k="name" v="Lonfossen" />
		<tag k="natural" v="waterfall" />
		<tag k="ssr:stedsnr" v="222871" />
	</node>
	<node id="-87129" lat="61.2348194409" lon="11.1863222242">
		<tag k="name" v="Sautjernet" />
		<tag k="natural" v="water" />
		<tag k="ssr:stedsnr" v="222776" />
	</node>
	<node id="-87125" lat="61.395677781" lon="10.8982472276">
		<tag k="alt_name" v="Søndre Eldådammen" />
		<tag k="name" v="Søre Eldådammen" />
		<tag k="ssr:stedsnr" v="222656" />
		<tag k="waterway" v="dam" />
	</node>
	<node id="-87117" lat="61.7359222202" lon="10.7507999946">
		<tag k="name" v="Veslefallet" />
		<tag k="natural" v="waterfall" />
		<tag k="ssr:stedsnr" v="222169" />
	</node>
	<node id="-87115" lat="61.6646277748" lon="10.8486527849">
		<tag k="name" v="Stenbekken" />
		<tag k="ssr:stedsnr" v="222102" />
		<tag k="waterway" v="stream" />
	</node>
	<node id="-87105" lat="61.7010500013" lon="10.9262166742">
		<tag k="name" v="Rådelsbekken" />
		<tag k="ssr:stedsnr" v="202260" />
		<tag k="waterway" v="stream" />
	</node>
	<node id="-87095" lat="61.8232805587" lon="10.6316916646">
		<tag k="name" v="Tørråsbekken" />
		<tag k="ssr:stedsnr" v="193260" />
		<tag k="waterway" v="stream" />
	</node>
	<node id="-87086" lat="61.8533666623" lon="10.5645694368">
		<tag k="name" v="Gråsjøen" />
		<tag k="natural" v="water" />
		<tag k="ssr:stedsnr" v="192493" />
		<tag k="water" v="lake" />
	</node>
	<node id="-87082" lat="61.7945999989" lon="10.2815333391">
		<tag k="alt_name" v="Piktjønna" />
		<tag k="name" v="Piktjørna" />
		<tag k="natural" v="water" />
		<tag k="ssr:stedsnr" v="192450" />
	</node>
	<node id="-87078" lat="61.8354027814" lon="10.1779249986">
		<tag k="alt_name" v="Vorddalstjønna" />
		<tag k="name" v="Voldalstjørna" />
		<tag k="natural" v="water" />
		<tag k="ssr:stedsnr" v="192397" />
	</node>
	<node id="-87077" lat="61.525561111" lon="11.1283333306">
		<tag k="alt_name" v="Brennkroktjønna" />
		<tag k="name" v="Brennkroktjørna" />
		<tag k="natural" v="water" />
		<tag k="ssr:stedsnr" v="192327" />
	</node>
	<node id="-87075" lat="61.72573056" lon="10.9997055616">
		<tag k="alt_name" v="Sætertjønna" />
		<tag k="name" v="Sætertjørna" />
		<tag k="natural" v="water" />
		<tag k="ssr:stedsnr" v="192230" />
	</node>
	<node id="-87069" lat="61.7425888916" lon="10.5176083299">
		<tag k="name" v="Storbekken" />
		<tag k="ssr:stedsnr" v="192200" />
		<tag k="waterway" v="stream" />
	</node>
	<node id="-87068" lat="61.7392000003" lon="10.4720138832">
		<tag k="alt_name" v="Nordrebekken" />
		<tag k="name" v="Nørdrebekken" />
		<tag k="ssr:stedsnr" v="192198" />
		<tag k="waterway" v="stream" />
	</node>
	<node id="-87067" lat="61.6692111127" lon="10.7023777847">
		<tag k="alt_name" v="Bjøråa, nordre" />
		<tag k="name" v="Nordre Bjøråa" />
		<tag k="ssr:stedsnr" v="192190" />
		<tag k="waterway" v="stream" />
	</node>
	<node id="-87062" lat="61.5091583308" lon="10.9751250072">
		<tag k="alt_name" v="Havtjønna" />
		<tag k="name" v="Havtjørna" />
		<tag k="natural" v="water" />
		<tag k="ssr:stedsnr" v="192082" />
	</node>
	<node id="-87053" lat="61.6026055544" lon="11.0519611044">
		<tag k="alt_name" v="Blæsterbekken, søre;Søndre Blæsterbekken" />
		<tag k="name" v="Søre Blæsterbekken" />
		<tag k="ssr:stedsnr" v="192015" />
		<tag k="waterway" v="stream" />
	</node>
	<node id="-87050" lat="61.3517277751" lon="11.1814000048">
		<tag k="alt_name" v="Ørrettjernet" />
		<tag k="name" v="Ørtjørnet" />
		<tag k="natural" v="water" />
		<tag k="ssr:stedsnr" v="191044" />
	</node>
	<node id="-87047" lat="61.3395249957" lon="11.2704444474">
		<tag k="name" v="Åborbekken" />
		<tag k="ssr:stedsnr" v="191004" />
		<tag k="waterway" v="stream" />
	</node>
	<node id="-87043" lat="61.2963418667" lon="11.0284788773">
		<tag k="alt_name" v="Søkkundsjøen" />
		<tag k="name" v="Søkkundsjøene" />
		<tag k="natural" v="water" />
		<tag k="ssr:stedsnr" v="190403" />
		<tag k="water" v="lake" />
	</node>
	<node id="-87038" lat="61.2200777797" lon="11.2548000033">
		<tag k="name" v="Bubekken" />
		<tag k="ssr:stedsnr" v="189366" />
		<tag k="waterway" v="stream" />
	</node>
	<node id="-87037" lat="61.2480027799" lon="11.2685333308">
		<tag k="name" v="Stenbekken" />
		<tag k="ssr:stedsnr" v="189354" />
		<tag k="waterway" v="stream" />
	</node>
	<node id="-87033" lat="61.3400805532" lon="10.9971916581">
		<tag k="name" v="Søkkunddammen" />
		<tag k="ssr:stedsnr" v="180958" />
		<tag k="waterway" v="dam" />
	</node>
	<node id="-87031" lat="61.5258527755" lon="11.0516583396">
		<tag k="name" v="Tomøya" />
		<tag k="place" v="islet" />
		<tag k="ssr:stedsnr" v="180806" />
	</node>
	<node id="-87025" lat="61.8514194489" lon="10.3146750026">
		<tag k="name" v="Grythølen" />
		<tag k="place" v="locality" />
		<tag k="ssr:stedsnr" v="180639" />
	</node>
	<node id="-87017" lat="61.8460500017" lon="10.254036108">
		<tag k="name" v="Lona" />
		<tag k="natural" v="water" />
		<tag k="ssr:stedsnr" v="180360" />
		<tag k="water" v="lake" />
	</node>
	<node id="-87016" lat="61.8500777786" lon="10.2619138978">
		<tag k="name" v="Øvrekrokotbekken" />
		<tag k="ssr:stedsnr" v="180348" />
		<tag k="waterway" v="stream" />
	</node>
	<node id="-86988" lat="61.5667527749" lon="10.6869305593">
		<tag k="name" v="Storslåbekken" />
		<tag k="ssr:stedsnr" v="162804" />
		<tag k="waterway" v="stream" />
	</node>
	<node id="-86987" lat="61.7286666632" lon="10.7067388888">
		<tag k="name" v="Hellbubekken" />
		<tag k="ssr:stedsnr" v="162676" />
		<tag k="waterway" v="stream" />
	</node>
	<node id="-86986" lat="61.4583666704" lon="11.1017472136">
		<tag k="name" v="Karibrennbekken" />
		<tag k="ssr:stedsnr" v="162335" />
		<tag k="waterway" v="stream" />
	</node>
	<node id="-86985" lat="61.8528805513" lon="10.4142361097">
		<tag k="name" v="Tuvtjønna" />
		<tag k="natural" v="water" />
		<tag k="ssr:stedsnr" v="161890" />
	</node>
	<node id="-86984" lat="61.5728999973" lon="10.7624361132">
		<tag k="name" v="Vesteråbekken" />
		<tag k="ssr:stedsnr" v="161853" />
		<tag k="waterway" v="stream" />
	</node>
	<node id="-86980" lat="61.4749805557" lon="11.052341668">
		<tag k="name" v="Kvernknarrbekken" />
		<tag k="ssr:stedsnr" v="161719" />
		<tag k="waterway" v="stream" />
	</node>
	<node id="-86977" lat="61.4400250014" lon="10.8586694466">
		<tag k="name" v="Storfallet" />
		<tag k="natural" v="waterfall" />
		<tag k="ssr:stedsnr" v="161594" />
	</node>
	<node id="-86965" lat="61.3855027799" lon="10.8738472222">
		<tag k="name" v="Børtneeldåa" />
		<tag k="ssr:stedsnr" v="161643" />
		<tag k="waterway" v="stream" />
	</node>
	<node id="-86962" lat="61.598186112" lon="10.8913638948">
		<tag k="name" v="Styggdalsbekken" />
		<tag k="ssr:stedsnr" v="141276" />
		<tag k="waterway" v="stream" />
	</node>
	<node id="-86959" lat="61.5107999956" lon="11.0214888907">
		<tag k="name" v="Snippdalsbekken" />
		<tag k="ssr:stedsnr" v="140383" />
		<tag k="waterway" v="stream" />
	</node>
	<node id="-86958" lat="61.838075003" lon="10.369661102">
		<tag k="alt_name" v="Småtjønnbekken" />
		<tag k="name" v="Småtjørnbekken" />
		<tag k="ssr:stedsnr" v="132457" />
		<tag k="waterway" v="stream" />
	</node>
	<node id="-86951" lat="61.8738138867" lon="10.4375500085">
		<tag k="name" v="Lauvrøstbekken" />
		<tag k="ssr:stedsnr" v="131450" />
		<tag k="waterway" v="stream" />
	</node>
	<node id="-86944" lat="61.7385499987" lon="10.8914499999">
		<tag k="name" v="Kjølsjøbekken" />
		<tag k="ssr:stedsnr" v="131197" />
		<tag k="waterway" v="stream" />
	</node>
	<node id="-86937" lat="61.608005553" lon="11.0601249986">
		<tag k="alt_name" v="Blæsterbekken, nørdre;Nordre Blæsterbekken" />
		<tag k="name" v="Nørdre Blæsterbekken" />
		<tag k="ssr:stedsnr" v="131015" />
		<tag k="waterway" v="stream" />
	</node>
	<node id="-86933" lat="61.3199694489" lon="11.1645250017">
		<tag k="alt_name" v="Skjærbekken" />
		<tag k="name" v="Skjerbekken" />
		<tag k="ssr:stedsnr" v="130008" />
		<tag k="waterway" v="stream" />
	</node>
	<node id="-86931" lat="61.4770305586" lon="10.9847083368">
		<tag k="name" v="Syringsbekken" />
		<tag k="ssr:stedsnr" v="129466" />
		<tag k="waterway" v="stream" />
	</node>
	<node id="-86930" lat="61.4846916703" lon="10.9728944463">
		<tag k="name" v="Kvannbekken" />
		<tag k="ssr:stedsnr" v="129464" />
		<tag k="waterway" v="stream" />
	</node>
	<node id="-86928" lat="61.4876611117" lon="11.0293611093">
		<tag k="alt_name" v="Morttjønna" />
		<tag k="name" v="Morttjernet" />
		<tag k="natural" v="water" />
		<tag k="ssr:stedsnr" v="129460" />
	</node>
	<node id="-86926" lat="61.3804916639" lon="11.0050749974">
		<tag k="alt_name" v="Hestskobekken" />
		<tag k="name" v="Hesteskobekken" />
		<tag k="ssr:stedsnr" v="129420" />
		<tag k="waterway" v="stream" />
	</node>
	<node id="-86923" lat="61.3663305511" lon="11.0629444497">
		<tag k="name" v="Søkkunda" />
		<tag k="ssr:stedsnr" v="129412" />
		<tag k="waterway" v="river" />
	</node>
	<node id="-86921" lat="61.3438305541" lon="10.946674998">
		<tag k="name" v="Svartbekken" />
		<tag k="ssr:stedsnr" v="129405" />
		<tag k="waterway" v="stream" />
	</node>
	<node id="-86920" lat="61.2878638887" lon="11.2430250055">
		<tag k="name" v="Vollbekken" />
		<tag k="ssr:stedsnr" v="129243" />
		<tag k="waterway" v="stream" />
	</node>
	<node id="-86918" lat="61.4334812265" lon="11.2035830278">
		<tag k="fixme" v="multiple name tags, choose one and add the other to alt_name" />
		<tag k="name" v="Netfloen;Steindammen" />
		<tag k="natural" v="water" />
		<tag k="ssr:stedsnr" v="129091" />
	</node>
	<node id="-86916" lat="61.3908250012" lon="11.1683749979">
		<tag k="alt_name" v="Spongtjønna" />
		<tag k="name" v="Spongtjørna" />
		<tag k="natural" v="water" />
		<tag k="ssr:stedsnr" v="129049" />
		<tag k="water" v="lake" />
	</node>
	<node id="-86912" lat="61.4439750043" lon="10.7437777842">
		<tag k="name" v="Fløtbekken" />
		<tag k="ssr:stedsnr" v="128425" />
		<tag k="waterway" v="stream" />
	</node>
	<node id="-86911" lat="61.4175277754" lon="11.0522861153">
		<tag k="name" v="Rogna" />
		<tag k="ssr:stedsnr" v="128410" />
		<tag k="waterway" v="river" />
	</node>
	<node id="-86906" lat="61.5070499963" lon="11.0605305634">
		<tag k="name" v="Veslesand" />
		<tag k="place" v="islet" />
		<tag k="ssr:stedsnr" v="120750" />
	</node>
	<node id="-86901" lat="61.3384555562" lon="11.0229749996">
		<tag k="name" v="Skarvlibekken" />
		<tag k="ssr:stedsnr" v="119971" />
		<tag k="waterway" v="stream" />
	</node>
	<node id="-86900" lat="61.4827166709" lon="11.1251083298">
		<tag k="name" v="Lorttjønnbekken" />
		<tag k="ssr:stedsnr" v="119537" />
		<tag k="waterway" v="stream" />
	</node>
	<node id="-86898" lat="61.7562555538" lon="10.2683138915">
		<tag k="name" v="Setningstjønna" />
		<tag k="natural" v="water" />
		<tag k="ssr:stedsnr" v="119435" />
	</node>
	<node id="-86894" lat="61.808188892" lon="10.3346500065">
		<tag k="name" v="Brenntjønna" />
		<tag k="natural" v="water" />
		<tag k="ssr:stedsnr" v="119389" />
	</node>
	<node id="-86891" lat="61.855858332" lon="10.2621888961">
		<tag k="name" v="Tjønna" />
		<tag k="natural" v="water" />
		<tag k="ssr:stedsnr" v="119369" />
	</node>
	<node id="-86886" lat="61.3700083336" lon="11.0787972189">
		<tag k="name" v="Kolåsmyrfallet" />
		<tag k="natural" v="waterfall" />
		<tag k="ssr:stedsnr" v="119256" />
	</node>
	<node id="-86883" lat="61.7268444448" lon="10.7304027712">
		<tag k="name" v="Hellbekken" />
		<tag k="ssr:stedsnr" v="119242" />
		<tag k="waterway" v="stream" />
	</node>
	<node id="-86871" lat="61.3378138876" lon="11.2439999975">
		<tag k="name" v="Sjurstutjernet" />
		<tag k="natural" v="water" />
		<tag k="ssr:stedsnr" v="116354" />
	</node>
	<node id="-86869" lat="61.844388888" lon="10.1496833359">
		<tag k="name" v="Nordrebekken" />
		<tag k="ssr:stedsnr" v="113886" />
		<tag k="waterway" v="stream" />
	</node>
	<node id="-86863" lat="61.3626916701" lon="10.9806194415">
		<tag k="name" v="Bjønnbekken" />
		<tag k="ssr:stedsnr" v="102961" />
		<tag k="waterway" v="stream" />
	</node>
	<node id="-86860" lat="61.4434527813" lon="11.0496833417">
		<tag k="name" v="Evja" />
		<tag k="ssr:stedsnr" v="102895" />
		<tag k="waterway" v="stream" />
	</node>
	<node id="-86858" lat="61.434963892" lon="11.1203333395">
		<tag k="name" v="Bratteggbekken" />
		<tag k="ssr:stedsnr" v="102389" />
		<tag k="waterway" v="stream" />
	</node>
	<node id="-86856" lat="61.4019055568" lon="10.9168694466">
		<tag k="alt_name" v="Søndre Heievolbekken" />
		<tag k="name" v="Søre Heievolbekken" />
		<tag k="ssr:stedsnr" v="101694" />
		<tag k="waterway" v="stream" />
	</node>
	<node id="-86852" lat="61.331580557" lon="11.2519249999">
		<tag k="name" v="Taraldstutjernet" />
		<tag k="natural" v="water" />
		<tag k="ssr:stedsnr" v="101685" />
	</node>
	<node id="-86850" lat="61.4387722216" lon="10.8567916755">
		<tag k="name" v="Eldådammen" />
		<tag k="ssr:stedsnr" v="101497" />
		<tag k="waterway" v="dam" />
	</node>
	<node id="-86846" lat="61.2780999965" lon="11.1280583369">
		<tag k="name" v="Fløtbekken" />
		<tag k="ssr:stedsnr" v="100751" />
		<tag k="waterway" v="stream" />
	</node>
	<node id="-86844" lat="61.5510111067" lon="10.6777111144">
		<tag k="name" v="Imsostjønna" />
		<tag k="natural" v="water" />
		<tag k="ssr:stedsnr" v="100734" />
	</node>
	<node id="-86843" lat="61.4772805561" lon="10.9747388872">
		<tag k="name" v="Lerådalsbekken" />
		<tag k="ssr:stedsnr" v="100715" />
		<tag k="waterway" v="stream" />
	</node>
	<node id="-86841" lat="61.5009083332" lon="10.9804500083">
		<tag k="name" v="Kvannbekkmyra" />
		<tag k="ssr:stedsnr" v="100710" />
		<tag k="waterway" v="stream" />
	</node>
	<node id="-86840" lat="61.4851194476" lon="11.0295305608">
		<tag k="name" v="Tyskevja" />
		<tag k="ssr:stedsnr" v="100708" />
		<tag k="waterway" v="stream" />
	</node>
	<node id="-86837" lat="61.5392138876" lon="11.0405000003">
		<tag k="name" v="Hestholmen" />
		<tag k="place" v="island" />
		<tag k="ssr:stedsnr" v="100448" />
	</node>
	<node id="-86829" lat="61.7776805569" lon="10.5750916713">
		<tag k="alt_name" v="Bredbekken;Breddbekken" />
		<tag k="name" v="Breidbekken" />
		<tag k="ssr:stedsnr" v="72295" />
		<tag k="waterway" v="stream" />
	</node>
	<node id="-86828" lat="61.7781583365" lon="10.6173750053">
		<tag k="alt_name" v="Syrklettjønna" />
		<tag k="name" v="Syrklettjørna" />
		<tag k="natural" v="water" />
		<tag k="ssr:stedsnr" v="72294" />
	</node>
	<node id="-86824" lat="61.8694333343" lon="10.3525999979">
		<tag k="alt_name" v="Nordre Hattlibekken" />
		<tag k="name" v="Hattlibekken" />
		<tag k="ssr:stedsnr" v="71500" />
		<tag k="waterway" v="stream" />
	</node>
	<node id="-86822" lat="61.8217527749" lon="10.431261116">
		<tag k="alt_name" v="Styggbergstjønna" />
		<tag k="name" v="Styggbergstjørna" />
		<tag k="natural" v="water" />
		<tag k="ssr:stedsnr" v="71308" />
	</node>
	<node id="-86820" lat="61.8153444464" lon="10.555725008">
		<tag k="name" v="Gravbekken" />
		<tag k="ssr:stedsnr" v="71294" />
		<tag k="waterway" v="stream" />
	</node>
	<node id="-86811" lat="61.5259583348" lon="10.874563886">
		<tag k="alt_name" v="Negardssjøen" />
		<tag k="name" v="Nedgardssjøen" />
		<tag k="natural" v="water" />
		<tag k="ssr:stedsnr" v="71075" />
		<tag k="water" v="lake" />
	</node>
	<node id="-86808" lat="61.6507750003" lon="11.0497166633">
		<tag k="name" v="Bjørbekken" />
		<tag k="ssr:stedsnr" v="71035" />
		<tag k="waterway" v="stream" />
	</node>
	<node id="-86804" lat="61.856500003" lon="10.2665388842">
		<tag k="alt_name" v="Veslebekken" />
		<tag k="name" v="Veslbekken" />
		<tag k="ssr:stedsnr" v="70367" />
		<tag k="waterway" v="stream" />
	</node>
	<node id="-86802" lat="61.8274083292" lon="10.1995833415">
		<tag k="name" v="Bjørhusbekken" />
		<tag k="ssr:stedsnr" v="70353" />
		<tag k="waterway" v="stream" />
	</node>
	<node id="-86801" lat="61.7290750001" lon="10.7697888972">
		<tag k="alt_name" v="Risbrennlibekken" />
		<tag k="name" v="Risbrennbekken" />
		<tag k="ssr:stedsnr" v="70190" />
		<tag k="waterway" v="stream" />
	</node>
	<node id="-86800" lat="61.5271805554" lon="11.1475527787">
		<tag k="alt_name" v="Svarttjønna" />
		<tag k="name" v="Svarttjørna" />
		<tag k="natural" v="water" />
		<tag k="ssr:stedsnr" v="70272" />
	</node>
	<node id="-86788" lat="61.3311305545" lon="11.0570916613">
		<tag k="name" v="Hortabekken" />
		<tag k="ssr:stedsnr" v="69427" />
		<tag k="waterway" v="stream" />
	</node>
	<node id="-86486" lat="61.3843305554" lon="11.0802083274">
		<tag k="alt_name" v="Køiedalsbekken" />
		<tag k="name" v="Koiedalsbekken" />
		<tag k="ssr:stedsnr" v="372437" />
		<tag k="waterway" v="stream" />
	</node>
	<node id="-86785" lat="61.2532000009" lon="11.0622861125">
		<tag k="name" v="Stauvnsjøen" />
		<tag k="natural" v="water" />
		<tag k="ssr:stedsnr" v="69391" />
	</node>
	<node id="-86780" lat="61.299349999" lon="11.2203888905">
		<tag k="name" v="Brynhildsløbekken" />
		<tag k="ssr:stedsnr" v="69229" />
		<tag k="waterway" v="stream" />
	</node>
	<node id="-86776" lat="61.4257277772" lon="11.173705548">
		<tag k="alt_name" v="Davatjønna" />
		<tag k="name" v="Davatjernet" />
		<tag k="natural" v="water" />
		<tag k="ssr:stedsnr" v="69081" />
	</node>
	<node id="-86775" lat="61.3580500029" lon="11.1311249992">
		<tag k="name" v="Milskiftbekken" />
		<tag k="ssr:stedsnr" v="69047" />
		<tag k="waterway" v="stream" />
	</node>
	<node id="-86773" lat="61.3776916627" lon="11.1969666621">
		<tag k="alt_name" v="Nabbtjønna" />
		<tag k="name" v="Nabbtjørnet" />
		<tag k="natural" v="water" />
		<tag k="ssr:stedsnr" v="69041" />
	</node>
	<node id="-86757" lat="61.7618222206" lon="10.2775305629">
		<tag k="name" v="Svarthølbekken" />
		<tag k="ssr:stedsnr" v="59390" />
		<tag k="waterway" v="stream" />
	</node>
	<node id="-86756" lat="61.7653888892" lon="10.3355111133">
		<tag k="name" v="Storslåbekken" />
		<tag k="ssr:stedsnr" v="59383" />
		<tag k="waterway" v="stream" />
	</node>
	<node id="-86752" lat="61.8491749996" lon="10.2366694355">
		<tag k="name" v="Ytterhølen" />
		<tag k="place" v="locality" />
		<tag k="ssr:stedsnr" v="59353" />
	</node>
	<node id="-86745" lat="61.8626833371" lon="10.3432500038">
		<tag k="alt_name" v="Søndre Hattlibekken" />
		<tag k="name" v="Søre Hattlibekken" />
		<tag k="ssr:stedsnr" v="57617" />
		<tag k="waterway" v="stream" />
	</node>
	<node id="-86744" lat="61.8652944419" lon="10.3034499964">
		<tag k="name" v="Skarvstilla" />
		<tag k="natural" v="water" />
		<tag k="ssr:stedsnr" v="57614" />
		<tag k="water" v="lake" />
	</node>
	<node id="-86736" lat="61.55050833" lon="10.852572229">
		<tag k="name" v="Tittilsjøbekken" />
		<tag k="ssr:stedsnr" v="57112" />
		<tag k="waterway" v="stream" />
	</node>
	<node id="-86730" lat="61.7879666712" lon="10.5391249993">
		<tag k="name" v="Lortgåsenget" />
		<tag k="place" v="islet" />
		<tag k="ssr:stedsnr" v="55971" />
	</node>
	<node id="-86727" lat="61.5899638911" lon="10.8613805513">
		<tag k="name" v="Svantjønna" />
		<tag k="natural" v="water" />
		<tag k="ssr:stedsnr" v="55438" />
	</node>
	<node id="-86722" lat="61.3791861114" lon="10.9657916711">
		<tag k="name" v="Tøråsbekken" />
		<tag k="ssr:stedsnr" v="42997" />
		<tag k="waterway" v="stream" />
	</node>
	<node id="-86700" lat="61.2494361091" lon="11.2131194387">
		<tag k="name" v="Storbekken" />
		<tag k="ssr:stedsnr" v="39457" />
		<tag k="waterway" v="stream" />
	</node>
	<node id="-86471" lat="61.3428333333" lon="11.2377722302">
		<tag k="name" v="Harptjernet" />
		<tag k="natural" v="water" />
		<tag k="ssr:stedsnr" v="372005" />
	</node>
	<node id="-86692" lat="61.8393777781" lon="10.4181583249">
		<tag k="name" v="Skjeftemyrbekken" />
		<tag k="ssr:stedsnr" v="11483" />
		<tag k="waterway" v="stream" />
	</node>
	<node id="-86690" lat="61.7773499998" lon="10.568308324">
		<tag k="name" v="Syrbekken" />
		<tag k="ssr:stedsnr" v="11291" />
		<tag k="waterway" v="stream" />
	</node>
	<node id="-86688" lat="61.7624944401" lon="10.4121916613">
		<tag k="name" v="Klettbekken" />
		<tag k="ssr:stedsnr" v="11272" />
		<tag k="waterway" v="stream" />
	</node>
	<node id="-86683" lat="61.908344443" lon="10.0886138963">
		<tag k="alt_name" v="Hessetjørn;Hessetjønna" />
		<tag k="name" v="Hessetjørna" />
		<tag k="natural" v="water" />
		<tag k="ssr:stedsnr" v="10578" />
	</node>
	<node id="-86680" lat="61.8578944422" lon="10.5776861054">
		<tag k="alt_name" v="Gråtjønna" />
		<tag k="name" v="Gråtjørna" />
		<tag k="natural" v="water" />
		<tag k="ssr:stedsnr" v="10459" />
	</node>
	<node id="-86675" lat="61.8517333292" lon="10.1502388849">
		<tag k="name" v="Loken" />
		<tag k="ssr:stedsnr" v="10387" />
		<tag k="waterway" v="stream" />
	</node>
	<node id="-86672" lat="61.8372500015" lon="10.1721111077">
		<tag k="alt_name" v="Laugartjønna" />
		<tag k="name" v="Laugartjørna" />
		<tag k="natural" v="water" />
		<tag k="ssr:stedsnr" v="10361" />
	</node>
	<node id="-86668" lat="61.6970666698" lon="10.7532638898">
		<tag k="name" v="Bjørsjøen" />
		<tag k="natural" v="water" />
		<tag k="ssr:stedsnr" v="10196" />
		<tag k="water" v="lake" />
	</node>
	<node id="-86662" lat="61.5412789298" lon="10.8712768172">
		<tag k="alt_name" v="Tittilsjøen" />
		<tag k="name" v="Tittelsjøen" />
		<tag k="natural" v="water" />
		<tag k="ssr:stedsnr" v="10090" />
		<tag k="water" v="lake" />
	</node>
	<node id="-86653" lat="61.5911833368" lon="11.0033749969">
		<tag k="name" v="Tresøya" />
		<tag k="place" v="island" />
		<tag k="ssr:stedsnr" v="10003" />
	</node>
	<node id="-86652" lat="61.4980861141" lon="11.152144442">
		<tag k="alt_name" v="Smalhovdtjønna" />
		<tag k="name" v="Smalhovdtjørnet" />
		<tag k="natural" v="water" />
		<tag k="ssr:stedsnr" v="9364" />
	</node>
	<node id="-86650" lat="61.3552499983" lon="11.226780561">
		<tag k="name" v="Revøya" />
		<tag k="place" v="island" />
		<tag k="ssr:stedsnr" v="9029" />
	</node>
	<node id="-86647" lat="61.3204369189" lon="10.9089762069">
		<tag k="alt_name" v="Møklebysjøen" />
		<tag k="name" v="Myklebysjøen" />
		<tag k="natural" v="water" />
		<tag k="ssr:stedsnr" v="8424" />
		<tag k="water" v="lake" />
	</node>
	<node id="-86645" lat="61.3062861142" lon="10.9439888963">
		<tag k="alt_name" v="Storbekken, nordre" />
		<tag k="name" v="Nordre Storbekken" />
		<tag k="ssr:stedsnr" v="8417" />
		<tag k="waterway" v="stream" />
	</node>
	<node id="-86638" lat="61.4427583317" lon="10.9248416589">
		<tag k="alt_name" v="Nordre Eldåa;Eldåa, nordre" />
		<tag k="name" v="Nørdre Eldåa" />
		<tag k="ssr:stedsnr" v="7435" />
		<tag k="waterway" v="river" />
	</node>
	<node id="-86633" lat="61.5730611141" lon="10.6646361037">
		<tag k="alt_name" v="Famptjønna" />
		<tag k="name" v="Famptjørnet" />
		<tag k="natural" v="water" />
		<tag k="ssr:stedsnr" v="267419" />
	</node>
	<node id="-86460" lat="61.525822219" lon="11.0612055489">
		<tag k="name" v="Landtuen" />
		<tag k="place" v="islet" />
		<tag k="ssr:stedsnr" v="362814" />
	</node>
	<node id="-86622" lat="61.7519802517" lon="10.9813327311">
		<tag k="alt_name" v="Mjovassjøen, nørdre" />
		<tag k="name" v="Nordre Mjovassjøen" />
		<tag k="natural" v="water" />
		<tag k="old_name" v="Mjøvassjøen, nørdre" />
		<tag k="ssr:stedsnr" v="70214" />
		<tag k="water" v="lake" />
	</node>
	<node id="-86610" lat="61.3769916687" lon="10.9688222139">
		<tag k="name" v="Tøråstjønna" />
		<tag k="natural" v="water" />
		<tag k="ssr:stedsnr" v="891947" />
	</node>
	<node id="-86609" lat="61.3926888923" lon="10.9861638975">
		<tag k="name" v="Vestre Rogndammen" />
		<tag k="ssr:stedsnr" v="891899" />
		<tag k="waterway" v="dam" />
	</node>
	<node id="-86606" lat="61.4284249976" lon="11.0479694499">
		<tag k="name" v="Ellingsbekken" />
		<tag k="ssr:stedsnr" v="891889" />
		<tag k="waterway" v="stream" />
	</node>
	<node id="-86604" lat="61.531113886" lon="11.0545333315">
		<tag k="name" v="Vestgardsvollen" />
		<tag k="place" v="island" />
		<tag k="ssr:stedsnr" v="890833" />
	</node>
	<node id="-86602" lat="61.4573305549" lon="11.0469222137">
		<tag k="name" v="Messeltfossen" />
		<tag k="natural" v="waterfall" />
		<tag k="ssr:stedsnr" v="890801" />
	</node>
	<node id="-86596" lat="61.3469333369" lon="11.1917361125">
		<tag k="name" v="Ørrettjerndammen" />
		<tag k="natural" v="water" />
		<tag k="ssr:stedsnr" v="890092" />
	</node>
	<node id="-86595" lat="61.8219750014" lon="10.3905444454">
		<tag k="name" v="Småtjønna" />
		<tag k="natural" v="water" />
		<tag k="ssr:stedsnr" v="889905" />
	</node>
	<node id="-86593" lat="61.2237083368" lon="11.1921499972">
		<tag k="name" v="Fjellbekken" />
		<tag k="ssr:stedsnr" v="889775" />
		<tag k="waterway" v="stream" />
	</node>
	<node id="-86590" lat="61.5379027802" lon="11.0593250009">
		<tag k="name" v="Stubbøya" />
		<tag k="place" v="island" />
		<tag k="ssr:stedsnr" v="889458" />
	</node>
	<node id="-86589" lat="61.5349861134" lon="11.0489361048">
		<tag k="name" v="Lijordseggholmen" />
		<tag k="place" v="islet" />
		<tag k="ssr:stedsnr" v="889447" />
	</node>
	<node id="-86588" lat="61.5404000012" lon="11.0435777792">
		<tag k="name" v="Sauholmen" />
		<tag k="place" v="islet" />
		<tag k="ssr:stedsnr" v="889445" />
	</node>
	<node id="-86580" lat="61.8420916705" lon="10.1539055627">
		<tag k="name" v="Sørebekken" />
		<tag k="ssr:stedsnr" v="477934" />
		<tag k="waterway" v="stream" />
	</node>
	<node id="-86578" lat="61.8868361069" lon="10.1354666611">
		<tag k="name" v="Svartodden" />
		<tag k="natural" v="cape" />
		<tag k="ssr:stedsnr" v="477619" />
	</node>
	<node id="-86575" lat="61.4345194418" lon="11.1536444497">
		<tag k="name" v="Sæterbekken" />
		<tag k="ssr:stedsnr" v="405339" />
		<tag k="waterway" v="stream" />
	</node>
	<node id="-86563" lat="61.4495305571" lon="10.9351055639">
		<tag k="name" v="Halvsæterbekken" />
		<tag k="ssr:stedsnr" v="404492" />
		<tag k="waterway" v="stream" />
	</node>
	<node id="-86559" lat="61.5345861103" lon="11.0437249936">
		<tag k="name" v="Vestgardsøya" />
		<tag k="place" v="island" />
		<tag k="ssr:stedsnr" v="404448" />
	</node>
	<node id="-86557" lat="61.4879527763" lon="11.0226527689">
		<tag k="name" v="Husvolbekken" />
		<tag k="ssr:stedsnr" v="403742" />
		<tag k="waterway" v="stream" />
	</node>
	<node id="-86551" lat="61.646855559" lon="10.9292833394">
		<tag k="alt_name" v="Nestjørna, øvre;Øvre Nesttjønna" />
		<tag k="name" v="Øvre Nestjørna" />
		<tag k="natural" v="water" />
		<tag k="ssr:stedsnr" v="384283" />
	</node>
	<node id="-86550" lat="61.5989750027" lon="10.8873583424">
		<tag k="name" v="Klarbekken" />
		<tag k="ssr:stedsnr" v="384278" />
		<tag k="waterway" v="stream" />
	</node>
	<node id="-86549" lat="61.6526666649" lon="10.8292805588">
		<tag k="name" v="Bjøråfallet" />
		<tag k="natural" v="waterfall" />
		<tag k="ssr:stedsnr" v="384276" />
	</node>
	<node id="-86545" lat="61.5689833354" lon="10.8152333372">
		<tag k="name" v="Kråkrybekken" />
		<tag k="ssr:stedsnr" v="383364" />
		<tag k="waterway" v="stream" />
	</node>
	<node id="-86445" lat="61.8486638853" lon="10.268088885">
		<tag k="name" v="Elsehølet" />
		<tag k="place" v="locality" />
		<tag k="ssr:stedsnr" v="362365" />
	</node>
	<node id="-86531" lat="61.8155055562" lon="10.3924388922">
		<tag k="alt_name" v="Stortjønna" />
		<tag k="name" v="Stortjørna" />
		<tag k="natural" v="water" />
		<tag k="ssr:stedsnr" v="374290" />
	</node>
	<node id="-88576" lat="61.4958611133" lon="11.0328666748">
		<tag k="name" v="Vesle Sørtjønna" />
		<tag k="natural" v="water" />
		<tag k="ssr:stedsnr" v="969749" />
	</node>
	<node id="-88575" lat="61.6710416643" lon="10.991952781">
		<tag k="name" v="Ledammen" />
		<tag k="natural" v="water" />
		<tag k="ssr:stedsnr" v="969732" />
	</node>
	<node id="-88573" lat="61.8500111084" lon="10.326658334">
		<tag k="name" v="Finstadskjæra" />
		<tag k="place" v="islet" />
		<tag k="ssr:stedsnr" v="969657" />
	</node>
	<node id="-86522" lat="61.5829333324" lon="11.0062138829">
		<tag k="name" v="Storholmen" />
		<tag k="place" v="island" />
		<tag k="ssr:stedsnr" v="374141" />
	</node>
	<node id="-88565" lat="61.8504055593" lon="10.2348083396">
		<tag k="name" v="Atnfossen" />
		<tag k="natural" v="waterfall" />
		<tag k="ssr:stedsnr" v="969362" />
	</node>
	<node id="-88563" lat="61.6305749983" lon="11.0938416725">
		<tag k="name" v="Eksingbekken" />
		<tag k="ssr:stedsnr" v="968900" />
		<tag k="waterway" v="stream" />
	</node>
	<node id="-88562" lat="61.3549499971" lon="11.2239111182">
		<tag k="name" v="Vesleøya" />
		<tag k="place" v="islet" />
		<tag k="ssr:stedsnr" v="968743" />
	</node>
	<node id="-88561" lat="61.721716667" lon="10.9591777711">
		<tag k="alt_name" v="Snokkollen;Snøkkhølen;Snokolltjønnet" />
		<tag k="name" v="Snokolltjønna" />
		<tag k="natural" v="water" />
		<tag k="ssr:stedsnr" v="968675" />
	</node>
	<node id="-88560" lat="61.5280916692" lon="11.1209583327">
		<tag k="name" v="Øvre Nestjønna" />
		<tag k="natural" v="water" />
		<tag k="ssr:stedsnr" v="968527" />
	</node>
	<node id="-88558" lat="61.8783138932" lon="10.189141666">
		<tag k="name" v="Blåstensbekken" />
		<tag k="ssr:stedsnr" v="968279" />
		<tag k="waterway" v="stream" />
	</node>
	<node id="-88557" lat="61.70529444" lon="10.8976249999">
		<tag k="name" v="Vannstasjonsbekken" />
		<tag k="ssr:stedsnr" v="968127" />
		<tag k="waterway" v="stream" />
	</node>
	<node id="-88550" lat="61.3866472227" lon="11.2587694419">
		<tag k="name" v="Vangrustbekken" />
		<tag k="ssr:stedsnr" v="966835" />
		<tag k="waterway" v="stream" />
	</node>
	<node id="-86495" lat="61.7701916693" lon="10.1972805591">
		<tag k="name" v="Snødøla" />
		<tag k="ssr:stedsnr" v="373444" />
		<tag k="waterway" v="stream" />
	</node>
	<node id="-88542" lat="61.8551027793" lon="10.2161749979">
		<tag k="name" v="Granrøstbekken" />
		<tag k="ssr:stedsnr" v="967230" />
		<tag k="waterway" v="stream" />
	</node>
	<node id="-86492" lat="61.8213027815" lon="10.2114416664">
		<tag k="alt_name" v="Langtjønna" />
		<tag k="name" v="Langtjørna" />
		<tag k="natural" v="water" />
		<tag k="ssr:stedsnr" v="373374" />
	</node>
	<node id="-86491" lat="61.8293999976" lon="10.1824777759">
		<tag k="alt_name" v="Motjønna" />
		<tag k="name" v="Motjørna" />
		<tag k="natural" v="water" />
		<tag k="ssr:stedsnr" v="373366" />
	</node>
	<node id="-86490" lat="61.5365888915" lon="11.1172722189">
		<tag k="alt_name" v="Skånsjøen" />
		<tag k="name" v="Skårnsjøen" />
		<tag k="natural" v="water" />
		<tag k="ssr:stedsnr" v="373285" />
	</node>
	<node id="-86489" lat="61.52956111" lon="11.1297916682">
		<tag k="alt_name" v="Langtjønna" />
		<tag k="name" v="Langtjørna" />
		<tag k="natural" v="water" />
		<tag k="ssr:stedsnr" v="373279" />
	</node>
	<node id="-86488" lat="61.7424749996" lon="10.8776138848">
		<tag k="name" v="Kjølsjøen" />
		<tag k="natural" v="water" />
		<tag k="ssr:stedsnr" v="373208" />
	</node>
	<node id="-88534" lat="61.6023277812" lon="10.811869454">
		<tag k="name" v="Trydammen" />
		<tag k="ssr:stedsnr" v="950838" />
		<tag k="waterway" v="dam" />
	</node>
	<node id="-86485" lat="61.3848999956" lon="11.0408916711">
		<tag k="name" v="Langbekken" />
		<tag k="ssr:stedsnr" v="372436" />
		<tag k="waterway" v="stream" />
	</node>
	<node id="-86484" lat="61.3723805595" lon="10.9452111078">
		<tag k="name" v="Rognsjøen" />
		<tag k="natural" v="water" />
		<tag k="ssr:stedsnr" v="372433" />
	</node>
	<node id="-88531" lat="61.4896250006" lon="11.0767111124">
		<tag k="name" v="Staibekken" />
		<tag k="ssr:stedsnr" v="950725" />
		<tag k="waterway" v="stream" />
	</node>
	<node id="-86482" lat="61.2835916677" lon="11.0674527868">
		<tag k="name" v="Ruskåstjernet" />
		<tag k="natural" v="water" />
		<tag k="ssr:stedsnr" v="372411" />
	</node>
	<node id="-88529" lat="61.5665138908" lon="11.0122527702">
		<tag k="name" v="Storresøya" />
		<tag k="place" v="island" />
		<tag k="ssr:stedsnr" v="950610" />
	</node>
	<node id="-86480" lat="61.2965833321" lon="11.1064166748">
		<tag k="name" v="Tvetjerna" />
		<tag k="natural" v="water" />
		<tag k="ssr:stedsnr" v="372237" />
	</node>
	<node id="-86479" lat="61.3030861086" lon="11.2684249968">
		<tag k="alt_name" v="Strandøyene" />
		<tag k="name" v="Strandøyane" />
		<tag k="place" v="island" />
		<tag k="ssr:stedsnr" v="372232" />
	</node>
	<node id="-88525" lat="61.467902776" lon="10.8444805648">
		<tag k="name" v="Bryedalsbekken" />
		<tag k="ssr:stedsnr" v="950491" />
		<tag k="waterway" v="stream" />
	</node>
	<node id="-86474" lat="61.3149361126" lon="11.3382000039">
		<tag k="name" v="Stormyrtjernet" />
		<tag k="natural" v="water" />
		<tag k="ssr:stedsnr" v="372040" />
	</node>
	<node id="-86473" lat="61.3115944472" lon="11.2618111159">
		<tag k="name" v="Kongsøya" />
		<tag k="place" v="island" />
		<tag k="ssr:stedsnr" v="372030" />
	</node>
	<node id="-88520" lat="61.6005805547" lon="10.9372166624">
		<tag k="name" v="Revdalsbekken" />
		<tag k="ssr:stedsnr" v="950123" />
		<tag k="waterway" v="stream" />
	</node>
	<node id="-88519" lat="61.2922694435" lon="11.0780083301">
		<tag k="name" v="Ruskåstjernet" />
		<tag k="natural" v="water" />
		<tag k="ssr:stedsnr" v="950122" />
	</node>
	<node id="-88518" lat="61.3189055563" lon="11.1064444519">
		<tag k="name" v="Kvernbekktjernet" />
		<tag k="natural" v="water" />
		<tag k="ssr:stedsnr" v="950093" />
	</node>
	<node id="-86468" lat="61.4199638858" lon="11.0053805461">
		<tag k="alt_name" v="Rogna, l" />
		<tag k="name" v="Veslerogna" />
		<tag k="ssr:stedsnr" v="371412" />
		<tag k="waterway" v="stream" />
	</node>
	<node id="-88508" lat="61.7864083327" lon="10.3637722207">
		<tag k="name" v="Djupdalsbekken" />
		<tag k="ssr:stedsnr" v="921262" />
		<tag k="waterway" v="stream" />
	</node>
	<node id="-88506" lat="61.9063027815" lon="10.1047444487">
		<tag k="alt_name" v="Hørsa" />
		<tag k="name" v="Hyrsa" />
		<tag k="ssr:stedsnr" v="920613" />
		<tag k="waterway" v="stream" />
	</node>
	<node id="-86457" lat="61.3761583341" lon="10.9063666722">
		<tag k="name" v="Hoppbekken" />
		<tag k="ssr:stedsnr" v="362678" />
		<tag k="waterway" v="stream" />
	</node>
	<node id="-86455" lat="61.8530055526" lon="10.3022888895">
		<tag k="name" v="Amperholmen" />
		<tag k="place" v="islet" />
		<tag k="ssr:stedsnr" v="362656" />
	</node>
	<node id="-88502" lat="61.8881194413" lon="10.4015583276">
		<tag k="name" v="Langstilla" />
		<tag k="place" v="locality" />
		<tag k="ssr:stedsnr" v="920478" />
	</node>
	<node id="-88501" lat="61.8797000042" lon="10.4073944489">
		<tag k="name" v="Storgryta" />
		<tag k="ssr:stedsnr" v="920454" />
		<tag k="waterway" v="river" />
	</node>
	<node id="-86452" lat="61.7648888848" lon="10.3207444462">
		<tag k="name" v="Klokkarbekken" />
		<tag k="ssr:stedsnr" v="362404" />
		<tag k="waterway" v="stream" />
	</node>
	<node id="-86451" lat="61.7636055526" lon="10.3330888815">
		<tag k="name" v="Lille Halebekken" />
		<tag k="ssr:stedsnr" v="362402" />
		<tag k="waterway" v="stream" />
	</node>
	<node id="-86450" lat="61.5758888851" lon="11.0211861071">
		<tag k="name" v="Tretteøya" />
		<tag k="place" v="islet" />
		<tag k="ssr:stedsnr" v="362400" />
	</node>
	<node id="-86449" lat="61.8055249997" lon="10.3066527756">
		<tag k="name" v="Stentjønna" />
		<tag k="natural" v="water" />
		<tag k="ssr:stedsnr" v="362392" />
	</node>
	<node id="-88494" lat="61.772574996" lon="10.2891472161">
		<tag k="alt_name" v="Storåstjønnene" />
		<tag k="name" v="Storåstjørnene" />
		<tag k="natural" v="water" />
		<tag k="ssr:stedsnr" v="920372" />
		<tag k="water" v="lake" />
	</node>
	<node id="-88493" lat="61.7654583301" lon="10.3024527864">
		<tag k="name" v="Torgerslåbekken" />
		<tag k="ssr:stedsnr" v="920367" />
		<tag k="waterway" v="stream" />
	</node>
	<node id="-88489" lat="61.6627472235" lon="10.8823388882">
		<tag k="alt_name" v="Bjøråa, nordre;Bjøråa" />
		<tag k="name" v="Nordre Bjøråa" />
		<tag k="ssr:stedsnr" v="920184" />
		<tag k="waterway" v="river" />
	</node>
	<node id="-88488" lat="61.7182388864" lon="10.6415027704">
		<tag k="alt_name" v="Hira" />
		<tag k="name" v="Stor-Hira" />
		<tag k="ssr:stedsnr" v="920176" />
		<tag k="waterway" v="river" />
	</node>
	<node id="-88487" lat="61.7438583328" lon="10.3714416575">
		<tag k="alt_name" v="Øvredalsbekken" />
		<tag k="name" v="Øverdalsbekken" />
		<tag k="ssr:stedsnr" v="920168" />
		<tag k="waterway" v="stream" />
	</node>
	<node id="-86435" lat="61.7535472248" lon="10.9342305541">
		<tag k="name" v="Granåsbekken" />
		<tag k="ssr:stedsnr" v="360400" />
		<tag k="waterway" v="stream" />
	</node>
	<node id="-88482" lat="61.5424250032" lon="10.8240750018">
		<tag k="name" v="Bubekken" />
		<tag k="ssr:stedsnr" v="920095" />
		<tag k="waterway" v="stream" />
	</node>
	<node id="-88480" lat="61.5107972211" lon="11.0802749961">
		<tag k="name" v="Landbekken" />
		<tag k="ssr:stedsnr" v="920071" />
		<tag k="waterway" v="stream" />
	</node>
	<node id="-88477" lat="61.6600250034" lon="10.9701666737">
		<tag k="alt_name" v="Letjønna" />
		<tag k="name" v="Letjørna" />
		<tag k="natural" v="water" />
		<tag k="ssr:stedsnr" v="920057" />
	</node>
	<node id="-86427" lat="61.570966664" lon="10.9320416601">
		<tag k="name" v="Hestmyrbekken" />
		<tag k="ssr:stedsnr" v="360105" />
		<tag k="waterway" v="stream" />
	</node>
	<node id="-88472" lat="61.6201111085" lon="10.9346333378">
		<tag k="name" v="Brennbekken" />
		<tag k="ssr:stedsnr" v="920022" />
		<tag k="waterway" v="stream" />
	</node>
	<node id="-86423" lat="61.335636109" lon="11.2502388861">
		<tag k="name" v="Kvernmotjernet" />
		<tag k="natural" v="water" />
		<tag k="ssr:stedsnr" v="359392" />
	</node>
	<node id="-88469" lat="61.3150055558" lon="10.8361750007">
		<tag k="name" v="Smørslåa" />
		<tag k="ssr:stedsnr" v="919392" />
		<tag k="waterway" v="stream" />
	</node>
	<node id="-86418" lat="61.5458416668" lon="11.0147305485">
		<tag k="name" v="Røstmotjønna" />
		<tag k="natural" v="water" />
		<tag k="ssr:stedsnr" v="358485" />
	</node>
	<node id="-88463" lat="61.3231444401" lon="11.1312944431">
		<tag k="alt_name" v="Hulbekken" />
		<tag k="name" v="Hullbekken" />
		<tag k="ssr:stedsnr" v="919006" />
		<tag k="waterway" v="stream" />
	</node>
	<node id="-88462" lat="61.4845833362" lon="10.9644888828">
		<tag k="alt_name" v="Leråa" />
		<tag k="name" v="Leiråa" />
		<tag k="ssr:stedsnr" v="918518" />
		<tag k="waterway" v="stream" />
	</node>
	<node id="-88460" lat="61.3551055572" lon="10.9260888972">
		<tag k="name" v="Svartåstjernet" />
		<tag k="natural" v="water" />
		<tag k="ssr:stedsnr" v="918463" />
	</node>
	<node id="-88457" lat="61.2556527745" lon="11.1570194357">
		<tag k="name" v="Sløbekken" />
		<tag k="ssr:stedsnr" v="918283" />
		<tag k="waterway" v="stream" />
	</node>
	<node id="-88453" lat="61.4487999985" lon="11.1921583337">
		<tag k="name" v="Sløbekken" />
		<tag k="ssr:stedsnr" v="918130" />
		<tag k="waterway" v="stream" />
	</node>
	<node id="-88452" lat="61.4493666701" lon="11.2025944504">
		<tag k="name" v="Styggbekken" />
		<tag k="ssr:stedsnr" v="918129" />
		<tag k="waterway" v="stream" />
	</node>
	<node id="-86400" lat="61.5454499974" lon="11.052130552">
		<tag k="name" v="Skredderstukåsa" />
		<tag k="place" v="locality" />
		<tag k="ssr:stedsnr" v="343458" />
	</node>
	<node id="-88447" lat="61.4573583332" lon="11.0689750034">
		<tag k="name" v="Grindfossbekken" />
		<tag k="ssr:stedsnr" v="917429" />
		<tag k="waterway" v="stream" />
	</node>
	<node id="-86394" lat="61.3401055584" lon="11.1299999975">
		<tag k="name" v="Librennbekken" />
		<tag k="ssr:stedsnr" v="343087" />
		<tag k="waterway" v="stream" />
	</node>
	<node id="-88440" lat="61.5345694441" lon="11.1299333305">
		<tag k="name" v="Vakkertjønnbekken" />
		<tag k="ssr:stedsnr" v="909635" />
		<tag k="waterway" v="stream" />
	</node>
	<node id="-86391" lat="61.7087111086" lon="10.3187138834">
		<tag k="name" v="Grøtørtjørna" />
		<tag k="natural" v="water" />
		<tag k="ssr:stedsnr" v="314947" />
	</node>
	<node id="-86390" lat="61.7179361069" lon="10.3309305625">
		<tag k="name" v="Steintjørna" />
		<tag k="natural" v="water" />
		<tag k="ssr:stedsnr" v="314943" />
	</node>
	<node id="-88430" lat="61.4872333359" lon="11.0987388939">
		<tag k="name" v="Blisterbekken" />
		<tag k="ssr:stedsnr" v="908537" />
		<tag k="waterway" v="stream" />
	</node>
	<node id="-86381" lat="61.3778305594" lon="11.2379916759">
		<tag k="name" v="Grøna" />
		<tag k="ssr:stedsnr" v="313785" />
		<tag k="waterway" v="river" />
	</node>
	<node id="-86380" lat="61.8681250024" lon="10.2995527814">
		<tag k="alt_name" v="Veslegryta" />
		<tag k="name" v="Veslgryta" />
		<tag k="ssr:stedsnr" v="313584" />
		<tag k="waterway" v="stream" />
	</node>
	<node id="-86379" lat="61.8945638899" lon="10.1575222193">
		<tag k="name" v="Kvernbekken" />
		<tag k="ssr:stedsnr" v="313561" />
		<tag k="waterway" v="stream" />
	</node>
	<node id="-86378" lat="61.8997250038" lon="10.265033325">
		<tag k="name" v="Slåttbekken" />
		<tag k="ssr:stedsnr" v="313559" />
		<tag k="waterway" v="stream" />
	</node>
	<node id="-88425" lat="61.8471499987" lon="10.2504499937">
		<tag k="name" v="Løken" />
		<tag k="natural" v="bay" />
		<tag k="ssr:stedsnr" v="908386" />
	</node>
	<node id="-86373" lat="61.5644711982" lon="11.0969470229">
		<tag k="name" v="Kjemsjøen" />
		<tag k="natural" v="water" />
		<tag k="ssr:stedsnr" v="313440" />
		<tag k="water" v="lake" />
	</node>
	<node id="-88420" lat="61.8750277733" lon="10.2937555615">
		<tag k="name" v="Vintervegstilla" />
		<tag k="natural" v="water" />
		<tag k="ssr:stedsnr" v="907603" />
		<tag k="water" v="lake" />
	</node>
	<node id="-88416" lat="61.7901083351" lon="10.2211861058">
		<tag k="name" v="Tuvtjønna" />
		<tag k="natural" v="water" />
		<tag k="ssr:stedsnr" v="907255" />
	</node>
	<node id="-88413" lat="61.7555527805" lon="10.4702111047">
		<tag k="name" v="Kvanskarbekken" />
		<tag k="ssr:stedsnr" v="906541" />
		<tag k="waterway" v="stream" />
	</node>
	<node id="-86363" lat="61.6988361072" lon="11.0422055576">
		<tag k="name" v="Rokka" />
		<tag k="ssr:stedsnr" v="313202" />
		<tag k="waterway" v="river" />
	</node>
	<node id="-86362" lat="61.7149388903" lon="10.7815805516">
		<tag k="alt_name" v="Atnostjønnene" />
		<tag k="name" v="Atnostjørna" />
		<tag k="natural" v="water" />
		<tag k="ssr:stedsnr" v="313200" />
		<tag k="water" v="lake" />
	</node>
	<node id="-86357" lat="61.5741388913" lon="10.8962499968">
		<tag k="name" v="Trya" />
		<tag k="ssr:stedsnr" v="313130" />
		<tag k="waterway" v="river" />
	</node>
	<node id="-88404" lat="61.6054249963" lon="10.9601611113">
		<tag k="name" v="Revedalsholmen" />
		<tag k="place" v="islet" />
		<tag k="ssr:stedsnr" v="905254" />
	</node>
	<node id="-88403" lat="61.843152779" lon="10.1633972285">
		<tag k="name" v="Midtbrennsætertjønna" />
		<tag k="natural" v="water" />
		<tag k="ssr:stedsnr" v="902918" />
	</node>
	<node id="-86354" lat="61.6647194464" lon="11.0099722174">
		<tag k="name" v="Tresa" />
		<tag k="ssr:stedsnr" v="313056" />
		<tag k="waterway" v="river" />
	</node>
	<node id="-88401" lat="61.9067000046" lon="10.0902583271">
		<tag k="name" v="Hørsgrava" />
		<tag k="natural" v="water" />
		<tag k="ssr:stedsnr" v="902595" />
	</node>
	<node id="-88400" lat="61.5232388874" lon="11.0530777841">
		<tag k="name" v="Tomteøra" />
		<tag k="place" v="islet" />
		<tag k="ssr:stedsnr" v="909794" />
	</node>
	<node id="-88397" lat="61.564125" lon="11.0145638803">
		<tag k="name" v="Oksøya" />
		<tag k="place" v="island" />
		<tag k="ssr:stedsnr" v="870384" />
	</node>
	<node id="-88394" lat="61.6058583294" lon="10.8595888865">
		<tag k="name" v="Krokmyrbekken" />
		<tag k="ssr:stedsnr" v="869284" />
		<tag k="waterway" v="stream" />
	</node>
	<node id="-86345" lat="61.3461361132" lon="10.8953027863">
		<tag k="name" v="Kvannbekken" />
		<tag k="ssr:stedsnr" v="312396" />
		<tag k="waterway" v="stream" />
	</node>
	<node id="-86344" lat="61.3406166665" lon="10.9245249925">
		<tag k="name" v="Kamphavet" />
		<tag k="natural" v="water" />
		<tag k="ssr:stedsnr" v="312394" />
	</node>
	<node id="-86343" lat="61.2968426545" lon="10.9002463879">
		<tag k="alt_name" v="Myklebysjøen, l" />
		<tag k="name" v="Vesle Myklebysjøen" />
		<tag k="natural" v="water" />
		<tag k="ssr:stedsnr" v="312375" />
	</node>
	<node id="-88390" lat="61.7352277807" lon="10.2493305588">
		<tag k="alt_name" v="Skjærbekken" />
		<tag k="name" v="Skjerbekken" />
		<tag k="ssr:stedsnr" v="860963" />
		<tag k="waterway" v="stream" />
	</node>
	<node id="-86339" lat="61.3419777799" lon="11.2055694401">
		<tag k="alt_name" v="Ørrettjernbekken" />
		<tag k="name" v="Ørtjørnbekken" />
		<tag k="ssr:stedsnr" v="312007" />
		<tag k="waterway" v="stream" />
	</node>
	<node id="-86338" lat="61.4684861086" lon="10.9400388921">
		<tag k="name" v="Imsa" />
		<tag k="ssr:stedsnr" v="311491" />
		<tag k="waterway" v="river" />
	</node>
	<node id="-86332" lat="61.3029194399" lon="11.2215194516">
		<tag k="name" v="Halvfarbekken" />
		<tag k="ssr:stedsnr" v="311290" />
		<tag k="waterway" v="stream" />
	</node>
	<node id="-88379" lat="61.5486222241" lon="10.7028027861">
		<tag k="name" v="Kvernskjerbekken" />
		<tag k="ssr:stedsnr" v="860291" />
		<tag k="waterway" v="stream" />
	</node>
	<node id="-88376" lat="61.7473416652" lon="10.3826333271">
		<tag k="name" v="Vesterbekken" />
		<tag k="ssr:stedsnr" v="860212" />
		<tag k="waterway" v="stream" />
	</node>
	<node id="-86327" lat="61.4401527791" lon="11.2309444505">
		<tag k="name" v="Neta" />
		<tag k="ssr:stedsnr" v="311153" />
		<tag k="waterway" v="river" />
	</node>
	<node id="-86346" lat="61.3411174459" lon="10.8530249774">
		<tag k="name" v="Skollsjøen" />
		<tag k="natural" v="water" />
		<tag k="ssr:stedsnr" v="312397" />
		<tag k="water" v="lake" />
	</node>
	<node id="-86318" lat="61.5161694409" lon="11.0626416667">
		<tag k="name" v="Prestøya" />
		<tag k="place" v="island" />
		<tag k="ssr:stedsnr" v="302779" />
	</node>
	<node id="-86316" lat="61.5130583356" lon="11.0581166637">
		<tag k="name" v="Møkkeløya" />
		<tag k="place" v="island" />
		<tag k="ssr:stedsnr" v="302776" />
	</node>
	<node id="-88363" lat="61.6715000025" lon="10.971102785">
		<tag k="alt_name" v="Bjønnskarbekken" />
		<tag k="name" v="Bjørnskardbekken" />
		<tag k="ssr:stedsnr" v="860055" />
		<tag k="waterway" v="stream" />
	</node>
	<node id="-86314" lat="61.7500111096" lon="10.3698333427">
		<tag k="name" v="Klokkarbekken" />
		<tag k="ssr:stedsnr" v="302673" />
		<tag k="waterway" v="stream" />
	</node>
	<node id="-88360" lat="61.6387500012" lon="10.9311361189">
		<tag k="alt_name" v="Gammelstutjønna" />
		<tag k="name" v="Gamlestutjørna" />
		<tag k="natural" v="water" />
		<tag k="ssr:stedsnr" v="860040" />
	</node>
	<node id="-88358" lat="61.6347416627" lon="11.0801944364">
		<tag k="alt_name" v="Bjørnbekken" />
		<tag k="name" v="Bjønnbekken" />
		<tag k="ssr:stedsnr" v="860028" />
		<tag k="waterway" v="stream" />
	</node>
	<node id="-88356" lat="61.9289000035" lon="10.2391722161">
		<tag k="name" v="Skjellåa" />
		<tag k="ssr:stedsnr" v="859599" />
		<tag k="waterway" v="stream" />
	</node>
	<node id="-88355" lat="61.930000003" lon="10.3242250095">
		<tag k="name" v="Grytrotjørn" />
		<tag k="natural" v="water" />
		<tag k="ssr:stedsnr" v="859594" />
	</node>
	<node id="-88354" lat="61.8761666702" lon="10.281955554">
		<tag k="name" v="Mobekken" />
		<tag k="ssr:stedsnr" v="859561" />
		<tag k="waterway" v="stream" />
	</node>
	<node id="-88353" lat="61.8810638891" lon="10.1735916691">
		<tag k="name" v="Atnsjøen" />
		<tag k="natural" v="water" />
		<tag k="ssr:stedsnr" v="859560" />
		<tag k="water" v="lake" />
	</node>
	<node id="-86301" lat="61.87758611" lon="10.2828666668">
		<tag k="name" v="Mobekktjønna" />
		<tag k="natural" v="water" />
		<tag k="ssr:stedsnr" v="300655" />
	</node>
	<node id="-88348" lat="61.8080916672" lon="10.3031972203">
		<tag k="name" v="Steintjørnene" />
		<tag k="natural" v="water" />
		<tag k="ssr:stedsnr" v="859356" />
	</node>
	<node id="-88346" lat="61.8243749998" lon="10.2429638934">
		<tag k="name" v="Rørosbekken" />
		<tag k="ssr:stedsnr" v="859349" />
		<tag k="waterway" v="stream" />
	</node>
	<node id="-88345" lat="61.8286499955" lon="10.22726112">
		<tag k="alt_name" v="Hamntjønna" />
		<tag k="name" v="Hamntjørna" />
		<tag k="natural" v="water" />
		<tag k="ssr:stedsnr" v="859348" />
	</node>
	<node id="-88344" lat="61.5268277771" lon="11.1115500079">
		<tag k="alt_name" v="Nedre Nestjønna" />
		<tag k="name" v="Nestjørna" />
		<tag k="natural" v="water" />
		<tag k="ssr:stedsnr" v="859269" />
	</node>
	<node id="-86404" lat="61.4391722208" lon="10.9116472133">
		<tag k="name" v="Skjærdalsbekken" />
		<tag k="ssr:stedsnr" v="343655" />
		<tag k="waterway" v="stream" />
	</node>
	<node id="-88340" lat="61.5826805512" lon="10.7822166703">
		<tag k="alt_name" v="Rundtjønna" />
		<tag k="name" v="Rundtjørna" />
		<tag k="natural" v="water" />
		<tag k="ssr:stedsnr" v="859106" />
	</node>
	<node id="-88338" lat="61.5856777801" lon="10.7761527703">
		<tag k="name" v="Stubbtjørna" />
		<tag k="natural" v="water" />
		<tag k="ssr:stedsnr" v="859002" />
	</node>
	<node id="-86287" lat="61.4360388848" lon="11.2428833338">
		<tag k="name" v="Svantjønnbekken" />
		<tag k="ssr:stedsnr" v="299302" />
		<tag k="waterway" v="stream" />
	</node>
	<node id="-88329" lat="61.4345083347" lon="11.2467583377">
		<tag k="alt_name" v="Svantjønna" />
		<tag k="name" v="Svanedammen" />
		<tag k="place" v="locality" />
		<tag k="ssr:stedsnr" v="858060" />
	</node>
	<node id="-86481" lat="61.2674305596" lon="11.0989250002">
		<tag k="name" v="Halasjøen" />
		<tag k="natural" v="water" />
		<tag k="ssr:stedsnr" v="372261" />
	</node>
	<node id="-88322" lat="61.2166249968" lon="11.2181333393">
		<tag k="name" v="Mørkesmyrbekken" />
		<tag k="ssr:stedsnr" v="856438" />
		<tag k="waterway" v="stream" />
	</node>
	<node id="-88318" lat="61.9153194463" lon="10.3879722249">
		<tag k="name" v="Storrøstbekken" />
		<tag k="ssr:stedsnr" v="848989" />
		<tag k="waterway" v="stream" />
	</node>
	<node id="-86269" lat="61.4671249966" lon="11.0881777739">
		<tag k="name" v="Gjeddtjønna" />
		<tag k="natural" v="water" />
		<tag k="ssr:stedsnr" v="284336" />
	</node>
	<node id="-86268" lat="61.465363891" lon="11.1358583307">
		<tag k="name" v="Risbudalsbekken" />
		<tag k="ssr:stedsnr" v="284335" />
		<tag k="waterway" v="stream" />
	</node>
	<node id="-86267" lat="61.8433055568" lon="10.3625527807">
		<tag k="name" v="Svarthølen" />
		<tag k="place" v="locality" />
		<tag k="ssr:stedsnr" v="283908" />
	</node>
	<node id="-86264" lat="61.3220805522" lon="11.2624277783">
		<tag k="name" v="Svendstuøya" />
		<tag k="place" v="island" />
		<tag k="ssr:stedsnr" v="283710" />
	</node>
	<node id="-86262" lat="61.3974638885" lon="10.9457583391">
		<tag k="name" v="Bybubekken" />
		<tag k="ssr:stedsnr" v="283676" />
		<tag k="waterway" v="stream" />
	</node>
	<node id="-86259" lat="61.4311499968" lon="10.8051944373">
		<tag k="name" v="Foringsbekken" />
		<tag k="ssr:stedsnr" v="283617" />
		<tag k="waterway" v="stream" />
	</node>
	<node id="-88306" lat="61.7660138873" lon="10.4546138823">
		<tag k="name" v="Gammelsæterbekken" />
		<tag k="ssr:stedsnr" v="846516" />
		<tag k="waterway" v="stream" />
	</node>
	<node id="-88302" lat="61.7505277751" lon="10.8682750039">
		<tag k="name" v="Grensepytten" />
		<tag k="natural" v="water" />
		<tag k="ssr:stedsnr" v="846425" />
		<tag k="water" v="pond" />
	</node>
	<node id="-88295" lat="61.6178111075" lon="11.0680361067">
		<tag k="name" v="Ulvbekken" />
		<tag k="ssr:stedsnr" v="845271" />
		<tag k="waterway" v="stream" />
	</node>
	<node id="-88293" lat="61.6643055544" lon="11.0409555567">
		<tag k="name" v="Klarbekken" />
		<tag k="ssr:stedsnr" v="847845" />
		<tag k="waterway" v="stream" />
	</node>
	<node id="-88288" lat="61.3457388901" lon="11.0035361113">
		<tag k="name" v="Fønebekken" />
		<tag k="ssr:stedsnr" v="831947" />
		<tag k="waterway" v="stream" />
	</node>
	<node id="-88285" lat="61.3994861089" lon="11.2018638815">
		<tag k="name" v="Storfallet" />
		<tag k="natural" v="waterfall" />
		<tag k="ssr:stedsnr" v="831763" />
	</node>
	<node id="-88281" lat="61.4470305588" lon="10.9639944381">
		<tag k="name" v="Tjønnlibekken" />
		<tag k="ssr:stedsnr" v="829891" />
		<tag k="waterway" v="stream" />
	</node>
	<node id="-88279" lat="61.5619194408" lon="10.7409138854">
		<tag k="name" v="Saukjølla" />
		<tag k="natural" v="spring" />
		<tag k="ssr:stedsnr" v="829876" />
	</node>
	<node id="-88278" lat="61.5319749977" lon="11.0431694453">
		<tag k="name" v="Vestgardsjordet" />
		<tag k="place" v="island" />
		<tag k="ssr:stedsnr" v="829823" />
	</node>
	<node id="-88277" lat="61.5282944455" lon="11.0590527736">
		<tag k="name" v="Killingholmen" />
		<tag k="place" v="island" />
		<tag k="ssr:stedsnr" v="829824" />
	</node>
	<node id="-88276" lat="61.2660361153" lon="11.1230777808">
		<tag k="name" v="Svartbekkdammen" />
		<tag k="ssr:stedsnr" v="829792" />
		<tag k="waterway" v="dam" />
	</node>
	<node id="-88275" lat="61.2348638928" lon="11.1923000053">
		<tag k="alt_name" v="Bekkebekken" />
		<tag k="name" v="Bekkbekken" />
		<tag k="ssr:stedsnr" v="829789" />
		<tag k="waterway" v="stream" />
	</node>
	<node id="-88269" lat="61.4011499992" lon="10.898163889">
		<tag k="name" v="Stenbekken" />
		<tag k="ssr:stedsnr" v="829687" />
		<tag k="waterway" v="stream" />
	</node>
	<node id="-88268" lat="61.4092861143" lon="10.9384083289">
		<tag k="name" v="Kølbufallet" />
		<tag k="natural" v="waterfall" />
		<tag k="ssr:stedsnr" v="829589" />
	</node>
	<node id="-88267" lat="61.4496277737" lon="10.8511194445">
		<tag k="name" v="Blæsterbekken" />
		<tag k="ssr:stedsnr" v="829514" />
		<tag k="waterway" v="stream" />
	</node>
	<node id="-88265" lat="61.2156694426" lon="11.2096527773">
		<tag k="name" v="Storbekken" />
		<tag k="ssr:stedsnr" v="829459" />
		<tag k="waterway" v="stream" />
	</node>
	<node id="-88263" lat="61.4406388906" lon="10.8245611087">
		<tag k="name" v="Bubekken" />
		<tag k="ssr:stedsnr" v="829646" />
		<tag k="waterway" v="stream" />
	</node>
	<node id="-88259" lat="61.2456944481" lon="11.2412805585">
		<tag k="name" v="Lågforbekken" />
		<tag k="ssr:stedsnr" v="828483" />
		<tag k="waterway" v="stream" />
	</node>
	<node id="-86274" lat="61.3694055542" lon="11.0113777698">
		<tag k="name" v="Kaldkjelda" />
		<tag k="ssr:stedsnr" v="285927" />
		<tag k="waterway" v="stream" />
	</node>
	<node id="-88253" lat="61.5011166691" lon="11.082911115">
		<tag k="name" v="Svestadbekken" />
		<tag k="ssr:stedsnr" v="808362" />
		<tag k="waterway" v="stream" />
	</node>
	<node id="-88247" lat="61.8271666661" lon="10.5903499965">
		<tag k="name" v="Mesmørbekken" />
		<tag k="ssr:stedsnr" v="800271" />
		<tag k="waterway" v="stream" />
	</node>
	<node id="-88240" lat="61.9019277764" lon="10.3963499906">
		<tag k="name" v="Slåttbekken" />
		<tag k="ssr:stedsnr" v="799490" />
		<tag k="waterway" v="stream" />
	</node>
	<node id="-88228" lat="61.8603555544" lon="10.2771527731">
		<tag k="name" v="Storbekken" />
		<tag k="ssr:stedsnr" v="799389" />
		<tag k="waterway" v="stream" />
	</node>
	<node id="-88226" lat="61.5174277783" lon="11.1395277755">
		<tag k="alt_name" v="Mørbekktjørna" />
		<tag k="name" v="Mørbekktjønna" />
		<tag k="natural" v="water" />
		<tag k="ssr:stedsnr" v="799319" />
	</node>
	<node id="-88225" lat="61.7211583359" lon="10.9150000037">
		<tag k="name" v="Gråhammarbekken" />
		<tag k="ssr:stedsnr" v="799226" />
		<tag k="waterway" v="stream" />
	</node>
	<node id="-88224" lat="61.7244833333" lon="10.7418361039">
		<tag k="alt_name" v="Skjærbekken" />
		<tag k="name" v="Skjerbekken" />
		<tag k="ssr:stedsnr" v="799223" />
		<tag k="waterway" v="stream" />
	</node>
	<node id="-88217" lat="61.7340166625" lon="10.3790638966">
		<tag k="name" v="Tverrdalsbekken" />
		<tag k="ssr:stedsnr" v="799187" />
		<tag k="waterway" v="stream" />
	</node>
	<node id="-88216" lat="61.7318527786" lon="10.4299611144">
		<tag k="alt_name" v="Skyvælktjønna" />
		<tag k="name" v="Skyvælktjernet" />
		<tag k="natural" v="water" />
		<tag k="ssr:stedsnr" v="799186" />
	</node>
	<node id="-88211" lat="61.5695416687" lon="10.9084944506">
		<tag k="name" v="Storfallet" />
		<tag k="natural" v="waterfall" />
		<tag k="ssr:stedsnr" v="799116" />
	</node>
	<node id="-88203" lat="61.6342111093" lon="10.9890000068">
		<tag k="name" v="Treerbekken" />
		<tag k="ssr:stedsnr" v="799033" />
		<tag k="waterway" v="stream" />
	</node>
	<node id="-88201" lat="61.6272916669" lon="10.9417500051">
		<tag k="name" v="Libekken" />
		<tag k="ssr:stedsnr" v="799024" />
		<tag k="waterway" v="stream" />
	</node>
	<node id="-88193" lat="61.3373861121" lon="10.8241138928">
		<tag k="alt_name" v="Skollsjøen, l" />
		<tag k="name" v="Vesle Skollsjøen" />
		<tag k="natural" v="water" />
		<tag k="ssr:stedsnr" v="797389" />
	</node>
	<node id="-88190" lat="61.277308332" lon="10.8651611036">
		<tag k="name" v="Steinstjernet" />
		<tag k="natural" v="water" />
		<tag k="ssr:stedsnr" v="797372" />
	</node>
	<node id="-88187" lat="61.2572333331" lon="11.1821527779">
		<tag k="name" v="Veslehovden" />
		<tag k="natural" v="water" />
		<tag k="ssr:stedsnr" v="797232" />
	</node>
	<node id="-88186" lat="61.4638194468" lon="11.1689444485">
		<tag k="alt_name" v="Sløbekktjønna" />
		<tag k="name" v="Sløbekktjørnet" />
		<tag k="natural" v="water" />
		<tag k="ssr:stedsnr" v="797115" />
	</node>
	<node id="-88185" lat="61.4796249989" lon="11.1475277858">
		<tag k="alt_name" v="Okstjønna" />
		<tag k="name" v="Okstjernet" />
		<tag k="natural" v="water" />
		<tag k="ssr:stedsnr" v="797107" />
	</node>
	<node id="-88184" lat="61.479563891" lon="11.1249111168">
		<tag k="alt_name" v="Lorttjønna" />
		<tag k="name" v="Lorttjernet" />
		<tag k="natural" v="water" />
		<tag k="ssr:stedsnr" v="797105" />
	</node>
	<node id="-88183" lat="61.4275888877" lon="11.1291361075">
		<tag k="name" v="Tronka" />
		<tag k="ssr:stedsnr" v="797079" />
		<tag k="waterway" v="stream" />
	</node>
	<node id="-88178" lat="61.3239638898" lon="11.1909805581">
		<tag k="alt_name" v="Bjønnkjelda" />
		<tag k="name" v="Bjørnkjelda" />
		<tag k="natural" v="water" />
		<tag k="ssr:stedsnr" v="797008" />
	</node>
	<node id="-88164" lat="61.5606138877" lon="11.0223194425">
		<tag k="name" v="Storøya" />
		<tag k="place" v="island" />
		<tag k="ssr:stedsnr" v="787494" />
	</node>
	<node id="-88162" lat="61.7548833337" lon="10.2608000022">
		<tag k="name" v="Bubekken" />
		<tag k="ssr:stedsnr" v="787404" />
		<tag k="waterway" v="stream" />
	</node>
	<node id="-88159" lat="61.8506138902" lon="10.2691611067">
		<tag k="name" v="Nedrekrokotbekken" />
		<tag k="ssr:stedsnr" v="787358" />
		<tag k="waterway" v="stream" />
	</node>
	<node id="-88155" lat="61.498905556" lon="11.1280222163">
		<tag k="name" v="Landtjønna" />
		<tag k="natural" v="water" />
		<tag k="ssr:stedsnr" v="786526" />
	</node>
	<node id="-88154" lat="61.805455554" lon="10.279422219">
		<tag k="name" v="Hamnbekken" />
		<tag k="ssr:stedsnr" v="786381" />
		<tag k="waterway" v="stream" />
	</node>
	<node id="-88153" lat="61.6907444406" lon="10.7729027732">
		<tag k="name" v="Sjøbekken" />
		<tag k="ssr:stedsnr" v="786240" />
		<tag k="waterway" v="stream" />
	</node>
	<node id="-88145" lat="61.8645527802" lon="10.2019388854">
		<tag k="name" v="Stornilsrøstbekken" />
		<tag k="ssr:stedsnr" v="785246" />
		<tag k="waterway" v="stream" />
	</node>
	<node id="-88143" lat="61.4831638924" lon="10.7538555519">
		<tag k="name" v="Djupdalsbekken" />
		<tag k="ssr:stedsnr" v="784678" />
		<tag k="waterway" v="stream" />
	</node>
	<node id="-88142" lat="61.463866664" lon="10.8328361174">
		<tag k="name" v="Halvmilsbekken" />
		<tag k="ssr:stedsnr" v="784675" />
		<tag k="waterway" v="stream" />
	</node>
	<node id="-88141" lat="61.5287194484" lon="10.7337166605">
		<tag k="name" v="Kvitkalen" />
		<tag k="natural" v="waterfall" />
		<tag k="ssr:stedsnr" v="784669" />
	</node>
	<node id="-88137" lat="61.6146763375" lon="10.7570085094">
		<tag k="alt_name" v="Trytjørna" />
		<tag k="name" v="Trytjønna" />
		<tag k="natural" v="water" />
		<tag k="ssr:stedsnr" v="784021" />
		<tag k="water" v="lake" />
	</node>
	<node id="-88132" lat="61.6262166668" lon="10.894483328">
		<tag k="name" v="Sørøya" />
		<tag k="place" v="island" />
		<tag k="ssr:stedsnr" v="783097" />
	</node>
	<node id="-88129" lat="61.6557499962" lon="10.7085500062">
		<tag k="name" v="Løvåsvatnet" />
		<tag k="natural" v="water" />
		<tag k="ssr:stedsnr" v="771847" />
		<tag k="water" v="lake" />
	</node>
	<node id="-88126" lat="61.7876638919" lon="10.5039861102">
		<tag k="name" v="Døløya" />
		<tag k="place" v="island" />
		<tag k="ssr:stedsnr" v="770966" />
	</node>
	<node id="-88124" lat="61.4023722227" lon="10.9630138916">
		<tag k="name" v="Tjønnbutjønna" />
		<tag k="natural" v="water" />
		<tag k="ssr:stedsnr" v="769871" />
	</node>
	<node id="-88121" lat="61.444577776" lon="11.1518527791">
		<tag k="name" v="Holmtjønnbekken" />
		<tag k="ssr:stedsnr" v="769327" />
		<tag k="waterway" v="stream" />
	</node>
	<node id="-88119" lat="61.8450750009" lon="10.3561722161">
		<tag k="name" v="Sæterslona" />
		<tag k="natural" v="water" />
		<tag k="ssr:stedsnr" v="768921" />
		<tag k="water" v="lake" />
	</node>
	<node id="-88117" lat="61.5314944478" lon="11.071436108">
		<tag k="name" v="Bekk-bekken" />
		<tag k="ssr:stedsnr" v="768835" />
		<tag k="waterway" v="stream" />
	</node>
	<node id="-88116" lat="61.4663722214" lon="11.0376194386">
		<tag k="name" v="Søstubekken" />
		<tag k="ssr:stedsnr" v="768804" />
		<tag k="waterway" v="stream" />
	</node>
	<node id="-88112" lat="61.3876333308" lon="10.9080972261">
		<tag k="name" v="Kroka" />
		<tag k="natural" v="water" />
		<tag k="ssr:stedsnr" v="768693" />
		<tag k="water" v="lake" />
	</node>
	<node id="-88111" lat="61.4822972203" lon="10.9263972223">
		<tag k="name" v="Kalrøstbekken" />
		<tag k="ssr:stedsnr" v="768509" />
		<tag k="waterway" v="stream" />
	</node>
	<node id="-88110" lat="61.5532992152" lon="11.0225022779">
		<tag k="name" v="Tremoholmen" />
		<tag k="place" v="island" />
		<tag k="ssr:stedsnr" v="768448" />
	</node>
	<node id="-86365" lat="61.6962666624" lon="10.9868305633">
		<tag k="name" v="Sæterbekken" />
		<tag k="ssr:stedsnr" v="313205" />
		<tag k="waterway" v="stream" />
	</node>
	<node id="-88103" lat="61.266802774" lon="11.1789472188">
		<tag k="name" v="Hembekken" />
		<tag k="ssr:stedsnr" v="767782" />
		<tag k="waterway" v="stream" />
	</node>
	<node id="-88098" lat="61.2002194471" lon="11.1831499967">
		<tag k="name" v="Hemmeloset" />
		<tag k="natural" v="bay" />
		<tag k="ssr:stedsnr" v="749139" />
	</node>
	<node id="-88093" lat="61.7654527747" lon="10.5672277817">
		<tag k="alt_name" v="Syrbekktjønna" />
		<tag k="name" v="Syrbekktjørna" />
		<tag k="natural" v="water" />
		<tag k="ssr:stedsnr" v="739276" />
	</node>
	<node id="-88089" lat="61.7331694462" lon="10.1900000005">
		<tag k="name" v="Mubekken" />
		<tag k="ssr:stedsnr" v="738959" />
		<tag k="waterway" v="stream" />
	</node>
	<node id="-88083" lat="61.9592805514" lon="10.408522228">
		<tag k="name" v="Slettfatbekken" />
		<tag k="ssr:stedsnr" v="738447" />
		<tag k="waterway" v="stream" />
	</node>
	<node id="-88079" lat="61.5103111125" lon="11.0827416623">
		<tag k="name" v="Heimbekken" />
		<tag k="ssr:stedsnr" v="738266" />
		<tag k="waterway" v="stream" />
	</node>
	<node id="-88076" lat="61.6893749958" lon="10.8734027736">
		<tag k="alt_name" v="Karlstadtjørn, nordre;Nordre Karlstadtjønna" />
		<tag k="name" v="Nordre Karlstadtjørn" />
		<tag k="natural" v="water" />
		<tag k="ssr:stedsnr" v="738204" />
	</node>
	<node id="-88068" lat="61.5801027754" lon="10.9644305503">
		<tag k="name" v="Bjørbekken" />
		<tag k="ssr:stedsnr" v="738123" />
		<tag k="waterway" v="stream" />
	</node>
</osm>
