<?xml version="1.0" encoding="UTF-8"?>
<osm generator="osmapis" version="0.6">
	<node id="-787200" lat="69.7275173082" lon="23.4029777928">
		<tag k="name" v="Midtstua" />
		<tag k="ssr:date" v="2019-05-31" />
		<tag k="ssr:gruppe" v="veg" />
		<tag k="ssr:hovedgruppe" v="infrastruktur" />
		<tag k="ssr:stedsnr" v="1056122" />
		<tag k="ssr:type" v="adressenavn" />
	</node>
	<node id="-787199" lat="70.1005979901" lon="23.5578050972">
		<tag k="name" v="Leirbotnvatn Sør" />
		<tag k="ssr:date" v="2019-05-31" />
		<tag k="ssr:gruppe" v="veg" />
		<tag k="ssr:hovedgruppe" v="infrastruktur" />
		<tag k="ssr:stedsnr" v="1056121" />
		<tag k="ssr:type" v="adressenavn" />
	</node>
	<node id="-787198" lat="70.1006333767" lon="23.2866170626">
		<tag k="name" v="Svartskog" />
		<tag k="ssr:date" v="2019-05-31" />
		<tag k="ssr:gruppe" v="veg" />
		<tag k="ssr:hovedgruppe" v="infrastruktur" />
		<tag k="ssr:stedsnr" v="1056120" />
		<tag k="ssr:type" v="adressenavn" />
	</node>
	<node id="-787197" lat="70.0245004" lon="23.3352988762">
		<tag k="name" v="Altenes" />
		<tag k="ssr:date" v="2019-05-31" />
		<tag k="ssr:gruppe" v="veg" />
		<tag k="ssr:hovedgruppe" v="infrastruktur" />
		<tag k="ssr:stedsnr" v="1056119" />
		<tag k="ssr:type" v="adressenavn" />
	</node>
	<node id="-787196" lat="69.9371165224" lon="23.870486075">
		<tag k="name" v="Soupas" />
		<tag k="ssr:date" v="2019-05-31" />
		<tag k="ssr:gruppe" v="veg" />
		<tag k="ssr:hovedgruppe" v="infrastruktur" />
		<tag k="ssr:stedsnr" v="1056118" />
		<tag k="ssr:type" v="adressenavn" />
	</node>
	<node id="-787195" lat="69.8693627875" lon="23.4907633052">
		<tag k="name" v="Bollovannet" />
		<tag k="ssr:date" v="2019-05-31" />
		<tag k="ssr:gruppe" v="veg" />
		<tag k="ssr:hovedgruppe" v="infrastruktur" />
		<tag k="ssr:stedsnr" v="1056117" />
		<tag k="ssr:type" v="adressenavn" />
	</node>
	<node id="-787194" lat="69.8689384708" lon="23.4394224161">
		<tag k="name" v="Gåstjønna" />
		<tag k="ssr:date" v="2019-05-31" />
		<tag k="ssr:gruppe" v="veg" />
		<tag k="ssr:hovedgruppe" v="infrastruktur" />
		<tag k="ssr:stedsnr" v="1056116" />
		<tag k="ssr:type" v="adressenavn" />
	</node>
	<node id="-787193" lat="69.863968837" lon="23.413063761">
		<tag k="name" v="Hestvannet" />
		<tag k="ssr:date" v="2019-05-31" />
		<tag k="ssr:gruppe" v="veg" />
		<tag k="ssr:hovedgruppe" v="infrastruktur" />
		<tag k="ssr:stedsnr" v="1056115" />
		<tag k="ssr:type" v="adressenavn" />
	</node>
	<node id="-787192" lat="69.8705838827" lon="23.4388924365">
		<tag k="name" v="Holmvannet" />
		<tag k="ssr:date" v="2019-05-31" />
		<tag k="ssr:gruppe" v="veg" />
		<tag k="ssr:hovedgruppe" v="infrastruktur" />
		<tag k="ssr:stedsnr" v="1056114" />
		<tag k="ssr:type" v="adressenavn" />
	</node>
	<node id="-787220" lat="70.1147537819" lon="23.5720891954">
		<tag k="name" v="Leirbotnvatn Nord" />
		<tag k="ssr:date" v="2019-05-31" />
		<tag k="ssr:gruppe" v="veg" />
		<tag k="ssr:hovedgruppe" v="infrastruktur" />
		<tag k="ssr:stedsnr" v="1056145" />
		<tag k="ssr:type" v="adressenavn" />
	</node>
	<node id="-787190" lat="69.956810666" lon="23.2310109984">
		<tag k="name" v="Breverudtunet" />
		<tag k="ssr:date" v="2019-05-31" />
		<tag k="ssr:gruppe" v="veg" />
		<tag k="ssr:hovedgruppe" v="infrastruktur" />
		<tag k="ssr:stedsnr" v="1056106" />
		<tag k="ssr:type" v="adressenavn" />
	</node>
	<node id="-787189" lat="70.2370485559" lon="23.4358600953">
		<tag k="name" v="Nævervik" />
		<tag k="ssr:date" v="2019-05-31" />
		<tag k="ssr:gruppe" v="veg" />
		<tag k="ssr:hovedgruppe" v="infrastruktur" />
		<tag k="ssr:stedsnr" v="1056093" />
		<tag k="ssr:type" v="adressenavn" />
	</node>
	<node id="-789236" lat="70.329494445" lon="22.9561943727">
		<tag k="name" v="Mjånes" />
		<tag k="ssr:date" v="2016-05-10" />
		<tag k="ssr:gruppe" v="navigasjon" />
		<tag k="ssr:hovedgruppe" v="infrastruktur" />
		<tag k="ssr:stedsnr" v="565880" />
		<tag k="ssr:type" v="fyrlykt" />
	</node>
	<node id="-787187" lat="70.2430545276" lon="23.5097750407">
		<tag k="name" v="Korsfjordbotn" />
		<tag k="ssr:date" v="2019-05-31" />
		<tag k="ssr:gruppe" v="veg" />
		<tag k="ssr:hovedgruppe" v="infrastruktur" />
		<tag k="ssr:stedsnr" v="1056091" />
		<tag k="ssr:type" v="adressenavn" />
	</node>
	<node id="-787186" lat="70.2473572102" lon="23.4501359651">
		<tag k="name" v="Mikkelsnes" />
		<tag k="ssr:date" v="2019-05-31" />
		<tag k="ssr:gruppe" v="veg" />
		<tag k="ssr:hovedgruppe" v="infrastruktur" />
		<tag k="ssr:stedsnr" v="1056090" />
		<tag k="ssr:type" v="adressenavn" />
	</node>
	<node id="-787184" lat="69.9668822944" lon="23.2738316658">
		<tag k="name" v="Sentrumsparken" />
		<tag k="ssr:date" v="2019-05-31" />
		<tag k="ssr:gruppe" v="veg" />
		<tag k="ssr:hovedgruppe" v="infrastruktur" />
		<tag k="ssr:stedsnr" v="1055999" />
		<tag k="ssr:type" v="adressenavn" />
	</node>
	<node id="-789103" lat="70.2161861127" lon="23.1915249195">
		<tag k="name" v="Storekorsnes molo" />
		<tag k="ssr:date" v="2016-05-10" />
		<tag k="ssr:gruppe" v="navigasjon" />
		<tag k="ssr:hovedgruppe" v="infrastruktur" />
		<tag k="ssr:stedsnr" v="541584" />
		<tag k="ssr:type" v="lanterne" />
	</node>
	<node id="-787114" lat="69.9712988011" lon="22.3103790942">
		<tag k="name" v="Hoallojávri" />
		<tag k="ssr:date" v="2019-05-31" />
		<tag k="ssr:gruppe" v="veg" />
		<tag k="ssr:hovedgruppe" v="infrastruktur" />
		<tag k="ssr:stedsnr" v="1055035" />
		<tag k="ssr:type" v="adressenavn" />
	</node>
	<node id="-787175" lat="70.0332890558" lon="23.5230499152">
		<tag k="name" v="Bjørnfjelli" />
		<tag k="ssr:date" v="2019-05-31" />
		<tag k="ssr:gruppe" v="veg" />
		<tag k="ssr:hovedgruppe" v="infrastruktur" />
		<tag k="ssr:stedsnr" v="1055854" />
		<tag k="ssr:type" v="adressenavn" />
	</node>
	<node id="-790887" lat="68.4849327361" lon="16.2297866207">
		<tag k="fixme" v="multiple name tags, choose one and add the other to alt_name" />
		<tag k="name" v="Nord-Noreg;Nord-Norge" />
		<tag k="ssr:date" v="2017-05-18" />
		<tag k="ssr:gruppe" v="administrativeIndelinger" />
		<tag k="ssr:hovedgruppe" v="offentligAdministrasjon" />
		<tag k="ssr:stedsnr" v="976106" />
		<tag k="ssr:type" v="annenAdministrativInndeling" />
	</node>
	<node id="-789094" lat="70.1126861112" lon="23.3687749136">
		<tag k="name" v="Landgudnes" />
		<tag k="ssr:date" v="2016-05-10" />
		<tag k="ssr:gruppe" v="navigasjon" />
		<tag k="ssr:hovedgruppe" v="infrastruktur" />
		<tag k="ssr:stedsnr" v="530992" />
		<tag k="ssr:type" v="fyrlykt" />
	</node>
	<node id="-787173" lat="69.9528232483" lon="23.4225680191">
		<tag k="name" v="Borrasflaten" />
		<tag k="ssr:date" v="2019-05-31" />
		<tag k="ssr:gruppe" v="veg" />
		<tag k="ssr:hovedgruppe" v="infrastruktur" />
		<tag k="ssr:stedsnr" v="1055850" />
		<tag k="ssr:type" v="adressenavn" />
	</node>
	<node id="-787172" lat="69.9659921282" lon="23.3119231792">
		<tag k="name" v="Trollbærveien" />
		<tag k="ssr:date" v="2019-05-31" />
		<tag k="ssr:gruppe" v="veg" />
		<tag k="ssr:hovedgruppe" v="infrastruktur" />
		<tag k="ssr:stedsnr" v="1055849" />
		<tag k="ssr:type" v="adressenavn" />
	</node>
	<node id="-787174" lat="69.9637307868" lon="23.3895262322">
		<tag k="name" v="Tømmerstien" />
		<tag k="ssr:date" v="2019-05-31" />
		<tag k="ssr:gruppe" v="veg" />
		<tag k="ssr:hovedgruppe" v="infrastruktur" />
		<tag k="ssr:stedsnr" v="1055853" />
		<tag k="ssr:type" v="adressenavn" />
	</node>
	<node id="-788063" lat="70.3314861134" lon="23.4466971406">
		<tag k="name" v="Vargsundet" />
		<tag k="old_name" v="Vargnes Lykt" />
		<tag k="ssr:date" v="2016-05-10" />
		<tag k="ssr:gruppe" v="navigasjon" />
		<tag k="ssr:hovedgruppe" v="infrastruktur" />
		<tag k="ssr:stedsnr" v="151418" />
		<tag k="ssr:type" v="fyrlykt" />
	</node>
	<node id="-790106" lat="70.2469083395" lon="22.7426777153">
		<tag k="name" v="Stjernsund" />
		<tag k="ssr:date" v="2016-05-11" />
		<tag k="ssr:gruppe" v="navigasjon" />
		<tag k="ssr:hovedgruppe" v="infrastruktur" />
		<tag k="ssr:stedsnr" v="758354" />
		<tag k="ssr:type" v="fyrlykt" />
	</node>
	<node id="-787215" lat="69.8601818071" lon="22.7377673529">
		<tag k="name" v="Oaggojávri" />
		<tag k="ssr:date" v="2019-05-31" />
		<tag k="ssr:gruppe" v="veg" />
		<tag k="ssr:hovedgruppe" v="infrastruktur" />
		<tag k="ssr:stedsnr" v="1056140" />
		<tag k="ssr:type" v="adressenavn" />
	</node>
	<node id="-787214" lat="69.9236869202" lon="23.4933392489">
		<tag k="name" v="Øvre Mannsverk" />
		<tag k="ssr:date" v="2019-05-31" />
		<tag k="ssr:gruppe" v="veg" />
		<tag k="ssr:hovedgruppe" v="infrastruktur" />
		<tag k="ssr:stedsnr" v="1056139" />
		<tag k="ssr:type" v="adressenavn" />
	</node>
	<node id="-787171" lat="69.9655348252" lon="23.3132142234">
		<tag k="name" v="Melbærveien" />
		<tag k="ssr:date" v="2019-05-31" />
		<tag k="ssr:gruppe" v="veg" />
		<tag k="ssr:hovedgruppe" v="infrastruktur" />
		<tag k="ssr:stedsnr" v="1055848" />
		<tag k="ssr:type" v="adressenavn" />
	</node>
	<node id="-787789" lat="70.0894111119" lon="22.7429249447">
		<tag k="name" v="Eidsnes" />
		<tag k="ssr:date" v="2016-05-10" />
		<tag k="ssr:gruppe" v="navigasjon" />
		<tag k="ssr:hovedgruppe" v="infrastruktur" />
		<tag k="ssr:stedsnr" v="91186" />
		<tag k="ssr:type" v="fyrlykt" />
	</node>
	<node id="-787191" lat="69.8693073315" lon="23.502286905">
		<tag k="name" v="Hyttebyen" />
		<tag k="ssr:date" v="2019-05-31" />
		<tag k="ssr:gruppe" v="veg" />
		<tag k="ssr:hovedgruppe" v="infrastruktur" />
		<tag k="ssr:stedsnr" v="1056113" />
		<tag k="ssr:type" v="adressenavn" />
	</node>
	<node id="-787143" lat="69.9767499983" lon="23.2963304744">
		<tag k="name" v="Alta kommune" />
		<tag k="ssr:date" v="2016-05-10" />
		<tag k="ssr:gruppe" v="administrativeIndelinger" />
		<tag k="ssr:hovedgruppe" v="offentligAdministrasjon" />
		<tag k="ssr:stedsnr" v="389799" />
		<tag k="ssr:type" v="kommune" />
	</node>
	<node id="-787204" lat="69.8062207626" lon="23.0659826807">
		<tag k="name" v="Tverrvannan" />
		<tag k="ssr:date" v="2019-05-31" />
		<tag k="ssr:gruppe" v="veg" />
		<tag k="ssr:hovedgruppe" v="infrastruktur" />
		<tag k="ssr:stedsnr" v="1056127" />
		<tag k="ssr:type" v="adressenavn" />
	</node>
	<node id="-787762" lat="69.9669055602" lon="23.3119665712">
		<tag k="name" v="Holstbakkveien" />
		<tag k="ssr:date" v="2019-05-31" />
		<tag k="ssr:gruppe" v="veg" />
		<tag k="ssr:hovedgruppe" v="infrastruktur" />
		<tag k="ssr:stedsnr" v="87148" />
		<tag k="ssr:type" v="adressenavn" />
	</node>
	<node id="-787201" lat="69.8692700688" lon="23.44819803">
		<tag k="name" v="Lorttjønna" />
		<tag k="ssr:date" v="2019-05-31" />
		<tag k="ssr:gruppe" v="veg" />
		<tag k="ssr:hovedgruppe" v="infrastruktur" />
		<tag k="ssr:stedsnr" v="1056123" />
		<tag k="ssr:type" v="adressenavn" />
	</node>
	<node id="-787117" lat="69.9465513772" lon="23.2482696633">
		<tag k="name" v="Thomashøyden" />
		<tag k="ssr:date" v="2019-05-31" />
		<tag k="ssr:gruppe" v="veg" />
		<tag k="ssr:hovedgruppe" v="infrastruktur" />
		<tag k="ssr:stedsnr" v="1055054" />
		<tag k="ssr:type" v="adressenavn" />
	</node>
	<node id="-787116" lat="69.9661012048" lon="23.2426427819">
		<tag k="name" v="Bossekopfjæra" />
		<tag k="ssr:date" v="2019-05-31" />
		<tag k="ssr:gruppe" v="veg" />
		<tag k="ssr:hovedgruppe" v="infrastruktur" />
		<tag k="ssr:stedsnr" v="1055053" />
		<tag k="ssr:type" v="adressenavn" />
	</node>
	<node id="-787115" lat="69.9634439024" lon="23.399683185">
		<tag k="name" v="Elvekanten" />
		<tag k="ssr:date" v="2019-05-31" />
		<tag k="ssr:gruppe" v="veg" />
		<tag k="ssr:hovedgruppe" v="infrastruktur" />
		<tag k="ssr:stedsnr" v="1055052" />
		<tag k="ssr:type" v="adressenavn" />
	</node>
	<node id="-787188" lat="70.0527629449" lon="23.5608667282">
		<tag k="name" v="Sarves" />
		<tag k="ssr:date" v="2019-05-31" />
		<tag k="ssr:gruppe" v="veg" />
		<tag k="ssr:hovedgruppe" v="infrastruktur" />
		<tag k="ssr:stedsnr" v="1056092" />
		<tag k="ssr:type" v="adressenavn" />
	</node>
	<node id="-786915" lat="70.1373694481" lon="23.012747156">
		<tag k="name" v="Langnesholmen" />
		<tag k="ssr:date" v="2016-05-10" />
		<tag k="ssr:gruppe" v="navigasjon" />
		<tag k="ssr:hovedgruppe" v="infrastruktur" />
		<tag k="ssr:stedsnr" v="333484" />
		<tag k="ssr:type" v="fyrlykt" />
	</node>
	<node id="-787227" lat="69.8894060609" lon="23.0213187025">
		<tag k="name" v="Mathisskogen" />
		<tag k="ssr:date" v="2019-05-31" />
		<tag k="ssr:gruppe" v="veg" />
		<tag k="ssr:hovedgruppe" v="infrastruktur" />
		<tag k="ssr:stedsnr" v="1056154" />
		<tag k="ssr:type" v="adressenavn" />
	</node>
	<node id="-787226" lat="69.9409197413" lon="22.4146282859">
		<tag k="name" v="Paulvannet" />
		<tag k="ssr:date" v="2019-05-31" />
		<tag k="ssr:gruppe" v="veg" />
		<tag k="ssr:hovedgruppe" v="infrastruktur" />
		<tag k="ssr:stedsnr" v="1056153" />
		<tag k="ssr:type" v="adressenavn" />
	</node>
	<node id="-787225" lat="69.9401108467" lon="22.4295166457">
		<tag k="name" v="Storsteinvannet" />
		<tag k="ssr:date" v="2019-05-31" />
		<tag k="ssr:gruppe" v="veg" />
		<tag k="ssr:hovedgruppe" v="infrastruktur" />
		<tag k="ssr:stedsnr" v="1056152" />
		<tag k="ssr:type" v="adressenavn" />
	</node>
	<node id="-789656" lat="70.0556555578" lon="22.3955193803">
		<tag k="name" v="Vaddekeip" />
		<tag k="ssr:date" v="2016-05-11" />
		<tag k="ssr:gruppe" v="navigasjon" />
		<tag k="ssr:hovedgruppe" v="infrastruktur" />
		<tag k="ssr:stedsnr" v="686515" />
		<tag k="ssr:type" v="fyrlykt" />
	</node>
	<node id="-787223" lat="69.9550806165" lon="22.4208945096">
		<tag k="name" v="Storveitvannet" />
		<tag k="ssr:date" v="2019-05-31" />
		<tag k="ssr:gruppe" v="veg" />
		<tag k="ssr:hovedgruppe" v="infrastruktur" />
		<tag k="ssr:stedsnr" v="1056149" />
		<tag k="ssr:type" v="adressenavn" />
	</node>
	<node id="-787222" lat="70.1741279827" lon="22.6594321972">
		<tag k="name" v="Livllevákkegierratjávri" />
		<tag k="ssr:date" v="2019-05-31" />
		<tag k="ssr:gruppe" v="veg" />
		<tag k="ssr:hovedgruppe" v="infrastruktur" />
		<tag k="ssr:stedsnr" v="1056148" />
		<tag k="ssr:type" v="adressenavn" />
	</node>
	<node id="-787221" lat="70.105956755" lon="23.3684831273">
		<tag k="name" v="Arnebyvann" />
		<tag k="ssr:date" v="2019-05-31" />
		<tag k="ssr:gruppe" v="veg" />
		<tag k="ssr:hovedgruppe" v="infrastruktur" />
		<tag k="ssr:stedsnr" v="1056147" />
		<tag k="ssr:type" v="adressenavn" />
	</node>
	<node id="-788628" lat="70.2155416706" lon="23.1812582641">
		<tag k="loc_name" v="Løkta" />
		<tag k="name" v="Korsnes" />
		<tag k="ssr:date" v="2016-05-10" />
		<tag k="ssr:gruppe" v="navigasjon" />
		<tag k="ssr:hovedgruppe" v="infrastruktur" />
		<tag k="ssr:stedsnr" v="444553" />
		<tag k="ssr:type" v="fyrlykt" />
	</node>
	<node id="-787219" lat="70.0357582906" lon="22.8937037192">
		<tag k="name" v="Timetoppen" />
		<tag k="ssr:date" v="2019-05-31" />
		<tag k="ssr:gruppe" v="veg" />
		<tag k="ssr:hovedgruppe" v="infrastruktur" />
		<tag k="ssr:stedsnr" v="1056144" />
		<tag k="ssr:type" v="adressenavn" />
	</node>
	<node id="-787218" lat="70.0235489969" lon="22.8240431508">
		<tag k="name" v="Storelvvatna" />
		<tag k="ssr:date" v="2019-05-31" />
		<tag k="ssr:gruppe" v="veg" />
		<tag k="ssr:hovedgruppe" v="infrastruktur" />
		<tag k="ssr:stedsnr" v="1056143" />
		<tag k="ssr:type" v="adressenavn" />
	</node>
	<node id="-787217" lat="69.9634939065" lon="22.6993545698">
		<tag k="name" v="Vassbotndalen" />
		<tag k="ssr:date" v="2019-05-31" />
		<tag k="ssr:gruppe" v="veg" />
		<tag k="ssr:hovedgruppe" v="infrastruktur" />
		<tag k="ssr:stedsnr" v="1056142" />
		<tag k="ssr:type" v="adressenavn" />
	</node>
	<node id="-787216" lat="69.8665456152" lon="22.9209133544">
		<tag k="name" v="Luovosvárri" />
		<tag k="ssr:date" v="2019-05-31" />
		<tag k="ssr:gruppe" v="veg" />
		<tag k="ssr:hovedgruppe" v="infrastruktur" />
		<tag k="ssr:stedsnr" v="1056141" />
		<tag k="ssr:type" v="adressenavn" />
	</node>
	<node id="-787224" lat="69.9247050273" lon="22.5219457164">
		<tag k="name" v="Villreinvannet" />
		<tag k="ssr:date" v="2019-05-31" />
		<tag k="ssr:gruppe" v="veg" />
		<tag k="ssr:hovedgruppe" v="infrastruktur" />
		<tag k="ssr:stedsnr" v="1056150" />
		<tag k="ssr:type" v="adressenavn" />
	</node>
	<node id="-790414" lat="70.0324361092" lon="23.0748415947">
		<tag k="name" v="Krokneset" />
		<tag k="ssr:date" v="2016-05-11" />
		<tag k="ssr:gruppe" v="navigasjon" />
		<tag k="ssr:hovedgruppe" v="infrastruktur" />
		<tag k="ssr:stedsnr" v="847385" />
		<tag k="ssr:type" v="lanterne" />
	</node>
	<node id="-787213" lat="70.1057678635" lon="22.6376982636">
		<tag k="name" v="Koven" />
		<tag k="ssr:date" v="2019-05-31" />
		<tag k="ssr:gruppe" v="veg" />
		<tag k="ssr:hovedgruppe" v="infrastruktur" />
		<tag k="ssr:stedsnr" v="1056138" />
		<tag k="ssr:type" v="adressenavn" />
	</node>
	<node id="-787212" lat="69.9025138613" lon="23.4667989123">
		<tag k="name" v="Storvannet" />
		<tag k="ssr:date" v="2019-05-31" />
		<tag k="ssr:gruppe" v="veg" />
		<tag k="ssr:hovedgruppe" v="infrastruktur" />
		<tag k="ssr:stedsnr" v="1056137" />
		<tag k="ssr:type" v="adressenavn" />
	</node>
	<node id="-787211" lat="69.8090271349" lon="23.8191092703">
		<tag k="name" v="Jotka Nord" />
		<tag k="ssr:date" v="2019-05-31" />
		<tag k="ssr:gruppe" v="veg" />
		<tag k="ssr:hovedgruppe" v="infrastruktur" />
		<tag k="ssr:stedsnr" v="1056136" />
		<tag k="ssr:type" v="adressenavn" />
	</node>
	<node id="-787210" lat="69.8618017473" lon="23.5896304542">
		<tag k="name" v="Gamasvannet" />
		<tag k="ssr:date" v="2019-05-31" />
		<tag k="ssr:gruppe" v="veg" />
		<tag k="ssr:hovedgruppe" v="infrastruktur" />
		<tag k="ssr:stedsnr" v="1056135" />
		<tag k="ssr:type" v="adressenavn" />
	</node>
	<node id="-787209" lat="69.8742995651" lon="23.4014805116">
		<tag k="name" v="Kuvannet" />
		<tag k="ssr:date" v="2019-05-31" />
		<tag k="ssr:gruppe" v="veg" />
		<tag k="ssr:hovedgruppe" v="infrastruktur" />
		<tag k="ssr:stedsnr" v="1056133" />
		<tag k="ssr:type" v="adressenavn" />
	</node>
	<node id="-787208" lat="69.7586926676" lon="23.519212337">
		<tag k="name" v="Ordnohašjávri" />
		<tag k="ssr:date" v="2019-05-31" />
		<tag k="ssr:gruppe" v="veg" />
		<tag k="ssr:hovedgruppe" v="infrastruktur" />
		<tag k="ssr:stedsnr" v="1056131" />
		<tag k="ssr:type" v="adressenavn" />
	</node>
	<node id="-787207" lat="69.8171950369" lon="23.6213144631">
		<tag k="name" v="Sandia" />
		<tag k="ssr:date" v="2019-05-31" />
		<tag k="ssr:gruppe" v="veg" />
		<tag k="ssr:hovedgruppe" v="infrastruktur" />
		<tag k="ssr:stedsnr" v="1056130" />
		<tag k="ssr:type" v="adressenavn" />
	</node>
	<node id="-787206" lat="70.2029079695" lon="22.5787797294">
		<tag k="name" v="Indre Lokkarfjorden" />
		<tag k="ssr:date" v="2019-05-31" />
		<tag k="ssr:gruppe" v="veg" />
		<tag k="ssr:hovedgruppe" v="infrastruktur" />
		<tag k="ssr:stedsnr" v="1056129" />
		<tag k="ssr:type" v="adressenavn" />
	</node>
	<node id="-787205" lat="69.8401995223" lon="23.0433085168">
		<tag k="name" v="Lille Holmvannet" />
		<tag k="ssr:date" v="2019-05-31" />
		<tag k="ssr:gruppe" v="veg" />
		<tag k="ssr:hovedgruppe" v="infrastruktur" />
		<tag k="ssr:stedsnr" v="1056128" />
		<tag k="ssr:type" v="adressenavn" />
	</node>
	<node id="-787332" lat="70.2469777821" lon="23.4220304785">
		<tag k="name" v="Goppi" />
		<tag k="ssr:date" v="2016-05-11" />
		<tag k="ssr:gruppe" v="navigasjon" />
		<tag k="ssr:hovedgruppe" v="infrastruktur" />
		<tag k="ssr:stedsnr" v="895914" />
		<tag k="ssr:type" v="fyrlykt" />
	</node>
	<node id="-787203" lat="70.0282899359" lon="23.4108477944">
		<tag k="name" v="Turelv" />
		<tag k="ssr:date" v="2019-05-31" />
		<tag k="ssr:gruppe" v="veg" />
		<tag k="ssr:hovedgruppe" v="infrastruktur" />
		<tag k="ssr:stedsnr" v="1056126" />
		<tag k="ssr:type" v="adressenavn" />
	</node>
	<node id="-787202" lat="69.8709025117" lon="23.4897027926">
		<tag k="name" v="Langvannet" />
		<tag k="ssr:date" v="2019-05-31" />
		<tag k="ssr:gruppe" v="veg" />
		<tag k="ssr:hovedgruppe" v="infrastruktur" />
		<tag k="ssr:stedsnr" v="1056125" />
		<tag k="ssr:type" v="adressenavn" />
	</node>
	<node id="-790785" lat="69.992611115" lon="23.3006249282">
		<tag k="name" v="Amtmannsnes" />
		<tag k="old_name" v="Amtmannsnes lykt" />
		<tag k="ssr:date" v="2016-05-11" />
		<tag k="ssr:gruppe" v="navigasjon" />
		<tag k="ssr:hovedgruppe" v="infrastruktur" />
		<tag k="ssr:stedsnr" v="936210" />
		<tag k="ssr:type" v="fyrlykt" />
	</node>
</osm>
