<?xml version="1.0" encoding="UTF-8"?>
<osm generator="osmapis" version="0.6">
	<node id="-130560" lat="65.9554416679" lon="12.5400611099">
		<tag k="name" v="Øvre Markvoll" />
		<tag k="place" v="farm" />
		<tag k="ssr:stedsnr" v="155252" />
	</node>
	<node id="-130559" lat="65.771091665" lon="12.451497227">
		<tag k="name" v="Hagen" />
		<tag k="place" v="farm" />
		<tag k="ssr:stedsnr" v="154598" />
	</node>
	<node id="-130558" lat="65.9024055525" lon="12.4912972299">
		<tag k="amenity" v="school" />
		<tag k="name" v="Alstahaug planteskole" />
		<tag k="ssr:stedsnr" v="154579" />
	</node>
	<node id="-130045" lat="65.9775521041" lon="12.5623082798">
		<tag k="alt_name" v="Breidmo" />
		<tag k="fixme" v="consider place=hamlet" />
		<tag k="name" v="Breimo" />
		<tag k="place" v="farm" />
		<tag k="ssr:stedsnr" v="683252" />
	</node>
	<node id="-130044" lat="65.9821166675" lon="12.5035861126">
		<tag k="name" v="Tingvoll" />
		<tag k="place" v="farm" />
		<tag k="ssr:stedsnr" v="683236" />
	</node>
	<node id="-130041" lat="65.7893638921" lon="12.519644435">
		<tag k="name" v="Sørstua" />
		<tag k="place" v="farm" />
		<tag k="ssr:stedsnr" v="683041" />
	</node>
	<node id="-130782" lat="65.9926829528" lon="12.5565168486">
		<tag k="fixme" v="consider place=hamlet" />
		<tag k="name" v="Kleiva" />
		<tag k="place" v="farm" />
		<tag k="ssr:stedsnr" v="424462" />
	</node>
	<node id="-130548" lat="65.8992277798" lon="12.3980944358">
		<tag k="name" v="Solvang" />
		<tag k="place" v="farm" />
		<tag k="ssr:stedsnr" v="154076" />
	</node>
	<node id="-130046" lat="65.9639722197" lon="12.5229277807">
		<tag k="name" v="Dalheim" />
		<tag k="place" v="farm" />
		<tag k="ssr:stedsnr" v="683273" />
	</node>
	<node id="-130546" lat="65.7774861122" lon="12.4784861102">
		<tag k="name" v="Nyrud" />
		<tag k="place" v="farm" />
		<tag k="ssr:stedsnr" v="153908" />
	</node>
	<node id="-130545" lat="65.7636666625" lon="12.4061972116">
		<tag k="name" v="Kræken" />
		<tag k="place" v="farm" />
		<tag k="ssr:stedsnr" v="153566" />
	</node>
	<node id="-130031" lat="65.9578281384" lon="12.5263149727">
		<tag k="fixme" v="consider place=hamlet" />
		<tag k="name" v="Dalen" />
		<tag k="place" v="farm" />
		<tag k="ssr:stedsnr" v="682318" />
	</node>
	<node id="-130130" lat="65.9933777785" lon="12.5274749979">
		<tag k="name" v="Oterholt" />
		<tag k="place" v="farm" />
		<tag k="ssr:stedsnr" v="683606" />
	</node>
	<node id="-130538" lat="66.0210888914" lon="12.6444250056">
		<tag k="building" v="industrial" />
		<tag k="industrial" v="factory" />
		<tag k="name" v="Høvding Skipsopphugning" />
		<tag k="ssr:stedsnr" v="141575" />
	</node>
	<node id="-130025" lat="65.8347958331" lon="12.5763090398">
		<tag k="fixme" v="consider place=hamlet" />
		<tag k="name" v="Tangen" />
		<tag k="place" v="farm" />
		<tag k="ssr:stedsnr" v="501459" />
	</node>
	<node id="-130024" lat="65.9782166662" lon="12.5238361196">
		<tag k="name" v="Krokan" />
		<tag k="place" v="farm" />
		<tag k="ssr:stedsnr" v="501259" />
	</node>
	<node id="-130023" lat="65.9763055511" lon="12.5281111211">
		<tag k="name" v="Storåker" />
		<tag k="place" v="farm" />
		<tag k="ssr:stedsnr" v="501254" />
	</node>
	<node id="-131046" lat="65.8692277779" lon="12.475763887">
		<tag k="name" v="Gården" />
		<tag k="place" v="farm" />
		<tag k="ssr:stedsnr" v="814338" />
	</node>
	<node id="-131045" lat="65.8316694484" lon="12.409249999">
		<tag k="name" v="Korsneset" />
		<tag k="place" v="farm" />
		<tag k="ssr:stedsnr" v="813651" />
	</node>
	<node id="-130531" lat="65.991261109" lon="12.5485333259">
		<tag k="name" v="Kleiva" />
		<tag k="place" v="farm" />
		<tag k="ssr:stedsnr" v="136646" />
	</node>
	<node id="-130018" lat="65.8569361104" lon="12.2497972217">
		<tag k="name" v="Blomsøyvalen" />
		<tag k="place" v="farm" />
		<tag k="ssr:stedsnr" v="500480" />
	</node>
	<node id="-130015" lat="65.8725166651" lon="12.4714499938">
		<tag k="name" v="Nyrud" />
		<tag k="place" v="farm" />
		<tag k="ssr:stedsnr" v="500458" />
	</node>
	<node id="-130012" lat="65.8484472252" lon="12.2450500077">
		<tag k="name" v="Juvika" />
		<tag k="place" v="farm" />
		<tag k="ssr:stedsnr" v="483616" />
	</node>
	<node id="-130048" lat="65.9004777764" lon="12.4827543856">
		<tag k="name" v="Skei" />
		<tag k="place" v="farm" />
		<tag k="ssr:stedsnr" v="683341" />
	</node>
	<node id="-131151" lat="65.8432412521" lon="12.2393333752">
		<tag k="fixme" v="consider place=hamlet" />
		<tag k="name" v="Hestøya" />
		<tag k="place" v="farm" />
		<tag k="ssr:stedsnr" v="1072416" />
	</node>
	<node id="-130007" lat="65.8449111136" lon="12.3406555593">
		<tag k="fixme" v="consider place=hamlet" />
		<tag k="name" v="Rosøya" />
		<tag k="place" v="farm" />
		<tag k="ssr:stedsnr" v="465254" />
	</node>
	<node id="-130006" lat="65.9167500023" lon="12.2849388937">
		<tag k="name" v="Åkerøya" />
		<tag k="place" v="farm" />
		<tag k="ssr:stedsnr" v="464214" />
	</node>
	<node id="-131029" lat="65.8470583323" lon="12.2436666717">
		<tag k="name" v="Vika" />
		<tag k="place" v="farm" />
		<tag k="ssr:stedsnr" v="804451" />
	</node>
	<node id="-131028" lat="65.9891527773" lon="12.5696472315">
		<tag k="name" v="Solvoll" />
		<tag k="place" v="farm" />
		<tag k="ssr:stedsnr" v="804656" />
	</node>
	<node id="-131027" lat="65.9368630878" lon="12.4657205075">
		<tag k="name" v="Lund" />
		<tag k="place" v="hamlet" />
		<tag k="ssr:stedsnr" v="804343" />
	</node>
	<node id="-130514" lat="65.9357916689" lon="12.3475166654">
		<tag k="name" v="Vollan" />
		<tag k="place" v="hamlet" />
		<tag k="ssr:stedsnr" v="136347" />
	</node>
	<node id="-130512" lat="65.786808331" lon="12.5215083282">
		<tag k="name" v="Runeberg" />
		<tag k="place" v="farm" />
		<tag k="ssr:stedsnr" v="136068" />
	</node>
	<node id="-130511" lat="65.7800805524" lon="12.480541657">
		<tag k="name" v="Nergården" />
		<tag k="place" v="farm" />
		<tag k="ssr:stedsnr" v="136056" />
	</node>
	<node id="-130509" lat="65.8026266238" lon="12.5411621796">
		<tag k="fixme" v="consider place=hamlet" />
		<tag k="name" v="Skavollen" />
		<tag k="place" v="farm" />
		<tag k="ssr:stedsnr" v="136046" />
	</node>
	<node id="-130507" lat="65.8565416664" lon="12.2457388947">
		<tag k="name" v="Skillevika" />
		<tag k="place" v="farm" />
		<tag k="ssr:stedsnr" v="119615" />
	</node>
	<node id="-130506" lat="65.8403638846" lon="12.2374583372">
		<tag k="name" v="Hestøygården" />
		<tag k="place" v="farm" />
		<tag k="ssr:stedsnr" v="119611" />
	</node>
	<node id="-130504" lat="65.8609861075" lon="12.1747333254">
		<tag k="name" v="Skålværet" />
		<tag k="place" v="farm" />
		<tag k="ssr:stedsnr" v="117065" />
	</node>
	<node id="-130502" lat="65.7880777738" lon="12.4908638845">
		<tag k="name" v="Nord-Rota" />
		<tag k="place" v="farm" />
		<tag k="ssr:stedsnr" v="102196" />
	</node>
	<node id="-129953" lat="65.9957888924" lon="12.564730558">
		<tag k="name" v="Myrvang" />
		<tag k="place" v="farm" />
		<tag k="ssr:stedsnr" v="501601" />
	</node>
	<node id="-130500" lat="65.9300277765" lon="12.3037166596">
		<tag k="name" v="Buøya" />
		<tag k="place" v="farm" />
		<tag k="ssr:stedsnr" v="101233" />
	</node>
	<node id="-131011" lat="65.7863472256" lon="12.45380277">
		<tag k="name" v="Solvoll" />
		<tag k="place" v="farm" />
		<tag k="ssr:stedsnr" v="804076" />
	</node>
	<node id="-130498" lat="65.8431888909" lon="12.3432222332">
		<tag k="fixme" v="consider place=hamlet" />
		<tag k="name" v="Rosøya" />
		<tag k="place" v="farm" />
		<tag k="ssr:stedsnr" v="100191" />
	</node>
	<node id="-131009" lat="65.7698583378" lon="12.4437222167">
		<tag k="name" v="Øvergården" />
		<tag k="place" v="farm" />
		<tag k="ssr:stedsnr" v="804063" />
	</node>
	<node id="-129984" lat="65.8368888916" lon="12.464338879">
		<tag k="name" v="Kjerringstrand" />
		<tag k="place" v="farm" />
		<tag k="ssr:stedsnr" v="519180" />
	</node>
	<node id="-130492" lat="65.9311750007" lon="12.4665055494">
		<tag k="name" v="Elvebakk" />
		<tag k="place" v="farm" />
		<tag k="ssr:stedsnr" v="94685" />
	</node>
	<node id="-131003" lat="65.8241749993" lon="12.4248277751">
		<tag k="building" v="industrial" />
		<tag k="name" v="Kjevlet og bakstbordet" />
		<tag k="ssr:stedsnr" v="785457" />
	</node>
	<node id="-131002" lat="66.0152138907" lon="12.6219388878">
		<tag k="building" v="industrial" />
		<tag k="industrial" v="factory" />
		<tag k="name" v="Sandnessjøen Meieri" />
		<tag k="ssr:stedsnr" v="785174" />
	</node>
	<node id="-131000" lat="65.871066666" lon="12.6169361085">
		<tag k="name" v="Fagerbakken" />
		<tag k="place" v="farm" />
		<tag k="ssr:stedsnr" v="785112" />
	</node>
	<node id="-130999" lat="65.8640222191" lon="12.6137083425">
		<tag k="amenity" v="school" />
		<tag k="name" v="Bærøy skole" />
		<tag k="ssr:stedsnr" v="785109" />
	</node>
	<node id="-130997" lat="65.8586527803" lon="12.61304445">
		<tag k="name" v="Haugestad" />
		<tag k="place" v="farm" />
		<tag k="ssr:stedsnr" v="785092" />
	</node>
	<node id="-129970" lat="65.8604027744" lon="12.4302972142">
		<tag k="name" v="Sundet" />
		<tag k="place" v="farm" />
		<tag k="ssr:stedsnr" v="511294" />
	</node>
	<node id="-129969" lat="65.8446138876" lon="12.2610888822">
		<tag k="name" v="Åkerøya" />
		<tag k="place" v="farm" />
		<tag k="ssr:stedsnr" v="404204" />
	</node>
	<node id="-130991" lat="65.8422916672" lon="12.2602416617">
		<tag k="name" v="Åkerøya" />
		<tag k="place" v="farm" />
		<tag k="ssr:stedsnr" v="768215" />
	</node>
	<node id="-130990" lat="65.8433361146" lon="12.2608750002">
		<tag k="name" v="Søråkerøya" />
		<tag k="place" v="farm" />
		<tag k="ssr:stedsnr" v="768205" />
	</node>
	<node id="-129965" lat="65.7976416699" lon="12.5396916675">
		<tag k="name" v="Tro" />
		<tag k="place" v="hamlet" />
		<tag k="ssr:stedsnr" v="299078" />
	</node>
	<node id="-130476" lat="65.7852416687" lon="12.4513777672">
		<tag k="name" v="Myrvoll" />
		<tag k="place" v="farm" />
		<tag k="ssr:stedsnr" v="93836" />
	</node>
	<node id="-129963" lat="65.7954575516" lon="12.5435658981">
		<tag k="fixme" v="consider place=hamlet" />
		<tag k="name" v="Halsen" />
		<tag k="place" v="farm" />
		<tag k="ssr:stedsnr" v="299074" />
	</node>
	<node id="-130473" lat="65.9192472194" lon="12.4257361213">
		<tag k="name" v="Jektvika" />
		<tag k="place" v="farm" />
		<tag k="ssr:stedsnr" v="91177" />
	</node>
	<node id="-129959" lat="65.9283000021" lon="12.3364611112">
		<tag k="name" v="Altra" />
		<tag k="place" v="farm" />
		<tag k="ssr:stedsnr" v="394120" />
	</node>
	<node id="-130982" lat="65.9635611111" lon="12.5143388919">
		<tag k="name" v="Bekkevoll" />
		<tag k="place" v="farm" />
		<tag k="ssr:stedsnr" v="762240" />
	</node>
	<node id="-129957" lat="65.9241638884" lon="12.4364027842">
		<tag k="name" v="Søvikmoen" />
		<tag k="place" v="quarter" />
		<tag k="ssr:stedsnr" v="519683" />
	</node>
	<node id="-129956" lat="65.8929017568" lon="12.3977495329">
		<tag k="fixme" v="consider place=hamlet" />
		<tag k="name" v="Alstahaug" />
		<tag k="place" v="farm" />
		<tag k="ssr:stedsnr" v="299012" />
	</node>
	<node id="-130466" lat="66.0089222267" lon="12.6505277684">
		<tag k="name" v="Siva" />
		<tag k="place" v="quarter" />
		<tag k="ssr:stedsnr" v="76884" />
	</node>
	<node id="-130977" lat="65.7919583308" lon="12.4535694526">
		<tag k="name" v="Fagermoen" />
		<tag k="place" v="farm" />
		<tag k="ssr:stedsnr" v="760895" />
	</node>
	<node id="-130971" lat="66.0145999999" lon="12.6258555459">
		<tag k="fixme" v="consider place=hamlet" />
		<tag k="name" v="Sandnes" />
		<tag k="place" v="farm" />
		<tag k="ssr:stedsnr" v="753362" />
	</node>
	<node id="-130970" lat="66.0173219011" lon="12.6078281047">
		<tag k="fixme" v="consider place=hamlet" />
		<tag k="name" v="Stamnes" />
		<tag k="place" v="farm" />
		<tag k="ssr:stedsnr" v="753360" />
	</node>
	<node id="-129943" lat="65.8036861133" lon="12.5498583351">
		<tag k="name" v="Nerhalsen" />
		<tag k="place" v="farm" />
		<tag k="ssr:stedsnr" v="501014" />
	</node>
	<node id="-130454" lat="65.871350004" lon="12.4780999902">
		<tag k="name" v="Lunden" />
		<tag k="place" v="farm" />
		<tag k="ssr:stedsnr" v="76411" />
	</node>
	<node id="-129941" lat="65.7906888917" lon="12.4540972164">
		<tag k="name" v="Elvebakken" />
		<tag k="place" v="farm" />
		<tag k="ssr:stedsnr" v="501002" />
	</node>
	<node id="-129937" lat="65.8897916657" lon="12.4085305638">
		<tag k="name" v="Brauten" />
		<tag k="place" v="farm" />
		<tag k="ssr:stedsnr" v="500442" />
	</node>
	<node id="-130167" lat="65.7830361154" lon="12.4857055627">
		<tag k="name" v="Osberg" />
		<tag k="place" v="farm" />
		<tag k="ssr:stedsnr" v="743074" />
	</node>
	<node id="-130957" lat="65.8672638887" lon="12.4671388891">
		<tag k="alt_name" v="Trøa" />
		<tag k="name" v="Trøen" />
		<tag k="place" v="farm" />
		<tag k="ssr:stedsnr" v="743432" />
	</node>
	<node id="-130956" lat="65.8648527764" lon="12.4467583266">
		<tag k="name" v="Skjelosen" />
		<tag k="place" v="farm" />
		<tag k="ssr:stedsnr" v="743430" />
	</node>
	<node id="-130443" lat="65.949044446" lon="12.502711115">
		<tag k="alt_name" v="Elvemoen" />
		<tag k="name" v="Elvemo" />
		<tag k="place" v="farm" />
		<tag k="ssr:stedsnr" v="76313" />
	</node>
	<node id="-130442" lat="65.9333999995" lon="12.3529166615">
		<tag k="fixme" v="consider place=hamlet" />
		<tag k="name" v="Austbø" />
		<tag k="place" v="village" />
		<tag k="ssr:stedsnr" v="76311" />
	</node>
	<node id="-130441" lat="65.9642765881" lon="12.4816473993">
		<tag k="fixme" v="consider place=hamlet" />
		<tag k="name" v="Stokka" />
		<tag k="place" v="farm" />
		<tag k="ssr:stedsnr" v="76281" />
	</node>
	<node id="-130440" lat="65.966408332" lon="12.5036111138">
		<tag k="name" v="Hellbekken" />
		<tag k="place" v="farm" />
		<tag k="ssr:stedsnr" v="76280" />
	</node>
	<node id="-129927" lat="65.9942250019" lon="12.5876749975">
		<tag k="name" v="Nordheim" />
		<tag k="place" v="farm" />
		<tag k="ssr:stedsnr" v="379616" />
	</node>
	<node id="-129925" lat="65.9321916698" lon="12.357411103">
		<tag k="name" v="Austbøgården" />
		<tag k="place" v="farm" />
		<tag k="ssr:stedsnr" v="360423" />
	</node>
	<node id="-130436" lat="65.7855916673" lon="12.477611116">
		<tag k="name" v="Folla" />
		<tag k="place" v="farm" />
		<tag k="ssr:stedsnr" v="76073" />
	</node>
	<node id="-130435" lat="65.7904138927" lon="12.52552501">
		<tag k="fixme" v="consider place=hamlet" />
		<tag k="name" v="Tro" />
		<tag k="place" v="farm" />
		<tag k="ssr:stedsnr" v="76068" />
	</node>
	<node id="-130434" lat="65.7677027747" lon="12.4433249996">
		<tag k="name" v="Knausen" />
		<tag k="place" v="farm" />
		<tag k="ssr:stedsnr" v="76059" />
	</node>
	<node id="-130945" lat="65.9175305585" lon="12.2743055631">
		<tag k="name" v="Buøya" />
		<tag k="place" v="farm" />
		<tag k="ssr:stedsnr" v="646197" />
	</node>
	<node id="-130432" lat="65.7747055591" lon="12.4731250087">
		<tag k="alt_name" v="Stranda" />
		<tag k="name" v="Strand" />
		<tag k="place" v="farm" />
		<tag k="ssr:stedsnr" v="76047" />
	</node>
	<node id="-130430" lat="65.8055206335" lon="12.5480572262">
		<tag k="fixme" v="consider place=hamlet" />
		<tag k="name" v="Åsen" />
		<tag k="place" v="farm" />
		<tag k="ssr:stedsnr" v="76033" />
	</node>
	<node id="-130941" lat="65.9348555595" lon="12.4627916599">
		<tag k="name" v="Solheim" />
		<tag k="place" v="farm" />
		<tag k="ssr:stedsnr" v="640708" />
	</node>
	<node id="-130939" lat="65.9308249967" lon="12.4631250026">
		<tag k="name" v="Nerneset" />
		<tag k="place" v="farm" />
		<tag k="ssr:stedsnr" v="640676" />
	</node>
	<node id="-130829" lat="65.8664222236" lon="12.4590861101">
		<tag k="name" v="Myren" />
		<tag k="place" v="farm" />
		<tag k="ssr:stedsnr" v="571279" />
	</node>
	<node id="-130936" lat="65.7712972237" lon="12.4555027757">
		<tag k="name" v="Einmoen" />
		<tag k="place" v="farm" />
		<tag k="ssr:stedsnr" v="640534" />
	</node>
	<node id="-130423" lat="65.9309861117" lon="12.3406694413">
		<tag k="name" v="Hytten" />
		<tag k="place" v="isolated_dwelling" />
		<tag k="ssr:stedsnr" v="57440" />
	</node>
	<node id="-130934" lat="65.9810777808" lon="12.5981055455">
		<tag k="name" v="Nermoen" />
		<tag k="place" v="farm" />
		<tag k="ssr:stedsnr" v="640486" />
	</node>
	<node id="-130622" lat="65.9560972268" lon="12.5120694347">
		<tag k="alt_name" v="Grønåsen" />
		<tag k="name" v="Grønnåsen" />
		<tag k="place" v="farm" />
		<tag k="ssr:stedsnr" v="318289" />
	</node>
	<node id="-130929" lat="65.9947055553" lon="12.5810305498">
		<tag k="name" v="Nordbø" />
		<tag k="place" v="farm" />
		<tag k="ssr:stedsnr" v="640393" />
	</node>
	<node id="-130266" lat="65.7844361114" lon="12.4791277694">
		<tag k="name" v="Moen" />
		<tag k="place" v="farm" />
		<tag k="ssr:stedsnr" v="936340" />
	</node>
	<node id="-130412" lat="65.9410191409" lon="12.4670579777">
		<tag k="fixme" v="consider place=hamlet" />
		<tag k="name" v="Gårdvik" />
		<tag k="place" v="farm" />
		<tag k="ssr:stedsnr" v="34679" />
	</node>
	<node id="-129942" lat="65.7926055552" lon="12.4575499905">
		<tag k="name" v="Ervika" />
		<tag k="place" v="farm" />
		<tag k="ssr:stedsnr" v="501003" />
	</node>
	<node id="-129896" lat="65.9462555574" lon="12.4610111073">
		<tag k="name" v="Steirostranda" />
		<tag k="place" v="quarter" />
		<tag k="ssr:stedsnr" v="459590" />
	</node>
	<node id="-130917" lat="66.0235166633" lon="12.6660722136">
		<tag k="name" v="Volden" />
		<tag k="place" v="farm" />
		<tag k="ssr:stedsnr" v="637753" />
	</node>
	<node id="-130916" lat="66.0181472202" lon="12.6159277876">
		<tag k="name" v="Sandnessjøen" />
		<tag k="place" v="town" />
		<tag k="ssr:stedsnr" v="622889" />
	</node>
	<node id="-130912" lat="65.9912416692" lon="12.5534722268">
		<tag k="name" v="Kleiva" />
		<tag k="old_name" v="Kliva" />
		<tag k="place" v="farm" />
		<tag k="ssr:stedsnr" v="622619" />
	</node>
	<node id="-130909" lat="65.8693972224" lon="12.6181222179">
		<tag k="name" v="Bærøyvågen" />
		<tag k="place" v="farm" />
		<tag k="ssr:stedsnr" v="622402" />
	</node>
	<node id="-130908" lat="65.8732249968" lon="12.4806305649">
		<tag k="name" v="Skogland" />
		<tag k="place" v="farm" />
		<tag k="ssr:stedsnr" v="622384" />
	</node>
	<node id="-130907" lat="65.8753805573" lon="12.4994249935">
		<tag k="alt_name" v="Marka" />
		<tag k="name" v="Marken" />
		<tag k="place" v="farm" />
		<tag k="ssr:stedsnr" v="622383" />
	</node>
	<node id="-130906" lat="65.8816305582" lon="12.2805555459">
		<tag k="name" v="Ryken" />
		<tag k="place" v="farm" />
		<tag k="ssr:stedsnr" v="622366" />
	</node>
	<node id="-130905" lat="65.9023361092" lon="12.5125833379">
		<tag k="name" v="Fjellmo" />
		<tag k="place" v="farm" />
		<tag k="ssr:stedsnr" v="622354" />
	</node>
	<node id="-129880" lat="65.8505861153" lon="12.4962027884">
		<tag k="name" v="Fanavika" />
		<tag k="place" v="isolated_dwelling" />
		<tag k="ssr:stedsnr" v="458566" />
	</node>
	<node id="-131129" lat="65.8048166635" lon="12.5420277786">
		<tag k="name" v="Nyheim" />
		<tag k="place" v="farm" />
		<tag k="ssr:stedsnr" v="967079" />
	</node>
	<node id="-130899" lat="65.9815055527" lon="12.5755617087">
		<tag k="fixme" v="consider place=hamlet" />
		<tag k="name" v="Sørra" />
		<tag k="place" v="farm" />
		<tag k="ssr:stedsnr" v="622263" />
	</node>
	<node id="-130386" lat="65.770602779" lon="12.4081416634">
		<tag k="name" v="Haugen" />
		<tag k="place" v="farm" />
		<tag k="ssr:stedsnr" v="32527" />
	</node>
	<node id="-130019" lat="65.9243303539" lon="12.4459873981">
		<tag k="fixme" v="consider place=hamlet" />
		<tag k="name" v="Søvika" />
		<tag k="place" v="farm" />
		<tag k="ssr:stedsnr" v="501304" />
	</node>
	<node id="-130896" lat="65.7822662527" lon="12.4774265602">
		<tag k="fixme" v="consider place=hamlet" />
		<tag k="name" v="Nordbostad" />
		<tag k="place" v="farm" />
		<tag k="ssr:stedsnr" v="622053" />
	</node>
	<node id="-130894" lat="65.7684583295" lon="12.4498710503">
		<tag k="fixme" v="consider place=hamlet" />
		<tag k="name" v="Mykkelbostad" />
		<tag k="place" v="farm" />
		<tag k="ssr:stedsnr" v="622044" />
	</node>
	<node id="-129958" lat="65.7966722212" lon="12.2239444459">
		<tag k="fixme" v="consider place=hamlet" />
		<tag k="name" v="Skotsvær" />
		<tag k="place" v="farm" />
		<tag k="ssr:stedsnr" v="389355" />
	</node>
	<node id="-129867" lat="65.8549611145" lon="12.4944777879">
		<tag k="name" v="Svinnes" />
		<tag k="place" v="farm" />
		<tag k="ssr:stedsnr" v="258422" />
	</node>
	<node id="-130375" lat="65.9972638917" lon="12.5417527757">
		<tag k="name" v="Engan" />
		<tag k="place" v="farm" />
		<tag k="ssr:stedsnr" v="15680" />
	</node>
	<node id="-129702" lat="65.9028805596" lon="12.5167499995">
		<tag k="name" v="Jamtneset" />
		<tag k="place" v="farm" />
		<tag k="ssr:stedsnr" v="87747" />
	</node>
	<node id="-130370" lat="65.8552444467" lon="12.2421083357">
		<tag k="name" v="Tverrvika" />
		<tag k="place" v="farm" />
		<tag k="ssr:stedsnr" v="15460" />
	</node>
	<node id="-130881" lat="65.9247361138" lon="12.3492472157">
		<tag k="name" v="Solvoll" />
		<tag k="place" v="farm" />
		<tag k="ssr:stedsnr" v="621338" />
	</node>
	<node id="-130357" lat="65.9267638855" lon="12.463405555">
		<tag k="name" v="Søvikstranda" />
		<tag k="place" v="farm" />
		<tag k="ssr:stedsnr" v="15361" />
	</node>
	<node id="-130876" lat="65.8223833357" lon="12.5755361051">
		<tag k="name" v="Valen" />
		<tag k="place" v="farm" />
		<tag k="ssr:stedsnr" v="622491" />
	</node>
	<node id="-130363" lat="65.984446202" lon="12.5165379531">
		<tag k="fixme" v="consider place=hamlet" />
		<tag k="name" v="Novika" />
		<tag k="old_name" v="Nordvika" />
		<tag k="place" v="farm" />
		<tag k="ssr:stedsnr" v="15277" />
	</node>
	<node id="-130873" lat="65.8358750019" lon="12.4501194532">
		<tag k="name" v="Valan" />
		<tag k="place" v="farm" />
		<tag k="ssr:stedsnr" v="622466" />
	</node>
	<node id="-130953" lat="65.7703881185" lon="12.4128271053">
		<tag k="fixme" v="consider place=hamlet" />
		<tag k="name" v="Brastad" />
		<tag k="place" v="farm" />
		<tag k="ssr:stedsnr" v="743051" />
	</node>
	<node id="-130356" lat="65.9335460751" lon="12.4822058104">
		<tag k="fixme" v="multiple name tags, choose one and add the other to alt_name; consider place=hamlet" />
		<tag k="name" v="Helkna;Herten" />
		<tag k="place" v="farm" />
		<tag k="ssr:stedsnr" v="15360" />
	</node>
	<node id="-130867" lat="66.0194250002" lon="12.6208388803">
		<tag k="leisure" v="park" />
		<tag k="name" v="Bjøruparken" />
		<tag k="ssr:stedsnr" v="604697" />
	</node>
	<node id="-130866" lat="65.8838499991" lon="12.2777527708">
		<tag k="name" v="Fagervollen" />
		<tag k="place" v="farm" />
		<tag k="ssr:stedsnr" v="603464" />
	</node>
	<node id="-130355" lat="65.959530559" lon="12.5175861159">
		<tag k="alt_name" v="Dalsmoen" />
		<tag k="name" v="Dalmoen" />
		<tag k="place" v="farm" />
		<tag k="ssr:stedsnr" v="15319" />
	</node>
	<node id="-129928" lat="65.9952555578" lon="12.5775638826">
		<tag k="alt_name" v="Nymoen" />
		<tag k="name" v="Nymo" />
		<tag k="place" v="farm" />
		<tag k="ssr:stedsnr" v="379623" />
	</node>
	<node id="-130350" lat="65.9819448443" lon="12.607947625">
		<tag k="fixme" v="consider place=hamlet" />
		<tag k="name" v="Botn" />
		<tag k="place" v="farm" />
		<tag k="ssr:stedsnr" v="1072395" />
	</node>
	<node id="-130861" lat="65.7972333352" lon="12.5294083285">
		<tag k="name" v="Trosjøen" />
		<tag k="place" v="farm" />
		<tag k="ssr:stedsnr" v="602083" />
	</node>
	<node id="-130349" lat="65.9308286268" lon="12.3546526136">
		<tag k="fixme" v="consider place=hamlet" />
		<tag k="name" v="Austbø" />
		<tag k="place" v="farm" />
		<tag k="ssr:stedsnr" v="1072364" />
	</node>
	<node id="-130353" lat="65.8010666665" lon="12.5466583394">
		<tag k="fixme" v="consider place=hamlet" />
		<tag k="name" v="Myra" />
		<tag k="place" v="farm" />
		<tag k="ssr:stedsnr" v="15026" />
	</node>
	<node id="-130852" lat="65.9188777793" lon="12.4207861143">
		<tag k="amenity" v="nursing_home" />
		<tag k="name" v="Aldersheimen" />
		<tag k="ssr:stedsnr" v="580627" />
	</node>
	<node id="-130110" lat="65.9426" lon="12.4669222225">
		<tag k="name" v="Øvregården" />
		<tag k="place" v="farm" />
		<tag k="ssr:stedsnr" v="876768" />
	</node>
	<node id="-129873" lat="65.9502767253" lon="12.4620121924">
		<tag k="fixme" v="consider place=hamlet" />
		<tag k="name" v="Steiro" />
		<tag k="place" v="farm" />
		<tag k="ssr:stedsnr" v="267652" />
	</node>
	<node id="-130010" lat="66.0226722182" lon="12.6664333377">
		<tag k="name" v="Horvneset" />
		<tag k="place" v="farm" />
		<tag k="ssr:stedsnr" v="482162" />
	</node>
	<node id="-130840" lat="65.8273138863" lon="12.4419277765">
		<tag k="name" v="Hamn gård" />
		<tag k="place" v="farm" />
		<tag k="ssr:stedsnr" v="579169" />
	</node>
	<node id="-130862" lat="65.8601222202" lon="12.6087861195">
		<tag k="name" v="Vika" />
		<tag k="place" v="farm" />
		<tag k="ssr:stedsnr" v="602092" />
	</node>
	<node id="-130831" lat="65.9012166702" lon="12.5210416562">
		<tag k="name" v="Mølnåsneset" />
		<tag k="place" v="farm" />
		<tag k="ssr:stedsnr" v="572760" />
	</node>
	<node id="-129806" lat="65.7702055543" lon="12.452638899">
		<tag k="name" v="Falkhaugen" />
		<tag k="place" v="farm" />
		<tag k="ssr:stedsnr" v="440064" />
	</node>
	<node id="-130317" lat="65.9936388924" lon="12.5708472137">
		<tag k="name" v="Vintervold" />
		<tag k="place" v="farm" />
		<tag k="ssr:stedsnr" v="883505" />
	</node>
	<node id="-130828" lat="66.0007000039" lon="12.5482222312">
		<tag k="name" v="Urvika" />
		<tag k="place" v="farm" />
		<tag k="ssr:stedsnr" v="570638" />
	</node>
	<node id="-130826" lat="65.9242444451" lon="12.4357194392">
		<tag k="name" v="Kirkegjoten" />
		<tag k="place" v="farm" />
		<tag k="ssr:stedsnr" v="570603" />
	</node>
	<node id="-130825" lat="65.898619441" lon="12.4029472109">
		<tag k="name" v="Kvernbakken" />
		<tag k="place" v="farm" />
		<tag k="ssr:stedsnr" v="570596" />
	</node>
	<node id="-130311" lat="65.9945750033" lon="12.6183305598">
		<tag k="name" v="Strandåsen" />
		<tag k="place" v="farm" />
		<tag k="ssr:stedsnr" v="875264" />
	</node>
	<node id="-130310" lat="65.9007055524" lon="12.3973555659">
		<tag k="fixme" v="multiple name tags, choose one and add the other to alt_name" />
		<tag k="name" v="Belsvågmoen;Moen" />
		<tag k="place" v="farm" />
		<tag k="ssr:stedsnr" v="865403" />
	</node>
	<node id="-130109" lat="65.8387083333" lon="12.258627768">
		<tag k="fixme" v="consider place=hamlet" />
		<tag k="name" v="Åkerøya" />
		<tag k="place" v="farm" />
		<tag k="ssr:stedsnr" v="646256" />
	</node>
	<node id="-130815" lat="65.8141298876" lon="12.5426346444">
		<tag k="fixme" v="consider place=hamlet" />
		<tag k="name" v="Rødøya" />
		<tag k="place" v="farm" />
		<tag k="ssr:stedsnr" v="561494" />
	</node>
	<node id="-129789" lat="65.9387666714" lon="12.461494436">
		<tag k="name" v="Gårdhaugen" />
		<tag k="place" v="farm" />
		<tag k="ssr:stedsnr" v="209717" />
	</node>
	<node id="-129786" lat="65.8992527812" lon="12.451505563">
		<tag k="name" v="Einangen" />
		<tag k="place" v="farm" />
		<tag k="ssr:stedsnr" v="198329" />
	</node>
	<node id="-130297" lat="65.7730055588" lon="12.4538944504">
		<tag k="name" v="Alfheim" />
		<tag k="place" v="farm" />
		<tag k="ssr:stedsnr" v="944544" />
	</node>
	<node id="-130296" lat="65.9795277744" lon="12.5932527688">
		<tag k="name" v="Sørmoen" />
		<tag k="place" v="farm" />
		<tag k="ssr:stedsnr" v="944511" />
	</node>
	<node id="-130942" lat="65.9512833332" lon="12.5009611216">
		<tag k="name" v="Porsengåsen" />
		<tag k="place" v="farm" />
		<tag k="ssr:stedsnr" v="640988" />
	</node>
	<node id="-129778" lat="65.8225805554" lon="12.4283694457">
		<tag k="name" v="Tjøtta" />
		<tag k="place" v="village" />
		<tag k="ssr:stedsnr" v="197516" />
	</node>
	<node id="-130003" lat="65.8504555566" lon="12.2408027805">
		<tag k="name" v="Åkervik" />
		<tag k="place" v="farm" />
		<tag k="ssr:stedsnr" v="665641" />
	</node>
	<node id="-130797" lat="65.7616944418" lon="12.4049388972">
		<tag k="alt_name" v="Bergmo" />
		<tag k="name" v="Bergsmo" />
		<tag k="place" v="farm" />
		<tag k="ssr:stedsnr" v="561087" />
	</node>
	<node id="-129767" lat="65.7944827216" lon="12.5361346665">
		<tag k="fixme" v="consider place=hamlet" />
		<tag k="name" v="Remman" />
		<tag k="place" v="farm" />
		<tag k="ssr:stedsnr" v="197014" />
	</node>
	<node id="-130789" lat="65.8383111124" lon="12.1552472278">
		<tag k="name" v="Langøya" />
		<tag k="old_name" v="Skålværet;Skålvær" />
		<tag k="place" v="farm" />
		<tag k="ssr:stedsnr" v="542066" />
	</node>
	<node id="-130125" lat="65.7586413177" lon="12.4059762062">
		<tag k="alt_name" v="Mindenes" />
		<tag k="fixme" v="consider place=hamlet" />
		<tag k="name" v="Mindnes" />
		<tag k="place" v="farm" />
		<tag k="ssr:stedsnr" v="683074" />
	</node>
	<node id="-129784" lat="65.9065499981" lon="12.4124500002">
		<tag k="name" v="Lia" />
		<tag k="place" v="farm" />
		<tag k="ssr:stedsnr" v="198315" />
	</node>
	<node id="-130784" lat="65.9510083353" lon="12.485811107">
		<tag k="name" v="Nymoen" />
		<tag k="place" v="farm" />
		<tag k="ssr:stedsnr" v="519990" />
	</node>
	<node id="-130270" lat="65.9404611118" lon="12.4662972326">
		<tag k="name" v="Skaret" />
		<tag k="place" v="farm" />
		<tag k="ssr:stedsnr" v="937785" />
	</node>
	<node id="-130210" lat="65.8856305536" lon="12.2849194453">
		<tag k="name" v="Korsvegen" />
		<tag k="place" v="farm" />
		<tag k="ssr:stedsnr" v="925412" />
	</node>
	<node id="-129755" lat="65.8234472218" lon="12.4290833383">
		<tag k="building" v="industrial" />
		<tag k="name" v="Bakstemnet" />
		<tag k="ssr:stedsnr" v="154205" />
	</node>
	<node id="-130778" lat="65.8065500032" lon="12.563916669">
		<tag k="name" v="Heggåsen" />
		<tag k="place" v="farm" />
		<tag k="ssr:stedsnr" v="421085" />
	</node>
	<node id="-130776" lat="65.8681531397" lon="12.6029821431">
		<tag k="fixme" v="consider place=hamlet" />
		<tag k="name" v="Haltøya" />
		<tag k="place" v="farm" />
		<tag k="ssr:stedsnr" v="421061" />
	</node>
	<node id="-130263" lat="65.9311388883" lon="12.3694138944">
		<tag k="fixme" v="consider place=hamlet" />
		<tag k="name" v="Sørøya" />
		<tag k="place" v="farm" />
		<tag k="ssr:stedsnr" v="935660" />
	</node>
	<node id="-130261" lat="65.936411115" lon="12.4678250034">
		<tag k="name" v="Engevollan" />
		<tag k="place" v="farm" />
		<tag k="ssr:stedsnr" v="823671" />
	</node>
	<node id="-130260" lat="65.8208194461" lon="12.421955557">
		<tag k="name" v="Prestegården" />
		<tag k="place" v="farm" />
		<tag k="ssr:stedsnr" v="822454" />
	</node>
	<node id="-129805" lat="65.777911109" lon="12.4742361085">
		<tag k="alt_name" v="Brekka" />
		<tag k="name" v="Brækken" />
		<tag k="place" v="farm" />
		<tag k="ssr:stedsnr" v="440052" />
	</node>
	<node id="-129988" lat="65.9735111073" lon="12.5678861021">
		<tag k="name" v="Øvre-Breimo" />
		<tag k="place" v="farm" />
		<tag k="ssr:stedsnr" v="519482" />
	</node>
	<node id="-130767" lat="65.9489111099" lon="12.4974777754">
		<tag k="name" v="Djupdal" />
		<tag k="place" v="farm" />
		<tag k="ssr:stedsnr" v="398985" />
	</node>
	<node id="-130253" lat="66.0237750015" lon="12.6755444537">
		<tag k="name" v="Osodden" />
		<tag k="place" v="farm" />
		<tag k="ssr:stedsnr" v="819770" />
	</node>
	<node id="-129739" lat="65.8684805565" lon="12.6007916613">
		<tag k="alt_name" v="Haltøya" />
		<tag k="name" v="Haltøygården" />
		<tag k="place" v="farm" />
		<tag k="ssr:stedsnr" v="268232" />
	</node>
	<node id="-129737" lat="65.9500972261" lon="12.4924972204">
		<tag k="name" v="Åsheim" />
		<tag k="place" v="farm" />
		<tag k="ssr:stedsnr" v="136338" />
	</node>
	<node id="-130760" lat="65.9818555527" lon="12.5959861122">
		<tag k="name" v="Gården" />
		<tag k="place" v="farm" />
		<tag k="ssr:stedsnr" v="398404" />
	</node>
	<node id="-130759" lat="65.981624996" lon="12.6010055639">
		<tag k="name" v="Trøa" />
		<tag k="place" v="farm" />
		<tag k="ssr:stedsnr" v="398403" />
	</node>
	<node id="-130246" lat="65.7906611098" lon="12.474269449">
		<tag k="name" v="Ådalen" />
		<tag k="place" v="farm" />
		<tag k="ssr:stedsnr" v="804003" />
	</node>
	<node id="-130244" lat="66.0016247505" lon="12.5530287572">
		<tag k="alt_name" v="Urda" />
		<tag k="fixme" v="consider place=hamlet" />
		<tag k="name" v="Ura" />
		<tag k="place" v="farm" />
		<tag k="ssr:stedsnr" v="926890" />
	</node>
	<node id="-129994" lat="65.7956638897" lon="12.5462694422">
		<tag k="name" v="Halssjøen" />
		<tag k="place" v="farm" />
		<tag k="ssr:stedsnr" v="663087" />
	</node>
	<node id="-129722" lat="66.0062888878" lon="12.5673944515">
		<tag k="name" v="Myrholt" />
		<tag k="place" v="farm" />
		<tag k="ssr:stedsnr" v="258892" />
	</node>
	<node id="-130079" lat="65.8656916653" lon="12.4822527724">
		<tag k="name" v="Åsen" />
		<tag k="place" v="farm" />
		<tag k="ssr:stedsnr" v="561420" />
	</node>
	<node id="-130164" lat="65.9301861085" lon="12.4716638936">
		<tag k="alt_name" v="Årenga" />
		<tag k="name" v="Årengen" />
		<tag k="place" v="farm" />
		<tag k="ssr:stedsnr" v="743363" />
	</node>
	<node id="-130229" lat="65.9173866279" lon="12.4182002197">
		<tag k="alt_name" v="Hellesvik" />
		<tag k="fixme" v="consider place=hamlet" />
		<tag k="name" v="Hellesvika" />
		<tag k="place" v="farm" />
		<tag k="ssr:stedsnr" v="926323" />
	</node>
	<node id="-130740" lat="65.7836388887" lon="12.4717916664">
		<tag k="name" v="Eidemoen" />
		<tag k="place" v="farm" />
		<tag k="ssr:stedsnr" v="396863" />
	</node>
	<node id="-131102" lat="65.9405939695" lon="12.4559604753">
		<tag k="fixme" v="consider place=hamlet" />
		<tag k="name" v="Myrvoll" />
		<tag k="place" v="farm" />
		<tag k="ssr:stedsnr" v="865359" />
	</node>
	<node id="-130226" lat="65.9848249998" lon="12.606838891">
		<tag k="name" v="Botn" />
		<tag k="place" v="hamlet" />
		<tag k="ssr:stedsnr" v="926247" />
	</node>
	<node id="-129713" lat="65.879874999" lon="12.2717444343">
		<tag k="name" v="Moen" />
		<tag k="place" v="farm" />
		<tag k="ssr:stedsnr" v="258383" />
	</node>
	<node id="-130224" lat="65.787058335" lon="12.4890472141">
		<tag k="name" v="Rota" />
		<tag k="place" v="locality" />
		<tag k="ssr:stedsnr" v="926048" />
	</node>
	<node id="-130223" lat="65.7671000045" lon="12.439333335">
		<tag k="name" v="Moreng" />
		<tag k="place" v="farm" />
		<tag k="ssr:stedsnr" v="926038" />
	</node>
	<node id="-129821" lat="65.9240833372" lon="12.4490611182">
		<tag k="fixme" v="multiple name tags, choose one and add the other to alt_name" />
		<tag k="name" v="Wanggården;Ytre Søvika" />
		<tag k="place" v="farm" />
		<tag k="ssr:stedsnr" v="440364" />
	</node>
	<node id="-130732" lat="66.0214388876" lon="12.6655972178">
		<tag k="fixme" v="consider place=hamlet" />
		<tag k="name" v="Horvneset" />
		<tag k="place" v="farm" />
		<tag k="ssr:stedsnr" v="379890" />
	</node>
	<node id="-129707" lat="65.801511112" lon="12.5616111029">
		<tag k="alt_name" v="Flatøya, yt" />
		<tag k="fixme" v="multiple name tags, choose one and add the other to alt_name" />
		<tag k="name" v="Gården;Ytre Flatøya" />
		<tag k="place" v="farm" />
		<tag k="ssr:stedsnr" v="258034" />
	</node>
	<node id="-129706" lat="65.7563750021" lon="12.4011861154">
		<tag k="name" v="Gjerdet" />
		<tag k="place" v="farm" />
		<tag k="ssr:stedsnr" v="258089" />
	</node>
	<node id="-130214" lat="65.8649305511" lon="12.4616888945">
		<tag k="name" v="Vågen" />
		<tag k="place" v="farm" />
		<tag k="ssr:stedsnr" v="925465" />
	</node>
	<node id="-129701" lat="65.8647416656" lon="12.4687472304">
		<tag k="name" v="Klipen" />
		<tag k="place" v="farm" />
		<tag k="ssr:stedsnr" v="86312" />
	</node>
	<node id="-129816" lat="65.9492083294" lon="12.465500008">
		<tag k="name" v="Smiberget" />
		<tag k="place" v="farm" />
		<tag k="ssr:stedsnr" v="440334" />
	</node>
	<node id="-129954" lat="65.9908527771" lon="12.5286722287">
		<tag k="name" v="Porsmoen" />
		<tag k="place" v="farm" />
		<tag k="ssr:stedsnr" v="501603" />
	</node>
	<node id="-130208" lat="65.9414932782" lon="12.5090587273">
		<tag k="fixme" v="consider place=hamlet" />
		<tag k="name" v="Tormodsvoll" />
		<tag k="place" v="farm" />
		<tag k="ssr:stedsnr" v="925358" />
	</node>
	<node id="-129695" lat="66.0154083375" lon="12.6386416702">
		<tag k="amenity" v="school" />
		<tag k="name" v="Sandnes skole" />
		<tag k="ssr:stedsnr" v="239177" />
	</node>
	<node id="-129691" lat="65.9042666639" lon="12.5453250079">
		<tag k="name" v="Nygården" />
		<tag k="place" v="farm" />
		<tag k="ssr:stedsnr" v="55154" />
	</node>
	<node id="-129763" lat="66.0143555528" lon="12.6361388851">
		<tag k="name" v="Kroken" />
		<tag k="place" v="quarter" />
		<tag k="ssr:stedsnr" v="277887" />
	</node>
	<node id="-130219" lat="65.7923972257" lon="12.5256305568">
		<tag k="name" v="Jøsåsen" />
		<tag k="place" v="farm" />
		<tag k="ssr:stedsnr" v="926012" />
	</node>
	<node id="-130711" lat="65.9599166705" lon="12.4782611137">
		<tag k="name" v="Skogly" />
		<tag k="place" v="farm" />
		<tag k="ssr:stedsnr" v="379299" />
	</node>
	<node id="-131097" lat="65.9561360706" lon="12.5397933342">
		<tag k="fixme" v="consider place=hamlet" />
		<tag k="name" v="Markvoll" />
		<tag k="place" v="farm" />
		<tag k="ssr:stedsnr" v="865333" />
	</node>
	<node id="-130499" lat="65.9153000044" lon="12.2826749909">
		<tag k="fixme" v="consider place=hamlet" />
		<tag k="name" v="Åkerøya" />
		<tag k="place" v="farm" />
		<tag k="ssr:stedsnr" v="101232" />
	</node>
	<node id="-130191" lat="65.7566004797" lon="12.4020621155">
		<tag k="name" v="Mindenes" />
		<tag k="place" v="farm" />
		<tag k="ssr:stedsnr" v="760524" />
	</node>
	<node id="-130189" lat="65.9926888902" lon="12.5581833433">
		<tag k="name" v="Kleiva" />
		<tag k="place" v="farm" />
		<tag k="ssr:stedsnr" v="910491" />
	</node>
	<node id="-130429" lat="65.7924198401" lon="12.5316550032">
		<tag k="fixme" v="consider place=hamlet" />
		<tag k="name" v="Bøen" />
		<tag k="place" v="farm" />
		<tag k="ssr:stedsnr" v="76023" />
	</node>
	<node id="-130005" lat="65.9162861106" lon="12.2826361015">
		<tag k="name" v="Åkerøya" />
		<tag k="place" v="farm" />
		<tag k="ssr:stedsnr" v="464213" />
	</node>
	<node id="-130184" lat="65.9011979376" lon="12.4937663496">
		<tag k="fixme" v="consider place=hamlet" />
		<tag k="name" v="Skei" />
		<tag k="place" v="farm" />
		<tag k="ssr:stedsnr" v="907060" />
	</node>
	<node id="-129872" lat="65.7696583292" lon="12.4105305499">
		<tag k="name" v="Sørgården" />
		<tag k="place" v="farm" />
		<tag k="ssr:stedsnr" v="457537" />
	</node>
	<node id="-130497" lat="65.8416361099" lon="12.2598055544">
		<tag k="name" v="Åkerøya" />
		<tag k="place" v="farm" />
		<tag k="ssr:stedsnr" v="100181" />
	</node>
	<node id="-130411" lat="65.9383722179" lon="12.4640888924">
		<tag k="name" v="Steinhaugen" />
		<tag k="place" v="farm" />
		<tag k="ssr:stedsnr" v="34676" />
	</node>
	<node id="-130688" lat="65.7728472214" lon="12.4117833382">
		<tag k="name" v="Nordgården" />
		<tag k="place" v="farm" />
		<tag k="ssr:stedsnr" v="336517" />
	</node>
	<node id="-129900" lat="65.9347083358" lon="12.4671361136">
		<tag k="name" v="Haravollen" />
		<tag k="place" v="farm" />
		<tag k="ssr:stedsnr" v="459684" />
	</node>
	<node id="-130069" lat="65.9740777767" lon="12.521777767">
		<tag k="name" v="Husmogjerdet" />
		<tag k="place" v="farm" />
		<tag k="ssr:stedsnr" v="701533" />
	</node>
	<node id="-129917" lat="65.8059083309" lon="12.5518138924">
		<tag k="name" v="Åsvang" />
		<tag k="place" v="farm" />
		<tag k="ssr:stedsnr" v="481097" />
	</node>
	<node id="-130470" lat="66.016505554" lon="12.6056694428">
		<tag k="name" v="Øren" />
		<tag k="place" v="farm" />
		<tag k="ssr:stedsnr" v="86415" />
	</node>
	<node id="-130168" lat="65.8699500046" lon="12.6155694354">
		<tag k="name" v="Gården" />
		<tag k="place" v="farm" />
		<tag k="ssr:stedsnr" v="906095" />
	</node>
	<node id="-130679" lat="65.8964333323" lon="12.4560194333">
		<tag k="name" v="Klubben" />
		<tag k="place" v="farm" />
		<tag k="ssr:stedsnr" v="336443" />
	</node>
	<node id="-130676" lat="65.9791756371" lon="12.5261698154">
		<tag k="fixme" v="consider place=hamlet" />
		<tag k="name" v="Husmo" />
		<tag k="place" v="farm" />
		<tag k="ssr:stedsnr" v="336151" />
	</node>
	<node id="-130674" lat="65.8757250027" lon="12.2610166668">
		<tag k="name" v="Skjåteigene" />
		<tag k="place" v="farm" />
		<tag k="ssr:stedsnr" v="334078" />
	</node>
	<node id="-130835" lat="65.7713444413" lon="12.4401111019">
		<tag k="amenity" v="school" />
		<tag k="name" v="Mindland skole" />
		<tag k="ssr:stedsnr" v="578521" />
	</node>
	<node id="-130160" lat="65.9424374098" lon="12.6442173602">
		<tag k="name" v="Rak" />
		<tag k="place" v="locality" />
		<tag k="ssr:stedsnr" v="743355" />
	</node>
	<node id="-130159" lat="65.922299303" lon="12.4572368103">
		<tag k="alt_name" v="Søvika" />
		<tag k="name" v="Søvik" />
		<tag k="place" v="farm" />
		<tag k="ssr:stedsnr" v="743353" />
	</node>
	<node id="-130803" lat="65.9349611094" lon="12.3577166702">
		<tag k="amenity" v="school" />
		<tag k="name" v="Austbø skole" />
		<tag k="ssr:stedsnr" v="561323" />
	</node>
	<node id="-130155" lat="65.9963361151" lon="12.5362416694">
		<tag k="alt_name" v="Litlegården" />
		<tag k="fixme" v="consider place=hamlet" />
		<tag k="name" v="Lillegården" />
		<tag k="place" v="farm" />
		<tag k="ssr:stedsnr" v="701607" />
	</node>
	<node id="-131075" lat="65.798361111" lon="12.551436102">
		<tag k="name" v="Stevjen" />
		<tag k="place" v="farm" />
		<tag k="ssr:stedsnr" v="846076" />
	</node>
	<node id="-130152" lat="65.7655999991" lon="12.4471472316">
		<tag k="name" v="Bakken" />
		<tag k="place" v="farm" />
		<tag k="ssr:stedsnr" v="700563" />
	</node>
	<node id="-130662" lat="65.9024972191" lon="12.5027388972">
		<tag k="name" v="Asplund" />
		<tag k="place" v="farm" />
		<tag k="ssr:stedsnr" v="319352" />
	</node>
	<node id="-130148" lat="65.8084888915" lon="12.5719388921">
		<tag k="alt_name" v="Innerflatøya" />
		<tag k="name" v="Indre Flatøya" />
		<tag k="place" v="farm" />
		<tag k="ssr:stedsnr" v="699910" />
	</node>
	<node id="-130657" lat="65.9804999993" lon="12.5286027787">
		<tag k="name" v="Vollan" />
		<tag k="place" v="farm" />
		<tag k="ssr:stedsnr" v="319251" />
	</node>
	<node id="-130144" lat="65.9532694471" lon="12.4963750021">
		<tag k="name" v="Rødal" />
		<tag k="place" v="farm" />
		<tag k="ssr:stedsnr" v="884993" />
	</node>
	<node id="-130382" lat="65.9251027762" lon="12.3364000092">
		<tag k="fixme" v="multiple name tags, choose one and add the other to alt_name" />
		<tag k="name" v="Altervågen;Vågen" />
		<tag k="place" v="farm" />
		<tag k="ssr:stedsnr" v="25669" />
	</node>
	<node id="-129807" lat="65.7824055574" lon="12.4723249956">
		<tag k="name" v="Vollan" />
		<tag k="place" v="farm" />
		<tag k="ssr:stedsnr" v="440075" />
	</node>
	<node id="-130648" lat="65.7902916702" lon="12.4568249966">
		<tag k="alt_name" v="Ervika, øvre" />
		<tag k="name" v="Øvre Ervik" />
		<tag k="place" v="farm" />
		<tag k="ssr:stedsnr" v="319002" />
	</node>
	<node id="-130404" lat="65.9959027804" lon="12.5445750045">
		<tag k="name" v="Haugerud" />
		<tag k="place" v="farm" />
		<tag k="ssr:stedsnr" v="34523" />
	</node>
	<node id="-130646" lat="65.9921444446" lon="12.5748777776">
		<tag k="alt_name" v="Sletta" />
		<tag k="name" v="Sletten" />
		<tag k="place" v="farm" />
		<tag k="ssr:stedsnr" v="318645" />
	</node>
	<node id="-130645" lat="65.9937916641" lon="12.596019434">
		<tag k="alt_name" v="Myrmoen" />
		<tag k="name" v="Myrmo" />
		<tag k="place" v="farm" />
		<tag k="ssr:stedsnr" v="318644" />
	</node>
	<node id="-130062" lat="65.922247218" lon="12.4505805501">
		<tag k="amenity" v="school" />
		<tag k="name" v="Alstahaug videregående skole" />
		<tag k="ssr:stedsnr" v="542008" />
	</node>
	<node id="-129711" lat="65.9594472262" lon="12.4638888945">
		<tag k="name" v="Karvestrand" />
		<tag k="place" v="farm" />
		<tag k="ssr:stedsnr" v="258285" />
	</node>
	<node id="-130128" lat="65.9139555582" lon="12.4177000084">
		<tag k="name" v="Teigen" />
		<tag k="place" v="farm" />
		<tag k="ssr:stedsnr" v="683325" />
	</node>
	<node id="-130444" lat="65.917519448" lon="12.3387027869">
		<tag k="name" v="Langstrand" />
		<tag k="place" v="locality" />
		<tag k="ssr:stedsnr" v="76339" />
	</node>
	<node id="-131150" lat="65.7763560732" lon="12.2689357455">
		<tag k="fixme" v="consider place=hamlet" />
		<tag k="name" v="Sandvær" />
		<tag k="place" v="farm" />
		<tag k="ssr:stedsnr" v="1072413" />
	</node>
	<node id="-131149" lat="65.8705079736" lon="12.4793803618">
		<tag k="fixme" v="consider place=hamlet" />
		<tag k="name" v="Offersøya" />
		<tag k="place" v="farm" />
		<tag k="ssr:stedsnr" v="1072412" />
	</node>
	<node id="-131148" lat="65.8283380862" lon="12.4227467824">
		<tag k="fixme" v="consider place=hamlet" />
		<tag k="name" v="Tjøtta" />
		<tag k="place" v="farm" />
		<tag k="ssr:stedsnr" v="1072410" />
	</node>
	<node id="-131147" lat="65.8084026531" lon="12.5668354857">
		<tag k="fixme" v="consider place=hamlet" />
		<tag k="name" v="Flatøya" />
		<tag k="place" v="farm" />
		<tag k="ssr:stedsnr" v="1072406" />
	</node>
	<node id="-131146" lat="65.8591060695" lon="12.6101527241">
		<tag k="fixme" v="consider place=hamlet" />
		<tag k="name" v="Bærøya" />
		<tag k="place" v="farm" />
		<tag k="ssr:stedsnr" v="1072405" />
	</node>
	<node id="-129975" lat="65.8842667283" lon="12.2822920234">
		<tag k="alt_name" v="Blomsøy" />
		<tag k="fixme" v="consider place=hamlet" />
		<tag k="name" v="Blomsøya" />
		<tag k="place" v="farm" />
		<tag k="ssr:stedsnr" v="516095" />
	</node>
	<node id="-130316" lat="65.9562000022" lon="12.5369194487">
		<tag k="name" v="Nedre Markvoll" />
		<tag k="place" v="farm" />
		<tag k="ssr:stedsnr" v="883320" />
	</node>
	<node id="-129881" lat="65.7730055589" lon="12.4566944452">
		<tag k="name" v="Borg" />
		<tag k="place" v="farm" />
		<tag k="ssr:stedsnr" v="458590" />
	</node>
	<node id="-130114" lat="65.8788805571" lon="12.2789611038">
		<tag k="name" v="Sørgården" />
		<tag k="place" v="farm" />
		<tag k="ssr:stedsnr" v="880089" />
	</node>
	<node id="-131083" lat="65.9837694481" lon="12.5069499938">
		<tag k="name" v="Mølnsletta" />
		<tag k="place" v="farm" />
		<tag k="ssr:stedsnr" v="848053" />
	</node>
	<node id="-130111" lat="65.8626388894" lon="12.610108344">
		<tag k="name" v="Aurstranda" />
		<tag k="place" v="farm" />
		<tag k="ssr:stedsnr" v="663113" />
	</node>
	<node id="-131134" lat="65.7871243221" lon="12.4892321803">
		<tag k="name" v="Vindstad" />
		<tag k="place" v="farm" />
		<tag k="ssr:stedsnr" v="976747" />
	</node>
	<node id="-130741" lat="65.7800055593" lon="12.4744305568">
		<tag k="name" v="Solbakken" />
		<tag k="place" v="farm" />
		<tag k="ssr:stedsnr" v="396872" />
	</node>
	<node id="-130620" lat="65.931522218" lon="12.4777249892">
		<tag k="name" v="Bakketun" />
		<tag k="place" v="farm" />
		<tag k="ssr:stedsnr" v="216623" />
	</node>
	<node id="-130105" lat="65.9925305553" lon="12.5408527829">
		<tag k="name" v="Lillegården" />
		<tag k="place" v="farm" />
		<tag k="ssr:stedsnr" v="727543" />
	</node>
	<node id="-130103" lat="65.8634541117" lon="12.1761504429">
		<tag k="fixme" v="consider place=hamlet" />
		<tag k="name" v="Skålværet" />
		<tag k="place" v="farm" />
		<tag k="ssr:stedsnr" v="725062" />
	</node>
	<node id="-130101" lat="65.86194167" lon="12.6138361104">
		<tag k="name" v="Lavollen" />
		<tag k="place" v="farm" />
		<tag k="ssr:stedsnr" v="724095" />
	</node>
	<node id="-131123" lat="65.8321638925" lon="12.4231083363">
		<tag k="fixme" v="multiple name tags, choose one and add the other to alt_name" />
		<tag k="name" v="Sundet;Sundgårdene" />
		<tag k="place" v="farm" />
		<tag k="ssr:stedsnr" v="865502" />
	</node>
	<node id="-130096" lat="65.9025944475" lon="12.496374995">
		<tag k="name" v="Skei" />
		<tag k="place" v="farm" />
		<tag k="ssr:stedsnr" v="603044" />
	</node>
	<node id="-129804" lat="65.7727861132" lon="12.4658694375">
		<tag k="alt_name" v="Skjerset" />
		<tag k="name" v="Skjærset" />
		<tag k="place" v="farm" />
		<tag k="ssr:stedsnr" v="440047" />
	</node>
	<node id="-130603" lat="65.8613888851" lon="12.5961916715">
		<tag k="name" v="Vikvold" />
		<tag k="place" v="farm" />
		<tag k="ssr:stedsnr" v="207234" />
	</node>
	<node id="-130170" lat="65.8764694469" lon="12.2610694404">
		<tag k="alt_name" v="Grønvika" />
		<tag k="name" v="Grønnvika" />
		<tag k="place" v="farm" />
		<tag k="ssr:stedsnr" v="743416" />
	</node>
	<node id="-129799" lat="65.9704166672" lon="12.5144416743">
		<tag k="name" v="Nyhus" />
		<tag k="place" v="isolated_dwelling" />
		<tag k="ssr:stedsnr" v="216440" />
	</node>
	<node id="-129863" lat="65.8672749977" lon="12.4460277782">
		<tag k="name" v="Heia" />
		<tag k="place" v="farm" />
		<tag k="ssr:stedsnr" v="258413" />
	</node>
	<node id="-130598" lat="65.9914944445" lon="12.5878444409">
		<tag k="alt_name" v="Bjørklia" />
		<tag k="name" v="Bjørkli" />
		<tag k="place" v="farm" />
		<tag k="ssr:stedsnr" v="197659" />
	</node>
	<node id="-130099" lat="65.8596444416" lon="12.5232972169">
		<tag k="name" v="Bonholmen" />
		<tag k="place" v="farm" />
		<tag k="ssr:stedsnr" v="724055" />
	</node>
	<node id="-131106" lat="65.9213065136" lon="12.4131244688">
		<tag k="fixme" v="consider place=hamlet" />
		<tag k="name" v="Skjeggesnes" />
		<tag k="place" v="farm" />
		<tag k="ssr:stedsnr" v="865382" />
	</node>
	<node id="-130736" lat="65.8575194478" lon="12.6111777872">
		<tag k="name" v="Fjølvika" />
		<tag k="place" v="farm" />
		<tag k="ssr:stedsnr" v="389240" />
	</node>
	<node id="-130078" lat="65.9841249966" lon="12.5050638985">
		<tag k="name" v="Moheim" />
		<tag k="place" v="farm" />
		<tag k="ssr:stedsnr" v="561268" />
	</node>
	<node id="-131101" lat="65.9350250016" lon="12.4716305651">
		<tag k="name" v="Bakken" />
		<tag k="place" v="farm" />
		<tag k="ssr:stedsnr" v="865358" />
	</node>
	<node id="-130587" lat="65.9338611069" lon="12.3429833316">
		<tag k="fixme" v="multiple name tags, choose one and add the other to alt_name; consider place=hamlet" />
		<tag k="name" v="Altergården;Altra" />
		<tag k="place" v="farm" />
		<tag k="ssr:stedsnr" v="197347" />
	</node>
	<node id="-129732" lat="65.9055721704" lon="12.406963497">
		<tag k="fixme" v="consider place=hamlet" />
		<tag k="name" v="Belsvåg" />
		<tag k="place" v="farm" />
		<tag k="ssr:stedsnr" v="136406" />
	</node>
	<node id="-130585" lat="65.8696944447" lon="12.4511611114">
		<tag k="name" v="Gammelgården" />
		<tag k="place" v="farm" />
		<tag k="ssr:stedsnr" v="197462" />
	</node>
	<node id="-131096" lat="65.9529416652" lon="12.4986666737">
		<tag k="alt_name" v="Rødmoen" />
		<tag k="name" v="Rømo" />
		<tag k="place" v="farm" />
		<tag k="ssr:stedsnr" v="865330" />
	</node>
	<node id="-130581" lat="65.9804666675" lon="12.5092777737">
		<tag k="name" v="Sørnovika" />
		<tag k="place" v="farm" />
		<tag k="ssr:stedsnr" v="197284" />
	</node>
	<node id="-129966" lat="65.8056749987" lon="12.5418138876">
		<tag k="name" v="Vonheim" />
		<tag k="place" v="farm" />
		<tag k="ssr:stedsnr" v="299081" />
	</node>
	<node id="-130577" lat="65.9858055524" lon="12.5118638863">
		<tag k="name" v="Myrheim" />
		<tag k="place" v="farm" />
		<tag k="ssr:stedsnr" v="180036" />
	</node>
	<node id="-130574" lat="65.79844722" lon="12.5349805556">
		<tag k="amenity" v="school" />
		<tag k="name" v="Tro skole" />
		<tag k="ssr:stedsnr" v="178096" />
	</node>
	<node id="-129828" lat="65.8653166673" lon="12.4863249973">
		<tag k="name" v="Tømmervika" />
		<tag k="place" v="farm" />
		<tag k="ssr:stedsnr" v="440429" />
	</node>
	<node id="-130059" lat="65.8394249992" lon="12.2586611091">
		<tag k="name" v="Åkerøya" />
		<tag k="place" v="farm" />
		<tag k="ssr:stedsnr" v="525228" />
	</node>
	<node id="-130570" lat="66.0118750014" lon="12.6300805449">
		<tag k="name" v="Matstia" />
		<tag k="place" v="quarter" />
		<tag k="ssr:stedsnr" v="155864" />
	</node>
	<node id="-130056" lat="65.992652776" lon="12.6183083221">
		<tag k="name" v="Nordenget" />
		<tag k="place" v="farm" />
		<tag k="ssr:stedsnr" v="683598" />
	</node>
	<node id="-130220" lat="65.7980278645" lon="12.5394082093">
		<tag k="fixme" v="consider place=hamlet" />
		<tag k="name" v="Haugen" />
		<tag k="place" v="farm" />
		<tag k="ssr:stedsnr" v="926014" />
	</node>
	<node id="-130565" lat="65.9290111105" lon="12.4683611101">
		<tag k="name" v="Brovoll" />
		<tag k="place" v="farm" />
		<tag k="ssr:stedsnr" v="155628" />
	</node>
	<node id="-130563" lat="65.9828777803" lon="12.6047166696">
		<tag k="name" v="Åsenget" />
		<tag k="place" v="farm" />
		<tag k="ssr:stedsnr" v="155432" />
	</node>
	<node id="-130049" lat="65.9014769101" lon="12.5392413231">
		<tag k="fixme" v="consider place=hamlet" />
		<tag k="name" v="Hamnes" />
		<tag k="place" v="farm" />
		<tag k="ssr:stedsnr" v="683346" />
	</node>
</osm>
