<?xml version="1.0" encoding="UTF-8"?>
<osm version="0.6" generator="osmapis">
	<node lat="66.00744722638804" lon="12.763688890117644" id="-14722">
		<tag k="name" v="Kaldkloven" />
		<tag k="ssr:stedsnr" v="15001" />
		<tag k="waterway" v="stream" />
	</node>
	<node lat="65.97837222543036" lon="12.610066668367525" id="-14744">
		<tag k="name" v="Fjelldalselva" />
		<tag k="ssr:stedsnr" v="34412" />
		<tag k="waterway" v="stream" />
	</node>
	<node lat="65.95600555844061" lon="12.57607778172928" id="-14753">
		<tag k="name" v="Øverkrommen" />
		<tag k="natural" v="water" />
		<tag k="ssr:stedsnr" v="41829" />
	</node>
	<node lat="66.01618333341288" lon="12.614025002808246" id="-14783">
		<tag k="name" v="Bjarnetjønna" />
		<tag k="natural" v="water" />
		<tag k="ssr:stedsnr" v="95918" />
	</node>
	<node lat="65.97233611408379" lon="12.558833339702598" id="-14820">
		<tag k="name" v="Vestfjorden" />
		<tag k="natural" v="water" />
		<tag k="ssr:stedsnr" v="258279" />
	</node>
	<node lat="65.93701110804997" lon="12.49621110741065" id="-14828">
		<tag k="name" v="Tverrbekken" />
		<tag k="ssr:stedsnr" v="155658" />
		<tag k="waterway" v="stream" />
	</node>
	<node lat="65.82160555843427" lon="12.411716662052708" id="-14859">
		<tag k="name" v="Stovatnet" />
		<tag k="natural" v="water" />
		<tag k="ssr:stedsnr" v="197515" />
	</node>
	<node lat="65.87577499557324" lon="12.483436118663395" id="-14881">
		<tag k="name" v="Holmen" />
		<tag k="natural" v="cape" />
		<tag k="ssr:stedsnr" v="207285" />
	</node>
	<node lat="65.89511111345809" lon="12.431099997037192" id="-14887">
		<tag k="name" v="Masterbekken" />
		<tag k="ssr:stedsnr" v="215117" />
		<tag k="waterway" v="stream" />
	</node>
	<node lat="65.93927222361027" lon="12.534422233324573" id="-14922">
		<tag k="name" v="Hertenelva" />
		<tag k="ssr:stedsnr" v="459114" />
		<tag k="waterway" v="stream" />
	</node>
	<node lat="65.96394444782383" lon="12.553355561773804" id="-14926">
		<tag k="name" v="Geittjønna" />
		<tag k="natural" v="water" />
		<tag k="ssr:stedsnr" v="459247" />
	</node>
	<node lat="65.97838888799913" lon="12.604605553027751" id="-14927">
		<tag k="name" v="Dalbekken" />
		<tag k="ssr:stedsnr" v="459413" />
		<tag k="waterway" v="stream" />
	</node>
	<node lat="66.0014999977705" lon="12.638633342987843" id="-14929">
		<tag k="name" v="Djupvikhøla" />
		<tag k="place" v="locality" />
		<tag k="ssr:stedsnr" v="459338" />
	</node>
	<node lat="65.83431388708688" lon="12.474011106744712" id="-14935">
		<tag k="name" v="Vindhammarosen" />
		<tag k="natural" v="bay" />
		<tag k="ssr:stedsnr" v="276172" />
	</node>
	<node lat="65.9432499959114" lon="12.493724996816725" id="-14959">
		<tag k="name" v="Lundselva" />
		<tag k="ssr:stedsnr" v="318318" />
		<tag k="waterway" v="stream" />
	</node>
	<node lat="65.89997500089996" lon="12.410844446884086" id="-14983">
		<tag k="name" v="Garmansbekken" />
		<tag k="ssr:stedsnr" v="336114" />
		<tag k="waterway" v="stream" />
	</node>
	<node lat="65.84650277711782" lon="12.403669441406262" id="-14988">
		<tag k="name" v="Møybekken" />
		<tag k="ssr:stedsnr" v="336430" />
		<tag k="waterway" v="stream" />
	</node>
	<node lat="65.87498055335406" lon="12.487636107008115" id="-14991">
		<tag k="name" v="Rundholmen" />
		<tag k="natural" v="cape" />
		<tag k="ssr:stedsnr" v="336446" />
	</node>
	<node lat="65.84700277442131" lon="12.490066668308483" id="-14993">
		<tag k="name" v="Leirosen" />
		<tag k="natural" v="bay" />
		<tag k="ssr:stedsnr" v="336453" />
	</node>
	<node lat="65.84764166876772" lon="12.469869450394809" id="-15030">
		<tag k="name" v="Stamnesosen" />
		<tag k="natural" v="bay" />
		<tag k="ssr:stedsnr" v="397534" />
	</node>
	<node lat="65.81918055250651" lon="12.402791660651383" id="-15071">
		<tag k="name" v="Langvatnet" />
		<tag k="natural" v="water" />
		<tag k="ssr:stedsnr" v="458473" />
		<tag k="water" v="lake" />
	</node>
	<node lat="65.98451666964493" lon="12.641322223658571" id="-15087">
		<tag k="name" v="Aspnesvatnet" />
		<tag k="natural" v="water" />
		<tag k="ssr:stedsnr" v="501231" />
	</node>
	<node lat="65.93191666841885" lon="12.500600002956572" id="-15188">
		<tag k="fixme" v="multiple name tags, choose one and add the other to alt_name" />
		<tag k="name" v="Hertenelva;Helknaelva" />
		<tag k="ssr:stedsnr" v="622317" />
		<tag k="waterway" v="stream" />
	</node>
	<node lat="65.95678333012532" lon="12.577699998162647" id="-15218">
		<tag k="name" v="Kromman" />
		<tag k="natural" v="water" />
		<tag k="ssr:stedsnr" v="709828" />
		<tag k="water" v="lake" />
	</node>
	<node lat="65.96321389335557" lon="12.615872212340323" id="-15257">
		<tag k="name" v="Grytfotvatnet" />
		<tag k="natural" v="water" />
		<tag k="ssr:stedsnr" v="744225" />
	</node>
	<node lat="65.9012083304727" lon="12.505622230495273" id="-15271">
		<tag k="name" v="Leirbekken" />
		<tag k="ssr:stedsnr" v="761520" />
		<tag k="waterway" v="stream" />
	</node>
	<node lat="65.93848889232292" lon="12.579213881886437" id="-15320">
		<tag k="name" v="Storvatnet" />
		<tag k="natural" v="water" />
		<tag k="ssr:stedsnr" v="925366" />
	</node>
	<node lat="65.82074444658623" lon="12.414433342165916" id="-15348">
		<tag k="name" v="Prestholmen" />
		<tag k="natural" v="cape" />
		<tag k="ssr:stedsnr" v="883508" />
	</node>
	<node lat="65.93722778060771" lon="12.477427767969811" id="-15350">
		<tag k="name" v="Hertenholmen" />
		<tag k="natural" v="cape" />
		<tag k="ssr:stedsnr" v="883764" />
	</node>
	<node lat="66.01433055236036" lon="12.63333332878941" id="-15354">
		<tag k="name" v="Sandnesbekken" />
		<tag k="ssr:stedsnr" v="884862" />
		<tag k="waterway" v="stream" />
	</node>
	<node lat="65.95760555182802" lon="12.533436104221074" id="-15361">
		<tag k="name" v="Markvollelva" />
		<tag k="ssr:stedsnr" v="925334" />
		<tag k="waterway" v="stream" />
	</node>
	<node lat="65.9038388929774" lon="12.52419999232" id="-15375">
		<tag k="name" v="Hamneselva" />
		<tag k="ssr:stedsnr" v="926358" />
		<tag k="waterway" v="stream" />
	</node>
	<node lat="65.81457777549959" lon="12.556155555930829" id="-15379">
		<tag k="alt_name" v="Røøyosen" />
		<tag k="name" v="Rødøyosen" />
		<tag k="natural" v="bay" />
		<tag k="ssr:stedsnr" v="926475" />
	</node>
	<node lat="65.8178499968728" lon="12.403622212703903" id="-15523">
		<tag k="name" v="Rundvatnet" />
		<tag k="natural" v="water" />
		<tag k="ssr:stedsnr" v="33458" />
		<tag k="water" v="lake" />
	</node>
	<node lat="65.83905555976477" lon="12.39159165723079" id="-15528">
		<tag k="name" v="Gjerdevatnet" />
		<tag k="natural" v="water" />
		<tag k="ssr:stedsnr" v="33502" />
		<tag k="water" v="lake" />
	</node>
	<node lat="65.92240278074141" lon="12.461413880177993" id="-15594">
		<tag k="name" v="Vaskarhusneset" />
		<tag k="natural" v="cape" />
		<tag k="ssr:stedsnr" v="94653" />
	</node>
	<node lat="65.93334166802062" lon="12.476472230916015" id="-15598">
		<tag k="name" v="Laksberget" />
		<tag k="natural" v="cape" />
		<tag k="ssr:stedsnr" v="94699" />
	</node>
	<node lat="65.96128333220838" lon="12.55802777886783" id="-15651">
		<tag k="name" v="Ravalhøla" />
		<tag k="place" v="locality" />
		<tag k="ssr:stedsnr" v="155259" />
	</node>
	<node lat="65.91965277723729" lon="12.568397213148259" id="-15683">
		<tag k="name" v="Rakselva" />
		<tag k="ssr:stedsnr" v="207280" />
		<tag k="waterway" v="stream" />
	</node>
	<node lat="65.82619444064325" lon="12.428258328897064" id="-15703">
		<tag k="name" v="Dammen" />
		<tag k="natural" v="water" />
		<tag k="ssr:stedsnr" v="276462" />
		<tag k="water" v="pond" />
	</node>
	<node lat="65.92539722364195" lon="12.52657499623277" id="-15723">
		<tag k="name" v="Helknavatnet" />
		<tag k="natural" v="water" />
		<tag k="ssr:stedsnr" v="318336" />
	</node>
	<node lat="65.8358361121824" lon="12.395488888346271" id="-15730">
		<tag k="name" v="Gjerdevatnet" />
		<tag k="natural" v="water" />
		<tag k="ssr:stedsnr" v="318472" />
	</node>
	<node lat="65.82866666234776" lon="12.41219166190257" id="-15745">
		<tag k="name" v="Ostjørna" />
		<tag k="natural" v="water" />
		<tag k="ssr:stedsnr" v="319466" />
	</node>
	<node lat="65.9389083346466" lon="12.493119453452525" id="-15805">
		<tag k="name" v="Tormodsvollelva" />
		<tag k="ssr:stedsnr" v="398655" />
		<tag k="waterway" v="river" />
	</node>
	<node lat="65.95685555851648" lon="12.575338888261218" id="-15807">
		<tag k="name" v="Nerkrommen" />
		<tag k="natural" v="water" />
		<tag k="ssr:stedsnr" v="405858" />
	</node>
	<node lat="65.82974166714769" lon="12.460133340014249" id="-15892">
		<tag k="name" v="Skitosen" />
		<tag k="natural" v="bay" />
		<tag k="ssr:stedsnr" v="519136" />
	</node>
	<node lat="65.94191666838236" lon="12.50582499071593" id="-15909">
		<tag k="name" v="Fjellelva" />
		<tag k="ssr:stedsnr" v="561330" />
		<tag k="waterway" v="stream" />
	</node>
	<node lat="65.95108888712124" lon="12.529761113881042" id="-15920">
		<tag k="name" v="Demma" />
		<tag k="ssr:stedsnr" v="561327" />
		<tag k="waterway" v="stream" />
	</node>
	<node lat="65.83440833147864" lon="12.458566663592206" id="-15947">
		<tag k="name" v="Valgapet" />
		<tag k="natural" v="bay" />
		<tag k="ssr:stedsnr" v="579070" />
	</node>
	<node lat="65.98245833426178" lon="12.51078056238024" id="-15963">
		<tag k="name" v="Mølnbekken" />
		<tag k="ssr:stedsnr" v="605047" />
		<tag k="waterway" v="stream" />
	</node>
	<node lat="65.97544722363774" lon="12.49305000315297" id="-15964">
		<tag k="name" v="Hans Persobekken" />
		<tag k="ssr:stedsnr" v="605095" />
		<tag k="waterway" v="stream" />
	</node>
	<node lat="65.95232777614186" lon="12.465052780825593" id="-16010">
		<tag k="name" v="Sandnesbekken" />
		<tag k="ssr:stedsnr" v="640998" />
		<tag k="waterway" v="stream" />
	</node>
	<node lat="65.84551666852161" lon="12.398072222728594" id="-16042">
		<tag k="name" v="Kråkvikvatnet" />
		<tag k="natural" v="water" />
		<tag k="ssr:stedsnr" v="743456" />
	</node>
	<node lat="65.99326389239003" lon="12.68895556012209" id="-16047">
		<tag k="name" v="Storvatnet" />
		<tag k="natural" v="water" />
		<tag k="ssr:stedsnr" v="743649" />
	</node>
	<node lat="65.83255833586306" lon="12.447252767815788" id="-16059">
		<tag k="name" v="Mølnosen" />
		<tag k="natural" v="bay" />
		<tag k="ssr:stedsnr" v="761071" />
	</node>
	<node lat="65.98389166577127" lon="12.59469443698845" id="-16091">
		<tag k="name" v="Sørraelva" />
		<tag k="ssr:stedsnr" v="804289" />
		<tag k="waterway" v="stream" />
	</node>
	<node lat="65.96398747818097" lon="12.542191746747779" id="-16104">
		<tag k="name" v="Lomsvatnet" />
		<tag k="natural" v="water" />
		<tag k="ssr:stedsnr" v="805251" />
	</node>
	<node lat="65.96944166639445" lon="12.590536109150305" id="-16105">
		<tag k="name" v="Fjellsåsdammen" />
		<tag k="natural" v="water" />
		<tag k="ssr:stedsnr" v="805259" />
	</node>
	<node lat="65.96762777646833" lon="12.552338897869518" id="-16106">
		<tag k="name" v="Dyndvatnet" />
		<tag k="natural" v="water" />
		<tag k="ssr:stedsnr" v="805250" />
	</node>
	<node lat="65.97498333708528" lon="12.58813334408178" id="-16157">
		<tag k="name" v="Botnelva" />
		<tag k="ssr:stedsnr" v="865309" />
		<tag k="waterway" v="stream" />
	</node>
	<node lat="65.95172222621292" lon="12.59767223182519" id="-16163">
		<tag k="name" v="Bruvollvatnet" />
		<tag k="natural" v="water" />
		<tag k="ssr:stedsnr" v="865353" />
	</node>
	<node lat="65.93654166741001" lon="12.541525003776579" id="-16164">
		<tag k="name" v="Tormodsvollvatnet" />
		<tag k="natural" v="water" />
		<tag k="ssr:stedsnr" v="865355" />
	</node>
	<node lat="65.82585000373895" lon="12.440744448851534" id="-16202">
		<tag k="name" v="Hamnliholmen" />
		<tag k="natural" v="cape" />
		<tag k="ssr:stedsnr" v="883186" />
	</node>
	<node lat="65.92871666964542" lon="12.470977775849503" id="-16210">
		<tag k="name" v="Årengelva" />
		<tag k="ssr:stedsnr" v="883746" />
		<tag k="waterway" v="stream" />
	</node>
	<node lat="65.82682698776185" lon="12.330296655170496" id="-16259">
		<tag k="name" v="Sør-Rosøya" />
		<tag k="place" v="island" />
		<tag k="ssr:stedsnr" v="976752" />
	</node>
</osm>
