<?xml version="1.0" encoding="UTF-8"?>
<osm generator="osmapis" version="0.6">
	<node id="-13950" lat="65.99365833" lon="12.5368666557">
		<tag k="name" v="Furuholten" />
		<tag k="place" v="locality" />
		<tag k="ssr:stedsnr" v="580305" />
	</node>
	<node id="-13653" lat="66.0040444415" lon="12.5884750097">
		<tag k="name" v="Milan" />
		<tag k="natural" v="wetland" />
		<tag k="ssr:stedsnr" v="216345" />
	</node>
	<node id="-14648" lat="65.7887555542" lon="12.5386166556">
		<tag k="name" v="Halsmarka" />
		<tag k="place" v="locality" />
		<tag k="ssr:stedsnr" v="542080" />
	</node>
	<node id="-14841" lat="65.9812750043" lon="12.5244083331">
		<tag k="name" v="Vomma" />
		<tag k="place" v="locality" />
		<tag k="ssr:stedsnr" v="762387" />
	</node>
	<node id="-14582" lat="65.813652774" lon="12.5732027711">
		<tag k="name" v="Flatøymarka" />
		<tag k="place" v="locality" />
		<tag k="ssr:stedsnr" v="379465" />
	</node>
	<node id="-14708" lat="65.9083444438" lon="12.4272000078">
		<tag k="historic" v="shieling" />
		<tag k="name" v="Klauvvollan" />
		<tag k="place" v="locality" />
		<tag k="ssr:stedsnr" v="580564" />
	</node>
	<node id="-14835" lat="65.9012222242" lon="12.402022229">
		<tag k="landuse" v="meadow" />
		<tag k="name" v="Belsvågenget" />
		<tag k="ssr:stedsnr" v="761093" />
	</node>
	<node id="-14833" lat="65.7527361119" lon="12.3911222136">
		<tag k="name" v="Sørmarka" />
		<tag k="place" v="locality" />
		<tag k="ssr:stedsnr" v="760631" />
	</node>
	<node id="-14699" lat="65.8318555584" lon="12.4369027778">
		<tag k="landuse" v="meadow" />
		<tag k="name" v="Leikenga" />
		<tag k="ssr:stedsnr" v="579447" />
	</node>
	<node id="-13546" lat="65.9061083365" lon="12.5265194423">
		<tag k="name" v="Utengan" />
		<tag k="place" v="locality" />
		<tag k="ssr:stedsnr" v="237119" />
	</node>
	<node id="-14569" lat="65.9431333375" lon="12.4633055599">
		<tag k="alt_name" v="Myra" />
		<tag k="name" v="Myren" />
		<tag k="natural" v="wetland" />
		<tag k="ssr:stedsnr" v="379302" />
	</node>
	<node id="-13542" lat="65.9607222192" lon="12.5110555447">
		<tag k="name" v="Dalskogen" />
		<tag k="place" v="locality" />
		<tag k="ssr:stedsnr" v="34107" />
	</node>
	<node id="-14053" lat="65.8225750018" lon="12.4198250004">
		<tag k="name" v="Lysthusskogen" />
		<tag k="place" v="locality" />
		<tag k="ssr:stedsnr" v="761456" />
	</node>
	<node id="-14694" lat="65.7766361125" lon="12.4617083249">
		<tag k="name" v="Storkleiva" />
		<tag k="place" v="locality" />
		<tag k="ssr:stedsnr" v="578845" />
	</node>
	<node id="-14946" lat="65.7863972201" lon="12.4672777727">
		<tag k="name" v="Longsmyra" />
		<tag k="natural" v="wetland" />
		<tag k="ssr:stedsnr" v="865066" />
	</node>
	<node id="-13535" lat="65.9219222262" lon="12.3408833356">
		<tag k="name" v="Myren" />
		<tag k="natural" v="wetland" />
		<tag k="ssr:stedsnr" v="222336" />
	</node>
	<node id="-13917" lat="65.9100333322" lon="12.560875003">
		<tag k="name" v="Kvitbergmyran" />
		<tag k="natural" v="wetland" />
		<tag k="ssr:stedsnr" v="540165" />
	</node>
	<node id="-13647" lat="65.7792999995" lon="12.4151277735">
		<tag k="name" v="Rognan" />
		<tag k="place" v="locality" />
		<tag k="ssr:stedsnr" v="214448" />
	</node>
	<node id="-13991" lat="65.7631138884" lon="12.4507333331">
		<tag k="name" v="Kringeløra" />
		<tag k="place" v="locality" />
		<tag k="ssr:stedsnr" v="883615" />
	</node>
	<node id="-13817" lat="65.8217638905" lon="12.4439222164">
		<tag k="name" v="Kjerksteinen" />
		<tag k="natural" v="stone" />
		<tag k="ssr:stedsnr" v="397202" />
	</node>
	<node id="-14804" lat="65.9164305589" lon="12.3137416634">
		<tag k="name" v="Innermarka" />
		<tag k="place" v="locality" />
		<tag k="ssr:stedsnr" v="646334" />
	</node>
	<node id="-13779" lat="65.9987388864" lon="12.6093416654">
		<tag k="name" v="Sjur Hansa-Myra" />
		<tag k="natural" v="wetland" />
		<tag k="ssr:stedsnr" v="337454" />
	</node>
	<node id="-14713" lat="65.9867361103" lon="12.608299996">
		<tag k="name" v="Øra" />
		<tag k="place" v="locality" />
		<tag k="ssr:stedsnr" v="580395" />
	</node>
	<node id="-14162" lat="65.9555138884" lon="12.472269445">
		<tag k="name" v="Steiroskogen" />
		<tag k="place" v="locality" />
		<tag k="ssr:stedsnr" v="944987" />
	</node>
	<node id="-14800" lat="65.954277778" lon="12.4745888943">
		<tag k="name" v="Storhattmyra" />
		<tag k="natural" v="wetland" />
		<tag k="ssr:stedsnr" v="640992" />
	</node>
	<node id="-14927" lat="65.9536583377" lon="12.5046416697">
		<tag k="name" v="Remman" />
		<tag k="place" v="locality" />
		<tag k="ssr:stedsnr" v="823986" />
	</node>
	<node id="-14540" lat="65.8561333332" lon="12.4965055495">
		<tag k="name" v="Svinesgårdan" />
		<tag k="place" v="locality" />
		<tag k="ssr:stedsnr" v="336476" />
	</node>
	<node id="-14923" lat="65.9790416689" lon="12.5547611019">
		<tag k="name" v="Stormyra" />
		<tag k="natural" v="wetland" />
		<tag k="ssr:stedsnr" v="823419" />
	</node>
	<node id="-14085" lat="65.9694205036" lon="12.520048287">
		<tag k="name" v="Hallingan" />
		<tag k="natural" v="wetland" />
		<tag k="ssr:stedsnr" v="926283" />
	</node>
	<node id="-13768" lat="65.9307833303" lon="12.4963888971">
		<tag k="name" v="Hertenura" />
		<tag k="natural" v="scree" />
		<tag k="ssr:stedsnr" v="519670" />
	</node>
	<node id="-13767" lat="65.9297916638" lon="12.4674361125">
		<tag k="name" v="Snippen" />
		<tag k="place" v="locality" />
		<tag k="ssr:stedsnr" v="519662" />
	</node>
	<node id="-14149" lat="65.9668333366" lon="12.5615027834">
		<tag k="name" v="Sandfallen" />
		<tag k="natural" v="beach" />
		<tag k="ssr:stedsnr" v="944282" />
		<tag k="surface" v="sand" />
	</node>
	<node id="-14788" lat="65.9926250042" lon="12.5852277828">
		<tag k="name" v="Ny Jord" />
		<tag k="place" v="locality" />
		<tag k="ssr:stedsnr" v="640456" />
	</node>
	<node id="-14147" lat="65.954494446" lon="12.5395694448">
		<tag k="name" v="Paradishagen" />
		<tag k="place" v="locality" />
		<tag k="ssr:stedsnr" v="944270" />
	</node>
	<node id="-14914" lat="65.83658056" lon="12.464430549">
		<tag k="name" v="Stormarka" />
		<tag k="place" v="locality" />
		<tag k="ssr:stedsnr" v="822192" />
	</node>
	<node id="-14912" lat="65.7878444421" lon="12.4622499999">
		<tag k="name" v="Ervikmyra" />
		<tag k="natural" v="wetland" />
		<tag k="ssr:stedsnr" v="821901" />
	</node>
	<node id="-14271" lat="65.9666861103" lon="12.4831250064">
		<tag k="name" v="Nordmarka" />
		<tag k="place" v="locality" />
		<tag k="ssr:stedsnr" v="35000" />
	</node>
	<node id="-14270" lat="65.9505999965" lon="12.4729638972">
		<tag k="name" v="Nypgrøvan" />
		<tag k="place" v="locality" />
		<tag k="ssr:stedsnr" v="34991" />
	</node>
	<node id="-14141" lat="65.9227666629" lon="12.3116249971">
		<tag k="name" v="Yttermarka" />
		<tag k="natural" v="wetland" />
		<tag k="ssr:stedsnr" v="943587" />
	</node>
	<node id="-13706" lat="65.9761138846" lon="12.5015083313">
		<tag k="name" v="Novikamyran" />
		<tag k="natural" v="wetland" />
		<tag k="ssr:stedsnr" v="241074" />
	</node>
	<node id="-14777" lat="65.7826444435" lon="12.4515333389">
		<tag k="name" v="Grønnmyra" />
		<tag k="natural" v="wetland" />
		<tag k="ssr:stedsnr" v="638864" />
	</node>
	<node id="-14264" lat="65.9059166642" lon="12.4003472325">
		<tag k="name" v="Torvmyra" />
		<tag k="natural" v="wetland" />
		<tag k="ssr:stedsnr" v="34586" />
	</node>
	<node id="-13622" lat="65.8557194472" lon="12.6061722121">
		<tag k="name" v="Øymyra" />
		<tag k="natural" v="wetland" />
		<tag k="ssr:stedsnr" v="178110" />
	</node>
	<node id="-13749" lat="66.0029138897" lon="12.6354138975">
		<tag k="name" v="Aunmyra" />
		<tag k="natural" v="wetland" />
		<tag k="ssr:stedsnr" v="459337" />
	</node>
	<node id="-14260" lat="66.0017277739" lon="12.557436116">
		<tag k="name" v="Storsteinen" />
		<tag k="natural" v="stone" />
		<tag k="ssr:stedsnr" v="34520" />
	</node>
	<node id="-13618" lat="65.9945083367" lon="12.5461694486">
		<tag k="name" v="Trollhølmyra" />
		<tag k="natural" v="wetland" />
		<tag k="ssr:stedsnr" v="277339" />
	</node>
	<node id="-14513" lat="65.9816999987" lon="12.5497555661">
		<tag k="name" v="Husmoskogen" />
		<tag k="place" v="locality" />
		<tag k="ssr:stedsnr" v="319248" />
	</node>
	<node id="-13744" lat="65.9258944422" lon="12.4802055641">
		<tag k="name" v="Grønnskogen" />
		<tag k="place" v="locality" />
		<tag k="ssr:stedsnr" v="276713" />
	</node>
	<node id="-14895" lat="66.0185527736" lon="12.6020750045">
		<tag k="alt_name" v="Stamnesøyra" />
		<tag k="name" v="Stamnesøra" />
		<tag k="place" v="locality" />
		<tag k="ssr:stedsnr" v="804892" />
	</node>
	<node id="-14045" lat="65.9916694486" lon="12.5567138898">
		<tag k="name" v="Kleivmoen" />
		<tag k="place" v="locality" />
		<tag k="ssr:stedsnr" v="910478" />
	</node>
	<node id="-14246" lat="65.8266583305" lon="12.4166638933">
		<tag k="name" v="Fotåkeren" />
		<tag k="place" v="locality" />
		<tag k="ssr:stedsnr" v="33452" />
	</node>
	<node id="-14792" lat="65.970733329" lon="12.5773000086">
		<tag k="name" v="Nesjan" />
		<tag k="natural" v="wetland" />
		<tag k="ssr:stedsnr" v="640499" />
	</node>
	<node id="-13743" lat="65.7700861108" lon="12.4594499976">
		<tag k="name" v="Nesmarka" />
		<tag k="place" v="locality" />
		<tag k="ssr:stedsnr" v="276602" />
	</node>
	<node id="-14919" lat="66.0087055574" lon="12.6354138928">
		<tag k="name" v="Lyngåsmyra" />
		<tag k="natural" v="wetland" />
		<tag k="ssr:stedsnr" v="823335" />
	</node>
	<node id="-14119" lat="66.0025166666" lon="12.561747232">
		<tag k="name" v="Gongsteinen" />
		<tag k="natural" v="stone" />
		<tag k="ssr:stedsnr" v="823912" />
	</node>
	<node id="-14630" lat="65.9198361079" lon="12.5902916613">
		<tag k="name" v="Raksmyrial" />
		<tag k="natural" v="wetland" />
		<tag k="ssr:stedsnr" v="419155" />
	</node>
	<node id="-13990" lat="65.8981416694" lon="12.4463611017">
		<tag k="name" v="Skarvollen" />
		<tag k="place" v="locality" />
		<tag k="ssr:stedsnr" v="883551" />
	</node>
	<node id="-14527" lat="66.0116861095" lon="12.6353472204">
		<tag k="alt_name" v="Skardmyra" />
		<tag k="name" v="Skarmyra" />
		<tag k="natural" v="wetland" />
		<tag k="ssr:stedsnr" v="319894" />
	</node>
	<node id="-14367" lat="65.7753555521" lon="12.4436694416">
		<tag k="name" v="Pålmyra" />
		<tag k="natural" v="wetland" />
		<tag k="ssr:stedsnr" v="136054" />
	</node>
	<node id="-13977" lat="65.8990222177" lon="12.5309805611">
		<tag k="name" v="Helvete" />
		<tag k="place" v="locality" />
		<tag k="ssr:stedsnr" v="883109" />
	</node>
	<node id="-14490" lat="65.8771027779" lon="12.6200388856">
		<tag k="name" v="Nordmarka" />
		<tag k="place" v="locality" />
		<tag k="ssr:stedsnr" v="318389" />
	</node>
	<node id="-13615" lat="65.9003388876" lon="12.5237361132">
		<tag k="name" v="Porsmyra" />
		<tag k="natural" v="wetland" />
		<tag k="ssr:stedsnr" v="155106" />
	</node>
	<node id="-14615" lat="65.9789416639" lon="12.5164055627">
		<tag k="name" v="Kalvgarden" />
		<tag k="place" v="locality" />
		<tag k="ssr:stedsnr" v="398374" />
	</node>
	<node id="-14614" lat="66.0044305523" lon="12.6333833427">
		<tag k="name" v="Aunvollan" />
		<tag k="place" v="locality" />
		<tag k="ssr:stedsnr" v="398330" />
	</node>
	<node id="-14613" lat="65.9668388931" lon="12.5211361032">
		<tag k="name" v="Torvmyra" />
		<tag k="natural" v="wetland" />
		<tag k="ssr:stedsnr" v="398240" />
	</node>
	<node id="-14258" lat="65.9719166628" lon="12.550480561">
		<tag k="name" v="Langfarhatten" />
		<tag k="place" v="locality" />
		<tag k="ssr:stedsnr" v="34415" />
	</node>
	<node id="-14535" lat="65.8537388858" lon="12.4790500095">
		<tag k="name" v="Langmyra" />
		<tag k="natural" v="wetland" />
		<tag k="ssr:stedsnr" v="336435" />
	</node>
	<node id="-13772" lat="65.8210083334" lon="12.5647833357">
		<tag k="name" v="Røøymarka" />
		<tag k="place" v="locality" />
		<tag k="ssr:stedsnr" v="481085" />
	</node>
	<node id="-13593" lat="65.9430583329" lon="12.4841027878">
		<tag k="name" v="Lundsmyran" />
		<tag k="natural" v="wetland" />
		<tag k="ssr:stedsnr" v="136336" />
	</node>
	<node id="-13839" lat="65.965849998" lon="12.4918083351">
		<tag k="name" v="Beito" />
		<tag k="place" v="locality" />
		<tag k="ssr:stedsnr" v="519123" />
	</node>
	<node id="-13838" lat="65.7935805568" lon="12.4865666619">
		<tag k="name" v="Stormyra" />
		<tag k="natural" v="wetland" />
		<tag k="ssr:stedsnr" v="518890" />
	</node>
	<node id="-13997" lat="66.0049916685" lon="12.605230561">
		<tag k="name" v="Radåsmyra" />
		<tag k="natural" v="wetland" />
		<tag k="ssr:stedsnr" v="884320" />
	</node>
	<node id="-14181" lat="65.9077833341" lon="12.5385277807">
		<tag k="name" v="Stormyra" />
		<tag k="natural" v="wetland" />
		<tag k="ssr:stedsnr" v="965105" />
	</node>
	<node id="-13707" lat="65.8307694447" lon="12.5740861215">
		<tag k="name" v="Tangmarken" />
		<tag k="place" v="locality" />
		<tag k="ssr:stedsnr" v="450271" />
	</node>
	<node id="-14346" lat="65.9237972221" lon="12.4535333292">
		<tag k="name" v="Nautbrynnen" />
		<tag k="place" v="locality" />
		<tag k="ssr:stedsnr" v="94652" />
	</node>
	<node id="-14088" lat="65.9234555568" lon="12.5562166601">
		<tag k="name" v="Litlemarka" />
		<tag k="place" v="locality" />
		<tag k="ssr:stedsnr" v="926333" />
	</node>
	<node id="-14931" lat="65.8652388918" lon="12.5938138846">
		<tag k="landuse" v="quarry" />
		<tag k="name" v="Klebersteinbrudd" />
		<tag k="ssr:stedsnr" v="846062" />
	</node>
	<node id="-14341" lat="65.878649999" lon="12.503044449">
		<tag k="name" v="Offersøymarka" />
		<tag k="place" v="locality" />
		<tag k="ssr:stedsnr" v="94538" />
	</node>
	<node id="-13590" lat="65.9038361109" lon="12.4199805509">
		<tag k="name" v="Alstahaugmyran" />
		<tag k="natural" v="wetland" />
		<tag k="ssr:stedsnr" v="136409" />
	</node>
</osm>
