<?xml version="1.0" encoding="UTF-8"?>
<osm generator="osmapis" version="0.6">
	<node id="-16380" lat="65.8589777734" lon="12.4187277875">
		<tag k="fixme" v="consider seamark:type=rock or natural=shoal" />
		<tag k="name" v="Tjeldskjæret" />
		<tag k="place" v="islet" />
		<tag k="ssr:stedsnr" v="761500" />
	</node>
	<node id="-16379" lat="65.8319472196" lon="12.477852785">
		<tag k="name" v="Vindhammarvika" />
		<tag k="natural" v="bay" />
		<tag k="ssr:stedsnr" v="761143" />
	</node>
	<node id="-16375" lat="65.7717499993" lon="12.4010138833">
		<tag k="name" v="Brastadvika" />
		<tag k="natural" v="bay" />
		<tag k="ssr:stedsnr" v="760562" />
	</node>
	<node id="-16373" lat="66.0279111087" lon="12.7099583228">
		<tag k="name" v="Hornet" />
		<tag k="natural" v="cape" />
		<tag k="ssr:stedsnr" v="759759" />
	</node>
	<node id="-16369" lat="65.8106611086" lon="12.4342999916">
		<tag k="name" v="Langholmflaket" />
		<tag k="natural" v="shoal" />
		<tag k="place" v="locality" />
		<tag k="ssr:stedsnr" v="753297" />
	</node>
	<node id="-16368" lat="65.8188833323" lon="12.3333416608">
		<tag k="fixme" v="consider seamark:type=rock or natural=shoal" />
		<tag k="name" v="Storbuktliskjæran" />
		<tag k="place" v="islet" />
		<tag k="ssr:stedsnr" v="753259" />
	</node>
	<node id="-16367" lat="65.7701222234" lon="12.2308666627">
		<tag k="fixme" v="consider seamark:type=rock or natural=shoal" />
		<tag k="name" v="Stakkøyskjæret" />
		<tag k="place" v="islet" />
		<tag k="ssr:stedsnr" v="753253" />
	</node>
	<node id="-16366" lat="65.7318583312" lon="12.2510722309">
		<tag k="fixme" v="consider seamark:type=rock or natural=shoal" />
		<tag k="name" v="Indre Kalvan" />
		<tag k="place" v="islet" />
		<tag k="ssr:stedsnr" v="753252" />
	</node>
	<node id="-16363" lat="65.7776999984" lon="12.2139583302">
		<tag k="name" v="Olejensaøya" />
		<tag k="place" v="islet" />
		<tag k="ssr:stedsnr" v="744643" />
	</node>
	<node id="-16362" lat="65.858838889" lon="12.0961222175">
		<tag k="bay" v="fjord" />
		<tag k="name" v="Omnøyfjorden" />
		<tag k="natural" v="bay" />
		<tag k="ssr:stedsnr" v="744492" />
	</node>
	<node id="-16360" lat="65.7794305525" lon="12.5244138942">
		<tag k="fixme" v="consider seamark:type=rock or natural=shoal" />
		<tag k="name" v="Lauvøyskjæret" />
		<tag k="place" v="islet" />
		<tag k="ssr:stedsnr" v="744022" />
	</node>
	<node id="-16358" lat="65.8559750044" lon="12.4610749921">
		<tag k="name" v="Valneset" />
		<tag k="natural" v="cape" />
		<tag k="ssr:stedsnr" v="743437" />
	</node>
	<node id="-16355" lat="65.8215194402" lon="12.4618083315">
		<tag k="alt_name" v="Langholman" />
		<tag k="name" v="Langholmen" />
		<tag k="place" v="islet" />
		<tag k="ssr:stedsnr" v="743500" />
	</node>
	<node id="-16354" lat="65.9370833322" lon="12.3567805661">
		<tag k="name" v="Silsandodden" />
		<tag k="natural" v="cape" />
		<tag k="ssr:stedsnr" v="743337" />
	</node>
	<node id="-16351" lat="65.8095722192" lon="12.5582055582">
		<tag k="name" v="Flatøysundet" />
		<tag k="natural" v="strait" />
		<tag k="ssr:stedsnr" v="743033" />
	</node>
	<node id="-16350" lat="65.7772138876" lon="12.2321055446">
		<tag k="name" v="Stakkøya" />
		<tag k="place" v="islet" />
		<tag k="ssr:stedsnr" v="743016" />
	</node>
	<node id="-16346" lat="65.7891805528" lon="12.4950861023">
		<tag k="fixme" v="consider seamark:type=rock or natural=shoal" />
		<tag k="name" v="Rotskjæret" />
		<tag k="place" v="islet" />
		<tag k="ssr:stedsnr" v="646230" />
	</node>
	<node id="-16333" lat="65.9878861126" lon="12.6502861078">
		<tag k="name" v="Storvika" />
		<tag k="natural" v="bay" />
		<tag k="ssr:stedsnr" v="640472" />
	</node>
	<node id="-16328" lat="65.8866694407" lon="12.5279277677">
		<tag k="name" v="Innernesholmen" />
		<tag k="place" v="islet" />
		<tag k="ssr:stedsnr" v="640113" />
	</node>
	<node id="-16327" lat="65.8463694451" lon="12.5921388781">
		<tag k="fixme" v="consider seamark:type=rock or natural=shoal" />
		<tag k="name" v="Storskjæret" />
		<tag k="place" v="islet" />
		<tag k="ssr:stedsnr" v="639980" />
	</node>
	<node id="-16315" lat="66.0369972218" lon="12.570291677">
		<tag k="bay" v="fjord" />
		<tag k="name" v="Ulvangen" />
		<tag k="natural" v="bay" />
		<tag k="ssr:stedsnr" v="622879" />
	</node>
	<node id="-16314" lat="65.806163891" lon="12.2022749966">
		<tag k="name" v="Hestholmen" />
		<tag k="place" v="islet" />
		<tag k="ssr:stedsnr" v="622707" />
	</node>
	<node id="-16313" lat="66.0058555565" lon="12.6769666664">
		<tag k="bay" v="fjord" />
		<tag k="name" v="Botnfjorden" />
		<tag k="natural" v="bay" />
		<tag k="ssr:stedsnr" v="622631" />
	</node>
	<node id="-16311" lat="65.8795555588" lon="12.1698805568">
		<tag k="name" v="Storørnøya" />
		<tag k="place" v="islet" />
		<tag k="ssr:stedsnr" v="622551" />
	</node>
	<node id="-16310" lat="65.8551749983" lon="12.117283326">
		<tag k="fixme" v="consider seamark:type=rock or natural=shoal" />
		<tag k="name" v="Slekskjæran" />
		<tag k="place" v="islet" />
		<tag k="ssr:stedsnr" v="622515" />
	</node>
	<node id="-16304" lat="65.9084888923" lon="12.5675027861">
		<tag k="name" v="Skovika" />
		<tag k="natural" v="bay" />
		<tag k="ssr:stedsnr" v="622341" />
	</node>
	<node id="-16302" lat="65.9277111126" lon="12.4181583412">
		<tag k="fixme" v="consider seamark:type=rock or natural=shoal" />
		<tag k="name" v="Rognan" />
		<tag k="place" v="islet" />
		<tag k="ssr:stedsnr" v="622320" />
	</node>
	<node id="-16298" lat="65.7568222238" lon="12.4194944534">
		<tag k="name" v="Onnsvika" />
		<tag k="natural" v="bay" />
		<tag k="ssr:stedsnr" v="622096" />
	</node>
	<node id="-16297" lat="65.7569472249" lon="12.3478388876">
		<tag k="name" v="Breidgrunntaren" />
		<tag k="natural" v="shoal" />
		<tag k="place" v="locality" />
		<tag k="ssr:stedsnr" v="622091" />
	</node>
	<node id="-16295" lat="65.7849694446" lon="12.5249444396">
		<tag k="name" v="Trovika" />
		<tag k="natural" v="bay" />
		<tag k="ssr:stedsnr" v="622048" />
	</node>
	<node id="-16293" lat="65.7770916646" lon="12.444091669">
		<tag k="name" v="Mindlandet" />
		<tag k="place" v="island" />
		<tag k="ssr:stedsnr" v="622041" />
	</node>
	<node id="-16292" lat="65.7611250044" lon="12.3447305633">
		<tag k="name" v="Nordtaren" />
		<tag k="natural" v="shoal" />
		<tag k="place" v="locality" />
		<tag k="ssr:stedsnr" v="622033" />
	</node>
	<node id="-16291" lat="65.7933750014" lon="12.2280749894">
		<tag k="name" v="Skotsværsundet" />
		<tag k="natural" v="strait" />
		<tag k="ssr:stedsnr" v="622024" />
	</node>
	<node id="-16290" lat="65.8053083371" lon="12.4250305625">
		<tag k="fixme" v="consider seamark:type=rock or natural=shoal" />
		<tag k="name" v="Rognan" />
		<tag k="place" v="islet" />
		<tag k="ssr:stedsnr" v="622021" />
	</node>
	<node id="-16289" lat="65.7783777823" lon="12.2623222202">
		<tag k="name" v="Ystøya" />
		<tag k="place" v="islet" />
		<tag k="ssr:stedsnr" v="622010" />
	</node>
	<node id="-16288" lat="65.8480777773" lon="12.1759333319">
		<tag k="name" v="Grønøya" />
		<tag k="place" v="islet" />
		<tag k="ssr:stedsnr" v="621573" />
	</node>
	<node id="-16287" lat="65.8404138865" lon="12.2512972317">
		<tag k="name" v="Åkerøysundet" />
		<tag k="natural" v="strait" />
		<tag k="ssr:stedsnr" v="621512" />
	</node>
	<node id="-16286" lat="65.8261166647" lon="12.2532777669">
		<tag k="name" v="Buøya" />
		<tag k="place" v="island" />
		<tag k="ssr:stedsnr" v="621508" />
	</node>
	<node id="-16285" lat="65.7056750014" lon="12.1876888971">
		<tag k="name" v="Feiertaren" />
		<tag k="natural" v="shoal" />
		<tag k="place" v="locality" />
		<tag k="ssr:stedsnr" v="621497" />
	</node>
	<node id="-16284" lat="65.8885722189" lon="12.3519944505">
		<tag k="name" v="Kjerkegrunna" />
		<tag k="natural" v="shoal" />
		<tag k="place" v="locality" />
		<tag k="ssr:stedsnr" v="621390" />
	</node>
	<node id="-16283" lat="65.8914361098" lon="12.3395361211">
		<tag k="name" v="Skarvøya" />
		<tag k="place" v="island" />
		<tag k="ssr:stedsnr" v="621388" />
	</node>
	<node id="-16282" lat="65.8926055561" lon="12.2985833233">
		<tag k="name" v="Lauvåsholmen" />
		<tag k="place" v="islet" />
		<tag k="ssr:stedsnr" v="621383" />
	</node>
	<node id="-16279" lat="65.9468500031" lon="12.4600111168">
		<tag k="name" v="Steirostranda" />
		<tag k="natural" v="beach" />
		<tag k="place" v="locality" />
		<tag k="ssr:stedsnr" v="621316" />
	</node>
	<node id="-16278" lat="65.7366333357" lon="12.3437250054">
		<tag k="name" v="Mindværet" />
		<tag k="place" v="island" />
		<tag k="ssr:stedsnr" v="621208" />
	</node>
	<node id="-16277" lat="65.7408222205" lon="12.3840305491">
		<tag k="name" v="Jektåsholmen" />
		<tag k="place" v="islet" />
		<tag k="ssr:stedsnr" v="621207" />
	</node>
	<node id="-16275" lat="65.8203694475" lon="12.5783277815">
		<tag k="alt_name" v="Røyholmen" />
		<tag k="name" v="Rødøyholmen" />
		<tag k="place" v="islet" />
		<tag k="ssr:stedsnr" v="622490" />
	</node>
	<node id="-16274" lat="65.8173250045" lon="12.4446027675">
		<tag k="fixme" v="consider seamark:type=rock or natural=shoal" />
		<tag k="name" v="Sørskjæret" />
		<tag k="place" v="islet" />
		<tag k="ssr:stedsnr" v="622473" />
	</node>
	<node id="-16272" lat="65.839036109" lon="12.5671944341">
		<tag k="fixme" v="multiple name tags, choose one and add the other to alt_name" />
		<tag k="name" v="Ytre Tangneset;Ytterodden" />
		<tag k="natural" v="cape" />
		<tag k="ssr:stedsnr" v="622463" />
	</node>
	<node id="-16271" lat="65.8329722219" lon="12.3123500036">
		<tag k="name" v="Naseholmen" />
		<tag k="place" v="islet" />
		<tag k="ssr:stedsnr" v="622461" />
	</node>
	<node id="-16270" lat="65.8470722199" lon="12.5103555504">
		<tag k="name" v="Marnøya" />
		<tag k="place" v="islet" />
		<tag k="ssr:stedsnr" v="622432" />
	</node>
	<node id="-16265" lat="65.9349777802" lon="12.3686472123">
		<tag k="name" v="Austbøbukta" />
		<tag k="natural" v="bay" />
		<tag k="ssr:stedsnr" v="603461" />
	</node>
	<node id="-16264" lat="65.858111109" lon="12.6053111162">
		<tag k="name" v="Ytterlavika" />
		<tag k="natural" v="bay" />
		<tag k="ssr:stedsnr" v="602097" />
	</node>
	<node id="-16263" lat="65.8588638915" lon="12.6046722202">
		<tag k="name" v="Risneset" />
		<tag k="natural" v="cape" />
		<tag k="ssr:stedsnr" v="602095" />
	</node>
	<node id="-16248" lat="65.7669388934" lon="12.466308334">
		<tag k="name" v="Evjeosen" />
		<tag k="natural" v="bay" />
		<tag k="ssr:stedsnr" v="579596" />
	</node>
	<node id="-16245" lat="65.8727583308" lon="12.44949166">
		<tag k="name" v="Gammelgårdsvågen" />
		<tag k="natural" v="bay" />
		<tag k="ssr:stedsnr" v="579535" />
	</node>
	<node id="-16236" lat="65.8607805572" lon="12.3595388982">
		<tag k="fixme" v="consider seamark:type=rock or natural=shoal" />
		<tag k="name" v="Rosøygalten" />
		<tag k="place" v="islet" />
		<tag k="ssr:stedsnr" v="578561" />
	</node>
	<node id="-16233" lat="66.025552781" lon="12.6913138862">
		<tag k="name" v="Øyvågen" />
		<tag k="natural" v="bay" />
		<tag k="ssr:stedsnr" v="576791" />
	</node>
	<node id="-16232" lat="65.925991665" lon="12.3642222142">
		<tag k="name" v="Ryggen" />
		<tag k="natural" v="cape" />
		<tag k="ssr:stedsnr" v="576139" />
	</node>
	<node id="-16230" lat="65.9363083317" lon="12.3718305493">
		<tag k="name" v="Seigrunna" />
		<tag k="natural" v="shoal" />
		<tag k="place" v="locality" />
		<tag k="ssr:stedsnr" v="571788" />
	</node>
	<node id="-16227" lat="65.8519416675" lon="12.519897226">
		<tag k="fixme" v="consider seamark:type=rock or natural=shoal" />
		<tag k="name" v="Risøyskjæret" />
		<tag k="place" v="islet" />
		<tag k="ssr:stedsnr" v="570614" />
	</node>
	<node id="-16223" lat="65.9965416644" lon="12.6331749975">
		<tag k="name" v="Langøybukta" />
		<tag k="natural" v="bay" />
		<tag k="ssr:stedsnr" v="561636" />
	</node>
	<node id="-16222" lat="65.8443027783" lon="12.2945388914">
		<tag k="fixme" v="multiple name tags, choose one and add the other to alt_name; consider seamark:type=rock or natural=shoal" />
		<tag k="name" v="Bileskjeret;Billedskjæret" />
		<tag k="place" v="islet" />
		<tag k="ssr:stedsnr" v="561448" />
	</node>
	<node id="-16221" lat="65.83685833" lon="12.2245750024">
		<tag k="alt_name" v="Buøya, store" />
		<tag k="name" v="Store Buøya" />
		<tag k="place" v="islet" />
		<tag k="ssr:stedsnr" v="561443" />
	</node>
	<node id="-16220" lat="65.8533111079" lon="12.4347111048">
		<tag k="name" v="Skreddarøya" />
		<tag k="place" v="islet" />
		<tag k="ssr:stedsnr" v="561434" />
	</node>
	<node id="-16219" lat="65.8040833315" lon="12.2017527823">
		<tag k="fixme" v="consider seamark:type=rock or natural=shoal" />
		<tag k="name" v="Hestholmskjæran" />
		<tag k="place" v="islet" />
		<tag k="ssr:stedsnr" v="561721" />
	</node>
	<node id="-16218" lat="65.8050222225" lon="12.1760861019">
		<tag k="bay" v="fjord" />
		<tag k="name" v="Lisøyråsa" />
		<tag k="natural" v="bay" />
		<tag k="ssr:stedsnr" v="561720" />
	</node>
	<node id="-16217" lat="65.871988887" lon="12.1836805498">
		<tag k="name" v="Sanderøyan" />
		<tag k="place" v="islet" />
		<tag k="ssr:stedsnr" v="561543" />
	</node>
	<node id="-16216" lat="65.8601277751" lon="12.1589500063">
		<tag k="name" v="Flatholman" />
		<tag k="place" v="islet" />
		<tag k="ssr:stedsnr" v="561531" />
	</node>
	<node id="-16214" lat="65.8157500004" lon="12.3886111031">
		<tag k="alt_name" v="Verholmen" />
		<tag k="name" v="Værholmen" />
		<tag k="place" v="islet" />
		<tag k="ssr:stedsnr" v="561493" />
	</node>
	<node id="-16213" lat="65.8104166692" lon="12.4520777698">
		<tag k="name" v="Purkskallen" />
		<tag k="natural" v="shoal" />
		<tag k="place" v="locality" />
		<tag k="ssr:stedsnr" v="561491" />
	</node>
	<node id="-16210" lat="65.8199666663" lon="12.4379805623">
		<tag k="name" v="Skjåholmen" />
		<tag k="place" v="islet" />
		<tag k="ssr:stedsnr" v="561479" />
	</node>
	<node id="-16209" lat="65.911869445" lon="12.2392888917">
		<tag k="name" v="Alterøyan" />
		<tag k="place" v="islet" />
		<tag k="ssr:stedsnr" v="561340" />
	</node>
	<node id="-16208" lat="65.8966916703" lon="12.5431861035">
		<tag k="name" v="Storholmen" />
		<tag k="place" v="islet" />
		<tag k="ssr:stedsnr" v="561388" />
	</node>
	<node id="-16207" lat="65.734955557" lon="12.3672805655">
		<tag k="name" v="Sørøya" />
		<tag k="place" v="islet" />
		<tag k="ssr:stedsnr" v="561217" />
	</node>
	<node id="-16206" lat="65.8070999991" lon="12.5673722252">
		<tag k="name" v="Flatøya" />
		<tag k="place" v="island" />
		<tag k="ssr:stedsnr" v="561030" />
	</node>
	<node id="-16202" lat="65.9319527762" lon="12.3163111147">
		<tag k="name" v="Eggløysa" />
		<tag k="natural" v="cape" />
		<tag k="ssr:stedsnr" v="561320" />
	</node>
	<node id="-16201" lat="65.9535277782" lon="12.4517999999">
		<tag k="fixme" v="consider seamark:type=rock or natural=shoal" />
		<tag k="name" v="Bakskjæret" />
		<tag k="place" v="islet" />
		<tag k="ssr:stedsnr" v="561306" />
	</node>
	<node id="-16200" lat="65.9087222223" lon="12.4314083438">
		<tag k="name" v="Alsta" />
		<tag k="place" v="island" />
		<tag k="ssr:stedsnr" v="561305" />
	</node>
	<node id="-16199" lat="65.9703166649" lon="12.4236361034">
		<tag k="fixme" v="consider seamark:type=rock or natural=shoal" />
		<tag k="name" v="Svartskjæret" />
		<tag k="place" v="islet" />
		<tag k="ssr:stedsnr" v="561286" />
	</node>
	<node id="-16194" lat="66.0016000012" lon="12.6942638783">
		<tag k="name" v="Steinvikneset" />
		<tag k="natural" v="cape" />
		<tag k="ssr:stedsnr" v="543216" />
	</node>
	<node id="-16193" lat="65.8636333347" lon="12.6169472206">
		<tag k="name" v="Kvalvika" />
		<tag k="natural" v="bay" />
		<tag k="ssr:stedsnr" v="542111" />
	</node>
	<node id="-16192" lat="65.8551972201" lon="12.6123805568">
		<tag k="name" v="Sørholmskjæran" />
		<tag k="natural" v="cape" />
		<tag k="ssr:stedsnr" v="542093" />
	</node>
	<node id="-16190" lat="65.8808222248" lon="12.6237555618">
		<tag k="name" v="Nesåkervika" />
		<tag k="natural" v="bay" />
		<tag k="ssr:stedsnr" v="542076" />
	</node>
	<node id="-16180" lat="65.93525833" lon="12.3640444364">
		<tag k="name" v="Austbøsjøen" />
		<tag k="natural" v="bay" />
		<tag k="ssr:stedsnr" v="422478" />
	</node>
	<node id="-16179" lat="65.7504222247" lon="12.3941055455">
		<tag k="name" v="Valan" />
		<tag k="place" v="locality" />
		<tag k="ssr:stedsnr" v="422477" />
	</node>
	<node id="-16177" lat="65.870519444" lon="12.6099888995">
		<tag k="name" v="Fårholmen" />
		<tag k="place" v="islet" />
		<tag k="ssr:stedsnr" v="421064" />
	</node>
	<node id="-16171" lat="65.8566722192" lon="12.4418027827">
		<tag k="fixme" v="consider seamark:type=rock or natural=shoal" />
		<tag k="name" v="Andskjæret" />
		<tag k="place" v="islet" />
		<tag k="ssr:stedsnr" v="415333" />
	</node>
	<node id="-16165" lat="65.9287055569" lon="12.4627111187">
		<tag k="name" v="Elveneset" />
		<tag k="natural" v="cape" />
		<tag k="ssr:stedsnr" v="398665" />
	</node>
	<node id="-16148" lat="65.8476250042" lon="12.4978472218">
		<tag k="name" v="Langvågen" />
		<tag k="natural" v="bay" />
		<tag k="ssr:stedsnr" v="397507" />
	</node>
	<node id="-16147" lat="65.8455555588" lon="12.3790083234">
		<tag k="fixme" v="consider seamark:type=rock or natural=shoal" />
		<tag k="name" v="Juldagen" />
		<tag k="place" v="islet" />
		<tag k="ssr:stedsnr" v="397502" />
	</node>
	<node id="-16144" lat="65.8172083309" lon="12.4211694425">
		<tag k="name" v="Hjulsteinvika" />
		<tag k="natural" v="bay" />
		<tag k="ssr:stedsnr" v="397205" />
	</node>
	<node id="-16143" lat="65.8283500009" lon="12.461305566">
		<tag k="name" v="Nord-Storvika" />
		<tag k="natural" v="bay" />
		<tag k="ssr:stedsnr" v="397148" />
	</node>
	<node id="-16139" lat="65.840911115" lon="12.5716388787">
		<tag k="name" v="Tangnesgrunna" />
		<tag k="natural" v="shoal" />
		<tag k="place" v="locality" />
		<tag k="ssr:stedsnr" v="389803" />
	</node>
	<node id="-16138" lat="65.8851277791" lon="12.4335722293">
		<tag k="name" v="Brautgalten" />
		<tag k="natural" v="shoal" />
		<tag k="place" v="locality" />
		<tag k="ssr:stedsnr" v="389801" />
	</node>
	<node id="-16137" lat="65.8407999979" lon="12.5833055643">
		<tag k="name" v="Jøsgrunna" />
		<tag k="natural" v="shoal" />
		<tag k="place" v="locality" />
		<tag k="ssr:stedsnr" v="389241" />
	</node>
	<node id="-16135" lat="65.8308416637" lon="12.3050722206">
		<tag k="name" v="Andersholmen" />
		<tag k="place" v="islet" />
		<tag k="ssr:stedsnr" v="389348" />
	</node>
	<node id="-16134" lat="65.9236777762" lon="12.4185861101">
		<tag k="name" v="Frøvika" />
		<tag k="natural" v="bay" />
		<tag k="ssr:stedsnr" v="388628" />
	</node>
	<node id="-16133" lat="65.9153444478" lon="12.2998777711">
		<tag k="name" v="Kvaløyholmen" />
		<tag k="place" v="islet" />
		<tag k="ssr:stedsnr" v="388621" />
	</node>
	<node id="-16130" lat="65.8157944436" lon="12.2154750099">
		<tag k="name" v="Midtlangøya" />
		<tag k="place" v="islet" />
		<tag k="ssr:stedsnr" v="379697" />
	</node>
	<node id="-16129" lat="65.7721277747" lon="12.2094388827">
		<tag k="name" v="Sal-Gulløya" />
		<tag k="place" v="islet" />
		<tag k="ssr:stedsnr" v="379650" />
	</node>
	<node id="-16128" lat="65.8692638854" lon="12.1722861022">
		<tag k="name" v="Slåtterøya" />
		<tag k="place" v="islet" />
		<tag k="ssr:stedsnr" v="379528" />
	</node>
	<node id="-16127" lat="65.8626333368" lon="12.1715249996">
		<tag k="name" v="Skålværet" />
		<tag k="place" v="island" />
		<tag k="ssr:stedsnr" v="379514" />
	</node>
	<node id="-16126" lat="65.8384055558" lon="12.1547416757">
		<tag k="name" v="Langøya" />
		<tag k="place" v="islet" />
		<tag k="ssr:stedsnr" v="379487" />
	</node>
	<node id="-16124" lat="65.8309333321" lon="12.4713833322">
		<tag k="name" v="Vindhammarsundet" />
		<tag k="natural" v="strait" />
		<tag k="ssr:stedsnr" v="379456" />
	</node>
	<node id="-16122" lat="65.8520000024" lon="12.5032472148">
		<tag k="name" v="Gårdsøya" />
		<tag k="place" v="islet" />
		<tag k="ssr:stedsnr" v="379425" />
	</node>
	<node id="-16121" lat="65.854099996" lon="12.6025527783">
		<tag k="name" v="Øya" />
		<tag k="natural" v="cape" />
		<tag k="ssr:stedsnr" v="379419" />
	</node>
	<node id="-16120" lat="65.8570749985" lon="12.5730611128">
		<tag k="name" v="Haltøygrunna" />
		<tag k="natural" v="shoal" />
		<tag k="place" v="locality" />
		<tag k="ssr:stedsnr" v="379407" />
	</node>
	<node id="-16119" lat="65.8473083375" lon="12.2707833443">
		<tag k="alt_name" v="Sjøråkskjæret" />
		<tag k="fixme" v="consider seamark:type=rock or natural=shoal" />
		<tag k="name" v="Sjørakskjeret" />
		<tag k="place" v="islet" />
		<tag k="ssr:stedsnr" v="379406" />
	</node>
	<node id="-16118" lat="65.7231111108" lon="12.2066861207">
		<tag k="fixme" v="consider seamark:type=rock or natural=shoal" />
		<tag k="name" v="Sommarvoksteren" />
		<tag k="place" v="islet" />
		<tag k="ssr:stedsnr" v="379405" />
	</node>
	<node id="-16117" lat="65.8582861142" lon="12.2316083313">
		<tag k="name" v="Hestholmen" />
		<tag k="place" v="islet" />
		<tag k="ssr:stedsnr" v="379398" />
	</node>
	<node id="-16116" lat="65.8503277739" lon="12.2557222199">
		<tag k="name" v="Sengsdraget" />
		<tag k="place" v="islet" />
		<tag k="ssr:stedsnr" v="379394" />
	</node>
	<node id="-16115" lat="65.8815305544" lon="12.3906972126">
		<tag k="name" v="Haugsneset" />
		<tag k="natural" v="cape" />
		<tag k="ssr:stedsnr" v="379392" />
	</node>
	<node id="-16110" lat="65.7242194478" lon="12.3379916753">
		<tag k="name" v="Kjerkeslua" />
		<tag k="natural" v="shoal" />
		<tag k="place" v="locality" />
		<tag k="ssr:stedsnr" v="379223" />
	</node>
	<node id="-16109" lat="65.7355416678" lon="12.3545611006">
		<tag k="name" v="Kvigøya" />
		<tag k="place" v="islet" />
		<tag k="ssr:stedsnr" v="379206" />
	</node>
	<node id="-16108" lat="65.7365055533" lon="12.3764111186">
		<tag k="name" v="Lislholmen" />
		<tag k="place" v="islet" />
		<tag k="ssr:stedsnr" v="379202" />
	</node>
	<node id="-16107" lat="65.7386083365" lon="12.3696861221">
		<tag k="name" v="Hamnholmen" />
		<tag k="place" v="islet" />
		<tag k="ssr:stedsnr" v="379201" />
	</node>
	<node id="-16105" lat="65.789711111" lon="12.5250333291">
		<tag k="name" v="Trolandet" />
		<tag k="place" v="island" />
		<tag k="ssr:stedsnr" v="379068" />
	</node>
	<node id="-16104" lat="65.7908944466" lon="12.5644722249">
		<tag k="name" v="Langholmen" />
		<tag k="place" v="islet" />
		<tag k="ssr:stedsnr" v="379065" />
	</node>
	<node id="-16103" lat="65.7684555563" lon="12.3942138976">
		<tag k="fixme" v="consider seamark:type=rock or natural=shoal" />
		<tag k="name" v="Følskjæret" />
		<tag k="place" v="islet" />
		<tag k="ssr:stedsnr" v="379044" />
	</node>
	<node id="-16102" lat="65.8691361101" lon="12.6291555603">
		<tag k="name" v="Finnvika" />
		<tag k="natural" v="bay" />
		<tag k="ssr:stedsnr" v="360093" />
	</node>
	<node id="-16101" lat="65.8513027741" lon="12.5981666565">
		<tag k="name" v="Hestvika" />
		<tag k="natural" v="bay" />
		<tag k="ssr:stedsnr" v="360085" />
	</node>
	<node id="-16100" lat="65.8647527788" lon="12.4402805469">
		<tag k="name" v="Skjellosen" />
		<tag k="natural" v="bay" />
		<tag k="ssr:stedsnr" v="345464" />
	</node>
	<node id="-16098" lat="65.9511055596" lon="12.4582611185">
		<tag k="name" v="Buneset" />
		<tag k="natural" v="cape" />
		<tag k="ssr:stedsnr" v="337995" />
	</node>
	<node id="-16094" lat="65.8300444465" lon="12.4734111034">
		<tag k="name" v="Røssøydraget" />
		<tag k="place" v="islet" />
		<tag k="ssr:stedsnr" v="337435" />
	</node>
	<node id="-16093" lat="65.8302916692" lon="12.479097218">
		<tag k="name" v="Kjeholman" />
		<tag k="place" v="islet" />
		<tag k="ssr:stedsnr" v="337393" />
	</node>
	<node id="-16092" lat="65.8194777797" lon="12.4269027839">
		<tag k="name" v="Snippen" />
		<tag k="natural" v="cape" />
		<tag k="ssr:stedsnr" v="337172" />
	</node>
	<node id="-16091" lat="66.0230250027" lon="12.6429666624">
		<tag k="name" v="Storvika" />
		<tag k="natural" v="bay" />
		<tag k="ssr:stedsnr" v="337168" />
	</node>
	<node id="-16090" lat="65.8962944483" lon="12.5373472123">
		<tag k="name" v="Kariholmen" />
		<tag k="place" v="islet" />
		<tag k="ssr:stedsnr" v="337105" />
	</node>
	<node id="-16087" lat="65.8483250008" lon="12.5029666741">
		<tag k="name" v="Huldervika" />
		<tag k="natural" v="bay" />
		<tag k="ssr:stedsnr" v="336488" />
	</node>
	<node id="-16084" lat="65.8529944426" lon="12.5014083428">
		<tag k="name" v="Gårdsøysundet" />
		<tag k="natural" v="strait" />
		<tag k="ssr:stedsnr" v="336478" />
	</node>
	<node id="-16081" lat="65.8441111116" lon="12.4974138848">
		<tag k="name" v="Nerneset" />
		<tag k="natural" v="cape" />
		<tag k="ssr:stedsnr" v="336450" />
	</node>
	<node id="-16073" lat="65.9289861138" lon="12.3747805551">
		<tag k="name" v="Søttaren" />
		<tag k="natural" v="shoal" />
		<tag k="place" v="locality" />
		<tag k="ssr:stedsnr" v="329787" />
	</node>
	<node id="-16072" lat="65.8297361137" lon="12.3974861095">
		<tag k="name" v="Gangstøa" />
		<tag k="natural" v="beach" />
		<tag k="place" v="locality" />
		<tag k="ssr:stedsnr" v="328666" />
	</node>
	<node id="-16069" lat="65.790486109" lon="12.2073277862">
		<tag k="name" v="Andersholmen" />
		<tag k="place" v="islet" />
		<tag k="ssr:stedsnr" v="319693" />
	</node>
	<node id="-16068" lat="65.8626888883" lon="12.1853805561">
		<tag k="name" v="Geiterøya" />
		<tag k="place" v="islet" />
		<tag k="ssr:stedsnr" v="319521" />
	</node>
	<node id="-16067" lat="65.8271444474" lon="12.4628111109">
		<tag k="alt_name" v="Røssøya, l" />
		<tag k="fixme" v="multiple name tags, choose one and add the other to alt_name" />
		<tag k="name" v="Litle Røssøya;Røssøya" />
		<tag k="place" v="island" />
		<tag k="ssr:stedsnr" v="319468" />
	</node>
	<node id="-16064" lat="65.8274416625" lon="12.2293500044">
		<tag k="name" v="Brotholman" />
		<tag k="place" v="islet" />
		<tag k="ssr:stedsnr" v="319448" />
	</node>
	<node id="-16063" lat="65.8421722266" lon="12.5861777679">
		<tag k="fixme" v="consider seamark:type=rock or natural=shoal" />
		<tag k="name" v="Løktskjæret" />
		<tag k="place" v="islet" />
		<tag k="ssr:stedsnr" v="319443" />
	</node>
	<node id="-16054" lat="65.7104749974" lon="12.3431305622">
		<tag k="bay" v="fjord" />
		<tag k="name" v="Mindværfjorden" />
		<tag k="natural" v="bay" />
		<tag k="ssr:stedsnr" v="319231" />
	</node>
	<node id="-16053" lat="65.7822527804" lon="12.2780083307">
		<tag k="name" v="Hestholmen" />
		<tag k="place" v="islet" />
		<tag k="ssr:stedsnr" v="319046" />
	</node>
	<node id="-16052" lat="65.7776611129" lon="12.278522218">
		<tag k="name" v="Lammøya" />
		<tag k="place" v="islet" />
		<tag k="ssr:stedsnr" v="319045" />
	</node>
	<node id="-16051" lat="65.7630361067" lon="12.2660833352">
		<tag k="name" v="Vardøya" />
		<tag k="place" v="islet" />
		<tag k="ssr:stedsnr" v="319026" />
	</node>
	<node id="-16050" lat="65.7918861118" lon="12.3157305527">
		<tag k="name" v="Bogtaran" />
		<tag k="natural" v="shoal" />
		<tag k="place" v="locality" />
		<tag k="ssr:stedsnr" v="319007" />
	</node>
	<node id="-16049" lat="65.7920166643" lon="12.2205972275">
		<tag k="name" v="Gardsøya" />
		<tag k="place" v="islet" />
		<tag k="ssr:stedsnr" v="319005" />
	</node>
	<node id="-16047" lat="65.9911527756" lon="12.6321805454">
		<tag k="name" v="Storøya" />
		<tag k="place" v="islet" />
		<tag k="ssr:stedsnr" v="318660" />
	</node>
	<node id="-16044" lat="65.7436861128" lon="12.3607083247">
		<tag k="name" v="Oterholman" />
		<tag k="place" v="islet" />
		<tag k="ssr:stedsnr" v="319199" />
	</node>
	<node id="-16043" lat="65.8403444449" lon="12.1708944547">
		<tag k="name" v="Tjønnholmen" />
		<tag k="place" v="islet" />
		<tag k="ssr:stedsnr" v="318526" />
	</node>
	<node id="-16042" lat="65.8377833325" lon="12.2999277695">
		<tag k="name" v="Buøya" />
		<tag k="place" v="islet" />
		<tag k="ssr:stedsnr" v="318476" />
	</node>
	<node id="-16041" lat="65.8369277734" lon="12.2581111131">
		<tag k="fixme" v="multiple name tags, choose one and add the other to alt_name" />
		<tag k="name" v="Søråkerøya;Åkerøya" />
		<tag k="place" v="island" />
		<tag k="ssr:stedsnr" v="318475" />
	</node>
	<node id="-16040" lat="65.8354500022" lon="12.3362499906">
		<tag k="name" v="Rosøyvalen" />
		<tag k="natural" v="strait" />
		<tag k="ssr:stedsnr" v="318473" />
	</node>
	<node id="-16038" lat="65.8448805584" lon="12.4254722281">
		<tag k="alt_name" v="Lamholmen, store" />
		<tag k="fixme" v="multiple name tags, choose one and add the other to alt_name" />
		<tag k="name" v="Lamholmen;Store Lamholmen" />
		<tag k="place" v="islet" />
		<tag k="ssr:stedsnr" v="318464" />
	</node>
	<node id="-16037" lat="65.8455416707" lon="12.4908638792">
		<tag k="name" v="Kvalvågen" />
		<tag k="natural" v="bay" />
		<tag k="ssr:stedsnr" v="318449" />
	</node>
	<node id="-16036" lat="65.8656666676" lon="12.4364611136">
		<tag k="name" v="Heivika" />
		<tag k="natural" v="bay" />
		<tag k="ssr:stedsnr" v="318424" />
	</node>
	<node id="-16035" lat="65.8860527811" lon="12.624366668">
		<tag k="name" v="Nordholmen" />
		<tag k="place" v="islet" />
		<tag k="ssr:stedsnr" v="318405" />
	</node>
	<node id="-16034" lat="65.8684638881" lon="12.2542222255">
		<tag k="name" v="Skipdraget" />
		<tag k="natural" v="cape" />
		<tag k="ssr:stedsnr" v="318396" />
	</node>
	<node id="-16032" lat="65.8923916659" lon="12.3794944408">
		<tag k="alt_name" v="Belsvågholman" />
		<tag k="name" v="Belsvågholmen" />
		<tag k="place" v="islet" />
		<tag k="ssr:stedsnr" v="318382" />
	</node>
	<node id="-16031" lat="65.8890055574" lon="12.4620305623">
		<tag k="bay" v="fjord" />
		<tag k="name" v="Hamnesleira" />
		<tag k="natural" v="bay" />
		<tag k="ssr:stedsnr" v="318380" />
	</node>
	<node id="-16030" lat="65.8948277736" lon="12.4527138906">
		<tag k="fixme" v="multiple name tags, choose one and add the other to alt_name" />
		<tag k="name" v="Klubben;Klubbodden" />
		<tag k="natural" v="cape" />
		<tag k="ssr:stedsnr" v="318379" />
	</node>
	<node id="-16029" lat="65.877666669" lon="12.2541833304">
		<tag k="alt_name" v="Langdraget" />
		<tag k="name" v="Langneset" />
		<tag k="natural" v="cape" />
		<tag k="ssr:stedsnr" v="318371" />
	</node>
	<node id="-16028" lat="65.8888111107" lon="12.3027388898">
		<tag k="name" v="Langøya" />
		<tag k="place" v="islet" />
		<tag k="ssr:stedsnr" v="318364" />
	</node>
	<node id="-16026" lat="65.9223861094" lon="12.3241972298">
		<tag k="name" v="Klubbvågen" />
		<tag k="natural" v="bay" />
		<tag k="ssr:stedsnr" v="318329" />
	</node>
	<node id="-16023" lat="65.9369638871" lon="12.3466222175">
		<tag k="name" v="Moneset" />
		<tag k="natural" v="cape" />
		<tag k="ssr:stedsnr" v="318305" />
	</node>
	<node id="-16018" lat="65.8178749966" lon="12.4550111078">
		<tag k="name" v="Langholmvalen" />
		<tag k="natural" v="strait" />
		<tag k="ssr:stedsnr" v="215665" />
	</node>
	<node id="-16015" lat="65.8132277823" lon="12.4427777685">
		<tag k="name" v="Langholmodden" />
		<tag k="natural" v="cape" />
		<tag k="ssr:stedsnr" v="215194" />
	</node>
	<node id="-16014" lat="65.7522249959" lon="12.4137333309">
		<tag k="name" v="Mindes-Bjørnholmen" />
		<tag k="natural" v="cape" />
		<tag k="ssr:stedsnr" v="214635" />
	</node>
	<node id="-16011" lat="65.9260722267" lon="12.435513884">
		<tag k="name" v="Hyllneset" />
		<tag k="natural" v="cape" />
		<tag k="ssr:stedsnr" v="207649" />
	</node>
	<node id="-16010" lat="65.7512194465" lon="12.3621888876">
		<tag k="name" v="Jægtslua" />
		<tag k="natural" v="shoal" />
		<tag k="place" v="locality" />
		<tag k="ssr:stedsnr" v="207302" />
	</node>
	<node id="-16009" lat="65.7924388858" lon="12.403066665">
		<tag k="name" v="Måsøytaren" />
		<tag k="natural" v="shoal" />
		<tag k="place" v="locality" />
		<tag k="ssr:stedsnr" v="207301" />
	</node>
	<node id="-16008" lat="65.8019999977" lon="12.474411104">
		<tag k="name" v="Ravnflokholmen" />
		<tag k="place" v="islet" />
		<tag k="ssr:stedsnr" v="207300" />
	</node>
	<node id="-16007" lat="65.7587416628" lon="12.428452787">
		<tag k="name" v="Bjørnholmen" />
		<tag k="place" v="islet" />
		<tag k="ssr:stedsnr" v="207299" />
	</node>
	<node id="-16004" lat="65.8363777758" lon="12.5824305546">
		<tag k="fixme" v="consider seamark:type=rock or natural=shoal" />
		<tag k="name" v="Risnesskjæret" />
		<tag k="place" v="islet" />
		<tag k="ssr:stedsnr" v="207236" />
	</node>
	<node id="-16002" lat="65.7441861132" lon="12.2645083341">
		<tag k="fixme" v="consider seamark:type=rock or natural=shoal" />
		<tag k="name" v="Grønøyskjæran" />
		<tag k="place" v="islet" />
		<tag k="ssr:stedsnr" v="198173" />
	</node>
	<node id="-16001" lat="65.9588222248" lon="12.4609333284">
		<tag k="fixme" v="consider seamark:type=rock or natural=shoal" />
		<tag k="name" v="Karveskjæret" />
		<tag k="place" v="islet" />
		<tag k="ssr:stedsnr" v="198255" />
	</node>
	<node id="-16000" lat="65.8268666624" lon="12.1711805638">
		<tag k="name" v="Navaren" />
		<tag k="place" v="islet" />
		<tag k="ssr:stedsnr" v="197772" />
	</node>
	<node id="-15997" lat="65.8361083333" lon="12.3263444371">
		<tag k="fixme" v="consider seamark:type=rock or natural=shoal" />
		<tag k="name" v="Torskjæret" />
		<tag k="place" v="islet" />
		<tag k="ssr:stedsnr" v="197499" />
	</node>
	<node id="-15996" lat="65.8309805598" lon="12.2648999971">
		<tag k="name" v="Kalvholmen" />
		<tag k="place" v="islet" />
		<tag k="ssr:stedsnr" v="197497" />
	</node>
	<node id="-15995" lat="65.8447111156" lon="12.4389249903">
		<tag k="name" v="Geithammaren" />
		<tag k="natural" v="cape" />
		<tag k="ssr:stedsnr" v="197491" />
	</node>
	<node id="-15994" lat="65.846763885" lon="12.3100055456">
		<tag k="name" v="Kalvøya" />
		<tag k="place" v="islet" />
		<tag k="ssr:stedsnr" v="197489" />
	</node>
	<node id="-15993" lat="65.8464055513" lon="12.1509888963">
		<tag k="name" v="Rånen" />
		<tag k="place" v="islet" />
		<tag k="ssr:stedsnr" v="197561" />
	</node>
	<node id="-15992" lat="65.8044749968" lon="12.2399972229">
		<tag k="name" v="Blikholman" />
		<tag k="place" v="islet" />
		<tag k="ssr:stedsnr" v="197551" />
	</node>
	<node id="-15991" lat="65.9195888852" lon="12.4079249934">
		<tag k="name" v="Vestervika" />
		<tag k="natural" v="bay" />
		<tag k="ssr:stedsnr" v="197381" />
	</node>
	<node id="-15990" lat="65.9183055563" lon="12.3471500041">
		<tag k="name" v="Austbøvågen" />
		<tag k="natural" v="bay" />
		<tag k="ssr:stedsnr" v="197378" />
	</node>
	<node id="-15989" lat="65.9156638867" lon="12.3035833352">
		<tag k="fixme" v="multiple name tags, choose one and add the other to alt_name" />
		<tag k="name" v="Hestvika;Klubbvågen" />
		<tag k="natural" v="bay" />
		<tag k="ssr:stedsnr" v="197376" />
	</node>
	<node id="-15986" lat="65.8569472243" lon="12.519766666">
		<tag k="fixme" v="consider seamark:type=rock or natural=shoal" />
		<tag k="name" v="Risøyaukan" />
		<tag k="place" v="islet" />
		<tag k="ssr:stedsnr" v="197467" />
	</node>
	<node id="-15984" lat="65.867088887" lon="12.6197388822">
		<tag k="alt_name" v="Fårnesvågen" />
		<tag k="name" v="Fornesvågen" />
		<tag k="natural" v="bay" />
		<tag k="ssr:stedsnr" v="197460" />
	</node>
	<node id="-15983" lat="65.8710122435" lon="12.4870041878">
		<tag k="alt_name" v="Offersøy" />
		<tag k="name" v="Offersøya" />
		<tag k="place" v="island" />
		<tag k="ssr:stedsnr" v="197457" />
	</node>
	<node id="-15982" lat="65.9797500035" lon="12.4959749945">
		<tag k="name" v="Tingvika" />
		<tag k="natural" v="bay" />
		<tag k="ssr:stedsnr" v="197286" />
	</node>
	<node id="-15980" lat="65.752766664" lon="12.2642138957">
		<tag k="name" v="Grønøya" />
		<tag k="place" v="islet" />
		<tag k="ssr:stedsnr" v="197097" />
	</node>
	<node id="-15979" lat="65.7722555592" lon="12.4040916778">
		<tag k="name" v="Kvalholmen" />
		<tag k="place" v="islet" />
		<tag k="ssr:stedsnr" v="197072" />
	</node>
	<node id="-15978" lat="65.8884694457" lon="12.2829944464">
		<tag k="name" v="Kolviken" />
		<tag k="natural" v="bay" />
		<tag k="ssr:stedsnr" v="300480" />
	</node>
	<node id="-15972" lat="65.7686361132" lon="12.2056611219">
		<tag k="name" v="Gulløyan" />
		<tag k="place" v="islet" />
		<tag k="ssr:stedsnr" v="161809" />
	</node>
	<node id="-15956" lat="65.8507916699" lon="12.5124694346">
		<tag k="name" v="Flaget" />
		<tag k="natural" v="shoal" />
		<tag k="place" v="locality" />
		<tag k="ssr:stedsnr" v="154563" />
	</node>
	<node id="-15952" lat="65.8552722201" lon="12.4548861024">
		<tag k="fixme" v="consider seamark:type=rock or natural=shoal" />
		<tag k="name" v="Onnesskjæret" />
		<tag k="place" v="islet" />
		<tag k="ssr:stedsnr" v="154518" />
	</node>
	<node id="-15950" lat="65.8320361091" lon="12.4675861201">
		<tag k="fixme" v="consider seamark:type=rock or natural=shoal" />
		<tag k="name" v="Strandskjæret" />
		<tag k="place" v="islet" />
		<tag k="ssr:stedsnr" v="154145" />
	</node>
	<node id="-15949" lat="65.8320861155" lon="12.4823666586">
		<tag k="fixme" v="consider seamark:type=rock or natural=shoal" />
		<tag k="name" v="Vindhammarskjæret" />
		<tag k="place" v="islet" />
		<tag k="ssr:stedsnr" v="154141" />
	</node>
	<node id="-15947" lat="65.7217361083" lon="12.3066333307">
		<tag k="fixme" v="consider seamark:type=rock or natural=shoal" />
		<tag k="name" v="Skjelva" />
		<tag k="place" v="islet" />
		<tag k="ssr:stedsnr" v="153929" />
	</node>
	<node id="-15942" lat="66.0229833314" lon="12.6624444422">
		<tag k="name" v="Horvnesstøa" />
		<tag k="natural" v="bay" />
		<tag k="ssr:stedsnr" v="152767" />
	</node>
	<node id="-15941" lat="66.0250166655" lon="12.6711749924">
		<tag k="name" v="Nordneset" />
		<tag k="natural" v="cape" />
		<tag k="ssr:stedsnr" v="152753" />
	</node>
	<node id="-15939" lat="65.7989638879" lon="12.4114666752">
		<tag k="name" v="Nordskolten" />
		<tag k="natural" v="shoal" />
		<tag k="place" v="locality" />
		<tag k="ssr:stedsnr" v="146282" />
	</node>
	<node id="-15937" lat="65.7794805515" lon="12.2028305597">
		<tag k="fixme" v="consider seamark:type=rock or natural=shoal" />
		<tag k="name" v="Gullmurskjæret" />
		<tag k="place" v="islet" />
		<tag k="ssr:stedsnr" v="137641" />
	</node>
	<node id="-15936" lat="65.7812388916" lon="12.209741666">
		<tag k="name" v="Gullmurøya" />
		<tag k="place" v="islet" />
		<tag k="ssr:stedsnr" v="137639" />
	</node>
	<node id="-15933" lat="65.8221972242" lon="12.2167333247">
		<tag k="name" v="Nordlangøya" />
		<tag k="place" v="islet" />
		<tag k="ssr:stedsnr" v="136771" />
	</node>
	<node id="-15932" lat="65.7686361132" lon="12.2056611219">
		<tag k="name" v="Liss-Gulløya" />
		<tag k="place" v="islet" />
		<tag k="ssr:stedsnr" v="136681" />
	</node>
	<node id="-15930" lat="65.8430500021" lon="12.1841833443">
		<tag k="fixme" v="consider seamark:type=rock or natural=shoal" />
		<tag k="name" v="Flatskjæret" />
		<tag k="place" v="islet" />
		<tag k="ssr:stedsnr" v="136526" />
	</node>
	<node id="-15927" lat="65.8150333336" lon="12.3082472316">
		<tag k="name" v="Kalvholman" />
		<tag k="place" v="islet" />
		<tag k="ssr:stedsnr" v="136487" />
	</node>
	<node id="-15926" lat="65.8156527742" lon="12.2852638917">
		<tag k="name" v="Tørrisøya" />
		<tag k="place" v="islet" />
		<tag k="ssr:stedsnr" v="136485" />
	</node>
	<node id="-15925" lat="65.8510222222" lon="12.479536103">
		<tag k="name" v="Yttervågen" />
		<tag k="natural" v="bay" />
		<tag k="ssr:stedsnr" v="136471" />
	</node>
	<node id="-15924" lat="65.8454583376" lon="12.3370499898">
		<tag k="name" v="Fjølvika" />
		<tag k="natural" v="bay" />
		<tag k="ssr:stedsnr" v="136467" />
	</node>
	<node id="-15923" lat="65.8561250013" lon="12.5137944344">
		<tag k="name" v="Risøysundet" />
		<tag k="natural" v="strait" />
		<tag k="ssr:stedsnr" v="136461" />
	</node>
	<node id="-15922" lat="65.8810999959" lon="12.5245222177">
		<tag k="fixme" v="multiple name tags, choose one and add the other to alt_name" />
		<tag k="name" v="Endesnesholmen;Innesholmen" />
		<tag k="place" v="islet" />
		<tag k="ssr:stedsnr" v="136441" />
	</node>
	<node id="-15921" lat="65.8697361114" lon="12.3874083358">
		<tag k="bay" v="fjord" />
		<tag k="name" v="Haugsfjorden" />
		<tag k="natural" v="bay" />
		<tag k="ssr:stedsnr" v="136435" />
	</node>
	<node id="-15919" lat="65.9157277785" lon="12.2652250046">
		<tag k="name" v="Torøya" />
		<tag k="place" v="islet" />
		<tag k="ssr:stedsnr" v="136383" />
	</node>
	<node id="-15918" lat="65.9159333296" lon="12.2848666607">
		<tag k="fixme" v="multiple name tags, choose one and add the other to alt_name" />
		<tag k="name" v="Åkerøya;Nordåkerøya" />
		<tag k="place" v="island" />
		<tag k="ssr:stedsnr" v="136381" />
	</node>
	<node id="-15917" lat="65.9124027757" lon="12.2536388829">
		<tag k="name" v="Hestøydraget" />
		<tag k="place" v="islet" />
		<tag k="ssr:stedsnr" v="136378" />
	</node>
	<node id="-15916" lat="65.9163222228" lon="12.3260611079">
		<tag k="name" v="Vågbekkan" />
		<tag k="natural" v="bay" />
		<tag k="ssr:stedsnr" v="136376" />
	</node>
	<node id="-15913" lat="65.9339611141" lon="12.3288111188">
		<tag k="alt_name" v="Skuddvikodden" />
		<tag k="name" v="Skutvikodden" />
		<tag k="natural" v="cape" />
		<tag k="ssr:stedsnr" v="136345" />
	</node>
	<node id="-15908" lat="65.8006527821" lon="12.5000499907">
		<tag k="loc_name" v="Brødholmen" />
		<tag k="name" v="Brørholmen" />
		<tag k="place" v="islet" />
		<tag k="ssr:stedsnr" v="136042" />
	</node>
	<node id="-15895" lat="65.8263861148" lon="12.4718444402">
		<tag k="name" v="Sørholmen" />
		<tag k="place" v="islet" />
		<tag k="ssr:stedsnr" v="94752" />
	</node>
	<node id="-15888" lat="65.8258166692" lon="12.4565833313">
		<tag k="name" v="Storvikneset" />
		<tag k="natural" v="cape" />
		<tag k="ssr:stedsnr" v="94608" />
	</node>
	<node id="-15887" lat="65.8489777795" lon="12.4774833401">
		<tag k="name" v="Svinesstamneset" />
		<tag k="natural" v="cape" />
		<tag k="ssr:stedsnr" v="94565" />
	</node>
	<node id="-15886" lat="65.8574416709" lon="12.5100666593">
		<tag k="name" v="Nordskjærsundet" />
		<tag k="natural" v="strait" />
		<tag k="ssr:stedsnr" v="94559" />
	</node>
	<node id="-15879" lat="65.9021111133" lon="12.5463833234">
		<tag k="name" v="Skjåneset" />
		<tag k="natural" v="cape" />
		<tag k="ssr:stedsnr" v="94130" />
	</node>
	<node id="-15878" lat="65.8330444483" lon="12.4523166577">
		<tag k="name" v="Valan" />
		<tag k="natural" v="bay" />
		<tag k="ssr:stedsnr" v="94069" />
	</node>
	<node id="-15872" lat="65.8382305587" lon="12.2446555595">
		<tag k="name" v="Einholmen" />
		<tag k="place" v="islet" />
		<tag k="ssr:stedsnr" v="91108" />
	</node>
	<node id="-15869" lat="66.0285972202" lon="12.695622217">
		<tag k="alt_name" v="Skredingan" />
		<tag k="name" v="Skreingan" />
		<tag k="place" v="islet" />
		<tag k="ssr:stedsnr" v="76893" />
	</node>
	<node id="-15868" lat="66.0343555542" lon="12.711327772">
		<tag k="fixme" v="consider seamark:type=rock or natural=shoal" />
		<tag k="name" v="Småskjæran" />
		<tag k="place" v="islet" />
		<tag k="ssr:stedsnr" v="76891" />
	</node>
	<node id="-15867" lat="66.0057722236" lon="12.7012722218">
		<tag k="fixme" v="consider seamark:type=rock or natural=shoal" />
		<tag k="name" v="Kjerringskjæret" />
		<tag k="place" v="islet" />
		<tag k="ssr:stedsnr" v="76886" />
	</node>
	<node id="-15865" lat="65.7998111116" lon="12.2215055466">
		<tag k="name" v="Skotsvær" />
		<tag k="place" v="island" />
		<tag k="ssr:stedsnr" v="76696" />
	</node>
	<node id="-15864" lat="65.8792777752" lon="12.1433249889">
		<tag k="name" v="Sevøya" />
		<tag k="place" v="islet" />
		<tag k="ssr:stedsnr" v="76576" />
	</node>
	<node id="-15863" lat="65.8260916678" lon="12.4448472177">
		<tag k="name" v="Hamn" />
		<tag k="natural" v="bay" />
		<tag k="ssr:stedsnr" v="76491" />
	</node>
	<node id="-15862" lat="65.8937833304" lon="12.3201333225">
		<tag k="name" v="Slåtterøya" />
		<tag k="place" v="islet" />
		<tag k="ssr:stedsnr" v="76481" />
	</node>
	<node id="-15861" lat="65.8382083338" lon="12.5790583359">
		<tag k="name" v="Tangodden" />
		<tag k="natural" v="cape" />
		<tag k="ssr:stedsnr" v="76480" />
	</node>
	<node id="-15860" lat="65.8274055515" lon="12.2632777697">
		<tag k="name" v="Måsholmen" />
		<tag k="place" v="islet" />
		<tag k="ssr:stedsnr" v="76474" />
	</node>
	<node id="-15859" lat="65.8431999984" lon="12.3906250105">
		<tag k="name" v="Ytterstranda" />
		<tag k="natural" v="beach" />
		<tag k="place" v="locality" />
		<tag k="ssr:stedsnr" v="76467" />
	</node>
	<node id="-15857" lat="65.8660916685" lon="12.3745749913">
		<tag k="name" v="Rosøytaren" />
		<tag k="natural" v="shoal" />
		<tag k="place" v="locality" />
		<tag k="ssr:stedsnr" v="76429" />
	</node>
	<node id="-15856" lat="65.8706138844" lon="12.2898194504">
		<tag k="name" v="Måsøya" />
		<tag k="place" v="islet" />
		<tag k="ssr:stedsnr" v="76414" />
	</node>
	<node id="-15855" lat="65.8776277786" lon="12.2943888882">
		<tag k="name" v="Buøya" />
		<tag k="place" v="islet" />
		<tag k="ssr:stedsnr" v="76412" />
	</node>
	<node id="-15853" lat="65.8910055534" lon="12.3763583297">
		<tag k="name" v="Alstahaugholmen" />
		<tag k="place" v="islet" />
		<tag k="ssr:stedsnr" v="76406" />
	</node>
	<node id="-15852" lat="65.8960805559" lon="12.4790611059">
		<tag k="name" v="Skeisholmen" />
		<tag k="place" v="islet" />
		<tag k="ssr:stedsnr" v="76402" />
	</node>
	<node id="-15851" lat="65.898205554" lon="12.542583329">
		<tag k="name" v="Tunga" />
		<tag k="place" v="islet" />
		<tag k="ssr:stedsnr" v="76398" />
	</node>
	<node id="-15850" lat="65.9058833341" lon="12.5601277853">
		<tag k="name" v="Hamnesstranda" />
		<tag k="natural" v="beach" />
		<tag k="place" v="locality" />
		<tag k="ssr:stedsnr" v="76386" />
	</node>
	<node id="-15849" lat="65.8990222264" lon="12.317913879">
		<tag k="name" v="Faksholmen" />
		<tag k="place" v="islet" />
		<tag k="ssr:stedsnr" v="76376" />
	</node>
	<node id="-15848" lat="65.8956027788" lon="12.3288138841">
		<tag k="alt_name" v="Hestøy" />
		<tag k="name" v="Hestøya" />
		<tag k="place" v="islet" />
		<tag k="ssr:stedsnr" v="76373" />
	</node>
	<node id="-15846" lat="65.9075472263" lon="12.3548888897">
		<tag k="name" v="Sørøytaren" />
		<tag k="natural" v="shoal" />
		<tag k="place" v="locality" />
		<tag k="ssr:stedsnr" v="76358" />
	</node>
	<node id="-15845" lat="65.8996499964" lon="12.3557888805">
		<tag k="bay" v="fjord" />
		<tag k="name" v="Alstahaugfjorden" />
		<tag k="natural" v="bay" />
		<tag k="ssr:stedsnr" v="76345" />
	</node>
	<node id="-15839" lat="65.7406194459" lon="12.3691111183">
		<tag k="name" v="Jektsundet" />
		<tag k="natural" v="strait" />
		<tag k="ssr:stedsnr" v="76231" />
	</node>
	<node id="-15838" lat="65.7488611134" lon="12.2648166694">
		<tag k="name" v="Grønøyan" />
		<tag k="place" v="islet" />
		<tag k="ssr:stedsnr" v="76221" />
	</node>
	<node id="-15837" lat="65.7672499997" lon="12.2706166747">
		<tag k="name" v="Flatøya" />
		<tag k="place" v="islet" />
		<tag k="ssr:stedsnr" v="76078" />
	</node>
	<node id="-15831" lat="65.7723638924" lon="12.4758861182">
		<tag k="name" v="Hubuneset" />
		<tag k="natural" v="cape" />
		<tag k="ssr:stedsnr" v="76045" />
	</node>
	<node id="-15828" lat="65.7799805576" lon="12.2219333312">
		<tag k="name" v="Jansholmen" />
		<tag k="place" v="islet" />
		<tag k="ssr:stedsnr" v="76018" />
	</node>
	<node id="-15827" lat="65.793161108" lon="12.2816083347">
		<tag k="name" v="Enholmen" />
		<tag k="place" v="islet" />
		<tag k="ssr:stedsnr" v="76015" />
	</node>
	<node id="-15821" lat="65.8594361143" lon="12.6149222293">
		<tag k="name" v="Fjølvika" />
		<tag k="natural" v="bay" />
		<tag k="ssr:stedsnr" v="57086" />
	</node>
	<node id="-15820" lat="65.8095416629" lon="12.5282944385">
		<tag k="name" v="Vikholmen" />
		<tag k="natural" v="cape" />
		<tag k="ssr:stedsnr" v="57082" />
	</node>
	<node id="-15819" lat="65.8762055561" lon="12.611458329">
		<tag k="fixme" v="consider seamark:type=rock or natural=shoal" />
		<tag k="name" v="Grindskjæret" />
		<tag k="place" v="islet" />
		<tag k="ssr:stedsnr" v="57074" />
	</node>
	<node id="-15796" lat="66.0032583359" lon="12.6458666641">
		<tag k="name" v="Strendene" />
		<tag k="natural" v="beach" />
		<tag k="place" v="locality" />
		<tag k="ssr:stedsnr" v="34324" />
	</node>
	<node id="-15783" lat="65.9523861153" lon="12.4560944376">
		<tag k="name" v="Steironeset" />
		<tag k="natural" v="cape" />
		<tag k="ssr:stedsnr" v="25675" />
	</node>
	<node id="-15781" lat="65.882955553" lon="12.3243805556">
		<tag k="fixme" v="consider seamark:type=rock or natural=shoal" />
		<tag k="name" v="Oskjæret" />
		<tag k="place" v="islet" />
		<tag k="ssr:stedsnr" v="25666" />
	</node>
	<node id="-15780" lat="65.8597166692" lon="12.4252361088">
		<tag k="name" v="Sundhullet" />
		<tag k="natural" v="bay" />
		<tag k="ssr:stedsnr" v="25295" />
	</node>
	<node id="-15779" lat="65.810352779" lon="12.3067138822">
		<tag k="fixme" v="consider seamark:type=rock or natural=shoal" />
		<tag k="name" v="Store Gryta" />
		<tag k="place" v="islet" />
		<tag k="ssr:stedsnr" v="25338" />
	</node>
	<node id="-15778" lat="65.7863999975" lon="12.2132722239">
		<tag k="name" v="Kirstiøya" />
		<tag k="place" v="islet" />
		<tag k="ssr:stedsnr" v="16667" />
	</node>
	<node id="-15777" lat="65.9544388936" lon="12.4047972137">
		<tag k="name" v="Valløya" />
		<tag k="place" v="island" />
		<tag k="ssr:stedsnr" v="16264" />
	</node>
	<node id="-15776" lat="65.9644111075" lon="12.4734694422">
		<tag k="name" v="Stokkasjøen" />
		<tag k="natural" v="beach" />
		<tag k="place" v="locality" />
		<tag k="ssr:stedsnr" v="16236" />
	</node>
	<node id="-15774" lat="65.8421388926" lon="12.4048222246">
		<tag k="name" v="Møystranda" />
		<tag k="natural" v="beach" />
		<tag k="place" v="locality" />
		<tag k="ssr:stedsnr" v="15487" />
	</node>
	<node id="-15773" lat="65.8567583372" lon="12.4260166609">
		<tag k="name" v="Sundåla" />
		<tag k="natural" v="strait" />
		<tag k="ssr:stedsnr" v="15478" />
	</node>
	<node id="-15772" lat="65.8548722203" lon="12.5202277823">
		<tag k="name" v="Risøya" />
		<tag k="place" v="islet" />
		<tag k="ssr:stedsnr" v="15473" />
	</node>
	<node id="-15771" lat="65.8690583326" lon="12.5082972235">
		<tag k="alt_name" v="Vatningsholmen" />
		<tag k="name" v="Vasstingsholmen" />
		<tag k="place" v="islet" />
		<tag k="ssr:stedsnr" v="15461" />
	</node>
	<node id="-15769" lat="65.8759833309" lon="12.5171638923">
		<tag k="fixme" v="multiple name tags, choose one and add the other to alt_name" />
		<tag k="name" v="Verineset;Verøyneset" />
		<tag k="natural" v="cape" />
		<tag k="ssr:stedsnr" v="15434" />
	</node>
	<node id="-15768" lat="65.8641083339" lon="12.2426694479">
		<tag k="alt_name" v="Kvithamran" />
		<tag k="name" v="Kvithammaren" />
		<tag k="place" v="islet" />
		<tag k="ssr:stedsnr" v="15432" />
	</node>
	<node id="-15767" lat="65.8927999976" lon="12.4457138964">
		<tag k="name" v="Einangsholmen" />
		<tag k="place" v="islet" />
		<tag k="ssr:stedsnr" v="15428" />
	</node>
	<node id="-15766" lat="65.898605552" lon="12.2642999979">
		<tag k="fixme" v="consider seamark:type=rock or natural=shoal" />
		<tag k="name" v="Kvalskjæran" />
		<tag k="place" v="islet" />
		<tag k="ssr:stedsnr" v="15399" />
	</node>
	<node id="-15761" lat="65.708800003" lon="12.3000583288">
		<tag k="name" v="Skjelvtaren" />
		<tag k="natural" v="shoal" />
		<tag k="place" v="locality" />
		<tag k="ssr:stedsnr" v="15236" />
	</node>
	<node id="-15760" lat="65.9112666667" lon="12.3293527712">
		<tag k="fixme" v="consider seamark:type=rock or natural=shoal" />
		<tag k="name" v="Tennskjæret" />
		<tag k="place" v="islet" />
		<tag k="ssr:stedsnr" v="15385" />
	</node>
	<node id="-15759" lat="65.9230861125" lon="12.4272194544">
		<tag k="alt_name" v="Søvika" />
		<tag k="name" v="Søvikvågen" />
		<tag k="natural" v="bay" />
		<tag k="ssr:stedsnr" v="15373" />
	</node>
	<node id="-15758" lat="65.9278638901" lon="12.6365361039">
		<tag k="alt_name" v="Hansholmgrunnen" />
		<tag k="name" v="Hansholmgrunna" />
		<tag k="natural" v="shoal" />
		<tag k="place" v="locality" />
		<tag k="ssr:stedsnr" v="15364" />
	</node>
	<node id="-15754" lat="65.7974694444" lon="12.518513887">
		<tag k="alt_name" v="Troholman, s;Søndre Troholman" />
		<tag k="name" v="Sørtroholmen" />
		<tag k="place" v="islet" />
		<tag k="ssr:stedsnr" v="15032" />
	</node>
	<node id="-15752" lat="65.7819583364" lon="12.2341499928">
		<tag k="name" v="Klubbholmen" />
		<tag k="place" v="islet" />
		<tag k="ssr:stedsnr" v="15013" />
	</node>
	<node id="-15729" lat="65.8724444438" lon="12.6040638945">
		<tag k="name" v="Hestholmen" />
		<tag k="natural" v="cape" />
		<tag k="ssr:stedsnr" v="967062" />
	</node>
	<node id="-15713" lat="65.7919472212" lon="12.3118527776">
		<tag k="name" v="Bogtarskolten" />
		<tag k="natural" v="shoal" />
		<tag k="place" v="locality" />
		<tag k="ssr:stedsnr" v="875323" />
	</node>
	<node id="-15712" lat="65.7388583295" lon="12.2378416557">
		<tag k="fixme" v="consider seamark:type=rock or natural=shoal" />
		<tag k="name" v="Ytre Kalvan" />
		<tag k="place" v="islet" />
		<tag k="ssr:stedsnr" v="875318" />
	</node>
	<node id="-15709" lat="65.7377888882" lon="12.3785000093">
		<tag k="name" v="Leiholmen" />
		<tag k="place" v="islet" />
		<tag k="ssr:stedsnr" v="865235" />
	</node>
	<node id="-15708" lat="65.7494972192" lon="12.2458944489">
		<tag k="name" v="Storramnøya" />
		<tag k="place" v="islet" />
		<tag k="ssr:stedsnr" v="865231" />
	</node>
	<node id="-15701" lat="65.8216527816" lon="12.4571611142">
		<tag k="name" v="Røssøyodden" />
		<tag k="natural" v="cape" />
		<tag k="ssr:stedsnr" v="944643" />
	</node>
	<node id="-15700" lat="65.825133335" lon="12.457827783">
		<tag k="name" v="Sør-Storvika" />
		<tag k="natural" v="bay" />
		<tag k="ssr:stedsnr" v="944631" />
	</node>
	<node id="-15695" lat="65.9917916669" lon="12.6299666753">
		<tag k="name" v="Storøybukta" />
		<tag k="natural" v="bay" />
		<tag k="ssr:stedsnr" v="944486" />
	</node>
	<node id="-15693" lat="65.8290555586" lon="12.4753583416">
		<tag k="name" v="Storholmen" />
		<tag k="place" v="islet" />
		<tag k="ssr:stedsnr" v="944334" />
	</node>
	<node id="-15688" lat="66.0216916688" lon="12.6227055455">
		<tag k="name" v="Stamnesvika" />
		<tag k="natural" v="bay" />
		<tag k="ssr:stedsnr" v="944167" />
	</node>
	<node id="-15687" lat="65.8277777744" lon="12.4576138891">
		<tag k="name" v="Trangsundet" />
		<tag k="natural" v="strait" />
		<tag k="ssr:stedsnr" v="944119" />
	</node>
	<node id="-15678" lat="65.8547750041" lon="12.4627361188">
		<tag k="name" v="Eldhusgruva" />
		<tag k="natural" v="shoal" />
		<tag k="place" v="locality" />
		<tag k="ssr:stedsnr" v="943502" />
	</node>
	<node id="-15677" lat="65.8551750025" lon="12.5085499999">
		<tag k="fixme" v="consider seamark:type=rock or natural=shoal" />
		<tag k="name" v="Sørskjæret" />
		<tag k="place" v="islet" />
		<tag k="ssr:stedsnr" v="943501" />
	</node>
	<node id="-15673" lat="65.8117166701" lon="12.4959333261">
		<tag k="name" v="Pålholmen" />
		<tag k="place" v="islet" />
		<tag k="ssr:stedsnr" v="942906" />
	</node>
	<node id="-15672" lat="66.0246833308" lon="12.6841222202">
		<tag k="name" v="Kålvika" />
		<tag k="natural" v="bay" />
		<tag k="ssr:stedsnr" v="941762" />
	</node>
	<node id="-15671" lat="66.0261388887" lon="12.6844666763">
		<tag k="fixme" v="consider seamark:type=rock or natural=shoal" />
		<tag k="name" v="Karibroka" />
		<tag k="place" v="islet" />
		<tag k="ssr:stedsnr" v="941757" />
	</node>
	<node id="-15668" lat="65.8051305573" lon="12.2921611213">
		<tag k="fixme" v="consider seamark:type=rock or natural=shoal" />
		<tag k="name" v="Litle Gryta" />
		<tag k="place" v="islet" />
		<tag k="ssr:stedsnr" v="936293" />
	</node>
	<node id="-15667" lat="66.0007638858" lon="12.6733083367">
		<tag k="fixme" v="consider seamark:type=rock or natural=shoal" />
		<tag k="name" v="Lommen" />
		<tag k="place" v="islet" />
		<tag k="ssr:stedsnr" v="936234" />
	</node>
	<node id="-15665" lat="65.8451138916" lon="12.4975472307">
		<tag k="name" v="Neset" />
		<tag k="natural" v="cape" />
		<tag k="ssr:stedsnr" v="935679" />
	</node>
	<node id="-15664" lat="65.8827083337" lon="12.3483722319">
		<tag k="fixme" v="consider seamark:type=rock or natural=shoal" />
		<tag k="name" v="Valøyskjæret" />
		<tag k="place" v="islet" />
		<tag k="ssr:stedsnr" v="935667" />
	</node>
	<node id="-15659" lat="65.8475694483" lon="12.4947694436">
		<tag k="name" v="Rundvika" />
		<tag k="natural" v="bay" />
		<tag k="ssr:stedsnr" v="822516" />
	</node>
	<node id="-15658" lat="65.7915777776" lon="12.4927972195">
		<tag k="name" v="Kjerkholmen" />
		<tag k="place" v="islet" />
		<tag k="ssr:stedsnr" v="821903" />
	</node>
	<node id="-15652" lat="65.8753722213" lon="12.1597194539">
		<tag k="name" v="Korsholmen" />
		<tag k="place" v="islet" />
		<tag k="ssr:stedsnr" v="805573" />
	</node>
	<node id="-15651" lat="65.8707444413" lon="12.1653444392">
		<tag k="name" v="Tjuvholmen" />
		<tag k="place" v="islet" />
		<tag k="ssr:stedsnr" v="804572" />
	</node>
	<node id="-15650" lat="65.9220722182" lon="12.5984555488">
		<tag k="name" v="Rakneset" />
		<tag k="natural" v="cape" />
		<tag k="ssr:stedsnr" v="804375" />
	</node>
	<node id="-15649" lat="65.9269027764" lon="12.3733972322">
		<tag k="alt_name" v="Sørøyholmen, nordre" />
		<tag k="fixme" v="multiple name tags, choose one and add the other to alt_name" />
		<tag k="name" v="Nordholmen;Nordre Sørøyholmen" />
		<tag k="place" v="islet" />
		<tag k="ssr:stedsnr" v="804358" />
	</node>
	<node id="-15648" lat="65.7980277737" lon="12.560372212">
		<tag k="name" v="Flatøyneset" />
		<tag k="natural" v="cape" />
		<tag k="ssr:stedsnr" v="804015" />
	</node>
	<node id="-15647" lat="66.0160222224" lon="12.7561583286">
		<tag k="name" v="Ytre Blåbærvika" />
		<tag k="natural" v="bay" />
		<tag k="ssr:stedsnr" v="804012" />
	</node>
	<node id="-15645" lat="66.0207694405" lon="12.6399749918">
		<tag k="name" v="Sandnesvågen" />
		<tag k="natural" v="bay" />
		<tag k="ssr:stedsnr" v="926893" />
	</node>
	<node id="-15643" lat="65.7961111107" lon="12.1899750035">
		<tag k="fixme" v="consider seamark:type=rock or natural=shoal" />
		<tag k="name" v="Olderskjæran" />
		<tag k="place" v="islet" />
		<tag k="ssr:stedsnr" v="926711" />
	</node>
	<node id="-15642" lat="65.8119194432" lon="12.2106555485">
		<tag k="name" v="Sørlangøya" />
		<tag k="place" v="islet" />
		<tag k="ssr:stedsnr" v="926703" />
	</node>
	<node id="-15641" lat="65.9988777793" lon="12.6880499903">
		<tag k="name" v="Tortenvika" />
		<tag k="natural" v="bay" />
		<tag k="ssr:stedsnr" v="926626" />
	</node>
	<node id="-15637" lat="65.8475722179" lon="12.4625361102">
		<tag k="name" v="Stamneset" />
		<tag k="natural" v="cape" />
		<tag k="ssr:stedsnr" v="926429" />
	</node>
	<node id="-15636" lat="65.8384666661" lon="12.2118444369">
		<tag k="name" v="Langøya" />
		<tag k="place" v="islet" />
		<tag k="ssr:stedsnr" v="926420" />
	</node>
	<node id="-15635" lat="65.8600888871" lon="12.503697232">
		<tag k="fixme" v="multiple name tags, choose one and add the other to alt_name" />
		<tag k="name" v="Svinestangen;Tangen" />
		<tag k="natural" v="cape" />
		<tag k="ssr:stedsnr" v="926409" />
	</node>
	<node id="-15634" lat="65.8620055585" lon="12.6025805453">
		<tag k="name" v="Bærøysundet" />
		<tag k="natural" v="strait" />
		<tag k="ssr:stedsnr" v="926408" />
	</node>
	<node id="-15633" lat="65.8665111106" lon="12.597708332">
		<tag k="name" v="Haltøya" />
		<tag k="place" v="island" />
		<tag k="ssr:stedsnr" v="926397" />
	</node>
	<node id="-15630" lat="65.9195416624" lon="12.3553972257">
		<tag k="name" v="Sørøya" />
		<tag k="natural" v="cape" />
		<tag k="ssr:stedsnr" v="926324" />
	</node>
	<node id="-15625" lat="65.7538500043" lon="12.2497388845">
		<tag k="alt_name" v="Ramnøya, l" />
		<tag k="name" v="Litle Ramnøya" />
		<tag k="place" v="islet" />
		<tag k="ssr:stedsnr" v="926076" />
	</node>
	<node id="-15621" lat="65.7987638843" lon="12.3250000072">
		<tag k="fixme" v="consider seamark:type=rock or natural=shoal" />
		<tag k="name" v="Bogskjæran" />
		<tag k="place" v="islet" />
		<tag k="ssr:stedsnr" v="926017" />
	</node>
	<node id="-15618" lat="65.7855055522" lon="12.2333666571">
		<tag k="alt_name" v="Valløya, yt" />
		<tag k="name" v="Ytre Valløya" />
		<tag k="place" v="islet" />
		<tag k="ssr:stedsnr" v="926005" />
	</node>
	<node id="-15617" lat="65.8289999966" lon="12.2122583333">
		<tag k="name" v="Lissgrunnværet" />
		<tag k="place" v="islet" />
		<tag k="ssr:stedsnr" v="925774" />
	</node>
	<node id="-15616" lat="65.8364138862" lon="12.159844455">
		<tag k="name" v="Moholmen" />
		<tag k="place" v="islet" />
		<tag k="ssr:stedsnr" v="925770" />
	</node>
	<node id="-15615" lat="65.8392222213" lon="12.1807694456">
		<tag k="fixme" v="consider seamark:type=rock or natural=shoal" />
		<tag k="name" v="Omnskjæret" />
		<tag k="place" v="islet" />
		<tag k="ssr:stedsnr" v="925549" />
	</node>
	<node id="-15613" lat="65.8707194412" lon="12.3454666656">
		<tag k="name" v="Bukkøya" />
		<tag k="place" v="islet" />
		<tag k="ssr:stedsnr" v="925437" />
	</node>
	<node id="-15611" lat="65.8942111097" lon="12.6075499928">
		<tag k="name" v="Storgrunna" />
		<tag k="natural" v="shoal" />
		<tag k="place" v="locality" />
		<tag k="ssr:stedsnr" v="925415" />
	</node>
	<node id="-15604" lat="66.0206611094" lon="12.6147638995">
		<tag k="name" v="Klokkervika" />
		<tag k="natural" v="bay" />
		<tag k="ssr:stedsnr" v="762922" />
	</node>
	<node id="-15602" lat="65.9395388869" lon="12.4498999922">
		<tag k="name" v="Flesa" />
		<tag k="natural" v="cape" />
		<tag k="ssr:stedsnr" v="762688" />
	</node>
	<node id="-15595" lat="65.8511805515" lon="12.4994527834">
		<tag k="name" v="Svinesvågen" />
		<tag k="natural" v="bay" />
		<tag k="ssr:stedsnr" v="761548" />
	</node>
	<node id="-15590" lat="65.8349305546" lon="12.2174277777">
		<tag k="name" v="Buøysundet" />
		<tag k="natural" v="strait" />
		<tag k="ssr:stedsnr" v="759064" />
	</node>
	<node id="-15586" lat="65.8565638891" lon="12.2595305637">
		<tag k="name" v="Lislslotterøya" />
		<tag k="place" v="islet" />
		<tag k="ssr:stedsnr" v="908629" />
	</node>
	<node id="-15583" lat="65.8986027784" lon="12.5219750087">
		<tag k="name" v="Båtneset" />
		<tag k="natural" v="cape" />
		<tag k="ssr:stedsnr" v="744317" />
	</node>
	<node id="-15582" lat="65.7473999988" lon="12.3980138797">
		<tag k="name" v="Hansholmen" />
		<tag k="place" v="islet" />
		<tag k="ssr:stedsnr" v="744155" />
	</node>
	<node id="-15580" lat="65.8216027756" lon="12.1830166578">
		<tag k="fixme" v="consider seamark:type=rock or natural=shoal" />
		<tag k="name" v="Grunnværnavaren" />
		<tag k="place" v="islet" />
		<tag k="ssr:stedsnr" v="743762" />
	</node>
	<node id="-15579" lat="65.8236527799" lon="12.1576861112">
		<tag k="fixme" v="consider seamark:type=rock or natural=shoal" />
		<tag k="name" v="Skarvskjæret" />
		<tag k="place" v="islet" />
		<tag k="ssr:stedsnr" v="743760" />
	</node>
	<node id="-15578" lat="65.7977388907" lon="12.2091722194">
		<tag k="name" v="Kjelsgardsøya" />
		<tag k="place" v="islet" />
		<tag k="ssr:stedsnr" v="743712" />
	</node>
	<node id="-15577" lat="65.8078916638" lon="12.2436249983">
		<tag k="name" v="Segeløya" />
		<tag k="place" v="islet" />
		<tag k="ssr:stedsnr" v="743508" />
	</node>
	<node id="-15576" lat="65.9033388916" lon="12.2740000084">
		<tag k="fixme" v="multiple name tags, choose one and add the other to alt_name" />
		<tag k="name" v="Bukkholmen;Teistholmen" />
		<tag k="place" v="islet" />
		<tag k="ssr:stedsnr" v="743475" />
	</node>
	<node id="-15575" lat="65.8591555535" lon="12.323405564">
		<tag k="name" v="Buøya" />
		<tag k="place" v="island" />
		<tag k="ssr:stedsnr" v="743474" />
	</node>
	<node id="-15574" lat="65.84068056" lon="12.2950611059">
		<tag k="name" v="Lammøya" />
		<tag k="place" v="islet" />
		<tag k="ssr:stedsnr" v="743473" />
	</node>
	<node id="-15573" lat="65.8483333356" lon="12.4349666581">
		<tag k="name" v="Trøøya" />
		<tag k="place" v="islet" />
		<tag k="ssr:stedsnr" v="743460" />
	</node>
	<node id="-15571" lat="65.8311777818" lon="12.2238333231">
		<tag k="name" v="Lyngholmen" />
		<tag k="place" v="islet" />
		<tag k="ssr:stedsnr" v="743453" />
	</node>
	<node id="-15569" lat="65.895766671" lon="12.5280666744">
		<tag k="name" v="Hamnesvalen" />
		<tag k="natural" v="bay" />
		<tag k="ssr:stedsnr" v="743405" />
	</node>
	<node id="-15566" lat="65.9074111145" lon="12.2793166562">
		<tag k="alt_name" v="Slotterøy" />
		<tag k="name" v="Slåtterøya" />
		<tag k="place" v="islet" />
		<tag k="ssr:stedsnr" v="743377" />
	</node>
	<node id="-15563" lat="65.9173750035" lon="12.2970055656">
		<tag k="name" v="Åkerøysundet" />
		<tag k="natural" v="strait" />
		<tag k="ssr:stedsnr" v="743359" />
	</node>
	<node id="-15558" lat="65.9709666642" lon="12.4803861047">
		<tag k="name" v="Stokkavika" />
		<tag k="natural" v="bay" />
		<tag k="ssr:stedsnr" v="743307" />
	</node>
	<node id="-15556" lat="66.0091888863" lon="12.7162027862">
		<tag k="name" v="Kannelvika" />
		<tag k="natural" v="bay" />
		<tag k="ssr:stedsnr" v="725161" />
	</node>
	<node id="-15551" lat="65.8569222262" lon="12.5111138832">
		<tag k="fixme" v="consider seamark:type=rock or natural=shoal" />
		<tag k="name" v="Nordskjæret" />
		<tag k="place" v="islet" />
		<tag k="ssr:stedsnr" v="700519" />
	</node>
	<node id="-15550" lat="65.8557027797" lon="12.5052000018">
		<tag k="name" v="Storvika" />
		<tag k="natural" v="bay" />
		<tag k="ssr:stedsnr" v="700516" />
	</node>
	<node id="-15538" lat="65.8994111098" lon="12.4011722164">
		<tag k="name" v="Belsvågen" />
		<tag k="natural" v="bay" />
		<tag k="ssr:stedsnr" v="883699" />
	</node>
	<node id="-15531" lat="65.8504611117" lon="12.4215638974">
		<tag k="fixme" v="consider seamark:type=rock or natural=shoal" />
		<tag k="name" v="Trettarskjæret" />
		<tag k="place" v="islet" />
		<tag k="ssr:stedsnr" v="883544" />
	</node>
	<node id="-15529" lat="65.8162083306" lon="12.1914805554">
		<tag k="name" v="Laukholmen" />
		<tag k="place" v="islet" />
		<tag k="ssr:stedsnr" v="683413" />
	</node>
	<node id="-15527" lat="65.9092861104" lon="12.3157527668">
		<tag k="name" v="Langdragsodden" />
		<tag k="natural" v="cape" />
		<tag k="ssr:stedsnr" v="683318" />
	</node>
	<node id="-15526" lat="65.922613893" lon="12.5974388792">
		<tag k="name" v="Geitvika" />
		<tag k="natural" v="bay" />
		<tag k="ssr:stedsnr" v="683310" />
	</node>
	<node id="-15524" lat="65.7965500031" lon="12.271011113">
		<tag k="name" v="Sledeholmen" />
		<tag k="place" v="islet" />
		<tag k="ssr:stedsnr" v="683011" />
	</node>
	<node id="-15523" lat="65.7915583299" lon="12.4861999945">
		<tag k="name" v="Mjånesan" />
		<tag k="natural" v="cape" />
		<tag k="ssr:stedsnr" v="683003" />
	</node>
	<node id="-15521" lat="65.8609500005" lon="12.3063722155">
		<tag k="bay" v="fjord" />
		<tag k="name" v="Blomsøyråsa" />
		<tag k="natural" v="bay" />
		<tag k="ssr:stedsnr" v="682424" />
	</node>
	<node id="-15519" lat="65.8972388856" lon="12.3926416557">
		<tag k="name" v="Strandsjøen" />
		<tag k="natural" v="bay" />
		<tag k="ssr:stedsnr" v="883077" />
	</node>
	<node id="-15517" lat="65.9177472253" lon="12.3685916641">
		<tag k="alt_name" v="Søndre Sørøyholmen" />
		<tag k="name" v="Søre Sørøyholmen" />
		<tag k="place" v="islet" />
		<tag k="ssr:stedsnr" v="882826" />
	</node>
	<node id="-15515" lat="66.0229722199" lon="12.6919194337">
		<tag k="fixme" v="consider seamark:type=rock or natural=shoal" />
		<tag k="name" v="Kobbskjæret" />
		<tag k="place" v="islet" />
		<tag k="ssr:stedsnr" v="880790" />
	</node>
	<node id="-15513" lat="65.8386111114" lon="12.4254388824">
		<tag k="name" v="Moseholmen" />
		<tag k="place" v="islet" />
		<tag k="ssr:stedsnr" v="664462" />
	</node>
	<node id="-15506" lat="65.8560638882" lon="12.3557916603">
		<tag k="fixme" v="consider seamark:type=rock or natural=shoal" />
		<tag k="name" v="Storstrandskjæret" />
		<tag k="place" v="islet" />
		<tag k="ssr:stedsnr" v="631655" />
	</node>
	<node id="-15504" lat="65.967797222" lon="12.4766249978">
		<tag k="name" v="Lislvika" />
		<tag k="natural" v="bay" />
		<tag k="ssr:stedsnr" v="727090" />
	</node>
	<node id="-15502" lat="65.8607055557" lon="12.5960805453">
		<tag k="name" v="Vikvollodden" />
		<tag k="natural" v="cape" />
		<tag k="ssr:stedsnr" v="724097" />
	</node>
	<node id="-15500" lat="65.8562916664" lon="12.6100638974">
		<tag k="name" v="Gjerdvika" />
		<tag k="natural" v="bay" />
		<tag k="ssr:stedsnr" v="724085" />
	</node>
	<node id="-15491" lat="66.0218861073" lon="12.6288833258">
		<tag k="name" v="Karivika" />
		<tag k="natural" v="bay" />
		<tag k="ssr:stedsnr" v="580137" />
	</node>
	<node id="-15490" lat="65.9079333355" lon="12.3409305633">
		<tag k="name" v="Sørøyflaget" />
		<tag k="natural" v="strait" />
		<tag k="ssr:stedsnr" v="707377" />
	</node>
	<node id="-15488" lat="65.8554527738" lon="12.1615500089">
		<tag k="fixme" v="multiple name tags, choose one and add the other to alt_name" />
		<tag k="name" v="Vardholmen;Værholmen" />
		<tag k="place" v="islet" />
		<tag k="ssr:stedsnr" v="561518" />
	</node>
	<node id="-15487" lat="65.8869416668" lon="12.3125277852">
		<tag k="name" v="Eipholmen" />
		<tag k="old_name" v="Eggholmen" />
		<tag k="place" v="islet" />
		<tag k="ssr:stedsnr" v="561374" />
	</node>
	<node id="-15484" lat="65.8418666646" lon="12.3155944547">
		<tag k="name" v="Haukøya" />
		<tag k="place" v="islet" />
		<tag k="ssr:stedsnr" v="561466" />
	</node>
	<node id="-15483" lat="65.8214333355" lon="12.2288999982">
		<tag k="name" v="Josefholman" />
		<tag k="place" v="islet" />
		<tag k="ssr:stedsnr" v="561460" />
	</node>
	<node id="-15482" lat="65.8292888863" lon="12.2835499918">
		<tag k="name" v="Draggrunna" />
		<tag k="natural" v="shoal" />
		<tag k="place" v="locality" />
		<tag k="ssr:stedsnr" v="561459" />
	</node>
	<node id="-15481" lat="65.8232999995" lon="12.2982694377">
		<tag k="fixme" v="consider seamark:type=rock or natural=shoal" />
		<tag k="name" v="Galtskjæret" />
		<tag k="place" v="islet" />
		<tag k="ssr:stedsnr" v="561457" />
	</node>
	<node id="-15480" lat="65.8537638854" lon="12.4723861154">
		<tag k="alt_name" v="Gjeldmarkodden" />
		<tag k="name" v="Gjeldtmarkodden" />
		<tag k="natural" v="cape" />
		<tag k="ssr:stedsnr" v="561426" />
	</node>
	<node id="-15477" lat="65.7757916706" lon="12.2626249972">
		<tag k="name" v="Buholmen" />
		<tag k="place" v="islet" />
		<tag k="ssr:stedsnr" v="561063" />
	</node>
	<node id="-15476" lat="65.7854500023" lon="12.2779111081">
		<tag k="name" v="Alteret" />
		<tag k="place" v="islet" />
		<tag k="ssr:stedsnr" v="561056" />
	</node>
	<node id="-15474" lat="65.7953277733" lon="12.4540833379">
		<tag k="fixme" v="consider seamark:type=rock or natural=shoal" />
		<tag k="name" v="Ervikskjæret" />
		<tag k="place" v="islet" />
		<tag k="ssr:stedsnr" v="561003" />
	</node>
	<node id="-15471" lat="65.9085472181" lon="12.3900583262">
		<tag k="name" v="Kårholmsvika" />
		<tag k="natural" v="bay" />
		<tag k="ssr:stedsnr" v="701692" />
	</node>
	<node id="-15470" lat="65.8254638849" lon="12.4530722312">
		<tag k="fixme" v="consider seamark:type=rock or natural=shoal" />
		<tag k="name" v="Fløskjæret" />
		<tag k="place" v="islet" />
		<tag k="ssr:stedsnr" v="701670" />
	</node>
	<node id="-15466" lat="65.7825333362" lon="12.4875666588">
		<tag k="name" v="Ørbogen" />
		<tag k="natural" v="bay" />
		<tag k="ssr:stedsnr" v="700873" />
	</node>
	<node id="-15464" lat="65.8715194431" lon="12.4537833242">
		<tag k="name" v="Gammelgårdssjøen" />
		<tag k="natural" v="bay" />
		<tag k="ssr:stedsnr" v="700490" />
	</node>
	<node id="-15461" lat="65.831013892" lon="12.3047472212">
		<tag k="name" v="Andersholmen" />
		<tag k="place" v="islet" />
		<tag k="ssr:stedsnr" v="692627" />
	</node>
	<node id="-15455" lat="65.8050472236" lon="12.2169527725">
		<tag k="name" v="Landfastøya" />
		<tag k="place" v="islet" />
		<tag k="ssr:stedsnr" v="683700" />
	</node>
	<node id="-15454" lat="65.8306583329" lon="12.467352787">
		<tag k="name" v="Røssøysundet" />
		<tag k="natural" v="strait" />
		<tag k="ssr:stedsnr" v="683450" />
	</node>
	<node id="-15453" lat="65.8392500022" lon="12.3116250067">
		<tag k="alt_name" v="Haukøya, l" />
		<tag k="name" v="Litle Haukøya" />
		<tag k="place" v="islet" />
		<tag k="ssr:stedsnr" v="683437" />
	</node>
	<node id="-15452" lat="65.853836108" lon="12.4026888855">
		<tag k="name" v="Storvollhalsen" />
		<tag k="natural" v="cape" />
		<tag k="ssr:stedsnr" v="683398" />
	</node>
	<node id="-15451" lat="65.8568555568" lon="12.4215138937">
		<tag k="fixme" v="multiple name tags, choose one and add the other to alt_name" />
		<tag k="name" v="Knausholmen;Knøskholmen" />
		<tag k="place" v="islet" />
		<tag k="ssr:stedsnr" v="683397" />
	</node>
	<node id="-15450" lat="65.8584222251" lon="12.4617611085">
		<tag k="name" v="Klipvågen" />
		<tag k="natural" v="bay" />
		<tag k="ssr:stedsnr" v="683393" />
	</node>
	<node id="-15443" lat="65.7462111122" lon="12.3920416756">
		<tag k="name" v="Sørvalan" />
		<tag k="natural" v="strait" />
		<tag k="ssr:stedsnr" v="683193" />
	</node>
	<node id="-15442" lat="65.8686083301" lon="12.5180250016">
		<tag k="alt_name" v="Skausskjeran" />
		<tag k="fixme" v="multiple name tags, choose one and add the other to alt_name; consider seamark:type=rock or natural=shoal" />
		<tag k="name" v="Skanskjæret;Skautskjeret" />
		<tag k="place" v="islet" />
		<tag k="ssr:stedsnr" v="683384" />
	</node>
	<node id="-15440" lat="65.7676666697" lon="12.398722233">
		<tag k="name" v="Brastadneset" />
		<tag k="natural" v="cape" />
		<tag k="ssr:stedsnr" v="683040" />
	</node>
	<node id="-15439" lat="65.764199999" lon="12.4372194548">
		<tag k="name" v="Myklebostadvika" />
		<tag k="natural" v="bay" />
		<tag k="ssr:stedsnr" v="683036" />
	</node>
	<node id="-15438" lat="65.8029083365" lon="12.5188444382">
		<tag k="alt_name" v="Troholmen, nordre;Nordtroholmen" />
		<tag k="name" v="Nordre Troholmen" />
		<tag k="place" v="islet" />
		<tag k="ssr:stedsnr" v="683021" />
	</node>
	<node id="-15437" lat="65.8364527743" lon="12.1714444414">
		<tag k="name" v="Lyngbergsøya" />
		<tag k="place" v="islet" />
		<tag k="ssr:stedsnr" v="682787" />
	</node>
	<node id="-15436" lat="65.8499055565" lon="12.2055333357">
		<tag k="name" v="Kalvøyholman" />
		<tag k="place" v="islet" />
		<tag k="ssr:stedsnr" v="682581" />
	</node>
	<node id="-15435" lat="65.8895861089" lon="12.3855305627">
		<tag k="alt_name" v="Revsneset" />
		<tag k="name" v="Refsneset" />
		<tag k="natural" v="cape" />
		<tag k="ssr:stedsnr" v="682402" />
	</node>
	<node id="-15434" lat="65.9255194435" lon="12.2868027845">
		<tag k="fixme" v="multiple name tags, choose one and add the other to alt_name" />
		<tag k="name" v="Buøya;Nordbuøya" />
		<tag k="place" v="island" />
		<tag k="ssr:stedsnr" v="682487" />
	</node>
	<node id="-15430" lat="65.823247219" lon="12.1937916709">
		<tag k="name" v="Storgrunnværet" />
		<tag k="place" v="island" />
		<tag k="ssr:stedsnr" v="501718" />
	</node>
	<node id="-15429" lat="65.8627638851" lon="12.1107027839">
		<tag k="name" v="Medfjordholman" />
		<tag k="place" v="islet" />
		<tag k="ssr:stedsnr" v="501519" />
	</node>
	<node id="-15427" lat="65.8224305511" lon="12.4612750062">
		<tag k="name" v="Kjerksundet" />
		<tag k="natural" v="strait" />
		<tag k="ssr:stedsnr" v="501467" />
	</node>
	<node id="-15426" lat="65.8075416689" lon="12.4124999907">
		<tag k="name" v="Revet" />
		<tag k="natural" v="shoal" />
		<tag k="place" v="locality" />
		<tag k="ssr:stedsnr" v="501462" />
	</node>
	<node id="-15421" lat="65.7844916647" lon="12.5604722198">
		<tag k="name" v="Kvalholmen" />
		<tag k="place" v="islet" />
		<tag k="ssr:stedsnr" v="501067" />
	</node>
	<node id="-15420" lat="65.7684972264" lon="12.2632777739">
		<tag k="name" v="Bukkøya" />
		<tag k="place" v="islet" />
		<tag k="ssr:stedsnr" v="501063" />
	</node>
	<node id="-15417" lat="65.8859833362" lon="12.4042944514">
		<tag k="fixme" v="multiple name tags, choose one and add the other to alt_name" />
		<tag k="name" v="Kringelvika;Krongelvika" />
		<tag k="natural" v="bay" />
		<tag k="ssr:stedsnr" v="500478" />
	</node>
	<node id="-15416" lat="65.8880222254" lon="12.420286103">
		<tag k="name" v="Brautholmen" />
		<tag k="place" v="islet" />
		<tag k="ssr:stedsnr" v="500473" />
	</node>
	<node id="-15414" lat="65.8598333323" lon="12.2792694478">
		<tag k="name" v="Bukkøya" />
		<tag k="place" v="islet" />
		<tag k="ssr:stedsnr" v="500545" />
	</node>
	<node id="-15413" lat="65.8519499998" lon="12.4265361018">
		<tag k="name" v="Rundskrivarholmen" />
		<tag k="place" v="islet" />
		<tag k="ssr:stedsnr" v="500525" />
	</node>
	<node id="-15409" lat="65.8636222234" lon="12.6191388938">
		<tag k="name" v="Fårnesvalen" />
		<tag k="natural" v="bay" />
		<tag k="ssr:stedsnr" v="481119" />
	</node>
	<node id="-15408" lat="65.8626194483" lon="12.6077861171">
		<tag k="name" v="Aurstrandholmen" />
		<tag k="place" v="islet" />
		<tag k="ssr:stedsnr" v="481117" />
	</node>
	<node id="-15399" lat="65.8364888914" lon="12.4229388805">
		<tag k="name" v="Måsholmen" />
		<tag k="place" v="islet" />
		<tag k="ssr:stedsnr" v="664478" />
	</node>
	<node id="-15398" lat="65.8278722258" lon="12.4760750101">
		<tag k="name" v="Innerholmen" />
		<tag k="place" v="islet" />
		<tag k="ssr:stedsnr" v="458303" />
	</node>
	<node id="-15396" lat="65.9213722196" lon="12.4282277768">
		<tag k="name" v="Jektvika" />
		<tag k="natural" v="bay" />
		<tag k="ssr:stedsnr" v="663004" />
	</node>
	<node id="-15395" lat="65.8067861074" lon="12.5400888834">
		<tag k="name" v="Haltøyneset" />
		<tag k="natural" v="cape" />
		<tag k="ssr:stedsnr" v="663096" />
	</node>
	<node id="-15392" lat="66.0009777755" lon="12.545991656">
		<tag k="name" v="Urvika" />
		<tag k="natural" v="bay" />
		<tag k="ssr:stedsnr" v="661130" />
	</node>
	<node id="-15391" lat="65.9803416701" lon="12.6180916701">
		<tag k="name" v="Botn" />
		<tag k="natural" v="bay" />
		<tag k="ssr:stedsnr" v="450242" />
	</node>
	<node id="-15390" lat="65.7963194466" lon="12.4058472171">
		<tag k="name" v="Sørskolten" />
		<tag k="natural" v="shoal" />
		<tag k="place" v="locality" />
		<tag k="ssr:stedsnr" v="450303" />
	</node>
	<node id="-15379" lat="65.8557722183" lon="12.4005499962">
		<tag k="name" v="Faksholmvalen" />
		<tag k="natural" v="strait" />
		<tag k="ssr:stedsnr" v="518442" />
	</node>
	<node id="-15373" lat="65.8523027768" lon="12.5111611043">
		<tag k="fixme" v="consider seamark:type=rock or natural=shoal" />
		<tag k="name" v="Risøyken" />
		<tag k="place" v="islet" />
		<tag k="ssr:stedsnr" v="421004" />
	</node>
	<node id="-15372" lat="65.8082472199" lon="12.1851388883">
		<tag k="name" v="Langtaren" />
		<tag k="natural" v="shoal" />
		<tag k="place" v="locality" />
		<tag k="ssr:stedsnr" v="511318" />
	</node>
	<node id="-15371" lat="65.7339638905" lon="12.3445527824">
		<tag k="name" v="Stabben" />
		<tag k="place" v="islet" />
		<tag k="ssr:stedsnr" v="511315" />
	</node>
	<node id="-15368" lat="65.8678083298" lon="12.6141027764">
		<tag k="name" v="Skjåbergodden" />
		<tag k="natural" v="cape" />
		<tag k="ssr:stedsnr" v="299100" />
	</node>
	<node id="-15367" lat="65.8570166676" lon="12.6134388791">
		<tag k="name" v="Sørholmsundet" />
		<tag k="natural" v="strait" />
		<tag k="ssr:stedsnr" v="299086" />
	</node>
	<node id="-15364" lat="65.808233337" lon="12.5603222289">
		<tag k="name" v="Flatøysjøen" />
		<tag k="natural" v="beach" />
		<tag k="place" v="locality" />
		<tag k="ssr:stedsnr" v="299077" />
	</node>
	<node id="-15362" lat="65.8654055548" lon="12.6038638856">
		<tag k="name" v="Staulholmen" />
		<tag k="place" v="islet" />
		<tag k="ssr:stedsnr" v="299068" />
	</node>
	<node id="-15355" lat="65.9912305526" lon="12.6595666659">
		<tag k="name" v="Kolbeinvika" />
		<tag k="natural" v="bay" />
		<tag k="ssr:stedsnr" v="501611" />
	</node>
	<node id="-15352" lat="65.8142999962" lon="12.1895138907">
		<tag k="fixme" v="consider seamark:type=rock or natural=shoal" />
		<tag k="name" v="Åburdskjæret" />
		<tag k="place" v="islet" />
		<tag k="ssr:stedsnr" v="501700" />
	</node>
	<node id="-15351" lat="65.8136055573" lon="12.2204083238">
		<tag k="alt_name" v="Susenøya, nordre" />
		<tag k="name" v="Nordre Susenøya" />
		<tag k="place" v="islet" />
		<tag k="ssr:stedsnr" v="501447" />
	</node>
	<node id="-15350" lat="65.8343861071" lon="12.4871416716">
		<tag k="name" v="Kjerringstranda" />
		<tag k="natural" v="beach" />
		<tag k="place" v="locality" />
		<tag k="ssr:stedsnr" v="501442" />
	</node>
	<node id="-15349" lat="65.8451305576" lon="12.4142027701">
		<tag k="fixme" v="consider seamark:type=rock or natural=shoal" />
		<tag k="name" v="Tennskjæret" />
		<tag k="place" v="islet" />
		<tag k="ssr:stedsnr" v="501433" />
	</node>
	<node id="-15347" lat="65.737274997" lon="12.2369999896">
		<tag k="name" v="Kalvan" />
		<tag k="place" v="islet" />
		<tag k="ssr:stedsnr" v="501192" />
	</node>
	<node id="-15345" lat="65.7646611142" lon="12.2071777859">
		<tag k="name" v="Stor-Gulløya" />
		<tag k="place" v="islet" />
		<tag k="ssr:stedsnr" v="500726" />
	</node>
	<node id="-15340" lat="65.8402361119" lon="12.2028361041">
		<tag k="name" v="Kalvøya" />
		<tag k="place" v="islet" />
		<tag k="ssr:stedsnr" v="500590" />
	</node>
	<node id="-15338" lat="65.8958611147" lon="12.3956055574">
		<tag k="name" v="Alstahaugvågen" />
		<tag k="natural" v="bay" />
		<tag k="ssr:stedsnr" v="500444" />
	</node>
	<node id="-15336" lat="65.8967749986" lon="12.5025972231">
		<tag k="fixme" v="multiple name tags, choose one and add the other to alt_name; consider seamark:type=rock or natural=shoal" />
		<tag k="name" v="Gamskjæret;Garnskjæret" />
		<tag k="place" v="islet" />
		<tag k="ssr:stedsnr" v="500441" />
	</node>
	<node id="-15335" lat="65.8945333364" lon="12.3824138862">
		<tag k="name" v="Belsvågodden" />
		<tag k="natural" v="cape" />
		<tag k="ssr:stedsnr" v="500431" />
	</node>
	<node id="-15333" lat="65.9271527802" lon="12.3425472233">
		<tag k="name" v="Altra" />
		<tag k="place" v="island" />
		<tag k="ssr:stedsnr" v="500387" />
	</node>
	<node id="-15332" lat="65.9333250027" lon="12.2816861177">
		<tag k="bay" v="fjord" />
		<tag k="name" v="Alterfjorden" />
		<tag k="natural" v="bay" />
		<tag k="ssr:stedsnr" v="500375" />
	</node>
	<node id="-15331" lat="65.9495500009" lon="12.454675001">
		<tag k="alt_name" v="Litlskjeret;Lislskjeret" />
		<tag k="fixme" v="consider seamark:type=rock or natural=shoal" />
		<tag k="name" v="Litlskjæret" />
		<tag k="place" v="islet" />
		<tag k="ssr:stedsnr" v="500356" />
	</node>
	<node id="-15330" lat="65.9431972219" lon="12.434108326">
		<tag k="name" v="Vikholmen" />
		<tag k="place" v="islet" />
		<tag k="ssr:stedsnr" v="500355" />
	</node>
	<node id="-15329" lat="65.7342583342" lon="12.3438305606">
		<tag k="name" v="Jutholmen" />
		<tag k="place" v="islet" />
		<tag k="ssr:stedsnr" v="500240" />
	</node>
	<node id="-15318" lat="66.0136750003" lon="12.6628027725">
		<tag k="name" v="Pinvika" />
		<tag k="natural" v="bay" />
		<tag k="ssr:stedsnr" v="334704" />
	</node>
	<node id="-15316" lat="65.8230333359" lon="12.5764805625">
		<tag k="name" v="Tverrsundet" />
		<tag k="natural" v="bay" />
		<tag k="ssr:stedsnr" v="481095" />
	</node>
	<node id="-15314" lat="65.7945833339" lon="12.2554722242">
		<tag k="fixme" v="consider seamark:type=rock or natural=shoal" />
		<tag k="name" v="Skarvskjæret" />
		<tag k="place" v="islet" />
		<tag k="ssr:stedsnr" v="329315" />
	</node>
	<node id="-15306" lat="66.0348083338" lon="12.7143277841">
		<tag k="fixme" v="consider seamark:type=rock or natural=shoal" />
		<tag k="name" v="Skræingan" />
		<tag k="place" v="islet" />
		<tag k="ssr:stedsnr" v="300178" />
	</node>
	<node id="-15305" lat="65.8573805568" lon="12.2429527755">
		<tag k="name" v="Nordgråneset" />
		<tag k="natural" v="cape" />
		<tag k="ssr:stedsnr" v="299615" />
	</node>
	<node id="-15302" lat="66.0047111113" lon="12.5579305582">
		<tag k="name" v="Urodden" />
		<tag k="natural" v="cape" />
		<tag k="ssr:stedsnr" v="459941" />
	</node>
	<node id="-15298" lat="65.9254472245" lon="12.4470750024">
		<tag k="name" v="Svingen" />
		<tag k="natural" v="cape" />
		<tag k="ssr:stedsnr" v="459645" />
	</node>
	<node id="-15278" lat="65.8597055518" lon="12.5009944451">
		<tag k="name" v="Vakkersteinvika" />
		<tag k="natural" v="bay" />
		<tag k="ssr:stedsnr" v="458526" />
	</node>
	<node id="-15276" lat="65.8135361116" lon="12.4125416676">
		<tag k="fixme" v="consider seamark:type=rock or natural=shoal" />
		<tag k="name" v="Hønsskjæran" />
		<tag k="place" v="islet" />
		<tag k="ssr:stedsnr" v="458458" />
	</node>
	<node id="-15274" lat="65.745394442" lon="12.3725861017">
		<tag k="name" v="Korsnesflua" />
		<tag k="natural" v="shoal" />
		<tag k="place" v="locality" />
		<tag k="ssr:stedsnr" v="268315" />
	</node>
	<node id="-15270" lat="65.8812194411" lon="12.6221583428">
		<tag k="name" v="Nordodden" />
		<tag k="natural" v="cape" />
		<tag k="ssr:stedsnr" v="258460" />
	</node>
	<node id="-15269" lat="65.8245888862" lon="12.2248722253">
		<tag k="name" v="Trettøya" />
		<tag k="place" v="islet" />
		<tag k="ssr:stedsnr" v="258452" />
	</node>
	<node id="-15268" lat="65.8562222266" lon="12.3957611032">
		<tag k="name" v="Faksholmen" />
		<tag k="place" v="islet" />
		<tag k="ssr:stedsnr" v="258425" />
	</node>
	<node id="-15266" lat="65.8608055582" lon="12.4920277672">
		<tag k="fixme" v="consider seamark:type=rock or natural=shoal" />
		<tag k="name" v="Storskjæret" />
		<tag k="place" v="islet" />
		<tag k="ssr:stedsnr" v="258421" />
	</node>
	<node id="-15265" lat="65.8622861127" lon="12.5905749949">
		<tag k="fixme" v="multiple name tags, choose one and add the other to alt_name" />
		<tag k="loc_name" v="Trongvika" />
		<tag k="name" v="Tangvika;Trangvika" />
		<tag k="natural" v="bay" />
		<tag k="ssr:stedsnr" v="258419" />
	</node>
	<node id="-15264" lat="65.8604000032" lon="12.6123166615">
		<tag k="name" v="Bærøya" />
		<tag k="place" v="island" />
		<tag k="ssr:stedsnr" v="258417" />
	</node>
	<node id="-15262" lat="65.854097224" lon="12.2321277819">
		<tag k="name" v="Ørnholmen" />
		<tag k="place" v="islet" />
		<tag k="ssr:stedsnr" v="258411" />
	</node>
	<node id="-15261" lat="65.8676694438" lon="12.6259361029">
		<tag k="alt_name" v="Fårneset" />
		<tag k="name" v="Forneset" />
		<tag k="natural" v="cape" />
		<tag k="ssr:stedsnr" v="258407" />
	</node>
	<node id="-15260" lat="65.8550500035" lon="12.2547805464">
		<tag k="name" v="Slåtterøya" />
		<tag k="place" v="islet" />
		<tag k="ssr:stedsnr" v="258406" />
	</node>
	<node id="-15258" lat="65.9002111109" lon="12.3350333405">
		<tag k="name" v="Buskholmen" />
		<tag k="place" v="islet" />
		<tag k="ssr:stedsnr" v="258367" />
	</node>
	<node id="-15257" lat="65.7359055599" lon="12.3722749948">
		<tag k="name" v="Buholmen" />
		<tag k="place" v="islet" />
		<tag k="ssr:stedsnr" v="258215" />
	</node>
	<node id="-15256" lat="65.7437166675" lon="12.3959388952">
		<tag k="fixme" v="consider seamark:type=rock or natural=shoal" />
		<tag k="name" v="Hansholmskjæret" />
		<tag k="place" v="islet" />
		<tag k="ssr:stedsnr" v="258211" />
	</node>
	<node id="-15255" lat="65.7726250011" lon="12.2722166619">
		<tag k="name" v="Feøya" />
		<tag k="place" v="islet" />
		<tag k="ssr:stedsnr" v="258065" />
	</node>
	<node id="-15254" lat="65.8068305552" lon="12.4934999976">
		<tag k="name" v="Mindtangen" />
		<tag k="natural" v="cape" />
		<tag k="ssr:stedsnr" v="258028" />
	</node>
	<node id="-15253" lat="65.9470388913" lon="12.4400361193">
		<tag k="name" v="Vikholmgrunna" />
		<tag k="natural" v="shoal" />
		<tag k="place" v="locality" />
		<tag k="ssr:stedsnr" v="450825" />
	</node>
	<node id="-15252" lat="65.9853722215" lon="12.5083138852">
		<tag k="name" v="Noviksjøen" />
		<tag k="natural" v="beach" />
		<tag k="place" v="locality" />
		<tag k="ssr:stedsnr" v="450688" />
	</node>
	<node id="-15248" lat="66.0221111101" lon="12.6540888844">
		<tag k="name" v="Andvågen" />
		<tag k="natural" v="bay" />
		<tag k="ssr:stedsnr" v="440889" />
	</node>
	<node id="-15247" lat="65.832113888" lon="12.1545861046">
		<tag k="name" v="Bergsøya" />
		<tag k="place" v="islet" />
		<tag k="ssr:stedsnr" v="440710" />
	</node>
	<node id="-15246" lat="65.8116277762" lon="12.2017722236">
		<tag k="fixme" v="consider seamark:type=rock or natural=shoal" />
		<tag k="name" v="Langspilskjæret" />
		<tag k="place" v="islet" />
		<tag k="ssr:stedsnr" v="440687" />
	</node>
	<node id="-15245" lat="65.8414611071" lon="12.1607944486">
		<tag k="name" v="Laukholmen" />
		<tag k="place" v="islet" />
		<tag k="ssr:stedsnr" v="440511" />
	</node>
	<node id="-15244" lat="65.8095916654" lon="12.2558527757">
		<tag k="name" v="Segeløygrunna" />
		<tag k="natural" v="shoal" />
		<tag k="place" v="locality" />
		<tag k="ssr:stedsnr" v="440501" />
	</node>
	<node id="-15242" lat="65.8118388908" lon="12.5089222207">
		<tag k="name" v="Innerøya" />
		<tag k="place" v="islet" />
		<tag k="ssr:stedsnr" v="440489" />
	</node>
	<node id="-15241" lat="65.80951667" lon="12.285469451">
		<tag k="fixme" v="consider seamark:type=rock or natural=shoal" />
		<tag k="name" v="Langskjæret" />
		<tag k="place" v="islet" />
		<tag k="ssr:stedsnr" v="440485" />
	</node>
	<node id="-15240" lat="65.8056472208" lon="12.31909999">
		<tag k="name" v="Kvitholman" />
		<tag k="place" v="islet" />
		<tag k="ssr:stedsnr" v="440483" />
	</node>
	<node id="-15239" lat="65.8283277819" lon="12.4754750056">
		<tag k="name" v="Røssøyholman" />
		<tag k="place" v="islet" />
		<tag k="ssr:stedsnr" v="440480" />
	</node>
	<node id="-15238" lat="65.8166861141" lon="12.2957111196">
		<tag k="alt_name" v="Gjedderøya" />
		<tag k="name" v="Geiterøya" />
		<tag k="place" v="islet" />
		<tag k="ssr:stedsnr" v="440470" />
	</node>
	<node id="-15237" lat="65.8175750015" lon="12.2585277684">
		<tag k="name" v="Buøygrunna" />
		<tag k="natural" v="shoal" />
		<tag k="place" v="locality" />
		<tag k="ssr:stedsnr" v="440467" />
	</node>
	<node id="-15236" lat="65.8290722199" lon="12.5848888798">
		<tag k="name" v="Tangsundet" />
		<tag k="natural" v="strait" />
		<tag k="ssr:stedsnr" v="440464" />
	</node>
	<node id="-15234" lat="65.834980553" lon="12.417391662">
		<tag k="name" v="Kvernholmen" />
		<tag k="natural" v="cape" />
		<tag k="ssr:stedsnr" v="440461" />
	</node>
	<node id="-15233" lat="65.8406027762" lon="12.2764638832">
		<tag k="name" v="Kvernholman" />
		<tag k="place" v="islet" />
		<tag k="ssr:stedsnr" v="440453" />
	</node>
	<node id="-15232" lat="65.8505833291" lon="12.351527775">
		<tag k="name" v="Hestholmen" />
		<tag k="place" v="islet" />
		<tag k="ssr:stedsnr" v="440444" />
	</node>
	<node id="-15231" lat="65.8576777764" lon="12.4561750048">
		<tag k="name" v="Onneset" />
		<tag k="natural" v="cape" />
		<tag k="ssr:stedsnr" v="440441" />
	</node>
	<node id="-15230" lat="65.8553472185" lon="12.5991472282">
		<tag k="name" v="Klubbholmen" />
		<tag k="place" v="islet" />
		<tag k="ssr:stedsnr" v="440440" />
	</node>
	<node id="-15229" lat="65.8424972205" lon="12.2341805644">
		<tag k="name" v="Hestøysundet" />
		<tag k="natural" v="strait" />
		<tag k="ssr:stedsnr" v="440437" />
	</node>
	<node id="-15227" lat="65.85815833" lon="12.3353833224">
		<tag k="name" v="Geitøya" />
		<tag k="place" v="islet" />
		<tag k="ssr:stedsnr" v="440426" />
	</node>
	<node id="-15226" lat="65.8550277778" lon="12.3248666755">
		<tag k="name" v="Haukøya" />
		<tag k="place" v="islet" />
		<tag k="ssr:stedsnr" v="440425" />
	</node>
	<node id="-15225" lat="65.9036138876" lon="12.5629999931">
		<tag k="alt_name" v="Strandholmen, heimre" />
		<tag k="fixme" v="multiple name tags, choose one and add the other to alt_name" />
		<tag k="name" v="Heimerholmen;Heimre Strandholmen" />
		<tag k="place" v="islet" />
		<tag k="ssr:stedsnr" v="440396" />
	</node>
	<node id="-15224" lat="65.9013277807" lon="12.5489499937">
		<tag k="name" v="Hamnessjøen" />
		<tag k="natural" v="beach" />
		<tag k="place" v="locality" />
		<tag k="ssr:stedsnr" v="440393" />
	</node>
	<node id="-15223" lat="65.8936194456" lon="12.2822277817">
		<tag k="bay" v="fjord" />
		<tag k="name" v="Blomsøyvika" />
		<tag k="natural" v="bay" />
		<tag k="ssr:stedsnr" v="440387" />
	</node>
	<node id="-15220" lat="65.925433329" lon="12.4247416661">
		<tag k="name" v="Skatneset" />
		<tag k="natural" v="cape" />
		<tag k="ssr:stedsnr" v="440354" />
	</node>
	<node id="-15219" lat="65.9200861152" lon="12.2609555628">
		<tag k="name" v="Bukkholmen" />
		<tag k="place" v="islet" />
		<tag k="ssr:stedsnr" v="440352" />
	</node>
	<node id="-15218" lat="65.946330558" lon="12.3908166646">
		<tag k="fixme" v="consider seamark:type=rock or natural=shoal" />
		<tag k="name" v="Valløygalten" />
		<tag k="place" v="islet" />
		<tag k="ssr:stedsnr" v="440339" />
	</node>
	<node id="-15213" lat="65.9631750004" lon="12.4053416622">
		<tag k="name" v="Svinøya" />
		<tag k="place" v="island" />
		<tag k="ssr:stedsnr" v="440306" />
	</node>
	<node id="-15212" lat="65.7238694443" lon="12.3297000013">
		<tag k="name" v="Litleslua" />
		<tag k="natural" v="shoal" />
		<tag k="place" v="locality" />
		<tag k="ssr:stedsnr" v="440258" />
	</node>
	<node id="-15211" lat="65.73886111" lon="12.251850006">
		<tag k="name" v="Kua" />
		<tag k="natural" v="shoal" />
		<tag k="place" v="locality" />
		<tag k="ssr:stedsnr" v="440246" />
	</node>
	<node id="-15210" lat="65.7404527737" lon="12.2643861114">
		<tag k="alt_name" v="Grønnøytaren" />
		<tag k="name" v="Grønntaren" />
		<tag k="natural" v="shoal" />
		<tag k="place" v="locality" />
		<tag k="ssr:stedsnr" v="440242" />
	</node>
	<node id="-15209" lat="65.7556694453" lon="12.3688694394">
		<tag k="fixme" v="consider seamark:type=rock or natural=shoal" />
		<tag k="name" v="Breidgrunnskjæret" />
		<tag k="place" v="islet" />
		<tag k="ssr:stedsnr" v="440119" />
	</node>
	<node id="-15208" lat="65.7826722179" lon="12.5283111199">
		<tag k="name" v="Lauvøyneset" />
		<tag k="natural" v="cape" />
		<tag k="ssr:stedsnr" v="440094" />
	</node>
	<node id="-15203" lat="65.7958055577" lon="12.2364111042">
		<tag k="alt_name" v="Buøya, yt" />
		<tag k="name" v="Ytre Buøya" />
		<tag k="place" v="islet" />
		<tag k="ssr:stedsnr" v="440034" />
	</node>
	<node id="-15202" lat="65.8074250022" lon="12.4871666686">
		<tag k="name" v="Litleminden" />
		<tag k="natural" v="cape" />
		<tag k="ssr:stedsnr" v="440030" />
	</node>
	<node id="-15201" lat="65.7883916643" lon="12.2429611045">
		<tag k="alt_name" v="Valløya, in" />
		<tag k="name" v="Indre Valløya" />
		<tag k="place" v="islet" />
		<tag k="ssr:stedsnr" v="440014" />
	</node>
	<node id="-15195" lat="65.9002055548" lon="12.5082333358">
		<tag k="name" v="Odden" />
		<tag k="natural" v="cape" />
		<tag k="ssr:stedsnr" v="215536" />
	</node>
	<node id="-15194" lat="65.898663886" lon="12.4971222278">
		<tag k="name" v="Buneskroken" />
		<tag k="natural" v="bay" />
		<tag k="ssr:stedsnr" v="215535" />
	</node>
	<node id="-15193" lat="65.8389611084" lon="12.4329000102">
		<tag k="name" v="Kuvika" />
		<tag k="natural" v="bay" />
		<tag k="ssr:stedsnr" v="215520" />
	</node>
	<node id="-15192" lat="65.8404555591" lon="12.4018166741">
		<tag k="name" v="Skogodden" />
		<tag k="natural" v="cape" />
		<tag k="ssr:stedsnr" v="215512" />
	</node>
	<node id="-15188" lat="65.8727138899" lon="12.1017361153">
		<tag k="fixme" v="consider seamark:type=rock or natural=shoal" />
		<tag k="name" v="Brødreskjæran" />
		<tag k="place" v="islet" />
		<tag k="ssr:stedsnr" v="294387" />
	</node>
	<node id="-15183" lat="65.7633944447" lon="12.3897861157">
		<tag k="fixme" v="consider seamark:type=rock or natural=shoal" />
		<tag k="name" v="Brastadskjæret" />
		<tag k="place" v="islet" />
		<tag k="ssr:stedsnr" v="198034" />
	</node>
	<node id="-15182" lat="66.0250388914" lon="12.6330250101">
		<tag k="alt_name" v="Oljebasen" />
		<tag k="name" v="Holmen" />
		<tag k="place" v="islet" />
		<tag k="ssr:stedsnr" v="197919" />
	</node>
	<node id="-15181" lat="66.0096583358" lon="12.7031277824">
		<tag k="name" v="Kvitholmen" />
		<tag k="place" v="islet" />
		<tag k="ssr:stedsnr" v="197912" />
	</node>
	<node id="-15180" lat="65.8133666693" lon="12.5050333349">
		<tag k="name" v="Langøya" />
		<tag k="place" v="islet" />
		<tag k="ssr:stedsnr" v="197531" />
	</node>
	<node id="-15179" lat="65.8100888931" lon="12.3262222124">
		<tag k="name" v="Tangeholmen" />
		<tag k="place" v="islet" />
		<tag k="ssr:stedsnr" v="197526" />
	</node>
	<node id="-15176" lat="65.8115027739" lon="12.2237805567">
		<tag k="alt_name" v="Susenøya, s" />
		<tag k="name" v="Søndre Susenøya" />
		<tag k="place" v="islet" />
		<tag k="ssr:stedsnr" v="197508" />
	</node>
	<node id="-15175" lat="65.837425004" lon="12.4920750097">
		<tag k="alt_name" v="Ramnskjeret;Ramnskjæret" />
		<tag k="fixme" v="consider seamark:type=rock or natural=shoal" />
		<tag k="name" v="Ramnåsskjeret" />
		<tag k="place" v="islet" />
		<tag k="ssr:stedsnr" v="197502" />
	</node>
	<node id="-15174" lat="65.850630552" lon="12.2699999967">
		<tag k="fixme" v="consider seamark:type=rock or natural=shoal" />
		<tag k="name" v="Medfallskjæret" />
		<tag k="place" v="islet" />
		<tag k="ssr:stedsnr" v="197449" />
	</node>
	<node id="-15173" lat="65.8527916692" lon="12.3165999958">
		<tag k="name" v="Oterholmen" />
		<tag k="place" v="islet" />
		<tag k="ssr:stedsnr" v="197448" />
	</node>
	<node id="-15172" lat="65.884274996" lon="12.5216888864">
		<tag k="alt_name" v="Inneset" />
		<tag k="name" v="Innerneset" />
		<tag k="natural" v="cape" />
		<tag k="ssr:stedsnr" v="197444" />
	</node>
	<node id="-15171" lat="65.8715305521" lon="12.4418861161">
		<tag k="name" v="Gammelgårdsholmen" />
		<tag k="place" v="islet" />
		<tag k="ssr:stedsnr" v="197439" />
	</node>
	<node id="-15170" lat="65.8800055555" lon="12.4876611168">
		<tag k="name" v="Tranholmen" />
		<tag k="natural" v="cape" />
		<tag k="ssr:stedsnr" v="197436" />
	</node>
	<node id="-15169" lat="65.8583750042" lon="12.2318555565">
		<tag k="name" v="Hestholmen" />
		<tag k="natural" v="cape" />
		<tag k="ssr:stedsnr" v="197433" />
	</node>
	<node id="-15168" lat="65.8658166643" lon="12.2830222136">
		<tag k="name" v="Høgøya" />
		<tag k="place" v="islet" />
		<tag k="ssr:stedsnr" v="197427" />
	</node>
	<node id="-15160" lat="65.9894861133" lon="12.5173388951">
		<tag k="name" v="Sørrasjøen" />
		<tag k="natural" v="beach" />
		<tag k="place" v="locality" />
		<tag k="ssr:stedsnr" v="277337" />
	</node>
	<node id="-15156" lat="65.8212138862" lon="12.4394000061">
		<tag k="name" v="Skjåholmsundet" />
		<tag k="natural" v="strait" />
		<tag k="ssr:stedsnr" v="154211" />
	</node>
	<node id="-15150" lat="65.9007166707" lon="12.5461611086">
		<tag k="name" v="Tømmerosen" />
		<tag k="natural" v="bay" />
		<tag k="ssr:stedsnr" v="276128" />
	</node>
	<node id="-15146" lat="65.8392138893" lon="12.5762027819">
		<tag k="fixme" v="multiple name tags, choose one and add the other to alt_name" />
		<tag k="name" v="Indre Tangneset;Tangneset" />
		<tag k="natural" v="cape" />
		<tag k="ssr:stedsnr" v="146262" />
	</node>
	<node id="-15145" lat="65.8557638861" lon="12.5912611006">
		<tag k="name" v="Vikvoldgrunna" />
		<tag k="natural" v="shoal" />
		<tag k="place" v="locality" />
		<tag k="ssr:stedsnr" v="146223" />
	</node>
	<node id="-15144" lat="65.9335055548" lon="12.3352388836">
		<tag k="name" v="Altersjøen" />
		<tag k="natural" v="bay" />
		<tag k="ssr:stedsnr" v="273142" />
	</node>
	<node id="-15143" lat="65.9147805565" lon="12.3903444339">
		<tag k="name" v="Kårholmgrunna" />
		<tag k="natural" v="shoal" />
		<tag k="place" v="locality" />
		<tag k="ssr:stedsnr" v="268798" />
	</node>
	<node id="-15142" lat="65.8818555525" lon="12.1742666688">
		<tag k="name" v="Lissørnøya" />
		<tag k="place" v="islet" />
		<tag k="ssr:stedsnr" v="137536" />
	</node>
	<node id="-15140" lat="65.767511115" lon="12.4073166686">
		<tag k="name" v="Brastadbukta" />
		<tag k="natural" v="bay" />
		<tag k="ssr:stedsnr" v="137030" />
	</node>
	<node id="-15135" lat="65.8799305565" lon="12.3172277857">
		<tag k="alt_name" v="Skarvøya, l" />
		<tag k="name" v="Litle Skarvøya" />
		<tag k="place" v="islet" />
		<tag k="ssr:stedsnr" v="136421" />
	</node>
	<node id="-15134" lat="65.8805388865" lon="12.3052305605">
		<tag k="name" v="Toppholmen" />
		<tag k="place" v="islet" />
		<tag k="ssr:stedsnr" v="136420" />
	</node>
	<node id="-15131" lat="65.7944388933" lon="12.5593972231">
		<tag k="name" v="Klubbholmen" />
		<tag k="natural" v="cape" />
		<tag k="ssr:stedsnr" v="136018" />
	</node>
	<node id="-15130" lat="65.7934222215" lon="12.5493027827">
		<tag k="name" v="Halsholmen" />
		<tag k="place" v="islet" />
		<tag k="ssr:stedsnr" v="136017" />
	</node>
	<node id="-15129" lat="65.8418750008" lon="12.3260472144">
		<tag k="name" v="Porsholmen" />
		<tag k="place" v="islet" />
		<tag k="ssr:stedsnr" v="267637" />
	</node>
	<node id="-15128" lat="65.8567805534" lon="12.6051944493">
		<tag k="name" v="Stakkåsvika" />
		<tag k="natural" v="bay" />
		<tag k="ssr:stedsnr" v="117109" />
	</node>
	<node id="-15127" lat="65.8594777809" lon="12.6066333259">
		<tag k="name" v="Sør-Bærøya" />
		<tag k="natural" v="cape" />
		<tag k="ssr:stedsnr" v="117108" />
	</node>
	<node id="-15125" lat="65.9956416631" lon="12.6355000049">
		<tag k="name" v="Langøya" />
		<tag k="place" v="islet" />
		<tag k="ssr:stedsnr" v="258649" />
	</node>
	<node id="-15124" lat="65.9930638931" lon="12.6486527753">
		<tag k="alt_name" v="Laholmen;Lammholmen" />
		<tag k="name" v="Lamholmen" />
		<tag k="place" v="islet" />
		<tag k="ssr:stedsnr" v="258647" />
	</node>
	<node id="-15121" lat="65.8568861137" lon="12.1783194494">
		<tag k="name" v="Lysthusøya" />
		<tag k="place" v="islet" />
		<tag k="ssr:stedsnr" v="258512" />
	</node>
	<node id="-15120" lat="65.8262388868" lon="12.2971527729">
		<tag k="name" v="Tranøya" />
		<tag k="place" v="island" />
		<tag k="ssr:stedsnr" v="258449" />
	</node>
	<node id="-15119" lat="65.8406944448" lon="12.4268999891">
		<tag k="alt_name" v="Lamholmen, l;Lisllamholmen" />
		<tag k="name" v="Litle Lamholmen" />
		<tag k="place" v="islet" />
		<tag k="ssr:stedsnr" v="258446" />
	</node>
	<node id="-15118" lat="65.8504305526" lon="12.2322166707">
		<tag k="alt_name" v="Buøya, l" />
		<tag k="name" v="Litle Buøya" />
		<tag k="place" v="islet" />
		<tag k="ssr:stedsnr" v="258433" />
	</node>
	<node id="-15117" lat="65.8487388848" lon="12.4992027685">
		<tag k="alt_name" v="Svinneset" />
		<tag k="name" v="Svinesneset" />
		<tag k="natural" v="cape" />
		<tag k="ssr:stedsnr" v="258428" />
	</node>
	<node id="-15115" lat="65.8699333324" lon="12.2454888821">
		<tag k="name" v="Brynjulvsholmen" />
		<tag k="place" v="islet" />
		<tag k="ssr:stedsnr" v="258401" />
	</node>
	<node id="-15114" lat="65.8904416708" lon="12.3921861143">
		<tag k="name" v="Skeisvika" />
		<tag k="natural" v="bay" />
		<tag k="ssr:stedsnr" v="258395" />
	</node>
	<node id="-15112" lat="65.9628194442" lon="12.4175694542">
		<tag k="fixme" v="consider seamark:type=rock or natural=shoal" />
		<tag k="name" v="Tvillingan" />
		<tag k="place" v="islet" />
		<tag k="ssr:stedsnr" v="258291" />
	</node>
	<node id="-15109" lat="65.9743027793" lon="12.4270944396">
		<tag k="bay" v="fjord" />
		<tag k="name" v="Alstenfjorden" />
		<tag k="natural" v="bay" />
		<tag k="ssr:stedsnr" v="258268" />
	</node>
	<node id="-15108" lat="65.8086361067" lon="12.5361694508">
		<tag k="alt_name" v="Røyvågen" />
		<tag k="name" v="Rødøyvågen" />
		<tag k="natural" v="bay" />
		<tag k="ssr:stedsnr" v="258040" />
	</node>
	<node id="-15104" lat="65.9106388865" lon="12.3193805529">
		<tag k="name" v="Langstrandvågen" />
		<tag k="natural" v="bay" />
		<tag k="ssr:stedsnr" v="101353" />
	</node>
	<node id="-15100" lat="65.7760027766" lon="12.1779055567">
		<tag k="name" v="Lisoråsa" />
		<tag k="place" v="locality" />
		<tag k="ssr:stedsnr" v="86206" />
	</node>
	<node id="-15099" lat="65.8554972191" lon="12.4517972205">
		<tag k="fixme" v="consider seamark:type=rock or natural=shoal" />
		<tag k="name" v="Andskjæret" />
		<tag k="place" v="islet" />
		<tag k="ssr:stedsnr" v="76454" />
	</node>
	<node id="-15098" lat="65.8554138879" lon="12.1690749913">
		<tag k="name" v="Buøya" />
		<tag k="place" v="islet" />
		<tag k="ssr:stedsnr" v="76535" />
	</node>
	<node id="-15097" lat="65.8491861073" lon="12.2386805578">
		<tag k="name" v="Sørgråneset" />
		<tag k="natural" v="cape" />
		<tag k="ssr:stedsnr" v="240605" />
	</node>
	<node id="-15094" lat="65.8596138849" lon="12.5923027761">
		<tag k="name" v="Øyodden" />
		<tag k="natural" v="cape" />
		<tag k="ssr:stedsnr" v="239118" />
	</node>
	<node id="-15092" lat="65.835675" lon="12.579955546">
		<tag k="name" v="Risneset" />
		<tag k="natural" v="cape" />
		<tag k="ssr:stedsnr" v="239079" />
	</node>
	<node id="-15087" lat="65.8951055524" lon="12.5354444356">
		<tag k="name" v="Paddholmen" />
		<tag k="natural" v="cape" />
		<tag k="ssr:stedsnr" v="34113" />
	</node>
	<node id="-15084" lat="65.8585805587" lon="12.1875999978">
		<tag k="fixme" v="consider seamark:type=rock or natural=shoal" />
		<tag k="name" v="Lamskjæran" />
		<tag k="place" v="islet" />
		<tag k="ssr:stedsnr" v="16502" />
	</node>
	<node id="-15083" lat="66.0253555571" lon="12.6940694372">
		<tag k="name" v="Horvnesodden" />
		<tag k="natural" v="cape" />
		<tag k="old_name" v="Horvneset" />
		<tag k="ssr:stedsnr" v="15906" />
	</node>
	<node id="-15082" lat="65.7806777781" lon="12.5750000082">
		<tag k="alt_name" v="Stokkefjorden" />
		<tag k="bay" v="fjord" />
		<tag k="name" v="Stokkafjorden" />
		<tag k="natural" v="bay" />
		<tag k="ssr:stedsnr" v="16023" />
	</node>
	<node id="-15081" lat="65.8119583354" lon="12.2796250064">
		<tag k="name" v="Hanslarsøya" />
		<tag k="place" v="islet" />
		<tag k="ssr:stedsnr" v="15507" />
	</node>
	<node id="-15080" lat="65.8765749963" lon="12.3429805621">
		<tag k="name" v="Valøya" />
		<tag k="place" v="island" />
		<tag k="ssr:stedsnr" v="15418" />
	</node>
	<node id="-15079" lat="65.7313750035" lon="12.3355750007">
		<tag k="name" v="Skipbrannsøya" />
		<tag k="place" v="islet" />
		<tag k="ssr:stedsnr" v="15221" />
	</node>
	<node id="-16533" lat="65.8596071074" lon="12.5233890033">
		<tag k="fixme" v="multiple name tags, choose one and add the other to alt_name" />
		<tag k="name" v="Bonholmen;Bondeholmen" />
		<tag k="place" v="islet" />
		<tag k="ssr:stedsnr" v="976209" />
	</node>
	<node id="-16532" lat="65.927491665" lon="12.3707777808">
		<tag k="name" v="Sørøysundet" />
		<tag k="natural" v="strait" />
		<tag k="ssr:stedsnr" v="967436" />
	</node>
	<node id="-16531" lat="65.995072222" lon="12.67204167">
		<tag k="name" v="Hysnasen" />
		<tag k="natural" v="cape" />
		<tag k="ssr:stedsnr" v="967145" />
	</node>
	<node id="-16530" lat="65.8539333338" lon="12.5982694509">
		<tag k="name" v="Blåsteinvika" />
		<tag k="natural" v="bay" />
		<tag k="ssr:stedsnr" v="967084" />
	</node>
	<node id="-16528" lat="66.0229888887" lon="12.6922638791">
		<tag k="fixme" v="consider seamark:type=rock or natural=shoal" />
		<tag k="name" v="Øyskjæret" />
		<tag k="place" v="islet" />
		<tag k="ssr:stedsnr" v="875417" />
	</node>
	<node id="-16527" lat="65.8708916624" lon="12.6028055538">
		<tag k="name" v="Haltøyvågen" />
		<tag k="natural" v="bay" />
		<tag k="ssr:stedsnr" v="875246" />
	</node>
	<node id="-16526" lat="65.8688388932" lon="12.1119805566">
		<tag k="fixme" v="consider seamark:type=rock or natural=shoal" />
		<tag k="name" v="Brotskjæran" />
		<tag k="place" v="islet" />
		<tag k="ssr:stedsnr" v="865572" />
	</node>
	<node id="-16525" lat="65.869272219" lon="12.1674222233">
		<tag k="name" v="Kårholmen" />
		<tag k="place" v="islet" />
		<tag k="ssr:stedsnr" v="865567" />
	</node>
	<node id="-16524" lat="65.851288891" lon="12.1481749994">
		<tag k="name" v="Måsøya" />
		<tag k="place" v="islet" />
		<tag k="ssr:stedsnr" v="865541" />
	</node>
	<node id="-16522" lat="65.8155583317" lon="12.3851583431">
		<tag k="fixme" v="consider seamark:type=rock or natural=shoal" />
		<tag k="name" v="Lakskista" />
		<tag k="place" v="islet" />
		<tag k="ssr:stedsnr" v="865495" />
	</node>
	<node id="-16521" lat="65.8385638859" lon="12.4542361024">
		<tag k="name" v="Tjøtta" />
		<tag k="place" v="island" />
		<tag k="ssr:stedsnr" v="865489" />
	</node>
	<node id="-16520" lat="65.8874749994" lon="12.5023999986">
		<tag k="name" v="Langneset" />
		<tag k="natural" v="cape" />
		<tag k="ssr:stedsnr" v="865488" />
	</node>
	<node id="-16519" lat="65.8565027785" lon="12.6149555559">
		<tag k="name" v="Sørholmen" />
		<tag k="place" v="islet" />
		<tag k="ssr:stedsnr" v="865461" />
	</node>
	<node id="-16518" lat="65.8675861132" lon="12.6310750028">
		<tag k="name" v="Aspviksundet" />
		<tag k="natural" v="strait" />
		<tag k="ssr:stedsnr" v="865452" />
	</node>
	<node id="-16517" lat="65.8495393656" lon="12.2433131843">
		<tag k="alt_name" v="Hestøy" />
		<tag k="name" v="Hestøya" />
		<tag k="place" v="island" />
		<tag k="ssr:stedsnr" v="865449" />
	</node>
	<node id="-16516" lat="65.8840972242" lon="12.4537555639">
		<tag k="fixme" v="consider seamark:type=rock or natural=shoal" />
		<tag k="name" v="Skarvskjæret" />
		<tag k="place" v="islet" />
		<tag k="ssr:stedsnr" v="865445" />
	</node>
	<node id="-16514" lat="65.8939500034" lon="12.5423277867">
		<tag k="name" v="Flesa" />
		<tag k="natural" v="cape" />
		<tag k="ssr:stedsnr" v="865422" />
	</node>
	<node id="-16512" lat="65.904675" lon="12.6105861166">
		<tag k="bay" v="fjord" />
		<tag k="name" v="Vefsnfjorden" />
		<tag k="natural" v="bay" />
		<tag k="ssr:stedsnr" v="865409" />
	</node>
	<node id="-16511" lat="65.9004555516" lon="12.3832083415">
		<tag k="name" v="Staursvika" />
		<tag k="natural" v="bay" />
		<tag k="ssr:stedsnr" v="865402" />
	</node>
	<node id="-16510" lat="65.8932749998" lon="12.2759638885">
		<tag k="fixme" v="consider seamark:type=rock or natural=shoal" />
		<tag k="name" v="Kråka" />
		<tag k="place" v="islet" />
		<tag k="ssr:stedsnr" v="865398" />
	</node>
	<node id="-16509" lat="65.9113305576" lon="12.385038897">
		<tag k="name" v="Kårholmen" />
		<tag k="place" v="islet" />
		<tag k="ssr:stedsnr" v="865392" />
	</node>
	<node id="-16503" lat="65.9417472261" lon="12.6666000088">
		<tag k="name" v="Hansholmen" />
		<tag k="place" v="islet" />
		<tag k="ssr:stedsnr" v="865364" />
	</node>
	<node id="-16498" lat="65.9511805518" lon="12.4361750023">
		<tag k="name" v="Steirogrunna" />
		<tag k="natural" v="shoal" />
		<tag k="place" v="locality" />
		<tag k="ssr:stedsnr" v="865335" />
	</node>
	<node id="-16494" lat="65.9799333302" lon="12.6101555557">
		<tag k="name" v="Osen" />
		<tag k="natural" v="bay" />
		<tag k="ssr:stedsnr" v="865292" />
	</node>
	<node id="-16493" lat="65.9868666666" lon="12.6381055626">
		<tag k="name" v="Aspneset" />
		<tag k="natural" v="cape" />
		<tag k="ssr:stedsnr" v="865290" />
	</node>
	<node id="-16492" lat="65.7209749954" lon="12.328211118">
		<tag k="name" v="Langtaren" />
		<tag k="natural" v="shoal" />
		<tag k="place" v="locality" />
		<tag k="ssr:stedsnr" v="865262" />
	</node>
	<node id="-16491" lat="65.7698305535" lon="12.2317277762">
		<tag k="fixme" v="consider seamark:type=rock or natural=shoal" />
		<tag k="name" v="Storskjæret" />
		<tag k="place" v="islet" />
		<tag k="ssr:stedsnr" v="865081" />
	</node>
	<node id="-16490" lat="65.7730805593" lon="12.2625888816">
		<tag k="name" v="Toppøya" />
		<tag k="place" v="islet" />
		<tag k="ssr:stedsnr" v="865080" />
	</node>
	<node id="-16488" lat="65.7832305567" lon="12.5059416772">
		<tag k="name" v="Trosundet" />
		<tag k="natural" v="strait" />
		<tag k="ssr:stedsnr" v="865064" />
	</node>
	<node id="-16487" lat="65.801949998" lon="12.2738861061">
		<tag k="name" v="Buøya" />
		<tag k="place" v="islet" />
		<tag k="ssr:stedsnr" v="865028" />
	</node>
	<node id="-16486" lat="65.788852779" lon="12.342358339">
		<tag k="bay" v="fjord" />
		<tag k="name" v="Tjøttfjorden" />
		<tag k="natural" v="bay" />
		<tag k="ssr:stedsnr" v="865002" />
	</node>
	<node id="-16484" lat="65.794430552" lon="12.5667472195">
		<tag k="fixme" v="consider seamark:type=rock or natural=shoal" />
		<tag k="name" v="Langskjæret" />
		<tag k="place" v="islet" />
		<tag k="ssr:stedsnr" v="848074" />
	</node>
	<node id="-16479" lat="65.8891916633" lon="12.2772305543">
		<tag k="fixme" v="consider seamark:type=rock or natural=shoal" />
		<tag k="name" v="Kolvikskjæran" />
		<tag k="place" v="islet" />
		<tag k="ssr:stedsnr" v="846453" />
	</node>
	<node id="-16477" lat="65.8711583344" lon="12.6275666604">
		<tag k="name" v="Fårnesodden" />
		<tag k="natural" v="cape" />
		<tag k="ssr:stedsnr" v="846097" />
	</node>
	<node id="-16476" lat="65.8274944421" lon="12.5765416634">
		<tag k="name" v="Valen" />
		<tag k="natural" v="bay" />
		<tag k="ssr:stedsnr" v="846077" />
	</node>
	<node id="-16458" lat="65.8291527782" lon="12.4453083367">
		<tag k="name" v="Jektosen" />
		<tag k="natural" v="bay" />
		<tag k="ssr:stedsnr" v="822440" />
	</node>
	<node id="-16453" lat="65.9453416629" lon="12.4519555624">
		<tag k="fixme" v="consider seamark:type=rock or natural=shoal" />
		<tag k="name" v="Nebskjæret" />
		<tag k="place" v="islet" />
		<tag k="ssr:stedsnr" v="815647" />
	</node>
	<node id="-16452" lat="65.8130416678" lon="12.2906277832">
		<tag k="fixme" v="consider seamark:type=rock or natural=shoal" />
		<tag k="name" v="Bogskjæran" />
		<tag k="place" v="islet" />
		<tag k="ssr:stedsnr" v="814372" />
	</node>
	<node id="-16451" lat="65.8158305586" lon="12.1952138963">
		<tag k="name" v="Draget" />
		<tag k="place" v="islet" />
		<tag k="ssr:stedsnr" v="814364" />
	</node>
	<node id="-16450" lat="65.8149249972" lon="12.3812527854">
		<tag k="name" v="Værholmslua" />
		<tag k="natural" v="shoal" />
		<tag k="place" v="locality" />
		<tag k="ssr:stedsnr" v="814354" />
	</node>
	<node id="-16449" lat="65.8019888861" lon="12.5187138804">
		<tag k="name" v="Troholman" />
		<tag k="place" v="islet" />
		<tag k="ssr:stedsnr" v="814351" />
	</node>
	<node id="-16448" lat="65.8096305573" lon="12.5110611161">
		<tag k="fixme" v="consider seamark:type=rock or natural=shoal" />
		<tag k="name" v="Kåsskjæret" />
		<tag k="place" v="islet" />
		<tag k="ssr:stedsnr" v="814345" />
	</node>
	<node id="-16447" lat="65.8199111124" lon="12.4489666596">
		<tag k="fixme" v="consider seamark:type=rock or natural=shoal" />
		<tag k="name" v="Nordskjæret" />
		<tag k="place" v="islet" />
		<tag k="ssr:stedsnr" v="814344" />
	</node>
	<node id="-16441" lat="65.7930972226" lon="12.2090972132">
		<tag k="name" v="Bukkholmen" />
		<tag k="place" v="islet" />
		<tag k="ssr:stedsnr" v="804723" />
	</node>
	<node id="-16440" lat="65.7880083315" lon="12.2046555604">
		<tag k="name" v="Sengsdraget" />
		<tag k="place" v="islet" />
		<tag k="ssr:stedsnr" v="804721" />
	</node>
	<node id="-16439" lat="66.0297222257" lon="12.6846972198">
		<tag k="bay" v="fjord" />
		<tag k="name" v="Leirfjorden" />
		<tag k="natural" v="bay" />
		<tag k="ssr:stedsnr" v="804894" />
	</node>
	<node id="-16437" lat="65.8525833359" lon="12.1723694486">
		<tag k="name" v="Bukkholman" />
		<tag k="place" v="islet" />
		<tag k="ssr:stedsnr" v="804538" />
	</node>
	<node id="-16436" lat="65.8527777805" lon="12.1958472142">
		<tag k="bay" v="fjord" />
		<tag k="name" v="Hestøyråsa" />
		<tag k="natural" v="bay" />
		<tag k="ssr:stedsnr" v="804537" />
	</node>
	<node id="-16435" lat="65.8190388907" lon="12.5498583267">
		<tag k="alt_name" v="Røøya" />
		<tag k="name" v="Rødøya" />
		<tag k="place" v="island" />
		<tag k="ssr:stedsnr" v="804519" />
	</node>
	<node id="-16434" lat="65.8083305571" lon="12.3867027807">
		<tag k="name" v="Værholmskallen" />
		<tag k="natural" v="shoal" />
		<tag k="place" v="locality" />
		<tag k="ssr:stedsnr" v="804512" />
	</node>
	<node id="-16433" lat="65.8311305558" lon="12.4579722123">
		<tag k="alt_name" v="Store Røssøya;Røssøya, store;Røssøya" />
		<tag k="name" v="Storrøssøya" />
		<tag k="place" v="island" />
		<tag k="ssr:stedsnr" v="804501" />
	</node>
	<node id="-16432" lat="65.8297000028" lon="12.3099333272">
		<tag k="alt_name" v="Skrinet" />
		<tag k="fixme" v="consider seamark:type=rock or natural=shoal" />
		<tag k="name" v="Skinnet" />
		<tag k="place" v="islet" />
		<tag k="ssr:stedsnr" v="804497" />
	</node>
	<node id="-16431" lat="65.8473611117" lon="12.3421194458">
		<tag k="name" v="Nord-Rosøya" />
		<tag k="place" v="island" />
		<tag k="ssr:stedsnr" v="804467" />
	</node>
	<node id="-16430" lat="65.8828999996" lon="12.1529249931">
		<tag k="name" v="Brenna" />
		<tag k="place" v="islet" />
		<tag k="ssr:stedsnr" v="804466" />
	</node>
	<node id="-16425" lat="65.8682750003" lon="12.5894055608">
		<tag k="name" v="Gråholmen" />
		<tag k="place" v="islet" />
		<tag k="ssr:stedsnr" v="804441" />
	</node>
	<node id="-16424" lat="65.8862944432" lon="12.480038879">
		<tag k="alt_name" v="Stakkholmen" />
		<tag k="name" v="Stakholmen" />
		<tag k="place" v="islet" />
		<tag k="ssr:stedsnr" v="804429" />
	</node>
	<node id="-16423" lat="65.8901944433" lon="12.5377861073">
		<tag k="name" v="Olaholmen" />
		<tag k="place" v="islet" />
		<tag k="ssr:stedsnr" v="804419" />
	</node>
	<node id="-16422" lat="65.8811583357" lon="12.2790166696">
		<tag k="name" v="Blomsøya" />
		<tag k="place" v="island" />
		<tag k="ssr:stedsnr" v="804417" />
	</node>
	<node id="-16421" lat="65.8881166645" lon="12.2752416595">
		<tag k="fixme" v="consider seamark:type=rock or natural=shoal" />
		<tag k="name" v="Kolskjæret" />
		<tag k="place" v="islet" />
		<tag k="ssr:stedsnr" v="804407" />
	</node>
	<node id="-16420" lat="65.9049500018" lon="12.5686055596">
		<tag k="alt_name" v="Strandholmen, indre" />
		<tag k="fixme" v="multiple name tags, choose one and add the other to alt_name" />
		<tag k="name" v="Innerholmen;Indre Strandholmen" />
		<tag k="place" v="islet" />
		<tag k="ssr:stedsnr" v="804397" />
	</node>
	<node id="-16419" lat="65.8983222236" lon="12.2450222197">
		<tag k="name" v="Tvillingholman" />
		<tag k="place" v="islet" />
		<tag k="ssr:stedsnr" v="804389" />
	</node>
	<node id="-16418" lat="65.9112916623" lon="12.2813027851">
		<tag k="name" v="Vågsneset" />
		<tag k="natural" v="cape" />
		<tag k="ssr:stedsnr" v="804381" />
	</node>
	<node id="-16417" lat="65.904511111" lon="12.3057749965">
		<tag k="fixme" v="consider seamark:type=rock or natural=shoal" />
		<tag k="name" v="Kobbskjæret" />
		<tag k="place" v="islet" />
		<tag k="ssr:stedsnr" v="804380" />
	</node>
	<node id="-16415" lat="65.7605583363" lon="12.399275011">
		<tag k="alt_name" v="Båtneset" />
		<tag k="name" v="Baneset" />
		<tag k="natural" v="cape" />
		<tag k="ssr:stedsnr" v="804115" />
	</node>
	<node id="-16414" lat="65.7505361129" lon="12.2458749895">
		<tag k="alt_name" v="Ramnøya, store" />
		<tag k="name" v="Store Ramnøya" />
		<tag k="place" v="islet" />
		<tag k="ssr:stedsnr" v="804112" />
	</node>
	<node id="-16413" lat="65.7759499981" lon="12.269974996">
		<tag k="name" v="Sandvær" />
		<tag k="place" v="islet" />
		<tag k="ssr:stedsnr" v="804082" />
	</node>
	<node id="-16412" lat="65.773586107" lon="12.402866665">
		<tag k="name" v="Valholmen" />
		<tag k="place" v="islet" />
		<tag k="ssr:stedsnr" v="804080" />
	</node>
	<node id="-16410" lat="65.7870888915" lon="12.4947000096">
		<tag k="name" v="Naustholmen" />
		<tag k="place" v="islet" />
		<tag k="ssr:stedsnr" v="804070" />
	</node>
	<node id="-16408" lat="65.7660138866" lon="12.272580552">
		<tag k="name" v="Oterholmen" />
		<tag k="place" v="islet" />
		<tag k="ssr:stedsnr" v="804046" />
	</node>
	<node id="-16407" lat="65.8034194423" lon="12.4952305499">
		<tag k="alt_name" v="Risholmen" />
		<tag k="name" v="Risøya" />
		<tag k="place" v="islet" />
		<tag k="ssr:stedsnr" v="804041" />
	</node>
	<node id="-16406" lat="65.7988222253" lon="12.4738694522">
		<tag k="alt_name" v="Hustvika" />
		<tag k="name" v="Husvika" />
		<tag k="natural" v="bay" />
		<tag k="ssr:stedsnr" v="804022" />
	</node>
	<node id="-16405" lat="65.7951805521" lon="12.2417583399">
		<tag k="alt_name" v="Buøya, in" />
		<tag k="name" v="Indre Buøya" />
		<tag k="place" v="islet" />
		<tag k="ssr:stedsnr" v="804021" />
	</node>
	<node id="-16404" lat="65.9756361066" lon="12.4864666748">
		<tag k="name" v="Lislstokkvika" />
		<tag k="natural" v="bay" />
		<tag k="ssr:stedsnr" v="787080" />
	</node>
	<node id="-16398" lat="65.861483335" lon="12.6097111105">
		<tag k="name" v="Sømman" />
		<tag k="natural" v="bay" />
		<tag k="ssr:stedsnr" v="785105" />
	</node>
	<node id="-16396" lat="65.8113083322" lon="12.5444277773">
		<tag k="name" v="Hævlan" />
		<tag k="natural" v="bay" />
		<tag k="ssr:stedsnr" v="785084" />
	</node>
</osm>
