<?xml version="1.0" encoding="UTF-8"?>
<osm version="0.6" generator="osmapis">
	<node lat="65.8392583338802" lon="12.471083329721921" id="-14737">
		<tag k="fixme" v="consider natural=peak for the most distinct mountains in the district" />
		<tag k="name" v="Midtre Smokkelåsen" />
		<tag k="natural" v="hill" />
		<tag k="place" v="locality" />
		<tag k="ssr:stedsnr" v="33571" />
	</node>
	<node lat="65.96281667075196" lon="12.490738897323855" id="-14739">
		<tag k="name" v="Durmålskaret" />
		<tag k="natural" v="valley" />
		<tag k="place" v="locality" />
		<tag k="ssr:stedsnr" v="34110" />
	</node>
	<node lat="65.9702972209926" lon="12.589591657780066" id="-14743">
		<tag k="fixme" v="consider natural=peak for the most distinct mountains in the district" />
		<tag k="name" v="Fjellsåsen" />
		<tag k="natural" v="hill" />
		<tag k="place" v="locality" />
		<tag k="ssr:stedsnr" v="34408" />
	</node>
	<node lat="65.9737999992926" lon="12.531561111092358" id="-14745">
		<tag k="name" v="Hansdalen" />
		<tag k="natural" v="valley" />
		<tag k="place" v="locality" />
		<tag k="ssr:stedsnr" v="34414" />
	</node>
	<node lat="65.97540277832083" lon="12.53164723113655" id="-14747">
		<tag k="name" v="Bjønnbakken" />
		<tag k="natural" v="slope" />
		<tag k="place" v="locality" />
		<tag k="ssr:stedsnr" v="34418" />
	</node>
	<node lat="65.90966388816886" lon="12.40760000180941" id="-14749">
		<tag k="name" v="Lonkan" />
		<tag k="place" v="locality" />
		<tag k="ssr:stedsnr" v="34587" />
	</node>
	<node lat="65.90984722288424" lon="12.432711109093823" id="-14750">
		<tag k="name" v="Klauvan" />
		<tag k="natural" v="slope" />
		<tag k="place" v="locality" />
		<tag k="ssr:stedsnr" v="34593" />
	</node>
	<node lat="65.80325555729243" lon="12.485227776856066" id="-14752">
		<tag k="fixme" v="consider natural=peak for the most distinct mountains in the district" />
		<tag k="name" v="Mindtangheia" />
		<tag k="natural" v="hill" />
		<tag k="place" v="locality" />
		<tag k="ssr:stedsnr" v="41485" />
	</node>
	<node lat="65.86911111340702" lon="12.61463887892459" id="-14754">
		<tag k="name" v="Jonsokhaugen" />
		<tag k="natural" v="hill" />
		<tag k="place" v="locality" />
		<tag k="ssr:stedsnr" v="239115" />
	</node>
	<node lat="65.93485000004488" lon="12.355377786789653" id="-14757">
		<tag k="name" v="Rossberget" />
		<tag k="natural" v="hill" />
		<tag k="place" v="locality" />
		<tag k="ssr:stedsnr" v="239457" />
	</node>
	<node lat="65.85791111524907" lon="12.609125000866067" id="-14761">
		<tag k="fixme" v="consider natural=peak for the most distinct mountains in the district" />
		<tag k="name" v="Stakkåsen" />
		<tag k="natural" v="hill" />
		<tag k="place" v="locality" />
		<tag k="ssr:stedsnr" v="57092" />
	</node>
	<node lat="65.77240555615882" lon="12.427927769518272" id="-14764">
		<tag k="fixme" v="consider natural=peak for the most distinct mountains in the district" />
		<tag k="name" v="Kruna" />
		<tag k="natural" v="hill" />
		<tag k="place" v="locality" />
		<tag k="ssr:stedsnr" v="76053" />
	</node>
	<node lat="65.91003888950591" lon="12.521355552343405" id="-14771">
		<tag k="name" v="Svartfloget" />
		<tag k="natural" v="slope" />
		<tag k="place" v="locality" />
		<tag k="ssr:stedsnr" v="76368" />
	</node>
	<node lat="65.99273055763733" lon="12.530233327404252" id="-14782">
		<tag k="name" v="Kråkskaret" />
		<tag k="natural" v="valley" />
		<tag k="place" v="locality" />
		<tag k="ssr:stedsnr" v="95315" />
	</node>
	<node lat="65.87665833317982" lon="12.268136109806857" id="-14784">
		<tag k="name" v="Toften" />
		<tag k="place" v="locality" />
		<tag k="ssr:stedsnr" v="105028" />
	</node>
	<node lat="65.90336388631259" lon="12.530452784671665" id="-14785">
		<tag k="fixme" v="consider natural=peak for the most distinct mountains in the district" />
		<tag k="name" v="Vargåsen" />
		<tag k="natural" v="hill" />
		<tag k="place" v="locality" />
		<tag k="ssr:stedsnr" v="116113" />
	</node>
	<node lat="65.89308333142297" lon="12.293066668204391" id="-14802">
		<tag k="fixme" v="consider natural=peak for the most distinct mountains in the district" />
		<tag k="name" v="Lauvåsen" />
		<tag k="natural" v="hill" />
		<tag k="place" v="locality" />
		<tag k="ssr:stedsnr" v="137352" />
	</node>
	<node lat="65.88124166617753" lon="12.268811115031195" id="-14805">
		<tag k="name" v="Jamtheian" />
		<tag k="natural" v="hill" />
		<tag k="place" v="locality" />
		<tag k="ssr:stedsnr" v="152125" />
	</node>
	<node lat="65.75923888732608" lon="12.413222217832118" id="-14808">
		<tag k="name" v="Mindeshatten" />
		<tag k="natural" v="hill" />
		<tag k="place" v="locality" />
		<tag k="ssr:stedsnr" v="153562" />
	</node>
	<node lat="65.76277777374254" lon="12.406583323235298" id="-14809">
		<tag k="name" v="Grindhaugen" />
		<tag k="natural" v="hill" />
		<tag k="place" v="locality" />
		<tag k="ssr:stedsnr" v="153565" />
	</node>
	<node lat="65.85453055581934" lon="12.484091664055075" id="-14815">
		<tag k="name" v="Vardhaugen" />
		<tag k="natural" v="hill" />
		<tag k="place" v="locality" />
		<tag k="ssr:stedsnr" v="154521" />
	</node>
	<node lat="65.8588055573185" lon="12.498274991899134" id="-14816">
		<tag k="name" v="Spelmannshaugen" />
		<tag k="natural" v="hill" />
		<tag k="place" v="locality" />
		<tag k="ssr:stedsnr" v="154523" />
	</node>
	<node lat="65.84826944197312" lon="12.496291661118946" id="-14818">
		<tag k="name" v="Rundhaugen" />
		<tag k="natural" v="hill" />
		<tag k="place" v="locality" />
		<tag k="ssr:stedsnr" v="154570" />
	</node>
	<node lat="65.89307778210652" lon="12.521397230109086" id="-14823">
		<tag k="name" v="Bjørnbergan" />
		<tag k="natural" v="hill" />
		<tag k="place" v="locality" />
		<tag k="ssr:stedsnr" v="155103" />
	</node>
	<node lat="65.96897222655025" lon="12.498461112887528" id="-14825">
		<tag k="fixme" v="consider natural=peak for the most distinct mountains in the district" />
		<tag k="name" v="Ramnfloget" />
		<tag k="natural" v="hill" />
		<tag k="place" v="locality" />
		<tag k="ssr:stedsnr" v="155112" />
	</node>
	<node lat="65.95674443991118" lon="12.461950006050104" id="-14829">
		<tag k="name" v="Storsjøhaugen" />
		<tag k="natural" v="hill" />
		<tag k="place" v="locality" />
		<tag k="ssr:stedsnr" v="155998" />
	</node>
	<node lat="65.91867777772308" lon="12.475022222014136" id="-14835">
		<tag k="fixme" v="consider natural=peak for the most distinct mountains in the district" />
		<tag k="name" v="Aksla" />
		<tag k="natural" v="hill" />
		<tag k="place" v="locality" />
		<tag k="ssr:stedsnr" v="258350" />
	</node>
	<node lat="65.89747222577589" lon="12.301627768505616" id="-14837">
		<tag k="alt_name" v="Skifteåsen" />
		<tag k="fixme" v="consider natural=peak for the most distinct mountains in the district" />
		<tag k="name" v="Skiftsåsen" />
		<tag k="natural" v="hill" />
		<tag k="place" v="locality" />
		<tag k="ssr:stedsnr" v="258369" />
	</node>
	<node lat="65.90747499834785" lon="12.555824999710167" id="-14850">
		<tag k="name" v="Vardberget" />
		<tag k="natural" v="hill" />
		<tag k="place" v="locality" />
		<tag k="ssr:stedsnr" v="176168" />
	</node>
	<node lat="65.9299000011515" lon="12.537091676894983" id="-14854">
		<tag k="fixme" v="consider natural=peak for the most distinct mountains in the district" />
		<tag k="name" v="Kvasstinden" />
		<tag k="natural" v="hill" />
		<tag k="place" v="locality" />
		<tag k="ssr:stedsnr" v="197372" />
	</node>
	<node lat="65.99796111270531" lon="12.564108344093725" id="-14872">
		<tag k="fixme" v="consider natural=peak for the most distinct mountains in the district" />
		<tag k="name" v="Kleivåsen" />
		<tag k="natural" v="hill" />
		<tag k="place" v="locality" />
		<tag k="ssr:stedsnr" v="197676" />
	</node>
	<node lat="65.9004916659925" lon="12.392966675904638" id="-14875">
		<tag k="fixme" v="consider natural=peak for the most distinct mountains in the district" />
		<tag k="name" v="Belsvågåsen" />
		<tag k="natural" v="hill" />
		<tag k="place" v="locality" />
		<tag k="ssr:stedsnr" v="198326" />
	</node>
	<node lat="65.98491667005226" lon="12.544819434847167" id="-14890">
		<tag k="fixme" v="consider natural=peak for the most distinct mountains in the district" />
		<tag k="name" v="Sørrahatten" />
		<tag k="natural" v="hill" />
		<tag k="place" v="locality" />
		<tag k="ssr:stedsnr" v="216404" />
	</node>
	<node lat="65.9851055555475" lon="12.521441659980837" id="-14891">
		<tag k="name" v="Grindskaret" />
		<tag k="natural" v="valley" />
		<tag k="place" v="locality" />
		<tag k="ssr:stedsnr" v="216383" />
	</node>
	<node lat="65.90431666409533" lon="12.511597223525365" id="-14892">
		<tag k="name" v="Geitberget" />
		<tag k="natural" v="hill" />
		<tag k="place" v="locality" />
		<tag k="ssr:stedsnr" v="216609" />
	</node>
	<node lat="65.90408333119986" lon="12.52893332425476" id="-14894">
		<tag k="fixme" v="consider natural=peak for the most distinct mountains in the district" />
		<tag k="name" v="Risåsen" />
		<tag k="natural" v="hill" />
		<tag k="place" v="locality" />
		<tag k="ssr:stedsnr" v="237111" />
	</node>
	<node lat="65.78086666945427" lon="12.445694439684909" id="-14913">
		<tag k="name" v="Mælan" />
		<tag k="place" v="locality" />
		<tag k="ssr:stedsnr" v="457441" />
	</node>
	<node lat="65.82940277678607" lon="12.433002768108103" id="-14917">
		<tag k="name" v="Staurskaret" />
		<tag k="natural" v="valley" />
		<tag k="place" v="locality" />
		<tag k="ssr:stedsnr" v="458455" />
	</node>
	<node lat="65.85797222183275" lon="12.473766666002506" id="-14919">
		<tag k="fixme" v="consider natural=peak for the most distinct mountains in the district" />
		<tag k="name" v="Flogåsen" />
		<tag k="natural" v="hill" />
		<tag k="place" v="locality" />
		<tag k="ssr:stedsnr" v="458528" />
	</node>
	<node lat="65.96440833327469" lon="12.49268888231584" id="-14921">
		<tag k="fixme" v="consider natural=peak for the most distinct mountains in the district" />
		<tag k="name" v="Bringsåsen" />
		<tag k="natural" v="hill" />
		<tag k="place" v="locality" />
		<tag k="ssr:stedsnr" v="459110" />
	</node>
	<node lat="65.95291666837863" lon="12.53683889727639" id="-14923">
		<tag k="name" v="Fagervollen" />
		<tag k="natural" v="hill" />
		<tag k="place" v="locality" />
		<tag k="ssr:stedsnr" v="459234" />
	</node>
	<node lat="65.9486888858562" lon="12.527747215729958" id="-14924">
		<tag k="name" v="Oterhaugen" />
		<tag k="natural" v="hill" />
		<tag k="place" v="locality" />
		<tag k="ssr:stedsnr" v="459237" />
	</node>
	<node lat="65.95174999889335" lon="12.51859444311709" id="-14925">
		<tag k="fixme" v="consider natural=peak for the most distinct mountains in the district" />
		<tag k="name" v="Kvitholten" />
		<tag k="natural" v="hill" />
		<tag k="place" v="locality" />
		<tag k="ssr:stedsnr" v="459238" />
	</node>
	<node lat="65.90903888663193" lon="12.470674995605597" id="-14931">
		<tag k="name" v="Forslia" />
		<tag k="natural" v="slope" />
		<tag k="place" v="locality" />
		<tag k="ssr:stedsnr" v="459596" />
	</node>
	<node lat="65.90214444518723" lon="12.521763897120284" id="-14933">
		<tag k="fixme" v="consider natural=peak for the most distinct mountains in the district" />
		<tag k="name" v="Møllåsen" />
		<tag k="natural" v="hill" />
		<tag k="place" v="locality" />
		<tag k="ssr:stedsnr" v="276127" />
	</node>
	<node lat="65.92323055425332" lon="12.413197215157185" id="-14937">
		<tag k="name" v="Skjegghaugen" />
		<tag k="natural" v="hill" />
		<tag k="place" v="locality" />
		<tag k="ssr:stedsnr" v="459651" />
	</node>
	<node lat="65.9404694400536" lon="12.488211108756264" id="-14938">
		<tag k="name" v="Hansmølla" />
		<tag k="place" v="locality" />
		<tag k="ssr:stedsnr" v="459694" />
	</node>
	<node lat="65.86699722030104" lon="12.479463899056347" id="-14939">
		<tag k="fixme" v="consider natural=peak for the most distinct mountains in the district" />
		<tag k="name" v="Vargskaråsen" />
		<tag k="natural" v="hill" />
		<tag k="place" v="locality" />
		<tag k="ssr:stedsnr" v="276503" />
	</node>
	<node lat="65.89771388627044" lon="12.459772230329587" id="-14940">
		<tag k="name" v="Rasmusplassen" />
		<tag k="place" v="locality" />
		<tag k="ssr:stedsnr" v="276526" />
	</node>
	<node lat="65.82469999851911" lon="12.460333334984243" id="-14942">
		<tag k="name" v="Storhaugen" />
		<tag k="natural" v="hill" />
		<tag k="place" v="locality" />
		<tag k="ssr:stedsnr" v="276679" />
	</node>
	<node lat="65.90388333108443" lon="12.411075001170387" id="-14943">
		<tag k="name" v="Gurohaugen" />
		<tag k="natural" v="hill" />
		<tag k="place" v="locality" />
		<tag k="ssr:stedsnr" v="276688" />
	</node>
	<node lat="66.00062222300755" lon="12.61879445171975" id="-14944">
		<tag k="fixme" v="consider natural=peak for the most distinct mountains in the district" />
		<tag k="name" v="Seteråsen" />
		<tag k="natural" v="hill" />
		<tag k="place" v="locality" />
		<tag k="ssr:stedsnr" v="277326" />
	</node>
	<node lat="65.99330277468164" lon="12.565566659456822" id="-14947">
		<tag k="name" v="Mølnhusdalen" />
		<tag k="natural" v="valley" />
		<tag k="place" v="locality" />
		<tag k="ssr:stedsnr" v="277343" />
	</node>
	<node lat="65.94738055554323" lon="12.58008610936002" id="-14958">
		<tag k="fixme" v="consider natural=peak for the most distinct mountains in the district" />
		<tag k="name" v="Skjerdingen" />
		<tag k="natural" v="hill" />
		<tag k="place" v="locality" />
		<tag k="ssr:stedsnr" v="318310" />
	</node>
	<node lat="65.98444722223552" lon="12.58197221940099" id="-14972">
		<tag k="alt_name" v="Sørråsen" />
		<tag k="fixme" v="consider natural=peak for the most distinct mountains in the district" />
		<tag k="name" v="Sørraåsen" />
		<tag k="natural" v="hill" />
		<tag k="place" v="locality" />
		<tag k="ssr:stedsnr" v="319245" />
	</node>
	<node lat="65.83213610847578" lon="12.479741661076368" id="-14984">
		<tag k="name" v="Lisl-Vindhammaren" />
		<tag k="natural" v="hill" />
		<tag k="place" v="locality" />
		<tag k="ssr:stedsnr" v="336122" />
	</node>
	<node lat="65.76482777595541" lon="12.411641666112228" id="-14987">
		<tag k="fixme" v="consider natural=peak for the most distinct mountains in the district" />
		<tag k="name" v="Torjeråsen" />
		<tag k="natural" v="hill" />
		<tag k="place" v="locality" />
		<tag k="ssr:stedsnr" v="336543" />
	</node>
	<node lat="66.01768333042526" lon="12.622611102899011" id="-14997">
		<tag k="fixme" v="consider natural=peak for the most distinct mountains in the district" />
		<tag k="name" v="Sandnesåsen" />
		<tag k="natural" v="hill" />
		<tag k="place" v="locality" />
		<tag k="ssr:stedsnr" v="337920" />
	</node>
	<node lat="65.91429166947229" lon="12.576838888275127" id="-14999">
		<tag k="fixme" v="consider natural=peak for the most distinct mountains in the district" />
		<tag k="name" v="Sjuråsen" />
		<tag k="natural" v="hill" />
		<tag k="place" v="locality" />
		<tag k="ssr:stedsnr" v="479094" />
	</node>
	<node lat="65.90795277512827" lon="12.53446945503533" id="-15000">
		<tag k="name" v="Kjerringrokkdalen" />
		<tag k="natural" v="valley" />
		<tag k="place" v="locality" />
		<tag k="ssr:stedsnr" v="479110" />
	</node>
	<node lat="66.01209166382448" lon="12.607055555576922" id="-15018">
		<tag k="name" v="Rishatten" />
		<tag k="natural" v="hill" />
		<tag k="place" v="locality" />
		<tag k="ssr:stedsnr" v="379879" />
	</node>
	<node lat="65.89814444502764" lon="12.395697220394146" id="-15026">
		<tag k="name" v="Nausthaugen" />
		<tag k="natural" v="hill" />
		<tag k="place" v="locality" />
		<tag k="ssr:stedsnr" v="397086" />
	</node>
	<node lat="65.85551944309888" lon="12.494691676693451" id="-15029">
		<tag k="fixme" v="consider natural=peak for the most distinct mountains in the district" />
		<tag k="name" v="Grønnåsen" />
		<tag k="natural" v="hill" />
		<tag k="place" v="locality" />
		<tag k="ssr:stedsnr" v="397528" />
	</node>
	<node lat="65.85924166826496" lon="12.496558324646337" id="-15031">
		<tag k="name" v="Lendinga" />
		<tag k="place" v="locality" />
		<tag k="ssr:stedsnr" v="397486" />
	</node>
	<node lat="65.88854166886959" lon="12.408177782486916" id="-15032">
		<tag k="name" v="Brauthaugen" />
		<tag k="natural" v="hill" />
		<tag k="place" v="locality" />
		<tag k="ssr:stedsnr" v="397631" />
	</node>
	<node lat="65.90442221917138" lon="12.474941667888592" id="-15036">
		<tag k="name" v="Ramnfloget" />
		<tag k="natural" v="cliff" />
		<tag k="ssr:stedsnr" v="398589" />
	</node>
	<node lat="66.01958611555301" lon="12.634441669779044" id="-15037">
		<tag k="name" v="Jektskaret" />
		<tag k="natural" v="valley" />
		<tag k="place" v="locality" />
		<tag k="ssr:stedsnr" v="398913" />
	</node>
	<node lat="65.86068333523524" lon="12.614894446916116" id="-15041">
		<tag k="fixme" v="consider natural=peak for the most distinct mountains in the district" />
		<tag k="name" v="Fjølvikåsen" />
		<tag k="natural" v="hill" />
		<tag k="place" v="locality" />
		<tag k="ssr:stedsnr" v="421103" />
	</node>
	<node lat="65.97715277694903" lon="12.498058328575631" id="-15042">
		<tag k="fixme" v="consider natural=peak for the most distinct mountains in the district" />
		<tag k="name" v="Åsenden" />
		<tag k="natural" v="hill" />
		<tag k="place" v="locality" />
		<tag k="ssr:stedsnr" v="423049" />
	</node>
	<node lat="65.91932500137068" lon="12.573836115221932" id="-15065">
		<tag k="fixme" v="consider natural=peak for the most distinct mountains in the district" />
		<tag k="name" v="Sørholten" />
		<tag k="natural" v="hill" />
		<tag k="place" v="locality" />
		<tag k="ssr:stedsnr" v="450272" />
	</node>
	<node lat="66.0190555538311" lon="12.66019444901782" id="-15068">
		<tag k="fixme" v="consider natural=peak for the most distinct mountains in the district" />
		<tag k="name" v="Horvnesåsen" />
		<tag k="natural" v="hill" />
		<tag k="place" v="locality" />
		<tag k="ssr:stedsnr" v="455703" />
	</node>
	<node lat="65.98850833578011" lon="12.517311120566328" id="-15073">
		<tag k="name" v="Nausthaugen" />
		<tag k="natural" v="hill" />
		<tag k="place" v="locality" />
		<tag k="ssr:stedsnr" v="459375" />
	</node>
	<node lat="65.92170555471274" lon="12.335652782868197" id="-15074">
		<tag k="fixme" v="consider natural=peak for the most distinct mountains in the district" />
		<tag k="name" v="Vågsåsen" />
		<tag k="natural" v="hill" />
		<tag k="place" v="locality" />
		<tag k="ssr:stedsnr" v="465348" />
	</node>
	<node lat="65.9288416671797" lon="12.353755546951998" id="-15076">
		<tag k="name" v="Helvete" />
		<tag k="natural" v="hill" />
		<tag k="place" v="locality" />
		<tag k="ssr:stedsnr" v="482462" />
	</node>
	<node lat="65.97828332921624" lon="12.49523889078217" id="-15077">
		<tag k="name" v="Otergrøva" />
		<tag k="natural" v="slope" />
		<tag k="place" v="locality" />
		<tag k="ssr:stedsnr" v="484036" />
	</node>
	<node lat="65.94881666642978" lon="12.519166662907663" id="-15092">
		<tag k="fixme" v="consider natural=peak for the most distinct mountains in the district" />
		<tag k="name" v="Tømmeråsen" />
		<tag k="natural" v="hill" />
		<tag k="place" v="locality" />
		<tag k="ssr:stedsnr" v="682346" />
	</node>
	<node lat="65.89928888742622" lon="12.427827767420153" id="-15107">
		<tag k="fixme" v="multiple name tags, choose one and add the other to alt_name" />
		<tag k="name" v="Jemtskaret;Heimskardet" />
		<tag k="natural" v="valley" />
		<tag k="place" v="locality" />
		<tag k="ssr:stedsnr" v="683338" />
	</node>
	<node lat="66.02075000026177" lon="12.672061103281017" id="-15117">
		<tag k="name" v="Akerskaret" />
		<tag k="natural" v="valley" />
		<tag k="place" v="locality" />
		<tag k="ssr:stedsnr" v="516706" />
	</node>
	<node lat="65.82190000228714" lon="12.41898888343201" id="-15118">
		<tag k="name" v="Tolvskarhaugen" />
		<tag k="natural" v="hill" />
		<tag k="place" v="locality" />
		<tag k="ssr:stedsnr" v="518403" />
	</node>
	<node lat="65.88932778223904" lon="12.405438881667717" id="-15119">
		<tag k="name" v="Haia" />
		<tag k="natural" v="hill" />
		<tag k="place" v="locality" />
		<tag k="ssr:stedsnr" v="518607" />
	</node>
	<node lat="65.98016667129397" lon="12.561572216323519" id="-15121">
		<tag k="name" v="Hestbakken" />
		<tag k="natural" v="slope" />
		<tag k="place" v="locality" />
		<tag k="ssr:stedsnr" v="519464" />
	</node>
	<node lat="66.01994444405581" lon="12.642141668653986" id="-15126">
		<tag k="fixme" v="consider natural=peak for the most distinct mountains in the district" />
		<tag k="name" v="Kvernåsen" />
		<tag k="natural" v="hill" />
		<tag k="place" v="locality" />
		<tag k="ssr:stedsnr" v="519882" />
	</node>
	<node lat="65.87911111345392" lon="12.275205545404066" id="-15127">
		<tag k="fixme" v="consider natural=peak for the most distinct mountains in the district" />
		<tag k="name" v="Storåsen" />
		<tag k="natural" v="hill" />
		<tag k="place" v="locality" />
		<tag k="ssr:stedsnr" v="530504" />
	</node>
	<node lat="65.91461388727593" lon="12.557583342952233" id="-15128">
		<tag k="fixme" v="consider natural=peak for the most distinct mountains in the district" />
		<tag k="name" v="Lindåsfjellet" />
		<tag k="natural" v="hill" />
		<tag k="place" v="locality" />
		<tag k="ssr:stedsnr" v="540115" />
	</node>
	<node lat="65.86747222049678" lon="12.600513886731633" id="-15132">
		<tag k="name" v="Haltøyhaugen" />
		<tag k="natural" v="hill" />
		<tag k="place" v="locality" />
		<tag k="ssr:stedsnr" v="542065" />
	</node>
	<node lat="65.88343888695789" lon="12.285852786425735" id="-15137">
		<tag k="fixme" v="consider natural=peak for the most distinct mountains in the district" />
		<tag k="name" v="Langåsen" />
		<tag k="natural" v="hill" />
		<tag k="place" v="locality" />
		<tag k="ssr:stedsnr" v="543465" />
	</node>
	<node lat="65.88176944136625" lon="12.278916659803745" id="-15138">
		<tag k="fixme" v="consider natural=peak for the most distinct mountains in the district" />
		<tag k="name" v="Grindåsen" />
		<tag k="natural" v="hill" />
		<tag k="place" v="locality" />
		<tag k="ssr:stedsnr" v="543466" />
	</node>
	<node lat="65.79477499808719" lon="12.463766675535803" id="-15141">
		<tag k="name" v="Erviklia" />
		<tag k="natural" v="slope" />
		<tag k="place" v="locality" />
		<tag k="ssr:stedsnr" v="561005" />
	</node>
	<node lat="65.78366944605685" lon="12.442750005830495" id="-15147">
		<tag k="name" v="Dunderbergan" />
		<tag k="natural" v="hill" />
		<tag k="place" v="locality" />
		<tag k="ssr:stedsnr" v="578415" />
	</node>
	<node lat="65.76271944848942" lon="12.455074991478673" id="-15150">
		<tag k="name" v="Oksryggen" />
		<tag k="natural" v="ridge" />
		<tag k="place" v="locality" />
		<tag k="ssr:stedsnr" v="579603" />
	</node>
	<node lat="65.85423888605175" lon="12.411647215913405" id="-15151">
		<tag k="name" v="Steinhaugen" />
		<tag k="natural" v="hill" />
		<tag k="place" v="locality" />
		<tag k="ssr:stedsnr" v="579512" />
	</node>
	<node lat="65.90227777859617" lon="12.476386120054883" id="-15152">
		<tag k="name" v="Ramnflogdalen" />
		<tag k="natural" v="valley" />
		<tag k="place" v="locality" />
		<tag k="ssr:stedsnr" v="579527" />
	</node>
	<node lat="65.85539999822602" lon="12.490044448612265" id="-15153">
		<tag k="fixme" v="consider natural=peak for the most distinct mountains in the district" />
		<tag k="name" v="Olderåsen" />
		<tag k="natural" v="hill" />
		<tag k="place" v="locality" />
		<tag k="ssr:stedsnr" v="579554" />
	</node>
	<node lat="66.00573611133649" lon="12.627025008215286" id="-15155">
		<tag k="fixme" v="consider natural=peak for the most distinct mountains in the district" />
		<tag k="name" v="Aunåsen" />
		<tag k="natural" v="hill" />
		<tag k="place" v="locality" />
		<tag k="ssr:stedsnr" v="580294" />
	</node>
	<node lat="66.00850000421416" lon="12.596852784382923" id="-15156">
		<tag k="name" v="Kvalhausen" />
		<tag k="natural" v="hill" />
		<tag k="place" v="locality" />
		<tag k="ssr:stedsnr" v="580300" />
	</node>
	<node lat="65.96916389357322" lon="12.564252768992924" id="-15157">
		<tag k="name" v="Sanddalsbakken" />
		<tag k="natural" v="slope" />
		<tag k="place" v="locality" />
		<tag k="ssr:stedsnr" v="580412" />
	</node>
	<node lat="65.87194444173063" lon="12.261991665491475" id="-15160">
		<tag k="fixme" v="consider natural=peak for the most distinct mountains in the district" />
		<tag k="name" v="Blåbæråsen" />
		<tag k="natural" v="hill" />
		<tag k="place" v="locality" />
		<tag k="ssr:stedsnr" v="590462" />
	</node>
	<node lat="65.87689167083576" lon="12.27563889986484" id="-15161">
		<tag k="name" v="Blomsøydalen" />
		<tag k="natural" v="valley" />
		<tag k="place" v="locality" />
		<tag k="ssr:stedsnr" v="592210" />
	</node>
	<node lat="65.94546944615469" lon="12.46285278594534" id="-15162">
		<tag k="fixme" v="consider natural=peak for the most distinct mountains in the district" />
		<tag k="name" v="Hatten" />
		<tag k="natural" v="hill" />
		<tag k="place" v="locality" />
		<tag k="ssr:stedsnr" v="698170" />
	</node>
	<node lat="65.90949444276616" lon="12.532080555394622" id="-15163">
		<tag k="name" v="Trongen" />
		<tag k="natural" v="valley" />
		<tag k="place" v="locality" />
		<tag k="ssr:stedsnr" v="600117" />
	</node>
	<node lat="65.90483055827177" lon="12.535847222465907" id="-15164">
		<tag k="fixme" v="consider natural=peak for the most distinct mountains in the district" />
		<tag k="name" v="Gjøtåsen" />
		<tag k="natural" v="hill" />
		<tag k="place" v="locality" />
		<tag k="ssr:stedsnr" v="600121" />
	</node>
	<node lat="65.89973333584847" lon="12.40402778655111" id="-15169">
		<tag k="name" v="Garmansbakken" />
		<tag k="natural" v="slope" />
		<tag k="place" v="locality" />
		<tag k="ssr:stedsnr" v="700092" />
	</node>
	<node lat="65.88249166808991" lon="12.393866662015066" id="-15171">
		<tag k="name" v="Rundhaugen" />
		<tag k="natural" v="hill" />
		<tag k="place" v="locality" />
		<tag k="ssr:stedsnr" v="700593" />
	</node>
	<node lat="65.83660555357508" lon="12.48315278624076" id="-15172">
		<tag k="fixme" v="consider natural=peak for the most distinct mountains in the district" />
		<tag k="name" v="Tjøttaramnåsen" />
		<tag k="natural" v="hill" />
		<tag k="place" v="locality" />
		<tag k="ssr:stedsnr" v="701146" />
	</node>
	<node lat="65.97591388779894" lon="12.519347232568967" id="-15173">
		<tag k="fixme" v="consider natural=peak for the most distinct mountains in the district" />
		<tag k="name" v="St. Hansåsen" />
		<tag k="natural" v="hill" />
		<tag k="place" v="locality" />
		<tag k="ssr:stedsnr" v="701497" />
	</node>
	<node lat="66.00829721810011" lon="12.579024989992913" id="-15176">
		<tag k="name" v="Kirkegårdssletta" />
		<tag k="place" v="locality" />
		<tag k="ssr:stedsnr" v="701934" />
	</node>
	<node lat="65.94901388529667" lon="12.468866669712503" id="-15177">
		<tag k="name" v="Lislhatten" />
		<tag k="natural" v="hill" />
		<tag k="place" v="locality" />
		<tag k="ssr:stedsnr" v="701994" />
	</node>
	<node lat="65.97236111347421" lon="12.504297220358993" id="-15187">
		<tag k="alt_name" v="Stokkaåsen" />
		<tag k="fixme" v="consider natural=peak for the most distinct mountains in the district" />
		<tag k="name" v="Stokkeråsen" />
		<tag k="natural" v="hill" />
		<tag k="place" v="locality" />
		<tag k="ssr:stedsnr" v="622285" />
	</node>
	<node lat="65.78636388595154" lon="12.441116657141892" id="-15198">
		<tag k="name" v="Grytheia" />
		<tag k="natural" v="hill" />
		<tag k="place" v="locality" />
		<tag k="ssr:stedsnr" v="638413" />
	</node>
	<node lat="65.77465555870901" lon="12.44751944896293" id="-15199">
		<tag k="name" v="Storgurukleppen" />
		<tag k="natural" v="hill" />
		<tag k="place" v="locality" />
		<tag k="ssr:stedsnr" v="638415" />
	</node>
	<node lat="65.84274167028805" lon="12.465283336508705" id="-15200">
		<tag k="name" v="Ramnfloget" />
		<tag k="natural" v="cliff" />
		<tag k="ssr:stedsnr" v="639526" />
	</node>
	<node lat="65.97942777346195" lon="12.529572218414332" id="-15202">
		<tag k="fixme" v="consider natural=peak for the most distinct mountains in the district" />
		<tag k="name" v="Stokkeråsen" />
		<tag k="natural" v="hill" />
		<tag k="place" v="locality" />
		<tag k="ssr:stedsnr" v="640440" />
	</node>
	<node lat="65.91316389125791" lon="12.417383339280466" id="-15206">
		<tag k="name" v="Korshaugen" />
		<tag k="natural" v="hill" />
		<tag k="place" v="locality" />
		<tag k="ssr:stedsnr" v="640684" />
	</node>
	<node lat="66.00903333719845" lon="12.57274167267687" id="-15207">
		<tag k="name" v="Segelbergan" />
		<tag k="natural" v="hill" />
		<tag k="place" v="locality" />
		<tag k="ssr:stedsnr" v="640923" />
	</node>
	<node lat="65.80405555408795" lon="12.481997220723423" id="-15211">
		<tag k="fixme" v="consider natural=peak for the most distinct mountains in the district" />
		<tag k="name" v="Ramnflogheia" />
		<tag k="natural" v="hill" />
		<tag k="place" v="locality" />
		<tag k="ssr:stedsnr" v="648488" />
	</node>
	<node lat="65.95747221798904" lon="12.609955560526402" id="-15220">
		<tag k="fixme" v="consider natural=peak for the most distinct mountains in the district" />
		<tag k="name" v="Grytfoten" />
		<tag k="natural" v="hill" />
		<tag k="place" v="locality" />
		<tag k="ssr:stedsnr" v="682333" />
	</node>
	<node lat="65.99078055449857" lon="12.546044449920956" id="-15231">
		<tag k="name" v="Lia" />
		<tag k="natural" v="slope" />
		<tag k="place" v="locality" />
		<tag k="ssr:stedsnr" v="700167" />
	</node>
	<node lat="65.7576861152274" lon="12.399247223843624" id="-15232">
		<tag k="name" v="Ehaugen" />
		<tag k="natural" v="hill" />
		<tag k="place" v="locality" />
		<tag k="ssr:stedsnr" v="700617" />
	</node>
	<node lat="65.7804777762949" lon="12.45830833470858" id="-15236">
		<tag k="name" v="Kleppan" />
		<tag k="natural" v="hill" />
		<tag k="place" v="locality" />
		<tag k="ssr:stedsnr" v="700870" />
	</node>
	<node lat="65.91271110734895" lon="12.546338892370485" id="-15240">
		<tag k="name" v="Lindåskløven" />
		<tag k="natural" v="slope" />
		<tag k="place" v="locality" />
		<tag k="ssr:stedsnr" v="722123" />
	</node>
	<node lat="65.91096944092396" lon="12.546352779560621" id="-15241">
		<tag k="fixme" v="consider natural=peak for the most distinct mountains in the district" />
		<tag k="name" v="Tømmeråsen" />
		<tag k="natural" v="hill" />
		<tag k="place" v="locality" />
		<tag k="ssr:stedsnr" v="722124" />
	</node>
	<node lat="65.80432777891725" lon="12.528486117475671" id="-15245">
		<tag k="fixme" v="consider natural=peak for the most distinct mountains in the district" />
		<tag k="name" v="Månklubben" />
		<tag k="natural" v="hill" />
		<tag k="place" v="locality" />
		<tag k="ssr:stedsnr" v="743041" />
	</node>
	<node lat="65.75361388782923" lon="12.400605555714872" id="-15246">
		<tag k="fixme" v="consider natural=peak for the most distinct mountains in the district" />
		<tag k="name" v="Hagåsen" />
		<tag k="natural" v="hill" />
		<tag k="place" v="locality" />
		<tag k="ssr:stedsnr" v="743102" />
	</node>
	<node lat="65.7677333348849" lon="12.420747222618328" id="-15265">
		<tag k="name" v="Ravnfloget" />
		<tag k="natural" v="gorge" />
		<tag k="ssr:stedsnr" v="760558" />
	</node>
	<node lat="65.90132499645738" lon="12.477436116319973" id="-15270">
		<tag k="name" v="Storstua" />
		<tag k="place" v="locality" />
		<tag k="ssr:stedsnr" v="761516" />
	</node>
	<node lat="65.95745277661725" lon="12.484513893975805" id="-15274">
		<tag k="fixme" v="consider natural=peak for the most distinct mountains in the district" />
		<tag k="name" v="Lislgrythatten" />
		<tag k="natural" v="hill" />
		<tag k="place" v="locality" />
		<tag k="ssr:stedsnr" v="762099" />
	</node>
	<node lat="65.99223333177592" lon="12.538697222288743" id="-15275">
		<tag k="name" v="Hestskaret" />
		<tag k="natural" v="valley" />
		<tag k="place" v="locality" />
		<tag k="ssr:stedsnr" v="762355" />
	</node>
	<node lat="65.89105555818503" lon="12.289041664833197" id="-15277">
		<tag k="fixme" v="consider natural=peak for the most distinct mountains in the district" />
		<tag k="name" v="Sjøheia" />
		<tag k="natural" v="hill" />
		<tag k="place" v="locality" />
		<tag k="ssr:stedsnr" v="907429" />
	</node>
	<node lat="65.9787777816168" lon="12.500872219272425" id="-15279">
		<tag k="name" v="Sankarhaugen" />
		<tag k="natural" v="hill" />
		<tag k="place" v="locality" />
		<tag k="ssr:stedsnr" v="909048" />
	</node>
	<node lat="65.90644166796801" lon="12.52156665758399" id="-15280">
		<tag k="name" v="Geitberget" />
		<tag k="natural" v="hill" />
		<tag k="place" v="locality" />
		<tag k="ssr:stedsnr" v="783099" />
	</node>
	<node lat="66.01101944430759" lon="12.722127779115063" id="-15286">
		<tag k="name" v="Oterreina" />
		<tag k="natural" v="hill" />
		<tag k="place" v="locality" />
		<tag k="ssr:stedsnr" v="785151" />
	</node>
	<node lat="65.99615833744915" lon="12.734777782660279" id="-15289">
		<tag k="fixme" v="consider natural=peak for the most distinct mountains in the district" />
		<tag k="name" v="Kilfjellet" />
		<tag k="natural" v="hill" />
		<tag k="place" v="locality" />
		<tag k="ssr:stedsnr" v="804123" />
	</node>
	<node lat="66.02339722114625" lon="12.670349997917203" id="-15314">
		<tag k="name" v="Limhaugen" />
		<tag k="natural" v="hill" />
		<tag k="place" v="locality" />
		<tag k="ssr:stedsnr" v="819773" />
	</node>
	<node lat="65.77118889305316" lon="12.428508337939174" id="-15315">
		<tag k="name" v="Stia" />
		<tag k="natural" v="valley" />
		<tag k="place" v="locality" />
		<tag k="ssr:stedsnr" v="821526" />
	</node>
	<node lat="65.90555278134082" lon="12.49338332433384" id="-15318">
		<tag k="fixme" v="consider natural=peak for the most distinct mountains in the district" />
		<tag k="name" v="Storfjellet" />
		<tag k="natural" v="hill" />
		<tag k="place" v="locality" />
		<tag k="ssr:stedsnr" v="823579" />
	</node>
	<node lat="65.9061777771407" lon="12.540330552300611" id="-15319">
		<tag k="fixme" v="consider natural=peak for the most distinct mountains in the district" />
		<tag k="name" v="Flatåsen" />
		<tag k="natural" v="hill" />
		<tag k="place" v="locality" />
		<tag k="ssr:stedsnr" v="844116" />
	</node>
	<node lat="65.97233333284858" lon="12.499850006956201" id="-15327">
		<tag k="name" v="Geithallargjota" />
		<tag k="natural" v="valley" />
		<tag k="place" v="locality" />
		<tag k="ssr:stedsnr" v="848083" />
	</node>
	<node lat="65.83751388634147" lon="12.457344449135366" id="-15344">
		<tag k="name" v="Stormarkslia" />
		<tag k="natural" v="slope" />
		<tag k="place" v="locality" />
		<tag k="ssr:stedsnr" v="883209" />
	</node>
	<node lat="65.95271667028874" lon="12.529836122478569" id="-15345">
		<tag k="name" v="Markvollskaret" />
		<tag k="natural" v="valley" />
		<tag k="place" v="locality" />
		<tag k="ssr:stedsnr" v="883311" />
	</node>
	<node lat="65.96196666636716" lon="12.54607777776542" id="-15352">
		<tag k="name" v="Trollhaugen" />
		<tag k="natural" v="hill" />
		<tag k="place" v="locality" />
		<tag k="ssr:stedsnr" v="884210" />
	</node>
	<node lat="65.77041111136379" lon="12.471213888917061" id="-15353">
		<tag k="name" v="Aberget" />
		<tag k="natural" v="hill" />
		<tag k="place" v="locality" />
		<tag k="ssr:stedsnr" v="883996" />
	</node>
	<node lat="65.9668749975336" lon="12.492016669517866" id="-15355">
		<tag k="name" v="Buskaret" />
		<tag k="natural" v="valley" />
		<tag k="place" v="locality" />
		<tag k="ssr:stedsnr" v="884998" />
	</node>
	<node lat="65.96466388653614" lon="12.485930547620113" id="-15356">
		<tag k="name" v="Stokkaskaret" />
		<tag k="natural" v="valley" />
		<tag k="place" v="locality" />
		<tag k="ssr:stedsnr" v="884999" />
	</node>
	<node lat="65.87402500252774" lon="12.61959999018163" id="-15357">
		<tag k="fixme" v="consider natural=peak for the most distinct mountains in the district" />
		<tag k="name" v="Nordfagerbakken" />
		<tag k="natural" v="hill" />
		<tag k="place" v="locality" />
		<tag k="ssr:stedsnr" v="906061" />
	</node>
	<node lat="66.00073333500045" lon="12.711888883158494" id="-15359">
		<tag k="fixme" v="consider natural=peak for the most distinct mountains in the district" />
		<tag k="name" v="Horva" />
		<tag k="natural" v="hill" />
		<tag k="place" v="locality" />
		<tag k="ssr:stedsnr" v="907166" />
	</node>
	<node lat="65.97718611034355" lon="12.618913883171086" id="-15372">
		<tag k="name" v="Ramnfloget" />
		<tag k="natural" v="slope" />
		<tag k="place" v="locality" />
		<tag k="ssr:stedsnr" v="926265" />
	</node>
	<node lat="65.83122499654986" lon="12.399147211928323" id="-15378">
		<tag k="name" v="Svarthaugen" />
		<tag k="natural" v="hill" />
		<tag k="place" v="locality" />
		<tag k="ssr:stedsnr" v="926455" />
	</node>
	<node lat="65.99786111417768" lon="12.599880553996268" id="-15380">
		<tag k="alt_name" v="Bjørnebæråsen" />
		<tag k="fixme" v="consider natural=peak for the most distinct mountains in the district" />
		<tag k="name" v="Bjønnbæråsen" />
		<tag k="natural" v="hill" />
		<tag k="place" v="locality" />
		<tag k="ssr:stedsnr" v="926608" />
	</node>
	<node lat="65.81756111443455" lon="12.422683335519872" id="-15387">
		<tag k="name" v="Vikahaugen" />
		<tag k="natural" v="hill" />
		<tag k="place" v="locality" />
		<tag k="ssr:stedsnr" v="944171" />
	</node>
	<node lat="65.91191944270838" lon="12.54511945244978" id="-15392">
		<tag k="name" v="Marikrustilaen" />
		<tag k="natural" v="slope" />
		<tag k="place" v="locality" />
		<tag k="ssr:stedsnr" v="965107" />
	</node>
	<node lat="65.91006111209983" lon="12.531083329829691" id="-15393">
		<tag k="name" v="Lisllia" />
		<tag k="natural" v="slope" />
		<tag k="place" v="locality" />
		<tag k="ssr:stedsnr" v="965109" />
	</node>
	<node lat="65.91026944068265" lon="12.535083342701535" id="-15394">
		<tag k="name" v="Lislmoen" />
		<tag k="place" v="locality" />
		<tag k="ssr:stedsnr" v="965111" />
	</node>
	<node lat="65.9709361115121" lon="12.50214722820943" id="-15395">
		<tag k="name" v="Stokkanakken" />
		<tag k="natural" v="ridge" />
		<tag k="place" v="locality" />
		<tag k="ssr:stedsnr" v="965875" />
	</node>
	<node lat="65.84355833286196" lon="12.242244451875411" id="-15398">
		<tag k="name" v="Ørnhaugen" />
		<tag k="natural" v="hill" />
		<tag k="place" v="locality" />
		<tag k="ssr:stedsnr" v="968606" />
	</node>
	<node lat="65.90637500312756" lon="12.455527774211255" id="-15500">
		<tag k="name" v="Søvikskardet" />
		<tag k="natural" v="valley" />
		<tag k="place" v="locality" />
		<tag k="ssr:stedsnr" v="15393" />
	</node>
	<node lat="65.91264166459688" lon="12.56453610531707" id="-15501">
		<tag k="alt_name" v="Raksåsen" />
		<tag k="fixme" v="consider natural=peak for the most distinct mountains in the district" />
		<tag k="name" v="Rakåsen" />
		<tag k="natural" v="hill" />
		<tag k="place" v="locality" />
		<tag k="ssr:stedsnr" v="15397" />
	</node>
	<node lat="65.7700944423005" lon="12.44471667425339" id="-15519">
		<tag k="name" v="Rismålshaugen" />
		<tag k="natural" v="hill" />
		<tag k="place" v="locality" />
		<tag k="ssr:stedsnr" v="32505" />
	</node>
	<node lat="65.83113055246467" lon="12.439194437205854" id="-15520">
		<tag k="name" v="Hamnliaksla" />
		<tag k="natural" v="ridge" />
		<tag k="place" v="locality" />
		<tag k="ssr:stedsnr" v="33434" />
	</node>
	<node lat="65.82937500331475" lon="12.44257221436063" id="-15521">
		<tag k="name" v="Sommarfjøshaugen" />
		<tag k="natural" v="hill" />
		<tag k="place" v="locality" />
		<tag k="ssr:stedsnr" v="33438" />
	</node>
	<node lat="65.98099166544952" lon="12.579772231741586" id="-15524">
		<tag k="fixme" v="consider natural=peak for the most distinct mountains in the district" />
		<tag k="name" v="Fagervollen" />
		<tag k="natural" v="hill" />
		<tag k="place" v="locality" />
		<tag k="ssr:stedsnr" v="34394" />
	</node>
	<node lat="65.76037777523351" lon="12.413041667706608" id="-15525">
		<tag k="name" v="Laukskaret" />
		<tag k="natural" v="valley" />
		<tag k="place" v="locality" />
		<tag k="ssr:stedsnr" v="32521" />
	</node>
	<node lat="65.86001944334816" lon="12.474963888977737" id="-15527">
		<tag k="name" v="Vardneset" />
		<tag k="natural" v="hill" />
		<tag k="place" v="locality" />
		<tag k="ssr:stedsnr" v="33492" />
	</node>
	<node lat="65.95448333482717" lon="12.53562778595698" id="-15529">
		<tag k="name" v="Rabben" />
		<tag k="natural" v="ridge" />
		<tag k="place" v="locality" />
		<tag k="ssr:stedsnr" v="34230" />
	</node>
	<node lat="65.9137333292618" lon="12.429633330093548" id="-15532">
		<tag k="name" v="Låghalsen" />
		<tag k="natural" v="ridge" />
		<tag k="place" v="locality" />
		<tag k="ssr:stedsnr" v="34636" />
	</node>
	<node lat="65.90644721981401" lon="12.464111108914253" id="-15533">
		<tag k="fixme" v="consider natural=peak for the most distinct mountains in the district" />
		<tag k="name" v="Jakobsfjellet" />
		<tag k="natural" v="hill" />
		<tag k="place" v="locality" />
		<tag k="ssr:stedsnr" v="34579" />
	</node>
	<node lat="65.91696389048803" lon="12.4785944477664" id="-15534">
		<tag k="name" v="Seterlia" />
		<tag k="natural" v="slope" />
		<tag k="place" v="locality" />
		<tag k="ssr:stedsnr" v="34583" />
	</node>
	<node lat="65.86570832973828" lon="12.25719444831157" id="-15539">
		<tag k="fixme" v="consider natural=peak for the most distinct mountains in the district" />
		<tag k="name" v="Båtvikheien" />
		<tag k="natural" v="hill" />
		<tag k="place" v="locality" />
		<tag k="ssr:stedsnr" v="44860" />
	</node>
	<node lat="65.90713332933119" lon="12.546080562512685" id="-15540">
		<tag k="name" v="Danelhaugen" />
		<tag k="natural" v="hill" />
		<tag k="place" v="locality" />
		<tag k="ssr:stedsnr" v="55153" />
	</node>
	<node lat="65.90696944706647" lon="12.519166667695576" id="-15542">
		<tag k="name" v="Heggkrullen" />
		<tag k="natural" v="ridge" />
		<tag k="place" v="locality" />
		<tag k="ssr:stedsnr" v="55112" />
	</node>
	<node lat="65.88693889331327" lon="12.282255558061788" id="-15544">
		<tag k="fixme" v="consider natural=peak for the most distinct mountains in the district" />
		<tag k="name" v="Sør-Kolvikåsen" />
		<tag k="natural" v="hill" />
		<tag k="place" v="locality" />
		<tag k="ssr:stedsnr" v="57442" />
	</node>
	<node lat="65.9766583303648" lon="12.510661114903282" id="-15545">
		<tag k="name" v="Kolgropskaret" />
		<tag k="natural" v="valley" />
		<tag k="place" v="locality" />
		<tag k="ssr:stedsnr" v="59064" />
	</node>
	<node lat="65.9710833325951" lon="12.496847225249363" id="-15546">
		<tag k="name" v="Svartgjota" />
		<tag k="natural" v="valley" />
		<tag k="place" v="locality" />
		<tag k="ssr:stedsnr" v="59068" />
	</node>
	<node lat="66.0160000037973" lon="12.660261105035442" id="-15583">
		<tag k="name" v="Tornhaugen" />
		<tag k="natural" v="hill" />
		<tag k="place" v="locality" />
		<tag k="ssr:stedsnr" v="91739" />
	</node>
	<node lat="65.89596667054076" lon="12.400236114781588" id="-15585">
		<tag k="name" v="Alberhaugen" />
		<tag k="natural" v="hill" />
		<tag k="place" v="locality" />
		<tag k="ssr:stedsnr" v="94056" />
	</node>
	<node lat="65.89905555387944" lon="12.441758323546688" id="-15586">
		<tag k="name" v="Storkløvan" />
		<tag k="natural" v="slope" />
		<tag k="place" v="locality" />
		<tag k="ssr:stedsnr" v="94132" />
	</node>
	<node lat="65.8933916675605" lon="12.420583327922941" id="-15587">
		<tag k="name" v="Ormlia" />
		<tag k="natural" v="slope" />
		<tag k="place" v="locality" />
		<tag k="ssr:stedsnr" v="94135" />
	</node>
	<node lat="65.83235277925313" lon="12.4738111221384" id="-15588">
		<tag k="name" v="Stor-Vindhammaren" />
		<tag k="natural" v="hill" />
		<tag k="place" v="locality" />
		<tag k="ssr:stedsnr" v="94141" />
	</node>
	<node lat="65.83514722609947" lon="12.45704721722367" id="-15589">
		<tag k="name" v="Stormarkhaugem" />
		<tag k="natural" v="hill" />
		<tag k="place" v="locality" />
		<tag k="ssr:stedsnr" v="94215" />
	</node>
	<node lat="65.91377777924109" lon="12.47315834290562" id="-15596">
		<tag k="name" v="Ormlia" />
		<tag k="natural" v="slope" />
		<tag k="place" v="locality" />
		<tag k="ssr:stedsnr" v="94662" />
	</node>
	<node lat="65.92040555455041" lon="12.429508325568419" id="-15599">
		<tag k="fixme" v="consider natural=peak for the most distinct mountains in the district" />
		<tag k="name" v="Jektvikåsen" />
		<tag k="natural" v="hill" />
		<tag k="place" v="locality" />
		<tag k="ssr:stedsnr" v="94717" />
	</node>
	<node lat="65.95549444578273" lon="12.475000001782561" id="-15601">
		<tag k="fixme" v="consider natural=peak for the most distinct mountains in the district" />
		<tag k="name" v="Flatåsen" />
		<tag k="natural" v="hill" />
		<tag k="place" v="locality" />
		<tag k="ssr:stedsnr" v="95994" />
	</node>
	<node lat="65.91206389223507" lon="12.326855555947102" id="-15606">
		<tag k="name" v="Tennskjærhaugan" />
		<tag k="natural" v="hill" />
		<tag k="place" v="locality" />
		<tag k="ssr:stedsnr" v="101351" />
	</node>
	<node lat="65.86830277589402" lon="12.442711105713316" id="-15609">
		<tag k="name" v="Heibergan" />
		<tag k="natural" v="hill" />
		<tag k="place" v="locality" />
		<tag k="ssr:stedsnr" v="102557" />
	</node>
	<node lat="65.7853472229191" lon="12.5288861146221" id="-15611">
		<tag k="name" v="Ramnfloget" />
		<tag k="natural" v="cliff" />
		<tag k="ssr:stedsnr" v="117076" />
	</node>
	<node lat="65.93067777759445" lon="12.59942222273986" id="-15613">
		<tag k="name" v="Nordholten" />
		<tag k="natural" v="hill" />
		<tag k="place" v="locality" />
		<tag k="ssr:stedsnr" v="136372" />
	</node>
	<node lat="65.82536389235159" lon="12.548713880087202" id="-15621">
		<tag k="alt_name" v="Røøyfjellet" />
		<tag k="fixme" v="consider natural=peak for the most distinct mountains in the district" />
		<tag k="name" v="Rødøyfjellet" />
		<tag k="natural" v="hill" />
		<tag k="place" v="locality" />
		<tag k="ssr:stedsnr" v="136507" />
	</node>
	<node lat="65.90869721963804" lon="12.420363891586494" id="-15628">
		<tag k="fixme" v="consider natural=peak for the most distinct mountains in the district" />
		<tag k="name" v="Likrona" />
		<tag k="natural" v="hill" />
		<tag k="place" v="locality" />
		<tag k="ssr:stedsnr" v="136396" />
	</node>
	<node lat="65.96355832920472" lon="12.562811114030476" id="-15636">
		<tag k="fixme" v="consider natural=peak for the most distinct mountains in the district" />
		<tag k="name" v="Elvåsen" />
		<tag k="natural" v="hill" />
		<tag k="place" v="locality" />
		<tag k="ssr:stedsnr" v="137257" />
	</node>
	<node lat="65.83476666228292" lon="12.472316672634035" id="-15646">
		<tag k="name" v="Kjerringhaugen" />
		<tag k="natural" v="hill" />
		<tag k="place" v="locality" />
		<tag k="ssr:stedsnr" v="154174" />
	</node>
	<node lat="65.84586944838817" lon="12.497916667832643" id="-15648">
		<tag k="name" v="Storhaugen" />
		<tag k="natural" v="hill" />
		<tag k="place" v="locality" />
		<tag k="ssr:stedsnr" v="154544" />
	</node>
	<node lat="66.00921111180976" lon="12.616552785776907" id="-15652">
		<tag k="name" v="Sandnesdalen" />
		<tag k="natural" v="valley" />
		<tag k="place" v="locality" />
		<tag k="ssr:stedsnr" v="155358" />
	</node>
	<node lat="65.99538888619064" lon="12.54703054674195" id="-15653">
		<tag k="name" v="Myrskaret" />
		<tag k="natural" v="valley" />
		<tag k="place" v="locality" />
		<tag k="ssr:stedsnr" v="155537" />
	</node>
	<node lat="65.933852777475" lon="12.510772213836924" id="-15655">
		<tag k="name" v="Røykhøla" />
		<tag k="natural" v="valley" />
		<tag k="place" v="locality" />
		<tag k="ssr:stedsnr" v="155635" />
	</node>
	<node lat="65.94357222023223" lon="12.477580566192676" id="-15656">
		<tag k="fixme" v="consider natural=peak for the most distinct mountains in the district" />
		<tag k="name" v="Smøråsen" />
		<tag k="natural" v="hill" />
		<tag k="place" v="locality" />
		<tag k="ssr:stedsnr" v="155682" />
	</node>
	<node lat="65.91782221976013" lon="12.415244439555353" id="-15657">
		<tag k="name" v="Hohaugen" />
		<tag k="natural" v="hill" />
		<tag k="place" v="locality" />
		<tag k="ssr:stedsnr" v="155641" />
	</node>
	<node lat="65.98274166244569" lon="12.508813895495601" id="-15660">
		<tag k="name" v="Omnan" />
		<tag k="natural" v="slope" />
		<tag k="place" v="locality" />
		<tag k="ssr:stedsnr" v="180034" />
	</node>
	<node lat="65.97626944260752" lon="12.495633328639366" id="-15662">
		<tag k="name" v="Karthaugen" />
		<tag k="natural" v="hill" />
		<tag k="place" v="locality" />
		<tag k="ssr:stedsnr" v="180075" />
	</node>
	<node lat="66.0178222261513" lon="12.668311116188772" id="-15686">
		<tag k="name" v="Tuvskaret" />
		<tag k="natural" v="valley" />
		<tag k="place" v="locality" />
		<tag k="ssr:stedsnr" v="213741" />
	</node>
	<node lat="65.77499722325005" lon="12.424061103692246" id="-15688">
		<tag k="name" v="Brastadskaret" />
		<tag k="natural" v="valley" />
		<tag k="place" v="locality" />
		<tag k="ssr:stedsnr" v="214457" />
	</node>
	<node lat="65.83258055677642" lon="12.442588889687972" id="-15691">
		<tag k="name" v="Mølnhusdalen" />
		<tag k="natural" v="valley" />
		<tag k="place" v="locality" />
		<tag k="ssr:stedsnr" v="215451" />
	</node>
	<node lat="65.83137777424345" lon="12.40970833974309" id="-15694">
		<tag k="name" v="Korsneshaugen" />
		<tag k="place" v="locality" />
		<tag k="ssr:stedsnr" v="215549" />
	</node>
	<node lat="65.97486389089859" lon="12.542002768855934" id="-15697">
		<tag k="name" v="Dydalen" />
		<tag k="natural" v="valley" />
		<tag k="place" v="locality" />
		<tag k="ssr:stedsnr" v="216434" />
	</node>
	<node lat="65.9228694451574" lon="12.422061100322068" id="-15699">
		<tag k="name" v="Haraldhaugen" />
		<tag k="natural" v="hill" />
		<tag k="place" v="locality" />
		<tag k="ssr:stedsnr" v="216648" />
	</node>
	<node lat="65.90004722580812" lon="12.385699991854732" id="-15701">
		<tag k="name" v="Raubergan" />
		<tag k="natural" v="hill" />
		<tag k="place" v="locality" />
		<tag k="ssr:stedsnr" v="276084" />
	</node>
	<node lat="65.826727781782" lon="12.432033342416236" id="-15702">
		<tag k="name" v="Kruno" />
		<tag k="natural" v="hill" />
		<tag k="place" v="locality" />
		<tag k="ssr:stedsnr" v="276460" />
	</node>
	<node lat="65.84129166478007" lon="12.48999166859125" id="-15704">
		<tag k="fixme" v="consider natural=peak for the most distinct mountains in the district" />
		<tag k="name" v="Ramnåsen" />
		<tag k="natural" v="hill" />
		<tag k="place" v="locality" />
		<tag k="ssr:stedsnr" v="276540" />
	</node>
	<node lat="65.94536944016193" lon="12.510802773490898" id="-15706">
		<tag k="name" v="Trollskaret" />
		<tag k="natural" v="valley" />
		<tag k="place" v="locality" />
		<tag k="ssr:stedsnr" v="276737" />
	</node>
	<node lat="65.94703611044903" lon="12.465477774090523" id="-15708">
		<tag k="name" v="Hattklubben" />
		<tag k="natural" v="hill" />
		<tag k="place" v="locality" />
		<tag k="ssr:stedsnr" v="277992" />
	</node>
	<node lat="65.87426111021298" lon="12.26856666451476" id="-15709">
		<tag k="fixme" v="consider natural=peak for the most distinct mountains in the district" />
		<tag k="name" v="Gregusåsen" />
		<tag k="natural" v="hill" />
		<tag k="place" v="locality" />
		<tag k="ssr:stedsnr" v="287875" />
	</node>
	<node lat="65.96337778148525" lon="12.564944447973946" id="-15710">
		<tag k="fixme" v="consider natural=peak for the most distinct mountains in the district" />
		<tag k="name" v="Kromman" />
		<tag k="natural" v="hill" />
		<tag k="place" v="locality" />
		<tag k="ssr:stedsnr" v="293371" />
	</node>
	<node lat="65.87518888934166" lon="12.617694439256972" id="-15718">
		<tag k="fixme" v="consider natural=peak for the most distinct mountains in the district" />
		<tag k="name" v="Ørnhaugen" />
		<tag k="natural" v="hill" />
		<tag k="place" v="locality" />
		<tag k="ssr:stedsnr" v="299065" />
	</node>
	<node lat="65.91800278182669" lon="12.538416676951444" id="-15738">
		<tag k="name" v="Dyrdalen" />
		<tag k="natural" v="valley" />
		<tag k="place" v="locality" />
		<tag k="ssr:stedsnr" v="319329" />
	</node>
	<node lat="65.91109166563126" lon="12.40674722483178" id="-15739">
		<tag k="fixme" v="consider natural=peak for the most distinct mountains in the district" />
		<tag k="name" v="Ørntuva" />
		<tag k="natural" v="hill" />
		<tag k="place" v="locality" />
		<tag k="ssr:stedsnr" v="319334" />
	</node>
	<node lat="65.89916110894889" lon="12.425294448886087" id="-15740">
		<tag k="fixme" v="consider natural=peak for the most distinct mountains in the district" />
		<tag k="name" v="Langfjellet" />
		<tag k="natural" v="hill" />
		<tag k="place" v="locality" />
		<tag k="ssr:stedsnr" v="319349" />
	</node>
	<node lat="65.89981944427387" lon="12.391261114610367" id="-15750">
		<tag k="fixme" v="consider natural=peak for the most distinct mountains in the district" />
		<tag k="name" v="Fjøsåsen" />
		<tag k="natural" v="hill" />
		<tag k="place" v="locality" />
		<tag k="ssr:stedsnr" v="336070" />
	</node>
	<node lat="65.90194722184732" lon="12.407658336939447" id="-15751">
		<tag k="name" v="Lislguruhaugen" />
		<tag k="natural" v="hill" />
		<tag k="place" v="locality" />
		<tag k="ssr:stedsnr" v="336079" />
	</node>
	<node lat="65.85203055841795" lon="12.491736115034128" id="-15754">
		<tag k="fixme" v="consider natural=peak for the most distinct mountains in the district" />
		<tag k="name" v="Stuåsen" />
		<tag k="natural" v="hill" />
		<tag k="place" v="locality" />
		<tag k="ssr:stedsnr" v="336480" />
	</node>
	<node lat="65.98123611450578" lon="12.521605563677465" id="-15760">
		<tag k="name" v="Slettbakken" />
		<tag k="natural" v="slope" />
		<tag k="place" v="locality" />
		<tag k="ssr:stedsnr" v="337438" />
	</node>
	<node lat="65.96843610981534" lon="12.549797223468815" id="-15761">
		<tag k="name" v="Dyan" />
		<tag k="place" v="locality" />
		<tag k="ssr:stedsnr" v="337482" />
	</node>
	<node lat="65.9195638857776" lon="12.43481666079762" id="-15762">
		<tag k="fixme" v="consider natural=peak for the most distinct mountains in the district" />
		<tag k="name" v="Mønsåsen" />
		<tag k="natural" v="hill" />
		<tag k="place" v="locality" />
		<tag k="ssr:stedsnr" v="337665" />
	</node>
	<node lat="65.79946666853087" lon="12.481441662478753" id="-15763">
		<tag k="name" v="Tjukkmarkbakken" />
		<tag k="natural" v="slope" />
		<tag k="place" v="locality" />
		<tag k="ssr:stedsnr" v="345462" />
	</node>
	<node lat="65.84115833401698" lon="12.240705548302337" id="-15768">
		<tag k="name" v="Låghalsen" />
		<tag k="natural" v="hill" />
		<tag k="place" v="locality" />
		<tag k="ssr:stedsnr" v="361605" />
	</node>
	<node lat="65.7469472221513" lon="12.387252781944063" id="-15771">
		<tag k="fixme" v="consider natural=peak for the most distinct mountains in the district" />
		<tag k="name" v="Jektåsen" />
		<tag k="natural" v="hill" />
		<tag k="place" v="locality" />
		<tag k="ssr:stedsnr" v="379196" />
	</node>
	<node lat="65.91383610953048" lon="12.434683332676386" id="-15774">
		<tag k="fixme" v="consider natural=peak for the most distinct mountains in the district" />
		<tag k="name" v="Nubben" />
		<tag k="natural" v="hill" />
		<tag k="place" v="locality" />
		<tag k="ssr:stedsnr" v="379341" />
	</node>
	<node lat="65.90573333664413" lon="12.473905559573684" id="-15775">
		<tag k="fixme" v="consider natural=peak for the most distinct mountains in the district" />
		<tag k="name" v="Einangsfjellet" />
		<tag k="natural" v="hill" />
		<tag k="place" v="locality" />
		<tag k="ssr:stedsnr" v="379344" />
	</node>
	<node lat="65.8268222220929" lon="12.395586112311303" id="-15784">
		<tag k="alt_name" v="Laberghaugen" />
		<tag k="name" v="Laberhaugen" />
		<tag k="natural" v="hill" />
		<tag k="place" v="locality" />
		<tag k="ssr:stedsnr" v="379451" />
	</node>
	<node lat="65.83689999659673" lon="12.454280548397797" id="-15793">
		<tag k="name" v="Asphaugen" />
		<tag k="natural" v="hill" />
		<tag k="place" v="locality" />
		<tag k="ssr:stedsnr" v="397217" />
	</node>
	<node lat="65.768097220391" lon="12.464322217902138" id="-15796">
		<tag k="name" v="Orshaugen" />
		<tag k="natural" v="hill" />
		<tag k="place" v="locality" />
		<tag k="ssr:stedsnr" v="397563" />
	</node>
	<node lat="65.83398888798571" lon="12.396883327304229" id="-15798">
		<tag k="name" v="Gullhaugan" />
		<tag k="natural" v="hill" />
		<tag k="place" v="locality" />
		<tag k="ssr:stedsnr" v="397510" />
	</node>
	<node lat="65.96713888732528" lon="12.493930552613108" id="-15799">
		<tag k="name" v="Lislramfloget" />
		<tag k="natural" v="cliff" />
		<tag k="ssr:stedsnr" v="398095" />
	</node>
	<node lat="65.95922499767983" lon="12.538502785016242" id="-15800">
		<tag k="name" v="Skjåbakken" />
		<tag k="natural" v="slope" />
		<tag k="place" v="locality" />
		<tag k="ssr:stedsnr" v="398236" />
	</node>
	<node lat="65.90407222132916" lon="12.399355554722128" id="-15803">
		<tag k="fixme" v="consider natural=peak for the most distinct mountains in the district" />
		<tag k="name" v="Fjøsåsen" />
		<tag k="natural" v="hill" />
		<tag k="place" v="locality" />
		<tag k="ssr:stedsnr" v="398601" />
	</node>
	<node lat="65.91386110851438" lon="12.413747213255707" id="-15804">
		<tag k="fixme" v="consider natural=peak for the most distinct mountains in the district" />
		<tag k="name" v="Husåsen" />
		<tag k="natural" v="hill" />
		<tag k="place" v="locality" />
		<tag k="ssr:stedsnr" v="398644" />
	</node>
	<node lat="65.79638333529661" lon="12.469186108732092" id="-15808">
		<tag k="fixme" v="consider natural=peak for the most distinct mountains in the district" />
		<tag k="name" v="Ervikheia" />
		<tag k="natural" v="hill" />
		<tag k="place" v="locality" />
		<tag k="ssr:stedsnr" v="406514" />
	</node>
	<node lat="65.86510555409707" lon="12.261644442016848" id="-15809">
		<tag k="fixme" v="consider natural=peak for the most distinct mountains in the district" />
		<tag k="name" v="Risåsen" />
		<tag k="natural" v="hill" />
		<tag k="place" v="locality" />
		<tag k="ssr:stedsnr" v="409976" />
	</node>
	<node lat="65.92098610944838" lon="12.58761110333793" id="-15812">
		<tag k="name" v="Einremma" />
		<tag k="place" v="locality" />
		<tag k="ssr:stedsnr" v="419157" />
	</node>
	<node lat="65.90814999565657" lon="12.51898611201488" id="-15813">
		<tag k="name" v="Storlia" />
		<tag k="natural" v="slope" />
		<tag k="place" v="locality" />
		<tag k="ssr:stedsnr" v="419127" />
	</node>
	<node lat="65.82440555219323" lon="12.555438883141562" id="-15814">
		<tag k="fixme" v="consider natural=peak for the most distinct mountains in the district" />
		<tag k="name" v="Røia" />
		<tag k="natural" v="hill" />
		<tag k="place" v="locality" />
		<tag k="ssr:stedsnr" v="419867" />
	</node>
	<node lat="65.96165555500777" lon="12.628000005032225" id="-15830">
		<tag k="fixme" v="consider natural=peak for the most distinct mountains in the district" />
		<tag k="name" v="Botnkrona" />
		<tag k="natural" v="hill" />
		<tag k="place" v="locality" />
		<tag k="ssr:stedsnr" v="440335" />
	</node>
	<node lat="65.91367778066667" lon="12.54006111765672" id="-15837">
		<tag k="name" v="Almlia" />
		<tag k="natural" v="slope" />
		<tag k="place" v="locality" />
		<tag k="ssr:stedsnr" v="440380" />
	</node>
	<node lat="65.84696666891283" lon="12.479902772765108" id="-15841">
		<tag k="fixme" v="consider natural=peak for the most distinct mountains in the district" />
		<tag k="name" v="Storhatten" />
		<tag k="natural" v="hill" />
		<tag k="place" v="locality" />
		<tag k="ssr:stedsnr" v="440463" />
	</node>
	<node lat="65.7778749976083" lon="12.425344446659336" id="-15864">
		<tag k="fixme" v="consider natural=peak for the most distinct mountains in the district" />
		<tag k="name" v="Smalfjellet" />
		<tag k="natural" v="hill" />
		<tag k="place" v="locality" />
		<tag k="ssr:stedsnr" v="501028" />
	</node>
	<node lat="65.76262221806384" lon="12.41952499548012" id="-15867">
		<tag k="fixme" v="multiple name tags, choose one and add the other to alt_name; consider natural=peak for the most distinct mountains in the district" />
		<tag k="name" v="Laukskartind;Lakeskardhatten" />
		<tag k="natural" v="hill" />
		<tag k="place" v="locality" />
		<tag k="ssr:stedsnr" v="501037" />
	</node>
	<node lat="65.7889111072042" lon="12.531519433414216" id="-15870">
		<tag k="fixme" v="multiple name tags, choose one and add the other to alt_name; consider natural=peak for the most distinct mountains in the district" />
		<tag k="name" v="Trohatten;Løvøyhatten" />
		<tag k="natural" v="hill" />
		<tag k="place" v="locality" />
		<tag k="ssr:stedsnr" v="501069" />
	</node>
	<node lat="65.82743889290468" lon="12.422333334321987" id="-15884">
		<tag k="name" v="Kjerkbakken" />
		<tag k="natural" v="hill" />
		<tag k="place" v="locality" />
		<tag k="ssr:stedsnr" v="518393" />
	</node>
	<node lat="66.00235277952362" lon="12.611452788811178" id="-15886">
		<tag k="name" v="Grindfattgjota" />
		<tag k="natural" v="valley" />
		<tag k="place" v="locality" />
		<tag k="ssr:stedsnr" v="519395" />
	</node>
	<node lat="66.00821388847532" lon="12.586869436584667" id="-15887">
		<tag k="fixme" v="consider natural=peak for the most distinct mountains in the district" />
		<tag k="name" v="Lyngåsen" />
		<tag k="natural" v="hill" />
		<tag k="place" v="locality" />
		<tag k="ssr:stedsnr" v="519405" />
	</node>
	<node lat="66.00366944482558" lon="12.60238333638595" id="-15888">
		<tag k="fixme" v="consider natural=peak for the most distinct mountains in the district" />
		<tag k="name" v="Blåbærhaugen" />
		<tag k="natural" v="hill" />
		<tag k="place" v="locality" />
		<tag k="ssr:stedsnr" v="519406" />
	</node>
	<node lat="65.8375333294964" lon="12.45002499968674" id="-15890">
		<tag k="fixme" v="consider natural=peak for the most distinct mountains in the district" />
		<tag k="name" v="Langåsen" />
		<tag k="natural" v="hill" />
		<tag k="place" v="locality" />
		<tag k="ssr:stedsnr" v="519187" />
	</node>
	<node lat="65.97344166933698" lon="12.57169999998655" id="-15891">
		<tag k="fixme" v="consider natural=peak for the most distinct mountains in the district" />
		<tag k="name" v="Brattåsen" />
		<tag k="natural" v="hill" />
		<tag k="place" v="locality" />
		<tag k="ssr:stedsnr" v="519485" />
	</node>
	<node lat="65.99559999636497" lon="12.54054721071165" id="-15893">
		<tag k="name" v="Sankarskaret" />
		<tag k="natural" v="valley" />
		<tag k="place" v="locality" />
		<tag k="ssr:stedsnr" v="519597" />
	</node>
	<node lat="65.90410555852038" lon="12.394527780545918" id="-15894">
		<tag k="fixme" v="consider natural=peak for the most distinct mountains in the district" />
		<tag k="name" v="Alkleppan" />
		<tag k="natural" v="hill" />
		<tag k="place" v="locality" />
		<tag k="ssr:stedsnr" v="519646" />
	</node>
	<node lat="66.01311944453286" lon="12.638108338702047" id="-15896">
		<tag k="fixme" v="consider natural=peak for the most distinct mountains in the district" />
		<tag k="name" v="Krokenåsen" />
		<tag k="natural" v="hill" />
		<tag k="place" v="locality" />
		<tag k="ssr:stedsnr" v="519998" />
	</node>
	<node lat="65.97288610773296" lon="12.578683341149466" id="-15902">
		<tag k="alt_name" v="Heklikammen" />
		<tag k="fixme" v="consider natural=peak for the most distinct mountains in the district" />
		<tag k="name" v="Hekklikammen" />
		<tag k="natural" v="hill" />
		<tag k="place" v="locality" />
		<tag k="ssr:stedsnr" v="561285" />
	</node>
	<node lat="65.90469444451968" lon="12.442991673153072" id="-15911">
		<tag k="fixme" v="consider natural=peak for the most distinct mountains in the district" />
		<tag k="name" v="Vettfjellet" />
		<tag k="natural" v="hill" />
		<tag k="place" v="locality" />
		<tag k="ssr:stedsnr" v="561368" />
	</node>
	<node lat="65.82777222150486" lon="12.431672212742736" id="-15925">
		<tag k="name" v="Kaldberghaugen" />
		<tag k="natural" v="hill" />
		<tag k="place" v="locality" />
		<tag k="ssr:stedsnr" v="561483" />
	</node>
	<node lat="65.82773055989698" lon="12.544438886155076" id="-15926">
		<tag k="fixme" v="consider natural=peak for the most distinct mountains in the district" />
		<tag k="name" v="Skarvhammaren" />
		<tag k="natural" v="hill" />
		<tag k="place" v="locality" />
		<tag k="ssr:stedsnr" v="561489" />
	</node>
	<node lat="65.8178166692139" lon="12.415722220094453" id="-15931">
		<tag k="fixme" v="consider natural=peak for the most distinct mountains in the district" />
		<tag k="name" v="Nonshaugen" />
		<tag k="natural" v="hill" />
		<tag k="place" v="locality" />
		<tag k="ssr:stedsnr" v="561476" />
	</node>
	<node lat="66.00281111057613" lon="12.613222220881692" id="-15938">
		<tag k="fixme" v="consider natural=peak for the most distinct mountains in the district" />
		<tag k="name" v="Høgåsen" />
		<tag k="natural" v="hill" />
		<tag k="place" v="locality" />
		<tag k="ssr:stedsnr" v="561883" />
	</node>
	<node lat="65.89251944738169" lon="12.411236116422547" id="-15946">
		<tag k="name" v="Haravollheia" />
		<tag k="natural" v="hill" />
		<tag k="place" v="locality" />
		<tag k="ssr:stedsnr" v="579124" />
	</node>
	<node lat="65.83718333304584" lon="12.475799999807972" id="-15949">
		<tag k="fixme" v="consider natural=peak for the most distinct mountains in the district" />
		<tag k="name" v="Innersmokkelåsan" />
		<tag k="natural" v="hill" />
		<tag k="place" v="locality" />
		<tag k="ssr:stedsnr" v="579184" />
	</node>
	<node lat="65.84924721806266" lon="12.494780562837654" id="-15951">
		<tag k="name" v="Tverrvollem" />
		<tag k="place" v="locality" />
		<tag k="ssr:stedsnr" v="579560" />
	</node>
	<node lat="65.96700000281481" lon="12.49751111331099" id="-15952">
		<tag k="name" v="Nakkan" />
		<tag k="natural" v="ridge" />
		<tag k="place" v="locality" />
		<tag k="ssr:stedsnr" v="580084" />
	</node>
	<node lat="65.98414444827908" lon="12.535916671636894" id="-15954">
		<tag k="name" v="Einmoen" />
		<tag k="place" v="locality" />
		<tag k="ssr:stedsnr" v="580363" />
	</node>
	<node lat="65.99080277448114" lon="12.612455556060377" id="-15955">
		<tag k="fixme" v="consider natural=peak for the most distinct mountains in the district" />
		<tag k="name" v="Heimeråsen" />
		<tag k="natural" v="hill" />
		<tag k="place" v="locality" />
		<tag k="ssr:stedsnr" v="580373" />
	</node>
	<node lat="65.94163889096029" lon="12.61843888749815" id="-15971">
		<tag k="name" v="Raksdalen" />
		<tag k="natural" v="valley" />
		<tag k="place" v="locality" />
		<tag k="ssr:stedsnr" v="621332" />
	</node>
	<node lat="65.90875277907122" lon="12.39548332622542" id="-15983">
		<tag k="fixme" v="consider natural=peak for the most distinct mountains in the district" />
		<tag k="name" v="Skjeggesnesåsen" />
		<tag k="natural" v="hill" />
		<tag k="place" v="locality" />
		<tag k="ssr:stedsnr" v="622337" />
	</node>
	<node lat="65.86465000099861" lon="12.596897219380915" id="-15993">
		<tag k="fixme" v="consider natural=peak for the most distinct mountains in the district" />
		<tag k="name" v="Langåsen" />
		<tag k="natural" v="hill" />
		<tag k="place" v="locality" />
		<tag k="ssr:stedsnr" v="632324" />
	</node>
	<node lat="65.7760388904242" lon="12.450080559958586" id="-15996">
		<tag k="name" v="Storkleppen" />
		<tag k="natural" v="hill" />
		<tag k="place" v="locality" />
		<tag k="ssr:stedsnr" v="638865" />
	</node>
	<node lat="65.8302277779324" lon="12.462455564936946" id="-15997">
		<tag k="name" v="Sommarfjøsberget" />
		<tag k="natural" v="hill" />
		<tag k="place" v="locality" />
		<tag k="ssr:stedsnr" v="639138" />
	</node>
	<node lat="65.84027500256464" lon="12.439516667699348" id="-15998">
		<tag k="fixme" v="consider natural=peak for the most distinct mountains in the district" />
		<tag k="name" v="Olvåsen" />
		<tag k="natural" v="hill" />
		<tag k="place" v="locality" />
		<tag k="ssr:stedsnr" v="639475" />
	</node>
	<node lat="65.84469722263646" lon="12.443422227257676" id="-15999">
		<tag k="name" v="Bukklia" />
		<tag k="natural" v="slope" />
		<tag k="place" v="locality" />
		<tag k="ssr:stedsnr" v="639477" />
	</node>
	<node lat="65.85066944228747" lon="12.490324996253923" id="-16000">
		<tag k="name" v="Hekklia" />
		<tag k="natural" v="slope" />
		<tag k="place" v="locality" />
		<tag k="ssr:stedsnr" v="639520" />
	</node>
	<node lat="65.9833305583137" lon="12.611797225733467" id="-16003">
		<tag k="fixme" v="consider natural=peak for the most distinct mountains in the district" />
		<tag k="name" v="Nauståsen" />
		<tag k="natural" v="hill" />
		<tag k="place" v="locality" />
		<tag k="ssr:stedsnr" v="640470" />
	</node>
	<node lat="65.99630555564777" lon="12.541711108330366" id="-16008">
		<tag k="fixme" v="consider natural=peak for the most distinct mountains in the district" />
		<tag k="name" v="Enganåsen" />
		<tag k="natural" v="hill" />
		<tag k="place" v="locality" />
		<tag k="ssr:stedsnr" v="640589" />
	</node>
	<node lat="65.92249444357012" lon="12.447727787966054" id="-16009">
		<tag k="name" v="Alberthaugen" />
		<tag k="natural" v="hill" />
		<tag k="place" v="locality" />
		<tag k="ssr:stedsnr" v="640641" />
	</node>
	<node lat="65.85203888775646" lon="12.246508343648705" id="-16014">
		<tag k="name" v="Valhaugen" />
		<tag k="natural" v="hill" />
		<tag k="place" v="locality" />
		<tag k="ssr:stedsnr" v="663155" />
	</node>
	<node lat="65.88798055638846" lon="12.286338883589853" id="-16015">
		<tag k="fixme" v="consider natural=peak for the most distinct mountains in the district" />
		<tag k="name" v="Nord-Kolvikåsen" />
		<tag k="natural" v="hill" />
		<tag k="place" v="locality" />
		<tag k="ssr:stedsnr" v="664457" />
	</node>
	<node lat="65.97706111250444" lon="12.508924992249696" id="-16019">
		<tag k="name" v="Munnaren" />
		<tag k="natural" v="hill" />
		<tag k="place" v="locality" />
		<tag k="ssr:stedsnr" v="666090" />
	</node>
	<node lat="65.93691388870386" lon="12.578669450014555" id="-16034">
		<tag k="alt_name" v="Syv Søstre" />
		<tag k="fixme" v="consider natural=peak for the most distinct mountains in the district" />
		<tag k="name" v="Sju søstre" />
		<tag k="natural" v="hill" />
		<tag k="place" v="locality" />
		<tag k="ssr:stedsnr" v="743356" />
	</node>
	<node lat="65.92610833161693" lon="12.588572229113586" id="-16038">
		<tag k="name" v="Sørholten" />
		<tag k="natural" v="hill" />
		<tag k="place" v="locality" />
		<tag k="ssr:stedsnr" v="743366" />
	</node>
	<node lat="65.95358332985144" lon="12.475452769697737" id="-16048">
		<tag k="fixme" v="consider natural=peak for the most distinct mountains in the district" />
		<tag k="name" v="Storhatten" />
		<tag k="natural" v="hill" />
		<tag k="place" v="locality" />
		<tag k="ssr:stedsnr" v="744242" />
	</node>
	<node lat="66.00304444663814" lon="12.577322227311479" id="-16052">
		<tag k="fixme" v="consider natural=peak for the most distinct mountains in the district" />
		<tag k="name" v="Milanåsen" />
		<tag k="natural" v="hill" />
		<tag k="place" v="locality" />
		<tag k="ssr:stedsnr" v="744888" />
	</node>
	<node lat="65.9874444430356" lon="12.61828888811344" id="-16053">
		<tag k="name" v="Svartberget" />
		<tag k="natural" v="hill" />
		<tag k="place" v="locality" />
		<tag k="ssr:stedsnr" v="753200" />
	</node>
	<node lat="65.96891111566056" lon="12.481533331829432" id="-16055">
		<tag k="name" v="Finnhaugen" />
		<tag k="natural" v="hill" />
		<tag k="place" v="locality" />
		<tag k="ssr:stedsnr" v="753633" />
	</node>
	<node lat="66.00123610974846" lon="12.584255551082967" id="-16062">
		<tag k="fixme" v="consider natural=peak for the most distinct mountains in the district" />
		<tag k="name" v="Radåsen" />
		<tag k="natural" v="hill" />
		<tag k="place" v="locality" />
		<tag k="ssr:stedsnr" v="762373" />
	</node>
	<node lat="65.9796249975325" lon="12.597322229715767" id="-16063">
		<tag k="name" v="Heimlia" />
		<tag k="natural" v="slope" />
		<tag k="place" v="locality" />
		<tag k="ssr:stedsnr" v="762420" />
	</node>
	<node lat="65.978622218733" lon="12.599605553485809" id="-16064">
		<tag k="fixme" v="consider natural=peak for the most distinct mountains in the district" />
		<tag k="name" v="Bjørkmoåsen" />
		<tag k="natural" v="hill" />
		<tag k="place" v="locality" />
		<tag k="ssr:stedsnr" v="762421" />
	</node>
	<node lat="65.98144444233145" lon="12.515413887587373" id="-16066">
		<tag k="name" v="Husmoskaret" />
		<tag k="natural" v="valley" />
		<tag k="place" v="locality" />
		<tag k="ssr:stedsnr" v="762388" />
	</node>
	<node lat="65.94045277383327" lon="12.49581666846277" id="-16067">
		<tag k="name" v="Sjøholten" />
		<tag k="natural" v="hill" />
		<tag k="place" v="locality" />
		<tag k="ssr:stedsnr" v="762661" />
	</node>
	<node lat="65.94201944049283" lon="12.498324996079868" id="-16068">
		<tag k="name" v="Langholten" />
		<tag k="natural" v="hill" />
		<tag k="place" v="locality" />
		<tag k="ssr:stedsnr" v="762668" />
	</node>
	<node lat="65.93595832904512" lon="12.455047220687247" id="-16070">
		<tag k="name" v="Sjøberget" />
		<tag k="natural" v="hill" />
		<tag k="place" v="locality" />
		<tag k="ssr:stedsnr" v="762682" />
	</node>
	<node lat="66.01661110999578" lon="12.6193472209091" id="-16072">
		<tag k="name" v="Trollskaret" />
		<tag k="natural" v="valley" />
		<tag k="place" v="locality" />
		<tag k="ssr:stedsnr" v="762918" />
	</node>
	<node lat="66.02025555749266" lon="12.634952775440027" id="-16074">
		<tag k="name" v="Lavollen" />
		<tag k="natural" v="hill" />
		<tag k="place" v="locality" />
		<tag k="ssr:stedsnr" v="762926" />
	</node>
	<node lat="66.00512777468222" lon="12.568758336186736" id="-16075">
		<tag k="fixme" v="consider natural=peak for the most distinct mountains in the district" />
		<tag k="name" v="Grønnåsen" />
		<tag k="natural" v="hill" />
		<tag k="place" v="locality" />
		<tag k="ssr:stedsnr" v="762930" />
	</node>
	<node lat="65.96611944345014" lon="12.476044446484975" id="-16076">
		<tag k="name" v="Hauan" />
		<tag k="natural" v="hill" />
		<tag k="place" v="locality" />
		<tag k="ssr:stedsnr" v="762998" />
	</node>
	<node lat="65.96010000036765" lon="12.468424990333123" id="-16077">
		<tag k="name" v="Skjærhaugen" />
		<tag k="natural" v="hill" />
		<tag k="place" v="locality" />
		<tag k="ssr:stedsnr" v="762999" />
	</node>
	<node lat="65.90905832935702" lon="12.548577770902765" id="-16079">
		<tag k="name" v="Kvitberget" />
		<tag k="natural" v="hill" />
		<tag k="place" v="locality" />
		<tag k="ssr:stedsnr" v="783129" />
	</node>
	<node lat="65.79166944149071" lon="12.522769453773149" id="-16081">
		<tag k="name" v="Troberget" />
		<tag k="natural" v="hill" />
		<tag k="place" v="locality" />
		<tag k="ssr:stedsnr" v="785077" />
	</node>
	<node lat="65.97937778104745" lon="12.537816656954673" id="-16086">
		<tag k="fixme" v="consider natural=peak for the most distinct mountains in the district" />
		<tag k="name" v="Røråsen" />
		<tag k="natural" v="hill" />
		<tag k="place" v="locality" />
		<tag k="ssr:stedsnr" v="823402" />
	</node>
	<node lat="65.77499166703083" lon="12.43144167481511" id="-16118">
		<tag k="name" v="Baklia" />
		<tag k="natural" v="slope" />
		<tag k="place" v="locality" />
		<tag k="ssr:stedsnr" v="821456" />
	</node>
	<node lat="66.02292777910745" lon="12.682066671928487" id="-16119">
		<tag k="fixme" v="consider natural=peak for the most distinct mountains in the district" />
		<tag k="name" v="Hestliåsen" />
		<tag k="natural" v="hill" />
		<tag k="place" v="locality" />
		<tag k="ssr:stedsnr" v="820756" />
	</node>
	<node lat="65.75569721779443" lon="12.395422230776585" id="-16120">
		<tag k="fixme" v="consider natural=peak for the most distinct mountains in the district" />
		<tag k="name" v="Brandsåsen" />
		<tag k="natural" v="hill" />
		<tag k="place" v="locality" />
		<tag k="ssr:stedsnr" v="821598" />
	</node>
	<node lat="65.82791110946937" lon="12.45219723118459" id="-16123">
		<tag k="name" v="Storrøssøyhaugen" />
		<tag k="natural" v="hill" />
		<tag k="place" v="locality" />
		<tag k="ssr:stedsnr" v="822132" />
	</node>
	<node lat="65.83136388932846" lon="12.434799991566827" id="-16125">
		<tag k="name" v="Spøa" />
		<tag k="place" v="locality" />
		<tag k="ssr:stedsnr" v="822447" />
	</node>
	<node lat="65.98789999662414" lon="12.546619450078985" id="-16128">
		<tag k="name" v="Kleiva" />
		<tag k="natural" v="slope" />
		<tag k="place" v="locality" />
		<tag k="ssr:stedsnr" v="823428" />
	</node>
	<node lat="65.96030278224315" lon="12.491691662739084" id="-16129">
		<tag k="fixme" v="consider natural=peak for the most distinct mountains in the district" />
		<tag k="name" v="Storgrythatten" />
		<tag k="natural" v="hill" />
		<tag k="place" v="locality" />
		<tag k="ssr:stedsnr" v="823093" />
	</node>
	<node lat="65.90251944880896" lon="12.528183324004711" id="-16130">
		<tag k="fixme" v="consider natural=peak for the most distinct mountains in the district" />
		<tag k="name" v="Vargåsen" />
		<tag k="natural" v="hill" />
		<tag k="place" v="locality" />
		<tag k="ssr:stedsnr" v="823098" />
	</node>
	<node lat="66.01123055460958" lon="12.63033888061659" id="-16132">
		<tag k="fixme" v="consider natural=peak for the most distinct mountains in the district" />
		<tag k="name" v="Kjerkåsen" />
		<tag k="natural" v="hill" />
		<tag k="place" v="locality" />
		<tag k="ssr:stedsnr" v="823836" />
	</node>
	<node lat="66.00856111254639" lon="12.629933341626929" id="-16133">
		<tag k="fixme" v="consider natural=peak for the most distinct mountains in the district" />
		<tag k="name" v="Lyngåsen" />
		<tag k="natural" v="hill" />
		<tag k="place" v="locality" />
		<tag k="ssr:stedsnr" v="823338" />
	</node>
	<node lat="66.0075083367191" lon="12.647394453850302" id="-16134">
		<tag k="name" v="Krøkmoen" />
		<tag k="place" v="locality" />
		<tag k="ssr:stedsnr" v="823340" />
	</node>
	<node lat="65.95425555894153" lon="12.45879722074091" id="-16137">
		<tag k="name" v="Haugen" />
		<tag k="natural" v="hill" />
		<tag k="place" v="locality" />
		<tag k="ssr:stedsnr" v="823988" />
	</node>
	<node lat="65.90635000086965" lon="12.546552771371175" id="-16139">
		<tag k="fixme" v="consider natural=peak for the most distinct mountains in the district" />
		<tag k="name" v="Nygårdsåsen" />
		<tag k="natural" v="hill" />
		<tag k="place" v="locality" />
		<tag k="ssr:stedsnr" v="844152" />
	</node>
	<node lat="65.88317499935312" lon="12.290797216820433" id="-16142">
		<tag k="fixme" v="consider natural=peak for the most distinct mountains in the district" />
		<tag k="name" v="Sveåsen" />
		<tag k="natural" v="hill" />
		<tag k="place" v="locality" />
		<tag k="ssr:stedsnr" v="846449" />
	</node>
	<node lat="65.93261944298948" lon="12.364558328810595" id="-16144">
		<tag k="name" v="Steinhaugen" />
		<tag k="natural" v="hill" />
		<tag k="place" v="locality" />
		<tag k="ssr:stedsnr" v="847495" />
	</node>
	<node lat="65.99325555193806" lon="12.670641663411445" id="-16145">
		<tag k="name" v="Prestskaret" />
		<tag k="natural" v="valley" />
		<tag k="place" v="locality" />
		<tag k="ssr:stedsnr" v="847202" />
	</node>
	<node lat="65.85157222551565" lon="12.241011105667889" id="-16146">
		<tag k="name" v="Leirvikhaugen" />
		<tag k="natural" v="hill" />
		<tag k="place" v="locality" />
		<tag k="ssr:stedsnr" v="847867" />
	</node>
	<node lat="65.93904166755738" lon="12.559683327939501" id="-16168">
		<tag k="fixme" v="consider natural=peak for the most distinct mountains in the district" />
		<tag k="name" v="Tvillingan" />
		<tag k="natural" v="hill" />
		<tag k="place" v="locality" />
		<tag k="ssr:stedsnr" v="865365" />
	</node>
	<node lat="65.93103055854982" lon="12.561602771078837" id="-16169">
		<tag k="fixme" v="consider natural=peak for the most distinct mountains in the district" />
		<tag k="name" v="Litlmarkholten" />
		<tag k="natural" v="hill" />
		<tag k="place" v="locality" />
		<tag k="ssr:stedsnr" v="865371" />
	</node>
	<node lat="65.9200611089506" lon="12.508683339184055" id="-16171">
		<tag k="alt_name" v="Breidtinden" />
		<tag k="fixme" v="multiple name tags, choose one and add the other to alt_name; consider natural=peak for the most distinct mountains in the district" />
		<tag k="name" v="Stortinden;Breitinden" />
		<tag k="natural" v="hill" />
		<tag k="place" v="locality" />
		<tag k="ssr:stedsnr" v="865385" />
	</node>
	<node lat="65.9032499973781" lon="12.319338898299023" id="-16176">
		<tag k="fixme" v="consider natural=peak for the most distinct mountains in the district" />
		<tag k="name" v="Storsletthaugen" />
		<tag k="natural" v="hill" />
		<tag k="place" v="locality" />
		<tag k="ssr:stedsnr" v="865390" />
	</node>
	<node lat="65.88695000038514" lon="12.400599992738535" id="-16184">
		<tag k="fixme" v="consider natural=peak for the most distinct mountains in the district" />
		<tag k="name" v="Middagsheia" />
		<tag k="natural" v="hill" />
		<tag k="place" v="locality" />
		<tag k="ssr:stedsnr" v="865426" />
	</node>
	<node lat="65.7657499997379" lon="12.428266658176963" id="-16199">
		<tag k="name" v="Bjørnskaret" />
		<tag k="natural" v="valley" />
		<tag k="place" v="locality" />
		<tag k="ssr:stedsnr" v="882495" />
	</node>
	<node lat="65.89985000076965" lon="12.388288886703723" id="-16200">
		<tag k="name" v="Remmen" />
		<tag k="place" v="locality" />
		<tag k="ssr:stedsnr" v="883067" />
	</node>
	<node lat="65.99488888748527" lon="12.539163894742172" id="-16204">
		<tag k="name" v="Sankthanslia" />
		<tag k="natural" v="slope" />
		<tag k="place" v="locality" />
		<tag k="ssr:stedsnr" v="884327" />
	</node>
	<node lat="65.85735833172005" lon="12.494041659219164" id="-16206">
		<tag k="fixme" v="consider natural=peak for the most distinct mountains in the district" />
		<tag k="name" v="Einåsen" />
		<tag k="natural" v="hill" />
		<tag k="place" v="locality" />
		<tag k="ssr:stedsnr" v="883546" />
	</node>
	<node lat="65.91589999726064" lon="12.470177784421814" id="-16208">
		<tag k="name" v="Svarthøla" />
		<tag k="natural" v="gorge" />
		<tag k="ssr:stedsnr" v="883693" />
	</node>
	<node lat="65.91180555923093" lon="12.471694441204628" id="-16209">
		<tag k="name" v="Engelia" />
		<tag k="natural" v="slope" />
		<tag k="place" v="locality" />
		<tag k="ssr:stedsnr" v="883694" />
	</node>
	<node lat="65.97660277848239" lon="12.516766676093173" id="-16211">
		<tag k="name" v="Munnaren" />
		<tag k="natural" v="valley" />
		<tag k="place" v="locality" />
		<tag k="ssr:stedsnr" v="884379" />
	</node>
	<node lat="65.97563889057254" lon="12.593344443157498" id="-16212">
		<tag k="fixme" v="consider natural=peak for the most distinct mountains in the district" />
		<tag k="name" v="Storbjørkmoåsen" />
		<tag k="natural" v="hill" />
		<tag k="place" v="locality" />
		<tag k="ssr:stedsnr" v="884410" />
	</node>
	<node lat="65.97143055670956" lon="12.569130557990913" id="-16213">
		<tag k="name" v="Høldalan" />
		<tag k="natural" v="valley" />
		<tag k="place" v="locality" />
		<tag k="ssr:stedsnr" v="884425" />
	</node>
	<node lat="65.89801110794593" lon="12.43472498907467" id="-16224">
		<tag k="name" v="Langskåran" />
		<tag k="natural" v="valley" />
		<tag k="place" v="locality" />
		<tag k="ssr:stedsnr" v="943127" />
	</node>
	<node lat="65.8583888850685" lon="12.466100006324664" id="-16225">
		<tag k="name" v="Valneshaugen" />
		<tag k="natural" v="hill" />
		<tag k="place" v="locality" />
		<tag k="ssr:stedsnr" v="943464" />
	</node>
	<node lat="65.89884444774925" lon="12.489961115658588" id="-16226">
		<tag k="name" v="Åssletta" />
		<tag k="place" v="locality" />
		<tag k="ssr:stedsnr" v="943475" />
	</node>
	<node lat="65.76938055436133" lon="12.433733333500127" id="-16227">
		<tag k="fixme" v="consider natural=peak for the most distinct mountains in the district" />
		<tag k="name" v="Kveldtuva" />
		<tag k="natural" v="hill" />
		<tag k="place" v="locality" />
		<tag k="ssr:stedsnr" v="943543" />
	</node>
	<node lat="65.75495833220106" lon="12.410380546563816" id="-16228">
		<tag k="name" v="Heihaugen" />
		<tag k="natural" v="hill" />
		<tag k="place" v="locality" />
		<tag k="ssr:stedsnr" v="943559" />
	</node>
	<node lat="65.85020555587833" lon="12.500852785983513" id="-16231">
		<tag k="name" v="Finnkotlægran" />
		<tag k="natural" v="slope" />
		<tag k="place" v="locality" />
		<tag k="ssr:stedsnr" v="943508" />
	</node>
	<node lat="65.8457666672221" lon="12.483538882123726" id="-16232">
		<tag k="name" v="Lislhatten" />
		<tag k="natural" v="hill" />
		<tag k="place" v="locality" />
		<tag k="ssr:stedsnr" v="943511" />
	</node>
	<node lat="65.8413555599344" lon="12.469349995148473" id="-16233">
		<tag k="fixme" v="consider natural=peak for the most distinct mountains in the district" />
		<tag k="name" v="Ytre Smokkelåsen" />
		<tag k="natural" v="hill" />
		<tag k="place" v="locality" />
		<tag k="ssr:stedsnr" v="943514" />
	</node>
	<node lat="65.75691111347568" lon="12.406988889829458" id="-16235">
		<tag k="name" v="Hushaugen" />
		<tag k="natural" v="hill" />
		<tag k="place" v="locality" />
		<tag k="ssr:stedsnr" v="943591" />
	</node>
	<node lat="65.76780555337514" lon="12.453088892935407" id="-16237">
		<tag k="name" v="Jalen" />
		<tag k="place" v="locality" />
		<tag k="ssr:stedsnr" v="944548" />
	</node>
	<node lat="65.76616944191483" lon="12.458641668489797" id="-16238">
		<tag k="name" v="Evjehaugen" />
		<tag k="natural" v="hill" />
		<tag k="place" v="locality" />
		<tag k="ssr:stedsnr" v="944552" />
	</node>
	<node lat="65.92209721845163" lon="12.440824996757252" id="-16239">
		<tag k="name" v="Sankthanshaugen" />
		<tag k="natural" v="hill" />
		<tag k="place" v="locality" />
		<tag k="ssr:stedsnr" v="944688" />
	</node>
	<node lat="65.94092500045079" lon="12.502563897873316" id="-16240">
		<tag k="name" v="Smihaugen" />
		<tag k="natural" v="hill" />
		<tag k="place" v="locality" />
		<tag k="ssr:stedsnr" v="944698" />
	</node>
	<node lat="65.77413889003583" lon="12.471277771799333" id="-16241">
		<tag k="name" v="Hubuhaugen" />
		<tag k="natural" v="hill" />
		<tag k="place" v="locality" />
		<tag k="ssr:stedsnr" v="943877" />
	</node>
	<node lat="65.95683889000483" lon="12.54878055478883" id="-16244">
		<tag k="name" v="Hesthammaren" />
		<tag k="natural" v="ridge" />
		<tag k="place" v="locality" />
		<tag k="ssr:stedsnr" v="944271" />
	</node>
	<node lat="65.91932499814583" lon="12.462116658356225" id="-16247">
		<tag k="name" v="Riarberget" />
		<tag k="natural" v="hill" />
		<tag k="place" v="locality" />
		<tag k="ssr:stedsnr" v="944647" />
	</node>
	<node lat="66.00057777718719" lon="12.608777775743066" id="-16248">
		<tag k="name" v="Pålgjota" />
		<tag k="natural" v="valley" />
		<tag k="place" v="locality" />
		<tag k="ssr:stedsnr" v="944424" />
	</node>
	<node lat="65.95285833669836" lon="12.476972214271276" id="-16251">
		<tag k="name" v="Storhattsletta" />
		<tag k="place" v="locality" />
		<tag k="ssr:stedsnr" v="944992" />
	</node>
	<node lat="65.96660733779473" lon="12.489783627844641" id="-16252">
		<tag k="fixme" v="consider natural=peak for the most distinct mountains in the district" />
		<tag k="name" v="Slotteråsen" />
		<tag k="natural" v="hill" />
		<tag k="place" v="locality" />
		<tag k="ssr:stedsnr" v="944999" />
	</node>
	<node lat="65.87153055464597" lon="12.613952784697704" id="-16254">
		<tag k="name" v="Melkarbergan" />
		<tag k="natural" v="hill" />
		<tag k="place" v="locality" />
		<tag k="ssr:stedsnr" v="967064" />
	</node>
</osm>
