<?xml version="1.0" encoding="UTF-8"?>
<osm generator="osmapis" version="0.6">
	<node id="-55295" lat="59.5730638855" lon="8.7963666655">
		<tag k="name" v="Skavredalen" />
		<tag k="natural" v="valley" />
		<tag k="place" v="locality" />
		<tag k="ssr:stedsnr" v="549917" />
	</node>
	<node id="-55288" lat="59.6017333353" lon="8.70892500182">
		<tag k="name" v="Øyan" />
		<tag k="place" v="locality" />
		<tag k="ssr:stedsnr" v="549825" />
	</node>
	<node id="-55282" lat="59.613874997" lon="8.58277778304">
		<tag k="alt_name" v="Hovdejordsnuten" />
		<tag k="fixme" v="consider natural=peak for the most distinct mountains in the district" />
		<tag k="name" v="Hovdejordnuten" />
		<tag k="natural" v="hill" />
		<tag k="place" v="locality" />
		<tag k="ssr:stedsnr" v="549780" />
	</node>
	<node id="-55278" lat="59.8204444442" lon="8.73936666835">
		<tag k="fixme" v="consider natural=peak for the most distinct mountains in the district" />
		<tag k="name" v="Nutan" />
		<tag k="natural" v="hill" />
		<tag k="place" v="locality" />
		<tag k="ssr:stedsnr" v="549765" />
	</node>
	<node id="-55277" lat="59.8147749986" lon="8.70204166854">
		<tag k="alt_name" v="Gaustakne, lille" />
		<tag k="fixme" v="consider natural=peak for the most distinct mountains in the district" />
		<tag k="name" v="Lille Gaustakne" />
		<tag k="natural" v="hill" />
		<tag k="place" v="locality" />
		<tag k="ssr:stedsnr" v="549762" />
	</node>
	<node id="-55274" lat="59.6434027819" lon="8.82048889027">
		<tag k="fixme" v="consider natural=peak for the most distinct mountains in the district" />
		<tag k="name" v="Tvåliåsen" />
		<tag k="natural" v="hill" />
		<tag k="place" v="locality" />
		<tag k="ssr:stedsnr" v="549730" />
	</node>
	<node id="-55647" lat="59.781986111" lon="8.82592776971">
		<tag k="alt_name" v="Siljuhovde" />
		<tag k="fixme" v="consider natural=peak for the most distinct mountains in the district" />
		<tag k="name" v="Siljuhøvde" />
		<tag k="natural" v="hill" />
		<tag k="place" v="locality" />
		<tag k="ssr:stedsnr" v="854997" />
	</node>
	<node id="-55266" lat="59.6443666654" lon="8.54924999662">
		<tag k="alt_name" v="Nystullia" />
		<tag k="name" v="Nystullii" />
		<tag k="natural" v="slope" />
		<tag k="place" v="locality" />
		<tag k="ssr:stedsnr" v="549671" />
	</node>
	<node id="-55257" lat="59.7306944451" lon="8.76416110736">
		<tag k="name" v="Tjørnlien" />
		<tag k="natural" v="slope" />
		<tag k="place" v="locality" />
		<tag k="ssr:stedsnr" v="549598" />
	</node>
	<node id="-55252" lat="59.7342749972" lon="8.50872778279">
		<tag k="name" v="Systebulidalen" />
		<tag k="natural" v="valley" />
		<tag k="place" v="locality" />
		<tag k="ssr:stedsnr" v="549553" />
	</node>
	<node id="-55248" lat="59.7310416641" lon="8.63659166383">
		<tag k="fixme" v="consider natural=peak for the most distinct mountains in the district" />
		<tag k="name" v="Hårånatten" />
		<tag k="natural" v="hill" />
		<tag k="place" v="locality" />
		<tag k="ssr:stedsnr" v="549542" />
	</node>
	<node id="-55246" lat="59.7383527799" lon="8.50034444082">
		<tag k="fixme" v="consider natural=peak for the most distinct mountains in the district" />
		<tag k="name" v="Systebulihovet" />
		<tag k="natural" v="hill" />
		<tag k="place" v="locality" />
		<tag k="ssr:stedsnr" v="549531" />
	</node>
	<node id="-55244" lat="59.548263886" lon="8.88647500566">
		<tag k="fixme" v="consider natural=peak for the most distinct mountains in the district" />
		<tag k="name" v="Slettefjell" />
		<tag k="natural" v="hill" />
		<tag k="place" v="locality" />
		<tag k="ssr:stedsnr" v="549408" />
	</node>
	<node id="-55235" lat="59.6379888921" lon="8.89736389127">
		<tag k="fixme" v="consider natural=peak for the most distinct mountains in the district" />
		<tag k="name" v="Lifet" />
		<tag k="natural" v="hill" />
		<tag k="place" v="locality" />
		<tag k="ssr:stedsnr" v="549193" />
	</node>
	<node id="-55224" lat="59.5807972223" lon="8.79000000692">
		<tag k="name" v="Trongedal" />
		<tag k="natural" v="valley" />
		<tag k="place" v="locality" />
		<tag k="ssr:stedsnr" v="531870" />
	</node>
	<node id="-55223" lat="59.5797916706" lon="8.88674166976">
		<tag k="name" v="Knollen" />
		<tag k="natural" v="hill" />
		<tag k="place" v="locality" />
		<tag k="ssr:stedsnr" v="531963" />
	</node>
	<node id="-55220" lat="59.5498111068" lon="8.81512777252">
		<tag k="name" v="Fredarhaug" />
		<tag k="natural" v="hill" />
		<tag k="place" v="locality" />
		<tag k="ssr:stedsnr" v="531792" />
	</node>
	<node id="-55215" lat="59.6158722224" lon="8.82765832778">
		<tag k="name" v="Kringilen" />
		<tag k="place" v="locality" />
		<tag k="ssr:stedsnr" v="531698" />
	</node>
	<node id="-55213" lat="59.6286305547" lon="8.63820277439">
		<tag k="name" v="Nystuldalen" />
		<tag k="natural" v="valley" />
		<tag k="place" v="locality" />
		<tag k="ssr:stedsnr" v="531262" />
	</node>
	<node id="-55208" lat="59.625052779" lon="8.93141389071">
		<tag k="name" v="Kumdalen" />
		<tag k="natural" v="valley" />
		<tag k="place" v="locality" />
		<tag k="ssr:stedsnr" v="530718" />
	</node>
	<node id="-55207" lat="59.6260416679" lon="8.94236389302">
		<tag k="name" v="Slåkja" />
		<tag k="natural" v="valley" />
		<tag k="place" v="locality" />
		<tag k="ssr:stedsnr" v="530714" />
	</node>
	<node id="-55196" lat="59.7742499373" lon="8.8540361382">
		<tag k="name" v="Tiurhaugen" />
		<tag k="natural" v="hill" />
		<tag k="place" v="locality" />
		<tag k="ssr:stedsnr" v="529931" />
	</node>
	<node id="-55193" lat="59.6662833304" lon="8.81445833546">
		<tag k="name" v="Bikkjetjønndålån" />
		<tag k="natural" v="valley" />
		<tag k="place" v="locality" />
		<tag k="ssr:stedsnr" v="529544" />
	</node>
	<node id="-55191" lat="59.6541111071" lon="8.88814444546">
		<tag k="name" v="Stavåslien" />
		<tag k="natural" v="slope" />
		<tag k="place" v="locality" />
		<tag k="ssr:stedsnr" v="529515" />
	</node>
	<node id="-55189" lat="59.6932944454" lon="8.89481666505">
		<tag k="name" v="Bodik" />
		<tag k="natural" v="hill" />
		<tag k="place" v="locality" />
		<tag k="ssr:stedsnr" v="529095" />
	</node>
	<node id="-55187" lat="59.7062777755" lon="8.46273889189">
		<tag k="name" v="Ørnnetten" />
		<tag k="natural" v="ridge" />
		<tag k="place" v="locality" />
		<tag k="ssr:stedsnr" v="522739" />
	</node>
	<node id="-55182" lat="59.8351944434" lon="8.80194166393">
		<tag k="alt_name" v="Skjertjørnnuten" />
		<tag k="fixme" v="consider natural=peak for the most distinct mountains in the district" />
		<tag k="name" v="Skjerstjønnuten" />
		<tag k="natural" v="hill" />
		<tag k="old_name" v="Skjerstjønnnuten" />
		<tag k="place" v="locality" />
		<tag k="ssr:stedsnr" v="429820" />
	</node>
	<node id="-55176" lat="59.8110250013" lon="8.5240361089">
		<tag k="alt_name" v="Hatteskar" />
		<tag k="name" v="Hatteskard" />
		<tag k="natural" v="valley" />
		<tag k="place" v="locality" />
		<tag k="ssr:stedsnr" v="428785" />
	</node>
	<node id="-55175" lat="59.6079305517" lon="8.58577500791">
		<tag k="name" v="Kalddalen" />
		<tag k="natural" v="valley" />
		<tag k="place" v="locality" />
		<tag k="ssr:stedsnr" v="428780" />
	</node>
	<node id="-55169" lat="59.5912527739" lon="8.78198055244">
		<tag k="fixme" v="consider natural=peak for the most distinct mountains in the district" />
		<tag k="name" v="Ferskallnuten" />
		<tag k="natural" v="hill" />
		<tag k="place" v="locality" />
		<tag k="ssr:stedsnr" v="428844" />
	</node>
	<node id="-55166" lat="59.7264805529" lon="8.84020833845">
		<tag k="name" v="Eksli" />
		<tag k="natural" v="slope" />
		<tag k="place" v="locality" />
		<tag k="ssr:stedsnr" v="428572" />
	</node>
	<node id="-55164" lat="59.6983416671" lon="8.77997499434">
		<tag k="fixme" v="consider natural=peak for the most distinct mountains in the district" />
		<tag k="name" v="Grønlisåta" />
		<tag k="natural" v="hill" />
		<tag k="place" v="locality" />
		<tag k="ssr:stedsnr" v="428546" />
	</node>
	<node id="-55160" lat="59.8129138872" lon="8.79806111742">
		<tag k="alt_name" v="Fågeliråen" />
		<tag k="fixme" v="consider natural=peak for the most distinct mountains in the district" />
		<tag k="name" v="Fågerliråen" />
		<tag k="natural" v="hill" />
		<tag k="place" v="locality" />
		<tag k="ssr:stedsnr" v="428777" />
	</node>
	<node id="-55158" lat="59.618680557" lon="8.61518889537">
		<tag k="name" v="Kasin" />
		<tag k="natural" v="slope" />
		<tag k="place" v="locality" />
		<tag k="ssr:stedsnr" v="428768" />
	</node>
	<node id="-55157" lat="59.651891664" lon="8.67643055668">
		<tag k="fixme" v="consider natural=peak for the most distinct mountains in the district" />
		<tag k="name" v="Klyftelinuten" />
		<tag k="natural" v="hill" />
		<tag k="place" v="locality" />
		<tag k="ssr:stedsnr" v="428682" />
	</node>
	<node id="-55152" lat="59.5968333311" lon="8.88517777961">
		<tag k="fixme" v="consider natural=peak for the most distinct mountains in the district" />
		<tag k="name" v="Høymyråsen" />
		<tag k="natural" v="hill" />
		<tag k="place" v="locality" />
		<tag k="ssr:stedsnr" v="428301" />
	</node>
	<node id="-55150" lat="59.645630554" lon="8.96659444732">
		<tag k="name" v="Geitebudalen" />
		<tag k="natural" v="valley" />
		<tag k="place" v="locality" />
		<tag k="ssr:stedsnr" v="428187" />
	</node>
	<node id="-55145" lat="59.7444805547" lon="8.44031667016">
		<tag k="fixme" v="consider natural=peak for the most distinct mountains in the district" />
		<tag k="name" v="Meien" />
		<tag k="natural" v="hill" />
		<tag k="place" v="locality" />
		<tag k="ssr:stedsnr" v="428211" />
	</node>
	<node id="-55137" lat="59.5937527814" lon="8.97313610806">
		<tag k="name" v="Goliåsen" />
		<tag k="natural" v="hill" />
		<tag k="place" v="locality" />
		<tag k="ssr:stedsnr" v="410749" />
	</node>
	<node id="-55136" lat="59.5814777764" lon="8.95800278419">
		<tag k="name" v="Mastedalshaugen" />
		<tag k="natural" v="hill" />
		<tag k="place" v="locality" />
		<tag k="ssr:stedsnr" v="410684" />
	</node>
	<node id="-55128" lat="59.8371805578" lon="8.51337221449">
		<tag k="name" v="Måråstadnuten" />
		<tag k="natural" v="hill" />
		<tag k="place" v="locality" />
		<tag k="ssr:stedsnr" v="410567" />
	</node>
	<node id="-55126" lat="59.6289916668" lon="8.94493054739">
		<tag k="name" v="Sudlimoen" />
		<tag k="natural" v="valley" />
		<tag k="place" v="locality" />
		<tag k="ssr:stedsnr" v="409706" />
	</node>
	<node id="-55125" lat="59.6351194488" lon="8.93054722686">
		<tag k="name" v="Bekkhusberget" />
		<tag k="natural" v="ridge" />
		<tag k="place" v="locality" />
		<tag k="ssr:stedsnr" v="409704" />
	</node>
	<node id="-55123" lat="59.6137527734" lon="8.56994166437">
		<tag k="name" v="Iglelien" />
		<tag k="natural" v="slope" />
		<tag k="place" v="locality" />
		<tag k="ssr:stedsnr" v="409680" />
	</node>
	<node id="-55114" lat="59.7810749994" lon="8.66116667242">
		<tag k="name" v="Damhaugane" />
		<tag k="natural" v="slope" />
		<tag k="place" v="locality" />
		<tag k="ssr:stedsnr" v="409168" />
	</node>
	<node id="-55108" lat="59.670052775" lon="8.84421110367">
		<tag k="name" v="Tverrhauglitoppen" />
		<tag k="natural" v="hill" />
		<tag k="place" v="locality" />
		<tag k="ssr:stedsnr" v="408971" />
	</node>
	<node id="-55105" lat="59.7543194463" lon="8.69962499197">
		<tag k="name" v="Heimskar" />
		<tag k="natural" v="valley" />
		<tag k="place" v="locality" />
		<tag k="ssr:stedsnr" v="408926" />
	</node>
	<node id="-55102" lat="59.7932027796" lon="8.7928500011">
		<tag k="name" v="Dekkane" />
		<tag k="natural" v="valley" />
		<tag k="place" v="locality" />
		<tag k="ssr:stedsnr" v="408889" />
	</node>
	<node id="-55100" lat="59.6413944486" lon="8.84543610725">
		<tag k="name" v="Hestemyrdålån" />
		<tag k="natural" v="valley" />
		<tag k="place" v="locality" />
		<tag k="ssr:stedsnr" v="408554" />
	</node>
	<node id="-55096" lat="59.6975444479" lon="8.6967166709">
		<tag k="name" v="Glitreberget" />
		<tag k="place" v="locality" />
		<tag k="ssr:stedsnr" v="408800" />
	</node>
	<node id="-55095" lat="59.6695555585" lon="8.59579444821">
		<tag k="name" v="Presttjønndalen" />
		<tag k="natural" v="valley" />
		<tag k="place" v="locality" />
		<tag k="ssr:stedsnr" v="408239" />
	</node>
	<node id="-55092" lat="59.6913499998" lon="8.88956666717">
		<tag k="name" v="Gungjørgdalen" />
		<tag k="natural" v="valley" />
		<tag k="place" v="locality" />
		<tag k="ssr:stedsnr" v="408076" />
	</node>
	<node id="-55090" lat="59.7465499993" lon="8.78881944706">
		<tag k="name" v="Hamren" />
		<tag k="natural" v="cliff" />
		<tag k="ssr:stedsnr" v="401286" />
	</node>
	<node id="-55087" lat="59.7321194443" lon="8.76908888386">
		<tag k="name" v="Tonuten" />
		<tag k="natural" v="hill" />
		<tag k="place" v="locality" />
		<tag k="ssr:stedsnr" v="369395" />
	</node>
	<node id="-55078" lat="59.794325002" lon="8.81493888265">
		<tag k="alt_name" v="Brendehaug" />
		<tag k="name" v="Brennehaug" />
		<tag k="natural" v="hill" />
		<tag k="place" v="locality" />
		<tag k="ssr:stedsnr" v="368815" />
	</node>
	<node id="-55073" lat="59.7749666708" lon="8.76080554748">
		<tag k="alt_name" v="Setorskarhøvda" />
		<tag k="fixme" v="consider natural=peak for the most distinct mountains in the district" />
		<tag k="name" v="Seterskardhovda" />
		<tag k="natural" v="hill" />
		<tag k="place" v="locality" />
		<tag k="ssr:stedsnr" v="367986" />
	</node>
	<node id="-55072" lat="59.767813889" lon="8.67810277417">
		<tag k="alt_name" v="Toinfjell" />
		<tag k="fixme" v="consider natural=peak for the most distinct mountains in the district" />
		<tag k="name" v="Toin" />
		<tag k="natural" v="hill" />
		<tag k="place" v="locality" />
		<tag k="ssr:stedsnr" v="367937" />
	</node>
	<node id="-53552" lat="59.5410611072" lon="8.84996388244">
		<tag k="fixme" v="consider natural=peak for the most distinct mountains in the district" />
		<tag k="name" v="Sigurdbunuten" />
		<tag k="natural" v="hill" />
		<tag k="place" v="locality" />
		<tag k="ssr:stedsnr" v="64412" />
	</node>
	<node id="-55068" lat="59.5891000025" lon="8.62764166241">
		<tag k="alt_name" v="Rambergnut" />
		<tag k="fixme" v="consider natural=peak for the most distinct mountains in the district" />
		<tag k="name" v="Rambergnuten" />
		<tag k="natural" v="hill" />
		<tag k="place" v="locality" />
		<tag k="ssr:stedsnr" v="367910" />
	</node>
	<node id="-55065" lat="59.824450001" lon="8.83392500448">
		<tag k="name" v="Sjåfjell" />
		<tag k="natural" v="hill" />
		<tag k="place" v="locality" />
		<tag k="ssr:stedsnr" v="367826" />
	</node>
	<node id="-55060" lat="59.6196361125" lon="8.7191388866">
		<tag k="alt_name" v="Grimsåsnuten" />
		<tag k="fixme" v="consider natural=peak for the most distinct mountains in the district" />
		<tag k="name" v="Grimåsnuten" />
		<tag k="natural" v="hill" />
		<tag k="place" v="locality" />
		<tag k="ssr:stedsnr" v="367799" />
	</node>
	<node id="-55057" lat="59.8052666656" lon="8.54131944912">
		<tag k="fixme" v="consider natural=peak for the most distinct mountains in the district" />
		<tag k="name" v="Skotsfjell" />
		<tag k="natural" v="hill" />
		<tag k="place" v="locality" />
		<tag k="ssr:stedsnr" v="367769" />
	</node>
	<node id="-55052" lat="59.6542416631" lon="8.79555556166">
		<tag k="alt_name" v="Rein" />
		<tag k="fixme" v="consider natural=peak for the most distinct mountains in the district" />
		<tag k="name" v="Reinen" />
		<tag k="natural" v="hill" />
		<tag k="place" v="locality" />
		<tag k="ssr:stedsnr" v="367733" />
	</node>
	<node id="-55051" lat="59.6624500024" lon="8.80847778077">
		<tag k="alt_name" v="Rodalsnuten" />
		<tag k="fixme" v="consider natural=peak for the most distinct mountains in the district" />
		<tag k="name" v="Rådalsnutan" />
		<tag k="natural" v="hill" />
		<tag k="place" v="locality" />
		<tag k="ssr:stedsnr" v="367731" />
	</node>
	<node id="-55046" lat="59.6285916666" lon="8.77133332683">
		<tag k="fixme" v="consider natural=peak for the most distinct mountains in the district" />
		<tag k="name" v="Loftsnatten" />
		<tag k="natural" v="hill" />
		<tag k="place" v="locality" />
		<tag k="ssr:stedsnr" v="367711" />
	</node>
	<node id="-55042" lat="59.6760416711" lon="8.77702777067">
		<tag k="name" v="Fagerlidalen" />
		<tag k="natural" v="valley" />
		<tag k="place" v="locality" />
		<tag k="ssr:stedsnr" v="367656" />
	</node>
	<node id="-55038" lat="59.6930666708" lon="8.60833333934">
		<tag k="alt_name" v="Skarstulnuten" />
		<tag k="fixme" v="consider natural=peak for the most distinct mountains in the district" />
		<tag k="name" v="Skardstulnuten" />
		<tag k="natural" v="hill" />
		<tag k="place" v="locality" />
		<tag k="ssr:stedsnr" v="367598" />
	</node>
	<node id="-55030" lat="59.7384999964" lon="8.80806111764">
		<tag k="alt_name" v="Mjuke" />
		<tag k="fixme" v="consider natural=peak for the most distinct mountains in the district" />
		<tag k="name" v="Njuke" />
		<tag k="natural" v="hill" />
		<tag k="place" v="locality" />
		<tag k="ssr:stedsnr" v="367531" />
	</node>
	<node id="-55029" lat="59.7184250012" lon="8.55953888367">
		<tag k="fixme" v="consider natural=peak for the most distinct mountains in the district" />
		<tag k="name" v="Lekkjenuten" />
		<tag k="natural" v="hill" />
		<tag k="place" v="locality" />
		<tag k="ssr:stedsnr" v="367529" />
	</node>
	<node id="-55026" lat="59.736050004" lon="8.57803611603">
		<tag k="fixme" v="consider natural=peak for the most distinct mountains in the district" />
		<tag k="name" v="Kovedalshovdun" />
		<tag k="natural" v="hill" />
		<tag k="place" v="locality" />
		<tag k="ssr:stedsnr" v="367488" />
	</node>
	<node id="-55023" lat="59.7989722258" lon="8.44720833431">
		<tag k="name" v="Vindsjådalen" />
		<tag k="natural" v="valley" />
		<tag k="place" v="locality" />
		<tag k="ssr:stedsnr" v="367358" />
	</node>
	<node id="-55022" lat="59.5472111128" lon="8.85673055255">
		<tag k="name" v="Illfiskskardet" />
		<tag k="natural" v="valley" />
		<tag k="place" v="locality" />
		<tag k="ssr:stedsnr" v="367354" />
	</node>
	<node id="-55021" lat="59.812774997" lon="8.43706667024">
		<tag k="name" v="Storsteindalen" />
		<tag k="natural" v="valley" />
		<tag k="place" v="locality" />
		<tag k="ssr:stedsnr" v="367349" />
	</node>
	<node id="-55019" lat="59.5951611101" lon="8.95153611898">
		<tag k="fixme" v="consider natural=peak for the most distinct mountains in the district" />
		<tag k="name" v="Tjørliåsen" />
		<tag k="natural" v="hill" />
		<tag k="place" v="locality" />
		<tag k="ssr:stedsnr" v="367297" />
	</node>
	<node id="-55015" lat="59.73282778" lon="8.90196388402">
		<tag k="name" v="Svange" />
		<tag k="natural" v="valley" />
		<tag k="place" v="locality" />
		<tag k="ssr:stedsnr" v="367083" />
	</node>
	<node id="-55005" lat="59.565136115" lon="8.9069750071">
		<tag k="fixme" v="consider natural=peak for the most distinct mountains in the district" />
		<tag k="name" v="Granhaughovet" />
		<tag k="natural" v="hill" />
		<tag k="place" v="locality" />
		<tag k="ssr:stedsnr" v="349887" />
	</node>
	<node id="-55002" lat="59.6131194437" lon="8.5473333297">
		<tag k="name" v="Ståldalen" />
		<tag k="natural" v="valley" />
		<tag k="place" v="locality" />
		<tag k="ssr:stedsnr" v="349597" />
	</node>
	<node id="-55001" lat="59.5899972223" lon="8.96598888518">
		<tag k="name" v="Rusåsen" />
		<tag k="natural" v="hill" />
		<tag k="place" v="locality" />
		<tag k="ssr:stedsnr" v="349754" />
	</node>
	<node id="-54997" lat="59.6283944437" lon="8.97274721685">
		<tag k="name" v="Svartufs" />
		<tag k="natural" v="cliff" />
		<tag k="ssr:stedsnr" v="349181" />
	</node>
	<node id="-54995" lat="59.8431833329" lon="8.80729721465">
		<tag k="name" v="Trengsle" />
		<tag k="natural" v="gorge" />
		<tag k="ssr:stedsnr" v="348981" />
	</node>
	<node id="-54994" lat="59.6113555594" lon="8.86711944236">
		<tag k="name" v="Storskåt" />
		<tag k="natural" v="cliff" />
		<tag k="ssr:stedsnr" v="348643" />
	</node>
	<node id="-54986" lat="59.7175944423" lon="8.70173611501">
		<tag k="name" v="Fagerbakknuten" />
		<tag k="natural" v="hill" />
		<tag k="place" v="locality" />
		<tag k="ssr:stedsnr" v="347890" />
	</node>
	<node id="-54983" lat="59.6706222218" lon="8.68649721335">
		<tag k="name" v="Bekreset" />
		<tag k="natural" v="hill" />
		<tag k="place" v="locality" />
		<tag k="ssr:stedsnr" v="347828" />
	</node>
	<node id="-54982" lat="59.6685833319" lon="8.79406389055">
		<tag k="name" v="Bjønneholet" />
		<tag k="natural" v="valley" />
		<tag k="place" v="locality" />
		<tag k="ssr:stedsnr" v="347665" />
	</node>
	<node id="-54981" lat="59.7348555598" lon="8.87789721436">
		<tag k="name" v="Gvamsnuten" />
		<tag k="natural" v="hill" />
		<tag k="place" v="locality" />
		<tag k="ssr:stedsnr" v="347238" />
	</node>
	<node id="-53536" lat="59.6001694401" lon="8.63269723051">
		<tag k="name" v="Bjødre" />
		<tag k="natural" v="slope" />
		<tag k="place" v="locality" />
		<tag k="ssr:stedsnr" v="228815" />
	</node>
	<node id="-54971" lat="59.770499996" lon="8.52644999553">
		<tag k="fixme" v="consider natural=peak for the most distinct mountains in the district" />
		<tag k="name" v="Nutan" />
		<tag k="natural" v="hill" />
		<tag k="place" v="locality" />
		<tag k="ssr:stedsnr" v="307999" />
	</node>
	<node id="-54967" lat="59.7843166635" lon="8.59914165852">
		<tag k="fixme" v="consider natural=peak for the most distinct mountains in the district" />
		<tag k="name" v="Ørnenuten" />
		<tag k="natural" v="hill" />
		<tag k="place" v="locality" />
		<tag k="ssr:stedsnr" v="307977" />
	</node>
	<node id="-54962" lat="59.7721305546" lon="8.79759443664">
		<tag k="name" v="Heggelii" />
		<tag k="natural" v="slope" />
		<tag k="place" v="locality" />
		<tag k="ssr:stedsnr" v="307944" />
	</node>
	<node id="-54958" lat="59.8319111098" lon="8.51681667169">
		<tag k="name" v="Måråstaddalen" />
		<tag k="natural" v="valley" />
		<tag k="place" v="locality" />
		<tag k="ssr:stedsnr" v="307872" />
	</node>
	<node id="-54949" lat="59.8307249996" lon="8.81652500488">
		<tag k="name" v="Ørnenuten" />
		<tag k="place" v="locality" />
		<tag k="ssr:stedsnr" v="307832" />
	</node>
	<node id="-54947" lat="59.8250558144" lon="8.50139883135">
		<tag k="fixme" v="consider natural=peak for the most distinct mountains in the district" />
		<tag k="name" v="Solfjell" />
		<tag k="natural" v="hill" />
		<tag k="place" v="locality" />
		<tag k="ssr:stedsnr" v="307828" />
	</node>
	<node id="-54933" lat="59.6882638876" lon="8.83271666457">
		<tag k="fixme" v="consider natural=peak for the most distinct mountains in the district" />
		<tag k="name" v="Gvefsenuten" />
		<tag k="natural" v="hill" />
		<tag k="place" v="locality" />
		<tag k="ssr:stedsnr" v="307685" />
	</node>
	<node id="-54928" lat="59.5845666684" lon="8.80667499181">
		<tag k="alt_name" v="Stornattgvelven" />
		<tag k="name" v="Stornattkvelven" />
		<tag k="natural" v="valley" />
		<tag k="place" v="locality" />
		<tag k="ssr:stedsnr" v="306924" />
	</node>
	<node id="-54924" lat="59.6010444421" lon="8.79589445072">
		<tag k="alt_name" v="Svartejuv" />
		<tag k="name" v="Svartegjuv" />
		<tag k="natural" v="valley" />
		<tag k="place" v="locality" />
		<tag k="ssr:stedsnr" v="306829" />
	</node>
	<node id="-54917" lat="59.6437972213" lon="8.80601666575">
		<tag k="fixme" v="consider natural=peak for the most distinct mountains in the district" />
		<tag k="name" v="Listulåsen" />
		<tag k="natural" v="hill" />
		<tag k="place" v="locality" />
		<tag k="ssr:stedsnr" v="306722" />
	</node>
	<node id="-54916" lat="59.6463916664" lon="8.73555554757">
		<tag k="fixme" v="consider natural=peak for the most distinct mountains in the district" />
		<tag k="name" v="Ruvlenuten" />
		<tag k="natural" v="hill" />
		<tag k="place" v="locality" />
		<tag k="ssr:stedsnr" v="306710" />
	</node>
	<node id="-54914" lat="59.6715555567" lon="8.53292500342">
		<tag k="alt_name" v="Storlibråtet" />
		<tag k="fixme" v="consider natural=peak for the most distinct mountains in the district" />
		<tag k="name" v="Storlibrotet" />
		<tag k="natural" v="hill" />
		<tag k="place" v="locality" />
		<tag k="ssr:stedsnr" v="306684" />
	</node>
	<node id="-54913" lat="59.6788749963" lon="8.59731110734">
		<tag k="fixme" v="consider natural=peak for the most distinct mountains in the district" />
		<tag k="name" v="Nytjørnhaugen" />
		<tag k="natural" v="hill" />
		<tag k="place" v="locality" />
		<tag k="ssr:stedsnr" v="306678" />
	</node>
	<node id="-54911" lat="59.6687861141" lon="8.75696388399">
		<tag k="fixme" v="consider natural=peak for the most distinct mountains in the district" />
		<tag k="name" v="Skårsetfjellet" />
		<tag k="natural" v="hill" />
		<tag k="place" v="locality" />
		<tag k="ssr:stedsnr" v="306652" />
	</node>
	<node id="-54906" lat="59.7354388898" lon="8.75043333172">
		<tag k="alt_name" v="Kyrkjefjellet" />
		<tag k="fixme" v="consider natural=peak for the most distinct mountains in the district" />
		<tag k="name" v="Kyrkjefjell" />
		<tag k="natural" v="hill" />
		<tag k="place" v="locality" />
		<tag k="ssr:stedsnr" v="306501" />
	</node>
	<node id="-54894" lat="59.6982444465" lon="8.88666111115">
		<tag k="name" v="Hibbergslii" />
		<tag k="natural" v="slope" />
		<tag k="place" v="locality" />
		<tag k="ssr:stedsnr" v="306082" />
	</node>
	<node id="-54891" lat="59.5782916686" lon="8.89694444711">
		<tag k="alt_name" v="Kyrkjejuva" />
		<tag k="name" v="Kyrkjegjuvet" />
		<tag k="natural" v="gorge" />
		<tag k="ssr:stedsnr" v="306334" />
	</node>
	<node id="-54878" lat="59.7990777776" lon="8.82936667382">
		<tag k="fixme" v="consider natural=peak for the most distinct mountains in the district" />
		<tag k="name" v="Raudberg" />
		<tag k="natural" v="hill" />
		<tag k="place" v="locality" />
		<tag k="ssr:stedsnr" v="186773" />
	</node>
	<node id="-54874" lat="59.7753750017" lon="8.63650277448">
		<tag k="alt_name" v="Helleksdalshovet" />
		<tag k="fixme" v="consider natural=peak for the most distinct mountains in the district" />
		<tag k="name" v="Helleiksdalshovet" />
		<tag k="natural" v="hill" />
		<tag k="place" v="locality" />
		<tag k="ssr:stedsnr" v="185997" />
	</node>
	<node id="-54872" lat="59.7723000014" lon="8.74850277998">
		<tag k="alt_name" v="Mosåfjellet" />
		<tag k="fixme" v="consider natural=peak for the most distinct mountains in the district" />
		<tag k="name" v="Måsåfjell" />
		<tag k="natural" v="hill" />
		<tag k="place" v="locality" />
		<tag k="ssr:stedsnr" v="185983" />
	</node>
	<node id="-54871" lat="59.5411333342" lon="8.84075277882">
		<tag k="fixme" v="consider natural=peak for the most distinct mountains in the district" />
		<tag k="name" v="Sigurdsbunuten" />
		<tag k="natural" v="hill" />
		<tag k="place" v="locality" />
		<tag k="ssr:stedsnr" v="185972" />
	</node>
	<node id="-54868" lat="59.779211114" lon="8.7900527734">
		<tag k="alt_name" v="Usbakknatten" />
		<tag k="fixme" v="consider natural=peak for the most distinct mountains in the district" />
		<tag k="name" v="Ufsbakknatten" />
		<tag k="natural" v="hill" />
		<tag k="place" v="locality" />
		<tag k="ssr:stedsnr" v="185943" />
	</node>
	<node id="-54854" lat="59.6473583348" lon="8.78761388418">
		<tag k="alt_name" v="Valekasinlien" />
		<tag k="name" v="Vålekåslia" />
		<tag k="natural" v="slope" />
		<tag k="place" v="locality" />
		<tag k="ssr:stedsnr" v="185715" />
	</node>
	<node id="-54853" lat="59.6637500011" lon="8.53233611729">
		<tag k="name" v="Vrimdalen" />
		<tag k="natural" v="valley" />
		<tag k="place" v="locality" />
		<tag k="ssr:stedsnr" v="185676" />
	</node>
	<node id="-54848" lat="59.6625499999" lon="8.69950555357">
		<tag k="fixme" v="consider natural=peak for the most distinct mountains in the district" />
		<tag k="name" v="Lislefjell" />
		<tag k="natural" v="hill" />
		<tag k="place" v="locality" />
		<tag k="ssr:stedsnr" v="185616" />
	</node>
	<node id="-54846" lat="59.6993694452" lon="8.49010556418">
		<tag k="fixme" v="consider natural=peak for the most distinct mountains in the district" />
		<tag k="name" v="Åtohovet" />
		<tag k="natural" v="hill" />
		<tag k="place" v="locality" />
		<tag k="ssr:stedsnr" v="185591" />
	</node>
	<node id="-54845" lat="59.6946083319" lon="8.63263611842">
		<tag k="fixme" v="consider natural=peak for the most distinct mountains in the district" />
		<tag k="name" v="Gvamsnutan" />
		<tag k="natural" v="hill" />
		<tag k="place" v="locality" />
		<tag k="ssr:stedsnr" v="185586" />
	</node>
	<node id="-54844" lat="59.6844833304" lon="8.75303332776">
		<tag k="name" v="Bekkjestuldalen" />
		<tag k="natural" v="valley" />
		<tag k="place" v="locality" />
		<tag k="ssr:stedsnr" v="185580" />
	</node>
	<node id="-54836" lat="59.7202249976" lon="8.8325583359">
		<tag k="alt_name" v="Lynnidalshøvda" />
		<tag k="fixme" v="consider natural=peak for the most distinct mountains in the district" />
		<tag k="name" v="Lynnidalshovda" />
		<tag k="natural" v="hill" />
		<tag k="place" v="locality" />
		<tag k="ssr:stedsnr" v="185555" />
	</node>
	<node id="-54831" lat="59.7244416695" lon="8.67379166506">
		<tag k="name" v="Kovedalen" />
		<tag k="natural" v="valley" />
		<tag k="place" v="locality" />
		<tag k="ssr:stedsnr" v="185509" />
	</node>
	<node id="-54826" lat="59.6602638883" lon="8.91697777239">
		<tag k="name" v="Tuddalsdalen" />
		<tag k="natural" v="valley" />
		<tag k="place" v="locality" />
		<tag k="ssr:stedsnr" v="185213" />
	</node>
	<node id="-54825" lat="59.6587750021" lon="8.94706110564">
		<tag k="fixme" v="consider natural=peak for the most distinct mountains in the district" />
		<tag k="name" v="Lauvås" />
		<tag k="natural" v="hill" />
		<tag k="place" v="locality" />
		<tag k="ssr:stedsnr" v="185189" />
	</node>
	<node id="-54823" lat="59.7252749966" lon="8.85806666603">
		<tag k="fixme" v="consider natural=peak for the most distinct mountains in the district" />
		<tag k="name" v="Stangåsen" />
		<tag k="natural" v="hill" />
		<tag k="place" v="locality" />
		<tag k="ssr:stedsnr" v="185097" />
	</node>
	<node id="-54820" lat="59.6145750042" lon="8.73029166939">
		<tag k="name" v="Tomåna" />
		<tag k="natural" v="ridge" />
		<tag k="place" v="locality" />
		<tag k="ssr:stedsnr" v="167987" />
	</node>
	<node id="-54819" lat="59.5895944453" lon="8.77165833965">
		<tag k="name" v="Gråsåjuvet" />
		<tag k="natural" v="gorge" />
		<tag k="ssr:stedsnr" v="167842" />
	</node>
	<node id="-54814" lat="59.6045916627" lon="8.57460277207">
		<tag k="name" v="Dekken" />
		<tag k="natural" v="valley" />
		<tag k="place" v="locality" />
		<tag k="ssr:stedsnr" v="167690" />
	</node>
	<node id="-53509" lat="59.6401833375" lon="8.88031388697">
		<tag k="name" v="Pålshaug" />
		<tag k="natural" v="hill" />
		<tag k="place" v="locality" />
		<tag k="ssr:stedsnr" v="226569" />
	</node>
	<node id="-54808" lat="59.6164805532" lon="8.96341389589">
		<tag k="name" v="Kaldbekkdalen" />
		<tag k="natural" v="valley" />
		<tag k="place" v="locality" />
		<tag k="ssr:stedsnr" v="167129" />
	</node>
	<node id="-54805" lat="59.6216666693" lon="8.70046944469">
		<tag k="name" v="Opsaljuvet" />
		<tag k="natural" v="gorge" />
		<tag k="ssr:stedsnr" v="167028" />
	</node>
	<node id="-54802" lat="59.8054305561" lon="8.43386389532">
		<tag k="name" v="Fattigmann" />
		<tag k="place" v="locality" />
		<tag k="ssr:stedsnr" v="166241" />
	</node>
	<node id="-54799" lat="59.8016277756" lon="8.70213054901">
		<tag k="name" v="Brattebakke" />
		<tag k="natural" v="slope" />
		<tag k="place" v="locality" />
		<tag k="ssr:stedsnr" v="165949" />
	</node>
	<node id="-54797" lat="59.6467416688" lon="8.80890832565">
		<tag k="name" v="Kolebotnlia" />
		<tag k="natural" v="slope" />
		<tag k="place" v="locality" />
		<tag k="ssr:stedsnr" v="165936" />
	</node>
	<node id="-54795" lat="59.7630861078" lon="8.8808194529">
		<tag k="name" v="Svarteli" />
		<tag k="natural" v="slope" />
		<tag k="place" v="locality" />
		<tag k="ssr:stedsnr" v="165141" />
	</node>
	<node id="-54791" lat="59.7575833319" lon="8.82163333298">
		<tag k="fixme" v="consider natural=peak for the most distinct mountains in the district" />
		<tag k="name" v="Hovdenuten" />
		<tag k="natural" v="hill" />
		<tag k="ssr:stedsnr" v="158300" />
	</node>
	<node id="-54787" lat="59.7811583356" lon="8.68543889143">
		<tag k="fixme" v="consider natural=peak for the most distinct mountains in the district" />
		<tag k="name" v="Røynuten" />
		<tag k="natural" v="hill" />
		<tag k="place" v="locality" />
		<tag k="ssr:stedsnr" v="125982" />
	</node>
	<node id="-54782" lat="59.7699083328" lon="8.76345833457">
		<tag k="fixme" v="consider natural=peak for the most distinct mountains in the district" />
		<tag k="name" v="Timmerås" />
		<tag k="natural" v="hill" />
		<tag k="place" v="locality" />
		<tag k="ssr:stedsnr" v="125962" />
	</node>
	<node id="-54781" lat="59.7735250012" lon="8.791675008">
		<tag k="fixme" v="consider natural=peak for the most distinct mountains in the district" />
		<tag k="name" v="Kollås" />
		<tag k="natural" v="hill" />
		<tag k="place" v="locality" />
		<tag k="ssr:stedsnr" v="125961" />
	</node>
	<node id="-54780" lat="59.8427527754" lon="8.59517499124">
		<tag k="alt_name" v="Bjørndalsnuten, l" />
		<tag k="fixme" v="consider natural=peak for the most distinct mountains in the district" />
		<tag k="name" v="Lille Bjønndalsnut" />
		<tag k="natural" v="hill" />
		<tag k="place" v="locality" />
		<tag k="ssr:stedsnr" v="125879" />
	</node>
	<node id="-54765" lat="59.802061111" lon="8.72428889724">
		<tag k="fixme" v="consider natural=peak for the most distinct mountains in the district" />
		<tag k="name" v="Linuten" />
		<tag k="natural" v="hill" />
		<tag k="place" v="locality" />
		<tag k="ssr:stedsnr" v="125775" />
	</node>
	<node id="-54760" lat="59.5651888871" lon="8.75468611643">
		<tag k="name" v="Londalen" />
		<tag k="natural" v="valley" />
		<tag k="place" v="locality" />
		<tag k="ssr:stedsnr" v="124908" />
	</node>
	<node id="-53500" lat="59.7608472185" lon="8.77133889575">
		<tag k="name" v="Djupedal" />
		<tag k="natural" v="valley" />
		<tag k="place" v="locality" />
		<tag k="ssr:stedsnr" v="219674" />
	</node>
	<node id="-54757" lat="59.6005249982" lon="8.80900832683">
		<tag k="fixme" v="consider natural=peak for the most distinct mountains in the district" />
		<tag k="name" v="Gunnarstulnuten" />
		<tag k="natural" v="hill" />
		<tag k="place" v="locality" />
		<tag k="ssr:stedsnr" v="124813" />
	</node>
	<node id="-54751" lat="59.6302277786" lon="8.57475555417">
		<tag k="fixme" v="consider natural=peak for the most distinct mountains in the district" />
		<tag k="name" v="Tverråsnuten" />
		<tag k="natural" v="hill" />
		<tag k="place" v="locality" />
		<tag k="ssr:stedsnr" v="124715" />
	</node>
	<node id="-54748" lat="59.6276638853" lon="8.72426665858">
		<tag k="alt_name" v="Lonslia" />
		<tag k="name" v="Lonsli" />
		<tag k="natural" v="slope" />
		<tag k="place" v="locality" />
		<tag k="ssr:stedsnr" v="124674" />
	</node>
	<node id="-54743" lat="59.6726083304" lon="8.7236138895">
		<tag k="fixme" v="consider natural=peak for the most distinct mountains in the district" />
		<tag k="name" v="Stav" />
		<tag k="natural" v="hill" />
		<tag k="place" v="locality" />
		<tag k="ssr:stedsnr" v="124599" />
	</node>
	<node id="-54740" lat="59.7191638861" lon="8.78353333603">
		<tag k="fixme" v="consider natural=peak for the most distinct mountains in the district" />
		<tag k="name" v="Lønningåsen" />
		<tag k="natural" v="hill" />
		<tag k="place" v="locality" />
		<tag k="ssr:stedsnr" v="124551" />
	</node>
	<node id="-54734" lat="59.7246500045" lon="8.47296945131">
		<tag k="fixme" v="consider natural=peak for the most distinct mountains in the district" />
		<tag k="name" v="Sandhaughovet" />
		<tag k="natural" v="hill" />
		<tag k="place" v="locality" />
		<tag k="ssr:stedsnr" v="124513" />
	</node>
	<node id="-54727" lat="59.7452583349" lon="8.73091388558">
		<tag k="name" v="Åslien" />
		<tag k="natural" v="slope" />
		<tag k="place" v="locality" />
		<tag k="ssr:stedsnr" v="124483" />
	</node>
	<node id="-53494" lat="59.6356166682" lon="8.66128056077">
		<tag k="fixme" v="consider natural=peak for the most distinct mountains in the district" />
		<tag k="name" v="Volebakknuten" />
		<tag k="natural" v="hill" />
		<tag k="place" v="locality" />
		<tag k="ssr:stedsnr" v="3715" />
	</node>
	<node id="-54721" lat="59.7040000002" lon="8.88500832597">
		<tag k="alt_name" v="Bergelie" />
		<tag k="name" v="Berglii" />
		<tag k="natural" v="slope" />
		<tag k="place" v="locality" />
		<tag k="ssr:stedsnr" v="124077" />
	</node>
	<node id="-54720" lat="59.7469361078" lon="8.88103333546">
		<tag k="fixme" v="consider natural=peak for the most distinct mountains in the district" />
		<tag k="name" v="Flugunfjellet" />
		<tag k="natural" v="hill" />
		<tag k="place" v="locality" />
		<tag k="ssr:stedsnr" v="124016" />
	</node>
	<node id="-54717" lat="59.5647194405" lon="8.77553056224">
		<tag k="name" v="Blåtjønnfjell" />
		<tag k="natural" v="hill" />
		<tag k="place" v="locality" />
		<tag k="ssr:stedsnr" v="107843" />
	</node>
	<node id="-54714" lat="59.5848138896" lon="8.95034167287">
		<tag k="fixme" v="consider natural=peak for the most distinct mountains in the district" />
		<tag k="name" v="Skreibekkåsen" />
		<tag k="natural" v="hill" />
		<tag k="place" v="locality" />
		<tag k="ssr:stedsnr" v="107802" />
	</node>
	<node id="-54700" lat="59.5779916697" lon="8.92867500692">
		<tag k="name" v="Sauarskåtet" />
		<tag k="natural" v="cliff" />
		<tag k="ssr:stedsnr" v="106862" />
	</node>
	<node id="-54699" lat="59.6181833336" lon="8.94333334176">
		<tag k="name" v="Bøhaugen" />
		<tag k="natural" v="hill" />
		<tag k="place" v="locality" />
		<tag k="ssr:stedsnr" v="106715" />
	</node>
	<node id="-54698" lat="59.6355888929" lon="8.92334167341">
		<tag k="name" v="Mjaugedal" />
		<tag k="natural" v="valley" />
		<tag k="place" v="locality" />
		<tag k="ssr:stedsnr" v="106708" />
	</node>
	<node id="-54695" lat="59.6327916708" lon="8.86460556191">
		<tag k="name" v="Runningsfjell" />
		<tag k="natural" v="hill" />
		<tag k="place" v="locality" />
		<tag k="ssr:stedsnr" v="106700" />
	</node>
	<node id="-54692" lat="59.834874997" lon="8.53875833954">
		<tag k="name" v="Gunnuvstullii" />
		<tag k="natural" v="slope" />
		<tag k="place" v="locality" />
		<tag k="ssr:stedsnr" v="106558" />
	</node>
	<node id="-54688" lat="59.6040916636" lon="8.67305278584">
		<tag k="fixme" v="consider natural=peak for the most distinct mountains in the district" />
		<tag k="name" v="Melandåsen" />
		<tag k="natural" v="hill" />
		<tag k="place" v="locality" />
		<tag k="ssr:stedsnr" v="106227" />
	</node>
	<node id="-54681" lat="59.7156888849" lon="8.71417499706">
		<tag k="name" v="Ulehaugen" />
		<tag k="natural" v="hill" />
		<tag k="place" v="locality" />
		<tag k="ssr:stedsnr" v="105868" />
	</node>
	<node id="-54680" lat="59.738577781" lon="8.46787778005">
		<tag k="name" v="Deildnuten" />
		<tag k="natural" v="hill" />
		<tag k="place" v="locality" />
		<tag k="ssr:stedsnr" v="105801" />
	</node>
	<node id="-54678" lat="59.6655027769" lon="8.7737638875">
		<tag k="name" v="Storsteinlia" />
		<tag k="natural" v="slope" />
		<tag k="place" v="locality" />
		<tag k="ssr:stedsnr" v="105561" />
	</node>
	<node id="-54677" lat="59.7424583354" lon="8.7758777702">
		<tag k="name" v="Hågåberg" />
		<tag k="natural" v="hill" />
		<tag k="place" v="locality" />
		<tag k="ssr:stedsnr" v="105519" />
	</node>
	<node id="-54674" lat="59.6909333291" lon="8.74454443682">
		<tag k="name" v="Blankeberg" />
		<tag k="natural" v="hill" />
		<tag k="place" v="locality" />
		<tag k="ssr:stedsnr" v="105437" />
	</node>
	<node id="-54672" lat="59.6791555565" lon="8.48454445143">
		<tag k="name" v="Vasslia" />
		<tag k="natural" v="slope" />
		<tag k="place" v="locality" />
		<tag k="ssr:stedsnr" v="105269" />
	</node>
	<node id="-54669" lat="59.7310499965" lon="8.60294722594">
		<tag k="fixme" v="consider natural=peak for the most distinct mountains in the district" />
		<tag k="name" v="Kovdalsnuten" />
		<tag k="natural" v="hill" />
		<tag k="place" v="locality" />
		<tag k="ssr:stedsnr" v="105231" />
	</node>
	<node id="-54660" lat="59.6580555525" lon="8.51096944997">
		<tag k="name" v="Grauteknap" />
		<tag k="natural" v="hill" />
		<tag k="place" v="locality" />
		<tag k="ssr:stedsnr" v="105052" />
	</node>
	<node id="-54657" lat="59.7670222216" lon="8.75556943863">
		<tag k="name" v="Bøensåsen" />
		<tag k="natural" v="hill" />
		<tag k="place" v="locality" />
		<tag k="ssr:stedsnr" v="97635" />
	</node>
	<node id="-54649" lat="59.8439805575" lon="8.54128888695">
		<tag k="alt_name" v="Tjørnstulnuten" />
		<tag k="fixme" v="consider natural=peak for the most distinct mountains in the district" />
		<tag k="name" v="Tjønnstulnuten" />
		<tag k="natural" v="hill" />
		<tag k="place" v="locality" />
		<tag k="ssr:stedsnr" v="65880" />
	</node>
	<node id="-54644" lat="59.778916669" lon="8.66510278017">
		<tag k="fixme" v="consider natural=peak for the most distinct mountains in the district" />
		<tag k="name" v="Grannut" />
		<tag k="natural" v="hill" />
		<tag k="place" v="locality" />
		<tag k="ssr:stedsnr" v="64994" />
	</node>
	<node id="-54639" lat="59.7592555515" lon="8.63986388831">
		<tag k="fixme" v="consider natural=peak for the most distinct mountains in the district" />
		<tag k="name" v="Løkjegrønuten" />
		<tag k="natural" v="hill" />
		<tag k="place" v="locality" />
		<tag k="ssr:stedsnr" v="64970" />
	</node>
	<node id="-54630" lat="59.6506750002" lon="8.81310554769">
		<tag k="name" v="Rognlia" />
		<tag k="natural" v="slope" />
		<tag k="place" v="locality" />
		<tag k="ssr:stedsnr" v="64752" />
	</node>
	<node id="-54615" lat="59.7416499965" lon="8.68002500206">
		<tag k="alt_name" v="Lomtjønnfjell" />
		<tag k="name" v="Lomtjørnfjellet" />
		<tag k="natural" v="hill" />
		<tag k="place" v="locality" />
		<tag k="ssr:stedsnr" v="64534" />
	</node>
	<node id="-54612" lat="59.6889499961" lon="8.67987222048">
		<tag k="alt_name" v="Lauvhøvdun" />
		<tag k="fixme" v="consider natural=peak for the most distinct mountains in the district" />
		<tag k="name" v="Lauvhovdun" />
		<tag k="natural" v="hill" />
		<tag k="place" v="locality" />
		<tag k="ssr:stedsnr" v="64629" />
	</node>
	<node id="-54611" lat="59.6947916705" lon="8.68889444468">
		<tag k="fixme" v="consider natural=peak for the most distinct mountains in the district" />
		<tag k="name" v="Ljoslihovet" />
		<tag k="natural" v="hill" />
		<tag k="place" v="locality" />
		<tag k="ssr:stedsnr" v="64627" />
	</node>
	<node id="-54610" lat="59.6809194418" lon="8.73503333359">
		<tag k="alt_name" v="Gråhovda, store;Store Gråhøvde" />
		<tag k="fixme" v="consider natural=peak for the most distinct mountains in the district" />
		<tag k="name" v="Store Gråhovda" />
		<tag k="natural" v="hill" />
		<tag k="place" v="locality" />
		<tag k="ssr:stedsnr" v="64624" />
	</node>
	<node id="-54608" lat="59.7257638845" lon="8.83324166192">
		<tag k="name" v="Skåtedalen" />
		<tag k="natural" v="valley" />
		<tag k="place" v="locality" />
		<tag k="ssr:stedsnr" v="64606" />
	</node>
	<node id="-54602" lat="59.6239833313" lon="8.55216111286">
		<tag k="alt_name" v="Høydalsnut" />
		<tag k="fixme" v="consider natural=peak for the most distinct mountains in the district" />
		<tag k="name" v="Høydalsnuten" />
		<tag k="natural" v="hill" />
		<tag k="place" v="locality" />
		<tag k="ssr:stedsnr" v="63756" />
	</node>
	<node id="-54601" lat="59.5965222247" lon="8.71819999468">
		<tag k="name" v="Hjartdal" />
		<tag k="natural" v="valley" />
		<tag k="place" v="locality" />
		<tag k="ssr:stedsnr" v="63857" />
	</node>
	<node id="-54599" lat="59.5932888915" lon="8.63535278646">
		<tag k="name" v="Uføret" />
		<tag k="natural" v="slope" />
		<tag k="place" v="locality" />
		<tag k="ssr:stedsnr" v="63841" />
	</node>
	<node id="-53510" lat="59.6667749969" lon="8.76524443813">
		<tag k="name" v="Østensli" />
		<tag k="natural" v="slope" />
		<tag k="place" v="locality" />
		<tag k="ssr:stedsnr" v="226573" />
	</node>
	<node id="-54578" lat="59.5786805583" lon="8.79257500089">
		<tag k="name" v="Trongedalsbråtet" />
		<tag k="natural" v="hill" />
		<tag k="place" v="locality" />
		<tag k="ssr:stedsnr" v="45839" />
	</node>
	<node id="-54577" lat="59.5870305516" lon="8.92456944559">
		<tag k="name" v="Hukmoen" />
		<tag k="place" v="locality" />
		<tag k="ssr:stedsnr" v="45780" />
	</node>
	<node id="-54565" lat="59.616613885" lon="8.90310834089">
		<tag k="name" v="Frølandmoen" />
		<tag k="place" v="locality" />
		<tag k="ssr:stedsnr" v="44960" />
	</node>
	<node id="-54563" lat="59.7908027754" lon="8.83333611075">
		<tag k="name" v="Verpliane" />
		<tag k="natural" v="slope" />
		<tag k="place" v="locality" />
		<tag k="ssr:stedsnr" v="44924" />
	</node>
	<node id="-54545" lat="59.6971972251" lon="8.55495832922">
		<tag k="name" v="Lauvnatten" />
		<tag k="natural" v="hill" />
		<tag k="place" v="locality" />
		<tag k="ssr:stedsnr" v="44218" />
	</node>
	<node id="-54544" lat="59.6631388871" lon="8.52660000771">
		<tag k="name" v="Båthushaugen" />
		<tag k="natural" v="hill" />
		<tag k="place" v="locality" />
		<tag k="ssr:stedsnr" v="44211" />
	</node>
	<node id="-54539" lat="59.7745166645" lon="8.49871666592">
		<tag k="fixme" v="consider natural=peak for the most distinct mountains in the district" />
		<tag k="name" v="Ørnenuten" />
		<tag k="natural" v="hill" />
		<tag k="place" v="locality" />
		<tag k="ssr:stedsnr" v="5000" />
	</node>
	<node id="-54533" lat="59.8426027818" lon="8.79233056003">
		<tag k="fixme" v="consider natural=peak for the most distinct mountains in the district" />
		<tag k="name" v="Bunuten" />
		<tag k="natural" v="hill" />
		<tag k="place" v="locality" />
		<tag k="ssr:stedsnr" v="4875" />
	</node>
	<node id="-54530" lat="59.8393194414" lon="8.60719166776">
		<tag k="name" v="Mjokknatten" />
		<tag k="natural" v="hill" />
		<tag k="place" v="locality" />
		<tag k="ssr:stedsnr" v="4843" />
	</node>
	<node id="-54528" lat="59.7927500015" lon="8.7332249978">
		<tag k="alt_name" v="Åråhovde, vle;Åråhovde, vesle;Åråhøvde vesle" />
		<tag k="fixme" v="consider natural=peak for the most distinct mountains in the district" />
		<tag k="name" v="Vesle Åråhovde" />
		<tag k="natural" v="hill" />
		<tag k="place" v="locality" />
		<tag k="ssr:stedsnr" v="4795" />
	</node>
	<node id="-54526" lat="59.7935777772" lon="8.66429999177">
		<tag k="alt_name" v="Reisjåfjell" />
		<tag k="fixme" v="consider natural=peak for the most distinct mountains in the district" />
		<tag k="name" v="Reisjåfjellet" />
		<tag k="natural" v="hill" />
		<tag k="place" v="locality" />
		<tag k="ssr:stedsnr" v="4784" />
	</node>
	<node id="-54522" lat="59.561780426" lon="8.71492336667">
		<tag k="alt_name" v="Mælefjellet" />
		<tag k="fixme" v="consider natural=peak for the most distinct mountains in the district" />
		<tag k="name" v="Mælefjell" />
		<tag k="natural" v="hill" />
		<tag k="place" v="locality" />
		<tag k="ssr:stedsnr" v="3930" />
	</node>
	<node id="-54521" lat="59.5834638869" lon="8.79763054874">
		<tag k="fixme" v="consider natural=peak for the most distinct mountains in the district" />
		<tag k="name" v="Stornatten" />
		<tag k="natural" v="hill" />
		<tag k="place" v="locality" />
		<tag k="ssr:stedsnr" v="3920" />
	</node>
	<node id="-54519" lat="59.5853499996" lon="8.58316665989">
		<tag k="name" v="Ambjørndalen" />
		<tag k="natural" v="valley" />
		<tag k="place" v="locality" />
		<tag k="ssr:stedsnr" v="3901" />
	</node>
	<node id="-53576" lat="59.6794333353" lon="8.88587500597">
		<tag k="name" v="Lyngdalsgjuvet" />
		<tag k="natural" v="valley" />
		<tag k="place" v="locality" />
		<tag k="ssr:stedsnr" v="246167" />
	</node>
	<node id="-54513" lat="59.6251444489" lon="8.79369444761">
		<tag k="alt_name" v="Lonarlien" />
		<tag k="name" v="Lonelien" />
		<tag k="natural" v="slope" />
		<tag k="place" v="locality" />
		<tag k="ssr:stedsnr" v="3814" />
	</node>
	<node id="-54507" lat="59.8172361119" lon="8.81700555298">
		<tag k="fixme" v="consider natural=peak for the most distinct mountains in the district" />
		<tag k="name" v="Listulfjell" />
		<tag k="natural" v="hill" />
		<tag k="place" v="locality" />
		<tag k="ssr:stedsnr" v="3775" />
	</node>
	<node id="-54506" lat="59.8185888854" lon="8.77582777041">
		<tag k="alt_name" v="Skinnattnutan" />
		<tag k="fixme" v="consider natural=peak for the most distinct mountains in the district" />
		<tag k="name" v="Skinanutan" />
		<tag k="natural" v="hill" />
		<tag k="place" v="locality" />
		<tag k="ssr:stedsnr" v="3774" />
	</node>
	<node id="-54503" lat="59.6663999984" lon="8.75726666074">
		<tag k="name" v="Deildalen" />
		<tag k="natural" v="valley" />
		<tag k="place" v="locality" />
		<tag k="ssr:stedsnr" v="3646" />
	</node>
	<node id="-54502" lat="59.6879749987" lon="8.79764167301">
		<tag k="fixme" v="consider natural=peak for the most distinct mountains in the district" />
		<tag k="name" v="Sjausethovet" />
		<tag k="natural" v="hill" />
		<tag k="place" v="locality" />
		<tag k="ssr:stedsnr" v="3635" />
	</node>
	<node id="-54497" lat="59.6953694401" lon="8.80777500331">
		<tag k="name" v="Langetjørnlia" />
		<tag k="natural" v="slope" />
		<tag k="place" v="locality" />
		<tag k="ssr:stedsnr" v="3561" />
	</node>
	<node id="-54496" lat="59.706880552" lon="8.80198610747">
		<tag k="alt_name" v="Manen" />
		<tag k="fixme" v="consider natural=peak for the most distinct mountains in the district" />
		<tag k="name" v="Manin" />
		<tag k="natural" v="hill" />
		<tag k="place" v="locality" />
		<tag k="ssr:stedsnr" v="3559" />
	</node>
	<node id="-54493" lat="59.7010777822" lon="8.73473334001">
		<tag k="alt_name" v="Skimyrhøvde" />
		<tag k="fixme" v="consider natural=peak for the most distinct mountains in the district" />
		<tag k="name" v="Skimyrhovda" />
		<tag k="natural" v="hill" />
		<tag k="place" v="locality" />
		<tag k="ssr:stedsnr" v="3551" />
	</node>
	<node id="-54489" lat="59.7235055521" lon="8.69662778056">
		<tag k="name" v="Mydalsfjellet" />
		<tag k="natural" v="hill" />
		<tag k="place" v="locality" />
		<tag k="ssr:stedsnr" v="3518" />
	</node>
	<node id="-54488" lat="59.7099527783" lon="8.66897500689">
		<tag k="fixme" v="consider natural=peak for the most distinct mountains in the district" />
		<tag k="name" v="Bekrenuten" />
		<tag k="natural" v="hill" />
		<tag k="place" v="locality" />
		<tag k="ssr:stedsnr" v="3516" />
	</node>
	<node id="-54487" lat="59.7140305531" lon="8.68032778381">
		<tag k="fixme" v="consider natural=peak for the most distinct mountains in the district" />
		<tag k="name" v="Håbrandnuten" />
		<tag k="natural" v="hill" />
		<tag k="place" v="locality" />
		<tag k="ssr:stedsnr" v="3515" />
	</node>
	<node id="-54486" lat="59.7372277793" lon="8.6494250051">
		<tag k="alt_name" v="Sandvikberget" />
		<tag k="fixme" v="consider natural=peak for the most distinct mountains in the district" />
		<tag k="name" v="Sandvikfjellet" />
		<tag k="natural" v="hill" />
		<tag k="place" v="locality" />
		<tag k="ssr:stedsnr" v="3494" />
	</node>
	<node id="-54485" lat="59.7383944473" lon="8.65954999972">
		<tag k="fixme" v="consider natural=peak for the most distinct mountains in the district" />
		<tag k="name" v="Damlifjellet" />
		<tag k="natural" v="hill" />
		<tag k="place" v="locality" />
		<tag k="ssr:stedsnr" v="3492" />
	</node>
	<node id="-54480" lat="59.6334666706" lon="8.91248610804">
		<tag k="alt_name" v="Kleppefjell" />
		<tag k="fixme" v="consider natural=peak for the most distinct mountains in the district" />
		<tag k="name" v="Kleppefjellet" />
		<tag k="natural" v="hill" />
		<tag k="place" v="locality" />
		<tag k="ssr:stedsnr" v="3317" />
	</node>
	<node id="-54458" lat="59.7770500035" lon="8.6695916594">
		<tag k="name" v="Sevringsdalen" />
		<tag k="natural" v="valley" />
		<tag k="place" v="locality" />
		<tag k="ssr:stedsnr" v="914993" />
	</node>
	<node id="-54454" lat="59.7600583366" lon="8.56262500177">
		<tag k="alt_name" v="Bjørntjørnhovet" />
		<tag k="name" v="Bjønntjønnhovet" />
		<tag k="natural" v="hill" />
		<tag k="place" v="locality" />
		<tag k="ssr:stedsnr" v="914953" />
	</node>
	<node id="-54452" lat="59.7313083329" lon="8.60333611659">
		<tag k="fixme" v="consider natural=peak for the most distinct mountains in the district" />
		<tag k="name" v="Kovedalshovda" />
		<tag k="natural" v="hill" />
		<tag k="place" v="locality" />
		<tag k="ssr:stedsnr" v="913513" />
	</node>
	<node id="-54451" lat="59.7340527748" lon="8.61498611167">
		<tag k="fixme" v="consider natural=peak for the most distinct mountains in the district" />
		<tag k="name" v="Kovviknuten" />
		<tag k="natural" v="hill" />
		<tag k="place" v="locality" />
		<tag k="ssr:stedsnr" v="913507" />
	</node>
	<node id="-54443" lat="59.7798944428" lon="8.60061944354">
		<tag k="name" v="Vikdalen" />
		<tag k="natural" v="valley" />
		<tag k="place" v="locality" />
		<tag k="ssr:stedsnr" v="854975" />
	</node>
	<node id="-54442" lat="59.8464999993" lon="8.5675194374">
		<tag k="alt_name" v="Bjørndalsnuten, store;Store Bjønndalsnut" />
		<tag k="fixme" v="consider natural=peak for the most distinct mountains in the district" />
		<tag k="name" v="Store Bjørndalsnuten" />
		<tag k="natural" v="hill" />
		<tag k="place" v="locality" />
		<tag k="ssr:stedsnr" v="854858" />
	</node>
	<node id="-54440" lat="59.7935277754" lon="8.78043056152">
		<tag k="fixme" v="consider natural=peak for the most distinct mountains in the district" />
		<tag k="name" v="Råenden" />
		<tag k="natural" v="hill" />
		<tag k="place" v="locality" />
		<tag k="ssr:stedsnr" v="854768" />
	</node>
	<node id="-54438" lat="59.8310694474" lon="8.62783332823">
		<tag k="fixme" v="consider natural=peak for the most distinct mountains in the district" />
		<tag k="name" v="Ramsnuten" />
		<tag k="natural" v="hill" />
		<tag k="place" v="locality" />
		<tag k="ssr:stedsnr" v="854822" />
	</node>
	<node id="-54434" lat="59.8132305528" lon="8.68394166967">
		<tag k="name" v="Arvedalen" />
		<tag k="natural" v="valley" />
		<tag k="place" v="locality" />
		<tag k="ssr:stedsnr" v="853786" />
	</node>
	<node id="-54427" lat="59.6445305513" lon="8.57984167194">
		<tag k="fixme" v="consider natural=peak for the most distinct mountains in the district" />
		<tag k="name" v="Ormaskjernutan" />
		<tag k="natural" v="hill" />
		<tag k="place" v="locality" />
		<tag k="ssr:stedsnr" v="853675" />
	</node>
	<node id="-54418" lat="59.6109805596" lon="8.8702083313">
		<tag k="alt_name" v="Geitjuvet" />
		<tag k="name" v="Geitgjuvet" />
		<tag k="natural" v="valley" />
		<tag k="place" v="locality" />
		<tag k="ssr:stedsnr" v="853369" />
	</node>
	<node id="-54408" lat="59.6321027772" lon="8.66628611714">
		<tag k="name" v="Skinntryteberget" />
		<tag k="natural" v="hill" />
		<tag k="place" v="locality" />
		<tag k="ssr:stedsnr" v="835268" />
	</node>
	<node id="-54406" lat="59.6211722201" lon="8.96002223094">
		<tag k="name" v="Skogsmoen" />
		<tag k="place" v="locality" />
		<tag k="ssr:stedsnr" v="835124" />
	</node>
	<node id="-54405" lat="59.6266666669" lon="8.95547221356">
		<tag k="name" v="Høgemo" />
		<tag k="place" v="locality" />
		<tag k="ssr:stedsnr" v="835122" />
	</node>
	<node id="-54400" lat="59.6783611152" lon="8.7755972213">
		<tag k="name" v="Bjønnlidalen" />
		<tag k="natural" v="valley" />
		<tag k="place" v="locality" />
		<tag k="ssr:stedsnr" v="833553" />
	</node>
	<node id="-54395" lat="59.6723250036" lon="8.54701110352">
		<tag k="name" v="Kalddalådalen" />
		<tag k="natural" v="valley" />
		<tag k="place" v="locality" />
		<tag k="ssr:stedsnr" v="833213" />
	</node>
	<node id="-54392" lat="59.7616472262" lon="8.848947221">
		<tag k="name" v="Laughaug" />
		<tag k="natural" v="hill" />
		<tag k="place" v="locality" />
		<tag k="ssr:stedsnr" v="833162" />
	</node>
	<node id="-54391" lat="59.7610972222" lon="8.88400833376">
		<tag k="name" v="Svartelinuten" />
		<tag k="natural" v="ridge" />
		<tag k="place" v="locality" />
		<tag k="ssr:stedsnr" v="833153" />
	</node>
	<node id="-54390" lat="59.730933337" lon="8.75416110395">
		<tag k="name" v="Bukkenuten" />
		<tag k="natural" v="hill" />
		<tag k="place" v="locality" />
		<tag k="ssr:stedsnr" v="794434" />
	</node>
	<node id="-54388" lat="59.7512750033" lon="8.5101888882">
		<tag k="fixme" v="consider natural=peak for the most distinct mountains in the district" />
		<tag k="name" v="Kjerringnuten" />
		<tag k="natural" v="hill" />
		<tag k="place" v="locality" />
		<tag k="ssr:stedsnr" v="792975" />
	</node>
	<node id="-54387" lat="59.7545138866" lon="8.58743333101">
		<tag k="fixme" v="consider natural=peak for the most distinct mountains in the district" />
		<tag k="name" v="Storsteinfjellet" />
		<tag k="natural" v="hill" />
		<tag k="place" v="locality" />
		<tag k="ssr:stedsnr" v="792970" />
	</node>
	<node id="-54385" lat="59.757569447" lon="8.65031111483">
		<tag k="name" v="Skavrøydalen" />
		<tag k="natural" v="valley" />
		<tag k="place" v="locality" />
		<tag k="ssr:stedsnr" v="792964" />
	</node>
	<node id="-54383" lat="59.7707805556" lon="8.7907305618">
		<tag k="fixme" v="consider natural=peak for the most distinct mountains in the district" />
		<tag k="name" v="Lønnås" />
		<tag k="natural" v="hill" />
		<tag k="place" v="locality" />
		<tag k="ssr:stedsnr" v="792955" />
	</node>
	<node id="-54382" lat="59.6218611154" lon="8.60074166036">
		<tag k="alt_name" v="Heggelinuten, nedre;Heggjelinuten nedre" />
		<tag k="fixme" v="consider natural=peak for the most distinct mountains in the district" />
		<tag k="name" v="Nedre Heggelinuten" />
		<tag k="natural" v="hill" />
		<tag k="place" v="locality" />
		<tag k="ssr:stedsnr" v="792767" />
	</node>
	<node id="-54381" lat="59.5940666687" lon="8.70916666166">
		<tag k="alt_name" v="Grotbekkjuvet" />
		<tag k="name" v="Grotbekkgjuvet" />
		<tag k="natural" v="valley" />
		<tag k="place" v="locality" />
		<tag k="ssr:stedsnr" v="792818" />
	</node>
	<node id="-54376" lat="59.618613892" lon="8.74188889123">
		<tag k="fixme" v="consider natural=peak for the most distinct mountains in the district" />
		<tag k="name" v="Ertehammar" />
		<tag k="natural" v="hill" />
		<tag k="place" v="locality" />
		<tag k="ssr:stedsnr" v="792807" />
	</node>
	<node id="-54369" lat="59.7377666673" lon="8.77736389309">
		<tag k="fixme" v="consider natural=peak for the most distinct mountains in the district" />
		<tag k="name" v="Lauvnatten" />
		<tag k="natural" v="hill" />
		<tag k="place" v="locality" />
		<tag k="ssr:stedsnr" v="792560" />
	</node>
	<node id="-54366" lat="59.7302500043" lon="8.71977778215">
		<tag k="fixme" v="consider natural=peak for the most distinct mountains in the district" />
		<tag k="name" v="Steinkufjellet" />
		<tag k="natural" v="hill" />
		<tag k="place" v="locality" />
		<tag k="ssr:stedsnr" v="792536" />
	</node>
	<node id="-54364" lat="59.7402749978" lon="8.72193333189">
		<tag k="fixme" v="consider natural=peak for the most distinct mountains in the district" />
		<tag k="name" v="Utmannsnipun" />
		<tag k="natural" v="hill" />
		<tag k="place" v="locality" />
		<tag k="ssr:stedsnr" v="792520" />
	</node>
	<node id="-54363" lat="59.7214416664" lon="8.86983611045">
		<tag k="fixme" v="consider natural=peak for the most distinct mountains in the district" />
		<tag k="name" v="Fesås" />
		<tag k="natural" v="hill" />
		<tag k="place" v="locality" />
		<tag k="ssr:stedsnr" v="792109" />
	</node>
	<node id="-54353" lat="59.7218083298" lon="8.707727773">
		<tag k="name" v="Linuten" />
		<tag k="natural" v="hill" />
		<tag k="place" v="locality" />
		<tag k="ssr:stedsnr" v="772866" />
	</node>
	<node id="-54352" lat="59.6668555537" lon="8.78689166366">
		<tag k="name" v="Åmannbulia" />
		<tag k="natural" v="slope" />
		<tag k="place" v="locality" />
		<tag k="ssr:stedsnr" v="772665" />
	</node>
	<node id="-54351" lat="59.7905500011" lon="8.85141111375">
		<tag k="name" v="Båtstålidalen" />
		<tag k="natural" v="valley" />
		<tag k="place" v="locality" />
		<tag k="ssr:stedsnr" v="772924" />
	</node>
	<node id="-54348" lat="59.7508249988" lon="8.67831666474">
		<tag k="name" v="Tverroksle" />
		<tag k="place" v="locality" />
		<tag k="ssr:stedsnr" v="772914" />
	</node>
	<node id="-54345" lat="59.8394166648" lon="8.62472499145">
		<tag k="name" v="Gausdalen" />
		<tag k="natural" v="valley" />
		<tag k="place" v="locality" />
		<tag k="ssr:stedsnr" v="914866" />
	</node>
	<node id="-54342" lat="59.8187250032" lon="8.57283889764">
		<tag k="fixme" v="consider natural=peak for the most distinct mountains in the district" />
		<tag k="name" v="Høgeli" />
		<tag k="natural" v="hill" />
		<tag k="place" v="locality" />
		<tag k="ssr:stedsnr" v="914833" />
	</node>
	<node id="-54341" lat="59.8272305597" lon="8.65999445272">
		<tag k="fixme" v="consider natural=peak for the most distinct mountains in the district" />
		<tag k="name" v="Nybunuten" />
		<tag k="natural" v="hill" />
		<tag k="place" v="locality" />
		<tag k="ssr:stedsnr" v="914829" />
	</node>
	<node id="-54339" lat="59.8311166678" lon="8.6804">
		<tag k="fixme" v="consider natural=peak for the most distinct mountains in the district" />
		<tag k="name" v="Gaustaråen" />
		<tag k="natural" v="hill" />
		<tag k="place" v="locality" />
		<tag k="ssr:stedsnr" v="914814" />
	</node>
	<node id="-54337" lat="59.8134027785" lon="8.51867499921">
		<tag k="fixme" v="consider natural=peak for the most distinct mountains in the district" />
		<tag k="name" v="Ørnenuten" />
		<tag k="natural" v="hill" />
		<tag k="place" v="locality" />
		<tag k="ssr:stedsnr" v="914798" />
	</node>
	<node id="-54335" lat="59.8197944414" lon="8.72868889415">
		<tag k="fixme" v="consider natural=peak for the most distinct mountains in the district" />
		<tag k="name" v="Ingebjørgnuten" />
		<tag k="natural" v="hill" />
		<tag k="place" v="locality" />
		<tag k="ssr:stedsnr" v="914791" />
	</node>
	<node id="-54331" lat="59.8007027736" lon="8.67006943602">
		<tag k="alt_name" v="Gotholsnuten, store;Store Gotholsnut" />
		<tag k="fixme" v="consider natural=peak for the most distinct mountains in the district" />
		<tag k="name" v="Store Gotholsnuten" />
		<tag k="natural" v="hill" />
		<tag k="place" v="locality" />
		<tag k="ssr:stedsnr" v="914754" />
	</node>
	<node id="-54329" lat="59.6947499986" lon="8.74332778174">
		<tag k="fixme" v="consider natural=peak for the most distinct mountains in the district" />
		<tag k="name" v="Skimyrfjellet" />
		<tag k="natural" v="hill" />
		<tag k="place" v="locality" />
		<tag k="ssr:stedsnr" v="914657" />
	</node>
	<node id="-54327" lat="59.7271638862" lon="8.81214444413">
		<tag k="fixme" v="consider natural=peak for the most distinct mountains in the district" />
		<tag k="name" v="Hogstulåsen" />
		<tag k="natural" v="hill" />
		<tag k="place" v="locality" />
		<tag k="ssr:stedsnr" v="914627" />
	</node>
	<node id="-54326" lat="59.7066999994" lon="8.77780278424">
		<tag k="alt_name" v="Grønlihøvda" />
		<tag k="fixme" v="consider natural=peak for the most distinct mountains in the district" />
		<tag k="name" v="Grønlihovda" />
		<tag k="natural" v="hill" />
		<tag k="place" v="locality" />
		<tag k="ssr:stedsnr" v="914621" />
	</node>
	<node id="-54325" lat="59.6972138891" lon="8.71148889054">
		<tag k="name" v="Nystuldalen" />
		<tag k="natural" v="valley" />
		<tag k="place" v="locality" />
		<tag k="ssr:stedsnr" v="914609" />
	</node>
	<node id="-54324" lat="59.7882416707" lon="8.36039444528">
		<tag k="alt_name" v="Langvasstødalen, store" />
		<tag k="name" v="Store Langvasstødalen" />
		<tag k="natural" v="valley" />
		<tag k="place" v="locality" />
		<tag k="ssr:stedsnr" v="914426" />
	</node>
	<node id="-54318" lat="59.5835750002" lon="8.74180277431">
		<tag k="name" v="Storli" />
		<tag k="natural" v="slope" />
		<tag k="place" v="locality" />
		<tag k="ssr:stedsnr" v="913907" />
	</node>
	<node id="-54317" lat="59.5758027763" lon="8.75432499806">
		<tag k="name" v="Vesledalen" />
		<tag k="natural" v="valley" />
		<tag k="place" v="locality" />
		<tag k="ssr:stedsnr" v="913902" />
	</node>
	<node id="-54316" lat="59.5730027737" lon="8.75953055231">
		<tag k="name" v="Stordalen" />
		<tag k="natural" v="valley" />
		<tag k="place" v="locality" />
		<tag k="ssr:stedsnr" v="913901" />
	</node>
	<node id="-54305" lat="59.6710750013" lon="8.54155554798">
		<tag k="alt_name" v="Bjønnedalen" />
		<tag k="name" v="Bjørndalen" />
		<tag k="natural" v="valley" />
		<tag k="place" v="locality" />
		<tag k="ssr:stedsnr" v="913684" />
	</node>
	<node id="-54302" lat="59.6823111088" lon="8.53214999229">
		<tag k="name" v="Kaldådalen" />
		<tag k="natural" v="valley" />
		<tag k="place" v="locality" />
		<tag k="ssr:stedsnr" v="913677" />
	</node>
	<node id="-54299" lat="59.6738277762" lon="8.76509444233">
		<tag k="alt_name" v="Kavbrekkleiv" />
		<tag k="name" v="Kabrettkleiva" />
		<tag k="natural" v="valley" />
		<tag k="place" v="locality" />
		<tag k="ssr:stedsnr" v="913652" />
	</node>
	<node id="-54298" lat="59.6746555524" lon="8.65540277376">
		<tag k="alt_name" v="Grønlihøgda" />
		<tag k="fixme" v="consider natural=peak for the most distinct mountains in the district" />
		<tag k="name" v="Grønlihøgdi" />
		<tag k="natural" v="hill" />
		<tag k="place" v="locality" />
		<tag k="ssr:stedsnr" v="913627" />
	</node>
	<node id="-54296" lat="59.6823833305" lon="8.54527499426">
		<tag k="alt_name" v="Hondshovden" />
		<tag k="fixme" v="consider natural=peak for the most distinct mountains in the district" />
		<tag k="name" v="Hundshovden" />
		<tag k="natural" v="hill" />
		<tag k="place" v="locality" />
		<tag k="ssr:stedsnr" v="913597" />
	</node>
	<node id="-54295" lat="59.6925999988" lon="8.59281389229">
		<tag k="name" v="Sørensrodalen" />
		<tag k="natural" v="valley" />
		<tag k="place" v="locality" />
		<tag k="ssr:stedsnr" v="913595" />
	</node>
	<node id="-54294" lat="59.7616222193" lon="8.82725556014">
		<tag k="name" v="Gøgsskaret" />
		<tag k="natural" v="valley" />
		<tag k="place" v="locality" />
		<tag k="ssr:stedsnr" v="765288" />
	</node>
	<node id="-54292" lat="59.754355556" lon="8.80949444663">
		<tag k="name" v="Kollås" />
		<tag k="natural" v="ridge" />
		<tag k="place" v="locality" />
		<tag k="ssr:stedsnr" v="765263" />
	</node>
	<node id="-54284" lat="59.648541665" lon="8.96841665994">
		<tag k="fixme" v="consider natural=peak for the most distinct mountains in the district" />
		<tag k="name" v="Okslenuten" />
		<tag k="natural" v="hill" />
		<tag k="place" v="locality" />
		<tag k="ssr:stedsnr" v="913196" />
	</node>
	<node id="-54280" lat="59.6629027797" lon="8.58791944313">
		<tag k="alt_name" v="Brendehov" />
		<tag k="fixme" v="consider natural=peak for the most distinct mountains in the district" />
		<tag k="name" v="Brennehov" />
		<tag k="natural" v="hill" />
		<tag k="place" v="locality" />
		<tag k="ssr:stedsnr" v="731630" />
	</node>
	<node id="-54271" lat="59.6400861134" lon="8.62715000653">
		<tag k="alt_name" v="Fjoshovd" />
		<tag k="fixme" v="consider natural=peak for the most distinct mountains in the district" />
		<tag k="name" v="Fjoshovden" />
		<tag k="natural" v="hill" />
		<tag k="place" v="locality" />
		<tag k="ssr:stedsnr" v="731715" />
	</node>
	<node id="-54270" lat="59.6373361069" lon="8.67002500829">
		<tag k="name" v="Spjordalen" />
		<tag k="natural" v="valley" />
		<tag k="place" v="locality" />
		<tag k="ssr:stedsnr" v="731711" />
	</node>
	<node id="-54266" lat="59.6015416643" lon="8.97383055085">
		<tag k="name" v="Dyplemyrnatten" />
		<tag k="natural" v="hill" />
		<tag k="place" v="locality" />
		<tag k="ssr:stedsnr" v="731325" />
	</node>
	<node id="-54260" lat="59.5890777801" lon="8.97856110762">
		<tag k="name" v="Nystulnatten" />
		<tag k="natural" v="hill" />
		<tag k="place" v="locality" />
		<tag k="ssr:stedsnr" v="896770" />
	</node>
	<node id="-54255" lat="59.6012722184" lon="8.75308888257">
		<tag k="name" v="Skaret" />
		<tag k="natural" v="valley" />
		<tag k="place" v="locality" />
		<tag k="ssr:stedsnr" v="895964" />
	</node>
	<node id="-54249" lat="59.5527305527" lon="8.82872777442">
		<tag k="name" v="Trengen" />
		<tag k="natural" v="valley" />
		<tag k="place" v="locality" />
		<tag k="ssr:stedsnr" v="895858" />
	</node>
	<node id="-54240" lat="59.5999444426" lon="8.67733611984">
		<tag k="name" v="Svartejuv" />
		<tag k="natural" v="gorge" />
		<tag k="ssr:stedsnr" v="895214" />
	</node>
	<node id="-54239" lat="59.6235638931" lon="8.98528054898">
		<tag k="name" v="Tussusberg" />
		<tag k="natural" v="hill" />
		<tag k="place" v="locality" />
		<tag k="ssr:stedsnr" v="713158" />
	</node>
	<node id="-54236" lat="59.5914444435" lon="8.88199166016">
		<tag k="name" v="Blåkoll" />
		<tag k="natural" v="hill" />
		<tag k="place" v="locality" />
		<tag k="ssr:stedsnr" v="894962" />
	</node>
	<node id="-54233" lat="59.7969527767" lon="8.68970833755">
		<tag k="name" v="Nystulnuten" />
		<tag k="natural" v="hill" />
		<tag k="place" v="locality" />
		<tag k="ssr:stedsnr" v="894915" />
	</node>
	<node id="-54232" lat="59.7532722186" lon="8.64896944915">
		<tag k="name" v="Rustin" />
		<tag k="natural" v="slope" />
		<tag k="place" v="locality" />
		<tag k="ssr:stedsnr" v="894909" />
	</node>
	<node id="-54230" lat="59.6606861081" lon="8.72277777104">
		<tag k="name" v="Veneli" />
		<tag k="natural" v="slope" />
		<tag k="place" v="locality" />
		<tag k="ssr:stedsnr" v="894833" />
	</node>
	<node id="-54229" lat="59.6056833297" lon="8.88127777308">
		<tag k="name" v="Juvsflåta" />
		<tag k="place" v="locality" />
		<tag k="ssr:stedsnr" v="712639" />
	</node>
	<node id="-54225" lat="59.6686138879" lon="8.69302778493">
		<tag k="fixme" v="consider natural=peak for the most distinct mountains in the district" />
		<tag k="name" v="Stavsåsen" />
		<tag k="natural" v="hill" />
		<tag k="place" v="locality" />
		<tag k="ssr:stedsnr" v="711827" />
	</node>
	<node id="-54221" lat="59.7786555565" lon="8.71786665989">
		<tag k="name" v="Sponebrekke" />
		<tag k="natural" v="slope" />
		<tag k="place" v="locality" />
		<tag k="ssr:stedsnr" v="894546" />
	</node>
	<node id="-54217" lat="59.7830083375" lon="8.80675833867">
		<tag k="name" v="Tussehaug" />
		<tag k="natural" v="hill" />
		<tag k="place" v="locality" />
		<tag k="ssr:stedsnr" v="894422" />
	</node>
	<node id="-54216" lat="59.7278333328" lon="8.84158333689">
		<tag k="name" v="Ekslinuten" />
		<tag k="natural" v="hill" />
		<tag k="place" v="locality" />
		<tag k="ssr:stedsnr" v="711230" />
	</node>
	<node id="-54207" lat="59.7067277796" lon="8.77800277642">
		<tag k="name" v="Grønlihøvda" />
		<tag k="natural" v="hill" />
		<tag k="place" v="locality" />
		<tag k="ssr:stedsnr" v="894204" />
	</node>
	<node id="-54206" lat="59.6687333362" lon="8.66724722157">
		<tag k="name" v="Langefjosdalen" />
		<tag k="natural" v="valley" />
		<tag k="place" v="locality" />
		<tag k="ssr:stedsnr" v="894192" />
	</node>
	<node id="-54203" lat="59.6973999999" lon="8.78679443841">
		<tag k="name" v="Grønlisåta" />
		<tag k="natural" v="hill" />
		<tag k="place" v="locality" />
		<tag k="ssr:stedsnr" v="894173" />
	</node>
	<node id="-54199" lat="59.668744447" lon="8.84825833882">
		<tag k="name" v="Tverrhauglia" />
		<tag k="natural" v="slope" />
		<tag k="place" v="locality" />
		<tag k="ssr:stedsnr" v="893978" />
	</node>
	<node id="-54196" lat="59.8365277789" lon="8.70945000756">
		<tag k="name" v="Lille Stavsronut" />
		<tag k="natural" v="hill" />
		<tag k="place" v="locality" />
		<tag k="ssr:stedsnr" v="886149" />
	</node>
	<node id="-54188" lat="59.5842055533" lon="8.64367778503">
		<tag k="name" v="Snaunuten" />
		<tag k="natural" v="hill" />
		<tag k="place" v="locality" />
		<tag k="ssr:stedsnr" v="652707" />
	</node>
	<node id="-54187" lat="59.6150444421" lon="8.69629999496">
		<tag k="name" v="Grobudalen" />
		<tag k="natural" v="valley" />
		<tag k="place" v="locality" />
		<tag k="ssr:stedsnr" v="652326" />
	</node>
	<node id="-54186" lat="59.6136694438" lon="8.71940554914">
		<tag k="name" v="Mørkedal" />
		<tag k="natural" v="valley" />
		<tag k="place" v="locality" />
		<tag k="ssr:stedsnr" v="652325" />
	</node>
	<node id="-54181" lat="59.7513583344" lon="8.71092777225">
		<tag k="name" v="Linuten" />
		<tag k="natural" v="hill" />
		<tag k="place" v="locality" />
		<tag k="ssr:stedsnr" v="650914" />
	</node>
	<node id="-54177" lat="59.6694194479" lon="8.74071667375">
		<tag k="name" v="Heggen" />
		<tag k="natural" v="ridge" />
		<tag k="place" v="locality" />
		<tag k="ssr:stedsnr" v="650509" />
	</node>
	<node id="-54174" lat="59.7724500002" lon="8.63339999176">
		<tag k="name" v="Helleiksdalen" />
		<tag k="natural" v="valley" />
		<tag k="place" v="locality" />
		<tag k="ssr:stedsnr" v="732994" />
	</node>
	<node id="-54173" lat="59.7803333356" lon="8.57060555002">
		<tag k="alt_name" v="Longetjørnfjellet" />
		<tag k="fixme" v="consider natural=peak for the most distinct mountains in the district" />
		<tag k="name" v="Langetjønnfjell" />
		<tag k="natural" v="hill" />
		<tag k="place" v="locality" />
		<tag k="ssr:stedsnr" v="732985" />
	</node>
	<node id="-54168" lat="59.7560916709" lon="8.5063444504">
		<tag k="name" v="Smørbakk" />
		<tag k="natural" v="slope" />
		<tag k="place" v="locality" />
		<tag k="ssr:stedsnr" v="732969" />
	</node>
	<node id="-54166" lat="59.7636555566" lon="8.54053888299">
		<tag k="alt_name" v="Urdetjørnfjellet" />
		<tag k="fixme" v="consider natural=peak for the most distinct mountains in the district" />
		<tag k="name" v="Urdetjønnfjell" />
		<tag k="natural" v="hill" />
		<tag k="place" v="locality" />
		<tag k="ssr:stedsnr" v="732949" />
	</node>
	<node id="-54164" lat="59.8446472229" lon="8.59508055741">
		<tag k="fixme" v="consider natural=peak for the most distinct mountains in the district" />
		<tag k="name" v="Reinsnuten" />
		<tag k="natural" v="hill" />
		<tag k="place" v="locality" />
		<tag k="ssr:stedsnr" v="732852" />
	</node>
	<node id="-54153" lat="59.7993805583" lon="8.78597499988">
		<tag k="fixme" v="consider natural=peak for the most distinct mountains in the district" />
		<tag k="name" v="Stillevassråen" />
		<tag k="natural" v="hill" />
		<tag k="place" v="locality" />
		<tag k="ssr:stedsnr" v="732760" />
	</node>
	<node id="-54148" lat="59.5591749997" lon="8.78418888088">
		<tag k="fixme" v="consider natural=peak for the most distinct mountains in the district" />
		<tag k="name" v="Slåkånuten" />
		<tag k="natural" v="hill" />
		<tag k="place" v="locality" />
		<tag k="ssr:stedsnr" v="731913" />
	</node>
	<node id="-54144" lat="59.5916527767" lon="8.80441665972">
		<tag k="name" v="Smålien" />
		<tag k="natural" v="slope" />
		<tag k="place" v="locality" />
		<tag k="ssr:stedsnr" v="731835" />
	</node>
	<node id="-54143" lat="59.6176138929" lon="8.64120276975">
		<tag k="fixme" v="consider natural=peak for the most distinct mountains in the district" />
		<tag k="name" v="Håtveitåsen" />
		<tag k="natural" v="hill" />
		<tag k="place" v="locality" />
		<tag k="ssr:stedsnr" v="731806" />
	</node>
	<node id="-54136" lat="59.6519305601" lon="8.52953889365">
		<tag k="name" v="Husdalen" />
		<tag k="natural" v="valley" />
		<tag k="place" v="locality" />
		<tag k="ssr:stedsnr" v="731687" />
	</node>
	<node id="-54129" lat="59.712280559" lon="8.7987194367">
		<tag k="alt_name" v="Råstullie" />
		<tag k="name" v="Råstullii" />
		<tag k="natural" v="slope" />
		<tag k="place" v="locality" />
		<tag k="ssr:stedsnr" v="731569" />
	</node>
	<node id="-54125" lat="59.7381499997" lon="8.82839445037">
		<tag k="alt_name" v="Upptjørnnuten" />
		<tag k="fixme" v="consider natural=peak for the most distinct mountains in the district" />
		<tag k="name" v="Upptjønnuten" />
		<tag k="natural" v="hill" />
		<tag k="place" v="locality" />
		<tag k="ssr:stedsnr" v="731534" />
	</node>
	<node id="-54122" lat="59.7387388931" lon="8.48893610298">
		<tag k="fixme" v="consider natural=peak for the most distinct mountains in the district" />
		<tag k="name" v="Tverrfjellet" />
		<tag k="natural" v="hill" />
		<tag k="place" v="locality" />
		<tag k="ssr:stedsnr" v="731509" />
	</node>
	<node id="-54115" lat="59.6186000012" lon="8.98455832971">
		<tag k="name" v="Ålamoen" />
		<tag k="place" v="locality" />
		<tag k="ssr:stedsnr" v="731236" />
	</node>
	<node id="-54110" lat="59.7899972245" lon="8.81984722135">
		<tag k="alt_name" v="Vommetjørndalen" />
		<tag k="name" v="Vommetjønndalen" />
		<tag k="natural" v="valley" />
		<tag k="place" v="locality" />
		<tag k="ssr:stedsnr" v="610791" />
	</node>
	<node id="-54106" lat="59.8002944407" lon="8.71318332772">
		<tag k="name" v="Langelikroken" />
		<tag k="natural" v="valley" />
		<tag k="place" v="locality" />
		<tag k="ssr:stedsnr" v="610769" />
	</node>
	<node id="-54097" lat="59.6208750007" lon="8.58097500183">
		<tag k="alt_name" v="Gvamstulnuten" />
		<tag k="fixme" v="consider natural=peak for the most distinct mountains in the district" />
		<tag k="name" v="Kvamsstulnuten" />
		<tag k="natural" v="hill" />
		<tag k="place" v="locality" />
		<tag k="ssr:stedsnr" v="609758" />
	</node>
	<node id="-54090" lat="59.7073444427" lon="8.50231667055">
		<tag k="alt_name" v="Rupefjell" />
		<tag k="fixme" v="consider natural=peak for the most distinct mountains in the district" />
		<tag k="name" v="Rjupefjellet" />
		<tag k="natural" v="hill" />
		<tag k="place" v="locality" />
		<tag k="ssr:stedsnr" v="609603" />
	</node>
	<node id="-54065" lat="59.7910000035" lon="8.77959165861">
		<tag k="name" v="Hestedokka" />
		<tag k="natural" v="valley" />
		<tag k="place" v="locality" />
		<tag k="ssr:stedsnr" v="712140" />
	</node>
	<node id="-54064" lat="59.7715583372" lon="8.5678055477">
		<tag k="name" v="Våtjønnhovet" />
		<tag k="natural" v="hill" />
		<tag k="place" v="locality" />
		<tag k="ssr:stedsnr" v="712108" />
	</node>
	<node id="-54061" lat="59.6561305589" lon="8.81766388563">
		<tag k="name" v="Høgeli" />
		<tag k="natural" v="slope" />
		<tag k="place" v="locality" />
		<tag k="ssr:stedsnr" v="590916" />
	</node>
	<node id="-54059" lat="59.7544000009" lon="8.67601944806">
		<tag k="name" v="Kruvlenuten" />
		<tag k="natural" v="hill" />
		<tag k="place" v="locality" />
		<tag k="ssr:stedsnr" v="590907" />
	</node>
	<node id="-54058" lat="59.6407500028" lon="8.82363888987">
		<tag k="name" v="Tvålia" />
		<tag k="natural" v="slope" />
		<tag k="place" v="locality" />
		<tag k="ssr:stedsnr" v="711929" />
	</node>
	<node id="-54053" lat="59.673863885" lon="8.75913055162">
		<tag k="name" v="Fagerskarlia" />
		<tag k="natural" v="slope" />
		<tag k="place" v="locality" />
		<tag k="ssr:stedsnr" v="590553" />
	</node>
	<node id="-54051" lat="59.6617750005" lon="8.76504722786">
		<tag k="name" v="Gverrsmillnuten" />
		<tag k="natural" v="hill" />
		<tag k="place" v="locality" />
		<tag k="ssr:stedsnr" v="711543" />
	</node>
	<node id="-54050" lat="59.6669416676" lon="8.72991944554">
		<tag k="name" v="Bringebærnuten" />
		<tag k="natural" v="hill" />
		<tag k="place" v="locality" />
		<tag k="ssr:stedsnr" v="711540" />
	</node>
	<node id="-54047" lat="59.7433444426" lon="8.8739666731">
		<tag k="name" v="Damtjønndalen" />
		<tag k="natural" v="valley" />
		<tag k="place" v="locality" />
		<tag k="ssr:stedsnr" v="711257" />
	</node>
	<node id="-54046" lat="59.6936055541" lon="8.61679166073">
		<tag k="name" v="Kaslebunuten" />
		<tag k="natural" v="hill" />
		<tag k="place" v="locality" />
		<tag k="ssr:stedsnr" v="711152" />
	</node>
	<node id="-54042" lat="59.7162083327" lon="8.45701945002">
		<tag k="name" v="Namnlausnut" />
		<tag k="natural" v="ridge" />
		<tag k="place" v="locality" />
		<tag k="ssr:stedsnr" v="704738" />
	</node>
	<node id="-54039" lat="59.7566611122" lon="8.81580277011">
		<tag k="fixme" v="consider natural=peak for the most distinct mountains in the district" />
		<tag k="name" v="Hovdåsen" />
		<tag k="natural" v="hill" />
		<tag k="place" v="locality" />
		<tag k="ssr:stedsnr" v="704262" />
	</node>
	<node id="-54034" lat="59.5841416681" lon="8.67854722714">
		<tag k="name" v="Skrøyvelia" />
		<tag k="natural" v="slope" />
		<tag k="place" v="locality" />
		<tag k="ssr:stedsnr" v="531756" />
	</node>
	<node id="-54033" lat="59.841719445" lon="8.51699167431">
		<tag k="name" v="Skriunut" />
		<tag k="natural" v="hill" />
		<tag k="place" v="locality" />
		<tag k="ssr:stedsnr" v="531609" />
	</node>
	<node id="-54027" lat="59.565602776" lon="8.80678333922">
		<tag k="name" v="Skavredalsnut" />
		<tag k="natural" v="hill" />
		<tag k="place" v="locality" />
		<tag k="ssr:stedsnr" v="530820" />
	</node>
	<node id="-54026" lat="59.7314305593" lon="8.45977222992">
		<tag k="name" v="Fossnut" />
		<tag k="natural" v="hill" />
		<tag k="place" v="locality" />
		<tag k="ssr:stedsnr" v="530809" />
	</node>
	<node id="-54017" lat="59.6458138882" lon="8.92974445159">
		<tag k="name" v="Raunejuvet" />
		<tag k="natural" v="gorge" />
		<tag k="ssr:stedsnr" v="529614" />
	</node>
	<node id="-54016" lat="59.7424694473" lon="8.74660555563">
		<tag k="name" v="Åslien" />
		<tag k="natural" v="slope" />
		<tag k="place" v="locality" />
		<tag k="ssr:stedsnr" v="529437" />
	</node>
	<node id="-54014" lat="59.6791277801" lon="8.63167222928">
		<tag k="name" v="Saupstulnuten" />
		<tag k="natural" v="hill" />
		<tag k="place" v="locality" />
		<tag k="ssr:stedsnr" v="529170" />
	</node>
	<node id="-54013" lat="59.6912499982" lon="8.81046111952">
		<tag k="name" v="Jonsrånuten" />
		<tag k="natural" v="hill" />
		<tag k="place" v="locality" />
		<tag k="ssr:stedsnr" v="529160" />
	</node>
	<node id="-54012" lat="59.6852472244" lon="8.79264999501">
		<tag k="name" v="Bjønnlinuten" />
		<tag k="natural" v="hill" />
		<tag k="place" v="locality" />
		<tag k="ssr:stedsnr" v="529156" />
	</node>
	<node id="-54011" lat="59.6433444445" lon="8.59655555476">
		<tag k="name" v="Bubrekke" />
		<tag k="natural" v="slope" />
		<tag k="place" v="locality" />
		<tag k="ssr:stedsnr" v="529051" />
	</node>
	<node id="-54009" lat="59.6904000026" lon="8.7428277711">
		<tag k="alt_name" v="Griseskar" />
		<tag k="name" v="Griseskard" />
		<tag k="natural" v="valley" />
		<tag k="place" v="locality" />
		<tag k="ssr:stedsnr" v="488607" />
	</node>
	<node id="-54007" lat="59.7330944441" lon="8.53834166992">
		<tag k="fixme" v="consider natural=peak for the most distinct mountains in the district" />
		<tag k="name" v="Blåfjell" />
		<tag k="natural" v="hill" />
		<tag k="place" v="locality" />
		<tag k="ssr:stedsnr" v="488538" />
	</node>
	<node id="-54003" lat="59.7368694448" lon="8.89245277726">
		<tag k="alt_name" v="Briskenuten" />
		<tag k="name" v="Briskenutan" />
		<tag k="natural" v="hill" />
		<tag k="place" v="locality" />
		<tag k="ssr:stedsnr" v="488011" />
	</node>
	<node id="-54001" lat="59.7736666641" lon="8.61962222234">
		<tag k="fixme" v="consider natural=peak for the most distinct mountains in the district" />
		<tag k="name" v="Storsteinnuten" />
		<tag k="natural" v="hill" />
		<tag k="place" v="locality" />
		<tag k="ssr:stedsnr" v="672590" />
	</node>
	<node id="-53987" lat="59.8300416688" lon="8.53871389387">
		<tag k="fixme" v="consider natural=peak for the most distinct mountains in the district" />
		<tag k="name" v="Gunnuvstulfjellet" />
		<tag k="natural" v="hill" />
		<tag k="place" v="locality" />
		<tag k="ssr:stedsnr" v="671823" />
	</node>
	<node id="-53985" lat="59.8381499981" lon="8.70299166538">
		<tag k="alt_name" v="Stavsronuten, store" />
		<tag k="fixme" v="consider natural=peak for the most distinct mountains in the district" />
		<tag k="name" v="Store Stavsronut" />
		<tag k="natural" v="hill" />
		<tag k="place" v="locality" />
		<tag k="ssr:stedsnr" v="671814" />
	</node>
	<node id="-53983" lat="59.8004444488" lon="8.55412777433">
		<tag k="fixme" v="consider natural=peak for the most distinct mountains in the district" />
		<tag k="name" v="Skotsfjellnipa" />
		<tag k="natural" v="hill" />
		<tag k="place" v="locality" />
		<tag k="ssr:stedsnr" v="671809" />
	</node>
	<node id="-53982" lat="59.7991138927" lon="8.58054166598">
		<tag k="alt_name" v="Reinstjørndalen" />
		<tag k="name" v="Reinstjønndalen" />
		<tag k="natural" v="valley" />
		<tag k="place" v="locality" />
		<tag k="ssr:stedsnr" v="671807" />
	</node>
	<node id="-53981" lat="59.8066777778" lon="8.65033333236">
		<tag k="fixme" v="consider natural=peak for the most distinct mountains in the district" />
		<tag k="name" v="Bonsnos" />
		<tag k="natural" v="hill" />
		<tag k="place" v="locality" />
		<tag k="ssr:stedsnr" v="671790" />
	</node>
	<node id="-53976" lat="59.7873638928" lon="8.60798055">
		<tag k="fixme" v="consider natural=peak for the most distinct mountains in the district" />
		<tag k="name" v="Viknuten" />
		<tag k="natural" v="hill" />
		<tag k="place" v="locality" />
		<tag k="ssr:stedsnr" v="671764" />
	</node>
	<node id="-53974" lat="59.8041666701" lon="8.82730833945">
		<tag k="name" v="Venebakke" />
		<tag k="natural" v="slope" />
		<tag k="place" v="locality" />
		<tag k="ssr:stedsnr" v="671755" />
	</node>
	<node id="-53967" lat="59.7089055517" lon="8.71169166037">
		<tag k="alt_name" v="Brureberget" />
		<tag k="fixme" v="consider natural=peak for the most distinct mountains in the district" />
		<tag k="name" v="Brureberg" />
		<tag k="natural" v="hill" />
		<tag k="place" v="locality" />
		<tag k="ssr:stedsnr" v="671603" />
	</node>
	<node id="-53962" lat="59.7273333335" lon="8.91410833484">
		<tag k="fixme" v="consider natural=peak for the most distinct mountains in the district" />
		<tag k="name" v="Vindolen" />
		<tag k="natural" v="hill" />
		<tag k="place" v="locality" />
		<tag k="ssr:stedsnr" v="671103" />
	</node>
	<node id="-53953" lat="59.6241833312" lon="8.6706500021">
		<tag k="alt_name" v="Fålålien" />
		<tag k="name" v="Folalii" />
		<tag k="natural" v="slope" />
		<tag k="place" v="locality" />
		<tag k="ssr:stedsnr" v="670785" />
	</node>
	<node id="-53950" lat="59.629149998" lon="8.81840277353">
		<tag k="fixme" v="consider natural=peak for the most distinct mountains in the district" />
		<tag k="name" v="Vollkåsåsen" />
		<tag k="natural" v="hill" />
		<tag k="place" v="locality" />
		<tag k="ssr:stedsnr" v="670731" />
	</node>
	<node id="-53942" lat="59.7025194464" lon="8.58398610668">
		<tag k="name" v="Flottin" />
		<tag k="place" v="locality" />
		<tag k="ssr:stedsnr" v="670576" />
	</node>
	<node id="-53938" lat="59.7343749968" lon="8.75205555384">
		<tag k="alt_name" v="Sveigsnipa" />
		<tag k="fixme" v="consider natural=peak for the most distinct mountains in the district" />
		<tag k="name" v="Sveigsnatten" />
		<tag k="natural" v="hill" />
		<tag k="ssr:stedsnr" v="670557" />
	</node>
	<node id="-53937" lat="59.714891671" lon="8.63820834184">
		<tag k="alt_name" v="Ormbunuten" />
		<tag k="fixme" v="consider natural=peak for the most distinct mountains in the district" />
		<tag k="name" v="Ormbunutan" />
		<tag k="natural" v="hill" />
		<tag k="place" v="locality" />
		<tag k="ssr:stedsnr" v="670546" />
	</node>
	<node id="-53928" lat="59.6909444465" lon="8.53905555257">
		<tag k="name" v="Raunekvelven" />
		<tag k="natural" v="valley" />
		<tag k="place" v="locality" />
		<tag k="ssr:stedsnr" v="469014" />
	</node>
	<node id="-53926" lat="59.714047221" lon="8.87375556148">
		<tag k="name" v="Nystulhøvda" />
		<tag k="natural" v="hill" />
		<tag k="place" v="locality" />
		<tag k="ssr:stedsnr" v="468211" />
	</node>
	<node id="-53923" lat="59.7308166701" lon="8.73058889629">
		<tag k="name" v="Gyvingdjuvet" />
		<tag k="natural" v="gorge" />
		<tag k="ssr:stedsnr" v="430437" />
	</node>
	<node id="-53917" lat="59.8042166694" lon="8.76777778551">
		<tag k="fixme" v="consider natural=peak for the most distinct mountains in the district" />
		<tag k="name" v="Råen" />
		<tag k="natural" v="hill" />
		<tag k="place" v="locality" />
		<tag k="ssr:stedsnr" v="428806" />
	</node>
	<node id="-53916" lat="59.6382000024" lon="8.53886389565">
		<tag k="alt_name" v="Ishøvdun" />
		<tag k="fixme" v="consider natural=peak for the most distinct mountains in the district" />
		<tag k="name" v="Ishovden" />
		<tag k="natural" v="hill" />
		<tag k="place" v="locality" />
		<tag k="ssr:stedsnr" v="428746" />
	</node>
	<node id="-53907" lat="59.6945083327" lon="8.91037500572">
		<tag k="fixme" v="consider natural=peak for the most distinct mountains in the district" />
		<tag k="name" v="Bodik" />
		<tag k="natural" v="hill" />
		<tag k="place" v="locality" />
		<tag k="ssr:stedsnr" v="428136" />
	</node>
	<node id="-53903" lat="59.6349722185" lon="8.73209443631">
		<tag k="name" v="Huldrenuten" />
		<tag k="natural" v="hill" />
		<tag k="place" v="locality" />
		<tag k="ssr:stedsnr" v="409917" />
	</node>
	<node id="-53895" lat="59.7779444464" lon="8.64397222508">
		<tag k="fixme" v="consider natural=peak for the most distinct mountains in the district" />
		<tag k="name" v="Natten" />
		<tag k="natural" v="hill" />
		<tag k="place" v="locality" />
		<tag k="ssr:stedsnr" v="489999" />
	</node>
	<node id="-53892" lat="59.789813886" lon="8.83084167482">
		<tag k="alt_name" v="Grimestulfjell" />
		<tag k="fixme" v="consider natural=peak for the most distinct mountains in the district" />
		<tag k="name" v="Grimestulfjellet" />
		<tag k="natural" v="hill" />
		<tag k="place" v="locality" />
		<tag k="ssr:stedsnr" v="489983" />
	</node>
	<node id="-53891" lat="59.7879777734" lon="8.72862778303">
		<tag k="alt_name" v="Åråhovde, store;Store Åråhøvde" />
		<tag k="fixme" v="consider natural=peak for the most distinct mountains in the district" />
		<tag k="name" v="Store Åråhovde" />
		<tag k="natural" v="hill" />
		<tag k="place" v="locality" />
		<tag k="ssr:stedsnr" v="489977" />
	</node>
	<node id="-53887" lat="59.7625500003" lon="8.58672778051">
		<tag k="alt_name" v="Døvlingstjønnut" />
		<tag k="fixme" v="consider natural=peak for the most distinct mountains in the district" />
		<tag k="name" v="Døvlingstjørnfjellet" />
		<tag k="natural" v="hill" />
		<tag k="place" v="locality" />
		<tag k="ssr:stedsnr" v="489944" />
	</node>
	<node id="-53884" lat="59.7691194469" lon="8.79679443784">
		<tag k="alt_name" v="Åsdelhøvda" />
		<tag k="fixme" v="consider natural=peak for the most distinct mountains in the district" />
		<tag k="name" v="Åsdelhovda" />
		<tag k="natural" v="hill" />
		<tag k="place" v="locality" />
		<tag k="ssr:stedsnr" v="489931" />
	</node>
	<node id="-53880" lat="59.8081444455" lon="8.70231388265">
		<tag k="alt_name" v="Runhellehovet" />
		<tag k="fixme" v="consider natural=peak for the most distinct mountains in the district" />
		<tag k="name" v="Runhellhovet" />
		<tag k="natural" v="hill" />
		<tag k="place" v="locality" />
		<tag k="ssr:stedsnr" v="489806" />
	</node>
	<node id="-53874" lat="59.808774997" lon="8.4505583399">
		<tag k="alt_name" v="Uksetjønnfjell" />
		<tag k="fixme" v="consider natural=peak for the most distinct mountains in the district" />
		<tag k="name" v="Oksetjørnfjellet" />
		<tag k="natural" v="hill" />
		<tag k="place" v="locality" />
		<tag k="ssr:stedsnr" v="489421" />
	</node>
	<node id="-53865" lat="59.5885888874" lon="8.80688055072">
		<tag k="name" v="Tjørnstuldalen" />
		<tag k="natural" v="valley" />
		<tag k="place" v="locality" />
		<tag k="ssr:stedsnr" v="488826" />
	</node>
	<node id="-53853" lat="59.6642444403" lon="8.72169443675">
		<tag k="name" v="Skårsetdalen" />
		<tag k="natural" v="valley" />
		<tag k="place" v="locality" />
		<tag k="ssr:stedsnr" v="488728" />
	</node>
	<node id="-53847" lat="59.6712694476" lon="8.81000834123">
		<tag k="fixme" v="consider natural=peak for the most distinct mountains in the district" />
		<tag k="name" v="Bekrenuten" />
		<tag k="natural" v="hill" />
		<tag k="place" v="locality" />
		<tag k="ssr:stedsnr" v="488658" />
	</node>
	<node id="-53838" lat="59.7204250026" lon="8.578908334">
		<tag k="alt_name" v="Lorthøl" />
		<tag k="name" v="Lorthol" />
		<tag k="place" v="locality" />
		<tag k="ssr:stedsnr" v="488559" />
	</node>
	<node id="-53837" lat="59.6003833378" lon="8.94107500272">
		<tag k="alt_name" v="Branden" />
		<tag k="name" v="Brannen" />
		<tag k="natural" v="hill" />
		<tag k="place" v="locality" />
		<tag k="ssr:stedsnr" v="488344" />
	</node>
	<node id="-53834" lat="59.572633337" lon="8.89506667288">
		<tag k="name" v="Grandalen" />
		<tag k="natural" v="valley" />
		<tag k="place" v="locality" />
		<tag k="ssr:stedsnr" v="488314" />
	</node>
	<node id="-53828" lat="59.6514583298" lon="8.95998888488">
		<tag k="alt_name" v="Halvorshøgda" />
		<tag k="fixme" v="consider natural=peak for the most distinct mountains in the district" />
		<tag k="name" v="Hallvorshovden" />
		<tag k="natural" v="hill" />
		<tag k="place" v="locality" />
		<tag k="ssr:stedsnr" v="488178" />
	</node>
	<node id="-53826" lat="59.6342194476" lon="8.97639445193">
		<tag k="alt_name" v="Skogsfjellet" />
		<tag k="fixme" v="consider natural=peak for the most distinct mountains in the district" />
		<tag k="name" v="Skogsfjell" />
		<tag k="natural" v="hill" />
		<tag k="place" v="locality" />
		<tag k="ssr:stedsnr" v="488160" />
	</node>
	<node id="-53816" lat="59.6152055591" lon="8.97774445255">
		<tag k="name" v="Omnesskriun" />
		<tag k="natural" v="cliff" />
		<tag k="ssr:stedsnr" v="348207" />
	</node>
	<node id="-53815" lat="59.674497221" lon="8.85921666782">
		<tag k="name" v="Kasinlia" />
		<tag k="natural" v="slope" />
		<tag k="place" v="locality" />
		<tag k="ssr:stedsnr" v="347974" />
	</node>
	<node id="-53806" lat="59.6031333329" lon="8.64601944779">
		<tag k="name" v="Kvennhusåsen" />
		<tag k="natural" v="hill" />
		<tag k="place" v="locality" />
		<tag k="ssr:stedsnr" v="471942" />
	</node>
	<node id="-53803" lat="59.8133694478" lon="8.79033888449">
		<tag k="name" v="Blomerolii" />
		<tag k="natural" v="slope" />
		<tag k="place" v="locality" />
		<tag k="ssr:stedsnr" v="307807" />
	</node>
	<node id="-53789" lat="59.5644277818" lon="8.87597222209">
		<tag k="name" v="Grostulhaugen" />
		<tag k="natural" v="hill" />
		<tag k="place" v="locality" />
		<tag k="ssr:stedsnr" v="470827" />
	</node>
	<node id="-53781" lat="59.6071222221" lon="8.69773333493">
		<tag k="name" v="Ådalen" />
		<tag k="natural" v="valley" />
		<tag k="place" v="locality" />
		<tag k="ssr:stedsnr" v="470329" />
	</node>
	<node id="-53774" lat="59.7609027759" lon="8.6946138839">
		<tag k="name" v="Bjønnskar" />
		<tag k="natural" v="valley" />
		<tag k="place" v="locality" />
		<tag k="ssr:stedsnr" v="469915" />
	</node>
	<node id="-53772" lat="59.674863892" lon="8.69152222464">
		<tag k="name" v="Bringebærjuvet" />
		<tag k="natural" v="gorge" />
		<tag k="ssr:stedsnr" v="469809" />
	</node>
	<node id="-53771" lat="59.6916833292" lon="8.71150833311">
		<tag k="fixme" v="consider natural=peak for the most distinct mountains in the district" />
		<tag k="name" v="Sveinungshøvda" />
		<tag k="natural" v="hill" />
		<tag k="place" v="locality" />
		<tag k="ssr:stedsnr" v="469787" />
	</node>
	<node id="-53769" lat="59.6735499993" lon="8.79561388394">
		<tag k="name" v="Østensdal" />
		<tag k="natural" v="valley" />
		<tag k="place" v="locality" />
		<tag k="ssr:stedsnr" v="469675" />
	</node>
	<node id="-53768" lat="59.6077055574" lon="8.87076944996">
		<tag k="name" v="Lauvhaug" />
		<tag k="natural" v="hill" />
		<tag k="place" v="locality" />
		<tag k="ssr:stedsnr" v="469667" />
	</node>
	<node id="-53763" lat="59.7830083375" lon="8.80675833867">
		<tag k="name" v="Tussehaug" />
		<tag k="natural" v="hill" />
		<tag k="place" v="locality" />
		<tag k="ssr:stedsnr" v="469358" />
	</node>
	<node id="-53756" lat="59.6898111082" lon="8.89045000806">
		<tag k="name" v="Stanghusskorta" />
		<tag k="place" v="locality" />
		<tag k="ssr:stedsnr" v="469095" />
	</node>
	<node id="-53752" lat="59.6355444417" lon="8.67345832836">
		<tag k="name" v="Sterk" />
		<tag k="natural" v="hill" />
		<tag k="place" v="locality" />
		<tag k="ssr:stedsnr" v="289025" />
	</node>
	<node id="-53748" lat="59.5884444459" lon="8.94095000089">
		<tag k="fixme" v="consider natural=peak for the most distinct mountains in the district" />
		<tag k="name" v="Sagåsen" />
		<tag k="natural" v="hill" />
		<tag k="place" v="locality" />
		<tag k="ssr:stedsnr" v="288768" />
	</node>
	<node id="-53744" lat="59.7594944466" lon="8.80536110572">
		<tag k="name" v="Slåttelia" />
		<tag k="natural" v="slope" />
		<tag k="place" v="locality" />
		<tag k="ssr:stedsnr" v="288652" />
	</node>
	<node id="-53734" lat="59.5767361074" lon="8.87866111421">
		<tag k="name" v="Grobumarken" />
		<tag k="natural" v="slope" />
		<tag k="place" v="locality" />
		<tag k="ssr:stedsnr" v="287958" />
	</node>
	<node id="-53733" lat="59.5748083363" lon="8.88742778598">
		<tag k="name" v="Tangenmarken" />
		<tag k="natural" v="slope" />
		<tag k="place" v="locality" />
		<tag k="ssr:stedsnr" v="287957" />
	</node>
	<node id="-53732" lat="59.7975055529" lon="8.6715611038">
		<tag k="name" v="Hårsdalen" />
		<tag k="natural" v="valley" />
		<tag k="place" v="locality" />
		<tag k="ssr:stedsnr" v="287905" />
	</node>
	<node id="-53729" lat="59.6955777745" lon="8.65153889648">
		<tag k="name" v="Deilbekkdalen" />
		<tag k="natural" v="valley" />
		<tag k="place" v="locality" />
		<tag k="ssr:stedsnr" v="287159" />
	</node>
	<node id="-53723" lat="59.8364583362" lon="8.50350000469">
		<tag k="fixme" v="consider natural=peak for the most distinct mountains in the district" />
		<tag k="name" v="Lislestulnuten" />
		<tag k="natural" v="hill" />
		<tag k="place" v="locality" />
		<tag k="ssr:stedsnr" v="247857" />
	</node>
	<node id="-53717" lat="59.7464305548" lon="8.63806666902">
		<tag k="alt_name" v="Finnrodalen" />
		<tag k="name" v="Finngrodalen" />
		<tag k="natural" v="valley" />
		<tag k="place" v="locality" />
		<tag k="ssr:stedsnr" v="245514" />
	</node>
	<node id="-53716" lat="59.6650361112" lon="8.94110278611">
		<tag k="fixme" v="consider natural=peak for the most distinct mountains in the district" />
		<tag k="name" v="Saltkleivåsen" />
		<tag k="natural" v="hill" />
		<tag k="place" v="locality" />
		<tag k="ssr:stedsnr" v="245220" />
	</node>
	<node id="-53693" lat="59.619769447" lon="8.78543054787">
		<tag k="name" v="Rennevassjuvet" />
		<tag k="natural" v="gorge" />
		<tag k="ssr:stedsnr" v="288892" />
	</node>
	<node id="-53689" lat="59.6215138915" lon="8.7120055529">
		<tag k="name" v="Gåseronuten" />
		<tag k="natural" v="hill" />
		<tag k="place" v="locality" />
		<tag k="ssr:stedsnr" v="289032" />
	</node>
	<node id="-53685" lat="59.6304249985" lon="8.52318611968">
		<tag k="fixme" v="consider natural=peak for the most distinct mountains in the district" />
		<tag k="name" v="Kvammeskinnut" />
		<tag k="natural" v="hill" />
		<tag k="ssr:stedsnr" v="288496" />
	</node>
	<node id="-53684" lat="59.6607250038" lon="8.88868611864">
		<tag k="name" v="Ruskerud" />
		<tag k="place" v="locality" />
		<tag k="ssr:stedsnr" v="287950" />
	</node>
	<node id="-53680" lat="59.7541555585" lon="8.66011110896">
		<tag k="name" v="Bratteli" />
		<tag k="natural" v="slope" />
		<tag k="place" v="locality" />
		<tag k="ssr:stedsnr" v="287900" />
	</node>
	<node id="-53679" lat="59.7589944423" lon="8.5187583278">
		<tag k="name" v="Hovet" />
		<tag k="natural" v="valley" />
		<tag k="place" v="locality" />
		<tag k="ssr:stedsnr" v="287894" />
	</node>
	<node id="-53674" lat="59.73193333" lon="8.83417222737">
		<tag k="name" v="Husenuten" />
		<tag k="natural" v="hill" />
		<tag k="place" v="locality" />
		<tag k="ssr:stedsnr" v="287399" />
	</node>
	<node id="-53673" lat="59.7400388898" lon="8.82062500196">
		<tag k="name" v="Rindehaugen" />
		<tag k="natural" v="hill" />
		<tag k="place" v="locality" />
		<tag k="ssr:stedsnr" v="287389" />
	</node>
	<node id="-53670" lat="59.7063583363" lon="8.63750277851">
		<tag k="name" v="Bøkåren" />
		<tag k="natural" v="hill" />
		<tag k="place" v="locality" />
		<tag k="ssr:stedsnr" v="287183" />
	</node>
	<node id="-53665" lat="59.7992333307" lon="8.82942222765">
		<tag k="name" v="Rauberg" />
		<tag k="natural" v="ridge" />
		<tag k="place" v="locality" />
		<tag k="ssr:stedsnr" v="286943" />
	</node>
	<node id="-53661" lat="59.8373750026" lon="8.58349722916">
		<tag k="name" v="Bjønndalen" />
		<tag k="natural" v="valley" />
		<tag k="place" v="locality" />
		<tag k="ssr:stedsnr" v="167409" />
	</node>
	<node id="-53659" lat="59.5971222247" lon="8.70263334087">
		<tag k="name" v="Lisleås" />
		<tag k="natural" v="hill" />
		<tag k="place" v="locality" />
		<tag k="ssr:stedsnr" v="167163" />
	</node>
	<node id="-53658" lat="59.5910361107" lon="8.84287778632">
		<tag k="name" v="Sanddalen øvre" />
		<tag k="natural" v="valley" />
		<tag k="place" v="locality" />
		<tag k="ssr:stedsnr" v="166967" />
	</node>
	<node id="-53656" lat="59.6195805552" lon="8.89049999493">
		<tag k="name" v="Kvenneberget" />
		<tag k="place" v="locality" />
		<tag k="ssr:stedsnr" v="166685" />
	</node>
	<node id="-53655" lat="59.6250222229" lon="8.87805277331">
		<tag k="name" v="Sjotmoen" />
		<tag k="place" v="locality" />
		<tag k="ssr:stedsnr" v="166681" />
	</node>
	<node id="-53650" lat="59.7665583325" lon="8.68236944366">
		<tag k="name" v="Buksilfjell" />
		<tag k="natural" v="hill" />
		<tag k="place" v="locality" />
		<tag k="ssr:stedsnr" v="165914" />
	</node>
	<node id="-53649" lat="59.6770694442" lon="8.78390833392">
		<tag k="name" v="Fågelidalen" />
		<tag k="natural" v="valley" />
		<tag k="place" v="locality" />
		<tag k="ssr:stedsnr" v="165704" />
	</node>
	<node id="-53648" lat="59.643561111" lon="8.9402944455">
		<tag k="name" v="Herjusdalen nordre" />
		<tag k="natural" v="valley" />
		<tag k="place" v="locality" />
		<tag k="ssr:stedsnr" v="165607" />
	</node>
	<node id="-53645" lat="59.6647944431" lon="8.53313610975">
		<tag k="name" v="Vrimdalsnut" />
		<tag k="natural" v="hill" />
		<tag k="place" v="locality" />
		<tag k="ssr:stedsnr" v="165202" />
	</node>
	<node id="-53644" lat="59.7051638921" lon="8.84522222402">
		<tag k="fixme" v="consider natural=peak for the most distinct mountains in the district" />
		<tag k="name" v="Haukås" />
		<tag k="natural" v="hill" />
		<tag k="place" v="locality" />
		<tag k="ssr:stedsnr" v="165059" />
	</node>
	<node id="-53643" lat="59.7468722189" lon="8.88111389607">
		<tag k="name" v="Tjønnmolifjellet" />
		<tag k="natural" v="hill" />
		<tag k="place" v="locality" />
		<tag k="ssr:stedsnr" v="165157" />
	</node>
	<node id="-55688" lat="59.634411109" lon="8.53041666641">
		<tag k="name" v="Ståvåtjønnskaret" />
		<tag k="natural" v="valley" />
		<tag k="place" v="locality" />
		<tag k="ssr:stedsnr" v="956995" />
	</node>
	<node id="-55687" lat="59.627799997" lon="8.74882222832">
		<tag k="name" v="Mjeltelia" />
		<tag k="natural" v="slope" />
		<tag k="place" v="locality" />
		<tag k="ssr:stedsnr" v="956947" />
	</node>
	<node id="-53638" lat="59.7548555534" lon="8.80525000164">
		<tag k="name" v="Svartufs" />
		<tag k="natural" v="cliff" />
		<tag k="ssr:stedsnr" v="280216" />
	</node>
	<node id="-55684" lat="59.5888777799" lon="8.65927499388">
		<tag k="name" v="Hjaraldstuldekken" />
		<tag k="natural" v="valley" />
		<tag k="place" v="locality" />
		<tag k="ssr:stedsnr" v="956740" />
	</node>
	<node id="-55681" lat="59.6329333308" lon="8.65936388657">
		<tag k="name" v="Hovdaskaret" />
		<tag k="natural" v="valley" />
		<tag k="place" v="locality" />
		<tag k="ssr:stedsnr" v="956288" />
	</node>
	<node id="-55680" lat="59.8350583346" lon="8.75014721752">
		<tag k="name" v="Hulderhola" />
		<tag k="place" v="locality" />
		<tag k="ssr:stedsnr" v="956189" />
	</node>
	<node id="-53620" lat="59.8323833376" lon="8.45368333425">
		<tag k="fixme" v="consider natural=peak for the most distinct mountains in the district" />
		<tag k="name" v="Månelibrotet" />
		<tag k="natural" v="hill" />
		<tag k="place" v="locality" />
		<tag k="ssr:stedsnr" v="247397" />
	</node>
	<node id="-55664" lat="59.642825" lon="8.71866389773">
		<tag k="name" v="Grånut" />
		<tag k="natural" v="hill" />
		<tag k="place" v="locality" />
		<tag k="ssr:stedsnr" v="954955" />
	</node>
	<node id="-53614" lat="59.596816664" lon="8.74573888755">
		<tag k="fixme" v="consider natural=peak for the most distinct mountains in the district" />
		<tag k="name" v="Haugåsen" />
		<tag k="natural" v="hill" />
		<tag k="place" v="locality" />
		<tag k="ssr:stedsnr" v="246827" />
	</node>
	<node id="-55661" lat="59.7456138858" lon="8.45638611635">
		<tag k="name" v="Brynenuten" />
		<tag k="natural" v="hill" />
		<tag k="place" v="locality" />
		<tag k="ssr:stedsnr" v="954812" />
	</node>
	<node id="-53610" lat="59.5992027757" lon="8.73523332725">
		<tag k="name" v="Øylia" />
		<tag k="natural" v="slope" />
		<tag k="place" v="locality" />
		<tag k="ssr:stedsnr" v="246810" />
	</node>
	<node id="-55657" lat="59.7365416654" lon="8.79127777923">
		<tag k="name" v="Stakkestø" />
		<tag k="natural" v="slope" />
		<tag k="place" v="locality" />
		<tag k="ssr:stedsnr" v="954340" />
	</node>
	<node id="-53605" lat="59.8007499984" lon="8.56483332695">
		<tag k="fixme" v="consider natural=peak for the most distinct mountains in the district" />
		<tag k="name" v="Nipa" />
		<tag k="natural" v="hill" />
		<tag k="place" v="locality" />
		<tag k="ssr:stedsnr" v="246780" />
	</node>
	<node id="-53604" lat="59.8065000017" lon="8.71726667487">
		<tag k="fixme" v="consider natural=peak for the most distinct mountains in the district" />
		<tag k="name" v="Hesjåbutindan" />
		<tag k="natural" v="hill" />
		<tag k="place" v="locality" />
		<tag k="ssr:stedsnr" v="246773" />
	</node>
	<node id="-53601" lat="59.6230027807" lon="8.53363054668">
		<tag k="name" v="Ståldalen" />
		<tag k="natural" v="valley" />
		<tag k="place" v="locality" />
		<tag k="ssr:stedsnr" v="246724" />
	</node>
	<node id="-53599" lat="59.7977999997" lon="8.63814999887">
		<tag k="name" v="Storehaug" />
		<tag k="natural" v="hill" />
		<tag k="place" v="locality" />
		<tag k="ssr:stedsnr" v="246716" />
	</node>
	<node id="-55646" lat="59.7712000027" lon="8.54135833891">
		<tag k="alt_name" v="Vindsjålia" />
		<tag k="name" v="Vindsjålii" />
		<tag k="natural" v="slope" />
		<tag k="place" v="locality" />
		<tag k="ssr:stedsnr" v="854993" />
	</node>
	<node id="-55642" lat="59.533363887" lon="8.79825000492">
		<tag k="name" v="Nordfjell" />
		<tag k="natural" v="hill" />
		<tag k="place" v="locality" />
		<tag k="ssr:stedsnr" v="853991" />
	</node>
	<node id="-53593" lat="59.646569444" lon="8.62085000229">
		<tag k="name" v="Kivikdalen" />
		<tag k="natural" v="valley" />
		<tag k="place" v="locality" />
		<tag k="ssr:stedsnr" v="246662" />
	</node>
	<node id="-55639" lat="59.8042527758" lon="8.66355000714">
		<tag k="name" v="Kaslebotn" />
		<tag k="natural" v="valley" />
		<tag k="place" v="locality" />
		<tag k="ssr:stedsnr" v="853739" />
	</node>
	<node id="-55638" lat="59.631202775" lon="8.60151666647">
		<tag k="alt_name" v="Heggelinuten, øvre;Heggjelinuten øvre" />
		<tag k="fixme" v="consider natural=peak for the most distinct mountains in the district" />
		<tag k="name" v="Øvre Heggelinuten" />
		<tag k="natural" v="hill" />
		<tag k="place" v="locality" />
		<tag k="ssr:stedsnr" v="853728" />
	</node>
	<node id="-55637" lat="59.6319750021" lon="8.64927777293">
		<tag k="fixme" v="consider natural=peak for the most distinct mountains in the district" />
		<tag k="name" v="Bisminuten" />
		<tag k="natural" v="hill" />
		<tag k="place" v="locality" />
		<tag k="ssr:stedsnr" v="853725" />
	</node>
	<node id="-55636" lat="59.6346249974" lon="8.70677777433">
		<tag k="fixme" v="consider natural=peak for the most distinct mountains in the district" />
		<tag k="name" v="Fjellstadfjellet" />
		<tag k="natural" v="hill" />
		<tag k="place" v="locality" />
		<tag k="ssr:stedsnr" v="853717" />
	</node>
	<node id="-55631" lat="59.6938138846" lon="8.52706944388">
		<tag k="alt_name" v="Fyribøenfjellet" />
		<tag k="fixme" v="consider natural=peak for the most distinct mountains in the district" />
		<tag k="name" v="Fyribøfjellet" />
		<tag k="natural" v="hill" />
		<tag k="place" v="locality" />
		<tag k="ssr:stedsnr" v="853635" />
	</node>
	<node id="-53582" lat="59.7056138859" lon="8.69439166365">
		<tag k="name" v="Mydalen" />
		<tag k="natural" v="valley" />
		<tag k="place" v="locality" />
		<tag k="ssr:stedsnr" v="246560" />
	</node>
	<node id="-55626" lat="59.6951638862" lon="8.61616111446">
		<tag k="alt_name" v="Bleshaugdalen store" />
		<tag k="name" v="Bleshaugdalen" />
		<tag k="natural" v="valley" />
		<tag k="place" v="locality" />
		<tag k="ssr:stedsnr" v="853608" />
	</node>
	<node id="-55625" lat="59.6399194467" lon="8.74926110662">
		<tag k="fixme" v="consider natural=peak for the most distinct mountains in the district" />
		<tag k="name" v="Rennevassnutan" />
		<tag k="natural" v="hill" />
		<tag k="place" v="locality" />
		<tag k="ssr:stedsnr" v="853711" />
	</node>
	<node id="-55624" lat="59.6458555561" lon="8.52344999214">
		<tag k="fixme" v="consider natural=peak for the most distinct mountains in the district" />
		<tag k="name" v="Svinomnuten" />
		<tag k="natural" v="hill" />
		<tag k="place" v="locality" />
		<tag k="ssr:stedsnr" v="853706" />
	</node>
	<node id="-55620" lat="59.7014750016" lon="8.65149999298">
		<tag k="alt_name" v="Hågåvassfjell" />
		<tag k="name" v="Hågåvassfjellet" />
		<tag k="natural" v="hill" />
		<tag k="place" v="locality" />
		<tag k="ssr:stedsnr" v="853541" />
	</node>
	<node id="-53571" lat="59.7189777795" lon="8.88502778148">
		<tag k="fixme" v="consider natural=peak for the most distinct mountains in the district" />
		<tag k="name" v="Rullen" />
		<tag k="natural" v="hill" />
		<tag k="place" v="locality" />
		<tag k="ssr:stedsnr" v="246101" />
	</node>
	<node id="-55618" lat="59.6887249988" lon="8.82701667446">
		<tag k="alt_name" v="Kleivsfjell" />
		<tag k="fixme" v="consider natural=peak for the most distinct mountains in the district" />
		<tag k="name" v="Kleivsfjellet" />
		<tag k="natural" v="hill" />
		<tag k="place" v="locality" />
		<tag k="ssr:stedsnr" v="853579" />
	</node>
	<node id="-53568" lat="59.7402500019" lon="8.86337499869">
		<tag k="alt_name" v="Hafsteinnuten" />
		<tag k="name" v="Havsteinnuten" />
		<tag k="natural" v="hill" />
		<tag k="place" v="locality" />
		<tag k="ssr:stedsnr" v="246015" />
	</node>
	<node id="-55615" lat="59.5609944412" lon="8.84762777184">
		<tag k="name" v="Slåkådalen" />
		<tag k="natural" v="valley" />
		<tag k="place" v="locality" />
		<tag k="ssr:stedsnr" v="853342" />
	</node>
	<node id="-55614" lat="59.7085416685" lon="8.87354999905">
		<tag k="fixme" v="consider natural=peak for the most distinct mountains in the district" />
		<tag k="name" v="Mjeltåsen" />
		<tag k="natural" v="hill" />
		<tag k="place" v="locality" />
		<tag k="ssr:stedsnr" v="853097" />
	</node>
	<node id="-53562" lat="59.6243361107" lon="8.72666666247">
		<tag k="name" v="Rennevassvarden" />
		<tag k="natural" v="hill" />
		<tag k="place" v="locality" />
		<tag k="ssr:stedsnr" v="64836" />
	</node>
	<node id="-53556" lat="59.6526666679" lon="8.75223610932">
		<tag k="name" v="Vassenddalen" />
		<tag k="natural" v="valley" />
		<tag k="place" v="locality" />
		<tag k="ssr:stedsnr" v="64747" />
	</node>
	<node id="-55600" lat="59.5505083293" lon="8.76658055963">
		<tag k="name" v="Deildnuten" />
		<tag k="natural" v="ridge" />
		<tag k="place" v="locality" />
		<tag k="ssr:stedsnr" v="835836" />
	</node>
	<node id="-55598" lat="59.6013638887" lon="8.97319721362">
		<tag k="fixme" v="consider natural=peak for the most distinct mountains in the district" />
		<tag k="name" v="Dalåsen" />
		<tag k="natural" v="hill" />
		<tag k="place" v="locality" />
		<tag k="ssr:stedsnr" v="835931" />
	</node>
	<node id="-53545" lat="59.6381805594" lon="8.53876388692">
		<tag k="fixme" v="consider natural=peak for the most distinct mountains in the district" />
		<tag k="name" v="Vardenuten" />
		<tag k="natural" v="hill" />
		<tag k="ssr:stedsnr" v="45503" />
	</node>
	<node id="-53544" lat="59.6286138903" lon="8.93010554983">
		<tag k="name" v="Kasinlia" />
		<tag k="natural" v="slope" />
		<tag k="place" v="locality" />
		<tag k="ssr:stedsnr" v="45706" />
	</node>
	<node id="-53540" lat="59.6992305552" lon="8.54552221599">
		<tag k="name" v="Rømåhaugen" />
		<tag k="natural" v="ridge" />
		<tag k="place" v="locality" />
		<tag k="ssr:stedsnr" v="44007" />
	</node>
	<node id="-55584" lat="59.767569446" lon="8.76481388859">
		<tag k="name" v="Havsdalen" />
		<tag k="natural" v="valley" />
		<tag k="place" v="locality" />
		<tag k="ssr:stedsnr" v="834418" />
	</node>
	<node id="-53535" lat="59.5894527738" lon="8.65122500142">
		<tag k="name" v="Middagsnuten" />
		<tag k="natural" v="hill" />
		<tag k="place" v="locality" />
		<tag k="ssr:stedsnr" v="228751" />
	</node>
	<node id="-53534" lat="59.5913222236" lon="8.9925694477">
		<tag k="name" v="Bennstulåsen" />
		<tag k="natural" v="hill" />
		<tag k="place" v="locality" />
		<tag k="ssr:stedsnr" v="228787" />
	</node>
	<node id="-55578" lat="59.7922027749" lon="8.63990555251">
		<tag k="name" v="Gunntjønndalen" />
		<tag k="natural" v="valley" />
		<tag k="place" v="locality" />
		<tag k="ssr:stedsnr" v="833991" />
	</node>
	<node id="-55577" lat="59.7319305557" lon="8.90630000639">
		<tag k="fixme" v="consider natural=peak for the most distinct mountains in the district" />
		<tag k="name" v="Viernuten" />
		<tag k="natural" v="hill" />
		<tag k="place" v="locality" />
		<tag k="ssr:stedsnr" v="833831" />
	</node>
	<node id="-55575" lat="59.6417138875" lon="8.91175276892">
		<tag k="name" v="Høgenut" />
		<tag k="natural" v="ridge" />
		<tag k="place" v="locality" />
		<tag k="ssr:stedsnr" v="833633" />
	</node>
	<node id="-55574" lat="59.6381583351" lon="8.94263610575">
		<tag k="name" v="Herjusdalen søndre" />
		<tag k="natural" v="valley" />
		<tag k="place" v="locality" />
		<tag k="ssr:stedsnr" v="833629" />
	</node>
	<node id="-55573" lat="59.6577944425" lon="8.87542500753">
		<tag k="name" v="Dalslien" />
		<tag k="natural" v="slope" />
		<tag k="place" v="locality" />
		<tag k="ssr:stedsnr" v="833540" />
	</node>
	<node id="-55569" lat="59.7079666635" lon="8.46050278333">
		<tag k="name" v="Flåskar" />
		<tag k="natural" v="valley" />
		<tag k="place" v="locality" />
		<tag k="ssr:stedsnr" v="826770" />
	</node>
	<node id="-55567" lat="59.747302778" lon="8.76406944329">
		<tag k="name" v="Kvernhushaugen" />
		<tag k="natural" v="hill" />
		<tag k="place" v="locality" />
		<tag k="ssr:stedsnr" v="826613" />
	</node>
	<node id="-55566" lat="59.7690555583" lon="8.76609443881">
		<tag k="name" v="Timmerås" />
		<tag k="natural" v="hill" />
		<tag k="place" v="locality" />
		<tag k="ssr:stedsnr" v="825576" />
	</node>
	<node id="-53516" lat="59.7974583359" lon="8.68110833795">
		<tag k="name" v="Trengsle" />
		<tag k="natural" v="gorge" />
		<tag k="ssr:stedsnr" v="226926" />
	</node>
	<node id="-55563" lat="59.8417055537" lon="8.811449997">
		<tag k="name" v="Risbudalen" />
		<tag k="natural" v="valley" />
		<tag k="place" v="locality" />
		<tag k="ssr:stedsnr" v="793868" />
	</node>
	<node id="-53512" lat="59.6757611075" lon="8.81997499795">
		<tag k="name" v="Stutekleiv" />
		<tag k="natural" v="slope" />
		<tag k="place" v="locality" />
		<tag k="ssr:stedsnr" v="226693" />
	</node>
	<node id="-55558" lat="59.7532166667" lon="8.44666389526">
		<tag k="alt_name" v="Sjånut" />
		<tag k="fixme" v="consider natural=peak for the most distinct mountains in the district" />
		<tag k="name" v="Sjånuten" />
		<tag k="natural" v="hill" />
		<tag k="place" v="locality" />
		<tag k="ssr:stedsnr" v="793107" />
	</node>
	<node id="-55557" lat="59.7621250032" lon="8.51241389536">
		<tag k="name" v="Hellebukvelven" />
		<tag k="natural" v="valley" />
		<tag k="place" v="locality" />
		<tag k="ssr:stedsnr" v="792947" />
	</node>
	<node id="-53508" lat="59.6937944442" lon="8.75562222748">
		<tag k="name" v="Hettebulia" />
		<tag k="natural" v="slope" />
		<tag k="place" v="locality" />
		<tag k="ssr:stedsnr" v="226470" />
	</node>
	<node id="-55552" lat="59.7973916678" lon="8.67781943859">
		<tag k="alt_name" v="Rolinuten" />
		<tag k="fixme" v="consider natural=peak for the most distinct mountains in the district" />
		<tag k="name" v="Rolignuten" />
		<tag k="natural" v="hill" />
		<tag k="place" v="locality" />
		<tag k="ssr:stedsnr" v="792743" />
	</node>
	<node id="-53501" lat="59.7095166698" lon="8.46077221629">
		<tag k="name" v="Grømtarskar" />
		<tag k="natural" v="valley" />
		<tag k="place" v="locality" />
		<tag k="ssr:stedsnr" v="219783" />
	</node>
	<node id="-55548" lat="59.6493805573" lon="8.6028277693">
		<tag k="fixme" v="consider natural=peak for the most distinct mountains in the district" />
		<tag k="name" v="Solheimstulnuten" />
		<tag k="natural" v="hill" />
		<tag k="place" v="locality" />
		<tag k="ssr:stedsnr" v="792678" />
	</node>
	<node id="-53499" lat="59.7540916699" lon="8.74349167397">
		<tag k="name" v="Kyrkjejordsnipa" />
		<tag k="natural" v="ridge" />
		<tag k="place" v="locality" />
		<tag k="ssr:stedsnr" v="219645" />
	</node>
	<node id="-55546" lat="59.6565694455" lon="8.5359333339">
		<tag k="fixme" v="consider natural=peak for the most distinct mountains in the district" />
		<tag k="name" v="Gaulåsnuten" />
		<tag k="natural" v="hill" />
		<tag k="place" v="locality" />
		<tag k="ssr:stedsnr" v="792671" />
	</node>
	<node id="-55545" lat="59.6743750037" lon="8.78888055415">
		<tag k="alt_name" v="Venelinut" />
		<tag k="fixme" v="consider natural=peak for the most distinct mountains in the district" />
		<tag k="name" v="Venelinuten" />
		<tag k="natural" v="hill" />
		<tag k="place" v="locality" />
		<tag k="ssr:stedsnr" v="792665" />
	</node>
	<node id="-55542" lat="59.5530916699" lon="8.80542222346">
		<tag k="name" v="Slåkådalen" />
		<tag k="natural" v="valley" />
		<tag k="place" v="locality" />
		<tag k="ssr:stedsnr" v="792899" />
	</node>
	<node id="-55541" lat="59.5845000001" lon="8.66565555799">
		<tag k="name" v="Muggedalen" />
		<tag k="natural" v="valley" />
		<tag k="place" v="locality" />
		<tag k="ssr:stedsnr" v="792896" />
	</node>
	<node id="-55540" lat="59.6247388848" lon="8.80993610728">
		<tag k="name" v="Lonar" />
		<tag k="natural" v="slope" />
		<tag k="place" v="locality" />
		<tag k="ssr:stedsnr" v="792798" />
	</node>
	<node id="-55531" lat="59.6661888865" lon="8.72886666424">
		<tag k="alt_name" v="Stavslien" />
		<tag k="name" v="Stavslian" />
		<tag k="natural" v="slope" />
		<tag k="place" v="locality" />
		<tag k="ssr:stedsnr" v="791681" />
	</node>
	<node id="-55527" lat="59.7404638895" lon="8.59118056393">
		<tag k="name" v="Risbudalen" />
		<tag k="natural" v="valley" />
		<tag k="place" v="locality" />
		<tag k="ssr:stedsnr" v="791525" />
	</node>
	<node id="-55516" lat="59.5629527791" lon="8.8795749931">
		<tag k="name" v="Jønnbuberget" />
		<tag k="place" v="locality" />
		<tag k="ssr:stedsnr" v="774844" />
	</node>
	<node id="-55515" lat="59.5929222187" lon="8.94780277535">
		<tag k="fixme" v="consider natural=peak for the most distinct mountains in the district" />
		<tag k="name" v="Tjønnliåsen" />
		<tag k="natural" v="hill" />
		<tag k="place" v="locality" />
		<tag k="ssr:stedsnr" v="774799" />
	</node>
	<node id="-55513" lat="59.6016166629" lon="8.75888333311">
		<tag k="name" v="Nuten" />
		<tag k="place" v="locality" />
		<tag k="ssr:stedsnr" v="774967" />
	</node>
	<node id="-55511" lat="59.625958334" lon="8.75947221716">
		<tag k="name" v="Snaunuten" />
		<tag k="natural" v="ridge" />
		<tag k="place" v="locality" />
		<tag k="ssr:stedsnr" v="774948" />
	</node>
	<node id="-55505" lat="59.6169722226" lon="8.96553056317">
		<tag k="name" v="Veslemo" />
		<tag k="place" v="locality" />
		<tag k="ssr:stedsnr" v="774132" />
	</node>
	<node id="-55494" lat="59.653638888" lon="8.67749722696">
		<tag k="name" v="Klyftelidalen" />
		<tag k="natural" v="valley" />
		<tag k="place" v="locality" />
		<tag k="ssr:stedsnr" v="772976" />
	</node>
	<node id="-55490" lat="59.7261888933" lon="8.86226944416">
		<tag k="name" v="Omdal" />
		<tag k="natural" v="valley" />
		<tag k="place" v="locality" />
		<tag k="ssr:stedsnr" v="772237" />
	</node>
	<node id="-55488" lat="59.6430583377" lon="8.52775832578">
		<tag k="name" v="Ståvåtjønnskaret" />
		<tag k="natural" v="valley" />
		<tag k="place" v="locality" />
		<tag k="ssr:stedsnr" v="772048" />
	</node>
	<node id="-55485" lat="59.7554222191" lon="8.8939249922">
		<tag k="name" v="Rabben" />
		<tag k="natural" v="slope" />
		<tag k="place" v="locality" />
		<tag k="ssr:stedsnr" v="772170" />
	</node>
	<node id="-55480" lat="59.5920916662" lon="8.75561111521">
		<tag k="name" v="Uvåsjuvet" />
		<tag k="natural" v="gorge" />
		<tag k="ssr:stedsnr" v="652814" />
	</node>
	<node id="-55479" lat="59.5591111115" lon="8.85447499605">
		<tag k="name" v="Mjellefethaugen" />
		<tag k="natural" v="hill" />
		<tag k="place" v="locality" />
		<tag k="ssr:stedsnr" v="652812" />
	</node>
	<node id="-55474" lat="59.6236722183" lon="8.74509167227">
		<tag k="name" v="Timdålån" />
		<tag k="natural" v="slope" />
		<tag k="place" v="locality" />
		<tag k="ssr:stedsnr" v="652913" />
	</node>
	<node id="-55469" lat="59.6279805556" lon="8.53389999246">
		<tag k="name" v="Skarrin" />
		<tag k="natural" v="slope" />
		<tag k="place" v="locality" />
		<tag k="ssr:stedsnr" v="652531" />
	</node>
	<node id="-55463" lat="59.8187861074" lon="8.72246943721">
		<tag k="name" v="Flisetjønnskaret" />
		<tag k="natural" v="valley" />
		<tag k="place" v="locality" />
		<tag k="ssr:stedsnr" v="652134" />
	</node>
	<node id="-55458" lat="59.8432527789" lon="8.80199999265">
		<tag k="name" v="Fiskeholk" />
		<tag k="natural" v="valley" />
		<tag k="place" v="locality" />
		<tag k="ssr:stedsnr" v="651984" />
	</node>
	<node id="-55453" lat="59.6710500039" lon="8.72098054959">
		<tag k="fixme" v="consider natural=peak for the most distinct mountains in the district" />
		<tag k="name" v="Gråhovde" />
		<tag k="natural" v="hill" />
		<tag k="place" v="locality" />
		<tag k="ssr:stedsnr" v="650811" />
	</node>
	<node id="-55448" lat="59.7408972235" lon="8.88066943804">
		<tag k="name" v="Trytetjønnuten" />
		<tag k="natural" v="hill" />
		<tag k="place" v="locality" />
		<tag k="ssr:stedsnr" v="650226" />
	</node>
	<node id="-55445" lat="59.7576361144" lon="8.84342777054">
		<tag k="name" v="Deilhaugen" />
		<tag k="natural" v="hill" />
		<tag k="place" v="locality" />
		<tag k="ssr:stedsnr" v="650147" />
	</node>
	<node id="-55443" lat="59.6939166674" lon="8.62878055438">
		<tag k="name" v="Bleshaugdalen vesle" />
		<tag k="natural" v="valley" />
		<tag k="place" v="locality" />
		<tag k="ssr:stedsnr" v="650143" />
	</node>
	<node id="-55438" lat="59.760236114" lon="8.76512221932">
		<tag k="name" v="Gaupåsen" />
		<tag k="natural" v="hill" />
		<tag k="place" v="locality" />
		<tag k="ssr:stedsnr" v="643615" />
	</node>
	<node id="-55435" lat="59.737191671" lon="8.83201944898">
		<tag k="name" v="Tjønnerudnatten" />
		<tag k="natural" v="hill" />
		<tag k="place" v="locality" />
		<tag k="ssr:stedsnr" v="612312" />
	</node>
	<node id="-55432" lat="59.845650003" lon="8.49548889161">
		<tag k="name" v="Månelibrotet" />
		<tag k="natural" v="ridge" />
		<tag k="place" v="locality" />
		<tag k="ssr:stedsnr" v="610876" />
	</node>
	<node id="-55427" lat="59.5906583306" lon="8.73731943893">
		<tag k="alt_name" v="Lyningsnut" />
		<tag k="fixme" v="consider natural=peak for the most distinct mountains in the district" />
		<tag k="name" v="Lynningsnuten" />
		<tag k="natural" v="hill" />
		<tag k="place" v="locality" />
		<tag k="ssr:stedsnr" v="610853" />
	</node>
	<node id="-55426" lat="59.7793305576" lon="8.70545834133">
		<tag k="alt_name" v="Blåtjørnåsen" />
		<tag k="fixme" v="consider natural=peak for the most distinct mountains in the district" />
		<tag k="name" v="Blåtjønnåsen" />
		<tag k="natural" v="hill" />
		<tag k="place" v="locality" />
		<tag k="ssr:stedsnr" v="610991" />
	</node>
	<node id="-55424" lat="59.5544416679" lon="8.7648999917">
		<tag k="name" v="Londalsbrauta" />
		<tag k="natural" v="slope" />
		<tag k="place" v="locality" />
		<tag k="ssr:stedsnr" v="610985" />
	</node>
	<node id="-55423" lat="59.7833027793" lon="8.69213333496">
		<tag k="name" v="Båtliberget" />
		<tag k="natural" v="hill" />
		<tag k="place" v="locality" />
		<tag k="ssr:stedsnr" v="610983" />
	</node>
	<node id="-55652" lat="59.7838194452" lon="8.41859166096">
		<tag k="name" v="Stordalen" />
		<tag k="natural" v="valley" />
		<tag k="place" v="locality" />
		<tag k="ssr:stedsnr" v="954150" />
	</node>
	<node id="-55418" lat="59.7671027754" lon="8.76066388385">
		<tag k="name" v="Hovsdalen" />
		<tag k="natural" v="valley" />
		<tag k="place" v="locality" />
		<tag k="ssr:stedsnr" v="610954" />
	</node>
	<node id="-55413" lat="59.6876888871" lon="8.73892499654">
		<tag k="alt_name" v="Knutaberg" />
		<tag k="fixme" v="consider natural=peak for the most distinct mountains in the district" />
		<tag k="name" v="Knutaberget" />
		<tag k="natural" v="hill" />
		<tag k="place" v="locality" />
		<tag k="ssr:stedsnr" v="610654" />
	</node>
	<node id="-55407" lat="59.8199583325" lon="8.7121416689">
		<tag k="alt_name" v="Gaustakne, store;Gaustakne" />
		<tag k="fixme" v="consider natural=peak for the most distinct mountains in the district" />
		<tag k="name" v="Store Gaustakne" />
		<tag k="natural" v="hill" />
		<tag k="place" v="locality" />
		<tag k="ssr:stedsnr" v="610799" />
	</node>
	<node id="-55406" lat="59.8153999995" lon="8.61253332536">
		<tag k="fixme" v="consider natural=peak for the most distinct mountains in the district" />
		<tag k="name" v="Åsen" />
		<tag k="natural" v="hill" />
		<tag k="place" v="locality" />
		<tag k="ssr:stedsnr" v="610796" />
	</node>
	<node id="-55402" lat="59.6422388901" lon="8.85760556086">
		<tag k="alt_name" v="Trytetjørnfjellet" />
		<tag k="fixme" v="consider natural=peak for the most distinct mountains in the district" />
		<tag k="name" v="Trytetjønnfjell" />
		<tag k="natural" v="hill" />
		<tag k="place" v="locality" />
		<tag k="ssr:stedsnr" v="610231" />
	</node>
	<node id="-55401" lat="59.6847027767" lon="8.86669166635">
		<tag k="name" v="Raundalskleiva" />
		<tag k="natural" v="hill" />
		<tag k="place" v="locality" />
		<tag k="ssr:stedsnr" v="610198" />
	</node>
	<node id="-55399" lat="59.6907888926" lon="8.84989999438">
		<tag k="name" v="Skarkedalen" />
		<tag k="natural" v="valley" />
		<tag k="place" v="locality" />
		<tag k="ssr:stedsnr" v="610184" />
	</node>
	<node id="-55398" lat="59.5714750023" lon="8.76350277916">
		<tag k="alt_name" v="Gygrenatten" />
		<tag k="name" v="Gyvrenuten" />
		<tag k="natural" v="hill" />
		<tag k="place" v="locality" />
		<tag k="ssr:stedsnr" v="609933" />
	</node>
	<node id="-55397" lat="59.5826388859" lon="8.82754445211">
		<tag k="alt_name" v="Heksfjellet" />
		<tag k="fixme" v="consider natural=peak for the most distinct mountains in the district" />
		<tag k="name" v="Heksfjell" />
		<tag k="natural" v="hill" />
		<tag k="place" v="locality" />
		<tag k="ssr:stedsnr" v="609916" />
	</node>
	<node id="-55396" lat="59.5692333337" lon="8.79101110261">
		<tag k="alt_name" v="Blåtjørnfjellet" />
		<tag k="fixme" v="consider natural=peak for the most distinct mountains in the district" />
		<tag k="name" v="Blåtjønnfjellet" />
		<tag k="natural" v="hill" />
		<tag k="place" v="locality" />
		<tag k="ssr:stedsnr" v="609914" />
	</node>
	<node id="-55389" lat="59.7199749973" lon="8.50838889753">
		<tag k="alt_name" v="Aurebakkhovet" />
		<tag k="fixme" v="consider natural=peak for the most distinct mountains in the district" />
		<tag k="name" v="Aurbakkhovet" />
		<tag k="natural" v="hill" />
		<tag k="place" v="locality" />
		<tag k="ssr:stedsnr" v="609547" />
	</node>
	<node id="-55388" lat="59.7424694404" lon="8.58420000517">
		<tag k="fixme" v="consider natural=peak for the most distinct mountains in the district" />
		<tag k="name" v="Storsteinnuten" />
		<tag k="natural" v="hill" />
		<tag k="place" v="locality" />
		<tag k="ssr:stedsnr" v="609520" />
	</node>
	<node id="-55384" lat="59.743408332" lon="8.75764999688">
		<tag k="name" v="Brautin" />
		<tag k="natural" v="slope" />
		<tag k="place" v="locality" />
		<tag k="ssr:stedsnr" v="609498" />
	</node>
	<node id="-55383" lat="59.6597944406" lon="8.8223888914">
		<tag k="alt_name" v="Rodalslia" />
		<tag k="name" v="Rådalslia" />
		<tag k="natural" v="slope" />
		<tag k="place" v="locality" />
		<tag k="ssr:stedsnr" v="609701" />
	</node>
	<node id="-55378" lat="59.6596750039" lon="8.51021110823">
		<tag k="name" v="Vasslii" />
		<tag k="natural" v="slope" />
		<tag k="place" v="locality" />
		<tag k="ssr:stedsnr" v="609673" />
	</node>
	<node id="-55365" lat="59.603813891" lon="8.69619722343">
		<tag k="name" v="Åsbergene" />
		<tag k="natural" v="ridge" />
		<tag k="place" v="locality" />
		<tag k="ssr:stedsnr" v="592370" />
	</node>
	<node id="-55358" lat="59.8341027814" lon="8.71334999456">
		<tag k="name" v="Stavsro" />
		<tag k="natural" v="slope" />
		<tag k="place" v="locality" />
		<tag k="ssr:stedsnr" v="592169" />
	</node>
	<node id="-55353" lat="59.6251916655" lon="8.84356944705">
		<tag k="name" v="Rusdalen" />
		<tag k="natural" v="valley" />
		<tag k="place" v="locality" />
		<tag k="ssr:stedsnr" v="591686" />
	</node>
	<node id="-55350" lat="59.612830558" lon="8.68331111676">
		<tag k="fixme" v="consider natural=peak for the most distinct mountains in the district" />
		<tag k="name" v="Flisengåsen" />
		<tag k="natural" v="hill" />
		<tag k="place" v="locality" />
		<tag k="ssr:stedsnr" v="591219" />
	</node>
	<node id="-55345" lat="59.6886999987" lon="8.86321388024">
		<tag k="name" v="Tømmerdalen" />
		<tag k="natural" v="valley" />
		<tag k="place" v="locality" />
		<tag k="ssr:stedsnr" v="590868" />
	</node>
	<node id="-55344" lat="59.7934750044" lon="8.45473889143">
		<tag k="name" v="Håråtuvenuten" />
		<tag k="natural" v="hill" />
		<tag k="place" v="locality" />
		<tag k="ssr:stedsnr" v="590825" />
	</node>
	<node id="-55343" lat="59.6880333297" lon="8.91583054982">
		<tag k="name" v="Saudrykken" />
		<tag k="natural" v="valley" />
		<tag k="place" v="locality" />
		<tag k="ssr:stedsnr" v="590801" />
	</node>
	<node id="-55340" lat="59.6595388884" lon="8.87254166529">
		<tag k="name" v="Dalslien" />
		<tag k="natural" v="slope" />
		<tag k="place" v="locality" />
		<tag k="ssr:stedsnr" v="590988" />
	</node>
	<node id="-55339" lat="59.6634444458" lon="8.85494444328">
		<tag k="name" v="Hyttunlia" />
		<tag k="natural" v="slope" />
		<tag k="place" v="locality" />
		<tag k="ssr:stedsnr" v="590978" />
	</node>
	<node id="-55338" lat="59.5942638897" lon="8.84157500116">
		<tag k="name" v="Sanddalen nedre" />
		<tag k="natural" v="valley" />
		<tag k="place" v="locality" />
		<tag k="ssr:stedsnr" v="590964" />
	</node>
	<node id="-55337" lat="59.65239167" lon="8.93875556005">
		<tag k="name" v="Tjønnåsmarken" />
		<tag k="natural" v="slope" />
		<tag k="place" v="locality" />
		<tag k="ssr:stedsnr" v="590620" />
	</node>
	<node id="-55331" lat="59.7126833342" lon="8.78491388948">
		<tag k="name" v="Lønningsmarken" />
		<tag k="natural" v="slope" />
		<tag k="place" v="locality" />
		<tag k="ssr:stedsnr" v="590197" />
	</node>
	<node id="-55329" lat="59.6594638888" lon="8.53800832812">
		<tag k="name" v="Osdalen" />
		<tag k="natural" v="valley" />
		<tag k="place" v="locality" />
		<tag k="ssr:stedsnr" v="590044" />
	</node>
	<node id="-55325" lat="59.7525249986" lon="8.87733611574">
		<tag k="name" v="Smålien" />
		<tag k="natural" v="slope" />
		<tag k="place" v="locality" />
		<tag k="ssr:stedsnr" v="590168" />
	</node>
	<node id="-55324" lat="59.7820027774" lon="8.85992778426">
		<tag k="fixme" v="consider natural=peak for the most distinct mountains in the district" />
		<tag k="name" v="Haugestulfjellet" />
		<tag k="natural" v="hill" />
		<tag k="place" v="locality" />
		<tag k="ssr:stedsnr" v="589929" />
	</node>
	<node id="-55323" lat="59.7519361114" lon="8.7641388916">
		<tag k="name" v="Lisli" />
		<tag k="natural" v="slope" />
		<tag k="place" v="locality" />
		<tag k="ssr:stedsnr" v="583634" />
	</node>
	<node id="-55320" lat="59.8382277808" lon="8.75922499815">
		<tag k="fixme" v="consider natural=peak for the most distinct mountains in the district" />
		<tag k="name" v="Blånipa" />
		<tag k="natural" v="hill" />
		<tag k="ssr:stedsnr" v="580264" />
	</node>
	<node id="-55318" lat="59.7339472262" lon="8.76763611466">
		<tag k="name" v="Drangedal" />
		<tag k="natural" v="valley" />
		<tag k="place" v="locality" />
		<tag k="ssr:stedsnr" v="551421" />
	</node>
	<node id="-55316" lat="59.7871750018" lon="8.55503611295">
		<tag k="name" v="Briskerohovet" />
		<tag k="natural" v="valley" />
		<tag k="place" v="locality" />
		<tag k="ssr:stedsnr" v="550983" />
	</node>
	<node id="-55314" lat="59.8527611146" lon="8.771322215">
		<tag k="fixme" v="consider natural=peak for the most distinct mountains in the district" />
		<tag k="name" v="Djupetjønnut" />
		<tag k="natural" v="hill" />
		<tag k="place" v="locality" />
		<tag k="ssr:stedsnr" v="550854" />
	</node>
	<node id="-55312" lat="59.8377111091" lon="8.76084166935">
		<tag k="alt_name" v="Heddersfjellet" />
		<tag k="fixme" v="consider natural=peak for the most distinct mountains in the district" />
		<tag k="name" v="Heddersfjell" />
		<tag k="natural" v="hill" />
		<tag k="place" v="locality" />
		<tag k="ssr:stedsnr" v="550817" />
	</node>
	<node id="-55311" lat="59.8076750017" lon="8.7298388855">
		<tag k="alt_name" v="Skriugrønut" />
		<tag k="name" v="Skriugrøtnuten" />
		<tag k="natural" v="hill" />
		<tag k="place" v="locality" />
		<tag k="ssr:stedsnr" v="550800" />
	</node>
	<node id="-55308" lat="59.7954250018" lon="8.64938055296">
		<tag k="name" v="Dyrdalen" />
		<tag k="natural" v="valley" />
		<tag k="place" v="locality" />
		<tag k="ssr:stedsnr" v="550767" />
	</node>
	<node id="-55304" lat="59.7957916673" lon="8.69932499291">
		<tag k="fixme" v="consider natural=peak for the most distinct mountains in the district" />
		<tag k="name" v="Buaråsen" />
		<tag k="natural" v="hill" />
		<tag k="place" v="locality" />
		<tag k="ssr:stedsnr" v="550746" />
	</node>
	<node id="-55302" lat="59.7659128634" lon="8.48196860912">
		<tag k="fixme" v="consider natural=peak for the most distinct mountains in the district" />
		<tag k="name" v="Vindeggen" />
		<tag k="natural" v="hill" />
		<tag k="place" v="locality" />
		<tag k="ssr:stedsnr" v="550069" />
	</node>
	<node id="-55299" lat="59.5319972239" lon="8.77713332627">
		<tag k="alt_name" v="Hytteskar" />
		<tag k="name" v="Hytteskardet" />
		<tag k="natural" v="valley" />
		<tag k="place" v="locality" />
		<tag k="ssr:stedsnr" v="549982" />
	</node>
</osm>
