<?xml version="1.0" encoding="UTF-8"?>
<<<<<<< HEAD
<osm version="0.6" generator="osmapis">
	<node lat="59.65476076773032" lon="8.786503510914036" id="-19344">
		<tag k="alt_name" v="Reinstjønn" />
		<tag k="name" v="Reinstjørnan" />
=======
<osm generator="osmapis" version="0.6">
	<node id="-454655" lat="59.6057611091" lon="8.73671944457">
		<tag k="name" v="Tuteodden" />
		<tag k="natural" v="cape" />
		<tag k="ssr:stedsnr" v="652995" />
	</node>
	<node id="-454652" lat="59.5857805583" lon="8.77117222866">
		<tag k="name" v="Nordstulbekken" />
		<tag k="ssr:stedsnr" v="652806" />
		<tag k="waterway" v="stream" />
	</node>
	<node id="-454641" lat="59.6294666678" lon="8.66063056361">
		<tag k="name" v="Tjønnefløe" />
		<tag k="natural" v="water" />
		<tag k="ssr:stedsnr" v="652222" />
	</node>
	<node id="-454640" lat="59.8157250029" lon="8.4556722135">
		<tag k="name" v="Langetjønn" />
		<tag k="natural" v="water" />
		<tag k="ssr:stedsnr" v="652221" />
	</node>
	<node id="-454633" lat="59.6112388874" lon="8.93599166976">
		<tag k="name" v="Homun" />
		<tag k="place" v="island" />
		<tag k="ssr:stedsnr" v="652043" />
	</node>
	<node id="-454631" lat="59.8362777739" lon="8.82169165846">
		<tag k="name" v="Aurestjønn" />
		<tag k="natural" v="water" />
		<tag k="ssr:stedsnr" v="651982" />
	</node>
	<node id="-454626" lat="59.6703583376" lon="8.80918610837">
		<tag k="name" v="Bekretjønn" />
		<tag k="natural" v="water" />
		<tag k="ssr:stedsnr" v="650636" />
	</node>
	<node id="-454624" lat="59.7322027785" lon="8.79207778211">
		<tag k="name" v="Sandbekk" />
		<tag k="ssr:stedsnr" v="650311" />
		<tag k="waterway" v="stream" />
	</node>
	<node id="-454621" lat="59.7097277749" lon="8.85695555439">
		<tag k="name" v="Burmannsbukta" />
		<tag k="natural" v="bay" />
		<tag k="ssr:stedsnr" v="650186" />
	</node>
	<node id="-454616" lat="59.6870111113" lon="8.64818889119">
		<tag k="name" v="Gamsbukta" />
		<tag k="natural" v="bay" />
		<tag k="ssr:stedsnr" v="650126" />
	</node>
	<node id="-454608" lat="59.8321138848" lon="8.59011110449">
		<tag k="alt_name" v="Bjønndalsbekken" />
		<tag k="name" v="Bjørndalsbekken" />
		<tag k="ssr:stedsnr" v="610893" />
		<tag k="waterway" v="stream" />
	</node>
	<node id="-454603" lat="59.8144055535" lon="8.55014722553">
		<tag k="alt_name" v="Nystultjørni" />
		<tag k="name" v="Nystultjønn" />
		<tag k="natural" v="water" />
		<tag k="ssr:stedsnr" v="610857" />
	</node>
	<node id="-454602" lat="59.8205111115" lon="8.58815277902">
		<tag k="alt_name" v="Skitnetjørn" />
		<tag k="name" v="Skitnetjønn" />
		<tag k="natural" v="water" />
		<tag k="ssr:stedsnr" v="610854" />
	</node>
	<node id="-454589" lat="59.6863499987" lon="8.81752499961">
		<tag k="name" v="Ljosevatnet" />
		<tag k="natural" v="water" />
		<tag k="ssr:stedsnr" v="610695" />
	</node>
	<node id="-454586" lat="59.7320527789" lon="8.81492778052">
		<tag k="name" v="Ufsebekk" />
		<tag k="ssr:stedsnr" v="610635" />
		<tag k="waterway" v="stream" />
	</node>
	<node id="-454585" lat="59.7309194438" lon="8.82757778459">
		<tag k="alt_name" v="Tjørnetjørn" />
		<tag k="name" v="Tjønnetjønn" />
		<tag k="natural" v="water" />
		<tag k="ssr:stedsnr" v="610634" />
	</node>
	<node id="-454584" lat="59.8013416693" lon="8.51523056135">
		<tag k="alt_name" v="Hatteskardtjørn" />
		<tag k="name" v="Hatteskartjønn" />
		<tag k="natural" v="water" />
		<tag k="ssr:stedsnr" v="610826" />
	</node>
	<node id="-454583" lat="59.8086083308" lon="8.77632499576">
		<tag k="alt_name" v="Gjuvå" />
		<tag k="name" v="Gjuva" />
		<tag k="ssr:stedsnr" v="610819" />
		<tag k="waterway" v="river" />
	</node>
	<node id="-454582" lat="59.8094138865" lon="8.57748888688">
		<tag k="alt_name" v="Homtjørn" />
		<tag k="name" v="Homtjønn" />
		<tag k="natural" v="water" />
		<tag k="ssr:stedsnr" v="610811" />
	</node>
	<node id="-454579" lat="59.7861750023" lon="8.85980277654">
		<tag k="alt_name" v="Elgstjørn" />
		<tag k="name" v="Store Elgstjønn" />
		<tag k="natural" v="water" />
		<tag k="ssr:stedsnr" v="610310" />
	</node>
	<node id="-454577" lat="59.7913305576" lon="8.44920556076">
		<tag k="alt_name" v="Lysetjørn" />
		<tag k="name" v="Lysetjønn" />
		<tag k="natural" v="water" />
		<tag k="ssr:stedsnr" v="610093" />
	</node>
	<node id="-454567" lat="59.7878472217" lon="8.3965499959">
		<tag k="alt_name" v="Heimetjørn" />
		<tag k="name" v="Holmtjønn" />
		<tag k="natural" v="water" />
		<tag k="ssr:stedsnr" v="610087" />
	</node>
	<node id="-454561" lat="59.7441583292" lon="8.56170832794">
		<tag k="alt_name" v="Berutjørn" />
		<tag k="name" v="Berutjønn" />
		<tag k="natural" v="water" />
		<tag k="ssr:stedsnr" v="609519" />
	</node>
	<node id="-454559" lat="59.7475638865" lon="8.7599722199">
		<tag k="name" v="Tveitåi" />
		<tag k="ssr:stedsnr" v="609500" />
		<tag k="waterway" v="river" />
	</node>
	<node id="-454553" lat="59.675019449" lon="8.52206111773">
		<tag k="alt_name" v="Reintjørn" />
		<tag k="name" v="Reinstjønn" />
		<tag k="natural" v="water" />
		<tag k="ssr:stedsnr" v="609675" />
	</node>
	<node id="-454548" lat="59.677238891" lon="8.75958332499">
		<tag k="alt_name" v="Fagerskardtjørna" />
		<tag k="name" v="Fagerskartjønn" />
		<tag k="natural" v="water" />
		<tag k="ssr:stedsnr" v="609647" />
	</node>
	<node id="-454544" lat="59.5774194403" lon="8.85799999553">
		<tag k="name" v="Deilbekken" />
		<tag k="ssr:stedsnr" v="609306" />
		<tag k="waterway" v="stream" />
	</node>
	<node id="-454543" lat="59.7047666695" lon="8.90259999549">
		<tag k="name" v="Rotjørn" />
		<tag k="natural" v="water" />
		<tag k="ssr:stedsnr" v="609073" />
	</node>
	<node id="-454526" lat="59.6126777813" lon="8.56864166432">
		<tag k="name" v="Igletjønn" />
		<tag k="natural" v="water" />
		<tag k="ssr:stedsnr" v="591671" />
	</node>
	<node id="-454525" lat="59.6373611099" lon="8.58843333936">
		<tag k="name" v="Stusshøl" />
		<tag k="place" v="locality" />
		<tag k="ssr:stedsnr" v="591389" />
	</node>
	<node id="-454507" lat="59.7140416652" lon="8.75671388021">
		<tag k="name" v="Pråmbukta" />
		<tag k="natural" v="bay" />
		<tag k="ssr:stedsnr" v="590435" />
	</node>
	<node id="-454506" lat="59.6810138864" lon="8.75775277506">
		<tag k="name" v="Bekkjestultjønn" />
		<tag k="natural" v="water" />
		<tag k="ssr:stedsnr" v="590432" />
	</node>
	<node id="-454504" lat="59.7034638898" lon="8.80260277256">
		<tag k="name" v="Grønlitjønnen" />
		<tag k="natural" v="water" />
		<tag k="ssr:stedsnr" v="590196" />
	</node>
	<node id="-454500" lat="59.643794445" lon="8.65122222869">
		<tag k="name" v="Røynebrekktjønn" />
		<tag k="natural" v="water" />
		<tag k="ssr:stedsnr" v="590185" />
	</node>
	<node id="-454493" lat="59.717511114" lon="8.77050555839">
		<tag k="name" v="Gåsetjønn øvre" />
		<tag k="natural" v="water" />
		<tag k="ssr:stedsnr" v="551470" />
	</node>
	<node id="-454489" lat="59.8370944405" lon="8.55233888843">
		<tag k="alt_name" v="Åtetjørn" />
		<tag k="name" v="Åtetjønn" />
		<tag k="natural" v="water" />
		<tag k="ssr:stedsnr" v="550867" />
	</node>
	<node id="-454487" lat="59.8254472247" lon="8.54438054684">
		<tag k="alt_name" v="Nåpåtjørn, s;Nåpåtjønn søndre" />
		<tag k="name" v="Søndre Nåpåtjønn" />
		<tag k="natural" v="water" />
		<tag k="ssr:stedsnr" v="550830" />
	</node>
	<node id="-454481" lat="59.7906666666" lon="8.58971388271">
		<tag k="alt_name" v="Svartetjørn" />
		<tag k="name" v="Svartetjønn" />
		<tag k="natural" v="water" />
		<tag k="ssr:stedsnr" v="550758" />
	</node>
	<node id="-454480" lat="59.799116665" lon="8.80092500113">
		<tag k="name" v="Fosstulbekken" />
		<tag k="ssr:stedsnr" v="550755" />
		<tag k="waterway" v="stream" />
	</node>
	<node id="-454479" lat="59.7955249968" lon="8.46994444773">
		<tag k="name" v="Lysa" />
		<tag k="ssr:stedsnr" v="550751" />
		<tag k="waterway" v="river" />
	</node>
	<node id="-454477" lat="59.7982694433" lon="8.73072221968">
		<tag k="alt_name" v="Bekkjestultjørni" />
		<tag k="name" v="Bekkjestultjønn" />
		<tag k="natural" v="water" />
		<tag k="ssr:stedsnr" v="550744" />
	</node>
	<node id="-454474" lat="59.7737575346" lon="8.65480504053">
		<tag k="alt_name" v="Sønstetjørn" />
		<tag k="name" v="Sønstetjønn" />
		<tag k="natural" v="water" />
		<tag k="ssr:stedsnr" v="549987" />
	</node>
	<node id="-454468" lat="59.5798388884" lon="8.73303333932">
		<tag k="alt_name" v="Torvetjørni" />
		<tag k="name" v="Torvetjønn" />
>>>>>>> e1d4bc35ff8a6074a6f2e91616a996b547c36f15
		<tag k="natural" v="water" />
		<tag k="ssr:stedsnr" v="3730" />
	</node>
<<<<<<< HEAD
	<node lat="59.80978611063935" lon="8.551527775962464" id="-19349">
		<tag k="alt_name" v="Storfisktjørn" />
		<tag k="name" v="Storfisktjønn" />
		<tag k="natural" v="water" />
		<tag k="ssr:stedsnr" v="3781" />
	</node>
	<node lat="59.843588891526835" lon="8.48242222780741" id="-19356">
		<tag k="name" v="Såemsbotn" />
=======
	<node id="-454454" lat="59.8189499998" lon="8.8286249972">
		<tag k="name" v="Myarbekken" />
		<tag k="ssr:stedsnr" v="549775" />
		<tag k="waterway" v="stream" />
	</node>
	<node id="-454453" lat="59.8230833373" lon="8.79924999853">
		<tag k="alt_name" v="Berulvtjørn" />
		<tag k="name" v="Berultjønn" />
>>>>>>> e1d4bc35ff8a6074a6f2e91616a996b547c36f15
		<tag k="natural" v="water" />
		<tag k="ssr:stedsnr" v="4865" />
		<tag k="water" v="lake" />
	</node>
<<<<<<< HEAD
	<node lat="59.79466944260843" lon="8.604130554987046" id="-19357">
		<tag k="alt_name" v="Grotbekkåi" />
		<tag k="name" v="Grotbekken" />
		<tag k="ssr:stedsnr" v="4774" />
		<tag k="waterway" v="stream" />
	</node>
	<node lat="59.71887222182926" lon="8.77787778253846" id="-19358">
		<tag k="name" v="Gåsetjønn nedre" />
=======
	<node id="-454446" lat="59.6351820584" lon="8.74133019653">
		<tag k="name" v="Rennevasstjørnan" />
>>>>>>> e1d4bc35ff8a6074a6f2e91616a996b547c36f15
		<tag k="natural" v="water" />
		<tag k="ssr:stedsnr" v="5462" />
	</node>
<<<<<<< HEAD
	<node lat="59.688766669416324" lon="8.758602781665351" id="-19365">
		<tag k="name" v="Bekkjestulbekken" />
		<tag k="ssr:stedsnr" v="44402" />
		<tag k="waterway" v="stream" />
	</node>
	<node lat="59.715547225061165" lon="8.90387777963475" id="-19368">
		<tag k="name" v="Damtjønn" />
=======
	<node id="-454445" lat="59.6543638882" lon="8.70852500693">
		<tag k="alt_name" v="Urdetjørn" />
		<tag k="name" v="Uletjønn" />
>>>>>>> e1d4bc35ff8a6074a6f2e91616a996b547c36f15
		<tag k="natural" v="water" />
		<tag k="ssr:stedsnr" v="44822" />
	</node>
<<<<<<< HEAD
	<node lat="59.755888892642275" lon="8.689108337049165" id="-19370">
		<tag k="name" v="Ulekil" />
=======
	<node id="-454444" lat="59.6524444404" lon="8.60319999332">
		<tag k="name" v="Valoset" />
>>>>>>> e1d4bc35ff8a6074a6f2e91616a996b547c36f15
		<tag k="natural" v="bay" />
		<tag k="ssr:stedsnr" v="44903" />
	</node>
<<<<<<< HEAD
	<node lat="59.5843027810461" lon="8.914755560512395" id="-19393">
		<tag k="name" v="Mjella" />
		<tag k="ssr:stedsnr" v="64113" />
		<tag k="waterway" v="river" />
	</node>
	<node lat="59.65957777468032" lon="8.898663891001418" id="-19394">
		<tag k="alt_name" v="Skogsåi" />
		<tag k="name" v="Skogsåa" />
		<tag k="ssr:stedsnr" v="64219" />
		<tag k="waterway" v="river" />
	</node>
	<node lat="59.81152221779632" lon="8.741716674064607" id="-19403">
		<tag k="name" v="Råen" />
		<tag k="ssr:stedsnr" v="64812" />
		<tag k="waterway" v="stream" />
	</node>
	<node lat="59.819311113176646" lon="8.55607222555164" id="-19408">
		<tag k="alt_name" v="Raudbutjørni" />
		<tag k="name" v="Raubutjønn" />
=======
	<node id="-454442" lat="59.649569445" lon="8.59145277732">
		<tag k="name" v="Vangsåi" />
		<tag k="ssr:stedsnr" v="549674" />
		<tag k="waterway" v="stream" />
	</node>
	<node id="-454441" lat="59.6540749964" lon="8.53811388666">
		<tag k="name" v="Gaulåsåi" />
		<tag k="ssr:stedsnr" v="549672" />
		<tag k="waterway" v="stream" />
	</node>
	<node id="-454439" lat="59.6801833335" lon="8.79640833321">
		<tag k="alt_name" v="Sjausetvatn" />
		<tag k="name" v="Sjausetvatnet" />
>>>>>>> e1d4bc35ff8a6074a6f2e91616a996b547c36f15
		<tag k="natural" v="water" />
		<tag k="ssr:stedsnr" v="64857" />
	</node>
<<<<<<< HEAD
	<node lat="59.55180000295732" lon="8.774258330181116" id="-19410">
		<tag k="name" v="Londalsbekken" />
		<tag k="ssr:stedsnr" v="64979" />
		<tag k="waterway" v="stream" />
	</node>
	<node lat="59.74583055734216" lon="8.543805559778281" id="-19415">
		<tag k="alt_name" v="Beksletjørnan" />
		<tag k="name" v="Beksletjønn" />
=======
	<node id="-454437" lat="59.696594355" lon="8.53999518627">
		<tag k="alt_name" v="Fyribøenvatn" />
		<tag k="name" v="Fyribøvatnet" />
		<tag k="natural" v="water" />
		<tag k="ssr:stedsnr" v="549629" />
	</node>
	<node id="-454436" lat="59.686430556" lon="8.53951666238">
		<tag k="alt_name" v="Langetjørn" />
		<tag k="name" v="Langetjønn" />
>>>>>>> e1d4bc35ff8a6074a6f2e91616a996b547c36f15
		<tag k="natural" v="water" />
		<tag k="ssr:stedsnr" v="245523" />
	</node>
<<<<<<< HEAD
	<node lat="59.67997777957482" lon="8.893986115409563" id="-19418">
		<tag k="alt_name" v="Løgndalsbekken" />
		<tag k="name" v="Lyngdalsbekken" />
		<tag k="ssr:stedsnr" v="246168" />
		<tag k="waterway" v="stream" />
	</node>
	<node lat="59.67867777904821" lon="8.8226611069433" id="-19423">
		<tag k="alt_name" v="Husevatn" />
		<tag k="name" v="Husevatnet" />
=======
	<node id="-454435" lat="59.6991000009" lon="8.49959721944">
		<tag k="name" v="Skjesåi" />
		<tag k="ssr:stedsnr" v="549617" />
		<tag k="waterway" v="river" />
	</node>
	<node id="-454428" lat="59.7071944458" lon="8.66501945116">
		<tag k="alt_name" v="Blåtjønn" />
		<tag k="name" v="Blåtjørn" />
>>>>>>> e1d4bc35ff8a6074a6f2e91616a996b547c36f15
		<tag k="natural" v="water" />
		<tag k="ssr:stedsnr" v="246643" />
	</node>
<<<<<<< HEAD
	<node lat="59.71893333272395" lon="8.80977500800022" id="-19425">
		<tag k="alt_name" v="Råstultjørni" />
		<tag k="name" v="Råstultjønn" />
		<tag k="natural" v="water" />
		<tag k="ssr:stedsnr" v="246567" />
	</node>
	<node lat="59.659063892862385" lon="8.714194443884098" id="-19428">
		<tag k="alt_name" v="Blåtjørn" />
		<tag k="name" v="Blåtjønn" />
=======
	<node id="-454419" lat="59.7365666678" lon="8.47530832801">
		<tag k="alt_name" v="Langetjørn" />
		<tag k="name" v="Langetjønn" />
		<tag k="natural" v="water" />
		<tag k="ssr:stedsnr" v="549529" />
	</node>
	<node id="-454417" lat="59.5837249967" lon="9.14110000208">
		<tag k="name" v="Heddøla" />
		<tag k="ssr:stedsnr" v="549402" />
		<tag k="waterway" v="river" />
	</node>
	<node id="-454413" lat="59.5872180468" lon="8.96907151674">
		<tag k="alt_name" v="Nystultjønn" />
		<tag k="name" v="Nystulvatnet" />
>>>>>>> e1d4bc35ff8a6074a6f2e91616a996b547c36f15
		<tag k="natural" v="water" />
		<tag k="ssr:stedsnr" v="246666" />
	</node>
<<<<<<< HEAD
	<node lat="59.64829444488142" lon="8.678788894091682" id="-19429">
		<tag k="alt_name" v="Vatnartjørnan" />
		<tag k="name" v="Vatnartjønnan" />
		<tag k="natural" v="water" />
		<tag k="ssr:stedsnr" v="246667" />
		<tag k="water" v="lake" />
	</node>
	<node lat="59.696475003598955" lon="8.801036108027574" id="-19431">
		<tag k="alt_name" v="Langetjønn" />
		<tag k="name" v="Langetjørn" />
		<tag k="natural" v="water" />
		<tag k="ssr:stedsnr" v="246649" />
	</node>
	<node lat="59.62236389267001" lon="8.759124998060484" id="-19433">
		<tag k="name" v="Tjørnfløya" />
=======
	<node id="-454411" lat="59.7335972264" lon="8.46166388716">
		<tag k="name" v="Åtoåi" />
		<tag k="ssr:stedsnr" v="549226" />
		<tag k="waterway" v="river" />
	</node>
	<node id="-454410" lat="59.6323666637" lon="9.00601111519">
		<tag k="name" v="Ørvella" />
		<tag k="ssr:stedsnr" v="549205" />
		<tag k="waterway" v="river" />
	</node>
	<node id="-454407" lat="59.7132027737" lon="8.88493889738">
		<tag k="alt_name" v="Svarttjørn" />
		<tag k="name" v="Svartetjønn" />
>>>>>>> e1d4bc35ff8a6074a6f2e91616a996b547c36f15
		<tag k="natural" v="water" />
		<tag k="ssr:stedsnr" v="246793" />
	</node>
<<<<<<< HEAD
	<node lat="59.75264166385033" lon="8.836316672896965" id="-19445">
		<tag k="name" v="Deilbekken" />
		<tag k="ssr:stedsnr" v="97313" />
		<tag k="waterway" v="stream" />
	</node>
	<node lat="59.84084166865672" lon="8.51774166059036" id="-19446">
		<tag k="name" v="Skriubekken" />
		<tag k="ssr:stedsnr" v="247845" />
		<tag k="waterway" v="stream" />
	</node>
	<node lat="59.77637500180377" lon="8.54260833782877" id="-19452">
		<tag k="name" v="Vindsjådammen" />
		<tag k="ssr:stedsnr" v="105194" />
		<tag k="waterway" v="dam" />
	</node>
	<node lat="59.84228888967848" lon="8.808463888777652" id="-19455">
		<tag k="name" v="Andordalsåa" />
		<tag k="ssr:stedsnr" v="105979" />
		<tag k="waterway" v="river" />
	</node>
	<node lat="59.64245555280604" lon="8.680963883894044" id="-19456">
		<tag k="name" v="Langelitjønn" />
=======
	<node id="-454391" lat="59.5932888887" lon="8.68707222551">
		<tag k="name" v="Dålåbekken" />
		<tag k="ssr:stedsnr" v="531722" />
		<tag k="waterway" v="stream" />
	</node>
	<node id="-454390" lat="59.6209222198" lon="8.8917249932">
		<tag k="name" v="Hanfoss" />
		<tag k="natural" v="waterfall" />
		<tag k="ssr:stedsnr" v="531720" />
	</node>
	<node id="-454376" lat="59.6136944449" lon="8.95548333471">
		<tag k="name" v="Åmotshølen" />
		<tag k="place" v="locality" />
		<tag k="ssr:stedsnr" v="530242" />
	</node>
	<node id="-454375" lat="59.6563999988" lon="8.78602500689">
		<tag k="name" v="Påleholstjønn" />
>>>>>>> e1d4bc35ff8a6074a6f2e91616a996b547c36f15
		<tag k="natural" v="water" />
		<tag k="ssr:stedsnr" v="105981" />
	</node>
<<<<<<< HEAD
	<node lat="59.62519444659517" lon="8.590222225570443" id="-19459">
		<tag k="name" v="Krokberget" />
		<tag k="place" v="locality" />
		<tag k="ssr:stedsnr" v="106400" />
	</node>
	<node lat="59.61799999799938" lon="8.683480547559748" id="-19463">
		<tag k="name" v="Vesleå" />
		<tag k="ssr:stedsnr" v="107025" />
		<tag k="waterway" v="stream" />
	</node>
	<node lat="59.59528332957771" lon="8.887305563975877" id="-19466">
		<tag k="name" v="Høymyrtjønn" />
=======
	<node id="-454374" lat="59.7914361139" lon="8.882072215">
		<tag k="name" v="Kåløyene" />
		<tag k="place" v="island" />
		<tag k="ssr:stedsnr" v="529942" />
	</node>
	<node id="-454369" lat="59.7546333323" lon="8.68841944715">
		<tag k="name" v="Ulekiltangen" />
		<tag k="natural" v="cape" />
		<tag k="ssr:stedsnr" v="529928" />
	</node>
	<node id="-454359" lat="59.7815416633" lon="8.71005278092">
		<tag k="alt_name" v="Blåtjørn" />
		<tag k="name" v="Blåtjønn" />
>>>>>>> e1d4bc35ff8a6074a6f2e91616a996b547c36f15
		<tag k="natural" v="water" />
		<tag k="ssr:stedsnr" v="107684" />
	</node>
<<<<<<< HEAD
	<node lat="59.583800003946976" lon="8.960802776453502" id="-19468">
		<tag k="name" v="Tjønnholbekken" />
		<tag k="ssr:stedsnr" v="107803" />
		<tag k="waterway" v="stream" />
	</node>
	<node lat="59.722849996790906" lon="8.613691661372403" id="-19474">
		<tag k="name" v="Kovvatnet" />
=======
	<node id="-454358" lat="59.7834916625" lon="8.66641111698">
		<tag k="name" v="Bonsåi" />
		<tag k="ssr:stedsnr" v="429975" />
		<tag k="waterway" v="river" />
	</node>
	<node id="-454355" lat="59.7912527741" lon="8.72149444252">
		<tag k="alt_name" v="Myrstultjørni" />
		<tag k="name" v="Myrstultjønn" />
>>>>>>> e1d4bc35ff8a6074a6f2e91616a996b547c36f15
		<tag k="natural" v="water" />
		<tag k="ssr:stedsnr" v="124502" />
		<tag k="water" v="lake" />
	</node>
<<<<<<< HEAD
	<node lat="59.71895555830745" lon="8.72083056143188" id="-19475">
		<tag k="name" v="Mydøla" />
		<tag k="ssr:stedsnr" v="124505" />
		<tag k="waterway" v="river" />
	</node>
	<node lat="59.717508332948704" lon="8.623069452577818" id="-19478">
		<tag k="name" v="Fjelltjørn" />
		<tag k="natural" v="water" />
		<tag k="ssr:stedsnr" v="124508" />
	</node>
	<node lat="59.699044442978" lon="8.707761109396815" id="-19481">
		<tag k="name" v="Hånådalsbekken" />
		<tag k="ssr:stedsnr" v="124528" />
		<tag k="waterway" v="stream" />
	</node>
	<node lat="59.684950002558296" lon="8.777749997259763" id="-19488">
		<tag k="name" v="Åsetjørnan" />
=======
	<node id="-454354" lat="59.5286194423" lon="8.73847499826">
		<tag k="name" v="Grunnåi" />
		<tag k="ssr:stedsnr" v="428984" />
		<tag k="waterway" v="river" />
	</node>
	<node id="-454351" lat="59.609916671" lon="8.71875832611">
		<tag k="name" v="Brubekk" />
		<tag k="ssr:stedsnr" v="428798" />
		<tag k="waterway" v="stream" />
	</node>
	<node id="-454345" lat="59.8179027799" lon="8.50188610372">
		<tag k="alt_name" v="Langetjørn" />
		<tag k="name" v="Langetjønn" />
>>>>>>> e1d4bc35ff8a6074a6f2e91616a996b547c36f15
		<tag k="natural" v="water" />
		<tag k="ssr:stedsnr" v="124616" />
	</node>
<<<<<<< HEAD
	<node lat="59.67345832949315" lon="8.588855550616913" id="-19491">
		<tag k="alt_name" v="Nytjørn, s;Nytjønna øvre" />
		<tag k="name" v="Øvre Nytjønna" />
=======
	<node id="-454341" lat="59.6850527789" lon="8.71526944659">
		<tag k="alt_name" v="Sveinungshovdtjørna" />
		<tag k="name" v="Sveinungshøvdtjønn" />
>>>>>>> e1d4bc35ff8a6074a6f2e91616a996b547c36f15
		<tag k="natural" v="water" />
		<tag k="ssr:stedsnr" v="124656" />
	</node>
<<<<<<< HEAD
	<node lat="59.5856194478407" lon="8.791863882393043" id="-19495">
		<tag k="alt_name" v="Kroktjørn" />
		<tag k="name" v="Kroktjønn" />
=======
	<node id="-454339" lat="59.7130861144" lon="8.74891111976">
		<tag k="alt_name" v="Hånådalsvatn" />
		<tag k="name" v="Hånådalsvatnet" />
>>>>>>> e1d4bc35ff8a6074a6f2e91616a996b547c36f15
		<tag k="natural" v="water" />
		<tag k="ssr:stedsnr" v="124911" />
	</node>
<<<<<<< HEAD
	<node lat="59.805900002243284" lon="8.603891666345335" id="-19497">
		<tag k="alt_name" v="Grotbekkbukta" />
		<tag k="name" v="Grotbekkbukti" />
		<tag k="natural" v="bay" />
		<tag k="ssr:stedsnr" v="125767" />
	</node>
	<node lat="59.83939999557882" lon="8.827188897109611" id="-19502">
		<tag k="alt_name" v="Risbutjørni" />
		<tag k="name" v="Risbutjønn" />
=======
	<node id="-454337" lat="59.7017250006" lon="8.75680833684">
		<tag k="alt_name" v="Skimyrvatnet" />
		<tag k="name" v="Skimyrvatn" />
		<tag k="natural" v="water" />
		<tag k="ssr:stedsnr" v="428544" />
		<tag k="water" v="lake" />
	</node>
	<node id="-454329" lat="59.7998333317" lon="8.43202778253">
		<tag k="alt_name" v="Gråtjørn" />
		<tag k="name" v="Gråtjønn" />
>>>>>>> e1d4bc35ff8a6074a6f2e91616a996b547c36f15
		<tag k="natural" v="water" />
		<tag k="ssr:stedsnr" v="125831" />
	</node>
<<<<<<< HEAD
	<node lat="59.82639167111632" lon="8.534183335170065" id="-19503">
		<tag k="alt_name" v="Nåpåtjørn, nordre;Nåpåtjønn nordre" />
		<tag k="name" v="Nordre Nåpåtjønn" />
		<tag k="natural" v="water" />
		<tag k="ssr:stedsnr" v="125839" />
	</node>
	<node lat="59.82823611326722" lon="8.802963896182174" id="-19504">
		<tag k="alt_name" v="Skjertjørn" />
		<tag k="name" v="Skjertjønn" />
=======
	<node id="-454328" lat="59.6001553477" lon="8.97292564817">
		<tag k="name" v="Fagertjørna" />
		<tag k="natural" v="water" />
		<tag k="ssr:stedsnr" v="428330" />
	</node>
	<node id="-454318" lat="59.65608889" lon="8.84796110762">
		<tag k="alt_name" v="Rodalsløken" />
		<tag k="name" v="Rådalsløken" />
		<tag k="ssr:stedsnr" v="428205" />
		<tag k="waterway" v="stream" />
	</node>
	<node id="-454317" lat="59.7076499957" lon="8.89274444226">
		<tag k="alt_name" v="Juvstjønn" />
		<tag k="name" v="Gjuvstjørn" />
>>>>>>> e1d4bc35ff8a6074a6f2e91616a996b547c36f15
		<tag k="natural" v="water" />
		<tag k="ssr:stedsnr" v="125841" />
	</node>
<<<<<<< HEAD
	<node lat="59.74900277429121" lon="8.693563887383268" id="-19512">
		<tag k="name" v="Klingertjønn" />
=======
	<node id="-454316" lat="59.739838893" lon="8.51811111946">
		<tag k="name" v="Nåpåtjørnan" />
>>>>>>> e1d4bc35ff8a6074a6f2e91616a996b547c36f15
		<tag k="natural" v="water" />
		<tag k="ssr:stedsnr" v="165921" />
	</node>
<<<<<<< HEAD
	<node lat="59.6152027783041" lon="8.953383336393731" id="-19513">
		<tag k="name" v="Vadøya" />
		<tag k="place" v="island" />
		<tag k="ssr:stedsnr" v="166212" />
	</node>
	<node lat="59.58715277649774" lon="8.840027773305179" id="-19515">
		<tag k="name" v="Flisetjønn" />
=======
	<node id="-454315" lat="59.7479500018" lon="8.59568055538">
		<tag k="alt_name" v="Risbutjørni, s;Risbutjønn søndre" />
		<tag k="name" v="Søndre Risbutjønn" />
		<tag k="natural" v="water" />
		<tag k="ssr:stedsnr" v="427552" />
	</node>
	<node id="-454314" lat="59.6687777805" lon="8.77333056274">
		<tag k="alt_name" v="Østenstjørna" />
		<tag k="name" v="Østenstjønn" />
>>>>>>> e1d4bc35ff8a6074a6f2e91616a996b547c36f15
		<tag k="natural" v="water" />
		<tag k="ssr:stedsnr" v="166966" />
	</node>
<<<<<<< HEAD
	<node lat="59.60588611407586" lon="8.578877773231913" id="-19521">
		<tag k="name" v="Møyretjønn" />
		<tag k="natural" v="water" />
		<tag k="ssr:stedsnr" v="167717" />
	</node>
	<node lat="59.59489166663652" lon="8.767594439161146" id="-19537">
		<tag k="name" v="Matkleppbekken" />
		<tag k="ssr:stedsnr" v="185835" />
		<tag k="waterway" v="stream" />
	</node>
	<node lat="59.784225003727606" lon="8.828088895727538" id="-19545">
		<tag k="name" v="Grimestulbekken" />
		<tag k="ssr:stedsnr" v="186997" />
		<tag k="waterway" v="stream" />
	</node>
	<node lat="59.639569440914194" lon="8.663191668802199" id="-19552">
		<tag k="name" v="Volabakktjønn" />
=======
	<node id="-454312" lat="59.7771910327" lon="8.49302575856">
		<tag k="name" v="Sandtjønn" />
		<tag k="natural" v="water" />
		<tag k="ssr:stedsnr" v="411013" />
	</node>
	<node id="-454304" lat="59.6363694408" lon="8.68606944222">
		<tag k="name" v="Damtjønn øvre" />
		<tag k="natural" v="water" />
		<tag k="ssr:stedsnr" v="410056" />
	</node>
	<node id="-454287" lat="59.7831694432" lon="8.66389166683">
		<tag k="name" v="Bonsdam" />
		<tag k="ssr:stedsnr" v="409165" />
		<tag k="waterway" v="dam" />
	</node>
	<node id="-454285" lat="59.6219027794" lon="8.90497778603">
		<tag k="name" v="Svangebekk" />
		<tag k="ssr:stedsnr" v="409047" />
		<tag k="waterway" v="stream" />
	</node>
	<node id="-454278" lat="59.752655555" lon="8.7011750066">
		<tag k="name" v="Torestjønn" />
>>>>>>> e1d4bc35ff8a6074a6f2e91616a996b547c36f15
		<tag k="natural" v="water" />
		<tag k="ssr:stedsnr" v="226196" />
	</node>
<<<<<<< HEAD
	<node lat="59.63553333684165" lon="8.868225008363279" id="-19559">
		<tag k="name" v="Søndre Trytetjønn" />
		<tag k="natural" v="water" />
		<tag k="ssr:stedsnr" v="227692" />
	</node>
	<node lat="59.60670833069038" lon="8.675641660419188" id="-19563">
		<tag k="name" v="Gjerå" />
		<tag k="ssr:stedsnr" v="228393" />
		<tag k="waterway" v="stream" />
	</node>
	<node lat="59.61590277774364" lon="8.818552779814683" id="-19564">
		<tag k="name" v="Lonarøyen" />
		<tag k="place" v="island" />
		<tag k="ssr:stedsnr" v="228706" />
	</node>
	<node lat="59.71899444215857" lon="8.895019444861317" id="-19573">
		<tag k="name" v="Hyttlibekken" />
		<tag k="ssr:stedsnr" v="246102" />
		<tag k="waterway" v="stream" />
	</node>
	<node lat="59.69443055782147" lon="8.902219446420816" id="-19578">
		<tag k="name" v="Bonetjørn" />
=======
	<node id="-454277" lat="59.7792972236" lon="8.8829083408">
		<tag k="name" v="Kåla" />
		<tag k="ssr:stedsnr" v="408919" />
		<tag k="waterway" v="river" />
	</node>
	<node id="-454275" lat="59.7932027796" lon="8.7928500011">
		<tag k="name" v="Dekkane" />
		<tag k="ssr:stedsnr" v="408888" />
		<tag k="waterway" v="stream" />
	</node>
	<node id="-454273" lat="59.7311138873" lon="8.83513889162">
		<tag k="name" v="Husebekken" />
		<tag k="ssr:stedsnr" v="408401" />
		<tag k="waterway" v="stream" />
	</node>
	<node id="-454271" lat="59.672563888" lon="8.6802499963">
		<tag k="name" v="Mørketjønn" />
>>>>>>> e1d4bc35ff8a6074a6f2e91616a996b547c36f15
		<tag k="natural" v="water" />
		<tag k="ssr:stedsnr" v="246163" />
	</node>
<<<<<<< HEAD
	<node lat="59.738030556712864" lon="8.734636111044356" id="-19579">
		<tag k="alt_name" v="Sveigstjørn" />
		<tag k="name" v="Sveigstjønn" />
=======
	<node id="-454267" lat="59.6965083327" lon="8.61995277991">
		<tag k="name" v="Hesteskodiket" />
>>>>>>> e1d4bc35ff8a6074a6f2e91616a996b547c36f15
		<tag k="natural" v="water" />
		<tag k="ssr:stedsnr" v="246504" />
	</node>
<<<<<<< HEAD
	<node lat="59.73556389162629" lon="8.717441668112473" id="-19580">
		<tag k="name" v="Kova" />
		<tag k="ssr:stedsnr" v="246505" />
		<tag k="waterway" v="river" />
	</node>
	<node lat="59.63737777805411" lon="8.815236117649457" id="-19582">
		<tag k="name" v="Skorva" />
		<tag k="ssr:stedsnr" v="246712" />
		<tag k="waterway" v="river" />
	</node>
	<node lat="59.569052775987025" lon="8.82838888833889" id="-19591">
		<tag k="name" v="Mjella" />
		<tag k="ssr:stedsnr" v="246903" />
		<tag k="waterway" v="stream" />
	</node>
	<node lat="59.826083337785924" lon="8.824719452797424" id="-19596">
		<tag k="alt_name" v="Tindultjørn" />
		<tag k="name" v="Tindultjønn" />
=======
	<node id="-454265" lat="59.7567805591" lon="8.77373055099">
		<tag k="name" v="Båntjønn" />
>>>>>>> e1d4bc35ff8a6074a6f2e91616a996b547c36f15
		<tag k="natural" v="water" />
		<tag k="ssr:stedsnr" v="246809" />
	</node>
<<<<<<< HEAD
	<node lat="59.77078889299006" lon="8.831755553520845" id="-19599">
		<tag k="alt_name" v="Longetjørn" />
		<tag k="name" v="Langetjønn" />
=======
	<node id="-454260" lat="59.7855583347" lon="8.82393332476">
		<tag k="alt_name" v="Grastjørn" />
		<tag k="name" v="Grastjønn" />
>>>>>>> e1d4bc35ff8a6074a6f2e91616a996b547c36f15
		<tag k="natural" v="water" />
		<tag k="ssr:stedsnr" v="246966" />
	</node>
<<<<<<< HEAD
	<node lat="59.83540833703108" lon="8.710563887321584" id="-19600">
		<tag k="name" v="Stavsrobekken" />
		<tag k="ssr:stedsnr" v="247809" />
		<tag k="waterway" v="stream" />
	</node>
	<node lat="59.8276305580021" lon="8.742986103127828" id="-19603">
		<tag k="alt_name" v="Budeitjørn" />
		<tag k="name" v="Budeitjønn" />
		<tag k="natural" v="water" />
		<tag k="ssr:stedsnr" v="247814" />
	</node>
	<node lat="59.78682499810262" lon="8.695880549873388" id="-19604">
		<tag k="alt_name" v="Blåtjørnbekken" />
		<tag k="name" v="Blåtjønnbekken" />
		<tag k="ssr:stedsnr" v="247973" />
		<tag k="waterway" v="stream" />
	</node>
	<node lat="59.7791805580614" lon="8.649161110889155" id="-19605">
		<tag k="alt_name" v="Kilebukta" />
		<tag k="name" v="Kilebukti" />
		<tag k="natural" v="bay" />
		<tag k="ssr:stedsnr" v="247977" />
	</node>
	<node lat="59.746522223992194" lon="8.797141664617763" id="-19606">
		<tag k="name" v="Sundet" />
		<tag k="place" v="locality" />
		<tag k="ssr:stedsnr" v="279313" />
	</node>
	<node lat="59.65889444008812" lon="8.663280559744788" id="-19612">
		<tag k="name" v="Raubekk" />
		<tag k="ssr:stedsnr" v="287194" />
		<tag k="waterway" v="stream" />
	</node>
	<node lat="59.6097527733429" lon="8.796277774948097" id="-19620">
		<tag k="name" v="Svørting" />
		<tag k="ssr:stedsnr" v="288602" />
		<tag k="waterway" v="river" />
	</node>
	<node lat="59.6293972190124" lon="8.74923054785068" id="-19621">
		<tag k="name" v="Tverrbekk" />
		<tag k="ssr:stedsnr" v="288924" />
		<tag k="waterway" v="stream" />
	</node>
	<node lat="59.55720555184743" lon="8.799002785202784" id="-19623">
		<tag k="name" v="Sudslåkabekken" />
		<tag k="ssr:stedsnr" v="288876" />
		<tag k="waterway" v="stream" />
	</node>
	<node lat="59.619052779893494" lon="8.790844450644277" id="-19624">
		<tag k="name" v="Raudbekk" />
		<tag k="ssr:stedsnr" v="288884" />
		<tag k="waterway" v="stream" />
	</node>
	<node lat="59.71021666586756" lon="8.898963882231273" id="-19638">
		<tag k="alt_name" v="Fisketjørn" />
		<tag k="name" v="Fisketjønn" />
=======
	<node id="-454259" lat="59.8353833329" lon="8.51846111037">
		<tag k="name" v="Måråstadåi" />
		<tag k="ssr:stedsnr" v="368886" />
		<tag k="waterway" v="stream" />
	</node>
	<node id="-454258" lat="59.8333361135" lon="8.56369722831">
		<tag k="name" v="Heddevassåi" />
		<tag k="ssr:stedsnr" v="368884" />
		<tag k="waterway" v="stream" />
	</node>
	<node id="-454257" lat="59.8432361088" lon="8.51412222191">
		<tag k="alt_name" v="Svartetjørn" />
		<tag k="name" v="Svartetjønn" />
		<tag k="natural" v="water" />
		<tag k="ssr:stedsnr" v="368873" />
	</node>
	<node id="-454256" lat="59.8357777738" lon="8.82202777909">
		<tag k="alt_name" v="Aurestjørn" />
		<tag k="name" v="Aurestjønn" />
		<tag k="natural" v="water" />
		<tag k="ssr:stedsnr" v="368848" />
	</node>
	<node id="-454253" lat="59.8124749966" lon="8.60161944141">
		<tag k="alt_name" v="Skinandvatn" />
		<tag k="name" v="Skinanvatnet" />
		<tag k="natural" v="water" />
		<tag k="ssr:stedsnr" v="368832" />
		<tag k="water" v="lake" />
	</node>
	<node id="-454251" lat="59.7908666706" lon="8.72915833164">
		<tag k="alt_name" v="Åråhovdetjørni" />
		<tag k="name" v="Åråhøvdtjønn" />
		<tag k="natural" v="water" />
		<tag k="ssr:stedsnr" v="368813" />
	</node>
	<node id="-454244" lat="59.7691245807" lon="8.72847797079">
		<tag k="alt_name" v="Fikstjørn" />
		<tag k="name" v="Fikstjønn" />
		<tag k="natural" v="water" />
		<tag k="ssr:stedsnr" v="367931" />
	</node>
	<node id="-454237" lat="59.8188138872" lon="8.60880556251">
		<tag k="alt_name" v="Svarttjørn" />
		<tag k="name" v="Svarttjønn" />
		<tag k="natural" v="water" />
		<tag k="ssr:stedsnr" v="367818" />
	</node>
	<node id="-454236" lat="59.8256777744" lon="8.77674166843">
		<tag k="alt_name" v="Nåpåltjønn" />
		<tag k="name" v="Nåpåtjørn" />
		<tag k="natural" v="water" />
		<tag k="ssr:stedsnr" v="367806" />
	</node>
	<node id="-454230" lat="59.8110555514" lon="8.4795777795">
		<tag k="alt_name" v="Skjertjørn" />
		<tag k="name" v="Skjertjønn" />
>>>>>>> e1d4bc35ff8a6074a6f2e91616a996b547c36f15
		<tag k="natural" v="water" />
		<tag k="ssr:stedsnr" v="306081" />
	</node>
<<<<<<< HEAD
	<node lat="59.65053332949967" lon="8.894469438758223" id="-19640">
		<tag k="alt_name" v="Stavåi" />
		<tag k="name" v="Stavå" />
		<tag k="ssr:stedsnr" v="306215" />
		<tag k="waterway" v="stream" />
	</node>
	<node lat="59.74263610834845" lon="8.542549999898657" id="-19643">
		<tag k="alt_name" v="Blåfjelltjørni" />
		<tag k="name" v="Blåfjelltjønn" />
=======
	<node id="-454228" lat="59.6271138892" lon="8.54311111343">
		<tag k="alt_name" v="Høydalstjørnan" />
		<tag k="name" v="Høydalstjønnen" />
		<tag k="natural" v="water" />
		<tag k="ssr:stedsnr" v="367739" />
	</node>
	<node id="-454223" lat="59.6562249982" lon="8.75309999245">
		<tag k="name" v="Vesletjørn" />
>>>>>>> e1d4bc35ff8a6074a6f2e91616a996b547c36f15
		<tag k="natural" v="water" />
		<tag k="ssr:stedsnr" v="306517" />
	</node>
<<<<<<< HEAD
	<node lat="59.741774998150746" lon="8.483588880394446" id="-19644">
		<tag k="alt_name" v="Tverrfjelltjørni" />
		<tag k="name" v="Tverrfjelltjønn" />
=======
	<node id="-454221" lat="59.6372666659" lon="8.63721665803">
		<tag k="alt_name" v="Fjoshovdtjørni" />
		<tag k="name" v="Fjoshovdtjønn" />
>>>>>>> e1d4bc35ff8a6074a6f2e91616a996b547c36f15
		<tag k="natural" v="water" />
		<tag k="ssr:stedsnr" v="306521" />
	</node>
<<<<<<< HEAD
	<node lat="59.71786666504921" lon="8.8797444433823" id="-19656">
		<tag k="alt_name" v="Fisketjørnbekken" />
		<tag k="name" v="Fisketjønnbekken" />
		<tag k="ssr:stedsnr" v="307107" />
		<tag k="waterway" v="stream" />
	</node>
	<node lat="59.707833331489056" lon="8.67912499166327" id="-19657">
		<tag k="name" v="Grasdalsbekken" />
		<tag k="ssr:stedsnr" v="307617" />
		<tag k="waterway" v="stream" />
	</node>
	<node lat="59.73330832911257" lon="8.761708337655097" id="-19669">
		<tag k="name" v="Stormtjønn" />
=======
	<node id="-454217" lat="59.6685916638" lon="8.83214444368">
		<tag k="name" v="Uppstigåa" />
		<tag k="ssr:stedsnr" v="367664" />
		<tag k="waterway" v="stream" />
	</node>
	<node id="-454213" lat="59.6920916695" lon="8.54196388807">
		<tag k="name" v="Fyribøvatnet" />
>>>>>>> e1d4bc35ff8a6074a6f2e91616a996b547c36f15
		<tag k="natural" v="water" />
		<tag k="ssr:stedsnr" v="309487" />
	</node>
<<<<<<< HEAD
	<node lat="59.68759722641555" lon="8.652472223147397" id="-19674">
		<tag k="name" v="Gamsøya" />
		<tag k="place" v="island" />
		<tag k="ssr:stedsnr" v="469150" />
	</node>
	<node lat="59.640269448290255" lon="8.800388883642938" id="-19676">
		<tag k="name" v="Fårlegholsfoss" />
=======
	<node id="-454210" lat="59.72998611" lon="8.7308944491">
		<tag k="name" v="Gyvingfossen" />
>>>>>>> e1d4bc35ff8a6074a6f2e91616a996b547c36f15
		<tag k="natural" v="waterfall" />
		<tag k="ssr:stedsnr" v="469922" />
	</node>
<<<<<<< HEAD
	<node lat="59.72814444218496" lon="8.67204167112218" id="-19681">
		<tag k="name" v="Femjølklibukta" />
		<tag k="natural" v="bay" />
		<tag k="ssr:stedsnr" v="469829" />
	</node>
	<node lat="59.596986107718045" lon="8.691283324974776" id="-19682">
		<tag k="name" v="Stuvøybekken" />
		<tag k="ssr:stedsnr" v="470141" />
		<tag k="waterway" v="stream" />
	</node>
	<node lat="59.549880559071994" lon="8.847911118210384" id="-19690">
		<tag k="name" v="Illfiskskarbekken" />
		<tag k="ssr:stedsnr" v="470829" />
		<tag k="waterway" v="stream" />
	</node>
	<node lat="59.693683333236365" lon="8.875397227311028" id="-19696">
		<tag k="name" v="Skogsåi" />
		<tag k="ssr:stedsnr" v="347108" />
		<tag k="waterway" v="river" />
	</node>
	<node lat="59.711555552578936" lon="8.641983339102865" id="-19697">
		<tag k="name" v="Deledalstjønn vestre" />
		<tag k="natural" v="water" />
		<tag k="ssr:stedsnr" v="347162" />
	</node>
	<node lat="59.70887222089298" lon="8.729316675271908" id="-19698">
		<tag k="name" v="Hånådalsbekken" />
		<tag k="ssr:stedsnr" v="347458" />
		<tag k="waterway" v="stream" />
	</node>
	<node lat="59.732141671131224" lon="8.679186116814305" id="-19701">
		<tag k="name" v="Kovdammen" />
		<tag k="ssr:stedsnr" v="347854" />
		<tag k="waterway" v="dam" />
	</node>
	<node lat="59.71148332901123" lon="8.642000000361376" id="-19702">
		<tag k="name" v="Deledalstjønn vestre" />
=======
	<node id="-454202" lat="59.7159388901" lon="8.65715000247">
		<tag k="name" v="Østretjørn" />
		<tag k="natural" v="water" />
		<tag k="ssr:stedsnr" v="367522" />
	</node>
	<node id="-454199" lat="59.7335500006" lon="8.58998333846">
		<tag k="name" v="Risbuåi" />
		<tag k="ssr:stedsnr" v="367478" />
		<tag k="waterway" v="river" />
	</node>
	<node id="-454194" lat="59.6147999994" lon="8.86381388186">
		<tag k="name" v="Geita" />
		<tag k="ssr:stedsnr" v="367308" />
		<tag k="waterway" v="stream" />
	</node>
	<node id="-454192" lat="59.7671638893" lon="8.84405555343">
		<tag k="alt_name" v="Hovdeåi" />
		<tag k="name" v="Hovda" />
		<tag k="ssr:stedsnr" v="367226" />
		<tag k="waterway" v="stream" />
	</node>
	<node id="-454188" lat="59.7387000039" lon="8.88061666351">
		<tag k="name" v="Trytetjønn" />
>>>>>>> e1d4bc35ff8a6074a6f2e91616a996b547c36f15
		<tag k="natural" v="water" />
		<tag k="ssr:stedsnr" v="347872" />
	</node>
<<<<<<< HEAD
	<node lat="59.610616666107866" lon="8.943155550351278" id="-19711">
		<tag k="name" v="Lerhølen" />
		<tag k="place" v="locality" />
		<tag k="ssr:stedsnr" v="349073" />
	</node>
	<node lat="59.767163889304335" lon="8.844055553429724" id="-19722">
		<tag k="alt_name" v="Hovdeåi" />
		<tag k="name" v="Hovda" />
		<tag k="ssr:stedsnr" v="367226" />
		<tag k="waterway" v="stream" />
	</node>
	<node lat="59.73355000063991" lon="8.589983338462982" id="-19724">
		<tag k="name" v="Risbuåi" />
		<tag k="ssr:stedsnr" v="367478" />
		<tag k="waterway" v="river" />
	</node>
	<node lat="59.69209166954138" lon="8.54196388806812" id="-19726">
		<tag k="name" v="Fyribøvatnet" />
=======
	<node id="-454182" lat="59.6017444451" lon="8.7378111149">
		<tag k="name" v="Oreneset" />
		<tag k="natural" v="cape" />
		<tag k="ssr:stedsnr" v="349977" />
	</node>
	<node id="-454180" lat="59.5544777737" lon="8.83202222709">
		<tag k="name" v="Lortholbekken" />
		<tag k="ssr:stedsnr" v="349897" />
		<tag k="waterway" v="stream" />
	</node>
	<node id="-454162" lat="59.6545222237" lon="8.67250277988">
		<tag k="name" v="Hyttetjønn" />
>>>>>>> e1d4bc35ff8a6074a6f2e91616a996b547c36f15
		<tag k="natural" v="water" />
		<tag k="ssr:stedsnr" v="367624" />
		<tag k="water" v="lake" />
	</node>
<<<<<<< HEAD
	<node lat="59.7299861100322" lon="8.73089444909871" id="-19728">
		<tag k="name" v="Gyvingfossen" />
		<tag k="natural" v="waterfall" />
		<tag k="ssr:stedsnr" v="367580" />
	</node>
	<node lat="59.63726666594697" lon="8.637216658030775" id="-19731">
		<tag k="alt_name" v="Fjoshovdtjørni" />
		<tag k="name" v="Fjoshovdtjønn" />
=======
	<node id="-454158" lat="59.752936108" lon="8.68563055706">
		<tag k="name" v="Lambeskjer" />
		<tag k="place" v="island" />
		<tag k="ssr:stedsnr" v="347938" />
	</node>
	<node id="-454148" lat="59.7333083291" lon="8.76170833766">
		<tag k="name" v="Stormtjønn" />
>>>>>>> e1d4bc35ff8a6074a6f2e91616a996b547c36f15
		<tag k="natural" v="water" />
		<tag k="ssr:stedsnr" v="367716" />
	</node>
<<<<<<< HEAD
	<node lat="59.65622499817777" lon="8.753099992447542" id="-19733">
		<tag k="name" v="Vesletjørn" />
=======
	<node id="-454144" lat="59.7932249989" lon="8.82969999226">
		<tag k="alt_name" v="Flåtåtjørn" />
		<tag k="name" v="Flåtåtjønn" />
>>>>>>> e1d4bc35ff8a6074a6f2e91616a996b547c36f15
		<tag k="natural" v="water" />
		<tag k="ssr:stedsnr" v="367726" />
	</node>
<<<<<<< HEAD
	<node lat="59.825677774350524" lon="8.776741668428873" id="-19740">
		<tag k="alt_name" v="Nåpåltjønn" />
		<tag k="name" v="Nåpåtjørn" />
		<tag k="natural" v="water" />
		<tag k="ssr:stedsnr" v="367806" />
	</node>
	<node lat="59.818813887157035" lon="8.608805562513414" id="-19741">
		<tag k="alt_name" v="Svarttjørn" />
		<tag k="name" v="Svarttjønn" />
		<tag k="natural" v="water" />
		<tag k="ssr:stedsnr" v="367818" />
	</node>
	<node lat="59.843236108808014" lon="8.514122221913805" id="-19744">
		<tag k="alt_name" v="Svartetjørn" />
		<tag k="name" v="Svartetjønn" />
=======
	<node id="-454127" lat="59.8215944429" lon="8.60527778107">
		<tag k="alt_name" v="Svarttjørnodden" />
		<tag k="name" v="Svarttjønnodden" />
		<tag k="natural" v="cape" />
		<tag k="ssr:stedsnr" v="307840" />
	</node>
	<node id="-454126" lat="59.8249111101" lon="8.59848889727">
		<tag k="alt_name" v="Heddevatnet" />
		<tag k="name" v="Heddevatn" />
		<tag k="natural" v="water" />
		<tag k="ssr:stedsnr" v="307838" />
		<tag k="water" v="lake" />
	</node>
	<node id="-454124" lat="59.8291277746" lon="8.75265832959">
		<tag k="name" v="Heddersos" />
		<tag k="natural" v="bay" />
		<tag k="ssr:stedsnr" v="307833" />
	</node>
	<node id="-454120" lat="59.8366166654" lon="8.72990832496">
		<tag k="alt_name" v="Brureskjær" />
		<tag k="name" v="Brureskjer" />
		<tag k="natural" v="cape" />
		<tag k="ssr:stedsnr" v="307817" />
	</node>
	<node id="-454119" lat="59.8357694462" lon="8.73613888887">
		<tag k="alt_name" v="Heddersvatnet" />
		<tag k="name" v="Heddersvatn" />
>>>>>>> e1d4bc35ff8a6074a6f2e91616a996b547c36f15
		<tag k="natural" v="water" />
		<tag k="ssr:stedsnr" v="368873" />
	</node>
<<<<<<< HEAD
	<node lat="59.83333611350666" lon="8.563697228309653" id="-19745">
		<tag k="name" v="Heddevassåi" />
		<tag k="ssr:stedsnr" v="368884" />
		<tag k="waterway" v="stream" />
	</node>
	<node lat="59.8353833328641" lon="8.518461110368223" id="-19746">
		<tag k="name" v="Måråstadåi" />
		<tag k="ssr:stedsnr" v="368886" />
		<tag k="waterway" v="stream" />
	</node>
	<node lat="59.82476111296874" lon="8.652308336362086" id="-19749">
		<tag k="name" v="Listulåe" />
		<tag k="ssr:stedsnr" v="407852" />
		<tag k="waterway" v="stream" />
	</node>
	<node lat="59.731113887311714" lon="8.835138891621805" id="-19752">
		<tag k="name" v="Husebekken" />
		<tag k="ssr:stedsnr" v="408401" />
		<tag k="waterway" v="stream" />
	</node>
	<node lat="59.680922221375994" lon="8.667277772628662" id="-19753">
		<tag k="name" v="Åndetjønn" />
=======
	<node id="-454118" lat="59.8373916676" lon="8.83591389328">
		<tag k="name" v="Risbuåi" />
		<tag k="ssr:stedsnr" v="307814" />
		<tag k="waterway" v="stream" />
	</node>
	<node id="-454113" lat="59.7893888914" lon="8.6998277729">
		<tag k="alt_name" v="Fossebekken" />
		<tag k="name" v="Fossebekk" />
		<tag k="ssr:stedsnr" v="307776" />
		<tag k="waterway" v="stream" />
	</node>
	<node id="-454111" lat="59.7971499978" lon="8.68149167365">
		<tag k="name" v="Gausdøla" />
		<tag k="ssr:stedsnr" v="307772" />
		<tag k="waterway" v="river" />
	</node>
	<node id="-454105" lat="59.7078333315" lon="8.67912499166">
		<tag k="name" v="Grasdalsbekken" />
		<tag k="ssr:stedsnr" v="307617" />
		<tag k="waterway" v="stream" />
	</node>
	<node id="-454104" lat="59.8249555581" lon="8.45681943672">
		<tag k="alt_name" v="Tondertjørni" />
		<tag k="name" v="Tandertjønn" />
		<tag k="natural" v="water" />
		<tag k="ssr:stedsnr" v="307426" />
	</node>
	<node id="-454103" lat="59.5696944483" lon="8.74325278142">
		<tag k="alt_name" v="Londalsvatn" />
		<tag k="name" v="Londalsvatnet" />
>>>>>>> e1d4bc35ff8a6074a6f2e91616a996b547c36f15
		<tag k="natural" v="water" />
		<tag k="ssr:stedsnr" v="408803" />
	</node>
<<<<<<< HEAD
	<node lat="59.699363886852815" lon="8.677908339524134" id="-19754">
		<tag k="name" v="Mydøla" />
		<tag k="ssr:stedsnr" v="408804" />
		<tag k="waterway" v="river" />
	</node>
	<node lat="59.67256388798012" lon="8.680249996299645" id="-19755">
		<tag k="name" v="Mørketjønn" />
=======
	<node id="-454095" lat="59.6234138905" lon="8.6351500053">
		<tag k="name" v="Torslandbekken" />
		<tag k="ssr:stedsnr" v="306795" />
		<tag k="waterway" v="stream" />
	</node>
	<node id="-454082" lat="59.7417749982" lon="8.48358888039">
		<tag k="alt_name" v="Tverrfjelltjørni" />
		<tag k="name" v="Tverrfjelltjønn" />
>>>>>>> e1d4bc35ff8a6074a6f2e91616a996b547c36f15
		<tag k="natural" v="water" />
		<tag k="ssr:stedsnr" v="408826" />
	</node>
<<<<<<< HEAD
	<node lat="59.77929722358876" lon="8.882908340795993" id="-19758">
		<tag k="name" v="Kåla" />
		<tag k="ssr:stedsnr" v="408919" />
		<tag k="waterway" v="river" />
	</node>
	<node lat="59.75265555495729" lon="8.701175006602792" id="-19759">
		<tag k="name" v="Torestjønn" />
		<tag k="natural" v="water" />
		<tag k="ssr:stedsnr" v="408920" />
	</node>
	<node lat="59.59202777402273" lon="8.952424994275653" id="-19779">
		<tag k="alt_name" v="Tjørnlitjørna" />
		<tag k="name" v="Tjønnlitjønna" />
=======
	<node id="-454081" lat="59.7426361083" lon="8.5425499999">
		<tag k="alt_name" v="Blåfjelltjørni" />
		<tag k="name" v="Blåfjelltjønn" />
		<tag k="natural" v="water" />
		<tag k="ssr:stedsnr" v="306517" />
	</node>
	<node id="-454071" lat="59.6505333295" lon="8.89446943876">
		<tag k="alt_name" v="Stavåi" />
		<tag k="name" v="Stavå" />
		<tag k="ssr:stedsnr" v="306215" />
		<tag k="waterway" v="stream" />
	</node>
	<node id="-454067" lat="59.7102166659" lon="8.89896388223">
		<tag k="alt_name" v="Fisketjørn" />
		<tag k="name" v="Fisketjønn" />
>>>>>>> e1d4bc35ff8a6074a6f2e91616a996b547c36f15
		<tag k="natural" v="water" />
		<tag k="ssr:stedsnr" v="488294" />
	</node>
<<<<<<< HEAD
	<node lat="59.60322500187089" lon="8.844638883087624" id="-19781">
		<tag k="alt_name" v="Tjørnstulbekken" />
		<tag k="name" v="Tjønnstulbekken" />
		<tag k="ssr:stedsnr" v="488343" />
		<tag k="waterway" v="stream" />
	</node>
	<node lat="59.74721944205532" lon="8.718852782810968" id="-19783">
		<tag k="name" v="Kvitåi" />
		<tag k="ssr:stedsnr" v="488521" />
		<tag k="waterway" v="stream" />
	</node>
	<node lat="59.747369448543424" lon="8.702286108987005" id="-19784">
		<tag k="alt_name" v="Bergetjørn" />
		<tag k="name" v="Bergetjønn" />
=======
	<node id="-454064" lat="59.7842250037" lon="8.82808889573">
		<tag k="name" v="Grimestulbekken" />
		<tag k="ssr:stedsnr" v="186997" />
		<tag k="waterway" v="stream" />
	</node>
	<node id="-454060" lat="59.7650138887" lon="8.81697500431">
		<tag k="alt_name" v="Longetjørnbekken" />
		<tag k="name" v="Langetjønnbekken" />
		<tag k="ssr:stedsnr" v="186934" />
		<tag k="waterway" v="stream" />
	</node>
	<node id="-454059" lat="59.8462495637" lon="8.80636724246">
		<tag k="alt_name" v="Fiskeholktjørni" />
		<tag k="name" v="Fiskeholktjønn" />
>>>>>>> e1d4bc35ff8a6074a6f2e91616a996b547c36f15
		<tag k="natural" v="water" />
		<tag k="ssr:stedsnr" v="488524" />
	</node>
<<<<<<< HEAD
	<node lat="59.735274997157184" lon="8.621588891643361" id="-19785">
		<tag k="alt_name" v="Kroktjørn, nedre;Kroktjønn nedre" />
		<tag k="name" v="Nedre Kroktjønn" />
=======
	<node id="-454058" lat="59.8267500004" lon="8.5575611111">
		<tag k="alt_name" v="Gvanntjørn" />
		<tag k="name" v="Gvanntjønn" />
>>>>>>> e1d4bc35ff8a6074a6f2e91616a996b547c36f15
		<tag k="natural" v="water" />
		<tag k="ssr:stedsnr" v="488534" />
	</node>
<<<<<<< HEAD
	<node lat="59.72289999760888" lon="8.634675005861746" id="-19787">
		<tag k="name" v="Ormbutangen" />
=======
	<node id="-454057" lat="59.8261583324" lon="8.58889999701">
		<tag k="alt_name" v="Bjønndalsodden" />
		<tag k="name" v="Bjørndalsodden" />
>>>>>>> e1d4bc35ff8a6074a6f2e91616a996b547c36f15
		<tag k="natural" v="cape" />
		<tag k="ssr:stedsnr" v="488562" />
	</node>
<<<<<<< HEAD
	<node lat="59.73053610770028" lon="8.662063886107857" id="-19788">
		<tag k="alt_name" v="Storehaug" />
		<tag k="name" v="Storhaug" />
		<tag k="place" v="islet" />
		<tag k="ssr:stedsnr" v="488564" />
	</node>
	<node lat="59.592580559687555" lon="8.684669436361432" id="-19805">
		<tag k="name" v="Trainbekken" />
		<tag k="ssr:stedsnr" v="488854" />
		<tag k="waterway" v="stream" />
	</node>
	<node lat="59.60930277815057" lon="8.797141665854715" id="-19806">
		<tag k="name" v="Hjartdøla" />
		<tag k="ssr:stedsnr" v="489128" />
		<tag k="waterway" v="river" />
	</node>
	<node lat="59.79033611354393" lon="8.659041674022653" id="-19808">
		<tag k="alt_name" v="Bærtjørn" />
		<tag k="name" v="Bærtjønn" />
=======
	<node id="-454056" lat="59.795838892" lon="8.58959722963">
		<tag k="alt_name" v="Reinstjørn" />
		<tag k="name" v="Reinstjønn" />
		<tag k="natural" v="water" />
		<tag k="ssr:stedsnr" v="186825" />
	</node>
	<node id="-452799" lat="59.8408416687" lon="8.51774166059">
		<tag k="name" v="Skriubekken" />
		<tag k="ssr:stedsnr" v="247845" />
		<tag k="waterway" v="stream" />
	</node>
	<node id="-454049" lat="59.7913000006" lon="8.43812500606">
		<tag k="name" v="Lysa" />
		<tag k="place" v="locality" />
		<tag k="ssr:stedsnr" v="186072" />
	</node>
	<node id="-454044" lat="59.5398250006" lon="8.82471944133">
		<tag k="name" v="Uppdøla" />
		<tag k="ssr:stedsnr" v="185971" />
		<tag k="waterway" v="river" />
	</node>
	<node id="-454041" lat="59.5696499985" lon="8.778688887">
		<tag k="alt_name" v="Blåtjørn" />
		<tag k="name" v="Blåtjønn" />
		<tag k="natural" v="water" />
		<tag k="ssr:stedsnr" v="185918" />
	</node>
	<node id="-454040" lat="59.5718277741" lon="8.77134443703">
		<tag k="alt_name" v="Skauttjørn" />
		<tag k="name" v="Skautjønn" />
>>>>>>> e1d4bc35ff8a6074a6f2e91616a996b547c36f15
		<tag k="natural" v="water" />
		<tag k="ssr:stedsnr" v="489772" />
	</node>
<<<<<<< HEAD
	<node lat="59.78945000359121" lon="8.641766657745" id="-19809">
		<tag k="name" v="Skarkeviki" />
		<tag k="natural" v="bay" />
		<tag k="ssr:stedsnr" v="489773" />
	</node>
	<node lat="59.76421388675087" lon="8.652880550013816" id="-19814">
		<tag k="alt_name" v="Berutjørn" />
		<tag k="name" v="Berutjønn" />
=======
	<node id="-454037" lat="59.5948916666" lon="8.76759443916">
		<tag k="name" v="Matkleppbekken" />
		<tag k="ssr:stedsnr" v="185835" />
		<tag k="waterway" v="stream" />
	</node>
	<node id="-454035" lat="59.8322972257" lon="8.78783055181">
		<tag k="alt_name" v="Kyrstjørn" />
		<tag k="name" v="Kyrstjønn" />
>>>>>>> e1d4bc35ff8a6074a6f2e91616a996b547c36f15
		<tag k="natural" v="water" />
		<tag k="ssr:stedsnr" v="489941" />
	</node>
<<<<<<< HEAD
	<node lat="59.75383888875327" lon="8.566836116792272" id="-19816">
		<tag k="alt_name" v="Bjørntjørn" />
		<tag k="name" v="Bjønntjønn" />
		<tag k="natural" v="water" />
		<tag k="ssr:stedsnr" v="489967" />
	</node>
	<node lat="59.754377778058945" lon="8.468730558736949" id="-19817">
		<tag k="name" v="Sandtjørn" />
=======
	<node id="-454030" lat="59.6271638889" lon="8.58979722833">
		<tag k="name" v="Hjartdøla" />
		<tag k="ssr:stedsnr" v="185775" />
		<tag k="waterway" v="river" />
	</node>
	<node id="-454025" lat="59.67718889" lon="8.58167500739">
		<tag k="alt_name" v="Nytjørn, midtre;Nytjønna midtre" />
		<tag k="name" v="Midtre Nytjønna" />
>>>>>>> e1d4bc35ff8a6074a6f2e91616a996b547c36f15
		<tag k="natural" v="water" />
		<tag k="ssr:stedsnr" v="489972" />
	</node>
<<<<<<< HEAD
	<node lat="59.773077775065694" lon="8.639361111176841" id="-19820">
		<tag k="alt_name" v="Helleiksdalstjørni" />
		<tag k="name" v="Helleksdalstjønn" />
=======
	<node id="-454023" lat="59.6689249999" lon="8.70511110742">
		<tag k="name" v="Stavstjørnan" />
>>>>>>> e1d4bc35ff8a6074a6f2e91616a996b547c36f15
		<tag k="natural" v="water" />
		<tag k="ssr:stedsnr" v="489989" />
	</node>
<<<<<<< HEAD
	<node lat="59.668777780544225" lon="8.773330562744015" id="-19823">
		<tag k="alt_name" v="Østenstjørna" />
		<tag k="name" v="Østenstjønn" />
=======
	<node id="-454016" lat="59.6859861087" lon="8.65342221978">
		<tag k="alt_name" v="Hågåvatnet" />
		<tag k="name" v="Hågåvatn" />
>>>>>>> e1d4bc35ff8a6074a6f2e91616a996b547c36f15
		<tag k="natural" v="water" />
		<tag k="ssr:stedsnr" v="427669" />
	</node>
<<<<<<< HEAD
	<node lat="59.61879166677608" lon="8.81356944133216" id="-19825">
		<tag k="name" v="Vesleåa" />
		<tag k="ssr:stedsnr" v="428103" />
		<tag k="waterway" v="stream" />
	</node>
	<node lat="59.70764999567416" lon="8.89274444226348" id="-19826">
		<tag k="alt_name" v="Juvstjønn" />
		<tag k="name" v="Gjuvstjørn" />
=======
	<node id="-454013" lat="59.7249472205" lon="8.77729166801">
		<tag k="name" v="Kova" />
		<tag k="ssr:stedsnr" v="185567" />
		<tag k="waterway" v="stream" />
	</node>
	<node id="-454012" lat="59.722530556" lon="8.76235278367">
		<tag k="name" v="Kroklonin" />
>>>>>>> e1d4bc35ff8a6074a6f2e91616a996b547c36f15
		<tag k="natural" v="water" />
		<tag k="ssr:stedsnr" v="428073" />
	</node>
<<<<<<< HEAD
	<node lat="59.65608889001232" lon="8.847961107618042" id="-19827">
		<tag k="alt_name" v="Rodalsløken" />
		<tag k="name" v="Rådalsløken" />
		<tag k="ssr:stedsnr" v="428205" />
		<tag k="waterway" v="stream" />
	</node>
	<node lat="59.7106694460678" lon="8.505308332364738" id="-19828">
		<tag k="alt_name" v="Aurbakktjørni" />
		<tag k="name" v="Aurebakktjønn" />
=======
	<node id="-454011" lat="59.7188750028" lon="8.7625388844">
		<tag k="alt_name" v="Måstjørn" />
		<tag k="name" v="Måstjønn" />
>>>>>>> e1d4bc35ff8a6074a6f2e91616a996b547c36f15
		<tag k="natural" v="water" />
		<tag k="ssr:stedsnr" v="428613" />
	</node>
<<<<<<< HEAD
	<node lat="59.63605555863346" lon="8.685963893696428" id="-19833">
		<tag k="name" v="Damtjørnan" />
		<tag k="natural" v="water" />
		<tag k="ssr:stedsnr" v="428707" />
	</node>
	<node lat="59.577541666236215" lon="8.738700005795325" id="-19838">
		<tag k="alt_name" v="Damtjørn" />
		<tag k="name" v="Damtjønn" />
=======
	<node id="-454008" lat="59.7025361077" lon="8.83336110716">
		<tag k="name" v="Grovaråi" />
		<tag k="ssr:stedsnr" v="185549" />
		<tag k="waterway" v="stream" />
	</node>
	<node id="-454006" lat="59.7311500013" lon="8.52602500403">
		<tag k="alt_name" v="Lygytjørn" />
		<tag k="name" v="Lygytjønn" />
>>>>>>> e1d4bc35ff8a6074a6f2e91616a996b547c36f15
		<tag k="natural" v="water" />
		<tag k="ssr:stedsnr" v="428908" />
	</node>
<<<<<<< HEAD
	<node lat="59.791252774139465" lon="8.721494442524442" id="-19841">
		<tag k="alt_name" v="Myrstultjørni" />
		<tag k="name" v="Myrstultjønn" />
=======
	<node id="-454004" lat="59.7346083296" lon="8.56843333235">
		<tag k="alt_name" v="Reinstultjørni" />
		<tag k="name" v="Reinstultjønn" />
>>>>>>> e1d4bc35ff8a6074a6f2e91616a996b547c36f15
		<tag k="natural" v="water" />
		<tag k="ssr:stedsnr" v="429770" />
	</node>
<<<<<<< HEAD
	<node lat="59.58291944841369" lon="8.761408332151849" id="-19843">
		<tag k="alt_name" v="Haugerobekken" />
		<tag k="name" v="Haugerudbekken" />
		<tag k="ssr:stedsnr" v="670926" />
		<tag k="waterway" v="stream" />
	</node>
	<node lat="59.67234166612368" lon="8.793422213994402" id="-19846">
		<tag k="alt_name" v="Østensbekk" />
		<tag k="name" v="Østensbekken" />
		<tag k="ssr:stedsnr" v="671692" />
		<tag k="waterway" v="stream" />
	</node>
	<node lat="59.78861226845995" lon="8.68022549204017" id="-19848">
		<tag k="alt_name" v="Reisjåvatn" />
		<tag k="name" v="Reisjåvatnet" />
=======
	<node id="-454001" lat="59.584958331" lon="8.93056666702">
		<tag k="name" v="Raudbekken" />
		<tag k="ssr:stedsnr" v="185308" />
		<tag k="waterway" v="stream" />
	</node>
	<node id="-453992" lat="59.6188527789" lon="8.81447778637">
		<tag k="name" v="Kjempa" />
		<tag k="ssr:stedsnr" v="167927" />
		<tag k="waterway" v="stream" />
	</node>
	<node id="-453962" lat="59.7784805577" lon="8.559619442">
		<tag k="alt_name" v="Gammelstultjønn" />
		<tag k="name" v="Gammalstultjørni" />
>>>>>>> e1d4bc35ff8a6074a6f2e91616a996b547c36f15
		<tag k="natural" v="water" />
		<tag k="ssr:stedsnr" v="671765" />
		<tag k="water" v="lake" />
	</node>
<<<<<<< HEAD
	<node lat="59.815449888321204" lon="8.75992881508961" id="-19850">
		<tag k="alt_name" v="Ljostjørn, l" />
		<tag k="name" v="Lille Ljostjønn" />
=======
	<node id="-453960" lat="59.7546638913" lon="8.53489721922">
		<tag k="alt_name" v="Grunntjørn" />
		<tag k="name" v="Grunntjønn" />
>>>>>>> e1d4bc35ff8a6074a6f2e91616a996b547c36f15
		<tag k="natural" v="water" />
		<tag k="ssr:stedsnr" v="671780" />
	</node>
<<<<<<< HEAD
	<node lat="59.82486111107803" lon="8.781227780007418" id="-19859">
		<tag k="alt_name" v="Leirtjørn" />
		<tag k="name" v="Leirtjønn" />
=======
	<node id="-453952" lat="59.8520388905" lon="8.52099444944">
		<tag k="name" v="Klokkstjønn" />
>>>>>>> e1d4bc35ff8a6074a6f2e91616a996b547c36f15
		<tag k="natural" v="water" />
		<tag k="ssr:stedsnr" v="671829" />
	</node>
<<<<<<< HEAD
	<node lat="59.81818055269495" lon="8.535438891644594" id="-19862">
		<tag k="alt_name" v="Rotjørn" />
		<tag k="name" v="Rotjønn" />
=======
	<node id="-453949" lat="59.8282361133" lon="8.80296389618">
		<tag k="alt_name" v="Skjertjørn" />
		<tag k="name" v="Skjertjønn" />
>>>>>>> e1d4bc35ff8a6074a6f2e91616a996b547c36f15
		<tag k="natural" v="water" />
		<tag k="ssr:stedsnr" v="671844" />
	</node>
<<<<<<< HEAD
	<node lat="59.779588885009524" lon="8.603475004733742" id="-19866">
		<tag k="name" v="Storesandbekken" />
		<tag k="ssr:stedsnr" v="671977" />
		<tag k="waterway" v="stream" />
	</node>
	<node lat="59.707288890532006" lon="8.899222217973383" id="-19872">
		<tag k="name" v="Vesle Fisketjønn" />
=======
	<node id="-453948" lat="59.8263916711" lon="8.53418333517">
		<tag k="alt_name" v="Nåpåtjørn, nordre;Nåpåtjønn nordre" />
		<tag k="name" v="Nordre Nåpåtjønn" />
		<tag k="natural" v="water" />
		<tag k="ssr:stedsnr" v="125839" />
	</node>
	<node id="-453947" lat="59.8393999956" lon="8.82718889711">
		<tag k="alt_name" v="Risbutjørni" />
		<tag k="name" v="Risbutjønn" />
		<tag k="natural" v="water" />
		<tag k="ssr:stedsnr" v="125831" />
	</node>
	<node id="-453944" lat="59.8162500012" lon="8.65880833465">
		<tag k="alt_name" v="Myklestulvatn" />
		<tag k="name" v="Myklestaulvatnet" />
		<tag k="natural" v="water" />
		<tag k="ssr:stedsnr" v="125800" />
		<tag k="water" v="lake" />
	</node>
	<node id="-453943" lat="59.8231361085" lon="8.64126389573">
		<tag k="alt_name" v="Fjelltjørn" />
		<tag k="name" v="Fjelltjønn" />
>>>>>>> e1d4bc35ff8a6074a6f2e91616a996b547c36f15
		<tag k="natural" v="water" />
		<tag k="ssr:stedsnr" v="468818" />
	</node>
<<<<<<< HEAD
	<node lat="59.78413611261239" lon="8.857997221326583" id="-19873">
		<tag k="name" v="Lille Elgstjønn" />
		<tag k="natural" v="water" />
		<tag k="ssr:stedsnr" v="468908" />
	</node>
	<node lat="59.672677781267495" lon="8.665699997300095" id="-19875">
		<tag k="name" v="Hølkebekk" />
		<tag k="ssr:stedsnr" v="469177" />
		<tag k="waterway" v="stream" />
	</node>
	<node lat="59.69408333552813" lon="8.773075001925834" id="-19899">
		<tag k="alt_name" v="Kruvletjørnan" />
		<tag k="name" v="Kruvletjønnen" />
=======
	<node id="-453941" lat="59.788469446" lon="8.74396111132">
		<tag k="alt_name" v="Kovstulvatn" />
		<tag k="name" v="Kovstulvatnet" />
		<tag k="natural" v="water" />
		<tag k="ssr:stedsnr" v="125793" />
		<tag k="water" v="lake" />
	</node>
	<node id="-453940" lat="59.7911833334" lon="8.63524445324">
		<tag k="name" v="Langenes" />
		<tag k="natural" v="cape" />
		<tag k="ssr:stedsnr" v="125782" />
	</node>
	<node id="-453938" lat="59.8059000022" lon="8.60389166635">
		<tag k="alt_name" v="Grotbekkbukta" />
		<tag k="name" v="Grotbekkbukti" />
		<tag k="natural" v="bay" />
		<tag k="ssr:stedsnr" v="125767" />
	</node>
	<node id="-453937" lat="59.7546833374" lon="8.4669305494">
		<tag k="alt_name" v="Sandtjørni" />
		<tag k="name" v="Sandtjønn" />
>>>>>>> e1d4bc35ff8a6074a6f2e91616a996b547c36f15
		<tag k="natural" v="water" />
		<tag k="ssr:stedsnr" v="488643" />
	</node>
<<<<<<< HEAD
	<node lat="59.69132499870338" lon="8.799450007401372" id="-19900">
		<tag k="alt_name" v="Ormetjønn" />
		<tag k="name" v="Ormetjørn" />
=======
	<node id="-453935" lat="59.5856194478" lon="8.79186388239">
		<tag k="alt_name" v="Kroktjørn" />
		<tag k="name" v="Kroktjønn" />
>>>>>>> e1d4bc35ff8a6074a6f2e91616a996b547c36f15
		<tag k="natural" v="water" />
		<tag k="ssr:stedsnr" v="488646" />
	</node>
<<<<<<< HEAD
	<node lat="59.663869446865995" lon="8.785911113564554" id="-19902">
		<tag k="alt_name" v="Åmannsbutjørna" />
		<tag k="name" v="Åmannbutjønn" />
		<tag k="natural" v="water" />
		<tag k="ssr:stedsnr" v="488662" />
	</node>
	<node lat="59.72517499694882" lon="8.789983325371425" id="-19911">
		<tag k="alt_name" v="Solemstjørni" />
		<tag k="name" v="Solemstjønn" />
=======
	<node id="-453924" lat="59.6543277809" lon="8.7572638834">
		<tag k="alt_name" v="Vassendvatn" />
		<tag k="name" v="Vassendvatnet" />
>>>>>>> e1d4bc35ff8a6074a6f2e91616a996b547c36f15
		<tag k="natural" v="water" />
		<tag k="ssr:stedsnr" v="488600" />
	</node>
<<<<<<< HEAD
	<node lat="59.63298055607727" lon="8.760400002945675" id="-19912">
		<tag k="name" v="Tverrbekk" />
		<tag k="ssr:stedsnr" v="488715" />
		<tag k="waterway" v="stream" />
	</node>
	<node lat="59.6433027739399" lon="8.664219439477435" id="-19914">
		<tag k="alt_name" v="Kringletjørn" />
		<tag k="name" v="Kringletjønn" />
=======
	<node id="-453923" lat="59.6268388863" lon="8.61396110733">
		<tag k="name" v="Høymolebekken" />
		<tag k="ssr:stedsnr" v="124681" />
		<tag k="waterway" v="stream" />
	</node>
	<node id="-453921" lat="59.6734583295" lon="8.58885555062">
		<tag k="alt_name" v="Nytjørn, s;Nytjønna øvre" />
		<tag k="name" v="Øvre Nytjønna" />
>>>>>>> e1d4bc35ff8a6074a6f2e91616a996b547c36f15
		<tag k="natural" v="water" />
		<tag k="ssr:stedsnr" v="488721" />
	</node>
<<<<<<< HEAD
	<node lat="59.76944333125397" lon="8.772926344723691" id="-19917">
		<tag k="name" v="Kyrkjeåi" />
		<tag k="ssr:stedsnr" v="489936" />
		<tag k="waterway" v="river" />
	</node>
	<node lat="59.8008699807998" lon="8.499028274217089" id="-19920">
		<tag k="alt_name" v="Vesleskjertjørn" />
		<tag k="name" v="Vesleskjertjønn" />
=======
	<node id="-453918" lat="59.6849500026" lon="8.77774999726">
		<tag k="name" v="Åsetjørnan" />
>>>>>>> e1d4bc35ff8a6074a6f2e91616a996b547c36f15
		<tag k="natural" v="water" />
		<tag k="ssr:stedsnr" v="489815" />
	</node>
<<<<<<< HEAD
	<node lat="59.8277382583338" lon="8.545311458796009" id="-19921">
		<tag k="alt_name" v="Gunnuvstjørn" />
		<tag k="name" v="Gunnuvstjønn" />
		<tag k="natural" v="water" />
		<tag k="ssr:stedsnr" v="489832" />
	</node>
	<node lat="59.77016944535977" lon="8.507880548446183" id="-19923">
		<tag k="name" v="Storbekk" />
		<tag k="ssr:stedsnr" v="490000" />
		<tag k="waterway" v="stream" />
	</node>
	<node lat="59.78128333265978" lon="8.576080564173656" id="-19924">
		<tag k="alt_name" v="Longetjørn" />
		<tag k="name" v="Langetjønn" />
=======
	<node id="-453912" lat="59.7049888922" lon="8.68511944959">
		<tag k="name" v="Huk" />
		<tag k="natural" v="waterfall" />
		<tag k="ssr:stedsnr" v="124533" />
	</node>
	<node id="-453910" lat="59.699044443" lon="8.7077611094">
		<tag k="name" v="Hånådalsbekken" />
		<tag k="ssr:stedsnr" v="124528" />
		<tag k="waterway" v="stream" />
	</node>
	<node id="-453907" lat="59.7175083329" lon="8.62306945258">
		<tag k="name" v="Fjelltjørn" />
>>>>>>> e1d4bc35ff8a6074a6f2e91616a996b547c36f15
		<tag k="natural" v="water" />
		<tag k="ssr:stedsnr" v="490595" />
	</node>
<<<<<<< HEAD
	<node lat="59.754633332317646" lon="8.688419447146032" id="-19934">
		<tag k="name" v="Ulekiltangen" />
		<tag k="natural" v="cape" />
		<tag k="ssr:stedsnr" v="529928" />
	</node>
	<node lat="59.79143611389763" lon="8.882072215002383" id="-19937">
		<tag k="name" v="Kåløyene" />
		<tag k="place" v="island" />
		<tag k="ssr:stedsnr" v="529942" />
	</node>
	<node lat="59.65639999879025" lon="8.786025006889101" id="-19938">
		<tag k="name" v="Påleholstjønn" />
=======
	<node id="-453904" lat="59.7189555583" lon="8.72083056143">
		<tag k="name" v="Mydøla" />
		<tag k="ssr:stedsnr" v="124505" />
		<tag k="waterway" v="river" />
	</node>
	<node id="-453903" lat="59.7228499968" lon="8.61369166137">
		<tag k="name" v="Kovvatnet" />
		<tag k="natural" v="water" />
		<tag k="ssr:stedsnr" v="124502" />
		<tag k="water" v="lake" />
	</node>
	<node id="-453902" lat="59.7430527759" lon="8.71121945037">
		<tag k="alt_name" v="Ostetjørn" />
		<tag k="name" v="Ostetjønn" />
>>>>>>> e1d4bc35ff8a6074a6f2e91616a996b547c36f15
		<tag k="natural" v="water" />
		<tag k="ssr:stedsnr" v="529943" />
	</node>
<<<<<<< HEAD
	<node lat="59.78918333115434" lon="8.675872219598658" id="-19939">
		<tag k="name" v="Killingodden" />
		<tag k="natural" v="cape" />
		<tag k="ssr:stedsnr" v="529954" />
	</node>
	<node lat="59.6854499980136" lon="8.670208326431624" id="-19940">
		<tag k="name" v="Blåtjønn" />
		<tag k="natural" v="water" />
		<tag k="ssr:stedsnr" v="529808" />
	</node>
	<node lat="59.67193333776711" lon="8.701238897380508" id="-19941">
		<tag k="name" v="Stavstjønn nordre" />
=======
	<node id="-453890" lat="59.5852805512" lon="8.72443610888">
		<tag k="name" v="Grisetjønnan" />
		<tag k="natural" v="water" />
		<tag k="ssr:stedsnr" v="107835" />
	</node>
	<node id="-453889" lat="59.5838000039" lon="8.96080277645">
		<tag k="name" v="Tjønnholbekken" />
		<tag k="ssr:stedsnr" v="107803" />
		<tag k="waterway" v="stream" />
	</node>
	<node id="-453886" lat="59.5952833296" lon="8.88730556398">
		<tag k="name" v="Høymyrtjønn" />
>>>>>>> e1d4bc35ff8a6074a6f2e91616a996b547c36f15
		<tag k="natural" v="water" />
		<tag k="ssr:stedsnr" v="529824" />
	</node>
<<<<<<< HEAD
	<node lat="59.669005559034076" lon="8.709552779661704" id="-19942">
		<tag k="name" v="Stavsoset" />
		<tag k="natural" v="bay" />
		<tag k="ssr:stedsnr" v="529836" />
	</node>
	<node lat="59.7728527778067" lon="8.648052785186511" id="-19944">
		<tag k="name" v="Helleksdalsbekken" />
		<tag k="ssr:stedsnr" v="530010" />
		<tag k="waterway" v="stream" />
	</node>
	<node lat="59.620922219777675" lon="8.891724993202212" id="-19953">
		<tag k="name" v="Hanfoss" />
		<tag k="natural" v="waterfall" />
		<tag k="ssr:stedsnr" v="531720" />
	</node>
	<node lat="59.593288888661974" lon="8.687072225511303" id="-19954">
		<tag k="name" v="Dålåbekken" />
		<tag k="ssr:stedsnr" v="531722" />
		<tag k="waterway" v="stream" />
	</node>
	<node lat="59.63236666365086" lon="9.00601111518982" id="-19962">
		<tag k="name" v="Ørvella" />
		<tag k="ssr:stedsnr" v="549205" />
		<tag k="waterway" v="river" />
	</node>
	<node lat="59.733597226351016" lon="8.46166388716051" id="-19963">
		<tag k="name" v="Åtoåi" />
		<tag k="ssr:stedsnr" v="549226" />
		<tag k="waterway" v="river" />
	</node>
	<node lat="59.73656666777147" lon="8.475308328013753" id="-19966">
		<tag k="alt_name" v="Langetjørn" />
		<tag k="name" v="Langetjønn" />
=======
	<node id="-453876" lat="59.617999998" lon="8.68348054756">
		<tag k="name" v="Vesleå" />
		<tag k="ssr:stedsnr" v="107025" />
		<tag k="waterway" v="stream" />
	</node>
	<node id="-453864" lat="59.6251944466" lon="8.59022222557">
		<tag k="name" v="Krokberget" />
		<tag k="place" v="locality" />
		<tag k="ssr:stedsnr" v="106400" />
	</node>
	<node id="-453860" lat="59.6134861079" lon="8.96212222173">
		<tag k="name" v="Davidsøy" />
		<tag k="place" v="island" />
		<tag k="ssr:stedsnr" v="106192" />
	</node>
	<node id="-453858" lat="59.7885888899" lon="8.65193332933">
		<tag k="name" v="Bærtjønnbekken" />
		<tag k="ssr:stedsnr" v="106114" />
		<tag k="waterway" v="stream" />
	</node>
	<node id="-453857" lat="59.6424555528" lon="8.68096388389">
		<tag k="name" v="Langelitjønn" />
		<tag k="natural" v="water" />
		<tag k="ssr:stedsnr" v="105981" />
	</node>
	<node id="-453856" lat="59.8422888897" lon="8.80846388878">
		<tag k="name" v="Andordalsåa" />
		<tag k="ssr:stedsnr" v="105979" />
		<tag k="waterway" v="river" />
	</node>
	<node id="-453840" lat="59.6848833374" lon="8.6043944427">
		<tag k="name" v="Tønistjønn" />
>>>>>>> e1d4bc35ff8a6074a6f2e91616a996b547c36f15
		<tag k="natural" v="water" />
		<tag k="ssr:stedsnr" v="549529" />
	</node>
<<<<<<< HEAD
	<node lat="59.583724996725856" lon="9.141100002076847" id="-19973">
		<tag k="name" v="Heddøla" />
		<tag k="ssr:stedsnr" v="549402" />
		<tag k="waterway" v="river" />
	</node>
	<node lat="59.63518205835791" lon="8.74133019653003" id="-19975">
		<tag k="name" v="Rennevasstjørnan" />
=======
	<node id="-453838" lat="59.7763750018" lon="8.54260833783">
		<tag k="name" v="Vindsjådammen" />
		<tag k="ssr:stedsnr" v="105194" />
		<tag k="waterway" v="dam" />
	</node>
	<node id="-453833" lat="59.7910999964" lon="8.85274999236">
		<tag k="name" v="Gampetjønn" />
>>>>>>> e1d4bc35ff8a6074a6f2e91616a996b547c36f15
		<tag k="natural" v="water" />
		<tag k="ssr:stedsnr" v="549702" />
	</node>
<<<<<<< HEAD
	<node lat="59.680183333541095" lon="8.79640833321217" id="-19976">
		<tag k="alt_name" v="Sjausetvatn" />
		<tag k="name" v="Sjausetvatnet" />
=======
	<node id="-453828" lat="59.7803277764" lon="8.5502833308">
		<tag k="alt_name" v="Geiteklemtjørni" />
		<tag k="name" v="Geiteklemtjønn" />
>>>>>>> e1d4bc35ff8a6074a6f2e91616a996b547c36f15
		<tag k="natural" v="water" />
		<tag k="ssr:stedsnr" v="549653" />
	</node>
<<<<<<< HEAD
	<node lat="59.579838888373516" lon="8.733033339322468" id="-19977">
		<tag k="alt_name" v="Torvetjørni" />
		<tag k="name" v="Torvetjønn" />
=======
	<node id="-453827" lat="59.7857527746" lon="8.63110277587">
		<tag k="alt_name" v="Bonsvatnet" />
		<tag k="name" v="Bonsvatn" />
>>>>>>> e1d4bc35ff8a6074a6f2e91616a996b547c36f15
		<tag k="natural" v="water" />
		<tag k="ssr:stedsnr" v="549911" />
	</node>
<<<<<<< HEAD
	<node lat="59.798269443349014" lon="8.73072221968417" id="-19983">
		<tag k="alt_name" v="Bekkjestultjørni" />
		<tag k="name" v="Bekkjestultjønn" />
=======
	<node id="-453825" lat="59.7840861075" lon="8.75831667422">
		<tag k="alt_name" v="Toskjærvatn" />
		<tag k="name" v="Toskjervatnet" />
>>>>>>> e1d4bc35ff8a6074a6f2e91616a996b547c36f15
		<tag k="natural" v="water" />
		<tag k="ssr:stedsnr" v="550744" />
	</node>
<<<<<<< HEAD
	<node lat="59.79552499680953" lon="8.469944447729393" id="-19985">
		<tag k="name" v="Lysa" />
		<tag k="ssr:stedsnr" v="550751" />
		<tag k="waterway" v="river" />
	</node>
	<node lat="59.799116665048935" lon="8.800925001131585" id="-19986">
		<tag k="name" v="Fosstulbekken" />
		<tag k="ssr:stedsnr" v="550755" />
		<tag k="waterway" v="stream" />
	</node>
	<node lat="59.79066666657487" lon="8.589713882711823" id="-19987">
		<tag k="alt_name" v="Svartetjørn" />
		<tag k="name" v="Svartetjønn" />
=======
	<node id="-453822" lat="59.8298111134" lon="8.60935000588">
		<tag k="alt_name" v="Ljosbekk" />
		<tag k="name" v="Ljosbekken" />
		<tag k="ssr:stedsnr" v="65838" />
		<tag k="waterway" v="stream" />
	</node>
	<node id="-453820" lat="59.7888999964" lon="8.64282499946">
		<tag k="name" v="Granhaugen" />
		<tag k="place" v="island" />
		<tag k="ssr:stedsnr" v="65778" />
	</node>
	<node id="-453819" lat="59.7720972265" lon="8.56202221906">
		<tag k="alt_name" v="Våtjørn" />
		<tag k="name" v="Våtjønn" />
>>>>>>> e1d4bc35ff8a6074a6f2e91616a996b547c36f15
		<tag k="natural" v="water" />
		<tag k="ssr:stedsnr" v="550758" />
	</node>
<<<<<<< HEAD
	<node lat="59.64629166396375" lon="8.783527781165473" id="-19995">
		<tag k="name" v="Klypet" />
		<tag k="ssr:stedsnr" v="590914" />
		<tag k="waterway" v="rapids" />
	</node>
	<node lat="59.612677781263265" lon="8.568641664318498" id="-20002">
		<tag k="name" v="Igletjønn" />
=======
	<node id="-453817" lat="59.7717564307" lon="8.7101709408">
		<tag k="alt_name" v="Murtetjørn" />
		<tag k="name" v="Murtetjønn" />
>>>>>>> e1d4bc35ff8a6074a6f2e91616a996b547c36f15
		<tag k="natural" v="water" />
		<tag k="ssr:stedsnr" v="591671" />
	</node>
<<<<<<< HEAD
	<node lat="59.57741944030945" lon="8.857999995526601" id="-20009">
		<tag k="name" v="Deilbekken" />
		<tag k="ssr:stedsnr" v="609306" />
		<tag k="waterway" v="stream" />
	</node>
	<node lat="59.67818333708454" lon="8.578658340434153" id="-20019">
		<tag k="alt_name" v="Nytjørn, nordre;Nytjønna nedre" />
		<tag k="name" v="Nedre Nytjønna" />
=======
	<node id="-453816" lat="59.551800003" lon="8.77425833018">
		<tag k="name" v="Londalsbekken" />
		<tag k="ssr:stedsnr" v="64979" />
		<tag k="waterway" v="stream" />
	</node>
	<node id="-453815" lat="59.7584027801" lon="8.60714444311">
		<tag k="alt_name" v="Heggestultjørni" />
		<tag k="name" v="Heggestultjønn" />
>>>>>>> e1d4bc35ff8a6074a6f2e91616a996b547c36f15
		<tag k="natural" v="water" />
		<tag k="ssr:stedsnr" v="609633" />
	</node>
<<<<<<< HEAD
	<node lat="59.79133055757085" lon="8.449205560761396" id="-20025">
		<tag k="alt_name" v="Lysetjørn" />
		<tag k="name" v="Lysetjønn" />
=======
	<node id="-453814" lat="59.7497749994" lon="8.62927499977">
		<tag k="alt_name" v="Stabbetjørni" />
		<tag k="name" v="Stabbetjønn" />
>>>>>>> e1d4bc35ff8a6074a6f2e91616a996b547c36f15
		<tag k="natural" v="water" />
		<tag k="ssr:stedsnr" v="610093" />
	</node>
<<<<<<< HEAD
	<node lat="59.73091944382265" lon="8.827577784585365" id="-20031">
		<tag k="alt_name" v="Tjørnetjørn" />
		<tag k="name" v="Tjønnetjønn" />
=======
	<node id="-453798" lat="59.6797333373" lon="8.50230278136">
		<tag k="alt_name" v="Skjesvatnet" />
		<tag k="name" v="Skjesvatn" />
>>>>>>> e1d4bc35ff8a6074a6f2e91616a996b547c36f15
		<tag k="natural" v="water" />
		<tag k="ssr:stedsnr" v="610634" />
	</node>
<<<<<<< HEAD
	<node lat="59.732052778903515" lon="8.814927780519549" id="-20032">
		<tag k="name" v="Ufsebekk" />
		<tag k="ssr:stedsnr" v="610635" />
		<tag k="waterway" v="stream" />
	</node>
	<node lat="59.809413886525384" lon="8.577488886883296" id="-20033">
		<tag k="alt_name" v="Homtjørn" />
		<tag k="name" v="Homtjønn" />
		<tag k="natural" v="water" />
		<tag k="ssr:stedsnr" v="610811" />
	</node>
	<node lat="59.80860833080322" lon="8.776324995760179" id="-20034">
		<tag k="alt_name" v="Gjuvå" />
		<tag k="name" v="Gjuva" />
		<tag k="ssr:stedsnr" v="610819" />
		<tag k="waterway" v="river" />
	</node>
	<node lat="59.80134166931704" lon="8.515230561350936" id="-20035">
		<tag k="alt_name" v="Hatteskardtjørn" />
		<tag k="name" v="Hatteskartjønn" />
=======
	<node id="-453794" lat="59.8193111132" lon="8.55607222555">
		<tag k="alt_name" v="Raudbutjørni" />
		<tag k="name" v="Raubutjønn" />
		<tag k="natural" v="water" />
		<tag k="ssr:stedsnr" v="64857" />
	</node>
	<node id="-453793" lat="59.7222916695" lon="8.58637500512">
		<tag k="name" v="Lortholtjørnan" />
		<tag k="natural" v="water" />
		<tag k="ssr:stedsnr" v="64566" />
	</node>
	<node id="-453791" lat="59.7145611102" lon="8.60118611096">
		<tag k="alt_name" v="Ståvåtjørnbekken" />
		<tag k="name" v="Ståvåtjønnbekken" />
		<tag k="ssr:stedsnr" v="64564" />
		<tag k="waterway" v="stream" />
	</node>
	<node id="-453790" lat="59.724174998" lon="8.74470278265">
		<tag k="alt_name" v="Kovflottjørni" />
		<tag k="name" v="Kovflåttjønn" />
		<tag k="natural" v="water" />
		<tag k="ssr:stedsnr" v="64562" />
	</node>
	<node id="-453781" lat="59.7609999998" lon="8.87135555423">
		<tag k="name" v="Kåla" />
		<tag k="ssr:stedsnr" v="64277" />
		<tag k="waterway" v="stream" />
	</node>
	<node id="-453779" lat="59.584302781" lon="8.91475556051">
		<tag k="name" v="Mjella" />
		<tag k="ssr:stedsnr" v="64113" />
		<tag k="waterway" v="river" />
	</node>
	<node id="-453772" lat="59.7490027734" lon="8.62332222518">
		<tag k="name" v="Stabbetjørn" />
>>>>>>> e1d4bc35ff8a6074a6f2e91616a996b547c36f15
		<tag k="natural" v="water" />
		<tag k="ssr:stedsnr" v="610826" />
	</node>
<<<<<<< HEAD
	<node lat="59.83211388476379" lon="8.590111104492413" id="-20038">
		<tag k="alt_name" v="Bjønndalsbekken" />
		<tag k="name" v="Bjørndalsbekken" />
		<tag k="ssr:stedsnr" v="610893" />
		<tag k="waterway" v="stream" />
	</node>
	<node lat="59.75654166322039" lon="8.766752782746524" id="-20046">
		<tag k="name" v="Lislibekken" />
		<tag k="ssr:stedsnr" v="704581" />
		<tag k="waterway" v="stream" />
	</node>
	<node lat="59.70972777485125" lon="8.856955554387364" id="-20056">
		<tag k="name" v="Burmannsbukta" />
		<tag k="natural" v="bay" />
		<tag k="ssr:stedsnr" v="650186" />
	</node>
	<node lat="59.7322027785372" lon="8.792077782114976" id="-20057">
		<tag k="name" v="Sandbekk" />
		<tag k="ssr:stedsnr" v="650311" />
		<tag k="waterway" v="stream" />
	</node>
	<node lat="59.60760277794831" lon="8.93132777138337" id="-20062">
		<tag k="name" v="Ystøybekken" />
		<tag k="ssr:stedsnr" v="652004" />
		<tag k="waterway" v="stream" />
	</node>
	<node lat="59.61123888740028" lon="8.935991669761982" id="-20063">
		<tag k="name" v="Homun" />
		<tag k="place" v="island" />
		<tag k="ssr:stedsnr" v="652043" />
	</node>
	<node lat="59.58578055827209" lon="8.77117222865533" id="-20070">
		<tag k="name" v="Nordstulbekken" />
		<tag k="ssr:stedsnr" v="652806" />
		<tag k="waterway" v="stream" />
	</node>
	<node lat="59.68176855552642" lon="8.551568685360676" id="-20081">
		<tag k="alt_name" v="Hundshovdtjørni" />
		<tag k="name" v="Hondshovdtjønn" />
=======
	<node id="-453770" lat="59.7110884906" lon="8.84976455459">
		<tag k="alt_name" v="Sønderlandsvatn" />
		<tag k="name" v="Sønnlandsvatnet" />
		<tag k="natural" v="water" />
		<tag k="ssr:stedsnr" v="63090" />
	</node>
	<node id="-453757" lat="59.6334166663" lon="8.68542499427">
		<tag k="name" v="Damtjønn nedre" />
		<tag k="natural" v="water" />
		<tag k="ssr:stedsnr" v="46065" />
	</node>
	<node id="-453753" lat="59.5782555538" lon="8.81297500324">
		<tag k="name" v="Homtjønntangen" />
		<tag k="natural" v="cape" />
		<tag k="ssr:stedsnr" v="45841" />
	</node>
	<node id="-453746" lat="59.602861112" lon="8.58585555581">
		<tag k="name" v="Tiubekken" />
		<tag k="ssr:stedsnr" v="45661" />
		<tag k="waterway" v="stream" />
	</node>
	<node id="-453740" lat="59.6592333378" lon="8.88685277308">
		<tag k="name" v="Langebekk" />
		<tag k="ssr:stedsnr" v="44961" />
		<tag k="waterway" v="stream" />
	</node>
	<node id="-453738" lat="59.6655472211" lon="8.85380278352">
		<tag k="name" v="Kvitåi" />
		<tag k="ssr:stedsnr" v="44951" />
		<tag k="waterway" v="stream" />
	</node>
	<node id="-453736" lat="59.7558888926" lon="8.68910833705">
		<tag k="name" v="Ulekil" />
		<tag k="natural" v="bay" />
		<tag k="ssr:stedsnr" v="44903" />
	</node>
	<node id="-453734" lat="59.7155472251" lon="8.90387777963">
		<tag k="name" v="Damtjønn" />
>>>>>>> e1d4bc35ff8a6074a6f2e91616a996b547c36f15
		<tag k="natural" v="water" />
		<tag k="ssr:stedsnr" v="670607" />
	</node>
<<<<<<< HEAD
	<node lat="59.680891662525205" lon="8.565802782022171" id="-20082">
		<tag k="alt_name" v="Skjørtjørn" />
		<tag k="name" v="Skjørtjønn" />
=======
	<node id="-453733" lat="59.6743694451" lon="8.8284749929">
		<tag k="name" v="Bikkjetjønn" />
>>>>>>> e1d4bc35ff8a6074a6f2e91616a996b547c36f15
		<tag k="natural" v="water" />
		<tag k="ssr:stedsnr" v="670612" />
	</node>
<<<<<<< HEAD
	<node lat="59.66036666960835" lon="8.784655562451999" id="-20084">
		<tag k="alt_name" v="Lauvhaugtjørna" />
		<tag k="name" v="Lauvhaugtjønn" />
=======
	<node id="-453731" lat="59.6776277811" lon="8.83625556143">
		<tag k="name" v="Elgstjønn" />
>>>>>>> e1d4bc35ff8a6074a6f2e91616a996b547c36f15
		<tag k="natural" v="water" />
		<tag k="ssr:stedsnr" v="670725" />
	</node>
<<<<<<< HEAD
	<node lat="59.71917777584115" lon="8.86214999206309" id="-20090">
		<tag k="name" v="Tråeråa" />
		<tag k="ssr:stedsnr" v="671108" />
		<tag k="waterway" v="stream" />
	</node>
	<node lat="59.806208337718026" lon="8.58913055041889" id="-20098">
		<tag k="alt_name" v="Enggravstjørni" />
		<tag k="name" v="Enggravstjønn" />
=======
	<node id="-453730" lat="59.6773833308" lon="8.75583332949">
		<tag k="name" v="Auretjønn" />
		<tag k="natural" v="water" />
		<tag k="ssr:stedsnr" v="44547" />
	</node>
	<node id="-453729" lat="59.673711109" lon="8.73681945257">
		<tag k="name" v="Hestedokktjønn" />
>>>>>>> e1d4bc35ff8a6074a6f2e91616a996b547c36f15
		<tag k="natural" v="water" />
		<tag k="ssr:stedsnr" v="671811" />
	</node>
<<<<<<< HEAD
	<node lat="59.82579444665312" lon="8.569736108491938" id="-20100">
		<tag k="alt_name" v="Flisetjørn" />
		<tag k="name" v="Flisetjønn" />
		<tag k="natural" v="water" />
		<tag k="ssr:stedsnr" v="671816" />
	</node>
	<node lat="59.762080551090605" lon="8.549763883899018" id="-20103">
		<tag k="alt_name" v="Urdetjørn, nedre;Urdetjønn nedre" />
		<tag k="name" v="Nedre Urdetjønn" />
=======
	<node id="-453727" lat="59.6887666694" lon="8.75860278167">
		<tag k="name" v="Bekkjestulbekken" />
		<tag k="ssr:stedsnr" v="44402" />
		<tag k="waterway" v="stream" />
	</node>
	<node id="-453722" lat="59.6704472258" lon="8.57750555112">
		<tag k="name" v="Suggetjønn" />
>>>>>>> e1d4bc35ff8a6074a6f2e91616a996b547c36f15
		<tag k="natural" v="water" />
		<tag k="ssr:stedsnr" v="671947" />
	</node>
<<<<<<< HEAD
	<node lat="59.71219721916469" lon="8.841088887759383" id="-20110">
		<tag k="name" v="Kova" />
		<tag k="ssr:stedsnr" v="894233" />
		<tag k="waterway" v="river" />
	</node>
	<node lat="59.72855555549432" lon="8.607055548106135" id="-20111">
		<tag k="name" v="Kovdalsbukta" />
		<tag k="natural" v="bay" />
		<tag k="ssr:stedsnr" v="894241" />
	</node>
	<node lat="59.62519444659517" lon="8.590222225570443" id="-20124">
		<tag k="name" v="Krokberget" />
		<tag k="place" v="locality" />
		<tag k="ssr:stedsnr" v="895401" />
	</node>
	<node lat="59.58378055544138" lon="8.960838884685884" id="-20125">
		<tag k="name" v="Tjønnholbekken" />
		<tag k="ssr:stedsnr" v="895656" />
		<tag k="waterway" v="stream" />
	</node>
	<node lat="59.60760555348845" lon="8.581794451180768" id="-20126">
		<tag k="name" v="Ståldalsoset" />
		<tag k="natural" v="bay" />
		<tag k="ssr:stedsnr" v="895662" />
	</node>
	<node lat="59.61824444595898" lon="8.917536104858778" id="-20138">
		<tag k="name" v="Mosebøøya" />
		<tag k="place" v="island" />
		<tag k="ssr:stedsnr" v="712049" />
	</node>
	<node lat="59.78710277966977" lon="8.68377778415826" id="-20140">
		<tag k="name" v="Blåbærøyi" />
		<tag k="natural" v="cape" />
		<tag k="ssr:stedsnr" v="712382" />
	</node>
	<node lat="59.74488610952631" lon="8.860475005370008" id="-20151">
		<tag k="name" v="Storebekk" />
		<tag k="ssr:stedsnr" v="731009" />
		<tag k="waterway" v="stream" />
	</node>
	<node lat="59.58943055678563" lon="8.947983331121623" id="-20157">
		<tag k="alt_name" v="Fiskebekk" />
		<tag k="name" v="Fiskebekken" />
		<tag k="ssr:stedsnr" v="731275" />
		<tag k="waterway" v="stream" />
	</node>
	<node lat="59.57098610783399" lon="8.900805556427725" id="-20158">
		<tag k="alt_name" v="Ramdalsbekken" />
		<tag k="name" v="Romdalsbekken" />
		<tag k="ssr:stedsnr" v="731303" />
		<tag k="waterway" v="stream" />
	</node>
	<node lat="59.598991670578314" lon="8.869369442880016" id="-20161">
		<tag k="alt_name" v="Klovbekk" />
		<tag k="name" v="Klovbekken" />
		<tag k="ssr:stedsnr" v="731319" />
		<tag k="waterway" v="stream" />
	</node>
	<node lat="59.70920897633804" lon="8.593351336767391" id="-20163">
		<tag k="alt_name" v="Ståvåtjørn" />
		<tag k="name" v="Ståvåtjønn" />
=======
	<node id="-453721" lat="59.7332611115" lon="8.86270833177">
		<tag k="name" v="Brødbekk" />
		<tag k="ssr:stedsnr" v="44234" />
		<tag k="waterway" v="stream" />
	</node>
	<node id="-453717" lat="59.6439611084" lon="8.63475277877">
		<tag k="name" v="Langetjønn" />
		<tag k="natural" v="water" />
		<tag k="ssr:stedsnr" v="44179" />
	</node>
	<node id="-453716" lat="59.6940861117" lon="8.66532500107">
		<tag k="name" v="Dipilin" />
		<tag k="natural" v="water" />
		<tag k="ssr:stedsnr" v="44146" />
		<tag k="water" v="pond" />
	</node>
	<node id="-453714" lat="59.7188722218" lon="8.77787778254">
		<tag k="name" v="Gåsetjønn nedre" />
		<tag k="natural" v="water" />
		<tag k="ssr:stedsnr" v="5462" />
	</node>
	<node id="-453706" lat="59.8435888915" lon="8.48242222781">
		<tag k="name" v="Såemsbotn" />
		<tag k="natural" v="water" />
		<tag k="ssr:stedsnr" v="4865" />
		<tag k="water" v="lake" />
	</node>
	<node id="-453705" lat="59.8242500036" lon="8.53066110498">
		<tag k="alt_name" v="Gunlekstadvatn" />
		<tag k="name" v="Gunnleikstadvatnet" />
		<tag k="natural" v="water" />
		<tag k="ssr:stedsnr" v="4851" />
	</node>
	<node id="-453699" lat="59.7934236588" lon="8.58942407893">
		<tag k="alt_name" v="Longetjørn" />
		<tag k="name" v="Langetjønn" />
		<tag k="natural" v="water" />
		<tag k="ssr:stedsnr" v="4781" />
	</node>
	<node id="-453698" lat="59.7946694426" lon="8.60413055499">
		<tag k="alt_name" v="Grotbekkåi" />
		<tag k="name" v="Grotbekken" />
		<tag k="ssr:stedsnr" v="4774" />
		<tag k="waterway" v="stream" />
	</node>
	<node id="-453697" lat="59.8352249989" lon="8.8556750039">
		<tag k="alt_name" v="Aslaugbutjørni" />
		<tag k="name" v="Aslaugbutjønn" />
		<tag k="natural" v="water" />
		<tag k="ssr:stedsnr" v="4446" />
	</node>
	<node id="-453690" lat="59.5995527765" lon="8.83340555183">
		<tag k="alt_name" v="Tjørnstulvatnet" />
		<tag k="name" v="Tjønnstulvatn" />
		<tag k="natural" v="water" />
		<tag k="ssr:stedsnr" v="3836" />
	</node>
	<node id="-453689" lat="59.6039638847" lon="8.72310000307">
		<tag k="alt_name" v="Hjartsjå" />
		<tag k="name" v="Hjartsjåvatnet" />
>>>>>>> e1d4bc35ff8a6074a6f2e91616a996b547c36f15
		<tag k="natural" v="water" />
		<tag k="ssr:stedsnr" v="731603" />
		<tag k="water" v="lake" />
	</node>
<<<<<<< HEAD
	<node lat="59.671130556069436" lon="8.66039167172819" id="-20164">
		<tag k="alt_name" v="Sandtjørn" />
		<tag k="name" v="Sandtjønn" />
=======
	<node id="-453683" lat="59.8097861106" lon="8.55152777596">
		<tag k="alt_name" v="Storfisktjørn" />
		<tag k="name" v="Storfisktjønn" />
>>>>>>> e1d4bc35ff8a6074a6f2e91616a996b547c36f15
		<tag k="natural" v="water" />
		<tag k="ssr:stedsnr" v="731609" />
	</node>
<<<<<<< HEAD
	<node lat="59.67871111514581" lon="8.713655547389289" id="-20166">
		<tag k="alt_name" v="Langetjørn" />
		<tag k="name" v="Langetjønn" />
		<tag k="natural" v="water" />
		<tag k="ssr:stedsnr" v="731625" />
	</node>
	<node lat="59.645352777223266" lon="8.559380556870822" id="-20167">
		<tag k="alt_name" v="Stangesjåvatn" />
		<tag k="name" v="Stangesjå" />
=======
	<node id="-453675" lat="59.6644888893" lon="8.68328333499">
		<tag k="alt_name" v="Reinstjørn" />
		<tag k="name" v="Reinstjønn" />
		<tag k="natural" v="water" />
		<tag k="ssr:stedsnr" v="3616" />
	</node>
	<node id="-453674" lat="59.6894277774" lon="8.55691666819">
		<tag k="name" v="Bjordøla" />
		<tag k="ssr:stedsnr" v="3587" />
		<tag k="waterway" v="stream" />
	</node>
	<node id="-453673" lat="59.7175055555" lon="8.77030000486">
		<tag k="name" v="Gåsetjørnan" />
>>>>>>> e1d4bc35ff8a6074a6f2e91616a996b547c36f15
		<tag k="natural" v="water" />
		<tag k="ssr:stedsnr" v="731653" />
		<tag k="water" v="lake" />
	</node>
<<<<<<< HEAD
	<node lat="59.64835277894962" lon="8.607274993494187" id="-20168">
		<tag k="alt_name" v="Solheimstultjørni" />
		<tag k="name" v="Solheimstultjønna" />
=======
	<node id="-453669" lat="59.7141694444" lon="8.73798888224">
		<tag k="name" v="Snarkilen" />
>>>>>>> e1d4bc35ff8a6074a6f2e91616a996b547c36f15
		<tag k="natural" v="water" />
		<tag k="ssr:stedsnr" v="731666" />
	</node>
<<<<<<< HEAD
	<node lat="59.65011111066078" lon="8.651483328280273" id="-20169">
		<tag k="alt_name" v="Fisketjørn" />
		<tag k="name" v="Fisketjønn" />
		<tag k="natural" v="bay" />
		<tag k="ssr:stedsnr" v="731667" />
	</node>
	<node lat="59.631050000454856" lon="8.713988891270574" id="-20171">
		<tag k="name" v="Oppsaldamtjønn" />
=======
	<node id="-453665" lat="59.717125001" lon="8.67427500481">
		<tag k="alt_name" v="Sløatjørnan" />
		<tag k="name" v="Sløåtjønnen" />
>>>>>>> e1d4bc35ff8a6074a6f2e91616a996b547c36f15
		<tag k="natural" v="water" />
		<tag k="ssr:stedsnr" v="731707" />
	</node>
<<<<<<< HEAD
	<node lat="59.661152776672246" lon="8.794149999666471" id="-20175">
		<tag k="alt_name" v="Klemmelitjørna" />
		<tag k="name" v="Klemmelitjønn" />
=======
	<node id="-453658" lat="59.7365916693" lon="8.62435000661">
		<tag k="name" v="Vesletjørn" />
>>>>>>> e1d4bc35ff8a6074a6f2e91616a996b547c36f15
		<tag k="natural" v="water" />
		<tag k="ssr:stedsnr" v="731726" />
	</node>
<<<<<<< HEAD
	<node lat="59.83776666526433" lon="8.788777769589755" id="-20185">
		<tag k="alt_name" v="Svartetjørn" />
		<tag k="name" v="Svartetjønn" />
=======
	<node id="-453649" lat="59.6382139564" lon="8.85839066014">
		<tag k="alt_name" v="Trytetjørn" />
		<tag k="name" v="Trytetjønn" />
>>>>>>> e1d4bc35ff8a6074a6f2e91616a996b547c36f15
		<tag k="natural" v="water" />
		<tag k="ssr:stedsnr" v="732817" />
	</node>
<<<<<<< HEAD
	<node lat="59.82601110811452" lon="8.579433341556015" id="-20186">
		<tag k="name" v="Stuvodden" />
=======
	<node id="-453631" lat="59.7782638849" lon="8.52231666655">
		<tag k="alt_name" v="Grunntjørntangen" />
		<tag k="name" v="Grunntjønntangen" />
>>>>>>> e1d4bc35ff8a6074a6f2e91616a996b547c36f15
		<tag k="natural" v="cape" />
		<tag k="ssr:stedsnr" v="732821" />
	</node>
<<<<<<< HEAD
	<node lat="59.559377835851656" lon="8.734045881921956" id="-20191">
		<tag k="name" v="Flisetjønnan" />
=======
	<node id="-453630" lat="59.7521582231" lon="8.59859971397">
		<tag k="alt_name" v="Risbutjørni, nordre;Risbutjønn nordre" />
		<tag k="name" v="Nordre Risbutjønn" />
>>>>>>> e1d4bc35ff8a6074a6f2e91616a996b547c36f15
		<tag k="natural" v="water" />
		<tag k="ssr:stedsnr" v="228851" />
	</node>
<<<<<<< HEAD
	<node lat="59.59066944228658" lon="8.766305550899022" id="-20192">
		<tag k="name" v="Helvetesfoss" />
		<tag k="natural" v="waterfall" />
		<tag k="ssr:stedsnr" v="228853" />
	</node>
	<node lat="59.76605555962183" lon="8.740966673485739" id="-20193">
		<tag k="name" v="Grasåstjønn" />
=======
	<node id="-453618" lat="59.7642027811" lon="8.77716111031">
		<tag k="name" v="Kyrkjeåi" />
		<tag k="ssr:stedsnr" v="947629" />
		<tag k="waterway" v="river" />
	</node>
	<node id="-453613" lat="59.7898611123" lon="8.60189166602">
		<tag k="alt_name" v="Nutetjørn" />
		<tag k="name" v="Nutetjønn" />
>>>>>>> e1d4bc35ff8a6074a6f2e91616a996b547c36f15
		<tag k="natural" v="water" />
		<tag k="ssr:stedsnr" v="764552" />
	</node>
<<<<<<< HEAD
	<node lat="59.67605833028931" lon="8.675275006592939" id="-20195">
		<tag k="name" v="Skjentangen" />
		<tag k="natural" v="cape" />
		<tag k="ssr:stedsnr" v="772815" />
	</node>
	<node lat="59.8344388868128" lon="8.526986108350776" id="-20203">
		<tag k="name" v="Flisebekk" />
		<tag k="ssr:stedsnr" v="774616" />
		<tag k="waterway" v="stream" />
	</node>
	<node lat="59.592075002754505" lon="8.989777785519033" id="-20209">
		<tag k="alt_name" v="Beinstultjørna" />
		<tag k="name" v="Bennstultjønn" />
		<tag k="natural" v="water" />
		<tag k="ssr:stedsnr" v="791312" />
	</node>
	<node lat="59.618336108608595" lon="9.017063896028196" id="-20215">
		<tag k="name" v="Libekk" />
		<tag k="ssr:stedsnr" v="791295" />
		<tag k="waterway" v="stream" />
	</node>
	<node lat="59.70860833682393" lon="8.751733332272998" id="-20226">
		<tag k="alt_name" v="Tverrbekk" />
		<tag k="name" v="Tverrbekken" />
		<tag k="ssr:stedsnr" v="792582" />
		<tag k="waterway" v="stream" />
	</node>
	<node lat="59.62842777605436" lon="8.737077784998574" id="-20227">
		<tag k="alt_name" v="Rennevatn" />
		<tag k="name" v="Rennevatnet" />
=======
	<node id="-453600" lat="59.6584249987" lon="8.56373333837">
		<tag k="name" v="Bjordøla" />
		<tag k="ssr:stedsnr" v="853672" />
		<tag k="waterway" v="river" />
	</node>
	<node id="-453597" lat="59.7041229068" lon="8.61813811048">
		<tag k="alt_name" v="Brilletjønn" />
		<tag k="name" v="Brilletjørnan" />
		<tag k="natural" v="water" />
		<tag k="ssr:stedsnr" v="853571" />
	</node>
	<node id="-453595" lat="59.7485944477" lon="8.78982222225">
		<tag k="alt_name" v="Bjårvatn" />
		<tag k="name" v="Bjårvatnet" />
		<tag k="natural" v="water" />
		<tag k="ssr:stedsnr" v="853557" />
		<tag k="water" v="lake" />
	</node>
	<node id="-453586" lat="59.6068305578" lon="8.55396666667">
		<tag k="alt_name" v="Ståldalsvatn" />
		<tag k="name" v="Ståldalsvatnet" />
		<tag k="natural" v="water" />
		<tag k="ssr:stedsnr" v="852860" />
		<tag k="water" v="lake" />
	</node>
	<node id="-453585" lat="59.5941888844" lon="8.62695000188">
		<tag k="name" v="Svorte" />
		<tag k="ssr:stedsnr" v="852857" />
		<tag k="waterway" v="river" />
	</node>
	<node id="-453577" lat="59.5987249959" lon="8.69990277978">
		<tag k="name" v="Trainbekken" />
		<tag k="ssr:stedsnr" v="834167" />
		<tag k="waterway" v="stream" />
	</node>
	<node id="-452769" lat="59.6482944449" lon="8.67878889409">
		<tag k="alt_name" v="Vatnartjørnan" />
		<tag k="name" v="Vatnartjønnan" />
		<tag k="natural" v="water" />
		<tag k="ssr:stedsnr" v="246667" />
		<tag k="water" v="lake" />
	</node>
	<node id="-453572" lat="59.6809833333" lon="8.76545833173">
		<tag k="name" v="Erdalstjønn" />
		<tag k="natural" v="water" />
		<tag k="ssr:stedsnr" v="833417" />
	</node>
	<node id="-453567" lat="59.6487861069" lon="8.65549999153">
		<tag k="name" v="Jørandtjønn" />
>>>>>>> e1d4bc35ff8a6074a6f2e91616a996b547c36f15
		<tag k="natural" v="water" />
		<tag k="ssr:stedsnr" v="792712" />
		<tag k="water" v="lake" />
	</node>
<<<<<<< HEAD
	<node lat="59.54800592966055" lon="8.808935717771357" id="-20230">
=======
	<node id="-453563" lat="59.5480059297" lon="8.80893571777">
>>>>>>> e1d4bc35ff8a6074a6f2e91616a996b547c36f15
		<tag k="alt_name" v="Slåkavatn" />
		<tag k="name" v="Slåkåvatnet" />
		<tag k="natural" v="water" />
		<tag k="ssr:stedsnr" v="792980" />
		<tag k="water" v="lake" />
	</node>
<<<<<<< HEAD
	<node lat="59.788011111371176" lon="8.758074996527792" id="-20234">
		<tag k="name" v="Nøtting" />
		<tag k="natural" v="water" />
		<tag k="ssr:stedsnr" v="793793" />
	</node>
	<node lat="59.74306666797013" lon="8.826644452512674" id="-20243">
		<tag k="alt_name" v="Hovdåi" />
		<tag k="name" v="Hovdeåi" />
		<tag k="ssr:stedsnr" v="913554" />
		<tag k="waterway" v="river" />
	</node>
	<node lat="59.710766669380064" lon="8.650391661565882" id="-20245">
		<tag k="name" v="Deledalstjørnan" />
=======
	<node id="-452766" lat="59.6964750036" lon="8.80103610803">
		<tag k="alt_name" v="Langetjønn" />
		<tag k="name" v="Langetjørn" />
		<tag k="natural" v="water" />
		<tag k="ssr:stedsnr" v="246649" />
	</node>
	<node id="-453547" lat="59.7071638899" lon="8.47177222934">
		<tag k="name" v="Åtoåi" />
		<tag k="ssr:stedsnr" v="792621" />
		<tag k="waterway" v="river" />
	</node>
	<node id="-453545" lat="59.7025500034" lon="8.77621110682">
		<tag k="name" v="Grønlitjørnan" />
>>>>>>> e1d4bc35ff8a6074a6f2e91616a996b547c36f15
		<tag k="natural" v="water" />
		<tag k="ssr:stedsnr" v="913567" />
	</node>
<<<<<<< HEAD
	<node lat="59.65660000349241" lon="8.716983334962144" id="-20247">
		<tag k="alt_name" v="Urdetjørnåi" />
		<tag k="name" v="Uletjønnåa" />
		<tag k="ssr:stedsnr" v="913673" />
		<tag k="waterway" v="stream" />
	</node>
	<node lat="59.6628805543319" lon="8.499088891932002" id="-20250">
		<tag k="alt_name" v="Brekketjørn" />
		<tag k="name" v="Brekketjønn" />
=======
	<node id="-453539" lat="59.7406305568" lon="8.62042499459">
		<tag k="alt_name" v="Kroktjørn, øvre;Kroktjønn øvre" />
		<tag k="name" v="Øvre Kroktjønn" />
>>>>>>> e1d4bc35ff8a6074a6f2e91616a996b547c36f15
		<tag k="natural" v="water" />
		<tag k="ssr:stedsnr" v="913678" />
	</node>
<<<<<<< HEAD
	<node lat="59.57461666831251" lon="8.819705556048918" id="-20255">
		<tag k="alt_name" v="Homtjørn" />
		<tag k="name" v="Homtjønn" />
		<tag k="natural" v="water" />
		<tag k="ssr:stedsnr" v="913916" />
		<tag k="water" v="lake" />
	</node>
	<node lat="59.79270555707934" lon="8.3846305616483" id="-20256">
		<tag k="alt_name" v="Sandtjørni" />
		<tag k="name" v="Sandtjønn" />
=======
	<node id="-453529" lat="59.7471861075" lon="8.79743333993">
		<tag k="name" v="Landsverktangen" />
		<tag k="natural" v="cape" />
		<tag k="ssr:stedsnr" v="773729" />
	</node>
	<node id="-453514" lat="59.8257611136" lon="8.55200832947">
		<tag k="alt_name" v="Raudbutjørni, vle;Raudbutjørni, vesle" />
		<tag k="name" v="Vesle Raubutjønn" />
>>>>>>> e1d4bc35ff8a6074a6f2e91616a996b547c36f15
		<tag k="natural" v="water" />
		<tag k="ssr:stedsnr" v="914090" />
	</node>
<<<<<<< HEAD
	<node lat="59.72081111088069" lon="8.843399994258318" id="-20257">
		<tag k="name" v="Lonin" />
=======
	<node id="-453512" lat="59.8024638929" lon="8.49172500798">
		<tag k="alt_name" v="Nordstultjørn" />
		<tag k="name" v="Nordstultjønn" />
>>>>>>> e1d4bc35ff8a6074a6f2e91616a996b547c36f15
		<tag k="natural" v="water" />
		<tag k="ssr:stedsnr" v="914118" />
	</node>
	<node lat="59.81867000697352" lon="8.721952913152839" id="-20262">
		<tag k="alt_name" v="Flisetjørn" />
		<tag k="name" v="Flisetjønn" />
		<tag k="natural" v="water" />
		<tag k="ssr:stedsnr" v="914789" />
	</node>
<<<<<<< HEAD
	<node lat="59.82180278032551" lon="8.762166669607913" id="-20264">
=======
	<node id="-453510" lat="59.8218027803" lon="8.76216666961">
>>>>>>> e1d4bc35ff8a6074a6f2e91616a996b547c36f15
		<tag k="alt_name" v="Ljostjørn, store" />
		<tag k="name" v="Store Ljostjønn" />
		<tag k="natural" v="water" />
		<tag k="ssr:stedsnr" v="914792" />
	</node>
<<<<<<< HEAD
	<node lat="59.8257611136437" lon="8.552008329467517" id="-20266">
		<tag k="alt_name" v="Raudbutjørni, vle;Raudbutjørni, vesle" />
		<tag k="name" v="Vesle Raubutjønn" />
=======
	<node id="-453508" lat="59.818670007" lon="8.72195291315">
		<tag k="alt_name" v="Flisetjørn" />
		<tag k="name" v="Flisetjønn" />
>>>>>>> e1d4bc35ff8a6074a6f2e91616a996b547c36f15
		<tag k="natural" v="water" />
		<tag k="ssr:stedsnr" v="914821" />
	</node>
<<<<<<< HEAD
	<node lat="59.63100555725104" lon="8.54937500592863" id="-20269">
=======
	<node id="-452758" lat="59.7189333327" lon="8.809775008">
		<tag k="alt_name" v="Råstultjørni" />
		<tag k="name" v="Råstultjønn" />
		<tag k="natural" v="water" />
		<tag k="ssr:stedsnr" v="246567" />
	</node>
	<node id="-453506" lat="59.6310055573" lon="8.54937500593">
>>>>>>> e1d4bc35ff8a6074a6f2e91616a996b547c36f15
		<tag k="alt_name" v="Ormetjørn" />
		<tag k="name" v="Ormetjønn" />
		<tag k="natural" v="water" />
		<tag k="ssr:stedsnr" v="914767" />
	</node>
<<<<<<< HEAD
	<node lat="59.752158223145564" lon="8.59859971397334" id="-20274">
		<tag k="alt_name" v="Risbutjørni, nordre;Risbutjønn nordre" />
		<tag k="name" v="Nordre Risbutjønn" />
=======
	<node id="-453496" lat="59.7208111109" lon="8.84339999426">
		<tag k="name" v="Lonin" />
>>>>>>> e1d4bc35ff8a6074a6f2e91616a996b547c36f15
		<tag k="natural" v="water" />
		<tag k="ssr:stedsnr" v="914965" />
	</node>
<<<<<<< HEAD
	<node lat="59.7782638849435" lon="8.522316666551133" id="-20275">
		<tag k="alt_name" v="Grunntjørntangen" />
		<tag k="name" v="Grunntjønntangen" />
		<tag k="natural" v="cape" />
		<tag k="ssr:stedsnr" v="914982" />
	</node>
	<node lat="59.721430557803615" lon="8.882213880372893" id="-20285">
		<tag k="name" v="Bjørndalsbekken" />
		<tag k="ssr:stedsnr" v="832232" />
		<tag k="waterway" v="stream" />
	</node>
	<node lat="59.59418888444437" lon="8.62695000188169" id="-20299">
		<tag k="name" v="Svorte" />
		<tag k="ssr:stedsnr" v="852857" />
		<tag k="waterway" v="river" />
	</node>
	<node lat="59.606830557843416" lon="8.553966666668776" id="-20300">
		<tag k="alt_name" v="Ståldalsvatn" />
		<tag k="name" v="Ståldalsvatnet" />
=======
	<node id="-453495" lat="59.7927055571" lon="8.38463056165">
		<tag k="alt_name" v="Sandtjørni" />
		<tag k="name" v="Sandtjønn" />
		<tag k="natural" v="water" />
		<tag k="ssr:stedsnr" v="914090" />
	</node>
	<node id="-453494" lat="59.7610111134" lon="8.45743055838">
		<tag k="alt_name" v="Torvetjørni" />
		<tag k="name" v="Torvtjønn" />
		<tag k="natural" v="water" />
		<tag k="ssr:stedsnr" v="914077" />
	</node>
	<node id="-453493" lat="59.5746166683" lon="8.81970555605">
		<tag k="alt_name" v="Homtjørn" />
		<tag k="name" v="Homtjønn" />
>>>>>>> e1d4bc35ff8a6074a6f2e91616a996b547c36f15
		<tag k="natural" v="water" />
		<tag k="ssr:stedsnr" v="852860" />
		<tag k="water" v="lake" />
	</node>
<<<<<<< HEAD
	<node lat="59.63276666238951" lon="9.005066665110045" id="-20301">
		<tag k="name" v="Store Krok" />
		<tag k="place" v="locality" />
		<tag k="ssr:stedsnr" v="853174" />
	</node>
	<node lat="59.748594447670015" lon="8.78982222225207" id="-20306">
		<tag k="alt_name" v="Bjårvatn" />
		<tag k="name" v="Bjårvatnet" />
=======
	<node id="-453480" lat="59.6569388904" lon="8.74150555273">
		<tag k="name" v="Skårsetvatnet" />
>>>>>>> e1d4bc35ff8a6074a6f2e91616a996b547c36f15
		<tag k="natural" v="water" />
		<tag k="ssr:stedsnr" v="853557" />
		<tag k="water" v="lake" />
	</node>
<<<<<<< HEAD
	<node lat="59.68686111038121" lon="8.693197228253377" id="-20313">
		<tag k="name" v="Beggestultjørna" />
=======
	<node id="-453477" lat="59.6628805543" lon="8.49908889193">
		<tag k="alt_name" v="Brekketjørn" />
		<tag k="name" v="Brekketjønn" />
>>>>>>> e1d4bc35ff8a6074a6f2e91616a996b547c36f15
		<tag k="natural" v="water" />
		<tag k="ssr:stedsnr" v="853622" />
	</node>
<<<<<<< HEAD
	<node lat="59.68066666885722" lon="8.667041661381344" id="-20314">
		<tag k="alt_name" v="Åndetjønn" />
		<tag k="name" v="Andetjørn" />
		<tag k="natural" v="water" />
		<tag k="ssr:stedsnr" v="853624" />
	</node>
	<node lat="59.65842499872691" lon="8.563733338367458" id="-20317">
		<tag k="name" v="Bjordøla" />
		<tag k="ssr:stedsnr" v="853672" />
		<tag k="waterway" v="river" />
	</node>
	<node lat="59.80971666256897" lon="8.840597220819522" id="-20320">
		<tag k="alt_name" v="Sjåvatnet" />
		<tag k="name" v="Sjåvatn" />
=======
	<node id="-453474" lat="59.6566000035" lon="8.71698333496">
		<tag k="alt_name" v="Urdetjørnåi" />
		<tag k="name" v="Uletjønnåa" />
		<tag k="ssr:stedsnr" v="913673" />
		<tag k="waterway" v="stream" />
	</node>
	<node id="-453471" lat="59.6906361077" lon="8.54807500023">
		<tag k="alt_name" v="Lomtjørn" />
		<tag k="name" v="Lomtjønn" />
>>>>>>> e1d4bc35ff8a6074a6f2e91616a996b547c36f15
		<tag k="natural" v="water" />
		<tag k="ssr:stedsnr" v="853800" />
		<tag k="water" v="lake" />
	</node>
<<<<<<< HEAD
	<node lat="59.77758611270935" lon="8.579527781566412" id="-20324">
		<tag k="alt_name" v="Svartetjørn" />
		<tag k="name" v="Svartetjønn" />
=======
	<node id="-453465" lat="59.7107666694" lon="8.65039166157">
		<tag k="name" v="Deledalstjørnan" />
>>>>>>> e1d4bc35ff8a6074a6f2e91616a996b547c36f15
		<tag k="natural" v="water" />
		<tag k="ssr:stedsnr" v="854598" />
	</node>
<<<<<<< HEAD
	<node lat="59.78986111228031" lon="8.601891666019679" id="-20326">
		<tag k="alt_name" v="Nutetjørn" />
		<tag k="name" v="Nutetjønn" />
		<tag k="natural" v="water" />
		<tag k="ssr:stedsnr" v="854754" />
	</node>
	<node lat="59.71046110919585" lon="8.650591670861264" id="-20335">
		<tag k="name" v="Deledalstjønn østre" />
		<tag k="natural" v="water" />
		<tag k="ssr:stedsnr" v="894177" />
	</node>
	<node lat="59.583980551973966" lon="8.842994440141954" id="-20343">
		<tag k="name" v="Flisetjønn" />
		<tag k="natural" v="water" />
		<tag k="ssr:stedsnr" v="894968" />
	</node>
	<node lat="59.58544166834173" lon="8.976625008193084" id="-20358">
=======
	<node id="-453463" lat="59.743066668" lon="8.82664445251">
		<tag k="alt_name" v="Hovdåi" />
		<tag k="name" v="Hovdeåi" />
		<tag k="ssr:stedsnr" v="913554" />
		<tag k="waterway" v="river" />
	</node>
	<node id="-453460" lat="59.5854416683" lon="8.97662500819">
>>>>>>> e1d4bc35ff8a6074a6f2e91616a996b547c36f15
		<tag k="alt_name" v="Bråtåbekk" />
		<tag k="name" v="Bråtåbekken" />
		<tag k="ssr:stedsnr" v="913308" />
		<tag k="waterway" v="stream" />
	</node>
<<<<<<< HEAD
	<node lat="59.690636107665924" lon="8.548075000230305" id="-20362">
		<tag k="alt_name" v="Lomtjørn" />
		<tag k="name" v="Lomtjønn" />
=======
	<node id="-453453" lat="59.6787111151" lon="8.71365554739">
		<tag k="alt_name" v="Langetjørn" />
		<tag k="name" v="Langetjønn" />
		<tag k="natural" v="water" />
		<tag k="ssr:stedsnr" v="731625" />
	</node>
	<node id="-453451" lat="59.6711305561" lon="8.66039167173">
		<tag k="alt_name" v="Sandtjørn" />
		<tag k="name" v="Sandtjønn" />
>>>>>>> e1d4bc35ff8a6074a6f2e91616a996b547c36f15
		<tag k="natural" v="water" />
		<tag k="ssr:stedsnr" v="913617" />
	</node>
<<<<<<< HEAD
	<node lat="59.6569388904382" lon="8.74150555273043" id="-20364">
		<tag k="name" v="Skårsetvatnet" />
=======
	<node id="-453450" lat="59.7092089763" lon="8.59335133677">
		<tag k="alt_name" v="Ståvåtjørn" />
		<tag k="name" v="Ståvåtjønn" />
>>>>>>> e1d4bc35ff8a6074a6f2e91616a996b547c36f15
		<tag k="natural" v="water" />
		<tag k="ssr:stedsnr" v="913714" />
		<tag k="water" v="lake" />
	</node>
<<<<<<< HEAD
	<node lat="59.76101111335664" lon="8.457430558384333" id="-20374">
		<tag k="alt_name" v="Torvetjørni" />
		<tag k="name" v="Torvtjønn" />
=======
	<node id="-453447" lat="59.6611527767" lon="8.79414999967">
		<tag k="alt_name" v="Klemmelitjørna" />
		<tag k="name" v="Klemmelitjønn" />
>>>>>>> e1d4bc35ff8a6074a6f2e91616a996b547c36f15
		<tag k="natural" v="water" />
		<tag k="ssr:stedsnr" v="914077" />
	</node>
<<<<<<< HEAD
	<node lat="59.80246389290806" lon="8.491725007980177" id="-20379">
		<tag k="alt_name" v="Nordstultjørn" />
		<tag k="name" v="Nordstultjønn" />
		<tag k="natural" v="water" />
		<tag k="ssr:stedsnr" v="914810" />
	</node>
	<node lat="59.764202781101886" lon="8.777161110313713" id="-20384">
		<tag k="name" v="Kyrkjeåi" />
		<tag k="ssr:stedsnr" v="947629" />
		<tag k="waterway" v="river" />
	</node>
	<node lat="59.72422221789605" lon="8.844574994614966" id="-20385">
		<tag k="name" v="Ekslihølen" />
		<tag k="place" v="locality" />
		<tag k="ssr:stedsnr" v="953253" />
	</node>
	<node lat="59.72483333579282" lon="8.79229167096043" id="-20388">
		<tag k="name" v="Langodden" />
		<tag k="natural" v="cape" />
		<tag k="ssr:stedsnr" v="954353" />
	</node>
	<node lat="59.638213956407654" lon="8.858390660135532" id="-20418">
		<tag k="alt_name" v="Trytetjørn" />
		<tag k="name" v="Trytetjønn" />
		<tag k="natural" v="water" />
		<tag k="ssr:stedsnr" v="3169" />
	</node>
	<node lat="59.73659166926601" lon="8.62435000660636" id="-20422">
		<tag k="name" v="Vesletjørn" />
		<tag k="natural" v="water" />
		<tag k="ssr:stedsnr" v="3489" />
	</node>
	<node lat="59.60396388465864" lon="8.723100003074391" id="-20428">
		<tag k="alt_name" v="Hjartsjå" />
		<tag k="name" v="Hjartsjåvatnet" />
=======
	<node id="-453443" lat="59.6310500005" lon="8.71398889127">
		<tag k="alt_name" v="Damtjørn" />
		<tag k="name" v="Opsal damtjønn" />
		<tag k="natural" v="water" />
		<tag k="ssr:stedsnr" v="731707" />
	</node>
	<node id="-453439" lat="59.5989916706" lon="8.86936944288">
		<tag k="alt_name" v="Klovbekk" />
		<tag k="name" v="Klovbekken" />
		<tag k="ssr:stedsnr" v="731319" />
		<tag k="waterway" v="stream" />
	</node>
	<node id="-453436" lat="59.5709861078" lon="8.90080555643">
		<tag k="alt_name" v="Ramdalsbekken" />
		<tag k="name" v="Romdalsbekken" />
		<tag k="ssr:stedsnr" v="731303" />
		<tag k="waterway" v="stream" />
	</node>
	<node id="-453435" lat="59.7448861095" lon="8.86047500537">
		<tag k="name" v="Storebekk" />
		<tag k="ssr:stedsnr" v="731009" />
		<tag k="waterway" v="stream" />
	</node>
	<node id="-453418" lat="59.6076055535" lon="8.58179445118">
		<tag k="name" v="Ståldalsoset" />
		<tag k="natural" v="bay" />
		<tag k="ssr:stedsnr" v="895662" />
	</node>
	<node id="-453417" lat="59.5837805554" lon="8.96083888469">
		<tag k="name" v="Tjønnholbekken" />
		<tag k="ssr:stedsnr" v="895656" />
		<tag k="waterway" v="stream" />
	</node>
	<node id="-453416" lat="59.6251944466" lon="8.59022222557">
		<tag k="name" v="Krokberget" />
		<tag k="place" v="locality" />
		<tag k="ssr:stedsnr" v="895401" />
	</node>
	<node id="-453411" lat="59.583980552" lon="8.84299444014">
		<tag k="name" v="Flisetjønn" />
>>>>>>> e1d4bc35ff8a6074a6f2e91616a996b547c36f15
		<tag k="natural" v="water" />
		<tag k="ssr:stedsnr" v="3831" />
		<tag k="water" v="lake" />
	</node>
<<<<<<< HEAD
	<node lat="59.59955277649481" lon="8.83340555183235" id="-20429">
		<tag k="alt_name" v="Tjørnstulvatnet" />
		<tag k="name" v="Tjønnstulvatn" />
=======
	<node id="-453401" lat="59.8090527733" lon="8.441655547">
		<tag k="name" v="Skjertjønn" />
>>>>>>> e1d4bc35ff8a6074a6f2e91616a996b547c36f15
		<tag k="natural" v="water" />
		<tag k="ssr:stedsnr" v="3836" />
	</node>
<<<<<<< HEAD
	<node lat="59.71712500101991" lon="8.67427500481402" id="-20437">
		<tag k="alt_name" v="Sløatjørnan" />
		<tag k="name" v="Sløåtjønnen" />
		<tag k="natural" v="water" />
		<tag k="ssr:stedsnr" v="3533" />
	</node>
	<node lat="59.714169444436344" lon="8.737988882236973" id="-20441">
		<tag k="name" v="Snarkilen" />
		<tag k="natural" v="water" />
		<tag k="ssr:stedsnr" v="3555" />
	</node>
	<node lat="59.71750555545597" lon="8.77030000485765" id="-20445">
		<tag k="name" v="Gåsetjørnan" />
=======
	<node id="-453397" lat="59.6585166709" lon="8.89846111666">
		<tag k="name" v="Blomøya" />
		<tag k="place" v="islet" />
		<tag k="ssr:stedsnr" v="711957" />
	</node>
	<node id="-453394" lat="59.7650833329" lon="8.85424444188">
		<tag k="name" v="Skitnetjønn" />
		<tag k="natural" v="water" />
		<tag k="ssr:stedsnr" v="711173" />
	</node>
	<node id="-453385" lat="59.7285555555" lon="8.60705554811">
		<tag k="name" v="Kovdalsbukta" />
		<tag k="natural" v="bay" />
		<tag k="ssr:stedsnr" v="894241" />
	</node>
	<node id="-453384" lat="59.7121972192" lon="8.84108888776">
		<tag k="name" v="Kova" />
		<tag k="ssr:stedsnr" v="894233" />
		<tag k="waterway" v="river" />
	</node>
	<node id="-453379" lat="59.7104611092" lon="8.65059167086">
		<tag k="name" v="Deledalstjønn østre" />
>>>>>>> e1d4bc35ff8a6074a6f2e91616a996b547c36f15
		<tag k="natural" v="water" />
		<tag k="ssr:stedsnr" v="3574" />
	</node>
<<<<<<< HEAD
	<node lat="59.68942777740971" lon="8.556916668190818" id="-20446">
		<tag k="name" v="Bjordøla" />
		<tag k="ssr:stedsnr" v="3587" />
		<tag k="waterway" v="stream" />
	</node>
	<node lat="59.664488889338315" lon="8.683283334987902" id="-20447">
		<tag k="alt_name" v="Reinstjørn" />
		<tag k="name" v="Reinstjønn" />
		<tag k="natural" v="water" />
		<tag k="ssr:stedsnr" v="3616" />
	</node>
	<node lat="59.83522499889649" lon="8.855675003903935" id="-20453">
		<tag k="alt_name" v="Aslaugbutjørni" />
		<tag k="name" v="Aslaugbutjønn" />
=======
	<node id="-453357" lat="59.6076027779" lon="8.93132777138">
		<tag k="name" v="Ystøybekken" />
		<tag k="ssr:stedsnr" v="652004" />
		<tag k="waterway" v="stream" />
	</node>
	<node id="-453354" lat="59.7945027785" lon="8.7903722251">
		<tag k="name" v="Svartebekk" />
		<tag k="ssr:stedsnr" v="650879" />
		<tag k="waterway" v="stream" />
	</node>
	<node id="-453353" lat="59.679516671" lon="8.810669452">
		<tag k="name" v="Primtjønn" />
>>>>>>> e1d4bc35ff8a6074a6f2e91616a996b547c36f15
		<tag k="natural" v="water" />
		<tag k="ssr:stedsnr" v="4446" />
	</node>
<<<<<<< HEAD
	<node lat="59.79342365883641" lon="8.589424078929495" id="-20454">
		<tag k="alt_name" v="Longetjørn" />
		<tag k="name" v="Langetjønn" />
=======
	<node id="-453352" lat="59.6711861091" lon="8.77590555141">
		<tag k="name" v="Vesle Østenstjønn" />
>>>>>>> e1d4bc35ff8a6074a6f2e91616a996b547c36f15
		<tag k="natural" v="water" />
		<tag k="ssr:stedsnr" v="4781" />
	</node>
<<<<<<< HEAD
	<node lat="59.82425000362121" lon="8.53066110498459" id="-20459">
		<tag k="alt_name" v="Gunlekstadvatn" />
		<tag k="name" v="Gunnleikstadvatnet" />
=======
	<node id="-453346" lat="59.7970611083" lon="8.82308888663">
		<tag k="alt_name" v="Vommetjørn" />
		<tag k="name" v="Vommetjønn" />
>>>>>>> e1d4bc35ff8a6074a6f2e91616a996b547c36f15
		<tag k="natural" v="water" />
		<tag k="ssr:stedsnr" v="4851" />
	</node>
<<<<<<< HEAD
	<node lat="59.733261111455434" lon="8.862708331769866" id="-20468">
		<tag k="name" v="Brødbekk" />
		<tag k="ssr:stedsnr" v="44234" />
		<tag k="waterway" v="stream" />
	</node>
	<node lat="59.67044722576905" lon="8.577505551117774" id="-20469">
		<tag k="name" v="Suggetjønn" />
=======
	<node id="-453345" lat="59.7816305598" lon="8.64856388852">
		<tag k="name" v="Kilodden" />
		<tag k="natural" v="cape" />
		<tag k="ssr:stedsnr" v="732982" />
	</node>
	<node id="-453344" lat="59.7786777774" lon="8.77038056366">
		<tag k="alt_name" v="Lisletjørn" />
		<tag k="name" v="Lisletjønn" />
>>>>>>> e1d4bc35ff8a6074a6f2e91616a996b547c36f15
		<tag k="natural" v="water" />
		<tag k="ssr:stedsnr" v="44235" />
	</node>
<<<<<<< HEAD
	<node lat="59.694086111692584" lon="8.665325001074335" id="-20472">
		<tag k="name" v="Dipilin" />
=======
	<node id="-453341" lat="59.7529111079" lon="8.68906944304">
		<tag k="alt_name" v="Lomtjørn" />
		<tag k="name" v="Lomtjønn" />
>>>>>>> e1d4bc35ff8a6074a6f2e91616a996b547c36f15
		<tag k="natural" v="water" />
		<tag k="ssr:stedsnr" v="44146" />
		<tag k="water" v="pond" />
	</node>
<<<<<<< HEAD
	<node lat="59.6439611084472" lon="8.634752778771912" id="-20473">
		<tag k="name" v="Langetjønn" />
		<tag k="natural" v="water" />
		<tag k="ssr:stedsnr" v="44179" />
	</node>
	<node lat="59.673711108972896" lon="8.736819452573878" id="-20476">
		<tag k="name" v="Hestedokktjønn" />
=======
	<node id="-453339" lat="59.7647777742" lon="8.59038610362">
		<tag k="alt_name" v="Døvlingstjønn" />
		<tag k="name" v="Døvlingstjørnan" />
		<tag k="natural" v="water" />
		<tag k="ssr:stedsnr" v="732946" />
	</node>
	<node id="-453337" lat="59.8260111081" lon="8.57943334156">
		<tag k="name" v="Stuvodden" />
		<tag k="natural" v="cape" />
		<tag k="ssr:stedsnr" v="732821" />
	</node>
	<node id="-453336" lat="59.8377666653" lon="8.78877776959">
		<tag k="alt_name" v="Svartetjørn" />
		<tag k="name" v="Svartetjønn" />
>>>>>>> e1d4bc35ff8a6074a6f2e91616a996b547c36f15
		<tag k="natural" v="water" />
		<tag k="ssr:stedsnr" v="44542" />
	</node>
<<<<<<< HEAD
	<node lat="59.677383330785155" lon="8.755833329492443" id="-20477">
		<tag k="name" v="Auretjønn" />
=======
	<node id="-453330" lat="59.7940805552" lon="8.71715833732">
		<tag k="name" v="Krubba" />
>>>>>>> e1d4bc35ff8a6074a6f2e91616a996b547c36f15
		<tag k="natural" v="water" />
		<tag k="ssr:stedsnr" v="44547" />
	</node>
<<<<<<< HEAD
	<node lat="59.67762778113028" lon="8.836255561431653" id="-20478">
		<tag k="name" v="Elgstjønn" />
		<tag k="natural" v="water" />
		<tag k="ssr:stedsnr" v="44551" />
	</node>
	<node lat="59.67436944505086" lon="8.828474992903745" id="-20479">
		<tag k="name" v="Bikkjetjønn" />
=======
	<node id="-453329" lat="59.7947248734" lon="8.73642743554">
		<tag k="alt_name" v="Makketjørn" />
		<tag k="name" v="Makketjønn" />
		<tag k="natural" v="water" />
		<tag k="ssr:stedsnr" v="732774" />
	</node>
	<node id="-453328" lat="59.7949138913" lon="8.6299472286">
		<tag k="name" v="Klingenes" />
		<tag k="natural" v="cape" />
		<tag k="ssr:stedsnr" v="732763" />
	</node>
	<node id="-453325" lat="59.7935611133" lon="8.40503333896">
		<tag k="alt_name" v="Vrangetjørni" />
		<tag k="name" v="Vrangetjønn" />
>>>>>>> e1d4bc35ff8a6074a6f2e91616a996b547c36f15
		<tag k="natural" v="water" />
		<tag k="ssr:stedsnr" v="44671" />
	</node>
<<<<<<< HEAD
	<node lat="59.66554722109261" lon="8.853802783515409" id="-20482">
		<tag k="name" v="Kvitåi" />
		<tag k="ssr:stedsnr" v="44951" />
		<tag k="waterway" v="stream" />
	</node>
	<node lat="59.65923333780718" lon="8.886852773080282" id="-20484">
		<tag k="name" v="Langebekk" />
		<tag k="ssr:stedsnr" v="44961" />
		<tag k="waterway" v="stream" />
	</node>
	<node lat="59.602861111975265" lon="8.585855555805928" id="-20488">
		<tag k="name" v="Tiubekken" />
		<tag k="ssr:stedsnr" v="45661" />
		<tag k="waterway" v="stream" />
	</node>
	<node lat="59.57825555380897" lon="8.812975003243059" id="-20490">
		<tag k="name" v="Homtjønntangen" />
		<tag k="natural" v="cape" />
		<tag k="ssr:stedsnr" v="45841" />
	</node>
	<node lat="59.63341666628106" lon="8.685424994265164" id="-20492">
		<tag k="name" v="Damtjønn nedre" />
=======
	<node id="-453324" lat="59.5755611153" lon="8.78521666197">
		<tag k="alt_name" v="Flistjørn" />
		<tag k="name" v="Flisetjønn" />
		<tag k="natural" v="water" />
		<tag k="ssr:stedsnr" v="731921" />
	</node>
	<node id="-453319" lat="59.5905166695" lon="8.75180833888">
		<tag k="name" v="Svigsåi" />
		<tag k="ssr:stedsnr" v="731836" />
		<tag k="waterway" v="river" />
	</node>
	<node id="-453312" lat="59.6424583365" lon="8.77902499257">
		<tag k="name" v="Bekkestulbekken" />
		<tag k="ssr:stedsnr" v="731699" />
		<tag k="waterway" v="stream" />
	</node>
	<node id="-453309" lat="59.6501111107" lon="8.65148332828">
		<tag k="alt_name" v="Fisketjørn" />
		<tag k="name" v="Fisketjønn" />
		<tag k="natural" v="bay" />
		<tag k="ssr:stedsnr" v="731667" />
	</node>
	<node id="-453308" lat="59.6483527789" lon="8.60727499349">
		<tag k="alt_name" v="Solheimstultjørni" />
		<tag k="name" v="Solheimstultjønna" />
>>>>>>> e1d4bc35ff8a6074a6f2e91616a996b547c36f15
		<tag k="natural" v="water" />
		<tag k="ssr:stedsnr" v="46065" />
	</node>
<<<<<<< HEAD
	<node lat="59.724174998010774" lon="8.744702782652366" id="-20500">
		<tag k="alt_name" v="Kovflottjørni" />
		<tag k="name" v="Kovflåttjønn" />
=======
	<node id="-453307" lat="59.6453527772" lon="8.55938055687">
		<tag k="alt_name" v="Stangesjåvatn" />
		<tag k="name" v="Stangesjå" />
>>>>>>> e1d4bc35ff8a6074a6f2e91616a996b547c36f15
		<tag k="natural" v="water" />
		<tag k="ssr:stedsnr" v="64562" />
	</node>
<<<<<<< HEAD
	<node lat="59.71456111019636" lon="8.601186110957567" id="-20501">
		<tag k="alt_name" v="Ståvåtjørnbekken" />
		<tag k="name" v="Ståvåtjønnbekken" />
		<tag k="ssr:stedsnr" v="64564" />
		<tag k="waterway" v="stream" />
	</node>
	<node lat="59.72229166951574" lon="8.586375005124001" id="-20503">
		<tag k="name" v="Lortholtjørnan" />
		<tag k="natural" v="water" />
		<tag k="ssr:stedsnr" v="64566" />
	</node>
	<node lat="59.71108849056449" lon="8.849764554585812" id="-20504">
		<tag k="alt_name" v="Sønderlandsvatn" />
		<tag k="name" v="Sønnlandsvatnet" />
=======
	<node id="-453301" lat="59.6991749956" lon="8.62638334182">
		<tag k="alt_name" v="Utmanntjørna" />
		<tag k="name" v="Utmannstjønn" />
>>>>>>> e1d4bc35ff8a6074a6f2e91616a996b547c36f15
		<tag k="natural" v="water" />
		<tag k="ssr:stedsnr" v="63090" />
	</node>
<<<<<<< HEAD
	<node lat="59.749002773360466" lon="8.62332222517504" id="-20509">
		<tag k="name" v="Stabbetjørn" />
		<tag k="natural" v="water" />
		<tag k="ssr:stedsnr" v="63560" />
	</node>
	<node lat="59.76099999982779" lon="8.871355554229938" id="-20512">
		<tag k="name" v="Kåla" />
		<tag k="ssr:stedsnr" v="64277" />
		<tag k="waterway" v="stream" />
	</node>
	<node lat="59.749774999443" lon="8.629274999770136" id="-20518">
		<tag k="alt_name" v="Stabbetjørni" />
		<tag k="name" v="Stabbetjønn" />
		<tag k="natural" v="water" />
		<tag k="ssr:stedsnr" v="64972" />
	</node>
	<node lat="59.75840278014488" lon="8.607144443110139" id="-20519">
		<tag k="alt_name" v="Heggestultjørni" />
		<tag k="name" v="Heggestultjønn" />
=======
	<node id="-453294" lat="59.5666944486" lon="8.87053889709">
		<tag k="name" v="Hyttefossen" />
		<tag k="natural" v="waterfall" />
		<tag k="ssr:stedsnr" v="731302" />
	</node>
	<node id="-453293" lat="59.5894305568" lon="8.94798333112">
		<tag k="alt_name" v="Fiskebekk" />
		<tag k="name" v="Fiskebekken" />
		<tag k="ssr:stedsnr" v="731275" />
		<tag k="waterway" v="stream" />
	</node>
	<node id="-453288" lat="59.7456944485" lon="8.46207221769">
		<tag k="alt_name" v="Butjørn" />
		<tag k="name" v="Butjønn" />
		<tag k="natural" v="water" />
		<tag k="ssr:stedsnr" v="731191" />
	</node>
	<node id="-453277" lat="59.6125944453" lon="8.65523888112">
		<tag k="name" v="Gjeråi" />
		<tag k="ssr:stedsnr" v="609773" />
		<tag k="waterway" v="stream" />
	</node>
	<node id="-453268" lat="59.6781833371" lon="8.57865834043">
		<tag k="alt_name" v="Nytjørn, nordre;Nytjønna nedre" />
		<tag k="name" v="Nedre Nytjønna" />
>>>>>>> e1d4bc35ff8a6074a6f2e91616a996b547c36f15
		<tag k="natural" v="water" />
		<tag k="ssr:stedsnr" v="64973" />
	</node>
<<<<<<< HEAD
	<node lat="59.77175643066259" lon="8.710170940799784" id="-20520">
		<tag k="alt_name" v="Murtetjørn" />
		<tag k="name" v="Murtetjønn" />
=======
	<node id="-453266" lat="59.6781388899" lon="8.72818333947">
		<tag k="alt_name" v="Blankebergtjørna" />
		<tag k="name" v="Blankebergtjønn" />
>>>>>>> e1d4bc35ff8a6074a6f2e91616a996b547c36f15
		<tag k="natural" v="water" />
		<tag k="ssr:stedsnr" v="64987" />
	</node>
<<<<<<< HEAD
	<node lat="59.77209722650382" lon="8.562022219062298" id="-20522">
		<tag k="alt_name" v="Våtjørn" />
		<tag k="name" v="Våtjønn" />
		<tag k="natural" v="water" />
		<tag k="ssr:stedsnr" v="64995" />
		<tag k="water" v="lake" />
	</node>
	<node lat="59.67973333730803" lon="8.502302781361939" id="-20527">
		<tag k="alt_name" v="Skjesvatnet" />
		<tag k="name" v="Skjesvatn" />
		<tag k="natural" v="water" />
		<tag k="ssr:stedsnr" v="64653" />
		<tag k="water" v="lake" />
	</node>
	<node lat="59.78889999638121" lon="8.642824999457027" id="-20544">
		<tag k="name" v="Granhaugen" />
=======
	<node id="-453257" lat="59.5890555568" lon="8.93410832456">
		<tag k="name" v="Raudbekk" />
		<tag k="ssr:stedsnr" v="713793" />
		<tag k="waterway" v="stream" />
	</node>
	<node id="-453240" lat="59.7871027797" lon="8.68377778416">
		<tag k="name" v="Blåbærøyi" />
		<tag k="natural" v="cape" />
		<tag k="ssr:stedsnr" v="712382" />
	</node>
	<node id="-453237" lat="59.618244446" lon="8.91753610486">
		<tag k="name" v="Mosebøøya" />
>>>>>>> e1d4bc35ff8a6074a6f2e91616a996b547c36f15
		<tag k="place" v="island" />
		<tag k="ssr:stedsnr" v="65778" />
	</node>
<<<<<<< HEAD
	<node lat="59.78408610754721" lon="8.758316674221977" id="-20545">
		<tag k="alt_name" v="Toskjærvatn" />
		<tag k="name" v="Toskjervatnet" />
		<tag k="natural" v="water" />
		<tag k="ssr:stedsnr" v="65973" />
		<tag k="water" v="lake" />
	</node>
	<node lat="59.7857527746377" lon="8.631102775865886" id="-20547">
		<tag k="alt_name" v="Bonsvatnet" />
		<tag k="name" v="Bonsvatn" />
		<tag k="natural" v="water" />
		<tag k="ssr:stedsnr" v="65979" />
		<tag k="water" v="lake" />
	</node>
	<node lat="59.78032777635629" lon="8.550283330804403" id="-20548">
		<tag k="alt_name" v="Geiteklemtjørni" />
		<tag k="name" v="Geiteklemtjønn" />
		<tag k="natural" v="water" />
		<tag k="ssr:stedsnr" v="65983" />
	</node>
	<node lat="59.8298111133685" lon="8.609350005883329" id="-20549">
		<tag k="alt_name" v="Ljosbekk" />
		<tag k="name" v="Ljosbekken" />
		<tag k="ssr:stedsnr" v="65838" />
		<tag k="waterway" v="stream" />
	</node>
	<node lat="59.791099996429516" lon="8.85274999236412" id="-20554">
		<tag k="name" v="Gampetjønn" />
=======
	<node id="-453234" lat="59.646291664" lon="8.78352778117">
		<tag k="name" v="Klypet" />
		<tag k="ssr:stedsnr" v="590914" />
		<tag k="waterway" v="rapids" />
	</node>
	<node id="-453231" lat="59.8005055536" lon="8.84609721864">
		<tag k="name" v="Langetangen" />
		<tag k="natural" v="cape" />
		<tag k="ssr:stedsnr" v="711928" />
	</node>
	<node id="-453229" lat="59.7562000017" lon="8.68274166026">
		<tag k="name" v="Matkil" />
		<tag k="natural" v="bay" />
		<tag k="ssr:stedsnr" v="711919" />
	</node>
	<node id="-453228" lat="59.7245527786" lon="8.67720278363">
		<tag k="name" v="Sløåtjønnbekken" />
		<tag k="ssr:stedsnr" v="711859" />
		<tag k="waterway" v="stream" />
	</node>
	<node id="-453226" lat="59.6687500041" lon="8.70410277389">
		<tag k="name" v="Stavstjønn søndre" />
>>>>>>> e1d4bc35ff8a6074a6f2e91616a996b547c36f15
		<tag k="natural" v="water" />
		<tag k="ssr:stedsnr" v="104920" />
	</node>
<<<<<<< HEAD
	<node lat="59.68488333742499" lon="8.60439444270204" id="-20559">
		<tag k="name" v="Tønistjønn" />
=======
	<node id="-453223" lat="59.6732000019" lon="8.76551110848">
		<tag k="name" v="Småtjønnen" />
>>>>>>> e1d4bc35ff8a6074a6f2e91616a996b547c36f15
		<tag k="natural" v="water" />
		<tag k="ssr:stedsnr" v="105220" />
	</node>
<<<<<<< HEAD
	<node lat="59.78858888993065" lon="8.651933329330118" id="-20567">
		<tag k="name" v="Bærtjønnbekken" />
		<tag k="ssr:stedsnr" v="106114" />
		<tag k="waterway" v="stream" />
	</node>
	<node lat="59.613486107917694" lon="8.962122221725732" id="-20573">
		<tag k="name" v="Davidsøy" />
		<tag k="place" v="island" />
		<tag k="ssr:stedsnr" v="106192" />
	</node>
	<node lat="59.58528055117338" lon="8.724436108884667" id="-20587">
		<tag k="name" v="Grisetjønnan" />
		<tag k="natural" v="water" />
		<tag k="ssr:stedsnr" v="107835" />
	</node>
	<node lat="59.743052775878446" lon="8.71121945037117" id="-20596">
		<tag k="alt_name" v="Ostetjørn" />
		<tag k="name" v="Ostetjønn" />
=======
	<node id="-453222" lat="59.7277916694" lon="8.88259444872">
		<tag k="name" v="Møtingsbekken" />
		<tag k="ssr:stedsnr" v="711266" />
		<tag k="waterway" v="stream" />
	</node>
	<node id="-453214" lat="59.7565416632" lon="8.76675278275">
		<tag k="name" v="Lislibekken" />
		<tag k="ssr:stedsnr" v="704581" />
		<tag k="waterway" v="stream" />
	</node>
	<node id="-453197" lat="59.7728527778" lon="8.64805278519">
		<tag k="name" v="Helleksdalsbekken" />
		<tag k="ssr:stedsnr" v="530010" />
		<tag k="waterway" v="stream" />
	</node>
	<node id="-453195" lat="59.7891833312" lon="8.6758722196">
		<tag k="name" v="Killingodden" />
		<tag k="natural" v="cape" />
		<tag k="ssr:stedsnr" v="529954" />
	</node>
	<node id="-453194" lat="59.669005559" lon="8.70955277966">
		<tag k="name" v="Stavsoset" />
		<tag k="natural" v="bay" />
		<tag k="ssr:stedsnr" v="529836" />
	</node>
	<node id="-453193" lat="59.6719333378" lon="8.70123889738">
		<tag k="name" v="Stavstjønn nordre" />
		<tag k="natural" v="water" />
		<tag k="ssr:stedsnr" v="529824" />
	</node>
	<node id="-453192" lat="59.685449998" lon="8.67020832643">
		<tag k="name" v="Blåtjønn" />
>>>>>>> e1d4bc35ff8a6074a6f2e91616a996b547c36f15
		<tag k="natural" v="water" />
		<tag k="ssr:stedsnr" v="124484" />
	</node>
<<<<<<< HEAD
	<node lat="59.70498889218145" lon="8.685119449593008" id="-20597">
		<tag k="name" v="Huk" />
		<tag k="natural" v="waterfall" />
		<tag k="ssr:stedsnr" v="124533" />
	</node>
	<node lat="59.59210430088048" lon="8.963416306834487" id="-20603">
		<tag k="alt_name" v="Dalatjørna" />
		<tag k="name" v="Dålåtjønn" />
		<tag k="natural" v="water" />
		<tag k="ssr:stedsnr" v="124276" />
	</node>
	<node lat="59.62683888634779" lon="8.61396110733105" id="-20615">
		<tag k="name" v="Høymolebekken" />
		<tag k="ssr:stedsnr" v="124681" />
		<tag k="waterway" v="stream" />
	</node>
	<node lat="59.654327780913185" lon="8.757263883400281" id="-20616">
		<tag k="alt_name" v="Vassendvatn" />
		<tag k="name" v="Vassendvatnet" />
=======
	<node id="-453180" lat="59.7352749972" lon="8.62158889164">
		<tag k="alt_name" v="Kroktjørn, nedre;Kroktjønn nedre" />
		<tag k="name" v="Nedre Kroktjønn" />
		<tag k="natural" v="water" />
		<tag k="ssr:stedsnr" v="488534" />
	</node>
	<node id="-453179" lat="59.7473694485" lon="8.70228610899">
		<tag k="alt_name" v="Bergetjørn" />
		<tag k="name" v="Bergetjønn" />
		<tag k="natural" v="water" />
		<tag k="ssr:stedsnr" v="488524" />
	</node>
	<node id="-453178" lat="59.7472194421" lon="8.71885278281">
		<tag k="name" v="Kvitåi" />
		<tag k="ssr:stedsnr" v="488521" />
		<tag k="waterway" v="stream" />
	</node>
	<node id="-453172" lat="59.779588885" lon="8.60347500473">
		<tag k="name" v="Storesandbekken" />
		<tag k="ssr:stedsnr" v="671977" />
		<tag k="waterway" v="stream" />
	</node>
	<node id="-453171" lat="59.7620805511" lon="8.5497638839">
		<tag k="alt_name" v="Urdetjørn, nedre;Urdetjønn nedre" />
		<tag k="name" v="Nedre Urdetjønn" />
		<tag k="natural" v="water" />
		<tag k="ssr:stedsnr" v="671947" />
	</node>
	<node id="-453167" lat="59.8181805527" lon="8.53543889164">
		<tag k="alt_name" v="Rotjørn" />
		<tag k="name" v="Rotjønn" />
>>>>>>> e1d4bc35ff8a6074a6f2e91616a996b547c36f15
		<tag k="natural" v="water" />
		<tag k="ssr:stedsnr" v="124684" />
	</node>
<<<<<<< HEAD
	<node lat="59.7546833373656" lon="8.46693054939558" id="-20617">
		<tag k="alt_name" v="Sandtjørni" />
		<tag k="name" v="Sandtjønn" />
=======
	<node id="-453164" lat="59.8248611111" lon="8.78122778001">
		<tag k="alt_name" v="Leirtjørn" />
		<tag k="name" v="Leirtjønn" />
>>>>>>> e1d4bc35ff8a6074a6f2e91616a996b547c36f15
		<tag k="natural" v="water" />
		<tag k="ssr:stedsnr" v="125117" />
	</node>
<<<<<<< HEAD
	<node lat="59.82313610845922" lon="8.641263895727999" id="-20618">
		<tag k="alt_name" v="Fjelltjørn" />
		<tag k="name" v="Fjelltjønn" />
=======
	<node id="-453160" lat="59.8257944467" lon="8.56973610849">
		<tag k="alt_name" v="Flisetjørn" />
		<tag k="name" v="Flisetjønn" />
>>>>>>> e1d4bc35ff8a6074a6f2e91616a996b547c36f15
		<tag k="natural" v="water" />
		<tag k="ssr:stedsnr" v="125798" />
	</node>
<<<<<<< HEAD
	<node lat="59.81625000115744" lon="8.658808334648494" id="-20619">
		<tag k="alt_name" v="Myklestulvatn" />
		<tag k="name" v="Myklestaulvatnet" />
=======
	<node id="-453158" lat="59.8062083377" lon="8.58913055042">
		<tag k="alt_name" v="Enggravstjørni" />
		<tag k="name" v="Enggravstjønn" />
>>>>>>> e1d4bc35ff8a6074a6f2e91616a996b547c36f15
		<tag k="natural" v="water" />
		<tag k="ssr:stedsnr" v="125800" />
		<tag k="water" v="lake" />
	</node>
<<<<<<< HEAD
	<node lat="59.791183333350375" lon="8.635244453240182" id="-20622">
		<tag k="name" v="Langenes" />
		<tag k="natural" v="cape" />
		<tag k="ssr:stedsnr" v="125782" />
	</node>
	<node lat="59.78846944603234" lon="8.743961111319548" id="-20623">
		<tag k="alt_name" v="Kovstulvatn" />
		<tag k="name" v="Kovstulvatnet" />
=======
	<node id="-453153" lat="59.8154498883" lon="8.75992881509">
		<tag k="alt_name" v="Ljostjørn, l" />
		<tag k="name" v="Lille Ljostjønn" />
		<tag k="natural" v="water" />
		<tag k="ssr:stedsnr" v="671780" />
	</node>
	<node id="-453151" lat="59.7886122685" lon="8.68022549204">
		<tag k="alt_name" v="Reisjåvatn" />
		<tag k="name" v="Reisjåvatnet" />
>>>>>>> e1d4bc35ff8a6074a6f2e91616a996b547c36f15
		<tag k="natural" v="water" />
		<tag k="ssr:stedsnr" v="125793" />
		<tag k="water" v="lake" />
	</node>
<<<<<<< HEAD
	<node lat="59.85203889048327" lon="8.520994449437785" id="-20625">
		<tag k="name" v="Klokkstjønn" />
		<tag k="natural" v="water" />
		<tag k="ssr:stedsnr" v="125865" />
	</node>
	<node lat="59.754663891301036" lon="8.534897219215113" id="-20633">
		<tag k="alt_name" v="Grunntjørn" />
		<tag k="name" v="Grunntjønn" />
		<tag k="natural" v="water" />
		<tag k="ssr:stedsnr" v="125977" />
	</node>
	<node lat="59.77848055770674" lon="8.559619442001592" id="-20635">
		<tag k="alt_name" v="Gammelstultjønn" />
		<tag k="name" v="Gammalstultjørni" />
		<tag k="natural" v="water" />
		<tag k="ssr:stedsnr" v="125995" />
	</node>
	<node lat="59.618852778877255" lon="8.814477786373741" id="-20671">
		<tag k="name" v="Kjempa" />
		<tag k="ssr:stedsnr" v="167927" />
		<tag k="waterway" v="stream" />
	</node>
	<node lat="59.734608329603596" lon="8.568433332351344" id="-20674">
		<tag k="alt_name" v="Reinstultjørni" />
		<tag k="name" v="Reinstultjønn" />
=======
	<node id="-453145" lat="59.6723416661" lon="8.79342221399">
		<tag k="alt_name" v="Østensbekk" />
		<tag k="name" v="Østensbekken" />
		<tag k="ssr:stedsnr" v="671692" />
		<tag k="waterway" v="stream" />
	</node>
	<node id="-453138" lat="59.7191777758" lon="8.86214999206">
		<tag k="name" v="Tråeråa" />
		<tag k="ssr:stedsnr" v="671108" />
		<tag k="waterway" v="stream" />
	</node>
	<node id="-453135" lat="59.5829194484" lon="8.76140833215">
		<tag k="alt_name" v="Haugerobekken" />
		<tag k="name" v="Haugerudbekken" />
		<tag k="ssr:stedsnr" v="670926" />
		<tag k="waterway" v="stream" />
	</node>
	<node id="-453128" lat="59.6169500012" lon="8.72570000207">
		<tag k="name" v="Tutebekk" />
		<tag k="ssr:stedsnr" v="670810" />
		<tag k="waterway" v="stream" />
	</node>
	<node id="-453123" lat="59.6603666696" lon="8.78465556245">
		<tag k="alt_name" v="Lauvhaugtjørna" />
		<tag k="name" v="Lauvhaugtjønn" />
>>>>>>> e1d4bc35ff8a6074a6f2e91616a996b547c36f15
		<tag k="natural" v="water" />
		<tag k="ssr:stedsnr" v="185493" />
	</node>
<<<<<<< HEAD
	<node lat="59.731150001277584" lon="8.52602500403353" id="-20675">
		<tag k="alt_name" v="Lygytjørn" />
		<tag k="name" v="Lygytjønn" />
		<tag k="natural" v="water" />
		<tag k="ssr:stedsnr" v="185526" />
	</node>
	<node lat="59.66892499993981" lon="8.705111107419082" id="-20678">
		<tag k="name" v="Stavstjørnan" />
=======
	<node id="-453122" lat="59.6758805573" lon="8.67816943586">
		<tag k="alt_name" v="Beggestultjørni" />
		<tag k="name" v="Beggestultjønn" />
		<tag k="natural" v="water" />
		<tag k="ssr:stedsnr" v="670651" />
	</node>
	<node id="-453120" lat="59.6965361114" lon="8.4757583345">
		<tag k="name" v="Åtofjorden" />
		<tag k="natural" v="bay" />
		<tag k="ssr:stedsnr" v="670639" />
	</node>
	<node id="-453118" lat="59.6808916625" lon="8.56580278202">
		<tag k="alt_name" v="Skjørtjørn" />
		<tag k="name" v="Skjørtjønn" />
>>>>>>> e1d4bc35ff8a6074a6f2e91616a996b547c36f15
		<tag k="natural" v="water" />
		<tag k="ssr:stedsnr" v="185618" />
	</node>
<<<<<<< HEAD
	<node lat="59.677188890013866" lon="8.581675007391842" id="-20680">
		<tag k="alt_name" v="Nytjørn, midtre;Nytjønna midtre" />
		<tag k="name" v="Midtre Nytjønna" />
=======
	<node id="-453117" lat="59.6817685555" lon="8.55156868536">
		<tag k="alt_name" v="Hundshovdtjørni" />
		<tag k="name" v="Hondshovdtjønn" />
>>>>>>> e1d4bc35ff8a6074a6f2e91616a996b547c36f15
		<tag k="natural" v="water" />
		<tag k="ssr:stedsnr" v="185624" />
	</node>
<<<<<<< HEAD
	<node lat="59.58495833100312" lon="8.93056666701964" id="-20681">
		<tag k="name" v="Raudbekken" />
		<tag k="ssr:stedsnr" v="185308" />
		<tag k="waterway" v="stream" />
	</node>
	<node lat="59.70253610767043" lon="8.833361107160384" id="-20682">
		<tag k="name" v="Grovaråi" />
		<tag k="ssr:stedsnr" v="185549" />
		<tag k="waterway" v="stream" />
	</node>
	<node lat="59.71887500284549" lon="8.762538884397175" id="-20685">
		<tag k="alt_name" v="Måstjørn" />
		<tag k="name" v="Måstjønn" />
=======
	<node id="-453115" lat="59.6974083325" lon="8.67240277727">
		<tag k="name" v="Hågåvassåi" />
		<tag k="ssr:stedsnr" v="670575" />
		<tag k="waterway" v="stream" />
	</node>
	<node id="-453109" lat="59.7330805528" lon="8.68581944784">
		<tag k="name" v="Vesletjørn" />
>>>>>>> e1d4bc35ff8a6074a6f2e91616a996b547c36f15
		<tag k="natural" v="water" />
		<tag k="ssr:stedsnr" v="185564" />
	</node>
<<<<<<< HEAD
	<node lat="59.7225305560234" lon="8.762352783672462" id="-20686">
		<tag k="name" v="Kroklonin" />
=======
	<node id="-453096" lat="59.5775416662" lon="8.7387000058">
		<tag k="alt_name" v="Damtjørn" />
		<tag k="name" v="Damtjønn" />
>>>>>>> e1d4bc35ff8a6074a6f2e91616a996b547c36f15
		<tag k="natural" v="water" />
		<tag k="ssr:stedsnr" v="185565" />
	</node>
<<<<<<< HEAD
	<node lat="59.7249472205224" lon="8.777291668013499" id="-20687">
		<tag k="name" v="Kova" />
		<tag k="ssr:stedsnr" v="185567" />
		<tag k="waterway" v="stream" />
	</node>
	<node lat="59.685986108657296" lon="8.653422219780609" id="-20690">
		<tag k="alt_name" v="Hågåvatnet" />
		<tag k="name" v="Hågåvatn" />
		<tag k="natural" v="water" />
		<tag k="ssr:stedsnr" v="185576" />
		<tag k="water" v="lake" />
	</node>
	<node lat="59.83229722573657" lon="8.787830551813633" id="-20697">
		<tag k="alt_name" v="Kyrstjørn" />
		<tag k="name" v="Kyrstjønn" />
=======
	<node id="-453093" lat="59.810366666" lon="8.81164166564">
		<tag k="name" v="Kråkenesåi" />
		<tag k="ssr:stedsnr" v="428808" />
		<tag k="waterway" v="stream" />
	</node>
	<node id="-453089" lat="59.7974166672" lon="8.62886944559">
		<tag k="alt_name" v="Kjerringa" />
		<tag k="name" v="Kjerringi" />
		<tag k="natural" v="cape" />
		<tag k="ssr:stedsnr" v="428738" />
	</node>
	<node id="-453088" lat="59.6360555586" lon="8.6859638937">
		<tag k="name" v="Damtjørnan" />
>>>>>>> e1d4bc35ff8a6074a6f2e91616a996b547c36f15
		<tag k="natural" v="water" />
		<tag k="ssr:stedsnr" v="185816" />
	</node>
<<<<<<< HEAD
	<node lat="59.62716388886814" lon="8.589797228325635" id="-20699">
		<tag k="name" v="Hjartdøla" />
		<tag k="ssr:stedsnr" v="185775" />
		<tag k="waterway" v="river" />
	</node>
	<node lat="59.57182777412487" lon="8.771344437032623" id="-20700">
		<tag k="alt_name" v="Skauttjørn" />
		<tag k="name" v="Skautjønn" />
=======
	<node id="-453082" lat="59.7106694461" lon="8.50530833236">
		<tag k="alt_name" v="Aurbakktjørni" />
		<tag k="name" v="Aurebakktjønn" />
>>>>>>> e1d4bc35ff8a6074a6f2e91616a996b547c36f15
		<tag k="natural" v="water" />
		<tag k="ssr:stedsnr" v="185898" />
	</node>
<<<<<<< HEAD
	<node lat="59.56964999854934" lon="8.77868888700077" id="-20701">
		<tag k="alt_name" v="Blåtjørn" />
		<tag k="name" v="Blåtjønn" />
		<tag k="natural" v="water" />
		<tag k="ssr:stedsnr" v="185918" />
	</node>
	<node lat="59.53982500061976" lon="8.824719441331514" id="-20703">
		<tag k="name" v="Uppdøla" />
		<tag k="ssr:stedsnr" v="185971" />
		<tag k="waterway" v="river" />
	</node>
	<node lat="59.791300000646594" lon="8.4381250060552" id="-20708">
		<tag k="name" v="Lysa" />
		<tag k="place" v="locality" />
		<tag k="ssr:stedsnr" v="186072" />
	</node>
	<node lat="59.76501388874449" lon="8.816975004305945" id="-20710">
		<tag k="alt_name" v="Longetjørnbekken" />
		<tag k="name" v="Langetjønnbekken" />
		<tag k="ssr:stedsnr" v="186934" />
		<tag k="waterway" v="stream" />
	</node>
	<node lat="59.79583889201526" lon="8.58959722962779" id="-20713">
		<tag k="alt_name" v="Reinstjørn" />
		<tag k="name" v="Reinstjønn" />
=======
	<node id="-452687" lat="59.6721972237" lon="8.85217499224">
		<tag k="alt_name" v="Vesleåi" />
		<tag k="name" v="Vesleåa" />
		<tag k="ssr:stedsnr" v="226728" />
		<tag k="waterway" v="river" />
	</node>
	<node id="-453080" lat="59.6187916668" lon="8.81356944133">
		<tag k="name" v="Vesleåa" />
		<tag k="ssr:stedsnr" v="428103" />
		<tag k="waterway" v="stream" />
	</node>
	<node id="-453075" lat="59.6993638869" lon="8.67790833952">
		<tag k="name" v="Mydøla" />
		<tag k="ssr:stedsnr" v="408804" />
		<tag k="waterway" v="river" />
	</node>
	<node id="-453074" lat="59.6809222214" lon="8.66727777263">
		<tag k="name" v="Åndetjønn" />
		<tag k="natural" v="water" />
		<tag k="ssr:stedsnr" v="408803" />
	</node>
	<node id="-453072" lat="59.824761113" lon="8.65230833636">
		<tag k="name" v="Listulåe" />
		<tag k="ssr:stedsnr" v="407852" />
		<tag k="waterway" v="stream" />
	</node>
	<node id="-453071" lat="59.7812833327" lon="8.57608056417">
		<tag k="alt_name" v="Longetjørn" />
		<tag k="name" v="Langetjønn" />
>>>>>>> e1d4bc35ff8a6074a6f2e91616a996b547c36f15
		<tag k="natural" v="water" />
		<tag k="ssr:stedsnr" v="186825" />
	</node>
<<<<<<< HEAD
	<node lat="59.82615833237733" lon="8.588899997011218" id="-20714">
		<tag k="alt_name" v="Bjønndalsodden" />
		<tag k="name" v="Bjørndalsodden" />
		<tag k="natural" v="cape" />
		<tag k="ssr:stedsnr" v="186833" />
	</node>
	<node lat="59.82675000040265" lon="8.557561111104588" id="-20715">
		<tag k="alt_name" v="Gvanntjørn" />
		<tag k="name" v="Gvanntjønn" />
=======
	<node id="-453070" lat="59.7701694454" lon="8.50788054845">
		<tag k="name" v="Storbekk" />
		<tag k="ssr:stedsnr" v="490000" />
		<tag k="waterway" v="stream" />
	</node>
	<node id="-453067" lat="59.7730777751" lon="8.63936111118">
		<tag k="alt_name" v="Helleiksdalstjørni" />
		<tag k="name" v="Helleksdalstjønn" />
>>>>>>> e1d4bc35ff8a6074a6f2e91616a996b547c36f15
		<tag k="natural" v="water" />
		<tag k="ssr:stedsnr" v="186834" />
	</node>
<<<<<<< HEAD
	<node lat="59.846249563712604" lon="8.80636724246097" id="-20716">
		<tag k="alt_name" v="Fiskeholktjørni" />
		<tag k="name" v="Fiskeholktjønn" />
=======
	<node id="-453063" lat="59.7543777781" lon="8.46873055874">
		<tag k="name" v="Sandtjørn" />
>>>>>>> e1d4bc35ff8a6074a6f2e91616a996b547c36f15
		<tag k="natural" v="water" />
		<tag k="ssr:stedsnr" v="186862" />
	</node>
<<<<<<< HEAD
	<node lat="59.70041388623219" lon="8.647474999325958" id="-20722">
		<tag k="name" v="Deildalstjønn" />
=======
	<node id="-453062" lat="59.7538388888" lon="8.56683611679">
		<tag k="alt_name" v="Bjørntjørn" />
		<tag k="name" v="Bjønntjønn" />
>>>>>>> e1d4bc35ff8a6074a6f2e91616a996b547c36f15
		<tag k="natural" v="water" />
		<tag k="ssr:stedsnr" v="226151" />
	</node>
<<<<<<< HEAD
	<node lat="59.59804444890295" lon="8.679747222744064" id="-20729">
		<tag k="name" v="Vestmobekken" />
		<tag k="ssr:stedsnr" v="227168" />
		<tag k="waterway" v="stream" />
	</node>
	<node lat="59.67219722368066" lon="8.85217499223894" id="-20731">
		<tag k="alt_name" v="Vesleåi" />
		<tag k="name" v="Vesleåa" />
		<tag k="ssr:stedsnr" v="226728" />
		<tag k="waterway" v="river" />
	</node>
	<node lat="59.61556944298287" lon="8.932980553362432" id="-20743">
		<tag k="name" v="Lihølen" />
		<tag k="place" v="locality" />
		<tag k="ssr:stedsnr" v="228059" />
	</node>
	<node lat="59.832036114299505" lon="8.506008332515535" id="-20746">
		<tag k="name" v="Såemsbotsbekken" />
		<tag k="ssr:stedsnr" v="228579" />
		<tag k="waterway" v="stream" />
	</node>
	<node lat="59.70621944784116" lon="8.85859443791891" id="-20753">
		<tag k="name" v="Vesleosnes" />
		<tag k="natural" v="cape" />
		<tag k="ssr:stedsnr" v="287224" />
	</node>
	<node lat="59.6281666704615" lon="8.551836112486814" id="-20760">
		<tag k="name" v="Høydalstjønnen" />
=======
	<node id="-453060" lat="59.7642138868" lon="8.65288055001">
		<tag k="alt_name" v="Berutjørn" />
		<tag k="name" v="Berutjønn" />
		<tag k="natural" v="water" />
		<tag k="ssr:stedsnr" v="489941" />
	</node>
	<node id="-453059" lat="59.7694433313" lon="8.77292634472">
		<tag k="name" v="Kyrkjeåi" />
		<tag k="ssr:stedsnr" v="489936" />
		<tag k="waterway" v="river" />
	</node>
	<node id="-453056" lat="59.8277382583" lon="8.5453114588">
		<tag k="alt_name" v="Gunnuvstjørn" />
		<tag k="name" v="Gunnuvstjønn" />
		<tag k="natural" v="water" />
		<tag k="ssr:stedsnr" v="489832" />
	</node>
	<node id="-453055" lat="59.8008699808" lon="8.49902827422">
		<tag k="alt_name" v="Vesleskjertjørn" />
		<tag k="name" v="Vesleskjertjønn" />
		<tag k="natural" v="water" />
		<tag k="ssr:stedsnr" v="489815" />
	</node>
	<node id="-453051" lat="59.7894500036" lon="8.64176665775">
		<tag k="name" v="Skarkeviki" />
		<tag k="natural" v="bay" />
		<tag k="ssr:stedsnr" v="489773" />
	</node>
	<node id="-453050" lat="59.7903361135" lon="8.65904167402">
		<tag k="alt_name" v="Bærtjørn" />
		<tag k="name" v="Bærtjønn" />
>>>>>>> e1d4bc35ff8a6074a6f2e91616a996b547c36f15
		<tag k="natural" v="water" />
		<tag k="ssr:stedsnr" v="288475" />
	</node>
<<<<<<< HEAD
	<node lat="59.72598888528074" lon="8.668469443059516" id="-20762">
		<tag k="name" v="Djupebukt" />
		<tag k="natural" v="bay" />
		<tag k="ssr:stedsnr" v="287848" />
	</node>
	<node lat="59.70753888774234" lon="8.675475004537203" id="-20763">
		<tag k="name" v="Grasdalsbekken" />
		<tag k="ssr:stedsnr" v="287858" />
		<tag k="waterway" v="stream" />
	</node>
	<node lat="59.790361114344606" lon="8.706299997532577" id="-20764">
		<tag k="name" v="Heggelibekken" />
		<tag k="ssr:stedsnr" v="287937" />
		<tag k="waterway" v="stream" />
	</node>
	<node lat="59.80840277775324" lon="8.581761104249866" id="-20765">
		<tag k="name" v="Skinandåi" />
		<tag k="ssr:stedsnr" v="287945" />
		<tag k="waterway" v="stream" />
	</node>
	<node lat="59.666611113436964" lon="8.840261118861147" id="-20769">
		<tag k="name" v="Kvitåfoss" />
		<tag k="natural" v="waterfall" />
		<tag k="ssr:stedsnr" v="287962" />
	</node>
	<node lat="59.643933329268904" lon="8.698319442543204" id="-20773">
		<tag k="name" v="Løkjestulbekken" />
		<tag k="ssr:stedsnr" v="287973" />
		<tag k="waterway" v="stream" />
	</node>
	<node lat="59.82524166602972" lon="8.468116666082775" id="-20788">
		<tag k="name" v="Tandertjønnbekken" />
		<tag k="ssr:stedsnr" v="289239" />
		<tag k="waterway" v="stream" />
	</node>
	<node lat="59.62341389045926" lon="8.635150005295184" id="-20807">
		<tag k="name" v="Torslandbekken" />
		<tag k="ssr:stedsnr" v="306795" />
		<tag k="waterway" v="stream" />
	</node>
	<node lat="59.569694448295806" lon="8.743252781416825" id="-20815">
		<tag k="alt_name" v="Londalsvatn" />
		<tag k="name" v="Londalsvatnet" />
		<tag k="natural" v="water" />
		<tag k="ssr:stedsnr" v="306935" />
	</node>
	<node lat="59.82495555807937" lon="8.456819436716193" id="-20819">
		<tag k="alt_name" v="Tondertjørni" />
		<tag k="name" v="Tandertjønn" />
=======
	<node id="-453047" lat="59.6093027782" lon="8.79714166585">
		<tag k="name" v="Hjartdøla" />
		<tag k="ssr:stedsnr" v="489128" />
		<tag k="waterway" v="river" />
	</node>
	<node id="-453046" lat="59.5925805597" lon="8.68466943636">
		<tag k="name" v="Trainbekken" />
		<tag k="ssr:stedsnr" v="488854" />
		<tag k="waterway" v="stream" />
	</node>
	<node id="-453026" lat="59.6433027739" lon="8.66421943948">
		<tag k="alt_name" v="Kringletjørn" />
		<tag k="name" v="Kringletjønn" />
		<tag k="natural" v="water" />
		<tag k="ssr:stedsnr" v="488721" />
	</node>
	<node id="-453024" lat="59.6329805561" lon="8.76040000295">
		<tag k="name" v="Tverrbekk" />
		<tag k="ssr:stedsnr" v="488715" />
		<tag k="waterway" v="stream" />
	</node>
	<node id="-453022" lat="59.6638694469" lon="8.78591111356">
		<tag k="alt_name" v="Åmannsbutjørna" />
		<tag k="name" v="Åmannbutjønn" />
		<tag k="natural" v="water" />
		<tag k="ssr:stedsnr" v="488662" />
	</node>
	<node id="-453020" lat="59.6913249987" lon="8.7994500074">
		<tag k="alt_name" v="Ormetjønn" />
		<tag k="name" v="Ormetjørn" />
		<tag k="natural" v="water" />
		<tag k="ssr:stedsnr" v="488646" />
	</node>
	<node id="-453019" lat="59.6940833355" lon="8.77307500193">
		<tag k="alt_name" v="Kruvletjørnan" />
		<tag k="name" v="Kruvletjønnen" />
		<tag k="natural" v="water" />
		<tag k="ssr:stedsnr" v="488643" />
	</node>
	<node id="-453015" lat="59.7251749969" lon="8.78998332537">
		<tag k="alt_name" v="Solemstjørni" />
		<tag k="name" v="Solemstjønn" />
		<tag k="natural" v="water" />
		<tag k="ssr:stedsnr" v="488600" />
	</node>
	<node id="-453014" lat="59.7305361077" lon="8.66206388611">
		<tag k="alt_name" v="Storehaug" />
		<tag k="name" v="Storhaug" />
		<tag k="place" v="islet" />
		<tag k="ssr:stedsnr" v="488564" />
	</node>
	<node id="-453013" lat="59.7228999976" lon="8.63467500586">
		<tag k="name" v="Ormbutangen" />
		<tag k="natural" v="cape" />
		<tag k="ssr:stedsnr" v="488562" />
	</node>
	<node id="-453010" lat="59.6032250019" lon="8.84463888309">
		<tag k="alt_name" v="Tjørnstulbekken" />
		<tag k="name" v="Tjønnstulbekken" />
		<tag k="ssr:stedsnr" v="488343" />
		<tag k="waterway" v="stream" />
	</node>
	<node id="-453006" lat="59.592027774" lon="8.95242499428">
		<tag k="alt_name" v="Tjørnlitjørna" />
		<tag k="name" v="Tjønnlitjønna" />
		<tag k="natural" v="water" />
		<tag k="ssr:stedsnr" v="488294" />
	</node>
	<node id="-452997" lat="59.6106166661" lon="8.94315555035">
		<tag k="name" v="Lerhølen" />
		<tag k="place" v="locality" />
		<tag k="ssr:stedsnr" v="349073" />
	</node>
	<node id="-452988" lat="59.711483329" lon="8.64200000036">
		<tag k="name" v="Deledalstjønn vestre" />
		<tag k="natural" v="water" />
		<tag k="ssr:stedsnr" v="347872" />
	</node>
	<node id="-452987" lat="59.7321416711" lon="8.67918611681">
		<tag k="name" v="Kovdammen" />
		<tag k="ssr:stedsnr" v="347854" />
		<tag k="waterway" v="dam" />
	</node>
	<node id="-452984" lat="59.7088722209" lon="8.72931667527">
		<tag k="name" v="Hånådalsbekken" />
		<tag k="ssr:stedsnr" v="347458" />
		<tag k="waterway" v="stream" />
	</node>
	<node id="-452983" lat="59.7115555526" lon="8.6419833391">
		<tag k="name" v="Deledalstjønn vestre" />
>>>>>>> e1d4bc35ff8a6074a6f2e91616a996b547c36f15
		<tag k="natural" v="water" />
		<tag k="ssr:stedsnr" v="307426" />
	</node>
<<<<<<< HEAD
	<node lat="59.79714999777982" lon="8.681491673653596" id="-20824">
		<tag k="name" v="Gausdøla" />
		<tag k="ssr:stedsnr" v="307772" />
		<tag k="waterway" v="river" />
	</node>
	<node lat="59.789388891352964" lon="8.699827772899562" id="-20826">
		<tag k="alt_name" v="Fossebekken" />
		<tag k="name" v="Fossebekk" />
		<tag k="ssr:stedsnr" v="307776" />
		<tag k="waterway" v="stream" />
	</node>
	<node lat="59.837391667633" lon="8.83591389327738" id="-20834">
		<tag k="name" v="Risbuåi" />
		<tag k="ssr:stedsnr" v="307814" />
		<tag k="waterway" v="stream" />
	</node>
	<node lat="59.835769446155865" lon="8.736138888872318" id="-20835">
		<tag k="alt_name" v="Heddersvatnet" />
		<tag k="name" v="Heddersvatn" />
		<tag k="natural" v="water" />
		<tag k="ssr:stedsnr" v="307816" />
		<tag k="water" v="lake" />
	</node>
	<node lat="59.83661666542968" lon="8.72990832496488" id="-20836">
		<tag k="alt_name" v="Brureskjær" />
		<tag k="name" v="Brureskjer" />
		<tag k="natural" v="cape" />
		<tag k="ssr:stedsnr" v="307817" />
	</node>
	<node lat="59.829127774617184" lon="8.752658329588359" id="-20840">
		<tag k="name" v="Heddersos" />
		<tag k="natural" v="bay" />
		<tag k="ssr:stedsnr" v="307833" />
	</node>
	<node lat="59.82491111014525" lon="8.598488897274164" id="-20842">
		<tag k="alt_name" v="Heddevatnet" />
		<tag k="name" v="Heddevatn" />
		<tag k="natural" v="water" />
		<tag k="ssr:stedsnr" v="307838" />
		<tag k="water" v="lake" />
	</node>
	<node lat="59.821594442936245" lon="8.605277781072349" id="-20843">
		<tag k="alt_name" v="Svarttjørnodden" />
		<tag k="name" v="Svarttjønnodden" />
		<tag k="natural" v="cape" />
		<tag k="ssr:stedsnr" v="307840" />
	</node>
	<node lat="59.793224998902495" lon="8.829699992263377" id="-20851">
		<tag k="alt_name" v="Flåtåtjørn" />
		<tag k="name" v="Flåtåtjønn" />
=======
	<node id="-452982" lat="59.6936833332" lon="8.87539722731">
		<tag k="name" v="Skogsåi" />
		<tag k="ssr:stedsnr" v="347108" />
		<tag k="waterway" v="river" />
	</node>
	<node id="-452669" lat="59.6547607677" lon="8.78650351091">
		<tag k="alt_name" v="Reinstjønn" />
		<tag k="name" v="Reinstjørnan" />
		<tag k="natural" v="water" />
		<tag k="ssr:stedsnr" v="3730" />
	</node>
	<node id="-452969" lat="59.717866665" lon="8.87974444338">
		<tag k="alt_name" v="Fisketjørnbekken" />
		<tag k="name" v="Fisketjønnbekken" />
		<tag k="ssr:stedsnr" v="307107" />
		<tag k="waterway" v="stream" />
	</node>
	<node id="-452964" lat="59.5498805591" lon="8.84791111821">
		<tag k="name" v="Illfiskskarbekken" />
		<tag k="ssr:stedsnr" v="470829" />
		<tag k="waterway" v="stream" />
	</node>
	<node id="-452950" lat="59.6402694483" lon="8.80038888364">
		<tag k="name" v="Fårlegholsfoss" />
		<tag k="natural" v="waterfall" />
		<tag k="ssr:stedsnr" v="469922" />
	</node>
	<node id="-452947" lat="59.7281444422" lon="8.67204167112">
		<tag k="name" v="Femjølklibukta" />
		<tag k="natural" v="bay" />
		<tag k="ssr:stedsnr" v="469829" />
	</node>
	<node id="-452940" lat="59.5969861077" lon="8.69128332497">
		<tag k="name" v="Stuvøybekken" />
		<tag k="ssr:stedsnr" v="470141" />
		<tag k="waterway" v="stream" />
	</node>
	<node id="-452934" lat="59.6726777813" lon="8.6656999973">
		<tag k="name" v="Hølkebekk" />
		<tag k="ssr:stedsnr" v="469177" />
		<tag k="waterway" v="stream" />
	</node>
	<node id="-452931" lat="59.6875972264" lon="8.65247222315">
		<tag k="name" v="Gamsøya" />
		<tag k="place" v="island" />
		<tag k="ssr:stedsnr" v="469150" />
	</node>
	<node id="-452929" lat="59.7841361126" lon="8.85799722133">
		<tag k="name" v="Lille Elgstjønn" />
>>>>>>> e1d4bc35ff8a6074a6f2e91616a996b547c36f15
		<tag k="natural" v="water" />
		<tag k="ssr:stedsnr" v="307982" />
	</node>
<<<<<<< HEAD
	<node lat="59.75293610801369" lon="8.685630557062616" id="-20862">
		<tag k="name" v="Lambeskjer" />
		<tag k="place" v="island" />
		<tag k="ssr:stedsnr" v="347938" />
	</node>
	<node lat="59.65452222369054" lon="8.672502779881844" id="-20864">
		<tag k="name" v="Hyttetjønn" />
		<tag k="natural" v="water" />
		<tag k="ssr:stedsnr" v="347983" />
	</node>
	<node lat="59.55447777370119" lon="8.83202222708692" id="-20879">
		<tag k="name" v="Lortholbekken" />
		<tag k="ssr:stedsnr" v="349897" />
		<tag k="waterway" v="stream" />
	</node>
	<node lat="59.6017444450674" lon="8.73781111489561" id="-20881">
		<tag k="name" v="Oreneset" />
		<tag k="natural" v="cape" />
		<tag k="ssr:stedsnr" v="349977" />
	</node>
	<node lat="59.738700003945155" lon="8.880616663511788" id="-20884">
		<tag k="name" v="Trytetjønn" />
=======
	<node id="-452928" lat="59.7072888905" lon="8.89922221797">
		<tag k="name" v="Vesle Fisketjønn" />
		<tag k="natural" v="water" />
		<tag k="ssr:stedsnr" v="468818" />
	</node>
	<node id="-452924" lat="59.5572055518" lon="8.7990027852">
		<tag k="name" v="Sudslåkabekken" />
		<tag k="ssr:stedsnr" v="288876" />
		<tag k="waterway" v="stream" />
	</node>
	<node id="-452915" lat="59.6097527733" lon="8.79627777495">
		<tag k="name" v="Svørting" />
		<tag k="ssr:stedsnr" v="288602" />
		<tag k="waterway" v="river" />
	</node>
	<node id="-452913" lat="59.6281666705" lon="8.55183611249">
		<tag k="name" v="Høydalstjønnen" />
>>>>>>> e1d4bc35ff8a6074a6f2e91616a996b547c36f15
		<tag k="natural" v="water" />
		<tag k="ssr:stedsnr" v="367013" />
	</node>
<<<<<<< HEAD
	<node lat="59.61479999937634" lon="8.863813881861962" id="-20886">
		<tag k="name" v="Geita" />
		<tag k="ssr:stedsnr" v="367308" />
		<tag k="waterway" v="stream" />
	</node>
	<node lat="59.71593889014377" lon="8.657150002474046" id="-20888">
		<tag k="name" v="Østretjørn" />
		<tag k="natural" v="water" />
		<tag k="ssr:stedsnr" v="367522" />
	</node>
	<node lat="59.668591663797024" lon="8.832144443676993" id="-20908">
		<tag k="name" v="Uppstigåa" />
		<tag k="ssr:stedsnr" v="367664" />
		<tag k="waterway" v="stream" />
	</node>
	<node lat="59.62711388924502" lon="8.543111113429283" id="-20912">
		<tag k="alt_name" v="Høydalstjørnan" />
		<tag k="name" v="Høydalstjønnen" />
		<tag k="natural" v="water" />
		<tag k="ssr:stedsnr" v="367739" />
	</node>
	<node lat="59.81105555135594" lon="8.479577779499273" id="-20914">
		<tag k="alt_name" v="Skjertjørn" />
		<tag k="name" v="Skjertjønn" />
		<tag k="natural" v="water" />
		<tag k="ssr:stedsnr" v="367768" />
	</node>
	<node lat="59.76912458070196" lon="8.728477970791916" id="-20917">
		<tag k="alt_name" v="Fikstjørn" />
		<tag k="name" v="Fikstjønn" />
=======
	<node id="-452911" lat="59.6439333293" lon="8.69831944254">
		<tag k="name" v="Løkjestulbekken" />
		<tag k="ssr:stedsnr" v="287973" />
		<tag k="waterway" v="stream" />
	</node>
	<node id="-452909" lat="59.6666111134" lon="8.84026111886">
		<tag k="name" v="Kvitåfoss" />
		<tag k="natural" v="waterfall" />
		<tag k="ssr:stedsnr" v="287962" />
	</node>
	<node id="-452905" lat="59.7075388877" lon="8.67547500454">
		<tag k="name" v="Grasdalsbekken" />
		<tag k="ssr:stedsnr" v="287858" />
		<tag k="waterway" v="stream" />
	</node>
	<node id="-452902" lat="59.7062194478" lon="8.85859443792">
		<tag k="name" v="Vesleosnes" />
		<tag k="natural" v="cape" />
		<tag k="ssr:stedsnr" v="287224" />
	</node>
	<node id="-452895" lat="59.569052776" lon="8.82838888834">
		<tag k="name" v="Mjella" />
		<tag k="ssr:stedsnr" v="246903" />
		<tag k="waterway" v="stream" />
	</node>
	<node id="-452892" lat="59.7458305573" lon="8.54380555978">
		<tag k="alt_name" v="Beksletjørnan" />
		<tag k="name" v="Beksletjønn" />
>>>>>>> e1d4bc35ff8a6074a6f2e91616a996b547c36f15
		<tag k="natural" v="water" />
		<tag k="ssr:stedsnr" v="367931" />
	</node>
<<<<<<< HEAD
	<node lat="59.81247499663707" lon="8.601619441405484" id="-20921">
		<tag k="alt_name" v="Skinandvatn" />
		<tag k="name" v="Skinanvatnet" />
		<tag k="natural" v="water" />
		<tag k="ssr:stedsnr" v="368832" />
		<tag k="water" v="lake" />
	</node>
	<node lat="59.83577777375434" lon="8.822027779085223" id="-20924">
		<tag k="alt_name" v="Aurestjørn" />
		<tag k="name" v="Aurestjønn" />
		<tag k="natural" v="water" />
		<tag k="ssr:stedsnr" v="368848" />
	</node>
	<node lat="59.790866670642316" lon="8.729158331640411" id="-20926">
		<tag k="alt_name" v="Åråhovdetjørni" />
		<tag k="name" v="Åråhøvdtjønn" />
		<tag k="natural" v="water" />
		<tag k="ssr:stedsnr" v="368813" />
	</node>
	<node lat="59.78555833471455" lon="8.823933324756597" id="-20928">
		<tag k="alt_name" v="Grastjørn" />
		<tag k="name" v="Grastjønn" />
		<tag k="natural" v="water" />
		<tag k="ssr:stedsnr" v="368982" />
	</node>
	<node lat="59.756780559056196" lon="8.773730550989482" id="-20931">
		<tag k="name" v="Båntjønn" />
		<tag k="natural" v="water" />
		<tag k="ssr:stedsnr" v="401647" />
	</node>
	<node lat="59.69650833274632" lon="8.619952779908353" id="-20934">
		<tag k="name" v="Hesteskodiket" />
		<tag k="natural" v="water" />
		<tag k="ssr:stedsnr" v="408170" />
		<tag k="water" v="pond" />
	</node>
	<node lat="59.793202779557525" lon="8.792850001097802" id="-20935">
		<tag k="name" v="Dekkane" />
		<tag k="ssr:stedsnr" v="408888" />
		<tag k="waterway" v="stream" />
	</node>
	<node lat="59.62190277942209" lon="8.904977786029848" id="-20939">
		<tag k="name" v="Svangebekk" />
		<tag k="ssr:stedsnr" v="409047" />
		<tag k="waterway" v="stream" />
	</node>
	<node lat="59.783169443243345" lon="8.663891666833756" id="-20941">
		<tag k="name" v="Bonsdam" />
		<tag k="ssr:stedsnr" v="409165" />
		<tag k="waterway" v="dam" />
	</node>
	<node lat="59.63636944083042" lon="8.686069442218848" id="-20957">
		<tag k="name" v="Damtjønn øvre" />
		<tag k="natural" v="water" />
		<tag k="ssr:stedsnr" v="410056" />
	</node>
	<node lat="59.7771910326719" lon="8.493025758556184" id="-20962">
		<tag k="name" v="Sandtjønn" />
=======
	<node id="-452889" lat="59.5906694423" lon="8.7663055509">
		<tag k="name" v="Helvetesfoss" />
		<tag k="natural" v="waterfall" />
		<tag k="ssr:stedsnr" v="228853" />
	</node>
	<node id="-452888" lat="59.6159027777" lon="8.81855277981">
		<tag k="name" v="Lonarøyen" />
		<tag k="place" v="island" />
		<tag k="ssr:stedsnr" v="228706" />
	</node>
	<node id="-452885" lat="59.615569443" lon="8.93298055336">
		<tag k="name" v="Lihølen" />
		<tag k="place" v="locality" />
		<tag k="ssr:stedsnr" v="228059" />
	</node>
	<node id="-452870" lat="59.825241666" lon="8.46811666608">
		<tag k="name" v="Tandertjønnbekken" />
		<tag k="ssr:stedsnr" v="289239" />
		<tag k="waterway" v="stream" />
	</node>
	<node id="-452866" lat="59.6190527799" lon="8.79084445064">
		<tag k="name" v="Raudbekk" />
		<tag k="ssr:stedsnr" v="288884" />
		<tag k="waterway" v="stream" />
	</node>
	<node id="-452860" lat="59.629397219" lon="8.74923054785">
		<tag k="name" v="Tverrbekk" />
		<tag k="ssr:stedsnr" v="288924" />
		<tag k="waterway" v="stream" />
	</node>
	<node id="-452857" lat="59.8084027778" lon="8.58176110425">
		<tag k="name" v="Skinandåi" />
		<tag k="ssr:stedsnr" v="287945" />
		<tag k="waterway" v="stream" />
	</node>
	<node id="-452856" lat="59.7903611143" lon="8.70629999753">
		<tag k="name" v="Heggelibekken" />
		<tag k="ssr:stedsnr" v="287937" />
		<tag k="waterway" v="stream" />
	</node>
	<node id="-452855" lat="59.7259888853" lon="8.66846944306">
		<tag k="name" v="Djupebukt" />
		<tag k="natural" v="bay" />
		<tag k="ssr:stedsnr" v="287848" />
	</node>
	<node id="-452846" lat="59.6588944401" lon="8.66328055974">
		<tag k="name" v="Raubekk" />
		<tag k="ssr:stedsnr" v="287194" />
		<tag k="waterway" v="stream" />
	</node>
	<node id="-452837" lat="59.6058861141" lon="8.57887777323">
		<tag k="name" v="Møyretjønn" />
>>>>>>> e1d4bc35ff8a6074a6f2e91616a996b547c36f15
		<tag k="natural" v="water" />
		<tag k="ssr:stedsnr" v="411013" />
	</node>
<<<<<<< HEAD
	<node lat="59.74795000175503" lon="8.595680555375722" id="-20963">
		<tag k="alt_name" v="Risbutjørni, s;Risbutjønn søndre" />
		<tag k="name" v="Søndre Risbutjønn" />
=======
	<node id="-452831" lat="59.5871527765" lon="8.84002777331">
		<tag k="name" v="Flisetjønn" />
>>>>>>> e1d4bc35ff8a6074a6f2e91616a996b547c36f15
		<tag k="natural" v="water" />
		<tag k="ssr:stedsnr" v="427552" />
	</node>
<<<<<<< HEAD
	<node lat="59.73983889296923" lon="8.518111119460574" id="-20964">
		<tag k="name" v="Nåpåtjørnan" />
		<tag k="natural" v="water" />
		<tag k="ssr:stedsnr" v="427560" />
	</node>
	<node lat="59.6001553477334" lon="8.972925648166013" id="-20974">
		<tag k="name" v="Fagertjørna" />
=======
	<node id="-452827" lat="59.6152027783" lon="8.95338333639">
		<tag k="name" v="Vadøya" />
		<tag k="place" v="island" />
		<tag k="ssr:stedsnr" v="166212" />
	</node>
	<node id="-452826" lat="59.7490027743" lon="8.69356388738">
		<tag k="name" v="Klingertjønn" />
>>>>>>> e1d4bc35ff8a6074a6f2e91616a996b547c36f15
		<tag k="natural" v="water" />
		<tag k="ssr:stedsnr" v="428330" />
	</node>
<<<<<<< HEAD
	<node lat="59.79983333170595" lon="8.432027782531021" id="-20977">
		<tag k="alt_name" v="Gråtjørn" />
		<tag k="name" v="Gråtjønn" />
=======
	<node id="-454864" lat="59.7887908315" lon="8.85126734844">
		<tag k="name" v="Vesle Gampetjønn" />
>>>>>>> e1d4bc35ff8a6074a6f2e91616a996b547c36f15
		<tag k="natural" v="water" />
		<tag k="ssr:stedsnr" v="428391" />
	</node>
<<<<<<< HEAD
	<node lat="59.70172500063358" lon="8.756808336841665" id="-20980">
		<tag k="alt_name" v="Skimyrvatnet" />
		<tag k="name" v="Skimyrvatn" />
		<tag k="natural" v="water" />
		<tag k="ssr:stedsnr" v="428544" />
		<tag k="water" v="lake" />
	</node>
	<node lat="59.71308611437986" lon="8.748911119757013" id="-20982">
		<tag k="alt_name" v="Hånådalsvatn" />
		<tag k="name" v="Hånådalsvatnet" />
=======
	<node id="-452811" lat="59.746522224" lon="8.79714166462">
		<tag k="name" v="Sundet" />
		<tag k="natural" v="strait" />
		<tag k="ssr:stedsnr" v="279313" />
	</node>
	<node id="-452808" lat="59.5921043009" lon="8.96341630683">
		<tag k="alt_name" v="Dalatjørna" />
		<tag k="name" v="Dålåtjønn" />
>>>>>>> e1d4bc35ff8a6074a6f2e91616a996b547c36f15
		<tag k="natural" v="water" />
		<tag k="ssr:stedsnr" v="428556" />
	</node>
<<<<<<< HEAD
	<node lat="59.7974166672059" lon="8.628869445594711" id="-20986">
		<tag k="alt_name" v="Kjerringa" />
		<tag k="name" v="Kjerringi" />
		<tag k="natural" v="cape" />
		<tag k="ssr:stedsnr" v="428738" />
	</node>
	<node lat="59.810366666035264" lon="8.81164166563601" id="-20989">
		<tag k="name" v="Kråkenesåi" />
		<tag k="ssr:stedsnr" v="428808" />
		<tag k="waterway" v="stream" />
	</node>
	<node lat="59.68505277893581" lon="8.715269446591424" id="-20992">
		<tag k="alt_name" v="Sveinungshovdtjørna" />
		<tag k="name" v="Sveinungshøvdtjønn" />
=======
	<node id="-454850" lat="59.6177722229" lon="8.93863056261">
		<tag k="name" v="Leinebekk" />
		<tag k="ssr:stedsnr" v="955723" />
		<tag k="waterway" v="stream" />
	</node>
	<node id="-452800" lat="59.7526416639" lon="8.8363166729">
		<tag k="name" v="Deilbekken" />
		<tag k="ssr:stedsnr" v="97313" />
		<tag k="waterway" v="stream" />
	</node>
	<node id="-454847" lat="59.6184555561" lon="8.84684444717">
		<tag k="name" v="Kåvåløken" />
		<tag k="natural" v="water" />
		<tag k="ssr:stedsnr" v="955680" />
		<tag k="water" v="lake" />
	</node>
	<node id="-452798" lat="59.827630558" lon="8.74298610313">
		<tag k="alt_name" v="Budeitjørn" />
		<tag k="name" v="Budeitjønn" />
>>>>>>> e1d4bc35ff8a6074a6f2e91616a996b547c36f15
		<tag k="natural" v="water" />
		<tag k="ssr:stedsnr" v="428597" />
	</node>
<<<<<<< HEAD
	<node lat="59.60991667099253" lon="8.718758326105084" id="-20994">
		<tag k="name" v="Brubekk" />
		<tag k="ssr:stedsnr" v="428798" />
		<tag k="waterway" v="stream" />
	</node>
	<node lat="59.81790277987993" lon="8.501886103721125" id="-21000">
		<tag k="alt_name" v="Langetjørn" />
=======
	<node id="-452795" lat="59.835408337" lon="8.71056388732">
		<tag k="name" v="Stavsrobekken" />
		<tag k="ssr:stedsnr" v="247809" />
		<tag k="waterway" v="stream" />
	</node>
	<node id="-454842" lat="59.6139388852" lon="8.98579999772">
		<tag k="name" v="Omnesøy" />
		<tag k="place" v="island" />
		<tag k="ssr:stedsnr" v="955200" />
	</node>
	<node id="-452791" lat="59.770788893" lon="8.83175555352">
		<tag k="alt_name" v="Longetjørn" />
>>>>>>> e1d4bc35ff8a6074a6f2e91616a996b547c36f15
		<tag k="name" v="Langetjønn" />
		<tag k="natural" v="water" />
		<tag k="ssr:stedsnr" v="428850" />
	</node>
<<<<<<< HEAD
	<node lat="59.52861944225763" lon="8.73847499825929" id="-21004">
		<tag k="name" v="Grunnåi" />
		<tag k="ssr:stedsnr" v="428984" />
		<tag k="waterway" v="river" />
	</node>
	<node lat="59.78349166246679" lon="8.666411116977006" id="-21005">
		<tag k="name" v="Bonsåi" />
		<tag k="ssr:stedsnr" v="429975" />
		<tag k="waterway" v="river" />
	</node>
	<node lat="59.78154166333892" lon="8.71005278091795" id="-21006">
		<tag k="alt_name" v="Blåtjørn" />
		<tag k="name" v="Blåtjønn" />
=======
	<node id="-454832" lat="59.7248333358" lon="8.79229167096">
		<tag k="name" v="Langodden" />
		<tag k="natural" v="cape" />
		<tag k="ssr:stedsnr" v="954353" />
	</node>
	<node id="-452783" lat="59.8260833378" lon="8.8247194528">
		<tag k="alt_name" v="Tindultjørn" />
		<tag k="name" v="Tindultjønn" />
		<tag k="natural" v="water" />
		<tag k="ssr:stedsnr" v="246809" />
	</node>
	<node id="-452781" lat="59.6223638927" lon="8.75912499806">
		<tag k="name" v="Tjørnfløya" />
>>>>>>> e1d4bc35ff8a6074a6f2e91616a996b547c36f15
		<tag k="natural" v="water" />
		<tag k="ssr:stedsnr" v="429979" />
	</node>
<<<<<<< HEAD
	<node lat="59.69653611136963" lon="8.475758334497744" id="-21008">
		<tag k="name" v="Åtofjorden" />
		<tag k="natural" v="bay" />
		<tag k="ssr:stedsnr" v="670639" />
	</node>
	<node lat="59.67588055730266" lon="8.678169435859118" id="-21010">
		<tag k="alt_name" v="Beggestultjørni" />
		<tag k="name" v="Beggestultjønn" />
=======
	<node id="-454828" lat="59.6715638861" lon="8.52313889541">
		<tag k="name" v="Det vonde dike" />
		<tag k="place" v="locality" />
		<tag k="ssr:stedsnr" v="954187" />
	</node>
	<node id="-454827" lat="59.7697805517" lon="8.55498332461">
		<tag k="name" v="Svartetjønn" />
>>>>>>> e1d4bc35ff8a6074a6f2e91616a996b547c36f15
		<tag k="natural" v="water" />
		<tag k="ssr:stedsnr" v="670651" />
	</node>
<<<<<<< HEAD
	<node lat="59.616950001182445" lon="8.725700002066743" id="-21012">
		<tag k="name" v="Tutebekk" />
		<tag k="ssr:stedsnr" v="670810" />
		<tag k="waterway" v="stream" />
	</node>
	<node lat="59.61369444494634" lon="8.955483334707145" id="-21026">
		<tag k="name" v="Åmotshølen" />
=======
	<node id="-454823" lat="59.7242222179" lon="8.84457499461">
		<tag k="name" v="Ekslihølen" />
>>>>>>> e1d4bc35ff8a6074a6f2e91616a996b547c36f15
		<tag k="place" v="locality" />
		<tag k="ssr:stedsnr" v="530242" />
	</node>
<<<<<<< HEAD
	<node lat="59.70719444584586" lon="8.665019451156322" id="-21054">
		<tag k="alt_name" v="Blåtjønn" />
		<tag k="name" v="Blåtjørn" />
		<tag k="natural" v="water" />
		<tag k="ssr:stedsnr" v="549569" />
	</node>
	<node lat="59.71320277373779" lon="8.88493889738248" id="-21056">
		<tag k="alt_name" v="Svarttjørn" />
=======
	<node id="-452772" lat="59.6373777781" lon="8.81523611765">
		<tag k="name" v="Skorva" />
		<tag k="ssr:stedsnr" v="246712" />
		<tag k="waterway" v="river" />
	</node>
	<node id="-454817" lat="59.7775861127" lon="8.57952778157">
		<tag k="alt_name" v="Svartetjørn" />
>>>>>>> e1d4bc35ff8a6074a6f2e91616a996b547c36f15
		<tag k="name" v="Svartetjønn" />
		<tag k="natural" v="water" />
		<tag k="ssr:stedsnr" v="549084" />
	</node>
<<<<<<< HEAD
	<node lat="59.5872180467568" lon="8.969071516735701" id="-21059">
		<tag k="alt_name" v="Nystultjønn" />
		<tag k="name" v="Nystulvatnet" />
=======
	<node id="-452768" lat="59.6590638929" lon="8.71419444388">
		<tag k="alt_name" v="Blåtjørn" />
		<tag k="name" v="Blåtjønn" />
>>>>>>> e1d4bc35ff8a6074a6f2e91616a996b547c36f15
		<tag k="natural" v="water" />
		<tag k="ssr:stedsnr" v="549316" />
	</node>
<<<<<<< HEAD
	<node lat="59.654074996354176" lon="8.538113886664139" id="-21061">
		<tag k="name" v="Gaulåsåi" />
		<tag k="ssr:stedsnr" v="549672" />
		<tag k="waterway" v="stream" />
	</node>
	<node lat="59.649569445014485" lon="8.591452777323896" id="-21062">
		<tag k="name" v="Vangsåi" />
		<tag k="ssr:stedsnr" v="549674" />
		<tag k="waterway" v="stream" />
	</node>
	<node lat="59.65244444035442" lon="8.603199993316156" id="-21064">
		<tag k="name" v="Valoset" />
		<tag k="natural" v="bay" />
		<tag k="ssr:stedsnr" v="549683" />
	</node>
	<node lat="59.65436388820208" lon="8.708525006934664" id="-21065">
		<tag k="alt_name" v="Urdetjørn" />
		<tag k="name" v="Uletjønn" />
=======
	<node id="-454814" lat="59.7667361067" lon="8.55395555549">
		<tag k="alt_name" v="Urdetjørn, øvre;Urdetjønn øvre" />
		<tag k="name" v="Øvre Urdetjønn" />
>>>>>>> e1d4bc35ff8a6074a6f2e91616a996b547c36f15
		<tag k="natural" v="water" />
		<tag k="ssr:stedsnr" v="549685" />
	</node>
<<<<<<< HEAD
	<node lat="59.699100000895356" lon="8.499597219442212" id="-21071">
		<tag k="name" v="Skjesåi" />
		<tag k="ssr:stedsnr" v="549617" />
		<tag k="waterway" v="river" />
	</node>
	<node lat="59.68643055602567" lon="8.539516662381493" id="-21072">
		<tag k="alt_name" v="Langetjørn" />
		<tag k="name" v="Langetjønn" />
=======
	<node id="-452765" lat="59.678677779" lon="8.82266110694">
		<tag k="alt_name" v="Husevatn" />
		<tag k="name" v="Husevatnet" />
>>>>>>> e1d4bc35ff8a6074a6f2e91616a996b547c36f15
		<tag k="natural" v="water" />
		<tag k="ssr:stedsnr" v="549624" />
	</node>
<<<<<<< HEAD
	<node lat="59.69659435504717" lon="8.539995186267245" id="-21073">
		<tag k="alt_name" v="Fyribøenvatn" />
		<tag k="name" v="Fyribøvatnet" />
		<tag k="natural" v="water" />
		<tag k="ssr:stedsnr" v="549629" />
	</node>
	<node lat="59.823083337296424" lon="8.799249998533941" id="-21082">
		<tag k="alt_name" v="Berulvtjørn" />
		<tag k="name" v="Berultjønn" />
=======
	<node id="-454808" lat="59.8097166626" lon="8.84059722082">
		<tag k="alt_name" v="Sjåvatnet" />
		<tag k="name" v="Sjåvatn" />
>>>>>>> e1d4bc35ff8a6074a6f2e91616a996b547c36f15
		<tag k="natural" v="water" />
		<tag k="ssr:stedsnr" v="549771" />
	</node>
<<<<<<< HEAD
	<node lat="59.81894999981926" lon="8.828624997202771" id="-21083">
		<tag k="name" v="Myarbekken" />
		<tag k="ssr:stedsnr" v="549775" />
		<tag k="waterway" v="stream" />
	</node>
	<node lat="59.77375753460386" lon="8.654805040525108" id="-21099">
		<tag k="alt_name" v="Sønstetjørn" />
		<tag k="name" v="Sønstetjønn" />
=======
	<node id="-454806" lat="59.8116416689" lon="8.78689166173">
		<tag k="alt_name" v="Fågelibekken" />
		<tag k="name" v="Fågerlibekken" />
		<tag k="ssr:stedsnr" v="853793" />
		<tag k="waterway" v="stream" />
	</node>
	<node id="-454802" lat="59.6806666689" lon="8.66704166138">
		<tag k="alt_name" v="Åndetjønn" />
		<tag k="name" v="Andetjørn" />
>>>>>>> e1d4bc35ff8a6074a6f2e91616a996b547c36f15
		<tag k="natural" v="water" />
		<tag k="ssr:stedsnr" v="549987" />
	</node>
<<<<<<< HEAD
	<node lat="59.82544722467567" lon="8.544380546840706" id="-21102">
		<tag k="alt_name" v="Nåpåtjørn, s;Nåpåtjønn søndre" />
		<tag k="name" v="Søndre Nåpåtjønn" />
		<tag k="natural" v="water" />
		<tag k="ssr:stedsnr" v="550830" />
	</node>
	<node lat="59.83709444048165" lon="8.55233888842636" id="-21107">
		<tag k="alt_name" v="Åtetjørn" />
		<tag k="name" v="Åtetjønn" />
		<tag k="natural" v="water" />
		<tag k="ssr:stedsnr" v="550867" />
	</node>
	<node lat="59.71751111399632" lon="8.770505558388322" id="-21109">
		<tag k="name" v="Gåsetjønn øvre" />
=======
	<node id="-452753" lat="59.7355638916" lon="8.71744166811">
		<tag k="name" v="Kova" />
		<tag k="ssr:stedsnr" v="246505" />
		<tag k="waterway" v="river" />
	</node>
	<node id="-452752" lat="59.7380305567" lon="8.73463611104">
		<tag k="alt_name" v="Sveigstjørn" />
		<tag k="name" v="Sveigstjønn" />
		<tag k="natural" v="water" />
		<tag k="ssr:stedsnr" v="246504" />
	</node>
	<node id="-452751" lat="59.6799777796" lon="8.89398611541">
		<tag k="alt_name" v="Løgndalsbekken" />
		<tag k="name" v="Lyngdalsbekken" />
		<tag k="ssr:stedsnr" v="246168" />
		<tag k="waterway" v="stream" />
	</node>
	<node id="-452749" lat="59.6944305578" lon="8.90221944642">
		<tag k="name" v="Bonetjørn" />
>>>>>>> e1d4bc35ff8a6074a6f2e91616a996b547c36f15
		<tag k="natural" v="water" />
		<tag k="ssr:stedsnr" v="551470" />
	</node>
<<<<<<< HEAD
	<node lat="59.643794444985076" lon="8.651222228685278" id="-21124">
		<tag k="name" v="Røynebrekktjønn" />
=======
	<node id="-454795" lat="59.7187386005" lon="8.7395186314">
		<tag k="alt_name" v="Homtjørn" />
		<tag k="name" v="Homtjønn" />
>>>>>>> e1d4bc35ff8a6074a6f2e91616a996b547c36f15
		<tag k="natural" v="water" />
		<tag k="ssr:stedsnr" v="590185" />
	</node>
<<<<<<< HEAD
	<node lat="59.70346388978859" lon="8.802602772562869" id="-21126">
		<tag k="name" v="Grønlitjønnen" />
		<tag k="natural" v="water" />
		<tag k="ssr:stedsnr" v="590196" />
	</node>
	<node lat="59.68101388644653" lon="8.757752775057186" id="-21129">
		<tag k="name" v="Bekkjestultjønn" />
		<tag k="natural" v="water" />
		<tag k="ssr:stedsnr" v="590432" />
	</node>
	<node lat="59.71404166519804" lon="8.756713880211816" id="-21130">
		<tag k="name" v="Pråmbukta" />
		<tag k="natural" v="bay" />
		<tag k="ssr:stedsnr" v="590435" />
	</node>
	<node lat="59.63736110987507" lon="8.588433339364204" id="-21144">
		<tag k="name" v="Stusshøl" />
		<tag k="place" v="locality" />
		<tag k="ssr:stedsnr" v="591389" />
	</node>
	<node lat="59.704766669540746" lon="8.90259999549354" id="-21154">
		<tag k="name" v="Rotjørn" />
=======
	<node id="-452746" lat="59.7189944422" lon="8.89501944486">
		<tag k="name" v="Hyttlibekken" />
		<tag k="ssr:stedsnr" v="246102" />
		<tag k="waterway" v="stream" />
	</node>
	<node id="-454793" lat="59.7198999989" lon="8.79579444153">
		<tag k="name" v="Gåsebekken" />
		<tag k="ssr:stedsnr" v="853600" />
		<tag k="waterway" v="stream" />
	</node>
	<node id="-452744" lat="59.7791805581" lon="8.64916111089">
		<tag k="alt_name" v="Kilebukta" />
		<tag k="name" v="Kilebukti" />
		<tag k="natural" v="bay" />
		<tag k="ssr:stedsnr" v="247977" />
	</node>
	<node id="-452743" lat="59.7868249981" lon="8.69588054987">
		<tag k="alt_name" v="Blåtjørnbekken" />
		<tag k="name" v="Blåtjønnbekken" />
		<tag k="ssr:stedsnr" v="247973" />
		<tag k="waterway" v="stream" />
	</node>
	<node id="-454790" lat="59.6327666624" lon="9.00506666511">
		<tag k="name" v="Store Krok" />
		<tag k="place" v="locality" />
		<tag k="ssr:stedsnr" v="853174" />
	</node>
	<node id="-454787" lat="59.6216166707" lon="8.77926665933">
		<tag k="alt_name" v="Vesleå" />
		<tag k="name" v="Vesleåa" />
		<tag k="ssr:stedsnr" v="853093" />
		<tag k="waterway" v="stream" />
	</node>
	<node id="-454785" lat="59.6578944477" lon="8.62887777793">
		<tag k="alt_name" v="Breidvatnet" />
		<tag k="name" v="Breivatn" />
>>>>>>> e1d4bc35ff8a6074a6f2e91616a996b547c36f15
		<tag k="natural" v="water" />
		<tag k="ssr:stedsnr" v="609073" />
	</node>
<<<<<<< HEAD
	<node lat="59.67723889102061" lon="8.7595833249874" id="-21158">
		<tag k="alt_name" v="Fagerskardtjørna" />
		<tag k="name" v="Fagerskartjønn" />
=======
	<node id="-454784" lat="59.6649527802" lon="8.60042499399">
		<tag k="alt_name" v="Presttjørn" />
		<tag k="name" v="Presttjønn" />
>>>>>>> e1d4bc35ff8a6074a6f2e91616a996b547c36f15
		<tag k="natural" v="water" />
		<tag k="ssr:stedsnr" v="609647" />
	</node>
<<<<<<< HEAD
	<node lat="59.67501944898073" lon="8.522061117729471" id="-21163">
		<tag k="alt_name" v="Reintjørn" />
		<tag k="name" v="Reinstjønn" />
		<tag k="natural" v="water" />
		<tag k="ssr:stedsnr" v="609675" />
	</node>
	<node lat="59.747563886466395" lon="8.759972219900861" id="-21165">
		<tag k="name" v="Tveitåi" />
		<tag k="ssr:stedsnr" v="609500" />
		<tag k="waterway" v="river" />
	</node>
	<node lat="59.744158329202975" lon="8.561708327940392" id="-21167">
		<tag k="alt_name" v="Berutjørn" />
		<tag k="name" v="Berutjønn" />
		<tag k="natural" v="water" />
		<tag k="ssr:stedsnr" v="609519" />
	</node>
	<node lat="59.678138889944904" lon="8.72818333946859" id="-21172">
		<tag k="alt_name" v="Blankebergtjørna" />
		<tag k="name" v="Blankebergtjønn" />
		<tag k="natural" v="water" />
		<tag k="ssr:stedsnr" v="609616" />
	</node>
	<node lat="59.61259444534821" lon="8.65523888111846" id="-21182">
		<tag k="name" v="Gjeråi" />
		<tag k="ssr:stedsnr" v="609773" />
		<tag k="waterway" v="stream" />
	</node>
	<node lat="59.78784722165262" lon="8.396549995898626" id="-21185">
		<tag k="alt_name" v="Heimetjørn" />
		<tag k="name" v="Holmtjønn" />
		<tag k="natural" v="water" />
		<tag k="ssr:stedsnr" v="610087" />
	</node>
	<node lat="59.78617500233455" lon="8.859802776542878" id="-21186">
		<tag k="alt_name" v="Elgstjørn" />
		<tag k="name" v="Store Elgstjønn" />
=======
	<node id="-454801" lat="59.6868611104" lon="8.69319722825">
		<tag k="name" v="Beggestultjørna" />
		<tag k="natural" v="water" />
		<tag k="ssr:stedsnr" v="853622" />
	</node>
	<node id="-452732" lat="59.8115222178" lon="8.74171667406">
		<tag k="name" v="Råen" />
		<tag k="ssr:stedsnr" v="64812" />
		<tag k="waterway" v="stream" />
	</node>
	<node id="-452721" lat="59.6595777747" lon="8.898663891">
		<tag k="alt_name" v="Skogsåi" />
		<tag k="name" v="Skogsåa" />
		<tag k="ssr:stedsnr" v="64219" />
		<tag k="waterway" v="river" />
	</node>
	<node id="-452713" lat="59.5593778359" lon="8.73404588192">
		<tag k="name" v="Flisetjønnan" />
		<tag k="natural" v="water" />
		<tag k="ssr:stedsnr" v="228851" />
	</node>
	<node id="-452707" lat="59.8320361143" lon="8.50600833252">
		<tag k="name" v="Såemsbotsbekken" />
		<tag k="ssr:stedsnr" v="228579" />
		<tag k="waterway" v="stream" />
	</node>
	<node id="-452706" lat="59.6067083307" lon="8.67564166042">
		<tag k="name" v="Gjerå" />
		<tag k="ssr:stedsnr" v="228393" />
		<tag k="waterway" v="stream" />
	</node>
	<node id="-452700" lat="59.6355333368" lon="8.86822500836">
		<tag k="name" v="Søndre Trytetjønn" />
		<tag k="natural" v="water" />
		<tag k="ssr:stedsnr" v="227692" />
	</node>
	<node id="-454746" lat="59.7312194442" lon="8.84374444033">
		<tag k="name" v="Tjønnesteinhølen" />
		<tag k="place" v="locality" />
		<tag k="ssr:stedsnr" v="832261" />
	</node>
	<node id="-454745" lat="59.7214305578" lon="8.88221388037">
		<tag k="name" v="Bjørndalsbekken" />
		<tag k="ssr:stedsnr" v="832232" />
		<tag k="waterway" v="stream" />
	</node>
	<node id="-452696" lat="59.5980444489" lon="8.67974722274">
		<tag k="name" v="Vestmobekken" />
		<tag k="ssr:stedsnr" v="227168" />
		<tag k="waterway" v="stream" />
	</node>
	<node id="-454739" lat="59.812636108" lon="8.40231110454">
		<tag k="name" v="Langvasstøtjønn" />
>>>>>>> e1d4bc35ff8a6074a6f2e91616a996b547c36f15
		<tag k="natural" v="water" />
		<tag k="ssr:stedsnr" v="610310" />
	</node>
<<<<<<< HEAD
	<node lat="59.6863499986771" lon="8.817524999610743" id="-21194">
		<tag k="name" v="Ljosevatnet" />
=======
	<node id="-454736" lat="59.8501638919" lon="8.76312221497">
		<tag k="alt_name" v="Djupetjørni" />
		<tag k="name" v="Djupetjønn" />
>>>>>>> e1d4bc35ff8a6074a6f2e91616a996b547c36f15
		<tag k="natural" v="water" />
		<tag k="ssr:stedsnr" v="610695" />
	</node>
<<<<<<< HEAD
	<node lat="59.82051111153183" lon="8.588152779023932" id="-21198">
		<tag k="alt_name" v="Skitnetjørn" />
		<tag k="name" v="Skitnetjønn" />
=======
	<node id="-454735" lat="59.7880111114" lon="8.75807499653">
		<tag k="name" v="Nøtting" />
>>>>>>> e1d4bc35ff8a6074a6f2e91616a996b547c36f15
		<tag k="natural" v="water" />
		<tag k="ssr:stedsnr" v="610854" />
	</node>
<<<<<<< HEAD
	<node lat="59.81440555347835" lon="8.550147225525766" id="-21199">
		<tag k="alt_name" v="Nystultjørni" />
		<tag k="name" v="Nystultjønn" />
=======
	<node id="-454734" lat="59.7839975644" lon="8.51345742226">
		<tag k="name" v="Vindsjåen" />
>>>>>>> e1d4bc35ff8a6074a6f2e91616a996b547c36f15
		<tag k="natural" v="water" />
		<tag k="ssr:stedsnr" v="610857" />
	</node>
<<<<<<< HEAD
	<node lat="59.76508333293833" lon="8.854244441876853" id="-21209">
		<tag k="name" v="Skitnetjønn" />
=======
	<node id="-454730" lat="59.7654666663" lon="8.67120278401">
		<tag k="alt_name" v="Skjertjørn" />
		<tag k="name" v="Skjertjønn" />
>>>>>>> e1d4bc35ff8a6074a6f2e91616a996b547c36f15
		<tag k="natural" v="water" />
		<tag k="ssr:stedsnr" v="711173" />
	</node>
<<<<<<< HEAD
	<node lat="59.68701111128392" lon="8.648188891193074" id="-21217">
		<tag k="name" v="Gamsbukta" />
		<tag k="natural" v="bay" />
		<tag k="ssr:stedsnr" v="650126" />
	</node>
	<node lat="59.670358337643655" lon="8.80918610836909" id="-21219">
		<tag k="name" v="Bekretjønn" />
=======
	<node id="-454729" lat="59.7614555524" lon="8.68379166014">
		<tag k="alt_name" v="Bukksiltjørn" />
		<tag k="name" v="Buksiltjønn" />
>>>>>>> e1d4bc35ff8a6074a6f2e91616a996b547c36f15
		<tag k="natural" v="water" />
		<tag k="ssr:stedsnr" v="650636" />
	</node>
<<<<<<< HEAD
	<node lat="59.67951667096215" lon="8.810669451997596" id="-21220">
		<tag k="name" v="Primtjønn" />
=======
	<node id="-454727" lat="59.6365749989" lon="8.52975277549">
		<tag k="alt_name" v="Ståvåtjørn" />
		<tag k="name" v="Ståvåtjønn" />
>>>>>>> e1d4bc35ff8a6074a6f2e91616a996b547c36f15
		<tag k="natural" v="water" />
		<tag k="ssr:stedsnr" v="650656" />
	</node>
<<<<<<< HEAD
	<node lat="59.67118610906417" lon="8.775905551411828" id="-21222">
		<tag k="name" v="Vesle Østenstjønn" />
=======
	<node id="-452677" lat="59.6395694409" lon="8.6631916688">
		<tag k="name" v="Volabakktjønn" />
>>>>>>> e1d4bc35ff8a6074a6f2e91616a996b547c36f15
		<tag k="natural" v="water" />
		<tag k="ssr:stedsnr" v="650510" />
	</node>
<<<<<<< HEAD
	<node lat="59.79450277853" lon="8.790372225101265" id="-21223">
		<tag k="name" v="Svartebekk" />
		<tag k="ssr:stedsnr" v="650879" />
		<tag k="waterway" v="stream" />
	</node>
	<node lat="59.83627777393908" lon="8.82169165845578" id="-21227">
		<tag k="name" v="Aurestjønn" />
=======
	<node id="-452676" lat="59.7004138862" lon="8.64747499933">
		<tag k="name" v="Deildalstjønn" />
>>>>>>> e1d4bc35ff8a6074a6f2e91616a996b547c36f15
		<tag k="natural" v="water" />
		<tag k="ssr:stedsnr" v="651982" />
	</node>
<<<<<<< HEAD
	<node lat="59.81572500287799" lon="8.455672213495285" id="-21230">
		<tag k="name" v="Langetjønn" />
=======
	<node id="-454723" lat="59.6284277761" lon="8.737077785">
		<tag k="alt_name" v="Rennevatn" />
		<tag k="name" v="Rennevatnet" />
>>>>>>> e1d4bc35ff8a6074a6f2e91616a996b547c36f15
		<tag k="natural" v="water" />
		<tag k="ssr:stedsnr" v="652221" />
	</node>
<<<<<<< HEAD
	<node lat="59.62946666778469" lon="8.660630563607915" id="-21231">
		<tag k="name" v="Tjønnefløe" />
=======
	<node id="-454717" lat="59.6915666678" lon="8.83959444168">
		<tag k="alt_name" v="Elgstjønn" />
		<tag k="name" v="Elgstjørn" />
>>>>>>> e1d4bc35ff8a6074a6f2e91616a996b547c36f15
		<tag k="natural" v="water" />
		<tag k="ssr:stedsnr" v="652222" />
	</node>
<<<<<<< HEAD
	<node lat="59.60576110906958" lon="8.736719444568832" id="-21240">
		<tag k="name" v="Tuteodden" />
		<tag k="natural" v="cape" />
		<tag k="ssr:stedsnr" v="652995" />
	</node>
	<node lat="59.69740833249075" lon="8.672402777271591" id="-21251">
		<tag k="name" v="Hågåvassåi" />
		<tag k="ssr:stedsnr" v="670575" />
		<tag k="waterway" v="stream" />
	</node>
	<node lat="59.73308055282211" lon="8.685819447838998" id="-21253">
		<tag k="name" v="Vesletjørn" />
=======
	<node id="-454710" lat="59.7086083368" lon="8.75173333227">
		<tag k="alt_name" v="Tverrbekk" />
		<tag k="name" v="Tverrbekken" />
		<tag k="ssr:stedsnr" v="792582" />
		<tag k="waterway" v="stream" />
	</node>
	<node id="-454709" lat="59.5842222234" lon="8.94032777092">
		<tag k="name" v="Skreibekken" />
		<tag k="ssr:stedsnr" v="792300" />
		<tag k="waterway" v="stream" />
	</node>
	<node id="-454707" lat="59.7543305558" lon="8.88572500589">
		<tag k="alt_name" v="Tjørnstaultjørni" />
		<tag k="name" v="Tjønnstultjønn" />
>>>>>>> e1d4bc35ff8a6074a6f2e91616a996b547c36f15
		<tag k="natural" v="water" />
		<tag k="ssr:stedsnr" v="670532" />
	</node>
<<<<<<< HEAD
	<node lat="59.673200001899744" lon="8.765511108479751" id="-21260">
		<tag k="name" v="Småtjønnen" />
=======
	<node id="-454706" lat="59.6680277811" lon="8.56440832696">
		<tag k="alt_name" v="Kleivstjørn" />
		<tag k="name" v="Kleivstjønn" />
>>>>>>> e1d4bc35ff8a6074a6f2e91616a996b547c36f15
		<tag k="natural" v="water" />
		<tag k="ssr:stedsnr" v="711538" />
	</node>
<<<<<<< HEAD
	<node lat="59.72779166940407" lon="8.882594448721296" id="-21264">
		<tag k="name" v="Møtingsbekken" />
		<tag k="ssr:stedsnr" v="711266" />
		<tag k="waterway" v="stream" />
	</node>
	<node lat="59.75620000167821" lon="8.68274166025687" id="-21266">
		<tag k="name" v="Matkil" />
		<tag k="natural" v="bay" />
		<tag k="ssr:stedsnr" v="711919" />
	</node>
	<node lat="59.800505553573565" lon="8.846097218637627" id="-21268">
		<tag k="name" v="Langetangen" />
		<tag k="natural" v="cape" />
		<tag k="ssr:stedsnr" v="711928" />
	</node>
	<node lat="59.66875000412673" lon="8.704102773887" id="-21271">
		<tag k="name" v="Stavstjønn søndre" />
=======
	<node id="-454703" lat="59.664352782" lon="8.64088332607">
		<tag k="name" v="Nedstulodden" />
		<tag k="natural" v="cape" />
		<tag k="ssr:stedsnr" v="791664" />
	</node>
	<node id="-454702" lat="59.7480222254" lon="8.53557500168">
		<tag k="name" v="Urteputtan" />
		<tag k="natural" v="water" />
		<tag k="ssr:stedsnr" v="791529" />
	</node>
	<node id="-454694" lat="59.5920750028" lon="8.98977778552">
		<tag k="alt_name" v="Beinstultjørna" />
		<tag k="name" v="Bennstultjønn" />
>>>>>>> e1d4bc35ff8a6074a6f2e91616a996b547c36f15
		<tag k="natural" v="water" />
		<tag k="ssr:stedsnr" v="711838" />
	</node>
<<<<<<< HEAD
	<node lat="59.72455277862231" lon="8.677202783629099" id="-21272">
		<tag k="name" v="Sløåtjønnbekken" />
		<tag k="ssr:stedsnr" v="711859" />
		<tag k="waterway" v="stream" />
	</node>
	<node lat="59.65851667085537" lon="8.898461116656357" id="-21273">
		<tag k="name" v="Blomøya" />
		<tag k="place" v="islet" />
		<tag k="ssr:stedsnr" v="711957" />
	</node>
	<node lat="59.809052773305254" lon="8.44165554699918" id="-21274">
		<tag k="name" v="Skjertjønn" />
		<tag k="natural" v="water" />
		<tag k="ssr:stedsnr" v="712210" />
	</node>
	<node lat="59.589055556824235" lon="8.93410832455861" id="-21284">
		<tag k="name" v="Raudbekk" />
		<tag k="ssr:stedsnr" v="713793" />
		<tag k="waterway" v="stream" />
	</node>
	<node lat="59.7456944484872" lon="8.462072217688052" id="-21295">
		<tag k="alt_name" v="Butjørn" />
		<tag k="name" v="Butjønn" />
=======
	<node id="-454693" lat="59.6183361086" lon="9.01706389603">
		<tag k="name" v="Libekk" />
		<tag k="ssr:stedsnr" v="791295" />
		<tag k="waterway" v="stream" />
	</node>
	<node id="-454692" lat="59.6116027756" lon="8.9945916702">
		<tag k="name" v="Åmnesfossen" />
		<tag k="natural" v="waterfall" />
		<tag k="ssr:stedsnr" v="791280" />
	</node>
	<node id="-454684" lat="59.8344388868" lon="8.52698610835">
		<tag k="name" v="Flisebekk" />
		<tag k="ssr:stedsnr" v="774616" />
		<tag k="waterway" v="stream" />
	</node>
	<node id="-454676" lat="59.6369361091" lon="8.65634721666">
		<tag k="name" v="Svartetjønn" />
>>>>>>> e1d4bc35ff8a6074a6f2e91616a996b547c36f15
		<tag k="natural" v="water" />
		<tag k="ssr:stedsnr" v="731191" />
	</node>
<<<<<<< HEAD
	<node lat="59.56669444856619" lon="8.870538897085462" id="-21296">
		<tag k="name" v="Hyttefossen" />
		<tag k="natural" v="waterfall" />
		<tag k="ssr:stedsnr" v="731302" />
	</node>
	<node lat="59.64245833645797" lon="8.779024992565098" id="-21299">
		<tag k="name" v="Bekkestulbekken" />
		<tag k="ssr:stedsnr" v="731699" />
		<tag k="waterway" v="stream" />
	</node>
	<node lat="59.699174995585274" lon="8.626383341821542" id="-21306">
		<tag k="alt_name" v="Utmanntjørna" />
		<tag k="name" v="Utmannstjønn" />
=======
	<node id="-454667" lat="59.6760583303" lon="8.67527500659">
		<tag k="name" v="Skjentangen" />
		<tag k="natural" v="cape" />
		<tag k="ssr:stedsnr" v="772815" />
	</node>
	<node id="-454666" lat="59.6853138879" lon="8.77669166706">
		<tag k="name" v="Olavstjønnen" />
>>>>>>> e1d4bc35ff8a6074a6f2e91616a996b547c36f15
		<tag k="natural" v="water" />
		<tag k="ssr:stedsnr" v="731548" />
	</node>
<<<<<<< HEAD
	<node lat="59.59051666949701" lon="8.751808338884656" id="-21311">
		<tag k="name" v="Svigsåi" />
		<tag k="ssr:stedsnr" v="731836" />
		<tag k="waterway" v="river" />
	</node>
	<node lat="59.79356111328363" lon="8.40503333895643" id="-21314">
		<tag k="alt_name" v="Vrangetjørni" />
		<tag k="name" v="Vrangetjønn" />
=======
	<node id="-454665" lat="59.7179305571" lon="8.81518610462">
		<tag k="name" v="Øygardstangen" />
		<tag k="natural" v="cape" />
		<tag k="ssr:stedsnr" v="772349" />
	</node>
	<node id="-454661" lat="59.6866777815" lon="8.78583056418">
		<tag k="name" v="Åstjønn" />
>>>>>>> e1d4bc35ff8a6074a6f2e91616a996b547c36f15
		<tag k="natural" v="water" />
		<tag k="ssr:stedsnr" v="732091" />
	</node>
<<<<<<< HEAD
	<node lat="59.57556111526046" lon="8.785216661970333" id="-21317">
		<tag k="alt_name" v="Flistjørn" />
		<tag k="name" v="Flisetjønn" />
=======
	<node id="-454660" lat="59.6870805576" lon="8.8092722227">
		<tag k="name" v="Langetjønn" />
>>>>>>> e1d4bc35ff8a6074a6f2e91616a996b547c36f15
		<tag k="natural" v="water" />
		<tag k="ssr:stedsnr" v="731921" />
	</node>
<<<<<<< HEAD
	<node lat="59.76477777421125" lon="8.590386103618156" id="-21319">
		<tag k="alt_name" v="Døvlingstjønn" />
		<tag k="name" v="Døvlingstjørnan" />
=======
	<node id="-454658" lat="59.7660555596" lon="8.74096667349">
		<tag k="name" v="Grasåstjønn" />
>>>>>>> e1d4bc35ff8a6074a6f2e91616a996b547c36f15
		<tag k="natural" v="water" />
		<tag k="ssr:stedsnr" v="732946" />
	</node>
<<<<<<< HEAD
	<node lat="59.79491389134366" lon="8.629947228603038" id="-21323">
		<tag k="name" v="Klingenes" />
		<tag k="natural" v="cape" />
		<tag k="ssr:stedsnr" v="732763" />
	</node>
	<node lat="59.794724873416165" lon="8.736427435538182" id="-21324">
		<tag k="alt_name" v="Makketjørn" />
		<tag k="name" v="Makketjønn" />
		<tag k="natural" v="water" />
		<tag k="ssr:stedsnr" v="732774" />
	</node>
	<node lat="59.79408055523005" lon="8.717158337320335" id="-21325">
		<tag k="name" v="Krubba" />
		<tag k="natural" v="water" />
		<tag k="ssr:stedsnr" v="732775" />
	</node>
	<node lat="59.75291110792306" lon="8.68906944304085" id="-21328">
		<tag k="alt_name" v="Lomtjørn" />
		<tag k="name" v="Lomtjønn" />
		<tag k="natural" v="water" />
		<tag k="ssr:stedsnr" v="732959" />
	</node>
	<node lat="59.77867777741847" lon="8.770380563663327" id="-21331">
		<tag k="alt_name" v="Lisletjørn" />
		<tag k="name" v="Lisletjønn" />
		<tag k="natural" v="water" />
		<tag k="ssr:stedsnr" v="732976" />
	</node>
	<node lat="59.7816305597637" lon="8.64856388851966" id="-21332">
		<tag k="name" v="Kilodden" />
		<tag k="natural" v="cape" />
		<tag k="ssr:stedsnr" v="732982" />
	</node>
	<node lat="59.797061108252024" lon="8.823088886625724" id="-21333">
		<tag k="alt_name" v="Vommetjørn" />
		<tag k="name" v="Vommetjønn" />
		<tag k="natural" v="water" />
		<tag k="ssr:stedsnr" v="732984" />
	</node>
	<node lat="59.6870805576314" lon="8.809272222700923" id="-21344">
		<tag k="name" v="Langetjønn" />
		<tag k="natural" v="water" />
		<tag k="ssr:stedsnr" v="772173" />
	</node>
	<node lat="59.686677781470955" lon="8.7858305641844" id="-21345">
		<tag k="name" v="Åstjønn" />
		<tag k="natural" v="water" />
		<tag k="ssr:stedsnr" v="772174" />
	</node>
	<node lat="59.71793055706187" lon="8.815186104621107" id="-21347">
		<tag k="name" v="Øygardstangen" />
		<tag k="natural" v="cape" />
		<tag k="ssr:stedsnr" v="772349" />
	</node>
	<node lat="59.685313887885165" lon="8.776691667059124" id="-21348">
		<tag k="name" v="Olavstjønnen" />
		<tag k="natural" v="water" />
		<tag k="ssr:stedsnr" v="772432" />
	</node>
	<node lat="59.74718610745886" lon="8.797433339928668" id="-21359">
		<tag k="name" v="Landsverktangen" />
		<tag k="natural" v="cape" />
		<tag k="ssr:stedsnr" v="773729" />
	</node>
	<node lat="59.63693610911369" lon="8.656347216664106" id="-21365">
		<tag k="name" v="Svartetjønn" />
		<tag k="natural" v="water" />
		<tag k="ssr:stedsnr" v="774281" />
	</node>
	<node lat="59.61160277559675" lon="8.994591670202112" id="-21371">
		<tag k="name" v="Åmnesfossen" />
		<tag k="natural" v="waterfall" />
		<tag k="ssr:stedsnr" v="791280" />
	</node>
	<node lat="59.748022225426354" lon="8.535575001677902" id="-21374">
		<tag k="name" v="Urteputtan" />
		<tag k="natural" v="water" />
		<tag k="ssr:stedsnr" v="791529" />
	</node>
	<node lat="59.66435278201206" lon="8.640883326073112" id="-21375">
		<tag k="name" v="Nedstulodden" />
		<tag k="natural" v="cape" />
		<tag k="ssr:stedsnr" v="791664" />
	</node>
	<node lat="59.668027781136026" lon="8.564408326955165" id="-21378">
		<tag k="alt_name" v="Kleivstjørn" />
		<tag k="name" v="Kleivstjønn" />
		<tag k="natural" v="water" />
		<tag k="ssr:stedsnr" v="791700" />
	</node>
	<node lat="59.702550003421905" lon="8.776211106819632" id="-21383">
		<tag k="name" v="Grønlitjørnan" />
		<tag k="natural" v="water" />
		<tag k="ssr:stedsnr" v="792567" />
	</node>
	<node lat="59.58422222335946" lon="8.940327770924263" id="-21390">
		<tag k="name" v="Skreibekken" />
		<tag k="ssr:stedsnr" v="792300" />
		<tag k="waterway" v="stream" />
	</node>
	<node lat="59.75433055575218" lon="8.885725005885067" id="-21391">
		<tag k="alt_name" v="Tjørnstaultjørni" />
		<tag k="name" v="Tjønnstultjønn" />
		<tag k="natural" v="water" />
		<tag k="ssr:stedsnr" v="792269" />
	</node>
	<node lat="59.69156666777771" lon="8.839594441680083" id="-21392">
		<tag k="alt_name" v="Elgstjønn" />
		<tag k="name" v="Elgstjørn" />
		<tag k="natural" v="water" />
		<tag k="ssr:stedsnr" v="792659" />
	</node>
	<node lat="59.63657499886682" lon="8.529752775488774" id="-21399">
		<tag k="alt_name" v="Ståvåtjørn" />
		<tag k="name" v="Ståvåtjønn" />
		<tag k="natural" v="water" />
		<tag k="ssr:stedsnr" v="792747" />
	</node>
	<node lat="59.74063055682964" lon="8.620424994588726" id="-21401">
		<tag k="alt_name" v="Kroktjørn, øvre;Kroktjønn øvre" />
		<tag k="name" v="Øvre Kroktjønn" />
		<tag k="natural" v="water" />
		<tag k="ssr:stedsnr" v="792522" />
	</node>
	<node lat="59.707163889939025" lon="8.47177222934351" id="-21402">
		<tag k="name" v="Åtoåi" />
		<tag k="ssr:stedsnr" v="792621" />
		<tag k="waterway" v="river" />
	</node>
	<node lat="59.76145555244356" lon="8.683791660143678" id="-21406">
		<tag k="alt_name" v="Bukksiltjørn" />
		<tag k="name" v="Buksiltjønn" />
		<tag k="natural" v="water" />
		<tag k="ssr:stedsnr" v="792940" />
	</node>
	<node lat="59.76546666630635" lon="8.671202784010916" id="-21407">
		<tag k="alt_name" v="Skjertjørn" />
		<tag k="name" v="Skjertjønn" />
		<tag k="natural" v="water" />
		<tag k="ssr:stedsnr" v="792944" />
	</node>
	<node lat="59.783997564423345" lon="8.513457422264391" id="-21416">
		<tag k="name" v="Vindsjåen" />
		<tag k="natural" v="water" />
		<tag k="ssr:stedsnr" v="793984" />
		<tag k="water" v="lake" />
	</node>
	<node lat="59.85016389185842" lon="8.76312221497446" id="-21417">
		<tag k="alt_name" v="Djupetjørni" />
		<tag k="name" v="Djupetjønn" />
		<tag k="natural" v="water" />
		<tag k="ssr:stedsnr" v="793861" />
		<tag k="water" v="lake" />
	</node>
	<node lat="59.81263610801451" lon="8.402311104535773" id="-21420">
		<tag k="name" v="Langvasstøtjønn" />
		<tag k="natural" v="water" />
		<tag k="ssr:stedsnr" v="822978" />
	</node>
	<node lat="59.731219444171685" lon="8.843744440334849" id="-21424">
		<tag k="name" v="Tjønnesteinhølen" />
		<tag k="place" v="locality" />
		<tag k="ssr:stedsnr" v="832261" />
	</node>
	<node lat="59.64878610691954" lon="8.655499991528472" id="-21428">
		<tag k="name" v="Jørandtjønn" />
		<tag k="natural" v="water" />
		<tag k="ssr:stedsnr" v="833178" />
	</node>
	<node lat="59.680983333262624" lon="8.765458331726743" id="-21431">
		<tag k="name" v="Erdalstjønn" />
		<tag k="natural" v="water" />
		<tag k="ssr:stedsnr" v="833417" />
	</node>
	<node lat="59.598724995918154" lon="8.699902779776254" id="-21437">
		<tag k="name" v="Trainbekken" />
		<tag k="ssr:stedsnr" v="834167" />
		<tag k="waterway" v="stream" />
	</node>
	<node lat="59.76673610673737" lon="8.553955555486043" id="-21469">
		<tag k="alt_name" v="Urdetjørn, øvre;Urdetjønn øvre" />
		<tag k="name" v="Øvre Urdetjønn" />
		<tag k="natural" v="water" />
		<tag k="ssr:stedsnr" v="853945" />
	</node>
	<node lat="59.66495278019252" lon="8.600424993985992" id="-21474">
		<tag k="alt_name" v="Presttjørn" />
		<tag k="name" v="Presttjønn" />
		<tag k="natural" v="water" />
		<tag k="ssr:stedsnr" v="852644" />
	</node>
=======
>>>>>>> e1d4bc35ff8a6074a6f2e91616a996b547c36f15
</osm>
