<?xml version="1.0" encoding="UTF-8"?>
<<<<<<< HEAD
<osm version="0.6" generator="osmapis">
	<node lat="59.59995555540363" lon="8.91579722024077" id="-19361">
		<tag k="name" v="Gutumyr" />
=======
<osm generator="osmapis" version="0.6">
	<node id="-454651" lat="59.5840166656" lon="8.93919444027">
		<tag k="name" v="Raudbekkmyra" />
		<tag k="natural" v="wetland" />
		<tag k="ssr:stedsnr" v="652764" />
	</node>
	<node id="-453621" lat="59.6196583373" lon="8.95301388426">
		<tag k="name" v="Stebberud" />
		<tag k="place" v="locality" />
		<tag k="ssr:stedsnr" v="895137" />
	</node>
	<node id="-453619" lat="59.7495805593" lon="8.7717972137">
		<tag k="name" v="Sinderkås" />
		<tag k="place" v="locality" />
		<tag k="ssr:stedsnr" v="887610" />
	</node>
	<node id="-454128" lat="59.8206861122" lon="8.59071666371">
		<tag k="alt_name" v="Fløymyren" />
		<tag k="name" v="Fløymyran" />
		<tag k="natural" v="wetland" />
		<tag k="ssr:stedsnr" v="307843" />
	</node>
	<node id="-454630" lat="59.6041861071" lon="8.9043333355">
		<tag k="name" v="Myren" />
		<tag k="natural" v="wetland" />
		<tag k="ssr:stedsnr" v="651025" />
	</node>
	<node id="-453371" lat="59.758969442" lon="8.81248889008">
		<tag k="name" v="Langemyr" />
		<tag k="natural" v="wetland" />
		<tag k="ssr:stedsnr" v="886285" />
	</node>
	<node id="-454623" lat="59.731155558" lon="8.86667778089">
		<tag k="name" v="Langemyr" />
		<tag k="natural" v="wetland" />
		<tag k="ssr:stedsnr" v="650232" />
	</node>
	<node id="-453598" lat="59.6646416635" lon="8.77485000231">
		<tag k="alt_name" v="Storsteinmyren" />
		<tag k="name" v="Storsteinmyran" />
		<tag k="natural" v="wetland" />
		<tag k="ssr:stedsnr" v="853663" />
	</node>
	<node id="-454620" lat="59.6971472181" lon="8.83459999873">
		<tag k="historic" v="shieling" />
		<tag k="name" v="Gammelfjellstul" />
		<tag k="place" v="locality" />
		<tag k="ssr:stedsnr" v="650158" />
	</node>
	<node id="-454618" lat="59.6883111069" lon="8.80839999144">
		<tag k="historic" v="shieling" />
		<tag k="name" v="Tjønnstul" />
		<tag k="place" v="locality" />
		<tag k="ssr:stedsnr" v="650145" />
	</node>
	<node id="-454089" lat="59.6614333354" lon="8.73027500796">
		<tag k="name" v="Damflatin" />
		<tag k="natural" v="wetland" />
		<tag k="ssr:stedsnr" v="306708" />
	</node>
	<node id="-453568" lat="59.7140611074" lon="8.85246944798">
		<tag k="name" v="Nødsvollen" />
		<tag k="place" v="locality" />
		<tag k="ssr:stedsnr" v="833054" />
	</node>
	<node id="-454591" lat="59.6416750024" lon="8.68855277565">
		<tag k="name" v="Langelimyran" />
		<tag k="natural" v="wetland" />
		<tag k="ssr:stedsnr" v="610747" />
	</node>
	<node id="-454053" lat="59.8036361115" lon="8.81328332527">
		<tag k="name" v="Kråkenesmyran" />
		<tag k="natural" v="wetland" />
		<tag k="ssr:stedsnr" v="186776" />
	</node>
	<node id="-453028" lat="59.6436000022" lon="8.83313610959">
		<tag k="name" v="Torvmyra" />
		<tag k="natural" v="wetland" />
		<tag k="ssr:stedsnr" v="488741" />
	</node>
	<node id="-453535" lat="59.579686107" lon="8.81523889454">
		<tag k="name" v="Huldegrø" />
		<tag k="place" v="locality" />
		<tag k="ssr:stedsnr" v="774867" />
	</node>
	<node id="-453532" lat="59.7601472206" lon="8.78574165988">
		<tag k="name" v="Gvålshagen" />
		<tag k="place" v="locality" />
		<tag k="ssr:stedsnr" v="773685" />
	</node>
	<node id="-454014" lat="59.7315733442" lon="8.78584123077">
		<tag k="historic" v="shieling" />
		<tag k="name" v="Solemsstulen" />
		<tag k="place" v="locality" />
		<tag k="ssr:stedsnr" v="185568" />
	</node>
	<node id="-454521" lat="59.6001416693" lon="8.70815277732">
		<tag k="name" v="Gamlebruluten" />
		<tag k="place" v="locality" />
		<tag k="ssr:stedsnr" v="591136" />
	</node>
	<node id="-453087" lat="59.6375138871" lon="8.7799611097">
		<tag k="alt_name" v="Listulmarken" />
		<tag k="name" v="Listulmarka" />
		<tag k="place" v="locality" />
		<tag k="ssr:stedsnr" v="428703" />
	</node>
	<node id="-454178" lat="59.5919388867" lon="8.79841666065">
		<tag k="name" v="Grøun" />
		<tag k="place" v="locality" />
		<tag k="ssr:stedsnr" v="349885" />
	</node>
	<node id="-453990" lat="59.5769444459" lon="8.94350278256">
		<tag k="name" v="Storemyr" />
		<tag k="natural" v="wetland" />
		<tag k="ssr:stedsnr" v="167876" />
	</node>
	<node id="-452962" lat="59.5873083344" lon="8.69178056066">
		<tag k="name" v="Kallemyr" />
		<tag k="natural" v="wetland" />
		<tag k="ssr:stedsnr" v="470748" />
	</node>
	<node id="-454491" lat="59.7373527747" lon="8.82418055481">
		<tag k="landuse" v="meadow" />
		<tag k="name" v="Myrvold" />
		<tag k="ssr:stedsnr" v="551300" />
	</node>
	<node id="-452954" lat="59.601363892" lon="8.70433888007">
		<tag k="name" v="Hegna" />
		<tag k="place" v="locality" />
		<tag k="ssr:stedsnr" v="470318" />
	</node>
	<node id="-453974" lat="59.5979166644" lon="8.96323889508">
		<tag k="name" v="Diplemyr" />
		<tag k="natural" v="wetland" />
		<tag k="ssr:stedsnr" v="166231" />
	</node>
	<node id="-453970" lat="59.7153333358" lon="8.74699165832">
		<tag k="name" v="Flåtåmyren" />
		<tag k="natural" v="wetland" />
		<tag k="ssr:stedsnr" v="165444" />
	</node>
	<node id="-453967" lat="59.7599611127" lon="8.75376666316">
		<tag k="name" v="Vindmyren" />
		<tag k="natural" v="wetland" />
		<tag k="ssr:stedsnr" v="158630" />
	</node>
	<node id="-453963" lat="59.7376388887" lon="8.73076388383">
		<tag k="name" v="Sveigsmyren" />
		<tag k="natural" v="wetland" />
		<tag k="ssr:stedsnr" v="126470" />
	</node>
	<node id="-453449" lat="59.6489638926" lon="8.82725833016">
		<tag k="name" v="Rådalsløken" />
		<tag k="natural" v="wetland" />
		<tag k="ssr:stedsnr" v="731728" />
	</node>
	<node id="-453446" lat="59.6374361118" lon="8.59367500245">
		<tag k="name" v="Flengelimyrin" />
>>>>>>> e1d4bc35ff8a6074a6f2e91616a996b547c36f15
		<tag k="natural" v="wetland" />
		<tag k="ssr:stedsnr" v="44012" />
	</node>
<<<<<<< HEAD
	<node lat="59.73030833581535" lon="8.786294447794507" id="-19363">
		<tag k="historic" v="shieling" />
		<tag k="name" v="Myllarhegna" />
		<tag k="place" v="locality" />
		<tag k="ssr:stedsnr" v="44322" />
	</node>
	<node lat="59.70298610730164" lon="8.748511115445792" id="-19364">
		<tag k="name" v="Bjønnemyr" />
=======
	<node id="-452921" lat="59.5889333349" lon="8.99107500873">
		<tag k="name" v="Vesle Hauganmyra" />
>>>>>>> e1d4bc35ff8a6074a6f2e91616a996b547c36f15
		<tag k="natural" v="wetland" />
		<tag k="ssr:stedsnr" v="44373" />
	</node>
<<<<<<< HEAD
	<node lat="59.637591670111014" lon="8.882349997183512" id="-19378">
		<tag k="name" v="Svangeskarmyr" />
		<tag k="natural" v="wetland" />
		<tag k="ssr:stedsnr" v="45686" />
	</node>
	<node lat="59.60344167087047" lon="8.892066666184084" id="-19395">
		<tag k="name" v="Høymyr" />
		<tag k="natural" v="wetland" />
		<tag k="ssr:stedsnr" v="64364" />
	</node>
	<node lat="59.6152111089678" lon="8.652786104622189" id="-19405">
		<tag k="historic" v="shieling" />
		<tag k="name" v="Dårstul" />
=======
	<node id="-452919" lat="59.5921944452" lon="8.69047777347">
		<tag k="name" v="Kvigarden" />
		<tag k="place" v="locality" />
		<tag k="ssr:stedsnr" v="288661" />
	</node>
	<node id="-452914" lat="59.6366944412" lon="8.54451943827">
		<tag k="name" v="Storegrøe" />
		<tag k="place" v="locality" />
		<tag k="ssr:stedsnr" v="288476" />
	</node>
	<node id="-453424" lat="59.6333916627" lon="8.78972222865">
		<tag k="name" v="Espelimarken" />
>>>>>>> e1d4bc35ff8a6074a6f2e91616a996b547c36f15
		<tag k="place" v="locality" />
		<tag k="ssr:stedsnr" v="64821" />
	</node>
<<<<<<< HEAD
	<node lat="59.62348055419741" lon="8.707441661050195" id="-19406">
		<tag k="name" v="Hesthaugmarka" />
=======
	<node id="-453422" lat="59.5775194419" lon="8.80468332614">
		<tag k="name" v="Homtjønnroe" />
>>>>>>> e1d4bc35ff8a6074a6f2e91616a996b547c36f15
		<tag k="place" v="locality" />
		<tag k="ssr:stedsnr" v="64835" />
	</node>
<<<<<<< HEAD
	<node lat="59.58724999880335" lon="8.739508338316805" id="-19439">
		<tag k="alt_name" v="Lyningsmyren" />
		<tag k="name" v="Lynningsmyri" />
		<tag k="natural" v="wetland" />
		<tag k="ssr:stedsnr" v="246901" />
	</node>
	<node lat="59.71711666441097" lon="8.868822226991545" id="-19449">
		<tag k="historic" v="shieling" />
		<tag k="name" v="Listul" />
=======
	<node id="-452904" lat="59.6466527762" lon="8.88817499774">
		<tag k="name" v="Ralli" />
		<tag k="place" v="locality" />
		<tag k="ssr:stedsnr" v="287558" />
	</node>
	<node id="-453412" lat="59.5989638883" lon="8.71956111349">
		<tag k="name" v="Tuveluten" />
>>>>>>> e1d4bc35ff8a6074a6f2e91616a996b547c36f15
		<tag k="place" v="locality" />
		<tag k="ssr:stedsnr" v="105229" />
	</node>
<<<<<<< HEAD
	<node lat="59.748236109631854" lon="8.861569441558983" id="-19451">
		<tag k="name" v="Vendemyren" />
		<tag k="natural" v="wetland" />
		<tag k="ssr:stedsnr" v="105173" />
	</node>
	<node lat="59.73253332979755" lon="8.809825008903754" id="-19509">
		<tag k="name" v="Storemyr" />
=======
	<node id="-452899" lat="59.750563886" lon="8.77310554842">
		<tag k="name" v="Kåsa" />
		<tag k="place" v="locality" />
		<tag k="ssr:stedsnr" v="462595" />
	</node>
	<node id="-454423" lat="59.7384444457" lon="8.82147499297">
		<tag k="name" v="Fekjamyr" />
>>>>>>> e1d4bc35ff8a6074a6f2e91616a996b547c36f15
		<tag k="natural" v="wetland" />
		<tag k="ssr:stedsnr" v="165369" />
	</node>
<<<<<<< HEAD
	<node lat="59.5769444459176" lon="8.943502782556388" id="-19522">
		<tag k="name" v="Storemyr" />
=======
	<node id="-453396" lat="59.6376000019" lon="8.88220833845">
		<tag k="name" v="Svangeskarmyr" />
>>>>>>> e1d4bc35ff8a6074a6f2e91616a996b547c36f15
		<tag k="natural" v="wetland" />
		<tag k="ssr:stedsnr" v="167876" />
	</node>
<<<<<<< HEAD
	<node lat="59.80363611150096" lon="8.813283325271597" id="-19542">
		<tag k="name" v="Kråkenesmyran" />
=======
	<node id="-452881" lat="59.6162944403" lon="8.83349167104">
		<tag k="name" v="Værøya" />
>>>>>>> e1d4bc35ff8a6074a6f2e91616a996b547c36f15
		<tag k="natural" v="wetland" />
		<tag k="ssr:stedsnr" v="186776" />
	</node>
<<<<<<< HEAD
	<node lat="59.70471666270402" lon="8.896144453099279" id="-19551">
		<tag k="name" v="Storemyr" />
		<tag k="natural" v="wetland" />
		<tag k="ssr:stedsnr" v="226233" />
	</node>
	<node lat="59.62115555599866" lon="8.898233340528185" id="-19556">
		<tag k="name" v="Dillerud" />
=======
	<node id="-452880" lat="59.6029694466" lon="8.63748056338">
		<tag k="name" v="Bråråker" />
>>>>>>> e1d4bc35ff8a6074a6f2e91616a996b547c36f15
		<tag k="place" v="locality" />
		<tag k="ssr:stedsnr" v="227062" />
	</node>
	<node lat="59.798155559589745" lon="8.636808324559519" id="-19584">
		<tag k="name" v="Storemyr" />
		<tag k="natural" v="wetland" />
		<tag k="ssr:stedsnr" v="246718" />
	</node>
	<node lat="59.59856666659622" lon="8.723849996151293" id="-19598">
		<tag k="alt_name" v="Lidjordet" />
		<tag k="name" v="Lijordet" />
		<tag k="place" v="locality" />
		<tag k="ssr:stedsnr" v="246811" />
	</node>
<<<<<<< HEAD
	<node lat="59.71547500303424" lon="8.866152770617502" id="-19607">
=======
	<node id="-453389" lat="59.7103222218" lon="8.84365832567">
>>>>>>> e1d4bc35ff8a6074a6f2e91616a996b547c36f15
		<tag k="historic" v="shieling" />
		<tag k="name" v="Nystul" />
		<tag k="place" v="locality" />
		<tag k="ssr:stedsnr" v="287236" />
	</node>
<<<<<<< HEAD
	<node lat="59.76019722281512" lon="8.862983338391812" id="-19611">
		<tag k="name" v="Gorrmyr" />
		<tag k="natural" v="wetland" />
		<tag k="ssr:stedsnr" v="287185" />
	</node>
	<node lat="59.636694441207446" lon="8.544519438270845" id="-19618">
		<tag k="name" v="Storegrøe" />
=======
	<node id="-452872" lat="59.6002944421" lon="8.68952500125">
		<tag k="name" v="Storstul" />
>>>>>>> e1d4bc35ff8a6074a6f2e91616a996b547c36f15
		<tag k="place" v="locality" />
		<tag k="ssr:stedsnr" v="288476" />
	</node>
<<<<<<< HEAD
	<node lat="59.60296944655534" lon="8.637480563380572" id="-19635">
		<tag k="name" v="Bråråker" />
=======
	<node id="-454395" lat="59.5846527809" lon="8.70988055729">
		<tag k="name" v="Kyrkjeskogen" />
>>>>>>> e1d4bc35ff8a6074a6f2e91616a996b547c36f15
		<tag k="place" v="locality" />
		<tag k="ssr:stedsnr" v="289833" />
	</node>
<<<<<<< HEAD
	<node lat="59.750563885986" lon="8.773105548415664" id="-19637">
		<tag k="name" v="Kåsa" />
=======
	<node id="-453880" lat="59.6025166664" lon="8.71658611047">
		<tag k="name" v="Fagersand" />
>>>>>>> e1d4bc35ff8a6074a6f2e91616a996b547c36f15
		<tag k="place" v="locality" />
		<tag k="ssr:stedsnr" v="462595" />
	</node>
<<<<<<< HEAD
	<node lat="59.66143333539483" lon="8.73027500796073" id="-19648">
		<tag k="name" v="Damflatin" />
=======
	<node id="-453364" lat="59.5520388926" lon="8.82069166142">
		<tag k="name" v="Slåkamyren" />
>>>>>>> e1d4bc35ff8a6074a6f2e91616a996b547c36f15
		<tag k="natural" v="wetland" />
		<tag k="ssr:stedsnr" v="306708" />
	</node>
<<<<<<< HEAD
	<node lat="59.58242777715675" lon="8.978799991921" id="-19672">
		<tag k="name" v="Storemyr" />
		<tag k="natural" v="wetland" />
		<tag k="ssr:stedsnr" v="324612" />
	</node>
	<node lat="59.58730833439257" lon="8.691780560661407" id="-19689">
		<tag k="name" v="Kallemyr" />
=======
	<node id="-453358" lat="59.6030527757" lon="8.71807778396">
		<tag k="name" v="Prestodden" />
		<tag k="place" v="locality" />
		<tag k="ssr:stedsnr" v="652306" />
	</node>
	<node id="-452845" lat="59.7601972228" lon="8.86298333839">
		<tag k="name" v="Gorrmyr" />
>>>>>>> e1d4bc35ff8a6074a6f2e91616a996b547c36f15
		<tag k="natural" v="wetland" />
		<tag k="ssr:stedsnr" v="470748" />
	</node>
<<<<<<< HEAD
	<node lat="59.58831389073733" lon="8.945905550192938" id="-19715">
		<tag k="name" v="Fiskebekkmyra" />
		<tag k="natural" v="wetland" />
		<tag k="ssr:stedsnr" v="349806" />
	</node>
	<node lat="59.72066944351131" lon="8.733777780328575" id="-19727">
		<tag k="alt_name" v="Espeliøyen" />
		<tag k="name" v="Espeliøyan" />
		<tag k="natural" v="wetland" />
		<tag k="ssr:stedsnr" v="367578" />
	</node>
	<node lat="59.64360000218329" lon="8.833136109588523" id="-19794">
		<tag k="name" v="Torvmyra" />
		<tag k="natural" v="wetland" />
		<tag k="ssr:stedsnr" v="488741" />
	</node>
	<node lat="59.63751388708237" lon="8.779961109703546" id="-19832">
		<tag k="alt_name" v="Listulmarken" />
		<tag k="name" v="Listulmarka" />
=======
	<node id="-452841" lat="59.715475003" lon="8.86615277062">
		<tag k="historic" v="shieling" />
		<tag k="name" v="Nystul" />
>>>>>>> e1d4bc35ff8a6074a6f2e91616a996b547c36f15
		<tag k="place" v="locality" />
		<tag k="ssr:stedsnr" v="428703" />
	</node>
<<<<<<< HEAD
	<node lat="59.60136389204208" lon="8.704338880072372" id="-19887">
		<tag k="name" v="Hegna" />
=======
	<node id="-452840" lat="59.6202749996" lon="8.90341111561">
		<tag k="name" v="Tamburøyren" />
>>>>>>> e1d4bc35ff8a6074a6f2e91616a996b547c36f15
		<tag k="place" v="locality" />
		<tag k="ssr:stedsnr" v="470318" />
	</node>
<<<<<<< HEAD
	<node lat="59.738444445744236" lon="8.821474992971696" id="-19968">
		<tag k="name" v="Fekjamyr" />
=======
	<node id="-454372" lat="59.6074166684" lon="8.89756389171">
		<tag k="name" v="Torvmyr" />
>>>>>>> e1d4bc35ff8a6074a6f2e91616a996b547c36f15
		<tag k="natural" v="wetland" />
		<tag k="ssr:stedsnr" v="549548" />
	</node>
<<<<<<< HEAD
	<node lat="59.737352774716264" lon="8.824180554807857" id="-19988">
		<tag k="landuse" v="meadow" />
		<tag k="name" v="Myrvold" />
		<tag k="ssr:stedsnr" v="551300" />
	</node>
	<node lat="59.73115555798337" lon="8.866677780891463" id="-20051">
		<tag k="name" v="Langemyr" />
		<tag k="natural" v="wetland" />
		<tag k="ssr:stedsnr" v="650232" />
	</node>
	<node lat="59.68831110694151" lon="8.808399991436534" id="-20053">
=======
	<node id="-453859" lat="59.5999083313" lon="8.71170833432">
		<tag k="name" v="Småøyen" />
		<tag k="place" v="locality" />
		<tag k="ssr:stedsnr" v="106156" />
	</node>
	<node id="-452821" lat="59.7325333298" lon="8.8098250089">
		<tag k="name" v="Storemyr" />
		<tag k="natural" v="wetland" />
		<tag k="ssr:stedsnr" v="165369" />
	</node>
	<node id="-453842" lat="59.7171166644" lon="8.86882222699">
>>>>>>> e1d4bc35ff8a6074a6f2e91616a996b547c36f15
		<tag k="historic" v="shieling" />
		<tag k="name" v="Tjønnstul" />
		<tag k="place" v="locality" />
		<tag k="ssr:stedsnr" v="650145" />
	</node>
<<<<<<< HEAD
	<node lat="59.697147218132116" lon="8.834599998732987" id="-20055">
=======
	<node id="-453839" lat="59.7030583305" lon="8.88821389195">
>>>>>>> e1d4bc35ff8a6074a6f2e91616a996b547c36f15
		<tag k="historic" v="shieling" />
		<tag k="name" v="Gammelfjellstul" />
		<tag k="place" v="locality" />
		<tag k="ssr:stedsnr" v="650158" />
	</node>
<<<<<<< HEAD
	<node lat="59.60305277569505" lon="8.718077783962567" id="-20067">
		<tag k="name" v="Prestodden" />
		<tag k="place" v="locality" />
		<tag k="ssr:stedsnr" v="652306" />
	</node>
	<node lat="59.72920278143634" lon="8.801750000616847" id="-20094">
		<tag k="alt_name" v="Fuglemyren" />
		<tag k="name" v="Fuglemyra" />
=======
	<node id="-453837" lat="59.7482361096" lon="8.86156944156">
		<tag k="name" v="Vendemyren" />
>>>>>>> e1d4bc35ff8a6074a6f2e91616a996b547c36f15
		<tag k="natural" v="wetland" />
		<tag k="ssr:stedsnr" v="671609" />
	</node>
<<<<<<< HEAD
	<node lat="59.61965833731467" lon="8.953013884255643" id="-20121">
		<tag k="name" v="Stebberud" />
=======
	<node id="-453836" lat="59.72124167" lon="8.87275833009">
		<tag k="name" v="Omdal" />
>>>>>>> e1d4bc35ff8a6074a6f2e91616a996b547c36f15
		<tag k="place" v="locality" />
		<tag k="ssr:stedsnr" v="895137" />
	</node>
<<<<<<< HEAD
	<node lat="59.633391662658646" lon="8.78972222864726" id="-20129">
		<tag k="name" v="Espelimarken" />
		<tag k="place" v="locality" />
		<tag k="ssr:stedsnr" v="895886" />
	</node>
	<node lat="59.63743611178068" lon="8.593675002446673" id="-20174">
		<tag k="name" v="Flengelimyrin" />
=======
	<node id="-454859" lat="59.5862166694" lon="8.69856666097">
		<tag k="name" v="Persmyr" />
		<tag k="natural" v="wetland" />
		<tag k="ssr:stedsnr" v="956765" />
	</node>
	<node id="-453829" lat="59.5856000006" lon="8.98742223063">
		<tag k="name" v="Kjesmyr" />
>>>>>>> e1d4bc35ff8a6074a6f2e91616a996b547c36f15
		<tag k="natural" v="wetland" />
		<tag k="ssr:stedsnr" v="731721" />
	</node>
<<<<<<< HEAD
	<node lat="59.648963892617964" lon="8.827258330157298" id="-20177">
		<tag k="name" v="Rådalsløken" />
=======
	<node id="-452789" lat="59.5872499988" lon="8.73950833832">
		<tag k="alt_name" v="Lyningsmyren" />
		<tag k="name" v="Lynningsmyri" />
>>>>>>> e1d4bc35ff8a6074a6f2e91616a996b547c36f15
		<tag k="natural" v="wetland" />
		<tag k="ssr:stedsnr" v="731728" />
	</node>
<<<<<<< HEAD
	<node lat="59.56884722445385" lon="8.751111102721184" id="-20190">
		<tag k="name" v="Oshaugen" />
=======
	<node id="-452785" lat="59.5985666666" lon="8.72384999615">
		<tag k="alt_name" v="Lidjordet" />
		<tag k="name" v="Lijordet" />
>>>>>>> e1d4bc35ff8a6074a6f2e91616a996b547c36f15
		<tag k="place" v="locality" />
		<tag k="ssr:stedsnr" v="228850" />
	</node>
<<<<<<< HEAD
	<node lat="59.5796861069976" lon="8.815238894542436" id="-20207">
		<tag k="name" v="Huldegrø" />
		<tag k="place" v="locality" />
		<tag k="ssr:stedsnr" v="774867" />
	</node>
	<node lat="59.66464166348687" lon="8.774850002307897" id="-20315">
		<tag k="alt_name" v="Storsteinmyren" />
		<tag k="name" v="Storsteinmyran" />
=======
	<node id="-452774" lat="59.7981555596" lon="8.63680832456">
		<tag k="name" v="Storemyr" />
		<tag k="natural" v="wetland" />
		<tag k="ssr:stedsnr" v="246718" />
	</node>
	<node id="-454309" lat="59.5838083339" lon="8.96701666746">
		<tag k="name" v="Fuglemyr" />
>>>>>>> e1d4bc35ff8a6074a6f2e91616a996b547c36f15
		<tag k="natural" v="wetland" />
		<tag k="ssr:stedsnr" v="853663" />
	</node>
<<<<<<< HEAD
	<node lat="59.74958055928627" lon="8.77179721370039" id="-20329">
		<tag k="name" v="Sinderkås" />
		<tag k="place" v="locality" />
		<tag k="ssr:stedsnr" v="887610" />
	</node>
	<node lat="59.63760000189487" lon="8.882208338446068" id="-20339">
		<tag k="name" v="Svangeskarmyr" />
=======
	<node id="-453787" lat="59.6034416709" lon="8.89206666618">
		<tag k="name" v="Høymyr" />
		<tag k="natural" v="wetland" />
		<tag k="ssr:stedsnr" v="64364" />
	</node>
	<node id="-454295" lat="59.6123944414" lon="8.87519444523">
		<tag k="name" v="Skårnesmyra" />
>>>>>>> e1d4bc35ff8a6074a6f2e91616a996b547c36f15
		<tag k="natural" v="wetland" />
		<tag k="ssr:stedsnr" v="894573" />
	</node>
<<<<<<< HEAD
	<node lat="59.5775194419071" lon="8.804683326138221" id="-20346">
		<tag k="name" v="Homtjønnroe" />
		<tag k="place" v="locality" />
		<tag k="ssr:stedsnr" v="895842" />
	</node>
	<node lat="59.610159873123926" lon="8.886976151890686" id="-20407">
		<tag k="name" v="Åsen" />
		<tag k="place" v="locality" />
		<tag k="ssr:stedsnr" v="983487" />
	</node>
	<node lat="59.724499999609016" lon="8.527525006942605" id="-20438">
		<tag k="alt_name" v="Breimyren" />
		<tag k="name" v="Breidmyran" />
=======
	<node id="-454293" lat="59.6109555588" lon="8.88011667078">
		<tag k="name" v="Åsmyra" />
>>>>>>> e1d4bc35ff8a6074a6f2e91616a996b547c36f15
		<tag k="natural" v="wetland" />
		<tag k="ssr:stedsnr" v="3538" />
	</node>
<<<<<<< HEAD
	<node lat="59.711975002444916" lon="8.711219450295692" id="-20440">
		<tag k="name" v="Storemyr" />
=======
	<node id="-454284" lat="59.6089611142" lon="8.89712777172">
		<tag k="name" v="Grisemyr" />
>>>>>>> e1d4bc35ff8a6074a6f2e91616a996b547c36f15
		<tag k="natural" v="wetland" />
		<tag k="ssr:stedsnr" v="3554" />
	</node>
<<<<<<< HEAD
	<node lat="59.5856000006052" lon="8.98742223062523" id="-20550">
		<tag k="name" v="Kjesmyr" />
=======
	<node id="-454283" lat="59.6008805554" lon="8.93141388421">
		<tag k="name" v="Postmyren" />
>>>>>>> e1d4bc35ff8a6074a6f2e91616a996b547c36f15
		<tag k="natural" v="wetland" />
		<tag k="ssr:stedsnr" v="81665" />
	</node>
<<<<<<< HEAD
	<node lat="59.721241670048535" lon="8.872758330091072" id="-20557">
		<tag k="name" v="Omdal" />
=======
	<node id="-452715" lat="59.5999555554" lon="8.91579722024">
		<tag k="name" v="Gutumyr" />
		<tag k="natural" v="wetland" />
		<tag k="ssr:stedsnr" v="44012" />
	</node>
	<node id="-452735" lat="59.6234805542" lon="8.70744166105">
		<tag k="name" v="Hesthaugmarka" />
>>>>>>> e1d4bc35ff8a6074a6f2e91616a996b547c36f15
		<tag k="place" v="locality" />
		<tag k="ssr:stedsnr" v="105069" />
	</node>
<<<<<<< HEAD
	<node lat="59.70305833050609" lon="8.888213891951466" id="-20558">
=======
	<node id="-452734" lat="59.615211109" lon="8.65278610462">
>>>>>>> e1d4bc35ff8a6074a6f2e91616a996b547c36f15
		<tag k="historic" v="shieling" />
		<tag k="name" v="Hibberg" />
		<tag k="place" v="locality" />
		<tag k="ssr:stedsnr" v="105218" />
	</node>
<<<<<<< HEAD
	<node lat="59.599908331252585" lon="8.711708334316564" id="-20572">
		<tag k="name" v="Småøyen" />
=======
	<node id="-454268" lat="59.6982777739" lon="8.83019166197">
		<tag k="historic" v="shieling" />
		<tag k="name" v="Fjellstul" />
>>>>>>> e1d4bc35ff8a6074a6f2e91616a996b547c36f15
		<tag k="place" v="locality" />
		<tag k="ssr:stedsnr" v="106156" />
	</node>
<<<<<<< HEAD
	<node lat="59.60251666637359" lon="8.716586110474466" id="-20593">
		<tag k="name" v="Fagersand" />
		<tag k="place" v="locality" />
		<tag k="ssr:stedsnr" v="107341" />
	</node>
	<node lat="59.737638888719744" lon="8.730763883828713" id="-20620">
		<tag k="name" v="Sveigsmyren" />
=======
	<node id="-454262" lat="59.5879361075" lon="8.99863334151">
		<tag k="name" v="Store Hauganmyra" />
>>>>>>> e1d4bc35ff8a6074a6f2e91616a996b547c36f15
		<tag k="natural" v="wetland" />
		<tag k="ssr:stedsnr" v="126470" />
	</node>
<<<<<<< HEAD
	<node lat="59.759961112672634" lon="8.753766663163738" id="-20636">
		<tag k="name" v="Vindmyren" />
=======
	<node id="-453749" lat="59.6375916701" lon="8.88234999718">
		<tag k="name" v="Svangeskarmyr" />
>>>>>>> e1d4bc35ff8a6074a6f2e91616a996b547c36f15
		<tag k="natural" v="wetland" />
		<tag k="ssr:stedsnr" v="158630" />
	</node>
<<<<<<< HEAD
	<node lat="59.71533333575655" lon="8.74699165831851" id="-20644">
		<tag k="name" v="Flåtåmyren" />
		<tag k="natural" v="wetland" />
		<tag k="ssr:stedsnr" v="165444" />
	</node>
	<node lat="59.597916664376335" lon="8.963238895079206" id="-20649">
		<tag k="name" v="Diplemyr" />
=======
	<node id="-454763" lat="59.6189638909" lon="8.72363888275">
		<tag k="name" v="Storemyr" />
>>>>>>> e1d4bc35ff8a6074a6f2e91616a996b547c36f15
		<tag k="natural" v="wetland" />
		<tag k="ssr:stedsnr" v="166231" />
	</node>
<<<<<<< HEAD
	<node lat="59.73157334416196" lon="8.78584123076734" id="-20688">
		<tag k="historic" v="shieling" />
		<tag k="name" v="Solemsstulen" />
=======
	<node id="-452712" lat="59.5688472245" lon="8.75111110272">
		<tag k="name" v="Oshaugen" />
>>>>>>> e1d4bc35ff8a6074a6f2e91616a996b547c36f15
		<tag k="place" v="locality" />
		<tag k="ssr:stedsnr" v="185568" />
	</node>
<<<<<<< HEAD
	<node lat="59.60367221983982" lon="8.864388895739626" id="-20741">
		<tag k="name" v="Bløymyra" />
=======
	<node id="-454755" lat="59.6439583338" lon="8.83341388334">
		<tag k="name" v="Ulvestupmyra" />
>>>>>>> e1d4bc35ff8a6074a6f2e91616a996b547c36f15
		<tag k="natural" v="wetland" />
		<tag k="ssr:stedsnr" v="227630" />
	</node>
<<<<<<< HEAD
	<node lat="59.605061113596136" lon="8.651861108352819" id="-20742">
=======
	<node id="-452704" lat="59.6050611136" lon="8.65186110835">
>>>>>>> e1d4bc35ff8a6074a6f2e91616a996b547c36f15
		<tag k="name" v="Klokkarmyra" />
		<tag k="natural" v="wetland" />
		<tag k="ssr:stedsnr" v="227945" />
	</node>
<<<<<<< HEAD
	<node lat="59.62027499955579" lon="8.903411115610108" id="-20756">
		<tag k="name" v="Tamburøyren" />
=======
	<node id="-453726" lat="59.7029861073" lon="8.74851111545">
		<tag k="name" v="Bjønnemyr" />
		<tag k="natural" v="wetland" />
		<tag k="ssr:stedsnr" v="44373" />
	</node>
	<node id="-453725" lat="59.7303083358" lon="8.78629444779">
		<tag k="historic" v="shieling" />
		<tag k="name" v="Myllarhegna" />
>>>>>>> e1d4bc35ff8a6074a6f2e91616a996b547c36f15
		<tag k="place" v="locality" />
		<tag k="ssr:stedsnr" v="287040" />
	</node>
<<<<<<< HEAD
	<node lat="59.64665277623154" lon="8.888174997741922" id="-20761">
		<tag k="name" v="Ralli" />
		<tag k="place" v="locality" />
		<tag k="ssr:stedsnr" v="287558" />
	</node>
	<node lat="59.58893333492662" lon="8.991075008734501" id="-20777">
		<tag k="name" v="Vesle Hauganmyra" />
=======
	<node id="-453211" lat="59.5819388848" lon="8.6960500018">
		<tag k="name" v="Storrdokk" />
		<tag k="natural" v="wetland" />
		<tag k="ssr:stedsnr" v="531767" />
	</node>
	<node id="-453210" lat="59.5919916672" lon="8.98364167414">
		<tag k="name" v="Nokholmyra" />
>>>>>>> e1d4bc35ff8a6074a6f2e91616a996b547c36f15
		<tag k="natural" v="wetland" />
		<tag k="ssr:stedsnr" v="288711" />
	</node>
<<<<<<< HEAD
	<node lat="59.592194445175146" lon="8.690477773473042" id="-20779">
		<tag k="name" v="Kvigarden" />
		<tag k="place" v="locality" />
		<tag k="ssr:stedsnr" v="288661" />
	</node>
	<node lat="59.60029444207594" lon="8.689525001252644" id="-20790">
		<tag k="name" v="Storstul" />
=======
	<node id="-453209" lat="59.5882694457" lon="8.69578888141">
		<tag k="name" v="Stikkholmyra" />
		<tag k="natural" v="wetland" />
		<tag k="ssr:stedsnr" v="531758" />
	</node>
	<node id="-452695" lat="59.621155556" lon="8.89823334053">
		<tag k="name" v="Dillerud" />
>>>>>>> e1d4bc35ff8a6074a6f2e91616a996b547c36f15
		<tag k="place" v="locality" />
		<tag k="ssr:stedsnr" v="289345" />
	</node>
<<<<<<< HEAD
	<node lat="59.61629444032329" lon="8.833491671035128" id="-20792">
		<tag k="name" v="Værøya" />
=======
	<node id="-452678" lat="59.7047166627" lon="8.8961444531">
		<tag k="name" v="Storemyr" />
>>>>>>> e1d4bc35ff8a6074a6f2e91616a996b547c36f15
		<tag k="natural" v="wetland" />
		<tag k="ssr:stedsnr" v="289942" />
	</node>
<<<<<<< HEAD
	<node lat="59.82068611223162" lon="8.590716663714447" id="-20844">
		<tag k="alt_name" v="Fløymyren" />
		<tag k="name" v="Fløymyran" />
=======
	<node id="-454209" lat="59.7206694435" lon="8.73377778033">
		<tag k="alt_name" v="Espeliøyen" />
		<tag k="name" v="Espeliøyan" />
>>>>>>> e1d4bc35ff8a6074a6f2e91616a996b547c36f15
		<tag k="natural" v="wetland" />
		<tag k="ssr:stedsnr" v="307843" />
	</node>
<<<<<<< HEAD
	<node lat="59.68327500200376" lon="8.792022220369907" id="-20854">
		<tag k="historic" v="shieling" />
		<tag k="name" v="Bjønnli" />
		<tag k="place" v="locality" />
		<tag k="ssr:stedsnr" v="347151" />
	</node>
	<node lat="59.70602778111128" lon="8.692480563178309" id="-20861">
		<tag k="name" v="Skvettedamsmyre" />
		<tag k="natural" v="wetland" />
		<tag k="ssr:stedsnr" v="347891" />
	</node>
	<node lat="59.59193888665282" lon="8.798416660646035" id="-20877">
		<tag k="name" v="Grøun" />
		<tag k="place" v="locality" />
		<tag k="ssr:stedsnr" v="349885" />
	</node>
	<node lat="59.58793610754242" lon="8.9986333415128" id="-20930">
		<tag k="name" v="Store Hauganmyra" />
		<tag k="natural" v="wetland" />
		<tag k="ssr:stedsnr" v="384639" />
	</node>
	<node lat="59.69827777391357" lon="8.830191661974876" id="-20932">
		<tag k="historic" v="shieling" />
		<tag k="name" v="Fjellstul" />
=======
	<node id="-453668" lat="59.7119750024" lon="8.7112194503">
		<tag k="name" v="Storemyr" />
		<tag k="natural" v="wetland" />
		<tag k="ssr:stedsnr" v="3554" />
	</node>
	<node id="-453666" lat="59.7244999996" lon="8.52752500694">
		<tag k="alt_name" v="Breimyren" />
		<tag k="name" v="Breidmyran" />
		<tag k="natural" v="wetland" />
		<tag k="ssr:stedsnr" v="3538" />
	</node>
	<node id="-454177" lat="59.5883138907" lon="8.94590555019">
		<tag k="name" v="Fiskebekkmyra" />
		<tag k="natural" v="wetland" />
		<tag k="ssr:stedsnr" v="349806" />
	</node>
	<node id="-453142" lat="59.7292027814" lon="8.80175000062">
		<tag k="alt_name" v="Fuglemyren" />
		<tag k="name" v="Fuglemyra" />
		<tag k="natural" v="wetland" />
		<tag k="ssr:stedsnr" v="671609" />
	</node>
	<node id="-452697" lat="59.6036722198" lon="8.86438889574">
		<tag k="name" v="Bløymyra" />
		<tag k="natural" v="wetland" />
		<tag k="ssr:stedsnr" v="227630" />
	</node>
	<node id="-454161" lat="59.7060277811" lon="8.69248056318">
		<tag k="name" v="Skvettedamsmyre" />
		<tag k="natural" v="wetland" />
		<tag k="ssr:stedsnr" v="347891" />
	</node>
	<node id="-454153" lat="59.683275002" lon="8.79202222037">
		<tag k="historic" v="shieling" />
		<tag k="name" v="Bjønnli" />
		<tag k="place" v="locality" />
		<tag k="ssr:stedsnr" v="347151" />
	</node>
	<node id="-454663" lat="59.6825916704" lon="8.82291944847">
		<tag k="historic" v="shieling" />
		<tag k="name" v="Hodøvla" />
		<tag k="place" v="locality" />
		<tag k="ssr:stedsnr" v="772196" />
	</node>
	<node id="-453638" lat="59.6101598731" lon="8.88697615189">
		<tag k="name" v="Åsen" />
>>>>>>> e1d4bc35ff8a6074a6f2e91616a996b547c36f15
		<tag k="place" v="locality" />
		<tag k="ssr:stedsnr" v="408197" />
	</node>
<<<<<<< HEAD
	<node lat="59.600880555428354" lon="8.931413884206156" id="-20942">
		<tag k="name" v="Postmyren" />
=======
	<node id="-454149" lat="59.5824277772" lon="8.97879999192">
		<tag k="name" v="Storemyr" />
>>>>>>> e1d4bc35ff8a6074a6f2e91616a996b547c36f15
		<tag k="natural" v="wetland" />
		<tag k="ssr:stedsnr" v="409025" />
	</node>
<<<<<<< HEAD
	<node lat="59.60896111424725" lon="8.897127771723506" id="-20943">
		<tag k="name" v="Grisemyr" />
		<tag k="natural" v="wetland" />
		<tag k="ssr:stedsnr" v="409031" />
	</node>
	<node lat="59.61095555880861" lon="8.88011667077531" id="-20946">
		<tag k="name" v="Åsmyra" />
		<tag k="natural" v="wetland" />
		<tag k="ssr:stedsnr" v="409642" />
	</node>
	<node lat="59.612394441444295" lon="8.875194445225988" id="-20948">
		<tag k="name" v="Skårnesmyra" />
		<tag k="natural" v="wetland" />
		<tag k="ssr:stedsnr" v="409657" />
	</node>
	<node lat="59.58380833392705" lon="8.967016667463579" id="-20959">
		<tag k="name" v="Fuglemyr" />
		<tag k="natural" v="wetland" />
		<tag k="ssr:stedsnr" v="410676" />
	</node>
	<node lat="59.60741666839987" lon="8.897563891714205" id="-21023">
		<tag k="name" v="Torvmyr" />
		<tag k="natural" v="wetland" />
		<tag k="ssr:stedsnr" v="530032" />
	</node>
	<node lat="59.58465278089095" lon="8.709880557285832" id="-21041">
		<tag k="name" v="Kyrkjeskogen" />
		<tag k="place" v="locality" />
		<tag k="ssr:stedsnr" v="531742" />
	</node>
	<node lat="59.58826944568289" lon="8.69578888141417" id="-21044">
		<tag k="name" v="Stikkholmyra" />
		<tag k="natural" v="wetland" />
		<tag k="ssr:stedsnr" v="531758" />
	</node>
	<node lat="59.59199166720378" lon="8.983641674143586" id="-21045">
		<tag k="name" v="Nokholmyra" />
		<tag k="natural" v="wetland" />
		<tag k="ssr:stedsnr" v="531763" />
	</node>
	<node lat="59.581938884828546" lon="8.69605000180477" id="-21046">
		<tag k="name" v="Storrdokk" />
		<tag k="natural" v="wetland" />
		<tag k="ssr:stedsnr" v="531767" />
	</node>
	<node lat="59.6001416693178" lon="8.708152777317492" id="-21139">
		<tag k="name" v="Gamlebruluten" />
		<tag k="place" v="locality" />
		<tag k="ssr:stedsnr" v="591136" />
	</node>
	<node lat="59.641675002426" lon="8.688552775649523" id="-21184">
		<tag k="name" v="Langelimyran" />
		<tag k="natural" v="wetland" />
		<tag k="ssr:stedsnr" v="610747" />
	</node>
	<node lat="59.60418610712973" lon="8.904333335498526" id="-21215">
		<tag k="name" v="Myren" />
		<tag k="natural" v="wetland" />
		<tag k="ssr:stedsnr" v="651025" />
	</node>
	<node lat="59.584016665622244" lon="8.93919444026843" id="-21241">
		<tag k="name" v="Raudbekkmyra" />
		<tag k="natural" v="wetland" />
		<tag k="ssr:stedsnr" v="652764" />
	</node>
	<node lat="59.552038892634265" lon="8.82069166142374" id="-21242">
		<tag k="name" v="Slåkamyren" />
		<tag k="natural" v="wetland" />
		<tag k="ssr:stedsnr" v="652869" />
	</node>
	<node lat="59.710322221765665" lon="8.843658325673234" id="-21259">
		<tag k="historic" v="shieling" />
		<tag k="name" v="Kovelie" />
		<tag k="place" v="locality" />
		<tag k="ssr:stedsnr" v="711223" />
	</node>
	<node lat="59.59896388830609" lon="8.719561113493072" id="-21278">
		<tag k="name" v="Tuveluten" />
		<tag k="place" v="locality" />
		<tag k="ssr:stedsnr" v="713153" />
	</node>
	<node lat="59.68259167039315" lon="8.822919448474813" id="-21346">
		<tag k="historic" v="shieling" />
		<tag k="name" v="Hodøvla" />
		<tag k="place" v="locality" />
		<tag k="ssr:stedsnr" v="772196" />
	</node>
	<node lat="59.760147220592316" lon="8.785741659882662" id="-21358">
		<tag k="name" v="Gvålshagen" />
		<tag k="place" v="locality" />
		<tag k="ssr:stedsnr" v="773685" />
	</node>
	<node lat="59.71406110741316" lon="8.852469447982557" id="-21425">
		<tag k="name" v="Nødsvollen" />
		<tag k="place" v="locality" />
		<tag k="ssr:stedsnr" v="833054" />
	</node>
	<node lat="59.64395833383388" lon="8.833413883343178" id="-21436">
		<tag k="name" v="Ulvestupmyra" />
		<tag k="natural" v="wetland" />
		<tag k="ssr:stedsnr" v="833946" />
	</node>
	<node lat="59.618963890912326" lon="8.723638882747617" id="-21447">
		<tag k="name" v="Storemyr" />
		<tag k="natural" v="wetland" />
		<tag k="ssr:stedsnr" v="835028" />
	</node>
=======
>>>>>>> e1d4bc35ff8a6074a6f2e91616a996b547c36f15
</osm>
