<?xml version="1.0" encoding="UTF-8"?>
<osm generator="osmapis" version="0.6">
	<node id="-55296" lat="59.563466663" lon="8.76582777431">
		<tag k="historic" v="shieling" />
		<tag k="name" v="Londalen" />
		<tag k="place" v="locality" />
		<tag k="ssr:stedsnr" v="549932" />
	</node>
	<node id="-55293" lat="59.6035361104" lon="8.62013055944">
		<tag k="name" v="Særsland" />
		<tag k="place" v="farm" />
		<tag k="ssr:stedsnr" v="549859" />
	</node>
	<node id="-55292" lat="59.5851499968" lon="8.68771110438">
		<tag k="historic" v="shieling" />
		<tag k="name" v="Brennøystulen" />
		<tag k="place" v="locality" />
		<tag k="ssr:stedsnr" v="549846" />
	</node>
	<node id="-55291" lat="59.6019916634" lon="8.68408333939">
		<tag k="fixme" v="consider place=hamlet" />
		<tag k="name" v="Løksli" />
		<tag k="place" v="farm" />
		<tag k="ssr:stedsnr" v="549838" />
	</node>
	<node id="-55290" lat="59.5923444464" lon="8.63527500465">
		<tag k="name" v="Ramberg" />
		<tag k="place" v="locality" />
		<tag k="ssr:stedsnr" v="549835" />
	</node>
	<node id="-55289" lat="59.8153249998" lon="8.5619722307">
		<tag k="alt_name" v="Homtjørnstulen" />
		<tag k="name" v="Homtjønnstulen" />
		<tag k="place" v="locality" />
		<tag k="ssr:stedsnr" v="549829" />
	</node>
	<node id="-55287" lat="59.5941250036" lon="8.75482777141">
		<tag k="fixme" v="consider place=hamlet" />
		<tag k="name" v="Uvås" />
		<tag k="place" v="farm" />
		<tag k="ssr:stedsnr" v="549820" />
	</node>
	<node id="-55286" lat="59.6220944416" lon="8.80870834216">
		<tag k="alt_name" v="Lonar;Teigene" />
		<tag k="fixme" v="consider place=hamlet" />
		<tag k="name" v="Teigan" />
		<tag k="place" v="farm" />
		<tag k="ssr:stedsnr" v="549809" />
	</node>
	<node id="-55285" lat="59.6202138852" lon="8.68337777494">
		<tag k="historic" v="shieling" />
		<tag k="name" v="Brenne" />
		<tag k="place" v="locality" />
		<tag k="ssr:stedsnr" v="549790" />
	</node>
	<node id="-55284" lat="59.6198222183" lon="8.69356111058">
		<tag k="alt_name" v="Oppsal" />
		<tag k="fixme" v="consider place=hamlet" />
		<tag k="name" v="Opsal" />
		<tag k="place" v="farm" />
		<tag k="ssr:stedsnr" v="549788" />
	</node>
	<node id="-55283" lat="59.6088861108" lon="8.56740278553">
		<tag k="historic" v="shieling" />
		<tag k="name" v="Haraldstul" />
		<tag k="place" v="locality" />
		<tag k="ssr:stedsnr" v="549781" />
	</node>
	<node id="-55281" lat="59.6100999967" lon="8.59205278405">
		<tag k="historic" v="shieling" />
		<tag k="name" v="Nuten" />
		<tag k="place" v="locality" />
		<tag k="ssr:stedsnr" v="549777" />
	</node>
	<node id="-55276" lat="59.6234499971" lon="8.63422776955">
		<tag k="alt_name" v="Hegesetstulene" />
		<tag k="historic" v="shieling" />
		<tag k="name" v="Hægeset" />
		<tag k="place" v="locality" />
		<tag k="ssr:stedsnr" v="549758" />
	</node>
	<node id="-55275" lat="59.6384749975" lon="8.57846388049">
		<tag k="alt_name" v="Trulsbrulie" />
		<tag k="historic" v="shieling" />
		<tag k="name" v="Trulsbrulii" />
		<tag k="place" v="locality" />
		<tag k="ssr:stedsnr" v="549744" />
	</node>
	<node id="-55273" lat="59.6510611098" lon="8.80319999622">
		<tag k="historic" v="shieling" />
		<tag k="name" v="Rognlia" />
		<tag k="place" v="locality" />
		<tag k="ssr:stedsnr" v="549728" />
	</node>
	<node id="-55269" lat="59.6445083305" lon="8.64473055701">
		<tag k="alt_name" v="Røynebrekke" />
		<tag k="historic" v="shieling" />
		<tag k="name" v="Raunebrekka" />
		<tag k="place" v="locality" />
		<tag k="ssr:stedsnr" v="549680" />
	</node>
	<node id="-55264" lat="59.685299998" lon="8.50515000638">
		<tag k="alt_name" v="Refshol" />
		<tag k="historic" v="shieling" />
		<tag k="name" v="Revshol" />
		<tag k="place" v="locality" />
		<tag k="ssr:stedsnr" v="549632" />
	</node>
	<node id="-55260" lat="59.6833000019" lon="8.6121944356">
		<tag k="historic" v="shieling" />
		<tag k="name" v="Lauvhaug" />
		<tag k="place" v="locality" />
		<tag k="ssr:stedsnr" v="549606" />
	</node>
	<node id="-55259" lat="59.6812277756" lon="8.63290277025">
		<tag k="historic" v="shieling" />
		<tag k="name" v="Saupstul" />
		<tag k="place" v="locality" />
		<tag k="ssr:stedsnr" v="549601" />
	</node>
	<node id="-55258" lat="59.7296027802" lon="8.79258888733">
		<tag k="name" v="Haugen" />
		<tag k="place" v="farm" />
		<tag k="ssr:stedsnr" v="549599" />
	</node>
	<node id="-55256" lat="59.7242138894" lon="8.72729444686">
		<tag k="name" v="Espeli" />
		<tag k="place" v="locality" />
		<tag k="ssr:stedsnr" v="549595" />
	</node>
	<node id="-55255" lat="59.7251500039" lon="8.81809443949">
		<tag k="alt_name" v="Hogstul, s;Hogstul søndre;Søndre Haugestøl" />
		<tag k="fixme" v="consider place=hamlet" />
		<tag k="name" v="Søndre Hogstul" />
		<tag k="place" v="farm" />
		<tag k="ssr:stedsnr" v="549586" />
	</node>
	<node id="-55253" lat="59.7425361156" lon="8.81152500671">
		<tag k="name" v="Rinde" />
		<tag k="place" v="farm" />
		<tag k="ssr:stedsnr" v="549556" />
	</node>
	<node id="-55251" lat="59.7183527762" lon="8.51891667508">
		<tag k="alt_name" v="Systebulie" />
		<tag k="historic" v="shieling" />
		<tag k="name" v="Systebulii" />
		<tag k="place" v="locality" />
		<tag k="ssr:stedsnr" v="549550" />
	</node>
	<node id="-55250" lat="59.7341555576" lon="8.82658889666">
		<tag k="alt_name" v="Tjørnegrendi" />
		<tag k="name" v="Tjønnegrend" />
		<tag k="place" v="hamlet" />
		<tag k="ssr:stedsnr" v="549549" />
	</node>
	<node id="-55247" lat="59.727050004" lon="8.71096665873">
		<tag k="name" v="Glenneroi" />
		<tag k="place" v="locality" />
		<tag k="ssr:stedsnr" v="549540" />
	</node>
	<node id="-53581" lat="59.7186750042" lon="8.49925000588">
		<tag k="alt_name" v="Aurebakk" />
		<tag k="historic" v="shieling" />
		<tag k="name" v="Aurbakk" />
		<tag k="place" v="locality" />
		<tag k="ssr:stedsnr" v="246548" />
	</node>
	<node id="-55242" lat="59.6112277812" lon="8.88704165941">
		<tag k="name" v="Åsen" />
		<tag k="place" v="locality" />
		<tag k="ssr:stedsnr" v="549371" />
	</node>
	<node id="-55241" lat="59.6089282115" lon="8.94770507672">
		<tag k="name" v="Hytta" />
		<tag k="place" v="farm" />
		<tag k="ssr:stedsnr" v="549367" />
	</node>
	<node id="-55238" lat="59.7677750029" lon="8.85003610819">
		<tag k="alt_name" v="Myrstul" />
		<tag k="historic" v="shieling" />
		<tag k="name" v="Myrestul" />
		<tag k="place" v="locality" />
		<tag k="ssr:stedsnr" v="549279" />
	</node>
	<node id="-55234" lat="59.7270194408" lon="8.85407778429">
		<tag k="name" v="Haugen" />
		<tag k="place" v="farm" />
		<tag k="ssr:stedsnr" v="549120" />
	</node>
	<node id="-55232" lat="59.6310527799" lon="8.93022500796">
		<tag k="name" v="Bekkhus" />
		<tag k="place" v="farm" />
		<tag k="ssr:stedsnr" v="548378" />
	</node>
	<node id="-55231" lat="59.600175002" lon="8.65334444666">
		<tag k="name" v="Elvvang" />
		<tag k="place" v="isolated_dwelling" />
		<tag k="ssr:stedsnr" v="532918" />
	</node>
	<node id="-55230" lat="59.7491972257" lon="8.77664721745">
		<tag k="name" v="Kåsa" />
		<tag k="place" v="farm" />
		<tag k="ssr:stedsnr" v="532321" />
	</node>
	<node id="-55227" lat="59.6266722201" lon="8.767011115">
		<tag k="name" v="Vippedalen" />
		<tag k="place" v="locality" />
		<tag k="ssr:stedsnr" v="531948" />
	</node>
	<node id="-55226" lat="59.6015972205" lon="8.99934166505">
		<tag k="name" v="Haugfosse" />
		<tag k="place" v="farm" />
		<tag k="ssr:stedsnr" v="531917" />
	</node>
	<node id="-55219" lat="59.5959555592" lon="8.6251416713">
		<tag k="name" v="Guthus" />
		<tag k="place" v="farm" />
		<tag k="ssr:stedsnr" v="531476" />
	</node>
	<node id="-55214" lat="59.5966416688" lon="8.58479443608">
		<tag k="name" v="Deilkåse" />
		<tag k="place" v="locality" />
		<tag k="ssr:stedsnr" v="531679" />
	</node>
	<node id="-55212" lat="59.6168388909" lon="8.63219721905">
		<tag k="historic" v="shieling" />
		<tag k="name" v="Brekkestul" />
		<tag k="place" v="locality" />
		<tag k="ssr:stedsnr" v="531259" />
	</node>
	<node id="-55211" lat="59.6059333337" lon="8.69974166022">
		<tag k="name" v="Skogly" />
		<tag k="place" v="isolated_dwelling" />
		<tag k="ssr:stedsnr" v="531366" />
	</node>
	<node id="-55210" lat="59.6011027739" lon="8.66884722317">
		<tag k="name" v="Marken nord" />
		<tag k="place" v="farm" />
		<tag k="ssr:stedsnr" v="531362" />
	</node>
	<node id="-55209" lat="59.630724999" lon="8.83706943914">
		<tag k="alt_name" v="Grauvrerud" />
		<tag k="name" v="Gauvrerud" />
		<tag k="place" v="locality" />
		<tag k="ssr:stedsnr" v="531070" />
	</node>
	<node id="-55206" lat="59.8229555543" lon="8.656519449">
		<tag k="name" v="Listul" />
		<tag k="place" v="locality" />
		<tag k="ssr:stedsnr" v="530867" />
	</node>
	<node id="-55205" lat="59.7521249994" lon="8.79708054996">
		<tag k="fixme" v="consider place=suburb, village or hamlet" />
		<tag k="name" v="Bjår" />
		<tag k="place" v="quarter" />
		<tag k="ssr:stedsnr" v="530703" />
	</node>
	<node id="-55204" lat="59.6174277739" lon="8.91054444522">
		<tag k="fixme" v="consider place=hamlet" />
		<tag k="name" v="Staurhaugen" />
		<tag k="place" v="farm" />
		<tag k="ssr:stedsnr" v="530124" />
	</node>
	<node id="-55203" lat="59.7777805558" lon="8.6084277737">
		<tag k="name" v="Nystul" />
		<tag k="place" v="locality" />
		<tag k="ssr:stedsnr" v="530110" />
	</node>
	<node id="-55199" lat="59.6479027766" lon="8.79964999545">
		<tag k="historic" v="shieling" />
		<tag k="name" v="Rognlihaugen" />
		<tag k="place" v="locality" />
		<tag k="ssr:stedsnr" v="529937" />
	</node>
	<node id="-55197" lat="59.6528027766" lon="8.6906666648">
		<tag k="historic" v="shieling" />
		<tag k="name" v="Vesle Vatnar" />
		<tag k="place" v="locality" />
		<tag k="ssr:stedsnr" v="529989" />
	</node>
	<node id="-55194" lat="59.773983331" lon="8.84569722047">
		<tag k="alt_name" v="Haugestul nedre" />
		<tag k="historic" v="shieling" />
		<tag k="name" v="Nedre Haugestul" />
		<tag k="place" v="locality" />
		<tag k="ssr:stedsnr" v="529927" />
	</node>
	<node id="-55192" lat="59.6383166684" lon="8.87803334095">
		<tag k="name" v="Skarstul" />
		<tag k="place" v="locality" />
		<tag k="ssr:stedsnr" v="529519" />
	</node>
	<node id="-55190" lat="59.7004027756" lon="8.84849722382">
		<tag k="historic" v="shieling" />
		<tag k="name" v="Grovarstul" />
		<tag k="place" v="locality" />
		<tag k="ssr:stedsnr" v="529102" />
	</node>
	<node id="-55188" lat="59.7412305529" lon="8.85067500288">
		<tag k="name" v="Venås søndre" />
		<tag k="place" v="farm" />
		<tag k="ssr:stedsnr" v="529220" />
	</node>
	<node id="-55186" lat="59.753386109" lon="8.7750249977">
		<tag k="name" v="Moen" />
		<tag k="place" v="farm" />
		<tag k="ssr:stedsnr" v="522634" />
	</node>
	<node id="-55183" lat="59.7834861082" lon="8.77328332865">
		<tag k="historic" v="shieling" />
		<tag k="name" v="Storehaug" />
		<tag k="place" v="locality" />
		<tag k="ssr:stedsnr" v="429972" />
	</node>
	<node id="-55644" lat="59.8024250018" lon="8.73125555455">
		<tag k="historic" v="shieling" />
		<tag k="name" v="Lii" />
		<tag k="place" v="locality" />
		<tag k="ssr:stedsnr" v="854736" />
	</node>
	<node id="-55179" lat="59.7536750044" lon="8.66405554818">
		<tag k="alt_name" v="Fisinne" />
		<tag k="historic" v="shieling" />
		<tag k="name" v="Fisine" />
		<tag k="place" v="locality" />
		<tag k="ssr:stedsnr" v="428952" />
	</node>
	<node id="-55178" lat="59.6096000002" lon="8.70051110548">
		<tag k="fixme" v="consider place=hamlet" />
		<tag k="name" v="Haugeberg" />
		<tag k="place" v="farm" />
		<tag k="ssr:stedsnr" v="428800" />
	</node>
	<node id="-55174" lat="59.7754749993" lon="8.83578888312">
		<tag k="alt_name" v="Nystul, nedre" />
		<tag k="historic" v="shieling" />
		<tag k="name" v="Nedre Nystul" />
		<tag k="place" v="locality" />
		<tag k="ssr:stedsnr" v="428936" />
	</node>
	<node id="-55173" lat="59.5895111124" lon="8.58291666515">
		<tag k="alt_name" v="Valufsin" />
		<tag k="name" v="Vellufsin" />
		<tag k="place" v="farm" />
		<tag k="ssr:stedsnr" v="428882" />
	</node>
	<node id="-55172" lat="59.5977750029" lon="8.64692499519">
		<tag k="fixme" v="consider place=hamlet" />
		<tag k="name" v="Flatland" />
		<tag k="place" v="farm" />
		<tag k="ssr:stedsnr" v="428853" />
	</node>
	<node id="-55170" lat="59.8169305522" lon="8.54616944798">
		<tag k="historic" v="shieling" />
		<tag k="name" v="Nystul" />
		<tag k="place" v="locality" />
		<tag k="ssr:stedsnr" v="428846" />
	</node>
	<node id="-55162" lat="59.744316668" lon="8.83879166498">
		<tag k="name" v="Rui" />
		<tag k="place" v="farm" />
		<tag k="ssr:stedsnr" v="428542" />
	</node>
	<node id="-55161" lat="59.7269194435" lon="8.67803332643">
		<tag k="alt_name" v="Femjølklie" />
		<tag k="historic" v="shieling" />
		<tag k="name" v="Femjølklii" />
		<tag k="place" v="locality" />
		<tag k="ssr:stedsnr" v="428528" />
	</node>
	<node id="-55159" lat="59.6088277802" lon="8.61084167175">
		<tag k="alt_name" v="Sisjord" />
		<tag k="name" v="Sessjord" />
		<tag k="place" v="farm" />
		<tag k="ssr:stedsnr" v="428770" />
	</node>
	<node id="-55156" lat="59.6803861148" lon="8.79368889333">
		<tag k="alt_name" v="Strandstulen" />
		<tag k="historic" v="shieling" />
		<tag k="name" v="Strandstul" />
		<tag k="place" v="locality" />
		<tag k="ssr:stedsnr" v="428648" />
	</node>
	<node id="-55153" lat="59.5982777809" lon="8.93833055362">
		<tag k="name" v="Snappholt" />
		<tag k="place" v="locality" />
		<tag k="ssr:stedsnr" v="428326" />
	</node>
	<node id="-55151" lat="59.8255611123" lon="8.84695833023">
		<tag k="alt_name" v="Østerli" />
		<tag k="historic" v="shieling" />
		<tag k="name" v="Østerlii" />
		<tag k="place" v="locality" />
		<tag k="ssr:stedsnr" v="428251" />
	</node>
	<node id="-55148" lat="59.6432083352" lon="8.97906667073">
		<tag k="alt_name" v="Tjørnåsdalen, øvre;Tjønnåsdalen øvre" />
		<tag k="name" v="Øvre Tjønnåsdalen" />
		<tag k="place" v="farm" />
		<tag k="ssr:stedsnr" v="428176" />
	</node>
	<node id="-55147" lat="59.724977778" lon="8.89774721594">
		<tag k="historic" v="shieling" />
		<tag k="name" v="Bjørndalen" />
		<tag k="place" v="locality" />
		<tag k="ssr:stedsnr" v="428097" />
	</node>
	<node id="-55146" lat="59.6768666675" lon="8.8688499986">
		<tag k="name" v="Haugen" />
		<tag k="place" v="farm" />
		<tag k="ssr:stedsnr" v="428219" />
	</node>
	<node id="-53564" lat="59.6684805588" lon="8.64484999407">
		<tag k="historic" v="shieling" />
		<tag k="name" v="Bergstul" />
		<tag k="place" v="locality" />
		<tag k="ssr:stedsnr" v="245634" />
	</node>
	<node id="-55139" lat="59.6284527819" lon="8.899949999">
		<tag k="name" v="Hytta" />
		<tag k="place" v="farm" />
		<tag k="ssr:stedsnr" v="427381" />
	</node>
	<node id="-55134" lat="59.6091444471" lon="8.63750833126">
		<tag k="name" v="Nordbø øvre" />
		<tag k="place" v="farm" />
		<tag k="ssr:stedsnr" v="410500" />
	</node>
	<node id="-55133" lat="59.5967916657" lon="8.61891389535">
		<tag k="alt_name" v="Nedre To" />
		<tag k="fixme" v="consider place=hamlet" />
		<tag k="name" v="Nedre Tho" />
		<tag k="place" v="farm" />
		<tag k="ssr:stedsnr" v="410316" />
	</node>
	<node id="-55129" lat="59.6197138894" lon="8.91810832742">
		<tag k="alt_name" v="Mosbø" />
		<tag k="fixme" v="consider place=hamlet" />
		<tag k="name" v="Mosebø" />
		<tag k="place" v="farm" />
		<tag k="ssr:stedsnr" v="410028" />
	</node>
	<node id="-55127" lat="59.5880194423" lon="8.66733889294">
		<tag k="historic" v="shieling" />
		<tag k="name" v="Skrevstul" />
		<tag k="place" v="locality" />
		<tag k="ssr:stedsnr" v="409709" />
	</node>
	<node id="-55124" lat="59.7533416661" lon="8.79501945322">
		<tag k="name" v="Tussilgard" />
		<tag k="place" v="isolated_dwelling" />
		<tag k="ssr:stedsnr" v="409694" />
	</node>
	<node id="-53528" lat="59.7497388909" lon="8.80224999921">
		<tag k="name" v="Landsverk midtre" />
		<tag k="place" v="farm" />
		<tag k="ssr:stedsnr" v="227737" />
	</node>
	<node id="-55122" lat="59.6199055546" lon="8.85285277244">
		<tag k="fixme" v="consider place=hamlet" />
		<tag k="name" v="Skårnes søndre" />
		<tag k="place" v="farm" />
		<tag k="ssr:stedsnr" v="409668" />
	</node>
	<node id="-55120" lat="59.6108083335" lon="8.61111111263">
		<tag k="name" v="Nord Risvoll" />
		<tag k="place" v="farm" />
		<tag k="ssr:stedsnr" v="409656" />
	</node>
	<node id="-55118" lat="59.6111194414" lon="8.78437222382">
		<tag k="name" v="Haugen" />
		<tag k="place" v="farm" />
		<tag k="ssr:stedsnr" v="409633" />
	</node>
	<node id="-55117" lat="59.7885777753" lon="8.76617221467">
		<tag k="historic" v="shieling" />
		<tag k="name" v="Hegnin" />
		<tag k="place" v="locality" />
		<tag k="ssr:stedsnr" v="409428" />
	</node>
	<node id="-55116" lat="59.6150527817" lon="8.77458611906">
		<tag k="name" v="Lyngåsen" />
		<tag k="place" v="locality" />
		<tag k="ssr:stedsnr" v="409967" />
	</node>
	<node id="-55115" lat="59.6120333295" lon="8.98806943967">
		<tag k="name" v="Rohølhaugen" />
		<tag k="place" v="farm" />
		<tag k="ssr:stedsnr" v="409891" />
	</node>
	<node id="-53559" lat="59.622891663" lon="8.69415278455">
		<tag k="name" v="Stutthus" />
		<tag k="place" v="isolated_dwelling" />
		<tag k="ssr:stedsnr" v="64813" />
	</node>
	<node id="-55107" lat="59.754383333" lon="8.71860555631">
		<tag k="historic" v="shieling" />
		<tag k="name" v="Haugero" />
		<tag k="place" v="locality" />
		<tag k="ssr:stedsnr" v="408933" />
	</node>
	<node id="-55106" lat="59.6426666709" lon="8.79719166503">
		<tag k="name" v="Valekasin" />
		<tag k="place" v="locality" />
		<tag k="ssr:stedsnr" v="408929" />
	</node>
	<node id="-53557" lat="59.8111555571" lon="8.61655832837">
		<tag k="name" v="Åmot" />
		<tag k="place" v="isolated_dwelling" />
		<tag k="ssr:stedsnr" v="64806" />
	</node>
	<node id="-55098" lat="59.7433999965" lon="8.70924999827">
		<tag k="historic" v="shieling" />
		<tag k="name" v="Ostetjønn" />
		<tag k="place" v="locality" />
		<tag k="ssr:stedsnr" v="408842" />
	</node>
	<node id="-55089" lat="59.622522219" lon="8.80863888475">
		<tag k="name" v="Lonar" />
		<tag k="place" v="hamlet" />
		<tag k="ssr:stedsnr" v="391285" />
	</node>
	<node id="-55081" lat="59.7995138878" lon="8.4976305644">
		<tag k="alt_name" v="Godviljåroe" />
		<tag k="historic" v="shieling" />
		<tag k="name" v="Godviljåroi" />
		<tag k="place" v="locality" />
		<tag k="ssr:stedsnr" v="368843" />
	</node>
	<node id="-55080" lat="59.8092972229" lon="8.62666944439">
		<tag k="alt_name" v="Bondal, øvre" />
		<tag k="name" v="Øvre Bondal" />
		<tag k="place" v="farm" />
		<tag k="ssr:stedsnr" v="368837" />
	</node>
	<node id="-53553" lat="59.7980749968" lon="8.4047749922">
		<tag k="alt_name" v="Vrangetjørn" />
		<tag k="historic" v="shieling" />
		<tag k="name" v="Vrangetjønn" />
		<tag k="place" v="locality" />
		<tag k="ssr:stedsnr" v="64423" />
	</node>
	<node id="-55076" lat="59.7885027753" lon="8.61997222803">
		<tag k="alt_name" v="Vikstulen" />
		<tag k="fixme" v="consider place=hamlet" />
		<tag k="name" v="Viken" />
		<tag k="place" v="farm" />
		<tag k="ssr:stedsnr" v="368801" />
	</node>
	<node id="-55075" lat="59.7504805567" lon="8.81991943843">
		<tag k="name" v="Hovde" />
		<tag k="place" v="hamlet" />
		<tag k="ssr:stedsnr" v="368655" />
	</node>
	<node id="-55074" lat="59.7755527783" lon="8.64930556202">
		<tag k="historic" v="shieling" />
		<tag k="name" v="Nystul" />
		<tag k="place" v="locality" />
		<tag k="ssr:stedsnr" v="367987" />
	</node>
	<node id="-55071" lat="59.7674527791" lon="8.74036943747">
		<tag k="alt_name" v="Grastjørnåsen" />
		<tag k="name" v="Grastjønnåsen" />
		<tag k="place" v="farm" />
		<tag k="ssr:stedsnr" v="367935" />
	</node>
	<node id="-55069" lat="59.5856250009" lon="8.60340277693">
		<tag k="name" v="Dålån" />
		<tag k="place" v="isolated_dwelling" />
		<tag k="ssr:stedsnr" v="367911" />
	</node>
	<node id="-55067" lat="59.5735000001" lon="8.7446388906">
		<tag k="name" v="Nystul" />
		<tag k="place" v="locality" />
		<tag k="ssr:stedsnr" v="367904" />
	</node>
	<node id="-55066" lat="59.5997888866" lon="8.70318333008">
		<tag k="name" v="Train" />
		<tag k="place" v="farm" />
		<tag k="ssr:stedsnr" v="367839" />
	</node>
	<node id="-53551" lat="59.5973250016" lon="8.96869999396">
		<tag k="alt_name" v="Grindalen" />
		<tag k="name" v="Grimdalen" />
		<tag k="place" v="locality" />
		<tag k="ssr:stedsnr" v="64329" />
	</node>
	<node id="-55064" lat="59.6023333378" lon="8.77170555102">
		<tag k="alt_name" v="Lia" />
		<tag k="name" v="Lii" />
		<tag k="place" v="farm" />
		<tag k="ssr:stedsnr" v="367822" />
	</node>
	<node id="-55061" lat="59.5996194443" lon="8.75461111647">
		<tag k="name" v="Haugen" />
		<tag k="place" v="isolated_dwelling" />
		<tag k="ssr:stedsnr" v="367804" />
	</node>
	<node id="-55059" lat="59.6114305566" lon="8.79397500348">
		<tag k="name" v="Høgkasin" />
		<tag k="place" v="farm" />
		<tag k="ssr:stedsnr" v="367794" />
	</node>
	<node id="-55058" lat="59.610152774" lon="8.6386083301">
		<tag k="fixme" v="consider place=hamlet" />
		<tag k="name" v="Bekkhus" />
		<tag k="place" v="farm" />
		<tag k="ssr:stedsnr" v="367790" />
	</node>
	<node id="-55055" lat="59.6109305546" lon="8.61274444976">
		<tag k="fixme" v="consider place=hamlet" />
		<tag k="name" v="Risvoll" />
		<tag k="place" v="farm" />
		<tag k="ssr:stedsnr" v="367766" />
	</node>
	<node id="-55053" lat="59.6263500018" lon="8.53120555344">
		<tag k="historic" v="shieling" />
		<tag k="name" v="Listul" />
		<tag k="place" v="locality" />
		<tag k="ssr:stedsnr" v="367738" />
	</node>
	<node id="-55050" lat="59.6453249999" lon="8.76536111405">
		<tag k="name" v="Mjoltelia" />
		<tag k="place" v="locality" />
		<tag k="ssr:stedsnr" v="367728" />
	</node>
	<node id="-55048" lat="59.6324250002" lon="8.636613882">
		<tag k="alt_name" v="Nystulene" />
		<tag k="historic" v="shieling" />
		<tag k="name" v="Nystul" />
		<tag k="place" v="locality" />
		<tag k="ssr:stedsnr" v="367718" />
	</node>
	<node id="-53548" lat="59.5828027804" lon="8.93527777236">
		<tag k="alt_name" v="Raudbekk" />
		<tag k="historic" v="shieling" />
		<tag k="name" v="Raudstul" />
		<tag k="place" v="locality" />
		<tag k="ssr:stedsnr" v="64313" />
	</node>
	<node id="-55045" lat="59.6489472238" lon="8.69776944271">
		<tag k="alt_name" v="Hallinghaugen" />
		<tag k="historic" v="shieling" />
		<tag k="name" v="Handlinghaugen" />
		<tag k="place" v="locality" />
		<tag k="ssr:stedsnr" v="367684" />
	</node>
	<node id="-55044" lat="59.6603194486" lon="8.57444445267">
		<tag k="alt_name" v="Jakobstul" />
		<tag k="historic" v="shieling" />
		<tag k="name" v="Jakobsstul" />
		<tag k="place" v="locality" />
		<tag k="ssr:stedsnr" v="367676" />
	</node>
	<node id="-55041" lat="59.673391667" lon="8.61710277627">
		<tag k="historic" v="shieling" />
		<tag k="name" v="Vikedal" />
		<tag k="place" v="locality" />
		<tag k="ssr:stedsnr" v="367654" />
	</node>
	<node id="-55040" lat="59.6787999979" lon="8.6901055475">
		<tag k="historic" v="shieling" />
		<tag k="name" v="Beggestul" />
		<tag k="place" v="locality" />
		<tag k="ssr:stedsnr" v="367638" />
	</node>
	<node id="-55037" lat="59.6797500025" lon="8.61596110369">
		<tag k="alt_name" v="Brennøyroe" />
		<tag k="historic" v="shieling" />
		<tag k="name" v="Brennøyroi" />
		<tag k="place" v="locality" />
		<tag k="ssr:stedsnr" v="367595" />
	</node>
	<node id="-53546" lat="59.6115916632" lon="8.61524166465">
		<tag k="name" v="Århus nordre" />
		<tag k="place" v="farm" />
		<tag k="ssr:stedsnr" v="46505" />
	</node>
	<node id="-55033" lat="59.7477361129" lon="8.82445277211">
		<tag k="name" v="Hovde" />
		<tag k="place" v="farm" />
		<tag k="ssr:stedsnr" v="367542" />
	</node>
	<node id="-55032" lat="59.7475277747" lon="8.8365166733">
		<tag k="name" v="Grotem" />
		<tag k="place" v="farm" />
		<tag k="ssr:stedsnr" v="367539" />
	</node>
	<node id="-55031" lat="59.7467000001" lon="8.80838888488">
		<tag k="alt_name" v="Hagaviken" />
		<tag k="name" v="Hagavik" />
		<tag k="place" v="farm" />
		<tag k="ssr:stedsnr" v="367535" />
	</node>
	<node id="-55027" lat="59.719686107" lon="8.6412666663">
		<tag k="name" v="Ormbu" />
		<tag k="place" v="locality" />
		<tag k="ssr:stedsnr" v="367521" />
	</node>
	<node id="-55024" lat="59.7334166679" lon="8.67402222667">
		<tag k="alt_name" v="Damlie" />
		<tag k="name" v="Damlii" />
		<tag k="place" v="isolated_dwelling" />
		<tag k="ssr:stedsnr" v="367475" />
	</node>
	<node id="-55017" lat="59.7822777787" lon="8.84542777768">
		<tag k="historic" v="shieling" />
		<tag k="name" v="Flåtåburoi" />
		<tag k="place" v="locality" />
		<tag k="ssr:stedsnr" v="367223" />
	</node>
	<node id="-55016" lat="59.6026166648" lon="9.0116749967">
		<tag k="name" v="Ørvella" />
		<tag k="place" v="farm" />
		<tag k="ssr:stedsnr" v="367104" />
	</node>
	<node id="-55013" lat="59.7441861083" lon="8.84775556065">
		<tag k="fixme" v="consider place=hamlet" />
		<tag k="name" v="Flugun" />
		<tag k="place" v="farm" />
		<tag k="ssr:stedsnr" v="367008" />
	</node>
	<node id="-53542" lat="59.6821833293" lon="8.91281111286">
		<tag k="name" v="Gvervestul" />
		<tag k="place" v="locality" />
		<tag k="ssr:stedsnr" v="44804" />
	</node>
	<node id="-55009" lat="59.6059972244" lon="8.63580278532">
		<tag k="name" v="Haraldstad" />
		<tag k="place" v="isolated_dwelling" />
		<tag k="ssr:stedsnr" v="350895" />
	</node>
	<node id="-55007" lat="59.6011555578" lon="8.76243889468">
		<tag k="name" v="Rinde" />
		<tag k="place" v="locality" />
		<tag k="ssr:stedsnr" v="349975" />
	</node>
	<node id="-55000" lat="59.6035361106" lon="8.70428610717">
		<tag k="name" v="Funner nedre" />
		<tag k="place" v="farm" />
		<tag k="ssr:stedsnr" v="349373" />
	</node>
	<node id="-54999" lat="59.6024499968" lon="8.622033329">
		<tag k="name" v="Groven" />
		<tag k="place" v="farm" />
		<tag k="ssr:stedsnr" v="349514" />
	</node>
	<node id="-54998" lat="59.6139694458" lon="8.70224166026">
		<tag k="name" v="Tarjesroe" />
		<tag k="place" v="locality" />
		<tag k="ssr:stedsnr" v="349415" />
	</node>
	<node id="-54996" lat="59.6361388912" lon="8.82852500741">
		<tag k="fixme" v="consider place=hamlet" />
		<tag k="name" v="Skårdal søndre" />
		<tag k="place" v="farm" />
		<tag k="ssr:stedsnr" v="349090" />
	</node>
	<node id="-54993" lat="59.6205777783" lon="8.79993610395">
		<tag k="alt_name" v="Nordre Loner" />
		<tag k="fixme" v="consider place=hamlet" />
		<tag k="name" v="Lonar nordre" />
		<tag k="place" v="farm" />
		<tag k="ssr:stedsnr" v="348882" />
	</node>
	<node id="-54992" lat="59.5947194447" lon="9.00923889563">
		<tag k="name" v="Mørkholt" />
		<tag k="place" v="farm" />
		<tag k="ssr:stedsnr" v="348879" />
	</node>
	<node id="-54991" lat="59.8246777751" lon="8.56231667347">
		<tag k="historic" v="shieling" />
		<tag k="name" v="Haugestul" />
		<tag k="place" v="locality" />
		<tag k="ssr:stedsnr" v="348690" />
	</node>
	<node id="-54990" lat="59.67575556" lon="8.86840833647">
		<tag k="name" v="Nedmoen" />
		<tag k="place" v="locality" />
		<tag k="ssr:stedsnr" v="347996" />
	</node>
	<node id="-54989" lat="59.661900004" lon="8.88220834046">
		<tag k="name" v="Sisseltømmer" />
		<tag k="place" v="locality" />
		<tag k="ssr:stedsnr" v="347989" />
	</node>
	<node id="-54985" lat="59.7158166632" lon="8.69825555159">
		<tag k="historic" v="shieling" />
		<tag k="name" v="Mydalen" />
		<tag k="place" v="locality" />
		<tag k="ssr:stedsnr" v="347884" />
	</node>
	<node id="-53537" lat="59.600644445" lon="8.65660555479">
		<tag k="name" v="Haugen" />
		<tag k="place" v="isolated_dwelling" />
		<tag k="ssr:stedsnr" v="228817" />
	</node>
	<node id="-54978" lat="59.7480861128" lon="8.84073888327">
		<tag k="name" v="Grotheim nordre" />
		<tag k="place" v="farm" />
		<tag k="ssr:stedsnr" v="347142" />
	</node>
	<node id="-54977" lat="59.6098638923" lon="8.74055554732">
		<tag k="alt_name" v="To" />
		<tag k="name" v="Østre To" />
		<tag k="old_name" v="To østre med Haugen" />
		<tag k="place" v="farm" />
		<tag k="ssr:stedsnr" v="344198" />
	</node>
	<node id="-54976" lat="59.748680552" lon="8.82650000547">
		<tag k="name" v="Hovde sudistugo" />
		<tag k="place" v="farm" />
		<tag k="ssr:stedsnr" v="340312" />
	</node>
	<node id="-54973" lat="59.7592694419" lon="8.52418888912">
		<tag k="alt_name" v="Grunntjørn" />
		<tag k="historic" v="shieling" />
		<tag k="name" v="Grunntjønn" />
		<tag k="place" v="locality" />
		<tag k="ssr:stedsnr" v="308585" />
	</node>
	<node id="-54972" lat="59.7301305529" lon="8.77985832943">
		<tag k="historic" v="shieling" />
		<tag k="name" v="Solemstulen" />
		<tag k="place" v="locality" />
		<tag k="ssr:stedsnr" v="308395" />
	</node>
	<node id="-54969" lat="59.5446083304" lon="8.78936110637">
		<tag k="alt_name" v="Slåkja, heimre;Slåkja nordre" />
		<tag k="historic" v="shieling" />
		<tag k="loc_name" v="Slåkja" />
		<tag k="name" v="Heimre Slåkja" />
		<tag k="place" v="locality" />
		<tag k="ssr:stedsnr" v="307980" />
	</node>
	<node id="-54968" lat="59.5513638903" lon="8.80748055141">
		<tag k="alt_name" v="Slåkja, østre;Slåkja søndre" />
		<tag k="historic" v="shieling" />
		<tag k="name" v="Østre Slåkja" />
		<tag k="place" v="locality" />
		<tag k="ssr:stedsnr" v="307978" />
	</node>
	<node id="-54966" lat="59.7839611105" lon="8.80655277978">
		<tag k="historic" v="shieling" />
		<tag k="name" v="Russtulen" />
		<tag k="place" v="locality" />
		<tag k="ssr:stedsnr" v="307972" />
	</node>
	<node id="-54965" lat="59.7587638876" lon="8.57369444494">
		<tag k="alt_name" v="Bjørntjørn" />
		<tag k="historic" v="shieling" />
		<tag k="name" v="Bjønntjønn" />
		<tag k="place" v="locality" />
		<tag k="ssr:stedsnr" v="307965" />
	</node>
	<node id="-54964" lat="59.7573694473" lon="8.59898333466">
		<tag k="alt_name" v="Gunnarburoe" />
		<tag k="name" v="Gunnarroi" />
		<tag k="place" v="isolated_dwelling" />
		<tag k="ssr:stedsnr" v="307962" />
	</node>
	<node id="-54963" lat="59.753497222" lon="8.78093611777">
		<tag k="fixme" v="consider place=hamlet" />
		<tag k="name" v="Tveiten" />
		<tag k="place" v="farm" />
		<tag k="ssr:stedsnr" v="307954" />
	</node>
	<node id="-54961" lat="59.7651027764" lon="8.80073611549">
		<tag k="alt_name" v="Åsdelet" />
		<tag k="fixme" v="consider place=hamlet" />
		<tag k="name" v="Åsdelen" />
		<tag k="place" v="farm" />
		<tag k="ssr:stedsnr" v="307935" />
	</node>
	<node id="-54960" lat="59.8360249963" lon="8.52479167031">
		<tag k="historic" v="shieling" />
		<tag k="name" v="Haugestul" />
		<tag k="place" v="locality" />
		<tag k="ssr:stedsnr" v="307874" />
	</node>
	<node id="-54959" lat="59.8324749987" lon="8.50817499524">
		<tag k="historic" v="shieling" />
		<tag k="name" v="Sylvset" />
		<tag k="place" v="locality" />
		<tag k="ssr:stedsnr" v="307873" />
	</node>
	<node id="-54957" lat="59.6080166664" lon="8.67205277402">
		<tag k="name" v="Øverbøhaugen" />
		<tag k="place" v="farm" />
		<tag k="ssr:stedsnr" v="307864" />
	</node>
	<node id="-54956" lat="59.59821944" lon="8.64258054874">
		<tag k="name" v="Haugenmoen" />
		<tag k="place" v="farm" />
		<tag k="ssr:stedsnr" v="307852" />
	</node>
	<node id="-54955" lat="59.6049138913" lon="8.63770832858">
		<tag k="name" v="Holm" />
		<tag k="place" v="farm" />
		<tag k="ssr:stedsnr" v="307849" />
	</node>
	<node id="-54951" lat="59.6018647406" lon="8.70580565454">
		<tag k="fixme" v="consider place=hamlet" />
		<tag k="name" v="Skeie" />
		<tag k="place" v="farm" />
		<tag k="ssr:stedsnr" v="307837" />
	</node>
	<node id="-54948" lat="59.5977555564" lon="8.76162499915">
		<tag k="name" v="Bergstul" />
		<tag k="place" v="isolated_dwelling" />
		<tag k="ssr:stedsnr" v="307829" />
	</node>
	<node id="-54943" lat="59.8114083323" lon="8.62616388238">
		<tag k="name" v="Brekke" />
		<tag k="place" v="farm" />
		<tag k="ssr:stedsnr" v="307801" />
	</node>
	<node id="-54942" lat="59.8102194411" lon="8.59203888431">
		<tag k="alt_name" v="Skinandstul" />
		<tag k="historic" v="shieling" />
		<tag k="name" v="Skinanstulen" />
		<tag k="place" v="locality" />
		<tag k="ssr:stedsnr" v="307800" />
	</node>
	<node id="-54941" lat="59.8156000019" lon="8.84183332775">
		<tag k="alt_name" v="Sjåen øvre" />
		<tag k="historic" v="shieling" />
		<tag k="name" v="Sjåstulen" />
		<tag k="place" v="locality" />
		<tag k="ssr:stedsnr" v="307794" />
	</node>
	<node id="-54940" lat="59.8173805592" lon="8.72954999459">
		<tag k="name" v="Fanteturka" />
		<tag k="place" v="isolated_dwelling" />
		<tag k="ssr:stedsnr" v="307788" />
	</node>
	<node id="-54938" lat="59.7951194422" lon="8.71680833847">
		<tag k="historic" v="shieling" />
		<tag k="name" v="Krubba" />
		<tag k="place" v="locality" />
		<tag k="ssr:stedsnr" v="307773" />
	</node>
	<node id="-54936" lat="59.7919777755" lon="8.61096943908">
		<tag k="alt_name" v="Breihøvd" />
		<tag k="historic" v="shieling" />
		<tag k="name" v="Breidhovd" />
		<tag k="place" v="locality" />
		<tag k="ssr:stedsnr" v="307766" />
	</node>
	<node id="-54935" lat="59.6260166687" lon="8.68229999568">
		<tag k="alt_name" v="Fellessetra" />
		<tag k="historic" v="shieling" />
		<tag k="name" v="Samsæter" />
		<tag k="place" v="locality" />
		<tag k="ssr:stedsnr" v="307740" />
	</node>
	<node id="-54934" lat="59.6405666653" lon="8.66007500013">
		<tag k="alt_name" v="Volabakk" />
		<tag k="historic" v="shieling" />
		<tag k="name" v="Volebakk" />
		<tag k="place" v="locality" />
		<tag k="ssr:stedsnr" v="307739" />
	</node>
	<node id="-54932" lat="59.6934861127" lon="8.71772222222">
		<tag k="alt_name" v="Sveinungshovden, nedre;Sveinungshøvden nedre" />
		<tag k="historic" v="shieling" />
		<tag k="name" v="Nedre Sveinungshovden" />
		<tag k="place" v="locality" />
		<tag k="ssr:stedsnr" v="307650" />
	</node>
	<node id="-54927" lat="59.5892027757" lon="8.63506110535">
		<tag k="alt_name" v="Libekkskare" />
		<tag k="historic" v="shieling" />
		<tag k="name" v="Libekkskardet" />
		<tag k="place" v="locality" />
		<tag k="ssr:stedsnr" v="306918" />
	</node>
	<node id="-54926" lat="59.5879305566" lon="8.7081944448">
		<tag k="alt_name" v="Skarstul" />
		<tag k="historic" v="shieling" />
		<tag k="name" v="Skardstul" />
		<tag k="place" v="locality" />
		<tag k="ssr:stedsnr" v="306914" />
	</node>
	<node id="-54925" lat="59.6071666675" lon="8.61783888721">
		<tag k="name" v="Høymyr" />
		<tag k="place" v="farm" />
		<tag k="ssr:stedsnr" v="306841" />
	</node>
	<node id="-54923" lat="59.6215388922" lon="8.80385555883">
		<tag k="alt_name" v="Lonar" />
		<tag k="name" v="Deilda" />
		<tag k="place" v="farm" />
		<tag k="ssr:stedsnr" v="306805" />
	</node>
	<node id="-54922" lat="59.6112055511" lon="8.78265000125">
		<tag k="alt_name" v="Tjørndalen" />
		<tag k="name" v="Tjønndalen" />
		<tag k="place" v="farm" />
		<tag k="ssr:stedsnr" v="306796" />
	</node>
	<node id="-54920" lat="59.6130888914" lon="8.69471944356">
		<tag k="fixme" v="consider place=hamlet" />
		<tag k="name" v="Åkre" />
		<tag k="place" v="farm" />
		<tag k="ssr:stedsnr" v="306783" />
	</node>
	<node id="-54919" lat="59.6206111102" lon="8.53809166516">
		<tag k="historic" v="shieling" />
		<tag k="name" v="Myrstul" />
		<tag k="place" v="locality" />
		<tag k="ssr:stedsnr" v="306748" />
	</node>
	<node id="-54918" lat="59.6570944441" lon="8.83239444186">
		<tag k="name" v="Rådalen" />
		<tag k="place" v="locality" />
		<tag k="ssr:stedsnr" v="306724" />
	</node>
	<node id="-53612" lat="59.6068527817" lon="8.73001943892">
		<tag k="name" v="Sopanstad" />
		<tag k="place" v="farm" />
		<tag k="ssr:stedsnr" v="246812" />
	</node>
	<node id="-54912" lat="59.6546000007" lon="8.55876111471">
		<tag k="alt_name" v="Langeli" />
		<tag k="historic" v="shieling" />
		<tag k="name" v="Langli" />
		<tag k="place" v="locality" />
		<tag k="ssr:stedsnr" v="306657" />
	</node>
	<node id="-54910" lat="59.689675004" lon="8.51307777712">
		<tag k="alt_name" v="Bleikero" />
		<tag k="historic" v="shieling" />
		<tag k="name" v="Bleikro" />
		<tag k="place" v="locality" />
		<tag k="ssr:stedsnr" v="306607" />
	</node>
	<node id="-54909" lat="59.7115973049" lon="8.4888836649">
		<tag k="name" v="Nordstulen" />
		<tag k="place" v="locality" />
		<tag k="ssr:stedsnr" v="306595" />
	</node>
	<node id="-54905" lat="59.7411861097" lon="8.72779999761">
		<tag k="historic" v="shieling" />
		<tag k="name" v="Dardalen" />
		<tag k="place" v="locality" />
		<tag k="ssr:stedsnr" v="306500" />
	</node>
	<node id="-54904" lat="59.6111444414" lon="8.95167500378">
		<tag k="name" v="Åmot" />
		<tag k="place" v="isolated_dwelling" />
		<tag k="ssr:stedsnr" v="306359" />
	</node>
	<node id="-54903" lat="59.6190249987" lon="8.93172221972">
		<tag k="fixme" v="consider place=hamlet" />
		<tag k="name" v="Sauland" />
		<tag k="place" v="village" />
		<tag k="ssr:stedsnr" v="306358" />
	</node>
	<node id="-54902" lat="59.609680554" lon="8.98892499796">
		<tag k="name" v="Skogen" />
		<tag k="place" v="farm" />
		<tag k="ssr:stedsnr" v="306357" />
	</node>
	<node id="-54901" lat="59.6093027738" lon="8.99262499971">
		<tag k="name" v="Moen" />
		<tag k="place" v="farm" />
		<tag k="ssr:stedsnr" v="306355" />
	</node>
	<node id="-54900" lat="59.599486113" lon="8.99467777861">
		<tag k="name" v="Dalen" />
		<tag k="place" v="locality" />
		<tag k="ssr:stedsnr" v="306350" />
	</node>
	<node id="-54899" lat="59.6161944406" lon="8.96071944728">
		<tag k="fixme" v="consider place=hamlet" />
		<tag k="name" v="Skoge" />
		<tag k="place" v="farm" />
		<tag k="ssr:stedsnr" v="306269" />
	</node>
	<node id="-54898" lat="59.624141668" lon="8.95876110466">
		<tag k="name" v="Timdal" />
		<tag k="place" v="isolated_dwelling" />
		<tag k="ssr:stedsnr" v="306268" />
	</node>
	<node id="-54896" lat="59.659508335" lon="8.93131667037">
		<tag k="name" v="Limdal" />
		<tag k="place" v="locality" />
		<tag k="ssr:stedsnr" v="306200" />
	</node>
	<node id="-54895" lat="59.6907583303" lon="8.88103888873">
		<tag k="name" v="Moen" />
		<tag k="place" v="farm" />
		<tag k="ssr:stedsnr" v="306153" />
	</node>
	<node id="-54892" lat="59.6230000037" lon="8.91646665884">
		<tag k="name" v="Haugen" />
		<tag k="place" v="farm" />
		<tag k="ssr:stedsnr" v="306341" />
	</node>
	<node id="-54889" lat="59.7797999987" lon="8.59492499445">
		<tag k="alt_name" v="Gammen" />
		<tag k="historic" v="shieling" />
		<tag k="name" v="Gvammen" />
		<tag k="place" v="locality" />
		<tag k="ssr:stedsnr" v="186974" />
	</node>
	<node id="-54888" lat="59.7523916656" lon="8.67294999228">
		<tag k="alt_name" v="Lomtjønn" />
		<tag k="historic" v="shieling" />
		<tag k="name" v="Lomtjørnstulen" />
		<tag k="place" v="locality" />
		<tag k="ssr:stedsnr" v="186959" />
	</node>
	<node id="-54887" lat="59.7568992406" lon="8.79492091569">
		<tag k="alt_name" v="Gvåle søndre;Søndre Hvåle" />
		<tag k="fixme" v="consider place=hamlet" />
		<tag k="name" v="Gvåle" />
		<tag k="place" v="farm" />
		<tag k="ssr:stedsnr" v="186955" />
	</node>
	<node id="-54881" lat="59.7954361143" lon="8.74777500079">
		<tag k="historic" v="shieling" />
		<tag k="name" v="Haugestul" />
		<tag k="place" v="locality" />
		<tag k="ssr:stedsnr" v="186792" />
	</node>
	<node id="-54880" lat="59.7943499957" lon="8.72210832559">
		<tag k="historic" v="shieling" />
		<tag k="name" v="Myrstul" />
		<tag k="place" v="locality" />
		<tag k="ssr:stedsnr" v="186789" />
	</node>
	<node id="-53520" lat="59.595761108" lon="8.92554166144">
		<tag k="name" v="Nordnystul" />
		<tag k="place" v="locality" />
		<tag k="ssr:stedsnr" v="227028" />
	</node>
	<node id="-54877" lat="59.7498611071" lon="8.75910000349">
		<tag k="fixme" v="consider place=hamlet" />
		<tag k="name" v="Åsen" />
		<tag k="place" v="farm" />
		<tag k="ssr:stedsnr" v="186666" />
	</node>
	<node id="-54876" lat="59.7508777794" lon="8.79982499863">
		<tag k="name" v="Landsverk" />
		<tag k="place" v="farm" />
		<tag k="ssr:stedsnr" v="186665" />
	</node>
	<node id="-54873" lat="59.7755333348" lon="8.56218889503">
		<tag k="alt_name" v="Våtjørn" />
		<tag k="historic" v="shieling" />
		<tag k="name" v="Våtjønn" />
		<tag k="place" v="locality" />
		<tag k="ssr:stedsnr" v="185994" />
	</node>
	<node id="-54869" lat="59.7734527806" lon="8.76617776936">
		<tag k="alt_name" v="Seterskard" />
		<tag k="historic" v="shieling" />
		<tag k="name" v="Setorskar" />
		<tag k="place" v="locality" />
		<tag k="ssr:stedsnr" v="185945" />
	</node>
	<node id="-54865" lat="59.603816671" lon="8.68545000485">
		<tag k="name" v="Haugen" />
		<tag k="place" v="farm" />
		<tag k="ssr:stedsnr" v="185849" />
	</node>
	<node id="-54864" lat="59.6020944457" lon="8.64096111594">
		<tag k="name" v="Egderud" />
		<tag k="place" v="farm" />
		<tag k="ssr:stedsnr" v="185838" />
	</node>
	<node id="-54862" lat="59.8165638913" lon="8.60228610529">
		<tag k="alt_name" v="Bjønndalen" />
		<tag k="name" v="Bjørndalen" />
		<tag k="place" v="farm" />
		<tag k="ssr:stedsnr" v="185826" />
	</node>
	<node id="-54860" lat="59.6075555539" lon="8.72156388512">
		<tag k="name" v="Langåsdalen" />
		<tag k="place" v="isolated_dwelling" />
		<tag k="ssr:stedsnr" v="185813" />
	</node>
	<node id="-54859" lat="59.616400003" lon="8.79986110546">
		<tag k="name" v="Moen" />
		<tag k="place" v="isolated_dwelling" />
		<tag k="ssr:stedsnr" v="185805" />
	</node>
	<node id="-54858" lat="59.6172750025" lon="8.69234166926">
		<tag k="alt_name" v="Gjuv, øvre" />
		<tag k="name" v="Øvre Gjuv" />
		<tag k="place" v="farm" />
		<tag k="ssr:stedsnr" v="185782" />
	</node>
	<node id="-54857" lat="59.6242249999" lon="8.69805832566">
		<tag k="alt_name" v="Skakktjønnlia" />
		<tag k="name" v="Skakktjørndal" />
		<tag k="place" v="isolated_dwelling" />
		<tag k="ssr:stedsnr" v="185779" />
	</node>
	<node id="-54855" lat="59.6519611149" lon="8.77388611395">
		<tag k="alt_name" v="Vassend" />
		<tag k="historic" v="shieling" />
		<tag k="name" v="Vassenden" />
		<tag k="place" v="locality" />
		<tag k="ssr:stedsnr" v="185717" />
	</node>
	<node id="-54850" lat="59.6670166651" lon="8.60281389608">
		<tag k="alt_name" v="Presttjørnstulen" />
		<tag k="historic" v="shieling" />
		<tag k="name" v="Presttjønnstulen" />
		<tag k="place" v="locality" />
		<tag k="ssr:stedsnr" v="185621" />
	</node>
	<node id="-54847" lat="59.6940749962" lon="8.49032777093">
		<tag k="historic" v="shieling" />
		<tag k="name" v="Vierslåtten" />
		<tag k="place" v="locality" />
		<tag k="ssr:stedsnr" v="185607" />
	</node>
	<node id="-54843" lat="59.6822999987" lon="8.64370556249">
		<tag k="historic" v="shieling" />
		<tag k="name" v="Odden" />
		<tag k="place" v="locality" />
		<tag k="ssr:stedsnr" v="185577" />
	</node>
	<node id="-54841" lat="59.6796361089" lon="8.62186110666">
		<tag k="alt_name" v="Takhøl" />
		<tag k="historic" v="shieling" />
		<tag k="name" v="Takhol" />
		<tag k="place" v="locality" />
		<tag k="ssr:stedsnr" v="185575" />
	</node>
	<node id="-54833" lat="59.705186113" lon="8.78694444258">
		<tag k="alt_name" v="Grønli" />
		<tag k="name" v="Grønlistulen" />
		<tag k="place" v="locality" />
		<tag k="ssr:stedsnr" v="185535" />
	</node>
	<node id="-54829" lat="59.7370250035" lon="8.72190832567">
		<tag k="name" v="Sveigen" />
		<tag k="place" v="isolated_dwelling" />
		<tag k="ssr:stedsnr" v="185480" />
	</node>
	<node id="-54828" lat="59.6212749989" lon="8.86490555413">
		<tag k="name" v="Hynne" />
		<tag k="place" v="isolated_dwelling" />
		<tag k="ssr:stedsnr" v="185334" />
	</node>
	<node id="-53511" lat="59.7497805531" lon="8.75833333306">
		<tag k="alt_name" v="Åsen søndre" />
		<tag k="name" v="Søndre Åsen" />
		<tag k="place" v="farm" />
		<tag k="ssr:stedsnr" v="226630" />
	</node>
	<node id="-54824" lat="59.7225916676" lon="8.86120832719">
		<tag k="fixme" v="consider place=hamlet" />
		<tag k="name" v="Tråer" />
		<tag k="place" v="farm" />
		<tag k="ssr:stedsnr" v="185100" />
	</node>
	<node id="-54822" lat="59.6077055542" lon="8.64360832843">
		<tag k="name" v="Lofthus nordre" />
		<tag k="place" v="farm" />
		<tag k="ssr:stedsnr" v="168895" />
	</node>
	<node id="-54821" lat="59.6096194466" lon="8.74373889078">
		<tag k="name" v="Tokasin" />
		<tag k="place" v="locality" />
		<tag k="ssr:stedsnr" v="168000" />
	</node>
	<node id="-54817" lat="59.6029888929" lon="8.99724166788">
		<tag k="fixme" v="consider place=hamlet" />
		<tag k="name" v="Fosse øvre" />
		<tag k="place" v="farm" />
		<tag k="ssr:stedsnr" v="167925" />
	</node>
	<node id="-54813" lat="59.5967972252" lon="8.60583055757">
		<tag k="name" v="Flatin" />
		<tag k="place" v="locality" />
		<tag k="ssr:stedsnr" v="167679" />
	</node>
	<node id="-54812" lat="59.6114194416" lon="8.63672777708">
		<tag k="name" v="Håtveit nordre" />
		<tag k="place" v="farm" />
		<tag k="ssr:stedsnr" v="167533" />
	</node>
	<node id="-54811" lat="59.611969443" lon="8.6397444525">
		<tag k="name" v="Håtveit søndre" />
		<tag k="place" v="farm" />
		<tag k="ssr:stedsnr" v="167531" />
	</node>
	<node id="-54810" lat="59.6023833338" lon="8.62936666075">
		<tag k="name" v="Sud Hovland" />
		<tag k="place" v="farm" />
		<tag k="ssr:stedsnr" v="167480" />
	</node>
	<node id="-54809" lat="59.6170027812" lon="8.95849722536">
		<tag k="name" v="Skoje nordre" />
		<tag k="place" v="farm" />
		<tag k="ssr:stedsnr" v="167138" />
	</node>
	<node id="-54807" lat="59.6077749977" lon="8.7032833384">
		<tag k="name" v="Midtbøen" />
		<tag k="place" v="farm" />
		<tag k="ssr:stedsnr" v="167180" />
	</node>
	<node id="-54804" lat="59.7872638923" lon="8.77080554946">
		<tag k="historic" v="shieling" />
		<tag k="name" v="Nystul" />
		<tag k="place" v="locality" />
		<tag k="ssr:stedsnr" v="166442" />
	</node>
	<node id="-54803" lat="59.7576250039" lon="8.7914583375">
		<tag k="alt_name" v="Nordre Hvåle" />
		<tag k="fixme" v="consider place=hamlet" />
		<tag k="name" v="Gvåle nordre" />
		<tag k="place" v="farm" />
		<tag k="ssr:stedsnr" v="166714" />
	</node>
	<node id="-54801" lat="59.6093416626" lon="8.95365555002">
		<tag k="name" v="Slåkestad" />
		<tag k="place" v="farm" />
		<tag k="ssr:stedsnr" v="166236" />
	</node>
	<node id="-54798" lat="59.6570638883" lon="8.78617221481">
		<tag k="name" v="Påleholsstulen" />
		<tag k="place" v="locality" />
		<tag k="ssr:stedsnr" v="165941" />
	</node>
	<node id="-53506" lat="59.7252444466" lon="8.89670277594">
		<tag k="historic" v="shieling" />
		<tag k="name" v="Bjørndalen" />
		<tag k="place" v="locality" />
		<tag k="ssr:stedsnr" v="226269" />
	</node>
	<node id="-54794" lat="59.7439749969" lon="8.84840000569">
		<tag k="name" v="Flugon søndre" />
		<tag k="place" v="farm" />
		<tag k="ssr:stedsnr" v="165231" />
	</node>
	<node id="-54792" lat="59.74648056" lon="8.81330833754">
		<tag k="name" v="Sletta nedre" />
		<tag k="place" v="farm" />
		<tag k="ssr:stedsnr" v="158323" />
	</node>
	<node id="-54790" lat="59.7340805598" lon="8.82842222015">
		<tag k="fixme" v="consider place=hamlet" />
		<tag k="name" v="Tjønn" />
		<tag k="place" v="farm" />
		<tag k="ssr:stedsnr" v="145476" />
	</node>
	<node id="-53585" lat="59.7245749991" lon="8.81671110531">
		<tag k="alt_name" v="Hogstul, midtre;Hogstul mellom;Hogstul mellem" />
		<tag k="loc_name" v="Hogstul" />
		<tag k="name" v="Midtre Hogstul" />
		<tag k="place" v="farm" />
		<tag k="ssr:stedsnr" v="246569" />
	</node>
	<node id="-54785" lat="59.7583416635" lon="8.73910277528">
		<tag k="name" v="Øygarden" />
		<tag k="place" v="farm" />
		<tag k="ssr:stedsnr" v="125968" />
	</node>
	<node id="-54784" lat="59.7563249957" lon="8.72678332609">
		<tag k="alt_name" v="Sneåsen" />
		<tag k="fixme" v="consider place=hamlet" />
		<tag k="name" v="Sjoåsen" />
		<tag k="place" v="farm" />
		<tag k="ssr:stedsnr" v="125966" />
	</node>
	<node id="-54783" lat="59.7560694457" lon="8.78941389529">
		<tag k="fixme" v="consider place=hamlet" />
		<tag k="name" v="Bøen" />
		<tag k="place" v="farm" />
		<tag k="ssr:stedsnr" v="125964" />
	</node>
	<node id="-54779" lat="59.8385777778" lon="8.54189722012">
		<tag k="alt_name" v="Tjørnstul" />
		<tag k="historic" v="shieling" />
		<tag k="name" v="Tjønnstul" />
		<tag k="place" v="locality" />
		<tag k="ssr:stedsnr" v="125875" />
	</node>
	<node id="-54777" lat="59.8170083317" lon="8.58881666537">
		<tag k="alt_name" v="Haugero" />
		<tag k="historic" v="shieling" />
		<tag k="name" v="Haugerud" />
		<tag k="place" v="locality" />
		<tag k="ssr:stedsnr" v="125848" />
	</node>
	<node id="-54776" lat="59.8158138914" lon="8.60063611109">
		<tag k="name" v="Bondal" />
		<tag k="place" v="farm" />
		<tag k="ssr:stedsnr" v="125845" />
	</node>
	<node id="-54772" lat="59.7983166646" lon="8.59935000056">
		<tag k="historic" v="shieling" />
		<tag k="name" v="Grotbekk" />
		<tag k="place" v="locality" />
		<tag k="ssr:stedsnr" v="125825" />
	</node>
	<node id="-54771" lat="59.806138891" lon="8.67780554849">
		<tag k="historic" v="shieling" />
		<tag k="name" v="Transtul" />
		<tag k="place" v="locality" />
		<tag k="ssr:stedsnr" v="125815" />
	</node>
	<node id="-54768" lat="59.7933694478" lon="8.75735833708">
		<tag k="alt_name" v="Røysa" />
		<tag k="historic" v="shieling" />
		<tag k="name" v="Røysi" />
		<tag k="place" v="locality" />
		<tag k="ssr:stedsnr" v="125795" />
	</node>
	<node id="-54759" lat="59.589313893" lon="8.66695277777">
		<tag k="name" v="Fjellstul" />
		<tag k="place" v="isolated_dwelling" />
		<tag k="ssr:stedsnr" v="124902" />
	</node>
	<node id="-54758" lat="59.6059916678" lon="8.66466388098">
		<tag k="alt_name" v="Berge mellem" />
		<tag k="name" v="Berge" />
		<tag k="place" v="farm" />
		<tag k="ssr:stedsnr" v="124830" />
	</node>
	<node id="-54756" lat="59.6206000032" lon="8.83195555298">
		<tag k="alt_name" v="Smedshuset" />
		<tag k="name" v="Smedshus" />
		<tag k="place" v="farm" />
		<tag k="ssr:stedsnr" v="124809" />
	</node>
	<node id="-54755" lat="59.616788887" lon="8.72728056313">
		<tag k="alt_name" v="Erteroe" />
		<tag k="name" v="Erteroi" />
		<tag k="place" v="locality" />
		<tag k="ssr:stedsnr" v="124798" />
	</node>
	<node id="-54754" lat="59.6118027769" lon="8.78948611271">
		<tag k="alt_name" v="Kåsa" />
		<tag k="name" v="Kåsi" />
		<tag k="place" v="farm" />
		<tag k="ssr:stedsnr" v="124783" />
	</node>
	<node id="-54753" lat="59.6093416692" lon="8.64313889763">
		<tag k="name" v="Våle" />
		<tag k="old_name" v="Kvåle" />
		<tag k="place" v="farm" />
		<tag k="ssr:stedsnr" v="124772" />
	</node>
	<node id="-54752" lat="59.6076499999" lon="8.69482499193">
		<tag k="fixme" v="consider place=hamlet" />
		<tag k="name" v="Djupedal" />
		<tag k="place" v="farm" />
		<tag k="ssr:stedsnr" v="124766" />
	</node>
	<node id="-54746" lat="59.6706500006" lon="8.56980278578">
		<tag k="historic" v="shieling" />
		<tag k="name" v="Kleiven" />
		<tag k="place" v="locality" />
		<tag k="ssr:stedsnr" v="124654" />
	</node>
	<node id="-54745" lat="59.6701666687" lon="8.55511110769">
		<tag k="historic" v="shieling" />
		<tag k="name" v="Kalddalen" />
		<tag k="place" v="locality" />
		<tag k="ssr:stedsnr" v="124652" />
	</node>
	<node id="-54742" lat="59.6935416699" lon="8.66096111097">
		<tag k="historic" v="shieling" />
		<tag k="name" v="Hågåvasstulen" />
		<tag k="place" v="locality" />
		<tag k="ssr:stedsnr" v="124570" />
	</node>
	<node id="-54741" lat="59.6904388934" lon="8.65216389523">
		<tag k="historic" v="shieling" />
		<tag k="name" v="Gammen" />
		<tag k="place" v="locality" />
		<tag k="ssr:stedsnr" v="124567" />
	</node>
	<node id="-54737" lat="59.69894444" lon="8.73597499728">
		<tag k="historic" v="shieling" />
		<tag k="name" v="Skimyr" />
		<tag k="place" v="locality" />
		<tag k="ssr:stedsnr" v="124529" />
	</node>
	<node id="-54735" lat="59.7485000028" lon="8.82645555014">
		<tag k="name" v="Dalen" />
		<tag k="place" v="farm" />
		<tag k="ssr:stedsnr" v="124523" />
	</node>
	<node id="-54732" lat="59.7305488766" lon="8.59652566646">
		<tag k="alt_name" v="Kovedalen, øvre" />
		<tag k="name" v="Øvre Kovedalen" />
		<tag k="place" v="locality" />
		<tag k="ssr:stedsnr" v="124507" />
	</node>
	<node id="-54731" lat="59.7184527733" lon="8.71356389334">
		<tag k="historic" v="shieling" />
		<tag k="name" v="Lie" />
		<tag k="place" v="locality" />
		<tag k="ssr:stedsnr" v="124506" />
	</node>
	<node id="-54726" lat="59.6250444435" lon="8.86265555647">
		<tag k="alt_name" v="Runningen" />
		<tag k="name" v="Rudningen" />
		<tag k="place" v="farm" />
		<tag k="ssr:stedsnr" v="124295" />
	</node>
	<node id="-54725" lat="59.6263361143" lon="8.87202777155">
		<tag k="alt_name" v="Deilmyren" />
		<tag k="name" v="Deilmyra" />
		<tag k="place" v="locality" />
		<tag k="ssr:stedsnr" v="124294" />
	</node>
	<node id="-54724" lat="59.6131833295" lon="9.0116027771">
		<tag k="name" v="Myre" />
		<tag k="place" v="isolated_dwelling" />
		<tag k="ssr:stedsnr" v="124241" />
	</node>
	<node id="-54722" lat="59.7050166679" lon="8.85255555277">
		<tag k="name" v="Haukås" />
		<tag k="place" v="farm" />
		<tag k="ssr:stedsnr" v="124082" />
	</node>
	<node id="-54719" lat="59.6083888886" lon="8.64781110234">
		<tag k="name" v="Våle søndre" />
		<tag k="place" v="farm" />
		<tag k="ssr:stedsnr" v="107921" />
	</node>
	<node id="-54718" lat="59.6093694411" lon="8.6430916629">
		<tag k="fixme" v="consider place=hamlet" />
		<tag k="name" v="Våle" />
		<tag k="place" v="farm" />
		<tag k="ssr:stedsnr" v="107919" />
	</node>
	<node id="-54713" lat="59.6088361117" lon="8.66694443992">
		<tag k="name" v="Bergsluten" />
		<tag k="place" v="farm" />
		<tag k="ssr:stedsnr" v="107798" />
	</node>
	<node id="-54710" lat="59.6071944487" lon="8.63018055179">
		<tag k="name" v="Snikkar" />
		<tag k="place" v="isolated_dwelling" />
		<tag k="ssr:stedsnr" v="107502" />
	</node>
	<node id="-54709" lat="59.6051722224" lon="8.63078610739">
		<tag k="name" v="Kvennhusdalen" />
		<tag k="place" v="isolated_dwelling" />
		<tag k="ssr:stedsnr" v="107480" />
	</node>
	<node id="-54708" lat="59.6040027748" lon="8.6272000028">
		<tag k="fixme" v="consider place=hamlet" />
		<tag k="name" v="Særsland nedre" />
		<tag k="place" v="farm" />
		<tag k="ssr:stedsnr" v="107479" />
	</node>
	<node id="-54707" lat="59.6009638863" lon="8.67070555173">
		<tag k="name" v="Marken sør" />
		<tag k="place" v="farm" />
		<tag k="ssr:stedsnr" v="107348" />
	</node>
	<node id="-54705" lat="59.6199249974" lon="8.69345555846">
		<tag k="name" v="Opsal nordre" />
		<tag k="place" v="farm" />
		<tag k="ssr:stedsnr" v="107090" />
	</node>
	<node id="-54704" lat="59.6122361099" lon="8.95033889451">
		<tag k="name" v="Hagen nedre" />
		<tag k="place" v="farm" />
		<tag k="ssr:stedsnr" v="107051" />
	</node>
	<node id="-54703" lat="59.6172472219" lon="8.70930555836">
		<tag k="historic" v="shieling" />
		<tag k="name" v="Dalstulen" />
		<tag k="place" v="locality" />
		<tag k="ssr:stedsnr" v="107042" />
	</node>
	<node id="-54701" lat="59.5939722189" lon="9.0073472187">
		<tag k="name" v="Steingildra øvre" />
		<tag k="place" v="farm" />
		<tag k="ssr:stedsnr" v="106896" />
	</node>
	<node id="-53490" lat="59.7535333342" lon="8.81395000066">
		<tag k="historic" v="shieling" />
		<tag k="name" v="To" />
		<tag k="place" v="locality" />
		<tag k="ssr:stedsnr" v="219278" />
	</node>
	<node id="-54697" lat="59.8277027808" lon="8.56069166546">
		<tag k="historic" v="shieling" />
		<tag k="name" v="Hellstul nedre" />
		<tag k="place" v="locality" />
		<tag k="ssr:stedsnr" v="106704" />
	</node>
	<node id="-54696" lat="59.8286888915" lon="8.56171110838">
		<tag k="historic" v="shieling" />
		<tag k="name" v="Hellstul øvre" />
		<tag k="place" v="locality" />
		<tag k="ssr:stedsnr" v="106702" />
	</node>
	<node id="-54694" lat="59.8167638873" lon="8.58544444953">
		<tag k="historic" v="shieling" />
		<tag k="name" v="Liset" />
		<tag k="place" v="locality" />
		<tag k="ssr:stedsnr" v="106685" />
	</node>
	<node id="-54693" lat="59.6204416633" lon="8.84898055304">
		<tag k="name" v="Skårnes" />
		<tag k="place" v="farm" />
		<tag k="ssr:stedsnr" v="106680" />
	</node>
	<node id="-54691" lat="59.6250472227" lon="8.56931111365">
		<tag k="historic" v="shieling" />
		<tag k="name" v="Høydal" />
		<tag k="place" v="locality" />
		<tag k="ssr:stedsnr" v="106497" />
	</node>
	<node id="-54687" lat="59.6104249957" lon="8.9642055627">
		<tag k="name" v="Mjelland" />
		<tag k="place" v="quarter" />
		<tag k="ssr:stedsnr" v="106220" />
	</node>
	<node id="-54679" lat="59.7584722237" lon="8.79374721549">
		<tag k="alt_name" v="Greivejord" />
		<tag k="fixme" v="consider place=hamlet" />
		<tag k="name" v="Greivjord" />
		<tag k="place" v="farm" />
		<tag k="ssr:stedsnr" v="105711" />
	</node>
	<node id="-54676" lat="59.7875916678" lon="8.67309722849">
		<tag k="name" v="Øygarden" />
		<tag k="place" v="locality" />
		<tag k="ssr:stedsnr" v="105480" />
	</node>
	<node id="-54671" lat="59.7425333303" lon="8.84985832857">
		<tag k="name" v="Venås nordre" />
		<tag k="place" v="farm" />
		<tag k="ssr:stedsnr" v="105268" />
	</node>
	<node id="-54670" lat="59.7102749959" lon="8.60054166532">
		<tag k="name" v="Flotteroe" />
		<tag k="place" v="locality" />
		<tag k="ssr:stedsnr" v="105235" />
	</node>
	<node id="-54661" lat="59.7208138908" lon="8.85398332525">
		<tag k="name" v="Sønderland nedre" />
		<tag k="place" v="farm" />
		<tag k="ssr:stedsnr" v="105062" />
	</node>
	<node id="-54658" lat="59.7806361111" lon="8.8422638931">
		<tag k="historic" v="shieling" />
		<tag k="name" v="Nystul" />
		<tag k="place" v="locality" />
		<tag k="ssr:stedsnr" v="104917" />
	</node>
	<node id="-54656" lat="59.7562416624" lon="8.81798610369">
		<tag k="historic" v="shieling" />
		<tag k="name" v="Lidalen" />
		<tag k="place" v="locality" />
		<tag k="ssr:stedsnr" v="97284" />
	</node>
	<node id="-54652" lat="59.7839055552" lon="8.60833888613">
		<tag k="alt_name" v="Haugero" />
		<tag k="name" v="Haugeroi" />
		<tag k="place" v="isolated_dwelling" />
		<tag k="ssr:stedsnr" v="65975" />
	</node>
	<node id="-54650" lat="59.7820861111" lon="8.80797500295">
		<tag k="alt_name" v="Fjølabui" />
		<tag k="historic" v="shieling" />
		<tag k="name" v="Fjølabu" />
		<tag k="place" v="locality" />
		<tag k="ssr:stedsnr" v="65970" />
	</node>
	<node id="-54647" lat="59.8284972242" lon="8.53017500024">
		<tag k="alt_name" v="Nåpåtjørnstulen" />
		<tag k="historic" v="shieling" />
		<tag k="name" v="Nåpåtjønn" />
		<tag k="place" v="locality" />
		<tag k="ssr:stedsnr" v="65825" />
	</node>
	<node id="-54638" lat="59.7564222196" lon="8.70914721504">
		<tag k="alt_name" v="Oksle" />
		<tag k="name" v="Okslistulen" />
		<tag k="place" v="locality" />
		<tag k="ssr:stedsnr" v="64969" />
	</node>
	<node id="-54637" lat="59.7582138905" lon="8.67081111194">
		<tag k="historic" v="shieling" />
		<tag k="name" v="Listul" />
		<tag k="place" v="locality" />
		<tag k="ssr:stedsnr" v="64968" />
	</node>
	<node id="-54636" lat="59.762475601" lon="8.80198953348">
		<tag k="alt_name" v="Nordre Rui" />
		<tag k="fixme" v="consider place=hamlet" />
		<tag k="name" v="Rui" />
		<tag k="place" v="farm" />
		<tag k="ssr:stedsnr" v="64957" />
	</node>
	<node id="-54635" lat="59.6176111139" lon="8.62888610979">
		<tag k="alt_name" v="Kåsastul" />
		<tag k="historic" v="shieling" />
		<tag k="name" v="Kåsastulen" />
		<tag k="place" v="locality" />
		<tag k="ssr:stedsnr" v="64794" />
	</node>
	<node id="-54634" lat="59.6272499997" lon="8.60106666291">
		<tag k="alt_name" v="Øvre Heggjelia" />
		<tag k="historic" v="shieling" />
		<tag k="name" v="Heggelii" />
		<tag k="place" v="locality" />
		<tag k="ssr:stedsnr" v="64770" />
	</node>
	<node id="-54633" lat="59.6399749964" lon="8.58626666513">
		<tag k="name" v="Trettemyr" />
		<tag k="place" v="isolated_dwelling" />
		<tag k="ssr:stedsnr" v="64769" />
	</node>
	<node id="-54632" lat="59.6363249965" lon="8.82767500368">
		<tag k="name" v="Skårdal" />
		<tag k="place" v="hamlet" />
		<tag k="ssr:stedsnr" v="64757" />
	</node>
	<node id="-54631" lat="59.6402583294" lon="8.80631666104">
		<tag k="name" v="Listul" />
		<tag k="place" v="farm" />
		<tag k="ssr:stedsnr" v="64754" />
	</node>
	<node id="-54629" lat="59.659586108" lon="8.61402777977">
		<tag k="historic" v="shieling" />
		<tag k="name" v="Strandstul" />
		<tag k="place" v="locality" />
		<tag k="ssr:stedsnr" v="64695" />
	</node>
	<node id="-54628" lat="59.6569527783" lon="8.60463332785">
		<tag k="historic" v="shieling" />
		<tag k="name" v="Listul" />
		<tag k="place" v="locality" />
		<tag k="ssr:stedsnr" v="64694" />
	</node>
	<node id="-54627" lat="59.6464607237" lon="8.55267389058">
		<tag k="historic" v="shieling" />
		<tag k="name" v="Nystul" />
		<tag k="place" v="locality" />
		<tag k="ssr:stedsnr" v="64690" />
	</node>
	<node id="-54626" lat="59.6833162462" lon="8.80271992172">
		<tag k="name" v="Bjørnlia" />
		<tag k="place" v="locality" />
		<tag k="ssr:stedsnr" v="64678" />
	</node>
	<node id="-54625" lat="59.6911805535" lon="8.77921666949">
		<tag k="historic" v="shieling" />
		<tag k="name" v="Kruvla" />
		<tag k="place" v="locality" />
		<tag k="ssr:stedsnr" v="64675" />
	</node>
	<node id="-54623" lat="59.6953250015" lon="8.54975277757">
		<tag k="historic" v="shieling" />
		<tag k="name" v="Drambekk" />
		<tag k="place" v="locality" />
		<tag k="ssr:stedsnr" v="64646" />
	</node>
	<node id="-54622" lat="59.711455559" lon="8.57886111409">
		<tag k="alt_name" v="Skrubberoe" />
		<tag k="historic" v="shieling" />
		<tag k="name" v="Skrubberoi" />
		<tag k="place" v="locality" />
		<tag k="ssr:stedsnr" v="64643" />
	</node>
	<node id="-54621" lat="59.5985055541" lon="8.68071389773">
		<tag k="name" v="Vestmoen" />
		<tag k="place" v="farm" />
		<tag k="ssr:stedsnr" v="64869" />
	</node>
	<node id="-54618" lat="59.7303666682" lon="8.62133888386">
		<tag k="historic" v="shieling" />
		<tag k="name" v="Kovviken" />
		<tag k="place" v="locality" />
		<tag k="ssr:stedsnr" v="64565" />
	</node>
	<node id="-54614" lat="59.7374666694" lon="8.71486110956">
		<tag k="alt_name" v="Raunelie" />
		<tag k="name" v="Raunlii" />
		<tag k="place" v="locality" />
		<tag k="ssr:stedsnr" v="64529" />
	</node>
	<node id="-54609" lat="59.693777776" lon="8.56595555509">
		<tag k="name" v="Lauvhaug" />
		<tag k="place" v="isolated_dwelling" />
		<tag k="ssr:stedsnr" v="64617" />
	</node>
	<node id="-54606" lat="59.6395194423" lon="8.97011944796">
		<tag k="alt_name" v="Tjørnås" />
		<tag k="fixme" v="consider place=hamlet" />
		<tag k="name" v="Tjønnås" />
		<tag k="place" v="farm" />
		<tag k="ssr:stedsnr" v="64191" />
	</node>
	<node id="-54604" lat="59.7422527817" lon="8.8444555618">
		<tag k="name" v="Rui" />
		<tag k="place" v="farm" />
		<tag k="ssr:stedsnr" v="64111" />
	</node>
	<node id="-54603" lat="59.6098999976" lon="8.559575001">
		<tag k="alt_name" v="Johansstul" />
		<tag k="historic" v="shieling" />
		<tag k="name" v="Johanstul" />
		<tag k="place" v="locality" />
		<tag k="ssr:stedsnr" v="63791" />
	</node>
	<node id="-54600" lat="59.6003388891" lon="8.62663056035">
		<tag k="name" v="Høgetveit" />
		<tag k="place" v="farm" />
		<tag k="ssr:stedsnr" v="63845" />
	</node>
	<node id="-54597" lat="59.615863886" lon="8.97103611776">
		<tag k="fixme" v="consider place=hamlet" />
		<tag k="name" v="Åmnes" />
		<tag k="place" v="farm" />
		<tag k="ssr:stedsnr" v="63314" />
	</node>
	<node id="-54595" lat="59.6567888884" lon="8.66811110571">
		<tag k="historic" v="shieling" />
		<tag k="name" v="Hytta" />
		<tag k="place" v="locality" />
		<tag k="ssr:stedsnr" v="63669" />
	</node>
	<node id="-54594" lat="59.6676249969" lon="8.65094999341">
		<tag k="alt_name" v="Ålmanroe" />
		<tag k="name" v="Ålmannsroi" />
		<tag k="place" v="isolated_dwelling" />
		<tag k="ssr:stedsnr" v="63657" />
	</node>
	<node id="-54593" lat="59.6000222209" lon="8.64893333469">
		<tag k="name" v="Granheim" />
		<tag k="place" v="isolated_dwelling" />
		<tag k="ssr:stedsnr" v="47926" />
	</node>
	<node id="-54591" lat="59.5980222235" lon="8.64794444967">
		<tag k="name" v="Flatland nordre" />
		<tag k="place" v="farm" />
		<tag k="ssr:stedsnr" v="47921" />
	</node>
	<node id="-54590" lat="59.832386107" lon="8.50515277111">
		<tag k="historic" v="shieling" />
		<tag k="name" v="Skaret" />
		<tag k="place" v="locality" />
		<tag k="ssr:stedsnr" v="46603" />
	</node>
	<node id="-54589" lat="59.6028666634" lon="8.62612777735">
		<tag k="name" v="Bratsberg" />
		<tag k="place" v="farm" />
		<tag k="ssr:stedsnr" v="46472" />
	</node>
	<node id="-54588" lat="59.6147027779" lon="8.69308889439">
		<tag k="alt_name" v="Sud Gjuv" />
		<tag k="fixme" v="consider place=hamlet" />
		<tag k="name" v="Søndre Gjuv" />
		<tag k="place" v="farm" />
		<tag k="ssr:stedsnr" v="46385" />
	</node>
	<node id="-54587" lat="59.6082527796" lon="8.70555276974">
		<tag k="name" v="Klevshaug" />
		<tag k="place" v="isolated_dwelling" />
		<tag k="ssr:stedsnr" v="46373" />
	</node>
	<node id="-54586" lat="59.6083888908" lon="8.70938055432">
		<tag k="name" v="Bergsland nedre" />
		<tag k="place" v="farm" />
		<tag k="ssr:stedsnr" v="46329" />
	</node>
	<node id="-54585" lat="59.5952888858" lon="8.62099443776">
		<tag k="name" v="Nedre søndre Tho" />
		<tag k="place" v="farm" />
		<tag k="ssr:stedsnr" v="46311" />
	</node>
	<node id="-54582" lat="59.6128777751" lon="8.76910556028">
		<tag k="name" v="Ospelund" />
		<tag k="place" v="locality" />
		<tag k="ssr:stedsnr" v="45957" />
	</node>
	<node id="-54581" lat="59.6017361079" lon="9.00191111203">
		<tag k="name" v="Haugfosse nigard" />
		<tag k="place" v="farm" />
		<tag k="ssr:stedsnr" v="45877" />
	</node>
	<node id="-54580" lat="59.5793861139" lon="8.9386777808">
		<tag k="name" v="Stabekk" />
		<tag k="place" v="locality" />
		<tag k="ssr:stedsnr" v="45845" />
	</node>
	<node id="-54576" lat="59.7506000023" lon="8.79978888198">
		<tag k="fixme" v="consider place=hamlet" />
		<tag k="name" v="Landsverk nordre" />
		<tag k="place" v="farm" />
		<tag k="ssr:stedsnr" v="45689" />
	</node>
	<node id="-54574" lat="59.6172333371" lon="8.85958332786">
		<tag k="name" v="Øystul" />
		<tag k="place" v="farm" />
		<tag k="ssr:stedsnr" v="45685" />
	</node>
	<node id="-54573" lat="59.6108444437" lon="8.59514999285">
		<tag k="historic" v="shieling" />
		<tag k="name" v="Sudnuten" />
		<tag k="place" v="locality" />
		<tag k="ssr:stedsnr" v="45680" />
	</node>
	<node id="-53587" lat="59.7157944466" lon="8.83963888311">
		<tag k="alt_name" v="Lynidalen" />
		<tag k="fixme" v="consider place=hamlet" />
		<tag k="name" v="Lynnidalen" />
		<tag k="place" v="farm" />
		<tag k="ssr:stedsnr" v="246579" />
	</node>
	<node id="-54570" lat="59.788502775" lon="8.76819999305">
		<tag k="historic" v="shieling" />
		<tag k="name" v="Nystul" />
		<tag k="place" v="locality" />
		<tag k="ssr:stedsnr" v="45437" />
	</node>
	<node id="-54569" lat="59.6230444431" lon="8.6057694414">
		<tag k="name" v="Nedre Heggjelid" />
		<tag k="place" v="locality" />
		<tag k="ssr:stedsnr" v="45425" />
	</node>
	<node id="-54568" lat="59.6759916652" lon="8.8673305515">
		<tag k="historic" v="shieling" />
		<tag k="name" v="Kasin" />
		<tag k="place" v="locality" />
		<tag k="ssr:stedsnr" v="44998" />
	</node>
	<node id="-54567" lat="59.664522225" lon="8.87676667014">
		<tag k="name" v="Bruin" />
		<tag k="place" v="locality" />
		<tag k="ssr:stedsnr" v="44979" />
	</node>
	<node id="-54561" lat="59.7595805525" lon="8.67999443905">
		<tag k="historic" v="shieling" />
		<tag k="name" v="Djupeli" />
		<tag k="place" v="locality" />
		<tag k="ssr:stedsnr" v="44897" />
	</node>
	<node id="-54554" lat="59.783155558" lon="8.71292500166">
		<tag k="name" v="Bingen" />
		<tag k="place" v="locality" />
		<tag k="ssr:stedsnr" v="44494" />
	</node>
	<node id="-54550" lat="59.7443527819" lon="8.8480138969">
		<tag k="name" v="Flugon nordre" />
		<tag k="place" v="farm" />
		<tag k="ssr:stedsnr" v="44245" />
	</node>
	<node id="-54549" lat="59.7384222218" lon="8.86991111837">
		<tag k="historic" v="shieling" />
		<tag k="name" v="Gvammen" />
		<tag k="place" v="locality" />
		<tag k="ssr:stedsnr" v="44243" />
	</node>
	<node id="-54546" lat="59.6960305524" lon="8.5059583361">
		<tag k="name" v="Graslia" />
		<tag k="place" v="locality" />
		<tag k="ssr:stedsnr" v="44233" />
	</node>
	<node id="-54541" lat="59.7473722227" lon="8.83665555907">
		<tag k="name" v="Hagen" />
		<tag k="place" v="farm" />
		<tag k="ssr:stedsnr" v="36276" />
	</node>
	<node id="-54538" lat="59.7856694441" lon="8.67615000191">
		<tag k="historic" v="shieling" />
		<tag k="name" v="Kvislestul" />
		<tag k="place" v="locality" />
		<tag k="ssr:stedsnr" v="4977" />
	</node>
	<node id="-54537" lat="59.7859361151" lon="8.77333888965">
		<tag k="name" v="Lislestul" />
		<tag k="place" v="isolated_dwelling" />
		<tag k="ssr:stedsnr" v="4973" />
	</node>
	<node id="-54536" lat="59.7565361135" lon="8.53065278479">
		<tag k="alt_name" v="Grunntjørn" />
		<tag k="name" v="Grunntjønn" />
		<tag k="place" v="isolated_dwelling" />
		<tag k="ssr:stedsnr" v="4966" />
	</node>
	<node id="-54535" lat="59.8354500034" lon="8.51730277055">
		<tag k="historic" v="shieling" />
		<tag k="name" v="Måråstad" />
		<tag k="place" v="locality" />
		<tag k="ssr:stedsnr" v="4887" />
	</node>
	<node id="-54534" lat="59.8390027761" lon="8.53129167054">
		<tag k="alt_name" v="Listul" />
		<tag k="historic" v="shieling" />
		<tag k="name" v="Lislestul" />
		<tag k="place" v="locality" />
		<tag k="ssr:stedsnr" v="4885" />
	</node>
	<node id="-54529" lat="59.7908916698" lon="8.7618666593">
		<tag k="alt_name" v="Fjosstulen" />
		<tag k="name" v="Fjøsstul" />
		<tag k="place" v="isolated_dwelling" />
		<tag k="ssr:stedsnr" v="4805" />
	</node>
	<node id="-54527" lat="59.7951166709" lon="8.74558611226">
		<tag k="alt_name" v="Bakkestul" />
		<tag k="name" v="Bakkestulen" />
		<tag k="place" v="isolated_dwelling" />
		<tag k="ssr:stedsnr" v="4793" />
	</node>
	<node id="-54520" lat="59.5595500019" lon="8.84225277926">
		<tag k="historic" v="shieling" />
		<tag k="name" v="Mjellefet" />
		<tag k="place" v="locality" />
		<tag k="ssr:stedsnr" v="3915" />
	</node>
	<node id="-54518" lat="59.5873083317" lon="8.58193889227">
		<tag k="name" v="Dale" />
		<tag k="place" v="farm" />
		<tag k="ssr:stedsnr" v="3871" />
	</node>
	<node id="-54517" lat="59.5987749966" lon="8.69203055712">
		<tag k="alt_name" v="Stuvøy" />
		<tag k="name" v="Stuvøyi" />
		<tag k="place" v="farm" />
		<tag k="ssr:stedsnr" v="3855" />
	</node>
	<node id="-54514" lat="59.6213611086" lon="8.71441110925">
		<tag k="historic" v="shieling" />
		<tag k="name" v="Grimsås" />
		<tag k="place" v="locality" />
		<tag k="ssr:stedsnr" v="3819" />
	</node>
	<node id="-54512" lat="59.6073277791" lon="8.65299166506">
		<tag k="alt_name" v="Hykkjerud" />
		<tag k="name" v="Hykkerud" />
		<tag k="place" v="farm" />
		<tag k="ssr:stedsnr" v="3800" />
	</node>
	<node id="-54511" lat="59.6081500033" lon="8.57032222093">
		<tag k="alt_name" v="Høljestul" />
		<tag k="historic" v="shieling" />
		<tag k="name" v="Helgestul" />
		<tag k="place" v="locality" />
		<tag k="ssr:stedsnr" v="3788" />
	</node>
	<node id="-54510" lat="59.6249277815" lon="8.56915000365">
		<tag k="historic" v="shieling" />
		<tag k="name" v="Høydal" />
		<tag k="place" v="locality" />
		<tag k="ssr:stedsnr" v="3785" />
	</node>
	<node id="-54508" lat="59.6227305578" lon="8.58672500556">
		<tag k="alt_name" v="Gvamstul" />
		<tag k="historic" v="shieling" />
		<tag k="name" v="Kvamsstul" />
		<tag k="place" v="locality" />
		<tag k="ssr:stedsnr" v="3780" />
	</node>
	<node id="-54505" lat="59.6225027783" lon="8.64918333766">
		<tag k="historic" v="shieling" />
		<tag k="name" v="Nystul" />
		<tag k="place" v="locality" />
		<tag k="ssr:stedsnr" v="3764" />
	</node>
	<node id="-54504" lat="59.6143500006" lon="8.54980556294">
		<tag k="historic" v="shieling" />
		<tag k="name" v="Astridstul" />
		<tag k="place" v="locality" />
		<tag k="ssr:stedsnr" v="3751" />
	</node>
	<node id="-54498" lat="59.7170999957" lon="8.82537500051">
		<tag k="name" v="Øygarden" />
		<tag k="place" v="isolated_dwelling" />
		<tag k="ssr:stedsnr" v="3568" />
	</node>
	<node id="-54490" lat="59.7214222187" lon="8.71979722168">
		<tag k="historic" v="shieling" />
		<tag k="name" v="Espelie" />
		<tag k="place" v="locality" />
		<tag k="ssr:stedsnr" v="3521" />
	</node>
	<node id="-53489" lat="59.6930638854" lon="8.86814167045">
		<tag k="historic" v="shieling" />
		<tag k="name" v="Skarkedalen" />
		<tag k="place" v="locality" />
		<tag k="ssr:stedsnr" v="218074" />
	</node>
	<node id="-54483" lat="59.7492499997" lon="8.75965555041">
		<tag k="name" v="Åsen" />
		<tag k="place" v="farm" />
		<tag k="ssr:stedsnr" v="3485" />
	</node>
	<node id="-54482" lat="59.6082250032" lon="8.96425554911">
		<tag k="name" v="Øygarden" />
		<tag k="place" v="farm" />
		<tag k="ssr:stedsnr" v="3323" />
	</node>
	<node id="-54481" lat="59.6248527792" lon="8.858011119">
		<tag k="name" v="Steinskotet" />
		<tag k="place" v="farm" />
		<tag k="ssr:stedsnr" v="3320" />
	</node>
	<node id="-54479" lat="59.6211861081" lon="8.93676666146">
		<tag k="alt_name" v="Kleppen;Kleppene" />
		<tag k="fixme" v="consider place=hamlet" />
		<tag k="name" v="Kleppan" />
		<tag k="place" v="farm" />
		<tag k="ssr:stedsnr" v="3306" />
	</node>
	<node id="-54478" lat="59.5759694485" lon="8.89148054788">
		<tag k="name" v="Tangenstul" />
		<tag k="place" v="locality" />
		<tag k="ssr:stedsnr" v="3289" />
	</node>
	<node id="-54477" lat="59.6512999975" lon="8.91091389685">
		<tag k="name" v="Sjukebakke" />
		<tag k="place" v="isolated_dwelling" />
		<tag k="ssr:stedsnr" v="3181" />
	</node>
	<node id="-54476" lat="59.6436694415" lon="8.99011666293">
		<tag k="alt_name" v="Tjørnåsdalen, nedre;Tjønnåsdalen nedre" />
		<tag k="name" v="Nedre Tjønnåsdalen" />
		<tag k="place" v="isolated_dwelling" />
		<tag k="ssr:stedsnr" v="3175" />
	</node>
	<node id="-54474" lat="59.6878083373" lon="8.88611111205">
		<tag k="alt_name" v="Lygndal;Løgndal" />
		<tag k="name" v="Lyngdal" />
		<tag k="place" v="farm" />
		<tag k="ssr:stedsnr" v="3151" />
	</node>
	<node id="-54473" lat="59.7366250007" lon="8.84491111925">
		<tag k="name" v="Kåsi" />
		<tag k="place" v="farm" />
		<tag k="ssr:stedsnr" v="3017" />
	</node>
	<node id="-54471" lat="59.7232617814" lon="8.81322690345">
		<tag k="name" v="Haugstøl" />
		<tag k="place" v="hamlet" />
		<tag k="ssr:stedsnr" v="983502" />
	</node>
	<node id="-54470" lat="59.6027098283" lon="9.00055707242">
		<tag k="name" v="Fosse" />
		<tag k="place" v="hamlet" />
		<tag k="ssr:stedsnr" v="983501" />
	</node>
	<node id="-54469" lat="59.6013761801" lon="9.00239593303">
		<tag k="fixme" v="consider place=hamlet" />
		<tag k="name" v="Nedre Fosse" />
		<tag k="place" v="farm" />
		<tag k="ssr:stedsnr" v="983500" />
	</node>
	<node id="-54468" lat="59.6118692305" lon="8.92438614025">
		<tag k="name" v="Frøland" />
		<tag k="place" v="hamlet" />
		<tag k="ssr:stedsnr" v="983499" />
	</node>
	<node id="-54467" lat="59.6112688415" lon="8.92833493166">
		<tag k="fixme" v="consider place=hamlet" />
		<tag k="name" v="Søndre Frøland" />
		<tag k="place" v="farm" />
		<tag k="ssr:stedsnr" v="983498" />
	</node>
	<node id="-54466" lat="59.6129222829" lon="8.92278481469">
		<tag k="fixme" v="consider place=hamlet" />
		<tag k="name" v="Nordre Frøland" />
		<tag k="place" v="farm" />
		<tag k="ssr:stedsnr" v="983497" />
	</node>
	<node id="-54465" lat="59.6239136225" lon="8.94463719131">
		<tag k="name" v="Bø" />
		<tag k="place" v="hamlet" />
		<tag k="ssr:stedsnr" v="983488" />
	</node>
	<node id="-54463" lat="59.6182803752" lon="8.93123853917">
		<tag k="fixme" v="consider place=hamlet" />
		<tag k="name" v="Sauland" />
		<tag k="place" v="farm" />
		<tag k="ssr:stedsnr" v="983433" />
	</node>
	<node id="-54462" lat="59.6186683482" lon="8.84625946525">
		<tag k="name" v="Skårnes" />
		<tag k="place" v="hamlet" />
		<tag k="ssr:stedsnr" v="983406" />
	</node>
	<node id="-54461" lat="59.621652392" lon="8.80645638202">
		<tag k="name" v="Loner" />
		<tag k="place" v="hamlet" />
		<tag k="ssr:stedsnr" v="983404" />
	</node>
	<node id="-54460" lat="59.7802055523" lon="8.83854445296">
		<tag k="historic" v="shieling" />
		<tag k="name" v="Grimestul" />
		<tag k="place" v="locality" />
		<tag k="ssr:stedsnr" v="914998" />
	</node>
	<node id="-54459" lat="59.772305558" lon="8.57724165942">
		<tag k="historic" v="shieling" />
		<tag k="name" v="Kleivstul" />
		<tag k="place" v="locality" />
		<tag k="ssr:stedsnr" v="914996" />
	</node>
	<node id="-53574" lat="59.7149305518" lon="8.85379166638">
		<tag k="name" v="Øystul" />
		<tag k="place" v="isolated_dwelling" />
		<tag k="ssr:stedsnr" v="246105" />
	</node>
	<node id="-54453" lat="59.7295916624" lon="8.65271666997">
		<tag k="historic" v="shieling" />
		<tag k="name" v="Sandviken" />
		<tag k="place" v="locality" />
		<tag k="ssr:stedsnr" v="913544" />
	</node>
	<node id="-54450" lat="59.599" lon="8.65198889151">
		<tag k="name" v="Flatland mellem" />
		<tag k="place" v="farm" />
		<tag k="ssr:stedsnr" v="896956" />
	</node>
	<node id="-54449" lat="59.5998277789" lon="8.65628055817">
		<tag k="name" v="Nordbø" />
		<tag k="place" v="isolated_dwelling" />
		<tag k="ssr:stedsnr" v="896812" />
	</node>
	<node id="-54448" lat="59.6025777772" lon="8.65846388364">
		<tag k="name" v="Haugemæland" />
		<tag k="place" v="farm" />
		<tag k="ssr:stedsnr" v="896811" />
	</node>
	<node id="-54446" lat="59.7917222229" lon="8.79853054745">
		<tag k="historic" v="shieling" />
		<tag k="name" v="Fosstulen" />
		<tag k="place" v="locality" />
		<tag k="ssr:stedsnr" v="893936" />
	</node>
	<node id="-54441" lat="59.7904361099" lon="8.77325556116">
		<tag k="name" v="Lofthus" />
		<tag k="place" v="locality" />
		<tag k="ssr:stedsnr" v="854769" />
	</node>
	<node id="-54437" lat="59.8276444484" lon="8.59089999197">
		<tag k="alt_name" v="Bjønndalen" />
		<tag k="historic" v="shieling" />
		<tag k="name" v="Bjørndalen" />
		<tag k="place" v="locality" />
		<tag k="ssr:stedsnr" v="854815" />
	</node>
	<node id="-54436" lat="59.7517999993" lon="8.71902777768">
		<tag k="name" v="Lii" />
		<tag k="place" v="farm" />
		<tag k="ssr:stedsnr" v="853953" />
	</node>
	<node id="-54435" lat="59.575936108" lon="8.73518610926">
		<tag k="alt_name" v="Helleburoe" />
		<tag k="historic" v="shieling" />
		<tag k="name" v="Helleburoi" />
		<tag k="place" v="locality" />
		<tag k="ssr:stedsnr" v="853917" />
	</node>
	<node id="-54433" lat="59.8112944456" lon="8.5882500013">
		<tag k="name" v="Fosstul" />
		<tag k="place" v="isolated_dwelling" />
		<tag k="ssr:stedsnr" v="853781" />
	</node>
	<node id="-54432" lat="59.8126194452" lon="8.58161666478">
		<tag k="alt_name" v="Skarstul" />
		<tag k="historic" v="shieling" />
		<tag k="name" v="Skardstulen" />
		<tag k="place" v="locality" />
		<tag k="ssr:stedsnr" v="853778" />
	</node>
	<node id="-54431" lat="59.6120416633" lon="8.60658055106">
		<tag k="name" v="Nord-bygdi" />
		<tag k="place" v="village" />
		<tag k="ssr:stedsnr" v="853776" />
	</node>
	<node id="-54430" lat="59.6201027823" lon="8.62929999612">
		<tag k="historic" v="shieling" />
		<tag k="name" v="Kløvstul" />
		<tag k="place" v="locality" />
		<tag k="ssr:stedsnr" v="853765" />
	</node>
	<node id="-54429" lat="59.6137999971" lon="8.63233056261">
		<tag k="alt_name" v="Finseker" />
		<tag k="name" v="Finnekre" />
		<tag k="place" v="farm" />
		<tag k="ssr:stedsnr" v="853762" />
	</node>
	<node id="-54428" lat="59.8197027736" lon="8.66187499621">
		<tag k="historic" v="shieling" />
		<tag k="name" v="Myklestul" />
		<tag k="place" v="locality" />
		<tag k="ssr:stedsnr" v="853761" />
	</node>
	<node id="-54425" lat="59.6576249978" lon="8.54647777145">
		<tag k="historic" v="shieling" />
		<tag k="name" v="Bismeli" />
		<tag k="place" v="locality" />
		<tag k="ssr:stedsnr" v="853671" />
	</node>
	<node id="-54422" lat="59.7449249978" lon="8.82631388746">
		<tag k="name" v="Moen" />
		<tag k="place" v="farm" />
		<tag k="ssr:stedsnr" v="853563" />
	</node>
	<node id="-54420" lat="59.611033331" lon="8.78476389073">
		<tag k="name" v="Haugen" />
		<tag k="place" v="farm" />
		<tag k="ssr:stedsnr" v="853812" />
	</node>
	<node id="-54419" lat="59.6146795492" lon="8.91672764927">
		<tag k="name" v="Staurhaugen" />
		<tag k="place" v="locality" />
		<tag k="ssr:stedsnr" v="853376" />
	</node>
	<node id="-54417" lat="59.6014611067" lon="8.92583610547">
		<tag k="name" v="Havrås" />
		<tag k="place" v="locality" />
		<tag k="ssr:stedsnr" v="853361" />
	</node>
	<node id="-54416" lat="59.5962833366" lon="9.00374999172">
		<tag k="name" v="Fosse" />
		<tag k="place" v="farm" />
		<tag k="ssr:stedsnr" v="853307" />
	</node>
	<node id="-54415" lat="59.7570333335" lon="8.87896944583">
		<tag k="alt_name" v="Tjørnstul" />
		<tag k="name" v="Tjønnstul" />
		<tag k="place" v="isolated_dwelling" />
		<tag k="ssr:stedsnr" v="853261" />
	</node>
	<node id="-54414" lat="59.8161111085" lon="8.84327500626">
		<tag k="alt_name" v="Sjåen nedre" />
		<tag k="historic" v="shieling" />
		<tag k="name" v="Sjåen" />
		<tag k="place" v="locality" />
		<tag k="ssr:stedsnr" v="853258" />
	</node>
	<node id="-54413" lat="59.663955555" lon="8.86256943695">
		<tag k="name" v="Hyttun" />
		<tag k="place" v="isolated_dwelling" />
		<tag k="ssr:stedsnr" v="853210" />
	</node>
	<node id="-54410" lat="59.6038194428" lon="8.76377776936">
		<tag k="name" v="Høgehaug" />
		<tag k="place" v="locality" />
		<tag k="ssr:stedsnr" v="835971" />
	</node>
	<node id="-54404" lat="59.629638885" lon="8.93426943674">
		<tag k="name" v="Kasin" />
		<tag k="place" v="farm" />
		<tag k="ssr:stedsnr" v="834714" />
	</node>
	<node id="-54402" lat="59.6196361092" lon="8.92843888325">
		<tag k="name" v="Prestegarden" />
		<tag k="place" v="farm" />
		<tag k="ssr:stedsnr" v="834108" />
	</node>
	<node id="-54401" lat="59.6089527736" lon="8.68263888139">
		<tag k="name" v="Haugan øvre" />
		<tag k="place" v="farm" />
		<tag k="ssr:stedsnr" v="834259" />
	</node>
	<node id="-54399" lat="59.7808611142" lon="8.72631111529">
		<tag k="historic" v="shieling" />
		<tag k="name" v="Åråstul øvre" />
		<tag k="place" v="locality" />
		<tag k="ssr:stedsnr" v="833457" />
	</node>
	<node id="-54397" lat="59.7811249994" lon="8.68728610979">
		<tag k="historic" v="shieling" />
		<tag k="name" v="Toinstulen" />
		<tag k="place" v="locality" />
		<tag k="ssr:stedsnr" v="833404" />
	</node>
	<node id="-54396" lat="59.7200222246" lon="8.60609444887">
		<tag k="historic" v="shieling" />
		<tag k="name" v="Ormbua" />
		<tag k="place" v="locality" />
		<tag k="ssr:stedsnr" v="833214" />
	</node>
	<node id="-54386" lat="59.7572861112" lon="8.55610834201">
		<tag k="historic" v="shieling" />
		<tag k="name" v="Primhaug" />
		<tag k="place" v="locality" />
		<tag k="ssr:stedsnr" v="792968" />
	</node>
	<node id="-54384" lat="59.7516888867" lon="8.73474167041">
		<tag k="alt_name" v="Stuvrud" />
		<tag k="name" v="Stuverud" />
		<tag k="place" v="farm" />
		<tag k="ssr:stedsnr" v="792960" />
	</node>
	<node id="-54380" lat="59.6050527762" lon="8.75083333906">
		<tag k="name" v="Neshaug" />
		<tag k="place" v="farm" />
		<tag k="ssr:stedsnr" v="792816" />
	</node>
	<node id="-54379" lat="59.5973499985" lon="8.75638055503">
		<tag k="name" v="Baklistulen" />
		<tag k="place" v="isolated_dwelling" />
		<tag k="ssr:stedsnr" v="792815" />
	</node>
	<node id="-54378" lat="59.830227777" lon="8.82901110585">
		<tag k="historic" v="shieling" />
		<tag k="name" v="Briskeroi" />
		<tag k="place" v="locality" />
		<tag k="ssr:stedsnr" v="792814" />
	</node>
	<node id="-54377" lat="59.6088111147" lon="8.73111944937">
		<tag k="alt_name" v="Kaldal nedre" />
		<tag k="name" v="Kalddal" />
		<tag k="place" v="farm" />
		<tag k="ssr:stedsnr" v="792809" />
	</node>
	<node id="-54374" lat="59.7072277762" lon="8.47468332631">
		<tag k="alt_name" v="Åto, øvre" />
		<tag k="historic" v="shieling" />
		<tag k="name" v="Øvre Åto" />
		<tag k="place" v="locality" />
		<tag k="ssr:stedsnr" v="792622" />
	</node>
	<node id="-54372" lat="59.6916055542" lon="8.71558610253">
		<tag k="alt_name" v="Sveinungshovden, øvre;Sveinungshøvden øvre" />
		<tag k="historic" v="shieling" />
		<tag k="name" v="Øvre Sveinungshovden" />
		<tag k="place" v="locality" />
		<tag k="ssr:stedsnr" v="792614" />
	</node>
	<node id="-54370" lat="59.7488916627" lon="8.80318333739">
		<tag k="name" v="Landsverk" />
		<tag k="place" v="farm" />
		<tag k="ssr:stedsnr" v="792563" />
	</node>
	<node id="-54368" lat="59.7448527743" lon="8.79537499142">
		<tag k="alt_name" v="Vestafe" />
		<tag k="historic" v="shieling" />
		<tag k="name" v="Vestate" />
		<tag k="place" v="locality" />
		<tag k="ssr:stedsnr" v="792557" />
	</node>
	<node id="-54367" lat="59.7267555543" lon="8.60112778441">
		<tag k="alt_name" v="Kovedalen, nedre;Kovdalen" />
		<tag k="name" v="Nedre Kovedalen" />
		<tag k="place" v="isolated_dwelling" />
		<tag k="ssr:stedsnr" v="792541" />
	</node>
	<node id="-54360" lat="59.6015916636" lon="8.62013332813">
		<tag k="name" v="Aabø" />
		<tag k="place" v="farm" />
		<tag k="ssr:stedsnr" v="774494" />
	</node>
	<node id="-54359" lat="59.606608334" lon="8.66340276984">
		<tag k="alt_name" v="Nordre Berge" />
		<tag k="fixme" v="consider place=hamlet" />
		<tag k="name" v="Berge nord" />
		<tag k="place" v="farm" />
		<tag k="ssr:stedsnr" v="773925" />
	</node>
	<node id="-54356" lat="59.6191722188" lon="8.84497500499">
		<tag k="name" v="Skårnes" />
		<tag k="place" v="farm" />
		<tag k="ssr:stedsnr" v="773654" />
	</node>
	<node id="-54354" lat="59.6039805517" lon="8.67878888577">
		<tag k="name" v="Haugen nord" />
		<tag k="place" v="farm" />
		<tag k="ssr:stedsnr" v="773259" />
	</node>
	<node id="-54350" lat="59.7651611099" lon="8.70828611129">
		<tag k="historic" v="shieling" />
		<tag k="name" v="Lonstul" />
		<tag k="place" v="locality" />
		<tag k="ssr:stedsnr" v="772921" />
	</node>
	<node id="-54347" lat="59.762258329" lon="8.80836943589">
		<tag k="alt_name" v="Gjuvstøl" />
		<tag k="fixme" v="consider place=hamlet" />
		<tag k="name" v="Gjuvstul" />
		<tag k="place" v="farm" />
		<tag k="ssr:stedsnr" v="914950" />
	</node>
	<node id="-54346" lat="59.8330805529" lon="8.50253055663">
		<tag k="historic" v="shieling" />
		<tag k="name" v="Lislestul" />
		<tag k="place" v="locality" />
		<tag k="ssr:stedsnr" v="914873" />
	</node>
	<node id="-54344" lat="59.6068083366" lon="8.67725555497">
		<tag k="alt_name" v="Gjerjordet" />
		<tag k="name" v="Gjerdejordet" />
		<tag k="place" v="farm" />
		<tag k="ssr:stedsnr" v="914855" />
	</node>
	<node id="-54343" lat="59.6019555595" lon="8.69843611625">
		<tag k="alt_name" v="Brennøyen" />
		<tag k="fixme" v="consider place=hamlet" />
		<tag k="name" v="Brennøyan" />
		<tag k="place" v="farm" />
		<tag k="ssr:stedsnr" v="914850" />
	</node>
	<node id="-54333" lat="59.7907999982" lon="8.68780556047">
		<tag k="name" v="Reisjå" />
		<tag k="place" v="farm" />
		<tag k="ssr:stedsnr" v="914776" />
	</node>
	<node id="-54330" lat="59.6372861073" lon="8.61566943805">
		<tag k="alt_name" v="Vihusstulene" />
		<tag k="historic" v="shieling" />
		<tag k="name" v="Vihus" />
		<tag k="place" v="locality" />
		<tag k="ssr:stedsnr" v="914744" />
	</node>
	<node id="-54328" lat="59.7179694482" lon="8.80656110326">
		<tag k="name" v="Råstul" />
		<tag k="place" v="isolated_dwelling" />
		<tag k="ssr:stedsnr" v="914642" />
	</node>
	<node id="-54323" lat="59.7739222213" lon="8.84603888039">
		<tag k="historic" v="shieling" />
		<tag k="name" v="Haugestul" />
		<tag k="place" v="locality" />
		<tag k="ssr:stedsnr" v="914282" />
	</node>
	<node id="-54315" lat="59.6080277744" lon="8.73497221393">
		<tag k="name" v="Tohaugen" />
		<tag k="place" v="farm" />
		<tag k="ssr:stedsnr" v="913816" />
	</node>
	<node id="-54314" lat="59.6159361072" lon="8.71071666139">
		<tag k="alt_name" v="Ellingsroe" />
		<tag k="name" v="Ellingsroi" />
		<tag k="place" v="locality" />
		<tag k="ssr:stedsnr" v="913812" />
	</node>
	<node id="-54313" lat="59.6158138914" lon="8.78919444504">
		<tag k="name" v="Finnebråten" />
		<tag k="place" v="farm" />
		<tag k="ssr:stedsnr" v="913806" />
	</node>
	<node id="-54312" lat="59.6225527743" lon="8.67747500002">
		<tag k="historic" v="shieling" />
		<tag k="name" v="Bekkestul" />
		<tag k="place" v="locality" />
		<tag k="ssr:stedsnr" v="913789" />
	</node>
	<node id="-54311" lat="59.6086999977" lon="8.70728610511">
		<tag k="fixme" v="consider place=hamlet" />
		<tag k="name" v="Bergsland" />
		<tag k="place" v="farm" />
		<tag k="ssr:stedsnr" v="913785" />
	</node>
	<node id="-54310" lat="59.6133999999" lon="8.54809999465">
		<tag k="name" v="Løkja" />
		<tag k="place" v="locality" />
		<tag k="ssr:stedsnr" v="913780" />
	</node>
	<node id="-54309" lat="59.6113000042" lon="8.61527500051">
		<tag k="name" v="Årus" />
		<tag k="place" v="farm" />
		<tag k="ssr:stedsnr" v="913771" />
	</node>
	<node id="-54308" lat="59.616566671" lon="8.65045000002">
		<tag k="historic" v="shieling" />
		<tag k="name" v="Løyning" />
		<tag k="place" v="locality" />
		<tag k="ssr:stedsnr" v="913765" />
	</node>
	<node id="-54307" lat="59.6150000003" lon="8.54908611906">
		<tag k="alt_name" v="Bjønnstul" />
		<tag k="historic" v="shieling" />
		<tag k="name" v="Bjørnstul" />
		<tag k="place" v="locality" />
		<tag k="ssr:stedsnr" v="913746" />
	</node>
	<node id="-54304" lat="59.6758194457" lon="8.49362500161">
		<tag k="historic" v="shieling" />
		<tag k="name" v="Aslebekk" />
		<tag k="place" v="locality" />
		<tag k="ssr:stedsnr" v="913682" />
	</node>
	<node id="-54301" lat="59.651566666" lon="8.68759166155">
		<tag k="historic" v="shieling" />
		<tag k="name" v="Vatnar" />
		<tag k="place" v="locality" />
		<tag k="ssr:stedsnr" v="913674" />
	</node>
	<node id="-54293" lat="59.7480333378" lon="8.82439165942">
		<tag k="alt_name" v="Nedre Hovde" />
		<tag k="fixme" v="consider place=hamlet" />
		<tag k="name" v="Hovde nistugo" />
		<tag k="place" v="farm" />
		<tag k="ssr:stedsnr" v="765285" />
	</node>
	<node id="-54290" lat="59.7431888927" lon="8.83614443804">
		<tag k="name" v="Kasin" />
		<tag k="place" v="farm" />
		<tag k="ssr:stedsnr" v="913555" />
	</node>
	<node id="-54288" lat="59.6162027812" lon="8.93934721872">
		<tag k="fixme" v="consider place=hamlet" />
		<tag k="name" v="Leine" />
		<tag k="place" v="farm" />
		<tag k="ssr:stedsnr" v="913361" />
	</node>
	<node id="-54287" lat="59.6030250016" lon="8.99728611562">
		<tag k="name" v="Fosse" />
		<tag k="place" v="farm" />
		<tag k="ssr:stedsnr" v="913355" />
	</node>
	<node id="-54285" lat="59.6248833339" lon="8.95276943881">
		<tag k="name" v="Koparviken" />
		<tag k="place" v="farm" />
		<tag k="ssr:stedsnr" v="913276" />
	</node>
	<node id="-54283" lat="59.6497750009" lon="8.98851388915">
		<tag k="alt_name" v="Tåterhus" />
		<tag k="name" v="Totrhus" />
		<tag k="place" v="locality" />
		<tag k="ssr:stedsnr" v="913192" />
	</node>
	<node id="-54282" lat="59.6413138848" lon="9.0004888937">
		<tag k="alt_name" v="Moskåtet" />
		<tag k="name" v="Moskotet" />
		<tag k="place" v="locality" />
		<tag k="ssr:stedsnr" v="913188" />
	</node>
	<node id="-54281" lat="59.697280553" lon="8.87287777059">
		<tag k="alt_name" v="Dålån" />
		<tag k="name" v="Dalen" />
		<tag k="place" v="farm" />
		<tag k="ssr:stedsnr" v="913158" />
	</node>
	<node id="-54278" lat="59.6654416705" lon="8.663586116">
		<tag k="historic" v="shieling" />
		<tag k="name" v="Fyristul" />
		<tag k="place" v="locality" />
		<tag k="ssr:stedsnr" v="731619" />
	</node>
	<node id="-54274" lat="59.6563083359" lon="8.77593055095">
		<tag k="historic" v="shieling" />
		<tag k="name" v="Vermelia" />
		<tag k="place" v="locality" />
		<tag k="ssr:stedsnr" v="731727" />
	</node>
	<node id="-54268" lat="59.610733335" lon="8.92110278533">
		<tag k="name" v="Frøland" />
		<tag k="place" v="farm" />
		<tag k="ssr:stedsnr" v="731335" />
	</node>
	<node id="-54267" lat="59.6106027734" lon="8.97192778601">
		<tag k="alt_name" v="Søndre Landsverk" />
		<tag k="fixme" v="consider place=hamlet" />
		<tag k="name" v="Landsverk" />
		<tag k="place" v="farm" />
		<tag k="ssr:stedsnr" v="731331" />
	</node>
	<node id="-54264" lat="59.6250416699" lon="8.90876666991">
		<tag k="name" v="Rinde" />
		<tag k="place" v="farm" />
		<tag k="ssr:stedsnr" v="731308" />
	</node>
	<node id="-54263" lat="59.6153527802" lon="8.8589916582">
		<tag k="alt_name" v="Skårnes, vestre" />
		<tag k="name" v="Vestre Skårnes" />
		<tag k="place" v="farm" />
		<tag k="ssr:stedsnr" v="731305" />
	</node>
	<node id="-54259" lat="59.6053222219" lon="8.71526666452">
		<tag k="name" v="Svarteberg" />
		<tag k="place" v="farm" />
		<tag k="ssr:stedsnr" v="896354" />
	</node>
	<node id="-54258" lat="59.6078472243" lon="8.69539999805">
		<tag k="name" v="Djupedal sud" />
		<tag k="place" v="farm" />
		<tag k="ssr:stedsnr" v="896176" />
	</node>
	<node id="-54257" lat="59.6056249974" lon="8.70184445229">
		<tag k="name" v="Dalen" />
		<tag k="place" v="farm" />
		<tag k="ssr:stedsnr" v="896159" />
	</node>
	<node id="-54256" lat="59.6188972221" lon="8.70675278654">
		<tag k="historic" v="shieling" />
		<tag k="name" v="Torgrimsholet" />
		<tag k="place" v="locality" />
		<tag k="ssr:stedsnr" v="896004" />
	</node>
	<node id="-54254" lat="59.6034194455" lon="8.65494722964">
		<tag k="name" v="Døsjå nedre" />
		<tag k="place" v="farm" />
		<tag k="ssr:stedsnr" v="895945" />
	</node>
	<node id="-54253" lat="59.6048361101" lon="8.65637499434">
		<tag k="name" v="Døsjå øvre" />
		<tag k="place" v="farm" />
		<tag k="ssr:stedsnr" v="895943" />
	</node>
	<node id="-54252" lat="59.5960916683" lon="9.01696666366">
		<tag k="name" v="Lia" />
		<tag k="place" v="farm" />
		<tag k="ssr:stedsnr" v="895904" />
	</node>
	<node id="-54251" lat="59.6217222196" lon="8.8181999983">
		<tag k="alt_name" v="Søndre Loner" />
		<tag k="fixme" v="consider place=hamlet" />
		<tag k="name" v="Lonar" />
		<tag k="place" v="farm" />
		<tag k="ssr:stedsnr" v="895893" />
	</node>
	<node id="-54247" lat="59.5893472222" lon="8.66680278568">
		<tag k="historic" v="shieling" />
		<tag k="name" v="Haugestul" />
		<tag k="place" v="locality" />
		<tag k="ssr:stedsnr" v="895703" />
	</node>
	<node id="-54246" lat="59.5940638875" lon="8.61939166825">
		<tag k="name" v="To" />
		<tag k="place" v="farm" />
		<tag k="ssr:stedsnr" v="895674" />
	</node>
	<node id="-54245" lat="59.8279277746" lon="8.57383333986">
		<tag k="historic" v="shieling" />
		<tag k="name" v="Nybu" />
		<tag k="place" v="locality" />
		<tag k="ssr:stedsnr" v="895664" />
	</node>
	<node id="-54241" lat="59.6105361122" lon="8.67317777926">
		<tag k="name" v="Nord Øverbø" />
		<tag k="place" v="farm" />
		<tag k="ssr:stedsnr" v="895226" />
	</node>
	<node id="-54235" lat="59.6566555553" lon="8.70530000829">
		<tag k="name" v="Uletjønn" />
		<tag k="place" v="locality" />
		<tag k="ssr:stedsnr" v="894951" />
	</node>
	<node id="-54234" lat="59.8096444423" lon="8.58527778612">
		<tag k="historic" v="shieling" />
		<tag k="name" v="Grønli" />
		<tag k="place" v="locality" />
		<tag k="ssr:stedsnr" v="894947" />
	</node>
	<node id="-54231" lat="59.7141222254" lon="8.70525833093">
		<tag k="name" v="Nystul" />
		<tag k="place" v="locality" />
		<tag k="ssr:stedsnr" v="894872" />
	</node>
	<node id="-54228" lat="59.6174249974" lon="8.94719999367">
		<tag k="name" v="Haughus" />
		<tag k="place" v="quarter" />
		<tag k="ssr:stedsnr" v="712707" />
	</node>
	<node id="-54224" lat="59.753372225" lon="8.75114999795">
		<tag k="alt_name" v="Åsen nordre" />
		<tag k="name" v="Nordre Åsen" />
		<tag k="place" v="farm" />
		<tag k="ssr:stedsnr" v="894627" />
	</node>
	<node id="-54219" lat="59.7429861129" lon="8.84369166264">
		<tag k="name" v="Rue nordre" />
		<tag k="place" v="farm" />
		<tag k="ssr:stedsnr" v="711163" />
	</node>
	<node id="-54218" lat="59.7830888864" lon="8.68757221509">
		<tag k="name" v="Osekås" />
		<tag k="place" v="locality" />
		<tag k="ssr:stedsnr" v="894444" />
	</node>
	<node id="-54214" lat="59.7208166698" lon="8.80820277079">
		<tag k="name" v="Nordkasin" />
		<tag k="place" v="locality" />
		<tag k="ssr:stedsnr" v="894370" />
	</node>
	<node id="-54213" lat="59.7387972214" lon="8.85839443635">
		<tag k="historic" v="shieling" />
		<tag k="name" v="Hafsteinstulen" />
		<tag k="place" v="locality" />
		<tag k="ssr:stedsnr" v="894272" />
	</node>
	<node id="-54212" lat="59.7407277739" lon="8.84533332762">
		<tag k="alt_name" v="Søndre Rui" />
		<tag k="fixme" v="consider place=hamlet" />
		<tag k="name" v="Rue søndre" />
		<tag k="place" v="farm" />
		<tag k="ssr:stedsnr" v="894269" />
	</node>
	<node id="-54209" lat="59.6825194411" lon="8.55818888403">
		<tag k="historic" v="shieling" />
		<tag k="name" v="Løkjeroe" />
		<tag k="place" v="locality" />
		<tag k="ssr:stedsnr" v="894225" />
	</node>
	<node id="-54204" lat="59.8083333377" lon="8.74759721507">
		<tag k="building" v="industrial" />
		<tag k="name" v="Vinsjehytta" />
		<tag k="ssr:stedsnr" v="894174" />
	</node>
	<node id="-54201" lat="59.7740499984" lon="8.58248610432">
		<tag k="historic" v="shieling" />
		<tag k="name" v="Rauneroi" />
		<tag k="place" v="locality" />
		<tag k="ssr:stedsnr" v="894108" />
	</node>
	<node id="-54198" lat="59.7156722252" lon="8.46730832995">
		<tag k="historic" v="shieling" />
		<tag k="name" v="Sandhaug" />
		<tag k="place" v="locality" />
		<tag k="ssr:stedsnr" v="887762" />
	</node>
	<node id="-54195" lat="59.5953388861" lon="9.00134166548">
		<tag k="name" v="Kåsa" />
		<tag k="place" v="farm" />
		<tag k="ssr:stedsnr" v="670323" />
	</node>
	<node id="-54194" lat="59.5782399942" lon="8.93492793331">
		<tag k="historic" v="shieling" />
		<tag k="name" v="Listulen" />
		<tag k="place" v="locality" />
		<tag k="ssr:stedsnr" v="670318" />
	</node>
	<node id="-54193" lat="59.5879302841" lon="8.97450246866">
		<tag k="name" v="Nystulholet" />
		<tag k="place" v="locality" />
		<tag k="ssr:stedsnr" v="670316" />
	</node>
	<node id="-54192" lat="59.5810111132" lon="8.92566667411">
		<tag k="name" v="Himinglia" />
		<tag k="place" v="locality" />
		<tag k="ssr:stedsnr" v="670311" />
	</node>
	<node id="-54191" lat="59.5964361101" lon="9.00650833553">
		<tag k="name" v="Haugen" />
		<tag k="place" v="farm" />
		<tag k="ssr:stedsnr" v="652892" />
	</node>
	<node id="-54189" lat="59.5996249987" lon="8.86881111538">
		<tag k="name" v="Opplistul" />
		<tag k="place" v="locality" />
		<tag k="ssr:stedsnr" v="652656" />
	</node>
	<node id="-54185" lat="59.608463892" lon="8.6964694413">
		<tag k="name" v="Gullhaug" />
		<tag k="place" v="isolated_dwelling" />
		<tag k="ssr:stedsnr" v="652314" />
	</node>
	<node id="-54176" lat="59.719958335" lon="8.84991944665">
		<tag k="name" v="Lona" />
		<tag k="place" v="farm" />
		<tag k="ssr:stedsnr" v="650069" />
	</node>
	<node id="-54175" lat="59.7702083326" lon="8.51610556433">
		<tag k="alt_name" v="Hellebua" />
		<tag k="historic" v="shieling" />
		<tag k="name" v="Hellebui" />
		<tag k="place" v="locality" />
		<tag k="ssr:stedsnr" v="733000" />
	</node>
	<node id="-54169" lat="59.7564166699" lon="8.55350555816">
		<tag k="alt_name" v="Lahaug" />
		<tag k="name" v="Lauvhaug" />
		<tag k="place" v="isolated_dwelling" />
		<tag k="ssr:stedsnr" v="732970" />
	</node>
	<node id="-53496" lat="59.6496333325" lon="8.59751944829">
		<tag k="alt_name" v="Fyrestul" />
		<tag k="historic" v="shieling" />
		<tag k="name" v="Fyristul" />
		<tag k="place" v="locality" />
		<tag k="ssr:stedsnr" v="3667" />
	</node>
	<node id="-54161" lat="59.7971944439" lon="8.57664165804">
		<tag k="alt_name" v="Reinstjønnstul" />
		<tag k="historic" v="shieling" />
		<tag k="name" v="Reinstjørn" />
		<tag k="place" v="locality" />
		<tag k="ssr:stedsnr" v="732813" />
	</node>
	<node id="-54160" lat="59.8090249962" lon="8.83386111849">
		<tag k="historic" v="shieling" />
		<tag k="name" v="Kråkenes" />
		<tag k="place" v="locality" />
		<tag k="ssr:stedsnr" v="732807" />
	</node>
	<node id="-54159" lat="59.808188889" lon="8.62457777642">
		<tag k="alt_name" v="Bondal, nedre" />
		<tag k="name" v="Nedre Bondal" />
		<tag k="place" v="farm" />
		<tag k="ssr:stedsnr" v="732797" />
	</node>
	<node id="-54158" lat="59.8204333343" lon="8.61757499843">
		<tag k="historic" v="shieling" />
		<tag k="name" v="Løytestul" />
		<tag k="place" v="locality" />
		<tag k="ssr:stedsnr" v="732779" />
	</node>
	<node id="-54157" lat="59.7960249964" lon="8.80400832804">
		<tag k="historic" v="shieling" />
		<tag k="name" v="Briskeroi" />
		<tag k="place" v="locality" />
		<tag k="ssr:stedsnr" v="732776" />
	</node>
	<node id="-54152" lat="59.8038749967" lon="8.72432778454">
		<tag k="historic" v="shieling" />
		<tag k="name" v="Fjellstul" />
		<tag k="place" v="locality" />
		<tag k="ssr:stedsnr" v="732756" />
	</node>
	<node id="-54149" lat="59.5871888848" lon="8.77940554717">
		<tag k="historic" v="shieling" />
		<tag k="name" v="Matklepp" />
		<tag k="place" v="locality" />
		<tag k="ssr:stedsnr" v="731920" />
	</node>
	<node id="-54147" lat="59.5985583355" lon="8.60540834143">
		<tag k="name" v="Åsen" />
		<tag k="place" v="locality" />
		<tag k="ssr:stedsnr" v="731860" />
	</node>
	<node id="-54146" lat="59.5958749976" lon="8.62512499678">
		<tag k="fixme" v="consider place=hamlet" />
		<tag k="name" v="Gutehus" />
		<tag k="place" v="farm" />
		<tag k="ssr:stedsnr" v="731844" />
	</node>
	<node id="-54142" lat="59.6129249969" lon="8.637141672">
		<tag k="name" v="Håtveit" />
		<tag k="place" v="farm" />
		<tag k="ssr:stedsnr" v="731805" />
	</node>
	<node id="-54141" lat="59.6082333334" lon="8.63641388658">
		<tag k="alt_name" v="Vestre Midbø" />
		<tag k="fixme" v="consider place=hamlet" />
		<tag k="name" v="Midtbøen" />
		<tag k="place" v="farm" />
		<tag k="ssr:stedsnr" v="731801" />
	</node>
	<node id="-54140" lat="59.6189000022" lon="8.67270278215">
		<tag k="historic" v="shieling" />
		<tag k="name" v="Kjerrstul" />
		<tag k="place" v="locality" />
		<tag k="ssr:stedsnr" v="731796" />
	</node>
	<node id="-54139" lat="59.615372223" lon="8.62893056187">
		<tag k="name" v="Bekkhushaugen" />
		<tag k="place" v="farm" />
		<tag k="ssr:stedsnr" v="731773" />
	</node>
	<node id="-54137" lat="59.6571749993" lon="8.51645832629">
		<tag k="historic" v="shieling" />
		<tag k="name" v="Svinom" />
		<tag k="place" v="locality" />
		<tag k="ssr:stedsnr" v="731690" />
	</node>
	<node id="-54132" lat="59.653950003" lon="8.63360833381">
		<tag k="historic" v="shieling" />
		<tag k="name" v="Kiviken" />
		<tag k="place" v="locality" />
		<tag k="ssr:stedsnr" v="731634" />
	</node>
	<node id="-54131" lat="59.7020694454" lon="8.53045277059">
		<tag k="historic" v="shieling" />
		<tag k="name" v="Gymoen" />
		<tag k="place" v="locality" />
		<tag k="ssr:stedsnr" v="731602" />
	</node>
	<node id="-54130" lat="59.6963277782" lon="8.56641943799">
		<tag k="alt_name" v="Vermbu" />
		<tag k="historic" v="shieling" />
		<tag k="name" v="Vermebui" />
		<tag k="place" v="locality" />
		<tag k="ssr:stedsnr" v="731580" />
	</node>
	<node id="-54128" lat="59.702116666" lon="8.6144111065">
		<tag k="alt_name" v="Gåseroe" />
		<tag k="name" v="Gåseroi" />
		<tag k="place" v="locality" />
		<tag k="ssr:stedsnr" v="731549" />
	</node>
	<node id="-54126" lat="59.7450749991" lon="8.79195832538">
		<tag k="alt_name" v="Sviksli" />
		<tag k="name" v="Svigsli" />
		<tag k="place" v="isolated_dwelling" />
		<tag k="ssr:stedsnr" v="731540" />
	</node>
	<node id="-54124" lat="59.731050001" lon="8.47875556043">
		<tag k="alt_name" v="Steinselroe" />
		<tag k="name" v="Steinselroi" />
		<tag k="place" v="isolated_dwelling" />
		<tag k="ssr:stedsnr" v="731532" />
	</node>
	<node id="-54123" lat="59.7251249985" lon="8.7421666609">
		<tag k="alt_name" v="Kovflåt" />
		<tag k="historic" v="shieling" />
		<tag k="name" v="Kovflott" />
		<tag k="place" v="locality" />
		<tag k="ssr:stedsnr" v="731524" />
	</node>
	<node id="-54121" lat="59.7480833349" lon="8.77265000428">
		<tag k="name" v="Kåsi" />
		<tag k="place" v="farm" />
		<tag k="ssr:stedsnr" v="731497" />
	</node>
	<node id="-54118" lat="59.5889944402" lon="8.96273611191">
		<tag k="name" v="Ruse" />
		<tag k="place" v="locality" />
		<tag k="ssr:stedsnr" v="731272" />
	</node>
	<node id="-54117" lat="59.5893166643" lon="8.97045277425">
		<tag k="historic" v="shieling" />
		<tag k="name" v="Nystul" />
		<tag k="place" v="locality" />
		<tag k="ssr:stedsnr" v="731270" />
	</node>
	<node id="-54116" lat="59.560241663" lon="8.89002500581">
		<tag k="name" v="Grostul" />
		<tag k="place" v="locality" />
		<tag k="ssr:stedsnr" v="731263" />
	</node>
	<node id="-54113" lat="59.7471083361" lon="8.46313055104">
		<tag k="alt_name" v="Butjørn" />
		<tag k="historic" v="shieling" />
		<tag k="name" v="Butjønn" />
		<tag k="place" v="locality" />
		<tag k="ssr:stedsnr" v="731190" />
	</node>
	<node id="-54112" lat="59.721780556" lon="8.88841388036">
		<tag k="name" v="Bjørndalen" />
		<tag k="place" v="farm" />
		<tag k="ssr:stedsnr" v="731083" />
	</node>
	<node id="-54111" lat="59.7083194437" lon="8.85980833948">
		<tag k="name" v="Osnes" />
		<tag k="place" v="isolated_dwelling" />
		<tag k="ssr:stedsnr" v="731071" />
	</node>
	<node id="-54109" lat="59.7898638914" lon="8.76020000004">
		<tag k="name" v="Hegnin" />
		<tag k="place" v="isolated_dwelling" />
		<tag k="ssr:stedsnr" v="610785" />
	</node>
	<node id="-54108" lat="59.7957333334" lon="8.63368055714">
		<tag k="name" v="Tåråldstul" />
		<tag k="place" v="locality" />
		<tag k="ssr:stedsnr" v="610781" />
	</node>
	<node id="-54107" lat="59.8039444488" lon="8.80387500464">
		<tag k="alt_name" v="Fågelii" />
		<tag k="historic" v="shieling" />
		<tag k="name" v="Fågerlii" />
		<tag k="place" v="locality" />
		<tag k="ssr:stedsnr" v="610775" />
	</node>
	<node id="-54105" lat="59.7586638913" lon="8.83279444977">
		<tag k="alt_name" v="Øverli" />
		<tag k="historic" v="shieling" />
		<tag k="name" v="Øverlistulen" />
		<tag k="place" v="locality" />
		<tag k="ssr:stedsnr" v="610937" />
	</node>
	<node id="-54104" lat="59.6175611134" lon="8.71918888975">
		<tag k="alt_name" v="Bjønndalen" />
		<tag k="historic" v="shieling" />
		<tag k="name" v="Bjørndalen" />
		<tag k="place" v="locality" />
		<tag k="ssr:stedsnr" v="609791" />
	</node>
	<node id="-54102" lat="59.6105777788" lon="8.67317778226">
		<tag k="name" v="Mellomstugo" />
		<tag k="place" v="farm" />
		<tag k="ssr:stedsnr" v="609772" />
	</node>
	<node id="-54101" lat="59.6144666655" lon="8.69346666146">
		<tag k="name" v="Gjuv" />
		<tag k="place" v="hamlet" />
		<tag k="ssr:stedsnr" v="609770" />
	</node>
	<node id="-54100" lat="59.6081888933" lon="8.56618889005">
		<tag k="alt_name" v="Dokkje" />
		<tag k="historic" v="shieling" />
		<tag k="name" v="Dokki" />
		<tag k="place" v="locality" />
		<tag k="ssr:stedsnr" v="609762" />
	</node>
	<node id="-54099" lat="59.6164944472" lon="8.54393055143">
		<tag k="historic" v="shieling" />
		<tag k="name" v="Ståldalen" />
		<tag k="place" v="locality" />
		<tag k="ssr:stedsnr" v="609761" />
	</node>
	<node id="-54098" lat="59.6121111093" lon="8.56541111506">
		<tag k="historic" v="shieling" />
		<tag k="name" v="Iglestul" />
		<tag k="place" v="locality" />
		<tag k="ssr:stedsnr" v="609760" />
	</node>
	<node id="-54096" lat="59.7022361109" lon="8.67867778281">
		<tag k="historic" v="shieling" />
		<tag k="name" v="Skulkhaug" />
		<tag k="place" v="locality" />
		<tag k="ssr:stedsnr" v="609559" />
	</node>
	<node id="-54095" lat="59.6683055581" lon="8.61453055174">
		<tag k="historic" v="shieling" />
		<tag k="name" v="Hombrekke" />
		<tag k="place" v="locality" />
		<tag k="ssr:stedsnr" v="609640" />
	</node>
	<node id="-54093" lat="59.6781861103" lon="8.62391943824">
		<tag k="alt_name" v="Hekkjer" />
		<tag k="historic" v="shieling" />
		<tag k="name" v="Hekkjar" />
		<tag k="place" v="locality" />
		<tag k="ssr:stedsnr" v="609626" />
	</node>
	<node id="-54091" lat="59.6992305574" lon="8.54015832844">
		<tag k="historic" v="shieling" />
		<tag k="name" v="Fyribøen" />
		<tag k="place" v="locality" />
		<tag k="ssr:stedsnr" v="609604" />
	</node>
	<node id="-54089" lat="59.6080555534" lon="8.93374444905">
		<tag k="name" v="Øygarden" />
		<tag k="place" v="farm" />
		<tag k="ssr:stedsnr" v="609363" />
	</node>
	<node id="-54088" lat="59.6064138872" lon="8.64779721372">
		<tag k="name" v="Lofthus søndre" />
		<tag k="place" v="farm" />
		<tag k="ssr:stedsnr" v="714926" />
	</node>
	<node id="-54087" lat="59.6116833306" lon="8.76595554801">
		<tag k="name" v="Bergstul" />
		<tag k="place" v="locality" />
		<tag k="ssr:stedsnr" v="713976" />
	</node>
	<node id="-54086" lat="59.6140888863" lon="8.74084444368">
		<tag k="name" v="Olavskås" />
		<tag k="place" v="locality" />
		<tag k="ssr:stedsnr" v="713947" />
	</node>
	<node id="-54085" lat="59.6207833349" lon="8.81418333189">
		<tag k="name" v="Lonar" />
		<tag k="place" v="farm" />
		<tag k="ssr:stedsnr" v="713907" />
	</node>
	<node id="-54084" lat="59.5583861114" lon="8.84114722101">
		<tag k="historic" v="shieling" />
		<tag k="name" v="Mjellandstulen" />
		<tag k="place" v="locality" />
		<tag k="ssr:stedsnr" v="713838" />
	</node>
	<node id="-54082" lat="59.5896055566" lon="8.58978055975">
		<tag k="name" v="Lislero" />
		<tag k="place" v="farm" />
		<tag k="ssr:stedsnr" v="713694" />
	</node>
	<node id="-54081" lat="59.5975583334" lon="8.61135833554">
		<tag k="name" v="Pytten" />
		<tag k="place" v="locality" />
		<tag k="ssr:stedsnr" v="713672" />
	</node>
	<node id="-54080" lat="59.5958277755" lon="8.5991833333">
		<tag k="name" v="Vasslaus" />
		<tag k="place" v="locality" />
		<tag k="ssr:stedsnr" v="713662" />
	</node>
	<node id="-54079" lat="59.6106861116" lon="8.62455277313">
		<tag k="name" v="Kruserud" />
		<tag k="place" v="isolated_dwelling" />
		<tag k="ssr:stedsnr" v="713475" />
	</node>
	<node id="-54078" lat="59.5975833291" lon="8.62377221784">
		<tag k="name" v="Guthus" />
		<tag k="place" v="farm" />
		<tag k="ssr:stedsnr" v="713456" />
	</node>
	<node id="-54077" lat="59.6118083341" lon="8.69800555491">
		<tag k="name" v="Rinde" />
		<tag k="place" v="isolated_dwelling" />
		<tag k="ssr:stedsnr" v="713347" />
	</node>
	<node id="-54076" lat="59.6052611096" lon="8.70599167174">
		<tag k="name" v="Rauhaug" />
		<tag k="place" v="quarter" />
		<tag k="ssr:stedsnr" v="713337" />
	</node>
	<node id="-54075" lat="59.6065805576" lon="8.70741667444">
		<tag k="alt_name" v="Dølene" />
		<tag k="fixme" v="consider place=hamlet" />
		<tag k="name" v="Dølen" />
		<tag k="place" v="farm" />
		<tag k="ssr:stedsnr" v="713315" />
	</node>
	<node id="-54074" lat="59.6222916669" lon="8.64914166522">
		<tag k="historic" v="shieling" />
		<tag k="name" v="Bøysing" />
		<tag k="place" v="locality" />
		<tag k="ssr:stedsnr" v="713264" />
	</node>
	<node id="-54073" lat="59.6097388855" lon="8.70039444068">
		<tag k="name" v="Haugeberg nord" />
		<tag k="place" v="farm" />
		<tag k="ssr:stedsnr" v="713171" />
	</node>
	<node id="-54072" lat="59.621016663" lon="8.69098611595">
		<tag k="name" v="Opsal" />
		<tag k="place" v="farm" />
		<tag k="ssr:stedsnr" v="713125" />
	</node>
	<node id="-54071" lat="59.8336666643" lon="8.51050555978">
		<tag k="historic" v="shieling" />
		<tag k="name" v="Deilstul nordre" />
		<tag k="place" v="locality" />
		<tag k="ssr:stedsnr" v="713588" />
	</node>
	<node id="-54070" lat="59.6130500024" lon="8.63736110429">
		<tag k="fixme" v="consider place=hamlet" />
		<tag k="name" v="Håtveit øvre" />
		<tag k="place" v="farm" />
		<tag k="ssr:stedsnr" v="592525" />
	</node>
	<node id="-54069" lat="59.7921749981" lon="8.74865277391">
		<tag k="historic" v="shieling" />
		<tag k="name" v="Veabekk" />
		<tag k="place" v="locality" />
		<tag k="ssr:stedsnr" v="712723" />
	</node>
	<node id="-54068" lat="59.6111037071" lon="8.92095407285">
		<tag k="alt_name" v="Bergene" />
		<tag k="fixme" v="consider place=hamlet" />
		<tag k="name" v="Bergen" />
		<tag k="place" v="farm" />
		<tag k="ssr:stedsnr" v="592003" />
	</node>
	<node id="-54067" lat="59.7756944472" lon="8.68679445013">
		<tag k="name" v="Toin" />
		<tag k="place" v="locality" />
		<tag k="ssr:stedsnr" v="712383" />
	</node>
	<node id="-55675" lat="59.7606722267" lon="8.79930833582">
		<tag k="name" v="Haugen" />
		<tag k="place" v="farm" />
		<tag k="ssr:stedsnr" v="955700" />
	</node>
	<node id="-54062" lat="59.6559527745" lon="8.75751389204">
		<tag k="historic" v="shieling" />
		<tag k="name" v="Sønnstul" />
		<tag k="place" v="locality" />
		<tag k="ssr:stedsnr" v="590930" />
	</node>
	<node id="-54056" lat="59.7601555543" lon="8.7182888924">
		<tag k="name" v="Mostulen" />
		<tag k="place" v="locality" />
		<tag k="ssr:stedsnr" v="711927" />
	</node>
	<node id="-54045" lat="59.7171499981" lon="8.8571833299">
		<tag k="name" v="Runningen nedre" />
		<tag k="place" v="farm" />
		<tag k="ssr:stedsnr" v="711072" />
	</node>
	<node id="-54044" lat="59.7180944463" lon="8.85936666223">
		<tag k="name" v="Runningen øvre" />
		<tag k="place" v="farm" />
		<tag k="ssr:stedsnr" v="711070" />
	</node>
	<node id="-54041" lat="59.7520499985" lon="8.74912777156">
		<tag k="name" v="Kyrkjejordet" />
		<tag k="place" v="farm" />
		<tag k="ssr:stedsnr" v="704591" />
	</node>
	<node id="-54038" lat="59.7425083363" lon="8.84940000281">
		<tag k="name" v="Venås" />
		<tag k="place" v="farm" />
		<tag k="ssr:stedsnr" v="549023" />
	</node>
	<node id="-54032" lat="59.8444111095" lon="8.78410556365">
		<tag k="name" v="Gvæven" />
		<tag k="place" v="locality" />
		<tag k="ssr:stedsnr" v="531182" />
	</node>
	<node id="-54031" lat="59.6108805581" lon="8.9002194392">
		<tag k="name" v="Likollkåsa" />
		<tag k="place" v="locality" />
		<tag k="ssr:stedsnr" v="530965" />
	</node>
	<node id="-54029" lat="59.6203916627" lon="8.91486111065">
		<tag k="name" v="Mosebø" />
		<tag k="place" v="farm" />
		<tag k="ssr:stedsnr" v="531036" />
	</node>
	<node id="-54028" lat="59.6196638848" lon="8.91710000536">
		<tag k="name" v="Mosebø" />
		<tag k="place" v="farm" />
		<tag k="ssr:stedsnr" v="531034" />
	</node>
	<node id="-54025" lat="59.7686305577" lon="8.63095277724">
		<tag k="historic" v="shieling" />
		<tag k="name" v="Lauvhovd" />
		<tag k="place" v="locality" />
		<tag k="ssr:stedsnr" v="530156" />
	</node>
	<node id="-54024" lat="59.6109361116" lon="8.9641861112">
		<tag k="name" v="Øygardsfeltet" />
		<tag k="place" v="quarter" />
		<tag k="ssr:stedsnr" v="530234" />
	</node>
	<node id="-54022" lat="59.7834805531" lon="8.62374166868">
		<tag k="name" v="Storesand" />
		<tag k="place" v="locality" />
		<tag k="ssr:stedsnr" v="530003" />
	</node>
	<node id="-54015" lat="59.6856500035" lon="8.75347222725">
		<tag k="name" v="Bekkjestul" />
		<tag k="place" v="locality" />
		<tag k="ssr:stedsnr" v="529406" />
	</node>
	<node id="-54010" lat="59.7634500008" lon="8.86034444948">
		<tag k="name" v="Kåldalen" />
		<tag k="place" v="isolated_dwelling" />
		<tag k="ssr:stedsnr" v="489305" />
	</node>
	<node id="-54008" lat="59.6842083323" lon="8.61448889624">
		<tag k="alt_name" v="Skarstul" />
		<tag k="historic" v="shieling" />
		<tag k="name" v="Skardstul" />
		<tag k="place" v="locality" />
		<tag k="ssr:stedsnr" v="488604" />
	</node>
	<node id="-54002" lat="59.7415499996" lon="8.83826666718">
		<tag k="name" v="Ruekåsa" />
		<tag k="place" v="farm" />
		<tag k="ssr:stedsnr" v="673311" />
	</node>
	<node id="-54000" lat="59.7735083359" lon="8.69740556293">
		<tag k="name" v="Steinsrud" />
		<tag k="place" v="farm" />
		<tag k="ssr:stedsnr" v="671997" />
	</node>
	<node id="-53999" lat="59.7742499966" lon="8.72681665993">
		<tag k="name" v="Lii" />
		<tag k="place" v="farm" />
		<tag k="ssr:stedsnr" v="671989" />
	</node>
	<node id="-53996" lat="59.6003277744" lon="8.6648277841">
		<tag k="alt_name" v="Mælandmoen" />
		<tag k="name" v="Mælandsmoen" />
		<tag k="place" v="farm" />
		<tag k="ssr:stedsnr" v="671858" />
	</node>
	<node id="-53995" lat="59.6063415133" lon="8.68863476842">
		<tag k="fixme" v="consider place=hamlet" />
		<tag k="name" v="Luten" />
		<tag k="place" v="farm" />
		<tag k="ssr:stedsnr" v="671854" />
	</node>
	<node id="-53994" lat="59.6027527757" lon="8.70523334205">
		<tag k="name" v="Gvammen" />
		<tag k="place" v="hamlet" />
		<tag k="ssr:stedsnr" v="671853" />
	</node>
	<node id="-53992" lat="59.8219722222" lon="8.52909167323">
		<tag k="alt_name" v="Grunntjørn" />
		<tag k="historic" v="shieling" />
		<tag k="name" v="Grunntjønn" />
		<tag k="place" v="locality" />
		<tag k="ssr:stedsnr" v="671842" />
	</node>
	<node id="-53991" lat="59.8304000021" lon="8.72360832561">
		<tag k="name" v="Stavsrohytta" />
		<tag k="place" v="isolated_dwelling" />
		<tag k="ssr:stedsnr" v="671833" />
	</node>
	<node id="-53989" lat="59.6065000014" lon="8.73259166997">
		<tag k="name" v="Tute" />
		<tag k="place" v="farm" />
		<tag k="ssr:stedsnr" v="671828" />
	</node>
	<node id="-53988" lat="59.8259250032" lon="8.481341667">
		<tag k="alt_name" v="Brenderoe" />
		<tag k="historic" v="shieling" />
		<tag k="name" v="Brenneroi" />
		<tag k="place" v="locality" />
		<tag k="ssr:stedsnr" v="671824" />
	</node>
	<node id="-53980" lat="59.8064111149" lon="8.62800277128">
		<tag k="alt_name" v="Bergstuen" />
		<tag k="fixme" v="consider place=hamlet" />
		<tag k="name" v="Bergstugo" />
		<tag k="place" v="farm" />
		<tag k="ssr:stedsnr" v="671786" />
	</node>
	<node id="-53978" lat="59.8158166662" lon="8.66968889379">
		<tag k="historic" v="shieling" />
		<tag k="name" v="Svartufs" />
		<tag k="place" v="locality" />
		<tag k="ssr:stedsnr" v="671777" />
	</node>
	<node id="-53975" lat="59.6411305535" lon="8.58297500111">
		<tag k="alt_name" v="Årmarskjerr" />
		<tag k="historic" v="shieling" />
		<tag k="name" v="Ormeskjer" />
		<tag k="place" v="locality" />
		<tag k="ssr:stedsnr" v="671762" />
	</node>
	<node id="-53973" lat="59.8006027787" lon="8.73217778215">
		<tag k="historic" v="shieling" />
		<tag k="name" v="Bekkjestul" />
		<tag k="place" v="locality" />
		<tag k="ssr:stedsnr" v="671752" />
	</node>
	<node id="-53972" lat="59.6339916637" lon="8.63248055804">
		<tag k="historic" v="shieling" />
		<tag k="name" v="Bossdal" />
		<tag k="place" v="locality" />
		<tag k="ssr:stedsnr" v="671729" />
	</node>
	<node id="-53970" lat="59.6918500043" lon="8.64763611597">
		<tag k="historic" v="shieling" />
		<tag k="name" v="Uppgammen" />
		<tag k="place" v="locality" />
		<tag k="ssr:stedsnr" v="671646" />
	</node>
	<node id="-53969" lat="59.7317833337" lon="8.79721667125">
		<tag k="name" v="Solset" />
		<tag k="place" v="farm" />
		<tag k="ssr:stedsnr" v="671622" />
	</node>
	<node id="-53966" lat="59.7259277798" lon="8.85141389473">
		<tag k="alt_name" v="Kjeldalen" />
		<tag k="fixme" v="consider place=hamlet" />
		<tag k="name" v="Kjelddalen" />
		<tag k="place" v="farm" />
		<tag k="ssr:stedsnr" v="671117" />
	</node>
	<node id="-53965" lat="59.7228972206" lon="8.85327777369">
		<tag k="name" v="Sønnland" />
		<tag k="place" v="farm" />
		<tag k="ssr:stedsnr" v="671113" />
	</node>
	<node id="-53963" lat="59.7326666643" lon="8.86224999326">
		<tag k="name" v="Dalen" />
		<tag k="place" v="locality" />
		<tag k="ssr:stedsnr" v="671107" />
	</node>
	<node id="-53960" lat="59.5995194431" lon="8.61928889004">
		<tag k="name" v="Åbø" />
		<tag k="place" v="farm" />
		<tag k="ssr:stedsnr" v="670866" />
	</node>
	<node id="-53959" lat="59.5967749985" lon="8.61916389608">
		<tag k="name" v="To" />
		<tag k="place" v="hamlet" />
		<tag k="ssr:stedsnr" v="670864" />
	</node>
	<node id="-53958" lat="59.5943111114" lon="8.59490277271">
		<tag k="alt_name" v="Ballås" />
		<tag k="name" v="Bøllås" />
		<tag k="place" v="farm" />
		<tag k="ssr:stedsnr" v="670863" />
	</node>
	<node id="-53956" lat="59.6044388923" lon="8.63326945073">
		<tag k="alt_name" v="Elverhøy" />
		<tag k="name" v="Elverhøi" />
		<tag k="place" v="farm" />
		<tag k="ssr:stedsnr" v="670836" />
	</node>
	<node id="-53955" lat="59.5973166645" lon="8.8333499931">
		<tag k="name" v="Lorthol" />
		<tag k="place" v="isolated_dwelling" />
		<tag k="ssr:stedsnr" v="670822" />
	</node>
	<node id="-53952" lat="59.6154500041" lon="8.62880277048">
		<tag k="name" v="Kåsa" />
		<tag k="place" v="farm" />
		<tag k="ssr:stedsnr" v="670770" />
	</node>
	<node id="-53951" lat="59.6119027762" lon="8.60396111181">
		<tag k="fixme" v="consider place=hamlet" />
		<tag k="name" v="Hovdejord" />
		<tag k="place" v="farm" />
		<tag k="ssr:stedsnr" v="670769" />
	</node>
	<node id="-53947" lat="59.6834333333" lon="8.69326388766">
		<tag k="historic" v="shieling" />
		<tag k="name" v="Beggestul" />
		<tag k="place" v="locality" />
		<tag k="ssr:stedsnr" v="670650" />
	</node>
	<node id="-53945" lat="59.7088249965" lon="8.46923889087">
		<tag k="alt_name" v="Heimnamnlaus" />
		<tag k="historic" v="shieling" />
		<tag k="name" v="Namnlaus" />
		<tag k="place" v="locality" />
		<tag k="ssr:stedsnr" v="670620" />
	</node>
	<node id="-53940" lat="59.7455694401" lon="8.81648888614">
		<tag k="alt_name" v="Øya" />
		<tag k="name" v="Øyan" />
		<tag k="place" v="farm" />
		<tag k="ssr:stedsnr" v="670566" />
	</node>
	<node id="-53939" lat="59.7444027811" lon="8.83884167086">
		<tag k="name" v="Hagen" />
		<tag k="place" v="farm" />
		<tag k="ssr:stedsnr" v="670561" />
	</node>
	<node id="-53936" lat="59.7315999982" lon="8.73052499169">
		<tag k="name" v="Gyving" />
		<tag k="place" v="locality" />
		<tag k="ssr:stedsnr" v="670536" />
	</node>
	<node id="-53934" lat="59.7405250024" lon="8.60133889176">
		<tag k="alt_name" v="Risbui, s;Risbue søndre" />
		<tag k="historic" v="shieling" />
		<tag k="name" v="Søndre Risbui" />
		<tag k="place" v="locality" />
		<tag k="ssr:stedsnr" v="670507" />
	</node>
	<node id="-53933" lat="59.6102694426" lon="8.92626110629">
		<tag k="name" v="Slåttekåsa" />
		<tag k="place" v="farm" />
		<tag k="ssr:stedsnr" v="670367" />
	</node>
	<node id="-53932" lat="59.6207027808" lon="8.94355556344">
		<tag k="alt_name" v="Søndre Bø" />
		<tag k="fixme" v="consider place=hamlet" />
		<tag k="name" v="Bø" />
		<tag k="place" v="farm" />
		<tag k="ssr:stedsnr" v="670355" />
	</node>
	<node id="-53931" lat="59.6204833324" lon="8.91540833699">
		<tag k="name" v="Skrivargarden" />
		<tag k="place" v="farm" />
		<tag k="ssr:stedsnr" v="670353" />
	</node>
	<node id="-53930" lat="59.7016194478" lon="8.88489166447">
		<tag k="name" v="Bekkhus" />
		<tag k="place" v="farm" />
		<tag k="ssr:stedsnr" v="670086" />
	</node>
	<node id="-53929" lat="59.618966664" lon="8.96762222006">
		<tag k="name" v="Runningen" />
		<tag k="place" v="locality" />
		<tag k="ssr:stedsnr" v="470109" />
	</node>
	<node id="-53927" lat="59.7241722229" lon="8.85161388778">
		<tag k="name" v="Kjelddalen søndre" />
		<tag k="place" v="farm" />
		<tag k="ssr:stedsnr" v="468214" />
	</node>
	<node id="-53925" lat="59.6026388871" lon="9.0117055473">
		<tag k="name" v="Ørvella" />
		<tag k="place" v="farm" />
		<tag k="ssr:stedsnr" v="670255" />
	</node>
	<node id="-53924" lat="59.815597219" lon="8.60538610227">
		<tag k="name" v="Bondal" />
		<tag k="place" v="hamlet" />
		<tag k="ssr:stedsnr" v="449607" />
	</node>
	<node id="-53921" lat="59.625086112" lon="8.76206388027">
		<tag k="name" v="Rostul" />
		<tag k="place" v="locality" />
		<tag k="ssr:stedsnr" v="428815" />
	</node>
	<node id="-53920" lat="59.6094444426" lon="8.76125555259">
		<tag k="fixme" v="consider place=hamlet" />
		<tag k="name" v="Tveiten" />
		<tag k="place" v="farm" />
		<tag k="ssr:stedsnr" v="428813" />
	</node>
	<node id="-53918" lat="59.8113833318" lon="8.81969444066">
		<tag k="name" v="Listul" />
		<tag k="place" v="locality" />
		<tag k="ssr:stedsnr" v="428807" />
	</node>
	<node id="-53912" lat="59.6637250012" lon="8.66648056315">
		<tag k="historic" v="shieling" />
		<tag k="name" v="Løyning" />
		<tag k="place" v="locality" />
		<tag k="ssr:stedsnr" v="428633" />
	</node>
	<node id="-53911" lat="59.6669361121" lon="8.65350832479">
		<tag k="alt_name" v="Breivasstulen" />
		<tag k="historic" v="shieling" />
		<tag k="name" v="Breidvasstulen" />
		<tag k="place" v="locality" />
		<tag k="ssr:stedsnr" v="428632" />
	</node>
	<node id="-53910" lat="59.6849305584" lon="8.51929166252">
		<tag k="historic" v="shieling" />
		<tag k="name" v="Skeie" />
		<tag k="place" v="locality" />
		<tag k="ssr:stedsnr" v="428625" />
	</node>
	<node id="-53909" lat="59.6866500041" lon="8.51539445264">
		<tag k="alt_name" v="Dokkeroe" />
		<tag k="historic" v="shieling" />
		<tag k="name" v="Dokkeroi" />
		<tag k="place" v="locality" />
		<tag k="ssr:stedsnr" v="428624" />
	</node>
	<node id="-53904" lat="59.6133166642" lon="8.7402361099">
		<tag k="name" v="Amundskås" />
		<tag k="place" v="locality" />
		<tag k="ssr:stedsnr" v="409931" />
	</node>
	<node id="-53902" lat="59.6121444433" lon="8.99163611328">
		<tag k="name" v="Kåsafeltet" />
		<tag k="place" v="quarter" />
		<tag k="ssr:stedsnr" v="409902" />
	</node>
	<node id="-53899" lat="59.7111361104" lon="8.7387555488">
		<tag k="name" v="Hånådalen" />
		<tag k="place" v="locality" />
		<tag k="ssr:stedsnr" v="408418" />
	</node>
	<node id="-53894" lat="59.7703805593" lon="8.63563054666">
		<tag k="historic" v="shieling" />
		<tag k="name" v="Øvrestul" />
		<tag k="place" v="locality" />
		<tag k="ssr:stedsnr" v="489991" />
	</node>
	<node id="-53890" lat="59.7816944472" lon="8.77363889738">
		<tag k="alt_name" v="Toskjer" />
		<tag k="name" v="Toskjær" />
		<tag k="place" v="neighbourhood" />
		<tag k="ssr:stedsnr" v="489973" />
	</node>
	<node id="-53555" lat="59.6322527809" lon="8.62388054836">
		<tag k="alt_name" v="Leiushovd" />
		<tag k="historic" v="shieling" />
		<tag k="name" v="Leihushovd" />
		<tag k="place" v="locality" />
		<tag k="ssr:stedsnr" v="64745" />
	</node>
	<node id="-53883" lat="59.8336527813" lon="8.50958611903">
		<tag k="name" v="Deilstul" />
		<tag k="place" v="isolated_dwelling" />
		<tag k="ssr:stedsnr" v="489868" />
	</node>
	<node id="-53879" lat="59.8076000009" lon="8.63157499339">
		<tag k="fixme" v="consider place=hamlet" />
		<tag k="name" v="Åkre" />
		<tag k="place" v="farm" />
		<tag k="ssr:stedsnr" v="489798" />
	</node>
	<node id="-53878" lat="59.7877861094" lon="8.70479444898">
		<tag k="name" v="Kasin" />
		<tag k="place" v="farm" />
		<tag k="ssr:stedsnr" v="489775" />
	</node>
	<node id="-53875" lat="59.7069749996" lon="8.72462777034">
		<tag k="historic" v="shieling" />
		<tag k="name" v="Nystul" />
		<tag k="place" v="locality" />
		<tag k="ssr:stedsnr" v="489635" />
	</node>
	<node id="-53691" lat="59.6138500039" lon="8.95079167235">
		<tag k="name" v="Hagen" />
		<tag k="place" v="farm" />
		<tag k="ssr:stedsnr" v="289048" />
	</node>
	<node id="-53871" lat="59.6010500037" lon="8.66889165914">
		<tag k="name" v="Mæland" />
		<tag k="place" v="farm" />
		<tag k="ssr:stedsnr" v="488850" />
	</node>
	<node id="-53870" lat="59.5937666631" lon="8.69411111434">
		<tag k="historic" v="shieling" />
		<tag k="name" v="Dålån" />
		<tag k="place" v="locality" />
		<tag k="ssr:stedsnr" v="488849" />
	</node>
	<node id="-53869" lat="59.6007305559" lon="8.65316943833">
		<tag k="fixme" v="consider place=hamlet" />
		<tag k="name" v="Hjartdal" />
		<tag k="place" v="village" />
		<tag k="ssr:stedsnr" v="488836" />
	</node>
	<node id="-53868" lat="59.6053277801" lon="8.64626389654">
		<tag k="alt_name" v="Jore" />
		<tag k="name" v="Jordet" />
		<tag k="place" v="farm" />
		<tag k="ssr:stedsnr" v="488834" />
	</node>
	<node id="-53867" lat="59.6032749971" lon="8.65483888365">
		<tag k="fixme" v="consider place=hamlet" />
		<tag k="name" v="Dysjå" />
		<tag k="place" v="farm" />
		<tag k="ssr:stedsnr" v="488833" />
	</node>
	<node id="-53866" lat="59.5970750014" lon="8.82573056188">
		<tag k="alt_name" v="Tjørnstul" />
		<tag k="historic" v="shieling" />
		<tag k="name" v="Tjønnstul" />
		<tag k="place" v="locality" />
		<tag k="ssr:stedsnr" v="488830" />
	</node>
	<node id="-53864" lat="59.6197638887" lon="8.82509999992">
		<tag k="alt_name" v="Eikermoen" />
		<tag k="name" v="Eikemoen" />
		<tag k="place" v="farm" />
		<tag k="ssr:stedsnr" v="488825" />
	</node>
	<node id="-53863" lat="59.6040666624" lon="8.70376667496">
		<tag k="fixme" v="consider place=hamlet" />
		<tag k="name" v="Fune" />
		<tag k="place" v="farm" />
		<tag k="ssr:stedsnr" v="488822" />
	</node>
	<node id="-53862" lat="59.6177749389" lon="8.70405144603">
		<tag k="name" v="Livroi" />
		<tag k="place" v="locality" />
		<tag k="ssr:stedsnr" v="488817" />
	</node>
	<node id="-53861" lat="59.6209527754" lon="8.70769166966">
		<tag k="alt_name" v="Gåseroe" />
		<tag k="historic" v="shieling" />
		<tag k="name" v="Gåseroi" />
		<tag k="place" v="locality" />
		<tag k="ssr:stedsnr" v="488815" />
	</node>
	<node id="-53860" lat="59.6097083349" lon="8.74776944886">
		<tag k="alt_name" v="Strand" />
		<tag k="name" v="Strond" />
		<tag k="place" v="farm" />
		<tag k="ssr:stedsnr" v="488809" />
	</node>
	<node id="-53859" lat="59.6093944439" lon="8.66787499206">
		<tag k="name" v="Kasin" />
		<tag k="place" v="farm" />
		<tag k="ssr:stedsnr" v="488806" />
	</node>
	<node id="-53858" lat="59.6107555534" lon="8.676650006">
		<tag k="fixme" v="consider place=hamlet" />
		<tag k="name" v="Øverbø" />
		<tag k="place" v="farm" />
		<tag k="ssr:stedsnr" v="488803" />
	</node>
	<node id="-53857" lat="59.6077916696" lon="8.71399445302">
		<tag k="name" v="Hegna" />
		<tag k="place" v="farm" />
		<tag k="ssr:stedsnr" v="488797" />
	</node>
	<node id="-53856" lat="59.6189962367" lon="8.54130778934">
		<tag k="alt_name" v="Bakkestul" />
		<tag k="historic" v="shieling" />
		<tag k="name" v="Bakkestulen" />
		<tag k="place" v="locality" />
		<tag k="ssr:stedsnr" v="488775" />
	</node>
	<node id="-53855" lat="59.6366888917" lon="8.55477500382">
		<tag k="alt_name" v="Herto, øvre;Hærto øvre" />
		<tag k="historic" v="shieling" />
		<tag k="name" v="Øvre Herto" />
		<tag k="place" v="locality" />
		<tag k="ssr:stedsnr" v="488767" />
	</node>
	<node id="-53851" lat="59.6391805535" lon="8.68366111434">
		<tag k="historic" v="shieling" />
		<tag k="name" v="Langeli" />
		<tag k="place" v="locality" />
		<tag k="ssr:stedsnr" v="488720" />
	</node>
	<node id="-53849" lat="59.6760499968" lon="8.56270555302">
		<tag k="historic" v="shieling" />
		<tag k="name" v="Hundemyr" />
		<tag k="place" v="locality" />
		<tag k="ssr:stedsnr" v="488693" />
	</node>
	<node id="-53844" lat="59.6582611103" lon="8.65693333499">
		<tag k="alt_name" v="Fjølåbua" />
		<tag k="historic" v="shieling" />
		<tag k="name" v="Fjølabui" />
		<tag k="place" v="locality" />
		<tag k="ssr:stedsnr" v="488636" />
	</node>
	<node id="-53843" lat="59.67546389" lon="8.63010832739">
		<tag k="historic" v="shieling" />
		<tag k="name" v="Matklepp" />
		<tag k="place" v="locality" />
		<tag k="ssr:stedsnr" v="488633" />
	</node>
	<node id="-53842" lat="59.7124027777" lon="8.5668166656">
		<tag k="alt_name" v="Lekkjenuten, s;Lekkjenuten" />
		<tag k="historic" v="shieling" />
		<tag k="name" v="Søre Lekkjenuten" />
		<tag k="place" v="locality" />
		<tag k="ssr:stedsnr" v="488621" />
	</node>
	<node id="-53835" lat="59.6235777757" lon="8.89856111314">
		<tag k="name" v="Brekka" />
		<tag k="place" v="farm" />
		<tag k="ssr:stedsnr" v="488325" />
	</node>
	<node id="-53833" lat="59.5928111137" lon="8.92495000682">
		<tag k="alt_name" v="Bekkestul" />
		<tag k="historic" v="shieling" />
		<tag k="name" v="Bekkestulan" />
		<tag k="place" v="locality" />
		<tag k="ssr:stedsnr" v="488296" />
	</node>
	<node id="-53831" lat="59.5854555531" lon="8.96220832996">
		<tag k="alt_name" v="Tjørnholet" />
		<tag k="historic" v="shieling" />
		<tag k="name" v="Tjønnholet" />
		<tag k="place" v="locality" />
		<tag k="ssr:stedsnr" v="488289" />
	</node>
	<node id="-53830" lat="59.579124998" lon="8.93145000267">
		<tag k="name" v="Hukstulen" />
		<tag k="place" v="locality" />
		<tag k="ssr:stedsnr" v="488287" />
	</node>
	<node id="-53829" lat="59.6070500021" lon="9.02076111816">
		<tag k="name" v="Ørvella" />
		<tag k="place" v="farm" />
		<tag k="ssr:stedsnr" v="488277" />
	</node>
	<node id="-53827" lat="59.6517945139" lon="8.90802777231">
		<tag k="name" v="Dalen" />
		<tag k="place" v="locality" />
		<tag k="ssr:stedsnr" v="488176" />
	</node>
	<node id="-53825" lat="59.6158083332" lon="8.97089721544">
		<tag k="name" v="Omnes øvre" />
		<tag k="place" v="farm" />
		<tag k="ssr:stedsnr" v="349176" />
	</node>
	<node id="-53824" lat="59.6163138875" lon="8.96029444015">
		<tag k="name" v="Skoje søndre" />
		<tag k="place" v="farm" />
		<tag k="ssr:stedsnr" v="349152" />
	</node>
	<node id="-53660" lat="59.6120055599" lon="8.6942333379">
		<tag k="name" v="Åkre øvre" />
		<tag k="place" v="farm" />
		<tag k="ssr:stedsnr" v="167365" />
	</node>
	<node id="-53822" lat="59.6192361089" lon="8.78312222418">
		<tag k="name" v="Rauneflåta" />
		<tag k="place" v="locality" />
		<tag k="ssr:stedsnr" v="348863" />
	</node>
	<node id="-53821" lat="59.8151083372" lon="8.54063056275">
		<tag k="historic" v="shieling" />
		<tag k="name" v="Lauvhøvd" />
		<tag k="place" v="locality" />
		<tag k="ssr:stedsnr" v="348564" />
	</node>
	<node id="-53820" lat="59.5947444488" lon="8.6146694492">
		<tag k="name" v="Nord-To" />
		<tag k="old_name" v="Nord To" />
		<tag k="place" v="farm" />
		<tag k="ssr:stedsnr" v="348672" />
	</node>
	<node id="-53818" lat="59.7675138845" lon="8.77762500063">
		<tag k="name" v="Saubø" />
		<tag k="place" v="farm" />
		<tag k="ssr:stedsnr" v="348420" />
	</node>
	<node id="-53817" lat="59.6022138904" lon="8.96371944678">
		<tag k="name" v="Kleiva" />
		<tag k="place" v="locality" />
		<tag k="ssr:stedsnr" v="348220" />
	</node>
	<node id="-53812" lat="59.8023361077" lon="8.73098056025">
		<tag k="historic" v="shieling" />
		<tag k="name" v="Lii" />
		<tag k="place" v="locality" />
		<tag k="ssr:stedsnr" v="347707" />
	</node>
	<node id="-53811" lat="59.6514055591" lon="8.91018333807">
		<tag k="name" v="Stålan" />
		<tag k="place" v="locality" />
		<tag k="ssr:stedsnr" v="347609" />
	</node>
	<node id="-53807" lat="59.7181999964" lon="8.86503611732">
		<tag k="historic" v="shieling" />
		<tag k="name" v="Kolakåsa" />
		<tag k="place" v="locality" />
		<tag k="ssr:stedsnr" v="347064" />
	</node>
	<node id="-53805" lat="59.5977444413" lon="8.64686388386">
		<tag k="name" v="Flatland nordre" />
		<tag k="place" v="farm" />
		<tag k="ssr:stedsnr" v="471937" />
	</node>
	<node id="-53804" lat="59.6003666685" lon="8.66499721533">
		<tag k="name" v="Skårnesmoen" />
		<tag k="place" v="farm" />
		<tag k="ssr:stedsnr" v="471777" />
	</node>
	<node id="-53802" lat="59.8106555564" lon="8.674144448">
		<tag k="historic" v="shieling" />
		<tag k="name" v="Ljosbekk" />
		<tag k="place" v="locality" />
		<tag k="ssr:stedsnr" v="307803" />
	</node>
	<node id="-53801" lat="59.7538750026" lon="8.83041389665">
		<tag k="name" v="Hovdelii" />
		<tag k="place" v="isolated_dwelling" />
		<tag k="ssr:stedsnr" v="307907" />
	</node>
	<node id="-53800" lat="59.6078944443" lon="8.62959999838">
		<tag k="name" v="Steinsrud" />
		<tag k="place" v="farm" />
		<tag k="ssr:stedsnr" v="471493" />
	</node>
	<node id="-53799" lat="59.6092861073" lon="8.62502221536">
		<tag k="name" v="Hagen" />
		<tag k="place" v="farm" />
		<tag k="ssr:stedsnr" v="471473" />
	</node>
	<node id="-53796" lat="59.6207111112" lon="8.8499111025">
		<tag k="name" v="Skårnes" />
		<tag k="place" v="farm" />
		<tag k="ssr:stedsnr" v="307128" />
	</node>
	<node id="-53794" lat="59.6168805513" lon="8.69006110547">
		<tag k="name" v="Jordhuset" />
		<tag k="place" v="farm" />
		<tag k="ssr:stedsnr" v="471089" />
	</node>
	<node id="-53793" lat="59.596566664" lon="8.91647500109">
		<tag k="alt_name" v="Enggrav" />
		<tag k="name" v="Enggravslia" />
		<tag k="place" v="locality" />
		<tag k="ssr:stedsnr" v="306315" />
	</node>
	<node id="-53792" lat="59.5795666671" lon="8.94349999771">
		<tag k="historic" v="shieling" />
		<tag k="name" v="Kringlemyr" />
		<tag k="place" v="locality" />
		<tag k="ssr:stedsnr" v="306313" />
	</node>
	<node id="-53791" lat="59.5947888914" lon="9.00566389073">
		<tag k="name" v="Steingildra nedre" />
		<tag k="place" v="farm" />
		<tag k="ssr:stedsnr" v="470903" />
	</node>
	<node id="-53787" lat="59.5769250013" lon="8.96026388015">
		<tag k="name" v="Himingliøygarden" />
		<tag k="place" v="locality" />
		<tag k="ssr:stedsnr" v="470650" />
	</node>
	<node id="-53786" lat="59.8370444489" lon="8.52401944004">
		<tag k="historic" v="shieling" />
		<tag k="name" v="Nystul" />
		<tag k="place" v="locality" />
		<tag k="ssr:stedsnr" v="470559" />
	</node>
	<node id="-53785" lat="59.8335055515" lon="8.50021666036">
		<tag k="historic" v="shieling" />
		<tag k="name" v="Nystul" />
		<tag k="place" v="locality" />
		<tag k="ssr:stedsnr" v="470556" />
	</node>
	<node id="-53784" lat="59.6268166659" lon="8.57399999368">
		<tag k="historic" v="shieling" />
		<tag k="name" v="Vesle Høydal" />
		<tag k="place" v="locality" />
		<tag k="ssr:stedsnr" v="470438" />
	</node>
	<node id="-53783" lat="59.6002694414" lon="8.62655278106">
		<tag k="name" v="Nord Hovland" />
		<tag k="place" v="farm" />
		<tag k="ssr:stedsnr" v="470411" />
	</node>
	<node id="-55651" lat="59.7421777785" lon="8.84407223092">
		<tag k="name" v="Rue mellom" />
		<tag k="place" v="farm" />
		<tag k="ssr:stedsnr" v="954141" />
	</node>
	<node id="-53779" lat="59.6041555518" lon="8.70340834181">
		<tag k="name" v="Funner øvre" />
		<tag k="place" v="farm" />
		<tag k="ssr:stedsnr" v="470303" />
	</node>
	<node id="-53778" lat="59.7722333364" lon="8.63306111029">
		<tag k="historic" v="shieling" />
		<tag k="name" v="Helleksdalen" />
		<tag k="place" v="locality" />
		<tag k="ssr:stedsnr" v="470011" />
	</node>
	<node id="-53777" lat="59.6108055587" lon="8.92629999806">
		<tag k="name" v="Frølandgrenna" />
		<tag k="place" v="hamlet" />
		<tag k="ssr:stedsnr" v="470004" />
	</node>
	<node id="-53775" lat="59.6457222195" lon="8.79942777354">
		<tag k="name" v="Løyning" />
		<tag k="place" v="locality" />
		<tag k="ssr:stedsnr" v="469917" />
	</node>
	<node id="-53770" lat="59.6201222184" lon="8.87521667118">
		<tag k="name" v="Øyen søndre" />
		<tag k="place" v="farm" />
		<tag k="ssr:stedsnr" v="469691" />
	</node>
	<node id="-53765" lat="59.7786805581" lon="8.72185555084">
		<tag k="historic" v="shieling" />
		<tag k="name" v="Åråstul nedre" />
		<tag k="place" v="locality" />
		<tag k="ssr:stedsnr" v="469488" />
	</node>
	<node id="-55665" lat="59.6703194473" lon="8.86485276923">
		<tag k="name" v="Hibberg" />
		<tag k="place" v="locality" />
		<tag k="ssr:stedsnr" v="954976" />
	</node>
	<node id="-53762" lat="59.7180305555" lon="8.79780834022">
		<tag k="name" v="Øyen" />
		<tag k="place" v="locality" />
		<tag k="ssr:stedsnr" v="469343" />
	</node>
	<node id="-53759" lat="59.652288891" lon="8.6666666639">
		<tag k="historic" v="shieling" />
		<tag k="name" v="Ølsro" />
		<tag k="place" v="locality" />
		<tag k="ssr:stedsnr" v="469173" />
	</node>
	<node id="-53758" lat="59.745538892" lon="8.84801388513">
		<tag k="name" v="Opplandet" />
		<tag k="place" v="farm" />
		<tag k="ssr:stedsnr" v="469158" />
	</node>
	<node id="-53753" lat="59.6242861117" lon="8.95784167552">
		<tag k="name" v="Timdal øvre" />
		<tag k="place" v="isolated_dwelling" />
		<tag k="ssr:stedsnr" v="289108" />
	</node>
	<node id="-53751" lat="59.6176472211" lon="8.71141944871">
		<tag k="historic" v="shieling" />
		<tag k="name" v="Berglandstulen" />
		<tag k="place" v="locality" />
		<tag k="ssr:stedsnr" v="289004" />
	</node>
	<node id="-53749" lat="59.5697750032" lon="8.82608332493">
		<tag k="name" v="Snorteroe" />
		<tag k="place" v="locality" />
		<tag k="ssr:stedsnr" v="288873" />
	</node>
	<node id="-53746" lat="59.5926333315" lon="8.67091944171">
		<tag k="historic" v="shieling" />
		<tag k="name" v="Fjellstul" />
		<tag k="place" v="locality" />
		<tag k="ssr:stedsnr" v="288663" />
	</node>
	<node id="-53743" lat="59.6075249993" lon="8.89288889548">
		<tag k="name" v="Grindalen" />
		<tag k="place" v="locality" />
		<tag k="ssr:stedsnr" v="288619" />
	</node>
	<node id="-53742" lat="59.6093000039" lon="8.78578610513">
		<tag k="name" v="Slåtta" />
		<tag k="place" v="locality" />
		<tag k="ssr:stedsnr" v="288615" />
	</node>
	<node id="-55539" lat="59.6142499974" lon="8.68746110313">
		<tag k="alt_name" v="Fossejordet" />
		<tag k="fixme" v="consider place=hamlet" />
		<tag k="name" v="Fossjordet" />
		<tag k="place" v="farm" />
		<tag k="ssr:stedsnr" v="792785" />
	</node>
	<node id="-53738" lat="59.5964500035" lon="8.7196083335">
		<tag k="historic" v="shieling" />
		<tag k="name" v="Dalsroe" />
		<tag k="place" v="locality" />
		<tag k="ssr:stedsnr" v="288161" />
	</node>
	<node id="-53727" lat="59.7259222232" lon="8.8512805583">
		<tag k="name" v="Kjelddalen nordre" />
		<tag k="place" v="farm" />
		<tag k="ssr:stedsnr" v="287072" />
	</node>
	<node id="-53726" lat="59.6538694443" lon="8.59963611261">
		<tag k="historic" v="shieling" />
		<tag k="name" v="Veslevale" />
		<tag k="place" v="locality" />
		<tag k="ssr:stedsnr" v="287067" />
	</node>
	<node id="-53669" lat="59.7513472223" lon="8.8423833354">
		<tag k="historic" v="shieling" />
		<tag k="name" v="Nystul" />
		<tag k="place" v="locality" />
		<tag k="ssr:stedsnr" v="287182" />
	</node>
	<node id="-53724" lat="59.7653555592" lon="8.78227500524">
		<tag k="alt_name" v="Solem" />
		<tag k="fixme" v="consider place=hamlet" />
		<tag k="name" v="Solheim" />
		<tag k="place" v="farm" />
		<tag k="ssr:stedsnr" v="452263" />
	</node>
	<node id="-53722" lat="59.6094749971" lon="8.60675277234">
		<tag k="name" v="Vegheim" />
		<tag k="place" v="isolated_dwelling" />
		<tag k="ssr:stedsnr" v="246754" />
	</node>
	<node id="-53720" lat="59.7533638904" lon="8.79646389612">
		<tag k="fixme" v="consider place=hamlet" />
		<tag k="name" v="Tuddal" />
		<tag k="place" v="village" />
		<tag k="ssr:stedsnr" v="246902" />
	</node>
	<node id="-53719" lat="59.6532027781" lon="8.92410833602">
		<tag k="name" v="Elgevad" />
		<tag k="place" v="isolated_dwelling" />
		<tag k="ssr:stedsnr" v="246215" />
	</node>
	<node id="-53710" lat="59.6169361137" lon="8.94267499907">
		<tag k="name" v="Leinehaug" />
		<tag k="place" v="isolated_dwelling" />
		<tag k="ssr:stedsnr" v="227707" />
	</node>
	<node id="-53709" lat="59.6281388909" lon="8.94715000381">
		<tag k="name" v="Brubakken" />
		<tag k="place" v="locality" />
		<tag k="ssr:stedsnr" v="227704" />
	</node>
	<node id="-53708" lat="59.6314138867" lon="8.9343527808">
		<tag k="name" v="Maurebrekke" />
		<tag k="place" v="locality" />
		<tag k="ssr:stedsnr" v="227702" />
	</node>
	<node id="-53705" lat="59.5792861132" lon="8.75051666431">
		<tag k="name" v="Gammelnystul" />
		<tag k="place" v="locality" />
		<tag k="ssr:stedsnr" v="289885" />
	</node>
	<node id="-53704" lat="59.5996972267" lon="8.65856388925">
		<tag k="name" v="Skogheim" />
		<tag k="place" v="isolated_dwelling" />
		<tag k="ssr:stedsnr" v="289828" />
	</node>
	<node id="-53703" lat="59.6057194417" lon="8.62692778357">
		<tag k="name" v="Særsland søndre" />
		<tag k="place" v="farm" />
		<tag k="ssr:stedsnr" v="289493" />
	</node>
	<node id="-53702" lat="59.6046472236" lon="8.62410555015">
		<tag k="name" v="Særsland mellem" />
		<tag k="place" v="farm" />
		<tag k="ssr:stedsnr" v="289485" />
	</node>
	<node id="-53701" lat="59.6036472256" lon="8.62037776919">
		<tag k="fixme" v="consider place=hamlet" />
		<tag k="name" v="Særsland øvre" />
		<tag k="place" v="farm" />
		<tag k="ssr:stedsnr" v="289484" />
	</node>
	<node id="-53700" lat="59.6118666667" lon="8.61740555817">
		<tag k="name" v="Århus søndre" />
		<tag k="place" v="farm" />
		<tag k="ssr:stedsnr" v="289476" />
	</node>
	<node id="-53699" lat="59.600644448" lon="8.61848055217">
		<tag k="name" v="Aabø" />
		<tag k="place" v="farm" />
		<tag k="ssr:stedsnr" v="289463" />
	</node>
	<node id="-53697" lat="59.6057277739" lon="8.71810556054">
		<tag k="name" v="Nerisrud" />
		<tag k="place" v="locality" />
		<tag k="ssr:stedsnr" v="289338" />
	</node>
	<node id="-53694" lat="59.6084888928" lon="8.74696944494">
		<tag k="name" v="Grimarkås" />
		<tag k="place" v="locality" />
		<tag k="ssr:stedsnr" v="289000" />
	</node>
	<node id="-55739" lat="59.6077181782" lon="8.76856593296">
		<tag k="alt_name" v="Hjarsø" />
		<tag k="fixme" v="consider place=hamlet" />
		<tag k="name" v="Hjartsjå" />
		<tag k="place" v="farm" />
		<tag k="ssr:stedsnr" v="1075810" />
	</node>
	<node id="-53690" lat="59.6168416629" lon="8.72133333253">
		<tag k="historic" v="shieling" />
		<tag k="name" v="Bjønndalen sør" />
		<tag k="place" v="locality" />
		<tag k="ssr:stedsnr" v="289040" />
	</node>
	<node id="-53688" lat="59.6051305571" lon="8.6614944418">
		<tag k="fixme" v="consider place=hamlet" />
		<tag k="name" v="Aslaugberg" />
		<tag k="place" v="farm" />
		<tag k="ssr:stedsnr" v="288943" />
	</node>
	<node id="-53687" lat="59.630755555" lon="8.7581583382">
		<tag k="name" v="Espelia" />
		<tag k="place" v="locality" />
		<tag k="ssr:stedsnr" v="288929" />
	</node>
	<node id="-53662" lat="59.6070000038" lon="8.62282778357">
		<tag k="name" v="Kythaug" />
		<tag k="place" v="isolated_dwelling" />
		<tag k="ssr:stedsnr" v="167505" />
	</node>
	<node id="-53678" lat="59.8073916626" lon="8.62859722064">
		<tag k="name" v="Bakken" />
		<tag k="place" v="farm" />
		<tag k="ssr:stedsnr" v="287879" />
	</node>
	<node id="-53677" lat="59.734955559" lon="8.68171944065">
		<tag k="name" v="Slengås" />
		<tag k="place" v="locality" />
		<tag k="ssr:stedsnr" v="287838" />
	</node>
	<node id="-53676" lat="59.7804583333" lon="8.69262221393">
		<tag k="name" v="Åfoss" />
		<tag k="place" v="locality" />
		<tag k="ssr:stedsnr" v="287436" />
	</node>
	<node id="-53675" lat="59.727969446" lon="8.77917500844">
		<tag k="name" v="Torjuskås" />
		<tag k="place" v="locality" />
		<tag k="ssr:stedsnr" v="287491" />
	</node>
	<node id="-55721" lat="59.6675796604" lon="8.60958999428">
		<tag k="name" v="Saurviken" />
		<tag k="place" v="locality" />
		<tag k="ssr:stedsnr" v="983330" />
	</node>
	<node id="-55720" lat="59.6236210203" lon="8.69216759074">
		<tag k="fixme" v="consider place=hamlet" />
		<tag k="name" v="Stutthus" />
		<tag k="place" v="farm" />
		<tag k="ssr:stedsnr" v="983329" />
	</node>
	<node id="-55719" lat="59.6223093066" lon="8.68534728351">
		<tag k="fixme" v="consider place=hamlet" />
		<tag k="name" v="Karls-Opsal" />
		<tag k="place" v="farm" />
		<tag k="ssr:stedsnr" v="983327" />
	</node>
	<node id="-55718" lat="59.6060865021" lon="8.66658834404">
		<tag k="name" v="Berge" />
		<tag k="place" v="hamlet" />
		<tag k="ssr:stedsnr" v="983326" />
	</node>
	<node id="-55717" lat="59.6048259713" lon="8.66943564256">
		<tag k="fixme" v="consider place=hamlet" />
		<tag k="name" v="Søndre Berge" />
		<tag k="place" v="farm" />
		<tag k="ssr:stedsnr" v="983325" />
	</node>
	<node id="-53668" lat="59.7503277783" lon="8.84628333962">
		<tag k="historic" v="shieling" />
		<tag k="name" v="Sletteli" />
		<tag k="place" v="locality" />
		<tag k="ssr:stedsnr" v="287181" />
	</node>
	<node id="-55715" lat="59.6025537135" lon="8.66658998589">
		<tag k="fixme" v="consider place=hamlet" />
		<tag k="name" v="Søndre Mæland" />
		<tag k="place" v="farm" />
		<tag k="ssr:stedsnr" v="983321" />
	</node>
	<node id="-55714" lat="59.6018567332" lon="8.65849336037">
		<tag k="fixme" v="consider place=hamlet" />
		<tag k="name" v="Nordre Mæland" />
		<tag k="place" v="farm" />
		<tag k="ssr:stedsnr" v="983320" />
	</node>
	<node id="-55713" lat="59.6070088455" lon="8.64449956955">
		<tag k="fixme" v="consider place=hamlet" />
		<tag k="name" v="Lofthus" />
		<tag k="place" v="farm" />
		<tag k="ssr:stedsnr" v="983317" />
	</node>
	<node id="-55712" lat="59.6124181332" lon="8.63840457405">
		<tag k="name" v="Håtveit" />
		<tag k="place" v="hamlet" />
		<tag k="ssr:stedsnr" v="983316" />
	</node>
	<node id="-55711" lat="59.6109810262" lon="8.63828657526">
		<tag k="fixme" v="consider place=hamlet" />
		<tag k="name" v="Nedre Håtveit" />
		<tag k="place" v="farm" />
		<tag k="ssr:stedsnr" v="983314" />
	</node>
	<node id="-55710" lat="59.7911782424" lon="8.44085152922">
		<tag k="name" v="Gråtjønn" />
		<tag k="place" v="locality" />
		<tag k="ssr:stedsnr" v="983311" />
	</node>
	<node id="-55709" lat="59.6998911434" lon="8.53832972892">
		<tag k="name" v="Fyrebøen" />
		<tag k="place" v="locality" />
		<tag k="ssr:stedsnr" v="983310" />
	</node>
	<node id="-55708" lat="59.608877592" lon="8.63560744777">
		<tag k="fixme" v="consider place=hamlet" />
		<tag k="name" v="Nordbø" />
		<tag k="place" v="farm" />
		<tag k="ssr:stedsnr" v="983309" />
	</node>
	<node id="-55707" lat="59.6125257811" lon="8.62262486567">
		<tag k="fixme" v="consider place=hamlet" />
		<tag k="name" v="Holm" />
		<tag k="place" v="farm" />
		<tag k="ssr:stedsnr" v="983308" />
	</node>
	<node id="-55706" lat="59.6042712393" lon="8.62188127836">
		<tag k="name" v="Særsland" />
		<tag k="place" v="hamlet" />
		<tag k="ssr:stedsnr" v="983299" />
	</node>
	<node id="-55705" lat="59.8113490905" lon="8.61570414773">
		<tag k="name" v="Bondal" />
		<tag k="place" v="hamlet" />
		<tag k="ssr:stedsnr" v="983512" />
	</node>
	<node id="-55704" lat="59.8158498511" lon="8.59715824292">
		<tag k="fixme" v="consider place=hamlet" />
		<tag k="name" v="Nordre Bondal" />
		<tag k="place" v="farm" />
		<tag k="ssr:stedsnr" v="983511" />
	</node>
	<node id="-55703" lat="59.8100061399" lon="8.62499364515">
		<tag k="fixme" v="consider place=hamlet" />
		<tag k="name" v="Søndre Bondal" />
		<tag k="place" v="farm" />
		<tag k="ssr:stedsnr" v="983510" />
	</node>
	<node id="-55702" lat="59.7890624498" lon="8.68969854884">
		<tag k="name" v="Reisjå" />
		<tag k="place" v="hamlet" />
		<tag k="ssr:stedsnr" v="983509" />
	</node>
	<node id="-55701" lat="59.791298445" lon="8.68713172128">
		<tag k="fixme" v="consider place=hamlet" />
		<tag k="name" v="Nordre Reisjå" />
		<tag k="place" v="farm" />
		<tag k="ssr:stedsnr" v="983508" />
	</node>
	<node id="-55700" lat="59.7901506319" lon="8.69259199997">
		<tag k="fixme" v="consider place=hamlet" />
		<tag k="name" v="Søndre Reisjå" />
		<tag k="place" v="farm" />
		<tag k="ssr:stedsnr" v="983507" />
	</node>
	<node id="-53651" lat="59.7733444412" lon="8.8504055502">
		<tag k="alt_name" v="Haugestul øvre" />
		<tag k="historic" v="shieling" />
		<tag k="name" v="Øvre Haugestul" />
		<tag k="place" v="locality" />
		<tag k="ssr:stedsnr" v="165918" />
	</node>
	<node id="-55698" lat="59.7570383247" lon="8.79167646022">
		<tag k="name" v="Hvåle" />
		<tag k="place" v="hamlet" />
		<tag k="ssr:stedsnr" v="983505" />
	</node>
	<node id="-55697" lat="59.7477633571" lon="8.84212238966">
		<tag k="fixme" v="consider place=hamlet" />
		<tag k="name" v="Grotem" />
		<tag k="place" v="farm" />
		<tag k="ssr:stedsnr" v="983504" />
	</node>
	<node id="-55696" lat="59.7420517909" lon="8.85067210522">
		<tag k="fixme" v="consider place=hamlet" />
		<tag k="name" v="Venås" />
		<tag k="place" v="farm" />
		<tag k="ssr:stedsnr" v="983503" />
	</node>
	<node id="-55695" lat="59.6065175452" lon="8.70326633794">
		<tag k="name" v="Midbøen" />
		<tag k="place" v="hamlet" />
		<tag k="ssr:stedsnr" v="983403" />
	</node>
	<node id="-55694" lat="59.6071762669" lon="8.70298663426">
		<tag k="fixme" v="consider place=hamlet" />
		<tag k="name" v="Øvre Midbøen" />
		<tag k="place" v="farm" />
		<tag k="ssr:stedsnr" v="983401" />
	</node>
	<node id="-55693" lat="59.6051763599" lon="8.70172057428">
		<tag k="fixme" v="consider place=hamlet" />
		<tag k="name" v="Nedre Midbøen" />
		<tag k="place" v="farm" />
		<tag k="ssr:stedsnr" v="983396" />
	</node>
	<node id="-55692" lat="59.6009438331" lon="8.62758811186">
		<tag k="fixme" v="consider place=hamlet" />
		<tag k="name" v="Hovland" />
		<tag k="place" v="farm" />
		<tag k="ssr:stedsnr" v="983297" />
	</node>
	<node id="-55691" lat="59.6007672616" lon="8.61650078163">
		<tag k="fixme" v="consider place=hamlet" />
		<tag k="name" v="Øvre Åbø" />
		<tag k="place" v="farm" />
		<tag k="ssr:stedsnr" v="983296" />
	</node>
	<node id="-53642" lat="59.7464805533" lon="8.85318333585">
		<tag k="historic" v="shieling" />
		<tag k="name" v="Klavenes" />
		<tag k="place" v="locality" />
		<tag k="ssr:stedsnr" v="165155" />
	</node>
	<node id="-53641" lat="59.7513611111" lon="8.8303222135">
		<tag k="name" v="Runningen" />
		<tag k="place" v="farm" />
		<tag k="ssr:stedsnr" v="280252" />
	</node>
	<node id="-53640" lat="59.7510944415" lon="8.8215666622">
		<tag k="name" v="Hovde sudlengste" />
		<tag k="place" v="farm" />
		<tag k="ssr:stedsnr" v="280248" />
	</node>
	<node id="-53639" lat="59.7503666627" lon="8.81604445008">
		<tag k="name" v="Hovde selstugo" />
		<tag k="place" v="farm" />
		<tag k="ssr:stedsnr" v="280246" />
	</node>
	<node id="-55686" lat="59.6334138918" lon="8.82207221497">
		<tag k="name" v="Vollkåsa" />
		<tag k="place" v="locality" />
		<tag k="ssr:stedsnr" v="956923" />
	</node>
	<node id="-53636" lat="59.7659055583" lon="8.77869166387">
		<tag k="name" v="Solheim nordre" />
		<tag k="place" v="farm" />
		<tag k="ssr:stedsnr" v="279668" />
	</node>
	<node id="-53654" lat="59.6191027741" lon="8.84127221847">
		<tag k="fixme" v="consider place=hamlet" />
		<tag k="name" v="Skårnes nordre" />
		<tag k="place" v="farm" />
		<tag k="ssr:stedsnr" v="166661" />
	</node>
	<node id="-55682" lat="59.5966416687" lon="8.59118610912">
		<tag k="name" v="Bråten" />
		<tag k="place" v="locality" />
		<tag k="ssr:stedsnr" v="956684" />
	</node>
	<node id="-53633" lat="59.5946916655" lon="9.01253610482">
		<tag k="name" v="Haugan" />
		<tag k="place" v="farm" />
		<tag k="ssr:stedsnr" v="124274" />
	</node>
	<node id="-53632" lat="59.6163166669" lon="8.866199994">
		<tag k="name" v="Lærud" />
		<tag k="place" v="farm" />
		<tag k="ssr:stedsnr" v="124317" />
	</node>
	<node id="-55679" lat="59.6100166622" lon="8.93806110678">
		<tag k="name" v="Ystøy" />
		<tag k="place" v="farm" />
		<tag k="ssr:stedsnr" v="956064" />
	</node>
	<node id="-53630" lat="59.6029777807" lon="8.69296666981">
		<tag k="fixme" v="consider place=hamlet" />
		<tag k="name" v="Åsen" />
		<tag k="place" v="farm" />
		<tag k="ssr:stedsnr" v="107138" />
	</node>
	<node id="-55677" lat="59.6213555577" lon="8.82289167475">
		<tag k="name" v="Lonar" />
		<tag k="place" v="farm" />
		<tag k="ssr:stedsnr" v="955891" />
	</node>
	<node id="-53628" lat="59.802597218" lon="8.67416944219">
		<tag k="name" v="Grøa" />
		<tag k="place" v="locality" />
		<tag k="ssr:stedsnr" v="105917" />
	</node>
	<node id="-53627" lat="59.7556916686" lon="8.67695556189">
		<tag k="historic" v="shieling" />
		<tag k="name" v="Nystul" />
		<tag k="place" v="locality" />
		<tag k="ssr:stedsnr" v="105911" />
	</node>
	<node id="-55674" lat="59.6179472217" lon="8.87812777715">
		<tag k="name" v="Anundskås" />
		<tag k="place" v="locality" />
		<tag k="ssr:stedsnr" v="955692" />
	</node>
	<node id="-55672" lat="59.6103833373" lon="8.71611388063">
		<tag k="name" v="Gravningen" />
		<tag k="place" v="locality" />
		<tag k="ssr:stedsnr" v="956398" />
	</node>
	<node id="-55671" lat="59.6027055532" lon="8.705749995">
		<tag k="name" v="Skeie nord" />
		<tag k="place" v="farm" />
		<tag k="ssr:stedsnr" v="956379" />
	</node>
	<node id="-55670" lat="59.6146222245" lon="8.68063332928">
		<tag k="name" v="Baksjult" />
		<tag k="place" v="farm" />
		<tag k="ssr:stedsnr" v="955240" />
	</node>
	<node id="-55669" lat="59.6033305519" lon="8.96485554695">
		<tag k="name" v="Kåsa" />
		<tag k="place" v="locality" />
		<tag k="ssr:stedsnr" v="955213" />
	</node>
	<node id="-53619" lat="59.7745166668" lon="8.71449166366">
		<tag k="name" v="Dalen" />
		<tag k="place" v="farm" />
		<tag k="ssr:stedsnr" v="246996" />
	</node>
	<node id="-53618" lat="59.5480055518" lon="8.83312776898">
		<tag k="historic" v="shieling" />
		<tag k="name" v="Sigurdsbu" />
		<tag k="place" v="locality" />
		<tag k="ssr:stedsnr" v="246984" />
	</node>
	<node id="-55699" lat="59.7524559775" lon="8.73156350051">
		<tag k="fixme" v="consider place=hamlet" />
		<tag k="name" v="Nordre Stuverud" />
		<tag k="place" v="farm" />
		<tag k="ssr:stedsnr" v="983506" />
	</node>
	<node id="-53616" lat="59.7572861126" lon="8.66578333261">
		<tag k="historic" v="shieling" />
		<tag k="name" v="Glittenberg" />
		<tag k="place" v="locality" />
		<tag k="ssr:stedsnr" v="246952" />
	</node>
	<node id="-55663" lat="59.6588388913" lon="8.78968888982">
		<tag k="name" v="Klemmeli" />
		<tag k="place" v="locality" />
		<tag k="ssr:stedsnr" v="954923" />
	</node>
	<node id="-55662" lat="59.7286527764" lon="8.46442222123">
		<tag k="name" v="Fossroe" />
		<tag k="place" v="locality" />
		<tag k="ssr:stedsnr" v="954829" />
	</node>
	<node id="-53613" lat="59.6189499974" lon="8.84126944736">
		<tag k="name" v="Skårnes" />
		<tag k="place" v="farm" />
		<tag k="ssr:stedsnr" v="246819" />
	</node>
	<node id="-55660" lat="59.7952833348" lon="8.74747500484">
		<tag k="name" v="Skogstul" />
		<tag k="place" v="isolated_dwelling" />
		<tag k="ssr:stedsnr" v="954761" />
	</node>
	<node id="-55659" lat="59.7767138911" lon="8.79033611625">
		<tag k="name" v="Lisli" />
		<tag k="place" v="locality" />
		<tag k="ssr:stedsnr" v="954357" />
	</node>
	<node id="-55656" lat="59.7281444401" lon="8.89617778185">
		<tag k="historic" v="shieling" />
		<tag k="name" v="Husdalen" />
		<tag k="place" v="locality" />
		<tag k="ssr:stedsnr" v="954230" />
	</node>
	<node id="-55655" lat="59.7062805516" lon="8.58808055339">
		<tag k="historic" v="shieling" />
		<tag k="name" v="Skarstul" />
		<tag k="place" v="locality" />
		<tag k="ssr:stedsnr" v="954199" />
	</node>
	<node id="-53606" lat="59.607791669" lon="8.629755552">
		<tag k="name" v="Nordbø" />
		<tag k="place" v="farm" />
		<tag k="ssr:stedsnr" v="246781" />
	</node>
	<node id="-53603" lat="59.6165249972" lon="8.65278888903">
		<tag k="historic" v="shieling" />
		<tag k="name" v="Torsland" />
		<tag k="place" v="locality" />
		<tag k="ssr:stedsnr" v="246747" />
	</node>
	<node id="-55650" lat="59.7470888856" lon="8.84356945003">
		<tag k="name" v="Grotheim søndre" />
		<tag k="place" v="farm" />
		<tag k="ssr:stedsnr" v="954135" />
	</node>
	<node id="-55648" lat="59.8387361081" lon="8.55625556082">
		<tag k="alt_name" v="Løkjestul, s;Løkjestul;Løkjestul søndre" />
		<tag k="historic" v="shieling" />
		<tag k="name" v="Søndre Løkjestul" />
		<tag k="place" v="locality" />
		<tag k="ssr:stedsnr" v="854865" />
	</node>
	<node id="-53597" lat="59.6616499958" lon="8.78615555083">
		<tag k="name" v="Lauvhaug" />
		<tag k="place" v="locality" />
		<tag k="ssr:stedsnr" v="246705" />
	</node>
	<node id="-53596" lat="59.6269611127" lon="8.67737500504">
		<tag k="historic" v="shieling" />
		<tag k="name" v="Øybergstulen" />
		<tag k="place" v="locality" />
		<tag k="ssr:stedsnr" v="246694" />
	</node>
	<node id="-55641" lat="59.7727138891" lon="8.77650832786">
		<tag k="name" v="Sagstul" />
		<tag k="place" v="isolated_dwelling" />
		<tag k="ssr:stedsnr" v="853949" />
	</node>
	<node id="-53590" lat="59.6846750022" lon="8.8006444458">
		<tag k="name" v="Sjauset" />
		<tag k="place" v="isolated_dwelling" />
		<tag k="ssr:stedsnr" v="246641" />
	</node>
	<node id="-53589" lat="59.6927805553" lon="8.5095333337">
		<tag k="alt_name" v="Egderulie" />
		<tag k="name" v="Egderulii" />
		<tag k="place" v="locality" />
		<tag k="ssr:stedsnr" v="246624" />
	</node>
	<node id="-53588" lat="59.7137527762" lon="8.76552499768">
		<tag k="historic" v="shieling" />
		<tag k="name" v="Nystul" />
		<tag k="place" v="locality" />
		<tag k="ssr:stedsnr" v="246581" />
	</node>
	<node id="-55635" lat="59.6053944465" lon="8.76364444746">
		<tag k="alt_name" v="Hjartsjå, nordre" />
		<tag k="name" v="Nordre Hjartsjå" />
		<tag k="place" v="farm" />
		<tag k="ssr:stedsnr" v="853842" />
	</node>
	<node id="-53586" lat="59.7297861117" lon="8.83923332698">
		<tag k="name" v="Huset" />
		<tag k="place" v="isolated_dwelling" />
		<tag k="ssr:stedsnr" v="246574" />
	</node>
	<node id="-55633" lat="59.8136000011" lon="8.77603889234">
		<tag k="historic" v="shieling" />
		<tag k="name" v="Skinnatten" />
		<tag k="place" v="locality" />
		<tag k="ssr:stedsnr" v="853794" />
	</node>
	<node id="-53583" lat="59.7236944443" lon="8.81019166841">
		<tag k="alt_name" v="Hogstul, nordre;Nordre Haugstøl" />
		<tag k="fixme" v="consider place=hamlet" />
		<tag k="name" v="Nordre Hogstul" />
		<tag k="place" v="farm" />
		<tag k="ssr:stedsnr" v="246566" />
	</node>
	<node id="-55630" lat="59.7134388914" lon="8.55160556256">
		<tag k="alt_name" v="Lekkjenuten, nordre;Lekkjenuten" />
		<tag k="historic" v="shieling" />
		<tag k="name" v="Nordre Lekkjenuten" />
		<tag k="place" v="locality" />
		<tag k="ssr:stedsnr" v="853634" />
	</node>
	<node id="-55629" lat="59.7057194442" lon="8.49280000231">
		<tag k="alt_name" v="Heimtrandem;Trandem, heimre" />
		<tag k="historic" v="shieling" />
		<tag k="name" v="Heimre Trandem" />
		<tag k="place" v="locality" />
		<tag k="ssr:stedsnr" v="853630" />
	</node>
	<node id="-53580" lat="59.7296750027" lon="8.57039999547">
		<tag k="historic" v="shieling" />
		<tag k="name" v="Reinstul" />
		<tag k="place" v="locality" />
		<tag k="ssr:stedsnr" v="246545" />
	</node>
	<node id="-55623" lat="59.6469138871" lon="8.60046111826">
		<tag k="alt_name" v="Solheimstul" />
		<tag k="historic" v="shieling" />
		<tag k="name" v="Solheimstulen" />
		<tag k="place" v="locality" />
		<tag k="ssr:stedsnr" v="853681" />
	</node>
	<node id="-55622" lat="59.726363885" lon="8.48233055558">
		<tag k="alt_name" v="Trandem, nordre" />
		<tag k="historic" v="shieling" />
		<tag k="name" v="Nordre Trandem" />
		<tag k="place" v="locality" />
		<tag k="ssr:stedsnr" v="853550" />
	</node>
	<node id="-53573" lat="59.7172805556" lon="8.85742500144">
		<tag k="name" v="Rudningen" />
		<tag k="place" v="farm" />
		<tag k="ssr:stedsnr" v="246104" />
	</node>
	<node id="-55617" lat="59.6499250008" lon="8.86757499357">
		<tag k="name" v="Nystul" />
		<tag k="place" v="locality" />
		<tag k="ssr:stedsnr" v="853201" />
	</node>
	<node id="-53567" lat="59.7924888933" lon="8.43851388454">
		<tag k="alt_name" v="Gråtjørn" />
		<tag k="historic" v="shieling" />
		<tag k="name" v="Gråtjønn" />
		<tag k="place" v="locality" />
		<tag k="ssr:stedsnr" v="246084" />
	</node>
	<node id="-53566" lat="59.6662750035" lon="8.61185833555">
		<tag k="historic" v="shieling" />
		<tag k="name" v="Saurviken" />
		<tag k="place" v="locality" />
		<tag k="ssr:stedsnr" v="245651" />
	</node>
	<node id="-53565" lat="59.6773888869" lon="8.61628888402">
		<tag k="alt_name" v="Dokkeroe" />
		<tag k="historic" v="shieling" />
		<tag k="name" v="Dokkeroi" />
		<tag k="place" v="locality" />
		<tag k="ssr:stedsnr" v="245642" />
	</node>
	<node id="-55612" lat="59.6213083363" lon="8.53689722408">
		<tag k="historic" v="shieling" />
		<tag k="name" v="Åbøstulen" />
		<tag k="place" v="locality" />
		<tag k="ssr:stedsnr" v="852735" />
	</node>
	<node id="-53563" lat="59.6295999966" lon="8.93497777539">
		<tag k="name" v="Rudningen" />
		<tag k="place" v="farm" />
		<tag k="ssr:stedsnr" v="245339" />
	</node>
	<node id="-55609" lat="59.620091667" lon="8.86843610423">
		<tag k="name" v="Øyan" />
		<tag k="place" v="farm" />
		<tag k="ssr:stedsnr" v="852351" />
	</node>
	<node id="-55608" lat="59.621141663" lon="8.92191389624">
		<tag k="alt_name" v="Mosbø" />
		<tag k="name" v="Mosebø" />
		<tag k="place" v="farm" />
		<tag k="ssr:stedsnr" v="852346" />
	</node>
	<node id="-55607" lat="59.6208833378" lon="8.92435833166">
		<tag k="fixme" v="consider place=hamlet" />
		<tag k="name" v="Krosshus" />
		<tag k="place" v="farm" />
		<tag k="ssr:stedsnr" v="852344" />
	</node>
	<node id="-55606" lat="59.6227666679" lon="8.94397499367">
		<tag k="alt_name" v="Bø mellem" />
		<tag k="fixme" v="consider place=hamlet" />
		<tag k="name" v="Mellombø" />
		<tag k="place" v="farm" />
		<tag k="ssr:stedsnr" v="852358" />
	</node>
	<node id="-55605" lat="59.6600555577" lon="8.73832222107">
		<tag k="historic" v="shieling" />
		<tag k="name" v="Skårset" />
		<tag k="place" v="locality" />
		<tag k="ssr:stedsnr" v="844922" />
	</node>
	<node id="-55603" lat="59.5983055562" lon="8.65389722437">
		<tag k="name" v="Flatland søndre" />
		<tag k="place" v="farm" />
		<tag k="ssr:stedsnr" v="836930" />
	</node>
	<node id="-53554" lat="59.6397916636" lon="8.66524999561">
		<tag k="historic" v="shieling" />
		<tag k="name" v="Nystul" />
		<tag k="place" v="locality" />
		<tag k="ssr:stedsnr" v="64739" />
	</node>
	<node id="-55601" lat="59.5995361116" lon="8.76059721617">
		<tag k="name" v="Kasin" />
		<tag k="place" v="locality" />
		<tag k="ssr:stedsnr" v="835973" />
	</node>
	<node id="-55599" lat="59.6219805591" lon="8.77551666723">
		<tag k="name" v="Høgeli" />
		<tag k="place" v="locality" />
		<tag k="ssr:stedsnr" v="835952" />
	</node>
	<node id="-53550" lat="59.593974997" lon="9.00695555961">
		<tag k="name" v="Steingildra" />
		<tag k="place" v="farm" />
		<tag k="ssr:stedsnr" v="64327" />
	</node>
	<node id="-53549" lat="59.578616663" lon="8.91540555825">
		<tag k="alt_name" v="Diplen" />
		<tag k="name" v="Dyplen" />
		<tag k="place" v="locality" />
		<tag k="ssr:stedsnr" v="64315" />
	</node>
	<node id="-55596" lat="59.6128750019" lon="8.69541111645">
		<tag k="name" v="Åkre nedre" />
		<tag k="place" v="farm" />
		<tag k="ssr:stedsnr" v="835376" />
	</node>
	<node id="-55595" lat="59.609141663" lon="8.69886667147">
		<tag k="name" v="Sollid" />
		<tag k="place" v="isolated_dwelling" />
		<tag k="ssr:stedsnr" v="835370" />
	</node>
	<node id="-55594" lat="59.6093527797" lon="8.70347499942">
		<tag k="name" v="Haugeberg søndre" />
		<tag k="place" v="farm" />
		<tag k="ssr:stedsnr" v="835327" />
	</node>
	<node id="-55593" lat="59.6088138848" lon="8.70757777266">
		<tag k="name" v="Bergsland øvre" />
		<tag k="place" v="farm" />
		<tag k="ssr:stedsnr" v="835321" />
	</node>
	<node id="-55592" lat="59.596211111" lon="8.61235834201">
		<tag k="alt_name" v="Øvre To" />
		<tag k="fixme" v="consider place=hamlet" />
		<tag k="name" v="Øvre Tho" />
		<tag k="place" v="farm" />
		<tag k="ssr:stedsnr" v="835314" />
	</node>
	<node id="-55591" lat="59.6233388914" lon="8.95693888174">
		<tag k="name" v="Timdal nedre" />
		<tag k="place" v="isolated_dwelling" />
		<tag k="ssr:stedsnr" v="835127" />
	</node>
	<node id="-55590" lat="59.6170500039" lon="8.71270555431">
		<tag k="historic" v="shieling" />
		<tag k="name" v="Skjeggebakk" />
		<tag k="place" v="locality" />
		<tag k="ssr:stedsnr" v="835036" />
	</node>
	<node id="-55587" lat="59.6372222239" lon="8.82359167008">
		<tag k="fixme" v="consider place=hamlet" />
		<tag k="name" v="Skårdal nordre" />
		<tag k="place" v="farm" />
		<tag k="ssr:stedsnr" v="835069" />
	</node>
	<node id="-55586" lat="59.6364055573" lon="8.69344444475">
		<tag k="name" v="Fjellstulhytta" />
		<tag k="place" v="isolated_dwelling" />
		<tag k="ssr:stedsnr" v="835060" />
	</node>
	<node id="-55585" lat="59.6203000041" lon="8.86839721495">
		<tag k="name" v="Øyen nordre" />
		<tag k="place" v="farm" />
		<tag k="ssr:stedsnr" v="834683" />
	</node>
	<node id="-55583" lat="59.6055500019" lon="8.68278610864">
		<tag k="alt_name" v="Bergerud" />
		<tag k="name" v="Bergrud" />
		<tag k="place" v="farm" />
		<tag k="ssr:stedsnr" v="834247" />
	</node>
	<node id="-55582" lat="59.6028999978" lon="8.96098610661">
		<tag k="name" v="Lien" />
		<tag k="place" v="locality" />
		<tag k="ssr:stedsnr" v="834236" />
	</node>
	<node id="-55580" lat="59.6416583311" lon="8.79269445281">
		<tag k="name" v="Bekkestul" />
		<tag k="place" v="locality" />
		<tag k="ssr:stedsnr" v="833943" />
	</node>
	<node id="-55579" lat="59.7633916701" lon="8.70131111554">
		<tag k="name" v="Krikkelii" />
		<tag k="place" v="locality" />
		<tag k="ssr:stedsnr" v="833935" />
	</node>
	<node id="-53529" lat="59.603588888" lon="8.99930555471">
		<tag k="name" v="Fosse nistugo" />
		<tag k="place" v="farm" />
		<tag k="ssr:stedsnr" v="227884" />
	</node>
	<node id="-55576" lat="59.7289944431" lon="8.89733055051">
		<tag k="historic" v="shieling" />
		<tag k="name" v="Husdalen" />
		<tag k="place" v="locality" />
		<tag k="ssr:stedsnr" v="833829" />
	</node>
	<node id="-53527" lat="59.753861112" lon="8.78346110256">
		<tag k="name" v="Tveiten søndre" />
		<tag k="place" v="farm" />
		<tag k="ssr:stedsnr" v="227698" />
	</node>
	<node id="-53543" lat="59.7553055561" lon="8.78687777242">
		<tag k="fixme" v="consider place=hamlet" />
		<tag k="name" v="Øverland" />
		<tag k="place" v="farm" />
		<tag k="ssr:stedsnr" v="45705" />
	</node>
	<node id="-53525" lat="59.8278888887" lon="8.57695278214">
		<tag k="historic" v="shieling" />
		<tag k="name" v="Storrviken" />
		<tag k="place" v="locality" />
		<tag k="ssr:stedsnr" v="227670" />
	</node>
	<node id="-53524" lat="59.608555552" lon="8.87859443675">
		<tag k="name" v="Kasin" />
		<tag k="place" v="locality" />
		<tag k="ssr:stedsnr" v="227631" />
	</node>
	<node id="-55570" lat="59.6874749985" lon="8.78308889421">
		<tag k="historic" v="shieling" />
		<tag k="name" v="Åstjønn" />
		<tag k="place" v="locality" />
		<tag k="ssr:stedsnr" v="833183" />
	</node>
	<node id="-53635" lat="59.6269972207" lon="8.94058611606">
		<tag k="fixme" v="consider place=hamlet" />
		<tag k="name" v="Øvstebø" />
		<tag k="place" v="farm" />
		<tag k="ssr:stedsnr" v="124292" />
	</node>
	<node id="-55568" lat="59.765769444" lon="8.78207222685">
		<tag k="name" v="Solheim midtre" />
		<tag k="place" v="farm" />
		<tag k="ssr:stedsnr" v="826654" />
	</node>
	<node id="-53519" lat="59.5972361094" lon="8.92682221889">
		<tag k="name" v="Gampedalen" />
		<tag k="place" v="locality" />
		<tag k="ssr:stedsnr" v="227026" />
	</node>
	<node id="-53518" lat="59.7963194424" lon="8.63224167238">
		<tag k="name" v="Dokkje" />
		<tag k="place" v="locality" />
		<tag k="ssr:stedsnr" v="226991" />
	</node>
	<node id="-53517" lat="59.7706249976" lon="8.84558054736">
		<tag k="historic" v="shieling" />
		<tag k="name" v="Fjosstulen" />
		<tag k="place" v="locality" />
		<tag k="ssr:stedsnr" v="226928" />
	</node>
	<node id="-55564" lat="59.743022218" lon="8.83040833042">
		<tag k="name" v="Tjøyta" />
		<tag k="place" v="isolated_dwelling" />
		<tag k="ssr:stedsnr" v="794272" />
	</node>
	<node id="-53515" lat="59.7912583289" lon="8.65362777809">
		<tag k="name" v="Bærtjønnstulen" />
		<tag k="place" v="locality" />
		<tag k="ssr:stedsnr" v="226914" />
	</node>
	<node id="-53514" lat="59.7929916688" lon="8.75159999348">
		<tag k="historic" v="shieling" />
		<tag k="name" v="Såthaug" />
		<tag k="place" v="locality" />
		<tag k="ssr:stedsnr" v="226787" />
	</node>
	<node id="-55559" lat="59.7982916656" lon="8.75750278193">
		<tag k="historic" v="shieling" />
		<tag k="name" v="Bitringsnatten" />
		<tag k="place" v="locality" />
		<tag k="ssr:stedsnr" v="793778" />
	</node>
	<node id="-53507" lat="59.7213138933" lon="8.81293610345">
		<tag k="name" v="Sudkasin" />
		<tag k="place" v="locality" />
		<tag k="ssr:stedsnr" v="226379" />
	</node>
	<node id="-55554" lat="59.76569722" lon="8.78227222949">
		<tag k="name" v="Saubø" />
		<tag k="place" v="farm" />
		<tag k="ssr:stedsnr" v="792937" />
	</node>
	<node id="-53505" lat="59.6881888861" lon="8.51313888124">
		<tag k="historic" v="shieling" />
		<tag k="name" v="Vesleskeie" />
		<tag k="place" v="locality" />
		<tag k="ssr:stedsnr" v="226248" />
	</node>
	<node id="-55551" lat="59.6305527813" lon="8.84219166959">
		<tag k="name" v="Brekkun" />
		<tag k="place" v="isolated_dwelling" />
		<tag k="ssr:stedsnr" v="792740" />
	</node>
	<node id="-55550" lat="59.6504750006" lon="8.76676389216">
		<tag k="alt_name" v="Breivik" />
		<tag k="historic" v="shieling" />
		<tag k="name" v="Breidvik" />
		<tag k="place" v="locality" />
		<tag k="ssr:stedsnr" v="792730" />
	</node>
	<node id="-55547" lat="59.6473166698" lon="8.56080832717">
		<tag k="historic" v="shieling" />
		<tag k="name" v="Stangesjå" />
		<tag k="place" v="locality" />
		<tag k="ssr:stedsnr" v="792674" />
	</node>
	<node id="-53498" lat="59.6078890927" lon="8.77485120356">
		<tag k="alt_name" v="Hjartsjå, s;Hjartsjå søndre" />
		<tag k="name" v="Søndre Hjartsjå" />
		<tag k="place" v="farm" />
		<tag k="ssr:stedsnr" v="3810" />
	</node>
	<node id="-53497" lat="59.6108472259" lon="8.6420416659">
		<tag k="alt_name" v="Kvålsbekk" />
		<tag k="name" v="Vålsbakk" />
		<tag k="place" v="farm" />
		<tag k="ssr:stedsnr" v="3803" />
	</node>
	<node id="-55544" lat="59.6649611108" lon="8.78922499859">
		<tag k="alt_name" v="Åmannbua" />
		<tag k="historic" v="shieling" />
		<tag k="name" v="Åmannsbua" />
		<tag k="place" v="locality" />
		<tag k="ssr:stedsnr" v="792663" />
	</node>
	<node id="-53493" lat="59.748016667" lon="8.81573055653">
		<tag k="name" v="Sletta øvre" />
		<tag k="place" v="farm" />
		<tag k="ssr:stedsnr" v="219304" />
	</node>
	<node id="-53492" lat="59.7488194435" lon="8.82525556286">
		<tag k="name" v="Hovde" />
		<tag k="place" v="hamlet" />
		<tag k="ssr:stedsnr" v="219301" />
	</node>
	<node id="-53491" lat="59.7487444471" lon="8.82080833468">
		<tag k="name" v="Dokkjordet" />
		<tag k="place" v="farm" />
		<tag k="ssr:stedsnr" v="219300" />
	</node>
	<node id="-55538" lat="59.608686114" lon="8.68267499187">
		<tag k="fixme" v="consider place=hamlet" />
		<tag k="name" v="Haugan" />
		<tag k="place" v="farm" />
		<tag k="ssr:stedsnr" v="792784" />
	</node>
	<node id="-55537" lat="59.6105611138" lon="8.69282778481">
		<tag k="alt_name" v="Rue" />
		<tag k="fixme" v="consider place=hamlet" />
		<tag k="name" v="Rui" />
		<tag k="place" v="farm" />
		<tag k="ssr:stedsnr" v="792779" />
	</node>
	<node id="-55534" lat="59.7942166685" lon="8.4597555573">
		<tag k="alt_name" v="Hårå" />
		<tag k="historic" v="shieling" />
		<tag k="name" v="Håråtuve" />
		<tag k="place" v="locality" />
		<tag k="ssr:stedsnr" v="792093" />
	</node>
	<node id="-53629" lat="59.6052194409" lon="8.69431389684">
		<tag k="name" v="Djupedal nedre" />
		<tag k="place" v="farm" />
		<tag k="ssr:stedsnr" v="107135" />
	</node>
	<node id="-55530" lat="59.6668472219" lon="8.74119443654">
		<tag k="historic" v="shieling" />
		<tag k="name" v="Øvre Skårset" />
		<tag k="place" v="locality" />
		<tag k="ssr:stedsnr" v="791680" />
	</node>
	<node id="-55526" lat="59.7477833345" lon="8.60625278518">
		<tag k="alt_name" v="Risbui, nordre;Risbue nordre" />
		<tag k="name" v="Nordre Risbui" />
		<tag k="place" v="locality" />
		<tag k="ssr:stedsnr" v="791524" />
	</node>
	<node id="-55525" lat="59.6109750017" lon="8.85642222568">
		<tag k="historic" v="shieling" />
		<tag k="name" v="Lislestul" />
		<tag k="place" v="locality" />
		<tag k="ssr:stedsnr" v="791352" />
	</node>
	<node id="-55524" lat="59.6090833322" lon="8.94100833342">
		<tag k="alt_name" v="Borgeli" />
		<tag k="name" v="Børgeli" />
		<tag k="place" v="farm" />
		<tag k="ssr:stedsnr" v="791347" />
	</node>
	<node id="-55523" lat="59.5960249977" lon="8.93486388652">
		<tag k="name" v="Nystul" />
		<tag k="place" v="locality" />
		<tag k="ssr:stedsnr" v="791343" />
	</node>
	<node id="-55522" lat="59.5987499963" lon="8.96080833386">
		<tag k="name" v="Lia" />
		<tag k="place" v="locality" />
		<tag k="ssr:stedsnr" v="791341" />
	</node>
	<node id="-55521" lat="59.5924750029" lon="8.90594721398">
		<tag k="alt_name" v="Eikjelia" />
		<tag k="historic" v="shieling" />
		<tag k="name" v="Eikelistul" />
		<tag k="place" v="locality" />
		<tag k="ssr:stedsnr" v="791313" />
	</node>
	<node id="-55517" lat="59.5844499982" lon="8.76290832752">
		<tag k="name" v="Haugero" />
		<tag k="place" v="locality" />
		<tag k="ssr:stedsnr" v="774845" />
	</node>
	<node id="-55514" lat="59.60945" lon="8.77221945087">
		<tag k="name" v="Tveitstulen" />
		<tag k="place" v="locality" />
		<tag k="ssr:stedsnr" v="774969" />
	</node>
	<node id="-55512" lat="59.6147972186" lon="8.744680562">
		<tag k="name" v="Kolleberg" />
		<tag k="place" v="locality" />
		<tag k="ssr:stedsnr" v="774953" />
	</node>
	<node id="-55509" lat="59.8345611075" lon="8.51363055266">
		<tag k="historic" v="shieling" />
		<tag k="name" v="Deilstul søndre" />
		<tag k="place" v="locality" />
		<tag k="ssr:stedsnr" v="774613" />
	</node>
	<node id="-55508" lat="59.6142194414" lon="8.69149166518">
		<tag k="alt_name" v="Nord Gjuv" />
		<tag k="fixme" v="consider place=hamlet" />
		<tag k="name" v="Nordre Gjuv" />
		<tag k="place" v="farm" />
		<tag k="ssr:stedsnr" v="774408" />
	</node>
	<node id="-55507" lat="59.6116527799" lon="8.61660833653">
		<tag k="name" v="Århus mellem" />
		<tag k="place" v="farm" />
		<tag k="ssr:stedsnr" v="774501" />
	</node>
	<node id="-55506" lat="59.6000250035" lon="8.69703055141">
		<tag k="name" v="Brennøymoen" />
		<tag k="place" v="farm" />
		<tag k="ssr:stedsnr" v="774187" />
	</node>
	<node id="-55504" lat="59.6197222206" lon="8.69577500384">
		<tag k="name" v="Opsal søndre" />
		<tag k="place" v="farm" />
		<tag k="ssr:stedsnr" v="774121" />
	</node>
	<node id="-55503" lat="59.6251555559" lon="8.64820834213">
		<tag k="historic" v="shieling" />
		<tag k="name" v="Listul" />
		<tag k="place" v="locality" />
		<tag k="ssr:stedsnr" v="774285" />
	</node>
	<node id="-55500" lat="59.5566222219" lon="8.83468610736">
		<tag k="historic" v="shieling" />
		<tag k="name" v="Lorthol" />
		<tag k="place" v="locality" />
		<tag k="ssr:stedsnr" v="773838" />
	</node>
	<node id="-55499" lat="59.6083694435" lon="8.59387778253">
		<tag k="historic" v="shieling" />
		<tag k="name" v="Oslie" />
		<tag k="place" v="locality" />
		<tag k="ssr:stedsnr" v="773652" />
	</node>
	<node id="-55498" lat="59.6095583355" lon="8.60688611738">
		<tag k="name" v="Nedre Hovdejord" />
		<tag k="place" v="farm" />
		<tag k="ssr:stedsnr" v="773634" />
	</node>
	<node id="-53623" lat="59.8280472217" lon="8.57387499537">
		<tag k="historic" v="shieling" />
		<tag k="name" v="Heddevasstulen" />
		<tag k="old_name" v="Heddevassstulen" />
		<tag k="place" v="locality" />
		<tag k="ssr:stedsnr" v="247811" />
	</node>
	<node id="-55495" lat="59.5976138879" lon="8.94205555232">
		<tag k="name" v="Jakobshol" />
		<tag k="place" v="locality" />
		<tag k="ssr:stedsnr" v="773025" />
	</node>
	<node id="-53622" lat="59.8295361133" lon="8.55623610827">
		<tag k="name" v="Hellestulen" />
		<tag k="place" v="isolated_dwelling" />
		<tag k="ssr:stedsnr" v="247810" />
	</node>
	<node id="-55645" lat="59.7874583322" lon="8.54074443925">
		<tag k="historic" v="shieling" />
		<tag k="name" v="Briskeroi" />
		<tag k="place" v="locality" />
		<tag k="ssr:stedsnr" v="854740" />
	</node>
	<node id="-55476" lat="59.615263886" lon="8.74142500493">
		<tag k="name" v="Påtårud" />
		<tag k="place" v="locality" />
		<tag k="ssr:stedsnr" v="652946" />
	</node>
	<node id="-55475" lat="59.6114777808" lon="9.00152222955">
		<tag k="name" v="Malerøygarden" />
		<tag k="place" v="farm" />
		<tag k="ssr:stedsnr" v="652929" />
	</node>
	<node id="-55667" lat="59.60079444" lon="8.7004861122">
		<tag k="name" v="Bruluten" />
		<tag k="place" v="quarter" />
		<tag k="ssr:stedsnr" v="955167" />
	</node>
	<node id="-55472" lat="59.5945944468" lon="9.01247499743">
		<tag k="name" v="Lia" />
		<tag k="place" v="farm" />
		<tag k="ssr:stedsnr" v="652906" />
	</node>
	<node id="-55471" lat="59.6100833333" lon="8.59303888007">
		<tag k="historic" v="shieling" />
		<tag k="name" v="Nordnuten" />
		<tag k="place" v="locality" />
		<tag k="ssr:stedsnr" v="652685" />
	</node>
	<node id="-55470" lat="59.5996444403" lon="8.62008611819">
		<tag k="alt_name" v="Aabø" />
		<tag k="fixme" v="consider place=hamlet" />
		<tag k="name" v="Nedre Åbø" />
		<tag k="place" v="farm" />
		<tag k="ssr:stedsnr" v="652424" />
	</node>
	<node id="-55468" lat="59.6084749986" lon="8.63543055274">
		<tag k="name" v="Nordbø nedre" />
		<tag k="place" v="farm" />
		<tag k="ssr:stedsnr" v="652479" />
	</node>
	<node id="-55465" lat="59.6080527803" lon="8.68376665782">
		<tag k="name" v="Haugan nedre" />
		<tag k="place" v="farm" />
		<tag k="ssr:stedsnr" v="652203" />
	</node>
	<node id="-55464" lat="59.6037944481" lon="8.68544721829">
		<tag k="name" v="Haugen søndre" />
		<tag k="place" v="farm" />
		<tag k="ssr:stedsnr" v="652196" />
	</node>
	<node id="-55462" lat="59.5980861141" lon="8.71195556262">
		<tag k="name" v="Orekåsa" />
		<tag k="place" v="locality" />
		<tag k="ssr:stedsnr" v="652129" />
	</node>
	<node id="-55461" lat="59.6227666657" lon="8.69163888228">
		<tag k="name" v="Stutthus nordre" />
		<tag k="place" v="farm" />
		<tag k="ssr:stedsnr" v="652100" />
	</node>
	<node id="-55460" lat="59.6222305551" lon="8.69393611143">
		<tag k="name" v="Stutthus søndre" />
		<tag k="place" v="farm" />
		<tag k="ssr:stedsnr" v="652096" />
	</node>
	<node id="-55455" lat="59.7657277772" lon="8.71199166454">
		<tag k="historic" v="shieling" />
		<tag k="name" v="Storrviken" />
		<tag k="place" v="locality" />
		<tag k="ssr:stedsnr" v="650922" />
	</node>
	<node id="-55454" lat="59.7918138873" lon="8.75582500692">
		<tag k="historic" v="shieling" />
		<tag k="name" v="Kovstul" />
		<tag k="place" v="locality" />
		<tag k="ssr:stedsnr" v="651191" />
	</node>
	<node id="-55451" lat="59.6546000009" lon="8.89886388242">
		<tag k="name" v="Stavåsen" />
		<tag k="place" v="locality" />
		<tag k="ssr:stedsnr" v="650582" />
	</node>
	<node id="-55441" lat="59.7156722252" lon="8.46730832995">
		<tag k="historic" v="shieling" />
		<tag k="name" v="Øvre Åto" />
		<tag k="place" v="locality" />
		<tag k="ssr:stedsnr" v="643750" />
	</node>
	<node id="-55440" lat="59.7494277803" lon="8.78083056023">
		<tag k="historic" v="shieling" />
		<tag k="name" v="Bjårstul" />
		<tag k="place" v="locality" />
		<tag k="ssr:stedsnr" v="643642" />
	</node>
	<node id="-55439" lat="59.7643083334" lon="8.78403055628">
		<tag k="name" v="Solheim søndre" />
		<tag k="place" v="farm" />
		<tag k="ssr:stedsnr" v="643623" />
	</node>
	<node id="-55437" lat="59.7480777772" lon="8.77293610464">
		<tag k="historic" v="shieling" />
		<tag k="name" v="Nystul" />
		<tag k="place" v="locality" />
		<tag k="ssr:stedsnr" v="643574" />
	</node>
	<node id="-55436" lat="59.7516638932" lon="8.81801665856">
		<tag k="fixme" v="consider place=hamlet" />
		<tag k="name" v="Hovde øvre" />
		<tag k="place" v="farm" />
		<tag k="ssr:stedsnr" v="643295" />
	</node>
	<node id="-55433" lat="59.8393222211" lon="8.54767777132">
		<tag k="alt_name" v="Løkjestul, nordre" />
		<tag k="historic" v="shieling" />
		<tag k="name" v="Nordre Løkjestul" />
		<tag k="place" v="locality" />
		<tag k="ssr:stedsnr" v="610891" />
	</node>
	<node id="-55431" lat="59.6064777818" lon="8.64759444825">
		<tag k="name" v="Lofthus" />
		<tag k="place" v="farm" />
		<tag k="ssr:stedsnr" v="610864" />
	</node>
	<node id="-55430" lat="59.5998361091" lon="8.64132500472">
		<tag k="name" v="Bakken" />
		<tag k="place" v="farm" />
		<tag k="ssr:stedsnr" v="610859" />
	</node>
	<node id="-55425" lat="59.7695027741" lon="8.70912500083">
		<tag k="name" v="Holmen" />
		<tag k="place" v="locality" />
		<tag k="ssr:stedsnr" v="610990" />
	</node>
	<node id="-55422" lat="59.7811999986" lon="8.7959194464">
		<tag k="alt_name" v="Usbakkstul" />
		<tag k="historic" v="shieling" />
		<tag k="name" v="Ufsbakken" />
		<tag k="place" v="locality" />
		<tag k="ssr:stedsnr" v="610982" />
	</node>
	<node id="-55421" lat="59.765336109" lon="8.84016666043">
		<tag k="historic" v="shieling" />
		<tag k="name" v="Løkjestul" />
		<tag k="place" v="locality" />
		<tag k="ssr:stedsnr" v="610974" />
	</node>
	<node id="-55420" lat="59.7729999987" lon="8.83306389154">
		<tag k="alt_name" v="Longetjørnstulen" />
		<tag k="historic" v="shieling" />
		<tag k="name" v="Langetjønnstulen" />
		<tag k="place" v="locality" />
		<tag k="ssr:stedsnr" v="610959" />
	</node>
	<node id="-55416" lat="59.6882555578" lon="8.78957499931">
		<tag k="name" v="Åsetjørnstulen" />
		<tag k="place" v="isolated_dwelling" />
		<tag k="ssr:stedsnr" v="610697" />
	</node>
	<node id="-55414" lat="59.6787861136" lon="8.78663333344">
		<tag k="alt_name" v="Haugestul" />
		<tag k="historic" v="shieling" />
		<tag k="name" v="Haugstul" />
		<tag k="place" v="locality" />
		<tag k="ssr:stedsnr" v="610693" />
	</node>
	<node id="-53608" lat="59.6229083342" lon="8.83928334006">
		<tag k="name" v="Kåsa" />
		<tag k="place" v="isolated_dwelling" />
		<tag k="ssr:stedsnr" v="246796" />
	</node>
	<node id="-55404" lat="59.7264361097" lon="8.89328888528">
		<tag k="historic" v="shieling" />
		<tag k="name" v="Huskut" />
		<tag k="place" v="locality" />
		<tag k="ssr:stedsnr" v="610113" />
	</node>
	<node id="-55400" lat="59.6899000012" lon="8.87381111894">
		<tag k="name" v="Raundalen" />
		<tag k="place" v="locality" />
		<tag k="ssr:stedsnr" v="610186" />
	</node>
	<node id="-55395" lat="59.5770416704" lon="8.71855554985">
		<tag k="alt_name" v="Høgkåsmelstul" />
		<tag k="historic" v="shieling" />
		<tag k="name" v="Mælstul" />
		<tag k="place" v="locality" />
		<tag k="ssr:stedsnr" v="609904" />
	</node>
	<node id="-55394" lat="59.5919805548" lon="8.59936111352">
		<tag k="fixme" v="consider place=hamlet" />
		<tag k="name" v="Ambjørndalen" />
		<tag k="place" v="farm" />
		<tag k="ssr:stedsnr" v="609848" />
	</node>
	<node id="-55392" lat="59.6117666691" lon="8.62228611081">
		<tag k="name" v="Øygarden" />
		<tag k="place" v="farm" />
		<tag k="ssr:stedsnr" v="609746" />
	</node>
	<node id="-55391" lat="59.6098638923" lon="8.74055554732">
		<tag k="alt_name" v="To, s;To" />
		<tag k="fixme" v="multiple name tags, choose one and add the other to alt_name; consider place=hamlet" />
		<tag k="name" v="Østre To;Søre To" />
		<tag k="place" v="farm" />
		<tag k="ssr:stedsnr" v="609796" />
	</node>
	<node id="-55390" lat="59.6101444466" lon="8.73256110447">
		<tag k="alt_name" v="Trettestykke" />
		<tag k="name" v="Trettestykket" />
		<tag k="place" v="farm" />
		<tag k="ssr:stedsnr" v="609795" />
	</node>
	<node id="-55473" lat="59.6027583347" lon="9.01172500596">
		<tag k="name" v="Bakken" />
		<tag k="place" v="farm" />
		<tag k="ssr:stedsnr" v="652909" />
	</node>
	<node id="-55386" lat="59.7357527812" lon="8.69701389649">
		<tag k="historic" v="shieling" />
		<tag k="name" v="Maurviken" />
		<tag k="place" v="locality" />
		<tag k="ssr:stedsnr" v="609503" />
	</node>
	<node id="-55382" lat="59.6602472186" lon="8.74288056268">
		<tag k="alt_name" v="Skårset, nedre" />
		<tag k="historic" v="shieling" />
		<tag k="name" v="Nedre Skårset" />
		<tag k="place" v="locality" />
		<tag k="ssr:stedsnr" v="609696" />
	</node>
	<node id="-55381" lat="59.6355805511" lon="8.72608056245">
		<tag k="alt_name" v="Rennevatn" />
		<tag k="historic" v="shieling" />
		<tag k="name" v="Rennevasstulen" />
		<tag k="place" v="locality" />
		<tag k="ssr:stedsnr" v="609688" />
	</node>
	<node id="-55380" lat="59.6308250004" lon="8.79091110694">
		<tag k="historic" v="shieling" />
		<tag k="name" v="Espelia" />
		<tag k="place" v="locality" />
		<tag k="ssr:stedsnr" v="609686" />
	</node>
	<node id="-55377" lat="59.6462499992" lon="8.69295000639">
		<tag k="historic" v="shieling" />
		<tag k="name" v="Løkjestul" />
		<tag k="place" v="locality" />
		<tag k="ssr:stedsnr" v="609665" />
	</node>
	<node id="-55376" lat="59.653716665" lon="8.57685277647">
		<tag k="alt_name" v="Bjordal" />
		<tag k="historic" v="shieling" />
		<tag k="name" v="Bjordalsstulen" />
		<tag k="place" v="locality" />
		<tag k="ssr:stedsnr" v="609661" />
	</node>
	<node id="-55375" lat="59.653858337" lon="8.60007500642">
		<tag k="historic" v="shieling" />
		<tag k="name" v="Vale" />
		<tag k="place" v="locality" />
		<tag k="ssr:stedsnr" v="609659" />
	</node>
	<node id="-55373" lat="59.7025388924" lon="8.4721999926">
		<tag k="historic" v="shieling" />
		<tag k="name" v="Åto" />
		<tag k="place" v="locality" />
		<tag k="ssr:stedsnr" v="609600" />
	</node>
	<node id="-55372" lat="59.6047277792" lon="8.95908611855">
		<tag k="alt_name" v="Tømmermo" />
		<tag k="name" v="Timremo" />
		<tag k="place" v="farm" />
		<tag k="ssr:stedsnr" v="609350" />
	</node>
	<node id="-55371" lat="59.5794749956" lon="8.97928055111">
		<tag k="alt_name" v="Bråtåbekkstul" />
		<tag k="historic" v="shieling" />
		<tag k="name" v="Bråtåbekkstulen" />
		<tag k="place" v="locality" />
		<tag k="ssr:stedsnr" v="609308" />
	</node>
	<node id="-55368" lat="59.660047221" lon="8.73832500125">
		<tag k="historic" v="shieling" />
		<tag k="name" v="Nedre Skårset" />
		<tag k="place" v="locality" />
		<tag k="ssr:stedsnr" v="601898" />
	</node>
	<node id="-55366" lat="59.6146472258" lon="8.71241666351">
		<tag k="name" v="Høljeskås" />
		<tag k="place" v="locality" />
		<tag k="ssr:stedsnr" v="592393" />
	</node>
	<node id="-55364" lat="59.605586115" lon="8.70967222017">
		<tag k="alt_name" v="Myrejord" />
		<tag k="fixme" v="consider place=hamlet" />
		<tag k="name" v="Myrjord" />
		<tag k="place" v="farm" />
		<tag k="ssr:stedsnr" v="592355" />
	</node>
	<node id="-55363" lat="59.6025666629" lon="8.70744721486">
		<tag k="alt_name" v="Svalestuen" />
		<tag k="fixme" v="consider place=hamlet" />
		<tag k="name" v="Svalastog" />
		<tag k="place" v="farm" />
		<tag k="ssr:stedsnr" v="592350" />
	</node>
	<node id="-55362" lat="59.6034083356" lon="8.70832499799">
		<tag k="name" v="Skeie søndre" />
		<tag k="place" v="farm" />
		<tag k="ssr:stedsnr" v="592344" />
	</node>
	<node id="-53602" lat="59.6347805572" lon="8.56068888863">
		<tag k="alt_name" v="Herto, nedre;Hærto nedre" />
		<tag k="historic" v="shieling" />
		<tag k="name" v="Nedre Herto" />
		<tag k="place" v="locality" />
		<tag k="ssr:stedsnr" v="246730" />
	</node>
	<node id="-55357" lat="59.6242333317" lon="8.68178055405">
		<tag k="historic" v="shieling" />
		<tag k="name" v="Olaskjerr" />
		<tag k="place" v="locality" />
		<tag k="ssr:stedsnr" v="592058" />
	</node>
	<node id="-55356" lat="59.609324997" lon="8.94499444419">
		<tag k="name" v="Slåttekåsa" />
		<tag k="place" v="farm" />
		<tag k="ssr:stedsnr" v="592055" />
	</node>
	<node id="-55355" lat="59.6186888906" lon="8.82870556277">
		<tag k="name" v="Sviving" />
		<tag k="place" v="farm" />
		<tag k="ssr:stedsnr" v="591896" />
	</node>
	<node id="-55354" lat="59.618997225" lon="8.93175832856">
		<tag k="name" v="Prestegardshamna" />
		<tag k="place" v="quarter" />
		<tag k="ssr:stedsnr" v="591693" />
	</node>
	<node id="-55716" lat="59.6022534571" lon="8.66155738287">
		<tag k="name" v="Mæland" />
		<tag k="place" v="hamlet" />
		<tag k="ssr:stedsnr" v="983323" />
	</node>
	<node id="-55349" lat="59.6103194464" lon="8.67834722758">
		<tag k="name" v="Sud Øverbø" />
		<tag k="place" v="farm" />
		<tag k="ssr:stedsnr" v="591218" />
	</node>
	<node id="-55348" lat="59.6140722215" lon="8.97203611733">
		<tag k="name" v="Omnes nedre" />
		<tag k="place" v="farm" />
		<tag k="ssr:stedsnr" v="591178" />
	</node>
	<node id="-55346" lat="59.7847972201" lon="8.66700278161">
		<tag k="name" v="Plassen" />
		<tag k="place" v="locality" />
		<tag k="ssr:stedsnr" v="591108" />
	</node>
	<node id="-55342" lat="59.7489083291" lon="8.80321944958">
		<tag k="name" v="Landsverk søndre" />
		<tag k="place" v="farm" />
		<tag k="ssr:stedsnr" v="590746" />
	</node>
	<node id="-55341" lat="59.7583472263" lon="8.80230278518">
		<tag k="name" v="Lia" />
		<tag k="place" v="farm" />
		<tag k="ssr:stedsnr" v="590700" />
	</node>
	<node id="-55336" lat="59.7736583329" lon="8.81927777134">
		<tag k="name" v="Fugleholtet" />
		<tag k="place" v="locality" />
		<tag k="ssr:stedsnr" v="590379" />
	</node>
	<node id="-55335" lat="59.7885583353" lon="8.76360555339">
		<tag k="historic" v="shieling" />
		<tag k="name" v="Roe" />
		<tag k="place" v="locality" />
		<tag k="ssr:stedsnr" v="590447" />
	</node>
	<node id="-55334" lat="59.7860388896" lon="8.76653333238">
		<tag k="historic" v="shieling" />
		<tag k="name" v="Nedstulen" />
		<tag k="place" v="locality" />
		<tag k="ssr:stedsnr" v="590443" />
	</node>
	<node id="-55328" lat="59.7231138916" lon="8.85353611044">
		<tag k="name" v="Sønderland øvre" />
		<tag k="place" v="farm" />
		<tag k="ssr:stedsnr" v="590042" />
	</node>
	<node id="-55327" lat="59.6684916673" lon="8.64953610253">
		<tag k="historic" v="shieling" />
		<tag k="name" v="Vassdal" />
		<tag k="place" v="locality" />
		<tag k="ssr:stedsnr" v="590186" />
	</node>
	<node id="-55322" lat="59.713633335" lon="8.4669833247">
		<tag k="historic" v="shieling" />
		<tag k="name" v="Namnlaus" />
		<tag k="place" v="locality" />
		<tag k="ssr:stedsnr" v="583760" />
	</node>
	<node id="-55321" lat="59.7533722244" lon="8.82803611353">
		<tag k="name" v="Stigen" />
		<tag k="place" v="farm" />
		<tag k="ssr:stedsnr" v="583291" />
	</node>
	<node id="-55310" lat="59.7895638898" lon="8.77379444388">
		<tag k="name" v="Hegnin" />
		<tag k="place" v="isolated_dwelling" />
		<tag k="ssr:stedsnr" v="550778" />
	</node>
	<node id="-55309" lat="59.7879361106" lon="8.77181111066">
		<tag k="historic" v="shieling" />
		<tag k="name" v="Slåttestulen" />
		<tag k="place" v="locality" />
		<tag k="ssr:stedsnr" v="550777" />
	</node>
	<node id="-55301" lat="59.7759555532" lon="8.60134443629">
		<tag k="historic" v="shieling" />
		<tag k="name" v="Finnvollen" />
		<tag k="place" v="locality" />
		<tag k="ssr:stedsnr" v="549993" />
	</node>
	<node id="-55298" lat="59.7732833371" lon="8.72210556105">
		<tag k="name" v="Kultan" />
		<tag k="place" v="farm" />
		<tag k="ssr:stedsnr" v="549981" />
	</node>
</osm>
