<?xml version="1.0" encoding="UTF-8"?>
<osm generator="osmapis" version="0.6">
	<node id="-783503" lat="69.0115056247" lon="23.0414793888">
		<tag k="fixme" v="multiple name tags, choose one and add the other to alt_name" />
		<tag k="name" v="Guovdageainnu suohkan;Guovdageaidnu - Kautokeino kommune" />
		<tag k="name:no" v="Kautokeino kommune" />
		<tag k="name:se" v="Guovdageainnu suohkan;Guovdageaidnu" />
		<tag k="ssr:date" v="2018-10-26" />
		<tag k="ssr:gruppe" v="administrativeIndelinger" />
		<tag k="ssr:hovedgruppe" v="offentligAdministrasjon" />
		<tag k="ssr:stedsnr" v="510681" />
		<tag k="ssr:type" v="kommune" />
	</node>
	<node id="-785229" lat="68.4849327361" lon="16.2297866207">
		<tag k="fixme" v="multiple name tags, choose one and add the other to alt_name" />
		<tag k="name" v="Nord-Noreg;Nord-Norge" />
		<tag k="ssr:date" v="2017-05-18" />
		<tag k="ssr:gruppe" v="administrativeIndelinger" />
		<tag k="ssr:hovedgruppe" v="offentligAdministrasjon" />
		<tag k="ssr:stedsnr" v="976106" />
		<tag k="ssr:type" v="annenAdministrativInndeling" />
	</node>
	<node id="-781819" lat="69.0115664007" lon="23.033463806">
		<tag k="name" v="Luomeluodda" />
		<tag k="ssr:date" v="2019-05-31" />
		<tag k="ssr:gruppe" v="veg" />
		<tag k="ssr:hovedgruppe" v="infrastruktur" />
		<tag k="ssr:stedsnr" v="1055034" />
		<tag k="ssr:type" v="adressenavn" />
	</node>
</osm>
