<?xml version="1.0" encoding="UTF-8"?>
<<<<<<< HEAD
<osm version="0.6" generator="osmapis">
	<node lat="61.34076110839197" lon="9.86723611841517" id="-25630">
		<tag k="name" v="Åsbergmyra" />
		<tag k="natural" v="wetland" />
		<tag k="ssr:stedsnr" v="231566" />
	</node>
	<node lat="61.38080278220897" lon="9.684419441195756" id="-25634">
		<tag k="name" v="Stormyra" />
		<tag k="natural" v="wetland" />
		<tag k="ssr:stedsnr" v="231624" />
	</node>
	<node lat="61.35346111327244" lon="9.838027768647091" id="-25635">
		<tag k="name" v="Ekkermyra" />
		<tag k="natural" v="wetland" />
		<tag k="ssr:stedsnr" v="231707" />
	</node>
	<node lat="61.328050003919905" lon="9.904027780539515" id="-25637">
		<tag k="name" v="Olaslettet" />
		<tag k="place" v="locality" />
		<tag k="ssr:stedsnr" v="231869" />
	</node>
	<node lat="61.32064166552909" lon="10.151277776957855" id="-25641">
		<tag k="alt_name" v="Gjefsenslettet" />
		<tag k="historic" v="shieling" />
		<tag k="loc_name" v="Gjefseslettet" />
		<tag k="name" v="Rødumsslettet" />
		<tag k="place" v="locality" />
		<tag k="ssr:stedsnr" v="232062" />
	</node>
	<node lat="61.325088886198415" lon="10.155233325467602" id="-25642">
		<tag k="name" v="Rundtommyrene" />
		<tag k="natural" v="wetland" />
		<tag k="ssr:stedsnr" v="232063" />
	</node>
	<node lat="61.33203888717609" lon="9.750547227833628" id="-25659">
		<tag k="name" v="Grønnmyra" />
		<tag k="natural" v="wetland" />
		<tag k="ssr:stedsnr" v="233492" />
	</node>
	<node lat="61.31534999990378" lon="9.675094444868229" id="-25660">
		<tag k="name" v="Myrslettlia" />
		<tag k="place" v="locality" />
		<tag k="ssr:stedsnr" v="233477" />
	</node>
	<node lat="61.298811108772725" lon="10.159197227507798" id="-25662">
		<tag k="name" v="Hjelmstadnyhagen" />
		<tag k="place" v="locality" />
		<tag k="ssr:stedsnr" v="233565" />
	</node>
	<node lat="61.306136115530144" lon="10.149588895329426" id="-25664">
		<tag k="name" v="Nedre Kjoshaugslettet" />
		<tag k="place" v="locality" />
		<tag k="ssr:stedsnr" v="233568" />
	</node>
	<node lat="61.32027499718795" lon="9.914994444488757" id="-25695">
		<tag k="name" v="Langrannmyra" />
		<tag k="natural" v="wetland" />
		<tag k="ssr:stedsnr" v="49826" />
	</node>
	<node lat="61.324633332579296" lon="9.932791671399382" id="-25697">
		<tag k="name" v="Stormyra" />
		<tag k="natural" v="wetland" />
		<tag k="ssr:stedsnr" v="50005" />
	</node>
	<node lat="61.33489444246845" lon="10.116219452402662" id="-25700">
		<tag k="landuse" v="meadow" />
		<tag k="name" v="Slåseterengene" />
		<tag k="ssr:stedsnr" v="50203" />
	</node>
	<node lat="61.31086389293769" lon="9.778255561048017" id="-25702">
		<tag k="name" v="Leirvollmyra" />
		<tag k="natural" v="wetland" />
		<tag k="ssr:stedsnr" v="50511" />
	</node>
	<node lat="61.29820842514536" lon="10.140624543903625" id="-25712">
		<tag k="alt_name" v="Krankerudhaugringen" />
		<tag k="landuse" v="meadow" />
		<tag k="name" v="Kankerudhaugringen" />
		<tag k="ssr:stedsnr" v="51570" />
	</node>
	<node lat="61.251883329920624" lon="10.088336107519677" id="-25720">
		<tag k="landuse" v="meadow" />
		<tag k="name" v="Brettingsengene" />
		<tag k="ssr:stedsnr" v="51877" />
	</node>
	<node lat="61.2315138892816" lon="10.056191662865297" id="-25725">
		<tag k="name" v="Øveste" />
		<tag k="place" v="locality" />
		<tag k="ssr:stedsnr" v="52767" />
	</node>
	<node lat="61.22993888731512" lon="10.320869438401266" id="-25730">
		<tag k="name" v="Hågåmyra" />
		<tag k="natural" v="wetland" />
		<tag k="ssr:stedsnr" v="55345" />
	</node>
	<node lat="61.3712833307401" lon="10.106497230774046" id="-25731">
		<tag k="name" v="Madsøya" />
		<tag k="place" v="locality" />
		<tag k="ssr:stedsnr" v="56031" />
	</node>
	<node lat="61.24006389058784" lon="9.962797226170172" id="-25757">
		<tag k="name" v="Moslettet" />
		<tag k="place" v="locality" />
		<tag k="ssr:stedsnr" v="69549" />
	</node>
	<node lat="61.29973333161603" lon="10.207747218456358" id="-25758">
		<tag k="alt_name" v="Skottmyra" />
		<tag k="name" v="Skotmyra" />
		<tag k="natural" v="wetland" />
		<tag k="ssr:stedsnr" v="69797" />
	</node>
	<node lat="61.39602500390167" lon="9.701080556737468" id="-25765">
		<tag k="name" v="Flæmyra" />
		<tag k="natural" v="wetland" />
		<tag k="ssr:stedsnr" v="110269" />
	</node>
	<node lat="61.38632222525403" lon="9.731708335061525" id="-25768">
		<tag k="landuse" v="meadow" />
		<tag k="name" v="Sveavollen" />
		<tag k="ssr:stedsnr" v="110289" />
	</node>
	<node lat="61.3202499959818" lon="10.167777771943419" id="-25776">
		<tag k="name" v="Allemannsmyra" />
		<tag k="natural" v="wetland" />
		<tag k="ssr:stedsnr" v="111073" />
	</node>
	<node lat="61.30241111510746" lon="9.852344450894192" id="-25781">
		<tag k="name" v="Grinjumyrene" />
		<tag k="natural" v="wetland" />
		<tag k="ssr:stedsnr" v="111526" />
	</node>
	<node lat="61.269266669910365" lon="10.234997222575666" id="-25787">
		<tag k="name" v="Kloppmyra" />
		<tag k="natural" v="wetland" />
		<tag k="ssr:stedsnr" v="112102" />
	</node>
	<node lat="61.26395000289648" lon="9.855330562350664" id="-25796">
		<tag k="name" v="Svartdalsmyra" />
		<tag k="natural" v="wetland" />
		<tag k="ssr:stedsnr" v="112325" />
	</node>
	<node lat="61.21015555927614" lon="9.827236116844345" id="-25797">
		<tag k="name" v="Dokkvollan" />
		<tag k="place" v="locality" />
		<tag k="ssr:stedsnr" v="112512" />
	</node>
	<node lat="61.302894447534165" lon="10.132836103107714" id="-25799">
		<tag k="name" v="Skredderslettet" />
		<tag k="place" v="locality" />
		<tag k="ssr:stedsnr" v="112525" />
	</node>
	<node lat="61.29956111362483" lon="10.12328889294976" id="-25800">
		<tag k="name" v="Kjøttmysuringen" />
		<tag k="place" v="locality" />
		<tag k="ssr:stedsnr" v="112526" />
	</node>
	<node lat="61.26629999588831" lon="10.095250002818357" id="-25805">
		<tag k="landuse" v="meadow" />
		<tag k="name" v="Bøhmerringen" />
		<tag k="ssr:stedsnr" v="112816" />
	</node>
	<node lat="61.38449166256759" lon="9.733069443481671" id="-25819">
		<tag k="landuse" v="meadow" />
		<tag k="name" v="Grytvollen" />
		<tag k="ssr:stedsnr" v="250366" />
	</node>
	<node lat="61.227916667718944" lon="10.33389722953789" id="-25883">
		<tag k="alt_name" v="Holbekkmyra" />
		<tag k="name" v="Hølbekkmyra" />
		<tag k="natural" v="wetland" />
		<tag k="ssr:stedsnr" v="129298" />
	</node>
	<node lat="61.269900004298115" lon="10.22047499461509" id="-25896">
		<tag k="name" v="Langmyra" />
		<tag k="natural" v="wetland" />
		<tag k="ssr:stedsnr" v="129852" />
	</node>
	<node lat="61.3215333297449" lon="9.60086666800716" id="-25918">
		<tag k="name" v="Hundtjønnmyrene" />
		<tag k="natural" v="wetland" />
		<tag k="ssr:stedsnr" v="172165" />
	</node>
	<node lat="61.26918611037256" lon="10.060738885649556" id="-25920">
		<tag k="name" v="Tjønnmyra" />
		<tag k="natural" v="wetland" />
		<tag k="ssr:stedsnr" v="172429" />
	</node>
	<node lat="61.21796111172491" lon="10.057913885474784" id="-25933">
		<tag k="name" v="Jomyra" />
		<tag k="natural" v="wetland" />
		<tag k="ssr:stedsnr" v="173562" />
	</node>
	<node lat="61.39017777474106" lon="9.734194444709624" id="-25950">
		<tag k="landuse" v="meadow" />
		<tag k="name" v="Børkvollen" />
		<tag k="ssr:stedsnr" v="190358" />
	</node>
	<node lat="61.40007500001608" lon="9.784969435368598" id="-25973">
		<tag k="name" v="Gjestebumyra" />
		<tag k="natural" v="wetland" />
		<tag k="ssr:stedsnr" v="231141" />
	</node>
	<node lat="61.35673610864343" lon="9.859694446390744" id="-25974">
		<tag k="name" v="Vintermyra" />
		<tag k="natural" v="wetland" />
		<tag k="ssr:stedsnr" v="231532" />
	</node>
	<node lat="61.328519448296774" lon="9.845358341995377" id="-25975">
		<tag k="name" v="Flatemsmyra" />
		<tag k="natural" v="wetland" />
		<tag k="ssr:stedsnr" v="231587" />
	</node>
	<node lat="61.35618055498562" lon="10.075444449613833" id="-25977">
		<tag k="name" v="Gråpurka" />
		<tag k="natural" v="stone" />
		<tag k="ssr:stedsnr" v="231908" />
	</node>
	<node lat="61.40591110884808" lon="9.548772214412814" id="-25978">
		<tag k="landuse" v="meadow" />
		<tag k="name" v="Hessenget" />
		<tag k="ssr:stedsnr" v="231910" />
	</node>
	<node lat="61.40994999687293" lon="9.57714445261083" id="-25980">
=======
<osm generator="osmapis" version="0.6">
	<node id="-380958" lat="61.2407555547" lon="10.3156972201">
		<tag k="name" v="Nedre Nordsvehaugmyra" />
		<tag k="natural" v="wetland" />
		<tag k="ssr:stedsnr" v="962306" />
	</node>
	<node id="-381950" lat="61.2761166656" lon="10.0842277774">
		<tag k="name" v="Drevmyra" />
		<tag k="natural" v="wetland" />
		<tag k="ssr:stedsnr" v="554880" />
	</node>
	<node id="-382461" lat="61.359702774" lon="10.0941416622">
>>>>>>> e1d4bc35ff8a6074a6f2e91616a996b547c36f15
		<tag k="landuse" v="quarry" />
		<tag k="loc_name" v="Gammelsætergruva" />
		<tag k="name" v="Bjellkugruva" />
		<tag k="ssr:stedsnr" v="231887" />
	</node>
<<<<<<< HEAD
	<node lat="61.319986108478645" lon="10.099194445430514" id="-25981">
		<tag k="name" v="Kjoshaugmyra" />
=======
	<node id="-379952" lat="61.3322416668" lon="9.81488888175">
		<tag k="name" v="Langmyra" />
		<tag k="natural" v="wetland" />
		<tag k="ssr:stedsnr" v="293628" />
	</node>
	<node id="-381947" lat="61.2648250024" lon="10.0706916714">
		<tag k="name" v="Bosshaugmyra" />
>>>>>>> e1d4bc35ff8a6074a6f2e91616a996b547c36f15
		<tag k="natural" v="wetland" />
		<tag k="ssr:stedsnr" v="232035" />
	</node>
<<<<<<< HEAD
	<node lat="61.375108337293184" lon="9.754986109339237" id="-25984">
		<tag k="name" v="Elgslettet" />
		<tag k="place" v="locality" />
		<tag k="ssr:stedsnr" v="232092" />
	</node>
	<node lat="61.3535055517883" lon="9.956258324501132" id="-25989">
		<tag k="name" v="Andersslettet" />
=======
	<node id="-381434" lat="61.3901777747" lon="9.73419444471">
		<tag k="landuse" v="meadow" />
		<tag k="name" v="Børkvollen" />
		<tag k="ssr:stedsnr" v="190358" />
	</node>
	<node id="-382455" lat="61.3289972259" lon="9.84787222337">
		<tag k="name" v="Flatene" />
>>>>>>> e1d4bc35ff8a6074a6f2e91616a996b547c36f15
		<tag k="place" v="locality" />
		<tag k="ssr:stedsnr" v="232988" />
	</node>
<<<<<<< HEAD
	<node lat="61.2617472193379" lon="10.224672213731475" id="-25992">
		<tag k="name" v="Norhusmyra" />
=======
	<node id="-381429" lat="61.3293555535" lon="10.0791722163">
		<tag k="name" v="Lonan" />
>>>>>>> e1d4bc35ff8a6074a6f2e91616a996b547c36f15
		<tag k="natural" v="wetland" />
		<tag k="ssr:stedsnr" v="233084" />
	</node>
<<<<<<< HEAD
	<node lat="61.259419443441466" lon="10.100080555536657" id="-26003">
		<tag k="landuse" v="meadow" />
		<tag k="name" v="Homsringen" />
		<tag k="ssr:stedsnr" v="233948" />
	</node>
	<node lat="61.3627027792706" lon="9.749486110835079" id="-26006">
		<tag k="historic" v="shieling" />
		<tag k="name" v="Høgbergsvollen" />
		<tag k="place" v="locality" />
		<tag k="ssr:stedsnr" v="233882" />
	</node>
	<node lat="61.26856111078905" lon="9.980602771469696" id="-26018">
		<tag k="name" v="Dipilmyra" />
=======
	<node id="-381428" lat="61.3215388848" lon="9.97257778081">
		<tag k="name" v="Skåndalsmyra" />
		<tag k="natural" v="wetland" />
		<tag k="ssr:stedsnr" v="189950" />
	</node>
	<node id="-381939" lat="61.3348305536" lon="9.81666944615">
		<tag k="name" v="Turtåsmyra" />
>>>>>>> e1d4bc35ff8a6074a6f2e91616a996b547c36f15
		<tag k="natural" v="wetland" />
		<tag k="ssr:stedsnr" v="234982" />
	</node>
<<<<<<< HEAD
	<node lat="61.32265832973124" lon="9.911474998486296" id="-26030">
		<tag k="name" v="Rundmyra" />
=======
	<node id="-382442" lat="61.3470083338" lon="9.87301944809">
		<tag k="name" v="Skåråsmyra" />
>>>>>>> e1d4bc35ff8a6074a6f2e91616a996b547c36f15
		<tag k="natural" v="wetland" />
		<tag k="ssr:stedsnr" v="292824" />
	</node>
<<<<<<< HEAD
	<node lat="61.32163055618118" lon="10.002527782117806" id="-26032">
		<tag k="historic" v="shieling" />
		<tag k="name" v="Møylilykkja" />
=======
	<node id="-380327" lat="61.3384916706" lon="9.69525277171">
		<tag k="name" v="Stormyra" />
		<tag k="natural" v="wetland" />
		<tag k="ssr:stedsnr" v="657340" />
	</node>
	<node id="-382439" lat="61.3874749995" lon="9.72902222126">
		<tag k="name" v="Paulsrudrompa" />
>>>>>>> e1d4bc35ff8a6074a6f2e91616a996b547c36f15
		<tag k="place" v="locality" />
		<tag k="ssr:stedsnr" v="292933" />
	</node>
<<<<<<< HEAD
	<node lat="61.33224166675685" lon="9.814888881754928" id="-26042">
		<tag k="name" v="Langmyra" />
		<tag k="natural" v="wetland" />
		<tag k="ssr:stedsnr" v="293628" />
	</node>
	<node lat="61.248944448283325" lon="9.966461114805016" id="-26052">
		<tag k="historic" v="shieling" />
		<tag k="name" v="Smelislettet" />
		<tag k="place" v="locality" />
		<tag k="ssr:stedsnr" v="294779" />
	</node>
	<node lat="61.2330500011397" lon="10.109013891674007" id="-26053">
		<tag k="name" v="Kolhusmyra" />
		<tag k="natural" v="wetland" />
		<tag k="ssr:stedsnr" v="294872" />
	</node>
	<node lat="61.35820000200037" lon="10.141208329174244" id="-26082">
		<tag k="name" v="Sjøsetermyra" />
		<tag k="natural" v="wetland" />
		<tag k="ssr:stedsnr" v="311989" />
	</node>
	<node lat="61.308146032272134" lon="10.101491024594285" id="-26086">
		<tag k="name" v="Langmyra" />
=======
	<node id="-380387" lat="61.2406527759" lon="10.0823777787">
		<tag k="name" v="Teigumsengene" />
		<tag k="place" v="locality" />
		<tag k="ssr:stedsnr" v="476865" />
	</node>
	<node id="-380633" lat="61.3111777811" lon="10.1244694369">
		<tag k="name" v="Hopperslettmyra" />
		<tag k="natural" v="wetland" />
		<tag k="ssr:stedsnr" v="658508" />
	</node>
	<node id="-381916" lat="61.212774997" lon="10.0649777812">
		<tag k="alt_name" v="Graffermarka" />
		<tag k="name" v="Graffermorka" />
		<tag k="place" v="locality" />
		<tag k="ssr:stedsnr" v="553452" />
	</node>
	<node id="-380891" lat="61.295141664" lon="9.79895832589">
		<tag k="name" v="Rypvollslettet" />
		<tag k="place" v="locality" />
		<tag k="ssr:stedsnr" v="900553" />
	</node>
	<node id="-381401" lat="61.1326694456" lon="10.0834888897">
		<tag k="name" v="Toftmyra" />
		<tag k="natural" v="wetland" />
		<tag k="ssr:stedsnr" v="173884" />
	</node>
	<node id="-379864" lat="61.2337972262" lon="10.3385249984">
		<tag k="name" v="Rundmyra" />
		<tag k="natural" v="wetland" />
		<tag k="ssr:stedsnr" v="113330" />
	</node>
	<node id="-380887" lat="61.2996611119" lon="9.96305554878">
		<tag k="landuse" v="meadow" />
		<tag k="name" v="Glåmsenget" />
		<tag k="ssr:stedsnr" v="900163" />
	</node>
	<node id="-379862" lat="61.2662999959" lon="10.0952500028">
		<tag k="landuse" v="meadow" />
		<tag k="name" v="Bøhmerringen" />
		<tag k="ssr:stedsnr" v="112816" />
	</node>
	<node id="-381396" lat="61.2179611117" lon="10.0579138855">
		<tag k="name" v="Jomyra" />
>>>>>>> e1d4bc35ff8a6074a6f2e91616a996b547c36f15
		<tag k="natural" v="wetland" />
		<tag k="ssr:stedsnr" v="312755" />
	</node>
<<<<<<< HEAD
	<node lat="61.39198611403511" lon="9.807850008195105" id="-26096">
		<tag k="name" v="Heiskogen" />
=======
	<node id="-379859" lat="61.2101555593" lon="9.82723611684">
		<tag k="name" v="Dokkvollan" />
>>>>>>> e1d4bc35ff8a6074a6f2e91616a996b547c36f15
		<tag k="place" v="locality" />
		<tag k="ssr:stedsnr" v="474088" />
	</node>
<<<<<<< HEAD
	<node lat="61.346813892088996" lon="10.184749995535961" id="-26103">
		<tag k="alt_name" v="Norshusmyra" />
		<tag k="name" v="Nordshusmyra" />
=======
	<node id="-379858" lat="61.2576027752" lon="10.0152888962">
		<tag k="name" v="Sundmyra" />
>>>>>>> e1d4bc35ff8a6074a6f2e91616a996b547c36f15
		<tag k="natural" v="wetland" />
		<tag k="ssr:stedsnr" v="353117" />
	</node>
<<<<<<< HEAD
	<node lat="61.33082499957116" lon="9.841008333952079" id="-26104">
		<tag k="name" v="Øverhaugmyra" />
		<tag k="natural" v="wetland" />
		<tag k="ssr:stedsnr" v="353534" />
	</node>
	<node lat="61.33035278065176" lon="9.836158338497855" id="-26105">
		<tag k="name" v="Nedre Sålåmyra" />
=======
	<node id="-382371" lat="61.3702555551" lon="9.75417778239">
		<tag k="name" v="Svartholmyra" />
		<tag k="natural" v="wetland" />
		<tag k="ssr:stedsnr" v="840894" />
	</node>
	<node id="-379855" lat="61.2639500029" lon="9.85533056235">
		<tag k="name" v="Svartdalsmyra" />
>>>>>>> e1d4bc35ff8a6074a6f2e91616a996b547c36f15
		<tag k="natural" v="wetland" />
		<tag k="ssr:stedsnr" v="353535" />
	</node>
<<<<<<< HEAD
	<node lat="61.30511666403475" lon="9.856377783343875" id="-26108">
		<tag k="name" v="Flågåmyra" />
		<tag k="natural" v="wetland" />
		<tag k="ssr:stedsnr" v="353559" />
	</node>
	<node lat="61.33429999727594" lon="9.862761115261437" id="-26112">
		<tag k="name" v="Veslemyra" />
=======
	<node id="-380013" lat="61.356180555" lon="10.0754444496">
		<tag k="name" v="Gråpurka" />
		<tag k="natural" v="stone" />
		<tag k="ssr:stedsnr" v="231908" />
	</node>
	<node id="-380877" lat="61.3577611098" lon="10.1258194387">
		<tag k="name" v="Langmyra" />
>>>>>>> e1d4bc35ff8a6074a6f2e91616a996b547c36f15
		<tag k="natural" v="wetland" />
		<tag k="ssr:stedsnr" v="474522" />
	</node>
<<<<<<< HEAD
	<node lat="61.31825000219958" lon="9.874888896976888" id="-26120">
		<tag k="name" v="Nigardshågån" />
		<tag k="place" v="locality" />
		<tag k="ssr:stedsnr" v="474628" />
	</node>
	<node lat="61.351730553251144" lon="9.73823054698976" id="-26130">
		<tag k="name" v="Solfritt" />
		<tag k="place" v="locality" />
		<tag k="ssr:stedsnr" v="354882" />
	</node>
	<node lat="61.24965277993416" lon="9.93481944047478" id="-26141">
		<tag k="name" v="Flåmyra" />
=======
	<node id="-379851" lat="61.2692666699" lon="10.2349972226">
		<tag k="name" v="Kloppmyra" />
>>>>>>> e1d4bc35ff8a6074a6f2e91616a996b547c36f15
		<tag k="natural" v="wetland" />
		<tag k="ssr:stedsnr" v="355852" />
	</node>
<<<<<<< HEAD
	<node lat="61.3468805527534" lon="9.918255555870745" id="-26142">
		<tag k="name" v="Nyseterkjølen" />
		<tag k="place" v="locality" />
		<tag k="ssr:stedsnr" v="474963" />
	</node>
	<node lat="61.282352774889674" lon="10.219486105657236" id="-26145">
		<tag k="name" v="Kojemyra" />
		<tag k="natural" v="wetland" />
		<tag k="ssr:stedsnr" v="475140" />
	</node>
	<node lat="61.29446666900538" lon="10.008194440905445" id="-26161">
		<tag k="name" v="Småmyrene" />
=======
	<node id="-381386" lat="61.25273056" lon="10.0824194471">
		<tag k="landuse" v="meadow" />
		<tag k="name" v="Solsetengene" />
		<tag k="ssr:stedsnr" v="172947" />
	</node>
	<node id="-382409" lat="61.2223722257" lon="10.0310305546">
		<tag k="name" v="Limånmyra" />
		<tag k="natural" v="wetland" />
		<tag k="ssr:stedsnr" v="857474" />
	</node>
	<node id="-381384" lat="61.3747472213" lon="9.64508888562">
		<tag k="landuse" v="meadow" />
		<tag k="name" v="Hanssonlykkja" />
		<tag k="ssr:stedsnr" v="172939" />
	</node>
	<node id="-380871" lat="61.3442972227" lon="9.92464722663">
		<tag k="alt_name" v="Haustsætermyrene" />
		<tag k="name" v="Haustsætermyrin" />
>>>>>>> e1d4bc35ff8a6074a6f2e91616a996b547c36f15
		<tag k="natural" v="wetland" />
		<tag k="ssr:stedsnr" v="475688" />
	</node>
<<<<<<< HEAD
	<node lat="61.35663055785847" lon="9.721758331716629" id="-26165">
		<tag k="name" v="Nesshaugmyra" />
		<tag k="natural" v="wetland" />
		<tag k="ssr:stedsnr" v="475883" />
	</node>
	<node lat="61.17446388655608" lon="10.0053833324677" id="-26175">
		<tag k="name" v="Stormyra" />
=======
	<node id="-380357" lat="61.2678583298" lon="10.0814111054">
		<tag k="name" v="Raudalsmyra" />
>>>>>>> e1d4bc35ff8a6074a6f2e91616a996b547c36f15
		<tag k="natural" v="wetland" />
		<tag k="ssr:stedsnr" v="476042" />
	</node>
<<<<<<< HEAD
	<node lat="61.24251944523616" lon="10.335502769659817" id="-26191">
		<tag k="name" v="Ståkåmyra" />
=======
	<node id="-380356" lat="61.2699861139" lon="10.0686722163">
		<tag k="name" v="Nigardsmyra" />
>>>>>>> e1d4bc35ff8a6074a6f2e91616a996b547c36f15
		<tag k="natural" v="wetland" />
		<tag k="ssr:stedsnr" v="477347" />
	</node>
<<<<<<< HEAD
	<node lat="61.1436611073097" lon="10.222952785966985" id="-26194">
		<tag k="name" v="Hågåmyra" />
		<tag k="natural" v="wetland" />
		<tag k="ssr:stedsnr" v="371067" />
	</node>
	<node lat="61.25787500140933" lon="10.269450000914636" id="-26219">
		<tag k="name" v="Furumyrene" />
		<tag k="natural" v="wetland" />
		<tag k="ssr:stedsnr" v="372858" />
	</node>
	<node lat="61.30117499691339" lon="9.737005554730883" id="-26224">
		<tag k="name" v="Stormyra" />
=======
	<node id="-381686" lat="61.3186138904" lon="10.0765666585">
		<tag k="name" v="Pighaugmyra" />
		<tag k="natural" v="wetland" />
		<tag k="ssr:stedsnr" v="414035" />
	</node>
	<node id="-381378" lat="61.3154666678" lon="9.72200833008">
		<tag k="name" v="Nistumyra" />
		<tag k="natural" v="wetland" />
		<tag k="ssr:stedsnr" v="172492" />
	</node>
	<node id="-379979" lat="61.2489444483" lon="9.96646111481">
		<tag k="historic" v="shieling" />
		<tag k="name" v="Smelislettet" />
		<tag k="place" v="locality" />
		<tag k="ssr:stedsnr" v="294779" />
	</node>
	<node id="-381088" lat="61.3202749972" lon="9.91499444449">
		<tag k="name" v="Langrannmyra" />
		<tag k="natural" v="wetland" />
		<tag k="ssr:stedsnr" v="49826" />
	</node>
	<node id="-379984" lat="61.2330500011" lon="10.1090138917">
		<tag k="name" v="Kolhusmyra" />
		<tag k="natural" v="wetland" />
		<tag k="ssr:stedsnr" v="294872" />
	</node>
	<node id="-380348" lat="61.3448499965" lon="9.97281944866">
		<tag k="name" v="Musholmyrene" />
		<tag k="natural" v="wetland" />
		<tag k="ssr:stedsnr" v="657984" />
	</node>
	<node id="-381371" lat="61.2618944468" lon="10.0519722262">
		<tag k="name" v="Rundmyra" />
>>>>>>> e1d4bc35ff8a6074a6f2e91616a996b547c36f15
		<tag k="natural" v="wetland" />
		<tag k="ssr:stedsnr" v="479790" />
	</node>
<<<<<<< HEAD
	<node lat="61.279002775812884" lon="10.041741661925348" id="-26234">
		<tag k="name" v="Skålslettmyra" />
=======
	<node id="-381370" lat="61.2691861104" lon="10.0607388856">
		<tag k="name" v="Tjønnmyra" />
>>>>>>> e1d4bc35ff8a6074a6f2e91616a996b547c36f15
		<tag k="natural" v="wetland" />
		<tag k="ssr:stedsnr" v="401677" />
	</node>
<<<<<<< HEAD
	<node lat="61.31861389042067" lon="10.0765666585334" id="-26239">
		<tag k="name" v="Pighaugmyra" />
=======
	<node id="-381367" lat="61.2808333302" lon="9.93227777001">
		<tag k="name" v="Kloppmyra" />
>>>>>>> e1d4bc35ff8a6074a6f2e91616a996b547c36f15
		<tag k="natural" v="wetland" />
		<tag k="ssr:stedsnr" v="414035" />
	</node>
<<<<<<< HEAD
	<node lat="61.328577781885414" lon="9.878316664292784" id="-26241">
		<tag k="name" v="Åssteinan" />
		<tag k="natural" v="stone" />
		<tag k="ssr:stedsnr" v="414508" />
	</node>
	<node lat="61.31794444356101" lon="9.829011112151857" id="-26243">
		<tag k="landuse" v="meadow" />
		<tag k="name" v="Husenget" />
		<tag k="ssr:stedsnr" v="414520" />
	</node>
	<node lat="61.33369721862923" lon="9.822024998649919" id="-26244">
		<tag k="name" v="Turtåsmyra" />
=======
	<node id="-381365" lat="61.3215333297" lon="9.60086666801">
		<tag k="name" v="Hundtjønnmyrene" />
>>>>>>> e1d4bc35ff8a6074a6f2e91616a996b547c36f15
		<tag k="natural" v="wetland" />
		<tag k="ssr:stedsnr" v="414525" />
	</node>
<<<<<<< HEAD
	<node lat="61.20673611322968" lon="10.0775472145148" id="-26257">
		<tag k="name" v="Graffermorka" />
		<tag k="place" v="locality" />
		<tag k="ssr:stedsnr" v="416046" />
	</node>
	<node lat="61.25648055549126" lon="10.257538882343994" id="-26263">
		<tag k="name" v="Einstadstylmyra" />
=======
	<node id="-381364" lat="61.3466999967" lon="9.97629722692">
		<tag k="name" v="Madsimyrene" />
>>>>>>> e1d4bc35ff8a6074a6f2e91616a996b547c36f15
		<tag k="natural" v="wetland" />
		<tag k="ssr:stedsnr" v="419449" />
	</node>
<<<<<<< HEAD
	<node lat="61.225208329559166" lon="10.338216664986467" id="-26312">
		<tag k="name" v="Larsmyra" />
=======
	<node id="-382387" lat="61.2642194452" lon="10.2545472173">
		<tag k="name" v="Blautmyra" />
>>>>>>> e1d4bc35ff8a6074a6f2e91616a996b547c36f15
		<tag k="natural" v="wetland" />
		<tag k="ssr:stedsnr" v="493459" />
	</node>
<<<<<<< HEAD
	<node lat="61.24608333247441" lon="9.919019447887953" id="-26313">
		<tag k="name" v="Stormyra" />
		<tag k="natural" v="wetland" />
		<tag k="ssr:stedsnr" v="493545" />
	</node>
	<node lat="61.28615555725044" lon="10.219630550894312" id="-26340">
		<tag k="name" v="Stormyra" />
=======
	<node id="-379973" lat="61.3139361071" lon="10.1468694422">
		<tag k="landuse" v="meadow" />
		<tag k="name" v="Nedre Selbota" />
		<tag k="ssr:stedsnr" v="294539" />
	</node>
	<node id="-380478" lat="61.1626638923" lon="10.1288638949">
		<tag k="name" v="Prestsletta" />
		<tag k="place" v="locality" />
		<tag k="ssr:stedsnr" v="299450" />
	</node>
	<node id="-380154" lat="61.3193888845" lon="9.89989443784">
		<tag k="name" v="Skålan" />
		<tag k="place" v="locality" />
		<tag k="ssr:stedsnr" v="352931" />
	</node>
	<node id="-381356" lat="61.3027916682" lon="9.804638882">
		<tag k="name" v="Tørrfurumyra" />
>>>>>>> e1d4bc35ff8a6074a6f2e91616a996b547c36f15
		<tag k="natural" v="wetland" />
		<tag k="ssr:stedsnr" v="494732" />
	</node>
<<<<<<< HEAD
	<node lat="61.30440278057264" lon="10.00987500087044" id="-26373">
		<tag k="name" v="Finntottslettet" />
=======
	<node id="-381355" lat="61.3231027777" lon="9.82356110267">
		<tag k="name" v="Hanslihågån" />
>>>>>>> e1d4bc35ff8a6074a6f2e91616a996b547c36f15
		<tag k="place" v="locality" />
		<tag k="ssr:stedsnr" v="474008" />
	</node>
<<<<<<< HEAD
	<node lat="61.3355166625841" lon="10.188005554914573" id="-26377">
		<tag k="name" v="Martinstylen" />
		<tag k="place" v="locality" />
		<tag k="ssr:stedsnr" v="474179" />
	</node>
	<node lat="61.26032777782615" lon="10.232052770819852" id="-26389">
		<tag k="name" v="Engemyra" />
		<tag k="natural" v="wetland" />
		<tag k="ssr:stedsnr" v="676825" />
	</node>
	<node lat="61.32686666914451" lon="9.675227779914318" id="-26392">
		<tag k="name" v="Putterhaugflågan" />
=======
	<node id="-381255" lat="61.2731444485" lon="10.0690222293">
		<tag k="name" v="Stakkmyrene" />
		<tag k="natural" v="wetland" />
		<tag k="ssr:stedsnr" v="112960" />
	</node>
	<node id="-381863" lat="61.3395611142" lon="9.71714166348">
		<tag k="name" v="Øvre Merramyra" />
>>>>>>> e1d4bc35ff8a6074a6f2e91616a996b547c36f15
		<tag k="natural" v="wetland" />
		<tag k="ssr:stedsnr" v="475323" />
	</node>
<<<<<<< HEAD
	<node lat="61.36964722371554" lon="9.745555559027478" id="-26395">
		<tag k="name" v="Ømbjørgstein" />
		<tag k="natural" v="stone" />
		<tag k="ssr:stedsnr" v="475892" />
	</node>
	<node lat="61.24065277585563" lon="10.082377778675609" id="-26401">
		<tag k="alt_name" v="Teigumsengene" />
		<tag k="name" v="Teigomsengene" />
		<tag k="place" v="locality" />
		<tag k="ssr:stedsnr" v="476865" />
	</node>
	<node lat="61.168869441576675" lon="10.073483330366068" id="-26406">
		<tag k="name" v="Klininggrautsteinen" />
		<tag k="natural" v="stone" />
		<tag k="ssr:stedsnr" v="481612" />
	</node>
	<node lat="61.24107499617151" lon="9.972183335486042" id="-26414">
		<tag k="alt_name" v="Oppsetslættet" />
		<tag k="name" v="Oppsetslettet" />
		<tag k="place" v="locality" />
		<tag k="ssr:stedsnr" v="492329" />
	</node>
	<node lat="61.24817499941714" lon="10.286800000188448" id="-26425">
		<tag k="name" v="Finntottmyra" />
=======
	<node id="-381859" lat="61.2859166657" lon="10.0073611202">
		<tag k="name" v="Nordgardshågån" />
		<tag k="place" v="locality" />
		<tag k="ssr:stedsnr" v="536719" />
	</node>
	<node id="-381857" lat="61.2886111152" lon="10.0229166672">
		<tag k="name" v="Nigardsmyra" />
>>>>>>> e1d4bc35ff8a6074a6f2e91616a996b547c36f15
		<tag k="natural" v="wetland" />
		<tag k="ssr:stedsnr" v="493272" />
	</node>
<<<<<<< HEAD
	<node lat="61.31789862430249" lon="10.124265090824611" id="-26429">
		<tag k="historic" v="shieling" />
		<tag k="name" v="Mælumslia" />
=======
	<node id="-380832" lat="61.3811527788" lon="9.72969721631">
		<tag k="name" v="Besskveinslettene" />
>>>>>>> e1d4bc35ff8a6074a6f2e91616a996b547c36f15
		<tag k="place" v="locality" />
		<tag k="ssr:stedsnr" v="493823" />
	</node>
<<<<<<< HEAD
	<node lat="61.285916665700285" lon="10.007361120205235" id="-26453">
		<tag k="name" v="Nordgardshågån" />
		<tag k="place" v="locality" />
		<tag k="ssr:stedsnr" v="536719" />
	</node>
	<node lat="61.26776388509141" lon="9.946024999793167" id="-26459">
		<tag k="name" v="Fossmyra" />
=======
	<node id="-380831" lat="61.3942111107" lon="9.78671389312">
		<tag k="name" v="Magnhildmyra" />
		<tag k="natural" v="wetland" />
		<tag k="ssr:stedsnr" v="838157" />
	</node>
	<node id="-381040" lat="61.2193055529" lon="10.0098111076">
		<tag k="alt_name" v="Trasserudslettet" />
		<tag k="landuse" v="meadow" />
		<tag k="name" v="Trassrudslættet" />
		<tag k="ssr:stedsnr" v="8499" />
	</node>
	<node id="-380317" lat="61.3332944485" lon="9.83675833338">
		<tag k="name" v="Øvre Sålåmyra" />
>>>>>>> e1d4bc35ff8a6074a6f2e91616a996b547c36f15
		<tag k="natural" v="wetland" />
		<tag k="ssr:stedsnr" v="537989" />
	</node>
<<<<<<< HEAD
	<node lat="61.33483055363287" lon="9.816669446147701" id="-26487">
		<tag k="name" v="Turtåsmyra" />
=======
	<node id="-380316" lat="61.3354222207" lon="9.85705555101">
		<tag k="name" v="Bjørnbakkmyra" />
>>>>>>> e1d4bc35ff8a6074a6f2e91616a996b547c36f15
		<tag k="natural" v="wetland" />
		<tag k="ssr:stedsnr" v="554678" />
	</node>
<<<<<<< HEAD
	<node lat="61.37725277734807" lon="9.73202222231338" id="-26505">
		<tag k="name" v="Ramsvollen" />
		<tag k="place" v="locality" />
		<tag k="ssr:stedsnr" v="596065" />
	</node>
	<node lat="61.279488886340516" lon="9.884891665420025" id="-26508">
		<tag k="name" v="Kjeikflågån" />
=======
	<node id="-379803" lat="61.3844916626" lon="9.73306944348">
		<tag k="landuse" v="meadow" />
		<tag k="name" v="Grytvollen" />
		<tag k="ssr:stedsnr" v="250366" />
	</node>
	<node id="-381091" lat="61.4053972243" lon="9.553313892">
		<tag k="historic" v="shieling" />
		<tag k="name" v="Skriua" />
		<tag k="place" v="locality" />
		<tag k="ssr:stedsnr" v="49900" />
	</node>
	<node id="-381337" lat="61.3787833357" lon="10.1431416593">
		<tag k="name" v="Stormyra" />
>>>>>>> e1d4bc35ff8a6074a6f2e91616a996b547c36f15
		<tag k="natural" v="wetland" />
		<tag k="ssr:stedsnr" v="596804" />
	</node>
<<<<<<< HEAD
	<node lat="61.30044166635584" lon="10.144824994993023" id="-26516">
		<tag k="name" v="Perringen" />
		<tag k="place" v="locality" />
		<tag k="ssr:stedsnr" v="597515" />
	</node>
	<node lat="61.27191389255979" lon="10.082744448405158" id="-26522">
		<tag k="name" v="Øvre Haugaringmyra" />
		<tag k="natural" v="wetland" />
		<tag k="ssr:stedsnr" v="597970" />
	</node>
	<node lat="61.34839722573045" lon="9.900894449579296" id="-26529">
		<tag k="name" v="Larsslettene" />
		<tag k="place" v="locality" />
		<tag k="ssr:stedsnr" v="603317" />
	</node>
	<node lat="61.37344703704772" lon="10.005105299266589" id="-26530">
		<tag k="name" v="Huldersetra" />
		<tag k="natural" v="stone" />
		<tag k="ssr:stedsnr" v="603799" />
	</node>
	<node lat="61.336850003743464" lon="9.696822214568538" id="-26542">
		<tag k="name" v="Stormyra" />
=======
	<node id="-382360" lat="61.2783555545" lon="10.0923305637">
		<tag k="name" v="Skalmyra" />
		<tag k="natural" v="wetland" />
		<tag k="ssr:stedsnr" v="840621" />
	</node>
	<node id="-382521" lat="61.3660576021" lon="9.81950226984">
		<tag k="name" v="Hanslislettet" />
		<tag k="place" v="locality" />
		<tag k="ssr:stedsnr" v="974326" />
	</node>
	<node id="-382354" lat="61.2113499988" lon="9.8137166675">
		<tag k="name" v="Sjælsteinan" />
		<tag k="natural" v="stone" />
		<tag k="ssr:stedsnr" v="840591" />
	</node>
	<node id="-381326" lat="61.2681111121" lon="9.42046110527">
		<tag k="name" v="Gråmyrene" />
>>>>>>> e1d4bc35ff8a6074a6f2e91616a996b547c36f15
		<tag k="natural" v="wetland" />
		<tag k="ssr:stedsnr" v="614651" />
	</node>
	<node lat="61.300849998725276" lon="10.121316670256235" id="-26557">
		<tag k="name" v="Rudstugumyra" />
		<tag k="natural" v="wetland" />
		<tag k="ssr:stedsnr" v="615762" />
	</node>
<<<<<<< HEAD
	<node lat="61.28406110939249" lon="10.043794438126392" id="-26558">
		<tag k="historic" v="shieling" />
		<tag k="name" v="Graupstølan" />
=======
	<node id="-380141" lat="61.3011749969" lon="9.73700555473">
		<tag k="name" v="Stormyra" />
		<tag k="natural" v="wetland" />
		<tag k="ssr:stedsnr" v="479790" />
	</node>
	<node id="-382348" lat="61.3313083335" lon="9.74440278525">
		<tag k="name" v="Steinbakkringen" />
>>>>>>> e1d4bc35ff8a6074a6f2e91616a996b547c36f15
		<tag k="place" v="locality" />
		<tag k="ssr:stedsnr" v="704645" />
	</node>
<<<<<<< HEAD
	<node lat="61.261747225298336" lon="9.980316666930019" id="-26559">
		<tag k="name" v="Kvenndorra" />
=======
	<node id="-380811" lat="61.2522472202" lon="10.2761194473">
		<tag k="name" v="Langmyra" />
>>>>>>> e1d4bc35ff8a6074a6f2e91616a996b547c36f15
		<tag k="natural" v="wetland" />
		<tag k="ssr:stedsnr" v="705986" />
	</node>
<<<<<<< HEAD
	<node lat="61.36652222516971" lon="9.90801945186375" id="-26562">
		<tag k="name" v="Smehaugslettet" />
		<tag k="place" v="locality" />
		<tag k="ssr:stedsnr" v="655391" />
	</node>
	<node lat="61.39053055412175" lon="9.725274996898749" id="-26565">
		<tag k="name" v="Systurompa" />
=======
	<node id="-382343" lat="61.3653638901" lon="9.73396944474">
		<tag k="historic" v="shieling" />
		<tag k="name" v="Brekkvollen" />
>>>>>>> e1d4bc35ff8a6074a6f2e91616a996b547c36f15
		<tag k="place" v="locality" />
		<tag k="ssr:stedsnr" v="656284" />
	</node>
<<<<<<< HEAD
	<node lat="61.39237222261621" lon="9.723633341261316" id="-26566">
		<tag k="name" v="Endarompa" />
		<tag k="place" v="locality" />
		<tag k="ssr:stedsnr" v="656285" />
	</node>
	<node lat="61.338491670624066" lon="9.6952527717068" id="-26572">
		<tag k="name" v="Stormyra" />
=======
	<node id="-382341" lat="61.2758861141" lon="10.2078194472">
		<tag k="name" v="Rundmyra" />
		<tag k="natural" v="wetland" />
		<tag k="ssr:stedsnr" v="840157" />
	</node>
	<node id="-381827" lat="61.3358916642" lon="9.82746667087">
		<tag k="name" v="Varpmyra" />
>>>>>>> e1d4bc35ff8a6074a6f2e91616a996b547c36f15
		<tag k="natural" v="wetland" />
		<tag k="ssr:stedsnr" v="657340" />
	</node>
<<<<<<< HEAD
	<node lat="61.344849996481905" lon="9.972819448657013" id="-26580">
		<tag k="name" v="Musholmyrene" />
		<tag k="natural" v="wetland" />
		<tag k="ssr:stedsnr" v="657984" />
	</node>
	<node lat="61.31117778111692" lon="10.124469436949898" id="-26585">
		<tag k="name" v="Hopperslettmyra" />
		<tag k="natural" v="wetland" />
		<tag k="ssr:stedsnr" v="658508" />
	</node>
	<node lat="61.311102775613506" lon="10.152627770766403" id="-26587">
=======
	<node id="-379912" lat="61.2803444452" lon="9.79908610713">
		<tag k="alt_name" v="Mossjømyrene" />
		<tag k="name" v="Mossjømyrin" />
		<tag k="natural" v="wetland" />
		<tag k="ssr:stedsnr" v="190739" />
	</node>
	<node id="-379968" lat="61.320505552" lon="9.6317027766">
		<tag k="name" v="Liamyra" />
		<tag k="natural" v="wetland" />
		<tag k="ssr:stedsnr" v="294170" />
	</node>
	<node id="-381310" lat="61.3141166671" lon="9.93798611137">
		<tag k="name" v="Flågåslettet" />
		<tag k="place" v="locality" />
		<tag k="ssr:stedsnr" v="129652" />
	</node>
	<node id="-381819" lat="61.3991888869" lon="9.72824723">
>>>>>>> e1d4bc35ff8a6074a6f2e91616a996b547c36f15
		<tag k="historic" v="shieling" />
		<tag k="name" v="Veslestylen" />
		<tag k="place" v="locality" />
		<tag k="ssr:stedsnr" v="658530" />
	</node>
<<<<<<< HEAD
	<node lat="61.308230553492315" lon="10.150600007182332" id="-26588">
=======
	<node id="-382330" lat="61.3097416648" lon="9.87005833964">
>>>>>>> e1d4bc35ff8a6074a6f2e91616a996b547c36f15
		<tag k="historic" v="shieling" />
		<tag k="name" v="Lillestylen" />
		<tag k="place" v="locality" />
		<tag k="ssr:stedsnr" v="658533" />
	</node>
<<<<<<< HEAD
	<node lat="61.25676944192608" lon="10.111397220247044" id="-26589">
		<tag k="landuse" v="meadow" />
		<tag k="name" v="Oleringen" />
		<tag k="ssr:stedsnr" v="658937" />
	</node>
	<node lat="61.31234722025901" lon="10.019711104005312" id="-26628">
		<tag k="name" v="Stakksto" />
=======
	<node id="-382329" lat="61.2960083326" lon="9.7993722147">
		<tag k="name" v="Huguskåla" />
		<tag k="place" v="locality" />
		<tag k="ssr:stedsnr" v="839567" />
	</node>
	<node id="-380280" lat="61.3285777819" lon="9.87831666429">
		<tag k="name" v="Åssteinan" />
		<tag k="natural" v="stone" />
		<tag k="ssr:stedsnr" v="414508" />
	</node>
	<node id="-379765" lat="61.3712833307" lon="10.1064972308">
		<tag k="name" v="Madsøya" />
>>>>>>> e1d4bc35ff8a6074a6f2e91616a996b547c36f15
		<tag k="place" v="locality" />
		<tag k="ssr:stedsnr" v="899002" />
	</node>
<<<<<<< HEAD
	<node lat="61.40569166938646" lon="9.773141671009919" id="-26634">
		<tag k="name" v="Tossenmyra" />
		<tag k="natural" v="wetland" />
		<tag k="ssr:stedsnr" v="717815" />
	</node>
	<node lat="61.402608336908564" lon="9.762858326253081" id="-26642">
		<tag k="name" v="Brenndalsmyrene" />
		<tag k="natural" v="wetland" />
		<tag k="ssr:stedsnr" v="899344" />
	</node>
	<node lat="61.22024999843839" lon="10.042947226708701" id="-26650">
		<tag k="name" v="Geitmyra" />
=======
	<node id="-381299" lat="61.2279166677" lon="10.3338972295">
		<tag k="alt_name" v="Holbekkmyra" />
		<tag k="name" v="Hølbekkmyra" />
		<tag k="natural" v="wetland" />
		<tag k="ssr:stedsnr" v="129298" />
	</node>
	<node id="-379761" lat="61.1113583378" lon="10.1462222205">
		<tag k="name" v="Gråbeinmyra" />
>>>>>>> e1d4bc35ff8a6074a6f2e91616a996b547c36f15
		<tag k="natural" v="wetland" />
		<tag k="ssr:stedsnr" v="719581" />
	</node>
<<<<<<< HEAD
	<node lat="61.29514166395359" lon="9.798958325889329" id="-26657">
		<tag k="name" v="Rypvollslettet" />
=======
	<node id="-382320" lat="61.3200916665" lon="10.1703666641">
		<tag k="historic" v="shieling" />
		<tag k="name" v="Jenshusringen" />
>>>>>>> e1d4bc35ff8a6074a6f2e91616a996b547c36f15
		<tag k="place" v="locality" />
		<tag k="ssr:stedsnr" v="900553" />
	</node>
<<<<<<< HEAD
	<node lat="61.31120555733192" lon="9.901733332653214" id="-26664">
		<tag k="landuse" v="meadow" />
		<tag k="name" v="Bennliengene" />
		<tag k="ssr:stedsnr" v="900189" />
	</node>
	<node lat="61.33410555651387" lon="10.197372231014011" id="-26665">
		<tag k="historic" v="shieling" />
		<tag k="name" v="Blåbokstylen" />
		<tag k="place" v="locality" />
		<tag k="ssr:stedsnr" v="900198" />
	</node>
	<node lat="61.30392222121809" lon="10.155502786436438" id="-26682">
		<tag k="alt_name" v="Søndre Kjosslettet" />
		<tag k="name" v="Søre Kjosslettet" />
		<tag k="place" v="locality" />
		<tag k="ssr:stedsnr" v="901527" />
	</node>
	<node lat="61.305747218327696" lon="10.15424166783635" id="-26683">
		<tag k="landuse" v="meadow" />
		<tag k="name" v="Hjørnringen" />
		<tag k="ssr:stedsnr" v="901539" />
	</node>
	<node lat="61.27863333073664" lon="10.107897225881295" id="-26686">
		<tag k="landuse" v="meadow" />
		<tag k="name" v="Hesthågån" />
		<tag k="ssr:stedsnr" v="901643" />
	</node>
	<node lat="61.28915833468063" lon="10.00847222563462" id="-26687">
		<tag k="name" v="Kolbotn" />
		<tag k="place" v="locality" />
		<tag k="ssr:stedsnr" v="901724" />
	</node>
	<node lat="61.272905555140746" lon="10.087888890382438" id="-26699">
		<tag k="name" v="Nedre Haugaringmyra" />
		<tag k="natural" v="wetland" />
		<tag k="ssr:stedsnr" v="901958" />
	</node>
	<node lat="61.245241664223265" lon="10.279322229298792" id="-26722">
		<tag k="name" v="Hågåmyra" />
		<tag k="natural" v="wetland" />
		<tag k="ssr:stedsnr" v="902326" />
	</node>
	<node lat="61.2268250011026" lon="10.32619722459981" id="-26737">
		<tag k="name" v="Kvernbekkmyra" />
		<tag k="natural" v="wetland" />
		<tag k="ssr:stedsnr" v="904348" />
	</node>
	<node lat="61.25816944639624" lon="10.259227779003528" id="-26738">
=======
	<node id="-380783" lat="61.3307638872" lon="10.0046888912">
		<tag k="name" v="Tøftumsbakkelykkja" />
		<tag k="place" v="locality" />
		<tag k="ssr:stedsnr" v="778939" />
	</node>
	<node id="-380781" lat="61.3681277799" lon="9.67544444622">
		<tag k="name" v="Frekmyra" />
		<tag k="natural" v="wetland" />
		<tag k="ssr:stedsnr" v="778930" />
	</node>
	<node id="-382316" lat="61.3271416702" lon="9.93746389218">
		<tag k="name" v="Lortpussan" />
		<tag k="natural" v="wetland" />
		<tag k="ssr:stedsnr" v="838847" />
	</node>
	<node id="-380903" lat="61.2729055551" lon="10.0878888904">
		<tag k="name" v="Nedre Haugaringmyra" />
		<tag k="natural" v="wetland" />
		<tag k="ssr:stedsnr" v="901958" />
	</node>
	<node id="-379930" lat="61.321791667" lon="9.82662778311">
		<tag k="landuse" v="meadow" />
		<tag k="name" v="Veslihågån" />
		<tag k="ssr:stedsnr" v="292520" />
	</node>
	<node id="-381283" lat="61.1263083293" lon="9.98790556293">
		<tag k="alt_name" v="Blestermyra" />
		<tag k="name" v="Blæstermyra" />
		<tag k="natural" v="wetland" />
		<tag k="ssr:stedsnr" v="128072" />
	</node>
	<node id="-381281" lat="61.1323083336" lon="10.1870472283">
		<tag k="name" v="Flatom" />
		<tag k="place" v="locality" />
		<tag k="ssr:stedsnr" v="128059" />
	</node>
	<node id="-380015" lat="61.3206416655" lon="10.151277777">
		<tag k="alt_name" v="Gjefsenslettet" />
		<tag k="historic" v="shieling" />
		<tag k="name" v="Rødumsslettet" />
		<tag k="place" v="locality" />
		<tag k="ssr:stedsnr" v="232062" />
	</node>
	<node id="-380766" lat="61.2286361116" lon="10.1494416656">
		<tag k="landuse" v="meadow" />
		<tag k="name" v="Ekerringen" />
		<tag k="ssr:stedsnr" v="908460" />
	</node>
	<node id="-380762" lat="61.2581694464" lon="10.259227779">
>>>>>>> e1d4bc35ff8a6074a6f2e91616a996b547c36f15
		<tag k="historic" v="shieling" />
		<tag k="name" v="Einstadstylen" />
		<tag k="place" v="locality" />
		<tag k="ssr:stedsnr" v="904434" />
	</node>
<<<<<<< HEAD
	<node lat="61.12422222373508" lon="10.146408341498018" id="-26740">
		<tag k="historic" v="shieling" />
		<tag k="name" v="Nordre Finnsrudsetra" />
		<tag k="place" v="locality" />
		<tag k="ssr:stedsnr" v="906775" />
	</node>
	<node lat="61.3919055538824" lon="9.733244447650138" id="-26747">
=======
	<node id="-381273" lat="61.372752777" lon="10.0456083383">
		<tag k="name" v="Ørnkampmyra" />
		<tag k="natural" v="wetland" />
		<tag k="ssr:stedsnr" v="118143" />
	</node>
	<node id="-380833" lat="61.3969694475" lon="9.72503055219">
		<tag k="name" v="Monsskål" />
		<tag k="place" v="locality" />
		<tag k="ssr:stedsnr" v="838362" />
	</node>
	<node id="-381650" lat="61.2578750014" lon="10.2694500009">
		<tag k="name" v="Furumyrene" />
		<tag k="natural" v="wetland" />
		<tag k="ssr:stedsnr" v="372858" />
	</node>
	<node id="-382474" lat="61.3137944427" lon="10.1519055526">
		<tag k="landuse" v="meadow" />
		<tag k="name" v="Storengene" />
		<tag k="ssr:stedsnr" v="961537" />
	</node>
	<node id="-379730" lat="61.3348944425" lon="10.1162194524">
>>>>>>> e1d4bc35ff8a6074a6f2e91616a996b547c36f15
		<tag k="landuse" v="meadow" />
		<tag k="name" v="Larsvollen" />
		<tag k="ssr:stedsnr" v="777325" />
	</node>
<<<<<<< HEAD
	<node lat="61.39999722031698" lon="9.691861105443484" id="-26748">
		<tag k="name" v="Flæene" />
=======
	<node id="-379729" lat="61.2685611108" lon="9.98060277147">
		<tag k="name" v="Dipilmyra" />
>>>>>>> e1d4bc35ff8a6074a6f2e91616a996b547c36f15
		<tag k="natural" v="wetland" />
		<tag k="ssr:stedsnr" v="777525" />
	</node>
<<<<<<< HEAD
	<node lat="61.34099721785851" lon="9.882011109813112" id="-26759">
		<tag k="name" v="Hellbekkmyra" />
		<tag k="natural" v="wetland" />
		<tag k="ssr:stedsnr" v="778967" />
	</node>
	<node lat="61.320074997203484" lon="9.953111104119571" id="-26762">
		<tag k="historic" v="shieling" />
		<tag k="name" v="Gammelvårsetra" />
		<tag k="place" v="locality" />
		<tag k="ssr:stedsnr" v="778853" />
	</node>
	<node lat="61.33672221844866" lon="9.72130278375049" id="-26784">
		<tag k="name" v="Nedre Merramyra" />
=======
	<node id="-382288" lat="61.3079194437" lon="10.0300749957">
		<tag k="name" v="Bårdsliflågån" />
		<tag k="natural" v="wetland" />
		<tag k="ssr:stedsnr" v="797821" />
	</node>
	<node id="-382287" lat="61.3039527751" lon="10.0067777779">
		<tag k="alt_name" v="Oksummyra" />
		<tag k="name" v="Uksummyra" />
>>>>>>> e1d4bc35ff8a6074a6f2e91616a996b547c36f15
		<tag k="natural" v="wetland" />
		<tag k="ssr:stedsnr" v="786308" />
	</node>
<<<<<<< HEAD
	<node lat="61.30395277509631" lon="10.006777777915545" id="-26811">
		<tag k="name" v="Uksommyra" />
		<tag k="natural" v="wetland" />
		<tag k="ssr:stedsnr" v="797820" />
	</node>
	<node lat="61.307919443654" lon="10.030074995691155" id="-26812">
		<tag k="name" v="Bårdsliflågån" />
		<tag k="natural" v="wetland" />
		<tag k="ssr:stedsnr" v="797821" />
	</node>
	<node lat="61.27202499963538" lon="10.056036112981754" id="-26845">
		<tag k="name" v="Langmyra" />
		<tag k="natural" v="wetland" />
		<tag k="ssr:stedsnr" v="918879" />
	</node>
	<node lat="61.252247220228156" lon="10.276119447287241" id="-26848">
		<tag k="name" v="Langmyra" />
=======
	<node id="-381617" lat="61.1436611073" lon="10.222952786">
		<tag k="name" v="Hågåmyra" />
		<tag k="natural" v="wetland" />
		<tag k="ssr:stedsnr" v="371067" />
	</node>
	<node id="-380835" lat="61.3400777736" lon="9.66717777045">
		<tag k="name" v="Sagbakkmyra" />
		<tag k="natural" v="wetland" />
		<tag k="ssr:stedsnr" v="840326" />
	</node>
	<node id="-380747" lat="61.2452416642" lon="10.2793222293">
		<tag k="name" v="Hågåmyra" />
		<tag k="natural" v="wetland" />
		<tag k="ssr:stedsnr" v="902326" />
	</node>
	<node id="-379928" lat="61.3551805599" lon="9.8559500081">
		<tag k="name" v="Bakkamyra" />
		<tag k="natural" v="wetland" />
		<tag k="ssr:stedsnr" v="292461" />
	</node>
	<node id="-381239" lat="61.3028944475" lon="10.1328361031">
		<tag k="name" v="Skredderslettet" />
		<tag k="place" v="locality" />
		<tag k="ssr:stedsnr" v="112525" />
	</node>
	<node id="-381768" lat="61.231413387" lon="10.1275045189">
		<tag k="name" v="Stavlimyra" />
>>>>>>> e1d4bc35ff8a6074a6f2e91616a996b547c36f15
		<tag k="natural" v="wetland" />
		<tag k="ssr:stedsnr" v="920781" />
	</node>
<<<<<<< HEAD
	<node lat="61.36536389007331" lon="9.733969444739298" id="-26856">
		<tag k="historic" v="shieling" />
		<tag k="name" v="Brekkvollen" />
=======
	<node id="-382279" lat="61.3642277771" lon="9.91397499374">
		<tag k="name" v="Svartdalsslettet" />
>>>>>>> e1d4bc35ff8a6074a6f2e91616a996b547c36f15
		<tag k="place" v="locality" />
		<tag k="ssr:stedsnr" v="840076" />
	</node>
<<<<<<< HEAD
	<node lat="61.340077773577256" lon="9.667177770454147" id="-26858">
		<tag k="name" v="Sagbakkmyra" />
=======
	<node id="-381254" lat="61.2733333321" lon="10.0747916745">
		<tag k="name" v="Krokmyra" />
>>>>>>> e1d4bc35ff8a6074a6f2e91616a996b547c36f15
		<tag k="natural" v="wetland" />
		<tag k="ssr:stedsnr" v="840326" />
	</node>
<<<<<<< HEAD
	<node lat="61.21134999884065" lon="9.8137166675043" id="-26864">
		<tag k="name" v="Sjælsteinan" />
		<tag k="natural" v="stone" />
		<tag k="ssr:stedsnr" v="840591" />
	</node>
	<node lat="61.35776110975362" lon="10.125819438654077" id="-26910">
		<tag k="name" v="Langmyra" />
=======
	<node id="-380740" lat="61.2786333307" lon="10.1078972259">
		<tag k="landuse" v="meadow" />
		<tag k="name" v="Hesthågån" />
		<tag k="ssr:stedsnr" v="901643" />
	</node>
	<node id="-381250" lat="61.2472111108" lon="9.92423610688">
		<tag k="name" v="Stormyra" />
>>>>>>> e1d4bc35ff8a6074a6f2e91616a996b547c36f15
		<tag k="natural" v="wetland" />
		<tag k="ssr:stedsnr" v="858976" />
	</node>
<<<<<<< HEAD
	<node lat="61.30773055869539" lon="10.016311102256184" id="-26915">
		<tag k="name" v="Kjølslettmyr" />
		<tag k="natural" v="wetland" />
		<tag k="ssr:stedsnr" v="899005" />
	</node>
	<node lat="61.402310866130236" lon="9.79500694431268" id="-26920">
		<tag k="historic" v="shieling" />
		<tag k="name" v="Fagerlilykkja" />
		<tag k="old_name" v="Fagerlia sæter" />
=======
	<node id="-380737" lat="61.3057472183" lon="10.1542416678">
		<tag k="landuse" v="meadow" />
		<tag k="name" v="Hjørnringen" />
		<tag k="ssr:stedsnr" v="901539" />
	</node>
	<node id="-380736" lat="61.3039222212" lon="10.1555027864">
		<tag k="alt_name" v="Søndre Kjosslettet" />
		<tag k="name" v="Søre Kjosslettet" />
		<tag k="place" v="locality" />
		<tag k="ssr:stedsnr" v="901527" />
	</node>
	<node id="-380734" lat="61.2891583347" lon="10.0084722256">
		<tag k="name" v="Kolbotn" />
>>>>>>> e1d4bc35ff8a6074a6f2e91616a996b547c36f15
		<tag k="place" v="locality" />
		<tag k="ssr:stedsnr" v="899859" />
	</node>
<<<<<<< HEAD
	<node lat="61.32313055863938" lon="9.95647221345866" id="-26921">
		<tag k="name" v="Bekkemillommyra" />
=======
	<node id="-381757" lat="61.2695638854" lon="9.5794722198">
		<tag k="name" v="Revsjømyrene" />
>>>>>>> e1d4bc35ff8a6074a6f2e91616a996b547c36f15
		<tag k="natural" v="wetland" />
		<tag k="ssr:stedsnr" v="899874" />
	</node>
<<<<<<< HEAD
	<node lat="61.29966111191826" lon="9.963055548775548" id="-26922">
=======
	<node id="-379708" lat="61.2594194434" lon="10.1000805555">
>>>>>>> e1d4bc35ff8a6074a6f2e91616a996b547c36f15
		<tag k="landuse" v="meadow" />
		<tag k="name" v="Glåmsenget" />
		<tag k="ssr:stedsnr" v="900163" />
	</node>
<<<<<<< HEAD
	<node lat="61.25804166401198" lon="9.86848610515482" id="-26931">
=======
	<node id="-380731" lat="61.258041664" lon="9.86848610515">
>>>>>>> e1d4bc35ff8a6074a6f2e91616a996b547c36f15
		<tag k="name" v="Hans Bø-steinen" />
		<tag k="natural" v="stone" />
		<tag k="ssr:stedsnr" v="901266" />
	</node>
<<<<<<< HEAD
	<node lat="61.2705138869837" lon="9.932736110310262" id="-26936">
		<tag k="name" v="Tjyruglemyrene" />
		<tag k="natural" v="wetland" />
		<tag k="ssr:stedsnr" v="901999" />
	</node>
	<node lat="61.22863611162607" lon="10.149441665585405" id="-26945">
		<tag k="landuse" v="meadow" />
		<tag k="name" v="Ekerringen" />
		<tag k="ssr:stedsnr" v="908460" />
	</node>
	<node lat="61.217463888730386" lon="9.985491657562667" id="-26958">
		<tag k="name" v="Kårfallslettet" />
		<tag k="place" v="locality" />
		<tag k="ssr:stedsnr" v="918528" />
	</node>
	<node lat="61.387474999455186" lon="9.729022221263907" id="-26968">
		<tag k="name" v="Paulsrudrompa" />
=======
	<node id="-381240" lat="61.2995611136" lon="10.1232888929">
		<tag k="name" v="Kjøttmysuringen" />
>>>>>>> e1d4bc35ff8a6074a6f2e91616a996b547c36f15
		<tag k="place" v="locality" />
		<tag k="ssr:stedsnr" v="959259" />
	</node>
<<<<<<< HEAD
	<node lat="61.35970277399473" lon="10.094141662205567" id="-26981">
		<tag k="landuse" v="quarry" />
		<tag k="name" v="Steinbruddet" />
		<tag k="ssr:stedsnr" v="960888" />
	</node>
	<node lat="61.30157779540748" lon="10.095134980582321" id="-26991">
		<tag k="name" v="Klininggrautstein" />
		<tag k="natural" v="stone" />
		<tag k="ssr:stedsnr" v="961752" />
	</node>
	<node lat="61.13999999592963" lon="10.106102783971075" id="-26994">
		<tag k="name" v="Langmyra" />
=======
	<node id="-381751" lat="61.2564805555" lon="10.2575388823">
		<tag k="name" v="Einstadstylmyra" />
		<tag k="natural" v="wetland" />
		<tag k="ssr:stedsnr" v="419449" />
	</node>
	<node id="-381749" lat="61.2316583332" lon="10.3212583353">
		<tag k="name" v="Skyttermyra" />
>>>>>>> e1d4bc35ff8a6074a6f2e91616a996b547c36f15
		<tag k="natural" v="wetland" />
		<tag k="ssr:stedsnr" v="961912" />
	</node>
<<<<<<< HEAD
	<node lat="61.36221672978155" lon="9.821209807798573" id="-27010">
		<tag k="name" v="Lykkjeslettet" />
		<tag k="place" v="locality" />
		<tag k="ssr:stedsnr" v="974325" />
	</node>
	<node lat="61.36605760210496" lon="9.819502269835152" id="-27011">
		<tag k="name" v="Hanslislettet" />
		<tag k="place" v="locality" />
		<tag k="ssr:stedsnr" v="974326" />
	</node>
	<node lat="61.22583797921916" lon="10.208662170414248" id="-27034">
		<tag k="name" v="Linflåa" />
		<tag k="place" v="locality" />
		<tag k="ssr:stedsnr" v="982194" />
	</node>
	<node lat="61.299425179993" lon="9.958329911856335" id="-27052">
=======
	<node id="-382257" lat="61.1705694463" lon="9.80574444874">
		<tag k="name" v="Oppsjømyra" />
		<tag k="natural" v="wetland" />
		<tag k="ssr:stedsnr" v="796744" />
	</node>
	<node id="-380720" lat="61.3112055573" lon="9.90173333265">
>>>>>>> e1d4bc35ff8a6074a6f2e91616a996b547c36f15
		<tag k="landuse" v="meadow" />
		<tag k="loc_name" v="Surnfløtengjom" />
		<tag k="name" v="Surnflotengjom" />
		<tag k="ssr:stedsnr" v="987369" />
	</node>
	<node lat="61.21930555292846" lon="10.009811107645573" id="-27061">
		<tag k="alt_name" v="Trassrudslættet;Trasserudslettet" />
		<tag k="landuse" v="meadow" />
		<tag k="name" v="Trassrudslettet" />
		<tag k="ssr:stedsnr" v="8499" />
	</node>
<<<<<<< HEAD
	<node lat="61.15980277550819" lon="10.097424997870537" id="-27065">
=======
	<node id="-380207" lat="61.2460833325" lon="9.91901944789">
>>>>>>> e1d4bc35ff8a6074a6f2e91616a996b547c36f15
		<tag k="name" v="Stormyra" />
		<tag k="natural" v="wetland" />
		<tag k="ssr:stedsnr" v="8443" />
	</node>
<<<<<<< HEAD
	<node lat="61.34852777664501" lon="10.122813886211222" id="-27085">
		<tag k="name" v="Stormyra" />
		<tag k="natural" v="wetland" />
		<tag k="ssr:stedsnr" v="8977" />
	</node>
	<node lat="61.282294445301744" lon="10.054016662039432" id="-27089">
		<tag k="name" v="Brenntjønnmyra" />
=======
	<node id="-381230" lat="61.2759222227" lon="10.2377222202">
		<tag k="name" v="Kolhusmyra" />
		<tag k="natural" v="wetland" />
		<tag k="ssr:stedsnr" v="112175" />
	</node>
	<node id="-379693" lat="61.3061361155" lon="10.1495888953">
		<tag k="name" v="Nedre Kjoshaugslettet" />
		<tag k="place" v="locality" />
		<tag k="ssr:stedsnr" v="233568" />
	</node>
	<node id="-381740" lat="61.2283194423" lon="10.1497111074">
		<tag k="name" v="Brendmyra" />
>>>>>>> e1d4bc35ff8a6074a6f2e91616a996b547c36f15
		<tag k="natural" v="wetland" />
		<tag k="ssr:stedsnr" v="36635" />
	</node>
<<<<<<< HEAD
	<node lat="61.29020555466524" lon="10.036216673368111" id="-27090">
		<tag k="name" v="Megardsslettet" />
=======
	<node id="-379691" lat="61.2988111088" lon="10.1591972275">
		<tag k="name" v="Hjelmstadnyhagen" />
>>>>>>> e1d4bc35ff8a6074a6f2e91616a996b547c36f15
		<tag k="place" v="locality" />
		<tag k="ssr:stedsnr" v="36639" />
	</node>
<<<<<<< HEAD
	<node lat="61.28149722221212" lon="10.042011102810266" id="-27092">
		<tag k="name" v="Graupstølteigen" />
		<tag k="place" v="locality" />
		<tag k="ssr:stedsnr" v="37686" />
	</node>
	<node lat="61.35854885784066" lon="9.837674626454653" id="-27100">
		<tag k="historic" v="shieling" />
		<tag k="name" v="Holsetra" />
=======
	<node id="-379689" lat="61.3320388872" lon="9.75054722783">
		<tag k="name" v="Grønnmyra" />
		<tag k="natural" v="wetland" />
		<tag k="ssr:stedsnr" v="233492" />
	</node>
	<node id="-381736" lat="61.2067361132" lon="10.0775472145">
		<tag k="name" v="Graffermorka" />
>>>>>>> e1d4bc35ff8a6074a6f2e91616a996b547c36f15
		<tag k="place" v="locality" />
		<tag k="ssr:stedsnr" v="49691" />
	</node>
<<<<<<< HEAD
	<node lat="61.405397224327615" lon="9.553313891996186" id="-27108">
		<tag k="historic" v="shieling" />
		<tag k="name" v="Skriua" />
=======
	<node id="-381223" lat="61.3586361137" lon="9.9110444439">
		<tag k="name" v="Svartdalsslettet" />
>>>>>>> e1d4bc35ff8a6074a6f2e91616a996b547c36f15
		<tag k="place" v="locality" />
		<tag k="ssr:stedsnr" v="49900" />
	</node>
<<<<<<< HEAD
	<node lat="61.259024998758164" lon="10.030119441029667" id="-27121">
		<tag k="alt_name" v="Teigumsvollene" />
		<tag k="name" v="Teigomsvollene" />
		<tag k="place" v="locality" />
		<tag k="ssr:stedsnr" v="51461" />
	</node>
	<node lat="61.273145353697004" lon="10.044552179859206" id="-27122">
		<tag k="landuse" v="meadow" />
		<tag k="name" v="Vårseterenget" />
		<tag k="ssr:stedsnr" v="51463" />
	</node>
	<node lat="61.273347220528336" lon="10.110900006748885" id="-27128">
		<tag k="landuse" v="meadow" />
		<tag k="name" v="Klevaengene" />
		<tag k="ssr:stedsnr" v="51836" />
	</node>
	<node lat="61.254474996321235" lon="10.097541662201746" id="-27130">
		<tag k="name" v="Brettingsmyra" />
		<tag k="natural" v="wetland" />
		<tag k="ssr:stedsnr" v="51949" />
	</node>
	<node lat="61.11135833778369" lon="10.146222220469749" id="-27140">
		<tag k="name" v="Gråbeinmyra" />
		<tag k="natural" v="wetland" />
		<tag k="ssr:stedsnr" v="52866" />
	</node>
	<node lat="61.40715833655934" lon="9.602005562390985" id="-27145">
		<tag k="landuse" v="quarry" />
		<tag k="loc_name" v="Storgruva" />
		<tag k="name" v="Evansgruva" />
		<tag k="ssr:stedsnr" v="58423" />
	</node>
	<node lat="61.196555559610836" lon="9.966605553266053" id="-27153">
		<tag k="name" v="Svarthus" />
=======
	<node id="-380721" lat="61.3341055565" lon="10.197372231">
		<tag k="historic" v="shieling" />
		<tag k="name" v="Blåbokstylen" />
		<tag k="place" v="locality" />
		<tag k="ssr:stedsnr" v="900198" />
	</node>
	<node id="-379684" lat="61.3153499999" lon="9.67509444487">
		<tag k="name" v="Myrslettlia" />
		<tag k="place" v="locality" />
		<tag k="ssr:stedsnr" v="233477" />
	</node>
	<node id="-380707" lat="61.3123472203" lon="10.019711104">
		<tag k="name" v="Stakksto" />
>>>>>>> e1d4bc35ff8a6074a6f2e91616a996b547c36f15
		<tag k="place" v="locality" />
		<tag k="ssr:stedsnr" v="68736" />
	</node>
<<<<<<< HEAD
	<node lat="61.254387972777124" lon="10.240118402688038" id="-27190">
		<tag k="alt_name" v="Avlundmyra" />
		<tag k="name" v="Avlundsmyra" />
=======
	<node id="-382241" lat="61.3367222184" lon="9.72130278375">
		<tag k="name" v="Nedre Merramyra" />
>>>>>>> e1d4bc35ff8a6074a6f2e91616a996b547c36f15
		<tag k="natural" v="wetland" />
		<tag k="ssr:stedsnr" v="69848" />
	</node>
<<<<<<< HEAD
	<node lat="61.320966668235215" lon="9.905599994100847" id="-27203">
		<tag k="name" v="Skålmyra" />
		<tag k="natural" v="wetland" />
		<tag k="ssr:stedsnr" v="110938" />
	</node>
	<node lat="61.30245277705551" lon="9.776647225860579" id="-27207">
=======
	<node id="-382008" lat="61.2453527745" lon="9.97166110626">
		<tag k="name" v="Kvernhaugflågån" />
		<tag k="natural" v="wetland" />
		<tag k="ssr:stedsnr" v="597782" />
	</node>
	<node id="-382000" lat="61.3428555535" lon="9.66645277225">
		<tag k="name" v="Holbekkmyra" />
		<tag k="natural" v="wetland" />
		<tag k="ssr:stedsnr" v="597337" />
	</node>
	<node id="-381214" lat="61.320249996" lon="10.1677777719">
		<tag k="name" v="Allemannsmyra" />
		<tag k="natural" v="wetland" />
		<tag k="ssr:stedsnr" v="111073" />
	</node>
	<node id="-380805" lat="61.2720249996" lon="10.056036113">
		<tag k="name" v="Langmyra" />
		<tag k="natural" v="wetland" />
		<tag k="ssr:stedsnr" v="918879" />
	</node>
	<node id="-379845" lat="61.3024527771" lon="9.77664722586">
>>>>>>> e1d4bc35ff8a6074a6f2e91616a996b547c36f15
		<tag k="name" v="Veslimyra" />
		<tag k="natural" v="wetland" />
		<tag k="ssr:stedsnr" v="111529" />
	</node>
<<<<<<< HEAD
	<node lat="61.35767777692612" lon="9.984363894236255" id="-27215">
		<tag k="name" v="Bergsengene" />
		<tag k="place" v="locality" />
		<tag k="ssr:stedsnr" v="111994" />
	</node>
	<node lat="61.38282222274138" lon="9.62897222398651" id="-27217">
		<tag k="name" v="Veslgardsmarka" />
		<tag k="place" v="locality" />
		<tag k="ssr:stedsnr" v="111941" />
	</node>
	<node lat="61.35863611367402" lon="9.911044443895515" id="-27218">
		<tag k="name" v="Svartdalsslettet" />
		<tag k="place" v="locality" />
		<tag k="ssr:stedsnr" v="111950" />
	</node>
	<node lat="61.27592222266747" lon="10.237722220177679" id="-27222">
		<tag k="name" v="Kolhusmyra" />
		<tag k="natural" v="wetland" />
		<tag k="ssr:stedsnr" v="112175" />
	</node>
	<node lat="61.25760277518264" lon="10.015288896184764" id="-27230">
		<tag k="name" v="Sundmyra" />
=======
	<node id="-381210" lat="61.3209666682" lon="9.9055999941">
		<tag k="name" v="Skålmyra" />
		<tag k="natural" v="wetland" />
		<tag k="ssr:stedsnr" v="110938" />
	</node>
	<node id="-380185" lat="61.2481749994" lon="10.2868000002">
		<tag k="name" v="Finntottmyra" />
		<tag k="natural" v="wetland" />
		<tag k="ssr:stedsnr" v="493272" />
	</node>
	<node id="-379672" lat="61.2617472193" lon="10.2246722137">
		<tag k="name" v="Norhusmyra" />
		<tag k="natural" v="wetland" />
		<tag k="ssr:stedsnr" v="233084" />
	</node>
	<node id="-380693" lat="61.2202499984" lon="10.0429472267">
		<tag k="name" v="Geitmyra" />
		<tag k="natural" v="wetland" />
		<tag k="ssr:stedsnr" v="719581" />
	</node>
	<node id="-379668" lat="61.3535055518" lon="9.9562583245">
		<tag k="name" v="Andersslettet" />
		<tag k="place" v="locality" />
		<tag k="ssr:stedsnr" v="232988" />
	</node>
	<node id="-381202" lat="61.3863222253" lon="9.73170833506">
		<tag k="landuse" v="meadow" />
		<tag k="name" v="Sveavollen" />
		<tag k="ssr:stedsnr" v="110289" />
	</node>
	<node id="-382339" lat="61.3484250012" lon="9.95356110387">
		<tag k="name" v="Stohaugslettet" />
		<tag k="place" v="locality" />
		<tag k="ssr:stedsnr" v="839995" />
	</node>
	<node id="-381199" lat="61.3960250039" lon="9.70108055674">
		<tag k="name" v="Flæmyra" />
		<tag k="natural" v="wetland" />
		<tag k="ssr:stedsnr" v="110269" />
	</node>
	<node id="-381229" lat="61.3576777769" lon="9.98436389424">
		<tag k="name" v="Bergsengene" />
		<tag k="place" v="locality" />
		<tag k="ssr:stedsnr" v="111994" />
	</node>
	<node id="-382220" lat="61.2513583346" lon="10.2951888914">
		<tag k="name" v="Gråbeinmyra" />
		<tag k="natural" v="wetland" />
		<tag k="ssr:stedsnr" v="780292" />
	</node>
	<node id="-379658" lat="61.3751083373" lon="9.75498610934">
		<tag k="name" v="Elgslettet" />
		<tag k="place" v="locality" />
		<tag k="ssr:stedsnr" v="232092" />
	</node>
	<node id="-379657" lat="61.3199861085" lon="10.0991944454">
		<tag k="name" v="Kjoshaugmyra" />
		<tag k="natural" v="wetland" />
		<tag k="ssr:stedsnr" v="232035" />
	</node>
	<node id="-381704" lat="61.3673972247" lon="9.73166110657">
		<tag k="historic" v="shieling" />
		<tag k="name" v="Brekka" />
		<tag k="place" v="locality" />
		<tag k="ssr:stedsnr" v="415064" />
	</node>
	<node id="-381703" lat="61.3776333301" lon="9.72941110639">
		<tag k="landuse" v="meadow" />
		<tag k="name" v="Høgvollen" />
		<tag k="ssr:stedsnr" v="415056" />
	</node>
	<node id="-379757" lat="61.2315138893" lon="10.0561916629">
		<tag k="name" v="Øveste" />
		<tag k="place" v="locality" />
		<tag k="ssr:stedsnr" v="52767" />
	</node>
	<node id="-379652" lat="61.4099499969" lon="9.57714445261">
		<tag k="landuse" v="quarry" />
		<tag k="name" v="Bjellkugruva" />
		<tag k="ssr:stedsnr" v="231887" />
	</node>
	<node id="-380745" lat="61.270513887" lon="9.93273611031">
		<tag k="name" v="Tjyruglemyrene" />
		<tag k="natural" v="wetland" />
		<tag k="ssr:stedsnr" v="901999" />
	</node>
	<node id="-381186" lat="61.2997333316" lon="10.2077472185">
		<tag k="alt_name" v="Skottmyra" />
		<tag k="name" v="Skotmyra" />
		<tag k="natural" v="wetland" />
		<tag k="ssr:stedsnr" v="69797" />
	</node>
	<node id="-379649" lat="61.3285194483" lon="9.845358342">
		<tag k="name" v="Flatemsmyra" />
>>>>>>> e1d4bc35ff8a6074a6f2e91616a996b547c36f15
		<tag k="natural" v="wetland" />
		<tag k="ssr:stedsnr" v="112433" />
	</node>
<<<<<<< HEAD
	<node lat="61.24721111077786" lon="9.924236106879087" id="-27237">
=======
	<node id="-379648" lat="61.3808027822" lon="9.6844194412">
>>>>>>> e1d4bc35ff8a6074a6f2e91616a996b547c36f15
		<tag k="name" v="Stormyra" />
		<tag k="natural" v="wetland" />
		<tag k="ssr:stedsnr" v="112860" />
	</node>
<<<<<<< HEAD
	<node lat="61.27333333214" lon="10.074791674545484" id="-27240">
		<tag k="name" v="Krokmyra" />
=======
	<node id="-380671" lat="61.2831472249" lon="10.059772227">
		<tag k="name" v="Nigardsmyra" />
>>>>>>> e1d4bc35ff8a6074a6f2e91616a996b547c36f15
		<tag k="natural" v="wetland" />
		<tag k="ssr:stedsnr" v="112959" />
	</node>
<<<<<<< HEAD
	<node lat="61.27314444853216" lon="10.069022229295896" id="-27241">
		<tag k="name" v="Stakkmyrene" />
		<tag k="natural" v="wetland" />
		<tag k="ssr:stedsnr" v="112960" />
	</node>
	<node lat="61.233797226241045" lon="10.338524998438285" id="-27242">
		<tag k="name" v="Rundmyra" />
		<tag k="natural" v="wetland" />
		<tag k="ssr:stedsnr" v="113330" />
	</node>
	<node lat="61.37275277698242" lon="10.045608338274363" id="-27258">
		<tag k="name" v="Ørnkampmyra" />
		<tag k="natural" v="wetland" />
		<tag k="ssr:stedsnr" v="118143" />
	</node>
	<node lat="61.268111112063465" lon="9.420461105271439" id="-27262">
		<tag k="name" v="Gråmyrene" />
		<tag k="natural" v="wetland" />
		<tag k="ssr:stedsnr" v="130253" />
	</node>
	<node lat="61.132308333598885" lon="10.187047228343845" id="-27264">
		<tag k="name" v="Flatom" />
		<tag k="place" v="locality" />
		<tag k="ssr:stedsnr" v="128059" />
	</node>
	<node lat="61.126308329341214" lon="9.987905562929626" id="-27266">
		<tag k="alt_name" v="Blestermyra" />
		<tag k="name" v="Blæstermyra" />
		<tag k="natural" v="wetland" />
		<tag k="ssr:stedsnr" v="128072" />
	</node>
	<node lat="61.31411666710667" lon="9.937986111372703" id="-27281">
		<tag k="name" v="Flågåslettet" />
		<tag k="place" v="locality" />
		<tag k="ssr:stedsnr" v="129652" />
	</node>
	<node lat="61.37878333567076" lon="10.143141659266742" id="-27294">
		<tag k="name" v="Stormyra" />
		<tag k="natural" v="wetland" />
		<tag k="ssr:stedsnr" v="170139" />
	</node>
	<node lat="61.280833330173564" lon="9.932277770009073" id="-27303">
		<tag k="name" v="Kloppmyra" />
=======
	<node id="-379646" lat="61.3567361086" lon="9.85969444639">
		<tag k="name" v="Vintermyra" />
		<tag k="natural" v="wetland" />
		<tag k="ssr:stedsnr" v="231532" />
	</node>
	<node id="-382493" lat="61.2240583378" lon="10.1365388866">
		<tag k="name" v="Kollumsmyra" />
		<tag k="natural" v="wetland" />
		<tag k="ssr:stedsnr" v="962370" />
	</node>
	<node id="-379644" lat="61.400075" lon="9.78496943537">
		<tag k="name" v="Gjestebumyra" />
		<tag k="natural" v="wetland" />
		<tag k="ssr:stedsnr" v="231141" />
	</node>
	<node id="-381188" lat="61.2531888926" lon="10.2382777832">
		<tag k="name" v="Avlundmyra" />
		<tag k="natural" v="wetland" />
		<tag k="ssr:stedsnr" v="69848" />
	</node>
	<node id="-382202" lat="61.2231944463" lon="10.1084611043">
		<tag k="historic" v="shieling" />
		<tag k="name" v="Vårsætra" />
		<tag k="place" v="locality" />
		<tag k="ssr:stedsnr" v="779642" />
	</node>
	<node id="-381177" lat="61.2400638906" lon="9.96279722617">
		<tag k="name" v="Moslettet" />
		<tag k="place" v="locality" />
		<tag k="ssr:stedsnr" v="69549" />
	</node>
	<node id="-381688" lat="61.3723527802" lon="9.9710166623">
		<tag k="name" v="Lengnskjørkja" />
		<tag k="natural" v="stone" />
		<tag k="old_name" v="Lengnskørkja" />
		<tag k="ssr:stedsnr" v="414054" />
	</node>
	<node id="-380884" lat="61.3231305586" lon="9.95647221346">
		<tag k="name" v="Bekkemillommyra" />
		<tag k="natural" v="wetland" />
		<tag k="ssr:stedsnr" v="899874" />
	</node>
	<node id="-382198" lat="61.3706611113" lon="9.61039445197">
		<tag k="historic" v="shieling" />
		<tag k="name" v="Bosbergsætra" />
		<tag k="place" v="locality" />
		<tag k="ssr:stedsnr" v="779484" />
	</node>
	<node id="-381685" lat="61.3355722224" lon="10.075688897">
		<tag k="landuse" v="meadow" />
		<tag k="name" v="Barhus" />
		<tag k="ssr:stedsnr" v="414033" />
	</node>
	<node id="-380240" lat="61.2861555573" lon="10.2196305509">
		<tag k="name" v="Stormyra" />
		<tag k="natural" v="wetland" />
		<tag k="ssr:stedsnr" v="494732" />
	</node>
	<node id="-380200" lat="61.2252083296" lon="10.338216665">
		<tag k="name" v="Larsmyra" />
		<tag k="natural" v="wetland" />
		<tag k="ssr:stedsnr" v="493459" />
	</node>
	<node id="-381165" lat="61.1965555596" lon="9.96660555327">
		<tag k="name" v="Svarthus" />
		<tag k="place" v="locality" />
		<tag k="ssr:stedsnr" v="68736" />
	</node>
	<node id="-382188" lat="61.2865555544" lon="10.2204527694">
		<tag k="name" v="Ovrestormyra" />
		<tag k="natural" v="wetland" />
		<tag k="ssr:stedsnr" v="779139" />
	</node>
	<node id="-379627" lat="61.1598027755" lon="10.0974249979">
		<tag k="name" v="Stormyra" />
		<tag k="natural" v="wetland" />
		<tag k="ssr:stedsnr" v="8443" />
	</node>
	<node id="-380711" lat="61.4026083369" lon="9.76285832625">
		<tag k="name" v="Brenndalsmyrene" />
		<tag k="natural" v="wetland" />
		<tag k="ssr:stedsnr" v="899344" />
	</node>
	<node id="-380136" lat="61.2425194452" lon="10.3355027697">
		<tag k="name" v="Ståkåmyra" />
		<tag k="natural" v="wetland" />
		<tag k="ssr:stedsnr" v="477347" />
	</node>
	<node id="-380881" lat="61.3077305587" lon="10.0163111023">
		<tag k="name" v="Kjølslettmyr" />
		<tag k="natural" v="wetland" />
		<tag k="ssr:stedsnr" v="899005" />
	</node>
	<node id="-380283" lat="61.3336972186" lon="9.82202499865">
		<tag k="name" v="Turtåsmyra" />
		<tag k="natural" v="wetland" />
		<tag k="ssr:stedsnr" v="414525" />
	</node>
	<node id="-380639" lat="61.2567694419" lon="10.1113972202">
		<tag k="landuse" v="meadow" />
		<tag k="name" v="Oleringen" />
		<tag k="ssr:stedsnr" v="658937" />
	</node>
	<node id="-382174" lat="61.3409972179" lon="9.88201110981">
		<tag k="name" v="Hellbekkmyra" />
		<tag k="natural" v="wetland" />
		<tag k="ssr:stedsnr" v="778967" />
	</node>
	<node id="-380637" lat="61.3082305535" lon="10.1506000072">
		<tag k="historic" v="shieling" />
		<tag k="name" v="Lillestylen" />
		<tag k="place" v="locality" />
		<tag k="ssr:stedsnr" v="658533" />
	</node>
	<node id="-381660" lat="61.195552778" lon="9.95734723038">
		<tag k="name" v="Svarthusmyrene" />
>>>>>>> e1d4bc35ff8a6074a6f2e91616a996b547c36f15
		<tag k="natural" v="wetland" />
		<tag k="ssr:stedsnr" v="172181" />
	</node>
<<<<<<< HEAD
	<node lat="61.32310277765087" lon="9.823561102671244" id="-27311">
		<tag k="name" v="Hanslihågån" />
		<tag k="place" v="locality" />
		<tag k="ssr:stedsnr" v="171559" />
	</node>
	<node lat="61.30279166822064" lon="9.804638881996707" id="-27312">
		<tag k="name" v="Tørrfurumyra" />
		<tag k="natural" v="wetland" />
		<tag k="ssr:stedsnr" v="171565" />
	</node>
	<node lat="61.34669999673809" lon="9.976297226923956" id="-27317">
		<tag k="name" v="Madsimyrene" />
		<tag k="natural" v="wetland" />
		<tag k="ssr:stedsnr" v="171988" />
	</node>
	<node lat="61.26189444676546" lon="10.05197222619236" id="-27320">
		<tag k="name" v="Rundmyra" />
		<tag k="natural" v="wetland" />
		<tag k="ssr:stedsnr" v="172450" />
	</node>
	<node lat="61.315466667765634" lon="9.722008330077692" id="-27323">
		<tag k="name" v="Nistumyra" />
=======
	<node id="-382171" lat="61.3200749972" lon="9.95311110412">
		<tag k="historic" v="shieling" />
		<tag k="name" v="Gammelvårsætra" />
		<tag k="place" v="locality" />
		<tag k="ssr:stedsnr" v="778853" />
	</node>
	<node id="-381657" lat="61.2548083331" lon="9.97530833375">
		<tag k="name" v="Gunnhildhalsen" />
		<tag k="natural" v="wetland" />
		<tag k="ssr:stedsnr" v="402979" />
	</node>
	<node id="-381656" lat="61.2562361094" lon="9.96631388765">
		<tag k="name" v="Oksummyra" />
		<tag k="natural" v="wetland" />
		<tag k="ssr:stedsnr" v="402978" />
	</node>
	<node id="-381655" lat="61.2790027758" lon="10.0417416619">
		<tag k="name" v="Skålslettmyra" />
		<tag k="natural" v="wetland" />
		<tag k="ssr:stedsnr" v="401677" />
	</node>
	<node id="-380118" lat="61.1744638866" lon="10.0053833325">
		<tag k="name" v="Stormyra" />
		<tag k="natural" v="wetland" />
		<tag k="ssr:stedsnr" v="476042" />
	</node>
	<node id="-382162" lat="61.3131138931" lon="10.016636117">
		<tag k="name" v="Stakkstomyra" />
		<tag k="natural" v="wetland" />
		<tag k="ssr:stedsnr" v="778001" />
	</node>
	<node id="-380162" lat="61.2582749966" lon="10.0656083344">
		<tag k="name" v="Austermyra" />
		<tag k="natural" v="wetland" />
		<tag k="ssr:stedsnr" v="354945" />
	</node>
	<node id="-380111" lat="61.3696472237" lon="9.74555555903">
		<tag k="name" v="Ømbjørgstein" />
		<tag k="natural" v="stone" />
		<tag k="ssr:stedsnr" v="475892" />
	</node>
	<node id="-380110" lat="61.3566305579" lon="9.72175833172">
		<tag k="name" v="Nesshaugmyra" />
>>>>>>> e1d4bc35ff8a6074a6f2e91616a996b547c36f15
		<tag k="natural" v="wetland" />
		<tag k="ssr:stedsnr" v="172492" />
	</node>
<<<<<<< HEAD
	<node lat="61.37474722127618" lon="9.645088885618312" id="-27329">
		<tag k="landuse" v="meadow" />
		<tag k="name" v="Hanssonlykkja" />
		<tag k="ssr:stedsnr" v="172939" />
	</node>
	<node lat="61.25273055997251" lon="10.082419447084206" id="-27331">
		<tag k="landuse" v="meadow" />
		<tag k="name" v="Solsetengene" />
		<tag k="ssr:stedsnr" v="172947" />
	</node>
	<node lat="61.1326694456183" lon="10.083488889676657" id="-27338">
		<tag k="name" v="Toftmyra" />
=======
	<node id="-382157" lat="61.3919055539" lon="9.73324444765">
		<tag k="landuse" v="meadow" />
		<tag k="name" v="Larsvollen" />
		<tag k="ssr:stedsnr" v="777325" />
	</node>
	<node id="-380620" lat="61.3325444418" lon="9.94190277788">
		<tag k="name" v="Byttingsmyra" />
		<tag k="natural" v="wetland" />
		<tag k="ssr:stedsnr" v="656876" />
	</node>
	<node id="-381131" lat="61.2299388873" lon="10.3208694384">
		<tag k="name" v="Hågåmyra" />
		<tag k="natural" v="wetland" />
		<tag k="ssr:stedsnr" v="55345" />
	</node>
	<node id="-381642" lat="61.3401055531" lon="9.86164999903">
		<tag k="alt_name" v="Bergemyrene" />
		<tag k="name" v="Bergemyrin" />
		<tag k="natural" v="wetland" />
		<tag k="ssr:stedsnr" v="372694" />
	</node>
	<node id="-380104" lat="61.294466669" lon="10.0081944409">
		<tag k="name" v="Småmyrene" />
>>>>>>> e1d4bc35ff8a6074a6f2e91616a996b547c36f15
		<tag k="natural" v="wetland" />
		<tag k="ssr:stedsnr" v="173884" />
	</node>
<<<<<<< HEAD
	<node lat="61.32153888482039" lon="9.972577780812387" id="-27359">
		<tag k="name" v="Skåndalsmyra" />
=======
	<node id="-380614" lat="61.1502500005" lon="10.2152361047">
		<tag k="name" v="Bånmyra" />
>>>>>>> e1d4bc35ff8a6074a6f2e91616a996b547c36f15
		<tag k="natural" v="wetland" />
		<tag k="ssr:stedsnr" v="189950" />
	</node>
<<<<<<< HEAD
	<node lat="61.32935555350434" lon="10.079172216288809" id="-27360">
		<tag k="name" v="Lonan" />
		<tag k="natural" v="wetland" />
		<tag k="ssr:stedsnr" v="189958" />
	</node>
	<node lat="61.34173333609234" lon="9.814441666731284" id="-27372">
		<tag k="name" v="Åsmyra" />
		<tag k="natural" v="wetland" />
		<tag k="ssr:stedsnr" v="190693" />
	</node>
	<node lat="61.280344445237546" lon="9.799086107129062" id="-27376">
		<tag k="alt_name" v="Mossjømyrene" />
		<tag k="name" v="Mossjømyrin" />
		<tag k="natural" v="wetland" />
		<tag k="ssr:stedsnr" v="190739" />
	</node>
	<node lat="61.31518055899196" lon="10.00323888925899" id="-27397">
		<tag k="name" v="Karimyra" />
=======
	<node id="-381121" lat="61.2544749963" lon="10.0975416622">
		<tag k="name" v="Brettingsmyra" />
		<tag k="natural" v="wetland" />
		<tag k="ssr:stedsnr" v="51949" />
	</node>
	<node id="-381119" lat="61.2733472205" lon="10.1109000067">
		<tag k="landuse" v="meadow" />
		<tag k="name" v="Klevaengene" />
		<tag k="ssr:stedsnr" v="51836" />
	</node>
	<node id="-380606" lat="61.3891472245" lon="9.76633054731">
		<tag k="historic" v="shieling" />
		<tag k="name" v="Pålsæter" />
		<tag k="place" v="locality" />
		<tag k="ssr:stedsnr" v="736348" />
	</node>
	<node id="-380093" lat="61.3268666691" lon="9.67522777991">
		<tag k="name" v="Putterhaugflågan" />
>>>>>>> e1d4bc35ff8a6074a6f2e91616a996b547c36f15
		<tag k="natural" v="wetland" />
		<tag k="ssr:stedsnr" v="292001" />
	</node>
<<<<<<< HEAD
	<node lat="61.32723055375239" lon="10.070116662563137" id="-27398">
		<tag k="name" v="Brannåsmyra" />
		<tag k="natural" v="wetland" />
		<tag k="ssr:stedsnr" v="292036" />
	</node>
	<node lat="61.38382222384438" lon="9.732419438252078" id="-27401">
=======
	<node id="-380618" lat="61.3905305541" lon="9.7252749969">
		<tag k="name" v="Systurompa" />
		<tag k="place" v="locality" />
		<tag k="ssr:stedsnr" v="656284" />
	</node>
	<node id="-381114" lat="61.2518833299" lon="10.0883361075">
>>>>>>> e1d4bc35ff8a6074a6f2e91616a996b547c36f15
		<tag k="landuse" v="meadow" />
		<tag k="name" v="Kvisbergvollen" />
		<tag k="ssr:stedsnr" v="292267" />
	</node>
<<<<<<< HEAD
	<node lat="61.321791666984794" lon="9.826627783107005" id="-27403">
		<tag k="landuse" v="meadow" />
		<tag k="name" v="Veslihågån" />
		<tag k="ssr:stedsnr" v="292520" />
	</node>
	<node lat="61.34769722073069" lon="9.854922226213436" id="-27404">
		<tag k="name" v="Helregnsmyra" />
		<tag k="natural" v="wetland" />
		<tag k="ssr:stedsnr" v="292459" />
	</node>
	<node lat="61.355180559905314" lon="9.855950008095716" id="-27405">
		<tag k="name" v="Bakkamyra" />
		<tag k="natural" v="wetland" />
		<tag k="ssr:stedsnr" v="292461" />
	</node>
	<node lat="61.34945555351774" lon="9.851155560422361" id="-27406">
		<tag k="name" v="Bytingsmyra" />
		<tag k="natural" v="wetland" />
		<tag k="ssr:stedsnr" v="292623" />
	</node>
	<node lat="61.34712777794263" lon="9.829444446449521" id="-27407">
		<tag k="name" v="Langmyra" />
		<tag k="natural" v="wetland" />
		<tag k="ssr:stedsnr" v="292643" />
	</node>
	<node lat="61.37087777518608" lon="9.730283332430567" id="-27411">
		<tag k="name" v="Råttengsslettet" />
		<tag k="place" v="locality" />
		<tag k="ssr:stedsnr" v="293097" />
	</node>
	<node lat="61.35865277604155" lon="9.726369443487059" id="-27413">
		<tag k="name" v="Jakobmyra" />
		<tag k="natural" v="wetland" />
		<tag k="ssr:stedsnr" v="293106" />
	</node>
	<node lat="61.40524695234104" lon="9.619101777681431" id="-27416">
		<tag k="name" v="Per Dalen" />
		<tag k="natural" v="stone" />
		<tag k="ssr:stedsnr" v="293950" />
	</node>
	<node lat="61.3205055519574" lon="9.631702776596942" id="-27424">
		<tag k="name" v="Liamyra" />
		<tag k="natural" v="wetland" />
		<tag k="ssr:stedsnr" v="294170" />
	</node>
	<node lat="61.29739722421974" lon="10.156400009174806" id="-27429">
		<tag k="name" v="Nordre Nustadhagan" />
		<tag k="place" v="locality" />
		<tag k="ssr:stedsnr" v="294538" />
	</node>
	<node lat="61.31393610710446" lon="10.146869442223569" id="-27430">
		<tag k="landuse" v="meadow" />
		<tag k="name" v="Nedre Selbota" />
		<tag k="ssr:stedsnr" v="294539" />
	</node>
	<node lat="61.24822777997554" lon="9.956133333744818" id="-27431">
=======
	<node id="-380089" lat="61.3468805528" lon="9.91825555587">
		<tag k="name" v="Nysæterkjølen" />
		<tag k="place" v="locality" />
		<tag k="ssr:stedsnr" v="474963" />
	</node>
	<node id="-379849" lat="61.3828222227" lon="9.62897222399">
		<tag k="name" v="Veslgardsmarka" />
		<tag k="place" v="locality" />
		<tag k="ssr:stedsnr" v="111941" />
	</node>
	<node id="-379927" lat="61.3476972207" lon="9.85492222621">
		<tag k="name" v="Helregnsmyra" />
		<tag k="natural" v="wetland" />
		<tag k="ssr:stedsnr" v="292459" />
	</node>
	<node id="-380702" lat="61.2255388904" lon="10.1483249977">
		<tag k="name" v="Kleivmyra" />
		<tag k="natural" v="wetland" />
		<tag k="ssr:stedsnr" v="720391" />
	</node>
	<node id="-380282" lat="61.3179444436" lon="9.82901111215">
		<tag k="landuse" v="meadow" />
		<tag k="name" v="Husenget" />
		<tag k="ssr:stedsnr" v="414520" />
	</node>
	<node id="-381811" lat="61.2534722238" lon="9.8633027837">
		<tag k="name" v="Brettingsmyra" />
		<tag k="natural" v="wetland" />
		<tag k="ssr:stedsnr" v="433743" />
	</node>
	<node id="-380080" lat="61.3182500022" lon="9.87488889698">
		<tag k="name" v="Nigardshågån" />
		<tag k="place" v="locality" />
		<tag k="ssr:stedsnr" v="474628" />
	</node>
	<node id="-380591" lat="61.2104666697" lon="10.1886722176">
		<tag k="name" v="Bjønnholen" />
		<tag k="place" v="locality" />
		<tag k="ssr:stedsnr" v="725063" />
	</node>
	<node id="-380077" lat="61.3342999973" lon="9.86276111526">
		<tag k="name" v="Veslemyra" />
		<tag k="natural" v="wetland" />
		<tag k="ssr:stedsnr" v="474522" />
	</node>
	<node id="-381611" lat="61.3892249963" lon="9.77316666743">
		<tag k="historic" v="shieling" />
		<tag k="name" v="Kjerringstylen" />
		<tag k="place" v="locality" />
		<tag k="ssr:stedsnr" v="360474" />
	</node>
	<node id="-380467" lat="61.2484666672" lon="10.3477222275">
		<tag k="name" v="Stormyra" />
		<tag k="natural" v="wetland" />
		<tag k="ssr:stedsnr" v="538356" />
	</node>
	<node id="-380073" lat="61.3355166626" lon="10.1880055549">
		<tag k="name" v="Martinstylen" />
		<tag k="place" v="locality" />
		<tag k="ssr:stedsnr" v="474179" />
	</node>
	<node id="-381096" lat="61.3246333326" lon="9.9327916714">
		<tag k="name" v="Stormyra" />
		<tag k="natural" v="wetland" />
		<tag k="ssr:stedsnr" v="50005" />
	</node>
	<node id="-380071" lat="61.391986114" lon="9.8078500082">
		<tag k="name" v="Heiskogen" />
		<tag k="place" v="locality" />
		<tag k="ssr:stedsnr" v="474088" />
	</node>
	<node id="-381324" lat="61.2699000043" lon="10.2204749946">
		<tag k="name" v="Langmyra" />
		<tag k="natural" v="wetland" />
		<tag k="ssr:stedsnr" v="129852" />
	</node>
	<node id="-380068" lat="61.3181861098" lon="10.1496749974">
		<tag k="historic" v="shieling" />
		<tag k="name" v="Blindjordslettet" />
		<tag k="place" v="locality" />
		<tag k="ssr:stedsnr" v="474067" />
	</node>
	<node id="-381603" lat="61.1596833349" lon="10.0236277823">
		<tag k="name" v="Måråbeitmyrene" />
		<tag k="natural" v="wetland" />
		<tag k="ssr:stedsnr" v="355912" />
	</node>
	<node id="-379926" lat="61.3838222238" lon="9.73241943825">
		<tag k="landuse" v="meadow" />
		<tag k="name" v="Kvisbergvollen" />
		<tag k="ssr:stedsnr" v="292267" />
	</node>
	<node id="-380064" lat="61.3044027806" lon="10.0098750009">
		<tag k="name" v="Finntottslettet" />
		<tag k="place" v="locality" />
		<tag k="ssr:stedsnr" v="474008" />
	</node>
	<node id="-380016" lat="61.3250888862" lon="10.1552333255">
		<tag k="name" v="Rundtommyrene" />
		<tag k="natural" v="wetland" />
		<tag k="ssr:stedsnr" v="232063" />
	</node>
	<node id="-381085" lat="61.358275002" lon="9.83585555332">
>>>>>>> e1d4bc35ff8a6074a6f2e91616a996b547c36f15
		<tag k="historic" v="shieling" />
		<tag k="name" v="Blestervollen" />
		<tag k="place" v="locality" />
		<tag k="ssr:stedsnr" v="294799" />
	</node>
<<<<<<< HEAD
	<node lat="61.24872500041056" lon="10.103677775906506" id="-27435">
		<tag k="name" v="Brennsetmyra" />
=======
	<node id="-380060" lat="61.3081460323" lon="10.1014910246">
		<tag k="name" v="Langmyra" />
>>>>>>> e1d4bc35ff8a6074a6f2e91616a996b547c36f15
		<tag k="natural" v="wetland" />
		<tag k="ssr:stedsnr" v="294864" />
	</node>
<<<<<<< HEAD
	<node lat="61.25054166684092" lon="10.076325004225666" id="-27436">
		<tag k="landuse" v="meadow" />
		<tag k="name" v="Solsethågån" />
		<tag k="ssr:stedsnr" v="294866" />
	</node>
	<node lat="61.20047500256544" lon="10.041655557637524" id="-27450">
		<tag k="alt_name" v="Ned Fossetslættet;Forsetslettet, ned" />
		<tag k="loc_name" v="Nedre Fossetslette" />
		<tag k="name" v="Nedre Fossetslættet" />
=======
	<node id="-380954" lat="61.270386111" lon="10.0635555494">
		<tag k="name" v="Åsamyra" />
		<tag k="natural" v="wetland" />
		<tag k="ssr:stedsnr" v="961967" />
	</node>
	<node id="-380527" lat="61.3593305585" lon="9.72918889167">
		<tag k="name" v="Rustmyra" />
		<tag k="natural" v="wetland" />
		<tag k="ssr:stedsnr" v="718083" />
	</node>
	<node id="-379844" lat="61.3024111151" lon="9.85234445089">
		<tag k="name" v="Grinjumyrene" />
		<tag k="natural" v="wetland" />
		<tag k="ssr:stedsnr" v="111526" />
	</node>
	<node id="-382102" lat="61.3665222252" lon="9.90801945186">
		<tag k="name" v="Smehaugslettet" />
>>>>>>> e1d4bc35ff8a6074a6f2e91616a996b547c36f15
		<tag k="place" v="locality" />
		<tag k="ssr:stedsnr" v="297454" />
	</node>
<<<<<<< HEAD
	<node lat="61.16266389234439" lon="10.128863894900414" id="-27453">
		<tag k="name" v="Prestsletta" />
		<tag k="place" v="locality" />
		<tag k="ssr:stedsnr" v="299450" />
	</node>
	<node lat="61.23991978598555" lon="10.122333867495723" id="-27467">
		<tag k="name" v="Tjønnmyra" />
		<tag k="natural" v="wetland" />
		<tag k="ssr:stedsnr" v="310271" />
	</node>
	<node lat="61.20198333120554" lon="9.662469447108649" id="-27481">
		<tag k="name" v="Sandmyra" />
		<tag k="natural" v="wetland" />
		<tag k="ssr:stedsnr" v="311561" />
	</node>
	<node lat="61.21260833589757" lon="9.822461112935617" id="-27482">
=======
	<node id="-382037" lat="61.3734184366" lon="10.0051290608">
		<tag k="name" v="Huldersætra" />
		<tag k="natural" v="stone" />
		<tag k="ssr:stedsnr" v="603799" />
	</node>
	<node id="-381586" lat="61.3426138933" lon="9.73403610842">
		<tag k="name" v="Langmyra" />
		<tag k="natural" v="wetland" />
		<tag k="ssr:stedsnr" v="354898" />
	</node>
	<node id="-380561" lat="61.2424611137" lon="10.3230527825">
		<tag k="name" v="Øvre Nordsvehaugmyra" />
		<tag k="natural" v="wetland" />
		<tag k="ssr:stedsnr" v="720339" />
	</node>
	<node id="-381583" lat="61.3517305533" lon="9.73823054699">
		<tag k="name" v="Solfritt" />
		<tag k="place" v="locality" />
		<tag k="ssr:stedsnr" v="354882" />
	</node>
	<node id="-381070" lat="61.2814972222" lon="10.0420111028">
		<tag k="name" v="Graupstølteigen" />
		<tag k="place" v="locality" />
		<tag k="ssr:stedsnr" v="37686" />
	</node>
	<node id="-381069" lat="61.2902055547" lon="10.0362166734">
		<tag k="name" v="Megardsslettet" />
		<tag k="place" v="locality" />
		<tag k="ssr:stedsnr" v="36639" />
	</node>
	<node id="-381068" lat="61.2822944453" lon="10.054016662">
		<tag k="name" v="Brenntjønnmyra" />
		<tag k="natural" v="wetland" />
		<tag k="ssr:stedsnr" v="36635" />
	</node>
	<node id="-380555" lat="61.354072221" lon="9.48600833529">
>>>>>>> e1d4bc35ff8a6074a6f2e91616a996b547c36f15
		<tag k="landuse" v="meadow" />
		<tag k="name" v="Dokkvollan" />
		<tag k="ssr:stedsnr" v="311565" />
	</node>
<<<<<<< HEAD
	<node lat="61.3406055570974" lon="10.049675003147838" id="-27496">
		<tag k="name" v="Svahellmyra" />
		<tag k="natural" v="wetland" />
		<tag k="ssr:stedsnr" v="353977" />
	</node>
	<node lat="61.3193888845149" lon="9.899894437842617" id="-27502">
		<tag k="name" v="Skålan" />
		<tag k="place" v="locality" />
		<tag k="ssr:stedsnr" v="352931" />
	</node>
	<node lat="61.35291944621923" lon="9.857141669329462" id="-27505">
		<tag k="name" v="Grøndalsmyra" />
		<tag k="natural" v="wetland" />
		<tag k="ssr:stedsnr" v="352470" />
	</node>
	<node lat="61.3294777813503" lon="10.126397223617197" id="-27510">
		<tag k="name" v="Slåseterengene" />
		<tag k="place" v="locality" />
		<tag k="ssr:stedsnr" v="353078" />
	</node>
	<node lat="61.26350555992651" lon="10.06069445112312" id="-27517">
=======
	<node id="-380951" lat="61.1399999959" lon="10.106102784">
		<tag k="name" v="Langmyra" />
		<tag k="natural" v="wetland" />
		<tag k="ssr:stedsnr" v="961912" />
	</node>
	<node id="-381474" lat="61.239919786" lon="10.1223338675">
		<tag k="alt_name" v="Tjørnmyra" />
		<tag k="name" v="Tjernsmyra" />
		<tag k="natural" v="wetland" />
		<tag k="ssr:stedsnr" v="310271" />
	</node>
	<node id="-381525" lat="61.3529194462" lon="9.85714166933">
		<tag k="name" v="Grøndalsmyra" />
		<tag k="natural" v="wetland" />
		<tag k="ssr:stedsnr" v="352470" />
	</node>
	<node id="-381103" lat="61.3108638929" lon="9.77825556105">
		<tag k="name" v="Leirvollmyra" />
		<tag k="natural" v="wetland" />
		<tag k="ssr:stedsnr" v="50511" />
	</node>
	<node id="-382080" lat="61.3368500037" lon="9.69682221457">
		<tag k="name" v="Stormyra" />
		<tag k="natural" v="wetland" />
		<tag k="ssr:stedsnr" v="614651" />
	</node>
	<node id="-381054" lat="61.3485277766" lon="10.1228138862">
		<tag k="name" v="Stormyra" />
		<tag k="natural" v="wetland" />
		<tag k="ssr:stedsnr" v="8977" />
	</node>
	<node id="-381562" lat="61.2635055599" lon="10.0606944511">
>>>>>>> e1d4bc35ff8a6074a6f2e91616a996b547c36f15
		<tag k="name" v="Nyengemyrene" />
		<tag k="natural" v="wetland" />
		<tag k="ssr:stedsnr" v="354423" />
	</node>
<<<<<<< HEAD
	<node lat="61.28025555311188" lon="10.235205548548258" id="-27522">
=======
	<node id="-381558" lat="61.2802555531" lon="10.2352055485">
>>>>>>> e1d4bc35ff8a6074a6f2e91616a996b547c36f15
		<tag k="name" v="Rundmyra" />
		<tag k="natural" v="wetland" />
		<tag k="ssr:stedsnr" v="354169" />
	</node>
<<<<<<< HEAD
	<node lat="61.24005277410539" lon="10.1144027688468" id="-27538">
		<tag k="name" v="Tjønnmyrhalsen" />
		<tag k="natural" v="wetland" />
		<tag k="ssr:stedsnr" v="354867" />
	</node>
	<node lat="61.34261389331073" lon="9.734036108420078" id="-27539">
		<tag k="name" v="Langmyra" />
		<tag k="natural" v="wetland" />
		<tag k="ssr:stedsnr" v="354898" />
	</node>
	<node lat="61.258274996571025" lon="10.06560833440758" id="-27544">
		<tag k="name" v="Austermyra" />
		<tag k="natural" v="wetland" />
		<tag k="ssr:stedsnr" v="354945" />
	</node>
	<node lat="61.15968333489562" lon="10.023627782308532" id="-27551">
		<tag k="name" v="Måråbeitmyrene" />
		<tag k="natural" v="wetland" />
		<tag k="ssr:stedsnr" v="355912" />
	</node>
	<node lat="61.258572222352456" lon="10.075983328585439" id="-27552">
		<tag k="alt_name" v="Solbjørgsengene" />
		<tag k="landuse" v="meadow" />
		<tag k="name" v="Solbjørsengene" />
		<tag k="ssr:stedsnr" v="355934" />
	</node>
	<node lat="61.38922499632687" lon="9.77316666742559" id="-27561">
		<tag k="historic" v="shieling" />
		<tag k="name" v="Kjerringstylen" />
=======
	<node id="-380020" lat="61.3627027793" lon="9.74948611084">
		<tag k="historic" v="shieling" />
		<tag k="name" v="Høgbergsvollen" />
		<tag k="place" v="locality" />
		<tag k="ssr:stedsnr" v="233882" />
	</node>
	<node id="-381761" lat="61.1350111143" lon="10.0649944524">
		<tag k="name" v="Sjuputtmyra" />
		<tag k="natural" v="wetland" />
		<tag k="ssr:stedsnr" v="432070" />
	</node>
	<node id="-382064" lat="61.1934555522" lon="10.0123138897">
		<tag k="alt_name" v="Svendsrudlislettet" />
		<tag k="name" v="Svensrudlislættet" />
		<tag k="place" v="locality" />
		<tag k="ssr:stedsnr" v="614484" />
	</node>
	<node id="-381551" lat="61.3406055571" lon="10.0496750031">
		<tag k="name" v="Svahellmyra" />
		<tag k="natural" v="wetland" />
		<tag k="ssr:stedsnr" v="353977" />
	</node>
	<node id="-380014" lat="61.4059111088" lon="9.54877221441">
		<tag k="landuse" v="meadow" />
		<tag k="name" v="Hessenget" />
		<tag k="ssr:stedsnr" v="231910" />
	</node>
	<node id="-380525" lat="61.3769055552" lon="9.7397027856">
		<tag k="name" v="Kveinnslåa" />
		<tag k="place" v="locality" />
		<tag k="ssr:stedsnr" v="718073" />
	</node>
	<node id="-380011" lat="61.3280500039" lon="9.90402778054">
		<tag k="name" v="Olaslettet" />
		<tag k="place" v="locality" />
		<tag k="ssr:stedsnr" v="231869" />
	</node>
	<node id="-380008" lat="61.3534611133" lon="9.83802776865">
		<tag k="name" v="Ekkermyra" />
		<tag k="natural" v="wetland" />
		<tag k="ssr:stedsnr" v="231707" />
	</node>
	<node id="-380007" lat="61.3407611084" lon="9.86723611842">
		<tag k="name" v="Åsbergmyra" />
		<tag k="natural" v="wetland" />
		<tag k="ssr:stedsnr" v="231566" />
	</node>
	<node id="-381542" lat="61.305116664" lon="9.85637778334">
		<tag k="name" v="Flågåmyra" />
		<tag k="natural" v="wetland" />
		<tag k="ssr:stedsnr" v="353559" />
	</node>
	<node id="-380004" lat="61.2004750026" lon="10.0416555576">
		<tag k="alt_name" v="Ned Fossetslættet;Forsetslettet, ned" />
		<tag k="name" v="Nedre Fossetslættet" />
		<tag k="place" v="locality" />
		<tag k="ssr:stedsnr" v="297454" />
	</node>
	<node id="-381539" lat="61.3303527807" lon="9.8361583385">
		<tag k="name" v="Nedre Sålåmyra" />
		<tag k="natural" v="wetland" />
		<tag k="ssr:stedsnr" v="353535" />
	</node>
	<node id="-380680" lat="61.4056916694" lon="9.77314167101">
		<tag k="name" v="Tossenmyra" />
		<tag k="natural" v="wetland" />
		<tag k="ssr:stedsnr" v="717815" />
	</node>
	<node id="-380513" lat="61.2322111072" lon="10.0962805471">
		<tag k="name" v="Innlegginga" />
		<tag k="place" v="locality" />
		<tag k="ssr:stedsnr" v="602226" />
	</node>
	<node id="-379920" lat="61.3272305538" lon="10.0701166626">
		<tag k="name" v="Brannåsmyra" />
		<tag k="natural" v="wetland" />
		<tag k="ssr:stedsnr" v="292036" />
	</node>
	<node id="-381534" lat="61.3468138921" lon="10.1847499955">
		<tag k="name" v="Norshusmyra" />
		<tag k="natural" v="wetland" />
		<tag k="ssr:stedsnr" v="353117" />
	</node>
	<node id="-381604" lat="61.2585722224" lon="10.0759833286">
		<tag k="landuse" v="meadow" />
		<tag k="name" v="Solbjørgsengene" />
		<tag k="ssr:stedsnr" v="355934" />
	</node>
	<node id="-381531" lat="61.3294777814" lon="10.1263972236">
		<tag k="name" v="Slåsæterengene" />
		<tag k="place" v="locality" />
		<tag k="ssr:stedsnr" v="353078" />
	</node>
	<node id="-380175" lat="61.2410749962" lon="9.97218333549">
		<tag k="alt_name" v="Oppsetslettet" />
		<tag k="name" v="Oppsetslættet" />
		<tag k="place" v="locality" />
		<tag k="ssr:stedsnr" v="492329" />
	</node>
	<node id="-382552" lat="61.191939485" lon="10.1340634629">
		<tag k="landuse" v="quarry" />
		<tag k="name" v="Granligruva" />
		<tag k="ssr:stedsnr" v="982208" />
	</node>
	<node id="-380516" lat="61.3293055538" lon="9.87964445207">
		<tag k="name" v="Stigersteinsmyra" />
		<tag k="natural" v="wetland" />
		<tag k="ssr:stedsnr" v="717538" />
	</node>
	<node id="-382550" lat="61.2924606014" lon="10.124388007">
		<tag k="landuse" v="quarry" />
		<tag k="name" v="Kankerud fjelltak" />
		<tag k="ssr:stedsnr" v="982206" />
	</node>
	<node id="-381113" lat="61.2982084251" lon="10.1406245439">
		<tag k="alt_name" v="Krankerudhaugringen" />
		<tag k="landuse" v="meadow" />
		<tag k="name" v="Kankerudhaugringen" />
		<tag k="ssr:stedsnr" v="51570" />
	</node>
	<node id="-382034" lat="61.3483972257" lon="9.90089444958">
		<tag k="name" v="Larsslettene" />
>>>>>>> e1d4bc35ff8a6074a6f2e91616a996b547c36f15
		<tag k="place" v="locality" />
		<tag k="ssr:stedsnr" v="360474" />
	</node>
<<<<<<< HEAD
	<node lat="61.340105553091405" lon="9.861649999033123" id="-27603">
		<tag k="alt_name" v="Bergemyrene" />
		<tag k="name" v="Bergemyrin" />
		<tag k="natural" v="wetland" />
		<tag k="ssr:stedsnr" v="372694" />
	</node>
	<node lat="61.256236109357616" lon="9.966313887653383" id="-27615">
		<tag k="name" v="Oksummyra" />
		<tag k="natural" v="wetland" />
		<tag k="ssr:stedsnr" v="402978" />
	</node>
	<node lat="61.25480833305045" lon="9.975308333745085" id="-27616">
		<tag k="name" v="Gunnhildhalsen" />
=======
	<node id="-380771" lat="61.3999972203" lon="9.69186110544">
		<tag k="name" v="Flæene" />
		<tag k="natural" v="wetland" />
		<tag k="ssr:stedsnr" v="777525" />
	</node>
	<node id="-382544" lat="61.2258379792" lon="10.2086621704">
		<tag k="name" v="Linflåa" />
		<tag k="place" v="locality" />
		<tag k="ssr:stedsnr" v="982194" />
	</node>
	<node id="-379983" lat="61.2505416668" lon="10.0763250042">
		<tag k="landuse" v="meadow" />
		<tag k="name" v="Solsethågån" />
		<tag k="ssr:stedsnr" v="294866" />
	</node>
	<node id="-379982" lat="61.2487250004" lon="10.1036777759">
		<tag k="name" v="Brennsetmyra" />
>>>>>>> e1d4bc35ff8a6074a6f2e91616a996b547c36f15
		<tag k="natural" v="wetland" />
		<tag k="ssr:stedsnr" v="402979" />
	</node>
	<node id="-382221" lat="61.2336666706" lon="10.330750003">
		<tag k="name" v="Finntjønnmyra" />
		<tag k="natural" v="wetland" />
		<tag k="ssr:stedsnr" v="780320" />
	</node>
	<node id="-379980" lat="61.24822778" lon="9.95613333374">
		<tag k="historic" v="shieling" />
		<tag k="name" v="Blestervollen" />
		<tag k="place" v="locality" />
		<tag k="ssr:stedsnr" v="294799" />
	</node>
	<node id="-381515" lat="61.358200002" lon="10.1412083292">
		<tag k="name" v="Sjøsætermyra" />
		<tag k="natural" v="wetland" />
		<tag k="ssr:stedsnr" v="311989" />
	</node>
	<node id="-382026" lat="61.1977972223" lon="10.243569448">
		<tag k="name" v="Fabrikkteigen" />
		<tag k="place" v="locality" />
		<tag k="ssr:stedsnr" v="600296" />
	</node>
	<node id="-381580" lat="61.2400527741" lon="10.1144027688">
		<tag k="name" v="Tjernsmyrhalsen" />
		<tag k="natural" v="wetland" />
		<tag k="ssr:stedsnr" v="354867" />
	</node>
	<node id="-380485" lat="61.2617472253" lon="9.98031666693">
		<tag k="name" v="Kvenndorra" />
		<tag k="natural" v="wetland" />
		<tag k="ssr:stedsnr" v="705986" />
	</node>
	<node id="-379972" lat="61.2973972242" lon="10.1564000092">
		<tag k="name" v="Nordre Nustadhagan" />
		<tag k="place" v="locality" />
		<tag k="ssr:stedsnr" v="294538" />
	</node>
	<node id="-380483" lat="61.2840611094" lon="10.0437944381">
		<tag k="historic" v="shieling" />
		<tag k="name" v="Graupstølan" />
		<tag k="place" v="locality" />
		<tag k="ssr:stedsnr" v="704645" />
	</node>
	<node id="-382016" lat="61.2719138926" lon="10.0827444484">
		<tag k="name" v="Øvre Haugaringmyra" />
		<tag k="natural" v="wetland" />
		<tag k="ssr:stedsnr" v="597970" />
	</node>
	<node id="-380926" lat="61.2174638887" lon="9.98549165756">
		<tag k="name" v="Kårfallslettet" />
		<tag k="place" v="locality" />
		<tag k="ssr:stedsnr" v="918528" />
	</node>
	<node id="-380341" lat="61.3895055536" lon="9.58580832742">
		<tag k="name" v="Tømmerhaugmyra" />
		<tag k="natural" v="wetland" />
		<tag k="ssr:stedsnr" v="657962" />
	</node>
	<node id="-380619" lat="61.3923722226" lon="9.72363334126">
		<tag k="name" v="Endarompa" />
		<tag k="place" v="locality" />
		<tag k="ssr:stedsnr" v="656285" />
	</node>
	<node id="-380636" lat="61.3111027756" lon="10.1526277708">
		<tag k="historic" v="shieling" />
		<tag k="name" v="Veslestylen" />
		<tag k="place" v="locality" />
		<tag k="ssr:stedsnr" v="658530" />
	</node>
	<node id="-382520" lat="61.3622167298" lon="9.8212098078">
		<tag k="name" v="Lykkjeslettet" />
		<tag k="place" v="locality" />
		<tag k="ssr:stedsnr" v="974325" />
	</node>
	<node id="-379959" lat="61.4052469523" lon="9.61910177768">
		<tag k="name" v="Per Dalen" />
		<tag k="natural" v="stone" />
		<tag k="ssr:stedsnr" v="293950" />
	</node>
	<node id="-380670" lat="61.2603277778" lon="10.2320527708">
		<tag k="name" v="Engemyra" />
		<tag k="natural" v="wetland" />
		<tag k="ssr:stedsnr" v="676825" />
	</node>
	<node id="-381493" lat="61.2126083359" lon="9.82246111294">
		<tag k="landuse" v="meadow" />
		<tag k="name" v="Dokkvollan" />
		<tag k="ssr:stedsnr" v="311565" />
	</node>
	<node id="-381492" lat="61.2019833312" lon="9.66246944711">
		<tag k="name" v="Sandmyra" />
		<tag k="natural" v="wetland" />
		<tag k="ssr:stedsnr" v="311561" />
	</node>
	<node id="-382003" lat="61.2999611106" lon="10.1399916664">
		<tag k="alt_name" v="Krankerudringen" />
		<tag k="landuse" v="meadow" />
		<tag k="name" v="Kankerudringen" />
		<tag k="ssr:stedsnr" v="597523" />
	</node>
	<node id="-382002" lat="61.3004416664" lon="10.144824995">
		<tag k="name" v="Perringen" />
		<tag k="place" v="locality" />
		<tag k="ssr:stedsnr" v="597515" />
	</node>
	<node id="-380465" lat="61.2589111118" lon="9.90142777025">
		<tag k="name" v="Grønnmyra" />
		<tag k="natural" v="wetland" />
		<tag k="ssr:stedsnr" v="537993" />
	</node>
	<node id="-380464" lat="61.2677638851" lon="9.94602499979">
		<tag k="name" v="Fossmyra" />
		<tag k="natural" v="wetland" />
		<tag k="ssr:stedsnr" v="537989" />
	</node>
	<node id="-379742" lat="61.2590249988" lon="10.030119441">
		<tag k="name" v="Teigumsvollen" />
		<tag k="place" v="locality" />
		<tag k="ssr:stedsnr" v="51461" />
	</node>
	<node id="-381998" lat="61.2268083348" lon="9.88588888419">
		<tag k="name" v="Kåsmyrene" />
		<tag k="natural" v="wetland" />
		<tag k="ssr:stedsnr" v="597211" />
	</node>
	<node id="-380090" lat="61.2823527749" lon="10.2194861057">
		<tag k="name" v="Kojemyra" />
		<tag k="natural" v="wetland" />
		<tag k="ssr:stedsnr" v="475140" />
	</node>
	<node id="-380679" lat="61.333483332" lon="10.0706472254">
		<tag k="landuse" v="meadow" />
		<tag k="name" v="Paradis" />
		<tag k="ssr:stedsnr" v="717020" />
	</node>
	<node id="-379943" lat="61.358652776" lon="9.72636944349">
		<tag k="name" v="Jakobmyra" />
		<tag k="natural" v="wetland" />
		<tag k="ssr:stedsnr" v="293106" />
	</node>
	<node id="-379941" lat="61.3708777752" lon="9.73028333243">
		<tag k="name" v="Råttengsslettet" />
		<tag k="place" v="locality" />
		<tag k="ssr:stedsnr" v="293097" />
	</node>
	<node id="-381986" lat="61.2794888863" lon="9.88489166542">
		<tag k="name" v="Kjeikflågån" />
		<tag k="natural" v="wetland" />
		<tag k="ssr:stedsnr" v="596804" />
	</node>
	<node id="-379937" lat="61.3216305562" lon="10.0025277821">
		<tag k="historic" v="shieling" />
		<tag k="name" v="Møylilykkja" />
		<tag k="place" v="locality" />
		<tag k="ssr:stedsnr" v="292933" />
	</node>
	<node id="-379935" lat="61.3226583297" lon="9.91147499849">
		<tag k="name" v="Rundmyra" />
		<tag k="natural" v="wetland" />
		<tag k="ssr:stedsnr" v="292824" />
	</node>
	<node id="-382494" lat="61.2296722219" lon="10.135008335">
		<tag k="name" v="Stormyra" />
		<tag k="natural" v="wetland" />
		<tag k="ssr:stedsnr" v="962373" />
	</node>
	<node id="-379933" lat="61.3471277779" lon="9.82944444645">
		<tag k="name" v="Langmyra" />
		<tag k="natural" v="wetland" />
		<tag k="ssr:stedsnr" v="292643" />
	</node>
	<node id="-379932" lat="61.3494555535" lon="9.85115556042">
		<tag k="name" v="Bytingsmyra" />
		<tag k="natural" v="wetland" />
		<tag k="ssr:stedsnr" v="292623" />
	</node>
	<node id="-380635" lat="61.3052916657" lon="10.1402805579">
		<tag k="name" v="Andersringen" />
		<tag k="place" v="locality" />
		<tag k="ssr:stedsnr" v="658517" />
	</node>
	<node id="-381978" lat="61.3193611086" lon="10.1812666695">
		<tag k="historic" v="shieling" />
		<tag k="name" v="Børrelykkja" />
		<tag k="place" v="locality" />
		<tag k="ssr:stedsnr" v="596183" />
	</node>
	<node id="-380953" lat="61.2613777799" lon="10.1078111145">
		<tag k="name" v="Klevamyra" />
		<tag k="natural" v="wetland" />
		<tag k="ssr:stedsnr" v="961956" />
	</node>
	<node id="-381976" lat="61.3729472246" lon="9.72619444052">
		<tag k="name" v="Andersslettet" />
		<tag k="place" v="locality" />
		<tag k="ssr:stedsnr" v="596085" />
	</node>
	<node id="-381975" lat="61.3743972187" lon="9.73051388412">
		<tag k="name" v="Veslvollen" />
		<tag k="place" v="locality" />
		<tag k="ssr:stedsnr" v="596072" />
	</node>
	<node id="-381974" lat="61.3772527773" lon="9.73202222231">
		<tag k="name" v="Ramsvollen" />
		<tag k="place" v="locality" />
		<tag k="ssr:stedsnr" v="596065" />
	</node>
	<node id="-380437" lat="61.326283331" lon="10.0853111128">
		<tag k="name" v="Skeismyra" />
		<tag k="natural" v="wetland" />
		<tag k="ssr:stedsnr" v="535032" />
	</node>
	<node id="-382484" lat="61.2508194431" lon="10.0967416636">
		<tag k="landuse" v="meadow" />
		<tag k="name" v="Skålenget" />
		<tag k="ssr:stedsnr" v="961892" />
	</node>
	<node id="-380947" lat="61.290061107" lon="10.1025333337">
		<tag k="name" v="Mortenget" />
		<tag k="place" v="locality" />
		<tag k="ssr:stedsnr" v="961658" />
	</node>
	<node id="-382482" lat="61.3015777954" lon="10.0951349806">
		<tag k="name" v="Klininggrautstein" />
		<tag k="natural" v="stone" />
		<tag k="ssr:stedsnr" v="961752" />
	</node>
	<node id="-382481" lat="61.3013111077" lon="10.1167444512">
		<tag k="name" v="Rudstugumyra" />
		<tag k="natural" v="wetland" />
		<tag k="ssr:stedsnr" v="961744" />
	</node>
	<node id="-381968" lat="61.3422361083" lon="9.84116667535">
		<tag k="landuse" v="meadow" />
		<tag k="name" v="Ånåvollan" />
		<tag k="ssr:stedsnr" v="595626" />
	</node>
	<node id="-379918" lat="61.315180559" lon="10.0032388893">
		<tag k="name" v="Karimyra" />
		<tag k="natural" v="wetland" />
		<tag k="ssr:stedsnr" v="292001" />
	</node>
	<node id="-381453" lat="61.3417333361" lon="9.81444166673">
		<tag k="name" v="Åsmyra" />
		<tag k="natural" v="wetland" />
		<tag k="ssr:stedsnr" v="190693" />
	</node>
	<node id="-381963" lat="61.3997833361" lon="9.73419722298">
		<tag k="name" v="Åmillommyra" />
		<tag k="natural" v="wetland" />
		<tag k="ssr:stedsnr" v="595293" />
	</node>
	<node id="-381538" lat="61.3308249996" lon="9.84100833395">
		<tag k="name" v="Øverhaugmyra" />
		<tag k="natural" v="wetland" />
		<tag k="ssr:stedsnr" v="353534" />
	</node>
	<node id="-382551" lat="61.2252055299" lon="10.0515377833">
		<tag k="landuse" v="quarry" />
		<tag k="name" v="Børkhågålia fjelltak" />
		<tag k="ssr:stedsnr" v="982207" />
	</node>
	<node id="-381705" lat="61.2734083351" lon="10.2066249953">
		<tag k="name" v="Kjølrønningmyra" />
		<tag k="natural" v="wetland" />
		<tag k="ssr:stedsnr" v="415070" />
	</node>
	<node id="-380332" lat="61.3039194461" lon="9.76652777515">
		<tag k="name" v="Vakkeråsen" />
		<tag k="place" v="locality" />
		<tag k="ssr:stedsnr" v="657563" />
	</node>
	<node id="-381600" lat="61.2496527799" lon="9.93481944047">
		<tag k="name" v="Flåmyra" />
		<tag k="natural" v="wetland" />
		<tag k="ssr:stedsnr" v="355852" />
	</node>
	<node id="-380758" lat="61.2268250011" lon="10.3261972246">
		<tag k="name" v="Kvernbekkmyra" />
		<tag k="natural" v="wetland" />
		<tag k="ssr:stedsnr" v="904348" />
	</node>
	<node id="-380583" lat="61.3008499987" lon="10.1213166703">
		<tag k="name" v="Rudstugumyra" />
		<tag k="natural" v="wetland" />
		<tag k="ssr:stedsnr" v="615762" />
	</node>
</osm>
