<?xml version="1.0" encoding="UTF-8"?>
<<<<<<< HEAD
<osm version="0.6" generator="osmapis">
	<node lat="61.20728888716868" lon="9.649813883284118" id="-25595">
		<tag k="name" v="Skjellbreidsbekken" />
		<tag k="ssr:stedsnr" v="7506" />
		<tag k="waterway" v="stream" />
	</node>
	<node lat="61.23436110863756" lon="9.581786108840708" id="-25600">
		<tag k="alt_name" v="Kringlonen" />
		<tag k="name" v="Kringllonen" />
		<tag k="natural" v="water" />
		<tag k="ssr:stedsnr" v="7993" />
		<tag k="water" v="lake" />
	</node>
	<node lat="61.4127083341009" lon="9.850516659391186" id="-25605">
		<tag k="name" v="Rundtjønnet" />
		<tag k="natural" v="water" />
		<tag k="ssr:stedsnr" v="8350" />
	</node>
	<node lat="61.39097500157565" lon="9.700027777594622" id="-25606">
		<tag k="name" v="Gryta" />
		<tag k="ssr:stedsnr" v="8395" />
		<tag k="waterway" v="stream" />
	</node>
	<node lat="61.201994442306045" lon="10.218544444208433" id="-25607">
		<tag k="name" v="Haukåa" />
		<tag k="ssr:stedsnr" v="8502" />
		<tag k="waterway" v="stream" />
	</node>
	<node lat="61.319877773805075" lon="9.56168611506759" id="-25608">
		<tag k="name" v="Hundtjønnlonen" />
		<tag k="natural" v="water" />
		<tag k="ssr:stedsnr" v="8508" />
		<tag k="water" v="lake" />
	</node>
	<node lat="61.332019447063544" lon="9.573016668928773" id="-25611">
		<tag k="alt_name" v="Leppvatnet, nedre" />
		<tag k="name" v="Nedre Leppvatnet" />
		<tag k="natural" v="water" />
		<tag k="ssr:stedsnr" v="8519" />
		<tag k="water" v="lake" />
	</node>
	<node lat="61.25601110791296" lon="10.06895833530068" id="-25614">
		<tag k="name" v="Vigga" />
		<tag k="ssr:stedsnr" v="8845" />
		<tag k="waterway" v="stream" />
	</node>
	<node lat="61.276691662842964" lon="9.778002781384226" id="-25620">
		<tag k="name" v="Mossjøen" />
		<tag k="natural" v="water" />
		<tag k="ssr:stedsnr" v="8764" />
		<tag k="water" v="lake" />
	</node>
	<node lat="61.25821389311033" lon="9.847174997251495" id="-25624">
		<tag k="name" v="Horntjønnet" />
		<tag k="natural" v="water" />
		<tag k="ssr:stedsnr" v="8780" />
	</node>
	<node lat="61.294280556874405" lon="10.004730556787704" id="-25625">
		<tag k="name" v="Ulva" />
		<tag k="ssr:stedsnr" v="8793" />
		<tag k="waterway" v="stream" />
	</node>
	<node lat="61.29318332969493" lon="9.514552777765651" id="-25627">
		<tag k="name" v="Vesltjønn" />
		<tag k="natural" v="water" />
		<tag k="ssr:stedsnr" v="9233" />
	</node>
	<node lat="61.28765277946671" lon="9.582927776647725" id="-25629">
		<tag k="name" v="Stubben" />
		<tag k="ssr:stedsnr" v="9236" />
		<tag k="waterway" v="stream" />
	</node>
	<node lat="61.37247777484888" lon="9.648336111829396" id="-25646">
		<tag k="name" v="Stranddalsvika" />
		<tag k="natural" v="bay" />
		<tag k="ssr:stedsnr" v="232915" />
	</node>
	<node lat="61.33908333762628" lon="9.993216664772554" id="-25647">
		<tag k="name" v="Slåttbekken" />
		<tag k="ssr:stedsnr" v="232976" />
		<tag k="waterway" v="stream" />
	</node>
	<node lat="61.37674166342361" lon="9.631322216383055" id="-25655">
		<tag k="name" v="Solsidesundet" />
		<tag k="natural" v="strait" />
		<tag k="ssr:stedsnr" v="233482" />
	</node>
	<node lat="61.37768888950994" lon="9.62862778301346" id="-25656">
		<tag k="name" v="Sauvomma" />
		<tag k="place" v="islet" />
		<tag k="ssr:stedsnr" v="233485" />
	</node>
	<node lat="61.28309722444771" lon="10.061469438749066" id="-25668">
		<tag k="name" v="Nigardsvika" />
		<tag k="natural" v="bay" />
		<tag k="ssr:stedsnr" v="233666" />
	</node>
	<node lat="61.22209999813134" lon="9.985191662505136" id="-25675">
		<tag k="name" v="Vålåtjønnet" />
		<tag k="natural" v="water" />
		<tag k="ssr:stedsnr" v="234242" />
	</node>
	<node lat="61.38938055819395" lon="9.9025972258174" id="-25692">
		<tag k="name" v="Åbborvika" />
		<tag k="natural" v="bay" />
		<tag k="ssr:stedsnr" v="49672" />
	</node>
	<node lat="61.38488889003866" lon="9.916488890705885" id="-25693">
		<tag k="name" v="Åbbortjønnet" />
		<tag k="natural" v="water" />
		<tag k="ssr:stedsnr" v="49673" />
	</node>
	<node lat="61.39099166805706" lon="9.89120555561757" id="-25694">
		<tag k="name" v="Midtvollsvika" />
		<tag k="natural" v="bay" />
		<tag k="ssr:stedsnr" v="49679" />
	</node>
	<node lat="61.30017777900849" lon="10.046197230424282" id="-25701">
		<tag k="name" v="Fjellbekken" />
		<tag k="ssr:stedsnr" v="50220" />
		<tag k="waterway" v="stream" />
	</node>
	<node lat="61.4124777800198" lon="9.542927779400301" id="-25704">
		<tag k="name" v="Lonavika" />
		<tag k="natural" v="bay" />
		<tag k="ssr:stedsnr" v="50889" />
	</node>
	<node lat="61.329461107311" lon="9.755363891122558" id="-25710">
		<tag k="name" v="Krokbekken" />
		<tag k="ssr:stedsnr" v="51510" />
		<tag k="waterway" v="stream" />
	</node>
	<node lat="61.2355916629757" lon="9.84163332690632" id="-25715">
		<tag k="name" v="Dunglungsvika" />
		<tag k="natural" v="bay" />
		<tag k="ssr:stedsnr" v="51624" />
	</node>
	<node lat="61.38569002406" lon="9.90666516882492" id="-25724">
		<tag k="name" v="Bennsjøen" />
		<tag k="natural" v="water" />
		<tag k="ssr:stedsnr" v="52517" />
		<tag k="water" v="lake" />
	</node>
	<node lat="61.37379444838666" lon="10.03265834226293" id="-25733">
		<tag k="name" v="Lykkjomtjønnet" />
		<tag k="natural" v="water" />
		<tag k="ssr:stedsnr" v="58189" />
	</node>
	<node lat="61.36893610924642" lon="10.01116943570096" id="-25735">
		<tag k="name" v="Øvre Nosetjønnet" />
		<tag k="natural" v="water" />
		<tag k="ssr:stedsnr" v="58892" />
	</node>
	<node lat="61.21285000384782" lon="9.635555558930859" id="-25739">
		<tag k="name" v="Killingholmen" />
		<tag k="place" v="islet" />
		<tag k="ssr:stedsnr" v="240852" />
	</node>
	<node lat="61.244549997785214" lon="9.579683341216183" id="-25740">
		<tag k="name" v="Vakkerlibekken" />
		<tag k="ssr:stedsnr" v="67752" />
		<tag k="waterway" v="stream" />
	</node>
	<node lat="61.22968055522844" lon="9.657183335055034" id="-25743">
		<tag k="name" v="Leirbekken" />
		<tag k="ssr:stedsnr" v="68520" />
		<tag k="waterway" v="stream" />
	</node>
	<node lat="61.21341234465666" lon="9.70284952106956" id="-25744">
		<tag k="name" v="Mjødokka" />
		<tag k="natural" v="water" />
		<tag k="ssr:stedsnr" v="68540" />
		<tag k="water" v="lake" />
	</node>
	<node lat="61.146361112419505" lon="9.985875002016163" id="-25754">
		<tag k="name" v="Storbekken" />
		<tag k="ssr:stedsnr" v="69095" />
		<tag k="waterway" v="stream" />
	</node>
	<node lat="61.20256666896195" lon="10.10364445355649" id="-25756">
		<tag k="name" v="Sagelva" />
		<tag k="ssr:stedsnr" v="69537" />
		<tag k="waterway" v="stream" />
	</node>
	<node lat="61.29613555869014" lon="9.635952001131837" id="-25759">
		<tag k="name" v="Slivatnet" />
		<tag k="natural" v="water" />
		<tag k="ssr:stedsnr" v="69680" />
		<tag k="water" v="lake" />
	</node>
	<node lat="61.37129722667673" lon="10.159725000680726" id="-25764">
		<tag k="name" v="Goddalsbekken" />
		<tag k="ssr:stedsnr" v="110119" />
		<tag k="waterway" v="stream" />
	</node>
	<node lat="61.2203722251184" lon="9.556094444118932" id="-25778">
		<tag k="name" v="Skruvdalsbekken" />
		<tag k="ssr:stedsnr" v="249997" />
		<tag k="waterway" v="stream" />
	</node>
	<node lat="61.31820555583141" lon="9.671044442612125" id="-25780">
		<tag k="name" v="Ongsjøbekken" />
		<tag k="ssr:stedsnr" v="111423" />
		<tag k="waterway" v="stream" />
	</node>
	<node lat="61.28520832909605" lon="9.902758324105685" id="-25792">
		<tag k="name" v="Svartholet" />
		<tag k="natural" v="water" />
		<tag k="ssr:stedsnr" v="112223" />
	</node>
	<node lat="61.119099995824165" lon="10.13068333785963" id="-25794">
		<tag k="name" v="Gåstjønnet" />
		<tag k="natural" v="water" />
		<tag k="ssr:stedsnr" v="250114" />
	</node>
	<node lat="61.37878055262589" lon="9.78396388504858" id="-25816">
		<tag k="name" v="Kringeltjønnet" />
		<tag k="natural" v="water" />
		<tag k="ssr:stedsnr" v="250346" />
	</node>
	<node lat="61.3817916639954" lon="9.947386114250321" id="-25818">
		<tag k="alt_name" v="Holtjønnet;Holtjønnet, nordre" />
		<tag k="name" v="Nordre Holtjønnet" />
		<tag k="natural" v="water" />
		<tag k="ssr:stedsnr" v="250358" />
	</node>
	<node lat="61.370622218363934" lon="10.09262777692377" id="-25827">
		<tag k="name" v="Klokkertjønnbekken" />
		<tag k="ssr:stedsnr" v="117038" />
		<tag k="waterway" v="stream" />
	</node>
	<node lat="61.18772500254764" lon="9.956191664859675" id="-25828">
		<tag k="alt_name" v="Øvre Kroktjønnet" />
		<tag k="name" v="Kroktjønnet" />
		<tag k="natural" v="water" />
		<tag k="ssr:stedsnr" v="250719" />
	</node>
	<node lat="61.307338890080274" lon="10.042980559320062" id="-25831">
		<tag k="name" v="Åbbortjønn" />
		<tag k="natural" v="water" />
		<tag k="ssr:stedsnr" v="118110" />
	</node>
	<node lat="61.38274722661556" lon="10.130538888933346" id="-25834">
		<tag k="name" v="Kroktjønnet" />
		<tag k="natural" v="water" />
		<tag k="ssr:stedsnr" v="250872" />
	</node>
	<node lat="61.383508950967624" lon="9.999887303872596" id="-25835">
		<tag k="name" v="Grasdalsvatnet" />
=======
<osm generator="osmapis" version="0.6">
	<node id="-380911" lat="61.349361115" lon="9.7181138889">
		<tag k="name" v="Sprangbekken" />
		<tag k="ssr:stedsnr" v="908341" />
		<tag k="waterway" v="stream" />
	</node>
	<node id="-380910" lat="61.3677361108" lon="10.0107000014">
		<tag k="name" v="Nedre Nosetjønnet" />
		<tag k="natural" v="water" />
		<tag k="ssr:stedsnr" v="907853" />
	</node>
	<node id="-380899" lat="61.2166666698" lon="9.80595833135">
		<tag k="name" v="Hestsundet" />
		<tag k="natural" v="strait" />
		<tag k="ssr:stedsnr" v="901604" />
	</node>
	<node id="-380880" lat="61.3501222257" lon="10.1893638877">
		<tag k="name" v="Jarudtjønnet" />
		<tag k="natural" v="water" />
		<tag k="ssr:stedsnr" v="899113" />
	</node>
	<node id="-380876" lat="61.3587999982" lon="10.0106527731">
		<tag k="name" v="Nisjuvatnet" />
		<tag k="natural" v="water" />
		<tag k="ssr:stedsnr" v="858973" />
		<tag k="water" v="lake" />
	</node>
	<node id="-380867" lat="61.2861666704" lon="9.81120832999">
		<tag k="alt_name" v="Svabekktjønnet, nedre" />
		<tag k="name" v="Nedre Svabekktjønnet" />
		<tag k="natural" v="water" />
		<tag k="ssr:stedsnr" v="858763" />
	</node>
	<node id="-380863" lat="61.3528262575" lon="9.48668017983">
		<tag k="name" v="Gardbutjønnan" />
		<tag k="natural" v="water" />
		<tag k="ssr:stedsnr" v="858461" />
		<tag k="water" v="lake" />
	</node>
	<node id="-380859" lat="61.3705027747" lon="9.92240833291">
		<tag k="alt_name" v="Tritjønnene" />
		<tag k="name" v="Tritjønna" />
		<tag k="natural" v="water" />
		<tag k="ssr:stedsnr" v="857666" />
	</node>
	<node id="-380856" lat="61.2254916666" lon="9.61195832462">
		<tag k="name" v="Kroklon" />
		<tag k="natural" v="water" />
		<tag k="ssr:stedsnr" v="857515" />
		<tag k="water" v="lake" />
	</node>
	<node id="-380850" lat="61.1146750032" lon="10.1440750036">
		<tag k="name" v="Svarttjønnet" />
		<tag k="natural" v="water" />
		<tag k="ssr:stedsnr" v="857122" />
	</node>
	<node id="-380848" lat="61.1246483263" lon="10.0941951156">
		<tag k="name" v="Hindalssjøen" />
		<tag k="natural" v="water" />
		<tag k="ssr:stedsnr" v="857110" />
		<tag k="water" v="lake" />
	</node>
	<node id="-380232" lat="61.2912472203" lon="9.56831944238">
		<tag k="name" v="Febutjønn" />
		<tag k="natural" v="water" />
		<tag k="ssr:stedsnr" v="494242" />
	</node>
	<node id="-380838" lat="61.2617111139" lon="9.79825832669">
		<tag k="name" v="Kjerringbekken" />
		<tag k="ssr:stedsnr" v="841320" />
		<tag k="waterway" v="stream" />
	</node>
	<node id="-380836" lat="61.3211111125" lon="9.6791777819">
		<tag k="name" v="Jonsholmen" />
		<tag k="place" v="islet" />
		<tag k="ssr:stedsnr" v="840464" />
	</node>
	<node id="-380828" lat="61.3395666663" lon="10.021005563">
		<tag k="name" v="Hesttjønnet" />
		<tag k="natural" v="water" />
		<tag k="ssr:stedsnr" v="797961" />
	</node>
	<node id="-380820" lat="61.1649916637" lon="9.95165833009">
		<tag k="name" v="Kittilbubekken" />
		<tag k="ssr:stedsnr" v="796764" />
		<tag k="waterway" v="stream" />
	</node>
	<node id="-380817" lat="61.1820638872" lon="9.82982778229">
		<tag k="name" v="Ormtjønnet" />
		<tag k="natural" v="water" />
		<tag k="ssr:stedsnr" v="796753" />
	</node>
	<node id="-380816" lat="61.199263893" lon="10.1078444413">
		<tag k="name" v="Sagbekken" />
		<tag k="ssr:stedsnr" v="796392" />
		<tag k="waterway" v="stream" />
	</node>
	<node id="-380800" lat="61.3344888865" lon="9.95337500114">
		<tag k="name" v="Gryta" />
		<tag k="ssr:stedsnr" v="918692" />
		<tag k="waterway" v="stream" />
	</node>
	<node id="-380799" lat="61.2178194455" lon="9.74280000079">
		<tag k="alt_name" v="Karsjøen" />
		<tag k="name" v="Karssjøen" />
		<tag k="natural" v="water" />
		<tag k="ssr:stedsnr" v="918583" />
	</node>
	<node id="-380797" lat="61.2124388862" lon="9.91634167438">
		<tag k="name" v="Hynna" />
		<tag k="ssr:stedsnr" v="918580" />
		<tag k="waterway" v="river" />
	</node>
	<node id="-380795" lat="61.234583335" lon="9.93854165784">
		<tag k="name" v="Haukådalstjønnet" />
		<tag k="natural" v="water" />
		<tag k="ssr:stedsnr" v="918569" />
	</node>
	<node id="-380223" lat="61.160474996" lon="9.86726110754">
		<tag k="alt_name" v="Skjervungen, vle;Lille Skjervungen" />
		<tag k="name" v="Vesle Skjervungen" />
		<tag k="natural" v="water" />
		<tag k="ssr:stedsnr" v="493761" />
	</node>
	<node id="-380791" lat="61.2040694404" lon="10.1886305494">
		<tag k="name" v="Igletjønn" />
		<tag k="natural" v="water" />
		<tag k="ssr:stedsnr" v="918535" />
	</node>
	<node id="-380777" lat="61.2296777739" lon="9.54176667286">
		<tag k="alt_name" v="Skytterbuelva" />
		<tag k="name" v="Fjelldokka" />
		<tag k="ssr:stedsnr" v="917994" />
		<tag k="waterway" v="river" />
	</node>
	<node id="-380220" lat="61.1662916628" lon="9.79320278494">
		<tag k="name" v="Hjerttjønnet" />
		<tag k="natural" v="water" />
		<tag k="ssr:stedsnr" v="493751" />
	</node>
	<node id="-380768" lat="61.2064944411" lon="9.82542778697">
		<tag k="name" v="Tålåstubben" />
		<tag k="natural" v="beach" />
		<tag k="ssr:stedsnr" v="766259" />
	</node>
	<node id="-380754" lat="61.1484444449" lon="10.1903500007">
		<tag k="name" v="Bergumsbekken" />
		<tag k="ssr:stedsnr" v="902839" />
		<tag k="waterway" v="stream" />
	</node>
	<node id="-380751" lat="61.2081638866" lon="9.87782499457">
		<tag k="name" v="Revslonen" />
		<tag k="natural" v="water" />
		<tag k="ssr:stedsnr" v="735504" />
	</node>
	<node id="-380744" lat="61.2572750008" lon="10.1154777754">
		<tag k="name" v="Sæterbekken" />
		<tag k="ssr:stedsnr" v="901965" />
		<tag k="waterway" v="stream" />
	</node>
	<node id="-379873" lat="61.1434666652" lon="10.0389249926">
		<tag k="name" v="Nysætertjønna" />
		<tag k="natural" v="water" />
		<tag k="ssr:stedsnr" v="129107" />
	</node>
	<node id="-380738" lat="61.2810527793" lon="10.0930027823">
		<tag k="name" v="Svarttjønn" />
		<tag k="natural" v="water" />
		<tag k="ssr:stedsnr" v="901635" />
	</node>
	<node id="-380729" lat="61.3823444402" lon="9.63706666124">
		<tag k="name" v="Veslgardsbekken" />
		<tag k="ssr:stedsnr" v="900947" />
		<tag k="waterway" v="stream" />
	</node>
	<node id="-380724" lat="61.367852778" lon="9.73685278162">
		<tag k="name" v="Råttengstjønnet" />
		<tag k="natural" v="water" />
		<tag k="ssr:stedsnr" v="900886" />
	</node>
	<node id="-379869" lat="61.2469901862" lon="10.3286574475">
		<tag k="alt_name" v="Svarttjønna" />
		<tag k="name" v="Svarttjønnet" />
		<tag k="natural" v="water" />
		<tag k="ssr:stedsnr" v="128224" />
		<tag k="water" v="lake" />
	</node>
	<node id="-380714" lat="61.3940249966" lon="9.90333055907">
		<tag k="name" v="Gåsåvika" />
		<tag k="natural" v="bay" />
		<tag k="ssr:stedsnr" v="899648" />
	</node>
	<node id="-380710" lat="61.3653222198" lon="10.1240750048">
		<tag k="name" v="Storbekken" />
		<tag k="ssr:stedsnr" v="899136" />
		<tag k="waterway" v="stream" />
	</node>
	<node id="-380709" lat="61.3911805543" lon="9.78281666156">
		<tag k="name" v="Magnhildtjønnet" />
		<tag k="natural" v="water" />
		<tag k="ssr:stedsnr" v="899125" />
	</node>
	<node id="-380708" lat="61.4010055573" lon="9.76813889553">
		<tag k="name" v="Midtengstjønnet" />
		<tag k="natural" v="water" />
		<tag k="ssr:stedsnr" v="899116" />
	</node>
	<node id="-380706" lat="61.284102781" lon="9.57418055946">
		<tag k="name" v="Risåvika" />
		<tag k="natural" v="bay" />
		<tag k="ssr:stedsnr" v="725571" />
	</node>
	<node id="-380699" lat="61.2665027765" lon="9.88696943553">
		<tag k="name" v="Putterbekken" />
		<tag k="ssr:stedsnr" v="719998" />
		<tag k="waterway" v="stream" />
	</node>
	<node id="-380691" lat="61.3739999965" lon="9.6362250027">
		<tag k="name" v="Steinodden" />
		<tag k="natural" v="cape" />
		<tag k="ssr:stedsnr" v="719418" />
	</node>
	<node id="-380665" lat="61.283361114" lon="9.89957222476">
		<tag k="alt_name" v="Bøltjønnet" />
		<tag k="name" v="Børtjønnet" />
		<tag k="natural" v="water" />
		<tag k="ssr:stedsnr" v="676718" />
	</node>
	<node id="-380662" lat="61.3357527754" lon="10.1727805587">
		<tag k="name" v="Storbekken" />
		<tag k="ssr:stedsnr" v="675969" />
		<tag k="waterway" v="stream" />
	</node>
	<node id="-380661" lat="61.325336112" lon="10.1239277857">
		<tag k="name" v="Skeiselva" />
		<tag k="ssr:stedsnr" v="675960" />
		<tag k="waterway" v="river" />
	</node>
	<node id="-380658" lat="61.2697305539" lon="10.1188638855">
		<tag k="name" v="Rauda" />
		<tag k="ssr:stedsnr" v="675860" />
		<tag k="waterway" v="stream" />
	</node>
	<node id="-380650" lat="61.1281194423" lon="9.98831389108">
		<tag k="name" v="Nordlibekken" />
		<tag k="ssr:stedsnr" v="675118" />
		<tag k="waterway" v="stream" />
	</node>
	<node id="-380638" lat="61.1437694422" lon="10.0384916734">
		<tag k="name" v="Nedre Nysætervatnet" />
		<tag k="natural" v="water" />
		<tag k="ssr:stedsnr" v="658860" />
	</node>
	<node id="-380613" lat="61.2249972203" lon="9.55626944072">
		<tag k="alt_name" v="Landlon" />
		<tag k="name" v="Langlonen" />
>>>>>>> e1d4bc35ff8a6074a6f2e91616a996b547c36f15
		<tag k="natural" v="water" />
		<tag k="ssr:stedsnr" v="735993" />
		<tag k="water" v="lake" />
	</node>
<<<<<<< HEAD
	<node lat="61.360861115286525" lon="10.016633328321198" id="-25836">
		<tag k="name" v="Langtjønnvika" />
		<tag k="natural" v="bay" />
		<tag k="ssr:stedsnr" v="118869" />
	</node>
	<node lat="61.36293333360176" lon="10.141716673062321" id="-25838">
		<tag k="alt_name" v="Grautauga" />
		<tag k="name" v="Grautauget" />
		<tag k="natural" v="water" />
		<tag k="ssr:stedsnr" v="250974" />
	</node>
	<node lat="61.14041111173045" lon="10.026230556911699" id="-25840">
		<tag k="name" v="Kroktjønnet" />
		<tag k="natural" v="water" />
		<tag k="ssr:stedsnr" v="251097" />
	</node>
	<node lat="61.26739999812437" lon="9.585622228217167" id="-25843">
		<tag k="name" v="Skomakartjønnet" />
		<tag k="natural" v="water" />
		<tag k="ssr:stedsnr" v="251310" />
	</node>
	<node lat="61.31830000312665" lon="9.456905555833208" id="-25846">
		<tag k="name" v="Storkvolvbekken" />
		<tag k="ssr:stedsnr" v="251506" />
		<tag k="waterway" v="stream" />
	</node>
	<node lat="61.32729173662592" lon="9.492127913118054" id="-25848">
		<tag k="name" v="Vestmjøs" />
		<tag k="natural" v="water" />
		<tag k="ssr:stedsnr" v="251511" />
		<tag k="water" v="lake" />
	</node>
	<node lat="61.339975001236056" lon="9.483591665349499" id="-25850">
		<tag k="name" v="Vestmjøselva" />
		<tag k="ssr:stedsnr" v="251520" />
		<tag k="waterway" v="stream" />
	</node>
	<node lat="61.381941667810054" lon="9.517197215292192" id="-25852">
		<tag k="name" v="Øvre Megrundstjønnet" />
		<tag k="natural" v="water" />
		<tag k="ssr:stedsnr" v="251465" />
	</node>
	<node lat="61.31250213284104" lon="10.063699738505491" id="-25855">
		<tag k="name" v="Veslesetervatnet" />
		<tag k="natural" v="water" />
		<tag k="ssr:stedsnr" v="251836" />
		<tag k="water" v="lake" />
	</node>
	<node lat="61.28224999695905" lon="9.813494436162154" id="-25860">
		<tag k="alt_name" v="Svabekktjønnet, øvre" />
		<tag k="name" v="Øvre Svabekktjønnet" />
		<tag k="natural" v="water" />
		<tag k="ssr:stedsnr" v="251756" />
	</node>
	<node lat="61.26858333371091" lon="9.945583329198573" id="-25863">
		<tag k="name" v="Holbekken" />
		<tag k="ssr:stedsnr" v="251769" />
		<tag k="waterway" v="stream" />
	</node>
	<node lat="61.26418142435882" lon="9.893238310716619" id="-25865">
		<tag k="alt_name" v="Reinsjøen, nedre" />
		<tag k="name" v="Nedre Reinsjøen" />
		<tag k="natural" v="water" />
		<tag k="ssr:stedsnr" v="251776" />
		<tag k="water" v="lake" />
	</node>
	<node lat="61.2463222206068" lon="9.456374993215997" id="-25873">
		<tag k="name" v="Sandbekken" />
		<tag k="ssr:stedsnr" v="128749" />
		<tag k="waterway" v="stream" />
	</node>
	<node lat="61.14324176183956" lon="10.04322684021624" id="-25877">
		<tag k="name" v="Nysetertjønna" />
		<tag k="natural" v="water" />
		<tag k="ssr:stedsnr" v="129107" />
		<tag k="water" v="lake" />
	</node>
	<node lat="61.339530558130875" lon="9.957775000814072" id="-25888">
		<tag k="name" v="Gryttjønnet" />
		<tag k="natural" v="water" />
		<tag k="ssr:stedsnr" v="129628" />
	</node>
	<node lat="61.201405574618896" lon="9.96156875654976" id="-25898">
		<tag k="loc_name" v="Øvre Roppatjønnet" />
		<tag k="name" v="Øvre Ropptjønnet" />
		<tag k="natural" v="water" />
		<tag k="ssr:stedsnr" v="129737" />
	</node>
	<node lat="61.187771102839676" lon="9.742795593026234" id="-25900">
		<tag k="name" v="Toftsetervatnet" />
		<tag k="natural" v="water" />
		<tag k="ssr:stedsnr" v="129742" />
		<tag k="water" v="pond" />
	</node>
	<node lat="61.29787499609662" lon="9.570611106373548" id="-25904">
		<tag k="alt_name" v="Skåodden" />
		<tag k="name" v="Skåkodden" />
		<tag k="natural" v="cape" />
		<tag k="ssr:stedsnr" v="130421" />
	</node>
	<node lat="61.286563886285975" lon="9.569636108043179" id="-25905">
		<tag k="name" v="Risåa" />
		<tag k="ssr:stedsnr" v="130423" />
		<tag k="waterway" v="stream" />
	</node>
	<node lat="61.369930552336285" lon="10.124763880523782" id="-25910">
		<tag k="name" v="Veslebekken" />
		<tag k="ssr:stedsnr" v="170158" />
		<tag k="waterway" v="stream" />
	</node>
	<node lat="61.36246809308952" lon="10.148591051261665" id="-25911">
		<tag k="name" v="Sjøseterdammen" />
		<tag k="ssr:stedsnr" v="170162" />
		<tag k="waterway" v="dam" />
	</node>
	<node lat="61.3309472244155" lon="10.206258342313795" id="-25914">
		<tag k="name" v="Svartbekkroken" />
		<tag k="old_name" v="Svartbekkkroken" />
		<tag k="place" v="locality" />
		<tag k="ssr:stedsnr" v="171159" />
	</node>
	<node lat="61.290297218503596" lon="10.00742500319452" id="-25924">
		<tag k="name" v="Vesleulva" />
		<tag k="ssr:stedsnr" v="172760" />
		<tag k="waterway" v="stream" />
	</node>
	<node lat="61.38702221850552" lon="9.595627776208696" id="-25927">
		<tag k="name" v="Maribuvika" />
		<tag k="natural" v="bay" />
		<tag k="ssr:stedsnr" v="172975" />
	</node>
	<node lat="61.403638892899906" lon="9.773991663468788" id="-25951">
		<tag k="name" v="Gåsøybekken" />
		<tag k="ssr:stedsnr" v="190370" />
		<tag k="waterway" v="stream" />
	</node>
	<node lat="61.31128055768282" lon="9.613180558147647" id="-25960">
		<tag k="alt_name" v="Skomakartjønnet" />
		<tag k="name" v="Skomakertjønnet" />
		<tag k="natural" v="water" />
		<tag k="ssr:stedsnr" v="190664" />
	</node>
	<node lat="61.30855833456713" lon="10.039836111294255" id="-25962">
		<tag k="name" v="Åbbortjønna" />
		<tag k="natural" v="water" />
		<tag k="ssr:stedsnr" v="190810" />
	</node>
	<node lat="61.25550277380742" lon="9.962227772809564" id="-25971">
		<tag k="name" v="Slettbekken" />
		<tag k="ssr:stedsnr" v="220979" />
		<tag k="waterway" v="stream" />
	</node>
	<node lat="61.35525555755031" lon="10.103199998808627" id="-25976">
		<tag k="name" v="Åmottjønnet" />
		<tag k="natural" v="water" />
		<tag k="ssr:stedsnr" v="231906" />
	</node>
	<node lat="61.33687499997015" lon="10.057119450153333" id="-25987">
		<tag k="name" v="Nisjua" />
		<tag k="ssr:stedsnr" v="232985" />
		<tag k="waterway" v="river" />
	</node>
	<node lat="61.37630277488236" lon="9.623433324716908" id="-25998">
		<tag k="name" v="Buvika" />
		<tag k="natural" v="bay" />
		<tag k="ssr:stedsnr" v="233532" />
	</node>
	<node lat="61.241180555779835" lon="9.842452775291909" id="-25999">
		<tag k="name" v="Langodden" />
		<tag k="natural" v="cape" />
		<tag k="ssr:stedsnr" v="233624" />
	</node>
	<node lat="61.21029444729188" lon="9.82204721716408" id="-26000">
		<tag k="name" v="Kalstadvika" />
		<tag k="natural" v="bay" />
		<tag k="ssr:stedsnr" v="233632" />
	</node>
	<node lat="61.18086944094545" lon="9.908216671092303" id="-26010">
		<tag k="name" v="Valdrestjønnbekken" />
		<tag k="ssr:stedsnr" v="234009" />
		<tag k="waterway" v="stream" />
	</node>
	<node lat="61.37029444141279" lon="10.142458332847985" id="-26028">
		<tag k="name" v="Kvebakken" />
		<tag k="natural" v="cape" />
		<tag k="ssr:stedsnr" v="292133" />
	</node>
	<node lat="61.370594444900185" lon="9.648372225042522" id="-26044">
		<tag k="name" v="Stabbursholmen" />
		<tag k="place" v="islet" />
		<tag k="ssr:stedsnr" v="293924" />
	</node>
	<node lat="61.34082777737049" lon="10.014619446580046" id="-26046">
		<tag k="name" v="Langlitjønnet" />
		<tag k="natural" v="water" />
		<tag k="ssr:stedsnr" v="293999" />
	</node>
	<node lat="61.412322221028035" lon="9.54631110431894" id="-26057">
		<tag k="name" v="Sagvika" />
		<tag k="natural" v="bay" />
		<tag k="ssr:stedsnr" v="295581" />
	</node>
	<node lat="61.197430554655035" lon="10.28389444692662" id="-26058">
		<tag k="name" v="Stuksrudbekken" />
		<tag k="ssr:stedsnr" v="297281" />
		<tag k="waterway" v="stream" />
	</node>
	<node lat="61.1857222219788" lon="9.817686107367296" id="-26062">
		<tag k="name" v="Sygardsbekken" />
		<tag k="ssr:stedsnr" v="300011" />
		<tag k="waterway" v="stream" />
	</node>
	<node lat="61.33245555979506" lon="9.71884444383753" id="-26074">
		<tag k="name" v="Ongsjoa" />
		<tag k="ssr:stedsnr" v="311674" />
		<tag k="waterway" v="stream" />
	</node>
	<node lat="61.1848361134032" lon="9.904105549087184" id="-26078">
		<tag k="alt_name" v="Søre Valdrestjønn;Valdrestjønnet, s" />
		<tag k="name" v="Søre Valdrestjønnet" />
		<tag k="natural" v="water" />
		<tag k="ssr:stedsnr" v="311773" />
	</node>
	<node lat="61.34622499937371" lon="10.134191665572855" id="-26080">
		<tag k="name" v="Jønnbubekken" />
		<tag k="ssr:stedsnr" v="311985" />
		<tag k="waterway" v="stream" />
	</node>
	<node lat="61.361049995962865" lon="9.973302774222972" id="-26081">
		<tag k="name" v="Åbbortjønnet" />
		<tag k="natural" v="water" />
		<tag k="ssr:stedsnr" v="311988" />
	</node>
	<node lat="61.26533333339778" lon="9.433127785834243" id="-26083">
		<tag k="name" v="Gråmyrbekken" />
		<tag k="ssr:stedsnr" v="312264" />
		<tag k="waterway" v="stream" />
	</node>
	<node lat="61.24354722175359" lon="9.583708331879814" id="-26084">
		<tag k="name" v="Liomsæterbekken" />
		<tag k="ssr:stedsnr" v="312267" />
		<tag k="waterway" v="stream" />
	</node>
	<node lat="61.260077774658335" lon="9.94107500893328" id="-26085">
		<tag k="name" v="Holbekktjønnet" />
		<tag k="natural" v="water" />
		<tag k="ssr:stedsnr" v="312715" />
	</node>
	<node lat="61.35303332900829" lon="10.176738887213896" id="-26102">
		<tag k="name" v="Stortjønnet" />
		<tag k="natural" v="water" />
		<tag k="ssr:stedsnr" v="353114" />
	</node>
	<node lat="61.325269443934545" lon="9.831911109458288" id="-26106">
		<tag k="name" v="Veslibekken" />
		<tag k="ssr:stedsnr" v="353544" />
		<tag k="waterway" v="stream" />
	</node>
	<node lat="61.411824996621284" lon="9.544491669006531" id="-26113">
		<tag k="name" v="Sagodden" />
		<tag k="natural" v="cape" />
		<tag k="ssr:stedsnr" v="353906" />
	</node>
	<node lat="61.13468333748098" lon="10.032733337063988" id="-26131">
		<tag k="name" v="Lomvika" />
		<tag k="natural" v="bay" />
		<tag k="ssr:stedsnr" v="354887" />
	</node>
	<node lat="61.172386112192214" lon="9.901594447864378" id="-26133">
		<tag k="name" v="Brennfossen" />
		<tag k="natural" v="waterfall" />
		<tag k="ssr:stedsnr" v="355017" />
	</node>
	<node lat="61.38732500024885" lon="9.895613897473494" id="-26134">
		<tag k="name" v="Bennosen" />
		<tag k="natural" v="bay" />
		<tag k="ssr:stedsnr" v="474655" />
	</node>
	<node lat="61.255383331743424" lon="9.99499444309097" id="-26144">
		<tag k="name" v="Seterbekken" />
		<tag k="ssr:stedsnr" v="355964" />
		<tag k="waterway" v="stream" />
	</node>
	<node lat="61.288422218751705" lon="10.2075166647474" id="-26146">
		<tag k="name" v="Skillebekken" />
		<tag k="ssr:stedsnr" v="475142" />
		<tag k="waterway" v="stream" />
	</node>
	<node lat="61.346200002208626" lon="10.115949997037838" id="-26150">
		<tag k="name" v="Slåseterbekken" />
		<tag k="ssr:stedsnr" v="475351" />
		<tag k="waterway" v="stream" />
	</node>
	<node lat="61.33428333462302" lon="9.747183338109972" id="-26154">
		<tag k="name" v="Kvernhusfossen" />
		<tag k="natural" v="waterfall" />
		<tag k="ssr:stedsnr" v="475451" />
	</node>
	<node lat="61.22556389292819" lon="9.776783338483103" id="-26166">
		<tag k="name" v="Risbølvika" />
		<tag k="natural" v="bay" />
		<tag k="ssr:stedsnr" v="476586" />
	</node>
	<node lat="61.22396666316185" lon="9.773336105662805" id="-26167">
		<tag k="name" v="Hestholmen" />
		<tag k="place" v="islet" />
		<tag k="ssr:stedsnr" v="476589" />
	</node>
	<node lat="61.27745555305977" lon="9.940363880026375" id="-26171">
		<tag k="name" v="Seterbekken" />
		<tag k="ssr:stedsnr" v="475854" />
		<tag k="waterway" v="stream" />
	</node>
	<node lat="61.25389999865003" lon="9.83095832711901" id="-26177">
		<tag k="name" v="Kluftodden" />
		<tag k="natural" v="cape" />
		<tag k="ssr:stedsnr" v="476284" />
	</node>
	<node lat="61.20561389335607" lon="10.244994446972061" id="-26193">
		<tag k="name" v="Visknutkjelda" />
		<tag k="natural" v="spring" />
		<tag k="ssr:stedsnr" v="479273" />
	</node>
	<node lat="61.19565555191505" lon="9.60782500761444" id="-26199">
		<tag k="name" v="Nuptjønnet" />
		<tag k="natural" v="water" />
		<tag k="ssr:stedsnr" v="371725" />
	</node>
	<node lat="61.22913333021864" lon="10.348869439027842" id="-26202">
		<tag k="alt_name" v="Nerstøltjønnet" />
		<tag k="name" v="Nerstyltjønnet" />
		<tag k="natural" v="water" />
		<tag k="ssr:stedsnr" v="372158" />
	</node>
	<node lat="61.36935833121231" lon="9.81229444659069" id="-26203">
		<tag k="name" v="Ropptjønnet" />
		<tag k="natural" v="water" />
		<tag k="ssr:stedsnr" v="372373" />
	</node>
	<node lat="61.372591668434026" lon="9.611438893494391" id="-26204">
		<tag k="name" v="Bubekken" />
		<tag k="ssr:stedsnr" v="372376" />
		<tag k="waterway" v="stream" />
	</node>
	<node lat="61.314669440585845" lon="9.439572226138305" id="-26205">
		<tag k="name" v="Storkvolvtjønn" />
		<tag k="natural" v="water" />
		<tag k="ssr:stedsnr" v="372509" />
	</node>
	<node lat="61.34692778196125" lon="9.476869448075083" id="-26207">
		<tag k="name" v="Forundringstjønn" />
		<tag k="natural" v="water" />
		<tag k="ssr:stedsnr" v="372522" />
	</node>
	<node lat="61.325086111816354" lon="9.630033324011686" id="-26210">
		<tag k="name" v="Rubbeslettbekken" />
		<tag k="ssr:stedsnr" v="372643" />
		<tag k="waterway" v="stream" />
	</node>
	<node lat="61.34519166702806" lon="9.70414444319358" id="-26214">
		<tag k="name" v="Sekkholtjønnet" />
		<tag k="natural" v="water" />
		<tag k="ssr:stedsnr" v="372705" />
	</node>
	<node lat="61.282694440181004" lon="10.19788888920519" id="-26216">
		<tag k="name" v="Busterudbekken" />
		<tag k="ssr:stedsnr" v="372772" />
		<tag k="waterway" v="stream" />
	</node>
	<node lat="61.12203332975669" lon="10.040636105033172" id="-26225">
		<tag k="name" v="Store Bjørn" />
		<tag k="place" v="islet" />
		<tag k="ssr:stedsnr" v="481099" />
	</node>
	<node lat="61.41656666860575" lon="9.555272220880536" id="-26238">
		<tag k="name" v="Megrundsbekken" />
		<tag k="ssr:stedsnr" v="413892" />
		<tag k="waterway" v="stream" />
	</node>
	<node lat="61.32902777362831" lon="9.89056666466025" id="-26240">
		<tag k="name" v="Innleggingsbekken" />
		<tag k="ssr:stedsnr" v="413935" />
		<tag k="waterway" v="stream" />
	</node>
	<node lat="61.27194166697085" lon="10.100538887608751" id="-26253">
		<tag k="name" v="Storslågåbekken" />
		<tag k="ssr:stedsnr" v="415839" />
		<tag k="waterway" v="stream" />
	</node>
	<node lat="61.23531666423799" lon="10.345669445799803" id="-26258">
		<tag k="name" v="Lortkulpen" />
		<tag k="natural" v="water" />
		<tag k="ssr:stedsnr" v="416312" />
		<tag k="water" v="pond" />
	</node>
	<node lat="61.12955851215652" lon="10.040776199904684" id="-26269">
		<tag k="name" v="Mjogsjøen" />
		<tag k="natural" v="water" />
		<tag k="ssr:stedsnr" v="432093" />
		<tag k="water" v="lake" />
	</node>
	<node lat="61.4063249965259" lon="9.710483328821658" id="-26270">
		<tag k="name" v="Børka" />
		<tag k="ssr:stedsnr" v="432305" />
		<tag k="waterway" v="stream" />
	</node>
	<node lat="61.19640555757653" lon="9.789883333235116" id="-26271">
		<tag k="name" v="Butjønnet" />
		<tag k="natural" v="water" />
		<tag k="ssr:stedsnr" v="432490" />
	</node>
	<node lat="61.18393889260486" lon="9.792119438924889" id="-26272">
		<tag k="name" v="Bubekken" />
		<tag k="ssr:stedsnr" v="432704" />
		<tag k="waterway" v="stream" />
	</node>
	<node lat="61.232233336905836" lon="9.633658325954487" id="-26283">
		<tag k="name" v="Tortjønnet" />
		<tag k="natural" v="water" />
		<tag k="ssr:stedsnr" v="433504" />
	</node>
	<node lat="61.237263890041106" lon="9.662200004947685" id="-26284">
		<tag k="name" v="Leirbekktjønnet" />
		<tag k="natural" v="water" />
		<tag k="ssr:stedsnr" v="433505" />
	</node>
	<node lat="61.31373055839805" lon="9.793677771906113" id="-26287">
		<tag k="name" v="Sagbekken" />
		<tag k="ssr:stedsnr" v="433631" />
		<tag k="waterway" v="stream" />
	</node>
	<node lat="61.29865833535675" lon="9.99725833491404" id="-26292">
		<tag k="name" v="Svarttjønnet" />
		<tag k="natural" v="water" />
		<tag k="ssr:stedsnr" v="433787" />
	</node>
	<node lat="61.2468111118974" lon="9.485936104233271" id="-26298">
		<tag k="name" v="Fossbekken" />
		<tag k="ssr:stedsnr" v="492736" />
		<tag k="waterway" v="stream" />
	</node>
	<node lat="61.3623499964444" lon="10.008152779079973" id="-26299">
		<tag k="name" v="Lykkjevika" />
		<tag k="natural" v="bay" />
		<tag k="ssr:stedsnr" v="492865" />
	</node>
	<node lat="61.38557222416207" lon="9.785522217244424" id="-26303">
		<tag k="name" v="Langtjønnet" />
		<tag k="natural" v="water" />
		<tag k="ssr:stedsnr" v="493348" />
	</node>
	<node lat="61.38044722604763" lon="9.955041669369708" id="-26304">
		<tag k="alt_name" v="Holtjønnet, s" />
		<tag k="name" v="Søre Holtjønnet" />
		<tag k="natural" v="water" />
		<tag k="ssr:stedsnr" v="493352" />
	</node>
	<node lat="61.37590000110131" lon="9.7995916723293" id="-26305">
		<tag k="name" v="Øvstetjønnet" />
		<tag k="natural" v="water" />
		<tag k="ssr:stedsnr" v="493353" />
	</node>
	<node lat="61.24645833277201" lon="9.709152780270195" id="-26314">
		<tag k="name" v="Druktjønnet" />
		<tag k="natural" v="water" />
		<tag k="ssr:stedsnr" v="493549" />
	</node>
	<node lat="61.1784444468731" lon="9.715394439606628" id="-26322">
		<tag k="name" v="Fjellbekken" />
		<tag k="ssr:stedsnr" v="493743" />
		<tag k="waterway" v="stream" />
	</node>
	<node lat="61.17579964863001" lon="9.956818445079419" id="-26324">
		<tag k="loc_name" v="Kittilbutjønnan" />
		<tag k="name" v="Kittilbutjønna" />
		<tag k="natural" v="water" />
		<tag k="ssr:stedsnr" v="493747" />
		<tag k="water" v="lake" />
	</node>
	<node lat="61.16629166282618" lon="9.793202784941244" id="-26325">
		<tag k="name" v="Hjerttjønnet" />
		<tag k="natural" v="water" />
		<tag k="ssr:stedsnr" v="493751" />
	</node>
	<node lat="61.16373333181891" lon="9.645938880241424" id="-26326">
		<tag k="name" v="Merradumpa" />
		<tag k="natural" v="water" />
		<tag k="ssr:stedsnr" v="493756" />
	</node>
	<node lat="61.1604749960219" lon="9.867261107537342" id="-26328">
		<tag k="alt_name" v="Skjervungen, vle;Lille Skjervungen" />
		<tag k="name" v="Vesle Skjervungen" />
=======
	<node id="-380609" lat="61.3933972247" lon="9.60359166629">
		<tag k="name" v="Lauvåa" />
		<tag k="ssr:stedsnr" v="736360" />
		<tag k="waterway" v="stream" />
	</node>
	<node id="-380608" lat="61.4006833312" lon="9.85095832803">
		<tag k="name" v="Bånsjøhaugtjønnet" />
		<tag k="natural" v="water" />
		<tag k="ssr:stedsnr" v="736358" />
	</node>
	<node id="-380594" lat="61.3771666642" lon="9.94805554892">
		<tag k="name" v="Reirtjønnet" />
		<tag k="natural" v="water" />
		<tag k="ssr:stedsnr" v="736340" />
	</node>
	<node id="-380593" lat="61.375238887" lon="10.0063027699">
		<tag k="name" v="Massingtjønnbekken" />
		<tag k="ssr:stedsnr" v="725790" />
		<tag k="waterway" v="stream" />
	</node>
	<node id="-380588" lat="61.2514444483" lon="9.69994443667">
		<tag k="name" v="Vakkerlibekken" />
		<tag k="ssr:stedsnr" v="724459" />
		<tag k="waterway" v="stream" />
	</node>
	<node id="-380585" lat="61.2757361129" lon="9.93050277705">
		<tag k="name" v="Svarttjønnbekken" />
		<tag k="ssr:stedsnr" v="723656" />
		<tag k="waterway" v="stream" />
	</node>
	<node id="-380581" lat="61.2518416668" lon="9.5329972199">
		<tag k="name" v="Skardtjønnbekken" />
		<tag k="ssr:stedsnr" v="615229" />
		<tag k="waterway" v="stream" />
	</node>
	<node id="-380580" lat="61.3428805537" lon="10.162541669">
		<tag k="alt_name" v="Kidlielva;Kilielva" />
		<tag k="name" v="Killielva" />
		<tag k="ssr:stedsnr" v="614967" />
		<tag k="waterway" v="river" />
	</node>
	<node id="-380576" lat="61.1961083333" lon="9.71620555897">
		<tag k="name" v="Snæresbekken" />
		<tag k="ssr:stedsnr" v="614764" />
		<tag k="waterway" v="stream" />
	</node>
	<node id="-380575" lat="61.1968500029" lon="9.88104443628">
		<tag k="name" v="Obleiken" />
		<tag k="natural" v="water" />
		<tag k="ssr:stedsnr" v="614760" />
	</node>
	<node id="-380574" lat="61.201443869" lon="9.91122371474">
		<tag k="alt_name" v="Glåmen, store" />
		<tag k="name" v="Store Glåmen" />
		<tag k="natural" v="water" />
		<tag k="ssr:stedsnr" v="614758" />
		<tag k="water" v="lake" />
	</node>
	<node id="-380573" lat="61.1960472179" lon="9.65960833652">
		<tag k="name" v="Nuptjønnbekken" />
		<tag k="ssr:stedsnr" v="614756" />
		<tag k="waterway" v="stream" />
	</node>
	<node id="-380566" lat="61.1873750045" lon="10.1684138869">
		<tag k="name" v="Brennombekken" />
		<tag k="ssr:stedsnr" v="614379" />
		<tag k="waterway" v="stream" />
	</node>
	<node id="-382607" lat="61.181804011" lon="9.76247673747">
		<tag k="name" v="Smalsnæra" />
		<tag k="natural" v="water" />
		<tag k="ssr:stedsnr" v="989893" />
	</node>
	<node id="-382606" lat="61.3622655302" lon="10.0232240408">
		<tag k="name" v="Fisketjønnet" />
		<tag k="natural" v="water" />
		<tag k="ssr:stedsnr" v="989892" />
	</node>
	<node id="-380551" lat="61.3449984359" lon="10.0028616713">
		<tag k="name" v="Tvillingtjønnene" />
		<tag k="natural" v="water" />
		<tag k="ssr:stedsnr" v="718998" />
		<tag k="water" v="lake" />
	</node>
	<node id="-380538" lat="61.3321722218" lon="9.75856667374">
		<tag k="name" v="Krokdammen" />
		<tag k="ssr:stedsnr" v="718471" />
		<tag k="waterway" v="dam" />
	</node>
	<node id="-380535" lat="61.2431527797" lon="9.82970556199">
		<tag k="name" v="Skriuvika" />
		<tag k="natural" v="bay" />
		<tag k="ssr:stedsnr" v="718590" />
	</node>
	<node id="-380314" lat="61.3768222243" lon="9.95859722672">
		<tag k="name" v="Antontjønnet" />
		<tag k="natural" v="water" />
		<tag k="ssr:stedsnr" v="656051" />
	</node>
	<node id="-380506" lat="61.4119916702" lon="9.54104721343">
		<tag k="name" v="Lonodden" />
		<tag k="natural" v="cape" />
		<tag k="ssr:stedsnr" v="716887" />
	</node>
	<node id="-380505" lat="61.4095333328" lon="9.54934166718">
		<tag k="name" v="Storholmen" />
		<tag k="place" v="islet" />
		<tag k="ssr:stedsnr" v="716884" />
	</node>
	<node id="-380498" lat="61.3755805542" lon="10.1013888831">
		<tag k="name" v="Gammeldalsbekken" />
		<tag k="ssr:stedsnr" v="716078" />
		<tag k="waterway" v="stream" />
	</node>
	<node id="-382534" lat="61.3452849756" lon="9.80744291724">
		<tag k="name" v="Åstjønnet" />
		<tag k="natural" v="water" />
		<tag k="ssr:stedsnr" v="979373" />
	</node>
	<node id="-380479" lat="61.2114499983" lon="9.53782500053">
		<tag k="alt_name" v="Skruvedalstjønnet" />
		<tag k="name" v="Skruvdalstjønnet" />
		<tag k="natural" v="water" />
		<tag k="ssr:stedsnr" v="553963" />
	</node>
	<node id="-380477" lat="61.1541833296" lon="10.1454138931">
		<tag k="name" v="Storbekken" />
		<tag k="ssr:stedsnr" v="299449" />
		<tag k="waterway" v="stream" />
	</node>
	<node id="-380474" lat="61.3105805518" lon="10.0371138937">
		<tag k="name" v="Åbbortjønn" />
		<tag k="natural" v="water" />
		<tag k="ssr:stedsnr" v="543154" />
	</node>
	<node id="-380457" lat="61.3851833335" lon="9.61151945193">
		<tag k="name" v="Revbekken" />
		<tag k="ssr:stedsnr" v="536957" />
		<tag k="waterway" v="stream" />
	</node>
	<node id="-382498" lat="61.2624722244" lon="9.88948334233">
		<tag k="name" v="Storvika" />
		<tag k="natural" v="bay" />
		<tag k="ssr:stedsnr" v="962993" />
	</node>
	<node id="-381872" lat="61.1325305542" lon="10.1094805625">
		<tag k="name" v="Okstjønnet" />
		<tag k="natural" v="water" />
		<tag k="ssr:stedsnr" v="537874" />
	</node>
	<node id="-380444" lat="61.1842944416" lon="9.96236110223">
		<tag k="name" v="Nedre Kroktjernet" />
		<tag k="natural" v="water" />
		<tag k="ssr:stedsnr" v="536037" />
	</node>
	<node id="-380443" lat="61.1802916633" lon="9.96350277657">
		<tag k="name" v="Kroktjernbekken" />
		<tag k="ssr:stedsnr" v="536036" />
		<tag k="waterway" v="stream" />
	</node>
	<node id="-380442" lat="61.3341916626" lon="9.99887500349">
		<tag k="name" v="Veslibekken" />
		<tag k="ssr:stedsnr" v="535811" />
		<tag k="waterway" v="stream" />
	</node>
	<node id="-380441" lat="61.3211416665" lon="9.9947972248">
		<tag k="name" v="Stylbekken" />
		<tag k="ssr:stedsnr" v="535805" />
		<tag k="waterway" v="stream" />
	</node>
	<node id="-380440" lat="61.3262722215" lon="9.99552221375">
		<tag k="name" v="Sæterbekken" />
		<tag k="ssr:stedsnr" v="535803" />
		<tag k="waterway" v="stream" />
	</node>
	<node id="-382485" lat="61.2314333306" lon="10.1045055627">
		<tag k="name" v="Stølsbekken" />
		<tag k="ssr:stedsnr" v="961893" />
		<tag k="waterway" v="stream" />
	</node>
	<node id="-380429" lat="61.2431305566" lon="10.3526361107">
		<tag k="alt_name" v="Fougnsætervatnet;Fongsætertjønnet" />
		<tag k="name" v="Fognssætervatnet" />
		<tag k="natural" v="water" />
		<tag k="ssr:stedsnr" v="736251" />
	</node>
	<node id="-380427" lat="61.2621194405" lon="9.76710832557">
		<tag k="name" v="Slivatnet" />
		<tag k="natural" v="water" />
		<tag k="ssr:stedsnr" v="676747" />
	</node>
	<node id="-382471" lat="61.2488835653" lon="9.84740425428">
		<tag k="name" v="Gulsandtjønnene" />
		<tag k="natural" v="water" />
		<tag k="ssr:stedsnr" v="961595" />
		<tag k="water" v="lake" />
	</node>
	<node id="-382470" lat="61.2312277811" lon="9.83317223093">
		<tag k="name" v="Vesledunglungen" />
		<tag k="natural" v="water" />
		<tag k="ssr:stedsnr" v="961588" />
	</node>
	<node id="-380421" lat="61.3274250019" lon="9.54428333903">
		<tag k="name" v="Lepplonen" />
		<tag k="place" v="locality" />
		<tag k="ssr:stedsnr" v="676481" />
	</node>
	<node id="-380420" lat="61.371719443" lon="9.53863055432">
		<tag k="name" v="Pettertjønn" />
		<tag k="natural" v="water" />
		<tag k="ssr:stedsnr" v="676448" />
	</node>
	<node id="-380417" lat="61.2540250026" lon="9.51193611204">
		<tag k="name" v="Skardtjønnan" />
		<tag k="natural" v="water" />
		<tag k="ssr:stedsnr" v="676243" />
		<tag k="water" v="lake" />
	</node>
	<node id="-380414" lat="61.151022222" lon="9.75715278439">
		<tag k="alt_name" v="Gryttjønn" />
		<tag k="name" v="Gryttjønnet" />
		<tag k="natural" v="water" />
		<tag k="ssr:stedsnr" v="675768" />
	</node>
	<node id="-380413" lat="61.1555888901" lon="9.80207499983">
		<tag k="name" v="Grytbekken" />
		<tag k="ssr:stedsnr" v="675761" />
		<tag k="waterway" v="stream" />
	</node>
	<node id="-380412" lat="61.3532666653" lon="9.82708333978">
		<tag k="alt_name" v="Liatjønnet, nedre" />
		<tag k="name" v="Nedre Liatjønnet" />
		<tag k="natural" v="water" />
		<tag k="ssr:stedsnr" v="675702" />
	</node>
	<node id="-380410" lat="61.213806097" lon="9.63704751955">
		<tag k="name" v="Vågskardvatnet" />
		<tag k="natural" v="water" />
		<tag k="ssr:stedsnr" v="675541" />
		<tag k="water" v="lake" />
	</node>
	<node id="-380409" lat="61.2127888869" lon="9.65287778541">
		<tag k="name" v="Skjela" />
		<tag k="ssr:stedsnr" v="675540" />
		<tag k="waterway" v="river" />
	</node>
	<node id="-382452" lat="61.3261361087" lon="10.0768416665">
		<tag k="name" v="Svartbekken" />
		<tag k="ssr:stedsnr" v="960038" />
		<tag k="waterway" v="stream" />
	</node>
	<node id="-380401" lat="61.3715277751" lon="9.67669166124">
		<tag k="name" v="Dritua" />
		<tag k="ssr:stedsnr" v="675385" />
		<tag k="waterway" v="stream" />
	</node>
	<node id="-382447" lat="61.4072305519" lon="9.57479167313">
		<tag k="name" v="Jonasbekken" />
		<tag k="ssr:stedsnr" v="959874" />
		<tag k="waterway" v="stream" />
	</node>
	<node id="-382446" lat="61.4042527781" lon="9.78771389725">
		<tag k="name" v="Sæterbekken" />
		<tag k="ssr:stedsnr" v="959863" />
		<tag k="waterway" v="stream" />
	</node>
	<node id="-380397" lat="61.152655553" lon="10.1945611198">
		<tag k="name" v="Finnsrudbekken" />
		<tag k="ssr:stedsnr" v="675086" />
		<tag k="waterway" v="stream" />
	</node>
	<node id="-382443" lat="61.3507861146" lon="9.87880833965">
		<tag k="name" v="Hestbølbekken" />
		<tag k="ssr:stedsnr" v="959460" />
		<tag k="waterway" v="stream" />
	</node>
	<node id="-382441" lat="61.3775361099" lon="9.93363889351">
		<tag k="name" v="Volevika" />
		<tag k="natural" v="bay" />
		<tag k="ssr:stedsnr" v="959358" />
	</node>
	<node id="-380388" lat="61.1213416639" lon="10.1650138947">
		<tag k="name" v="Midtdalsbekken" />
		<tag k="ssr:stedsnr" v="477914" />
		<tag k="waterway" v="stream" />
	</node>
	<node id="-382434" lat="61.2510222234" lon="10.0153388948">
		<tag k="alt_name" v="Skarellbekken" />
		<tag k="name" v="Skaralbekken" />
		<tag k="ssr:stedsnr" v="858852" />
		<tag k="waterway" v="stream" />
	</node>
	<node id="-382430" lat="61.2829274485" lon="10.072840257">
		<tag k="name" v="Raudsjøen" />
		<tag k="natural" v="water" />
		<tag k="ssr:stedsnr" v="858797" />
		<tag k="water" v="lake" />
	</node>
	<node id="-380379" lat="61.2122611145" lon="9.63314444634">
		<tag k="name" v="Verkensvika" />
		<tag k="natural" v="bay" />
		<tag k="ssr:stedsnr" v="664848" />
	</node>
	<node id="-380377" lat="61.237772218" lon="9.59229999849">
		<tag k="name" v="Lorttjønnet" />
		<tag k="natural" v="water" />
		<tag k="ssr:stedsnr" v="664034" />
	</node>
	<node id="-382423" lat="61.30880833" lon="9.723275003">
		<tag k="name" v="Moatjønnet" />
		<tag k="natural" v="water" />
		<tag k="ssr:stedsnr" v="858676" />
	</node>
	<node id="-382421" lat="61.2985944462" lon="9.64022221945">
		<tag k="name" v="Sliputten" />
		<tag k="natural" v="water" />
		<tag k="ssr:stedsnr" v="858669" />
	</node>
	<node id="-382419" lat="61.343349996" lon="9.53085833244">
		<tag k="name" v="Nordbuvatnet" />
		<tag k="natural" v="water" />
		<tag k="ssr:stedsnr" v="858523" />
		<tag k="water" v="lake" />
	</node>
	<node id="-382412" lat="61.3938972191" lon="9.73536945116">
		<tag k="name" v="Åmot" />
		<tag k="natural" v="cape" />
		<tag k="ssr:stedsnr" v="857401" />
	</node>
	<node id="-380362" lat="61.2338055565" lon="10.0705916701">
		<tag k="name" v="Kårfaldstranda" />
		<tag k="natural" v="beach" />
		<tag k="ssr:stedsnr" v="658842" />
	</node>
	<node id="-380360" lat="61.2610583373" lon="9.91045555515">
		<tag k="name" v="Stultertubekken" />
		<tag k="ssr:stedsnr" v="658997" />
		<tag k="waterway" v="stream" />
	</node>
	<node id="-380359" lat="61.2585833308" lon="9.89530277056">
		<tag k="name" v="Reinsjøbekken" />
		<tag k="ssr:stedsnr" v="658995" />
		<tag k="waterway" v="stream" />
	</node>
	<node id="-380358" lat="61.2616694413" lon="9.89811111966">
		<tag k="name" v="Karivika" />
		<tag k="natural" v="bay" />
		<tag k="ssr:stedsnr" v="658992" />
	</node>
	<node id="-382404" lat="61.1218472211" lon="10.1626388966">
		<tag k="name" v="Svarttjønnbekken" />
		<tag k="ssr:stedsnr" v="857099" />
		<tag k="waterway" v="stream" />
	</node>
	<node id="-382403" lat="61.2794305594" lon="9.59375556275">
		<tag k="name" v="Kirkelandet" />
		<tag k="natural" v="beach" />
		<tag k="ssr:stedsnr" v="847632" />
	</node>
	<node id="-382402" lat="61.3096111145" lon="9.59258889765">
		<tag k="name" v="Raubekken" />
		<tag k="ssr:stedsnr" v="847629" />
		<tag k="waterway" v="stream" />
	</node>
	<node id="-382400" lat="61.2942305512" lon="9.58907222687">
		<tag k="name" v="Nistubulandet" />
		<tag k="natural" v="beach" />
		<tag k="ssr:stedsnr" v="847625" />
	</node>
	<node id="-382388" lat="61.3691666669" lon="10.0896777733">
		<tag k="name" v="Klokkertjønnet" />
		<tag k="natural" v="water" />
		<tag k="ssr:stedsnr" v="845044" />
	</node>
	<node id="-382381" lat="61.2144361145" lon="10.0491944476">
		<tag k="name" v="Svartfossen" />
		<tag k="natural" v="waterfall" />
		<tag k="ssr:stedsnr" v="841586" />
	</node>
	<node id="-380330" lat="61.2798666663" lon="9.90779166742">
		<tag k="name" v="Revtjønnet" />
		<tag k="natural" v="water" />
		<tag k="ssr:stedsnr" v="657179" />
	</node>
	<node id="-380326" lat="61.3431472216" lon="9.63507500267">
		<tag k="name" v="Skriulaupbekken" />
		<tag k="ssr:stedsnr" v="657016" />
		<tag k="waterway" v="stream" />
	</node>
	<node id="-380319" lat="61.3644361133" lon="9.90300276894">
		<tag k="name" v="Pålstjønnet" />
		<tag k="natural" v="water" />
		<tag k="ssr:stedsnr" v="656413" />
	</node>
	<node id="-382365" lat="61.1925916624" lon="10.1133222246">
		<tag k="name" v="Vårsæterbekken" />
		<tag k="ssr:stedsnr" v="841027" />
		<tag k="waterway" v="stream" />
	</node>
	<node id="-382362" lat="61.2897141224" lon="10.0709474599">
		<tag k="name" v="Sætervika" />
		<tag k="natural" v="bay" />
		<tag k="ssr:stedsnr" v="840626" />
	</node>
	<node id="-382361" lat="61.279972222" lon="10.0898111186">
		<tag k="name" v="Storlon" />
		<tag k="natural" v="shoal" />
		<tag k="place" v="locality" />
		<tag k="ssr:stedsnr" v="840624" />
	</node>
	<node id="-380306" lat="61.23726389" lon="9.66220000495">
		<tag k="name" v="Leirbekktjønnet" />
		<tag k="natural" v="water" />
		<tag k="ssr:stedsnr" v="433505" />
	</node>
	<node id="-380305" lat="61.2322333369" lon="9.63365832595">
		<tag k="name" v="Tortjønnet" />
		<tag k="natural" v="water" />
		<tag k="ssr:stedsnr" v="433504" />
	</node>
	<node id="-382350" lat="61.3193416624" lon="9.67217222135">
		<tag k="name" v="Gravbekken" />
		<tag k="ssr:stedsnr" v="840438" />
		<tag k="waterway" v="stream" />
	</node>
	<node id="-380301" lat="61.3137305584" lon="9.79367777191">
		<tag k="name" v="Sagbekken" />
		<tag k="ssr:stedsnr" v="433631" />
		<tag k="waterway" v="stream" />
	</node>
	<node id="-380298" lat="61.1839388926" lon="9.79211943892">
		<tag k="name" v="Bubekken" />
		<tag k="ssr:stedsnr" v="432704" />
		<tag k="waterway" v="stream" />
	</node>
	<node id="-380296" lat="61.4063249965" lon="9.71048332882">
		<tag k="name" v="Børka" />
		<tag k="ssr:stedsnr" v="432305" />
		<tag k="waterway" v="stream" />
	</node>
	<node id="-380291" lat="61.2353166642" lon="10.3456694458">
		<tag k="name" v="Lortkulpen" />
		<tag k="natural" v="water" />
		<tag k="ssr:stedsnr" v="416312" />
		<tag k="water" v="pond" />
	</node>
	<node id="-382338" lat="61.3581500033" lon="10.0199666732">
		<tag k="name" v="Langtjønnet" />
		<tag k="natural" v="water" />
		<tag k="ssr:stedsnr" v="839991" />
	</node>
	<node id="-379797" lat="61.1190999958" lon="10.1306833379">
		<tag k="name" v="Gåstjønnet" />
		<tag k="natural" v="water" />
		<tag k="ssr:stedsnr" v="250114" />
	</node>
	<node id="-380284" lat="61.3284805586" lon="9.83689167531">
		<tag k="name" v="Sålådammen" />
		<tag k="ssr:stedsnr" v="414529" />
		<tag k="waterway" v="dam" />
	</node>
	<node id="-380273" lat="61.2826944402" lon="10.1978888892">
		<tag k="name" v="Busterudbekken" />
		<tag k="ssr:stedsnr" v="372772" />
		<tag k="waterway" v="stream" />
	</node>
	<node id="-380272" lat="61.3185638932" lon="10.0519277688">
		<tag k="name" v="Sautjønnet" />
		<tag k="natural" v="water" />
		<tag k="ssr:stedsnr" v="372826" />
	</node>
	<node id="-382318" lat="61.3374388899" lon="10.0621666757">
		<tag k="name" v="Sagfossen" />
		<tag k="ssr:stedsnr" v="839027" />
		<tag k="waterway" v="rapids" />
	</node>
	<node id="-380267" lat="61.345191667" lon="9.70414444319">
		<tag k="name" v="Sekkholtjønnet" />
		<tag k="natural" v="water" />
		<tag k="ssr:stedsnr" v="372705" />
	</node>
	<node id="-380263" lat="61.375522224" lon="9.55084167045">
		<tag k="name" v="Øvre Stylskardtjønnet" />
		<tag k="natural" v="water" />
		<tag k="ssr:stedsnr" v="372470" />
	</node>
	<node id="-380261" lat="61.3651416669" lon="9.5140694353">
		<tag k="name" v="Venaglbekken" />
		<tag k="ssr:stedsnr" v="372464" />
		<tag k="waterway" v="stream" />
	</node>
	<node id="-380258" lat="61.346927782" lon="9.47686944808">
		<tag k="name" v="Forundringstjønn" />
		<tag k="natural" v="water" />
		<tag k="ssr:stedsnr" v="372522" />
	</node>
	<node id="-380256" lat="61.3146694406" lon="9.43957222614">
		<tag k="name" v="Storkvolvtjønn" />
		<tag k="natural" v="water" />
		<tag k="ssr:stedsnr" v="372509" />
	</node>
	<node id="-380255" lat="61.3725916684" lon="9.61143889349">
		<tag k="name" v="Bubekken" />
		<tag k="ssr:stedsnr" v="372376" />
		<tag k="waterway" v="stream" />
	</node>
	<node id="-380254" lat="61.3693583312" lon="9.81229444659">
		<tag k="name" v="Ropptjønnet" />
>>>>>>> e1d4bc35ff8a6074a6f2e91616a996b547c36f15
		<tag k="natural" v="water" />
		<tag k="ssr:stedsnr" v="372373" />
	</node>
<<<<<<< HEAD
	<node lat="61.254066666697085" lon="9.969224995725877" id="-26331">
		<tag k="name" v="Ulveflågån" />
		<tag k="natural" v="water" />
		<tag k="ssr:stedsnr" v="493862" />
	</node>
	<node lat="61.291247220291986" lon="9.568319442379778" id="-26333">
		<tag k="name" v="Febutjønn" />
		<tag k="natural" v="water" />
		<tag k="ssr:stedsnr" v="494242" />
	</node>
	<node lat="61.322816664961486" lon="9.586580549585111" id="-26336">
		<tag k="name" v="Hundtjønn" />
		<tag k="natural" v="water" />
		<tag k="ssr:stedsnr" v="494450" />
	</node>
	<node lat="61.28087777344138" lon="9.729738886998613" id="-26338">
		<tag k="name" v="Vakkertjønnet" />
		<tag k="natural" v="water" />
		<tag k="ssr:stedsnr" v="494689" />
	</node>
	<node lat="61.279275001706964" lon="9.811925003140647" id="-26339">
		<tag k="name" v="Mossa" />
		<tag k="ssr:stedsnr" v="494695" />
		<tag k="waterway" v="stream" />
	</node>
	<node lat="61.38725753730155" lon="9.529116617032475" id="-26343">
		<tag k="name" v="Megrundstjønnan" />
		<tag k="natural" v="water" />
		<tag k="ssr:stedsnr" v="451876" />
		<tag k="water" v="lake" />
	</node>
	<node lat="61.15265555297971" lon="10.19456111981538" id="-26345">
		<tag k="name" v="Finnsrudbekken" />
		<tag k="ssr:stedsnr" v="675086" />
		<tag k="waterway" v="stream" />
	</node>
	<node lat="61.37152777514041" lon="9.676691661239285" id="-26350">
		<tag k="name" v="Dritua" />
		<tag k="ssr:stedsnr" v="675385" />
		<tag k="waterway" v="stream" />
	</node>
	<node lat="61.21278888693698" lon="9.652877785408558" id="-26355">
		<tag k="name" v="Skjela" />
		<tag k="ssr:stedsnr" v="675540" />
		<tag k="waterway" v="river" />
	</node>
	<node lat="61.21380609701302" lon="9.637047519546284" id="-26356">
		<tag k="name" v="Vågskardvatnet" />
		<tag k="natural" v="water" />
		<tag k="ssr:stedsnr" v="675541" />
		<tag k="water" v="lake" />
	</node>
	<node lat="61.15102222195139" lon="9.757152784394803" id="-26358">
		<tag k="alt_name" v="Gryttjønn" />
		<tag k="name" v="Gryttjønnet" />
		<tag k="natural" v="water" />
		<tag k="ssr:stedsnr" v="675768" />
	</node>
	<node lat="61.32533611201367" lon="10.123927785725055" id="-26366">
		<tag k="name" v="Skeiselva" />
		<tag k="ssr:stedsnr" v="675960" />
		<tag k="waterway" v="river" />
	</node>
	<node lat="61.33575277537462" lon="10.17278055873367" id="-26367">
		<tag k="name" v="Storbekken" />
		<tag k="ssr:stedsnr" v="675969" />
		<tag k="waterway" v="stream" />
	</node>
	<node lat="61.254025002641505" lon="9.511936112039397" id="-26368">
		<tag k="name" v="Skardtjønnan" />
		<tag k="natural" v="water" />
		<tag k="ssr:stedsnr" v="676243" />
		<tag k="water" v="lake" />
	</node>
	<node lat="61.32742500188702" lon="9.544283339030812" id="-26378">
		<tag k="name" v="Lepplonen" />
		<tag k="place" v="locality" />
		<tag k="ssr:stedsnr" v="676481" />
	</node>
	<node lat="61.262119440484625" lon="9.767108325567184" id="-26380">
		<tag k="name" v="Slivatnet" />
		<tag k="natural" v="water" />
		<tag k="ssr:stedsnr" v="676747" />
	</node>
	<node lat="61.34293333354602" lon="9.8328111165472" id="-26383">
		<tag k="name" v="Veslåntjønnet" />
		<tag k="natural" v="water" />
		<tag k="ssr:stedsnr" v="474658" />
	</node>
	<node lat="61.35004166592251" lon="9.834513893377832" id="-26386">
		<tag k="name" v="Seterbekken" />
		<tag k="ssr:stedsnr" v="474667" />
		<tag k="waterway" v="stream" />
	</node>
	<node lat="61.283361113973164" lon="9.899572224763913" id="-26387">
		<tag k="alt_name" v="Bøltjønnet" />
		<tag k="name" v="Børtjønnet" />
=======
	<node id="-382301" lat="61.2007777793" lon="9.98034445057">
		<tag k="alt_name" v="Ropptjern" />
		<tag k="name" v="Ropptjørn" />
		<tag k="natural" v="water" />
		<tag k="ssr:stedsnr" v="811430" />
		<tag k="water" v="lake" />
	</node>
	<node id="-382300" lat="61.3527972259" lon="9.98725555452">
		<tag k="name" v="Dørja" />
		<tag k="ssr:stedsnr" v="799799" />
		<tag k="waterway" v="river" />
	</node>
	<node id="-382298" lat="61.282605555" lon="10.102511117">
		<tag k="name" v="Gryttjønnet" />
		<tag k="natural" v="water" />
		<tag k="ssr:stedsnr" v="798832" />
	</node>
	<node id="-380248" lat="61.1956555519" lon="9.60782500761">
		<tag k="name" v="Nuptjønnet" />
		<tag k="natural" v="water" />
		<tag k="ssr:stedsnr" v="371725" />
	</node>
	<node id="-382292" lat="61.3059666674" lon="9.81749166167">
		<tag k="name" v="Brattbekken" />
		<tag k="ssr:stedsnr" v="797745" />
		<tag k="waterway" v="stream" />
	</node>
	<node id="-382291" lat="61.2804416701" lon="9.64867500579">
		<tag k="alt_name" v="Tverrlitjønnene" />
		<tag k="name" v="Tverrlitjønnet" />
		<tag k="natural" v="water" />
		<tag k="ssr:stedsnr" v="797739" />
	</node>
	<node id="-382290" lat="61.3483027743" lon="9.95813611955">
		<tag k="name" v="Musa" />
		<tag k="ssr:stedsnr" v="797701" />
		<tag k="waterway" v="stream" />
	</node>
	<node id="-380239" lat="61.2674263065" lon="9.7828440105">
		<tag k="name" v="Kjerringtjønna" />
		<tag k="natural" v="water" />
		<tag k="ssr:stedsnr" v="494719" />
		<tag k="water" v="lake" />
	</node>
	<node id="-380238" lat="61.2792750017" lon="9.81192500314">
		<tag k="name" v="Mossa" />
		<tag k="ssr:stedsnr" v="494695" />
		<tag k="waterway" v="stream" />
	</node>
	<node id="-380237" lat="61.2808777734" lon="9.729738887">
		<tag k="name" v="Vakkertjønnet" />
		<tag k="natural" v="water" />
		<tag k="ssr:stedsnr" v="494689" />
	</node>
	<node id="-380235" lat="61.322816665" lon="9.58658054959">
		<tag k="name" v="Hundtjønn" />
		<tag k="natural" v="water" />
		<tag k="ssr:stedsnr" v="494450" />
	</node>
	<node id="-382280" lat="61.3414916666" lon="9.84101388811">
		<tag k="name" v="Ånåa" />
		<tag k="ssr:stedsnr" v="797684" />
		<tag k="waterway" v="stream" />
	</node>
	<node id="-382278" lat="61.3534000006" lon="9.66311944866">
		<tag k="name" v="Tverrlitjønnet" />
		<tag k="natural" v="water" />
		<tag k="ssr:stedsnr" v="797669" />
	</node>
	<node id="-382277" lat="61.3544305593" lon="9.68115000052">
		<tag k="name" v="Roasæterbekken" />
		<tag k="ssr:stedsnr" v="797668" />
		<tag k="waterway" v="stream" />
	</node>
	<node id="-382276" lat="61.3110111078" lon="9.80843610421">
		<tag k="name" v="Svabekken" />
		<tag k="ssr:stedsnr" v="797653" />
		<tag k="waterway" v="stream" />
	</node>
	<node id="-380227" lat="61.2540666667" lon="9.96922499573">
		<tag k="name" v="Ulveflågån" />
		<tag k="natural" v="water" />
		<tag k="ssr:stedsnr" v="493862" />
	</node>
	<node id="-382271" lat="61.3319861105" lon="9.55952499151">
		<tag k="name" v="Leppbekken" />
		<tag k="ssr:stedsnr" v="797493" />
		<tag k="waterway" v="stream" />
	</node>
	<node id="-380221" lat="61.1637333318" lon="9.64593888024">
		<tag k="name" v="Merradumpa" />
		<tag k="natural" v="water" />
		<tag k="ssr:stedsnr" v="493756" />
	</node>
	<node id="-382268" lat="61.2965055532" lon="9.56632500191">
		<tag k="name" v="Febuvika" />
		<tag k="natural" v="bay" />
		<tag k="ssr:stedsnr" v="797471" />
	</node>
	<node id="-380219" lat="61.1757996486" lon="9.95681844508">
		<tag k="name" v="Kittilbutjønna" />
		<tag k="natural" v="water" />
		<tag k="ssr:stedsnr" v="493747" />
		<tag k="water" v="lake" />
	</node>
	<node id="-380217" lat="61.1784444469" lon="9.71539443961">
		<tag k="name" v="Fjellbekken" />
		<tag k="ssr:stedsnr" v="493743" />
		<tag k="waterway" v="stream" />
	</node>
	<node id="-380216" lat="61.3580305516" lon="9.82554165941">
		<tag k="alt_name" v="Liatjønnet, øvre" />
		<tag k="name" v="Øvre Liatjønnet" />
		<tag k="natural" v="water" />
		<tag k="ssr:stedsnr" v="493704" />
	</node>
	<node id="-382258" lat="61.180055553" lon="9.84539444615">
		<tag k="name" v="Ormtjønnbekken" />
		<tag k="ssr:stedsnr" v="796751" />
		<tag k="waterway" v="stream" />
	</node>
	<node id="-380208" lat="61.2464583328" lon="9.70915278027">
		<tag k="alt_name" v="Droktjernet" />
		<tag k="name" v="Drukstjørnet" />
		<tag k="natural" v="water" />
		<tag k="ssr:stedsnr" v="493549" />
	</node>
	<node id="-380206" lat="61.2200249992" lon="9.79625000084">
		<tag k="name" v="Dokkholmen" />
		<tag k="place" v="islet" />
		<tag k="ssr:stedsnr" v="493527" />
	</node>
	<node id="-380205" lat="61.215422219" lon="9.72950832714">
		<tag k="name" v="Stuva" />
		<tag k="ssr:stedsnr" v="493523" />
		<tag k="waterway" v="river" />
	</node>
	<node id="-382251" lat="61.3847083327" lon="9.87913888777">
		<tag k="alt_name" v="Tverråa" />
		<tag k="name" v="Tverrelva" />
		<tag k="ssr:stedsnr" v="796348" />
		<tag k="waterway" v="stream" />
	</node>
	<node id="-380192" lat="61.3759000011" lon="9.79959167233">
		<tag k="name" v="Øvstetjønnet" />
		<tag k="natural" v="water" />
		<tag k="ssr:stedsnr" v="493353" />
	</node>
	<node id="-380191" lat="61.380447226" lon="9.95504166937">
		<tag k="alt_name" v="Holtjønnet, s" />
		<tag k="name" v="Søre Holtjønnet" />
		<tag k="natural" v="water" />
		<tag k="ssr:stedsnr" v="493352" />
	</node>
	<node id="-380190" lat="61.3855722242" lon="9.78552221724">
		<tag k="name" v="Langtjønnet" />
		<tag k="natural" v="water" />
		<tag k="ssr:stedsnr" v="493348" />
	</node>
	<node id="-382233" lat="61.2415333374" lon="10.3587527776">
		<tag k="alt_name" v="Søndre Bleikjetjønn" />
		<tag k="name" v="Søre Bleikjetjønn" />
		<tag k="natural" v="water" />
		<tag k="ssr:stedsnr" v="783282" />
	</node>
	<node id="-382232" lat="61.201263893" lon="10.286972227">
		<tag k="name" v="Finna" />
		<tag k="ssr:stedsnr" v="783244" />
		<tag k="waterway" v="stream" />
	</node>
	<node id="-380183" lat="61.1277345784" lon="10.1074759437">
		<tag k="name" v="Erstjønnet" />
		<tag k="natural" v="water" />
		<tag k="ssr:stedsnr" v="493104" />
	</node>
	<node id="-380179" lat="61.3623499964" lon="10.0081527791">
		<tag k="name" v="Lykkjevika" />
		<tag k="natural" v="bay" />
		<tag k="ssr:stedsnr" v="492865" />
	</node>
	<node id="-380178" lat="61.2468111119" lon="9.48593610423">
		<tag k="name" v="Fossbekken" />
		<tag k="ssr:stedsnr" v="492736" />
		<tag k="waterway" v="stream" />
	</node>
	<node id="-380174" lat="61.2429222195" lon="9.99461667221">
		<tag k="name" v="Beljebekken" />
		<tag k="ssr:stedsnr" v="492328" />
		<tag k="waterway" v="stream" />
	</node>
	<node id="-380172" lat="61.2150694406" lon="10.2556444513">
		<tag k="name" v="Fabrikkdammen" />
		<tag k="ssr:stedsnr" v="358162" />
		<tag k="waterway" v="dam" />
	</node>
	<node id="-382218" lat="61.2536277798" lon="9.82554444289">
		<tag k="name" v="Kjerringodden" />
		<tag k="natural" v="cape" />
		<tag k="ssr:stedsnr" v="780275" />
	</node>
	<node id="-382214" lat="61.2219833303" lon="9.92915834058">
		<tag k="name" v="Tronåbekken" />
		<tag k="ssr:stedsnr" v="780200" />
		<tag k="waterway" v="stream" />
	</node>
	<node id="-380164" lat="61.2482027762" lon="10.249338882">
		<tag k="name" v="Neveråa" />
		<tag k="ssr:stedsnr" v="492223" />
		<tag k="waterway" v="stream" />
	</node>
	<node id="-382207" lat="61.3399472196" lon="9.72924445033">
		<tag k="name" v="Lorttjønnet" />
		<tag k="natural" v="water" />
		<tag k="ssr:stedsnr" v="779890" />
	</node>
	<node id="-382206" lat="61.139094446" lon="10.0333416667">
		<tag k="name" v="Kroktjønnvika" />
		<tag k="natural" v="bay" />
		<tag k="ssr:stedsnr" v="779883" />
	</node>
	<node id="-380155" lat="61.4118249966" lon="9.54449166901">
		<tag k="name" v="Sagodden" />
		<tag k="natural" v="cape" />
		<tag k="ssr:stedsnr" v="353906" />
	</node>
	<node id="-382196" lat="61.3181972197" lon="9.69260000864">
		<tag k="name" v="Storholmen" />
		<tag k="place" v="islet" />
		<tag k="ssr:stedsnr" v="779464" />
	</node>
	<node id="-380143" lat="61.1220333298" lon="10.040636105">
		<tag k="name" v="Store Bjørn" />
		<tag k="place" v="islet" />
		<tag k="ssr:stedsnr" v="481099" />
	</node>
	<node id="-380139" lat="61.2056138934" lon="10.244994447">
		<tag k="name" v="Visknutkjelda" />
		<tag k="natural" v="spring" />
		<tag k="ssr:stedsnr" v="479273" />
	</node>
	<node id="-382181" lat="61.3188166676" lon="10.0021027867">
		<tag k="name" v="Stølslettbekken" />
		<tag k="ssr:stedsnr" v="778992" />
		<tag k="waterway" v="stream" />
	</node>
	<node id="-382179" lat="61.34436389" lon="10.029013887">
		<tag k="name" v="Langlitjønnet" />
		<tag k="natural" v="water" />
		<tag k="ssr:stedsnr" v="778985" />
	</node>
	<node id="-380127" lat="61.2239666632" lon="9.77333610566">
		<tag k="name" v="Hestholmen" />
		<tag k="place" v="islet" />
		<tag k="ssr:stedsnr" v="476589" />
	</node>
	<node id="-382173" lat="61.3624694474" lon="9.68469444998">
		<tag k="name" v="Rostjønnet" />
		<tag k="natural" v="water" />
		<tag k="ssr:stedsnr" v="778900" />
	</node>
	<node id="-380123" lat="61.2538999987" lon="9.83095832712">
		<tag k="name" v="Kluftodden" />
		<tag k="natural" v="cape" />
		<tag k="ssr:stedsnr" v="476284" />
	</node>
	<node id="-382169" lat="61.3681861125" lon="9.65264165959">
		<tag k="name" v="Svartvika" />
		<tag k="natural" v="bay" />
		<tag k="ssr:stedsnr" v="778951" />
	</node>
	<node id="-382159" lat="61.3816472186" lon="9.92440277486">
		<tag k="name" v="Gardosen" />
		<tag k="natural" v="bay" />
		<tag k="ssr:stedsnr" v="777637" />
	</node>
	<node id="-380106" lat="61.2774555531" lon="9.94036388003">
		<tag k="name" v="Sæterbekken" />
		<tag k="ssr:stedsnr" v="475854" />
		<tag k="waterway" v="stream" />
	</node>
	<node id="-382150" lat="61.2062083334" lon="9.82229721868">
		<tag k="name" v="Sundmannen" />
		<tag k="place" v="islet" />
		<tag k="ssr:stedsnr" v="737463" />
	</node>
	<node id="-382148" lat="61.3006583326" lon="9.38287223132">
		<tag k="name" v="Massingtjønn" />
		<tag k="natural" v="water" />
		<tag k="ssr:stedsnr" v="737439" />
	</node>
	<node id="-382147" lat="61.2648222228" lon="9.50534443817">
		<tag k="name" v="Fossbekktjønnet" />
		<tag k="natural" v="water" />
		<tag k="ssr:stedsnr" v="737260" />
	</node>
	<node id="-380098" lat="61.3342833346" lon="9.74718333811">
		<tag k="name" v="Kvernhusfossen" />
		<tag k="natural" v="waterfall" />
		<tag k="ssr:stedsnr" v="475451" />
	</node>
	<node id="-382144" lat="61.3683999986" lon="10.1413222169">
		<tag k="name" v="Sjøsætervatnet" />
		<tag k="natural" v="water" />
		<tag k="ssr:stedsnr" v="736985" />
		<tag k="water" v="lake" />
	</node>
	<node id="-380095" lat="61.3462000022" lon="10.115949997">
		<tag k="name" v="Slåsæterbekken" />
		<tag k="ssr:stedsnr" v="475351" />
		<tag k="waterway" v="stream" />
	</node>
	<node id="-382140" lat="61.261269394" lon="10.2460598653">
		<tag k="name" v="Neversjøen" />
		<tag k="natural" v="water" />
		<tag k="ssr:stedsnr" v="736848" />
		<tag k="water" v="lake" />
	</node>
	<node id="-380091" lat="61.2884222188" lon="10.2075166647">
		<tag k="name" v="Skillebekken" />
		<tag k="ssr:stedsnr" v="475142" />
		<tag k="waterway" v="stream" />
	</node>
	<node id="-382495" lat="61.2242611151" lon="10.0478472254">
		<tag k="name" v="Børkhågåbekken" />
		<tag k="ssr:stedsnr" v="962578" />
		<tag k="waterway" v="stream" />
	</node>
	<node id="-382133" lat="61.177208337" lon="9.63387222036">
		<tag k="name" v="Skjellbreidsvatnet" />
		<tag k="natural" v="water" />
		<tag k="ssr:stedsnr" v="736762" />
		<tag k="water" v="lake" />
	</node>
	<node id="-382131" lat="61.3448833352" lon="9.83568610381">
		<tag k="name" v="Åntjønnet" />
		<tag k="natural" v="water" />
		<tag k="ssr:stedsnr" v="736693" />
	</node>
	<node id="-382130" lat="61.3455166629" lon="9.77717222212">
		<tag k="name" v="Surta" />
		<tag k="ssr:stedsnr" v="736690" />
		<tag k="waterway" v="stream" />
	</node>
	<node id="-380081" lat="61.3873250002" lon="9.89561389747">
		<tag k="name" v="Bennosen" />
		<tag k="natural" v="bay" />
		<tag k="ssr:stedsnr" v="474655" />
	</node>
	<node id="-382125" lat="61.2480969145" lon="9.89761371196">
		<tag k="alt_name" v="Reinsjøen, øvre" />
		<tag k="name" v="Øvre Reinsjøen" />
		<tag k="natural" v="water" />
		<tag k="ssr:stedsnr" v="736533" />
		<tag k="water" v="lake" />
	</node>
	<node id="-382121" lat="61.3320055515" lon="9.53922499184">
		<tag k="name" v="Bulonen" />
		<tag k="place" v="locality" />
		<tag k="ssr:stedsnr" v="736481" />
	</node>
	<node id="-382113" lat="61.376374996" lon="9.56576389702">
		<tag k="alt_name" v="Stylskardtjønnet, nedre" />
		<tag k="name" v="Nedre Stylskardtjønnet" />
		<tag k="natural" v="water" />
		<tag k="ssr:stedsnr" v="736448" />
	</node>
	<node id="-380059" lat="61.2600777747" lon="9.94107500893">
		<tag k="name" v="Holbekktjønnet" />
		<tag k="natural" v="water" />
		<tag k="ssr:stedsnr" v="312715" />
	</node>
	<node id="-380100" lat="61.285722225" lon="10.0862611118">
		<tag k="name" v="Prestkjerringvika" />
		<tag k="natural" v="bay" />
		<tag k="ssr:stedsnr" v="475620" />
	</node>
	<node id="-382097" lat="61.2030722213" lon="9.98975556351">
		<tag k="name" v="Roppdammen" />
		<tag k="ssr:stedsnr" v="628438" />
		<tag k="waterway" v="dam" />
	</node>
	<node id="-382096" lat="61.3700833294" lon="10.1449944451">
		<tag k="name" v="Systuguvika" />
		<tag k="natural" v="bay" />
		<tag k="ssr:stedsnr" v="655170" />
	</node>
	<node id="-382095" lat="61.2059444466" lon="9.82139445351">
		<tag k="name" v="Bjønnan" />
		<tag k="place" v="islet" />
		<tag k="ssr:stedsnr" v="616468" />
	</node>
	<node id="-380046" lat="61.185722222" lon="9.81768610737">
		<tag k="name" v="Sygardsbekken" />
		<tag k="ssr:stedsnr" v="300011" />
		<tag k="waterway" v="stream" />
	</node>
	<node id="-382092" lat="61.2929777786" lon="9.70837222091">
		<tag k="name" v="Kroktjønnet" />
		<tag k="natural" v="water" />
		<tag k="ssr:stedsnr" v="615724" />
	</node>
	<node id="-380042" lat="61.3762027766" lon="9.63164722305">
		<tag k="name" v="Kariholmen" />
		<tag k="place" v="islet" />
		<tag k="ssr:stedsnr" v="294463" />
	</node>
	<node id="-382088" lat="61.2857277764" lon="9.71845000569">
		<tag k="alt_name" v="Vettafjelltjønnet" />
		<tag k="name" v="Vetafjelltjønnet" />
		<tag k="natural" v="water" />
		<tag k="ssr:stedsnr" v="615694" />
	</node>
	<node id="-382087" lat="61.3334250018" lon="9.43409722115">
		<tag k="name" v="Vietjønnet" />
		<tag k="natural" v="water" />
		<tag k="ssr:stedsnr" v="615477" />
	</node>
	<node id="-382085" lat="61.3682916622" lon="10.1071750048">
		<tag k="name" v="Torsdalsvatnet" />
		<tag k="natural" v="water" />
		<tag k="ssr:stedsnr" v="614985" />
	</node>
	<node id="-380035" lat="61.2673999981" lon="9.58562222822">
		<tag k="name" v="Skomakartjønnet" />
		<tag k="natural" v="water" />
		<tag k="ssr:stedsnr" v="251310" />
	</node>
	<node id="-380027" lat="61.2140055575" lon="10.0418999925">
		<tag k="name" v="Roppa" />
		<tag k="ssr:stedsnr" v="250462" />
		<tag k="waterway" v="river" />
	</node>
	<node id="-382074" lat="61.23858333" lon="9.90755000206">
		<tag k="alt_name" v="Reinsjøen, vesle" />
		<tag k="name" v="Vesle Reinsjøen" />
		<tag k="natural" v="water" />
		<tag k="ssr:stedsnr" v="614514" />
	</node>
	<node id="-382072" lat="61.2281805534" lon="9.64116944983">
		<tag k="name" v="Tortjønnbekken" />
		<tag k="ssr:stedsnr" v="614508" />
		<tag k="waterway" v="stream" />
	</node>
	<node id="-382070" lat="61.217113888" lon="9.67387778046">
		<tag k="name" v="Nyvatnet" />
		<tag k="natural" v="water" />
		<tag k="ssr:stedsnr" v="614506" />
	</node>
	<node id="-380021" lat="61.1808694409" lon="9.90821667109">
		<tag k="name" v="Valdrestjønnbekken" />
		<tag k="ssr:stedsnr" v="234009" />
		<tag k="waterway" v="stream" />
	</node>
	<node id="-380018" lat="61.3763027749" lon="9.62343332472">
		<tag k="name" v="Buvika" />
		<tag k="natural" v="bay" />
		<tag k="ssr:stedsnr" v="233532" />
	</node>
	<node id="-382065" lat="61.1983444461" lon="10.0662583405">
		<tag k="name" v="Astridbekken" />
		<tag k="ssr:stedsnr" v="614488" />
		<tag k="waterway" v="stream" />
	</node>
	<node id="-380012" lat="61.3552555576" lon="10.1031999988">
		<tag k="name" v="Åmottjønnet" />
		<tag k="natural" v="water" />
		<tag k="ssr:stedsnr" v="231906" />
	</node>
	<node id="-382056" lat="61.2372138873" lon="10.3298194435">
		<tag k="name" v="Finntjønnet" />
		<tag k="natural" v="water" />
		<tag k="ssr:stedsnr" v="614258" />
	</node>
	<node id="-382054" lat="61.3926999967" lon="9.53165278514">
		<tag k="name" v="Nedre Megrundstjønnet" />
		<tag k="natural" v="water" />
		<tag k="ssr:stedsnr" v="614462" />
	</node>
	<node id="-380003" lat="61.1974305547" lon="10.2838944469">
		<tag k="name" v="Stuksrudbekken" />
		<tag k="ssr:stedsnr" v="297281" />
		<tag k="waterway" v="stream" />
	</node>
	<node id="-379997" lat="61.128322218" lon="10.0424583345">
		<tag k="name" v="Sandodden" />
		<tag k="natural" v="cape" />
		<tag k="ssr:stedsnr" v="295888" />
	</node>
	<node id="-379995" lat="61.412322221" lon="9.54631110432">
		<tag k="name" v="Sagvika" />
		<tag k="natural" v="bay" />
		<tag k="ssr:stedsnr" v="295581" />
	</node>
	<node id="-382036" lat="61.2223777775" lon="9.56417499155">
		<tag k="name" v="Reinsjøbekken" />
		<tag k="ssr:stedsnr" v="603769" />
		<tag k="waterway" v="stream" />
	</node>
	<node id="-382035" lat="61.3009305565" lon="9.56690833586">
		<tag k="name" v="Gulsannan" />
		<tag k="natural" v="beach" />
		<tag k="ssr:stedsnr" v="603593" />
	</node>
	<node id="-379986" lat="61.1552083298" lon="10.0466527792">
		<tag k="name" v="Stortjønn" />
		<tag k="natural" v="water" />
		<tag k="ssr:stedsnr" v="294924" />
	</node>
	<node id="-382033" lat="61.3792944473" lon="10.0471000025">
		<tag k="name" v="Svarttjønnet" />
		<tag k="natural" v="water" />
		<tag k="ssr:stedsnr" v="603148" />
	</node>
	<node id="-380085" lat="61.3500416659" lon="9.83451389338">
		<tag k="name" v="Sæterbekken" />
		<tag k="ssr:stedsnr" v="474667" />
		<tag k="waterway" v="stream" />
	</node>
	<node id="-379962" lat="61.3408277774" lon="10.0146194466">
		<tag k="name" v="Langlitjønnet" />
		<tag k="natural" v="water" />
		<tag k="ssr:stedsnr" v="293999" />
	</node>
	<node id="-379960" lat="61.3362249956" lon="9.89099445135">
		<tag k="name" v="Haustsæterbekken" />
		<tag k="ssr:stedsnr" v="293960" />
		<tag k="waterway" v="stream" />
	</node>
	<node id="-382007" lat="61.3100000037" lon="10.0780805601">
		<tag k="name" v="Velttjønnet" />
		<tag k="natural" v="water" />
		<tag k="ssr:stedsnr" v="597736" />
	</node>
	<node id="-382005" lat="61.2785777737" lon="10.0767611029">
		<tag k="name" v="Raumælgrunnan" />
		<tag k="place" v="locality" />
		<tag k="ssr:stedsnr" v="597634" />
	</node>
	<node id="-381999" lat="61.3430722254" lon="9.68241944095">
		<tag k="name" v="Raubekken" />
		<tag k="ssr:stedsnr" v="597335" />
		<tag k="waterway" v="stream" />
	</node>
	<node id="-380082" lat="61.3429333335" lon="9.83281111655">
		<tag k="name" v="Veslåntjønnet" />
		<tag k="natural" v="water" />
		<tag k="ssr:stedsnr" v="474658" />
	</node>
	<node id="-380423" lat="61.3323361119" lon="9.45975555582">
		<tag k="name" v="Gråvietjønnbekken" />
		<tag k="ssr:stedsnr" v="676491" />
		<tag k="waterway" v="stream" />
	</node>
	<node id="-381987" lat="61.2781472231" lon="9.97075556205">
		<tag k="name" v="Slåttdalsbekken" />
		<tag k="ssr:stedsnr" v="596861" />
		<tag k="waterway" v="stream" />
	</node>
	<node id="-379936" lat="61.4108333329" lon="9.54806944788">
		<tag k="name" v="Vesleholmen" />
		<tag k="place" v="islet" />
		<tag k="ssr:stedsnr" v="292899" />
	</node>
	<node id="-381973" lat="61.4082499984" lon="9.55184721317">
		<tag k="name" v="Sandodden" />
		<tag k="natural" v="cape" />
		<tag k="ssr:stedsnr" v="595895" />
	</node>
	<node id="-379924" lat="61.3702944414" lon="10.1424583328">
		<tag k="name" v="Kvebakken" />
		<tag k="natural" v="cape" />
		<tag k="ssr:stedsnr" v="292133" />
	</node>
	<node id="-381971" lat="61.4014111151" lon="9.57507777754">
		<tag k="name" v="Liavika" />
		<tag k="natural" v="bay" />
		<tag k="ssr:stedsnr" v="595874" />
	</node>
	<node id="-381970" lat="61.4039527815" lon="9.56813889515">
		<tag k="name" v="Slåodden" />
		<tag k="natural" v="cape" />
		<tag k="ssr:stedsnr" v="595873" />
	</node>
	<node id="-381967" lat="61.387886109" lon="9.92174166418">
		<tag k="name" v="Ugletjønnet" />
		<tag k="natural" v="water" />
		<tag k="ssr:stedsnr" v="595609" />
	</node>
	<node id="-381962" lat="61.3855833348" lon="9.92661667018">
		<tag k="name" v="Gardåa" />
		<tag k="ssr:stedsnr" v="595230" />
		<tag k="waterway" v="river" />
	</node>
	<node id="-381961" lat="61.3272194403" lon="10.1030000024">
		<tag k="name" v="Helgafossen" />
		<tag k="ssr:stedsnr" v="595193" />
		<tag k="waterway" v="rapids" />
	</node>
	<node id="-381960" lat="61.3437222248" lon="9.77563333182">
		<tag k="name" v="Nedre Surtfossen" />
		<tag k="natural" v="waterfall" />
		<tag k="ssr:stedsnr" v="595127" />
	</node>
	<node id="-381956" lat="61.4048000043" lon="9.64797777983">
		<tag k="name" v="Glupbekken" />
		<tag k="ssr:stedsnr" v="598788" />
		<tag k="waterway" v="stream" />
	</node>
	<node id="-381954" lat="61.4138388852" lon="9.84753054736">
		<tag k="name" v="Langtjønnet" />
		<tag k="natural" v="water" />
		<tag k="ssr:stedsnr" v="655130" />
	</node>
	<node id="-379903" lat="61.3019583344" lon="9.65031388035">
		<tag k="alt_name" v="Ongsjøen, vesle" />
		<tag k="name" v="Vesle Ongsjøen" />
		<tag k="natural" v="water" />
		<tag k="ssr:stedsnr" v="190650" />
	</node>
	<node id="-381946" lat="61.3193391571" lon="9.68775016936">
		<tag k="alt_name" v="Ongsjøen, nedre" />
		<tag k="loc_name" v="Nedre Ognsjøen" />
		<tag k="name" v="Nedre Ongsjøen" />
		<tag k="natural" v="water" />
		<tag k="ssr:stedsnr" v="554692" />
		<tag k="water" v="lake" />
	</node>
	<node id="-381943" lat="61.2913777771" lon="9.90979999452">
		<tag k="name" v="Svartholbekken" />
		<tag k="ssr:stedsnr" v="554763" />
		<tag k="waterway" v="stream" />
	</node>
	<node id="-381942" lat="61.2917777813" lon="9.66514444769">
		<tag k="name" v="Slibekken" />
		<tag k="ssr:stedsnr" v="554758" />
		<tag k="waterway" v="stream" />
	</node>
	<node id="-381941" lat="61.2487805561" lon="9.68656111106">
		<tag k="alt_name" v="Droktjernbekken" />
		<tag k="name" v="Druktjørnbekken" />
		<tag k="ssr:stedsnr" v="554591" />
		<tag k="waterway" v="stream" />
	</node>
	<node id="-379890" lat="61.222019445" lon="9.77950555441">
		<tag k="name" v="Tronoa" />
		<tag k="place" v="islet" />
		<tag k="ssr:stedsnr" v="172619" />
	</node>
	<node id="-379889" lat="61.4055833371" lon="9.81934445279">
		<tag k="name" v="Tritjønn" />
		<tag k="natural" v="water" />
		<tag k="ssr:stedsnr" v="171825" />
	</node>
	<node id="-381935" lat="61.2965315343" lon="9.57848443576">
		<tag k="alt_name" v="Revsjøen, øvre" />
		<tag k="name" v="Øvre Revsjøen" />
>>>>>>> e1d4bc35ff8a6074a6f2e91616a996b547c36f15
		<tag k="natural" v="water" />
		<tag k="ssr:stedsnr" v="554501" />
		<tag k="water" v="lake" />
	</node>
<<<<<<< HEAD
	<node lat="61.28572222497367" lon="10.086261111766369" id="-26393">
		<tag k="name" v="Prestkjerringvika" />
		<tag k="natural" v="bay" />
		<tag k="ssr:stedsnr" v="475620" />
	</node>
	<node lat="61.121341663898946" lon="10.165013894691247" id="-26402">
		<tag k="name" v="Midtdalsbekken" />
		<tag k="ssr:stedsnr" v="477914" />
		<tag k="waterway" v="stream" />
	</node>
	<node lat="61.27859999569605" lon="9.61491110512627" id="-26408">
		<tag k="name" v="Kosan" />
		<tag k="natural" v="bay" />
		<tag k="ssr:stedsnr" v="482614" />
	</node>
	<node lat="61.2482027762085" lon="10.24933888200285" id="-26411">
		<tag k="name" v="Neveråa" />
		<tag k="ssr:stedsnr" v="492223" />
		<tag k="waterway" v="stream" />
	</node>
	<node lat="61.242922219523614" lon="9.994616672211784" id="-26413">
		<tag k="name" v="Beljebekken" />
		<tag k="ssr:stedsnr" v="492328" />
		<tag k="waterway" v="stream" />
	</node>
	<node lat="61.1277345784445" lon="10.107475943712437" id="-26417">
		<tag k="name" v="Erstjønnet" />
		<tag k="natural" v="water" />
		<tag k="ssr:stedsnr" v="493104" />
	</node>
	<node lat="61.21542221902186" lon="9.729508327141643" id="-26423">
		<tag k="name" v="Stuva" />
		<tag k="ssr:stedsnr" v="493523" />
		<tag k="waterway" v="river" />
	</node>
	<node lat="61.22002499923951" lon="9.796250000843974" id="-26424">
		<tag k="name" v="Dokkholmen" />
		<tag k="place" v="islet" />
		<tag k="ssr:stedsnr" v="493527" />
	</node>
	<node lat="61.202607118602096" lon="9.983996946365139" id="-26427">
		<tag k="loc_name" v="Nedre Roppatjønnet" />
		<tag k="name" v="Nedre Ropptjønnet" />
		<tag k="natural" v="water" />
		<tag k="ssr:stedsnr" v="493477" />
	</node>
	<node lat="61.35803055160984" lon="9.825541659411936" id="-26428">
		<tag k="alt_name" v="Liatjønnet, øvre" />
		<tag k="name" v="Øvre Liatjønnet" />
		<tag k="natural" v="water" />
		<tag k="ssr:stedsnr" v="493704" />
	</node>
	<node lat="61.26742630647608" lon="9.782844010502767" id="-26433">
		<tag k="name" v="Kjerringtjønna" />
		<tag k="natural" v="water" />
		<tag k="ssr:stedsnr" v="494719" />
		<tag k="water" v="lake" />
	</node>
	<node lat="61.326272221480224" lon="9.99552221374975" id="-26436">
		<tag k="name" v="Seterbekken" />
		<tag k="ssr:stedsnr" v="535803" />
		<tag k="waterway" v="stream" />
	</node>
	<node lat="61.32114166654477" lon="9.994797224802284" id="-26437">
		<tag k="name" v="Stylbekken" />
		<tag k="ssr:stedsnr" v="535805" />
		<tag k="waterway" v="stream" />
	</node>
	<node lat="61.33419166258845" lon="9.998875003492833" id="-26438">
		<tag k="name" v="Veslibekken" />
		<tag k="ssr:stedsnr" v="535811" />
		<tag k="waterway" v="stream" />
	</node>
	<node lat="61.13253055415508" lon="10.109480562468331" id="-26460">
		<tag k="name" v="Okstjønnet" />
		<tag k="natural" v="water" />
		<tag k="ssr:stedsnr" v="537874" />
	</node>
	<node lat="61.38470833348709" lon="9.938191662514052" id="-26467">
		<tag k="name" v="Holtjønnlon" />
		<tag k="natural" v="water" />
		<tag k="ssr:stedsnr" v="553335" />
	</node>
	<node lat="61.38401666470724" lon="9.915152768548579" id="-26468">
		<tag k="name" v="Gulsanden" />
		<tag k="natural" v="beach" />
		<tag k="ssr:stedsnr" v="553336" />
	</node>
	<node lat="61.368661108336255" lon="9.779499992197568" id="-26470">
		<tag k="name" v="Svarttjønnet" />
		<tag k="natural" v="water" />
		<tag k="ssr:stedsnr" v="553339" />
	</node>
	<node lat="61.40691944126455" lon="9.735225004902983" id="-26472">
		<tag k="name" v="Lebba" />
		<tag k="ssr:stedsnr" v="553352" />
		<tag k="waterway" v="river" />
	</node>
	<node lat="61.167586112629365" lon="10.005066673364439" id="-26477">
		<tag k="name" v="Heimtjønnet" />
		<tag k="natural" v="water" />
		<tag k="ssr:stedsnr" v="553430" />
	</node>
	<node lat="61.23367499965924" lon="9.84064444452304" id="-26481">
		<tag k="name" v="Dunglungen" />
		<tag k="natural" v="water" />
		<tag k="ssr:stedsnr" v="553494" />
	</node>
	<node lat="61.31933915709214" lon="9.687750169361008" id="-26490">
		<tag k="alt_name" v="Ongsjøen, nedre" />
		<tag k="loc_name" v="Nedre Ognsjøen" />
		<tag k="name" v="Nedre Ongsjøen" />
		<tag k="natural" v="water" />
		<tag k="ssr:stedsnr" v="554692" />
		<tag k="water" v="lake" />
	</node>
	<node lat="61.24878055613011" lon="9.68656111105921" id="-26492">
		<tag k="name" v="Druktjønnbekken" />
		<tag k="ssr:stedsnr" v="554591" />
		<tag k="waterway" v="stream" />
	</node>
	<node lat="61.278147223072764" lon="9.97075556205458" id="-26509">
		<tag k="name" v="Slåttdalsbekken" />
		<tag k="ssr:stedsnr" v="596861" />
		<tag k="waterway" v="stream" />
	</node>
	<node lat="61.23721388730647" lon="10.32981944352925" id="-26532">
		<tag k="name" v="Finntjønnet" />
		<tag k="natural" v="water" />
		<tag k="ssr:stedsnr" v="614258" />
	</node>
	<node lat="61.39269999671609" lon="9.531652785138903" id="-26539">
		<tag k="name" v="Nedre Megrundstjønnet" />
		<tag k="natural" v="water" />
		<tag k="ssr:stedsnr" v="614462" />
	</node>
	<node lat="61.21711388800838" lon="9.673877780457477" id="-26543">
		<tag k="name" v="Nyvatnet" />
		<tag k="natural" v="water" />
		<tag k="ssr:stedsnr" v="614506" />
	</node>
	<node lat="61.228180553441476" lon="9.641169449831743" id="-26545">
		<tag k="name" v="Tortjønnbekken" />
		<tag k="ssr:stedsnr" v="614508" />
		<tag k="waterway" v="stream" />
	</node>
	<node lat="61.23858332995647" lon="9.90755000205865" id="-26547">
		<tag k="alt_name" v="Reinsjøen, vesle" />
		<tag k="name" v="Vesle Reinsjøen" />
		<tag k="natural" v="water" />
		<tag k="ssr:stedsnr" v="614514" />
	</node>
	<node lat="61.34288055372791" lon="10.162541668969888" id="-26552">
		<tag k="name" v="Killielva" />
		<tag k="ssr:stedsnr" v="614967" />
		<tag k="waterway" v="river" />
	</node>
	<node lat="61.28572777641194" lon="9.718450005687552" id="-26553">
		<tag k="alt_name" v="Vettafjelltjønnet" />
		<tag k="name" v="Vetafjelltjønnet" />
		<tag k="natural" v="water" />
		<tag k="ssr:stedsnr" v="615694" />
	</node>
	<node lat="61.29297777861263" lon="9.708372220911489" id="-26555">
		<tag k="name" v="Kroktjønnet" />
		<tag k="natural" v="water" />
		<tag k="ssr:stedsnr" v="615724" />
	</node>
	<node lat="61.27092222557923" lon="9.963002785732607" id="-26556">
		<tag k="name" v="Haukåa" />
		<tag k="ssr:stedsnr" v="615748" />
		<tag k="waterway" v="stream" />
	</node>
	<node lat="61.32795833763432" lon="9.7831472189323" id="-26573">
		<tag k="name" v="Enebakkbekken" />
		<tag k="ssr:stedsnr" v="657609" />
		<tag k="waterway" v="stream" />
	</node>
	<node lat="61.23380555646384" lon="10.070591670123708" id="-26591">
		<tag k="name" v="Kårfaldstranda" />
		<tag k="natural" v="beach" />
		<tag k="ssr:stedsnr" v="658842" />
	</node>
	<node lat="61.12001666597848" lon="10.040105552169289" id="-26597">
		<tag k="name" v="Blestervika" />
		<tag k="natural" v="bay" />
		<tag k="ssr:stedsnr" v="663095" />
	</node>
	<node lat="61.23777221798061" lon="9.59229999848882" id="-26599">
		<tag k="name" v="Lorttjønnet" />
=======
	<node id="-381933" lat="61.4016055523" lon="9.56712222637">
		<tag k="name" v="Espedalsvatnet" />
		<tag k="natural" v="water" />
		<tag k="ssr:stedsnr" v="554498" />
		<tag k="water" v="lake" />
	</node>
	<node id="-381931" lat="61.1535722219" lon="10.0890194438">
		<tag k="name" v="Djupåa" />
		<tag k="ssr:stedsnr" v="554086" />
		<tag k="waterway" v="river" />
	</node>
	<node id="-381930" lat="61.186130559" lon="9.56424999573">
		<tag k="name" v="Godbekken" />
		<tag k="ssr:stedsnr" v="553951" />
		<tag k="waterway" v="stream" />
	</node>
	<node id="-381928" lat="61.1834500008" lon="9.78037499519">
		<tag k="name" v="Snærespullen" />
		<tag k="natural" v="bay" />
		<tag k="ssr:stedsnr" v="553745" />
	</node>
	<node id="-381927" lat="61.2123210892" lon="9.81607301009">
		<tag k="name" v="Dokkvatnet" />
		<tag k="natural" v="water" />
		<tag k="ssr:stedsnr" v="553741" />
		<tag k="water" v="lake" />
	</node>
	<node id="-379878" lat="61.3321361132" lon="9.8871000092">
		<tag k="name" v="Benna" />
		<tag k="ssr:stedsnr" v="129623" />
		<tag k="waterway" v="river" />
	</node>
	<node id="-381921" lat="61.2096083312" lon="9.76615277703">
		<tag k="name" v="Verkensbekken" />
		<tag k="ssr:stedsnr" v="553519" />
		<tag k="waterway" v="stream" />
	</node>
	<node id="-381919" lat="61.2336749997" lon="9.84064444452">
		<tag k="name" v="Dunglungen" />
		<tag k="natural" v="water" />
		<tag k="ssr:stedsnr" v="553494" />
	</node>
	<node id="-381917" lat="61.2176833338" lon="9.99435833899">
		<tag k="name" v="Valåa" />
		<tag k="ssr:stedsnr" v="553454" />
		<tag k="waterway" v="stream" />
	</node>
	<node id="-379868" lat="61.3608611153" lon="10.0166333283">
		<tag k="name" v="Langtjønnvika" />
		<tag k="natural" v="bay" />
		<tag k="ssr:stedsnr" v="118869" />
	</node>
	<node id="-379867" lat="61.3073388901" lon="10.0429805593">
		<tag k="name" v="Åbbortjønn" />
		<tag k="natural" v="water" />
		<tag k="ssr:stedsnr" v="118110" />
	</node>
	<node id="-381914" lat="61.1675861126" lon="10.0050666734">
		<tag k="alt_name" v="Heimtjernene" />
		<tag k="name" v="Heimtjørnet" />
		<tag k="natural" v="water" />
		<tag k="ssr:stedsnr" v="553430" />
	</node>
	<node id="-381910" lat="61.1892249981" lon="10.0834222149">
		<tag k="name" v="Briggebekken" />
		<tag k="ssr:stedsnr" v="553381" />
		<tag k="waterway" v="stream" />
	</node>
	<node id="-381908" lat="61.1844694478" lon="10.1002361132">
		<tag k="name" v="Storsvebekken" />
		<tag k="ssr:stedsnr" v="553371" />
		<tag k="waterway" v="stream" />
	</node>
	<node id="-381907" lat="61.4079250006" lon="9.75631388896">
		<tag k="alt_name" v="Svana, store;Svana" />
		<tag k="name" v="Store Svana" />
		<tag k="natural" v="water" />
		<tag k="ssr:stedsnr" v="553353" />
	</node>
	<node id="-381906" lat="61.4069194413" lon="9.7352250049">
		<tag k="name" v="Lebba" />
		<tag k="ssr:stedsnr" v="553352" />
		<tag k="waterway" v="river" />
	</node>
	<node id="-381903" lat="61.3686611083" lon="9.7794999922">
		<tag k="name" v="Svarttjønnet" />
		<tag k="natural" v="water" />
		<tag k="ssr:stedsnr" v="553339" />
	</node>
	<node id="-381901" lat="61.3840166647" lon="9.91515276855">
		<tag k="name" v="Gulsanden" />
		<tag k="natural" v="beach" />
		<tag k="ssr:stedsnr" v="553336" />
	</node>
	<node id="-381900" lat="61.3847083335" lon="9.93819166251">
		<tag k="name" v="Holtjønnlon" />
		<tag k="natural" v="water" />
		<tag k="ssr:stedsnr" v="553335" />
	</node>
	<node id="-379841" lat="61.3239888896" lon="9.89528056008">
		<tag k="name" v="Storbekken" />
		<tag k="ssr:stedsnr" v="110932" />
		<tag k="waterway" v="stream" />
	</node>
	<node id="-379840" lat="61.3712972267" lon="10.1597250007">
		<tag k="name" v="Goddalsbekken" />
		<tag k="ssr:stedsnr" v="110119" />
		<tag k="waterway" v="stream" />
	</node>
	<node id="-379836" lat="61.3125021328" lon="10.0636997385">
		<tag k="name" v="Veslesætervatnet" />
		<tag k="natural" v="water" />
		<tag k="ssr:stedsnr" v="251836" />
		<tag k="water" v="lake" />
	</node>
	<node id="-379832" lat="61.2641814244" lon="9.89323831072">
		<tag k="alt_name" v="Reinsjøen, nedre" />
		<tag k="name" v="Nedre Reinsjøen" />
		<tag k="natural" v="water" />
		<tag k="ssr:stedsnr" v="251776" />
		<tag k="water" v="lake" />
	</node>
	<node id="-379830" lat="61.2685833337" lon="9.9455833292">
		<tag k="name" v="Holbekken" />
		<tag k="ssr:stedsnr" v="251769" />
		<tag k="waterway" v="stream" />
	</node>
	<node id="-381876" lat="61.1648444449" lon="10.1334583267">
		<tag k="name" v="Kvernbekken" />
		<tag k="ssr:stedsnr" v="541433" />
		<tag k="waterway" v="stream" />
	</node>
	<node id="-379827" lat="61.282249997" lon="9.81349443616">
		<tag k="alt_name" v="Svabekktjønnet, øvre" />
		<tag k="name" v="Øvre Svabekktjønnet" />
		<tag k="natural" v="water" />
		<tag k="ssr:stedsnr" v="251756" />
	</node>
	<node id="-379824" lat="61.3399750012" lon="9.48359166535">
		<tag k="name" v="Vestmjøselva" />
		<tag k="ssr:stedsnr" v="251520" />
		<tag k="waterway" v="stream" />
	</node>
	<node id="-379822" lat="61.3272917366" lon="9.49212791312">
		<tag k="name" v="Vestmjøs" />
		<tag k="natural" v="water" />
		<tag k="ssr:stedsnr" v="251511" />
		<tag k="water" v="lake" />
	</node>
	<node id="-379820" lat="61.3183000031" lon="9.45690555583">
		<tag k="name" v="Storkvolvbekken" />
		<tag k="ssr:stedsnr" v="251506" />
		<tag k="waterway" v="stream" />
	</node>
	<node id="-381866" lat="61.2554222214" lon="9.82454722225">
		<tag k="name" v="Kjerringvika" />
		<tag k="natural" v="bay" />
		<tag k="ssr:stedsnr" v="537264" />
	</node>
	<node id="-379816" lat="61.3819416678" lon="9.51719721529">
		<tag k="name" v="Øvre Megrundstjønnet" />
		<tag k="natural" v="water" />
		<tag k="ssr:stedsnr" v="251465" />
	</node>
	<node id="-379814" lat="61.1404111117" lon="10.0262305569">
		<tag k="name" v="Kroktjønnet" />
		<tag k="natural" v="water" />
		<tag k="ssr:stedsnr" v="251097" />
	</node>
	<node id="-379811" lat="61.3629333336" lon="10.1417166731">
		<tag k="alt_name" v="Grautauga" />
		<tag k="name" v="Grautauget" />
		<tag k="natural" v="water" />
		<tag k="ssr:stedsnr" v="250974" />
	</node>
	<node id="-379809" lat="61.383508951" lon="9.99988730387">
		<tag k="name" v="Grasdalsvatnet" />
		<tag k="natural" v="water" />
		<tag k="ssr:stedsnr" v="250896" />
		<tag k="water" v="lake" />
	</node>
	<node id="-379808" lat="61.3827472266" lon="10.1305388889">
		<tag k="name" v="Kroktjønnet" />
		<tag k="natural" v="water" />
		<tag k="ssr:stedsnr" v="250872" />
	</node>
	<node id="-379806" lat="61.1877250025" lon="9.95619166486">
		<tag k="alt_name" v="Øvre Kroktjønnet" />
		<tag k="name" v="Kroktjønnet" />
		<tag k="natural" v="water" />
		<tag k="ssr:stedsnr" v="250719" />
	</node>
	<node id="-379802" lat="61.381791664" lon="9.94738611425">
		<tag k="alt_name" v="Holtjønnet;Holtjønnet, nordre" />
		<tag k="name" v="Nordre Holtjønnet" />
		<tag k="natural" v="water" />
		<tag k="ssr:stedsnr" v="250358" />
	</node>
	<node id="-379801" lat="61.3787805526" lon="9.78396388505">
		<tag k="name" v="Kringeltjønnet" />
		<tag k="natural" v="water" />
		<tag k="ssr:stedsnr" v="250346" />
	</node>
	<node id="-381845" lat="61.3220805523" lon="9.67699443898">
		<tag k="name" v="Puttervika" />
		<tag k="natural" v="bay" />
		<tag k="ssr:stedsnr" v="536453" />
	</node>
	<node id="-381844" lat="61.3352444431" lon="9.74195556457">
		<tag k="name" v="Finntjønnbekken" />
		<tag k="ssr:stedsnr" v="536445" />
		<tag k="waterway" v="stream" />
	</node>
	<node id="-379794" lat="61.2203722251" lon="9.55609444412">
		<tag k="name" v="Skruvdalsbekken" />
		<tag k="ssr:stedsnr" v="249997" />
		<tag k="waterway" v="stream" />
	</node>
	<node id="-379791" lat="61.2961355587" lon="9.63595200113">
		<tag k="name" v="Slivatnet" />
		<tag k="natural" v="water" />
		<tag k="ssr:stedsnr" v="69680" />
		<tag k="water" v="lake" />
	</node>
	<node id="-379787" lat="61.202566669" lon="10.1036444536">
		<tag k="name" v="Sagelva" />
		<tag k="ssr:stedsnr" v="69537" />
		<tag k="waterway" v="stream" />
	</node>
	<node id="-379786" lat="61.2296805552" lon="9.65718333506">
		<tag k="name" v="Leirbekken" />
		<tag k="ssr:stedsnr" v="68520" />
		<tag k="waterway" v="stream" />
	</node>
	<node id="-381828" lat="61.3266305587" lon="9.83861667278">
		<tag k="name" v="Sålåa" />
		<tag k="ssr:stedsnr" v="535543" />
		<tag k="waterway" v="stream" />
	</node>
	<node id="-379779" lat="61.1154083355" lon="10.1315361065">
		<tag k="name" v="Demmtjønnet" />
		<tag k="natural" v="water" />
		<tag k="ssr:stedsnr" v="68116" />
	</node>
	<node id="-380395" lat="61.2785999957" lon="9.61491110513">
		<tag k="name" v="Kosan" />
		<tag k="natural" v="bay" />
		<tag k="ssr:stedsnr" v="482614" />
	</node>
	<node id="-381815" lat="61.2753194437" lon="10.0294416663">
		<tag k="name" v="Geitrobekken" />
		<tag k="ssr:stedsnr" v="522669" />
		<tag k="waterway" v="stream" />
	</node>
	<node id="-381812" lat="61.2986583354" lon="9.99725833491">
		<tag k="name" v="Svarttjønnet" />
		<tag k="natural" v="water" />
		<tag k="ssr:stedsnr" v="433787" />
	</node>
	<node id="-379763" lat="61.1247138863" lon="10.0375694535">
		<tag k="name" v="Rosbekken" />
		<tag k="ssr:stedsnr" v="52880" />
		<tag k="waterway" v="stream" />
	</node>
	<node id="-381807" lat="61.374541669" lon="9.96576667367">
		<tag k="name" v="Næringstjønnet" />
		<tag k="natural" v="water" />
		<tag k="ssr:stedsnr" v="433676" />
	</node>
	<node id="-381804" lat="61.3565305531" lon="9.65200276851">
		<tag k="name" v="Tjuvholtjønnet" />
		<tag k="natural" v="water" />
		<tag k="ssr:stedsnr" v="433659" />
	</node>
	<node id="-379754" lat="61.3856900241" lon="9.90666516882">
		<tag k="name" v="Bennsjøen" />
		<tag k="natural" v="water" />
		<tag k="ssr:stedsnr" v="52517" />
		<tag k="water" v="lake" />
	</node>
	<node id="-381799" lat="61.2751861106" lon="9.5727499951">
		<tag k="name" v="Langråka" />
		<tag k="ssr:stedsnr" v="433265" />
		<tag k="waterway" v="stream" />
	</node>
	<node id="-381797" lat="61.2048888884" lon="10.0695611026">
		<tag k="name" v="Haukåa" />
		<tag k="ssr:stedsnr" v="433485" />
		<tag k="waterway" v="stream" />
	</node>
	<node id="-381796" lat="61.3324361147" lon="9.53435554696">
		<tag k="name" v="Nordåa" />
		<tag k="ssr:stedsnr" v="433481" />
		<tag k="waterway" v="river" />
	</node>
	<node id="-381793" lat="61.3117722257" lon="9.52299721756">
		<tag k="name" v="Risåtjønnet" />
		<tag k="natural" v="water" />
		<tag k="ssr:stedsnr" v="433472" />
	</node>
	<node id="-379739" lat="61.3294611073" lon="9.75536389112">
		<tag k="name" v="Krokbekken" />
		<tag k="ssr:stedsnr" v="51510" />
		<tag k="waterway" v="stream" />
	</node>
	<node id="-381780" lat="61.2036916672" lon="9.58397499199">
		<tag k="alt_name" v="Reinsjøen, nedre" />
		<tag k="name" v="Nedre Reinsjøen" />
		<tag k="natural" v="water" />
		<tag k="ssr:stedsnr" v="432970" />
		<tag k="water" v="lake" />
	</node>
	<node id="-382094" lat="61.2709222256" lon="9.96300278573">
		<tag k="name" v="Haukåa" />
		<tag k="ssr:stedsnr" v="615748" />
		<tag k="waterway" v="stream" />
	</node>
	<node id="-381777" lat="61.326075001" lon="10.0360000073">
		<tag k="name" v="Ulvtjønnet" />
		<tag k="natural" v="water" />
		<tag k="ssr:stedsnr" v="432943" />
	</node>
	<node id="-381773" lat="61.1964055576" lon="9.78988333324">
		<tag k="name" v="Butjønnet" />
		<tag k="natural" v="water" />
		<tag k="ssr:stedsnr" v="432490" />
	</node>
	<node id="-381771" lat="61.2418361072" lon="10.3589472237">
		<tag k="name" v="Blekketjønna" />
		<tag k="natural" v="water" />
		<tag k="ssr:stedsnr" v="432124" />
	</node>
	<node id="-379716" lat="61.2220999981" lon="9.98519166251">
		<tag k="name" v="Vålåtjønnet" />
		<tag k="natural" v="water" />
		<tag k="ssr:stedsnr" v="234242" />
	</node>
	<node id="-381763" lat="61.1295585122" lon="10.0407761999">
		<tag k="name" v="Mjogsjøen" />
		<tag k="natural" v="water" />
		<tag k="ssr:stedsnr" v="432093" />
		<tag k="water" v="lake" />
	</node>
	<node id="-382090" lat="61.2745555555" lon="9.89497500366">
		<tag k="name" v="Reinsåa" />
		<tag k="ssr:stedsnr" v="615700" />
		<tag k="waterway" v="stream" />
	</node>
	<node id="-379698" lat="61.2830972244" lon="10.0614694387">
		<tag k="name" v="Nigardsvika" />
		<tag k="natural" v="bay" />
		<tag k="ssr:stedsnr" v="233666" />
	</node>
	<node id="-379695" lat="61.2102944473" lon="9.82204721716">
		<tag k="name" v="Kalstadvika" />
		<tag k="natural" v="bay" />
		<tag k="ssr:stedsnr" v="233632" />
	</node>
	<node id="-379694" lat="61.2411805558" lon="9.84245277529">
		<tag k="name" v="Langodden" />
		<tag k="natural" v="cape" />
		<tag k="ssr:stedsnr" v="233624" />
	</node>
	<node id="-379686" lat="61.3776888895" lon="9.62862778301">
		<tag k="name" v="Sauvomma" />
		<tag k="place" v="islet" />
		<tag k="ssr:stedsnr" v="233485" />
	</node>
	<node id="-379685" lat="61.3767416634" lon="9.63132221638">
		<tag k="name" v="Solsidesundet" />
		<tag k="natural" v="strait" />
		<tag k="ssr:stedsnr" v="233482" />
	</node>
	<node id="-381729" lat="61.1434611077" lon="10.0471361182">
		<tag k="name" v="Øvre Nysætervatnet" />
		<tag k="natural" v="water" />
		<tag k="ssr:stedsnr" v="415905" />
	</node>
	<node id="-380422" lat="61.3397222237" lon="9.52514722955">
		<tag k="alt_name" v="Storlon" />
		<tag k="name" v="Storlonen" />
		<tag k="natural" v="water" />
		<tag k="ssr:stedsnr" v="676487" />
		<tag k="water" v="lake" />
	</node>
	<node id="-381725" lat="61.271941667" lon="10.1005388876">
		<tag k="name" v="Storslågåbekken" />
		<tag k="ssr:stedsnr" v="415839" />
		<tag k="waterway" v="stream" />
	</node>
	<node id="-381718" lat="61.3240944481" lon="9.74551943812">
		<tag k="name" v="Stubberudbekken" />
		<tag k="ssr:stedsnr" v="415501" />
		<tag k="waterway" v="stream" />
	</node>
	<node id="-379666" lat="61.336875" lon="10.0571194502">
		<tag k="name" v="Nisjua" />
		<tag k="ssr:stedsnr" v="232985" />
		<tag k="waterway" v="river" />
	</node>
	<node id="-379665" lat="61.3390833376" lon="9.99321666477">
		<tag k="name" v="Slåttbekken" />
		<tag k="ssr:stedsnr" v="232976" />
		<tag k="waterway" v="stream" />
	</node>
	<node id="-381712" lat="61.2835805566" lon="10.1822361168">
		<tag k="name" v="Toftengbekken" />
		<tag k="ssr:stedsnr" v="415158" />
		<tag k="waterway" v="stream" />
	</node>
	<node id="-379663" lat="61.3724777748" lon="9.64833611183">
		<tag k="name" v="Stranddalsvika" />
		<tag k="natural" v="bay" />
		<tag k="ssr:stedsnr" v="232915" />
	</node>
	<node id="-381700" lat="61.3423194407" lon="9.9764222159">
		<tag k="name" v="Musholet" />
		<tag k="place" v="locality" />
		<tag k="ssr:stedsnr" v="414976" />
	</node>
	<node id="-381694" lat="61.3035583337" lon="9.76674444015">
		<tag k="name" v="Kroktjønnbekken" />
		<tag k="ssr:stedsnr" v="414541" />
		<tag k="waterway" v="stream" />
	</node>
	<node id="-381692" lat="61.3851500004" lon="9.909794451">
		<tag k="name" v="Bennsjøholmen" />
		<tag k="place" v="islet" />
		<tag k="ssr:stedsnr" v="414254" />
	</node>
	<node id="-379639" lat="61.2931833297" lon="9.51455277777">
		<tag k="name" v="Vesltjønn" />
>>>>>>> e1d4bc35ff8a6074a6f2e91616a996b547c36f15
		<tag k="natural" v="water" />
		<tag k="ssr:stedsnr" v="9233" />
	</node>
<<<<<<< HEAD
	<node lat="61.12811944225242" lon="9.988313891075435" id="-26604">
		<tag k="name" v="Nordlibekken" />
		<tag k="ssr:stedsnr" v="675118" />
		<tag k="waterway" v="stream" />
	</node>
	<node lat="61.35326666529451" lon="9.827083339775001" id="-26612">
		<tag k="alt_name" v="Liatjønnet, nedre" />
		<tag k="name" v="Nedre Liatjønnet" />
		<tag k="natural" v="water" />
		<tag k="ssr:stedsnr" v="675702" />
	</node>
	<node lat="61.1555888900718" lon="9.802074999832996" id="-26613">
		<tag k="name" v="Grytbekken" />
		<tag k="ssr:stedsnr" v="675761" />
		<tag k="waterway" v="stream" />
	</node>
	<node lat="61.371719442990305" lon="9.538630554315988" id="-26615">
		<tag k="name" v="Pettertjønn" />
		<tag k="natural" v="water" />
		<tag k="ssr:stedsnr" v="676448" />
	</node>
	<node lat="61.339722223657404" lon="9.525147229552116" id="-26616">
		<tag k="alt_name" v="Storlon" />
		<tag k="name" v="Storlonen" />
		<tag k="natural" v="water" />
		<tag k="ssr:stedsnr" v="676487" />
		<tag k="water" v="lake" />
	</node>
	<node lat="61.332336111902464" lon="9.45975555581633" id="-26617">
		<tag k="name" v="Gråvietjønnbekken" />
		<tag k="ssr:stedsnr" v="676491" />
		<tag k="waterway" v="stream" />
	</node>
	<node lat="61.3911805543228" lon="9.78281666155865" id="-26631">
		<tag k="name" v="Magnhildtjønnet" />
		<tag k="natural" v="water" />
		<tag k="ssr:stedsnr" v="899125" />
	</node>
	<node lat="61.365322219841836" lon="10.124075004844041" id="-26633">
		<tag k="name" v="Storbekken" />
		<tag k="ssr:stedsnr" v="899136" />
		<tag k="waterway" v="stream" />
	</node>
	<node lat="61.33217222180686" lon="9.75856667373546" id="-26635">
		<tag k="name" v="Krokdammen" />
		<tag k="ssr:stedsnr" v="718471" />
		<tag k="waterway" v="dam" />
	</node>
	<node lat="61.394024996553384" lon="9.903330559067621" id="-26655">
		<tag k="name" v="Gåsåvika" />
		<tag k="natural" v="bay" />
		<tag k="ssr:stedsnr" v="899648" />
	</node>
	<node lat="61.375238886988164" lon="10.006302769897033" id="-26669">
		<tag k="name" v="Massingtjønnbekken" />
		<tag k="ssr:stedsnr" v="725790" />
		<tag k="waterway" v="stream" />
	</node>
	<node lat="61.36785277801791" lon="9.736852781615267" id="-26672">
		<tag k="name" v="Råttengstjønnet" />
		<tag k="natural" v="water" />
		<tag k="ssr:stedsnr" v="900886" />
	</node>
	<node lat="61.382344440227" lon="9.637066661243878" id="-26674">
		<tag k="name" v="Veslgardsbekken" />
		<tag k="ssr:stedsnr" v="900947" />
		<tag k="waterway" v="stream" />
	</node>
	<node lat="61.281052779349864" lon="10.093002782270315" id="-26684">
		<tag k="name" v="Svarttjønn" />
		<tag k="natural" v="water" />
		<tag k="ssr:stedsnr" v="901635" />
	</node>
	<node lat="61.208163886591855" lon="9.877824994571451" id="-26691">
		<tag k="name" v="Revslonen" />
		<tag k="natural" v="water" />
		<tag k="ssr:stedsnr" v="735504" />
	</node>
	<node lat="61.25727500078456" lon="10.115477775397393" id="-26700">
		<tag k="name" v="Seterbekken" />
		<tag k="ssr:stedsnr" v="901965" />
		<tag k="waterway" v="stream" />
	</node>
	<node lat="61.22499722027175" lon="9.556269440722799" id="-26703">
		<tag k="alt_name" v="Landlon" />
		<tag k="name" v="Langlonen" />
		<tag k="natural" v="water" />
		<tag k="ssr:stedsnr" v="735993" />
		<tag k="water" v="lake" />
	</node>
	<node lat="61.300658332564225" lon="9.382872231322834" id="-26724">
		<tag k="name" v="Massingtjønn" />
		<tag k="natural" v="water" />
		<tag k="ssr:stedsnr" v="737439" />
	</node>
	<node lat="61.206208333425415" lon="9.822297218681252" id="-26726">
		<tag k="name" v="Sundmannen" />
		<tag k="place" v="islet" />
		<tag k="ssr:stedsnr" v="737463" />
	</node>
	<node lat="61.14844444485075" lon="10.190350000726855" id="-26735">
		<tag k="name" v="Bergomsbekken" />
		<tag k="ssr:stedsnr" v="902839" />
		<tag k="waterway" v="stream" />
	</node>
	<node lat="61.14174721797827" lon="9.965799994677429" id="-26742">
		<tag k="fixme" v="multiple name tags, choose one and add the other to alt_name" />
		<tag k="name" v="Dokkfløyvatnet;Dokkfløy" />
		<tag k="natural" v="water" />
		<tag k="ssr:stedsnr" v="918762" />
		<tag k="water" v="lake" />
	</node>
	<node lat="61.34936111504261" lon="9.71811388890084" id="-26745">
		<tag k="name" v="Sprangbekken" />
		<tag k="ssr:stedsnr" v="908341" />
		<tag k="waterway" v="stream" />
	</node>
	<node lat="61.36818611254623" lon="9.65264165959453" id="-26758">
		<tag k="name" v="Svartvika" />
		<tag k="natural" v="bay" />
		<tag k="ssr:stedsnr" v="778951" />
	</node>
	<node lat="61.36246944742312" lon="9.684694449981246" id="-26763">
		<tag k="name" v="Rostjønnet" />
		<tag k="natural" v="water" />
		<tag k="ssr:stedsnr" v="778900" />
	</node>
	<node lat="61.31819721971399" lon="9.692600008642316" id="-26773">
		<tag k="name" v="Storholmen" />
		<tag k="place" v="islet" />
		<tag k="ssr:stedsnr" v="779464" />
	</node>
	<node lat="61.2219833303128" lon="9.929158340575665" id="-26777">
		<tag k="name" v="Tronåbekken" />
		<tag k="ssr:stedsnr" v="780200" />
		<tag k="waterway" v="stream" />
	</node>
	<node lat="61.18206388717437" lon="9.829827782286616" id="-26792">
		<tag k="name" v="Ormtjønnet" />
		<tag k="natural" v="water" />
		<tag k="ssr:stedsnr" v="796753" />
	</node>
	<node lat="61.164991663693755" lon="9.951658330090938" id="-26795">
		<tag k="name" v="Kittilbubekken" />
		<tag k="ssr:stedsnr" v="796764" />
		<tag k="waterway" v="stream" />
	</node>
	<node lat="61.33198611045062" lon="9.559524991513594" id="-26801">
		<tag k="name" v="Leppbekken" />
		<tag k="ssr:stedsnr" v="797493" />
		<tag k="waterway" v="stream" />
	</node>
	<node lat="61.13551666729356" lon="9.939077786439015" id="-26802">
		<tag k="name" v="Mannstadbekken" />
		<tag k="ssr:stedsnr" v="797708" />
		<tag k="waterway" v="stream" />
	</node>
	<node lat="61.30596666737149" lon="9.817491661667086" id="-26803">
		<tag k="name" v="Brattbekken" />
		<tag k="ssr:stedsnr" v="797745" />
		<tag k="waterway" v="stream" />
	</node>
	<node lat="61.311011107778626" lon="9.808436104206107" id="-26807">
		<tag k="name" v="Svabekken" />
		<tag k="ssr:stedsnr" v="797653" />
		<tag k="waterway" v="stream" />
	</node>
	<node lat="61.34830277425977" lon="9.95813611955157" id="-26808">
		<tag k="name" v="Musa" />
		<tag k="ssr:stedsnr" v="797701" />
		<tag k="waterway" v="stream" />
	</node>
	<node lat="61.229677773873966" lon="9.54176667286303" id="-26819">
		<tag k="alt_name" v="Skytterbuelva" />
		<tag k="name" v="Fjelldokka" />
		<tag k="ssr:stedsnr" v="917994" />
		<tag k="waterway" v="river" />
	</node>
	<node lat="61.20151348074135" lon="9.973715496631648" id="-26822">
		<tag k="loc_name" v="Roppatjønnan" />
		<tag k="name" v="Ropptjønnan" />
		<tag k="natural" v="water" />
		<tag k="ssr:stedsnr" v="811430" />
		<tag k="water" v="lake" />
	</node>
	<node lat="61.16365000042524" lon="10.148227783822493" id="-26828">
		<tag k="name" v="Augga" />
		<tag k="ssr:stedsnr" v="918477" />
		<tag k="waterway" v="river" />
	</node>
	<node lat="61.20406944043284" lon="10.188630549431991" id="-26832">
		<tag k="name" v="Igletjønn" />
		<tag k="natural" v="water" />
		<tag k="ssr:stedsnr" v="918535" />
	</node>
	<node lat="61.2345833349633" lon="9.938541657843924" id="-26834">
		<tag k="name" v="Haukådalstjønnet" />
		<tag k="natural" v="water" />
		<tag k="ssr:stedsnr" v="918569" />
	</node>
	<node lat="61.21243888620137" lon="9.916341674378785" id="-26836">
		<tag k="name" v="Hynna" />
		<tag k="ssr:stedsnr" v="918580" />
		<tag k="waterway" v="river" />
	</node>
	<node lat="61.21781944545406" lon="9.742800000794649" id="-26838">
		<tag k="alt_name" v="Karsjøen" />
		<tag k="name" v="Karssjøen" />
		<tag k="natural" v="water" />
		<tag k="ssr:stedsnr" v="918583" />
	</node>
	<node lat="61.33743888994735" lon="10.062166675730532" id="-26852">
		<tag k="name" v="Sagfossen" />
		<tag k="ssr:stedsnr" v="839027" />
		<tag k="waterway" v="rapids" />
	</node>
	<node lat="61.28971412241158" lon="10.070947459870723" id="-26861">
		<tag k="name" v="Setervika" />
		<tag k="natural" v="bay" />
		<tag k="ssr:stedsnr" v="840626" />
	</node>
	<node lat="61.19259166238223" lon="10.113322224599294" id="-26868">
		<tag k="name" v="Vårseterbekken" />
		<tag k="ssr:stedsnr" v="841027" />
		<tag k="waterway" v="stream" />
	</node>
	<node lat="61.294230551195206" lon="9.589072226868057" id="-26882">
		<tag k="name" v="Nistubulandet" />
		<tag k="natural" v="beach" />
		<tag k="ssr:stedsnr" v="847625" />
	</node>
	<node lat="61.30961111453758" lon="9.592588897647088" id="-26884">
		<tag k="name" v="Raubekken" />
		<tag k="ssr:stedsnr" v="847629" />
		<tag k="waterway" v="stream" />
	</node>
	<node lat="61.12464832631384" lon="10.094195115603096" id="-26885">
		<tag k="name" v="Hindalssjøen" />
		<tag k="natural" v="water" />
		<tag k="ssr:stedsnr" v="857110" />
		<tag k="water" v="lake" />
	</node>
	<node lat="61.225491666644395" lon="9.611958324615669" id="-26892">
		<tag k="name" v="Kroklon" />
		<tag k="natural" v="water" />
		<tag k="ssr:stedsnr" v="857515" />
		<tag k="water" v="lake" />
	</node>
	<node lat="61.29859444621633" lon="9.640222219453612" id="-26897">
		<tag k="name" v="Sliputten" />
		<tag k="natural" v="water" />
		<tag k="ssr:stedsnr" v="858669" />
	</node>
	<node lat="61.30880833000462" lon="9.723275002999259" id="-26899">
		<tag k="name" v="Moatjønnet" />
		<tag k="natural" v="water" />
		<tag k="ssr:stedsnr" v="858676" />
	</node>
	<node lat="61.35879999819588" lon="10.010652773114112" id="-26909">
		<tag k="name" v="Nisjuvatnet" />
		<tag k="natural" v="water" />
		<tag k="ssr:stedsnr" v="858973" />
		<tag k="water" v="lake" />
	</node>
	<node lat="61.350122225713214" lon="10.18936388767796" id="-26913">
		<tag k="name" v="Jarudtjønnet" />
		<tag k="natural" v="water" />
		<tag k="ssr:stedsnr" v="899113" />
	</node>
	<node lat="61.40107496914367" lon="9.770020957397886" id="-26914">
		<tag k="name" v="Midtengstjønnet" />
		<tag k="natural" v="water" />
		<tag k="ssr:stedsnr" v="899116" />
	</node>
	<node lat="61.21666666979556" lon="9.805958331353736" id="-26935">
		<tag k="name" v="Hestsundet" />
		<tag k="natural" v="strait" />
		<tag k="ssr:stedsnr" v="901604" />
	</node>
	<node lat="61.367736110800415" lon="10.010700001376195" id="-26943">
		<tag k="name" v="Nedre Nosetjønnet" />
		<tag k="natural" v="water" />
		<tag k="ssr:stedsnr" v="907853" />
	</node>
	<node lat="61.33448888650907" lon="9.953375001140184" id="-26961">
		<tag k="name" v="Gryta" />
		<tag k="ssr:stedsnr" v="918692" />
		<tag k="waterway" v="stream" />
	</node>
	<node lat="61.3853291138863" lon="10.031299368993174" id="-26962">
		<tag k="name" v="Øvre Massingtjønnet" />
		<tag k="natural" v="water" />
		<tag k="ssr:stedsnr" v="918908" />
	</node>
	<node lat="61.25887777691055" lon="9.740358326949544" id="-26964">
		<tag k="alt_name" v="Ommundtjønnet" />
		<tag k="name" v="Omundtjønnet" />
		<tag k="natural" v="water" />
		<tag k="ssr:stedsnr" v="919719" />
	</node>
	<node lat="61.377169441718856" lon="9.882075003912163" id="-26974">
		<tag k="name" v="Tverråosen" />
		<tag k="natural" v="bay" />
		<tag k="ssr:stedsnr" v="960406" />
	</node>
	<node lat="61.23122778107038" lon="9.833172230931416" id="-26988">
		<tag k="name" v="Vesledunglungen" />
		<tag k="natural" v="water" />
		<tag k="ssr:stedsnr" v="961588" />
	</node>
	<node lat="61.248883565258424" lon="9.847404254278871" id="-26989">
		<tag k="name" v="Gulsandtjønnene" />
		<tag k="natural" v="water" />
		<tag k="ssr:stedsnr" v="961595" />
		<tag k="water" v="lake" />
	</node>
	<node lat="61.37070833434838" lon="9.758227775978789" id="-26993">
		<tag k="name" v="Elgslett-tjønnet" />
		<tag k="natural" v="water" />
		<tag k="ssr:stedsnr" v="961905" />
	</node>
	<node lat="61.34528497561288" lon="9.807442917243657" id="-27024">
		<tag k="name" v="Åstjønnet" />
		<tag k="natural" v="water" />
		<tag k="ssr:stedsnr" v="979373" />
	</node>
	<node lat="61.230141664298834" lon="9.710024996119548" id="-27057">
		<tag k="fixme" v="multiple name tags, choose one and add the other to alt_name" />
		<tag k="name" v="Kaldvassbekken;Veslebekken" />
		<tag k="ssr:stedsnr" v="7493" />
		<tag k="waterway" v="stream" />
	</node>
	<node lat="61.37326111469724" lon="9.696375008566942" id="-27064">
		<tag k="name" v="Trontjønna" />
		<tag k="natural" v="water" />
		<tag k="ssr:stedsnr" v="8374" />
	</node>
	<node lat="61.29182499643419" lon="10.120100007220987" id="-27087">
		<tag k="name" v="Ulva" />
		<tag k="ssr:stedsnr" v="10794" />
		<tag k="waterway" v="stream" />
	</node>
	<node lat="61.17886111278011" lon="9.872661117431251" id="-27091">
		<tag k="name" v="Holsfossen" />
		<tag k="natural" v="waterfall" />
		<tag k="ssr:stedsnr" v="38374" />
	</node>
	<node lat="61.38473888573186" lon="9.789769447675065" id="-27096">
		<tag k="name" v="Rustadbekken" />
		<tag k="ssr:stedsnr" v="49137" />
		<tag k="waterway" v="stream" />
	</node>
	<node lat="61.374558331335706" lon="9.917458333667268" id="-27099">
		<tag k="name" v="Ukstjønnet" />
		<tag k="natural" v="water" />
		<tag k="ssr:stedsnr" v="49445" />
	</node>
	<node lat="61.267680556781" lon="10.114466666674335" id="-27127">
		<tag k="name" v="Grossbakkbekken" />
		<tag k="ssr:stedsnr" v="51835" />
		<tag k="waterway" v="stream" />
	</node>
	<node lat="61.12471388627739" lon="10.037569453490581" id="-27139">
		<tag k="name" v="Rosbekken" />
		<tag k="ssr:stedsnr" v="52880" />
		<tag k="waterway" v="stream" />
	</node>
	<node lat="61.11540833554283" lon="10.131536106493007" id="-27152">
		<tag k="name" v="Demmtjønnet" />
		<tag k="natural" v="water" />
		<tag k="ssr:stedsnr" v="68116" />
	</node>
	<node lat="61.20102873013502" lon="9.930437410467992" id="-27154">
		<tag k="alt_name" v="Glåmen, vle" />
		<tag k="name" v="Vesle Glåmen" />
		<tag k="natural" v="water" />
		<tag k="ssr:stedsnr" v="68741" />
		<tag k="water" v="lake" />
	</node>
	<node lat="61.1901527806194" lon="9.905130558764021" id="-27156">
		<tag k="alt_name" v="Nordre Valdrestjønn;Valdrestjønnet, nordre" />
		<tag k="name" v="Nordre Valdrestjønnet" />
		<tag k="natural" v="water" />
		<tag k="ssr:stedsnr" v="68746" />
	</node>
	<node lat="61.182841666619225" lon="9.677866668706818" id="-27158">
		<tag k="name" v="Myrbekken" />
		<tag k="ssr:stedsnr" v="68751" />
		<tag k="waterway" v="stream" />
	</node>
	<node lat="61.24853055576644" lon="10.306791660065695" id="-27159">
		<tag k="name" v="Skardtjønnet" />
		<tag k="natural" v="water" />
		<tag k="ssr:stedsnr" v="68253" />
	</node>
	<node lat="61.170894444859115" lon="10.212205552133968" id="-27168">
		<tag k="alt_name" v="Hesttjønnsbekken" />
		<tag k="name" v="Hesttjønnbekken" />
		<tag k="ssr:stedsnr" v="68455" />
		<tag k="waterway" v="stream" />
	</node>
	<node lat="61.36079166409461" lon="9.942566659319471" id="-27173">
		<tag k="name" v="Jonstjønnet" />
		<tag k="natural" v="water" />
		<tag k="ssr:stedsnr" v="68670" />
	</node>
	<node lat="61.37094417827046" lon="9.922209995086217" id="-27174">
		<tag k="alt_name" v="Tritjønnene" />
		<tag k="name" v="Trivatna" />
		<tag k="natural" v="water" />
		<tag k="ssr:stedsnr" v="68671" />
		<tag k="water" v="lake" />
	</node>
	<node lat="61.32057777739312" lon="10.071197223038537" id="-27176">
		<tag k="name" v="Svarttjønnet" />
		<tag k="natural" v="water" />
		<tag k="ssr:stedsnr" v="68942" />
	</node>
	<node lat="61.24501944148136" lon="9.768744437730467" id="-27183">
		<tag k="name" v="Gryta" />
		<tag k="ssr:stedsnr" v="69596" />
		<tag k="waterway" v="stream" />
	</node>
	<node lat="61.28716111035477" lon="9.755800006507492" id="-27187">
		<tag k="name" v="Tossentjønnet" />
		<tag k="natural" v="water" />
		<tag k="ssr:stedsnr" v="69759" />
	</node>
	<node lat="61.2895416691151" lon="9.67412778653224" id="-27188">
		<tag k="name" v="Gryttjønnet" />
		<tag k="natural" v="water" />
		<tag k="ssr:stedsnr" v="69760" />
	</node>
	<node lat="61.270113889531665" lon="9.922480558200862" id="-27189">
		<tag k="name" v="Svarttjønna" />
		<tag k="natural" v="water" />
		<tag k="ssr:stedsnr" v="69767" />
		<tag k="water" v="lake" />
	</node>
	<node lat="61.32398888964435" lon="9.895280560083078" id="-27202">
		<tag k="name" v="Storbekken" />
		<tag k="ssr:stedsnr" v="110932" />
		<tag k="waterway" v="stream" />
	</node>
	<node lat="61.38533055310957" lon="9.588108338143076" id="-27221">
		<tag k="name" v="Sofierudbekken" />
		<tag k="ssr:stedsnr" v="111966" />
		<tag k="waterway" v="stream" />
	</node>
	<node lat="61.34988889295995" lon="9.662038880938992" id="-27228">
		<tag k="name" v="Sekkeslettbekken" />
		<tag k="ssr:stedsnr" v="112363" />
		<tag k="waterway" v="stream" />
	</node>
	<node lat="61.37475833617676" lon="9.638822225603697" id="-27232">
		<tag k="name" v="Furuholmen" />
		<tag k="place" v="islet" />
		<tag k="ssr:stedsnr" v="112484" />
	</node>
	<node lat="61.24739167030257" lon="10.244016657716926" id="-27250">
		<tag k="name" v="Svartbekken" />
		<tag k="ssr:stedsnr" v="115966" />
		<tag k="waterway" v="stream" />
	</node>
	<node lat="61.28046110956241" lon="9.581930556200588" id="-27257">
		<tag k="name" v="Studenten" />
		<tag k="place" v="islet" />
		<tag k="ssr:stedsnr" v="118583" />
	</node>
	<node lat="61.2469901861971" lon="10.32865744754751" id="-27267">
		<tag k="alt_name" v="Svarttjønna" />
		<tag k="name" v="Svarttjønnet" />
		<tag k="natural" v="water" />
		<tag k="ssr:stedsnr" v="128224" />
		<tag k="water" v="lake" />
	</node>
	<node lat="61.21633333612303" lon="10.247583329692299" id="-27275">
		<tag k="loc_name" v="Veslelva;Vesleelva" />
		<tag k="name" v="Gausa" />
		<tag k="ssr:stedsnr" v="129479" />
		<tag k="waterway" v="river" />
	</node>
	<node lat="61.30832652127598" lon="9.64360139936738" id="-27279">
		<tag k="alt_name" v="Ongsjøen, øvre" />
		<tag k="name" v="Øvre Ongsjøen" />
		<tag k="natural" v="water" />
		<tag k="ssr:stedsnr" v="129643" />
		<tag k="water" v="lake" />
	</node>
	<node lat="61.308186109165675" lon="9.852724999880927" id="-27280">
		<tag k="name" v="Grinjua" />
		<tag k="ssr:stedsnr" v="129647" />
		<tag k="waterway" v="stream" />
	</node>
	<node lat="61.36445000140396" lon="9.600936114021488" id="-27283">
		<tag k="alt_name" v="Sålåtjønnet" />
		<tag k="name" v="Solåtjønnet" />
		<tag k="natural" v="water" />
		<tag k="ssr:stedsnr" v="129678" />
	</node>
	<node lat="61.33904166328639" lon="9.737316667766455" id="-27284">
		<tag k="name" v="Finntjønnet" />
		<tag k="natural" v="water" />
		<tag k="ssr:stedsnr" v="129698" />
	</node>
	<node lat="61.33213611317967" lon="9.887100009198928" id="-27286">
		<tag k="name" v="Benna" />
		<tag k="ssr:stedsnr" v="129623" />
		<tag k="waterway" v="river" />
	</node>
	<node lat="61.36708333290073" lon="10.137774993123099" id="-27293">
		<tag k="name" v="Ronesodden" />
		<tag k="natural" v="cape" />
		<tag k="ssr:stedsnr" v="170138" />
	</node>
	<node lat="61.34408610987945" lon="9.823419447370224" id="-27297">
		<tag k="name" v="Bakkomsflågån" />
		<tag k="natural" v="water" />
		<tag k="ssr:stedsnr" v="170646" />
	</node>
	<node lat="61.40747499753956" lon="9.548330561525725" id="-27301">
		<tag k="name" v="Nordre Vollbekken" />
		<tag k="ssr:stedsnr" v="170917" />
		<tag k="waterway" v="stream" />
	</node>
	<node lat="61.40558333711994" lon="9.819344452788211" id="-27314">
		<tag k="name" v="Tritjønn" />
		<tag k="natural" v="water" />
		<tag k="ssr:stedsnr" v="171825" />
	</node>
	<node lat="61.222019444984284" lon="9.779505554414008" id="-27326">
		<tag k="name" v="Tronoa" />
		<tag k="place" v="islet" />
		<tag k="ssr:stedsnr" v="172619" />
	</node>
	<node lat="61.37590555598005" lon="9.649172216122597" id="-27330">
		<tag k="name" v="Strandbekken" />
		<tag k="ssr:stedsnr" v="172945" />
		<tag k="waterway" v="stream" />
	</node>
	<node lat="61.13546111259908" lon="10.087058324618184" id="-27339">
		<tag k="name" v="Toftbekken" />
		<tag k="ssr:stedsnr" v="173886" />
		<tag k="waterway" v="stream" />
	</node>
	<node lat="61.34679166232625" lon="10.103183341300648" id="-27346">
		<tag k="name" v="Vaskeribekken" />
		<tag k="ssr:stedsnr" v="178035" />
		<tag k="waterway" v="stream" />
	</node>
	<node lat="61.21558888853928" lon="9.666641660637222" id="-27355">
		<tag k="alt_name" v="Grønntjønnet" />
		<tag k="name" v="Grøntjønnet" />
		<tag k="natural" v="water" />
		<tag k="ssr:stedsnr" v="189469" />
	</node>
	<node lat="61.32138332897102" lon="9.402663888614349" id="-27367">
		<tag k="name" v="Raudgrovtjønn" />
		<tag k="natural" v="water" />
		<tag k="ssr:stedsnr" v="190494" />
	</node>
	<node lat="61.338491665857816" lon="9.579236116691916" id="-27369">
		<tag k="alt_name" v="Leppvatnet, øvre" />
		<tag k="name" v="Øvre Leppvatnet" />
		<tag k="natural" v="water" />
		<tag k="ssr:stedsnr" v="190499" />
		<tag k="water" v="lake" />
	</node>
	<node lat="61.30195833439877" lon="9.65031388034516" id="-27374">
		<tag k="alt_name" v="Ongsjøen, vesle" />
		<tag k="name" v="Vesle Ongsjøen" />
		<tag k="natural" v="water" />
		<tag k="ssr:stedsnr" v="190650" />
	</node>
	<node lat="61.17768003407189" lon="9.78534283737249" id="-27377">
		<tag k="name" v="Snæra" />
		<tag k="natural" v="water" />
		<tag k="ssr:stedsnr" v="190744" />
		<tag k="water" v="lake" />
	</node>
	<node lat="61.15830555690799" lon="9.968333325360138" id="-27379">
		<tag k="name" v="Holbekken" />
		<tag k="ssr:stedsnr" v="190752" />
		<tag k="waterway" v="stream" />
	</node>
	<node lat="61.37411111085282" lon="10.013022227241505" id="-27385">
		<tag k="name" v="Nedre Massingtjønnet" />
		<tag k="natural" v="water" />
		<tag k="ssr:stedsnr" v="190986" />
	</node>
	<node lat="61.37936396569954" lon="10.047063831836944" id="-27386">
		<tag k="name" v="Svarttjønnet" />
		<tag k="natural" v="water" />
		<tag k="ssr:stedsnr" v="190988" />
	</node>
	<node lat="61.27869444023903" lon="9.583894452916725" id="-27388">
		<tag k="alt_name" v="Revsjøen, nedre" />
		<tag k="name" v="Nedre Revsjøen" />
		<tag k="natural" v="water" />
		<tag k="ssr:stedsnr" v="191239" />
		<tag k="water" v="lake" />
	</node>
	<node lat="61.410833332852526" lon="9.548069447879602" id="-27408">
		<tag k="name" v="Vesleholmen" />
		<tag k="place" v="islet" />
		<tag k="ssr:stedsnr" v="292899" />
	</node>
	<node lat="61.33622499563292" lon="9.890994451350322" id="-27417">
		<tag k="name" v="Haustseterbekken" />
		<tag k="ssr:stedsnr" v="293960" />
		<tag k="waterway" v="stream" />
	</node>
	<node lat="61.376202776645165" lon="9.631647223050633" id="-27428">
		<tag k="name" v="Kariholmen" />
		<tag k="place" v="islet" />
		<tag k="ssr:stedsnr" v="294463" />
	</node>
	<node lat="61.14022778180043" lon="10.036536110386512" id="-27432">
		<tag k="name" v="Nyseterbekken" />
		<tag k="ssr:stedsnr" v="294886" />
		<tag k="waterway" v="stream" />
	</node>
	<node lat="61.15520832979956" lon="10.046652779155675" id="-27437">
		<tag k="name" v="Stortjønn" />
		<tag k="natural" v="water" />
		<tag k="ssr:stedsnr" v="294924" />
	</node>
	<node lat="61.153591669303204" lon="10.036250007896697" id="-27438">
		<tag k="alt_name" v="Staumsseterbekken" />
		<tag k="name" v="Stadumsseterbekken" />
		<tag k="ssr:stedsnr" v="294927" />
		<tag k="waterway" v="stream" />
	</node>
	<node lat="61.12832221803703" lon="10.04245833449444" id="-27444">
		<tag k="name" v="Sandodden" />
		<tag k="natural" v="cape" />
		<tag k="ssr:stedsnr" v="295888" />
	</node>
	<node lat="61.274444448168154" lon="9.586536115739067" id="-27451">
		<tag k="alt_name" v="Liumsetervika" />
		<tag k="name" v="Liomsetervika" />
		<tag k="natural" v="bay" />
		<tag k="ssr:stedsnr" v="300625" />
	</node>
	<node lat="61.15418332961429" lon="10.145413893118143" id="-27452">
		<tag k="name" v="Storbekken" />
		<tag k="ssr:stedsnr" v="299449" />
		<tag k="waterway" v="stream" />
	</node>
	<node lat="61.19576388959846" lon="9.565297216156445" id="-27468">
		<tag k="name" v="Nevabekken" />
		<tag k="ssr:stedsnr" v="310950" />
		<tag k="waterway" v="stream" />
	</node>
	<node lat="61.37699444429938" lon="9.984838897566638" id="-27475">
		<tag k="fixme" v="multiple name tags, choose one and add the other to alt_name" />
		<tag k="name" v="Fjellåa;Grasdalselva" />
		<tag k="ssr:stedsnr" v="311897" />
		<tag k="waterway" v="stream" />
	</node>
	<node lat="61.238544440808134" lon="9.733358329178241" id="-27479">
		<tag k="name" v="Revåa" />
		<tag k="ssr:stedsnr" v="311543" />
		<tag k="waterway" v="river" />
	</node>
	<node lat="61.21907777848867" lon="9.748675009290144" id="-27483">
		<tag k="name" v="Dokkelva" />
		<tag k="ssr:stedsnr" v="311568" />
		<tag k="waterway" v="river" />
	</node>
	<node lat="61.3561388873942" lon="9.831100007307061" id="-27485">
		<tag k="name" v="Svintjønnet" />
		<tag k="natural" v="water" />
		<tag k="ssr:stedsnr" v="311730" />
	</node>
	<node lat="61.34994893867022" lon="9.922575017265448" id="-27486">
		<tag k="alt_name" v="Firtjønnene" />
		<tag k="name" v="Firtjønna" />
		<tag k="natural" v="water" />
		<tag k="ssr:stedsnr" v="311731" />
		<tag k="water" v="lake" />
	</node>
	<node lat="61.27671944718495" lon="9.934483330881598" id="-27493">
		<tag k="name" v="Åbortjønnet" />
		<tag k="natural" v="water" />
		<tag k="ssr:stedsnr" v="312699" />
	</node>
	<node lat="61.39129999606147" lon="9.908458337638386" id="-27507">
		<tag k="name" v="Leikvamsvika" />
		<tag k="natural" v="bay" />
		<tag k="ssr:stedsnr" v="352624" />
	</node>
	<node lat="61.3747611108367" lon="9.719408324077332" id="-27521">
		<tag k="name" v="Storbekken" />
		<tag k="ssr:stedsnr" v="354124" />
		<tag k="waterway" v="stream" />
	</node>
	<node lat="61.375688887918066" lon="9.632197219197915" id="-27524">
		<tag k="name" v="Baksidesundet" />
		<tag k="natural" v="strait" />
		<tag k="ssr:stedsnr" v="354460" />
	</node>
	<node lat="61.38081388816765" lon="9.588305559216609" id="-27540">
		<tag k="name" v="Maribubekken" />
		<tag k="ssr:stedsnr" v="354965" />
		<tag k="waterway" v="stream" />
	</node>
	<node lat="61.388052774137485" lon="9.602558334853352" id="-27541">
		<tag k="name" v="Langodden" />
		<tag k="natural" v="cape" />
		<tag k="ssr:stedsnr" v="354969" />
	</node>
	<node lat="61.14960000406666" lon="10.055255561881026" id="-27554">
		<tag k="name" v="Sneiråktjønnet" />
		<tag k="natural" v="water" />
		<tag k="ssr:stedsnr" v="355898" />
	</node>
	<node lat="61.25402777667517" lon="9.957372218756504" id="-27555">
		<tag k="name" v="Blesterbekken" />
		<tag k="ssr:stedsnr" v="355975" />
		<tag k="waterway" v="stream" />
	</node>
	<node lat="61.21506944059545" lon="10.255644451271278" id="-27557">
		<tag k="name" v="Fabrikkdammen" />
		<tag k="ssr:stedsnr" v="358162" />
		<tag k="waterway" v="dam" />
	</node>
	<node lat="61.30733063955145" lon="9.559767621656912" id="-27564">
		<tag k="name" v="Nordåosen" />
		<tag k="natural" v="bay" />
		<tag k="ssr:stedsnr" v="361642" />
	</node>
	<node lat="61.122924997281444" lon="10.027388888154878" id="-27568">
		<tag k="name" v="Rostjønna" />
		<tag k="natural" v="water" />
		<tag k="ssr:stedsnr" v="371090" />
	</node>
	<node lat="61.38815000085764" lon="9.809600001390438" id="-27573">
		<tag k="name" v="Kleivbekken" />
		<tag k="ssr:stedsnr" v="371336" />
		<tag k="waterway" v="stream" />
	</node>
	<node lat="61.2371388911203" lon="9.845361118160449" id="-27575">
		<tag k="name" v="Hornsjøen" />
		<tag k="natural" v="water" />
		<tag k="ssr:stedsnr" v="371489" />
		<tag k="water" v="lake" />
	</node>
	<node lat="61.15285555457486" lon="10.022066669237134" id="-27578">
		<tag k="name" v="Måråbeittjønnet" />
		<tag k="natural" v="water" />
		<tag k="ssr:stedsnr" v="372080" />
	</node>
	<node lat="61.28730277341439" lon="9.487830549857339" id="-27579">
		<tag k="name" v="Nonstjønnan" />
		<tag k="natural" v="water" />
		<tag k="ssr:stedsnr" v="372292" />
		<tag k="water" v="lake" />
	</node>
	<node lat="61.190185920770226" lon="9.5868911739141" id="-27584">
		<tag k="alt_name" v="Reinsjøen, øvre" />
		<tag k="name" v="Øvre Reinsjøen" />
		<tag k="natural" v="water" />
		<tag k="ssr:stedsnr" v="371955" />
		<tag k="water" v="lake" />
	</node>
	<node lat="61.32396666746815" lon="10.179644444708364" id="-27587">
		<tag k="name" v="Svartbekken" />
		<tag k="ssr:stedsnr" v="371939" />
		<tag k="waterway" v="stream" />
	</node>
	<node lat="61.365141666909075" lon="9.514069435301623" id="-27589">
		<tag k="name" v="Venaglbekken" />
		<tag k="ssr:stedsnr" v="372464" />
		<tag k="waterway" v="stream" />
	</node>
	<node lat="61.375522223980795" lon="9.550841670446852" id="-27591">
		<tag k="name" v="Øvre Stylskardtjønnet" />
		<tag k="natural" v="water" />
		<tag k="ssr:stedsnr" v="372470" />
	</node>
	<node lat="61.221816667246735" lon="10.224699991933846" id="-27596">
		<tag k="name" v="Jøra" />
		<tag k="ssr:stedsnr" v="372490" />
		<tag k="waterway" v="river" />
	</node>
	<node lat="61.31856389319622" lon="10.051927768765337" id="-27607">
		<tag k="name" v="Sautjønnet" />
		<tag k="natural" v="water" />
		<tag k="ssr:stedsnr" v="372826" />
=======
	<node id="-381684" lat="61.3290277736" lon="9.89056666466">
		<tag k="name" v="Innleggingsbekken" />
		<tag k="ssr:stedsnr" v="413935" />
		<tag k="waterway" v="stream" />
	</node>
	<node id="-381682" lat="61.4032444473" lon="9.54628889703">
		<tag k="alt_name" v="Søndre Vollbekken" />
		<tag k="name" v="Søre Vollbekken" />
		<tag k="ssr:stedsnr" v="413917" />
		<tag k="waterway" v="stream" />
	</node>
	<node id="-380371" lat="61.120016666" lon="10.0401055522">
		<tag k="name" v="Blestervika" />
		<tag k="natural" v="bay" />
		<tag k="ssr:stedsnr" v="663095" />
	</node>
	<node id="-379630" lat="61.3198777738" lon="9.56168611507">
		<tag k="name" v="Hundtjønnlonen" />
		<tag k="natural" v="water" />
		<tag k="ssr:stedsnr" v="8508" />
		<tag k="water" v="lake" />
	</node>
	<node id="-379629" lat="61.2019944423" lon="10.2185444442">
		<tag k="name" v="Haukåa" />
		<tag k="ssr:stedsnr" v="8502" />
		<tag k="waterway" v="stream" />
	</node>
	<node id="-379626" lat="61.2555027738" lon="9.96222777281">
		<tag k="name" v="Slettbekken" />
		<tag k="ssr:stedsnr" v="220979" />
		<tag k="waterway" v="stream" />
	</node>
	<node id="-381670" lat="61.3650583305" lon="10.153377776">
		<tag k="name" v="Goddalsvika" />
		<tag k="natural" v="bay" />
		<tag k="ssr:stedsnr" v="413173" />
	</node>
	<node id="-381669" lat="61.3727944444" lon="10.1324833359">
		<tag k="name" v="Forrestadbekken" />
		<tag k="ssr:stedsnr" v="413165" />
		<tag k="waterway" v="stream" />
	</node>
	<node id="-380364" lat="61.1638083357" lon="10.1208000044">
		<tag k="name" v="Blåtjønnet" />
		<tag k="natural" v="water" />
		<tag k="ssr:stedsnr" v="658845" />
	</node>
	<node id="-380022" lat="61.2128500038" lon="9.63555555893">
		<tag k="name" v="Killingholmen" />
		<tag k="place" v="islet" />
		<tag k="ssr:stedsnr" v="240852" />
	</node>
	<node id="-381633" lat="61.2218166672" lon="10.2246999919">
		<tag k="name" v="Jøra" />
		<tag k="ssr:stedsnr" v="372490" />
		<tag k="waterway" v="river" />
	</node>
	<node id="-381628" lat="61.2873027734" lon="9.48783054986">
		<tag k="name" v="Nonstjønnan" />
		<tag k="natural" v="water" />
		<tag k="ssr:stedsnr" v="372292" />
		<tag k="water" v="lake" />
	</node>
	<node id="-381627" lat="61.3239666675" lon="10.1796444447">
		<tag k="name" v="Svartbekken" />
		<tag k="ssr:stedsnr" v="371939" />
		<tag k="waterway" v="stream" />
	</node>
	<node id="-381626" lat="61.1528555546" lon="10.0220666692">
		<tag k="alt_name" v="Måråbeittjernet" />
		<tag k="name" v="Morgobeittjernet" />
		<tag k="natural" v="water" />
		<tag k="ssr:stedsnr" v="372080" />
	</node>
	<node id="-381622" lat="61.2371388911" lon="9.84536111816">
		<tag k="name" v="Hornsjøen" />
		<tag k="natural" v="water" />
		<tag k="ssr:stedsnr" v="371489" />
		<tag k="water" v="lake" />
	</node>
	<node id="-381621" lat="61.3881500009" lon="9.80960000139">
		<tag k="name" v="Kleivbekken" />
		<tag k="ssr:stedsnr" v="371336" />
		<tag k="waterway" v="stream" />
	</node>
	<node id="-381618" lat="61.1229249973" lon="10.0273888882">
		<tag k="name" v="Rostjønna" />
		<tag k="natural" v="water" />
		<tag k="ssr:stedsnr" v="371090" />
	</node>
	<node id="-381614" lat="61.3073306396" lon="9.55976762166">
		<tag k="name" v="Nordåosen" />
		<tag k="natural" v="bay" />
		<tag k="ssr:stedsnr" v="361642" />
	</node>
	<node id="-381607" lat="61.2540277767" lon="9.95737221876">
		<tag k="name" v="Blesterbekken" />
		<tag k="ssr:stedsnr" v="355975" />
		<tag k="waterway" v="stream" />
	</node>
	<node id="-381606" lat="61.2553833317" lon="9.99499444309">
		<tag k="name" v="Sæterbekken" />
		<tag k="ssr:stedsnr" v="355964" />
		<tag k="waterway" v="stream" />
	</node>
	<node id="-381602" lat="61.1496000041" lon="10.0552555619">
		<tag k="name" v="Sneiråktjønnet" />
		<tag k="natural" v="water" />
		<tag k="ssr:stedsnr" v="355898" />
	</node>
	<node id="-381589" lat="61.1723861122" lon="9.90159444786">
		<tag k="name" v="Brennfossen" />
		<tag k="natural" v="waterfall" />
		<tag k="ssr:stedsnr" v="355017" />
	</node>
	<node id="-381588" lat="61.3880527741" lon="9.60255833485">
		<tag k="name" v="Langodden" />
		<tag k="natural" v="cape" />
		<tag k="ssr:stedsnr" v="354969" />
	</node>
	<node id="-381587" lat="61.3808138882" lon="9.58830555922">
		<tag k="name" v="Maribubekken" />
		<tag k="ssr:stedsnr" v="354965" />
		<tag k="waterway" v="stream" />
	</node>
	<node id="-381584" lat="61.1346833375" lon="10.0327333371">
		<tag k="name" v="Lomvika" />
		<tag k="natural" v="bay" />
		<tag k="ssr:stedsnr" v="354887" />
	</node>
	<node id="-381564" lat="61.3756888879" lon="9.6321972192">
		<tag k="name" v="Baksidesundet" />
		<tag k="natural" v="strait" />
		<tag k="ssr:stedsnr" v="354460" />
	</node>
	<node id="-379871" lat="61.2463222206" lon="9.45637499322">
		<tag k="name" v="Sandbekken" />
		<tag k="ssr:stedsnr" v="128749" />
		<tag k="waterway" v="stream" />
	</node>
	<node id="-381556" lat="61.3747611108" lon="9.71940832408">
		<tag k="name" v="Storbekken" />
		<tag k="ssr:stedsnr" v="354124" />
		<tag k="waterway" v="stream" />
	</node>
	<node id="-381540" lat="61.3252694439" lon="9.83191110946">
		<tag k="name" v="Veslibekken" />
		<tag k="ssr:stedsnr" v="353544" />
		<tag k="waterway" v="stream" />
	</node>
	<node id="-381533" lat="61.353033329" lon="10.1767388872">
		<tag k="name" v="Stortjønnet" />
		<tag k="natural" v="water" />
		<tag k="ssr:stedsnr" v="353114" />
	</node>
	<node id="-381528" lat="61.3912999961" lon="9.90845833764">
		<tag k="name" v="Leikvamsvika" />
		<tag k="natural" v="bay" />
		<tag k="ssr:stedsnr" v="352624" />
	</node>
	<node id="-381519" lat="61.2767194472" lon="9.93448333088">
		<tag k="name" v="Åbortjønnet" />
		<tag k="natural" v="water" />
		<tag k="ssr:stedsnr" v="312699" />
	</node>
	<node id="-381517" lat="61.2435472218" lon="9.58370833188">
		<tag k="name" v="Liomsæterbekken" />
		<tag k="ssr:stedsnr" v="312267" />
		<tag k="waterway" v="stream" />
	</node>
	<node id="-381516" lat="61.2653333334" lon="9.43312778583">
		<tag k="name" v="Gråmyrbekken" />
		<tag k="ssr:stedsnr" v="312264" />
		<tag k="waterway" v="stream" />
	</node>
	<node id="-381514" lat="61.361049996" lon="9.97330277422">
		<tag k="name" v="Åbbortjønnet" />
		<tag k="natural" v="water" />
		<tag k="ssr:stedsnr" v="311988" />
	</node>
	<node id="-381513" lat="61.3462249994" lon="10.1341916656">
		<tag k="name" v="Jønnbubekken" />
		<tag k="ssr:stedsnr" v="311985" />
		<tag k="waterway" v="stream" />
	</node>
	<node id="-381511" lat="61.3769944443" lon="9.98483889757">
		<tag k="fixme" v="multiple name tags, choose one and add the other to alt_name" />
		<tag k="name" v="Fjellåa;Grasdalselva" />
		<tag k="ssr:stedsnr" v="311897" />
		<tag k="waterway" v="stream" />
	</node>
	<node id="-381502" lat="61.1848361134" lon="9.90410554909">
		<tag k="alt_name" v="Søre Valdrestjønn;Valdrestjønnet, s" />
		<tag k="name" v="Søre Valdrestjønnet" />
		<tag k="natural" v="water" />
		<tag k="ssr:stedsnr" v="311773" />
	</node>
	<node id="-381501" lat="61.3499489387" lon="9.92257501727">
		<tag k="alt_name" v="Firtjønnene" />
		<tag k="name" v="Firtjønna" />
		<tag k="natural" v="water" />
		<tag k="ssr:stedsnr" v="311731" />
		<tag k="water" v="lake" />
	</node>
	<node id="-381500" lat="61.3561388874" lon="9.83110000731">
		<tag k="name" v="Svintjønnet" />
		<tag k="natural" v="water" />
		<tag k="ssr:stedsnr" v="311730" />
	</node>
	<node id="-381496" lat="61.3324555598" lon="9.71884444384">
		<tag k="name" v="Ongsjoa" />
		<tag k="ssr:stedsnr" v="311674" />
		<tag k="waterway" v="stream" />
	</node>
	<node id="-380340" lat="61.391766671" lon="9.5885277795">
		<tag k="name" v="Tømmerodden" />
		<tag k="natural" v="cape" />
		<tag k="ssr:stedsnr" v="657961" />
	</node>
	<node id="-381494" lat="61.2190777785" lon="9.74867500929">
		<tag k="name" v="Dokkelva" />
		<tag k="ssr:stedsnr" v="311568" />
		<tag k="waterway" v="river" />
	</node>
	<node id="-381490" lat="61.2385444408" lon="9.73335832918">
		<tag k="name" v="Revåa" />
		<tag k="ssr:stedsnr" v="311543" />
		<tag k="waterway" v="river" />
	</node>
	<node id="-381475" lat="61.1957638896" lon="9.56529721616">
		<tag k="name" v="Nevabekken" />
		<tag k="ssr:stedsnr" v="310950" />
		<tag k="waterway" v="stream" />
	</node>
	<node id="-381464" lat="61.2786944402" lon="9.58389445292">
		<tag k="alt_name" v="Revsjøen, nedre" />
		<tag k="name" v="Nedre Revsjøen" />
		<tag k="natural" v="water" />
		<tag k="ssr:stedsnr" v="191239" />
		<tag k="water" v="lake" />
	</node>
	<node id="-381462" lat="61.3793639657" lon="10.0470638318">
		<tag k="name" v="Svarttjønnet" />
		<tag k="natural" v="water" />
		<tag k="ssr:stedsnr" v="190988" />
	</node>
	<node id="-381461" lat="61.3741111109" lon="10.0130222272">
		<tag k="name" v="Nedre Massingtjønnet" />
		<tag k="natural" v="water" />
		<tag k="ssr:stedsnr" v="190986" />
	</node>
	<node id="-379731" lat="61.300177779" lon="10.0461972304">
		<tag k="name" v="Fjellbekken" />
		<tag k="ssr:stedsnr" v="50220" />
		<tag k="waterway" v="stream" />
	</node>
	<node id="-380333" lat="61.3279583376" lon="9.78314721893">
		<tag k="name" v="Enebakkbekken" />
		<tag k="ssr:stedsnr" v="657609" />
		<tag k="waterway" v="stream" />
	</node>
	<node id="-381449" lat="61.3112805577" lon="9.61318055815">
		<tag k="alt_name" v="Skomakartjønnet" />
		<tag k="name" v="Skomakertjønnet" />
		<tag k="natural" v="water" />
		<tag k="ssr:stedsnr" v="190664" />
	</node>
	<node id="-381446" lat="61.1583055569" lon="9.96833332536">
		<tag k="name" v="Holbekken" />
		<tag k="ssr:stedsnr" v="190752" />
		<tag k="waterway" v="stream" />
	</node>
	<node id="-381443" lat="61.3384916659" lon="9.57923611669">
		<tag k="alt_name" v="Leppvatnet, øvre" />
		<tag k="name" v="Øvre Leppvatnet" />
		<tag k="natural" v="water" />
		<tag k="ssr:stedsnr" v="190499" />
		<tag k="water" v="lake" />
	</node>
	<node id="-381441" lat="61.321383329" lon="9.40266388861">
		<tag k="name" v="Raudgrovtjønn" />
		<tag k="natural" v="water" />
		<tag k="ssr:stedsnr" v="190494" />
	</node>
	<node id="-381435" lat="61.4036388929" lon="9.77399166347">
		<tag k="name" v="Gåsøybekken" />
		<tag k="ssr:stedsnr" v="190370" />
		<tag k="waterway" v="stream" />
	</node>
	<node id="-379987" lat="61.1535916693" lon="10.0362500079">
		<tag k="name" v="Staumsæterbekken" />
		<tag k="ssr:stedsnr" v="294927" />
		<tag k="waterway" v="stream" />
	</node>
	<node id="-381424" lat="61.2155888885" lon="9.66664166064">
		<tag k="alt_name" v="Grønntjønnet" />
		<tag k="name" v="Grøntjønnet" />
		<tag k="natural" v="water" />
		<tag k="ssr:stedsnr" v="189469" />
	</node>
	<node id="-381418" lat="61.2744444482" lon="9.58653611574">
		<tag k="name" v="Liumsætervika" />
		<tag k="natural" v="bay" />
		<tag k="ssr:stedsnr" v="300625" />
	</node>
	<node id="-379985" lat="61.1402277818" lon="10.0365361104">
		<tag k="name" v="Nysæterbekken" />
		<tag k="ssr:stedsnr" v="294886" />
		<tag k="waterway" v="stream" />
	</node>
	<node id="-381411" lat="61.3467916623" lon="10.1031833413">
		<tag k="name" v="Vaskeribekken" />
		<tag k="ssr:stedsnr" v="178035" />
		<tag k="waterway" v="stream" />
	</node>
	<node id="-381402" lat="61.1354611126" lon="10.0870583246">
		<tag k="name" v="Toftbekken" />
		<tag k="ssr:stedsnr" v="173886" />
		<tag k="waterway" v="stream" />
	</node>
	<node id="-381389" lat="61.3870222185" lon="9.59562777621">
		<tag k="name" v="Maribuvika" />
		<tag k="natural" v="bay" />
		<tag k="ssr:stedsnr" v="172975" />
	</node>
	<node id="-381385" lat="61.375905556" lon="9.64917221612">
		<tag k="name" v="Strandbekken" />
		<tag k="ssr:stedsnr" v="172945" />
		<tag k="waterway" v="stream" />
	</node>
	<node id="-381381" lat="61.2902972185" lon="10.0074250032">
		<tag k="name" v="Vesleulva" />
		<tag k="ssr:stedsnr" v="172760" />
		<tag k="waterway" v="stream" />
	</node>
	<node id="-381377" lat="61.3250305557" lon="9.74488888144">
		<tag k="name" v="Øvrebekken" />
		<tag k="ssr:stedsnr" v="172486" />
		<tag k="waterway" v="stream" />
	</node>
	<node id="-381350" lat="61.3309472244" lon="10.2062583423">
		<tag k="name" v="Svartbekkroken" />
		<tag k="old_name" v="Svartbekkkroken" />
		<tag k="place" v="locality" />
		<tag k="ssr:stedsnr" v="171159" />
	</node>
	<node id="-381681" lat="61.4165666686" lon="9.55527222088">
		<tag k="name" v="Megrundsbekken" />
		<tag k="ssr:stedsnr" v="413892" />
		<tag k="waterway" v="stream" />
	</node>
	<node id="-381347" lat="61.4074749975" lon="9.54833056153">
		<tag k="name" v="Nordre Vollbekken" />
		<tag k="ssr:stedsnr" v="170917" />
		<tag k="waterway" v="stream" />
	</node>
	<node id="-381343" lat="61.3440861099" lon="9.82341944737">
		<tag k="name" v="Bakkomsflågån" />
		<tag k="natural" v="water" />
		<tag k="ssr:stedsnr" v="170646" />
	</node>
	<node id="-381340" lat="61.3625500002" lon="10.1485361068">
		<tag k="name" v="Sjøsæterdammen" />
		<tag k="ssr:stedsnr" v="170162" />
		<tag k="waterway" v="dam" />
	</node>
	<node id="-381339" lat="61.3699305523" lon="10.1247638805">
		<tag k="name" v="Veslebekken" />
		<tag k="ssr:stedsnr" v="170158" />
		<tag k="waterway" v="stream" />
	</node>
	<node id="-381336" lat="61.3670833329" lon="10.1377749931">
		<tag k="name" v="Ronesodden" />
		<tag k="natural" v="cape" />
		<tag k="ssr:stedsnr" v="170138" />
	</node>
	<node id="-381329" lat="61.2865638863" lon="9.56963610804">
		<tag k="name" v="Risåa" />
		<tag k="ssr:stedsnr" v="130423" />
		<tag k="waterway" v="stream" />
	</node>
	<node id="-381328" lat="61.2978749961" lon="9.57061110637">
		<tag k="alt_name" v="Skåodden" />
		<tag k="name" v="Skåkodden" />
		<tag k="natural" v="cape" />
		<tag k="ssr:stedsnr" v="130421" />
	</node>
	<node id="-381317" lat="61.1877711028" lon="9.74279559303">
		<tag k="name" v="Toftsætervatnet" />
		<tag k="natural" v="water" />
		<tag k="ssr:stedsnr" v="129742" />
		<tag k="water" v="pond" />
	</node>
	<node id="-381313" lat="61.3390416633" lon="9.73731666777">
		<tag k="name" v="Finntjønnet" />
		<tag k="natural" v="water" />
		<tag k="ssr:stedsnr" v="129698" />
	</node>
	<node id="-381312" lat="61.3644500014" lon="9.60093611402">
		<tag k="alt_name" v="Sålåtjønnet" />
		<tag k="name" v="Solåtjønnet" />
		<tag k="natural" v="water" />
		<tag k="ssr:stedsnr" v="129678" />
	</node>
	<node id="-381309" lat="61.3081861092" lon="9.85272499988">
		<tag k="name" v="Grinjua" />
		<tag k="ssr:stedsnr" v="129647" />
		<tag k="waterway" v="stream" />
	</node>
	<node id="-381308" lat="61.3083265213" lon="9.64360139937">
		<tag k="alt_name" v="Ongsjøen, øvre" />
		<tag k="name" v="Øvre Ongsjøen" />
		<tag k="natural" v="water" />
		<tag k="ssr:stedsnr" v="129643" />
		<tag k="water" v="lake" />
	</node>
	<node id="-381306" lat="61.3395305581" lon="9.95777500081">
		<tag k="name" v="Gryttjønnet" />
		<tag k="natural" v="water" />
		<tag k="ssr:stedsnr" v="129628" />
	</node>
	<node id="-381302" lat="61.2163333361" lon="10.2475833297">
		<tag k="loc_name" v="Veslelva;Vesleelva" />
		<tag k="name" v="Gausa" />
		<tag k="ssr:stedsnr" v="129479" />
		<tag k="waterway" v="river" />
	</node>
	<node id="-381278" lat="61.2804611096" lon="9.5819305562">
		<tag k="name" v="Studenten" />
		<tag k="place" v="islet" />
		<tag k="ssr:stedsnr" v="118583" />
	</node>
	<node id="-381269" lat="61.3706222184" lon="10.0926277769">
		<tag k="name" v="Klokkertjønnbekken" />
		<tag k="ssr:stedsnr" v="117038" />
		<tag k="waterway" v="stream" />
	</node>
	<node id="-381264" lat="61.2473916703" lon="10.2440166577">
		<tag k="name" v="Svartbekken" />
		<tag k="ssr:stedsnr" v="115966" />
		<tag k="waterway" v="stream" />
	</node>
	<node id="-379957" lat="61.3705944449" lon="9.64837222504">
		<tag k="name" v="Stabbursholmen" />
		<tag k="place" v="islet" />
		<tag k="ssr:stedsnr" v="293924" />
	</node>
	<node id="-381243" lat="61.3747583362" lon="9.6388222256">
		<tag k="name" v="Furuholmen" />
		<tag k="place" v="islet" />
		<tag k="ssr:stedsnr" v="112484" />
	</node>
	<node id="-381238" lat="61.349888893" lon="9.66203888094">
		<tag k="name" v="Sekkeslettbekken" />
		<tag k="ssr:stedsnr" v="112363" />
		<tag k="waterway" v="stream" />
	</node>
	<node id="-381235" lat="61.2852083291" lon="9.90275832411">
		<tag k="name" v="Svartholet" />
		<tag k="natural" v="water" />
		<tag k="ssr:stedsnr" v="112223" />
	</node>
	<node id="-381226" lat="61.3853305531" lon="9.58810833814">
		<tag k="name" v="Sofierudbekken" />
		<tag k="ssr:stedsnr" v="111966" />
		<tag k="waterway" v="stream" />
	</node>
	<node id="-381217" lat="61.3182055558" lon="9.67104444261">
		<tag k="name" v="Ongsjøbekken" />
		<tag k="ssr:stedsnr" v="111423" />
		<tag k="waterway" v="stream" />
	</node>
	<node id="-381185" lat="61.2701138895" lon="9.9224805582">
		<tag k="name" v="Svarttjønna" />
		<tag k="natural" v="water" />
		<tag k="ssr:stedsnr" v="69767" />
		<tag k="water" v="lake" />
	</node>
	<node id="-381182" lat="61.2895416691" lon="9.67412778653">
		<tag k="name" v="Gryttjønnet" />
		<tag k="natural" v="water" />
		<tag k="ssr:stedsnr" v="69760" />
	</node>
	<node id="-381181" lat="61.2871611104" lon="9.75580000651">
		<tag k="name" v="Tossentjønnet" />
		<tag k="natural" v="water" />
		<tag k="ssr:stedsnr" v="69759" />
	</node>
	<node id="-381179" lat="61.2450194415" lon="9.76874443773">
		<tag k="name" v="Gryta" />
		<tag k="ssr:stedsnr" v="69596" />
		<tag k="waterway" v="stream" />
	</node>
	<node id="-381174" lat="61.3205777774" lon="10.071197223">
		<tag k="name" v="Svarttjønnet" />
		<tag k="natural" v="water" />
		<tag k="ssr:stedsnr" v="68942" />
	</node>
	<node id="-381173" lat="61.1463611124" lon="9.98587500202">
		<tag k="name" v="Storbekken" />
		<tag k="ssr:stedsnr" v="69095" />
		<tag k="waterway" v="stream" />
	</node>
	<node id="-381170" lat="61.1828416666" lon="9.67786666871">
		<tag k="name" v="Myrbekken" />
		<tag k="ssr:stedsnr" v="68751" />
		<tag k="waterway" v="stream" />
	</node>
	<node id="-381168" lat="61.1901527806" lon="9.90513055876">
		<tag k="alt_name" v="Nordre Valdrestjønn;Valdrestjønnet, nordre" />
		<tag k="name" v="Nordre Valdrestjønnet" />
		<tag k="natural" v="water" />
		<tag k="ssr:stedsnr" v="68746" />
	</node>
	<node id="-381166" lat="61.2010287301" lon="9.93043741047">
		<tag k="alt_name" v="Glåmen, vle" />
		<tag k="name" v="Vesle Glåmen" />
		<tag k="natural" v="water" />
		<tag k="ssr:stedsnr" v="68741" />
		<tag k="water" v="lake" />
	</node>
	<node id="-381162" lat="61.3713180404" lon="9.92189102839">
		<tag k="alt_name" v="Tritjønnene" />
		<tag k="name" v="Trivatna" />
		<tag k="natural" v="water" />
		<tag k="ssr:stedsnr" v="68671" />
		<tag k="water" v="lake" />
	</node>
	<node id="-381161" lat="61.2134123447" lon="9.70284952107">
		<tag k="name" v="Mjødokka" />
		<tag k="natural" v="water" />
		<tag k="ssr:stedsnr" v="68540" />
		<tag k="water" v="lake" />
	</node>
	<node id="-381159" lat="61.3607916641" lon="9.94256665932">
		<tag k="name" v="Jonstjønnet" />
		<tag k="natural" v="water" />
		<tag k="ssr:stedsnr" v="68670" />
	</node>
	<node id="-381153" lat="61.1708944449" lon="10.2122055521">
		<tag k="alt_name" v="Hesttjønnsbekken" />
		<tag k="name" v="Hesttjønnbekken" />
		<tag k="ssr:stedsnr" v="68455" />
		<tag k="waterway" v="stream" />
	</node>
	<node id="-381143" lat="61.2485305558" lon="10.3067916601">
		<tag k="name" v="Skardtjønnet" />
		<tag k="natural" v="water" />
		<tag k="ssr:stedsnr" v="68253" />
	</node>
	<node id="-381141" lat="61.2445499978" lon="9.57968334122">
		<tag k="name" v="Vakkerlibekken" />
		<tag k="ssr:stedsnr" v="67752" />
		<tag k="waterway" v="stream" />
	</node>
	<node id="-381138" lat="61.3689361092" lon="10.0111694357">
		<tag k="name" v="Øvre Nosetjønnet" />
		<tag k="natural" v="water" />
		<tag k="ssr:stedsnr" v="58892" />
	</node>
	<node id="-381134" lat="61.3737944484" lon="10.0326583423">
		<tag k="name" v="Lykkjomtjønnet" />
		<tag k="natural" v="water" />
		<tag k="ssr:stedsnr" v="58189" />
	</node>
	<node id="-381118" lat="61.2676805568" lon="10.1144666667">
		<tag k="name" v="Grossbakkbekken" />
		<tag k="ssr:stedsnr" v="51835" />
		<tag k="waterway" v="stream" />
	</node>
	<node id="-381115" lat="61.235591663" lon="9.84163332691">
		<tag k="name" v="Dunglungsvika" />
		<tag k="natural" v="bay" />
		<tag k="ssr:stedsnr" v="51624" />
	</node>
	<node id="-381106" lat="61.41247778" lon="9.5429277794">
		<tag k="name" v="Lonavika" />
		<tag k="natural" v="bay" />
		<tag k="ssr:stedsnr" v="50889" />
	</node>
	<node id="-381084" lat="61.3909916681" lon="9.89120555562">
		<tag k="name" v="Midtvollsvika" />
		<tag k="natural" v="bay" />
		<tag k="ssr:stedsnr" v="49679" />
	</node>
	<node id="-381083" lat="61.38488889" lon="9.91648889071">
		<tag k="name" v="Åbbortjønnet" />
		<tag k="natural" v="water" />
		<tag k="ssr:stedsnr" v="49673" />
	</node>
	<node id="-381082" lat="61.3893805582" lon="9.90259722582">
		<tag k="name" v="Åbborvika" />
		<tag k="natural" v="bay" />
		<tag k="ssr:stedsnr" v="49672" />
	</node>
	<node id="-381081" lat="61.3745583313" lon="9.91745833367">
		<tag k="name" v="Ukstjønnet" />
		<tag k="natural" v="water" />
		<tag k="ssr:stedsnr" v="49445" />
	</node>
	<node id="-381078" lat="61.3847388857" lon="9.78976944768">
		<tag k="name" v="Rustadbekken" />
		<tag k="ssr:stedsnr" v="49137" />
		<tag k="waterway" v="stream" />
	</node>
	<node id="-381635" lat="61.3250861118" lon="9.63003332401">
		<tag k="name" v="Rubbeslettbekken" />
		<tag k="ssr:stedsnr" v="372643" />
		<tag k="waterway" v="stream" />
	</node>
	<node id="-381071" lat="61.1788611128" lon="9.87266111743">
		<tag k="name" v="Holsfossen" />
		<tag k="natural" v="waterfall" />
		<tag k="ssr:stedsnr" v="38374" />
	</node>
	<node id="-381066" lat="61.2918249964" lon="10.1201000072">
		<tag k="name" v="Ulva" />
		<tag k="ssr:stedsnr" v="10794" />
		<tag k="waterway" v="stream" />
	</node>
	<node id="-381064" lat="61.2876527795" lon="9.58292777665">
		<tag k="name" v="Stubben" />
		<tag k="ssr:stedsnr" v="9236" />
		<tag k="waterway" v="stream" />
	</node>
	<node id="-381057" lat="61.2560111079" lon="10.0689583353">
		<tag k="name" v="Vigga" />
		<tag k="ssr:stedsnr" v="8845" />
		<tag k="waterway" v="stream" />
	</node>
	<node id="-381055" lat="61.2942805569" lon="10.0047305568">
		<tag k="name" v="Ulva" />
		<tag k="ssr:stedsnr" v="8793" />
		<tag k="waterway" v="stream" />
	</node>
	<node id="-381045" lat="61.2582138931" lon="9.84717499725">
		<tag k="name" v="Horntjønnet" />
		<tag k="natural" v="water" />
		<tag k="ssr:stedsnr" v="8780" />
	</node>
	<node id="-381041" lat="61.2766916628" lon="9.77800278138">
		<tag k="name" v="Mossjøen" />
		<tag k="natural" v="water" />
		<tag k="ssr:stedsnr" v="8764" />
		<tag k="water" v="lake" />
	</node>
	<node id="-381031" lat="61.3909750016" lon="9.70002777759">
		<tag k="name" v="Gryta" />
		<tag k="ssr:stedsnr" v="8395" />
		<tag k="waterway" v="stream" />
	</node>
	<node id="-381030" lat="61.3732611147" lon="9.69637500857">
		<tag k="name" v="Trontjønna" />
		<tag k="natural" v="water" />
		<tag k="ssr:stedsnr" v="8374" />
	</node>
	<node id="-381028" lat="61.4127083341" lon="9.85051665939">
		<tag k="name" v="Rundtjønnet" />
		<tag k="natural" v="water" />
		<tag k="ssr:stedsnr" v="8350" />
	</node>
	<node id="-381024" lat="61.2343611086" lon="9.58178610884">
		<tag k="alt_name" v="Kringlonen" />
		<tag k="name" v="Kringllonen" />
		<tag k="natural" v="water" />
		<tag k="ssr:stedsnr" v="7993" />
		<tag k="water" v="lake" />
	</node>
	<node id="-381022" lat="61.2072888872" lon="9.64981388328">
		<tag k="name" v="Skjellbreidbekken" />
		<tag k="ssr:stedsnr" v="7506" />
		<tag k="waterway" v="stream" />
	</node>
	<node id="-381021" lat="61.2301416643" lon="9.71002499612">
		<tag k="fixme" v="multiple name tags, choose one and add the other to alt_name" />
		<tag k="name" v="Kaldvassbekken;Veslebekken" />
		<tag k="ssr:stedsnr" v="7493" />
		<tag k="waterway" v="stream" />
	</node>
	<node id="-381012" lat="61.3320194471" lon="9.57301666893">
		<tag k="alt_name" v="Leppvatnet, nedre" />
		<tag k="name" v="Nedre Leppvatnet" />
		<tag k="natural" v="water" />
		<tag k="ssr:stedsnr" v="8519" />
		<tag k="water" v="lake" />
	</node>
	<node id="-380125" lat="61.2255638929" lon="9.77678333848">
		<tag k="name" v="Risbølvika" />
		<tag k="natural" v="bay" />
		<tag k="ssr:stedsnr" v="476586" />
	</node>
	<node id="-379914" lat="61.3085583346" lon="10.0398361113">
		<tag k="name" v="Åbbortjønna" />
		<tag k="natural" v="water" />
		<tag k="ssr:stedsnr" v="190810" />
	</node>
	<node id="-379913" lat="61.1776800341" lon="9.78534283737">
		<tag k="name" v="Snæra" />
		<tag k="natural" v="water" />
		<tag k="ssr:stedsnr" v="190744" />
		<tag k="water" v="lake" />
	</node>
	<node id="-380252" lat="61.2291333302" lon="10.348869439">
		<tag k="alt_name" v="Nerstøltjønnet" />
		<tag k="name" v="Nerstyltjønnet" />
		<tag k="natural" v="water" />
		<tag k="ssr:stedsnr" v="372158" />
	</node>
	<node id="-380250" lat="61.1901859208" lon="9.58689117391">
		<tag k="alt_name" v="Reinsjøen, øvre" />
		<tag k="name" v="Øvre Reinsjøen" />
		<tag k="natural" v="water" />
		<tag k="ssr:stedsnr" v="371955" />
		<tag k="water" v="lake" />
	</node>
	<node id="-380950" lat="61.3707083343" lon="9.75822777598">
		<tag k="name" v="Elgslett-tjønnet" />
		<tag k="natural" v="water" />
		<tag k="ssr:stedsnr" v="961905" />
	</node>
	<node id="-380939" lat="61.3771694417" lon="9.88207500391">
		<tag k="name" v="Tverråosen" />
		<tag k="natural" v="bay" />
		<tag k="ssr:stedsnr" v="960406" />
	</node>
	<node id="-380935" lat="61.2588777769" lon="9.74035832695">
		<tag k="alt_name" v="Ommundtjønnet" />
		<tag k="name" v="Omundtjønnet" />
		<tag k="natural" v="water" />
		<tag k="ssr:stedsnr" v="919719" />
	</node>
	<node id="-380933" lat="61.3853291139" lon="10.031299369">
		<tag k="name" v="Øvre Massingtjønnet" />
		<tag k="natural" v="water" />
		<tag k="ssr:stedsnr" v="918908" />
	</node>
	<node id="-380932" lat="61.141747218" lon="9.96579999468">
		<tag k="fixme" v="multiple name tags, choose one and add the other to alt_name" />
		<tag k="name" v="Dokkfløy;Dokkfløyvatnet" />
		<tag k="natural" v="water" />
		<tag k="ssr:stedsnr" v="918762" />
		<tag k="water" v="lake" />
	</node>
	<node id="-380930" lat="61.1636500004" lon="10.1482277838">
		<tag k="name" v="Augga" />
		<tag k="ssr:stedsnr" v="918477" />
		<tag k="waterway" v="river" />
>>>>>>> e1d4bc35ff8a6074a6f2e91616a996b547c36f15
	</node>
</osm>
