<?xml version="1.0" encoding="UTF-8"?>
<osm version="0.6" generator="osmapis">
	<node lat="61.24111110728884" lon="10.267824999271914" id="-25592">
		<tag k="name" v="Amundstad" />
		<tag k="place" v="farm" />
		<tag k="ssr:stedsnr" v="7265" />
	</node>
	<node lat="61.24316389239011" lon="10.143613894041083" id="-25593">
		<tag k="name" v="Setra" />
		<tag k="place" v="farm" />
		<tag k="ssr:stedsnr" v="7269" />
	</node>
	<node lat="61.24650082638266" lon="10.207169227571582" id="-25594">
		<tag k="fixme" v="consider place=hamlet" />
		<tag k="name" v="Austreng" />
		<tag k="place" v="farm" />
		<tag k="ssr:stedsnr" v="7274" />
	</node>
	<node lat="61.21068333364697" lon="9.810308338255876" id="-25596">
		<tag k="historic" v="shieling" />
		<tag k="name" v="Ånstadsetra" />
		<tag k="place" v="isolated_dwelling" />
		<tag k="ssr:stedsnr" v="7509" />
	</node>
	<node lat="61.20620555901886" lon="10.300705546671155" id="-25598">
		<tag k="name" v="Hagatun" />
		<tag k="place" v="farm" />
		<tag k="ssr:stedsnr" v="7458" />
	</node>
	<node lat="61.21185000393488" lon="10.207261103910568" id="-25601">
		<tag k="name" v="Synstlia" />
		<tag k="place" v="farm" />
		<tag k="ssr:stedsnr" v="8471" />
	</node>
	<node lat="61.21550555931567" lon="10.208311110766996" id="-25602">
		<tag k="name" v="Sørsvea" />
		<tag k="place" v="farm" />
		<tag k="ssr:stedsnr" v="8473" />
	</node>
	<node lat="61.21942777736977" lon="10.214424990812054" id="-25603">
		<tag k="name" v="Jobakken" />
		<tag k="place" v="farm" />
		<tag k="ssr:stedsnr" v="8474" />
	</node>
	<node lat="61.21347778178291" lon="10.270547223422845" id="-25604">
		<tag k="name" v="Moslykkja" />
		<tag k="place" v="farm" />
		<tag k="ssr:stedsnr" v="8477" />
	</node>
	<node lat="61.21679722600181" lon="10.311288891136792" id="-25610">
		<tag k="alt_name" v="Humlegård" />
		<tag k="name" v="Homlegard" />
		<tag k="place" v="farm" />
		<tag k="ssr:stedsnr" v="8518" />
	</node>
	<node lat="61.33589999564045" lon="9.939983329902478" id="-25612">
		<tag k="historic" v="shieling" />
		<tag k="name" v="Nysetra" />
		<tag k="place" v="isolated_dwelling" />
		<tag k="ssr:stedsnr" v="8652" />
	</node>
	<node lat="61.366080555521144" lon="9.622838885476291" id="-25613">
		<tag k="historic" v="shieling" />
		<tag k="name" v="Melgardssetra" />
		<tag k="place" v="isolated_dwelling" />
		<tag k="ssr:stedsnr" v="8699" />
	</node>
	<node lat="61.30798332905538" lon="10.209036105417281" id="-25615">
		<tag k="alt_name" v="Blikkset" />
		<tag k="name" v="Blikset" />
		<tag k="place" v="farm" />
		<tag k="ssr:stedsnr" v="8801" />
	</node>
	<node lat="61.26056388518685" lon="10.158452785220621" id="-25616">
		<tag k="fixme" v="consider place=hamlet" />
		<tag k="name" v="Prestgarden" />
		<tag k="place" v="farm" />
		<tag k="ssr:stedsnr" v="8851" />
	</node>
	<node lat="61.30473564984172" lon="10.18909810371625" id="-25617">
		<tag k="fixme" v="consider place=hamlet" />
		<tag k="name" v="Åmot" />
		<tag k="place" v="farm" />
		<tag k="ssr:stedsnr" v="8802" />
	</node>
	<node lat="61.25588156364946" lon="10.187733571428225" id="-25618">
		<tag k="fixme" v="consider place=hamlet" />
		<tag k="name" v="Vole" />
		<tag k="place" v="farm" />
		<tag k="ssr:stedsnr" v="8853" />
	</node>
	<node lat="61.36939167048728" lon="9.946677771016644" id="-25619">
		<tag k="historic" v="shieling" />
		<tag k="name" v="Volesetra" />
		<tag k="place" v="isolated_dwelling" />
		<tag k="ssr:stedsnr" v="8703" />
	</node>
	<node lat="61.29070224014686" lon="9.963434905760778" id="-25622">
		<tag k="fixme" v="consider place=hamlet" />
		<tag k="name" v="Helleberg" />
		<tag k="place" v="farm" />
		<tag k="ssr:stedsnr" v="8768" />
	</node>
	<node lat="61.25285833701658" lon="9.48071111530896" id="-25626">
		<tag k="name" v="Fossbekkbua" />
		<tag k="place" v="isolated_dwelling" />
		<tag k="ssr:stedsnr" v="9218" />
	</node>
	<node lat="61.28668611379481" lon="9.582997225566487" id="-25628">
		<tag k="name" v="Revsjøbua" />
		<tag k="place" v="isolated_dwelling" />
		<tag k="ssr:stedsnr" v="9234" />
	</node>
	<node lat="61.32368055988715" lon="9.833663895648304" id="-25631">
		<tag k="name" v="Bakkomshaugen" />
		<tag k="place" v="locality" />
		<tag k="ssr:stedsnr" v="231598" />
	</node>
	<node lat="61.35538333032591" lon="9.83764722428593" id="-25636">
		<tag k="historic" v="shieling" />
		<tag k="name" v="Ekromslykkja" />
		<tag k="place" v="isolated_dwelling" />
		<tag k="ssr:stedsnr" v="231708" />
	</node>
	<node lat="61.34043333351577" lon="10.17506944578564" id="-25638">
		<tag k="historic" v="shieling" />
		<tag k="name" v="Nordshussetra" />
		<tag k="place" v="isolated_dwelling" />
		<tag k="ssr:stedsnr" v="232013" />
	</node>
	<node lat="61.33667499559208" lon="10.07595277882051" id="-25640">
		<tag k="historic" v="shieling" />
		<tag k="name" v="Bokstadsetra" />
		<tag k="place" v="isolated_dwelling" />
		<tag k="ssr:stedsnr" v="232025" />
	</node>
	<node lat="61.34429166774946" lon="10.078755557274174" id="-25643">
		<tag k="historic" v="shieling" />
		<tag k="name" v="Engesetra" />
		<tag k="place" v="isolated_dwelling" />
		<tag k="ssr:stedsnr" v="232325" />
	</node>
	<node lat="61.325119448752844" lon="9.810872218965775" id="-25645">
		<tag k="name" v="Vassrud" />
		<tag k="place" v="farm" />
		<tag k="ssr:stedsnr" v="232569" />
	</node>
	<node lat="61.16501666229961" lon="9.98394999340964" id="-25648">
		<tag k="historic" v="shieling" />
		<tag k="name" v="Øvre Rønningssetra" />
		<tag k="place" v="isolated_dwelling" />
		<tag k="ssr:stedsnr" v="233064" />
	</node>
	<node lat="61.29584722121026" lon="9.961613886100723" id="-25649">
		<tag k="name" v="Kjølset" />
		<tag k="place" v="farm" />
		<tag k="ssr:stedsnr" v="233154" />
	</node>
	<node lat="61.30074166718983" lon="9.915936113470256" id="-25650">
		<tag k="name" v="Vollen" />
		<tag k="place" v="locality" />
		<tag k="ssr:stedsnr" v="233160" />
	</node>
	<node lat="61.313555554722754" lon="9.98462222688197" id="-25651">
		<tag k="name" v="Tranvollen" />
		<tag k="place" v="locality" />
		<tag k="ssr:stedsnr" v="233208" />
	</node>
	<node lat="61.251752777989424" lon="10.196455550085366" id="-25652">
		<tag k="alt_name" v="Søndre Reistad" />
		<tag k="name" v="Søre Reistad" />
		<tag k="place" v="farm" />
		<tag k="ssr:stedsnr" v="233441" />
	</node>
	<node lat="61.170389228442076" lon="9.953947415258309" id="-25654">
		<tag k="historic" v="shieling" />
		<tag k="name" v="Vollasetra" />
		<tag k="place" v="isolated_dwelling" />
		<tag k="ssr:stedsnr" v="234041" />
	</node>
	<node lat="61.21850833489435" lon="10.171322214753411" id="-25658">
		<tag k="name" v="Kalstadstua" />
		<tag k="place" v="farm" />
		<tag k="ssr:stedsnr" v="233491" />
	</node>
	<node lat="61.30956695097798" lon="10.167165279284301" id="-25665">
		<tag k="alt_name" v="Nedre Hjelmstadvolden;Hjelmstadvollen" />
		<tag k="fixme" v="consider place=hamlet" />
		<tag k="name" v="Vollen" />
		<tag k="place" v="farm" />
		<tag k="ssr:stedsnr" v="233654" />
	</node>
	<node lat="61.31279444503491" lon="10.16794721873643" id="-25666">
		<tag k="name" v="Toftvollen" />
		<tag k="place" v="farm" />
		<tag k="ssr:stedsnr" v="233655" />
	</node>
	<node lat="61.28758324327277" lon="10.163809750288754" id="-25667">
		<tag k="alt_name" v="Frøyshagen" />
		<tag k="fixme" v="consider place=hamlet" />
		<tag k="name" v="Frøysehagen" />
		<tag k="place" v="farm" />
		<tag k="ssr:stedsnr" v="233698" />
	</node>
	<node lat="61.277658971028416" lon="10.162237366217829" id="-25670">
		<tag k="name" v="Jevanhaugen" />
		<tag k="place" v="farm" />
		<tag k="ssr:stedsnr" v="233770" />
	</node>
	<node lat="61.24418056000933" lon="10.0710944422714" id="-25671">
		<tag k="name" v="Viggeland" />
		<tag k="place" v="farm" />
		<tag k="ssr:stedsnr" v="233795" />
	</node>
	<node lat="61.29155832942236" lon="9.974844447938038" id="-25672">
		<tag k="name" v="Bratli" />
		<tag k="place" v="farm" />
		<tag k="ssr:stedsnr" v="233867" />
	</node>
	<node lat="61.23255277461162" lon="10.249783333207322" id="-25677">
		<tag k="name" v="Snurrom" />
		<tag k="place" v="farm" />
		<tag k="ssr:stedsnr" v="234266" />
	</node>
	<node lat="61.22793889239453" lon="10.290688882955095" id="-25683">
		<tag k="name" v="Ausethågån" />
		<tag k="place" v="farm" />
		<tag k="ssr:stedsnr" v="237223" />
	</node>
	<node lat="61.256602773487785" lon="10.26091666265907" id="-25684">
		<tag k="name" v="Houmshytta" />
		<tag k="place" v="isolated_dwelling" />
		<tag k="ssr:stedsnr" v="237474" />
	</node>
	<node lat="61.20364722617494" lon="9.699702779468433" id="-25688">
		<tag k="historic" v="shieling" />
		<tag k="name" v="Prestrudsetra" />
		<tag k="place" v="isolated_dwelling" />
		<tag k="ssr:stedsnr" v="238223" />
	</node>
	<node lat="61.14157739295743" lon="10.185835064240287" id="-25690">
		<tag k="alt_name" v="Søndre Finsrud;Søre Finsrud" />
		<tag k="name" v="Søre Finnsrud" />
		<tag k="place" v="farm" />
		<tag k="ssr:stedsnr" v="238750" />
	</node>
	<node lat="61.340927779563614" lon="10.171669450744954" id="-25698">
		<tag k="historic" v="shieling" />
		<tag k="name" v="Nedre Grytsetra" />
		<tag k="place" v="isolated_dwelling" />
		<tag k="ssr:stedsnr" v="50015" />
	</node>
	<node lat="61.340677779652275" lon="10.150555558269701" id="-25699">
		<tag k="historic" v="shieling" />
		<tag k="loc_name" v="Nedre Jønnbu" />
		<tag k="name" v="Gjefsesetra" />
		<tag k="place" v="isolated_dwelling" />
		<tag k="ssr:stedsnr" v="50021" />
	</node>
	<node lat="61.31948055499554" lon="9.860541666403444" id="-25703">
		<tag k="name" v="Nydal" />
		<tag k="place" v="farm" />
		<tag k="ssr:stedsnr" v="50572" />
	</node>
	<node lat="61.41468055126157" lon="9.54866387973361" id="-25705">
		<tag k="name" v="Grimsrud" />
		<tag k="place" v="farm" />
		<tag k="ssr:stedsnr" v="50891" />
	</node>
	<node lat="61.25830555505611" lon="10.208916667450145" id="-25706">
		<tag k="name" v="Høgstad" />
		<tag k="place" v="farm" />
		<tag k="ssr:stedsnr" v="51083" />
	</node>
	<node lat="61.32059722263314" lon="9.67955832945453" id="-25709">
		<tag k="name" v="Jonsbu" />
		<tag k="place" v="isolated_dwelling" />
		<tag k="ssr:stedsnr" v="51508" />
	</node>
	<node lat="61.28453333542056" lon="10.159452771428205" id="-25713">
		<tag k="fixme" v="consider place=hamlet" />
		<tag k="name" v="Øvre Frøyse" />
		<tag k="place" v="farm" />
		<tag k="ssr:stedsnr" v="51701" />
	</node>
	<node lat="61.291844442386804" lon="10.160133325296982" id="-25716">
		<tag k="fixme" v="consider place=hamlet" />
		<tag k="name" v="Nordre Nustad" />
		<tag k="place" v="farm" />
		<tag k="ssr:stedsnr" v="51677" />
	</node>
	<node lat="61.289333334744704" lon="9.98946110814712" id="-25717">
		<tag k="name" v="Bergomsenget" />
		<tag k="place" v="farm" />
		<tag k="ssr:stedsnr" v="51868" />
	</node>
	<node lat="61.29142222274944" lon="9.986486102639509" id="-25718">
		<tag k="name" v="Nyberg" />
		<tag k="place" v="farm" />
		<tag k="ssr:stedsnr" v="51869" />
	</node>
	<node lat="61.288227777375596" lon="9.97972499512956" id="-25719">
		<tag k="name" v="Sørmo" />
		<tag k="place" v="farm" />
		<tag k="ssr:stedsnr" v="51870" />
	</node>
	<node lat="61.26389444692164" lon="10.167530550839103" id="-25728">
		<tag k="name" v="Bokstad" />
		<tag k="place" v="farm" />
		<tag k="ssr:stedsnr" v="52987" />
	</node>
	<node lat="61.228911107164976" lon="10.071933328899185" id="-25732">
		<tag k="loc_name" v="Hauglivollen" />
		<tag k="name" v="Hauglivolden" />
		<tag k="place" v="farm" />
		<tag k="ssr:stedsnr" v="240831" />
	</node>
	<node lat="61.30318888692673" lon="9.704252783631985" id="-25736">
		<tag k="historic" v="shieling" />
		<tag k="name" v="Kvisberglisetra" />
		<tag k="place" v="isolated_dwelling" />
		<tag k="ssr:stedsnr" v="240624" />
	</node>
	<node lat="61.234680552506596" lon="10.289863883609982" id="-25741">
		<tag k="name" v="Kvernbakken" />
		<tag k="place" v="isolated_dwelling" />
		<tag k="ssr:stedsnr" v="68304" />
	</node>
	<node lat="61.23048783527087" lon="10.298480436797496" id="-25745">
		<tag k="alt_name" v="Søndre Auset" />
		<tag k="fixme" v="consider place=hamlet" />
		<tag k="name" v="Auset" />
		<tag k="place" v="farm" />
		<tag k="ssr:stedsnr" v="68291" />
	</node>
	<node lat="61.18837778050646" lon="10.138094450781772" id="-25746">
		<tag k="name" v="Haugom" />
		<tag k="place" v="farm" />
		<tag k="ssr:stedsnr" v="68404" />
	</node>
	<node lat="61.196569441821836" lon="10.154669445552276" id="-25747">
		<tag k="name" v="Sandvoll" />
		<tag k="place" v="farm" />
		<tag k="ssr:stedsnr" v="68414" />
	</node>
	<node lat="61.19627500045723" lon="10.174344450767098" id="-25748">
		<tag k="name" v="Nordlia" />
		<tag k="place" v="farm" />
		<tag k="ssr:stedsnr" v="68417" />
	</node>
	<node lat="61.20002303796736" lon="10.281506137270304" id="-25749">
		<tag k="fixme" v="consider place=hamlet" />
		<tag k="name" v="Rusten" />
		<tag k="place" v="farm" />
		<tag k="ssr:stedsnr" v="68418" />
	</node>
	<node lat="61.20086666503766" lon="10.275661108857976" id="-25750">
		<tag k="name" v="Halvorslihaugen" />
		<tag k="place" v="farm" />
		<tag k="ssr:stedsnr" v="68491" />
	</node>
	<node lat="61.148467990175" lon="10.170826859626679" id="-25753">
		<tag k="fixme" v="consider place=hamlet" />
		<tag k="name" v="Kyrkjerud" />
		<tag k="place" v="farm" />
		<tag k="ssr:stedsnr" v="69072" />
	</node>
	<node lat="61.3046583368258" lon="9.973497230214319" id="-25760">
		<tag k="name" v="Flutua" />
		<tag k="place" v="farm" />
		<tag k="ssr:stedsnr" v="69832" />
	</node>
	<node lat="61.28212060460921" lon="10.143769822490409" id="-25761">
		<tag k="fixme" v="consider place=hamlet" />
		<tag k="name" v="Austli" />
		<tag k="place" v="farm" />
		<tag k="ssr:stedsnr" v="69880" />
	</node>
	<node lat="61.384104166504066" lon="9.713768846433478" id="-25766">
		<tag k="historic" v="shieling" />
		<tag k="name" v="Pålsrudsetra" />
		<tag k="place" v="isolated_dwelling" />
		<tag k="ssr:stedsnr" v="110286" />
	</node>
	<node lat="61.383077779940976" lon="9.718738894045615" id="-25767">
		<tag k="historic" v="shieling" />
		<tag k="name" v="Morkabakklykkja" />
		<tag k="place" v="isolated_dwelling" />
		<tag k="ssr:stedsnr" v="110287" />
	</node>
	<node lat="61.35513333669066" lon="9.841680551778401" id="-25771">
		<tag k="historic" v="shieling" />
		<tag k="name" v="Ekkerhaugsetra" />
		<tag k="place" v="isolated_dwelling" />
		<tag k="ssr:stedsnr" v="110670" />
	</node>
	<node lat="61.32738610982829" lon="9.872547214544534" id="-25782">
		<tag k="name" v="Solheim" />
		<tag k="place" v="farm" />
		<tag k="ssr:stedsnr" v="111582" />
	</node>
	<node lat="61.13214167075461" lon="10.209399995621688" id="-25784">
		<tag k="name" v="Svebakken" />
		<tag k="place" v="locality" />
		<tag k="ssr:stedsnr" v="250109" />
	</node>
	<node lat="61.334708332507624" lon="9.795386105507928" id="-25785">
		<tag k="historic" v="shieling" />
		<tag k="name" v="Toppen" />
		<tag k="place" v="isolated_dwelling" />
		<tag k="ssr:stedsnr" v="111605" />
	</node>
	<node lat="61.11878386021354" lon="9.990052383480299" id="-25789">
		<tag k="fixme" v="multiple name tags, choose one and add the other to alt_name" />
		<tag k="historic" v="shieling" />
		<tag k="name" v="Sveasetra;Nygardssvesetra" />
		<tag k="place" v="isolated_dwelling" />
		<tag k="ssr:stedsnr" v="112107" />
	</node>
	<node lat="61.257205557133204" lon="10.20344721924465" id="-25790">
		<tag k="name" v="Sørum" />
		<tag k="place" v="farm" />
		<tag k="ssr:stedsnr" v="112111" />
	</node>
	<node lat="61.11338889280801" lon="10.174166670049077" id="-25795">
		<tag k="alt_name" v="Stubrudstylen;Stubbrudstølen" />
		<tag k="historic" v="shieling" />
		<tag k="name" v="Stubbrudstylen" />
		<tag k="place" v="isolated_dwelling" />
		<tag k="ssr:stedsnr" v="250118" />
	</node>
	<node lat="61.33193888751061" lon="9.76029999868159" id="-25801">
		<tag k="name" v="Krokan" />
		<tag k="place" v="farm" />
		<tag k="ssr:stedsnr" v="112474" />
	</node>
	<node lat="61.288447224783944" lon="10.13606665910615" id="-25803">
		<tag k="name" v="Solvang" />
		<tag k="place" v="farm" />
		<tag k="ssr:stedsnr" v="112702" />
	</node>
	<node lat="61.2417305518028" lon="10.067786116702123" id="-25804">
		<tag k="name" v="Viggebø" />
		<tag k="place" v="farm" />
		<tag k="ssr:stedsnr" v="112768" />
	</node>
	<node lat="61.26357499860559" lon="10.19386667425629" id="-25806">
		<tag k="name" v="Oppjordet" />
		<tag k="place" v="farm" />
		<tag k="ssr:stedsnr" v="113103" />
	</node>
	<node lat="61.23375555155493" lon="10.176877778610839" id="-25808">
		<tag k="alt_name" v="Løkken" />
		<tag k="name" v="Lykkja" />
		<tag k="place" v="farm" />
		<tag k="ssr:stedsnr" v="250299" />
	</node>
	<node lat="61.2329243572848" lon="10.078741323125229" id="-25811">
		<tag k="fixme" v="consider place=hamlet" />
		<tag k="name" v="Børkhågå" />
		<tag k="place" v="farm" />
		<tag k="ssr:stedsnr" v="250267" />
	</node>
	<node lat="61.23654161626945" lon="10.283225638789538" id="-25812">
		<tag k="fixme" v="consider place=hamlet" />
		<tag k="name" v="Reiten" />
		<tag k="place" v="farm" />
		<tag k="ssr:stedsnr" v="250271" />
	</node>
	<node lat="61.24743993647623" lon="10.07589597862437" id="-25813">
		<tag k="fixme" v="consider place=hamlet" />
		<tag k="name" v="Brettingen" />
		<tag k="place" v="farm" />
		<tag k="ssr:stedsnr" v="250274" />
	</node>
	<node lat="61.23079722243337" lon="10.294324994994703" id="-25814">
		<tag k="name" v="Rognli" />
		<tag k="place" v="farm" />
		<tag k="ssr:stedsnr" v="250286" />
	</node>
	<node lat="61.22118611481215" lon="10.160250001437378" id="-25815">
		<tag k="name" v="Svea" />
		<tag k="place" v="farm" />
		<tag k="ssr:stedsnr" v="250287" />
	</node>
	<node lat="61.236408337380915" lon="10.173963880019377" id="-25817">
		<tag k="name" v="Trinerud" />
		<tag k="place" v="farm" />
		<tag k="ssr:stedsnr" v="250301" />
	</node>
	<node lat="61.17949877252994" lon="10.005077208982202" id="-25820">
		<tag k="fixme" v="multiple name tags, choose one and add the other to alt_name" />
		<tag k="historic" v="shieling" />
		<tag k="name" v="Værskeisetran;Værskei" />
		<tag k="place" v="isolated_dwelling" />
		<tag k="ssr:stedsnr" v="250411" />
	</node>
	<node lat="61.21583055916557" lon="10.242380553984976" id="-25822">
		<tag k="name" v="Hukibakk" />
		<tag k="place" v="isolated_dwelling" />
		<tag k="ssr:stedsnr" v="250439" />
	</node>
	<node lat="61.22652222381294" lon="10.273588884837169" id="-25823">
		<tag k="alt_name" v="Grimstad, øvre" />
		<tag k="name" v="Øvre Grimstad" />
		<tag k="place" v="farm" />
		<tag k="ssr:stedsnr" v="250456" />
	</node>
	<node lat="61.362899999202476" lon="9.737125007699488" id="-25825">
		<tag k="name" v="Enden" />
		<tag k="place" v="farm" />
		<tag k="ssr:stedsnr" v="250656" />
	</node>
	<node lat="61.175237546123775" lon="9.856289776470723" id="-25829">
		<tag k="historic" v="shieling" />
		<tag k="name" v="Oppsjølia" />
		<tag k="place" v="isolated_dwelling" />
		<tag k="ssr:stedsnr" v="250725" />
	</node>
	<node lat="61.149888890405215" lon="10.17617500857259" id="-25839">
		<tag k="fixme" v="consider place=hamlet" />
		<tag k="name" v="Tøftum" />
		<tag k="old_name" v="Vikelsrud" />
		<tag k="place" v="farm" />
		<tag k="ssr:stedsnr" v="251076" />
	</node>
	<node lat="61.28412499682215" lon="9.806158330124108" id="-25841">
		<tag k="fixme" v="consider tourism=alpine_hut or tourism=chalet" />
		<tag k="name" v="Svabekkbua" />
		<tag k="ssr:stedsnr" v="121194" />
		<tag k="tourism" v="wilderness_hut" />
	</node>
	<node lat="61.40256110896023" lon="9.557944444003466" id="-25844">
		<tag k="name" v="Gravslettet" />
		<tag k="place" v="isolated_dwelling" />
		<tag k="ssr:stedsnr" v="251488" />
	</node>
	<node lat="61.2099527768882" lon="10.242800002702776" id="-25845">
		<tag k="name" v="Dokken" />
		<tag k="place" v="farm" />
		<tag k="ssr:stedsnr" v="251493" />
	</node>
	<node lat="61.21273610831149" lon="10.31694722659569" id="-25847">
		<tag k="name" v="Sørli" />
		<tag k="place" v="farm" />
		<tag k="ssr:stedsnr" v="251509" />
	</node>
	<node lat="61.333644443900496" lon="9.575666660245254" id="-25849">
		<tag k="name" v="Leppbua" />
		<tag k="place" v="isolated_dwelling" />
		<tag k="ssr:stedsnr" v="251513" />
	</node>
	<node lat="61.41013333601704" lon="9.562894439789348" id="-25853">
		<tag k="name" v="Eggen" />
		<tag k="place" v="farm" />
		<tag k="ssr:stedsnr" v="251476" />
	</node>
	<node lat="61.34393609075464" lon="9.770334105608008" id="-25856">
		<tag k="fixme" v="consider place=hamlet" />
		<tag k="name" v="Synstgard" />
		<tag k="place" v="farm" />
		<tag k="ssr:stedsnr" v="251704" />
	</node>
	<node lat="61.29921944030537" lon="10.074963896222659" id="-25857">
		<tag k="historic" v="shieling" />
		<tag k="name" v="Lisetra" />
		<tag k="place" v="isolated_dwelling" />
		<tag k="ssr:stedsnr" v="251798" />
	</node>
	<node lat="61.29131388892022" lon="9.974441666037318" id="-25858">
		<tag k="name" v="Møylia" />
		<tag k="place" v="farm" />
		<tag k="ssr:stedsnr" v="251799" />
	</node>
	<node lat="61.31488865692669" lon="10.192072946694612" id="-25859">
		<tag k="alt_name" v="Granlien" />
		<tag k="fixme" v="consider place=hamlet" />
		<tag k="name" v="Granlia" />
		<tag k="place" v="farm" />
		<tag k="ssr:stedsnr" v="251832" />
	</node>
	<node lat="61.29917871896987" lon="9.937824040997551" id="-25861">
		<tag k="fixme" v="consider place=hamlet" />
		<tag k="name" v="Bjørlia" />
		<tag k="place" v="farm" />
		<tag k="ssr:stedsnr" v="251759" />
	</node>
	<node lat="61.26932500094663" lon="9.892563896831318" id="-25862">
		<tag k="historic" v="shieling" />
		<tag k="name" v="Hellebergssetra" />
		<tag k="place" v="isolated_dwelling" />
		<tag k="ssr:stedsnr" v="251768" />
	</node>
	<node lat="61.25294335901305" lon="10.213284205150366" id="-25866">
		<tag k="name" v="Tøftum" />
		<tag k="place" v="farm" />
		<tag k="ssr:stedsnr" v="251852" />
	</node>
	<node lat="61.254413889756265" lon="10.220825001717847" id="-25867">
		<tag k="name" v="Høgheim" />
		<tag k="place" v="farm" />
		<tag k="ssr:stedsnr" v="251853" />
	</node>
	<node lat="61.241954493116694" lon="10.168980545795144" id="-25869">
		<tag k="fixme" v="multiple name tags, choose one and add the other to alt_name; consider place=hamlet" />
		<tag k="name" v="Vollslia;Majorslia" />
		<tag k="place" v="farm" />
		<tag k="ssr:stedsnr" v="128245" />
	</node>
	<node lat="61.243661111496344" lon="10.212005546471783" id="-25870">
		<tag k="name" v="Bergseng" />
		<tag k="place" v="farm" />
		<tag k="ssr:stedsnr" v="128247" />
	</node>
	<node lat="61.23838129957505" lon="10.207035742957101" id="-25871">
		<tag k="fixme" v="consider place=hamlet" />
		<tag k="name" v="Myre" />
		<tag k="place" v="farm" />
		<tag k="ssr:stedsnr" v="128248" />
	</node>
	<node lat="61.21357500349179" lon="9.965450009185508" id="-25872">
		<tag k="name" v="Grasslåa" />
		<tag k="place" v="isolated_dwelling" />
		<tag k="ssr:stedsnr" v="128512" />
	</node>
	<node lat="61.22135161871377" lon="9.939786555944268" id="-25874">
		<tag k="name" v="Rønningsslettet" />
		<tag k="place" v="isolated_dwelling" />
		<tag k="ssr:stedsnr" v="128485" />
	</node>
	<node lat="61.223949999942306" lon="9.670355546725474" id="-25875">
		<tag k="historic" v="shieling" />
		<tag k="name" v="Tortjønnlia" />
		<tag k="place" v="isolated_dwelling" />
		<tag k="ssr:stedsnr" v="128491" />
	</node>
	<node lat="61.14685278110338" lon="10.150313895822096" id="-25876">
		<tag k="alt_name" v="Dalslien" />
		<tag k="name" v="Dalslia" />
		<tag k="place" v="farm" />
		<tag k="ssr:stedsnr" v="129106" />
	</node>
	<node lat="61.1277388877031" lon="10.144752771092307" id="-25878">
		<tag k="historic" v="shieling" />
		<tag k="name" v="Grøtåsen" />
		<tag k="place" v="isolated_dwelling" />
		<tag k="ssr:stedsnr" v="129112" />
	</node>
	<node lat="61.22445129485322" lon="10.19468835798973" id="-25879">
		<tag k="alt_name" v="England" />
		<tag k="fixme" v="consider place=hamlet" />
		<tag k="name" v="Engeland" />
		<tag k="place" v="farm" />
		<tag k="ssr:stedsnr" v="129291" />
	</node>
	<node lat="61.22203611420641" lon="10.17830277927667" id="-25880">
		<tag k="alt_name" v="Ekern" />
		<tag k="name" v="Ekren" />
		<tag k="place" v="farm" />
		<tag k="ssr:stedsnr" v="129292" />
	</node>
	<node lat="61.22733610839395" lon="10.170677772855203" id="-25881">
		<tag k="name" v="Bergom" />
		<tag k="place" v="farm" />
		<tag k="ssr:stedsnr" v="129293" />
	</node>
	<node lat="61.221949733956556" lon="10.25836947820282" id="-25882">
		<tag k="fixme" v="consider place=hamlet" />
		<tag k="name" v="Bø" />
		<tag k="place" v="farm" />
		<tag k="ssr:stedsnr" v="129294" />
	</node>
	<node lat="61.18505108445979" lon="10.15737191705446" id="-25884">
		<tag k="name" v="Brennomsbakken" />
		<tag k="place" v="farm" />
		<tag k="ssr:stedsnr" v="129427" />
	</node>
	<node lat="61.21079203165771" lon="10.272354126111813" id="-25885">
		<tag k="fixme" v="consider place=hamlet" />
		<tag k="name" v="Moen" />
		<tag k="place" v="farm" />
		<tag k="ssr:stedsnr" v="129457" />
	</node>
	<node lat="61.18960000440389" lon="10.162563890899364" id="-25886">
		<tag k="name" v="Sørjordet" />
		<tag k="place" v="farm" />
		<tag k="ssr:stedsnr" v="129385" />
	</node>
	<node lat="61.2336472192316" lon="9.722536105644897" id="-25887">
		<tag k="historic" v="shieling" />
		<tag k="name" v="Druktjønnhaugen" />
		<tag k="place" v="isolated_dwelling" />
		<tag k="ssr:stedsnr" v="129511" />
	</node>
	<node lat="61.30693332895247" lon="9.923524995124636" id="-25889">
		<tag k="alt_name" v="Bøle, øvre" />
		<tag k="name" v="Øvre Bøle" />
		<tag k="place" v="farm" />
		<tag k="ssr:stedsnr" v="129633" />
	</node>
	<node lat="61.30872222570192" lon="10.21081944793621" id="-25890">
		<tag k="alt_name" v="Blessom" />
		<tag k="name" v="Blesum" />
		<tag k="place" v="farm" />
		<tag k="ssr:stedsnr" v="129811" />
	</node>
	<node lat="61.251244447872836" lon="10.219416666165282" id="-25891">
		<tag k="name" v="Gardstad" />
		<tag k="place" v="farm" />
		<tag k="ssr:stedsnr" v="129818" />
	</node>
	<node lat="61.25745000262794" lon="10.129724999134885" id="-25892">
		<tag k="name" v="Fyksehaugen" />
		<tag k="place" v="farm" />
		<tag k="ssr:stedsnr" v="129828" />
	</node>
	<node lat="61.264225000705316" lon="10.122713891886027" id="-25893">
		<tag k="alt_name" v="Hagen" />
		<tag k="name" v="Hågån" />
		<tag k="place" v="farm" />
		<tag k="ssr:stedsnr" v="129844" />
	</node>
	<node lat="61.27011308961435" lon="10.125819325626425" id="-25894">
		<tag k="fixme" v="consider place=hamlet" />
		<tag k="name" v="Kleva" />
		<tag k="place" v="farm" />
		<tag k="ssr:stedsnr" v="129847" />
	</node>
	<node lat="61.27083241198128" lon="10.157401886441168" id="-25895">
		<tag k="fixme" v="consider place=hamlet" />
		<tag k="name" v="Tofte" />
		<tag k="place" v="farm" />
		<tag k="ssr:stedsnr" v="129848" />
	</node>
	<node lat="61.27980278030748" lon="9.899166660173877" id="-25899">
		<tag k="historic" v="shieling" />
		<tag k="name" v="Hyttengsetra" />
		<tag k="place" v="isolated_dwelling" />
		<tag k="ssr:stedsnr" v="129740" />
	</node>
	<node lat="61.290202777559784" lon="9.936038893108263" id="-25901">
		<tag k="name" v="Mosenget" />
		<tag k="place" v="farm" />
		<tag k="ssr:stedsnr" v="129744" />
	</node>
	<node lat="61.30421110758194" lon="10.196866664830585" id="-25902">
		<tag k="name" v="Tråset" />
		<tag k="place" v="farm" />
		<tag k="ssr:stedsnr" v="129784" />
	</node>
	<node lat="61.27588889167098" lon="10.107336107613367" id="-25906">
		<tag k="alt_name" v="Kleiven" />
		<tag k="name" v="Kleva" />
		<tag k="place" v="farm" />
		<tag k="ssr:stedsnr" v="130837" />
	</node>
	<node lat="61.27598055818255" lon="10.011722225797758" id="-25907">
		<tag k="name" v="Midtre Aulstad" />
		<tag k="place" v="farm" />
		<tag k="ssr:stedsnr" v="158702" />
	</node>
	<node lat="61.34218055619166" lon="10.177397215015938" id="-25913">
		<tag k="historic" v="shieling" />
		<tag k="name" v="Storhaugsetra" />
		<tag k="place" v="isolated_dwelling" />
		<tag k="ssr:stedsnr" v="171017" />
	</node>
	<node lat="61.34210716084845" lon="10.072958596571894" id="-25915">
		<tag k="historic" v="shieling" />
		<tag k="name" v="Bakkalykkja" />
		<tag k="place" v="isolated_dwelling" />
		<tag k="ssr:stedsnr" v="171316" />
	</node>
	<node lat="61.28951111195921" lon="10.149502770507711" id="-25917">
		<tag k="alt_name" v="Søndre Kjos;Kjos søndre" />
		<tag k="fixme" v="consider place=hamlet" />
		<tag k="name" v="Søre Kjos" />
		<tag k="place" v="farm" />
		<tag k="ssr:stedsnr" v="171668" />
	</node>
	<node lat="61.29934722320193" lon="10.167691671614243" id="-25923">
		<tag k="historic" v="shieling" />
		<tag k="name" v="Vårsetra" />
		<tag k="place" v="isolated_dwelling" />
		<tag k="ssr:stedsnr" v="172566" />
	</node>
	<node lat="61.385522225422974" lon="9.635147214266189" id="-25926">
		<tag k="historic" v="shieling" />
		<tag k="name" v="Vikasetra" />
		<tag k="place" v="isolated_dwelling" />
		<tag k="ssr:stedsnr" v="172956" />
	</node>
	<node lat="61.260741664463545" lon="10.191241662164467" id="-25928">
		<tag k="name" v="Gutuen" />
		<tag k="place" v="farm" />
		<tag k="ssr:stedsnr" v="173079" />
	</node>
	<node lat="61.2584555586076" lon="9.829083324840537" id="-25930">
		<tag k="historic" v="shieling" />
		<tag k="name" v="Nordre Kråbølssetra" />
		<tag k="place" v="isolated_dwelling" />
		<tag k="ssr:stedsnr" v="173270" />
	</node>
	<node lat="61.21266389185257" lon="10.205227784322034" id="-25931">
		<tag k="name" v="Midtlia" />
		<tag k="place" v="farm" />
		<tag k="ssr:stedsnr" v="173368" />
	</node>
	<node lat="61.206286115331906" lon="10.295030550966809" id="-25935">
		<tag k="alt_name" v="Toft søndre;Søndre Toft" />
		<tag k="name" v="Søre Toft" />
		<tag k="place" v="farm" />
		<tag k="ssr:stedsnr" v="176302" />
	</node>
	<node lat="61.13533332969525" lon="10.191583335579987" id="-25937">
		<tag k="name" v="Solbakken" />
		<tag k="place" v="farm" />
		<tag k="ssr:stedsnr" v="177763" />
	</node>
	<node lat="61.361072226527845" lon="10.10907222326677" id="-25938">
		<tag k="historic" v="shieling" />
		<tag k="name" v="Åmotsetra" />
		<tag k="place" v="isolated_dwelling" />
		<tag k="ssr:stedsnr" v="178060" />
	</node>
	<node lat="61.292124999491556" lon="10.156783334552337" id="-25941">
		<tag k="alt_name" v="Nustad søndre;Søndre Nustad" />
		<tag k="fixme" v="consider place=hamlet" />
		<tag k="name" v="Søre Nustad" />
		<tag k="place" v="farm" />
		<tag k="ssr:stedsnr" v="181527" />
	</node>
	<node lat="61.132516669621424" lon="10.176902775962052" id="-25942">
		<tag k="alt_name" v="Finsrudlia" />
		<tag k="name" v="Finnsrudlia" />
		<tag k="place" v="farm" />
		<tag k="ssr:stedsnr" v="189072" />
	</node>
	<node lat="61.19968055148815" lon="10.165208336420184" id="-25943">
		<tag k="name" v="Ringsrud" />
		<tag k="place" v="isolated_dwelling" />
		<tag k="ssr:stedsnr" v="189373" />
	</node>
	<node lat="61.23049722610264" lon="10.25826943772159" id="-25944">
		<tag k="name" v="Sørheim" />
		<tag k="place" v="farm" />
		<tag k="ssr:stedsnr" v="189264" />
	</node>
	<node lat="61.23094797885318" lon="10.220860551090196" id="-25945">
		<tag k="fixme" v="consider place=hamlet" />
		<tag k="name" v="Segalstad" />
		<tag k="place" v="farm" />
		<tag k="ssr:stedsnr" v="189278" />
	</node>
	<node lat="61.149793627590086" lon="10.108719632280772" id="-25947">
		<tag k="historic" v="shieling" />
		<tag k="name" v="Djupådalen" />
		<tag k="place" v="isolated_dwelling" />
		<tag k="ssr:stedsnr" v="190080" />
	</node>
	<node lat="61.215054482174985" lon="10.115986266038485" id="-25948">
		<tag k="alt_name" v="Kråbøl, nedre" />
		<tag k="fixme" v="consider place=hamlet" />
		<tag k="name" v="Nedre Kråbøl" />
		<tag k="place" v="farm" />
		<tag k="ssr:stedsnr" v="190458" />
	</node>
	<node lat="61.32243055733356" lon="9.880233328714594" id="-25949">
		<tag k="name" v="Rud" />
		<tag k="place" v="farm" />
		<tag k="ssr:stedsnr" v="190626" />
	</node>
	<node lat="61.20277500418147" lon="10.110872224178687" id="-25953">
		<tag k="name" v="Martinbakken" />
		<tag k="place" v="farm" />
		<tag k="ssr:stedsnr" v="190508" />
	</node>
	<node lat="61.21038332942718" lon="10.101363879888222" id="-25955">
		<tag k="name" v="Kråbølslia" />
		<tag k="place" v="farm" />
		<tag k="ssr:stedsnr" v="190510" />
	</node>
	<node lat="61.349252718686465" lon="9.76417795445878" id="-25958">
		<tag k="fixme" v="consider place=hamlet" />
		<tag k="name" v="Klåpe" />
		<tag k="place" v="farm" />
		<tag k="ssr:stedsnr" v="190705" />
	</node>
	<node lat="61.353391694453876" lon="9.75480156005445" id="-25959">
		<tag k="alt_name" v="Nordre Nordgarden" />
		<tag k="fixme" v="consider place=hamlet" />
		<tag k="name" v="Nordgarden" />
		<tag k="place" v="farm" />
		<tag k="ssr:stedsnr" v="190709" />
	</node>
	<node lat="61.30361265567992" lon="10.178132497582983" id="-25963">
		<tag k="fixme" v="consider place=hamlet" />
		<tag k="name" v="Jenshus" />
		<tag k="place" v="farm" />
		<tag k="ssr:stedsnr" v="190811" />
	</node>
	<node lat="61.30900911413295" lon="10.202865669495377" id="-25964">
		<tag k="fixme" v="consider place=hamlet" />
		<tag k="name" v="Blihovde" />
		<tag k="place" v="farm" />
		<tag k="ssr:stedsnr" v="190825" />
	</node>
	<node lat="61.26296666615208" lon="10.187372219202228" id="-25965">
		<tag k="alt_name" v="Gjefse nordre;Gjefse" />
		<tag k="name" v="Nordre Gjefse" />
		<tag k="place" v="farm" />
		<tag k="ssr:stedsnr" v="190858" />
	</node>
	<node lat="61.26349166245886" lon="9.756744445290668" id="-25966">
		<tag k="historic" v="shieling" />
		<tag k="name" v="Nysetra" />
		<tag k="place" v="isolated_dwelling" />
		<tag k="ssr:stedsnr" v="190767" />
	</node>
	<node lat="61.31963055328974" lon="9.85981667399598" id="-25968">
		<tag k="fixme" v="consider place=hamlet" />
		<tag k="name" v="Nedre Svatsum" />
		<tag k="old_name" v="Nedre Svartsum" />
		<tag k="place" v="village" />
		<tag k="ssr:stedsnr" v="208018" />
	</node>
	<node lat="61.20212500335438" lon="10.143841657918847" id="-25969">
		<tag k="name" v="Forset" />
		<tag k="place" v="village" />
		<tag k="ssr:stedsnr" v="208116" />
	</node>
	<node lat="61.282388886054505" lon="10.004802784352867" id="-25970">
		<tag k="name" v="Nordås" />
		<tag k="place" v="farm" />
		<tag k="ssr:stedsnr" v="219694" />
	</node>
	<node lat="61.386099998534846" lon="9.894922221492067" id="-25979">
		<tag k="name" v="Oppgardsbua" />
		<tag k="place" v="locality" />
		<tag k="ssr:stedsnr" v="231689" />
	</node>
	<node lat="61.34086389107923" lon="10.09553611535941" id="-25982">
		<tag k="historic" v="shieling" />
		<tag k="name" v="Toftsetra" />
		<tag k="place" v="isolated_dwelling" />
		<tag k="ssr:stedsnr" v="232328" />
	</node>
	<node lat="61.33830555705327" lon="9.743838888286929" id="-25985">
		<tag k="name" v="Nordre Finndalen" />
		<tag k="place" v="farm" />
		<tag k="ssr:stedsnr" v="232788" />
	</node>
	<node lat="61.329105558181816" lon="10.005813889765442" id="-25986">
		<tag k="historic" v="shieling" />
		<tag k="name" v="Aulstadbakksetra" />
		<tag k="place" v="isolated_dwelling" />
		<tag k="ssr:stedsnr" v="232934" />
	</node>
	<node lat="61.26065277825855" lon="10.202499992229646" id="-25994">
		<tag k="alt_name" v="Sønstvollhaugen" />
		<tag k="name" v="Synstvollhaugen" />
		<tag k="place" v="farm" />
		<tag k="ssr:stedsnr" v="233091" />
	</node>
	<node lat="61.258594447250346" lon="10.20055555330858" id="-25995">
		<tag k="name" v="Steinum" />
		<tag k="place" v="farm" />
		<tag k="ssr:stedsnr" v="233095" />
	</node>
	<node lat="61.258891664226404" lon="10.195291662131412" id="-25996">
		<tag k="name" v="Volehaugen" />
		<tag k="place" v="farm" />
		<tag k="ssr:stedsnr" v="233096" />
	</node>
	<node lat="61.39119721899782" lon="9.609336109902848" id="-26004">
		<tag k="fixme" v="multiple name tags, choose one and add the other to alt_name" />
		<tag k="historic" v="shieling" />
		<tag k="name" v="Søre Lauvålia;Nordre Stubberudsetra" />
		<tag k="place" v="isolated_dwelling" />
		<tag k="ssr:stedsnr" v="233951" />
	</node>
	<node lat="61.189861112907245" lon="10.070105557851672" id="-26011">
		<tag k="historic" v="shieling" />
		<tag k="name" v="Søre Kalstadsetra" />
		<tag k="place" v="isolated_dwelling" />
		<tag k="ssr:stedsnr" v="234029" />
	</node>
	<node lat="61.220927776275474" lon="9.920672213628198" id="-26012">
		<tag k="historic" v="shieling" />
		<tag k="name" v="Nedre Kråbølssetra" />
		<tag k="place" v="isolated_dwelling" />
		<tag k="ssr:stedsnr" v="234183" />
	</node>
	<node lat="61.215700003109454" lon="10.14180278572483" id="-26015">
		<tag k="name" v="Bergemellom" />
		<tag k="place" v="locality" />
		<tag k="ssr:stedsnr" v="234378" />
	</node>
	<node lat="61.23757222659144" lon="10.279625007518083" id="-26019">
		<tag k="name" v="Nedre Reiten" />
		<tag k="place" v="farm" />
		<tag k="ssr:stedsnr" v="237108" />
	</node>
	<node lat="61.31974025722103" lon="9.860029212106253" id="-26022">
		<tag k="fixme" v="consider place=hamlet" />
		<tag k="name" v="Svatsum" />
		<tag k="place" v="village" />
		<tag k="ssr:stedsnr" v="273188" />
	</node>
	<node lat="61.37276388833715" lon="10.138169439380542" id="-26027">
		<tag k="historic" v="shieling" />
		<tag k="loc_name" v="Forrestadsetra" />
		<tag k="name" v="Fåråstadsetra" />
		<tag k="place" v="isolated_dwelling" />
		<tag k="ssr:stedsnr" v="292129" />
	</node>
	<node lat="61.17674721791963" lon="9.860647230054127" id="-26031">
		<tag k="historic" v="shieling" />
		<tag k="name" v="Vollbakken" />
		<tag k="place" v="isolated_dwelling" />
		<tag k="ssr:stedsnr" v="462339" />
	</node>
	<node lat="61.3410750000175" lon="9.771997229435694" id="-26033">
		<tag k="name" v="Heimly" />
		<tag k="place" v="farm" />
		<tag k="ssr:stedsnr" v="292936" />
	</node>
	<node lat="61.30009999804074" lon="9.913772220201237" id="-26036">
		<tag k="name" v="Midtvoll" />
		<tag k="place" v="farm" />
		<tag k="ssr:stedsnr" v="293179" />
	</node>
	<node lat="61.334316663469416" lon="9.760599992637196" id="-26039">
		<tag k="name" v="Sagbakken" />
		<tag k="place" v="farm" />
		<tag k="ssr:stedsnr" v="293475" />
	</node>
	<node lat="61.323484697814614" lon="9.852721204758547" id="-26040">
		<tag k="fixme" v="consider place=hamlet" />
		<tag k="name" v="Ekkerhaugen" />
		<tag k="place" v="farm" />
		<tag k="ssr:stedsnr" v="293606" />
	</node>
	<node lat="61.3198448427598" lon="9.876844354355706" id="-26041">
		<tag k="name" v="Gamle Ro" />
		<tag k="place" v="locality" />
		<tag k="ssr:stedsnr" v="293609" />
	</node>
	<node lat="61.31868610769421" lon="9.819186105293408" id="-26043">
		<tag k="historic" v="shieling" />
		<tag k="name" v="Aspejordet" />
		<tag k="place" v="isolated_dwelling" />
		<tag k="ssr:stedsnr" v="293634" />
	</node>
	<node lat="61.295574999531" lon="10.18949999907847" id="-26047">
		<tag k="name" v="Rundtom" />
		<tag k="place" v="farm" />
		<tag k="ssr:stedsnr" v="294112" />
	</node>
	<node lat="61.21853333072703" lon="10.155013896095864" id="-26056">
		<tag k="name" v="Rønningen" />
		<tag k="place" v="locality" />
		<tag k="ssr:stedsnr" v="295388" />
	</node>
	<node lat="61.26231666567636" lon="9.75841110634288" id="-26061">
		<tag k="historic" v="shieling" />
		<tag k="name" v="Nedre Aulstadsetra" />
		<tag k="place" v="isolated_dwelling" />
		<tag k="ssr:stedsnr" v="299505" />
	</node>
	<node lat="61.18644722270264" lon="10.07610832884121" id="-26063">
		<tag k="historic" v="shieling" />
		<tag k="name" v="Kalstadsetra" />
		<tag k="place" v="isolated_dwelling" />
		<tag k="ssr:stedsnr" v="300222" />
	</node>
	<node lat="61.22580000060246" lon="10.240536120068896" id="-26065">
		<tag k="fixme" v="consider place=hamlet" />
		<tag k="name" v="Nordre Steine" />
		<tag k="place" v="farm" />
		<tag k="ssr:stedsnr" v="303528" />
	</node>
	<node lat="61.4035208103336" lon="9.792255088350649" id="-26066">
		<tag k="historic" v="shieling" />
		<tag k="name" v="Gåsøya" />
		<tag k="old_name" v="Gaasøien" />
		<tag k="place" v="isolated_dwelling" />
		<tag k="ssr:stedsnr" v="465899" />
	</node>
	<node lat="61.24458935458774" lon="10.21476104831374" id="-26067">
		<tag k="fixme" v="consider place=hamlet" />
		<tag k="name" v="Hanestad" />
		<tag k="place" v="farm" />
		<tag k="ssr:stedsnr" v="310239" />
	</node>
	<node lat="61.23465018432025" lon="10.213116197328667" id="-26068">
		<tag k="alt_name" v="Fjerdrum" />
		<tag k="fixme" v="consider place=hamlet" />
		<tag k="name" v="Fjerdom" />
		<tag k="place" v="farm" />
		<tag k="ssr:stedsnr" v="311372" />
	</node>
	<node lat="61.21522500385553" lon="10.03646666130913" id="-26069">
		<tag k="name" v="Skardet" />
		<tag k="place" v="isolated_dwelling" />
		<tag k="ssr:stedsnr" v="311510" />
	</node>
	<node lat="61.34018380161621" lon="9.776451346207011" id="-26070">
		<tag k="alt_name" v="Gompholen" />
		<tag k="fixme" v="consider place=hamlet" />
		<tag k="name" v="Gumpholen" />
		<tag k="place" v="farm" />
		<tag k="ssr:stedsnr" v="311721" />
	</node>
	<node lat="61.340211113576814" lon="9.78810554741421" id="-26071">
		<tag k="name" v="Fagerlia" />
		<tag k="place" v="farm" />
		<tag k="ssr:stedsnr" v="311723" />
	</node>
	<node lat="61.17508611249367" lon="10.160302771158827" id="-26072">
		<tag k="name" v="Knutrud" />
		<tag k="place" v="farm" />
		<tag k="ssr:stedsnr" v="311472" />
	</node>
	<node lat="61.21312777820825" lon="10.202877782723094" id="-26073">
		<tag k="name" v="Nordlia" />
		<tag k="place" v="farm" />
		<tag k="ssr:stedsnr" v="311485" />
	</node>
	<node lat="61.25505000406167" lon="10.289819452025684" id="-26075">
		<tag k="historic" v="shieling" />
		<tag k="name" v="Lundsetra" />
		<tag k="place" v="isolated_dwelling" />
		<tag k="ssr:stedsnr" v="311873" />
	</node>
	<node lat="61.2639749985523" lon="10.144949995185994" id="-26076">
		<tag k="name" v="Kveine" />
		<tag k="place" v="farm" />
		<tag k="ssr:stedsnr" v="311880" />
	</node>
	<node lat="61.271811113151465" lon="10.186438893676371" id="-26077">
		<tag k="name" v="Klopphus" />
		<tag k="place" v="farm" />
		<tag k="ssr:stedsnr" v="311882" />
	</node>
	<node lat="61.255635453458616" lon="10.173514984260919" id="-26088">
		<tag k="alt_name" v="Nørstevoll" />
		<tag k="fixme" v="consider place=hamlet" />
		<tag k="name" v="Nørdstvoll" />
		<tag k="place" v="farm" />
		<tag k="ssr:stedsnr" v="494790" />
	</node>
	<node lat="61.37309863358738" lon="10.139195215271318" id="-26089">
		<tag k="historic" v="shieling" />
		<tag k="name" v="Søre Steinssetra" />
		<tag k="place" v="isolated_dwelling" />
		<tag k="ssr:stedsnr" v="473168" />
	</node>
	<node lat="61.34789444547827" lon="10.170863892198351" id="-26094">
		<tag k="historic" v="shieling" />
		<tag k="name" v="Hanestadsetra" />
		<tag k="place" v="isolated_dwelling" />
		<tag k="ssr:stedsnr" v="474028" />
	</node>
	<node lat="61.40588888818249" lon="9.858572225658003" id="-26098">
		<tag k="historic" v="shieling" />
		<tag k="name" v="Midtvollsetra" />
		<tag k="place" v="isolated_dwelling" />
		<tag k="ssr:stedsnr" v="352119" />
	</node>
	<node lat="61.30425349082742" lon="10.038584613097374" id="-26110">
		<tag k="historic" v="shieling" />
		<tag k="name" v="Skansen" />
		<tag k="place" v="isolated_dwelling" />
		<tag k="ssr:stedsnr" v="353255" />
	</node>
	<node lat="61.41370555989593" lon="9.552391662260487" id="-26114">
		<tag k="name" v="Nordre Megrund" />
		<tag k="place" v="farm" />
		<tag k="ssr:stedsnr" v="353910" />
	</node>
	<node lat="61.323697253882905" lon="9.954759912129086" id="-26115">
		<tag k="name" v="Bekkemillombua" />
		<tag k="place" v="locality" />
		<tag k="ssr:stedsnr" v="353857" />
	</node>
	<node lat="61.310842882050814" lon="10.060114742262508" id="-26117">
		<tag k="historic" v="shieling" />
		<tag k="loc_name" v="Lillesæteren" />
		<tag k="name" v="Nordre Nustadsetra" />
		<tag k="place" v="isolated_dwelling" />
		<tag k="ssr:stedsnr" v="354272" />
	</node>
	<node lat="61.290730552930704" lon="10.070608342390798" id="-26121">
		<tag k="name" v="Fiskehytta" />
		<tag k="place" v="locality" />
		<tag k="ssr:stedsnr" v="354651" />
	</node>
	<node lat="61.27835277671601" lon="10.119080560715037" id="-26122">
		<tag k="name" v="Nordli" />
		<tag k="place" v="farm" />
		<tag k="ssr:stedsnr" v="354655" />
	</node>
	<node lat="61.28620555389054" lon="10.129286106811412" id="-26123">
		<tag k="name" v="Lyberg" />
		<tag k="place" v="farm" />
		<tag k="ssr:stedsnr" v="354707" />
	</node>
	<node lat="61.2864583300247" lon="10.133494435613535" id="-26124">
		<tag k="name" v="Bjørkholt" />
		<tag k="place" v="farm" />
		<tag k="ssr:stedsnr" v="354709" />
	</node>
	<node lat="61.34138888742444" lon="9.757705558547679" id="-26125">
		<tag k="alt_name" v="Kvisberglia øvre" />
		<tag k="name" v="Øvre Kvisberglia" />
		<tag k="place" v="farm" />
		<tag k="ssr:stedsnr" v="354808" />
	</node>
	<node lat="61.23116944320615" lon="10.063480560417764" id="-26128">
		<tag k="name" v="Nedre Rønningen" />
		<tag k="place" v="farm" />
		<tag k="ssr:stedsnr" v="354872" />
	</node>
	<node lat="61.3624694445202" lon="9.738147216408354" id="-26129">
		<tag k="name" v="Nordre Rognlia" />
		<tag k="place" v="farm" />
		<tag k="ssr:stedsnr" v="354876" />
	</node>
	<node lat="61.2400305569311" lon="10.065661112216453" id="-26135">
		<tag k="name" v="Viggtun" />
		<tag k="place" v="farm" />
		<tag k="ssr:stedsnr" v="354770" />
	</node>
	<node lat="61.40514166962958" lon="9.571663885934083" id="-26139">
		<tag k="name" v="Fallistugua" />
		<tag k="place" v="locality" />
		<tag k="ssr:stedsnr" v="474874" />
	</node>
	<node lat="61.41971389198172" lon="9.560311113390297" id="-26140">
		<tag k="historic" v="shieling" />
		<tag k="name" v="Nysetra" />
		<tag k="place" v="isolated_dwelling" />
		<tag k="ssr:stedsnr" v="474896" />
	</node>
	<node lat="61.18986111215134" lon="10.156474991433045" id="-26143">
		<tag k="name" v="Nerhaug" />
		<tag k="place" v="farm" />
		<tag k="ssr:stedsnr" v="355958" />
	</node>
	<node lat="61.23689444311646" lon="10.28654721323605" id="-26148">
		<tag k="name" v="Øvre Reiten" />
		<tag k="place" v="farm" />
		<tag k="ssr:stedsnr" v="358116" />
	</node>
	<node lat="61.341266663272066" lon="10.069847216197141" id="-26149">
		<tag k="historic" v="shieling" />
		<tag k="name" v="Øvre Bjørgesetra" />
		<tag k="place" v="isolated_dwelling" />
		<tag k="ssr:stedsnr" v="475348" />
	</node>
	<node lat="61.34104356511078" lon="10.093442250606454" id="-26151">
		<tag k="fixme" v="multiple name tags, choose one and add the other to alt_name" />
		<tag k="historic" v="shieling" />
		<tag k="name" v="Blihovdsestra;Skei seter" />
		<tag k="place" v="isolated_dwelling" />
		<tag k="ssr:stedsnr" v="475356" />
	</node>
	<node lat="61.367069445381624" lon="10.1014472175503" id="-26152">
		<tag k="historic" v="shieling" />
		<tag k="name" v="Avlundssetra" />
		<tag k="place" v="isolated_dwelling" />
		<tag k="ssr:stedsnr" v="359055" />
	</node>
	<node lat="61.332475003401825" lon="9.704330559548845" id="-26155">
		<tag k="historic" v="shieling" />
		<tag k="name" v="Vaslettet" />
		<tag k="place" v="isolated_dwelling" />
		<tag k="ssr:stedsnr" v="475456" />
	</node>
	<node lat="61.16647500226577" lon="10.153797216549249" id="-26157">
		<tag k="name" v="Ringen" />
		<tag k="place" v="farm" />
		<tag k="ssr:stedsnr" v="359454" />
	</node>
	<node lat="61.2775611134937" lon="10.111627774117494" id="-26158">
		<tag k="name" v="Engehagen" />
		<tag k="place" v="farm" />
		<tag k="ssr:stedsnr" v="475627" />
	</node>
	<node lat="61.29282500253656" lon="10.168213885928331" id="-26160">
		<tag k="alt_name" v="Pighaug" />
		<tag k="name" v="Pikhaug" />
		<tag k="place" v="farm" />
		<tag k="ssr:stedsnr" v="475647" />
	</node>
	<node lat="61.27844166864332" lon="9.999697229500809" id="-26163">
		<tag k="name" v="Ulvestrand" />
		<tag k="place" v="farm" />
		<tag k="ssr:stedsnr" v="475878" />
	</node>
	<node lat="61.33606954201679" lon="9.93958158645996" id="-26164">
		<tag k="historic" v="shieling" />
		<tag k="name" v="Snertingdalssetra" />
		<tag k="place" v="isolated_dwelling" />
		<tag k="ssr:stedsnr" v="475881" />
	</node>
	<node lat="61.35525277890917" lon="9.749233331093404" id="-26168">
		<tag k="name" v="Svea" />
		<tag k="place" v="farm" />
		<tag k="ssr:stedsnr" v="475961" />
	</node>
	<node lat="61.26360832987157" lon="10.124858335764673" id="-26169">
		<tag k="name" v="Sørhagen" />
		<tag k="place" v="farm" />
		<tag k="ssr:stedsnr" v="476066" />
	</node>
	<node lat="61.16203056009625" lon="9.986036107173291" id="-26170">
		<tag k="historic" v="shieling" />
		<tag k="name" v="Wiegårdssetra" />
		<tag k="place" v="isolated_dwelling" />
		<tag k="ssr:stedsnr" v="476088" />
	</node>
	<node lat="61.19071110795431" lon="10.068180562855295" id="-26174">
		<tag k="historic" v="shieling" />
		<tag k="name" v="Purkeskinnet" />
		<tag k="place" v="isolated_dwelling" />
		<tag k="ssr:stedsnr" v="476034" />
	</node>
	<node lat="61.272158331103775" lon="10.006788885885424" id="-26176">
		<tag k="name" v="Roland" />
		<tag k="place" v="farm" />
		<tag k="ssr:stedsnr" v="476416" />
	</node>
	<node lat="61.25869722648079" lon="9.826236110219774" id="-26178">
		<tag k="historic" v="shieling" />
		<tag k="name" v="Søre Solbjørssetra" />
		<tag k="place" v="isolated_dwelling" />
		<tag k="ssr:stedsnr" v="476290" />
	</node>
	<node lat="61.14438610980877" lon="10.043674997593715" id="-26187">
		<tag k="historic" v="shieling" />
		<tag k="name" v="Langsetsetra" />
		<tag k="place" v="isolated_dwelling" />
		<tag k="ssr:stedsnr" v="476882" />
	</node>
	<node lat="61.271700004139525" lon="10.001813885348014" id="-26188">
		<tag k="historic" v="shieling" />
		<tag k="name" v="Sørsvea" />
		<tag k="place" v="isolated_dwelling" />
		<tag k="ssr:stedsnr" v="476978" />
	</node>
	<node lat="61.38282499843178" lon="9.950075005462208" id="-26190">
		<tag k="name" v="Steinhytta" />
		<tag k="place" v="isolated_dwelling" />
		<tag k="ssr:stedsnr" v="477366" />
	</node>
	<node lat="61.18721666962971" lon="10.123847221988386" id="-26195">
		<tag k="alt_name" v="Rundsvea, s;Søndre Rundsvea" />
		<tag k="name" v="Søre Rundsvea" />
		<tag k="place" v="farm" />
		<tag k="ssr:stedsnr" v="371366" />
	</node>
	<node lat="61.1938744611167" lon="10.1565506497667" id="-26196">
		<tag k="name" v="Hole" />
		<tag k="place" v="farm" />
		<tag k="ssr:stedsnr" v="371375" />
	</node>
	<node lat="61.20714166258379" lon="10.269119438009197" id="-26198">
		<tag k="name" v="Nedre Brandslia" />
		<tag k="place" v="farm" />
		<tag k="ssr:stedsnr" v="479342" />
	</node>
	<node lat="61.33498791979574" lon="10.051357694897865" id="-26201">
		<tag k="historic" v="shieling" />
		<tag k="name" v="Trisnippsetra" />
		<tag k="place" v="isolated_dwelling" />
		<tag k="ssr:stedsnr" v="371958" />
	</node>
	<node lat="61.2141361155736" lon="10.314269450221746" id="-26206">
		<tag k="alt_name" v="Midtli" />
		<tag k="name" v="Midtlia" />
		<tag k="place" v="farm" />
		<tag k="ssr:stedsnr" v="372510" />
	</node>
	<node lat="61.20929722384169" lon="10.19512221300944" id="-26209">
		<tag k="name" v="Skogli" />
		<tag k="place" v="farm" />
		<tag k="ssr:stedsnr" v="372501" />
	</node>
	<node lat="61.32978058452198" lon="9.79958943396195" id="-26211">
		<tag k="alt_name" v="Aspesletten" />
		<tag k="fixme" v="consider place=hamlet" />
		<tag k="name" v="Ospesletta" />
		<tag k="place" v="farm" />
		<tag k="ssr:stedsnr" v="372645" />
	</node>
	<node lat="61.335237586107716" lon="9.783455809833649" id="-26212">
		<tag k="fixme" v="consider place=hamlet" />
		<tag k="name" v="Slettom" />
		<tag k="place" v="farm" />
		<tag k="ssr:stedsnr" v="372649" />
	</node>
	<node lat="61.34544132315784" lon="9.767829907587396" id="-26213">
		<tag k="fixme" v="consider place=hamlet" />
		<tag k="name" v="Kvisberg" />
		<tag k="place" v="farm" />
		<tag k="ssr:stedsnr" v="372702" />
	</node>
	<node lat="61.35229999641985" lon="9.784147213722381" id="-26215">
		<tag k="historic" v="shieling" />
		<tag k="name" v="Fageråsen" />
		<tag k="place" v="isolated_dwelling" />
		<tag k="ssr:stedsnr" v="372706" />
	</node>
	<node lat="61.25540145495171" lon="10.274978891971298" id="-26218">
		<tag k="fixme" v="consider place=hamlet" />
		<tag k="name" v="Tøftumslykkja" />
		<tag k="place" v="farm" />
		<tag k="ssr:stedsnr" v="372856" />
	</node>
	<node lat="61.25470000409652" lon="9.989877786223673" id="-26220">
		<tag k="historic" v="shieling" />
		<tag k="name" v="Aulstadlia" />
		<tag k="place" v="isolated_dwelling" />
		<tag k="ssr:stedsnr" v="372863" />
	</node>
	<node lat="61.27350176273514" lon="10.141912052013808" id="-26221">
		<tag k="fixme" v="consider place=hamlet" />
		<tag k="name" v="Holen" />
		<tag k="place" v="farm" />
		<tag k="ssr:stedsnr" v="372870" />
	</node>
	<node lat="61.27610555754043" lon="10.168913888253005" id="-26222">
		<tag k="name" v="Skinnerlia" />
		<tag k="place" v="farm" />
		<tag k="ssr:stedsnr" v="494862" />
	</node>
	<node lat="61.210205551646276" lon="10.24763055329728" id="-26223">
		<tag k="name" v="Granset" />
		<tag k="place" v="farm" />
		<tag k="ssr:stedsnr" v="479837" />
	</node>
	<node lat="61.16297221825947" lon="10.17084444232844" id="-26227">
		<tag k="name" v="Enget" />
		<tag k="place" v="locality" />
		<tag k="ssr:stedsnr" v="481452" />
	</node>
	<node lat="61.12959444185056" lon="10.146008337514218" id="-26228">
		<tag k="historic" v="shieling" />
		<tag k="name" v="Finnsvesetra" />
		<tag k="place" v="isolated_dwelling" />
		<tag k="ssr:stedsnr" v="481750" />
	</node>
	<node lat="61.24351110749699" lon="9.591680546626383" id="-26229">
		<tag k="historic" v="shieling" />
		<tag k="name" v="Tålåsetra" />
		<tag k="place" v="isolated_dwelling" />
		<tag k="ssr:stedsnr" v="482038" />
	</node>
	<node lat="61.309232101110005" lon="9.702227506441659" id="-26230">
		<tag k="historic" v="shieling" />
		<tag k="name" v="Listadsetra" />
		<tag k="place" v="isolated_dwelling" />
		<tag k="ssr:stedsnr" v="482591" />
	</node>
	<node lat="61.29175046126114" lon="10.143202734600289" id="-26232">
		<tag k="fixme" v="consider place=hamlet" />
		<tag k="name" v="Kankerud" />
		<tag k="place" v="farm" />
		<tag k="ssr:stedsnr" v="483449" />
	</node>
	<node lat="61.33741666861824" lon="9.745333336807056" id="-26233">
		<tag k="alt_name" v="Finndalen søndre;Søndre Finndalen" />
		<tag k="name" v="Søre Finndalen" />
		<tag k="place" v="farm" />
		<tag k="ssr:stedsnr" v="484495" />
	</node>
	<node lat="61.38104722031699" lon="9.926799992019722" id="-26237">
		<tag k="name" v="Gardbua" />
		<tag k="place" v="locality" />
		<tag k="ssr:stedsnr" v="413646" />
	</node>
	<node lat="61.32635000161674" lon="9.853330554252501" id="-26247">
		<tag k="name" v="Solhaug" />
		<tag k="place" v="farm" />
		<tag k="ssr:stedsnr" v="414610" />
	</node>
	<node lat="61.32067777765923" lon="9.86008889554752" id="-26248">
		<tag k="name" v="Optun" />
		<tag k="place" v="farm" />
		<tag k="ssr:stedsnr" v="414613" />
	</node>
	<node lat="61.33673611406885" lon="9.772358337385482" id="-26249">
		<tag k="name" v="Masovn" />
		<tag k="place" v="farm" />
		<tag k="ssr:stedsnr" v="414595" />
	</node>
	<node lat="61.28078888607606" lon="10.222688893375784" id="-26252">
		<tag k="name" v="Volehytta" />
		<tag k="place" v="isolated_dwelling" />
		<tag k="ssr:stedsnr" v="415144" />
	</node>
	<node lat="61.28823055657811" lon="10.129677774137479" id="-26254">
		<tag k="name" v="Bergheim" />
		<tag k="place" v="farm" />
		<tag k="ssr:stedsnr" v="415737" />
	</node>
	<node lat="61.273994444542055" lon="10.028780551126058" id="-26255">
		<tag k="historic" v="shieling" />
		<tag k="name" v="Vårsetra" />
		<tag k="place" v="isolated_dwelling" />
		<tag k="ssr:stedsnr" v="415750" />
	</node>
	<node lat="61.200777779268684" lon="10.109294443629745" id="-26256">
		<tag k="name" v="Storlia" />
		<tag k="place" v="farm" />
		<tag k="ssr:stedsnr" v="416042" />
	</node>
	<node lat="61.229980552659015" lon="10.172886104425233" id="-26259">
		<tag k="name" v="Haugenget" />
		<tag k="place" v="farm" />
		<tag k="ssr:stedsnr" v="416412" />
	</node>
	<node lat="61.14650000179586" lon="10.04171943664852" id="-26260">
		<tag k="historic" v="shieling" />
		<tag k="name" v="Nygardslisetra" />
		<tag k="place" v="isolated_dwelling" />
		<tag k="ssr:stedsnr" v="416891" />
	</node>
	<node lat="61.24806388931387" lon="10.263613883409892" id="-26264">
		<tag k="name" v="Topphus" />
		<tag k="place" v="locality" />
		<tag k="ssr:stedsnr" v="419927" />
	</node>
	<node lat="61.26151077129439" lon="9.721110262237927" id="-26265">
		<tag k="name" v="Røverhulen" />
		<tag k="place" v="locality" />
		<tag k="ssr:stedsnr" v="420537" />
	</node>
	<node lat="61.13024722424672" lon="10.189963886872283" id="-26266">
		<tag k="name" v="Melbøsveen" />
		<tag k="place" v="locality" />
		<tag k="ssr:stedsnr" v="420747" />
	</node>
	<node lat="61.152390844715285" lon="10.198612912172548" id="-26273">
		<tag k="alt_name" v="Slættet" />
		<tag k="historic" v="shieling" />
		<tag k="name" v="Bakkeslettet" />
		<tag k="place" v="isolated_dwelling" />
		<tag k="ssr:stedsnr" v="433076" />
	</node>
	<node lat="61.154338886688144" lon="10.1355527814107" id="-26274">
		<tag k="alt_name" v="Nygardsveen;Nygårdssveen" />
		<tag k="name" v="Nygardssvea" />
		<tag k="place" v="farm" />
		<tag k="ssr:stedsnr" v="433080" />
	</node>
	<node lat="61.15161765854454" lon="10.144107249105593" id="-26275">
		<tag k="alt_name" v="Hakkrud" />
		<tag k="fixme" v="consider place=hamlet" />
		<tag k="name" v="Hakkerud" />
		<tag k="place" v="farm" />
		<tag k="ssr:stedsnr" v="433082" />
	</node>
	<node lat="61.34930000137355" lon="9.508799996343445" id="-26277">
		<tag k="fixme" v="consider tourism=alpine_hut or tourism=chalet" />
		<tag k="name" v="Nordbua" />
		<tag k="ssr:stedsnr" v="433428" />
		<tag k="tourism" v="wilderness_hut" />
	</node>
	<node lat="61.21098757631918" lon="10.1451731627253" id="-26278">
		<tag k="alt_name" v="Fosset, øvre;Forset øvre" />
		<tag k="fixme" v="consider place=hamlet" />
		<tag k="name" v="Øvre Fosset" />
		<tag k="place" v="farm" />
		<tag k="ssr:stedsnr" v="433432" />
	</node>
	<node lat="61.168433330761424" lon="10.155427774673756" id="-26279">
		<tag k="name" v="Lykkja" />
		<tag k="place" v="farm" />
		<tag k="ssr:stedsnr" v="433380" />
	</node>
	<node lat="61.172777779712725" lon="10.161388894505537" id="-26280">
		<tag k="name" v="Skarstad" />
		<tag k="place" v="farm" />
		<tag k="ssr:stedsnr" v="433383" />
	</node>
	<node lat="61.17239443676624" lon="10.153426608499533" id="-26281">
		<tag k="alt_name" v="Iverslia, nordre" />
		<tag k="fixme" v="consider place=hamlet" />
		<tag k="name" v="Nordre Iverslia" />
		<tag k="place" v="farm" />
		<tag k="ssr:stedsnr" v="433385" />
	</node>
	<node lat="61.23224167049656" lon="9.637586114393184" id="-26282">
		<tag k="historic" v="shieling" />
		<tag k="name" v="Tortjønnplassen" />
		<tag k="place" v="isolated_dwelling" />
		<tag k="ssr:stedsnr" v="433503" />
	</node>
	<node lat="61.33138055482189" lon="9.758133324479482" id="-26286">
		<tag k="name" v="Skogvang" />
		<tag k="place" v="farm" />
		<tag k="ssr:stedsnr" v="433624" />
	</node>
	<node lat="61.31797963125826" lon="10.184492938586919" id="-26288">
		<tag k="fixme" v="consider place=hamlet" />
		<tag k="name" v="Nordlia" />
		<tag k="place" v="farm" />
		<tag k="ssr:stedsnr" v="433816" />
	</node>
	<node lat="61.31167222635925" lon="10.199074999033874" id="-26289">
		<tag k="name" v="Hesjehågån" />
		<tag k="place" v="farm" />
		<tag k="ssr:stedsnr" v="433817" />
	</node>
	<node lat="61.252072644626" lon="10.182109017779167" id="-26290">
		<tag k="alt_name" v="Sønstevoll" />
		<tag k="fixme" v="consider place=hamlet" />
		<tag k="name" v="Synstvoll" />
		<tag k="place" v="farm" />
		<tag k="ssr:stedsnr" v="433824" />
	</node>
	<node lat="61.25792483027743" lon="10.038071322321102" id="-26291">
		<tag k="fixme" v="consider place=hamlet" />
		<tag k="name" v="Rud" />
		<tag k="place" v="farm" />
		<tag k="ssr:stedsnr" v="433834" />
	</node>
	<node lat="61.287166706315325" lon="10.145464783970386" id="-26293">
		<tag k="fixme" v="consider place=hamlet" />
		<tag k="name" v="Rud" />
		<tag k="place" v="farm" />
		<tag k="ssr:stedsnr" v="433791" />
	</node>
	<node lat="61.245448174988" lon="10.195618731771246" id="-26294">
		<tag k="fixme" v="consider place=hamlet" />
		<tag k="name" v="Rokvam" />
		<tag k="place" v="farm" />
		<tag k="ssr:stedsnr" v="492237" />
	</node>
	<node lat="61.24674173277776" lon="10.071920998416799" id="-26295">
		<tag k="fixme" v="consider place=hamlet" />
		<tag k="name" v="Solset" />
		<tag k="place" v="farm" />
		<tag k="ssr:stedsnr" v="492245" />
	</node>
	<node lat="61.244254701917846" lon="10.063981511997767" id="-26296">
		<tag k="name" v="Bø" />
		<tag k="place" v="hamlet" />
		<tag k="ssr:stedsnr" v="492246" />
	</node>
	<node lat="61.249757866855546" lon="10.14583078430776" id="-26297">
		<tag k="alt_name" v="Kræmmerlia" />
		<tag k="fixme" v="consider place=hamlet" />
		<tag k="name" v="Kremmerlia" />
		<tag k="place" v="farm" />
		<tag k="ssr:stedsnr" v="492249" />
	</node>
	<node lat="61.223074877698515" lon="10.183136440924947" id="-26300">
		<tag k="alt_name" v="Tallaug;Thallaug" />
		<tag k="fixme" v="consider place=hamlet" />
		<tag k="name" v="Tålå" />
		<tag k="place" v="farm" />
		<tag k="ssr:stedsnr" v="493287" />
	</node>
	<node lat="61.384036107341664" lon="9.615752780745849" id="-26302">
		<tag k="name" v="Strand Fjellstue" />
		<tag k="ssr:stedsnr" v="493346" />
		<tag k="tourism" v="hotel" />
	</node>
	<node lat="61.20952340866249" lon="10.325897897866383" id="-26306">
		<tag k="alt_name" v="Fonstad" />
		<tag k="fixme" v="consider place=hamlet" />
		<tag k="name" v="Fonnstad" />
		<tag k="place" v="farm" />
		<tag k="ssr:stedsnr" v="493493" />
	</node>
	<node lat="61.210850000997944" lon="10.20902778318914" id="-26307">
		<tag k="name" v="Ellinghaugen" />
		<tag k="place" v="farm" />
		<tag k="ssr:stedsnr" v="493436" />
	</node>
	<node lat="61.22581944221934" lon="10.309391672335945" id="-26308">
		<tag k="name" v="Finnsvea" />
		<tag k="place" v="farm" />
		<tag k="ssr:stedsnr" v="493439" />
	</node>
	<node lat="61.22643888689123" lon="10.305916672482779" id="-26309">
		<tag k="alt_name" v="Steinsletten" />
		<tag k="name" v="Steinsletta" />
		<tag k="place" v="farm" />
		<tag k="ssr:stedsnr" v="493442" />
	</node>
	<node lat="61.219504462720764" lon="10.292605880730882" id="-26310">
		<tag k="alt_name" v="Hegge" />
		<tag k="fixme" v="consider place=hamlet" />
		<tag k="name" v="Heggen" />
		<tag k="place" v="farm" />
		<tag k="ssr:stedsnr" v="493450" />
	</node>
	<node lat="61.224212912817435" lon="10.285080829429692" id="-26311">
		<tag k="fixme" v="consider place=hamlet" />
		<tag k="name" v="Stadum" />
		<tag k="place" v="farm" />
		<tag k="ssr:stedsnr" v="493452" />
	</node>
	<node lat="61.35696666799848" lon="9.756694452249752" id="-26315">
		<tag k="name" v="Vårsetra" />
		<tag k="place" v="farm" />
		<tag k="ssr:stedsnr" v="493674" />
	</node>
	<node lat="61.36236111378354" lon="9.691927785522825" id="-26316">
		<tag k="fixme" v="multiple name tags, choose one and add the other to alt_name" />
		<tag k="name" v="Erlandhusom;Husom" />
		<tag k="old_name" v="Erlandhuus" />
		<tag k="place" v="farm" />
		<tag k="ssr:stedsnr" v="493682" />
	</node>
	<node lat="61.3627653551004" lon="9.676723494472245" id="-26317">
		<tag k="fixme" v="consider place=hamlet" />
		<tag k="name" v="Dalbakken" />
		<tag k="place" v="farm" />
		<tag k="ssr:stedsnr" v="493687" />
	</node>
	<node lat="61.340283333421404" lon="9.7708749958013" id="-26318">
		<tag k="alt_name" v="Svatsum, øvre" />
		<tag k="fixme" v="consider place=hamlet" />
		<tag k="name" v="Øvre Svatsum" />
		<tag k="place" v="village" />
		<tag k="ssr:stedsnr" v="493698" />
	</node>
	<node lat="61.323321665708114" lon="9.870873348859414" id="-26319">
		<tag k="fixme" v="consider place=hamlet" />
		<tag k="name" v="Myklebø" />
		<tag k="place" v="farm" />
		<tag k="ssr:stedsnr" v="493633" />
	</node>
	<node lat="61.32420625837206" lon="9.873289715488117" id="-26320">
		<tag k="alt_name" v="Lodengård" />
		<tag k="fixme" v="consider place=hamlet" />
		<tag k="name" v="Lodengarden" />
		<tag k="place" v="farm" />
		<tag k="ssr:stedsnr" v="493635" />
	</node>
	<node lat="61.315888892927205" lon="9.817172223288281" id="-26321">
		<tag k="name" v="Holevollen" />
		<tag k="place" v="farm" />
		<tag k="ssr:stedsnr" v="493658" />
	</node>
	<node lat="61.179197149301984" lon="9.637028468589534" id="-26323">
		<tag k="historic" v="shieling" />
		<tag k="name" v="Skjellbreida" />
		<tag k="place" v="isolated_dwelling" />
		<tag k="ssr:stedsnr" v="493745" />
	</node>
	<node lat="61.15937777894623" lon="9.789886110129327" id="-26329">
		<tag k="historic" v="shieling" />
		<tag k="name" v="Rokvamssetra" />
		<tag k="place" v="isolated_dwelling" />
		<tag k="ssr:stedsnr" v="493763" />
	</node>
	<node lat="61.36699999936329" lon="10.009572227000575" id="-26332">
		<tag k="historic" v="shieling" />
		<tag k="name" v="Fyksesetra" />
		<tag k="place" v="isolated_dwelling" />
		<tag k="ssr:stedsnr" v="494000" />
	</node>
	<node lat="61.33743888711737" lon="9.445516674672927" id="-26337">
		<tag k="alt_name" v="Storkvelvbu" />
		<tag k="fixme" v="consider tourism=alpine_hut or tourism=chalet" />
		<tag k="name" v="Storkvolvbua" />
		<tag k="ssr:stedsnr" v="494458" />
		<tag k="tourism" v="wilderness_hut" />
	</node>
	<node lat="61.285041668894465" lon="10.125474998064794" id="-26341">
		<tag k="name" v="Hovdesvea" />
		<tag k="place" v="farm" />
		<tag k="ssr:stedsnr" v="494746" />
	</node>
	<node lat="61.32861507462122" lon="9.868054688736967" id="-26344">
		<tag k="fixme" v="multiple name tags, choose one and add the other to alt_name" />
		<tag k="name" v="Brenden;Oppgardshågån" />
		<tag k="place" v="farm" />
		<tag k="ssr:stedsnr" v="465593" />
	</node>
	<node lat="61.233775004025794" lon="10.21793888376567" id="-26346">
		<tag k="name" v="Bjørndal" />
		<tag k="place" v="farm" />
		<tag k="ssr:stedsnr" v="675333" />
	</node>
	<node lat="61.174133331046576" lon="10.151452778027474" id="-26347">
		<tag k="name" v="Haugli" />
		<tag k="place" v="farm" />
		<tag k="ssr:stedsnr" v="675429" />
	</node>
	<node lat="61.246208333010586" lon="10.045611111587204" id="-26348">
		<tag k="name" v="Brattlandslia" />
		<tag k="place" v="farm" />
		<tag k="ssr:stedsnr" v="675374" />
	</node>
	<node lat="61.390119442763186" lon="9.918458331493028" id="-26349">
		<tag k="historic" v="shieling" />
		<tag k="name" v="Leikvamssetra" />
		<tag k="place" v="isolated_dwelling" />
		<tag k="ssr:stedsnr" v="675382" />
	</node>
	<node lat="61.36966111388128" lon="9.657405556513623" id="-26352">
		<tag k="alt_name" v="Viken" />
		<tag k="name" v="Vika" />
		<tag k="place" v="farm" />
		<tag k="ssr:stedsnr" v="675387" />
	</node>
	<node lat="61.16470485437694" lon="10.137653399107625" id="-26353">
		<tag k="fixme" v="consider place=hamlet" />
		<tag k="name" v="Hammershaug" />
		<tag k="place" v="farm" />
		<tag k="ssr:stedsnr" v="675435" />
	</node>
	<node lat="61.208746324293415" lon="9.84462019600729" id="-26354">
		<tag k="historic" v="shieling" />
		<tag k="name" v="Dokklia" />
		<tag k="place" v="isolated_dwelling" />
		<tag k="ssr:stedsnr" v="675536" />
	</node>
	<node lat="61.320575617431054" lon="9.816733614189607" id="-26357">
		<tag k="fixme" v="consider place=hamlet" />
		<tag k="name" v="Hanslia" />
		<tag k="place" v="farm" />
		<tag k="ssr:stedsnr" v="675668" />
	</node>
	<node lat="61.271188890707464" lon="10.027122222646108" id="-26362">
		<tag k="name" v="Bjørkheim" />
		<tag k="place" v="farm" />
		<tag k="ssr:stedsnr" v="675857" />
	</node>
	<node lat="61.267177698690325" lon="10.168573438139125" id="-26363">
		<tag k="fixme" v="consider place=hamlet" />
		<tag k="name" v="Ovre" />
		<tag k="place" v="farm" />
		<tag k="ssr:stedsnr" v="675863" />
	</node>
	<node lat="61.293988890492095" lon="9.563200005454817" id="-26371">
		<tag k="alt_name" v="Febua" />
		<tag k="fixme" v="consider tourism=alpine_hut or tourism=chalet" />
		<tag k="name" v="Revsjøhytta" />
		<tag k="ssr:stedsnr" v="676260" />
		<tag k="tourism" v="wilderness_hut" />
	</node>
	<node lat="61.33689166615958" lon="9.939977782417333" id="-26372">
		<tag k="historic" v="shieling" />
		<tag k="name" v="Øvre Bølesetra" />
		<tag k="place" v="isolated_dwelling" />
		<tag k="ssr:stedsnr" v="473869" />
	</node>
	<node lat="61.34792778103777" lon="10.17521945011415" id="-26374">
		<tag k="historic" v="shieling" />
		<tag k="name" v="Bakkesetra" />
		<tag k="place" v="isolated_dwelling" />
		<tag k="ssr:stedsnr" v="474022" />
	</node>
	<node lat="61.34776555497531" lon="10.181622595547367" id="-26375">
		<tag k="historic" v="shieling" />
		<tag k="name" v="Nordromssetra" />
		<tag k="place" v="isolated_dwelling" />
		<tag k="ssr:stedsnr" v="474023" />
	</node>
	<node lat="61.31506818369512" lon="9.893705179231295" id="-26376">
		<tag k="fixme" v="consider place=hamlet" />
		<tag k="name" v="Bennlia" />
		<tag k="place" v="farm" />
		<tag k="ssr:stedsnr" v="474169" />
	</node>
	<node lat="61.336983336849336" lon="10.099061108463955" id="-26379">
		<tag k="fixme" v="multiple name tags, choose one and add the other to alt_name" />
		<tag k="historic" v="shieling" />
		<tag k="name" v="Vollslisetra;Majorslisetra" />
		<tag k="place" v="isolated_dwelling" />
		<tag k="ssr:stedsnr" v="474208" />
	</node>
	<node lat="61.28661110970926" lon="9.998944447372068" id="-26381">
		<tag k="name" v="Berg" />
		<tag k="place" v="farm" />
		<tag k="ssr:stedsnr" v="676761" />
	</node>
	<node lat="61.2905125681633" lon="10.18964424972779" id="-26382">
		<tag k="fixme" v="consider place=hamlet" />
		<tag k="name" v="Kolbu" />
		<tag k="place" v="farm" />
		<tag k="ssr:stedsnr" v="676764" />
	</node>
	<node lat="61.26191110737964" lon="10.182461105626997" id="-26388">
		<tag k="name" v="Nyset" />
		<tag k="place" v="farm" />
		<tag k="ssr:stedsnr" v="676821" />
	</node>
	<node lat="61.25533611085827" lon="10.053966669732604" id="-26390">
		<tag k="name" v="Åsen" />
		<tag k="place" v="farm" />
		<tag k="ssr:stedsnr" v="676830" />
	</node>
	<node lat="61.278147221356676" lon="10.009124996407566" id="-26391">
		<tag k="alt_name" v="Aulstad nedre" />
		<tag k="name" v="Aulstad" />
		<tag k="place" v="farm" />
		<tag k="ssr:stedsnr" v="676849" />
	</node>
	<node lat="61.28919999657967" lon="9.94678055408025" id="-26394">
		<tag k="name" v="Stensrud" />
		<tag k="place" v="farm" />
		<tag k="ssr:stedsnr" v="475825" />
	</node>
	<node lat="61.261272220225536" lon="10.188147224175898" id="-26398">
		<tag k="alt_name" v="Søndre Gjefse" />
		<tag k="name" v="Søre Gjefse" />
		<tag k="place" v="farm" />
		<tag k="ssr:stedsnr" v="476117" />
	</node>
	<node lat="61.26271944309779" lon="10.189916664240645" id="-26399">
		<tag k="name" v="Øvre Gjefse" />
		<tag k="place" v="farm" />
		<tag k="ssr:stedsnr" v="476122" />
	</node>
	<node lat="61.36614167031599" lon="10.10281666323796" id="-26404">
		<tag k="historic" v="shieling" />
		<tag k="name" v="Nordre Steinssetra" />
		<tag k="place" v="isolated_dwelling" />
		<tag k="ssr:stedsnr" v="481062" />
	</node>
	<node lat="61.15508055175166" lon="10.173691658449409" id="-26405">
		<tag k="name" v="Ånrudhaugen" />
		<tag k="place" v="farm" />
		<tag k="ssr:stedsnr" v="481458" />
	</node>
	<node lat="61.24627270380669" lon="10.214426876665621" id="-26410">
		<tag k="fixme" v="consider place=hamlet" />
		<tag k="name" v="Bakke" />
		<tag k="place" v="farm" />
		<tag k="ssr:stedsnr" v="492221" />
	</node>
	<node lat="61.24723611558817" lon="10.262088893482057" id="-26412">
		<tag k="name" v="Nordstad" />
		<tag k="place" v="locality" />
		<tag k="ssr:stedsnr" v="492226" />
	</node>
	<node lat="61.15068610678497" lon="10.137391664163376" id="-26415">
		<tag k="alt_name" v="Hakkrudsvea;Hakkerudsveen" />
		<tag k="name" v="Hakkerudsvea" />
		<tag k="place" v="farm" />
		<tag k="ssr:stedsnr" v="493089" />
	</node>
	<node lat="61.20101944172363" lon="9.581413884688805" id="-26416">
		<tag k="name" v="Reinsjøbua" />
		<tag k="place" v="isolated_dwelling" />
		<tag k="ssr:stedsnr" v="492973" />
	</node>
	<node lat="61.19014704497951" lon="10.165347683539531" id="-26420">
		<tag k="fixme" v="consider place=hamlet" />
		<tag k="name" v="Pålsrud" />
		<tag k="place" v="farm" />
		<tag k="ssr:stedsnr" v="493374" />
	</node>
	<node lat="61.20008611128531" lon="10.139749994879015" id="-26421">
		<tag k="name" v="Flaten" />
		<tag k="place" v="farm" />
		<tag k="ssr:stedsnr" v="493384" />
	</node>
	<node lat="61.20958055146284" lon="10.274816667040417" id="-26426">
		<tag k="building" v="industrial" />
		<tag k="industrial" v="factory" />
		<tag k="name" v="Follebu bruk" />
		<tag k="ssr:stedsnr" v="493471" />
	</node>
	<node lat="61.26416841603828" lon="10.029121144502179" id="-26430">
		<tag k="fixme" v="consider place=hamlet" />
		<tag k="name" v="Mangrud" />
		<tag k="place" v="farm" />
		<tag k="ssr:stedsnr" v="493849" />
	</node>
	<node lat="61.266188891460494" lon="10.008458329424853" id="-26431">
		<tag k="name" v="Skogli" />
		<tag k="place" v="farm" />
		<tag k="ssr:stedsnr" v="493864" />
	</node>
	<node lat="61.26667206255074" lon="10.027433555272085" id="-26432">
		<tag k="fixme" v="consider place=hamlet" />
		<tag k="name" v="Madslia" />
		<tag k="place" v="farm" />
		<tag k="ssr:stedsnr" v="493867" />
	</node>
	<node lat="61.12259053668016" lon="9.993344382533373" id="-26443">
		<tag k="historic" v="shieling" />
		<tag k="loc_name" v="Svendsrudsetra" />
		<tag k="name" v="Svensrudsetra" />
		<tag k="place" v="isolated_dwelling" />
		<tag k="ssr:stedsnr" v="536105" />
	</node>
	<node lat="61.26847221875887" lon="10.015788882361896" id="-26446">
		<tag k="name" v="Fredheim" />
		<tag k="place" v="farm" />
		<tag k="ssr:stedsnr" v="536420" />
	</node>
	<node lat="61.27458333150189" lon="10.110030554746547" id="-26447">
		<tag k="name" v="Kolden" />
		<tag k="place" v="farm" />
		<tag k="ssr:stedsnr" v="536614" />
	</node>
	<node lat="61.23496944006071" lon="9.840894440206183" id="-26448">
		<tag k="name" v="Dunglungsbakken" />
		<tag k="place" v="locality" />
		<tag k="ssr:stedsnr" v="536574" />
	</node>
	<node lat="61.277725003078885" lon="9.99077500017751" id="-26451">
		<tag k="name" v="Midtenget" />
		<tag k="place" v="farm" />
		<tag k="ssr:stedsnr" v="536872" />
	</node>
	<node lat="61.25039721993348" lon="10.161233324860971" id="-26455">
		<tag k="loc_name" v="Møllerstugua" />
		<tag k="name" v="Møllerstuen" />
		<tag k="place" v="isolated_dwelling" />
		<tag k="ssr:stedsnr" v="537226" />
	</node>
	<node lat="61.24721111040821" lon="10.191363891304658" id="-26457">
		<tag k="name" v="Valhall" />
		<tag k="place" v="farm" />
		<tag k="ssr:stedsnr" v="537402" />
	</node>
	<node lat="61.22054486019657" lon="10.28379007929619" id="-26461">
		<tag k="fixme" v="consider place=hamlet" />
		<tag k="name" v="Holen" />
		<tag k="place" v="farm" />
		<tag k="ssr:stedsnr" v="540180" />
	</node>
	<node lat="61.27732292282397" lon="10.009381273314457" id="-26466">
		<tag k="name" v="Aulstad" />
		<tag k="place" v="hamlet" />
		<tag k="ssr:stedsnr" v="543871" />
	</node>
	<node lat="61.3729654711883" lon="9.863412087612202" id="-26469">
		<tag k="historic" v="shieling" />
		<tag k="name" v="Lonhaugen" />
		<tag k="place" v="isolated_dwelling" />
		<tag k="ssr:stedsnr" v="553338" />
	</node>
	<node lat="61.22733888581106" lon="10.070424999520599" id="-26473">
		<tag k="name" v="Hesthågån" />
		<tag k="place" v="farm" />
		<tag k="ssr:stedsnr" v="553281" />
	</node>
	<node lat="61.22892100195906" lon="10.279789765965498" id="-26474">
		<tag k="fixme" v="consider place=hamlet" />
		<tag k="name" v="Langset" />
		<tag k="place" v="farm" />
		<tag k="ssr:stedsnr" v="553287" />
	</node>
	<node lat="61.22208595730154" lon="9.916184009809022" id="-26480">
		<tag k="historic" v="shieling" />
		<tag k="name" v="Reinsåsen" />
		<tag k="place" v="isolated_dwelling" />
		<tag k="ssr:stedsnr" v="553484" />
	</node>
	<node lat="61.29103888809828" lon="9.362194453580145" id="-26485">
		<tag k="fixme" v="consider tourism=alpine_hut or tourism=chalet" />
		<tag k="name" v="Vesterheimsbua" />
		<tag k="old_name" v="Vesterheimshytta" />
		<tag k="ssr:stedsnr" v="554290" />
		<tag k="tourism" v="wilderness_hut" />
	</node>
	<node lat="61.32543958187999" lon="9.808137515356627" id="-26486">
		<tag k="alt_name" v="Branda" />
		<tag k="fixme" v="consider place=hamlet" />
		<tag k="name" v="Branden" />
		<tag k="place" v="farm" />
		<tag k="ssr:stedsnr" v="554671" />
	</node>
	<node lat="61.33768068786168" lon="9.743609355406175" id="-26488">
		<tag k="fixme" v="consider place=hamlet" />
		<tag k="name" v="Finndalen" />
		<tag k="place" v="farm" />
		<tag k="ssr:stedsnr" v="554681" />
	</node>
	<node lat="61.31893654827388" lon="9.656124291913999" id="-26489">
		<tag k="alt_name" v="Ongsjøsetran" />
		<tag k="historic" v="shieling" />
		<tag k="name" v="Ongsjølia" />
		<tag k="place" v="isolated_dwelling" />
		<tag k="ssr:stedsnr" v="554689" />
	</node>
	<node lat="61.345554601942446" lon="10.04692477642855" id="-26493">
		<tag k="historic" v="shieling" />
		<tag k="name" v="Frøysesetra" />
		<tag k="place" v="isolated_dwelling" />
		<tag k="ssr:stedsnr" v="554977" />
	</node>
	<node lat="61.22742134835324" lon="10.166167200781343" id="-26495">
		<tag k="alt_name" v="Setra" />
		<tag k="name" v="Høgås" />
		<tag k="place" v="farm" />
		<tag k="ssr:stedsnr" v="586316" />
	</node>
	<node lat="61.34228333615076" lon="10.17065278501529" id="-26497">
		<tag k="name" v="Gammelykkja" />
		<tag k="place" v="locality" />
		<tag k="ssr:stedsnr" v="595016" />
	</node>
	<node lat="61.27738055489938" lon="10.143183329819955" id="-26506">
		<tag k="name" v="Bruvang" />
		<tag k="place" v="farm" />
		<tag k="ssr:stedsnr" v="596711" />
	</node>
	<node lat="61.28926389214099" lon="10.143691669425047" id="-26507">
		<tag k="name" v="Øygardene" />
		<tag k="place" v="hamlet" />
		<tag k="ssr:stedsnr" v="596701" />
	</node>
	<node lat="61.35329072786771" lon="10.057575250315091" id="-26510">
		<tag k="name" v="Skei sætersameie" />
		<tag k="place" v="locality" />
		<tag k="ssr:stedsnr" v="596906" />
	</node>
	<node lat="61.385916662280536" lon="9.639480550052177" id="-26511">
		<tag k="historic" v="shieling" />
		<tag k="name" v="Dalbakksetra" />
		<tag k="place" v="isolated_dwelling" />
		<tag k="ssr:stedsnr" v="596950" />
	</node>
	<node lat="61.32534166748571" lon="9.571197214004505" id="-26515">
		<tag k="historic" v="shieling" />
		<tag k="name" v="Hundtjønnbua" />
		<tag k="place" v="isolated_dwelling" />
		<tag k="ssr:stedsnr" v="597155" />
	</node>
	<node lat="61.19939444561858" lon="10.168008329335969" id="-26517">
		<tag k="name" v="Jordet" />
		<tag k="place" v="farm" />
		<tag k="ssr:stedsnr" v="597921" />
	</node>
	<node lat="61.27388333364654" lon="10.138208340235007" id="-26520">
		<tag k="name" v="Holsmølla" />
		<tag k="place" v="locality" />
		<tag k="ssr:stedsnr" v="598054" />
	</node>
	<node lat="61.269194441436206" lon="10.173397224948813" id="-26521">
		<tag k="name" v="Furuhaugen" />
		<tag k="place" v="farm" />
		<tag k="ssr:stedsnr" v="598055" />
	</node>
	<node lat="61.23721944807746" lon="10.282722225744143" id="-26523">
		<tag k="name" v="Midtre Reiten" />
		<tag k="place" v="farm" />
		<tag k="ssr:stedsnr" v="598252" />
	</node>
	<node lat="61.20365555473223" lon="10.30151110286023" id="-26524">
		<tag k="name" v="Lingard" />
		<tag k="place" v="farm" />
		<tag k="ssr:stedsnr" v="600264" />
	</node>
	<node lat="61.36446666922121" lon="10.104516672156453" id="-26525">
		<tag k="historic" v="shieling" />
		<tag k="name" v="Houmssetra" />
		<tag k="place" v="isolated_dwelling" />
		<tag k="ssr:stedsnr" v="602058" />
	</node>
	<node lat="61.26381666816847" lon="9.758019439515309" id="-26527">
		<tag k="historic" v="shieling" />
		<tag k="name" v="Engelandsetra" />
		<tag k="place" v="isolated_dwelling" />
		<tag k="ssr:stedsnr" v="602502" />
	</node>
	<node lat="61.23664999875444" lon="10.191369453254595" id="-26533">
		<tag k="name" v="Øyhaugen" />
		<tag k="place" v="farm" />
		<tag k="ssr:stedsnr" v="614303" />
	</node>
	<node lat="61.22984999620477" lon="10.173024998959287" id="-26534">
		<tag k="name" v="Haugeng" />
		<tag k="place" v="farm" />
		<tag k="ssr:stedsnr" v="614304" />
	</node>
	<node lat="61.41841944421754" lon="9.556841658652289" id="-26537">
		<tag k="historic" v="shieling" />
		<tag k="name" v="Snuruhaugen" />
		<tag k="place" v="isolated_dwelling" />
		<tag k="ssr:stedsnr" v="614412" />
	</node>
	<node lat="61.21166151742019" lon="10.164008420640865" id="-26538">
		<tag k="alt_name" v="Nordre Kallstad;Kallstad, nordre" />
		<tag k="fixme" v="consider place=hamlet" />
		<tag k="name" v="Nordre Kalstad" />
		<tag k="place" v="farm" />
		<tag k="ssr:stedsnr" v="614450" />
	</node>
	<node lat="61.33774166983098" lon="9.789427781036474" id="-26541">
		<tag k="name" v="Bekken" />
		<tag k="place" v="farm" />
		<tag k="ssr:stedsnr" v="614649" />
	</node>
	<node lat="61.22690833387659" lon="9.803316671025328" id="-26546">
		<tag k="name" v="Grytsaga" />
		<tag k="place" v="isolated_dwelling" />
		<tag k="ssr:stedsnr" v="614510" />
	</node>
	<node lat="61.31312499742957" lon="10.068963893647057" id="-26549">
		<tag k="name" v="Austlid Fjellstue og Hytter" />
		<tag k="ssr:stedsnr" v="614824" />
		<tag k="tourism" v="hotel" />
	</node>
	<node lat="61.27458055471939" lon="10.025891663201792" id="-26550">
		<tag k="name" v="Hårstadhaugen" />
		<tag k="place" v="farm" />
		<tag k="ssr:stedsnr" v="614850" />
	</node>
	<node lat="61.27169641069782" lon="10.163447296259001" id="-26551">
		<tag k="fixme" v="consider place=hamlet" />
		<tag k="name" v="Skjeggestad" />
		<tag k="place" v="farm" />
		<tag k="ssr:stedsnr" v="614853" />
	</node>
	<node lat="61.297319444431906" lon="9.930075003053034" id="-26554">
		<tag k="name" v="Nørdstenget" />
		<tag k="place" v="farm" />
		<tag k="ssr:stedsnr" v="615711" />
	</node>
	<node lat="61.40046111271863" lon="9.794211109951489" id="-26560">
		<tag k="historic" v="shieling" />
		<tag k="name" v="Bjørnengssetra" />
		<tag k="place" v="isolated_dwelling" />
		<tag k="ssr:stedsnr" v="655133" />
	</node>
	<node lat="61.38129444083208" lon="9.711155557653404" id="-26561">
		<tag k="historic" v="shieling" />
		<tag k="name" v="Nordre Rognlisetra" />
		<tag k="place" v="isolated_dwelling" />
		<tag k="ssr:stedsnr" v="655281" />
	</node>
	<node lat="61.347802780913575" lon="10.176375000527589" id="-26563">
		<tag k="fixme" v="multiple name tags, choose one and add the other to alt_name" />
		<tag k="historic" v="shieling" />
		<tag k="name" v="Frøysehagesetra;Killisetra" />
		<tag k="place" v="isolated_dwelling" />
		<tag k="ssr:stedsnr" v="656006" />
	</node>
	<node lat="61.333250003694296" lon="10.051241669401573" id="-26568">
		<tag k="fixme" v="multiple name tags, choose one and add the other to alt_name" />
		<tag k="historic" v="shieling" />
		<tag k="name" v="Bjørklisetra;Frøysesetra" />
		<tag k="place" v="isolated_dwelling" />
		<tag k="ssr:stedsnr" v="656994" />
	</node>
	<node lat="61.316952774682385" lon="10.058661114660428" id="-26569">
		<tag k="historic" v="shieling" />
		<tag k="name" v="Kveinsetra" />
		<tag k="place" v="isolated_dwelling" />
		<tag k="ssr:stedsnr" v="656995" />
	</node>
	<node lat="61.24232284165649" lon="9.594586369962999" id="-26571">
		<tag k="alt_name" v="Liomseter turisthytte" />
		<tag k="fixme" v="consider tourism=alpine_hut or tourism=chalet" />
		<tag k="name" v="Liomseter" />
		<tag k="ssr:stedsnr" v="708665" />
		<tag k="tourism" v="wilderness_hut" />
	</node>
	<node lat="61.330938887457116" lon="9.79998056022241" id="-26574">
		<tag k="alt_name" v="Nordre Aspesletten" />
		<tag k="name" v="Nordre Ospesletta" />
		<tag k="place" v="farm" />
		<tag k="ssr:stedsnr" v="657611" />
	</node>
	<node lat="61.33559166509668" lon="9.780869440454303" id="-26575">
		<tag k="name" v="Kråkvollen" />
		<tag k="place" v="farm" />
		<tag k="ssr:stedsnr" v="657613" />
	</node>
	<node lat="61.29119999746096" lon="10.120341668064528" id="-26576">
		<tag k="historic" v="shieling" />
		<tag k="name" v="Storslettet" />
		<tag k="place" v="isolated_dwelling" />
		<tag k="ssr:stedsnr" v="657619" />
	</node>
	<node lat="61.29182333005593" lon="10.169079845092401" id="-26577">
		<tag k="fixme" v="consider place=hamlet" />
		<tag k="name" v="Nordre Hjelmstad" />
		<tag k="place" v="farm" />
		<tag k="ssr:stedsnr" v="657620" />
	</node>
	<node lat="61.27786388583963" lon="10.14221388652374" id="-26578">
		<tag k="name" v="Vollbakken" />
		<tag k="place" v="farm" />
		<tag k="ssr:stedsnr" v="657686" />
	</node>
	<node lat="61.25906388535827" lon="10.191288885759207" id="-26579">
		<tag k="name" v="Opgard" />
		<tag k="place" v="farm" />
		<tag k="ssr:stedsnr" v="658091" />
	</node>
	<node lat="61.347027778959266" lon="10.048038897395067" id="-26581">
		<tag k="historic" v="shieling" />
		<tag k="name" v="Nedre Frøysesetra" />
		<tag k="place" v="isolated_dwelling" />
		<tag k="ssr:stedsnr" v="657986" />
	</node>
	<node lat="61.263886110736" lon="10.198052781789327" id="-26583">
		<tag k="name" v="Torgersrud" />
		<tag k="place" v="farm" />
		<tag k="ssr:stedsnr" v="658116" />
	</node>
	<node lat="61.25838610803721" lon="9.827347231428643" id="-26584">
		<tag k="historic" v="shieling" />
		<tag k="name" v="Solsetsetra" />
		<tag k="place" v="isolated_dwelling" />
		<tag k="ssr:stedsnr" v="658295" />
	</node>
	<node lat="61.367069448751536" lon="9.655219451025339" id="-26590">
		<tag k="historic" v="shieling" />
		<tag k="name" v="Naustvollen" />
		<tag k="place" v="isolated_dwelling" />
		<tag k="ssr:stedsnr" v="658939" />
	</node>
	<node lat="61.251736110524554" lon="10.356733341364247" id="-26593">
		<tag k="historic" v="shieling" />
		<tag k="name" v="Fognssetra" />
		<tag k="place" v="isolated_dwelling" />
		<tag k="ssr:stedsnr" v="659336" />
	</node>
	<node lat="61.21636666401145" lon="10.206675006043733" id="-26594">
		<tag k="name" v="Rugsvea" />
		<tag k="place" v="farm" />
		<tag k="ssr:stedsnr" v="659410" />
	</node>
	<node lat="61.19596388709478" lon="10.146241659148313" id="-26595">
		<tag k="name" v="Auggestokken" />
		<tag k="place" v="farm" />
		<tag k="ssr:stedsnr" v="659640" />
	</node>
	<node lat="61.14984444150003" lon="10.181169435747544" id="-26598">
		<tag k="name" v="Nordre Bakken" />
		<tag k="place" v="locality" />
		<tag k="ssr:stedsnr" v="663408" />
	</node>
	<node lat="61.12897222503633" lon="10.19205000934103" id="-26603">
		<tag k="alt_name" v="Stubberudlien;Stubberudlia" />
		<tag k="name" v="Stubbrudlia" />
		<tag k="place" v="farm" />
		<tag k="ssr:stedsnr" v="675105" />
	</node>
	<node lat="61.14421389258278" lon="10.161716657778223" id="-26605">
		<tag k="name" v="Rønningen" />
		<tag k="place" v="farm" />
		<tag k="ssr:stedsnr" v="675099" />
	</node>
	<node lat="61.23061388480894" lon="10.070019437524422" id="-26606">
		<tag k="name" v="Bjørge" />
		<tag k="place" v="farm" />
		<tag k="ssr:stedsnr" v="675295" />
	</node>
	<node lat="61.241891662966765" lon="10.161758338295924" id="-26607">
		<tag k="name" v="Rundtom" />
		<tag k="place" v="farm" />
		<tag k="ssr:stedsnr" v="675299" />
	</node>
	<node lat="61.19175833384376" lon="10.15256111061551" id="-26608">
		<tag k="name" v="Sandheim" />
		<tag k="place" v="farm" />
		<tag k="ssr:stedsnr" v="675407" />
	</node>
	<node lat="61.21640277941821" lon="10.196208342176705" id="-26609">
		<tag k="name" v="Fosserud" />
		<tag k="place" v="farm" />
		<tag k="ssr:stedsnr" v="675457" />
	</node>
	<node lat="61.21163333607391" lon="10.30863610245162" id="-26610">
		<tag k="alt_name" v="Surnfløt" />
		<tag k="name" v="Surnfløtt" />
		<tag k="place" v="farm" />
		<tag k="ssr:stedsnr" v="675511" />
	</node>
	<node lat="61.347847218089974" lon="9.750777770523456" id="-26611">
		<tag k="name" v="Sjåfram" />
		<tag k="place" v="farm" />
		<tag k="ssr:stedsnr" v="675697" />
	</node>
	<node lat="61.253897220524095" lon="10.139405562401045" id="-26618">
		<tag k="name" v="Skalmstad" />
		<tag k="place" v="farm" />
		<tag k="ssr:stedsnr" v="676806" />
	</node>
	<node lat="61.183424998388915" lon="9.821661119998312" id="-26620">
		<tag k="historic" v="shieling" />
		<tag k="name" v="Søre Fossetsetra" />
		<tag k="place" v="isolated_dwelling" />
		<tag k="ssr:stedsnr" v="705398" />
	</node>
	<node lat="61.38178333071828" lon="9.705141671329748" id="-26623">
		<tag k="historic" v="shieling" />
		<tag k="name" v="Husomseterlykkja" />
		<tag k="place" v="isolated_dwelling" />
		<tag k="ssr:stedsnr" v="716303" />
	</node>
	<node lat="61.3822361152138" lon="9.710052780936664" id="-26624">
		<tag k="historic" v="shieling" />
		<tag k="name" v="Systusetra" />
		<tag k="old_name" v="Nesesæteren" />
		<tag k="place" v="isolated_dwelling" />
		<tag k="ssr:stedsnr" v="716307" />
	</node>
	<node lat="61.373050004173585" lon="10.142652781870915" id="-26625">
		<tag k="fixme" v="multiple name tags, choose one and add the other to alt_name" />
		<tag k="historic" v="shieling" />
		<tag k="name" v="Nordistugusetra;Nordre Reistadsetra" />
		<tag k="place" v="isolated_dwelling" />
		<tag k="ssr:stedsnr" v="716175" />
	</node>
	<node lat="61.348058335507524" lon="9.777011109412404" id="-26629">
		<tag k="name" v="Bergset" />
		<tag k="place" v="farm" />
		<tag k="ssr:stedsnr" v="716941" />
	</node>
	<node lat="61.351947224900854" lon="9.76269167455347" id="-26630">
		<tag k="name" v="Budsbergberget" />
		<tag k="place" v="farm" />
		<tag k="ssr:stedsnr" v="716944" />
	</node>
	<node lat="61.32505277558644" lon="9.745861110019575" id="-26636">
		<tag k="historic" v="shieling" />
		<tag k="name" v="Moalykkja" />
		<tag k="place" v="isolated_dwelling" />
		<tag k="ssr:stedsnr" v="718479" />
	</node>
	<node lat="61.32455278038909" lon="9.853655551380248" id="-26637">
		<tag k="alt_name" v="Kjørkjebøhaugen" />
		<tag k="name" v="Kyrkjebøhaugen" />
		<tag k="place" v="farm" />
		<tag k="ssr:stedsnr" v="718606" />
	</node>
	<node lat="61.273483335466615" lon="10.032272216272377" id="-26638">
		<tag k="name" v="Nordenget" />
		<tag k="place" v="farm" />
		<tag k="ssr:stedsnr" v="718685" />
	</node>
	<node lat="61.31200731135236" lon="10.071159008906601" id="-26639">
		<tag k="historic" v="shieling" />
		<tag k="name" v="Austlisetra" />
		<tag k="place" v="isolated_dwelling" />
		<tag k="ssr:stedsnr" v="718703" />
	</node>
	<node lat="61.19933286752783" lon="10.122364384843214" id="-26645">
		<tag k="fixme" v="consider place=hamlet" />
		<tag k="name" v="Svensrudlia" />
		<tag k="place" v="farm" />
		<tag k="ssr:stedsnr" v="719024" />
	</node>
	<node lat="61.18276111208734" lon="10.002913882325716" id="-26646">
		<tag k="historic" v="shieling" />
		<tag k="name" v="Grimstadsetra" />
		<tag k="place" v="isolated_dwelling" />
		<tag k="ssr:stedsnr" v="719031" />
	</node>
	<node lat="61.24851111463544" lon="10.057077785123003" id="-26652">
		<tag k="name" v="Gropenget" />
		<tag k="place" v="isolated_dwelling" />
		<tag k="ssr:stedsnr" v="719784" />
	</node>
	<node lat="61.39081666253339" lon="9.933672229448389" id="-26653">
		<tag k="name" v="Fiskebua" />
		<tag k="place" v="isolated_dwelling" />
		<tag k="ssr:stedsnr" v="720369" />
	</node>
	<node lat="61.41140555219001" lon="9.559769440628536" id="-26659">
		<tag k="name" v="Myrset" />
		<tag k="place" v="farm" />
		<tag k="ssr:stedsnr" v="899890" />
	</node>
	<node lat="61.31825277879037" lon="10.057352784146385" id="-26660">
		<tag k="historic" v="shieling" />
		<tag k="name" v="Søre Nustadsetra" />
		<tag k="place" v="isolated_dwelling" />
		<tag k="ssr:stedsnr" v="899992" />
	</node>
	<node lat="61.124630553160365" lon="10.146052785948585" id="-26662">
		<tag k="historic" v="shieling" />
		<tag k="name" v="Lillehakkerudsetra" />
		<tag k="place" v="isolated_dwelling" />
		<tag k="ssr:stedsnr" v="723733" />
	</node>
	<node lat="61.12913055794455" lon="10.14456387977558" id="-26663">
		<tag k="historic" v="shieling" />
		<tag k="name" v="Dalssetra" />
		<tag k="place" v="isolated_dwelling" />
		<tag k="ssr:stedsnr" v="723736" />
	</node>
	<node lat="61.21303961729907" lon="10.162299086746382" id="-26673">
		<tag k="alt_name" v="Kallstad" />
		<tag k="name" v="Kalstad" />
		<tag k="place" v="hamlet" />
		<tag k="ssr:stedsnr" v="728511" />
	</node>
	<node lat="61.25800278173913" lon="10.201522217987106" id="-26678">
		<tag k="name" v="Åsheim" />
		<tag k="place" v="farm" />
		<tag k="ssr:stedsnr" v="901077" />
	</node>
	<node lat="61.252513884899194" lon="10.039858337350962" id="-26680">
		<tag k="name" v="Brattlandshågån" />
		<tag k="place" v="farm" />
		<tag k="ssr:stedsnr" v="901422" />
	</node>
	<node lat="61.263005555585735" lon="10.040505547481123" id="-26681">
		<tag k="historic" v="shieling" />
		<tag k="name" v="Lillerudenget" />
		<tag k="place" v="isolated_dwelling" />
		<tag k="ssr:stedsnr" v="901425" />
	</node>
	<node lat="61.27823611515701" lon="10.114691671102982" id="-26685">
		<tag k="name" v="Brattås" />
		<tag k="place" v="farm" />
		<tag k="ssr:stedsnr" v="901642" />
	</node>
	<node lat="61.14266388991234" lon="10.168550005200274" id="-26689">
		<tag k="name" v="Aurmo" />
		<tag k="place" v="farm" />
		<tag k="ssr:stedsnr" v="735079" />
	</node>
	<node lat="61.14005000141218" lon="10.16538888374426" id="-26690">
		<tag k="alt_name" v="Bergsveen" />
		<tag k="name" v="Bergssvea" />
		<tag k="place" v="farm" />
		<tag k="ssr:stedsnr" v="735085" />
	</node>
	<node lat="61.217811114124096" lon="9.748047226366879" id="-26693">
		<tag k="historic" v="shieling" />
		<tag k="name" v="Tjyruverket" />
		<tag k="place" v="isolated_dwelling" />
		<tag k="ssr:stedsnr" v="735513" />
	</node>
	<node lat="61.228427775237414" lon="9.899452771882473" id="-26695">
		<tag k="historic" v="shieling" />
		<tag k="name" v="Bjørgesetra" />
		<tag k="place" v="isolated_dwelling" />
		<tag k="ssr:stedsnr" v="735485" />
	</node>
	<node lat="61.14927461862868" lon="10.106730910605384" id="-26697">
		<tag k="historic" v="shieling" />
		<tag k="name" v="Skårssetra" />
		<tag k="place" v="isolated_dwelling" />
		<tag k="ssr:stedsnr" v="901950" />
	</node>
	<node lat="61.41317562158973" lon="9.552752397709355" id="-26704">
		<tag k="fixme" v="consider place=hamlet" />
		<tag k="name" v="Megrund" />
		<tag k="place" v="farm" />
		<tag k="ssr:stedsnr" v="736403" />
	</node>
	<node lat="61.17086666843512" lon="10.161836116393726" id="-26705">
		<tag k="name" v="Høglund" />
		<tag k="place" v="farm" />
		<tag k="ssr:stedsnr" v="736406" />
	</node>
	<node lat="61.16640278738477" lon="10.164795589303777" id="-26706">
		<tag k="alt_name" v="Granum" />
		<tag k="fixme" v="consider place=hamlet" />
		<tag k="name" v="Granom" />
		<tag k="place" v="farm" />
		<tag k="ssr:stedsnr" v="736407" />
	</node>
	<node lat="61.181871695377204" lon="10.048062981654345" id="-26707">
		<tag k="leisure" v="pitch" />
		<tag k="name" v="Astridbekken skisenter" />
		<tag k="ssr:stedsnr" v="736416" />
	</node>
	<node lat="61.2664749984937" lon="10.139449994892955" id="-26708">
		<tag k="name" v="Likveine" />
		<tag k="place" v="farm" />
		<tag k="ssr:stedsnr" v="902062" />
	</node>
	<node lat="61.23431666532845" lon="10.29808333515387" id="-26709">
		<tag k="name" v="Husom" />
		<tag k="place" v="farm" />
		<tag k="ssr:stedsnr" v="736309" />
	</node>
	<node lat="61.23556666559767" lon="10.279747222274423" id="-26710">
		<tag k="alt_name" v="Reiten lille" />
		<tag k="name" v="Veslereiten" />
		<tag k="place" v="farm" />
		<tag k="ssr:stedsnr" v="736310" />
	</node>
	<node lat="61.18840766091268" lon="10.064186709301175" id="-26712">
		<tag k="historic" v="shieling" />
		<tag k="name" v="Fossetsetra" />
		<tag k="place" v="isolated_dwelling" />
		<tag k="ssr:stedsnr" v="736368" />
	</node>
	<node lat="61.190788890172925" lon="10.160783328985788" id="-26713">
		<tag k="name" v="Skatrud" />
		<tag k="place" v="farm" />
		<tag k="ssr:stedsnr" v="736374" />
	</node>
	<node lat="61.20574444312732" lon="10.25916111619885" id="-26716">
		<tag k="name" v="Sveom" />
		<tag k="place" v="farm" />
		<tag k="ssr:stedsnr" v="736468" />
	</node>
	<node lat="61.222627776074184" lon="10.242350008508831" id="-26717">
		<tag k="alt_name" v="Søndre Steine;Steine" />
		<tag k="fixme" v="consider place=hamlet" />
		<tag k="name" v="Søre Steine" />
		<tag k="place" v="farm" />
		<tag k="ssr:stedsnr" v="736472" />
	</node>
	<node lat="61.33675161663913" lon="9.790034246391283" id="-26718">
		<tag k="fixme" v="consider place=hamlet" />
		<tag k="name" v="Bereslia" />
		<tag k="place" v="farm" />
		<tag k="ssr:stedsnr" v="736622" />
	</node>
	<node lat="61.36234863387426" lon="9.835921499861428" id="-26719">
		<tag k="historic" v="shieling" />
		<tag k="name" v="Holsetra" />
		<tag k="place" v="isolated_dwelling" />
		<tag k="ssr:stedsnr" v="736677" />
	</node>
	<node lat="61.24819166542512" lon="10.152522224524951" id="-26721">
		<tag k="name" v="Myrmillom" />
		<tag k="place" v="farm" />
		<tag k="ssr:stedsnr" v="902138" />
	</node>
	<node lat="61.337727773539164" lon="10.085366674779603" id="-26723">
		<tag k="name" v="Gausdal Hotell" />
		<tag k="ssr:stedsnr" v="736967" />
		<tag k="tourism" v="hotel" />
	</node>
	<node lat="61.30021111193773" lon="9.466136105628138" id="-26725">
		<tag k="fixme" v="consider tourism=alpine_hut or tourism=chalet" />
		<tag k="name" v="Nonstjønnbua" />
		<tag k="ssr:stedsnr" v="737441" />
		<tag k="tourism" v="wilderness_hut" />
	</node>
	<node lat="61.27453055464135" lon="10.002161116313918" id="-26728">
		<tag k="name" v="Mo" />
		<tag k="place" v="farm" />
		<tag k="ssr:stedsnr" v="737861" />
	</node>
	<node lat="61.27416666532713" lon="10.114302780432551" id="-26729">
		<tag k="name" v="Østkleva" />
		<tag k="place" v="farm" />
		<tag k="ssr:stedsnr" v="737868" />
	</node>
	<node lat="61.29177136603708" lon="10.166483378235467" id="-26730">
		<tag k="alt_name" v="Hjelmstad søndre;Søndre Hjelmstad" />
		<tag k="fixme" v="consider place=hamlet" />
		<tag k="name" v="Søre Hjelmstad" />
		<tag k="place" v="farm" />
		<tag k="ssr:stedsnr" v="737770" />
	</node>
	<node lat="61.28735572868601" lon="10.172022921387702" id="-26731">
		<tag k="fixme" v="consider place=hamlet" />
		<tag k="name" v="Holte" />
		<tag k="place" v="farm" />
		<tag k="ssr:stedsnr" v="737772" />
	</node>
	<node lat="61.28379331074621" lon="10.157109177915464" id="-26732">
		<tag k="name" v="Frøyse" />
		<tag k="place" v="hamlet" />
		<tag k="ssr:stedsnr" v="737773" />
	</node>
	<node lat="61.25622222438074" lon="10.147802782689816" id="-26736">
		<tag k="name" v="Hagemoen" />
		<tag k="place" v="farm" />
		<tag k="ssr:stedsnr" v="902994" />
	</node>
	<node lat="61.12849444425256" lon="10.146749996482654" id="-26741">
		<tag k="historic" v="shieling" />
		<tag k="name" v="Nordre Bergssetra" />
		<tag k="place" v="isolated_dwelling" />
		<tag k="ssr:stedsnr" v="906777" />
	</node>
	<node lat="61.40636248707752" lon="9.861951120651778" id="-26746">
		<tag k="historic" v="shieling" />
		<tag k="name" v="Melbøssetra" />
		<tag k="place" v="isolated_dwelling" />
		<tag k="ssr:stedsnr" v="777118" />
	</node>
	<node lat="61.346175002067895" lon="10.166238884167605" id="-26752">
		<tag k="historic" v="shieling" />
		<tag k="name" v="Skjeggestadsetra" />
		<tag k="place" v="isolated_dwelling" />
		<tag k="ssr:stedsnr" v="778018" />
	</node>
	<node lat="61.343088889158345" lon="10.14595277150886" id="-26753">
		<tag k="historic" v="shieling" />
		<tag k="name" v="Storjønnbu" />
		<tag k="place" v="isolated_dwelling" />
		<tag k="ssr:stedsnr" v="778027" />
	</node>
	<node lat="61.31608610919349" lon="9.881588879511236" id="-26755">
		<tag k="name" v="Saghaugen" />
		<tag k="place" v="farm" />
		<tag k="ssr:stedsnr" v="777918" />
	</node>
	<node lat="61.3340111077401" lon="10.106733334080289" id="-26756">
		<tag k="historic" v="shieling" />
		<tag k="name" v="Bjørgesetra" />
		<tag k="place" v="isolated_dwelling" />
		<tag k="ssr:stedsnr" v="778211" />
	</node>
	<node lat="61.32830277733141" lon="9.865155557948592" id="-26757">
		<tag k="name" v="Slæpet" />
		<tag k="place" v="farm" />
		<tag k="ssr:stedsnr" v="778595" />
	</node>
	<node lat="61.16379999965651" lon="9.983277784081688" id="-26764">
		<tag k="historic" v="shieling" />
		<tag k="name" v="Nedre Rønningssetra" />
		<tag k="place" v="isolated_dwelling" />
		<tag k="ssr:stedsnr" v="779053" />
	</node>
	<node lat="61.11866228457543" lon="9.98298415742651" id="-26765">
		<tag k="historic" v="shieling" />
		<tag k="name" v="Nordre Iverslisetra" />
		<tag k="place" v="isolated_dwelling" />
		<tag k="ssr:stedsnr" v="779069" />
	</node>
	<node lat="61.306144447291" lon="10.175936108498975" id="-26767">
		<tag k="name" v="Nedre Sveen" />
		<tag k="place" v="farm" />
		<tag k="ssr:stedsnr" v="779533" />
	</node>
	<node lat="61.255674997260364" lon="10.034016674685025" id="-26770">
		<tag k="name" v="Norstad" />
		<tag k="place" v="farm" />
		<tag k="ssr:stedsnr" v="779429" />
	</node>
	<node lat="61.318836112243716" lon="9.648608325663103" id="-26772">
		<tag k="historic" v="shieling" />
		<tag k="name" v="Nordre Ongsjølia" />
		<tag k="place" v="isolated_dwelling" />
		<tag k="ssr:stedsnr" v="779461" />
	</node>
	<node lat="61.17438611358813" lon="9.952911104770811" id="-26774">
		<tag k="historic" v="shieling" />
		<tag k="name" v="Kittilbu" />
		<tag k="place" v="isolated_dwelling" />
		<tag k="ssr:stedsnr" v="780049" />
	</node>
	<node lat="61.27022777899522" lon="10.122205560312874" id="-26775">
		<tag k="alt_name" v="Kleva øvre" />
		<tag k="name" v="Øvre Kleva" />
		<tag k="place" v="farm" />
		<tag k="ssr:stedsnr" v="780061" />
	</node>
	<node lat="61.24270833562039" lon="10.054161103613193" id="-26779">
		<tag k="name" v="Bøvollen" />
		<tag k="place" v="farm" />
		<tag k="ssr:stedsnr" v="780753" />
	</node>
	<node lat="61.250758337403575" lon="10.046686107855166" id="-26780">
		<tag k="alt_name" v="Brattlandbakken" />
		<tag k="name" v="Brattlandsbakken" />
		<tag k="place" v="farm" />
		<tag k="ssr:stedsnr" v="780754" />
	</node>
	<node lat="61.32690833638416" lon="9.572086107601725" id="-26785">
		<tag k="name" v="Bamsebu" />
		<tag k="place" v="isolated_dwelling" />
		<tag k="ssr:stedsnr" v="786400" />
	</node>
	<node lat="61.24613055965915" lon="10.222494453436056" id="-26787">
		<tag k="name" v="Haugli" />
		<tag k="place" v="farm" />
		<tag k="ssr:stedsnr" v="796257" />
	</node>
	<node lat="61.2488083335221" lon="10.252999995282785" id="-26788">
		<tag k="alt_name" v="Stølen" />
		<tag k="name" v="Stylen" />
		<tag k="place" v="farm" />
		<tag k="ssr:stedsnr" v="796261" />
	</node>
	<node lat="61.39176686093507" lon="9.607355823975153" id="-26790">
		<tag k="historic" v="shieling" />
		<tag k="name" v="Lauvålia" />
		<tag k="place" v="isolated_dwelling" />
		<tag k="ssr:stedsnr" v="796373" />
	</node>
	<node lat="61.17234278241595" lon="9.959542286863217" id="-26794">
		<tag k="fixme" v="consider tourism=alpine_hut or tourism=chalet" />
		<tag k="name" v="Kittilbua" />
		<tag k="ssr:stedsnr" v="796759" />
		<tag k="tourism" v="wilderness_hut" />
	</node>
	<node lat="61.1481444403667" lon="10.144005562636313" id="-26796">
		<tag k="alt_name" v="Husum" />
		<tag k="name" v="Husom" />
		<tag k="place" v="farm" />
		<tag k="ssr:stedsnr" v="797099" />
	</node>
	<node lat="61.17447500149561" lon="10.163441667183234" id="-26797">
		<tag k="alt_name" v="Hagerud" />
		<tag k="name" v="Håkårud" />
		<tag k="place" v="locality" />
		<tag k="ssr:stedsnr" v="797398" />
	</node>
	<node lat="61.15943800131784" lon="10.165235481058545" id="-26798">
		<tag k="fixme" v="consider place=hamlet" />
		<tag k="name" v="Ulsrud" />
		<tag k="place" v="farm" />
		<tag k="ssr:stedsnr" v="797406" />
	</node>
	<node lat="61.15792777367519" lon="10.152836118532042" id="-26799">
		<tag k="alt_name" v="Volden" />
		<tag k="name" v="Voll" />
		<tag k="place" v="farm" />
		<tag k="ssr:stedsnr" v="797407" />
	</node>
	<node lat="61.21165832891607" lon="10.103361107904608" id="-26800">
		<tag k="name" v="Vestli" />
		<tag k="place" v="farm" />
		<tag k="ssr:stedsnr" v="797457" />
	</node>
	<node lat="61.30663333033392" lon="10.201197219400001" id="-26805">
		<tag k="name" v="Tune" />
		<tag k="place" v="farm" />
		<tag k="ssr:stedsnr" v="797795" />
	</node>
	<node lat="61.29462870996832" lon="9.969565181713238" id="-26806">
		<tag k="fixme" v="consider place=hamlet" />
		<tag k="name" v="Surnflot" />
		<tag k="place" v="farm" />
		<tag k="ssr:stedsnr" v="797800" />
	</node>
	<node lat="61.31221944703632" lon="10.195097213613874" id="-26809">
		<tag k="alt_name" v="Lille Blihovde" />
		<tag k="name" v="Blihovde" />
		<tag k="place" v="farm" />
		<tag k="ssr:stedsnr" v="797807" />
	</node>
	<node lat="61.31604164751658" lon="10.065920647008706" id="-26810">
		<tag k="historic" v="shieling" />
		<tag k="name" v="Veslesetra" />
		<tag k="place" v="isolated_dwelling" />
		<tag k="ssr:stedsnr" v="797810" />
	</node>
	<node lat="61.26023889282077" lon="10.206527770109798" id="-26813">
		<tag k="name" v="Øvrom" />
		<tag k="place" v="farm" />
		<tag k="ssr:stedsnr" v="797844" />
	</node>
	<node lat="61.25180833471498" lon="10.067161113315157" id="-26814">
		<tag k="name" v="Austgarden" />
		<tag k="place" v="farm" />
		<tag k="ssr:stedsnr" v="797845" />
	</node>
	<node lat="61.2720585195053" lon="10.025950989179059" id="-26815">
		<tag k="fixme" v="consider place=hamlet" />
		<tag k="name" v="Bårdslistugua" />
		<tag k="place" v="farm" />
		<tag k="ssr:stedsnr" v="797849" />
	</node>
	<node lat="61.24408377178259" lon="10.074722976840672" id="-26816">
		<tag k="fixme" v="consider place=hamlet" />
		<tag k="name" v="Øygarden" />
		<tag k="place" v="farm" />
		<tag k="ssr:stedsnr" v="917241" />
	</node>
	<node lat="61.23850833579801" lon="10.059161112664981" id="-26817">
		<tag k="name" v="Bølia" />
		<tag k="place" v="farm" />
		<tag k="ssr:stedsnr" v="917317" />
	</node>
	<node lat="61.24377499848837" lon="10.049330548847713" id="-26818">
		<tag k="name" v="Sørli" />
		<tag k="place" v="farm" />
		<tag k="ssr:stedsnr" v="917320" />
	</node>
	<node lat="61.15260277786442" lon="10.174869446984571" id="-26820">
		<tag k="alt_name" v="Kalløkken" />
		<tag k="name" v="Kalvlykkja" />
		<tag k="place" v="farm" />
		<tag k="ssr:stedsnr" v="918074" />
	</node>
	<node lat="61.140074627811124" lon="10.191848192905244" id="-26821">
		<tag k="alt_name" v="Skor" />
		<tag k="fixme" v="consider place=hamlet" />
		<tag k="name" v="Skår" />
		<tag k="place" v="farm" />
		<tag k="ssr:stedsnr" v="918088" />
	</node>
	<node lat="61.233277778555056" lon="10.26363333431757" id="-26823">
		<tag k="name" v="Klufthaugen" />
		<tag k="place" v="farm" />
		<tag k="ssr:stedsnr" v="918341" />
	</node>
	<node lat="61.23095555840727" lon="10.252080552386658" id="-26824">
		<tag k="alt_name" v="Bergestua" />
		<tag k="name" v="Bergestugua" />
		<tag k="place" v="farm" />
		<tag k="ssr:stedsnr" v="918344" />
	</node>
	<node lat="61.19343888811283" lon="10.171169436805354" id="-26825">
		<tag k="name" v="Midtlia" />
		<tag k="place" v="farm" />
		<tag k="ssr:stedsnr" v="918451" />
	</node>
	<node lat="61.23672499886111" lon="10.238211112229198" id="-26826">
		<tag k="name" v="Seter" />
		<tag k="place" v="farm" />
		<tag k="ssr:stedsnr" v="918360" />
	</node>
	<node lat="61.19852500323289" lon="10.201805556779552" id="-26827">
		<tag k="alt_name" v="Haugen" />
		<tag k="name" v="Gammelhushaugen" />
		<tag k="place" v="farm" />
		<tag k="ssr:stedsnr" v="918454" />
	</node>
	<node lat="61.1756651735284" lon="10.156576779755948" id="-26829">
		<tag k="fixme" v="consider place=hamlet" />
		<tag k="name" v="Barlund" />
		<tag k="place" v="farm" />
		<tag k="ssr:stedsnr" v="918482" />
	</node>
	<node lat="61.17849166647824" lon="10.141777771000555" id="-26830">
		<tag k="name" v="Strandvik" />
		<tag k="place" v="farm" />
		<tag k="ssr:stedsnr" v="918483" />
	</node>
	<node lat="61.20916111456343" lon="10.278694450497001" id="-26831">
		<tag k="name" v="Kolbotn" />
		<tag k="place" v="farm" />
		<tag k="ssr:stedsnr" v="918531" />
	</node>
	<node lat="61.21270000137176" lon="10.33356944763694" id="-26833">
		<tag k="name" v="Oppheim" />
		<tag k="place" v="farm" />
		<tag k="ssr:stedsnr" v="918548" />
	</node>
	<node lat="61.20030555646609" lon="10.119902781885754" id="-26840">
		<tag k="name" v="Forsetlia" />
		<tag k="place" v="farm" />
		<tag k="ssr:stedsnr" v="918443" />
	</node>
	<node lat="61.1973583332706" lon="10.144261110274417" id="-26841">
		<tag k="name" v="Brubakken" />
		<tag k="place" v="farm" />
		<tag k="ssr:stedsnr" v="918444" />
	</node>
	<node lat="61.25690555161138" lon="10.211355555721209" id="-26844">
		<tag k="name" v="Solberg" />
		<tag k="place" v="farm" />
		<tag k="ssr:stedsnr" v="918874" />
	</node>
	<node lat="61.337086108690016" lon="9.936619450487735" id="-26851">
		<tag k="historic" v="shieling" />
		<tag k="name" v="Nedre Bølesetra" />
		<tag k="place" v="isolated_dwelling" />
		<tag k="ssr:stedsnr" v="838883" />
	</node>
	<node lat="61.25189722325096" lon="10.186302772744856" id="-26859">
		<tag k="amenity" v="school" />
		<tag k="name" v="Voll" />
		<tag k="ssr:stedsnr" v="840333" />
	</node>
	<node lat="61.276244444547224" lon="10.019586103906018" id="-26867">
		<tag k="alt_name" v="Søndre Hårstad" />
		<tag k="name" v="Søre Hårstad" />
		<tag k="place" v="farm" />
		<tag k="ssr:stedsnr" v="840732" />
	</node>
	<node lat="61.19972222154917" lon="10.096622217303224" id="-26869">
		<tag k="name" v="Solbakken" />
		<tag k="place" v="farm" />
		<tag k="ssr:stedsnr" v="841031" />
	</node>
	<node lat="61.2510611106588" lon="10.152088897840144" id="-26871">
		<tag k="name" v="Nyhaugen" />
		<tag k="place" v="farm" />
		<tag k="ssr:stedsnr" v="841251" />
	</node>
	<node lat="61.38490119587319" lon="9.597879021168403" id="-26873">
		<tag k="alt_name" v="Maribua" />
		<tag k="historic" v="shieling" />
		<tag k="name" v="Maribu" />
		<tag k="place" v="isolated_dwelling" />
		<tag k="ssr:stedsnr" v="841533" />
	</node>
	<node lat="61.39115555938813" lon="9.90151388681863" id="-26874">
		<tag k="name" v="Beni" />
		<tag k="place" v="isolated_dwelling" />
		<tag k="ssr:stedsnr" v="841275" />
	</node>
	<node lat="61.24301944177997" lon="10.057919447230619" id="-26875">
		<tag k="name" v="Baltik" />
		<tag k="place" v="farm" />
		<tag k="ssr:stedsnr" v="841777" />
	</node>
	<node lat="61.26375555542499" lon="10.16383334094796" id="-26877">
		<tag k="name" v="Bjørklund" />
		<tag k="place" v="farm" />
		<tag k="ssr:stedsnr" v="841985" />
	</node>
	<node lat="61.381719517713826" lon="9.713852672666679" id="-26878">
		<tag k="historic" v="shieling" />
		<tag k="name" v="Nesesetra" />
		<tag k="old_name" v="Nessetsætra" />
		<tag k="place" v="isolated_dwelling" />
		<tag k="ssr:stedsnr" v="843323" />
	</node>
	<node lat="61.26354722318701" lon="9.755141669147742" id="-26879">
		<tag k="historic" v="shieling" />
		<tag k="name" v="Brattlandssetra" />
		<tag k="place" v="isolated_dwelling" />
		<tag k="ssr:stedsnr" v="845524" />
	</node>
	<node lat="61.26249999637369" lon="9.75123889253849" id="-26880">
		<tag k="historic" v="shieling" />
		<tag k="name" v="Nedre Bøsetra" />
		<tag k="place" v="isolated_dwelling" />
		<tag k="ssr:stedsnr" v="845527" />
	</node>
	<node lat="61.2228422754805" lon="10.201682096016297" id="-26886">
		<tag k="fixme" v="consider place=hamlet" />
		<tag k="name" v="Gryte" />
		<tag k="place" v="farm" />
		<tag k="ssr:stedsnr" v="857303" />
	</node>
	<node lat="61.23562222284986" lon="10.262386110674104" id="-26887">
		<tag k="name" v="Skogstad" />
		<tag k="place" v="farm" />
		<tag k="ssr:stedsnr" v="857321" />
	</node>
	<node lat="61.23345277546268" lon="10.139225005778332" id="-26888">
		<tag k="name" v="Flatsteinhytta" />
		<tag k="place" v="isolated_dwelling" />
		<tag k="ssr:stedsnr" v="857322" />
	</node>
	<node lat="61.23211944721817" lon="10.182894448158754" id="-26889">
		<tag k="alt_name" v="Sjurrud" />
		<tag k="name" v="Sjurdrud" />
		<tag k="place" v="farm" />
		<tag k="ssr:stedsnr" v="857331" />
	</node>
	<node lat="61.168622843504785" lon="10.149679338037913" id="-26890">
		<tag k="alt_name" v="Iverslia, s;Søndre Iverslia" />
		<tag k="fixme" v="consider place=hamlet" />
		<tag k="name" v="Søre Iverslia" />
		<tag k="place" v="farm" />
		<tag k="ssr:stedsnr" v="857430" />
	</node>
	<node lat="61.406403321211585" lon="9.859615169041295" id="-26891">
		<tag k="historic" v="shieling" />
		<tag k="name" v="Bånsjøhaugen" />
		<tag k="place" v="isolated_dwelling" />
		<tag k="ssr:stedsnr" v="857389" />
	</node>
	<node lat="61.202228588967216" lon="9.701031148512389" id="-26893">
		<tag k="historic" v="shieling" />
		<tag k="name" v="Grytsetra" />
		<tag k="place" v="isolated_dwelling" />
		<tag k="ssr:stedsnr" v="857524" />
	</node>
	<node lat="61.371459532887286" lon="10.140612600151433" id="-26894">
		<tag k="historic" v="shieling" />
		<tag k="name" v="Sjøsetra" />
		<tag k="place" v="isolated_dwelling" />
		<tag k="ssr:stedsnr" v="857983" />
	</node>
	<node lat="61.376241669243" lon="10.097388885045609" id="-26895">
		<tag k="historic" v="shieling" />
		<tag k="name" v="Gammeldalen" />
		<tag k="place" v="isolated_dwelling" />
		<tag k="ssr:stedsnr" v="857996" />
	</node>
	<node lat="61.40786111486675" lon="9.574316668101424" id="-26896">
		<tag k="historic" v="shieling" />
		<tag k="name" v="Gammelsetra" />
		<tag k="place" v="isolated_dwelling" />
		<tag k="ssr:stedsnr" v="858480" />
	</node>
	<node lat="61.31846944074387" lon="9.806663892999284" id="-26900">
		<tag k="name" v="Listad" />
		<tag k="place" v="farm" />
		<tag k="ssr:stedsnr" v="858687" />
	</node>
	<node lat="61.35011389133037" lon="9.741502770342285" id="-26901">
		<tag k="fixme" v="multiple name tags, choose one and add the other to alt_name" />
		<tag k="name" v="Nordgardshaugen;Haugen" />
		<tag k="place" v="farm" />
		<tag k="ssr:stedsnr" v="858690" />
	</node>
	<node lat="61.30586388925699" lon="10.171050003494098" id="-26902">
		<tag k="alt_name" v="Frøysevolden" />
		<tag k="name" v="Frøysevollen" />
		<tag k="place" v="farm" />
		<tag k="ssr:stedsnr" v="858814" />
	</node>
	<node lat="61.30651384158634" lon="9.974821723756284" id="-26903">
		<tag k="fixme" v="consider place=hamlet" />
		<tag k="name" v="Snertingdalen" />
		<tag k="place" v="farm" />
		<tag k="ssr:stedsnr" v="858827" />
	</node>
	<node lat="61.26954721878277" lon="10.202672224405513" id="-26904">
		<tag k="name" v="Leine" />
		<tag k="place" v="farm" />
		<tag k="ssr:stedsnr" v="858866" />
	</node>
	<node lat="61.21516111553162" lon="10.313400006314463" id="-26905">
		<tag k="name" v="Nordli" />
		<tag k="place" v="farm" />
		<tag k="ssr:stedsnr" v="858518" />
	</node>
	<node lat="61.353394440482916" lon="9.744458339495036" id="-26906">
		<tag k="name" v="Ormvollen" />
		<tag k="place" v="farm" />
		<tag k="ssr:stedsnr" v="858711" />
	</node>
	<node lat="61.27297500042122" lon="9.704038879635226" id="-26907">
		<tag k="historic" v="shieling" />
		<tag k="name" v="Grytlia" />
		<tag k="place" v="isolated_dwelling" />
		<tag k="ssr:stedsnr" v="858776" />
	</node>
	<node lat="61.39902500038502" lon="9.797413893532326" id="-26912">
		<tag k="historic" v="shieling" />
		<tag k="name" v="Klåpbakksetra" />
		<tag k="place" v="isolated_dwelling" />
		<tag k="ssr:stedsnr" v="899106" />
	</node>
	<node lat="61.33487777463073" lon="10.106238889943002" id="-26916">
		<tag k="historic" v="shieling" />
		<tag k="name" v="Hågåsetra" />
		<tag k="place" v="isolated_dwelling" />
		<tag k="ssr:stedsnr" v="899215" />
	</node>
	<node lat="61.32291388748457" lon="9.741122224192509" id="-26924">
		<tag k="historic" v="shieling" />
		<tag k="name" v="Finndalssetra" />
		<tag k="place" v="isolated_dwelling" />
		<tag k="ssr:stedsnr" v="900458" />
	</node>
	<node lat="61.32428610779967" lon="9.741563885569358" id="-26925">
		<tag k="historic" v="shieling" />
		<tag k="name" v="Masovnsetra" />
		<tag k="place" v="isolated_dwelling" />
		<tag k="ssr:stedsnr" v="900459" />
	</node>
	<node lat="61.31813888787855" lon="9.849747213035128" id="-26926">
		<tag k="name" v="Elveland" />
		<tag k="place" v="farm" />
		<tag k="ssr:stedsnr" v="900618" />
	</node>
	<node lat="61.192983336158534" lon="10.068238880153443" id="-26928">
		<tag k="historic" v="shieling" />
		<tag k="name" v="Øvre Fossetsetra" />
		<tag k="place" v="isolated_dwelling" />
		<tag k="ssr:stedsnr" v="901020" />
	</node>
	<node lat="61.19093055431091" lon="10.064438896521898" id="-26929">
		<tag k="historic" v="shieling" />
		<tag k="name" v="Fossetsetra" />
		<tag k="place" v="isolated_dwelling" />
		<tag k="ssr:stedsnr" v="901022" />
	</node>
	<node lat="61.25823611453492" lon="9.829897218883477" id="-26932">
		<tag k="historic" v="shieling" />
		<tag k="name" v="Teigomssetra" />
		<tag k="place" v="isolated_dwelling" />
		<tag k="ssr:stedsnr" v="901274" />
	</node>
	<node lat="61.26120833349879" lon="10.195230551933552" id="-26937">
		<tag k="name" v="Kræka" />
		<tag k="place" v="farm" />
		<tag k="ssr:stedsnr" v="902108" />
	</node>
	<node lat="61.23349999565034" lon="9.723238889746547" id="-26940">
		<tag k="historic" v="shieling" />
		<tag k="name" v="Kalstadsetra" />
		<tag k="place" v="isolated_dwelling" />
		<tag k="ssr:stedsnr" v="906515" />
	</node>
	<node lat="61.23348611343971" lon="9.720966660834103" id="-26941">
		<tag k="historic" v="shieling" />
		<tag k="name" v="Aulestadsetra" />
		<tag k="place" v="isolated_dwelling" />
		<tag k="ssr:stedsnr" v="906516" />
	</node>
	<node lat="61.213713887124364" lon="9.539874998522414" id="-26944">
		<tag k="fixme" v="consider tourism=alpine_hut or tourism=chalet" />
		<tag k="name" v="Skruvdalsbua" />
		<tag k="ssr:stedsnr" v="908015" />
		<tag k="tourism" v="wilderness_hut" />
	</node>
	<node lat="61.24096666889366" lon="10.216130560502549" id="-26946">
		<tag k="name" v="Sollia" />
		<tag k="place" v="isolated_dwelling" />
		<tag k="ssr:stedsnr" v="917218" />
	</node>
	<node lat="61.21802720017721" lon="10.268261314057439" id="-26947">
		<tag k="fixme" v="consider place=hamlet" />
		<tag k="name" v="Aulestad" />
		<tag k="place" v="farm" />
		<tag k="ssr:stedsnr" v="918326" />
	</node>
	<node lat="61.234205552498956" lon="10.057025008573655" id="-26948">
		<tag k="name" v="Bergli" />
		<tag k="place" v="farm" />
		<tag k="ssr:stedsnr" v="918301" />
	</node>
	<node lat="61.370077775653066" lon="9.603588886150149" id="-26949">
		<tag k="historic" v="shieling" />
		<tag k="name" v="Maribusetra" />
		<tag k="place" v="isolated_dwelling" />
		<tag k="ssr:stedsnr" v="918404" />
	</node>
	<node lat="61.209629913178816" lon="10.25928413281304" id="-26950">
		<tag k="alt_name" v="Stetrud" />
		<tag k="name" v="Stetterud" />
		<tag k="place" v="farm" />
		<tag k="ssr:stedsnr" v="918503" />
	</node>
	<node lat="61.21832499712356" lon="10.230375002458953" id="-26951">
		<tag k="name" v="Dalset" />
		<tag k="place" v="farm" />
		<tag k="ssr:stedsnr" v="918505" />
	</node>
	<node lat="61.21686666280498" lon="10.233536116340682" id="-26952">
		<tag k="name" v="Haukvoll" />
		<tag k="place" v="farm" />
		<tag k="ssr:stedsnr" v="918507" />
	</node>
	<node lat="61.38882995121181" lon="9.570471392721775" id="-26953">
		<tag k="historic" v="shieling" />
		<tag k="name" v="Sveasetra" />
		<tag k="place" v="isolated_dwelling" />
		<tag k="ssr:stedsnr" v="918508" />
	</node>
	<node lat="61.222854919211734" lon="10.308034630997032" id="-26954">
		<tag k="alt_name" v="Fongsrønningen" />
		<tag k="fixme" v="multiple name tags, choose one and add the other to alt_name" />
		<tag k="name" v="Engli;Fognsrønningen" />
		<tag k="place" v="farm" />
		<tag k="ssr:stedsnr" v="918510" />
	</node>
	<node lat="61.225813886911126" lon="10.281922221379727" id="-26955">
		<tag k="fixme" v="consider place=hamlet" />
		<tag k="name" v="Mannstad" />
		<tag k="place" v="farm" />
		<tag k="ssr:stedsnr" v="918512" />
	</node>
	<node lat="61.22221383090993" lon="10.300840627357124" id="-26956">
		<tag k="alt_name" v="Fogner" />
		<tag k="name" v="Fogne" />
		<tag k="place" v="hamlet" />
		<tag k="ssr:stedsnr" v="918520" />
	</node>
	<node lat="61.21629955277779" lon="10.116733015473308" id="-26957">
		<tag k="alt_name" v="Kråbøl, øvre" />
		<tag k="fixme" v="consider place=hamlet" />
		<tag k="name" v="Øvre Kråbøl" />
		<tag k="place" v="farm" />
		<tag k="ssr:stedsnr" v="918524" />
	</node>
	<node lat="61.31568055790392" lon="9.812099991927903" id="-26959">
		<tag k="name" v="Limo" />
		<tag k="place" v="farm" />
		<tag k="ssr:stedsnr" v="918715" />
	</node>
	<node lat="61.34056944041556" lon="9.770749998664535" id="-26960">
		<tag k="name" v="Løvlund" />
		<tag k="place" v="farm" />
		<tag k="ssr:stedsnr" v="918732" />
	</node>
	<node lat="61.29344032630695" lon="9.95859495600949" id="-26963">
		<tag k="fixme" v="consider place=hamlet" />
		<tag k="name" v="Skålenget" />
		<tag k="place" v="farm" />
		<tag k="ssr:stedsnr" v="919707" />
	</node>
	<node lat="61.29608610733247" lon="10.201819436915253" id="-26965">
		<tag k="name" v="Skogen" />
		<tag k="place" v="farm" />
		<tag k="ssr:stedsnr" v="919745" />
	</node>
	<node lat="61.28858888456674" lon="9.946575003504849" id="-26966">
		<tag k="name" v="Borgemoen" />
		<tag k="place" v="farm" />
		<tag k="ssr:stedsnr" v="919697" />
	</node>
	<node lat="61.409794444112705" lon="9.79167499190228" id="-26970">
		<tag k="historic" v="shieling" />
		<tag k="name" v="Solbakksetra" />
		<tag k="place" v="isolated_dwelling" />
		<tag k="ssr:stedsnr" v="959849" />
	</node>
	<node lat="61.34228611532607" lon="10.16824166319724" id="-26971">
		<tag k="historic" v="shieling" />
		<tag k="name" v="Baukersetra" />
		<tag k="place" v="isolated_dwelling" />
		<tag k="ssr:stedsnr" v="960010" />
	</node>
	<node lat="61.338905553422286" lon="9.766897223117958" id="-26972">
		<tag k="name" v="Granerud" />
		<tag k="place" v="farm" />
		<tag k="ssr:stedsnr" v="959936" />
	</node>
	<node lat="61.32362222139778" lon="9.844236115393464" id="-26976">
		<tag k="name" v="Høgset" />
		<tag k="place" v="farm" />
		<tag k="ssr:stedsnr" v="960604" />
	</node>
	<node lat="61.11987853793588" lon="9.990208588316564" id="-26984">
		<tag k="historic" v="shieling" />
		<tag k="name" v="Pålsrudsetra" />
		<tag k="place" v="isolated_dwelling" />
		<tag k="ssr:stedsnr" v="961090" />
	</node>
	<node lat="61.31929444360998" lon="9.675830561014184" id="-26985">
		<tag k="name" v="Buvangen" />
		<tag k="place" v="locality" />
		<tag k="ssr:stedsnr" v="961456" />
	</node>
	<node lat="61.25367777923958" lon="10.071380552908245" id="-26986">
		<tag k="name" v="Solsetrønningen" />
		<tag k="place" v="locality" />
		<tag k="ssr:stedsnr" v="961828" />
	</node>
	<node lat="61.28347500342368" lon="10.124897221927464" id="-26990">
		<tag k="name" v="Berget" />
		<tag k="place" v="farm" />
		<tag k="ssr:stedsnr" v="961712" />
	</node>
	<node lat="61.27599166921363" lon="10.169191673170179" id="-26992">
		<tag k="name" v="Skinnerlia" />
		<tag k="place" v="farm" />
		<tag k="ssr:stedsnr" v="961759" />
	</node>
	<node lat="61.17480555569019" lon="9.958408330409167" id="-26995">
		<tag k="historic" v="shieling" />
		<tag k="name" v="Øvre Grimstadsetra" />
		<tag k="place" v="isolated_dwelling" />
		<tag k="ssr:stedsnr" v="962039" />
	</node>
	<node lat="61.17404722576175" lon="9.955336118589539" id="-26996">
		<tag k="historic" v="shieling" />
		<tag k="name" v="Nedre Brandslisetra" />
		<tag k="place" v="isolated_dwelling" />
		<tag k="ssr:stedsnr" v="962040" />
	</node>
	<node lat="61.269322223335685" lon="10.187611114153828" id="-26997">
		<tag k="name" v="Rønningen" />
		<tag k="place" v="farm" />
		<tag k="ssr:stedsnr" v="962106" />
	</node>
	<node lat="61.271302773510875" lon="10.182819436448284" id="-26998">
		<tag k="name" v="Lyseng" />
		<tag k="place" v="farm" />
		<tag k="ssr:stedsnr" v="962110" />
	</node>
	<node lat="61.22416666599976" lon="9.9104138968091" id="-27000">
		<tag k="historic" v="shieling" />
		<tag k="name" v="Sørbøsetra" />
		<tag k="place" v="isolated_dwelling" />
		<tag k="ssr:stedsnr" v="962196" />
	</node>
	<node lat="61.16310000324894" lon="10.043288896573452" id="-27001">
		<tag k="historic" v="shieling" />
		<tag k="name" v="Stadumssetra" />
		<tag k="place" v="isolated_dwelling" />
		<tag k="ssr:stedsnr" v="962915" />
	</node>
	<node lat="61.21693332977298" lon="10.27519444623579" id="-27002">
		<tag k="amenity" v="nursing_home" />
		<tag k="name" v="Follebutunet" />
		<tag k="ssr:stedsnr" v="965136" />
	</node>
	<node lat="61.22828333354607" lon="10.278986103051558" id="-27004">
		<tag k="name" v="Langset" />
		<tag k="place" v="farm" />
		<tag k="ssr:stedsnr" v="969091" />
	</node>
	<node lat="61.36181792512468" lon="9.833470806280518" id="-27005">
		<tag k="historic" v="shieling" />
		<tag k="name" v="Hanslisetra" />
		<tag k="place" v="isolated_dwelling" />
		<tag k="ssr:stedsnr" v="974320" />
	</node>
	<node lat="61.36049317187353" lon="9.837207232147033" id="-27006">
		<tag k="historic" v="shieling" />
		<tag k="name" v="Holelisetra" />
		<tag k="place" v="isolated_dwelling" />
		<tag k="ssr:stedsnr" v="974321" />
	</node>
	<node lat="61.360155212722404" lon="9.84105295765019" id="-27007">
		<tag k="historic" v="shieling" />
		<tag k="name" v="Holevollsetra" />
		<tag k="place" v="isolated_dwelling" />
		<tag k="ssr:stedsnr" v="974322" />
	</node>
	<node lat="61.36197218422443" lon="9.836779163961415" id="-27008">
		<tag k="fixme" v="multiple name tags, choose one and add the other to alt_name" />
		<tag k="historic" v="shieling" />
		<tag k="name" v="Nysetsetra;Holsetra" />
		<tag k="place" v="isolated_dwelling" />
		<tag k="ssr:stedsnr" v="974323" />
	</node>
	<node lat="61.36666266950873" lon="9.834293714034255" id="-27012">
		<tag k="fixme" v="multiple name tags, choose one and add the other to alt_name" />
		<tag k="historic" v="shieling" />
		<tag k="name" v="Bakkomssetra;Holsetra" />
		<tag k="place" v="isolated_dwelling" />
		<tag k="ssr:stedsnr" v="974327" />
	</node>
	<node lat="61.36887428973085" lon="9.838085178225898" id="-27013">
		<tag k="historic" v="shieling" />
		<tag k="name" v="Solhaugsetra" />
		<tag k="place" v="isolated_dwelling" />
		<tag k="ssr:stedsnr" v="974328" />
	</node>
	<node lat="61.37280357111704" lon="9.854182002330631" id="-27014">
		<tag k="historic" v="shieling" />
		<tag k="name" v="Vollasetra" />
		<tag k="place" v="isolated_dwelling" />
		<tag k="ssr:stedsnr" v="974329" />
	</node>
	<node lat="61.37325455012918" lon="9.854821037048726" id="-27015">
		<tag k="historic" v="shieling" />
		<tag k="name" v="Rudsetra" />
		<tag k="place" v="isolated_dwelling" />
		<tag k="ssr:stedsnr" v="974330" />
	</node>
	<node lat="61.37302917954983" lon="9.859881476240261" id="-27016">
		<tag k="historic" v="shieling" />
		<tag k="name" v="Bjerkesetra" />
		<tag k="place" v="isolated_dwelling" />
		<tag k="ssr:stedsnr" v="974331" />
	</node>
	<node lat="61.372454545048406" lon="9.86525720780696" id="-27017">
		<tag k="historic" v="shieling" />
		<tag k="name" v="Bennlisetra" />
		<tag k="place" v="isolated_dwelling" />
		<tag k="ssr:stedsnr" v="974332" />
	</node>
	<node lat="61.37201368423991" lon="9.863717138561066" id="-27018">
		<tag k="historic" v="shieling" />
		<tag k="name" v="Jonslisetra" />
		<tag k="place" v="isolated_dwelling" />
		<tag k="ssr:stedsnr" v="974333" />
	</node>
	<node lat="61.37143524525922" lon="9.860854669999837" id="-27019">
		<tag k="historic" v="shieling" />
		<tag k="name" v="Saghaugsetra" />
		<tag k="place" v="isolated_dwelling" />
		<tag k="ssr:stedsnr" v="974334" />
	</node>
	<node lat="61.37047268548501" lon="9.86462345001923" id="-27020">
		<tag k="historic" v="shieling" />
		<tag k="name" v="Myklebøsetra" />
		<tag k="place" v="isolated_dwelling" />
		<tag k="ssr:stedsnr" v="974335" />
	</node>
	<node lat="61.37561583610721" lon="9.863276299954249" id="-27021">
		<tag k="historic" v="shieling" />
		<tag k="name" v="Nergardssetra" />
		<tag k="place" v="isolated_dwelling" />
		<tag k="ssr:stedsnr" v="974336" />
	</node>
	<node lat="61.37523544239386" lon="9.865815821771102" id="-27022">
		<tag k="historic" v="shieling" />
		<tag k="name" v="Kyrkjebøsetra" />
		<tag k="place" v="isolated_dwelling" />
		<tag k="ssr:stedsnr" v="974337" />
	</node>
	<node lat="61.271227923795145" lon="10.14717915791947" id="-27023">
		<tag k="name" v="Skjerve" />
		<tag k="place" v="farm" />
		<tag k="ssr:stedsnr" v="979368" />
	</node>
	<node lat="61.20740759492569" lon="10.14388827781603" id="-27028">
		<tag k="name" v="Roåker" />
		<tag k="place" v="quarter" />
		<tag k="ssr:stedsnr" v="982185" />
	</node>
	<node lat="61.23095698807399" lon="10.227293512053198" id="-27029">
		<tag k="name" v="Sollia" />
		<tag k="place" v="quarter" />
		<tag k="ssr:stedsnr" v="982187" />
	</node>
	<node lat="61.21494811677882" lon="10.297792807752854" id="-27030">
		<tag k="name" v="Heggen boligfelt" />
		<tag k="place" v="quarter" />
		<tag k="ssr:stedsnr" v="982188" />
	</node>
	<node lat="61.22368196651529" lon="10.211205089184087" id="-27035">
		<tag k="leisure" v="pitch" />
		<tag k="name" v="Linflåa idrettspark" />
		<tag k="ssr:stedsnr" v="982196" />
	</node>
	<node lat="61.22221171691875" lon="10.229215912515329" id="-27036">
		<tag k="name" v="Steinsmoen industriområde" />
		<tag k="place" v="quarter" />
		<tag k="ssr:stedsnr" v="982197" />
	</node>
	<node lat="61.2049176141202" lon="10.139700969084865" id="-27037">
		<tag k="name" v="Veisten" />
		<tag k="place" v="locality" />
		<tag k="ssr:stedsnr" v="982201" />
	</node>
	<node lat="61.20432347487973" lon="10.138300553665868" id="-27038">
		<tag k="name" v="Veisten" />
		<tag k="place" v="quarter" />
		<tag k="ssr:stedsnr" v="982203" />
	</node>
	<node lat="61.22477638829812" lon="10.213042570833867" id="-27047">
		<tag k="amenity" v="school" />
		<tag k="name" v="Gausdal videregående skole" />
		<tag k="ssr:stedsnr" v="983485" />
	</node>
	<node lat="61.164362892735426" lon="10.146794988388464" id="-27048">
		<tag k="name" v="Svensrudvollen" />
		<tag k="place" v="locality" />
		<tag k="ssr:stedsnr" v="986048" />
	</node>
	<node lat="61.337282007476546" lon="9.77051215965761" id="-27049">
		<tag k="name" v="Moen" />
		<tag k="place" v="locality" />
		<tag k="ssr:stedsnr" v="986161" />
	</node>
	<node lat="61.24898611462357" lon="10.2179138939329" id="-27053">
		<tag k="name" v="Bekkelund" />
		<tag k="place" v="isolated_dwelling" />
		<tag k="ssr:stedsnr" v="7275" />
	</node>
	<node lat="61.2478638852187" lon="10.134561113537053" id="-27054">
		<tag k="name" v="Løypet" />
		<tag k="place" v="farm" />
		<tag k="ssr:stedsnr" v="7279" />
	</node>
	<node lat="61.193981817763024" lon="10.131333766781495" id="-27056">
		<tag k="fixme" v="consider place=hamlet" />
		<tag k="name" v="Granlia" />
		<tag k="place" v="farm" />
		<tag k="ssr:stedsnr" v="7393" />
	</node>
	<node lat="61.15671944229754" lon="10.169161105751872" id="-27058">
		<tag k="name" v="Nordre Øygarden" />
		<tag k="place" v="farm" />
		<tag k="ssr:stedsnr" v="8076" />
	</node>
	<node lat="61.23003682411268" lon="10.304438042305513" id="-27059">
		<tag k="alt_name" v="Haugstad" />
		<tag k="name" v="Gudbrandhaugen" />
		<tag k="place" v="farm" />
		<tag k="ssr:stedsnr" v="8320" />
	</node>
	<node lat="61.23346666272667" lon="10.29201388737249" id="-27060">
		<tag k="alt_name" v="Skardstad" />
		<tag k="name" v="Skarstad" />
		<tag k="place" v="farm" />
		<tag k="ssr:stedsnr" v="8321" />
	</node>
	<node lat="61.210769442208516" lon="9.972791670337383" id="-27062">
		<tag k="historic" v="shieling" />
		<tag k="name" v="Romyra" />
		<tag k="place" v="isolated_dwelling" />
		<tag k="ssr:stedsnr" v="8527" />
	</node>
	<node lat="61.38828611065366" lon="9.593647215447545" id="-27063">
		<tag k="name" v="Sofierud" />
		<tag k="place" v="isolated_dwelling" />
		<tag k="ssr:stedsnr" v="8366" />
	</node>
	<node lat="61.16642777838929" lon="10.1562111191796" id="-27066">
		<tag k="alt_name" v="Synstlia, nordre;Nordre Sønsteli" />
		<tag k="name" v="Nordre Synstlia" />
		<tag k="place" v="farm" />
		<tag k="ssr:stedsnr" v="8446" />
	</node>
	<node lat="61.17741666251329" lon="10.137238895825876" id="-27067">
		<tag k="alt_name" v="Nordre Forsetvollen" />
		<tag k="name" v="Fossetvollen" />
		<tag k="place" v="farm" />
		<tag k="ssr:stedsnr" v="8453" />
	</node>
	<node lat="61.18290792728068" lon="10.131193100408522" id="-27068">
		<tag k="fixme" v="consider place=hamlet" />
		<tag k="name" v="Kjennlia" />
		<tag k="place" v="farm" />
		<tag k="ssr:stedsnr" v="8456" />
	</node>
	<node lat="61.212675000708295" lon="10.213919446877362" id="-27069">
		<tag k="name" v="Brenna" />
		<tag k="place" v="farm" />
		<tag k="ssr:stedsnr" v="8479" />
	</node>
	<node lat="61.22183610750807" lon="10.314888883281156" id="-27070">
		<tag k="name" v="Berget" />
		<tag k="place" v="farm" />
		<tag k="ssr:stedsnr" v="8482" />
	</node>
	<node lat="61.342374996153225" lon="9.759449994777697" id="-27071">
		<tag k="alt_name" v="Kvisberglia nedre" />
		<tag k="name" v="Nedre Kvisberglia" />
		<tag k="place" v="farm" />
		<tag k="ssr:stedsnr" v="8713" />
	</node>
	<node lat="61.31087499666645" lon="10.18451389215641" id="-27072">
		<tag k="name" v="Elvli" />
		<tag k="place" v="farm" />
		<tag k="ssr:stedsnr" v="8810" />
	</node>
	<node lat="61.31605553140322" lon="10.188936297691855" id="-27073">
		<tag k="alt_name" v="Rødum" />
		<tag k="name" v="Rødom" />
		<tag k="place" v="hamlet" />
		<tag k="ssr:stedsnr" v="8811" />
	</node>
	<node lat="61.31557500397319" lon="10.153311109451133" id="-27074">
		<tag k="historic" v="shieling" />
		<tag k="name" v="Holobakken" />
		<tag k="place" v="isolated_dwelling" />
		<tag k="ssr:stedsnr" v="8818" />
	</node>
	<node lat="61.25074166871382" lon="10.199119442436182" id="-27075">
		<tag k="alt_name" v="Norshus" />
		<tag k="name" v="Nordshus" />
		<tag k="place" v="farm" />
		<tag k="ssr:stedsnr" v="8829" />
	</node>
	<node lat="61.30308332986145" lon="9.919436103592696" id="-27076">
		<tag k="alt_name" v="Bøle, nedre" />
		<tag k="name" v="Nedre Bøle" />
		<tag k="place" v="locality" />
		<tag k="ssr:stedsnr" v="8660" />
	</node>
	<node lat="61.32090000036186" lon="9.803125001682513" id="-27079">
		<tag k="name" v="Nore" />
		<tag k="place" v="farm" />
		<tag k="ssr:stedsnr" v="8681" />
	</node>
	<node lat="61.24965595422866" lon="10.063479555382356" id="-27080">
		<tag k="name" v="Solbjør" />
		<tag k="place" v="hamlet" />
		<tag k="ssr:stedsnr" v="8858" />
	</node>
	<node lat="61.271127774048686" lon="10.15080834150179" id="-27082">
		<tag k="name" v="Rognstad" />
		<tag k="place" v="farm" />
		<tag k="ssr:stedsnr" v="8864" />
	</node>
	<node lat="61.26618888999263" lon="10.191183329541522" id="-27083">
		<tag k="name" v="Aune" />
		<tag k="place" v="farm" />
		<tag k="ssr:stedsnr" v="8866" />
	</node>
	<node lat="61.341654957458914" lon="10.148904866233648" id="-27084">
		<tag k="historic" v="shieling" />
		<tag k="name" v="Jønnbu" />
		<tag k="place" v="isolated_dwelling" />
		<tag k="ssr:stedsnr" v="8969" />
	</node>
	<node lat="61.384290160195754" lon="9.527396839577374" id="-27088">
		<tag k="alt_name" v="Megrunnsbua" />
		<tag k="fixme" v="consider tourism=alpine_hut or tourism=chalet" />
		<tag k="name" v="Megrundsbua" />
		<tag k="ssr:stedsnr" v="28644" />
		<tag k="tourism" v="wilderness_hut" />
	</node>
	<node lat="61.39961175668168" lon="9.794915210113148" id="-27097">
		<tag k="historic" v="shieling" />
		<tag k="name" v="Bekkasetra" />
		<tag k="place" v="isolated_dwelling" />
		<tag k="ssr:stedsnr" v="49160" />
	</node>
	<node lat="61.38405508119895" lon="9.71541401324008" id="-27098">
		<tag k="historic" v="shieling" />
		<tag k="name" v="Rammasetra" />
		<tag k="place" v="isolated_dwelling" />
		<tag k="ssr:stedsnr" v="49331" />
	</node>
	<node lat="61.34343611503187" lon="9.767233333784684" id="-27104">
		<tag k="amenity" v="school" />
		<tag k="name" v="Svatsum" />
		<tag k="ssr:stedsnr" v="49942" />
	</node>
	<node lat="61.337125001919254" lon="9.775319451310203" id="-27105">
		<tag k="name" v="Skyttermoen" />
		<tag k="place" v="farm" />
		<tag k="ssr:stedsnr" v="49946" />
	</node>
	<node lat="61.329197221224184" lon="9.789455557846814" id="-27111">
		<tag k="name" v="Brenden" />
		<tag k="place" v="farm" />
		<tag k="ssr:stedsnr" v="50586" />
	</node>
	<node lat="61.329902776507076" lon="9.801991672812068" id="-27112">
		<tag k="alt_name" v="Søndre Aspesletten" />
		<tag k="name" v="Søre Ospesletta" />
		<tag k="place" v="farm" />
		<tag k="ssr:stedsnr" v="50589" />
	</node>
	<node lat="61.32270555432957" lon="9.80931667308143" id="-27113">
		<tag k="name" v="Holelia" />
		<tag k="place" v="farm" />
		<tag k="ssr:stedsnr" v="50592" />
	</node>
	<node lat="61.318738887336714" lon="9.844161108826645" id="-27114">
		<tag k="name" v="Aurtun" />
		<tag k="place" v="farm" />
		<tag k="ssr:stedsnr" v="50565" />
	</node>
	<node lat="61.32543055611829" lon="10.006161113279152" id="-27115">
		<tag k="historic" v="shieling" />
		<tag k="name" v="Nordre Hårstadsetra" />
		<tag k="place" v="isolated_dwelling" />
		<tag k="ssr:stedsnr" v="50932" />
	</node>
	<node lat="61.2917583342066" lon="10.182505552709342" id="-27118">
		<tag k="building" v="industrial" />
		<tag k="name" v="Brustuen" />
		<tag k="ssr:stedsnr" v="51137" />
	</node>
	<node lat="61.295119440276146" lon="9.979286114573139" id="-27119">
		<tag k="name" v="Nordenget" />
		<tag k="place" v="farm" />
		<tag k="ssr:stedsnr" v="51152" />
	</node>
	<node lat="61.26499999987375" lon="10.017727778333182" id="-27120">
		<tag k="name" v="Marienget" />
		<tag k="place" v="farm" />
		<tag k="ssr:stedsnr" v="51458" />
	</node>
	<node lat="61.28461636604958" lon="10.141700528628627" id="-27124">
		<tag k="fixme" v="consider place=hamlet" />
		<tag k="loc_name" v="Ulvengstugua" />
		<tag k="name" v="Ulvengstuen" />
		<tag k="place" v="farm" />
		<tag k="ssr:stedsnr" v="51723" />
	</node>
	<node lat="61.27506110778058" lon="10.023052785676231" id="-27125">
		<tag k="name" v="Nordhaug" />
		<tag k="place" v="farm" />
		<tag k="ssr:stedsnr" v="51736" />
	</node>
	<node lat="61.1705638918937" lon="9.95647776959726" id="-27131">
		<tag k="historic" v="shieling" />
		<tag k="name" v="Snakholssetra" />
		<tag k="place" v="isolated_dwelling" />
		<tag k="ssr:stedsnr" v="52041" />
	</node>
	<node lat="61.26708611432903" lon="10.129755554083957" id="-27132">
		<tag k="loc_name" v="Raudland" />
		<tag k="name" v="Rauland" />
		<tag k="place" v="farm" />
		<tag k="ssr:stedsnr" v="52050" />
	</node>
	<node lat="61.26978333781768" lon="10.186138885365516" id="-27133">
		<tag k="name" v="Opsalhagen" />
		<tag k="place" v="farm" />
		<tag k="ssr:stedsnr" v="52095" />
	</node>
	<node lat="61.22696944327693" lon="10.230919451813644" id="-27134">
		<tag k="name" v="Høslum" />
		<tag k="place" v="farm" />
		<tag k="ssr:stedsnr" v="52344" />
	</node>
	<node lat="61.22367777753838" lon="10.220416673536718" id="-27135">
		<tag k="building" v="industrial" />
		<tag k="industrial" v="factory" />
		<tag k="name" v="Gausdal bruk" />
		<tag k="ssr:stedsnr" v="52345" />
	</node>
	<node lat="61.20955278006683" lon="9.85078332776559" id="-27136">
		<tag k="historic" v="shieling" />
		<tag k="name" v="Øvre Dokklia" />
		<tag k="place" v="isolated_dwelling" />
		<tag k="ssr:stedsnr" v="52451" />
	</node>
	<node lat="61.21689166913319" lon="10.055719453829845" id="-27137">
		<tag k="name" v="Lishytta" />
		<tag k="place" v="isolated_dwelling" />
		<tag k="ssr:stedsnr" v="52562" />
	</node>
	<node lat="61.2590111120348" lon="10.293938880522418" id="-27141">
		<tag k="name" v="Lundehytta" />
		<tag k="place" v="isolated_dwelling" />
		<tag k="ssr:stedsnr" v="55441" />
	</node>
	<node lat="61.212966669555875" lon="10.28084166601206" id="-27142">
		<tag k="name" v="Holshågån" />
		<tag k="place" v="quarter" />
		<tag k="ssr:stedsnr" v="55136" />
	</node>
	<node lat="61.15374999740675" lon="10.164611104735013" id="-27143">
		<tag k="name" v="Nerjordet" />
		<tag k="place" v="farm" />
		<tag k="ssr:stedsnr" v="56449" />
	</node>
	<node lat="61.2594805544743" lon="9.760113879860471" id="-27147">
		<tag k="fixme" v="consider tourism=alpine_hut or tourism=chalet" />
		<tag k="name" v="Vestfjellhytta" />
		<tag k="ssr:stedsnr" v="60300" />
		<tag k="tourism" v="wilderness_hut" />
	</node>
	<node lat="61.288689023170456" lon="10.150511805655281" id="-27148">
		<tag k="name" v="Kjos" />
		<tag k="place" v="hamlet" />
		<tag k="ssr:stedsnr" v="60485" />
	</node>
	<node lat="61.16782500146633" lon="10.164458329857633" id="-27149">
		<tag k="name" v="Granomshaugen" />
		<tag k="place" v="farm" />
		<tag k="ssr:stedsnr" v="68425" />
	</node>
	<node lat="61.13790210013994" lon="10.19656637422608" id="-27150">
		<tag k="fixme" v="consider place=hamlet" />
		<tag k="name" v="Melbø" />
		<tag k="place" v="farm" />
		<tag k="ssr:stedsnr" v="68073" />
	</node>
	<node lat="61.13602275692777" lon="10.199475207860345" id="-27151">
		<tag k="alt_name" v="Stubberud" />
		<tag k="fixme" v="consider place=hamlet" />
		<tag k="name" v="Stubbrud" />
		<tag k="place" v="farm" />
		<tag k="ssr:stedsnr" v="68107" />
	</node>
	<node lat="61.235799999937356" lon="10.034702772256734" id="-27160">
		<tag k="historic" v="shieling" />
		<tag k="name" v="Bøsetra" />
		<tag k="place" v="isolated_dwelling" />
		<tag k="ssr:stedsnr" v="68256" />
	</node>
	<node lat="61.23731110916597" lon="10.0726861129255" id="-27161">
		<tag k="name" v="Sørbø" />
		<tag k="place" v="farm" />
		<tag k="ssr:stedsnr" v="68258" />
	</node>
	<node lat="61.234494445386574" lon="10.06008611224563" id="-27162">
		<tag k="name" v="Trassrud" />
		<tag k="place" v="farm" />
		<tag k="ssr:stedsnr" v="68259" />
	</node>
	<node lat="61.23176056729371" lon="10.079110701150517" id="-27163">
		<tag k="fixme" v="consider place=hamlet" />
		<tag k="name" v="Synsthågå" />
		<tag k="place" v="farm" />
		<tag k="ssr:stedsnr" v="68260" />
	</node>
	<node lat="61.23840833597003" lon="10.167833340647604" id="-27164">
		<tag k="name" v="Røysom" />
		<tag k="place" v="farm" />
		<tag k="ssr:stedsnr" v="68270" />
	</node>
	<node lat="61.24093972294729" lon="10.20203502979035" id="-27165">
		<tag k="fixme" v="consider place=hamlet" />
		<tag k="name" v="Leikvam" />
		<tag k="place" v="farm" />
		<tag k="ssr:stedsnr" v="68273" />
	</node>
	<node lat="61.24525555816335" lon="10.078266657887479" id="-27166">
		<tag k="name" v="Oppset" />
		<tag k="place" v="farm" />
		<tag k="ssr:stedsnr" v="68275" />
	</node>
	<node lat="61.22187500208614" lon="10.162599995547179" id="-27167">
		<tag k="name" v="Vang" />
		<tag k="place" v="farm" />
		<tag k="ssr:stedsnr" v="68283" />
	</node>
	<node lat="61.2117055559043" lon="10.121922228959027" id="-27169">
		<tag k="name" v="Vangom" />
		<tag k="place" v="farm" />
		<tag k="ssr:stedsnr" v="68464" />
	</node>
	<node lat="61.213110559032245" lon="10.167935544837619" id="-27170">
		<tag k="alt_name" v="Kallstad, s;Søndre Kallstad;Søndre Kalstad;Søre Kallstad" />
		<tag k="fixme" v="consider place=hamlet" />
		<tag k="name" v="Søre Kalstad" />
		<tag k="place" v="farm" />
		<tag k="ssr:stedsnr" v="68467" />
	</node>
	<node lat="61.221811107802466" lon="10.31352778361944" id="-27171">
		<tag k="name" v="Jonsborg" />
		<tag k="place" v="farm" />
		<tag k="ssr:stedsnr" v="68477" />
	</node>
	<node lat="61.35296111175442" lon="9.719202783964564" id="-27172">
		<tag k="name" v="Roa" />
		<tag k="place" v="farm" />
		<tag k="ssr:stedsnr" v="68665" />
	</node>
	<node lat="61.360327779801025" lon="9.690911110023821" id="-27175">
		<tag k="alt_name" v="Hellarn" />
		<tag k="name" v="Helleren" />
		<tag k="place" v="locality" />
		<tag k="ssr:stedsnr" v="68677" />
	</node>
	<node lat="61.33729166949429" lon="10.093650008711862" id="-27177">
		<tag k="name" v="Hotel Skeikampen" />
		<tag k="ssr:stedsnr" v="68952" />
		<tag k="tourism" v="hotel" />
	</node>
	<node lat="61.34225555260626" lon="9.909055551085684" id="-27178">
		<tag k="historic" v="shieling" />
		<tag k="name" v="Haustsetra" />
		<tag k="place" v="isolated_dwelling" />
		<tag k="ssr:stedsnr" v="69711" />
	</node>
	<node lat="61.34656666427884" lon="9.678288891952615" id="-27179">
		<tag k="historic" v="shieling" />
		<tag k="name" v="Roasetra" />
		<tag k="place" v="isolated_dwelling" />
		<tag k="ssr:stedsnr" v="69714" />
	</node>
	<node lat="61.28923333495619" lon="10.152330564753532" id="-27181">
		<tag k="alt_name" v="Kjos nordre" />
		<tag k="fixme" v="consider place=hamlet" />
		<tag k="name" v="Nordre Kjos" />
		<tag k="place" v="farm" />
		<tag k="ssr:stedsnr" v="69802" />
	</node>
	<node lat="61.323582068987115" lon="9.86253621360996" id="-27184">
		<tag k="fixme" v="consider place=hamlet" />
		<tag k="name" v="Melbø" />
		<tag k="place" v="farm" />
		<tag k="ssr:stedsnr" v="69665" />
	</node>
	<node lat="61.32660555478723" lon="9.841713889406604" id="-27185">
		<tag k="alt_name" v="Aspebakken" />
		<tag k="name" v="Ospebakken" />
		<tag k="place" v="farm" />
		<tag k="ssr:stedsnr" v="69671" />
	</node>
	<node lat="61.2813527754544" lon="9.870705555103411" id="-27186">
		<tag k="historic" v="shieling" />
		<tag k="name" v="Keiken" />
		<tag k="place" v="isolated_dwelling" />
		<tag k="ssr:stedsnr" v="69757" />
	</node>
	<node lat="61.26342222414237" lon="10.011561103049026" id="-27191">
		<tag k="alt_name" v="Smedlia" />
		<tag k="name" v="Smelia" />
		<tag k="place" v="farm" />
		<tag k="ssr:stedsnr" v="69855" />
	</node>
	<node lat="61.264527781047164" lon="10.16218055983669" id="-27192">
		<tag k="name" v="Alme" />
		<tag k="place" v="farm" />
		<tag k="ssr:stedsnr" v="69865" />
	</node>
	<node lat="61.26559830322854" lon="10.18205125105332" id="-27193">
		<tag k="fixme" v="consider place=hamlet" />
		<tag k="name" v="Oppsal" />
		<tag k="place" v="farm" />
		<tag k="ssr:stedsnr" v="69868" />
	</node>
	<node lat="61.265873978526436" lon="10.176258552965026" id="-27194">
		<tag k="fixme" v="consider place=hamlet" />
		<tag k="name" v="Fåråstad" />
		<tag k="old_name" v="Faaraastad" />
		<tag k="place" v="farm" />
		<tag k="ssr:stedsnr" v="69869" />
	</node>
	<node lat="61.31138930244524" lon="10.059756930259956" id="-27198">
		<tag k="historic" v="shieling" />
		<tag k="name" v="Skrivlisetra" />
		<tag k="place" v="isolated_dwelling" />
		<tag k="ssr:stedsnr" v="110230" />
	</node>
	<node lat="61.40466666424194" lon="9.793530551489981" id="-27204">
		<tag k="historic" v="shieling" />
		<tag k="name" v="Gumpholssetra" />
		<tag k="place" v="isolated_dwelling" />
		<tag k="ssr:stedsnr" v="110855" />
	</node>
	<node lat="61.32161013764561" lon="9.744116634727513" id="-27206">
		<tag k="historic" v="shieling" />
		<tag k="name" v="Stubberudsetra" />
		<tag k="place" v="isolated_dwelling" />
		<tag k="ssr:stedsnr" v="111438" />
	</node>
	<node lat="61.32758610928722" lon="9.80047499776037" id="-27208">
		<tag k="name" v="Midtenget" />
		<tag k="place" v="farm" />
		<tag k="ssr:stedsnr" v="111597" />
	</node>
	<node lat="61.33051388741288" lon="9.796047220624725" id="-27209">
		<tag k="name" v="Svea" />
		<tag k="place" v="farm" />
		<tag k="ssr:stedsnr" v="111598" />
	</node>
	<node lat="61.27709444724141" lon="10.133269436271886" id="-27210">
		<tag k="name" v="Li mølle" />
		<tag k="place" v="locality" />
		<tag k="ssr:stedsnr" v="111701" />
	</node>
	<node lat="61.2454372836837" lon="10.159792307102977" id="-27213">
		<tag k="fixme" v="consider place=hamlet" />
		<tag k="name" v="Midtvollshaugen" />
		<tag k="place" v="farm" />
		<tag k="ssr:stedsnr" v="113129" />
	</node>
	<node lat="61.17583610878788" lon="9.891766670668943" id="-27216">
		<tag k="historic" v="shieling" />
		<tag k="name" v="Liomsholssetra" />
		<tag k="place" v="isolated_dwelling" />
		<tag k="ssr:stedsnr" v="112014" />
	</node>
	<node lat="61.33827222596405" lon="9.934077770422935" id="-27219">
		<tag k="historic" v="shieling" />
		<tag k="name" v="Skålengssetra" />
		<tag k="place" v="isolated_dwelling" />
		<tag k="ssr:stedsnr" v="111957" />
	</node>
	<node lat="61.391402776376545" lon="9.597433331404998" id="-27220">
		<tag k="building" v="industrial" />
		<tag k="name" v="Stubberudsaga" />
		<tag k="ssr:stedsnr" v="111965" />
	</node>
	<node lat="61.31188888922792" lon="9.973291657467064" id="-27224">
		<tag k="loc_name" v="Snertingdalståget" />
		<tag k="name" v="Tåget" />
		<tag k="place" v="locality" />
		<tag k="ssr:stedsnr" v="112216" />
	</node>
	<node lat="61.22359844986429" lon="9.91205858686352" id="-27225">
		<tag k="historic" v="shieling" />
		<tag k="name" v="Midtre Aulstadsetra" />
		<tag k="place" v="isolated_dwelling" />
		<tag k="ssr:stedsnr" v="112217" />
	</node>
	<node lat="61.26623888642461" lon="10.018999994428324" id="-27229">
		<tag k="name" v="Madslivollen" />
		<tag k="place" v="farm" />
		<tag k="ssr:stedsnr" v="112430" />
	</node>
	<node lat="61.3231805514277" lon="9.740044443256542" id="-27231">
		<tag k="historic" v="shieling" />
		<tag k="name" v="Ovresetra" />
		<tag k="place" v="isolated_dwelling" />
		<tag k="ssr:stedsnr" v="112480" />
	</node>
	<node lat="61.29717499714275" lon="10.206827768786408" id="-27233">
		<tag k="name" v="Øvre Skogen" />
		<tag k="place" v="farm" />
		<tag k="ssr:stedsnr" v="112577" />
	</node>
	<node lat="61.29137222378881" lon="10.144700004916878" id="-27234">
		<tag k="alt_name" v="Kankerud nordre;Smed-Kankerud" />
		<tag k="name" v="Nordre Kankerud" />
		<tag k="place" v="farm" />
		<tag k="ssr:stedsnr" v="112659" />
	</node>
	<node lat="61.293308333580626" lon="10.161008325569114" id="-27235">
		<tag k="name" v="Haugen" />
		<tag k="place" v="farm" />
		<tag k="ssr:stedsnr" v="112665" />
	</node>
	<node lat="61.28963610985719" lon="9.993799995531635" id="-27236">
		<tag k="name" v="Bergom" />
		<tag k="place" v="farm" />
		<tag k="ssr:stedsnr" v="112853" />
	</node>
	<node lat="61.256041662483206" lon="10.11694444796686" id="-27239">
		<tag k="name" v="Fyksehytta" />
		<tag k="place" v="isolated_dwelling" />
		<tag k="ssr:stedsnr" v="112950" />
	</node>
	<node lat="61.21014166467642" lon="10.156605562309585" id="-27243">
		<tag k="name" v="Maurstad" />
		<tag k="place" v="farm" />
		<tag k="ssr:stedsnr" v="113365" />
	</node>
	<node lat="61.1491166624666" lon="10.111194442914245" id="-27245">
		<tag k="historic" v="shieling" />
		<tag k="name" v="Vollasetra" />
		<tag k="place" v="isolated_dwelling" />
		<tag k="ssr:stedsnr" v="113870" />
	</node>
	<node lat="61.15294722010535" lon="10.11278056095114" id="-27246">
		<tag k="historic" v="shieling" />
		<tag k="name" v="Liersetra" />
		<tag k="place" v="isolated_dwelling" />
		<tag k="ssr:stedsnr" v="113873" />
	</node>
	<node lat="61.26888889169292" lon="10.15333888752573" id="-27247">
		<tag k="name" v="Øvre Bjørge" />
		<tag k="place" v="farm" />
		<tag k="ssr:stedsnr" v="113998" />
	</node>
	<node lat="61.24296689914233" lon="9.593404415008576" id="-27248">
		<tag k="fixme" v="multiple name tags, choose one and add the other to alt_name" />
		<tag k="historic" v="shieling" />
		<tag k="name" v="Bergesetra;Liomsetra" />
		<tag k="place" v="isolated_dwelling" />
		<tag k="ssr:stedsnr" v="114653" />
	</node>
	<node lat="61.21123888651352" lon="10.262044447448503" id="-27249">
		<tag k="name" v="Nedre Stetrud" />
		<tag k="place" v="farm" />
		<tag k="ssr:stedsnr" v="116085" />
	</node>
	<node lat="61.199344440466724" lon="10.17805555999096" id="-27253">
		<tag k="name" v="Høystad" />
		<tag k="old_name" v="Høistad" />
		<tag k="place" v="farm" />
		<tag k="ssr:stedsnr" v="117077" />
	</node>
	<node lat="61.14412222544422" lon="10.15012222905669" id="-27254">
		<tag k="name" v="London" />
		<tag k="place" v="locality" />
		<tag k="ssr:stedsnr" v="117750" />
	</node>
	<node lat="61.125522221165596" lon="10.143522230034867" id="-27255">
		<tag k="historic" v="shieling" />
		<tag k="name" v="Søre Bergssetra" />
		<tag k="place" v="isolated_dwelling" />
		<tag k="ssr:stedsnr" v="117763" />
	</node>
	<node lat="61.379552781100855" lon="9.709394443060022" id="-27259">
		<tag k="historic" v="shieling" />
		<tag k="name" v="Nesesetra" />
		<tag k="place" v="isolated_dwelling" />
		<tag k="ssr:stedsnr" v="118343" />
	</node>
	<node lat="61.309894448166034" lon="9.706325001595152" id="-27260">
		<tag k="historic" v="shieling" />
		<tag k="name" v="Skogvangssetra" />
		<tag k="place" v="isolated_dwelling" />
		<tag k="ssr:stedsnr" v="118548" />
	</node>
	<node lat="61.14360757806666" lon="10.17739297996831" id="-27265">
		<tag k="alt_name" v="Berg, s;Søndre Berg" />
		<tag k="name" v="Søre Berg" />
		<tag k="place" v="farm" />
		<tag k="ssr:stedsnr" v="128064" />
	</node>
	<node lat="61.22992778174191" lon="10.093588891433486" id="-27268">
		<tag k="name" v="Bergom" />
		<tag k="place" v="farm" />
		<tag k="ssr:stedsnr" v="128233" />
	</node>
	<node lat="61.246451268426405" lon="10.099750204928785" id="-27269">
		<tag k="alt_name" v="Brennsetsætra" />
		<tag k="historic" v="shieling" />
		<tag k="name" v="Brennset" />
		<tag k="place" v="isolated_dwelling" />
		<tag k="ssr:stedsnr" v="128253" />
	</node>
	<node lat="61.24443333080215" lon="10.141033325124404" id="-27270">
		<tag k="name" v="Ringen" />
		<tag k="place" v="farm" />
		<tag k="ssr:stedsnr" v="128255" />
	</node>
	<node lat="61.23146273416401" lon="10.232701013382046" id="-27271">
		<tag k="fixme" v="consider place=hamlet" />
		<tag k="name" v="Houm" />
		<tag k="place" v="farm" />
		<tag k="ssr:stedsnr" v="128272" />
	</node>
	<node lat="61.200355551352565" lon="10.101650009018801" id="-27272">
		<tag k="name" v="Oppheim" />
		<tag k="place" v="farm" />
		<tag k="ssr:stedsnr" v="128453" />
	</node>
	<node lat="61.15429058037424" lon="10.1178169861892" id="-27273">
		<tag k="historic" v="shieling" />
		<tag k="name" v="Storsetra" />
		<tag k="place" v="isolated_dwelling" />
		<tag k="ssr:stedsnr" v="129098" />
	</node>
	<node lat="61.119834739792104" lon="9.987182347905513" id="-27274">
		<tag k="alt_name" v="Blestern" />
		<tag k="historic" v="shieling" />
		<tag k="loc_name" v="Blestrom" />
		<tag k="name" v="Blæstern" />
		<tag k="place" v="isolated_dwelling" />
		<tag k="ssr:stedsnr" v="129143" />
	</node>
	<node lat="61.21437500161079" lon="10.29326111787542" id="-27276">
		<tag k="name" v="Sole" />
		<tag k="place" v="isolated_dwelling" />
		<tag k="ssr:stedsnr" v="129488" />
	</node>
	<node lat="61.20082499918671" lon="10.184005557120765" id="-27277">
		<tag k="name" v="Kampesvea" />
		<tag k="place" v="farm" />
		<tag k="ssr:stedsnr" v="129489" />
	</node>
	<node lat="61.202724460648966" lon="10.167530118672655" id="-27278">
		<tag k="alt_name" v="Kallstadrud" />
		<tag k="fixme" v="consider place=hamlet" />
		<tag k="name" v="Kalstadrud" />
		<tag k="place" v="farm" />
		<tag k="ssr:stedsnr" v="129491" />
	</node>
	<node lat="61.34917296304315" lon="9.804700912788928" id="-27285">
		<tag k="fixme" v="consider place=hamlet" />
		<tag k="name" v="Åsen" />
		<tag k="place" v="farm" />
		<tag k="ssr:stedsnr" v="129701" />
	</node>
	<node lat="61.285515877632086" lon="10.170338734256202" id="-27289">
		<tag k="alt_name" v="Gryte øvre" />
		<tag k="fixme" v="consider place=hamlet" />
		<tag k="name" v="Øvre Gryte" />
		<tag k="place" v="farm" />
		<tag k="ssr:stedsnr" v="130731" />
	</node>
	<node lat="61.18379975609435" lon="9.821863769991516" id="-27290">
		<tag k="historic" v="shieling" />
		<tag k="name" v="Søre Fognssetra" />
		<tag k="place" v="isolated_dwelling" />
		<tag k="ssr:stedsnr" v="159387" />
	</node>
	<node lat="61.283492966846445" lon="10.154439629084669" id="-27291">
		<tag k="alt_name" v="Frøyse nedre" />
		<tag k="fixme" v="consider place=hamlet" />
		<tag k="name" v="Nedre Frøyse" />
		<tag k="place" v="farm" />
		<tag k="ssr:stedsnr" v="163480" />
	</node>
	<node lat="61.32660555958199" lon="9.858363882755597" id="-27292">
		<tag k="alt_name" v="Bakken" />
		<tag k="name" v="Melbøbakken" />
		<tag k="place" v="farm" />
		<tag k="ssr:stedsnr" v="163502" />
	</node>
	<node lat="61.41119999911873" lon="9.561172215449227" id="-27300">
		<tag k="name" v="Myrvang" />
		<tag k="place" v="farm" />
		<tag k="ssr:stedsnr" v="170899" />
	</node>
	<node lat="61.34914722305413" lon="9.774869444167381" id="-27302">
		<tag k="name" v="Nysett" />
		<tag k="place" v="farm" />
		<tag k="ssr:stedsnr" v="170952" />
	</node>
	<node lat="61.3151452252296" lon="10.058937582136911" id="-27304">
		<tag k="historic" v="shieling" />
		<tag k="name" v="Kankerudsetra" />
		<tag k="place" v="isolated_dwelling" />
		<tag k="ssr:stedsnr" v="172260" />
	</node>
	<node lat="61.32284444899906" lon="9.84079443894005" id="-27307">
		<tag k="name" v="Vesllia" />
		<tag k="place" v="farm" />
		<tag k="ssr:stedsnr" v="171628" />
	</node>
	<node lat="61.31616388571669" lon="9.879613886925245" id="-27308">
		<tag k="name" v="Brennmoen" />
		<tag k="place" v="farm" />
		<tag k="ssr:stedsnr" v="171635" />
	</node>
	<node lat="61.33359721860729" lon="9.783025009185808" id="-27309">
		<tag k="alt_name" v="Søndre Kråkvollen" />
		<tag k="name" v="Søre Kråkvollen" />
		<tag k="place" v="farm" />
		<tag k="ssr:stedsnr" v="171654" />
	</node>
	<node lat="61.32810277939322" lon="10.008825001086585" id="-27315">
		<tag k="historic" v="shieling" />
		<tag k="loc_name" v="Liomsetra" />
		<tag k="name" v="Bergssetra" />
		<tag k="place" v="isolated_dwelling" />
		<tag k="ssr:stedsnr" v="171947" />
	</node>
	<node lat="61.34385555457855" lon="10.049916667918314" id="-27316">
		<tag k="historic" v="shieling" />
		<tag k="name" v="Rudstugusetra" />
		<tag k="place" v="isolated_dwelling" />
		<tag k="ssr:stedsnr" v="171980" />
	</node>
	<node lat="61.32322221784036" lon="9.744155546636037" id="-27321">
		<tag k="historic" v="shieling" />
		<tag k="name" v="Steinbakksetra" />
		<tag k="place" v="isolated_dwelling" />
		<tag k="ssr:stedsnr" v="172480" />
	</node>
	<node lat="61.242869446186724" lon="10.050533332567818" id="-27324">
		<tag k="name" v="Nysett" />
		<tag k="place" v="farm" />
		<tag k="ssr:stedsnr" v="173770" />
	</node>
	<node lat="61.15561110974441" lon="10.118577782340065" id="-27325">
		<tag k="historic" v="shieling" />
		<tag k="name" v="Evenhaugsetra" />
		<tag k="place" v="isolated_dwelling" />
		<tag k="ssr:stedsnr" v="173863" />
	</node>
	<node lat="61.28561389256837" lon="10.132269444432646" id="-27327">
		<tag k="name" v="Bjørnhaug" />
		<tag k="place" v="farm" />
		<tag k="ssr:stedsnr" v="172732" />
	</node>
	<node lat="61.20921111417434" lon="9.840463893954617" id="-27334">
		<tag k="historic" v="shieling" />
		<tag k="name" v="Nedre Dokklia" />
		<tag k="place" v="isolated_dwelling" />
		<tag k="ssr:stedsnr" v="173453" />
	</node>
	<node lat="61.20838333159289" lon="10.129941671165993" id="-27335">
		<tag k="fixme" v="multiple name tags, choose one and add the other to alt_name" />
		<tag k="loc_name" v="Svendsrudstugua" />
		<tag k="name" v="Svensrudstugua;Stugua" />
		<tag k="place" v="farm" />
		<tag k="ssr:stedsnr" v="173583" />
	</node>
	<node lat="61.146422223240016" lon="10.045952780152858" id="-27340">
		<tag k="fixme" v="multiple name tags, choose one and add the other to alt_name" />
		<tag k="historic" v="shieling" />
		<tag k="name" v="Nystugusetra;Søre Vollbakksetra" />
		<tag k="old_name" v="Voldbakken" />
		<tag k="place" v="isolated_dwelling" />
		<tag k="ssr:stedsnr" v="173902" />
	</node>
	<node lat="61.22248888552777" lon="10.299216665488977" id="-27341">
		<tag k="alt_name" v="Nordre Fougner" />
		<tag k="name" v="Nordre Fogne" />
		<tag k="place" v="farm" />
		<tag k="ssr:stedsnr" v="176188" />
	</node>
	<node lat="61.21368333132933" lon="10.272419436220092" id="-27342">
		<tag k="name" v="Lillemoen" />
		<tag k="place" v="farm" />
		<tag k="ssr:stedsnr" v="176192" />
	</node>
	<node lat="61.15305833040563" lon="10.140580561811326" id="-27344">
		<tag k="name" v="Hakkerudhaugen" />
		<tag k="place" v="farm" />
		<tag k="ssr:stedsnr" v="177446" />
	</node>
	<node lat="61.20114069864385" lon="9.701180283455388" id="-27348">
		<tag k="historic" v="shieling" />
		<tag k="name" v="Grytsetra" />
		<tag k="place" v="isolated_dwelling" />
		<tag k="ssr:stedsnr" v="178213" />
	</node>
	<node lat="61.23974444663239" lon="10.178013891491888" id="-27354">
		<tag k="alt_name" v="Stormo" />
		<tag k="name" v="Stormoen" />
		<tag k="place" v="farm" />
		<tag k="ssr:stedsnr" v="189241" />
	</node>
	<node lat="61.23604806793969" lon="9.864450068979" id="-27356">
		<tag k="historic" v="shieling" />
		<tag k="name" v="Gulsandlia" />
		<tag k="place" v="isolated_dwelling" />
		<tag k="ssr:stedsnr" v="189475" />
	</node>
	<node lat="61.15769444199875" lon="10.166502776700092" id="-27361">
		<tag k="name" v="Gutua" />
		<tag k="place" v="farm" />
		<tag k="ssr:stedsnr" v="190088" />
	</node>
	<node lat="61.14565468518102" lon="10.042048240533703" id="-27362">
		<tag k="historic" v="shieling" />
		<tag k="name" v="Nysetra" />
		<tag k="place" v="isolated_dwelling" />
		<tag k="ssr:stedsnr" v="190101" />
	</node>
	<node lat="61.186635375276175" lon="10.155755607934454" id="-27363">
		<tag k="fixme" v="consider place=hamlet" />
		<tag k="name" v="Brennom" />
		<tag k="place" v="farm" />
		<tag k="ssr:stedsnr" v="190399" />
	</node>
	<node lat="61.161911111751564" lon="10.167830561654265" id="-27364">
		<tag k="name" v="Rønningen" />
		<tag k="place" v="farm" />
		<tag k="ssr:stedsnr" v="190441" />
	</node>
	<node lat="61.20960833336092" lon="10.252149994956723" id="-27365">
		<tag k="name" v="Nysvea" />
		<tag k="place" v="locality" />
		<tag k="ssr:stedsnr" v="190490" />
	</node>
	<node lat="61.21714679958112" lon="10.318979553915053" id="-27368">
		<tag k="fixme" v="consider place=hamlet" />
		<tag k="name" v="Liom" />
		<tag k="place" v="farm" />
		<tag k="ssr:stedsnr" v="190497" />
	</node>
	<node lat="61.29734999955781" lon="9.627933338817574" id="-27373">
		<tag k="name" v="Slia" />
		<tag k="place" v="isolated_dwelling" />
		<tag k="ssr:stedsnr" v="190645" />
	</node>
	<node lat="61.17742500277391" lon="9.882600001199835" id="-27378">
		<tag k="historic" v="shieling" />
		<tag k="name" v="Holssetra" />
		<tag k="place" v="isolated_dwelling" />
		<tag k="ssr:stedsnr" v="190747" />
	</node>
	<node lat="61.25333610752101" lon="10.156961104000956" id="-27380">
		<tag k="alt_name" v="Kværnum" />
		<tag k="name" v="Kvernom" />
		<tag k="place" v="farm" />
		<tag k="ssr:stedsnr" v="190844" />
	</node>
	<node lat="61.25296944543974" lon="10.152880547914574" id="-27381">
		<tag k="name" v="Pålhaugen" />
		<tag k="place" v="farm" />
		<tag k="ssr:stedsnr" v="190845" />
	</node>
	<node lat="61.29124999563746" lon="10.210402784416548" id="-27384">
		<tag k="fixme" v="consider place=hamlet" />
		<tag k="name" v="Kampen" />
		<tag k="place" v="farm" />
		<tag k="ssr:stedsnr" v="190797" />
	</node>
	<node lat="61.277043378146914" lon="10.019307661070782" id="-27391">
		<tag k="fixme" v="consider place=hamlet" />
		<tag k="name" v="Hårstad" />
		<tag k="place" v="farm" />
		<tag k="ssr:stedsnr" v="191823" />
	</node>
	<node lat="61.40419721855691" lon="9.798838896925755" id="-27396">
		<tag k="alt_name" v="Fåmåslilykkja" />
		<tag k="historic" v="shieling" />
		<tag k="loc_name" v="Tomaslilykkja" />
		<tag k="name" v="Tåmåslilykkja" />
		<tag k="place" v="isolated_dwelling" />
		<tag k="ssr:stedsnr" v="292820" />
	</node>
	<node lat="61.300819444856955" lon="10.013363892670554" id="-27400">
		<tag k="name" v="Rundhaugbua" />
		<tag k="place" v="locality" />
		<tag k="ssr:stedsnr" v="292212" />
	</node>
	<node lat="61.36630277543407" lon="9.7312972160321" id="-27409">
		<tag k="historic" v="shieling" />
		<tag k="name" v="Pålsvollen" />
		<tag k="place" v="isolated_dwelling" />
		<tag k="ssr:stedsnr" v="293088" />
	</node>
	<node lat="61.31506666550711" lon="9.890844445145957" id="-27414">
		<tag k="historic" v="shieling" />
		<tag k="name" v="Smehaugen" />
		<tag k="place" v="isolated_dwelling" />
		<tag k="ssr:stedsnr" v="293212" />
	</node>
	<node lat="61.16625833021533" lon="9.983466667721073" id="-27418">
		<tag k="historic" v="shieling" />
		<tag k="name" v="Hagehaugsetra" />
		<tag k="place" v="isolated_dwelling" />
		<tag k="ssr:stedsnr" v="294038" />
	</node>
	<node lat="61.29603055994835" lon="9.780091673131782" id="-27419">
		<tag k="name" v="Midtliua" />
		<tag k="place" v="locality" />
		<tag k="ssr:stedsnr" v="293564" />
	</node>
	<node lat="61.11529833236146" lon="9.986706871494205" id="-27421">
		<tag k="historic" v="shieling" />
		<tag k="name" v="Sygardssetra" />
		<tag k="old_name" v="Flaten sæter" />
		<tag k="place" v="isolated_dwelling" />
		<tag k="ssr:stedsnr" v="294078" />
	</node>
	<node lat="61.15939999572683" lon="9.984369452183158" id="-27422">
		<tag k="historic" v="shieling" />
		<tag k="name" v="Kalstadrudsetra" />
		<tag k="place" v="isolated_dwelling" />
		<tag k="ssr:stedsnr" v="294065" />
	</node>
	<node lat="61.160030558270414" lon="9.986822227520427" id="-27423">
		<tag k="historic" v="shieling" />
		<tag k="name" v="Ulsrudsetra" />
		<tag k="place" v="isolated_dwelling" />
		<tag k="ssr:stedsnr" v="294066" />
	</node>
	<node lat="61.22276388707636" lon="9.913669445423931" id="-27425">
		<tag k="historic" v="shieling" />
		<tag k="name" v="Bøvollsetra" />
		<tag k="place" v="isolated_dwelling" />
		<tag k="ssr:stedsnr" v="294179" />
	</node>
	<node lat="61.31497499901012" lon="10.053038898179825" id="-27426">
		<tag k="historic" v="shieling" />
		<tag k="name" v="Søre Kjossetra" />
		<tag k="place" v="isolated_dwelling" />
		<tag k="ssr:stedsnr" v="294236" />
	</node>
	<node lat="61.314033463743215" lon="10.055530448229108" id="-27427">
		<tag k="historic" v="shieling" />
		<tag k="name" v="Rudsetra" />
		<tag k="place" v="isolated_dwelling" />
		<tag k="ssr:stedsnr" v="294239" />
	</node>
	<node lat="61.249209384116924" lon="10.06389545024543" id="-27433">
		<tag k="alt_name" v="Søndre Solbjør" />
		<tag k="name" v="Søre Solbjør" />
		<tag k="place" v="farm" />
		<tag k="ssr:stedsnr" v="294763" />
	</node>
	<node lat="61.24603055169752" lon="10.064355564466574" id="-27434">
		<tag k="name" v="Kangarden" />
		<tag k="place" v="farm" />
		<tag k="ssr:stedsnr" v="294764" />
	</node>
	<node lat="61.20139444331937" lon="10.16439722670357" id="-27440">
		<tag k="name" v="Kjeikrud" />
		<tag k="place" v="farm" />
		<tag k="ssr:stedsnr" v="294966" />
	</node>
	<node lat="61.27387499818485" lon="10.170847220010055" id="-27441">
		<tag k="loc_name" v="Skjeggestadstugua" />
		<tag k="name" v="Skjeggestadstuen" />
		<tag k="place" v="farm" />
		<tag k="ssr:stedsnr" v="295063" />
	</node>
	<node lat="61.20710555649124" lon="10.132316665503968" id="-27443">
		<tag k="name" v="Nerjordet" />
		<tag k="place" v="farm" />
		<tag k="ssr:stedsnr" v="295631" />
	</node>
	<node lat="61.25530277975788" lon="10.141822221333843" id="-27447">
		<tag k="name" v="Lund" />
		<tag k="place" v="farm" />
		<tag k="ssr:stedsnr" v="295994" />
	</node>
	<node lat="61.2154083291048" lon="10.249102786771246" id="-27448">
		<tag k="name" v="Flaten" />
		<tag k="place" v="farm" />
		<tag k="ssr:stedsnr" v="297198" />
	</node>
	<node lat="61.22498945391826" lon="10.265704792781207" id="-27449">
		<tag k="fixme" v="consider place=hamlet" />
		<tag k="name" v="Lunde" />
		<tag k="place" v="farm" />
		<tag k="ssr:stedsnr" v="297206" />
	</node>
	<node lat="61.123619445725346" lon="10.151824992618517" id="-27455">
		<tag k="historic" v="shieling" />
		<tag k="name" v="Søre Finnsrudsetra" />
		<tag k="place" v="isolated_dwelling" />
		<tag k="ssr:stedsnr" v="299766" />
	</node>
	<node lat="61.28816886203095" lon="9.391704142933667" id="-27458">
		<tag k="fixme" v="consider tourism=alpine_hut or tourism=chalet" />
		<tag k="name" v="Langsubua" />
		<tag k="ssr:stedsnr" v="302527" />
		<tag k="tourism" v="wilderness_hut" />
	</node>
	<node lat="61.222218613323214" lon="10.196602588205252" id="-27459">
		<tag k="fixme" v="consider place=hamlet" />
		<tag k="name" v="Holen" />
		<tag k="place" v="farm" />
		<tag k="ssr:stedsnr" v="311347" />
	</node>
	<node lat="61.22440431206121" lon="10.241389230170336" id="-27460">
		<tag k="name" v="Steine" />
		<tag k="place" v="hamlet" />
		<tag k="ssr:stedsnr" v="311354" />
	</node>
	<node lat="61.22343610791504" lon="10.077447230534498" id="-27461">
		<tag k="loc_name" v="Roppahaugen" />
		<tag k="name" v="Ropphaugen" />
		<tag k="place" v="farm" />
		<tag k="ssr:stedsnr" v="311357" />
	</node>
	<node lat="61.23431944387307" lon="10.235211102945492" id="-27462">
		<tag k="alt_name" v="Houmstuen" />
		<tag k="name" v="Houmsstugua" />
		<tag k="place" v="farm" />
		<tag k="ssr:stedsnr" v="311361" />
	</node>
	<node lat="61.23535000189544" lon="10.278100001998478" id="-27463">
		<tag k="name" v="Smedhus" />
		<tag k="place" v="farm" />
		<tag k="ssr:stedsnr" v="311366" />
	</node>
	<node lat="61.240061110352606" lon="10.170611118055872" id="-27464">
		<tag k="name" v="Lia" />
		<tag k="place" v="farm" />
		<tag k="ssr:stedsnr" v="310254" />
	</node>
	<node lat="61.249792462252834" lon="10.191742104663687" id="-27465">
		<tag k="alt_name" v="Hage" />
		<tag k="fixme" v="consider place=hamlet" />
		<tag k="name" v="Hågå" />
		<tag k="place" v="farm" />
		<tag k="ssr:stedsnr" v="310256" />
	</node>
	<node lat="61.24900573345348" lon="10.201710279326068" id="-27466">
		<tag k="fixme" v="consider place=hamlet" />
		<tag k="name" v="Enge" />
		<tag k="place" v="farm" />
		<tag k="ssr:stedsnr" v="310258" />
	</node>
	<node lat="61.27860833118675" lon="10.161749995313194" id="-27469">
		<tag k="name" v="Gjevanhaugen" />
		<tag k="place" v="farm" />
		<tag k="ssr:stedsnr" v="312853" />
	</node>
	<node lat="61.27320555754418" lon="10.17251944355854" id="-27470">
		<tag k="alt_name" v="Ovrehagen" />
		<tag k="name" v="Ovrehågån" />
		<tag k="place" v="farm" />
		<tag k="ssr:stedsnr" v="312857" />
	</node>
	<node lat="61.142570179486036" lon="10.185155821850882" id="-27471">
		<tag k="fixme" v="consider place=hamlet" />
		<tag k="name" v="Finnsrud" />
		<tag k="place" v="farm" />
		<tag k="ssr:stedsnr" v="311108" />
	</node>
	<node lat="61.19711111221993" lon="10.127841672035466" id="-27472">
		<tag k="name" v="Vårsetra" />
		<tag k="place" v="farm" />
		<tag k="ssr:stedsnr" v="311437" />
	</node>
	<node lat="61.307941668966656" lon="9.903333332029879" id="-27473">
		<tag k="name" v="Jonslia" />
		<tag k="place" v="farm" />
		<tag k="ssr:stedsnr" v="311688" />
	</node>
	<node lat="61.20484842114449" lon="10.144010280761972" id="-27476">
		<tag k="alt_name" v="Fosset, nordre;Nordre Forset;Prestegården" />
		<tag k="fixme" v="consider place=hamlet" />
		<tag k="name" v="Nordre Fosset" />
		<tag k="place" v="farm" />
		<tag k="ssr:stedsnr" v="311534" />
	</node>
	<node lat="61.208435706387206" lon="10.13921124504194" id="-27477">
		<tag k="fixme" v="consider place=hamlet" />
		<tag k="name" v="Svensrud" />
		<tag k="place" v="farm" />
		<tag k="ssr:stedsnr" v="311535" />
	</node>
	<node lat="61.214858335418846" lon="9.628561115030344" id="-27478">
		<tag k="historic" v="shieling" />
		<tag k="name" v="Vågskard" />
		<tag k="place" v="isolated_dwelling" />
		<tag k="ssr:stedsnr" v="311538" />
	</node>
	<node lat="61.32809444458179" lon="9.772383326157096" id="-27484">
		<tag k="name" v="Grønlia" />
		<tag k="place" v="farm" />
		<tag k="ssr:stedsnr" v="311665" />
	</node>
	<node lat="61.31278610814859" lon="10.146788888748306" id="-27487">
		<tag k="name" v="Springlia" />
		<tag k="place" v="isolated_dwelling" />
		<tag k="ssr:stedsnr" v="311828" />
	</node>
	<node lat="61.31539574398614" lon="10.161446879800765" id="-27488">
		<tag k="fixme" v="consider place=hamlet" />
		<tag k="name" v="Holoa" />
		<tag k="place" v="farm" />
		<tag k="ssr:stedsnr" v="311829" />
	</node>
	<node lat="61.256177774570304" lon="10.192075005455502" id="-27490">
		<tag k="alt_name" v="Nordrum" />
		<tag k="fixme" v="consider place=hamlet" />
		<tag k="name" v="Nordrom" />
		<tag k="place" v="farm" />
		<tag k="ssr:stedsnr" v="311865" />
	</node>
	<node lat="61.29973610661515" lon="9.926230562394293" id="-27494">
		<tag k="alt_name" v="Hytengen;Hytenget" />
		<tag k="name" v="Hyttenget" />
		<tag k="place" v="farm" />
		<tag k="ssr:stedsnr" v="312706" />
	</node>
	<node lat="61.33472293157113" lon="10.048900696728387" id="-27498">
		<tag k="historic" v="shieling" />
		<tag k="name" v="Klevasetra" />
		<tag k="place" v="isolated_dwelling" />
		<tag k="ssr:stedsnr" v="353993" />
	</node>
	<node lat="61.35035277424747" lon="9.768038893178273" id="-27503">
		<tag k="name" v="Klåpbakken" />
		<tag k="place" v="farm" />
		<tag k="ssr:stedsnr" v="352946" />
	</node>
	<node lat="61.33704999625274" lon="9.932733324527838" id="-27508">
		<tag k="historic" v="shieling" />
		<tag k="name" v="Bjørlisetra" />
		<tag k="place" v="isolated_dwelling" />
		<tag k="ssr:stedsnr" v="352841" />
	</node>
	<node lat="61.32166667084711" lon="10.091147222223945" id="-27509">
		<tag k="name" v="Larshus" />
		<tag k="place" v="locality" />
		<tag k="ssr:stedsnr" v="353040" />
	</node>
	<node lat="61.31814166700516" lon="9.844872230646953" id="-27512">
		<tag k="name" v="Sålåbakken" />
		<tag k="place" v="farm" />
		<tag k="ssr:stedsnr" v="353612" />
	</node>
	<node lat="61.327297218812966" lon="9.856849992267444" id="-27514">
		<tag k="name" v="Melbøshagen" />
		<tag k="place" v="farm" />
		<tag k="ssr:stedsnr" v="353619" />
	</node>
	<node lat="61.24391110969945" lon="10.18861111843168" id="-27516">
		<tag k="name" v="Svenskehaugen" />
		<tag k="place" v="farm" />
		<tag k="ssr:stedsnr" v="354418" />
	</node>
	<node lat="61.268172218296066" lon="10.006641664721123" id="-27518">
		<tag k="name" v="Kvernhaugen" />
		<tag k="place" v="farm" />
		<tag k="ssr:stedsnr" v="354433" />
	</node>
	<node lat="61.29394589906142" lon="10.19350089918959" id="-27523">
		<tag k="fixme" v="consider place=hamlet" />
		<tag k="name" v="Skogen" />
		<tag k="place" v="farm" />
		<tag k="ssr:stedsnr" v="354144" />
	</node>
	<node lat="61.334100002984485" lon="9.752897230318364" id="-27525">
		<tag k="name" v="Berglund" />
		<tag k="place" v="farm" />
		<tag k="ssr:stedsnr" v="354461" />
	</node>
	<node lat="61.320591669809126" lon="9.660319449154802" id="-27527">
		<tag k="historic" v="shieling" />
		<tag k="name" v="Søre Ongsjølia" />
		<tag k="place" v="isolated_dwelling" />
		<tag k="ssr:stedsnr" v="354466" />
	</node>
	<node lat="61.24988795525794" lon="10.185402101307915" id="-27528">
		<tag k="fixme" v="consider place=hamlet" />
		<tag k="name" v="Bjørneng" />
		<tag k="place" v="farm" />
		<tag k="ssr:stedsnr" v="354353" />
	</node>
	<node lat="61.2966472190606" lon="10.098472219096193" id="-27529">
		<tag k="historic" v="shieling" />
		<tag k="name" v="Bjørgelykkja" />
		<tag k="place" v="isolated_dwelling" />
		<tag k="ssr:stedsnr" v="354729" />
	</node>
	<node lat="61.27484830216889" lon="10.14851237755815" id="-27530">
		<tag k="fixme" v="consider place=hamlet" />
		<tag k="name" v="Borgard" />
		<tag k="place" v="farm" />
		<tag k="ssr:stedsnr" v="354734" />
	</node>
	<node lat="61.2189861087328" lon="10.113619438716341" id="-27535">
		<tag k="loc_name" v="Melgardsbakken" />
		<tag k="name" v="Melgårdsbakken" />
		<tag k="place" v="farm" />
		<tag k="ssr:stedsnr" v="354664" />
	</node>
	<node lat="61.281838888141216" lon="10.125230558245205" id="-27536">
		<tag k="name" v="Bråten" />
		<tag k="place" v="farm" />
		<tag k="ssr:stedsnr" v="354752" />
	</node>
	<node lat="61.28685277819999" lon="9.969886106364575" id="-27537">
		<tag k="name" v="Hellebergshaugen" />
		<tag k="place" v="farm" />
		<tag k="ssr:stedsnr" v="354857" />
	</node>
	<node lat="61.255927775519226" lon="10.216672213085149" id="-27542">
		<tag k="alt_name" v="Norshusstuen" />
		<tag k="name" v="Nordshusstuen" />
		<tag k="place" v="farm" />
		<tag k="ssr:stedsnr" v="355088" />
	</node>
	<node lat="61.251672221960774" lon="10.165661120210725" id="-27545">
		<tag k="name" v="Skogstad" />
		<tag k="place" v="farm" />
		<tag k="ssr:stedsnr" v="355253" />
	</node>
	<node lat="61.241655552413484" lon="10.176750000021901" id="-27546">
		<tag k="name" v="Hagehaugen" />
		<tag k="place" v="farm" />
		<tag k="ssr:stedsnr" v="355254" />
	</node>
	<node lat="61.25200278069329" lon="10.156222227624953" id="-27548">
		<tag k="name" v="Enkenhus" />
		<tag k="place" v="farm" />
		<tag k="ssr:stedsnr" v="355250" />
	</node>
	<node lat="61.20666666385762" lon="10.13866666044579" id="-27549">
		<tag k="name" v="Roåkrene" />
		<tag k="place" v="farm" />
		<tag k="ssr:stedsnr" v="355579" />
	</node>
	<node lat="61.194605559447346" lon="10.130491670388029" id="-27553">
		<tag k="name" v="Nedre Granlia" />
		<tag k="place" v="farm" />
		<tag k="ssr:stedsnr" v="355890" />
	</node>
	<node lat="61.21446110787051" lon="10.265952772367045" id="-27556">
		<tag k="name" v="Skogbryn" />
		<tag k="place" v="isolated_dwelling" />
		<tag k="ssr:stedsnr" v="358161" />
	</node>
	<node lat="61.21174444717641" lon="10.297080546709612" id="-27558">
		<tag k="name" v="Heggehagen" />
		<tag k="place" v="farm" />
		<tag k="ssr:stedsnr" v="358175" />
	</node>
	<node lat="61.21970833035599" lon="10.318486111991211" id="-27559">
		<tag k="name" v="Røysheim" />
		<tag k="place" v="farm" />
		<tag k="ssr:stedsnr" v="358833" />
	</node>
	<node lat="61.198345876075564" lon="10.123913799353739" id="-27563">
		<tag k="name" v="Hågåli" />
		<tag k="place" v="farm" />
		<tag k="ssr:stedsnr" v="361235" />
	</node>
	<node lat="61.23484899731267" lon="10.072202570416563" id="-27565">
		<tag k="fixme" v="consider place=hamlet" />
		<tag k="name" v="Kårfald" />
		<tag k="place" v="farm" />
		<tag k="ssr:stedsnr" v="361833" />
	</node>
	<node lat="61.22162222133527" lon="10.30147222599138" id="-27566">
		<tag k="alt_name" v="Søndre Fougner;Søndre Fogne" />
		<tag k="name" v="Søre Fogne" />
		<tag k="place" v="farm" />
		<tag k="ssr:stedsnr" v="362092" />
	</node>
	<node lat="61.13133333419647" lon="10.213399990879495" id="-27570">
		<tag k="alt_name" v="Sveum;Sveen" />
		<tag k="name" v="Sveom" />
		<tag k="place" v="farm" />
		<tag k="ssr:stedsnr" v="371099" />
	</node>
	<node lat="61.24503254953636" lon="10.149405755465336" id="-27571">
		<tag k="name" v="Brattlia" />
		<tag k="place" v="farm" />
		<tag k="ssr:stedsnr" v="371261" />
	</node>
	<node lat="61.23427777336462" lon="10.195922226422796" id="-27572">
		<tag k="name" v="Myrhaugen" />
		<tag k="place" v="farm" />
		<tag k="ssr:stedsnr" v="371300" />
	</node>
	<node lat="61.38556767863393" lon="9.637713625506978" id="-27574">
		<tag k="historic" v="shieling" />
		<tag k="name" v="Storfjellroa" />
		<tag k="place" v="isolated_dwelling" />
		<tag k="ssr:stedsnr" v="371355" />
	</node>
	<node lat="61.15624444305691" lon="10.141752786089565" id="-27577">
		<tag k="alt_name" v="Nygardslien" />
		<tag k="name" v="Nygardslia" />
		<tag k="place" v="farm" />
		<tag k="ssr:stedsnr" v="372077" />
	</node>
	<node lat="61.28868055473765" lon="9.976244452760707" id="-27583">
		<tag k="name" v="Rustmo" />
		<tag k="place" v="farm" />
		<tag k="ssr:stedsnr" v="372787" />
	</node>
	<node lat="61.24346876918404" lon="9.592628272722598" id="-27585">
		<tag k="historic" v="shieling" />
		<tag k="name" v="Liomsetra" />
		<tag k="place" v="isolated_dwelling" />
		<tag k="ssr:stedsnr" v="371985" />
	</node>
	<node lat="61.21382500225531" lon="10.195363892852352" id="-27588">
		<tag k="name" v="Holslia" />
		<tag k="place" v="farm" />
		<tag k="ssr:stedsnr" v="372456" />
	</node>
	<node lat="61.215525004293696" lon="10.232350001554739" id="-27592">
		<tag k="name" v="Granhaug" />
		<tag k="place" v="farm" />
		<tag k="ssr:stedsnr" v="372472" />
	</node>
	<node lat="61.22004444333475" lon="10.316080562744803" id="-27593">
		<tag k="alt_name" v="Liumstuen" />
		<tag k="name" v="Liomstugua" />
		<tag k="place" v="farm" />
		<tag k="ssr:stedsnr" v="372477" />
	</node>
	<node lat="61.40040500189916" lon="9.579172875418552" id="-27594">
		<tag k="name" v="Stubberud" />
		<tag k="place" v="locality" />
		<tag k="ssr:stedsnr" v="372484" />
	</node>
	<node lat="61.21903333461324" lon="10.323169452152158" id="-27597">
		<tag k="name" v="Øverli" />
		<tag k="place" v="farm" />
		<tag k="ssr:stedsnr" v="372493" />
	</node>
	<node lat="61.33930436991845" lon="9.76446664091254" id="-27600">
		<tag k="fixme" v="consider place=hamlet" />
		<tag k="name" v="Steinbakken" />
		<tag k="place" v="farm" />
		<tag k="ssr:stedsnr" v="372660" />
	</node>
	<node lat="61.318411109854445" lon="9.811277777938114" id="-27601">
		<tag k="name" v="Flinkslått" />
		<tag k="place" v="farm" />
		<tag k="ssr:stedsnr" v="372678" />
	</node>
	<node lat="61.35406666539448" lon="9.726355554634742" id="-27602">
		<tag k="name" v="Nessehaugen" />
		<tag k="place" v="farm" />
		<tag k="ssr:stedsnr" v="372679" />
	</node>
	<node lat="61.27881388738699" lon="10.000266662125298" id="-27604">
		<tag k="name" v="Ulve" />
		<tag k="place" v="farm" />
		<tag k="ssr:stedsnr" v="372879" />
	</node>
	<node lat="61.34734999589822" lon="10.008488883698952" id="-27605">
		<tag k="historic" v="shieling" />
		<tag k="name" v="Tøftumssetra" />
		<tag k="place" v="isolated_dwelling" />
		<tag k="ssr:stedsnr" v="372972" />
	</node>
	<node lat="61.30859947398431" lon="10.174150602383213" id="-27606">
		<tag k="fixme" v="consider place=hamlet" />
		<tag k="name" v="Svea" />
		<tag k="place" v="farm" />
		<tag k="ssr:stedsnr" v="372810" />
	</node>
	<node lat="61.282900002651395" lon="10.006125004905172" id="-27608">
		<tag k="name" v="Skomakerstugua" />
		<tag k="place" v="isolated_dwelling" />
		<tag k="ssr:stedsnr" v="372790" />
	</node>
	<node lat="61.29728889278981" lon="10.068197218286217" id="-27609">
		<tag k="historic" v="shieling" />
		<tag k="name" v="Kveinsetra" />
		<tag k="place" v="isolated_dwelling" />
		<tag k="ssr:stedsnr" v="372791" />
	</node>
	<node lat="61.29497778063312" lon="9.978213881501013" id="-27610">
		<tag k="name" v="Nordeng" />
		<tag k="place" v="farm" />
		<tag k="ssr:stedsnr" v="372792" />
	</node>
	<node lat="61.27529722547598" lon="9.995997224990342" id="-27611">
		<tag k="name" v="Nordsvea" />
		<tag k="place" v="farm" />
		<tag k="ssr:stedsnr" v="373860" />
	</node>
	<node lat="61.27910555580725" lon="10.120799991553765" id="-27612">
		<tag k="name" v="Bratthovde" />
		<tag k="place" v="farm" />
		<tag k="ssr:stedsnr" v="373863" />
	</node>
	<node lat="61.27367941242801" lon="10.158646761475856" id="-27613">
		<tag k="fixme" v="consider place=hamlet" />
		<tag k="name" v="Bauker" />
		<tag k="place" v="farm" />
		<tag k="ssr:stedsnr" v="373866" />
	</node>
	<node lat="61.228202775665686" lon="10.222605550744612" id="-27614">
		<tag k="name" v="Segalstad bru" />
		<tag k="place" v="village" />
		<tag k="ssr:stedsnr" v="390125" />
	</node>
	<node lat="61.38381606255246" lon="9.715037222545593" id="-27619">
		<tag k="historic" v="shieling" />
		<tag k="name" v="Endasetra" />
		<tag k="place" v="isolated_dwelling" />
		<tag k="ssr:stedsnr" v="413299" />
	</node>
	<node lat="61.40061388619671" lon="9.798858330203338" id="-27621">
		<tag k="historic" v="shieling" />
		<tag k="name" v="Skyttermosetra" />
		<tag k="place" v="isolated_dwelling" />
		<tag k="ssr:stedsnr" v="413134" />
	</node>
	<node lat="61.37248333590152" lon="10.141583339936934" id="-27625">
		<tag k="historic" v="shieling" />
		<tag k="name" v="Austrengssetra" />
		<tag k="place" v="isolated_dwelling" />
		<tag k="ssr:stedsnr" v="413161" />
	</node>
</osm>
