<?xml version="1.0" encoding="UTF-8"?>
<osm version="0.6" generator="osmapis">
	<node lat="61.293641663190215" lon="9.56662778288506" id="-25738">
		<tag k="name" v="Feplassen" />
		<tag k="place" v="locality" />
		<tag k="ssr:stedsnr" v="240643" />
	</node>
	<node lat="61.204063887329546" lon="10.135241672286666" id="-25807">
		<tag k="amenity" v="community_centre" />
		<tag k="name" v="Haugetun" />
		<tag k="ssr:stedsnr" v="113588" />
	</node>
	<node lat="61.133011113068655" lon="10.112172217582078" id="-26007">
		<tag k="name" v="Sjåheim" />
		<tag k="ssr:stedsnr" v="233892" />
		<tag k="tourism" v="viewpoint" />
	</node>
	<node lat="61.159363885874704" lon="10.149763881521396" id="-26156">
		<tag k="amenity" v="place_of_worship" />
		<tag k="fixme" v="specify religion=*, denomination=*, building=* etc" />
		<tag k="name" v="Fredly" />
		<tag k="ssr:stedsnr" v="359425" />
	</node>
	<node lat="61.257416666724176" lon="10.155247221991832" id="-26217">
		<tag k="amenity" v="place_of_worship" />
		<tag k="denomination" v="lutheran" />
		<tag k="name" v="Østre Gausdal kirke" />
		<tag k="religion" v="christian" />
		<tag k="ssr:stedsnr" v="372854" />
	</node>
	<node lat="61.14949166714812" lon="10.166144448282473" id="-26226">
		<tag k="amenity" v="place_of_worship" />
		<tag k="fixme" v="specify religion=*, denomination=*, building=* etc" />
		<tag k="name" v="Elim" />
		<tag k="ssr:stedsnr" v="481475" />
	</node>
	<node lat="61.221933330471714" lon="10.169811119217988" id="-26268">
		<tag k="name" v="Bergenget" />
		<tag k="ssr:stedsnr" v="422411" />
		<tag k="tourism" v="viewpoint" />
	</node>
	<node lat="61.27377221863406" lon="10.004658338894252" id="-26365">
		<tag k="amenity" v="place_of_worship" />
		<tag k="denomination" v="lutheran" />
		<tag k="name" v="Aulstad kirke" />
		<tag k="religion" v="christian" />
		<tag k="ssr:stedsnr" v="675882" />
	</node>
	<node lat="61.344416668985005" lon="10.076833328750238" id="-26671">
		<tag k="amenity" v="place_of_worship" />
		<tag k="denomination" v="lutheran" />
		<tag k="name" v="Skei fjellkirke" />
		<tag k="religion" v="christian" />
		<tag k="ssr:stedsnr" v="727273" />
	</node>
	<node lat="61.33351110944751" lon="9.577644448338075" id="-26786">
		<tag k="name" v="Leppe" />
		<tag k="place" v="locality" />
		<tag k="ssr:stedsnr" v="786410" />
	</node>
	<node lat="61.200219440636445" lon="10.14736389385951" id="-27055">
		<tag k="amenity" v="place_of_worship" />
		<tag k="denomination" v="lutheran" />
		<tag k="name" v="Vestre Gausdal kirke" />
		<tag k="religion" v="christian" />
		<tag k="ssr:stedsnr" v="7389" />
	</node>
	<node lat="61.29877499796179" lon="9.63244166010787" id="-27256">
		<tag k="name" v="Sliplassen" />
		<tag k="place" v="locality" />
		<tag k="ssr:stedsnr" v="118577" />
	</node>
	<node lat="61.14618055320464" lon="10.170036120016695" id="-27345">
		<tag k="amenity" v="community_centre" />
		<tag k="name" v="Berglund" />
		<tag k="ssr:stedsnr" v="177453" />
	</node>
	<node lat="61.15641110826083" lon="9.74850555082492" id="-27474">
		<tag k="alt_name" v="Salmakarplassen" />
		<tag k="name" v="Salmakerplassen" />
		<tag k="place" v="locality" />
		<tag k="ssr:stedsnr" v="311792" />
	</node>
</osm>
