<?xml version="1.0" encoding="UTF-8"?>
<osm generator="osmapis" version="0.6">
	<node id="-378880" lat="61.3091499992" lon="9.98799445157">
		<tag k="name" v="Svartdalen" />
		<tag k="natural" v="valley" />
		<tag k="place" v="locality" />
		<tag k="ssr:stedsnr" v="536176" />
	</node>
	<node id="-378878" lat="61.3489361097" lon="9.89399167133">
		<tag k="name" v="Furuslettet" />
		<tag k="place" v="locality" />
		<tag k="ssr:stedsnr" v="535966" />
	</node>
	<node id="-380924" lat="61.238444449" lon="10.3159722149">
		<tag k="name" v="Hågådalen" />
		<tag k="natural" v="valley" />
		<tag k="place" v="locality" />
		<tag k="ssr:stedsnr" v="962296" />
	</node>
	<node id="-380921" lat="61.2273888887" lon="9.91454721396">
		<tag k="name" v="Jenthaugen" />
		<tag k="natural" v="hill" />
		<tag k="place" v="locality" />
		<tag k="ssr:stedsnr" v="962192" />
	</node>
	<node id="-378871" lat="61.393016666" lon="9.89308056059">
		<tag k="name" v="Gåsåbergan" />
		<tag k="natural" v="hill" />
		<tag k="place" v="locality" />
		<tag k="ssr:stedsnr" v="535619" />
	</node>
	<node id="-378870" lat="61.3313777779" lon="9.76267777916">
		<tag k="name" v="Granlia" />
		<tag k="natural" v="slope" />
		<tag k="place" v="locality" />
		<tag k="ssr:stedsnr" v="535613" />
	</node>
	<node id="-380912" lat="61.2833194409" lon="10.0198694482">
		<tag k="name" v="Kristofferringen" />
		<tag k="place" v="locality" />
		<tag k="ssr:stedsnr" v="961738" />
	</node>
	<node id="-380911" lat="61.2673222241" lon="10.1086194481">
		<tag k="name" v="Vesthågåskaret" />
		<tag k="natural" v="valley" />
		<tag k="place" v="locality" />
		<tag k="ssr:stedsnr" v="961844" />
	</node>
	<node id="-380909" lat="61.2752416691" lon="10.0636472293">
		<tag k="name" v="Muribrekka" />
		<tag k="natural" v="valley" />
		<tag k="place" v="locality" />
		<tag k="ssr:stedsnr" v="961647" />
	</node>
	<node id="-380904" lat="61.3255333365" lon="9.67968333467">
		<tag k="name" v="Putterhaugan" />
		<tag k="natural" v="hill" />
		<tag k="place" v="locality" />
		<tag k="ssr:stedsnr" v="961315" />
	</node>
	<node id="-380901" lat="61.2568666681" lon="10.0577500024">
		<tag k="fixme" v="consider natural=peak for the most distinct mountains in the district" />
		<tag k="name" v="Espåsen" />
		<tag k="natural" v="hill" />
		<tag k="place" v="locality" />
		<tag k="ssr:stedsnr" v="961425" />
	</node>
	<node id="-380900" lat="61.301830556" lon="9.91281388467">
		<tag k="name" v="Vollbergan" />
		<tag k="place" v="locality" />
		<tag k="ssr:stedsnr" v="961143" />
	</node>
	<node id="-378851" lat="61.359052776" lon="9.56377778271">
		<tag k="name" v="Leppholet" />
		<tag k="natural" v="valley" />
		<tag k="place" v="locality" />
		<tag k="ssr:stedsnr" v="676444" />
	</node>
	<node id="-380898" lat="61.3665472206" lon="9.72425277281">
		<tag k="name" v="Brattbakkholan" />
		<tag k="natural" v="valley" />
		<tag k="place" v="locality" />
		<tag k="ssr:stedsnr" v="961078" />
	</node>
	<node id="-380897" lat="61.3373805593" lon="10.0132555476">
		<tag k="name" v="Veslelia" />
		<tag k="natural" v="slope" />
		<tag k="place" v="locality" />
		<tag k="ssr:stedsnr" v="960990" />
	</node>
	<node id="-380895" lat="61.3689472262" lon="9.66219999831">
		<tag k="name" v="Hyttdalen" />
		<tag k="natural" v="valley" />
		<tag k="place" v="locality" />
		<tag k="ssr:stedsnr" v="960928" />
	</node>
	<node id="-380894" lat="61.3794500028" lon="9.64372500067">
		<tag k="name" v="Dalberget" />
		<tag k="natural" v="ridge" />
		<tag k="place" v="locality" />
		<tag k="ssr:stedsnr" v="960891" />
	</node>
	<node id="-380891" lat="61.3249722235" lon="9.98513055922">
		<tag k="name" v="Skåndalen" />
		<tag k="natural" v="valley" />
		<tag k="place" v="locality" />
		<tag k="ssr:stedsnr" v="960788" />
	</node>
	<node id="-380890" lat="61.3076583336" lon="9.85162778376">
		<tag k="name" v="Grinjudalen" />
		<tag k="natural" v="valley" />
		<tag k="place" v="locality" />
		<tag k="ssr:stedsnr" v="960551" />
	</node>
	<node id="-380889" lat="61.3252888877" lon="9.84794165904">
		<tag k="name" v="Gråbeinsdalen" />
		<tag k="natural" v="valley" />
		<tag k="place" v="locality" />
		<tag k="ssr:stedsnr" v="960538" />
	</node>
	<node id="-380886" lat="61.3209305555" lon="10.1034138911">
		<tag k="name" v="Kjoslia" />
		<tag k="natural" v="slope" />
		<tag k="place" v="locality" />
		<tag k="ssr:stedsnr" v="960194" />
	</node>
	<node id="-380885" lat="61.3121222253" lon="9.91382222545">
		<tag k="name" v="Bølelia" />
		<tag k="natural" v="slope" />
		<tag k="place" v="locality" />
		<tag k="ssr:stedsnr" v="960148" />
	</node>
	<node id="-380882" lat="61.3091472178" lon="10.0153305647">
		<tag k="name" v="Kjølslettet" />
		<tag k="place" v="locality" />
		<tag k="ssr:stedsnr" v="960002" />
	</node>
	<node id="-380880" lat="61.4135805547" lon="9.56745278478">
		<tag k="name" v="Skoroa" />
		<tag k="natural" v="valley" />
		<tag k="place" v="locality" />
		<tag k="ssr:stedsnr" v="959877" />
	</node>
	<node id="-378828" lat="61.3784027739" lon="10.0167333343">
		<tag k="name" v="Skaret" />
		<tag k="natural" v="valley" />
		<tag k="place" v="locality" />
		<tag k="ssr:stedsnr" v="482813" />
	</node>
	<node id="-378826" lat="61.215083329" lon="10.1572888971">
		<tag k="name" v="Kalstadbergene" />
		<tag k="place" v="locality" />
		<tag k="ssr:stedsnr" v="482059" />
	</node>
	<node id="-380872" lat="61.3803361068" lon="9.74777499378">
		<tag k="name" v="Krongåsjota" />
		<tag k="natural" v="valley" />
		<tag k="place" v="locality" />
		<tag k="ssr:stedsnr" v="959299" />
	</node>
	<node id="-378821" lat="61.3813222248" lon="10.1171638938">
		<tag k="alt_name" v="Storhaugen" />
		<tag k="name" v="Storhaugan" />
		<tag k="natural" v="hill" />
		<tag k="place" v="locality" />
		<tag k="ssr:stedsnr" v="481061" />
	</node>
	<node id="-378817" lat="61.3093555591" lon="10.1565416618">
		<tag k="name" v="Bestemorslettet" />
		<tag k="place" v="locality" />
		<tag k="ssr:stedsnr" v="476522" />
	</node>
	<node id="-378816" lat="61.3052999989" lon="10.1404472152">
		<tag k="name" v="Øygardskjølen" />
		<tag k="natural" v="slope" />
		<tag k="place" v="locality" />
		<tag k="ssr:stedsnr" v="476510" />
	</node>
	<node id="-380861" lat="61.260350001" lon="9.79424999594">
		<tag k="name" v="Nysæterfjellet" />
		<tag k="natural" v="hill" />
		<tag k="place" v="locality" />
		<tag k="ssr:stedsnr" v="858782" />
	</node>
	<node id="-378812" lat="61.305147226" lon="9.37394999092">
		<tag k="loc_name" v="Huldreheimen" />
		<tag k="name" v="Langsua" />
		<tag k="natural" v="mountain_range" />
		<tag k="ssr:stedsnr" v="666508" />
	</node>
	<node id="-378808" lat="61.1324111141" lon="10.1620249938">
		<tag k="name" v="Finsrudlia" />
		<tag k="natural" v="slope" />
		<tag k="place" v="locality" />
		<tag k="ssr:stedsnr" v="663756" />
	</node>
	<node id="-380854" lat="61.2955249979" lon="9.69105277594">
		<tag k="alt_name" v="Vettafjellet" />
		<tag k="fixme" v="consider natural=peak for the most distinct mountains in the district" />
		<tag k="name" v="Vetafjellet" />
		<tag k="natural" v="hill" />
		<tag k="place" v="locality" />
		<tag k="ssr:stedsnr" v="858671" />
	</node>
	<node id="-378805" lat="61.2442249956" lon="9.67719999501">
		<tag k="name" v="Glupberget" />
		<tag k="place" v="locality" />
		<tag k="ssr:stedsnr" v="663468" />
	</node>
	<node id="-378798" lat="61.2393166629" lon="10.3522305527">
		<tag k="alt_name" v="Fougnsæterdalen" />
		<tag k="name" v="Fognssæterdalen" />
		<tag k="natural" v="valley" />
		<tag k="place" v="locality" />
		<tag k="ssr:stedsnr" v="659334" />
	</node>
	<node id="-378797" lat="61.3565777799" lon="9.4970999989">
		<tag k="name" v="Nordbukampen" />
		<tag k="natural" v="hill" />
		<tag k="place" v="locality" />
		<tag k="ssr:stedsnr" v="659317" />
	</node>
	<node id="-378795" lat="61.16026389" lon="10.1128888921">
		<tag k="name" v="Vesleskaret" />
		<tag k="natural" v="valley" />
		<tag k="place" v="locality" />
		<tag k="ssr:stedsnr" v="658843" />
	</node>
	<node id="-380833" lat="61.3117999958" lon="9.58648889015">
		<tag k="name" v="Hundkjølen" />
		<tag k="place" v="locality" />
		<tag k="ssr:stedsnr" v="847627" />
	</node>
	<node id="-378784" lat="61.2341861069" lon="10.1660944368">
		<tag k="name" v="Trinerudbergan" />
		<tag k="place" v="locality" />
		<tag k="ssr:stedsnr" v="658245" />
	</node>
	<node id="-378782" lat="61.3504722193" lon="10.0020861103">
		<tag k="name" v="Langlia" />
		<tag k="natural" v="slope" />
		<tag k="place" v="locality" />
		<tag k="ssr:stedsnr" v="657998" />
	</node>
	<node id="-380828" lat="61.3762194489" lon="10.039736107">
		<tag k="name" v="Ørnkampen" />
		<tag k="natural" v="hill" />
		<tag k="place" v="locality" />
		<tag k="ssr:stedsnr" v="847205" />
	</node>
	<node id="-380827" lat="61.3561250016" lon="10.0559916744">
		<tag k="name" v="Rundhaugen" />
		<tag k="natural" v="hill" />
		<tag k="place" v="locality" />
		<tag k="ssr:stedsnr" v="847199" />
	</node>
	<node id="-380826" lat="61.3671138845" lon="10.0421277859">
		<tag k="name" v="Sprongberget" />
		<tag k="natural" v="ridge" />
		<tag k="place" v="locality" />
		<tag k="ssr:stedsnr" v="847198" />
	</node>
	<node id="-380825" lat="61.3782277774" lon="10.0329166629">
		<tag k="name" v="Slagsfjella" />
		<tag k="natural" v="hill" />
		<tag k="place" v="locality" />
		<tag k="ssr:stedsnr" v="847195" />
	</node>
	<node id="-380823" lat="61.1434388881" lon="10.1970722202">
		<tag k="name" v="Skårsbergan" />
		<tag k="natural" v="cliff" />
		<tag k="ssr:stedsnr" v="845774" />
	</node>
	<node id="-378774" lat="61.3528472207" lon="10.0490027847">
		<tag k="name" v="Kalvhaugan" />
		<tag k="natural" v="hill" />
		<tag k="place" v="locality" />
		<tag k="ssr:stedsnr" v="657967" />
	</node>
	<node id="-380809" lat="61.2389055547" lon="10.31189166">
		<tag k="name" v="Ausethågån" />
		<tag k="natural" v="valley" />
		<tag k="place" v="locality" />
		<tag k="ssr:stedsnr" v="841329" />
	</node>
	<node id="-380806" lat="61.2625749999" lon="10.2274083336">
		<tag k="fixme" v="consider natural=peak for the most distinct mountains in the district" />
		<tag k="name" v="Brannåsen" />
		<tag k="natural" v="hill" />
		<tag k="place" v="locality" />
		<tag k="ssr:stedsnr" v="841086" />
	</node>
	<node id="-380805" lat="61.3945666624" lon="9.63250554885">
		<tag k="name" v="Veslefjellet" />
		<tag k="natural" v="ridge" />
		<tag k="place" v="locality" />
		<tag k="ssr:stedsnr" v="840939" />
	</node>
	<node id="-378755" lat="61.3182361127" lon="9.97937221695">
		<tag k="name" v="Stordalen" />
		<tag k="natural" v="valley" />
		<tag k="place" v="locality" />
		<tag k="ssr:stedsnr" v="656846" />
	</node>
	<node id="-380802" lat="61.3682805594" lon="9.74580556384">
		<tag k="name" v="Nordre Skaret" />
		<tag k="natural" v="valley" />
		<tag k="place" v="locality" />
		<tag k="ssr:stedsnr" v="840892" />
	</node>
	<node id="-380801" lat="61.3522166694" lon="9.73644721858">
		<tag k="name" v="Høylla" />
		<tag k="place" v="locality" />
		<tag k="ssr:stedsnr" v="840885" />
	</node>
	<node id="-378752" lat="61.3548472257" lon="9.92054722344">
		<tag k="name" v="Svarthaugen" />
		<tag k="natural" v="hill" />
		<tag k="place" v="locality" />
		<tag k="ssr:stedsnr" v="656953" />
	</node>
	<node id="-378750" lat="61.2990583371" lon="9.78451667544">
		<tag k="name" v="Nedre Bakkaslettet" />
		<tag k="place" v="locality" />
		<tag k="ssr:stedsnr" v="656568" />
	</node>
	<node id="-380796" lat="61.2839805592" lon="10.10379445">
		<tag k="name" v="Grytkjølen" />
		<tag k="natural" v="hill" />
		<tag k="place" v="locality" />
		<tag k="ssr:stedsnr" v="840642" />
	</node>
	<node id="-380795" lat="61.2905500016" lon="10.0774888909">
		<tag k="name" v="Sæterlia" />
		<tag k="natural" v="slope" />
		<tag k="place" v="locality" />
		<tag k="ssr:stedsnr" v="840632" />
	</node>
	<node id="-378745" lat="61.3550194432" lon="10.1395833372">
		<tag k="name" v="Rypdalen" />
		<tag k="natural" v="valley" />
		<tag k="place" v="locality" />
		<tag k="ssr:stedsnr" v="656013" />
	</node>
	<node id="-378743" lat="61.3684000035" lon="9.95633889565">
		<tag k="name" v="Volesæterkjølen" />
		<tag k="place" v="locality" />
		<tag k="ssr:stedsnr" v="656001" />
	</node>
	<node id="-380789" lat="61.2944138933" lon="10.0188861193">
		<tag k="name" v="Bjønnhaugan" />
		<tag k="natural" v="hill" />
		<tag k="place" v="locality" />
		<tag k="ssr:stedsnr" v="840719" />
	</node>
	<node id="-380787" lat="61.216744447" lon="9.76960277944">
		<tag k="name" v="Verkenslia" />
		<tag k="natural" v="slope" />
		<tag k="place" v="locality" />
		<tag k="ssr:stedsnr" v="840599" />
	</node>
	<node id="-380785" lat="61.2391444467" lon="9.83356667304">
		<tag k="name" v="Dunglungslia" />
		<tag k="natural" v="slope" />
		<tag k="old_name" v="Dunglunslia" />
		<tag k="place" v="locality" />
		<tag k="ssr:stedsnr" v="840578" />
	</node>
	<node id="-380783" lat="61.3153472226" lon="9.66653888649">
		<tag k="name" v="Blåbærhaugen" />
		<tag k="natural" v="hill" />
		<tag k="place" v="locality" />
		<tag k="ssr:stedsnr" v="840440" />
	</node>
	<node id="-380781" lat="61.3263861067" lon="9.6709027826">
		<tag k="name" v="Granslettbakkan" />
		<tag k="natural" v="slope" />
		<tag k="place" v="locality" />
		<tag k="ssr:stedsnr" v="840432" />
	</node>
	<node id="-378729" lat="61.3950444444" lon="9.67143889029">
		<tag k="name" v="Slettfjellet" />
		<tag k="natural" v="hill" />
		<tag k="place" v="locality" />
		<tag k="ssr:stedsnr" v="432337" />
	</node>
	<node id="-378727" lat="61.3426472219" lon="9.74134443939">
		<tag k="name" v="Finntjønnhaugen" />
		<tag k="natural" v="hill" />
		<tag k="place" v="locality" />
		<tag k="ssr:stedsnr" v="422309" />
	</node>
	<node id="-380772" lat="61.3379611073" lon="10.0433833358">
		<tag k="name" v="Klevabergan" />
		<tag k="place" v="locality" />
		<tag k="ssr:stedsnr" v="839996" />
	</node>
	<node id="-380768" lat="61.3174305559" lon="9.97151945189">
		<tag k="name" v="Veslstylen" />
		<tag k="place" v="locality" />
		<tag k="ssr:stedsnr" v="839852" />
	</node>
	<node id="-378719" lat="61.3210916682" lon="9.84009444771">
		<tag k="name" v="Skraphågån" />
		<tag k="natural" v="slope" />
		<tag k="place" v="locality" />
		<tag k="ssr:stedsnr" v="414606" />
	</node>
	<node id="-378718" lat="61.324880554" lon="9.82381388467">
		<tag k="name" v="Slåtteringen" />
		<tag k="place" v="locality" />
		<tag k="ssr:stedsnr" v="414538" />
	</node>
	<node id="-378717" lat="61.3204111093" lon="9.83234443808">
		<tag k="name" v="Klevaberget" />
		<tag k="place" v="locality" />
		<tag k="ssr:stedsnr" v="414535" />
	</node>
	<node id="-380764" lat="61.3322916638" lon="9.84925277695">
		<tag k="name" v="Ånbakkan" />
		<tag k="natural" v="slope" />
		<tag k="place" v="locality" />
		<tag k="ssr:stedsnr" v="839548" />
	</node>
	<node id="-380763" lat="61.333038893" lon="9.86171666747">
		<tag k="name" v="Veslemyrbakken" />
		<tag k="natural" v="hill" />
		<tag k="place" v="locality" />
		<tag k="ssr:stedsnr" v="839534" />
	</node>
	<node id="-378713" lat="61.3320527821" lon="9.84016388404">
		<tag k="name" v="Tuvinnsletta" />
		<tag k="place" v="locality" />
		<tag k="ssr:stedsnr" v="414513" />
	</node>
	<node id="-380759" lat="61.3212055592" lon="9.83445554693">
		<tag k="name" v="Leirdalen" />
		<tag k="natural" v="valley" />
		<tag k="place" v="locality" />
		<tag k="ssr:stedsnr" v="839553" />
	</node>
	<node id="-378710" lat="61.2581111067" lon="10.1259472264">
		<tag k="name" v="Sæterberget" />
		<tag k="place" v="locality" />
		<tag k="ssr:stedsnr" v="299024" />
	</node>
	<node id="-380757" lat="61.2992888907" lon="10.0139861066">
		<tag k="name" v="Rundhaugen" />
		<tag k="natural" v="hill" />
		<tag k="place" v="locality" />
		<tag k="ssr:stedsnr" v="839238" />
	</node>
	<node id="-380755" lat="61.3071113886" lon="9.90965365618">
		<tag k="name" v="Gammeljonslia" />
		<tag k="natural" v="slope" />
		<tag k="place" v="locality" />
		<tag k="ssr:stedsnr" v="839159" />
	</node>
	<node id="-380753" lat="61.3257611113" lon="10.1741277808">
		<tag k="name" v="Kristenvollen" />
		<tag k="place" v="locality" />
		<tag k="ssr:stedsnr" v="839061" />
	</node>
	<node id="-380747" lat="61.4037222211" lon="9.54326389025">
		<tag k="name" v="Hessengbakken" />
		<tag k="natural" v="slope" />
		<tag k="place" v="locality" />
		<tag k="ssr:stedsnr" v="838916" />
	</node>
	<node id="-378167" lat="61.3404472204" lon="9.93359999241">
		<tag k="name" v="Kleivlykkja" />
		<tag k="place" v="locality" />
		<tag k="ssr:stedsnr" v="50963" />
	</node>
	<node id="-380743" lat="61.393108329" lon="9.68903332406">
		<tag k="name" v="Grønnlia" />
		<tag k="natural" v="slope" />
		<tag k="place" v="locality" />
		<tag k="ssr:stedsnr" v="838593" />
	</node>
	<node id="-378694" lat="61.3827999995" lon="9.55256389404">
		<tag k="fixme" v="consider natural=peak for the most distinct mountains in the district" />
		<tag k="name" v="Stylskampen" />
		<tag k="natural" v="hill" />
		<tag k="place" v="locality" />
		<tag k="ssr:stedsnr" v="372469" />
	</node>
	<node id="-380741" lat="61.354380553" lon="9.86153611966">
		<tag k="name" v="Grøndalshaugen" />
		<tag k="natural" v="hill" />
		<tag k="place" v="locality" />
		<tag k="ssr:stedsnr" v="838512" />
	</node>
	<node id="-380740" lat="61.3651111073" lon="9.91757500772">
		<tag k="name" v="Svartdalene" />
		<tag k="natural" v="valley" />
		<tag k="place" v="locality" />
		<tag k="ssr:stedsnr" v="838432" />
	</node>
	<node id="-378691" lat="61.2434833367" lon="9.94778888345">
		<tag k="name" v="Haukådalen" />
		<tag k="natural" v="valley" />
		<tag k="place" v="locality" />
		<tag k="ssr:stedsnr" v="372559" />
	</node>
	<node id="-378847" lat="61.1440027759" lon="9.79284999647">
		<tag k="fixme" v="consider natural=peak for the most distinct mountains in the district" />
		<tag k="name" v="Synnhallberga" />
		<tag k="natural" v="hill" />
		<tag k="place" v="locality" />
		<tag k="ssr:stedsnr" v="675771" />
	</node>
	<node id="-378679" lat="61.2039944462" lon="9.61291667512">
		<tag k="fixme" v="consider natural=peak for the most distinct mountains in the district" />
		<tag k="name" v="Vågskardfjellet" />
		<tag k="natural" v="hill" />
		<tag k="place" v="locality" />
		<tag k="ssr:stedsnr" v="371508" />
	</node>
	<node id="-378666" lat="61.3166749976" lon="9.52754999712">
		<tag k="name" v="Risåhøgda" />
		<tag k="natural" v="hill" />
		<tag k="place" v="locality" />
		<tag k="ssr:stedsnr" v="494443" />
	</node>
	<node id="-378665" lat="61.2782249968" lon="9.35418056315">
		<tag k="alt_name" v="Botolvsengidn" />
		<tag k="name" v="Botolvsenga" />
		<tag k="place" v="locality" />
		<tag k="ssr:stedsnr" v="494245" />
	</node>
	<node id="-378662" lat="61.3507833349" lon="10.0094944462">
		<tag k="alt_name" v="Langlihaugen;Langlihaugen2;Langlihaugen22" />
		<tag k="name" v="Gråbergan" />
		<tag k="natural" v="hill" />
		<tag k="place" v="locality" />
		<tag k="ssr:stedsnr" v="493969" />
	</node>
	<node id="-378654" lat="61.1627527818" lon="9.73000277677">
		<tag k="name" v="Storkvelven" />
		<tag k="natural" v="valley" />
		<tag k="place" v="locality" />
		<tag k="ssr:stedsnr" v="493759" />
	</node>
	<node id="-380701" lat="61.2038916631" lon="10.2355249977">
		<tag k="name" v="Båslia" />
		<tag k="natural" v="slope" />
		<tag k="place" v="locality" />
		<tag k="ssr:stedsnr" v="797474" />
	</node>
	<node id="-380692" lat="61.4142222231" lon="9.60440833634">
		<tag k="name" v="Gråhøin" />
		<tag k="natural" v="mountain_range" />
		<tag k="ssr:stedsnr" v="797312" />
	</node>
	<node id="-380691" lat="61.3870083377" lon="10.0757361178">
		<tag k="fixme" v="consider natural=peak for the most distinct mountains in the district" />
		<tag k="name" v="Prestkampen" />
		<tag k="natural" v="hill" />
		<tag k="place" v="locality" />
		<tag k="ssr:stedsnr" v="796905" />
	</node>
	<node id="-380688" lat="61.2179055557" lon="9.94958889336">
		<tag k="name" v="Kråbølslettet" />
		<tag k="place" v="locality" />
		<tag k="ssr:stedsnr" v="796526" />
	</node>
	<node id="-380687" lat="61.2234666665" lon="9.69611666261">
		<tag k="fixme" v="consider natural=peak for the most distinct mountains in the district" />
		<tag k="name" v="Mjødokkberga" />
		<tag k="natural" v="hill" />
		<tag k="place" v="locality" />
		<tag k="ssr:stedsnr" v="796506" />
	</node>
	<node id="-380686" lat="61.2281638899" lon="9.65339167189">
		<tag k="alt_name" v="Tortjønnhaugen;Tortjønnhaugen, øvre" />
		<tag k="name" v="Øvre Tortjønnhaugen" />
		<tag k="natural" v="hill" />
		<tag k="place" v="locality" />
		<tag k="ssr:stedsnr" v="796502" />
	</node>
	<node id="-378636" lat="61.2393361116" lon="9.67431944511">
		<tag k="alt_name" v="Søndre Suluhø;Suluhøgda" />
		<tag k="name" v="Søre Suluhø" />
		<tag k="natural" v="hill" />
		<tag k="place" v="locality" />
		<tag k="ssr:stedsnr" v="493506" />
	</node>
	<node id="-380682" lat="61.2353333378" lon="10.2440999946">
		<tag k="alt_name" v="Varden" />
		<tag k="fixme" v="consider natural=peak for the most distinct mountains in the district" />
		<tag k="name" v="Lundevarden" />
		<tag k="natural" v="hill" />
		<tag k="place" v="locality" />
		<tag k="ssr:stedsnr" v="796301" />
	</node>
	<node id="-380676" lat="61.285736115" lon="9.73961110548">
		<tag k="name" v="Storhaugen" />
		<tag k="natural" v="hill" />
		<tag k="place" v="locality" />
		<tag k="ssr:stedsnr" v="786627" />
	</node>
	<node id="-380675" lat="61.2193194407" lon="9.5765000021">
		<tag k="name" v="Reinsjølia" />
		<tag k="natural" v="slope" />
		<tag k="place" v="locality" />
		<tag k="ssr:stedsnr" v="786795" />
	</node>
	<node id="-380672" lat="61.2095444475" lon="10.1884138967">
		<tag k="name" v="Svartskarsberget" />
		<tag k="place" v="locality" />
		<tag k="ssr:stedsnr" v="786074" />
	</node>
	<node id="-380671" lat="61.2120444433" lon="10.1753833404">
		<tag k="name" v="Brattlia" />
		<tag k="natural" v="slope" />
		<tag k="place" v="locality" />
		<tag k="ssr:stedsnr" v="786070" />
	</node>
	<node id="-378620" lat="61.2209833371" lon="10.1153305498">
		<tag k="name" v="Håmårsberget" />
		<tag k="place" v="locality" />
		<tag k="ssr:stedsnr" v="493305" />
	</node>
	<node id="-380667" lat="61.2600333312" lon="10.2616138911">
		<tag k="name" v="Einstadstylhaugen" />
		<tag k="natural" v="hill" />
		<tag k="place" v="locality" />
		<tag k="ssr:stedsnr" v="783453" />
	</node>
	<node id="-378616" lat="61.2469333311" lon="10.3349638926">
		<tag k="alt_name" v="tjønnknappen" />
		<tag k="name" v="Tjønnknappen" />
		<tag k="natural" v="hill" />
		<tag k="place" v="locality" />
		<tag k="ssr:stedsnr" v="493262" />
	</node>
	<node id="-380662" lat="61.217272221" lon="10.2543722264">
		<tag k="name" v="Frydenborghaugen" />
		<tag k="natural" v="hill" />
		<tag k="place" v="locality" />
		<tag k="ssr:stedsnr" v="783149" />
	</node>
	<node id="-380657" lat="61.2440750008" lon="9.9630527867">
		<tag k="name" v="Øygardslettet" />
		<tag k="place" v="locality" />
		<tag k="ssr:stedsnr" v="780770" />
	</node>
	<node id="-380654" lat="61.2349583291" lon="10.0179499944">
		<tag k="name" v="Gråsteinhaugan" />
		<tag k="natural" v="hill" />
		<tag k="place" v="locality" />
		<tag k="ssr:stedsnr" v="780751" />
	</node>
	<node id="-378204" lat="61.1304166669" lon="10.1994388973">
		<tag k="alt_name" v="Stubberudvollene" />
		<tag k="name" v="Stubbrudvollene" />
		<tag k="place" v="locality" />
		<tag k="ssr:stedsnr" v="238724" />
	</node>
	<node id="-378834" lat="61.37554722" lon="9.66406665961">
		<tag k="name" v="Dalhaugan" />
		<tag k="natural" v="ridge" />
		<tag k="place" v="locality" />
		<tag k="ssr:stedsnr" v="675386" />
	</node>
	<node id="-380648" lat="61.2632999964" lon="9.84586110261">
		<tag k="name" v="Spikjislettet" />
		<tag k="place" v="locality" />
		<tag k="ssr:stedsnr" v="780271" />
	</node>
	<node id="-380641" lat="61.3567222214" lon="9.73829166431">
		<tag k="name" v="Nesselia" />
		<tag k="natural" v="slope" />
		<tag k="place" v="locality" />
		<tag k="ssr:stedsnr" v="779898" />
	</node>
	<node id="-378592" lat="61.274205558" lon="9.89763056202">
		<tag k="name" v="Akevitthaugen" />
		<tag k="natural" v="hill" />
		<tag k="place" v="locality" />
		<tag k="ssr:stedsnr" v="354835" />
	</node>
	<node id="-378591" lat="61.2639666684" lon="10.1215722288">
		<tag k="name" v="Pålberget" />
		<tag k="place" v="locality" />
		<tag k="ssr:stedsnr" v="354821" />
	</node>
	<node id="-378590" lat="61.3371944462" lon="9.75326943556">
		<tag k="name" v="Æliberget" />
		<tag k="natural" v="hill" />
		<tag k="place" v="locality" />
		<tag k="ssr:stedsnr" v="354816" />
	</node>
	<node id="-380635" lat="61.2796111094" lon="10.1056388837">
		<tag k="name" v="Hesthågåbergan" />
		<tag k="place" v="locality" />
		<tag k="ssr:stedsnr" v="779644" />
	</node>
	<node id="-380633" lat="61.2831305533" lon="10.0869166679">
		<tag k="name" v="Nøsterhaugan" />
		<tag k="natural" v="hill" />
		<tag k="place" v="locality" />
		<tag k="ssr:stedsnr" v="779632" />
	</node>
	<node id="-378584" lat="61.4001472262" lon="9.80513888166">
		<tag k="name" v="Midtengshaugen" />
		<tag k="natural" v="hill" />
		<tag k="place" v="locality" />
		<tag k="ssr:stedsnr" v="352104" />
	</node>
	<node id="-380631" lat="61.3048805576" lon="10.1602416728">
		<tag k="name" v="Hjelmstadlia" />
		<tag k="natural" v="slope" />
		<tag k="place" v="locality" />
		<tag k="ssr:stedsnr" v="779532" />
	</node>
	<node id="-380629" lat="61.3273944441" lon="9.7477472303">
		<tag k="name" v="Bjønnsletta" />
		<tag k="place" v="locality" />
		<tag k="ssr:stedsnr" v="779471" />
	</node>
	<node id="-378580" lat="61.3116694422" lon="9.7515361168">
		<tag k="name" v="Torgerliuhaugen" />
		<tag k="natural" v="hill" />
		<tag k="place" v="locality" />
		<tag k="ssr:stedsnr" v="482596" />
	</node>
	<node id="-380626" lat="61.3305861079" lon="9.70458611657">
		<tag k="name" v="Vasletthaugen" />
		<tag k="natural" v="hill" />
		<tag k="place" v="locality" />
		<tag k="ssr:stedsnr" v="779459" />
	</node>
	<node id="-380624" lat="61.2594166632" lon="10.016597224">
		<tag k="name" v="Sundhaugen" />
		<tag k="natural" v="hill" />
		<tag k="place" v="locality" />
		<tag k="ssr:stedsnr" v="779424" />
	</node>
	<node id="-380623" lat="61.3241111102" lon="9.68387499292">
		<tag k="name" v="Putterslettet" />
		<tag k="place" v="locality" />
		<tag k="ssr:stedsnr" v="779301" />
	</node>
	<node id="-380622" lat="61.2937722229" lon="9.91222500168">
		<tag k="name" v="Svarthollia" />
		<tag k="natural" v="slope" />
		<tag k="place" v="locality" />
		<tag k="ssr:stedsnr" v="779165" />
	</node>
	<node id="-380621" lat="61.321027779" lon="9.64093888169">
		<tag k="name" v="Ongsjølia" />
		<tag k="natural" v="slope" />
		<tag k="place" v="locality" />
		<tag k="ssr:stedsnr" v="779154" />
	</node>
	<node id="-380619" lat="61.3087166697" lon="9.93114444129">
		<tag k="name" v="Bølehågån" />
		<tag k="place" v="locality" />
		<tag k="ssr:stedsnr" v="779137" />
	</node>
	<node id="-378566" lat="61.264475003" lon="9.95543333207">
		<tag k="name" v="Haukådalsresset" />
		<tag k="natural" v="slope" />
		<tag k="place" v="locality" />
		<tag k="ssr:stedsnr" v="476980" />
	</node>
	<node id="-380612" lat="61.3210416701" lon="10.0058166598">
		<tag k="name" v="Stølslettbakken" />
		<tag k="natural" v="hill" />
		<tag k="place" v="locality" />
		<tag k="ssr:stedsnr" v="778990" />
	</node>
	<node id="-378563" lat="61.237922219" lon="10.0403472267">
		<tag k="name" v="Bøsæterbergan" />
		<tag k="place" v="locality" />
		<tag k="ssr:stedsnr" v="476788" />
	</node>
	<node id="-378562" lat="61.2337333317" lon="10.0524277755">
		<tag k="name" v="Blåberget" />
		<tag k="natural" v="slope" />
		<tag k="place" v="locality" />
		<tag k="ssr:stedsnr" v="476787" />
	</node>
	<node id="-378561" lat="61.2375805541" lon="9.98977222422">
		<tag k="name" v="Beljen" />
		<tag k="natural" v="valley" />
		<tag k="place" v="locality" />
		<tag k="ssr:stedsnr" v="476782" />
	</node>
	<node id="-380608" lat="61.3420833373" lon="9.88366667283">
		<tag k="name" v="Jelkdalen" />
		<tag k="natural" v="valley" />
		<tag k="place" v="locality" />
		<tag k="ssr:stedsnr" v="778969" />
	</node>
	<node id="-380600" lat="61.2983833368" lon="9.89384166389">
		<tag k="name" v="Jonslislettet" />
		<tag k="place" v="locality" />
		<tag k="ssr:stedsnr" v="778176" />
	</node>
	<node id="-380597" lat="61.329463889" lon="10.1495111089">
		<tag k="name" v="Jønnbulia" />
		<tag k="natural" v="slope" />
		<tag k="place" v="locality" />
		<tag k="ssr:stedsnr" v="778081" />
	</node>
	<node id="-378546" lat="61.3660138893" lon="9.6831444423">
		<tag k="name" v="Rostoppen" />
		<tag k="natural" v="hill" />
		<tag k="place" v="locality" />
		<tag k="ssr:stedsnr" v="475943" />
	</node>
	<node id="-378545" lat="61.3425027752" lon="9.71453610363">
		<tag k="name" v="Sprangan" />
		<tag k="natural" v="cliff" />
		<tag k="ssr:stedsnr" v="475896" />
	</node>
	<node id="-378544" lat="61.3675277822" lon="9.75682222">
		<tag k="name" v="Håbergskampen" />
		<tag k="natural" v="hill" />
		<tag k="place" v="locality" />
		<tag k="ssr:stedsnr" v="475895" />
	</node>
	<node id="-380588" lat="61.3918500003" lon="9.67835277405">
		<tag k="name" v="Sveahaugen" />
		<tag k="natural" v="hill" />
		<tag k="place" v="locality" />
		<tag k="ssr:stedsnr" v="777556" />
	</node>
	<node id="-380587" lat="61.4035250006" lon="9.60730834156">
		<tag k="name" v="Høgda" />
		<tag k="natural" v="hill" />
		<tag k="place" v="locality" />
		<tag k="ssr:stedsnr" v="777084" />
	</node>
	<node id="-380586" lat="61.4094583374" lon="9.58474166596">
		<tag k="name" v="Bjørkelia" />
		<tag k="natural" v="slope" />
		<tag k="place" v="locality" />
		<tag k="ssr:stedsnr" v="777077" />
	</node>
	<node id="-380384" lat="61.3006500029" lon="10.0881166653">
		<tag k="fixme" v="consider natural=peak for the most distinct mountains in the district" />
		<tag k="name" v="Bjørga" />
		<tag k="natural" v="hill" />
		<tag k="place" v="locality" />
		<tag k="ssr:stedsnr" v="554822" />
	</node>
	<node id="-378534" lat="61.2832694406" lon="10.1096277795">
		<tag k="name" v="Svartdalsberget" />
		<tag k="natural" v="hill" />
		<tag k="place" v="locality" />
		<tag k="ssr:stedsnr" v="475629" />
	</node>
	<node id="-380578" lat="61.2726749992" lon="9.45512500712">
		<tag k="fixme" v="consider natural=peak for the most distinct mountains in the district" />
		<tag k="name" v="Dølnfjellet" />
		<tag k="natural" v="hill" />
		<tag k="place" v="locality" />
		<tag k="ssr:stedsnr" v="737256" />
	</node>
	<node id="-378529" lat="61.3320222203" lon="9.72521110619">
		<tag k="name" v="Lunningslia" />
		<tag k="natural" v="slope" />
		<tag k="place" v="locality" />
		<tag k="ssr:stedsnr" v="475450" />
	</node>
	<node id="-378747" lat="61.3017694428" lon="9.8852944465">
		<tag k="name" v="Tossendalen" />
		<tag k="natural" v="valley" />
		<tag k="place" v="locality" />
		<tag k="ssr:stedsnr" v="656168" />
	</node>
	<node id="-378524" lat="61.2991666645" lon="9.99301943716">
		<tag k="name" v="Knutsbakklia" />
		<tag k="natural" v="slope" />
		<tag k="place" v="locality" />
		<tag k="ssr:stedsnr" v="475188" />
	</node>
	<node id="-380568" lat="61.2661277817" lon="9.87500277785">
		<tag k="name" v="Svartdalen" />
		<tag k="natural" v="valley" />
		<tag k="place" v="locality" />
		<tag k="ssr:stedsnr" v="736778" />
	</node>
	<node id="-380566" lat="61.1640055596" lon="9.74738888425">
		<tag k="fixme" v="consider natural=peak for the most distinct mountains in the district" />
		<tag k="name" v="Snuen" />
		<tag k="natural" v="hill" />
		<tag k="place" v="locality" />
		<tag k="ssr:stedsnr" v="736765" />
	</node>
	<node id="-378516" lat="61.3519888858" lon="9.83774444597">
		<tag k="name" v="Sæterhaugan" />
		<tag k="natural" v="hill" />
		<tag k="place" v="locality" />
		<tag k="ssr:stedsnr" v="474665" />
	</node>
	<node id="-378515" lat="61.3458083296" lon="9.82361388731">
		<tag k="name" v="Bakkomslettet" />
		<tag k="place" v="locality" />
		<tag k="ssr:stedsnr" v="474659" />
	</node>
	<node id="-380561" lat="61.33748611" lon="9.88568333308">
		<tag k="name" v="Benndalen" />
		<tag k="natural" v="valley" />
		<tag k="place" v="locality" />
		<tag k="ssr:stedsnr" v="736688" />
	</node>
	<node id="-378510" lat="61.3338444462" lon="9.85220832546">
		<tag k="name" v="Hågåringen" />
		<tag k="place" v="locality" />
		<tag k="ssr:stedsnr" v="474533" />
	</node>
	<node id="-380556" lat="61.1923361091" lon="9.82522223116">
		<tag k="alt_name" v="Ormtjønnskampen" />
		<tag k="name" v="Ormtjønnkampen" />
		<tag k="natural" v="hill" />
		<tag k="place" v="locality" />
		<tag k="ssr:stedsnr" v="736510" />
	</node>
	<node id="-378507" lat="61.3937722259" lon="9.70136667189">
		<tag k="name" v="Flæen" />
		<tag k="natural" v="hill" />
		<tag k="place" v="locality" />
		<tag k="ssr:stedsnr" v="474277" />
	</node>
	<node id="-378502" lat="61.3898777786" lon="9.77541111903">
		<tag k="name" v="Kjerringstylen" />
		<tag k="natural" v="hill" />
		<tag k="place" v="locality" />
		<tag k="ssr:stedsnr" v="474077" />
	</node>
	<node id="-380544" lat="61.3665555558" lon="9.55866943983">
		<tag k="alt_name" v="Leppfjellet" />
		<tag k="fixme" v="consider natural=peak for the most distinct mountains in the district" />
		<tag k="name" v="Leppkampen" />
		<tag k="natural" v="hill" />
		<tag k="place" v="locality" />
		<tag k="ssr:stedsnr" v="736445" />
	</node>
	<node id="-378490" lat="61.2886694475" lon="9.77290832493">
		<tag k="fixme" v="consider natural=peak for the most distinct mountains in the district" />
		<tag k="name" v="Langåsen" />
		<tag k="natural" v="hill" />
		<tag k="place" v="locality" />
		<tag k="ssr:stedsnr" v="312711" />
	</node>
	<node id="-380537" lat="61.1707250041" lon="10.1341861048">
		<tag k="name" v="Auggedalen" />
		<tag k="natural" v="valley" />
		<tag k="place" v="locality" />
		<tag k="ssr:stedsnr" v="736399" />
	</node>
	<node id="-378488" lat="61.3232499984" lon="9.53109999787">
		<tag k="name" v="Nordålia" />
		<tag k="natural" v="slope" />
		<tag k="place" v="locality" />
		<tag k="ssr:stedsnr" v="312480" />
	</node>
	<node id="-378487" lat="61.3804305544" lon="9.57744167234">
		<tag k="name" v="Tvillingkampen" />
		<tag k="natural" v="hill" />
		<tag k="place" v="locality" />
		<tag k="ssr:stedsnr" v="473590" />
	</node>
	<node id="-378486" lat="61.3648138906" lon="10.1409305464">
		<tag k="name" v="Roneshaugen" />
		<tag k="natural" v="hill" />
		<tag k="place" v="locality" />
		<tag k="ssr:stedsnr" v="473174" />
	</node>
	<node id="-380530" lat="61.368319443" lon="10.1623527691">
		<tag k="name" v="Goddalen" />
		<tag k="natural" v="valley" />
		<tag k="place" v="locality" />
		<tag k="ssr:stedsnr" v="645751" />
	</node>
	<node id="-378481" lat="61.2888027815" lon="9.65633054714">
		<tag k="name" v="Tverrlia" />
		<tag k="natural" v="slope" />
		<tag k="place" v="locality" />
		<tag k="ssr:stedsnr" v="300609" />
	</node>
	<node id="-378480" lat="61.2168972252" lon="10.1455694361">
		<tag k="name" v="Jordene" />
		<tag k="natural" v="slope" />
		<tag k="place" v="locality" />
		<tag k="ssr:stedsnr" v="300430" />
	</node>
	<node id="-378476" lat="61.1387000039" lon="10.1501638803">
		<tag k="name" v="Bergsbergan" />
		<tag k="natural" v="slope" />
		<tag k="place" v="locality" />
		<tag k="ssr:stedsnr" v="299759" />
	</node>
	<node id="-380515" lat="61.352000001" lon="9.59974722215">
		<tag k="name" v="Leppskardet" />
		<tag k="natural" v="valley" />
		<tag k="place" v="locality" />
		<tag k="ssr:stedsnr" v="614685" />
	</node>
	<node id="-378461" lat="61.2476138913" lon="10.3631666742">
		<tag k="alt_name" v="Fongsberget" />
		<tag k="name" v="Fognsberget" />
		<tag k="natural" v="hill" />
		<tag k="place" v="locality" />
		<tag k="ssr:stedsnr" v="250260" />
	</node>
	<node id="-378460" lat="61.2169472229" lon="10.2377805561">
		<tag k="name" v="Gausdal" />
		<tag k="natural" v="valley" />
		<tag k="place" v="locality" />
		<tag k="ssr:stedsnr" v="450771" />
	</node>
	<node id="-380507" lat="61.1998277758" lon="9.73753888952">
		<tag k="name" v="Storhaugen" />
		<tag k="natural" v="hill" />
		<tag k="place" v="locality" />
		<tag k="ssr:stedsnr" v="614519" />
	</node>
	<node id="-378456" lat="61.1735361128" lon="10.0221361109">
		<tag k="alt_name" v="Verskei;Værskei" />
		<tag k="name" v="Verskeid" />
		<tag k="natural" v="ridge" />
		<tag k="place" v="locality" />
		<tag k="ssr:stedsnr" v="250427" />
	</node>
	<node id="-380503" lat="61.2309805595" lon="9.62986666322">
		<tag k="alt_name" v="Tortjønnhaugen;Tortjønnhaugen, yt" />
		<tag k="name" v="Ytre Tortjønnhaugen" />
		<tag k="natural" v="hill" />
		<tag k="place" v="locality" />
		<tag k="ssr:stedsnr" v="614507" />
	</node>
	<node id="-378442" lat="61.3965249963" lon="9.55622777284">
		<tag k="name" v="Svartholet" />
		<tag k="natural" v="cliff" />
		<tag k="ssr:stedsnr" v="231667" />
	</node>
	<node id="-380487" lat="61.2131527796" lon="10.0913166645">
		<tag k="name" v="Kråbølsberget" />
		<tag k="place" v="locality" />
		<tag k="ssr:stedsnr" v="614469" />
	</node>
	<node id="-378438" lat="61.1266305531" lon="10.0671694419">
		<tag k="fixme" v="consider natural=peak for the most distinct mountains in the district" />
		<tag k="name" v="Skjellbreidsfjellet" />
		<tag k="natural" v="hill" />
		<tag k="place" v="locality" />
		<tag k="ssr:stedsnr" v="298294" />
	</node>
	<node id="-378437" lat="61.2463083318" lon="10.2775555643">
		<tag k="name" v="Skaret" />
		<tag k="natural" v="valley" />
		<tag k="place" v="locality" />
		<tag k="ssr:stedsnr" v="297974" />
	</node>
	<node id="-378806" lat="61.2450333359" lon="9.67710556002">
		<tag k="name" v="Glupen" />
		<tag k="natural" v="slope" />
		<tag k="place" v="locality" />
		<tag k="ssr:stedsnr" v="663470" />
	</node>
	<node id="-380479" lat="61.1260305547" lon="10.0282138805">
		<tag k="name" v="Roshaugen" />
		<tag k="natural" v="hill" />
		<tag k="place" v="locality" />
		<tag k="ssr:stedsnr" v="614101" />
	</node>
	<node id="-378430" lat="61.2634944447" lon="10.0811666633">
		<tag k="name" v="Heggeslettet" />
		<tag k="place" v="locality" />
		<tag k="ssr:stedsnr" v="295943" />
	</node>
	<node id="-378426" lat="61.1852888856" lon="10.1989388819">
		<tag k="name" v="Steinberghaugen" />
		<tag k="natural" v="hill" />
		<tag k="place" v="locality" />
		<tag k="ssr:stedsnr" v="295410" />
	</node>
	<node id="-378424" lat="61.2469861147" lon="10.3203749945">
		<tag k="name" v="Nordsvehaugan" />
		<tag k="natural" v="hill" />
		<tag k="place" v="locality" />
		<tag k="ssr:stedsnr" v="295328" />
	</node>
	<node id="-378423" lat="61.2408749986" lon="10.1438888828">
		<tag k="name" v="Busletta" />
		<tag k="place" v="locality" />
		<tag k="ssr:stedsnr" v="295247" />
	</node>
	<node id="-380470" lat="61.3779555595" lon="10.0019361126">
		<tag k="name" v="Kattuglekampen" />
		<tag k="natural" v="hill" />
		<tag k="place" v="locality" />
		<tag k="ssr:stedsnr" v="603871" />
	</node>
	<node id="-378420" lat="61.2542916705" lon="10.1158027754">
		<tag k="name" v="Sætersletta" />
		<tag k="place" v="locality" />
		<tag k="ssr:stedsnr" v="294959" />
	</node>
	<node id="-380464" lat="61.1246222233" lon="10.1956361202">
		<tag k="alt_name" v="Stubberudlia" />
		<tag k="name" v="Stubbrudlia" />
		<tag k="natural" v="slope" />
		<tag k="place" v="locality" />
		<tag k="ssr:stedsnr" v="602750" />
	</node>
	<node id="-380461" lat="61.1496166679" lon="10.1301250092">
		<tag k="name" v="Djupådalen" />
		<tag k="natural" v="valley" />
		<tag k="place" v="locality" />
		<tag k="ssr:stedsnr" v="602432" />
	</node>
	<node id="-380460" lat="61.2076249959" lon="10.1839861095">
		<tag k="fixme" v="consider natural=peak for the most distinct mountains in the district" />
		<tag k="name" v="Kallringhøgda" />
		<tag k="natural" v="hill" />
		<tag k="place" v="locality" />
		<tag k="ssr:stedsnr" v="602086" />
	</node>
	<node id="-378408" lat="61.3145583289" lon="10.0942250089">
		<tag k="name" v="Svarttjønnlia" />
		<tag k="natural" v="slope" />
		<tag k="place" v="locality" />
		<tag k="ssr:stedsnr" v="294729" />
	</node>
	<node id="-378407" lat="61.3047249977" lon="10.1111138871">
		<tag k="name" v="Halvorbakkan" />
		<tag k="natural" v="hill" />
		<tag k="place" v="locality" />
		<tag k="ssr:stedsnr" v="294721" />
	</node>
	<node id="-378406" lat="61.2896499967" lon="10.0268944399">
		<tag k="name" v="Heimkjølen" />
		<tag k="place" v="locality" />
		<tag k="ssr:stedsnr" v="294716" />
	</node>
	<node id="-380453" lat="61.2441972266" lon="10.1366499912">
		<tag k="name" v="Nørstevollia" />
		<tag k="natural" v="slope" />
		<tag k="place" v="locality" />
		<tag k="ssr:stedsnr" v="598239" />
	</node>
	<node id="-380449" lat="61.1965277742" lon="10.1041388815">
		<tag k="name" v="Briggedalen" />
		<tag k="natural" v="valley" />
		<tag k="place" v="locality" />
		<tag k="ssr:stedsnr" v="598031" />
	</node>
	<node id="-380446" lat="61.1601027762" lon="10.0578916589">
		<tag k="name" v="Fålådalen" />
		<tag k="natural" v="valley" />
		<tag k="place" v="locality" />
		<tag k="ssr:stedsnr" v="597930" />
	</node>
	<node id="-380443" lat="61.239036113" lon="9.88584166581">
		<tag k="name" v="Høglikollen" />
		<tag k="natural" v="hill" />
		<tag k="place" v="locality" />
		<tag k="ssr:stedsnr" v="597850" />
	</node>
	<node id="-380442" lat="61.2346805577" lon="10.055383337">
		<tag k="name" v="Madsrudberget" />
		<tag k="natural" v="slope" />
		<tag k="place" v="locality" />
		<tag k="ssr:stedsnr" v="597794" />
	</node>
	<node id="-378393" lat="61.3510361127" lon="9.98047222584">
		<tag k="name" v="Gråberget" />
		<tag k="natural" v="hill" />
		<tag k="place" v="locality" />
		<tag k="ssr:stedsnr" v="293993" />
	</node>
	<node id="-378390" lat="61.3748277788" lon="9.64318333198">
		<tag k="name" v="Liuhaugen" />
		<tag k="natural" v="hill" />
		<tag k="place" v="locality" />
		<tag k="ssr:stedsnr" v="293945" />
	</node>
	<node id="-380436" lat="61.2778500012" lon="10.1038416729">
		<tag k="name" v="Bakkelykkjekollan" />
		<tag k="natural" v="hill" />
		<tag k="place" v="locality" />
		<tag k="ssr:stedsnr" v="597625" />
	</node>
	<node id="-378387" lat="61.2807305569" lon="10.1577444437">
		<tag k="name" v="Frøysedalene" />
		<tag k="natural" v="valley" />
		<tag k="place" v="locality" />
		<tag k="ssr:stedsnr" v="293732" />
	</node>
	<node id="-378386" lat="61.2775999995" lon="10.1583388874">
		<tag k="name" v="Baukerhaugene" />
		<tag k="natural" v="hill" />
		<tag k="place" v="locality" />
		<tag k="ssr:stedsnr" v="293731" />
	</node>
	<node id="-380433" lat="61.2601388845" lon="10.0453305489">
		<tag k="name" v="Rudshågån" />
		<tag k="natural" v="hill" />
		<tag k="place" v="locality" />
		<tag k="ssr:stedsnr" v="597434" />
	</node>
	<node id="-380428" lat="61.2771472251" lon="10.1993611126">
		<tag k="name" v="Ramstylhaugen" />
		<tag k="natural" v="hill" />
		<tag k="place" v="locality" />
		<tag k="ssr:stedsnr" v="597151" />
	</node>
	<node id="-380426" lat="61.3458083299" lon="9.97559722109">
		<tag k="name" v="Madsislettet" />
		<tag k="place" v="locality" />
		<tag k="ssr:stedsnr" v="596981" />
	</node>
	<node id="-380425" lat="61.3586111085" lon="9.88923888846">
		<tag k="name" v="Storfinntottslettet" />
		<tag k="place" v="locality" />
		<tag k="ssr:stedsnr" v="596957" />
	</node>
	<node id="-378376" lat="61.3031888911" lon="9.93881944362">
		<tag k="name" v="Bjørliengene" />
		<tag k="place" v="locality" />
		<tag k="ssr:stedsnr" v="293173" />
	</node>
	<node id="-380422" lat="61.3737111137" lon="9.65157777647">
		<tag k="name" v="Dalhaugen" />
		<tag k="natural" v="hill" />
		<tag k="place" v="locality" />
		<tag k="ssr:stedsnr" v="596935" />
	</node>
	<node id="-380421" lat="61.3536944467" lon="10.0511611143">
		<tag k="name" v="Rundhaugen" />
		<tag k="natural" v="hill" />
		<tag k="place" v="locality" />
		<tag k="ssr:stedsnr" v="596906" />
	</node>
	<node id="-378372" lat="61.3240777797" lon="10.1289861071">
		<tag k="name" v="Varingen" />
		<tag k="place" v="locality" />
		<tag k="ssr:stedsnr" v="293092" />
	</node>
	<node id="-380415" lat="61.3207611149" lon="9.81143333053">
		<tag k="name" v="Sæterlia" />
		<tag k="natural" v="slope" />
		<tag k="place" v="locality" />
		<tag k="ssr:stedsnr" v="596588" />
	</node>
	<node id="-380413" lat="61.3225111135" lon="9.87515832964">
		<tag k="name" v="Kalvhågån" />
		<tag k="place" v="locality" />
		<tag k="ssr:stedsnr" v="596574" />
	</node>
	<node id="-378363" lat="61.391974998" lon="9.6434777828">
		<tag k="name" v="Rauhaugen" />
		<tag k="natural" v="ridge" />
		<tag k="place" v="locality" />
		<tag k="ssr:stedsnr" v="292529" />
	</node>
	<node id="-380409" lat="61.2971250013" lon="9.90343612027">
		<tag k="name" v="Jevollabergan" />
		<tag k="natural" v="slope" />
		<tag k="place" v="locality" />
		<tag k="ssr:stedsnr" v="596176" />
	</node>
	<node id="-378354" lat="61.3805972257" lon="9.69867500732">
		<tag k="name" v="Sæterhaugan" />
		<tag k="natural" v="hill" />
		<tag k="place" v="locality" />
		<tag k="ssr:stedsnr" v="292101" />
	</node>
	<node id="-380401" lat="61.4042694489" lon="9.80786667425">
		<tag k="name" v="Langhaugen" />
		<tag k="natural" v="hill" />
		<tag k="place" v="locality" />
		<tag k="ssr:stedsnr" v="595799" />
	</node>
	<node id="-378351" lat="61.3017527767" lon="10.0112083306">
		<tag k="name" v="Ulvkragen" />
		<tag k="place" v="locality" />
		<tag k="ssr:stedsnr" v="292006" />
	</node>
	<node id="-380398" lat="61.3346333372" lon="9.79919723038">
		<tag k="name" v="Toppahaugan" />
		<tag k="natural" v="hill" />
		<tag k="place" v="locality" />
		<tag k="ssr:stedsnr" v="595596" />
	</node>
	<node id="-380397" lat="61.3997444454" lon="9.65976110275">
		<tag k="name" v="Heklefjellet" />
		<tag k="natural" v="hill" />
		<tag k="place" v="locality" />
		<tag k="ssr:stedsnr" v="595548" />
	</node>
	<node id="-380396" lat="61.3468749973" lon="9.86452776885">
		<tag k="fixme" v="consider natural=peak for the most distinct mountains in the district" />
		<tag k="name" v="Skåråsen" />
		<tag k="natural" v="hill" />
		<tag k="place" v="locality" />
		<tag k="ssr:stedsnr" v="595484" />
	</node>
	<node id="-380391" lat="61.4010305596" lon="9.58872221336">
		<tag k="name" v="Tålåberget" />
		<tag k="natural" v="slope" />
		<tag k="place" v="locality" />
		<tag k="ssr:stedsnr" v="595064" />
	</node>
	<node id="-378341" lat="61.3514999985" lon="9.56754999993">
		<tag k="alt_name" v="Leppkampen" />
		<tag k="name" v="Leppfjellet" />
		<tag k="natural" v="hill" />
		<tag k="place" v="locality" />
		<tag k="ssr:stedsnr" v="190514" />
	</node>
	<node id="-378339" lat="61.3502555578" lon="9.47316389682">
		<tag k="name" v="Forundringshaugan" />
		<tag k="natural" v="hill" />
		<tag k="place" v="locality" />
		<tag k="ssr:stedsnr" v="190509" />
	</node>
	<node id="-378337" lat="61.2047888896" lon="10.1798222298">
		<tag k="alt_name" v="Kampekollen" />
		<tag k="name" v="Kampen" />
		<tag k="natural" v="hill" />
		<tag k="place" v="locality" />
		<tag k="ssr:stedsnr" v="190502" />
	</node>
	<node id="-378336" lat="61.3060111117" lon="9.82413611787">
		<tag k="fixme" v="multiple name tags, choose one and add the other to alt_name" />
		<tag k="name" v="Gleinstaupdalen;Grantoppdalen" />
		<tag k="natural" v="valley" />
		<tag k="place" v="locality" />
		<tag k="ssr:stedsnr" v="190656" />
	</node>
	<node id="-378330" lat="61.1376333318" lon="10.1761083312">
		<tag k="name" v="Finsrudvollene" />
		<tag k="place" v="locality" />
		<tag k="ssr:stedsnr" v="180502" />
	</node>
	<node id="-378329" lat="61.1755638845" lon="9.72873611309">
		<tag k="name" v="Snuryggen" />
		<tag k="natural" v="ridge" />
		<tag k="place" v="locality" />
		<tag k="ssr:stedsnr" v="179169" />
	</node>
	<node id="-380376" lat="61.2528055574" lon="9.93119999137">
		<tag k="name" v="Holbekkhøgda" />
		<tag k="natural" v="hill" />
		<tag k="place" v="locality" />
		<tag k="ssr:stedsnr" v="554766" />
	</node>
	<node id="-378326" lat="61.2346611117" lon="10.1226694505">
		<tag k="name" v="Stavlihaugen" />
		<tag k="natural" v="hill" />
		<tag k="place" v="locality" />
		<tag k="ssr:stedsnr" v="178210" />
	</node>
	<node id="-378324" lat="61.2618861079" lon="9.6786999982">
		<tag k="name" v="Revålia" />
		<tag k="natural" v="slope" />
		<tag k="place" v="locality" />
		<tag k="ssr:stedsnr" v="177517" />
	</node>
	<node id="-380370" lat="61.3508166656" lon="9.52896666811">
		<tag k="name" v="Venagllia" />
		<tag k="natural" v="slope" />
		<tag k="place" v="locality" />
		<tag k="ssr:stedsnr" v="554542" />
	</node>
	<node id="-380368" lat="61.2978305522" lon="9.3784500063">
		<tag k="fixme" v="consider natural=peak for the most distinct mountains in the district" />
		<tag k="name" v="Hyllefjellet" />
		<tag k="natural" v="hill" />
		<tag k="place" v="locality" />
		<tag k="ssr:stedsnr" v="554502" />
	</node>
	<node id="-378311" lat="61.2840861074" lon="9.76425000084">
		<tag k="name" v="Mosskyrkja" />
		<tag k="natural" v="ridge" />
		<tag k="place" v="locality" />
		<tag k="ssr:stedsnr" v="129736" />
	</node>
	<node id="-380358" lat="61.3605166656" lon="9.63179722653">
		<tag k="name" v="Jentfjellet" />
		<tag k="natural" v="hill" />
		<tag k="place" v="locality" />
		<tag k="ssr:stedsnr" v="553684" />
	</node>
	<node id="-380357" lat="61.3546027776" lon="9.65704999276">
		<tag k="name" v="Tverrlikampen" />
		<tag k="natural" v="hill" />
		<tag k="place" v="locality" />
		<tag k="ssr:stedsnr" v="553669" />
	</node>
	<node id="-380352" lat="61.1982499994" lon="9.78137500845">
		<tag k="name" v="Glupan" />
		<tag k="natural" v="hill" />
		<tag k="place" v="locality" />
		<tag k="ssr:stedsnr" v="553510" />
	</node>
	<node id="-380347" lat="61.2191749974" lon="10.1337333282">
		<tag k="fixme" v="consider natural=peak for the most distinct mountains in the district" />
		<tag k="name" v="Tobrokampen" />
		<tag k="natural" v="hill" />
		<tag k="place" v="locality" />
		<tag k="ssr:stedsnr" v="553435" />
	</node>
	<node id="-378298" lat="61.2424972189" lon="9.67964166364">
		<tag k="fixme" v="consider natural=peak for the most distinct mountains in the district" />
		<tag k="name" v="Midtre Suluhø" />
		<tag k="natural" v="hill" />
		<tag k="ssr:stedsnr" v="117504" />
	</node>
	<node id="-380345" lat="61.1656333334" lon="10.0550249937">
		<tag k="fixme" v="consider natural=peak for the most distinct mountains in the district" />
		<tag k="name" v="Hærfjellet" />
		<tag k="natural" v="hill" />
		<tag k="place" v="locality" />
		<tag k="ssr:stedsnr" v="553428" />
	</node>
	<node id="-380344" lat="61.1745666672" lon="10.101413886">
		<tag k="name" v="Storhaugen" />
		<tag k="natural" v="hill" />
		<tag k="place" v="locality" />
		<tag k="ssr:stedsnr" v="553426" />
	</node>
	<node id="-378292" lat="61.1956222249" lon="9.79384999962">
		<tag k="name" v="Lauvlihøgda" />
		<tag k="natural" v="hill" />
		<tag k="place" v="locality" />
		<tag k="ssr:stedsnr" v="112521" />
	</node>
	<node id="-378099" lat="61.350505553" lon="10.0098083241">
		<tag k="fixme" v="multiple name tags, choose one and add the other to alt_name" />
		<tag k="name" v="Gråbergan;Langlihaugen" />
		<tag k="natural" v="hill" />
		<tag k="place" v="locality" />
		<tag k="ssr:stedsnr" v="232986" />
	</node>
	<node id="-380336" lat="61.3749333299" lon="9.93457221781">
		<tag k="name" v="Vakkerhaugen" />
		<tag k="natural" v="hill" />
		<tag k="place" v="locality" />
		<tag k="ssr:stedsnr" v="553344" />
	</node>
	<node id="-378284" lat="61.2698138851" lon="10.2379305469">
		<tag k="name" v="Kloppmyrhaugen" />
		<tag k="natural" v="hill" />
		<tag k="place" v="locality" />
		<tag k="ssr:stedsnr" v="112103" />
	</node>
	<node id="-378280" lat="61.3685999996" lon="9.66505278408">
		<tag k="name" v="Hyttdalsbergan" />
		<tag k="place" v="locality" />
		<tag k="ssr:stedsnr" v="111927" />
	</node>
	<node id="-378275" lat="61.3592722241" lon="9.70412778136">
		<tag k="name" v="Kolbotn" />
		<tag k="natural" v="valley" />
		<tag k="place" v="locality" />
		<tag k="ssr:stedsnr" v="111110" />
	</node>
	<node id="-378274" lat="61.3424194472" lon="9.61803055833">
		<tag k="name" v="Ongsjøfjellet" />
		<tag k="natural" v="hill" />
		<tag k="place" v="locality" />
		<tag k="ssr:stedsnr" v="111009" />
	</node>
	<node id="-378271" lat="61.3108000018" lon="9.98352777692">
		<tag k="name" v="Dørdalen" />
		<tag k="natural" v="valley" />
		<tag k="place" v="locality" />
		<tag k="ssr:stedsnr" v="251965" />
	</node>
	<node id="-380317" lat="61.1941722219" lon="10.0967249972">
		<tag k="name" v="Forsetlia" />
		<tag k="natural" v="slope" />
		<tag k="place" v="locality" />
		<tag k="ssr:stedsnr" v="543242" />
	</node>
	<node id="-380314" lat="61.2394388912" lon="9.55678611189">
		<tag k="name" v="Sundhaugen" />
		<tag k="natural" v="hill" />
		<tag k="place" v="locality" />
		<tag k="ssr:stedsnr" v="543049" />
	</node>
	<node id="-378263" lat="61.2661250002" lon="9.7781000004">
		<tag k="name" v="Slifjellet" />
		<tag k="natural" v="hill" />
		<tag k="place" v="locality" />
		<tag k="ssr:stedsnr" v="251774" />
	</node>
	<node id="-378257" lat="61.2385972187" lon="9.75817499315">
		<tag k="alt_name" v="Revåkampen, s" />
		<tag k="fixme" v="consider natural=peak for the most distinct mountains in the district" />
		<tag k="name" v="Søre Revåkampen" />
		<tag k="natural" v="hill" />
		<tag k="place" v="locality" />
		<tag k="ssr:stedsnr" v="251570" />
	</node>
	<node id="-380300" lat="61.2645833344" lon="10.2266472163">
		<tag k="name" v="Øverbygdskjølen" />
		<tag k="natural" v="slope" />
		<tag k="place" v="locality" />
		<tag k="ssr:stedsnr" v="537079" />
	</node>
	<node id="-378247" lat="61.4263333324" lon="9.49436666512">
		<tag k="name" v="Espedalen" />
		<tag k="natural" v="valley" />
		<tag k="place" v="locality" />
		<tag k="ssr:stedsnr" v="251446" />
	</node>
	<node id="-380292" lat="61.1791750024" lon="9.88618889675">
		<tag k="name" v="Holshaugen" />
		<tag k="natural" v="hill" />
		<tag k="place" v="locality" />
		<tag k="ssr:stedsnr" v="537022" />
	</node>
	<node id="-380290" lat="61.3011999964" lon="10.1118111127">
		<tag k="name" v="Halvorbakkslettet" />
		<tag k="place" v="locality" />
		<tag k="ssr:stedsnr" v="536714" />
	</node>
	<node id="-378239" lat="61.1747000008" lon="9.85761666288">
		<tag k="name" v="Oppsjølia" />
		<tag k="natural" v="slope" />
		<tag k="place" v="locality" />
		<tag k="ssr:stedsnr" v="250725" />
	</node>
	<node id="-380285" lat="61.2926416644" lon="10.0987055619">
		<tag k="name" v="Gørrtjønnberget" />
		<tag k="natural" v="hill" />
		<tag k="place" v="locality" />
		<tag k="ssr:stedsnr" v="536636" />
	</node>
	<node id="-380284" lat="61.2744555577" lon="10.0736166597">
		<tag k="name" v="Stakkmyrhaugen" />
		<tag k="natural" v="hill" />
		<tag k="place" v="locality" />
		<tag k="ssr:stedsnr" v="536628" />
	</node>
	<node id="-378431" lat="61.2074833335" lon="10.1607888818">
		<tag k="name" v="Buflata" />
		<tag k="place" v="locality" />
		<tag k="ssr:stedsnr" v="295968" />
	</node>
	<node id="-380280" lat="61.3230444442" lon="9.67496110313">
		<tag k="name" v="Moaslettet" />
		<tag k="place" v="locality" />
		<tag k="ssr:stedsnr" v="536289" />
	</node>
	<node id="-380279" lat="61.3320444472" lon="9.6741805632">
		<tag k="name" v="Måsåholtet" />
		<tag k="natural" v="hill" />
		<tag k="place" v="locality" />
		<tag k="ssr:stedsnr" v="536282" />
	</node>
	<node id="-380278" lat="61.3159888875" lon="9.73346944554">
		<tag k="name" v="Fjelltitthaugen" />
		<tag k="natural" v="hill" />
		<tag k="old_name" v="Fjelltjetthaugen" />
		<tag k="place" v="locality" />
		<tag k="ssr:stedsnr" v="536459" />
	</node>
	<node id="-378227" lat="61.126919448" lon="10.1255472172">
		<tag k="name" v="Grøtåshaugen" />
		<tag k="natural" v="hill" />
		<tag k="place" v="locality" />
		<tag k="ssr:stedsnr" v="250098" />
	</node>
	<node id="-380273" lat="61.3605638853" lon="9.71298610242">
		<tag k="name" v="Nessebrånån" />
		<tag k="natural" v="hill" />
		<tag k="place" v="locality" />
		<tag k="ssr:stedsnr" v="536088" />
	</node>
	<node id="-380272" lat="61.1568166707" lon="9.99785278566">
		<tag k="name" v="Måråbeithaugen" />
		<tag k="natural" v="hill" />
		<tag k="place" v="locality" />
		<tag k="ssr:stedsnr" v="536073" />
	</node>
	<node id="-378222" lat="61.331416665" lon="9.63760000855">
		<tag k="fixme" v="consider natural=peak for the most distinct mountains in the district" />
		<tag k="name" v="Ongsjøfjellet" />
		<tag k="natural" v="hill" />
		<tag k="place" v="locality" />
		<tag k="ssr:stedsnr" v="69715" />
	</node>
	<node id="-380268" lat="61.3335388922" lon="9.95608054669">
		<tag k="fixme" v="consider natural=peak for the most distinct mountains in the district" />
		<tag k="name" v="Vakkeråsen" />
		<tag k="natural" v="hill" />
		<tag k="place" v="locality" />
		<tag k="ssr:stedsnr" v="535855" />
	</node>
	<node id="-380266" lat="61.3500277749" lon="9.84150555789">
		<tag k="name" v="Sætersletta" />
		<tag k="place" v="locality" />
		<tag k="ssr:stedsnr" v="535642" />
	</node>
	<node id="-380265" lat="61.3463000027" lon="9.84316389156">
		<tag k="name" v="Brånåan" />
		<tag k="natural" v="slope" />
		<tag k="place" v="locality" />
		<tag k="ssr:stedsnr" v="535639" />
	</node>
	<node id="-380258" lat="61.3261555534" lon="10.1403472152">
		<tag k="name" v="Kolbotn" />
		<tag k="natural" v="valley" />
		<tag k="place" v="locality" />
		<tag k="ssr:stedsnr" v="535064" />
	</node>
	<node id="-380256" lat="61.2958194432" lon="10.0192305554">
		<tag k="name" v="Bjønnhaugan" />
		<tag k="natural" v="hill" />
		<tag k="place" v="locality" />
		<tag k="ssr:stedsnr" v="535230" />
	</node>
	<node id="-380253" lat="61.3936666643" lon="9.67962778505">
		<tag k="name" v="Midtre Stordalen" />
		<tag k="natural" v="valley" />
		<tag k="place" v="locality" />
		<tag k="ssr:stedsnr" v="534550" />
	</node>
	<node id="-380252" lat="61.3797944476" lon="9.74491944635">
		<tag k="name" v="Svartslettbakkan" />
		<tag k="natural" v="slope" />
		<tag k="place" v="locality" />
		<tag k="ssr:stedsnr" v="534331" />
	</node>
	<node id="-378203" lat="61.2451361099" lon="9.66555554745">
		<tag k="name" v="Glupdalen" />
		<tag k="natural" v="valley" />
		<tag k="place" v="locality" />
		<tag k="ssr:stedsnr" v="238523" />
	</node>
	<node id="-380250" lat="61.3814527822" lon="9.80252500099">
		<tag k="name" v="Revhaugen" />
		<tag k="natural" v="hill" />
		<tag k="place" v="locality" />
		<tag k="ssr:stedsnr" v="534106" />
	</node>
	<node id="-378200" lat="61.2378027777" lon="9.55073887971">
		<tag k="name" v="Langlondalen" />
		<tag k="natural" v="valley" />
		<tag k="place" v="locality" />
		<tag k="ssr:stedsnr" v="238117" />
	</node>
	<node id="-378199" lat="61.2443583366" lon="10.2769361191">
		<tag k="name" v="Rønningsbergan" />
		<tag k="natural" v="slope" />
		<tag k="place" v="locality" />
		<tag k="ssr:stedsnr" v="237985" />
	</node>
	<node id="-378194" lat="61.2420722195" lon="9.94020277112">
		<tag k="name" v="Haukådalslia" />
		<tag k="natural" v="slope" />
		<tag k="place" v="locality" />
		<tag k="ssr:stedsnr" v="52873" />
	</node>
	<node id="-378191" lat="61.269261109" lon="9.97051666184">
		<tag k="name" v="Ljøsbrenna" />
		<tag k="natural" v="hill" />
		<tag k="place" v="locality" />
		<tag k="ssr:stedsnr" v="52967" />
	</node>
	<node id="-378190" lat="61.1487499981" lon="10.0529027774">
		<tag k="name" v="Rypfjellet" />
		<tag k="natural" v="hill" />
		<tag k="place" v="locality" />
		<tag k="ssr:stedsnr" v="52912" />
	</node>
	<node id="-378180" lat="61.356122222" lon="9.70946110518">
		<tag k="name" v="Ellanhuslia" />
		<tag k="natural" v="slope" />
		<tag k="place" v="locality" />
		<tag k="ssr:stedsnr" v="51914" />
	</node>
	<node id="-378179" lat="61.3477444457" lon="9.72488333512">
		<tag k="name" v="Kolhuslia" />
		<tag k="natural" v="slope" />
		<tag k="place" v="locality" />
		<tag k="ssr:stedsnr" v="51906" />
	</node>
	<node id="-380226" lat="61.3131583308" lon="9.45350000712">
		<tag k="name" v="Storkvolven" />
		<tag k="place" v="locality" />
		<tag k="ssr:stedsnr" v="433474" />
	</node>
	<node id="-380224" lat="61.3058527758" lon="9.51656388859">
		<tag k="name" v="Risålia" />
		<tag k="natural" v="slope" />
		<tag k="place" v="locality" />
		<tag k="ssr:stedsnr" v="433471" />
	</node>
	<node id="-379786" lat="61.3278277774" lon="9.84113332843">
		<tag k="name" v="Ivaberget" />
		<tag k="natural" v="hill" />
		<tag k="place" v="locality" />
		<tag k="ssr:stedsnr" v="171556" />
	</node>
	<node id="-378169" lat="61.3705194471" lon="9.6335166601">
		<tag k="name" v="Nordre Svartberget" />
		<tag k="natural" v="hill" />
		<tag k="place" v="locality" />
		<tag k="ssr:stedsnr" v="51504" />
	</node>
	<node id="-380215" lat="61.3559611127" lon="9.53168333749">
		<tag k="name" v="Venaglflæen" />
		<tag k="natural" v="slope" />
		<tag k="place" v="locality" />
		<tag k="ssr:stedsnr" v="433427" />
	</node>
	<node id="-380214" lat="61.1694555538" lon="10.1165388799">
		<tag k="alt_name" v="Hammerbergene;Hammerberget" />
		<tag k="name" v="Håmårsberget" />
		<tag k="place" v="locality" />
		<tag k="ssr:stedsnr" v="433420" />
	</node>
	<node id="-378761" lat="61.3088027797" lon="9.96651111571">
		<tag k="name" v="Flutbergan" />
		<tag k="place" v="locality" />
		<tag k="ssr:stedsnr" v="657176" />
	</node>
	<node id="-378164" lat="61.304072221" lon="10.0381111163">
		<tag k="name" v="Skansen" />
		<tag k="natural" v="hill" />
		<tag k="place" v="locality" />
		<tag k="ssr:stedsnr" v="50221" />
	</node>
	<node id="-380211" lat="61.3337750034" lon="10.0247055639">
		<tag k="fixme" v="consider natural=peak for the most distinct mountains in the district" />
		<tag k="name" v="Kyrakampen" />
		<tag k="natural" v="hill" />
		<tag k="place" v="locality" />
		<tag k="ssr:stedsnr" v="432946" />
	</node>
	<node id="-378160" lat="61.2616527805" lon="9.99720556004">
		<tag k="name" v="Bjønndalsberget" />
		<tag k="natural" v="hill" />
		<tag k="place" v="locality" />
		<tag k="ssr:stedsnr" v="234977" />
	</node>
	<node id="-378159" lat="61.2602833334" lon="9.99889444673">
		<tag k="name" v="Bjønndalen" />
		<tag k="natural" v="valley" />
		<tag k="place" v="locality" />
		<tag k="ssr:stedsnr" v="234974" />
	</node>
	<node id="-378158" lat="61.2465305528" lon="9.90379165745">
		<tag k="name" v="Reinsjøslettet" />
		<tag k="place" v="locality" />
		<tag k="ssr:stedsnr" v="234888" />
	</node>
	<node id="-378157" lat="61.2408916657" lon="10.0405555521">
		<tag k="name" v="Hyttflåa" />
		<tag k="natural" v="hill" />
		<tag k="place" v="locality" />
		<tag k="ssr:stedsnr" v="234814" />
	</node>
	<node id="-378156" lat="61.2264388858" lon="9.85803611778">
		<tag k="name" v="Hornsjølia" />
		<tag k="natural" v="slope" />
		<tag k="place" v="locality" />
		<tag k="ssr:stedsnr" v="234543" />
	</node>
	<node id="-378154" lat="61.4065249997" lon="9.84344445368">
		<tag k="name" v="Stordalen" />
		<tag k="natural" v="valley" />
		<tag k="place" v="locality" />
		<tag k="ssr:stedsnr" v="234468" />
	</node>
	<node id="-378152" lat="61.2390944483" lon="10.3465944358">
		<tag k="name" v="Geitryggen" />
		<tag k="natural" v="hill" />
		<tag k="place" v="locality" />
		<tag k="ssr:stedsnr" v="234318" />
	</node>
	<node id="-378151" lat="61.2581222231" lon="9.78692500719">
		<tag k="name" v="Kvisthaugen" />
		<tag k="natural" v="hill" />
		<tag k="place" v="locality" />
		<tag k="ssr:stedsnr" v="234304" />
	</node>
	<node id="-378147" lat="61.2487305513" lon="10.1289305484">
		<tag k="name" v="Prestlia" />
		<tag k="natural" v="slope" />
		<tag k="place" v="locality" />
		<tag k="ssr:stedsnr" v="234234" />
	</node>
	<node id="-378142" lat="61.260638889" lon="10.1147027712">
		<tag k="name" v="Brattskar" />
		<tag k="natural" v="valley" />
		<tag k="place" v="locality" />
		<tag k="ssr:stedsnr" v="233953" />
	</node>
	<node id="-378138" lat="61.1470638921" lon="10.0607055538">
		<tag k="name" v="Skardbergan" />
		<tag k="natural" v="slope" />
		<tag k="place" v="locality" />
		<tag k="ssr:stedsnr" v="233934" />
	</node>
	<node id="-378137" lat="61.1307777812" lon="10.1174777756">
		<tag k="name" v="Sjåheimhøgda" />
		<tag k="natural" v="hill" />
		<tag k="place" v="locality" />
		<tag k="ssr:stedsnr" v="233897" />
	</node>
	<node id="-378136" lat="61.3476222209" lon="9.70383055925">
		<tag k="name" v="Påsån" />
		<tag k="natural" v="hill" />
		<tag k="place" v="locality" />
		<tag k="ssr:stedsnr" v="233893" />
	</node>
	<node id="-378132" lat="61.3039555578" lon="10.1162027731">
		<tag k="name" v="Lykkjomringen" />
		<tag k="place" v="locality" />
		<tag k="ssr:stedsnr" v="233751" />
	</node>
	<node id="-380178" lat="61.1567027774" lon="10.0437861054">
		<tag k="name" v="Stortjønnhaugen" />
		<tag k="natural" v="hill" />
		<tag k="place" v="locality" />
		<tag k="ssr:stedsnr" v="416899" />
	</node>
	<node id="-380177" lat="61.1471833298" lon="10.0522583323">
		<tag k="name" v="Sneiråkhøgda" />
		<tag k="natural" v="hill" />
		<tag k="place" v="locality" />
		<tag k="ssr:stedsnr" v="416893" />
	</node>
	<node id="-378413" lat="61.2682944453" lon="10.1140222233">
		<tag k="name" v="Klevalia" />
		<tag k="natural" v="slope" />
		<tag k="place" v="locality" />
		<tag k="ssr:stedsnr" v="294816" />
	</node>
	<node id="-378124" lat="61.3090694488" lon="10.1606583322">
		<tag k="name" v="Heggeslettet" />
		<tag k="place" v="locality" />
		<tag k="ssr:stedsnr" v="233567" />
	</node>
	<node id="-380171" lat="61.2191861152" lon="10.1509611181">
		<tag k="name" v="Kollum" />
		<tag k="natural" v="slope" />
		<tag k="place" v="locality" />
		<tag k="ssr:stedsnr" v="416355" />
	</node>
	<node id="-378122" lat="61.3105277775" lon="10.1216083303">
		<tag k="name" v="Hoppersletta" />
		<tag k="place" v="locality" />
		<tag k="ssr:stedsnr" v="233556" />
	</node>
	<node id="-378119" lat="61.3672361153" lon="9.63690832753">
		<tag k="alt_name" v="Søndre Svartberget" />
		<tag k="name" v="Søre Svartberget" />
		<tag k="natural" v="hill" />
		<tag k="place" v="locality" />
		<tag k="ssr:stedsnr" v="233488" />
	</node>
	<node id="-378753" lat="61.3511444453" lon="9.88883889056">
		<tag k="name" v="Kristenenget" />
		<tag k="place" v="locality" />
		<tag k="ssr:stedsnr" v="656956" />
	</node>
	<node id="-380164" lat="61.3686000007" lon="9.75125556358">
		<tag k="name" v="Furubakkan" />
		<tag k="natural" v="slope" />
		<tag k="place" v="locality" />
		<tag k="ssr:stedsnr" v="415910" />
	</node>
	<node id="-380163" lat="61.3644138932" lon="9.75158610624">
		<tag k="name" v="Høgberget" />
		<tag k="place" v="locality" />
		<tag k="ssr:stedsnr" v="415909" />
	</node>
	<node id="-378114" lat="61.35655556" lon="9.64748333674">
		<tag k="name" v="Tjuvholkampen" />
		<tag k="natural" v="hill" />
		<tag k="place" v="locality" />
		<tag k="ssr:stedsnr" v="233374" />
	</node>
	<node id="-380156" lat="61.3143335896" lon="10.0948024188">
		<tag k="name" v="Svarttjønnlia" />
		<tag k="natural" v="slope" />
		<tag k="place" v="locality" />
		<tag k="ssr:stedsnr" v="415765" />
	</node>
	<node id="-380155" lat="61.285466666" lon="10.0040416725">
		<tag k="name" v="Ulvdalen" />
		<tag k="natural" v="valley" />
		<tag k="place" v="locality" />
		<tag k="ssr:stedsnr" v="415759" />
	</node>
	<node id="-378105" lat="61.2666416677" lon="10.2124444407">
		<tag k="name" v="Reitbakkan" />
		<tag k="natural" v="slope" />
		<tag k="place" v="locality" />
		<tag k="ssr:stedsnr" v="233087" />
	</node>
	<node id="-380148" lat="61.333405553" lon="9.66001110545">
		<tag k="name" v="Håmmårn" />
		<tag k="natural" v="hill" />
		<tag k="place" v="locality" />
		<tag k="ssr:stedsnr" v="415476" />
	</node>
	<node id="-380147" lat="61.3373861109" lon="9.69332221765">
		<tag k="name" v="Myrbakkhaugen" />
		<tag k="natural" v="hill" />
		<tag k="place" v="locality" />
		<tag k="ssr:stedsnr" v="415379" />
	</node>
	<node id="-380146" lat="61.328855557" lon="9.67628055942">
		<tag k="name" v="Liaslettet" />
		<tag k="natural" v="slope" />
		<tag k="place" v="locality" />
		<tag k="ssr:stedsnr" v="415334" />
	</node>
	<node id="-380145" lat="61.3241305562" lon="9.63594167071">
		<tag k="name" v="Rubbeslettet" />
		<tag k="place" v="locality" />
		<tag k="ssr:stedsnr" v="415180" />
	</node>
	<node id="-378092" lat="61.3322333322" lon="9.87690554926">
		<tag k="name" v="Skarsåslia" />
		<tag k="natural" v="slope" />
		<tag k="place" v="locality" />
		<tag k="ssr:stedsnr" v="232473" />
	</node>
	<node id="-378087" lat="61.3555055591" lon="10.1657805489">
		<tag k="name" v="Svartbergan" />
		<tag k="place" v="locality" />
		<tag k="ssr:stedsnr" v="232017" />
	</node>
	<node id="-378085" lat="61.3660333297" lon="9.71311111315">
		<tag k="name" v="Kreklinghaugen" />
		<tag k="natural" v="hill" />
		<tag k="place" v="locality" />
		<tag k="ssr:stedsnr" v="232080" />
	</node>
	<node id="-380130" lat="61.3673416688" lon="9.6744749947">
		<tag k="name" v="Langmyrberget" />
		<tag k="natural" v="hill" />
		<tag k="place" v="locality" />
		<tag k="ssr:stedsnr" v="414921" />
	</node>
	<node id="-380129" lat="61.3643527734" lon="9.6853527785">
		<tag k="name" v="Rostjønnberget" />
		<tag k="place" v="locality" />
		<tag k="ssr:stedsnr" v="414897" />
	</node>
	<node id="-380127" lat="61.3112583309" lon="9.78646388971">
		<tag k="name" v="Lundhusbakken" />
		<tag k="natural" v="slope" />
		<tag k="place" v="locality" />
		<tag k="ssr:stedsnr" v="414542" />
	</node>
	<node id="-378077" lat="61.3672305595" lon="9.99770277964">
		<tag k="name" v="Gråkampan" />
		<tag k="natural" v="hill" />
		<tag k="place" v="locality" />
		<tag k="ssr:stedsnr" v="231076" />
	</node>
	<node id="-378075" lat="61.3906944409" lon="9.79394443961">
		<tag k="name" v="Varphaugen" />
		<tag k="natural" v="hill" />
		<tag k="place" v="locality" />
		<tag k="ssr:stedsnr" v="231121" />
	</node>
	<node id="-380122" lat="61.295236109" lon="9.91493611769">
		<tag k="name" v="Svarthollia" />
		<tag k="natural" v="slope" />
		<tag k="place" v="locality" />
		<tag k="ssr:stedsnr" v="414184" />
	</node>
	<node id="-380110" lat="61.3398083367" lon="9.8389138929">
		<tag k="name" v="Heljesletthaugen" />
		<tag k="natural" v="hill" />
		<tag k="place" v="locality" />
		<tag k="ssr:stedsnr" v="413666" />
	</node>
	<node id="-380108" lat="61.3241472183" lon="9.76976944208">
		<tag k="name" v="Brandkolbotn" />
		<tag k="natural" v="valley" />
		<tag k="place" v="locality" />
		<tag k="ssr:stedsnr" v="413631" />
	</node>
	<node id="-380107" lat="61.3902722199" lon="9.68683611737">
		<tag k="name" v="Søre Stordalen" />
		<tag k="natural" v="valley" />
		<tag k="place" v="locality" />
		<tag k="ssr:stedsnr" v="413567" />
	</node>
	<node id="-380106" lat="61.3842083321" lon="9.76980278579">
		<tag k="name" v="Pålsæterbergan" />
		<tag k="place" v="locality" />
		<tag k="ssr:stedsnr" v="413351" />
	</node>
	<node id="-380105" lat="61.3988888891" lon="9.72713332531">
		<tag k="name" v="Monsskålbergan" />
		<tag k="place" v="locality" />
		<tag k="ssr:stedsnr" v="413350" />
	</node>
	<node id="-380104" lat="61.3988833357" lon="9.73215832992">
		<tag k="name" v="Åmillom" />
		<tag k="natural" v="ridge" />
		<tag k="place" v="locality" />
		<tag k="ssr:stedsnr" v="413346" />
	</node>
	<node id="-380097" lat="61.3893249988" lon="9.79512776952">
		<tag k="name" v="Varpet" />
		<tag k="place" v="locality" />
		<tag k="ssr:stedsnr" v="413111" />
	</node>
	<node id="-380096" lat="61.4058833342" lon="9.62171945139">
		<tag k="name" v="Lauvåliglupen" />
		<tag k="natural" v="valley" />
		<tag k="place" v="locality" />
		<tag k="ssr:stedsnr" v="413082" />
	</node>
	<node id="-380095" lat="61.2674666687" lon="9.82946944448">
		<tag k="name" v="Mossbergan" />
		<tag k="place" v="locality" />
		<tag k="ssr:stedsnr" v="416276" />
	</node>
	<node id="-380094" lat="61.2674388868" lon="9.82516110955">
		<tag k="name" v="Mossjøfjellet" />
		<tag k="natural" v="hill" />
		<tag k="place" v="locality" />
		<tag k="ssr:stedsnr" v="416275" />
	</node>
	<node id="-378057" lat="61.1909555563" lon="9.84280556228">
		<tag k="name" v="Helvete" />
		<tag k="place" v="locality" />
		<tag k="ssr:stedsnr" v="220397" />
	</node>
	<node id="-378056" lat="61.2864472216" lon="10.0532027751">
		<tag k="name" v="Brenntjønnlia" />
		<tag k="natural" v="slope" />
		<tag k="place" v="locality" />
		<tag k="ssr:stedsnr" v="219699" />
	</node>
	<node id="-380075" lat="61.2798194419" lon="9.980016667">
		<tag k="alt_name" v="Uksomkampen" />
		<tag k="fixme" v="consider natural=peak for the most distinct mountains in the district" />
		<tag k="name" v="Uksumkampen" />
		<tag k="natural" v="hill" />
		<tag k="place" v="locality" />
		<tag k="ssr:stedsnr" v="372774" />
	</node>
	<node id="-380071" lat="61.2971527798" lon="9.50008055692">
		<tag k="fixme" v="consider natural=peak for the most distinct mountains in the district" />
		<tag k="name" v="Nonstjønnkampen" />
		<tag k="natural" v="hill" />
		<tag k="place" v="locality" />
		<tag k="ssr:stedsnr" v="372498" />
	</node>
	<node id="-380066" lat="61.2372750008" lon="9.71540554878">
		<tag k="alt_name" v="Droktjernhaugen" />
		<tag k="name" v="Druktjørnhaugen" />
		<tag k="natural" v="hill" />
		<tag k="place" v="locality" />
		<tag k="ssr:stedsnr" v="372538" />
	</node>
	<node id="-380064" lat="61.2520777751" lon="10.3619666593">
		<tag k="alt_name" v="Kjørkja" />
		<tag k="name" v="Kyrkja" />
		<tag k="natural" v="hill" />
		<tag k="place" v="locality" />
		<tag k="ssr:stedsnr" v="372489" />
	</node>
	<node id="-380062" lat="61.2812500043" lon="9.35212500114">
		<tag k="name" v="Marknadsplassen" />
		<tag k="place" v="locality" />
		<tag k="ssr:stedsnr" v="372300" />
	</node>
	<node id="-380061" lat="61.2922000002" lon="9.52382499204">
		<tag k="fixme" v="consider natural=peak for the most distinct mountains in the district" />
		<tag k="name" v="Prestkampen" />
		<tag k="natural" v="hill" />
		<tag k="place" v="locality" />
		<tag k="ssr:stedsnr" v="372293" />
	</node>
	<node id="-380057" lat="61.3719055533" lon="10.1784750073">
		<tag k="alt_name" v="Skjenfjellet;Skinnfjellet" />
		<tag k="fixme" v="consider natural=peak for the most distinct mountains in the district" />
		<tag k="name" v="Skjenafjellet" />
		<tag k="natural" v="hill" />
		<tag k="place" v="locality" />
		<tag k="ssr:stedsnr" v="371994" />
	</node>
	<node id="-380055" lat="61.2323305547" lon="9.95901944355">
		<tag k="fixme" v="consider natural=peak for the most distinct mountains in the district" />
		<tag k="name" v="Hykilåsen" />
		<tag k="natural" v="hill" />
		<tag k="place" v="locality" />
		<tag k="ssr:stedsnr" v="371491" />
	</node>
	<node id="-378593" lat="61.2922777817" lon="9.94698611421">
		<tag k="name" v="Høgberget" />
		<tag k="place" v="locality" />
		<tag k="ssr:stedsnr" v="354838" />
	</node>
	<node id="-380044" lat="61.3611111111" lon="10.0532999953">
		<tag k="name" v="Langhaugen" />
		<tag k="natural" v="hill" />
		<tag k="place" v="locality" />
		<tag k="ssr:stedsnr" v="361193" />
	</node>
	<node id="-380041" lat="61.1936416703" lon="10.1854888945">
		<tag k="name" v="Kalstadlia" />
		<tag k="natural" v="slope" />
		<tag k="place" v="locality" />
		<tag k="ssr:stedsnr" v="359078" />
	</node>
	<node id="-380031" lat="61.2439388846" lon="9.99321667554">
		<tag k="name" v="Langbergdalen" />
		<tag k="natural" v="valley" />
		<tag k="place" v="locality" />
		<tag k="ssr:stedsnr" v="355753" />
	</node>
	<node id="-380029" lat="61.2610861092" lon="9.84367500754">
		<tag k="name" v="Jutulskåra" />
		<tag k="natural" v="valley" />
		<tag k="place" v="locality" />
		<tag k="ssr:stedsnr" v="355281" />
	</node>
	<node id="-380028" lat="61.223269446" lon="9.97504166891">
		<tag k="name" v="Vålålia" />
		<tag k="natural" v="slope" />
		<tag k="place" v="locality" />
		<tag k="ssr:stedsnr" v="355258" />
	</node>
	<node id="-378388" lat="61.3400805535" lon="9.75403054897">
		<tag k="name" v="Liabrånåan" />
		<tag k="natural" v="hill" />
		<tag k="place" v="locality" />
		<tag k="ssr:stedsnr" v="293806" />
	</node>
	<node id="-380017" lat="61.3508083363" lon="9.7230472145">
		<tag k="name" v="Veslengbakken" />
		<tag k="natural" v="slope" />
		<tag k="old_name" v="Veselengbakken" />
		<tag k="place" v="locality" />
		<tag k="ssr:stedsnr" v="354888" />
	</node>
	<node id="-380003" lat="61.2946027786" lon="10.0939388963">
		<tag k="name" v="Bjørga" />
		<tag k="natural" v="hill" />
		<tag k="place" v="locality" />
		<tag k="ssr:stedsnr" v="354662" />
	</node>
	<node id="-380002" lat="61.2845472217" lon="10.1082916621">
		<tag k="name" v="Svartdalen" />
		<tag k="natural" v="valley" />
		<tag k="place" v="locality" />
		<tag k="ssr:stedsnr" v="354661" />
	</node>
	<node id="-379998" lat="61.3290166686" lon="9.70808333502">
		<tag k="name" v="Brennsnytdalen" />
		<tag k="natural" v="valley" />
		<tag k="place" v="locality" />
		<tag k="ssr:stedsnr" v="354465" />
	</node>
	<node id="-379987" lat="61.3714972251" lon="9.71538611887">
		<tag k="name" v="Grønnbakken" />
		<tag k="natural" v="slope" />
		<tag k="place" v="locality" />
		<tag k="ssr:stedsnr" v="354123" />
	</node>
	<node id="-379986" lat="61.3548222189" lon="9.62874721935">
		<tag k="name" v="Rauhaugen" />
		<tag k="natural" v="hill" />
		<tag k="place" v="locality" />
		<tag k="ssr:stedsnr" v="354013" />
	</node>
	<node id="-379984" lat="61.3465305573" lon="10.0288055474">
		<tag k="name" v="Langlia" />
		<tag k="natural" v="slope" />
		<tag k="place" v="locality" />
		<tag k="ssr:stedsnr" v="353991" />
	</node>
	<node id="-379981" lat="61.3323416706" lon="9.97538332428">
		<tag k="name" v="Romsdalslia" />
		<tag k="natural" v="slope" />
		<tag k="place" v="locality" />
		<tag k="ssr:stedsnr" v="353870" />
	</node>
	<node id="-379979" lat="61.3214361146" lon="9.77762223052">
		<tag k="name" v="Sneibergan" />
		<tag k="natural" v="slope" />
		<tag k="place" v="locality" />
		<tag k="ssr:stedsnr" v="353623" />
	</node>
	<node id="-379977" lat="61.3221722212" lon="9.84791388773">
		<tag k="name" v="Sandbakkhaugen" />
		<tag k="natural" v="hill" />
		<tag k="place" v="locality" />
		<tag k="ssr:stedsnr" v="353617" />
	</node>
	<node id="-379975" lat="61.3007916709" lon="9.86734721496">
		<tag k="name" v="Lusbudalen" />
		<tag k="natural" v="valley" />
		<tag k="place" v="locality" />
		<tag k="ssr:stedsnr" v="353560" />
	</node>
	<node id="-379973" lat="61.3203861093" lon="9.8262722223">
		<tag k="name" v="Holberget" />
		<tag k="place" v="locality" />
		<tag k="ssr:stedsnr" v="353548" />
	</node>
	<node id="-379969" lat="61.2990277772" lon="10.0272111199">
		<tag k="name" v="Nyliuslettet" />
		<tag k="place" v="locality" />
		<tag k="ssr:stedsnr" v="353257" />
	</node>
	<node id="-379961" lat="61.3299138865" lon="9.91796389042">
		<tag k="name" v="Liaslettene" />
		<tag k="place" v="locality" />
		<tag k="ssr:stedsnr" v="352815" />
	</node>
	<node id="-379958" lat="61.393483337" lon="9.65271943684">
		<tag k="name" v="Grasglupen" />
		<tag k="natural" v="slope" />
		<tag k="place" v="locality" />
		<tag k="ssr:stedsnr" v="352547" />
	</node>
	<node id="-378377" lat="61.3131972258" lon="9.9391944359">
		<tag k="name" v="Flågåslettet" />
		<tag k="place" v="locality" />
		<tag k="ssr:stedsnr" v="293177" />
	</node>
	<node id="-379956" lat="61.3801444453" lon="10.0694916731">
		<tag k="name" v="Torsdalsleitet" />
		<tag k="natural" v="slope" />
		<tag k="place" v="locality" />
		<tag k="ssr:stedsnr" v="352075" />
	</node>
	<node id="-379953" lat="61.2564055563" lon="9.97798610393">
		<tag k="name" v="Øvre Gjestebuslettet" />
		<tag k="place" v="locality" />
		<tag k="ssr:stedsnr" v="341984" />
	</node>
	<node id="-379952" lat="61.2764861091" lon="10.0435805641">
		<tag k="name" v="Tøftumsbakkenget" />
		<tag k="place" v="locality" />
		<tag k="ssr:stedsnr" v="340676" />
	</node>
	<node id="-379950" lat="61.364886111" lon="9.5727583388">
		<tag k="name" v="Bratteskardet" />
		<tag k="natural" v="valley" />
		<tag k="place" v="locality" />
		<tag k="ssr:stedsnr" v="312441" />
	</node>
	<node id="-379944" lat="61.3923972202" lon="10.1084000045">
		<tag k="alt_name" v="Bånsæterkampane" />
		<tag k="fixme" v="consider natural=peak for the most distinct mountains in the district" />
		<tag k="name" v="Bånsæterkampen" />
		<tag k="natural" v="hill" />
		<tag k="place" v="locality" />
		<tag k="ssr:stedsnr" v="311914" />
	</node>
	<node id="-378374" lat="61.3335027761" lon="10.1737833388">
		<tag k="name" v="Killia" />
		<tag k="natural" v="slope" />
		<tag k="place" v="locality" />
		<tag k="ssr:stedsnr" v="293099" />
	</node>
	<node id="-379938" lat="61.2582083311" lon="10.0962694358">
		<tag k="name" v="Trettehøgda" />
		<tag k="natural" v="hill" />
		<tag k="place" v="locality" />
		<tag k="ssr:stedsnr" v="311856" />
	</node>
	<node id="-379923" lat="61.2372499974" lon="9.61050554642">
		<tag k="alt_name" v="Liomsæterhaugen, yt" />
		<tag k="name" v="Ytre Liomsæterhaugen" />
		<tag k="natural" v="hill" />
		<tag k="place" v="locality" />
		<tag k="ssr:stedsnr" v="311547" />
	</node>
	<node id="-378711" lat="61.3910194464" lon="9.71246111526">
		<tag k="name" v="Putterhaugen" />
		<tag k="natural" v="hill" />
		<tag k="place" v="locality" />
		<tag k="ssr:stedsnr" v="413291" />
	</node>
	<node id="-379900" lat="61.2249972186" lon="9.59403333317">
		<tag k="name" v="Gjellbergan" />
		<tag k="place" v="locality" />
		<tag k="ssr:stedsnr" v="300839" />
	</node>
	<node id="-379897" lat="61.2586249971" lon="9.52506666375">
		<tag k="fixme" v="consider natural=peak for the most distinct mountains in the district" />
		<tag k="name" v="Brennfjellet" />
		<tag k="natural" v="hill" />
		<tag k="place" v="locality" />
		<tag k="ssr:stedsnr" v="191243" />
	</node>
	<node id="-379892" lat="61.3571694479" lon="10.1796250003">
		<tag k="alt_name" v="Kidliknappen;Kiliknappen;Killikampen" />
		<tag k="fixme" v="consider natural=peak for the most distinct mountains in the district" />
		<tag k="name" v="Killiknappen" />
		<tag k="natural" v="hill" />
		<tag k="place" v="locality" />
		<tag k="ssr:stedsnr" v="190974" />
	</node>
	<node id="-379890" lat="61.2962249967" lon="10.0456888933">
		<tag k="name" v="Gullroa" />
		<tag k="natural" v="hill" />
		<tag k="place" v="locality" />
		<tag k="ssr:stedsnr" v="190795" />
	</node>
	<node id="-379884" lat="61.367141663" lon="9.70544722043">
		<tag k="name" v="Trona" />
		<tag k="natural" v="hill" />
		<tag k="place" v="locality" />
		<tag k="ssr:stedsnr" v="190682" />
	</node>
	<node id="-379883" lat="61.3522027776" lon="9.66900278644">
		<tag k="name" v="Storhaugen" />
		<tag k="natural" v="hill" />
		<tag k="place" v="locality" />
		<tag k="ssr:stedsnr" v="190672" />
	</node>
	<node id="-379882" lat="61.3140944468" lon="9.64249443732">
		<tag k="name" v="Ongsjølia" />
		<tag k="natural" v="slope" />
		<tag k="place" v="locality" />
		<tag k="ssr:stedsnr" v="190668" />
	</node>
	<node id="-380577" lat="61.2871972235" lon="9.46148334172">
		<tag k="name" v="Nonstjønnengene" />
		<tag k="place" v="locality" />
		<tag k="ssr:stedsnr" v="737249" />
	</node>
	<node id="-379876" lat="61.1989138884" lon="9.81268888095">
		<tag k="name" v="Storskardet" />
		<tag k="natural" v="valley" />
		<tag k="place" v="locality" />
		<tag k="ssr:stedsnr" v="190526" />
	</node>
	<node id="-379872" lat="61.3025777746" lon="9.38294165884">
		<tag k="name" v="Massingholet" />
		<tag k="natural" v="valley" />
		<tag k="place" v="locality" />
		<tag k="ssr:stedsnr" v="190491" />
	</node>
	<node id="-379862" lat="61.2186416657" lon="9.52190000336">
		<tag k="alt_name" v="Skruvedalsknatten" />
		<tag k="fixme" v="consider natural=peak for the most distinct mountains in the district" />
		<tag k="name" v="Skruvdalstinden" />
		<tag k="natural" v="hill" />
		<tag k="ssr:stedsnr" v="189999" />
	</node>
	<node id="-378361" lat="61.3194916632" lon="9.83743611416">
		<tag k="name" v="Nyenget" />
		<tag k="natural" v="slope" />
		<tag k="place" v="locality" />
		<tag k="ssr:stedsnr" v="292516" />
	</node>
	<node id="-379859" lat="61.2423153835" lon="9.56522471924">
		<tag k="fixme" v="multiple name tags, choose one and add the other to alt_name" />
		<tag k="name" v="Bukkehaugen;Falkhaugen" />
		<tag k="natural" v="hill" />
		<tag k="place" v="locality" />
		<tag k="ssr:stedsnr" v="189723" />
	</node>
	<node id="-379858" lat="61.1962749964" lon="9.63613333742">
		<tag k="name" v="Kudalen" />
		<tag k="natural" v="valley" />
		<tag k="place" v="locality" />
		<tag k="ssr:stedsnr" v="189490" />
	</node>
	<node id="-379848" lat="61.3764944462" lon="10.0029194506">
		<tag k="name" v="Massingtjønndokka" />
		<tag k="natural" v="valley" />
		<tag k="place" v="locality" />
		<tag k="ssr:stedsnr" v="179813" />
	</node>
	<node id="-379846" lat="61.3773055513" lon="10.0502500078">
		<tag k="name" v="Stryphøgda" />
		<tag k="natural" v="hill" />
		<tag k="place" v="locality" />
		<tag k="ssr:stedsnr" v="179174" />
	</node>
	<node id="-379845" lat="61.375261112" lon="9.95486389626">
		<tag k="name" v="Lengna" />
		<tag k="natural" v="hill" />
		<tag k="place" v="locality" />
		<tag k="ssr:stedsnr" v="179351" />
	</node>
	<node id="-379844" lat="61.3769916702" lon="9.76163610964">
		<tag k="name" v="Elgsletthøgda" />
		<tag k="natural" v="hill" />
		<tag k="place" v="locality" />
		<tag k="ssr:stedsnr" v="178501" />
	</node>
	<node id="-378518" lat="61.4128333334" lon="9.57684166382">
		<tag k="name" v="Flatberget" />
		<tag k="place" v="locality" />
		<tag k="ssr:stedsnr" v="474868" />
	</node>
	<node id="-379837" lat="61.2626777741" lon="10.0767388882">
		<tag k="name" v="Englandslia" />
		<tag k="natural" v="slope" />
		<tag k="place" v="locality" />
		<tag k="ssr:stedsnr" v="173937" />
	</node>
	<node id="-379836" lat="61.146425003" lon="10.0663305639">
		<tag k="name" v="Nysæterskardet" />
		<tag k="natural" v="valley" />
		<tag k="place" v="locality" />
		<tag k="ssr:stedsnr" v="173909" />
	</node>
	<node id="-379830" lat="61.2479861136" lon="10.0008166674">
		<tag k="name" v="Beljestylen" />
		<tag k="place" v="locality" />
		<tag k="ssr:stedsnr" v="173740" />
	</node>
	<node id="-379827" lat="61.2241805597" lon="10.0592972309">
		<tag k="name" v="Børkhågålia" />
		<tag k="natural" v="slope" />
		<tag k="place" v="locality" />
		<tag k="ssr:stedsnr" v="173557" />
	</node>
	<node id="-379824" lat="61.2543361082" lon="10.1243027768">
		<tag k="name" v="Fykselia" />
		<tag k="natural" v="slope" />
		<tag k="place" v="locality" />
		<tag k="ssr:stedsnr" v="173223" />
	</node>
	<node id="-379822" lat="61.2068944475" lon="10.0970194384">
		<tag k="name" v="Nigardslia" />
		<tag k="natural" v="slope" />
		<tag k="place" v="locality" />
		<tag k="ssr:stedsnr" v="173026" />
	</node>
	<node id="-379815" lat="61.3759250001" lon="9.67624999488">
		<tag k="name" v="Essdalslia" />
		<tag k="natural" v="slope" />
		<tag k="place" v="locality" />
		<tag k="ssr:stedsnr" v="172924" />
	</node>
	<node id="-379814" lat="61.3561861142" lon="9.71756111025">
		<tag k="name" v="Stavvedholan" />
		<tag k="natural" v="slope" />
		<tag k="place" v="locality" />
		<tag k="ssr:stedsnr" v="172903" />
	</node>
	<node id="-378353" lat="61.3850527816" lon="10.0980555614">
		<tag k="name" v="Måråbeitsletta" />
		<tag k="natural" v="slope" />
		<tag k="place" v="locality" />
		<tag k="ssr:stedsnr" v="292066" />
	</node>
	<node id="-379808" lat="61.3289333298" lon="9.74690555433">
		<tag k="name" v="Synsgardsæterlia" />
		<tag k="natural" v="slope" />
		<tag k="place" v="locality" />
		<tag k="ssr:stedsnr" v="172483" />
	</node>
	<node id="-379806" lat="61.3335138905" lon="9.71171666605">
		<tag k="name" v="Vaslettbakken" />
		<tag k="natural" v="hill" />
		<tag k="place" v="locality" />
		<tag k="ssr:stedsnr" v="172477" />
	</node>
	<node id="-379804" lat="61.3311555584" lon="9.66674444436">
		<tag k="name" v="Ågotdalen" />
		<tag k="natural" v="valley" />
		<tag k="place" v="locality" />
		<tag k="ssr:stedsnr" v="172461" />
	</node>
	<node id="-379801" lat="61.3494166707" lon="9.68633332682">
		<tag k="name" v="Brånån" />
		<tag k="natural" v="slope" />
		<tag k="place" v="locality" />
		<tag k="ssr:stedsnr" v="172344" />
	</node>
	<node id="-379880" lat="61.287858337" lon="10.1090583328">
		<tag k="name" v="Hovdekollen" />
		<tag k="natural" v="hill" />
		<tag k="place" v="locality" />
		<tag k="ssr:stedsnr" v="190789" />
	</node>
	<node id="-379785" lat="61.3322361152" lon="9.82647222158">
		<tag k="name" v="Sålåvollan" />
		<tag k="place" v="locality" />
		<tag k="ssr:stedsnr" v="171553" />
	</node>
	<node id="-379777" lat="61.4134361088" lon="9.57833333876">
		<tag k="name" v="Kampeholet" />
		<tag k="natural" v="valley" />
		<tag k="place" v="locality" />
		<tag k="ssr:stedsnr" v="170891" />
	</node>
	<node id="-379776" lat="61.3382722198" lon="9.84756388433">
		<tag k="name" v="Husdalen" />
		<tag k="natural" v="valley" />
		<tag k="place" v="locality" />
		<tag k="ssr:stedsnr" v="170652" />
	</node>
	<node id="-379774" lat="61.3901888879" lon="9.69819722529">
		<tag k="name" v="Revhaugan" />
		<tag k="natural" v="hill" />
		<tag k="place" v="locality" />
		<tag k="ssr:stedsnr" v="170555" />
	</node>
	<node id="-379773" lat="61.3882777776" lon="9.91170278702">
		<tag k="name" v="Lykkjehaugan" />
		<tag k="natural" v="hill" />
		<tag k="place" v="locality" />
		<tag k="ssr:stedsnr" v="170289" />
	</node>
	<node id="-380508" lat="61.2182749984" lon="9.86060276852">
		<tag k="name" v="Hornsjøkampen" />
		<tag k="natural" v="hill" />
		<tag k="place" v="locality" />
		<tag k="ssr:stedsnr" v="614536" />
	</node>
	<node id="-379770" lat="61.3619222228" lon="10.1725833341">
		<tag k="name" v="Rundhaugen" />
		<tag k="natural" v="hill" />
		<tag k="place" v="locality" />
		<tag k="ssr:stedsnr" v="170141" />
	</node>
	<node id="-379763" lat="61.3176555546" lon="9.58812776996">
		<tag k="name" v="Hundkjølen" />
		<tag k="place" v="locality" />
		<tag k="ssr:stedsnr" v="130443" />
	</node>
	<node id="-379762" lat="61.3069250031" lon="9.57695000268">
		<tag k="name" v="Revsjølia" />
		<tag k="natural" v="slope" />
		<tag k="place" v="locality" />
		<tag k="ssr:stedsnr" v="130435" />
	</node>
	<node id="-379759" lat="61.2608250005" lon="9.55477777246">
		<tag k="fixme" v="consider natural=peak for the most distinct mountains in the district" />
		<tag k="name" v="Vakkerlifjellet" />
		<tag k="natural" v="hill" />
		<tag k="place" v="locality" />
		<tag k="ssr:stedsnr" v="130257" />
	</node>
	<node id="-379757" lat="61.3536750002" lon="10.036725001">
		<tag k="fixme" v="consider natural=peak for the most distinct mountains in the district" />
		<tag k="name" v="Frøysesæterhøgda" />
		<tag k="natural" v="hill" />
		<tag k="place" v="locality" />
		<tag k="ssr:stedsnr" v="129974" />
	</node>
	<node id="-378856" lat="61.2697666665" lon="9.93810276996">
		<tag k="name" v="Viknekjølen" />
		<tag k="natural" v="ridge" />
		<tag k="place" v="locality" />
		<tag k="ssr:stedsnr" v="676733" />
	</node>
	<node id="-378242" lat="61.3508444468" lon="10.0881611084">
		<tag k="fixme" v="consider natural=peak for the most distinct mountains in the district" />
		<tag k="name" v="Skeikampen" />
		<tag k="natural" v="hill" />
		<tag k="place" v="locality" />
		<tag k="ssr:stedsnr" v="250963" />
	</node>
	<node id="-379743" lat="61.3499638919" lon="9.69811944074">
		<tag k="name" v="Sekken" />
		<tag k="natural" v="hill" />
		<tag k="place" v="locality" />
		<tag k="ssr:stedsnr" v="129661" />
	</node>
	<node id="-378681" lat="61.243925" lon="9.52112499567">
		<tag k="alt_name" v="Skyttarbufjellet" />
		<tag k="fixme" v="consider natural=peak for the most distinct mountains in the district" />
		<tag k="name" v="Skytterbufjellet" />
		<tag k="natural" v="hill" />
		<tag k="place" v="locality" />
		<tag k="ssr:stedsnr" v="371759" />
	</node>
	<node id="-379711" lat="61.4067833352" lon="9.63093333384">
		<tag k="name" v="Måsåglupen" />
		<tag k="natural" v="valley" />
		<tag k="place" v="locality" />
		<tag k="ssr:stedsnr" v="119436" />
	</node>
	<node id="-379706" lat="61.2140416671" lon="10.1276138829">
		<tag k="name" v="Kurud" />
		<tag k="natural" v="slope" />
		<tag k="place" v="locality" />
		<tag k="ssr:stedsnr" v="118187" />
	</node>
	<node id="-379699" lat="61.2596611083" lon="10.269691665">
		<tag k="name" v="Follebukjølen" />
		<tag k="place" v="locality" />
		<tag k="ssr:stedsnr" v="116457" />
	</node>
	<node id="-379697" lat="61.2491722227" lon="10.2832277723">
		<tag k="name" v="Revberg" />
		<tag k="natural" v="hill" />
		<tag k="place" v="locality" />
		<tag k="ssr:stedsnr" v="115968" />
	</node>
	<node id="-379690" lat="61.4133638926" lon="9.78832499517">
		<tag k="name" v="Snulter" />
		<tag k="place" v="locality" />
		<tag k="ssr:stedsnr" v="113553" />
	</node>
	<node id="-379683" lat="61.1286666674" lon="10.0467027864">
		<tag k="name" v="Mjogsjølia" />
		<tag k="natural" v="slope" />
		<tag k="place" v="locality" />
		<tag k="ssr:stedsnr" v="112863" />
	</node>
	<node id="-379678" lat="61.2928333293" lon="10.0984499922">
		<tag k="name" v="Drituskaret" />
		<tag k="natural" v="valley" />
		<tag k="place" v="locality" />
		<tag k="ssr:stedsnr" v="112638" />
	</node>
	<node id="-379669" lat="61.3536083375" lon="9.68463055758">
		<tag k="name" v="Roasæterlia" />
		<tag k="natural" v="slope" />
		<tag k="place" v="locality" />
		<tag k="ssr:stedsnr" v="112359" />
	</node>
	<node id="-379668" lat="61.2265416708" lon="9.89098333376">
		<tag k="name" v="Kåsslettet" />
		<tag k="place" v="locality" />
		<tag k="ssr:stedsnr" v="112224" />
	</node>
	<node id="-379664" lat="61.3248500024" lon="9.64326110631">
		<tag k="name" v="Svartbergan" />
		<tag k="place" v="locality" />
		<tag k="ssr:stedsnr" v="112207" />
	</node>
	<node id="-379663" lat="61.1654666702" lon="9.99217778476">
		<tag k="name" v="Merraberget" />
		<tag k="natural" v="hill" />
		<tag k="place" v="locality" />
		<tag k="ssr:stedsnr" v="112079" />
	</node>
	<node id="-379660" lat="61.3218666674" lon="9.96265555769">
		<tag k="name" v="Blesterhaugen" />
		<tag k="natural" v="hill" />
		<tag k="place" v="locality" />
		<tag k="ssr:stedsnr" v="111842" />
	</node>
	<node id="-379659" lat="61.3505638908" lon="10.0485138969">
		<tag k="name" v="Bøsdokka" />
		<tag k="natural" v="valley" />
		<tag k="place" v="locality" />
		<tag k="ssr:stedsnr" v="111973" />
	</node>
	<node id="-379648" lat="61.3341194456" lon="9.70044444074">
		<tag k="name" v="Stenbakkslettet" />
		<tag k="place" v="locality" />
		<tag k="ssr:stedsnr" v="111269" />
	</node>
	<node id="-379647" lat="61.3609055578" lon="9.7235611153">
		<tag k="name" v="Tømmerhaugan" />
		<tag k="natural" v="hill" />
		<tag k="place" v="locality" />
		<tag k="ssr:stedsnr" v="111089" />
	</node>
	<node id="-379645" lat="61.3194916708" lon="10.0653888867">
		<tag k="name" v="Svarttjønnlia" />
		<tag k="natural" v="slope" />
		<tag k="place" v="locality" />
		<tag k="ssr:stedsnr" v="111031" />
	</node>
	<node id="-379644" lat="61.4148361152" lon="9.57427499314">
		<tag k="name" v="Skorokampen" />
		<tag k="natural" v="hill" />
		<tag k="place" v="locality" />
		<tag k="ssr:stedsnr" v="110874" />
	</node>
	<node id="-379641" lat="61.3504694428" lon="9.82934722165">
		<tag k="name" v="Lykkjeslettet" />
		<tag k="place" v="locality" />
		<tag k="ssr:stedsnr" v="110672" />
	</node>
	<node id="-379639" lat="61.3524250023" lon="9.84405833466">
		<tag k="name" v="Vesleslettet" />
		<tag k="place" v="locality" />
		<tag k="ssr:stedsnr" v="110668" />
	</node>
	<node id="-379638" lat="61.3996527792" lon="9.64897222992">
		<tag k="name" v="Svartbergan" />
		<tag k="place" v="locality" />
		<tag k="ssr:stedsnr" v="110591" />
	</node>
	<node id="-379637" lat="61.3843111073" lon="9.64489444123">
		<tag k="name" v="Teinhaugen" />
		<tag k="natural" v="hill" />
		<tag k="place" v="locality" />
		<tag k="ssr:stedsnr" v="110575" />
	</node>
	<node id="-379636" lat="61.3244638871" lon="9.83897222355">
		<tag k="name" v="Veslihaugen" />
		<tag k="natural" v="hill" />
		<tag k="place" v="locality" />
		<tag k="ssr:stedsnr" v="110562" />
	</node>
	<node id="-379635" lat="61.3968694476" lon="9.74188055478">
		<tag k="name" v="Brenndalen" />
		<tag k="natural" v="valley" />
		<tag k="place" v="locality" />
		<tag k="ssr:stedsnr" v="110344" />
	</node>
	<node id="-379629" lat="61.389791663" lon="10.0803972312">
		<tag k="name" v="Myrsæterskaret" />
		<tag k="natural" v="valley" />
		<tag k="place" v="locality" />
		<tag k="ssr:stedsnr" v="110067" />
	</node>
	<node id="-379628" lat="61.4072000002" lon="9.5840055576">
		<tag k="name" v="Slettene" />
		<tag k="place" v="locality" />
		<tag k="ssr:stedsnr" v="110066" />
	</node>
	<node id="-378320" lat="61.3876444409" lon="9.87991666494">
		<tag k="name" v="Tverrådalen" />
		<tag k="natural" v="valley" />
		<tag k="place" v="locality" />
		<tag k="ssr:stedsnr" v="171736" />
	</node>
	<node id="-379610" lat="61.2383027735" lon="9.88290832602">
		<tag k="name" v="Høglikollen" />
		<tag k="natural" v="hill" />
		<tag k="place" v="locality" />
		<tag k="ssr:stedsnr" v="69594" />
	</node>
	<node id="-379608" lat="61.2943000001" lon="9.40469999474">
		<tag k="name" v="Fatkvolven" />
		<tag k="natural" v="valley" />
		<tag k="place" v="locality" />
		<tag k="ssr:stedsnr" v="69286" />
	</node>
	<node id="-379603" lat="61.4002272242" lon="10.0565864053">
		<tag k="alt_name" v="Allmannskaret;Almannaskaret" />
		<tag k="name" v="Ålmannskardet" />
		<tag k="natural" v="valley" />
		<tag k="place" v="locality" />
		<tag k="ssr:stedsnr" v="68901" />
	</node>
	<node id="-379601" lat="61.1883527816" lon="9.7757888959">
		<tag k="name" v="Snæreskampen" />
		<tag k="natural" v="hill" />
		<tag k="place" v="locality" />
		<tag k="ssr:stedsnr" v="68748" />
	</node>
	<node id="-379599" lat="61.1833527791" lon="9.62437777446">
		<tag k="fixme" v="consider natural=peak for the most distinct mountains in the district" />
		<tag k="name" v="Skjellbreidskampen" />
		<tag k="natural" v="hill" />
		<tag k="place" v="locality" />
		<tag k="ssr:stedsnr" v="68744" />
	</node>
	<node id="-379596" lat="61.373283336" lon="9.90673611482">
		<tag k="name" v="Bennsjøhaugen" />
		<tag k="natural" v="hill" />
		<tag k="place" v="locality" />
		<tag k="ssr:stedsnr" v="68683" />
	</node>
	<node id="-380023" lat="61.2725972199" lon="10.2202277728">
		<tag k="name" v="Langmyrhaugen" />
		<tag k="natural" v="hill" />
		<tag k="place" v="locality" />
		<tag k="ssr:stedsnr" v="355098" />
	</node>
	<node id="-379592" lat="61.3816247603" lon="9.75971232717">
		<tag k="name" v="Svarthaugen" />
		<tag k="natural" v="hill" />
		<tag k="place" v="locality" />
		<tag k="ssr:stedsnr" v="68358" />
	</node>
	<node id="-378079" lat="61.3957583355" lon="9.6741499957">
		<tag k="name" v="Nordre Stordalen" />
		<tag k="natural" v="valley" />
		<tag k="place" v="locality" />
		<tag k="ssr:stedsnr" v="231618" />
	</node>
	<node id="-378850" lat="61.2580027765" lon="9.49718333453">
		<tag k="name" v="Brennfjelldokka" />
		<tag k="natural" v="valley" />
		<tag k="place" v="locality" />
		<tag k="ssr:stedsnr" v="676245" />
	</node>
	<node id="-379568" lat="61.3825333335" lon="10.0192083335">
		<tag k="name" v="Skaret" />
		<tag k="natural" v="valley" />
		<tag k="place" v="locality" />
		<tag k="ssr:stedsnr" v="58557" />
	</node>
	<node id="-379558" lat="61.2357472226" lon="10.1503916647">
		<tag k="name" v="Majorsliringen" />
		<tag k="natural" v="hill" />
		<tag k="place" v="locality" />
		<tag k="ssr:stedsnr" v="52225" />
	</node>
	<node id="-379556" lat="61.3523250016" lon="9.72304444711">
		<tag k="name" v="Nyrønningen" />
		<tag k="natural" v="slope" />
		<tag k="place" v="locality" />
		<tag k="ssr:stedsnr" v="51893" />
	</node>
	<node id="-379552" lat="61.2728611129" lon="10.097958334">
		<tag k="name" v="Storslågån" />
		<tag k="natural" v="slope" />
		<tag k="place" v="locality" />
		<tag k="ssr:stedsnr" v="51841" />
	</node>
	<node id="-379544" lat="61.3233333326" lon="9.71309166209">
		<tag k="name" v="Skarvhøgda" />
		<tag k="natural" v="hill" />
		<tag k="place" v="locality" />
		<tag k="ssr:stedsnr" v="51526" />
	</node>
	<node id="-379543" lat="61.3280888871" lon="9.66585834158">
		<tag k="name" v="Ågotskaret" />
		<tag k="natural" v="valley" />
		<tag k="place" v="locality" />
		<tag k="ssr:stedsnr" v="51486" />
	</node>
	<node id="-379531" lat="61.3238944437" lon="10.1780944502">
		<tag k="name" v="Svartdalen" />
		<tag k="natural" v="valley" />
		<tag k="place" v="locality" />
		<tag k="ssr:stedsnr" v="50062" />
	</node>
	<node id="-379525" lat="61.3220111115" lon="9.89563610672">
		<tag k="name" v="Putterslettet" />
		<tag k="place" v="locality" />
		<tag k="ssr:stedsnr" v="49932" />
	</node>
	<node id="-379522" lat="61.3542222233" lon="10.1068277724">
		<tag k="name" v="Åmothøgda" />
		<tag k="natural" v="hill" />
		<tag k="place" v="locality" />
		<tag k="ssr:stedsnr" v="49888" />
	</node>
	<node id="-379521" lat="61.3343096688" lon="9.90468289477">
		<tag k="alt_name" v="Kjørkjebøringen" />
		<tag k="name" v="Kyrkjebøringen" />
		<tag k="place" v="locality" />
		<tag k="ssr:stedsnr" v="49844" />
	</node>
	<node id="-379518" lat="61.4110611083" lon="9.79487499403">
		<tag k="name" v="Kleivhaugen" />
		<tag k="natural" v="hill" />
		<tag k="place" v="locality" />
		<tag k="ssr:stedsnr" v="49813" />
	</node>
	<node id="-379509" lat="61.4008944469" lon="9.81519721872">
		<tag k="name" v="Storbakkan" />
		<tag k="natural" v="hill" />
		<tag k="place" v="locality" />
		<tag k="ssr:stedsnr" v="49125" />
	</node>
	<node id="-379507" lat="61.3496305579" lon="10.0893722178">
		<tag k="name" v="Middagsskaret" />
		<tag k="natural" v="valley" />
		<tag k="place" v="locality" />
		<tag k="ssr:stedsnr" v="50338" />
	</node>
	<node id="-379497" lat="61.2907694407" lon="10.2230611184">
		<tag k="name" v="Eftaskampen" />
		<tag k="natural" v="hill" />
		<tag k="place" v="locality" />
		<tag k="ssr:stedsnr" v="9771" />
	</node>
	<node id="-379493" lat="61.2693111095" lon="10.0525333267">
		<tag k="name" v="Muribrekkhøgda" />
		<tag k="natural" v="hill" />
		<tag k="place" v="locality" />
		<tag k="ssr:stedsnr" v="8860" />
	</node>
	<node id="-379482" lat="61.3203333371" lon="9.94123332994">
		<tag k="name" v="Kjøpmannsletthaugen" />
		<tag k="natural" v="hill" />
		<tag k="place" v="locality" />
		<tag k="ssr:stedsnr" v="8680" />
	</node>
	<node id="-379481" lat="61.3036277778" lon="9.62047499828">
		<tag k="alt_name" v="Skomakeråsen" />
		<tag k="fixme" v="consider natural=peak for the most distinct mountains in the district" />
		<tag k="name" v="Skomakaråsen" />
		<tag k="natural" v="hill" />
		<tag k="place" v="locality" />
		<tag k="ssr:stedsnr" v="8679" />
	</node>
	<node id="-378297" lat="61.2729333322" lon="10.0719416729">
		<tag k="name" v="Stakkmyrhaugen" />
		<tag k="natural" v="hill" />
		<tag k="place" v="locality" />
		<tag k="ssr:stedsnr" v="113931" />
	</node>
	<node id="-379476" lat="61.248797221" lon="9.64138889112">
		<tag k="alt_name" v="Suluhøgda, nordre" />
		<tag k="name" v="Nordre Suluhø" />
		<tag k="natural" v="hill" />
		<tag k="place" v="locality" />
		<tag k="ssr:stedsnr" v="8773" />
	</node>
	<node id="-379474" lat="61.2757166627" lon="9.65943332921">
		<tag k="alt_name" v="Revåkampen, nordre" />
		<tag k="fixme" v="consider natural=peak for the most distinct mountains in the district" />
		<tag k="name" v="Nordre Revåkampen" />
		<tag k="natural" v="hill" />
		<tag k="place" v="locality" />
		<tag k="ssr:stedsnr" v="8765" />
	</node>
	<node id="-378288" lat="61.2528666711" lon="9.78448332761">
		<tag k="name" v="Fjelltore" />
		<tag k="natural" v="hill" />
		<tag k="place" v="locality" />
		<tag k="ssr:stedsnr" v="112343" />
	</node>
	<node id="-379401" lat="61.2529194405" lon="9.57513889698">
		<tag k="name" v="Vakkerlia" />
		<tag k="natural" v="slope" />
		<tag k="place" v="locality" />
		<tag k="ssr:stedsnr" v="968054" />
	</node>
	<node id="-379397" lat="61.2557722233" lon="10.32430278">
		<tag k="name" v="Tempelberget" />
		<tag k="natural" v="hill" />
		<tag k="place" v="locality" />
		<tag k="ssr:stedsnr" v="964056" />
	</node>
	<node id="-379396" lat="61.268811112" lon="9.98419167093">
		<tag k="name" v="Ovnskotohøgda" />
		<tag k="natural" v="hill" />
		<tag k="place" v="locality" />
		<tag k="ssr:stedsnr" v="962974" />
	</node>
	<node id="-379380" lat="61.2877472262" lon="10.0999333424">
		<tag k="name" v="Grøndokka" />
		<tag k="natural" v="hill" />
		<tag k="place" v="locality" />
		<tag k="ssr:stedsnr" v="961661" />
	</node>
	<node id="-379376" lat="61.3454444482" lon="9.92894443712">
		<tag k="name" v="Revhaugan" />
		<tag k="natural" v="hill" />
		<tag k="place" v="locality" />
		<tag k="ssr:stedsnr" v="960962" />
	</node>
	<node id="-379374" lat="61.3341333296" lon="9.97228056185">
		<tag k="name" v="Romsdalsberget" />
		<tag k="natural" v="hill" />
		<tag k="place" v="locality" />
		<tag k="ssr:stedsnr" v="960857" />
	</node>
	<node id="-379373" lat="61.3252944472" lon="9.8754777824">
		<tag k="name" v="Skårbakkan" />
		<tag k="natural" v="slope" />
		<tag k="place" v="locality" />
		<tag k="ssr:stedsnr" v="960606" />
	</node>
	<node id="-379369" lat="61.2997944475" lon="10.0364222227">
		<tag k="name" v="Bakkaslettet" />
		<tag k="place" v="locality" />
		<tag k="ssr:stedsnr" v="960217" />
	</node>
	<node id="-379368" lat="61.2701166683" lon="9.81020555183">
		<tag k="alt_name" v="Mossjøfjellet" />
		<tag k="name" v="Mossfjellet" />
		<tag k="natural" v="hill" />
		<tag k="place" v="locality" />
		<tag k="ssr:stedsnr" v="919727" />
	</node>
	<node id="-378619" lat="61.2199111118" lon="10.1401444372">
		<tag k="fixme" v="consider natural=peak for the most distinct mountains in the district" />
		<tag k="name" v="Vardkampen" />
		<tag k="natural" v="hill" />
		<tag k="place" v="locality" />
		<tag k="ssr:stedsnr" v="493304" />
	</node>
	<node id="-379360" lat="61.3996444449" lon="9.63597500329">
		<tag k="alt_name" v="Gråhøa, s" />
		<tag k="fixme" v="consider natural=peak for the most distinct mountains in the district" />
		<tag k="name" v="Søre Gråhøa" />
		<tag k="natural" v="hill" />
		<tag k="place" v="locality" />
		<tag k="ssr:stedsnr" v="918424" />
	</node>
	<node id="-379341" lat="61.3732638853" lon="10.0087833383">
		<tag k="name" v="Massingkampen" />
		<tag k="natural" v="hill" />
		<tag k="place" v="locality" />
		<tag k="ssr:stedsnr" v="907850" />
	</node>
	<node id="-379337" lat="61.2212361155" lon="10.1008888814">
		<tag k="name" v="Kråbølsbergene" />
		<tag k="place" v="locality" />
		<tag k="ssr:stedsnr" v="906259" />
	</node>
	<node id="-379334" lat="61.2693138903" lon="10.0753055471">
		<tag k="name" v="Kittilfallsletta" />
		<tag k="place" v="locality" />
		<tag k="ssr:stedsnr" v="901954" />
	</node>
	<node id="-379332" lat="61.2484111128" lon="9.81978054762">
		<tag k="name" v="Hornsjølia" />
		<tag k="natural" v="slope" />
		<tag k="place" v="locality" />
		<tag k="ssr:stedsnr" v="901721" />
	</node>
	<node id="-379330" lat="61.3596361083" lon="9.63778332612">
		<tag k="name" v="Gruvfjellet" />
		<tag k="natural" v="hill" />
		<tag k="place" v="locality" />
		<tag k="ssr:stedsnr" v="901456" />
	</node>
	<node id="-379327" lat="61.2700750012" lon="10.208883328">
		<tag k="name" v="Julsberget" />
		<tag k="natural" v="slope" />
		<tag k="place" v="locality" />
		<tag k="ssr:stedsnr" v="901072" />
	</node>
	<node id="-379324" lat="61.3515694463" lon="9.88546666862">
		<tag k="name" v="Hesthølen" />
		<tag k="natural" v="valley" />
		<tag k="place" v="locality" />
		<tag k="ssr:stedsnr" v="900953" />
	</node>
	<node id="-379320" lat="61.3475472243" lon="10.0882888845">
		<tag k="name" v="Bratthenget" />
		<tag k="place" v="locality" />
		<tag k="ssr:stedsnr" v="900359" />
	</node>
	<node id="-379318" lat="61.338727779" lon="9.8496305524">
		<tag k="name" v="Brekka" />
		<tag k="natural" v="valley" />
		<tag k="place" v="locality" />
		<tag k="ssr:stedsnr" v="899658" />
	</node>
	<node id="-379310" lat="61.2772250034" lon="10.0360138926">
		<tag k="name" v="Geitrosletta" />
		<tag k="place" v="locality" />
		<tag k="ssr:stedsnr" v="887705" />
	</node>
	<node id="-379302" lat="61.3372249989" lon="9.72447221288">
		<tag k="name" v="Finntjønnmarka" />
		<tag k="natural" v="wood" />
		<tag k="ssr:stedsnr" v="858663" />
	</node>
	<node id="-379300" lat="61.2883277792" lon="9.9226805466">
		<tag k="name" v="Reinsålia" />
		<tag k="natural" v="slope" />
		<tag k="place" v="locality" />
		<tag k="ssr:stedsnr" v="858764" />
	</node>
	<node id="-379298" lat="61.2877722225" lon="9.64084166307">
		<tag k="fixme" v="consider natural=peak for the most distinct mountains in the district" />
		<tag k="name" v="Tverrlihøgda" />
		<tag k="natural" v="hill" />
		<tag k="place" v="locality" />
		<tag k="ssr:stedsnr" v="858761" />
	</node>
	<node id="-379292" lat="61.1515472224" lon="9.71850278045">
		<tag k="alt_name" v="Røssjøkollene;Røssjøkollan" />
		<tag k="fixme" v="consider natural=peak for the most distinct mountains in the district" />
		<tag k="name" v="Røssjøkollane" />
		<tag k="natural" v="hill" />
		<tag k="place" v="locality" />
		<tag k="ssr:stedsnr" v="857759" />
	</node>
	<node id="-379276" lat="61.2437194448" lon="10.0009972252">
		<tag k="name" v="Madsrudslettet" />
		<tag k="place" v="locality" />
		<tag k="ssr:stedsnr" v="841764" />
	</node>
	<node id="-379269" lat="61.2621611101" lon="9.8174916747">
		<tag k="name" v="Bringkollen" />
		<tag k="natural" v="ridge" />
		<tag k="place" v="locality" />
		<tag k="ssr:stedsnr" v="841317" />
	</node>
	<node id="-379266" lat="61.3515833345" lon="10.0443777861">
		<tag k="name" v="Skarbakken" />
		<tag k="natural" v="hill" />
		<tag k="place" v="locality" />
		<tag k="ssr:stedsnr" v="839974" />
	</node>
	<node id="-379258" lat="61.2630833296" lon="9.71582499411">
		<tag k="fixme" v="consider natural=peak for the most distinct mountains in the district" />
		<tag k="name" v="Grytkampen" />
		<tag k="natural" v="hill" />
		<tag k="place" v="locality" />
		<tag k="ssr:stedsnr" v="797757" />
	</node>
	<node id="-379257" lat="61.2437970602" lon="9.7923324427">
		<tag k="name" v="Grytlia" />
		<tag k="natural" v="slope" />
		<tag k="place" v="locality" />
		<tag k="ssr:stedsnr" v="797561" />
	</node>
	<node id="-379256" lat="61.2398750019" lon="9.83032222248">
		<tag k="name" v="Skriukampen" />
		<tag k="natural" v="hill" />
		<tag k="place" v="locality" />
		<tag k="ssr:stedsnr" v="797560" />
	</node>
	<node id="-379255" lat="61.375866667" lon="9.55671943848">
		<tag k="name" v="Bågåskardet" />
		<tag k="natural" v="valley" />
		<tag k="place" v="locality" />
		<tag k="ssr:stedsnr" v="797441" />
	</node>
	<node id="-379250" lat="61.1647305598" lon="9.84316111006">
		<tag k="name" v="Oppsjøhøgda" />
		<tag k="natural" v="hill" />
		<tag k="place" v="locality" />
		<tag k="ssr:stedsnr" v="796758" />
	</node>
	<node id="-379245" lat="61.3844000037" lon="9.65616111492">
		<tag k="name" v="Andreasberg" />
		<tag k="natural" v="hill" />
		<tag k="place" v="locality" />
		<tag k="ssr:stedsnr" v="796371" />
	</node>
	<node id="-379238" lat="61.361038888" lon="10.0568111098">
		<tag k="name" v="Skeisleitet" />
		<tag k="natural" v="slope" />
		<tag k="place" v="locality" />
		<tag k="ssr:stedsnr" v="918984" />
	</node>
	<node id="-379235" lat="61.1670000033" lon="9.90366943634">
		<tag k="alt_name" v="Manstadlia" />
		<tag k="name" v="Mannstadlia" />
		<tag k="natural" v="slope" />
		<tag k="place" v="locality" />
		<tag k="ssr:stedsnr" v="918795" />
	</node>
	<node id="-379234" lat="61.1793277786" lon="9.74979722129">
		<tag k="name" v="Snæreslia" />
		<tag k="natural" v="slope" />
		<tag k="place" v="locality" />
		<tag k="ssr:stedsnr" v="918792" />
	</node>
	<node id="-379230" lat="61.2072305569" lon="9.65890833817">
		<tag k="name" v="Hulderhaugan" />
		<tag k="natural" v="hill" />
		<tag k="place" v="locality" />
		<tag k="ssr:stedsnr" v="918581" />
	</node>
	<node id="-379228" lat="61.2021999968" lon="9.80701666374">
		<tag k="name" v="Dokkampen" />
		<tag k="natural" v="hill" />
		<tag k="place" v="locality" />
		<tag k="ssr:stedsnr" v="918577" />
	</node>
	<node id="-379214" lat="61.3229027789" lon="10.0091638848">
		<tag k="name" v="Stølsletta" />
		<tag k="place" v="locality" />
		<tag k="ssr:stedsnr" v="778936" />
	</node>
	<node id="-379211" lat="61.3243750035" lon="9.84156389104">
		<tag k="name" v="Rustom" />
		<tag k="natural" v="slope" />
		<tag k="place" v="locality" />
		<tag k="ssr:stedsnr" v="778529" />
	</node>
	<node id="-379205" lat="61.3500416687" lon="10.159013891">
		<tag k="name" v="Persetkløppa" />
		<tag k="place" v="locality" />
		<tag k="ssr:stedsnr" v="778012" />
	</node>
	<node id="-379197" lat="61.2069972254" lon="10.1881499962">
		<tag k="name" v="Flisbakken" />
		<tag k="natural" v="hill" />
		<tag k="place" v="locality" />
		<tag k="ssr:stedsnr" v="908104" />
	</node>
	<node id="-379195" lat="61.2872472235" lon="9.92621666197">
		<tag k="name" v="Reinsålia" />
		<tag k="natural" v="slope" />
		<tag k="place" v="locality" />
		<tag k="ssr:stedsnr" v="906687" />
	</node>
	<node id="-379189" lat="61.2051611141" lon="9.76965556191">
		<tag k="name" v="Verkenslia" />
		<tag k="natural" v="slope" />
		<tag k="place" v="locality" />
		<tag k="ssr:stedsnr" v="736507" />
	</node>
	<node id="-379187" lat="61.1723198253" lon="10.1203897626">
		<tag k="name" v="Hammerlia" />
		<tag k="natural" v="slope" />
		<tag k="place" v="locality" />
		<tag k="ssr:stedsnr" v="902901" />
	</node>
	<node id="-379184" lat="61.2076527739" lon="9.85919999561">
		<tag k="name" v="Obleikhaugen" />
		<tag k="natural" v="hill" />
		<tag k="place" v="locality" />
		<tag k="ssr:stedsnr" v="735506" />
	</node>
	<node id="-379181" lat="61.3839138864" lon="9.94621111712">
		<tag k="name" v="Brattlia" />
		<tag k="natural" v="slope" />
		<tag k="place" v="locality" />
		<tag k="ssr:stedsnr" v="902391" />
	</node>
	<node id="-379180" lat="61.2384777795" lon="10.3355944472">
		<tag k="name" v="Bråtålia" />
		<tag k="natural" v="slope" />
		<tag k="place" v="locality" />
		<tag k="ssr:stedsnr" v="902349" />
	</node>
	<node id="-379173" lat="61.2506000011" lon="9.99841943559">
		<tag k="name" v="Heggeslettet" />
		<tag k="place" v="locality" />
		<tag k="ssr:stedsnr" v="901791" />
	</node>
	<node id="-379165" lat="61.2641583302" lon="9.80053888934">
		<tag k="name" v="Liufjellet" />
		<tag k="natural" v="hill" />
		<tag k="place" v="locality" />
		<tag k="ssr:stedsnr" v="901294" />
	</node>
	<node id="-379162" lat="61.3565972218" lon="9.93136943975">
		<tag k="name" v="Grythalsen" />
		<tag k="natural" v="valley" />
		<tag k="place" v="locality" />
		<tag k="ssr:stedsnr" v="900950" />
	</node>
	<node id="-378244" lat="61.375919448" lon="10.0737249949">
		<tag k="alt_name" v="Avlundskampen" />
		<tag k="fixme" v="consider natural=peak for the most distinct mountains in the district" />
		<tag k="name" v="Avlundkampen" />
		<tag k="natural" v="hill" />
		<tag k="place" v="locality" />
		<tag k="ssr:stedsnr" v="250992" />
	</node>
	<node id="-379158" lat="61.3228083341" lon="9.81596943974">
		<tag k="name" v="Storslette" />
		<tag k="place" v="locality" />
		<tag k="ssr:stedsnr" v="900634" />
	</node>
	<node id="-379154" lat="61.3092777819" lon="9.96297778133">
		<tag k="name" v="Vesleenget" />
		<tag k="place" v="locality" />
		<tag k="ssr:stedsnr" v="900223" />
	</node>
	<node id="-379150" lat="61.3352242773" lon="9.97937366998">
		<tag k="name" v="Romsdalen" />
		<tag k="natural" v="valley" />
		<tag k="place" v="locality" />
		<tag k="ssr:stedsnr" v="899885" />
	</node>
	<node id="-379147" lat="61.3390083345" lon="9.830258339">
		<tag k="name" v="Kalrastslettet" />
		<tag k="place" v="locality" />
		<tag k="ssr:stedsnr" v="899651" />
	</node>
	<node id="-379145" lat="61.3922250037" lon="9.92565278107">
		<tag k="name" v="Brennhøgda" />
		<tag k="natural" v="hill" />
		<tag k="place" v="locality" />
		<tag k="ssr:stedsnr" v="899636" />
	</node>
	<node id="-379144" lat="61.3570361149" lon="9.85646666441">
		<tag k="name" v="Leirbakkslettet" />
		<tag k="place" v="locality" />
		<tag k="ssr:stedsnr" v="899493" />
	</node>
	<node id="-379137" lat="61.3862972263" lon="9.71450833473">
		<tag k="name" v="Ramsberget" />
		<tag k="natural" v="ridge" />
		<tag k="place" v="locality" />
		<tag k="ssr:stedsnr" v="725359" />
	</node>
	<node id="-379136" lat="61.3922249979" lon="10.0433000058">
		<tag k="fixme" v="consider natural=peak for the most distinct mountains in the district" />
		<tag k="name" v="Ulene" />
		<tag k="natural" v="hill" />
		<tag k="place" v="locality" />
		<tag k="ssr:stedsnr" v="725157" />
	</node>
	<node id="-379135" lat="61.2384777802" lon="10.2440194355">
		<tag k="name" v="Josvadalen" />
		<tag k="natural" v="valley" />
		<tag k="place" v="locality" />
		<tag k="ssr:stedsnr" v="722974" />
	</node>
	<node id="-379133" lat="61.2251444401" lon="10.1431027752">
		<tag k="name" v="Kleivan" />
		<tag k="natural" v="hill" />
		<tag k="place" v="locality" />
		<tag k="ssr:stedsnr" v="720385" />
	</node>
	<node id="-379127" lat="61.2725055567" lon="10.1083916721">
		<tag k="name" v="Raudalen" />
		<tag k="natural" v="valley" />
		<tag k="place" v="locality" />
		<tag k="ssr:stedsnr" v="719805" />
	</node>
	<node id="-379121" lat="61.2120416706" lon="9.92700276865">
		<tag k="name" v="Rundhaugen" />
		<tag k="natural" v="hill" />
		<tag k="place" v="locality" />
		<tag k="ssr:stedsnr" v="719176" />
	</node>
	<node id="-378237" lat="61.3618666672" lon="9.67252221598">
		<tag k="name" v="Helvete" />
		<tag k="natural" v="gorge" />
		<tag k="ssr:stedsnr" v="250657" />
	</node>
	<node id="-379114" lat="61.2811305518" lon="10.1903722237">
		<tag k="name" v="Overlia" />
		<tag k="natural" v="slope" />
		<tag k="place" v="locality" />
		<tag k="ssr:stedsnr" v="718158" />
	</node>
	<node id="-379110" lat="61.3300416631" lon="9.92181667281">
		<tag k="name" v="Bøleslettet" />
		<tag k="natural" v="slope" />
		<tag k="place" v="locality" />
		<tag k="ssr:stedsnr" v="716815" />
	</node>
	<node id="-379109" lat="61.3807027809" lon="9.75592499388">
		<tag k="name" v="Helgeslettkampen" />
		<tag k="natural" v="ridge" />
		<tag k="place" v="locality" />
		<tag k="ssr:stedsnr" v="716354" />
	</node>
	<node id="-379095" lat="61.2894749959" lon="9.34628333762">
		<tag k="name" v="Vesterheim" />
		<tag k="natural" v="slope" />
		<tag k="place" v="locality" />
		<tag k="ssr:stedsnr" v="676254" />
	</node>
	<node id="-379092" lat="61.2680138915" lon="10.2151583347">
		<tag k="name" v="Reitbakkhøgda" />
		<tag k="natural" v="hill" />
		<tag k="place" v="locality" />
		<tag k="ssr:stedsnr" v="675868" />
	</node>
	<node id="-379076" lat="61.3666250005" lon="9.94173055618">
		<tag k="name" v="Hestberget" />
		<tag k="natural" v="hill" />
		<tag k="place" v="locality" />
		<tag k="ssr:stedsnr" v="664306" />
	</node>
	<node id="-379066" lat="61.3133166636" lon="10.1372277832">
		<tag k="name" v="Kveumslia" />
		<tag k="natural" v="slope" />
		<tag k="place" v="locality" />
		<tag k="ssr:stedsnr" v="658512" />
	</node>
	<node id="-379063" lat="61.2591333298" lon="10.2126944359">
		<tag k="name" v="Huskebakken" />
		<tag k="natural" v="hill" />
		<tag k="place" v="locality" />
		<tag k="ssr:stedsnr" v="658078" />
	</node>
	<node id="-379062" lat="61.1306055567" lon="9.99080554959">
		<tag k="name" v="Blesterlia" />
		<tag k="natural" v="slope" />
		<tag k="place" v="locality" />
		<tag k="ssr:stedsnr" v="658064" />
	</node>
	<node id="-379060" lat="61.3438416671" lon="9.72640000181">
		<tag k="name" v="Hansberget" />
		<tag k="natural" v="hill" />
		<tag k="place" v="locality" />
		<tag k="ssr:stedsnr" v="657864" />
	</node>
	<node id="-379053" lat="61.3650805562" lon="9.70650833184">
		<tag k="name" v="Tronslettet" />
		<tag k="place" v="locality" />
		<tag k="ssr:stedsnr" v="657110" />
	</node>
	<node id="-378225" lat="61.2488861094" lon="9.52802499605">
		<tag k="name" v="Skeidkampen" />
		<tag k="natural" v="hill" />
		<tag k="place" v="locality" />
		<tag k="ssr:stedsnr" v="249738" />
	</node>
	<node id="-379044" lat="61.2339583317" lon="9.49452778685">
		<tag k="name" v="Dokkberget" />
		<tag k="natural" v="hill" />
		<tag k="place" v="locality" />
		<tag k="ssr:stedsnr" v="735987" />
	</node>
	<node id="-379043" lat="61.2030638924" lon="9.52089444015">
		<tag k="alt_name" v="Skruvedalen" />
		<tag k="name" v="Skruvdalen" />
		<tag k="natural" v="valley" />
		<tag k="place" v="locality" />
		<tag k="ssr:stedsnr" v="735981" />
	</node>
	<node id="-379039" lat="61.3920277786" lon="9.62741389759">
		<tag k="name" v="Storfjellet" />
		<tag k="natural" v="hill" />
		<tag k="place" v="locality" />
		<tag k="ssr:stedsnr" v="736357" />
	</node>
	<node id="-379037" lat="61.2166694439" lon="9.6548416592">
		<tag k="name" v="Skjelhaugan" />
		<tag k="natural" v="hill" />
		<tag k="place" v="locality" />
		<tag k="ssr:stedsnr" v="735489" />
	</node>
	<node id="-378564" lat="61.4071388859" lon="9.64973334214">
		<tag k="name" v="Øvre Grytrandin" />
		<tag k="natural" v="ridge" />
		<tag k="place" v="locality" />
		<tag k="ssr:stedsnr" v="476794" />
	</node>
	<node id="-379024" lat="61.3640527807" lon="9.70680000651">
		<tag k="name" v="Nessetrona" />
		<tag k="natural" v="hill" />
		<tag k="place" v="locality" />
		<tag k="ssr:stedsnr" v="725330" />
	</node>
	<node id="-378903" lat="61.4147138877" lon="9.60383055376">
		<tag k="fixme" v="consider natural=peak for the most distinct mountains in the district" />
		<tag k="name" v="Storhøa" />
		<tag k="natural" v="hill" />
		<tag k="place" v="locality" />
		<tag k="ssr:stedsnr" v="736313" />
	</node>
	<node id="-379014" lat="61.3098277749" lon="9.82916945062">
		<tag k="name" v="Brånån" />
		<tag k="natural" v="slope" />
		<tag k="place" v="locality" />
		<tag k="ssr:stedsnr" v="615243" />
	</node>
	<node id="-378560" lat="61.2146055545" lon="10.0412333388">
		<tag k="name" v="Roppskaret" />
		<tag k="natural" v="valley" />
		<tag k="place" v="locality" />
		<tag k="ssr:stedsnr" v="476610" />
	</node>
	<node id="-379004" lat="61.2463861073" lon="9.80890784042">
		<tag k="fixme" v="multiple name tags, choose one and add the other to alt_name" />
		<tag k="name" v="Grytlifjellet;Hornsjøfjellet" />
		<tag k="natural" v="hill" />
		<tag k="place" v="locality" />
		<tag k="ssr:stedsnr" v="614557" />
	</node>
	<node id="-381049" lat="61.1569745016" lon="9.63203434001">
		<tag k="fixme" v="consider natural=peak for the most distinct mountains in the district" />
		<tag k="name" v="Djuptjernkampen" />
		<tag k="natural" v="hill" />
		<tag k="place" v="locality" />
		<tag k="ssr:stedsnr" v="736772" />
	</node>
	<node id="-381048" lat="61.1210583374" lon="10.071305558">
		<tag k="fixme" v="consider natural=peak for the most distinct mountains in the district" />
		<tag k="name" v="Skjellbreida" />
		<tag k="natural" v="hill" />
		<tag k="place" v="locality" />
		<tag k="ssr:stedsnr" v="371091" />
	</node>
	<node id="-378996" lat="61.3976333353" lon="9.70688889651">
		<tag k="fixme" v="consider natural=peak for the most distinct mountains in the district" />
		<tag k="name" v="Storhaugen" />
		<tag k="natural" v="hill" />
		<tag k="place" v="locality" />
		<tag k="ssr:stedsnr" v="614370" />
	</node>
	<node id="-378989" lat="61.2431888895" lon="9.91362778358">
		<tag k="name" v="Reinsjølia" />
		<tag k="natural" v="slope" />
		<tag k="place" v="locality" />
		<tag k="ssr:stedsnr" v="719840" />
	</node>
	<node id="-378986" lat="61.2114888912" lon="10.2010888809">
		<tag k="name" v="Segalstadbaklia" />
		<tag k="natural" v="slope" />
		<tag k="place" v="locality" />
		<tag k="ssr:stedsnr" v="719387" />
	</node>
	<node id="-378981" lat="61.3510972237" lon="9.70910555953">
		<tag k="name" v="Ørnbergan" />
		<tag k="place" v="locality" />
		<tag k="ssr:stedsnr" v="718904" />
	</node>
	<node id="-378980" lat="61.3661694459" lon="9.74915834002">
		<tag k="alt_name" v="Søndre Skaret" />
		<tag k="name" v="Søre Skaret" />
		<tag k="natural" v="valley" />
		<tag k="place" v="locality" />
		<tag k="ssr:stedsnr" v="718880" />
	</node>
	<node id="-378979" lat="61.3705888872" lon="9.74211667094">
		<tag k="name" v="Merraberget" />
		<tag k="natural" v="slope" />
		<tag k="place" v="locality" />
		<tag k="ssr:stedsnr" v="718877" />
	</node>
	<node id="-378975" lat="61.3041583319" lon="10.0699833339">
		<tag k="name" v="Glåmhaugen" />
		<tag k="natural" v="hill" />
		<tag k="place" v="locality" />
		<tag k="ssr:stedsnr" v="718704" />
	</node>
	<node id="-378965" lat="61.3523944438" lon="9.66888055793">
		<tag k="name" v="Blåbærhaugen" />
		<tag k="natural" v="hill" />
		<tag k="place" v="locality" />
		<tag k="ssr:stedsnr" v="718345" />
	</node>
	<node id="-378963" lat="61.3455777783" lon="9.66778055453">
		<tag k="name" v="Sekkeslettet" />
		<tag k="place" v="locality" />
		<tag k="ssr:stedsnr" v="718338" />
	</node>
	<node id="-378962" lat="61.3035416683" lon="9.94609444377">
		<tag k="name" v="Liadalen" />
		<tag k="natural" v="valley" />
		<tag k="place" v="locality" />
		<tag k="ssr:stedsnr" v="718152" />
	</node>
	<node id="-378961" lat="61.3757583298" lon="9.75741388953">
		<tag k="name" v="Elgslettbergan" />
		<tag k="place" v="locality" />
		<tag k="ssr:stedsnr" v="718091" />
	</node>
	<node id="-378958" lat="61.3725805553" lon="9.74433610992">
		<tag k="name" v="Båshaugen" />
		<tag k="natural" v="hill" />
		<tag k="place" v="locality" />
		<tag k="ssr:stedsnr" v="718074" />
	</node>
	<node id="-378956" lat="61.328933331" lon="10.0309555564">
		<tag k="name" v="Måråbeitkampen" />
		<tag k="natural" v="hill" />
		<tag k="place" v="locality" />
		<tag k="ssr:stedsnr" v="717990" />
	</node>
	<node id="-378952" lat="61.3827861084" lon="9.69653054699">
		<tag k="name" v="Nesesæterfjellet" />
		<tag k="natural" v="hill" />
		<tag k="old_name" v="Nessetsæterfjellet" />
		<tag k="place" v="locality" />
		<tag k="ssr:stedsnr" v="736330" />
	</node>
	<node id="-378951" lat="61.3950388892" lon="9.91446388523">
		<tag k="name" v="Brannhaugen" />
		<tag k="natural" v="hill" />
		<tag k="place" v="locality" />
		<tag k="ssr:stedsnr" v="717628" />
	</node>
	<node id="-378950" lat="61.3308138905" lon="9.95156944327">
		<tag k="name" v="Nyslettet" />
		<tag k="place" v="locality" />
		<tag k="ssr:stedsnr" v="717865" />
	</node>
	<node id="-378949" lat="61.3252555567" lon="9.96563611014">
		<tag k="name" v="Kjølslettene" />
		<tag k="place" v="locality" />
		<tag k="ssr:stedsnr" v="717863" />
	</node>
	<node id="-378947" lat="61.2298111147" lon="10.121602787">
		<tag k="name" v="Ringahøgda" />
		<tag k="natural" v="hill" />
		<tag k="place" v="locality" />
		<tag k="ssr:stedsnr" v="602234" />
	</node>
	<node id="-378946" lat="61.2220888883" lon="10.1272111061">
		<tag k="name" v="Løypstupen" />
		<tag k="natural" v="slope" />
		<tag k="place" v="locality" />
		<tag k="ssr:stedsnr" v="602233" />
	</node>
	<node id="-378944" lat="61.222641671" lon="9.74703055519">
		<tag k="name" v="Verkensmoen" />
		<tag k="place" v="locality" />
		<tag k="ssr:stedsnr" v="602217" />
	</node>
	<node id="-378941" lat="61.3033921929" lon="9.90725329746">
		<tag k="name" v="Tuvvollia" />
		<tag k="natural" v="slope" />
		<tag k="place" v="locality" />
		<tag k="ssr:stedsnr" v="717162" />
	</node>
	<node id="-378936" lat="61.3603027814" lon="9.99600278116">
		<tag k="name" v="Gullkampen" />
		<tag k="natural" v="hill" />
		<tag k="place" v="locality" />
		<tag k="ssr:stedsnr" v="717029" />
	</node>
	<node id="-378934" lat="61.3975388917" lon="9.68634166188">
		<tag k="name" v="Stabburshaugan" />
		<tag k="natural" v="hill" />
		<tag k="place" v="locality" />
		<tag k="ssr:stedsnr" v="716526" />
	</node>
	<node id="-378933" lat="61.3403999998" lon="9.87188054624">
		<tag k="name" v="Skåråslia" />
		<tag k="natural" v="slope" />
		<tag k="place" v="locality" />
		<tag k="ssr:stedsnr" v="716501" />
	</node>
	<node id="-378931" lat="61.3847138919" lon="10.0922583328">
		<tag k="name" v="Himmelberget" />
		<tag k="natural" v="hill" />
		<tag k="place" v="locality" />
		<tag k="ssr:stedsnr" v="716081" />
	</node>
	<node id="-378927" lat="61.3210638861" lon="9.89628055655">
		<tag k="name" v="Oppgardslia" />
		<tag k="natural" v="slope" />
		<tag k="place" v="locality" />
		<tag k="ssr:stedsnr" v="595918" />
	</node>
	<node id="-378926" lat="61.3208888882" lon="9.97775554715">
		<tag k="name" v="Sæterdokka" />
		<tag k="natural" v="valley" />
		<tag k="place" v="locality" />
		<tag k="ssr:stedsnr" v="595854" />
	</node>
	<node id="-378925" lat="61.3281972226" lon="9.9329000078">
		<tag k="name" v="Skålengslettet" />
		<tag k="natural" v="slope" />
		<tag k="place" v="locality" />
		<tag k="ssr:stedsnr" v="595812" />
	</node>
	<node id="-378924" lat="61.3226583327" lon="9.93792777762">
		<tag k="loc_name" v="Børdevarpet" />
		<tag k="name" v="Bølevarpet" />
		<tag k="natural" v="valley" />
		<tag k="place" v="locality" />
		<tag k="ssr:stedsnr" v="595809" />
	</node>
	<node id="-378923" lat="61.3331472209" lon="9.9285805589">
		<tag k="name" v="Sandbakken" />
		<tag k="natural" v="hill" />
		<tag k="place" v="locality" />
		<tag k="ssr:stedsnr" v="595804" />
	</node>
	<node id="-378887" lat="61.2776722206" lon="9.95688055449">
		<tag k="name" v="Sæterbergan" />
		<tag k="natural" v="hill" />
		<tag k="place" v="locality" />
		<tag k="ssr:stedsnr" v="536838" />
	</node>
	<node id="-378919" lat="61.2067222214" lon="9.84547777099">
		<tag k="name" v="Dokklia" />
		<tag k="natural" v="slope" />
		<tag k="place" v="locality" />
		<tag k="ssr:stedsnr" v="583347" />
	</node>
	<node id="-378202" lat="61.1576361107" lon="10.1267694438">
		<tag k="name" v="Sveabergan" />
		<tag k="natural" v="slope" />
		<tag k="place" v="locality" />
		<tag k="ssr:stedsnr" v="238447" />
	</node>
	<node id="-378904" lat="61.216386112" lon="10.1273805551">
		<tag k="name" v="Tobrobergene" />
		<tag k="place" v="locality" />
		<tag k="ssr:stedsnr" v="542216" />
	</node>
	<node id="-380951" lat="61.3601757064" lon="9.82714105534">
		<tag k="name" v="Frøningslia" />
		<tag k="natural" v="slope" />
		<tag k="place" v="locality" />
		<tag k="ssr:stedsnr" v="974324" />
	</node>
	<node id="-378900" lat="61.2515999973" lon="10.3332805598">
		<tag k="name" v="Øyerlia" />
		<tag k="natural" v="slope" />
		<tag k="place" v="locality" />
		<tag k="ssr:stedsnr" v="538358" />
	</node>
	<node id="-378328" lat="61.167630556" lon="9.65022221885">
		<tag k="name" v="Merradompryggen" />
		<tag k="natural" v="ridge" />
		<tag k="place" v="locality" />
		<tag k="ssr:stedsnr" v="179168" />
	</node>
	<node id="-378895" lat="61.2721555543" lon="9.97379721963">
		<tag k="name" v="Slåttdalen" />
		<tag k="natural" v="valley" />
		<tag k="place" v="locality" />
		<tag k="ssr:stedsnr" v="537968" />
	</node>
	<node id="-378894" lat="61.2589277811" lon="9.99506667579">
		<tag k="name" v="Nedre Smelislettet" />
		<tag k="place" v="locality" />
		<tag k="ssr:stedsnr" v="537953" />
	</node>
	<node id="-378891" lat="61.2353916624" lon="10.121038883">
		<tag k="name" v="Stavlihaugen" />
		<tag k="natural" v="hill" />
		<tag k="place" v="locality" />
		<tag k="ssr:stedsnr" v="537233" />
	</node>
	<node id="-380938" lat="61.3655249966" lon="9.7087972293">
		<tag k="name" v="Tronslåa" />
		<tag k="place" v="locality" />
		<tag k="ssr:stedsnr" v="968385" />
	</node>
	<node id="-380936" lat="61.2241111098" lon="10.1225916616">
		<tag k="name" v="Vassbekkdalen" />
		<tag k="natural" v="valley" />
		<tag k="place" v="locality" />
		<tag k="ssr:stedsnr" v="966226" />
	</node>
	<node id="-380935" lat="61.3711916648" lon="10.0989166754">
		<tag k="name" v="Salthaugen" />
		<tag k="natural" v="hill" />
		<tag k="place" v="locality" />
		<tag k="ssr:stedsnr" v="966051" />
	</node>
	<node id="-378886" lat="61.263925001" lon="10.1004611027">
		<tag k="name" v="Klevakjølen" />
		<tag k="natural" v="slope" />
		<tag k="place" v="locality" />
		<tag k="ssr:stedsnr" v="536814" />
	</node>
	<node id="-378885" lat="61.2313277778" lon="9.84857778007">
		<tag k="name" v="Hornsjølia" />
		<tag k="natural" v="slope" />
		<tag k="place" v="locality" />
		<tag k="ssr:stedsnr" v="536580" />
	</node>
	<node id="-378539" lat="61.2844972245" lon="9.98287221297">
		<tag k="name" v="Sjursonglia" />
		<tag k="natural" v="slope" />
		<tag k="place" v="locality" />
		<tag k="ssr:stedsnr" v="475859" />
	</node>
</osm>
