<?xml version="1.0" encoding="UTF-8"?>
<osm version="0.6" generator="osmapis">
	<node lat="58.46062499912506" lon="7.196777771501387" id="-22779">
		<tag k="fixme" v="consider place=hamlet" />
		<tag k="name" v="Skoland" />
		<tag k="place" v="farm" />
		<tag k="ssr:stedsnr" v="353" />
	</node>
	<node lat="58.45793333735643" lon="7.315305557515469" id="-22780">
		<tag k="alt_name" v="Stuelien;Stulien" />
		<tag k="fixme" v="consider place=hamlet" />
		<tag k="name" v="Stueli" />
		<tag k="place" v="farm" />
		<tag k="ssr:stedsnr" v="355" />
	</node>
	<node lat="58.38225277698856" lon="7.209941662279272" id="-22787">
		<tag k="name" v="Eikeland" />
		<tag k="place" v="farm" />
		<tag k="ssr:stedsnr" v="748" />
	</node>
	<node lat="58.458455554401596" lon="7.23488333824399" id="-22809">
		<tag k="name" v="Slurpestøl" />
		<tag k="place" v="farm" />
		<tag k="ssr:stedsnr" v="36170" />
	</node>
	<node lat="58.50096111352407" lon="7.2522388908996245" id="-22829">
		<tag k="name" v="Heimra Nerløa" />
		<tag k="place" v="locality" />
		<tag k="ssr:stedsnr" v="36907" />
	</node>
	<node lat="58.527266667784936" lon="7.142047216457662" id="-22857">
		<tag k="alt_name" v="Rudlene" />
		<tag k="fixme" v="consider place=hamlet" />
		<tag k="name" v="Rudlend" />
		<tag k="place" v="farm" />
		<tag k="ssr:stedsnr" v="60123" />
	</node>
	<node lat="58.544713889440736" lon="7.113752780359637" id="-22866">
		<tag k="alt_name" v="Espeskard" />
		<tag k="fixme" v="consider place=hamlet" />
		<tag k="name" v="Espeskaret" />
		<tag k="place" v="farm" />
		<tag k="ssr:stedsnr" v="61389" />
	</node>
	<node lat="58.513302775048544" lon="7.267197225684604" id="-22872">
		<tag k="alt_name" v="Vadløa" />
		<tag k="name" v="Valøa" />
		<tag k="place" v="isolated_dwelling" />
		<tag k="ssr:stedsnr" v="243060" />
	</node>
	<node lat="58.46155833600033" lon="7.231477775444098" id="-22875">
		<tag k="alt_name" v="Skeide" />
		<tag k="fixme" v="consider place=hamlet" />
		<tag k="name" v="Skeie" />
		<tag k="place" v="village" />
		<tag k="ssr:stedsnr" v="243341" />
	</node>
	<node lat="58.56348055843486" lon="7.185811112666337" id="-22883">
		<tag k="name" v="Krobustøl" />
		<tag k="place" v="isolated_dwelling" />
		<tag k="ssr:stedsnr" v="243379" />
	</node>
	<node lat="58.32717778048599" lon="7.14501667153674" id="-22885">
		<tag k="name" v="Bjørnstøl" />
		<tag k="place" v="isolated_dwelling" />
		<tag k="ssr:stedsnr" v="243569" />
	</node>
	<node lat="58.33047777578977" lon="7.270155556513786" id="-22890">
		<tag k="fixme" v="consider place=hamlet" />
		<tag k="name" v="Kvestad" />
		<tag k="place" v="farm" />
		<tag k="ssr:stedsnr" v="243572" />
	</node>
	<node lat="58.41146944880956" lon="7.259272217168568" id="-22893">
		<tag k="alt_name" v="Steinsland, nedre" />
		<tag k="fixme" v="consider place=hamlet" />
		<tag k="name" v="Nedre Steinsland" />
		<tag k="place" v="farm" />
		<tag k="ssr:stedsnr" v="243678" />
	</node>
	<node lat="58.38256666358919" lon="7.267350004568426" id="-22968">
		<tag k="name" v="Røyseland" />
		<tag k="place" v="farm" />
		<tag k="ssr:stedsnr" v="121728" />
	</node>
	<node lat="58.429136114872385" lon="7.25741944529724" id="-22970">
		<tag k="alt_name" v="Stranden" />
		<tag k="fixme" v="consider place=hamlet" />
		<tag k="name" v="Stronda" />
		<tag k="place" v="farm" />
		<tag k="ssr:stedsnr" v="121685" />
	</node>
	<node lat="58.35324999813189" lon="7.190211109365459" id="-22991">
		<tag k="name" v="Nedre Skothei" />
		<tag k="place" v="locality" />
		<tag k="ssr:stedsnr" v="157951" />
	</node>
	<node lat="58.54219722235833" lon="7.097758341520069" id="-23032">
		<tag k="alt_name" v="Lii" />
		<tag k="fixme" v="consider place=hamlet" />
		<tag k="name" v="Lien" />
		<tag k="place" v="farm" />
		<tag k="ssr:stedsnr" v="182110" />
	</node>
	<node lat="58.553486836314846" lon="7.153530225940245" id="-23035">
		<tag k="historic" v="shieling" />
		<tag k="name" v="Homstøl" />
		<tag k="place" v="isolated_dwelling" />
		<tag k="ssr:stedsnr" v="182396" />
	</node>
</osm>
