<?xml version="1.0" encoding="UTF-8"?>
<<<<<<< HEAD
<osm version="0.6" generator="osmapis">
	<node lat="58.47751110736392" lon="7.216686116506496" id="-26666">
		<tag k="amenity" v="community_centre" />
		<tag k="name" v="Eiketunet" />
		<tag k="ssr:stedsnr" v="522237" />
	</node>
	<node lat="58.34098333756074" lon="7.245458326882258" id="-26684">
		<tag k="name" v="Stumpeløå" />
=======
<osm generator="osmapis" version="0.6">
	<node id="-578269" lat="58.5427833325" lon="7.19969722235">
		<tag k="name" v="Oddsløa" />
		<tag k="place" v="locality" />
		<tag k="ssr:stedsnr" v="947394" />
	</node>
	<node id="-577561" lat="58.3722111138" lon="7.28419999544">
		<tag k="name" v="Kvedne" />
>>>>>>> e1d4bc35ff8a6074a6f2e91616a996b547c36f15
		<tag k="place" v="locality" />
		<tag k="ssr:stedsnr" v="522770" />
	</node>
<<<<<<< HEAD
	<node lat="58.39801944183592" lon="7.278366663202099" id="-26869">
		<tag k="name" v="Lauvhytta" />
		<tag k="place" v="locality" />
		<tag k="ssr:stedsnr" v="704405" />
	</node>
	<node lat="58.47794444759441" lon="7.208405552811424" id="-26877">
=======
	<node id="-578227" lat="58.4401222227" lon="7.2169611088">
		<tag k="name" v="Holebekkløa" />
		<tag k="place" v="locality" />
		<tag k="ssr:stedsnr" v="946384" />
	</node>
	<node id="-577490" lat="58.4523472217" lon="7.29075277249">
		<tag k="name" v="Ved Saga" />
		<tag k="place" v="locality" />
		<tag k="ssr:stedsnr" v="219147" />
	</node>
	<node id="-578193" lat="58.3375027804" lon="7.22566389661">
		<tag k="name" v="Heddebrua" />
		<tag k="place" v="locality" />
		<tag k="ssr:stedsnr" v="826920" />
	</node>
	<node id="-578126" lat="58.3406999964" lon="7.20557221582">
>>>>>>> e1d4bc35ff8a6074a6f2e91616a996b547c36f15
		<tag k="amenity" v="place_of_worship" />
		<tag k="denomination" v="lutheran" />
		<tag k="name" v="Eiken kirke" />
		<tag k="religion" v="christian" />
		<tag k="ssr:stedsnr" v="632927" />
	</node>
<<<<<<< HEAD
	<node lat="58.34095832923129" lon="7.279113883320698" id="-27004">
		<tag k="name" v="Veddingstemmen" />
=======
	<node id="-577964" lat="58.3385250031" lon="7.23367222361">
		<tag k="name" v="Stompeløa" />
>>>>>>> e1d4bc35ff8a6074a6f2e91616a996b547c36f15
		<tag k="place" v="locality" />
		<tag k="ssr:stedsnr" v="704744" />
	</node>
<<<<<<< HEAD
	<node lat="58.34030965954559" lon="7.205921286437291" id="-27113">
		<tag k="amenity" v="place_of_worship" />
		<tag k="denomination" v="lutheran" />
		<tag k="name" v="Hægebostad kirke" />
		<tag k="religion" v="christian" />
		<tag k="ssr:stedsnr" v="910681" />
	</node>
	<node lat="58.33750278039972" lon="7.2256638966148685" id="-27178">
		<tag k="name" v="Heddebrua" />
		<tag k="place" v="locality" />
		<tag k="ssr:stedsnr" v="826920" />
	</node>
	<node lat="58.579769443316806" lon="7.148780556680134" id="-27431">
=======
	<node id="-577870" lat="58.3980194418" lon="7.2783666632">
		<tag k="name" v="Lauvhytta" />
		<tag k="place" v="locality" />
		<tag k="ssr:stedsnr" v="704405" />
	</node>
	<node id="-577196" lat="58.5797694433" lon="7.14878055668">
>>>>>>> e1d4bc35ff8a6074a6f2e91616a996b547c36f15
		<tag k="name" v="Med løa å jo" />
		<tag k="place" v="locality" />
		<tag k="ssr:stedsnr" v="37553" />
	</node>
<<<<<<< HEAD
=======
	<node id="-577890" lat="58.3409583292" lon="7.27911388332">
		<tag k="name" v="Veddingstemmen" />
		<tag k="place" v="locality" />
		<tag k="ssr:stedsnr" v="704744" />
	</node>
>>>>>>> e1d4bc35ff8a6074a6f2e91616a996b547c36f15
</osm>
