<?xml version="1.0" encoding="UTF-8"?>
<osm version="0.6" generator="osmapis">
	<node lat="58.50433333011028" lon="7.302580551797522" id="-22778">
		<tag k="alt_name" v="Bustøheii" />
		<tag k="fixme" v="consider natural=peak for the most distinct mountains in the district" />
		<tag k="name" v="Bustøhei" />
		<tag k="natural" v="hill" />
		<tag k="place" v="locality" />
		<tag k="ssr:stedsnr" v="67" />
	</node>
	<node lat="58.58649166267443" lon="7.1115916615596095" id="-22782">
		<tag k="alt_name" v="Bjørnehomknuten" />
		<tag k="name" v="Bjørnhomknuten" />
		<tag k="natural" v="hill" />
		<tag k="place" v="locality" />
		<tag k="ssr:stedsnr" v="417" />
	</node>
	<node lat="58.60128611144135" lon="7.112847216624757" id="-22783">
		<tag k="alt_name" v="Løynhomfjellet" />
		<tag k="fixme" v="consider natural=peak for the most distinct mountains in the district" />
		<tag k="name" v="Lømhomfjellet" />
		<tag k="natural" v="hill" />
		<tag k="place" v="locality" />
		<tag k="ssr:stedsnr" v="461" />
	</node>
	<node lat="58.61863332920646" lon="7.203811114854287" id="-22785">
		<tag k="name" v="Vedvassdalen" />
		<tag k="natural" v="valley" />
		<tag k="place" v="locality" />
		<tag k="ssr:stedsnr" v="500" />
	</node>
	<node lat="58.65939999775478" lon="7.196036104629513" id="-22788">
		<tag k="alt_name" v="Skjerkedalsrindan" />
		<tag k="fixme" v="consider natural=peak for the most distinct mountains in the district" />
		<tag k="name" v="Skjerkedalsrinnen" />
		<tag k="natural" v="hill" />
		<tag k="place" v="locality" />
		<tag k="ssr:stedsnr" v="1290" />
	</node>
	<node lat="58.390027775551424" lon="7.126416664638061" id="-22789">
		<tag k="name" v="Melkedalen" />
		<tag k="natural" v="valley" />
		<tag k="place" v="locality" />
		<tag k="ssr:stedsnr" v="35061" />
	</node>
	<node lat="58.504933333186486" lon="7.239483336843081" id="-22792">
		<tag k="name" v="Bjødnedalen" />
		<tag k="natural" v="valley" />
		<tag k="place" v="locality" />
		<tag k="ssr:stedsnr" v="36014" />
	</node>
	<node lat="58.40228610805398" lon="7.170319438119514" id="-22793">
		<tag k="name" v="Svien" />
		<tag k="natural" v="slope" />
		<tag k="place" v="locality" />
		<tag k="ssr:stedsnr" v="36015" />
	</node>
	<node lat="58.49217778048048" lon="7.226816669506453" id="-22794">
		<tag k="name" v="Langeskorheia" />
		<tag k="natural" v="hill" />
		<tag k="place" v="locality" />
		<tag k="ssr:stedsnr" v="36018" />
	</node>
	<node lat="58.454780554085424" lon="7.204425001624879" id="-22796">
		<tag k="fixme" v="consider natural=peak for the most distinct mountains in the district" />
		<tag k="name" v="Heståsen" />
		<tag k="natural" v="hill" />
		<tag k="place" v="locality" />
		<tag k="ssr:stedsnr" v="36022" />
	</node>
	<node lat="58.456008329422474" lon="7.214538891741458" id="-22797">
		<tag k="name" v="Notedalen" />
		<tag k="natural" v="valley" />
		<tag k="place" v="locality" />
		<tag k="ssr:stedsnr" v="36023" />
	</node>
	<node lat="58.425747220256156" lon="7.124094448736379" id="-22798">
		<tag k="name" v="Soknedalen" />
		<tag k="natural" v="valley" />
		<tag k="place" v="locality" />
		<tag k="ssr:stedsnr" v="36024" />
	</node>
	<node lat="58.45159166977166" lon="7.215591668154837" id="-22800">
		<tag k="name" v="Bjorbrokka" />
		<tag k="natural" v="slope" />
		<tag k="place" v="locality" />
		<tag k="ssr:stedsnr" v="36004" />
	</node>
	<node lat="58.448472221770785" lon="7.139052784305321" id="-22801">
		<tag k="name" v="Skytelshommen" />
		<tag k="natural" v="valley" />
		<tag k="place" v="locality" />
		<tag k="ssr:stedsnr" v="36008" />
	</node>
	<node lat="58.50619166945296" lon="7.22453611940033" id="-22802">
		<tag k="name" v="Grøne hommen" />
		<tag k="natural" v="valley" />
		<tag k="place" v="locality" />
		<tag k="ssr:stedsnr" v="36009" />
	</node>
	<node lat="58.480824999967346" lon="7.183333340454479" id="-22803">
		<tag k="fixme" v="consider natural=peak for the most distinct mountains in the district" />
		<tag k="name" v="Varåsen" />
		<tag k="natural" v="hill" />
		<tag k="place" v="locality" />
		<tag k="ssr:stedsnr" v="36115" />
	</node>
	<node lat="58.48216388702058" lon="7.187163887639655" id="-22804">
		<tag k="name" v="Langeberg" />
		<tag k="natural" v="slope" />
		<tag k="place" v="locality" />
		<tag k="ssr:stedsnr" v="36116" />
	</node>
	<node lat="58.45498889030648" lon="7.327450007820263" id="-22805">
		<tag k="name" v="Krikkan" />
		<tag k="natural" v="valley" />
		<tag k="place" v="locality" />
		<tag k="ssr:stedsnr" v="36106" />
	</node>
	<node lat="58.50091667077899" lon="7.203669444511652" id="-22811">
		<tag k="name" v="Solhomman" />
		<tag k="natural" v="valley" />
		<tag k="place" v="locality" />
		<tag k="ssr:stedsnr" v="36308" />
	</node>
	<node lat="58.51158889184302" lon="7.157177778011935" id="-22812">
		<tag k="name" v="Bøljarbakkan" />
		<tag k="natural" v="hill" />
		<tag k="place" v="locality" />
		<tag k="ssr:stedsnr" v="36319" />
	</node>
	<node lat="58.42707778138984" lon="7.194536110528303" id="-22813">
		<tag k="name" v="Joskaret" />
		<tag k="natural" v="valley" />
		<tag k="place" v="locality" />
		<tag k="ssr:stedsnr" v="36060" />
	</node>
	<node lat="58.43406110958687" lon="7.1876916692603245" id="-22814">
		<tag k="name" v="Rundlaupen" />
		<tag k="natural" v="valley" />
		<tag k="place" v="locality" />
		<tag k="ssr:stedsnr" v="36065" />
	</node>
	<node lat="58.39524444167331" lon="7.155030553820294" id="-22815">
		<tag k="name" v="Dalan" />
		<tag k="natural" v="valley" />
		<tag k="place" v="locality" />
		<tag k="ssr:stedsnr" v="36201" />
	</node>
	<node lat="58.49692499640903" lon="7.136152785004085" id="-22817">
		<tag k="name" v="Buknappbakken" />
		<tag k="natural" v="slope" />
		<tag k="place" v="locality" />
		<tag k="ssr:stedsnr" v="36217" />
	</node>
	<node lat="58.50073611051001" lon="7.134538894099082" id="-22818">
		<tag k="name" v="Stemsteknuten" />
		<tag k="natural" v="hill" />
		<tag k="place" v="locality" />
		<tag k="ssr:stedsnr" v="36220" />
	</node>
	<node lat="58.517263888270975" lon="7.164202776569119" id="-22820">
		<tag k="name" v="Krusen" />
		<tag k="natural" v="slope" />
		<tag k="place" v="locality" />
		<tag k="ssr:stedsnr" v="36265" />
	</node>
	<node lat="58.51876666545582" lon="7.152477773819399" id="-22822">
		<tag k="name" v="Vestelian" />
		<tag k="natural" v="slope" />
		<tag k="place" v="locality" />
		<tag k="ssr:stedsnr" v="36275" />
	</node>
	<node lat="58.53322499765508" lon="7.185152783661672" id="-22824">
		<tag k="name" v="Krusle" />
		<tag k="natural" v="slope" />
		<tag k="place" v="locality" />
		<tag k="ssr:stedsnr" v="36406" />
	</node>
	<node lat="58.501255554453415" lon="7.3211499961951585" id="-22827">
		<tag k="name" v="Fossbekk-knoddan" />
		<tag k="natural" v="hill" />
		<tag k="place" v="locality" />
		<tag k="ssr:stedsnr" v="36764" />
	</node>
	<node lat="58.503563889286056" lon="7.327613893496427" id="-22828">
		<tag k="name" v="Skarhei" />
		<tag k="natural" v="ridge" />
		<tag k="place" v="locality" />
		<tag k="ssr:stedsnr" v="36770" />
	</node>
	<node lat="58.346583337879096" lon="7.1504277821726605" id="-22830">
		<tag k="name" v="Hudetjødnheia" />
		<tag k="natural" v="hill" />
		<tag k="place" v="locality" />
		<tag k="ssr:stedsnr" v="36962" />
	</node>
	<node lat="58.34560278067102" lon="7.161086104101548" id="-22831">
		<tag k="name" v="Gåsteinstjødnskaret" />
		<tag k="natural" v="valley" />
		<tag k="place" v="locality" />
		<tag k="ssr:stedsnr" v="36964" />
	</node>
	<node lat="58.47081110787963" lon="7.239174993131237" id="-22832">
		<tag k="name" v="Bjødnebakken" />
		<tag k="natural" v="slope" />
		<tag k="place" v="locality" />
		<tag k="ssr:stedsnr" v="37101" />
	</node>
	<node lat="58.29911666987151" lon="7.145891663730467" id="-22834">
		<tag k="name" v="Storli" />
		<tag k="natural" v="slope" />
		<tag k="place" v="locality" />
		<tag k="ssr:stedsnr" v="37105" />
	</node>
	<node lat="58.30754166798963" lon="7.182791666608618" id="-22836">
		<tag k="name" v="Ormebakken" />
		<tag k="natural" v="hill" />
		<tag k="place" v="locality" />
		<tag k="ssr:stedsnr" v="37112" />
	</node>
	<node lat="58.32836388581515" lon="7.199994443491649" id="-22839">
		<tag k="name" v="Voddan" />
		<tag k="natural" v="slope" />
		<tag k="place" v="locality" />
		<tag k="ssr:stedsnr" v="37003" />
	</node>
	<node lat="58.41699722249696" lon="7.274844437794638" id="-22840">
		<tag k="name" v="Støbakken" />
		<tag k="natural" v="slope" />
		<tag k="place" v="locality" />
		<tag k="ssr:stedsnr" v="37401" />
	</node>
	<node lat="58.53573888984385" lon="7.1114222223675085" id="-22841">
		<tag k="fixme" v="consider natural=peak for the most distinct mountains in the district" />
		<tag k="name" v="Voileknuten" />
		<tag k="natural" v="hill" />
		<tag k="place" v="locality" />
		<tag k="ssr:stedsnr" v="37408" />
	</node>
	<node lat="58.45381667037602" lon="7.289336113291143" id="-22846">
		<tag k="fixme" v="consider natural=peak for the most distinct mountains in the district" />
		<tag k="name" v="Tjukkeriset" />
		<tag k="natural" v="hill" />
		<tag k="place" v="locality" />
		<tag k="ssr:stedsnr" v="37176" />
	</node>
	<node lat="58.43789722234812" lon="7.244186106444938" id="-22847">
		<tag k="name" v="Ulvsgreina" />
		<tag k="natural" v="slope" />
		<tag k="place" v="locality" />
		<tag k="ssr:stedsnr" v="37306" />
	</node>
	<node lat="58.56322500060611" lon="7.199005551892905" id="-22848">
		<tag k="name" v="Melhaugen" />
		<tag k="natural" v="hill" />
		<tag k="place" v="locality" />
		<tag k="ssr:stedsnr" v="37614" />
	</node>
	<node lat="58.3699222267048" lon="7.238475003494724" id="-22850">
		<tag k="name" v="Lægan" />
		<tag k="natural" v="valley" />
		<tag k="place" v="locality" />
		<tag k="ssr:stedsnr" v="37567" />
	</node>
	<node lat="58.34256388707519" lon="7.2708166644616465" id="-22854">
		<tag k="name" v="Store Dalrind" />
		<tag k="natural" v="ridge" />
		<tag k="place" v="locality" />
		<tag k="ssr:stedsnr" v="37770" />
	</node>
	<node lat="58.58482222462705" lon="7.240327780395385" id="-22859">
		<tag k="alt_name" v="Grunneshommen, øvre" />
		<tag k="name" v="Øvre Grunneshommen" />
		<tag k="natural" v="valley" />
		<tag k="place" v="locality" />
		<tag k="ssr:stedsnr" v="61406" />
	</node>
	<node lat="58.56375555771132" lon="7.093652772760617" id="-22860">
		<tag k="name" v="Storslåtta" />
		<tag k="place" v="locality" />
		<tag k="ssr:stedsnr" v="61423" />
	</node>
	<node lat="58.561125002060265" lon="7.154091674249589" id="-22862">
		<tag k="alt_name" v="Husfjellet" />
		<tag k="fixme" v="consider natural=peak for the most distinct mountains in the district" />
		<tag k="name" v="Husfjell" />
		<tag k="natural" v="hill" />
		<tag k="place" v="locality" />
		<tag k="ssr:stedsnr" v="61372" />
	</node>
	<node lat="58.555349997988586" lon="7.189919443768523" id="-22863">
		<tag k="alt_name" v="Gunnarsheii" />
		<tag k="fixme" v="consider natural=peak for the most distinct mountains in the district" />
		<tag k="name" v="Gunnårsheia" />
		<tag k="natural" v="hill" />
		<tag k="place" v="locality" />
		<tag k="ssr:stedsnr" v="61374" />
	</node>
	<node lat="58.55547777924484" lon="7.213905561320171" id="-22864">
		<tag k="alt_name" v="Ramneheii" />
		<tag k="name" v="Ramneheia" />
		<tag k="natural" v="hill" />
		<tag k="place" v="locality" />
		<tag k="ssr:stedsnr" v="61376" />
	</node>
	<node lat="58.548691663336484" lon="7.224227771992107" id="-22865">
		<tag k="fixme" v="consider natural=peak for the most distinct mountains in the district" />
		<tag k="name" v="Homsfjellet" />
		<tag k="natural" v="hill" />
		<tag k="place" v="locality" />
		<tag k="ssr:stedsnr" v="61387" />
	</node>
	<node lat="58.606741669299105" lon="7.159274996507885" id="-22868">
		<tag k="name" v="Krobudalen" />
		<tag k="natural" v="valley" />
		<tag k="place" v="locality" />
		<tag k="ssr:stedsnr" v="242418" />
	</node>
	<node lat="58.502199998778956" lon="7.244049999976219" id="-22869">
		<tag k="name" v="Storli" />
		<tag k="natural" v="slope" />
		<tag k="place" v="locality" />
		<tag k="ssr:stedsnr" v="243048" />
	</node>
	<node lat="58.513172218722225" lon="7.2624361166287486" id="-22871">
		<tag k="name" v="Floti" />
		<tag k="place" v="locality" />
		<tag k="ssr:stedsnr" v="243058" />
	</node>
	<node lat="58.52310833646447" lon="7.123125005545442" id="-22873">
		<tag k="alt_name" v="Husfjellet" />
		<tag k="name" v="Husfjell" />
		<tag k="natural" v="cliff" />
		<tag k="ssr:stedsnr" v="243079" />
	</node>
	<node lat="58.47437500145254" lon="7.257194443111961" id="-22877">
		<tag k="alt_name" v="Blessomheii" />
		<tag k="name" v="Hesthomknuten" />
		<tag k="natural" v="hill" />
		<tag k="place" v="locality" />
		<tag k="ssr:stedsnr" v="243350" />
	</node>
	<node lat="58.46361110847911" lon="7.1215083401616734" id="-22878">
		<tag k="name" v="Blåberg" />
		<tag k="natural" v="hill" />
		<tag k="place" v="locality" />
		<tag k="ssr:stedsnr" v="243356" />
	</node>
	<node lat="58.59725278212457" lon="7.158230556981254" id="-22886">
		<tag k="name" v="Sigmundshomknuten" />
		<tag k="natural" v="hill" />
		<tag k="place" v="locality" />
		<tag k="ssr:stedsnr" v="243463" />
	</node>
	<node lat="58.59626944534124" lon="7.230236114086881" id="-22887">
		<tag k="fixme" v="consider natural=peak for the most distinct mountains in the district" />
		<tag k="name" v="Svarthomheii" />
		<tag k="natural" v="hill" />
		<tag k="place" v="locality" />
		<tag k="ssr:stedsnr" v="243411" />
	</node>
	<node lat="58.57681111074004" lon="7.196872219823173" id="-22888">
		<tag k="alt_name" v="Svodfjell" />
		<tag k="fixme" v="consider natural=peak for the most distinct mountains in the district" />
		<tag k="name" v="Svofjell" />
		<tag k="natural" v="hill" />
		<tag k="place" v="locality" />
		<tag k="ssr:stedsnr" v="243423" />
	</node>
	<node lat="58.42531388793128" lon="7.250619440566511" id="-22891">
		<tag k="alt_name" v="Høgehei" />
		<tag k="fixme" v="consider natural=peak for the most distinct mountains in the district" />
		<tag k="name" v="Høghei" />
		<tag k="natural" v="hill" />
		<tag k="place" v="locality" />
		<tag k="ssr:stedsnr" v="243666" />
	</node>
	<node lat="58.64269722220895" lon="7.175672225223935" id="-22895">
		<tag k="name" v="Skjerkedalen" />
		<tag k="natural" v="valley" />
		<tag k="place" v="locality" />
		<tag k="ssr:stedsnr" v="244271" />
	</node>
	<node lat="58.38743610762947" lon="7.123791663050619" id="-22898">
		<tag k="name" v="Sæslirinnan" />
		<tag k="natural" v="ridge" />
		<tag k="place" v="locality" />
		<tag k="ssr:stedsnr" v="96064" />
	</node>
	<node lat="58.52001111147982" lon="7.176661111054762" id="-22902">
		<tag k="name" v="Trongedal" />
		<tag k="natural" v="valley" />
		<tag k="place" v="locality" />
		<tag k="ssr:stedsnr" v="96319" />
	</node>
	<node lat="58.37963333312721" lon="7.227047219666555" id="-22904">
		<tag k="alt_name" v="Erbrote" />
		<tag k="name" v="Ærebrote" />
		<tag k="natural" v="slope" />
		<tag k="place" v="locality" />
		<tag k="ssr:stedsnr" v="96723" />
	</node>
	<node lat="58.451247220101315" lon="7.212738894788796" id="-22905">
		<tag k="name" v="Håbergslian" />
		<tag k="natural" v="slope" />
		<tag k="place" v="locality" />
		<tag k="ssr:stedsnr" v="97003" />
	</node>
	<node lat="58.44456666423862" lon="7.146363885698099" id="-22906">
		<tag k="name" v="Heddestølsheia" />
		<tag k="natural" v="hill" />
		<tag k="place" v="locality" />
		<tag k="ssr:stedsnr" v="97008" />
	</node>
	<node lat="58.442333336511545" lon="7.151311115202008" id="-22907">
		<tag k="name" v="Heddestølskaret" />
		<tag k="natural" v="valley" />
		<tag k="place" v="locality" />
		<tag k="ssr:stedsnr" v="97009" />
	</node>
	<node lat="58.458380558499485" lon="7.212236107554939" id="-22908">
		<tag k="fixme" v="consider natural=peak for the most distinct mountains in the district" />
		<tag k="name" v="Slottet" />
		<tag k="natural" v="hill" />
		<tag k="place" v="locality" />
		<tag k="ssr:stedsnr" v="97013" />
	</node>
	<node lat="58.403325002800656" lon="7.1380583264870525" id="-22909">
		<tag k="name" v="Stolsrinnan" />
		<tag k="natural" v="ridge" />
		<tag k="place" v="locality" />
		<tag k="ssr:stedsnr" v="97060" />
	</node>
	<node lat="58.430572219946704" lon="7.1995805499053445" id="-22910">
		<tag k="fixme" v="consider natural=peak for the most distinct mountains in the district" />
		<tag k="name" v="Fuglebakken" />
		<tag k="natural" v="hill" />
		<tag k="place" v="locality" />
		<tag k="ssr:stedsnr" v="97069" />
	</node>
	<node lat="58.47543611290283" lon="7.225175004816284" id="-22911">
		<tag k="name" v="Tydneberbrote" />
		<tag k="natural" v="slope" />
		<tag k="place" v="locality" />
		<tag k="ssr:stedsnr" v="97107" />
	</node>
	<node lat="58.48560277393053" lon="7.243527785259241" id="-22912">
		<tag k="name" v="Tinnvakrona" />
		<tag k="natural" v="valley" />
		<tag k="place" v="locality" />
		<tag k="ssr:stedsnr" v="97115" />
	</node>
	<node lat="58.456544444134515" lon="7.315633331753318" id="-22913">
		<tag k="name" v="Husebakken" />
		<tag k="natural" v="hill" />
		<tag k="place" v="locality" />
		<tag k="ssr:stedsnr" v="97120" />
	</node>
	<node lat="58.45851944074618" lon="7.341872227781761" id="-22914">
		<tag k="name" v="Monen" />
		<tag k="place" v="locality" />
		<tag k="ssr:stedsnr" v="97121" />
	</node>
	<node lat="58.465127776544264" lon="7.313641659836801" id="-22916">
		<tag k="name" v="Kyrkjeknatten" />
		<tag k="natural" v="hill" />
		<tag k="place" v="locality" />
		<tag k="ssr:stedsnr" v="97161" />
	</node>
	<node lat="58.46827222111183" lon="7.325816659624622" id="-22917">
		<tag k="name" v="Karfite" />
		<tag k="place" v="locality" />
		<tag k="ssr:stedsnr" v="97163" />
	</node>
	<node lat="58.46229722232016" lon="7.263030550720643" id="-22918">
		<tag k="name" v="Hudefjellet" />
		<tag k="natural" v="hill" />
		<tag k="place" v="locality" />
		<tag k="ssr:stedsnr" v="97202" />
	</node>
	<node lat="58.45482777863692" lon="7.247850000061934" id="-22920">
		<tag k="fixme" v="consider natural=peak for the most distinct mountains in the district" />
		<tag k="name" v="Jostråsen" />
		<tag k="natural" v="hill" />
		<tag k="place" v="locality" />
		<tag k="ssr:stedsnr" v="97206" />
	</node>
	<node lat="58.460919440254294" lon="7.271741669967932" id="-22923">
		<tag k="fixme" v="consider natural=peak for the most distinct mountains in the district" />
		<tag k="name" v="Berghei" />
		<tag k="natural" v="hill" />
		<tag k="place" v="locality" />
		<tag k="ssr:stedsnr" v="97218" />
	</node>
	<node lat="58.51927777669002" lon="7.126836115490644" id="-22925">
		<tag k="name" v="Kleivan" />
		<tag k="natural" v="slope" />
		<tag k="place" v="locality" />
		<tag k="ssr:stedsnr" v="97424" />
	</node>
	<node lat="58.51637777914679" lon="7.164088892429738" id="-22926">
		<tag k="name" v="Svartups" />
		<tag k="natural" v="cliff" />
		<tag k="ssr:stedsnr" v="97310" />
	</node>
	<node lat="58.49162500097457" lon="7.131205559070358" id="-22928">
		<tag k="name" v="Vermundsheia" />
		<tag k="natural" v="hill" />
		<tag k="place" v="locality" />
		<tag k="ssr:stedsnr" v="97359" />
	</node>
	<node lat="58.49802777589337" lon="7.119258336462349" id="-22929">
		<tag k="name" v="Kålvedalen" />
		<tag k="natural" v="valley" />
		<tag k="place" v="locality" />
		<tag k="ssr:stedsnr" v="97379" />
	</node>
	<node lat="58.41893055902808" lon="7.118891665687238" id="-22930">
		<tag k="name" v="Amjodnhoved" />
		<tag k="natural" v="slope" />
		<tag k="place" v="locality" />
		<tag k="ssr:stedsnr" v="97382" />
	</node>
	<node lat="58.33784167088679" lon="7.155380560129198" id="-22935">
		<tag k="name" v="Deiknebakken" />
		<tag k="natural" v="hill" />
		<tag k="place" v="locality" />
		<tag k="ssr:stedsnr" v="98055" />
	</node>
	<node lat="58.34556944100888" lon="7.185541664907315" id="-22937">
		<tag k="name" v="Skarkedalen" />
		<tag k="natural" v="valley" />
		<tag k="place" v="locality" />
		<tag k="ssr:stedsnr" v="97966" />
	</node>
	<node lat="58.44574167068905" lon="7.280683336808573" id="-22938">
		<tag k="name" v="Tinnan" />
		<tag k="natural" v="ridge" />
		<tag k="place" v="locality" />
		<tag k="ssr:stedsnr" v="98314" />
	</node>
	<node lat="58.416655556449975" lon="7.221638887489441" id="-22939">
		<tag k="name" v="Lygnestronda" />
		<tag k="natural" v="slope" />
		<tag k="place" v="locality" />
		<tag k="ssr:stedsnr" v="98407" />
	</node>
	<node lat="58.40382499679693" lon="7.311658341001632" id="-22941">
		<tag k="name" v="Skrubbelia" />
		<tag k="natural" v="slope" />
		<tag k="place" v="locality" />
		<tag k="ssr:stedsnr" v="98418" />
	</node>
	<node lat="58.54896110993737" lon="7.119222226355746" id="-22942">
		<tag k="name" v="Storhei" />
		<tag k="natural" v="hill" />
		<tag k="place" v="locality" />
		<tag k="ssr:stedsnr" v="98423" />
	</node>
	<node lat="58.55102500285721" lon="7.132338884455249" id="-22943">
		<tag k="name" v="Krikkan" />
		<tag k="natural" v="valley" />
		<tag k="place" v="locality" />
		<tag k="ssr:stedsnr" v="98461" />
	</node>
	<node lat="58.38440555172691" lon="7.2296944415529145" id="-22946">
		<tag k="name" v="Klappmyr" />
		<tag k="place" v="locality" />
		<tag k="ssr:stedsnr" v="98474" />
	</node>
	<node lat="58.397205559129745" lon="7.231994448541636" id="-22947">
		<tag k="name" v="Stutebakken" />
		<tag k="natural" v="hill" />
		<tag k="place" v="locality" />
		<tag k="ssr:stedsnr" v="98481" />
	</node>
	<node lat="58.5700083310746" lon="7.20041388609834" id="-22948">
		<tag k="fixme" v="consider natural=peak for the most distinct mountains in the district" />
		<tag k="name" v="Buodden" />
		<tag k="natural" v="hill" />
		<tag k="place" v="locality" />
		<tag k="ssr:stedsnr" v="98603" />
	</node>
	<node lat="58.402638889859105" lon="7.229233327005826" id="-22949">
		<tag k="name" v="Omdalskrona" />
		<tag k="natural" v="valley" />
		<tag k="place" v="locality" />
		<tag k="ssr:stedsnr" v="98517" />
	</node>
	<node lat="58.39914722343297" lon="7.22649167029614" id="-22950">
		<tag k="fixme" v="consider natural=peak for the most distinct mountains in the district" />
		<tag k="name" v="Åsen" />
		<tag k="natural" v="hill" />
		<tag k="place" v="locality" />
		<tag k="ssr:stedsnr" v="98520" />
	</node>
	<node lat="58.564233332134194" lon="7.136611119225873" id="-22952">
		<tag k="name" v="Espeskaret" />
		<tag k="natural" v="valley" />
		<tag k="place" v="locality" />
		<tag k="ssr:stedsnr" v="98577" />
	</node>
	<node lat="58.557358335996206" lon="7.097022228334409" id="-22953">
		<tag k="name" v="Samlokhommen" />
		<tag k="natural" v="valley" />
		<tag k="place" v="locality" />
		<tag k="ssr:stedsnr" v="98583" />
	</node>
	<node lat="58.6520027772015" lon="7.120686103065175" id="-22954">
		<tag k="name" v="Skjerlevasshommen" />
		<tag k="natural" v="valley" />
		<tag k="place" v="locality" />
		<tag k="ssr:stedsnr" v="98669" />
	</node>
	<node lat="58.360427773613154" lon="7.254927780535715" id="-22955">
		<tag k="name" v="Hepte" />
		<tag k="natural" v="valley" />
		<tag k="place" v="locality" />
		<tag k="ssr:stedsnr" v="98826" />
	</node>
	<node lat="58.53743889205909" lon="7.224891664671933" id="-22957">
		<tag k="name" v="Bulia" />
		<tag k="natural" v="slope" />
		<tag k="place" v="locality" />
		<tag k="ssr:stedsnr" v="98869" />
	</node>
	<node lat="58.38150277818076" lon="7.2038194528823025" id="-22959">
		<tag k="name" v="Holtekilet" />
		<tag k="natural" v="ridge" />
		<tag k="place" v="locality" />
		<tag k="ssr:stedsnr" v="98971" />
	</node>
	<node lat="58.30215833645615" lon="7.243283327422557" id="-22961">
		<tag k="name" v="Rokken" />
		<tag k="place" v="locality" />
		<tag k="ssr:stedsnr" v="98979" />
	</node>
	<node lat="58.30766389009759" lon="7.2473527756567515" id="-22963">
		<tag k="name" v="Støa" />
		<tag k="place" v="locality" />
		<tag k="ssr:stedsnr" v="98984" />
	</node>
	<node lat="58.36270832940812" lon="7.188838893710842" id="-22967">
		<tag k="alt_name" v="Lonehei" />
		<tag k="fixme" v="consider natural=peak for the most distinct mountains in the district" />
		<tag k="name" v="Loneheia" />
		<tag k="natural" v="hill" />
		<tag k="place" v="locality" />
		<tag k="ssr:stedsnr" v="121721" />
	</node>
	<node lat="58.42371110759606" lon="7.110416667704939" id="-22969">
		<tag k="alt_name" v="Vedaråsheia" />
		<tag k="loc_name" v="Vearåsheii" />
		<tag k="name" v="Vearåsheia" />
		<tag k="natural" v="hill" />
		<tag k="place" v="locality" />
		<tag k="ssr:stedsnr" v="121662" />
	</node>
	<node lat="58.4449944454631" lon="7.217311104278297" id="-22972">
		<tag k="fixme" v="consider natural=peak for the most distinct mountains in the district" />
		<tag k="name" v="Lågåsen" />
		<tag k="natural" v="hill" />
		<tag k="place" v="locality" />
		<tag k="ssr:stedsnr" v="157055" />
	</node>
	<node lat="58.506488893162775" lon="7.145608332998454" id="-22974">
		<tag k="name" v="Gryteskog" />
		<tag k="natural" v="slope" />
		<tag k="place" v="locality" />
		<tag k="ssr:stedsnr" v="157220" />
	</node>
	<node lat="58.51680555970078" lon="7.171719436568157" id="-22975">
		<tag k="name" v="Sletten" />
		<tag k="place" v="locality" />
		<tag k="ssr:stedsnr" v="157254" />
	</node>
	<node lat="58.48370833647228" lon="7.156338891831029" id="-22976">
		<tag k="name" v="Storaknuten" />
		<tag k="natural" v="hill" />
		<tag k="place" v="locality" />
		<tag k="ssr:stedsnr" v="157122" />
	</node>
	<node lat="58.46954722428444" lon="7.261411108418777" id="-22979">
		<tag k="name" v="Lygneskaret" />
		<tag k="natural" v="valley" />
		<tag k="place" v="locality" />
		<tag k="ssr:stedsnr" v="157159" />
	</node>
	<node lat="58.46346111159963" lon="7.241369440385442" id="-22980">
		<tag k="fixme" v="consider natural=peak for the most distinct mountains in the district" />
		<tag k="name" v="Nasåsen" />
		<tag k="natural" v="hill" />
		<tag k="place" v="locality" />
		<tag k="ssr:stedsnr" v="157165" />
	</node>
	<node lat="58.511974997895514" lon="7.1778805485829" id="-22981">
		<tag k="name" v="Storli" />
		<tag k="natural" v="slope" />
		<tag k="place" v="locality" />
		<tag k="ssr:stedsnr" v="157310" />
	</node>
	<node lat="58.515969443148926" lon="7.22671666374081" id="-22984">
		<tag k="name" v="Øytjødnheie" />
		<tag k="natural" v="hill" />
		<tag k="place" v="locality" />
		<tag k="ssr:stedsnr" v="157848" />
	</node>
	<node lat="58.39692222167039" lon="7.168663891236607" id="-22986">
		<tag k="name" v="Baubrokka" />
		<tag k="natural" v="slope" />
		<tag k="place" v="locality" />
		<tag k="ssr:stedsnr" v="158002" />
	</node>
	<node lat="58.32942777603754" lon="7.217541668731628" id="-22987">
		<tag k="name" v="Husbakken" />
		<tag k="natural" v="hill" />
		<tag k="place" v="locality" />
		<tag k="ssr:stedsnr" v="158005" />
	</node>
	<node lat="58.32273611220373" lon="7.1641777763668895" id="-22988">
		<tag k="name" v="Stordalen" />
		<tag k="natural" v="valley" />
		<tag k="place" v="locality" />
		<tag k="ssr:stedsnr" v="158015" />
	</node>
	<node lat="58.32438888545264" lon="7.170255560142896" id="-22989">
		<tag k="name" v="Fændalen" />
		<tag k="natural" v="valley" />
		<tag k="place" v="locality" />
		<tag k="ssr:stedsnr" v="158016" />
	</node>
	<node lat="58.47076111191206" lon="7.234480563379797" id="-22992">
		<tag k="name" v="Tinndalen" />
		<tag k="natural" v="valley" />
		<tag k="place" v="locality" />
		<tag k="ssr:stedsnr" v="158153" />
	</node>
	<node lat="58.45328888752437" lon="7.36896945130886" id="-22993">
		<tag k="name" v="Årestuen" />
		<tag k="place" v="locality" />
		<tag k="ssr:stedsnr" v="158171" />
	</node>
	<node lat="58.43643332968195" lon="7.223105548012652" id="-22994">
		<tag k="name" v="Kleppsfjellet" />
		<tag k="natural" v="cliff" />
		<tag k="ssr:stedsnr" v="158368" />
	</node>
	<node lat="58.33571110817398" lon="7.128119451153317" id="-22997">
		<tag k="name" v="Tunnesteigen" />
		<tag k="natural" v="slope" />
		<tag k="place" v="locality" />
		<tag k="ssr:stedsnr" v="158211" />
	</node>
	<node lat="58.35921667024792" lon="7.202666659454153" id="-22999">
		<tag k="name" v="Raunelibakken" />
		<tag k="natural" v="slope" />
		<tag k="place" v="locality" />
		<tag k="ssr:stedsnr" v="158216" />
	</node>
	<node lat="58.36798888843545" lon="7.123802773123519" id="-23000">
		<tag k="fixme" v="consider natural=peak for the most distinct mountains in the district" />
		<tag k="name" v="Sandvassåsen" />
		<tag k="natural" v="hill" />
		<tag k="place" v="locality" />
		<tag k="ssr:stedsnr" v="158249" />
	</node>
	<node lat="58.46476944406654" lon="7.11073332485226" id="-23001">
		<tag k="name" v="Trollshola" />
		<tag k="natural" v="valley" />
		<tag k="place" v="locality" />
		<tag k="ssr:stedsnr" v="158257" />
	</node>
	<node lat="58.39988055727799" lon="7.211958325031129" id="-23002">
		<tag k="name" v="Paddeskorm" />
		<tag k="natural" v="valley" />
		<tag k="place" v="locality" />
		<tag k="ssr:stedsnr" v="158264" />
	</node>
	<node lat="58.537794445702694" lon="7.131813892812092" id="-23003">
		<tag k="name" v="Tjovhelleren" />
		<tag k="place" v="locality" />
		<tag k="ssr:stedsnr" v="158407" />
	</node>
	<node lat="58.42468333617678" lon="7.231488892610209" id="-23004">
		<tag k="name" v="Lunnan" />
		<tag k="place" v="locality" />
		<tag k="ssr:stedsnr" v="158411" />
	</node>
	<node lat="58.29495277328209" lon="7.145830549295131" id="-23005">
		<tag k="name" v="Lyngrinnen" />
		<tag k="natural" v="ridge" />
		<tag k="place" v="locality" />
		<tag k="ssr:stedsnr" v="158417" />
	</node>
	<node lat="58.59151111521304" lon="7.095872230567253" id="-23009">
		<tag k="name" v="Geitskarfjellet" />
		<tag k="natural" v="cliff" />
		<tag k="ssr:stedsnr" v="158506" />
	</node>
	<node lat="58.38150000402023" lon="7.317380547227283" id="-23010">
		<tag k="alt_name" v="Langalieskaret" />
		<tag k="name" v="Langaliskaret" />
		<tag k="natural" v="valley" />
		<tag k="place" v="locality" />
		<tag k="ssr:stedsnr" v="158548" />
	</node>
	<node lat="58.56368610907711" lon="7.1427805566113935" id="-23011">
		<tag k="name" v="Åvetslands Bjørndal" />
		<tag k="natural" v="valley" />
		<tag k="place" v="locality" />
		<tag k="ssr:stedsnr" v="158562" />
	</node>
	<node lat="58.55464166982781" lon="7.124927776890876" id="-23012">
		<tag k="name" v="Bjødnedalsfjellet" />
		<tag k="natural" v="hill" />
		<tag k="place" v="locality" />
		<tag k="ssr:stedsnr" v="158599" />
	</node>
	<node lat="58.605119444648714" lon="7.130133338521333" id="-23013">
		<tag k="name" v="Roneknuten" />
		<tag k="natural" v="hill" />
		<tag k="place" v="locality" />
		<tag k="ssr:stedsnr" v="158750" />
	</node>
	<node lat="58.61205833332811" lon="7.133597221699444" id="-23014">
		<tag k="name" v="Kyrkjesteindalen" />
		<tag k="natural" v="valley" />
		<tag k="place" v="locality" />
		<tag k="ssr:stedsnr" v="158755" />
	</node>
	<node lat="58.60417222065803" lon="7.225599997421599" id="-23018">
		<tag k="name" v="Surtefjell øvre" />
		<tag k="natural" v="cliff" />
		<tag k="ssr:stedsnr" v="158652" />
	</node>
	<node lat="58.66363055465738" lon="7.126055547110933" id="-23020">
		<tag k="name" v="Tangetjødnhommen" />
		<tag k="natural" v="valley" />
		<tag k="place" v="locality" />
		<tag k="ssr:stedsnr" v="158668" />
	</node>
	<node lat="58.33353055823428" lon="7.2829666655180585" id="-23022">
		<tag k="fixme" v="consider natural=peak for the most distinct mountains in the district" />
		<tag k="name" v="Teinbergsåsen" />
		<tag k="natural" v="hill" />
		<tag k="place" v="locality" />
		<tag k="ssr:stedsnr" v="158907" />
	</node>
	<node lat="58.344608333147164" lon="7.127141658826691" id="-23024">
		<tag k="name" v="Stivlehommen" />
		<tag k="natural" v="valley" />
		<tag k="place" v="locality" />
		<tag k="ssr:stedsnr" v="158960" />
	</node>
	<node lat="58.355024998144394" lon="7.170247216467834" id="-23026">
		<tag k="name" v="Fjelltjødnrinnan" />
		<tag k="natural" v="ridge" />
		<tag k="place" v="locality" />
		<tag k="ssr:stedsnr" v="158967" />
	</node>
	<node lat="58.350930555577875" lon="7.272586108690885" id="-23028">
		<tag k="name" v="Steinårknuden" />
		<tag k="natural" v="hill" />
		<tag k="place" v="locality" />
		<tag k="ssr:stedsnr" v="158854" />
	</node>
	<node lat="58.53700000219982" lon="7.269599996233201" id="-23029">
		<tag k="name" v="Siriknuten" />
		<tag k="natural" v="hill" />
		<tag k="place" v="locality" />
		<tag k="ssr:stedsnr" v="158864" />
	</node>
	<node lat="58.32985278159355" lon="7.158358332479889" id="-23030">
		<tag k="name" v="Skuggefjellan" />
		<tag k="natural" v="cliff" />
		<tag k="ssr:stedsnr" v="159024" />
	</node>
	<node lat="58.31861389088396" lon="7.15388055784763" id="-23031">
		<tag k="name" v="Voddan" />
		<tag k="natural" v="slope" />
		<tag k="place" v="locality" />
		<tag k="ssr:stedsnr" v="159098" />
	</node>
	<node lat="58.61128055703585" lon="7.111513894258586" id="-23033">
		<tag k="alt_name" v="Finnstedalen" />
		<tag k="name" v="Finstedalen" />
		<tag k="natural" v="valley" />
		<tag k="place" v="locality" />
		<tag k="ssr:stedsnr" v="182427" />
	</node>
	<node lat="58.35360000393953" lon="7.152063888645123" id="-23037">
		<tag k="alt_name" v="Storskorshei" />
		<tag k="fixme" v="consider natural=peak for the most distinct mountains in the district" />
		<tag k="name" v="Storskorhei" />
		<tag k="natural" v="hill" />
		<tag k="place" v="locality" />
		<tag k="ssr:stedsnr" v="182700" />
	</node>
	<node lat="58.468533330249194" lon="7.247388893146209" id="-23038">
		<tag k="name" v="Klomre" />
		<tag k="natural" v="valley" />
		<tag k="place" v="locality" />
		<tag k="ssr:stedsnr" v="218203" />
	</node>
	<node lat="58.455786113771346" lon="7.248574991866433" id="-23039">
		<tag k="name" v="Dansarbergan" />
		<tag k="natural" v="slope" />
		<tag k="place" v="locality" />
		<tag k="ssr:stedsnr" v="218204" />
	</node>
	<node lat="58.46063888611991" lon="7.24398055014353" id="-23040">
		<tag k="name" v="Ormebakken" />
		<tag k="natural" v="slope" />
		<tag k="place" v="locality" />
		<tag k="ssr:stedsnr" v="218206" />
	</node>
</osm>
