<?xml version="1.0" encoding="UTF-8"?>
<osm version="0.6" generator="osmapis">
	<node lat="58.35460832903244" lon="7.207163895163109" id="-22807">
		<tag k="highway" v="path" />
		<tag k="name" v="Eilefstadbakken" />
		<tag k="ssr:stedsnr" v="36161" />
	</node>
	<node lat="58.445894441817444" lon="7.338305562673185" id="-22816">
		<tag k="highway" v="path" />
		<tag k="loc_name" v="På stien" />
		<tag k="name" v="Stien" />
		<tag k="ssr:stedsnr" v="36209" />
	</node>
	<node lat="58.37508889331071" lon="7.237880557816935" id="-22825">
		<tag k="ford" v="yes" />
		<tag k="name" v="Leinlandsvadet" />
		<tag k="place" v="locality" />
		<tag k="ssr:stedsnr" v="36577" />
	</node>
	<node lat="58.48581388947773" lon="7.247019451810196" id="-22845">
		<tag k="ford" v="yes" />
		<tag k="name" v="Vonda va" />
		<tag k="place" v="locality" />
		<tag k="ssr:stedsnr" v="37164" />
	</node>
	<node lat="58.574716663613096" lon="7.121705557263903" id="-22851">
		<tag k="highway" v="path" />
		<tag k="name" v="Mannevegen" />
		<tag k="ssr:stedsnr" v="37579" />
	</node>
	<node lat="58.50008888793457" lon="7.330308332952424" id="-22856">
		<tag k="bridge" v="yes" />
		<tag k="layer" v="1" />
		<tag k="name" v="Fossbekk" />
		<tag k="ssr:stedsnr" v="46493" />
	</node>
	<node lat="58.46258611052603" lon="7.342711105988161" id="-22915">
		<tag k="fixme" v="consider highway=path" />
		<tag k="highway" v="track" />
		<tag k="name" v="Setedalsvegen" />
		<tag k="ssr:stedsnr" v="97123" />
	</node>
	<node lat="58.307530555593644" lon="7.227602783632964" id="-22958">
		<tag k="ford" v="yes" />
		<tag k="name" v="Bergva" />
		<tag k="place" v="locality" />
		<tag k="ssr:stedsnr" v="98913" />
	</node>
	<node lat="58.49786667018193" lon="7.1769777734064135" id="-22964">
		<tag k="bridge" v="yes" />
		<tag k="layer" v="1" />
		<tag k="name" v="Bryggeså, Øvre" />
		<tag k="ssr:stedsnr" v="107472" />
	</node>
	<node lat="58.60755277899706" lon="7.1149305518029395" id="-23015">
		<tag k="ford" v="yes" />
		<tag k="name" v="Vaet" />
		<tag k="place" v="locality" />
		<tag k="ssr:stedsnr" v="158764" />
	</node>
	<node lat="58.34332777456899" lon="7.287305562392284" id="-23021">
		<tag k="highway" v="path" />
		<tag k="name" v="Gunvårstien" />
		<tag k="ssr:stedsnr" v="158805" />
	</node>
</osm>
