<?xml version="1.0" encoding="UTF-8"?>
<osm version="0.6" generator="osmapis">
	<node lat="58.4371555576915" lon="7.306533328988142" id="-23827">
		<tag k="historic" v="boundary_stone" />
		<tag k="man_made" v="cairn" />
		<tag k="name" v="Stongsteinen" />
		<tag k="place" v="locality" />
		<tag k="ssr:stedsnr" v="400233" />
	</node>
	<node lat="58.48916110723408" lon="7.1999583306121915" id="-24158">
		<tag k="fixme" v="consider boundary=protected_area and relevant protect_class if not nature reserve" />
		<tag k="leisure" v="nature_reserve" />
		<tag k="name" v="Daurenosa naturreservat" />
		<tag k="ssr:stedsnr" v="703141" />
	</node>
	<node lat="58.38025833089277" lon="7.322600005921958" id="-24195">
		<tag k="historic" v="boundary_stone" />
		<tag k="man_made" v="cairn" />
		<tag k="name" v="Russesteinen" />
		<tag k="place" v="locality" />
		<tag k="ssr:stedsnr" v="704012" />
	</node>
	<node lat="58.36147777983871" lon="7.163361115894522" id="-24250">
		<tag k="historic" v="boundary_stone" />
		<tag k="man_made" v="cairn" />
		<tag k="name" v="Stakksteinen" />
		<tag k="place" v="locality" />
		<tag k="ssr:stedsnr" v="704936" />
	</node>
	<node lat="59.17380833175229" lon="7.342336115303057" id="-24814">
		<tag k="fixme" v="consider boundary=protected_area and relevant protect_class if not nature reserve" />
		<tag k="leisure" v="nature_reserve" />
		<tag k="name" v="Setesdal Vesthei Ryfylkeheiane landskapsvernomrÃ¥de" />
		<tag k="ssr:stedsnr" v="60524" />
	</node>
</osm>
