<?xml version="1.0" encoding="UTF-8"?>
<osm version="0.6" generator="osmapis">
	<node lat="58.50319722648939" lon="7.321611105891564" id="-22776">
		<tag k="name" v="Fossbekken" />
		<tag k="ssr:stedsnr" v="61" />
		<tag k="waterway" v="stream" />
	</node>
	<node lat="58.50416110865015" lon="7.240516673438454" id="-22777">
		<tag k="name" v="Storlibekken" />
		<tag k="ssr:stedsnr" v="66" />
		<tag k="waterway" v="stream" />
	</node>
	<node lat="58.50433333011028" lon="7.302580551797522" id="-22778">
		<tag k="alt_name" v="Bustøheii" />
		<tag k="fixme" v="consider natural=peak for the most distinct mountains in the district" />
		<tag k="name" v="Bustøhei" />
		<tag k="natural" v="hill" />
		<tag k="place" v="locality" />
		<tag k="ssr:stedsnr" v="67" />
	</node>
	<node lat="58.46062499912506" lon="7.196777771501387" id="-22779">
		<tag k="fixme" v="consider place=hamlet" />
		<tag k="name" v="Skoland" />
		<tag k="place" v="farm" />
		<tag k="ssr:stedsnr" v="353" />
	</node>
	<node lat="58.45793333735643" lon="7.315305557515469" id="-22780">
		<tag k="alt_name" v="Stuelien;Stulien" />
		<tag k="fixme" v="consider place=hamlet" />
		<tag k="name" v="Stueli" />
		<tag k="place" v="farm" />
		<tag k="ssr:stedsnr" v="355" />
	</node>
	<node lat="58.45013610885574" lon="7.32355277782691" id="-22781">
		<tag k="alt_name" v="Øygardstjørni" />
		<tag k="name" v="Øygardstjønn" />
		<tag k="natural" v="water" />
		<tag k="ssr:stedsnr" v="364" />
	</node>
	<node lat="58.58649166267443" lon="7.1115916615596095" id="-22782">
		<tag k="alt_name" v="Bjørnehomknuten" />
		<tag k="name" v="Bjørnhomknuten" />
		<tag k="natural" v="hill" />
		<tag k="place" v="locality" />
		<tag k="ssr:stedsnr" v="417" />
	</node>
	<node lat="58.60128611144135" lon="7.112847216624757" id="-22783">
		<tag k="alt_name" v="Løynhomfjellet" />
		<tag k="fixme" v="consider natural=peak for the most distinct mountains in the district" />
		<tag k="name" v="Lømhomfjellet" />
		<tag k="natural" v="hill" />
		<tag k="place" v="locality" />
		<tag k="ssr:stedsnr" v="461" />
	</node>
	<node lat="58.59768888814212" lon="7.1902249991771825" id="-22784">
		<tag k="alt_name" v="Surtevatnet" />
		<tag k="name" v="Surtevatn" />
		<tag k="natural" v="water" />
		<tag k="ssr:stedsnr" v="464" />
		<tag k="water" v="lake" />
	</node>
	<node lat="58.61863332920646" lon="7.203811114854287" id="-22785">
		<tag k="name" v="Vedvassdalen" />
		<tag k="natural" v="valley" />
		<tag k="place" v="locality" />
		<tag k="ssr:stedsnr" v="500" />
	</node>
	<node lat="58.41394444534818" lon="7.142730559848275" id="-22786">
		<tag k="alt_name" v="Skardtjørn" />
		<tag k="name" v="Skartjødn" />
		<tag k="natural" v="water" />
		<tag k="ssr:stedsnr" v="660" />
	</node>
	<node lat="58.38225277698856" lon="7.209941662279272" id="-22787">
		<tag k="name" v="Eikeland" />
		<tag k="place" v="farm" />
		<tag k="ssr:stedsnr" v="748" />
	</node>
	<node lat="58.65939999775478" lon="7.196036104629513" id="-22788">
		<tag k="alt_name" v="Skjerkedalsrindan" />
		<tag k="fixme" v="consider natural=peak for the most distinct mountains in the district" />
		<tag k="name" v="Skjerkedalsrinnen" />
		<tag k="natural" v="hill" />
		<tag k="place" v="locality" />
		<tag k="ssr:stedsnr" v="1290" />
	</node>
	<node lat="58.390027775551424" lon="7.126416664638061" id="-22789">
		<tag k="name" v="Melkedalen" />
		<tag k="natural" v="valley" />
		<tag k="place" v="locality" />
		<tag k="ssr:stedsnr" v="35061" />
	</node>
	<node lat="58.49778889309232" lon="7.247949992629261" id="-22790">
		<tag k="name" v="Gåvastrånda" />
		<tag k="natural" v="beach" />
		<tag k="ssr:stedsnr" v="35910" />
	</node>
	<node lat="58.392758332994404" lon="7.197944440505768" id="-22791">
		<tag k="name" v="Skarstøl" />
		<tag k="place" v="locality" />
		<tag k="ssr:stedsnr" v="36010" />
	</node>
	<node lat="58.504933333186486" lon="7.239483336843081" id="-22792">
		<tag k="name" v="Bjødnedalen" />
		<tag k="natural" v="valley" />
		<tag k="place" v="locality" />
		<tag k="ssr:stedsnr" v="36014" />
	</node>
	<node lat="58.40228610805398" lon="7.170319438119514" id="-22793">
		<tag k="name" v="Svien" />
		<tag k="natural" v="slope" />
		<tag k="place" v="locality" />
		<tag k="ssr:stedsnr" v="36015" />
	</node>
	<node lat="58.49217778048048" lon="7.226816669506453" id="-22794">
		<tag k="name" v="Langeskorheia" />
		<tag k="natural" v="hill" />
		<tag k="place" v="locality" />
		<tag k="ssr:stedsnr" v="36018" />
	</node>
	<node lat="58.49634721918628" lon="7.232080556954362" id="-22795">
		<tag k="name" v="Lonen" />
		<tag k="natural" v="water" />
		<tag k="ssr:stedsnr" v="36021" />
		<tag k="water" v="lake" />
	</node>
	<node lat="58.454780554085424" lon="7.204425001624879" id="-22796">
		<tag k="fixme" v="consider natural=peak for the most distinct mountains in the district" />
		<tag k="name" v="Heståsen" />
		<tag k="natural" v="hill" />
		<tag k="place" v="locality" />
		<tag k="ssr:stedsnr" v="36022" />
	</node>
	<node lat="58.456008329422474" lon="7.214538891741458" id="-22797">
		<tag k="name" v="Notedalen" />
		<tag k="natural" v="valley" />
		<tag k="place" v="locality" />
		<tag k="ssr:stedsnr" v="36023" />
	</node>
	<node lat="58.425747220256156" lon="7.124094448736379" id="-22798">
		<tag k="name" v="Soknedalen" />
		<tag k="natural" v="valley" />
		<tag k="place" v="locality" />
		<tag k="ssr:stedsnr" v="36024" />
	</node>
	<node lat="58.444624996815584" lon="7.12324721791554" id="-22799">
		<tag k="name" v="Fisketjødn" />
		<tag k="natural" v="water" />
		<tag k="ssr:stedsnr" v="36001" />
		<tag k="water" v="lake" />
	</node>
	<node lat="58.45159166977166" lon="7.215591668154837" id="-22800">
		<tag k="name" v="Bjorbrokka" />
		<tag k="natural" v="slope" />
		<tag k="place" v="locality" />
		<tag k="ssr:stedsnr" v="36004" />
	</node>
	<node lat="58.448472221770785" lon="7.139052784305321" id="-22801">
		<tag k="name" v="Skytelshommen" />
		<tag k="natural" v="valley" />
		<tag k="place" v="locality" />
		<tag k="ssr:stedsnr" v="36008" />
	</node>
	<node lat="58.50619166945296" lon="7.22453611940033" id="-22802">
		<tag k="name" v="Grøne hommen" />
		<tag k="natural" v="valley" />
		<tag k="place" v="locality" />
		<tag k="ssr:stedsnr" v="36009" />
	</node>
	<node lat="58.480824999967346" lon="7.183333340454479" id="-22803">
		<tag k="fixme" v="consider natural=peak for the most distinct mountains in the district" />
		<tag k="name" v="Varåsen" />
		<tag k="natural" v="hill" />
		<tag k="place" v="locality" />
		<tag k="ssr:stedsnr" v="36115" />
	</node>
	<node lat="58.48216388702058" lon="7.187163887639655" id="-22804">
		<tag k="name" v="Langeberg" />
		<tag k="natural" v="slope" />
		<tag k="place" v="locality" />
		<tag k="ssr:stedsnr" v="36116" />
	</node>
	<node lat="58.45498889030648" lon="7.327450007820263" id="-22805">
		<tag k="name" v="Krikkan" />
		<tag k="natural" v="valley" />
		<tag k="place" v="locality" />
		<tag k="ssr:stedsnr" v="36106" />
	</node>
	<node lat="58.3736500037635" lon="7.154000005731356" id="-22806">
		<tag k="name" v="Haltetjødn" />
		<tag k="natural" v="water" />
		<tag k="ssr:stedsnr" v="36160" />
	</node>
	<node lat="58.35460832903244" lon="7.207163895163109" id="-22807">
		<tag k="highway" v="path" />
		<tag k="name" v="Eilefstadbakken" />
		<tag k="ssr:stedsnr" v="36161" />
	</node>
	<node lat="58.37383610767704" lon="7.1626027754903525" id="-22808">
		<tag k="name" v="Prestbekk" />
		<tag k="ssr:stedsnr" v="36162" />
		<tag k="waterway" v="stream" />
	</node>
	<node lat="58.458455554401596" lon="7.23488333824399" id="-22809">
		<tag k="name" v="Slurpestøl" />
		<tag k="place" v="farm" />
		<tag k="ssr:stedsnr" v="36170" />
	</node>
	<node lat="58.46438611019661" lon="7.269833336428992" id="-22810">
		<tag k="name" v="Røyrtjødn" />
		<tag k="natural" v="water" />
		<tag k="ssr:stedsnr" v="36176" />
	</node>
	<node lat="58.50091667077899" lon="7.203669444511652" id="-22811">
		<tag k="name" v="Solhomman" />
		<tag k="natural" v="valley" />
		<tag k="place" v="locality" />
		<tag k="ssr:stedsnr" v="36308" />
	</node>
	<node lat="58.51158889184302" lon="7.157177778011935" id="-22812">
		<tag k="name" v="Bøljarbakkan" />
		<tag k="natural" v="hill" />
		<tag k="place" v="locality" />
		<tag k="ssr:stedsnr" v="36319" />
	</node>
	<node lat="58.42707778138984" lon="7.194536110528303" id="-22813">
		<tag k="name" v="Joskaret" />
		<tag k="natural" v="valley" />
		<tag k="place" v="locality" />
		<tag k="ssr:stedsnr" v="36060" />
	</node>
	<node lat="58.43406110958687" lon="7.1876916692603245" id="-22814">
		<tag k="name" v="Rundlaupen" />
		<tag k="natural" v="valley" />
		<tag k="place" v="locality" />
		<tag k="ssr:stedsnr" v="36065" />
	</node>
	<node lat="58.39524444167331" lon="7.155030553820294" id="-22815">
		<tag k="name" v="Dalan" />
		<tag k="natural" v="valley" />
		<tag k="place" v="locality" />
		<tag k="ssr:stedsnr" v="36201" />
	</node>
	<node lat="58.445894441817444" lon="7.338305562673185" id="-22816">
		<tag k="highway" v="path" />
		<tag k="loc_name" v="På stien" />
		<tag k="name" v="Stien" />
		<tag k="ssr:stedsnr" v="36209" />
	</node>
	<node lat="58.49692499640903" lon="7.136152785004085" id="-22817">
		<tag k="name" v="Buknappbakken" />
		<tag k="natural" v="slope" />
		<tag k="place" v="locality" />
		<tag k="ssr:stedsnr" v="36217" />
	</node>
	<node lat="58.50073611051001" lon="7.134538894099082" id="-22818">
		<tag k="name" v="Stemsteknuten" />
		<tag k="natural" v="hill" />
		<tag k="place" v="locality" />
		<tag k="ssr:stedsnr" v="36220" />
	</node>
	<node lat="58.51836666449788" lon="7.172800007818113" id="-22819">
		<tag k="name" v="Stol" />
		<tag k="natural" v="stone" />
		<tag k="ssr:stedsnr" v="36263" />
	</node>
	<node lat="58.517263888270975" lon="7.164202776569119" id="-22820">
		<tag k="name" v="Krusen" />
		<tag k="natural" v="slope" />
		<tag k="place" v="locality" />
		<tag k="ssr:stedsnr" v="36265" />
	</node>
	<node lat="58.51770000288052" lon="7.181066673813215" id="-22821">
		<tag k="name" v="Grashomsteinen" />
		<tag k="natural" v="stone" />
		<tag k="ssr:stedsnr" v="36267" />
	</node>
	<node lat="58.51876666545582" lon="7.152477773819399" id="-22822">
		<tag k="name" v="Vestelian" />
		<tag k="natural" v="slope" />
		<tag k="place" v="locality" />
		<tag k="ssr:stedsnr" v="36275" />
	</node>
	<node lat="58.51931944487434" lon="7.157933339813701" id="-22823">
		<tag k="name" v="Eldhusmyra" />
		<tag k="place" v="locality" />
		<tag k="ssr:stedsnr" v="36277" />
	</node>
	<node lat="58.53322499765508" lon="7.185152783661672" id="-22824">
		<tag k="name" v="Krusle" />
		<tag k="natural" v="slope" />
		<tag k="place" v="locality" />
		<tag k="ssr:stedsnr" v="36406" />
	</node>
	<node lat="58.37508889331071" lon="7.237880557816935" id="-22825">
		<tag k="ford" v="yes" />
		<tag k="name" v="Leinlandsvadet" />
		<tag k="place" v="locality" />
		<tag k="ssr:stedsnr" v="36577" />
	</node>
	<node lat="58.49555277727582" lon="7.295066669027849" id="-22826">
		<tag k="name" v="Grunne Verevatnet" />
		<tag k="natural" v="water" />
		<tag k="ssr:stedsnr" v="36759" />
		<tag k="water" v="lake" />
	</node>
	<node lat="58.501255554453415" lon="7.3211499961951585" id="-22827">
		<tag k="name" v="Fossbekk-knoddan" />
		<tag k="natural" v="hill" />
		<tag k="place" v="locality" />
		<tag k="ssr:stedsnr" v="36764" />
	</node>
	<node lat="58.503563889286056" lon="7.327613893496427" id="-22828">
		<tag k="name" v="Skarhei" />
		<tag k="natural" v="ridge" />
		<tag k="place" v="locality" />
		<tag k="ssr:stedsnr" v="36770" />
	</node>
	<node lat="58.50096111352407" lon="7.2522388908996245" id="-22829">
		<tag k="name" v="Heimra Nerløa" />
		<tag k="place" v="locality" />
		<tag k="ssr:stedsnr" v="36907" />
	</node>
	<node lat="58.346583337879096" lon="7.1504277821726605" id="-22830">
		<tag k="name" v="Hudetjødnheia" />
		<tag k="natural" v="hill" />
		<tag k="place" v="locality" />
		<tag k="ssr:stedsnr" v="36962" />
	</node>
	<node lat="58.34560278067102" lon="7.161086104101548" id="-22831">
		<tag k="name" v="Gåsteinstjødnskaret" />
		<tag k="natural" v="valley" />
		<tag k="place" v="locality" />
		<tag k="ssr:stedsnr" v="36964" />
	</node>
	<node lat="58.47081110787963" lon="7.239174993131237" id="-22832">
		<tag k="name" v="Bjødnebakken" />
		<tag k="natural" v="slope" />
		<tag k="place" v="locality" />
		<tag k="ssr:stedsnr" v="37101" />
	</node>
	<node lat="58.470747223753015" lon="7.283769439989211" id="-22833">
		<tag k="name" v="Heimre Stongtjødn" />
		<tag k="natural" v="water" />
		<tag k="ssr:stedsnr" v="37103" />
	</node>
	<node lat="58.29911666987151" lon="7.145891663730467" id="-22834">
		<tag k="name" v="Storli" />
		<tag k="natural" v="slope" />
		<tag k="place" v="locality" />
		<tag k="ssr:stedsnr" v="37105" />
	</node>
	<node lat="58.31288333440971" lon="7.201130554016784" id="-22835">
		<tag k="name" v="Stølsbekken" />
		<tag k="ssr:stedsnr" v="37111" />
		<tag k="waterway" v="stream" />
	</node>
	<node lat="58.30754166798963" lon="7.182791666608618" id="-22836">
		<tag k="name" v="Ormebakken" />
		<tag k="natural" v="hill" />
		<tag k="place" v="locality" />
		<tag k="ssr:stedsnr" v="37112" />
	</node>
	<node lat="58.49144444309499" lon="7.327841671831935" id="-22837">
		<tag k="name" v="Telhaugtjønn" />
		<tag k="natural" v="water" />
		<tag k="ssr:stedsnr" v="37115" />
	</node>
	<node lat="58.49113611435533" lon="7.3175805632763495" id="-22838">
		<tag k="name" v="Stedjan" />
		<tag k="place" v="locality" />
		<tag k="ssr:stedsnr" v="37117" />
	</node>
	<node lat="58.32836388581515" lon="7.199994443491649" id="-22839">
		<tag k="name" v="Voddan" />
		<tag k="natural" v="slope" />
		<tag k="place" v="locality" />
		<tag k="ssr:stedsnr" v="37003" />
	</node>
	<node lat="58.41699722249696" lon="7.274844437794638" id="-22840">
		<tag k="name" v="Støbakken" />
		<tag k="natural" v="slope" />
		<tag k="place" v="locality" />
		<tag k="ssr:stedsnr" v="37401" />
	</node>
	<node lat="58.53573888984385" lon="7.1114222223675085" id="-22841">
		<tag k="fixme" v="consider natural=peak for the most distinct mountains in the district" />
		<tag k="name" v="Voileknuten" />
		<tag k="natural" v="hill" />
		<tag k="place" v="locality" />
		<tag k="ssr:stedsnr" v="37408" />
	</node>
	<node lat="58.546983335651454" lon="7.128061116400543" id="-22842">
		<tag k="name" v="Store Steinan" />
		<tag k="natural" v="stone" />
		<tag k="ssr:stedsnr" v="37420" />
	</node>
	<node lat="58.29232222032798" lon="7.145494453069242" id="-22843">
		<tag k="name" v="Karten" />
		<tag k="natural" v="wetland" />
		<tag k="ssr:stedsnr" v="37423" />
	</node>
	<node lat="58.39837778030254" lon="7.308694444541519" id="-22844">
		<tag k="name" v="Fiskebekk" />
		<tag k="ssr:stedsnr" v="37425" />
		<tag k="waterway" v="stream" />
	</node>
	<node lat="58.48581388947773" lon="7.247019451810196" id="-22845">
		<tag k="ford" v="yes" />
		<tag k="name" v="Vonda va" />
		<tag k="place" v="locality" />
		<tag k="ssr:stedsnr" v="37164" />
	</node>
	<node lat="58.45381667037602" lon="7.289336113291143" id="-22846">
		<tag k="fixme" v="consider natural=peak for the most distinct mountains in the district" />
		<tag k="name" v="Tjukkeriset" />
		<tag k="natural" v="hill" />
		<tag k="place" v="locality" />
		<tag k="ssr:stedsnr" v="37176" />
	</node>
	<node lat="58.43789722234812" lon="7.244186106444938" id="-22847">
		<tag k="name" v="Ulvsgreina" />
		<tag k="natural" v="slope" />
		<tag k="place" v="locality" />
		<tag k="ssr:stedsnr" v="37306" />
	</node>
	<node lat="58.56322500060611" lon="7.199005551892905" id="-22848">
		<tag k="name" v="Melhaugen" />
		<tag k="natural" v="hill" />
		<tag k="place" v="locality" />
		<tag k="ssr:stedsnr" v="37614" />
	</node>
	<node lat="58.5818749996643" lon="7.14303611676762" id="-22849">
		<tag k="name" v="Svarte hylen" />
		<tag k="place" v="locality" />
		<tag k="ssr:stedsnr" v="37558" />
	</node>
	<node lat="58.3699222267048" lon="7.238475003494724" id="-22850">
		<tag k="name" v="Lægan" />
		<tag k="natural" v="valley" />
		<tag k="place" v="locality" />
		<tag k="ssr:stedsnr" v="37567" />
	</node>
	<node lat="58.574716663613096" lon="7.121705557263903" id="-22851">
		<tag k="highway" v="path" />
		<tag k="name" v="Mannevegen" />
		<tag k="ssr:stedsnr" v="37579" />
	</node>
	<node lat="58.63032777335461" lon="7.134813882906567" id="-22852">
		<tag k="alt_name" v="Malepart bekken" />
		<tag k="name" v="Malepartbekken" />
		<tag k="ssr:stedsnr" v="37714" />
		<tag k="waterway" v="stream" />
	</node>
	<node lat="58.63154444065575" lon="7.1490055488506625" id="-22853">
		<tag k="name" v="Bjødnhomtjødna" />
		<tag k="natural" v="water" />
		<tag k="ssr:stedsnr" v="37722" />
	</node>
	<node lat="58.34256388707519" lon="7.2708166644616465" id="-22854">
		<tag k="name" v="Store Dalrind" />
		<tag k="natural" v="ridge" />
		<tag k="place" v="locality" />
		<tag k="ssr:stedsnr" v="37770" />
	</node>
	<node lat="58.50008888793457" lon="7.330308332952424" id="-22856">
		<tag k="bridge" v="yes" />
		<tag k="layer" v="1" />
		<tag k="name" v="Fossbekk" />
		<tag k="ssr:stedsnr" v="46493" />
	</node>
	<node lat="58.527266667784936" lon="7.142047216457662" id="-22857">
		<tag k="alt_name" v="Rudlene" />
		<tag k="fixme" v="consider place=hamlet" />
		<tag k="name" v="Rudlend" />
		<tag k="place" v="farm" />
		<tag k="ssr:stedsnr" v="60123" />
	</node>
	<node lat="58.53715833359009" lon="7.207291660903043" id="-22858">
		<tag k="alt_name" v="Sandvatnet" />
		<tag k="name" v="Sandvatn" />
		<tag k="natural" v="water" />
		<tag k="ssr:stedsnr" v="61096" />
		<tag k="water" v="lake" />
	</node>
	<node lat="58.58482222462705" lon="7.240327780395385" id="-22859">
		<tag k="alt_name" v="Grunneshommen, øvre" />
		<tag k="name" v="Øvre Grunneshommen" />
		<tag k="natural" v="valley" />
		<tag k="place" v="locality" />
		<tag k="ssr:stedsnr" v="61406" />
	</node>
	<node lat="58.56375555771132" lon="7.093652772760617" id="-22860">
		<tag k="name" v="Storslåtta" />
		<tag k="place" v="locality" />
		<tag k="ssr:stedsnr" v="61423" />
	</node>
	<node lat="58.39941944245337" lon="7.30435278518601" id="-22861">
		<tag k="alt_name" v="Yksnedalsvatnet" />
		<tag k="name" v="Yksendalsvatnet" />
		<tag k="natural" v="water" />
		<tag k="ssr:stedsnr" v="61609" />
	</node>
	<node lat="58.561125002060265" lon="7.154091674249589" id="-22862">
		<tag k="alt_name" v="Husfjellet" />
		<tag k="fixme" v="consider natural=peak for the most distinct mountains in the district" />
		<tag k="name" v="Husfjell" />
		<tag k="natural" v="hill" />
		<tag k="place" v="locality" />
		<tag k="ssr:stedsnr" v="61372" />
	</node>
	<node lat="58.555349997988586" lon="7.189919443768523" id="-22863">
		<tag k="alt_name" v="Gunnarsheii" />
		<tag k="fixme" v="consider natural=peak for the most distinct mountains in the district" />
		<tag k="name" v="Gunnårsheia" />
		<tag k="natural" v="hill" />
		<tag k="place" v="locality" />
		<tag k="ssr:stedsnr" v="61374" />
	</node>
	<node lat="58.55547777924484" lon="7.213905561320171" id="-22864">
		<tag k="alt_name" v="Ramneheii" />
		<tag k="name" v="Ramneheia" />
		<tag k="natural" v="hill" />
		<tag k="place" v="locality" />
		<tag k="ssr:stedsnr" v="61376" />
	</node>
	<node lat="58.548691663336484" lon="7.224227771992107" id="-22865">
		<tag k="fixme" v="consider natural=peak for the most distinct mountains in the district" />
		<tag k="name" v="Homsfjellet" />
		<tag k="natural" v="hill" />
		<tag k="place" v="locality" />
		<tag k="ssr:stedsnr" v="61387" />
	</node>
	<node lat="58.544713889440736" lon="7.113752780359637" id="-22866">
		<tag k="alt_name" v="Espeskard" />
		<tag k="fixme" v="consider place=hamlet" />
		<tag k="name" v="Espeskaret" />
		<tag k="place" v="farm" />
		<tag k="ssr:stedsnr" v="61389" />
	</node>
	<node lat="58.59442500253836" lon="7.216950002458141" id="-22867">
		<tag k="alt_name" v="Svarthomtjørni" />
		<tag k="name" v="Svarthomtjønn" />
		<tag k="natural" v="water" />
		<tag k="ssr:stedsnr" v="61396" />
	</node>
	<node lat="58.606741669299105" lon="7.159274996507885" id="-22868">
		<tag k="name" v="Krobudalen" />
		<tag k="natural" v="valley" />
		<tag k="place" v="locality" />
		<tag k="ssr:stedsnr" v="242418" />
	</node>
	<node lat="58.502199998778956" lon="7.244049999976219" id="-22869">
		<tag k="name" v="Storli" />
		<tag k="natural" v="slope" />
		<tag k="place" v="locality" />
		<tag k="ssr:stedsnr" v="243048" />
	</node>
	<node lat="58.50109999743201" lon="7.291805547720675" id="-22870">
		<tag k="alt_name" v="Måketjørni" />
		<tag k="name" v="Måketjødn" />
		<tag k="natural" v="water" />
		<tag k="ssr:stedsnr" v="243052" />
	</node>
	<node lat="58.513172218722225" lon="7.2624361166287486" id="-22871">
		<tag k="name" v="Floti" />
		<tag k="place" v="locality" />
		<tag k="ssr:stedsnr" v="243058" />
	</node>
	<node lat="58.513302775048544" lon="7.267197225684604" id="-22872">
		<tag k="alt_name" v="Vadløa" />
		<tag k="name" v="Valøa" />
		<tag k="place" v="isolated_dwelling" />
		<tag k="ssr:stedsnr" v="243060" />
	</node>
	<node lat="58.52310833646447" lon="7.123125005545442" id="-22873">
		<tag k="alt_name" v="Husfjellet" />
		<tag k="name" v="Husfjell" />
		<tag k="natural" v="cliff" />
		<tag k="ssr:stedsnr" v="243079" />
	</node>
	<node lat="58.48270555809293" lon="7.255091663161308" id="-22874">
		<tag k="alt_name" v="Stemtjørn" />
		<tag k="name" v="Stemtjødn" />
		<tag k="natural" v="water" />
		<tag k="ssr:stedsnr" v="243337" />
	</node>
	<node lat="58.46155833600033" lon="7.231477775444098" id="-22875">
		<tag k="alt_name" v="Skeide" />
		<tag k="fixme" v="consider place=hamlet" />
		<tag k="name" v="Skeie" />
		<tag k="place" v="village" />
		<tag k="ssr:stedsnr" v="243341" />
	</node>
	<node lat="58.458683336941775" lon="7.1117666645366855" id="-22876">
		<tag k="alt_name" v="Gravrosvatnet" />
		<tag k="name" v="Gravrosvatn" />
		<tag k="natural" v="water" />
		<tag k="ssr:stedsnr" v="243347" />
	</node>
	<node lat="58.47437500145254" lon="7.257194443111961" id="-22877">
		<tag k="alt_name" v="Blessomheii" />
		<tag k="name" v="Hesthomknuten" />
		<tag k="natural" v="hill" />
		<tag k="place" v="locality" />
		<tag k="ssr:stedsnr" v="243350" />
	</node>
	<node lat="58.46361110847911" lon="7.1215083401616734" id="-22878">
		<tag k="name" v="Blåberg" />
		<tag k="natural" v="hill" />
		<tag k="place" v="locality" />
		<tag k="ssr:stedsnr" v="243356" />
	</node>
	<node lat="58.44911388957186" lon="7.299161116199809" id="-22879">
		<tag k="alt_name" v="Stemtjørni" />
		<tag k="name" v="Stemtjønn" />
		<tag k="natural" v="water" />
		<tag k="ssr:stedsnr" v="243363" />
	</node>
	<node lat="58.45395278175675" lon="7.151091666965368" id="-22880">
		<tag k="alt_name" v="Sesletjørn" />
		<tag k="name" v="Sesletjødn" />
		<tag k="natural" v="water" />
		<tag k="ssr:stedsnr" v="243366" />
	</node>
	<node lat="58.56728610900195" lon="7.202644447765607" id="-22881">
		<tag k="alt_name" v="Hjuringstjørni" />
		<tag k="name" v="Kjurengtjødn" />
		<tag k="natural" v="water" />
		<tag k="ssr:stedsnr" v="243374" />
	</node>
	<node lat="58.56737499952513" lon="7.146144443031912" id="-22882">
		<tag k="alt_name" v="Tjørni" />
		<tag k="name" v="Tjønni" />
		<tag k="natural" v="water" />
		<tag k="ssr:stedsnr" v="243377" />
	</node>
	<node lat="58.56348055843486" lon="7.185811112666337" id="-22883">
		<tag k="name" v="Krobustøl" />
		<tag k="place" v="isolated_dwelling" />
		<tag k="ssr:stedsnr" v="243379" />
	</node>
	<node lat="58.56366944214118" lon="7.097474994479221" id="-22884">
		<tag k="name" v="Lyngnefossen" />
		<tag k="natural" v="waterfall" />
		<tag k="ssr:stedsnr" v="243382" />
	</node>
	<node lat="58.32717778048599" lon="7.14501667153674" id="-22885">
		<tag k="name" v="Bjørnstøl" />
		<tag k="place" v="isolated_dwelling" />
		<tag k="ssr:stedsnr" v="243569" />
	</node>
	<node lat="58.59725278212457" lon="7.158230556981254" id="-22886">
		<tag k="name" v="Sigmundshomknuten" />
		<tag k="natural" v="hill" />
		<tag k="place" v="locality" />
		<tag k="ssr:stedsnr" v="243463" />
	</node>
	<node lat="58.59626944534124" lon="7.230236114086881" id="-22887">
		<tag k="fixme" v="consider natural=peak for the most distinct mountains in the district" />
		<tag k="name" v="Svarthomheii" />
		<tag k="natural" v="hill" />
		<tag k="place" v="locality" />
		<tag k="ssr:stedsnr" v="243411" />
	</node>
	<node lat="58.57681111074004" lon="7.196872219823173" id="-22888">
		<tag k="alt_name" v="Svodfjell" />
		<tag k="fixme" v="consider natural=peak for the most distinct mountains in the district" />
		<tag k="name" v="Svofjell" />
		<tag k="natural" v="hill" />
		<tag k="place" v="locality" />
		<tag k="ssr:stedsnr" v="243423" />
	</node>
	<node lat="58.57447222242149" lon="7.086416673954225" id="-22889">
		<tag k="name" v="Øyvatnet" />
		<tag k="natural" v="water" />
		<tag k="ssr:stedsnr" v="243431" />
	</node>
	<node lat="58.33047777578977" lon="7.270155556513786" id="-22890">
		<tag k="fixme" v="consider place=hamlet" />
		<tag k="name" v="Kvestad" />
		<tag k="place" v="farm" />
		<tag k="ssr:stedsnr" v="243572" />
	</node>
	<node lat="58.42531388793128" lon="7.250619440566511" id="-22891">
		<tag k="alt_name" v="Høgehei" />
		<tag k="fixme" v="consider natural=peak for the most distinct mountains in the district" />
		<tag k="name" v="Høghei" />
		<tag k="natural" v="hill" />
		<tag k="place" v="locality" />
		<tag k="ssr:stedsnr" v="243666" />
	</node>
	<node lat="58.42324444548012" lon="7.206822216708555" id="-22892">
		<tag k="alt_name" v="Førsvatnet;Førevatnet" />
		<tag k="name" v="Førvatn" />
		<tag k="natural" v="water" />
		<tag k="ssr:stedsnr" v="243669" />
	</node>
	<node lat="58.41146944880956" lon="7.259272217168568" id="-22893">
		<tag k="alt_name" v="Steinsland, nedre" />
		<tag k="fixme" v="consider place=hamlet" />
		<tag k="name" v="Nedre Steinsland" />
		<tag k="place" v="farm" />
		<tag k="ssr:stedsnr" v="243678" />
	</node>
	<node lat="58.384035450649954" lon="7.324519992646791" id="-22894">
		<tag k="alt_name" v="Øytjørn" />
		<tag k="name" v="Øytjødn" />
		<tag k="natural" v="water" />
		<tag k="ssr:stedsnr" v="243758" />
	</node>
	<node lat="58.64269722220895" lon="7.175672225223935" id="-22895">
		<tag k="name" v="Skjerkedalen" />
		<tag k="natural" v="valley" />
		<tag k="place" v="locality" />
		<tag k="ssr:stedsnr" v="244271" />
	</node>
	<node lat="58.38503610714373" lon="7.125188885242677" id="-22897">
		<tag k="name" v="Sæslitjødn" />
		<tag k="natural" v="water" />
		<tag k="ssr:stedsnr" v="96062" />
	</node>
	<node lat="58.38743610762947" lon="7.123791663050619" id="-22898">
		<tag k="name" v="Sæslirinnan" />
		<tag k="natural" v="ridge" />
		<tag k="place" v="locality" />
		<tag k="ssr:stedsnr" v="96064" />
	</node>
	<node lat="58.47113889271051" lon="7.3195250039408295" id="-22899">
		<tag k="name" v="Vedremyr" />
		<tag k="natural" v="wetland" />
		<tag k="ssr:stedsnr" v="96066" />
	</node>
	<node lat="58.47435277952554" lon="7.330397226166523" id="-22900">
		<tag k="name" v="Flisemyran" />
		<tag k="natural" v="wetland" />
		<tag k="ssr:stedsnr" v="96068" />
	</node>
	<node lat="58.474830560117944" lon="7.315230563343038" id="-22901">
		<tag k="name" v="Stedjan" />
		<tag k="natural" v="wetland" />
		<tag k="ssr:stedsnr" v="96074" />
	</node>
	<node lat="58.52001111147982" lon="7.176661111054762" id="-22902">
		<tag k="name" v="Trongedal" />
		<tag k="natural" v="valley" />
		<tag k="place" v="locality" />
		<tag k="ssr:stedsnr" v="96319" />
	</node>
	<node lat="58.37819999753412" lon="7.229283337618537" id="-22903">
		<tag k="name" v="Skiljarstaden" />
		<tag k="place" v="locality" />
		<tag k="ssr:stedsnr" v="96721" />
	</node>
	<node lat="58.37963333312721" lon="7.227047219666555" id="-22904">
		<tag k="alt_name" v="Erbrote" />
		<tag k="name" v="Ærebrote" />
		<tag k="natural" v="slope" />
		<tag k="place" v="locality" />
		<tag k="ssr:stedsnr" v="96723" />
	</node>
	<node lat="58.451247220101315" lon="7.212738894788796" id="-22905">
		<tag k="name" v="Håbergslian" />
		<tag k="natural" v="slope" />
		<tag k="place" v="locality" />
		<tag k="ssr:stedsnr" v="97003" />
	</node>
	<node lat="58.44456666423862" lon="7.146363885698099" id="-22906">
		<tag k="name" v="Heddestølsheia" />
		<tag k="natural" v="hill" />
		<tag k="place" v="locality" />
		<tag k="ssr:stedsnr" v="97008" />
	</node>
	<node lat="58.442333336511545" lon="7.151311115202008" id="-22907">
		<tag k="name" v="Heddestølskaret" />
		<tag k="natural" v="valley" />
		<tag k="place" v="locality" />
		<tag k="ssr:stedsnr" v="97009" />
	</node>
	<node lat="58.458380558499485" lon="7.212236107554939" id="-22908">
		<tag k="fixme" v="consider natural=peak for the most distinct mountains in the district" />
		<tag k="name" v="Slottet" />
		<tag k="natural" v="hill" />
		<tag k="place" v="locality" />
		<tag k="ssr:stedsnr" v="97013" />
	</node>
	<node lat="58.403325002800656" lon="7.1380583264870525" id="-22909">
		<tag k="name" v="Stolsrinnan" />
		<tag k="natural" v="ridge" />
		<tag k="place" v="locality" />
		<tag k="ssr:stedsnr" v="97060" />
	</node>
	<node lat="58.430572219946704" lon="7.1995805499053445" id="-22910">
		<tag k="fixme" v="consider natural=peak for the most distinct mountains in the district" />
		<tag k="name" v="Fuglebakken" />
		<tag k="natural" v="hill" />
		<tag k="place" v="locality" />
		<tag k="ssr:stedsnr" v="97069" />
	</node>
	<node lat="58.47543611290283" lon="7.225175004816284" id="-22911">
		<tag k="name" v="Tydneberbrote" />
		<tag k="natural" v="slope" />
		<tag k="place" v="locality" />
		<tag k="ssr:stedsnr" v="97107" />
	</node>
	<node lat="58.48560277393053" lon="7.243527785259241" id="-22912">
		<tag k="name" v="Tinnvakrona" />
		<tag k="natural" v="valley" />
		<tag k="place" v="locality" />
		<tag k="ssr:stedsnr" v="97115" />
	</node>
	<node lat="58.456544444134515" lon="7.315633331753318" id="-22913">
		<tag k="name" v="Husebakken" />
		<tag k="natural" v="hill" />
		<tag k="place" v="locality" />
		<tag k="ssr:stedsnr" v="97120" />
	</node>
	<node lat="58.45851944074618" lon="7.341872227781761" id="-22914">
		<tag k="name" v="Monen" />
		<tag k="place" v="locality" />
		<tag k="ssr:stedsnr" v="97121" />
	</node>
	<node lat="58.46258611052603" lon="7.342711105988161" id="-22915">
		<tag k="fixme" v="consider highway=path" />
		<tag k="highway" v="track" />
		<tag k="name" v="Setedalsvegen" />
		<tag k="ssr:stedsnr" v="97123" />
	</node>
	<node lat="58.465127776544264" lon="7.313641659836801" id="-22916">
		<tag k="name" v="Kyrkjeknatten" />
		<tag k="natural" v="hill" />
		<tag k="place" v="locality" />
		<tag k="ssr:stedsnr" v="97161" />
	</node>
	<node lat="58.46827222111183" lon="7.325816659624622" id="-22917">
		<tag k="name" v="Karfite" />
		<tag k="place" v="locality" />
		<tag k="ssr:stedsnr" v="97163" />
	</node>
	<node lat="58.46229722232016" lon="7.263030550720643" id="-22918">
		<tag k="name" v="Hudefjellet" />
		<tag k="natural" v="hill" />
		<tag k="place" v="locality" />
		<tag k="ssr:stedsnr" v="97202" />
	</node>
	<node lat="58.45343055447002" lon="7.136652777072662" id="-22919">
		<tag k="name" v="Vareslåtta" />
		<tag k="natural" v="wetland" />
		<tag k="ssr:stedsnr" v="97203" />
	</node>
	<node lat="58.45482777863692" lon="7.247850000061934" id="-22920">
		<tag k="fixme" v="consider natural=peak for the most distinct mountains in the district" />
		<tag k="name" v="Jostråsen" />
		<tag k="natural" v="hill" />
		<tag k="place" v="locality" />
		<tag k="ssr:stedsnr" v="97206" />
	</node>
	<node lat="58.340777778715704" lon="7.12453333094856" id="-22921">
		<tag k="name" v="Lisle Stivletjødn" />
		<tag k="natural" v="water" />
		<tag k="ssr:stedsnr" v="97215" />
	</node>
	<node lat="58.456844442092844" lon="7.2698166751882525" id="-22922">
		<tag k="name" v="Breimyr" />
		<tag k="natural" v="wetland" />
		<tag k="ssr:stedsnr" v="97217" />
	</node>
	<node lat="58.460919440254294" lon="7.271741669967932" id="-22923">
		<tag k="fixme" v="consider natural=peak for the most distinct mountains in the district" />
		<tag k="name" v="Berghei" />
		<tag k="natural" v="hill" />
		<tag k="place" v="locality" />
		<tag k="ssr:stedsnr" v="97218" />
	</node>
	<node lat="58.515883337427084" lon="7.209769445953691" id="-22924">
		<tag k="name" v="Kråkeliåna" />
		<tag k="ssr:stedsnr" v="97270" />
		<tag k="waterway" v="river" />
	</node>
	<node lat="58.51927777669002" lon="7.126836115490644" id="-22925">
		<tag k="name" v="Kleivan" />
		<tag k="natural" v="slope" />
		<tag k="place" v="locality" />
		<tag k="ssr:stedsnr" v="97424" />
	</node>
	<node lat="58.51637777914679" lon="7.164088892429738" id="-22926">
		<tag k="name" v="Svartups" />
		<tag k="natural" v="cliff" />
		<tag k="ssr:stedsnr" v="97310" />
	</node>
	<node lat="58.52541110883355" lon="7.177419449254705" id="-22927">
		<tag k="name" v="Ormetjødn" />
		<tag k="natural" v="water" />
		<tag k="ssr:stedsnr" v="97312" />
	</node>
	<node lat="58.49162500097457" lon="7.131205559070358" id="-22928">
		<tag k="name" v="Vermundsheia" />
		<tag k="natural" v="hill" />
		<tag k="place" v="locality" />
		<tag k="ssr:stedsnr" v="97359" />
	</node>
	<node lat="58.49802777589337" lon="7.119258336462349" id="-22929">
		<tag k="name" v="Kålvedalen" />
		<tag k="natural" v="valley" />
		<tag k="place" v="locality" />
		<tag k="ssr:stedsnr" v="97379" />
	</node>
	<node lat="58.41893055902808" lon="7.118891665687238" id="-22930">
		<tag k="name" v="Amjodnhoved" />
		<tag k="natural" v="slope" />
		<tag k="place" v="locality" />
		<tag k="ssr:stedsnr" v="97382" />
	</node>
	<node lat="58.4986166635899" lon="7.350525001235407" id="-22932">
		<tag k="name" v="Bjønnsmyr" />
		<tag k="natural" v="wetland" />
		<tag k="ssr:stedsnr" v="97809" />
	</node>
	<node lat="58.50352778219769" lon="7.350586105709358" id="-22933">
		<tag k="name" v="Håvorstadtjødna" />
		<tag k="natural" v="water" />
		<tag k="ssr:stedsnr" v="97810" />
	</node>
	<node lat="58.518813891018475" lon="7.269011118389377" id="-22934">
		<tag k="name" v="Svøvshylen" />
		<tag k="place" v="locality" />
		<tag k="ssr:stedsnr" v="97827" />
	</node>
	<node lat="58.33784167088679" lon="7.155380560129198" id="-22935">
		<tag k="name" v="Deiknebakken" />
		<tag k="natural" v="hill" />
		<tag k="place" v="locality" />
		<tag k="ssr:stedsnr" v="98055" />
	</node>
	<node lat="58.35675555227745" lon="7.194797227581519" id="-22936">
		<tag k="name" v="Skarsbekken" />
		<tag k="ssr:stedsnr" v="97964" />
		<tag k="waterway" v="stream" />
	</node>
	<node lat="58.34556944100888" lon="7.185541664907315" id="-22937">
		<tag k="name" v="Skarkedalen" />
		<tag k="natural" v="valley" />
		<tag k="place" v="locality" />
		<tag k="ssr:stedsnr" v="97966" />
	</node>
	<node lat="58.44574167068905" lon="7.280683336808573" id="-22938">
		<tag k="name" v="Tinnan" />
		<tag k="natural" v="ridge" />
		<tag k="place" v="locality" />
		<tag k="ssr:stedsnr" v="98314" />
	</node>
	<node lat="58.416655556449975" lon="7.221638887489441" id="-22939">
		<tag k="name" v="Lygnestronda" />
		<tag k="natural" v="slope" />
		<tag k="place" v="locality" />
		<tag k="ssr:stedsnr" v="98407" />
	</node>
	<node lat="58.55305833115294" lon="7.174900002129713" id="-22940">
		<tag k="name" v="Tronstjødn" />
		<tag k="natural" v="water" />
		<tag k="ssr:stedsnr" v="98410" />
	</node>
	<node lat="58.40382499679693" lon="7.311658341001632" id="-22941">
		<tag k="name" v="Skrubbelia" />
		<tag k="natural" v="slope" />
		<tag k="place" v="locality" />
		<tag k="ssr:stedsnr" v="98418" />
	</node>
	<node lat="58.54896110993737" lon="7.119222226355746" id="-22942">
		<tag k="name" v="Storhei" />
		<tag k="natural" v="hill" />
		<tag k="place" v="locality" />
		<tag k="ssr:stedsnr" v="98423" />
	</node>
	<node lat="58.55102500285721" lon="7.132338884455249" id="-22943">
		<tag k="name" v="Krikkan" />
		<tag k="natural" v="valley" />
		<tag k="place" v="locality" />
		<tag k="ssr:stedsnr" v="98461" />
	</node>
	<node lat="58.39510555862338" lon="7.284955550340931" id="-22944">
		<tag k="name" v="Slåttemyr" />
		<tag k="place" v="locality" />
		<tag k="ssr:stedsnr" v="98465" />
	</node>
	<node lat="58.39194999552704" lon="7.262894443603454" id="-22945">
		<tag k="name" v="Lunden" />
		<tag k="place" v="locality" />
		<tag k="ssr:stedsnr" v="98469" />
	</node>
	<node lat="58.38440555172691" lon="7.2296944415529145" id="-22946">
		<tag k="name" v="Klappmyr" />
		<tag k="place" v="locality" />
		<tag k="ssr:stedsnr" v="98474" />
	</node>
	<node lat="58.397205559129745" lon="7.231994448541636" id="-22947">
		<tag k="name" v="Stutebakken" />
		<tag k="natural" v="hill" />
		<tag k="place" v="locality" />
		<tag k="ssr:stedsnr" v="98481" />
	</node>
	<node lat="58.5700083310746" lon="7.20041388609834" id="-22948">
		<tag k="fixme" v="consider natural=peak for the most distinct mountains in the district" />
		<tag k="name" v="Buodden" />
		<tag k="natural" v="hill" />
		<tag k="place" v="locality" />
		<tag k="ssr:stedsnr" v="98603" />
	</node>
	<node lat="58.402638889859105" lon="7.229233327005826" id="-22949">
		<tag k="name" v="Omdalskrona" />
		<tag k="natural" v="valley" />
		<tag k="place" v="locality" />
		<tag k="ssr:stedsnr" v="98517" />
	</node>
	<node lat="58.39914722343297" lon="7.22649167029614" id="-22950">
		<tag k="fixme" v="consider natural=peak for the most distinct mountains in the district" />
		<tag k="name" v="Åsen" />
		<tag k="natural" v="hill" />
		<tag k="place" v="locality" />
		<tag k="ssr:stedsnr" v="98520" />
	</node>
	<node lat="58.58936388892646" lon="7.216591667242957" id="-22951">
		<tag k="name" v="Rauesteinen" />
		<tag k="natural" v="stone" />
		<tag k="ssr:stedsnr" v="98566" />
	</node>
	<node lat="58.564233332134194" lon="7.136611119225873" id="-22952">
		<tag k="name" v="Espeskaret" />
		<tag k="natural" v="valley" />
		<tag k="place" v="locality" />
		<tag k="ssr:stedsnr" v="98577" />
	</node>
	<node lat="58.557358335996206" lon="7.097022228334409" id="-22953">
		<tag k="name" v="Samlokhommen" />
		<tag k="natural" v="valley" />
		<tag k="place" v="locality" />
		<tag k="ssr:stedsnr" v="98583" />
	</node>
	<node lat="58.6520027772015" lon="7.120686103065175" id="-22954">
		<tag k="name" v="Skjerlevasshommen" />
		<tag k="natural" v="valley" />
		<tag k="place" v="locality" />
		<tag k="ssr:stedsnr" v="98669" />
	</node>
	<node lat="58.360427773613154" lon="7.254927780535715" id="-22955">
		<tag k="name" v="Hepte" />
		<tag k="natural" v="valley" />
		<tag k="place" v="locality" />
		<tag k="ssr:stedsnr" v="98826" />
	</node>
	<node lat="58.53763333673426" lon="7.2742666651165235" id="-22956">
		<tag k="name" v="Tjovodden" />
		<tag k="natural" v="cape" />
		<tag k="ssr:stedsnr" v="98861" />
	</node>
	<node lat="58.53743889205909" lon="7.224891664671933" id="-22957">
		<tag k="name" v="Bulia" />
		<tag k="natural" v="slope" />
		<tag k="place" v="locality" />
		<tag k="ssr:stedsnr" v="98869" />
	</node>
	<node lat="58.307530555593644" lon="7.227602783632964" id="-22958">
		<tag k="ford" v="yes" />
		<tag k="name" v="Bergva" />
		<tag k="place" v="locality" />
		<tag k="ssr:stedsnr" v="98913" />
	</node>
	<node lat="58.38150277818076" lon="7.2038194528823025" id="-22959">
		<tag k="name" v="Holtekilet" />
		<tag k="natural" v="ridge" />
		<tag k="place" v="locality" />
		<tag k="ssr:stedsnr" v="98971" />
	</node>
	<node lat="58.30411388568539" lon="7.248916672537575" id="-22960">
		<tag k="name" v="Moltemyr" />
		<tag k="natural" v="wetland" />
		<tag k="ssr:stedsnr" v="98974" />
	</node>
	<node lat="58.30215833645615" lon="7.243283327422557" id="-22961">
		<tag k="name" v="Rokken" />
		<tag k="place" v="locality" />
		<tag k="ssr:stedsnr" v="98979" />
	</node>
	<node lat="58.30325833654744" lon="7.2407388957721865" id="-22962">
		<tag k="name" v="Lonen" />
		<tag k="natural" v="water" />
		<tag k="ssr:stedsnr" v="98980" />
		<tag k="water" v="lake" />
	</node>
	<node lat="58.30766389009759" lon="7.2473527756567515" id="-22963">
		<tag k="name" v="Støa" />
		<tag k="place" v="locality" />
		<tag k="ssr:stedsnr" v="98984" />
	</node>
	<node lat="58.49786667018193" lon="7.1769777734064135" id="-22964">
		<tag k="bridge" v="yes" />
		<tag k="layer" v="1" />
		<tag k="name" v="Bryggeså, Øvre" />
		<tag k="ssr:stedsnr" v="107472" />
	</node>
	<node lat="58.54894444690683" lon="7.095627783823929" id="-22965">
		<tag k="name" v="Homshylen" />
		<tag k="natural" v="water" />
		<tag k="ssr:stedsnr" v="121403" />
	</node>
	<node lat="58.610913886188705" lon="7.176330559994687" id="-22966">
		<tag k="name" v="Krobudalsvatnet" />
		<tag k="natural" v="water" />
		<tag k="ssr:stedsnr" v="121427" />
	</node>
	<node lat="58.36270832940812" lon="7.188838893710842" id="-22967">
		<tag k="alt_name" v="Lonehei" />
		<tag k="fixme" v="consider natural=peak for the most distinct mountains in the district" />
		<tag k="name" v="Loneheia" />
		<tag k="natural" v="hill" />
		<tag k="place" v="locality" />
		<tag k="ssr:stedsnr" v="121721" />
	</node>
	<node lat="58.38256666358919" lon="7.267350004568426" id="-22968">
		<tag k="name" v="Røyseland" />
		<tag k="place" v="farm" />
		<tag k="ssr:stedsnr" v="121728" />
	</node>
	<node lat="58.42371110759606" lon="7.110416667704939" id="-22969">
		<tag k="alt_name" v="Vedaråsheia" />
		<tag k="loc_name" v="Vearåsheii" />
		<tag k="name" v="Vearåsheia" />
		<tag k="natural" v="hill" />
		<tag k="place" v="locality" />
		<tag k="ssr:stedsnr" v="121662" />
	</node>
	<node lat="58.429136114872385" lon="7.25741944529724" id="-22970">
		<tag k="alt_name" v="Stranden" />
		<tag k="fixme" v="consider place=hamlet" />
		<tag k="name" v="Stronda" />
		<tag k="place" v="farm" />
		<tag k="ssr:stedsnr" v="121685" />
	</node>
	<node lat="58.39565000225398" lon="7.141158325400239" id="-22971">
		<tag k="name" v="Lomtjødn" />
		<tag k="natural" v="water" />
		<tag k="ssr:stedsnr" v="156049" />
	</node>
	<node lat="58.4449944454631" lon="7.217311104278297" id="-22972">
		<tag k="fixme" v="consider natural=peak for the most distinct mountains in the district" />
		<tag k="name" v="Lågåsen" />
		<tag k="natural" v="hill" />
		<tag k="place" v="locality" />
		<tag k="ssr:stedsnr" v="157055" />
	</node>
	<node lat="58.414172226122695" lon="7.205977770426628" id="-22973">
		<tag k="name" v="Lagetjødn" />
		<tag k="natural" v="water" />
		<tag k="ssr:stedsnr" v="157059" />
	</node>
	<node lat="58.506488893162775" lon="7.145608332998454" id="-22974">
		<tag k="name" v="Gryteskog" />
		<tag k="natural" v="slope" />
		<tag k="place" v="locality" />
		<tag k="ssr:stedsnr" v="157220" />
	</node>
	<node lat="58.51680555970078" lon="7.171719436568157" id="-22975">
		<tag k="name" v="Sletten" />
		<tag k="place" v="locality" />
		<tag k="ssr:stedsnr" v="157254" />
	</node>
	<node lat="58.48370833647228" lon="7.156338891831029" id="-22976">
		<tag k="name" v="Storaknuten" />
		<tag k="natural" v="hill" />
		<tag k="place" v="locality" />
		<tag k="ssr:stedsnr" v="157122" />
	</node>
	<node lat="58.466569447821854" lon="7.321566665731253" id="-22977">
		<tag k="name" v="Koljebekken" />
		<tag k="ssr:stedsnr" v="157148" />
		<tag k="waterway" v="stream" />
	</node>
	<node lat="58.470641663140334" lon="7.310544451559518" id="-22978">
		<tag k="name" v="Rakktjønn" />
		<tag k="natural" v="water" />
		<tag k="ssr:stedsnr" v="157154" />
	</node>
	<node lat="58.46954722428444" lon="7.261411108418777" id="-22979">
		<tag k="name" v="Lygneskaret" />
		<tag k="natural" v="valley" />
		<tag k="place" v="locality" />
		<tag k="ssr:stedsnr" v="157159" />
	</node>
	<node lat="58.46346111159963" lon="7.241369440385442" id="-22980">
		<tag k="fixme" v="consider natural=peak for the most distinct mountains in the district" />
		<tag k="name" v="Nasåsen" />
		<tag k="natural" v="hill" />
		<tag k="place" v="locality" />
		<tag k="ssr:stedsnr" v="157165" />
	</node>
	<node lat="58.511974997895514" lon="7.1778805485829" id="-22981">
		<tag k="name" v="Storli" />
		<tag k="natural" v="slope" />
		<tag k="place" v="locality" />
		<tag k="ssr:stedsnr" v="157310" />
	</node>
	<node lat="58.383200003440635" lon="7.271738895255547" id="-22982">
		<tag k="name" v="Lauhylen" />
		<tag k="place" v="locality" />
		<tag k="ssr:stedsnr" v="157618" />
	</node>
	<node lat="58.49424444790796" lon="7.349469437513413" id="-22983">
		<tag k="name" v="Bergesmyr" />
		<tag k="natural" v="wetland" />
		<tag k="ssr:stedsnr" v="157804" />
	</node>
	<node lat="58.515969443148926" lon="7.22671666374081" id="-22984">
		<tag k="name" v="Øytjødnheie" />
		<tag k="natural" v="hill" />
		<tag k="place" v="locality" />
		<tag k="ssr:stedsnr" v="157848" />
	</node>
	<node lat="58.4970833307532" lon="7.2850527815659225" id="-22985">
		<tag k="name" v="Skuggestø" />
		<tag k="natural" v="bay" />
		<tag k="ssr:stedsnr" v="157897" />
	</node>
	<node lat="58.39692222167039" lon="7.168663891236607" id="-22986">
		<tag k="name" v="Baubrokka" />
		<tag k="natural" v="slope" />
		<tag k="place" v="locality" />
		<tag k="ssr:stedsnr" v="158002" />
	</node>
	<node lat="58.32942777603754" lon="7.217541668731628" id="-22987">
		<tag k="name" v="Husbakken" />
		<tag k="natural" v="hill" />
		<tag k="place" v="locality" />
		<tag k="ssr:stedsnr" v="158005" />
	</node>
	<node lat="58.32273611220373" lon="7.1641777763668895" id="-22988">
		<tag k="name" v="Stordalen" />
		<tag k="natural" v="valley" />
		<tag k="place" v="locality" />
		<tag k="ssr:stedsnr" v="158015" />
	</node>
	<node lat="58.32438888545264" lon="7.170255560142896" id="-22989">
		<tag k="name" v="Fændalen" />
		<tag k="natural" v="valley" />
		<tag k="place" v="locality" />
		<tag k="ssr:stedsnr" v="158016" />
	</node>
	<node lat="58.46792500172932" lon="7.2052833379194965" id="-22990">
		<tag k="name" v="Bastevodden" />
		<tag k="place" v="locality" />
		<tag k="ssr:stedsnr" v="158020" />
	</node>
	<node lat="58.35324999813189" lon="7.190211109365459" id="-22991">
		<tag k="name" v="Nedre Skothei" />
		<tag k="place" v="locality" />
		<tag k="ssr:stedsnr" v="157951" />
	</node>
	<node lat="58.47076111191206" lon="7.234480563379797" id="-22992">
		<tag k="name" v="Tinndalen" />
		<tag k="natural" v="valley" />
		<tag k="place" v="locality" />
		<tag k="ssr:stedsnr" v="158153" />
	</node>
	<node lat="58.45328888752437" lon="7.36896945130886" id="-22993">
		<tag k="name" v="Årestuen" />
		<tag k="place" v="locality" />
		<tag k="ssr:stedsnr" v="158171" />
	</node>
	<node lat="58.43643332968195" lon="7.223105548012652" id="-22994">
		<tag k="name" v="Kleppsfjellet" />
		<tag k="natural" v="cliff" />
		<tag k="ssr:stedsnr" v="158368" />
	</node>
	<node lat="58.38145555456869" lon="7.170433340736825" id="-22995">
		<tag k="name" v="Tornemyr" />
		<tag k="natural" v="wetland" />
		<tag k="ssr:stedsnr" v="158205" />
	</node>
	<node lat="58.376155558365106" lon="7.1941083359068685" id="-22996">
		<tag k="name" v="Bleimyr" />
		<tag k="natural" v="wetland" />
		<tag k="ssr:stedsnr" v="158207" />
	</node>
	<node lat="58.33571110817398" lon="7.128119451153317" id="-22997">
		<tag k="name" v="Tunnesteigen" />
		<tag k="natural" v="slope" />
		<tag k="place" v="locality" />
		<tag k="ssr:stedsnr" v="158211" />
	</node>
	<node lat="58.462138890765516" lon="7.1086666711581765" id="-22998">
		<tag k="name" v="Blåbergmyran" />
		<tag k="natural" v="wetland" />
		<tag k="ssr:stedsnr" v="158213" />
	</node>
	<node lat="58.35921667024792" lon="7.202666659454153" id="-22999">
		<tag k="name" v="Raunelibakken" />
		<tag k="natural" v="slope" />
		<tag k="place" v="locality" />
		<tag k="ssr:stedsnr" v="158216" />
	</node>
	<node lat="58.36798888843545" lon="7.123802773123519" id="-23000">
		<tag k="fixme" v="consider natural=peak for the most distinct mountains in the district" />
		<tag k="name" v="Sandvassåsen" />
		<tag k="natural" v="hill" />
		<tag k="place" v="locality" />
		<tag k="ssr:stedsnr" v="158249" />
	</node>
	<node lat="58.46476944406654" lon="7.11073332485226" id="-23001">
		<tag k="name" v="Trollshola" />
		<tag k="natural" v="valley" />
		<tag k="place" v="locality" />
		<tag k="ssr:stedsnr" v="158257" />
	</node>
	<node lat="58.39988055727799" lon="7.211958325031129" id="-23002">
		<tag k="name" v="Paddeskorm" />
		<tag k="natural" v="valley" />
		<tag k="place" v="locality" />
		<tag k="ssr:stedsnr" v="158264" />
	</node>
	<node lat="58.537794445702694" lon="7.131813892812092" id="-23003">
		<tag k="name" v="Tjovhelleren" />
		<tag k="place" v="locality" />
		<tag k="ssr:stedsnr" v="158407" />
	</node>
	<node lat="58.42468333617678" lon="7.231488892610209" id="-23004">
		<tag k="name" v="Lunnan" />
		<tag k="place" v="locality" />
		<tag k="ssr:stedsnr" v="158411" />
	</node>
	<node lat="58.29495277328209" lon="7.145830549295131" id="-23005">
		<tag k="name" v="Lyngrinnen" />
		<tag k="natural" v="ridge" />
		<tag k="place" v="locality" />
		<tag k="ssr:stedsnr" v="158417" />
	</node>
	<node lat="58.29014444862721" lon="7.141983335563524" id="-23006">
		<tag k="name" v="Endelausslåtta" />
		<tag k="natural" v="wetland" />
		<tag k="ssr:stedsnr" v="158420" />
	</node>
	<node lat="58.539055554142294" lon="7.210016662341336" id="-23007">
		<tag k="name" v="Sjåltaslåtta" />
		<tag k="natural" v="wetland" />
		<tag k="ssr:stedsnr" v="158399" />
	</node>
	<node lat="58.59220833058622" lon="7.1345861146132465" id="-23008">
		<tag k="name" v="Homevatnkilen" />
		<tag k="natural" v="bay" />
		<tag k="ssr:stedsnr" v="158505" />
	</node>
	<node lat="58.59151111521304" lon="7.095872230567253" id="-23009">
		<tag k="name" v="Geitskarfjellet" />
		<tag k="natural" v="cliff" />
		<tag k="ssr:stedsnr" v="158506" />
	</node>
	<node lat="58.38150000402023" lon="7.317380547227283" id="-23010">
		<tag k="alt_name" v="Langalieskaret" />
		<tag k="name" v="Langaliskaret" />
		<tag k="natural" v="valley" />
		<tag k="place" v="locality" />
		<tag k="ssr:stedsnr" v="158548" />
	</node>
	<node lat="58.56368610907711" lon="7.1427805566113935" id="-23011">
		<tag k="name" v="Åvetslands Bjørndal" />
		<tag k="natural" v="valley" />
		<tag k="place" v="locality" />
		<tag k="ssr:stedsnr" v="158562" />
	</node>
	<node lat="58.55464166982781" lon="7.124927776890876" id="-23012">
		<tag k="name" v="Bjødnedalsfjellet" />
		<tag k="natural" v="hill" />
		<tag k="place" v="locality" />
		<tag k="ssr:stedsnr" v="158599" />
	</node>
	<node lat="58.605119444648714" lon="7.130133338521333" id="-23013">
		<tag k="name" v="Roneknuten" />
		<tag k="natural" v="hill" />
		<tag k="place" v="locality" />
		<tag k="ssr:stedsnr" v="158750" />
	</node>
	<node lat="58.61205833332811" lon="7.133597221699444" id="-23014">
		<tag k="name" v="Kyrkjesteindalen" />
		<tag k="natural" v="valley" />
		<tag k="place" v="locality" />
		<tag k="ssr:stedsnr" v="158755" />
	</node>
	<node lat="58.60755277899706" lon="7.1149305518029395" id="-23015">
		<tag k="ford" v="yes" />
		<tag k="name" v="Vaet" />
		<tag k="place" v="locality" />
		<tag k="ssr:stedsnr" v="158764" />
	</node>
	<node lat="58.55512777770958" lon="7.076152783075451" id="-23017">
		<tag k="name" v="Kringlemyr" />
		<tag k="natural" v="wetland" />
		<tag k="ssr:stedsnr" v="158608" />
	</node>
	<node lat="58.60417222065803" lon="7.225599997421599" id="-23018">
		<tag k="name" v="Surtefjell øvre" />
		<tag k="natural" v="cliff" />
		<tag k="ssr:stedsnr" v="158652" />
	</node>
	<node lat="58.59211111291182" lon="7.242388882749291" id="-23019">
		<tag k="name" v="Vatnan" />
		<tag k="natural" v="water" />
		<tag k="ssr:stedsnr" v="158655" />
		<tag k="water" v="lake" />
	</node>
	<node lat="58.66363055465738" lon="7.126055547110933" id="-23020">
		<tag k="name" v="Tangetjødnhommen" />
		<tag k="natural" v="valley" />
		<tag k="place" v="locality" />
		<tag k="ssr:stedsnr" v="158668" />
	</node>
	<node lat="58.34332777456899" lon="7.287305562392284" id="-23021">
		<tag k="highway" v="path" />
		<tag k="name" v="Gunvårstien" />
		<tag k="ssr:stedsnr" v="158805" />
	</node>
	<node lat="58.33353055823428" lon="7.2829666655180585" id="-23022">
		<tag k="fixme" v="consider natural=peak for the most distinct mountains in the district" />
		<tag k="name" v="Teinbergsåsen" />
		<tag k="natural" v="hill" />
		<tag k="place" v="locality" />
		<tag k="ssr:stedsnr" v="158907" />
	</node>
	<node lat="58.34919721836538" lon="7.143011118745511" id="-23023">
		<tag k="name" v="Vippetjødn" />
		<tag k="natural" v="water" />
		<tag k="ssr:stedsnr" v="158957" />
	</node>
	<node lat="58.344608333147164" lon="7.127141658826691" id="-23024">
		<tag k="name" v="Stivlehommen" />
		<tag k="natural" v="valley" />
		<tag k="place" v="locality" />
		<tag k="ssr:stedsnr" v="158960" />
	</node>
	<node lat="58.358822217896055" lon="7.166180547300463" id="-23025">
		<tag k="name" v="Kringla" />
		<tag k="natural" v="wetland" />
		<tag k="ssr:stedsnr" v="158961" />
	</node>
	<node lat="58.355024998144394" lon="7.170247216467834" id="-23026">
		<tag k="name" v="Fjelltjødnrinnan" />
		<tag k="natural" v="ridge" />
		<tag k="place" v="locality" />
		<tag k="ssr:stedsnr" v="158967" />
	</node>
	<node lat="58.5673305564579" lon="7.2283333390822175" id="-23027">
		<tag k="name" v="Svartestein" />
		<tag k="natural" v="stone" />
		<tag k="ssr:stedsnr" v="158851" />
	</node>
	<node lat="58.350930555577875" lon="7.272586108690885" id="-23028">
		<tag k="name" v="Steinårknuden" />
		<tag k="natural" v="hill" />
		<tag k="place" v="locality" />
		<tag k="ssr:stedsnr" v="158854" />
	</node>
	<node lat="58.53700000219982" lon="7.269599996233201" id="-23029">
		<tag k="name" v="Siriknuten" />
		<tag k="natural" v="hill" />
		<tag k="place" v="locality" />
		<tag k="ssr:stedsnr" v="158864" />
	</node>
	<node lat="58.32985278159355" lon="7.158358332479889" id="-23030">
		<tag k="name" v="Skuggefjellan" />
		<tag k="natural" v="cliff" />
		<tag k="ssr:stedsnr" v="159024" />
	</node>
	<node lat="58.31861389088396" lon="7.15388055784763" id="-23031">
		<tag k="name" v="Voddan" />
		<tag k="natural" v="slope" />
		<tag k="place" v="locality" />
		<tag k="ssr:stedsnr" v="159098" />
	</node>
	<node lat="58.54219722235833" lon="7.097758341520069" id="-23032">
		<tag k="alt_name" v="Lii" />
		<tag k="fixme" v="consider place=hamlet" />
		<tag k="name" v="Lien" />
		<tag k="place" v="farm" />
		<tag k="ssr:stedsnr" v="182110" />
	</node>
	<node lat="58.61128055703585" lon="7.111513894258586" id="-23033">
		<tag k="alt_name" v="Finnstedalen" />
		<tag k="name" v="Finstedalen" />
		<tag k="natural" v="valley" />
		<tag k="place" v="locality" />
		<tag k="ssr:stedsnr" v="182427" />
	</node>
	<node lat="58.60675277901272" lon="7.1250055478234735" id="-23034">
		<tag k="name" v="Vestvatnet" />
		<tag k="natural" v="water" />
		<tag k="ssr:stedsnr" v="182447" />
		<tag k="water" v="lake" />
	</node>
	<node lat="58.553486836314846" lon="7.153530225940245" id="-23035">
		<tag k="historic" v="shieling" />
		<tag k="name" v="Homstøl" />
		<tag k="place" v="isolated_dwelling" />
		<tag k="ssr:stedsnr" v="182396" />
	</node>
	<node lat="58.32705833038996" lon="7.172966667372969" id="-23036">
		<tag k="alt_name" v="Heptedalsvatnet" />
		<tag k="name" v="Heptestølsvatnet" />
		<tag k="natural" v="water" />
		<tag k="ssr:stedsnr" v="182546" />
		<tag k="water" v="lake" />
	</node>
	<node lat="58.35360000393953" lon="7.152063888645123" id="-23037">
		<tag k="alt_name" v="Storskorshei" />
		<tag k="fixme" v="consider natural=peak for the most distinct mountains in the district" />
		<tag k="name" v="Storskorhei" />
		<tag k="natural" v="hill" />
		<tag k="place" v="locality" />
		<tag k="ssr:stedsnr" v="182700" />
	</node>
	<node lat="58.468533330249194" lon="7.247388893146209" id="-23038">
		<tag k="name" v="Klomre" />
		<tag k="natural" v="valley" />
		<tag k="place" v="locality" />
		<tag k="ssr:stedsnr" v="218203" />
	</node>
	<node lat="58.455786113771346" lon="7.248574991866433" id="-23039">
		<tag k="name" v="Dansarbergan" />
		<tag k="natural" v="slope" />
		<tag k="place" v="locality" />
		<tag k="ssr:stedsnr" v="218204" />
	</node>
	<node lat="58.46063888611991" lon="7.24398055014353" id="-23040">
		<tag k="name" v="Ormebakken" />
		<tag k="natural" v="slope" />
		<tag k="place" v="locality" />
		<tag k="ssr:stedsnr" v="218206" />
	</node>
</osm>
