<?xml version="1.0" encoding="UTF-8"?>
<<<<<<< HEAD
<osm version="0.6" generator="osmapis">
	<node lat="58.392758332994404" lon="7.197944440505768" id="-25910">
		<tag k="name" v="Skarstøl" />
		<tag k="place" v="locality" />
		<tag k="ssr:stedsnr" v="36010" />
	</node>
	<node lat="58.51836666449788" lon="7.172800007818113" id="-25938">
		<tag k="name" v="Stol" />
		<tag k="natural" v="stone" />
		<tag k="ssr:stedsnr" v="36263" />
	</node>
	<node lat="58.51770000288052" lon="7.181066673813215" id="-25940">
		<tag k="name" v="Grashomsteinen" />
		<tag k="natural" v="stone" />
		<tag k="ssr:stedsnr" v="36267" />
	</node>
	<node lat="58.51931944487434" lon="7.157933339813701" id="-25942">
		<tag k="name" v="Eldhusmyra" />
		<tag k="place" v="locality" />
		<tag k="ssr:stedsnr" v="36277" />
	</node>
	<node lat="58.49113611435533" lon="7.3175805632763495" id="-25957">
		<tag k="name" v="Stedjan" />
		<tag k="place" v="locality" />
		<tag k="ssr:stedsnr" v="37117" />
	</node>
	<node lat="58.546983335651454" lon="7.128061116400543" id="-25961">
		<tag k="name" v="Store Steinan" />
		<tag k="natural" v="stone" />
		<tag k="ssr:stedsnr" v="37420" />
	</node>
	<node lat="58.29232222032798" lon="7.145494453069242" id="-25962">
=======
<osm generator="osmapis" version="0.6">
	<node id="-578043" lat="58.3415472211" lon="7.29837221461">
		<tag k="name" v="Torvemyr" />
		<tag k="natural" v="wetland" />
		<tag k="ssr:stedsnr" v="886793" />
	</node>
	<node id="-578038" lat="58.526738886" lon="7.13006666998">
		<tag k="name" v="Skabergmyra" />
		<tag k="natural" v="wetland" />
		<tag k="ssr:stedsnr" v="886429" />
	</node>
	<node id="-578545" lat="58.3244055584" lon="7.22498332863">
		<tag k="name" v="Saurmyr" />
		<tag k="natural" v="wetland" />
		<tag k="ssr:stedsnr" v="37850" />
	</node>
	<node id="-577277" lat="58.3919499955" lon="7.2628944436">
		<tag k="name" v="Lunden" />
		<tag k="place" v="locality" />
		<tag k="ssr:stedsnr" v="98469" />
	</node>
	<node id="-578025" lat="58.4843194473" lon="7.32944722211">
		<tag k="name" v="Småstedjan" />
		<tag k="natural" v="wetland" />
		<tag k="ssr:stedsnr" v="886034" />
	</node>
	<node id="-577512" lat="58.3983777803" lon="7.30869444454">
		<tag k="name" v="Storemyr" />
		<tag k="natural" v="wetland" />
		<tag k="ssr:stedsnr" v="219399" />
	</node>
	<node id="-577501" lat="58.4803027757" lon="7.21472221833">
		<tag k="name" v="Myran" />
		<tag k="natural" v="wetland" />
		<tag k="ssr:stedsnr" v="219221" />
	</node>
	<node id="-578524" lat="58.2890222186" lon="7.15043888684">
		<tag k="name" v="Trebuslåtta" />
		<tag k="natural" v="wetland" />
		<tag k="ssr:stedsnr" v="37444" />
	</node>
	<node id="-578523" lat="58.2892777803" lon="7.13603889673">
		<tag k="name" v="Dyblemyr" />
		<tag k="natural" v="wetland" />
		<tag k="ssr:stedsnr" v="37442" />
	</node>
	<node id="-577498" lat="58.4807750015" lon="7.23675832543">
		<tag k="name" v="Røysen" />
		<tag k="natural" v="scree" />
		<tag k="ssr:stedsnr" v="219074" />
	</node>
	<node id="-578521" lat="58.2932805541" lon="7.15132221503">
		<tag k="name" v="Ytre Lisleslåtta" />
		<tag k="natural" v="wetland" />
		<tag k="ssr:stedsnr" v="37426" />
	</node>
	<node id="-578519" lat="58.2923222203" lon="7.14549445307">
>>>>>>> e1d4bc35ff8a6074a6f2e91616a996b547c36f15
		<tag k="name" v="Karten" />
		<tag k="natural" v="wetland" />
		<tag k="ssr:stedsnr" v="37423" />
	</node>
<<<<<<< HEAD
	<node lat="58.47113889271051" lon="7.3195250039408295" id="-26018">
		<tag k="name" v="Vedremyr" />
		<tag k="natural" v="wetland" />
		<tag k="ssr:stedsnr" v="96066" />
	</node>
	<node lat="58.47435277952554" lon="7.330397226166523" id="-26019">
		<tag k="name" v="Flisemyran" />
		<tag k="natural" v="wetland" />
		<tag k="ssr:stedsnr" v="96068" />
	</node>
	<node lat="58.474830560117944" lon="7.315230563343038" id="-26020">
		<tag k="name" v="Stedjan" />
		<tag k="natural" v="wetland" />
		<tag k="ssr:stedsnr" v="96074" />
	</node>
	<node lat="58.37819999753412" lon="7.229283337618537" id="-26022">
		<tag k="name" v="Skiljarstaden" />
		<tag k="place" v="locality" />
		<tag k="ssr:stedsnr" v="96721" />
	</node>
	<node lat="58.45343055447002" lon="7.136652777072662" id="-26038">
		<tag k="name" v="Vareslåtta" />
		<tag k="natural" v="wetland" />
		<tag k="ssr:stedsnr" v="97203" />
	</node>
	<node lat="58.456844442092844" lon="7.2698166751882525" id="-26041">
		<tag k="name" v="Breimyr" />
=======
	<node id="-578518" lat="58.5469833357" lon="7.1280611164">
		<tag k="name" v="Store Steinan" />
		<tag k="natural" v="stone" />
		<tag k="ssr:stedsnr" v="37420" />
	</node>
	<node id="-577443" lat="58.3261444473" lon="7.24470834163">
		<tag k="name" v="Launsmyrå" />
		<tag k="natural" v="wetland" />
		<tag k="ssr:stedsnr" v="280887" />
	</node>
	<node id="-578503" lat="58.2984555564" lon="7.20608889195">
		<tag k="name" v="Gysura" />
		<tag k="natural" v="scree" />
		<tag k="ssr:stedsnr" v="37092" />
	</node>
	<node id="-577478" lat="58.5075555554" lon="7.28132777434">
		<tag k="name" v="Dyblemyr" />
		<tag k="natural" v="wetland" />
		<tag k="ssr:stedsnr" v="218909" />
	</node>
	<node id="-577470" lat="58.5342083303" lon="7.22304167472">
		<tag k="name" v="Gunleivsmyr" />
>>>>>>> e1d4bc35ff8a6074a6f2e91616a996b547c36f15
		<tag k="natural" v="wetland" />
		<tag k="ssr:stedsnr" v="97217" />
	</node>
<<<<<<< HEAD
	<node lat="58.4986166635899" lon="7.350525001235407" id="-26051">
		<tag k="name" v="Bjønnsmyr" />
		<tag k="natural" v="wetland" />
		<tag k="ssr:stedsnr" v="97809" />
	</node>
	<node lat="58.39510555862338" lon="7.284955550340931" id="-26063">
		<tag k="name" v="Slåttemyr" />
		<tag k="place" v="locality" />
		<tag k="ssr:stedsnr" v="98465" />
	</node>
	<node lat="58.39194999552704" lon="7.262894443603454" id="-26064">
		<tag k="name" v="Lunden" />
		<tag k="place" v="locality" />
		<tag k="ssr:stedsnr" v="98469" />
	</node>
	<node lat="58.58936388892646" lon="7.216591667242957" id="-26070">
		<tag k="name" v="Rauesteinen" />
		<tag k="natural" v="stone" />
		<tag k="ssr:stedsnr" v="98566" />
	</node>
	<node lat="58.30411388568539" lon="7.248916672537575" id="-26079">
		<tag k="name" v="Moltemyr" />
		<tag k="natural" v="wetland" />
		<tag k="ssr:stedsnr" v="98974" />
	</node>
	<node lat="58.49424444790796" lon="7.349469437513413" id="-26102">
		<tag k="name" v="Bergesmyr" />
=======
	<node id="-578492" lat="58.5287527748" lon="7.22258610966">
		<tag k="name" v="Søvrinslåtta" />
		<tag k="natural" v="wetland" />
		<tag k="ssr:stedsnr" v="36795" />
	</node>
	<node id="-577467" lat="58.3798000043" lon="7.22081944829">
		<tag k="name" v="Øyan" />
		<tag k="place" v="locality" />
		<tag k="ssr:stedsnr" v="218722" />
	</node>
	<node id="-578484" lat="58.4259444426" lon="7.15468889258">
		<tag k="name" v="Heddanslåttan" />
		<tag k="natural" v="wetland" />
		<tag k="ssr:stedsnr" v="36354" />
	</node>
	<node id="-578483" lat="58.4924083361" lon="7.12658332603">
		<tag k="name" v="Krobekkmyr" />
		<tag k="natural" v="wetland" />
		<tag k="ssr:stedsnr" v="36328" />
	</node>
	<node id="-578480" lat="58.5193194449" lon="7.15793333981">
		<tag k="name" v="Eldhusmyra" />
		<tag k="place" v="locality" />
		<tag k="ssr:stedsnr" v="36277" />
	</node>
	<node id="-578478" lat="58.5177000029" lon="7.18106667381">
		<tag k="name" v="Grashomsteinen" />
		<tag k="natural" v="stone" />
		<tag k="ssr:stedsnr" v="36267" />
	</node>
	<node id="-578476" lat="58.5183666645" lon="7.17280000782">
		<tag k="name" v="Stol" />
		<tag k="natural" v="stone" />
		<tag k="ssr:stedsnr" v="36263" />
	</node>
	<node id="-578474" lat="58.5320527797" lon="7.21397499811">
		<tag k="name" v="Steinstjødnmyran" />
		<tag k="natural" v="wetland" />
		<tag k="ssr:stedsnr" v="36246" />
	</node>
	<node id="-578473" lat="58.5096861132" lon="7.10101388888">
		<tag k="name" v="Langaslåtta" />
>>>>>>> e1d4bc35ff8a6074a6f2e91616a996b547c36f15
		<tag k="natural" v="wetland" />
		<tag k="ssr:stedsnr" v="157804" />
	</node>
<<<<<<< HEAD
	<node lat="58.46792500172932" lon="7.2052833379194965" id="-26109">
		<tag k="name" v="Bastevodden" />
		<tag k="place" v="locality" />
		<tag k="ssr:stedsnr" v="158020" />
	</node>
	<node lat="58.38145555456869" lon="7.170433340736825" id="-26114">
		<tag k="name" v="Tornemyr" />
		<tag k="natural" v="wetland" />
		<tag k="ssr:stedsnr" v="158205" />
	</node>
	<node lat="58.376155558365106" lon="7.1941083359068685" id="-26115">
		<tag k="name" v="Bleimyr" />
		<tag k="natural" v="wetland" />
		<tag k="ssr:stedsnr" v="158207" />
	</node>
	<node lat="58.462138890765516" lon="7.1086666711581765" id="-26117">
		<tag k="name" v="Blåbergmyran" />
=======
	<node id="-577957" lat="58.4035611077" lon="7.25703333625">
		<tag k="name" v="Storemyra" />
		<tag k="natural" v="wetland" />
		<tag k="ssr:stedsnr" v="583497" />
	</node>
	<node id="-577955" lat="58.3987472229" lon="7.22881389326">
		<tag k="name" v="Øvre Dukan" />
		<tag k="place" v="locality" />
		<tag k="ssr:stedsnr" v="583473" />
	</node>
	<node id="-577438" lat="58.3465861144" lon="7.28611110643">
		<tag k="name" v="Kristnarsteinen" />
		<tag k="natural" v="stone" />
		<tag k="ssr:stedsnr" v="280812" />
	</node>
	<node id="-577437" lat="58.3453527738" lon="7.27137777702">
		<tag k="name" v="Skiljarmyrå" />
>>>>>>> e1d4bc35ff8a6074a6f2e91616a996b547c36f15
		<tag k="natural" v="wetland" />
		<tag k="ssr:stedsnr" v="158213" />
	</node>
<<<<<<< HEAD
	<node lat="58.29014444862721" lon="7.141983335563524" id="-26125">
		<tag k="name" v="Endelausslåtta" />
		<tag k="natural" v="wetland" />
		<tag k="ssr:stedsnr" v="158420" />
	</node>
	<node lat="58.539055554142294" lon="7.210016662341336" id="-26126">
		<tag k="name" v="Sjåltaslåtta" />
		<tag k="natural" v="wetland" />
		<tag k="ssr:stedsnr" v="158399" />
	</node>
	<node lat="58.55512777770958" lon="7.076152783075451" id="-26136">
		<tag k="name" v="Kringlemyr" />
		<tag k="natural" v="wetland" />
		<tag k="ssr:stedsnr" v="158608" />
	</node>
	<node lat="58.358822217896055" lon="7.166180547300463" id="-26144">
		<tag k="name" v="Kringla" />
		<tag k="natural" v="wetland" />
		<tag k="ssr:stedsnr" v="158961" />
	</node>
	<node lat="58.5673305564579" lon="7.2283333390822175" id="-26146">
		<tag k="name" v="Svartestein" />
		<tag k="natural" v="stone" />
		<tag k="ssr:stedsnr" v="158851" />
	</node>
	<node lat="58.53094167075594" lon="7.209611110928722" id="-26160">
		<tag k="name" v="Sandvassmyran" />
		<tag k="natural" v="wetland" />
		<tag k="ssr:stedsnr" v="218282" />
	</node>
	<node lat="58.46235833786338" lon="7.311875002061636" id="-26163">
		<tag k="name" v="Holtan" />
		<tag k="place" v="locality" />
		<tag k="ssr:stedsnr" v="218132" />
	</node>
	<node lat="58.52266666221406" lon="7.299269439405588" id="-26179">
		<tag k="name" v="Soppekjerrmyra" />
		<tag k="natural" v="wetland" />
		<tag k="ssr:stedsnr" v="218895" />
	</node>
	<node lat="58.37980000428573" lon="7.220819448288357" id="-26186">
		<tag k="name" v="Øyan" />
		<tag k="place" v="locality" />
		<tag k="ssr:stedsnr" v="218722" />
	</node>
	<node lat="58.507555555422364" lon="7.281327774344126" id="-26191">
=======
	<node id="-577434" lat="58.6133972265" lon="7.13351945049">
		<tag k="name" v="Kyrkjesteinmyra" />
		<tag k="natural" v="wetland" />
		<tag k="ssr:stedsnr" v="280754" />
	</node>
	<node id="-577263" lat="58.4986166636" lon="7.35052500124">
		<tag k="name" v="Bjønnsmyr" />
		<tag k="natural" v="wetland" />
		<tag k="ssr:stedsnr" v="97809" />
	</node>
	<node id="-577299" lat="58.3788305561" lon="7.27835278275">
		<tag k="name" v="Torvemyr" />
		<tag k="place" v="locality" />
		<tag k="ssr:stedsnr" v="278660" />
	</node>
	<node id="-578451" lat="58.4095527784" lon="7.17400556345">
		<tag k="name" v="Eriksmyr" />
		<tag k="natural" v="wetland" />
		<tag k="ssr:stedsnr" v="36078" />
	</node>
	<node id="-577423" lat="58.3676333376" lon="7.28314722776">
		<tag k="name" v="Holevodden" />
		<tag k="place" v="locality" />
		<tag k="ssr:stedsnr" v="280568" />
	</node>
	<node id="-577153" lat="58.357575004" lon="7.16696388131">
		<tag k="name" v="Vidringskjerran" />
		<tag k="natural" v="wetland" />
		<tag k="ssr:stedsnr" v="219958" />
	</node>
	<node id="-577931" lat="58.4583555549" lon="7.33174999454">
		<tag k="name" v="Myrdingsteinan" />
		<tag k="natural" v="stone" />
		<tag k="ssr:stedsnr" v="582128" />
	</node>
	<node id="-577925" lat="58.4855694465" lon="7.22382778219">
		<tag k="name" v="Loglimyra" />
		<tag k="natural" v="wetland" />
		<tag k="ssr:stedsnr" v="582102" />
	</node>
	<node id="-577174" lat="58.4911361144" lon="7.31758056328">
		<tag k="name" v="Stedjan" />
		<tag k="place" v="locality" />
		<tag k="ssr:stedsnr" v="37117" />
	</node>
	<node id="-577922" lat="58.4722111154" lon="7.34377777068">
		<tag k="name" v="Bjønnsmyr" />
		<tag k="natural" v="wetland" />
		<tag k="ssr:stedsnr" v="581072" />
	</node>
	<node id="-577921" lat="58.3328194421" lon="7.28279999268">
		<tag k="name" v="Austre-slåtan" />
		<tag k="natural" v="wetland" />
		<tag k="ssr:stedsnr" v="705908" />
	</node>
	<node id="-577920" lat="58.3112527759" lon="7.1421361076">
		<tag k="name" v="Myran" />
		<tag k="natural" v="wetland" />
		<tag k="ssr:stedsnr" v="705126" />
	</node>
	<node id="-577407" lat="58.393966663" lon="7.3191583301">
		<tag k="name" v="Holeslåtta" />
		<tag k="natural" v="wetland" />
		<tag k="ssr:stedsnr" v="280406" />
	</node>
	<node id="-577406" lat="58.2940166671" lon="7.14926388949">
		<tag k="name" v="Via Myra" />
		<tag k="natural" v="wetland" />
		<tag k="ssr:stedsnr" v="280403" />
	</node>
	<node id="-577405" lat="58.5378277777" lon="7.09302778085">
		<tag k="name" v="Torvløemyra" />
		<tag k="natural" v="wetland" />
		<tag k="ssr:stedsnr" v="280382" />
	</node>
	<node id="-577913" lat="58.3320000022" lon="7.14760277211">
		<tag k="name" v="Kroken" />
		<tag k="natural" v="wetland" />
		<tag k="ssr:stedsnr" v="705040" />
	</node>
	<node id="-577911" lat="58.3132722217" lon="7.26416388153">
		<tag k="name" v="Sjueslåtta" />
		<tag k="natural" v="wetland" />
		<tag k="ssr:stedsnr" v="704989" />
	</node>
	<node id="-577513" lat="58.3964972216" lon="7.3115916736">
		<tag k="name" v="Sterkålslåtta" />
		<tag k="natural" v="wetland" />
		<tag k="ssr:stedsnr" v="219402" />
	</node>
	<node id="-577392" lat="58.4529361115" lon="7.30611666644">
>>>>>>> e1d4bc35ff8a6074a6f2e91616a996b547c36f15
		<tag k="name" v="Dyblemyr" />
		<tag k="natural" v="wetland" />
		<tag k="ssr:stedsnr" v="218909" />
	</node>
<<<<<<< HEAD
	<node lat="58.49557222216378" lon="7.250955559305381" id="-26192">
		<tag k="name" v="Gåvemyra" />
		<tag k="natural" v="wetland" />
		<tag k="ssr:stedsnr" v="218916" />
	</node>
	<node lat="58.480775001516946" lon="7.236758325430389" id="-26201">
		<tag k="name" v="Røysen" />
		<tag k="natural" v="scree" />
		<tag k="ssr:stedsnr" v="219074" />
	</node>
	<node lat="58.48030277572636" lon="7.2147222183333195" id="-26204">
		<tag k="name" v="Myran" />
=======
	<node id="-577895" lat="58.5696416691" lon="7.23059443749">
		<tag k="name" v="Laurdagslåtta" />
>>>>>>> e1d4bc35ff8a6074a6f2e91616a996b547c36f15
		<tag k="natural" v="wetland" />
		<tag k="ssr:stedsnr" v="219221" />
	</node>
<<<<<<< HEAD
	<node lat="58.38617500242485" lon="7.16772500078709" id="-26206">
		<tag k="name" v="Heimre Torvemyr" />
		<tag k="natural" v="wetland" />
		<tag k="ssr:stedsnr" v="219228" />
	</node>
	<node lat="58.39649722156521" lon="7.31159167360493" id="-26207">
		<tag k="name" v="Sterkålslåtta" />
		<tag k="natural" v="wetland" />
		<tag k="ssr:stedsnr" v="219402" />
	</node>
	<node lat="58.614441671205896" lon="7.134222225450768" id="-26217">
		<tag k="name" v="Kyrkjesteinen" />
		<tag k="natural" v="stone" />
		<tag k="ssr:stedsnr" v="219764" />
	</node>
	<node lat="58.46871111497047" lon="7.199755561645006" id="-26243">
		<tag k="name" v="Bjørnsote" />
		<tag k="place" v="locality" />
		<tag k="ssr:stedsnr" v="279033" />
	</node>
	<node lat="58.46466388574095" lon="7.276061104709072" id="-26257">
		<tag k="name" v="Storemyr" />
=======
	<node id="-577377" lat="58.3588222179" lon="7.1661805473">
		<tag k="name" v="Kringla" />
>>>>>>> e1d4bc35ff8a6074a6f2e91616a996b547c36f15
		<tag k="natural" v="wetland" />
		<tag k="ssr:stedsnr" v="279225" />
	</node>
<<<<<<< HEAD
	<node lat="58.44708333696363" lon="7.211555560527782" id="-26273">
		<tag k="name" v="Moltemyr" />
		<tag k="natural" v="wetland" />
		<tag k="ssr:stedsnr" v="461069" />
	</node>
	<node lat="58.45293611150523" lon="7.306116666440434" id="-26278">
		<tag k="name" v="Dyblemyr" />
		<tag k="natural" v="wetland" />
		<tag k="ssr:stedsnr" v="280113" />
	</node>
	<node lat="58.40780000303669" lon="7.303874999976749" id="-26280">
		<tag k="name" v="Holeslåtten" />
		<tag k="natural" v="wetland" />
		<tag k="ssr:stedsnr" v="280323" />
	</node>
	<node lat="58.294016667057846" lon="7.149263889487862" id="-26284">
		<tag k="name" v="Via Myra" />
=======
	<node id="-577373" lat="58.532744448" lon="7.13030277323">
		<tag k="name" v="Stemsmyr" />
>>>>>>> e1d4bc35ff8a6074a6f2e91616a996b547c36f15
		<tag k="natural" v="wetland" />
		<tag k="ssr:stedsnr" v="280403" />
	</node>
<<<<<<< HEAD
	<node lat="58.393966662982514" lon="7.319158330097004" id="-26285">
		<tag k="name" v="Holeslåtta" />
		<tag k="natural" v="wetland" />
		<tag k="ssr:stedsnr" v="280406" />
	</node>
	<node lat="58.36763333759676" lon="7.283147227755696" id="-26290">
		<tag k="name" v="Holevodden" />
		<tag k="place" v="locality" />
		<tag k="ssr:stedsnr" v="280568" />
	</node>
	<node lat="58.34658611444219" lon="7.286111106432599" id="-26294">
		<tag k="name" v="Kristnarsteinen" />
		<tag k="natural" v="stone" />
		<tag k="ssr:stedsnr" v="280812" />
	</node>
	<node lat="58.47982222585761" lon="7.340380552806749" id="-26302">
		<tag k="name" v="Juvasmyr" />
		<tag k="natural" v="wetland" />
		<tag k="ssr:stedsnr" v="461035" />
	</node>
	<node lat="58.464452779033714" lon="7.259155547899875" id="-26305">
		<tag k="name" v="Stømyr" />
		<tag k="natural" v="wetland" />
		<tag k="ssr:stedsnr" v="461196" />
	</node>
	<node lat="58.48774721970424" lon="7.32565554870628" id="-26312">
		<tag k="name" v="Myrbotnen" />
		<tag k="natural" v="wetland" />
		<tag k="ssr:stedsnr" v="461090" />
	</node>
	<node lat="58.382272218355965" lon="7.273441674564226" id="-26346">
		<tag k="name" v="Langamyr" />
		<tag k="natural" v="wetland" />
		<tag k="ssr:stedsnr" v="461683" />
	</node>
	<node lat="58.31268055113451" lon="7.255227777250753" id="-26349">
		<tag k="name" v="Heiemyr" />
		<tag k="natural" v="wetland" />
		<tag k="ssr:stedsnr" v="461992" />
	</node>
	<node lat="58.311805558942766" lon="7.168597229776419" id="-26353">
		<tag k="name" v="Viemyr" />
		<tag k="natural" v="wetland" />
		<tag k="ssr:stedsnr" v="462090" />
	</node>
	<node lat="58.52600277941815" lon="7.078586112526214" id="-26368">
		<tag k="name" v="Bjørneskjeggmyra" />
		<tag k="natural" v="wetland" />
		<tag k="ssr:stedsnr" v="462506" />
	</node>
	<node lat="58.36564999699379" lon="7.256538892222986" id="-26375">
		<tag k="name" v="Grøna støe" />
		<tag k="natural" v="wetland" />
		<tag k="ssr:stedsnr" v="462553" />
	</node>
	<node lat="58.51159999579345" lon="7.202783325784836" id="-26413">
		<tag k="name" v="Finnstean" />
=======
	<node id="-578390" lat="58.4060777767" lon="7.28827500446">
		<tag k="name" v="Livdalsmyra" />
		<tag k="natural" v="wetland" />
		<tag k="ssr:stedsnr" v="947365" />
	</node>
	<node id="-577871" lat="58.3924749978" lon="7.28084999387">
		<tag k="name" v="Bjennsteinen" />
		<tag k="natural" v="stone" />
		<tag k="ssr:stedsnr" v="704408" />
	</node>
	<node id="-578382" lat="58.384977777" lon="7.28096388149">
		<tag k="name" v="Austejordet" />
		<tag k="place" v="locality" />
		<tag k="ssr:stedsnr" v="947415" />
	</node>
	<node id="-577354" lat="58.4965000021" lon="7.1258333322">
		<tag k="name" v="Jenglakommonan" />
		<tag k="place" v="locality" />
		<tag k="ssr:stedsnr" v="279365" />
	</node>
	<node id="-578377" lat="58.3796611067" lon="7.18984443761">
		<tag k="name" v="Hestmyr" />
>>>>>>> e1d4bc35ff8a6074a6f2e91616a996b547c36f15
		<tag k="natural" v="wetland" />
		<tag k="ssr:stedsnr" v="947221" />
	</node>
<<<<<<< HEAD
	<node lat="58.388905551806126" lon="7.222708328110925" id="-26415">
		<tag k="name" v="Kollemomonen" />
		<tag k="place" v="locality" />
		<tag k="ssr:stedsnr" v="339716" />
	</node>
	<node lat="58.46710833684149" lon="7.202155560976832" id="-26418">
		<tag k="name" v="Dukan" />
		<tag k="place" v="locality" />
		<tag k="ssr:stedsnr" v="340047" />
	</node>
	<node lat="58.37815277993568" lon="7.148227774453871" id="-26423">
		<tag k="name" v="Storemyran" />
=======
	<node id="-577864" lat="58.4121305591" lon="7.22040277321">
		<tag k="name" v="Einfasura" />
		<tag k="natural" v="scree" />
		<tag k="ssr:stedsnr" v="704365" />
	</node>
	<node id="-577348" lat="58.5055472258" lon="7.08884999736">
		<tag k="name" v="Skoreslåtta" />
		<tag k="natural" v="wetland" />
		<tag k="ssr:stedsnr" v="279274" />
	</node>
	<node id="-577852" lat="58.4836777742" lon="7.21173055579">
		<tag k="name" v="Blautkjerran" />
		<tag k="natural" v="wetland" />
		<tag k="ssr:stedsnr" v="704212" />
	</node>
	<node id="-578363" lat="58.3787944471" lon="7.22458055385">
		<tag k="name" v="Heslevodden" />
		<tag k="place" v="locality" />
		<tag k="ssr:stedsnr" v="946709" />
	</node>
	<node id="-577850" lat="58.396027782" lon="7.2079333307">
		<tag k="name" v="Klunglands torvmyr" />
		<tag k="natural" v="wetland" />
		<tag k="ssr:stedsnr" v="704204" />
	</node>
	<node id="-577337" lat="58.4646638857" lon="7.27606110471">
		<tag k="name" v="Storemyr" />
>>>>>>> e1d4bc35ff8a6074a6f2e91616a996b547c36f15
		<tag k="natural" v="wetland" />
		<tag k="ssr:stedsnr" v="340212" />
	</node>
<<<<<<< HEAD
	<node lat="58.317455559341774" lon="7.21607499778623" id="-26432">
		<tag k="name" v="Jåddansmyra" />
		<tag k="natural" v="wetland" />
		<tag k="ssr:stedsnr" v="340104" />
	</node>
	<node lat="58.5804749960268" lon="7.165891669173465" id="-26444">
		<tag k="name" v="Dritersteinen" />
		<tag k="natural" v="stone" />
		<tag k="ssr:stedsnr" v="340525" />
	</node>
	<node lat="58.458041666390955" lon="7.174655555205048" id="-26463">
		<tag k="name" v="Hunskansmyran" />
=======
	<node id="-577160" lat="58.5049555549" lon="7.36426667066">
		<tag k="name" v="Revemyran" />
		<tag k="natural" v="wetland" />
		<tag k="ssr:stedsnr" v="36820" />
	</node>
	<node id="-577837" lat="58.5094111129" lon="7.3710861154">
		<tag k="name" v="Nedre Sæsåsmyra" />
>>>>>>> e1d4bc35ff8a6074a6f2e91616a996b547c36f15
		<tag k="natural" v="wetland" />
		<tag k="ssr:stedsnr" v="400031" />
	</node>
<<<<<<< HEAD
	<node lat="58.366894441037786" lon="7.1619583379914715" id="-26474">
		<tag k="name" v="Indre Knipeli" />
		<tag k="natural" v="wetland" />
		<tag k="ssr:stedsnr" v="400179" />
	</node>
	<node lat="58.45523610796815" lon="7.261525005616854" id="-26480">
		<tag k="name" v="St. Olavs myr" />
		<tag k="natural" v="wetland" />
		<tag k="ssr:stedsnr" v="400188" />
	</node>
	<node lat="58.50978611227422" lon="7.212005561178846" id="-26482">
		<tag k="name" v="Fisketjødnmyran" />
		<tag k="natural" v="wetland" />
		<tag k="ssr:stedsnr" v="400304" />
	</node>
	<node lat="58.50665833314794" lon="7.203375003155126" id="-26483">
		<tag k="name" v="Vassgraset" />
		<tag k="natural" v="wetland" />
		<tag k="ssr:stedsnr" v="400332" />
	</node>
	<node lat="58.50364444055243" lon="7.192041659681735" id="-26484">
		<tag k="name" v="Hekkfjellmyran" />
		<tag k="natural" v="wetland" />
		<tag k="ssr:stedsnr" v="400334" />
	</node>
	<node lat="58.47743055779506" lon="7.229222215310637" id="-26500">
		<tag k="name" v="Porsmyr" />
		<tag k="natural" v="wetland" />
		<tag k="ssr:stedsnr" v="401125" />
	</node>
	<node lat="58.53573055439692" lon="7.092450002392321" id="-26524">
		<tag k="name" v="Lafskarsmyra" />
		<tag k="natural" v="wetland" />
		<tag k="ssr:stedsnr" v="401590" />
	</node>
	<node lat="58.35869999792177" lon="7.223550001748993" id="-26536">
		<tag k="name" v="Oldesmonen" />
		<tag k="place" v="locality" />
		<tag k="ssr:stedsnr" v="401810" />
	</node>
	<node lat="58.45488611359595" lon="7.238394448235148" id="-26581">
		<tag k="name" v="Gjenglemyr" />
		<tag k="natural" v="wetland" />
		<tag k="ssr:stedsnr" v="461207" />
	</node>
	<node lat="58.521547224990464" lon="7.133666668084624" id="-26593">
		<tag k="name" v="Mikarfossmyra" />
		<tag k="natural" v="wetland" />
		<tag k="ssr:stedsnr" v="461465" />
	</node>
	<node lat="58.507550000860846" lon="7.350741665674009" id="-26595">
		<tag k="name" v="Takkmyran" />
		<tag k="natural" v="wetland" />
		<tag k="ssr:stedsnr" v="461765" />
	</node>
	<node lat="58.504516668842925" lon="7.3190944506129325" id="-26597">
		<tag k="name" v="Småstean" />
=======
	<node id="-577315" lat="58.4546500023" lon="7.36192500798">
		<tag k="name" v="Hosselimyr" />
		<tag k="natural" v="wetland" />
		<tag k="ssr:stedsnr" v="279087" />
	</node>
	<node id="-577313" lat="58.4708888917" lon="7.2486166628">
		<tag k="name" v="Hestesteinen" />
		<tag k="natural" v="stone" />
		<tag k="ssr:stedsnr" v="279072" />
	</node>
	<node id="-578437" lat="58.392758333" lon="7.19794444051">
		<tag k="name" v="Skarstøl" />
		<tag k="place" v="locality" />
		<tag k="ssr:stedsnr" v="36010" />
	</node>
	<node id="-578323" lat="58.383555556" lon="7.18089166132">
		<tag k="name" v="Gamla Støe" />
		<tag k="natural" v="wetland" />
		<tag k="ssr:stedsnr" v="886210" />
	</node>
	<node id="-577808" lat="58.454055555" lon="7.26935555582">
		<tag k="name" v="Kringlemyr" />
>>>>>>> e1d4bc35ff8a6074a6f2e91616a996b547c36f15
		<tag k="natural" v="wetland" />
		<tag k="ssr:stedsnr" v="461774" />
	</node>
<<<<<<< HEAD
	<node lat="58.34981666510035" lon="7.167025003019154" id="-26598">
		<tag k="name" v="Dyblemyran" />
=======
	<node id="-577807" lat="58.4523583324" lon="7.26829723071">
		<tag k="name" v="Dyblemyr" />
>>>>>>> e1d4bc35ff8a6074a6f2e91616a996b547c36f15
		<tag k="natural" v="wetland" />
		<tag k="ssr:stedsnr" v="461964" />
	</node>
<<<<<<< HEAD
	<node lat="58.3750611067554" lon="7.284711109437538" id="-26600">
		<tag k="name" v="Possmyre" />
=======
	<node id="-577294" lat="58.3838555597" lon="7.11405833311">
		<tag k="name" v="Fossdalsmyran" />
>>>>>>> e1d4bc35ff8a6074a6f2e91616a996b547c36f15
		<tag k="natural" v="wetland" />
		<tag k="ssr:stedsnr" v="461674" />
	</node>
<<<<<<< HEAD
	<node lat="58.34158611485425" lon="7.290552785743694" id="-26602">
		<tag k="name" v="Skiljemyr" />
		<tag k="natural" v="wetland" />
		<tag k="ssr:stedsnr" v="461808" />
	</node>
	<node lat="58.515177775578245" lon="7.2699000019330136" id="-26603">
		<tag k="name" v="Fosseslåtten" />
		<tag k="natural" v="wetland" />
		<tag k="ssr:stedsnr" v="461822" />
	</node>
	<node lat="58.61177777489586" lon="7.1079166617500285" id="-26621">
		<tag k="name" v="Finstedalsmyran" />
		<tag k="natural" v="wetland" />
		<tag k="ssr:stedsnr" v="462737" />
	</node>
	<node lat="58.41976944124616" lon="7.215777778875837" id="-26640">
		<tag k="name" v="Røyrkjær" />
		<tag k="natural" v="wetland" />
		<tag k="ssr:stedsnr" v="521070" />
	</node>
	<node lat="58.49638611529083" lon="7.364602778652139" id="-26652">
		<tag k="name" v="Ørnemyran" />
		<tag k="natural" v="wetland" />
		<tag k="ssr:stedsnr" v="521813" />
	</node>
	<node lat="58.45762222666252" lon="7.139744439544526" id="-26668">
		<tag k="name" v="Småtjødnmyran" />
		<tag k="natural" v="wetland" />
		<tag k="ssr:stedsnr" v="522245" />
	</node>
	<node lat="58.36129722305032" lon="7.225855557262824" id="-26688">
		<tag k="name" v="Gybergsmyra" />
		<tag k="place" v="locality" />
		<tag k="ssr:stedsnr" v="522820" />
	</node>
	<node lat="58.359725001399546" lon="7.2804222185659855" id="-26690">
		<tag k="name" v="Audndalsmyrå" />
=======
	<node id="-577325" lat="58.4880833361" lon="7.16554444643">
		<tag k="name" v="Venamyr" />
		<tag k="natural" v="wetland" />
		<tag k="ssr:stedsnr" v="279185" />
	</node>
	<node id="-577154" lat="58.3537027737" lon="7.17968611576">
		<tag k="name" v="Lyngmonen" />
		<tag k="natural" v="wetland" />
		<tag k="ssr:stedsnr" v="219962" />
	</node>
	<node id="-577290" lat="58.3041138857" lon="7.24891667254">
		<tag k="name" v="Moltemyr" />
		<tag k="natural" v="wetland" />
		<tag k="ssr:stedsnr" v="98974" />
	</node>
	<node id="-578311" lat="58.3836416656" lon="7.27503888539">
		<tag k="name" v="Hakegrå" />
		<tag k="place" v="locality" />
		<tag k="ssr:stedsnr" v="885619" />
	</node>
	<node id="-578309" lat="58.4391277823" lon="7.30188333514">
		<tag k="name" v="Djupamyr" />
>>>>>>> e1d4bc35ff8a6074a6f2e91616a996b547c36f15
		<tag k="natural" v="wetland" />
		<tag k="ssr:stedsnr" v="522861" />
	</node>
<<<<<<< HEAD
	<node lat="58.396241668448134" lon="7.126263892623312" id="-26722">
		<tag k="name" v="Djupa myr" />
		<tag k="natural" v="wetland" />
		<tag k="ssr:stedsnr" v="581048" />
	</node>
	<node lat="58.37989999737048" lon="7.252902779761744" id="-26726">
		<tag k="name" v="Krikjen" />
		<tag k="natural" v="wetland" />
		<tag k="ssr:stedsnr" v="581642" />
	</node>
	<node lat="58.48556944647676" lon="7.223827782185923" id="-26738">
		<tag k="name" v="Loglimyra" />
		<tag k="natural" v="wetland" />
		<tag k="ssr:stedsnr" v="582102" />
	</node>
	<node lat="58.37676389215894" lon="7.18132499129423" id="-26743">
		<tag k="name" v="Flæsesteinen" />
		<tag k="natural" v="stone" />
		<tag k="ssr:stedsnr" v="582200" />
	</node>
	<node lat="58.51955833127126" lon="7.206422225719393" id="-26747">
		<tag k="name" v="Brulegmyran" />
=======
	<node id="-577282" lat="58.5893638889" lon="7.21659166724">
		<tag k="name" v="Rauesteinen" />
		<tag k="natural" v="stone" />
		<tag k="ssr:stedsnr" v="98566" />
	</node>
	<node id="-578303" lat="58.3207527762" lon="7.21080556141">
		<tag k="name" v="Monen" />
		<tag k="place" v="locality" />
		<tag k="ssr:stedsnr" v="948139" />
	</node>
	<node id="-578301" lat="58.3332555525" lon="7.1487361154">
		<tag k="name" v="Lislåtta" />
>>>>>>> e1d4bc35ff8a6074a6f2e91616a996b547c36f15
		<tag k="natural" v="wetland" />
		<tag k="ssr:stedsnr" v="582301" />
	</node>
<<<<<<< HEAD
	<node lat="58.49756666421787" lon="7.346094448853467" id="-26751">
		<tag k="name" v="Mostamyre" />
		<tag k="natural" v="wetland" />
		<tag k="ssr:stedsnr" v="582808" />
	</node>
	<node lat="58.63277222200479" lon="7.135527781009295" id="-26778">
		<tag k="alt_name" v="Malepart myra" />
		<tag k="name" v="Malepartmyra" />
		<tag k="natural" v="wetland" />
		<tag k="ssr:stedsnr" v="583700" />
	</node>
	<node lat="58.32939999672011" lon="7.236188892144699" id="-26780">
		<tag k="name" v="Sæda" />
		<tag k="natural" v="wetland" />
		<tag k="ssr:stedsnr" v="583844" />
	</node>
	<node lat="58.32634721959952" lon="7.2544138860191065" id="-26782">
		<tag k="name" v="Geiskesteinen" />
		<tag k="natural" v="stone" />
		<tag k="ssr:stedsnr" v="583892" />
	</node>
	<node lat="58.4523583323572" lon="7.268297230714549" id="-26806">
		<tag k="name" v="Dyblemyr" />
		<tag k="natural" v="wetland" />
		<tag k="ssr:stedsnr" v="703163" />
	</node>
	<node lat="58.45405555501299" lon="7.269355555815148" id="-26807">
		<tag k="name" v="Kringlemyr" />
		<tag k="natural" v="wetland" />
		<tag k="ssr:stedsnr" v="703166" />
	</node>
	<node lat="58.47300555277145" lon="7.177238889964344" id="-26808">
		<tag k="name" v="Kartemyr" />
		<tag k="natural" v="wetland" />
		<tag k="ssr:stedsnr" v="703155" />
	</node>
	<node lat="58.45308055530189" lon="7.205586103516042" id="-26839">
		<tag k="name" v="Raptebrokkmyra" />
=======
	<node id="-577276" lat="58.3951055586" lon="7.28495555034">
		<tag k="name" v="Slåttemyr" />
		<tag k="place" v="locality" />
		<tag k="ssr:stedsnr" v="98465" />
	</node>
	<node id="-578296" lat="58.3469638893" lon="7.26970556355">
		<tag k="name" v="Dugan" />
		<tag k="place" v="locality" />
		<tag k="ssr:stedsnr" v="947747" />
	</node>
	<node id="-578293" lat="58.3122305578" lon="7.25994999436">
		<tag k="name" v="Rademyr" />
>>>>>>> e1d4bc35ff8a6074a6f2e91616a996b547c36f15
		<tag k="natural" v="wetland" />
		<tag k="ssr:stedsnr" v="704015" />
	</node>
	<node lat="58.392474997759706" lon="7.280849993867453" id="-26860">
		<tag k="name" v="Bjennsteinen" />
		<tag k="natural" v="stone" />
		<tag k="ssr:stedsnr" v="704408" />
	</node>
<<<<<<< HEAD
	<node lat="58.56964166906016" lon="7.230594437490767" id="-26882">
		<tag k="name" v="Laurdagslåtta" />
		<tag k="natural" v="wetland" />
		<tag k="ssr:stedsnr" v="704831" />
	</node>
	<node lat="58.33200000217166" lon="7.1476027721083515" id="-26894">
		<tag k="name" v="Kroken" />
		<tag k="natural" v="wetland" />
		<tag k="ssr:stedsnr" v="705040" />
	</node>
	<node lat="58.3132722216777" lon="7.2641638815312755" id="-26899">
		<tag k="name" v="Sjueslåtta" />
		<tag k="natural" v="wetland" />
		<tag k="ssr:stedsnr" v="704989" />
	</node>
	<node lat="58.511083336897904" lon="7.359027771937063" id="-26913">
		<tag k="name" v="Sæsåsmyra" />
		<tag k="natural" v="wetland" />
		<tag k="ssr:stedsnr" v="642794" />
	</node>
	<node lat="58.39940833346682" lon="7.194277784130704" id="-26915">
		<tag k="name" v="Storeflot" />
		<tag k="natural" v="wetland" />
		<tag k="ssr:stedsnr" v="643007" />
	</node>
	<node lat="58.34230833265265" lon="7.146469450601136" id="-26918">
		<tag k="name" v="Grotjødnmyran" />
=======
	<node id="-578287" lat="58.6182222246" lon="7.12642222237">
		<tag k="name" v="Bjødnehommyra" />
		<tag k="natural" v="wetland" />
		<tag k="ssr:stedsnr" v="947719" />
	</node>
	<node id="-578282" lat="58.5577305517" lon="7.14111945224">
		<tag k="name" v="Springsmyr" />
>>>>>>> e1d4bc35ff8a6074a6f2e91616a996b547c36f15
		<tag k="natural" v="wetland" />
		<tag k="ssr:stedsnr" v="643209" />
	</node>
<<<<<<< HEAD
	<node lat="58.397827781091245" lon="7.260672217688017" id="-26927">
		<tag k="name" v="Hommeklandsmyra" />
=======
	<node id="-578280" lat="58.5751583302" lon="7.1473138886">
		<tag k="name" v="Myran" />
>>>>>>> e1d4bc35ff8a6074a6f2e91616a996b547c36f15
		<tag k="natural" v="wetland" />
		<tag k="ssr:stedsnr" v="643427" />
	</node>
<<<<<<< HEAD
	<node lat="58.54996944153638" lon="7.191222227990199" id="-26936">
		<tag k="name" v="Springarstean" />
=======
	<node id="-577255" lat="58.4534305545" lon="7.13665277707">
		<tag k="name" v="Vareslåtta" />
>>>>>>> e1d4bc35ff8a6074a6f2e91616a996b547c36f15
		<tag k="natural" v="wetland" />
		<tag k="ssr:stedsnr" v="643386" />
	</node>
<<<<<<< HEAD
	<node lat="58.324927777016164" lon="7.232033329327717" id="-26946">
		<tag k="name" v="Stemstean" />
		<tag k="natural" v="wetland" />
		<tag k="ssr:stedsnr" v="643823" />
	</node>
	<node lat="58.356194442200035" lon="7.286255560583299" id="-26947">
		<tag k="name" v="Aslaksmyr" />
		<tag k="natural" v="wetland" />
		<tag k="ssr:stedsnr" v="643873" />
	</node>
	<node lat="58.32066666726281" lon="7.273077774102946" id="-26948">
		<tag k="name" v="Vestre Sunde" />
		<tag k="place" v="locality" />
		<tag k="ssr:stedsnr" v="643881" />
	</node>
	<node lat="58.32641944222628" lon="7.250299999297192" id="-26949">
		<tag k="name" v="Sandmyrå" />
		<tag k="natural" v="wetland" />
		<tag k="ssr:stedsnr" v="643883" />
	</node>
	<node lat="58.50941111288292" lon="7.37108611539521" id="-26980">
		<tag k="name" v="Nedre Sæsåsmyra" />
		<tag k="natural" v="wetland" />
		<tag k="ssr:stedsnr" v="703825" />
	</node>
	<node lat="58.33720833340909" lon="7.211052781291667" id="-26982">
		<tag k="name" v="Snartemomyra" />
		<tag k="natural" v="wetland" />
		<tag k="ssr:stedsnr" v="704005" />
	</node>
	<node lat="58.39602778195622" lon="7.20793333070489" id="-26986">
		<tag k="name" v="Klunglands torvmyr" />
		<tag k="natural" v="wetland" />
		<tag k="ssr:stedsnr" v="704204" />
	</node>
	<node lat="58.48367777418782" lon="7.211730555787757" id="-26988">
		<tag k="name" v="Blautkjerran" />
		<tag k="natural" v="wetland" />
		<tag k="ssr:stedsnr" v="704212" />
	</node>
	<node lat="58.41213055908895" lon="7.22040277321083" id="-26995">
		<tag k="name" v="Einfasura" />
		<tag k="natural" v="scree" />
		<tag k="ssr:stedsnr" v="704365" />
	</node>
	<node lat="58.31125277586466" lon="7.142136107597635" id="-27012">
		<tag k="name" v="Myran" />
		<tag k="natural" v="wetland" />
		<tag k="ssr:stedsnr" v="705126" />
	</node>
	<node lat="58.332819442073486" lon="7.282799992680063" id="-27013">
		<tag k="name" v="Austre-slåtan" />
		<tag k="natural" v="wetland" />
		<tag k="ssr:stedsnr" v="705908" />
	</node>
	<node lat="58.39528333716413" lon="7.130391672859468" id="-27033">
		<tag k="name" v="Store Myran" />
		<tag k="natural" v="wetland" />
		<tag k="ssr:stedsnr" v="763051" />
	</node>
	<node lat="58.5040972192458" lon="7.2505083338302745" id="-27034">
		<tag k="name" v="Skorsmyr" />
		<tag k="natural" v="wetland" />
		<tag k="ssr:stedsnr" v="764010" />
	</node>
	<node lat="58.38251666834421" lon="7.264477769352391" id="-27045">
		<tag k="name" v="Høgevodden" />
		<tag k="place" v="locality" />
		<tag k="ssr:stedsnr" v="764646" />
	</node>
	<node lat="58.44908611364312" lon="7.211466670605628" id="-27050">
		<tag k="name" v="Osuskjerret" />
		<tag k="natural" v="wetland" />
		<tag k="ssr:stedsnr" v="765008" />
	</node>
	<node lat="58.46229444276898" lon="7.173025008343953" id="-27052">
		<tag k="name" v="Myran" />
		<tag k="natural" v="wetland" />
		<tag k="ssr:stedsnr" v="765045" />
	</node>
	<node lat="58.54806111425205" lon="7.10430555682179" id="-27060">
		<tag k="name" v="Kaustadmyra" />
		<tag k="natural" v="wetland" />
		<tag k="ssr:stedsnr" v="765405" />
	</node>
	<node lat="58.46910277671016" lon="7.177627784047936" id="-27064">
		<tag k="name" v="Rolimyr" />
		<tag k="natural" v="wetland" />
		<tag k="ssr:stedsnr" v="765200" />
	</node>
	<node lat="58.43051666533991" lon="7.248088886169925" id="-27065">
		<tag k="name" v="Dyblemyr" />
		<tag k="natural" v="wetland" />
		<tag k="ssr:stedsnr" v="765303" />
	</node>
	<node lat="58.55158611486687" lon="7.21226667348341" id="-27069">
		<tag k="name" v="Stislåtten" />
		<tag k="natural" v="wetland" />
		<tag k="ssr:stedsnr" v="765366" />
	</node>
	<node lat="58.54516666501677" lon="7.201200003576713" id="-27073">
		<tag k="name" v="Trollselmyran" />
		<tag k="natural" v="wetland" />
		<tag k="ssr:stedsnr" v="765394" />
	</node>
	<node lat="58.60543333165682" lon="7.0942027775056475" id="-27076">
		<tag k="name" v="Haukhommyra" />
		<tag k="natural" v="wetland" />
		<tag k="ssr:stedsnr" v="765730" />
	</node>
	<node lat="58.53551666708445" lon="7.255980547878903" id="-27100">
		<tag k="alt_name" v="Berkjestølmyran" />
		<tag k="name" v="Berkjestømyran" />
		<tag k="natural" v="wetland" />
		<tag k="ssr:stedsnr" v="910106" />
	</node>
	<node lat="58.463569442498404" lon="7.313022221212024" id="-27140">
		<tag k="name" v="Kvernhusmyr" />
		<tag k="natural" v="wetland" />
		<tag k="ssr:stedsnr" v="825122" />
	</node>
	<node lat="58.51185277723733" lon="7.2332888822377255" id="-27141">
		<tag k="name" v="Blautamyr" />
		<tag k="natural" v="wetland" />
		<tag k="ssr:stedsnr" v="825003" />
	</node>
	<node lat="58.48648610987527" lon="7.175611118886876" id="-27143">
		<tag k="name" v="Flotmyr" />
		<tag k="natural" v="wetland" />
		<tag k="ssr:stedsnr" v="825084" />
	</node>
	<node lat="58.50126944564892" lon="7.167744444925735" id="-27147">
		<tag k="name" v="Stimyr" />
		<tag k="natural" v="wetland" />
		<tag k="ssr:stedsnr" v="825271" />
	</node>
	<node lat="58.34368055566031" lon="7.307527782397167" id="-27160">
		<tag k="name" v="Djubemyr" />
		<tag k="natural" v="wetland" />
		<tag k="ssr:stedsnr" v="825777" />
	</node>
	<node lat="58.48495833270247" lon="7.25471110883793" id="-27168">
		<tag k="name" v="Tjandyblan" />
		<tag k="natural" v="wetland" />
		<tag k="ssr:stedsnr" v="826086" />
	</node>
	<node lat="58.62899722369472" lon="7.146722224397174" id="-27177">
		<tag k="name" v="Bjødnhommyra" />
		<tag k="natural" v="wetland" />
		<tag k="ssr:stedsnr" v="826718" />
	</node>
	<node lat="58.33933888621422" lon="7.29838888961648" id="-27185">
		<tag k="name" v="Røynesdalskogen" />
		<tag k="place" v="locality" />
		<tag k="ssr:stedsnr" v="826883" />
	</node>
	<node lat="58.55305456965191" lon="7.089589172639486" id="-27200">
		<tag k="historic" v="shieling" />
		<tag k="name" v="Farhommen" />
		<tag k="place" v="locality" />
		<tag k="ssr:stedsnr" v="850403" />
	</node>
	<node lat="58.43912778226177" lon="7.3018833351407375" id="-27209">
		<tag k="name" v="Djupamyr" />
		<tag k="natural" v="wetland" />
		<tag k="ssr:stedsnr" v="885255" />
	</node>
	<node lat="58.38364166563813" lon="7.275038885392434" id="-27211">
		<tag k="name" v="Hakegrå" />
		<tag k="place" v="locality" />
		<tag k="ssr:stedsnr" v="885619" />
	</node>
	<node lat="58.37879444712362" lon="7.224580553845408" id="-27268">
		<tag k="name" v="Heslevodden" />
		<tag k="place" v="locality" />
		<tag k="ssr:stedsnr" v="946709" />
	</node>
	<node lat="58.531516670769946" lon="7.224227778169709" id="-27271">
		<tag k="name" v="Indre Holeslåtta" />
		<tag k="natural" v="wetland" />
		<tag k="ssr:stedsnr" v="946787" />
	</node>
	<node lat="58.52720833024778" lon="7.2216250011186665" id="-27272">
		<tag k="name" v="Heimre Holeslåtta" />
		<tag k="natural" v="wetland" />
		<tag k="ssr:stedsnr" v="946790" />
	</node>
	<node lat="58.47655833679145" lon="7.328891661881461" id="-27277">
		<tag k="name" v="Krintemyr" />
		<tag k="natural" v="wetland" />
		<tag k="ssr:stedsnr" v="947046" />
	</node>
	<node lat="58.397822218387084" lon="7.2528916600487126" id="-27281">
		<tag k="name" v="Gysteinen" />
		<tag k="natural" v="stone" />
		<tag k="ssr:stedsnr" v="947429" />
	</node>
	<node lat="58.40391110897046" lon="7.270313887842943" id="-27282">
		<tag k="name" v="Snoremyr" />
		<tag k="natural" v="wetland" />
		<tag k="ssr:stedsnr" v="947430" />
	</node>
	<node lat="58.55773055169193" lon="7.141119452235241" id="-27295">
		<tag k="name" v="Springsmyr" />
		<tag k="natural" v="wetland" />
		<tag k="ssr:stedsnr" v="947533" />
	</node>
	<node lat="58.31223055778251" lon="7.259949994360825" id="-27308">
		<tag k="name" v="Rademyr" />
		<tag k="natural" v="wetland" />
		<tag k="ssr:stedsnr" v="947987" />
	</node>
	<node lat="58.56909444655605" lon="7.11998332638032" id="-27339">
=======
	<node id="-577233" lat="58.4711388927" lon="7.31952500394">
		<tag k="name" v="Vedremyr" />
		<tag k="natural" v="wetland" />
		<tag k="ssr:stedsnr" v="96066" />
	</node>
	<node id="-577248" lat="58.467588889" lon="7.31279444753">
		<tag k="name" v="Hestålmyr" />
		<tag k="natural" v="wetland" />
		<tag k="ssr:stedsnr" v="97170" />
	</node>
	<node id="-578263" lat="58.4159722204" lon="7.26852777432">
		<tag k="name" v="Eknesmyra" />
		<tag k="natural" v="wetland" />
		<tag k="ssr:stedsnr" v="947376" />
	</node>
	<node id="-577235" lat="58.4748305601" lon="7.31523056334">
		<tag k="name" v="Stedjan" />
		<tag k="natural" v="wetland" />
		<tag k="ssr:stedsnr" v="96074" />
	</node>
	<node id="-577234" lat="58.4743527795" lon="7.33039722617">
		<tag k="name" v="Flisemyran" />
		<tag k="natural" v="wetland" />
		<tag k="ssr:stedsnr" v="96068" />
	</node>
	<node id="-578257" lat="58.403911109" lon="7.27031388784">
		<tag k="name" v="Snoremyr" />
		<tag k="natural" v="wetland" />
		<tag k="ssr:stedsnr" v="947430" />
	</node>
	<node id="-578256" lat="58.3978222184" lon="7.25289166005">
		<tag k="name" v="Gysteinen" />
		<tag k="natural" v="stone" />
		<tag k="ssr:stedsnr" v="947429" />
	</node>
	<node id="-577741" lat="58.4546583341" lon="7.36161667158">
		<tag k="name" v="Hesselimyr" />
		<tag k="natural" v="wetland" />
		<tag k="ssr:stedsnr" v="401153" />
	</node>
	<node id="-577734" lat="58.4580416664" lon="7.17465555521">
		<tag k="name" v="Hunskansmyran" />
		<tag k="natural" v="wetland" />
		<tag k="ssr:stedsnr" v="400031" />
	</node>
	<node id="-578245" lat="58.4526277789" lon="7.31009999332">
		<tag k="name" v="Langemyr" />
		<tag k="natural" v="wetland" />
		<tag k="ssr:stedsnr" v="947149" />
	</node>
	<node id="-577730" lat="58.5088388869" lon="7.21964443686">
		<tag k="name" v="Torjeslåtta" />
		<tag k="natural" v="wetland" />
		<tag k="ssr:stedsnr" v="400008" />
	</node>
	<node id="-578239" lat="58.4765583368" lon="7.32889166188">
		<tag k="name" v="Krintemyr" />
		<tag k="natural" v="wetland" />
		<tag k="ssr:stedsnr" v="947046" />
	</node>
	<node id="-578234" lat="58.3835972216" lon="7.26061388802">
		<tag k="name" v="Øvrajordet" />
		<tag k="place" v="locality" />
		<tag k="ssr:stedsnr" v="946614" />
	</node>
	<node id="-578233" lat="58.3834444483" lon="7.27714999329">
		<tag k="name" v="Dukan" />
		<tag k="place" v="locality" />
		<tag k="ssr:stedsnr" v="946607" />
	</node>
	<node id="-577200" lat="58.5403694405" lon="7.26260833246">
		<tag k="name" v="Berkjestø" />
		<tag k="natural" v="wetland" />
		<tag k="ssr:stedsnr" v="37869" />
	</node>
	<node id="-578222" lat="58.506975001" lon="7.2170944526">
		<tag k="name" v="Myrtjødntuftan" />
		<tag k="natural" v="wetland" />
		<tag k="ssr:stedsnr" v="946273" />
	</node>
	<node id="-577309" lat="58.4522277791" lon="7.17726111449">
		<tag k="name" v="Torkelsmyr" />
		<tag k="natural" v="wetland" />
		<tag k="ssr:stedsnr" v="279045" />
	</node>
	<node id="-578220" lat="58.5249166688" lon="7.20961945109">
		<tag k="name" v="Torsmyr" />
		<tag k="natural" v="wetland" />
		<tag k="ssr:stedsnr" v="946233" />
	</node>
	<node id="-577194" lat="58.5566694472" lon="7.07898055244">
		<tag k="name" v="Heddestølen" />
		<tag k="natural" v="wetland" />
		<tag k="ssr:stedsnr" v="37623" />
	</node>
	<node id="-577479" lat="58.4955722222" lon="7.25095555931">
		<tag k="name" v="Gåvemyra" />
		<tag k="natural" v="wetland" />
		<tag k="ssr:stedsnr" v="218916" />
	</node>
	<node id="-577192" lat="58.3925999981" lon="7.28703610523">
		<tag k="name" v="Dikemyr" />
		<tag k="natural" v="wetland" />
		<tag k="ssr:stedsnr" v="37468" />
	</node>
	<node id="-577175" lat="58.3047916692" lon="7.15005555413">
		<tag k="name" v="Nylendmyra" />
		<tag k="natural" v="wetland" />
		<tag k="ssr:stedsnr" v="37121" />
	</node>
	<node id="-578198" lat="58.5272083302" lon="7.22162500112">
		<tag k="name" v="Heimre Holeslåtta" />
		<tag k="natural" v="wetland" />
		<tag k="ssr:stedsnr" v="946790" />
	</node>
	<node id="-578197" lat="58.5315166708" lon="7.22422777817">
		<tag k="name" v="Indre Holeslåtta" />
		<tag k="natural" v="wetland" />
		<tag k="ssr:stedsnr" v="946787" />
	</node>
	<node id="-577684" lat="58.6117777749" lon="7.10791666175">
		<tag k="name" v="Finstedalsmyran" />
		<tag k="natural" v="wetland" />
		<tag k="ssr:stedsnr" v="462737" />
	</node>
	<node id="-577161" lat="58.3479250033" lon="7.29359999594">
		<tag k="name" v="Logevodden" />
		<tag k="place" v="locality" />
		<tag k="ssr:stedsnr" v="36821" />
	</node>
	<node id="-577672" lat="58.365649997" lon="7.25653889222">
		<tag k="name" v="Grøna støe" />
		<tag k="natural" v="wetland" />
		<tag k="ssr:stedsnr" v="462553" />
	</node>
	<node id="-577669" lat="58.5260027794" lon="7.07858611253">
		<tag k="name" v="Bjørneskjeggmyra" />
		<tag k="natural" v="wetland" />
		<tag k="ssr:stedsnr" v="462506" />
	</node>
	<node id="-578178" lat="58.5118527772" lon="7.23328888224">
		<tag k="name" v="Blautamyr" />
		<tag k="natural" v="wetland" />
		<tag k="ssr:stedsnr" v="825003" />
	</node>
	<node id="-578177" lat="58.4635694425" lon="7.31302222121">
		<tag k="name" v="Kvernhusmyr" />
		<tag k="natural" v="wetland" />
		<tag k="ssr:stedsnr" v="825122" />
	</node>
	<node id="-577139" lat="58.6144416712" lon="7.13422222545">
		<tag k="name" v="Kyrkjesteinen" />
		<tag k="natural" v="stone" />
		<tag k="ssr:stedsnr" v="219764" />
	</node>
	<node id="-577649" lat="58.3118055589" lon="7.16859722978">
		<tag k="name" v="Viemyr" />
		<tag k="natural" v="wetland" />
		<tag k="ssr:stedsnr" v="462090" />
	</node>
	<node id="-577644" lat="58.3126805511" lon="7.25522777725">
		<tag k="name" v="Heiemyr" />
		<tag k="natural" v="wetland" />
		<tag k="ssr:stedsnr" v="461992" />
	</node>
	<node id="-578155" lat="58.3537277803" lon="7.21884723045">
		<tag k="name" v="Hestehagen" />
		<tag k="place" v="locality" />
		<tag k="ssr:stedsnr" v="765816" />
	</node>
	<node id="-577642" lat="58.3498166651" lon="7.16702500302">
		<tag k="name" v="Dyblemyran" />
		<tag k="natural" v="wetland" />
		<tag k="ssr:stedsnr" v="461964" />
	</node>
	<node id="-577639" lat="58.5151777756" lon="7.26990000193">
		<tag k="name" v="Fosseslåtten" />
		<tag k="natural" v="wetland" />
		<tag k="ssr:stedsnr" v="461822" />
	</node>
	<node id="-577638" lat="58.3415861149" lon="7.29055278574">
		<tag k="name" v="Skiljemyr" />
		<tag k="natural" v="wetland" />
		<tag k="ssr:stedsnr" v="461808" />
	</node>
	<node id="-577637" lat="58.5045166688" lon="7.31909445061">
		<tag k="name" v="Småstean" />
		<tag k="natural" v="wetland" />
		<tag k="ssr:stedsnr" v="461774" />
	</node>
	<node id="-577450" lat="58.3084805522" lon="7.25826110492">
		<tag k="name" v="Viemyra" />
		<tag k="natural" v="wetland" />
		<tag k="ssr:stedsnr" v="280986" />
	</node>
	<node id="-577635" lat="58.5075500009" lon="7.35074166567">
		<tag k="name" v="Takkmyran" />
		<tag k="natural" v="wetland" />
		<tag k="ssr:stedsnr" v="461765" />
	</node>
	<node id="-577634" lat="58.3822722184" lon="7.27344167456">
		<tag k="name" v="Langamyr" />
		<tag k="natural" v="wetland" />
		<tag k="ssr:stedsnr" v="461683" />
	</node>
	<node id="-578145" lat="58.4063361086" lon="7.27552221536">
		<tag k="name" v="Slåttestedjan" />
		<tag k="natural" v="wetland" />
		<tag k="ssr:stedsnr" v="765352" />
	</node>
	<node id="-577632" lat="58.3750611068" lon="7.28471110944">
		<tag k="name" v="Possmyre" />
		<tag k="natural" v="wetland" />
		<tag k="ssr:stedsnr" v="461674" />
	</node>
	<node id="-577040" lat="58.5690944466" lon="7.11998332638">
>>>>>>> e1d4bc35ff8a6074a6f2e91616a996b547c36f15
		<tag k="alt_name" v="Storamyra" />
		<tag k="name" v="Storemyr" />
		<tag k="natural" v="wetland" />
		<tag k="ssr:stedsnr" v="388" />
	</node>
<<<<<<< HEAD
	<node lat="58.50968611316846" lon="7.101013888883729" id="-27362">
		<tag k="name" v="Langaslåtta" />
		<tag k="natural" v="wetland" />
		<tag k="ssr:stedsnr" v="36225" />
	</node>
	<node lat="58.40955277839985" lon="7.174005563446403" id="-27367">
		<tag k="name" v="Eriksmyr" />
		<tag k="natural" v="wetland" />
		<tag k="ssr:stedsnr" v="36078" />
	</node>
	<node lat="58.29845555641959" lon="7.206088891952543" id="-27371">
		<tag k="name" v="Gysura" />
		<tag k="natural" v="scree" />
		<tag k="ssr:stedsnr" v="37092" />
	</node>
	<node lat="58.532052779730506" lon="7.213974998109455" id="-27372">
		<tag k="name" v="Steinstjødnmyran" />
		<tag k="natural" v="wetland" />
		<tag k="ssr:stedsnr" v="36246" />
	</node>
	<node lat="58.492408336139256" lon="7.126583326034139" id="-27374">
		<tag k="name" v="Krobekkmyr" />
		<tag k="natural" v="wetland" />
		<tag k="ssr:stedsnr" v="36328" />
	</node>
	<node lat="58.425944442552236" lon="7.154688892579178" id="-27375">
		<tag k="name" v="Heddanslåttan" />
		<tag k="natural" v="wetland" />
		<tag k="ssr:stedsnr" v="36354" />
	</node>
	<node lat="58.528752774802456" lon="7.222586109661364" id="-27378">
		<tag k="name" v="Søvrinslåtta" />
		<tag k="natural" v="wetland" />
		<tag k="ssr:stedsnr" v="36795" />
	</node>
	<node lat="58.504955554891566" lon="7.364266670656227" id="-27382">
		<tag k="name" v="Revemyran" />
		<tag k="natural" v="wetland" />
		<tag k="ssr:stedsnr" v="36820" />
	</node>
	<node lat="58.34792500328302" lon="7.293599995939783" id="-27383">
		<tag k="name" v="Logevodden" />
		<tag k="place" v="locality" />
		<tag k="ssr:stedsnr" v="36821" />
	</node>
	<node lat="58.29328055411399" lon="7.151322215026808" id="-27387">
		<tag k="name" v="Ytre Lisleslåtta" />
		<tag k="natural" v="wetland" />
		<tag k="ssr:stedsnr" v="37426" />
	</node>
	<node lat="58.28927778026813" lon="7.136038896726347" id="-27389">
		<tag k="name" v="Dyblemyr" />
		<tag k="natural" v="wetland" />
		<tag k="ssr:stedsnr" v="37442" />
	</node>
	<node lat="58.28902221864778" lon="7.150438886837916" id="-27390">
		<tag k="name" v="Trebuslåtta" />
		<tag k="natural" v="wetland" />
		<tag k="ssr:stedsnr" v="37444" />
	</node>
	<node lat="58.30479166920117" lon="7.150055554134972" id="-27396">
		<tag k="name" v="Nylendmyra" />
		<tag k="natural" v="wetland" />
		<tag k="ssr:stedsnr" v="37121" />
	</node>
	<node lat="58.39259999812546" lon="7.287036105225969" id="-27416">
		<tag k="name" v="Dikemyr" />
		<tag k="natural" v="wetland" />
		<tag k="ssr:stedsnr" v="37468" />
	</node>
	<node lat="58.54036944051354" lon="7.262608332455602" id="-27424">
		<tag k="name" v="Berkjestø" />
		<tag k="natural" v="wetland" />
		<tag k="ssr:stedsnr" v="37869" />
	</node>
	<node lat="58.55666944724244" lon="7.078980552439936" id="-27432">
		<tag k="name" v="Heddestølen" />
		<tag k="natural" v="wetland" />
		<tag k="ssr:stedsnr" v="37623" />
	</node>
	<node lat="58.324405558438635" lon="7.224983328634517" id="-27445">
		<tag k="name" v="Saurmyr" />
		<tag k="natural" v="wetland" />
		<tag k="ssr:stedsnr" v="37850" />
	</node>
	<node lat="58.5546722261096" lon="7.099502773838437" id="-27471">
		<tag k="name" v="Samloghomman" />
		<tag k="natural" v="wetland" />
		<tag k="ssr:stedsnr" v="97598" />
	</node>
	<node lat="58.47937500392868" lon="7.15891110856675" id="-27477">
		<tag k="name" v="Knipeslåtta" />
		<tag k="natural" v="wetland" />
		<tag k="ssr:stedsnr" v="97135" />
	</node>
	<node lat="58.500513893096645" lon="7.145988890097069" id="-27484">
		<tag k="name" v="Dukan" />
		<tag k="place" v="locality" />
		<tag k="ssr:stedsnr" v="97251" />
=======
	<node id="-578142" lat="58.4305166653" lon="7.24808888617">
		<tag k="name" v="Dyblemyr" />
		<tag k="natural" v="wetland" />
		<tag k="ssr:stedsnr" v="765303" />
	</node>
	<node id="-577629" lat="58.521547225" lon="7.13366666808">
		<tag k="name" v="Mikarfossmyra" />
		<tag k="natural" v="wetland" />
		<tag k="ssr:stedsnr" v="461465" />
	</node>
	<node id="-577109" lat="58.3861750024" lon="7.16772500079">
		<tag k="name" v="Heimre Torvemyr" />
		<tag k="natural" v="wetland" />
		<tag k="ssr:stedsnr" v="219228" />
	</node>
	<node id="-577805" lat="58.4730055528" lon="7.17723888996">
		<tag k="name" v="Kartemyr" />
		<tag k="natural" v="wetland" />
		<tag k="ssr:stedsnr" v="703155" />
	</node>
	<node id="-577096" lat="58.3969861121" lon="7.2246833359">
		<tag k="name" v="Skeiægra" />
		<tag k="place" v="locality" />
		<tag k="ssr:stedsnr" v="219448" />
	</node>
	<node id="-577125" lat="58.3815083296" lon="7.30149999639">
		<tag k="name" v="Dalemyr" />
		<tag k="natural" v="wetland" />
		<tag k="ssr:stedsnr" v="219566" />
	</node>
	<node id="-577601" lat="58.4548861136" lon="7.23839444824">
		<tag k="name" v="Gjenglemyr" />
		<tag k="natural" v="wetland" />
		<tag k="ssr:stedsnr" v="461207" />
	</node>
	<node id="-577087" lat="58.4552500006" lon="7.19990278018">
		<tag k="name" v="Hestarsmyr" />
		<tag k="natural" v="wetland" />
		<tag k="ssr:stedsnr" v="219042" />
	</node>
	<node id="-577598" lat="58.464452779" lon="7.2591555479">
		<tag k="name" v="Stømyr" />
		<tag k="natural" v="wetland" />
		<tag k="ssr:stedsnr" v="461196" />
	</node>
	<node id="-578109" lat="58.5355166671" lon="7.25598054788">
		<tag k="alt_name" v="Berkjestølmyran" />
		<tag k="name" v="Berkjestømyran" />
		<tag k="natural" v="wetland" />
		<tag k="ssr:stedsnr" v="910106" />
	</node>
	<node id="-577084" lat="58.5226666622" lon="7.29926943941">
		<tag k="name" v="Soppekjerrmyra" />
		<tag k="natural" v="wetland" />
		<tag k="ssr:stedsnr" v="218895" />
	</node>
	<node id="-577080" lat="58.5094666633" lon="7.35229722783">
		<tag k="name" v="Gjestebodmyran" />
		<tag k="natural" v="wetland" />
		<tag k="old_name" v="Gjstebodmyran" />
		<tag k="ssr:stedsnr" v="218758" />
	</node>
	<node id="-577073" lat="58.5238194437" lon="7.15695833406">
		<tag k="name" v="Heimra Gryttjødn" />
		<tag k="natural" v="wetland" />
		<tag k="ssr:stedsnr" v="218295" />
	</node>
	<node id="-578095" lat="58.4530805553" lon="7.20558610352">
		<tag k="name" v="Raptebrokkmyra" />
		<tag k="natural" v="wetland" />
		<tag k="ssr:stedsnr" v="704015" />
	</node>
	<node id="-577070" lat="58.5309416708" lon="7.20961111093">
		<tag k="name" v="Sandvassmyran" />
		<tag k="natural" v="wetland" />
		<tag k="ssr:stedsnr" v="218282" />
	</node>
	<node id="-577580" lat="58.4877472197" lon="7.32565554871">
		<tag k="name" v="Myrbotnen" />
		<tag k="natural" v="wetland" />
		<tag k="ssr:stedsnr" v="461090" />
	</node>
	<node id="-578091" lat="58.3372083334" lon="7.21105278129">
		<tag k="name" v="Snartemomyra" />
		<tag k="natural" v="wetland" />
		<tag k="ssr:stedsnr" v="704005" />
	</node>
	<node id="-577577" lat="58.447083337" lon="7.21155556053">
		<tag k="name" v="Moltemyr" />
		<tag k="natural" v="wetland" />
		<tag k="ssr:stedsnr" v="461069" />
	</node>
	<node id="-577569" lat="58.4798222259" lon="7.34038055281">
		<tag k="name" v="Juvasmyr" />
		<tag k="natural" v="wetland" />
		<tag k="ssr:stedsnr" v="461035" />
	</node>
	<node id="-577968" lat="58.3263472196" lon="7.25441388602">
		<tag k="name" v="Geiskesteinen" />
		<tag k="natural" v="stone" />
		<tag k="ssr:stedsnr" v="583892" />
	</node>
	<node id="-577054" lat="58.4623583379" lon="7.31187500206">
		<tag k="name" v="Holtan" />
		<tag k="place" v="locality" />
		<tag k="ssr:stedsnr" v="218132" />
	</node>
	<node id="-578074" lat="58.3472027796" lon="7.27148888636">
		<tag k="name" v="Taunågren" />
		<tag k="place" v="locality" />
		<tag k="ssr:stedsnr" v="887761" />
	</node>
	<node id="-578073" lat="58.3467111129" lon="7.27666388258">
		<tag k="name" v="Stedjan" />
		<tag k="natural" v="wetland" />
		<tag k="ssr:stedsnr" v="887759" />
	</node>
	<node id="-577560" lat="58.3737138898" lon="7.28982778602">
		<tag k="name" v="Myre" />
		<tag k="natural" v="wetland" />
		<tag k="ssr:stedsnr" v="280547" />
	</node>
	<node id="-577047" lat="58.4813194416" lon="7.34323333362">
		<tag k="name" v="Gråstadkjerran" />
		<tag k="natural" v="wetland" />
		<tag k="ssr:stedsnr" v="218045" />
	</node>
	<node id="-577555" lat="58.407800003" lon="7.30387499998">
		<tag k="name" v="Holeslåtten" />
		<tag k="natural" v="wetland" />
		<tag k="ssr:stedsnr" v="280323" />
	</node>
	<node id="-577552" lat="58.453022223" lon="7.24176110985">
		<tag k="name" v="Strendan" />
		<tag k="natural" v="wetland" />
		<tag k="ssr:stedsnr" v="279157" />
	</node>
	<node id="-577413" lat="58.394783333" lon="7.25758889395">
		<tag k="name" v="Bjærumsmyra" />
		<tag k="place" v="locality" />
		<tag k="ssr:stedsnr" v="280452" />
	</node>
	<node id="-577543" lat="58.468711115" lon="7.19975556165">
		<tag k="name" v="Bjørnsote" />
		<tag k="place" v="locality" />
		<tag k="ssr:stedsnr" v="279033" />
>>>>>>> e1d4bc35ff8a6074a6f2e91616a996b547c36f15
	</node>
</osm>
