<?xml version="1.0" encoding="UTF-8"?>
<osm version="0.6" generator="osmapis">
	<node lat="58.50319722648939" lon="7.321611105891564" id="-22776">
		<tag k="name" v="Fossbekken" />
		<tag k="ssr:stedsnr" v="61" />
		<tag k="waterway" v="stream" />
	</node>
	<node lat="58.50416110865015" lon="7.240516673438454" id="-22777">
		<tag k="name" v="Storlibekken" />
		<tag k="ssr:stedsnr" v="66" />
		<tag k="waterway" v="stream" />
	</node>
	<node lat="58.45013610885574" lon="7.32355277782691" id="-22781">
		<tag k="alt_name" v="Øygardstjørni" />
		<tag k="name" v="Øygardstjønn" />
		<tag k="natural" v="water" />
		<tag k="ssr:stedsnr" v="364" />
	</node>
	<node lat="58.59768888814212" lon="7.1902249991771825" id="-22784">
		<tag k="alt_name" v="Surtevatnet" />
		<tag k="name" v="Surtevatn" />
		<tag k="natural" v="water" />
		<tag k="ssr:stedsnr" v="464" />
		<tag k="water" v="lake" />
	</node>
	<node lat="58.41394444534818" lon="7.142730559848275" id="-22786">
		<tag k="alt_name" v="Skardtjørn" />
		<tag k="name" v="Skartjødn" />
		<tag k="natural" v="water" />
		<tag k="ssr:stedsnr" v="660" />
	</node>
	<node lat="58.49778889309232" lon="7.247949992629261" id="-22790">
		<tag k="name" v="Gåvastrånda" />
		<tag k="natural" v="beach" />
		<tag k="ssr:stedsnr" v="35910" />
	</node>
	<node lat="58.49634721918628" lon="7.232080556954362" id="-22795">
		<tag k="name" v="Lonen" />
		<tag k="natural" v="water" />
		<tag k="ssr:stedsnr" v="36021" />
		<tag k="water" v="lake" />
	</node>
	<node lat="58.444624996815584" lon="7.12324721791554" id="-22799">
		<tag k="name" v="Fisketjødn" />
		<tag k="natural" v="water" />
		<tag k="ssr:stedsnr" v="36001" />
		<tag k="water" v="lake" />
	</node>
	<node lat="58.3736500037635" lon="7.154000005731356" id="-22806">
		<tag k="name" v="Haltetjødn" />
		<tag k="natural" v="water" />
		<tag k="ssr:stedsnr" v="36160" />
	</node>
	<node lat="58.37383610767704" lon="7.1626027754903525" id="-22808">
		<tag k="name" v="Prestbekk" />
		<tag k="ssr:stedsnr" v="36162" />
		<tag k="waterway" v="stream" />
	</node>
	<node lat="58.46438611019661" lon="7.269833336428992" id="-22810">
		<tag k="name" v="Røyrtjødn" />
		<tag k="natural" v="water" />
		<tag k="ssr:stedsnr" v="36176" />
	</node>
	<node lat="58.49555277727582" lon="7.295066669027849" id="-22826">
		<tag k="name" v="Grunne Verevatnet" />
		<tag k="natural" v="water" />
		<tag k="ssr:stedsnr" v="36759" />
		<tag k="water" v="lake" />
	</node>
	<node lat="58.470747223753015" lon="7.283769439989211" id="-22833">
		<tag k="name" v="Heimre Stongtjødn" />
		<tag k="natural" v="water" />
		<tag k="ssr:stedsnr" v="37103" />
	</node>
	<node lat="58.31288333440971" lon="7.201130554016784" id="-22835">
		<tag k="name" v="Stølsbekken" />
		<tag k="ssr:stedsnr" v="37111" />
		<tag k="waterway" v="stream" />
	</node>
	<node lat="58.49144444309499" lon="7.327841671831935" id="-22837">
		<tag k="name" v="Telhaugtjønn" />
		<tag k="natural" v="water" />
		<tag k="ssr:stedsnr" v="37115" />
	</node>
	<node lat="58.39837778030254" lon="7.308694444541519" id="-22844">
		<tag k="name" v="Fiskebekk" />
		<tag k="ssr:stedsnr" v="37425" />
		<tag k="waterway" v="stream" />
	</node>
	<node lat="58.5818749996643" lon="7.14303611676762" id="-22849">
		<tag k="name" v="Svarte hylen" />
		<tag k="place" v="locality" />
		<tag k="ssr:stedsnr" v="37558" />
	</node>
	<node lat="58.63032777335461" lon="7.134813882906567" id="-22852">
		<tag k="alt_name" v="Malepart bekken" />
		<tag k="name" v="Malepartbekken" />
		<tag k="ssr:stedsnr" v="37714" />
		<tag k="waterway" v="stream" />
	</node>
	<node lat="58.63154444065575" lon="7.1490055488506625" id="-22853">
		<tag k="name" v="Bjødnhomtjødna" />
		<tag k="natural" v="water" />
		<tag k="ssr:stedsnr" v="37722" />
	</node>
	<node lat="58.53715833359009" lon="7.207291660903043" id="-22858">
		<tag k="alt_name" v="Sandvatnet" />
		<tag k="name" v="Sandvatn" />
		<tag k="natural" v="water" />
		<tag k="ssr:stedsnr" v="61096" />
		<tag k="water" v="lake" />
	</node>
	<node lat="58.39941944245337" lon="7.30435278518601" id="-22861">
		<tag k="alt_name" v="Yksnedalsvatnet" />
		<tag k="name" v="Yksendalsvatnet" />
		<tag k="natural" v="water" />
		<tag k="ssr:stedsnr" v="61609" />
	</node>
	<node lat="58.59442500253836" lon="7.216950002458141" id="-22867">
		<tag k="alt_name" v="Svarthomtjørni" />
		<tag k="name" v="Svarthomtjønn" />
		<tag k="natural" v="water" />
		<tag k="ssr:stedsnr" v="61396" />
	</node>
	<node lat="58.50109999743201" lon="7.291805547720675" id="-22870">
		<tag k="alt_name" v="Måketjørni" />
		<tag k="name" v="Måketjødn" />
		<tag k="natural" v="water" />
		<tag k="ssr:stedsnr" v="243052" />
	</node>
	<node lat="58.48270555809293" lon="7.255091663161308" id="-22874">
		<tag k="alt_name" v="Stemtjørn" />
		<tag k="name" v="Stemtjødn" />
		<tag k="natural" v="water" />
		<tag k="ssr:stedsnr" v="243337" />
	</node>
	<node lat="58.458683336941775" lon="7.1117666645366855" id="-22876">
		<tag k="alt_name" v="Gravrosvatnet" />
		<tag k="name" v="Gravrosvatn" />
		<tag k="natural" v="water" />
		<tag k="ssr:stedsnr" v="243347" />
	</node>
	<node lat="58.44911388957186" lon="7.299161116199809" id="-22879">
		<tag k="alt_name" v="Stemtjørni" />
		<tag k="name" v="Stemtjønn" />
		<tag k="natural" v="water" />
		<tag k="ssr:stedsnr" v="243363" />
	</node>
	<node lat="58.45395278175675" lon="7.151091666965368" id="-22880">
		<tag k="alt_name" v="Sesletjørn" />
		<tag k="name" v="Sesletjødn" />
		<tag k="natural" v="water" />
		<tag k="ssr:stedsnr" v="243366" />
	</node>
	<node lat="58.56728610900195" lon="7.202644447765607" id="-22881">
		<tag k="alt_name" v="Hjuringstjørni" />
		<tag k="name" v="Kjurengtjødn" />
		<tag k="natural" v="water" />
		<tag k="ssr:stedsnr" v="243374" />
	</node>
	<node lat="58.56737499952513" lon="7.146144443031912" id="-22882">
		<tag k="alt_name" v="Tjørni" />
		<tag k="name" v="Tjønni" />
		<tag k="natural" v="water" />
		<tag k="ssr:stedsnr" v="243377" />
	</node>
	<node lat="58.56366944214118" lon="7.097474994479221" id="-22884">
		<tag k="name" v="Lyngnefossen" />
		<tag k="natural" v="waterfall" />
		<tag k="ssr:stedsnr" v="243382" />
	</node>
	<node lat="58.57447222242149" lon="7.086416673954225" id="-22889">
		<tag k="name" v="Øyvatnet" />
		<tag k="natural" v="water" />
		<tag k="ssr:stedsnr" v="243431" />
	</node>
	<node lat="58.42324444548012" lon="7.206822216708555" id="-22892">
		<tag k="alt_name" v="Førsvatnet;Førevatnet" />
		<tag k="name" v="Førvatn" />
		<tag k="natural" v="water" />
		<tag k="ssr:stedsnr" v="243669" />
	</node>
	<node lat="58.384035450649954" lon="7.324519992646791" id="-22894">
		<tag k="alt_name" v="Øytjørn" />
		<tag k="name" v="Øytjødn" />
		<tag k="natural" v="water" />
		<tag k="ssr:stedsnr" v="243758" />
	</node>
	<node lat="58.38503610714373" lon="7.125188885242677" id="-22897">
		<tag k="name" v="Sæslitjødn" />
		<tag k="natural" v="water" />
		<tag k="ssr:stedsnr" v="96062" />
	</node>
	<node lat="58.340777778715704" lon="7.12453333094856" id="-22921">
		<tag k="name" v="Lisle Stivletjødn" />
		<tag k="natural" v="water" />
		<tag k="ssr:stedsnr" v="97215" />
	</node>
	<node lat="58.515883337427084" lon="7.209769445953691" id="-22924">
		<tag k="name" v="Kråkeliåna" />
		<tag k="ssr:stedsnr" v="97270" />
		<tag k="waterway" v="river" />
	</node>
	<node lat="58.52541110883355" lon="7.177419449254705" id="-22927">
		<tag k="name" v="Ormetjødn" />
		<tag k="natural" v="water" />
		<tag k="ssr:stedsnr" v="97312" />
	</node>
	<node lat="58.50352778219769" lon="7.350586105709358" id="-22933">
		<tag k="name" v="Håvorstadtjødna" />
		<tag k="natural" v="water" />
		<tag k="ssr:stedsnr" v="97810" />
	</node>
	<node lat="58.518813891018475" lon="7.269011118389377" id="-22934">
		<tag k="name" v="Svøvshylen" />
		<tag k="place" v="locality" />
		<tag k="ssr:stedsnr" v="97827" />
	</node>
	<node lat="58.35675555227745" lon="7.194797227581519" id="-22936">
		<tag k="name" v="Skarsbekken" />
		<tag k="ssr:stedsnr" v="97964" />
		<tag k="waterway" v="stream" />
	</node>
	<node lat="58.55305833115294" lon="7.174900002129713" id="-22940">
		<tag k="name" v="Tronstjødn" />
		<tag k="natural" v="water" />
		<tag k="ssr:stedsnr" v="98410" />
	</node>
	<node lat="58.53763333673426" lon="7.2742666651165235" id="-22956">
		<tag k="name" v="Tjovodden" />
		<tag k="natural" v="cape" />
		<tag k="ssr:stedsnr" v="98861" />
	</node>
	<node lat="58.30325833654744" lon="7.2407388957721865" id="-22962">
		<tag k="name" v="Lonen" />
		<tag k="natural" v="water" />
		<tag k="ssr:stedsnr" v="98980" />
		<tag k="water" v="lake" />
	</node>
	<node lat="58.54894444690683" lon="7.095627783823929" id="-22965">
		<tag k="name" v="Homshylen" />
		<tag k="natural" v="water" />
		<tag k="ssr:stedsnr" v="121403" />
	</node>
	<node lat="58.610913886188705" lon="7.176330559994687" id="-22966">
		<tag k="name" v="Krobudalsvatnet" />
		<tag k="natural" v="water" />
		<tag k="ssr:stedsnr" v="121427" />
	</node>
	<node lat="58.39565000225398" lon="7.141158325400239" id="-22971">
		<tag k="name" v="Lomtjødn" />
		<tag k="natural" v="water" />
		<tag k="ssr:stedsnr" v="156049" />
	</node>
	<node lat="58.414172226122695" lon="7.205977770426628" id="-22973">
		<tag k="name" v="Lagetjødn" />
		<tag k="natural" v="water" />
		<tag k="ssr:stedsnr" v="157059" />
	</node>
	<node lat="58.466569447821854" lon="7.321566665731253" id="-22977">
		<tag k="name" v="Koljebekken" />
		<tag k="ssr:stedsnr" v="157148" />
		<tag k="waterway" v="stream" />
	</node>
	<node lat="58.470641663140334" lon="7.310544451559518" id="-22978">
		<tag k="name" v="Rakktjønn" />
		<tag k="natural" v="water" />
		<tag k="ssr:stedsnr" v="157154" />
	</node>
	<node lat="58.383200003440635" lon="7.271738895255547" id="-22982">
		<tag k="name" v="Lauhylen" />
		<tag k="place" v="locality" />
		<tag k="ssr:stedsnr" v="157618" />
	</node>
	<node lat="58.4970833307532" lon="7.2850527815659225" id="-22985">
		<tag k="name" v="Skuggestø" />
		<tag k="natural" v="bay" />
		<tag k="ssr:stedsnr" v="157897" />
	</node>
	<node lat="58.59220833058622" lon="7.1345861146132465" id="-23008">
		<tag k="name" v="Homevatnkilen" />
		<tag k="natural" v="bay" />
		<tag k="ssr:stedsnr" v="158505" />
	</node>
	<node lat="58.59211111291182" lon="7.242388882749291" id="-23019">
		<tag k="name" v="Vatnan" />
		<tag k="natural" v="water" />
		<tag k="ssr:stedsnr" v="158655" />
		<tag k="water" v="lake" />
	</node>
	<node lat="58.34919721836538" lon="7.143011118745511" id="-23023">
		<tag k="name" v="Vippetjødn" />
		<tag k="natural" v="water" />
		<tag k="ssr:stedsnr" v="158957" />
	</node>
	<node lat="58.60675277901272" lon="7.1250055478234735" id="-23034">
		<tag k="name" v="Vestvatnet" />
		<tag k="natural" v="water" />
		<tag k="ssr:stedsnr" v="182447" />
		<tag k="water" v="lake" />
	</node>
	<node lat="58.32705833038996" lon="7.172966667372969" id="-23036">
		<tag k="alt_name" v="Heptedalsvatnet" />
		<tag k="name" v="Heptestølsvatnet" />
		<tag k="natural" v="water" />
		<tag k="ssr:stedsnr" v="182546" />
		<tag k="water" v="lake" />
	</node>
</osm>
