<?xml version="1.0" encoding="UTF-8"?>
<osm generator="osmapis" version="0.6">
	<node id="-531935" lat="61.5597972197" lon="6.41590832763">
		<tag k="name" v="Hatleneset" />
		<tag k="natural" v="cape" />
		<tag k="ssr:stedsnr" v="32049" />
	</node>
	<node id="-531838" lat="61.5112138853" lon="6.28356665814">
		<tag k="name" v="Sandalsøyane" />
		<tag k="natural" v="cape" />
		<tag k="ssr:stedsnr" v="396161" />
	</node>
	<node id="-532477" lat="61.5113805562" lon="6.28665833316">
		<tag k="name" v="Bjørndalsneset" />
		<tag k="natural" v="cape" />
		<tag k="ssr:stedsnr" v="578179" />
	</node>
	<node id="-532796" lat="61.5319194471" lon="6.535997213">
		<tag k="name" v="Kvannevikneset" />
		<tag k="natural" v="cape" />
		<tag k="ssr:stedsnr" v="821111" />
	</node>
	<node id="-532411" lat="61.5250999993" lon="6.56186666946">
		<tag k="name" v="Elvaneset" />
		<tag k="natural" v="cape" />
		<tag k="ssr:stedsnr" v="518132" />
	</node>
	<node id="-532173" lat="61.5604805597" lon="6.46871111588">
		<tag k="name" v="Kjerringvika" />
		<tag k="natural" v="bay" />
		<tag k="ssr:stedsnr" v="214052" />
	</node>
	<node id="-532532" lat="61.5384055589" lon="6.33949166284">
		<tag k="name" v="Sandneset" />
		<tag k="natural" v="cape" />
		<tag k="ssr:stedsnr" v="638031" />
	</node>
	<node id="-531694" lat="61.5571472196" lon="6.38008332589">
		<tag k="name" v="Langeneset" />
		<tag k="natural" v="cape" />
		<tag k="ssr:stedsnr" v="32010" />
	</node>
	<node id="-532466" lat="61.5313416683" lon="6.57087500397">
		<tag k="name" v="Føreneset" />
		<tag k="natural" v="cape" />
		<tag k="ssr:stedsnr" v="578103" />
	</node>
	<node id="-531952" lat="61.4984361073" lon="6.15759443781">
		<tag k="name" v="Slåtteneset" />
		<tag k="natural" v="cape" />
		<tag k="ssr:stedsnr" v="32140" />
	</node>
	<node id="-532303" lat="61.5593361139" lon="6.46574999367">
		<tag k="name" v="Grunneset" />
		<tag k="natural" v="cape" />
		<tag k="ssr:stedsnr" v="457057" />
	</node>
	<node id="-532398" lat="61.4920361144" lon="6.1230750009">
		<tag k="name" v="Gjesdalsøyane" />
		<tag k="natural" v="cape" />
		<tag k="ssr:stedsnr" v="517156" />
	</node>
	<node id="-532205" lat="61.5416111069" lon="6.53566110779">
		<tag k="name" v="Svovika" />
		<tag k="natural" v="bay" />
		<tag k="ssr:stedsnr" v="214861" />
	</node>
	<node id="-532178" lat="61.5221749979" lon="6.58373611665">
		<tag k="name" v="Nilsneset" />
		<tag k="natural" v="cape" />
		<tag k="ssr:stedsnr" v="214094" />
	</node>
	<node id="-532298" lat="61.5446944438" lon="6.39127222516">
		<tag k="name" v="Uraneset" />
		<tag k="natural" v="cape" />
		<tag k="ssr:stedsnr" v="457029" />
	</node>
	<node id="-531812" lat="61.5378361119" lon="6.37279443549">
		<tag k="name" v="Nyesvorodden" />
		<tag k="natural" v="cape" />
		<tag k="ssr:stedsnr" v="396028" />
	</node>
</osm>
