<?xml version="1.0" encoding="UTF-8"?>
<osm generator="osmapis" version="0.6">
	<node id="-532480" lat="61.5446361106" lon="6.25989444454">
		<tag k="name" v="Bergahaugane" />
		<tag k="natural" v="hill" />
		<tag k="place" v="locality" />
		<tag k="ssr:stedsnr" v="578190" />
	</node>
	<node id="-532479" lat="61.5381277775" lon="6.25193610437">
		<tag k="name" v="Lærdalshaugen" />
		<tag k="natural" v="hill" />
		<tag k="place" v="locality" />
		<tag k="ssr:stedsnr" v="578191" />
	</node>
	<node id="-532478" lat="61.49693333" lon="6.19901944229">
		<tag k="name" v="Brunene" />
		<tag k="place" v="locality" />
		<tag k="ssr:stedsnr" v="578187" />
	</node>
	<node id="-532476" lat="61.5224694406" lon="6.18474721773">
		<tag k="name" v="Småhamrane" />
		<tag k="natural" v="hill" />
		<tag k="place" v="locality" />
		<tag k="ssr:stedsnr" v="578162" />
	</node>
	<node id="-532475" lat="61.5228055513" lon="6.1839638918">
		<tag k="fixme" v="consider natural=peak for the most distinct mountains in the district" />
		<tag k="name" v="Nærefjellet" />
		<tag k="natural" v="hill" />
		<tag k="place" v="locality" />
		<tag k="ssr:stedsnr" v="578158" />
	</node>
	<node id="-532474" lat="61.5104888882" lon="6.14586112022">
		<tag k="name" v="Sætegjerdet" />
		<tag k="place" v="locality" />
		<tag k="ssr:stedsnr" v="578149" />
	</node>
	<node id="-532472" lat="61.4980694481" lon="6.06091111188">
		<tag k="name" v="Halvfarhaugen" />
		<tag k="natural" v="hill" />
		<tag k="place" v="locality" />
		<tag k="ssr:stedsnr" v="578137" />
	</node>
	<node id="-532471" lat="61.4546638883" lon="6.14601388448">
		<tag k="name" v="Bakkekupa" />
		<tag k="natural" v="slope" />
		<tag k="place" v="locality" />
		<tag k="ssr:stedsnr" v="578132" />
	</node>
	<node id="-532469" lat="61.5295722263" lon="6.10355278067">
		<tag k="name" v="Såtehaugen" />
		<tag k="natural" v="hill" />
		<tag k="place" v="locality" />
		<tag k="ssr:stedsnr" v="578121" />
	</node>
	<node id="-532465" lat="61.5318138933" lon="6.59042499642">
		<tag k="name" v="Marikoven" />
		<tag k="natural" v="hill" />
		<tag k="place" v="locality" />
		<tag k="ssr:stedsnr" v="578102" />
	</node>
	<node id="-532463" lat="61.5354222253" lon="6.49246944754">
		<tag k="name" v="Grøane" />
		<tag k="place" v="locality" />
		<tag k="ssr:stedsnr" v="578086" />
	</node>
	<node id="-532462" lat="61.6171805593" lon="6.49899167065">
		<tag k="name" v="Fjellbrunene" />
		<tag k="natural" v="mountain_range" />
		<tag k="ssr:stedsnr" v="578082" />
	</node>
	<node id="-532461" lat="61.5317305549" lon="6.50898332505">
		<tag k="name" v="Skaskora" />
		<tag k="natural" v="valley" />
		<tag k="place" v="locality" />
		<tag k="ssr:stedsnr" v="578061" />
	</node>
	<node id="-532460" lat="61.5976222255" lon="6.31345277284">
		<tag k="name" v="Lægeholten" />
		<tag k="natural" v="hill" />
		<tag k="place" v="locality" />
		<tag k="ssr:stedsnr" v="578045" />
	</node>
	<node id="-532459" lat="61.5506777803" lon="6.351083332">
		<tag k="name" v="Øyrane" />
		<tag k="place" v="locality" />
		<tag k="ssr:stedsnr" v="578031" />
	</node>
	<node id="-532458" lat="61.5670055566" lon="6.3545583357">
		<tag k="name" v="Erikstadskredene" />
		<tag k="natural" v="valley" />
		<tag k="place" v="locality" />
		<tag k="ssr:stedsnr" v="578016" />
	</node>
	<node id="-532457" lat="61.5115777817" lon="6.36717777691">
		<tag k="fixme" v="consider natural=peak for the most distinct mountains in the district" />
		<tag k="name" v="Storeholten" />
		<tag k="natural" v="hill" />
		<tag k="place" v="locality" />
		<tag k="ssr:stedsnr" v="578005" />
	</node>
	<node id="-532456" lat="61.5056944448" lon="6.30344167475">
		<tag k="fixme" v="consider natural=peak for the most distinct mountains in the district" />
		<tag k="name" v="Holten" />
		<tag k="natural" v="hill" />
		<tag k="place" v="locality" />
		<tag k="ssr:stedsnr" v="578001" />
	</node>
	<node id="-532454" lat="61.5981250038" lon="6.38798056057">
		<tag k="name" v="Vasskaret" />
		<tag k="natural" v="valley" />
		<tag k="place" v="locality" />
		<tag k="ssr:stedsnr" v="566621" />
	</node>
	<node id="-532451" lat="61.5791500014" lon="6.20609722919">
		<tag k="name" v="Skåhammarsegga" />
		<tag k="natural" v="ridge" />
		<tag k="place" v="locality" />
		<tag k="ssr:stedsnr" v="566465" />
	</node>
	<node id="-532449" lat="61.6154611097" lon="6.38943611247">
		<tag k="name" v="Myklandsegga" />
		<tag k="natural" v="hill" />
		<tag k="place" v="locality" />
		<tag k="ssr:stedsnr" v="556037" />
	</node>
	<node id="-532447" lat="61.6139055541" lon="6.41630000221">
		<tag k="name" v="Tverrliholten" />
		<tag k="natural" v="hill" />
		<tag k="place" v="locality" />
		<tag k="ssr:stedsnr" v="556030" />
	</node>
	<node id="-532446" lat="61.6030916675" lon="6.25186666525">
		<tag k="fixme" v="consider natural=peak for the most distinct mountains in the district" />
		<tag k="name" v="Litlebottsegga" />
		<tag k="natural" v="hill" />
		<tag k="place" v="locality" />
		<tag k="ssr:stedsnr" v="556027" />
	</node>
	<node id="-532444" lat="61.5778416639" lon="6.27437777749">
		<tag k="fixme" v="consider natural=peak for the most distinct mountains in the district" />
		<tag k="name" v="Høgemannsholten" />
		<tag k="natural" v="hill" />
		<tag k="place" v="locality" />
		<tag k="ssr:stedsnr" v="556004" />
	</node>
	<node id="-532442" lat="61.5522388905" lon="6.49993610612">
		<tag k="fixme" v="consider natural=peak for the most distinct mountains in the district" />
		<tag k="name" v="Kleivafjellet" />
		<tag k="natural" v="hill" />
		<tag k="place" v="locality" />
		<tag k="ssr:stedsnr" v="555973" />
	</node>
	<node id="-532441" lat="61.5521500006" lon="6.49248889083">
		<tag k="fixme" v="consider natural=peak for the most distinct mountains in the district" />
		<tag k="name" v="Litlefjellet" />
		<tag k="natural" v="hill" />
		<tag k="place" v="locality" />
		<tag k="ssr:stedsnr" v="555961" />
	</node>
	<node id="-532434" lat="61.6780805533" lon="6.69054444404">
		<tag k="fixme" v="consider natural=peak for the most distinct mountains in the district" />
		<tag k="name" v="Snønipa" />
		<tag k="natural" v="hill" />
		<tag k="place" v="locality" />
		<tag k="ssr:stedsnr" v="555903" />
	</node>
	<node id="-532432" lat="61.5207861154" lon="6.4578333247">
		<tag k="name" v="Støylsnova" />
		<tag k="natural" v="hill" />
		<tag k="place" v="locality" />
		<tag k="ssr:stedsnr" v="555854" />
	</node>
	<node id="-532430" lat="61.5297583334" lon="6.5153250004">
		<tag k="fixme" v="consider natural=peak for the most distinct mountains in the district" />
		<tag k="name" v="Grovanipa" />
		<tag k="natural" v="hill" />
		<tag k="place" v="locality" />
		<tag k="ssr:stedsnr" v="555851" />
	</node>
	<node id="-532429" lat="61.6401555533" lon="6.68636944711">
		<tag k="name" v="Steinbotnen" />
		<tag k="natural" v="valley" />
		<tag k="place" v="locality" />
		<tag k="ssr:stedsnr" v="555807" />
	</node>
	<node id="-532428" lat="61.6247250036" lon="6.69216388785">
		<tag k="name" v="Haugabotnen" />
		<tag k="natural" v="valley" />
		<tag k="place" v="locality" />
		<tag k="ssr:stedsnr" v="555797" />
	</node>
	<node id="-532426" lat="61.4939499969" lon="6.21269444558">
		<tag k="name" v="Strandsbotnen" />
		<tag k="natural" v="valley" />
		<tag k="place" v="locality" />
		<tag k="ssr:stedsnr" v="554303" />
	</node>
	<node id="-532424" lat="61.452161113" lon="6.04478611525">
		<tag k="fixme" v="consider natural=peak for the most distinct mountains in the district" />
		<tag k="name" v="Halvgjerda" />
		<tag k="natural" v="hill" />
		<tag k="place" v="locality" />
		<tag k="ssr:stedsnr" v="553330" />
	</node>
	<node id="-532422" lat="61.6149194484" lon="6.54981667556">
		<tag k="name" v="Svorene" />
		<tag k="natural" v="hill" />
		<tag k="place" v="locality" />
		<tag k="ssr:stedsnr" v="518843" />
	</node>
	<node id="-532417" lat="61.4602749983" lon="6.02921945021">
		<tag k="name" v="Urahamrane" />
		<tag k="natural" v="hill" />
		<tag k="place" v="locality" />
		<tag k="ssr:stedsnr" v="518366" />
	</node>
	<node id="-532416" lat="61.4679055573" lon="6.2139638864">
		<tag k="name" v="Rishaugane" />
		<tag k="natural" v="hill" />
		<tag k="place" v="locality" />
		<tag k="ssr:stedsnr" v="518196" />
	</node>
	<node id="-532413" lat="61.5083583317" lon="6.02922777172">
		<tag k="name" v="Hjellbrekkbotnen" />
		<tag k="natural" v="valley" />
		<tag k="place" v="locality" />
		<tag k="ssr:stedsnr" v="518144" />
	</node>
	<node id="-532410" lat="61.5035111077" lon="6.01988056206">
		<tag k="name" v="Tynningsletta" />
		<tag k="place" v="locality" />
		<tag k="ssr:stedsnr" v="518133" />
	</node>
	<node id="-532409" lat="61.5282083313" lon="6.54379445071">
		<tag k="name" v="Sjurskorga" />
		<tag k="natural" v="plateau" />
		<tag k="ssr:stedsnr" v="518130" />
	</node>
	<node id="-532408" lat="61.5180750013" lon="6.56930832407">
		<tag k="name" v="Geitasvora" />
		<tag k="natural" v="valley" />
		<tag k="place" v="locality" />
		<tag k="ssr:stedsnr" v="518127" />
	</node>
	<node id="-532407" lat="61.6329555532" lon="6.42802500661">
		<tag k="fixme" v="consider natural=peak for the most distinct mountains in the district" />
		<tag k="name" v="Seljeskrefjellet" />
		<tag k="natural" v="hill" />
		<tag k="place" v="locality" />
		<tag k="ssr:stedsnr" v="518114" />
	</node>
	<node id="-532405" lat="61.5889333296" lon="6.51588332943">
		<tag k="name" v="Stavleiteigane" />
		<tag k="place" v="locality" />
		<tag k="ssr:stedsnr" v="518099" />
	</node>
	<node id="-532404" lat="61.5322249994" lon="6.30694444742">
		<tag k="name" v="Løtufta" />
		<tag k="place" v="locality" />
		<tag k="ssr:stedsnr" v="517218" />
	</node>
	<node id="-532403" lat="61.4993277746" lon="6.20472221382">
		<tag k="name" v="Støylshamrane" />
		<tag k="natural" v="ridge" />
		<tag k="place" v="locality" />
		<tag k="ssr:stedsnr" v="517188" />
	</node>
	<node id="-532401" lat="61.4921416629" lon="6.18572777107">
		<tag k="name" v="Rognebotnen" />
		<tag k="natural" v="valley" />
		<tag k="place" v="locality" />
		<tag k="ssr:stedsnr" v="517182" />
	</node>
	<node id="-532399" lat="61.5003444426" lon="6.10484166507">
		<tag k="name" v="Helgetorsdagssvaet" />
		<tag k="natural" v="ridge" />
		<tag k="place" v="locality" />
		<tag k="ssr:stedsnr" v="517162" />
	</node>
	<node id="-532397" lat="61.5347583342" lon="6.5087666596">
		<tag k="name" v="Middagsteinen" />
		<tag k="place" v="locality" />
		<tag k="ssr:stedsnr" v="517080" />
	</node>
	<node id="-532396" lat="61.6030638922" lon="6.49343333819">
		<tag k="name" v="Furesvedene" />
		<tag k="natural" v="plateau" />
		<tag k="ssr:stedsnr" v="517076" />
	</node>
	<node id="-532395" lat="61.5434055526" lon="6.52388056225">
		<tag k="name" v="Vikane" />
		<tag k="place" v="locality" />
		<tag k="ssr:stedsnr" v="517071" />
	</node>
	<node id="-532394" lat="61.5478805576" lon="6.49354999929">
		<tag k="fixme" v="consider natural=peak for the most distinct mountains in the district" />
		<tag k="name" v="Kleivefjellet" />
		<tag k="natural" v="hill" />
		<tag k="place" v="locality" />
		<tag k="ssr:stedsnr" v="517068" />
	</node>
	<node id="-532393" lat="61.5643222266" lon="6.49326943629">
		<tag k="name" v="Bjørkebakken" />
		<tag k="natural" v="slope" />
		<tag k="place" v="locality" />
		<tag k="ssr:stedsnr" v="517064" />
	</node>
	<node id="-532391" lat="61.5227611084" lon="6.41916945078">
		<tag k="name" v="Flatøyane" />
		<tag k="place" v="locality" />
		<tag k="ssr:stedsnr" v="517051" />
	</node>
	<node id="-532390" lat="61.5784833348" lon="6.32241945026">
		<tag k="name" v="Ospehaugskaret" />
		<tag k="natural" v="valley" />
		<tag k="place" v="locality" />
		<tag k="ssr:stedsnr" v="517042" />
	</node>
	<node id="-532389" lat="61.5718083304" lon="6.40110832895">
		<tag k="name" v="Beitakastet" />
		<tag k="place" v="locality" />
		<tag k="ssr:stedsnr" v="517029" />
	</node>
	<node id="-532388" lat="61.5697166704" lon="6.40094444449">
		<tag k="name" v="Kantelen" />
		<tag k="place" v="locality" />
		<tag k="ssr:stedsnr" v="517028" />
	</node>
	<node id="-532380" lat="61.6101555565" lon="6.45769166682">
		<tag k="name" v="Gamledalen" />
		<tag k="natural" v="valley" />
		<tag k="place" v="locality" />
		<tag k="ssr:stedsnr" v="495032" />
	</node>
	<node id="-532379" lat="61.5965277812" lon="6.47353333182">
		<tag k="fixme" v="consider natural=peak for the most distinct mountains in the district" />
		<tag k="name" v="Håheimsfjellet" />
		<tag k="natural" v="hill" />
		<tag k="place" v="locality" />
		<tag k="ssr:stedsnr" v="495022" />
	</node>
	<node id="-532377" lat="61.5904527753" lon="6.34177500828">
		<tag k="name" v="Kyrabotnen" />
		<tag k="natural" v="valley" />
		<tag k="place" v="locality" />
		<tag k="ssr:stedsnr" v="495015" />
	</node>
	<node id="-532376" lat="61.593086112" lon="6.42440555864">
		<tag k="fixme" v="consider natural=peak for the most distinct mountains in the district" />
		<tag k="name" v="Storefjell" />
		<tag k="natural" v="hill" />
		<tag k="place" v="locality" />
		<tag k="ssr:stedsnr" v="495010" />
	</node>
	<node id="-532375" lat="61.5937972186" lon="6.53040834118">
		<tag k="name" v="Bolsetbotnen" />
		<tag k="natural" v="valley" />
		<tag k="place" v="locality" />
		<tag k="ssr:stedsnr" v="495007" />
	</node>
	<node id="-532368" lat="61.5546999973" lon="6.28557778139">
		<tag k="fixme" v="consider natural=peak for the most distinct mountains in the district" />
		<tag k="name" v="Hegrenesnipa" />
		<tag k="natural" v="hill" />
		<tag k="place" v="locality" />
		<tag k="ssr:stedsnr" v="494978" />
	</node>
	<node id="-532367" lat="61.5673805592" lon="6.42971943875">
		<tag k="name" v="Husnova" />
		<tag k="natural" v="hill" />
		<tag k="place" v="locality" />
		<tag k="ssr:stedsnr" v="494975" />
	</node>
	<node id="-532366" lat="61.575644446" lon="6.51608333824">
		<tag k="name" v="Fossheimsdalen" />
		<tag k="natural" v="valley" />
		<tag k="place" v="locality" />
		<tag k="ssr:stedsnr" v="494967" />
	</node>
	<node id="-532365" lat="61.5602944485" lon="6.23836388657">
		<tag k="name" v="Blåfjellet" />
		<tag k="natural" v="ridge" />
		<tag k="place" v="locality" />
		<tag k="ssr:stedsnr" v="494962" />
	</node>
	<node id="-532364" lat="61.5824111118" lon="6.52577500048">
		<tag k="fixme" v="consider natural=peak for the most distinct mountains in the district" />
		<tag k="name" v="Sørnipa" />
		<tag k="natural" v="hill" />
		<tag k="place" v="locality" />
		<tag k="ssr:stedsnr" v="494944" />
	</node>
	<node id="-532362" lat="61.5132539877" lon="6.58031941844">
		<tag k="name" v="Sygnesandsdalen" />
		<tag k="natural" v="valley" />
		<tag k="place" v="locality" />
		<tag k="ssr:stedsnr" v="494884" />
	</node>
	<node id="-532361" lat="61.5343249982" lon="6.62934444458">
		<tag k="fixme" v="consider natural=peak for the most distinct mountains in the district" />
		<tag k="name" v="Høgerindnipa" />
		<tag k="natural" v="hill" />
		<tag k="place" v="locality" />
		<tag k="ssr:stedsnr" v="494863" />
	</node>
	<node id="-532360" lat="61.5877805576" lon="6.79293055359">
		<tag k="name" v="Litlenyken" />
		<tag k="natural" v="hill" />
		<tag k="place" v="locality" />
		<tag k="ssr:stedsnr" v="494847" />
	</node>
	<node id="-532359" lat="61.5672611089" lon="6.72738055138">
		<tag k="fixme" v="consider natural=peak for the most distinct mountains in the district" />
		<tag k="name" v="Litlenova" />
		<tag k="natural" v="hill" />
		<tag k="place" v="locality" />
		<tag k="ssr:stedsnr" v="494844" />
	</node>
	<node id="-532358" lat="61.5748500003" lon="6.69500555734">
		<tag k="fixme" v="consider natural=peak for the most distinct mountains in the district" />
		<tag k="name" v="Strupen" />
		<tag k="natural" v="hill" />
		<tag k="place" v="locality" />
		<tag k="ssr:stedsnr" v="494838" />
	</node>
	<node id="-532357" lat="61.5651666635" lon="6.63683333559">
		<tag k="name" v="Bjørgjaryggen" />
		<tag k="natural" v="ridge" />
		<tag k="place" v="locality" />
		<tag k="ssr:stedsnr" v="494832" />
	</node>
	<node id="-532354" lat="61.6360611128" lon="6.6643638927">
		<tag k="fixme" v="consider natural=peak for the most distinct mountains in the district" />
		<tag k="name" v="Vardegga" />
		<tag k="natural" v="hill" />
		<tag k="place" v="locality" />
		<tag k="ssr:stedsnr" v="494806" />
	</node>
	<node id="-532353" lat="61.6326875029" lon="6.63011879214">
		<tag k="name" v="Veitebergsdalen" />
		<tag k="natural" v="valley" />
		<tag k="place" v="locality" />
		<tag k="ssr:stedsnr" v="494800" />
	</node>
	<node id="-532351" lat="61.53431111" lon="6.17959167269">
		<tag k="fixme" v="consider natural=peak for the most distinct mountains in the district" />
		<tag k="name" v="Høgefjellet" />
		<tag k="natural" v="hill" />
		<tag k="place" v="locality" />
		<tag k="ssr:stedsnr" v="494143" />
	</node>
	<node id="-532350" lat="61.4670305568" lon="6.29541389602">
		<tag k="fixme" v="consider natural=peak for the most distinct mountains in the district" />
		<tag k="name" v="Brandsegga" />
		<tag k="natural" v="hill" />
		<tag k="place" v="locality" />
		<tag k="ssr:stedsnr" v="493678" />
	</node>
	<node id="-532345" lat="61.4883861151" lon="6.21028054885">
		<tag k="fixme" v="consider natural=peak for the most distinct mountains in the district" />
		<tag k="name" v="Steinegga" />
		<tag k="natural" v="hill" />
		<tag k="place" v="locality" />
		<tag k="ssr:stedsnr" v="493292" />
	</node>
	<node id="-532342" lat="61.4994805553" lon="6.07443332779">
		<tag k="fixme" v="consider natural=peak for the most distinct mountains in the district" />
		<tag k="name" v="Nova" />
		<tag k="natural" v="hill" />
		<tag k="place" v="locality" />
		<tag k="ssr:stedsnr" v="493270" />
	</node>
	<node id="-532337" lat="61.5202999973" lon="6.62839722006">
		<tag k="name" v="Svora" />
		<tag k="place" v="locality" />
		<tag k="ssr:stedsnr" v="457833" />
	</node>
	<node id="-532336" lat="61.5164138885" lon="6.64509167553">
		<tag k="name" v="Skredene" />
		<tag k="place" v="locality" />
		<tag k="ssr:stedsnr" v="457829" />
	</node>
	<node id="-532335" lat="61.4695722256" lon="6.0316861081">
		<tag k="name" v="Hjellhaugen" />
		<tag k="natural" v="hill" />
		<tag k="place" v="locality" />
		<tag k="ssr:stedsnr" v="457817" />
	</node>
	<node id="-532333" lat="61.622794441" lon="6.66476944412">
		<tag k="name" v="Seten" />
		<tag k="place" v="locality" />
		<tag k="ssr:stedsnr" v="457806" />
	</node>
	<node id="-532332" lat="61.6114777771" lon="6.72023054748">
		<tag k="name" v="Vindskeihaugen" />
		<tag k="natural" v="hill" />
		<tag k="place" v="locality" />
		<tag k="ssr:stedsnr" v="457797" />
	</node>
	<node id="-532331" lat="61.5842027812" lon="6.33924444777">
		<tag k="name" v="Engaskorane" />
		<tag k="natural" v="valley" />
		<tag k="place" v="locality" />
		<tag k="ssr:stedsnr" v="457775" />
	</node>
	<node id="-532330" lat="61.6052222215" lon="6.7264527796">
		<tag k="name" v="Blomhola" />
		<tag k="natural" v="valley" />
		<tag k="place" v="locality" />
		<tag k="ssr:stedsnr" v="457773" />
	</node>
	<node id="-532328" lat="61.4523805553" lon="5.99677778702">
		<tag k="name" v="Skatet" />
		<tag k="natural" v="slope" />
		<tag k="place" v="locality" />
		<tag k="ssr:stedsnr" v="457345" />
	</node>
	<node id="-532327" lat="61.4621416704" lon="6.00553888316">
		<tag k="name" v="Høgeberget" />
		<tag k="natural" v="hill" />
		<tag k="place" v="locality" />
		<tag k="ssr:stedsnr" v="457340" />
	</node>
	<node id="-532326" lat="61.4552916651" lon="6.04043611943">
		<tag k="name" v="Skredene" />
		<tag k="natural" v="hill" />
		<tag k="place" v="locality" />
		<tag k="ssr:stedsnr" v="457333" />
	</node>
	<node id="-532325" lat="61.5174527748" lon="6.34125555279">
		<tag k="name" v="Engane" />
		<tag k="place" v="locality" />
		<tag k="ssr:stedsnr" v="457213" />
	</node>
	<node id="-532324" lat="61.5133083315" lon="6.31753889337">
		<tag k="name" v="Høgerinden" />
		<tag k="natural" v="hill" />
		<tag k="place" v="locality" />
		<tag k="ssr:stedsnr" v="457208" />
	</node>
	<node id="-532323" lat="61.556858334" lon="6.26201389563">
		<tag k="name" v="Haukhamrekvia" />
		<tag k="place" v="locality" />
		<tag k="ssr:stedsnr" v="457193" />
	</node>
	<node id="-532322" lat="61.5507361087" lon="6.22604167614">
		<tag k="name" v="Rabben" />
		<tag k="place" v="locality" />
		<tag k="ssr:stedsnr" v="457191" />
	</node>
	<node id="-532321" lat="61.5525694453" lon="6.22813888591">
		<tag k="name" v="Støylsgjelet" />
		<tag k="natural" v="valley" />
		<tag k="place" v="locality" />
		<tag k="ssr:stedsnr" v="457192" />
	</node>
	<node id="-532319" lat="61.4988166711" lon="6.18484722975">
		<tag k="name" v="Strandsbakken" />
		<tag k="natural" v="slope" />
		<tag k="place" v="locality" />
		<tag k="ssr:stedsnr" v="457168" />
	</node>
	<node id="-532318" lat="61.4725083308" lon="6.25031945208">
		<tag k="name" v="Vassrindane" />
		<tag k="natural" v="slope" />
		<tag k="place" v="locality" />
		<tag k="ssr:stedsnr" v="457163" />
	</node>
	<node id="-532317" lat="61.4958555588" lon="6.10879166496">
		<tag k="name" v="Gardfjøshaugen" />
		<tag k="natural" v="hill" />
		<tag k="place" v="locality" />
		<tag k="ssr:stedsnr" v="457152" />
	</node>
	<node id="-532316" lat="61.5131111072" lon="6.12661111443">
		<tag k="name" v="Botnabruna" />
		<tag k="natural" v="hill" />
		<tag k="place" v="locality" />
		<tag k="ssr:stedsnr" v="457141" />
	</node>
	<node id="-532315" lat="61.5006111073" lon="6.06810555226">
		<tag k="name" v="Fjellkvia" />
		<tag k="place" v="locality" />
		<tag k="ssr:stedsnr" v="457138" />
	</node>
	<node id="-532313" lat="61.513055559" lon="6.14622499789">
		<tag k="name" v="Liabakken" />
		<tag k="natural" v="slope" />
		<tag k="place" v="locality" />
		<tag k="ssr:stedsnr" v="457134" />
	</node>
	<node id="-532312" lat="61.5192222193" lon="6.09679721975">
		<tag k="name" v="Fremstebotnen" />
		<tag k="natural" v="valley" />
		<tag k="place" v="locality" />
		<tag k="ssr:stedsnr" v="457126" />
	</node>
	<node id="-532311" lat="61.5199583328" lon="6.10993889346">
		<tag k="name" v="Novabakken" />
		<tag k="natural" v="slope" />
		<tag k="place" v="locality" />
		<tag k="ssr:stedsnr" v="457125" />
	</node>
	<node id="-532310" lat="61.501280556" lon="6.02499443636">
		<tag k="name" v="Smørhalvtynnebakkane" />
		<tag k="natural" v="slope" />
		<tag k="place" v="locality" />
		<tag k="ssr:stedsnr" v="457112" />
	</node>
	<node id="-532309" lat="61.5216194413" lon="6.56986111995">
		<tag k="name" v="Klungrebakken" />
		<tag k="natural" v="slope" />
		<tag k="place" v="locality" />
		<tag k="ssr:stedsnr" v="457108" />
	</node>
	<node id="-532308" lat="61.5163861137" lon="6.5869138915">
		<tag k="name" v="Resbakkane" />
		<tag k="natural" v="slope" />
		<tag k="place" v="locality" />
		<tag k="ssr:stedsnr" v="457098" />
	</node>
	<node id="-532307" lat="61.6235888906" lon="6.43044444643">
		<tag k="name" v="Høgesetegjølet" />
		<tag k="natural" v="hill" />
		<tag k="place" v="locality" />
		<tag k="ssr:stedsnr" v="457091" />
	</node>
	<node id="-532306" lat="61.5765888889" lon="6.49912777319">
		<tag k="name" v="Fossheimhyllene" />
		<tag k="place" v="locality" />
		<tag k="ssr:stedsnr" v="457087" />
	</node>
	<node id="-532305" lat="61.6168138883" lon="6.48300000133">
		<tag k="fixme" v="consider natural=peak for the most distinct mountains in the district" />
		<tag k="name" v="Blåfjellet" />
		<tag k="natural" v="hill" />
		<tag k="place" v="locality" />
		<tag k="ssr:stedsnr" v="457069" />
	</node>
	<node id="-532304" lat="61.5473416683" lon="6.41342223077">
		<tag k="name" v="Lyngneshammaren" />
		<tag k="natural" v="hill" />
		<tag k="place" v="locality" />
		<tag k="ssr:stedsnr" v="457058" />
	</node>
	<node id="-532302" lat="61.564713887" lon="6.4232444469">
		<tag k="name" v="Einehammaren" />
		<tag k="natural" v="hill" />
		<tag k="place" v="locality" />
		<tag k="ssr:stedsnr" v="457056" />
	</node>
	<node id="-532300" lat="61.5842138931" lon="6.31447221412">
		<tag k="name" v="Storeskreda" />
		<tag k="natural" v="valley" />
		<tag k="place" v="locality" />
		<tag k="ssr:stedsnr" v="457034" />
	</node>
	<node id="-532299" lat="61.5886500027" lon="6.31757500459">
		<tag k="name" v="Selbøen" />
		<tag k="place" v="locality" />
		<tag k="ssr:stedsnr" v="457033" />
	</node>
	<node id="-532296" lat="61.5663305557" lon="6.3767583384">
		<tag k="name" v="Gjøtta" />
		<tag k="natural" v="ridge" />
		<tag k="place" v="locality" />
		<tag k="ssr:stedsnr" v="457018" />
	</node>
	<node id="-532295" lat="61.5639888889" lon="6.37242222219">
		<tag k="name" v="Godfarskorane" />
		<tag k="natural" v="valley" />
		<tag k="place" v="locality" />
		<tag k="ssr:stedsnr" v="457013" />
	</node>
	<node id="-532294" lat="61.5632916702" lon="6.33019167006">
		<tag k="name" v="Lobakkane" />
		<tag k="natural" v="slope" />
		<tag k="place" v="locality" />
		<tag k="ssr:stedsnr" v="457006" />
	</node>
	<node id="-532293" lat="61.4964361071" lon="6.31063610293">
		<tag k="name" v="Skaret" />
		<tag k="natural" v="valley" />
		<tag k="place" v="locality" />
		<tag k="ssr:stedsnr" v="457003" />
	</node>
	<node id="-532288" lat="61.5292535298" lon="6.45362931449">
		<tag k="fixme" v="consider natural=peak for the most distinct mountains in the district" />
		<tag k="name" v="Sundsheia" />
		<tag k="natural" v="hill" />
		<tag k="place" v="locality" />
		<tag k="ssr:stedsnr" v="445518" />
	</node>
	<node id="-532285" lat="61.5379583332" lon="6.4510083277">
		<tag k="fixme" v="consider natural=peak for the most distinct mountains in the district" />
		<tag k="name" v="Nyken" />
		<tag k="natural" v="hill" />
		<tag k="place" v="locality" />
		<tag k="ssr:stedsnr" v="435727" />
	</node>
	<node id="-532280" lat="61.6428305567" lon="6.46300000437">
		<tag k="name" v="Svenskenipa" />
		<tag k="natural" v="hill" />
		<tag k="place" v="locality" />
		<tag k="ssr:stedsnr" v="435074" />
	</node>
	<node id="-532278" lat="61.6059444441" lon="6.33839166257">
		<tag k="name" v="Instengbottsskaret" />
		<tag k="natural" v="valley" />
		<tag k="place" v="locality" />
		<tag k="ssr:stedsnr" v="435038" />
	</node>
	<node id="-532276" lat="61.5962305589" lon="6.35577777045">
		<tag k="fixme" v="consider natural=peak for the most distinct mountains in the district" />
		<tag k="name" v="Steinbotnegga" />
		<tag k="natural" v="hill" />
		<tag k="old_name" v="Langebotsegga" />
		<tag k="place" v="locality" />
		<tag k="ssr:stedsnr" v="435028" />
	</node>
	<node id="-532275" lat="61.5932694414" lon="6.26061667191">
		<tag k="name" v="Tolsbotnen" />
		<tag k="natural" v="valley" />
		<tag k="place" v="locality" />
		<tag k="ssr:stedsnr" v="435029" />
	</node>
	<node id="-532273" lat="61.5947111108" lon="6.5544250068">
		<tag k="fixme" v="multiple name tags, choose one and add the other to alt_name; consider natural=peak for the most distinct mountains in the district" />
		<tag k="name" v="Bolsetnipa;Grepstadnibba" />
		<tag k="natural" v="hill" />
		<tag k="place" v="locality" />
		<tag k="ssr:stedsnr" v="435010" />
	</node>
	<node id="-532272" lat="61.5779944409" lon="6.23863611451">
		<tag k="fixme" v="consider natural=peak for the most distinct mountains in the district" />
		<tag k="name" v="Litlefjellet" />
		<tag k="natural" v="hill" />
		<tag k="place" v="locality" />
		<tag k="ssr:stedsnr" v="435006" />
	</node>
	<node id="-532266" lat="61.5858944417" lon="6.53614165754">
		<tag k="fixme" v="consider natural=peak for the most distinct mountains in the district" />
		<tag k="name" v="Litlenipa" />
		<tag k="natural" v="hill" />
		<tag k="place" v="locality" />
		<tag k="ssr:stedsnr" v="434933" />
	</node>
	<node id="-532265" lat="61.6111944452" lon="6.77596944645">
		<tag k="fixme" v="consider natural=peak for the most distinct mountains in the district" />
		<tag k="name" v="Hovdeskrednibba" />
		<tag k="natural" v="hill" />
		<tag k="place" v="locality" />
		<tag k="ssr:stedsnr" v="434798" />
	</node>
	<node id="-532264" lat="61.6329499958" lon="6.5931583293">
		<tag k="fixme" v="consider natural=peak for the most distinct mountains in the district" />
		<tag k="name" v="Trollebottseggane" />
		<tag k="natural" v="hill" />
		<tag k="place" v="locality" />
		<tag k="ssr:stedsnr" v="434782" />
	</node>
	<node id="-532262" lat="61.5042749999" lon="6.23102499129">
		<tag k="fixme" v="consider natural=peak for the most distinct mountains in the district" />
		<tag k="name" v="Klauva" />
		<tag k="natural" v="hill" />
		<tag k="place" v="locality" />
		<tag k="ssr:stedsnr" v="434853" />
	</node>
	<node id="-532259" lat="61.5883861112" lon="6.7584361093">
		<tag k="fixme" v="consider natural=peak for the most distinct mountains in the district" />
		<tag k="name" v="Gallen" />
		<tag k="natural" v="hill" />
		<tag k="place" v="locality" />
		<tag k="ssr:stedsnr" v="434813" />
	</node>
	<node id="-532258" lat="61.5331138859" lon="6.12238054786">
		<tag k="fixme" v="consider natural=peak for the most distinct mountains in the district" />
		<tag k="name" v="Blåfjellet" />
		<tag k="natural" v="hill" />
		<tag k="place" v="locality" />
		<tag k="ssr:stedsnr" v="434138" />
	</node>
	<node id="-532257" lat="61.4856638917" lon="6.15938055031">
		<tag k="fixme" v="consider natural=peak for the most distinct mountains in the district" />
		<tag k="name" v="Hammarsegga" />
		<tag k="natural" v="hill" />
		<tag k="place" v="locality" />
		<tag k="ssr:stedsnr" v="433296" />
	</node>
	<node id="-532256" lat="61.4840666663" lon="6.17027500323">
		<tag k="name" v="Hammarsbotnen" />
		<tag k="natural" v="valley" />
		<tag k="place" v="locality" />
		<tag k="ssr:stedsnr" v="433295" />
	</node>
	<node id="-532253" lat="61.4725166669" lon="6.32252778475">
		<tag k="fixme" v="consider natural=peak for the most distinct mountains in the district" />
		<tag k="name" v="Tungefjellet" />
		<tag k="natural" v="hill" />
		<tag k="place" v="locality" />
		<tag k="ssr:stedsnr" v="432637" />
	</node>
	<node id="-532252" lat="61.4733888855" lon="6.39257500742">
		<tag k="fixme" v="consider natural=peak for the most distinct mountains in the district" />
		<tag k="name" v="Slutefjellet" />
		<tag k="natural" v="hill" />
		<tag k="place" v="locality" />
		<tag k="ssr:stedsnr" v="432635" />
	</node>
	<node id="-532245" lat="61.5006777772" lon="6.08481388813">
		<tag k="fixme" v="consider natural=peak for the most distinct mountains in the district" />
		<tag k="name" v="Gravsfjellet" />
		<tag k="natural" v="hill" />
		<tag k="place" v="locality" />
		<tag k="ssr:stedsnr" v="253149" />
	</node>
	<node id="-532241" lat="61.605450003" lon="6.47265555957">
		<tag k="fixme" v="consider natural=peak for the most distinct mountains in the district" />
		<tag k="name" v="Daurmål" />
		<tag k="natural" v="hill" />
		<tag k="place" v="locality" />
		<tag k="ssr:stedsnr" v="253023" />
	</node>
	<node id="-532239" lat="61.5260916661" lon="6.4891888857">
		<tag k="fixme" v="consider natural=peak for the most distinct mountains in the district" />
		<tag k="name" v="Grovanyken" />
		<tag k="natural" v="hill" />
		<tag k="place" v="locality" />
		<tag k="ssr:stedsnr" v="252992" />
	</node>
	<node id="-532237" lat="61.5308361124" lon="6.41518888933">
		<tag k="name" v="Dvergsdalsdalen" />
		<tag k="natural" v="valley" />
		<tag k="place" v="locality" />
		<tag k="ssr:stedsnr" v="252990" />
	</node>
	<node id="-532229" lat="61.663925001" lon="6.74374444425">
		<tag k="fixme" v="consider natural=peak for the most distinct mountains in the district" />
		<tag k="name" v="Kvannefjellet" />
		<tag k="natural" v="hill" />
		<tag k="place" v="locality" />
		<tag k="ssr:stedsnr" v="252909" />
	</node>
	<node id="-532227" lat="61.5131277792" lon="6.55822500832">
		<tag k="fixme" v="consider natural=peak for the most distinct mountains in the district" />
		<tag k="name" v="Nonsnipa" />
		<tag k="natural" v="hill" />
		<tag k="place" v="locality" />
		<tag k="ssr:stedsnr" v="252862" />
	</node>
	<node id="-532223" lat="61.5066777804" lon="6.65125555906">
		<tag k="name" v="Lundaskaret" />
		<tag k="natural" v="valley" />
		<tag k="place" v="locality" />
		<tag k="ssr:stedsnr" v="252838" />
	</node>
	<node id="-532221" lat="61.575574999" lon="6.71855833664">
		<tag k="name" v="Kvannebotnen" />
		<tag k="natural" v="valley" />
		<tag k="place" v="locality" />
		<tag k="ssr:stedsnr" v="252819" />
	</node>
	<node id="-532218" lat="61.5545472264" lon="6.21409722755">
		<tag k="name" v="Nedrebødalen" />
		<tag k="natural" v="valley" />
		<tag k="place" v="locality" />
		<tag k="ssr:stedsnr" v="252173" />
	</node>
	<node id="-532217" lat="61.5102888891" lon="6.08220277099">
		<tag k="name" v="Fossebotnen" />
		<tag k="natural" v="valley" />
		<tag k="place" v="locality" />
		<tag k="ssr:stedsnr" v="252114" />
	</node>
	<node id="-532216" lat="61.4844250038" lon="6.21307499046">
		<tag k="fixme" v="consider natural=peak for the most distinct mountains in the district" />
		<tag k="name" v="Sanddalsfjellet" />
		<tag k="natural" v="hill" />
		<tag k="place" v="locality" />
		<tag k="ssr:stedsnr" v="251327" />
	</node>
	<node id="-532215" lat="61.4787194416" lon="6.2887277869">
		<tag k="fixme" v="consider natural=peak for the most distinct mountains in the district" />
		<tag k="name" v="Høgenuken" />
		<tag k="natural" v="hill" />
		<tag k="place" v="locality" />
		<tag k="ssr:stedsnr" v="250681" />
	</node>
	<node id="-532214" lat="61.4367305519" lon="6.16588055718">
		<tag k="fixme" v="consider natural=peak for the most distinct mountains in the district" />
		<tag k="name" v="Nova" />
		<tag k="natural" v="hill" />
		<tag k="place" v="locality" />
		<tag k="ssr:stedsnr" v="250365" />
	</node>
	<node id="-532213" lat="61.4807777803" lon="6.18807776817">
		<tag k="fixme" v="consider natural=peak for the most distinct mountains in the district" />
		<tag k="name" v="Middagsfjellet" />
		<tag k="natural" v="hill" />
		<tag k="place" v="locality" />
		<tag k="ssr:stedsnr" v="250306" />
	</node>
	<node id="-532208" lat="61.6267611112" lon="6.644830563">
		<tag k="name" v="Hamrane" />
		<tag k="natural" v="hill" />
		<tag k="place" v="locality" />
		<tag k="ssr:stedsnr" v="214886" />
	</node>
	<node id="-532207" lat="61.6055166652" lon="6.55347777344">
		<tag k="name" v="Svinnahaugen" />
		<tag k="natural" v="hill" />
		<tag k="place" v="locality" />
		<tag k="ssr:stedsnr" v="214870" />
	</node>
	<node id="-532206" lat="61.6156972221" lon="6.58238054855">
		<tag k="name" v="Øvstesveda" />
		<tag k="natural" v="hill" />
		<tag k="place" v="locality" />
		<tag k="ssr:stedsnr" v="214864" />
	</node>
	<node id="-532203" lat="61.4784305531" lon="6.03320832706">
		<tag k="name" v="Selhaugane" />
		<tag k="natural" v="hill" />
		<tag k="place" v="locality" />
		<tag k="ssr:stedsnr" v="214852" />
	</node>
	<node id="-532202" lat="61.4764944423" lon="6.01186944713">
		<tag k="name" v="Vesle Merkesholten" />
		<tag k="natural" v="hill" />
		<tag k="place" v="locality" />
		<tag k="ssr:stedsnr" v="214850" />
	</node>
	<node id="-532200" lat="61.5163722218" lon="6.66575556453">
		<tag k="name" v="Litlebredalen" />
		<tag k="natural" v="valley" />
		<tag k="place" v="locality" />
		<tag k="ssr:stedsnr" v="214839" />
	</node>
	<node id="-532199" lat="61.5797500007" lon="6.74155834203">
		<tag k="name" v="Småhaugane" />
		<tag k="natural" v="hill" />
		<tag k="place" v="locality" />
		<tag k="ssr:stedsnr" v="214818" />
	</node>
	<node id="-532197" lat="61.4490749964" lon="6.01425555089">
		<tag k="name" v="Fosshaugen" />
		<tag k="natural" v="hill" />
		<tag k="place" v="locality" />
		<tag k="ssr:stedsnr" v="214338" />
	</node>
	<node id="-532196" lat="61.4554416709" lon="6.01588889258">
		<tag k="name" v="Øyane" />
		<tag k="place" v="locality" />
		<tag k="ssr:stedsnr" v="214333" />
	</node>
	<node id="-532195" lat="61.5715277744" lon="6.24551945204">
		<tag k="name" v="Kvia" />
		<tag k="place" v="locality" />
		<tag k="ssr:stedsnr" v="214196" />
	</node>
	<node id="-532194" lat="61.5688833354" lon="6.26575555667">
		<tag k="name" v="Liahamrane" />
		<tag k="natural" v="hill" />
		<tag k="place" v="locality" />
		<tag k="ssr:stedsnr" v="214195" />
	</node>
	<node id="-532193" lat="61.5104055566" lon="6.21978888223">
		<tag k="name" v="Strandsslåttene" />
		<tag k="place" v="locality" />
		<tag k="ssr:stedsnr" v="214182" />
	</node>
	<node id="-532192" lat="61.5265055599" lon="6.28576943714">
		<tag k="name" v="Høgeskora" />
		<tag k="natural" v="valley" />
		<tag k="place" v="locality" />
		<tag k="ssr:stedsnr" v="214180" />
	</node>
	<node id="-532191" lat="61.5063194441" lon="6.21612221819">
		<tag k="name" v="Marteslåttene" />
		<tag k="place" v="locality" />
		<tag k="ssr:stedsnr" v="214175" />
	</node>
	<node id="-532189" lat="61.529394448" lon="6.21023333019">
		<tag k="name" v="Mehamrane" />
		<tag k="natural" v="ridge" />
		<tag k="place" v="locality" />
		<tag k="ssr:stedsnr" v="214158" />
	</node>
	<node id="-532188" lat="61.5243611105" lon="6.12843054732">
		<tag k="name" v="Kjerringbakkane" />
		<tag k="natural" v="slope" />
		<tag k="place" v="locality" />
		<tag k="ssr:stedsnr" v="214138" />
	</node>
	<node id="-532187" lat="61.5241166664" lon="6.07508054964">
		<tag k="name" v="Skarslåttene" />
		<tag k="place" v="locality" />
		<tag k="ssr:stedsnr" v="214132" />
	</node>
	<node id="-532185" lat="61.4689111078" lon="6.06095000913">
		<tag k="name" v="Langhaugane" />
		<tag k="natural" v="hill" />
		<tag k="place" v="locality" />
		<tag k="ssr:stedsnr" v="214125" />
	</node>
	<node id="-532184" lat="61.4660027816" lon="6.06545000676">
		<tag k="name" v="Kvamsslåttene" />
		<tag k="place" v="locality" />
		<tag k="ssr:stedsnr" v="214126" />
	</node>
	<node id="-532182" lat="61.5213277779" lon="6.08819444448">
		<tag k="name" v="Tvergrovbakkane" />
		<tag k="natural" v="slope" />
		<tag k="place" v="locality" />
		<tag k="ssr:stedsnr" v="214118" />
	</node>
	<node id="-532181" lat="61.5184666682" lon="6.0738666654">
		<tag k="name" v="Høgehaugen" />
		<tag k="natural" v="hill" />
		<tag k="place" v="locality" />
		<tag k="ssr:stedsnr" v="214119" />
	</node>
	<node id="-532179" lat="61.5298388883" lon="6.54131667546">
		<tag k="name" v="Synnhammaren" />
		<tag k="natural" v="hill" />
		<tag k="place" v="locality" />
		<tag k="ssr:stedsnr" v="214102" />
	</node>
	<node id="-532177" lat="61.5789277739" lon="6.47873054699">
		<tag k="name" v="Svarthammaren" />
		<tag k="natural" v="ridge" />
		<tag k="place" v="locality" />
		<tag k="ssr:stedsnr" v="214087" />
	</node>
	<node id="-532175" lat="61.5495527792" lon="6.48018055493">
		<tag k="name" v="Hagane" />
		<tag k="place" v="locality" />
		<tag k="ssr:stedsnr" v="214066" />
	</node>
	<node id="-532174" lat="61.5452611138" lon="6.51456666902">
		<tag k="name" v="Svarthammarteigen" />
		<tag k="place" v="locality" />
		<tag k="ssr:stedsnr" v="214058" />
	</node>
	<node id="-532172" lat="61.5759583337" lon="6.41573889817">
		<tag k="name" v="Sausabakkane" />
		<tag k="natural" v="slope" />
		<tag k="place" v="locality" />
		<tag k="ssr:stedsnr" v="214045" />
	</node>
	<node id="-532171" lat="61.588930559" lon="6.31228888491">
		<tag k="name" v="Daleflatene" />
		<tag k="place" v="locality" />
		<tag k="ssr:stedsnr" v="214033" />
	</node>
	<node id="-532170" lat="61.5400222199" lon="6.39640278138">
		<tag k="name" v="Svarthammaren" />
		<tag k="natural" v="hill" />
		<tag k="place" v="locality" />
		<tag k="ssr:stedsnr" v="214027" />
	</node>
	<node id="-532169" lat="61.547055556" lon="6.33246388602">
		<tag k="name" v="Svarthammaren" />
		<tag k="natural" v="hill" />
		<tag k="place" v="locality" />
		<tag k="ssr:stedsnr" v="214025" />
	</node>
	<node id="-532168" lat="61.5460305559" lon="6.3369638928">
		<tag k="name" v="Breisva" />
		<tag k="place" v="locality" />
		<tag k="ssr:stedsnr" v="214024" />
	</node>
	<node id="-532167" lat="61.5600805596" lon="6.40279167278">
		<tag k="name" v="Øyane" />
		<tag k="place" v="locality" />
		<tag k="ssr:stedsnr" v="214020" />
	</node>
	<node id="-532165" lat="61.5102472262" lon="6.33010000503">
		<tag k="name" v="Skorane" />
		<tag k="natural" v="valley" />
		<tag k="place" v="locality" />
		<tag k="ssr:stedsnr" v="214003" />
	</node>
	<node id="-532161" lat="61.613102775" lon="6.31768611524">
		<tag k="fixme" v="consider natural=peak for the most distinct mountains in the district" />
		<tag k="name" v="Instengfjellet" />
		<tag k="natural" v="hill" />
		<tag k="place" v="locality" />
		<tag k="ssr:stedsnr" v="192040" />
	</node>
	<node id="-532160" lat="61.583461113" lon="6.45145555543">
		<tag k="name" v="Fygladalen" />
		<tag k="natural" v="valley" />
		<tag k="place" v="locality" />
		<tag k="ssr:stedsnr" v="192002" />
	</node>
	<node id="-532158" lat="61.5377388849" lon="6.56685000928">
		<tag k="alt_name" v="Førnesgjelet, yt" />
		<tag k="name" v="Fremste Førenesgjelet" />
		<tag k="natural" v="valley" />
		<tag k="place" v="locality" />
		<tag k="ssr:stedsnr" v="191983" />
	</node>
	<node id="-532156" lat="61.5550583356" lon="6.48474166291">
		<tag k="fixme" v="consider natural=peak for the most distinct mountains in the district" />
		<tag k="name" v="Husefjellet" />
		<tag k="natural" v="hill" />
		<tag k="place" v="locality" />
		<tag k="ssr:stedsnr" v="191961" />
	</node>
	<node id="-532153" lat="61.5608555512" lon="6.51534443673">
		<tag k="fixme" v="consider natural=peak for the most distinct mountains in the district" />
		<tag k="name" v="Løkjabottsegga" />
		<tag k="natural" v="hill" />
		<tag k="place" v="locality" />
		<tag k="ssr:stedsnr" v="191947" />
	</node>
	<node id="-532152" lat="61.5718527751" lon="6.55093333709">
		<tag k="name" v="Mebotnen" />
		<tag k="natural" v="valley" />
		<tag k="place" v="locality" />
		<tag k="ssr:stedsnr" v="191933" />
	</node>
	<node id="-532151" lat="61.5771194485" lon="6.58482777441">
		<tag k="name" v="Flateheiane" />
		<tag k="natural" v="hill" />
		<tag k="place" v="locality" />
		<tag k="ssr:stedsnr" v="191932" />
	</node>
	<node id="-532150" lat="61.5759388887" lon="6.42968888884">
		<tag k="fixme" v="consider natural=peak for the most distinct mountains in the district" />
		<tag k="name" v="Egga" />
		<tag k="natural" v="hill" />
		<tag k="place" v="locality" />
		<tag k="ssr:stedsnr" v="191922" />
	</node>
	<node id="-532149" lat="61.5693805573" lon="6.23729166097">
		<tag k="name" v="Ålhusdalen" />
		<tag k="natural" v="valley" />
		<tag k="place" v="locality" />
		<tag k="ssr:stedsnr" v="191913" />
	</node>
	<node id="-532147" lat="61.521274998" lon="6.51895555722">
		<tag k="fixme" v="consider natural=peak for the most distinct mountains in the district" />
		<tag k="name" v="Langeheia" />
		<tag k="natural" v="hill" />
		<tag k="place" v="locality" />
		<tag k="ssr:stedsnr" v="191844" />
	</node>
	<node id="-532145" lat="61.6056388899" lon="6.66989999945">
		<tag k="fixme" v="consider natural=peak for the most distinct mountains in the district" />
		<tag k="name" v="Raudfjellet" />
		<tag k="natural" v="hill" />
		<tag k="place" v="locality" />
		<tag k="ssr:stedsnr" v="191801" />
	</node>
	<node id="-532144" lat="61.596719448" lon="6.68676389064">
		<tag k="name" v="Litlefjellet" />
		<tag k="natural" v="hill" />
		<tag k="place" v="locality" />
		<tag k="ssr:stedsnr" v="191796" />
	</node>
	<node id="-532143" lat="61.5977249993" lon="6.70315000559">
		<tag k="name" v="Kvannegrovfjellet" />
		<tag k="natural" v="hill" />
		<tag k="place" v="locality" />
		<tag k="ssr:stedsnr" v="191791" />
	</node>
	<node id="-532142" lat="61.507183333" lon="6.62856666746">
		<tag k="fixme" v="consider natural=peak for the most distinct mountains in the district" />
		<tag k="name" v="Tuva" />
		<tag k="natural" v="hill" />
		<tag k="place" v="locality" />
		<tag k="ssr:stedsnr" v="191714" />
	</node>
	<node id="-532137" lat="61.4815416668" lon="6.13586111622">
		<tag k="alt_name" v="Knoltren" />
		<tag k="name" v="Knolten" />
		<tag k="natural" v="hill" />
		<tag k="place" v="locality" />
		<tag k="ssr:stedsnr" v="190301" />
	</node>
	<node id="-532135" lat="61.498966664" lon="6.32788334001">
		<tag k="fixme" v="consider natural=peak for the most distinct mountains in the district" />
		<tag k="name" v="Sandbotsegga" />
		<tag k="natural" v="hill" />
		<tag k="place" v="locality" />
		<tag k="ssr:stedsnr" v="189638" />
	</node>
	<node id="-532134" lat="61.4960916712" lon="6.43739445001">
		<tag k="name" v="Trollebotnen" />
		<tag k="natural" v="valley" />
		<tag k="place" v="locality" />
		<tag k="ssr:stedsnr" v="189633" />
	</node>
	<node id="-532133" lat="61.4791499971" lon="6.1636749939">
		<tag k="fixme" v="consider natural=peak for the most distinct mountains in the district" />
		<tag k="name" v="Sveigen" />
		<tag k="natural" v="hill" />
		<tag k="place" v="locality" />
		<tag k="ssr:stedsnr" v="189272" />
	</node>
	<node id="-532132" lat="61.4676388911" lon="6.08145833568">
		<tag k="fixme" v="consider natural=peak for the most distinct mountains in the district" />
		<tag k="name" v="Amfen" />
		<tag k="natural" v="hill" />
		<tag k="place" v="locality" />
		<tag k="ssr:stedsnr" v="189266" />
	</node>
	<node id="-532126" lat="61.6231166657" lon="6.65066388678">
		<tag k="name" v="Bolthammaren" />
		<tag k="natural" v="hill" />
		<tag k="place" v="locality" />
		<tag k="ssr:stedsnr" v="153889" />
	</node>
	<node id="-532125" lat="61.601199996" lon="6.60859167544">
		<tag k="name" v="Styggesvora" />
		<tag k="natural" v="hill" />
		<tag k="place" v="locality" />
		<tag k="ssr:stedsnr" v="153885" />
	</node>
	<node id="-532124" lat="61.5280833319" lon="6.62164166406">
		<tag k="name" v="Erkeskredgjelet" />
		<tag k="natural" v="valley" />
		<tag k="place" v="locality" />
		<tag k="ssr:stedsnr" v="153872" />
	</node>
	<node id="-532123" lat="61.6167416713" lon="6.53590556301">
		<tag k="name" v="Åshamrane" />
		<tag k="natural" v="hill" />
		<tag k="place" v="locality" />
		<tag k="ssr:stedsnr" v="153866" />
	</node>
	<node id="-532122" lat="61.4903722248" lon="6.03824722423">
		<tag k="fixme" v="consider natural=peak for the most distinct mountains in the district" />
		<tag k="name" v="Smådrevfjellet" />
		<tag k="natural" v="hill" />
		<tag k="place" v="locality" />
		<tag k="ssr:stedsnr" v="153864" />
	</node>
	<node id="-532121" lat="61.4693611119" lon="6.04266667553">
		<tag k="name" v="Teigen" />
		<tag k="place" v="locality" />
		<tag k="ssr:stedsnr" v="153853" />
	</node>
	<node id="-532120" lat="61.620124997" lon="6.69854166405">
		<tag k="name" v="Høgstesvadet" />
		<tag k="natural" v="hill" />
		<tag k="place" v="locality" />
		<tag k="ssr:stedsnr" v="153848" />
	</node>
	<node id="-532118" lat="61.4677444465" lon="6.00572778068">
		<tag k="name" v="Bruna" />
		<tag k="place" v="locality" />
		<tag k="ssr:stedsnr" v="153338" />
	</node>
	<node id="-532117" lat="61.5180666658" lon="6.3921249952">
		<tag k="name" v="Gamlestøylslia" />
		<tag k="natural" v="slope" />
		<tag k="place" v="locality" />
		<tag k="ssr:stedsnr" v="153230" />
	</node>
	<node id="-532116" lat="61.5703861143" lon="6.23993611698">
		<tag k="name" v="Steinøyna" />
		<tag k="place" v="locality" />
		<tag k="ssr:stedsnr" v="153224" />
	</node>
	<node id="-532115" lat="61.5659277807" lon="6.26554166918">
		<tag k="name" v="Rindane" />
		<tag k="natural" v="hill" />
		<tag k="place" v="locality" />
		<tag k="ssr:stedsnr" v="153220" />
	</node>
	<node id="-532113" lat="61.5319249958" lon="6.25999999135">
		<tag k="name" v="Nova" />
		<tag k="natural" v="hill" />
		<tag k="place" v="locality" />
		<tag k="ssr:stedsnr" v="153202" />
	</node>
	<node id="-532112" lat="61.4996499962" lon="6.21983889696">
		<tag k="name" v="Strandsheia" />
		<tag k="natural" v="hill" />
		<tag k="place" v="locality" />
		<tag k="ssr:stedsnr" v="153198" />
	</node>
	<node id="-532111" lat="61.5325749981" lon="6.21569167417">
		<tag k="fixme" v="consider natural=peak for the most distinct mountains in the district" />
		<tag k="name" v="Knolten" />
		<tag k="natural" v="hill" />
		<tag k="place" v="locality" />
		<tag k="ssr:stedsnr" v="153176" />
	</node>
	<node id="-532109" lat="61.4927694427" lon="6.13418056359">
		<tag k="name" v="Furehammaren" />
		<tag k="place" v="locality" />
		<tag k="ssr:stedsnr" v="153161" />
	</node>
	<node id="-532108" lat="61.5301888881" lon="6.15113611971">
		<tag k="name" v="Midttunsdalen" />
		<tag k="natural" v="valley" />
		<tag k="place" v="locality" />
		<tag k="ssr:stedsnr" v="153151" />
	</node>
	<node id="-532107" lat="61.4813055546" lon="6.07428334243">
		<tag k="name" v="Nygjerde" />
		<tag k="place" v="locality" />
		<tag k="ssr:stedsnr" v="153146" />
	</node>
	<node id="-532106" lat="61.4646388902" lon="6.12761666726">
		<tag k="fixme" v="consider natural=peak for the most distinct mountains in the district" />
		<tag k="name" v="Fureholten" />
		<tag k="natural" v="hill" />
		<tag k="place" v="locality" />
		<tag k="ssr:stedsnr" v="153147" />
	</node>
	<node id="-532105" lat="61.5240666682" lon="6.06920555477">
		<tag k="name" v="Tverrlia" />
		<tag k="natural" v="slope" />
		<tag k="place" v="locality" />
		<tag k="ssr:stedsnr" v="153138" />
	</node>
	<node id="-532104" lat="61.5231916624" lon="6.09582221902">
		<tag k="fixme" v="consider natural=peak for the most distinct mountains in the district" />
		<tag k="name" v="Tortnefjellet" />
		<tag k="natural" v="hill" />
		<tag k="place" v="locality" />
		<tag k="ssr:stedsnr" v="153139" />
	</node>
	<node id="-532103" lat="61.4779611147" lon="6.09252500873">
		<tag k="name" v="Bjørnhammaren" />
		<tag k="natural" v="hill" />
		<tag k="place" v="locality" />
		<tag k="ssr:stedsnr" v="153133" />
	</node>
	<node id="-532102" lat="61.4793666642" lon="6.08112222836">
		<tag k="name" v="Øygardslåttene" />
		<tag k="place" v="locality" />
		<tag k="ssr:stedsnr" v="153132" />
	</node>
	<node id="-532101" lat="61.4758777805" lon="6.06423888372">
		<tag k="name" v="Nesbakkane" />
		<tag k="natural" v="slope" />
		<tag k="place" v="locality" />
		<tag k="ssr:stedsnr" v="153123" />
	</node>
	<node id="-532100" lat="61.6262861144" lon="6.52893054982">
		<tag k="name" v="Skorateigen" />
		<tag k="place" v="locality" />
		<tag k="ssr:stedsnr" v="153115" />
	</node>
	<node id="-532097" lat="61.6118972184" lon="6.52790000059">
		<tag k="name" v="Leitehammaren" />
		<tag k="natural" v="hill" />
		<tag k="place" v="locality" />
		<tag k="ssr:stedsnr" v="153096" />
	</node>
	<node id="-532096" lat="61.6079222261" lon="6.50804166296">
		<tag k="fixme" v="consider natural=peak for the most distinct mountains in the district" />
		<tag k="name" v="Storåsen" />
		<tag k="natural" v="hill" />
		<tag k="place" v="locality" />
		<tag k="ssr:stedsnr" v="153094" />
	</node>
	<node id="-532094" lat="61.5785972201" lon="6.41829444369">
		<tag k="name" v="Kyrabotnen" />
		<tag k="natural" v="valley" />
		<tag k="place" v="locality" />
		<tag k="ssr:stedsnr" v="153090" />
	</node>
	<node id="-532093" lat="61.6113722251" lon="6.4916722197">
		<tag k="name" v="Raudhamrane" />
		<tag k="natural" v="hill" />
		<tag k="place" v="locality" />
		<tag k="ssr:stedsnr" v="153079" />
	</node>
	<node id="-532092" lat="61.5514055522" lon="6.47886388339">
		<tag k="name" v="Storeskreda" />
		<tag k="natural" v="gorge" />
		<tag k="ssr:stedsnr" v="153073" />
	</node>
	<node id="-532091" lat="61.5436777785" lon="6.50184443649">
		<tag k="name" v="Kleivane" />
		<tag k="natural" v="slope" />
		<tag k="place" v="locality" />
		<tag k="ssr:stedsnr" v="153066" />
	</node>
	<node id="-532090" lat="61.5568444481" lon="6.4810083242">
		<tag k="name" v="Høbdeberget" />
		<tag k="natural" v="hill" />
		<tag k="place" v="locality" />
		<tag k="ssr:stedsnr" v="153065" />
	</node>
	<node id="-532089" lat="61.5668722197" lon="6.48342777936">
		<tag k="name" v="Hamrane" />
		<tag k="natural" v="hill" />
		<tag k="place" v="locality" />
		<tag k="ssr:stedsnr" v="153063" />
	</node>
	<node id="-532088" lat="61.5423666672" lon="6.41872777303">
		<tag k="name" v="Rabben" />
		<tag k="natural" v="hill" />
		<tag k="place" v="locality" />
		<tag k="ssr:stedsnr" v="153061" />
	</node>
	<node id="-532087" lat="61.536058337" lon="6.41681389108">
		<tag k="name" v="Storskredhammaren" />
		<tag k="natural" v="hill" />
		<tag k="place" v="locality" />
		<tag k="ssr:stedsnr" v="153060" />
	</node>
	<node id="-532086" lat="61.5585277739" lon="6.46925555172">
		<tag k="name" v="Høgdene" />
		<tag k="natural" v="hill" />
		<tag k="place" v="locality" />
		<tag k="ssr:stedsnr" v="153056" />
	</node>
	<node id="-532085" lat="61.5662333347" lon="6.45109721387">
		<tag k="name" v="Garfjøsbakken" />
		<tag k="natural" v="slope" />
		<tag k="place" v="locality" />
		<tag k="ssr:stedsnr" v="153051" />
	</node>
	<node id="-532084" lat="61.5710361139" lon="6.47150277549">
		<tag k="name" v="Løberget" />
		<tag k="natural" v="hill" />
		<tag k="place" v="locality" />
		<tag k="ssr:stedsnr" v="153048" />
	</node>
	<node id="-532083" lat="61.5258944455" lon="6.49622777154">
		<tag k="name" v="Brekka" />
		<tag k="natural" v="slope" />
		<tag k="place" v="locality" />
		<tag k="ssr:stedsnr" v="153045" />
	</node>
	<node id="-532082" lat="61.5192722208" lon="6.42406666633">
		<tag k="name" v="Flatøyehaugen" />
		<tag k="natural" v="hill" />
		<tag k="place" v="locality" />
		<tag k="ssr:stedsnr" v="153041" />
	</node>
	<node id="-532081" lat="61.577072222" lon="6.33330556409">
		<tag k="name" v="Inste Osen" />
		<tag k="place" v="locality" />
		<tag k="ssr:stedsnr" v="153037" />
	</node>
	<node id="-532080" lat="61.5867944468" lon="6.31089443615">
		<tag k="name" v="Sætane" />
		<tag k="place" v="locality" />
		<tag k="ssr:stedsnr" v="153034" />
	</node>
	<node id="-532079" lat="61.558247218" lon="6.32530834037">
		<tag k="name" v="Øyabakken" />
		<tag k="natural" v="slope" />
		<tag k="place" v="locality" />
		<tag k="ssr:stedsnr" v="153011" />
	</node>
	<node id="-532078" lat="61.5578833355" lon="6.33366944544">
		<tag k="name" v="Kloppene" />
		<tag k="place" v="locality" />
		<tag k="ssr:stedsnr" v="153010" />
	</node>
	<node id="-532077" lat="61.5030916631" lon="6.31050278288">
		<tag k="name" v="Heia" />
		<tag k="natural" v="hill" />
		<tag k="place" v="locality" />
		<tag k="ssr:stedsnr" v="153003" />
	</node>
	<node id="-532076" lat="61.5065888911" lon="6.31739444031">
		<tag k="name" v="Nova" />
		<tag k="natural" v="hill" />
		<tag k="place" v="locality" />
		<tag k="ssr:stedsnr" v="153002" />
	</node>
	<node id="-532075" lat="61.5499861067" lon="6.22447499124">
		<tag k="name" v="Nedrebødalen" />
		<tag k="natural" v="valley" />
		<tag k="place" v="locality" />
		<tag k="ssr:stedsnr" v="142600" />
	</node>
	<node id="-532074" lat="61.5104055566" lon="6.45175000016">
		<tag k="name" v="Fagredalen" />
		<tag k="natural" v="valley" />
		<tag k="place" v="locality" />
		<tag k="ssr:stedsnr" v="142598" />
	</node>
	<node id="-532072" lat="61.4869444427" lon="6.0315944522">
		<tag k="name" v="Støylshaugen" />
		<tag k="natural" v="hill" />
		<tag k="place" v="locality" />
		<tag k="ssr:stedsnr" v="141778" />
	</node>
	<node id="-532069" lat="61.596294446" lon="6.24666110781">
		<tag k="name" v="Litlebotn" />
		<tag k="natural" v="valley" />
		<tag k="place" v="locality" />
		<tag k="ssr:stedsnr" v="131029" />
	</node>
	<node id="-532066" lat="61.5761500016" lon="6.25581666447">
		<tag k="name" v="Reset" />
		<tag k="natural" v="slope" />
		<tag k="place" v="locality" />
		<tag k="ssr:stedsnr" v="131008" />
	</node>
	<node id="-532062" lat="61.5531944403" lon="6.58550277298">
		<tag k="fixme" v="consider natural=peak for the most distinct mountains in the district" />
		<tag k="name" v="Trollebottsnova" />
		<tag k="natural" v="hill" />
		<tag k="place" v="locality" />
		<tag k="ssr:stedsnr" v="130978" />
	</node>
	<node id="-532060" lat="61.5640777812" lon="6.23316944193">
		<tag k="fixme" v="consider natural=peak for the most distinct mountains in the district" />
		<tag k="name" v="Trollet" />
		<tag k="natural" v="hill" />
		<tag k="place" v="locality" />
		<tag k="ssr:stedsnr" v="130933" />
	</node>
	<node id="-532056" lat="61.5937888928" lon="6.79410556021">
		<tag k="fixme" v="consider natural=peak for the most distinct mountains in the district" />
		<tag k="name" v="Storenyken" />
		<tag k="natural" v="hill" />
		<tag k="place" v="locality" />
		<tag k="ssr:stedsnr" v="130826" />
	</node>
	<node id="-532055" lat="61.5716138931" lon="6.60535555495">
		<tag k="name" v="Steinbotnen" />
		<tag k="natural" v="valley" />
		<tag k="place" v="locality" />
		<tag k="ssr:stedsnr" v="130824" />
	</node>
	<node id="-532054" lat="61.5750194445" lon="6.67764167215">
		<tag k="name" v="Skaret" />
		<tag k="natural" v="valley" />
		<tag k="place" v="locality" />
		<tag k="ssr:stedsnr" v="130822" />
	</node>
	<node id="-532048" lat="61.4902111079" lon="6.62961666748">
		<tag k="fixme" v="consider natural=peak for the most distinct mountains in the district" />
		<tag k="name" v="Kinnaklypnova" />
		<tag k="natural" v="hill" />
		<tag k="place" v="locality" />
		<tag k="ssr:stedsnr" v="129857" />
	</node>
	<node id="-532047" lat="61.4904333359" lon="6.29913332649">
		<tag k="name" v="Bjørndalen" />
		<tag k="natural" v="valley" />
		<tag k="place" v="locality" />
		<tag k="ssr:stedsnr" v="129702" />
	</node>
	<node id="-532038" lat="61.6237694402" lon="6.65747500671">
		<tag k="name" v="Litlerabben ytste" />
		<tag k="natural" v="hill" />
		<tag k="place" v="locality" />
		<tag k="ssr:stedsnr" v="93751" />
	</node>
	<node id="-532036" lat="61.606405559" lon="6.59553334093">
		<tag k="name" v="Brisingehaugane" />
		<tag k="natural" v="hill" />
		<tag k="place" v="locality" />
		<tag k="ssr:stedsnr" v="93820" />
	</node>
	<node id="-532035" lat="61.6009472262" lon="6.56657777065">
		<tag k="name" v="Skåhammarsvaet" />
		<tag k="place" v="locality" />
		<tag k="ssr:stedsnr" v="93808" />
	</node>
	<node id="-532034" lat="61.6136555551" lon="6.57954444865">
		<tag k="name" v="Alkråa" />
		<tag k="natural" v="hill" />
		<tag k="place" v="locality" />
		<tag k="ssr:stedsnr" v="93803" />
	</node>
	<node id="-532033" lat="61.5435694435" lon="6.23983055922">
		<tag k="name" v="Skakjen" />
		<tag k="place" v="locality" />
		<tag k="ssr:stedsnr" v="93200" />
	</node>
	<node id="-532032" lat="61.5257805577" lon="6.36627499361">
		<tag k="name" v="Storegjelet" />
		<tag k="natural" v="valley" />
		<tag k="place" v="locality" />
		<tag k="ssr:stedsnr" v="93196" />
	</node>
	<node id="-532030" lat="61.4913916659" lon="6.19202222622">
		<tag k="name" v="Ørnebotnen" />
		<tag k="natural" v="valley" />
		<tag k="place" v="locality" />
		<tag k="ssr:stedsnr" v="93174" />
	</node>
	<node id="-532029" lat="61.4612666698" lon="6.19547222088">
		<tag k="name" v="Bygdahaugen" />
		<tag k="natural" v="hill" />
		<tag k="place" v="locality" />
		<tag k="ssr:stedsnr" v="93169" />
	</node>
	<node id="-532027" lat="61.4619333294" lon="6.12460277283">
		<tag k="name" v="Øykjebotnen" />
		<tag k="natural" v="valley" />
		<tag k="place" v="locality" />
		<tag k="ssr:stedsnr" v="93129" />
	</node>
	<node id="-532026" lat="61.4849611097" lon="6.11001666094">
		<tag k="name" v="Brendehaugen" />
		<tag k="natural" v="hill" />
		<tag k="place" v="locality" />
		<tag k="ssr:stedsnr" v="93122" />
	</node>
	<node id="-532025" lat="61.4571972232" lon="6.14807221976">
		<tag k="name" v="Rustene" />
		<tag k="place" v="locality" />
		<tag k="ssr:stedsnr" v="93116" />
	</node>
	<node id="-532024" lat="61.496116664" lon="6.01582777532">
		<tag k="name" v="Blombakkane" />
		<tag k="natural" v="slope" />
		<tag k="place" v="locality" />
		<tag k="ssr:stedsnr" v="93114" />
	</node>
	<node id="-532023" lat="61.4667277781" lon="6.04226388844">
		<tag k="name" v="Indre Eikåsbakkane" />
		<tag k="natural" v="slope" />
		<tag k="place" v="locality" />
		<tag k="ssr:stedsnr" v="93110" />
	</node>
	<node id="-532022" lat="61.4714555512" lon="6.07294166348">
		<tag k="name" v="Vesleberget" />
		<tag k="natural" v="hill" />
		<tag k="place" v="locality" />
		<tag k="ssr:stedsnr" v="93107" />
	</node>
	<node id="-532020" lat="61.5120805588" lon="6.62260555053">
		<tag k="name" v="Nonstadgjelet" />
		<tag k="natural" v="valley" />
		<tag k="place" v="locality" />
		<tag k="ssr:stedsnr" v="93097" />
	</node>
	<node id="-532019" lat="61.6212861069" lon="6.52889721847">
		<tag k="name" v="Gomorøyna" />
		<tag k="place" v="locality" />
		<tag k="ssr:stedsnr" v="93088" />
	</node>
	<node id="-532018" lat="61.6207833364" lon="6.42945833292">
		<tag k="name" v="Omnen" />
		<tag k="natural" v="hill" />
		<tag k="place" v="locality" />
		<tag k="ssr:stedsnr" v="93077" />
	</node>
	<node id="-532017" lat="61.5774972246" lon="6.51965833851">
		<tag k="name" v="Kviene" />
		<tag k="place" v="locality" />
		<tag k="ssr:stedsnr" v="93070" />
	</node>
	<node id="-532015" lat="61.5385472182" lon="6.4447500013">
		<tag k="name" v="Liabotnen" />
		<tag k="natural" v="valley" />
		<tag k="place" v="locality" />
		<tag k="ssr:stedsnr" v="93052" />
	</node>
	<node id="-532014" lat="61.5354305576" lon="6.30951943544">
		<tag k="name" v="Gjøtta" />
		<tag k="natural" v="hill" />
		<tag k="place" v="locality" />
		<tag k="ssr:stedsnr" v="93029" />
	</node>
	<node id="-532013" lat="61.5518083315" lon="6.31116943749">
		<tag k="name" v="Litlebotnen" />
		<tag k="natural" v="valley" />
		<tag k="place" v="locality" />
		<tag k="ssr:stedsnr" v="93022" />
	</node>
	<node id="-532011" lat="61.6287583373" lon="6.30046388886">
		<tag k="name" v="Kupa" />
		<tag k="natural" v="valley" />
		<tag k="place" v="locality" />
		<tag k="ssr:stedsnr" v="82603" />
	</node>
	<node id="-532010" lat="61.5441250015" lon="6.19776388593">
		<tag k="fixme" v="consider natural=peak for the most distinct mountains in the district" />
		<tag k="name" v="Blånipa" />
		<tag k="natural" v="hill" />
		<tag k="ssr:stedsnr" v="73472" />
	</node>
	<node id="-532008" lat="61.5553833354" lon="6.52076944066">
		<tag k="fixme" v="consider natural=peak for the most distinct mountains in the district" />
		<tag k="name" v="Skafonnfjellet" />
		<tag k="natural" v="hill" />
		<tag k="place" v="locality" />
		<tag k="ssr:stedsnr" v="70983" />
	</node>
	<node id="-532006" lat="61.6194944443" lon="6.39037777715">
		<tag k="name" v="Raudskarnakken" />
		<tag k="natural" v="hill" />
		<tag k="place" v="locality" />
		<tag k="ssr:stedsnr" v="71031" />
	</node>
	<node id="-532004" lat="61.6039250025" lon="6.43796943906">
		<tag k="fixme" v="consider natural=peak for the most distinct mountains in the district" />
		<tag k="name" v="Nipa" />
		<tag k="natural" v="hill" />
		<tag k="place" v="locality" />
		<tag k="ssr:stedsnr" v="71015" />
	</node>
	<node id="-532003" lat="61.5662749971" lon="6.21879166811">
		<tag k="name" v="Sølvet" />
		<tag k="place" v="locality" />
		<tag k="ssr:stedsnr" v="70942" />
	</node>
	<node id="-532001" lat="61.6464527751" lon="6.76489999435">
		<tag k="name" v="Tverrfjellet" />
		<tag k="natural" v="hill" />
		<tag k="place" v="locality" />
		<tag k="ssr:stedsnr" v="70938" />
	</node>
	<node id="-532000" lat="61.6477166634" lon="6.77848056377">
		<tag k="fixme" v="consider natural=peak for the most distinct mountains in the district" />
		<tag k="name" v="Hanekammen" />
		<tag k="natural" v="hill" />
		<tag k="place" v="locality" />
		<tag k="ssr:stedsnr" v="70936" />
	</node>
	<node id="-531998" lat="61.661569446" lon="6.77128610387">
		<tag k="name" v="Oldeskaret" />
		<tag k="natural" v="valley" />
		<tag k="place" v="locality" />
		<tag k="ssr:stedsnr" v="70932" />
	</node>
	<node id="-531997" lat="61.499777777" lon="6.32906943878">
		<tag k="fixme" v="consider natural=peak for the most distinct mountains in the district" />
		<tag k="name" v="Åsfjellet" />
		<tag k="natural" v="hill" />
		<tag k="place" v="locality" />
		<tag k="ssr:stedsnr" v="70887" />
	</node>
	<node id="-531995" lat="61.5882472179" lon="6.73790277882">
		<tag k="name" v="Langedalen" />
		<tag k="natural" v="valley" />
		<tag k="place" v="locality" />
		<tag k="ssr:stedsnr" v="70838" />
	</node>
	<node id="-531993" lat="61.5882555567" lon="6.70780555591">
		<tag k="fixme" v="consider natural=peak for the most distinct mountains in the district" />
		<tag k="name" v="Langedalsegga" />
		<tag k="natural" v="hill" />
		<tag k="place" v="locality" />
		<tag k="ssr:stedsnr" v="70814" />
	</node>
	<node id="-531991" lat="61.6426027775" lon="6.65029443698">
		<tag k="name" v="Sollibotnen" />
		<tag k="natural" v="valley" />
		<tag k="place" v="locality" />
		<tag k="ssr:stedsnr" v="70810" />
	</node>
	<node id="-531987" lat="61.5092083292" lon="6.10238610234">
		<tag k="fixme" v="consider natural=peak for the most distinct mountains in the district" />
		<tag k="name" v="Tindefjellet" />
		<tag k="natural" v="hill" />
		<tag k="place" v="locality" />
		<tag k="ssr:stedsnr" v="70131" />
	</node>
	<node id="-531986" lat="61.635674996" lon="6.40526943785">
		<tag k="fixme" v="consider natural=peak for the most distinct mountains in the district" />
		<tag k="name" v="Skjorta" />
		<tag k="natural" v="hill" />
		<tag k="place" v="locality" />
		<tag k="ssr:stedsnr" v="70038" />
	</node>
	<node id="-531981" lat="61.4689611087" lon="6.12058612056">
		<tag k="fixme" v="consider natural=peak for the most distinct mountains in the district" />
		<tag k="name" v="Varden" />
		<tag k="natural" v="hill" />
		<tag k="place" v="locality" />
		<tag k="ssr:stedsnr" v="68307" />
	</node>
	<node id="-531976" lat="61.6161972202" lon="6.61803889062">
		<tag k="name" v="Merkingshaugen" />
		<tag k="natural" v="hill" />
		<tag k="place" v="locality" />
		<tag k="ssr:stedsnr" v="32862" />
	</node>
	<node id="-531975" lat="61.6221361117" lon="6.63380278143">
		<tag k="name" v="Hovden" />
		<tag k="natural" v="hill" />
		<tag k="place" v="locality" />
		<tag k="ssr:stedsnr" v="32859" />
	</node>
	<node id="-531973" lat="61.6114944475" lon="6.54986943817">
		<tag k="name" v="Langeskorhaugen" />
		<tag k="natural" v="hill" />
		<tag k="place" v="locality" />
		<tag k="ssr:stedsnr" v="32845" />
	</node>
	<node id="-531972" lat="61.489219446" lon="6.02821389611">
		<tag k="name" v="Bakkane" />
		<tag k="natural" v="slope" />
		<tag k="place" v="locality" />
		<tag k="ssr:stedsnr" v="32835" />
	</node>
	<node id="-531971" lat="61.4904416639" lon="6.04413611788">
		<tag k="name" v="Halvfarhaugen" />
		<tag k="natural" v="hill" />
		<tag k="place" v="locality" />
		<tag k="ssr:stedsnr" v="32834" />
	</node>
	<node id="-531968" lat="61.4520472212" lon="6.14915277136">
		<tag k="name" v="Vesle-Botnen" />
		<tag k="natural" v="valley" />
		<tag k="place" v="locality" />
		<tag k="ssr:stedsnr" v="32826" />
	</node>
	<node id="-531967" lat="61.4717972204" lon="6.01956111394">
		<tag k="name" v="Eikåslia" />
		<tag k="natural" v="slope" />
		<tag k="place" v="locality" />
		<tag k="ssr:stedsnr" v="32823" />
	</node>
	<node id="-531963" lat="61.5815222239" lon="6.73374723111">
		<tag k="name" v="Kvannebotnen" />
		<tag k="natural" v="valley" />
		<tag k="place" v="locality" />
		<tag k="ssr:stedsnr" v="32777" />
	</node>
	<node id="-531961" lat="61.4578500016" lon="6.02644722634">
		<tag k="name" v="Kleiva" />
		<tag k="natural" v="slope" />
		<tag k="place" v="locality" />
		<tag k="ssr:stedsnr" v="32320" />
	</node>
	<node id="-531960" lat="61.527244445" lon="6.38327222467">
		<tag k="name" v="Orkahamrane" />
		<tag k="natural" v="hill" />
		<tag k="place" v="locality" />
		<tag k="ssr:stedsnr" v="32186" />
	</node>
	<node id="-531958" lat="61.5570805596" lon="6.26680000652">
		<tag k="fixme" v="consider natural=peak for the most distinct mountains in the district" />
		<tag k="name" v="Haukhamrefjellet" />
		<tag k="natural" v="hill" />
		<tag k="place" v="locality" />
		<tag k="ssr:stedsnr" v="32177" />
	</node>
	<node id="-531957" lat="61.4644611094" lon="6.19412221619">
		<tag k="name" v="Storehola" />
		<tag k="natural" v="valley" />
		<tag k="place" v="locality" />
		<tag k="ssr:stedsnr" v="32157" />
	</node>
	<node id="-531956" lat="61.462894441" lon="6.18918611027">
		<tag k="name" v="Storegjerdet" />
		<tag k="place" v="locality" />
		<tag k="ssr:stedsnr" v="32158" />
	</node>
	<node id="-531955" lat="61.5266833309" lon="6.19378610929">
		<tag k="name" v="Brekkene" />
		<tag k="natural" v="slope" />
		<tag k="place" v="locality" />
		<tag k="ssr:stedsnr" v="32151" />
	</node>
	<node id="-531954" lat="61.5271305536" lon="6.18259167419">
		<tag k="name" v="Djupegjelet" />
		<tag k="place" v="locality" />
		<tag k="ssr:stedsnr" v="32143" />
	</node>
	<node id="-531953" lat="61.5228833348" lon="6.17683332758">
		<tag k="name" v="Langhamrane" />
		<tag k="natural" v="hill" />
		<tag k="place" v="locality" />
		<tag k="ssr:stedsnr" v="32141" />
	</node>
	<node id="-531950" lat="61.5036361095" lon="6.13050555974">
		<tag k="name" v="Merkehaugen" />
		<tag k="natural" v="hill" />
		<tag k="place" v="locality" />
		<tag k="ssr:stedsnr" v="32132" />
	</node>
	<node id="-531948" lat="61.5264527806" lon="6.1158444398">
		<tag k="name" v="Storehola" />
		<tag k="natural" v="valley" />
		<tag k="place" v="locality" />
		<tag k="ssr:stedsnr" v="32128" />
	</node>
	<node id="-531945" lat="61.475033329" lon="6.0864083344">
		<tag k="name" v="Sjetdikshammaren" />
		<tag k="natural" v="hill" />
		<tag k="place" v="locality" />
		<tag k="ssr:stedsnr" v="32099" />
	</node>
	<node id="-531941" lat="61.6402722266" lon="6.42733332719">
		<tag k="name" v="Alteigane" />
		<tag k="place" v="locality" />
		<tag k="ssr:stedsnr" v="32082" />
	</node>
	<node id="-531940" lat="61.6346777734" lon="6.42952778378">
		<tag k="name" v="Steikjesvodene" />
		<tag k="place" v="locality" />
		<tag k="ssr:stedsnr" v="32079" />
	</node>
	<node id="-531938" lat="61.5469416659" lon="6.44006110439">
		<tag k="name" v="Krampehaugen" />
		<tag k="natural" v="hill" />
		<tag k="place" v="locality" />
		<tag k="ssr:stedsnr" v="32059" />
	</node>
	<node id="-531937" lat="61.5434138918" lon="6.44232499287">
		<tag k="name" v="Hamrane" />
		<tag k="natural" v="hill" />
		<tag k="place" v="locality" />
		<tag k="ssr:stedsnr" v="32054" />
	</node>
	<node id="-531930" lat="61.5886000029" lon="6.57944999282">
		<tag k="name" v="Grepstadbotnen" />
		<tag k="natural" v="valley" />
		<tag k="place" v="locality" />
		<tag k="ssr:stedsnr" v="10012" />
	</node>
	<node id="-531929" lat="61.5325888908" lon="6.248525009">
		<tag k="fixme" v="consider natural=peak for the most distinct mountains in the district" />
		<tag k="name" v="Hegrenesåsen" />
		<tag k="natural" v="hill" />
		<tag k="place" v="locality" />
		<tag k="ssr:stedsnr" v="9989" />
	</node>
	<node id="-531925" lat="61.5389083318" lon="6.2995305644">
		<tag k="fixme" v="consider natural=peak for the most distinct mountains in the district" />
		<tag k="name" v="Bjørsetfjellet" />
		<tag k="natural" v="hill" />
		<tag k="place" v="locality" />
		<tag k="ssr:stedsnr" v="9977" />
	</node>
	<node id="-531919" lat="61.5180499978" lon="6.54459999547">
		<tag k="name" v="Breelvskaret" />
		<tag k="natural" v="valley" />
		<tag k="place" v="locality" />
		<tag k="ssr:stedsnr" v="9866" />
	</node>
	<node id="-531917" lat="61.6003500001" lon="6.76243611952">
		<tag k="name" v="Tverrdalen" />
		<tag k="natural" v="valley" />
		<tag k="place" v="locality" />
		<tag k="ssr:stedsnr" v="9844" />
	</node>
	<node id="-531913" lat="61.6077999993" lon="6.80468888073">
		<tag k="name" v="Geitafjellet" />
		<tag k="natural" v="hill" />
		<tag k="place" v="locality" />
		<tag k="ssr:stedsnr" v="9817" />
	</node>
	<node id="-531912" lat="61.5703333327" lon="6.18928055562">
		<tag k="fixme" v="consider natural=peak for the most distinct mountains in the district" />
		<tag k="name" v="Syskarnipa" />
		<tag k="natural" v="hill" />
		<tag k="place" v="locality" />
		<tag k="ssr:stedsnr" v="9158" />
	</node>
	<node id="-531911" lat="61.5305138871" lon="6.0844638836">
		<tag k="fixme" v="consider natural=peak for the most distinct mountains in the district" />
		<tag k="name" v="Botnafjellet" />
		<tag k="natural" v="hill" />
		<tag k="place" v="locality" />
		<tag k="ssr:stedsnr" v="9129" />
	</node>
	<node id="-531909" lat="61.483324997" lon="6.34894999525">
		<tag k="fixme" v="consider natural=peak for the most distinct mountains in the district" />
		<tag k="name" v="Flateeggane" />
		<tag k="natural" v="hill" />
		<tag k="place" v="locality" />
		<tag k="ssr:stedsnr" v="7659" />
	</node>
	<node id="-531908" lat="61.463227774" lon="6.3367861071">
		<tag k="fixme" v="consider natural=peak for the most distinct mountains in the district" />
		<tag k="name" v="Styggevassegga" />
		<tag k="natural" v="hill" />
		<tag k="place" v="locality" />
		<tag k="ssr:stedsnr" v="7633" />
	</node>
	<node id="-531906" lat="61.4705916674" lon="5.99052499391">
		<tag k="fixme" v="consider natural=peak for the most distinct mountains in the district" />
		<tag k="name" v="Eikåsnipa" />
		<tag k="natural" v="hill" />
		<tag k="place" v="locality" />
		<tag k="ssr:stedsnr" v="7295" />
	</node>
	<node id="-531905" lat="61.5855750037" lon="6.80893610182">
		<tag k="name" v="Bings gryte" />
		<tag k="natural" v="valley" />
		<tag k="place" v="locality" />
		<tag k="ssr:stedsnr" v="555832" />
	</node>
	<node id="-531902" lat="61.611505553" lon="6.5404555537">
		<tag k="name" v="Klakeggsflatene" />
		<tag k="place" v="locality" />
		<tag k="ssr:stedsnr" v="882816" />
	</node>
	<node id="-531901" lat="61.5123666711" lon="6.63345556431">
		<tag k="name" v="Middagsgjelet" />
		<tag k="natural" v="valley" />
		<tag k="place" v="locality" />
		<tag k="ssr:stedsnr" v="882797" />
	</node>
	<node id="-531900" lat="61.4878277741" lon="6.03472778095">
		<tag k="name" v="Selhaugen" />
		<tag k="natural" v="hill" />
		<tag k="place" v="locality" />
		<tag k="ssr:stedsnr" v="882788" />
	</node>
	<node id="-531899" lat="61.4783388858" lon="6.01049722099">
		<tag k="name" v="Store Merkesholten" />
		<tag k="natural" v="hill" />
		<tag k="place" v="locality" />
		<tag k="ssr:stedsnr" v="882777" />
	</node>
	<node id="-531898" lat="61.4796083305" lon="6.04327221759">
		<tag k="name" v="Djupegjelet" />
		<tag k="natural" v="gorge" />
		<tag k="ssr:stedsnr" v="882774" />
	</node>
	<node id="-531897" lat="61.6212555553" lon="6.6852555545">
		<tag k="name" v="Sveene" />
		<tag k="place" v="locality" />
		<tag k="ssr:stedsnr" v="882768" />
	</node>
	<node id="-531896" lat="61.6220666663" lon="6.70272777626">
		<tag k="fixme" v="consider natural=peak for the most distinct mountains in the district" />
		<tag k="name" v="Skafjellet" />
		<tag k="natural" v="hill" />
		<tag k="place" v="locality" />
		<tag k="ssr:stedsnr" v="882766" />
	</node>
	<node id="-531894" lat="61.4710805552" lon="5.99825277756">
		<tag k="name" v="Omnen" />
		<tag k="place" v="locality" />
		<tag k="ssr:stedsnr" v="882756" />
	</node>
	<node id="-531892" lat="61.6023194467" lon="6.75851666356">
		<tag k="name" v="Hovden" />
		<tag k="natural" v="hill" />
		<tag k="place" v="locality" />
		<tag k="ssr:stedsnr" v="882700" />
	</node>
	<node id="-531891" lat="61.4509972243" lon="6.01096111227">
		<tag k="name" v="Åna" />
		<tag k="place" v="locality" />
		<tag k="ssr:stedsnr" v="882321" />
	</node>
	<node id="-531890" lat="61.6274361155" lon="6.72295555531">
		<tag k="name" v="Åmotsdalen" />
		<tag k="natural" v="valley" />
		<tag k="place" v="locality" />
		<tag k="ssr:stedsnr" v="882309" />
	</node>
	<node id="-531888" lat="61.5282111153" lon="6.36948333019">
		<tag k="name" v="Svartegjelet" />
		<tag k="natural" v="valley" />
		<tag k="place" v="locality" />
		<tag k="ssr:stedsnr" v="882205" />
	</node>
	<node id="-531887" lat="61.5248111143" lon="6.3940694492">
		<tag k="name" v="Bakkeflata" />
		<tag k="place" v="locality" />
		<tag k="ssr:stedsnr" v="882196" />
	</node>
	<node id="-531884" lat="61.4985805544" lon="6.19003055934">
		<tag k="name" v="Telekvia" />
		<tag k="place" v="locality" />
		<tag k="ssr:stedsnr" v="882176" />
	</node>
	<node id="-531883" lat="61.4788111076" lon="6.26651944582">
		<tag k="name" v="Gamlestøylshamrane" />
		<tag k="natural" v="hill" />
		<tag k="place" v="locality" />
		<tag k="ssr:stedsnr" v="882164" />
	</node>
	<node id="-531881" lat="61.4926527781" lon="6.14672222079">
		<tag k="name" v="Gardsslåttene" />
		<tag k="place" v="locality" />
		<tag k="ssr:stedsnr" v="882148" />
	</node>
	<node id="-531880" lat="61.5079333299" lon="6.14115000866">
		<tag k="name" v="Slåttene" />
		<tag k="place" v="locality" />
		<tag k="ssr:stedsnr" v="882143" />
	</node>
	<node id="-531879" lat="61.4677277777" lon="6.13335555081">
		<tag k="name" v="Remmane" />
		<tag k="place" v="locality" />
		<tag k="ssr:stedsnr" v="882126" />
	</node>
	<node id="-531877" lat="61.5233833299" lon="6.08929165906">
		<tag k="name" v="Flugeskarbrekka" />
		<tag k="natural" v="valley" />
		<tag k="place" v="locality" />
		<tag k="ssr:stedsnr" v="882124" />
	</node>
	<node id="-531876" lat="61.4670000022" lon="6.16287499141">
		<tag k="name" v="Hjellholene" />
		<tag k="natural" v="valley" />
		<tag k="place" v="locality" />
		<tag k="ssr:stedsnr" v="882123" />
	</node>
	<node id="-531875" lat="61.5106222245" lon="6.03676943971">
		<tag k="name" v="Svartehamrane" />
		<tag k="natural" v="mountain_range" />
		<tag k="ssr:stedsnr" v="882118" />
	</node>
	<node id="-531873" lat="61.5200444413" lon="6.55630556149">
		<tag k="name" v="Brelsbakken" />
		<tag k="natural" v="slope" />
		<tag k="place" v="locality" />
		<tag k="ssr:stedsnr" v="882105" />
	</node>
	<node id="-531872" lat="61.6303777815" lon="6.52357500355">
		<tag k="name" v="Langhammaren" />
		<tag k="natural" v="hill" />
		<tag k="place" v="locality" />
		<tag k="ssr:stedsnr" v="882099" />
	</node>
	<node id="-531871" lat="61.6225583377" lon="6.52784722945">
		<tag k="name" v="Langøyna" />
		<tag k="place" v="locality" />
		<tag k="ssr:stedsnr" v="882096" />
	</node>
	<node id="-531870" lat="61.6273222249" lon="6.43317499661">
		<tag k="name" v="Storesteinsvodene" />
		<tag k="place" v="locality" />
		<tag k="ssr:stedsnr" v="882091" />
	</node>
	<node id="-531868" lat="61.6399527823" lon="6.44869722034">
		<tag k="name" v="Båsen" />
		<tag k="place" v="locality" />
		<tag k="ssr:stedsnr" v="882081" />
	</node>
	<node id="-531866" lat="61.5358861122" lon="6.48598610892">
		<tag k="name" v="Haugen" />
		<tag k="natural" v="hill" />
		<tag k="place" v="locality" />
		<tag k="ssr:stedsnr" v="882070" />
	</node>
	<node id="-531865" lat="61.5672499958" lon="6.49957222697">
		<tag k="name" v="Fossebakkane" />
		<tag k="natural" v="slope" />
		<tag k="place" v="locality" />
		<tag k="ssr:stedsnr" v="882056" />
	</node>
	<node id="-531864" lat="61.5386055564" lon="6.38791389527">
		<tag k="name" v="Blomskreda" />
		<tag k="natural" v="gorge" />
		<tag k="ssr:stedsnr" v="882019" />
	</node>
	<node id="-531863" lat="61.5397111113" lon="6.38600000791">
		<tag k="fixme" v="consider natural=peak for the most distinct mountains in the district" />
		<tag k="name" v="Urafjellet" />
		<tag k="natural" v="hill" />
		<tag k="place" v="locality" />
		<tag k="ssr:stedsnr" v="882020" />
	</node>
	<node id="-531859" lat="61.4940499999" lon="6.29812221953">
		<tag k="name" v="Storesvorgjelet" />
		<tag k="natural" v="valley" />
		<tag k="place" v="locality" />
		<tag k="ssr:stedsnr" v="882003" />
	</node>
	<node id="-531855" lat="61.6079500035" lon="6.56835555685">
		<tag k="name" v="Ormehaugen" />
		<tag k="natural" v="hill" />
		<tag k="place" v="locality" />
		<tag k="ssr:stedsnr" v="396831" />
	</node>
	<node id="-531854" lat="61.6120944449" lon="6.57027778035">
		<tag k="name" v="Rogneskorhammaren" />
		<tag k="natural" v="hill" />
		<tag k="place" v="locality" />
		<tag k="ssr:stedsnr" v="396829" />
	</node>
	<node id="-531853" lat="61.5226861085" lon="6.63274721317">
		<tag k="fixme" v="consider natural=peak for the most distinct mountains in the district" />
		<tag k="name" v="Kvitefjellet" />
		<tag k="natural" v="hill" />
		<tag k="place" v="locality" />
		<tag k="ssr:stedsnr" v="396825" />
	</node>
	<node id="-531852" lat="61.5302916685" lon="6.60170556417">
		<tag k="name" v="Skredene" />
		<tag k="natural" v="valley" />
		<tag k="place" v="locality" />
		<tag k="ssr:stedsnr" v="396821" />
	</node>
	<node id="-531850" lat="61.4696694459" lon="6.04575555693">
		<tag k="name" v="Korsen" />
		<tag k="place" v="locality" />
		<tag k="ssr:stedsnr" v="396801" />
	</node>
	<node id="-531849" lat="61.625933337" lon="6.6571916735">
		<tag k="name" v="Bjønnarabben" />
		<tag k="natural" v="hill" />
		<tag k="place" v="locality" />
		<tag k="ssr:stedsnr" v="396783" />
	</node>
	<node id="-531847" lat="61.6166166705" lon="6.73666944868">
		<tag k="fixme" v="consider natural=peak for the most distinct mountains in the district" />
		<tag k="name" v="Geitafjellet" />
		<tag k="natural" v="hill" />
		<tag k="place" v="locality" />
		<tag k="ssr:stedsnr" v="396760" />
	</node>
	<node id="-531846" lat="61.4589666626" lon="6.04785000086">
		<tag k="name" v="Svarthamrane" />
		<tag k="natural" v="hill" />
		<tag k="place" v="locality" />
		<tag k="ssr:stedsnr" v="396317" />
	</node>
	<node id="-531845" lat="61.5314916659" lon="6.37794721427">
		<tag k="fixme" v="consider natural=peak for the most distinct mountains in the district" />
		<tag k="name" v="Kvitefjellet" />
		<tag k="natural" v="hill" />
		<tag k="place" v="locality" />
		<tag k="ssr:stedsnr" v="396193" />
	</node>
	<node id="-531844" lat="61.5239638931" lon="6.37491388635">
		<tag k="name" v="Ørningshaugane" />
		<tag k="natural" v="hill" />
		<tag k="place" v="locality" />
		<tag k="ssr:stedsnr" v="396192" />
	</node>
	<node id="-531843" lat="61.517372224" lon="6.37411667072">
		<tag k="name" v="Slåtterindane" />
		<tag k="place" v="locality" />
		<tag k="ssr:stedsnr" v="396191" />
	</node>
	<node id="-531842" lat="61.5628472229" lon="6.2532805641">
		<tag k="name" v="Blåfjellhamrane" />
		<tag k="natural" v="hill" />
		<tag k="place" v="locality" />
		<tag k="ssr:stedsnr" v="396185" />
	</node>
	<node id="-531840" lat="61.5542083358" lon="6.25244999483">
		<tag k="name" v="Gunnahammaren" />
		<tag k="natural" v="hill" />
		<tag k="place" v="locality" />
		<tag k="ssr:stedsnr" v="396178" />
	</node>
	<node id="-531839" lat="61.5021277784" lon="6.26740556403">
		<tag k="name" v="Tåene" />
		<tag k="place" v="locality" />
		<tag k="ssr:stedsnr" v="396166" />
	</node>
	<node id="-531837" lat="61.465716668" lon="6.21771111172">
		<tag k="name" v="Vasshaugane" />
		<tag k="natural" v="hill" />
		<tag k="place" v="locality" />
		<tag k="ssr:stedsnr" v="396156" />
	</node>
	<node id="-531836" lat="61.4652361119" lon="6.20606388687">
		<tag k="name" v="Langremmane" />
		<tag k="place" v="locality" />
		<tag k="ssr:stedsnr" v="396155" />
	</node>
	<node id="-531835" lat="61.4576055516" lon="6.17719722498">
		<tag k="name" v="Krokane" />
		<tag k="place" v="locality" />
		<tag k="ssr:stedsnr" v="396151" />
	</node>
	<node id="-531833" lat="61.4931833294" lon="6.15562222995">
		<tag k="name" v="Brunene" />
		<tag k="place" v="locality" />
		<tag k="ssr:stedsnr" v="396146" />
	</node>
	<node id="-531832" lat="61.5198555597" lon="6.12063055047">
		<tag k="name" v="Rustene" />
		<tag k="natural" v="plateau" />
		<tag k="ssr:stedsnr" v="396138" />
	</node>
	<node id="-531831" lat="61.529533336" lon="6.09973888348">
		<tag k="name" v="Bjørnakråa" />
		<tag k="place" v="locality" />
		<tag k="ssr:stedsnr" v="396115" />
	</node>
	<node id="-531830" lat="61.4648861151" lon="6.14533055782">
		<tag k="name" v="Krokane" />
		<tag k="place" v="locality" />
		<tag k="ssr:stedsnr" v="396111" />
	</node>
	<node id="-531829" lat="61.4934194448" lon="6.0269083387">
		<tag k="fixme" v="consider natural=peak for the most distinct mountains in the district" />
		<tag k="name" v="Storholten" />
		<tag k="natural" v="hill" />
		<tag k="place" v="locality" />
		<tag k="ssr:stedsnr" v="396109" />
	</node>
	<node id="-531828" lat="61.4920805593" lon="6.04023889193">
		<tag k="name" v="Høgehaugen" />
		<tag k="natural" v="hill" />
		<tag k="place" v="locality" />
		<tag k="ssr:stedsnr" v="396110" />
	</node>
	<node id="-531826" lat="61.5028055585" lon="6.04044166507">
		<tag k="name" v="Øyeflata" />
		<tag k="place" v="locality" />
		<tag k="ssr:stedsnr" v="396097" />
	</node>
	<node id="-531825" lat="61.6296444469" lon="6.5292722154">
		<tag k="name" v="Stigen" />
		<tag k="natural" v="hill" />
		<tag k="place" v="locality" />
		<tag k="ssr:stedsnr" v="396089" />
	</node>
	<node id="-531824" lat="61.6370805522" lon="6.42762499521">
		<tag k="name" v="Bakketeigen" />
		<tag k="place" v="locality" />
		<tag k="ssr:stedsnr" v="396077" />
	</node>
	<node id="-531822" lat="61.5893888897" lon="6.49016945226">
		<tag k="name" v="Mjølkeplassen" />
		<tag k="place" v="locality" />
		<tag k="ssr:stedsnr" v="396069" />
	</node>
	<node id="-531821" lat="61.6372083291" lon="6.44806111975">
		<tag k="name" v="Fjøsbergane" />
		<tag k="place" v="locality" />
		<tag k="ssr:stedsnr" v="396063" />
	</node>
	<node id="-531820" lat="61.6140111071" lon="6.51744721647">
		<tag k="name" v="Ormehaugane" />
		<tag k="natural" v="hill" />
		<tag k="place" v="locality" />
		<tag k="ssr:stedsnr" v="396062" />
	</node>
	<node id="-531819" lat="61.6088777824" lon="6.51175278455">
		<tag k="fixme" v="consider natural=peak for the most distinct mountains in the district" />
		<tag k="name" v="Litleåsen" />
		<tag k="natural" v="hill" />
		<tag k="place" v="locality" />
		<tag k="ssr:stedsnr" v="396060" />
	</node>
	<node id="-531818" lat="61.6075583303" lon="6.53170555214">
		<tag k="name" v="Haugane" />
		<tag k="natural" v="hill" />
		<tag k="place" v="locality" />
		<tag k="ssr:stedsnr" v="396057" />
	</node>
	<node id="-531817" lat="61.5386555525" lon="6.47816388351">
		<tag k="name" v="Geilane" />
		<tag k="place" v="locality" />
		<tag k="ssr:stedsnr" v="396055" />
	</node>
	<node id="-531815" lat="61.6173888886" lon="6.49095833253">
		<tag k="name" v="Klebersvora" />
		<tag k="natural" v="hill" />
		<tag k="place" v="locality" />
		<tag k="ssr:stedsnr" v="396052" />
	</node>
	<node id="-531813" lat="61.5865861075" lon="6.33295832886">
		<tag k="fixme" v="consider natural=peak for the most distinct mountains in the district" />
		<tag k="name" v="Blåfjellet" />
		<tag k="natural" v="hill" />
		<tag k="place" v="locality" />
		<tag k="ssr:stedsnr" v="396036" />
	</node>
	<node id="-531811" lat="61.5365638888" lon="6.37963332639">
		<tag k="name" v="Smellen" />
		<tag k="natural" v="hill" />
		<tag k="place" v="locality" />
		<tag k="ssr:stedsnr" v="396029" />
	</node>
	<node id="-531810" lat="61.5416277765" lon="6.389613898">
		<tag k="name" v="Per-Ola-Hammaren" />
		<tag k="natural" v="hill" />
		<tag k="place" v="locality" />
		<tag k="ssr:stedsnr" v="396026" />
	</node>
	<node id="-531809" lat="61.5533694461" lon="6.30869722092">
		<tag k="fixme" v="consider natural=peak for the most distinct mountains in the district" />
		<tag k="name" v="Bjørnefjellet" />
		<tag k="natural" v="hill" />
		<tag k="place" v="locality" />
		<tag k="ssr:stedsnr" v="396022" />
	</node>
	<node id="-531808" lat="61.5754944461" lon="6.40399443993">
		<tag k="name" v="Lægene" />
		<tag k="place" v="locality" />
		<tag k="ssr:stedsnr" v="396019" />
	</node>
	<node id="-531806" lat="61.5731638847" lon="6.32155000441">
		<tag k="name" v="Småhamrane" />
		<tag k="natural" v="ridge" />
		<tag k="place" v="locality" />
		<tag k="ssr:stedsnr" v="396013" />
	</node>
	<node id="-531800" lat="61.6012250016" lon="6.39878055644">
		<tag k="fixme" v="consider natural=peak for the most distinct mountains in the district" />
		<tag k="name" v="Brekkefjellet" />
		<tag k="natural" v="hill" />
		<tag k="place" v="locality" />
		<tag k="ssr:stedsnr" v="374018" />
	</node>
	<node id="-531795" lat="61.5778916685" lon="6.41123332453">
		<tag k="alt_name" v="Huusdalen" />
		<tag k="name" v="Husdalen" />
		<tag k="natural" v="valley" />
		<tag k="place" v="locality" />
		<tag k="ssr:stedsnr" v="374001" />
	</node>
	<node id="-531791" lat="61.5125000022" lon="6.49083332457">
		<tag k="name" v="Sandegga" />
		<tag k="natural" v="hill" />
		<tag k="place" v="locality" />
		<tag k="ssr:stedsnr" v="373897" />
	</node>
	<node id="-531789" lat="61.5686444479" lon="6.62911111285">
		<tag k="name" v="Rambjørgebotnen" />
		<tag k="natural" v="valley" />
		<tag k="place" v="locality" />
		<tag k="ssr:stedsnr" v="373853" />
	</node>
	<node id="-531788" lat="61.6510249984" lon="6.47324165831">
		<tag k="fixme" v="consider natural=peak for the most distinct mountains in the district" />
		<tag k="name" v="Daurmål" />
		<tag k="natural" v="hill" />
		<tag k="place" v="locality" />
		<tag k="ssr:stedsnr" v="373043" />
	</node>
	<node id="-531787" lat="61.6440333376" lon="6.48621666599">
		<tag k="fixme" v="consider natural=peak for the most distinct mountains in the district" />
		<tag k="name" v="Flategga" />
		<tag k="natural" v="hill" />
		<tag k="place" v="locality" />
		<tag k="ssr:stedsnr" v="373038" />
	</node>
	<node id="-531786" lat="61.4426555536" lon="6.14333333616">
		<tag k="fixme" v="consider natural=peak for the most distinct mountains in the district" />
		<tag k="name" v="Stølverlifjellet" />
		<tag k="natural" v="hill" />
		<tag k="place" v="locality" />
		<tag k="ssr:stedsnr" v="372370" />
	</node>
	<node id="-531776" lat="61.6152388892" lon="6.65298610359">
		<tag k="name" v="Løhaugen" />
		<tag k="natural" v="hill" />
		<tag k="place" v="locality" />
		<tag k="ssr:stedsnr" v="336866" />
	</node>
	<node id="-531775" lat="61.609355554" lon="6.59667777184">
		<tag k="name" v="Leite" />
		<tag k="place" v="locality" />
		<tag k="ssr:stedsnr" v="336854" />
	</node>
	<node id="-531774" lat="61.5177666641" lon="6.61925556449">
		<tag k="name" v="Sørøyane" />
		<tag k="place" v="locality" />
		<tag k="ssr:stedsnr" v="336835" />
	</node>
	<node id="-531773" lat="61.6256055555" lon="6.64417500269">
		<tag k="name" v="Sauelia" />
		<tag k="natural" v="slope" />
		<tag k="place" v="locality" />
		<tag k="ssr:stedsnr" v="336801" />
	</node>
	<node id="-531772" lat="61.6075972205" lon="6.74031667387">
		<tag k="name" v="Svorane" />
		<tag k="place" v="locality" />
		<tag k="ssr:stedsnr" v="336767" />
	</node>
	<node id="-531771" lat="61.4565666702" lon="5.99895000698">
		<tag k="name" v="Bosgargjelet" />
		<tag k="natural" v="valley" />
		<tag k="place" v="locality" />
		<tag k="ssr:stedsnr" v="336364" />
	</node>
	<node id="-531769" lat="61.5145166686" lon="6.13104444125">
		<tag k="fixme" v="consider natural=peak for the most distinct mountains in the district" />
		<tag k="name" v="Høgeholten" />
		<tag k="natural" v="hill" />
		<tag k="place" v="locality" />
		<tag k="ssr:stedsnr" v="336173" />
	</node>
	<node id="-531767" lat="61.5163166685" lon="6.07872777782">
		<tag k="name" v="Klondra" />
		<tag k="natural" v="hill" />
		<tag k="place" v="locality" />
		<tag k="ssr:stedsnr" v="336170" />
	</node>
	<node id="-531765" lat="61.5168083337" lon="6.14694166703">
		<tag k="name" v="Langevellene" />
		<tag k="place" v="locality" />
		<tag k="ssr:stedsnr" v="336163" />
	</node>
	<node id="-531764" lat="61.5201444433" lon="6.0665222208">
		<tag k="name" v="Elvabukta" />
		<tag k="place" v="locality" />
		<tag k="ssr:stedsnr" v="336153" />
	</node>
	<node id="-531762" lat="61.4680777794" lon="6.05041389263">
		<tag k="name" v="Øyane" />
		<tag k="place" v="locality" />
		<tag k="ssr:stedsnr" v="336138" />
	</node>
	<node id="-531761" lat="61.5152333333" lon="6.61400277371">
		<tag k="name" v="Storesteinbakken" />
		<tag k="natural" v="slope" />
		<tag k="place" v="locality" />
		<tag k="ssr:stedsnr" v="336125" />
	</node>
	<node id="-531760" lat="61.5961555519" lon="6.50449444911">
		<tag k="name" v="Urhammaren" />
		<tag k="natural" v="hill" />
		<tag k="place" v="locality" />
		<tag k="ssr:stedsnr" v="336093" />
	</node>
	<node id="-531758" lat="61.4952305528" lon="6.26407778564">
		<tag k="name" v="Slåttene" />
		<tag k="place" v="locality" />
		<tag k="ssr:stedsnr" v="335215" />
	</node>
	<node id="-531757" lat="61.5424027798" lon="6.24172500147">
		<tag k="name" v="Kammen" />
		<tag k="natural" v="slope" />
		<tag k="place" v="locality" />
		<tag k="ssr:stedsnr" v="335195" />
	</node>
	<node id="-531756" lat="61.4645277798" lon="6.18692221528">
		<tag k="name" v="Øykefloten" />
		<tag k="place" v="locality" />
		<tag k="ssr:stedsnr" v="335176" />
	</node>
	<node id="-531754" lat="61.5501722264" lon="6.49063888248">
		<tag k="name" v="Inste Litlefjellgjelet" />
		<tag k="natural" v="valley" />
		<tag k="place" v="locality" />
		<tag k="ssr:stedsnr" v="335061" />
	</node>
	<node id="-531752" lat="61.5651361135" lon="6.50596389208">
		<tag k="name" v="Løkabotnen" />
		<tag k="natural" v="valley" />
		<tag k="place" v="locality" />
		<tag k="ssr:stedsnr" v="335057" />
	</node>
	<node id="-531751" lat="61.5434305573" lon="6.41392500413">
		<tag k="name" v="Lyngnesrabben" />
		<tag k="natural" v="hill" />
		<tag k="place" v="locality" />
		<tag k="ssr:stedsnr" v="335055" />
	</node>
	<node id="-531750" lat="61.5792694433" lon="6.33187500664">
		<tag k="name" v="Volløyna" />
		<tag k="place" v="locality" />
		<tag k="ssr:stedsnr" v="335047" />
	</node>
	<node id="-531749" lat="61.5298916687" lon="6.42901665777">
		<tag k="name" v="Leitet" />
		<tag k="place" v="locality" />
		<tag k="ssr:stedsnr" v="335046" />
	</node>
	<node id="-531748" lat="61.5389138917" lon="6.37768333269">
		<tag k="name" v="Runnakyrkja" />
		<tag k="place" v="locality" />
		<tag k="ssr:stedsnr" v="335035" />
	</node>
	<node id="-531746" lat="61.5423972185" lon="6.32192778067">
		<tag k="name" v="Nakken" />
		<tag k="natural" v="hill" />
		<tag k="place" v="locality" />
		<tag k="ssr:stedsnr" v="335029" />
	</node>
	<node id="-531744" lat="61.5677944406" lon="6.38146943694">
		<tag k="name" v="Knaultren" />
		<tag k="natural" v="mountain_range" />
		<tag k="ssr:stedsnr" v="335024" />
	</node>
	<node id="-531743" lat="61.5636416694" lon="6.3601083271">
		<tag k="name" v="Høgeskorane" />
		<tag k="natural" v="valley" />
		<tag k="place" v="locality" />
		<tag k="ssr:stedsnr" v="335015" />
	</node>
	<node id="-531741" lat="61.6328305573" lon="6.4662194484">
		<tag k="fixme" v="consider natural=peak for the most distinct mountains in the district" />
		<tag k="name" v="Ytstekupa" />
		<tag k="natural" v="hill" />
		<tag k="place" v="locality" />
		<tag k="ssr:stedsnr" v="324605" />
	</node>
	<node id="-531740" lat="61.5747500034" lon="6.3302138958">
		<tag k="fixme" v="consider natural=peak for the most distinct mountains in the district" />
		<tag k="name" v="Ospehaugrinden" />
		<tag k="natural" v="hill" />
		<tag k="place" v="locality" />
		<tag k="ssr:stedsnr" v="93013" />
	</node>
	<node id="-531739" lat="61.5603222235" lon="6.33300277832">
		<tag k="name" v="Ågjelet" />
		<tag k="natural" v="valley" />
		<tag k="place" v="locality" />
		<tag k="ssr:stedsnr" v="93009" />
	</node>
	<node id="-531737" lat="61.6045333341" lon="6.72808054847">
		<tag k="alt_name" v="Skåfjell" />
		<tag k="fixme" v="consider natural=peak for the most distinct mountains in the district" />
		<tag k="name" v="Skåfjellet" />
		<tag k="natural" v="hill" />
		<tag k="place" v="locality" />
		<tag k="ssr:stedsnr" v="313857" />
	</node>
	<node id="-531736" lat="61.6127388848" lon="6.73773611119">
		<tag k="name" v="Blåfjellet" />
		<tag k="natural" v="hill" />
		<tag k="place" v="locality" />
		<tag k="ssr:stedsnr" v="313855" />
	</node>
	<node id="-531735" lat="61.5943499979" lon="6.60552499076">
		<tag k="fixme" v="consider natural=peak for the most distinct mountains in the district" />
		<tag k="name" v="Langefjellet" />
		<tag k="natural" v="hill" />
		<tag k="place" v="locality" />
		<tag k="ssr:stedsnr" v="313850" />
	</node>
	<node id="-531733" lat="61.5216944471" lon="6.17338054736">
		<tag k="fixme" v="consider natural=peak for the most distinct mountains in the district" />
		<tag k="name" v="Rimmeegga" />
		<tag k="natural" v="hill" />
		<tag k="place" v="locality" />
		<tag k="ssr:stedsnr" v="313164" />
	</node>
	<node id="-531732" lat="61.5242249977" lon="6.1680527715">
		<tag k="fixme" v="consider natural=peak for the most distinct mountains in the district" />
		<tag k="name" v="Høgebruna" />
		<tag k="natural" v="hill" />
		<tag k="place" v="locality" />
		<tag k="ssr:stedsnr" v="313163" />
	</node>
	<node id="-531729" lat="61.6407111109" lon="6.2856861051">
		<tag k="name" v="Trollekupa" />
		<tag k="natural" v="valley" />
		<tag k="place" v="locality" />
		<tag k="ssr:stedsnr" v="313053" />
	</node>
	<node id="-531722" lat="61.5769916657" lon="6.54502778023">
		<tag k="fixme" v="consider natural=peak for the most distinct mountains in the district" />
		<tag k="name" v="Rana" />
		<tag k="natural" v="hill" />
		<tag k="place" v="locality" />
		<tag k="ssr:stedsnr" v="312964" />
	</node>
	<node id="-531721" lat="61.5813888862" lon="6.55231110308">
		<tag k="name" v="Bolsetbotn" />
		<tag k="natural" v="valley" />
		<tag k="place" v="locality" />
		<tag k="ssr:stedsnr" v="312939" />
	</node>
	<node id="-531719" lat="61.5098305577" lon="6.46850555744">
		<tag k="fixme" v="consider natural=peak for the most distinct mountains in the district" />
		<tag k="name" v="Salsegga" />
		<tag k="natural" v="hill" />
		<tag k="place" v="locality" />
		<tag k="ssr:stedsnr" v="312880" />
	</node>
	<node id="-531716" lat="61.6298944447" lon="6.61025277195">
		<tag k="name" v="Kvanneskaret" />
		<tag k="natural" v="valley" />
		<tag k="place" v="locality" />
		<tag k="ssr:stedsnr" v="312792" />
	</node>
	<node id="-531715" lat="61.6272444419" lon="6.69895832439">
		<tag k="name" v="Trollebergsnova" />
		<tag k="natural" v="hill" />
		<tag k="place" v="locality" />
		<tag k="ssr:stedsnr" v="312788" />
	</node>
	<node id="-531713" lat="61.4815444449" lon="6.35995833568">
		<tag k="name" v="Skryklingsdalen" />
		<tag k="natural" v="valley" />
		<tag k="place" v="locality" />
		<tag k="ssr:stedsnr" v="311726" />
	</node>
	<node id="-531712" lat="61.4946166699" lon="6.32404721318">
		<tag k="name" v="Sandbotnen" />
		<tag k="natural" v="valley" />
		<tag k="place" v="locality" />
		<tag k="ssr:stedsnr" v="311719" />
	</node>
	<node id="-531710" lat="61.4577666637" lon="6.19775834036">
		<tag k="alt_name" v="Systestøylhaugen" />
		<tag k="name" v="Søstestøylshaugen" />
		<tag k="natural" v="hill" />
		<tag k="place" v="locality" />
		<tag k="ssr:stedsnr" v="311379" />
	</node>
	<node id="-531703" lat="61.4889083295" lon="6.01905000485">
		<tag k="alt_name" v="Strupen" />
		<tag k="name" v="Litledalsstrupen" />
		<tag k="natural" v="valley" />
		<tag k="place" v="locality" />
		<tag k="ssr:stedsnr" v="311336" />
	</node>
	<node id="-531701" lat="61.4928638847" lon="6.02652499234">
		<tag k="fixme" v="consider natural=peak for the most distinct mountains in the district" />
		<tag k="name" v="Grøneheia" />
		<tag k="natural" v="hill" />
		<tag k="place" v="locality" />
		<tag k="ssr:stedsnr" v="311321" />
	</node>
	<node id="-531699" lat="61.5308833358" lon="6.5048250065">
		<tag k="name" v="Nakken" />
		<tag k="natural" v="hill" />
		<tag k="place" v="locality" />
		<tag k="ssr:stedsnr" v="32040" />
	</node>
	<node id="-531698" lat="61.5292416662" lon="6.48882777048">
		<tag k="name" v="Nonsskargjelet" />
		<tag k="natural" v="valley" />
		<tag k="place" v="locality" />
		<tag k="ssr:stedsnr" v="32039" />
	</node>
	<node id="-531697" lat="61.524416663" lon="6.50198333063">
		<tag k="name" v="Grovadalen" />
		<tag k="natural" v="valley" />
		<tag k="place" v="locality" />
		<tag k="ssr:stedsnr" v="32035" />
	</node>
	<node id="-531696" lat="61.5520749975" lon="6.32265277603">
		<tag k="name" v="Nausa" />
		<tag k="place" v="locality" />
		<tag k="ssr:stedsnr" v="32021" />
	</node>
	<node id="-531693" lat="61.5687805514" lon="6.34531389518">
		<tag k="name" v="Brendehaugane" />
		<tag k="natural" v="hill" />
		<tag k="place" v="locality" />
		<tag k="ssr:stedsnr" v="32005" />
	</node>
	<node id="-531692" lat="61.6266250018" lon="6.6343999943">
		<tag k="name" v="Fjøshammaren" />
		<tag k="natural" v="hill" />
		<tag k="place" v="locality" />
		<tag k="ssr:stedsnr" v="275844" />
	</node>
	<node id="-531691" lat="61.6019083374" lon="6.55211389758">
		<tag k="name" v="Kviteblekhammaren" />
		<tag k="natural" v="hill" />
		<tag k="place" v="locality" />
		<tag k="ssr:stedsnr" v="275829" />
	</node>
	<node id="-531689" lat="61.6201694432" lon="6.67551388162">
		<tag k="fixme" v="consider natural=peak for the most distinct mountains in the district" />
		<tag k="name" v="Hauafjellet" />
		<tag k="natural" v="hill" />
		<tag k="place" v="locality" />
		<tag k="ssr:stedsnr" v="275802" />
	</node>
	<node id="-531688" lat="61.6193333315" lon="6.61706110639">
		<tag k="name" v="Svartesvedene" />
		<tag k="place" v="locality" />
		<tag k="ssr:stedsnr" v="275794" />
	</node>
	<node id="-531687" lat="61.5120666679" lon="6.67046388191">
		<tag k="fixme" v="consider natural=peak for the most distinct mountains in the district" />
		<tag k="name" v="Tverrfjellet" />
		<tag k="natural" v="hill" />
		<tag k="place" v="locality" />
		<tag k="ssr:stedsnr" v="275787" />
	</node>
	<node id="-531686" lat="61.5936194416" lon="6.7475027691">
		<tag k="name" v="Bakkane" />
		<tag k="natural" v="slope" />
		<tag k="place" v="locality" />
		<tag k="ssr:stedsnr" v="275763" />
	</node>
	<node id="-531685" lat="61.6055499961" lon="6.75056665962">
		<tag k="name" v="Storesvaet" />
		<tag k="place" v="locality" />
		<tag k="ssr:stedsnr" v="275757" />
	</node>
	<node id="-531684" lat="61.4587749967" lon="6.0059888848">
		<tag k="name" v="Bakkane" />
		<tag k="natural" v="slope" />
		<tag k="place" v="locality" />
		<tag k="ssr:stedsnr" v="275339" />
	</node>
	<node id="-531683" lat="61.4550416697" lon="6.00872777402">
		<tag k="name" v="Stolen" />
		<tag k="natural" v="hill" />
		<tag k="place" v="locality" />
		<tag k="ssr:stedsnr" v="275337" />
	</node>
	<node id="-531682" lat="61.4636750017" lon="6.00571389731">
		<tag k="name" v="Holten" />
		<tag k="natural" v="hill" />
		<tag k="place" v="locality" />
		<tag k="ssr:stedsnr" v="275327" />
	</node>
	<node id="-531681" lat="61.5313138849" lon="6.37191388776">
		<tag k="name" v="Reset" />
		<tag k="natural" v="hill" />
		<tag k="place" v="locality" />
		<tag k="ssr:stedsnr" v="275209" />
	</node>
	<node id="-531680" lat="61.5244416624" lon="6.36495834004">
		<tag k="name" v="Brunene" />
		<tag k="place" v="locality" />
		<tag k="ssr:stedsnr" v="275206" />
	</node>
	<node id="-531678" lat="61.4559000007" lon="6.18680556132">
		<tag k="name" v="Fessene" />
		<tag k="natural" v="slope" />
		<tag k="place" v="locality" />
		<tag k="ssr:stedsnr" v="275167" />
	</node>
	<node id="-531677" lat="61.5243388919" lon="6.18922777948">
		<tag k="fixme" v="consider natural=peak for the most distinct mountains in the district" />
		<tag k="name" v="Rokaholten" />
		<tag k="natural" v="hill" />
		<tag k="place" v="locality" />
		<tag k="ssr:stedsnr" v="275164" />
	</node>
	<node id="-531675" lat="61.4945861117" lon="6.10480555699">
		<tag k="name" v="Grovabakken" />
		<tag k="natural" v="slope" />
		<tag k="place" v="locality" />
		<tag k="ssr:stedsnr" v="275154" />
	</node>
	<node id="-531674" lat="61.5073583375" lon="6.12256944418">
		<tag k="name" v="Småskorane" />
		<tag k="natural" v="valley" />
		<tag k="place" v="locality" />
		<tag k="ssr:stedsnr" v="275148" />
	</node>
	<node id="-531672" lat="61.5220194422" lon="6.12232778191">
		<tag k="name" v="Leitehola" />
		<tag k="natural" v="valley" />
		<tag k="place" v="locality" />
		<tag k="ssr:stedsnr" v="275140" />
	</node>
	<node id="-531671" lat="61.5207249995" lon="6.16837499366">
		<tag k="fixme" v="consider natural=peak for the most distinct mountains in the district" />
		<tag k="name" v="Storehammaren" />
		<tag k="natural" v="hill" />
		<tag k="place" v="locality" />
		<tag k="ssr:stedsnr" v="275139" />
	</node>
	<node id="-531670" lat="61.5235833377" lon="6.16531943824">
		<tag k="fixme" v="consider natural=peak for the most distinct mountains in the district" />
		<tag k="name" v="Hapta" />
		<tag k="natural" v="hill" />
		<tag k="place" v="locality" />
		<tag k="ssr:stedsnr" v="275134" />
	</node>
	<node id="-531668" lat="61.5249055595" lon="6.10765555467">
		<tag k="name" v="Skarhaugen" />
		<tag k="natural" v="hill" />
		<tag k="place" v="locality" />
		<tag k="ssr:stedsnr" v="275125" />
	</node>
	<node id="-531667" lat="61.6270333317" lon="6.42884166189">
		<tag k="name" v="Brekka" />
		<tag k="natural" v="slope" />
		<tag k="place" v="locality" />
		<tag k="ssr:stedsnr" v="275097" />
	</node>
	<node id="-531666" lat="61.6217722188" lon="6.43602499109">
		<tag k="name" v="Kyrahammaren" />
		<tag k="natural" v="hill" />
		<tag k="place" v="locality" />
		<tag k="ssr:stedsnr" v="275093" />
	</node>
	<node id="-531664" lat="61.5850611074" lon="6.51384999484">
		<tag k="fixme" v="consider natural=peak for the most distinct mountains in the district" />
		<tag k="name" v="Brattefjellet" />
		<tag k="natural" v="hill" />
		<tag k="place" v="locality" />
		<tag k="ssr:stedsnr" v="275090" />
	</node>
	<node id="-531662" lat="61.5774527787" lon="6.46843334209">
		<tag k="fixme" v="consider natural=peak for the most distinct mountains in the district" />
		<tag k="name" v="Storefjellet" />
		<tag k="natural" v="hill" />
		<tag k="place" v="locality" />
		<tag k="ssr:stedsnr" v="275076" />
	</node>
	<node id="-531660" lat="61.5524639263" lon="6.47495209516">
		<tag k="name" v="Sveisbakken" />
		<tag k="natural" v="slope" />
		<tag k="place" v="locality" />
		<tag k="ssr:stedsnr" v="275064" />
	</node>
	<node id="-531659" lat="61.5652083354" lon="6.41404999125">
		<tag k="name" v="Skorabakkane" />
		<tag k="natural" v="slope" />
		<tag k="place" v="locality" />
		<tag k="ssr:stedsnr" v="275050" />
	</node>
	<node id="-531658" lat="61.5667583363" lon="6.43814999527">
		<tag k="name" v="Skarhammaren" />
		<tag k="natural" v="hill" />
		<tag k="place" v="locality" />
		<tag k="ssr:stedsnr" v="275049" />
	</node>
	<node id="-531656" lat="61.5320805601" lon="6.44728056374">
		<tag k="name" v="Høgeholten" />
		<tag k="natural" v="hill" />
		<tag k="place" v="locality" />
		<tag k="ssr:stedsnr" v="275038" />
	</node>
	<node id="-531655" lat="61.5335666636" lon="6.38015833496">
		<tag k="name" v="Stabben" />
		<tag k="natural" v="hill" />
		<tag k="place" v="locality" />
		<tag k="ssr:stedsnr" v="275031" />
	</node>
	<node id="-531653" lat="61.5446583296" lon="6.32512223093">
		<tag k="fixme" v="consider natural=peak for the most distinct mountains in the district" />
		<tag k="name" v="Litlefjellet" />
		<tag k="natural" v="hill" />
		<tag k="place" v="locality" />
		<tag k="ssr:stedsnr" v="275025" />
	</node>
	<node id="-531652" lat="61.5649388877" lon="6.40396389284">
		<tag k="name" v="Øyabakken" />
		<tag k="natural" v="slope" />
		<tag k="place" v="locality" />
		<tag k="ssr:stedsnr" v="275020" />
	</node>
	<node id="-531651" lat="61.5576305513" lon="6.35061388133">
		<tag k="fixme" v="consider natural=peak for the most distinct mountains in the district" />
		<tag k="name" v="Åsen" />
		<tag k="natural" v="hill" />
		<tag k="place" v="locality" />
		<tag k="ssr:stedsnr" v="275009" />
	</node>
	<node id="-532940" lat="61.6170916642" lon="6.72431943717">
		<tag k="name" v="Rema" />
		<tag k="natural" v="slope" />
		<tag k="place" v="locality" />
		<tag k="ssr:stedsnr" v="943778" />
	</node>
	<node id="-532939" lat="61.5802194469" lon="6.33320555068">
		<tag k="name" v="Engane" />
		<tag k="place" v="locality" />
		<tag k="ssr:stedsnr" v="943763" />
	</node>
	<node id="-532938" lat="61.5774944404" lon="6.74824166597">
		<tag k="name" v="Rimmane" />
		<tag k="place" v="locality" />
		<tag k="ssr:stedsnr" v="943759" />
	</node>
	<node id="-532936" lat="61.5152916669" lon="6.41042778187">
		<tag k="name" v="Bjørnehaugane" />
		<tag k="natural" v="hill" />
		<tag k="place" v="locality" />
		<tag k="ssr:stedsnr" v="943253" />
	</node>
	<node id="-532934" lat="61.4948249986" lon="6.19993889113">
		<tag k="name" v="Blåbotnen" />
		<tag k="natural" v="valley" />
		<tag k="place" v="locality" />
		<tag k="ssr:stedsnr" v="943233" />
	</node>
	<node id="-532931" lat="61.4924805568" lon="6.0993388966">
		<tag k="name" v="Kleivslevollen" />
		<tag k="place" v="locality" />
		<tag k="ssr:stedsnr" v="943210" />
	</node>
	<node id="-532930" lat="61.4942694467" lon="6.15290277439">
		<tag k="name" v="Toene" />
		<tag k="place" v="locality" />
		<tag k="ssr:stedsnr" v="943208" />
	</node>
	<node id="-532929" lat="61.4954388931" lon="6.15752500165">
		<tag k="name" v="Hamarslåttene" />
		<tag k="place" v="locality" />
		<tag k="ssr:stedsnr" v="943206" />
	</node>
	<node id="-532928" lat="61.4643527739" lon="6.13803332807">
		<tag k="name" v="Skitnebrekka" />
		<tag k="natural" v="valley" />
		<tag k="place" v="locality" />
		<tag k="ssr:stedsnr" v="943168" />
	</node>
	<node id="-532927" lat="61.4799027808" lon="6.10098055509">
		<tag k="fixme" v="consider natural=peak for the most distinct mountains in the district" />
		<tag k="name" v="Svaholten" />
		<tag k="natural" v="hill" />
		<tag k="place" v="locality" />
		<tag k="ssr:stedsnr" v="943144" />
	</node>
	<node id="-532926" lat="61.514658336" lon="6.61577499162">
		<tag k="name" v="Strandateigen" />
		<tag k="place" v="locality" />
		<tag k="ssr:stedsnr" v="943135" />
	</node>
	<node id="-532925" lat="61.6256777769" lon="6.52686388251">
		<tag k="name" v="Larsøyna" />
		<tag k="place" v="locality" />
		<tag k="ssr:stedsnr" v="943130" />
	</node>
	<node id="-532922" lat="61.5693805519" lon="6.44980278072">
		<tag k="name" v="Sjurkviflata" />
		<tag k="place" v="locality" />
		<tag k="ssr:stedsnr" v="943067" />
	</node>
	<node id="-532921" lat="61.572899998" lon="6.46579166288">
		<tag k="name" v="Bjørnahi" />
		<tag k="natural" v="slope" />
		<tag k="place" v="locality" />
		<tag k="ssr:stedsnr" v="943064" />
	</node>
	<node id="-532920" lat="61.5493361151" lon="6.32792500665">
		<tag k="name" v="Kalveskora" />
		<tag k="natural" v="valley" />
		<tag k="place" v="locality" />
		<tag k="ssr:stedsnr" v="943037" />
	</node>
	<node id="-532919" lat="61.5074305591" lon="6.31425555442">
		<tag k="name" v="Klype" />
		<tag k="natural" v="gorge" />
		<tag k="ssr:stedsnr" v="943003" />
	</node>
	<node id="-532918" lat="61.5152444413" lon="6.35763333435">
		<tag k="name" v="Goflebakkane" />
		<tag k="natural" v="slope" />
		<tag k="place" v="locality" />
		<tag k="ssr:stedsnr" v="942205" />
	</node>
	<node id="-532917" lat="61.5400944412" lon="6.43410277497">
		<tag k="name" v="Nyfjøsvollen" />
		<tag k="place" v="locality" />
		<tag k="ssr:stedsnr" v="942058" />
	</node>
	<node id="-532916" lat="61.5603472234" lon="6.39079444079">
		<tag k="name" v="Slåttene" />
		<tag k="place" v="locality" />
		<tag k="ssr:stedsnr" v="942015" />
	</node>
	<node id="-532914" lat="61.605052779" lon="6.60086667494">
		<tag k="name" v="Gjelholtane" />
		<tag k="natural" v="hill" />
		<tag k="place" v="locality" />
		<tag k="ssr:stedsnr" v="943847" />
	</node>
	<node id="-532913" lat="61.6032916687" lon="6.62250555693">
		<tag k="name" v="Blåsvedene" />
		<tag k="natural" v="hill" />
		<tag k="place" v="locality" />
		<tag k="ssr:stedsnr" v="943842" />
	</node>
	<node id="-532912" lat="61.6070194437" lon="6.6466333378">
		<tag k="name" v="Bjørnhaugen" />
		<tag k="natural" v="hill" />
		<tag k="place" v="locality" />
		<tag k="ssr:stedsnr" v="943839" />
	</node>
	<node id="-532911" lat="61.6002222196" lon="6.59609444858">
		<tag k="name" v="Rinden" />
		<tag k="natural" v="hill" />
		<tag k="place" v="locality" />
		<tag k="ssr:stedsnr" v="943840" />
	</node>
	<node id="-532910" lat="61.6154472197" lon="6.57435833228">
		<tag k="name" v="Sjølvskotet" />
		<tag k="place" v="locality" />
		<tag k="ssr:stedsnr" v="943829" />
	</node>
	<node id="-532905" lat="61.5629833369" lon="6.69076389484">
		<tag k="fixme" v="consider natural=peak for the most distinct mountains in the district" />
		<tag k="name" v="Snoadvarden" />
		<tag k="natural" v="hill" />
		<tag k="place" v="locality" />
		<tag k="ssr:stedsnr" v="920865" />
	</node>
	<node id="-532904" lat="61.5528749972" lon="6.61579999117">
		<tag k="fixme" v="consider natural=peak for the most distinct mountains in the district" />
		<tag k="name" v="Bjørga" />
		<tag k="natural" v="hill" />
		<tag k="place" v="locality" />
		<tag k="ssr:stedsnr" v="920863" />
	</node>
	<node id="-532903" lat="61.503091667" lon="6.60716945087">
		<tag k="fixme" v="consider natural=peak for the most distinct mountains in the district" />
		<tag k="name" v="Sygnesandsnipa" />
		<tag k="natural" v="hill" />
		<tag k="place" v="locality" />
		<tag k="ssr:stedsnr" v="920759" />
	</node>
	<node id="-532901" lat="61.5474666639" lon="6.19381666059">
		<tag k="name" v="Hellebotnen" />
		<tag k="natural" v="valley" />
		<tag k="place" v="locality" />
		<tag k="ssr:stedsnr" v="920167" />
	</node>
	<node id="-532898" lat="61.6263504544" lon="6.595042533">
		<tag k="fixme" v="consider natural=peak for the most distinct mountains in the district" />
		<tag k="name" v="Flatjordsnova" />
		<tag k="natural" v="hill" />
		<tag k="place" v="locality" />
		<tag k="ssr:stedsnr" v="920047" />
	</node>
	<node id="-532897" lat="61.6100027814" lon="6.38812499039">
		<tag k="fixme" v="consider natural=peak for the most distinct mountains in the district" />
		<tag k="name" v="Nydalsfjellet" />
		<tag k="natural" v="hill" />
		<tag k="place" v="locality" />
		<tag k="ssr:stedsnr" v="920042" />
	</node>
	<node id="-532896" lat="61.6216027768" lon="6.56045555284">
		<tag k="fixme" v="consider natural=peak for the most distinct mountains in the district" />
		<tag k="name" v="Heggheimsfjellet" />
		<tag k="natural" v="hill" />
		<tag k="place" v="locality" />
		<tag k="ssr:stedsnr" v="920034" />
	</node>
	<node id="-532895" lat="61.6037555524" lon="6.3261694539">
		<tag k="name" v="Instengbotn" />
		<tag k="natural" v="valley" />
		<tag k="place" v="locality" />
		<tag k="ssr:stedsnr" v="920031" />
	</node>
	<node id="-532892" lat="61.583455558" lon="6.28786945051">
		<tag k="name" v="Steinbotnen" />
		<tag k="natural" v="valley" />
		<tag k="place" v="locality" />
		<tag k="ssr:stedsnr" v="920016" />
	</node>
	<node id="-532891" lat="61.5930861136" lon="6.37065833771">
		<tag k="name" v="Langebotn" />
		<tag k="natural" v="valley" />
		<tag k="place" v="locality" />
		<tag k="ssr:stedsnr" v="920013" />
	</node>
	<node id="-532889" lat="61.5812166665" lon="6.36627500123">
		<tag k="name" v="Skaret" />
		<tag k="natural" v="valley" />
		<tag k="place" v="locality" />
		<tag k="ssr:stedsnr" v="920004" />
	</node>
	<node id="-532887" lat="61.5364249971" lon="6.57483610994">
		<tag k="alt_name" v="Førnesgjelet, in" />
		<tag k="name" v="Inste Førenesgjelet" />
		<tag k="natural" v="valley" />
		<tag k="place" v="locality" />
		<tag k="ssr:stedsnr" v="919978" />
	</node>
	<node id="-532886" lat="61.5357999967" lon="6.43839166387">
		<tag k="name" v="Bergsdal" />
		<tag k="natural" v="valley" />
		<tag k="place" v="locality" />
		<tag k="ssr:stedsnr" v="919976" />
	</node>
	<node id="-532884" lat="61.5726083299" lon="6.50524721553">
		<tag k="fixme" v="consider natural=peak for the most distinct mountains in the district" />
		<tag k="name" v="Nyken" />
		<tag k="natural" v="hill" />
		<tag k="place" v="locality" />
		<tag k="ssr:stedsnr" v="919950" />
	</node>
	<node id="-532883" lat="61.570019441" lon="6.28612500721">
		<tag k="fixme" v="consider natural=peak for the most distinct mountains in the district" />
		<tag k="name" v="Rabben" />
		<tag k="natural" v="hill" />
		<tag k="place" v="locality" />
		<tag k="ssr:stedsnr" v="919946" />
	</node>
	<node id="-532881" lat="61.6497194444" lon="6.65058611361">
		<tag k="fixme" v="consider natural=peak for the most distinct mountains in the district" />
		<tag k="name" v="Sollinova" />
		<tag k="natural" v="hill" />
		<tag k="place" v="locality" />
		<tag k="ssr:stedsnr" v="919932" />
	</node>
	<node id="-532874" lat="61.4861083296" lon="6.46401112059">
		<tag k="fixme" v="consider natural=peak for the most distinct mountains in the district" />
		<tag k="name" v="Trollebotsegga" />
		<tag k="natural" v="hill" />
		<tag k="place" v="locality" />
		<tag k="ssr:stedsnr" v="918742" />
	</node>
	<node id="-532871" lat="61.4737861136" lon="6.03937499425">
		<tag k="alt_name" v="Støfringsholten" />
		<tag k="name" v="Holten" />
		<tag k="natural" v="hill" />
		<tag k="place" v="locality" />
		<tag k="ssr:stedsnr" v="918355" />
	</node>
	<node id="-532870" lat="61.4833861125" lon="6.19385833034">
		<tag k="name" v="Trollebotnen" />
		<tag k="natural" v="valley" />
		<tag k="place" v="locality" />
		<tag k="ssr:stedsnr" v="918337" />
	</node>
	<node id="-532866" lat="61.5810833317" lon="6.38941666976">
		<tag k="name" v="Helgheimsdalen" />
		<tag k="natural" v="valley" />
		<tag k="place" v="locality" />
		<tag k="ssr:stedsnr" v="870629" />
	</node>
	<node id="-532857" lat="61.5365777798" lon="6.407750004">
		<tag k="fixme" v="consider natural=peak for the most distinct mountains in the district" />
		<tag k="name" v="Orkja" />
		<tag k="natural" v="hill" />
		<tag k="place" v="locality" />
		<tag k="ssr:stedsnr" v="859983" />
	</node>
	<node id="-532854" lat="61.5613749958" lon="6.33431944345">
		<tag k="name" v="Årdalsdalen" />
		<tag k="natural" v="valley" />
		<tag k="place" v="locality" />
		<tag k="ssr:stedsnr" v="859950" />
	</node>
	<node id="-532850" lat="61.5732111119" lon="6.37307500079">
		<tag k="fixme" v="consider natural=peak for the most distinct mountains in the district" />
		<tag k="name" v="Såtefjellet" />
		<tag k="natural" v="hill" />
		<tag k="old_name" v="Steinbotnegga" />
		<tag k="place" v="locality" />
		<tag k="ssr:stedsnr" v="859932" />
	</node>
	<node id="-532847" lat="61.5681277774" lon="6.68439166559">
		<tag k="name" v="Kvannebakknova" />
		<tag k="natural" v="hill" />
		<tag k="place" v="locality" />
		<tag k="ssr:stedsnr" v="859832" />
	</node>
	<node id="-532844" lat="61.6367750035" lon="6.76386388436">
		<tag k="name" v="Jostebotnen" />
		<tag k="natural" v="valley" />
		<tag k="place" v="locality" />
		<tag k="ssr:stedsnr" v="859801" />
	</node>
	<node id="-532842" lat="61.5041750041" lon="6.44875833687">
		<tag k="fixme" v="consider natural=peak for the most distinct mountains in the district" />
		<tag k="name" v="Nyken" />
		<tag k="natural" v="hill" />
		<tag k="place" v="locality" />
		<tag k="ssr:stedsnr" v="859696" />
	</node>
	<node id="-532841" lat="61.5937194464" lon="6.1610861021">
		<tag k="name" v="Gotdalen" />
		<tag k="natural" v="valley" />
		<tag k="place" v="locality" />
		<tag k="ssr:stedsnr" v="859202" />
	</node>
	<node id="-532840" lat="61.547977778" lon="6.16458889263">
		<tag k="fixme" v="consider natural=peak for the most distinct mountains in the district" />
		<tag k="name" v="Steinegga" />
		<tag k="natural" v="hill" />
		<tag k="place" v="locality" />
		<tag k="ssr:stedsnr" v="859150" />
	</node>
	<node id="-532838" lat="61.5105194448" lon="6.13842499142">
		<tag k="name" v="Gygraklovet" />
		<tag k="natural" v="hill" />
		<tag k="place" v="locality" />
		<tag k="ssr:stedsnr" v="859115" />
	</node>
	<node id="-532835" lat="61.4776750028" lon="5.99700000897">
		<tag k="fixme" v="consider natural=peak for the most distinct mountains in the district" />
		<tag k="name" v="Høgeheia" />
		<tag k="natural" v="hill" />
		<tag k="old_name" v="Høgheia" />
		<tag k="place" v="locality" />
		<tag k="ssr:stedsnr" v="858273" />
	</node>
	<node id="-532834" lat="61.4939972204" lon="6.28284999327">
		<tag k="name" v="Knebben" />
		<tag k="natural" v="hill" />
		<tag k="place" v="locality" />
		<tag k="ssr:stedsnr" v="857671" />
	</node>
	<node id="-532833" lat="61.472386111" lon="6.19931388506">
		<tag k="fixme" v="consider natural=peak for the most distinct mountains in the district" />
		<tag k="name" v="Støylsfjellet" />
		<tag k="natural" v="hill" />
		<tag k="place" v="locality" />
		<tag k="ssr:stedsnr" v="857344" />
	</node>
	<node id="-532832" lat="61.4622249976" lon="6.10932499806">
		<tag k="fixme" v="consider natural=peak for the most distinct mountains in the district" />
		<tag k="name" v="Stordalsfjellet" />
		<tag k="natural" v="hill" />
		<tag k="place" v="locality" />
		<tag k="ssr:stedsnr" v="857338" />
	</node>
	<node id="-532827" lat="61.6117083331" lon="6.62407778197">
		<tag k="name" v="Øyna" />
		<tag k="place" v="locality" />
		<tag k="ssr:stedsnr" v="821877" />
	</node>
	<node id="-532826" lat="61.6169166632" lon="6.6234861201">
		<tag k="name" v="Storesvaet" />
		<tag k="natural" v="hill" />
		<tag k="place" v="locality" />
		<tag k="ssr:stedsnr" v="821876" />
	</node>
	<node id="-532825" lat="61.6210333333" lon="6.65233055379">
		<tag k="name" v="Teighaugen" />
		<tag k="natural" v="hill" />
		<tag k="place" v="locality" />
		<tag k="ssr:stedsnr" v="821875" />
	</node>
	<node id="-532824" lat="61.6099194427" lon="6.54886944162">
		<tag k="name" v="Øyane" />
		<tag k="place" v="locality" />
		<tag k="ssr:stedsnr" v="821858" />
	</node>
	<node id="-532823" lat="61.6038805564" lon="6.54132777499">
		<tag k="name" v="Klakeggslia" />
		<tag k="natural" v="slope" />
		<tag k="place" v="locality" />
		<tag k="ssr:stedsnr" v="821857" />
	</node>
	<node id="-532822" lat="61.5226249995" lon="6.63904722409">
		<tag k="name" v="Lundhammaren" />
		<tag k="natural" v="hill" />
		<tag k="place" v="locality" />
		<tag k="ssr:stedsnr" v="821853" />
	</node>
	<node id="-532820" lat="61.5374944463" lon="6.55238610766">
		<tag k="name" v="Streksvora" />
		<tag k="place" v="locality" />
		<tag k="ssr:stedsnr" v="821842" />
	</node>
	<node id="-532819" lat="61.6230666625" lon="6.63126944387">
		<tag k="name" v="Bjørnhaugane" />
		<tag k="natural" v="hill" />
		<tag k="place" v="locality" />
		<tag k="ssr:stedsnr" v="821822" />
	</node>
	<node id="-532817" lat="61.4677916665" lon="6.01270555288">
		<tag k="name" v="Mjølkebakken" />
		<tag k="natural" v="slope" />
		<tag k="place" v="locality" />
		<tag k="ssr:stedsnr" v="821347" />
	</node>
	<node id="-532816" lat="61.5325583359" lon="6.30192500789">
		<tag k="fixme" v="consider natural=peak for the most distinct mountains in the district" />
		<tag k="name" v="Høgefjellet" />
		<tag k="natural" v="hill" />
		<tag k="place" v="locality" />
		<tag k="ssr:stedsnr" v="821219" />
	</node>
	<node id="-532815" lat="61.5157749987" lon="6.38793612062">
		<tag k="name" v="Klypehammaren" />
		<tag k="natural" v="hill" />
		<tag k="place" v="locality" />
		<tag k="ssr:stedsnr" v="821212" />
	</node>
	<node id="-532812" lat="61.5173416661" lon="6.40745556328">
		<tag k="name" v="Røstene" />
		<tag k="place" v="locality" />
		<tag k="ssr:stedsnr" v="821208" />
	</node>
	<node id="-532811" lat="61.5609138876" lon="6.26928055122">
		<tag k="name" v="Kristenhammaren" />
		<tag k="natural" v="hill" />
		<tag k="place" v="locality" />
		<tag k="ssr:stedsnr" v="821203" />
	</node>
	<node id="-532810" lat="61.5526194486" lon="6.25940832614">
		<tag k="name" v="Torvhaugane" />
		<tag k="natural" v="hill" />
		<tag k="place" v="locality" />
		<tag k="ssr:stedsnr" v="821197" />
	</node>
	<node id="-532808" lat="61.5299472218" lon="6.28325832814">
		<tag k="name" v="Nylskreda" />
		<tag k="natural" v="hill" />
		<tag k="place" v="locality" />
		<tag k="ssr:stedsnr" v="821190" />
	</node>
	<node id="-532807" lat="61.4927444469" lon="6.18945277264">
		<tag k="name" v="Remmane" />
		<tag k="place" v="locality" />
		<tag k="ssr:stedsnr" v="821180" />
	</node>
	<node id="-532806" lat="61.4614499979" lon="6.20066667612">
		<tag k="name" v="Skogahaugen" />
		<tag k="natural" v="hill" />
		<tag k="place" v="locality" />
		<tag k="ssr:stedsnr" v="821172" />
	</node>
	<node id="-532805" lat="61.5307222204" lon="6.23010555486">
		<tag k="name" v="Tinghaug" />
		<tag k="natural" v="hill" />
		<tag k="place" v="locality" />
		<tag k="ssr:stedsnr" v="821170" />
	</node>
	<node id="-532802" lat="61.5090805567" lon="6.13871388197">
		<tag k="name" v="Espeflata" />
		<tag k="place" v="locality" />
		<tag k="ssr:stedsnr" v="821161" />
	</node>
	<node id="-532801" lat="61.5108444408" lon="6.13811111926">
		<tag k="fixme" v="consider natural=peak for the most distinct mountains in the district" />
		<tag k="name" v="Gulmosehammaren" />
		<tag k="natural" v="hill" />
		<tag k="place" v="locality" />
		<tag k="ssr:stedsnr" v="821158" />
	</node>
	<node id="-532800" lat="61.5001083298" lon="6.12301110495">
		<tag k="name" v="Storehaugen" />
		<tag k="natural" v="hill" />
		<tag k="place" v="locality" />
		<tag k="ssr:stedsnr" v="821156" />
	</node>
	<node id="-532798" lat="61.4611277759" lon="6.01922778201">
		<tag k="name" v="Torteigen" />
		<tag k="place" v="locality" />
		<tag k="ssr:stedsnr" v="821118" />
	</node>
	<node id="-532797" lat="61.517116666" lon="6.57482500915">
		<tag k="name" v="Blomskredene" />
		<tag k="natural" v="valley" />
		<tag k="place" v="locality" />
		<tag k="ssr:stedsnr" v="821113" />
	</node>
	<node id="-532794" lat="61.6243361089" lon="6.52060000503">
		<tag k="name" v="Høgeskorane" />
		<tag k="natural" v="valley" />
		<tag k="place" v="locality" />
		<tag k="ssr:stedsnr" v="821102" />
	</node>
	<node id="-532793" lat="61.5306416623" lon="6.58024166387">
		<tag k="name" v="Brennene" />
		<tag k="natural" v="slope" />
		<tag k="place" v="locality" />
		<tag k="ssr:stedsnr" v="821100" />
	</node>
	<node id="-532792" lat="61.6385916658" lon="6.42716110452">
		<tag k="name" v="Skafonna" />
		<tag k="natural" v="valley" />
		<tag k="place" v="locality" />
		<tag k="ssr:stedsnr" v="821096" />
	</node>
	<node id="-532791" lat="61.6229694486" lon="6.43469721468">
		<tag k="name" v="Samelskorane" />
		<tag k="natural" v="valley" />
		<tag k="place" v="locality" />
		<tag k="ssr:stedsnr" v="821092" />
	</node>
	<node id="-532790" lat="61.5964000033" lon="6.49448610245">
		<tag k="name" v="Øykehammaren" />
		<tag k="natural" v="ridge" />
		<tag k="place" v="locality" />
		<tag k="ssr:stedsnr" v="821087" />
	</node>
	<node id="-532789" lat="61.6169638931" lon="6.52877222529">
		<tag k="name" v="Geitkleiva" />
		<tag k="natural" v="valley" />
		<tag k="place" v="locality" />
		<tag k="ssr:stedsnr" v="821081" />
	</node>
	<node id="-532788" lat="61.6021750011" lon="6.50743056094">
		<tag k="name" v="Håheimslåttene" />
		<tag k="place" v="locality" />
		<tag k="ssr:stedsnr" v="821080" />
	</node>
	<node id="-532787" lat="61.6006611114" lon="6.52930000128">
		<tag k="name" v="Nordahaugen" />
		<tag k="natural" v="hill" />
		<tag k="place" v="locality" />
		<tag k="ssr:stedsnr" v="821077" />
	</node>
	<node id="-532786" lat="61.5509555598" lon="6.48487776821">
		<tag k="name" v="Fremste Litlefjellgjelet" />
		<tag k="natural" v="valley" />
		<tag k="place" v="locality" />
		<tag k="ssr:stedsnr" v="821069" />
	</node>
	<node id="-532785" lat="61.5711361079" lon="6.50266111769">
		<tag k="name" v="Storeskora" />
		<tag k="natural" v="valley" />
		<tag k="place" v="locality" />
		<tag k="ssr:stedsnr" v="821059" />
	</node>
	<node id="-532784" lat="61.5202611101" lon="6.43148054873">
		<tag k="name" v="Lahaugen" />
		<tag k="natural" v="hill" />
		<tag k="place" v="locality" />
		<tag k="ssr:stedsnr" v="821044" />
	</node>
	<node id="-532783" lat="61.5195638898" lon="6.4397277816">
		<tag k="name" v="Liahammaren" />
		<tag k="natural" v="hill" />
		<tag k="place" v="locality" />
		<tag k="ssr:stedsnr" v="821043" />
	</node>
	<node id="-532782" lat="61.5973277791" lon="6.29936665827">
		<tag k="name" v="Storehaugen" />
		<tag k="natural" v="hill" />
		<tag k="place" v="locality" />
		<tag k="ssr:stedsnr" v="821039" />
	</node>
	<node id="-532781" lat="61.5976249969" lon="6.30325277167">
		<tag k="name" v="Slettevellene" />
		<tag k="place" v="locality" />
		<tag k="ssr:stedsnr" v="821038" />
	</node>
	<node id="-532780" lat="61.5848027816" lon="6.32360278368">
		<tag k="name" v="Brøkane" />
		<tag k="place" v="locality" />
		<tag k="ssr:stedsnr" v="821037" />
	</node>
	<node id="-532779" lat="61.5411277799" lon="6.40331389795">
		<tag k="name" v="Omnane" />
		<tag k="natural" v="hill" />
		<tag k="place" v="locality" />
		<tag k="ssr:stedsnr" v="821034" />
	</node>
	<node id="-532778" lat="61.5662527776" lon="6.3892361065">
		<tag k="name" v="Gråhammaren" />
		<tag k="natural" v="hill" />
		<tag k="place" v="locality" />
		<tag k="ssr:stedsnr" v="821019" />
	</node>
	<node id="-532777" lat="61.5660527786" lon="6.39532222171">
		<tag k="name" v="Halsen" />
		<tag k="place" v="locality" />
		<tag k="ssr:stedsnr" v="821018" />
	</node>
	<node id="-532776" lat="61.5564805591" lon="6.34580277021">
		<tag k="name" v="Leitet" />
		<tag k="place" v="locality" />
		<tag k="ssr:stedsnr" v="821008" />
	</node>
	<node id="-532775" lat="61.4975083354" lon="6.29605833145">
		<tag k="name" v="Bjørndalen" />
		<tag k="natural" v="valley" />
		<tag k="place" v="locality" />
		<tag k="ssr:stedsnr" v="821003" />
	</node>
	<node id="-532772" lat="61.5174277801" lon="6.43042500584">
		<tag k="name" v="Støylsbakken" />
		<tag k="natural" v="slope" />
		<tag k="place" v="locality" />
		<tag k="ssr:stedsnr" v="809804" />
	</node>
	<node id="-532771" lat="61.5831444468" lon="6.2876583268">
		<tag k="fixme" v="consider natural=peak for the most distinct mountains in the district" />
		<tag k="name" v="Nonsnipa" />
		<tag k="natural" v="hill" />
		<tag k="place" v="locality" />
		<tag k="ssr:stedsnr" v="809651" />
	</node>
	<node id="-532770" lat="61.6043472226" lon="6.63963332506">
		<tag k="name" v="Befringsbakkane" />
		<tag k="natural" v="slope" />
		<tag k="place" v="locality" />
		<tag k="ssr:stedsnr" v="809512" />
	</node>
	<node id="-532768" lat="61.5132499978" lon="6.03135278706">
		<tag k="fixme" v="consider natural=peak for the most distinct mountains in the district" />
		<tag k="name" v="Kariknausen" />
		<tag k="natural" v="hill" />
		<tag k="place" v="locality" />
		<tag k="ssr:stedsnr" v="799166" />
	</node>
	<node id="-532763" lat="61.6386166688" lon="6.4687249987">
		<tag k="name" v="Svenskedalen" />
		<tag k="natural" v="valley" />
		<tag k="place" v="locality" />
		<tag k="ssr:stedsnr" v="799036" />
	</node>
	<node id="-532762" lat="61.603124999" lon="6.28867500638">
		<tag k="name" v="Såtehaugen" />
		<tag k="natural" v="hill" />
		<tag k="place" v="locality" />
		<tag k="ssr:stedsnr" v="799023" />
	</node>
	<node id="-532760" lat="61.6059999999" lon="6.42510555737">
		<tag k="name" v="Nydalen" />
		<tag k="natural" v="valley" />
		<tag k="place" v="locality" />
		<tag k="ssr:stedsnr" v="799019" />
	</node>
	<node id="-532756" lat="61.5635083319" lon="6.55585000303">
		<tag k="fixme" v="consider natural=peak for the most distinct mountains in the district" />
		<tag k="name" v="Litleaksla" />
		<tag k="natural" v="hill" />
		<tag k="place" v="locality" />
		<tag k="ssr:stedsnr" v="798965" />
	</node>
	<node id="-532755" lat="61.5585138887" lon="6.49242499517">
		<tag k="name" v="Vikadalen" />
		<tag k="natural" v="valley" />
		<tag k="place" v="locality" />
		<tag k="ssr:stedsnr" v="798958" />
	</node>
	<node id="-532754" lat="61.5584805528" lon="6.29362778422">
		<tag k="name" v="Øyskaret" />
		<tag k="natural" v="valley" />
		<tag k="place" v="locality" />
		<tag k="ssr:stedsnr" v="798944" />
	</node>
	<node id="-532753" lat="61.5692444436" lon="6.30781666965">
		<tag k="name" v="Torsbotn" />
		<tag k="natural" v="valley" />
		<tag k="place" v="locality" />
		<tag k="ssr:stedsnr" v="798942" />
	</node>
	<node id="-532752" lat="61.5675555536" lon="6.36722500904">
		<tag k="fixme" v="consider natural=peak for the most distinct mountains in the district" />
		<tag k="name" v="Nova" />
		<tag k="natural" v="hill" />
		<tag k="place" v="locality" />
		<tag k="ssr:stedsnr" v="798940" />
	</node>
	<node id="-532750" lat="61.6139694437" lon="6.76383054968">
		<tag k="name" v="Bjørnabotnen" />
		<tag k="natural" v="valley" />
		<tag k="place" v="locality" />
		<tag k="ssr:stedsnr" v="798800" />
	</node>
	<node id="-532749" lat="61.5958361091" lon="6.63830556115">
		<tag k="name" v="Befringsdalen" />
		<tag k="natural" v="valley" />
		<tag k="place" v="locality" />
		<tag k="ssr:stedsnr" v="798792" />
	</node>
	<node id="-532747" lat="61.6245361075" lon="6.60288888721">
		<tag k="fixme" v="consider natural=peak for the most distinct mountains in the district" />
		<tag k="name" v="Bakkeheia" />
		<tag k="natural" v="hill" />
		<tag k="place" v="locality" />
		<tag k="ssr:stedsnr" v="798766" />
	</node>
	<node id="-532746" lat="61.6238666688" lon="6.67022777626">
		<tag k="fixme" v="consider natural=peak for the most distinct mountains in the district" />
		<tag k="name" v="Haugafjellet" />
		<tag k="natural" v="hill" />
		<tag k="place" v="locality" />
		<tag k="ssr:stedsnr" v="798765" />
	</node>
	<node id="-532745" lat="61.6227500021" lon="6.74265000899">
		<tag k="fixme" v="consider natural=peak for the most distinct mountains in the district" />
		<tag k="name" v="Åmotsnibba" />
		<tag k="natural" v="hill" />
		<tag k="place" v="locality" />
		<tag k="ssr:stedsnr" v="798763" />
	</node>
	<node id="-532741" lat="61.5853694439" lon="6.68630833885">
		<tag k="fixme" v="consider natural=peak for the most distinct mountains in the district" />
		<tag k="name" v="Grøskarfjellet" />
		<tag k="natural" v="hill" />
		<tag k="place" v="locality" />
		<tag k="ssr:stedsnr" v="798816" />
	</node>
	<node id="-532739" lat="61.4895166696" lon="6.15382499095">
		<tag k="alt_name" v="Hamarsholten" />
		<tag k="fixme" v="consider natural=peak for the most distinct mountains in the district" />
		<tag k="name" v="Holten" />
		<tag k="natural" v="hill" />
		<tag k="place" v="locality" />
		<tag k="ssr:stedsnr" v="797289" />
	</node>
	<node id="-532735" lat="61.4905805582" lon="6.33957500908">
		<tag k="fixme" v="consider natural=peak for the most distinct mountains in the district" />
		<tag k="name" v="Blåfjellet" />
		<tag k="natural" v="hill" />
		<tag k="place" v="locality" />
		<tag k="ssr:stedsnr" v="796690" />
	</node>
	<node id="-532733" lat="61.456461115" lon="6.24981944256">
		<tag k="fixme" v="consider natural=peak for the most distinct mountains in the district" />
		<tag k="name" v="Søstestøylsfjellet" />
		<tag k="natural" v="hill" />
		<tag k="place" v="locality" />
		<tag k="ssr:stedsnr" v="796671" />
	</node>
	<node id="-532730" lat="61.4491499956" lon="6.0599749949">
		<tag k="name" v="Skjørdiket" />
		<tag k="natural" v="valley" />
		<tag k="place" v="locality" />
		<tag k="ssr:stedsnr" v="796341" />
	</node>
	<node id="-532728" lat="61.4517750043" lon="5.98991944568">
		<tag k="fixme" v="consider natural=peak for the most distinct mountains in the district" />
		<tag k="name" v="Hatten" />
		<tag k="natural" v="hill" />
		<tag k="place" v="locality" />
		<tag k="ssr:stedsnr" v="796324" />
	</node>
	<node id="-532727" lat="61.4579416684" lon="6.0944972237">
		<tag k="name" v="Kvamsskaret" />
		<tag k="natural" v="valley" />
		<tag k="place" v="locality" />
		<tag k="ssr:stedsnr" v="796317" />
	</node>
	<node id="-532723" lat="61.6174638914" lon="6.59895556136">
		<tag k="fixme" v="consider natural=peak for the most distinct mountains in the district" />
		<tag k="name" v="Tjovefjellet" />
		<tag k="natural" v="hill" />
		<tag k="place" v="locality" />
		<tag k="ssr:stedsnr" v="760858" />
	</node>
	<node id="-532722" lat="61.6012555534" lon="6.64757221892">
		<tag k="name" v="Svarthamrane" />
		<tag k="natural" v="hill" />
		<tag k="place" v="locality" />
		<tag k="ssr:stedsnr" v="760852" />
	</node>
	<node id="-532721" lat="61.5995999984" lon="6.62715277829">
		<tag k="name" v="Kvannegjelet" />
		<tag k="natural" v="valley" />
		<tag k="place" v="locality" />
		<tag k="ssr:stedsnr" v="760850" />
	</node>
	<node id="-532720" lat="61.4900944439" lon="6.04811666111">
		<tag k="name" v="Furebarhaugen" />
		<tag k="natural" v="hill" />
		<tag k="place" v="locality" />
		<tag k="ssr:stedsnr" v="760835" />
	</node>
	<node id="-532719" lat="61.482038887" lon="6.03959445359">
		<tag k="name" v="Åreholbakkane" />
		<tag k="natural" v="slope" />
		<tag k="place" v="locality" />
		<tag k="ssr:stedsnr" v="760825" />
	</node>
	<node id="-532717" lat="61.6225527733" lon="6.69455554858">
		<tag k="name" v="Høgfjellskaret" />
		<tag k="natural" v="valley" />
		<tag k="place" v="locality" />
		<tag k="ssr:stedsnr" v="760818" />
	</node>
	<node id="-532716" lat="61.4733611131" lon="6.00116389037">
		<tag k="name" v="Laremsvaet" />
		<tag k="place" v="locality" />
		<tag k="ssr:stedsnr" v="760811" />
	</node>
	<node id="-532714" lat="61.619300003" lon="6.62958334246">
		<tag k="name" v="Ormesvedene" />
		<tag k="place" v="locality" />
		<tag k="ssr:stedsnr" v="760805" />
	</node>
	<node id="-532713" lat="61.6214138905" lon="6.6568277795">
		<tag k="name" v="Alhamrane" />
		<tag k="natural" v="hill" />
		<tag k="place" v="locality" />
		<tag k="ssr:stedsnr" v="760802" />
	</node>
	<node id="-532712" lat="61.5830166627" lon="6.74216111889">
		<tag k="name" v="Storehaugen" />
		<tag k="natural" v="hill" />
		<tag k="place" v="locality" />
		<tag k="ssr:stedsnr" v="760777" />
	</node>
	<node id="-532711" lat="61.6104750041" lon="6.73763056349">
		<tag k="name" v="Hamrane" />
		<tag k="natural" v="hill" />
		<tag k="place" v="locality" />
		<tag k="ssr:stedsnr" v="760774" />
	</node>
	<node id="-532710" lat="61.5987138853" lon="6.75156388931">
		<tag k="name" v="Høgebakken" />
		<tag k="natural" v="slope" />
		<tag k="place" v="locality" />
		<tag k="ssr:stedsnr" v="760772" />
	</node>
	<node id="-532709" lat="61.5466833324" lon="6.2409972277">
		<tag k="fixme" v="consider natural=peak for the most distinct mountains in the district" />
		<tag k="name" v="Tortneholten" />
		<tag k="natural" v="hill" />
		<tag k="place" v="locality" />
		<tag k="ssr:stedsnr" v="760242" />
	</node>
	<node id="-532707" lat="61.5733416687" lon="6.24650832729">
		<tag k="name" v="Aksla" />
		<tag k="place" v="locality" />
		<tag k="ssr:stedsnr" v="760225" />
	</node>
	<node id="-532706" lat="61.5461305538" lon="6.24708333443">
		<tag k="fixme" v="consider natural=peak for the most distinct mountains in the district" />
		<tag k="name" v="Rossfjellet" />
		<tag k="natural" v="hill" />
		<tag k="place" v="locality" />
		<tag k="ssr:stedsnr" v="760212" />
	</node>
	<node id="-532705" lat="61.5034972191" lon="6.2072416702">
		<tag k="name" v="Rognefletene" />
		<tag k="place" v="locality" />
		<tag k="ssr:stedsnr" v="760200" />
	</node>
	<node id="-532704" lat="61.5082083353" lon="6.26768889719">
		<tag k="name" v="Haugane" />
		<tag k="natural" v="hill" />
		<tag k="place" v="locality" />
		<tag k="ssr:stedsnr" v="760198" />
	</node>
	<node id="-532703" lat="61.465344441" lon="6.18034722813">
		<tag k="name" v="Bitterhola" />
		<tag k="natural" v="valley" />
		<tag k="place" v="locality" />
		<tag k="ssr:stedsnr" v="760195" />
	</node>
	<node id="-532701" lat="61.5208333338" lon="6.18730278274">
		<tag k="name" v="Stranda" />
		<tag k="place" v="locality" />
		<tag k="ssr:stedsnr" v="760185" />
	</node>
	<node id="-532700" lat="61.4967777757" lon="6.08562222832">
		<tag k="name" v="Sjurhamrane" />
		<tag k="natural" v="hill" />
		<tag k="place" v="locality" />
		<tag k="ssr:stedsnr" v="760173" />
	</node>
	<node id="-532699" lat="61.4986027752" lon="6.10928333587">
		<tag k="name" v="Blomurshaugen" />
		<tag k="natural" v="hill" />
		<tag k="place" v="locality" />
		<tag k="ssr:stedsnr" v="760170" />
	</node>
	<node id="-532697" lat="61.5130777754" lon="6.08243611765">
		<tag k="name" v="Ytstebotnen" />
		<tag k="natural" v="valley" />
		<tag k="place" v="locality" />
		<tag k="ssr:stedsnr" v="760163" />
	</node>
	<node id="-532696" lat="61.4729944427" lon="6.09973611809">
		<tag k="name" v="Kyrkja" />
		<tag k="place" v="locality" />
		<tag k="ssr:stedsnr" v="760148" />
	</node>
	<node id="-532695" lat="61.4758944427" lon="6.08012778023">
		<tag k="fixme" v="consider natural=peak for the most distinct mountains in the district" />
		<tag k="name" v="Kletten" />
		<tag k="natural" v="hill" />
		<tag k="place" v="locality" />
		<tag k="ssr:stedsnr" v="760146" />
	</node>
	<node id="-532693" lat="61.4977277809" lon="6.02538055108">
		<tag k="name" v="Øvstekvia" />
		<tag k="place" v="locality" />
		<tag k="ssr:stedsnr" v="760127" />
	</node>
	<node id="-532692" lat="61.5226277765" lon="6.56576943532">
		<tag k="name" v="Beitabakken" />
		<tag k="natural" v="slope" />
		<tag k="place" v="locality" />
		<tag k="ssr:stedsnr" v="760124" />
	</node>
	<node id="-532691" lat="61.619424996" lon="6.45710556392">
		<tag k="name" v="Brokane" />
		<tag k="place" v="locality" />
		<tag k="ssr:stedsnr" v="760111" />
	</node>
	<node id="-532690" lat="61.6147333291" lon="6.51583610886">
		<tag k="name" v="Litledalen" />
		<tag k="natural" v="valley" />
		<tag k="place" v="locality" />
		<tag k="ssr:stedsnr" v="760099" />
	</node>
	<node id="-532689" lat="61.5345499957" lon="6.52086111059">
		<tag k="name" v="Halvrø" />
		<tag k="place" v="locality" />
		<tag k="ssr:stedsnr" v="760077" />
	</node>
	<node id="-532688" lat="61.5445305562" lon="6.52079443676">
		<tag k="name" v="Bustegen" />
		<tag k="place" v="locality" />
		<tag k="ssr:stedsnr" v="760074" />
	</node>
	<node id="-532687" lat="61.5624138916" lon="6.43425833676">
		<tag k="name" v="Jansslåttene" />
		<tag k="place" v="locality" />
		<tag k="ssr:stedsnr" v="760059" />
	</node>
	<node id="-532685" lat="61.5891000043" lon="6.32903888746">
		<tag k="fixme" v="consider natural=peak for the most distinct mountains in the district" />
		<tag k="name" v="Brøkefjellet" />
		<tag k="natural" v="hill" />
		<tag k="place" v="locality" />
		<tag k="ssr:stedsnr" v="760048" />
	</node>
	<node id="-532684" lat="61.5272305541" lon="6.43681110867">
		<tag k="name" v="Svorakvia" />
		<tag k="place" v="locality" />
		<tag k="ssr:stedsnr" v="760045" />
	</node>
	<node id="-532683" lat="61.5447250033" lon="6.40443610431">
		<tag k="name" v="Buhammaren" />
		<tag k="natural" v="hill" />
		<tag k="place" v="locality" />
		<tag k="ssr:stedsnr" v="760039" />
	</node>
	<node id="-532682" lat="61.5098722224" lon="6.35909999862">
		<tag k="fixme" v="consider natural=peak for the most distinct mountains in the district" />
		<tag k="name" v="Svartefjellet" />
		<tag k="natural" v="hill" />
		<tag k="place" v="locality" />
		<tag k="ssr:stedsnr" v="760006" />
	</node>
	<node id="-532680" lat="61.5659444405" lon="6.21559999968">
		<tag k="fixme" v="consider natural=peak for the most distinct mountains in the district" />
		<tag k="name" v="Kvitsvornipa" />
		<tag k="natural" v="hill" />
		<tag k="place" v="locality" />
		<tag k="ssr:stedsnr" v="748496" />
	</node>
	<node id="-532679" lat="61.5360000017" lon="6.45153610469">
		<tag k="name" v="Djupeskaret" />
		<tag k="natural" v="valley" />
		<tag k="place" v="locality" />
		<tag k="ssr:stedsnr" v="749627" />
	</node>
	<node id="-532678" lat="61.6498999973" lon="6.49216110474">
		<tag k="name" v="Svartevasskaret" />
		<tag k="natural" v="valley" />
		<tag k="place" v="locality" />
		<tag k="ssr:stedsnr" v="738054" />
	</node>
	<node id="-532676" lat="61.627577778" lon="6.49402778479">
		<tag k="fixme" v="consider natural=peak for the most distinct mountains in the district" />
		<tag k="name" v="Klakeggfjellet" />
		<tag k="natural" v="hill" />
		<tag k="place" v="locality" />
		<tag k="ssr:stedsnr" v="738043" />
	</node>
	<node id="-532674" lat="61.5891638869" lon="6.27907499478">
		<tag k="fixme" v="consider natural=peak for the most distinct mountains in the district" />
		<tag k="name" v="Gotdalsnipa" />
		<tag k="natural" v="hill" />
		<tag k="place" v="locality" />
		<tag k="ssr:stedsnr" v="738012" />
	</node>
	<node id="-532672" lat="61.5852194429" lon="6.43405000336">
		<tag k="fixme" v="consider natural=peak for the most distinct mountains in the district" />
		<tag k="name" v="Blåfjellet" />
		<tag k="natural" v="hill" />
		<tag k="place" v="locality" />
		<tag k="ssr:stedsnr" v="738002" />
	</node>
	<node id="-532670" lat="61.549288885" lon="6.55073611274">
		<tag k="fixme" v="consider natural=peak for the most distinct mountains in the district" />
		<tag k="name" v="Høgenipa" />
		<tag k="natural" v="hill" />
		<tag k="place" v="locality" />
		<tag k="ssr:stedsnr" v="737985" />
	</node>
	<node id="-532667" lat="61.5664500011" lon="6.57669167319">
		<tag k="fixme" v="consider natural=peak for the most distinct mountains in the district" />
		<tag k="name" v="Storaksla" />
		<tag k="natural" v="hill" />
		<tag k="place" v="locality" />
		<tag k="ssr:stedsnr" v="737972" />
	</node>
	<node id="-532666" lat="61.5652166682" lon="6.37493888689">
		<tag k="fixme" v="consider natural=peak for the most distinct mountains in the district" />
		<tag k="name" v="Grånibba" />
		<tag k="natural" v="hill" />
		<tag k="place" v="locality" />
		<tag k="ssr:stedsnr" v="737968" />
	</node>
	<node id="-532665" lat="61.5651027733" lon="6.31013610649">
		<tag k="fixme" v="consider natural=peak for the most distinct mountains in the district" />
		<tag k="name" v="Tverrlifjellet" />
		<tag k="natural" v="hill" />
		<tag k="place" v="locality" />
		<tag k="ssr:stedsnr" v="737960" />
	</node>
	<node id="-532662" lat="61.5077750044" lon="6.37546111331">
		<tag k="fixme" v="consider natural=peak for the most distinct mountains in the district" />
		<tag k="name" v="Olahans-fjellet" />
		<tag k="natural" v="hill" />
		<tag k="place" v="locality" />
		<tag k="ssr:stedsnr" v="737893" />
	</node>
	<node id="-532661" lat="61.5143416668" lon="6.46424444399">
		<tag k="fixme" v="consider natural=peak for the most distinct mountains in the district" />
		<tag k="name" v="Tverrfjellet" />
		<tag k="natural" v="hill" />
		<tag k="place" v="locality" />
		<tag k="ssr:stedsnr" v="737884" />
	</node>
	<node id="-532659" lat="61.5191916699" lon="6.67389445307">
		<tag k="fixme" v="consider natural=peak for the most distinct mountains in the district" />
		<tag k="name" v="Tungenova" />
		<tag k="natural" v="hill" />
		<tag k="place" v="locality" />
		<tag k="ssr:stedsnr" v="737867" />
	</node>
	<node id="-532657" lat="61.5839277741" lon="6.60380276913">
		<tag k="fixme" v="consider natural=peak for the most distinct mountains in the district" />
		<tag k="name" v="Tortnegrøegga" />
		<tag k="natural" v="hill" />
		<tag k="place" v="locality" />
		<tag k="ssr:stedsnr" v="737856" />
	</node>
	<node id="-532655" lat="61.5991666705" lon="6.72440000231">
		<tag k="name" v="Nonsnova" />
		<tag k="natural" v="hill" />
		<tag k="place" v="locality" />
		<tag k="ssr:stedsnr" v="737833" />
	</node>
	<node id="-532652" lat="61.5966249981" lon="6.21199722626">
		<tag k="fixme" v="consider natural=peak for the most distinct mountains in the district" />
		<tag k="name" v="Grønlifjellet" />
		<tag k="natural" v="hill" />
		<tag k="place" v="locality" />
		<tag k="ssr:stedsnr" v="737205" />
	</node>
	<node id="-532651" lat="61.5601916706" lon="6.17010277907">
		<tag k="fixme" v="consider natural=peak for the most distinct mountains in the district" />
		<tag k="name" v="Solegladnipa" />
		<tag k="natural" v="hill" />
		<tag k="place" v="locality" />
		<tag k="ssr:stedsnr" v="737183" />
	</node>
	<node id="-532650" lat="61.4944555543" lon="6.40592221955">
		<tag k="name" v="Myklebustdalen" />
		<tag k="natural" v="valley" />
		<tag k="place" v="locality" />
		<tag k="ssr:stedsnr" v="736686" />
	</node>
	<node id="-532649" lat="61.4639833348" lon="6.28362500154">
		<tag k="name" v="Brandsbotnen" />
		<tag k="natural" v="valley" />
		<tag k="place" v="locality" />
		<tag k="ssr:stedsnr" v="736667" />
	</node>
	<node id="-532647" lat="61.4476249959" lon="6.12966388214">
		<tag k="fixme" v="consider natural=peak for the most distinct mountains in the district" />
		<tag k="name" v="Tverrfjellet" />
		<tag k="natural" v="hill" />
		<tag k="place" v="locality" />
		<tag k="ssr:stedsnr" v="736324" />
	</node>
	<node id="-532646" lat="61.4554166661" lon="6.05878055619">
		<tag k="name" v="Slåtteskaret" />
		<tag k="natural" v="valley" />
		<tag k="place" v="locality" />
		<tag k="ssr:stedsnr" v="736318" />
	</node>
	<node id="-532645" lat="61.4827833368" lon="6.15145000525">
		<tag k="fixme" v="consider natural=peak for the most distinct mountains in the district" />
		<tag k="name" v="Vårfjellet" />
		<tag k="natural" v="hill" />
		<tag k="place" v="locality" />
		<tag k="ssr:stedsnr" v="736304" />
	</node>
	<node id="-532640" lat="61.4566750042" lon="5.97232499705">
		<tag k="name" v="Blåane" />
		<tag k="natural" v="hill" />
		<tag k="place" v="locality" />
		<tag k="ssr:stedsnr" v="735329" />
	</node>
	<node id="-532639" lat="61.4598999976" lon="5.9805944358">
		<tag k="fixme" v="consider natural=peak for the most distinct mountains in the district" />
		<tag k="name" v="Kletten" />
		<tag k="natural" v="hill" />
		<tag k="place" v="locality" />
		<tag k="ssr:stedsnr" v="735327" />
	</node>
	<node id="-532638" lat="61.4720249998" lon="6.13700000538">
		<tag k="name" v="Gjesdalsdalen" />
		<tag k="natural" v="valley" />
		<tag k="place" v="locality" />
		<tag k="ssr:stedsnr" v="735309" />
	</node>
	<node id="-532635" lat="61.4666138873" lon="6.09023055459">
		<tag k="name" v="Stordalen" />
		<tag k="natural" v="valley" />
		<tag k="place" v="locality" />
		<tag k="ssr:stedsnr" v="735299" />
	</node>
	<node id="-532632" lat="61.6111638857" lon="6.58033889297">
		<tag k="name" v="Fleterabben" />
		<tag k="natural" v="hill" />
		<tag k="place" v="locality" />
		<tag k="ssr:stedsnr" v="700859" />
	</node>
	<node id="-532631" lat="61.4750472255" lon="6.0314861155">
		<tag k="name" v="Kvileplassen" />
		<tag k="place" v="locality" />
		<tag k="ssr:stedsnr" v="700824" />
	</node>
	<node id="-532629" lat="61.5157222227" lon="6.65831111943">
		<tag k="name" v="Langhaugen" />
		<tag k="natural" v="hill" />
		<tag k="place" v="locality" />
		<tag k="ssr:stedsnr" v="700809" />
	</node>
	<node id="-532628" lat="61.612677781" lon="6.72976111293">
		<tag k="name" v="Hagen" />
		<tag k="place" v="locality" />
		<tag k="ssr:stedsnr" v="700782" />
	</node>
	<node id="-532627" lat="61.461491665" lon="6.04307776903">
		<tag k="name" v="Furebakken" />
		<tag k="natural" v="slope" />
		<tag k="place" v="locality" />
		<tag k="ssr:stedsnr" v="700373" />
	</node>
	<node id="-532626" lat="61.5244055562" lon="6.29681943759">
		<tag k="name" v="Bøahammaren" />
		<tag k="natural" v="hill" />
		<tag k="place" v="locality" />
		<tag k="ssr:stedsnr" v="700266" />
	</node>
	<node id="-532625" lat="61.5294027752" lon="6.31500000759">
		<tag k="name" v="Storakvia" />
		<tag k="place" v="locality" />
		<tag k="ssr:stedsnr" v="700262" />
	</node>
	<node id="-532623" lat="61.5374944404" lon="6.21426111803">
		<tag k="name" v="Selbøen" />
		<tag k="place" v="locality" />
		<tag k="ssr:stedsnr" v="700246" />
	</node>
	<node id="-532622" lat="61.534619443" lon="6.26307500381">
		<tag k="fixme" v="consider natural=peak for the most distinct mountains in the district" />
		<tag k="name" v="Steinblekfjellet" />
		<tag k="natural" v="hill" />
		<tag k="place" v="locality" />
		<tag k="ssr:stedsnr" v="700240" />
	</node>
	<node id="-532621" lat="61.5407527822" lon="6.24134166423">
		<tag k="name" v="Bjørgja" />
		<tag k="natural" v="hill" />
		<tag k="place" v="locality" />
		<tag k="ssr:stedsnr" v="700239" />
	</node>
	<node id="-532620" lat="61.5108138902" lon="6.22843610625">
		<tag k="name" v="Stegen" />
		<tag k="natural" v="ridge" />
		<tag k="place" v="locality" />
		<tag k="ssr:stedsnr" v="700238" />
	</node>
	<node id="-532619" lat="61.5275861077" lon="6.28019445123">
		<tag k="name" v="Vågaskora" />
		<tag k="natural" v="valley" />
		<tag k="place" v="locality" />
		<tag k="ssr:stedsnr" v="700235" />
	</node>
	<node id="-532618" lat="61.494794446" lon="6.18150276936">
		<tag k="name" v="Aksla" />
		<tag k="place" v="locality" />
		<tag k="ssr:stedsnr" v="700233" />
	</node>
	<node id="-532617" lat="61.4944083321" lon="6.08920556288">
		<tag k="name" v="Djupegjelet" />
		<tag k="natural" v="valley" />
		<tag k="place" v="locality" />
		<tag k="ssr:stedsnr" v="700202" />
	</node>
	<node id="-532616" lat="61.5207194418" lon="6.13046666471">
		<tag k="name" v="Reset" />
		<tag k="place" v="locality" />
		<tag k="ssr:stedsnr" v="700190" />
	</node>
	<node id="-532614" lat="61.5063777807" lon="6.07088888811">
		<tag k="name" v="Skorerabben" />
		<tag k="natural" v="ridge" />
		<tag k="place" v="locality" />
		<tag k="ssr:stedsnr" v="700181" />
	</node>
	<node id="-532613" lat="61.5236472205" lon="6.13711944912">
		<tag k="name" v="Skogabotnen" />
		<tag k="natural" v="valley" />
		<tag k="place" v="locality" />
		<tag k="ssr:stedsnr" v="700178" />
	</node>
	<node id="-532612" lat="61.5216388915" lon="6.13706388614">
		<tag k="name" v="Tuftebakkane" />
		<tag k="natural" v="slope" />
		<tag k="place" v="locality" />
		<tag k="ssr:stedsnr" v="700177" />
	</node>
	<node id="-532611" lat="61.4551888851" lon="6.12963889722">
		<tag k="fixme" v="consider natural=peak for the most distinct mountains in the district" />
		<tag k="name" v="Tverfjellet" />
		<tag k="natural" v="hill" />
		<tag k="place" v="locality" />
		<tag k="ssr:stedsnr" v="700172" />
	</node>
	<node id="-532608" lat="61.5175555525" lon="6.60288888366">
		<tag k="name" v="Slettebakken" />
		<tag k="natural" v="slope" />
		<tag k="place" v="locality" />
		<tag k="ssr:stedsnr" v="700143" />
	</node>
	<node id="-532607" lat="61.639408335" lon="6.528425005">
		<tag k="name" v="Løypeholten" />
		<tag k="natural" v="hill" />
		<tag k="place" v="locality" />
		<tag k="ssr:stedsnr" v="700139" />
	</node>
	<node id="-532606" lat="61.6105388913" lon="6.47525834004">
		<tag k="fixme" v="consider natural=peak for the most distinct mountains in the district" />
		<tag k="name" v="Lonefjellet" />
		<tag k="natural" v="hill" />
		<tag k="place" v="locality" />
		<tag k="ssr:stedsnr" v="700098" />
	</node>
	<node id="-532605" lat="61.5533611156" lon="6.48775000341">
		<tag k="name" v="Astrupskollen" />
		<tag k="natural" v="hill" />
		<tag k="place" v="locality" />
		<tag k="ssr:stedsnr" v="700097" />
	</node>
	<node id="-532604" lat="61.5436111139" lon="6.44818887936">
		<tag k="fixme" v="consider natural=peak for the most distinct mountains in the district" />
		<tag k="name" v="Nova" />
		<tag k="natural" v="hill" />
		<tag k="place" v="locality" />
		<tag k="ssr:stedsnr" v="700094" />
	</node>
	<node id="-532602" lat="61.533486113" lon="6.51935832957">
		<tag k="name" v="Omnane" />
		<tag k="natural" v="hill" />
		<tag k="place" v="locality" />
		<tag k="ssr:stedsnr" v="700091" />
	</node>
	<node id="-532601" lat="61.5591805585" lon="6.48505278451">
		<tag k="name" v="Bøaskorgjelet" />
		<tag k="natural" v="valley" />
		<tag k="place" v="locality" />
		<tag k="ssr:stedsnr" v="700085" />
	</node>
	<node id="-532600" lat="61.5743694467" lon="6.44300277883">
		<tag k="name" v="Blåsvedene" />
		<tag k="natural" v="hill" />
		<tag k="place" v="locality" />
		<tag k="ssr:stedsnr" v="700076" />
	</node>
	<node id="-532599" lat="61.5755999983" lon="6.4686777797">
		<tag k="name" v="Eisteghola" />
		<tag k="natural" v="valley" />
		<tag k="place" v="locality" />
		<tag k="ssr:stedsnr" v="700069" />
	</node>
	<node id="-532598" lat="61.5620527809" lon="6.35821945043">
		<tag k="name" v="Småskorane" />
		<tag k="natural" v="valley" />
		<tag k="place" v="locality" />
		<tag k="ssr:stedsnr" v="700026" />
	</node>
	<node id="-532597" lat="61.5641611127" lon="6.33656667545">
		<tag k="name" v="Haugane" />
		<tag k="natural" v="hill" />
		<tag k="place" v="locality" />
		<tag k="ssr:stedsnr" v="700011" />
	</node>
	<node id="-532596" lat="61.4762638865" lon="6.02282222696">
		<tag k="name" v="Gamlestøylsholten" />
		<tag k="natural" v="hill" />
		<tag k="place" v="locality" />
		<tag k="ssr:stedsnr" v="688809" />
	</node>
	<node id="-532594" lat="61.5266055585" lon="6.45343333624">
		<tag k="fixme" v="consider natural=peak for the most distinct mountains in the district" />
		<tag k="name" v="Snøfjellet" />
		<tag k="natural" v="hill" />
		<tag k="place" v="locality" />
		<tag k="ssr:stedsnr" v="688498" />
	</node>
	<node id="-532593" lat="61.5394583376" lon="6.16750554892">
		<tag k="name" v="Midttunsdalen" />
		<tag k="natural" v="valley" />
		<tag k="place" v="locality" />
		<tag k="ssr:stedsnr" v="679414" />
	</node>
	<node id="-532592" lat="61.5086638918" lon="6.62025832642">
		<tag k="name" v="Nonstadgjølbotnen" />
		<tag k="natural" v="valley" />
		<tag k="place" v="locality" />
		<tag k="ssr:stedsnr" v="677866" />
	</node>
	<node id="-532588" lat="61.5903194422" lon="6.41108055462">
		<tag k="fixme" v="consider natural=peak for the most distinct mountains in the district" />
		<tag k="name" v="Nipa" />
		<tag k="natural" v="hill" />
		<tag k="place" v="locality" />
		<tag k="ssr:stedsnr" v="677703" />
	</node>
	<node id="-532585" lat="61.5468833334" lon="6.21856667234">
		<tag k="fixme" v="consider natural=peak for the most distinct mountains in the district" />
		<tag k="name" v="Grøneneven" />
		<tag k="natural" v="hill" />
		<tag k="place" v="locality" />
		<tag k="ssr:stedsnr" v="676976" />
	</node>
	<node id="-532581" lat="61.4933916663" lon="6.26337778436">
		<tag k="name" v="Sanddalsdalen" />
		<tag k="natural" v="valley" />
		<tag k="place" v="locality" />
		<tag k="ssr:stedsnr" v="675696" />
	</node>
	<node id="-532580" lat="61.4534027822" lon="6.26797500643">
		<tag k="fixme" v="consider natural=peak for the most distinct mountains in the district" />
		<tag k="name" v="Kvitefjellet" />
		<tag k="natural" v="hill" />
		<tag k="place" v="locality" />
		<tag k="ssr:stedsnr" v="675689" />
	</node>
	<node id="-532578" lat="61.4506027752" lon="6.21026111123">
		<tag k="fixme" v="consider natural=peak for the most distinct mountains in the district" />
		<tag k="name" v="Søstestøylsfjellet" />
		<tag k="natural" v="hill" />
		<tag k="place" v="locality" />
		<tag k="ssr:stedsnr" v="675362" />
	</node>
	<node id="-532573" lat="61.6208138888" lon="6.32896110799">
		<tag k="name" v="Kupeskaret" />
		<tag k="natural" v="valley" />
		<tag k="place" v="locality" />
		<tag k="ssr:stedsnr" v="677033" />
	</node>
	<node id="-532571" lat="61.6127166689" lon="6.5677027782">
		<tag k="name" v="Stardalen" />
		<tag k="natural" v="valley" />
		<tag k="place" v="locality" />
		<tag k="ssr:stedsnr" v="677022" />
	</node>
	<node id="-532570" lat="61.579038887" lon="6.30250277045">
		<tag k="fixme" v="consider natural=peak for the most distinct mountains in the district" />
		<tag k="name" v="Dalefjellet" />
		<tag k="natural" v="hill" />
		<tag k="place" v="locality" />
		<tag k="ssr:stedsnr" v="677004" />
	</node>
	<node id="-532567" lat="61.6061694419" lon="6.61853888787">
		<tag k="name" v="Kruna" />
		<tag k="natural" v="hill" />
		<tag k="place" v="locality" />
		<tag k="ssr:stedsnr" v="639881" />
	</node>
	<node id="-532566" lat="61.6179444401" lon="6.63172222216">
		<tag k="name" v="Huldrehaugen" />
		<tag k="natural" v="hill" />
		<tag k="place" v="locality" />
		<tag k="ssr:stedsnr" v="639876" />
	</node>
	<node id="-532564" lat="61.6124194427" lon="6.55559445201">
		<tag k="name" v="Sauelia" />
		<tag k="natural" v="slope" />
		<tag k="place" v="locality" />
		<tag k="ssr:stedsnr" v="639864" />
	</node>
	<node id="-532563" lat="61.6059194475" lon="6.56158610224">
		<tag k="name" v="Breivadbakken" />
		<tag k="natural" v="slope" />
		<tag k="place" v="locality" />
		<tag k="ssr:stedsnr" v="639861" />
	</node>
	<node id="-532562" lat="61.5242388877" lon="6.61727499932">
		<tag k="name" v="Allhaugane" />
		<tag k="natural" v="hill" />
		<tag k="place" v="locality" />
		<tag k="ssr:stedsnr" v="639857" />
	</node>
	<node id="-532561" lat="61.481072224" lon="6.04361110195">
		<tag k="name" v="Karitåene" />
		<tag k="place" v="locality" />
		<tag k="ssr:stedsnr" v="639847" />
	</node>
	<node id="-532560" lat="61.4781916635" lon="6.02614166223">
		<tag k="name" v="Haneflata" />
		<tag k="natural" v="plateau" />
		<tag k="ssr:stedsnr" v="639842" />
	</node>
	<node id="-532559" lat="61.4726722202" lon="6.01473332704">
		<tag k="name" v="Bruna" />
		<tag k="place" v="locality" />
		<tag k="ssr:stedsnr" v="639838" />
	</node>
	<node id="-532558" lat="61.6219444457" lon="6.71297777677">
		<tag k="name" v="Daleskolten" />
		<tag k="natural" v="hill" />
		<tag k="place" v="locality" />
		<tag k="ssr:stedsnr" v="639826" />
	</node>
	<node id="-532557" lat="61.6238500029" lon="6.70631110737">
		<tag k="name" v="Nolten" />
		<tag k="natural" v="hill" />
		<tag k="place" v="locality" />
		<tag k="ssr:stedsnr" v="639824" />
	</node>
	<node id="-532556" lat="61.6141138901" lon="6.72901388047">
		<tag k="name" v="Einebakken" />
		<tag k="natural" v="slope" />
		<tag k="place" v="locality" />
		<tag k="ssr:stedsnr" v="639782" />
	</node>
	<node id="-532555" lat="61.6260833333" lon="6.43423054879">
		<tag k="name" v="Høgeskogen" />
		<tag k="natural" v="hill" />
		<tag k="place" v="locality" />
		<tag k="ssr:stedsnr" v="639121" />
	</node>
	<node id="-532554" lat="61.6290416709" lon="6.4517055595">
		<tag k="name" v="Stegane" />
		<tag k="natural" v="hill" />
		<tag k="place" v="locality" />
		<tag k="ssr:stedsnr" v="639109" />
	</node>
	<node id="-532553" lat="61.6226861155" lon="6.72398611794">
		<tag k="name" v="Skorane" />
		<tag k="natural" v="valley" />
		<tag k="place" v="locality" />
		<tag k="ssr:stedsnr" v="638317" />
	</node>
	<node id="-532551" lat="61.5121000031" lon="6.35595833061">
		<tag k="name" v="Bjørnastegen" />
		<tag k="natural" v="hill" />
		<tag k="place" v="locality" />
		<tag k="ssr:stedsnr" v="638208" />
	</node>
	<node id="-532550" lat="61.5296583356" lon="6.40011666756">
		<tag k="name" v="Løtuftebakkane" />
		<tag k="natural" v="slope" />
		<tag k="place" v="locality" />
		<tag k="ssr:stedsnr" v="638207" />
	</node>
	<node id="-532549" lat="61.5647611136" lon="6.26121111801">
		<tag k="name" v="Fosshaugen" />
		<tag k="natural" v="hill" />
		<tag k="place" v="locality" />
		<tag k="ssr:stedsnr" v="638201" />
	</node>
	<node id="-532548" lat="61.4931111118" lon="6.19933888347">
		<tag k="name" v="Steineggja" />
		<tag k="natural" v="hill" />
		<tag k="place" v="locality" />
		<tag k="ssr:stedsnr" v="638188" />
	</node>
	<node id="-532547" lat="61.4964750004" lon="6.17359166974">
		<tag k="name" v="Flaten" />
		<tag k="place" v="locality" />
		<tag k="ssr:stedsnr" v="638185" />
	</node>
	<node id="-532545" lat="61.5053361117" lon="6.28390278009">
		<tag k="name" v="Bjørnhamaren" />
		<tag k="natural" v="hill" />
		<tag k="place" v="locality" />
		<tag k="ssr:stedsnr" v="638176" />
	</node>
	<node id="-532542" lat="61.5032055516" lon="6.11286945354">
		<tag k="name" v="Flatene" />
		<tag k="place" v="locality" />
		<tag k="ssr:stedsnr" v="638148" />
	</node>
	<node id="-532541" lat="61.5133777806" lon="6.06192777068">
		<tag k="name" v="Langhaugen" />
		<tag k="natural" v="hill" />
		<tag k="place" v="locality" />
		<tag k="ssr:stedsnr" v="638141" />
	</node>
	<node id="-532540" lat="61.5241861141" lon="6.15439721845">
		<tag k="name" v="Tåbruna" />
		<tag k="place" v="locality" />
		<tag k="ssr:stedsnr" v="638130" />
	</node>
	<node id="-532539" lat="61.523905558" lon="6.07937499708">
		<tag k="name" v="Gjerdet" />
		<tag k="place" v="locality" />
		<tag k="ssr:stedsnr" v="638119" />
	</node>
	<node id="-532538" lat="61.5019694432" lon="6.04852223012">
		<tag k="name" v="Pikhaugen" />
		<tag k="natural" v="hill" />
		<tag k="place" v="locality" />
		<tag k="ssr:stedsnr" v="638114" />
	</node>
	<node id="-532537" lat="61.5338861072" lon="6.47783056416">
		<tag k="name" v="Bjerrnukane" />
		<tag k="natural" v="hill" />
		<tag k="place" v="locality" />
		<tag k="ssr:stedsnr" v="638073" />
	</node>
	<node id="-532536" lat="61.5349972224" lon="6.47543055139">
		<tag k="name" v="Liabotnen" />
		<tag k="natural" v="valley" />
		<tag k="place" v="locality" />
		<tag k="ssr:stedsnr" v="638071" />
	</node>
	<node id="-532533" lat="61.5357361112" lon="6.3240944477">
		<tag k="name" v="Ospehammaren" />
		<tag k="place" v="locality" />
		<tag k="ssr:stedsnr" v="638032" />
	</node>
	<node id="-532531" lat="61.5417916689" lon="6.31825000811">
		<tag k="name" v="Juklestadbotnen" />
		<tag k="natural" v="valley" />
		<tag k="place" v="locality" />
		<tag k="ssr:stedsnr" v="638026" />
	</node>
	<node id="-532530" lat="61.5632249981" lon="6.36474721438">
		<tag k="name" v="Langeskora" />
		<tag k="natural" v="valley" />
		<tag k="place" v="locality" />
		<tag k="ssr:stedsnr" v="638016" />
	</node>
	<node id="-532529" lat="61.5557972219" lon="6.33244444187">
		<tag k="name" v="Bjørnebakken" />
		<tag k="natural" v="slope" />
		<tag k="place" v="locality" />
		<tag k="ssr:stedsnr" v="638011" />
	</node>
	<node id="-532528" lat="61.5727833341" lon="6.35094167262">
		<tag k="name" v="Brekka" />
		<tag k="natural" v="slope" />
		<tag k="place" v="locality" />
		<tag k="ssr:stedsnr" v="638007" />
	</node>
	<node id="-532527" lat="61.4997583337" lon="6.29501943659">
		<tag k="name" v="Kvileplassen" />
		<tag k="place" v="locality" />
		<tag k="ssr:stedsnr" v="638002" />
	</node>
	<node id="-532525" lat="61.5161777801" lon="6.43405556045">
		<tag k="name" v="Støylsrinden" />
		<tag k="natural" v="hill" />
		<tag k="place" v="locality" />
		<tag k="ssr:stedsnr" v="627808" />
	</node>
	<node id="-532521" lat="61.5264944414" lon="6.66690278054">
		<tag k="name" v="Litlebredalen" />
		<tag k="natural" v="valley" />
		<tag k="place" v="locality" />
		<tag k="ssr:stedsnr" v="616877" />
	</node>
	<node id="-532520" lat="61.5109805518" lon="6.69278055759">
		<tag k="fixme" v="consider natural=peak for the most distinct mountains in the district" />
		<tag k="name" v="Tverrfjellet" />
		<tag k="natural" v="hill" />
		<tag k="place" v="locality" />
		<tag k="ssr:stedsnr" v="616873" />
	</node>
	<node id="-532518" lat="61.5986111085" lon="6.66550556386">
		<tag k="fixme" v="consider natural=peak for the most distinct mountains in the district" />
		<tag k="name" v="Dauremålsnipa" />
		<tag k="natural" v="hill" />
		<tag k="place" v="locality" />
		<tag k="ssr:stedsnr" v="616851" />
	</node>
	<node id="-532517" lat="61.6319249999" lon="6.65657777132">
		<tag k="name" v="Stamsnipa" />
		<tag k="natural" v="hill" />
		<tag k="place" v="locality" />
		<tag k="ssr:stedsnr" v="616838" />
	</node>
	<node id="-532515" lat="61.6273166694" lon="6.71286111364">
		<tag k="alt_name" v="Hauadalen" />
		<tag k="name" v="Haugadalen" />
		<tag k="natural" v="valley" />
		<tag k="place" v="locality" />
		<tag k="ssr:stedsnr" v="616832" />
	</node>
	<node id="-532514" lat="61.536397218" lon="6.09288888718">
		<tag k="fixme" v="consider natural=peak for the most distinct mountains in the district" />
		<tag k="name" v="Nipene" />
		<tag k="natural" v="hill" />
		<tag k="place" v="locality" />
		<tag k="ssr:stedsnr" v="616161" />
	</node>
	<node id="-532513" lat="61.515908334" lon="6.08502221513">
		<tag k="fixme" v="consider natural=peak for the most distinct mountains in the district" />
		<tag k="name" v="Ørsetfjellet" />
		<tag k="natural" v="hill" />
		<tag k="place" v="locality" />
		<tag k="ssr:stedsnr" v="616143" />
	</node>
	<node id="-532512" lat="61.6193999997" lon="6.47651944479">
		<tag k="fixme" v="consider natural=peak for the most distinct mountains in the district" />
		<tag k="name" v="Kupenova" />
		<tag k="natural" v="hill" />
		<tag k="place" v="locality" />
		<tag k="ssr:stedsnr" v="616028" />
	</node>
	<node id="-532511" lat="61.6027000012" lon="6.343705563">
		<tag k="fixme" v="consider natural=peak for the most distinct mountains in the district" />
		<tag k="name" v="Instengegga" />
		<tag k="natural" v="hill" />
		<tag k="place" v="locality" />
		<tag k="ssr:stedsnr" v="616017" />
	</node>
	<node id="-532510" lat="61.6005499958" lon="6.38079165784">
		<tag k="fixme" v="consider natural=peak for the most distinct mountains in the district" />
		<tag k="name" v="Vardefjellet" />
		<tag k="natural" v="hill" />
		<tag k="place" v="locality" />
		<tag k="ssr:stedsnr" v="616015" />
	</node>
	<node id="-532503" lat="61.4669055526" lon="6.32086665763">
		<tag k="fixme" v="consider natural=peak for the most distinct mountains in the district" />
		<tag k="name" v="Isvassnipa" />
		<tag k="natural" v="hill" />
		<tag k="place" v="locality" />
		<tag k="ssr:stedsnr" v="614687" />
	</node>
	<node id="-532502" lat="61.4465555585" lon="6.1751583348">
		<tag k="name" v="Skardgrovbotnen" />
		<tag k="natural" v="valley" />
		<tag k="place" v="locality" />
		<tag k="ssr:stedsnr" v="614328" />
	</node>
	<node id="-532500" lat="61.4636555573" lon="6.16026110457">
		<tag k="name" v="Storehaugen" />
		<tag k="natural" v="hill" />
		<tag k="place" v="locality" />
		<tag k="ssr:stedsnr" v="614306" />
	</node>
	<node id="-532497" lat="61.496550004" lon="6.068899993">
		<tag k="fixme" v="consider natural=peak for the most distinct mountains in the district" />
		<tag k="name" v="Aksla" />
		<tag k="natural" v="hill" />
		<tag k="place" v="locality" />
		<tag k="ssr:stedsnr" v="614264" />
	</node>
	<node id="-532494" lat="61.6154527767" lon="6.64274443705">
		<tag k="name" v="Høgehammaren" />
		<tag k="natural" v="hill" />
		<tag k="place" v="locality" />
		<tag k="ssr:stedsnr" v="578842" />
	</node>
	<node id="-532493" lat="61.5981249996" lon="6.59225555249">
		<tag k="name" v="Småskorane" />
		<tag k="natural" v="hill" />
		<tag k="place" v="locality" />
		<tag k="ssr:stedsnr" v="578833" />
	</node>
	<node id="-532492" lat="61.61258889" lon="6.61070556331">
		<tag k="name" v="Kviehammaren" />
		<tag k="natural" v="hill" />
		<tag k="place" v="locality" />
		<tag k="ssr:stedsnr" v="578830" />
	</node>
	<node id="-532490" lat="61.4715694466" lon="6.04605277192">
		<tag k="name" v="Gjerdet" />
		<tag k="place" v="locality" />
		<tag k="ssr:stedsnr" v="578790" />
	</node>
	<node id="-532489" lat="61.4740083322" lon="5.99799166331">
		<tag k="name" v="Såta" />
		<tag k="place" v="locality" />
		<tag k="ssr:stedsnr" v="578781" />
	</node>
	<node id="-532488" lat="61.6227277759" lon="6.6692611167">
		<tag k="fixme" v="consider natural=peak for the most distinct mountains in the district" />
		<tag k="name" v="Kråfjell" />
		<tag k="natural" v="hill" />
		<tag k="place" v="locality" />
		<tag k="ssr:stedsnr" v="578776" />
	</node>
	<node id="-532487" lat="61.604916665" lon="6.73631111533">
		<tag k="name" v="Slåttene" />
		<tag k="place" v="locality" />
		<tag k="ssr:stedsnr" v="578742" />
	</node>
	<node id="-532486" lat="61.6206111135" lon="6.72581666624">
		<tag k="name" v="Bjørnaskre" />
		<tag k="natural" v="gorge" />
		<tag k="ssr:stedsnr" v="578743" />
	</node>
	<node id="-532485" lat="61.4484722228" lon="6.02787222187">
		<tag k="name" v="Kyraklypet" />
		<tag k="natural" v="valley" />
		<tag k="place" v="locality" />
		<tag k="ssr:stedsnr" v="578326" />
	</node>
	<node id="-532482" lat="61.5598972253" lon="6.26418611911">
		<tag k="name" v="Rognstadhaugane" />
		<tag k="natural" v="hill" />
		<tag k="place" v="locality" />
		<tag k="ssr:stedsnr" v="578205" />
	</node>
	<node id="-532481" lat="61.5409500036" lon="6.2218055481">
		<tag k="name" v="Ålhusskorane" />
		<tag k="natural" v="valley" />
		<tag k="place" v="locality" />
		<tag k="ssr:stedsnr" v="578199" />
	</node>
</osm>
