<?xml version="1.0" encoding="UTF-8"?>
<osm generator="osmapis" version="0.6">
	<node id="-532224" lat="61.521524997" lon="6.69110000858">
		<tag k="name" v="Lundabreen" />
		<tag k="natural" v="glacier" />
		<tag k="ssr:stedsnr" v="252842" />
	</node>
	<node id="-531966" lat="61.4693666698" lon="6.00162221837">
		<tag k="name" v="Gråura" />
		<tag k="natural" v="scree" />
		<tag k="ssr:stedsnr" v="32815" />
	</node>
	<node id="-531962" lat="61.59268333" lon="6.73813055518">
		<tag k="name" v="Geitbruura" />
		<tag k="natural" v="scree" />
		<tag k="ssr:stedsnr" v="32771" />
	</node>
	<node id="-532473" lat="61.5151583327" lon="6.14025832619">
		<tag k="name" v="Bjørnasteinen" />
		<tag k="natural" v="stone" />
		<tag k="ssr:stedsnr" v="578143" />
	</node>
	<node id="-532470" lat="61.522063891" lon="6.15215833862">
		<tag k="name" v="Kalvegjerdskogen" />
		<tag k="place" v="locality" />
		<tag k="ssr:stedsnr" v="578133" />
	</node>
	<node id="-532467" lat="61.4829638858" lon="6.05493610205">
		<tag k="name" v="Orremyra" />
		<tag k="natural" v="wetland" />
		<tag k="ssr:stedsnr" v="578113" />
	</node>
	<node id="-532338" lat="61.6064111095" lon="6.54759999648">
		<tag k="name" v="Moldmyrane" />
		<tag k="natural" v="wetland" />
		<tag k="ssr:stedsnr" v="457843" />
	</node>
	<node id="-531755" lat="61.4930222198" lon="6.09163889742">
		<tag k="name" v="Storesteinen" />
		<tag k="natural" v="stone" />
		<tag k="ssr:stedsnr" v="335156" />
	</node>
	<node id="-532334" lat="61.4819305528" lon="6.04967499243">
		<tag k="name" v="Osemyrane" />
		<tag k="natural" v="wetland" />
		<tag k="ssr:stedsnr" v="457812" />
	</node>
	<node id="-531947" lat="61.4970833371" lon="6.04450555501">
		<tag k="name" v="Kvilesteinen" />
		<tag k="natural" v="stone" />
		<tag k="ssr:stedsnr" v="32108" />
	</node>
	<node id="-531690" lat="61.6170277763" lon="6.5899416715">
		<tag k="name" v="Grønskreda" />
		<tag k="natural" v="scree" />
		<tag k="place" v="locality" />
		<tag k="ssr:stedsnr" v="275811" />
	</node>
	<node id="-532329" lat="61.6006499982" lon="6.74009999126">
		<tag k="name" v="Storura" />
		<tag k="natural" v="scree" />
		<tag k="ssr:stedsnr" v="457771" />
	</node>
	<node id="-531944" lat="61.4889194478" lon="6.05493333359">
		<tag k="name" v="Bårningsmyra" />
		<tag k="natural" v="wetland" />
		<tag k="ssr:stedsnr" v="32097" />
	</node>
	<node id="-531942" lat="61.5121555533" lon="6.58533611427">
		<tag k="name" v="Grønbakkura" />
		<tag k="natural" v="scree" />
		<tag k="ssr:stedsnr" v="32090" />
	</node>
	<node id="-532452" lat="61.5121500022" lon="6.44878889497">
		<tag k="name" v="Salsmyrane" />
		<tag k="natural" v="wetland" />
		<tag k="ssr:stedsnr" v="566496" />
	</node>
	<node id="-532190" lat="61.4712444452" lon="6.2607861055">
		<tag k="name" v="Kviturane" />
		<tag k="natural" v="scree" />
		<tag k="ssr:stedsnr" v="214165" />
	</node>
	<node id="-532059" lat="61.6585305579" lon="6.7229055524">
		<tag k="name" v="Haugabreen" />
		<tag k="natural" v="glacier" />
		<tag k="ssr:stedsnr" v="130922" />
	</node>
	<node id="-532186" lat="61.5030333306" lon="6.05776387992">
		<tag k="name" v="Trollhamarmyra" />
		<tag k="natural" v="wetland" />
		<tag k="ssr:stedsnr" v="214129" />
	</node>
	<node id="-531673" lat="61.5054722228" lon="6.12916666894">
		<tag k="name" v="Skylesteinen" />
		<tag k="natural" v="stone" />
		<tag k="ssr:stedsnr" v="275149" />
	</node>
	<node id="-532694" lat="61.5063805578" lon="6.04613332646">
		<tag k="name" v="Breimyrane" />
		<tag k="natural" v="wetland" />
		<tag k="ssr:stedsnr" v="760138" />
	</node>
	<node id="-531669" lat="61.4866361153" lon="6.10569166991">
		<tag k="name" v="Hjellsteinen" />
		<tag k="natural" v="stone" />
		<tag k="ssr:stedsnr" v="275129" />
	</node>
	<node id="-532180" lat="61.5277333366" lon="6.09828055756">
		<tag k="name" v="Skjenstosteinen" />
		<tag k="natural" v="stone" />
		<tag k="ssr:stedsnr" v="214116" />
	</node>
	<node id="-532818" lat="61.5986361093" lon="6.73837222607">
		<tag k="name" v="Bjørneura" />
		<tag k="natural" v="scree" />
		<tag k="ssr:stedsnr" v="821820" />
	</node>
	<node id="-532049" lat="61.4973194425" lon="6.69060277962">
		<tag k="name" v="Marabreen" />
		<tag k="natural" v="glacier" />
		<tag k="ssr:stedsnr" v="129872" />
	</node>
	<node id="-532686" lat="61.5224833372" lon="6.42120555816">
		<tag k="name" v="Tjønnamyrane" />
		<tag k="natural" v="wetland" />
		<tag k="ssr:stedsnr" v="760052" />
	</node>
	<node id="-532941" lat="61.5186194416" lon="6.65477777241">
		<tag k="name" v="Storeskreda" />
		<tag k="natural" v="scree" />
		<tag k="place" v="locality" />
		<tag k="ssr:stedsnr" v="943789" />
	</node>
	<node id="-532809" lat="61.5376166678" lon="6.23531388679">
		<tag k="name" v="Bjørnesteinen" />
		<tag k="natural" v="stone" />
		<tag k="ssr:stedsnr" v="821195" />
	</node>
	<node id="-532552" lat="61.5192138874" lon="6.36243611771">
		<tag k="name" v="Myrane" />
		<tag k="natural" v="wetland" />
		<tag k="ssr:stedsnr" v="638210" />
	</node>
	<node id="-531889" lat="61.5294749986" lon="6.29480833728">
		<tag k="name" v="Storeskreda" />
		<tag k="natural" v="scree" />
		<tag k="place" v="locality" />
		<tag k="ssr:stedsnr" v="882209" />
	</node>
	<node id="-532164" lat="61.5075472265" lon="6.34578611993">
		<tag k="name" v="Storemyra" />
		<tag k="natural" v="wetland" />
		<tag k="ssr:stedsnr" v="214001" />
	</node>
	<node id="-532418" lat="61.5898472202" lon="6.73325000618">
		<tag k="name" v="Skredene" />
		<tag k="natural" v="scree" />
		<tag k="place" v="locality" />
		<tag k="ssr:stedsnr" v="518773" />
	</node>
	<node id="-532491" lat="61.5185499971" lon="6.64615278304">
		<tag k="name" v="Lundekyrkja" />
		<tag k="natural" v="stone" />
		<tag k="ssr:stedsnr" v="578815" />
	</node>
	<node id="-532415" lat="61.4635277781" lon="6.20698889628">
		<tag k="name" v="Storemyra" />
		<tag k="natural" v="wetland" />
		<tag k="ssr:stedsnr" v="518191" />
	</node>
	<node id="-532414" lat="61.5222166634" lon="6.1265499925">
		<tag k="name" v="Holtemyrane" />
		<tag k="natural" v="wetland" />
		<tag k="ssr:stedsnr" v="518174" />
	</node>
	<node id="-532412" lat="61.464108337" lon="6.03161943538">
		<tag k="name" v="Eikåsmyrane" />
		<tag k="natural" v="wetland" />
		<tag k="ssr:stedsnr" v="518143" />
	</node>
	<node id="-532795" lat="61.6352138901" lon="6.5192194464">
		<tag k="name" v="Blåura" />
		<tag k="natural" v="scree" />
		<tag k="ssr:stedsnr" v="821104" />
	</node>
	<node id="-531768" lat="61.515922218" lon="6.13609722778">
		<tag k="name" v="Bergemyrsteinen" />
		<tag k="natural" v="stone" />
		<tag k="ssr:stedsnr" v="336172" />
	</node>
	<node id="-531895" lat="61.6188361075" lon="6.65853888275">
		<tag k="name" v="Kråkesteinen" />
		<tag k="natural" v="stone" />
		<tag k="ssr:stedsnr" v="882763" />
	</node>
	<node id="-532021" lat="61.5179138901" lon="6.59863611324">
		<tag k="name" v="Rogneskogen" />
		<tag k="place" v="locality" />
		<tag k="ssr:stedsnr" v="93100" />
	</node>
	<node id="-531763" lat="61.4946694417" lon="6.04436943572">
		<tag k="name" v="Porsmyra" />
		<tag k="natural" v="wetland" />
		<tag k="ssr:stedsnr" v="336150" />
	</node>
	<node id="-532402" lat="61.4922083335" lon="6.17271389569">
		<tag k="name" v="Steinmyra" />
		<tag k="natural" v="wetland" />
		<tag k="ssr:stedsnr" v="517183" />
	</node>
	<node id="-531827" lat="61.49895556" lon="6.04447778123">
		<tag k="name" v="Løkemyra" />
		<tag k="natural" v="wetland" />
		<tag k="ssr:stedsnr" v="396107" />
	</node>
	<node id="-532270" lat="61.5231277765" lon="6.4322305629">
		<tag k="name" v="Svoramyrane" />
		<tag k="natural" v="wetland" />
		<tag k="ssr:stedsnr" v="434995" />
	</node>
	<node id="-531885" lat="61.5269333347" lon="6.27439722924">
		<tag k="name" v="Skjersura" />
		<tag k="natural" v="scree" />
		<tag k="ssr:stedsnr" v="882178" />
	</node>
	<node id="-532012" lat="61.5743972216" lon="6.39612222251">
		<tag k="name" v="Svevamyrane" />
		<tag k="natural" v="wetland" />
		<tag k="ssr:stedsnr" v="93020" />
	</node>
	<node id="-532523" lat="61.6169611093" lon="6.64721388975">
		<tag k="name" v="Befringsøyane" />
		<tag k="place" v="locality" />
		<tag k="ssr:stedsnr" v="627472" />
	</node>
	<node id="-531878" lat="61.4579777819" lon="6.12382499135">
		<tag k="name" v="Hussteinen" />
		<tag k="natural" v="stone" />
		<tag k="ssr:stedsnr" v="882128" />
	</node>
	<node id="-532773" lat="61.6100916647" lon="6.46039999236">
		<tag k="historic" v="shieling" />
		<tag k="name" v="Støylsflata" />
		<tag k="place" v="locality" />
		<tag k="ssr:stedsnr" v="809814" />
	</node>
	<node id="-532387" lat="61.5615222221" lon="6.32686389333">
		<tag k="name" v="Tverlimyrane" />
		<tag k="natural" v="wetland" />
		<tag k="ssr:stedsnr" v="517010" />
	</node>
	<node id="-531974" lat="61.6192861099" lon="6.6455111157">
		<tag k="landuse" v="meadow" />
		<tag k="name" v="Flata" />
		<tag k="ssr:stedsnr" v="32856" />
	</node>
	<node id="-532543" lat="61.5078472195" lon="6.13298055343">
		<tag k="name" v="Storeura" />
		<tag k="natural" v="scree" />
		<tag k="ssr:stedsnr" v="638153" />
	</node>
	<node id="-532381" lat="61.5003638907" lon="6.01444722584">
		<tag k="name" v="Tynningen" />
		<tag k="natural" v="wetland" />
		<tag k="ssr:stedsnr" v="495153" />
	</node>
	<node id="-532314" lat="61.4930166627" lon="6.07628888432">
		<tag k="name" v="Feflotmyra" />
		<tag k="natural" v="wetland" />
		<tag k="ssr:stedsnr" v="457137" />
	</node>
	<node id="-532633" lat="61.6152805554" lon="6.5995666752">
		<tag k="name" v="Tjovura" />
		<tag k="natural" v="wetland" />
		<tag k="ssr:stedsnr" v="700860" />
	</node>
	<node id="-532119" lat="61.4524416672" lon="6.00854167344">
		<tag k="name" v="Bosmyra" />
		<tag k="natural" v="wetland" />
		<tag k="ssr:stedsnr" v="153353" />
	</node>
	<node id="-532630" lat="61.4884166622" lon="6.04485276974">
		<tag k="name" v="Skilingemyra" />
		<tag k="natural" v="wetland" />
		<tag k="ssr:stedsnr" v="700819" />
	</node>
	<node id="-532718" lat="61.47765" lon="6.04181667138">
		<tag k="name" v="Mjølkeplassmyrane" />
		<tag k="natural" v="wetland" />
		<tag k="ssr:stedsnr" v="760822" />
	</node>
	<node id="-532114" lat="61.5588166704" lon="6.25873333326">
		<tag k="name" v="Ursteinen" />
		<tag k="natural" v="stone" />
		<tag k="ssr:stedsnr" v="153218" />
	</node>
	<node id="-531856" lat="61.6065472222" lon="6.62958610347">
		<tag k="name" v="Ospehammarsmyra" />
		<tag k="natural" v="wetland" />
		<tag k="ssr:stedsnr" v="396837" />
	</node>
	<node id="-532609" lat="61.4824333341" lon="6.0836166755">
		<tag k="name" v="Øygardsmyrane" />
		<tag k="natural" v="wetland" />
		<tag k="ssr:stedsnr" v="700151" />
	</node>
	<node id="-532715" lat="61.6196388875" lon="6.66526944035">
		<tag k="name" v="Blåurda" />
		<tag k="natural" v="scree" />
		<tag k="ssr:stedsnr" v="760812" />
	</node>
	<node id="-532813" lat="61.5211638875" lon="6.38782777611">
		<tag k="name" v="Demmemyra" />
		<tag k="natural" v="wetland" />
		<tag k="ssr:stedsnr" v="821210" />
	</node>
	<node id="-532799" lat="61.5010111082" lon="6.05742499723">
		<tag k="name" v="Mjølkemyrane" />
		<tag k="natural" v="wetland" />
		<tag k="ssr:stedsnr" v="821142" />
	</node>
	<node id="-532702" lat="61.4602583368" lon="6.20825556071">
		<tag k="name" v="Kviturane" />
		<tag k="natural" v="scree" />
		<tag k="ssr:stedsnr" v="760193" />
	</node>
	<node id="-532484" lat="61.4514027793" lon="6.02981943626">
		<tag k="name" v="Tjørnamyra" />
		<tag k="natural" v="wetland" />
		<tag k="ssr:stedsnr" v="578325" />
	</node>
	<node id="-532932" lat="61.5071000033" lon="6.2902333363">
		<tag k="name" v="Brunemyra" />
		<tag k="natural" v="wetland" />
		<tag k="ssr:stedsnr" v="943226" />
	</node>
</osm>
