<?xml version="1.0" encoding="UTF-8"?>
<osm generator="osmapis" version="0.6">
	<node id="-532990" lat="61.5246138881" lon="6.40024443875">
		<tag k="alt_name" v="Løgarden" />
		<tag k="name" v="Løgard" />
		<tag k="place" v="farm" />
		<tag k="ssr:stedsnr" v="253000" />
	</node>
	<node id="-533501" lat="61.5694083346" lon="6.41919166067">
		<tag k="name" v="Blomlihytta" />
		<tag k="place" v="isolated_dwelling" />
		<tag k="ssr:stedsnr" v="798938" />
	</node>
	<node id="-532476" lat="61.5213675753" lon="6.19847904635">
		<tag k="fixme" v="consider place=hamlet" />
		<tag k="name" v="Solheim" />
		<tag k="place" v="farm" />
		<tag k="ssr:stedsnr" v="313161" />
	</node>
	<node id="-532475" lat="61.5001189629" lon="6.17210952172">
		<tag k="fixme" v="consider place=hamlet" />
		<tag k="name" v="Hammar" />
		<tag k="place" v="farm" />
		<tag k="ssr:stedsnr" v="313148" />
	</node>
	<node id="-532986" lat="61.5314666713" lon="6.27727778299">
		<tag k="name" v="Bjørsetstøylen" />
		<tag k="place" v="isolated_dwelling" />
		<tag k="ssr:stedsnr" v="252985" />
	</node>
	<node id="-532473" lat="61.6183713202" lon="6.45054627018">
		<tag k="fixme" v="consider place=hamlet" />
		<tag k="name" v="Førde" />
		<tag k="place" v="farm" />
		<tag k="ssr:stedsnr" v="313033" />
	</node>
	<node id="-532472" lat="61.6007209899" lon="6.51942724272">
		<tag k="fixme" v="consider place=hamlet" />
		<tag k="name" v="Bolset" />
		<tag k="place" v="farm" />
		<tag k="ssr:stedsnr" v="313019" />
	</node>
	<node id="-532471" lat="61.5303522397" lon="6.23223912536">
		<tag k="fixme" v="consider place=hamlet" />
		<tag k="name" v="Ålhus" />
		<tag k="place" v="village" />
		<tag k="ssr:stedsnr" v="312992" />
	</node>
	<node id="-532470" lat="61.5650750038" lon="6.52971111943">
		<tag k="historic" v="shieling" />
		<tag k="name" v="Ytre Fossheimsstøylen" />
		<tag k="place" v="locality" />
		<tag k="ssr:stedsnr" v="312978" />
	</node>
	<node id="-532469" lat="61.5624194417" lon="6.40081110771">
		<tag k="fixme" v="consider place=hamlet" />
		<tag k="name" v="Helgheim" />
		<tag k="place" v="village" />
		<tag k="ssr:stedsnr" v="312972" />
	</node>
	<node id="-532468" lat="61.5619438938" lon="6.40901952705">
		<tag k="fixme" v="consider place=hamlet" />
		<tag k="name" v="Hus" />
		<tag k="place" v="farm" />
		<tag k="ssr:stedsnr" v="312969" />
	</node>
	<node id="-532465" lat="61.5700750014" lon="6.25218887991">
		<tag k="alt_name" v="Jostøylen" />
		<tag k="name" v="Lia" />
		<tag k="place" v="isolated_dwelling" />
		<tag k="ssr:stedsnr" v="312937" />
	</node>
	<node id="-533488" lat="61.4836249987" lon="6.11821111656">
		<tag k="name" v="Lihaug" />
		<tag k="place" v="farm" />
		<tag k="ssr:stedsnr" v="797281" />
	</node>
	<node id="-532463" lat="61.5143888916" lon="6.23611945337">
		<tag k="alt_name" v="Årneset" />
		<tag k="name" v="Årnes" />
		<tag k="place" v="farm" />
		<tag k="ssr:stedsnr" v="312863" />
	</node>
	<node id="-533486" lat="61.4815861147" lon="6.06546667084">
		<tag k="alt_name" v="Langhågane" />
		<tag k="name" v="Langhaugane" />
		<tag k="place" v="hamlet" />
		<tag k="ssr:stedsnr" v="797256" />
	</node>
	<node id="-532733" lat="61.490491665" lon="6.24461389756">
		<tag k="alt_name" v="Nansnipestøylen" />
		<tag k="historic" v="shieling" />
		<tag k="name" v="Nonsnipestøylen" />
		<tag k="place" v="locality" />
		<tag k="ssr:stedsnr" v="68687" />
	</node>
	<node id="-533484" lat="61.4882555598" lon="6.25490278504">
		<tag k="alt_name" v="Øvre Sandalstøylane" />
		<tag k="historic" v="shieling" />
		<tag k="name" v="Ytre Sanddalsstøylen" />
		<tag k="place" v="locality" />
		<tag k="ssr:stedsnr" v="796674" />
	</node>
	<node id="-532970" lat="61.6116074733" lon="6.63218568004">
		<tag k="fixme" v="consider place=hamlet" />
		<tag k="name" v="Befring" />
		<tag k="place" v="farm" />
		<tag k="ssr:stedsnr" v="252816" />
	</node>
	<node id="-532988" lat="61.5267833348" lon="6.4322861033">
		<tag k="name" v="Svorheim" />
		<tag k="place" v="farm" />
		<tag k="ssr:stedsnr" v="252989" />
	</node>
	<node id="-532453" lat="61.4601999992" lon="6.19021944019">
		<tag k="alt_name" v="Systestøylen" />
		<tag k="historic" v="shieling" />
		<tag k="name" v="Søstestøylen" />
		<tag k="place" v="locality" />
		<tag k="ssr:stedsnr" v="311375" />
	</node>
	<node id="-532452" lat="61.4733000017" lon="6.09283611555">
		<tag k="alt_name" v="Støylen" />
		<tag k="historic" v="shieling" />
		<tag k="name" v="Øygardsstøylen" />
		<tag k="place" v="locality" />
		<tag k="ssr:stedsnr" v="311368" />
	</node>
	<node id="-532451" lat="61.4850901636" lon="6.12656505829">
		<tag k="alt_name" v="Gjesdal" />
		<tag k="fixme" v="consider place=hamlet" />
		<tag k="name" v="Gjesdalen" />
		<tag k="place" v="farm" />
		<tag k="ssr:stedsnr" v="311355" />
	</node>
	<node id="-532962" lat="61.4680314" lon="6.02703324396">
		<tag k="alt_name" v="Eikås, yt" />
		<tag k="fixme" v="consider place=hamlet" />
		<tag k="name" v="Ytre Eikås" />
		<tag k="place" v="farm" />
		<tag k="ssr:stedsnr" v="250296" />
	</node>
	<node id="-532961" lat="61.4921720408" lon="6.06264261044">
		<tag k="fixme" v="consider place=hamlet" />
		<tag k="name" v="Flugekvam" />
		<tag k="place" v="farm" />
		<tag k="ssr:stedsnr" v="250265" />
	</node>
	<node id="-533698" lat="61.5189108882" lon="6.15853017263">
		<tag k="fixme" v="consider place=hamlet" />
		<tag k="name" v="Berg Indre" />
		<tag k="place" v="farm" />
		<tag k="ssr:stedsnr" v="974607" />
	</node>
	<node id="-532985" lat="61.5658666656" lon="6.53963332435">
		<tag k="historic" v="shieling" />
		<tag k="name" v="Indre Fossheimsstøylen" />
		<tag k="place" v="locality" />
		<tag k="ssr:stedsnr" v="252960" />
	</node>
	<node id="-532814" lat="61.5327542205" lon="6.23978579272">
		<tag k="fixme" v="consider place=hamlet" />
		<tag k="name" v="Hegrenes" />
		<tag k="place" v="farm" />
		<tag k="ssr:stedsnr" v="130991" />
	</node>
	<node id="-532984" lat="61.553288343" lon="6.35284523743">
		<tag k="alt_name" v="Årdal Indre;Årdal, in" />
		<tag k="fixme" v="consider place=hamlet" />
		<tag k="name" v="Indre Årdal" />
		<tag k="place" v="farm" />
		<tag k="ssr:stedsnr" v="252954" />
	</node>
	<node id="-533325" lat="61.4787666632" lon="6.02231110717">
		<tag k="alt_name" v="Eikåsstøylen, in" />
		<tag k="name" v="Indre Eikåsstøylen" />
		<tag k="place" v="isolated_dwelling" />
		<tag k="ssr:stedsnr" v="675318" />
	</node>
	<node id="-532898" lat="61.5069083338" lon="6.2442111027">
		<tag k="historic" v="shieling" />
		<tag k="name" v="Årnesstøylen" />
		<tag k="place" v="locality" />
		<tag k="ssr:stedsnr" v="191850" />
	</node>
	<node id="-532983" lat="61.5644878041" lon="6.45264151984">
		<tag k="fixme" v="consider place=hamlet" />
		<tag k="name" v="Fyglastranda" />
		<tag k="place" v="farm" />
		<tag k="ssr:stedsnr" v="252947" />
	</node>
	<node id="-532424" lat="61.5095000028" lon="6.28317777609">
		<tag k="name" v="Rabben" />
		<tag k="place" v="farm" />
		<tag k="ssr:stedsnr" v="275175" />
	</node>
	<node id="-532933" lat="61.4881833363" lon="6.10628611569">
		<tag k="alt_name" v="Lergrovbakke;Lergrovbakken" />
		<tag k="fixme" v="consider place=hamlet" />
		<tag k="name" v="Leirgrovbakken" />
		<tag k="place" v="farm" />
		<tag k="ssr:stedsnr" v="214123" />
	</node>
	<node id="-532982" lat="61.5695083314" lon="6.4686888861">
		<tag k="fixme" v="consider place=hamlet" />
		<tag k="name" v="Haugen" />
		<tag k="place" v="farm" />
		<tag k="ssr:stedsnr" v="252945" />
	</node>
	<node id="-532896" lat="61.6108858785" lon="6.61214266387">
		<tag k="fixme" v="consider place=hamlet" />
		<tag k="name" v="Flatjorda" />
		<tag k="place" v="farm" />
		<tag k="ssr:stedsnr" v="191807" />
	</node>
	<node id="-532981" lat="61.5608916662" lon="6.49430554834">
		<tag k="historic" v="shieling" />
		<tag k="name" v="Vikastøylen" />
		<tag k="place" v="locality" />
		<tag k="ssr:stedsnr" v="252943" />
	</node>
	<node id="-533431" lat="61.4606249965" lon="6.0012527857">
		<tag k="historic" v="shieling" />
		<tag k="name" v="Gamlestøylsmyra" />
		<tag k="place" v="locality" />
		<tag k="ssr:stedsnr" v="748809" />
	</node>
	<node id="-533427" lat="61.6318388783" lon="6.55226892627">
		<tag k="historic" v="shieling" />
		<tag k="name" v="Heggheimsstøylen" />
		<tag k="place" v="locality" />
		<tag k="ssr:stedsnr" v="738046" />
	</node>
	<node id="-533492" lat="61.5038690373" lon="6.26251623083">
		<tag k="fixme" v="consider place=hamlet" />
		<tag k="name" v="Brendene" />
		<tag k="place" v="farm" />
		<tag k="ssr:stedsnr" v="798869" />
	</node>
	<node id="-532913" lat="61.5084527757" lon="6.06612777174">
		<tag k="historic" v="shieling" />
		<tag k="name" v="Vårstøylen" />
		<tag k="place" v="locality" />
		<tag k="ssr:stedsnr" v="192174" />
	</node>
	<node id="-533423" lat="61.5778750044" lon="6.35374444838">
		<tag k="historic" v="shieling" />
		<tag k="name" v="Fjellstøylen" />
		<tag k="place" v="locality" />
		<tag k="ssr:stedsnr" v="738006" />
	</node>
	<node id="-533421" lat="61.5302638932" lon="6.22864999622">
		<tag k="name" v="Grøset" />
		<tag k="place" v="farm" />
		<tag k="ssr:stedsnr" v="737990" />
	</node>
	<node id="-533419" lat="61.5494055554" lon="6.45510000332">
		<tag k="name" v="Sandvika" />
		<tag k="place" v="farm" />
		<tag k="ssr:stedsnr" v="737982" />
	</node>
	<node id="-533418" lat="61.544780443" lon="6.42962860504">
		<tag k="fixme" v="consider place=hamlet" />
		<tag k="name" v="Dvergsdalen" />
		<tag k="place" v="farm" />
		<tag k="ssr:stedsnr" v="737980" />
	</node>
	<node id="-532905" lat="61.5485138891" lon="6.26680277472">
		<tag k="name" v="Dalebø" />
		<tag k="place" v="farm" />
		<tag k="ssr:stedsnr" v="191955" />
	</node>
	<node id="-532904" lat="61.5629833312" lon="6.44615000612">
		<tag k="name" v="Husslåttene" />
		<tag k="place" v="farm" />
		<tag k="ssr:stedsnr" v="191951" />
	</node>
	<node id="-533410" lat="61.5160388846" lon="6.43014444117">
		<tag k="historic" v="shieling" />
		<tag k="name" v="Dvergsdalsstøylen" />
		<tag k="place" v="locality" />
		<tag k="ssr:stedsnr" v="737883" />
	</node>
	<node id="-533408" lat="61.5247756698" lon="6.61424329641">
		<tag k="fixme" v="consider place=hamlet" />
		<tag k="name" v="Ripe" />
		<tag k="place" v="farm" />
		<tag k="ssr:stedsnr" v="737865" />
	</node>
	<node id="-532976" lat="61.5152833363" lon="6.41258888387">
		<tag k="historic" v="shieling" />
		<tag k="name" v="Myklebuststøylen" />
		<tag k="place" v="locality" />
		<tag k="ssr:stedsnr" v="252857" />
	</node>
	<node id="-533406" lat="61.5885416658" lon="6.64070832736">
		<tag k="historic" v="shieling" />
		<tag k="name" v="Flatjordstøylen" />
		<tag k="place" v="locality" />
		<tag k="ssr:stedsnr" v="737855" />
	</node>
	<node id="-533404" lat="61.6314688404" lon="6.63585471298">
		<tag k="historic" v="shieling" />
		<tag k="name" v="Gunnastøylen" />
		<tag k="place" v="locality" />
		<tag k="ssr:stedsnr" v="737822" />
	</node>
	<node id="-532891" lat="61.5343472239" lon="6.14981944203">
		<tag k="historic" v="shieling" />
		<tag k="name" v="Bergsstøylane" />
		<tag k="place" v="locality" />
		<tag k="ssr:stedsnr" v="191138" />
	</node>
	<node id="-533487" lat="61.4974981542" lon="6.15627258854">
		<tag k="name" v="Hammar" />
		<tag k="place" v="farm" />
		<tag k="ssr:stedsnr" v="797260" />
	</node>
	<node id="-532888" lat="61.4843570625" lon="6.11693084937">
		<tag k="alt_name" v="Espehaug" />
		<tag k="fixme" v="consider place=hamlet" />
		<tag k="name" v="Ospehaugen" />
		<tag k="place" v="farm" />
		<tag k="ssr:stedsnr" v="190306" />
	</node>
	<node id="-532886" lat="61.4827250039" lon="6.06588055121">
		<tag k="name" v="Moland" />
		<tag k="place" v="farm" />
		<tag k="ssr:stedsnr" v="190276" />
	</node>
	<node id="-533394" lat="61.4723611123" lon="6.009288894">
		<tag k="alt_name" v="Eikåsstøylen, yt" />
		<tag k="historic" v="shieling" />
		<tag k="name" v="Ytre Eikåsstøylen" />
		<tag k="place" v="locality" />
		<tag k="ssr:stedsnr" v="736298" />
	</node>
	<node id="-533393" lat="61.4966478526" lon="6.15131669651">
		<tag k="alt_name" v="Kjelsnes" />
		<tag k="fixme" v="consider place=hamlet" />
		<tag k="name" v="Kjelsneset" />
		<tag k="place" v="farm" />
		<tag k="ssr:stedsnr" v="736290" />
	</node>
	<node id="-533391" lat="61.4946777758" lon="6.03600000943">
		<tag k="alt_name" v="Dalestøylane" />
		<tag k="historic" v="shieling" />
		<tag k="name" v="Dalestøylen" />
		<tag k="place" v="locality" />
		<tag k="ssr:stedsnr" v="736271" />
	</node>
	<node id="-533387" lat="61.6143947319" lon="6.68263681389">
		<tag k="fixme" v="consider place=hamlet" />
		<tag k="name" v="Øygarden" />
		<tag k="place" v="farm" />
		<tag k="ssr:stedsnr" v="735307" />
	</node>
	<node id="-532972" lat="61.5873888933" lon="6.64058888151">
		<tag k="historic" v="shieling" />
		<tag k="name" v="Grepstadstøylen" />
		<tag k="place" v="locality" />
		<tag k="ssr:stedsnr" v="252832" />
	</node>
	<node id="-532860" lat="61.5287611085" lon="6.22068055505">
		<tag k="name" v="Stranda" />
		<tag k="place" v="hamlet" />
		<tag k="ssr:stedsnr" v="153175" />
	</node>
	<node id="-533132" lat="61.5260069183" lon="6.20977441278">
		<tag k="fixme" v="consider place=hamlet" />
		<tag k="name" v="Sårheim" />
		<tag k="place" v="farm" />
		<tag k="ssr:stedsnr" v="495164" />
	</node>
	<node id="-533365" lat="61.5230555528" lon="6.11427499593">
		<tag k="historic" v="shieling" />
		<tag k="name" v="Ytre Svidalsstøylen" />
		<tag k="place" v="locality" />
		<tag k="ssr:stedsnr" v="700183" />
	</node>
	<node id="-533345" lat="61.6093587084" lon="6.62037627963">
		<tag k="fixme" v="consider place=hamlet" />
		<tag k="name" v="Lyngstad" />
		<tag k="place" v="farm" />
		<tag k="ssr:stedsnr" v="688622" />
	</node>
	<node id="-533341" lat="61.6139055535" lon="6.62110278623">
		<tag k="name" v="Bakke" />
		<tag k="place" v="farm" />
		<tag k="ssr:stedsnr" v="677847" />
	</node>
	<node id="-533339" lat="61.6159212749" lon="6.72145417268">
		<tag k="fixme" v="consider place=hamlet" />
		<tag k="name" v="Åmot" />
		<tag k="place" v="farm" />
		<tag k="ssr:stedsnr" v="677840" />
	</node>
	<node id="-533336" lat="61.5473611085" lon="6.45852499871">
		<tag k="name" v="Vollen" />
		<tag k="place" v="farm" />
		<tag k="ssr:stedsnr" v="676982" />
	</node>
	<node id="-533476" lat="61.5069083324" lon="6.2658555634">
		<tag k="fixme" v="consider place=hamlet" />
		<tag k="name" v="Sanddal" />
		<tag k="old_name" v="Sanddal, in" />
		<tag k="place" v="village" />
		<tag k="ssr:stedsnr" v="785892" />
	</node>
	<node id="-533332" lat="61.5161173609" lon="6.33595277804">
		<tag k="fixme" v="consider place=hamlet" />
		<tag k="name" v="Åsen" />
		<tag k="place" v="farm" />
		<tag k="ssr:stedsnr" v="676863" />
	</node>
	<node id="-533326" lat="61.4645806993" lon="6.02101419105">
		<tag k="alt_name" v="Insteinstad" />
		<tag k="fixme" v="consider place=hamlet" />
		<tag k="name" v="Innsteinstad" />
		<tag k="place" v="farm" />
		<tag k="ssr:stedsnr" v="675326" />
	</node>
	<node id="-532813" lat="61.5392388885" lon="6.33883611044">
		<tag k="fixme" v="consider place=hamlet" />
		<tag k="name" v="Sandnes" />
		<tag k="place" v="farm" />
		<tag k="ssr:stedsnr" v="130985" />
	</node>
	<node id="-532811" lat="61.5715027764" lon="6.47910000469">
		<tag k="name" v="Skei" />
		<tag k="place" v="village" />
		<tag k="ssr:stedsnr" v="130945" />
	</node>
	<node id="-533322" lat="61.6156499963" lon="6.46433612057">
		<tag k="name" v="Indrebø" />
		<tag k="place" v="farm" />
		<tag k="ssr:stedsnr" v="677028" />
	</node>
	<node id="-532808" lat="61.5129159366" lon="6.25538853058">
		<tag k="fixme" v="consider place=hamlet" />
		<tag k="name" v="Tohaugen" />
		<tag k="old_name" v="Tåhaug" />
		<tag k="place" v="farm" />
		<tag k="ssr:stedsnr" v="130851" />
	</node>
	<node id="-532807" lat="61.518385012" lon="6.63497478349">
		<tag k="alt_name" v="Lunde turisthytte" />
		<tag k="fixme" v="consider tourism=alpine_hut or tourism=chalet" />
		<tag k="name" v="Lunde turiststasjon" />
		<tag k="ssr:stedsnr" v="130834" />
		<tag k="tourism" v="wilderness_hut" />
	</node>
	<node id="-532449" lat="61.4868249986" lon="6.09349165944">
		<tag k="name" v="Bakkeslåttene" />
		<tag k="place" v="farm" />
		<tag k="ssr:stedsnr" v="311338" />
	</node>
	<node id="-532670" lat="61.5052694458" lon="6.26086389559">
		<tag k="alt_name" v="Husebakken" />
		<tag k="name" v="Husbakke" />
		<tag k="place" v="farm" />
		<tag k="ssr:stedsnr" v="9871" />
	</node>
	<node id="-533315" lat="61.6000333352" lon="6.64109445031">
		<tag k="historic" v="shieling" />
		<tag k="name" v="Gamlestøylen" />
		<tag k="place" v="locality" />
		<tag k="ssr:stedsnr" v="639867" />
	</node>
	<node id="-532802" lat="61.6156168269" lon="6.69816533466">
		<tag k="alt_name" v="Stardalshaugen" />
		<tag k="fixme" v="consider place=hamlet" />
		<tag k="loc_name" v="Navnløs" />
		<tag k="name" v="Haugen" />
		<tag k="place" v="farm" />
		<tag k="ssr:stedsnr" v="130806" />
	</node>
	<node id="-532801" lat="61.4808032933" lon="6.08730927638">
		<tag k="fixme" v="consider place=hamlet" />
		<tag k="name" v="Øygarden" />
		<tag k="place" v="farm" />
		<tag k="ssr:stedsnr" v="130804" />
	</node>
	<node id="-532800" lat="61.5317194451" lon="6.21071111734">
		<tag k="name" v="Sårheimsstøylen" />
		<tag k="place" v="locality" />
		<tag k="ssr:stedsnr" v="130143" />
	</node>
	<node id="-532796" lat="61.4608555578" lon="6.13637500258">
		<tag k="historic" v="shieling" />
		<tag k="name" v="Bakkestøylen" />
		<tag k="place" v="locality" />
		<tag k="ssr:stedsnr" v="129320" />
	</node>
	<node id="-532794" lat="61.4858250007" lon="6.12858611158">
		<tag k="name" v="Nedsttunet" />
		<tag k="place" v="farm" />
		<tag k="ssr:stedsnr" v="129299" />
	</node>
	<node id="-532793" lat="61.469674997" lon="6.1781750078">
		<tag k="fixme" v="multiple name tags, choose one and add the other to alt_name" />
		<tag k="historic" v="shieling" />
		<tag k="name" v="Fremstestøylane;Gjesdalsstøylen" />
		<tag k="place" v="locality" />
		<tag k="ssr:stedsnr" v="128298" />
	</node>
	<node id="-532792" lat="61.5224777817" lon="6.34785276924">
		<tag k="fixme" v="consider place=hamlet" />
		<tag k="name" v="Myklebust" />
		<tag k="old_name" v="Myklebust, yt" />
		<tag k="place" v="village" />
		<tag k="ssr:stedsnr" v="117998" />
	</node>
	<node id="-533296" lat="61.5088340003" lon="6.27229353713">
		<tag k="name" v="Midttunet" />
		<tag k="place" v="farm" />
		<tag k="ssr:stedsnr" v="638179" />
	</node>
	<node id="-532530" lat="61.4917164747" lon="6.07016075237">
		<tag k="fixme" v="consider place=hamlet" />
		<tag k="name" v="Storetræet" />
		<tag k="place" v="farm" />
		<tag k="ssr:stedsnr" v="372299" />
	</node>
	<node id="-533276" lat="61.4998888908" lon="6.1710027755">
		<tag k="name" v="Hammar" />
		<tag k="place" v="farm" />
		<tag k="ssr:stedsnr" v="627811" />
	</node>
	<node id="-532759" lat="61.5269583337" lon="6.41818056076">
		<tag k="name" v="Nyset" />
		<tag k="place" v="farm" />
		<tag k="ssr:stedsnr" v="71000" />
	</node>
	<node id="-532757" lat="61.5516083319" lon="6.22825277255">
		<tag k="name" v="Nedrebøstøylen" />
		<tag k="place" v="isolated_dwelling" />
		<tag k="ssr:stedsnr" v="70977" />
	</node>
	<node id="-533266" lat="61.6186249988" lon="6.71403055055">
		<tag k="name" v="Høyset" />
		<tag k="place" v="farm" />
		<tag k="ssr:stedsnr" v="616834" />
	</node>
	<node id="-533123" lat="61.5271082473" lon="6.30822809245">
		<tag k="fixme" v="consider place=hamlet" />
		<tag k="name" v="Bjørset" />
		<tag k="place" v="farm" />
		<tag k="ssr:stedsnr" v="494996" />
	</node>
	<node id="-532749" lat="61.6451166665" lon="6.63107500601">
		<tag k="historic" v="shieling" />
		<tag k="name" v="Bakkestøylen" />
		<tag k="place" v="locality" />
		<tag k="ssr:stedsnr" v="70933" />
	</node>
	<node id="-533259" lat="61.5283499955" lon="6.21875555028">
		<tag k="name" v="Brattland" />
		<tag k="place" v="farm" />
		<tag k="ssr:stedsnr" v="615996" />
	</node>
	<node id="-533258" lat="61.5385628647" lon="6.24479671866">
		<tag k="alt_name" v="Bø nedre" />
		<tag k="fixme" v="consider place=hamlet" />
		<tag k="name" v="Nedrebø" />
		<tag k="place" v="farm" />
		<tag k="ssr:stedsnr" v="615979" />
	</node>
	<node id="-533257" lat="61.5663750039" lon="6.45809444371">
		<tag k="name" v="Haugen" />
		<tag k="place" v="farm" />
		<tag k="ssr:stedsnr" v="615958" />
	</node>
	<node id="-533256" lat="61.5626666645" lon="6.439827776">
		<tag k="name" v="Runnheim" />
		<tag k="place" v="farm" />
		<tag k="ssr:stedsnr" v="615959" />
	</node>
	<node id="-533255" lat="61.5652587351" lon="6.4780750251">
		<tag k="alt_name" v="Viken" />
		<tag k="fixme" v="consider place=hamlet" />
		<tag k="name" v="Vika" />
		<tag k="place" v="farm" />
		<tag k="ssr:stedsnr" v="615957" />
	</node>
	<node id="-533254" lat="61.5296249992" lon="6.1542583359">
		<tag k="name" v="Gamlestøylen" />
		<tag k="place" v="locality" />
		<tag k="ssr:stedsnr" v="615150" />
	</node>
	<node id="-532739" lat="61.5752249966" lon="6.4907555613">
		<tag k="name" v="Myrvoll" />
		<tag k="place" v="farm" />
		<tag k="ssr:stedsnr" v="70962" />
	</node>
	<node id="-533248" lat="61.4854388893" lon="6.05312222239">
		<tag k="alt_name" v="Dalen" />
		<tag k="name" v="Støfringsdal" />
		<tag k="place" v="farm" />
		<tag k="ssr:stedsnr" v="614283" />
	</node>
	<node id="-532735" lat="61.4821583295" lon="6.04532499638">
		<tag k="name" v="Støvringsstøylen" />
		<tag k="place" v="farm" />
		<tag k="ssr:stedsnr" v="69290" />
	</node>
	<node id="-533245" lat="61.6143594071" lon="6.62320326924">
		<tag k="alt_name" v="Veitebergsbakke" />
		<tag k="fixme" v="consider place=hamlet" />
		<tag k="name" v="Veitebergsbakken" />
		<tag k="place" v="farm" />
		<tag k="ssr:stedsnr" v="578843" />
	</node>
	<node id="-532732" lat="61.4720936784" lon="6.0607277725">
		<tag k="fixme" v="consider place=hamlet" />
		<tag k="name" v="Kvammen" />
		<tag k="place" v="farm" />
		<tag k="ssr:stedsnr" v="68312" />
	</node>
	<node id="-532730" lat="61.497651653" lon="6.11708034427">
		<tag k="fixme" v="consider place=hamlet" />
		<tag k="name" v="Løset" />
		<tag k="place" v="farm" />
		<tag k="ssr:stedsnr" v="68274" />
	</node>
	<node id="-532729" lat="61.4928944489" lon="6.30833333855">
		<tag k="alt_name" v="Bjørndalsstøylane" />
		<tag k="historic" v="shieling" />
		<tag k="name" v="Bjørndalsstøylen" />
		<tag k="place" v="locality" />
		<tag k="ssr:stedsnr" v="68706" />
	</node>
	<node id="-532746" lat="61.528566664" lon="6.49965555694">
		<tag k="historic" v="shieling" />
		<tag k="name" v="Sægrovstøylen" />
		<tag k="place" v="locality" />
		<tag k="ssr:stedsnr" v="70856" />
	</node>
	<node id="-532605" lat="61.5752527747" lon="6.33870278569">
		<tag k="historic" v="shieling" />
		<tag k="name" v="Gamlestøylen" />
		<tag k="place" v="locality" />
		<tag k="ssr:stedsnr" v="882005" />
	</node>
	<node id="-533218" lat="61.5051388886" lon="6.03541388032">
		<tag k="historic" v="shieling" />
		<tag k="name" v="Hjellbrekkestøylen" />
		<tag k="place" v="locality" />
		<tag k="ssr:stedsnr" v="578116" />
	</node>
	<node id="-532701" lat="61.4862583314" lon="6.25595833777">
		<tag k="historic" v="shieling" />
		<tag k="name" v="Brendestøylen" />
		<tag k="place" v="locality" />
		<tag k="ssr:stedsnr" v="32135" />
	</node>
	<node id="-532699" lat="61.5243444419" lon="6.11673610281">
		<tag k="historic" v="shieling" />
		<tag k="name" v="Indre Svidalsstøylen" />
		<tag k="place" v="locality" />
		<tag k="ssr:stedsnr" v="32130" />
	</node>
	<node id="-533113" lat="61.5031527743" lon="6.35805000605">
		<tag k="historic" v="shieling" />
		<tag k="name" v="Skryklingsstøylen" />
		<tag k="place" v="locality" />
		<tag k="ssr:stedsnr" v="494890" />
	</node>
	<node id="-533198" lat="61.6218055551" lon="6.45092500599">
		<tag k="name" v="Solbakken" />
		<tag k="place" v="farm" />
		<tag k="ssr:stedsnr" v="556035" />
	</node>
	<node id="-532682" lat="61.6220333293" lon="6.4496805528">
		<tag k="name" v="Ytrebø" />
		<tag k="place" v="farm" />
		<tag k="ssr:stedsnr" v="10032" />
	</node>
	<node id="-532681" lat="61.5929093594" lon="6.50426835066">
		<tag k="fixme" v="consider place=hamlet" />
		<tag k="name" v="Håheim" />
		<tag k="place" v="farm" />
		<tag k="ssr:stedsnr" v="10016" />
	</node>
	<node id="-533703" lat="61.5332123135" lon="6.23288711071">
		<tag k="fixme" v="consider place=hamlet" />
		<tag k="name" v="Ålhus" />
		<tag k="place" v="farm" />
		<tag k="ssr:stedsnr" v="974609" />
	</node>
	<node id="-533702" lat="61.5194298895" lon="6.15423338198">
		<tag k="name" v="Berg" />
		<tag k="place" v="hamlet" />
		<tag k="ssr:stedsnr" v="974608" />
	</node>
	<node id="-533701" lat="61.4946759498" lon="6.11289825729">
		<tag k="fixme" v="consider place=hamlet" />
		<tag k="name" v="Nedre Vassenden" />
		<tag k="place" v="farm" />
		<tag k="ssr:stedsnr" v="974603" />
	</node>
	<node id="-533700" lat="61.5716071532" lon="6.48127382226">
		<tag k="fixme" v="consider place=hamlet" />
		<tag k="name" v="Skei" />
		<tag k="place" v="farm" />
		<tag k="ssr:stedsnr" v="974602" />
	</node>
	<node id="-533699" lat="61.6098241613" lon="6.52624008757">
		<tag k="fixme" v="consider place=hamlet" />
		<tag k="name" v="Klakegg" />
		<tag k="place" v="farm" />
		<tag k="ssr:stedsnr" v="974601" />
	</node>
	<node id="-533186" lat="61.5702666639" lon="6.47149721393">
		<tag k="name" v="Fyglabakken" />
		<tag k="place" v="farm" />
		<tag k="ssr:stedsnr" v="555923" />
	</node>
	<node id="-532673" lat="61.5784000031" lon="6.53038888033">
		<tag k="name" v="Bolsetstøylen" />
		<tag k="place" v="locality" />
		<tag k="ssr:stedsnr" v="9955" />
	</node>
	<node id="-533696" lat="61.5498452213" lon="6.34789803428">
		<tag k="fixme" v="consider place=hamlet" />
		<tag k="name" v="Ytre Årdal" />
		<tag k="place" v="farm" />
		<tag k="ssr:stedsnr" v="974599" />
	</node>
	<node id="-532671" lat="61.5736091225" lon="6.4774321402">
		<tag k="fixme" v="consider place=hamlet" />
		<tag k="name" v="Fygla" />
		<tag k="place" v="farm" />
		<tag k="ssr:stedsnr" v="9939" />
	</node>
	<node id="-533694" lat="61.550427775" lon="6.35220833589">
		<tag k="fixme" v="consider place=hamlet" />
		<tag k="name" v="Årdal" />
		<tag k="old_name" v="Årdal, yt" />
		<tag k="place" v="village" />
		<tag k="ssr:stedsnr" v="967960" />
	</node>
	<node id="-533181" lat="61.5203707246" lon="6.5866557918">
		<tag k="fixme" v="consider place=hamlet" />
		<tag k="name" v="Sygnesand" />
		<tag k="place" v="farm" />
		<tag k="ssr:stedsnr" v="555853" />
	</node>
	<node id="-532666" lat="61.5857611079" lon="6.64463055554">
		<tag k="historic" v="shieling" />
		<tag k="name" v="Befringsstøylen" />
		<tag k="place" v="locality" />
		<tag k="ssr:stedsnr" v="9835" />
	</node>
	<node id="-533177" lat="61.4867249999" lon="6.15419167462">
		<tag k="historic" v="shieling" />
		<tag k="name" v="Kjelsnesstøylen" />
		<tag k="place" v="locality" />
		<tag k="ssr:stedsnr" v="554316" />
	</node>
	<node id="-532664" lat="61.6022752325" lon="6.74595728654">
		<tag k="fixme" v="consider place=hamlet" />
		<tag k="name" v="Fonn" />
		<tag k="place" v="farm" />
		<tag k="ssr:stedsnr" v="9820" />
	</node>
	<node id="-532660" lat="61.4915944463" lon="6.17066110694">
		<tag k="historic" v="shieling" />
		<tag k="name" v="Bakkestøylen" />
		<tag k="place" v="locality" />
		<tag k="ssr:stedsnr" v="8310" />
	</node>
	<node id="-533169" lat="61.5834138844" lon="6.73924999769">
		<tag k="historic" v="shieling" />
		<tag k="name" v="Støylen" />
		<tag k="place" v="locality" />
		<tag k="ssr:stedsnr" v="518777" />
	</node>
	<node id="-533448" lat="61.4917944487" lon="6.11395000198">
		<tag k="fixme" v="consider place=hamlet" />
		<tag k="name" v="Søre" />
		<tag k="place" v="village" />
		<tag k="ssr:stedsnr" v="760169" />
	</node>
	<node id="-533106" lat="61.6158499958" lon="6.70606666527">
		<tag k="name" v="Høyvik" />
		<tag k="place" v="farm" />
		<tag k="ssr:stedsnr" v="494829" />
	</node>
	<node id="-533105" lat="61.6152916657" lon="6.66770278693">
		<tag k="name" v="Vindheim" />
		<tag k="place" v="farm" />
		<tag k="ssr:stedsnr" v="494828" />
	</node>
	<node id="-533190" lat="61.5528731767" lon="6.46958646089">
		<tag k="fixme" v="consider place=hamlet" />
		<tag k="name" v="Kjøsnes" />
		<tag k="place" v="farm" />
		<tag k="ssr:stedsnr" v="555960" />
	</node>
	<node id="-533189" lat="61.5603345165" lon="6.34171267214">
		<tag k="fixme" v="consider place=hamlet" />
		<tag k="name" v="Erikstad" />
		<tag k="place" v="farm" />
		<tag k="ssr:stedsnr" v="555954" />
	</node>
	<node id="-533658" lat="61.5225583324" lon="6.13254999276">
		<tag k="historic" v="shieling" />
		<tag k="name" v="Simastøylane" />
		<tag k="place" v="locality" />
		<tag k="ssr:stedsnr" v="931480" />
	</node>
	<node id="-532676" lat="61.5362465524" lon="6.33110736435">
		<tag k="fixme" v="consider place=hamlet" />
		<tag k="name" v="Juklestad" />
		<tag k="place" v="farm" />
		<tag k="ssr:stedsnr" v="9981" />
	</node>
	<node id="-532627" lat="61.5298972257" lon="6.19246944213">
		<tag k="historic" v="shieling" />
		<tag k="name" v="Nesstøylen" />
		<tag k="place" v="locality" />
		<tag k="ssr:stedsnr" v="882156" />
	</node>
	<node id="-533650" lat="61.5246611087" lon="6.11641111589">
		<tag k="historic" v="shieling" />
		<tag k="name" v="Svidalsstøylane" />
		<tag k="place" v="locality" />
		<tag k="ssr:stedsnr" v="920150" />
	</node>
	<node id="-533187" lat="61.5763083346" lon="6.49304166088">
		<tag k="name" v="Vika" />
		<tag k="place" v="farm" />
		<tag k="ssr:stedsnr" v="555940" />
	</node>
	<node id="-532909" lat="61.5295749983" lon="6.2238027689">
		<tag k="name" v="Solli" />
		<tag k="place" v="farm" />
		<tag k="ssr:stedsnr" v="191993" />
	</node>
	<node id="-533644" lat="61.6123298311" lon="6.49971814236">
		<tag k="fixme" v="consider place=hamlet" />
		<tag k="name" v="Paulen" />
		<tag k="place" v="farm" />
		<tag k="ssr:stedsnr" v="920027" />
	</node>
	<node id="-533643" lat="61.5850166709" lon="6.39163888472">
		<tag k="historic" v="shieling" />
		<tag k="name" v="Helgheimsstøylen" />
		<tag k="place" v="locality" />
		<tag k="ssr:stedsnr" v="920015" />
	</node>
	<node id="-533638" lat="61.5296166708" lon="6.42287500902">
		<tag k="name" v="Dallheim" />
		<tag k="old_name" v="Dalheim" />
		<tag k="place" v="farm" />
		<tag k="ssr:stedsnr" v="919986" />
	</node>
	<node id="-533697" lat="61.5619796386" lon="6.39990786001">
		<tag k="fixme" v="consider place=hamlet" />
		<tag k="name" v="Helgheim" />
		<tag k="place" v="farm" />
		<tag k="ssr:stedsnr" v="974600" />
	</node>
	<node id="-533124" lat="61.529244443" lon="6.25150833506">
		<tag k="name" v="Skjervane" />
		<tag k="place" v="farm" />
		<tag k="ssr:stedsnr" v="494999" />
	</node>
	<node id="-533635" lat="61.5486921065" lon="6.26281692356">
		<tag k="name" v="Åhaug" />
		<tag k="place" v="farm" />
		<tag k="ssr:stedsnr" v="919964" />
	</node>
	<node id="-533121" lat="61.547275" lon="6.28434444918">
		<tag k="name" v="Skarstøylen" />
		<tag k="place" v="isolated_dwelling" />
		<tag k="ssr:stedsnr" v="494991" />
	</node>
	<node id="-533120" lat="61.5401416626" lon="6.21920555345">
		<tag k="alt_name" v="Ålhusstøylane" />
		<tag k="name" v="Ålhusstøylen" />
		<tag k="place" v="isolated_dwelling" />
		<tag k="ssr:stedsnr" v="494989" />
	</node>
	<node id="-532607" lat="61.5414777754" lon="6.32366667588">
		<tag k="historic" v="shieling" />
		<tag k="name" v="Sandnesstøylen" />
		<tag k="place" v="locality" />
		<tag k="ssr:stedsnr" v="882015" />
	</node>
	<node id="-533629" lat="61.634116666" lon="6.73025000263">
		<tag k="historic" v="shieling" />
		<tag k="name" v="Haugastøylen" />
		<tag k="place" v="locality" />
		<tag k="ssr:stedsnr" v="919796" />
	</node>
	<node id="-533628" lat="61.6202296824" lon="6.64223418939">
		<tag k="fixme" v="consider place=hamlet" />
		<tag k="name" v="Veiteberg" />
		<tag k="place" v="farm" />
		<tag k="ssr:stedsnr" v="919788" />
	</node>
	<node id="-533627" lat="61.4854416694" lon="6.2650722248">
		<tag k="fixme" v="multiple name tags, choose one and add the other to alt_name" />
		<tag k="historic" v="shieling" />
		<tag k="name" v="Ytredalstøylen;Indre Sanddalsstøylen" />
		<tag k="place" v="locality" />
		<tag k="ssr:stedsnr" v="918750" />
	</node>
	<node id="-533625" lat="61.4780333297" lon="6.26023610999">
		<tag k="name" v="Gamlestøylen" />
		<tag k="place" v="locality" />
		<tag k="ssr:stedsnr" v="918744" />
	</node>
	<node id="-533622" lat="61.473112946" lon="6.05088179983">
		<tag k="alt_name" v="Støfringshaug" />
		<tag k="fixme" v="consider place=hamlet" />
		<tag k="name" v="Støvring" />
		<tag k="place" v="farm" />
		<tag k="ssr:stedsnr" v="918357" />
	</node>
	<node id="-533185" lat="61.5830311998" lon="6.4911892793">
		<tag k="fixme" v="consider place=hamlet" />
		<tag k="name" v="Skrede" />
		<tag k="place" v="farm" />
		<tag k="ssr:stedsnr" v="555922" />
	</node>
	<node id="-533618" lat="61.4899805579" lon="6.13395556122">
		<tag k="name" v="Garden" />
		<tag k="old_name" v="Gurden" />
		<tag k="place" v="farm" />
		<tag k="ssr:stedsnr" v="918332" />
	</node>
	<node id="-533617" lat="61.4986305531" lon="6.20518611724">
		<tag k="alt_name" v="Strandstøylen" />
		<tag k="historic" v="shieling" />
		<tag k="name" v="Strandsstøylen" />
		<tag k="place" v="locality" />
		<tag k="ssr:stedsnr" v="918321" />
	</node>
	<node id="-533615" lat="61.5029740899" lon="6.19125751393">
		<tag k="fixme" v="consider place=hamlet" />
		<tag k="name" v="Strand" />
		<tag k="place" v="farm" />
		<tag k="ssr:stedsnr" v="860144" />
	</node>
	<node id="-533611" lat="61.6063820554" lon="6.58235235614">
		<tag k="fixme" v="consider place=hamlet" />
		<tag k="name" v="Grepstad" />
		<tag k="place" v="farm" />
		<tag k="ssr:stedsnr" v="860016" />
	</node>
	<node id="-533098" lat="61.4570722254" lon="6.0577472205">
		<tag k="historic" v="shieling" />
		<tag k="name" v="Slåttestøylen" />
		<tag k="place" v="locality" />
		<tag k="ssr:stedsnr" v="493326" />
	</node>
	<node id="-533609" lat="61.5805527781" lon="6.2545583318">
		<tag k="historic" v="shieling" />
		<tag k="name" v="Gotdalsstøylen" />
		<tag k="place" v="locality" />
		<tag k="ssr:stedsnr" v="860007" />
	</node>
	<node id="-533608" lat="61.5321444451" lon="6.47187778239">
		<tag k="historic" v="shieling" />
		<tag k="name" v="Sundsstøylen" />
		<tag k="place" v="locality" />
		<tag k="ssr:stedsnr" v="859997" />
	</node>
	<node id="-533606" lat="61.5480416697" lon="6.44408332891">
		<tag k="name" v="Hamnen" />
		<tag k="place" v="farm" />
		<tag k="ssr:stedsnr" v="859970" />
	</node>
	<node id="-533605" lat="61.5499027815" lon="6.26037499633">
		<tag k="alt_name" v="Gjerdet" />
		<tag k="name" v="Indrebø" />
		<tag k="place" v="farm" />
		<tag k="ssr:stedsnr" v="859969" />
	</node>
	<node id="-533091" lat="61.4906067598" lon="6.05987306507">
		<tag k="fixme" v="consider place=hamlet" />
		<tag k="name" v="Hjelmbrekka" />
		<tag k="place" v="farm" />
		<tag k="ssr:stedsnr" v="493267" />
	</node>
	<node id="-533602" lat="61.5773250011" lon="6.49363887951">
		<tag k="name" v="Åland" />
		<tag k="place" v="farm" />
		<tag k="ssr:stedsnr" v="859938" />
	</node>
	<node id="-532674" lat="61.5453085801" lon="6.2564362956">
		<tag k="alt_name" v="Bø øvre" />
		<tag k="fixme" v="consider place=hamlet" />
		<tag k="name" v="Øvrebø" />
		<tag k="place" v="farm" />
		<tag k="ssr:stedsnr" v="9975" />
	</node>
	<node id="-533093" lat="61.4862833299" lon="6.03408334094">
		<tag k="alt_name" v="Støfringstøylen" />
		<tag k="historic" v="shieling" />
		<tag k="name" v="Støvringsstøylen" />
		<tag k="place" v="locality" />
		<tag k="ssr:stedsnr" v="493278" />
	</node>
	<node id="-533596" lat="61.6088916704" lon="6.60038333231">
		<tag k="name" v="Grepstad" />
		<tag k="place" v="farm" />
		<tag k="ssr:stedsnr" v="859824" />
	</node>
	<node id="-532820" lat="61.5191539008" lon="6.15222820031">
		<tag k="fixme" v="consider place=hamlet" />
		<tag k="name" v="Berg Ytre" />
		<tag k="place" v="farm" />
		<tag k="ssr:stedsnr" v="131142" />
	</node>
	<node id="-532665" lat="61.6064388926" lon="6.6964499909">
		<tag k="historic" v="shieling" />
		<tag k="name" v="Øygardsstøylen" />
		<tag k="place" v="locality" />
		<tag k="ssr:stedsnr" v="9823" />
	</node>
	<node id="-533587" lat="61.4901305558" lon="6.1855083385">
		<tag k="historic" v="shieling" />
		<tag k="name" v="Holestøylane" />
		<tag k="place" v="locality" />
		<tag k="ssr:stedsnr" v="858305" />
	</node>
	<node id="-533586" lat="61.4892988684" lon="6.08375951819">
		<tag k="fixme" v="consider place=hamlet" />
		<tag k="name" v="Fluge" />
		<tag k="place" v="farm" />
		<tag k="ssr:stedsnr" v="858280" />
	</node>
	<node id="-532579" lat="61.5294694484" lon="6.1982499988">
		<tag k="historic" v="shieling" />
		<tag k="name" v="Bakkestøylen" />
		<tag k="place" v="locality" />
		<tag k="ssr:stedsnr" v="396150" />
	</node>
	<node id="-533581" lat="61.4901380354" lon="6.09638992096">
		<tag k="fixme" v="consider place=hamlet" />
		<tag k="name" v="Årset" />
		<tag k="place" v="farm" />
		<tag k="ssr:stedsnr" v="857288" />
	</node>
	<node id="-532550" lat="61.4997305547" lon="6.17594167436">
		<tag k="name" v="Hammar" />
		<tag k="place" v="farm" />
		<tag k="ssr:stedsnr" v="385807" />
	</node>
	<node id="-532547" lat="61.6098555538" lon="6.52975277099">
		<tag k="fixme" v="consider place=hamlet" />
		<tag k="name" v="Klakegg" />
		<tag k="place" v="village" />
		<tag k="ssr:stedsnr" v="374031" />
	</node>
	<node id="-532546" lat="61.5952583357" lon="6.30646388623">
		<tag k="historic" v="shieling" />
		<tag k="name" v="Legestøylen" />
		<tag k="place" v="locality" />
		<tag k="ssr:stedsnr" v="374025" />
	</node>
	<node id="-532544" lat="61.5926271059" lon="6.30574878413">
		<tag k="historic" v="shieling" />
		<tag k="name" v="Svartestøylen" />
		<tag k="place" v="locality" />
		<tag k="ssr:stedsnr" v="374013" />
	</node>
	<node id="-532539" lat="61.5751666707" lon="6.41253332643">
		<tag k="historic" v="shieling" />
		<tag k="name" v="Husstøylen" />
		<tag k="place" v="locality" />
		<tag k="ssr:stedsnr" v="373956" />
	</node>
	<node id="-532538" lat="61.5796333363" lon="6.49658056344">
		<tag k="name" v="Nylund" />
		<tag k="place" v="farm" />
		<tag k="ssr:stedsnr" v="373952" />
	</node>
	<node id="-532537" lat="61.5679055562" lon="6.25507499976">
		<tag k="historic" v="shieling" />
		<tag k="name" v="Brekka" />
		<tag k="place" v="locality" />
		<tag k="ssr:stedsnr" v="373945" />
	</node>
	<node id="-532535" lat="61.5090888873" lon="6.34680832919">
		<tag k="historic" v="shieling" />
		<tag k="name" v="Åsstøylen" />
		<tag k="place" v="locality" />
		<tag k="ssr:stedsnr" v="373891" />
	</node>
	<node id="-532980" lat="61.5738361128" lon="6.48843889491">
		<tag k="name" v="Nydal" />
		<tag k="place" v="farm" />
		<tag k="ssr:stedsnr" v="252940" />
	</node>
	<node id="-533553" lat="61.4922750028" lon="6.1089638907">
		<tag k="name" v="Årset" />
		<tag k="place" v="farm" />
		<tag k="ssr:stedsnr" v="821167" />
	</node>
	<node id="-533040" lat="61.502230553" lon="6.12204166573">
		<tag k="historic" v="shieling" />
		<tag k="name" v="Støylen" />
		<tag k="place" v="locality" />
		<tag k="ssr:stedsnr" v="446798" />
	</node>
	<node id="-532527" lat="61.4645329153" lon="6.04778185384">
		<tag k="alt_name" v="Slåtten" />
		<tag k="fixme" v="consider place=hamlet" />
		<tag k="name" v="Slåttene" />
		<tag k="place" v="farm" />
		<tag k="ssr:stedsnr" v="371290" />
	</node>
	<node id="-532526" lat="61.4650583316" lon="6.00255554684">
		<tag k="historic" v="shieling" />
		<tag k="name" v="Innsteinstadstøylen" />
		<tag k="place" v="locality" />
		<tag k="ssr:stedsnr" v="371281" />
	</node>
	<node id="-532525" lat="61.5251829559" lon="6.35705767889">
		<tag k="fixme" v="consider place=hamlet" />
		<tag k="name" v="Myklebust" />
		<tag k="old_name" v="Myklebust, in" />
		<tag k="place" v="farm" />
		<tag k="ssr:stedsnr" v="360995" />
	</node>
	<node id="-533036" lat="61.5813499996" lon="6.45534166729">
		<tag k="historic" v="shieling" />
		<tag k="name" v="Fyglastøylen" />
		<tag k="place" v="locality" />
		<tag k="ssr:stedsnr" v="435963" />
	</node>
	<node id="-533034" lat="61.5139305573" lon="6.0681694364">
		<tag k="historic" v="shieling" />
		<tag k="name" v="Flugestøylen" />
		<tag k="place" v="locality" />
		<tag k="ssr:stedsnr" v="435191" />
	</node>
	<node id="-533033" lat="61.5148545328" lon="6.15255110608">
		<tag k="fixme" v="consider place=hamlet" />
		<tag k="name" v="Stølen" />
		<tag k="place" v="farm" />
		<tag k="ssr:stedsnr" v="435172" />
	</node>
	<node id="-533032" lat="61.5158201149" lon="6.16794782042">
		<tag k="fixme" v="consider place=hamlet" />
		<tag k="name" v="Svidal" />
		<tag k="place" v="farm" />
		<tag k="ssr:stedsnr" v="435169" />
	</node>
	<node id="-532657" lat="61.45406804" lon="6.02133317921">
		<tag k="alt_name" v="Grimsbø" />
		<tag k="fixme" v="consider place=hamlet" />
		<tag k="name" v="Grimsbøen" />
		<tag k="place" v="farm" />
		<tag k="ssr:stedsnr" v="7318" />
	</node>
	<node id="-532515" lat="61.4675888892" lon="6.026483336">
		<tag k="name" v="Eikås" />
		<tag k="place" v="hamlet" />
		<tag k="ssr:stedsnr" v="336359" />
	</node>
	<node id="-533024" lat="61.5995249968" lon="6.5105500041">
		<tag k="name" v="Århaugen" />
		<tag k="place" v="farm" />
		<tag k="ssr:stedsnr" v="435020" />
	</node>
	<node id="-532511" lat="61.508433337" lon="6.06098055821">
		<tag k="historic" v="shieling" />
		<tag k="name" v="Laremstøylen" />
		<tag k="place" v="locality" />
		<tag k="ssr:stedsnr" v="336165" />
	</node>
	<node id="-533632" lat="61.5683027754" lon="6.33074999906">
		<tag k="historic" v="shieling" />
		<tag k="name" v="Fremstestøylen" />
		<tag k="place" v="locality" />
		<tag k="ssr:stedsnr" v="919944" />
	</node>
	<node id="-532997" lat="61.5260833298" lon="6.55704999141">
		<tag k="historic" v="shieling" />
		<tag k="name" v="Støylen" />
		<tag k="place" v="locality" />
		<tag k="ssr:stedsnr" v="263817" />
	</node>
	<node id="-533019" lat="61.5439055517" lon="6.34225556413">
		<tag k="name" v="Årdalsbakken" />
		<tag k="place" v="locality" />
		<tag k="ssr:stedsnr" v="434981" />
	</node>
	<node id="-533018" lat="61.561405551" lon="6.27267499383">
		<tag k="historic" v="shieling" />
		<tag k="name" v="Fjellstøylen" />
		<tag k="place" v="locality" />
		<tag k="ssr:stedsnr" v="434950" />
	</node>
	<node id="-532504" lat="61.5799027782" lon="6.45093611762">
		<tag k="historic" v="shieling" />
		<tag k="name" v="Strandastøylen" />
		<tag k="place" v="locality" />
		<tag k="ssr:stedsnr" v="336091" />
	</node>
	<node id="-532677" lat="61.5348188303" lon="6.49357421406">
		<tag k="fixme" v="consider place=hamlet" />
		<tag k="name" v="Sægrov" />
		<tag k="place" v="farm" />
		<tag k="ssr:stedsnr" v="9985" />
	</node>
	<node id="-533013" lat="61.5088499976" lon="6.27935000805">
		<tag k="alt_name" v="Sandalshaug" />
		<tag k="name" v="Sanddalhaug" />
		<tag k="place" v="farm" />
		<tag k="ssr:stedsnr" v="434859" />
	</node>
	<node id="-533010" lat="61.5196789374" lon="6.62848168273">
		<tag k="fixme" v="consider place=hamlet" />
		<tag k="name" v="Lunde" />
		<tag k="place" v="farm" />
		<tag k="ssr:stedsnr" v="434829" />
	</node>
	<node id="-533519" lat="61.5838108446" lon="6.50360516798">
		<tag k="fixme" v="consider place=hamlet" />
		<tag k="name" v="Fossheim" />
		<tag k="place" v="farm" />
		<tag k="ssr:stedsnr" v="799952" />
	</node>
	<node id="-533005" lat="61.4930124644" lon="6.1127803531">
		<tag k="alt_name" v="Nedre Vassenden" />
		<tag k="fixme" v="consider place=hamlet" />
		<tag k="name" v="Vassenden" />
		<tag k="place" v="village" />
		<tag k="ssr:stedsnr" v="433264" />
	</node>
	<node id="-533516" lat="61.5084277781" lon="6.21046111329">
		<tag k="name" v="Strandsvollen" />
		<tag k="place" v="farm" />
		<tag k="ssr:stedsnr" v="799159" />
	</node>
	<node id="-533001" lat="61.4565388894" lon="6.01690833402">
		<tag k="name" v="Flata" />
		<tag k="place" v="farm" />
		<tag k="ssr:stedsnr" v="432299" />
	</node>
	<node id="-533000" lat="61.4670243023" lon="6.03635373195">
		<tag k="alt_name" v="Eikås, in;Eikås" />
		<tag k="fixme" v="consider place=hamlet" />
		<tag k="name" v="Indre Eikås" />
		<tag k="place" v="farm" />
		<tag k="ssr:stedsnr" v="432285" />
	</node>
	<node id="-533511" lat="61.6108500001" lon="6.43124999063">
		<tag k="name" v="Nydalsstøylen" />
		<tag k="place" v="locality" />
		<tag k="ssr:stedsnr" v="799020" />
	</node>
	<node id="-532998" lat="61.5100803319" lon="6.2642389068">
		<tag k="alt_name" v="Sanddalen" />
		<tag k="fixme" v="consider place=hamlet" />
		<tag k="name" v="Sanddal" />
		<tag k="old_name" v="Sanddal, yt" />
		<tag k="place" v="farm" />
		<tag k="ssr:stedsnr" v="421889" />
	</node>
	<node id="-533509" lat="61.6100267128" lon="6.58345458245">
		<tag k="fixme" v="consider place=hamlet" />
		<tag k="name" v="Heggheim" />
		<tag k="place" v="farm" />
		<tag k="ssr:stedsnr" v="799016" />
	</node>
	<node id="-533508" lat="61.5271138877" lon="6.41472499105">
		<tag k="name" v="Lindos" />
		<tag k="place" v="farm" />
		<tag k="ssr:stedsnr" v="798999" />
	</node>
	<node id="-533507" lat="61.5427193801" lon="6.4650430669">
		<tag k="fixme" v="consider place=hamlet" />
		<tag k="name" v="Sunde" />
		<tag k="place" v="farm" />
		<tag k="ssr:stedsnr" v="798972" />
	</node>
	<node id="-532993" lat="61.6212166678" lon="6.49401388976">
		<tag k="name" v="Flatheiholten" />
		<tag k="place" v="locality" />
		<tag k="ssr:stedsnr" v="253031" />
	</node>
</osm>
