<?xml version="1.0" encoding="UTF-8"?>
<osm generator="osmapis" version="0.6">
	<node id="-533246" lat="61.6091749964" lon="6.61192500228">
		<tag k="bridge" v="yes" />
		<tag k="layer" v="1" />
		<tag k="name" v="Flatjord" />
		<tag k="ssr:stedsnr" v="593295" />
	</node>
	<node id="-532603" lat="61.4917083363" lon="6.11988889087">
		<tag k="bridge" v="yes" />
		<tag k="layer" v="1" />
		<tag k="name" v="Gjesdalselva" />
		<tag k="ssr:stedsnr" v="411311" />
	</node>
	<node id="-532728" lat="61.5123000044" lon="6.26737500096">
		<tag k="bridge" v="yes" />
		<tag k="layer" v="1" />
		<tag k="name" v="Sandalselva" />
		<tag k="ssr:stedsnr" v="47333" />
	</node>
	<node id="-532727" lat="61.5659166654" lon="6.46004167288">
		<tag k="bridge" v="yes" />
		<tag k="layer" v="1" />
		<tag k="name" v="Haugsøyane" />
		<tag k="ssr:stedsnr" v="47325" />
	</node>
	<node id="-533475" lat="61.6022472241" lon="6.51887499506">
		<tag k="bridge" v="yes" />
		<tag k="layer" v="1" />
		<tag k="name" v="Bolset Kulvert" />
		<tag k="ssr:stedsnr" v="775301" />
	</node>
	<node id="-533090" lat="61.4716388867" lon="6.05409999565">
		<tag k="bridge" v="yes" />
		<tag k="layer" v="1" />
		<tag k="name" v="Støfring" />
		<tag k="ssr:stedsnr" v="471324" />
	</node>
	<node id="-533089" lat="61.531641671" lon="6.57133610975">
		<tag k="layer" v="-1" />
		<tag k="name" v="Føreneset" />
		<tag k="ssr:stedsnr" v="469467" />
		<tag k="tunnel" v="yes" />
	</node>
	<node id="-532960" lat="61.6142305538" lon="6.72137777923">
		<tag k="bridge" v="yes" />
		<tag k="layer" v="1" />
		<tag k="name" v="Aamot" />
		<tag k="ssr:stedsnr" v="229314" />
	</node>
	<node id="-532959" lat="61.5428750042" lon="6.50848888321">
		<tag k="layer" v="-1" />
		<tag k="name" v="Kleiva" />
		<tag k="ssr:stedsnr" v="226300" />
		<tag k="tunnel" v="yes" />
	</node>
	<node id="-532445" lat="61.5511277818" lon="6.45970278528">
		<tag k="bridge" v="yes" />
		<tag k="layer" v="1" />
		<tag k="name" v="Kjøsnesfjord" />
		<tag k="ssr:stedsnr" v="289321" />
	</node>
	<node id="-533203" lat="61.5429249964" lon="6.50854444349">
		<tag k="layer" v="-1" />
		<tag k="name" v="Kleivatunnelen" />
		<tag k="ssr:stedsnr" v="566538" />
		<tag k="tunnel" v="yes" />
	</node>
	<node id="-533458" lat="61.5127111086" lon="6.33086667331">
		<tag k="highway" v="path" />
		<tag k="name" v="Fjellvegen" />
		<tag k="ssr:stedsnr" v="760238" />
	</node>
	<node id="-533580" lat="61.5194333297" lon="6.19670278156">
		<tag k="bridge" v="yes" />
		<tag k="layer" v="1" />
		<tag k="name" v="Solheimsnes" />
		<tag k="ssr:stedsnr" v="836282" />
	</node>
	<node id="-533579" lat="61.4608138882" lon="6.02604444555">
		<tag k="bridge" v="yes" />
		<tag k="layer" v="1" />
		<tag k="name" v="Østenstad" />
		<tag k="ssr:stedsnr" v="836281" />
	</node>
	<node id="-533578" lat="61.5960027807" lon="6.51159167052">
		<tag k="bridge" v="yes" />
		<tag k="layer" v="1" />
		<tag k="name" v="Grungen" />
		<tag k="ssr:stedsnr" v="836279" />
	</node>
	<node id="-533319" lat="61.5456861137" lon="6.4324388929">
		<tag k="bridge" v="yes" />
		<tag k="layer" v="1" />
		<tag k="name" v="Dvergsdal" />
		<tag k="ssr:stedsnr" v="654337" />
	</node>
	<node id="-533318" lat="61.6063805548" lon="6.57667778635">
		<tag k="bridge" v="yes" />
		<tag k="layer" v="1" />
		<tag k="name" v="Grebstad" />
		<tag k="ssr:stedsnr" v="653305" />
	</node>
	<node id="-533695" lat="61.5315305519" lon="6.57509167599">
		<tag k="layer" v="-1" />
		<tag k="name" v="Støylsnestunnelen" />
		<tag k="ssr:stedsnr" v="970121" />
		<tag k="tunnel" v="yes" />
	</node>
	<node id="-533693" lat="61.4943111097" lon="6.11314999099">
		<tag k="bridge" v="yes" />
		<tag k="layer" v="1" />
		<tag k="name" v="Vassenden" />
		<tag k="ssr:stedsnr" v="957313" />
	</node>
	<node id="-533692" lat="61.6332111143" lon="6.52453611095">
		<tag k="bridge" v="yes" />
		<tag k="layer" v="1" />
		<tag k="name" v="Våtedal" />
		<tag k="ssr:stedsnr" v="957312" />
	</node>
	<node id="-532791" lat="61.5110833374" lon="6.28579722132">
		<tag k="bridge" v="yes" />
		<tag k="layer" v="1" />
		<tag k="name" v="Bjørndalsneset" />
		<tag k="ssr:stedsnr" v="108337" />
	</node>
	<node id="-533173" lat="61.4916805545" lon="6.11933056322">
		<tag k="bridge" v="yes" />
		<tag k="layer" v="1" />
		<tag k="name" v="Gjesdal" />
		<tag k="ssr:stedsnr" v="533326" />
	</node>
	<node id="-533041" lat="61.5171500032" lon="6.61385277828">
		<tag k="layer" v="-1" />
		<tag k="name" v="Olatunnelen" />
		<tag k="ssr:stedsnr" v="450087" />
		<tag k="tunnel" v="yes" />
	</node>
	<node id="-533039" lat="61.5315750008" lon="6.57134722406">
		<tag k="layer" v="-1" />
		<tag k="name" v="Førenestunnelen" />
		<tag k="ssr:stedsnr" v="446539" />
		<tag k="tunnel" v="yes" />
	</node>
	<node id="-532524" lat="61.4856583342" lon="6.06877777458">
		<tag k="bridge" v="yes" />
		<tag k="layer" v="1" />
		<tag k="name" v="Fluge" />
		<tag k="ssr:stedsnr" v="350291" />
	</node>
	<node id="-532523" lat="61.5208027756" lon="6.34086666938">
		<tag k="bridge" v="yes" />
		<tag k="layer" v="1" />
		<tag k="name" v="Ås Indre" />
		<tag k="ssr:stedsnr" v="350277" />
	</node>
	<node id="-532522" lat="61.5196861129" lon="6.33637500292">
		<tag k="bridge" v="yes" />
		<tag k="layer" v="1" />
		<tag k="name" v="Ås Ytre" />
		<tag k="ssr:stedsnr" v="350276" />
	</node>
	<node id="-532649" lat="61.5664611097" lon="6.47888888198">
		<tag k="bridge" v="yes" />
		<tag k="layer" v="1" />
		<tag k="name" v="Skeibukta Kulvert" />
		<tag k="ssr:stedsnr" v="896338" />
	</node>
	<node id="-532648" lat="61.5367749965" lon="6.55124165894">
		<tag k="layer" v="-1" />
		<tag k="name" v="Bjørnabakk" />
		<tag k="ssr:stedsnr" v="894141" />
		<tag k="tunnel" v="yes" />
	</node>
	<node id="-532881" lat="61.5150166689" lon="6.65744443676">
		<tag k="bridge" v="yes" />
		<tag k="layer" v="1" />
		<tag k="name" v="Lundebotn" />
		<tag k="ssr:stedsnr" v="168331" />
	</node>
	<node id="-532880" lat="61.5216277814" lon="6.6223249935">
		<tag k="bridge" v="yes" />
		<tag k="layer" v="1" />
		<tag k="name" v="Lunde" />
		<tag k="ssr:stedsnr" v="168323" />
	</node>
	<node id="-532879" lat="61.6141611095" lon="6.6734000003">
		<tag k="bridge" v="yes" />
		<tag k="layer" v="1" />
		<tag k="name" v="Øygard" />
		<tag k="ssr:stedsnr" v="168315" />
	</node>
	<node id="-533384" lat="61.560905552" lon="6.39976388502">
		<tag k="bridge" v="yes" />
		<tag k="layer" v="1" />
		<tag k="name" v="Helgheim" />
		<tag k="ssr:stedsnr" v="714281" />
	</node>
	<node id="-532999" lat="61.5528361133" lon="6.47515277807">
		<tag k="layer" v="-1" />
		<tag k="name" v="Kjøsnestunnelen" />
		<tag k="ssr:stedsnr" v="424114" />
		<tag k="tunnel" v="yes" />
	</node>
	<node id="-532996" lat="61.5382749997" lon="6.5494055525">
		<tag k="layer" v="-1" />
		<tag k="name" v="Bjørnabakktunnelen" />
		<tag k="ssr:stedsnr" v="263557" />
		<tag k="tunnel" v="yes" />
	</node>
</osm>
