<?xml version="1.0" encoding="UTF-8"?>
<osm generator="osmapis" version="0.6">
	<node id="-531965" lat="61.5128388906" lon="6.66599722086">
		<tag k="name" v="Botneelva" />
		<tag k="ssr:stedsnr" v="32811" />
		<tag k="waterway" v="river" />
	</node>
	<node id="-531964" lat="61.4849861131" lon="6.25899165794">
		<tag k="name" v="Ytre Sandalselva" />
		<tag k="ssr:stedsnr" v="32782" />
		<tag k="waterway" v="river" />
	</node>
	<node id="-531959" lat="61.5677777781" lon="6.26564444899">
		<tag k="name" v="Fossgrova" />
		<tag k="ssr:stedsnr" v="32182" />
		<tag k="waterway" v="river" />
	</node>
	<node id="-532464" lat="61.596075003" lon="6.51818054765">
		<tag k="name" v="Tverrgrova" />
		<tag k="ssr:stedsnr" v="578097" />
		<tag k="waterway" v="stream" />
	</node>
	<node id="-531946" lat="61.4706666709" lon="6.0586027796">
		<tag k="name" v="Sundet" />
		<tag k="ssr:stedsnr" v="32101" />
		<tag k="waterway" v="rapids" />
	</node>
	<node id="-532455" lat="61.5275666693" lon="6.59408054821">
		<tag k="name" v="Støylsneset" />
		<tag k="natural" v="cape" />
		<tag k="ssr:stedsnr" v="566827" />
	</node>
	<node id="-531939" lat="61.5888555548" lon="6.48509722974">
		<tag k="name" v="Svoragrova" />
		<tag k="ssr:stedsnr" v="32073" />
		<tag k="waterway" v="stream" />
	</node>
	<node id="-532450" lat="61.5853694484" lon="6.49781388124">
		<tag k="name" v="Fossheimsvatnet" />
		<tag k="natural" v="water" />
		<tag k="ssr:stedsnr" v="556945" />
	</node>
	<node id="-532731" lat="61.4705638927" lon="6.33983888959">
		<tag k="name" v="Styggevatnet" />
		<tag k="natural" v="water" />
		<tag k="ssr:stedsnr" v="796654" />
	</node>
	<node id="-531936" lat="61.5681111109" lon="6.46013610921">
		<tag k="name" v="Kvernhuselva" />
		<tag k="ssr:stedsnr" v="32050" />
		<tag k="waterway" v="river" />
	</node>
	<node id="-531934" lat="61.5782361089" lon="6.3350083347">
		<tag k="name" v="Daleelva" />
		<tag k="ssr:stedsnr" v="20656" />
		<tag k="waterway" v="river" />
	</node>
	<node id="-532445" lat="61.599258329" lon="6.36647499815">
		<tag k="name" v="Langebotnvatnet" />
		<tag k="natural" v="water" />
		<tag k="ssr:stedsnr" v="556018" />
	</node>
	<node id="-532443" lat="61.5257944457" lon="6.42352778291">
		<tag k="name" v="Dalevatnet" />
		<tag k="natural" v="water" />
		<tag k="ssr:stedsnr" v="555993" />
	</node>
	<node id="-531928" lat="61.5460805515" lon="6.58603610374">
		<tag k="name" v="Trollebottsvatnet" />
		<tag k="natural" v="water" />
		<tag k="ssr:stedsnr" v="9987" />
	</node>
	<node id="-532438" lat="61.5678416656" lon="6.49125833971">
		<tag k="name" v="Løkjagrova" />
		<tag k="ssr:stedsnr" v="555946" />
		<tag k="waterway" v="stream" />
	</node>
	<node id="-532729" lat="61.4469305562" lon="6.17860000931">
		<tag k="name" v="Skardgrovtjørna" />
		<tag k="natural" v="water" />
		<tag k="ssr:stedsnr" v="796338" />
	</node>
	<node id="-531922" lat="61.5696000029" lon="6.32401388027">
		<tag k="name" v="Støylsgrova" />
		<tag k="ssr:stedsnr" v="9947" />
		<tag k="waterway" v="stream" />
	</node>
	<node id="-532433" lat="61.5106527751" lon="6.49855832713">
		<tag k="name" v="Vidunderdalsvatnet" />
		<tag k="natural" v="water" />
		<tag k="ssr:stedsnr" v="555862" />
	</node>
	<node id="-531918" lat="61.5212027814" lon="6.38296111517">
		<tag k="name" v="Myklebustelva" />
		<tag k="ssr:stedsnr" v="9862" />
		<tag k="waterway" v="river" />
	</node>
	<node id="-532425" lat="61.496436108" lon="6.29881666873">
		<tag k="alt_name" v="Bjørndøla" />
		<tag k="name" v="Bjørndalselva" />
		<tag k="ssr:stedsnr" v="553691" />
		<tag k="waterway" v="stream" />
	</node>
	<node id="-532935" lat="61.5471555592" lon="6.27526388409">
		<tag k="name" v="Kvitegrova" />
		<tag k="ssr:stedsnr" v="943243" />
		<tag k="waterway" v="stream" />
	</node>
	<node id="-532421" lat="61.5218888851" lon="6.62998611545">
		<tag k="name" v="Sandgrova" />
		<tag k="ssr:stedsnr" v="518836" />
		<tag k="waterway" v="stream" />
	</node>
	<node id="-532420" lat="61.5759749989" lon="6.24906666806">
		<tag k="alt_name" v="Godtdalselva" />
		<tag k="name" v="Gotdalselva" />
		<tag k="ssr:stedsnr" v="518784" />
		<tag k="waterway" v="river" />
	</node>
	<node id="-532924" lat="61.6249416641" lon="6.44979445254">
		<tag k="name" v="Synhammarvika" />
		<tag k="natural" v="bay" />
		<tag k="ssr:stedsnr" v="943125" />
	</node>
	<node id="-532923" lat="61.544852775" lon="6.43270833322">
		<tag k="name" v="Dvergsdalselva" />
		<tag k="ssr:stedsnr" v="943075" />
		<tag k="waterway" v="river" />
	</node>
	<node id="-532406" lat="61.5915416687" lon="6.48923888903">
		<tag k="name" v="Vonagrova" />
		<tag k="ssr:stedsnr" v="518103" />
		<tag k="waterway" v="stream" />
	</node>
	<node id="-531893" lat="61.5028944427" lon="6.26380833327">
		<tag k="name" v="Sandalselva" />
		<tag k="ssr:stedsnr" v="882717" />
		<tag k="waterway" v="river" />
	</node>
	<node id="-532915" lat="61.5570472255" lon="6.37064444315">
		<tag k="name" v="Årdalstranda" />
		<tag k="natural" v="beach" />
		<tag k="ssr:stedsnr" v="942012" />
	</node>
	<node id="-532400" lat="61.479902781" lon="6.24920000462">
		<tag k="name" v="Tverrelva" />
		<tag k="ssr:stedsnr" v="517176" />
		<tag k="waterway" v="river" />
	</node>
	<node id="-531886" lat="61.5631194448" lon="6.26483333284">
		<tag k="name" v="Kinnagrova" />
		<tag k="ssr:stedsnr" v="882191" />
		<tag k="waterway" v="stream" />
	</node>
	<node id="-532909" lat="61.6201527815" lon="6.46065277756">
		<tag k="name" v="Kupefossen" />
		<tag k="natural" v="waterfall" />
		<tag k="ssr:stedsnr" v="931632" />
	</node>
	<node id="-532907" lat="61.5693277791" lon="6.65367500366">
		<tag k="name" v="Lonene" />
		<tag k="place" v="locality" />
		<tag k="ssr:stedsnr" v="920869" />
	</node>
	<node id="-532906" lat="61.5791749962" lon="6.72443610392">
		<tag k="name" v="Kvannebottselva" />
		<tag k="ssr:stedsnr" v="920867" />
		<tag k="waterway" v="stream" />
	</node>
	<node id="-532392" lat="61.5754305553" lon="6.45677499884">
		<tag k="name" v="Vaelva" />
		<tag k="ssr:stedsnr" v="517060" />
		<tag k="waterway" v="river" />
	</node>
	<node id="-532902" lat="61.6140499959" lon="6.47919999606">
		<tag k="alt_name" v="Storelva" />
		<tag k="name" v="Paulselva" />
		<tag k="ssr:stedsnr" v="920715" />
		<tag k="waterway" v="river" />
	</node>
	<node id="-532899" lat="61.5246722265" lon="6.1975444362">
		<tag k="alt_name" v="Ørnebottgrova" />
		<tag k="name" v="Bakkeelva" />
		<tag k="ssr:stedsnr" v="920144" />
		<tag k="waterway" v="stream" />
	</node>
	<node id="-531874" lat="61.4718499986" lon="6.05756666741">
		<tag k="name" v="Kvamshølen" />
		<tag k="place" v="locality" />
		<tag k="ssr:stedsnr" v="882112" />
	</node>
	<node id="-532385" lat="61.6338138926" lon="6.44669999959">
		<tag k="name" v="Sliregrøvene" />
		<tag k="ssr:stedsnr" v="506619" />
		<tag k="waterway" v="stream" />
	</node>
	<node id="-532384" lat="61.6130666643" lon="6.6239194396">
		<tag k="name" v="Befringselva" />
		<tag k="ssr:stedsnr" v="506451" />
		<tag k="waterway" v="river" />
	</node>
	<node id="-532383" lat="61.5245499986" lon="6.1867805592">
		<tag k="name" v="Neselva" />
		<tag k="ssr:stedsnr" v="495167" />
		<tag k="waterway" v="stream" />
	</node>
	<node id="-531869" lat="61.6324777809" lon="6.4473638931">
		<tag k="name" v="Sligrovneset" />
		<tag k="natural" v="cape" />
		<tag k="ssr:stedsnr" v="882083" />
	</node>
	<node id="-531867" lat="61.5991555532" lon="6.49846945229">
		<tag k="name" v="Sognesjøgrova" />
		<tag k="ssr:stedsnr" v="882076" />
		<tag k="waterway" v="stream" />
	</node>
	<node id="-532378" lat="61.6039611125" lon="6.51006111259">
		<tag k="name" v="Bolsetvatnet" />
		<tag k="natural" v="water" />
		<tag k="ssr:stedsnr" v="495018" />
	</node>
	<node id="-531861" lat="61.5601694428" lon="6.36711944363">
		<tag k="name" v="Skrehammargrova" />
		<tag k="ssr:stedsnr" v="882009" />
		<tag k="waterway" v="stream" />
	</node>
	<node id="-532372" lat="61.5399694428" lon="6.52939999963">
		<tag k="name" v="Kjøsnesfjorden" />
		<tag k="natural" v="water" />
		<tag k="ssr:stedsnr" v="494992" />
	</node>
	<node id="-532369" lat="61.5567499999" lon="6.55504443753">
		<tag k="name" v="Instebotnvatnet" />
		<tag k="natural" v="water" />
		<tag k="ssr:stedsnr" v="494986" />
	</node>
	<node id="-532880" lat="61.6045972249" lon="6.68882221429">
		<tag k="name" v="Fessegrova" />
		<tag k="ssr:stedsnr" v="919824" />
		<tag k="waterway" v="stream" />
	</node>
	<node id="-532876" lat="61.4937694479" lon="6.35905833869">
		<tag k="name" v="Åselva" />
		<tag k="ssr:stedsnr" v="918746" />
		<tag k="waterway" v="stream" />
	</node>
	<node id="-531851" lat="61.5515027745" lon="6.21626111317">
		<tag k="fixme" v="multiple name tags, choose one and add the other to alt_name" />
		<tag k="name" v="Nedrebøelva;Ålhuselva" />
		<tag k="ssr:stedsnr" v="396811" />
		<tag k="waterway" v="river" />
	</node>
	<node id="-532873" lat="61.4521944455" lon="6.17200554736">
		<tag k="name" v="Skargrova" />
		<tag k="ssr:stedsnr" v="918382" />
		<tag k="waterway" v="stream" />
	</node>
	<node id="-531848" lat="61.5865361124" lon="6.74114443881">
		<tag k="name" v="Øyane" />
		<tag k="natural" v="water" />
		<tag k="ssr:stedsnr" v="396766" />
		<tag k="water" v="lake" />
	</node>
	<node id="-532869" lat="61.4816750011" lon="6.09622499298">
		<tag k="name" v="Storegrova" />
		<tag k="ssr:stedsnr" v="918335" />
		<tag k="waterway" v="stream" />
	</node>
	<node id="-531841" lat="61.5363638903" lon="6.21733332843">
		<tag k="name" v="Klipperfossen" />
		<tag k="natural" v="waterfall" />
		<tag k="ssr:stedsnr" v="396180" />
	</node>
	<node id="-532352" lat="61.6289083334" lon="6.63376389291">
		<tag k="name" v="Veitebergselva" />
		<tag k="ssr:stedsnr" v="494799" />
		<tag k="waterway" v="stream" />
	</node>
	<node id="-532863" lat="61.6195999959" lon="6.58317778169">
		<tag k="name" v="Tverrelva" />
		<tag k="ssr:stedsnr" v="860033" />
		<tag k="waterway" v="stream" />
	</node>
	<node id="-532862" lat="61.6126388874" lon="6.50230833883">
		<tag k="name" v="Paulsvatnet" />
		<tag k="natural" v="water" />
		<tag k="ssr:stedsnr" v="860023" />
	</node>
	<node id="-532349" lat="61.4737333316" lon="6.3054805482">
		<tag k="name" v="Fagrevatnet" />
		<tag k="natural" v="water" />
		<tag k="ssr:stedsnr" v="493673" />
	</node>
	<node id="-532860" lat="61.5847916672" lon="6.33933888046">
		<tag k="name" v="Engjagrova" />
		<tag k="ssr:stedsnr" v="860014" />
		<tag k="waterway" v="stream" />
	</node>
	<node id="-532347" lat="61.4789916702" lon="6.0504333289">
		<tag k="name" v="Dalevatnet" />
		<tag k="natural" v="water" />
		<tag k="ssr:stedsnr" v="493317" />
	</node>
	<node id="-532346" lat="61.4800222214" lon="6.12893333645">
		<tag k="name" v="Gjesdalselva" />
		<tag k="ssr:stedsnr" v="493296" />
		<tag k="waterway" v="river" />
	</node>
	<node id="-532344" lat="61.4950944464" lon="6.13288889081">
		<tag k="name" v="Jølstravatnet" />
		<tag k="natural" v="water" />
		<tag k="ssr:stedsnr" v="493280" />
		<tag k="water" v="lake" />
	</node>
	<node id="-532853" lat="61.5651694431" lon="6.484174998">
		<tag k="name" v="Vikaelva" />
		<tag k="ssr:stedsnr" v="859942" />
		<tag k="waterway" v="stream" />
	</node>
	<node id="-532851" lat="61.5782166688" lon="6.59201389205">
		<tag k="name" v="Blåvatnet" />
		<tag k="natural" v="water" />
		<tag k="ssr:stedsnr" v="859936" />
	</node>
	<node id="-532849" lat="61.6469666654" lon="6.62896667043">
		<tag k="name" v="Reinevatnet" />
		<tag k="natural" v="water" />
		<tag k="ssr:stedsnr" v="859918" />
	</node>
	<node id="-532848" lat="61.6556000034" lon="6.63019443841">
		<tag k="name" v="Skitnevatnet" />
		<tag k="natural" v="water" />
		<tag k="ssr:stedsnr" v="859916" />
	</node>
	<node id="-531823" lat="61.6397583363" lon="6.51458055883">
		<tag k="name" v="Sletteskregrova" />
		<tag k="ssr:stedsnr" v="396074" />
		<tag k="waterway" v="stream" />
	</node>
	<node id="-532845" lat="61.6087638848" lon="6.74700277598">
		<tag k="name" v="Svoraelva" />
		<tag k="ssr:stedsnr" v="859810" />
		<tag k="waterway" v="stream" />
	</node>
	<node id="-532843" lat="61.5017194418" lon="6.63657499811">
		<tag k="name" v="Grytevatnet" />
		<tag k="natural" v="water" />
		<tag k="ssr:stedsnr" v="859739" />
	</node>
	<node id="-531943" lat="61.478775" lon="6.06236666616">
		<tag k="name" v="Kvamsfossen" />
		<tag k="natural" v="waterfall" />
		<tag k="ssr:stedsnr" v="32095" />
	</node>
	<node id="-531816" lat="61.6099194472" lon="6.48391665924">
		<tag k="name" v="Seljesvorgrova" />
		<tag k="ssr:stedsnr" v="396053" />
		<tag k="waterway" v="stream" />
	</node>
	<node id="-532839" lat="61.5208916709" lon="6.09324722528">
		<tag k="name" v="Tverrgrovvatnet" />
		<tag k="natural" v="water" />
		<tag k="ssr:stedsnr" v="859125" />
	</node>
	<node id="-531814" lat="61.5317611086" lon="6.47529722993">
		<tag k="name" v="Innlogeelva" />
		<tag k="ssr:stedsnr" v="396041" />
		<tag k="waterway" v="river" />
	</node>
	<node id="-531857" lat="61.6289472246" lon="6.62507500096">
		<tag k="name" v="Kvanngrova" />
		<tag k="ssr:stedsnr" v="396851" />
		<tag k="waterway" v="stream" />
	</node>
	<node id="-532320" lat="61.52852222" lon="6.25186666877">
		<tag k="name" v="Litleneset" />
		<tag k="natural" v="cape" />
		<tag k="ssr:stedsnr" v="457177" />
	</node>
	<node id="-531804" lat="61.6331944426" lon="6.28985555874">
		<tag k="name" v="Trollekupelva" />
		<tag k="ssr:stedsnr" v="374058" />
		<tag k="waterway" v="stream" />
	</node>
	<node id="-531803" lat="61.6261194427" lon="6.28636110334">
		<tag k="name" v="Kupevatnet" />
		<tag k="natural" v="water" />
		<tag k="ssr:stedsnr" v="374053" />
	</node>
	<node id="-531798" lat="61.6011583362" lon="6.58104999568">
		<tag k="alt_name" v="Botnaelva" />
		<tag k="name" v="Grepstadgrova" />
		<tag k="ssr:stedsnr" v="374011" />
		<tag k="waterway" v="stream" />
	</node>
	<node id="-532821" lat="61.5189499998" lon="6.61946111173">
		<tag k="name" v="Lundaelva" />
		<tag k="ssr:stedsnr" v="821847" />
		<tag k="waterway" v="river" />
	</node>
	<node id="-531796" lat="61.5909250029" lon="6.50722499581">
		<tag k="name" v="Håheimsvatnet" />
		<tag k="natural" v="water" />
		<tag k="ssr:stedsnr" v="374008" />
	</node>
	<node id="-532814" lat="61.522841666" lon="6.35959999903">
		<tag k="name" v="Fessene" />
		<tag k="natural" v="water" />
		<tag k="ssr:stedsnr" v="821213" />
		<tag k="water" v="lake" />
	</node>
	<node id="-532301" lat="61.5141861108" lon="6.4329583308">
		<tag k="name" v="Fagredalselva" />
		<tag k="ssr:stedsnr" v="457049" />
		<tag k="waterway" v="river" />
	</node>
	<node id="-532297" lat="61.5386527751" lon="6.39381389659">
		<tag k="name" v="Gjøtta" />
		<tag k="ssr:stedsnr" v="457026" />
		<tag k="waterway" v="stream" />
	</node>
	<node id="-531784" lat="61.487188891" lon="6.65834721685">
		<tag k="name" v="Trollavatnet" />
		<tag k="natural" v="water" />
		<tag k="ssr:stedsnr" v="371854" />
		<tag k="water" v="lake" />
	</node>
	<node id="-531783" lat="61.4462027762" lon="6.00851111286">
		<tag k="name" v="Stakaldefossen" />
		<tag k="natural" v="waterfall" />
		<tag k="ssr:stedsnr" v="371329" />
	</node>
	<node id="-532292" lat="61.5650888884" lon="6.33129722286">
		<tag k="name" v="Lovatnet" />
		<tag k="natural" v="water" />
		<tag k="ssr:stedsnr" v="457004" />
		<tag k="water" v="lake" />
	</node>
	<node id="-532287" lat="61.5818194424" lon="6.49470833154">
		<tag k="alt_name" v="Skredevatnet" />
		<tag k="name" v="Skredvatnet" />
		<tag k="natural" v="water" />
		<tag k="ssr:stedsnr" v="435966" />
	</node>
	<node id="-532281" lat="61.518424999" lon="6.19316666729">
		<tag k="name" v="Nesodden" />
		<tag k="natural" v="cape" />
		<tag k="ssr:stedsnr" v="435167" />
	</node>
	<node id="-532279" lat="61.6301416677" lon="6.56138611957">
		<tag k="name" v="Støylsvatnet" />
		<tag k="natural" v="water" />
		<tag k="ssr:stedsnr" v="435055" />
	</node>
	<node id="-532277" lat="61.6023388855" lon="6.38948610473">
		<tag k="name" v="Vasskarvatnet" />
		<tag k="natural" v="water" />
		<tag k="ssr:stedsnr" v="435035" />
	</node>
	<node id="-532271" lat="61.5792750002" lon="6.3987999955">
		<tag k="name" v="Helgheimselva" />
		<tag k="ssr:stedsnr" v="435002" />
		<tag k="waterway" v="stream" />
	</node>
	<node id="-531933" lat="61.587388891" lon="6.50558611266">
		<tag k="name" v="Juvikvatnet" />
		<tag k="natural" v="water" />
		<tag k="ssr:stedsnr" v="10951" />
	</node>
	<node id="-532267" lat="61.5583027794" lon="6.32231389236">
		<tag k="name" v="Øyskargrova" />
		<tag k="ssr:stedsnr" v="434947" />
		<tag k="waterway" v="stream" />
	</node>
	<node id="-531753" lat="61.5683666635" lon="6.47664999501">
		<tag k="name" v="Skeisbukta" />
		<tag k="natural" v="water" />
		<tag k="ssr:stedsnr" v="335058" />
		<tag k="water" v="lake" />
	</node>
	<node id="-532261" lat="61.5123888904" lon="6.30756667528">
		<tag k="alt_name" v="Sandalstrand" />
		<tag k="name" v="Sanddalsstrand" />
		<tag k="natural" v="beach" />
		<tag k="ssr:stedsnr" v="434842" />
	</node>
	<node id="-531747" lat="61.5393277812" lon="6.32625278653">
		<tag k="name" v="Storegrova" />
		<tag k="ssr:stedsnr" v="335033" />
		<tag k="waterway" v="stream" />
	</node>
	<node id="-531745" lat="61.5698916695" lon="6.39666110623">
		<tag k="name" v="Øyagropa" />
		<tag k="ssr:stedsnr" v="335026" />
		<tag k="waterway" v="stream" />
	</node>
	<node id="-532767" lat="61.5189083336" lon="6.12937778025">
		<tag k="name" v="Svidalselva" />
		<tag k="ssr:stedsnr" v="799162" />
		<tag k="waterway" v="river" />
	</node>
	<node id="-532254" lat="61.4882222218" lon="6.31546389135">
		<tag k="name" v="Styggevasselva" />
		<tag k="ssr:stedsnr" v="432669" />
		<tag k="waterway" v="stream" />
	</node>
	<node id="-532765" lat="61.5113305519" lon="6.15880833555">
		<tag k="name" v="Svidalsneset" />
		<tag k="natural" v="cape" />
		<tag k="ssr:stedsnr" v="799145" />
	</node>
	<node id="-532764" lat="61.5019805565" lon="6.2041222137">
		<tag k="name" v="Strandselva" />
		<tag k="ssr:stedsnr" v="799135" />
		<tag k="waterway" v="stream" />
	</node>
	<node id="-531738" lat="61.5590611122" lon="6.65467776959">
		<tag k="name" v="Blåvatnet" />
		<tag k="natural" v="water" />
		<tag k="ssr:stedsnr" v="313865" />
	</node>
	<node id="-531734" lat="61.5400555594" lon="6.18031388737">
		<tag k="name" v="Styggtjørna" />
		<tag k="natural" v="water" />
		<tag k="ssr:stedsnr" v="313195" />
	</node>
	<node id="-532244" lat="61.6171750045" lon="6.28629445149">
		<tag k="name" v="Stigsvatnet" />
		<tag k="natural" v="water" />
		<tag k="ssr:stedsnr" v="253043" />
		<tag k="water" v="lake" />
	</node>
	<node id="-532890" lat="61.5942611096" lon="6.52943334106">
		<tag k="name" v="Bolsetelva" />
		<tag k="ssr:stedsnr" v="920007" />
		<tag k="waterway" v="stream" />
	</node>
	<node id="-532242" lat="61.608138885" lon="6.40253888877">
		<tag k="name" v="Tverrlivatnet" />
		<tag k="natural" v="water" />
		<tag k="ssr:stedsnr" v="253027" />
	</node>
	<node id="-532583" lat="61.5799250013" lon="6.51181945051">
		<tag k="name" v="Fossheimselva" />
		<tag k="ssr:stedsnr" v="676942" />
		<tag k="waterway" v="stream" />
	</node>
	<node id="-532748" lat="61.629711108" lon="6.7265555596">
		<tag k="alt_name" v="Åmotselva;Drivaelva" />
		<tag k="name" v="Driva" />
		<tag k="ssr:stedsnr" v="798769" />
		<tag k="waterway" v="stream" />
	</node>
	<node id="-532610" lat="61.4794861134" lon="6.06977777057">
		<tag k="name" v="Gravøyna" />
		<tag k="place" v="islet" />
		<tag k="ssr:stedsnr" v="700166" />
	</node>
	<node id="-532744" lat="61.5132027783" lon="6.478499999">
		<tag k="name" v="Sundsvatnet" />
		<tag k="natural" v="water" />
		<tag k="ssr:stedsnr" v="798876" />
	</node>
	<node id="-531717" lat="61.6381083318" lon="6.7458888913">
		<tag k="name" v="Tverrelva" />
		<tag k="ssr:stedsnr" v="312801" />
		<tag k="waterway" v="stream" />
	</node>
	<node id="-532228" lat="61.5141055559" lon="6.5849833398">
		<tag k="name" v="Sygnesandselva" />
		<tag k="ssr:stedsnr" v="252866" />
		<tag k="waterway" v="stream" />
	</node>
	<node id="-531714" lat="61.4684777806" lon="6.22673054626">
		<tag k="name" v="Gjesdalsvatnet" />
		<tag k="natural" v="water" />
		<tag k="ssr:stedsnr" v="311728" />
	</node>
	<node id="-532225" lat="61.5218277792" lon="6.55666111643">
		<tag k="alt_name" v="Brelsvikelva" />
		<tag k="name" v="Elvaneselva" />
		<tag k="ssr:stedsnr" v="252858" />
		<tag k="waterway" v="stream" />
	</node>
	<node id="-531711" lat="61.4718277788" lon="6.1545944433">
		<tag k="alt_name" v="Gjesdalselva;Inste-elva" />
		<tag k="name" v="Instelva" />
		<tag k="ssr:stedsnr" v="311393" />
		<tag k="waterway" v="stream" />
	</node>
	<node id="-531709" lat="61.4607777771" lon="6.16097500124">
		<tag k="name" v="Storehaugtjørna" />
		<tag k="natural" v="water" />
		<tag k="ssr:stedsnr" v="311378" />
	</node>
	<node id="-532732" lat="61.4748166698" lon="6.25666944012">
		<tag k="name" v="Botnavatnet" />
		<tag k="natural" v="water" />
		<tag k="ssr:stedsnr" v="796659" />
	</node>
	<node id="-532219" lat="61.5944083363" lon="6.74413888703">
		<tag k="name" v="Langedalselva" />
		<tag k="ssr:stedsnr" v="252805" />
		<tag k="waterway" v="river" />
	</node>
	<node id="-531705" lat="61.4713777759" lon="5.98861111599">
		<tag k="name" v="Storetjørna" />
		<tag k="natural" v="water" />
		<tag k="ssr:stedsnr" v="311353" />
	</node>
	<node id="-531702" lat="61.4978083336" lon="6.10180833501">
		<tag k="name" v="Årsetelva" />
		<tag k="ssr:stedsnr" v="311332" />
		<tag k="waterway" v="stream" />
	</node>
	<node id="-532724" lat="61.6497611134" lon="6.6302833406">
		<tag k="name" v="Hølen" />
		<tag k="place" v="locality" />
		<tag k="ssr:stedsnr" v="767183" />
	</node>
	<node id="-531695" lat="61.57141111" lon="6.40987499364">
		<tag k="name" v="Støylselva" />
		<tag k="ssr:stedsnr" v="32020" />
		<tag k="waterway" v="river" />
	</node>
	<node id="-532204" lat="61.6065749985" lon="6.52691388556">
		<tag k="name" v="Øygrova" />
		<tag k="ssr:stedsnr" v="214856" />
		<tag k="waterway" v="stream" />
	</node>
	<node id="-532201" lat="61.6207611111" lon="6.6818999959">
		<tag k="name" v="Jølgrova" />
		<tag k="ssr:stedsnr" v="214846" />
		<tag k="waterway" v="stream" />
	</node>
	<node id="-532198" lat="61.6173750002" lon="6.69102500092">
		<tag k="alt_name" v="Hauaelva" />
		<tag k="name" v="Haugaelva" />
		<tag k="ssr:stedsnr" v="214811" />
		<tag k="waterway" v="river" />
	</node>
	<node id="-531676" lat="61.498683546" lon="6.16138256367">
		<tag k="name" v="Hamarsvika" />
		<tag k="natural" v="bay" />
		<tag k="ssr:stedsnr" v="275159" />
	</node>
	<node id="-531665" lat="61.5769388925" lon="6.49188889613">
		<tag k="name" v="Longelva" />
		<tag k="ssr:stedsnr" v="275091" />
		<tag k="waterway" v="river" />
	</node>
	<node id="-532176" lat="61.580158332" lon="6.48133334016">
		<tag k="name" v="Slåttegrova" />
		<tag k="ssr:stedsnr" v="214084" />
		<tag k="waterway" v="stream" />
	</node>
	<node id="-531663" lat="61.5844694446" lon="6.48497777379">
		<tag k="name" v="Seljesvorgrova" />
		<tag k="ssr:stedsnr" v="275089" />
		<tag k="waterway" v="stream" />
	</node>
	<node id="-531661" lat="61.6087972215" lon="6.50119722144">
		<tag k="name" v="Flategrova" />
		<tag k="ssr:stedsnr" v="275067" />
		<tag k="waterway" v="stream" />
	</node>
	<node id="-531657" lat="61.5322999993" lon="6.48205277499">
		<tag k="name" v="Tungeelva" />
		<tag k="ssr:stedsnr" v="275048" />
		<tag k="waterway" v="river" />
	</node>
	<node id="-532166" lat="61.5577111118" lon="6.32100833715">
		<tag k="name" v="Øyane" />
		<tag k="natural" v="water" />
		<tag k="ssr:stedsnr" v="214013" />
		<tag k="water" v="lake" />
	</node>
	<node id="-532675" lat="61.6114166628" lon="6.46275834007">
		<tag k="name" v="Gamledalselva" />
		<tag k="ssr:stedsnr" v="738026" />
		<tag k="waterway" v="stream" />
	</node>
	<node id="-532162" lat="61.5020194461" lon="6.05406389328">
		<tag k="name" v="Hjelmbrekkelva" />
		<tag k="ssr:stedsnr" v="192147" />
		<tag k="waterway" v="stream" />
	</node>
	<node id="-532157" lat="61.5559833294" lon="6.59031111327">
		<tag k="name" v="Tverrelvebottsvatnet" />
		<tag k="natural" v="water" />
		<tag k="ssr:stedsnr" v="191970" />
	</node>
	<node id="-532664" lat="61.5725353611" lon="6.33579009717">
		<tag k="name" v="Dalevatnet" />
		<tag k="natural" v="water" />
		<tag k="ssr:stedsnr" v="737957" />
		<tag k="water" v="lake" />
	</node>
	<node id="-532663" lat="61.6563777799" lon="6.76221944132">
		<tag k="name" v="Storevatnet" />
		<tag k="natural" v="water" />
		<tag k="ssr:stedsnr" v="737931" />
		<tag k="water" v="lake" />
	</node>
	<node id="-532937" lat="61.5142750001" lon="6.32546111943">
		<tag k="name" v="Skregrova" />
		<tag k="ssr:stedsnr" v="943262" />
		<tag k="waterway" v="stream" />
	</node>
	<node id="-531742" lat="61.5034416702" lon="6.25494166122">
		<tag k="name" v="Husbakkelva" />
		<tag k="ssr:stedsnr" v="324609" />
		<tag k="waterway" v="river" />
	</node>
	<node id="-532653" lat="61.6200999991" lon="6.60747778499">
		<tag k="name" v="Kvernhusgrova" />
		<tag k="ssr:stedsnr" v="737815" />
		<tag k="waterway" v="stream" />
	</node>
	<node id="-532140" lat="61.4471027764" lon="6.15660556043">
		<tag k="name" v="Finneskotgrova" />
		<tag k="ssr:stedsnr" v="190336" />
		<tag k="waterway" v="stream" />
	</node>
	<node id="-532139" lat="61.4582777762" lon="6.11980277302">
		<tag k="name" v="Støylsgrova" />
		<tag k="ssr:stedsnr" v="190320" />
		<tag k="waterway" v="stream" />
	</node>
	<node id="-532648" lat="61.4427111097" lon="6.17126389209">
		<tag k="name" v="Antonstjørna" />
		<tag k="natural" v="water" />
		<tag k="ssr:stedsnr" v="736334" />
	</node>
	<node id="-531654" lat="61.5360246855" lon="6.39907494578">
		<tag k="name" v="Gjøttavatnet" />
		<tag k="natural" v="water" />
		<tag k="ssr:stedsnr" v="275032" />
		<tag k="water" v="lake" />
	</node>
	<node id="-532128" lat="61.6428499993" lon="6.43484723061">
		<tag k="name" v="Førdefjorden" />
		<tag k="natural" v="water" />
		<tag k="ssr:stedsnr" v="155247" />
	</node>
	<node id="-532127" lat="61.6094416673" lon="6.64950833784">
		<tag k="name" v="Åsvorgrova" />
		<tag k="ssr:stedsnr" v="153894" />
		<tag k="waterway" v="stream" />
	</node>
	<node id="-532933" lat="61.4963416655" lon="6.17619445069">
		<tag k="name" v="Hammarselva" />
		<tag k="ssr:stedsnr" v="943229" />
		<tag k="waterway" v="river" />
	</node>
	<node id="-532636" lat="61.4657833327" lon="6.1461333332">
		<tag k="alt_name" v="Ytste-elva" />
		<tag k="name" v="Ytstelva" />
		<tag k="ssr:stedsnr" v="735302" />
		<tag k="waterway" v="stream" />
	</node>
	<node id="-532624" lat="61.5229611136" lon="6.40603889786">
		<tag k="name" v="Øyna" />
		<tag k="natural" v="water" />
		<tag k="ssr:stedsnr" v="700256" />
		<tag k="water" v="lake" />
	</node>
	<node id="-532099" lat="61.6282416704" lon="6.53122777024">
		<tag k="name" v="Remelva" />
		<tag k="ssr:stedsnr" v="153116" />
		<tag k="waterway" v="stream" />
	</node>
	<node id="-532098" lat="61.6320749965" lon="6.43931944235">
		<tag k="name" v="Breimsvatnet" />
		<tag k="natural" v="water" />
		<tag k="ssr:stedsnr" v="153106" />
		<tag k="water" v="lake" />
	</node>
	<node id="-532095" lat="61.5969500039" lon="6.51358889053">
		<tag k="name" v="Grungeelva" />
		<tag k="ssr:stedsnr" v="153093" />
		<tag k="waterway" v="river" />
	</node>
	<node id="-532603" lat="61.5516083337" lon="6.45070555412">
		<tag k="name" v="Hamnaodden" />
		<tag k="natural" v="cape" />
		<tag k="ssr:stedsnr" v="700093" />
	</node>
	<node id="-532590" lat="61.6032638851" lon="6.69724999149">
		<tag k="name" v="Støylselva" />
		<tag k="ssr:stedsnr" v="677839" />
		<tag k="waterway" v="stream" />
	</node>
	<node id="-532587" lat="61.523841665" lon="6.15354721544">
		<tag k="name" v="Bergselva" />
		<tag k="ssr:stedsnr" v="677143" />
		<tag k="waterway" v="stream" />
	</node>
	<node id="-532073" lat="61.5379083311" lon="6.24907499734">
		<tag k="name" v="Hegreneselva" />
		<tag k="ssr:stedsnr" v="142597" />
		<tag k="waterway" v="river" />
	</node>
	<node id="-532584" lat="61.5714888909" lon="6.45697500271">
		<tag k="name" v="Haugaelva" />
		<tag k="ssr:stedsnr" v="676950" />
		<tag k="waterway" v="stream" />
	</node>
	<node id="-532071" lat="61.5248500004" lon="6.45564999602">
		<tag k="name" v="Langevatnet" />
		<tag k="natural" v="water" />
		<tag k="ssr:stedsnr" v="141500" />
	</node>
	<node id="-532068" lat="61.5959249984" lon="6.31415278063">
		<tag k="name" v="Nilsgrova" />
		<tag k="ssr:stedsnr" v="131026" />
		<tag k="waterway" v="stream" />
	</node>
	<node id="-532067" lat="61.5989000017" lon="6.41871666525">
		<tag k="name" v="Botnavatnet" />
		<tag k="natural" v="water" />
		<tag k="ssr:stedsnr" v="131022" />
	</node>
	<node id="-532065" lat="61.5344527803" lon="6.49353888336">
		<tag k="alt_name" v="Groaelva" />
		<tag k="name" v="Sægrova" />
		<tag k="ssr:stedsnr" v="130995" />
		<tag k="waterway" v="stream" />
	</node>
	<node id="-532574" lat="61.6377138875" lon="6.58803332848">
		<tag k="name" v="Trollebottsvatnet" />
		<tag k="natural" v="water" />
		<tag k="ssr:stedsnr" v="677038" />
		<tag k="water" v="lake" />
	</node>
	<node id="-532577" lat="61.46284167" lon="6.05765000049">
		<tag k="alt_name" v="Storegrova" />
		<tag k="name" v="Slåtteelva" />
		<tag k="ssr:stedsnr" v="675330" />
		<tag k="waterway" v="stream" />
	</node>
	<node id="-532053" lat="61.573913891" lon="6.69931388672">
		<tag k="name" v="Strupevatnet" />
		<tag k="natural" v="water" />
		<tag k="ssr:stedsnr" v="130814" />
	</node>
	<node id="-532579" lat="61.451611109" lon="6.15015277444">
		<tag k="name" v="Litlebotnsgrova" />
		<tag k="ssr:stedsnr" v="675368" />
		<tag k="waterway" v="river" />
	</node>
	<node id="-532045" lat="61.459877781" lon="6.14682500585">
		<tag k="alt_name" v="Bakkevatnet" />
		<tag k="name" v="Bakkesstøylsvatnet" />
		<tag k="natural" v="water" />
		<tag k="ssr:stedsnr" v="129316" />
	</node>
	<node id="-532040" lat="61.5761772551" lon="6.48675015557">
		<tag k="name" v="Fuglevatnet" />
		<tag k="natural" v="water" />
		<tag k="ssr:stedsnr" v="93780" />
		<tag k="water" v="lake" />
	</node>
	<node id="-532039" lat="61.5150472229" lon="6.66081666694">
		<tag k="name" v="Tongelva" />
		<tag k="ssr:stedsnr" v="93755" />
		<tag k="waterway" v="river" />
	</node>
	<node id="-532037" lat="61.5504222225" lon="6.35422500096">
		<tag k="name" v="Årdalselva" />
		<tag k="ssr:stedsnr" v="93724" />
		<tag k="waterway" v="river" />
	</node>
	<node id="-532544" lat="61.5166833339" lon="6.17857499555">
		<tag k="name" v="Svidalsvika" />
		<tag k="natural" v="bay" />
		<tag k="ssr:stedsnr" v="638161" />
	</node>
	<node id="-532031" lat="61.5448138883" lon="6.27268055468">
		<tag k="name" v="Storegrova" />
		<tag k="ssr:stedsnr" v="93182" />
		<tag k="waterway" v="river" />
	</node>
	<node id="-532028" lat="61.4968027732" lon="6.09450554793">
		<tag k="name" v="Fossen" />
		<tag k="natural" v="waterfall" />
		<tag k="ssr:stedsnr" v="93157" />
	</node>
	<node id="-532535" lat="61.5356138912" lon="6.50138610711">
		<tag k="name" v="Grunneneset" />
		<tag k="natural" v="cape" />
		<tag k="ssr:stedsnr" v="638070" />
	</node>
	<node id="-532534" lat="61.535159764" lon="6.39539827286">
		<tag k="name" v="Geitavatnet" />
		<tag k="natural" v="water" />
		<tag k="ssr:stedsnr" v="638041" />
		<tag k="water" v="lake" />
	</node>
	<node id="-532016" lat="61.5354916688" lon="6.51801110922">
		<tag k="name" v="Bliksteinvika" />
		<tag k="natural" v="bay" />
		<tag k="ssr:stedsnr" v="93067" />
	</node>
	<node id="-532524" lat="61.6407388901" lon="6.44725832741">
		<tag k="name" v="Fonnagrøvene" />
		<tag k="ssr:stedsnr" v="627638" />
		<tag k="waterway" v="stream" />
	</node>
	<node id="-532522" lat="61.5812111107" lon="6.27306389036">
		<tag k="name" v="Geitafossgrova" />
		<tag k="ssr:stedsnr" v="617004" />
		<tag k="waterway" v="stream" />
	</node>
	<node id="-532519" lat="61.5768777804" lon="6.64558888482">
		<tag k="name" v="Loneelva" />
		<tag k="ssr:stedsnr" v="616867" />
		<tag k="waterway" v="stream" />
	</node>
	<node id="-532005" lat="61.6128749987" lon="6.43356944857">
		<tag k="name" v="Nydalselva" />
		<tag k="ssr:stedsnr" v="71027" />
		<tag k="waterway" v="stream" />
	</node>
	<node id="-532002" lat="61.5712999973" lon="6.27180554842">
		<tag k="name" v="Fossgrova" />
		<tag k="ssr:stedsnr" v="70940" />
		<tag k="waterway" v="stream" />
	</node>
	<node id="-531994" lat="61.59821389" lon="6.75981110613">
		<tag k="name" v="Tverrdalselva" />
		<tag k="ssr:stedsnr" v="70837" />
		<tag k="waterway" v="stream" />
	</node>
	<node id="-531992" lat="61.6406277769" lon="6.63107499558">
		<tag k="name" v="Leitevatnet" />
		<tag k="natural" v="water" />
		<tag k="ssr:stedsnr" v="70811" />
	</node>
	<node id="-532740" lat="61.4703166639" lon="6.01397500809">
		<tag k="name" v="Storegrova" />
		<tag k="ssr:stedsnr" v="797570" />
		<tag k="waterway" v="stream" />
	</node>
	<node id="-531990" lat="61.5001388933" lon="6.64802777906">
		<tag k="name" v="Langevatnet" />
		<tag k="natural" v="water" />
		<tag k="ssr:stedsnr" v="70759" />
	</node>
	<node id="-532501" lat="61.4563916688" lon="6.10796665891">
		<tag k="name" v="Grønelitjørna" />
		<tag k="natural" v="water" />
		<tag k="ssr:stedsnr" v="614316" />
	</node>
	<node id="-531988" lat="61.5743583369" lon="6.56897500548">
		<tag k="name" v="Styggevatnet" />
		<tag k="natural" v="water" />
		<tag k="ssr:stedsnr" v="70953" />
	</node>
	<node id="-532499" lat="61.486411112" lon="6.07336944421">
		<tag k="alt_name" v="Flugelonene" />
		<tag k="name" v="Flugelona" />
		<tag k="place" v="locality" />
		<tag k="ssr:stedsnr" v="614285" />
	</node>
	<node id="-531984" lat="61.4827194419" lon="6.30479722495">
		<tag k="name" v="Fagrevasselva" />
		<tag k="ssr:stedsnr" v="68699" />
		<tag k="waterway" v="stream" />
	</node>
	<node id="-532864" lat="61.6212861101" lon="6.46442500481">
		<tag k="name" v="Tverråna" />
		<tag k="ssr:stedsnr" v="860038" />
		<tag k="waterway" v="stream" />
	</node>
	<node id="-532483" lat="61.5312722222" lon="6.36300000521">
		<tag k="name" v="Nesodden" />
		<tag k="natural" v="cape" />
		<tag k="ssr:stedsnr" v="578213" />
	</node>
	<node id="-531970" lat="61.5995250008" lon="6.53790555585">
		<tag k="name" v="Øygrova" />
		<tag k="ssr:stedsnr" v="32831" />
		<tag k="waterway" v="stream" />
	</node>
	<node id="-531969" lat="61.6143083354" lon="6.53878055148">
		<tag k="name" v="Stardalselva" />
		<tag k="ssr:stedsnr" v="32829" />
		<tag k="waterway" v="river" />
	</node>
</osm>
