<?xml version="1.0" encoding="UTF-8"?>
<osm generator="osmapis" version="0.6">
	<node id="-541180" lat="61.926055559" lon="5.05537778659">
		<tag k="name" v="Bergsholmane" />
		<tag k="ssr:date" v="2016-05-11" />
		<tag k="ssr:gruppe" v="navigasjon" />
		<tag k="ssr:hovedgruppe" v="infrastruktur" />
		<tag k="ssr:stedsnr" v="677967" />
		<tag k="ssr:type" v="fyrlykt" />
	</node>
	<node id="-540537" lat="61.9538083321" lon="5.15047778005">
		<tag k="name" v="Saltskjelneset" />
		<tag k="ssr:date" v="2016-05-10" />
		<tag k="ssr:gruppe" v="navigasjon" />
		<tag k="ssr:hovedgruppe" v="infrastruktur" />
		<tag k="ssr:stedsnr" v="55030" />
		<tag k="ssr:type" v="lanterne" />
	</node>
	<node id="-541558" lat="60.8816104596" lon="6.30047518531">
		<tag k="name" v="Vestlandet" />
		<tag k="ssr:date" v="2019-01-06" />
		<tag k="ssr:gruppe" v="administrativeIndelinger" />
		<tag k="ssr:hovedgruppe" v="offentligAdministrasjon" />
		<tag k="ssr:stedsnr" v="974777" />
		<tag k="ssr:type" v="annenAdministrativInndeling" />
	</node>
	<node id="-540271" lat="61.9261555514" lon="5.02379721607">
		<tag k="name" v="Hovden lykt" />
		<tag k="ssr:date" v="2016-05-10" />
		<tag k="ssr:gruppe" v="navigasjon" />
		<tag k="ssr:hovedgruppe" v="infrastruktur" />
		<tag k="ssr:stedsnr" v="336851" />
		<tag k="ssr:type" v="fyrlykt" />
	</node>
	<node id="-541166" lat="61.9865416656" lon="5.18377500381">
		<tag k="name" v="Osmundvåg molo" />
		<tag k="ssr:date" v="2016-05-10" />
		<tag k="ssr:gruppe" v="navigasjon" />
		<tag k="ssr:hovedgruppe" v="infrastruktur" />
		<tag k="ssr:stedsnr" v="663996" />
		<tag k="ssr:type" v="lanterne" />
	</node>
	<node id="-540909" lat="61.9058666646" lon="5.02086944917">
		<tag k="alt_name" v="Kvitnes" />
		<tag k="name" v="Kvitnes lykt" />
		<tag k="ssr:date" v="2016-05-10" />
		<tag k="ssr:gruppe" v="navigasjon" />
		<tag k="ssr:hovedgruppe" v="infrastruktur" />
		<tag k="ssr:stedsnr" v="495974" />
		<tag k="ssr:type" v="fyrlykt" />
	</node>
	<node id="-540907" lat="61.9261638856" lon="5.02337500755">
		<tag k="alt_name" v="Hovdeneset" />
		<tag k="name" v="Hovdeneset lykt" />
		<tag k="ssr:date" v="2016-05-10" />
		<tag k="ssr:gruppe" v="navigasjon" />
		<tag k="ssr:hovedgruppe" v="infrastruktur" />
		<tag k="ssr:stedsnr" v="495959" />
		<tag k="ssr:type" v="fyrlykt" />
	</node>
	<node id="-540817" lat="61.9624419613" lon="5.14882337322">
		<tag k="alt_name" v="Ulven" />
		<tag k="name" v="Ulven lykt" />
		<tag k="ssr:date" v="2019-12-04" />
		<tag k="ssr:gruppe" v="navigasjon" />
		<tag k="ssr:hovedgruppe" v="infrastruktur" />
		<tag k="ssr:stedsnr" v="435786" />
		<tag k="ssr:type" v="fyrlykt" />
	</node>
	<node id="-541283" lat="62.0325888924" lon="5.12365277761">
		<tag k="name" v="Skongsneset fyr" />
		<tag k="ssr:date" v="2016-05-11" />
		<tag k="ssr:gruppe" v="navigasjon" />
		<tag k="ssr:hovedgruppe" v="infrastruktur" />
		<tag k="ssr:stedsnr" v="756106" />
		<tag k="ssr:type" v="fyrstasjon" />
	</node>
	<node id="-541282" lat="61.9354416637" lon="5.11404445273">
		<tag k="alt_name" v="Vågsøy" />
		<tag k="name" v="Vågsøy kommune" />
		<tag k="ssr:date" v="2016-05-11" />
		<tag k="ssr:gruppe" v="administrativeIndelinger" />
		<tag k="ssr:hovedgruppe" v="offentligAdministrasjon" />
		<tag k="ssr:stedsnr" v="753946" />
		<tag k="ssr:type" v="kommune" />
	</node>
	<node id="-540642" lat="61.9646861139" lon="5.03414443514">
		<tag k="alt_name" v="Hendanes" />
		<tag k="name" v="Hendanes lykt" />
		<tag k="old_name" v="Hendanes fyr" />
		<tag k="ssr:date" v="2016-05-10" />
		<tag k="ssr:gruppe" v="navigasjon" />
		<tag k="ssr:hovedgruppe" v="infrastruktur" />
		<tag k="ssr:stedsnr" v="146689" />
		<tag k="ssr:type" v="fyrlykt" />
	</node>
	<node id="-540378" lat="61.8797444428" lon="5.17418055598">
		<tag k="name" v="Risøy lykt" />
		<tag k="ssr:date" v="2016-05-10" />
		<tag k="ssr:gruppe" v="navigasjon" />
		<tag k="ssr:hovedgruppe" v="infrastruktur" />
		<tag k="ssr:stedsnr" v="397885" />
		<tag k="ssr:type" v="fyrlykt" />
	</node>
	<node id="-540889" lat="61.9140888903" lon="5.13958056064">
		<tag k="name" v="Skavøya" />
		<tag k="ssr:date" v="2019-05-31" />
		<tag k="ssr:gruppe" v="veg" />
		<tag k="ssr:hovedgruppe" v="infrastruktur" />
		<tag k="ssr:stedsnr" v="484816" />
		<tag k="ssr:type" v="adressenavn" />
	</node>
	<node id="-540793" lat="62.0348073739" lon="4.98562714915">
		<tag k="alt_name" v="Kråkenes" />
		<tag k="name" v="Kråkenes fyr" />
		<tag k="ssr:date" v="2019-12-09" />
		<tag k="ssr:gruppe" v="navigasjon" />
		<tag k="ssr:hovedgruppe" v="infrastruktur" />
		<tag k="ssr:stedsnr" v="253696" />
		<tag k="ssr:type" v="fyrstasjon" />
	</node>
	<node id="-540619" lat="61.9035799656" lon="5.25685229425">
		<tag k="name" v="Allmenningsflua" />
		<tag k="ssr:date" v="2019-11-27" />
		<tag k="ssr:gruppe" v="navigasjon" />
		<tag k="ssr:hovedgruppe" v="infrastruktur" />
		<tag k="ssr:stedsnr" v="131203" />
		<tag k="ssr:type" v="fyrlykt" />
	</node>
	<node id="-540994" lat="61.8797666672" lon="5.17456111155">
		<tag k="alt_name" v="Risøy" />
		<tag k="name" v="Risøy lykt" />
		<tag k="ssr:date" v="2016-05-10" />
		<tag k="ssr:gruppe" v="navigasjon" />
		<tag k="ssr:hovedgruppe" v="infrastruktur" />
		<tag k="ssr:stedsnr" v="555138" />
		<tag k="ssr:type" v="fyrlykt" />
	</node>
	<node id="-541003" lat="61.9850307622" lon="5.16859414637">
		<tag k="alt_name" v="Ulvesund" />
		<tag k="name" v="Ulvesund lykt" />
		<tag k="ssr:date" v="2019-12-04" />
		<tag k="ssr:gruppe" v="navigasjon" />
		<tag k="ssr:hovedgruppe" v="infrastruktur" />
		<tag k="ssr:stedsnr" v="555845" />
		<tag k="ssr:type" v="fyrlykt" />
	</node>
	<node id="-540218" lat="61.9272416696" lon="5.11781388224">
		<tag k="name" v="Måløy, søre" />
		<tag k="ssr:date" v="2016-05-10" />
		<tag k="ssr:gruppe" v="navigasjon" />
		<tag k="ssr:hovedgruppe" v="infrastruktur" />
		<tag k="ssr:stedsnr" v="313237" />
		<tag k="ssr:type" v="fyrlykt" />
	</node>
	<node id="-541369" lat="62.0133085119" lon="5.20461387419">
		<tag k="name" v="Silda hamn" />
		<tag k="ssr:date" v="2019-10-25" />
		<tag k="ssr:gruppe" v="navigasjon" />
		<tag k="ssr:hovedgruppe" v="infrastruktur" />
		<tag k="ssr:stedsnr" v="817110" />
		<tag k="ssr:type" v="fyrlykt" />
	</node>
	<node id="-540213" lat="61.8949277752" lon="5.12904444004">
		<tag k="name" v="Grindøya" />
		<tag k="ssr:date" v="2019-05-31" />
		<tag k="ssr:gruppe" v="veg" />
		<tag k="ssr:hovedgruppe" v="infrastruktur" />
		<tag k="ssr:stedsnr" v="302806" />
		<tag k="ssr:type" v="adressenavn" />
	</node>
	<node id="-540335" lat="61.9248340058" lon="5.29047391283">
		<tag k="name" v="Raudeggesætra" />
		<tag k="ssr:date" v="2019-05-31" />
		<tag k="ssr:gruppe" v="veg" />
		<tag k="ssr:hovedgruppe" v="infrastruktur" />
		<tag k="ssr:stedsnr" v="1053923" />
		<tag k="ssr:type" v="adressenavn" />
	</node>
	<node id="-541486" lat="62.0032777746" lon="4.98733056474">
		<tag k="alt_name" v="Nord-Vågsøy" />
		<tag k="name" v="Nord-Vågsøy lykt" />
		<tag k="ssr:date" v="2016-05-11" />
		<tag k="ssr:gruppe" v="navigasjon" />
		<tag k="ssr:hovedgruppe" v="infrastruktur" />
		<tag k="ssr:stedsnr" v="921643" />
		<tag k="ssr:type" v="fyrlykt" />
	</node>
	<node id="-540333" lat="62.0323387771" lon="5.12333926163">
		<tag k="name" v="Skongsnes" />
		<tag k="ssr:date" v="2019-05-31" />
		<tag k="ssr:gruppe" v="veg" />
		<tag k="ssr:hovedgruppe" v="infrastruktur" />
		<tag k="ssr:stedsnr" v="1053689" />
		<tag k="ssr:type" v="adressenavn" />
	</node>
	<node id="-540332" lat="61.9202416695" lon="5.12154722641">
		<tag k="name" v="Kariskjer" />
		<tag k="ssr:date" v="2016-05-10" />
		<tag k="ssr:gruppe" v="navigasjon" />
		<tag k="ssr:hovedgruppe" v="infrastruktur" />
		<tag k="ssr:stedsnr" v="377991" />
		<tag k="ssr:type" v="lanterne" />
	</node>
	<node id="-540457" lat="61.9840482004" lon="5.16914412481">
		<tag k="name" v="Ulvesund øvre" />
		<tag k="ssr:date" v="2019-12-09" />
		<tag k="ssr:gruppe" v="navigasjon" />
		<tag k="ssr:hovedgruppe" v="infrastruktur" />
		<tag k="ssr:stedsnr" v="1073914" />
		<tag k="ssr:type" v="fyrlykt" />
	</node>
	<node id="-540702" lat="61.9646055556" lon="5.03406666652">
		<tag k="alt_name" v="Hendaneset" />
		<tag k="name" v="Hendaneset lykt" />
		<tag k="ssr:date" v="2016-05-10" />
		<tag k="ssr:gruppe" v="navigasjon" />
		<tag k="ssr:hovedgruppe" v="infrastruktur" />
		<tag k="ssr:stedsnr" v="192950" />
		<tag k="ssr:type" v="fyrlykt" />
	</node>
	<node id="-541339" lat="61.90869444" lon="5.10566943549">
		<tag k="name" v="Gåsholmen" />
		<tag k="ssr:date" v="2019-05-31" />
		<tag k="ssr:gruppe" v="veg" />
		<tag k="ssr:hovedgruppe" v="infrastruktur" />
		<tag k="ssr:stedsnr" v="788823" />
		<tag k="ssr:type" v="adressenavn" />
	</node>
	<node id="-541337" lat="61.9834726032" lon="5.13873328162">
		<tag k="name" v="Raudeberg molo" />
		<tag k="ssr:date" v="2016-12-29" />
		<tag k="ssr:gruppe" v="navigasjon" />
		<tag k="ssr:hovedgruppe" v="infrastruktur" />
		<tag k="ssr:stedsnr" v="785106" />
		<tag k="ssr:type" v="lanterne" />
	</node>
	<node id="-541079" lat="61.9267499981" lon="5.45856388763">
		<tag k="alt_name" v="Åsneset" />
		<tag k="name" v="Åsnes" />
		<tag k="ssr:date" v="2016-05-10" />
		<tag k="ssr:gruppe" v="navigasjon" />
		<tag k="ssr:hovedgruppe" v="infrastruktur" />
		<tag k="ssr:stedsnr" v="616214" />
		<tag k="ssr:type" v="fyrlykt" />
	</node>
	<node id="-540693" lat="61.9298861143" lon="5.12055276987">
		<tag k="name" v="Måløy, nordre" />
		<tag k="ssr:date" v="2016-05-10" />
		<tag k="ssr:gruppe" v="navigasjon" />
		<tag k="ssr:hovedgruppe" v="infrastruktur" />
		<tag k="ssr:stedsnr" v="192263" />
		<tag k="ssr:type" v="fyrlykt" />
	</node>
	<node id="-540692" lat="61.916003718" lon="5.13720598745">
		<tag k="alt_name" v="Skavøypollen" />
		<tag k="name" v="Skavøypollen lykt" />
		<tag k="ssr:date" v="2019-11-28" />
		<tag k="ssr:gruppe" v="navigasjon" />
		<tag k="ssr:hovedgruppe" v="infrastruktur" />
		<tag k="ssr:stedsnr" v="192255" />
		<tag k="ssr:type" v="fyrlykt" />
	</node>
	<node id="-540334" lat="61.9216442293" lon="5.28137773723">
		<tag k="name" v="Raudeggevatnet" />
		<tag k="ssr:date" v="2019-05-31" />
		<tag k="ssr:gruppe" v="veg" />
		<tag k="ssr:hovedgruppe" v="infrastruktur" />
		<tag k="ssr:stedsnr" v="1053922" />
		<tag k="ssr:type" v="adressenavn" />
	</node>
	<node id="-541329" lat="61.9480305921" lon="5.1375957081">
		<tag k="name" v="Leistholmen lanterne" />
		<tag k="ssr:date" v="2016-12-28" />
		<tag k="ssr:gruppe" v="navigasjon" />
		<tag k="ssr:hovedgruppe" v="infrastruktur" />
		<tag k="ssr:stedsnr" v="781710" />
		<tag k="ssr:type" v="lanterne" />
	</node>
	<node id="-540813" lat="61.8860996403" lon="5.1653922741">
		<tag k="name" v="Gangsøya flaumlys" />
		<tag k="ssr:date" v="2019-11-07" />
		<tag k="ssr:gruppe" v="navigasjon" />
		<tag k="ssr:hovedgruppe" v="infrastruktur" />
		<tag k="ssr:stedsnr" v="435230" />
		<tag k="ssr:type" v="fyrlykt" />
	</node>
	<node id="-540993" lat="61.880227777" lon="5.1783527783">
		<tag k="name" v="Risøya" />
		<tag k="ssr:date" v="2019-05-31" />
		<tag k="ssr:gruppe" v="veg" />
		<tag k="ssr:hovedgruppe" v="infrastruktur" />
		<tag k="ssr:stedsnr" v="545818" />
		<tag k="ssr:type" v="adressenavn" />
	</node>
	<node id="-540804" lat="62.0547727177" lon="4.85807443026">
		<tag k="name" v="Havfruskallen lysbøye" />
		<tag k="ssr:date" v="2016-12-29" />
		<tag k="ssr:gruppe" v="navigasjon" />
		<tag k="ssr:hovedgruppe" v="infrastruktur" />
		<tag k="ssr:stedsnr" v="480007" />
		<tag k="ssr:type" v="lysbøye" />
	</node>
</osm>
