<?xml version="1.0" encoding="UTF-8"?>
<osm generator="osmapis" version="0.6">
	<node id="-209591" lat="59.4805388899" lon="10.3489249933">
		<tag k="name" v="Mulodden" />
		<tag k="ssr:date" v="2016-05-10" />
		<tag k="ssr:gruppe" v="navigasjon" />
		<tag k="ssr:hovedgruppe" v="infrastruktur" />
		<tag k="ssr:stedsnr" v="450802" />
		<tag k="ssr:type" v="fyrlykt" />
	</node>
	<node id="-209590" lat="59.3505527802" lon="10.2476361174">
		<tag k="loc_name" v="Re" />
		<tag k="name" v="Re kommune" />
		<tag k="ssr:date" v="2016-05-10" />
		<tag k="ssr:gruppe" v="administrativeIndelinger" />
		<tag k="ssr:hovedgruppe" v="offentligAdministrasjon" />
		<tag k="ssr:stedsnr" v="449287" />
		<tag k="ssr:type" v="kommune" />
	</node>
	<node id="-209071" lat="59.4490501859" lon="10.2181067245">
		<tag k="name" v="Kleivakollen" />
		<tag k="ssr:date" v="2019-05-31" />
		<tag k="ssr:gruppe" v="veg" />
		<tag k="ssr:hovedgruppe" v="infrastruktur" />
		<tag k="ssr:stedsnr" v="1043791" />
		<tag k="ssr:type" v="adressenavn" />
	</node>
	<node id="-210283" lat="60.5908609473" lon="9.63819281559">
		<tag k="fixme" v="multiple name tags, choose one and add the other to alt_name" />
		<tag k="name" v="Austlandet;Ã˜stlandet" />
		<tag k="ssr:date" v="2018-01-09" />
		<tag k="ssr:gruppe" v="administrativeIndelinger" />
		<tag k="ssr:hovedgruppe" v="offentligAdministrasjon" />
		<tag k="ssr:stedsnr" v="974775" />
		<tag k="ssr:type" v="annenAdministrativInndeling" />
	</node>
	<node id="-210282" lat="59.4520201292" lon="10.3696353354">
		<tag k="name" v="Hellandstranda" />
		<tag k="ssr:date" v="2019-05-31" />
		<tag k="ssr:gruppe" v="veg" />
		<tag k="ssr:hovedgruppe" v="infrastruktur" />
		<tag k="ssr:stedsnr" v="973550" />
		<tag k="ssr:type" v="adressenavn" />
	</node>
	<node id="-210281" lat="59.447094505" lon="10.3694927492">
		<tag k="name" v="Nordre Valstadvei" />
		<tag k="ssr:date" v="2019-05-31" />
		<tag k="ssr:gruppe" v="veg" />
		<tag k="ssr:hovedgruppe" v="infrastruktur" />
		<tag k="ssr:stedsnr" v="973546" />
		<tag k="ssr:type" v="adressenavn" />
	</node>
</osm>
