<?xml version="1.0" encoding="UTF-8"?>
<osm generator="osmapis" version="0.6">
	<node id="-520986" lat="61.1924388878" lon="7.62563056332">
		<tag k="name" v="Hovlandsvegen" />
		<tag k="ssr:date" v="2019-05-31" />
		<tag k="ssr:gruppe" v="veg" />
		<tag k="ssr:hovedgruppe" v="infrastruktur" />
		<tag k="ssr:stedsnr" v="849921" />
		<tag k="ssr:type" v="adressenavn" />
	</node>
	<node id="-520989" lat="61.2738666638" lon="8.01574443673">
		<tag k="name" v="Mannsbergi" />
		<tag k="ssr:date" v="2019-05-31" />
		<tag k="ssr:gruppe" v="veg" />
		<tag k="ssr:hovedgruppe" v="infrastruktur" />
		<tag k="ssr:stedsnr" v="849931" />
		<tag k="ssr:type" v="adressenavn" />
	</node>
	<node id="-520988" lat="61.2714750029" lon="8.11169721444">
		<tag k="name" v="Langleiskardvegen" />
		<tag k="ssr:date" v="2019-05-31" />
		<tag k="ssr:gruppe" v="veg" />
		<tag k="ssr:hovedgruppe" v="infrastruktur" />
		<tag k="ssr:stedsnr" v="849929" />
		<tag k="ssr:type" v="adressenavn" />
	</node>
	<node id="-520987" lat="61.2347555544" lon="7.71521665743">
		<tag k="name" v="Vikadalsvegen" />
		<tag k="ssr:date" v="2019-05-31" />
		<tag k="ssr:gruppe" v="veg" />
		<tag k="ssr:hovedgruppe" v="infrastruktur" />
		<tag k="ssr:stedsnr" v="849925" />
		<tag k="ssr:type" v="adressenavn" />
	</node>
	<node id="-519962" lat="61.1920333361" lon="7.61753610919">
		<tag k="name" v="Skulehusvegen" />
		<tag k="ssr:date" v="2019-05-31" />
		<tag k="ssr:gruppe" v="veg" />
		<tag k="ssr:hovedgruppe" v="infrastruktur" />
		<tag k="ssr:stedsnr" v="303926" />
		<tag k="ssr:type" v="adressenavn" />
	</node>
	<node id="-520405" lat="61.2363861078" lon="7.70204444689">
		<tag k="name" v="Årdal kommune" />
		<tag k="ssr:date" v="2016-05-10" />
		<tag k="ssr:gruppe" v="administrativeIndelinger" />
		<tag k="ssr:hovedgruppe" v="offentligAdministrasjon" />
		<tag k="ssr:stedsnr" v="208522" />
		<tag k="ssr:type" v="kommune" />
	</node>
	<node id="-520022" lat="61.1882083338" lon="7.62190832628">
		<tag k="name" v="Nysetvegen" />
		<tag k="ssr:date" v="2019-05-31" />
		<tag k="ssr:gruppe" v="veg" />
		<tag k="ssr:hovedgruppe" v="infrastruktur" />
		<tag k="ssr:stedsnr" v="363902" />
		<tag k="ssr:type" v="adressenavn" />
	</node>
	<node id="-520021" lat="61.2139527795" lon="7.62473056391">
		<tag k="name" v="Resnestangen" />
		<tag k="ssr:date" v="2016-05-10" />
		<tag k="ssr:gruppe" v="navigasjon" />
		<tag k="ssr:hovedgruppe" v="infrastruktur" />
		<tag k="ssr:stedsnr" v="360850" />
		<tag k="ssr:type" v="lanterne" />
	</node>
	<node id="-521105" lat="60.8816104596" lon="6.30047518531">
		<tag k="name" v="Vestlandet" />
		<tag k="ssr:date" v="2019-01-06" />
		<tag k="ssr:gruppe" v="administrativeIndelinger" />
		<tag k="ssr:hovedgruppe" v="offentligAdministrasjon" />
		<tag k="ssr:stedsnr" v="974777" />
		<tag k="ssr:type" v="annenAdministrativInndeling" />
	</node>
	<node id="-520461" lat="61.2746499963" lon="8.02364721416">
		<tag k="name" v="Sletterust" />
		<tag k="ssr:date" v="2019-05-31" />
		<tag k="ssr:gruppe" v="veg" />
		<tag k="ssr:hovedgruppe" v="infrastruktur" />
		<tag k="ssr:stedsnr" v="424910" />
		<tag k="ssr:type" v="adressenavn" />
	</node>
	<node id="-520680" lat="61.1924277755" lon="7.619213897">
		<tag k="name" v="Hola" />
		<tag k="ssr:date" v="2019-05-31" />
		<tag k="ssr:gruppe" v="veg" />
		<tag k="ssr:hovedgruppe" v="infrastruktur" />
		<tag k="ssr:stedsnr" v="606916" />
		<tag k="ssr:type" v="adressenavn" />
	</node>
	<node id="-520070" lat="61.2505435371" lon="7.65070042192">
		<tag k="name" v="Hagagjerdet" />
		<tag k="ssr:date" v="2019-05-31" />
		<tag k="ssr:gruppe" v="veg" />
		<tag k="ssr:hovedgruppe" v="infrastruktur" />
		<tag k="ssr:stedsnr" v="1052259" />
		<tag k="ssr:type" v="adressenavn" />
	</node>
	<node id="-520069" lat="61.3206623432" lon="7.84411210592">
		<tag k="name" v="Nedre Storøyni" />
		<tag k="ssr:date" v="2019-05-31" />
		<tag k="ssr:gruppe" v="veg" />
		<tag k="ssr:hovedgruppe" v="infrastruktur" />
		<tag k="ssr:stedsnr" v="1052256" />
		<tag k="ssr:type" v="adressenavn" />
	</node>
	<node id="-520356" lat="61.273530552" lon="8.02640278147">
		<tag k="name" v="Sletterustutsynet" />
		<tag k="ssr:date" v="2019-05-31" />
		<tag k="ssr:gruppe" v="veg" />
		<tag k="ssr:hovedgruppe" v="infrastruktur" />
		<tag k="ssr:stedsnr" v="181925" />
		<tag k="ssr:type" v="adressenavn" />
	</node>
	<node id="-520355" lat="61.2747194487" lon="8.03198055557">
		<tag k="name" v="Søre Knipvegen" />
		<tag k="ssr:date" v="2019-05-31" />
		<tag k="ssr:gruppe" v="veg" />
		<tag k="ssr:hovedgruppe" v="infrastruktur" />
		<tag k="ssr:stedsnr" v="181054" />
		<tag k="ssr:type" v="adressenavn" />
	</node>
</osm>
