<?xml version="1.0" encoding="UTF-8"?>
<osm generator="osmapis" version="0.6">
	<node id="-381034" lat="59.468524997" lon="9.07069166973">
		<tag k="historic" v="boundary_stone" />
		<tag k="man_made" v="cairn" />
		<tag k="name" v="Jokkomsteinen" />
		<tag k="place" v="locality" />
		<tag k="ssr:stedsnr" v="451420" />
	</node>
	<node id="-380696" lat="59.5144361146" lon="9.04326665847">
		<tag k="historic" v="boundary_stone" />
		<tag k="man_made" v="cairn" />
		<tag k="name" v="Lutekvisten" />
		<tag k="place" v="locality" />
		<tag k="ssr:stedsnr" v="269583" />
	</node>
	<node id="-382422" lat="59.3896944481" lon="8.99340277907">
		<tag k="historic" v="boundary_stone" />
		<tag k="man_made" v="cairn" />
		<tag k="name" v="Steinbåten" />
		<tag k="place" v="locality" />
		<tag k="ssr:stedsnr" v="327068" />
	</node>
	<node id="-381333" lat="59.4815805559" lon="9.13404443718">
		<tag k="historic" v="boundary_stone" />
		<tag k="man_made" v="cairn" />
		<tag k="name" v="Glimmerdelet" />
		<tag k="place" v="locality" />
		<tag k="ssr:stedsnr" v="634922" />
	</node>
	<node id="-380916" lat="59.4302111071" lon="8.88523054863">
		<tag k="fixme" v="specify shooting=range, clay_pigeon etc" />
		<tag k="leisure" v="pitch" />
		<tag k="name" v="Øvre Bø skyttarbane" />
		<tag k="sport" v="shooting" />
		<tag k="ssr:stedsnr" v="392867" />
	</node>
	<node id="-382835" lat="59.5340361121" lon="9.11575833367">
		<tag k="historic" v="boundary_stone" />
		<tag k="man_made" v="cairn" />
		<tag k="name" v="Blodalsrøysa" />
		<tag k="place" v="locality" />
		<tag k="ssr:stedsnr" v="571754" />
	</node>
	<node id="-380851" lat="59.3718194444" lon="9.32133888454">
		<tag k="historic" v="boundary_stone" />
		<tag k="man_made" v="cairn" />
		<tag k="name" v="Vardefjell N" />
		<tag k="place" v="locality" />
		<tag k="ssr:stedsnr" v="347315" />
	</node>
	<node id="-382609" lat="59.4573138854" lon="9.13931111466">
		<tag k="historic" v="boundary_stone" />
		<tag k="man_made" v="cairn" />
		<tag k="name" v="Bandfestet" />
		<tag k="place" v="locality" />
		<tag k="ssr:stedsnr" v="389928" />
	</node>
	<node id="-381194" lat="59.4681555534" lon="8.97257221922">
		<tag k="historic" v="boundary_stone" />
		<tag k="man_made" v="cairn" />
		<tag k="name" v="Bakkestein" />
		<tag k="place" v="locality" />
		<tag k="ssr:stedsnr" v="696678" />
	</node>
	<node id="-381032" lat="59.3918555537" lon="9.02385000687">
		<tag k="historic" v="boundary_stone" />
		<tag k="man_made" v="cairn" />
		<tag k="name" v="Måsåberget" />
		<tag k="place" v="locality" />
		<tag k="ssr:stedsnr" v="451335" />
	</node>
	<node id="-380711" lat="59.3668083348" lon="9.32148332684">
		<tag k="historic" v="boundary_stone" />
		<tag k="man_made" v="cairn" />
		<tag k="name" v="Vardefjell S" />
		<tag k="place" v="locality" />
		<tag k="ssr:stedsnr" v="286318" />
	</node>
	<node id="-381221" lat="59.3987222246" lon="9.02748055744">
		<tag k="fixme" v="specify shooting=range, clay_pigeon etc" />
		<tag k="leisure" v="pitch" />
		<tag k="name" v="Skyttarbanen" />
		<tag k="sport" v="shooting" />
		<tag k="ssr:stedsnr" v="572321" />
	</node>
	<node id="-383459" lat="59.479039738" lon="9.47562001218">
		<tag k="fixme" v="consider boundary=protected_area and relevant protect_class if not nature reserve" />
		<tag k="leisure" v="nature_reserve" />
		<tag k="name" v="Skrim og Sauheradfjella naturreservat" />
		<tag k="ssr:stedsnr" v="971505" />
	</node>
	<node id="-383234" lat="59.4814833349" lon="8.97266111864">
		<tag k="historic" v="boundary_stone" />
		<tag k="man_made" v="cairn" />
		<tag k="name" v="Tørrstein" />
		<tag k="place" v="locality" />
		<tag k="ssr:stedsnr" v="816694" />
	</node>
</osm>
