<?xml version="1.0" encoding="UTF-8"?>
<<<<<<< HEAD
<osm version="0.6" generator="osmapis">
	<node lat="59.36538333612077" lon="9.003094447523527" id="-20270">
		<tag k="alt_name" v="Hurrongstjørna" />
		<tag k="name" v="Hurrongstjønna" />
		<tag k="natural" v="water" />
		<tag k="ssr:stedsnr" v="2332" />
	</node>
	<node lat="59.429455553528534" lon="9.175480559029667" id="-20278">
		<tag k="name" v="Kisebekken" />
		<tag k="ssr:stedsnr" v="2428" />
		<tag k="waterway" v="stream" />
	</node>
	<node lat="59.435227777014646" lon="8.88084722419221" id="-20282">
		<tag k="alt_name" v="Kupatjørna" />
		<tag k="name" v="Kupatjønn" />
		<tag k="natural" v="water" />
		<tag k="ssr:stedsnr" v="2483" />
	</node>
	<node lat="59.46098055798066" lon="9.058994445808313" id="-20287">
		<tag k="name" v="Helle" />
		<tag k="ssr:stedsnr" v="2524" />
		<tag k="waterway" v="stream" />
	</node>
	<node lat="59.49520555320368" lon="9.146983324653743" id="-20291">
		<tag k="alt_name" v="Belatjørna" />
		<tag k="name" v="Belatjønn" />
		<tag k="natural" v="water" />
		<tag k="ssr:stedsnr" v="2591" />
	</node>
	<node lat="59.41378055372859" lon="9.355533339346708" id="-20297">
		<tag k="name" v="Børtevatn" />
		<tag k="natural" v="water" />
		<tag k="ssr:stedsnr" v="2986" />
		<tag k="water" v="lake" />
	</node>
	<node lat="59.51691666652925" lon="9.125761118061604" id="-20301">
		<tag k="name" v="Vatnarvatnet" />
		<tag k="natural" v="water" />
		<tag k="ssr:stedsnr" v="3427" />
		<tag k="water" v="lake" />
	</node>
	<node lat="59.37550000030091" lon="8.999499995934952" id="-20313">
		<tag k="name" v="Finkefoss" />
		<tag k="natural" v="waterfall" />
		<tag k="ssr:stedsnr" v="26472" />
	</node>
	<node lat="59.46176666373965" lon="9.143641664613133" id="-20315">
		<tag k="name" v="Halvtunneputten" />
		<tag k="natural" v="water" />
		<tag k="ssr:stedsnr" v="26908" />
		<tag k="water" v="pond" />
	</node>
	<node lat="59.45032777648363" lon="8.9801611070442" id="-20319">
		<tag k="name" v="Ostebekk" />
		<tag k="ssr:stedsnr" v="28074" />
		<tag k="waterway" v="stream" />
	</node>
	<node lat="59.46974999594719" lon="9.241108341546715" id="-20327">
		<tag k="name" v="Munketjønn-bekken" />
		<tag k="ssr:stedsnr" v="43203" />
		<tag k="waterway" v="stream" />
	</node>
	<node lat="59.467149997463885" lon="9.451508338711614" id="-20333">
		<tag k="name" v="Marta" />
		<tag k="place" v="islet" />
		<tag k="ssr:stedsnr" v="43477" />
	</node>
	<node lat="59.47504722638731" lon="9.460666667894431" id="-20334">
		<tag k="name" v="Surtetjønnbekken" />
		<tag k="old_name" v="Surfetjønnbekken" />
		<tag k="ssr:stedsnr" v="43478" />
		<tag k="waterway" v="stream" />
	</node>
	<node lat="59.33803055878199" lon="9.222744436325721" id="-20341">
		<tag k="name" v="Luguvika" />
		<tag k="natural" v="strait" />
		<tag k="ssr:stedsnr" v="44108" />
	</node>
	<node lat="59.384166668285815" lon="9.25947499906401" id="-20345">
		<tag k="name" v="Kråkeholmen" />
		<tag k="natural" v="cape" />
		<tag k="ssr:stedsnr" v="44589" />
	</node>
	<node lat="59.384297224968066" lon="9.262838893520954" id="-20346">
		<tag k="name" v="Haukvik-bukta" />
		<tag k="natural" v="bay" />
		<tag k="ssr:stedsnr" v="44590" />
	</node>
	<node lat="59.41454166892596" lon="9.201783338082407" id="-20349">
		<tag k="name" v="Skreabekken" />
		<tag k="ssr:stedsnr" v="44626" />
		<tag k="waterway" v="stream" />
	</node>
	<node lat="59.381002774577645" lon="9.113422224053076" id="-20356">
		<tag k="alt_name" v="Holmtjørn" />
		<tag k="name" v="Holmtjønn" />
		<tag k="natural" v="water" />
		<tag k="ssr:stedsnr" v="63363" />
	</node>
	<node lat="59.40034166602967" lon="8.88079166561987" id="-20357">
		<tag k="alt_name" v="Svarttjørn" />
		<tag k="name" v="Svarttjønn" />
		<tag k="natural" v="water" />
		<tag k="ssr:stedsnr" v="63375" />
	</node>
	<node lat="59.36687581983917" lon="9.302200581071498" id="-20368">
		<tag k="alt_name" v="Ulavatna, små" />
		<tag k="name" v="Små Ulavatna" />
		<tag k="natural" v="water" />
		<tag k="ssr:stedsnr" v="63814" />
	</node>
	<node lat="59.37332778226266" lon="9.333608341653976" id="-20369">
		<tag k="alt_name" v="Svarttjørn" />
		<tag k="name" v="Svart-tjønn" />
		<tag k="natural" v="water" />
		<tag k="ssr:stedsnr" v="63816" />
	</node>
	<node lat="59.52181110793712" lon="9.054483330298341" id="-20373">
		<tag k="name" v="Pina" />
		<tag k="natural" v="water" />
		<tag k="ssr:stedsnr" v="64466" />
	</node>
	<node lat="59.47288611271719" lon="9.239494445904723" id="-20375">
		<tag k="alt_name" v="Munketjørn" />
		<tag k="name" v="Munketjønn" />
		<tag k="natural" v="water" />
		<tag k="ssr:stedsnr" v="245044" />
	</node>
	<node lat="59.37523333309489" lon="9.353986118345793" id="-20377">
		<tag k="name" v="Dalsvatn" />
		<tag k="natural" v="water" />
		<tag k="ssr:stedsnr" v="245917" />
		<tag k="water" v="lake" />
	</node>
	<node lat="59.37574167078603" lon="8.901094445997284" id="-20392">
		<tag k="alt_name" v="Bjortjørn" />
		<tag k="name" v="Bjortjønn" />
		<tag k="natural" v="water" />
		<tag k="ssr:stedsnr" v="245323" />
	</node>
	<node lat="59.376433907098914" lon="9.039860253446754" id="-20393">
		<tag k="alt_name" v="Åsetjørna" />
		<tag k="name" v="Åsetjønna" />
		<tag k="natural" v="water" />
		<tag k="ssr:stedsnr" v="245330" />
	</node>
	<node lat="59.3986722217868" lon="8.87098889604791" id="-20394">
		<tag k="alt_name" v="Tjørnflyene" />
		<tag k="name" v="Tjønnflyane" />
		<tag k="natural" v="water" />
		<tag k="ssr:stedsnr" v="245338" />
	</node>
	<node lat="59.455577782229724" lon="9.176675005889363" id="-20405">
		<tag k="alt_name" v="Tveit-vatna" />
		<tag k="name" v="Tveitvatna" />
		<tag k="natural" v="water" />
		<tag k="ssr:stedsnr" v="245474" />
		<tag k="water" v="lake" />
	</node>
	<node lat="59.47537222022153" lon="8.91824443790722" id="-20412">
		<tag k="alt_name" v="Langetjørn" />
		<tag k="name" v="Langetjønn" />
		<tag k="natural" v="water" />
		<tag k="ssr:stedsnr" v="245584" />
	</node>
	<node lat="59.404105551868" lon="9.354116661106453" id="-20419">
		<tag k="alt_name" v="Lisletjørn" />
		<tag k="name" v="Lisletjønn" />
		<tag k="natural" v="water" />
		<tag k="ssr:stedsnr" v="245877" />
	</node>
	<node lat="59.39864166465249" lon="8.927969450861104" id="-20424">
		<tag k="name" v="Langemyrputtane" />
		<tag k="natural" v="water" />
		<tag k="ssr:stedsnr" v="89007" />
		<tag k="water" v="pond" />
	</node>
	<node lat="59.4331611084855" lon="9.243888883811596" id="-20429">
		<tag k="alt_name" v="Belleråstjørn" />
		<tag k="name" v="Bellerås-tjønn" />
		<tag k="natural" v="water" />
		<tag k="ssr:stedsnr" v="245947" />
	</node>
	<node lat="59.51173888993066" lon="9.056425003186948" id="-20436">
		<tag k="name" v="Kroktjønn" />
		<tag k="natural" v="water" />
		<tag k="ssr:stedsnr" v="246442" />
	</node>
	<node lat="59.52038889111898" lon="9.065766666609408" id="-20438">
		<tag k="alt_name" v="Trolltjørn" />
		<tag k="name" v="Trolltjønn" />
		<tag k="natural" v="water" />
		<tag k="ssr:stedsnr" v="246453" />
	</node>
	<node lat="59.37949167067649" lon="9.305294436920342" id="-20440">
		<tag k="name" v="Trengenbekken" />
		<tag k="ssr:stedsnr" v="103227" />
		<tag k="waterway" v="stream" />
	</node>
	<node lat="59.40566667107768" lon="9.296597222666435" id="-20446">
		<tag k="name" v="Nigardsevju" />
		<tag k="place" v="locality" />
		<tag k="ssr:stedsnr" v="104133" />
	</node>
	<node lat="59.44748333017038" lon="9.192208326147648" id="-20448">
		<tag k="name" v="Månetjønnene" />
		<tag k="natural" v="water" />
		<tag k="ssr:stedsnr" v="104329" />
	</node>
	<node lat="59.40466944364273" lon="9.232338896498737" id="-20449">
		<tag k="name" v="Lauvtjønnbekken" />
		<tag k="ssr:stedsnr" v="104502" />
		<tag k="waterway" v="stream" />
	</node>
	<node lat="59.44012499985395" lon="9.302297230191972" id="-20451">
		<tag k="name" v="Pilodden" />
		<tag k="natural" v="cape" />
		<tag k="ssr:stedsnr" v="104610" />
	</node>
	<node lat="59.34620833762736" lon="9.255972221956547" id="-20456">
		<tag k="name" v="Sikebukta" />
		<tag k="natural" v="bay" />
		<tag k="ssr:stedsnr" v="104902" />
	</node>
	<node lat="59.43643611458695" lon="9.33504999763393" id="-20458">
		<tag k="name" v="Nordagutu vassverk" />
		<tag k="ssr:stedsnr" v="104924" />
		<tag k="waterway" v="dam" />
	</node>
	<node lat="59.377505554209186" lon="9.238072224934857" id="-20459">
		<tag k="name" v="Bratsted-odden" />
		<tag k="natural" v="cape" />
		<tag k="ssr:stedsnr" v="105678" />
	</node>
	<node lat="59.470666666802494" lon="9.416491661568461" id="-20461">
		<tag k="name" v="Tonebekkfjorden" />
		<tag k="natural" v="water" />
		<tag k="ssr:stedsnr" v="123020" />
	</node>
	<node lat="59.37534444828345" lon="8.946052773265377" id="-20462">
		<tag k="alt_name" v="Kvernabekken" />
		<tag k="name" v="Kvennebekken" />
		<tag k="ssr:stedsnr" v="123315" />
		<tag k="waterway" v="stream" />
	</node>
	<node lat="59.43091666816261" lon="8.923799998406642" id="-20465">
		<tag k="alt_name" v="Karistultjørna" />
		<tag k="name" v="Karistultjønna" />
		<tag k="natural" v="water" />
		<tag k="ssr:stedsnr" v="123509" />
	</node>
	<node lat="59.39278333272254" lon="9.117888884028279" id="-20468">
		<tag k="alt_name" v="Damtjørn, l" />
		<tag k="name" v="Vesle Damtjønn" />
		<tag k="natural" v="water" />
		<tag k="ssr:stedsnr" v="123405" />
	</node>
	<node lat="59.495316664821885" lon="8.935291674730342" id="-20472">
		<tag k="alt_name" v="Rjupetjørn" />
		<tag k="name" v="Rjupetjønn" />
		<tag k="natural" v="water" />
		<tag k="ssr:stedsnr" v="123630" />
	</node>
	<node lat="59.44103333142454" lon="8.995183325832539" id="-20507">
		<tag k="name" v="Smærstulbekken" />
		<tag k="ssr:stedsnr" v="149869" />
		<tag k="waterway" v="stream" />
	</node>
	<node lat="59.41333611250929" lon="9.310169448076522" id="-20509">
		<tag k="name" v="Guvihaug" />
		<tag k="place" v="locality" />
		<tag k="ssr:stedsnr" v="164111" />
	</node>
	<node lat="59.38298055532651" lon="9.322244448641904" id="-20514">
		<tag k="name" v="Igletjønnbekken" />
		<tag k="ssr:stedsnr" v="164261" />
		<tag k="waterway" v="stream" />
	</node>
	<node lat="59.38338889252828" lon="9.33286666194516" id="-20515">
		<tag k="name" v="Stronka" />
		<tag k="natural" v="beach" />
		<tag k="ssr:stedsnr" v="164277" />
	</node>
	<node lat="59.395955556307925" lon="9.379055556541092" id="-20516">
		<tag k="name" v="Nedre Lauvrostjønn" />
		<tag k="natural" v="water" />
		<tag k="ssr:stedsnr" v="164424" />
	</node>
	<node lat="59.465863886153265" lon="9.303330557389307" id="-20517">
		<tag k="name" v="Gvannes-bukta" />
		<tag k="natural" v="bay" />
		<tag k="ssr:stedsnr" v="164604" />
	</node>
	<node lat="59.35308055352253" lon="9.287141662335682" id="-20524">
		<tag k="name" v="Nedre Pommertjønn" />
		<tag k="natural" v="water" />
		<tag k="ssr:stedsnr" v="165266" />
	</node>
	<node lat="59.411947224776384" lon="9.30203055181464" id="-20527">
		<tag k="name" v="Sauar-elva" />
		<tag k="ssr:stedsnr" v="165909" />
		<tag k="waterway" v="river" />
	</node>
	<node lat="59.355549999266245" lon="9.241347219326911" id="-20539">
		<tag k="name" v="Tjuveholmane" />
		<tag k="place" v="islet" />
		<tag k="ssr:stedsnr" v="184801" />
	</node>
	<node lat="59.44212777697727" lon="9.264119443590877" id="-20540">
		<tag k="alt_name" v="Svinetjørn" />
		<tag k="name" v="Svinetjønn" />
		<tag k="natural" v="water" />
		<tag k="ssr:stedsnr" v="184930" />
	</node>
	<node lat="59.35770555404387" lon="9.390355552033025" id="-20541">
		<tag k="alt_name" v="Sautjørnene" />
		<tag k="name" v="Sauetjønnene" />
		<tag k="natural" v="water" />
		<tag k="ssr:stedsnr" v="184808" />
	</node>
	<node lat="59.39871111535147" lon="8.848522228038172" id="-20543">
		<tag k="name" v="Trolldalstjønna" />
		<tag k="natural" v="water" />
		<tag k="ssr:stedsnr" v="267125" />
	</node>
	<node lat="59.434452781225296" lon="9.064613889985985" id="-20548">
		<tag k="name" v="Helle" />
		<tag k="ssr:stedsnr" v="268134" />
		<tag k="waterway" v="stream" />
	</node>
	<node lat="59.47283888914336" lon="9.099694446228302" id="-20550">
		<tag k="name" v="Storholet" />
		<tag k="place" v="locality" />
		<tag k="ssr:stedsnr" v="268462" />
	</node>
	<node lat="59.48933611454531" lon="9.106891670131688" id="-20554">
		<tag k="name" v="Lonefoss" />
		<tag k="natural" v="waterfall" />
		<tag k="ssr:stedsnr" v="268567" />
	</node>
	<node lat="59.391986107677916" lon="8.956816671277172" id="-20558">
		<tag k="name" v="Steinskotbekken" />
		<tag k="ssr:stedsnr" v="207047" />
		<tag k="waterway" v="stream" />
	</node>
	<node lat="59.37991944874122" lon="9.035941669912784" id="-20581">
		<tag k="name" v="Berteshøl" />
		<tag k="natural" v="water" />
		<tag k="ssr:stedsnr" v="269353" />
		<tag k="water" v="lake" />
	</node>
	<node lat="59.43039166985124" lon="8.928702781455785" id="-20589">
		<tag k="name" v="Gråndalsbekken" />
		<tag k="ssr:stedsnr" v="210828" />
		<tag k="waterway" v="stream" />
	</node>
	<node lat="59.442922219011805" lon="9.362677778172403" id="-20604">
		<tag k="name" v="Øgnegravs-åa" />
		<tag k="ssr:stedsnr" v="225704" />
		<tag k="waterway" v="river" />
	</node>
	<node lat="59.44100833326793" lon="9.235169445144116" id="-20605">
		<tag k="name" v="Svinsbekk" />
		<tag k="ssr:stedsnr" v="225488" />
		<tag k="waterway" v="stream" />
	</node>
	<node lat="59.40557777363046" lon="9.221149996470906" id="-20611">
		<tag k="name" v="Damtjønnbekken" />
		<tag k="ssr:stedsnr" v="226485" />
		<tag k="waterway" v="stream" />
	</node>
	<node lat="59.37995833713954" lon="9.238977779446946" id="-20616">
		<tag k="name" v="Holt-evju" />
		<tag k="natural" v="bay" />
		<tag k="ssr:stedsnr" v="226699" />
	</node>
	<node lat="59.39124999883205" lon="9.251472229511812" id="-20617">
		<tag k="name" v="Geir-evju" />
		<tag k="natural" v="bay" />
		<tag k="ssr:stedsnr" v="226703" />
	</node>
	<node lat="59.38474166498863" lon="9.233713885021055" id="-20618">
		<tag k="name" v="Megards-bekken" />
		<tag k="ssr:stedsnr" v="226711" />
		<tag k="waterway" v="stream" />
	</node>
	<node lat="59.496066666664646" lon="8.987724995277041" id="-20623">
		<tag k="name" v="Sautjønn" />
		<tag k="natural" v="water" />
		<tag k="ssr:stedsnr" v="449899" />
	</node>
	<node lat="59.430111115295375" lon="9.049816659887265" id="-20647">
		<tag k="name" v="Oterholtfossen" />
		<tag k="natural" v="waterfall" />
		<tag k="ssr:stedsnr" v="451591" />
	</node>
	<node lat="59.462652774061475" lon="9.223980563393338" id="-20654">
		<tag k="alt_name" v="Bråtatjørn" />
		<tag k="name" v="Bråtåtjønn" />
		<tag k="natural" v="water" />
		<tag k="ssr:stedsnr" v="245026" />
	</node>
	<node lat="59.46157221930618" lon="9.314949995366469" id="-20656">
		<tag k="alt_name" v="Nautesund" />
		<tag k="name" v="Nautsund" />
		<tag k="natural" v="strait" />
		<tag k="ssr:stedsnr" v="245029" />
	</node>
	<node lat="59.38987500250159" lon="9.05034999880384" id="-20657">
		<tag k="alt_name" v="Rosbekken" />
		<tag k="name" v="Roebekken" />
		<tag k="ssr:stedsnr" v="245303" />
		<tag k="waterway" v="stream" />
	</node>
	<node lat="59.362308332405675" lon="9.292644438507432" id="-20666">
		<tag k="alt_name" v="Bekartjørn" />
		<tag k="name" v="Bekartjønn" />
		<tag k="natural" v="water" />
		<tag k="ssr:stedsnr" v="245810" />
	</node>
	<node lat="59.40595000018458" lon="9.286108340599553" id="-20667">
		<tag k="name" v="Saua" />
		<tag k="ssr:stedsnr" v="245880" />
		<tag k="waterway" v="river" />
	</node>
	<node lat="59.4002749974344" lon="8.808105555197034" id="-20674">
		<tag k="alt_name" v="Gongetjørni" />
		<tag k="name" v="Gongevatn" />
		<tag k="natural" v="water" />
		<tag k="ssr:stedsnr" v="245976" />
		<tag k="water" v="lake" />
	</node>
	<node lat="59.45998333661674" lon="8.946294446996017" id="-20688">
		<tag k="name" v="Løken" />
		<tag k="ssr:stedsnr" v="453980" />
		<tag k="waterway" v="stream" />
	</node>
	<node lat="59.44063889250271" lon="8.959130557702455" id="-20690">
		<tag k="name" v="Skjentjønn" />
		<tag k="natural" v="water" />
		<tag k="ssr:stedsnr" v="453857" />
	</node>
	<node lat="59.371302779093185" lon="9.128538891365372" id="-20696">
		<tag k="name" v="Kringletjønn" />
		<tag k="natural" v="water" />
		<tag k="ssr:stedsnr" v="267889" />
	</node>
	<node lat="59.44483333446874" lon="9.074216661203307" id="-20711">
		<tag k="name" v="Harpetjønn" />
		<tag k="natural" v="water" />
		<tag k="ssr:stedsnr" v="269296" />
	</node>
	<node lat="59.43232777493117" lon="8.874002786175254" id="-20720">
		<tag k="name" v="Herrefosstangen" />
		<tag k="natural" v="cape" />
		<tag k="ssr:stedsnr" v="271893" />
	</node>
	<node lat="59.46224166889762" lon="9.293866671689328" id="-20723">
		<tag k="name" v="Klevaråa" />
		<tag k="ssr:stedsnr" v="286007" />
		<tag k="waterway" v="river" />
	</node>
	<node lat="59.46186944235818" lon="9.256219450128297" id="-20725">
		<tag k="name" v="Fossenn" />
		<tag k="natural" v="waterfall" />
		<tag k="ssr:stedsnr" v="286182" />
	</node>
	<node lat="59.47624722324589" lon="9.2218472164658" id="-20727">
		<tag k="name" v="Stulsbekken" />
		<tag k="ssr:stedsnr" v="286238" />
		<tag k="waterway" v="stream" />
	</node>
	<node lat="59.47390832893061" lon="9.451808330735965" id="-20730">
		<tag k="name" v="Olavsbekk" />
		<tag k="ssr:stedsnr" v="286502" />
		<tag k="waterway" v="stream" />
	</node>
	<node lat="59.41354722290101" lon="9.240855559877366" id="-20733">
		<tag k="name" v="Åstjønn" />
		<tag k="natural" v="water" />
		<tag k="ssr:stedsnr" v="286510" />
	</node>
	<node lat="59.47108889027903" lon="8.93349444500197" id="-20742">
		<tag k="name" v="Langetjønnbekken" />
		<tag k="ssr:stedsnr" v="271924" />
		<tag k="waterway" v="stream" />
	</node>
	<node lat="59.4829277733745" lon="9.103413897012523" id="-20752">
		<tag k="name" v="Lonåa" />
		<tag k="ssr:stedsnr" v="305663" />
		<tag k="waterway" v="river" />
	</node>
	<node lat="59.4114722220971" lon="8.969505559186342" id="-20763">
		<tag k="name" v="Bøelva" />
		<tag k="ssr:stedsnr" v="306419" />
		<tag k="waterway" v="river" />
	</node>
	<node lat="59.45729722486122" lon="9.20466111988567" id="-20764">
		<tag k="alt_name" v="Svartetjørn" />
		<tag k="name" v="Svarttjønn" />
		<tag k="natural" v="water" />
		<tag k="ssr:stedsnr" v="306457" />
	</node>
	<node lat="59.37338611457597" lon="9.12583333384854" id="-20766">
		<tag k="alt_name" v="Svarttjørn" />
		<tag k="name" v="Svarttjønn" />
		<tag k="natural" v="water" />
		<tag k="ssr:stedsnr" v="313681" />
	</node>
	<node lat="59.35338888950184" lon="9.185694443514649" id="-20776">
		<tag k="name" v="Gjernesbekken" />
		<tag k="ssr:stedsnr" v="468088" />
		<tag k="waterway" v="stream" />
	</node>
	<node lat="59.342644445409526" lon="9.218658330888562" id="-20779">
		<tag k="name" v="Nyhetsbukta" />
		<tag k="natural" v="strait" />
		<tag k="ssr:stedsnr" v="468051" />
	</node>
	<node lat="59.4445555591274" lon="9.315619445906389" id="-20781">
		<tag k="name" v="Deilodden" />
		<tag k="natural" v="cape" />
		<tag k="ssr:stedsnr" v="468055" />
	</node>
	<node lat="59.40696389005442" lon="9.295733331358283" id="-20783">
		<tag k="name" v="Hvål-striken" />
		<tag k="natural" v="shoal" />
		<tag k="place" v="locality" />
		<tag k="ssr:stedsnr" v="468137" />
	</node>
	<node lat="59.44882222631067" lon="9.244144436622697" id="-20787">
		<tag k="name" v="Gvanntjønn-løken" />
=======
<osm generator="osmapis" version="0.6">
	<node id="-446456" lat="59.3927833327" lon="9.11788888403">
		<tag k="alt_name" v="Damtjørn, l" />
		<tag k="name" v="Vesle Damtjønn" />
		<tag k="natural" v="water" />
		<tag k="ssr:stedsnr" v="123405" />
	</node>
	<node id="-447636" lat="59.3782416666" lon="8.98429999912">
		<tag k="name" v="Sauøya" />
		<tag k="place" v="islet" />
		<tag k="ssr:stedsnr" v="852333" />
	</node>
	<node id="-446452" lat="59.3482027795" lon="8.89143055931">
		<tag k="alt_name" v="Stroktjørn" />
		<tag k="name" v="Stroktjønn" />
		<tag k="natural" v="water" />
		<tag k="ssr:stedsnr" v="123278" />
	</node>
	<node id="-446451" lat="59.4706666668" lon="9.41649166157">
		<tag k="name" v="Tonebekkfjorden" />
		<tag k="natural" v="water" />
		<tag k="ssr:stedsnr" v="123020" />
	</node>
	<node id="-446446" lat="59.3775055542" lon="9.23807222493">
		<tag k="name" v="Bratsted-odden" />
		<tag k="natural" v="cape" />
		<tag k="ssr:stedsnr" v="105678" />
	</node>
	<node id="-445437" lat="59.4229333308" lon="9.03292223024">
		<tag k="name" v="Midtbøhølen" />
		<tag k="place" v="locality" />
		<tag k="ssr:stedsnr" v="692534" />
	</node>
	<node id="-446444" lat="59.4193111113" lon="9.2225972303">
		<tag k="name" v="Kålstulbekken" />
		<tag k="ssr:stedsnr" v="105632" />
		<tag k="waterway" v="stream" />
	</node>
	<node id="-446440" lat="59.4364361146" lon="9.33504999763">
		<tag k="name" v="Nordagutu vassverk" />
		<tag k="ssr:stedsnr" v="104924" />
		<tag k="waterway" v="dam" />
	</node>
	<node id="-446428" lat="59.4401249999" lon="9.30229723019">
		<tag k="name" v="Pilodden" />
		<tag k="natural" v="cape" />
		<tag k="ssr:stedsnr" v="104610" />
	</node>
	<node id="-446422" lat="59.4046694436" lon="9.2323388965">
		<tag k="name" v="Lauvtjønnbekken" />
		<tag k="ssr:stedsnr" v="104502" />
		<tag k="waterway" v="stream" />
	</node>
	<node id="-446420" lat="59.360658331" lon="9.36920000787">
		<tag k="name" v="Hellebardbekken" />
		<tag k="ssr:stedsnr" v="104461" />
		<tag k="waterway" v="stream" />
	</node>
	<node id="-446418" lat="59.4329555578" lon="9.18236666409">
		<tag k="name" v="Damtjønn dam" />
		<tag k="ssr:stedsnr" v="104445" />
		<tag k="waterway" v="dam" />
	</node>
	<node id="-446416" lat="59.4073888892" lon="9.35547778322">
		<tag k="name" v="Børtevassbekken" />
		<tag k="ssr:stedsnr" v="104331" />
		<tag k="waterway" v="stream" />
	</node>
	<node id="-446415" lat="59.4474833302" lon="9.19220832615">
		<tag k="name" v="Månetjønnene" />
		<tag k="natural" v="water" />
		<tag k="ssr:stedsnr" v="104329" />
	</node>
	<node id="-446403" lat="59.4056666711" lon="9.29659722267">
		<tag k="name" v="Nigardsevju" />
		<tag k="place" v="locality" />
		<tag k="ssr:stedsnr" v="104133" />
	</node>
	<node id="-446393" lat="59.4837722222" lon="8.91370278576">
		<tag k="name" v="Repetjønn" />
		<tag k="natural" v="water" />
		<tag k="ssr:stedsnr" v="89981" />
	</node>
	<node id="-444745" lat="59.3462083376" lon="9.25597222196">
		<tag k="name" v="Sikebukta" />
		<tag k="natural" v="bay" />
		<tag k="ssr:stedsnr" v="104902" />
	</node>
	<node id="-446385" lat="59.4358638897" lon="8.94616667291">
		<tag k="name" v="Blåtjønn" />
		<tag k="natural" v="water" />
		<tag k="ssr:stedsnr" v="89817" />
	</node>
	<node id="-446374" lat="59.3986416647" lon="8.92796945086">
		<tag k="name" v="Langemyrputtane" />
		<tag k="natural" v="water" />
		<tag k="ssr:stedsnr" v="89007" />
		<tag k="water" v="pond" />
	</node>
	<node id="-446362" lat="59.5102777809" lon="9.01275555515">
		<tag k="name" v="Flåbekk" />
		<tag k="ssr:stedsnr" v="87570" />
		<tag k="waterway" v="stream" />
	</node>
	<node id="-446360" lat="59.5242944411" lon="9.01149443881">
		<tag k="name" v="Løkjinfossen" />
		<tag k="natural" v="waterfall" />
		<tag k="ssr:stedsnr" v="87620" />
	</node>
	<node id="-446327" lat="59.5218111079" lon="9.0544833303">
		<tag k="name" v="Pina" />
		<tag k="natural" v="water" />
		<tag k="ssr:stedsnr" v="64466" />
	</node>
	<node id="-446324" lat="59.4986111105" lon="8.98186110959">
		<tag k="alt_name" v="Snotjørn" />
		<tag k="name" v="Snotjønn" />
		<tag k="natural" v="water" />
		<tag k="ssr:stedsnr" v="63595" />
	</node>
	<node id="-446312" lat="59.400341666" lon="8.88079166562">
		<tag k="alt_name" v="Svarttjørn" />
		<tag k="name" v="Svarttjønn" />
		<tag k="natural" v="water" />
		<tag k="ssr:stedsnr" v="63375" />
	</node>
	<node id="-446311" lat="59.3810027746" lon="9.11342222405">
		<tag k="alt_name" v="Holmtjørn" />
		<tag k="name" v="Holmtjønn" />
		<tag k="natural" v="water" />
		<tag k="ssr:stedsnr" v="63363" />
	</node>
	<node id="-446308" lat="59.3887416624" lon="9.10824999597">
		<tag k="alt_name" v="Åstjørn" />
		<tag k="name" v="Åstjønn" />
		<tag k="natural" v="water" />
		<tag k="ssr:stedsnr" v="63350" />
	</node>
	<node id="-446302" lat="59.4789138867" lon="9.26840833489">
		<tag k="alt_name" v="Ljostjørn" />
		<tag k="name" v="Ljostjønn" />
		<tag k="natural" v="water" />
		<tag k="ssr:stedsnr" v="63077" />
	</node>
	<node id="-446301" lat="59.4825888912" lon="9.28380556147">
		<tag k="alt_name" v="Svarttjørn" />
		<tag k="name" v="Svarttjønn" />
		<tag k="natural" v="water" />
		<tag k="ssr:stedsnr" v="63062" />
	</node>
	<node id="-446293" lat="59.4145416689" lon="9.20178333808">
		<tag k="name" v="Skreabekken" />
		<tag k="ssr:stedsnr" v="44626" />
		<tag k="waterway" v="stream" />
	</node>
	<node id="-446290" lat="59.384297225" lon="9.26283889352">
		<tag k="name" v="Haukvik-bukta" />
		<tag k="natural" v="bay" />
		<tag k="ssr:stedsnr" v="44590" />
	</node>
	<node id="-446289" lat="59.3841666683" lon="9.25947499906">
		<tag k="name" v="Kråkeholmen" />
		<tag k="natural" v="cape" />
		<tag k="ssr:stedsnr" v="44589" />
	</node>
	<node id="-446282" lat="59.3380305588" lon="9.22274443633">
		<tag k="name" v="Luguvika" />
		<tag k="natural" v="strait" />
		<tag k="ssr:stedsnr" v="44108" />
	</node>
	<node id="-444727" lat="59.3813722253" lon="8.99937499688">
		<tag k="name" v="Dagstjønn" />
		<tag k="natural" v="water" />
		<tag k="ssr:stedsnr" v="85055" />
	</node>
	<node id="-446279" lat="59.4917055577" lon="9.26037222512">
		<tag k="name" v="Hustjønnbekken" />
		<tag k="ssr:stedsnr" v="44067" />
		<tag k="waterway" v="stream" />
	</node>
	<node id="-446274" lat="59.3497472221" lon="9.25985833213">
		<tag k="name" v="Gorrhol-bukta" />
		<tag k="natural" v="bay" />
		<tag k="ssr:stedsnr" v="43918" />
	</node>
	<node id="-446261" lat="59.4750472264" lon="9.46066666789">
		<tag k="name" v="Surtetjønnbekken" />
		<tag k="old_name" v="Surfetjønnbekken" />
		<tag k="ssr:stedsnr" v="43478" />
		<tag k="waterway" v="stream" />
	</node>
	<node id="-446260" lat="59.4671499975" lon="9.45150833871">
		<tag k="name" v="Marta" />
		<tag k="place" v="islet" />
		<tag k="ssr:stedsnr" v="43477" />
	</node>
	<node id="-446259" lat="59.4046638904" lon="9.28554721664">
		<tag k="name" v="Hvåla-evju" />
		<tag k="natural" v="bay" />
		<tag k="ssr:stedsnr" v="43467" />
	</node>
	<node id="-446258" lat="59.4031388912" lon="9.28413610415">
		<tag k="name" v="Suigards-evju" />
		<tag k="natural" v="bay" />
		<tag k="ssr:stedsnr" v="43466" />
	</node>
	<node id="-446256" lat="59.4326138864" lon="9.181177779">
		<tag k="name" v="Kvitingen" />
		<tag k="natural" v="waterfall" />
		<tag k="ssr:stedsnr" v="43435" />
	</node>
	<node id="-446249" lat="59.4181055535" lon="9.16195556052">
		<tag k="name" v="Dyrudbekken" />
		<tag k="ssr:stedsnr" v="43244" />
		<tag k="waterway" v="stream" />
	</node>
	<node id="-446248" lat="59.4509000008" lon="9.32372777034">
		<tag k="name" v="Tveitåa" />
		<tag k="ssr:stedsnr" v="43234" />
		<tag k="waterway" v="river" />
	</node>
	<node id="-446247" lat="59.4697499959" lon="9.24110834155">
		<tag k="name" v="Munketjønn-bekken" />
		<tag k="ssr:stedsnr" v="43203" />
		<tag k="waterway" v="stream" />
	</node>
	<node id="-446245" lat="59.3646777777" lon="9.15498888976">
		<tag k="name" v="Sulukollbekken" />
		<tag k="ssr:stedsnr" v="43171" />
		<tag k="waterway" v="stream" />
	</node>
	<node id="-446243" lat="59.4817333308" lon="9.22480555637">
		<tag k="name" v="Svarttjønn-bekken" />
		<tag k="ssr:stedsnr" v="43151" />
		<tag k="waterway" v="stream" />
	</node>
	<node id="-446229" lat="59.4503277765" lon="8.98016110704">
		<tag k="name" v="Ostebekk" />
		<tag k="ssr:stedsnr" v="28074" />
		<tag k="waterway" v="stream" />
	</node>
	<node id="-446218" lat="59.5227500018" lon="9.13200000071">
		<tag k="name" v="Fossane" />
		<tag k="natural" v="waterfall" />
		<tag k="ssr:stedsnr" v="26739" />
	</node>
	<node id="-446212" lat="59.3755000003" lon="8.99949999593">
		<tag k="name" v="Finkefoss" />
		<tag k="natural" v="waterfall" />
		<tag k="ssr:stedsnr" v="26472" />
	</node>
	<node id="-446207" lat="59.4612583299" lon="9.11006943756">
		<tag k="name" v="Torilldåpå" />
		<tag k="natural" v="water" />
		<tag k="ssr:stedsnr" v="26299" />
		<tag k="water" v="lake" />
	</node>
	<node id="-444711" lat="59.3623083324" lon="9.29264443851">
		<tag k="alt_name" v="Bekartjørn" />
		<tag k="name" v="Bekartjønn" />
		<tag k="natural" v="water" />
		<tag k="ssr:stedsnr" v="245810" />
	</node>
	<node id="-446181" lat="59.5169166665" lon="9.12576111806">
		<tag k="name" v="Vatnarvatnet" />
		<tag k="natural" v="water" />
		<tag k="ssr:stedsnr" v="3427" />
		<tag k="water" v="lake" />
	</node>
	<node id="-446177" lat="59.4137805537" lon="9.35553333935">
		<tag k="name" v="Børtevatn" />
		<tag k="natural" v="water" />
		<tag k="ssr:stedsnr" v="2986" />
		<tag k="water" v="lake" />
	</node>
	<node id="-446174" lat="59.3558861084" lon="9.30854444979">
		<tag k="alt_name" v="Hestetjørn" />
		<tag k="name" v="Hestetjønn" />
		<tag k="natural" v="water" />
		<tag k="ssr:stedsnr" v="2829" />
	</node>
	<node id="-446165" lat="59.4952055532" lon="9.14698332465">
		<tag k="alt_name" v="Belatjørna" />
		<tag k="name" v="Belatjønn" />
		<tag k="natural" v="water" />
		<tag k="ssr:stedsnr" v="2591" />
	</node>
	<node id="-446161" lat="59.460980558" lon="9.05899444581">
		<tag k="name" v="Helle" />
		<tag k="ssr:stedsnr" v="2524" />
		<tag k="waterway" v="stream" />
	</node>
	<node id="-446154" lat="59.435227777" lon="8.88084722419">
		<tag k="alt_name" v="Kupatjørna" />
		<tag k="name" v="Kupatjønn" />
		<tag k="natural" v="water" />
		<tag k="ssr:stedsnr" v="2483" />
	</node>
	<node id="-446144" lat="59.4294555535" lon="9.17548055903">
		<tag k="name" v="Kisebekken" />
		<tag k="ssr:stedsnr" v="2428" />
		<tag k="waterway" v="stream" />
	</node>
	<node id="-446129" lat="59.3653833361" lon="9.00309444752">
		<tag k="alt_name" v="Hurrongstjørna" />
		<tag k="name" v="Hurrongstjønna" />
		<tag k="natural" v="water" />
		<tag k="ssr:stedsnr" v="2332" />
	</node>
	<node id="-446127" lat="59.4943111113" lon="9.3062333319">
		<tag k="name" v="Heddalsvatnet" />
		<tag k="natural" v="water" />
		<tag k="ssr:stedsnr" v="2063" />
		<tag k="water" v="lake" />
	</node>
	<node id="-446126" lat="59.4922722267" lon="9.25631111658">
		<tag k="alt_name" v="Hustjørn" />
		<tag k="name" v="Hustjønn" />
		<tag k="natural" v="water" />
		<tag k="ssr:stedsnr" v="2054" />
	</node>
	<node id="-445041" lat="59.4445555591" lon="9.31561944591">
		<tag k="name" v="Deilodden" />
		<tag k="natural" v="cape" />
		<tag k="ssr:stedsnr" v="468055" />
	</node>
	<node id="-445039" lat="59.3426444454" lon="9.21865833089">
		<tag k="name" v="Nyhetsbukta" />
		<tag k="natural" v="strait" />
		<tag k="ssr:stedsnr" v="468051" />
	</node>
	<node id="-446099" lat="59.464463889" lon="9.4317916693">
		<tag k="name" v="Krøkla" />
		<tag k="place" v="islet" />
		<tag k="ssr:stedsnr" v="953534" />
	</node>
	<node id="-446098" lat="59.4674527756" lon="9.43408888921">
		<tag k="name" v="Fløyte-odden" />
		<tag k="natural" v="cape" />
		<tag k="ssr:stedsnr" v="953532" />
	</node>
	<node id="-446095" lat="59.3957277744" lon="8.9230111034">
		<tag k="name" v="Bekkjestultjønna" />
		<tag k="natural" v="water" />
		<tag k="ssr:stedsnr" v="938012" />
		<tag k="water" v="pond" />
	</node>
	<node id="-446089" lat="59.4026388845" lon="8.96115000807">
		<tag k="name" v="Skoebekken" />
		<tag k="ssr:stedsnr" v="937010" />
		<tag k="waterway" v="stream" />
	</node>
	<node id="-446078" lat="59.4629361135" lon="9.11479443747">
		<tag k="name" v="Vermelibekken" />
		<tag k="ssr:stedsnr" v="913453" />
		<tag k="waterway" v="stream" />
	</node>
	<node id="-446077" lat="59.3618055599" lon="8.88139999401">
		<tag k="name" v="Bontåa" />
		<tag k="ssr:stedsnr" v="912309" />
		<tag k="waterway" v="stream" />
	</node>
	<node id="-446075" lat="59.354375984" lon="9.27614245096">
		<tag k="name" v="Dipletjønn" />
		<tag k="natural" v="water" />
		<tag k="ssr:stedsnr" v="893910" />
	</node>
	<node id="-446073" lat="59.4972722208" lon="9.29369166287">
		<tag k="name" v="Haukedalsbukta" />
		<tag k="natural" v="bay" />
		<tag k="ssr:stedsnr" v="893831" />
	</node>
	<node id="-446071" lat="59.3575222221" lon="9.26520833822">
		<tag k="name" v="Stangodd-bekken" />
		<tag k="ssr:stedsnr" v="893806" />
		<tag k="waterway" v="stream" />
	</node>
	<node id="-446062" lat="59.5301500024" lon="9.04456388586">
		<tag k="alt_name" v="Damtjørn" />
		<tag k="name" v="Damtjønn" />
		<tag k="natural" v="water" />
		<tag k="ssr:stedsnr" v="853104" />
	</node>
	<node id="-446059" lat="59.392963893" lon="9.38475556388">
		<tag k="name" v="Våtkleivvatn" />
		<tag k="natural" v="water" />
		<tag k="ssr:stedsnr" v="852923" />
		<tag k="water" v="lake" />
	</node>
	<node id="-446056" lat="59.3770750015" lon="9.3766749964">
		<tag k="alt_name" v="Mordatjørn" />
		<tag k="name" v="Mordatjønn" />
		<tag k="natural" v="water" />
		<tag k="ssr:stedsnr" v="852914" />
	</node>
	<node id="-446053" lat="59.3526426004" lon="9.28840614365">
		<tag k="name" v="Pommertjørnane" />
		<tag k="natural" v="water" />
		<tag k="ssr:stedsnr" v="852816" />
	</node>
	<node id="-446036" lat="59.4665555569" lon="8.90939722739">
		<tag k="name" v="Skartjønn" />
		<tag k="natural" v="water" />
		<tag k="ssr:stedsnr" v="938904" />
		<tag k="water" v="pond" />
	</node>
	<node id="-446021" lat="59.3871138857" lon="9.27387500541">
		<tag k="name" v="Kvernbekken" />
		<tag k="ssr:stedsnr" v="833597" />
		<tag k="waterway" v="stream" />
	</node>
	<node id="-446003" lat="59.412538886" lon="8.9099444388">
		<tag k="name" v="Graveevju" />
		<tag k="ssr:stedsnr" v="937143" />
		<tag k="waterway" v="stream" />
	</node>
	<node id="-445997" lat="59.5196805576" lon="9.11612222223">
		<tag k="name" v="Kvitevatn" />
		<tag k="natural" v="water" />
		<tag k="ssr:stedsnr" v="936730" />
	</node>
	<node id="-445992" lat="59.4313305555" lon="9.05228888632">
		<tag k="name" v="Kvennøya" />
		<tag k="place" v="island" />
		<tag k="ssr:stedsnr" v="936570" />
	</node>
	<node id="-445970" lat="59.4696777758" lon="8.96118333116">
		<tag k="name" v="Kvennhusfossen" />
		<tag k="natural" v="waterfall" />
		<tag k="ssr:stedsnr" v="817684" />
	</node>
	<node id="-445969" lat="59.3987555567" lon="8.9198027777">
		<tag k="name" v="Røyrtjønn" />
		<tag k="natural" v="water" />
		<tag k="ssr:stedsnr" v="817014" />
		<tag k="water" v="pond" />
	</node>
	<node id="-445357" lat="59.3993777736" lon="9.35339999741">
		<tag k="name" v="Landtjønn" />
		<tag k="natural" v="water" />
		<tag k="ssr:stedsnr" v="468312" />
	</node>
	<node id="-445356" lat="59.3981250009" lon="9.34584722586">
		<tag k="name" v="Rogholt-tjønn" />
		<tag k="natural" v="water" />
		<tag k="ssr:stedsnr" v="468311" />
	</node>
	<node id="-445957" lat="59.4639888902" lon="9.13843610303">
		<tag k="name" v="Kattetjønn" />
		<tag k="natural" v="water" />
		<tag k="ssr:stedsnr" v="814911" />
		<tag k="water" v="pond" />
	</node>
	<node id="-445955" lat="59.3958305567" lon="8.82975833755">
		<tag k="alt_name" v="Væltjørn" />
		<tag k="name" v="Veltjønn" />
		<tag k="natural" v="water" />
		<tag k="ssr:stedsnr" v="791755" />
	</node>
	<node id="-445954" lat="59.3470138899" lon="9.28293888863">
		<tag k="alt_name" v="Damtjørn" />
		<tag k="name" v="Damtjønn" />
		<tag k="natural" v="water" />
		<tag k="ssr:stedsnr" v="791853" />
	</node>
	<node id="-445936" lat="59.5355694438" lon="9.08410556012">
		<tag k="name" v="Reskjemvatnet" />
		<tag k="natural" v="water" />
		<tag k="ssr:stedsnr" v="791358" />
		<tag k="water" v="lake" />
	</node>
	<node id="-445930" lat="59.3971027802" lon="9.23218888484">
		<tag k="name" v="Lauvtjønn-bekken" />
		<tag k="ssr:stedsnr" v="772672" />
		<tag k="waterway" v="stream" />
	</node>
	<node id="-445928" lat="59.487111108" lon="9.2159000024">
		<tag k="name" v="Breidstul-fossen" />
		<tag k="natural" v="waterfall" />
		<tag k="ssr:stedsnr" v="772056" />
	</node>
	<node id="-445920" lat="59.4566666693" lon="9.35889443695">
		<tag k="name" v="Åbakk-åa" />
		<tag k="ssr:stedsnr" v="771750" />
		<tag k="waterway" v="stream" />
	</node>
	<node id="-445912" lat="59.3795027808" lon="9.12472777119">
		<tag k="name" v="Vesle Ljosvatn" />
		<tag k="natural" v="water" />
		<tag k="ssr:stedsnr" v="771259" />
	</node>
	<node id="-445907" lat="59.4758111072" lon="9.13995000239">
		<tag k="alt_name" v="Solbjørtjørna" />
		<tag k="loc_name" v="Solbjørgtjønna" />
		<tag k="name" v="Solbjørtjønna" />
		<tag k="natural" v="water" />
		<tag k="ssr:stedsnr" v="913569" />
	</node>
	<node id="-445904" lat="59.4698055589" lon="9.13462500549">
		<tag k="alt_name" v="Sautjørn" />
		<tag k="name" v="Sautjønn" />
		<tag k="natural" v="water" />
		<tag k="ssr:stedsnr" v="913449" />
	</node>
	<node id="-445898" lat="59.4243555519" lon="8.948961106">
		<tag k="alt_name" v="Damtjørn" />
		<tag k="name" v="Damtjønn" />
>>>>>>> e1d4bc35ff8a6074a6f2e91616a996b547c36f15
		<tag k="natural" v="water" />
		<tag k="ssr:stedsnr" v="913415" />
	</node>
<<<<<<< HEAD
	<node lat="59.48110277609217" lon="9.192108331816492" id="-20788">
		<tag k="name" v="Kalvetjønn-bekken" />
		<tag k="ssr:stedsnr" v="468157" />
		<tag k="waterway" v="stream" />
	</node>
	<node lat="59.35762222232844" lon="9.293574993970541" id="-20790">
		<tag k="name" v="Kalveaugo" />
		<tag k="natural" v="water" />
		<tag k="ssr:stedsnr" v="468279" />
		<tag k="water" v="pond" />
	</node>
	<node lat="59.4691083330683" lon="9.305483331788809" id="-20796">
		<tag k="name" v="Store Kråka" />
		<tag k="place" v="islet" />
		<tag k="ssr:stedsnr" v="468497" />
	</node>
	<node lat="59.47070000163732" lon="9.447649993964065" id="-20798">
		<tag k="name" v="Holmen" />
		<tag k="place" v="islet" />
		<tag k="ssr:stedsnr" v="468451" />
	</node>
	<node lat="59.38975555248654" lon="9.258666668333378" id="-20800">
		<tag k="name" v="Akkerhaugs-bukta" />
		<tag k="natural" v="bay" />
		<tag k="ssr:stedsnr" v="468554" />
	</node>
	<node lat="59.38482777940178" lon="8.976016660191277" id="-20809">
		<tag k="name" v="Rakkeholtjønnane" />
		<tag k="natural" v="water" />
		<tag k="ssr:stedsnr" v="327073" />
		<tag k="water" v="pond" />
	</node>
	<node lat="59.402688885160366" lon="8.878349994225017" id="-20827">
		<tag k="name" v="Vesle Svarttjønn" />
		<tag k="natural" v="water" />
		<tag k="ssr:stedsnr" v="330205" />
	</node>
	<node lat="59.47554722091674" lon="8.97748333483305" id="-20840">
		<tag k="name" v="Okslaåa" />
		<tag k="ssr:stedsnr" v="331654" />
		<tag k="waterway" v="river" />
	</node>
	<node lat="59.466630554079515" lon="9.433588882593957" id="-20846">
		<tag k="name" v="Vassausa" />
		<tag k="place" v="islet" />
		<tag k="ssr:stedsnr" v="346509" />
	</node>
	<node lat="59.459766668568314" lon="9.294877773660271" id="-20857">
		<tag k="name" v="Børs-bekken" />
		<tag k="ssr:stedsnr" v="347004" />
		<tag k="waterway" v="stream" />
	</node>
	<node lat="59.329983330960935" lon="9.19363055383931" id="-20861">
		<tag k="name" v="Storlibekken" />
		<tag k="ssr:stedsnr" v="347120" />
		<tag k="waterway" v="stream" />
	</node>
	<node lat="59.38149444420529" lon="9.186972230984177" id="-20872">
		<tag k="alt_name" v="Gvarv-elva" />
		<tag k="name" v="Gvarvelva" />
		<tag k="ssr:stedsnr" v="366324" />
		<tag k="waterway" v="river" />
	</node>
	<node lat="59.36638610695287" lon="8.943330558567917" id="-20876">
		<tag k="alt_name" v="Svarttjørn" />
		<tag k="name" v="Svarttjønn" />
		<tag k="natural" v="water" />
		<tag k="ssr:stedsnr" v="366284" />
	</node>
	<node lat="59.37743888461857" lon="8.981974997600945" id="-20877">
		<tag k="alt_name" v="Uvdalstjørna" />
		<tag k="name" v="Uvdalstjønna" />
		<tag k="natural" v="water" />
		<tag k="ssr:stedsnr" v="366288" />
	</node>
	<node lat="59.48610555655864" lon="8.946655554429627" id="-20884">
		<tag k="alt_name" v="Kloppesteintjørna" />
		<tag k="name" v="Kloppesteintjønn" />
		<tag k="natural" v="water" />
		<tag k="ssr:stedsnr" v="366579" />
	</node>
	<node lat="59.49296111392073" lon="8.981438880768165" id="-20886">
		<tag k="alt_name" v="Sleivtjørn" />
		<tag k="name" v="Sleivtjønn" />
		<tag k="natural" v="water" />
		<tag k="ssr:stedsnr" v="366596" />
	</node>
	<node lat="59.41347499894026" lon="9.241174998372577" id="-20893">
		<tag k="name" v="Åstjørn" />
		<tag k="natural" v="water" />
		<tag k="ssr:stedsnr" v="366988" />
	</node>
	<node lat="59.42983055238509" lon="9.119444446238049" id="-20903">
		<tag k="name" v="Tunnebekk" />
		<tag k="ssr:stedsnr" v="389297" />
		<tag k="waterway" v="stream" />
	</node>
	<node lat="59.41038333578583" lon="9.107350005244708" id="-20904">
		<tag k="name" v="Åsgravhølen" />
		<tag k="place" v="locality" />
		<tag k="ssr:stedsnr" v="389702" />
	</node>
	<node lat="59.41211111338915" lon="8.874680559382021" id="-20909">
		<tag k="name" v="Gautilbekken" />
		<tag k="ssr:stedsnr" v="390150" />
		<tag k="waterway" v="stream" />
	</node>
	<node lat="59.5158694468968" lon="9.018177771130645" id="-20918">
		<tag k="name" v="Veslefossen" />
		<tag k="natural" v="waterfall" />
		<tag k="ssr:stedsnr" v="390543" />
	</node>
	<node lat="59.507958337794186" lon="9.031891664387457" id="-20919">
		<tag k="name" v="Slåttahølen" />
		<tag k="natural" v="water" />
		<tag k="ssr:stedsnr" v="390545" />
		<tag k="water" v="lake" />
	</node>
	<node lat="59.48359166775406" lon="9.059561105209756" id="-20924">
		<tag k="name" v="Veslehol" />
		<tag k="ssr:stedsnr" v="392444" />
		<tag k="waterway" v="rapids" />
	</node>
	<node lat="59.431516670899015" lon="8.916458339460554" id="-20927">
		<tag k="name" v="Karistulbekken" />
		<tag k="ssr:stedsnr" v="392843" />
		<tag k="waterway" v="stream" />
	</node>
	<node lat="59.4458805571456" lon="9.21464722502665" id="-20936">
		<tag k="name" v="Heståsbekken" />
		<tag k="ssr:stedsnr" v="407348" />
		<tag k="waterway" v="stream" />
	</node>
	<node lat="59.342108334937905" lon="9.178030556678387" id="-20947">
		<tag k="name" v="Vesletjønn" />
		<tag k="natural" v="water" />
		<tag k="ssr:stedsnr" v="408044" />
	</node>
	<node lat="59.46591666338385" lon="9.341413892153486" id="-20949">
		<tag k="name" v="Røyrmyrbekken" />
		<tag k="ssr:stedsnr" v="407992" />
		<tag k="waterway" v="stream" />
	</node>
	<node lat="59.38635278095607" lon="9.262786113088762" id="-20953">
		<tag k="name" v="Holme-bukta" />
		<tag k="natural" v="bay" />
		<tag k="ssr:stedsnr" v="408602" />
	</node>
	<node lat="59.48575555862552" lon="9.19753055761257" id="-20965">
		<tag k="alt_name" v="Mjågetjern" />
		<tag k="name" v="Mjågetjønn" />
		<tag k="natural" v="water" />
		<tag k="ssr:stedsnr" v="487662" />
	</node>
	<node lat="59.49104166880856" lon="9.124561116072162" id="-20966">
		<tag k="alt_name" v="Smærtjørn" />
		<tag k="name" v="Smærtjønn" />
		<tag k="natural" v="water" />
		<tag k="ssr:stedsnr" v="487666" />
	</node>
	<node lat="59.367772221212924" lon="9.376886116614443" id="-20968">
		<tag k="name" v="Belatjønn" />
		<tag k="natural" v="water" />
		<tag k="ssr:stedsnr" v="487833" />
	</node>
	<node lat="59.4629499989435" lon="9.428441660401852" id="-20978">
		<tag k="name" v="Eiangen" />
		<tag k="natural" v="water" />
		<tag k="ssr:stedsnr" v="427024" />
		<tag k="water" v="lake" />
	</node>
	<node lat="59.46463055110553" lon="9.146602771906348" id="-20985">
		<tag k="alt_name" v="Sigertjørn" />
		<tag k="name" v="Sigerstjønn" />
		<tag k="natural" v="water" />
		<tag k="ssr:stedsnr" v="427502" />
	</node>
	<node lat="59.46405425643767" lon="9.179598682030967" id="-20986">
		<tag k="alt_name" v="Rennetjørn" />
		<tag k="name" v="Øvre Rennetjønn" />
		<tag k="natural" v="water" />
		<tag k="ssr:stedsnr" v="427504" />
	</node>
	<node lat="59.43464999682697" lon="9.185719441484068" id="-20989">
		<tag k="alt_name" v="Dyrud Damtjørn" />
		<tag k="name" v="Dyrud Damtjønn" />
		<tag k="natural" v="water" />
		<tag k="ssr:stedsnr" v="427427" />
	</node>
	<node lat="59.43935833736045" lon="9.176677770476331" id="-20990">
=======
	<node id="-445895" lat="59.4116305516" lon="9.12646666516">
		<tag k="name" v="Griviøya" />
		<tag k="place" v="island" />
		<tag k="ssr:stedsnr" v="913387" />
	</node>
	<node id="-445881" lat="59.3554111146" lon="9.25532500091">
		<tag k="name" v="Stangodden" />
		<tag k="natural" v="cape" />
		<tag k="ssr:stedsnr" v="912849" />
	</node>
	<node id="-445878" lat="59.4722555548" lon="9.08461666498">
		<tag k="name" v="Åseåa" />
		<tag k="ssr:stedsnr" v="912638" />
		<tag k="waterway" v="river" />
	</node>
	<node id="-445877" lat="59.4872111149" lon="9.13400832621">
		<tag k="alt_name" v="Lauvtjørn" />
		<tag k="name" v="Lauvtjønn" />
		<tag k="natural" v="water" />
		<tag k="ssr:stedsnr" v="912635" />
	</node>
	<node id="-445876" lat="59.4971583315" lon="8.99213889506">
		<tag k="name" v="Skåråfjellholmen" />
		<tag k="natural" v="water" />
		<tag k="ssr:stedsnr" v="912616" />
	</node>
	<node id="-445869" lat="59.4392416688" lon="8.94758055271">
		<tag k="alt_name" v="Tjørnstultjørna" />
		<tag k="name" v="Tjønnstultjønna" />
		<tag k="natural" v="water" />
		<tag k="ssr:stedsnr" v="912458" />
	</node>
	<node id="-445863" lat="59.3840166664" lon="8.87919445199">
		<tag k="alt_name" v="Ramsåstjørna" />
		<tag k="name" v="Ramsåstjønna" />
		<tag k="natural" v="water" />
		<tag k="ssr:stedsnr" v="912381" />
	</node>
	<node id="-445856" lat="59.5143444485" lon="9.02208611609">
		<tag k="alt_name" v="Vesleåa" />
		<tag k="name" v="Vesleå" />
		<tag k="ssr:stedsnr" v="731441" />
		<tag k="waterway" v="stream" />
	</node>
	<node id="-445850" lat="59.3622948271" lon="9.28533570449">
		<tag k="alt_name" v="Høljerstjørn" />
		<tag k="name" v="Høljerstjønn" />
		<tag k="natural" v="water" />
		<tag k="ssr:stedsnr" v="730848" />
	</node>
	<node id="-445840" lat="59.4191888876" lon="9.18176111873">
		<tag k="name" v="Dyrudbekken" />
		<tag k="ssr:stedsnr" v="711623" />
		<tag k="waterway" v="stream" />
	</node>
	<node id="-445835" lat="59.4763111089" lon="9.37531944066">
		<tag k="name" v="Kikja-fossen" />
		<tag k="natural" v="waterfall" />
		<tag k="ssr:stedsnr" v="711575" />
	</node>
	<node id="-445834" lat="59.4783444404" lon="9.38289721963">
		<tag k="name" v="Damtjønnbekken" />
		<tag k="ssr:stedsnr" v="711573" />
		<tag k="waterway" v="stream" />
	</node>
	<node id="-445829" lat="59.484352775" lon="9.20063889171">
		<tag k="name" v="Mjågetjønn-dammen" />
		<tag k="ssr:stedsnr" v="711177" />
		<tag k="waterway" v="dam" />
	</node>
	<node id="-445827" lat="59.4763416622" lon="9.18516666817">
		<tag k="name" v="Kalvetjønn" />
		<tag k="natural" v="water" />
		<tag k="ssr:stedsnr" v="711170" />
	</node>
	<node id="-445820" lat="59.4955166628" lon="9.29168610437">
		<tag k="name" v="Søndre Haukedalsbekken" />
		<tag k="ssr:stedsnr" v="710811" />
		<tag k="waterway" v="stream" />
	</node>
	<node id="-445819" lat="59.4641805586" lon="9.31060555376">
		<tag k="name" v="Helsodden" />
		<tag k="natural" v="cape" />
		<tag k="ssr:stedsnr" v="894000" />
	</node>
	<node id="-445816" lat="59.4541916704" lon="9.34993610518">
		<tag k="name" v="Holts-åa" />
		<tag k="ssr:stedsnr" v="893717" />
		<tag k="waterway" v="river" />
	</node>
	<node id="-445813" lat="59.4343555568" lon="9.37721666634">
		<tag k="name" v="Dugurdsfjellbekken" />
		<tag k="ssr:stedsnr" v="893664" />
		<tag k="waterway" v="stream" />
	</node>
	<node id="-445809" lat="59.3800222223" lon="9.27110277604">
		<tag k="name" v="Gjuvs-bekken" />
		<tag k="ssr:stedsnr" v="893576" />
		<tag k="waterway" v="stream" />
	</node>
	<node id="-445805" lat="59.4673083361" lon="9.29461943936">
		<tag k="name" v="Roebekken" />
		<tag k="ssr:stedsnr" v="893526" />
		<tag k="waterway" v="stream" />
	</node>
	<node id="-445803" lat="59.4705555559" lon="9.44565278306">
		<tag k="name" v="Såta" />
		<tag k="place" v="islet" />
		<tag k="ssr:stedsnr" v="893511" />
	</node>
	<node id="-445802" lat="59.4737472188" lon="9.44287500632">
		<tag k="name" v="Stulsbekken" />
		<tag k="ssr:stedsnr" v="893508" />
		<tag k="waterway" v="stream" />
	</node>
	<node id="-445801" lat="59.4742222244" lon="9.43743889031">
		<tag k="name" v="Gvålsbekk" />
		<tag k="ssr:stedsnr" v="893506" />
		<tag k="waterway" v="stream" />
	</node>
	<node id="-445795" lat="59.3517833343" lon="9.29320833071">
		<tag k="name" v="Øvre Pommertjønn" />
		<tag k="natural" v="water" />
		<tag k="ssr:stedsnr" v="893280" />
	</node>
	<node id="-445787" lat="59.3822722178" lon="9.14597221588">
		<tag k="name" v="Sagbekken" />
		<tag k="ssr:stedsnr" v="893243" />
		<tag k="waterway" v="stream" />
	</node>
	<node id="-445784" lat="59.4777722183" lon="9.25265555082">
		<tag k="name" v="Bjønnetjønn" />
		<tag k="natural" v="water" />
		<tag k="ssr:stedsnr" v="893211" />
		<tag k="water" v="pond" />
	</node>
	<node id="-445781" lat="59.4843472216" lon="9.27347500401">
		<tag k="name" v="Damtjønn-putten" />
		<tag k="natural" v="water" />
		<tag k="ssr:stedsnr" v="893205" />
		<tag k="water" v="pond" />
	</node>
	<node id="-445779" lat="59.3627944451" lon="9.14079166821">
		<tag k="name" v="Røydalstjønn" />
		<tag k="natural" v="water" />
		<tag k="ssr:stedsnr" v="893196" />
	</node>
	<node id="-447713" lat="59.4012361144" lon="9.21926389234">
		<tag k="name" v="Holtanbekken" />
		<tag k="ssr:stedsnr" v="954443" />
		<tag k="waterway" v="stream" />
	</node>
	<node id="-445761" lat="59.3818972208" lon="9.29497777408">
		<tag k="name" v="Kvern-bekken" />
		<tag k="ssr:stedsnr" v="892229" />
		<tag k="waterway" v="stream" />
	</node>
	<node id="-445760" lat="59.3829388866" lon="8.92624166194">
		<tag k="name" v="Steinulvsholbekken" />
		<tag k="ssr:stedsnr" v="696019" />
		<tag k="waterway" v="stream" />
	</node>
	<node id="-445751" lat="59.5271777801" lon="9.01123055256">
		<tag k="name" v="Løkjintjønna" />
		<tag k="natural" v="water" />
		<tag k="ssr:stedsnr" v="694623" />
	</node>
	<node id="-445744" lat="59.4733527762" lon="9.16563611811">
		<tag k="name" v="Svarttjønn" />
		<tag k="natural" v="water" />
		<tag k="ssr:stedsnr" v="693910" />
	</node>
	<node id="-444636" lat="59.4154916689" lon="9.04931943769">
		<tag k="name" v="Presteevju" />
		<tag k="ssr:stedsnr" v="25244" />
		<tag k="waterway" v="stream" />
	</node>
	<node id="-445731" lat="59.3578249963" lon="9.31528611563">
		<tag k="name" v="Svarttjørn" />
		<tag k="natural" v="water" />
		<tag k="ssr:stedsnr" v="677677" />
	</node>
	<node id="-445725" lat="59.4327111141" lon="8.86970834106">
		<tag k="name" v="Oregrunnen" />
		<tag k="natural" v="shoal" />
		<tag k="place" v="locality" />
		<tag k="ssr:stedsnr" v="878880" />
	</node>
	<node id="-445721" lat="59.4268166641" lon="8.87883889484">
		<tag k="name" v="Herrefoss" />
		<tag k="natural" v="waterfall" />
		<tag k="ssr:stedsnr" v="878852" />
	</node>
	<node id="-445720" lat="59.4229694413" lon="8.98221110303">
		<tag k="name" v="Fiskebekk" />
		<tag k="ssr:stedsnr" v="878843" />
		<tag k="waterway" v="stream" />
	</node>
	<node id="-444974" lat="59.4599833366" lon="8.946294447">
>>>>>>> e1d4bc35ff8a6074a6f2e91616a996b547c36f15
		<tag k="name" v="Løken" />
		<tag k="ssr:stedsnr" v="453980" />
		<tag k="waterway" v="stream" />
	</node>
<<<<<<< HEAD
	<node lat="59.35424166892265" lon="9.159563894312882" id="-21002">
		<tag k="name" v="Løkedalsbekken" />
		<tag k="ssr:stedsnr" v="494644" />
		<tag k="waterway" v="stream" />
	</node>
	<node lat="59.448841664174346" lon="9.397686107499606" id="-21004">
		<tag k="alt_name" v="Svarttjørn" />
		<tag k="name" v="Svarttjønn" />
		<tag k="natural" v="water" />
		<tag k="ssr:stedsnr" v="670951" />
	</node>
	<node lat="59.43407500446757" lon="9.047161114390313" id="-21011">
		<tag k="name" v="Tiubekk" />
		<tag k="ssr:stedsnr" v="450571" />
		<tag k="waterway" v="stream" />
	</node>
	<node lat="59.48626666360314" lon="9.228888881558854" id="-21041">
		<tag k="name" v="Hem-Svarttjønn" />
		<tag k="natural" v="water" />
		<tag k="ssr:stedsnr" v="468071" />
	</node>
	<node lat="59.40522499802817" lon="9.297994443498363" id="-21045">
		<tag k="name" v="Nigardsbekken" />
		<tag k="ssr:stedsnr" v="468131" />
		<tag k="waterway" v="stream" />
	</node>
	<node lat="59.48134166961001" lon="9.208436104561592" id="-21047">
		<tag k="name" v="Mjågetjønnåa" />
		<tag k="ssr:stedsnr" v="468167" />
		<tag k="waterway" v="river" />
	</node>
	<node lat="59.39812500092217" lon="9.345847225863691" id="-21049">
		<tag k="name" v="Rogholt-tjønn" />
		<tag k="natural" v="water" />
		<tag k="ssr:stedsnr" v="468311" />
	</node>
	<node lat="59.39937777361265" lon="9.353399997405416" id="-21050">
		<tag k="name" v="Landtjønn" />
		<tag k="natural" v="water" />
		<tag k="ssr:stedsnr" v="468312" />
	</node>
	<node lat="59.40631666258501" lon="9.343858332184409" id="-21051">
		<tag k="name" v="Løkjin" />
		<tag k="natural" v="water" />
		<tag k="ssr:stedsnr" v="468314" />
		<tag k="water" v="lake" />
	</node>
	<node lat="59.4561749985233" lon="9.181588880456731" id="-21053">
		<tag k="name" v="Vesle Gullnåstjønn" />
		<tag k="natural" v="water" />
		<tag k="ssr:stedsnr" v="468318" />
	</node>
	<node lat="59.49669166605312" lon="9.295619443326585" id="-21066">
		<tag k="name" v="Tjoneodden" />
		<tag k="natural" v="cape" />
		<tag k="ssr:stedsnr" v="468821" />
	</node>
	<node lat="59.34788889036018" lon="9.251263887754467" id="-21079">
		<tag k="name" v="Ottersnesodden" />
		<tag k="natural" v="cape" />
		<tag k="ssr:stedsnr" v="487848" />
	</node>
	<node lat="59.341772218486916" lon="9.273313887882548" id="-21080">
		<tag k="name" v="Strævbekken" />
		<tag k="ssr:stedsnr" v="487861" />
		<tag k="waterway" v="stream" />
	</node>
	<node lat="59.37935833017206" lon="8.915416662470511" id="-21088">
		<tag k="alt_name" v="Tveittjørn" />
		<tag k="name" v="Tveittjønna" />
		<tag k="natural" v="water" />
		<tag k="ssr:stedsnr" v="488305" />
	</node>
	<node lat="59.43356389206686" lon="9.237830558868556" id="-21091">
		<tag k="name" v="Klevaråa" />
		<tag k="ssr:stedsnr" v="488943" />
		<tag k="waterway" v="stream" />
	</node>
	<node lat="59.376663885763186" lon="8.992308335505673" id="-21096">
		<tag k="name" v="Uvdalsdammen" />
		<tag k="ssr:stedsnr" v="511448" />
		<tag k="waterway" v="dam" />
	</node>
	<node lat="59.45205277406484" lon="9.087747218731044" id="-21102">
		<tag k="name" v="Trytetjønn" />
		<tag k="natural" v="water" />
		<tag k="ssr:stedsnr" v="512267" />
	</node>
	<node lat="59.40193888993237" lon="9.036344440351424" id="-21104">
		<tag k="name" v="Brukarmyra" />
		<tag k="place" v="locality" />
		<tag k="ssr:stedsnr" v="512277" />
	</node>
	<node lat="59.49226667059499" lon="9.296683327121361" id="-21110">
		<tag k="name" v="Kåsa-stranda" />
		<tag k="natural" v="beach" />
		<tag k="ssr:stedsnr" v="528095" />
	</node>
	<node lat="59.45013889096668" lon="9.236488885237808" id="-21111">
		<tag k="name" v="Hyttedalsbekken" />
		<tag k="ssr:stedsnr" v="528207" />
		<tag k="waterway" v="stream" />
	</node>
	<node lat="59.467872217888704" lon="9.415086119049207" id="-21113">
		<tag k="name" v="Vassbotn" />
		<tag k="natural" v="strait" />
		<tag k="ssr:stedsnr" v="528514" />
	</node>
	<node lat="59.40409444653048" lon="9.275919438144753" id="-21114">
		<tag k="name" v="Tangenbekken" />
		<tag k="ssr:stedsnr" v="528516" />
		<tag k="waterway" v="stream" />
	</node>
	<node lat="59.438699998728495" lon="9.398230557592166" id="-21120">
		<tag k="name" v="Damtjønnputten" />
		<tag k="natural" v="water" />
		<tag k="ssr:stedsnr" v="528681" />
		<tag k="water" v="pond" />
	</node>
	<node lat="59.48220277952209" lon="9.305888883777568" id="-21123">
		<tag k="name" v="Kast-bukta" />
		<tag k="natural" v="bay" />
		<tag k="ssr:stedsnr" v="528586" />
	</node>
	<node lat="59.47025277643418" lon="9.303750005443675" id="-21130">
		<tag k="name" v="Undelåns-bukta" />
		<tag k="natural" v="bay" />
		<tag k="ssr:stedsnr" v="528985" />
	</node>
	<node lat="59.47173611164987" lon="9.312222216804313" id="-21131">
		<tag k="name" v="Kongshemfjorden" />
		<tag k="natural" v="water" />
		<tag k="ssr:stedsnr" v="528987" />
		<tag k="water" v="lake" />
	</node>
	<node lat="59.45948333198899" lon="9.39003332461725" id="-21147">
		<tag k="alt_name" v="Holtstjørn" />
		<tag k="name" v="Holtstjønn" />
		<tag k="natural" v="water" />
		<tag k="ssr:stedsnr" v="548007" />
	</node>
	<node lat="59.45227500376104" lon="9.093180563998546" id="-21154">
		<tag k="alt_name" v="Trytetjørnane" />
		<tag k="name" v="Trytetjønn" />
		<tag k="natural" v="water" />
		<tag k="ssr:stedsnr" v="548461" />
	</node>
	<node lat="59.447252775894256" lon="9.07151666640065" id="-21155">
		<tag k="alt_name" v="Steintjørn" />
		<tag k="name" v="Steintjønn" />
		<tag k="natural" v="water" />
		<tag k="ssr:stedsnr" v="548462" />
	</node>
	<node lat="59.36176110959152" lon="8.966788893666827" id="-21157">
		<tag k="alt_name" v="Fagerlitjørna" />
		<tag k="name" v="Fagerlitjønna" />
		<tag k="natural" v="water" />
		<tag k="ssr:stedsnr" v="548324" />
	</node>
	<node lat="59.37468610911921" lon="8.937844447220064" id="-21158">
		<tag k="name" v="Tveitåa" />
		<tag k="ssr:stedsnr" v="548361" />
		<tag k="waterway" v="river" />
	</node>
	<node lat="59.43918055108744" lon="9.350583337692084" id="-21161">
		<tag k="name" v="Dugurdsfjellbekken" />
		<tag k="ssr:stedsnr" v="548953" />
		<tag k="waterway" v="stream" />
	</node>
	<node lat="59.42293333077251" lon="9.032922230239134" id="-21163">
		<tag k="name" v="Midtbøhølen" />
		<tag k="place" v="locality" />
		<tag k="ssr:stedsnr" v="692534" />
	</node>
	<node lat="59.42364444466377" lon="9.030858333169725" id="-21164">
		<tag k="name" v="Haugfoss" />
		<tag k="natural" v="waterfall" />
		<tag k="ssr:stedsnr" v="692535" />
	</node>
	<node lat="59.411897223994025" lon="8.978652771638941" id="-21182">
		<tag k="name" v="Skogtjønn" />
		<tag k="natural" v="water" />
		<tag k="ssr:stedsnr" v="571052" />
	</node>
	<node lat="59.42464999614431" lon="9.025113883864162" id="-21188">
		<tag k="name" v="Sagafossen" />
		<tag k="natural" v="waterfall" />
		<tag k="ssr:stedsnr" v="571525" />
	</node>
	<node lat="59.46852499896586" lon="8.990130559756174" id="-21232">
		<tag k="name" v="Grostulbekken" />
		<tag k="ssr:stedsnr" v="696692" />
		<tag k="waterway" v="stream" />
	</node>
	<node lat="59.45225277932892" lon="9.298549998280674" id="-21234">
		<tag k="name" v="Daudmanns-bekken" />
		<tag k="ssr:stedsnr" v="589003" />
		<tag k="waterway" v="stream" />
	</node>
	<node lat="59.35880278227347" lon="9.146452778504148" id="-21239">
		<tag k="name" v="Røydalsbekken" />
		<tag k="old_name" v="Roydalsbekken" />
		<tag k="ssr:stedsnr" v="589211" />
		<tag k="waterway" v="stream" />
	</node>
	<node lat="59.45839722531551" lon="9.278597228871902" id="-21241">
		<tag k="name" v="Bjørndalsbekken" />
		<tag k="ssr:stedsnr" v="589163" />
		<tag k="waterway" v="stream" />
	</node>
	<node lat="59.35846944660163" lon="9.302141671928322" id="-21242">
		<tag k="name" v="Ulevassbekken" />
		<tag k="ssr:stedsnr" v="589319" />
		<tag k="waterway" v="stream" />
	</node>
	<node lat="59.46693888938123" lon="9.419644442536452" id="-21244">
		<tag k="name" v="Vassbotten-holmene" />
		<tag k="place" v="islet" />
		<tag k="ssr:stedsnr" v="589462" />
	</node>
	<node lat="59.439558332154725" lon="8.999527772013138" id="-21250">
		<tag k="name" v="Slåttabekken" />
		<tag k="ssr:stedsnr" v="696845" />
		<tag k="waterway" v="stream" />
	</node>
	<node lat="59.43918611350455" lon="9.35065555866618" id="-21251">
		<tag k="name" v="Gvåla-åa" />
		<tag k="ssr:stedsnr" v="589655" />
		<tag k="waterway" v="river" />
	</node>
	<node lat="59.35579444247502" lon="9.241375001542321" id="-21257">
		<tag k="name" v="Vesle Tjodholmen" />
		<tag k="place" v="islet" />
		<tag k="ssr:stedsnr" v="589821" />
	</node>
	<node lat="59.451441666608375" lon="9.244402776592104" id="-21274">
		<tag k="alt_name" v="Gvanntjørn" />
		<tag k="name" v="Gvanntjønn" />
		<tag k="natural" v="water" />
		<tag k="ssr:stedsnr" v="609007" />
	</node>
	<node lat="59.3693833318239" lon="9.267522216662213" id="-21318">
		<tag k="name" v="Kvittingen" />
		<tag k="ssr:stedsnr" v="649806" />
		<tag k="waterway" v="stream" />
	</node>
	<node lat="59.469161115541226" lon="9.266497228038478" id="-21324">
		<tag k="name" v="Igletjønn-bekken" />
		<tag k="ssr:stedsnr" v="650193" />
		<tag k="waterway" v="stream" />
	</node>
	<node lat="59.36581666528789" lon="9.323497229722406" id="-21325">
		<tag k="name" v="Vardefjellputtene" />
		<tag k="natural" v="water" />
		<tag k="ssr:stedsnr" v="650303" />
		<tag k="water" v="pond" />
	</node>
	<node lat="59.35826944534788" lon="9.315341667081384" id="-21326">
		<tag k="name" v="Svarttjønn" />
		<tag k="natural" v="water" />
		<tag k="ssr:stedsnr" v="650286" />
	</node>
	<node lat="59.511352782122785" lon="9.293963892105058" id="-21334">
		<tag k="name" v="Sandbukta" />
		<tag k="natural" v="bay" />
		<tag k="ssr:stedsnr" v="710123" />
	</node>
	<node lat="59.45743888914019" lon="9.260725007283147" id="-21336">
		<tag k="name" v="Djupebekk" />
		<tag k="ssr:stedsnr" v="710154" />
		<tag k="waterway" v="stream" />
	</node>
	<node lat="59.43983333374603" lon="9.128808333373998" id="-21342">
		<tag k="loc_name" v="Hørteelva" />
		<tag k="name" v="Hørteåa" />
		<tag k="ssr:stedsnr" v="669478" />
		<tag k="waterway" v="river" />
	</node>
	<node lat="59.418366666674814" lon="9.193519438477272" id="-21356">
		<tag k="alt_name" v="Dyrudtjønnputten" />
		<tag k="name" v="Dyrudtjørnpytten" />
		<tag k="natural" v="water" />
		<tag k="ssr:stedsnr" v="670395" />
	</node>
	<node lat="59.35782499625732" lon="9.315286115634386" id="-21359">
		<tag k="name" v="Svarttjørn" />
		<tag k="natural" v="water" />
		<tag k="ssr:stedsnr" v="677677" />
	</node>
	<node lat="59.38189722077758" lon="9.294977774079555" id="-21360">
		<tag k="name" v="Kvern-bekken" />
		<tag k="ssr:stedsnr" v="892229" />
		<tag k="waterway" v="stream" />
	</node>
	<node lat="59.36279444511934" lon="9.140791668213858" id="-21369">
		<tag k="name" v="Røydalstjønn" />
		<tag k="natural" v="water" />
		<tag k="ssr:stedsnr" v="893196" />
	</node>
	<node lat="59.382272217821644" lon="9.14597221588095" id="-21375">
		<tag k="name" v="Sagbekken" />
		<tag k="ssr:stedsnr" v="893243" />
		<tag k="waterway" v="stream" />
	</node>
	<node lat="59.474222224381016" lon="9.437438890306526" id="-21378">
		<tag k="name" v="Gvålsbekk" />
		<tag k="ssr:stedsnr" v="893506" />
		<tag k="waterway" v="stream" />
	</node>
	<node lat="59.45419167036445" lon="9.34993610518395" id="-21380">
		<tag k="name" v="Holts-åa" />
		<tag k="ssr:stedsnr" v="893717" />
		<tag k="waterway" v="river" />
	</node>
	<node lat="59.357522222076426" lon="9.265208338217237" id="-21382">
		<tag k="name" v="Stangodd-bekken" />
		<tag k="ssr:stedsnr" v="893806" />
		<tag k="waterway" v="stream" />
	</node>
	<node lat="59.4972722208415" lon="9.293691662873744" id="-21384">
		<tag k="name" v="Haukedalsbukta" />
		<tag k="natural" v="bay" />
		<tag k="ssr:stedsnr" v="893831" />
	</node>
	<node lat="59.46418055856221" lon="9.310605553757064" id="-21386">
		<tag k="name" v="Helsodden" />
		<tag k="natural" v="cape" />
		<tag k="ssr:stedsnr" v="894000" />
	</node>
	<node lat="59.491936111745176" lon="9.109100004375236" id="-21398">
		<tag k="name" v="Smærtjønnhølen" />
		<tag k="place" v="locality" />
		<tag k="ssr:stedsnr" v="693595" />
	</node>
	<node lat="59.4733527761968" lon="9.165636118107962" id="-21400">
		<tag k="name" v="Svarttjønn" />
		<tag k="natural" v="water" />
		<tag k="ssr:stedsnr" v="693910" />
	</node>
	<node lat="59.39279166368934" lon="9.114563887599235" id="-21408">
		<tag k="name" v="Åstjønnbekken" />
		<tag k="ssr:stedsnr" v="694387" />
		<tag k="waterway" v="stream" />
	</node>
	<node lat="59.52717778010164" lon="9.011230552557258" id="-21413">
		<tag k="name" v="Løkjintjønna" />
		<tag k="natural" v="water" />
		<tag k="ssr:stedsnr" v="694623" />
	</node>
	<node lat="59.48308055922054" lon="9.061261117309066" id="-21415">
		<tag k="name" v="Holefossen" />
		<tag k="natural" v="waterfall" />
		<tag k="ssr:stedsnr" v="695431" />
	</node>
	<node lat="59.382938886601075" lon="8.926241661937635" id="-21422">
		<tag k="name" v="Steinulvsholbekken" />
		<tag k="ssr:stedsnr" v="696019" />
		<tag k="waterway" v="stream" />
	</node>
	<node lat="59.44403610674295" lon="9.238911118843916" id="-21425">
		<tag k="name" v="Heståsbekken" />
		<tag k="ssr:stedsnr" v="710204" />
		<tag k="waterway" v="stream" />
	</node>
	<node lat="59.48114722347541" lon="9.307961113165703" id="-21430">
		<tag k="name" v="Fiskodden" />
		<tag k="natural" v="cape" />
		<tag k="ssr:stedsnr" v="710584" />
	</node>
	<node lat="59.49551666277678" lon="9.291686104365779" id="-21432">
		<tag k="name" v="Søndre Haukedalsbekken" />
		<tag k="ssr:stedsnr" v="710811" />
		<tag k="waterway" v="stream" />
	</node>
	<node lat="59.39399444603479" lon="9.32214445063808" id="-21435">
		<tag k="name" v="Åsdalsåa" />
		<tag k="ssr:stedsnr" v="711024" />
		<tag k="waterway" v="river" />
	</node>
	<node lat="59.434972220331716" lon="9.342727773734246" id="-21449">
		<tag k="name" v="Gvåla-åa" />
		<tag k="ssr:stedsnr" v="711497" />
		<tag k="waterway" v="stream" />
	</node>
	<node lat="59.47631110888062" lon="9.375319440658215" id="-21454">
		<tag k="name" v="Kikja-fossen" />
		<tag k="natural" v="waterfall" />
		<tag k="ssr:stedsnr" v="711575" />
	</node>
	<node lat="59.45455833119333" lon="9.39180832754625" id="-21455">
		<tag k="name" v="Holtstjønnbekken" />
		<tag k="ssr:stedsnr" v="711730" />
		<tag k="waterway" v="stream" />
	</node>
	<node lat="59.357963889897746" lon="8.956333338181379" id="-21459">
		<tag k="alt_name" v="Grøntjørn" />
		<tag k="name" v="Grøntjønn" />
		<tag k="natural" v="water" />
		<tag k="ssr:stedsnr" v="730303" />
	</node>
	<node lat="59.45505277565703" lon="9.184872217271481" id="-21461">
		<tag k="alt_name" v="Store Gullnåstjønn" />
		<tag k="name" v="Gulnostjørnane" />
		<tag k="natural" v="water" />
		<tag k="ssr:stedsnr" v="730462" />
	</node>
	<node lat="59.48707222220365" lon="9.168680550895866" id="-21466">
		<tag k="alt_name" v="Svalbjørtjørna" />
		<tag k="loc_name" v="Svalbjørgtjønna" />
		<tag k="name" v="Svalbjørtjønna" />
		<tag k="natural" v="water" />
		<tag k="ssr:stedsnr" v="730670" />
	</node>
	<node lat="59.38440832901745" lon="9.3119194500607" id="-21469">
		<tag k="alt_name" v="Igletjørn" />
		<tag k="name" v="Igletjønn" />
		<tag k="natural" v="water" />
		<tag k="ssr:stedsnr" v="730916" />
	</node>
	<node lat="59.37939722023703" lon="8.874916661225301" id="-21471">
		<tag k="alt_name" v="Ormetjørn" />
		<tag k="name" v="Ormetjønn" />
		<tag k="natural" v="water" />
		<tag k="ssr:stedsnr" v="731273" />
	</node>
	<node lat="59.43937778029605" lon="9.042116663922425" id="-21489">
		<tag k="name" v="Liskottolla" />
		<tag k="natural" v="spring" />
		<tag k="ssr:stedsnr" v="754621" />
	</node>
	<node lat="59.379502780754855" lon="9.124727771186395" id="-21507">
		<tag k="name" v="Vesle Ljosvatn" />
		<tag k="natural" v="water" />
		<tag k="ssr:stedsnr" v="771259" />
	</node>
	<node lat="59.48711110800177" lon="9.215900002399133" id="-21515">
		<tag k="name" v="Breidstul-fossen" />
		<tag k="natural" v="waterfall" />
		<tag k="ssr:stedsnr" v="772056" />
	</node>
	<node lat="59.397102780176944" lon="9.232188884842008" id="-21517">
		<tag k="name" v="Lauvtjønn-bekken" />
		<tag k="ssr:stedsnr" v="772672" />
		<tag k="waterway" v="stream" />
	</node>
	<node lat="59.48090277643746" lon="9.128861103444324" id="-21536">
		<tag k="alt_name" v="Båntjørn" />
		<tag k="name" v="Båntjønn" />
		<tag k="natural" v="water" />
		<tag k="ssr:stedsnr" v="791584" />
		<tag k="water" v="pond" />
	</node>
	<node lat="59.38477221870798" lon="9.259425004341228" id="-21544">
		<tag k="name" v="Kråkaholmen" />
		<tag k="place" v="islet" />
		<tag k="ssr:stedsnr" v="791908" />
	</node>
	<node lat="59.384016666366406" lon="8.879194451986969" id="-21554">
		<tag k="alt_name" v="Ramsåstjørna" />
		<tag k="name" v="Ramsåstjønna" />
		<tag k="natural" v="water" />
		<tag k="ssr:stedsnr" v="912381" />
	</node>
	<node lat="59.439241668793" lon="8.947580552711358" id="-21556">
		<tag k="alt_name" v="Tjørnstultjørna" />
		<tag k="name" v="Tjønnstultjønna" />
		<tag k="natural" v="water" />
		<tag k="ssr:stedsnr" v="912458" />
	</node>
	<node lat="59.487211114855306" lon="9.134008326205556" id="-21560">
		<tag k="alt_name" v="Lauvtjørn" />
		<tag k="name" v="Lauvtjønn" />
		<tag k="natural" v="water" />
		<tag k="ssr:stedsnr" v="912635" />
	</node>
	<node lat="59.47225555483372" lon="9.08461666498365" id="-21561">
		<tag k="name" v="Åseåa" />
		<tag k="ssr:stedsnr" v="912638" />
		<tag k="waterway" v="river" />
	</node>
	<node lat="59.46980555893186" lon="9.134625005492028" id="-21576">
		<tag k="alt_name" v="Sautjørn" />
		<tag k="name" v="Sautjønn" />
		<tag k="natural" v="water" />
		<tag k="ssr:stedsnr" v="913449" />
	</node>
	<node lat="59.46293611351941" lon="9.114794437474124" id="-21578">
		<tag k="name" v="Vermelibekken" />
		<tag k="ssr:stedsnr" v="913453" />
		<tag k="waterway" v="stream" />
	</node>
	<node lat="59.42435555187631" lon="8.948961105996935" id="-21581">
		<tag k="alt_name" v="Damtjørn" />
		<tag k="name" v="Damtjønn" />
		<tag k="natural" v="water" />
		<tag k="ssr:stedsnr" v="913415" />
	</node>
	<node lat="59.47581110716658" lon="9.139950002388838" id="-21585">
		<tag k="alt_name" v="Solbjørtjørna" />
		<tag k="loc_name" v="Solbjørgtjønna" />
		<tag k="name" v="Solbjørtjønna" />
		<tag k="natural" v="water" />
		<tag k="ssr:stedsnr" v="913569" />
	</node>
	<node lat="59.425347218067905" lon="9.027683337294281" id="-21596">
		<tag k="name" v="Sagahølen" />
		<tag k="place" v="locality" />
		<tag k="ssr:stedsnr" v="814599" />
	</node>
	<node lat="59.463988890192574" lon="9.138436103026539" id="-21598">
		<tag k="name" v="Kattetjønn" />
		<tag k="natural" v="water" />
		<tag k="ssr:stedsnr" v="814911" />
		<tag k="water" v="pond" />
	</node>
	<node lat="59.398755556731096" lon="8.919802777702591" id="-21605">
		<tag k="name" v="Røyrtjønn" />
		<tag k="natural" v="water" />
		<tag k="ssr:stedsnr" v="817014" />
		<tag k="water" v="pond" />
	</node>
	<node lat="59.456169444228756" lon="8.958380549739914" id="-21607">
		<tag k="name" v="Tromfoss" />
		<tag k="natural" v="waterfall" />
		<tag k="ssr:stedsnr" v="817071" />
	</node>
	<node lat="59.46967777582699" lon="8.961183331164865" id="-21608">
		<tag k="name" v="Kvennhusfossen" />
		<tag k="natural" v="waterfall" />
		<tag k="ssr:stedsnr" v="817684" />
	</node>
	<node lat="59.47509722076638" lon="9.45346944245488" id="-21623">
		<tag k="name" v="Jansenbekk" />
		<tag k="ssr:stedsnr" v="832534" />
		<tag k="waterway" v="stream" />
	</node>
	<node lat="59.422627777364" lon="9.22072223062466" id="-21625">
		<tag k="name" v="Ringstulbekken" />
		<tag k="ssr:stedsnr" v="832484" />
		<tag k="waterway" v="stream" />
	</node>
	<node lat="59.356188884880346" lon="9.255047220054776" id="-21631">
		<tag k="name" v="Stange-odden" />
		<tag k="natural" v="cape" />
		<tag k="ssr:stedsnr" v="832788" />
	</node>
	<node lat="59.49025278097667" lon="9.264466670449394" id="-21638">
		<tag k="name" v="Bjørndals-åa" />
		<tag k="ssr:stedsnr" v="833029" />
		<tag k="waterway" v="stream" />
	</node>
	<node lat="59.49061111510948" lon="9.28424721964653" id="-21640">
		<tag k="name" v="Søndre Haukedalsbekken" />
		<tag k="ssr:stedsnr" v="833034" />
		<tag k="waterway" v="stream" />
	</node>
	<node lat="59.3871138856701" lon="9.273875005406133" id="-21649">
		<tag k="name" v="Kvernbekken" />
		<tag k="ssr:stedsnr" v="833597" />
		<tag k="waterway" v="stream" />
	</node>
	<node lat="59.46897499556224" lon="9.348980547760892" id="-21650">
		<tag k="name" v="Rørmyrbekken" />
		<tag k="ssr:stedsnr" v="833631" />
		<tag k="waterway" v="stream" />
	</node>
	<node lat="59.377075001459104" lon="9.376674996399592" id="-21668">
		<tag k="alt_name" v="Mordatjørn" />
		<tag k="name" v="Mordatjønn" />
		<tag k="natural" v="water" />
		<tag k="ssr:stedsnr" v="852914" />
	</node>
	<node lat="59.39296389303817" lon="9.384755563884287" id="-21671">
		<tag k="name" v="Våtkleivvatn" />
=======
	<node id="-445701" lat="59.490361112" lon="8.92683332901">
		<tag k="name" v="Holmedammen" />
		<tag k="ssr:stedsnr" v="876912" />
		<tag k="waterway" v="dam" />
	</node>
	<node id="-445695" lat="59.517072222" lon="9.04757500196">
		<tag k="name" v="Gvolvbekktjønna" />
		<tag k="natural" v="water" />
		<tag k="ssr:stedsnr" v="876593" />
	</node>
	<node id="-445690" lat="59.4062916627" lon="9.05762777761">
		<tag k="name" v="Borgjaevju" />
		<tag k="ssr:stedsnr" v="876268" />
		<tag k="waterway" v="stream" />
	</node>
	<node id="-445688" lat="59.4460805597" lon="9.34796111217">
		<tag k="name" v="Høymyr-bekken" />
		<tag k="ssr:stedsnr" v="650673" />
		<tag k="waterway" v="stream" />
	</node>
	<node id="-445684" lat="59.4062277773" lon="9.26556943715">
		<tag k="name" v="Nigardsbekken" />
		<tag k="ssr:stedsnr" v="650469" />
		<tag k="waterway" v="stream" />
	</node>
	<node id="-445676" lat="59.4354805573" lon="9.25402777081">
		<tag k="name" v="Belleråsbekken" />
		<tag k="ssr:stedsnr" v="649330" />
		<tag k="waterway" v="stream" />
	</node>
	<node id="-447719" lat="59.4096250044" lon="9.2900472267">
		<tag k="name" v="Sauar-åa" />
		<tag k="ssr:stedsnr" v="954902" />
		<tag k="waterway" v="river" />
	</node>
	<node id="-445649" lat="59.3743305512" lon="9.18471667541">
		<tag k="name" v="Årnesbukta" />
		<tag k="natural" v="bay" />
		<tag k="ssr:stedsnr" v="730297" />
	</node>
	<node id="-445665" lat="59.3793972202" lon="8.87491666123">
		<tag k="alt_name" v="Ormetjørn" />
		<tag k="name" v="Ormetjønn" />
		<tag k="natural" v="water" />
		<tag k="ssr:stedsnr" v="731273" />
	</node>
	<node id="-447710" lat="59.3566777815" lon="9.32460000853">
		<tag k="name" v="Morgotjønn" />
		<tag k="natural" v="water" />
		<tag k="ssr:stedsnr" v="954253" />
	</node>
	<node id="-447708" lat="59.4772361152" lon="9.2641833421">
		<tag k="name" v="Stampe-åa" />
		<tag k="ssr:stedsnr" v="954194" />
		<tag k="waterway" v="stream" />
	</node>
	<node id="-445659" lat="59.384408329" lon="9.31191945006">
		<tag k="alt_name" v="Igletjørn" />
		<tag k="name" v="Igletjønn" />
		<tag k="natural" v="water" />
		<tag k="ssr:stedsnr" v="730916" />
	</node>
	<node id="-445656" lat="59.4870722222" lon="9.1686805509">
		<tag k="alt_name" v="Svalbjørtjørna" />
		<tag k="loc_name" v="Svalbjørgtjønna" />
		<tag k="name" v="Svalbjørtjønna" />
		<tag k="natural" v="water" />
		<tag k="ssr:stedsnr" v="730670" />
	</node>
	<node id="-445654" lat="59.4983055518" lon="8.93267221379">
		<tag k="alt_name" v="Sautjørna" />
		<tag k="name" v="Sautjønn" />
		<tag k="natural" v="water" />
		<tag k="ssr:stedsnr" v="730645" />
	</node>
	<node id="-447701" lat="59.4692861076" lon="9.29927777156">
		<tag k="name" v="Dålåbekken" />
		<tag k="ssr:stedsnr" v="953981" />
		<tag k="waterway" v="stream" />
	</node>
	<node id="-447699" lat="59.458933333" lon="9.1720777771">
		<tag k="name" v="Nordre Tveitvatnet" />
		<tag k="natural" v="water" />
		<tag k="ssr:stedsnr" v="954662" />
		<tag k="water" v="lake" />
	</node>
	<node id="-445650" lat="59.3579638899" lon="8.95633333818">
		<tag k="alt_name" v="Grøntjørn" />
		<tag k="name" v="Grøntjønn" />
		<tag k="natural" v="water" />
		<tag k="ssr:stedsnr" v="730303" />
	</node>
	<node id="-447697" lat="59.4909388871" lon="9.29412221911">
		<tag k="name" v="Hyttekåsbekken" />
		<tag k="old_name" v="Hyttekåsbekkken" />
		<tag k="ssr:stedsnr" v="953841" />
		<tag k="waterway" v="stream" />
	</node>
	<node id="-445648" lat="59.368019443" lon="8.91548610549">
		<tag k="alt_name" v="Øyantjørna" />
		<tag k="name" v="Øyantjønna" />
		<tag k="natural" v="water" />
		<tag k="ssr:stedsnr" v="730283" />
	</node>
	<node id="-447695" lat="59.4846138877" lon="9.31165555421">
		<tag k="name" v="Tjuvodden" />
		<tag k="natural" v="cape" />
		<tag k="ssr:stedsnr" v="953835" />
	</node>
	<node id="-445644" lat="59.4550527757" lon="9.18487221727">
		<tag k="alt_name" v="Store Gullnåstjønn" />
		<tag k="name" v="Gulnostjørnane" />
		<tag k="natural" v="water" />
		<tag k="ssr:stedsnr" v="730462" />
	</node>
	<node id="-447688" lat="59.4670083346" lon="9.44797499638">
		<tag k="name" v="Damholmen" />
		<tag k="place" v="islet" />
		<tag k="ssr:stedsnr" v="953565" />
	</node>
	<node id="-447685" lat="59.470383329" lon="9.41867221687">
		<tag k="name" v="Tonebekk-holmen" />
		<tag k="place" v="islet" />
		<tag k="ssr:stedsnr" v="953440" />
	</node>
	<node id="-447684" lat="59.4795944471" lon="9.40944166731">
		<tag k="name" v="Damtjønn-bekken" />
		<tag k="ssr:stedsnr" v="953439" />
		<tag k="waterway" v="stream" />
	</node>
	<node id="-445631" lat="59.4548777816" lon="8.9544111155">
		<tag k="name" v="Dyrdalsbekken" />
		<tag k="ssr:stedsnr" v="634064" />
		<tag k="waterway" v="stream" />
	</node>
	<node id="-447678" lat="59.4423861068" lon="9.23998055294">
		<tag k="name" v="Svarttjønn-bekken" />
		<tag k="ssr:stedsnr" v="953199" />
		<tag k="waterway" v="stream" />
	</node>
	<node id="-445629" lat="59.4994027768" lon="8.95209999409">
		<tag k="name" v="Langetjønn" />
		<tag k="natural" v="water" />
		<tag k="ssr:stedsnr" v="633622" />
	</node>
	<node id="-445624" lat="59.4998305596" lon="9.1050305549">
		<tag k="name" v="Åkrokane" />
		<tag k="natural" v="strait" />
		<tag k="ssr:stedsnr" v="632572" />
	</node>
	<node id="-445622" lat="59.4287722225" lon="9.01728055911">
		<tag k="name" v="Ruebekken" />
		<tag k="ssr:stedsnr" v="632559" />
		<tag k="waterway" v="stream" />
	</node>
	<node id="-445621" lat="59.5004250034" lon="9.10013332856">
		<tag k="name" v="Storbekk" />
		<tag k="ssr:stedsnr" v="632557" />
		<tag k="waterway" v="stream" />
	</node>
	<node id="-445609" lat="59.4159388907" lon="8.84354444496">
		<tag k="alt_name" v="Grabbutjørna" />
		<tag k="name" v="Grabbutjønna" />
		<tag k="natural" v="water" />
		<tag k="ssr:stedsnr" v="609376" />
	</node>
	<node id="-447655" lat="59.4151861119" lon="8.98001388316">
		<tag k="name" v="Vigjilen" />
		<tag k="ssr:stedsnr" v="875032" />
		<tag k="waterway" v="stream" />
	</node>
	<node id="-445605" lat="59.5337111089" lon="9.01168333879">
		<tag k="alt_name" v="Trogatjørnan" />
		<tag k="name" v="Trogatjønn" />
		<tag k="natural" v="water" />
		<tag k="ssr:stedsnr" v="609370" />
	</node>
	<node id="-445596" lat="59.4514416666" lon="9.24440277659">
		<tag k="alt_name" v="Gvanntjørn" />
		<tag k="name" v="Gvanntjønn" />
		<tag k="natural" v="water" />
		<tag k="ssr:stedsnr" v="609007" />
	</node>
	<node id="-447643" lat="59.4113527784" lon="9.2360277833">
		<tag k="alt_name" v="Lauvtjørn" />
		<tag k="name" v="Lauvtjønn" />
		<tag k="natural" v="water" />
		<tag k="ssr:stedsnr" v="852993" />
	</node>
	<node id="-447641" lat="59.3451361111" lon="9.24236111814">
		<tag k="alt_name" v="Skåråflesk" />
		<tag k="name" v="Skåraflesk" />
		<tag k="place" v="islet" />
		<tag k="ssr:stedsnr" v="852829" />
	</node>
	<node id="-445588" lat="59.3914722231" lon="9.2310277833">
		<tag k="name" v="Holtan-bekken" />
		<tag k="ssr:stedsnr" v="712654" />
		<tag k="waterway" v="stream" />
	</node>
	<node id="-445583" lat="59.4545583312" lon="9.39180832755">
		<tag k="name" v="Holtstjønnbekken" />
		<tag k="ssr:stedsnr" v="711730" />
		<tag k="waterway" v="stream" />
	</node>
	<node id="-445582" lat="59.4873111129" lon="9.18676666133">
		<tag k="name" v="Primtjønn" />
		<tag k="natural" v="water" />
		<tag k="ssr:stedsnr" v="590059" />
	</node>
	<node id="-445580" lat="59.4349722203" lon="9.34272777373">
		<tag k="name" v="Gvåla-åa" />
		<tag k="ssr:stedsnr" v="711497" />
		<tag k="waterway" v="stream" />
	</node>
	<node id="-445577" lat="59.4213888912" lon="9.38844721568">
		<tag k="name" v="Rupetjønn" />
		<tag k="natural" v="water" />
		<tag k="ssr:stedsnr" v="589672" />
	</node>
	<node id="-445574" lat="59.4391861135" lon="9.35065555867">
		<tag k="name" v="Gvåla-åa" />
		<tag k="ssr:stedsnr" v="589655" />
		<tag k="waterway" v="river" />
	</node>
	<node id="-445572" lat="59.4679305536" lon="9.40772777752">
		<tag k="name" v="Hålåtjønnene" />
		<tag k="natural" v="water" />
		<tag k="ssr:stedsnr" v="711471" />
	</node>
	<node id="-445571" lat="59.3584694466" lon="9.30214167193">
		<tag k="name" v="Ulevassbekken" />
		<tag k="ssr:stedsnr" v="589319" />
		<tag k="waterway" v="stream" />
	</node>
	<node id="-447616" lat="59.4694472239" lon="9.39475555165">
		<tag k="alt_name" v="Damtjørn, store" />
		<tag k="name" v="Store Damtjønn" />
		<tag k="natural" v="water" />
		<tag k="ssr:stedsnr" v="852025" />
	</node>
	<node id="-445567" lat="59.4679361068" lon="9.30368610879">
		<tag k="name" v="Eriksodden" />
		<tag k="natural" v="cape" />
		<tag k="ssr:stedsnr" v="589517" />
	</node>
	<node id="-445566" lat="59.3754166675" lon="9.31007500739">
		<tag k="name" v="Trengenbekken" />
		<tag k="ssr:stedsnr" v="589268" />
		<tag k="waterway" v="stream" />
	</node>
	<node id="-445563" lat="59.5104277738" lon="9.29798333011">
		<tag k="name" v="Høgsrud-odden" />
		<tag k="natural" v="cape" />
		<tag k="ssr:stedsnr" v="589149" />
	</node>
	<node id="-445561" lat="59.3241527803" lon="9.21435832622">
		<tag k="name" v="Deiltjønn" />
		<tag k="natural" v="water" />
		<tag k="ssr:stedsnr" v="589133" />
	</node>
	<node id="-447607" lat="59.4013888883" lon="9.20907500282">
		<tag k="name" v="Stampeura" />
		<tag k="natural" v="waterfall" />
		<tag k="ssr:stedsnr" v="833447" />
	</node>
	<node id="-445557" lat="59.4663944435" lon="9.22153334036">
		<tag k="name" v="Vidsjå-stubben" />
		<tag k="natural" v="bay" />
		<tag k="ssr:stedsnr" v="711258" />
	</node>
	<node id="-447600" lat="59.4906111151" lon="9.28424721965">
		<tag k="name" v="Søndre Haukedalsbekken" />
		<tag k="ssr:stedsnr" v="833034" />
		<tag k="waterway" v="stream" />
	</node>
	<node id="-445550" lat="59.3646083322" lon="9.16981388959">
		<tag k="name" v="Kvennebekken" />
		<tag k="ssr:stedsnr" v="711193" />
		<tag k="waterway" v="stream" />
	</node>
	<node id="-445548" lat="59.4811472235" lon="9.30796111317">
		<tag k="name" v="Fiskodden" />
		<tag k="natural" v="cape" />
		<tag k="ssr:stedsnr" v="710584" />
	</node>
	<node id="-447589" lat="59.3561888849" lon="9.25504722005">
		<tag k="name" v="Stange-odden" />
		<tag k="natural" v="cape" />
		<tag k="ssr:stedsnr" v="832788" />
	</node>
	<node id="-447587" lat="59.4538027758" lon="9.40268333952">
		<tag k="name" v="Røysefjellbekken" />
		<tag k="ssr:stedsnr" v="832720" />
		<tag k="waterway" v="stream" />
	</node>
	<node id="-445538" lat="59.4574388891" lon="9.26072500728">
		<tag k="name" v="Djupebekk" />
		<tag k="ssr:stedsnr" v="710154" />
		<tag k="waterway" v="stream" />
	</node>
	<node id="-445536" lat="59.5113527821" lon="9.29396389211">
		<tag k="name" v="Sandbukta" />
		<tag k="natural" v="bay" />
		<tag k="ssr:stedsnr" v="710123" />
	</node>
	<node id="-447579" lat="59.4750972208" lon="9.45346944245">
		<tag k="name" v="Jansenbekk" />
		<tag k="ssr:stedsnr" v="832534" />
		<tag k="waterway" v="stream" />
	</node>
	<node id="-447576" lat="59.4226277774" lon="9.22072223062">
		<tag k="name" v="Ringstulbekken" />
		<tag k="ssr:stedsnr" v="832484" />
		<tag k="waterway" v="stream" />
	</node>
	<node id="-447574" lat="59.4442027778" lon="9.21148611641">
		<tag k="name" v="Gullnåsbekken" />
		<tag k="ssr:stedsnr" v="832358" />
		<tag k="waterway" v="stream" />
	</node>
	<node id="-447564" lat="59.4574333361" lon="9.23559722677">
		<tag k="name" v="Klevaråa" />
		<tag k="ssr:stedsnr" v="832153" />
		<tag k="waterway" v="river" />
	</node>
	<node id="-445511" lat="59.4812222228" lon="9.10496944683">
		<tag k="name" v="Teingardsdammen" />
		<tag k="ssr:stedsnr" v="571472" />
		<tag k="waterway" v="dam" />
	</node>
	<node id="-445507" lat="59.411897224" lon="8.97865277164">
		<tag k="name" v="Skogtjønn" />
		<tag k="natural" v="water" />
		<tag k="ssr:stedsnr" v="571052" />
	</node>
	<node id="-445504" lat="59.393994446" lon="9.32214445064">
		<tag k="name" v="Åsdalsåa" />
		<tag k="ssr:stedsnr" v="711024" />
		<tag k="waterway" v="river" />
	</node>
	<node id="-445501" lat="59.4395583322" lon="8.99952777201">
		<tag k="name" v="Slåttabekken" />
		<tag k="ssr:stedsnr" v="696845" />
		<tag k="waterway" v="stream" />
	</node>
	<node id="-445498" lat="59.468524999" lon="8.99013055976">
		<tag k="name" v="Grostulbekken" />
		<tag k="ssr:stedsnr" v="696692" />
		<tag k="waterway" v="stream" />
	</node>
	<node id="-447543" lat="59.4561694442" lon="8.95838054974">
		<tag k="name" v="Tromfoss" />
		<tag k="natural" v="waterfall" />
		<tag k="ssr:stedsnr" v="817071" />
	</node>
	<node id="-447541" lat="59.393602779" lon="8.89275556021">
		<tag k="name" v="Sandstultjønna" />
		<tag k="natural" v="water" />
		<tag k="ssr:stedsnr" v="817029" />
	</node>
	<node id="-447533" lat="59.4558249994" lon="9.12303611367">
		<tag k="name" v="Fiskebekk" />
		<tag k="ssr:stedsnr" v="815933" />
		<tag k="waterway" v="stream" />
	</node>
	<node id="-445480" lat="59.3927916637" lon="9.1145638876">
		<tag k="name" v="Åstjønnbekken" />
		<tag k="ssr:stedsnr" v="694387" />
		<tag k="waterway" v="stream" />
	</node>
	<node id="-447524" lat="59.3782277771" lon="8.97604444486">
		<tag k="name" v="Øya" />
		<tag k="natural" v="cape" />
		<tag k="ssr:stedsnr" v="815447" />
	</node>
	<node id="-445470" lat="59.4919361117" lon="9.10910000438">
		<tag k="name" v="Smærtjønnhølen" />
		<tag k="place" v="locality" />
		<tag k="ssr:stedsnr" v="693595" />
	</node>
	<node id="-447517" lat="59.4253472181" lon="9.02768333729">
		<tag k="name" v="Sagahølen" />
		<tag k="place" v="locality" />
		<tag k="ssr:stedsnr" v="814599" />
	</node>
	<node id="-447504" lat="59.3873750015" lon="8.95392222554">
		<tag k="name" v="Kvennhusbekken" />
		<tag k="ssr:stedsnr" v="813064" />
		<tag k="waterway" v="stream" />
	</node>
	<node id="-445454" lat="59.4722777811" lon="9.38749999445">
		<tag k="name" v="Storebuløken" />
		<tag k="natural" v="water" />
		<tag k="ssr:stedsnr" v="529565" />
		<tag k="water" v="lake" />
	</node>
	<node id="-445452" lat="59.3972444477" lon="9.37481666325">
		<tag k="name" v="Øvre Lauvrostjønn" />
		<tag k="natural" v="water" />
		<tag k="ssr:stedsnr" v="529357" />
	</node>
	<node id="-445450" lat="59.4029222187" lon="9.21501111397">
		<tag k="name" v="Kvernbekken" />
		<tag k="ssr:stedsnr" v="529430" />
		<tag k="waterway" v="stream" />
	</node>
	<node id="-445447" lat="59.4849527733" lon="9.28752222352">
		<tag k="name" v="Svarttjønn-bekken" />
		<tag k="ssr:stedsnr" v="529040" />
		<tag k="waterway" v="stream" />
	</node>
	<node id="-447491" lat="59.3847722187" lon="9.25942500434">
		<tag k="name" v="Kråkaholmen" />
		<tag k="place" v="islet" />
		<tag k="ssr:stedsnr" v="791908" />
	</node>
	<node id="-445439" lat="59.450138891" lon="9.23648888524">
		<tag k="name" v="Hyttedalsbekken" />
		<tag k="ssr:stedsnr" v="528207" />
		<tag k="waterway" v="stream" />
	</node>
	<node id="-445438" lat="59.4236444447" lon="9.03085833317">
		<tag k="name" v="Haugfoss" />
		<tag k="natural" v="waterfall" />
		<tag k="ssr:stedsnr" v="692535" />
	</node>
	<node id="-447485" lat="59.4893527811" lon="8.90079999205">
		<tag k="alt_name" v="Jøronnattjørna" />
		<tag k="name" v="Jøronnattjønna" />
		<tag k="natural" v="water" />
		<tag k="ssr:stedsnr" v="791551" />
	</node>
	<node id="-447481" lat="59.4809027764" lon="9.12886110344">
		<tag k="alt_name" v="Båntjørn" />
		<tag k="name" v="Båntjønn" />
		<tag k="natural" v="water" />
		<tag k="ssr:stedsnr" v="791584" />
		<tag k="water" v="pond" />
	</node>
	<node id="-445424" lat="59.4520527741" lon="9.08774721873">
		<tag k="name" v="Trytetjønn" />
		<tag k="natural" v="water" />
		<tag k="ssr:stedsnr" v="512267" />
	</node>
	<node id="-447464" lat="59.4629888862" lon="9.1535638815">
		<tag k="loc_name" v="Solbjørgvatnet" />
		<tag k="name" v="Solbjørvatnet" />
		<tag k="natural" v="water" />
		<tag k="ssr:stedsnr" v="791477" />
		<tag k="water" v="lake" />
	</node>
	<node id="-447462" lat="59.4669083329" lon="9.10075277501">
		<tag k="name" v="Åmøtet" />
		<tag k="ssr:stedsnr" v="791458" />
		<tag k="waterway" v="river" />
	</node>
	<node id="-447461" lat="59.4720111134" lon="9.21771944559">
		<tag k="alt_name" v="Visjå" />
		<tag k="name" v="Vidsjå" />
		<tag k="natural" v="water" />
		<tag k="ssr:stedsnr" v="791453" />
		<tag k="water" v="lake" />
	</node>
	<node id="-447460" lat="59.4570722262" lon="8.98163888864">
		<tag k="name" v="Tilfangåa" />
		<tag k="ssr:stedsnr" v="791452" />
		<tag k="waterway" v="river" />
	</node>
	<node id="-447459" lat="59.4906944486" lon="9.46606943956">
		<tag k="alt_name" v="Deilstjørn" />
		<tag k="name" v="Deiltjønn" />
		<tag k="natural" v="water" />
		<tag k="ssr:stedsnr" v="791060" />
	</node>
	<node id="-445406" lat="59.4812416707" lon="8.92621111074">
		<tag k="alt_name" v="Repetjørn" />
		<tag k="name" v="Repetjønn" />
		<tag k="natural" v="water" />
		<tag k="ssr:stedsnr" v="670584" />
	</node>
	<node id="-447452" lat="59.4395972265" lon="9.30857499978">
		<tag k="name" v="Moneberg-odden" />
		<tag k="natural" v="cape" />
		<tag k="ssr:stedsnr" v="772620" />
	</node>
	<node id="-445402" lat="59.4689194485" lon="9.17088611557">
		<tag k="alt_name" v="Kirsdalstjørna" />
		<tag k="name" v="Kirsdalstjønna" />
		<tag k="natural" v="water" />
		<tag k="ssr:stedsnr" v="670449" />
	</node>
	<node id="-445398" lat="59.4183666667" lon="9.19351943848">
		<tag k="alt_name" v="Dyrudtjønnputten" />
		<tag k="name" v="Dyrudtjørnpytten" />
		<tag k="natural" v="water" />
		<tag k="ssr:stedsnr" v="670395" />
	</node>
	<node id="-447445" lat="59.4898666692" lon="9.25492499485">
		<tag k="name" v="Hustjønnløken" />
		<tag k="natural" v="water" />
		<tag k="ssr:stedsnr" v="772042" />
		<tag k="water" v="lake" />
	</node>
	<node id="-447441" lat="59.4878055526" lon="9.30586389341">
		<tag k="name" v="Ulebergs-Fiskodden" />
		<tag k="natural" v="cape" />
		<tag k="ssr:stedsnr" v="771839" />
	</node>
	<node id="-445392" lat="59.4749083325" lon="9.39991110641">
		<tag k="alt_name" v="Damtjørn, vesle;Blekketjønn" />
		<tag k="name" v="Vesle Damtjørn" />
		<tag k="natural" v="water" />
		<tag k="ssr:stedsnr" v="670038" />
	</node>
	<node id="-445386" lat="59.4360166654" lon="9.39956110814">
		<tag k="alt_name" v="Damtjørn" />
		<tag k="name" v="Damtjønn" />
		<tag k="natural" v="water" />
		<tag k="ssr:stedsnr" v="669954" />
	</node>
	<node id="-447429" lat="59.4247305581" lon="9.27341111904">
		<tag k="name" v="Sauar-åa" />
		<tag k="ssr:stedsnr" v="771479" />
		<tag k="waterway" v="river" />
	</node>
	<node id="-447427" lat="59.4473583349" lon="9.33440278066">
		<tag k="name" v="Sjåværbekken" />
		<tag k="ssr:stedsnr" v="771251" />
		<tag k="waterway" v="stream" />
	</node>
	<node id="-447424" lat="59.4027611079" lon="9.307611103">
		<tag k="name" v="Lauvheim" />
		<tag k="place" v="locality" />
		<tag k="ssr:stedsnr" v="771123" />
	</node>
	<node id="-445374" lat="59.4398333337" lon="9.12880833337">
		<tag k="loc_name" v="Hørteelva" />
		<tag k="name" v="Hørteåa" />
		<tag k="ssr:stedsnr" v="669478" />
		<tag k="waterway" v="river" />
	</node>
	<node id="-445372" lat="59.4526638858" lon="9.02227500003">
		<tag k="alt_name" v="Gjuvsåa" />
		<tag k="name" v="Juvsåa" />
		<tag k="ssr:stedsnr" v="669468" />
		<tag k="waterway" v="river" />
	</node>
	<node id="-447411" lat="59.4330305577" lon="8.87558055875">
		<tag k="name" v="Herretjønn" />
		<tag k="natural" v="water" />
		<tag k="ssr:stedsnr" v="756883" />
	</node>
	<node id="-445360" lat="59.4561749985" lon="9.18158888046">
		<tag k="name" v="Vesle Gullnåstjønn" />
		<tag k="natural" v="water" />
		<tag k="ssr:stedsnr" v="468318" />
	</node>
	<node id="-445358" lat="59.4063166626" lon="9.34385833218">
		<tag k="name" v="Løkjin" />
		<tag k="natural" v="water" />
		<tag k="ssr:stedsnr" v="468314" />
		<tag k="water" v="lake" />
	</node>
	<node id="-447405" lat="59.3780749956" lon="8.88777499521">
		<tag k="name" v="Ormetjønnbekken" />
		<tag k="ssr:stedsnr" v="756230" />
		<tag k="waterway" v="stream" />
	</node>
	<node id="-447404" lat="59.4571055526" lon="8.99759722331">
		<tag k="name" v="Tilfangfossen" />
		<tag k="natural" v="waterfall" />
		<tag k="ssr:stedsnr" v="756076" />
	</node>
	<node id="-447400" lat="59.3805583332" lon="8.92458333383">
		<tag k="name" v="Tveittjønnbekken" />
		<tag k="ssr:stedsnr" v="756014" />
		<tag k="waterway" v="stream" />
	</node>
	<node id="-447644" lat="59.4170416629" lon="9.23777221429">
		<tag k="alt_name" v="Stulstjørn" />
		<tag k="name" v="Stulstjønn" />
		<tag k="natural" v="water" />
		<tag k="ssr:stedsnr" v="852995" />
	</node>
	<node id="-447395" lat="59.4674972188" lon="8.97688055416">
		<tag k="name" v="Beveren" />
		<tag k="natural" v="waterfall" />
		<tag k="ssr:stedsnr" v="755691" />
	</node>
	<node id="-445345" lat="59.3439027777" lon="9.17533056329">
		<tag k="alt_name" v="Gjernestjørna" />
		<tag k="name" v="Gjernestjønn" />
		<tag k="natural" v="water" />
		<tag k="ssr:stedsnr" v="670235" />
	</node>
	<node id="-447392" lat="59.3299416634" lon="9.18298055746">
		<tag k="name" v="Gangsjåbekken" />
		<tag k="ssr:stedsnr" v="755531" />
		<tag k="waterway" v="stream" />
	</node>
	<node id="-447391" lat="59.4068666625" lon="8.85479722502">
		<tag k="name" v="Lobutjønna" />
		<tag k="natural" v="water" />
		<tag k="ssr:stedsnr" v="755145" />
		<tag k="water" v="pond" />
	</node>
	<node id="-447384" lat="59.4116805581" lon="9.0711166632">
		<tag k="name" v="Bøevju" />
		<tag k="ssr:stedsnr" v="754696" />
		<tag k="waterway" v="stream" />
	</node>
	<node id="-447383" lat="59.4393777803" lon="9.04211666392">
		<tag k="name" v="Liskottolla" />
		<tag k="natural" v="spring" />
		<tag k="ssr:stedsnr" v="754621" />
	</node>
	<node id="-447382" lat="59.4297388862" lon="9.03846110508">
		<tag k="name" v="Oterbekk" />
		<tag k="ssr:stedsnr" v="754589" />
		<tag k="waterway" v="stream" />
	</node>
	<node id="-445593" lat="59.4955700434" lon="9.21138322424">
		<tag k="alt_name" v="Blomtjørn, l" />
		<tag k="name" v="Vesle Blomtjønn" />
		<tag k="natural" v="water" />
		<tag k="ssr:stedsnr" v="608610" />
	</node>
	<node id="-447380" lat="59.5168277816" lon="9.05477777325">
		<tag k="name" v="Blåtjønn" />
		<tag k="natural" v="water" />
		<tag k="ssr:stedsnr" v="754578" />
		<tag k="water" v="pond" />
	</node>
	<node id="-447374" lat="59.431091668" lon="9.1186250051">
		<tag k="name" v="Holtebekk" />
		<tag k="ssr:stedsnr" v="754344" />
		<tag k="waterway" v="stream" />
	</node>
	<node id="-445318" lat="59.5138861105" lon="9.08203055137">
		<tag k="name" v="Svarttjønn" />
		<tag k="natural" v="water" />
		<tag k="ssr:stedsnr" v="428437" />
	</node>
	<node id="-445314" lat="59.464052779" lon="9.17956943847">
		<tag k="alt_name" v="Rennetjørn" />
		<tag k="name" v="Øvre Rennetjønn" />
		<tag k="natural" v="water" />
		<tag k="ssr:stedsnr" v="427504" />
	</node>
	<node id="-445313" lat="59.4646305511" lon="9.14660277191">
		<tag k="alt_name" v="Sigertjørn" />
		<tag k="name" v="Sigerstjønn" />
		<tag k="natural" v="water" />
		<tag k="ssr:stedsnr" v="427502" />
	</node>
	<node id="-447357" lat="59.3813361127" lon="8.87517223079">
		<tag k="name" v="Vesle Ormetjønn" />
		<tag k="natural" v="water" />
		<tag k="ssr:stedsnr" v="752142" />
	</node>
	<node id="-445306" lat="59.4346499968" lon="9.18571944148">
		<tag k="alt_name" v="Dyrud Damtjørn" />
		<tag k="name" v="Dyrud Damtjønn" />
		<tag k="natural" v="water" />
		<tag k="ssr:stedsnr" v="427427" />
	</node>
	<node id="-445304" lat="59.408824998" lon="8.85876110419">
		<tag k="alt_name" v="Gautiltjørna" />
		<tag k="name" v="Gautitjønna" />
		<tag k="natural" v="water" />
		<tag k="ssr:stedsnr" v="427414" />
		<tag k="water" v="lake" />
	</node>
	<node id="-447351" lat="59.3910249993" lon="9.23527778251">
		<tag k="name" v="Hegna-bekken" />
		<tag k="ssr:stedsnr" v="651676" />
		<tag k="waterway" v="stream" />
	</node>
	<node id="-445302" lat="59.4713361116" lon="9.26335834172">
		<tag k="alt_name" v="Igletjørn" />
		<tag k="name" v="Igletjønn" />
		<tag k="natural" v="water" />
		<tag k="ssr:stedsnr" v="427047" />
	</node>
	<node id="-445300" lat="59.4768972247" lon="9.40754999528">
		<tag k="alt_name" v="Damtjønn" />
		<tag k="name" v="Blekketjørn" />
		<tag k="natural" v="water" />
		<tag k="ssr:stedsnr" v="427036" />
	</node>
	<node id="-445298" lat="59.4629499989" lon="9.4284416604">
		<tag k="name" v="Eiangen" />
		<tag k="natural" v="water" />
		<tag k="ssr:stedsnr" v="427024" />
		<tag k="water" v="lake" />
	</node>
	<node id="-447345" lat="59.3745722221" lon="9.1994555601">
		<tag k="name" v="Øytangen" />
		<tag k="natural" v="cape" />
		<tag k="ssr:stedsnr" v="650882" />
	</node>
	<node id="-445295" lat="59.4521805533" lon="9.31408332896">
		<tag k="name" v="Bråfjorden" />
		<tag k="natural" v="water" />
		<tag k="ssr:stedsnr" v="427013" />
	</node>
	<node id="-447342" lat="59.3984333335" lon="9.18025555187">
		<tag k="name" v="Skreabekken" />
		<tag k="ssr:stedsnr" v="650597" />
		<tag k="waterway" v="stream" />
	</node>
	<node id="-447339" lat="59.3658166653" lon="9.32349722972">
		<tag k="name" v="Vardefjellputtene" />
		<tag k="natural" v="water" />
		<tag k="ssr:stedsnr" v="650303" />
		<tag k="water" v="pond" />
	</node>
	<node id="-447338" lat="59.3582694453" lon="9.31534166708">
		<tag k="name" v="Svarttjønn" />
		<tag k="natural" v="water" />
		<tag k="ssr:stedsnr" v="650286" />
	</node>
	<node id="-447329" lat="59.4691611155" lon="9.26649722804">
		<tag k="name" v="Igletjønn-bekken" />
		<tag k="ssr:stedsnr" v="650193" />
		<tag k="waterway" v="stream" />
	</node>
	<node id="-445276" lat="59.387452775" lon="8.90943611349">
		<tag k="name" v="Gramtjønn" />
		<tag k="natural" v="water" />
		<tag k="ssr:stedsnr" v="513014" />
		<tag k="water" v="pond" />
	</node>
	<node id="-447323" lat="59.4859500016" lon="9.30659167338">
		<tag k="name" v="Ulebergsbukta" />
		<tag k="natural" v="bay" />
		<tag k="ssr:stedsnr" v="649830" />
	</node>
	<node id="-447321" lat="59.3693833318" lon="9.26752221666">
		<tag k="name" v="Kvittingen" />
		<tag k="ssr:stedsnr" v="649806" />
		<tag k="waterway" v="stream" />
	</node>
	<node id="-445272" lat="59.4019388899" lon="9.03634444035">
		<tag k="name" v="Brukarmyra" />
		<tag k="place" v="locality" />
		<tag k="ssr:stedsnr" v="512277" />
	</node>
	<node id="-447319" lat="59.4620805582" lon="9.32199444271">
		<tag k="name" v="Ås-bekken" />
		<tag k="ssr:stedsnr" v="649761" />
		<tag k="waterway" v="stream" />
	</node>
	<node id="-447318" lat="59.4541888876" lon="9.32314999853">
		<tag k="name" v="Stennings-bekken" />
		<tag k="ssr:stedsnr" v="649759" />
		<tag k="waterway" v="stream" />
	</node>
	<node id="-445260" lat="59.5022416647" lon="9.11539445023">
		<tag k="name" v="Hylterhol" />
		<tag k="place" v="locality" />
		<tag k="ssr:stedsnr" v="511551" />
	</node>
	<node id="-445256" lat="59.3766638858" lon="8.99230833551">
		<tag k="name" v="Uvdalsdammen" />
		<tag k="ssr:stedsnr" v="511448" />
		<tag k="waterway" v="dam" />
	</node>
	<node id="-445252" lat="59.4307111114" lon="9.06231943654">
		<tag k="name" v="Berghøl" />
		<tag k="place" v="locality" />
		<tag k="ssr:stedsnr" v="511144" />
	</node>
	<node id="-447296" lat="59.3664333307" lon="8.92831943593">
		<tag k="name" v="Holmstuldammen" />
		<tag k="ssr:stedsnr" v="634032" />
		<tag k="waterway" v="dam" />
	</node>
	<node id="-447295" lat="59.3713249991" lon="8.93249445215">
		<tag k="name" v="Åkroken" />
		<tag k="place" v="locality" />
		<tag k="ssr:stedsnr" v="634031" />
	</node>
	<node id="-445238" lat="59.4717444463" lon="9.43408055657">
		<tag k="name" v="Sauebekken" />
		<tag k="ssr:stedsnr" v="407526" />
		<tag k="waterway" v="stream" />
	</node>
	<node id="-445237" lat="59.3995027791" lon="9.27528889407">
		<tag k="name" v="Kald-evju" />
		<tag k="natural" v="bay" />
		<tag k="ssr:stedsnr" v="407524" />
	</node>
	<node id="-445236" lat="59.4679944469" lon="9.43706943806">
		<tag k="name" v="Sponliodden" />
		<tag k="natural" v="cape" />
		<tag k="ssr:stedsnr" v="407522" />
	</node>
	<node id="-445232" lat="59.4040305597" lon="9.34701666853">
		<tag k="name" v="Ådalsåa" />
		<tag k="ssr:stedsnr" v="407368" />
		<tag k="waterway" v="stream" />
	</node>
	<node id="-445229" lat="59.3452416639" lon="9.29762223082">
		<tag k="name" v="Gravtjønn" />
		<tag k="natural" v="water" />
		<tag k="ssr:stedsnr" v="407306" />
	</node>
	<node id="-445228" lat="59.4550555598" lon="9.30721667481">
		<tag k="name" v="Klevar-bukta" />
		<tag k="natural" v="bay" />
		<tag k="ssr:stedsnr" v="407277" />
	</node>
	<node id="-447274" lat="59.467200003" lon="9.13569999397">
		<tag k="name" v="Sautjønn" />
		<tag k="natural" v="water" />
		<tag k="ssr:stedsnr" v="631914" />
	</node>
	<node id="-447273" lat="59.4153972223" lon="8.97875000751">
		<tag k="name" v="Igletjønn" />
		<tag k="natural" v="water" />
		<tag k="ssr:stedsnr" v="632052" />
		<tag k="water" v="pond" />
	</node>
	<node id="-447261" lat="59.3742333348" lon="9.00721666221">
		<tag k="alt_name" v="Eikaelva" />
		<tag k="name" v="Eikjaelva" />
		<tag k="ssr:stedsnr" v="609327" />
		<tag k="waterway" v="river" />
	</node>
	<node id="-447257" lat="59.5173166692" lon="9.07330277644">
		<tag k="alt_name" v="Tvottjørn" />
		<tag k="name" v="Tvottjønn" />
		<tag k="natural" v="water" />
		<tag k="ssr:stedsnr" v="609459" />
	</node>
	<node id="-445207" lat="59.4309305576" lon="9.05855277682">
		<tag k="name" v="Berghølfoss" />
		<tag k="natural" v="waterfall" />
		<tag k="ssr:stedsnr" v="390556" />
	</node>
	<node id="-447248" lat="59.3586333306" lon="9.34571944958">
		<tag k="alt_name" v="Mjågetjørn" />
		<tag k="name" v="Mjågetjønn" />
		<tag k="natural" v="water" />
		<tag k="ssr:stedsnr" v="608859" />
	</node>
	<node id="-447240" lat="59.3623222198" lon="8.93297778567">
		<tag k="alt_name" v="Kvigetjørn" />
		<tag k="name" v="Kvigetjønn" />
		<tag k="natural" v="water" />
		<tag k="ssr:stedsnr" v="608309" />
	</node>
	<node id="-445191" lat="59.4881611115" lon="8.96899722972">
		<tag k="name" v="Okslafoss" />
		<tag k="natural" v="waterfall" />
		<tag k="ssr:stedsnr" v="388910" />
	</node>
	<node id="-445189" lat="59.3691472199" lon="8.87496110927">
		<tag k="name" v="Rogndalsbekken" />
		<tag k="ssr:stedsnr" v="388172" />
		<tag k="waterway" v="stream" />
	</node>
	<node id="-447235" lat="59.3726444412" lon="8.9103527737">
		<tag k="alt_name" v="Langetjørn" />
		<tag k="name" v="Langetjønn" />
		<tag k="natural" v="water" />
		<tag k="ssr:stedsnr" v="608278" />
	</node>
	<node id="-445186" lat="59.3774388846" lon="8.9819749976">
		<tag k="alt_name" v="Uvdalstjørna" />
		<tag k="name" v="Uvdalstjønna" />
		<tag k="natural" v="water" />
		<tag k="ssr:stedsnr" v="366288" />
	</node>
	<node id="-445185" lat="59.366386107" lon="8.94333055857">
		<tag k="alt_name" v="Svarttjørn" />
		<tag k="name" v="Svarttjønn" />
		<tag k="natural" v="water" />
		<tag k="ssr:stedsnr" v="366284" />
	</node>
	<node id="-445183" lat="59.4335638921" lon="9.23783055887">
		<tag k="name" v="Klevaråa" />
		<tag k="ssr:stedsnr" v="488943" />
		<tag k="waterway" v="stream" />
	</node>
	<node id="-447223" lat="59.4248805524" lon="9.31143610685">
		<tag k="name" v="Langøyr" />
		<tag k="place" v="islet" />
		<tag k="ssr:stedsnr" v="589963" />
	</node>
	<node id="-447222" lat="59.5053166671" lon="9.29454445116">
		<tag k="name" v="Høgsrudbekken" />
		<tag k="ssr:stedsnr" v="589845" />
		<tag k="waterway" v="stream" />
	</node>
	<node id="-445411" lat="59.4488416642" lon="9.3976861075">
		<tag k="alt_name" v="Svarttjørn" />
		<tag k="name" v="Svarttjønn" />
		<tag k="natural" v="water" />
		<tag k="ssr:stedsnr" v="670951" />
	</node>
	<node id="-447219" lat="59.3557944425" lon="9.24137500154">
		<tag k="name" v="Vesle Tjodholmen" />
		<tag k="place" v="islet" />
		<tag k="ssr:stedsnr" v="589821" />
	</node>
	<node id="-445168" lat="59.3793583302" lon="8.91541666247">
		<tag k="alt_name" v="Tveittjørn" />
		<tag k="name" v="Tveittjønna" />
		<tag k="natural" v="water" />
		<tag k="ssr:stedsnr" v="488305" />
	</node>
	<node id="-447209" lat="59.3894666636" lon="9.25362777046">
		<tag k="name" v="Akkerhaugstangen" />
		<tag k="natural" v="cape" />
		<tag k="ssr:stedsnr" v="589582" />
	</node>
	<node id="-445160" lat="59.3478888904" lon="9.25126388775">
		<tag k="name" v="Ottersnesodden" />
		<tag k="natural" v="cape" />
		<tag k="ssr:stedsnr" v="487848" />
	</node>
	<node id="-445159" lat="59.3677722212" lon="9.37688611661">
		<tag k="name" v="Belatjønn" />
		<tag k="natural" v="water" />
		<tag k="ssr:stedsnr" v="487833" />
	</node>
	<node id="-447201" lat="59.4317777766" lon="9.28284722397">
		<tag k="name" v="Kåsin-bekken" />
		<tag k="ssr:stedsnr" v="589437" />
		<tag k="waterway" v="stream" />
	</node>
	<node id="-447198" lat="59.4310361077" lon="9.30289722242">
		<tag k="name" v="Risbekk" />
		<tag k="ssr:stedsnr" v="589492" />
		<tag k="waterway" v="stream" />
	</node>
	<node id="-447196" lat="59.4669388894" lon="9.41964444254">
		<tag k="name" v="Vassbotten-holmene" />
		<tag k="place" v="islet" />
		<tag k="ssr:stedsnr" v="589462" />
	</node>
	<node id="-445147" lat="59.4597666686" lon="9.29487777366">
		<tag k="name" v="Børs-bekken" />
		<tag k="ssr:stedsnr" v="347004" />
		<tag k="waterway" v="stream" />
	</node>
	<node id="-447193" lat="59.3588027823" lon="9.1464527785">
		<tag k="name" v="Røydalsbekken" />
		<tag k="old_name" v="Roydalsbekken" />
		<tag k="ssr:stedsnr" v="589211" />
		<tag k="waterway" v="stream" />
	</node>
	<node id="-447192" lat="59.4628055553" lon="9.24631388385">
		<tag k="name" v="Listulbekken" />
		<tag k="ssr:stedsnr" v="589182" />
		<tag k="waterway" v="stream" />
	</node>
	<node id="-447191" lat="59.4583972253" lon="9.27859722887">
		<tag k="name" v="Bjørndalsbekken" />
		<tag k="ssr:stedsnr" v="589163" />
		<tag k="waterway" v="stream" />
	</node>
	<node id="-445142" lat="59.4857555586" lon="9.19753055761">
		<tag k="alt_name" v="Mjågetjern" />
		<tag k="name" v="Mjågetjønn" />
		<tag k="natural" v="water" />
		<tag k="ssr:stedsnr" v="487662" />
	</node>
	<node id="-447609" lat="59.4689749956" lon="9.34898054776">
		<tag k="name" v="Rørmyrbekken" />
		<tag k="ssr:stedsnr" v="833631" />
		<tag k="waterway" v="stream" />
	</node>
	<node id="-445135" lat="59.4666305541" lon="9.43358888259">
		<tag k="name" v="Vassausa" />
		<tag k="place" v="islet" />
		<tag k="ssr:stedsnr" v="346509" />
	</node>
	<node id="-447180" lat="59.4522527793" lon="9.29854999828">
		<tag k="name" v="Daudmanns-bekken" />
		<tag k="ssr:stedsnr" v="589003" />
		<tag k="waterway" v="stream" />
	</node>
	<node id="-447178" lat="59.4388861153" lon="9.25909999882">
		<tag k="name" v="Svinetjønn-bekken" />
		<tag k="ssr:stedsnr" v="589330" />
		<tag k="waterway" v="stream" />
	</node>
	<node id="-445559" lat="59.4159111108" lon="9.30777500548">
		<tag k="name" v="Krokmannevju" />
		<tag k="place" v="locality" />
		<tag k="ssr:stedsnr" v="589129" />
	</node>
	<node id="-447171" lat="59.4747555525" lon="8.92392222962">
		<tag k="name" v="Langetjønnfossen" />
		<tag k="natural" v="waterfall" />
		<tag k="ssr:stedsnr" v="574923" />
	</node>
	<node id="-447163" lat="59.3944611091" lon="8.94050554946">
		<tag k="name" v="Tjønnhaugtjønna" />
		<tag k="natural" v="water" />
		<tag k="ssr:stedsnr" v="574278" />
	</node>
	<node id="-447162" lat="59.4733000036" lon="9.02414166029">
		<tag k="name" v="Torillbekk" />
		<tag k="ssr:stedsnr" v="574536" />
		<tag k="waterway" v="stream" />
	</node>
	<node id="-447157" lat="59.4246083352" lon="9.00225277362">
		<tag k="name" v="Siglhusstrengen" />
		<tag k="ssr:stedsnr" v="573812" />
		<tag k="waterway" v="rapids" />
	</node>
	<node id="-445105" lat="59.4622805515" lon="9.175277786">
		<tag k="name" v="Nedre Rennetjønn" />
		<tag k="natural" v="water" />
		<tag k="ssr:stedsnr" v="329948" />
	</node>
	<node id="-447151" lat="59.5152361081" lon="8.99855554694">
		<tag k="name" v="Utlibekken" />
		<tag k="ssr:stedsnr" v="572591" />
		<tag k="waterway" v="stream" />
	</node>
	<node id="-445095" lat="59.4663083309" lon="9.0989583365">
		<tag k="name" v="Høgfoss" />
		<tag k="natural" v="waterfall" />
		<tag k="ssr:stedsnr" v="306444" />
	</node>
	<node id="-445094" lat="59.4114722221" lon="8.96950555919">
		<tag k="name" v="Bøelva" />
		<tag k="ssr:stedsnr" v="306419" />
		<tag k="waterway" v="river" />
	</node>
	<node id="-447140" lat="59.4910499978" lon="9.06848055864">
		<tag k="name" v="Stiklandbekken" />
		<tag k="ssr:stedsnr" v="571565" />
		<tag k="waterway" v="stream" />
	</node>
	<node id="-447138" lat="59.4246499961" lon="9.02511388386">
		<tag k="name" v="Sagafossen" />
		<tag k="natural" v="waterfall" />
		<tag k="ssr:stedsnr" v="571525" />
	</node>
	<node id="-445552" lat="59.4879805531" lon="9.20046110656">
		<tag k="name" v="Jensestjønn" />
		<tag k="natural" v="water" />
		<tag k="ssr:stedsnr" v="711071" />
	</node>
	<node id="-445079" lat="59.4966916661" lon="9.29561944333">
		<tag k="name" v="Tjoneodden" />
		<tag k="natural" v="cape" />
		<tag k="ssr:stedsnr" v="468821" />
	</node>
	<node id="-447598" lat="59.490252781" lon="9.26446667045">
		<tag k="name" v="Bjørndals-åa" />
		<tag k="ssr:stedsnr" v="833029" />
		<tag k="waterway" v="stream" />
	</node>
	<node id="-445073" lat="59.3897555525" lon="9.25866666833">
		<tag k="name" v="Akkerhaugs-bukta" />
		<tag k="natural" v="bay" />
		<tag k="ssr:stedsnr" v="468554" />
	</node>
	<node id="-447120" lat="59.4391805511" lon="9.35058333769">
		<tag k="name" v="Dugurdsfjellbekken" />
		<tag k="ssr:stedsnr" v="548953" />
		<tag k="waterway" v="stream" />
	</node>
	<node id="-447119" lat="59.4306888864" lon="9.2372361029">
		<tag k="alt_name" v="Svarttjørn" />
		<tag k="name" v="Svarttjønn" />
		<tag k="natural" v="water" />
		<tag k="ssr:stedsnr" v="548948" />
	</node>
	<node id="-445070" lat="59.4691083331" lon="9.30548333179">
		<tag k="name" v="Store Kråka" />
		<tag k="place" v="islet" />
		<tag k="ssr:stedsnr" v="468497" />
	</node>
	<node id="-445064" lat="59.4707000016" lon="9.44764999396">
		<tag k="name" v="Holmen" />
		<tag k="place" v="islet" />
		<tag k="ssr:stedsnr" v="468451" />
	</node>
	<node id="-447111" lat="59.4974305573" lon="8.96513611148">
		<tag k="alt_name" v="Sandtjørn" />
		<tag k="name" v="Sandtjønn" />
		<tag k="natural" v="water" />
		<tag k="ssr:stedsnr" v="548581" />
	</node>
	<node id="-447108" lat="59.4690222237" lon="9.16200833061">
		<tag k="alt_name" v="Svarttjørn" />
		<tag k="name" v="Svarttjønn" />
		<tag k="natural" v="water" />
		<tag k="ssr:stedsnr" v="548490" />
	</node>
	<node id="-445057" lat="59.3576222223" lon="9.29357499397">
		<tag k="name" v="Kalveaugo" />
		<tag k="natural" v="water" />
		<tag k="ssr:stedsnr" v="468279" />
		<tag k="water" v="pond" />
	</node>
	<node id="-447104" lat="59.4472527759" lon="9.0715166664">
		<tag k="alt_name" v="Steintjørn" />
		<tag k="name" v="Steintjønn" />
		<tag k="natural" v="water" />
		<tag k="ssr:stedsnr" v="548462" />
	</node>
	<node id="-447103" lat="59.4522750038" lon="9.093180564">
		<tag k="alt_name" v="Trytetjørnane" />
		<tag k="name" v="Trytetjønn" />
		<tag k="natural" v="water" />
		<tag k="ssr:stedsnr" v="548461" />
	</node>
	<node id="-445054" lat="59.3533888895" lon="9.18569444351">
		<tag k="name" v="Gjernesbekken" />
		<tag k="ssr:stedsnr" v="468088" />
		<tag k="waterway" v="stream" />
	</node>
	<node id="-445053" lat="59.4862666636" lon="9.22888888156">
		<tag k="name" v="Hem-Svarttjønn" />
		<tag k="natural" v="water" />
		<tag k="ssr:stedsnr" v="468071" />
	</node>
	<node id="-445051" lat="59.4813416696" lon="9.20843610456">
		<tag k="name" v="Mjågetjønn-åa" />
		<tag k="ssr:stedsnr" v="468167" />
		<tag k="waterway" v="river" />
	</node>
	<node id="-445049" lat="59.4811027761" lon="9.19210833182">
		<tag k="name" v="Kalvetjønn-bekken" />
		<tag k="ssr:stedsnr" v="468157" />
		<tag k="waterway" v="stream" />
	</node>
	<node id="-445048" lat="59.4488222263" lon="9.24414443662">
		<tag k="name" v="Gvanntjønn-løken" />
		<tag k="natural" v="water" />
		<tag k="ssr:stedsnr" v="468153" />
		<tag k="water" v="lake" />
	</node>
	<node id="-445044" lat="59.4069638901" lon="9.29573333136">
		<tag k="name" v="Hvål-striken" />
		<tag k="natural" v="shoal" />
		<tag k="place" v="locality" />
		<tag k="ssr:stedsnr" v="468137" />
	</node>
	<node id="-445043" lat="59.405224998" lon="9.2979944435">
		<tag k="name" v="Nigardsbekken" />
		<tag k="ssr:stedsnr" v="468131" />
		<tag k="waterway" v="stream" />
	</node>
	<node id="-447089" lat="59.3746861091" lon="8.93784444722">
		<tag k="name" v="Tveitåa" />
		<tag k="ssr:stedsnr" v="548361" />
		<tag k="waterway" v="river" />
	</node>
	<node id="-447088" lat="59.3849972194" lon="9.10682777182">
		<tag k="alt_name" v="Svarttjørn" />
		<tag k="name" v="Svarttjønn" />
		<tag k="natural" v="water" />
		<tag k="ssr:stedsnr" v="548352" />
	</node>
	<node id="-447087" lat="59.3617611096" lon="8.96678889367">
		<tag k="alt_name" v="Fagerlitjørna" />
		<tag k="name" v="Fagerlitjønna" />
		<tag k="natural" v="water" />
		<tag k="ssr:stedsnr" v="548324" />
	</node>
	<node id="-447086" lat="59.3706611146" lon="8.89691665925">
		<tag k="alt_name" v="Bakkjeråa" />
		<tag k="name" v="Bakkjerråa" />
		<tag k="ssr:stedsnr" v="548300" />
		<tag k="waterway" v="river" />
	</node>
	<node id="-444861" lat="59.4662999998" lon="9.41062500023">
		<tag k="name" v="Hålåtjønn-bekken" />
		<tag k="ssr:stedsnr" v="286490" />
		<tag k="waterway" v="stream" />
	</node>
	<node id="-447083" lat="59.3324861118" lon="9.20126388852">
		<tag k="alt_name" v="Storlitjørna" />
		<tag k="name" v="Storlitjønn" />
		<tag k="natural" v="water" />
		<tag k="ssr:stedsnr" v="548231" />
	</node>
	<node id="-447081" lat="59.4873138903" lon="9.45589999558">
		<tag k="alt_name" v="Kalvetjørn" />
		<tag k="name" v="Kalvetjønn" />
		<tag k="natural" v="water" />
		<tag k="ssr:stedsnr" v="548055" />
	</node>
	<node id="-447080" lat="59.4838305578" lon="9.22990278114">
		<tag k="name" v="Svarttjørn" />
		<tag k="natural" v="water" />
		<tag k="ssr:stedsnr" v="548051" />
	</node>
	<node id="-445029" lat="59.354372223" lon="9.25695277953">
		<tag k="name" v="Stangoddbukta" />
		<tag k="natural" v="bay" />
		<tag k="ssr:stedsnr" v="286921" />
	</node>
	<node id="-447074" lat="59.459483332" lon="9.39003332462">
		<tag k="alt_name" v="Holtstjørn" />
		<tag k="name" v="Holtstjønn" />
		<tag k="natural" v="water" />
		<tag k="ssr:stedsnr" v="548007" />
	</node>
	<node id="-447070" lat="59.4451527821" lon="9.39621943821">
		<tag k="name" v="Svarttjønn-putten" />
		<tag k="natural" v="water" />
		<tag k="ssr:stedsnr" v="529741" />
		<tag k="water" v="pond" />
	</node>
	<node id="-445021" lat="59.4135472229" lon="9.24085555988">
		<tag k="name" v="Åstjønn" />
		<tag k="natural" v="water" />
		<tag k="ssr:stedsnr" v="286510" />
	</node>
	<node id="-445018" lat="59.4739083289" lon="9.45180833074">
		<tag k="name" v="Olavsbekk" />
		<tag k="ssr:stedsnr" v="286502" />
		<tag k="waterway" v="stream" />
	</node>
	<node id="-447065" lat="59.4539416668" lon="9.19146388855">
		<tag k="name" v="Bostetjønn" />
		<tag k="natural" v="water" />
		<tag k="ssr:stedsnr" v="529344" />
	</node>
	<node id="-445016" lat="59.4723805543" lon="9.41591110416">
		<tag k="name" v="Tonebekkevju" />
		<tag k="place" v="locality" />
		<tag k="ssr:stedsnr" v="286413" />
	</node>
	<node id="-445539" lat="59.4440361067" lon="9.23891111884">
		<tag k="name" v="Heståsbekken" />
		<tag k="ssr:stedsnr" v="710204" />
		<tag k="waterway" v="stream" />
	</node>
	<node id="-447056" lat="59.4031472239" lon="9.29468055822">
		<tag k="name" v="Suigardsbekken" />
		<tag k="ssr:stedsnr" v="529119" />
		<tag k="waterway" v="stream" />
	</node>
	<node id="-445007" lat="59.4622416689" lon="9.29386667169">
		<tag k="name" v="Klevaråa" />
		<tag k="ssr:stedsnr" v="286007" />
		<tag k="waterway" v="river" />
	</node>
	<node id="-447046" lat="59.4717361116" lon="9.3122222168">
		<tag k="name" v="Kongshemfjorden" />
		<tag k="natural" v="water" />
		<tag k="ssr:stedsnr" v="528987" />
		<tag k="water" v="lake" />
	</node>
	<node id="-447045" lat="59.4702527764" lon="9.30375000544">
		<tag k="name" v="Undelåns-bukta" />
		<tag k="natural" v="bay" />
		<tag k="ssr:stedsnr" v="528985" />
	</node>
	<node id="-444993" lat="59.3799194487" lon="9.03594166991">
		<tag k="name" v="Berteshøl" />
		<tag k="natural" v="water" />
		<tag k="ssr:stedsnr" v="269353" />
		<tag k="water" v="lake" />
	</node>
	<node id="-447038" lat="59.4505527807" lon="9.33703056358">
		<tag k="name" v="Holts-åa" />
		<tag k="ssr:stedsnr" v="528736" />
		<tag k="waterway" v="stream" />
	</node>
	<node id="-447035" lat="59.4386999987" lon="9.39823055759">
		<tag k="name" v="Damtjønnputten" />
		<tag k="natural" v="water" />
		<tag k="ssr:stedsnr" v="528681" />
		<tag k="water" v="pond" />
	</node>
	<node id="-447034" lat="59.4343333324" lon="9.36236111516">
		<tag k="name" v="Gvittingen" />
		<tag k="ssr:stedsnr" v="528671" />
		<tag k="waterway" v="river" />
	</node>
	<node id="-444984" lat="59.4728388891" lon="9.09969444623">
		<tag k="name" v="Storholet" />
		<tag k="place" v="locality" />
		<tag k="ssr:stedsnr" v="268462" />
	</node>
	<node id="-447029" lat="59.4734972232" lon="9.45692777082">
		<tag k="name" v="Ranten" />
		<tag k="natural" v="cape" />
		<tag k="ssr:stedsnr" v="528533" />
	</node>
	<node id="-447027" lat="59.4040944465" lon="9.27591943814">
		<tag k="name" v="Tangenbekken" />
		<tag k="ssr:stedsnr" v="528516" />
		<tag k="waterway" v="stream" />
	</node>
	<node id="-447026" lat="59.4678722179" lon="9.41508611905">
		<tag k="name" v="Vassbotn" />
		<tag k="natural" v="strait" />
		<tag k="ssr:stedsnr" v="528514" />
	</node>
	<node id="-447528" lat="59.3748055538" lon="8.97665277008">
		<tag k="name" v="Brudalsbukta" />
		<tag k="natural" v="bay" />
		<tag k="ssr:stedsnr" v="815446" />
	</node>
	<node id="-447024" lat="59.4831527778" lon="9.41133055374">
		<tag k="name" v="Øvre Vetrhustjønn" />
		<tag k="natural" v="water" />
		<tag k="ssr:stedsnr" v="528458" />
	</node>
	<node id="-447023" lat="59.4822027795" lon="9.30588888378">
		<tag k="name" v="Kast-bukta" />
		<tag k="natural" v="bay" />
		<tag k="ssr:stedsnr" v="528586" />
	</node>
	<node id="-447022" lat="59.4656527803" lon="9.2953166591">
		<tag k="name" v="Dalebekken" />
		<tag k="ssr:stedsnr" v="528571" />
		<tag k="waterway" v="stream" />
	</node>
	<node id="-447019" lat="59.4922666706" lon="9.29668332712">
		<tag k="name" v="Kåsa-stranda" />
		<tag k="natural" v="beach" />
		<tag k="ssr:stedsnr" v="528095" />
	</node>
	<node id="-444969" lat="59.4406388925" lon="8.9591305577">
		<tag k="name" v="Skjentjønn" />
		<tag k="natural" v="water" />
		<tag k="ssr:stedsnr" v="453857" />
	</node>
	<node id="-447013" lat="59.433086113" lon="9.39286388751">
		<tag k="alt_name" v="Dugurdsfjelltjørn" />
		<tag k="name" v="Dugurdsfjell-tjønn" />
		<tag k="natural" v="water" />
		<tag k="ssr:stedsnr" v="427955" />
	</node>
	<node id="-445531" lat="59.4684638918" lon="8.95306666771">
		<tag k="name" v="Røytejuvbekken" />
		<tag k="ssr:stedsnr" v="574323" />
		<tag k="waterway" v="stream" />
	</node>
	<node id="-446999" lat="59.3786249961" lon="9.12335278394">
		<tag k="alt_name" v="Ljosvatn" />
		<tag k="name" v="Store Ljosvatn" />
		<tag k="natural" v="water" />
		<tag k="old_name" v="Ljostjørna, store;Store Ljostjørna" />
		<tag k="ssr:stedsnr" v="427365" />
	</node>
	<node id="-446998" lat="59.377480556" lon="8.97066389043">
		<tag k="alt_name" v="Øvretjørn" />
		<tag k="name" v="Øvretjønn" />
		<tag k="natural" v="water" />
		<tag k="ssr:stedsnr" v="427358" />
	</node>
	<node id="-446996" lat="59.4393583374" lon="9.17667777048">
		<tag k="name" v="Løken" />
		<tag k="ssr:stedsnr" v="427476" />
		<tag k="waterway" v="stream" />
	</node>
	<node id="-444947" lat="59.4301111153" lon="9.04981665989">
		<tag k="name" v="Oterholtfossen" />
		<tag k="natural" v="waterfall" />
		<tag k="ssr:stedsnr" v="451591" />
	</node>
	<node id="-445187" lat="59.3542416689" lon="9.15956389431">
		<tag k="name" v="Løkedalsbekken" />
		<tag k="ssr:stedsnr" v="494644" />
		<tag k="waterway" v="stream" />
	</node>
	<node id="-446986" lat="59.386352781" lon="9.26278611309">
		<tag k="name" v="Holme-bukta" />
		<tag k="natural" v="bay" />
		<tag k="ssr:stedsnr" v="408602" />
	</node>
	<node id="-446984" lat="59.4594726083" lon="9.18460233502">
		<tag k="name" v="Ostenatt-tjønn" />
		<tag k="natural" v="water" />
		<tag k="ssr:stedsnr" v="408380" />
	</node>
	<node id="-446982" lat="59.4646166681" lon="9.22275832857">
		<tag k="name" v="Vidsjå-dammen" />
		<tag k="ssr:stedsnr" v="408256" />
		<tag k="waterway" v="dam" />
	</node>
	<node id="-446974" lat="59.3421083349" lon="9.17803055668">
		<tag k="name" v="Vesletjønn" />
		<tag k="natural" v="water" />
		<tag k="ssr:stedsnr" v="408044" />
	</node>
	<node id="-446973" lat="59.4881055545" lon="9.260474993">
		<tag k="name" v="Deiltjønn" />
		<tag k="natural" v="water" />
		<tag k="ssr:stedsnr" v="408031" />
	</node>
	<node id="-446970" lat="59.4659166634" lon="9.34141389215">
		<tag k="name" v="Røyrmyrbekken" />
		<tag k="ssr:stedsnr" v="407992" />
		<tag k="waterway" v="stream" />
	</node>
	<node id="-446969" lat="59.4761055537" lon="9.31777500373">
		<tag k="name" v="Hissebekk" />
		<tag k="ssr:stedsnr" v="407986" />
		<tag k="waterway" v="stream" />
	</node>
	<node id="-446968" lat="59.4709222243" lon="9.31687500882">
		<tag k="name" v="Sandvik" />
		<tag k="natural" v="bay" />
		<tag k="ssr:stedsnr" v="407974" />
	</node>
	<node id="-446967" lat="59.4969277803" lon="9.29015278201">
		<tag k="name" v="Haukedalsbekken" />
		<tag k="ssr:stedsnr" v="407839" />
		<tag k="waterway" v="stream" />
	</node>
	<node id="-444918" lat="59.4960666667" lon="8.98772499528">
		<tag k="name" v="Sautjønn" />
		<tag k="natural" v="water" />
		<tag k="ssr:stedsnr" v="449899" />
	</node>
	<node id="-444914" lat="59.3752333331" lon="9.35398611835">
		<tag k="name" v="Dalsvatn" />
>>>>>>> e1d4bc35ff8a6074a6f2e91616a996b547c36f15
		<tag k="natural" v="water" />
		<tag k="ssr:stedsnr" v="245917" />
		<tag k="water" v="lake" />
	</node>
<<<<<<< HEAD
	<node lat="59.35264260044171" lon="9.288406143646338" id="-21674">
		<tag k="name" v="Pommertjørnane" />
		<tag k="natural" v="water" />
		<tag k="ssr:stedsnr" v="852816" />
	</node>
	<node lat="59.530150002402614" lon="9.044563885855773" id="-21676">
		<tag k="alt_name" v="Damtjørn" />
		<tag k="name" v="Damtjønn" />
		<tag k="natural" v="water" />
		<tag k="ssr:stedsnr" v="853104" />
	</node>
	<node lat="59.406291662714075" lon="9.05762777760918" id="-21690">
		<tag k="name" v="Borgjaevju" />
		<tag k="ssr:stedsnr" v="876268" />
		<tag k="waterway" v="stream" />
	</node>
	<node lat="59.42681666414081" lon="8.878838894839143" id="-21702">
		<tag k="name" v="Herrefoss" />
		<tag k="natural" v="waterfall" />
		<tag k="ssr:stedsnr" v="878852" />
	</node>
	<node lat="59.484347221604295" lon="9.27347500400738" id="-21716">
		<tag k="name" v="Damtjønn-putten" />
		<tag k="natural" v="water" />
		<tag k="ssr:stedsnr" v="893205" />
		<tag k="water" v="pond" />
	</node>
	<node lat="59.47777221829426" lon="9.252655550816009" id="-21719">
		<tag k="name" v="Bjønnetjønn" />
		<tag k="natural" v="water" />
		<tag k="ssr:stedsnr" v="893211" />
		<tag k="water" v="pond" />
	</node>
	<node lat="59.351783334339956" lon="9.29320833071285" id="-21728">
		<tag k="name" v="Øvre Pommertjønn" />
		<tag k="natural" v="water" />
		<tag k="ssr:stedsnr" v="893280" />
	</node>
	<node lat="59.47374721875398" lon="9.442875006318328" id="-21729">
		<tag k="name" v="Stulsbekken" />
		<tag k="ssr:stedsnr" v="893508" />
		<tag k="waterway" v="stream" />
	</node>
	<node lat="59.47055555593579" lon="9.44565278305503" id="-21730">
		<tag k="name" v="Såta" />
		<tag k="place" v="islet" />
		<tag k="ssr:stedsnr" v="893511" />
	</node>
	<node lat="59.46730833614102" lon="9.294619439357769" id="-21732">
		<tag k="name" v="Roebekken" />
		<tag k="ssr:stedsnr" v="893526" />
		<tag k="waterway" v="stream" />
	</node>
	<node lat="59.3800222222784" lon="9.271102776043989" id="-21736">
		<tag k="name" v="Gjuvs-bekken" />
		<tag k="ssr:stedsnr" v="893576" />
		<tag k="waterway" v="stream" />
	</node>
	<node lat="59.434355556757815" lon="9.37721666634329" id="-21740">
		<tag k="name" v="Dugurdsfjellbekken" />
		<tag k="ssr:stedsnr" v="893664" />
		<tag k="waterway" v="stream" />
	</node>
	<node lat="59.35437598400594" lon="9.27614245095611" id="-21743">
		<tag k="name" v="Dipletjønn" />
		<tag k="natural" v="water" />
		<tag k="ssr:stedsnr" v="893910" />
	</node>
	<node lat="59.36180555992689" lon="8.88139999401068" id="-21746">
		<tag k="name" v="Bontåa" />
		<tag k="ssr:stedsnr" v="912309" />
		<tag k="waterway" v="stream" />
	</node>
	<node lat="59.49715833146107" lon="8.992138895058813" id="-21754">
		<tag k="name" v="Skåråfjellholmen" />
		<tag k="natural" v="water" />
		<tag k="ssr:stedsnr" v="912616" />
	</node>
	<node lat="59.35541111464995" lon="9.2553250009102" id="-21756">
		<tag k="name" v="Stangodden" />
		<tag k="natural" v="cape" />
		<tag k="ssr:stedsnr" v="912849" />
	</node>
	<node lat="59.41163055162483" lon="9.126466665157535" id="-21760">
		<tag k="name" v="Griviøya" />
		<tag k="place" v="island" />
		<tag k="ssr:stedsnr" v="913387" />
	</node>
	<node lat="59.41253888597754" lon="8.909944438802677" id="-21774">
		<tag k="name" v="Graveevju" />
		<tag k="ssr:stedsnr" v="937143" />
		<tag k="waterway" v="stream" />
	</node>
	<node lat="59.3957277743523" lon="8.923011103402233" id="-21780">
		<tag k="name" v="Bekkjestultjønna" />
		<tag k="natural" v="water" />
		<tag k="ssr:stedsnr" v="938012" />
		<tag k="water" v="pond" />
	</node>
	<node lat="59.46655555686213" lon="8.909397227387139" id="-21787">
		<tag k="name" v="Skartjønn" />
		<tag k="natural" v="water" />
		<tag k="ssr:stedsnr" v="938904" />
		<tag k="water" v="pond" />
	</node>
	<node lat="59.442386106838306" lon="9.239980552942122" id="-21792">
		<tag k="name" v="Svarttjønn-bekken" />
		<tag k="ssr:stedsnr" v="953199" />
		<tag k="waterway" v="stream" />
	</node>
	<node lat="59.49093888714668" lon="9.294122219111683" id="-21800">
		<tag k="name" v="Hyttekåsbekken" />
		<tag k="old_name" v="Hyttekåsbekkken" />
		<tag k="ssr:stedsnr" v="953841" />
		<tag k="waterway" v="stream" />
	</node>
	<node lat="59.47723611521155" lon="9.264183342095045" id="-21803">
		<tag k="name" v="Stampe-åa" />
		<tag k="ssr:stedsnr" v="954194" />
		<tag k="waterway" v="stream" />
	</node>
	<node lat="59.3566777814603" lon="9.324600008534112" id="-21807">
		<tag k="name" v="Morgotjønn" />
		<tag k="natural" v="water" />
		<tag k="ssr:stedsnr" v="954253" />
	</node>
	<node lat="59.40123611442045" lon="9.219263892342644" id="-21808">
		<tag k="name" v="Holtanbekken" />
		<tag k="ssr:stedsnr" v="954443" />
		<tag k="waterway" v="stream" />
	</node>
	<node lat="59.49227222670291" lon="9.256311116579582" id="-21837">
		<tag k="alt_name" v="Hustjørn" />
		<tag k="name" v="Hustjønn" />
		<tag k="natural" v="water" />
		<tag k="ssr:stedsnr" v="2054" />
	</node>
	<node lat="59.49431111125318" lon="9.306233331900662" id="-21838">
		<tag k="name" v="Heddalsvatnet" />
		<tag k="natural" v="water" />
		<tag k="ssr:stedsnr" v="2063" />
		<tag k="water" v="lake" />
	</node>
	<node lat="59.35588610838558" lon="9.308544449785833" id="-21864">
		<tag k="alt_name" v="Hestetjørn" />
		<tag k="name" v="Hestetjønn" />
		<tag k="natural" v="water" />
		<tag k="ssr:stedsnr" v="2829" />
	</node>
	<node lat="59.39763610684792" lon="9.345486113521353" id="-21866">
		<tag k="name" v="Rogholttjørn" />
		<tag k="natural" v="water" />
		<tag k="ssr:stedsnr" v="2890" />
	</node>
	<node lat="59.415491668936006" lon="9.049319437693573" id="-21876">
		<tag k="name" v="Presteevju" />
		<tag k="ssr:stedsnr" v="25244" />
		<tag k="waterway" v="stream" />
	</node>
	<node lat="59.46125832986121" lon="9.110069437561178" id="-21894">
		<tag k="name" v="Torilldåpå" />
		<tag k="natural" v="water" />
		<tag k="ssr:stedsnr" v="26299" />
		<tag k="water" v="lake" />
	</node>
	<node lat="59.52275000179609" lon="9.132000000711164" id="-21905">
		<tag k="name" v="Fossane" />
		<tag k="natural" v="waterfall" />
		<tag k="ssr:stedsnr" v="26739" />
	</node>
	<node lat="59.47728611387305" lon="9.02412777122227" id="-21917">
		<tag k="name" v="Jønnbubekken" />
		<tag k="ssr:stedsnr" v="28428" />
		<tag k="waterway" v="stream" />
	</node>
	<node lat="59.45090000082938" lon="9.323727770337648" id="-21923">
		<tag k="name" v="Tveitåa" />
		<tag k="ssr:stedsnr" v="43234" />
		<tag k="waterway" v="river" />
	</node>
	<node lat="59.418105553496886" lon="9.161955560524678" id="-21924">
		<tag k="name" v="Dyrudbekken" />
		<tag k="ssr:stedsnr" v="43244" />
		<tag k="waterway" v="stream" />
	</node>
	<node lat="59.48173333084342" lon="9.224805556365437" id="-21928">
		<tag k="name" v="Svarttjønn-bekken" />
		<tag k="ssr:stedsnr" v="43151" />
		<tag k="waterway" v="stream" />
	</node>
	<node lat="59.36467777771821" lon="9.154988889761817" id="-21930">
		<tag k="name" v="Sulukollbekken" />
		<tag k="ssr:stedsnr" v="43171" />
		<tag k="waterway" v="stream" />
	</node>
	<node lat="59.43261388641548" lon="9.181177778996362" id="-21936">
		<tag k="name" v="Kvitingen" />
		<tag k="natural" v="waterfall" />
		<tag k="ssr:stedsnr" v="43435" />
	</node>
	<node lat="59.403138891168304" lon="9.284136104154898" id="-21938">
		<tag k="name" v="Suigards-evju" />
		<tag k="natural" v="bay" />
		<tag k="ssr:stedsnr" v="43466" />
	</node>
	<node lat="59.40466389035345" lon="9.285547216635669" id="-21939">
		<tag k="name" v="Hvåla-evju" />
		<tag k="natural" v="bay" />
		<tag k="ssr:stedsnr" v="43467" />
	</node>
	<node lat="59.34974722207638" lon="9.259858332130378" id="-21946">
		<tag k="name" v="Gorrhol-bukta" />
		<tag k="natural" v="bay" />
		<tag k="ssr:stedsnr" v="43918" />
	</node>
	<node lat="59.4917055576664" lon="9.260372225116319" id="-21951">
		<tag k="name" v="Hustjønnbekken" />
		<tag k="ssr:stedsnr" v="44067" />
		<tag k="waterway" v="stream" />
	</node>
	<node lat="59.478913886670206" lon="9.268408334886642" id="-21958">
		<tag k="alt_name" v="Ljostjørn" />
		<tag k="name" v="Ljostjønn" />
		<tag k="natural" v="water" />
		<tag k="ssr:stedsnr" v="63077" />
	</node>
	<node lat="59.48258889124022" lon="9.283805561470247" id="-21963">
		<tag k="alt_name" v="Svarttjørn" />
		<tag k="name" v="Svarttjønn" />
		<tag k="natural" v="water" />
		<tag k="ssr:stedsnr" v="63062" />
	</node>
	<node lat="59.38874166240888" lon="9.108249995974658" id="-21966">
		<tag k="alt_name" v="Åstjørn" />
		<tag k="name" v="Åstjønn" />
		<tag k="natural" v="water" />
		<tag k="ssr:stedsnr" v="63350" />
	</node>
	<node lat="59.49861111048839" lon="8.981861109594576" id="-21976">
		<tag k="alt_name" v="Snotjørn" />
		<tag k="name" v="Snotjønn" />
		<tag k="natural" v="water" />
		<tag k="ssr:stedsnr" v="63595" />
	</node>
	<node lat="59.38137222531364" lon="8.999374996882281" id="-21987">
		<tag k="name" v="Dagstjønn" />
		<tag k="natural" v="water" />
		<tag k="ssr:stedsnr" v="85055" />
	</node>
	<node lat="59.5086222227649" lon="9.125613897261927" id="-22005">
		<tag k="name" v="Vatnardammen" />
		<tag k="ssr:stedsnr" v="86755" />
		<tag k="waterway" v="dam" />
	</node>
	<node lat="59.5102777809404" lon="9.012755555147551" id="-22010">
		<tag k="name" v="Flåbekk" />
		<tag k="ssr:stedsnr" v="87570" />
		<tag k="waterway" v="stream" />
	</node>
	<node lat="59.52429444113168" lon="9.011494438810374" id="-22011">
		<tag k="name" v="Løkjinfossen" />
		<tag k="natural" v="waterfall" />
		<tag k="ssr:stedsnr" v="87620" />
	</node>
	<node lat="59.43586388971886" lon="8.946166672911028" id="-22025">
		<tag k="name" v="Blåtjønn" />
		<tag k="natural" v="water" />
		<tag k="ssr:stedsnr" v="89817" />
	</node>
	<node lat="59.48377222217385" lon="8.913702785760131" id="-22029">
		<tag k="name" v="Repetjønn" />
		<tag k="natural" v="water" />
		<tag k="ssr:stedsnr" v="89981" />
	</node>
	<node lat="59.43295555782429" lon="9.182366664085277" id="-22043">
		<tag k="name" v="Damtjønn dam" />
		<tag k="ssr:stedsnr" v="104445" />
		<tag k="waterway" v="dam" />
	</node>
	<node lat="59.360658330957165" lon="9.369200007866121" id="-22045">
		<tag k="name" v="Hellebardbekken" />
		<tag k="ssr:stedsnr" v="104461" />
		<tag k="waterway" v="stream" />
	</node>
	<node lat="59.407388889161766" lon="9.355477783217161" id="-22054">
		<tag k="name" v="Børtevassbekken" />
		<tag k="ssr:stedsnr" v="104331" />
		<tag k="waterway" v="stream" />
	</node>
	<node lat="59.41931111131587" lon="9.222597230300485" id="-22066">
		<tag k="name" v="Kålstulbekken" />
		<tag k="ssr:stedsnr" v="105632" />
		<tag k="waterway" v="stream" />
	</node>
	<node lat="59.34820277945173" lon="8.891430559309448" id="-22073">
		<tag k="alt_name" v="Stroktjørn" />
		<tag k="name" v="Stroktjønn" />
		<tag k="natural" v="water" />
		<tag k="ssr:stedsnr" v="123278" />
	</node>
	<node lat="59.36014999622868" lon="9.296825005613101" id="-22074">
		<tag k="alt_name" v="Ormtjørn" />
		<tag k="name" v="Ormetjønn" />
		<tag k="natural" v="water" />
		<tag k="ssr:stedsnr" v="123832" />
	</node>
	<node lat="59.36192221783898" lon="9.301252781721486" id="-22075">
		<tag k="alt_name" v="Ulevatn" />
		<tag k="name" v="Ulavatnet" />
		<tag k="natural" v="water" />
		<tag k="ssr:stedsnr" v="123835" />
	</node>
	<node lat="59.34951389062434" lon="9.283530562180125" id="-22076">
		<tag k="alt_name" v="Serketjørn" />
		<tag k="name" v="Vesle Damtjønn" />
		<tag k="natural" v="water" />
		<tag k="ssr:stedsnr" v="123850" />
	</node>
	<node lat="59.38815277999205" lon="8.960622221855989" id="-22081">
		<tag k="alt_name" v="Jønnebergtjørna" />
		<tag k="name" v="Jønnebergtjønna" />
		<tag k="natural" v="water" />
		<tag k="ssr:stedsnr" v="123345" />
	</node>
	<node lat="59.50327777506616" lon="8.973319450257026" id="-22102">
		<tag k="alt_name" v="Storsteintjørna" />
		<tag k="name" v="Storsteintjønna" />
		<tag k="natural" v="water" />
		<tag k="ssr:stedsnr" v="124339" />
	</node>
	<node lat="59.466222219659144" lon="9.152491658036519" id="-22112">
		<tag k="name" v="Bjorholet" />
		<tag k="natural" v="bay" />
		<tag k="ssr:stedsnr" v="146898" />
	</node>
	<node lat="59.505877774801974" lon="9.016505563901209" id="-22135">
		<tag k="name" v="Langerenne" />
		<tag k="ssr:stedsnr" v="147486" />
		<tag k="waterway" v="stream" />
	</node>
	<node lat="59.47888332916049" lon="8.932630549328517" id="-22154">
		<tag k="name" v="Repetjønnbekken" />
		<tag k="ssr:stedsnr" v="149987" />
		<tag k="waterway" v="stream" />
	</node>
	<node lat="59.469788888461544" lon="9.302008335169678" id="-22162">
		<tag k="name" v="Tollefsodden" />
		<tag k="natural" v="cape" />
		<tag k="ssr:stedsnr" v="164601" />
	</node>
	<node lat="59.41061388618622" lon="9.300463890237593" id="-22172">
		<tag k="name" v="Kopperberget" />
		<tag k="place" v="locality" />
		<tag k="ssr:stedsnr" v="165009" />
	</node>
	<node lat="59.38380000289771" lon="9.337805563924945" id="-22173">
		<tag k="name" v="Gvarvar-vika" />
		<tag k="natural" v="bay" />
		<tag k="ssr:stedsnr" v="165026" />
	</node>
	<node lat="59.485883337144365" lon="9.217211113569736" id="-22176">
		<tag k="name" v="Breidstul-bekken" />
		<tag k="ssr:stedsnr" v="165057" />
		<tag k="waterway" v="stream" />
	</node>
	<node lat="59.358822223557596" lon="9.24641111480679" id="-22177">
		<tag k="name" v="Store Tjodholmen" />
		<tag k="place" v="islet" />
		<tag k="ssr:stedsnr" v="164815" />
	</node>
	<node lat="59.48203610800571" lon="9.381716667658255" id="-22184">
		<tag k="name" v="Sæterdalsbekken" />
		<tag k="ssr:stedsnr" v="165568" />
		<tag k="waterway" v="stream" />
	</node>
	<node lat="59.4324111095979" lon="9.308961110105416" id="-22185">
		<tag k="name" v="Blodstreng" />
		<tag k="place" v="locality" />
		<tag k="ssr:stedsnr" v="165605" />
	</node>
	<node lat="59.48245555209794" lon="9.274572213755302" id="-22195">
		<tag k="alt_name" v="Damtjørn" />
		<tag k="name" v="Damtjønn" />
		<tag k="natural" v="water" />
		<tag k="ssr:stedsnr" v="184033" />
	</node>
	<node lat="59.371211114996406" lon="9.151022230736812" id="-22197">
		<tag k="alt_name" v="Sulukolltjørna" />
		<tag k="name" v="Sulukolltjønn" />
		<tag k="natural" v="water" />
		<tag k="ssr:stedsnr" v="184292" />
	</node>
	<node lat="59.38632222347032" lon="9.117469447387588" id="-22201">
		<tag k="alt_name" v="Damtjørn, store" />
		<tag k="name" v="Store Damtjønn" />
		<tag k="natural" v="water" />
		<tag k="ssr:stedsnr" v="184321" />
	</node>
	<node lat="59.46589166791492" lon="9.14270832804003" id="-22214">
		<tag k="name" v="Løken" />
		<tag k="natural" v="water" />
		<tag k="ssr:stedsnr" v="184491" />
	</node>
	<node lat="59.48510278182932" lon="8.912588892300345" id="-22216">
		<tag k="alt_name" v="Repetjørnan" />
		<tag k="name" v="Repetjønn" />
		<tag k="natural" v="water" />
		<tag k="ssr:stedsnr" v="184579" />
	</node>
	<node lat="59.39931110861343" lon="9.353338882660697" id="-22221">
		<tag k="name" v="Landtjørn" />
		<tag k="natural" v="water" />
		<tag k="ssr:stedsnr" v="184876" />
	</node>
	<node lat="59.414788893354014" lon="9.234811106659961" id="-22222">
		<tag k="alt_name" v="Langtjørn" />
		<tag k="name" v="Langetjønn" />
		<tag k="natural" v="water" />
		<tag k="ssr:stedsnr" v="184989" />
	</node>
	<node lat="59.41881666954351" lon="9.227127782913945" id="-22223">
		<tag k="alt_name" v="Damtjørn" />
		<tag k="name" v="Holtan Damtjønn" />
		<tag k="natural" v="water" />
		<tag k="ssr:stedsnr" v="184993" />
	</node>
	<node lat="59.369427776459396" lon="8.895386116666112" id="-22260">
		<tag k="name" v="Suggetjønn" />
		<tag k="natural" v="water" />
		<tag k="ssr:stedsnr" v="210049" />
		<tag k="water" v="pond" />
	</node>
	<node lat="59.468947220613664" lon="8.977772218488422" id="-22265">
		<tag k="name" v="Vihusfossen" />
		<tag k="natural" v="waterfall" />
		<tag k="ssr:stedsnr" v="210716" />
	</node>
	<node lat="59.456408336023095" lon="8.91007499964123" id="-22271">
		<tag k="name" v="Gullbekk" />
		<tag k="ssr:stedsnr" v="210964" />
		<tag k="waterway" v="stream" />
	</node>
	<node lat="59.381819447860316" lon="9.355822223977999" id="-22274">
		<tag k="name" v="Vihus-tjønna" />
		<tag k="natural" v="water" />
		<tag k="ssr:stedsnr" v="225375" />
	</node>
	<node lat="59.47932777566463" lon="9.275019441163245" id="-22275">
		<tag k="name" v="Damtjønn-bekken" />
		<tag k="ssr:stedsnr" v="226226" />
		<tag k="waterway" v="stream" />
	</node>
	<node lat="59.48311389266867" lon="9.268799992206757" id="-22276">
		<tag k="name" v="Ljostjønn-bekken" />
		<tag k="ssr:stedsnr" v="226228" />
		<tag k="waterway" v="stream" />
	</node>
	<node lat="59.51462499587117" lon="9.29074722096145" id="-22283">
		<tag k="name" v="Deilbekken" />
		<tag k="ssr:stedsnr" v="225145" />
		<tag k="waterway" v="stream" />
	</node>
	<node lat="59.490100002954634" lon="9.439961119104078" id="-22288">
		<tag k="name" v="Søndre Mjågesundvatn" />
		<tag k="natural" v="water" />
		<tag k="ssr:stedsnr" v="225472" />
		<tag k="water" v="lake" />
	</node>
	<node lat="59.47541111096376" lon="9.436786103619239" id="-22289">
		<tag k="name" v="Gvålstjønn" />
		<tag k="natural" v="water" />
		<tag k="ssr:stedsnr" v="225511" />
	</node>
	<node lat="59.4788388883361" lon="9.442469447679255" id="-22290">
		<tag k="name" v="Maurdalstjønn" />
		<tag k="natural" v="water" />
		<tag k="ssr:stedsnr" v="225532" />
	</node>
	<node lat="59.504119441441276" lon="9.29652499512569" id="-22291">
		<tag k="name" v="Storbukta" />
		<tag k="natural" v="bay" />
		<tag k="ssr:stedsnr" v="225818" />
	</node>
	<node lat="59.42805277565832" lon="9.347097230602573" id="-22293">
		<tag k="name" v="Kvennhus-bekken" />
		<tag k="ssr:stedsnr" v="225673" />
		<tag k="waterway" v="stream" />
	</node>
	<node lat="59.39782221796902" lon="9.264752776814058" id="-22306">
		<tag k="name" v="Leirbakk-evju" />
		<tag k="natural" v="bay" />
		<tag k="ssr:stedsnr" v="226622" />
	</node>
	<node lat="59.39605833365181" lon="9.262755550394647" id="-22307">
		<tag k="name" v="Kåsa-øyren" />
		<tag k="natural" v="shoal" />
		<tag k="ssr:stedsnr" v="226626" />
	</node>
	<node lat="59.47649722216072" lon="9.216683325201485" id="-22311">
		<tag k="name" v="Kåmmår-bekken" />
		<tag k="ssr:stedsnr" v="286239" />
		<tag k="waterway" v="stream" />
	</node>
	<node lat="59.46938888690891" lon="9.214813888891186" id="-22312">
		<tag k="name" v="Grånmåså-bekken" />
		<tag k="ssr:stedsnr" v="286244" />
		<tag k="waterway" v="stream" />
	</node>
	<node lat="59.42039722280965" lon="9.158502770022219" id="-22313">
		<tag k="name" v="Kisfoss" />
		<tag k="natural" v="waterfall" />
		<tag k="ssr:stedsnr" v="286261" />
	</node>
	<node lat="59.472380554275325" lon="9.415911104164618" id="-22327">
		<tag k="name" v="Tonebekkevju" />
		<tag k="place" v="locality" />
		<tag k="ssr:stedsnr" v="286413" />
	</node>
	<node lat="59.46629999976278" lon="9.410625000231285" id="-22329">
		<tag k="name" v="Hålåtjønn-bekken" />
		<tag k="ssr:stedsnr" v="286490" />
		<tag k="waterway" v="stream" />
	</node>
	<node lat="59.471980558023226" lon="9.432341664015539" id="-22330">
		<tag k="name" v="Sauetjønn" />
		<tag k="natural" v="water" />
		<tag k="ssr:stedsnr" v="286492" />
	</node>
	<node lat="59.46676944711959" lon="9.365586114815203" id="-22334">
		<tag k="name" v="Åbakk-åa" />
		<tag k="ssr:stedsnr" v="286593" />
		<tag k="waterway" v="stream" />
	</node>
	<node lat="59.3543722230333" lon="9.256952779531886" id="-22337">
		<tag k="name" v="Stangoddbukta" />
		<tag k="natural" v="bay" />
		<tag k="ssr:stedsnr" v="286921" />
	</node>
	<node lat="59.42179722261178" lon="9.301838892400758" id="-22340">
		<tag k="name" v="Kastdalsbekken" />
		<tag k="ssr:stedsnr" v="286961" />
		<tag k="waterway" v="stream" />
	</node>
	<node lat="59.366088885067285" lon="8.98481944724084" id="-22356">
		<tag k="alt_name" v="Svarttjørn" />
		<tag k="name" v="Svarttjønn" />
		<tag k="natural" v="water" />
		<tag k="ssr:stedsnr" v="305299" />
	</node>
	<node lat="59.497091664089155" lon="9.2077416739183" id="-22364">
		<tag k="alt_name" v="Blomtjørn, store" />
		<tag k="name" v="Store Blomtjønn" />
		<tag k="natural" v="water" />
		<tag k="ssr:stedsnr" v="305629" />
	</node>
	<node lat="59.4846416692969" lon="8.935772223414466" id="-22366">
		<tag k="alt_name" v="Lislestulåa" />
		<tag k="name" v="Gjuvsåa" />
		<tag k="ssr:stedsnr" v="305656" />
		<tag k="waterway" v="river" />
	</node>
	<node lat="59.38887222154074" lon="8.846261119532002" id="-22371">
		<tag k="alt_name" v="Ruboltjørni" />
		<tag k="loc_name" v="Rugbøla" />
		<tag k="name" v="Rubøltjønn" />
		<tag k="natural" v="water" />
		<tag k="ssr:stedsnr" v="305758" />
		<tag k="water" v="lake" />
	</node>
	<node lat="59.48136110686626" lon="9.46602778403678" id="-22375">
		<tag k="name" v="Surtetjørn" />
		<tag k="natural" v="water" />
		<tag k="ssr:stedsnr" v="306044" />
	</node>
	<node lat="59.46630833093366" lon="9.098958336503072" id="-22382">
		<tag k="name" v="Høgfoss" />
		<tag k="natural" v="waterfall" />
		<tag k="ssr:stedsnr" v="306444" />
	</node>
	<node lat="59.46228055153851" lon="9.175277786004708" id="-22399">
		<tag k="name" v="Nedre Rennetjønn" />
		<tag k="natural" v="water" />
		<tag k="ssr:stedsnr" v="329948" />
	</node>
	<node lat="59.41252222672134" lon="8.936149999541131" id="-22404">
		<tag k="name" v="Eriksteintjønna" />
		<tag k="natural" v="water" />
		<tag k="ssr:stedsnr" v="330139" />
	</node>
	<node lat="59.43506666769057" lon="8.928741673902596" id="-22416">
		<tag k="name" v="Hanakamtjønna" />
		<tag k="natural" v="water" />
		<tag k="ssr:stedsnr" v="331822" />
	</node>
	<node lat="59.45476944556399" lon="9.251947217639518" id="-22426">
		<tag k="name" v="Ølbekk" />
		<tag k="ssr:stedsnr" v="346139" />
		<tag k="waterway" v="stream" />
	</node>
	<node lat="59.49195000150771" lon="9.30354166599732" id="-22427">
		<tag k="name" v="Deilodden" />
		<tag k="natural" v="cape" />
		<tag k="ssr:stedsnr" v="346091" />
	</node>
	<node lat="59.34306667051189" lon="9.204522228725331" id="-22435">
		<tag k="name" v="Åråsbekken" />
		<tag k="ssr:stedsnr" v="347039" />
		<tag k="waterway" v="stream" />
	</node>
	<node lat="59.49628333155467" lon="9.209452770381771" id="-22439">
		<tag k="name" v="Blomtjønnbekken" />
		<tag k="ssr:stedsnr" v="347052" />
		<tag k="waterway" v="stream" />
	</node>
	<node lat="59.45799166848351" lon="9.251975000143654" id="-22440">
		<tag k="name" v="Strikine" />
		<tag k="ssr:stedsnr" v="346142" />
		<tag k="waterway" v="river" />
	</node>
	<node lat="59.46201389269822" lon="9.422650001243825" id="-22444">
		<tag k="name" v="Prestebukta" />
		<tag k="natural" v="bay" />
		<tag k="ssr:stedsnr" v="346431" />
	</node>
	<node lat="59.47508610738751" lon="9.41542778334135" id="-22445">
		<tag k="name" v="Tonebekk" />
		<tag k="ssr:stedsnr" v="346437" />
		<tag k="waterway" v="stream" />
	</node>
	<node lat="59.44331666459114" lon="9.181886116976587" id="-22465">
		<tag k="name" v="Øvre Dipilen" />
		<tag k="natural" v="water" />
		<tag k="ssr:stedsnr" v="347335" />
	</node>
	<node lat="59.44455833770472" lon="9.178847227351554" id="-22466">
		<tag k="name" v="Tveitvass-dammen" />
		<tag k="ssr:stedsnr" v="347336" />
		<tag k="waterway" v="dam" />
	</node>
	<node lat="59.44233333087128" lon="9.181369444638516" id="-22467">
		<tag k="name" v="Nedre Dipilen" />
		<tag k="natural" v="water" />
		<tag k="ssr:stedsnr" v="347337" />
	</node>
	<node lat="59.45698333676519" lon="9.226080553992109" id="-22468">
		<tag k="name" v="Versmustjønn" />
		<tag k="natural" v="water" />
		<tag k="ssr:stedsnr" v="347339" />
	</node>
	<node lat="59.45781389092823" lon="9.189438897556226" id="-22469">
		<tag k="name" v="Blekktjønn" />
		<tag k="natural" v="water" />
		<tag k="ssr:stedsnr" v="347348" />
	</node>
	<node lat="59.40775000066027" lon="9.292461109675557" id="-22471">
		<tag k="name" v="Sagevju" />
		<tag k="place" v="locality" />
		<tag k="ssr:stedsnr" v="347134" />
	</node>
	<node lat="59.341063886653664" lon="9.286666665769877" id="-22474">
		<tag k="name" v="Strævbekken" />
		<tag k="ssr:stedsnr" v="347265" />
		<tag k="waterway" v="stream" />
	</node>
	<node lat="59.22495000190169" lon="9.459116669293284" id="-22481">
		<tag k="name" v="Norsjø" />
		<tag k="natural" v="water" />
		<tag k="ssr:stedsnr" v="365936" />
		<tag k="water" v="lake" />
	</node>
	<node lat="59.454305555556076" lon="9.151724994641256" id="-22488">
		<tag k="alt_name" v="Skardsdalstjørna" />
		<tag k="name" v="Skarsdalstjønna" />
		<tag k="natural" v="water" />
		<tag k="ssr:stedsnr" v="366459" />
	</node>
	<node lat="59.43488333673975" lon="8.936888880928068" id="-22490">
		<tag k="alt_name" v="Gråndalstjørna" />
		<tag k="name" v="Gråndalstjønna" />
		<tag k="natural" v="water" />
		<tag k="ssr:stedsnr" v="366468" />
	</node>
	<node lat="59.376119444055895" lon="9.30106943718832" id="-22503">
		<tag k="alt_name" v="Bånntjørn" />
		<tag k="name" v="Bånetjønn" />
		<tag k="natural" v="water" />
		<tag k="ssr:stedsnr" v="366917" />
	</node>
	<node lat="59.38075832917058" lon="8.88981945314301" id="-22509">
		<tag k="name" v="Stuttjønn" />
		<tag k="natural" v="water" />
		<tag k="ssr:stedsnr" v="388143" />
	</node>
	<node lat="59.36914721992241" lon="8.874961109273814" id="-22510">
		<tag k="name" v="Rogndalsbekken" />
		<tag k="ssr:stedsnr" v="388172" />
		<tag k="waterway" v="stream" />
	</node>
	<node lat="59.48816111146078" lon="8.968997229719646" id="-22514">
		<tag k="name" v="Okslafoss" />
		<tag k="natural" v="waterfall" />
		<tag k="ssr:stedsnr" v="388910" />
	</node>
	<node lat="59.430930557563414" lon="9.05855277682066" id="-22537">
		<tag k="name" v="Berghølfoss" />
		<tag k="natural" v="waterfall" />
		<tag k="ssr:stedsnr" v="390556" />
	</node>
	<node lat="59.455055559795134" lon="9.307216674809341" id="-22561">
		<tag k="name" v="Klevar-bukta" />
		<tag k="natural" v="bay" />
		<tag k="ssr:stedsnr" v="407277" />
	</node>
	<node lat="59.48923610808349" lon="9.431197217166806" id="-22562">
		<tag k="name" v="Svart-tjønn" />
		<tag k="natural" v="water" />
		<tag k="ssr:stedsnr" v="407480" />
	</node>
	<node lat="59.40530833095093" lon="9.291077785236526" id="-22563">
		<tag k="name" v="Suigardsevju" />
		<tag k="place" v="locality" />
		<tag k="ssr:stedsnr" v="407142" />
	</node>
	<node lat="59.404030559692806" lon="9.347016668532918" id="-22570">
		<tag k="name" v="Ådalsåa" />
		<tag k="ssr:stedsnr" v="407368" />
		<tag k="waterway" v="stream" />
	</node>
	<node lat="59.379044445462796" lon="9.346311117204024" id="-22571">
		<tag k="name" v="Smalsund" />
		<tag k="natural" v="strait" />
		<tag k="ssr:stedsnr" v="407379" />
	</node>
	<node lat="59.345241663856015" lon="9.297622230822126" id="-22575">
		<tag k="name" v="Gravtjønn" />
		<tag k="natural" v="water" />
		<tag k="ssr:stedsnr" v="407306" />
	</node>
	<node lat="59.467994446920876" lon="9.437069438061496" id="-22579">
		<tag k="name" v="Sponliodden" />
		<tag k="natural" v="cape" />
		<tag k="ssr:stedsnr" v="407522" />
	</node>
	<node lat="59.3995027791042" lon="9.275288894074375" id="-22580">
		<tag k="name" v="Kald-evju" />
		<tag k="natural" v="bay" />
		<tag k="ssr:stedsnr" v="407524" />
	</node>
	<node lat="59.47174444626765" lon="9.434080556568912" id="-22581">
		<tag k="name" v="Sauebekken" />
		<tag k="ssr:stedsnr" v="407526" />
		<tag k="waterway" v="stream" />
	</node>
	<node lat="59.471005558167114" lon="9.440955550352994" id="-22583">
		<tag k="name" v="Flisholmen" />
		<tag k="place" v="islet" />
		<tag k="ssr:stedsnr" v="407528" />
	</node>
	<node lat="59.43057499922468" lon="9.39719443881774" id="-22585">
		<tag k="name" v="Ellartjønn" />
		<tag k="natural" v="water" />
		<tag k="ssr:stedsnr" v="407728" />
	</node>
	<node lat="59.4508194432892" lon="9.396194445921745" id="-22586">
		<tag k="name" v="Svarttjønnbekken" />
		<tag k="ssr:stedsnr" v="407736" />
		<tag k="waterway" v="stream" />
	</node>
	<node lat="59.46834444140072" lon="9.44364166685103" id="-22588">
		<tag k="name" v="Repsund" />
		<tag k="natural" v="strait" />
		<tag k="ssr:stedsnr" v="407548" />
	</node>
	<node lat="59.46944722379521" lon="9.304397220722242" id="-22589">
		<tag k="name" v="Vesle Kråka" />
		<tag k="place" v="islet" />
		<tag k="ssr:stedsnr" v="407578" />
	</node>
	<node lat="59.49692778029226" lon="9.290152782006821" id="-22592">
		<tag k="name" v="Haukedalsbekken" />
		<tag k="ssr:stedsnr" v="407839" />
		<tag k="waterway" v="stream" />
	</node>
	<node lat="59.48810555454152" lon="9.260474992998665" id="-22596">
		<tag k="name" v="Deiltjønn" />
		<tag k="natural" v="water" />
		<tag k="ssr:stedsnr" v="408031" />
	</node>
	<node lat="59.47092222426275" lon="9.316875008822391" id="-22600">
		<tag k="name" v="Sandvik" />
		<tag k="natural" v="bay" />
		<tag k="ssr:stedsnr" v="407974" />
	</node>
	<node lat="59.476105553728914" lon="9.317775003731544" id="-22601">
		<tag k="name" v="Hissebekk" />
		<tag k="ssr:stedsnr" v="407986" />
		<tag k="waterway" v="stream" />
	</node>
	<node lat="59.459472608253506" lon="9.184602335018244" id="-22605">
		<tag k="name" v="Ostenatt-tjønn" />
		<tag k="natural" v="water" />
		<tag k="ssr:stedsnr" v="408380" />
	</node>
	<node lat="59.45218055329593" lon="9.314083328956311" id="-22608">
		<tag k="name" v="Bråfjorden" />
		<tag k="natural" v="water" />
		<tag k="ssr:stedsnr" v="427013" />
	</node>
	<node lat="59.408824997994515" lon="8.858761104189218" id="-22612">
		<tag k="alt_name" v="Gautiltjørna" />
		<tag k="name" v="Gautitjønna" />
		<tag k="natural" v="water" />
		<tag k="ssr:stedsnr" v="427414" />
		<tag k="water" v="lake" />
	</node>
	<node lat="59.476897224680485" lon="9.407549995278222" id="-22614">
		<tag k="alt_name" v="Damtjønn" />
		<tag k="name" v="Blekketjørn" />
		<tag k="natural" v="water" />
		<tag k="ssr:stedsnr" v="427036" />
	</node>
	<node lat="59.47133611163427" lon="9.26335834171755" id="-22616">
		<tag k="alt_name" v="Igletjørn" />
		<tag k="name" v="Igletjønn" />
		<tag k="natural" v="water" />
		<tag k="ssr:stedsnr" v="427047" />
	</node>
	<node lat="59.37748055602492" lon="8.9706638904254" id="-22623">
		<tag k="alt_name" v="Øvretjørn" />
		<tag k="name" v="Øvretjønn" />
		<tag k="natural" v="water" />
		<tag k="ssr:stedsnr" v="427358" />
	</node>
	<node lat="59.37862499612753" lon="9.12335278393674" id="-22624">
		<tag k="alt_name" v="Ljosvatn" />
		<tag k="name" v="Store Ljosvatn" />
		<tag k="natural" v="water" />
		<tag k="old_name" v="Ljostjørna, store;Store Ljostjørna" />
		<tag k="ssr:stedsnr" v="427365" />
	</node>
	<node lat="59.4330861130132" lon="9.392863887505642" id="-22634">
		<tag k="alt_name" v="Dugurdsfjelltjørn" />
		<tag k="name" v="Dugurdsfjell-tjønn" />
		<tag k="natural" v="water" />
		<tag k="ssr:stedsnr" v="427955" />
	</node>
	<node lat="59.51388611054911" lon="9.08203055136571" id="-22636">
		<tag k="name" v="Svarttjønn" />
		<tag k="natural" v="water" />
		<tag k="ssr:stedsnr" v="428437" />
	</node>
	<node lat="59.43071111140671" lon="9.062319436537189" id="-22646">
		<tag k="name" v="Berghøl" />
		<tag k="place" v="locality" />
		<tag k="ssr:stedsnr" v="511144" />
	</node>
	<node lat="59.502241664651386" lon="9.115394450225585" id="-22653">
		<tag k="name" v="Hylterhol" />
		<tag k="place" v="locality" />
		<tag k="ssr:stedsnr" v="511551" />
	</node>
	<node lat="59.38745277500761" lon="8.909436113487855" id="-22668">
		<tag k="name" v="Gramtjønn" />
		<tag k="natural" v="water" />
		<tag k="ssr:stedsnr" v="513014" />
		<tag k="water" v="pond" />
	</node>
	<node lat="59.47227778110116" lon="9.387499994451789" id="-22691">
		<tag k="name" v="Storebuløken" />
		<tag k="natural" v="water" />
		<tag k="ssr:stedsnr" v="529565" />
		<tag k="water" v="lake" />
	</node>
	<node lat="59.47349722316446" lon="9.456927770815554" id="-22692">
		<tag k="name" v="Ranten" />
		<tag k="natural" v="cape" />
		<tag k="ssr:stedsnr" v="528533" />
	</node>
	<node lat="59.465652780327765" lon="9.295316659097328" id="-22693">
		<tag k="name" v="Dalebekken" />
		<tag k="ssr:stedsnr" v="528571" />
		<tag k="waterway" v="stream" />
	</node>
	<node lat="59.483152777782166" lon="9.41133055374235" id="-22695">
		<tag k="name" v="Øvre Vetrhustjønn" />
		<tag k="natural" v="water" />
		<tag k="ssr:stedsnr" v="528458" />
	</node>
	<node lat="59.4343333323742" lon="9.362361115155359" id="-22699">
		<tag k="name" v="Gvittingen" />
		<tag k="ssr:stedsnr" v="528671" />
		<tag k="waterway" v="river" />
	</node>
	<node lat="59.45055278072444" lon="9.337030563578532" id="-22700">
		<tag k="name" v="Holts-åa" />
		<tag k="ssr:stedsnr" v="528736" />
		<tag k="waterway" v="stream" />
	</node>
	<node lat="59.48495277332222" lon="9.287522223522314" id="-22703">
		<tag k="name" v="Svarttjønn-bekken" />
		<tag k="ssr:stedsnr" v="529040" />
		<tag k="waterway" v="stream" />
=======
	<node id="-444911" lat="59.4555777822" lon="9.17667500589">
		<tag k="alt_name" v="Tveit-vatna" />
		<tag k="name" v="Tveitvatna" />
		<tag k="natural" v="water" />
		<tag k="ssr:stedsnr" v="245474" />
		<tag k="water" v="lake" />
	</node>
	<node id="-446958" lat="59.4508194433" lon="9.39619444592">
		<tag k="name" v="Svarttjønnbekken" />
		<tag k="ssr:stedsnr" v="407736" />
		<tag k="waterway" v="stream" />
	</node>
	<node id="-446957" lat="59.4305749992" lon="9.39719443882">
		<tag k="name" v="Ellartjønn" />
		<tag k="natural" v="water" />
		<tag k="ssr:stedsnr" v="407728" />
	</node>
	<node id="-446955" lat="59.4683444414" lon="9.44364166685">
		<tag k="name" v="Repsund" />
		<tag k="natural" v="strait" />
		<tag k="ssr:stedsnr" v="407548" />
	</node>
	<node id="-446953" lat="59.4710055582" lon="9.44095555035">
		<tag k="name" v="Flisholmen" />
		<tag k="place" v="islet" />
		<tag k="ssr:stedsnr" v="407528" />
	</node>
	<node id="-446951" lat="59.4458805571" lon="9.21464722503">
		<tag k="name" v="Heståsbekken" />
		<tag k="ssr:stedsnr" v="407348" />
		<tag k="waterway" v="stream" />
	</node>
	<node id="-444902" lat="59.3898750025" lon="9.0503499988">
		<tag k="alt_name" v="Rosbekken" />
		<tag k="name" v="Roebekken" />
		<tag k="ssr:stedsnr" v="245303" />
		<tag k="waterway" v="stream" />
	</node>
	<node id="-446948" lat="59.4694472238" lon="9.30439722072">
		<tag k="name" v="Vesle Kråka" />
		<tag k="place" v="islet" />
		<tag k="ssr:stedsnr" v="407578" />
	</node>
	<node id="-446947" lat="59.4892361081" lon="9.43119721717">
		<tag k="name" v="Svart-tjønn" />
		<tag k="natural" v="water" />
		<tag k="ssr:stedsnr" v="407480" />
	</node>
	<node id="-444898" lat="59.4626527741" lon="9.22398056339">
		<tag k="alt_name" v="Bråtatjørn" />
		<tag k="name" v="Bråtåtjønn" />
		<tag k="natural" v="water" />
		<tag k="ssr:stedsnr" v="245026" />
	</node>
	<node id="-446945" lat="59.3790444455" lon="9.3463111172">
		<tag k="name" v="Smalsund" />
		<tag k="natural" v="strait" />
		<tag k="ssr:stedsnr" v="407379" />
	</node>
	<node id="-446941" lat="59.405308331" lon="9.29107778524">
		<tag k="name" v="Suigardsevju" />
		<tag k="place" v="locality" />
		<tag k="ssr:stedsnr" v="407142" />
	</node>
	<node id="-444891" lat="59.4689472206" lon="8.97777221849">
		<tag k="name" v="Vihusfossen" />
		<tag k="natural" v="waterfall" />
		<tag k="ssr:stedsnr" v="210716" />
	</node>
	<node id="-444890" lat="59.4303916699" lon="8.92870278146">
		<tag k="name" v="Gråndalsbekken" />
		<tag k="ssr:stedsnr" v="210828" />
		<tag k="waterway" v="stream" />
	</node>
	<node id="-446932" lat="59.4315166709" lon="8.91645833946">
		<tag k="name" v="Karistulbekken" />
		<tag k="ssr:stedsnr" v="392843" />
		<tag k="waterway" v="stream" />
	</node>
	<node id="-444881" lat="59.4217972226" lon="9.3018388924">
		<tag k="name" v="Kastdalsbekken" />
		<tag k="ssr:stedsnr" v="286961" />
		<tag k="waterway" v="stream" />
	</node>
	<node id="-446927" lat="59.4835916678" lon="9.05956110521">
		<tag k="name" v="Veslehol" />
		<tag k="ssr:stedsnr" v="392444" />
		<tag k="waterway" v="rapids" />
	</node>
	<node id="-446921" lat="59.5079583378" lon="9.03189166439">
		<tag k="name" v="Slåttahølen" />
		<tag k="natural" v="water" />
		<tag k="ssr:stedsnr" v="390545" />
		<tag k="water" v="lake" />
	</node>
	<node id="-446920" lat="59.5158694469" lon="9.01817777113">
		<tag k="name" v="Veslefossen" />
		<tag k="natural" v="waterfall" />
		<tag k="ssr:stedsnr" v="390543" />
	</node>
	<node id="-444870" lat="59.4824555521" lon="9.27457221376">
		<tag k="alt_name" v="Damtjørn" />
		<tag k="name" v="Damtjønn" />
		<tag k="natural" v="water" />
		<tag k="ssr:stedsnr" v="184033" />
	</node>
	<node id="-446915" lat="59.4121111134" lon="8.87468055938">
		<tag k="name" v="Gautilbekken" />
		<tag k="ssr:stedsnr" v="390150" />
		<tag k="waterway" v="stream" />
	</node>
	<node id="-444863" lat="59.4667694471" lon="9.36558611482">
		<tag k="name" v="Åbakk-åa" />
		<tag k="ssr:stedsnr" v="286593" />
		<tag k="waterway" v="stream" />
	</node>
	<node id="-444862" lat="59.471980558" lon="9.43234166402">
		<tag k="name" v="Sauetjønn" />
		<tag k="natural" v="water" />
		<tag k="ssr:stedsnr" v="286492" />
	</node>
	<node id="-446909" lat="59.4103833358" lon="9.10735000524">
		<tag k="name" v="Åsgravhølen" />
		<tag k="place" v="locality" />
		<tag k="ssr:stedsnr" v="389702" />
	</node>
	<node id="-444857" lat="59.4693888869" lon="9.21481388889">
		<tag k="name" v="Grånmåså-bekken" />
		<tag k="ssr:stedsnr" v="286244" />
		<tag k="waterway" v="stream" />
	</node>
	<node id="-444856" lat="59.4764972222" lon="9.2166833252">
		<tag k="name" v="Kåmmår-bekken" />
		<tag k="ssr:stedsnr" v="286239" />
		<tag k="waterway" v="stream" />
	</node>
	<node id="-444855" lat="59.4762472232" lon="9.22184721647">
		<tag k="name" v="Stuls-bekken" />
		<tag k="ssr:stedsnr" v="286238" />
		<tag k="waterway" v="stream" />
	</node>
	<node id="-444851" lat="59.4203972228" lon="9.15850277002">
		<tag k="name" v="Kisfoss" />
		<tag k="natural" v="waterfall" />
		<tag k="ssr:stedsnr" v="286261" />
	</node>
	<node id="-444850" lat="59.4618694424" lon="9.25621945013">
		<tag k="name" v="Fossenn" />
		<tag k="natural" v="waterfall" />
		<tag k="ssr:stedsnr" v="286182" />
	</node>
	<node id="-446896" lat="59.4298305524" lon="9.11944444624">
		<tag k="name" v="Tunnebekk" />
		<tag k="ssr:stedsnr" v="389297" />
		<tag k="waterway" v="stream" />
	</node>
	<node id="-446891" lat="59.3807583292" lon="8.88981945314">
		<tag k="name" v="Stuttjønn" />
		<tag k="natural" v="water" />
		<tag k="ssr:stedsnr" v="388143" />
	</node>
	<node id="-444842" lat="59.4119472248" lon="9.30203055181">
		<tag k="name" v="Sauar-elva" />
		<tag k="ssr:stedsnr" v="165909" />
		<tag k="waterway" v="river" />
	</node>
	<node id="-444841" lat="59.4324111096" lon="9.30896111011">
		<tag k="name" v="Blodstreng" />
		<tag k="place" v="locality" />
		<tag k="ssr:stedsnr" v="165605" />
	</node>
	<node id="-444838" lat="59.4858833371" lon="9.21721111357">
		<tag k="name" v="Breidstul-bekken" />
		<tag k="ssr:stedsnr" v="165057" />
		<tag k="waterway" v="stream" />
	</node>
	<node id="-444837" lat="59.3838000029" lon="9.33780556392">
		<tag k="name" v="Gvarvar-vika" />
		<tag k="natural" v="bay" />
		<tag k="ssr:stedsnr" v="165026" />
	</node>
	<node id="-444836" lat="59.4106138862" lon="9.30046389024">
		<tag k="name" v="Kopperberget" />
		<tag k="place" v="locality" />
		<tag k="ssr:stedsnr" v="165009" />
	</node>
	<node id="-446882" lat="59.4134749989" lon="9.24117499837">
		<tag k="name" v="Åstjørn" />
		<tag k="natural" v="water" />
		<tag k="ssr:stedsnr" v="366988" />
	</node>
	<node id="-444831" lat="59.3588222236" lon="9.24641111481">
		<tag k="name" v="Store Tjodholmen" />
		<tag k="place" v="islet" />
		<tag k="ssr:stedsnr" v="164815" />
	</node>
	<node id="-444830" lat="59.4658638862" lon="9.30333055739">
		<tag k="name" v="Gvannes-bukta" />
		<tag k="natural" v="bay" />
		<tag k="ssr:stedsnr" v="164604" />
	</node>
	<node id="-446875" lat="59.3761194441" lon="9.30106943719">
		<tag k="alt_name" v="Bånntjørn" />
		<tag k="name" v="Bånetjønn" />
		<tag k="natural" v="water" />
		<tag k="ssr:stedsnr" v="366917" />
	</node>
	<node id="-444825" lat="59.3959555563" lon="9.37905555654">
		<tag k="name" v="Nedre Lauvrostjønn" />
		<tag k="natural" v="water" />
		<tag k="ssr:stedsnr" v="164424" />
	</node>
	<node id="-444824" lat="59.3833888925" lon="9.33286666195">
		<tag k="name" v="Stronka" />
		<tag k="natural" v="beach" />
		<tag k="ssr:stedsnr" v="164277" />
	</node>
	<node id="-444823" lat="59.3829805553" lon="9.32224444864">
		<tag k="name" v="Igletjønnbekken" />
		<tag k="ssr:stedsnr" v="164261" />
		<tag k="waterway" v="stream" />
	</node>
	<node id="-444819" lat="59.4410333314" lon="8.99518332583">
		<tag k="name" v="Smærstulbekken" />
		<tag k="ssr:stedsnr" v="149869" />
		<tag k="waterway" v="stream" />
	</node>
	<node id="-444649" lat="59.3960583337" lon="9.26275555039">
		<tag k="name" v="Kåsa-øyren" />
		<tag k="natural" v="shoal" />
		<tag k="place" v="locality" />
		<tag k="ssr:stedsnr" v="226626" />
	</node>
	<node id="-446862" lat="59.4929611139" lon="8.98143888077">
		<tag k="alt_name" v="Sleivtjørn" />
		<tag k="name" v="Sleivtjønn" />
		<tag k="natural" v="water" />
		<tag k="ssr:stedsnr" v="366596" />
	</node>
	<node id="-446860" lat="59.4861055566" lon="8.94665555443">
		<tag k="alt_name" v="Kloppesteintjørna" />
		<tag k="name" v="Kloppesteintjønn" />
		<tag k="natural" v="water" />
		<tag k="ssr:stedsnr" v="366579" />
	</node>
	<node id="-446858" lat="59.4348833367" lon="8.93688888093">
		<tag k="alt_name" v="Gråndalstjørna" />
		<tag k="name" v="Gråndalstjønna" />
		<tag k="natural" v="water" />
		<tag k="ssr:stedsnr" v="366468" />
	</node>
	<node id="-446856" lat="59.4543055556" lon="9.15172499464">
		<tag k="alt_name" v="Skardsdalstjørna" />
		<tag k="name" v="Skarsdalstjønna" />
		<tag k="natural" v="water" />
		<tag k="ssr:stedsnr" v="366459" />
	</node>
	<node id="-446844" lat="59.3814944442" lon="9.18697223098">
		<tag k="alt_name" v="Gvarv-elva" />
		<tag k="name" v="Gvarvelva" />
		<tag k="ssr:stedsnr" v="366324" />
		<tag k="waterway" v="river" />
	</node>
	<node id="-444794" lat="59.4710888903" lon="8.933494445">
		<tag k="name" v="Langetjønnbekken" />
		<tag k="ssr:stedsnr" v="271924" />
		<tag k="waterway" v="stream" />
	</node>
	<node id="-444793" lat="59.4323277749" lon="8.87400278618">
		<tag k="name" v="Herrefosstangen" />
		<tag k="natural" v="cape" />
		<tag k="ssr:stedsnr" v="271893" />
	</node>
	<node id="-444921" lat="59.4340750045" lon="9.04716111439">
		<tag k="name" v="Tiubekk" />
		<tag k="ssr:stedsnr" v="450571" />
		<tag k="waterway" v="stream" />
	</node>
	<node id="-446839" lat="59.2249500019" lon="9.45911666929">
		<tag k="name" v="Norsjø" />
		<tag k="natural" v="water" />
		<tag k="ssr:stedsnr" v="365936" />
		<tag k="water" v="lake" />
	</node>
	<node id="-445161" lat="59.3417722185" lon="9.27331388788">
		<tag k="name" v="Strævbekken" />
		<tag k="ssr:stedsnr" v="487861" />
		<tag k="waterway" v="stream" />
	</node>
	<node id="-446834" lat="59.4578138909" lon="9.18943889756">
		<tag k="name" v="Blekktjønn" />
		<tag k="natural" v="water" />
		<tag k="ssr:stedsnr" v="347348" />
	</node>
	<node id="-446833" lat="59.4569833368" lon="9.22608055399">
		<tag k="name" v="Versmustjønn" />
		<tag k="natural" v="water" />
		<tag k="ssr:stedsnr" v="347339" />
	</node>
	<node id="-446832" lat="59.4423333309" lon="9.18136944464">
		<tag k="name" v="Nedre Dipilen" />
		<tag k="natural" v="water" />
		<tag k="ssr:stedsnr" v="347337" />
	</node>
	<node id="-446831" lat="59.4445583377" lon="9.17884722735">
		<tag k="name" v="Tveitvass-dammen" />
		<tag k="ssr:stedsnr" v="347336" />
		<tag k="waterway" v="dam" />
	</node>
	<node id="-446830" lat="59.4433166646" lon="9.18188611698">
		<tag k="name" v="Øvre Dipilen" />
		<tag k="natural" v="water" />
		<tag k="ssr:stedsnr" v="347335" />
	</node>
	<node id="-444778" lat="59.4448333345" lon="9.0742166612">
		<tag k="name" v="Harpetjønn" />
		<tag k="natural" v="water" />
		<tag k="ssr:stedsnr" v="269296" />
	</node>
	<node id="-446825" lat="59.4077500007" lon="9.29246110968">
		<tag k="name" v="Sagevju" />
		<tag k="place" v="locality" />
		<tag k="ssr:stedsnr" v="347134" />
	</node>
	<node id="-446822" lat="59.329983331" lon="9.19363055384">
		<tag k="name" v="Storlibekken" />
		<tag k="ssr:stedsnr" v="347120" />
		<tag k="waterway" v="stream" />
	</node>
	<node id="-446817" lat="59.3430666705" lon="9.20452222873">
		<tag k="name" v="Åråsbekken" />
		<tag k="ssr:stedsnr" v="347039" />
		<tag k="waterway" v="stream" />
	</node>
	<node id="-444766" lat="59.4893361145" lon="9.10689167013">
		<tag k="name" v="Lonefoss" />
		<tag k="natural" v="waterfall" />
		<tag k="ssr:stedsnr" v="268567" />
	</node>
	<node id="-444762" lat="59.4344527812" lon="9.06461388999">
		<tag k="name" v="Helle" />
		<tag k="ssr:stedsnr" v="268134" />
		<tag k="waterway" v="stream" />
	</node>
	<node id="-444758" lat="59.3713027791" lon="9.12853889137">
		<tag k="name" v="Kringletjønn" />
		<tag k="natural" v="water" />
		<tag k="ssr:stedsnr" v="267889" />
	</node>
	<node id="-444757" lat="59.3987111154" lon="8.84852222804">
		<tag k="name" v="Trolldalstjønna" />
		<tag k="natural" v="water" />
		<tag k="ssr:stedsnr" v="267125" />
	</node>
	<node id="-444753" lat="59.5032777751" lon="8.97331945026">
		<tag k="alt_name" v="Storsteintjørna" />
		<tag k="name" v="Storsteintjønna" />
		<tag k="natural" v="water" />
		<tag k="ssr:stedsnr" v="124339" />
	</node>
	<node id="-444752" lat="59.38815278" lon="8.96062222186">
		<tag k="alt_name" v="Jønnebergtjørna" />
		<tag k="name" v="Jønnebergtjønna" />
		<tag k="natural" v="water" />
		<tag k="ssr:stedsnr" v="123345" />
	</node>
	<node id="-444748" lat="59.3753444483" lon="8.94605277327">
		<tag k="alt_name" v="Kvernabekken" />
		<tag k="name" v="Kvennebekken" />
		<tag k="ssr:stedsnr" v="123315" />
		<tag k="waterway" v="stream" />
	</node>
	<node id="-446794" lat="59.4750861074" lon="9.41542778334">
		<tag k="name" v="Tonebekk" />
		<tag k="ssr:stedsnr" v="346437" />
		<tag k="waterway" v="stream" />
	</node>
	<node id="-446793" lat="59.4620138927" lon="9.42265000124">
		<tag k="name" v="Prestebukta" />
		<tag k="natural" v="bay" />
		<tag k="ssr:stedsnr" v="346431" />
	</node>
	<node id="-444741" lat="59.3794916707" lon="9.30529443692">
		<tag k="name" v="Trengenbekken" />
		<tag k="ssr:stedsnr" v="103227" />
		<tag k="waterway" v="stream" />
	</node>
	<node id="-444731" lat="59.5086222228" lon="9.12561389726">
		<tag k="name" v="Vatnardammen" />
		<tag k="ssr:stedsnr" v="86755" />
		<tag k="waterway" v="dam" />
	</node>
	<node id="-446778" lat="59.4579916685" lon="9.25197500014">
		<tag k="name" v="Strikine" />
		<tag k="ssr:stedsnr" v="346142" />
		<tag k="waterway" v="river" />
	</node>
	<node id="-446777" lat="59.4547694456" lon="9.25194721764">
		<tag k="name" v="Ølbekk" />
		<tag k="ssr:stedsnr" v="346139" />
		<tag k="waterway" v="stream" />
	</node>
	<node id="-446775" lat="59.4919500015" lon="9.303541666">
		<tag k="name" v="Deilodden" />
		<tag k="natural" v="cape" />
		<tag k="ssr:stedsnr" v="346091" />
	</node>
	<node id="-444726" lat="59.5203888911" lon="9.06576666661">
		<tag k="alt_name" v="Trolltjørn" />
		<tag k="name" v="Trolltjønn" />
		<tag k="natural" v="water" />
		<tag k="ssr:stedsnr" v="246453" />
	</node>
	<node id="-444724" lat="59.5117388899" lon="9.05642500319">
		<tag k="name" v="Kroktjønn" />
		<tag k="natural" v="water" />
		<tag k="ssr:stedsnr" v="246442" />
	</node>
	<node id="-445150" lat="59.3410638867" lon="9.28666666577">
		<tag k="name" v="Strævbekken" />
		<tag k="ssr:stedsnr" v="347265" />
		<tag k="waterway" v="stream" />
	</node>
	<node id="-446769" lat="59.4350666677" lon="8.9287416739">
		<tag k="name" v="Hanakamtjønna" />
		<tag k="natural" v="water" />
		<tag k="ssr:stedsnr" v="331822" />
	</node>
	<node id="-444719" lat="59.4002749974" lon="8.8081055552">
		<tag k="alt_name" v="Gongetjørni" />
		<tag k="name" v="Gongevatn" />
		<tag k="natural" v="water" />
		<tag k="ssr:stedsnr" v="245976" />
		<tag k="water" v="lake" />
	</node>
	<node id="-446766" lat="59.4755472209" lon="8.97748333483">
		<tag k="name" v="Okslaåa" />
		<tag k="ssr:stedsnr" v="331654" />
		<tag k="waterway" v="river" />
	</node>
	<node id="-444717" lat="59.4331611085" lon="9.24388888381">
		<tag k="alt_name" v="Belleråstjørn" />
		<tag k="name" v="Bellerås-tjønn" />
		<tag k="natural" v="water" />
		<tag k="ssr:stedsnr" v="245947" />
	</node>
	<node id="-445148" lat="59.4962833316" lon="9.20945277038">
		<tag k="name" v="Blomtjønnbekken" />
		<tag k="ssr:stedsnr" v="347052" />
		<tag k="waterway" v="stream" />
	</node>
	<node id="-444709" lat="59.4059500002" lon="9.2861083406">
		<tag k="name" v="Saua" />
		<tag k="ssr:stedsnr" v="245880" />
		<tag k="waterway" v="river" />
	</node>
	<node id="-444708" lat="59.4041055519" lon="9.35411666111">
		<tag k="alt_name" v="Lisletjørn" />
		<tag k="name" v="Lisletjønn" />
		<tag k="natural" v="water" />
		<tag k="ssr:stedsnr" v="245877" />
	</node>
	<node id="-444707" lat="59.4753722202" lon="8.91824443791">
		<tag k="alt_name" v="Langetjørn" />
		<tag k="name" v="Langetjønn" />
		<tag k="natural" v="water" />
		<tag k="ssr:stedsnr" v="245584" />
	</node>
	<node id="-446749" lat="59.4125222267" lon="8.93614999954">
		<tag k="name" v="Eriksteintjønna" />
		<tag k="natural" v="water" />
		<tag k="ssr:stedsnr" v="330139" />
	</node>
	<node id="-444698" lat="59.3986722218" lon="8.87098889605">
		<tag k="alt_name" v="Tjørnflyene" />
		<tag k="name" v="Tjønnflyane" />
		<tag k="natural" v="water" />
		<tag k="ssr:stedsnr" v="245338" />
	</node>
	<node id="-444693" lat="59.3764339071" lon="9.03986025345">
		<tag k="alt_name" v="Åsetjørna" />
		<tag k="name" v="Åsetjønna" />
		<tag k="natural" v="water" />
		<tag k="ssr:stedsnr" v="245330" />
	</node>
	<node id="-444692" lat="59.3757416708" lon="8.901094446">
		<tag k="alt_name" v="Bjortjørn" />
		<tag k="name" v="Bjortjønn" />
		<tag k="natural" v="water" />
		<tag k="ssr:stedsnr" v="245323" />
	</node>
	<node id="-444689" lat="59.4728861127" lon="9.2394944459">
		<tag k="alt_name" v="Munketjørn" />
		<tag k="name" v="Munketjønn" />
		<tag k="natural" v="water" />
		<tag k="ssr:stedsnr" v="245044" />
	</node>
	<node id="-444688" lat="59.4615722193" lon="9.31494999537">
		<tag k="alt_name" v="Nautesund" />
		<tag k="name" v="Nautsund" />
		<tag k="natural" v="strait" />
		<tag k="ssr:stedsnr" v="245029" />
	</node>
	<node id="-445485" lat="59.4830805592" lon="9.06126111731">
		<tag k="name" v="Holefossen" />
		<tag k="natural" v="waterfall" />
		<tag k="ssr:stedsnr" v="695431" />
	</node>
	<node id="-445143" lat="59.4910416688" lon="9.12456111607">
		<tag k="alt_name" v="Smærtjørn" />
		<tag k="name" v="Smærtjønn" />
		<tag k="natural" v="water" />
		<tag k="ssr:stedsnr" v="487666" />
	</node>
	<node id="-444679" lat="59.3733277823" lon="9.33360834165">
		<tag k="alt_name" v="Svarttjørn" />
		<tag k="name" v="Svart-tjønn" />
		<tag k="natural" v="water" />
		<tag k="ssr:stedsnr" v="63816" />
	</node>
	<node id="-444678" lat="59.3668758198" lon="9.30220058107">
		<tag k="alt_name" v="Ulavatna, små" />
		<tag k="name" v="Små Ulavatna" />
		<tag k="natural" v="water" />
		<tag k="ssr:stedsnr" v="63814" />
	</node>
	<node id="-446725" lat="59.3848277794" lon="8.97601666019">
		<tag k="name" v="Rakkeholtjønnane" />
		<tag k="natural" v="water" />
		<tag k="ssr:stedsnr" v="327073" />
		<tag k="water" v="pond" />
	</node>
	<node id="-446723" lat="59.3733861146" lon="9.12583333385">
		<tag k="alt_name" v="Svarttjørn" />
		<tag k="name" v="Svarttjønn" />
		<tag k="natural" v="water" />
		<tag k="ssr:stedsnr" v="313681" />
	</node>
	<node id="-446719" lat="59.4572972249" lon="9.20466111989">
		<tag k="alt_name" v="Svartetjørn" />
		<tag k="name" v="Svarttjønn" />
		<tag k="natural" v="water" />
		<tag k="ssr:stedsnr" v="306457" />
	</node>
	<node id="-446714" lat="59.4813611069" lon="9.46602778404">
		<tag k="name" v="Surtetjørn" />
		<tag k="natural" v="water" />
		<tag k="ssr:stedsnr" v="306044" />
	</node>
	<node id="-444665" lat="59.4772861139" lon="9.02412777122">
		<tag k="name" v="Jønnbubekken" />
		<tag k="ssr:stedsnr" v="28428" />
		<tag k="waterway" v="stream" />
	</node>
	<node id="-444662" lat="59.384741665" lon="9.23371388502">
		<tag k="name" v="Megards-bekken" />
		<tag k="ssr:stedsnr" v="226711" />
		<tag k="waterway" v="stream" />
	</node>
	<node id="-444661" lat="59.3912499988" lon="9.25147222951">
		<tag k="name" v="Geir-evju" />
		<tag k="natural" v="bay" />
		<tag k="ssr:stedsnr" v="226703" />
	</node>
	<node id="-444660" lat="59.3799583371" lon="9.23897777945">
		<tag k="name" v="Holt-evju" />
		<tag k="natural" v="bay" />
		<tag k="ssr:stedsnr" v="226699" />
	</node>
	<node id="-446705" lat="59.3888722215" lon="8.84626111953">
		<tag k="alt_name" v="Ruboltjørni" />
		<tag k="loc_name" v="Rugbøla" />
		<tag k="name" v="Rubøltjønn" />
		<tag k="natural" v="water" />
		<tag k="ssr:stedsnr" v="305758" />
		<tag k="water" v="lake" />
	</node>
	<node id="-444656" lat="59.4617666637" lon="9.14364166461">
		<tag k="name" v="Halvtunneputten" />
		<tag k="natural" v="water" />
		<tag k="ssr:stedsnr" v="26908" />
		<tag k="water" v="pond" />
	</node>
	<node id="-446703" lat="59.4829277734" lon="9.10341389701">
		<tag k="name" v="Lonåa" />
		<tag k="ssr:stedsnr" v="305663" />
		<tag k="waterway" v="river" />
	</node>
	<node id="-446702" lat="59.4846416693" lon="8.93577222341">
		<tag k="alt_name" v="Lislestulåa" />
		<tag k="name" v="Gjuvsåa" />
		<tag k="ssr:stedsnr" v="305656" />
		<tag k="waterway" v="river" />
	</node>
	<node id="-446700" lat="59.4970916641" lon="9.20774167392">
		<tag k="alt_name" v="Blomtjørn, store" />
		<tag k="name" v="Store Blomtjønn" />
		<tag k="natural" v="water" />
		<tag k="ssr:stedsnr" v="305629" />
	</node>
	<node id="-446697" lat="59.4446333357" lon="9.06786667382">
		<tag k="name" v="Fuggedammen" />
		<tag k="ssr:stedsnr" v="305500" />
		<tag k="waterway" v="dam" />
	</node>
	<node id="-444648" lat="59.397822218" lon="9.26475277681">
		<tag k="name" v="Leirbakk-evju" />
		<tag k="natural" v="bay" />
		<tag k="ssr:stedsnr" v="226622" />
	</node>
	<node id="-444644" lat="59.4055777736" lon="9.22114999647">
		<tag k="name" v="Damtjønnbekken" />
		<tag k="ssr:stedsnr" v="226485" />
		<tag k="waterway" v="stream" />
	</node>
	<node id="-444639" lat="59.4831138927" lon="9.26879999221">
		<tag k="name" v="Ljostjønn-bekken" />
		<tag k="ssr:stedsnr" v="226228" />
		<tag k="waterway" v="stream" />
	</node>
	<node id="-444638" lat="59.4793277757" lon="9.27501944116">
		<tag k="name" v="Damtjønn-bekken" />
		<tag k="ssr:stedsnr" v="226226" />
		<tag k="waterway" v="stream" />
	</node>
	<node id="-446684" lat="59.3660888851" lon="8.98481944724">
		<tag k="alt_name" v="Svarttjørn" />
		<tag k="name" v="Svarttjønn" />
		<tag k="natural" v="water" />
		<tag k="ssr:stedsnr" v="305299" />
	</node>
	<node id="-446675" lat="59.456408336" lon="8.91007499964">
		<tag k="name" v="Gullbekk" />
		<tag k="ssr:stedsnr" v="210964" />
		<tag k="waterway" v="stream" />
	</node>
	<node id="-444623" lat="59.5041194414" lon="9.29652499513">
		<tag k="name" v="Storbukta" />
		<tag k="natural" v="bay" />
		<tag k="ssr:stedsnr" v="225818" />
	</node>
	<node id="-444619" lat="59.442922219" lon="9.36267777817">
		<tag k="name" v="Øgnegravs-åa" />
		<tag k="ssr:stedsnr" v="225704" />
		<tag k="waterway" v="river" />
	</node>
	<node id="-444618" lat="59.4280527757" lon="9.3470972306">
		<tag k="name" v="Kvennhus-bekken" />
		<tag k="ssr:stedsnr" v="225673" />
		<tag k="waterway" v="stream" />
	</node>
	<node id="-446665" lat="59.3694277765" lon="8.89538611667">
		<tag k="name" v="Suggetjønn" />
		<tag k="natural" v="water" />
		<tag k="ssr:stedsnr" v="210049" />
		<tag k="water" v="pond" />
	</node>
	<node id="-444615" lat="59.4788388883" lon="9.44246944768">
		<tag k="name" v="Maurdalstjønn" />
		<tag k="natural" v="water" />
		<tag k="ssr:stedsnr" v="225532" />
	</node>
	<node id="-444614" lat="59.475411111" lon="9.43678610362">
		<tag k="name" v="Gvålstjønn" />
		<tag k="natural" v="water" />
		<tag k="ssr:stedsnr" v="225511" />
	</node>
	<node id="-444613" lat="59.4410083333" lon="9.23516944514">
		<tag k="name" v="Svinsbekk" />
		<tag k="ssr:stedsnr" v="225488" />
		<tag k="waterway" v="stream" />
	</node>
	<node id="-444612" lat="59.490100003" lon="9.4399611191">
		<tag k="name" v="Søndre Mjågesundvatn" />
		<tag k="natural" v="water" />
		<tag k="ssr:stedsnr" v="225472" />
		<tag k="water" v="lake" />
	</node>
	<node id="-444611" lat="59.3818194479" lon="9.35582222398">
		<tag k="name" v="Vihus-tjønna" />
		<tag k="natural" v="water" />
		<tag k="ssr:stedsnr" v="225375" />
	</node>
	<node id="-444600" lat="59.5146249959" lon="9.29074722096">
		<tag k="name" v="Deilbekken" />
		<tag k="ssr:stedsnr" v="225145" />
		<tag k="waterway" v="stream" />
	</node>
	<node id="-444592" lat="59.3976361068" lon="9.34548611352">
		<tag k="name" v="Rogholttjørn" />
		<tag k="natural" v="water" />
		<tag k="ssr:stedsnr" v="2890" />
	</node>
	<node id="-446626" lat="59.3919861077" lon="8.95681667128">
		<tag k="name" v="Steinskotbekken" />
		<tag k="ssr:stedsnr" v="207047" />
		<tag k="waterway" v="stream" />
	</node>
	<node id="-446619" lat="59.4188166695" lon="9.22712778291">
		<tag k="alt_name" v="Damtjørn" />
		<tag k="name" v="Holtan Damtjønn" />
		<tag k="natural" v="water" />
		<tag k="ssr:stedsnr" v="184993" />
	</node>
	<node id="-446618" lat="59.4147888934" lon="9.23481110666">
		<tag k="alt_name" v="Langtjørn" />
		<tag k="name" v="Langetjønn" />
		<tag k="natural" v="water" />
		<tag k="ssr:stedsnr" v="184989" />
	</node>
	<node id="-446615" lat="59.442127777" lon="9.26411944359">
		<tag k="alt_name" v="Svinetjørn" />
		<tag k="name" v="Svinetjønn" />
		<tag k="natural" v="water" />
		<tag k="ssr:stedsnr" v="184930" />
	</node>
	<node id="-446613" lat="59.3993111086" lon="9.35333888266">
		<tag k="name" v="Landtjørn" />
		<tag k="natural" v="water" />
		<tag k="ssr:stedsnr" v="184876" />
	</node>
	<node id="-446611" lat="59.357705554" lon="9.39035555203">
		<tag k="alt_name" v="Sautjørnene" />
		<tag k="name" v="Sauetjønnene" />
		<tag k="natural" v="water" />
		<tag k="ssr:stedsnr" v="184808" />
	</node>
	<node id="-446610" lat="59.3555499993" lon="9.24134721933">
		<tag k="name" v="Tjuveholmane" />
		<tag k="place" v="islet" />
		<tag k="ssr:stedsnr" v="184801" />
	</node>
	<node id="-446605" lat="59.4851027818" lon="8.9125888923">
		<tag k="alt_name" v="Repetjørnan" />
		<tag k="name" v="Repetjønn" />
		<tag k="natural" v="water" />
		<tag k="ssr:stedsnr" v="184579" />
	</node>
	<node id="-446603" lat="59.4658916679" lon="9.14270832804">
		<tag k="name" v="Løken" />
		<tag k="natural" v="water" />
		<tag k="ssr:stedsnr" v="184491" />
	</node>
	<node id="-445595" lat="59.4947805531" lon="8.9173888961">
		<tag k="name" v="Holmen" />
		<tag k="natural" v="water" />
		<tag k="ssr:stedsnr" v="608630" />
	</node>
	<node id="-446590" lat="59.3863222235" lon="9.11746944739">
		<tag k="alt_name" v="Damtjørn, store" />
		<tag k="name" v="Store Damtjønn" />
		<tag k="natural" v="water" />
		<tag k="ssr:stedsnr" v="184321" />
	</node>
	<node id="-446586" lat="59.371211115" lon="9.15102223074">
		<tag k="alt_name" v="Sulukolltjørna" />
		<tag k="name" v="Sulukolltjønn" />
		<tag k="natural" v="water" />
		<tag k="ssr:stedsnr" v="184292" />
	</node>
	<node id="-446573" lat="59.482036108" lon="9.38171666766">
		<tag k="name" v="Sæterdalsbekken" />
		<tag k="ssr:stedsnr" v="165568" />
		<tag k="waterway" v="stream" />
	</node>
	<node id="-446567" lat="59.3530805535" lon="9.28714166234">
		<tag k="name" v="Nedre Pommertjønn" />
		<tag k="natural" v="water" />
		<tag k="ssr:stedsnr" v="165266" />
	</node>
	<node id="-446556" lat="59.4697888885" lon="9.30200833517">
		<tag k="name" v="Tollefsodden" />
		<tag k="natural" v="cape" />
		<tag k="ssr:stedsnr" v="164601" />
	</node>
	<node id="-446547" lat="59.4133361125" lon="9.31016944808">
		<tag k="name" v="Guvihaug" />
		<tag k="place" v="locality" />
		<tag k="ssr:stedsnr" v="164111" />
	</node>
	<node id="-446543" lat="59.4788833292" lon="8.93263054933">
		<tag k="name" v="Repetjønnbekken" />
		<tag k="ssr:stedsnr" v="149987" />
		<tag k="waterway" v="stream" />
	</node>
	<node id="-445109" lat="59.4026888852" lon="8.87834999423">
		<tag k="name" v="Vesle Svarttjønn" />
		<tag k="natural" v="water" />
		<tag k="ssr:stedsnr" v="330205" />
	</node>
	<node id="-446522" lat="59.5058777748" lon="9.0165055639">
		<tag k="name" v="Langerenne" />
		<tag k="ssr:stedsnr" v="147486" />
		<tag k="waterway" v="stream" />
	</node>
	<node id="-446508" lat="59.4662222197" lon="9.15249165804">
		<tag k="name" v="Bjorholet" />
		<tag k="natural" v="bay" />
		<tag k="ssr:stedsnr" v="146898" />
	</node>
	<node id="-446482" lat="59.3495138906" lon="9.28353056218">
		<tag k="alt_name" v="Serketjørn" />
		<tag k="name" v="Vesle Damtjønn" />
		<tag k="natural" v="water" />
		<tag k="ssr:stedsnr" v="123850" />
	</node>
	<node id="-446481" lat="59.3619222178" lon="9.30125278172">
		<tag k="alt_name" v="Ulevatn" />
		<tag k="name" v="Ulavatnet" />
		<tag k="natural" v="water" />
		<tag k="ssr:stedsnr" v="123835" />
	</node>
	<node id="-446480" lat="59.3601499962" lon="9.29682500561">
		<tag k="alt_name" v="Ormtjørn" />
		<tag k="name" v="Ormetjønn" />
		<tag k="natural" v="water" />
		<tag k="ssr:stedsnr" v="123832" />
	</node>
	<node id="-446475" lat="59.4953166648" lon="8.93529167473">
		<tag k="alt_name" v="Rjupetjørn" />
		<tag k="name" v="Rjupetjønn" />
		<tag k="natural" v="water" />
		<tag k="ssr:stedsnr" v="123630" />
	</node>
	<node id="-446471" lat="59.4309166682" lon="8.92379999841">
		<tag k="alt_name" v="Karistultjørna" />
		<tag k="name" v="Karistultjønna" />
		<tag k="natural" v="water" />
		<tag k="ssr:stedsnr" v="123509" />
>>>>>>> e1d4bc35ff8a6074a6f2e91616a996b547c36f15
	</node>
</osm>
