<?xml version="1.0" encoding="UTF-8"?>
<osm version="0.6" generator="osmapis">
	<node lat="59.49447500113481" lon="9.104299995160876" id="-26052">
		<tag k="amenity" v="community_centre" />
		<tag k="name" v="Vatnar skule" />
		<tag k="ssr:stedsnr" v="2597" />
	</node>
	<node lat="59.43276111533725" lon="8.878166667202276" id="-26268">
		<tag k="name" v="Herrebrekka" />
		<tag k="place" v="locality" />
		<tag k="ssr:stedsnr" v="149911" />
	</node>
	<node lat="59.43410277872621" lon="9.037927781178642" id="-26313">
		<tag k="name" v="Telthusflata" />
		<tag k="place" v="locality" />
		<tag k="ssr:stedsnr" v="268555" />
	</node>
	<node lat="59.451244444125464" lon="9.020730559690303" id="-26353">
		<tag k="name" v="Herbrandsbott" />
		<tag k="place" v="locality" />
		<tag k="ssr:stedsnr" v="270055" />
	</node>
	<node lat="59.49353333762036" lon="9.10413888277586" id="-26387">
		<tag k="amenity" v="place_of_worship" />
		<tag k="fixme" v="specify religion=*, denomination=*, building=* etc" />
		<tag k="name" v="Lyngestad" />
		<tag k="ssr:stedsnr" v="450587" />
	</node>
	<node lat="59.45356666689374" lon="9.015786105666" id="-26412">
		<tag k="name" v="Høgebott" />
		<tag k="place" v="locality" />
		<tag k="ssr:stedsnr" v="452051" />
	</node>
	<node lat="59.423200000335704" lon="9.104169448453616" id="-26461">
		<tag k="name" v="Gvålakyrkja" />
		<tag k="place" v="locality" />
		<tag k="ssr:stedsnr" v="268189" />
	</node>
	<node lat="59.389999997494265" lon="9.045091657892598" id="-26472">
		<tag k="cemetery" v="grave" />
		<tag k="name" v="Eikjarud gravplass" />
		<tag k="place" v="locality" />
		<tag k="ssr:stedsnr" v="269323" />
	</node>
	<node lat="59.45664166642457" lon="9.307861110275146" id="-26624">
		<tag k="name" v="Runshaug" />
		<tag k="place" v="locality" />
		<tag k="ssr:stedsnr" v="347158" />
	</node>
	<node lat="59.41336389245024" lon="8.98204167523731" id="-26660">
		<tag k="name" v="Botten" />
		<tag k="place" v="locality" />
		<tag k="ssr:stedsnr" v="389043" />
	</node>
	<node lat="59.47339722261516" lon="9.308261107099149" id="-26699">
		<tag k="name" v="Kongshem" />
		<tag k="place" v="locality" />
		<tag k="ssr:stedsnr" v="407619" />
	</node>
	<node lat="59.464616668071095" lon="9.222758328572663" id="-26711">
		<tag k="name" v="Vidsjå-dammen" />
		<tag k="place" v="locality" />
		<tag k="ssr:stedsnr" v="408256" />
	</node>
	<node lat="59.41148888784585" lon="9.05792221947675" id="-26766">
		<tag k="name" v="Bøhamna" />
		<tag k="place" v="locality" />
		<tag k="ssr:stedsnr" v="450232" />
	</node>
	<node lat="59.468797218006024" lon="8.965244449565954" id="-26974">
		<tag k="name" v="Bokkesteinboten" />
		<tag k="place" v="locality" />
		<tag k="ssr:stedsnr" v="574715" />
	</node>
	<node lat="59.420555559785726" lon="9.075347225976998" id="-27038">
		<tag k="alt_name" v="Sandvoll" />
		<tag k="amenity" v="community_centre" />
		<tag k="name" v="Sandvin" />
		<tag k="ssr:stedsnr" v="609414" />
	</node>
	<node lat="59.44931666449213" lon="9.024436107828953" id="-27047">
		<tag k="name" v="Tøløvsbott" />
		<tag k="place" v="locality" />
		<tag k="ssr:stedsnr" v="632045" />
	</node>
	<node lat="59.37204151359858" lon="9.221881045062139" id="-27110">
		<tag k="amenity" v="place_of_worship" />
		<tag k="denomination" v="lutheran" />
		<tag k="name" v="Nes kyrkje" />
		<tag k="religion" v="christian" />
		<tag k="ssr:stedsnr" v="669813" />
	</node>
	<node lat="59.4843527749542" lon="9.20063889170811" id="-27206">
		<tag k="name" v="Mjågetjønn-dammen" />
		<tag k="place" v="locality" />
		<tag k="ssr:stedsnr" v="711177" />
	</node>
	<node lat="59.48819166259358" lon="9.013283341672924" id="-27255">
		<tag k="name" v="Fjellstul" />
		<tag k="place" v="locality" />
		<tag k="ssr:stedsnr" v="755559" />
	</node>
	<node lat="59.499961110594505" lon="9.112324998897975" id="-27438">
		<tag k="name" v="Fyllinga" />
		<tag k="place" v="locality" />
		<tag k="ssr:stedsnr" v="875566" />
	</node>
	<node lat="59.40413611160533" lon="9.003150007767129" id="-27445">
		<tag k="name" v="Trelsborg" />
		<tag k="place" v="locality" />
		<tag k="ssr:stedsnr" v="876015" />
	</node>
	<node lat="59.40730277596101" lon="9.171272224803024" id="-27483">
		<tag k="name" v="Gislehaug" />
		<tag k="place" v="locality" />
		<tag k="ssr:stedsnr" v="893263" />
	</node>
	<node lat="59.413763890309426" lon="9.056963884830576" id="-27526">
		<tag k="name" v="Grauteknapp" />
		<tag k="place" v="locality" />
		<tag k="ssr:stedsnr" v="936224" />
	</node>
	<node lat="59.42235833035884" lon="9.285627779791637" id="-27555">
		<tag k="cemetery" v="grave" />
		<tag k="name" v="Bloms løkke" />
		<tag k="place" v="locality" />
		<tag k="ssr:stedsnr" v="953495" />
	</node>
	<node lat="59.39242499817877" lon="9.248772230947107" id="-27627">
		<tag k="amenity" v="community_centre" />
		<tag k="name" v="Akkerhaugen" />
		<tag k="ssr:stedsnr" v="2915" />
	</node>
	<node lat="59.40058333295595" lon="8.90266666622068" id="-27651">
		<tag k="name" v="Sandstulhovet" />
		<tag k="ssr:stedsnr" v="26152" />
		<tag k="tourism" v="viewpoint" />
	</node>
	<node lat="59.41528055919381" lon="9.366375007904347" id="-27691">
		<tag k="name" v="Nesabekken" />
		<tag k="place" v="locality" />
		<tag k="ssr:stedsnr" v="43328" />
	</node>
	<node lat="59.417200001926666" lon="8.903022226272121" id="-27851">
		<tag k="amenity" v="community_centre" />
		<tag k="name" v="Sanda" />
		<tag k="ssr:stedsnr" v="123432" />
	</node>
	<node lat="59.389497223785284" lon="8.969497215148232" id="-27868">
		<tag k="name" v="Kollen" />
		<tag k="place" v="locality" />
		<tag k="ssr:stedsnr" v="145069" />
	</node>
	<node lat="59.4112277796784" lon="9.05455277099555" id="-27964">
		<tag k="alt_name" v="Bø" />
		<tag k="amenity" v="place_of_worship" />
		<tag k="denomination" v="lutheran" />
		<tag k="name" v="Bø kyrkje" />
		<tag k="religion" v="christian" />
		<tag k="ssr:stedsnr" v="184389" />
	</node>
	<node lat="59.42178055323598" lon="9.281102772241052" id="-27985">
		<tag k="amenity" v="place_of_worship" />
		<tag k="denomination" v="lutheran" />
		<tag k="name" v="Sauherad kirke" />
		<tag k="religion" v="christian" />
		<tag k="ssr:stedsnr" v="184972" />
	</node>
	<node lat="59.40779999677914" lon="9.308541667358977" id="-28077">
		<tag k="name" v="Hartang" />
		<tag k="place" v="locality" />
		<tag k="ssr:stedsnr" v="286086" />
	</node>
	<node lat="59.44463333570246" lon="9.067866673815491" id="-28114">
		<tag k="name" v="Fuggedammen" />
		<tag k="place" v="locality" />
		<tag k="ssr:stedsnr" v="305500" />
	</node>
	<node lat="59.414237826371085" lon="8.847588960793125" id="-28141">
		<tag k="name" v="Grabbu" />
		<tag k="place" v="locality" />
		<tag k="ssr:stedsnr" v="306379" />
	</node>
	<node lat="59.37190000323666" lon="9.354519446612688" id="-28184">
		<tag k="name" v="Røyeodden" />
		<tag k="place" v="locality" />
		<tag k="ssr:stedsnr" v="346499" />
	</node>
	<node lat="59.38942777976578" lon="8.968847215117755" id="-28317">
		<tag k="name" v="Kåsa" />
		<tag k="place" v="locality" />
		<tag k="ssr:stedsnr" v="449067" />
	</node>
	<node lat="59.40200555594037" lon="9.301272222312884" id="-28359">
		<tag k="amenity" v="place_of_worship" />
		<tag k="fixme" v="specify religion=*, denomination=*, building=* etc" />
		<tag k="name" v="Advent-kirken" />
		<tag k="ssr:stedsnr" v="407885" />
	</node>
	<node lat="59.387827775837046" lon="8.952908336120103" id="-28398">
		<tag k="name" v="Lia" />
		<tag k="place" v="locality" />
		<tag k="ssr:stedsnr" v="509068" />
	</node>
</osm>
