<?xml version="1.0" encoding="UTF-8"?>
<osm version="0.6" generator="osmapis">
	<node lat="59.38478610748148" lon="8.994949991774835" id="-20271">
		<tag k="name" v="Rydland" />
		<tag k="place" v="farm" />
		<tag k="ssr:stedsnr" v="2337" />
	</node>
	<node lat="59.38736388621752" lon="8.968527784932473" id="-20272">
		<tag k="fixme" v="consider place=hamlet" />
		<tag k="name" v="Jønneberg" />
		<tag k="place" v="farm" />
		<tag k="ssr:stedsnr" v="2339" />
	</node>
	<node lat="59.387666666126904" lon="9.172397229809716" id="-20274">
		<tag k="name" v="Gvarv" />
		<tag k="place" v="village" />
		<tag k="ssr:stedsnr" v="2349" />
	</node>
	<node lat="59.38791111344235" lon="9.155513889902862" id="-20275">
		<tag k="alt_name" v="Ødegården" />
		<tag k="name" v="Øygarden" />
		<tag k="place" v="farm" />
		<tag k="ssr:stedsnr" v="2350" />
	</node>
	<node lat="59.426611112617465" lon="9.153172222165512" id="-20276">
		<tag k="name" v="Steinarsrud" />
		<tag k="place" v="farm" />
		<tag k="ssr:stedsnr" v="2403" />
	</node>
	<node lat="59.42289354845576" lon="9.148447306053043" id="-20277">
		<tag k="alt_name" v="Sølverud" />
		<tag k="fixme" v="consider place=hamlet" />
		<tag k="name" v="Solverud" />
		<tag k="place" v="farm" />
		<tag k="ssr:stedsnr" v="2405" />
	</node>
	<node lat="59.42366110768046" lon="8.870177778247562" id="-20279">
		<tag k="name" v="Moen" />
		<tag k="place" v="farm" />
		<tag k="ssr:stedsnr" v="2432" />
	</node>
	<node lat="59.429097222164856" lon="9.0000249930057" id="-20280">
		<tag k="name" v="Bekkhus" />
		<tag k="place" v="farm" />
		<tag k="ssr:stedsnr" v="2435" />
	</node>
	<node lat="59.45403611344794" lon="9.047991669118238" id="-20281">
		<tag k="name" v="Torekåsa" />
		<tag k="place" v="farm" />
		<tag k="ssr:stedsnr" v="2480" />
	</node>
	<node lat="59.462955789010245" lon="8.932990865073116" id="-20284">
		<tag k="name" v="Stavsholt" />
		<tag k="place" v="locality" />
		<tag k="ssr:stedsnr" v="2496" />
	</node>
	<node lat="59.36306389051493" lon="9.219480561176525" id="-20293">
		<tag k="fixme" v="consider place=hamlet" />
		<tag k="name" v="Odden" />
		<tag k="place" v="farm" />
		<tag k="ssr:stedsnr" v="2805" />
	</node>
	<node lat="59.406875001759815" lon="9.255438886782782" id="-20294">
		<tag k="alt_name" v="Vegheim" />
		<tag k="name" v="Vegem" />
		<tag k="place" v="hamlet" />
		<tag k="ssr:stedsnr" v="2873" />
	</node>
	<node lat="59.40760555557651" lon="9.2548722158715" id="-20295">
		<tag k="name" v="Øvrebø" />
		<tag k="place" v="farm" />
		<tag k="ssr:stedsnr" v="2876" />
	</node>
	<node lat="59.388136110127064" lon="9.322702776755873" id="-20296">
		<tag k="name" v="Norddale" />
		<tag k="place" v="farm" />
		<tag k="ssr:stedsnr" v="2908" />
	</node>
	<node lat="59.4124416644209" lon="9.269499993647788" id="-20298">
		<tag k="name" v="Vestgarden" />
		<tag k="place" v="farm" />
		<tag k="ssr:stedsnr" v="2994" />
	</node>
	<node lat="59.50689721875739" lon="9.129091666863689" id="-20299">
		<tag k="name" v="Hegna" />
		<tag k="place" v="farm" />
		<tag k="ssr:stedsnr" v="3422" />
	</node>
	<node lat="59.50461389092205" lon="9.137305559378039" id="-20300">
		<tag k="name" v="Plassen" />
		<tag k="place" v="isolated_dwelling" />
		<tag k="ssr:stedsnr" v="3424" />
	</node>
	<node lat="59.436302778493264" lon="8.864113890937954" id="-20304">
		<tag k="name" v="Kasin" />
		<tag k="place" v="hamlet" />
		<tag k="ssr:stedsnr" v="24421" />
	</node>
	<node lat="59.420544445738884" lon="9.042141661989866" id="-20306">
		<tag k="name" v="Haugane" />
		<tag k="place" v="farm" />
		<tag k="ssr:stedsnr" v="25494" />
	</node>
	<node lat="59.415133336144564" lon="8.919019443469814" id="-20308">
		<tag k="name" v="Moen" />
		<tag k="place" v="farm" />
		<tag k="ssr:stedsnr" v="26120" />
	</node>
	<node lat="59.42578888928803" lon="9.124519443213508" id="-20309">
		<tag k="name" v="Lid" />
		<tag k="place" v="farm" />
		<tag k="ssr:stedsnr" v="26314" />
	</node>
	<node lat="59.375674692684036" lon="9.00590473468883" id="-20312">
		<tag k="name" v="Moen" />
		<tag k="place" v="farm" />
		<tag k="ssr:stedsnr" v="26428" />
	</node>
	<node lat="59.4920106882865" lon="9.045852755149717" id="-20316">
		<tag k="historic" v="shieling" />
		<tag k="name" v="Skogkåsstulen" />
		<tag k="place" v="isolated_dwelling" />
		<tag k="ssr:stedsnr" v="27574" />
	</node>
	<node lat="59.426894446503326" lon="8.900547229396057" id="-20321">
		<tag k="name" v="Verpe" />
		<tag k="place" v="farm" />
		<tag k="ssr:stedsnr" v="28808" />
	</node>
	<node lat="59.42607222228149" lon="8.982352775715205" id="-20324">
		<tag k="name" v="Vreim" />
		<tag k="place" v="farm" />
		<tag k="ssr:stedsnr" v="28867" />
	</node>
	<node lat="59.40057499586955" lon="9.303047218471743" id="-20325">
		<tag k="name" v="Åse" />
		<tag k="place" v="farm" />
		<tag k="ssr:stedsnr" v="43005" />
	</node>
	<node lat="59.410158329812205" lon="9.132788883676515" id="-20328">
		<tag k="name" v="Hellkås" />
		<tag k="place" v="farm" />
		<tag k="ssr:stedsnr" v="43273" />
	</node>
	<node lat="59.425347218767094" lon="9.129916671639434" id="-20331">
		<tag k="name" v="Hørte" />
		<tag k="place" v="farm" />
		<tag k="ssr:stedsnr" v="43583" />
	</node>
	<node lat="59.46854999583349" lon="9.378200003131626" id="-20332">
		<tag k="name" v="Øvrestul" />
		<tag k="place" v="locality" />
		<tag k="ssr:stedsnr" v="43587" />
	</node>
	<node lat="59.43337777926924" lon="9.309622222806954" id="-20335">
		<tag k="name" v="Sunde" />
		<tag k="place" v="farm" />
		<tag k="ssr:stedsnr" v="43616" />
	</node>
	<node lat="59.35168888508024" lon="9.201055563235863" id="-20343">
		<tag k="name" v="Åsland" />
		<tag k="place" v="isolated_dwelling" />
		<tag k="ssr:stedsnr" v="44092" />
	</node>
	<node lat="59.35247222364524" lon="9.199313883642025" id="-20344">
		<tag k="amenity" v="school" />
		<tag k="name" v="Stranda" />
		<tag k="ssr:stedsnr" v="44095" />
	</node>
	<node lat="59.393977777536634" lon="9.26354444074547" id="-20348">
		<tag k="building" v="industrial" />
		<tag k="name" v="Hestehegna" />
		<tag k="ssr:stedsnr" v="44594" />
	</node>
	<node lat="59.397255555650794" lon="9.201247221348511" id="-20350">
		<tag k="name" v="Solheim" />
		<tag k="place" v="farm" />
		<tag k="ssr:stedsnr" v="44641" />
	</node>
	<node lat="59.46943888979177" lon="9.32163611667246" id="-20352">
		<tag k="name" v="Flåta" />
		<tag k="place" v="farm" />
		<tag k="ssr:stedsnr" v="63021" />
	</node>
	<node lat="59.38344166335647" lon="9.200863883789392" id="-20353">
		<tag k="alt_name" v="Lindem;Søndre Lindem" />
		<tag k="fixme" v="consider place=hamlet" />
		<tag k="name" v="Lindheim" />
		<tag k="place" v="farm" />
		<tag k="ssr:stedsnr" v="63303" />
	</node>
	<node lat="59.46554746169614" lon="8.969822883066369" id="-20358">
		<tag k="alt_name" v="Altbråtane" />
		<tag k="name" v="Attbråtane" />
		<tag k="place" v="locality" />
		<tag k="ssr:stedsnr" v="63502" />
	</node>
	<node lat="59.47178055897629" lon="9.07298055419777" id="-20359">
		<tag k="alt_name" v="Breidvad" />
		<tag k="name" v="Breiva" />
		<tag k="place" v="farm" />
		<tag k="ssr:stedsnr" v="63504" />
	</node>
	<node lat="59.4725138901017" lon="8.967286105305897" id="-20362">
		<tag k="alt_name" v="Lienstul" />
		<tag k="name" v="Lienstulen" />
		<tag k="place" v="isolated_dwelling" />
		<tag k="ssr:stedsnr" v="63605" />
	</node>
	<node lat="59.48105555390085" lon="9.079380562390181" id="-20364">
		<tag k="name" v="Åse" />
		<tag k="place" v="farm" />
		<tag k="ssr:stedsnr" v="63610" />
	</node>
	<node lat="59.48093055436356" lon="9.095700004827433" id="-20365">
		<tag k="name" v="Slåttedalen" />
		<tag k="place" v="farm" />
		<tag k="ssr:stedsnr" v="63613" />
	</node>
	<node lat="59.48911111511488" lon="9.169599993045894" id="-20366">
		<tag k="name" v="Kåsa" />
		<tag k="place" v="isolated_dwelling" />
		<tag k="ssr:stedsnr" v="63620" />
	</node>
	<node lat="59.3677472257857" lon="9.218508328680759" id="-20367">
		<tag k="name" v="Øygarden" />
		<tag k="place" v="farm" />
		<tag k="ssr:stedsnr" v="63813" />
	</node>
	<node lat="59.489652958525745" lon="9.027443375501287" id="-20370">
		<tag k="name" v="Knalian" />
		<tag k="place" v="locality" />
		<tag k="ssr:stedsnr" v="63573" />
	</node>
	<node lat="59.38760833587497" lon="9.334175006081956" id="-20372">
		<tag k="name" v="Dalsvatn" />
		<tag k="place" v="locality" />
		<tag k="ssr:stedsnr" v="63902" />
	</node>
	<node lat="59.49549166287558" lon="9.294283339199042" id="-20376">
		<tag k="alt_name" v="Bolager" />
		<tag k="name" v="Bolåkeren" />
		<tag k="place" v="farm" />
		<tag k="ssr:stedsnr" v="245061" />
	</node>
	<node lat="59.3767777775708" lon="9.218725002393484" id="-20378">
		<tag k="name" v="Prestgarden" />
		<tag k="place" v="farm" />
		<tag k="ssr:stedsnr" v="245921" />
	</node>
	<node lat="59.334872219220344" lon="9.208580547017386" id="-20379">
		<tag k="name" v="Gurstad" />
		<tag k="place" v="farm" />
		<tag k="ssr:stedsnr" v="245217" />
	</node>
	<node lat="59.34944166456333" lon="9.183138892252979" id="-20381">
		<tag k="name" v="Myrland" />
		<tag k="place" v="farm" />
		<tag k="ssr:stedsnr" v="245253" />
	</node>
	<node lat="59.40940000299799" lon="9.01936944951438" id="-20382">
		<tag k="name" v="Berge" />
		<tag k="place" v="farm" />
		<tag k="ssr:stedsnr" v="245377" />
	</node>
	<node lat="59.415041670041504" lon="9.147325000066402" id="-20383">
		<tag k="alt_name" v="Lindem" />
		<tag k="name" v="Lindtveit" />
		<tag k="place" v="farm" />
		<tag k="ssr:stedsnr" v="245385" />
	</node>
	<node lat="59.414461109573594" lon="9.143108334369902" id="-20384">
		<tag k="name" v="Norheim" />
		<tag k="place" v="farm" />
		<tag k="ssr:stedsnr" v="245388" />
	</node>
	<node lat="59.43360277408823" lon="9.128830560414489" id="-20387">
		<tag k="alt_name" v="Askildt" />
		<tag k="fixme" v="consider place=hamlet" />
		<tag k="name" v="Askilt" />
		<tag k="place" v="farm" />
		<tag k="ssr:stedsnr" v="245391" />
	</node>
	<node lat="59.419552781763066" lon="9.153961112842278" id="-20388">
		<tag k="fixme" v="consider place=hamlet" />
		<tag k="name" v="Sætersbø" />
		<tag k="place" v="village" />
		<tag k="ssr:stedsnr" v="245394" />
	</node>
	<node lat="59.521358333707624" lon="9.128913882325424" id="-20389">
		<tag k="name" v="Brennekåsa" />
		<tag k="place" v="farm" />
		<tag k="ssr:stedsnr" v="245458" />
	</node>
	<node lat="59.39296944612032" lon="9.207761115719816" id="-20396">
		<tag k="name" v="Bergan" />
		<tag k="place" v="hamlet" />
		<tag k="ssr:stedsnr" v="245353" />
	</node>
	<node lat="59.50390000329599" lon="9.150869438957947" id="-20397">
		<tag k="name" v="Plasstykket" />
		<tag k="place" v="isolated_dwelling" />
		<tag k="ssr:stedsnr" v="86523" />
	</node>
	<node lat="59.415858333953395" lon="9.022149995543797" id="-20398">
		<tag k="name" v="Glenna" />
		<tag k="place" v="farm" />
		<tag k="ssr:stedsnr" v="86530" />
	</node>
	<node lat="59.417086113226205" lon="9.112405564054948" id="-20401">
		<tag k="name" v="Haugland" />
		<tag k="place" v="farm" />
		<tag k="ssr:stedsnr" v="86713" />
	</node>
	<node lat="59.41346666682315" lon="8.962777772870611" id="-20402">
		<tag k="name" v="Hegna" />
		<tag k="place" v="farm" />
		<tag k="ssr:stedsnr" v="245361" />
	</node>
	<node lat="59.416049995665574" lon="9.095405552593613" id="-20404">
		<tag k="name" v="Slåtta" />
		<tag k="place" v="locality" />
		<tag k="ssr:stedsnr" v="86694" />
	</node>
	<node lat="59.400522223814285" lon="8.974897225199877" id="-20410">
		<tag k="name" v="Skoestulen" />
		<tag k="place" v="locality" />
		<tag k="ssr:stedsnr" v="87006" />
	</node>
	<node lat="59.49818611250805" lon="9.092052774190922" id="-20413">
		<tag k="name" v="Dalen" />
		<tag k="place" v="farm" />
		<tag k="ssr:stedsnr" v="245556" />
	</node>
	<node lat="59.49254568092756" lon="9.026892090736924" id="-20414">
		<tag k="name" v="Grøbuskora" />
		<tag k="place" v="locality" />
		<tag k="ssr:stedsnr" v="245563" />
	</node>
	<node lat="59.41699999556777" lon="9.290536110937435" id="-20426">
		<tag k="building" v="industrial" />
		<tag k="industrial" v="factory" />
		<tag k="name" v="Flathus" />
		<tag k="ssr:stedsnr" v="245985" />
	</node>
	<node lat="59.44296944005227" lon="9.38843333039684" id="-20430">
		<tag k="name" v="Høgli" />
		<tag k="place" v="isolated_dwelling" />
		<tag k="ssr:stedsnr" v="245955" />
	</node>
	<node lat="59.4649666671447" lon="9.011708340455115" id="-20431">
		<tag k="name" v="Vårbu" />
		<tag k="place" v="locality" />
		<tag k="ssr:stedsnr" v="89521" />
	</node>
	<node lat="59.50308055545233" lon="9.094980555566643" id="-20435">
		<tag k="fixme" v="consider place=hamlet" />
		<tag k="name" v="Jørgedal" />
		<tag k="place" v="farm" />
		<tag k="ssr:stedsnr" v="246429" />
	</node>
	<node lat="59.41600876853837" lon="9.321304409693017" id="-20441">
		<tag k="fixme" v="consider place=hamlet" />
		<tag k="name" v="Nordagutu" />
		<tag k="place" v="farm" />
		<tag k="ssr:stedsnr" v="104074" />
	</node>
	<node lat="59.33008055366116" lon="9.185166665557993" id="-20443">
		<tag k="name" v="Grasmyrkåsa" />
		<tag k="place" v="farm" />
		<tag k="ssr:stedsnr" v="104112" />
	</node>
	<node lat="59.36751944155134" lon="9.167805554276558" id="-20445">
		<tag k="name" v="Bergli" />
		<tag k="place" v="isolated_dwelling" />
		<tag k="ssr:stedsnr" v="104194" />
	</node>
	<node lat="59.33287500152959" lon="9.208036113810987" id="-20447">
		<tag k="name" v="Hegna" />
		<tag k="place" v="locality" />
		<tag k="ssr:stedsnr" v="104136" />
	</node>
	<node lat="59.36608055984569" lon="9.215202779672808" id="-20455">
		<tag k="name" v="Strand" />
		<tag k="place" v="farm" />
		<tag k="ssr:stedsnr" v="104777" />
	</node>
	<node lat="59.470930551217926" lon="9.365841663246607" id="-20460">
		<tag k="name" v="Åbakken" />
		<tag k="place" v="isolated_dwelling" />
		<tag k="ssr:stedsnr" v="123019" />
	</node>
	<node lat="59.400055551391134" lon="9.039194436554313" id="-20463">
		<tag k="alt_name" v="Moen" />
		<tag k="name" v="Myra" />
		<tag k="place" v="farm" />
		<tag k="ssr:stedsnr" v="123395" />
	</node>
	<node lat="59.45856667118569" lon="8.908891669120338" id="-20467">
		<tag k="alt_name" v="Myklestøl" />
		<tag k="fixme" v="consider place=hamlet" />
		<tag k="name" v="Myklestul" />
		<tag k="place" v="farm" />
		<tag k="ssr:stedsnr" v="123522" />
	</node>
	<node lat="59.412169440758184" lon="9.012894448132636" id="-20469">
		<tag k="fixme" v="consider place=hamlet" />
		<tag k="name" v="Espedalen" />
		<tag k="place" v="farm" />
		<tag k="ssr:stedsnr" v="123408" />
	</node>
	<node lat="59.41954722589463" lon="8.976602772609809" id="-20470">
		<tag k="name" v="Åbø" />
		<tag k="place" v="farm" />
		<tag k="ssr:stedsnr" v="123409" />
	</node>
	<node lat="59.47231666358397" lon="8.931927780765868" id="-20473">
		<tag k="name" v="Røksbu" />
		<tag k="place" v="locality" />
		<tag k="ssr:stedsnr" v="123646" />
	</node>
	<node lat="59.48043611104778" lon="9.024274995557844" id="-20474">
		<tag k="alt_name" v="Kikkut" />
		<tag k="name" v="Kikut" />
		<tag k="place" v="locality" />
		<tag k="ssr:stedsnr" v="123659" />
	</node>
	<node lat="59.44734166394499" lon="9.22110000697121" id="-20476">
		<tag k="name" v="Hestås" />
		<tag k="place" v="isolated_dwelling" />
		<tag k="ssr:stedsnr" v="124013" />
	</node>
	<node lat="59.50356110890102" lon="9.136222219810378" id="-20477">
		<tag k="alt_name" v="Bjørnemyr" />
		<tag k="name" v="Bjønnemyr" />
		<tag k="place" v="farm" />
		<tag k="ssr:stedsnr" v="124410" />
	</node>
	<node lat="59.512946176355115" lon="9.07177181324648" id="-20478">
		<tag k="name" v="Andersli" />
		<tag k="place" v="locality" />
		<tag k="ssr:stedsnr" v="124412" />
	</node>
	<node lat="59.3871861147848" lon="9.239674998772973" id="-20479">
		<tag k="name" v="Jongsås" />
		<tag k="place" v="farm" />
		<tag k="ssr:stedsnr" v="124907" />
	</node>
	<node lat="59.4024166670061" lon="9.29069722735804" id="-20480">
		<tag k="alt_name" v="Hvåla" />
		<tag k="name" v="Gvåla" />
		<tag k="place" v="farm" />
		<tag k="ssr:stedsnr" v="252636" />
	</node>
	<node lat="59.43052222616167" lon="9.084869447984017" id="-20482">
		<tag k="name" v="Blakåkerroa" />
		<tag k="place" v="farm" />
		<tag k="ssr:stedsnr" v="146216" />
	</node>
	<node lat="59.48193055181521" lon="9.08336666339488" id="-20483">
		<tag k="name" v="Jonskåsine" />
		<tag k="place" v="locality" />
		<tag k="ssr:stedsnr" v="146421" />
	</node>
	<node lat="59.405113891432876" lon="8.939074993080325" id="-20484">
		<tag k="name" v="Haugene" />
		<tag k="place" v="farm" />
		<tag k="ssr:stedsnr" v="147103" />
	</node>
	<node lat="59.4208055571751" lon="8.910563884675591" id="-20487">
		<tag k="name" v="Soterud" />
		<tag k="place" v="farm" />
		<tag k="ssr:stedsnr" v="147158" />
	</node>
	<node lat="59.392286112281546" lon="9.056541668919659" id="-20488">
		<tag k="name" v="Kåsa" />
		<tag k="place" v="isolated_dwelling" />
		<tag k="ssr:stedsnr" v="147305" />
	</node>
	<node lat="59.42271388939252" lon="9.106377782865737" id="-20490">
		<tag k="amenity" v="school" />
		<tag k="name" v="Valen skule" />
		<tag k="ssr:stedsnr" v="147220" />
	</node>
	<node lat="59.40608889190018" lon="9.039469448155275" id="-20491">
		<tag k="name" v="Moland" />
		<tag k="place" v="isolated_dwelling" />
		<tag k="ssr:stedsnr" v="147264" />
	</node>
	<node lat="59.40664166913878" lon="9.098555552318809" id="-20494">
		<tag k="name" v="Lia" />
		<tag k="place" v="farm" />
		<tag k="ssr:stedsnr" v="147633" />
	</node>
	<node lat="59.43859722543588" lon="9.03124722894586" id="-20496">
		<tag k="name" v="Langemyr" />
		<tag k="place" v="farm" />
		<tag k="ssr:stedsnr" v="147578" />
	</node>
	<node lat="59.389413889384535" lon="8.901230553705567" id="-20500">
		<tag k="name" v="Langløyningen" />
		<tag k="place" v="locality" />
		<tag k="ssr:stedsnr" v="149016" />
	</node>
	<node lat="59.40799722650952" lon="9.32770277909327" id="-20511">
		<tag k="name" v="Låvell" />
		<tag k="place" v="hamlet" />
		<tag k="ssr:stedsnr" v="164082" />
	</node>
	<node lat="59.41486666276548" lon="9.141647226599746" id="-20512">
		<tag k="name" v="Snippen" />
		<tag k="place" v="farm" />
		<tag k="ssr:stedsnr" v="164309" />
	</node>
	<node lat="59.41310833444651" lon="9.141341660352024" id="-20513">
		<tag k="name" v="Snippen" />
		<tag k="place" v="farm" />
		<tag k="ssr:stedsnr" v="164311" />
	</node>
	<node lat="59.38231111400211" lon="9.212186102413876" id="-20518">
		<tag k="amenity" v="school" />
		<tag k="name" v="Nes" />
		<tag k="ssr:stedsnr" v="164703" />
	</node>
	<node lat="59.37817777482895" lon="9.215497229291218" id="-20519">
		<tag k="name" v="Hestehag" />
		<tag k="place" v="farm" />
		<tag k="ssr:stedsnr" v="164704" />
	</node>
	<node lat="59.35420277926339" lon="9.200763889100031" id="-20520">
		<tag k="name" v="Strandli" />
		<tag k="place" v="farm" />
		<tag k="ssr:stedsnr" v="165094" />
	</node>
	<node lat="59.45249999877231" lon="9.340841672086865" id="-20522">
		<tag k="name" v="Brekke" />
		<tag k="place" v="isolated_dwelling" />
		<tag k="ssr:stedsnr" v="165225" />
	</node>
	<node lat="59.33087499728817" lon="9.198730547675973" id="-20523">
		<tag k="name" v="Ingebretskås" />
		<tag k="place" v="locality" />
		<tag k="ssr:stedsnr" v="165117" />
	</node>
	<node lat="59.417391667111936" lon="9.150561104176973" id="-20525">
		<tag k="amenity" v="school" />
		<tag k="name" v="Sætersbø" />
		<tag k="ssr:stedsnr" v="165276" />
	</node>
	<node lat="59.394238888823054" lon="9.282297218805253" id="-20526">
		<tag k="name" v="Nord-vegen" />
		<tag k="place" v="farm" />
		<tag k="ssr:stedsnr" v="165586" />
	</node>
	<node lat="59.48675000329464" lon="9.299380556933157" id="-20531">
		<tag k="fixme" v="consider place=hamlet" />
		<tag k="name" v="Uleberg" />
		<tag k="place" v="farm" />
		<tag k="ssr:stedsnr" v="184035" />
	</node>
	<node lat="59.496652782118694" lon="9.285161110489941" id="-20532">
		<tag k="name" v="Haukedalen" />
		<tag k="place" v="farm" />
		<tag k="ssr:stedsnr" v="184041" />
	</node>
	<node lat="59.42834166602241" lon="9.053850006430652" id="-20534">
		<tag k="name" v="Bakken" />
		<tag k="place" v="farm" />
		<tag k="ssr:stedsnr" v="184434" />
	</node>
	<node lat="59.41938889207043" lon="9.021933331340465" id="-20535">
		<tag k="name" v="Nygård" />
		<tag k="place" v="farm" />
		<tag k="ssr:stedsnr" v="184451" />
	</node>
	<node lat="59.492438891358155" lon="9.133347226494536" id="-20537">
		<tag k="name" v="Kåsa" />
		<tag k="place" v="farm" />
		<tag k="ssr:stedsnr" v="184585" />
	</node>
	<node lat="59.41360277728356" lon="8.998583325394032" id="-20545">
		<tag k="name" v="Forberg" />
		<tag k="place" v="farm" />
		<tag k="ssr:stedsnr" v="268039" />
	</node>
	<node lat="59.409566668350195" lon="8.983683325231777" id="-20547">
		<tag k="name" v="Skogen" />
		<tag k="place" v="isolated_dwelling" />
		<tag k="ssr:stedsnr" v="268069" />
	</node>
	<node lat="59.41615833355611" lon="9.015761117597561" id="-20549">
		<tag k="name" v="Forberg" />
		<tag k="place" v="farm" />
		<tag k="ssr:stedsnr" v="268514" />
	</node>
	<node lat="59.43168888700767" lon="9.028752773927627" id="-20551">
		<tag k="name" v="Surtegro" />
		<tag k="place" v="locality" />
		<tag k="ssr:stedsnr" v="268550" />
	</node>
	<node lat="59.40764722144602" lon="9.068130549185808" id="-20555">
		<tag k="name" v="Flita" />
		<tag k="place" v="locality" />
		<tag k="ssr:stedsnr" v="268643" />
	</node>
	<node lat="59.410286110459616" lon="9.073394436152164" id="-20556">
		<tag k="building" v="industrial" />
		<tag k="industrial" v="factory" />
		<tag k="name" v="Bø mølle" />
		<tag k="ssr:stedsnr" v="268666" />
	</node>
	<node lat="59.412138892711845" lon="9.088244450675473" id="-20557">
		<tag k="name" v="Sperrudstykket" />
		<tag k="place" v="farm" />
		<tag k="ssr:stedsnr" v="268668" />
	</node>
	<node lat="59.4928305574498" lon="9.078119446947714" id="-20563">
		<tag k="name" v="Hyfsopp" />
		<tag k="place" v="locality" />
		<tag k="ssr:stedsnr" v="207543" />
	</node>
	<node lat="59.41364444778059" lon="9.100144453170103" id="-20564">
		<tag k="fixme" v="consider place=hamlet" />
		<tag k="name" v="Roteberg" />
		<tag k="place" v="farm" />
		<tag k="ssr:stedsnr" v="207686" />
	</node>
	<node lat="59.444852776274956" lon="9.019458325397963" id="-20567">
		<tag k="name" v="Innleggen" />
		<tag k="place" v="farm" />
		<tag k="ssr:stedsnr" v="208026" />
	</node>
	<node lat="59.41595833247487" lon="8.964033331688189" id="-20568">
		<tag k="name" v="Nyhus" />
		<tag k="place" v="farm" />
		<tag k="ssr:stedsnr" v="208044" />
	</node>
	<node lat="59.43790000187267" lon="9.074783325016865" id="-20569">
		<tag k="name" v="Tjyruberget" />
		<tag k="place" v="farm" />
		<tag k="ssr:stedsnr" v="208046" />
	</node>
	<node lat="59.4375972181872" lon="9.035563882848916" id="-20577">
		<tag k="name" v="Dikene" />
		<tag k="place" v="locality" />
		<tag k="ssr:stedsnr" v="208589" />
	</node>
	<node lat="59.43337778122824" lon="9.060891660051652" id="-20578">
		<tag k="name" v="Solstad" />
		<tag k="place" v="farm" />
		<tag k="ssr:stedsnr" v="208598" />
	</node>
	<node lat="59.379175001626244" lon="9.01603332912843" id="-20582">
		<tag k="name" v="Øygarden" />
		<tag k="place" v="farm" />
		<tag k="ssr:stedsnr" v="269365" />
	</node>
	<node lat="59.465647222501026" lon="9.100372222075269" id="-20585">
		<tag k="name" v="Høgfosskåsa" />
		<tag k="place" v="locality" />
		<tag k="ssr:stedsnr" v="269419" />
	</node>
	<node lat="59.514755559269396" lon="9.007113897277032" id="-20591">
		<tag k="name" v="Bjønnliane" />
		<tag k="place" v="locality" />
		<tag k="ssr:stedsnr" v="269585" />
	</node>
	<node lat="59.488988890456824" lon="9.02639445044978" id="-20594">
		<tag k="name" v="Knaliane" />
		<tag k="place" v="locality" />
		<tag k="ssr:stedsnr" v="270721" />
	</node>
	<node lat="59.45569444597025" lon="8.950261111633461" id="-20598">
		<tag k="name" v="Sagalauvås" />
		<tag k="place" v="locality" />
		<tag k="ssr:stedsnr" v="271075" />
	</node>
	<node lat="59.384280559183345" lon="9.155625006466336" id="-20600">
		<tag k="name" v="Juveland" />
		<tag k="place" v="farm" />
		<tag k="ssr:stedsnr" v="225250" />
	</node>
	<node lat="59.39427777884908" lon="9.159197220785726" id="-20601">
		<tag k="name" v="Brattestå" />
		<tag k="place" v="farm" />
		<tag k="ssr:stedsnr" v="225290" />
	</node>
	<node lat="59.424058337244745" lon="9.169174998689334" id="-20606">
		<tag k="historic" v="shieling" />
		<tag k="name" v="Lindelia" />
		<tag k="place" v="isolated_dwelling" />
		<tag k="ssr:stedsnr" v="225627" />
	</node>
	<node lat="59.46377222663879" lon="9.33627500350428" id="-20608">
		<tag k="name" v="Lykkja" />
		<tag k="place" v="farm" />
		<tag k="ssr:stedsnr" v="225995" />
	</node>
	<node lat="59.402286114676606" lon="9.178675008641456" id="-20613">
		<tag k="name" v="Skogen" />
		<tag k="place" v="farm" />
		<tag k="ssr:stedsnr" v="226642" />
	</node>
	<node lat="59.394133334394986" lon="9.237358337605404" id="-20614">
		<tag k="name" v="Idungsås vestre" />
		<tag k="place" v="farm" />
		<tag k="ssr:stedsnr" v="226686" />
	</node>
	<node lat="59.38867500441791" lon="9.229447223622405" id="-20615">
		<tag k="fixme" v="consider place=hamlet" />
		<tag k="name" v="Østre Prestholt" />
		<tag k="place" v="farm" />
		<tag k="ssr:stedsnr" v="226692" />
	</node>
	<node lat="59.42420000196465" lon="9.119658329491374" id="-20624">
		<tag k="name" v="Myra" />
		<tag k="place" v="isolated_dwelling" />
		<tag k="ssr:stedsnr" v="450264" />
	</node>
	<node lat="59.42485277550935" lon="9.051227771432947" id="-20628">
		<tag k="name" v="Langkås" />
		<tag k="place" v="farm" />
		<tag k="ssr:stedsnr" v="450591" />
	</node>
	<node lat="59.407336107293744" lon="9.094500005536602" id="-20629">
		<tag k="name" v="Lia" />
		<tag k="place" v="farm" />
		<tag k="ssr:stedsnr" v="450667" />
	</node>
	<node lat="59.4403611089559" lon="9.013730551493124" id="-20630">
		<tag k="name" v="Piparlia" />
		<tag k="place" v="locality" />
		<tag k="ssr:stedsnr" v="450538" />
	</node>
	<node lat="59.50818055472927" lon="9.109622215329589" id="-20633">
		<tag k="name" v="Slåtta" />
		<tag k="place" v="locality" />
		<tag k="ssr:stedsnr" v="450739" />
	</node>
	<node lat="59.420033335210256" lon="9.102200003465526" id="-20634">
		<tag k="name" v="Vestgarden" />
		<tag k="place" v="farm" />
		<tag k="ssr:stedsnr" v="450741" />
	</node>
	<node lat="59.433752774433216" lon="9.074769451222906" id="-20638">
		<tag k="name" v="Flatland" />
		<tag k="place" v="farm" />
		<tag k="ssr:stedsnr" v="451035" />
	</node>
	<node lat="59.418113887427324" lon="8.900694446761177" id="-20639">
		<tag k="name" v="Sanda" />
		<tag k="place" v="farm" />
		<tag k="ssr:stedsnr" v="451122" />
	</node>
	<node lat="59.425613889614084" lon="9.093119450622806" id="-20641">
		<tag k="name" v="Valen" />
		<tag k="place" v="farm" />
		<tag k="ssr:stedsnr" v="451256" />
	</node>
	<node lat="59.40232500015298" lon="9.039519438155757" id="-20642">
		<tag k="name" v="Smedstad" />
		<tag k="place" v="farm" />
		<tag k="ssr:stedsnr" v="451300" />
	</node>
	<node lat="59.39445555183319" lon="9.09122223040615" id="-20644">
		<tag k="name" v="Gamlestul" />
		<tag k="place" v="locality" />
		<tag k="ssr:stedsnr" v="451396" />
	</node>
	<node lat="59.427111113550545" lon="9.014119445661766" id="-20648">
		<tag k="name" v="Sønstebø" />
		<tag k="place" v="farm" />
		<tag k="ssr:stedsnr" v="451554" />
	</node>
	<node lat="59.437033337177475" lon="9.04612499244584" id="-20649">
		<tag k="amenity" v="school" />
		<tag k="name" v="Folkestad skule" />
		<tag k="ssr:stedsnr" v="451628" />
	</node>
	<node lat="59.46879722077093" lon="9.296450003476133" id="-20653">
		<tag k="alt_name" v="Roe" />
		<tag k="fixme" v="consider place=hamlet" />
		<tag k="name" v="Rui" />
		<tag k="place" v="farm" />
		<tag k="ssr:stedsnr" v="245014" />
	</node>
	<node lat="59.46225555199175" lon="9.281647215145506" id="-20655">
		<tag k="name" v="Åsen" />
		<tag k="place" v="farm" />
		<tag k="ssr:stedsnr" v="245027" />
	</node>
	<node lat="59.38327499943919" lon="9.027241665146837" id="-20658">
		<tag k="fixme" v="consider place=hamlet" />
		<tag k="name" v="Brenne" />
		<tag k="place" v="farm" />
		<tag k="ssr:stedsnr" v="245305" />
	</node>
	<node lat="59.442205553022106" lon="9.202152773841117" id="-20660">
		<tag k="alt_name" v="Gullnås" />
		<tag k="name" v="Gulnos" />
		<tag k="place" v="isolated_dwelling" />
		<tag k="ssr:stedsnr" v="245444" />
	</node>
	<node lat="59.442874999739345" lon="9.07645278365618" id="-20661">
		<tag k="name" v="Moen" />
		<tag k="place" v="isolated_dwelling" />
		<tag k="ssr:stedsnr" v="245446" />
	</node>
	<node lat="59.46035248549164" lon="8.970136332553736" id="-20662">
		<tag k="historic" v="shieling" />
		<tag k="name" v="Høystul" />
		<tag k="place" v="isolated_dwelling" />
		<tag k="ssr:stedsnr" v="245453" />
	</node>
	<node lat="59.4791944463942" lon="9.042886117654305" id="-20665">
		<tag k="alt_name" v="Bråtan" />
		<tag k="name" v="Bråten" />
		<tag k="place" v="farm" />
		<tag k="ssr:stedsnr" v="245582" />
	</node>
	<node lat="59.39505000268393" lon="9.316916671780755" id="-20668">
		<tag k="name" v="Skeiet" />
		<tag k="place" v="farm" />
		<tag k="ssr:stedsnr" v="245890" />
	</node>
	<node lat="59.39509166250332" lon="9.251283331835197" id="-20670">
		<tag k="name" v="Akkerhaugen" />
		<tag k="place" v="village" />
		<tag k="ssr:stedsnr" v="245895" />
	</node>
	<node lat="59.39305832980081" lon="9.24074722767379" id="-20671">
		<tag k="name" v="Jongsås" />
		<tag k="place" v="farm" />
		<tag k="ssr:stedsnr" v="245899" />
	</node>
	<node lat="59.387663891154645" lon="9.299425005785434" id="-20672">
		<tag k="fixme" v="consider place=hamlet" />
		<tag k="name" v="Landsverk" />
		<tag k="place" v="farm" />
		<tag k="ssr:stedsnr" v="245904" />
	</node>
	<node lat="59.388936107325186" lon="9.292724993067125" id="-20673">
		<tag k="alt_name" v="Bråkollsrud" />
		<tag k="name" v="Bråkånsrud" />
		<tag k="place" v="farm" />
		<tag k="ssr:stedsnr" v="245906" />
	</node>
	<node lat="59.501033329512985" lon="9.141816660783322" id="-20675">
		<tag k="fixme" v="consider place=hamlet" />
		<tag k="name" v="Engene" />
		<tag k="place" v="farm" />
		<tag k="ssr:stedsnr" v="246427" />
	</node>
	<node lat="59.4290888890661" lon="8.990563891233814" id="-20679">
		<tag k="name" v="Kåsa" />
		<tag k="place" v="locality" />
		<tag k="ssr:stedsnr" v="452855" />
	</node>
	<node lat="59.42664999961485" lon="8.993744444855453" id="-20689">
		<tag k="name" v="Vreim" />
		<tag k="place" v="farm" />
		<tag k="ssr:stedsnr" v="453838" />
	</node>
	<node lat="59.382402776304964" lon="9.057911107830934" id="-20695">
		<tag k="name" v="Myre" />
		<tag k="place" v="farm" />
		<tag k="ssr:stedsnr" v="266503" />
	</node>
	<node lat="59.40646111079125" lon="8.972183340309824" id="-20697">
		<tag k="name" v="Liabakken" />
		<tag k="place" v="isolated_dwelling" />
		<tag k="ssr:stedsnr" v="268012" />
	</node>
	<node lat="59.42775832929018" lon="9.125424997203101" id="-20700">
		<tag k="name" v="Fosstveit" />
		<tag k="place" v="farm" />
		<tag k="ssr:stedsnr" v="268278" />
	</node>
	<node lat="59.417730553625645" lon="9.052091670637214" id="-20702">
		<tag k="name" v="Lahus" />
		<tag k="place" v="farm" />
		<tag k="ssr:stedsnr" v="268504" />
	</node>
	<node lat="59.38660833778158" lon="9.05692222110525" id="-20703">
		<tag k="name" v="Myre" />
		<tag k="place" v="farm" />
		<tag k="ssr:stedsnr" v="268480" />
	</node>
	<node lat="59.42703333209236" lon="9.049877771412975" id="-20704">
		<tag k="name" v="Langkås" />
		<tag k="place" v="farm" />
		<tag k="ssr:stedsnr" v="268576" />
	</node>
	<node lat="59.492233331429716" lon="9.156219447203176" id="-20706">
		<tag k="name" v="Flugopp" />
		<tag k="place" v="locality" />
		<tag k="ssr:stedsnr" v="268579" />
	</node>
	<node lat="59.4169722191862" lon="8.915086103637151" id="-20709">
		<tag k="name" v="Åsen" />
		<tag k="place" v="farm" />
		<tag k="ssr:stedsnr" v="269124" />
	</node>
	<node lat="59.4020666641521" lon="9.052033338587826" id="-20710">
		<tag k="name" v="Tandre" />
		<tag k="place" v="farm" />
		<tag k="ssr:stedsnr" v="269295" />
	</node>
	<node lat="59.422066665127474" lon="8.89804166817603" id="-20719">
		<tag k="name" v="Vegheim" />
		<tag k="place" v="isolated_dwelling" />
		<tag k="ssr:stedsnr" v="271826" />
	</node>
	<node lat="59.4363166652002" lon="8.882466667496411" id="-20721">
		<tag k="name" v="Kupa" />
		<tag k="place" v="locality" />
		<tag k="ssr:stedsnr" v="271914" />
	</node>
	<node lat="59.42947777535353" lon="9.21620278402246" id="-20729">
		<tag k="historic" v="shieling" />
		<tag k="name" v="Ringstul" />
		<tag k="place" v="isolated_dwelling" />
		<tag k="ssr:stedsnr" v="286457" />
	</node>
	<node lat="59.40441944335824" lon="9.250169448087181" id="-20732">
		<tag k="name" v="Haugland" />
		<tag k="place" v="farm" />
		<tag k="ssr:stedsnr" v="286506" />
	</node>
	<node lat="59.40642222152087" lon="9.131649994110349" id="-20735">
		<tag k="name" v="Torshøl" />
		<tag k="place" v="farm" />
		<tag k="ssr:stedsnr" v="286545" />
	</node>
	<node lat="59.34507499603895" lon="9.205097226935731" id="-20739">
		<tag k="name" v="Årås øvre" />
		<tag k="place" v="farm" />
		<tag k="ssr:stedsnr" v="286911" />
	</node>
	<node lat="59.395266670609104" lon="9.186113897390413" id="-20741">
		<tag k="name" v="Haugen" />
		<tag k="place" v="farm" />
		<tag k="ssr:stedsnr" v="287676" />
	</node>
	<node lat="59.45648888636757" lon="9.302691669621932" id="-20743">
		<tag k="name" v="Klevar" />
		<tag k="place" v="farm" />
		<tag k="ssr:stedsnr" v="305027" />
	</node>
	<node lat="59.366327780306676" lon="9.180994447408462" id="-20744">
		<tag k="alt_name" v="Søndre Årnes" />
		<tag k="fixme" v="consider place=hamlet" />
		<tag k="name" v="Årnes" />
		<tag k="place" v="farm" />
		<tag k="ssr:stedsnr" v="305314" />
	</node>
	<node lat="59.40904444648289" lon="8.919611117524216" id="-20747">
		<tag k="alt_name" v="Lovald" />
		<tag k="name" v="Løvoll" />
		<tag k="place" v="farm" />
		<tag k="ssr:stedsnr" v="305412" />
	</node>
	<node lat="59.4045972230485" lon="9.00838610919048" id="-20748">
		<tag k="alt_name" v="Kåsa" />
		<tag k="name" v="Slåtta" />
		<tag k="place" v="farm" />
		<tag k="ssr:stedsnr" v="305418" />
	</node>
	<node lat="59.43026389165905" lon="9.146083334558119" id="-20749">
		<tag k="name" v="Plassen" />
		<tag k="place" v="farm" />
		<tag k="ssr:stedsnr" v="305430" />
	</node>
	<node lat="59.434763892587526" lon="9.090755555271778" id="-20751">
		<tag k="name" v="Rullnes" />
		<tag k="place" v="farm" />
		<tag k="ssr:stedsnr" v="305440" />
	</node>
	<node lat="59.385400002000196" lon="9.327322225062321" id="-20753">
		<tag k="fixme" v="consider place=hamlet" />
		<tag k="name" v="Dale" />
		<tag k="place" v="farm" />
		<tag k="ssr:stedsnr" v="305906" />
	</node>
	<node lat="59.433250000222785" lon="9.385811105933186" id="-20755">
		<tag k="name" v="Høgli" />
		<tag k="place" v="isolated_dwelling" />
		<tag k="ssr:stedsnr" v="305961" />
	</node>
	<node lat="59.42532500251369" lon="9.083319452114049" id="-20759">
		<tag k="fixme" v="consider place=hamlet" />
		<tag k="name" v="Ågetveit" />
		<tag k="place" v="farm" />
		<tag k="ssr:stedsnr" v="306410" />
	</node>
	<node lat="59.4213694450207" lon="9.104130556392416" id="-20761">
		<tag k="fixme" v="consider place=hamlet" />
		<tag k="name" v="Vestgarden" />
		<tag k="place" v="farm" />
		<tag k="ssr:stedsnr" v="306414" />
	</node>
	<node lat="59.37908610837731" lon="9.288533332706097" id="-20770">
		<tag k="fixme" v="consider tourism=alpine_hut or tourism=chalet" />
		<tag k="name" v="Boward-stugo" />
		<tag k="ssr:stedsnr" v="467236" />
		<tag k="tourism" v="wilderness_hut" />
	</node>
	<node lat="59.387283334998834" lon="9.334136107194343" id="-20771">
		<tag k="name" v="Tveit" />
		<tag k="place" v="isolated_dwelling" />
		<tag k="ssr:stedsnr" v="467238" />
	</node>
	<node lat="59.3975027737126" lon="9.151102781531398" id="-20772">
		<tag k="name" v="Haga" />
		<tag k="place" v="isolated_dwelling" />
		<tag k="ssr:stedsnr" v="468229" />
	</node>
	<node lat="59.39714444637274" lon="9.152572222347334" id="-20773">
		<tag k="name" v="Bøen" />
		<tag k="place" v="farm" />
		<tag k="ssr:stedsnr" v="468230" />
	</node>
	<node lat="59.41651944045182" lon="9.167344450531605" id="-20774">
		<tag k="name" v="Huset" />
		<tag k="place" v="farm" />
		<tag k="ssr:stedsnr" v="468245" />
	</node>
	<node lat="59.39219444389127" lon="9.16224721738149" id="-20775">
		<tag k="name" v="Skogheim" />
		<tag k="place" v="farm" />
		<tag k="ssr:stedsnr" v="468246" />
	</node>
	<node lat="59.41288215158818" lon="9.31257829494463" id="-20777">
		<tag k="name" v="Svalestuen" />
		<tag k="place" v="locality" />
		<tag k="ssr:stedsnr" v="468095" />
	</node>
	<node lat="59.46229722608072" lon="9.317961102910575" id="-20780">
		<tag k="name" v="Lystang" />
		<tag k="place" v="locality" />
		<tag k="ssr:stedsnr" v="468053" />
	</node>
	<node lat="59.33317222286921" lon="9.216408324565982" id="-20782">
		<tag k="name" v="Gurstad øvre" />
		<tag k="place" v="farm" />
		<tag k="ssr:stedsnr" v="468128" />
	</node>
	<node lat="59.45338888798071" lon="9.266386104420146" id="-20785">
		<tag k="historic" v="shieling" />
		<tag k="name" v="Åsbakk-stul" />
		<tag k="place" v="isolated_dwelling" />
		<tag k="ssr:stedsnr" v="468149" />
	</node>
	<node lat="59.34834444210116" lon="9.159050004103928" id="-20786">
		<tag k="name" v="Roligheten" />
		<tag k="place" v="locality" />
		<tag k="ssr:stedsnr" v="468150" />
	</node>
	<node lat="59.36406110706289" lon="9.180352783832276" id="-20789">
		<tag k="name" v="Årnes" />
		<tag k="place" v="farm" />
		<tag k="ssr:stedsnr" v="468990" />
	</node>
	<node lat="59.4164277781754" lon="9.367747225069678" id="-20792">
		<tag k="name" v="Liheimen" />
		<tag k="place" v="isolated_dwelling" />
		<tag k="ssr:stedsnr" v="468303" />
	</node>
	<node lat="59.411605554548544" lon="9.275058329353154" id="-20794">
		<tag k="name" v="Johanskås" />
		<tag k="place" v="farm" />
		<tag k="ssr:stedsnr" v="468445" />
	</node>
	<node lat="59.411441668475106" lon="9.281624998440275" id="-20795">
		<tag k="fixme" v="consider place=hamlet" />
		<tag k="name" v="Kuslungen" />
		<tag k="place" v="farm" />
		<tag k="ssr:stedsnr" v="468446" />
	</node>
	<node lat="59.37258611278418" lon="9.216997218195601" id="-20803">
		<tag k="fixme" v="consider place=hamlet" />
		<tag k="name" v="Vestgarden" />
		<tag k="place" v="farm" />
		<tag k="ssr:stedsnr" v="468791" />
	</node>
	<node lat="59.36810555200937" lon="9.179286113288436" id="-20805">
		<tag k="alt_name" v="Nordre Årnes" />
		<tag k="fixme" v="consider place=hamlet" />
		<tag k="name" v="Årnes" />
		<tag k="place" v="farm" />
		<tag k="ssr:stedsnr" v="468992" />
	</node>
	<node lat="59.42646944678483" lon="9.02400556095122" id="-20810">
		<tag k="name" v="Saga" />
		<tag k="place" v="farm" />
		<tag k="ssr:stedsnr" v="328558" />
	</node>
	<node lat="59.44653333297014" lon="9.030694437590247" id="-20813">
		<tag k="name" v="Bergskås" />
		<tag k="place" v="farm" />
		<tag k="ssr:stedsnr" v="329053" />
	</node>
	<node lat="59.40777778141096" lon="8.954349998403176" id="-20814">
		<tag k="name" v="Tjønntveit" />
		<tag k="place" v="farm" />
		<tag k="ssr:stedsnr" v="329058" />
	</node>
	<node lat="59.43793055337082" lon="9.136397227854458" id="-20815">
		<tag k="name" v="Haslekåsa" />
		<tag k="place" v="locality" />
		<tag k="ssr:stedsnr" v="329303" />
	</node>
	<node lat="59.41547500263313" lon="9.039966673066525" id="-20816">
		<tag k="name" v="Nordbø" />
		<tag k="place" v="farm" />
		<tag k="ssr:stedsnr" v="329523" />
	</node>
	<node lat="59.38394444833219" lon="9.062200006415791" id="-20817">
		<tag k="name" v="Solvang" />
		<tag k="place" v="farm" />
		<tag k="ssr:stedsnr" v="329402" />
	</node>
	<node lat="59.41313888678855" lon="9.078930556405254" id="-20818">
		<tag k="name" v="Grivi" />
		<tag k="place" v="farm" />
		<tag k="ssr:stedsnr" v="329653" />
	</node>
	<node lat="59.40817500169874" lon="9.102336116963354" id="-20819">
		<tag k="name" v="Kåsa" />
		<tag k="place" v="farm" />
		<tag k="ssr:stedsnr" v="329669" />
	</node>
	<node lat="59.41714722454473" lon="9.106136118727633" id="-20821">
		<tag k="name" v="Haugland" />
		<tag k="place" v="farm" />
		<tag k="ssr:stedsnr" v="329710" />
	</node>
	<node lat="59.4163555552193" lon="9.108338897050393" id="-20823">
		<tag k="name" v="Haugland" />
		<tag k="place" v="farm" />
		<tag k="ssr:stedsnr" v="329718" />
	</node>
	<node lat="59.40115555751904" lon="8.949347230316953" id="-20824">
		<tag k="name" v="Kåsa" />
		<tag k="place" v="isolated_dwelling" />
		<tag k="ssr:stedsnr" v="330004" />
	</node>
	<node lat="59.44051388453719" lon="9.074783327555014" id="-20826">
		<tag k="name" v="Kultan" />
		<tag k="place" v="farm" />
		<tag k="ssr:stedsnr" v="330067" />
	</node>
	<node lat="59.41670277629503" lon="8.840894441079259" id="-20828">
		<tag k="name" v="Grabbu" />
		<tag k="place" v="locality" />
		<tag k="ssr:stedsnr" v="330207" />
	</node>
	<node lat="59.39079722093599" lon="8.989530554471056" id="-20829">
		<tag k="name" v="Dalen" />
		<tag k="place" v="farm" />
		<tag k="ssr:stedsnr" v="330153" />
	</node>
	<node lat="59.471724997451716" lon="8.950494436467059" id="-20834">
		<tag k="historic" v="shieling" />
		<tag k="name" v="Smylestul" />
		<tag k="place" v="isolated_dwelling" />
		<tag k="ssr:stedsnr" v="331302" />
	</node>
	<node lat="59.416919444262355" lon="9.325708338807683" id="-20844">
		<tag k="fixme" v="consider place=suburb, village or hamlet" />
		<tag k="name" v="Vidsjå" />
		<tag k="place" v="quarter" />
		<tag k="ssr:stedsnr" v="346057" />
	</node>
	<node lat="59.40009166961544" lon="9.259741659791528" id="-20848">
		<tag k="name" v="Elvestad" />
		<tag k="place" v="farm" />
		<tag k="ssr:stedsnr" v="346513" />
	</node>
	<node lat="59.4092222202501" lon="9.171844438615699" id="-20849">
		<tag k="fixme" v="consider place=hamlet" />
		<tag k="name" v="Berge" />
		<tag k="place" v="farm" />
		<tag k="ssr:stedsnr" v="346267" />
	</node>
	<node lat="59.402538888912815" lon="9.17225277765164" id="-20850">
		<tag k="name" v="Hallen" />
		<tag k="place" v="farm" />
		<tag k="ssr:stedsnr" v="346277" />
	</node>
	<node lat="59.42287291933166" lon="9.230024310483827" id="-20851">
		<tag k="name" v="Damtjønnbua" />
		<tag k="place" v="locality" />
		<tag k="ssr:stedsnr" v="346474" />
	</node>
	<node lat="59.363194442783396" lon="9.176411109088336" id="-20855">
		<tag k="name" v="Kveldro" />
		<tag k="place" v="isolated_dwelling" />
		<tag k="ssr:stedsnr" v="346915" />
	</node>
	<node lat="59.36271944211206" lon="9.1825555536294" id="-20856">
		<tag k="name" v="Årnes" />
		<tag k="place" v="farm" />
		<tag k="ssr:stedsnr" v="346922" />
	</node>
	<node lat="59.490050002149246" lon="9.215725008402167" id="-20858">
		<tag k="historic" v="shieling" />
		<tag k="name" v="Breidstul" />
		<tag k="place" v="isolated_dwelling" />
		<tag k="ssr:stedsnr" v="347056" />
	</node>
	<node lat="59.40187778111849" lon="9.2941194412039" id="-20862">
		<tag k="alt_name" v="Nedre Hvåla" />
		<tag k="name" v="Hvåla" />
		<tag k="place" v="farm" />
		<tag k="ssr:stedsnr" v="347122" />
	</node>
	<node lat="59.33243610879346" lon="9.196061103803695" id="-20863">
		<tag k="name" v="Storli østre" />
		<tag k="place" v="farm" />
		<tag k="ssr:stedsnr" v="347126" />
	</node>
	<node lat="59.382427778236945" lon="9.177155549257753" id="-20869">
		<tag k="name" v="Laskemoen" />
		<tag k="place" v="farm" />
		<tag k="ssr:stedsnr" v="347622" />
	</node>
	<node lat="59.38829722110849" lon="9.040994447898958" id="-20871">
		<tag k="alt_name" v="Eikenrud" />
		<tag k="fixme" v="consider place=hamlet" />
		<tag k="name" v="Eikjarud" />
		<tag k="place" v="farm" />
		<tag k="ssr:stedsnr" v="366316" />
	</node>
	<node lat="59.40681389080479" lon="9.109775007567167" id="-20874">
		<tag k="name" v="Skogen" />
		<tag k="place" v="farm" />
		<tag k="ssr:stedsnr" v="366347" />
	</node>
	<node lat="59.401769441925026" lon="9.129336111970979" id="-20875">
		<tag k="name" v="Skogen" />
		<tag k="place" v="farm" />
		<tag k="ssr:stedsnr" v="366349" />
	</node>
	<node lat="59.422872218045725" lon="9.087127774181203" id="-20880">
		<tag k="name" v="Helland" />
		<tag k="place" v="farm" />
		<tag k="ssr:stedsnr" v="366435" />
	</node>
	<node lat="59.42791110802367" lon="9.092938882531126" id="-20881">
		<tag k="name" v="Undermo" />
		<tag k="place" v="farm" />
		<tag k="ssr:stedsnr" v="366436" />
	</node>
	<node lat="59.42045555812497" lon="8.914627781616948" id="-20882">
		<tag k="name" v="Soterud" />
		<tag k="place" v="farm" />
		<tag k="ssr:stedsnr" v="366440" />
	</node>
	<node lat="59.49656389154243" lon="9.046627769990595" id="-20885">
		<tag k="name" v="Moen" />
		<tag k="place" v="isolated_dwelling" />
		<tag k="ssr:stedsnr" v="366592" />
	</node>
	<node lat="59.39357499783362" lon="9.224499994127013" id="-20888">
		<tag k="fixme" v="consider place=hamlet" />
		<tag k="name" v="Holtan" />
		<tag k="place" v="farm" />
		<tag k="ssr:stedsnr" v="366881" />
	</node>
	<node lat="59.37898055650942" lon="9.356736113789646" id="-20889">
		<tag k="name" v="Vihus" />
		<tag k="place" v="isolated_dwelling" />
		<tag k="ssr:stedsnr" v="366911" />
	</node>
	<node lat="59.444755551922576" lon="9.337802780103283" id="-20890">
		<tag k="name" v="Haugedal" />
		<tag k="place" v="farm" />
		<tag k="ssr:stedsnr" v="366933" />
	</node>
	<node lat="59.410613884988905" lon="9.296824996534939" id="-20891">
		<tag k="fixme" v="consider place=hamlet" />
		<tag k="name" v="Haug" />
		<tag k="place" v="farm" />
		<tag k="ssr:stedsnr" v="366980" />
	</node>
	<node lat="59.41119166394994" lon="9.332588880744805" id="-20892">
		<tag k="name" v="Kleiv" />
		<tag k="place" v="farm" />
		<tag k="ssr:stedsnr" v="366983" />
	</node>
	<node lat="59.5081583298544" lon="9.13457777564645" id="-20895">
		<tag k="name" v="Slemmeli" />
		<tag k="place" v="farm" />
		<tag k="ssr:stedsnr" v="367398" />
	</node>
	<node lat="59.385841666077006" lon="9.160100005563466" id="-20896">
		<tag k="name" v="Hetterudfeltet" />
		<tag k="place" v="quarter" />
		<tag k="ssr:stedsnr" v="482966" />
	</node>
	<node lat="59.41064999814268" lon="9.056813888938162" id="-20901">
		<tag k="leisure" v="pitch" />
		<tag k="name" v="Gullbring" />
		<tag k="ssr:stedsnr" v="389239" />
	</node>
	<node lat="59.390886112340574" lon="9.16449999226523" id="-20905">
		<tag k="alt_name" v="Sagavoll folkehøyskole" />
		<tag k="amenity" v="university" />
		<tag k="name" v="Sagavoll" />
		<tag k="ssr:stedsnr" v="389795" />
	</node>
	<node lat="59.41538055357522" lon="9.075858328674054" id="-20907">
		<tag k="name" v="Grivi" />
		<tag k="place" v="farm" />
		<tag k="ssr:stedsnr" v="389689" />
	</node>
	<node lat="59.43767777397033" lon="9.08455833647248" id="-20911">
		<tag k="name" v="Sersland" />
		<tag k="place" v="farm" />
		<tag k="ssr:stedsnr" v="390046" />
	</node>
	<node lat="59.403288886836116" lon="9.04971388062257" id="-20913">
		<tag k="name" v="Nerbø" />
		<tag k="place" v="farm" />
		<tag k="ssr:stedsnr" v="390264" />
	</node>
	<node lat="59.3972805541546" lon="9.046588884767832" id="-20916">
		<tag k="name" v="Solvang" />
		<tag k="place" v="farm" />
		<tag k="ssr:stedsnr" v="390298" />
	</node>
	<node lat="59.45645833090603" lon="8.968155556714656" id="-20923">
		<tag k="name" v="Skorra" />
		<tag k="place" v="locality" />
		<tag k="ssr:stedsnr" v="392099" />
	</node>
	<node lat="59.42625833318563" lon="8.902774997511688" id="-20926">
		<tag k="name" v="Verpe" />
		<tag k="place" v="farm" />
		<tag k="ssr:stedsnr" v="392808" />
	</node>
	<node lat="59.40723055773233" lon="9.31678332895569" id="-20933">
		<tag k="name" v="Fossli" />
		<tag k="place" v="farm" />
		<tag k="ssr:stedsnr" v="407100" />
	</node>
	<node lat="59.460450001359156" lon="9.331402775922584" id="-20934">
		<tag k="name" v="Klippen" />
		<tag k="place" v="locality" />
		<tag k="ssr:stedsnr" v="407251" />
	</node>
	<node lat="59.37734167102779" lon="9.220000000694863" id="-20941">
		<tag k="name" v="Prestegården" />
		<tag k="place" v="farm" />
		<tag k="ssr:stedsnr" v="407692" />
	</node>
	<node lat="59.37753610677454" lon="9.202252783147113" id="-20942">
		<tag k="name" v="Nyhus" />
		<tag k="place" v="farm" />
		<tag k="ssr:stedsnr" v="407701" />
	</node>
	<node lat="59.37023610881146" lon="9.226297230402169" id="-20945">
		<tag k="alt_name" v="Søndre Nes" />
		<tag k="fixme" v="consider place=hamlet" />
		<tag k="name" v="Nes" />
		<tag k="place" v="farm" />
		<tag k="ssr:stedsnr" v="407800" />
	</node>
	<node lat="59.4529916634477" lon="9.298005550166447" id="-20946">
		<tag k="name" v="Masterkåsa" />
		<tag k="place" v="locality" />
		<tag k="ssr:stedsnr" v="408004" />
	</node>
	<node lat="59.39973888914681" lon="9.138847222686493" id="-20952">
		<tag k="name" v="Haugerud" />
		<tag k="place" v="farm" />
		<tag k="ssr:stedsnr" v="408291" />
	</node>
	<node lat="59.48772500180595" lon="9.293277779695075" id="-20955">
		<tag k="name" v="Flåta" />
		<tag k="place" v="farm" />
		<tag k="ssr:stedsnr" v="487042" />
	</node>
	<node lat="59.37398611175199" lon="8.950675006725968" id="-20956">
		<tag k="name" v="Uvdal" />
		<tag k="place" v="farm" />
		<tag k="ssr:stedsnr" v="487294" />
	</node>
	<node lat="59.407947222267524" lon="9.129130562859277" id="-20957">
		<tag k="name" v="Øya" />
		<tag k="place" v="farm" />
		<tag k="ssr:stedsnr" v="487364" />
	</node>
	<node lat="59.40478333639278" lon="9.196947218825343" id="-20958">
		<tag k="alt_name" v="Kåsine" />
		<tag k="name" v="Kåsin" />
		<tag k="place" v="farm" />
		<tag k="ssr:stedsnr" v="487372" />
	</node>
	<node lat="59.39496388957727" lon="8.898408337447831" id="-20959">
		<tag k="name" v="Sandstul" />
		<tag k="place" v="isolated_dwelling" />
		<tag k="ssr:stedsnr" v="487390" />
	</node>
	<node lat="59.42387221869892" lon="8.876699993008561" id="-20961">
		<tag k="name" v="Øverbømoen" />
		<tag k="place" v="farm" />
		<tag k="ssr:stedsnr" v="487458" />
	</node>
	<node lat="59.49078611464235" lon="9.082436106263902" id="-20967">
		<tag k="name" v="Tveiten" />
		<tag k="place" v="farm" />
		<tag k="ssr:stedsnr" v="487668" />
	</node>
	<node lat="59.412466662417124" lon="9.283941668031725" id="-20969">
		<tag k="name" v="Sauar" />
		<tag k="place" v="farm" />
		<tag k="ssr:stedsnr" v="487996" />
	</node>
	<node lat="59.47385278122281" lon="9.323566662555882" id="-20970">
		<tag k="name" v="Hagen" />
		<tag k="place" v="farm" />
		<tag k="ssr:stedsnr" v="488035" />
	</node>
	<node lat="59.341547218976174" lon="9.213597230477077" id="-20971">
		<tag k="name" v="Nyhus" />
		<tag k="place" v="farm" />
		<tag k="ssr:stedsnr" v="488211" />
	</node>
	<node lat="59.41843611003516" lon="9.154613887685516" id="-20972">
		<tag k="name" v="Kise" />
		<tag k="place" v="farm" />
		<tag k="ssr:stedsnr" v="488378" />
	</node>
	<node lat="59.52026944675488" lon="9.018063885221675" id="-20973">
		<tag k="historic" v="shieling" />
		<tag k="name" v="Årlia" />
		<tag k="place" v="isolated_dwelling" />
		<tag k="ssr:stedsnr" v="488381" />
	</node>
	<node lat="59.39063055651573" lon="9.313899991497117" id="-20974">
		<tag k="alt_name" v="Kvitås-kåsa" />
		<tag k="name" v="Kåsa" />
		<tag k="place" v="farm" />
		<tag k="ssr:stedsnr" v="488911" />
	</node>
	<node lat="59.388597220823144" lon="9.262811103889376" id="-20975">
		<tag k="name" v="Dalen" />
		<tag k="place" v="farm" />
		<tag k="ssr:stedsnr" v="488913" />
	</node>
	<node lat="59.385133336697145" lon="9.246747219410183" id="-20976">
		<tag k="alt_name" v="Eyra" />
		<tag k="name" v="Øya" />
		<tag k="place" v="farm" />
		<tag k="ssr:stedsnr" v="488915" />
	</node>
	<node lat="59.40461110984642" lon="9.306350000123832" id="-20977">
		<tag k="fixme" v="consider place=hamlet" />
		<tag k="name" v="Moen" />
		<tag k="place" v="farm" />
		<tag k="ssr:stedsnr" v="488876" />
	</node>
	<node lat="59.38050277991906" lon="9.201311102860736" id="-20980">
		<tag k="name" v="Nyhus" />
		<tag k="place" v="farm" />
		<tag k="ssr:stedsnr" v="427308" />
	</node>
	<node lat="59.36913239812312" lon="8.883855154806412" id="-20981">
		<tag k="alt_name" v="Bakkjerr" />
		<tag k="name" v="Bakkjer" />
		<tag k="place" v="locality" />
		<tag k="ssr:stedsnr" v="427310" />
	</node>
	<node lat="59.40960833424689" lon="9.11601388409721" id="-20982">
		<tag k="name" v="Nymoen" />
		<tag k="place" v="farm" />
		<tag k="ssr:stedsnr" v="427377" />
	</node>
	<node lat="59.399713892054" lon="8.895716671071908" id="-20983">
		<tag k="name" v="Slåtta" />
		<tag k="place" v="isolated_dwelling" />
		<tag k="ssr:stedsnr" v="427387" />
	</node>
	<node lat="59.402972218022015" lon="8.955186109099799" id="-20984">
		<tag k="alt_name" v="Gravajordet" />
		<tag k="fixme" v="consider place=hamlet" />
		<tag k="name" v="Gravjord" />
		<tag k="place" v="farm" />
		<tag k="ssr:stedsnr" v="427393" />
	</node>
	<node lat="59.43459444023018" lon="9.118313887579053" id="-20988">
		<tag k="alt_name" v="Askildtrud" />
		<tag k="fixme" v="consider place=hamlet" />
		<tag k="name" v="Askiltrud" />
		<tag k="place" v="farm" />
		<tag k="ssr:stedsnr" v="427424" />
	</node>
	<node lat="59.48720833455109" lon="9.050930552454957" id="-20991">
		<tag k="name" v="Ufsin" />
		<tag k="place" v="isolated_dwelling" />
		<tag k="ssr:stedsnr" v="427617" />
	</node>
	<node lat="59.487624997412034" lon="8.970666674269397" id="-20994">
		<tag k="alt_name" v="Oksla seter" />
		<tag k="historic" v="shieling" />
		<tag k="name" v="Oksla" />
		<tag k="place" v="isolated_dwelling" />
		<tag k="ssr:stedsnr" v="427575" />
	</node>
	<node lat="59.4971250012849" lon="9.142366674148583" id="-20995">
		<tag k="name" v="Haugen" />
		<tag k="place" v="farm" />
		<tag k="ssr:stedsnr" v="427584" />
	</node>
	<node lat="59.469241669432044" lon="8.982063884472122" id="-20996">
		<tag k="historic" v="shieling" />
		<tag k="name" v="Vihus" />
		<tag k="place" v="isolated_dwelling" />
		<tag k="ssr:stedsnr" v="427601" />
	</node>
	<node lat="59.36669444750852" lon="9.262122214488073" id="-20997">
		<tag k="alt_name" v="Lia-grenda" />
		<tag k="name" v="Liagrend" />
		<tag k="place" v="hamlet" />
		<tag k="ssr:stedsnr" v="427781" />
	</node>
	<node lat="59.39529999947681" lon="9.26723054877982" id="-20998">
		<tag k="name" v="Holta" />
		<tag k="place" v="farm" />
		<tag k="ssr:stedsnr" v="427875" />
	</node>
	<node lat="59.37500000177472" lon="9.267227773387678" id="-20999">
		<tag k="name" v="Lia" />
		<tag k="place" v="farm" />
		<tag k="ssr:stedsnr" v="427918" />
	</node>
	<node lat="59.41920000202382" lon="9.268850000143694" id="-21000">
		<tag k="name" v="Borgarås" />
		<tag k="place" v="farm" />
		<tag k="ssr:stedsnr" v="427978" />
	</node>
	<node lat="59.41802500006662" lon="9.308922230046731" id="-21001">
		<tag k="name" v="Vollen" />
		<tag k="place" v="farm" />
		<tag k="ssr:stedsnr" v="427984" />
	</node>
	<node lat="59.44035555466012" lon="9.301013897125559" id="-21003">
		<tag k="name" v="Kringsjå" />
		<tag k="place" v="farm" />
		<tag k="ssr:stedsnr" v="670947" />
	</node>
	<node lat="59.42734722632897" lon="9.082902769599976" id="-21005">
		<tag k="name" v="Ågetveit" />
		<tag k="place" v="farm" />
		<tag k="ssr:stedsnr" v="450220" />
	</node>
	<node lat="59.410672225298136" lon="9.0434833273266" id="-21007">
		<tag k="name" v="Nordbø" />
		<tag k="place" v="farm" />
		<tag k="ssr:stedsnr" v="450233" />
	</node>
	<node lat="59.42090833308065" lon="9.037622220798728" id="-21010">
		<tag k="name" v="Fossheim" />
		<tag k="place" v="farm" />
		<tag k="ssr:stedsnr" v="450514" />
	</node>
	<node lat="59.50040277410752" lon="9.090774996009735" id="-21013">
		<tag k="name" v="Jørgedal" />
		<tag k="place" v="farm" />
		<tag k="ssr:stedsnr" v="450575" />
	</node>
	<node lat="59.49356666368798" lon="9.086466658945975" id="-21015">
		<tag k="name" v="Lauvslåtten" />
		<tag k="place" v="farm" />
		<tag k="ssr:stedsnr" v="450584" />
	</node>
	<node lat="59.40863333094895" lon="8.921383341194547" id="-21016">
		<tag k="name" v="Kleiva" />
		<tag k="place" v="farm" />
		<tag k="ssr:stedsnr" v="451115" />
	</node>
	<node lat="59.39728333431723" lon="9.011686115473342" id="-21019">
		<tag k="name" v="Høyslass" />
		<tag k="place" v="locality" />
		<tag k="ssr:stedsnr" v="451316" />
	</node>
	<node lat="59.44391388671024" lon="9.073230553473397" id="-21020">
		<tag k="name" v="Tjønntveit" />
		<tag k="place" v="farm" />
		<tag k="ssr:stedsnr" v="451322" />
	</node>
	<node lat="59.39713889240781" lon="9.037502776780004" id="-21021">
		<tag k="name" v="Brekka" />
		<tag k="place" v="locality" />
		<tag k="ssr:stedsnr" v="451323" />
	</node>
	<node lat="59.44214444015491" lon="9.127799996601443" id="-21022">
		<tag k="name" v="Tangen" />
		<tag k="place" v="locality" />
		<tag k="ssr:stedsnr" v="451328" />
	</node>
	<node lat="59.387622220948984" lon="9.062661119303002" id="-21023">
		<tag k="alt_name" v="Rui" />
		<tag k="name" v="Roe" />
		<tag k="place" v="farm" />
		<tag k="ssr:stedsnr" v="451404" />
	</node>
	<node lat="59.42174999639701" lon="9.048736113963114" id="-21025">
		<tag k="name" v="Bergene" />
		<tag k="place" v="farm" />
		<tag k="ssr:stedsnr" v="451562" />
	</node>
	<node lat="59.512733330108986" lon="9.048322216891945" id="-21027">
		<tag k="name" v="Skarestulen" />
		<tag k="place" v="locality" />
		<tag k="ssr:stedsnr" v="451582" />
	</node>
	<node lat="59.46533055329029" lon="9.033200008232612" id="-21037">
		<tag k="name" v="Håråldskar" />
		<tag k="place" v="locality" />
		<tag k="ssr:stedsnr" v="453512" />
	</node>
	<node lat="59.34515833230106" lon="9.207261116150857" id="-21040">
		<tag k="name" v="Årås nedre" />
		<tag k="place" v="farm" />
		<tag k="ssr:stedsnr" v="468043" />
	</node>
	<node lat="59.36909167090355" lon="9.167894445127876" id="-21048">
		<tag k="name" v="Fjelstad" />
		<tag k="place" v="farm" />
		<tag k="ssr:stedsnr" v="468183" />
	</node>
	<node lat="59.46874999729487" lon="9.293863896909503" id="-21060">
		<tag k="name" v="Roe" />
		<tag k="place" v="farm" />
		<tag k="ssr:stedsnr" v="468490" />
	</node>
	<node lat="59.39574721784308" lon="9.22817777901353" id="-21061">
		<tag k="name" v="Spirholt" />
		<tag k="place" v="locality" />
		<tag k="ssr:stedsnr" v="468621" />
	</node>
	<node lat="59.47712222083817" lon="9.304427779562376" id="-21062">
		<tag k="fixme" v="multiple name tags, choose one and add the other to alt_name" />
		<tag k="name" v="Østistugu;Hæm lille" />
		<tag k="place" v="farm" />
		<tag k="ssr:stedsnr" v="468527" />
	</node>
	<node lat="59.451519444466584" lon="9.357936108521075" id="-21064">
		<tag k="name" v="Innleggen" />
		<tag k="place" v="locality" />
		<tag k="ssr:stedsnr" v="468719" />
	</node>
	<node lat="59.45764999571056" lon="9.318402777514633" id="-21068">
		<tag k="name" v="Bolvik" />
		<tag k="place" v="farm" />
		<tag k="ssr:stedsnr" v="487023" />
	</node>
	<node lat="59.37063889004309" lon="9.173047219267556" id="-21069">
		<tag k="name" v="Nordadal" />
		<tag k="place" v="farm" />
		<tag k="ssr:stedsnr" v="487308" />
	</node>
	<node lat="59.39598055333264" lon="9.199077775710293" id="-21072">
		<tag k="name" v="Fossheim" />
		<tag k="place" v="farm" />
		<tag k="ssr:stedsnr" v="487403" />
	</node>
	<node lat="59.39964166840079" lon="9.138908337650145" id="-21073">
		<tag k="name" v="Haugerud" />
		<tag k="place" v="farm" />
		<tag k="ssr:stedsnr" v="487401" />
	</node>
	<node lat="59.44138889203723" lon="9.058213887810336" id="-21075">
		<tag k="alt_name" v="Eikja" />
		<tag k="fixme" v="consider place=hamlet" />
		<tag k="name" v="Eika" />
		<tag k="place" v="farm" />
		<tag k="ssr:stedsnr" v="487509" />
	</node>
	<node lat="59.42670555291937" lon="9.285136107746402" id="-21077">
		<tag k="name" v="Kåsin" />
		<tag k="place" v="farm" />
		<tag k="ssr:stedsnr" v="487969" />
	</node>
	<node lat="59.417683334984524" lon="9.275441665196125" id="-21078">
		<tag k="alt_name" v="Sauar vestre" />
		<tag k="fixme" v="consider place=hamlet" />
		<tag k="name" v="Sauar" />
		<tag k="place" v="farm" />
		<tag k="ssr:stedsnr" v="487974" />
	</node>
	<node lat="59.390797221704624" lon="9.064625008597025" id="-21082">
		<tag k="name" v="Steinsrud" />
		<tag k="place" v="farm" />
		<tag k="ssr:stedsnr" v="488295" />
	</node>
	<node lat="59.455936112759446" lon="8.970913895301145" id="-21083">
		<tag k="name" v="Åstul" />
		<tag k="place" v="isolated_dwelling" />
		<tag k="ssr:stedsnr" v="488436" />
	</node>
	<node lat="59.46433055481322" lon="9.00374166531363" id="-21085">
		<tag k="name" v="Vårbu" />
		<tag k="place" v="locality" />
		<tag k="ssr:stedsnr" v="488449" />
	</node>
	<node lat="59.46999721974527" lon="9.07028055556879" id="-21087">
		<tag k="alt_name" v="Simonbekk" />
		<tag k="name" v="Simonsbekk" />
		<tag k="place" v="farm" />
		<tag k="ssr:stedsnr" v="488451" />
	</node>
	<node lat="59.41907222413135" lon="9.075563885371249" id="-21089">
		<tag k="alt_name" v="Nordre Sanden" />
		<tag k="fixme" v="consider place=hamlet" />
		<tag k="name" v="Sanda" />
		<tag k="place" v="farm" />
		<tag k="ssr:stedsnr" v="488398" />
	</node>
	<node lat="59.39254166273238" lon="9.233086108231875" id="-21092">
		<tag k="name" v="Hegna" />
		<tag k="place" v="farm" />
		<tag k="ssr:stedsnr" v="488899" />
	</node>
	<node lat="59.426813891275245" lon="9.052411107461394" id="-21093">
		<tag k="name" v="Pålskås" />
		<tag k="place" v="farm" />
		<tag k="ssr:stedsnr" v="510563" />
	</node>
	<node lat="59.40839166626349" lon="9.072019450364136" id="-21097">
		<tag k="name" v="Oppheim" />
		<tag k="place" v="farm" />
		<tag k="ssr:stedsnr" v="511623" />
	</node>
	<node lat="59.52504722594875" lon="9.125813892421279" id="-21098">
		<tag k="name" v="Glytten" />
		<tag k="place" v="locality" />
		<tag k="ssr:stedsnr" v="511738" />
	</node>
	<node lat="59.409091665346494" lon="9.124580553554779" id="-21099">
		<tag k="name" v="Stordal" />
		<tag k="place" v="farm" />
		<tag k="ssr:stedsnr" v="511982" />
	</node>
	<node lat="59.410774998603145" lon="8.926980555503164" id="-21101">
		<tag k="name" v="Moen" />
		<tag k="place" v="farm" />
		<tag k="ssr:stedsnr" v="512113" />
	</node>
	<node lat="59.4001861155908" lon="9.051150000151962" id="-21103">
		<tag k="name" v="Veirud" />
		<tag k="place" v="isolated_dwelling" />
		<tag k="ssr:stedsnr" v="512270" />
	</node>
	<node lat="59.49862221821291" lon="9.04084166449083" id="-21107">
		<tag k="name" v="Årmotholet" />
		<tag k="place" v="locality" />
		<tag k="ssr:stedsnr" v="513611" />
	</node>
	<node lat="59.41073333312139" lon="9.163655547647274" id="-21112">
		<tag k="name" v="Evju" />
		<tag k="place" v="farm" />
		<tag k="ssr:stedsnr" v="528302" />
	</node>
	<node lat="59.4046444430812" lon="9.259330562488651" id="-21115">
		<tag k="name" v="Vegheim" />
		<tag k="place" v="farm" />
		<tag k="ssr:stedsnr" v="528530" />
	</node>
	<node lat="59.38443888519815" lon="9.329219435632055" id="-21116">
		<tag k="name" v="Dale" />
		<tag k="place" v="isolated_dwelling" />
		<tag k="ssr:stedsnr" v="528276" />
	</node>
	<node lat="59.41180833325005" lon="9.148816666260347" id="-21117">
		<tag k="name" v="Norheim" />
		<tag k="place" v="farm" />
		<tag k="ssr:stedsnr" v="528291" />
	</node>
	<node lat="59.435238891564964" lon="9.171247228578002" id="-21119">
		<tag k="historic" v="shieling" />
		<tag k="name" v="Tveiten" />
		<tag k="place" v="isolated_dwelling" />
		<tag k="ssr:stedsnr" v="528603" />
	</node>
	<node lat="59.374272218228484" lon="9.340777769749836" id="-21127">
		<tag k="historic" v="shieling" />
		<tag k="name" v="Lyhaug" />
		<tag k="place" v="isolated_dwelling" />
		<tag k="ssr:stedsnr" v="529236" />
	</node>
	<node lat="59.39786666436849" lon="9.159805549028095" id="-21128">
		<tag k="name" v="Østtveit" />
		<tag k="place" v="farm" />
		<tag k="ssr:stedsnr" v="529245" />
	</node>
	<node lat="59.47413610860406" lon="9.325538889690185" id="-21132">
		<tag k="name" v="Bergli" />
		<tag k="place" v="isolated_dwelling" />
		<tag k="ssr:stedsnr" v="528988" />
	</node>
	<node lat="59.41174166685267" lon="9.308541662821211" id="-21133">
		<tag k="name" v="Ripegutu" />
		<tag k="place" v="farm" />
		<tag k="ssr:stedsnr" v="529103" />
	</node>
	<node lat="59.402502775272225" lon="9.311286114652894" id="-21134">
		<tag k="name" v="Skotbakken" />
		<tag k="place" v="farm" />
		<tag k="ssr:stedsnr" v="529116" />
	</node>
	<node lat="59.399252777666284" lon="9.197722217341513" id="-21137">
		<tag k="name" v="Flåterud" />
		<tag k="place" v="farm" />
		<tag k="ssr:stedsnr" v="529414" />
	</node>
	<node lat="59.425697222134396" lon="9.292377773048395" id="-21140">
		<tag k="name" v="Rønningen" />
		<tag k="place" v="farm" />
		<tag k="ssr:stedsnr" v="529505" />
	</node>
	<node lat="59.46907222187342" lon="9.315799996131949" id="-21143">
		<tag k="name" v="Bergenn" />
		<tag k="place" v="isolated_dwelling" />
		<tag k="ssr:stedsnr" v="529932" />
	</node>
	<node lat="59.46939444046481" lon="9.325988892836381" id="-21145">
		<tag k="name" v="Åsheim" />
		<tag k="place" v="farm" />
		<tag k="ssr:stedsnr" v="710563" />
	</node>
	<node lat="59.390425003096034" lon="9.156936112874607" id="-21146">
		<tag k="name" v="Ødegården" />
		<tag k="place" v="quarter" />
		<tag k="ssr:stedsnr" v="543966" />
	</node>
	<node lat="59.49212499842688" lon="9.293497217784093" id="-21149">
		<tag k="name" v="Lønvik" />
		<tag k="place" v="farm" />
		<tag k="ssr:stedsnr" v="548062" />
	</node>
	<node lat="59.41294166435707" lon="8.947622216230942" id="-21150">
		<tag k="name" v="Erikstein" />
		<tag k="place" v="farm" />
		<tag k="ssr:stedsnr" v="548402" />
	</node>
	<node lat="59.41762499588559" lon="9.097744436364163" id="-21151">
		<tag k="name" v="Roteberg" />
		<tag k="place" v="farm" />
		<tag k="ssr:stedsnr" v="548418" />
	</node>
	<node lat="59.41546666905253" lon="9.17392777873326" id="-21152">
		<tag k="alt_name" v="Søndre Dyrud" />
		<tag k="fixme" v="consider place=hamlet" />
		<tag k="name" v="Dyrud" />
		<tag k="place" v="farm" />
		<tag k="ssr:stedsnr" v="548421" />
	</node>
	<node lat="59.434002776770704" lon="9.121313888273672" id="-21153">
		<tag k="name" v="Hegna" />
		<tag k="place" v="farm" />
		<tag k="ssr:stedsnr" v="548422" />
	</node>
	<node lat="59.40328333689178" lon="9.036880549015374" id="-21159">
		<tag k="name" v="Moland" />
		<tag k="place" v="farm" />
		<tag k="ssr:stedsnr" v="548373" />
	</node>
	<node lat="59.49064444041852" lon="9.087288883537742" id="-21160">
		<tag k="name" v="Utbråtan" />
		<tag k="place" v="farm" />
		<tag k="ssr:stedsnr" v="548621" />
	</node>
	<node lat="59.44438888626253" lon="9.013027778718428" id="-21165">
		<tag k="name" v="Liene" />
		<tag k="place" v="farm" />
		<tag k="ssr:stedsnr" v="693030" />
	</node>
	<node lat="59.40804444766467" lon="8.948561112361482" id="-21166">
		<tag k="name" v="Evju" />
		<tag k="place" v="farm" />
		<tag k="ssr:stedsnr" v="693060" />
	</node>
	<node lat="59.464214487351626" lon="8.957704906538176" id="-21167">
		<tag k="name" v="Høgsås" />
		<tag k="place" v="isolated_dwelling" />
		<tag k="ssr:stedsnr" v="693119" />
	</node>
	<node lat="59.42487777605046" lon="9.12557499712513" id="-21170">
		<tag k="name" v="Hegnastykket" />
		<tag k="place" v="farm" />
		<tag k="ssr:stedsnr" v="693333" />
	</node>
	<node lat="59.440391664438124" lon="9.13144444991806" id="-21171">
		<tag k="name" v="Kleiva" />
		<tag k="place" v="locality" />
		<tag k="ssr:stedsnr" v="693343" />
	</node>
	<node lat="59.411241667626726" lon="9.03905834212363" id="-21172">
		<tag k="fixme" v="consider place=hamlet" />
		<tag k="name" v="Nordbø" />
		<tag k="place" v="farm" />
		<tag k="ssr:stedsnr" v="693297" />
	</node>
	<node lat="59.39985555316372" lon="8.963619452610038" id="-21175">
		<tag k="name" v="Tølløvskot" />
		<tag k="place" v="locality" />
		<tag k="ssr:stedsnr" v="570036" />
	</node>
	<node lat="59.4132694456168" lon="8.952752770036616" id="-21180">
		<tag k="name" v="Skruverud" />
		<tag k="place" v="farm" />
		<tag k="ssr:stedsnr" v="571047" />
	</node>
	<node lat="59.404111113389014" lon="8.967302784101726" id="-21183">
		<tag k="name" v="Skoe" />
		<tag k="place" v="farm" />
		<tag k="ssr:stedsnr" v="571063" />
	</node>
	<node lat="59.42685555486149" lon="9.035041667700115" id="-21184">
		<tag k="name" v="Solid" />
		<tag k="place" v="farm" />
		<tag k="ssr:stedsnr" v="571560" />
	</node>
	<node lat="59.41926666838014" lon="9.037502783470137" id="-21185">
		<tag k="name" v="Bergland" />
		<tag k="place" v="farm" />
		<tag k="ssr:stedsnr" v="571509" />
	</node>
	<node lat="59.41733889284904" lon="9.031477769029683" id="-21186">
		<tag k="name" v="Midtland" />
		<tag k="place" v="farm" />
		<tag k="ssr:stedsnr" v="571512" />
	</node>
	<node lat="59.4173416637961" lon="9.027391668298401" id="-21187">
		<tag k="name" v="Glennahaugen" />
		<tag k="place" v="farm" />
		<tag k="ssr:stedsnr" v="571513" />
	</node>
	<node lat="59.405063889839575" lon="9.071036114099249" id="-21189">
		<tag k="name" v="Åsen" />
		<tag k="place" v="locality" />
		<tag k="ssr:stedsnr" v="693665" />
	</node>
	<node lat="59.392158332057136" lon="9.106186118690724" id="-21198">
		<tag k="name" v="Åsen" />
		<tag k="place" v="locality" />
		<tag k="ssr:stedsnr" v="572197" />
	</node>
	<node lat="59.45354444176184" lon="9.11362500833161" id="-21199">
		<tag k="name" v="Vøllen" />
		<tag k="place" v="locality" />
		<tag k="ssr:stedsnr" v="572303" />
	</node>
	<node lat="59.4057361124892" lon="8.847050005658366" id="-21204">
		<tag k="name" v="Gautil" />
		<tag k="place" v="locality" />
		<tag k="ssr:stedsnr" v="694132" />
	</node>
	<node lat="59.48808888524783" lon="9.043569444843138" id="-21205">
		<tag k="name" v="Veltunstulen" />
		<tag k="place" v="locality" />
		<tag k="ssr:stedsnr" v="573708" />
	</node>
	<node lat="59.38252499566336" lon="9.035375005173089" id="-21208">
		<tag k="name" v="Eikja" />
		<tag k="place" v="farm" />
		<tag k="ssr:stedsnr" v="694301" />
	</node>
	<node lat="59.37967221780189" lon="8.937324998295043" id="-21210">
		<tag k="name" v="Tveiten" />
		<tag k="place" v="farm" />
		<tag k="ssr:stedsnr" v="574035" />
	</node>
	<node lat="59.37010833649305" lon="8.881344451472788" id="-21212">
		<tag k="name" v="Bakkjer" />
		<tag k="place" v="locality" />
		<tag k="ssr:stedsnr" v="574257" />
	</node>
	<node lat="59.45396388695282" lon="9.044463889604481" id="-21218">
		<tag k="name" v="Kytelia" />
		<tag k="place" v="farm" />
		<tag k="ssr:stedsnr" v="695044" />
	</node>
	<node lat="59.44227499932579" lon="8.999902775019889" id="-21224">
		<tag k="name" v="Slåtta" />
		<tag k="place" v="locality" />
		<tag k="ssr:stedsnr" v="695859" />
	</node>
	<node lat="59.48207499709313" lon="9.035952778632888" id="-21229">
		<tag k="name" v="Futhol" />
		<tag k="place" v="locality" />
		<tag k="ssr:stedsnr" v="696437" />
	</node>
	<node lat="59.485777778628226" lon="9.026174999543933" id="-21230">
		<tag k="historic" v="shieling" />
		<tag k="name" v="Liastulen" />
		<tag k="place" v="isolated_dwelling" />
		<tag k="ssr:stedsnr" v="696438" />
	</node>
	<node lat="59.44861666625168" lon="9.303619445661987" id="-21236">
		<tag k="name" v="Nord Ramsvik" />
		<tag k="place" v="locality" />
		<tag k="ssr:stedsnr" v="589008" />
	</node>
	<node lat="59.416149999683405" lon="9.299291669934277" id="-21237">
		<tag k="name" v="Gripastad-kåsa" />
		<tag k="place" v="locality" />
		<tag k="ssr:stedsnr" v="589010" />
	</node>
	<node lat="59.473163888042635" lon="9.402911118968898" id="-21243">
		<tag k="name" v="Sorgenfri" />
		<tag k="place" v="isolated_dwelling" />
		<tag k="ssr:stedsnr" v="589459" />
	</node>
	<node lat="59.42529166809728" lon="8.978305562354564" id="-21245">
		<tag k="amenity" v="school" />
		<tag k="name" v="Grotemo" />
		<tag k="ssr:stedsnr" v="696829" />
	</node>
	<node lat="59.47031388943401" lon="9.370683327794854" id="-21247">
		<tag k="name" v="Gamlestul" />
		<tag k="place" v="locality" />
		<tag k="ssr:stedsnr" v="589568" />
	</node>
	<node lat="59.45809722071273" lon="9.335233341691607" id="-21248">
		<tag k="name" v="Holte nordre" />
		<tag k="place" v="farm" />
		<tag k="ssr:stedsnr" v="589770" />
	</node>
	<node lat="59.459972220661626" lon="9.333047214918711" id="-21249">
		<tag k="name" v="Solheim" />
		<tag k="place" v="isolated_dwelling" />
		<tag k="ssr:stedsnr" v="589772" />
	</node>
	<node lat="59.37316667065327" lon="9.214461106654658" id="-21254">
		<tag k="name" v="Langjordet" />
		<tag k="place" v="farm" />
		<tag k="ssr:stedsnr" v="589803" />
	</node>
	<node lat="59.367519441361445" lon="9.262830547211804" id="-21255">
		<tag k="name" v="Lia" />
		<tag k="place" v="farm" />
		<tag k="ssr:stedsnr" v="589812" />
	</node>
	<node lat="59.48631944329929" lon="9.297477778435159" id="-21256">
		<tag k="name" v="Uleberg nedre" />
		<tag k="place" v="farm" />
		<tag k="ssr:stedsnr" v="589820" />
	</node>
	<node lat="59.39426110970308" lon="9.181744439504559" id="-21260">
		<tag k="name" v="Gunnheim" />
		<tag k="place" v="farm" />
		<tag k="ssr:stedsnr" v="590658" />
	</node>
	<node lat="59.38091388598618" lon="9.232738894410195" id="-21261">
		<tag k="name" v="Haugen" />
		<tag k="place" v="isolated_dwelling" />
		<tag k="ssr:stedsnr" v="590670" />
	</node>
	<node lat="59.456813891131844" lon="9.402450006291355" id="-21264">
		<tag k="name" v="Elgstøa" />
		<tag k="place" v="isolated_dwelling" />
		<tag k="ssr:stedsnr" v="608004" />
	</node>
	<node lat="59.460861108556706" lon="9.33772777372165" id="-21265">
		<tag k="name" v="Hegna" />
		<tag k="place" v="farm" />
		<tag k="ssr:stedsnr" v="608001" />
	</node>
	<node lat="59.44481388848406" lon="9.033902779300286" id="-21266">
		<tag k="fixme" v="consider place=hamlet" />
		<tag k="name" v="Li" />
		<tag k="place" v="farm" />
		<tag k="ssr:stedsnr" v="608456" />
	</node>
	<node lat="59.37800555330692" lon="9.17720277959353" id="-21268">
		<tag k="building" v="industrial" />
		<tag k="industrial" v="factory" />
		<tag k="name" v="Norsjø sag" />
		<tag k="ssr:stedsnr" v="608344" />
	</node>
	<node lat="59.38223333435536" lon="9.157002780745781" id="-21269">
		<tag k="fixme" v="consider place=hamlet" />
		<tag k="name" v="Hetterud" />
		<tag k="place" v="farm" />
		<tag k="ssr:stedsnr" v="608345" />
	</node>
	<node lat="59.40928055110352" lon="9.054375002806147" id="-21270">
		<tag k="fixme" v="consider place=hamlet" />
		<tag k="name" v="Bø" />
		<tag k="place" v="farm" />
		<tag k="ssr:stedsnr" v="608354" />
	</node>
	<node lat="59.43112500298565" lon="9.004169445810948" id="-21276">
		<tag k="name" v="Innleggen" />
		<tag k="place" v="farm" />
		<tag k="ssr:stedsnr" v="609404" />
	</node>
	<node lat="59.43087499751239" lon="9.026061105164722" id="-21277">
		<tag k="name" v="Tollehaugen" />
		<tag k="place" v="farm" />
		<tag k="ssr:stedsnr" v="609410" />
	</node>
	<node lat="59.41411666888711" lon="9.120074992338896" id="-21279">
		<tag k="name" v="Åmot" />
		<tag k="place" v="farm" />
		<tag k="ssr:stedsnr" v="609389" />
	</node>
	<node lat="59.46001723538908" lon="9.106584284496133" id="-21281">
		<tag k="name" v="Brukåsa" />
		<tag k="place" v="locality" />
		<tag k="ssr:stedsnr" v="609467" />
	</node>
	<node lat="59.387358330951685" lon="9.24910555498216" id="-21282">
		<tag k="name" v="Odden" />
		<tag k="place" v="isolated_dwelling" />
		<tag k="ssr:stedsnr" v="609911" />
	</node>
	<node lat="59.416474995578454" lon="9.037202782036367" id="-21289">
		<tag k="name" v="Bakkane" />
		<tag k="place" v="isolated_dwelling" />
		<tag k="ssr:stedsnr" v="632509" />
	</node>
	<node lat="59.47303055432325" lon="9.074116666024796" id="-21291">
		<tag k="name" v="Sjellbreidhaugen" />
		<tag k="place" v="locality" />
		<tag k="ssr:stedsnr" v="632479" />
	</node>
	<node lat="59.40414722060035" lon="9.111319442461225" id="-21292">
		<tag k="name" v="Skogen" />
		<tag k="place" v="farm" />
		<tag k="ssr:stedsnr" v="632635" />
	</node>
	<node lat="59.4333250024204" lon="9.069244450606757" id="-21296">
		<tag k="name" v="Folkestad" />
		<tag k="place" v="farm" />
		<tag k="ssr:stedsnr" v="633028" />
	</node>
	<node lat="59.40581944267385" lon="9.119208342008879" id="-21297">
		<tag k="name" v="Skogkåsa" />
		<tag k="place" v="farm" />
		<tag k="ssr:stedsnr" v="632978" />
	</node>
	<node lat="59.40930000005646" lon="8.937947217257824" id="-21298">
		<tag k="name" v="Nymoen" />
		<tag k="place" v="farm" />
		<tag k="ssr:stedsnr" v="633130" />
	</node>
	<node lat="59.403997218463964" lon="9.011863882890784" id="-21301">
		<tag k="name" v="Halvorskås" />
		<tag k="place" v="isolated_dwelling" />
		<tag k="ssr:stedsnr" v="633311" />
	</node>
	<node lat="59.43699166443374" lon="8.985927776012717" id="-21308">
		<tag k="name" v="Langeskor" />
		<tag k="place" v="locality" />
		<tag k="ssr:stedsnr" v="634876" />
	</node>
	<node lat="59.44164166956528" lon="9.001038880806417" id="-21310">
		<tag k="name" v="Kolahuset" />
		<tag k="place" v="locality" />
		<tag k="ssr:stedsnr" v="634882" />
	</node>
	<node lat="59.41404166727475" lon="9.136697215176756" id="-21314">
		<tag k="name" v="Moen" />
		<tag k="place" v="farm" />
		<tag k="ssr:stedsnr" v="649297" />
	</node>
	<node lat="59.411830558974586" lon="9.265661103517976" id="-21315">
		<tag k="name" v="Nordre Skobba" />
		<tag k="place" v="farm" />
		<tag k="ssr:stedsnr" v="649508" />
	</node>
	<node lat="59.37112222286376" lon="9.221183327788728" id="-21330">
		<tag k="name" v="Øygarden" />
		<tag k="place" v="farm" />
		<tag k="ssr:stedsnr" v="650885" />
	</node>
	<node lat="59.41678055469278" lon="9.125097229302371" id="-21333">
		<tag k="amenity" v="nursing_home" />
		<tag k="name" v="Samtun" />
		<tag k="ssr:stedsnr" v="664991" />
	</node>
	<node lat="59.401636113285356" lon="9.167074997672687" id="-21337">
		<tag k="name" v="Sørtveit" />
		<tag k="place" v="farm" />
		<tag k="ssr:stedsnr" v="710279" />
	</node>
	<node lat="59.39615277409464" lon="9.28861667056241" id="-21338">
		<tag k="name" v="Ånås" />
		<tag k="place" v="isolated_dwelling" />
		<tag k="ssr:stedsnr" v="710261" />
	</node>
	<node lat="59.47193611139741" lon="9.286205561447222" id="-21339">
		<tag k="name" v="Sudlykkja" />
		<tag k="place" v="farm" />
		<tag k="ssr:stedsnr" v="669030" />
	</node>
	<node lat="59.40554558246181" lon="9.126669244956595" id="-21340">
		<tag k="name" v="Storkås" />
		<tag k="place" v="farm" />
		<tag k="ssr:stedsnr" v="669327" />
	</node>
	<node lat="59.43783889155933" lon="8.867102769217244" id="-21341">
		<tag k="name" v="Kasin" />
		<tag k="place" v="farm" />
		<tag k="ssr:stedsnr" v="669475" />
	</node>
	<node lat="59.48994724857411" lon="9.15637361255246" id="-21343">
		<tag k="alt_name" v="Roem" />
		<tag k="fixme" v="consider place=hamlet" />
		<tag k="name" v="Roheim" />
		<tag k="place" v="farm" />
		<tag k="ssr:stedsnr" v="669630" />
	</node>
	<node lat="59.49303333389964" lon="9.20166389048059" id="-21345">
		<tag k="alt_name" v="Myren" />
		<tag k="name" v="Myrane" />
		<tag k="place" v="isolated_dwelling" />
		<tag k="ssr:stedsnr" v="669585" />
	</node>
	<node lat="59.492438885316986" lon="9.099349993135496" id="-21346">
		<tag k="name" v="Lona" />
		<tag k="place" v="farm" />
		<tag k="ssr:stedsnr" v="669592" />
	</node>
	<node lat="59.49330833729588" lon="9.074280549000598" id="-21347">
		<tag k="name" v="Røysland" />
		<tag k="place" v="farm" />
		<tag k="ssr:stedsnr" v="669593" />
	</node>
	<node lat="59.381072219597094" lon="9.23001666164063" id="-21351">
		<tag k="name" v="Nesland" />
		<tag k="place" v="farm" />
		<tag k="ssr:stedsnr" v="669928" />
	</node>
	<node lat="59.41311666367199" lon="9.290052783696867" id="-21352">
		<tag k="name" v="Moen" />
		<tag k="place" v="farm" />
		<tag k="ssr:stedsnr" v="669984" />
	</node>
	<node lat="59.41875277504467" lon="9.081422231018761" id="-21354">
		<tag k="name" v="Sanda" />
		<tag k="place" v="farm" />
		<tag k="ssr:stedsnr" v="670375" />
	</node>
	<node lat="59.41767499976521" lon="9.143933330162124" id="-21355">
		<tag k="name" v="Våle" />
		<tag k="place" v="farm" />
		<tag k="ssr:stedsnr" v="670393" />
	</node>
	<node lat="59.466943885920585" lon="8.973282433486071" id="-21357">
		<tag k="name" v="Krossmyrane" />
		<tag k="place" v="locality" />
		<tag k="ssr:stedsnr" v="670569" />
	</node>
	<node lat="59.417780558259565" lon="9.347424992451007" id="-21358">
		<tag k="name" v="Langås" />
		<tag k="place" v="isolated_dwelling" />
		<tag k="ssr:stedsnr" v="670995" />
	</node>
	<node lat="59.35169166426021" lon="9.193283338006164" id="-21366">
		<tag k="name" v="Solli" />
		<tag k="place" v="farm" />
		<tag k="ssr:stedsnr" v="893093" />
	</node>
	<node lat="59.48782777797147" lon="9.291091663230523" id="-21368">
		<tag k="name" v="Dalen" />
		<tag k="place" v="farm" />
		<tag k="ssr:stedsnr" v="893099" />
	</node>
	<node lat="59.41963333779145" lon="9.12732500851531" id="-21371">
		<tag k="name" v="Sverdmyr" />
		<tag k="place" v="farm" />
		<tag k="ssr:stedsnr" v="893286" />
	</node>
	<node lat="59.418486113368914" lon="9.139752769141342" id="-21372">
		<tag k="name" v="Helgetveit" />
		<tag k="place" v="farm" />
		<tag k="ssr:stedsnr" v="893288" />
	</node>
	<node lat="59.47544999578466" lon="9.217291660020216" id="-21376">
		<tag k="historic" v="shieling" />
		<tag k="name" v="Vidsjå-stul" />
		<tag k="place" v="isolated_dwelling" />
		<tag k="ssr:stedsnr" v="893246" />
	</node>
	<node lat="59.3658777813271" lon="9.261361113824773" id="-21383">
		<tag k="name" v="Lia" />
		<tag k="place" v="farm" />
		<tag k="ssr:stedsnr" v="893807" />
	</node>
	<node lat="59.442266670615446" lon="9.027930558144618" id="-21389">
		<tag k="name" v="Teig" />
		<tag k="place" v="locality" />
		<tag k="ssr:stedsnr" v="692480" />
	</node>
	<node lat="59.42820833371776" lon="9.05703610857057" id="-21390">
		<tag k="name" v="Sisjord" />
		<tag k="place" v="farm" />
		<tag k="ssr:stedsnr" v="692524" />
	</node>
	<node lat="59.44755277777449" lon="9.027611117251432" id="-21391">
		<tag k="name" v="Bergskås" />
		<tag k="place" v="farm" />
		<tag k="ssr:stedsnr" v="693023" />
	</node>
	<node lat="59.41978055945155" lon="8.970705547504647" id="-21392">
		<tag k="name" v="Haugerud" />
		<tag k="place" v="farm" />
		<tag k="ssr:stedsnr" v="693091" />
	</node>
	<node lat="59.398933336877825" lon="9.051724994193101" id="-21394">
		<tag k="name" v="Veirud" />
		<tag k="place" v="farm" />
		<tag k="ssr:stedsnr" v="693486" />
	</node>
	<node lat="59.416952776556165" lon="9.058224997408859" id="-21396">
		<tag k="name" v="Holmen" />
		<tag k="place" v="farm" />
		<tag k="ssr:stedsnr" v="693522" />
	</node>
	<node lat="59.4282777776615" lon="9.048811115034292" id="-21397">
		<tag k="fixme" v="consider place=hamlet" />
		<tag k="name" v="Djupskås" />
		<tag k="place" v="farm" />
		<tag k="ssr:stedsnr" v="693588" />
	</node>
	<node lat="59.452483331091216" lon="9.118838897434044" id="-21401">
		<tag k="name" v="Bjønnemyr" />
		<tag k="place" v="farm" />
		<tag k="ssr:stedsnr" v="693919" />
	</node>
	<node lat="59.40741666340043" lon="8.937705558602962" id="-21403">
		<tag k="name" v="Bergstig" />
		<tag k="place" v="isolated_dwelling" />
		<tag k="ssr:stedsnr" v="694080" />
	</node>
	<node lat="59.40629722560543" lon="8.945433331976584" id="-21404">
		<tag k="fixme" v="consider place=hamlet" />
		<tag k="name" v="Tveitan" />
		<tag k="place" v="farm" />
		<tag k="ssr:stedsnr" v="694083" />
	</node>
	<node lat="59.47846666713681" lon="9.067716668419164" id="-21411">
		<tag k="name" v="Flåta" />
		<tag k="place" v="isolated_dwelling" />
		<tag k="ssr:stedsnr" v="694470" />
	</node>
	<node lat="59.4329277762854" lon="9.05940277096162" id="-21412">
		<tag k="name" v="Hellos" />
		<tag k="place" v="locality" />
		<tag k="ssr:stedsnr" v="694618" />
	</node>
	<node lat="59.50906944893335" lon="8.992758328924593" id="-21414">
		<tag k="name" v="Fjellstul" />
		<tag k="place" v="locality" />
		<tag k="ssr:stedsnr" v="694572" />
	</node>
	<node lat="59.48128055128078" lon="9.297958326987002" id="-21431">
		<tag k="name" v="Lauvhagen" />
		<tag k="place" v="isolated_dwelling" />
		<tag k="ssr:stedsnr" v="710586" />
	</node>
	<node lat="59.46148055687812" lon="9.298855557834123" id="-21433">
		<tag k="name" v="Zimmerhaug" />
		<tag k="place" v="isolated_dwelling" />
		<tag k="ssr:stedsnr" v="711010" />
	</node>
	<node lat="59.338402774363416" lon="9.209752777217867" id="-21436">
		<tag k="name" v="Flåtåland" />
		<tag k="place" v="locality" />
		<tag k="ssr:stedsnr" v="711040" />
	</node>
	<node lat="59.32771111173644" lon="9.225249994496194" id="-21437">
		<tag k="name" v="Deilskås" />
		<tag k="place" v="locality" />
		<tag k="ssr:stedsnr" v="711130" />
	</node>
	<node lat="59.33021944067262" lon="9.210344444182525" id="-21438">
		<tag k="name" v="Kåsin" />
		<tag k="place" v="locality" />
		<tag k="ssr:stedsnr" v="711141" />
	</node>
	<node lat="59.403641670575595" lon="9.134477770369084" id="-21443">
		<tag k="building" v="industrial" />
		<tag k="name" v="Brenna" />
		<tag k="ssr:stedsnr" v="711289" />
	</node>
	<node lat="59.4000583303866" lon="9.267152783489436" id="-21448">
		<tag k="name" v="Nedre Bunkholt" />
		<tag k="place" v="farm" />
		<tag k="ssr:stedsnr" v="711481" />
	</node>
	<node lat="59.427658329087905" lon="9.317377775658107" id="-21450">
		<tag k="name" v="Kåsin" />
		<tag k="place" v="farm" />
		<tag k="ssr:stedsnr" v="711605" />
	</node>
	<node lat="59.399227780733064" lon="9.17981666617751" id="-21452">
		<tag k="name" v="Kåsa" />
		<tag k="place" v="farm" />
		<tag k="ssr:stedsnr" v="711617" />
	</node>
	<node lat="59.387027776430656" lon="9.197341670691252" id="-21453">
		<tag k="name" v="Tinghaug" />
		<tag k="place" v="locality" />
		<tag k="ssr:stedsnr" v="711632" />
	</node>
	<node lat="59.46884999714522" lon="9.288755550313228" id="-21457">
		<tag k="name" v="Hegna" />
		<tag k="place" v="farm" />
		<tag k="ssr:stedsnr" v="730016" />
	</node>
	<node lat="59.46876110983865" lon="9.311661116487496" id="-21458">
		<tag k="name" v="Arudshegna" />
		<tag k="place" v="farm" />
		<tag k="ssr:stedsnr" v="730018" />
	</node>
	<node lat="59.433544441849484" lon="8.908119438644905" id="-21462">
		<tag k="name" v="Landsverk" />
		<tag k="place" v="locality" />
		<tag k="ssr:stedsnr" v="730479" />
	</node>
	<node lat="59.44913552797268" lon="8.917142854897566" id="-21464">
		<tag k="name" v="Skålbu" />
		<tag k="place" v="locality" />
		<tag k="ssr:stedsnr" v="730517" />
	</node>
	<node lat="59.408302774581905" lon="9.318011107035945" id="-21467">
		<tag k="name" v="Fossli" />
		<tag k="place" v="farm" />
		<tag k="ssr:stedsnr" v="730887" />
	</node>
	<node lat="59.45349166900256" lon="9.324836117810085" id="-21468">
		<tag k="fixme" v="consider place=hamlet" />
		<tag k="name" v="Stenningen" />
		<tag k="place" v="farm" />
		<tag k="ssr:stedsnr" v="731007" />
	</node>
	<node lat="59.41566111453993" lon="9.312125008202964" id="-21470">
		<tag k="name" v="Hegna" />
		<tag k="place" v="farm" />
		<tag k="ssr:stedsnr" v="730980" />
	</node>
	<node lat="59.38884722566294" lon="9.27360554835871" id="-21472">
		<tag k="fixme" v="consider place=hamlet" />
		<tag k="name" v="Ryntvet" />
		<tag k="place" v="farm" />
		<tag k="ssr:stedsnr" v="731906" />
	</node>
	<node lat="59.4049138889878" lon="9.0318944502918" id="-21476">
		<tag k="name" v="Tjønna" />
		<tag k="place" v="locality" />
		<tag k="ssr:stedsnr" v="753202" />
	</node>
	<node lat="59.41466111046274" lon="9.017547225196884" id="-21477">
		<tag k="name" v="Espeland" />
		<tag k="place" v="farm" />
		<tag k="ssr:stedsnr" v="753456" />
	</node>
	<node lat="59.439586110143125" lon="9.01080834203706" id="-21478">
		<tag k="name" v="Skorra" />
		<tag k="place" v="locality" />
		<tag k="ssr:stedsnr" v="753465" />
	</node>
	<node lat="59.41862500058488" lon="8.975863893527006" id="-21481">
		<tag k="name" v="Kåsin" />
		<tag k="place" v="farm" />
		<tag k="ssr:stedsnr" v="754110" />
	</node>
	<node lat="59.378577778454876" lon="9.020580552214323" id="-21483">
		<tag k="name" v="Fossli" />
		<tag k="place" v="farm" />
		<tag k="ssr:stedsnr" v="754399" />
	</node>
	<node lat="59.421708337394705" lon="9.006075008088281" id="-21485">
		<tag k="name" v="Bakås" />
		<tag k="place" v="farm" />
		<tag k="ssr:stedsnr" v="754559" />
	</node>
	<node lat="59.410236110411404" lon="9.111008330636574" id="-21486">
		<tag k="name" v="Åsgrav" />
		<tag k="place" v="farm" />
		<tag k="ssr:stedsnr" v="754714" />
	</node>
	<node lat="59.4080472245529" lon="9.097633335110972" id="-21487">
		<tag k="fixme" v="consider place=hamlet" />
		<tag k="name" v="Lien" />
		<tag k="place" v="farm" />
		<tag k="ssr:stedsnr" v="754718" />
	</node>
	<node lat="59.457619440449015" lon="9.038413894109839" id="-21492">
		<tag k="historic" v="shieling" />
		<tag k="name" v="Heimstulen" />
		<tag k="place" v="isolated_dwelling" />
		<tag k="ssr:stedsnr" v="755067" />
	</node>
	<node lat="59.428069440964826" lon="8.989769446131975" id="-21493">
		<tag k="name" v="Hyttekåsa" />
		<tag k="place" v="locality" />
		<tag k="ssr:stedsnr" v="755847" />
	</node>
	<node lat="59.4862472208204" lon="9.056099991323302" id="-21496">
		<tag k="historic" v="shieling" />
		<tag k="name" v="Myrenstulen" />
		<tag k="place" v="isolated_dwelling" />
		<tag k="ssr:stedsnr" v="755724" />
	</node>
	<node lat="59.47799722222796" lon="9.034833326425474" id="-21497">
		<tag k="name" v="Haugestul" />
		<tag k="place" v="locality" />
		<tag k="ssr:stedsnr" v="756503" />
	</node>
	<node lat="59.46489999649839" lon="9.320986119223758" id="-21500">
		<tag k="fixme" v="consider place=hamlet" />
		<tag k="name" v="Arud" />
		<tag k="place" v="farm" />
		<tag k="ssr:stedsnr" v="768009" />
	</node>
	<node lat="59.40106110816466" lon="9.30034721731737" id="-21501">
		<tag k="name" v="Åse" />
		<tag k="place" v="isolated_dwelling" />
		<tag k="ssr:stedsnr" v="771015" />
	</node>
	<node lat="59.36005832902757" lon="9.268386109825427" id="-21511">
		<tag k="name" v="Massebu" />
		<tag k="place" v="locality" />
		<tag k="ssr:stedsnr" v="771808" />
	</node>
	<node lat="59.3612666671824" lon="9.174799992734846" id="-21513">
		<tag k="name" v="Haugen" />
		<tag k="place" v="isolated_dwelling" />
		<tag k="ssr:stedsnr" v="771921" />
	</node>
	<node lat="59.35836110727774" lon="9.187780555003846" id="-21514">
		<tag k="name" v="Lauvstad" />
		<tag k="place" v="farm" />
		<tag k="ssr:stedsnr" v="771923" />
	</node>
	<node lat="59.48611666228618" lon="9.026763887294772" id="-21519">
		<tag k="name" v="Sudknalian" />
		<tag k="place" v="isolated_dwelling" />
		<tag k="ssr:stedsnr" v="912594" />
	</node>
	<node lat="59.45150000113316" lon="9.34719999547002" id="-21520">
		<tag k="alt_name" v="Brekk-kåsa" />
		<tag k="name" v="Brekkås" />
		<tag k="place" v="farm" />
		<tag k="ssr:stedsnr" v="791009" />
	</node>
	<node lat="59.46552500397269" lon="9.388524998272588" id="-21521">
		<tag k="name" v="Dyrås" />
		<tag k="place" v="isolated_dwelling" />
		<tag k="ssr:stedsnr" v="791018" />
	</node>
	<node lat="59.38546666518134" lon="9.059311114562838" id="-21522">
		<tag k="name" v="Bergland" />
		<tag k="place" v="farm" />
		<tag k="ssr:stedsnr" v="791303" />
	</node>
	<node lat="59.375474999301616" lon="9.034541663516096" id="-21524">
		<tag k="fixme" v="consider place=hamlet" />
		<tag k="name" v="Åse" />
		<tag k="place" v="farm" />
		<tag k="ssr:stedsnr" v="791327" />
	</node>
	<node lat="59.40113055359431" lon="9.207580556839115" id="-21526">
		<tag k="name" v="Flåthaugen" />
		<tag k="place" v="farm" />
		<tag k="ssr:stedsnr" v="791335" />
	</node>
	<node lat="59.40319722666018" lon="9.201552780713941" id="-21527">
		<tag k="name" v="Åsheim" />
		<tag k="place" v="farm" />
		<tag k="ssr:stedsnr" v="791336" />
	</node>
	<node lat="59.41086389019351" lon="9.149788895529886" id="-21528">
		<tag k="name" v="Hustveit" />
		<tag k="place" v="farm" />
		<tag k="ssr:stedsnr" v="791338" />
	</node>
	<node lat="59.39368333675482" lon="9.142863884599132" id="-21530">
		<tag k="fixme" v="consider place=hamlet" />
		<tag k="name" v="Håtveit" />
		<tag k="place" v="farm" />
		<tag k="ssr:stedsnr" v="791354" />
	</node>
	<node lat="59.34416666706717" lon="9.21414166907569" id="-21532">
		<tag k="name" v="Haug" />
		<tag k="place" v="farm" />
		<tag k="ssr:stedsnr" v="791245" />
	</node>
	<node lat="59.4888805542792" lon="9.12725000587597" id="-21534">
		<tag k="name" v="Tjønnås" />
		<tag k="place" v="isolated_dwelling" />
		<tag k="ssr:stedsnr" v="791603" />
	</node>
	<node lat="59.485049996543296" lon="9.158016660761977" id="-21535">
		<tag k="name" v="Lauvstad" />
		<tag k="place" v="farm" />
		<tag k="ssr:stedsnr" v="791605" />
	</node>
	<node lat="59.476411113032995" lon="9.013702780157262" id="-21538">
		<tag k="fixme" v="consider tourism=alpine_hut or tourism=chalet" />
		<tag k="name" v="Lifjellstua" />
		<tag k="ssr:stedsnr" v="791588" />
		<tag k="tourism" v="wilderness_hut" />
	</node>
	<node lat="59.4052138907108" lon="9.278386113183453" id="-21540">
		<tag k="alt_name" v="Høyom" />
		<tag k="name" v="Høyum" />
		<tag k="place" v="farm" />
		<tag k="ssr:stedsnr" v="791886" />
	</node>
	<node lat="59.39775277871104" lon="9.339872224386" id="-21541">
		<tag k="fixme" v="consider place=hamlet" />
		<tag k="name" v="Rogholt" />
		<tag k="place" v="farm" />
		<tag k="ssr:stedsnr" v="791892" />
	</node>
	<node lat="59.39664167006905" lon="9.284325005302994" id="-21542">
		<tag k="name" v="Ånås" />
		<tag k="place" v="farm" />
		<tag k="ssr:stedsnr" v="791895" />
	</node>
	<node lat="59.39970555283041" lon="9.258283332577994" id="-21543">
		<tag k="name" v="Flatland" />
		<tag k="place" v="farm" />
		<tag k="ssr:stedsnr" v="791896" />
	</node>
	<node lat="59.38208889013664" lon="9.227047217967767" id="-21545">
		<tag k="name" v="Hegna" />
		<tag k="place" v="farm" />
		<tag k="ssr:stedsnr" v="791922" />
	</node>
	<node lat="59.44482499840404" lon="9.329200001396977" id="-21546">
		<tag k="alt_name" v="Listveiten;Lille Tveiten" />
		<tag k="fixme" v="consider place=hamlet" />
		<tag k="name" v="Lisletveiten" />
		<tag k="place" v="farm" />
		<tag k="ssr:stedsnr" v="791936" />
	</node>
	<node lat="59.41588333276682" lon="9.325791664259716" id="-21548">
		<tag k="name" v="Nordagutu" />
		<tag k="place" v="village" />
		<tag k="ssr:stedsnr" v="791990" />
	</node>
	<node lat="59.46640555949434" lon="9.293675000231685" id="-21549">
		<tag k="name" v="Dale" />
		<tag k="place" v="farm" />
		<tag k="ssr:stedsnr" v="912021" />
	</node>
	<node lat="59.38965833614259" lon="8.932030559405751" id="-21550">
		<tag k="name" v="Kasin" />
		<tag k="place" v="isolated_dwelling" />
		<tag k="ssr:stedsnr" v="912335" />
	</node>
	<node lat="59.36258610671515" lon="9.163488892016762" id="-21552">
		<tag k="name" v="Innleggen" />
		<tag k="place" v="farm" />
		<tag k="ssr:stedsnr" v="912259" />
	</node>
	<node lat="59.352138892128785" lon="8.913430560381405" id="-21553">
		<tag k="historic" v="shieling" />
		<tag k="name" v="Grånåstul" />
		<tag k="place" v="isolated_dwelling" />
		<tag k="ssr:stedsnr" v="912265" />
	</node>
	<node lat="59.43995833147371" lon="9.01711943640781" id="-21555">
		<tag k="alt_name" v="Torskåsa" />
		<tag k="name" v="Torekåsa" />
		<tag k="place" v="farm" />
		<tag k="ssr:stedsnr" v="912456" />
	</node>
	<node lat="59.43864444589241" lon="9.070055549548368" id="-21559">
		<tag k="alt_name" v="Helldal" />
		<tag k="name" v="Heldal" />
		<tag k="place" v="farm" />
		<tag k="ssr:stedsnr" v="912486" />
	</node>
	<node lat="59.438283332150576" lon="9.326050000909543" id="-21563">
		<tag k="name" v="Runningen" />
		<tag k="place" v="farm" />
		<tag k="ssr:stedsnr" v="912946" />
	</node>
	<node lat="59.450041664179444" lon="9.242688883663881" id="-21565">
		<tag k="alt_name" v="Gvanntjønn-stulen" />
		<tag k="historic" v="shieling" />
		<tag k="name" v="Gvanntjørnstulen" />
		<tag k="place" v="isolated_dwelling" />
		<tag k="ssr:stedsnr" v="913008" />
	</node>
	<node lat="59.44970278077823" lon="9.348400004338819" id="-21567">
		<tag k="name" v="Lauvås" />
		<tag k="place" v="farm" />
		<tag k="ssr:stedsnr" v="913012" />
	</node>
	<node lat="59.42063333172745" lon="9.283827780136416" id="-21569">
		<tag k="name" v="Sauar" />
		<tag k="place" v="hamlet" />
		<tag k="ssr:stedsnr" v="798652" />
	</node>
	<node lat="59.38168888520304" lon="9.02963888929377" id="-21570">
		<tag k="fixme" v="consider place=hamlet" />
		<tag k="name" v="Eikjabygda" />
		<tag k="place" v="village" />
		<tag k="ssr:stedsnr" v="913320" />
	</node>
	<node lat="59.381638891997575" lon="8.930652773042272" id="-21571">
		<tag k="alt_name" v="Steinurdshol" />
		<tag k="name" v="Steinulvshol" />
		<tag k="place" v="isolated_dwelling" />
		<tag k="ssr:stedsnr" v="913326" />
	</node>
	<node lat="59.42836388705069" lon="9.197383328142283" id="-21572">
		<tag k="name" v="Liastulen" />
		<tag k="place" v="isolated_dwelling" />
		<tag k="ssr:stedsnr" v="913371" />
	</node>
	<node lat="59.52697499891258" lon="9.027308333351707" id="-21573">
		<tag k="name" v="Tyristul" />
		<tag k="place" v="locality" />
		<tag k="ssr:stedsnr" v="913381" />
	</node>
	<node lat="59.45799390971142" lon="8.992751683717017" id="-21574">
		<tag k="name" v="Åbakkane" />
		<tag k="place" v="locality" />
		<tag k="ssr:stedsnr" v="913442" />
	</node>
	<node lat="59.46541389118097" lon="9.214488886592383" id="-21575">
		<tag k="alt_name" v="Nybustul, s" />
		<tag k="name" v="Søndre Nybustul" />
		<tag k="place" v="isolated_dwelling" />
		<tag k="ssr:stedsnr" v="913443" />
	</node>
	<node lat="59.516219441070746" lon="9.112230556915096" id="-21577">
		<tag k="alt_name" v="Rudningsland" />
		<tag k="name" v="Rønningsland" />
		<tag k="place" v="farm" />
		<tag k="ssr:stedsnr" v="913451" />
	</node>
	<node lat="59.47341694619196" lon="8.994995966487082" id="-21579">
		<tag k="name" v="Grostul" />
		<tag k="place" v="locality" />
		<tag k="ssr:stedsnr" v="913454" />
	</node>
	<node lat="59.424580556713664" lon="9.136224992975487" id="-21580">
		<tag k="name" v="Sandland" />
		<tag k="place" v="farm" />
		<tag k="ssr:stedsnr" v="913410" />
	</node>
	<node lat="59.42240555643934" lon="8.977391660885377" id="-21582">
		<tag k="name" v="Haugerud" />
		<tag k="place" v="farm" />
		<tag k="ssr:stedsnr" v="913416" />
	</node>
	<node lat="59.41967777707736" lon="9.032613880657923" id="-21583">
		<tag k="alt_name" v="Midtbø" />
		<tag k="name" v="Midbø" />
		<tag k="place" v="farm" />
		<tag k="ssr:stedsnr" v="913420" />
	</node>
	<node lat="59.476460089089706" lon="9.142997667248506" id="-21584">
		<tag k="loc_name" v="Solbjørg" />
		<tag k="name" v="Solbjør" />
		<tag k="place" v="locality" />
		<tag k="ssr:stedsnr" v="913568" />
	</node>
	<node lat="59.4741388852702" lon="9.071827777574173" id="-21586">
		<tag k="alt_name" v="Skjellbreid" />
		<tag k="name" v="Skjelbreid" />
		<tag k="place" v="farm" />
		<tag k="ssr:stedsnr" v="913572" />
	</node>
	<node lat="59.401311114569104" lon="9.305022214671435" id="-21587">
		<tag k="name" v="Åse" />
		<tag k="place" v="farm" />
		<tag k="ssr:stedsnr" v="913878" />
	</node>
	<node lat="59.40403055278065" lon="9.334755560141273" id="-21588">
		<tag k="name" v="Slåttekåsa" />
		<tag k="place" v="farm" />
		<tag k="ssr:stedsnr" v="913879" />
	</node>
	<node lat="59.416772224802614" lon="9.359724998432428" id="-21589">
		<tag k="alt_name" v="Nordvårstul" />
		<tag k="name" v="Nordvollstulen" />
		<tag k="place" v="isolated_dwelling" />
		<tag k="ssr:stedsnr" v="913994" />
	</node>
	<node lat="59.41866944589379" lon="8.968130552037737" id="-21590">
		<tag k="name" v="Haugen" />
		<tag k="place" v="farm" />
		<tag k="ssr:stedsnr" v="814076" />
	</node>
	<node lat="59.389624999233206" lon="9.05886388553554" id="-21594">
		<tag k="name" v="Roe" />
		<tag k="place" v="farm" />
		<tag k="ssr:stedsnr" v="814436" />
	</node>
	<node lat="59.49235832903222" lon="9.085838882327616" id="-21595">
		<tag k="name" v="Tveiten" />
		<tag k="place" v="farm" />
		<tag k="ssr:stedsnr" v="814590" />
	</node>
	<node lat="59.41652500202803" lon="9.063077770383915" id="-21597">
		<tag k="amenity" v="school" />
		<tag k="name" v="Bø gymnas" />
		<tag k="ssr:stedsnr" v="814687" />
	</node>
	<node lat="59.433480559996774" lon="9.054675007431417" id="-21602">
		<tag k="name" v="Haugesag" />
		<tag k="place" v="locality" />
		<tag k="ssr:stedsnr" v="815578" />
	</node>
	<node lat="59.42295555933849" lon="8.904519439977292" id="-21609">
		<tag k="name" v="Sondbø" />
		<tag k="place" v="isolated_dwelling" />
		<tag k="ssr:stedsnr" v="817779" />
	</node>
	<node lat="59.354291664269844" lon="9.155019441903447" id="-21614">
		<tag k="name" v="Løkjedalen" />
		<tag k="place" v="locality" />
		<tag k="ssr:stedsnr" v="832132" />
	</node>
	<node lat="59.371872225396565" lon="9.172652771191068" id="-21616">
		<tag k="fixme" v="consider place=hamlet" />
		<tag k="name" v="Nordadal" />
		<tag k="place" v="farm" />
		<tag k="ssr:stedsnr" v="832208" />
	</node>
	<node lat="59.46180000145068" lon="9.286305551112383" id="-21617">
		<tag k="historic" v="shieling" />
		<tag k="name" v="Kåsa" />
		<tag k="place" v="isolated_dwelling" />
		<tag k="ssr:stedsnr" v="832210" />
	</node>
	<node lat="59.41030000421701" lon="9.383824996496402" id="-21618">
		<tag k="name" v="Gullbustul" />
		<tag k="place" v="locality" />
		<tag k="ssr:stedsnr" v="832211" />
	</node>
	<node lat="59.41060277376857" lon="9.158633330493338" id="-21620">
		<tag k="name" v="Evju" />
		<tag k="place" v="farm" />
		<tag k="ssr:stedsnr" v="832284" />
	</node>
	<node lat="59.411600004107356" lon="9.283513890359595" id="-21622">
		<tag k="name" v="Rinde" />
		<tag k="place" v="farm" />
		<tag k="ssr:stedsnr" v="832510" />
	</node>
	<node lat="59.474686113893696" lon="9.303675004079665" id="-21624">
		<tag k="fixme" v="multiple name tags, choose one and add the other to alt_name" />
		<tag k="name" v="Suigard;Hæm søndre" />
		<tag k="place" v="farm" />
		<tag k="ssr:stedsnr" v="832599" />
	</node>
	<node lat="59.438008334135084" lon="9.17238611678651" id="-21627">
		<tag k="fixme" v="consider tourism=alpine_hut or tourism=chalet" />
		<tag k="name" v="Årneshytta" />
		<tag k="ssr:stedsnr" v="832632" />
		<tag k="tourism" v="wilderness_hut" />
	</node>
	<node lat="59.47192499880626" lon="9.331227782219903" id="-21632">
		<tag k="name" v="Havrås" />
		<tag k="place" v="locality" />
		<tag k="ssr:stedsnr" v="832989" />
	</node>
	<node lat="59.36630833726423" lon="9.179930547674665" id="-21633">
		<tag k="name" v="Årnes" />
		<tag k="place" v="farm" />
		<tag k="ssr:stedsnr" v="832990" />
	</node>
	<node lat="59.487519442780524" lon="9.293944438870446" id="-21635">
		<tag k="name" v="Flåta" />
		<tag k="place" v="farm" />
		<tag k="ssr:stedsnr" v="832831" />
	</node>
	<node lat="59.496644448107524" lon="9.285519449223624" id="-21641">
		<tag k="name" v="Haukedalen øvre" />
		<tag k="place" v="farm" />
		<tag k="ssr:stedsnr" v="833037" />
	</node>
	<node lat="59.3816472246893" lon="9.171488884709042" id="-21643">
		<tag k="name" v="Kåsamoen" />
		<tag k="place" v="farm" />
		<tag k="ssr:stedsnr" v="833230" />
	</node>
	<node lat="59.396463886838795" lon="9.14942222219116" id="-21644">
		<tag k="name" v="Tveit" />
		<tag k="place" v="farm" />
		<tag k="ssr:stedsnr" v="833233" />
	</node>
	<node lat="59.38609444498882" lon="9.271772219859018" id="-21648">
		<tag k="name" v="Haukvik" />
		<tag k="place" v="farm" />
		<tag k="ssr:stedsnr" v="833596" />
	</node>
	<node lat="59.43371944624612" lon="9.139013882756613" id="-21654">
		<tag k="name" v="Kåsa" />
		<tag k="place" v="farm" />
		<tag k="ssr:stedsnr" v="852404" />
	</node>
	<node lat="59.40668333483811" lon="9.152341669107956" id="-21658">
		<tag k="alt_name" v="Leikvang" />
		<tag k="fixme" v="consider place=hamlet" />
		<tag k="name" v="Leikvam" />
		<tag k="place" v="farm" />
		<tag k="ssr:stedsnr" v="852360" />
	</node>
	<node lat="59.409116666722106" lon="9.160930554727404" id="-21659">
		<tag k="fixme" v="consider place=hamlet" />
		<tag k="name" v="Evju" />
		<tag k="place" v="farm" />
		<tag k="ssr:stedsnr" v="852361" />
	</node>
	<node lat="59.39426666628684" lon="9.046125000855866" id="-21660">
		<tag k="alt_name" v="Staskleiv" />
		<tag k="fixme" v="consider place=hamlet" />
		<tag k="name" v="Stadskleiv" />
		<tag k="place" v="farm" />
		<tag k="ssr:stedsnr" v="852364" />
	</node>
	<node lat="59.39594166993105" lon="9.04874443629983" id="-21661">
		<tag k="name" v="Evju" />
		<tag k="place" v="farm" />
		<tag k="ssr:stedsnr" v="852365" />
	</node>
	<node lat="59.41261388777152" lon="9.041355554133593" id="-21665">
		<tag k="name" v="Nordbø" />
		<tag k="place" v="farm" />
		<tag k="ssr:stedsnr" v="852381" />
	</node>
	<node lat="59.421224998866265" lon="9.157022223316426" id="-21666">
		<tag k="name" v="Fossland" />
		<tag k="place" v="farm" />
		<tag k="ssr:stedsnr" v="852382" />
	</node>
	<node lat="59.38311667067556" lon="9.323705563044818" id="-21669">
		<tag k="alt_name" v="Søndre Dale;Dale, øvre" />
		<tag k="name" v="Øvre Dale" />
		<tag k="place" v="farm" />
		<tag k="ssr:stedsnr" v="852915" />
	</node>
	<node lat="59.38247499992183" lon="9.24701111507453" id="-21670">
		<tag k="name" v="Dingnes" />
		<tag k="place" v="farm" />
		<tag k="ssr:stedsnr" v="852917" />
	</node>
	<node lat="59.43033055758539" lon="9.314408329279065" id="-21672">
		<tag k="name" v="Rugås" />
		<tag k="place" v="farm" />
		<tag k="ssr:stedsnr" v="852955" />
	</node>
	<node lat="59.44277499626918" lon="9.36493611260508" id="-21673">
		<tag k="alt_name" v="Øgnegravin" />
		<tag k="historic" v="shieling" />
		<tag k="name" v="Øgnegraven" />
		<tag k="place" v="isolated_dwelling" />
		<tag k="ssr:stedsnr" v="852959" />
	</node>
	<node lat="59.40641388644495" lon="9.319366671870164" id="-21675">
		<tag k="fixme" v="consider place=hamlet" />
		<tag k="name" v="Smedsvålen" />
		<tag k="place" v="farm" />
		<tag k="ssr:stedsnr" v="852867" />
	</node>
	<node lat="59.4094888885987" lon="9.080052777555336" id="-21679">
		<tag k="name" v="Torstveit" />
		<tag k="place" v="farm" />
		<tag k="ssr:stedsnr" v="875622" />
	</node>
	<node lat="59.40504722277725" lon="9.07445278147045" id="-21681">
		<tag k="name" v="Kåsin" />
		<tag k="place" v="locality" />
		<tag k="ssr:stedsnr" v="875630" />
	</node>
	<node lat="59.40220833775515" lon="9.062916661794812" id="-21682">
		<tag k="name" v="Nyland" />
		<tag k="place" v="farm" />
		<tag k="ssr:stedsnr" v="875655" />
	</node>
	<node lat="59.406483330035734" lon="8.939661116919407" id="-21683">
		<tag k="name" v="Ronningen" />
		<tag k="place" v="farm" />
		<tag k="ssr:stedsnr" v="876116" />
	</node>
	<node lat="59.442422219930805" lon="9.068705553505307" id="-21686">
		<tag k="name" v="Innleggen" />
		<tag k="place" v="farm" />
		<tag k="ssr:stedsnr" v="876069" />
	</node>
	<node lat="59.47035277707413" lon="9.0862888869399" id="-21688">
		<tag k="name" v="Breiva" />
		<tag k="place" v="locality" />
		<tag k="ssr:stedsnr" v="876504" />
	</node>
	<node lat="59.429694440073625" lon="8.88495555400801" id="-21693">
		<tag k="fixme" v="consider place=hamlet" />
		<tag k="name" v="Øvre Bø" />
		<tag k="place" v="village" />
		<tag k="ssr:stedsnr" v="877620" />
	</node>
	<node lat="59.41311389232693" lon="9.299580552637941" id="-21707">
		<tag k="name" v="Kåsa" />
		<tag k="place" v="farm" />
		<tag k="ssr:stedsnr" v="893025" />
	</node>
	<node lat="59.40455833209114" lon="9.337452779625144" id="-21709">
		<tag k="name" v="Bekkedalen" />
		<tag k="place" v="isolated_dwelling" />
		<tag k="ssr:stedsnr" v="893124" />
	</node>
	<node lat="59.333091664300696" lon="9.221866660730196" id="-21710">
		<tag k="fixme" v="consider place=hamlet" />
		<tag k="name" v="Gurstad" />
		<tag k="place" v="farm" />
		<tag k="ssr:stedsnr" v="893125" />
	</node>
	<node lat="59.472325004141716" lon="9.260561113497635" id="-21720">
		<tag k="name" v="Igletjønn-stulen" />
		<tag k="place" v="locality" />
		<tag k="ssr:stedsnr" v="893212" />
	</node>
	<node lat="59.468136115318565" lon="9.26680555042545" id="-21721">
		<tag k="name" v="Åskota" />
		<tag k="place" v="locality" />
		<tag k="ssr:stedsnr" v="893222" />
	</node>
	<node lat="59.384894441166786" lon="9.153669439825947" id="-21725">
		<tag k="name" v="Juve" />
		<tag k="place" v="farm" />
		<tag k="ssr:stedsnr" v="893270" />
	</node>
	<node lat="59.41097222187552" lon="9.158361109102973" id="-21726">
		<tag k="name" v="Sætre" />
		<tag k="place" v="farm" />
		<tag k="ssr:stedsnr" v="893273" />
	</node>
	<node lat="59.47397500233951" lon="9.324474991530364" id="-21733">
		<tag k="name" v="Ut-hagen" />
		<tag k="place" v="farm" />
		<tag k="ssr:stedsnr" v="893535" />
	</node>
	<node lat="59.39573055251001" lon="9.282127781256596" id="-21734">
		<tag k="fixme" v="consider place=hamlet" />
		<tag k="name" v="Ånås" />
		<tag k="place" v="farm" />
		<tag k="ssr:stedsnr" v="893572" />
	</node>
	<node lat="59.388919443332654" lon="9.27374721486039" id="-21735">
		<tag k="name" v="Ryntveit nedre" />
		<tag k="place" v="farm" />
		<tag k="ssr:stedsnr" v="893573" />
	</node>
	<node lat="59.40432777868345" lon="9.175041670580049" id="-21739">
		<tag k="name" v="Solstad" />
		<tag k="place" v="farm" />
		<tag k="ssr:stedsnr" v="893612" />
	</node>
	<node lat="59.385016664689154" lon="9.201869440977116" id="-21745">
		<tag k="alt_name" v="Nordre Lindem" />
		<tag k="fixme" v="consider place=hamlet" />
		<tag k="name" v="Lindheim" />
		<tag k="place" v="farm" />
		<tag k="ssr:stedsnr" v="894676" />
	</node>
	<node lat="59.4038249957524" lon="8.950516673077958" id="-21750">
		<tag k="name" v="Tveitan" />
		<tag k="place" v="farm" />
		<tag k="ssr:stedsnr" v="912418" />
	</node>
	<node lat="59.43187222189052" lon="9.081055563116891" id="-21752">
		<tag k="name" v="Myrane" />
		<tag k="place" v="farm" />
		<tag k="ssr:stedsnr" v="912439" />
	</node>
	<node lat="59.49829166305349" lon="9.132980552289045" id="-21753">
		<tag k="name" v="Slåtta" />
		<tag k="place" v="farm" />
		<tag k="ssr:stedsnr" v="912606" />
	</node>
	<node lat="59.37328888913421" lon="9.220027782390181" id="-21755">
		<tag k="fixme" v="consider place=hamlet" />
		<tag k="name" v="Nesodden" />
		<tag k="place" v="village" />
		<tag k="ssr:stedsnr" v="912825" />
	</node>
	<node lat="59.41883055539529" lon="9.235963893544964" id="-21757">
		<tag k="historic" v="shieling" />
		<tag k="name" v="Hasleto" />
		<tag k="place" v="isolated_dwelling" />
		<tag k="ssr:stedsnr" v="912999" />
	</node>
	<node lat="59.34506111333705" lon="9.204811118820942" id="-21758">
		<tag k="fixme" v="consider place=hamlet" />
		<tag k="name" v="Årås" />
		<tag k="place" v="farm" />
		<tag k="ssr:stedsnr" v="913229" />
	</node>
	<node lat="59.38947499993513" lon="8.988469435644355" id="-21759">
		<tag k="name" v="Dalen" />
		<tag k="place" v="farm" />
		<tag k="ssr:stedsnr" v="913306" />
	</node>
	<node lat="59.41614166893475" lon="9.151838894051977" id="-21761">
		<tag k="name" v="Solheim" />
		<tag k="place" v="farm" />
		<tag k="ssr:stedsnr" v="913393" />
	</node>
	<node lat="59.42147221956486" lon="8.89983888315013" id="-21763">
		<tag k="name" v="Verpe" />
		<tag k="place" v="hamlet" />
		<tag k="ssr:stedsnr" v="935453" />
	</node>
	<node lat="59.447247219144835" lon="9.072733327286347" id="-21764">
		<tag k="name" v="Sommarland" />
		<tag k="ssr:stedsnr" v="935795" />
		<tag k="tourism" v="theme_park" />
	</node>
	<node lat="59.41150000337527" lon="9.047022217981013" id="-21767">
		<tag k="name" v="Nordbø" />
		<tag k="place" v="farm" />
		<tag k="ssr:stedsnr" v="936227" />
	</node>
	<node lat="59.40763611416189" lon="9.036733338025442" id="-21768">
		<tag k="name" v="Lensegrav" />
		<tag k="place" v="locality" />
		<tag k="ssr:stedsnr" v="936238" />
	</node>
	<node lat="59.421102774264654" lon="9.010822222250695" id="-21769">
		<tag k="name" v="Bakås" />
		<tag k="place" v="farm" />
		<tag k="ssr:stedsnr" v="936511" />
	</node>
	<node lat="59.487261110909934" lon="9.171391668709443" id="-21771">
		<tag k="name" v="Mattisplassen" />
		<tag k="place" v="isolated_dwelling" />
		<tag k="ssr:stedsnr" v="936604" />
	</node>
	<node lat="59.49182222421627" lon="9.148286119011837" id="-21772">
		<tag k="name" v="Myrjord" />
		<tag k="place" v="farm" />
		<tag k="ssr:stedsnr" v="936588" />
	</node>
	<node lat="59.410097221923266" lon="8.934683337679056" id="-21773">
		<tag k="name" v="Moen" />
		<tag k="place" v="farm" />
		<tag k="ssr:stedsnr" v="937139" />
	</node>
	<node lat="59.366261114566996" lon="9.171363889759144" id="-21791">
		<tag k="name" v="Nordli" />
		<tag k="place" v="farm" />
		<tag k="ssr:stedsnr" v="953191" />
	</node>
	<node lat="59.470916663846126" lon="9.327847217209115" id="-21799">
		<tag k="name" v="Ut-Kåsin" />
		<tag k="place" v="locality" />
		<tag k="ssr:stedsnr" v="953994" />
	</node>
	<node lat="59.39200833062901" lon="9.217436113326245" id="-21809">
		<tag k="fixme" v="consider place=hamlet" />
		<tag k="name" v="Holtan" />
		<tag k="place" v="farm" />
		<tag k="ssr:stedsnr" v="954645" />
	</node>
	<node lat="59.50645585601103" lon="9.037395475854547" id="-21817">
		<tag k="fixme" v="consider place=hamlet" />
		<tag k="name" v="Årmotdalen" />
		<tag k="place" v="farm" />
		<tag k="ssr:stedsnr" v="983028" />
	</node>
	<node lat="59.442345628618924" lon="9.038136905494714" id="-21818">
		<tag k="fixme" v="consider place=hamlet" />
		<tag k="name" v="Hegnåsen" />
		<tag k="place" v="farm" />
		<tag k="ssr:stedsnr" v="983029" />
	</node>
	<node lat="59.42687540004964" lon="9.001910976056488" id="-21819">
		<tag k="fixme" v="consider place=hamlet" />
		<tag k="name" v="Siverhus" />
		<tag k="place" v="farm" />
		<tag k="ssr:stedsnr" v="983031" />
	</node>
	<node lat="59.41118969487409" lon="9.119081823006628" id="-21821">
		<tag k="fixme" v="consider place=hamlet" />
		<tag k="name" v="Torstveit" />
		<tag k="place" v="farm" />
		<tag k="ssr:stedsnr" v="983035" />
	</node>
	<node lat="59.417142388070076" lon="9.060308261886103" id="-21822">
		<tag k="fixme" v="consider place=hamlet" />
		<tag k="name" v="Bø prestegard" />
		<tag k="place" v="farm" />
		<tag k="ssr:stedsnr" v="983037" />
	</node>
	<node lat="59.386778485701655" lon="9.064794523607228" id="-21823">
		<tag k="fixme" v="consider place=hamlet" />
		<tag k="name" v="Stillingsrud" />
		<tag k="place" v="farm" />
		<tag k="ssr:stedsnr" v="983038" />
	</node>
	<node lat="59.37559874057189" lon="8.950878137288246" id="-21824">
		<tag k="fixme" v="consider place=hamlet" />
		<tag k="name" v="Oppdal" />
		<tag k="place" v="farm" />
		<tag k="ssr:stedsnr" v="983040" />
	</node>
	<node lat="59.407997666889344" lon="9.321216466516312" id="-21825">
		<tag k="fixme" v="consider place=hamlet" />
		<tag k="name" v="Vestre Løvoll" />
		<tag k="place" v="farm" />
		<tag k="ssr:stedsnr" v="983042" />
	</node>
	<node lat="59.437102485964985" lon="9.316897345344767" id="-21826">
		<tag k="name" v="Sunde" />
		<tag k="place" v="hamlet" />
		<tag k="ssr:stedsnr" v="983049" />
	</node>
	<node lat="59.40840642555795" lon="9.32319216759428" id="-21827">
		<tag k="name" v="Løvoll" />
		<tag k="place" v="hamlet" />
		<tag k="ssr:stedsnr" v="983050" />
	</node>
	<node lat="59.47737353386517" lon="9.305998189897483" id="-21828">
		<tag k="alt_name" v="Lille Hem" />
		<tag k="fixme" v="consider place=hamlet" />
		<tag k="name" v="Lille Hæm" />
		<tag k="place" v="farm" />
		<tag k="ssr:stedsnr" v="983055" />
	</node>
	<node lat="59.47714101964078" lon="9.299257238094158" id="-21829">
		<tag k="fixme" v="consider place=hamlet" />
		<tag k="name" v="Nordre Hæm" />
		<tag k="place" v="farm" />
		<tag k="ssr:stedsnr" v="983056" />
	</node>
	<node lat="59.47489524069484" lon="9.304778827153143" id="-21830">
		<tag k="name" v="Hæm" />
		<tag k="place" v="hamlet" />
		<tag k="ssr:stedsnr" v="983057" />
	</node>
	<node lat="59.41782000835355" lon="9.175250946094584" id="-21831">
		<tag k="fixme" v="consider place=hamlet" />
		<tag k="name" v="Nordre Dyrud" />
		<tag k="place" v="farm" />
		<tag k="ssr:stedsnr" v="983103" />
	</node>
	<node lat="59.41627270682033" lon="9.172687241423565" id="-21832">
		<tag k="name" v="Dyrud" />
		<tag k="place" v="hamlet" />
		<tag k="ssr:stedsnr" v="983120" />
	</node>
	<node lat="59.458749999795984" lon="9.326263885536845" id="-21833">
		<tag k="fixme" v="consider place=hamlet" />
		<tag k="name" v="Voltveit" />
		<tag k="place" v="farm" />
		<tag k="ssr:stedsnr" v="2033" />
	</node>
	<node lat="59.475813891538444" lon="9.283538882983594" id="-21834">
		<tag k="name" v="Nordlykkja" />
		<tag k="place" v="farm" />
		<tag k="ssr:stedsnr" v="2037" />
	</node>
	<node lat="59.472961106871615" lon="9.290450005327553" id="-21835">
		<tag k="alt_name" v="Berge" />
		<tag k="name" v="Berget" />
		<tag k="place" v="farm" />
		<tag k="ssr:stedsnr" v="2046" />
	</node>
	<node lat="59.4887250022383" lon="9.289313885938924" id="-21836">
		<tag k="name" v="Hegna" />
		<tag k="place" v="farm" />
		<tag k="ssr:stedsnr" v="2051" />
	</node>
	<node lat="59.45323611398579" lon="9.266600000568417" id="-21839">
		<tag k="name" v="Åsbakk" />
		<tag k="place" v="isolated_dwelling" />
		<tag k="ssr:stedsnr" v="2014" />
	</node>
	<node lat="59.45056666318998" lon="9.334297219458719" id="-21840">
		<tag k="name" v="Kåsa" />
		<tag k="place" v="farm" />
		<tag k="ssr:stedsnr" v="2018" />
	</node>
	<node lat="59.40264944801121" lon="9.142997713889729" id="-21843">
		<tag k="alt_name" v="Neset" />
		<tag k="name" v="Nesset" />
		<tag k="place" v="farm" />
		<tag k="ssr:stedsnr" v="2380" />
	</node>
	<node lat="59.40664444022052" lon="9.182355555087337" id="-21844">
		<tag k="name" v="Lia" />
		<tag k="place" v="farm" />
		<tag k="ssr:stedsnr" v="2382" />
	</node>
	<node lat="59.39417777694915" lon="9.19056388026289" id="-21846">
		<tag k="alt_name" v="Gunem" />
		<tag k="name" v="Gunnheim" />
		<tag k="place" v="farm" />
		<tag k="ssr:stedsnr" v="2391" />
	</node>
	<node lat="59.43307777780902" lon="9.034666673359043" id="-21847">
		<tag k="name" v="Oterholt" />
		<tag k="place" v="farm" />
		<tag k="ssr:stedsnr" v="2437" />
	</node>
	<node lat="59.42270555307633" lon="9.062697224316523" id="-21849">
		<tag k="name" v="Sisjord" />
		<tag k="place" v="farm" />
		<tag k="ssr:stedsnr" v="2448" />
	</node>
	<node lat="59.421505554662325" lon="9.115230557669472" id="-21850">
		<tag k="name" v="Øygarden" />
		<tag k="place" v="farm" />
		<tag k="ssr:stedsnr" v="2455" />
	</node>
	<node lat="59.38289166532708" lon="9.03136110658867" id="-21857">
		<tag k="alt_name" v="Vestre Eiken" />
		<tag k="fixme" v="consider place=hamlet" />
		<tag k="name" v="Eikja" />
		<tag k="place" v="farm" />
		<tag k="ssr:stedsnr" v="2367" />
	</node>
	<node lat="59.40674444678238" lon="9.082850000585882" id="-21858">
		<tag k="name" v="Torstveit" />
		<tag k="place" v="farm" />
		<tag k="ssr:stedsnr" v="2374" />
	</node>
	<node lat="59.47299722528148" lon="9.02720555787203" id="-21860">
		<tag k="alt_name" v="Torildstul" />
		<tag k="name" v="Torillstul" />
		<tag k="place" v="isolated_dwelling" />
		<tag k="ssr:stedsnr" v="2509" />
	</node>
	<node lat="59.369713892544716" lon="9.223375006044742" id="-21863">
		<tag k="name" v="Nes" />
		<tag k="place" v="farm" />
		<tag k="ssr:stedsnr" v="2796" />
	</node>
	<node lat="59.42799166706082" lon="9.280088883337752" id="-21868">
		<tag k="alt_name" v="Roligheten" />
		<tag k="name" v="Roligheta" />
		<tag k="place" v="farm" />
		<tag k="ssr:stedsnr" v="2948" />
	</node>
	<node lat="59.436174997081864" lon="9.359911103872259" id="-21869">
		<tag k="name" v="Bjøranslettin" />
		<tag k="place" v="isolated_dwelling" />
		<tag k="ssr:stedsnr" v="2953" />
	</node>
	<node lat="59.47203333400326" lon="9.301549995369852" id="-21870">
		<tag k="alt_name" v="Hem søndre;Søndre Hæm" />
		<tag k="fixme" v="consider place=hamlet" />
		<tag k="name" v="Søndre Hem" />
		<tag k="place" v="farm" />
		<tag k="ssr:stedsnr" v="9673" />
	</node>
	<node lat="59.3824611156071" lon="8.996774996697603" id="-21872">
		<tag k="name" v="Dagstjønndalen" />
		<tag k="place" v="farm" />
		<tag k="ssr:stedsnr" v="24066" />
	</node>
	<node lat="59.39578611562498" lon="8.962319448125804" id="-21875">
		<tag k="name" v="Åsheimkåsa" />
		<tag k="place" v="locality" />
		<tag k="ssr:stedsnr" v="25051" />
	</node>
	<node lat="59.42087222607766" lon="9.017680553976657" id="-21877">
		<tag k="name" v="Bruserud" />
		<tag k="place" v="farm" />
		<tag k="ssr:stedsnr" v="25498" />
	</node>
	<node lat="59.441569442263685" lon="9.021908331146314" id="-21878">
		<tag k="name" v="Li" />
		<tag k="place" v="farm" />
		<tag k="ssr:stedsnr" v="25514" />
	</node>
	<node lat="59.47940000230647" lon="9.086544449062327" id="-21879">
		<tag k="name" v="Jylland" />
		<tag k="place" v="locality" />
		<tag k="ssr:stedsnr" v="25450" />
	</node>
	<node lat="59.425388889799635" lon="9.03228055957343" id="-21881">
		<tag k="name" v="Storrønningen" />
		<tag k="place" v="farm" />
		<tag k="ssr:stedsnr" v="25567" />
	</node>
	<node lat="59.489494448698416" lon="9.156405561842972" id="-21882">
		<tag k="name" v="Roheim" />
		<tag k="place" v="hamlet" />
		<tag k="ssr:stedsnr" v="25602" />
	</node>
	<node lat="59.48580555908802" lon="9.161052772179278" id="-21883">
		<tag k="name" v="Roheim" />
		<tag k="place" v="farm" />
		<tag k="ssr:stedsnr" v="25603" />
	</node>
	<node lat="59.444519448145876" lon="9.022208333779103" id="-21884">
		<tag k="name" v="Heiberg" />
		<tag k="place" v="isolated_dwelling" />
		<tag k="ssr:stedsnr" v="26016" />
	</node>
	<node lat="59.424325002522814" lon="9.113369449339206" id="-21892">
		<tag k="name" v="Øygarden" />
		<tag k="place" v="farm" />
		<tag k="ssr:stedsnr" v="26245" />
	</node>
	<node lat="59.40318055763085" lon="9.046174998167075" id="-21893">
		<tag k="name" v="Kåsa" />
		<tag k="place" v="farm" />
		<tag k="ssr:stedsnr" v="26296" />
	</node>
	<node lat="59.41578055465935" lon="9.07343611666655" id="-21896">
		<tag k="fixme" v="consider place=hamlet" />
		<tag k="name" v="Kleppen" />
		<tag k="place" v="farm" />
		<tag k="ssr:stedsnr" v="26679" />
	</node>
	<node lat="59.42305000329805" lon="9.02228333605766" id="-21899">
		<tag k="name" v="Bruserud" />
		<tag k="place" v="farm" />
		<tag k="ssr:stedsnr" v="26540" />
	</node>
	<node lat="59.40692499684833" lon="9.115586112762687" id="-21901">
		<tag k="name" v="Myrane" />
		<tag k="place" v="farm" />
		<tag k="ssr:stedsnr" v="26653" />
	</node>
	<node lat="59.41809721847025" lon="9.073413891998642" id="-21903">
		<tag k="name" v="Haugerud" />
		<tag k="place" v="farm" />
		<tag k="ssr:stedsnr" v="26730" />
	</node>
	<node lat="59.40728611113548" lon="9.120261117742798" id="-21907">
		<tag k="name" v="Haugdalen" />
		<tag k="place" v="farm" />
		<tag k="ssr:stedsnr" v="26977" />
	</node>
	<node lat="59.45474444134029" lon="9.030141667811497" id="-21909">
		<tag k="name" v="Østli" />
		<tag k="place" v="farm" />
		<tag k="ssr:stedsnr" v="27053" />
	</node>
	<node lat="59.41616388940795" lon="8.901616669059267" id="-21910">
		<tag k="name" v="Sanda" />
		<tag k="place" v="farm" />
		<tag k="ssr:stedsnr" v="27098" />
	</node>
	<node lat="59.48856389265694" lon="9.010502781525448" id="-21912">
		<tag k="name" v="Fjellstulroe" />
		<tag k="place" v="locality" />
		<tag k="ssr:stedsnr" v="27564" />
	</node>
	<node lat="59.43198610989778" lon="8.994861102376356" id="-21914">
		<tag k="name" v="Bråten" />
		<tag k="place" v="locality" />
		<tag k="ssr:stedsnr" v="27857" />
	</node>
	<node lat="59.40625277362524" lon="9.322744451132271" id="-21922">
		<tag k="name" v="Smedsvålen" />
		<tag k="place" v="farm" />
		<tag k="ssr:stedsnr" v="43084" />
	</node>
	<node lat="59.4022916663076" lon="9.136630551105679" id="-21925">
		<tag k="name" v="Breibekk" />
		<tag k="place" v="farm" />
		<tag k="ssr:stedsnr" v="43247" />
	</node>
	<node lat="59.4610750011859" lon="9.332055554461851" id="-21933">
		<tag k="alt_name" v="Kiken" />
		<tag k="fixme" v="consider place=hamlet" />
		<tag k="name" v="Kiken søndre" />
		<tag k="place" v="farm" />
		<tag k="ssr:stedsnr" v="43765" />
	</node>
	<node lat="59.47659444820544" lon="9.302950001044012" id="-21940">
		<tag k="fixme" v="multiple name tags, choose one and add the other to alt_name" />
		<tag k="name" v="Nordigard;Hæm østre" />
		<tag k="place" v="farm" />
		<tag k="ssr:stedsnr" v="43556" />
	</node>
	<node lat="59.38828333703973" lon="9.211644443296839" id="-21942">
		<tag k="name" v="Skamlaus" />
		<tag k="place" v="isolated_dwelling" />
		<tag k="ssr:stedsnr" v="43644" />
	</node>
	<node lat="59.40733610803802" lon="9.287344452641527" id="-21944">
		<tag k="name" v="Gillaren" />
		<tag k="place" v="locality" />
		<tag k="ssr:stedsnr" v="43905" />
	</node>
	<node lat="59.33991388995963" lon="9.21042221554433" id="-21949">
		<tag k="name" v="Nyheim" />
		<tag k="place" v="locality" />
		<tag k="ssr:stedsnr" v="44031" />
	</node>
	<node lat="59.34306388827684" lon="9.210586108562255" id="-21950">
		<tag k="fixme" v="consider place=hamlet" />
		<tag k="name" v="Folgedalen" />
		<tag k="place" v="farm" />
		<tag k="ssr:stedsnr" v="44035" />
	</node>
	<node lat="59.38886667016104" lon="9.238369445629194" id="-21955">
		<tag k="alt_name" v="Midgard Edingsås" />
		<tag k="name" v="Idungsås, megard" />
		<tag k="place" v="farm" />
		<tag k="ssr:stedsnr" v="44686" />
	</node>
	<node lat="59.386027782278184" lon="9.246958338008445" id="-21956">
		<tag k="name" v="Solheim" />
		<tag k="place" v="isolated_dwelling" />
		<tag k="ssr:stedsnr" v="44565" />
	</node>
	<node lat="59.46312499703751" lon="9.293752775682023" id="-21962">
		<tag k="alt_name" v="Hvannes" />
		<tag k="fixme" v="consider place=hamlet" />
		<tag k="name" v="Gvannes" />
		<tag k="place" v="farm" />
		<tag k="ssr:stedsnr" v="63036" />
	</node>
	<node lat="59.37884444512638" lon="8.9356944395882" id="-21967">
		<tag k="fixme" v="consider place=hamlet" />
		<tag k="name" v="Tveiten" />
		<tag k="place" v="farm" />
		<tag k="ssr:stedsnr" v="63356" />
	</node>
	<node lat="59.37566110833986" lon="9.172280560007733" id="-21968">
		<tag k="name" v="Gullhaugen" />
		<tag k="place" v="farm" />
		<tag k="ssr:stedsnr" v="63359" />
	</node>
	<node lat="59.43123611093915" lon="9.020586105958968" id="-21969">
		<tag k="name" v="Moland" />
		<tag k="place" v="farm" />
		<tag k="ssr:stedsnr" v="63438" />
	</node>
	<node lat="59.42662208440133" lon="9.104239425669864" id="-21970">
		<tag k="alt_name" v="Valen" />
		<tag k="fixme" v="consider place=hamlet" />
		<tag k="name" v="Gvåla" />
		<tag k="place" v="farm" />
		<tag k="ssr:stedsnr" v="63443" />
	</node>
	<node lat="59.42566944117982" lon="9.135225006093806" id="-21971">
		<tag k="name" v="Solbakken" />
		<tag k="place" v="farm" />
		<tag k="ssr:stedsnr" v="63449" />
	</node>
	<node lat="59.421677777371386" lon="9.13799444654924" id="-21972">
		<tag k="name" v="Darrud" />
		<tag k="place" v="farm" />
		<tag k="ssr:stedsnr" v="63450" />
	</node>
	<node lat="59.42639444693658" lon="9.009252772964599" id="-21973">
		<tag k="name" v="Sønstebø" />
		<tag k="place" v="farm" />
		<tag k="ssr:stedsnr" v="63454" />
	</node>
	<node lat="59.398158332961216" lon="9.15457499929786" id="-21974">
		<tag k="name" v="Håtveit" />
		<tag k="place" v="farm" />
		<tag k="ssr:stedsnr" v="63391" />
	</node>
	<node lat="59.49691621223337" lon="9.04167708249507" id="-21975">
		<tag k="name" v="Tangen" />
		<tag k="place" v="locality" />
		<tag k="ssr:stedsnr" v="63592" />
	</node>
	<node lat="59.384300000959726" lon="9.227397217640458" id="-21978">
		<tag k="name" v="Grindekåsa" />
		<tag k="place" v="farm" />
		<tag k="ssr:stedsnr" v="63911" />
	</node>
	<node lat="59.44245555894415" lon="9.241680558690884" id="-21979">
		<tag k="name" v="Haugestul" />
		<tag k="place" v="isolated_dwelling" />
		<tag k="ssr:stedsnr" v="63931" />
	</node>
	<node lat="59.44561111318254" lon="9.303758326756194" id="-21980">
		<tag k="name" v="Ramsvik" />
		<tag k="place" v="farm" />
		<tag k="ssr:stedsnr" v="63936" />
	</node>
	<node lat="59.414494442030225" lon="9.289736110386386" id="-21981">
		<tag k="name" v="Plassen" />
		<tag k="place" v="farm" />
		<tag k="ssr:stedsnr" v="63985" />
	</node>
	<node lat="59.399721083255734" lon="9.289883840630992" id="-21982">
		<tag k="alt_name" v="Hvåla;Øvre Hvåla" />
		<tag k="fixme" v="consider place=hamlet" />
		<tag k="name" v="Gvåla" />
		<tag k="place" v="farm" />
		<tag k="ssr:stedsnr" v="70674" />
	</node>
	<node lat="59.413611111566745" lon="9.055569450552971" id="-21994">
		<tag k="name" v="Lund" />
		<tag k="place" v="isolated_dwelling" />
		<tag k="ssr:stedsnr" v="86250" />
	</node>
	<node lat="59.42905833754951" lon="9.021338891228329" id="-21996">
		<tag k="name" v="Innleggen" />
		<tag k="place" v="farm" />
		<tag k="ssr:stedsnr" v="86543" />
	</node>
	<node lat="59.43452222470789" lon="9.031258333118375" id="-21997">
		<tag k="name" v="Oterholt" />
		<tag k="place" v="farm" />
		<tag k="ssr:stedsnr" v="86558" />
	</node>
	<node lat="59.435561113460814" lon="9.042855561199591" id="-21998">
		<tag k="name" v="Skavdalen" />
		<tag k="place" v="farm" />
		<tag k="ssr:stedsnr" v="86561" />
	</node>
	<node lat="59.48219166811165" lon="9.071319443645974" id="-22007">
		<tag k="fixme" v="consider place=hamlet" />
		<tag k="name" v="Åse" />
		<tag k="place" v="farm" />
		<tag k="ssr:stedsnr" v="87470" />
	</node>
	<node lat="59.407230554147034" lon="9.04070554739575" id="-22008">
		<tag k="name" v="Nordbø" />
		<tag k="place" v="farm" />
		<tag k="ssr:stedsnr" v="87255" />
	</node>
	<node lat="59.404383332245615" lon="9.123844441768828" id="-22012">
		<tag k="name" v="Haugen" />
		<tag k="place" v="farm" />
		<tag k="ssr:stedsnr" v="87975" />
	</node>
	<node lat="59.4065666648573" lon="9.12512222732783" id="-22013">
		<tag k="name" v="Homlebrekke" />
		<tag k="place" v="farm" />
		<tag k="ssr:stedsnr" v="87977" />
	</node>
	<node lat="59.42173333204295" lon="9.000950003777074" id="-22014">
		<tag k="name" v="Hegna" />
		<tag k="place" v="farm" />
		<tag k="ssr:stedsnr" v="88799" />
	</node>
	<node lat="59.45703888847684" lon="8.9709694493496" id="-22021">
		<tag k="name" v="Storskott" />
		<tag k="place" v="locality" />
		<tag k="ssr:stedsnr" v="89114" />
	</node>
	<node lat="59.48059444516004" lon="9.046530561506344" id="-22022">
		<tag k="name" v="Bråten" />
		<tag k="place" v="farm" />
		<tag k="ssr:stedsnr" v="89439" />
	</node>
	<node lat="59.42722499767433" lon="8.89868332488932" id="-22024">
		<tag k="fixme" v="consider place=hamlet" />
		<tag k="name" v="Verpe" />
		<tag k="place" v="farm" />
		<tag k="ssr:stedsnr" v="89778" />
	</node>
	<node lat="59.46065555112013" lon="9.328069443170804" id="-22033">
		<tag k="name" v="Vårheim" />
		<tag k="place" v="hamlet" />
		<tag k="ssr:stedsnr" v="104222" />
	</node>
	<node lat="59.34175555568771" lon="9.197441662636141" id="-22035">
		<tag k="name" v="Dalen" />
		<tag k="place" v="locality" />
		<tag k="ssr:stedsnr" v="104038" />
	</node>
	<node lat="59.403780557669236" lon="9.340669442734942" id="-22038">
		<tag k="name" v="Hegnun" />
		<tag k="place" v="locality" />
		<tag k="ssr:stedsnr" v="104083" />
	</node>
	<node lat="59.40523888632851" lon="9.340288892663429" id="-22039">
		<tag k="name" v="Ådalen" />
		<tag k="place" v="locality" />
		<tag k="ssr:stedsnr" v="104094" />
	</node>
	<node lat="59.41328888539951" lon="9.319502775188607" id="-22040">
		<tag k="name" v="Fredbo" />
		<tag k="place" v="isolated_dwelling" />
		<tag k="ssr:stedsnr" v="104098" />
	</node>
	<node lat="59.39976389255476" lon="9.311244443199508" id="-22041">
		<tag k="name" v="Åse" />
		<tag k="place" v="isolated_dwelling" />
		<tag k="ssr:stedsnr" v="104101" />
	</node>
	<node lat="59.473052781223586" lon="9.335333339052275" id="-22046">
		<tag k="name" v="Haugås" />
		<tag k="place" v="locality" />
		<tag k="ssr:stedsnr" v="104535" />
	</node>
	<node lat="59.43278611010663" lon="9.315144439106357" id="-22055">
		<tag k="name" v="Sunde" />
		<tag k="place" v="hamlet" />
		<tag k="ssr:stedsnr" v="104598" />
	</node>
	<node lat="59.33703610767868" lon="9.218327775171796" id="-22059">
		<tag k="name" v="Holte nedre" />
		<tag k="place" v="farm" />
		<tag k="ssr:stedsnr" v="104889" />
	</node>
	<node lat="59.47393055905479" lon="9.329255560108383" id="-22060">
		<tag k="name" v="Fykerud-kåsa" />
		<tag k="place" v="locality" />
		<tag k="ssr:stedsnr" v="104991" />
	</node>
	<node lat="59.37777222282193" lon="9.211883333190247" id="-22062">
		<tag k="name" v="Hestehag" />
		<tag k="place" v="farm" />
		<tag k="ssr:stedsnr" v="104634" />
	</node>
	<node lat="59.38088611362665" lon="9.214719445287798" id="-22063">
		<tag k="name" v="Moen" />
		<tag k="place" v="farm" />
		<tag k="ssr:stedsnr" v="104640" />
	</node>
	<node lat="59.45925833555635" lon="9.319958326024015" id="-22064">
		<tag k="name" v="Volltveit ni" />
		<tag k="place" v="farm" />
		<tag k="ssr:stedsnr" v="104751" />
	</node>
	<node lat="59.39713055761473" lon="9.180700005182128" id="-22068">
		<tag k="building" v="industrial" />
		<tag k="name" v="Steinstad" />
		<tag k="ssr:stedsnr" v="105642" />
	</node>
	<node lat="59.404344448576126" lon="9.134577777197116" id="-22070">
		<tag k="name" v="Brenna industriområde" />
		<tag k="place" v="quarter" />
		<tag k="ssr:stedsnr" v="118995" />
	</node>
	<node lat="59.46183055356744" lon="9.332661104879122" id="-22071">
		<tag k="alt_name" v="Kiken nordre" />
		<tag k="name" v="Kjika" />
		<tag k="place" v="farm" />
		<tag k="ssr:stedsnr" v="123001" />
	</node>
	<node lat="59.45558055311298" lon="9.336113881980568" id="-22072">
		<tag k="name" v="Holte" />
		<tag k="place" v="farm" />
		<tag k="ssr:stedsnr" v="123002" />
	</node>
	<node lat="59.35619999739577" lon="9.276333335641192" id="-22077">
		<tag k="historic" v="shieling" />
		<tag k="name" v="Fjellstul" />
		<tag k="place" v="isolated_dwelling" />
		<tag k="ssr:stedsnr" v="123851" />
	</node>
	<node lat="59.41800555599899" lon="8.965777773546897" id="-22082">
		<tag k="name" v="Nyhus" />
		<tag k="place" v="farm" />
		<tag k="ssr:stedsnr" v="123412" />
	</node>
	<node lat="59.41533333026583" lon="9.079786119546775" id="-22083">
		<tag k="fixme" v="consider place=hamlet" />
		<tag k="name" v="Grivi" />
		<tag k="place" v="farm" />
		<tag k="ssr:stedsnr" v="123415" />
	</node>
	<node lat="59.41369999656956" lon="9.023008339586701" id="-22084">
		<tag k="name" v="Glenna" />
		<tag k="place" v="farm" />
		<tag k="ssr:stedsnr" v="123420" />
	</node>
	<node lat="59.377397218299144" lon="9.211552777528135" id="-22085">
		<tag k="name" v="Stigen" />
		<tag k="place" v="farm" />
		<tag k="ssr:stedsnr" v="123310" />
	</node>
	<node lat="59.37893610799992" lon="9.04229167439283" id="-22086">
		<tag k="alt_name" v="Tjørnås" />
		<tag k="name" v="Tjønnås" />
		<tag k="place" v="farm" />
		<tag k="ssr:stedsnr" v="123369" />
	</node>
	<node lat="59.40574166972068" lon="9.090980562537142" id="-22087">
		<tag k="name" v="Lia" />
		<tag k="place" v="farm" />
		<tag k="ssr:stedsnr" v="123373" />
	</node>
	<node lat="59.42439166472527" lon="9.199052785604541" id="-22088">
		<tag k="name" v="Bordstul" />
		<tag k="place" v="locality" />
		<tag k="ssr:stedsnr" v="123428" />
	</node>
	<node lat="59.41818889208452" lon="8.922749993054799" id="-22089">
		<tag k="name" v="Skrikerud" />
		<tag k="place" v="farm" />
		<tag k="ssr:stedsnr" v="123430" />
	</node>
	<node lat="59.41519721821163" lon="8.927544442675826" id="-22090">
		<tag k="name" v="Hegna" />
		<tag k="place" v="farm" />
		<tag k="ssr:stedsnr" v="123431" />
	</node>
	<node lat="59.40985000272341" lon="9.002213885051516" id="-22093">
		<tag k="alt_name" v="Midt-Forberget" />
		<tag k="fixme" v="consider place=hamlet" />
		<tag k="name" v="Forberg" />
		<tag k="place" v="farm" />
		<tag k="ssr:stedsnr" v="123441" />
	</node>
	<node lat="59.41110832956621" lon="9.096130550407201" id="-22094">
		<tag k="building" v="industrial" />
		<tag k="industrial" v="factory" />
		<tag k="name" v="Rotebergmoen" />
		<tag k="ssr:stedsnr" v="123453" />
	</node>
	<node lat="59.40371111152806" lon="9.292288891861043" id="-22097">
		<tag k="alt_name" v="Hvåla" />
		<tag k="name" v="Gvåla" />
		<tag k="place" v="farm" />
		<tag k="ssr:stedsnr" v="123893" />
	</node>
	<node lat="59.41883055320003" lon="9.297036117711569" id="-22098">
		<tag k="alt_name" v="Gripenstad" />
		<tag k="fixme" v="consider place=hamlet" />
		<tag k="name" v="Gripastad" />
		<tag k="place" v="farm" />
		<tag k="ssr:stedsnr" v="123970" />
	</node>
	<node lat="59.41239166613641" lon="9.305363887226271" id="-22099">
		<tag k="alt_name" v="Kullhuset" />
		<tag k="name" v="Kolahuset" />
		<tag k="place" v="farm" />
		<tag k="ssr:stedsnr" v="123993" />
	</node>
	<node lat="59.48041666434511" lon="9.25720555983726" id="-22100">
		<tag k="alt_name" v="Ruistulen" />
		<tag k="name" v="Roestul" />
		<tag k="place" v="isolated_dwelling" />
		<tag k="ssr:stedsnr" v="124065" />
	</node>
	<node lat="59.37791111091213" lon="9.013511116916543" id="-22101">
		<tag k="name" v="Hegna" />
		<tag k="place" v="farm" />
		<tag k="ssr:stedsnr" v="124291" />
	</node>
	<node lat="59.414463887767106" lon="9.165641664551817" id="-22103">
		<tag k="name" v="Berge" />
		<tag k="place" v="farm" />
		<tag k="ssr:stedsnr" v="124346" />
	</node>
	<node lat="59.393413891356424" lon="9.309524997578585" id="-22104">
		<tag k="alt_name" v="Hvitås" />
		<tag k="name" v="Kvitås" />
		<tag k="place" v="farm" />
		<tag k="ssr:stedsnr" v="124876" />
	</node>
	<node lat="59.41326666725641" lon="9.105033325054979" id="-22121">
		<tag k="name" v="Slåttun" />
		<tag k="place" v="farm" />
		<tag k="ssr:stedsnr" v="146692" />
	</node>
	<node lat="59.41652222441532" lon="8.997913892952793" id="-22124">
		<tag k="name" v="Forberg" />
		<tag k="place" v="farm" />
		<tag k="ssr:stedsnr" v="147034" />
	</node>
	<node lat="59.40750277659357" lon="8.969930548921527" id="-22127">
		<tag k="fixme" v="consider place=hamlet" />
		<tag k="name" v="Skoe" />
		<tag k="place" v="farm" />
		<tag k="ssr:stedsnr" v="147050" />
	</node>
	<node lat="59.41913888952042" lon="8.907175001750671" id="-22129">
		<tag k="name" v="Langedrag" />
		<tag k="place" v="locality" />
		<tag k="ssr:stedsnr" v="147140" />
	</node>
	<node lat="59.423163886625375" lon="9.073972213568801" id="-22130">
		<tag k="name" v="Kåsa" />
		<tag k="place" v="locality" />
		<tag k="ssr:stedsnr" v="147229" />
	</node>
	<node lat="59.43840833664011" lon="9.129886111449233" id="-22133">
		<tag k="name" v="Åbakken" />
		<tag k="place" v="locality" />
		<tag k="ssr:stedsnr" v="147288" />
	</node>
	<node lat="59.48076667014919" lon="9.06410832749076" id="-22134">
		<tag k="building" v="industrial" />
		<tag k="name" v="Åsesaga" />
		<tag k="ssr:stedsnr" v="147458" />
	</node>
	<node lat="59.43218889133085" lon="9.048938884806892" id="-22136">
		<tag k="name" v="Sagamyra" />
		<tag k="place" v="farm" />
		<tag k="ssr:stedsnr" v="147540" />
	</node>
	<node lat="59.46618333513341" lon="8.995413895022615" id="-22144">
		<tag k="name" v="Fønnstul" />
		<tag k="place" v="locality" />
		<tag k="ssr:stedsnr" v="149694" />
	</node>
	<node lat="59.365602777256456" lon="8.927074997747564" id="-22147">
		<tag k="name" v="Holmstul" />
		<tag k="place" v="locality" />
		<tag k="ssr:stedsnr" v="149037" />
	</node>
	<node lat="59.42494999693163" lon="8.883638881408825" id="-22151">
		<tag k="name" v="Raumyr" />
		<tag k="place" v="farm" />
		<tag k="ssr:stedsnr" v="149852" />
	</node>
	<node lat="59.45787499989974" lon="9.278638886470821" id="-22159">
		<tag k="name" v="Bergheim" />
		<tag k="place" v="farm" />
		<tag k="ssr:stedsnr" v="164146" />
	</node>
	<node lat="59.40817777808043" lon="9.260144451898475" id="-22163">
		<tag k="name" v="Skobba" />
		<tag k="place" v="farm" />
		<tag k="ssr:stedsnr" v="164538" />
	</node>
	<node lat="59.41032777922143" lon="9.258049991417593" id="-22164">
		<tag k="name" v="Søndre Hegna" />
		<tag k="place" v="farm" />
		<tag k="ssr:stedsnr" v="164540" />
	</node>
	<node lat="59.47793055173004" lon="9.296827771648475" id="-22165">
		<tag k="fixme" v="multiple name tags, choose one and add the other to alt_name" />
		<tag k="name" v="Hem Nigard;Hæm vestre" />
		<tag k="place" v="farm" />
		<tag k="ssr:stedsnr" v="164633" />
	</node>
	<node lat="59.424386110243084" lon="9.134336107316617" id="-22166">
		<tag k="name" v="Myrvang" />
		<tag k="place" v="farm" />
		<tag k="ssr:stedsnr" v="164649" />
	</node>
	<node lat="59.454152781316395" lon="9.36233054777883" id="-22167">
		<tag k="historic" v="shieling" />
		<tag k="name" v="Stennigs-stul" />
		<tag k="place" v="isolated_dwelling" />
		<tag k="ssr:stedsnr" v="164746" />
	</node>
	<node lat="59.425100000062336" lon="9.326169449398806" id="-22170">
		<tag k="name" v="Sundsmoen" />
		<tag k="place" v="hamlet" />
		<tag k="ssr:stedsnr" v="164953" />
	</node>
	<node lat="59.45082222213481" lon="9.31057221381814" id="-22171">
		<tag k="name" v="Smørklepp" />
		<tag k="place" v="locality" />
		<tag k="ssr:stedsnr" v="165007" />
	</node>
	<node lat="59.33779166547682" lon="9.211230559904795" id="-22174">
		<tag k="name" v="Kåsin" />
		<tag k="place" v="isolated_dwelling" />
		<tag k="ssr:stedsnr" v="165035" />
	</node>
	<node lat="59.48886666814997" lon="9.289866660154617" id="-22178">
		<tag k="name" v="Hegna" />
		<tag k="place" v="farm" />
		<tag k="ssr:stedsnr" v="164838" />
	</node>
	<node lat="59.49458889161025" lon="9.2895083342528" id="-22179">
		<tag k="alt_name" v="Haukedalen" />
		<tag k="fixme" v="consider place=hamlet" />
		<tag k="name" v="Søndre Haukedalen" />
		<tag k="place" v="farm" />
		<tag k="ssr:stedsnr" v="164841" />
	</node>
	<node lat="59.46557222077906" lon="9.388730554092456" id="-22183">
		<tag k="historic" v="shieling" />
		<tag k="name" v="Dyrås" />
		<tag k="place" v="isolated_dwelling" />
		<tag k="ssr:stedsnr" v="165565" />
	</node>
	<node lat="59.400225002909195" lon="9.199802777845814" id="-22187">
		<tag k="name" v="Bjørgeland" />
		<tag k="place" v="farm" />
		<tag k="ssr:stedsnr" v="165433" />
	</node>
	<node lat="59.38603055975421" lon="9.187580555979107" id="-22189">
		<tag k="fixme" v="consider place=hamlet" />
		<tag k="name" v="Notevarp" />
		<tag k="place" v="farm" />
		<tag k="ssr:stedsnr" v="165635" />
	</node>
	<node lat="59.39281388645954" lon="9.198113884639795" id="-22190">
		<tag k="name" v="Nykås" />
		<tag k="place" v="farm" />
		<tag k="ssr:stedsnr" v="165636" />
	</node>
	<node lat="59.39808055112108" lon="9.189894440880384" id="-22191">
		<tag k="name" v="Hovland" />
		<tag k="place" v="farm" />
		<tag k="ssr:stedsnr" v="165641" />
	</node>
	<node lat="59.388991668389686" lon="9.193163889314548" id="-22193">
		<tag k="name" v="Kåsa" />
		<tag k="place" v="farm" />
		<tag k="ssr:stedsnr" v="165643" />
	</node>
	<node lat="59.46286110686039" lon="9.323869438141049" id="-22194">
		<tag k="alt_name" v="Arud, s" />
		<tag k="name" v="Søndre Arud" />
		<tag k="place" v="farm" />
		<tag k="ssr:stedsnr" v="184014" />
	</node>
	<node lat="59.39103611359072" lon="8.928427771869822" id="-22199">
		<tag k="name" v="Busil" />
		<tag k="place" v="isolated_dwelling" />
		<tag k="ssr:stedsnr" v="184313" />
	</node>
	<node lat="59.36083055557421" lon="9.176672229000971" id="-22202">
		<tag k="alt_name" v="Stranda, ytre" />
		<tag k="fixme" v="consider place=hamlet" />
		<tag k="name" v="Ytre Stranda" />
		<tag k="place" v="village" />
		<tag k="ssr:stedsnr" v="184251" />
	</node>
	<node lat="59.416508334524394" lon="8.893430549893058" id="-22205">
		<tag k="fixme" v="consider place=hamlet" />
		<tag k="name" v="Øverbø" />
		<tag k="place" v="farm" />
		<tag k="ssr:stedsnr" v="184400" />
	</node>
	<node lat="59.43118888787598" lon="9.015263895397446" id="-22207">
		<tag k="name" v="Kåsa" />
		<tag k="place" v="farm" />
		<tag k="ssr:stedsnr" v="184425" />
	</node>
	<node lat="59.431738887699524" lon="9.021952778585712" id="-22208">
		<tag k="name" v="Myre" />
		<tag k="place" v="farm" />
		<tag k="ssr:stedsnr" v="184429" />
	</node>
	<node lat="59.434736112756916" lon="9.082772214584198" id="-22209">
		<tag k="name" v="Lia" />
		<tag k="place" v="farm" />
		<tag k="ssr:stedsnr" v="184431" />
	</node>
	<node lat="59.449544447417836" lon="9.03755276901815" id="-22212">
		<tag k="alt_name" v="Raudkleiv" />
		<tag k="name" v="Raukleiv" />
		<tag k="place" v="farm" />
		<tag k="ssr:stedsnr" v="184469" />
	</node>
	<node lat="59.443308329227335" lon="9.122019440335242" id="-22213">
		<tag k="name" v="Hestehegna" />
		<tag k="place" v="farm" />
		<tag k="ssr:stedsnr" v="184481" />
	</node>
	<node lat="59.4910083313771" lon="9.133897224376152" id="-22218">
		<tag k="name" v="Brånan" />
		<tag k="place" v="farm" />
		<tag k="ssr:stedsnr" v="184624" />
	</node>
	<node lat="59.433866663954504" lon="9.318091668413647" id="-22219">
		<tag k="alt_name" v="Sunde søndre" />
		<tag k="name" v="Sunde" />
		<tag k="place" v="farm" />
		<tag k="ssr:stedsnr" v="184952" />
	</node>
	<node lat="59.407850002395875" lon="9.266977772036054" id="-22220">
		<tag k="name" v="Skobba" />
		<tag k="place" v="farm" />
		<tag k="ssr:stedsnr" v="184860" />
	</node>
	<node lat="59.50680833777774" lon="9.037202775990853" id="-22226">
		<tag k="historic" v="shieling" />
		<tag k="name" v="Årmot" />
		<tag k="place" v="isolated_dwelling" />
		<tag k="ssr:stedsnr" v="185428" />
	</node>
	<node lat="59.41918055739365" lon="9.113594446015172" id="-22228">
		<tag k="name" v="Bøen" />
		<tag k="place" v="farm" />
		<tag k="ssr:stedsnr" v="185373" />
	</node>
	<node lat="59.42843610856207" lon="9.111819451918738" id="-22231">
		<tag k="name" v="Tjyrukåsa" />
		<tag k="place" v="locality" />
		<tag k="ssr:stedsnr" v="207219" />
	</node>
	<node lat="59.42037271861574" lon="9.054326195157016" id="-22233">
		<tag k="name" v="Kamperhaug" />
		<tag k="place" v="farm" />
		<tag k="ssr:stedsnr" v="207466" />
	</node>
	<node lat="59.41624721949271" lon="9.048736118649899" id="-22234">
		<tag k="name" v="Hegna" />
		<tag k="place" v="farm" />
		<tag k="ssr:stedsnr" v="207469" />
	</node>
	<node lat="59.416025001905915" lon="9.006394439895194" id="-22235">
		<tag k="name" v="Forberg" />
		<tag k="place" v="farm" />
		<tag k="ssr:stedsnr" v="207476" />
	</node>
	<node lat="59.43050077434379" lon="9.009474151431943" id="-22236">
		<tag k="fixme" v="consider place=hamlet" />
		<tag k="name" v="Furuvoll" />
		<tag k="place" v="farm" />
		<tag k="ssr:stedsnr" v="207492" />
	</node>
	<node lat="59.440683332314705" lon="9.01017778191597" id="-22238">
		<tag k="name" v="Rugkåsa" />
		<tag k="place" v="locality" />
		<tag k="ssr:stedsnr" v="207494" />
	</node>
	<node lat="59.41330833414714" lon="8.951783339781967" id="-22239">
		<tag k="fixme" v="consider place=hamlet" />
		<tag k="name" v="Erikstein" />
		<tag k="place" v="farm" />
		<tag k="ssr:stedsnr" v="208055" />
	</node>
	<node lat="59.50980441366474" lon="9.028640146045596" id="-22241">
		<tag k="name" v="Nord-Årmot" />
		<tag k="place" v="locality" />
		<tag k="ssr:stedsnr" v="208562" />
	</node>
	<node lat="59.429688891189315" lon="9.042883337038667" id="-22242">
		<tag k="fixme" v="consider place=hamlet" />
		<tag k="name" v="Oterholt" />
		<tag k="place" v="farm" />
		<tag k="ssr:stedsnr" v="208569" />
	</node>
	<node lat="59.422747218287135" lon="9.10005555409396" id="-22245">
		<tag k="name" v="Vestgarden" />
		<tag k="place" v="farm" />
		<tag k="ssr:stedsnr" v="208232" />
	</node>
	<node lat="59.38588610928402" lon="9.036830550856585" id="-22246">
		<tag k="amenity" v="school" />
		<tag k="name" v="Breskhaug" />
		<tag k="ssr:stedsnr" v="208325" />
	</node>
	<node lat="59.47704722477464" lon="9.064636108934678" id="-22249">
		<tag k="name" v="Langerud" />
		<tag k="place" v="isolated_dwelling" />
		<tag k="ssr:stedsnr" v="208473" />
	</node>
	<node lat="59.41824722354708" lon="9.110633324884787" id="-22252">
		<tag k="fixme" v="consider place=hamlet" />
		<tag k="name" v="Haugland" />
		<tag k="place" v="farm" />
		<tag k="ssr:stedsnr" v="208768" />
	</node>
	<node lat="59.41138889082818" lon="8.919155553296504" id="-22256">
		<tag k="name" v="Lovald" />
		<tag k="place" v="farm" />
		<tag k="ssr:stedsnr" v="209109" />
	</node>
	<node lat="59.48873611461968" lon="8.94650556218215" id="-22258">
		<tag k="name" v="Stulsroe" />
		<tag k="place" v="locality" />
		<tag k="ssr:stedsnr" v="209916" />
	</node>
	<node lat="59.454944440988996" lon="8.973577774738025" id="-22259">
		<tag k="name" v="Lavransstul" />
		<tag k="place" v="locality" />
		<tag k="ssr:stedsnr" v="210089" />
	</node>
	<node lat="59.456138888420156" lon="9.050941662682105" id="-22261">
		<tag k="name" v="Lunden" />
		<tag k="place" v="farm" />
		<tag k="ssr:stedsnr" v="210054" />
	</node>
	<node lat="59.43984167050873" lon="8.874180554225024" id="-22267">
		<tag k="name" v="Mastedalen" />
		<tag k="place" v="isolated_dwelling" />
		<tag k="ssr:stedsnr" v="210898" />
	</node>
	<node lat="59.43284722431683" lon="8.96893889410212" id="-22270">
		<tag k="name" v="Ånto" />
		<tag k="place" v="locality" />
		<tag k="ssr:stedsnr" v="210871" />
	</node>
	<node lat="59.400161106937254" lon="9.356802785449052" id="-22272">
		<tag k="historic" v="shieling" />
		<tag k="name" v="Landtjønnstulen" />
		<tag k="place" v="isolated_dwelling" />
		<tag k="ssr:stedsnr" v="225356" />
	</node>
	<node lat="59.45809166752719" lon="9.314566662136588" id="-22277">
		<tag k="name" v="Neset" />
		<tag k="place" v="farm" />
		<tag k="ssr:stedsnr" v="225022" />
	</node>
	<node lat="59.400205552104005" lon="9.312508341589796" id="-22281">
		<tag k="name" v="Åse" />
		<tag k="place" v="isolated_dwelling" />
		<tag k="ssr:stedsnr" v="225112" />
	</node>
	<node lat="59.38832500159682" lon="9.32306111569066" id="-22282">
		<tag k="historic" v="shieling" />
		<tag k="name" v="Nordre Dale" />
		<tag k="place" v="isolated_dwelling" />
		<tag k="ssr:stedsnr" v="225268" />
	</node>
	<node lat="59.362455559996064" lon="9.166775002491539" id="-22287">
		<tag k="name" v="Bakken" />
		<tag k="place" v="farm" />
		<tag k="ssr:stedsnr" v="225209" />
	</node>
	<node lat="59.460877775073556" lon="9.325716660934358" id="-22294">
		<tag k="name" v="Volltveit nordre" />
		<tag k="place" v="farm" />
		<tag k="ssr:stedsnr" v="225749" />
	</node>
	<node lat="59.458877780146" lon="9.324144436568268" id="-22295">
		<tag k="name" v="Volltveit su" />
		<tag k="place" v="isolated_dwelling" />
		<tag k="ssr:stedsnr" v="225750" />
	</node>
	<node lat="59.4150111102446" lon="9.291247224559692" id="-22296">
		<tag k="name" v="Bakketun" />
		<tag k="place" v="isolated_dwelling" />
		<tag k="ssr:stedsnr" v="225860" />
	</node>
	<node lat="59.353780553969926" lon="9.183541670171772" id="-22301">
		<tag k="name" v="Storåsen" />
		<tag k="place" v="farm" />
		<tag k="ssr:stedsnr" v="226096" />
	</node>
	<node lat="59.39703610737187" lon="9.184466668274151" id="-22304">
		<tag k="name" v="Gunnheim" />
		<tag k="place" v="farm" />
		<tag k="ssr:stedsnr" v="226656" />
	</node>
	<node lat="59.49921110994265" lon="9.196175001707454" id="-22305">
		<tag k="name" v="Murtebua" />
		<tag k="place" v="locality" />
		<tag k="ssr:stedsnr" v="226242" />
	</node>
	<node lat="59.38573333683126" lon="9.309966667609789" id="-22314">
		<tag k="name" v="Igletjønnlia" />
		<tag k="place" v="locality" />
		<tag k="ssr:stedsnr" v="285242" />
	</node>
	<node lat="59.50678611040057" lon="9.288613890084306" id="-22316">
		<tag k="name" v="Høgsrud øvre" />
		<tag k="place" v="farm" />
		<tag k="ssr:stedsnr" v="286020" />
	</node>
	<node lat="59.458169446729826" lon="9.298591661550537" id="-22319">
		<tag k="name" v="Klevar nordre" />
		<tag k="place" v="farm" />
		<tag k="ssr:stedsnr" v="286163" />
	</node>
	<node lat="59.41152777569201" lon="9.139900006168947" id="-22321">
		<tag k="name" v="Irgemo" />
		<tag k="place" v="farm" />
		<tag k="ssr:stedsnr" v="286281" />
	</node>
	<node lat="59.411266670178684" lon="9.141583329180614" id="-22322">
		<tag k="name" v="Bøen" />
		<tag k="place" v="farm" />
		<tag k="ssr:stedsnr" v="286284" />
	</node>
	<node lat="59.3760861116849" lon="9.204469446176223" id="-22338">
		<tag k="name" v="Skrabekk" />
		<tag k="place" v="farm" />
		<tag k="ssr:stedsnr" v="286942" />
	</node>
	<node lat="59.438147219879006" lon="9.317877771473107" id="-22339">
		<tag k="fixme" v="consider place=hamlet" />
		<tag k="name" v="Sunde mellom" />
		<tag k="place" v="farm" />
		<tag k="ssr:stedsnr" v="286945" />
	</node>
	<node lat="59.385533337406386" lon="9.277794439729055" id="-22341">
		<tag k="historic" v="shieling" />
		<tag k="name" v="Moen" />
		<tag k="place" v="isolated_dwelling" />
		<tag k="ssr:stedsnr" v="287618" />
	</node>
	<node lat="59.39790833753853" lon="9.241025002599555" id="-22342">
		<tag k="name" v="Åsen" />
		<tag k="place" v="isolated_dwelling" />
		<tag k="ssr:stedsnr" v="287702" />
	</node>
	<node lat="59.333566670453564" lon="9.191800003141571" id="-22349">
		<tag k="name" v="Storli vestre" />
		<tag k="place" v="farm" />
		<tag k="ssr:stedsnr" v="287140" />
	</node>
	<node lat="59.39047777675135" lon="9.165069436415761" id="-22351">
		<tag k="name" v="Sjøbuhaugen" />
		<tag k="place" v="quarter" />
		<tag k="ssr:stedsnr" v="300965" />
	</node>
	<node lat="59.44074444257157" lon="9.032925003409124" id="-22353">
		<tag k="alt_name" v="Hegna" />
		<tag k="name" v="Lihegna" />
		<tag k="place" v="farm" />
		<tag k="ssr:stedsnr" v="305496" />
	</node>
	<node lat="59.46950278042018" lon="9.242227777783944" id="-22355">
		<tag k="alt_name" v="Helgebua" />
		<tag k="name" v="Helgebu" />
		<tag k="place" v="isolated_dwelling" />
		<tag k="ssr:stedsnr" v="305039" />
	</node>
	<node lat="59.40654999843988" lon="9.136469443763431" id="-22358">
		<tag k="alt_name" v="Kåsine" />
		<tag k="name" v="Kåsin" />
		<tag k="place" v="farm" />
		<tag k="ssr:stedsnr" v="305360" />
	</node>
	<node lat="59.40573889020574" lon="9.175552781481867" id="-22359">
		<tag k="name" v="Solberg" />
		<tag k="place" v="farm" />
		<tag k="ssr:stedsnr" v="305372" />
	</node>
	<node lat="59.40127222499455" lon="9.05074999847935" id="-22360">
		<tag k="name" v="Klokkarstugo" />
		<tag k="place" v="farm" />
		<tag k="ssr:stedsnr" v="305374" />
	</node>
	<node lat="59.38619999619952" lon="8.894705563329026" id="-22362">
		<tag k="alt_name" v="Ramsåsstulen" />
		<tag k="name" v="Ramsås" />
		<tag k="place" v="isolated_dwelling" />
		<tag k="ssr:stedsnr" v="305388" />
	</node>
	<node lat="59.484044446001576" lon="8.968452770344436" id="-22363">
		<tag k="historic" v="shieling" />
		<tag k="name" v="Nybu" />
		<tag k="place" v="isolated_dwelling" />
		<tag k="ssr:stedsnr" v="305617" />
	</node>
	<node lat="59.36073333271147" lon="9.187138882996633" id="-22367">
		<tag k="name" v="Kåsajordet" />
		<tag k="place" v="farm" />
		<tag k="ssr:stedsnr" v="305253" />
	</node>
	<node lat="59.359363884775945" lon="9.170775005384808" id="-22368">
		<tag k="name" v="Kåsa" />
		<tag k="place" v="farm" />
		<tag k="ssr:stedsnr" v="305254" />
	</node>
	<node lat="59.41546389039383" lon="9.289655557738518" id="-22372">
		<tag k="alt_name" v="Lille Flathus" />
		<tag k="name" v="Flathus" />
		<tag k="place" v="farm" />
		<tag k="ssr:stedsnr" v="305981" />
	</node>
	<node lat="59.44089166755011" lon="9.317433327513086" id="-22373">
		<tag k="alt_name" v="Sunde mellom" />
		<tag k="name" v="Sunde" />
		<tag k="place" v="farm" />
		<tag k="ssr:stedsnr" v="305953" />
	</node>
	<node lat="59.47597777794107" lon="9.301108326763991" id="-22374">
		<tag k="alt_name" v="Hem" />
		<tag k="name" v="Hæm" />
		<tag k="place" v="hamlet" />
		<tag k="ssr:stedsnr" v="306041" />
	</node>
	<node lat="59.375230556530624" lon="9.012583327098849" id="-22376">
		<tag k="alt_name" v="Bergvad" />
		<tag k="name" v="Bergva" />
		<tag k="place" v="farm" />
		<tag k="ssr:stedsnr" v="306335" />
	</node>
	<node lat="59.352194442509465" lon="9.203694439450501" id="-22378">
		<tag k="name" v="Langkås" />
		<tag k="place" v="farm" />
		<tag k="ssr:stedsnr" v="306243" />
	</node>
	<node lat="59.42593332969892" lon="9.017897217357653" id="-22387">
		<tag k="name" v="Ronninge" />
		<tag k="place" v="farm" />
		<tag k="ssr:stedsnr" v="328478" />
	</node>
	<node lat="59.44786666403033" lon="9.021988887490377" id="-22388">
		<tag k="name" v="Haugane" />
		<tag k="place" v="farm" />
		<tag k="ssr:stedsnr" v="329029" />
	</node>
	<node lat="59.5034055566858" lon="9.083138880746128" id="-22393">
		<tag k="name" v="Pinknapp" />
		<tag k="place" v="locality" />
		<tag k="ssr:stedsnr" v="329556" />
	</node>
	<node lat="59.43554166766563" lon="9.02283610391118" id="-22395">
		<tag k="name" v="Plomøya" />
		<tag k="place" v="farm" />
		<tag k="ssr:stedsnr" v="329552" />
	</node>
	<node lat="59.520358335893484" lon="9.12037499649061" id="-22397">
		<tag k="name" v="Havskolt" />
		<tag k="place" v="farm" />
		<tag k="ssr:stedsnr" v="329733" />
	</node>
	<node lat="59.40415277709402" lon="8.996125004197498" id="-22400">
		<tag k="name" v="Brusrudstulen" />
		<tag k="old_name" v="Brunsrudstulen" />
		<tag k="place" v="locality" />
		<tag k="ssr:stedsnr" v="330015" />
	</node>
	<node lat="59.41121944220953" lon="8.912424997826951" id="-22402">
		<tag k="name" v="Grave" />
		<tag k="place" v="farm" />
		<tag k="ssr:stedsnr" v="330131" />
	</node>
	<node lat="59.4685638930509" lon="9.055841671771168" id="-22415">
		<tag k="name" v="Hugheil" />
		<tag k="place" v="isolated_dwelling" />
		<tag k="ssr:stedsnr" v="331488" />
	</node>
	<node lat="59.4224527806397" lon="8.98098611081634" id="-22418">
		<tag k="name" v="Haugerud" />
		<tag k="place" v="farm" />
		<tag k="ssr:stedsnr" v="331844" />
	</node>
	<node lat="59.41211389264639" lon="9.25925832993627" id="-22422">
		<tag k="name" v="Nordre Hegna" />
		<tag k="place" v="farm" />
		<tag k="ssr:stedsnr" v="346485" />
	</node>
	<node lat="59.36751111541841" lon="9.169211102789504" id="-22428">
		<tag k="name" v="Huset" />
		<tag k="place" v="farm" />
		<tag k="ssr:stedsnr" v="346188" />
	</node>
	<node lat="59.46062222549314" lon="9.343452772186364" id="-22441">
		<tag k="name" v="Siljås" />
		<tag k="place" v="farm" />
		<tag k="ssr:stedsnr" v="346226" />
	</node>
	<node lat="59.44802500045536" lon="9.32521666978969" id="-22443">
		<tag k="name" v="Tveiten" />
		<tag k="place" v="farm" />
		<tag k="ssr:stedsnr" v="346234" />
	</node>
	<node lat="59.3989638899856" lon="9.245558327775287" id="-22449">
		<tag k="name" v="Meierud og Inleggen" />
		<tag k="place" v="locality" />
		<tag k="ssr:stedsnr" v="346535" />
	</node>
	<node lat="59.42119167022962" lon="9.157569444305524" id="-22450">
		<tag k="name" v="Fossland" />
		<tag k="place" v="farm" />
		<tag k="ssr:stedsnr" v="346608" />
	</node>
	<node lat="59.453447226266995" lon="9.360775003727673" id="-22451">
		<tag k="historic" v="shieling" />
		<tag k="name" v="Vårstul" />
		<tag k="place" v="isolated_dwelling" />
		<tag k="ssr:stedsnr" v="346729" />
	</node>
	<node lat="59.3642666711823" lon="9.25921110540262" id="-22454">
		<tag k="name" v="Lia" />
		<tag k="place" v="farm" />
		<tag k="ssr:stedsnr" v="346788" />
	</node>
	<node lat="59.37106388459424" lon="9.263024994422187" id="-22455">
		<tag k="name" v="Lia" />
		<tag k="place" v="farm" />
		<tag k="ssr:stedsnr" v="346792" />
	</node>
	<node lat="59.338730555003345" lon="9.217527774080969" id="-22457">
		<tag k="name" v="Holte øvre" />
		<tag k="place" v="farm" />
		<tag k="ssr:stedsnr" v="346890" />
	</node>
	<node lat="59.45348333303095" lon="9.359508334620672" id="-22458">
		<tag k="name" v="Holte" />
		<tag k="place" v="locality" />
		<tag k="ssr:stedsnr" v="346738" />
	</node>
	<node lat="59.45049166278257" lon="9.351522216279706" id="-22459">
		<tag k="name" v="Brenna" />
		<tag k="place" v="isolated_dwelling" />
		<tag k="ssr:stedsnr" v="346739" />
	</node>
	<node lat="59.473802557612686" lon="9.317575001537326" id="-22460">
		<tag k="name" v="Lye" />
		<tag k="place" v="isolated_dwelling" />
		<tag k="ssr:stedsnr" v="346975" />
	</node>
	<node lat="59.471255558571634" lon="9.325722214439226" id="-22461">
		<tag k="name" v="Kåsa" />
		<tag k="place" v="farm" />
		<tag k="ssr:stedsnr" v="346984" />
	</node>
	<node lat="59.36699722191298" lon="9.180211114029369" id="-22462">
		<tag k="building" v="commercial" />
		<tag k="name" v="Årnes" />
		<tag k="ssr:stedsnr" v="346988" />
	</node>
	<node lat="59.464144444494465" lon="9.309244436689243" id="-22463">
		<tag k="name" v="Helen" />
		<tag k="place" v="locality" />
		<tag k="ssr:stedsnr" v="346996" />
	</node>
	<node lat="59.34839722063243" lon="9.206461114926576" id="-22464">
		<tag k="name" v="Årås nordjordet" />
		<tag k="place" v="farm" />
		<tag k="ssr:stedsnr" v="347101" />
	</node>
	<node lat="59.40107221787387" lon="9.190949999430128" id="-22470">
		<tag k="name" v="Steinsrud" />
		<tag k="place" v="farm" />
		<tag k="ssr:stedsnr" v="347444" />
	</node>
	<node lat="59.41386944691355" lon="9.12885555991785" id="-22475">
		<tag k="name" v="Hvitsand" />
		<tag k="place" v="locality" />
		<tag k="ssr:stedsnr" v="347283" />
	</node>
	<node lat="59.4630861142054" lon="9.285830546824739" id="-22476">
		<tag k="name" v="Lommerud" />
		<tag k="place" v="locality" />
		<tag k="ssr:stedsnr" v="347199" />
	</node>
	<node lat="59.39707222526908" lon="9.255950004353723" id="-22478">
		<tag k="name" v="Kåsa" />
		<tag k="place" v="farm" />
		<tag k="ssr:stedsnr" v="347676" />
	</node>
	<node lat="59.387244448221836" lon="9.239333331840694" id="-22479">
		<tag k="alt_name" v="Nedre Edingsås" />
		<tag k="fixme" v="consider place=hamlet" />
		<tag k="name" v="Idungsås, nigard" />
		<tag k="place" v="farm" />
		<tag k="ssr:stedsnr" v="347682" />
	</node>
	<node lat="59.41808889184975" lon="9.26682778424578" id="-22480">
		<tag k="name" v="Høgstad" />
		<tag k="place" v="farm" />
		<tag k="ssr:stedsnr" v="367000" />
	</node>
	<node lat="59.496449997208934" lon="9.246341664941735" id="-22482">
		<tag k="alt_name" v="Slåtteseter" />
		<tag k="name" v="Slåttesætra" />
		<tag k="place" v="isolated_dwelling" />
		<tag k="ssr:stedsnr" v="366062" />
	</node>
	<node lat="59.47314166240793" lon="9.445741670599698" id="-22483">
		<tag k="historic" v="shieling" />
		<tag k="name" v="Eiang" />
		<tag k="place" v="isolated_dwelling" />
		<tag k="ssr:stedsnr" v="366019" />
	</node>
	<node lat="59.40030833501436" lon="9.204088886678658" id="-22484">
		<tag k="name" v="Flåta" />
		<tag k="place" v="farm" />
		<tag k="ssr:stedsnr" v="366383" />
	</node>
	<node lat="59.355891662965746" lon="9.193091674902206" id="-22485">
		<tag k="fixme" v="consider place=hamlet" />
		<tag k="name" v="Gjernes" />
		<tag k="place" v="farm" />
		<tag k="ssr:stedsnr" v="366264" />
	</node>
	<node lat="59.403266663354025" lon="9.18318333562927" id="-22486">
		<tag k="name" v="Lønheim" />
		<tag k="place" v="farm" />
		<tag k="ssr:stedsnr" v="366371" />
	</node>
	<node lat="59.44327777414984" lon="9.023472222756366" id="-22487">
		<tag k="name" v="Li" />
		<tag k="place" v="farm" />
		<tag k="ssr:stedsnr" v="366449" />
	</node>
	<node lat="59.411158331467135" lon="9.158666668347466" id="-22492">
		<tag k="name" v="Sætre" />
		<tag k="place" v="farm" />
		<tag k="ssr:stedsnr" v="366416" />
	</node>
	<node lat="59.48104444843463" lon="9.028222215282886" id="-22494">
		<tag k="name" v="Plasstulen" />
		<tag k="place" v="isolated_dwelling" />
		<tag k="ssr:stedsnr" v="366614" />
	</node>
	<node lat="59.48850000203693" lon="9.047302783942516" id="-22497">
		<tag k="name" v="Øverlandstulane" />
		<tag k="place" v="isolated_dwelling" />
		<tag k="ssr:stedsnr" v="366624" />
	</node>
	<node lat="59.40124999742777" lon="9.248627777107924" id="-22499">
		<tag k="name" v="Deilrind" />
		<tag k="place" v="farm" />
		<tag k="ssr:stedsnr" v="366860" />
	</node>
	<node lat="59.43545277740961" lon="9.304922221679567" id="-22500">
		<tag k="name" v="Sanden" />
		<tag k="place" v="farm" />
		<tag k="ssr:stedsnr" v="366946" />
	</node>
	<node lat="59.42350833412224" lon="9.316250007283376" id="-22501">
		<tag k="name" v="Sveva" />
		<tag k="place" v="farm" />
		<tag k="ssr:stedsnr" v="366956" />
	</node>
	<node lat="59.38365000356858" lon="9.273849996591645" id="-22502">
		<tag k="alt_name" v="Haukevik" />
		<tag k="fixme" v="consider place=hamlet" />
		<tag k="name" v="Haukvik" />
		<tag k="place" v="farm" />
		<tag k="ssr:stedsnr" v="366899" />
	</node>
	<node lat="59.37948888820233" lon="9.333755558590997" id="-22504">
		<tag k="name" v="Dalekåsa" />
		<tag k="place" v="farm" />
		<tag k="ssr:stedsnr" v="366920" />
	</node>
	<node lat="59.532636110474584" lon="9.120783336451979" id="-22505">
		<tag k="historic" v="shieling" />
		<tag k="name" v="Bloddalan" />
		<tag k="place" v="isolated_dwelling" />
		<tag k="ssr:stedsnr" v="367403" />
	</node>
	<node lat="59.522216669021866" lon="9.121724993304813" id="-22506">
		<tag k="name" v="Havskolt" />
		<tag k="place" v="farm" />
		<tag k="ssr:stedsnr" v="367405" />
	</node>
	<node lat="59.42132222253909" lon="8.996697221353958" id="-22512">
		<tag k="name" v="Åsland" />
		<tag k="place" v="farm" />
		<tag k="ssr:stedsnr" v="389079" />
	</node>
	<node lat="59.48738610943293" lon="8.991647224897584" id="-22513">
		<tag k="historic" v="shieling" />
		<tag k="name" v="Vierburoe" />
		<tag k="place" v="isolated_dwelling" />
		<tag k="ssr:stedsnr" v="388908" />
	</node>
	<node lat="59.43021666972782" lon="9.106572226570654" id="-22516">
		<tag k="name" v="Hegnun" />
		<tag k="place" v="farm" />
		<tag k="ssr:stedsnr" v="389221" />
	</node>
	<node lat="59.37735764608254" lon="9.005953828332249" id="-22518">
		<tag k="name" v="Åsheim" />
		<tag k="place" v="farm" />
		<tag k="ssr:stedsnr" v="389417" />
	</node>
	<node lat="59.435736113871265" lon="9.057944451210284" id="-22522">
		<tag k="name" v="Eika" />
		<tag k="place" v="farm" />
		<tag k="ssr:stedsnr" v="389548" />
	</node>
	<node lat="59.42087222607766" lon="9.017680553976657" id="-22524">
		<tag k="name" v="Bruserud" />
		<tag k="place" v="farm" />
		<tag k="ssr:stedsnr" v="389529" />
	</node>
	<node lat="59.4978888864677" lon="9.135991668135725" id="-22526">
		<tag k="name" v="Innleggen" />
		<tag k="place" v="isolated_dwelling" />
		<tag k="ssr:stedsnr" v="389597" />
	</node>
	<node lat="59.435744440946344" lon="9.069769448560022" id="-22530">
		<tag k="name" v="Folkestad" />
		<tag k="place" v="farm" />
		<tag k="ssr:stedsnr" v="390058" />
	</node>
	<node lat="59.390825002359335" lon="9.039986106928543" id="-22532">
		<tag k="name" v="Kryllingdalen" />
		<tag k="place" v="locality" />
		<tag k="ssr:stedsnr" v="390312" />
	</node>
	<node lat="59.38143888555265" lon="9.035741660413729" id="-22534">
		<tag k="name" v="Eikja" />
		<tag k="place" v="farm" />
		<tag k="ssr:stedsnr" v="390324" />
	</node>
	<node lat="59.42943889306069" lon="9.030138890555017" id="-22539">
		<tag k="name" v="Brenne" />
		<tag k="place" v="farm" />
		<tag k="ssr:stedsnr" v="390534" />
	</node>
	<node lat="59.41054166649476" lon="9.119100000694724" id="-22540">
		<tag k="name" v="Nymoen" />
		<tag k="place" v="farm" />
		<tag k="ssr:stedsnr" v="390959" />
	</node>
	<node lat="59.443383333022204" lon="9.12174722794208" id="-22541">
		<tag k="name" v="Hestehegna" />
		<tag k="place" v="farm" />
		<tag k="ssr:stedsnr" v="390920" />
	</node>
	<node lat="59.45643610715073" lon="9.033066663733798" id="-22543">
		<tag k="name" v="Innleggen" />
		<tag k="place" v="farm" />
		<tag k="ssr:stedsnr" v="391069" />
	</node>
	<node lat="59.42909999935825" lon="8.834908330409542" id="-22545">
		<tag k="name" v="Massekåsa" />
		<tag k="place" v="locality" />
		<tag k="ssr:stedsnr" v="392156" />
	</node>
	<node lat="59.433255551809346" lon="8.855724999102119" id="-22551">
		<tag k="name" v="Basmoen" />
		<tag k="place" v="locality" />
		<tag k="ssr:stedsnr" v="392890" />
	</node>
	<node lat="59.43933333356776" lon="8.868549993130546" id="-22552">
		<tag k="name" v="Mastedalslåtta" />
		<tag k="place" v="locality" />
		<tag k="ssr:stedsnr" v="392899" />
	</node>
	<node lat="59.39560555844264" lon="8.96030834065562" id="-22556">
		<tag k="name" v="Åsheim" />
		<tag k="place" v="locality" />
		<tag k="ssr:stedsnr" v="449057" />
	</node>
	<node lat="59.44855833079904" lon="9.338350002287408" id="-22558">
		<tag k="name" v="Kåsin" />
		<tag k="place" v="locality" />
		<tag k="ssr:stedsnr" v="407025" />
	</node>
	<node lat="59.447108328974664" lon="9.322758328378148" id="-22559">
		<tag k="name" v="Øya" />
		<tag k="place" v="farm" />
		<tag k="ssr:stedsnr" v="407264" />
	</node>
	<node lat="59.444283333674235" lon="9.342425000687399" id="-22560">
		<tag k="name" v="Bergsland" />
		<tag k="place" v="farm" />
		<tag k="ssr:stedsnr" v="407276" />
	</node>
	<node lat="59.414018293244204" lon="9.382636138407147" id="-22568">
		<tag k="name" v="Nareheimen" />
		<tag k="place" v="isolated_dwelling" />
		<tag k="ssr:stedsnr" v="407228" />
	</node>
	<node lat="59.41697222488957" lon="9.160608336562284" id="-22573">
		<tag k="fixme" v="consider place=hamlet" />
		<tag k="name" v="Kise" />
		<tag k="place" v="farm" />
		<tag k="ssr:stedsnr" v="407290" />
	</node>
	<node lat="59.41778333575685" lon="9.286477783099683" id="-22578">
		<tag k="name" v="Flathus" />
		<tag k="place" v="farm" />
		<tag k="ssr:stedsnr" v="407521" />
	</node>
	<node lat="59.40121388450839" lon="9.27575555468312" id="-22582">
		<tag k="name" v="Tangen" />
		<tag k="place" v="farm" />
		<tag k="ssr:stedsnr" v="407527" />
	</node>
	<node lat="59.402661111465385" lon="9.249947223018776" id="-22584">
		<tag k="name" v="Vegheim" />
		<tag k="place" v="farm" />
		<tag k="ssr:stedsnr" v="407536" />
	</node>
	<node lat="59.373886115595965" lon="9.26538611203363" id="-22590">
		<tag k="name" v="Dragkåsa" />
		<tag k="place" v="locality" />
		<tag k="ssr:stedsnr" v="407855" />
	</node>
	<node lat="59.462802776812595" lon="9.294605551239199" id="-22595">
		<tag k="name" v="Gvannes" />
		<tag k="place" v="farm" />
		<tag k="ssr:stedsnr" v="408026" />
	</node>
	<node lat="59.45645555288585" lon="9.302388882903474" id="-22602">
		<tag k="name" v="Klevar nedre" />
		<tag k="place" v="farm" />
		<tag k="ssr:stedsnr" v="408172" />
	</node>
	<node lat="59.45940555743635" lon="9.306613884749362" id="-22604">
		<tag k="name" v="Solvang" />
		<tag k="place" v="isolated_dwelling" />
		<tag k="ssr:stedsnr" v="408176" />
	</node>
	<node lat="59.46497222668135" lon="9.320644450917472" id="-22609">
		<tag k="alt_name" v="Arud, midtre" />
		<tag k="name" v="Midtre Arud" />
		<tag k="place" v="farm" />
		<tag k="ssr:stedsnr" v="427020" />
	</node>
	<node lat="59.46556389312164" lon="9.330441672126517" id="-22610">
		<tag k="fixme" v="consider place=hamlet" />
		<tag k="name" v="Kleiverud" />
		<tag k="place" v="farm" />
		<tag k="ssr:stedsnr" v="427021" />
	</node>
	<node lat="59.481038888685156" lon="9.30740000667911" id="-22613">
		<tag k="name" v="Tjuven" />
		<tag k="place" v="isolated_dwelling" />
		<tag k="ssr:stedsnr" v="427033" />
	</node>
	<node lat="59.3635585228389" lon="9.01140932712299" id="-22618">
		<tag k="name" v="Hurrongen" />
		<tag k="place" v="locality" />
		<tag k="ssr:stedsnr" v="427340" />
	</node>
	<node lat="59.384797223422126" lon="9.18193889367089" id="-22621">
		<tag k="name" v="Teksten" />
		<tag k="ssr:stedsnr" v="427351" />
		<tag k="tourism" v="camp_site" />
	</node>
	<node lat="59.37995555770877" lon="9.004647217435803" id="-22622">
		<tag k="name" v="Kåsa" />
		<tag k="place" v="farm" />
		<tag k="ssr:stedsnr" v="427355" />
	</node>
	<node lat="59.43119166980634" lon="9.070347221701988" id="-22625">
		<tag k="fixme" v="consider place=hamlet" />
		<tag k="name" v="Folkestad" />
		<tag k="place" v="farm" />
		<tag k="ssr:stedsnr" v="427435" />
	</node>
	<node lat="59.42686745348411" lon="9.058650678246313" id="-22626">
		<tag k="name" v="Sisjord" />
		<tag k="place" v="farm" />
		<tag k="ssr:stedsnr" v="427438" />
	</node>
	<node lat="59.42291666830186" lon="9.138316672293724" id="-22627">
		<tag k="name" v="Løvland" />
		<tag k="place" v="farm" />
		<tag k="ssr:stedsnr" v="427443" />
	</node>
	<node lat="59.44740277457665" lon="9.118519445642645" id="-22628">
		<tag k="name" v="Ralle" />
		<tag k="place" v="farm" />
		<tag k="ssr:stedsnr" v="427463" />
	</node>
	<node lat="59.44854444003971" lon="9.113536108271566" id="-22629">
		<tag k="name" v="Åsen" />
		<tag k="place" v="isolated_dwelling" />
		<tag k="ssr:stedsnr" v="427466" />
	</node>
	<node lat="59.451466669717526" lon="9.050494447577524" id="-22630">
		<tag k="name" v="Dalen" />
		<tag k="place" v="farm" />
		<tag k="ssr:stedsnr" v="427468" />
	</node>
	<node lat="59.36133611039601" lon="9.375708332373849" id="-22631">
		<tag k="name" v="Hellebarden" />
		<tag k="place" v="isolated_dwelling" />
		<tag k="ssr:stedsnr" v="427790" />
	</node>
	<node lat="59.388822219761806" lon="9.326825008122212" id="-22633">
		<tag k="alt_name" v="Steinstad" />
		<tag k="name" v="Stenstad" />
		<tag k="place" v="farm" />
		<tag k="ssr:stedsnr" v="427894" />
	</node>
	<node lat="59.51683333653098" lon="9.135774995130094" id="-22635">
		<tag k="name" v="Lia" />
		<tag k="place" v="isolated_dwelling" />
		<tag k="ssr:stedsnr" v="428429" />
	</node>
	<node lat="59.394761114948345" lon="9.197327774424192" id="-22637">
		<tag k="alt_name" v="Gunem;Søndre Gunem" />
		<tag k="fixme" v="consider place=hamlet" />
		<tag k="name" v="Gunnheim" />
		<tag k="place" v="farm" />
		<tag k="ssr:stedsnr" v="434658" />
	</node>
	<node lat="59.44257500086317" lon="9.014400004046667" id="-22640">
		<tag k="name" v="Liene" />
		<tag k="place" v="farm" />
		<tag k="ssr:stedsnr" v="510520" />
	</node>
	<node lat="59.508783332385455" lon="9.094499995565508" id="-22641">
		<tag k="name" v="Kleiva" />
		<tag k="place" v="locality" />
		<tag k="ssr:stedsnr" v="511720" />
	</node>
	<node lat="59.44316666393358" lon="9.009422219563469" id="-22643">
		<tag k="name" v="Sletteli" />
		<tag k="place" v="farm" />
		<tag k="ssr:stedsnr" v="511030" />
	</node>
	<node lat="59.41217499920376" lon="8.990949998307942" id="-22644">
		<tag k="name" v="Forberg" />
		<tag k="place" v="farm" />
		<tag k="ssr:stedsnr" v="511037" />
	</node>
	<node lat="59.415308337156254" lon="8.994563887763912" id="-22645">
		<tag k="name" v="Forberg" />
		<tag k="place" v="farm" />
		<tag k="ssr:stedsnr" v="511042" />
	</node>
	<node lat="59.42737222536691" lon="9.062252776644755" id="-22647">
		<tag k="name" v="Sisjord" />
		<tag k="place" v="farm" />
		<tag k="ssr:stedsnr" v="511147" />
	</node>
	<node lat="59.410724999650505" lon="9.052925002452412" id="-22648">
		<tag k="alt_name" v="Midtbø" />
		<tag k="fixme" v="consider place=hamlet" />
		<tag k="name" v="Bø" />
		<tag k="place" v="farm" />
		<tag k="ssr:stedsnr" v="511261" />
	</node>
	<node lat="59.40626389057225" lon="9.095516658249455" id="-22650">
		<tag k="name" v="Lia" />
		<tag k="place" v="farm" />
		<tag k="ssr:stedsnr" v="511624" />
	</node>
	<node lat="59.425352782232856" lon="9.013877781453145" id="-22651">
		<tag k="fixme" v="consider place=hamlet" />
		<tag k="name" v="Sønstebø" />
		<tag k="place" v="farm" />
		<tag k="ssr:stedsnr" v="511523" />
	</node>
	<node lat="59.48778333724018" lon="9.153030554054547" id="-22655">
		<tag k="name" v="Roheim" />
		<tag k="place" v="farm" />
		<tag k="ssr:stedsnr" v="511578" />
	</node>
	<node lat="59.48678333316556" lon="9.165733341016676" id="-22656">
		<tag k="alt_name" v="Svalbjørg" />
		<tag k="name" v="Svalbjør" />
		<tag k="place" v="farm" />
		<tag k="ssr:stedsnr" v="511586" />
	</node>
	<node lat="59.40851388666854" lon="9.110972222677129" id="-22657">
		<tag k="name" v="Myrane" />
		<tag k="place" v="isolated_dwelling" />
		<tag k="ssr:stedsnr" v="511673" />
	</node>
	<node lat="59.39041111507935" lon="9.052491669506447" id="-22658">
		<tag k="name" v="Hynne" />
		<tag k="place" v="farm" />
		<tag k="ssr:stedsnr" v="512297" />
	</node>
	<node lat="59.419761113268066" lon="8.913402777125823" id="-22661">
		<tag k="name" v="Soterud" />
		<tag k="place" v="farm" />
		<tag k="ssr:stedsnr" v="512164" />
	</node>
	<node lat="59.42453333719829" lon="9.05927222829735" id="-22662">
		<tag k="alt_name" v="Sissejord" />
		<tag k="fixme" v="consider place=hamlet" />
		<tag k="name" v="Sisjord" />
		<tag k="place" v="farm" />
		<tag k="ssr:stedsnr" v="512659" />
	</node>
	<node lat="59.453980556424334" lon="8.998386114359056" id="-22672">
		<tag k="name" v="Slettelistulen" />
		<tag k="place" v="locality" />
		<tag k="ssr:stedsnr" v="513094" />
	</node>
	<node lat="59.43846110904299" lon="8.99599999666482" id="-22676">
		<tag k="name" v="Slåtta" />
		<tag k="place" v="locality" />
		<tag k="ssr:stedsnr" v="513883" />
	</node>
	<node lat="59.42691944237341" lon="8.997783326228003" id="-22680">
		<tag k="fixme" v="consider place=hamlet" />
		<tag k="name" v="Vreim" />
		<tag k="place" v="farm" />
		<tag k="ssr:stedsnr" v="513837" />
	</node>
	<node lat="59.42663055814594" lon="8.984036112213216" id="-22681">
		<tag k="name" v="Kåsa" />
		<tag k="place" v="locality" />
		<tag k="ssr:stedsnr" v="513852" />
	</node>
	<node lat="59.42735000274599" lon="8.879902786471417" id="-22682">
		<tag k="name" v="Herrefoss" />
		<tag k="place" v="locality" />
		<tag k="ssr:stedsnr" v="513860" />
	</node>
	<node lat="59.45639999888536" lon="8.946625000577903" id="-22684">
		<tag k="name" v="Lauvåsstulen" />
		<tag k="place" v="locality" />
		<tag k="ssr:stedsnr" v="513949" />
	</node>
	<node lat="59.445013892254906" lon="9.341986103531445" id="-22687">
		<tag k="name" v="Øvre Haugedal" />
		<tag k="place" v="farm" />
		<tag k="ssr:stedsnr" v="528264" />
	</node>
	<node lat="59.39253055553218" lon="9.258755558929735" id="-22690">
		<tag k="fixme" v="consider place=hamlet" />
		<tag k="name" v="Akkerhaugen" />
		<tag k="place" v="farm" />
		<tag k="ssr:stedsnr" v="529558" />
	</node>
	<node lat="59.42197221882816" lon="9.163472218625303" id="-22694">
		<tag k="name" v="Åsen" />
		<tag k="place" v="farm" />
		<tag k="ssr:stedsnr" v="528609" />
	</node>
	<node lat="59.3986527780104" lon="9.206175007122864" id="-22696">
		<tag k="name" v="Fjellheim" />
		<tag k="place" v="farm" />
		<tag k="ssr:stedsnr" v="528650" />
	</node>
	<node lat="59.39819444597238" lon="9.200230553843015" id="-22697">
		<tag k="name" v="Flåterud" />
		<tag k="place" v="farm" />
		<tag k="ssr:stedsnr" v="528651" />
	</node>
	<node lat="59.38369721909342" lon="9.203069449734777" id="-22698">
		<tag k="name" v="Nyhus" />
		<tag k="place" v="farm" />
		<tag k="ssr:stedsnr" v="528660" />
	</node>
	<node lat="59.3755833298602" lon="9.214433333723207" id="-22701">
		<tag k="alt_name" v="Hesthage" />
		<tag k="fixme" v="consider place=hamlet" />
		<tag k="name" v="Hesthag" />
		<tag k="place" v="farm" />
		<tag k="ssr:stedsnr" v="528760" />
	</node>
	<node lat="59.4047361127844" lon="9.145488886735118" id="-22705">
		<tag k="name" v="Haugen" />
		<tag k="place" v="farm" />
		<tag k="ssr:stedsnr" v="529256" />
	</node>
	<node lat="59.46321666739026" lon="9.323541672144426" id="-22706">
		<tag k="name" v="Arud søndre" />
		<tag k="place" v="isolated_dwelling" />
		<tag k="ssr:stedsnr" v="528999" />
	</node>
</osm>
