<?xml version="1.0" encoding="UTF-8"?>
<<<<<<< HEAD
<osm version="0.6" generator="osmapis">
	<node lat="59.46064166230524" lon="8.931233330768425" id="-20283">
		<tag k="name" v="Stavsholtmyrane" />
=======
<osm generator="osmapis" version="0.6">
	<node id="-447573" lat="59.4291916634" lon="9.23587777491">
		<tag k="name" v="Svarttjønn-myra" />
		<tag k="natural" v="wetland" />
		<tag k="ssr:stedsnr" v="832336" />
	</node>
	<node id="-446961" lat="59.4296666633" lon="9.32784722144">
		<tag k="landuse" v="quarry" />
		<tag k="name" v="Sunde grustak" />
		<tag k="ssr:stedsnr" v="407929" />
	</node>
	<node id="-446959" lat="59.4482111078" lon="9.39423055983">
		<tag k="name" v="Blektjønnmyra" />
		<tag k="natural" v="wetland" />
		<tag k="ssr:stedsnr" v="407738" />
	</node>
	<node id="-446732" lat="59.4474333338" lon="9.03911388403">
		<tag k="name" v="Løyningen" />
		<tag k="place" v="locality" />
		<tag k="ssr:stedsnr" v="329047" />
	</node>
	<node id="-445927" lat="59.3299138925" lon="9.19477221802">
		<tag k="name" v="Bjoredalsmyra" />
		<tag k="natural" v="wetland" />
		<tag k="ssr:stedsnr" v="772131" />
	</node>
	<node id="-446545" lat="59.4087138876" lon="9.33526111158">
		<tag k="name" v="Øverland" />
		<tag k="place" v="locality" />
		<tag k="ssr:stedsnr" v="164078" />
	</node>
	<node id="-445919" lat="59.4562361137" lon="9.37667500382">
		<tag k="name" v="Pallemyr" />
		<tag k="natural" v="wetland" />
		<tag k="ssr:stedsnr" v="771740" />
	</node>
	<node id="-447453" lat="59.4291638884" lon="9.31144721563">
		<tag k="name" v="Gråten" />
		<tag k="natural" v="beach" />
		<tag k="ssr:stedsnr" v="772621" />
		<tag k="surface" v="sand" />
	</node>
	<node id="-444892" lat="59.4394527804" lon="8.88182499182">
		<tag k="name" v="Tussejordet" />
		<tag k="place" v="locality" />
		<tag k="ssr:stedsnr" v="210902" />
	</node>
	<node id="-445915" lat="59.3492111108" lon="9.29377222099">
		<tag k="name" v="Masteholtet" />
		<tag k="natural" v="wetland" />
		<tag k="ssr:stedsnr" v="771293" />
	</node>
	<node id="-447450" lat="59.3908416643" lon="9.26675556364">
		<tag k="landuse" v="quarry" />
		<tag k="name" v="Ryntveit sandtak" />
		<tag k="ssr:stedsnr" v="772588" />
	</node>
	<node id="-446937" lat="59.4171722213" lon="9.33616667511">
		<tag k="name" v="Gildresteinen" />
		<tag k="natural" v="stone" />
		<tag k="ssr:stedsnr" v="407093" />
	</node>
	<node id="-447448" lat="59.4828861073" lon="9.2211277776">
		<tag k="name" v="Breidstul-myra" />
		<tag k="natural" v="wetland" />
		<tag k="ssr:stedsnr" v="772245" />
	</node>
	<node id="-447446" lat="59.4837444437" lon="9.21204167228">
		<tag k="name" v="Golidmyrene" />
		<tag k="natural" v="wetland" />
		<tag k="ssr:stedsnr" v="772182" />
	</node>
	<node id="-444884" lat="59.3942527781" lon="9.08056944237">
		<tag k="name" v="Bjønnemyr" />
		<tag k="natural" v="wetland" />
		<tag k="ssr:stedsnr" v="208423" />
	</node>
	<node id="-446931" lat="59.4343666634" lon="8.89038611582">
		<tag k="name" v="Milebråtane" />
		<tag k="place" v="locality" />
		<tag k="ssr:stedsnr" v="392910" />
	</node>
	<node id="-447651" lat="59.4585083349" lon="8.96161388744">
		<tag k="name" v="Kringlåsmyra" />
		<tag k="natural" v="wetland" />
		<tag k="ssr:stedsnr" v="875091" />
	</node>
	<node id="-446928" lat="59.4728222186" lon="9.00398611527">
		<tag k="historic" v="shieling" />
		<tag k="name" v="Nutestul" />
		<tag k="place" v="locality" />
		<tag k="ssr:stedsnr" v="392732" />
	</node>
	<node id="-446413" lat="59.454444444" lon="9.32243333588">
		<tag k="name" v="Volltveitøyren" />
		<tag k="place" v="locality" />
		<tag k="ssr:stedsnr" v="104240" />
	</node>
	<node id="-445708" lat="59.3820583311" lon="8.93565832792">
		<tag k="name" v="Tømmermyr" />
		<tag k="natural" v="wetland" />
		<tag k="ssr:stedsnr" v="878004" />
	</node>
	<node id="-446410" lat="59.4670472223" lon="9.2562999986">
		<tag k="name" v="Hestemyrene" />
		<tag k="natural" v="wetland" />
		<tag k="ssr:stedsnr" v="104219" />
	</node>
	<node id="-444873" lat="59.3461722213" lon="9.26161388316">
		<tag k="name" v="Ottersnes" />
		<tag k="place" v="locality" />
		<tag k="ssr:stedsnr" v="286928" />
	</node>
	<node id="-446407" lat="59.4825166679" lon="9.20867778091">
		<tag k="name" v="Reiphøl" />
		<tag k="natural" v="wetland" />
		<tag k="ssr:stedsnr" v="104167" />
	</node>
	<node id="-447430" lat="59.4363138879" lon="9.26216944255">
		<tag k="name" v="Målbakkmyra" />
		<tag k="natural" v="wetland" />
		<tag k="ssr:stedsnr" v="771485" />
	</node>
	<node id="-446283" lat="59.3274138864" lon="9.19260554937">
		<tag k="name" v="Sveinskåsin" />
		<tag k="place" v="locality" />
		<tag k="ssr:stedsnr" v="44112" />
	</node>
	<node id="-445888" lat="59.4752916694" lon="9.34836666369">
		<tag k="alt_name" v="Røymyr" />
		<tag k="name" v="Røyrmyr" />
		<tag k="natural" v="wetland" />
		<tag k="ssr:stedsnr" v="913039" />
	</node>
	<node id="-447421" lat="59.4507361108" lon="9.34114444009">
		<tag k="landuse" v="quarry" />
		<tag k="name" v="Stenningen sandtak" />
		<tag k="ssr:stedsnr" v="771024" />
	</node>
	<node id="-446026" lat="59.4463222258" lon="8.95419722389">
		<tag k="name" v="Sveune" />
		<tag k="place" v="locality" />
		<tag k="ssr:stedsnr" v="938068" />
	</node>
	<node id="-444858" lat="59.4474333371" lon="9.18397499993">
		<tag k="name" v="Hestmyr" />
		<tag k="natural" v="wetland" />
		<tag k="ssr:stedsnr" v="286337" />
	</node>
	<node id="-446905" lat="59.4826944407" lon="9.10346667377">
		<tag k="name" v="Fetjønnslåttune" />
		<tag k="place" v="locality" />
		<tag k="ssr:stedsnr" v="389493" />
	</node>
	<node id="-446662" lat="59.4536888891" lon="9.13101388741">
		<tag k="name" v="Halvfarsmyra" />
		<tag k="natural" v="wetland" />
		<tag k="ssr:stedsnr" v="208930" />
	</node>
	<node id="-444852" lat="59.3521888895" lon="9.30438333001">
		<tag k="name" v="Buhol" />
		<tag k="natural" v="wetland" />
		<tag k="ssr:stedsnr" v="286278" />
	</node>
	<node id="-445008" lat="59.4802138845" lon="9.26877778252">
		<tag k="name" v="Ljostjønn-sletta" />
		<tag k="natural" v="wetland" />
		<tag k="ssr:stedsnr" v="286204" />
	</node>
	<node id="-445255" lat="59.3773222194" lon="8.97608056229">
		<tag k="name" v="Øymyrane" />
		<tag k="natural" v="wetland" />
		<tag k="ssr:stedsnr" v="511444" />
	</node>
	<node id="-444657" lat="59.4158333307" lon="9.11841945302">
		<tag k="name" v="Hauglandkåsin" />
		<tag k="place" v="locality" />
		<tag k="ssr:stedsnr" v="26942" />
	</node>
	<node id="-445347" lat="59.3280416685" lon="9.18682221977">
		<tag k="name" v="Bråtåmyra" />
		<tag k="natural" v="wetland" />
		<tag k="ssr:stedsnr" v="468108" />
	</node>
	<node id="-445343" lat="59.4687638871" lon="8.9419944523">
		<tag k="name" v="Gråur" />
		<tag k="natural" v="scree" />
		<tag k="ssr:stedsnr" v="453905" />
	</node>
	<node id="-445340" lat="59.45550833" lon="8.9974972161">
		<tag k="name" v="Fjordungsteinen" />
		<tag k="natural" v="stone" />
		<tag k="ssr:stedsnr" v="453102" />
	</node>
	<node id="-446359" lat="59.4461694423" lon="9.10980000189">
		<tag k="name" v="Spissbordet" />
		<tag k="natural" v="stone" />
		<tag k="ssr:stedsnr" v="87258" />
	</node>
	<node id="-446357" lat="59.382505553" lon="9.04500000319">
		<tag k="name" v="Havrekåsa" />
		<tag k="place" v="locality" />
		<tag k="ssr:stedsnr" v="87326" />
	</node>
	<node id="-446355" lat="59.4166333318" lon="8.96119166621">
		<tag k="name" v="Steinkåsa" />
		<tag k="place" v="locality" />
		<tag k="ssr:stedsnr" v="87046" />
	</node>
	<node id="-445328" lat="59.4612777821" lon="9.07283888367">
		<tag k="name" v="Steinsvollsmyrane" />
		<tag k="natural" v="wetland" />
		<tag k="ssr:stedsnr" v="451302" />
	</node>
	<node id="-446350" lat="59.5110055526" lon="9.07319166361">
		<tag k="name" v="Røytebutangane" />
>>>>>>> e1d4bc35ff8a6074a6f2e91616a996b547c36f15
		<tag k="natural" v="wetland" />
		<tag k="ssr:stedsnr" v="2494" />
	</node>
<<<<<<< HEAD
	<node lat="59.383311107315436" lon="8.889488883858334" id="-20303">
		<tag k="name" v="Tovsonmyra" />
=======
	<node id="-445836" lat="59.4806888859" lon="9.40253611">
		<tag k="name" v="Deildmyrane" />
>>>>>>> e1d4bc35ff8a6074a6f2e91616a996b547c36f15
		<tag k="natural" v="wetland" />
		<tag k="ssr:stedsnr" v="24134" />
	</node>
<<<<<<< HEAD
	<node lat="59.43539444379965" lon="9.387980558614064" id="-20336">
		<tag k="name" v="Dugurdfjellmyra" />
=======
	<node id="-445847" lat="59.3967472186" lon="9.23726388157">
		<tag k="name" v="Berghøgda" />
		<tag k="place" v="locality" />
		<tag k="ssr:stedsnr" v="712651" />
	</node>
	<node id="-447368" lat="59.4747722248" lon="9.16095832776">
		<tag k="name" v="Krigstjønn" />
>>>>>>> e1d4bc35ff8a6074a6f2e91616a996b547c36f15
		<tag k="natural" v="wetland" />
		<tag k="ssr:stedsnr" v="43674" />
	</node>
<<<<<<< HEAD
	<node lat="59.327413886447815" lon="9.192605549372688" id="-20342">
		<tag k="name" v="Sveinskåsin" />
=======
	<node id="-446343" lat="59.408224997" lon="9.07780832546">
		<tag k="name" v="Lofthus" />
>>>>>>> e1d4bc35ff8a6074a6f2e91616a996b547c36f15
		<tag k="place" v="locality" />
		<tag k="ssr:stedsnr" v="44112" />
	</node>
<<<<<<< HEAD
	<node lat="59.39014444178521" lon="9.265241673245466" id="-20347">
		<tag k="landuse" v="quarry" />
		<tag k="name" v="Akkerhaugsmoen" />
		<tag k="ssr:stedsnr" v="44593" />
	</node>
	<node lat="59.45874444443991" lon="9.08700278483388" id="-20406">
		<tag k="name" v="Viermyra" />
		<tag k="natural" v="wetland" />
		<tag k="ssr:stedsnr" v="245482" />
	</node>
	<node lat="59.38250555300853" lon="9.045000003192454" id="-20411">
		<tag k="name" v="Havrekåsa" />
		<tag k="place" v="locality" />
		<tag k="ssr:stedsnr" v="87326" />
	</node>
	<node lat="59.37257500446428" lon="9.23407777847848" id="-20454">
		<tag k="name" v="Nes-kåsin" />
		<tag k="natural" v="wetland" />
		<tag k="ssr:stedsnr" v="104802" />
	</node>
	<node lat="59.461652779262636" lon="8.956797225247133" id="-20486">
=======
	<node id="-445830" lat="59.4158777805" lon="9.34368611878">
		<tag k="name" v="Tegemyra" />
		<tag k="natural" v="wetland" />
		<tag k="ssr:stedsnr" v="711365" />
	</node>
	<node id="-446785" lat="59.4606888859" lon="9.27020833069">
		<tag k="name" v="Kleivene" />
		<tag k="natural" v="wetland" />
		<tag k="ssr:stedsnr" v="346190" />
	</node>
	<node id="-447126" lat="59.4169611129" lon="8.98645555432">
		<tag k="name" v="Slåttun" />
		<tag k="place" v="locality" />
		<tag k="ssr:stedsnr" v="571038" />
	</node>
	<node id="-444799" lat="59.4616527793" lon="8.95679722525">
>>>>>>> e1d4bc35ff8a6074a6f2e91616a996b547c36f15
		<tag k="name" v="Loppåsmyra" />
		<tag k="natural" v="wetland" />
		<tag k="ssr:stedsnr" v="147116" />
	</node>
<<<<<<< HEAD
	<node lat="59.40028333202523" lon="9.061802782162838" id="-20495">
		<tag k="name" v="Håsårud" />
		<tag k="place" v="locality" />
		<tag k="ssr:stedsnr" v="147664" />
	</node>
	<node lat="59.502194443375465" lon="9.060244447235634" id="-20502">
		<tag k="name" v="Diplemyr" />
=======
	<node id="-447358" lat="59.4094666675" lon="9.03335277002">
		<tag k="name" v="Huldrejordet" />
		<tag k="place" v="locality" />
		<tag k="ssr:stedsnr" v="753201" />
	</node>
	<node id="-446333" lat="59.3827749992" lon="8.95891389504">
		<tag k="name" v="Mørkedokk" />
		<tag k="place" v="locality" />
		<tag k="ssr:stedsnr" v="85046" />
	</node>
	<node id="-447356" lat="59.3814861082" lon="8.9619888924">
		<tag k="name" v="Langedalsmyra" />
		<tag k="natural" v="wetland" />
		<tag k="ssr:stedsnr" v="752078" />
	</node>
	<node id="-447354" lat="59.3852027804" lon="8.97822221351">
		<tag k="name" v="Rakkeholune" />
		<tag k="natural" v="wetland" />
		<tag k="ssr:stedsnr" v="752058" />
	</node>
	<node id="-444791" lat="59.4725361101" lon="8.98041111895">
		<tag k="name" v="Okslamyra" />
>>>>>>> e1d4bc35ff8a6074a6f2e91616a996b547c36f15
		<tag k="natural" v="wetland" />
		<tag k="ssr:stedsnr" v="149522" />
	</node>
<<<<<<< HEAD
	<node lat="59.42896110919369" lon="8.897688889481708" id="-20503">
		<tag k="name" v="Hestemyra" />
		<tag k="natural" v="wetland" />
		<tag k="ssr:stedsnr" v="149816" />
	</node>
	<node lat="59.40871388764676" lon="9.335261111578879" id="-20510">
		<tag k="name" v="Øverland" />
		<tag k="place" v="locality" />
		<tag k="ssr:stedsnr" v="164078" />
	</node>
	<node lat="59.4142833375943" lon="9.111130557830935" id="-20544">
		<tag k="name" v="Slåttebakken" />
		<tag k="place" v="locality" />
		<tag k="ssr:stedsnr" v="268706" />
	</node>
	<node lat="59.48389444206095" lon="9.068550000988758" id="-20559">
=======
	<node id="-444790" lat="59.4625722257" lon="8.94748333994">
		<tag k="name" v="Standarholet" />
		<tag k="place" v="locality" />
		<tag k="ssr:stedsnr" v="271972" />
	</node>
	<node id="-446836" lat="59.3980527821" lon="9.23258055491">
		<tag k="name" v="Langkås" />
		<tag k="place" v="locality" />
		<tag k="ssr:stedsnr" v="347662" />
	</node>
	<node id="-445810" lat="59.3981666623" lon="9.26963889433">
		<tag k="name" v="Feta-landet" />
		<tag k="natural" v="wetland" />
		<tag k="ssr:stedsnr" v="893586" />
	</node>
	<node id="-446320" lat="59.4413888851" lon="9.09914166152">
		<tag k="alt_name" v="Trandlemyrane" />
		<tag k="name" v="Trondlemyrane" />
		<tag k="natural" v="wetland" />
		<tag k="ssr:stedsnr" v="63487" />
	</node>
	<node id="-444783" lat="59.4838944421" lon="9.06855000099">
>>>>>>> e1d4bc35ff8a6074a6f2e91616a996b547c36f15
		<tag k="name" v="Villan" />
		<tag k="place" v="locality" />
		<tag k="ssr:stedsnr" v="269482" />
	</node>
<<<<<<< HEAD
	<node lat="59.473936108605976" lon="9.14753055483495" id="-20566">
		<tag k="historic" v="shieling" />
		<tag k="name" v="Knutshaug" />
		<tag k="place" v="locality" />
		<tag k="ssr:stedsnr" v="268915" />
	</node>
	<node lat="59.394252778098405" lon="9.080569442374607" id="-20573">
		<tag k="name" v="Bjønnemyr" />
=======
	<node id="-445293" lat="59.4589888874" lon="8.92660277711">
		<tag k="name" v="Rullemyra" />
		<tag k="natural" v="wetland" />
		<tag k="ssr:stedsnr" v="513976" />
	</node>
	<node id="-445292" lat="59.4537166646" lon="8.93407778126">
		<tag k="name" v="Tjønnfly" />
>>>>>>> e1d4bc35ff8a6074a6f2e91616a996b547c36f15
		<tag k="natural" v="wetland" />
		<tag k="ssr:stedsnr" v="208423" />
	</node>
<<<<<<< HEAD
	<node lat="59.48006111052295" lon="9.070130551079302" id="-20574">
		<tag k="name" v="Tønsberg" />
		<tag k="place" v="locality" />
		<tag k="ssr:stedsnr" v="208476" />
	</node>
	<node lat="59.439452780378275" lon="8.881824991822866" id="-20583">
		<tag k="name" v="Tussejordet" />
=======
	<node id="-447337" lat="59.3813999979" lon="9.26399722962">
		<tag k="name" v="Vårkvi" />
		<tag k="place" v="locality" />
		<tag k="ssr:stedsnr" v="650544" />
	</node>
	<node id="-445287" lat="59.4455638874" lon="8.91040000086">
		<tag k="name" v="Blåsteinmyra" />
		<tag k="natural" v="wetland" />
		<tag k="ssr:stedsnr" v="513836" />
	</node>
	<node id="-445798" lat="59.4207166638" lon="9.24239166238">
		<tag k="name" v="Hasletomarken" />
>>>>>>> e1d4bc35ff8a6074a6f2e91616a996b547c36f15
		<tag k="place" v="locality" />
		<tag k="ssr:stedsnr" v="210902" />
	</node>
<<<<<<< HEAD
	<node lat="59.463033331899645" lon="9.033138880306161" id="-20592">
		<tag k="name" v="Gapmyra" />
=======
	<node id="-447333" lat="59.4729666665" lon="9.22679443647">
		<tag k="name" v="Vidsjåli-myrene" />
>>>>>>> e1d4bc35ff8a6074a6f2e91616a996b547c36f15
		<tag k="natural" v="wetland" />
		<tag k="ssr:stedsnr" v="270050" />
	</node>
<<<<<<< HEAD
	<node lat="59.33950833539494" lon="9.19519167525467" id="-20609">
		<tag k="name" v="Skrikholene" />
		<tag k="place" v="locality" />
		<tag k="ssr:stedsnr" v="226105" />
	</node>
	<node lat="59.3408111118168" lon="9.221952771427896" id="-20610">
		<tag k="name" v="Åsebak" />
=======
	<node id="-444772" lat="59.5103499966" lon="9.08022500096">
		<tag k="name" v="Hestmyrholet" />
		<tag k="natural" v="wetland" />
		<tag k="ssr:stedsnr" v="268733" />
	</node>
	<node id="-447331" lat="59.468266664" lon="9.22201944037">
		<tag k="name" v="Snapholt" />
>>>>>>> e1d4bc35ff8a6074a6f2e91616a996b547c36f15
		<tag k="place" v="locality" />
		<tag k="ssr:stedsnr" v="226110" />
	</node>
<<<<<<< HEAD
	<node lat="59.472536110145384" lon="8.980411118949284" id="-20619">
		<tag k="name" v="Okslamyra" />
=======
	<node id="-445794" lat="59.3503222244" lon="9.30540555224">
		<tag k="name" v="Bufjelldalen" />
>>>>>>> e1d4bc35ff8a6074a6f2e91616a996b547c36f15
		<tag k="natural" v="wetland" />
		<tag k="ssr:stedsnr" v="271741" />
	</node>
<<<<<<< HEAD
	<node lat="59.42355277562311" lon="8.965855548493838" id="-20678">
		<tag k="name" v="Varegarden" />
		<tag k="place" v="locality" />
		<tag k="ssr:stedsnr" v="452847" />
	</node>
	<node lat="59.449752778464116" lon="8.986252785278307" id="-20682">
		<tag k="name" v="Kremtemyrane" />
=======
	<node id="-447328" lat="59.5026805555" lon="9.25426388854">
		<tag k="name" v="Storemyr" />
		<tag k="natural" v="wetland" />
		<tag k="ssr:stedsnr" v="650045" />
	</node>
	<node id="-446437" lat="59.3725750045" lon="9.23407777848">
		<tag k="name" v="Nes-kåsin" />
		<tag k="natural" v="wetland" />
		<tag k="ssr:stedsnr" v="104802" />
	</node>
	<node id="-445783" lat="59.4769833335" lon="9.23617499392">
		<tag k="name" v="Espelid-slåtta" />
>>>>>>> e1d4bc35ff8a6074a6f2e91616a996b547c36f15
		<tag k="natural" v="wetland" />
		<tag k="ssr:stedsnr" v="453086" />
	</node>
<<<<<<< HEAD
	<node lat="59.45378055338114" lon="8.927508329716279" id="-20692">
		<tag k="name" v="Langemyrleiken" />
		<tag k="natural" v="wetland" />
		<tag k="ssr:stedsnr" v="453955" />
	</node>
	<node lat="59.40505832916803" lon="8.984661114754026" id="-20698">
		<tag k="name" v="Høymyrane" />
		<tag k="natural" v="wetland" />
		<tag k="ssr:stedsnr" v="268013" />
	</node>
	<node lat="59.51034999663604" lon="9.080225000956313" id="-20708">
		<tag k="name" v="Hestmyrholet" />
		<tag k="natural" v="wetland" />
		<tag k="ssr:stedsnr" v="268733" />
	</node>
	<node lat="59.43805555708648" lon="9.020908331859712" id="-20715">
		<tag k="name" v="Liåsen" />
		<tag k="place" v="locality" />
		<tag k="ssr:stedsnr" v="269625" />
	</node>
	<node lat="59.46257222570003" lon="8.947483339936875" id="-20722">
		<tag k="name" v="Standarholet" />
		<tag k="place" v="locality" />
		<tag k="ssr:stedsnr" v="271972" />
	</node>
	<node lat="59.48021388453025" lon="9.268777782522124" id="-20726">
		<tag k="name" v="Ljostjønn-sletta" />
		<tag k="natural" v="wetland" />
		<tag k="ssr:stedsnr" v="286204" />
	</node>
	<node lat="59.417650002779105" lon="9.273033330260558" id="-20731">
		<tag k="name" v="Lugusprang" />
=======
	<node id="-445782" lat="59.4773527736" lon="9.23872499699">
		<tag k="name" v="Briskepålen" />
		<tag k="natural" v="wetland" />
		<tag k="ssr:stedsnr" v="893207" />
	</node>
	<node id="-444985" lat="59.4142833376" lon="9.11113055783">
		<tag k="name" v="Slåttebakken" />
		<tag k="place" v="locality" />
		<tag k="ssr:stedsnr" v="268706" />
	</node>
	<node id="-446291" lat="59.3901444418" lon="9.26524167325">
		<tag k="landuse" v="quarry" />
		<tag k="name" v="Akkerhaugsmoen" />
		<tag k="ssr:stedsnr" v="44593" />
	</node>
	<node id="-445777" lat="59.452544448" lon="9.25180277584">
		<tag k="name" v="Torvmyra" />
		<tag k="natural" v="wetland" />
		<tag k="ssr:stedsnr" v="893160" />
	</node>
	<node id="-447312" lat="59.4518249978" lon="9.31957499144">
		<tag k="name" v="Stenningsøyren" />
		<tag k="place" v="locality" />
		<tag k="ssr:stedsnr" v="649248" />
	</node>
	<node id="-445775" lat="59.3502222194" lon="9.13694444596">
		<tag k="name" v="Steinstolmyrene" />
		<tag k="natural" v="wetland" />
		<tag k="ssr:stedsnr" v="893152" />
	</node>
	<node id="-447310" lat="59.4544888868" lon="9.24682500296">
		<tag k="name" v="Stein-kitilen" />
		<tag k="place" v="locality" />
		<tag k="ssr:stedsnr" v="649183" />
	</node>
	<node id="-445259" lat="59.4975138888" lon="9.07499999743">
		<tag k="name" v="Storemyr" />
		<tag k="natural" v="wetland" />
		<tag k="ssr:stedsnr" v="511547" />
	</node>
	<node id="-445767" lat="59.4064916655" lon="9.31083055397">
		<tag k="name" v="Tunga" />
		<tag k="place" v="locality" />
		<tag k="ssr:stedsnr" v="893089" />
	</node>
	<node id="-447302" lat="59.4294388849" lon="8.89505277204">
		<tag k="name" v="Rønningen" />
>>>>>>> e1d4bc35ff8a6074a6f2e91616a996b547c36f15
		<tag k="place" v="locality" />
		<tag k="ssr:stedsnr" v="286504" />
	</node>
<<<<<<< HEAD
	<node lat="59.472955555177734" lon="9.304950004365223" id="-20736">
		<tag k="name" v="Stigsjordet" />
		<tag k="place" v="locality" />
		<tag k="ssr:stedsnr" v="286554" />
	</node>
	<node lat="59.346172221272134" lon="9.26161388316203" id="-20740">
		<tag k="name" v="Ottersnes" />
=======
	<node id="-446789" lat="59.4261277778" lon="9.27778332465">
		<tag k="name" v="Sæterledet" />
		<tag k="place" v="locality" />
		<tag k="ssr:stedsnr" v="346478" />
	</node>
	<node id="-445764" lat="59.3467166624" lon="9.17312777932">
		<tag k="name" v="Byttingsmyr" />
		<tag k="natural" v="wetland" />
		<tag k="ssr:stedsnr" v="893044" />
	</node>
	<node id="-445251" lat="59.4123055578" lon="9.03666389208">
		<tag k="name" v="Brattsberg" />
>>>>>>> e1d4bc35ff8a6074a6f2e91616a996b547c36f15
		<tag k="place" v="locality" />
		<tag k="ssr:stedsnr" v="286928" />
	</node>
<<<<<<< HEAD
	<node lat="59.37928333376697" lon="9.31445555119134" id="-20769">
		<tag k="name" v="Moltemyr-haugene" />
		<tag k="natural" v="wetland" />
		<tag k="ssr:stedsnr" v="467233" />
	</node>
	<node lat="59.44522222131988" lon="9.272661111099929" id="-20784">
		<tag k="name" v="Vestre Kringsåsmyr" />
		<tag k="natural" v="wetland" />
		<tag k="ssr:stedsnr" v="468144" />
	</node>
	<node lat="59.433288887053756" lon="9.352919441040383" id="-20802">
		<tag k="name" v="Askemyra" />
=======
	<node id="-447297" lat="59.3634000017" lon="8.90579443607">
		<tag k="name" v="Treskomyra" />
		<tag k="natural" v="wetland" />
		<tag k="ssr:stedsnr" v="634038" />
	</node>
	<node id="-446270" lat="59.4353944438" lon="9.38798055861">
		<tag k="name" v="Dugurdfjellmyra" />
		<tag k="natural" v="wetland" />
		<tag k="ssr:stedsnr" v="43674" />
	</node>
	<node id="-447293" lat="59.396633332" lon="9.05430278123">
		<tag k="name" v="Klokkarflåta" />
		<tag k="place" v="locality" />
		<tag k="ssr:stedsnr" v="633323" />
	</node>
	<node id="-445244" lat="59.3279027743" lon="9.18875278243">
		<tag k="name" v="Heggedalsmoen" />
		<tag k="place" v="locality" />
		<tag k="ssr:stedsnr" v="408120" />
	</node>
	<node id="-446267" lat="59.3982222222" lon="9.2257916604">
		<tag k="name" v="Gorr-myr" />
>>>>>>> e1d4bc35ff8a6074a6f2e91616a996b547c36f15
		<tag k="natural" v="wetland" />
		<tag k="ssr:stedsnr" v="468654" />
	</node>
<<<<<<< HEAD
	<node lat="59.39659999964257" lon="9.09454166244363" id="-20830">
		<tag k="name" v="Storemyr" />
=======
	<node id="-446776" lat="59.3513944471" lon="9.16996666754">
		<tag k="name" v="Kringlemyr" />
>>>>>>> e1d4bc35ff8a6074a6f2e91616a996b547c36f15
		<tag k="natural" v="wetland" />
		<tag k="ssr:stedsnr" v="330405" />
	</node>
<<<<<<< HEAD
	<node lat="59.39886944026743" lon="9.27845833583367" id="-20847">
		<tag k="name" v="Kvigarden" />
		<tag k="place" v="locality" />
		<tag k="ssr:stedsnr" v="346510" />
	</node>
	<node lat="59.42612777776465" lon="9.277783324648986" id="-20853">
		<tag k="name" v="Sæterledet" />
		<tag k="place" v="locality" />
		<tag k="ssr:stedsnr" v="346478" />
	</node>
	<node lat="59.47841944611961" lon="9.392022224883707" id="-20870">
		<tag k="name" v="Slåttemyrane" />
		<tag k="natural" v="wetland" />
		<tag k="ssr:stedsnr" v="347562" />
	</node>
	<node lat="59.479547218813224" lon="9.145822227224185" id="-20906">
		<tag k="historic" v="shieling" />
		<tag k="name" v="Solbjørkåsa" />
=======
	<node id="-446773" lat="59.4364444466" lon="8.97766944424">
		<tag k="name" v="Svartsvea" />
		<tag k="place" v="locality" />
		<tag k="ssr:stedsnr" v="331865" />
	</node>
	<node id="-446768" lat="59.480938889" lon="8.94780555491">
		<tag k="name" v="Bjønnehisteinen" />
		<tag k="natural" v="stone" />
		<tag k="ssr:stedsnr" v="331991" />
	</node>
	<node id="-445739" lat="59.3732527757" lon="8.99027499835">
		<tag k="name" v="Smiumyrane" />
		<tag k="natural" v="wetland" />
		<tag k="ssr:stedsnr" v="693462" />
	</node>
	<node id="-445225" lat="59.4145305553" lon="9.38600834059">
		<tag k="name" v="Hestegrætet" />
		<tag k="natural" v="wetland" />
		<tag k="ssr:stedsnr" v="407225" />
	</node>
	<node id="-445223" lat="59.3494888929" lon="9.14745833938">
		<tag k="name" v="Ollemyr" />
		<tag k="natural" v="wetland" />
		<tag k="ssr:stedsnr" v="407161" />
	</node>
	<node id="-447270" lat="59.3789805527" lon="8.95821666781">
		<tag k="name" v="Vesledalskåsa" />
		<tag k="place" v="locality" />
		<tag k="ssr:stedsnr" v="630097" />
	</node>
	<node id="-444806" lat="59.400283332" lon="9.06180278216">
		<tag k="name" v="Håsårud" />
		<tag k="place" v="locality" />
		<tag k="ssr:stedsnr" v="147664" />
	</node>
	<node id="-444702" lat="59.4587444444" lon="9.08700278483">
		<tag k="name" v="Viermyra" />
		<tag k="natural" v="wetland" />
		<tag k="ssr:stedsnr" v="245482" />
	</node>
	<node id="-447365" lat="59.4363638863" lon="9.01449721761">
		<tag k="name" v="Vakkermyr" />
		<tag k="natural" v="wetland" />
		<tag k="ssr:stedsnr" v="753467" />
	</node>
	<node id="-446236" lat="59.4449027812" lon="8.9231194483">
		<tag k="name" v="Vreimbumyra" />
		<tag k="natural" v="wetland" />
		<tag k="ssr:stedsnr" v="28848" />
	</node>
	<node id="-446235" lat="59.4271388873" lon="8.91571944914">
		<tag k="name" v="Sveune" />
		<tag k="place" v="locality" />
		<tag k="ssr:stedsnr" v="28826" />
	</node>
	<node id="-445206" lat="59.460588892" lon="9.11246944074">
		<tag k="name" v="Baronskogen" />
>>>>>>> e1d4bc35ff8a6074a6f2e91616a996b547c36f15
		<tag k="place" v="locality" />
		<tag k="ssr:stedsnr" v="389906" />
	</node>
<<<<<<< HEAD
	<node lat="59.445341668275994" lon="9.090147229121378" id="-20914">
		<tag k="landuse" v="quarry" />
		<tag k="name" v="Sjåberggruva" />
		<tag k="ssr:stedsnr" v="390267" />
	</node>
	<node lat="59.460588891974474" lon="9.112469440735724" id="-20915">
		<tag k="name" v="Baronskogen" />
		<tag k="place" v="locality" />
		<tag k="ssr:stedsnr" v="390272" />
	</node>
	<node lat="59.45846111358404" lon="9.001730563817523" id="-20921">
		<tag k="name" v="Stormyrhaugane" />
		<tag k="place" v="locality" />
		<tag k="ssr:stedsnr" v="392105" />
	</node>
	<node lat="59.47282221863781" lon="9.003986115267544" id="-20925">
=======
	<node id="-444889" lat="59.4258111152" lon="8.93761665939">
		<tag k="name" v="Blåkollmyra" />
		<tag k="natural" v="wetland" />
		<tag k="ssr:stedsnr" v="210807" />
	</node>
	<node id="-446510" lat="59.4440472251" lon="9.00669721889">
		<tag k="name" v="Skyttarsteinen" />
		<tag k="natural" v="stone" />
		<tag k="ssr:stedsnr" v="147026" />
	</node>
	<node id="-445202" lat="59.3936194421" lon="9.11116667376">
		<tag k="name" v="Diplemyr" />
		<tag k="natural" v="wetland" />
		<tag k="ssr:stedsnr" v="390361" />
	</node>
	<node id="-446424" lat="59.4662694483" lon="9.380847224">
		<tag k="name" v="Rundemyr" />
		<tag k="natural" v="wetland" />
		<tag k="ssr:stedsnr" v="104569" />
	</node>
	<node id="-447246" lat="59.4442249979" lon="9.10584721885">
		<tag k="name" v="Fuglmyrane" />
		<tag k="natural" v="wetland" />
		<tag k="ssr:stedsnr" v="608490" />
	</node>
	<node id="-445196" lat="59.4795472188" lon="9.14582222722">
		<tag k="historic" v="shieling" />
		<tag k="name" v="Solbjørkåsa" />
		<tag k="place" v="locality" />
		<tag k="ssr:stedsnr" v="389906" />
	</node>
	<node id="-445838" lat="59.4274444444" lon="9.30035277503">
		<tag k="name" v="Sandsbrekka" />
		<tag k="place" v="locality" />
		<tag k="ssr:stedsnr" v="711610" />
	</node>
	<node id="-446211" lat="59.3729000001" lon="8.96729722392">
		<tag k="name" v="Diplemyr" />
		<tag k="natural" v="wetland" />
		<tag k="ssr:stedsnr" v="26468" />
	</node>
	<node id="-447743" lat="59.4271493778" lon="9.20858622716">
>>>>>>> e1d4bc35ff8a6074a6f2e91616a996b547c36f15
		<tag k="historic" v="shieling" />
		<tag k="name" v="Nutestul" />
		<tag k="place" v="locality" />
		<tag k="ssr:stedsnr" v="392732" />
	</node>
<<<<<<< HEAD
	<node lat="59.41717222130282" lon="9.336166675109416" id="-20932">
		<tag k="name" v="Gildresteinen" />
		<tag k="natural" v="stone" />
		<tag k="ssr:stedsnr" v="407093" />
	</node>
	<node lat="59.47822222667908" lon="9.302658325633846" id="-20940">
		<tag k="historic" v="shieling" />
		<tag k="name" v="Kråkevollen" />
=======
	<node id="-447230" lat="59.3954944416" lon="9.25721110941">
		<tag k="name" v="Kåsamoen" />
>>>>>>> e1d4bc35ff8a6074a6f2e91616a996b547c36f15
		<tag k="place" v="locality" />
		<tag k="ssr:stedsnr" v="407622" />
	</node>
<<<<<<< HEAD
	<node lat="59.32790277430521" lon="9.188752782434504" id="-20950">
		<tag k="name" v="Heggedalsmoen" />
=======
	<node id="-447228" lat="59.3885777748" lon="9.2457027859">
		<tag k="name" v="Megardsmoen" />
>>>>>>> e1d4bc35ff8a6074a6f2e91616a996b547c36f15
		<tag k="place" v="locality" />
		<tag k="ssr:stedsnr" v="408120" />
	</node>
<<<<<<< HEAD
	<node lat="59.46791944032984" lon="9.363113883708344" id="-20954">
		<tag k="name" v="Olavsmyr" />
=======
	<node id="-445521" lat="59.4055249964" lon="8.93700555608">
		<tag k="name" v="Ronningkåsa" />
		<tag k="place" v="locality" />
		<tag k="ssr:stedsnr" v="572137" />
	</node>
	<node id="-446198" lat="59.4064999978" lon="8.9007666747">
		<tag k="name" v="Gravdalsmyra" />
>>>>>>> e1d4bc35ff8a6074a6f2e91616a996b547c36f15
		<tag k="natural" v="wetland" />
		<tag k="ssr:stedsnr" v="408589" />
	</node>
<<<<<<< HEAD
	<node lat="59.46127778208778" lon="9.072838883668824" id="-21017">
		<tag k="name" v="Steinsvollsmyrane" />
		<tag k="natural" v="wetland" />
		<tag k="ssr:stedsnr" v="451302" />
	</node>
	<node lat="59.455508330044786" lon="8.997497216099555" id="-21033">
		<tag k="name" v="Fjordungsteinen" />
		<tag k="natural" v="stone" />
		<tag k="ssr:stedsnr" v="453102" />
	</node>
	<node lat="59.37265833696337" lon="8.864336106859893" id="-21034">
		<tag k="name" v="Ormesteinen" />
=======
	<node id="-445752" lat="59.4516694409" lon="9.0140555514">
		<tag k="name" v="Kolmyra" />
		<tag k="natural" v="wetland" />
		<tag k="ssr:stedsnr" v="695053" />
	</node>
	<node id="-445682" lat="59.3510527736" lon="9.20960000216">
		<tag k="name" v="Strandmarken" />
		<tag k="place" v="locality" />
		<tag k="ssr:stedsnr" v="650094" />
	</node>
	<node id="-445681" lat="59.4569305539" lon="9.39880833346">
		<tag k="name" v="Kinnesteinene" />
>>>>>>> e1d4bc35ff8a6074a6f2e91616a996b547c36f15
		<tag k="natural" v="stone" />
		<tag k="ssr:stedsnr" v="453264" />
	</node>
<<<<<<< HEAD
	<node lat="59.468763887101545" lon="8.941994452295738" id="-21039">
		<tag k="name" v="Gråur" />
		<tag k="natural" v="scree" />
		<tag k="ssr:stedsnr" v="453905" />
	</node>
	<node lat="59.32804166847121" lon="9.1868222197658" id="-21044">
		<tag k="name" v="Bråtåmyra" />
=======
	<node id="-446520" lat="59.3915027783" lon="9.10601667049">
		<tag k="name" v="Åsmyra" />
>>>>>>> e1d4bc35ff8a6074a6f2e91616a996b547c36f15
		<tag k="natural" v="wetland" />
		<tag k="ssr:stedsnr" v="468108" />
	</node>
<<<<<<< HEAD
	<node lat="59.3764500027735" lon="9.049263896787718" id="-21094">
		<tag k="name" v="Kåsin" />
		<tag k="place" v="locality" />
		<tag k="ssr:stedsnr" v="511407" />
	</node>
	<node lat="59.377322219373724" lon="8.976080562288585" id="-21095">
		<tag k="name" v="Øymyrane" />
		<tag k="natural" v="wetland" />
		<tag k="ssr:stedsnr" v="511444" />
	</node>
	<node lat="59.32856666700907" lon="9.19639167515494" id="-21135">
		<tag k="name" v="Versmyra" />
		<tag k="natural" v="wetland" />
		<tag k="ssr:stedsnr" v="529123" />
	</node>
	<node lat="59.47441944809421" lon="9.273497229685711" id="-21136">
		<tag k="name" v="Langemyr" />
		<tag k="natural" v="wetland" />
		<tag k="ssr:stedsnr" v="529198" />
	</node>
	<node lat="59.47185555156445" lon="9.352644438494798" id="-21138">
		<tag k="name" v="Kjerremyr" />
=======
	<node id="-445774" lat="59.3515000036" lon="9.15975554837">
		<tag k="name" v="Vinterlaget" />
		<tag k="natural" v="wetland" />
		<tag k="ssr:stedsnr" v="893142" />
	</node>
	<node id="-444814" lat="59.4289611092" lon="8.89768888948">
		<tag k="name" v="Hestemyra" />
		<tag k="natural" v="wetland" />
		<tag k="ssr:stedsnr" v="149816" />
	</node>
	<node id="-447208" lat="59.3917888859" lon="9.26616388195">
		<tag k="landuse" v="quarry" />
		<tag k="name" v="Holtamoen" />
		<tag k="ssr:stedsnr" v="589581" />
	</node>
	<node id="-445564" lat="59.3433611149" lon="9.28920554949">
		<tag k="name" v="Serketjønn" />
		<tag k="natural" v="wetland" />
		<tag k="ssr:stedsnr" v="711280" />
	</node>
	<node id="-445158" lat="59.4784194461" lon="9.39202222488">
		<tag k="name" v="Slåttemyrane" />
		<tag k="natural" v="wetland" />
		<tag k="ssr:stedsnr" v="347562" />
	</node>
	<node id="-447717" lat="59.4290333295" lon="9.30573334038">
		<tag k="landuse" v="quarry" />
		<tag k="name" v="Saudar sandtak" />
		<tag k="ssr:stedsnr" v="954597" />
	</node>
	<node id="-445240" lat="59.4782222267" lon="9.30265832563">
		<tag k="historic" v="shieling" />
		<tag k="name" v="Kråkevollen" />
		<tag k="place" v="locality" />
		<tag k="ssr:stedsnr" v="407622" />
	</node>
	<node id="-445222" lat="59.4456722188" lon="9.27910555526">
		<tag k="name" v="Østre Kringsåsmyr" />
>>>>>>> e1d4bc35ff8a6074a6f2e91616a996b547c36f15
		<tag k="natural" v="wetland" />
		<tag k="ssr:stedsnr" v="529608" />
	</node>
<<<<<<< HEAD
	<node lat="59.35215278031125" lon="9.266688896312989" id="-21142">
		<tag k="name" v="Ottersnes-sveune" />
=======
	<node id="-447440" lat="59.5056805537" lon="9.29801388888">
		<tag k="name" v="Gvit-skin" />
		<tag k="place" v="locality" />
		<tag k="ssr:stedsnr" v="771836" />
	</node>
	<node id="-446501" lat="59.410358331" lon="9.03978055953">
		<tag k="name" v="England" />
		<tag k="place" v="locality" />
		<tag k="ssr:stedsnr" v="146228" />
	</node>
	<node id="-444643" lat="59.4403611067" lon="9.11612778382">
		<tag k="name" v="Øygardsmyra" />
		<tag k="natural" v="wetland" />
		<tag k="ssr:stedsnr" v="26041" />
	</node>
	<node id="-444633" lat="59.3408111118" lon="9.22195277143">
		<tag k="name" v="Åsebak" />
>>>>>>> e1d4bc35ff8a6074a6f2e91616a996b547c36f15
		<tag k="place" v="locality" />
		<tag k="ssr:stedsnr" v="529914" />
	</node>
<<<<<<< HEAD
	<node lat="59.410577774412964" lon="9.03383333215438" id="-21173">
		<tag k="name" v="Geitekåsa" />
=======
	<node id="-444632" lat="59.3395083354" lon="9.19519167525">
		<tag k="name" v="Skrikholene" />
>>>>>>> e1d4bc35ff8a6074a6f2e91616a996b547c36f15
		<tag k="place" v="locality" />
		<tag k="ssr:stedsnr" v="693299" />
	</node>
<<<<<<< HEAD
	<node lat="59.37325277571159" lon="8.990274998345194" id="-21178">
		<tag k="name" v="Smiumyrane" />
		<tag k="natural" v="wetland" />
		<tag k="ssr:stedsnr" v="693462" />
	</node>
	<node lat="59.40992221911059" lon="8.960355556455053" id="-21181">
		<tag k="name" v="Sandfett" />
=======
	<node id="-444728" lat="59.3831083323" lon="8.9887277716">
		<tag k="name" v="Steinkrossen" />
		<tag k="natural" v="stone" />
		<tag k="ssr:stedsnr" v="85057" />
	</node>
	<node id="-444626" lat="59.3833111073" lon="8.88948888386">
		<tag k="name" v="Tovsonmyra" />
		<tag k="natural" v="wetland" />
		<tag k="ssr:stedsnr" v="24134" />
	</node>
	<node id="-444625" lat="59.420786107" lon="9.326755563">
		<tag k="landuse" v="quarry" />
		<tag k="name" v="Grautegrova" />
		<tag k="ssr:stedsnr" v="225952" />
	</node>
	<node id="-446672" lat="59.4340861076" lon="8.97907500769">
		<tag k="name" v="Hestesvea" />
		<tag k="place" v="locality" />
		<tag k="ssr:stedsnr" v="210869" />
	</node>
	<node id="-446159" lat="59.4490222186" lon="8.94615555284">
		<tag k="name" v="Sveune" />
>>>>>>> e1d4bc35ff8a6074a6f2e91616a996b547c36f15
		<tag k="place" v="locality" />
		<tag k="ssr:stedsnr" v="571048" />
	</node>
<<<<<<< HEAD
	<node lat="59.44136944652742" lon="9.12198333097263" id="-21191">
		<tag k="name" v="Skrubbemyra" />
=======
	<node id="-447575" lat="59.3957111086" lon="9.37695556332">
		<tag k="name" v="Lauvrosmyrene" />
		<tag k="natural" v="wetland" />
		<tag k="ssr:stedsnr" v="832408" />
	</node>
	<node id="-446155" lat="59.4606416623" lon="8.93123333077">
		<tag k="name" v="Stavsholtmyrane" />
>>>>>>> e1d4bc35ff8a6074a6f2e91616a996b547c36f15
		<tag k="natural" v="wetland" />
		<tag k="ssr:stedsnr" v="571261" />
	</node>
<<<<<<< HEAD
	<node lat="59.37748333125662" lon="8.951416662093383" id="-21193">
		<tag k="name" v="Solberg" />
		<tag k="place" v="locality" />
		<tag k="ssr:stedsnr" v="571452" />
	</node>
	<node lat="59.38362499788925" lon="8.914338884857456" id="-21209">
		<tag k="name" v="Sillebrumyra" />
		<tag k="natural" v="wetland" />
		<tag k="ssr:stedsnr" v="574023" />
	</node>
	<node lat="59.377883333116564" lon="8.90443333509242" id="-21211">
		<tag k="name" v="Tustemyr" />
=======
	<node id="-447689" lat="59.4705611089" lon="9.30176389333">
		<tag k="historic" v="shieling" />
		<tag k="name" v="Kråkevollen" />
		<tag k="place" v="locality" />
		<tag k="ssr:stedsnr" v="953592" />
	</node>
	<node id="-447174" lat="59.4557166674" lon="8.91946388636">
		<tag k="name" v="Langemyr" />
		<tag k="natural" v="wetland" />
		<tag k="ssr:stedsnr" v="574973" />
	</node>
	<node id="-446658" lat="59.4053277817" lon="9.09754167251">
		<tag k="landuse" v="quarry" />
		<tag k="name" v="Liaskotet" />
		<tag k="ssr:stedsnr" v="208669" />
	</node>
	<node id="-447679" lat="59.443997218" lon="9.24648888657">
		<tag k="name" v="Bekkeskot-myra" />
		<tag k="natural" v="wetland" />
		<tag k="ssr:stedsnr" v="953202" />
	</node>
	<node id="-445628" lat="59.3847583339" lon="9.05009444677">
		<tag k="name" v="Eikjakåsine" />
		<tag k="place" v="locality" />
		<tag k="ssr:stedsnr" v="633370" />
	</node>
	<node id="-444602" lat="59.4568472191" lon="9.26991665878">
		<tag k="name" v="Midtstykket" />
		<tag k="place" v="locality" />
		<tag k="ssr:stedsnr" v="225152" />
	</node>
	<node id="-447161" lat="59.3778833331" lon="8.90443333509">
		<tag k="name" v="Tustemyr" />
		<tag k="natural" v="wetland" />
		<tag k="ssr:stedsnr" v="574051" />
	</node>
	<node id="-447672" lat="59.41113611" lon="9.34147500876">
		<tag k="name" v="Halvfar-myra" />
>>>>>>> e1d4bc35ff8a6074a6f2e91616a996b547c36f15
		<tag k="natural" v="wetland" />
		<tag k="ssr:stedsnr" v="574051" />
	</node>
<<<<<<< HEAD
	<node lat="59.45166944091691" lon="9.014055551397595" id="-21220">
		<tag k="name" v="Kolmyra" />
=======
	<node id="-447159" lat="59.3836249979" lon="8.91433888486">
		<tag k="name" v="Sillebrumyra" />
>>>>>>> e1d4bc35ff8a6074a6f2e91616a996b547c36f15
		<tag k="natural" v="wetland" />
		<tag k="ssr:stedsnr" v="695053" />
	</node>
<<<<<<< HEAD
	<node lat="59.47475000158551" lon="8.956897221577627" id="-21233">
		<tag k="name" v="Lislestulmyra" />
=======
	<node id="-444596" lat="59.3885805576" lon="9.31340555875">
		<tag k="name" v="Rismyrene" />
>>>>>>> e1d4bc35ff8a6074a6f2e91616a996b547c36f15
		<tag k="natural" v="wetland" />
		<tag k="ssr:stedsnr" v="696649" />
	</node>
<<<<<<< HEAD
	<node lat="59.388577774843654" lon="9.245702785896814" id="-21262">
		<tag k="name" v="Megardsmoen" />
=======
	<node id="-447155" lat="59.4611638877" lon="9.04246945177">
		<tag k="name" v="Sveune" />
>>>>>>> e1d4bc35ff8a6074a6f2e91616a996b547c36f15
		<tag k="place" v="locality" />
		<tag k="ssr:stedsnr" v="590673" />
	</node>
<<<<<<< HEAD
	<node lat="59.39549444158488" lon="9.257211109412006" id="-21263">
		<tag k="name" v="Kåsamoen" />
=======
	<node id="-446642" lat="59.4114361088" lon="8.95277500057">
		<tag k="name" v="Tallaksekrune" />
>>>>>>> e1d4bc35ff8a6074a6f2e91616a996b547c36f15
		<tag k="place" v="locality" />
		<tag k="ssr:stedsnr" v="590676" />
	</node>
<<<<<<< HEAD
	<node lat="59.444224997908194" lon="9.10584721884815" id="-21272">
		<tag k="name" v="Fuglmyrane" />
		<tag k="natural" v="wetland" />
		<tag k="ssr:stedsnr" v="608490" />
	</node>
	<node lat="59.37898055273755" lon="8.95821666780976" id="-21284">
		<tag k="name" v="Vesledalskåsa" />
		<tag k="place" v="locality" />
		<tag k="ssr:stedsnr" v="630097" />
	</node>
	<node lat="59.37769444661758" lon="8.960552773584578" id="-21288">
		<tag k="name" v="Uvdalsfekjane" />
		<tag k="natural" v="wetland" />
		<tag k="ssr:stedsnr" v="632459" />
	</node>
	<node lat="59.42943888490554" lon="8.895052772044185" id="-21306">
		<tag k="name" v="Rønningen" />
		<tag k="place" v="locality" />
		<tag k="ssr:stedsnr" v="634826" />
	</node>
	<node lat="59.45182499782086" lon="9.319574991437356" id="-21313">
		<tag k="name" v="Stenningsøyren" />
=======
	<node id="-445136" lat="59.3988694403" lon="9.27845833583">
		<tag k="name" v="Kvigarden" />
		<tag k="place" v="locality" />
		<tag k="ssr:stedsnr" v="346510" />
	</node>
	<node id="-446540" lat="59.4267055562" lon="8.99133332602">
		<tag k="landuse" v="quarry" />
		<tag k="name" v="Vreimsgruva" />
		<tag k="ssr:stedsnr" v="149844" />
	</node>
	<node id="-445212" lat="59.4584611136" lon="9.00173056382">
		<tag k="name" v="Stormyrhaugane" />
		<tag k="place" v="locality" />
		<tag k="ssr:stedsnr" v="392105" />
	</node>
	<node id="-445382" lat="59.36417222" lon="9.31438055824">
		<tag k="name" v="Breidmyr" />
		<tag k="natural" v="wetland" />
		<tag k="ssr:stedsnr" v="669832" />
	</node>
	<node id="-447648" lat="59.3849388873" lon="8.98867222632">
		<tag k="name" v="Saltgravsmyra" />
		<tag k="natural" v="wetland" />
		<tag k="ssr:stedsnr" v="874099" />
	</node>
	<node id="-444784" lat="59.4630333319" lon="9.03313888031">
		<tag k="name" v="Gapmyra" />
		<tag k="natural" v="wetland" />
		<tag k="ssr:stedsnr" v="270050" />
	</node>
	<node id="-446109" lat="59.4893238063" lon="9.0498883075">
		<tag k="name" v="Øverland skog" />
>>>>>>> e1d4bc35ff8a6074a6f2e91616a996b547c36f15
		<tag k="place" v="locality" />
		<tag k="ssr:stedsnr" v="649248" />
	</node>
<<<<<<< HEAD
	<node lat="59.46826666401514" lon="9.22201944037206" id="-21321">
		<tag k="name" v="Snapholt" />
		<tag k="place" v="locality" />
		<tag k="ssr:stedsnr" v="650220" />
	</node>
	<node lat="59.47296666652291" lon="9.226794436470817" id="-21323">
		<tag k="name" v="Vidsjåli-myrene" />
=======
	<node id="-447130" lat="59.4413694465" lon="9.12198333097">
		<tag k="name" v="Skrubbemyra" />
>>>>>>> e1d4bc35ff8a6074a6f2e91616a996b547c36f15
		<tag k="natural" v="wetland" />
		<tag k="ssr:stedsnr" v="650229" />
	</node>
<<<<<<< HEAD
	<node lat="59.381399997927176" lon="9.263997229618216" id="-21329">
		<tag k="name" v="Vårkvi" />
=======
	<node id="-447129" lat="59.4099222191" lon="8.96035555646">
		<tag k="name" v="Sandfett" />
>>>>>>> e1d4bc35ff8a6074a6f2e91616a996b547c36f15
		<tag k="place" v="locality" />
		<tag k="ssr:stedsnr" v="650544" />
	</node>
<<<<<<< HEAD
	<node lat="59.34671666235503" lon="9.173127779316632" id="-21362">
		<tag k="name" v="Byttingsmyr" />
		<tag k="natural" v="wetland" />
		<tag k="ssr:stedsnr" v="893044" />
	</node>
	<node lat="59.35150000355297" lon="9.159755548371445" id="-21363">
		<tag k="name" v="Vinterlaget" />
		<tag k="natural" v="wetland" />
		<tag k="ssr:stedsnr" v="893142" />
	</node>
	<node lat="59.40649166546287" lon="9.310830553965019" id="-21365">
		<tag k="name" v="Tunga" />
=======
	<node id="-447638" lat="59.4648861148" lon="9.16479167131">
		<tag k="alt_name" v="Flåtin" />
		<tag k="name" v="Flottin" />
>>>>>>> e1d4bc35ff8a6074a6f2e91616a996b547c36f15
		<tag k="place" v="locality" />
		<tag k="ssr:stedsnr" v="893089" />
	</node>
<<<<<<< HEAD
	<node lat="59.35022221937483" lon="9.13694444595725" id="-21373">
		<tag k="name" v="Steinstolmyrene" />
=======
	<node id="-446101" lat="59.4282972188" lon="9.33568610304">
		<tag k="name" v="Dåpan" />
>>>>>>> e1d4bc35ff8a6074a6f2e91616a996b547c36f15
		<tag k="natural" v="wetland" />
		<tag k="ssr:stedsnr" v="893152" />
	</node>
<<<<<<< HEAD
	<node lat="59.37622499896313" lon="9.187533332909213" id="-21374">
		<tag k="name" v="Øyene" />
=======
	<node id="-445076" lat="59.4332888871" lon="9.35291944104">
		<tag k="name" v="Askemyra" />
>>>>>>> e1d4bc35ff8a6074a6f2e91616a996b547c36f15
		<tag k="natural" v="wetland" />
		<tag k="ssr:stedsnr" v="893929" />
	</node>
<<<<<<< HEAD
	<node lat="59.43228332950957" lon="9.222402783031573" id="-21427">
		<tag k="name" v="Ringstulmyrene" />
=======
	<node id="-445587" lat="59.4323194424" lon="9.33442223025">
		<tag k="name" v="Skåpilmyr" />
>>>>>>> e1d4bc35ff8a6074a6f2e91616a996b547c36f15
		<tag k="natural" v="wetland" />
		<tag k="ssr:stedsnr" v="710476" />
	</node>
<<<<<<< HEAD
	<node lat="59.343361114888246" lon="9.28920554948686" id="-21442">
		<tag k="name" v="Serketjønn" />
		<tag k="natural" v="wetland" />
		<tag k="ssr:stedsnr" v="711280" />
	</node>
	<node lat="59.48068888586076" lon="9.40253611000253" id="-21444">
		<tag k="name" v="Deildmyrane" />
=======
	<node id="-447634" lat="59.3606444458" lon="8.86594444693">
		<tag k="name" v="Snakhol" />
		<tag k="place" v="locality" />
		<tag k="ssr:stedsnr" v="852302" />
	</node>
	<node id="-446226" lat="59.4278666693" lon="8.95415833768">
		<tag k="name" v="Magrettesmyr" />
		<tag k="natural" v="wetland" />
		<tag k="ssr:stedsnr" v="27851" />
	</node>
	<node id="-446094" lat="59.485336108" lon="9.11432499558">
		<tag k="name" v="Stasmyra" />
>>>>>>> e1d4bc35ff8a6074a6f2e91616a996b547c36f15
		<tag k="natural" v="wetland" />
		<tag k="ssr:stedsnr" v="711410" />
	</node>
<<<<<<< HEAD
	<node lat="59.42744444444379" lon="9.300352775030554" id="-21451">
		<tag k="name" v="Sandsbrekka" />
		<tag k="place" v="locality" />
		<tag k="ssr:stedsnr" v="711610" />
	</node>
	<node lat="59.38520278037804" lon="8.97822221351397" id="-21473">
		<tag k="name" v="Rakkeholune" />
		<tag k="natural" v="wetland" />
		<tag k="ssr:stedsnr" v="752058" />
	</node>
	<node lat="59.38148610823446" lon="8.961988892400292" id="-21475">
		<tag k="name" v="Langedalsmyra" />
=======
	<node id="-445254" lat="59.3764500028" lon="9.04926389679">
		<tag k="name" v="Kåsin" />
		<tag k="place" v="locality" />
		<tag k="ssr:stedsnr" v="511407" />
	</node>
	<node id="-444865" lat="59.4395111147" lon="9.3118694457">
		<tag k="name" v="Gonildskås" />
		<tag k="place" v="locality" />
		<tag k="ssr:stedsnr" v="286657" />
	</node>
	<node id="-445569" lat="59.3669055518" lon="9.29607222432">
		<tag k="name" v="Hestmyr" />
>>>>>>> e1d4bc35ff8a6074a6f2e91616a996b547c36f15
		<tag k="natural" v="wetland" />
		<tag k="ssr:stedsnr" v="752078" />
	</node>
<<<<<<< HEAD
	<node lat="59.43636388633255" lon="9.014497217606749" id="-21479">
		<tag k="name" v="Vakkermyr" />
		<tag k="natural" v="wetland" />
		<tag k="ssr:stedsnr" v="753467" />
	</node>
	<node lat="59.45073611080326" lon="9.341144440088458" id="-21503">
		<tag k="landuse" v="quarry" />
		<tag k="name" v="Stenningen sandtak" />
		<tag k="ssr:stedsnr" v="771024" />
	</node>
	<node lat="59.47529166940231" lon="9.348366663691541" id="-21568">
		<tag k="alt_name" v="Røymyr" />
		<tag k="name" v="Røyrmyr" />
		<tag k="natural" v="wetland" />
		<tag k="ssr:stedsnr" v="913039" />
	</node>
	<node lat="59.42919166337013" lon="9.23587777491098" id="-21615">
		<tag k="name" v="Svarttjønn-myra" />
=======
	<node id="-445714" lat="59.4763361144" lon="9.02585555363">
		<tag k="name" v="Merraholet" />
		<tag k="natural" v="wetland" />
		<tag k="ssr:stedsnr" v="878471" />
	</node>
	<node id="-445205" lat="59.4453416683" lon="9.09014722912">
		<tag k="landuse" v="quarry" />
		<tag k="name" v="Sjåberggruva" />
		<tag k="ssr:stedsnr" v="390267" />
	</node>
	<node id="-446076" lat="59.376224999" lon="9.18753333291">
		<tag k="name" v="Øyene" />
>>>>>>> e1d4bc35ff8a6074a6f2e91616a996b547c36f15
		<tag k="natural" v="wetland" />
		<tag k="ssr:stedsnr" v="832336" />
	</node>
<<<<<<< HEAD
	<node lat="59.39571110860669" lon="9.376955563315889" id="-21621">
		<tag k="name" v="Lauvrosmyrene" />
		<tag k="natural" v="wetland" />
		<tag k="ssr:stedsnr" v="832408" />
	</node>
	<node lat="59.42523611106526" lon="9.389919442753406" id="-21629">
		<tag k="name" v="Tjona" />
=======
	<node id="-445045" lat="59.4452222213" lon="9.2726611111">
		<tag k="name" v="Vestre Kringsåsmyr" />
>>>>>>> e1d4bc35ff8a6074a6f2e91616a996b547c36f15
		<tag k="natural" v="wetland" />
		<tag k="ssr:stedsnr" v="832699" />
	</node>
	<node lat="59.341027777061896" lon="9.193188895716716" id="-21639">
		<tag k="name" v="Åråsmyra" />
		<tag k="natural" v="wetland" />
		<tag k="ssr:stedsnr" v="833032" />
	</node>
<<<<<<< HEAD
	<node lat="59.3671833329449" lon="9.37429443613351" id="-21645">
=======
	<node id="-447604" lat="59.3671833329" lon="9.37429443613">
>>>>>>> e1d4bc35ff8a6074a6f2e91616a996b547c36f15
		<tag k="name" v="Klypa" />
		<tag k="natural" v="wetland" />
		<tag k="ssr:stedsnr" v="833300" />
	</node>
<<<<<<< HEAD
	<node lat="59.40186388646179" lon="9.094036118794417" id="-21680">
=======
	<node id="-446066" lat="59.4018638865" lon="9.09403611879">
>>>>>>> e1d4bc35ff8a6074a6f2e91616a996b547c36f15
		<tag k="landuse" v="quarry" />
		<tag k="name" v="Liaslåtta" />
		<tag k="ssr:stedsnr" v="875629" />
	</node>
<<<<<<< HEAD
	<node lat="59.43032777565428" lon="8.99248888852196" id="-21696">
		<tag k="name" v="Sprengsmyr" />
=======
	<node id="-447599" lat="59.3410277771" lon="9.19318889572">
		<tag k="name" v="Åråsmyra" />
>>>>>>> e1d4bc35ff8a6074a6f2e91616a996b547c36f15
		<tag k="natural" v="wetland" />
		<tag k="old_name" v="Spremgsmyr" />
		<tag k="ssr:stedsnr" v="877862" />
	</node>
<<<<<<< HEAD
	<node lat="59.38205833107655" lon="8.935658327915661" id="-21697">
		<tag k="name" v="Tømmermyr" />
=======
	<node id="-446571" lat="59.4680138855" lon="9.38755000134">
		<tag k="name" v="Skotmyr" />
>>>>>>> e1d4bc35ff8a6074a6f2e91616a996b547c36f15
		<tag k="natural" v="wetland" />
		<tag k="ssr:stedsnr" v="878004" />
	</node>
<<<<<<< HEAD
	<node lat="59.45254444796709" lon="9.251802775837222" id="-21712">
		<tag k="name" v="Torvmyra" />
=======
	<node id="-445034" lat="59.3792833338" lon="9.31445555119">
		<tag k="name" v="Moltemyr-haugene" />
>>>>>>> e1d4bc35ff8a6074a6f2e91616a996b547c36f15
		<tag k="natural" v="wetland" />
		<tag k="ssr:stedsnr" v="893160" />
	</node>
<<<<<<< HEAD
	<node lat="59.420716663770634" lon="9.242391662380188" id="-21714">
		<tag k="name" v="Hasletomarken" />
		<tag k="place" v="locality" />
		<tag k="ssr:stedsnr" v="893305" />
	</node>
	<node lat="59.47735277361957" lon="9.238724996993618" id="-21717">
		<tag k="name" v="Briskepålen" />
=======
	<node id="-447593" lat="59.4209194442" lon="9.3079805623">
		<tag k="name" v="Feta" />
		<tag k="natural" v="wetland" />
		<tag k="ssr:stedsnr" v="832943" />
	</node>
	<node id="-445544" lat="59.4322833295" lon="9.22240278303">
		<tag k="name" v="Ringstulmyrene" />
>>>>>>> e1d4bc35ff8a6074a6f2e91616a996b547c36f15
		<tag k="natural" v="wetland" />
		<tag k="ssr:stedsnr" v="893207" />
	</node>
<<<<<<< HEAD
	<node lat="59.476983333492655" lon="9.236174993920843" id="-21718">
		<tag k="name" v="Espelid-slåtta" />
		<tag k="natural" v="wetland" />
		<tag k="ssr:stedsnr" v="893209" />
	</node>
	<node lat="59.350322224439175" lon="9.305405552244354" id="-21727">
		<tag k="name" v="Bufjelldalen" />
=======
	<node id="-444821" lat="59.4615472225" lon="8.91376943862">
		<tag k="name" v="Klokkesteinmyrane" />
		<tag k="natural" v="wetland" />
		<tag k="old_name" v="Klokkesteimyrane" />
		<tag k="ssr:stedsnr" v="149966" />
	</node>
	<node id="-447585" lat="59.4252361111" lon="9.38991944275">
		<tag k="name" v="Tjona" />
>>>>>>> e1d4bc35ff8a6074a6f2e91616a996b547c36f15
		<tag k="natural" v="wetland" />
		<tag k="ssr:stedsnr" v="893276" />
	</node>
<<<<<<< HEAD
	<node lat="59.39816666232879" lon="9.269638894328011" id="-21737">
		<tag k="name" v="Feta-landet" />
		<tag k="natural" v="wetland" />
		<tag k="ssr:stedsnr" v="893586" />
	</node>
	<node lat="59.485336108015666" lon="9.114324995584962" id="-21778">
		<tag k="name" v="Stasmyra" />
		<tag k="natural" v="wetland" />
		<tag k="ssr:stedsnr" v="937530" />
	</node>
	<node lat="59.47253333466353" lon="8.935599996310122" id="-21789">
=======
	<node id="-445024" lat="59.4469916672" lon="9.35115833092">
		<tag k="name" v="Høymyr" />
		<tag k="natural" v="wetland" />
		<tag k="ssr:stedsnr" v="286718" />
	</node>
	<node id="-445022" lat="59.4729555552" lon="9.30495000437">
		<tag k="name" v="Stigsjordet" />
		<tag k="place" v="locality" />
		<tag k="ssr:stedsnr" v="286554" />
	</node>
	<node id="-445019" lat="59.4176500028" lon="9.27303333026">
		<tag k="name" v="Lugusprang" />
		<tag k="place" v="locality" />
		<tag k="ssr:stedsnr" v="286504" />
	</node>
	<node id="-447066" lat="59.3521527803" lon="9.26668889631">
		<tag k="name" v="Ottersnes-sveune" />
		<tag k="place" v="locality" />
		<tag k="ssr:stedsnr" v="529914" />
	</node>
	<node id="-444775" lat="59.4739361086" lon="9.14753055483">
		<tag k="historic" v="shieling" />
		<tag k="name" v="Knutshaug" />
		<tag k="place" v="locality" />
		<tag k="ssr:stedsnr" v="268915" />
	</node>
	<node id="-445527" lat="59.4570000002" lon="8.95544999221">
		<tag k="name" v="Tromfossmyra" />
		<tag k="natural" v="wetland" />
		<tag k="ssr:stedsnr" v="574073" />
	</node>
	<node id="-446038" lat="59.4725333347" lon="8.93559999631">
>>>>>>> e1d4bc35ff8a6074a6f2e91616a996b547c36f15
		<tag k="name" v="Røksmyr" />
		<tag k="natural" v="wetland" />
		<tag k="ssr:stedsnr" v="938910" />
	</node>
<<<<<<< HEAD
	<node lat="59.44399721796832" lon="9.246488886569312" id="-21793">
		<tag k="name" v="Bekkeskot-myra" />
=======
	<node id="-446549" lat="59.3508944447" lon="9.16193889139">
		<tag k="name" v="Roksmyrene" />
>>>>>>> e1d4bc35ff8a6074a6f2e91616a996b547c36f15
		<tag k="natural" v="wetland" />
		<tag k="ssr:stedsnr" v="953202" />
	</node>
<<<<<<< HEAD
	<node lat="59.47056110888589" lon="9.301763893325507" id="-21794">
		<tag k="historic" v="shieling" />
		<tag k="name" v="Kråkevollen" />
		<tag k="place" v="locality" />
		<tag k="ssr:stedsnr" v="953592" />
	</node>
	<node lat="59.42903332948171" lon="9.305733340377948" id="-21811">
		<tag k="landuse" v="quarry" />
		<tag k="name" v="Saudar sandtak" />
		<tag k="ssr:stedsnr" v="954597" />
	</node>
	<node lat="59.48932380630113" lon="9.049888307504824" id="-21820">
		<tag k="name" v="Øverland skog" />
		<tag k="place" v="locality" />
		<tag k="ssr:stedsnr" v="983032" />
	</node>
	<node lat="59.449022218616044" lon="8.946155552843738" id="-21861">
		<tag k="name" v="Sveune" />
		<tag k="place" v="locality" />
		<tag k="ssr:stedsnr" v="2510" />
	</node>
	<node lat="59.44036110666972" lon="9.116127783823288" id="-21886">
		<tag k="name" v="Øygardsmyra" />
=======
	<node id="-445011" lat="59.3601444429" lon="9.30275000549">
		<tag k="name" v="Ulevassmyra" />
		<tag k="natural" v="wetland" />
		<tag k="ssr:stedsnr" v="286302" />
	</node>
	<node id="-445009" lat="59.4731138917" lon="9.2671805541">
		<tag k="name" v="Kaldmyr-hola" />
>>>>>>> e1d4bc35ff8a6074a6f2e91616a996b547c36f15
		<tag k="natural" v="wetland" />
		<tag k="ssr:stedsnr" v="26041" />
	</node>
<<<<<<< HEAD
	<node lat="59.406499997751524" lon="8.900766674704757" id="-21889">
		<tag k="name" v="Gravdalsmyra" />
		<tag k="natural" v="wetland" />
		<tag k="ssr:stedsnr" v="26145" />
	</node>
	<node lat="59.37290000007268" lon="8.96729722391941" id="-21898">
		<tag k="name" v="Diplemyr" />
		<tag k="natural" v="wetland" />
		<tag k="ssr:stedsnr" v="26468" />
	</node>
	<node lat="59.41583333073999" lon="9.118419453022607" id="-21906">
		<tag k="name" v="Hauglandkåsin" />
		<tag k="place" v="locality" />
		<tag k="ssr:stedsnr" v="26942" />
	</node>
	<node lat="59.42786666927166" lon="8.954158337679633" id="-21913">
		<tag k="name" v="Magrettesmyr" />
=======
	<node id="-446032" lat="59.4230999965" lon="8.90896111852">
		<tag k="name" v="Høljarura" />
		<tag k="natural" v="scree" />
		<tag k="ssr:stedsnr" v="938792" />
	</node>
	<node id="-445112" lat="59.3965999996" lon="9.09454166244">
		<tag k="name" v="Storemyr" />
		<tag k="natural" v="wetland" />
		<tag k="ssr:stedsnr" v="330405" />
	</node>
	<node id="-446541" lat="59.4241277821" lon="8.88940555832">
		<tag k="name" v="Hestehegna" />
		<tag k="place" v="locality" />
		<tag k="ssr:stedsnr" v="149848" />
	</node>
	<node id="-447052" lat="59.3469916632" lon="9.19974722718">
		<tag k="name" v="Fuglekåsa" />
		<tag k="place" v="locality" />
		<tag k="ssr:stedsnr" v="529090" />
	</node>
	<node id="-447051" lat="59.3460972244" lon="9.19338055269">
		<tag k="name" v="Bjørnebærmyra" />
>>>>>>> e1d4bc35ff8a6074a6f2e91616a996b547c36f15
		<tag k="natural" v="wetland" />
		<tag k="ssr:stedsnr" v="27851" />
	</node>
<<<<<<< HEAD
	<node lat="59.42713888726298" lon="8.915719449141193" id="-21919">
		<tag k="name" v="Sveune" />
		<tag k="place" v="locality" />
		<tag k="ssr:stedsnr" v="28826" />
	</node>
	<node lat="59.444902781232294" lon="8.923119448299136" id="-21920">
		<tag k="name" v="Vreimbumyra" />
		<tag k="natural" v="wetland" />
		<tag k="ssr:stedsnr" v="28848" />
	</node>
	<node lat="59.39822222223242" lon="9.225791660397253" id="-21941">
		<tag k="name" v="Gorr-myr" />
=======
	<node id="-447050" lat="59.4155277777" lon="9.31524999214">
		<tag k="name" v="Gutuflått" />
		<tag k="place" v="locality" />
		<tag k="ssr:stedsnr" v="529082" />
	</node>
	<node id="-446535" lat="59.5021944434" lon="9.06024444724">
		<tag k="name" v="Diplemyr" />
>>>>>>> e1d4bc35ff8a6074a6f2e91616a996b547c36f15
		<tag k="natural" v="wetland" />
		<tag k="ssr:stedsnr" v="43641" />
	</node>
<<<<<<< HEAD
	<node lat="59.44138888510415" lon="9.099141661520735" id="-21960">
		<tag k="alt_name" v="Trandlemyrane" />
		<tag k="name" v="Trondlemyrane" />
		<tag k="natural" v="wetland" />
		<tag k="ssr:stedsnr" v="63487" />
	</node>
	<node lat="59.38277499918447" lon="8.958913895042588" id="-21986">
		<tag k="name" v="Mørkedokk" />
		<tag k="place" v="locality" />
		<tag k="ssr:stedsnr" v="85046" />
	</node>
	<node lat="59.38310833232063" lon="8.98872777159749" id="-21988">
		<tag k="name" v="Steinkrossen" />
		<tag k="natural" v="stone" />
		<tag k="ssr:stedsnr" v="85057" />
	</node>
	<node lat="59.41663333178776" lon="8.961191666210063" id="-21991">
		<tag k="name" v="Steinkåsa" />
=======
	<node id="-445510" lat="59.3774833313" lon="8.95141666209">
		<tag k="name" v="Solberg" />
		<tag k="place" v="locality" />
		<tag k="ssr:stedsnr" v="571452" />
	</node>
	<node id="-444996" lat="59.4380555571" lon="9.02090833186">
		<tag k="name" v="Liåsen" />
>>>>>>> e1d4bc35ff8a6074a6f2e91616a996b547c36f15
		<tag k="place" v="locality" />
		<tag k="ssr:stedsnr" v="87046" />
	</node>
<<<<<<< HEAD
	<node lat="59.40822499697623" lon="9.077808325456658" id="-21999">
		<tag k="name" v="Lofthus" />
=======
	<node id="-445707" lat="59.4303277757" lon="8.99248888852">
		<tag k="name" v="Sprengsmyr" />
		<tag k="natural" v="wetland" />
		<tag k="old_name" v="Spremgsmyr" />
		<tag k="ssr:stedsnr" v="877862" />
	</node>
	<node id="-446528" lat="59.4394305545" lon="9.02038889207">
		<tag k="name" v="Husjordet" />
>>>>>>> e1d4bc35ff8a6074a6f2e91616a996b547c36f15
		<tag k="place" v="locality" />
		<tag k="ssr:stedsnr" v="86645" />
	</node>
<<<<<<< HEAD
	<node lat="59.51100555255402" lon="9.073191663610555" id="-22001">
		<tag k="name" v="Røytebutangane" />
=======
	<node id="-447039" lat="59.4744194481" lon="9.27349722969">
		<tag k="name" v="Langemyr" />
>>>>>>> e1d4bc35ff8a6074a6f2e91616a996b547c36f15
		<tag k="natural" v="wetland" />
		<tag k="ssr:stedsnr" v="86732" />
	</node>
<<<<<<< HEAD
	<node lat="59.44616944234896" lon="9.10980000189052" id="-22009">
		<tag k="name" v="Spissbordet" />
		<tag k="natural" v="stone" />
		<tag k="ssr:stedsnr" v="87258" />
	</node>
	<node lat="59.46704722226815" lon="9.256299998598218" id="-22032">
		<tag k="name" v="Hestemyrene" />
		<tag k="natural" v="wetland" />
		<tag k="ssr:stedsnr" v="104219" />
	</node>
	<node lat="59.482516667903916" lon="9.208677780914371" id="-22049">
		<tag k="name" v="Reiphøl" />
=======
	<node id="-445499" lat="59.4747500016" lon="8.95689722158">
		<tag k="name" v="Lislestulmyra" />
>>>>>>> e1d4bc35ff8a6074a6f2e91616a996b547c36f15
		<tag k="natural" v="wetland" />
		<tag k="ssr:stedsnr" v="104167" />
	</node>
<<<<<<< HEAD
	<node lat="59.45444444398569" lon="9.32243333587502" id="-22053">
		<tag k="name" v="Volltveitøyren" />
=======
	<node id="-447545" lat="59.4589499972" lon="8.99493332641">
		<tag k="name" v="Åkroken" />
>>>>>>> e1d4bc35ff8a6074a6f2e91616a996b547c36f15
		<tag k="place" v="locality" />
		<tag k="ssr:stedsnr" v="104240" />
	</node>
<<<<<<< HEAD
	<node lat="59.46626944827636" lon="9.380847223997216" id="-22061">
		<tag k="name" v="Rundemyr" />
		<tag k="natural" v="wetland" />
		<tag k="ssr:stedsnr" v="104569" />
	</node>
	<node lat="59.479422225625264" lon="9.091133325691093" id="-22096">
		<tag k="name" v="Jonsmyr" />
=======
	<node id="-447544" lat="59.4579722184" lon="8.97733332798">
		<tag k="name" v="Høystulmyra" />
		<tag k="natural" v="wetland" />
		<tag k="ssr:stedsnr" v="817098" />
	</node>
	<node id="-446516" lat="59.4014694435" lon="8.91706388324">
		<tag k="name" v="Bjønnesteinen" />
		<tag k="natural" v="stone" />
		<tag k="ssr:stedsnr" v="147130" />
	</node>
	<node id="-444977" lat="59.4050583292" lon="8.98466111475">
		<tag k="name" v="Høymyrane" />
>>>>>>> e1d4bc35ff8a6074a6f2e91616a996b547c36f15
		<tag k="natural" v="wetland" />
		<tag k="ssr:stedsnr" v="123653" />
	</node>
<<<<<<< HEAD
	<node lat="59.38391944486812" lon="8.966111112343423" id="-22105">
		<tag k="name" v="Oremyra" />
=======
	<node id="-446512" lat="59.4145888848" lon="8.97329166614">
		<tag k="name" v="Villmyrane" />
>>>>>>> e1d4bc35ff8a6074a6f2e91616a996b547c36f15
		<tag k="natural" v="wetland" />
		<tag k="ssr:stedsnr" v="145059" />
	</node>
<<<<<<< HEAD
	<node lat="59.38922222151391" lon="8.97238055289607" id="-22107">
		<tag k="name" v="Torvmyra" />
=======
	<node id="-445999" lat="59.4001361111" lon="9.07794443807">
		<tag k="name" v="Skogsmyr" />
>>>>>>> e1d4bc35ff8a6074a6f2e91616a996b547c36f15
		<tag k="natural" v="wetland" />
		<tag k="ssr:stedsnr" v="145066" />
	</node>
<<<<<<< HEAD
	<node lat="59.40146944353301" lon="8.917063883240843" id="-22114">
		<tag k="name" v="Bjønnesteinen" />
		<tag k="natural" v="stone" />
		<tag k="ssr:stedsnr" v="147130" />
	</node>
	<node lat="59.41035833102625" lon="9.039780559534814" id="-22116">
		<tag k="name" v="England" />
		<tag k="place" v="locality" />
		<tag k="ssr:stedsnr" v="146228" />
	</node>
	<node lat="59.44404722507844" lon="9.00669721888739" id="-22123">
		<tag k="name" v="Skyttarsteinen" />
=======
	<node id="-446649" lat="59.4800611105" lon="9.07013055108">
		<tag k="name" v="Tønsberg" />
		<tag k="place" v="locality" />
		<tag k="ssr:stedsnr" v="208476" />
	</node>
	<node id="-444972" lat="59.4537805534" lon="8.92750832972">
		<tag k="name" v="Langemyrleiken" />
		<tag k="natural" v="wetland" />
		<tag k="ssr:stedsnr" v="453955" />
	</node>
	<node id="-447153" lat="59.5274361139" lon="9.01711944485">
		<tag k="name" v="Løkjintangane" />
		<tag k="natural" v="wetland" />
		<tag k="ssr:stedsnr" v="572641" />
	</node>
	<node id="-445988" lat="59.3716813601" lon="9.01788302997">
		<tag k="name" v="Hurrongskogen" />
		<tag k="place" v="locality" />
		<tag k="ssr:stedsnr" v="936397" />
	</node>
	<node id="-444963" lat="59.372658337" lon="8.86433610686">
		<tag k="name" v="Ormesteinen" />
>>>>>>> e1d4bc35ff8a6074a6f2e91616a996b547c36f15
		<tag k="natural" v="stone" />
		<tag k="ssr:stedsnr" v="147026" />
	</node>
<<<<<<< HEAD
	<node lat="59.41458888484343" lon="8.973291666142677" id="-22125">
		<tag k="name" v="Villmyrane" />
=======
	<node id="-444961" lat="59.4497527785" lon="8.98625278528">
		<tag k="name" v="Kremtemyrane" />
>>>>>>> e1d4bc35ff8a6074a6f2e91616a996b547c36f15
		<tag k="natural" v="wetland" />
		<tag k="ssr:stedsnr" v="147038" />
	</node>
<<<<<<< HEAD
	<node lat="59.43943055450087" lon="9.02038889207022" id="-22128">
		<tag k="name" v="Husjordet" />
		<tag k="place" v="locality" />
		<tag k="ssr:stedsnr" v="147582" />
	</node>
	<node lat="59.39150277825054" lon="9.10601667048906" id="-22131">
		<tag k="name" v="Åsmyra" />
=======
	<node id="-446495" lat="59.3892222215" lon="8.9723805529">
		<tag k="name" v="Torvmyra" />
		<tag k="natural" v="wetland" />
		<tag k="ssr:stedsnr" v="145066" />
	</node>
	<node id="-446493" lat="59.3839194449" lon="8.96611111234">
		<tag k="name" v="Oremyra" />
>>>>>>> e1d4bc35ff8a6074a6f2e91616a996b547c36f15
		<tag k="natural" v="wetland" />
		<tag k="ssr:stedsnr" v="147385" />
	</node>
<<<<<<< HEAD
	<node lat="59.426705556158694" lon="8.991333326018532" id="-22149">
		<tag k="landuse" v="quarry" />
		<tag k="name" v="Vreimsgruva" />
		<tag k="ssr:stedsnr" v="149844" />
	</node>
	<node lat="59.42412778206256" lon="8.88940555831885" id="-22150">
		<tag k="name" v="Hestehegna" />
		<tag k="place" v="locality" />
		<tag k="ssr:stedsnr" v="149848" />
	</node>
	<node lat="59.461547222481826" lon="8.913769438624875" id="-22153">
		<tag k="name" v="Klokkesteinmyrane" />
=======
	<node id="-444954" lat="59.4235527756" lon="8.96585554849">
		<tag k="name" v="Varegarden" />
		<tag k="place" v="locality" />
		<tag k="ssr:stedsnr" v="452847" />
	</node>
	<node id="-446738" lat="59.3683972213" lon="8.97627777447">
		<tag k="name" v="Gygrestolura" />
		<tag k="natural" v="scree" />
		<tag k="ssr:stedsnr" v="329443" />
	</node>
	<node id="-445463" lat="59.4105777744" lon="9.03383333215">
		<tag k="name" v="Geitekåsa" />
		<tag k="place" v="locality" />
		<tag k="ssr:stedsnr" v="693299" />
	</node>
	<node id="-445455" lat="59.4718555516" lon="9.35264443849">
		<tag k="name" v="Kjerremyr" />
		<tag k="natural" v="wetland" />
		<tag k="ssr:stedsnr" v="529608" />
	</node>
	<node id="-445625" lat="59.3776944466" lon="8.96055277358">
		<tag k="name" v="Uvdalsfekjane" />
		<tag k="natural" v="wetland" />
		<tag k="ssr:stedsnr" v="632459" />
	</node>
	<node id="-446477" lat="59.4794222256" lon="9.09113332569">
		<tag k="name" v="Jonsmyr" />
>>>>>>> e1d4bc35ff8a6074a6f2e91616a996b547c36f15
		<tag k="natural" v="wetland" />
		<tag k="old_name" v="Klokkesteimyrane" />
		<tag k="ssr:stedsnr" v="149966" />
	</node>
<<<<<<< HEAD
	<node lat="59.3508944447344" lon="9.161938891385834" id="-22158">
		<tag k="name" v="Roksmyrene" />
		<tag k="natural" v="wetland" />
		<tag k="ssr:stedsnr" v="164138" />
	</node>
	<node lat="59.46801388550981" lon="9.387550001340585" id="-22182">
		<tag k="name" v="Skotmyr" />
=======
	<node id="-447057" lat="59.328566667" lon="9.19639167515">
		<tag k="name" v="Versmyra" />
		<tag k="natural" v="wetland" />
		<tag k="ssr:stedsnr" v="529123" />
	</node>
	<node id="-446985" lat="59.4679194403" lon="9.36311388371">
		<tag k="name" v="Olavsmyr" />
>>>>>>> e1d4bc35ff8a6074a6f2e91616a996b547c36f15
		<tag k="natural" v="wetland" />
		<tag k="ssr:stedsnr" v="165563" />
	</node>
<<<<<<< HEAD
	<node lat="59.4114361087977" lon="8.952775000569215" id="-22240">
		<tag k="name" v="Tallaksekrune" />
		<tag k="place" v="locality" />
		<tag k="ssr:stedsnr" v="208057" />
	</node>
	<node lat="59.40532778174466" lon="9.097541672506763" id="-22250">
		<tag k="landuse" v="quarry" />
		<tag k="name" v="Liaskotet" />
		<tag k="ssr:stedsnr" v="208669" />
	</node>
	<node lat="59.453688889079324" lon="9.13101388741058" id="-22254">
		<tag k="name" v="Halvfarsmyra" />
		<tag k="natural" v="wetland" />
		<tag k="ssr:stedsnr" v="208930" />
	</node>
	<node lat="59.42581111523514" lon="8.937616659386213" id="-22266">
		<tag k="name" v="Blåkollmyra" />
		<tag k="natural" v="wetland" />
		<tag k="ssr:stedsnr" v="210807" />
	</node>
	<node lat="59.43408610758518" lon="8.979075007690746" id="-22269">
		<tag k="name" v="Hestesvea" />
		<tag k="place" v="locality" />
		<tag k="ssr:stedsnr" v="210869" />
	</node>
	<node lat="59.388580557596605" lon="9.313405558745778" id="-22278">
		<tag k="name" v="Rismyrene" />
		<tag k="natural" v="wetland" />
		<tag k="ssr:stedsnr" v="225027" />
	</node>
	<node lat="59.456847219094485" lon="9.269916658778156" id="-22285">
		<tag k="name" v="Midtstykket" />
		<tag k="place" v="locality" />
		<tag k="ssr:stedsnr" v="225152" />
	</node>
	<node lat="59.420786106994136" lon="9.326755562997995" id="-22297">
		<tag k="landuse" v="quarry" />
		<tag k="name" v="Grautegrova" />
		<tag k="ssr:stedsnr" v="225952" />
	</node>
	<node lat="59.47311389165198" lon="9.267180554100753" id="-22318">
		<tag k="name" v="Kaldmyr-hola" />
		<tag k="natural" v="wetland" />
		<tag k="ssr:stedsnr" v="286213" />
	</node>
	<node lat="59.352188889513904" lon="9.304383330012179" id="-22320">
		<tag k="name" v="Buhol" />
		<tag k="natural" v="wetland" />
		<tag k="ssr:stedsnr" v="286278" />
	</node>
	<node lat="59.36014444285416" lon="9.302750005485418" id="-22323">
		<tag k="name" v="Ulevassmyra" />
		<tag k="natural" v="wetland" />
		<tag k="ssr:stedsnr" v="286302" />
	</node>
	<node lat="59.44743333706971" lon="9.183974999925196" id="-22331">
		<tag k="name" v="Hestmyr" />
		<tag k="natural" v="wetland" />
		<tag k="ssr:stedsnr" v="286337" />
	</node>
	<node lat="59.439511114713326" lon="9.311869445698614" id="-22333">
		<tag k="name" v="Gonildskås" />
		<tag k="place" v="locality" />
		<tag k="ssr:stedsnr" v="286657" />
	</node>
	<node lat="59.44699166723711" lon="9.351158330919324" id="-22336">
		<tag k="name" v="Høymyr" />
		<tag k="natural" v="wetland" />
		<tag k="ssr:stedsnr" v="286718" />
	</node>
	<node lat="59.44743333380961" lon="9.039113884033718" id="-22389">
		<tag k="name" v="Løyningen" />
		<tag k="place" v="locality" />
		<tag k="ssr:stedsnr" v="329047" />
	</node>
	<node lat="59.36839722133039" lon="8.976277774469917" id="-22394">
		<tag k="name" v="Gygrestolura" />
		<tag k="natural" v="scree" />
		<tag k="ssr:stedsnr" v="329443" />
	</node>
	<node lat="59.43644444660551" lon="8.977669444236833" id="-22420">
		<tag k="name" v="Svartsvea" />
		<tag k="place" v="locality" />
		<tag k="ssr:stedsnr" v="331865" />
	</node>
	<node lat="59.480938889020884" lon="8.947805554910024" id="-22421">
		<tag k="name" v="Bjønnehisteinen" />
		<tag k="natural" v="stone" />
		<tag k="ssr:stedsnr" v="331991" />
	</node>
	<node lat="59.351394447062646" lon="9.169966667535938" id="-22425">
		<tag k="name" v="Kringlemyr" />
		<tag k="natural" v="wetland" />
		<tag k="ssr:stedsnr" v="346130" />
	</node>
	<node lat="59.46068888593801" lon="9.270208330685984" id="-22430">
		<tag k="name" v="Kleivene" />
		<tag k="natural" v="wetland" />
		<tag k="ssr:stedsnr" v="346190" />
	</node>
	<node lat="59.42204166375484" lon="9.38022221381293" id="-22452">
		<tag k="name" v="Griselimyra" />
		<tag k="natural" v="wetland" />
		<tag k="ssr:stedsnr" v="346696" />
	</node>
	<node lat="59.398052782103726" lon="9.232580554907795" id="-22477">
		<tag k="name" v="Langkås" />
		<tag k="place" v="locality" />
		<tag k="ssr:stedsnr" v="347662" />
	</node>
	<node lat="59.482694440680554" lon="9.103466673770669" id="-22523">
		<tag k="name" v="Fetjønnslåttune" />
		<tag k="place" v="locality" />
		<tag k="ssr:stedsnr" v="389493" />
	</node>
	<node lat="59.39361944213433" lon="9.111166673760005" id="-22531">
		<tag k="name" v="Diplemyr" />
		<tag k="natural" v="wetland" />
		<tag k="ssr:stedsnr" v="390361" />
	</node>
	<node lat="59.43436666342586" lon="8.890386115818263" id="-22553">
		<tag k="name" v="Milebråtane" />
		<tag k="place" v="locality" />
		<tag k="ssr:stedsnr" v="392910" />
	</node>
	<node lat="59.445672218753" lon="9.279105555256601" id="-22564">
		<tag k="name" v="Østre Kringsåsmyr" />
		<tag k="natural" v="wetland" />
		<tag k="ssr:stedsnr" v="407153" />
	</node>
	<node lat="59.34948889289762" lon="9.147458339375394" id="-22565">
		<tag k="name" v="Ollemyr" />
		<tag k="natural" v="wetland" />
		<tag k="ssr:stedsnr" v="407161" />
	</node>
	<node lat="59.41453055534536" lon="9.386008340592312" id="-22567">
		<tag k="name" v="Hestegrætet" />
		<tag k="natural" v="wetland" />
		<tag k="ssr:stedsnr" v="407225" />
	</node>
	<node lat="59.44821110782083" lon="9.394230559833288" id="-22587">
		<tag k="name" v="Blektjønnmyra" />
		<tag k="natural" v="wetland" />
		<tag k="ssr:stedsnr" v="407738" />
	</node>
	<node lat="59.429666663287655" lon="9.327847221439251" id="-22593">
		<tag k="landuse" v="quarry" />
		<tag k="name" v="Sunde grustak" />
		<tag k="ssr:stedsnr" v="407929" />
	</node>
	<node lat="59.47503889162767" lon="9.272188897375743" id="-22606">
		<tag k="name" v="Flisedunken" />
=======
	<node id="-446980" lat="59.4750388916" lon="9.27218889738">
		<tag k="name" v="Flisedunken" />
		<tag k="natural" v="wetland" />
		<tag k="ssr:stedsnr" v="408217" />
	</node>
	<node id="-446801" lat="59.4220416638" lon="9.38022221381">
		<tag k="name" v="Griselimyra" />
>>>>>>> e1d4bc35ff8a6074a6f2e91616a996b547c36f15
		<tag k="natural" v="wetland" />
		<tag k="ssr:stedsnr" v="408217" />
	</node>
	<node lat="59.41230555778274" lon="9.036663892078298" id="-22649">
		<tag k="name" v="Brattsberg" />
		<tag k="place" v="locality" />
		<tag k="ssr:stedsnr" v="511262" />
	</node>
<<<<<<< HEAD
	<node lat="59.49751388883542" lon="9.074999997432677" id="-22652">
		<tag k="name" v="Storemyr" />
		<tag k="natural" v="wetland" />
		<tag k="ssr:stedsnr" v="511547" />
	</node>
	<node lat="59.45898888738439" lon="8.92660277710869" id="-22677">
		<tag k="name" v="Rullemyra" />
		<tag k="natural" v="wetland" />
		<tag k="ssr:stedsnr" v="513976" />
	</node>
	<node lat="59.44556388740215" lon="8.910400000858527" id="-22679">
		<tag k="name" v="Blåsteinmyra" />
		<tag k="natural" v="wetland" />
		<tag k="ssr:stedsnr" v="513836" />
	</node>
	<node lat="59.45371666456362" lon="8.934077781261244" id="-22685">
		<tag k="name" v="Tjønnfly" />
		<tag k="natural" v="wetland" />
		<tag k="ssr:stedsnr" v="513953" />
	</node>
	<node lat="59.41552777769273" lon="9.31524999214074" id="-22707">
		<tag k="name" v="Gutuflått" />
		<tag k="place" v="locality" />
		<tag k="ssr:stedsnr" v="529082" />
	</node>
	<node lat="59.346097224388615" lon="9.193380552690414" id="-22708">
		<tag k="name" v="Bjørnebærmyra" />
		<tag k="natural" v="wetland" />
		<tag k="ssr:stedsnr" v="529087" />
	</node>
=======
>>>>>>> e1d4bc35ff8a6074a6f2e91616a996b547c36f15
</osm>
