<?xml version="1.0" encoding="UTF-8"?>
<osm version="0.6" generator="osmapis">
	<node lat="59.3766555541887" lon="8.878783325602184" id="-24380">
		<tag k="fixme" v="consider natural=peak for the most distinct mountains in the district" />
		<tag k="name" v="Livsholnuten" />
		<tag k="natural" v="hill" />
		<tag k="place" v="locality" />
		<tag k="ssr:stedsnr" v="2346" />
	</node>
	<node lat="59.464086113496045" lon="8.955552776805098" id="-24392">
		<tag k="fixme" v="consider natural=peak for the most distinct mountains in the district" />
		<tag k="name" v="Høgåsåsen" />
		<tag k="natural" v="hill" />
		<tag k="place" v="locality" />
		<tag k="ssr:stedsnr" v="2607" />
	</node>
	<node lat="59.481780553410644" lon="8.913636106557467" id="-24393">
		<tag k="fixme" v="consider natural=peak for the most distinct mountains in the district" />
		<tag k="name" v="Røksbufjellet" />
		<tag k="natural" v="hill" />
		<tag k="place" v="locality" />
		<tag k="ssr:stedsnr" v="2627" />
	</node>
	<node lat="59.48383333644757" lon="8.997036115809054" id="-24395">
		<tag k="fixme" v="consider natural=peak for the most distinct mountains in the district" />
		<tag k="name" v="Krintofjellet" />
		<tag k="natural" v="hill" />
		<tag k="place" v="locality" />
		<tag k="ssr:stedsnr" v="2579" />
	</node>
	<node lat="59.487952773921705" lon="8.986333330265547" id="-24396">
		<tag k="name" v="Skrubbeliane" />
		<tag k="natural" v="slope" />
		<tag k="place" v="locality" />
		<tag k="ssr:stedsnr" v="2580" />
	</node>
	<node lat="59.490658334673455" lon="8.908780548469148" id="-24397">
		<tag k="alt_name" v="Holmetjørnresa" />
		<tag k="fixme" v="consider natural=peak for the most distinct mountains in the district" />
		<tag k="name" v="Holmetjønnresa" />
		<tag k="natural" v="hill" />
		<tag k="place" v="locality" />
		<tag k="ssr:stedsnr" v="2583" />
	</node>
	<node lat="59.501872225266375" lon="9.072441663014025" id="-24409">
		<tag k="alt_name" v="Bjørndalen" />
		<tag k="name" v="Bjønndalen" />
		<tag k="natural" v="valley" />
		<tag k="place" v="locality" />
		<tag k="ssr:stedsnr" v="3431" />
	</node>
	<node lat="59.49052778205047" lon="8.969727777483252" id="-24412">
		<tag k="name" v="Okslakvelven" />
		<tag k="natural" v="slope" />
		<tag k="place" v="locality" />
		<tag k="ssr:stedsnr" v="24925" />
	</node>
	<node lat="59.46143888675465" lon="8.950427774193889" id="-24414">
		<tag k="name" v="Tjyruhjellhaugen" />
		<tag k="natural" v="hill" />
		<tag k="place" v="locality" />
		<tag k="ssr:stedsnr" v="26106" />
	</node>
	<node lat="59.39244166729191" lon="9.034119446359023" id="-24417">
		<tag k="fixme" v="consider natural=peak for the most distinct mountains in the district" />
		<tag k="name" v="Eikjarudkollane" />
		<tag k="natural" v="hill" />
		<tag k="place" v="locality" />
		<tag k="ssr:stedsnr" v="26325" />
	</node>
	<node lat="59.36144722129827" lon="9.017411112354964" id="-24418">
		<tag k="name" v="Sveigen" />
		<tag k="natural" v="valley" />
		<tag k="place" v="locality" />
		<tag k="ssr:stedsnr" v="26427" />
	</node>
	<node lat="59.37788611530711" lon="8.996147218604932" id="-24421">
		<tag k="fixme" v="consider natural=peak for the most distinct mountains in the district" />
		<tag k="name" v="Damfjell" />
		<tag k="natural" v="hill" />
		<tag k="place" v="locality" />
		<tag k="ssr:stedsnr" v="26473" />
	</node>
	<node lat="59.397238886348866" lon="8.932963890828049" id="-24424">
		<tag k="name" v="Langemyrdalen" />
		<tag k="natural" v="valley" />
		<tag k="place" v="locality" />
		<tag k="ssr:stedsnr" v="28009" />
	</node>
	<node lat="59.379350001406415" lon="8.9301777826241" id="-24425">
		<tag k="name" v="Øverlandsholet" />
		<tag k="natural" v="valley" />
		<tag k="place" v="locality" />
		<tag k="ssr:stedsnr" v="28013" />
	</node>
	<node lat="59.457658335181" lon="8.968811109748003" id="-24427">
		<tag k="fixme" v="consider natural=peak for the most distinct mountains in the district" />
		<tag k="name" v="Storskottåsen" />
		<tag k="natural" v="hill" />
		<tag k="place" v="locality" />
		<tag k="ssr:stedsnr" v="28077" />
	</node>
	<node lat="59.47424444571827" lon="8.927636102731189" id="-24429">
		<tag k="name" v="Langetjønndalen" />
		<tag k="natural" v="valley" />
		<tag k="place" v="locality" />
		<tag k="ssr:stedsnr" v="28926" />
	</node>
	<node lat="59.457166668757324" lon="8.931372229427902" id="-24430">
		<tag k="fixme" v="consider natural=peak for the most distinct mountains in the district" />
		<tag k="name" v="Rinden" />
		<tag k="natural" v="hill" />
		<tag k="place" v="locality" />
		<tag k="ssr:stedsnr" v="28972" />
	</node>
	<node lat="59.45114999873324" lon="9.295647226713264" id="-24433">
		<tag k="name" v="Vierdalen" />
		<tag k="natural" v="valley" />
		<tag k="place" v="locality" />
		<tag k="ssr:stedsnr" v="43010" />
	</node>
	<node lat="59.3990472201722" lon="9.373883334126521" id="-24436">
		<tag k="name" v="Bjørndalen" />
		<tag k="natural" v="valley" />
		<tag k="place" v="locality" />
		<tag k="ssr:stedsnr" v="43176" />
	</node>
	<node lat="59.465724999747266" lon="9.36830832897439" id="-24437">
		<tag k="name" v="Gamlestul-liene" />
		<tag k="natural" v="slope" />
		<tag k="place" v="locality" />
		<tag k="ssr:stedsnr" v="43580" />
	</node>
	<node lat="59.35689722415213" lon="9.263152769196868" id="-24444">
		<tag k="name" v="Stange-kyrkja" />
		<tag k="place" v="locality" />
		<tag k="ssr:stedsnr" v="43808" />
	</node>
	<node lat="59.37126388622594" lon="9.274641658208793" id="-24445">
		<tag k="name" v="Gruve-liene" />
		<tag k="natural" v="slope" />
		<tag k="place" v="locality" />
		<tag k="ssr:stedsnr" v="43811" />
	</node>
	<node lat="59.46603888837855" lon="9.340588884077567" id="-24447">
		<tag k="name" v="Hønsekleiv" />
		<tag k="natural" v="slope" />
		<tag k="place" v="locality" />
		<tag k="ssr:stedsnr" v="43995" />
	</node>
	<node lat="59.36692778177803" lon="8.898622216675045" id="-24461">
		<tag k="name" v="Bråtådalen" />
		<tag k="natural" v="valley" />
		<tag k="place" v="locality" />
		<tag k="ssr:stedsnr" v="63305" />
	</node>
	<node lat="59.37370833712647" lon="8.917274995245457" id="-24462">
		<tag k="fixme" v="consider natural=peak for the most distinct mountains in the district" />
		<tag k="name" v="Elgsgrav" />
		<tag k="natural" v="hill" />
		<tag k="place" v="locality" />
		<tag k="ssr:stedsnr" v="63313" />
	</node>
	<node lat="59.47002777465676" lon="8.927947213930024" id="-24468">
		<tag k="fixme" v="consider natural=peak for the most distinct mountains in the district" />
		<tag k="name" v="Røytegjuvsåsane" />
		<tag k="natural" v="hill" />
		<tag k="place" v="locality" />
		<tag k="ssr:stedsnr" v="63601" />
	</node>
	<node lat="59.48055277729153" lon="9.156766664258384" id="-24470">
		<tag k="fixme" v="consider natural=peak for the most distinct mountains in the district" />
		<tag k="name" v="Middagshaugen" />
		<tag k="natural" v="hill" />
		<tag k="place" v="locality" />
		<tag k="ssr:stedsnr" v="63606" />
	</node>
	<node lat="59.48861110921925" lon="8.961383335947723" id="-24478">
		<tag k="fixme" v="consider natural=peak for the most distinct mountains in the district" />
		<tag k="name" v="Nybunuten" />
		<tag k="natural" v="hill" />
		<tag k="place" v="locality" />
		<tag k="ssr:stedsnr" v="63579" />
	</node>
	<node lat="59.50489167009879" lon="9.057530551144264" id="-24481">
		<tag k="fixme" v="consider natural=peak for the most distinct mountains in the district" />
		<tag k="name" v="Kåsåskardnabben" />
		<tag k="natural" v="hill" />
		<tag k="place" v="locality" />
		<tag k="ssr:stedsnr" v="64473" />
	</node>
	<node lat="59.36047499770638" lon="9.13471945146066" id="-24487">
		<tag k="fixme" v="consider natural=peak for the most distinct mountains in the district" />
		<tag k="name" v="Griseryggen" />
		<tag k="natural" v="hill" />
		<tag k="place" v="locality" />
		<tag k="ssr:stedsnr" v="245234" />
	</node>
	<node lat="59.405236112382624" lon="8.990580563821155" id="-24492">
		<tag k="fixme" v="consider natural=peak for the most distinct mountains in the district" />
		<tag k="name" v="Veslebruskor" />
		<tag k="natural" v="hill" />
		<tag k="place" v="locality" />
		<tag k="ssr:stedsnr" v="86007" />
	</node>
	<node lat="59.40499444547282" lon="8.998269450987166" id="-24493">
		<tag k="name" v="Svartsvea" />
		<tag k="natural" v="cliff" />
		<tag k="ssr:stedsnr" v="86008" />
	</node>
	<node lat="59.42902499641724" lon="9.120888892109626" id="-24497">
		<tag k="name" v="Tørrmo" />
		<tag k="place" v="locality" />
		<tag k="ssr:stedsnr" v="86300" />
	</node>
	<node lat="59.375136109020104" lon="8.990444451476904" id="-24498">
		<tag k="fixme" v="consider natural=peak for the most distinct mountains in the district" />
		<tag k="loc_name" v="Høgås" />
		<tag k="name" v="Gularåsen" />
		<tag k="natural" v="hill" />
		<tag k="place" v="locality" />
		<tag k="ssr:stedsnr" v="245320" />
	</node>
	<node lat="59.424322224819576" lon="9.05481111155777" id="-24507">
		<tag k="name" v="Hågåberga" />
		<tag k="natural" v="hill" />
		<tag k="place" v="locality" />
		<tag k="ssr:stedsnr" v="86582" />
	</node>
	<node lat="59.477155559326874" lon="9.07675833547305" id="-24510">
		<tag k="name" v="Lienjuva" />
		<tag k="natural" v="gorge" />
		<tag k="ssr:stedsnr" v="86475" />
	</node>
	<node lat="59.47002499756499" lon="9.151677780737812" id="-24514">
		<tag k="name" v="Buroppdalen" />
		<tag k="natural" v="valley" />
		<tag k="place" v="locality" />
		<tag k="ssr:stedsnr" v="86908" />
	</node>
	<node lat="59.40898055841627" lon="8.943874996340513" id="-24516">
		<tag k="name" v="Tveitanmoen" />
		<tag k="place" v="locality" />
		<tag k="ssr:stedsnr" v="87104" />
	</node>
	<node lat="59.51158332960658" lon="9.03748889180044" id="-24522">
		<tag k="name" v="Nedrekvelv" />
		<tag k="natural" v="valley" />
		<tag k="place" v="locality" />
		<tag k="ssr:stedsnr" v="87571" />
	</node>
	<node lat="59.51174166466891" lon="9.05261111164847" id="-24523">
		<tag k="name" v="Kroktjønnskaret" />
		<tag k="natural" v="valley" />
		<tag k="place" v="locality" />
		<tag k="ssr:stedsnr" v="87573" />
	</node>
	<node lat="59.349338887303574" lon="9.278036106607516" id="-24524">
		<tag k="fixme" v="consider natural=peak for the most distinct mountains in the district" />
		<tag k="name" v="Ottersnesfjellet" />
		<tag k="natural" v="hill" />
		<tag k="place" v="locality" />
		<tag k="ssr:stedsnr" v="245828" />
	</node>
	<node lat="59.36421666769294" lon="9.291441672341243" id="-24525">
		<tag k="fixme" v="consider natural=peak for the most distinct mountains in the district" />
		<tag k="name" v="Nysefjell" />
		<tag k="natural" v="hill" />
		<tag k="place" v="locality" />
		<tag k="ssr:stedsnr" v="245800" />
	</node>
	<node lat="59.42828055849082" lon="8.95407777770536" id="-24527">
		<tag k="name" v="Magretteshol" />
		<tag k="place" v="locality" />
		<tag k="ssr:stedsnr" v="88822" />
	</node>
	<node lat="59.42864721964013" lon="8.975191668647238" id="-24528">
		<tag k="name" v="Lauvli" />
		<tag k="natural" v="slope" />
		<tag k="place" v="locality" />
		<tag k="ssr:stedsnr" v="88824" />
	</node>
	<node lat="59.38536388901135" lon="8.934691672664007" id="-24529">
		<tag k="name" v="Tveitskorra" />
		<tag k="natural" v="cliff" />
		<tag k="ssr:stedsnr" v="89002" />
	</node>
	<node lat="59.387683329636445" lon="8.938336107192724" id="-24530">
		<tag k="fixme" v="consider natural=peak for the most distinct mountains in the district" />
		<tag k="name" v="Hidalsnuten" />
		<tag k="natural" v="hill" />
		<tag k="place" v="locality" />
		<tag k="ssr:stedsnr" v="89003" />
	</node>
	<node lat="59.39785277909375" lon="8.896216664471924" id="-24532">
		<tag k="name" v="Tollfuruåsen" />
		<tag k="natural" v="hill" />
		<tag k="place" v="locality" />
		<tag k="ssr:stedsnr" v="89021" />
	</node>
	<node lat="59.46148055929487" lon="8.993091664780016" id="-24535">
		<tag k="name" v="Nybujuvet" />
		<tag k="natural" v="gorge" />
		<tag k="ssr:stedsnr" v="89121" />
	</node>
	<node lat="59.43979444303584" lon="8.877141663936365" id="-24539">
		<tag k="name" v="Mastedalen" />
		<tag k="natural" v="valley" />
		<tag k="place" v="locality" />
		<tag k="ssr:stedsnr" v="89877" />
	</node>
	<node lat="59.46804166589794" lon="8.930377775899462" id="-24540">
		<tag k="name" v="Lauvli" />
		<tag k="natural" v="slope" />
		<tag k="place" v="locality" />
		<tag k="ssr:stedsnr" v="89894" />
	</node>
	<node lat="59.46019444252778" lon="8.921544451686685" id="-24541">
		<tag k="name" v="Huskarhaugane" />
		<tag k="natural" v="hill" />
		<tag k="place" v="locality" />
		<tag k="ssr:stedsnr" v="89974" />
	</node>
	<node lat="59.52292499768734" lon="9.068469436453663" id="-24544">
		<tag k="fixme" v="consider natural=peak for the most distinct mountains in the district" />
		<tag k="name" v="Røytebufjellet" />
		<tag k="natural" v="hill" />
		<tag k="place" v="locality" />
		<tag k="ssr:stedsnr" v="246447" />
	</node>
	<node lat="59.39027777623988" lon="9.299302773781772" id="-24546">
		<tag k="name" v="Skurvåsene" />
		<tag k="natural" v="hill" />
		<tag k="place" v="locality" />
		<tag k="ssr:stedsnr" v="103223" />
	</node>
	<node lat="59.44714166487856" lon="9.292597221576207" id="-24549">
		<tag k="name" v="Kringsåsliene" />
		<tag k="natural" v="slope" />
		<tag k="place" v="locality" />
		<tag k="ssr:stedsnr" v="104026" />
	</node>
	<node lat="59.441994448215446" lon="9.27987222712374" id="-24551">
		<tag k="name" v="Langeskår" />
		<tag k="natural" v="valley" />
		<tag k="place" v="locality" />
		<tag k="ssr:stedsnr" v="104187" />
	</node>
	<node lat="59.43339444126277" lon="9.172366672012163" id="-24557">
		<tag k="name" v="Tveitbrekkene" />
		<tag k="natural" v="slope" />
		<tag k="place" v="locality" />
		<tag k="ssr:stedsnr" v="104578" />
	</node>
	<node lat="59.4207694453349" lon="9.357355557381016" id="-24559">
		<tag k="name" v="Nordvårstulhaugene" />
		<tag k="natural" v="hill" />
		<tag k="place" v="locality" />
		<tag k="ssr:stedsnr" v="104680" />
	</node>
	<node lat="59.44804722327157" lon="9.348155550619813" id="-24560">
		<tag k="fixme" v="consider natural=peak for the most distinct mountains in the district" />
		<tag k="name" v="Lauvåsen" />
		<tag k="natural" v="hill" />
		<tag k="place" v="locality" />
		<tag k="ssr:stedsnr" v="104686" />
	</node>
	<node lat="59.43238333473362" lon="9.343130562091908" id="-24564">
		<tag k="name" v="Kvennhuskåsa" />
		<tag k="natural" v="slope" />
		<tag k="place" v="locality" />
		<tag k="ssr:stedsnr" v="104923" />
	</node>
	<node lat="59.43485000173308" lon="8.944080554189272" id="-24571">
		<tag k="fixme" v="consider natural=peak for the most distinct mountains in the district" />
		<tag k="name" v="Blåfjell" />
		<tag k="natural" v="hill" />
		<tag k="place" v="locality" />
		<tag k="ssr:stedsnr" v="123507" />
	</node>
	<node lat="59.42971389301213" lon="8.869383328771349" id="-24573">
		<tag k="fixme" v="consider natural=peak for the most distinct mountains in the district" />
		<tag k="name" v="Hagadragnuten" />
		<tag k="natural" v="hill" />
		<tag k="place" v="locality" />
		<tag k="ssr:stedsnr" v="123513" />
	</node>
	<node lat="59.481358330575254" lon="8.98501389131082" id="-24578">
		<tag k="name" v="Anebudalen" />
		<tag k="natural" v="valley" />
		<tag k="place" v="locality" />
		<tag k="ssr:stedsnr" v="123610" />
	</node>
	<node lat="59.369025002172265" lon="9.336408338936456" id="-24582">
		<tag k="alt_name" v="Svarttjørnddalen" />
		<tag k="name" v="Svarttjønndalen" />
		<tag k="natural" v="valley" />
		<tag k="place" v="locality" />
		<tag k="ssr:stedsnr" v="123819" />
	</node>
	<node lat="59.45014999698855" lon="9.02857500464877" id="-24588">
		<tag k="name" v="Veslejuv" />
		<tag k="natural" v="gorge" />
		<tag k="ssr:stedsnr" v="146026" />
	</node>
	<node lat="59.393855559863724" lon="9.024027783455274" id="-24596">
		<tag k="name" v="Lauvbudalen" />
		<tag k="natural" v="valley" />
		<tag k="place" v="locality" />
		<tag k="ssr:stedsnr" v="147323" />
	</node>
	<node lat="59.40423889020986" lon="9.041458333228078" id="-24599">
		<tag k="name" v="Niståsberga" />
		<tag k="natural" v="hill" />
		<tag k="place" v="locality" />
		<tag k="ssr:stedsnr" v="147265" />
	</node>
	<node lat="59.45207222565148" lon="9.068299991641842" id="-24600">
		<tag k="name" v="Dansarberga" />
		<tag k="natural" v="hill" />
		<tag k="place" v="locality" />
		<tag k="ssr:stedsnr" v="147268" />
	</node>
	<node lat="59.44914444177139" lon="9.144119443704643" id="-24604">
		<tag k="name" v="Gampestilla" />
		<tag k="place" v="locality" />
		<tag k="ssr:stedsnr" v="147913" />
	</node>
	<node lat="59.49054999992621" lon="9.01177500662019" id="-24605">
		<tag k="name" v="Fjellstuldalen" />
		<tag k="natural" v="valley" />
		<tag k="place" v="locality" />
		<tag k="ssr:stedsnr" v="148569" />
	</node>
	<node lat="59.3871027779782" lon="8.935755555441085" id="-24606">
		<tag k="name" v="Stannardalen" />
		<tag k="natural" v="valley" />
		<tag k="place" v="locality" />
		<tag k="ssr:stedsnr" v="149003" />
	</node>
	<node lat="59.45329444437162" lon="8.989119447760878" id="-24608">
		<tag k="name" v="Bjønnebråtåen" />
		<tag k="natural" v="slope" />
		<tag k="place" v="locality" />
		<tag k="ssr:stedsnr" v="149061" />
	</node>
	<node lat="59.429844440551754" lon="8.899480561616878" id="-24611">
		<tag k="fixme" v="consider natural=peak for the most distinct mountains in the district" />
		<tag k="name" v="Anundsås" />
		<tag k="natural" v="hill" />
		<tag k="place" v="locality" />
		<tag k="ssr:stedsnr" v="149819" />
	</node>
	<node lat="59.43133055502044" lon="8.933916670877938" id="-24612">
		<tag k="name" v="Gråndalen" />
		<tag k="natural" v="valley" />
		<tag k="place" v="locality" />
		<tag k="ssr:stedsnr" v="149821" />
	</node>
	<node lat="59.44181666470341" lon="8.937452769452385" id="-24613">
		<tag k="name" v="Tjønnstauldalen" />
		<tag k="natural" v="valley" />
		<tag k="place" v="locality" />
		<tag k="ssr:stedsnr" v="149822" />
	</node>
	<node lat="59.34801666815253" lon="9.19221389493483" id="-24628">
		<tag k="fixme" v="consider natural=peak for the most distinct mountains in the district" />
		<tag k="name" v="Liåsen" />
		<tag k="natural" v="hill" />
		<tag k="place" v="locality" />
		<tag k="ssr:stedsnr" v="165099" />
	</node>
	<node lat="59.32241111029219" lon="9.211472222094226" id="-24640">
		<tag k="fixme" v="consider natural=peak for the most distinct mountains in the district" />
		<tag k="name" v="Stangefjell" />
		<tag k="natural" v="hill" />
		<tag k="place" v="locality" />
		<tag k="ssr:stedsnr" v="184210" />
	</node>
	<node lat="59.44696111085922" lon="9.077611107396814" id="-24643">
		<tag k="alt_name" v="Harpetjørndalen" />
		<tag k="name" v="Harpetjønndalen" />
		<tag k="natural" v="valley" />
		<tag k="place" v="locality" />
		<tag k="ssr:stedsnr" v="184463" />
	</node>
	<node lat="59.37549444575527" lon="9.28952500117907" id="-24645">
		<tag k="fixme" v="consider natural=peak for the most distinct mountains in the district" />
		<tag k="name" v="Haukvikfjellet" />
		<tag k="natural" v="hill" />
		<tag k="place" v="locality" />
		<tag k="ssr:stedsnr" v="184796" />
	</node>
	<node lat="59.420769447404396" lon="8.957933336233317" id="-24653">
		<tag k="name" v="Kolbottskora" />
		<tag k="natural" v="slope" />
		<tag k="place" v="locality" />
		<tag k="ssr:stedsnr" v="268053" />
	</node>
	<node lat="59.50668055162748" lon="9.081916659634757" id="-24659">
		<tag k="name" v="Stulsdalen" />
		<tag k="natural" v="valley" />
		<tag k="place" v="locality" />
		<tag k="ssr:stedsnr" v="268554" />
	</node>
	<node lat="59.5244333345157" lon="9.073888884848564" id="-24667">
		<tag k="fixme" v="consider natural=peak for the most distinct mountains in the district" />
		<tag k="name" v="Ljoslinuten" />
		<tag k="natural" v="hill" />
		<tag k="place" v="locality" />
		<tag k="ssr:stedsnr" v="268739" />
	</node>
	<node lat="59.5123722238113" lon="9.143394449120924" id="-24668">
		<tag k="name" v="Vatnarstuldalen" />
		<tag k="natural" v="valley" />
		<tag k="place" v="locality" />
		<tag k="ssr:stedsnr" v="268767" />
	</node>
	<node lat="59.504377774262736" lon="9.068783340070679" id="-24669">
		<tag k="fixme" v="consider natural=peak for the most distinct mountains in the district" />
		<tag k="name" v="Hjuringfjell" />
		<tag k="natural" v="hill" />
		<tag k="place" v="locality" />
		<tag k="ssr:stedsnr" v="207538" />
	</node>
	<node lat="59.46675555291537" lon="9.144247222366749" id="-24672">
		<tag k="name" v="Løkelia" />
		<tag k="natural" v="slope" />
		<tag k="place" v="locality" />
		<tag k="ssr:stedsnr" v="268911" />
	</node>
	<node lat="59.39762777877608" lon="9.04386666298274" id="-24677">
		<tag k="fixme" v="consider natural=peak for the most distinct mountains in the district" />
		<tag k="name" v="Kåsaåsen" />
		<tag k="natural" v="hill" />
		<tag k="place" v="locality" />
		<tag k="ssr:stedsnr" v="208303" />
	</node>
	<node lat="59.420874996280666" lon="8.949955548768198" id="-24678">
		<tag k="name" v="Høge Livskor" />
		<tag k="place" v="locality" />
		<tag k="ssr:stedsnr" v="269044" />
	</node>
	<node lat="59.39793889133209" lon="9.035649994302979" id="-24679">
		<tag k="name" v="Tandredalen" />
		<tag k="natural" v="valley" />
		<tag k="place" v="locality" />
		<tag k="ssr:stedsnr" v="208295" />
	</node>
	<node lat="59.492591665114404" lon="9.142477768992967" id="-24682">
		<tag k="name" v="Myrjordsbråtene" />
		<tag k="natural" v="hill" />
		<tag k="place" v="locality" />
		<tag k="ssr:stedsnr" v="208582" />
	</node>
	<node lat="59.53187499677849" lon="9.008947225560888" id="-24683">
		<tag k="name" v="Tyristulskaret" />
		<tag k="natural" v="valley" />
		<tag k="place" v="locality" />
		<tag k="ssr:stedsnr" v="208583" />
	</node>
	<node lat="59.41209444668928" lon="8.888063882520509" id="-24686">
		<tag k="fixme" v="consider natural=peak for the most distinct mountains in the district" />
		<tag k="name" v="Storås" />
		<tag k="natural" v="hill" />
		<tag k="place" v="locality" />
		<tag k="ssr:stedsnr" v="269152" />
	</node>
	<node lat="59.38501666362907" lon="8.943008328403458" id="-24687">
		<tag k="name" v="Storekreåsen" />
		<tag k="natural" v="hill" />
		<tag k="place" v="locality" />
		<tag k="ssr:stedsnr" v="210275" />
	</node>
	<node lat="59.46682777867597" lon="9.125127777065355" id="-24691">
		<tag k="name" v="Hegnafjellet" />
		<tag k="place" v="locality" />
		<tag k="ssr:stedsnr" v="210918" />
	</node>
	<node lat="59.51960277777967" lon="9.02204445300516" id="-24693">
		<tag k="name" v="Haukelia" />
		<tag k="natural" v="slope" />
		<tag k="place" v="locality" />
		<tag k="ssr:stedsnr" v="269639" />
	</node>
	<node lat="59.35171666495713" lon="8.881408325797183" id="-24702">
		<tag k="fixme" v="consider natural=peak for the most distinct mountains in the district" />
		<tag k="name" v="Deildenuten" />
		<tag k="natural" v="hill" />
		<tag k="place" v="locality" />
		<tag k="ssr:stedsnr" v="219190" />
	</node>
	<node lat="59.3762055510925" lon="8.908699996991718" id="-24704">
		<tag k="fixme" v="consider natural=peak for the most distinct mountains in the district" />
		<tag k="name" v="Vesle Elgsgrav" />
		<tag k="natural" v="hill" />
		<tag k="place" v="locality" />
		<tag k="ssr:stedsnr" v="271049" />
	</node>
	<node lat="59.36533055920355" lon="9.299530557463932" id="-24709">
		<tag k="name" v="Ulevassdalen" />
		<tag k="natural" v="valley" />
		<tag k="place" v="locality" />
		<tag k="ssr:stedsnr" v="225292" />
	</node>
	<node lat="59.40893888768609" lon="9.241002786397193" id="-24710">
		<tag k="name" v="Lauvdalen" />
		<tag k="natural" v="valley" />
		<tag k="place" v="locality" />
		<tag k="ssr:stedsnr" v="225536" />
	</node>
	<node lat="59.357430559097416" lon="9.280011112592556" id="-24714">
		<tag k="name" v="Ingridskleiv" />
		<tag k="natural" v="cliff" />
		<tag k="ssr:stedsnr" v="225796" />
	</node>
	<node lat="59.43080000390701" lon="9.312161103325938" id="-24719">
		<tag k="name" v="Miledalen" />
		<tag k="natural" v="valley" />
		<tag k="place" v="locality" />
		<tag k="ssr:stedsnr" v="226637" />
	</node>
	<node lat="59.47480555355434" lon="9.000474996489586" id="-24727">
		<tag k="name" v="Nutestuldalen" />
		<tag k="natural" v="valley" />
		<tag k="place" v="locality" />
		<tag k="ssr:stedsnr" v="271743" />
	</node>
	<node lat="59.432924999707524" lon="8.921341661232647" id="-24728">
		<tag k="name" v="Skrubbeholet" />
		<tag k="natural" v="valley" />
		<tag k="place" v="locality" />
		<tag k="ssr:stedsnr" v="271852" />
	</node>
	<node lat="59.466219442228876" lon="8.914719448043922" id="-24729">
		<tag k="name" v="Skartjønnjuvet" />
		<tag k="natural" v="gorge" />
		<tag k="ssr:stedsnr" v="271921" />
	</node>
	<node lat="59.434188892316904" lon="9.014986104025454" id="-24738">
		<tag k="name" v="Breskelia" />
		<tag k="natural" v="slope" />
		<tag k="place" v="locality" />
		<tag k="ssr:stedsnr" v="450540" />
	</node>
	<node lat="59.51127499963966" lon="9.110358335876418" id="-24739">
		<tag k="name" v="Slåttadalen" />
		<tag k="natural" v="valley" />
		<tag k="place" v="locality" />
		<tag k="ssr:stedsnr" v="450738" />
	</node>
	<node lat="59.525555551982436" lon="9.089000006791126" id="-24742">
		<tag k="name" v="Nystulliane" />
		<tag k="natural" v="slope" />
		<tag k="place" v="locality" />
		<tag k="ssr:stedsnr" v="450750" />
	</node>
	<node lat="59.52673333026383" lon="9.121627771622526" id="-24743">
		<tag k="fixme" v="consider natural=peak for the most distinct mountains in the district" />
		<tag k="name" v="Løyteåsen" />
		<tag k="natural" v="hill" />
		<tag k="place" v="locality" />
		<tag k="ssr:stedsnr" v="450758" />
	</node>
	<node lat="59.4169305575039" lon="8.881724999948176" id="-24747">
		<tag k="name" v="Geiteskaret" />
		<tag k="natural" v="valley" />
		<tag k="place" v="locality" />
		<tag k="ssr:stedsnr" v="451177" />
	</node>
	<node lat="59.508438887317666" lon="9.041702774431439" id="-24752">
		<tag k="name" v="Skrubbedalen" />
		<tag k="natural" v="valley" />
		<tag k="place" v="locality" />
		<tag k="ssr:stedsnr" v="451587" />
	</node>
	<node lat="59.50862500441425" lon="9.054738895791688" id="-24753">
		<tag k="fixme" v="consider natural=peak for the most distinct mountains in the district" />
		<tag k="name" v="Sleivelinuten" />
		<tag k="natural" v="hill" />
		<tag k="place" v="locality" />
		<tag k="ssr:stedsnr" v="451590" />
	</node>
	<node lat="59.51989166925154" lon="9.025741667340167" id="-24757">
		<tag k="fixme" v="consider natural=peak for the most distinct mountains in the district" />
		<tag k="name" v="Haukelinuten" />
		<tag k="natural" v="hill" />
		<tag k="place" v="locality" />
		<tag k="ssr:stedsnr" v="451631" />
	</node>
	<node lat="59.46056667108885" lon="9.025013883161636" id="-24758">
		<tag k="name" v="Halvfarshaug" />
		<tag k="natural" v="hill" />
		<tag k="place" v="locality" />
		<tag k="ssr:stedsnr" v="452042" />
	</node>
	<node lat="59.411280555868345" lon="8.863555552255688" id="-24766">
		<tag k="fixme" v="consider natural=peak for the most distinct mountains in the district" />
		<tag k="name" v="Kleivnuten" />
		<tag k="natural" v="hill" />
		<tag k="place" v="locality" />
		<tag k="ssr:stedsnr" v="245369" />
	</node>
	<node lat="59.49322222160666" lon="8.969350007028748" id="-24770">
		<tag k="fixme" v="consider natural=peak for the most distinct mountains in the district" />
		<tag k="name" v="Okslanuten" />
		<tag k="natural" v="hill" />
		<tag k="place" v="locality" />
		<tag k="ssr:stedsnr" v="245565" />
	</node>
	<node lat="59.49735277479666" lon="8.954891674808353" id="-24771">
		<tag k="name" v="Oksladalen" />
		<tag k="natural" v="valley" />
		<tag k="place" v="locality" />
		<tag k="ssr:stedsnr" v="245566" />
	</node>
	<node lat="59.397502779952504" lon="9.327363882063414" id="-24776">
		<tag k="alt_name" v="Smedsvål-åsen" />
		<tag k="fixme" v="consider natural=peak for the most distinct mountains in the district" />
		<tag k="name" v="Smedsvalåsen" />
		<tag k="natural" v="hill" />
		<tag k="place" v="locality" />
		<tag k="ssr:stedsnr" v="245892" />
	</node>
	<node lat="59.46805833519756" lon="8.978302776572361" id="-24783">
		<tag k="name" v="Vihusjuvet" />
		<tag k="natural" v="gorge" />
		<tag k="ssr:stedsnr" v="452700" />
	</node>
	<node lat="59.44693611286025" lon="8.959830558594922" id="-24787">
		<tag k="name" v="Lauvkross" />
		<tag k="natural" v="slope" />
		<tag k="place" v="locality" />
		<tag k="ssr:stedsnr" v="453080" />
	</node>
	<node lat="59.450205551335735" lon="8.995533341097145" id="-24788">
		<tag k="name" v="Skaret" />
		<tag k="natural" v="valley" />
		<tag k="place" v="locality" />
		<tag k="ssr:stedsnr" v="453085" />
	</node>
	<node lat="59.38285277892316" lon="8.896677772545655" id="-24790">
		<tag k="name" v="Ramsåsdalen" />
		<tag k="natural" v="valley" />
		<tag k="place" v="locality" />
		<tag k="ssr:stedsnr" v="453026" />
	</node>
	<node lat="59.459777780607226" lon="8.976905547926405" id="-24791">
		<tag k="name" v="Saulia" />
		<tag k="natural" v="slope" />
		<tag k="place" v="locality" />
		<tag k="ssr:stedsnr" v="453093" />
	</node>
	<node lat="59.483000003962765" lon="9.008213888113374" id="-24792">
		<tag k="name" v="Bøkstulliane" />
		<tag k="natural" v="slope" />
		<tag k="place" v="locality" />
		<tag k="ssr:stedsnr" v="453429" />
	</node>
	<node lat="59.47998888671341" lon="9.011191673492796" id="-24793">
		<tag k="name" v="Jønnbuflotine" />
		<tag k="place" v="locality" />
		<tag k="ssr:stedsnr" v="453430" />
	</node>
	<node lat="59.47593333687849" lon="8.94684166471575" id="-24794">
		<tag k="name" v="Standaren" />
		<tag k="natural" v="hill" />
		<tag k="place" v="locality" />
		<tag k="ssr:stedsnr" v="453899" />
	</node>
	<node lat="59.45400833328712" lon="8.94346389376904" id="-24798">
		<tag k="name" v="Dyrdalsbråta" />
		<tag k="place" v="locality" />
		<tag k="ssr:stedsnr" v="453945" />
	</node>
	<node lat="59.45685833364686" lon="8.936069447183236" id="-24800">
		<tag k="name" v="Rindeskaret" />
		<tag k="natural" v="valley" />
		<tag k="place" v="locality" />
		<tag k="ssr:stedsnr" v="453959" />
	</node>
	<node lat="59.480038888241126" lon="8.920402778259286" id="-24801">
		<tag k="fixme" v="consider natural=peak for the most distinct mountains in the district" />
		<tag k="name" v="Repetjønnuten" />
		<tag k="natural" v="hill" />
		<tag k="place" v="locality" />
		<tag k="ssr:stedsnr" v="453999" />
	</node>
	<node lat="59.42099444137897" lon="8.963608339298906" id="-24806">
		<tag k="fixme" v="consider natural=peak for the most distinct mountains in the district" />
		<tag k="name" v="Steingardsnuten" />
		<tag k="natural" v="hill" />
		<tag k="place" v="locality" />
		<tag k="ssr:stedsnr" v="268088" />
	</node>
	<node lat="59.49587499958906" lon="9.150794443485578" id="-24812">
		<tag k="name" v="Belatjønnliane" />
		<tag k="natural" v="slope" />
		<tag k="place" v="locality" />
		<tag k="ssr:stedsnr" v="268577" />
	</node>
	<node lat="59.49629722582701" lon="9.13823333409654" id="-24814">
		<tag k="name" v="Rotveltsdalen" />
		<tag k="natural" v="valley" />
		<tag k="place" v="locality" />
		<tag k="ssr:stedsnr" v="268580" />
	</node>
	<node lat="59.39048055155932" lon="9.01699445112023" id="-24820">
		<tag k="name" v="Hasledalsfjellet" />
		<tag k="place" v="locality" />
		<tag k="ssr:stedsnr" v="269330" />
	</node>
	<node lat="59.439230556371186" lon="9.037850002515352" id="-24821">
		<tag k="fixme" v="consider natural=peak for the most distinct mountains in the district" />
		<tag k="name" v="Hegnaåsen" />
		<tag k="natural" v="hill" />
		<tag k="place" v="locality" />
		<tag k="ssr:stedsnr" v="269623" />
	</node>
	<node lat="59.4336499999378" lon="9.051436118151688" id="-24823">
		<tag k="name" v="Haugesagmoen" />
		<tag k="place" v="locality" />
		<tag k="ssr:stedsnr" v="269572" />
	</node>
	<node lat="59.3864166659134" lon="8.945088881648466" id="-24824">
		<tag k="name" v="Brendås" />
		<tag k="natural" v="hill" />
		<tag k="place" v="locality" />
		<tag k="ssr:stedsnr" v="271280" />
	</node>
	<node lat="59.50391111230485" lon="9.042338887751798" id="-24825">
		<tag k="name" v="Eintresletta" />
		<tag k="place" v="locality" />
		<tag k="ssr:stedsnr" v="271582" />
	</node>
	<node lat="59.35928333259115" lon="9.133538881433944" id="-24831">
		<tag k="fixme" v="consider natural=peak for the most distinct mountains in the district" />
		<tag k="name" v="Slettefjell" />
		<tag k="natural" v="hill" />
		<tag k="place" v="locality" />
		<tag k="ssr:stedsnr" v="286179" />
	</node>
	<node lat="59.41421944828374" lon="9.224355557167444" id="-24835">
		<tag k="fixme" v="consider natural=peak for the most distinct mountains in the district" />
		<tag k="name" v="Damtjønn-åsen" />
		<tag k="natural" v="hill" />
		<tag k="place" v="locality" />
		<tag k="ssr:stedsnr" v="286431" />
	</node>
	<node lat="59.4370416688496" lon="9.301666667292837" id="-24841">
		<tag k="name" v="Bærbakken" />
		<tag k="natural" v="slope" />
		<tag k="place" v="locality" />
		<tag k="ssr:stedsnr" v="286524" />
	</node>
	<node lat="59.4210888908742" lon="9.374452772668556" id="-24844">
		<tag k="name" v="Griseliholet" />
		<tag k="natural" v="valley" />
		<tag k="place" v="locality" />
		<tag k="ssr:stedsnr" v="286706" />
	</node>
	<node lat="59.36042222109268" lon="8.941955557508116" id="-24852">
		<tag k="alt_name" v="Bjørnhuskkollen" />
		<tag k="name" v="Bjønnhuskollen" />
		<tag k="natural" v="hill" />
		<tag k="place" v="locality" />
		<tag k="ssr:stedsnr" v="305319" />
	</node>
	<node lat="59.45866389271688" lon="9.207686109518859" id="-24853">
		<tag k="alt_name" v="Knipeåsene" />
		<tag k="fixme" v="consider natural=peak for the most distinct mountains in the district" />
		<tag k="name" v="Knivåsen" />
		<tag k="natural" v="hill" />
		<tag k="place" v="locality" />
		<tag k="ssr:stedsnr" v="305524" />
	</node>
	<node lat="59.428811112534525" lon="9.180147220971403" id="-24857">
		<tag k="name" v="Brattliene" />
		<tag k="natural" v="slope" />
		<tag k="place" v="locality" />
		<tag k="ssr:stedsnr" v="305432" />
	</node>
	<node lat="59.44495555140311" lon="9.276280558364155" id="-24861">
		<tag k="fixme" v="consider natural=peak for the most distinct mountains in the district" />
		<tag k="name" v="Kringsås" />
		<tag k="natural" v="hill" />
		<tag k="place" v="locality" />
		<tag k="ssr:stedsnr" v="306008" />
	</node>
	<node lat="59.41835555884537" lon="9.389524994621631" id="-24863">
		<tag k="fixme" v="consider natural=peak for the most distinct mountains in the district" />
		<tag k="name" v="Narefjell" />
		<tag k="natural" v="hill" />
		<tag k="place" v="locality" />
		<tag k="ssr:stedsnr" v="305967" />
	</node>
	<node lat="59.42325833463168" lon="9.236063887995149" id="-24864">
		<tag k="fixme" v="consider natural=peak for the most distinct mountains in the district" />
		<tag k="name" v="Tåpålifjellet" />
		<tag k="natural" v="hill" />
		<tag k="old_name" v="Tapålifjellet" />
		<tag k="place" v="locality" />
		<tag k="ssr:stedsnr" v="305977" />
	</node>
	<node lat="59.42658610666824" lon="8.855897227299856" id="-24865">
		<tag k="fixme" v="consider natural=peak for the most distinct mountains in the district" />
		<tag k="name" v="Gamlenut" />
		<tag k="natural" v="hill" />
		<tag k="place" v="locality" />
		<tag k="ssr:stedsnr" v="306402" />
	</node>
	<node lat="59.422327781991676" lon="9.09316665938444" id="-24867">
		<tag k="fixme" v="consider natural=peak for the most distinct mountains in the district" />
		<tag k="name" v="Gvålaåsen" />
		<tag k="natural" v="hill" />
		<tag k="place" v="locality" />
		<tag k="ssr:stedsnr" v="306413" />
	</node>
	<node lat="59.42132222198331" lon="8.93951667229815" id="-24869">
		<tag k="fixme" v="consider natural=peak for the most distinct mountains in the district" />
		<tag k="name" v="Eriksteinfjellet" />
		<tag k="natural" v="hill" />
		<tag k="place" v="locality" />
		<tag k="ssr:stedsnr" v="306418" />
	</node>
	<node lat="59.356863887928945" lon="9.33246111400895" id="-24872">
		<tag k="fixme" v="consider natural=peak for the most distinct mountains in the district" />
		<tag k="name" v="Svartefjell" />
		<tag k="natural" v="hill" />
		<tag k="place" v="locality" />
		<tag k="ssr:stedsnr" v="306826" />
	</node>
	<node lat="59.411833331518494" lon="9.38991110452473" id="-24874">
		<tag k="fixme" v="consider natural=peak for the most distinct mountains in the district" />
		<tag k="name" v="Lysthusnatten" />
		<tag k="natural" v="hill" />
		<tag k="place" v="locality" />
		<tag k="ssr:stedsnr" v="467200" />
	</node>
	<node lat="59.38481389179933" lon="9.300386104418735" id="-24875">
		<tag k="name" v="Holtslia" />
		<tag k="natural" v="slope" />
		<tag k="place" v="locality" />
		<tag k="ssr:stedsnr" v="467231" />
	</node>
	<node lat="59.48840555863081" lon="9.240783337538842" id="-24885">
		<tag k="name" v="Langrenna" />
		<tag k="natural" v="valley" />
		<tag k="place" v="locality" />
		<tag k="ssr:stedsnr" v="468050" />
	</node>
	<node lat="59.439286110422515" lon="9.254036107666606" id="-24898">
		<tag k="name" v="Bekkedalen" />
		<tag k="natural" v="valley" />
		<tag k="place" v="locality" />
		<tag k="ssr:stedsnr" v="468290" />
	</node>
	<node lat="59.415541663800624" lon="9.370769438732552" id="-24900">
		<tag k="name" v="Skinnfellmoen" />
		<tag k="place" v="locality" />
		<tag k="ssr:stedsnr" v="468304" />
	</node>
	<node lat="59.440705551213036" lon="9.338094448798325" id="-24904">
		<tag k="fixme" v="consider natural=peak for the most distinct mountains in the district" />
		<tag k="name" v="Haugedalsåsen" />
		<tag k="natural" v="hill" />
		<tag k="place" v="locality" />
		<tag k="ssr:stedsnr" v="468600" />
	</node>
	<node lat="59.41228055108325" lon="9.263930561768484" id="-24906">
		<tag k="name" v="Fentehaugen" />
		<tag k="natural" v="hill" />
		<tag k="place" v="locality" />
		<tag k="ssr:stedsnr" v="468459" />
	</node>
	<node lat="59.431475002560234" lon="9.353008328684494" id="-24908">
		<tag k="name" v="Steindalen" />
		<tag k="natural" v="valley" />
		<tag k="place" v="locality" />
		<tag k="ssr:stedsnr" v="468650" />
	</node>
	<node lat="59.463041662292504" lon="9.309302785125087" id="-24913">
		<tag k="fixme" v="consider natural=peak for the most distinct mountains in the district" />
		<tag k="name" v="Helsåsen" />
		<tag k="natural" v="hill" />
		<tag k="place" v="locality" />
		<tag k="ssr:stedsnr" v="468999" />
	</node>
	<node lat="59.393988888373606" lon="9.232216661003084" id="-24914">
		<tag k="name" v="Trengen" />
		<tag k="natural" v="valley" />
		<tag k="place" v="locality" />
		<tag k="ssr:stedsnr" v="469687" />
	</node>
	<node lat="59.470675004095675" lon="9.172227784717851" id="-24918">
		<tag k="name" v="Kirsdalsliane" />
		<tag k="natural" v="slope" />
		<tag k="place" v="locality" />
		<tag k="ssr:stedsnr" v="328904" />
	</node>
	<node lat="59.46003055949324" lon="8.953983337351767" id="-24919">
		<tag k="name" v="Kringlåsjuvet" />
		<tag k="natural" v="valley" />
		<tag k="place" v="locality" />
		<tag k="ssr:stedsnr" v="329117" />
	</node>
	<node lat="59.50343888610026" lon="9.090166665171388" id="-24927">
		<tag k="name" v="Jørgedalsliane" />
		<tag k="natural" v="slope" />
		<tag k="place" v="locality" />
		<tag k="ssr:stedsnr" v="329554" />
	</node>
	<node lat="59.51615555967069" lon="9.065363887154906" id="-24929">
		<tag k="name" v="Kleivstuldalen" />
		<tag k="natural" v="valley" />
		<tag k="place" v="locality" />
		<tag k="ssr:stedsnr" v="329713" />
	</node>
	<node lat="59.40118610938838" lon="8.971388897207545" id="-24932">
		<tag k="name" v="Vinterdalen" />
		<tag k="natural" v="valley" />
		<tag k="place" v="locality" />
		<tag k="ssr:stedsnr" v="330007" />
	</node>
	<node lat="59.51259721812143" lon="9.032122224123576" id="-24938">
		<tag k="name" v="Geiteryggen" />
		<tag k="natural" v="ridge" />
		<tag k="place" v="locality" />
		<tag k="ssr:stedsnr" v="330615" />
	</node>
	<node lat="59.38400278063498" lon="9.008380548598975" id="-24939">
		<tag k="fixme" v="consider natural=peak for the most distinct mountains in the district" />
		<tag k="name" v="Bjønnfellåsen" />
		<tag k="natural" v="hill" />
		<tag k="place" v="locality" />
		<tag k="ssr:stedsnr" v="330355" />
	</node>
	<node lat="59.47839166857627" lon="9.113502778967419" id="-24940">
		<tag k="name" v="Lonstuldalen" />
		<tag k="natural" v="valley" />
		<tag k="place" v="locality" />
		<tag k="ssr:stedsnr" v="330511" />
	</node>
	<node lat="59.47101666731392" lon="8.952758340505769" id="-24942">
		<tag k="name" v="Kolhuslia" />
		<tag k="natural" v="slope" />
		<tag k="place" v="locality" />
		<tag k="ssr:stedsnr" v="331303" />
	</node>
	<node lat="59.46201944783939" lon="8.981583330905352" id="-24943">
		<tag k="name" v="Tverrdalen" />
		<tag k="natural" v="valley" />
		<tag k="place" v="locality" />
		<tag k="ssr:stedsnr" v="331072" />
	</node>
	<node lat="59.46945555242629" lon="8.954513897704905" id="-24944">
		<tag k="name" v="Ormåsen" />
		<tag k="natural" v="hill" />
		<tag k="place" v="locality" />
		<tag k="ssr:stedsnr" v="331298" />
	</node>
	<node lat="59.48016111042731" lon="9.017916661072325" id="-24945">
		<tag k="name" v="Kikkutrustin" />
		<tag k="natural" v="slope" />
		<tag k="place" v="locality" />
		<tag k="ssr:stedsnr" v="331410" />
	</node>
	<node lat="59.506344447601776" lon="9.04770278220639" id="-24946">
		<tag k="name" v="Årmotliane" />
		<tag k="natural" v="slope" />
		<tag k="place" v="locality" />
		<tag k="ssr:stedsnr" v="331510" />
	</node>
	<node lat="59.48083889133667" lon="9.16618055737265" id="-24948">
		<tag k="name" v="Skrubbelia" />
		<tag k="natural" v="slope" />
		<tag k="place" v="locality" />
		<tag k="ssr:stedsnr" v="331910" />
	</node>
	<node lat="59.467336111598236" lon="9.119669445558703" id="-24949">
		<tag k="fixme" v="consider natural=peak for the most distinct mountains in the district" />
		<tag k="name" v="Svarvaråsen" />
		<tag k="natural" v="hill" />
		<tag k="place" v="locality" />
		<tag k="ssr:stedsnr" v="331924" />
	</node>
	<node lat="59.43811944858234" lon="8.875972221640417" id="-24950">
		<tag k="fixme" v="consider natural=peak for the most distinct mountains in the district" />
		<tag k="name" v="Bergeåsen" />
		<tag k="natural" v="hill" />
		<tag k="place" v="locality" />
		<tag k="ssr:stedsnr" v="331900" />
	</node>
	<node lat="59.42471388860918" lon="9.231413884798547" id="-24952">
		<tag k="name" v="Damtjønndalen" />
		<tag k="natural" v="valley" />
		<tag k="place" v="locality" />
		<tag k="ssr:stedsnr" v="346313" />
	</node>
	<node lat="59.42357221891404" lon="9.208747218434988" id="-24959">
		<tag k="name" v="Ulvestupet" />
		<tag k="natural" v="cliff" />
		<tag k="ssr:stedsnr" v="346476" />
	</node>
	<node lat="59.43522500374404" lon="9.346136104523495" id="-24961">
		<tag k="name" v="Askemyrdalen" />
		<tag k="natural" v="valley" />
		<tag k="place" v="locality" />
		<tag k="ssr:stedsnr" v="346679" />
	</node>
	<node lat="59.32831666847544" lon="9.220080554365012" id="-24966">
		<tag k="fixme" v="consider natural=peak for the most distinct mountains in the district" />
		<tag k="name" v="Myreåsen" />
		<tag k="natural" v="hill" />
		<tag k="place" v="locality" />
		<tag k="ssr:stedsnr" v="347115" />
	</node>
	<node lat="59.32769444273596" lon="9.193541671560041" id="-24967">
		<tag k="name" v="Olledalen" />
		<tag k="natural" v="valley" />
		<tag k="place" v="locality" />
		<tag k="ssr:stedsnr" v="347117" />
	</node>
	<node lat="59.40651388846449" lon="9.202225002232934" id="-24973">
		<tag k="name" v="Åsreset" />
		<tag k="natural" v="slope" />
		<tag k="place" v="locality" />
		<tag k="ssr:stedsnr" v="347455" />
	</node>
	<node lat="59.436580553046674" lon="9.323633338132998" id="-24975">
		<tag k="fixme" v="consider natural=peak for the most distinct mountains in the district" />
		<tag k="name" v="Gutu-ås" />
		<tag k="natural" v="hill" />
		<tag k="place" v="locality" />
		<tag k="ssr:stedsnr" v="347616" />
	</node>
	<node lat="59.37638610763178" lon="9.026149999298848" id="-24980">
		<tag k="name" v="Åsekollen" />
		<tag k="natural" v="hill" />
		<tag k="place" v="locality" />
		<tag k="ssr:stedsnr" v="366346" />
	</node>
	<node lat="59.36927500346672" lon="9.15893054938171" id="-24985">
		<tag k="alt_name" v="Sulukollen, store;Store Sulukoll" />
		<tag k="name" v="Store Sulukollen" />
		<tag k="natural" v="hill" />
		<tag k="place" v="locality" />
		<tag k="ssr:stedsnr" v="366300" />
	</node>
	<node lat="59.4023138861674" lon="8.8605444512854" id="-24986">
		<tag k="alt_name" v="Lobuhaugen" />
		<tag k="name" v="Lobuhaugane" />
		<tag k="natural" v="hill" />
		<tag k="place" v="locality" />
		<tag k="ssr:stedsnr" v="366405" />
	</node>
	<node lat="59.465955558797184" lon="8.934963889332018" id="-24990">
		<tag k="alt_name" v="Hugbråtan" />
		<tag k="name" v="Haugbråtåen" />
		<tag k="place" v="locality" />
		<tag k="ssr:stedsnr" v="366604" />
	</node>
	<node lat="59.369049999280435" lon="9.341044445773376" id="-24994">
		<tag k="fixme" v="consider natural=peak for the most distinct mountains in the district" />
		<tag k="name" v="Høgåsane" />
		<tag k="natural" v="hill" />
		<tag k="place" v="locality" />
		<tag k="ssr:stedsnr" v="366805" />
	</node>
	<node lat="59.50825277933573" lon="8.978755553712501" id="-25001">
		<tag k="fixme" v="consider natural=peak for the most distinct mountains in the district" />
		<tag k="name" v="Øysteinnatten" />
		<tag k="natural" v="hill" />
		<tag k="place" v="locality" />
		<tag k="ssr:stedsnr" v="367320" />
	</node>
	<node lat="59.38713610831628" lon="8.991033335888773" id="-25006">
		<tag k="name" v="Dagstjønndalen" />
		<tag k="natural" v="valley" />
		<tag k="place" v="locality" />
		<tag k="ssr:stedsnr" v="388053" />
	</node>
	<node lat="59.425924997307455" lon="9.115044451808158" id="-25009">
		<tag k="name" v="Øygardsmoen" />
		<tag k="place" v="locality" />
		<tag k="ssr:stedsnr" v="389198" />
	</node>
	<node lat="59.47023333167912" lon="9.160486110356915" id="-25015">
		<tag k="fixme" v="consider natural=peak for the most distinct mountains in the district" />
		<tag k="name" v="Svarttjønnipen" />
		<tag k="natural" v="hill" />
		<tag k="place" v="locality" />
		<tag k="ssr:stedsnr" v="389900" />
	</node>
	<node lat="59.410247220979244" lon="8.840949992471064" id="-25017">
		<tag k="name" v="Grasåsdalen" />
		<tag k="natural" v="valley" />
		<tag k="place" v="locality" />
		<tag k="ssr:stedsnr" v="390153" />
	</node>
	<node lat="59.46415277581376" lon="8.97040277159665" id="-25019">
		<tag k="name" v="Attbråtåliane" />
		<tag k="natural" v="slope" />
		<tag k="place" v="locality" />
		<tag k="ssr:stedsnr" v="390100" />
	</node>
	<node lat="59.51383055242822" lon="9.038680556786417" id="-25024">
		<tag k="name" v="Slåkånuten" />
		<tag k="place" v="locality" />
		<tag k="ssr:stedsnr" v="390540" />
	</node>
	<node lat="59.49786944285043" lon="9.042294445112253" id="-25027">
		<tag k="name" v="Elvetangen" />
		<tag k="place" v="locality" />
		<tag k="ssr:stedsnr" v="391594" />
	</node>
	<node lat="59.37655277930828" lon="8.94436666494971" id="-25029">
		<tag k="name" v="Daumannshaugen" />
		<tag k="natural" v="hill" />
		<tag k="place" v="locality" />
		<tag k="ssr:stedsnr" v="392041" />
	</node>
	<node lat="59.4841027796604" lon="9.172413894512099" id="-25035">
		<tag k="fixme" v="consider natural=peak for the most distinct mountains in the district" />
		<tag k="name" v="Mauråsen" />
		<tag k="natural" v="hill" />
		<tag k="place" v="locality" />
		<tag k="ssr:stedsnr" v="392936" />
	</node>
	<node lat="59.39306110825971" lon="9.318633325237144" id="-25036">
		<tag k="name" v="Askedalslien" />
		<tag k="natural" v="slope" />
		<tag k="place" v="locality" />
		<tag k="ssr:stedsnr" v="407019" />
	</node>
	<node lat="59.40673889245186" lon="9.339997220661516" id="-25037">
		<tag k="name" v="Ådalen" />
		<tag k="natural" v="valley" />
		<tag k="place" v="locality" />
		<tag k="ssr:stedsnr" v="407103" />
	</node>
	<node lat="59.416827776239465" lon="9.340155549384601" id="-25038">
		<tag k="fixme" v="consider natural=peak for the most distinct mountains in the district" />
		<tag k="name" v="Høgståsen" />
		<tag k="natural" v="hill" />
		<tag k="place" v="locality" />
		<tag k="ssr:stedsnr" v="407090" />
	</node>
	<node lat="59.376549995774475" lon="9.29446388180929" id="-25042">
		<tag k="fixme" v="consider natural=peak for the most distinct mountains in the district" />
		<tag k="name" v="Spirskot-natten" />
		<tag k="natural" v="hill" />
		<tag k="place" v="locality" />
		<tag k="ssr:stedsnr" v="407341" />
	</node>
	<node lat="59.44147222504372" lon="9.249650001681616" id="-25044">
		<tag k="name" v="Bekkeskotet" />
		<tag k="natural" v="cliff" />
		<tag k="ssr:stedsnr" v="407502" />
	</node>
	<node lat="59.37214166721988" lon="9.362002776502953" id="-25045">
		<tag k="name" v="Vihusliene" />
		<tag k="natural" v="slope" />
		<tag k="place" v="locality" />
		<tag k="ssr:stedsnr" v="407513" />
	</node>
	<node lat="59.423533332676755" lon="9.355144436267182" id="-25050">
		<tag k="name" v="Knipetangen" />
		<tag k="natural" v="ridge" />
		<tag k="place" v="locality" />
		<tag k="ssr:stedsnr" v="407702" />
	</node>
	<node lat="59.42920277690981" lon="9.373577777905098" id="-25051">
		<tag k="name" v="Gvittingen" />
		<tag k="natural" v="slope" />
		<tag k="place" v="locality" />
		<tag k="ssr:stedsnr" v="407723" />
	</node>
	<node lat="59.492736109254295" lon="9.205394452427848" id="-25055">
		<tag k="fixme" v="consider natural=peak for the most distinct mountains in the district" />
		<tag k="name" v="Myrenn-åsen" />
		<tag k="natural" v="hill" />
		<tag k="place" v="locality" />
		<tag k="ssr:stedsnr" v="408056" />
	</node>
	<node lat="59.4011777811241" lon="9.014080549113277" id="-25067">
		<tag k="alt_name" v="Slentemoen" />
		<tag k="name" v="Slentemo" />
		<tag k="place" v="locality" />
		<tag k="ssr:stedsnr" v="487391" />
	</node>
	<node lat="59.4341777765291" lon="8.902013891965806" id="-25069">
		<tag k="fixme" v="consider natural=peak for the most distinct mountains in the district" />
		<tag k="name" v="Landsverknuten" />
		<tag k="natural" v="hill" />
		<tag k="place" v="locality" />
		<tag k="ssr:stedsnr" v="487490" />
	</node>
	<node lat="59.42809444008358" lon="8.92383889461168" id="-25070">
		<tag k="fixme" v="consider natural=peak for the most distinct mountains in the district" />
		<tag k="name" v="Karistulfjellet" />
		<tag k="natural" v="hill" />
		<tag k="place" v="locality" />
		<tag k="ssr:stedsnr" v="487491" />
	</node>
	<node lat="59.49409166522929" lon="8.945008332262244" id="-25071">
		<tag k="fixme" v="consider natural=peak for the most distinct mountains in the district" />
		<tag k="name" v="Nybufjellet" />
		<tag k="natural" v="hill" />
		<tag k="place" v="locality" />
		<tag k="ssr:stedsnr" v="487628" />
	</node>
	<node lat="59.34270832935861" lon="9.139902774235571" id="-25086">
		<tag k="alt_name" v="Skinås" />
		<tag k="fixme" v="consider natural=peak for the most distinct mountains in the district" />
		<tag k="name" v="Skjenås" />
		<tag k="natural" v="hill" />
		<tag k="place" v="locality" />
		<tag k="ssr:stedsnr" v="427273" />
	</node>
	<node lat="59.421502777541505" lon="9.204655564147894" id="-25094">
		<tag k="alt_name" v="Fugleleikhaugene" />
		<tag k="fixme" v="consider natural=peak for the most distinct mountains in the district" />
		<tag k="name" v="Fuglleikhaugane" />
		<tag k="natural" v="hill" />
		<tag k="place" v="locality" />
		<tag k="ssr:stedsnr" v="427406" />
	</node>
	<node lat="59.48346944746167" lon="9.079463885621148" id="-25099">
		<tag k="fixme" v="consider natural=peak for the most distinct mountains in the district" />
		<tag k="name" v="Åsekollen" />
		<tag k="natural" v="hill" />
		<tag k="place" v="locality" />
		<tag k="ssr:stedsnr" v="427618" />
	</node>
	<node lat="59.48400277375892" lon="9.006747214552087" id="-25100">
		<tag k="fixme" v="consider natural=peak for the most distinct mountains in the district" />
		<tag k="name" v="Bøkstulnatten" />
		<tag k="natural" v="hill" />
		<tag k="place" v="locality" />
		<tag k="ssr:stedsnr" v="427571" />
	</node>
	<node lat="59.47156388585746" lon="9.079838881418743" id="-25115">
		<tag k="name" v="Jammerdal" />
		<tag k="natural" v="valley" />
		<tag k="place" v="locality" />
		<tag k="ssr:stedsnr" v="450474" />
	</node>
	<node lat="59.50028333536921" lon="9.145775001716375" id="-25116">
		<tag k="name" v="Haugliane" />
		<tag k="natural" v="slope" />
		<tag k="place" v="locality" />
		<tag k="ssr:stedsnr" v="450611" />
	</node>
	<node lat="59.50116666455629" lon="9.082174992472474" id="-25119">
		<tag k="name" v="Århanekollen" />
		<tag k="place" v="locality" />
		<tag k="ssr:stedsnr" v="450573" />
	</node>
	<node lat="59.51698333721974" lon="9.030863881400812" id="-25133">
		<tag k="name" v="Bukkeliane" />
		<tag k="natural" v="slope" />
		<tag k="place" v="locality" />
		<tag k="ssr:stedsnr" v="451577" />
	</node>
	<node lat="59.493474996852804" lon="8.960952780887313" id="-25135">
		<tag k="name" v="Kuvelhette" />
		<tag k="natural" v="hill" />
		<tag k="place" v="locality" />
		<tag k="ssr:stedsnr" v="451602" />
	</node>
	<node lat="59.53538610874956" lon="9.034605558684794" id="-25136">
		<tag k="name" v="Rassklov" />
		<tag k="natural" v="valley" />
		<tag k="place" v="locality" />
		<tag k="ssr:stedsnr" v="451603" />
	</node>
	<node lat="59.52425832968639" lon="9.022819436780368" id="-25137">
		<tag k="name" v="Tyristulleiken" />
		<tag k="place" v="locality" />
		<tag k="ssr:stedsnr" v="451625" />
	</node>
	<node lat="59.38343332929188" lon="8.930947214187963" id="-25138">
		<tag k="fixme" v="consider natural=peak for the most distinct mountains in the district" />
		<tag k="name" v="Styggedalsnuten" />
		<tag k="natural" v="hill" />
		<tag k="place" v="locality" />
		<tag k="ssr:stedsnr" v="453006" />
	</node>
	<node lat="59.38474166737266" lon="8.898061111996078" id="-25139">
		<tag k="fixme" v="consider natural=peak for the most distinct mountains in the district" />
		<tag k="name" v="Korpenuten" />
		<tag k="natural" v="hill" />
		<tag k="place" v="locality" />
		<tag k="ssr:stedsnr" v="453020" />
	</node>
	<node lat="59.37938611405007" lon="8.945555551318932" id="-25142">
		<tag k="fixme" v="consider natural=peak for the most distinct mountains in the district" />
		<tag k="name" v="Borgarås" />
		<tag k="natural" v="hill" />
		<tag k="place" v="locality" />
		<tag k="ssr:stedsnr" v="453268" />
	</node>
	<node lat="59.46561666359801" lon="8.95979166893092" id="-25143">
		<tag k="fixme" v="consider natural=peak for the most distinct mountains in the district" />
		<tag k="name" v="Høgsåsåsen" />
		<tag k="natural" v="hill" />
		<tag k="place" v="locality" />
		<tag k="ssr:stedsnr" v="453318" />
	</node>
	<node lat="59.48042222636614" lon="9.061066665779919" id="-25145">
		<tag k="name" v="Høljarurkleiva" />
		<tag k="natural" v="slope" />
		<tag k="place" v="locality" />
		<tag k="ssr:stedsnr" v="453517" />
	</node>
	<node lat="59.47616944369139" lon="9.251786105802408" id="-25149">
		<tag k="name" v="Slettemo" />
		<tag k="place" v="locality" />
		<tag k="ssr:stedsnr" v="468206" />
	</node>
	<node lat="59.46873333122684" lon="9.26445555854736" id="-25150">
		<tag k="name" v="Åskota" />
		<tag k="natural" v="cliff" />
		<tag k="ssr:stedsnr" v="468215" />
	</node>
	<node lat="59.45439166985787" lon="9.254741670627094" id="-25153">
		<tag k="name" v="Svarvestol-dalen" />
		<tag k="natural" v="valley" />
		<tag k="place" v="locality" />
		<tag k="ssr:stedsnr" v="468162" />
	</node>
	<node lat="59.45501388786917" lon="9.229541672359455" id="-25159">
		<tag k="name" v="Hyttedalen" />
		<tag k="natural" v="valley" />
		<tag k="place" v="locality" />
		<tag k="ssr:stedsnr" v="468315" />
	</node>
	<node lat="59.38313055222473" lon="9.347077778951116" id="-25161">
		<tag k="fixme" v="consider natural=peak for the most distinct mountains in the district" />
		<tag k="name" v="Pølen" />
		<tag k="natural" v="hill" />
		<tag k="place" v="locality" />
		<tag k="ssr:stedsnr" v="468325" />
	</node>
	<node lat="59.42832221878874" lon="9.276008341692089" id="-25162">
		<tag k="name" v="Rolighets-moen" />
		<tag k="place" v="locality" />
		<tag k="ssr:stedsnr" v="468412" />
	</node>
	<node lat="59.478611108765286" lon="9.45283888945707" id="-25163">
		<tag k="name" v="Nedre Djupedal" />
		<tag k="natural" v="valley" />
		<tag k="place" v="locality" />
		<tag k="ssr:stedsnr" v="468413" />
	</node>
	<node lat="59.43284444356142" lon="9.28925555510632" id="-25164">
		<tag k="fixme" v="consider natural=peak for the most distinct mountains in the district" />
		<tag k="name" v="Hofsrudåsen" />
		<tag k="natural" v="hill" />
		<tag k="place" v="locality" />
		<tag k="ssr:stedsnr" v="468473" />
	</node>
	<node lat="59.43442777540108" lon="9.319677781588284" id="-25165">
		<tag k="fixme" v="consider natural=peak for the most distinct mountains in the district" />
		<tag k="name" v="Sundshaugen" />
		<tag k="natural" v="hill" />
		<tag k="place" v="locality" />
		<tag k="ssr:stedsnr" v="468478" />
	</node>
	<node lat="59.42358055243169" lon="9.28404166262658" id="-25166">
		<tag k="name" v="Kastdalen" />
		<tag k="natural" v="valley" />
		<tag k="place" v="locality" />
		<tag k="ssr:stedsnr" v="468486" />
	</node>
	<node lat="59.35659999856414" lon="9.274011113792152" id="-25172">
		<tag k="fixme" v="consider natural=peak for the most distinct mountains in the district" />
		<tag k="name" v="Fjellstulåsen" />
		<tag k="natural" v="hill" />
		<tag k="place" v="locality" />
		<tag k="ssr:stedsnr" v="468803" />
	</node>
	<node lat="59.44010000444566" lon="9.326338896768831" id="-25174">
		<tag k="name" v="Gvåladalen" />
		<tag k="natural" v="valley" />
		<tag k="place" v="locality" />
		<tag k="ssr:stedsnr" v="468923" />
	</node>
	<node lat="59.37221111035125" lon="9.16499721768588" id="-25177">
		<tag k="alt_name" v="Sulukollen, vle" />
		<tag k="name" v="Vesle Sulukoll" />
		<tag k="natural" v="hill" />
		<tag k="place" v="locality" />
		<tag k="ssr:stedsnr" v="487309" />
	</node>
	<node lat="59.353583328902936" lon="9.142622227470065" id="-25178">
		<tag k="alt_name" v="Løkedalen" />
		<tag k="name" v="Løkjedalen" />
		<tag k="natural" v="valley" />
		<tag k="place" v="locality" />
		<tag k="ssr:stedsnr" v="487271" />
	</node>
	<node lat="59.44058055680063" lon="9.087633339431294" id="-25181">
		<tag k="alt_name" v="Folkestadmoane" />
		<tag k="name" v="Folkestadmogane" />
		<tag k="place" v="locality" />
		<tag k="ssr:stedsnr" v="487505" />
	</node>
	<node lat="59.49156110769787" lon="8.981352771394679" id="-25183">
		<tag k="alt_name" v="Gleksefjellet" />
		<tag k="fixme" v="consider natural=peak for the most distinct mountains in the district" />
		<tag k="name" v="Gleksefjell" />
		<tag k="natural" v="hill" />
		<tag k="place" v="locality" />
		<tag k="ssr:stedsnr" v="487612" />
	</node>
	<node lat="59.40263055299023" lon="9.235122230257167" id="-25188">
		<tag k="alt_name" v="Vardefjell" />
		<tag k="fixme" v="consider natural=peak for the most distinct mountains in the district" />
		<tag k="name" v="Vesle Vardeåsen" />
		<tag k="natural" v="hill" />
		<tag k="place" v="locality" />
		<tag k="ssr:stedsnr" v="487901" />
	</node>
	<node lat="59.52728611034486" lon="9.123902783175945" id="-25191">
		<tag k="fixme" v="consider natural=peak for the most distinct mountains in the district" />
		<tag k="name" v="Korpenuten" />
		<tag k="natural" v="hill" />
		<tag k="place" v="locality" />
		<tag k="ssr:stedsnr" v="488446" />
	</node>
	<node lat="59.520927774462905" lon="9.037386116418295" id="-25193">
		<tag k="fixme" v="consider natural=peak for the most distinct mountains in the district" />
		<tag k="name" v="Bukkelifjellet" />
		<tag k="natural" v="hill" />
		<tag k="place" v="locality" />
		<tag k="ssr:stedsnr" v="488450" />
	</node>
	<node lat="59.437249995954545" lon="9.266255563824462" id="-25197">
		<tag k="name" v="Brattningsborg" />
		<tag k="natural" v="hill" />
		<tag k="place" v="locality" />
		<tag k="ssr:stedsnr" v="488941" />
	</node>
	<node lat="59.379600001003126" lon="8.986394439406851" id="-25207">
		<tag k="fixme" v="consider natural=peak for the most distinct mountains in the district" />
		<tag k="name" v="Damfjellet" />
		<tag k="natural" v="hill" />
		<tag k="place" v="locality" />
		<tag k="ssr:stedsnr" v="512111" />
	</node>
	<node lat="59.39039722261233" lon="8.899924995547636" id="-25212">
		<tag k="fixme" v="consider natural=peak for the most distinct mountains in the district" />
		<tag k="name" v="Jomfrunatten" />
		<tag k="natural" v="hill" />
		<tag k="place" v="locality" />
		<tag k="ssr:stedsnr" v="513022" />
	</node>
	<node lat="59.496641667136856" lon="9.034766665178376" id="-25213">
		<tag k="fixme" v="consider natural=peak for the most distinct mountains in the district" />
		<tag k="name" v="Goddalsnatten" />
		<tag k="natural" v="hill" />
		<tag k="place" v="locality" />
		<tag k="ssr:stedsnr" v="513608" />
	</node>
	<node lat="59.482816670891935" lon="9.170161102449924" id="-25216">
		<tag k="name" v="Svartufs" />
		<tag k="natural" v="hill" />
		<tag k="place" v="locality" />
		<tag k="ssr:stedsnr" v="513920" />
	</node>
	<node lat="59.43063611464156" lon="9.165202775286751" id="-25225">
		<tag k="fixme" v="consider natural=peak for the most distinct mountains in the district" />
		<tag k="name" v="Tørrskanken" />
		<tag k="natural" v="hill" />
		<tag k="place" v="locality" />
		<tag k="ssr:stedsnr" v="528602" />
	</node>
	<node lat="59.42541944745661" lon="9.363355550813154" id="-25228">
		<tag k="name" v="Fjelldalen" />
		<tag k="natural" v="valley" />
		<tag k="place" v="locality" />
		<tag k="ssr:stedsnr" v="528684" />
	</node>
	<node lat="59.45290555742389" lon="9.355172228495213" id="-25231">
		<tag k="fixme" v="consider natural=peak for the most distinct mountains in the district" />
		<tag k="name" v="Brenna-åsen" />
		<tag k="natural" v="hill" />
		<tag k="place" v="locality" />
		<tag k="ssr:stedsnr" v="528714" />
	</node>
	<node lat="59.35985277549345" lon="9.27369167395722" id="-25232">
		<tag k="name" v="Råtebru-dalen" />
		<tag k="natural" v="valley" />
		<tag k="place" v="locality" />
		<tag k="ssr:stedsnr" v="528784" />
	</node>
	<node lat="59.46889722470342" lon="9.252094449348556" id="-25233">
		<tag k="name" v="Urdskot" />
		<tag k="natural" v="cliff" />
		<tag k="ssr:stedsnr" v="529203" />
	</node>
	<node lat="59.35240000293139" lon="9.29974722393256" id="-25236">
		<tag k="name" v="Elge-kjøkenet" />
		<tag k="natural" v="slope" />
		<tag k="place" v="locality" />
		<tag k="ssr:stedsnr" v="529252" />
	</node>
	<node lat="59.41837777655767" lon="9.357727781078864" id="-25246">
		<tag k="name" v="Nordvårstulhaugene" />
		<tag k="natural" v="hill" />
		<tag k="old_name" v="Nordvårstulhuagene" />
		<tag k="place" v="locality" />
		<tag k="ssr:stedsnr" v="529324" />
	</node>
	<node lat="59.43956388937994" lon="9.292622224140525" id="-25248">
		<tag k="name" v="Kringsås-liene" />
		<tag k="natural" v="slope" />
		<tag k="place" v="locality" />
		<tag k="ssr:stedsnr" v="529517" />
	</node>
	<node lat="59.428752781481606" lon="9.33983888107561" id="-25251">
		<tag k="name" v="Skarvin" />
		<tag k="natural" v="slope" />
		<tag k="place" v="locality" />
		<tag k="ssr:stedsnr" v="529947" />
	</node>
	<node lat="59.45542500010354" lon="9.347947218382794" id="-25255">
		<tag k="alt_name" v="Holte-åsen" />
		<tag k="fixme" v="consider natural=peak for the most distinct mountains in the district" />
		<tag k="name" v="Holtsås" />
		<tag k="natural" v="hill" />
		<tag k="place" v="locality" />
		<tag k="ssr:stedsnr" v="548018" />
	</node>
	<node lat="59.438511106974005" lon="8.89449723076392" id="-25263">
		<tag k="fixme" v="consider natural=peak for the most distinct mountains in the district" />
		<tag k="name" v="Kupanuten" />
		<tag k="natural" v="hill" />
		<tag k="place" v="locality" />
		<tag k="ssr:stedsnr" v="548466" />
	</node>
	<node lat="59.431827776742374" lon="9.011247229664624" id="-25269">
		<tag k="name" v="Siglhusmoen" />
		<tag k="place" v="locality" />
		<tag k="ssr:stedsnr" v="692469" />
	</node>
	<node lat="59.42126111409515" lon="9.080858339352984" id="-25276">
		<tag k="name" v="Piperudsletta" />
		<tag k="place" v="locality" />
		<tag k="ssr:stedsnr" v="693263" />
	</node>
	<node lat="59.40915833102341" lon="9.006127773203314" id="-25281">
		<tag k="fixme" v="consider natural=peak for the most distinct mountains in the district" />
		<tag k="name" v="Espedalsåsen" />
		<tag k="natural" v="hill" />
		<tag k="place" v="locality" />
		<tag k="ssr:stedsnr" v="693302" />
	</node>
	<node lat="59.34936111158162" lon="8.916444441715482" id="-25283">
		<tag k="name" v="Steindalen" />
		<tag k="natural" v="valley" />
		<tag k="place" v="locality" />
		<tag k="ssr:stedsnr" v="693445" />
	</node>
	<node lat="59.375886114207205" lon="8.982108333726758" id="-25286">
		<tag k="name" v="Kleivahaugen" />
		<tag k="natural" v="hill" />
		<tag k="place" v="locality" />
		<tag k="ssr:stedsnr" v="693464" />
	</node>
	<node lat="59.36573610749707" lon="9.01963610749947" id="-25299">
		<tag k="name" v="Postmyrdalen" />
		<tag k="natural" v="valley" />
		<tag k="place" v="locality" />
		<tag k="ssr:stedsnr" v="571412" />
	</node>
	<node lat="59.51646666757893" lon="9.069344444174897" id="-25301">
		<tag k="fixme" v="consider natural=peak for the most distinct mountains in the district" />
		<tag k="name" v="Anderslifjellet" />
		<tag k="natural" v="hill" />
		<tag k="place" v="locality" />
		<tag k="ssr:stedsnr" v="693767" />
	</node>
	<node lat="59.47896666445512" lon="9.137763885075113" id="-25303">
		<tag k="fixme" v="consider natural=peak for the most distinct mountains in the district" />
		<tag k="name" v="Flugaråsane" />
		<tag k="natural" v="hill" />
		<tag k="place" v="locality" />
		<tag k="ssr:stedsnr" v="571911" />
	</node>
	<node lat="59.46161111068402" lon="9.130022228235655" id="-25304">
		<tag k="name" v="Furustandarlia" />
		<tag k="natural" v="slope" />
		<tag k="place" v="locality" />
		<tag k="ssr:stedsnr" v="571924" />
	</node>
	<node lat="59.396255557198025" lon="9.041674993437343" id="-25308">
		<tag k="fixme" v="consider natural=peak for the most distinct mountains in the district" />
		<tag k="name" v="Klokkarstugunuten" />
		<tag k="natural" v="hill" />
		<tag k="place" v="locality" />
		<tag k="ssr:stedsnr" v="572323" />
	</node>
	<node lat="59.440158336619916" lon="9.024350004386324" id="-25309">
		<tag k="name" v="Lindeberget" />
		<tag k="natural" v="hill" />
		<tag k="place" v="locality" />
		<tag k="ssr:stedsnr" v="572626" />
	</node>
	<node lat="59.472274999656655" lon="9.107850003380928" id="-25310">
		<tag k="name" v="Dikedalen" />
		<tag k="natural" v="valley" />
		<tag k="place" v="locality" />
		<tag k="ssr:stedsnr" v="572506" />
	</node>
	<node lat="59.414980553084376" lon="8.936472225499188" id="-25313">
		<tag k="name" v="Kattebekkdalen" />
		<tag k="natural" v="valley" />
		<tag k="place" v="locality" />
		<tag k="ssr:stedsnr" v="694136" />
	</node>
	<node lat="59.42019166448281" lon="8.919891671792481" id="-25314">
		<tag k="name" v="Soterudskorra" />
		<tag k="natural" v="slope" />
		<tag k="place" v="locality" />
		<tag k="ssr:stedsnr" v="694145" />
	</node>
	<node lat="59.42885277679543" lon="8.859786109957628" id="-25322">
		<tag k="fixme" v="consider natural=peak for the most distinct mountains in the district" />
		<tag k="name" v="Basmoåsane" />
		<tag k="natural" v="hill" />
		<tag k="place" v="locality" />
		<tag k="ssr:stedsnr" v="574904" />
	</node>
	<node lat="59.431888889637634" lon="8.871547230459052" id="-25323">
		<tag k="name" v="Hagadrag" />
		<tag k="natural" v="cliff" />
		<tag k="ssr:stedsnr" v="574907" />
	</node>
	<node lat="59.478527775579025" lon="8.916463883639395" id="-25324">
		<tag k="name" v="Langetjønnlia" />
		<tag k="natural" v="slope" />
		<tag k="place" v="locality" />
		<tag k="ssr:stedsnr" v="574998" />
	</node>
	<node lat="59.45943611266469" lon="9.03425277901351" id="-25326">
		<tag k="name" v="Svettelia" />
		<tag k="natural" v="slope" />
		<tag k="place" v="locality" />
		<tag k="ssr:stedsnr" v="695047" />
	</node>
	<node lat="59.490277780783416" lon="9.056372226489518" id="-25328">
		<tag k="fixme" v="consider natural=peak for the most distinct mountains in the district" />
		<tag k="name" v="Kollane" />
		<tag k="natural" v="hill" />
		<tag k="place" v="locality" />
		<tag k="ssr:stedsnr" v="695572" />
	</node>
	<node lat="59.497194443946825" lon="9.053330555527008" id="-25329">
		<tag k="name" v="Myhankdalen" />
		<tag k="natural" v="valley" />
		<tag k="place" v="locality" />
		<tag k="ssr:stedsnr" v="695588" />
	</node>
	<node lat="59.49904166426171" lon="9.055449993428448" id="-25330">
		<tag k="name" v="Bekarlia" />
		<tag k="natural" v="slope" />
		<tag k="place" v="locality" />
		<tag k="ssr:stedsnr" v="695592" />
	</node>
	<node lat="59.46765277349562" lon="8.94742777998916" id="-25332">
		<tag k="name" v="Nørstekleivbotten" />
		<tag k="natural" v="valley" />
		<tag k="place" v="locality" />
		<tag k="ssr:stedsnr" v="695902" />
	</node>
	<node lat="59.477480554392855" lon="8.937638895927686" id="-25333">
		<tag k="name" v="Måsådalen" />
		<tag k="natural" v="valley" />
		<tag k="place" v="locality" />
		<tag k="ssr:stedsnr" v="695997" />
	</node>
	<node lat="59.373816668940314" lon="8.942297214752903" id="-25334">
		<tag k="name" v="Rivedalen" />
		<tag k="natural" v="valley" />
		<tag k="place" v="locality" />
		<tag k="ssr:stedsnr" v="696047" />
	</node>
	<node lat="59.42311666999195" lon="8.854402783360669" id="-25335">
		<tag k="name" v="Rulldal" />
		<tag k="natural" v="valley" />
		<tag k="place" v="locality" />
		<tag k="ssr:stedsnr" v="696145" />
	</node>
	<node lat="59.46996111202205" lon="9.001427785477654" id="-25338">
		<tag k="name" v="Nutestulliane" />
		<tag k="natural" v="slope" />
		<tag k="place" v="locality" />
		<tag k="ssr:stedsnr" v="696689" />
	</node>
	<node lat="59.45664166642457" lon="9.307861110275146" id="-25342">
		<tag k="name" v="Kleppen" />
		<tag k="place" v="locality" />
		<tag k="ssr:stedsnr" v="589005" />
	</node>
	<node lat="59.33830555561059" lon="9.183197221364464" id="-25345">
		<tag k="fixme" v="consider natural=peak for the most distinct mountains in the district" />
		<tag k="name" v="Tjønnås" />
		<tag k="natural" v="hill" />
		<tag k="place" v="locality" />
		<tag k="ssr:stedsnr" v="589060" />
	</node>
	<node lat="59.347380559847196" lon="9.168311108349995" id="-25347">
		<tag k="fixme" v="consider natural=peak for the most distinct mountains in the district" />
		<tag k="name" v="Gangsjåkollen" />
		<tag k="natural" v="hill" />
		<tag k="place" v="locality" />
		<tag k="ssr:stedsnr" v="589161" />
	</node>
	<node lat="59.46824721940476" lon="9.389675005586902" id="-25353">
		<tag k="name" v="Vrangeberga" />
		<tag k="natural" v="hill" />
		<tag k="place" v="locality" />
		<tag k="ssr:stedsnr" v="589566" />
	</node>
	<node lat="59.42808333318792" lon="9.370727771053968" id="-25359">
		<tag k="fixme" v="consider natural=peak for the most distinct mountains in the district" />
		<tag k="name" v="Blåbæråsen" />
		<tag k="natural" v="hill" />
		<tag k="place" v="locality" />
		<tag k="ssr:stedsnr" v="589656" />
	</node>
	<node lat="59.432236112355284" lon="9.367902783972465" id="-25360">
		<tag k="name" v="Helleren" />
		<tag k="place" v="locality" />
		<tag k="ssr:stedsnr" v="589660" />
	</node>
	<node lat="59.3693249959139" lon="9.283647228429423" id="-25365">
		<tag k="fixme" v="consider natural=peak for the most distinct mountains in the district" />
		<tag k="name" v="Høljerstjønn-åsane" />
		<tag k="natural" v="hill" />
		<tag k="place" v="locality" />
		<tag k="ssr:stedsnr" v="589822" />
	</node>
	<node lat="59.37465000007348" lon="9.279708336522692" id="-25366">
		<tag k="name" v="Tutarnatten" />
		<tag k="natural" v="hill" />
		<tag k="place" v="locality" />
		<tag k="ssr:stedsnr" v="589823" />
	</node>
	<node lat="59.43310555781038" lon="8.963633325946157" id="-25374">
		<tag k="alt_name" v="Tjørnstuldalen" />
		<tag k="name" v="Tjønnstuldalen" />
		<tag k="natural" v="valley" />
		<tag k="place" v="locality" />
		<tag k="ssr:stedsnr" v="608418" />
	</node>
	<node lat="59.445699996393756" lon="9.012483334112172" id="-25378">
		<tag k="name" v="Liheia" />
		<tag k="natural" v="hill" />
		<tag k="place" v="locality" />
		<tag k="ssr:stedsnr" v="608517" />
	</node>
	<node lat="59.38020277607938" lon="9.390347218992307" id="-25380">
		<tag k="fixme" v="consider natural=peak for the most distinct mountains in the district" />
		<tag k="name" v="Nybufjellet" />
		<tag k="natural" v="hill" />
		<tag k="place" v="locality" />
		<tag k="ssr:stedsnr" v="608941" />
	</node>
	<node lat="59.338108334925394" lon="9.1901083303413" id="-25382">
		<tag k="name" v="Fagerlikollen" />
		<tag k="natural" v="hill" />
		<tag k="place" v="locality" />
		<tag k="ssr:stedsnr" v="609236" />
	</node>
	<node lat="59.506841667680334" lon="9.209024994323903" id="-25387">
		<tag k="alt_name" v="Klokksfjell" />
		<tag k="fixme" v="consider natural=peak for the most distinct mountains in the district" />
		<tag k="name" v="Klokksfjellet" />
		<tag k="natural" v="hill" />
		<tag k="place" v="locality" />
		<tag k="ssr:stedsnr" v="609393" />
	</node>
	<node lat="59.39409444040106" lon="8.995116669553497" id="-25390">
		<tag k="name" v="Spirdalen" />
		<tag k="natural" v="valley" />
		<tag k="place" v="locality" />
		<tag k="ssr:stedsnr" v="630075" />
	</node>
	<node lat="59.39888055951648" lon="8.828316658894368" id="-25392">
		<tag k="name" v="Gråndokka" />
		<tag k="natural" v="valley" />
		<tag k="place" v="locality" />
		<tag k="ssr:stedsnr" v="630155" />
	</node>
	<node lat="59.40866666519589" lon="9.003672217484969" id="-25393">
		<tag k="name" v="Refsdalen" />
		<tag k="natural" v="valley" />
		<tag k="place" v="locality" />
		<tag k="ssr:stedsnr" v="632012" />
	</node>
	<node lat="59.41842499880504" lon="9.042472222699292" id="-25397">
		<tag k="fixme" v="consider natural=peak for the most distinct mountains in the district" />
		<tag k="name" v="Bergenåsen" />
		<tag k="natural" v="hill" />
		<tag k="place" v="locality" />
		<tag k="ssr:stedsnr" v="632510" />
	</node>
	<node lat="59.40820555671515" lon="9.113219448470302" id="-25400">
		<tag k="name" v="Flatin" />
		<tag k="place" v="locality" />
		<tag k="ssr:stedsnr" v="632637" />
	</node>
	<node lat="59.527741668700884" lon="9.131880552137641" id="-25401">
		<tag k="fixme" v="consider natural=peak for the most distinct mountains in the district" />
		<tag k="name" v="Lomtjønnuten" />
		<tag k="natural" v="hill" />
		<tag k="place" v="locality" />
		<tag k="ssr:stedsnr" v="632739" />
	</node>
	<node lat="59.40411944894953" lon="8.975947214397667" id="-25402">
		<tag k="name" v="Leirdalen" />
		<tag k="natural" v="valley" />
		<tag k="place" v="locality" />
		<tag k="ssr:stedsnr" v="633006" />
	</node>
	<node lat="59.41256666827502" lon="8.925708331744307" id="-25406">
		<tag k="name" v="Eriksteinmoen" />
		<tag k="place" v="locality" />
		<tag k="ssr:stedsnr" v="633133" />
	</node>
	<node lat="59.41726944312276" lon="8.938394443095724" id="-25407">
		<tag k="fixme" v="consider natural=peak for the most distinct mountains in the district" />
		<tag k="name" v="Korpenuten" />
		<tag k="natural" v="hill" />
		<tag k="place" v="locality" />
		<tag k="ssr:stedsnr" v="633185" />
	</node>
	<node lat="59.493236110727956" lon="8.937347220339952" id="-25410">
		<tag k="fixme" v="consider natural=peak for the most distinct mountains in the district" />
		<tag k="name" v="Rjupetjønnuten" />
		<tag k="natural" v="hill" />
		<tag k="place" v="locality" />
		<tag k="ssr:stedsnr" v="633937" />
	</node>
	<node lat="59.465766667576794" lon="8.964380557022904" id="-25411">
		<tag k="name" v="Høgsåslia" />
		<tag k="natural" v="slope" />
		<tag k="place" v="locality" />
		<tag k="ssr:stedsnr" v="634328" />
	</node>
	<node lat="59.49680832985821" lon="9.060633331570628" id="-25412">
		<tag k="fixme" v="consider natural=peak for the most distinct mountains in the district" />
		<tag k="name" v="Barlindstandaren" />
		<tag k="natural" v="hill" />
		<tag k="place" v="locality" />
		<tag k="ssr:stedsnr" v="634605" />
	</node>
	<node lat="59.42336666785601" lon="8.940200006226489" id="-25414">
		<tag k="fixme" v="consider natural=peak for the most distinct mountains in the district" />
		<tag k="name" v="Blåkoll" />
		<tag k="natural" v="hill" />
		<tag k="place" v="locality" />
		<tag k="ssr:stedsnr" v="634828" />
	</node>
	<node lat="59.436866668036295" lon="8.981380561524542" id="-25416">
		<tag k="name" v="Busteskorra" />
		<tag k="place" v="locality" />
		<tag k="ssr:stedsnr" v="634877" />
	</node>
	<node lat="59.48162777997353" lon="8.948327776926725" id="-25418">
		<tag k="name" v="Rognliane" />
		<tag k="natural" v="slope" />
		<tag k="place" v="locality" />
		<tag k="ssr:stedsnr" v="634992" />
	</node>
	<node lat="59.472613888078925" lon="8.91169723037984" id="-25419">
		<tag k="fixme" v="consider natural=peak for the most distinct mountains in the district" />
		<tag k="name" v="Tallakslinuten" />
		<tag k="natural" v="hill" />
		<tag k="place" v="locality" />
		<tag k="ssr:stedsnr" v="634998" />
	</node>
	<node lat="59.36588055903419" lon="9.359974991923359" id="-25423">
		<tag k="name" v="Vassliene" />
		<tag k="natural" v="slope" />
		<tag k="place" v="locality" />
		<tag k="ssr:stedsnr" v="649515" />
	</node>
	<node lat="59.41944722148958" lon="9.380463888462515" id="-25424">
		<tag k="name" v="Griselifjellet" />
		<tag k="natural" v="hill" />
		<tag k="place" v="locality" />
		<tag k="ssr:stedsnr" v="649689" />
	</node>
	<node lat="59.48301666267062" lon="9.30396944312658" id="-25426">
		<tag k="name" v="Kastkleiva" />
		<tag k="natural" v="slope" />
		<tag k="place" v="locality" />
		<tag k="ssr:stedsnr" v="649587" />
	</node>
	<node lat="59.38563611006356" lon="9.141702772195556" id="-25427">
		<tag k="name" v="Nissedalen" />
		<tag k="natural" v="valley" />
		<tag k="place" v="locality" />
		<tag k="ssr:stedsnr" v="650217" />
	</node>
	<node lat="59.3875722224716" lon="9.1314500066694" id="-25429">
		<tag k="name" v="Elgeholet" />
		<tag k="natural" v="valley" />
		<tag k="place" v="locality" />
		<tag k="ssr:stedsnr" v="650221" />
	</node>
	<node lat="59.43698611379257" lon="9.348230561832331" id="-25434">
		<tag k="name" v="Storskot" />
		<tag k="natural" v="cliff" />
		<tag k="ssr:stedsnr" v="650624" />
	</node>
	<node lat="59.47759167042802" lon="9.361205549135743" id="-25435">
		<tag k="name" v="Grasdalen" />
		<tag k="natural" v="valley" />
		<tag k="place" v="locality" />
		<tag k="ssr:stedsnr" v="650537" />
	</node>
	<node lat="59.453769447542484" lon="9.267172227527382" id="-25442">
		<tag k="name" v="Stulsdalen" />
		<tag k="natural" v="valley" />
		<tag k="place" v="locality" />
		<tag k="ssr:stedsnr" v="710150" />
	</node>
	<node lat="59.44890833610295" lon="8.998313890337407" id="-25451">
		<tag k="fixme" v="consider natural=peak for the most distinct mountains in the district" />
		<tag k="name" v="Årnatten" />
		<tag k="natural" v="hill" />
		<tag k="place" v="locality" />
		<tag k="ssr:stedsnr" v="669507" />
	</node>
	<node lat="59.4961333365511" lon="8.996624997094107" id="-25455">
		<tag k="alt_name" v="Skåråfjellet" />
		<tag k="fixme" v="consider natural=peak for the most distinct mountains in the district" />
		<tag k="name" v="Skåråfjell" />
		<tag k="natural" v="hill" />
		<tag k="place" v="locality" />
		<tag k="ssr:stedsnr" v="669595" />
	</node>
	<node lat="59.42741666634238" lon="9.22006388986311" id="-25456">
		<tag k="name" v="Ringstulstupet" />
		<tag k="natural" v="cliff" />
		<tag k="ssr:stedsnr" v="710474" />
	</node>
	<node lat="59.43528055328163" lon="9.208863885294674" id="-25460">
		<tag k="alt_name" v="Dålåtjønnattene" />
		<tag k="fixme" v="consider natural=peak for the most distinct mountains in the district" />
		<tag k="name" v="Dålåtjørnnatten" />
		<tag k="natural" v="hill" />
		<tag k="place" v="locality" />
		<tag k="ssr:stedsnr" v="670403" />
	</node>
	<node lat="59.48736944366096" lon="9.255372221240924" id="-25468">
		<tag k="fixme" v="consider natural=peak for the most distinct mountains in the district" />
		<tag k="name" v="Deiltjønnåsene" />
		<tag k="natural" v="hill" />
		<tag k="place" v="locality" />
		<tag k="ssr:stedsnr" v="893034" />
	</node>
	<node lat="59.33472500123316" lon="9.202072227914488" id="-25474">
		<tag k="fixme" v="consider natural=peak for the most distinct mountains in the district" />
		<tag k="name" v="Ullerås" />
		<tag k="natural" v="hill" />
		<tag k="place" v="locality" />
		<tag k="ssr:stedsnr" v="893098" />
	</node>
	<node lat="59.461741670799114" lon="9.232988894638723" id="-25477">
		<tag k="name" v="Bråtåtjønn-liene" />
		<tag k="natural" v="slope" />
		<tag k="place" v="locality" />
		<tag k="ssr:stedsnr" v="893197" />
	</node>
	<node lat="59.43156110717068" lon="9.349997216130099" id="-25486">
		<tag k="name" v="Ingeberskleiv" />
		<tag k="natural" v="slope" />
		<tag k="place" v="locality" />
		<tag k="ssr:stedsnr" v="893646" />
	</node>
	<node lat="59.450602777363855" lon="9.392819449943396" id="-25488">
		<tag k="name" v="Håkåkleiv" />
		<tag k="natural" v="slope" />
		<tag k="place" v="locality" />
		<tag k="ssr:stedsnr" v="893697" />
	</node>
	<node lat="59.42517499868299" lon="9.300150004416983" id="-25492">
		<tag k="name" v="Moheim" />
		<tag k="natural" v="slope" />
		<tag k="place" v="locality" />
		<tag k="ssr:stedsnr" v="893953" />
	</node>
	<node lat="59.39905833228251" lon="8.879299995746758" id="-25494">
		<tag k="name" v="Kilevaliane" />
		<tag k="natural" v="slope" />
		<tag k="place" v="locality" />
		<tag k="ssr:stedsnr" v="691214" />
	</node>
	<node lat="59.38019167055122" lon="8.956072218569924" id="-25495">
		<tag k="fixme" v="consider natural=peak for the most distinct mountains in the district" />
		<tag k="name" v="Borgarås" />
		<tag k="natural" v="hill" />
		<tag k="place" v="locality" />
		<tag k="ssr:stedsnr" v="692087" />
	</node>
	<node lat="59.38722500354567" lon="9.246494450318172" id="-25500">
		<tag k="fixme" v="consider natural=peak for the most distinct mountains in the district" />
		<tag k="name" v="Kråkenabben" />
		<tag k="natural" v="hill" />
		<tag k="place" v="locality" />
		<tag k="ssr:stedsnr" v="894693" />
	</node>
	<node lat="59.500319442958855" lon="9.134738881607452" id="-25502">
		<tag k="name" v="Enganefjellet" />
		<tag k="natural" v="hill" />
		<tag k="place" v="locality" />
		<tag k="ssr:stedsnr" v="693613" />
	</node>
	<node lat="59.49343889204756" lon="8.9118583344603" id="-25506">
		<tag k="name" v="Holmetjønnliane" />
		<tag k="natural" v="slope" />
		<tag k="place" v="locality" />
		<tag k="ssr:stedsnr" v="693719" />
	</node>
	<node lat="59.3940222179709" lon="9.008616670776803" id="-25512">
		<tag k="fixme" v="consider natural=peak for the most distinct mountains in the district" />
		<tag k="name" v="Høyslassfjellet" />
		<tag k="natural" v="hill" />
		<tag k="place" v="locality" />
		<tag k="ssr:stedsnr" v="694281" />
	</node>
	<node lat="59.37983888754473" lon="9.03791110943087" id="-25514">
		<tag k="name" v="Tjønnåsen" />
		<tag k="natural" v="hill" />
		<tag k="place" v="locality" />
		<tag k="ssr:stedsnr" v="694304" />
	</node>
	<node lat="59.35300555690847" lon="9.389933326749635" id="-25523">
		<tag k="name" v="Nibbeliane" />
		<tag k="natural" v="slope" />
		<tag k="place" v="locality" />
		<tag k="ssr:stedsnr" v="695679" />
	</node>
	<node lat="59.432463886585786" lon="8.894761106192846" id="-25524">
		<tag k="name" v="Høgås" />
		<tag k="natural" v="hill" />
		<tag k="place" v="locality" />
		<tag k="ssr:stedsnr" v="695810" />
	</node>
	<node lat="59.48648333084369" lon="9.053705547521293" id="-25525">
		<tag k="name" v="Lykkja" />
		<tag k="place" v="locality" />
		<tag k="ssr:stedsnr" v="695716" />
	</node>
	<node lat="59.38613889278416" lon="8.93391111580897" id="-25526">
		<tag k="fixme" v="consider natural=peak for the most distinct mountains in the district" />
		<tag k="name" v="Tveitskornuten" />
		<tag k="natural" v="hill" />
		<tag k="place" v="locality" />
		<tag k="ssr:stedsnr" v="696003" />
	</node>
	<node lat="59.3871888874289" lon="8.921486116733414" id="-25527">
		<tag k="name" v="Marikollskarva" />
		<tag k="natural" v="hill" />
		<tag k="place" v="locality" />
		<tag k="ssr:stedsnr" v="696015" />
	</node>
	<node lat="59.395869441323455" lon="8.916730557550807" id="-25528">
		<tag k="name" v="Røyrdalen" />
		<tag k="natural" v="valley" />
		<tag k="place" v="locality" />
		<tag k="ssr:stedsnr" v="696018" />
	</node>
	<node lat="59.44067500061094" lon="8.877152770823608" id="-25531">
		<tag k="fixme" v="consider natural=peak for the most distinct mountains in the district" />
		<tag k="name" v="Mastedalsåsen" />
		<tag k="natural" v="hill" />
		<tag k="place" v="locality" />
		<tag k="ssr:stedsnr" v="696868" />
	</node>
	<node lat="59.45952777765122" lon="9.242050007889143" id="-25533">
		<tag k="name" v="Sud-Lienn" />
		<tag k="natural" v="slope" />
		<tag k="place" v="locality" />
		<tag k="ssr:stedsnr" v="710207" />
	</node>
	<node lat="59.42582777808964" lon="9.218511117064686" id="-25535">
		<tag k="name" v="Ringstulliene" />
		<tag k="natural" v="slope" />
		<tag k="place" v="locality" />
		<tag k="ssr:stedsnr" v="710478" />
	</node>
	<node lat="59.3572805571754" lon="9.342886108908674" id="-25536">
		<tag k="name" v="Mjågetjønnliene" />
		<tag k="natural" v="slope" />
		<tag k="place" v="locality" />
		<tag k="ssr:stedsnr" v="710479" />
	</node>
	<node lat="59.4625194485366" lon="9.310558328474713" id="-25541">
		<tag k="fixme" v="consider natural=peak for the most distinct mountains in the district" />
		<tag k="name" v="Helsåsen" />
		<tag k="natural" v="hill" />
		<tag k="place" v="locality" />
		<tag k="ssr:stedsnr" v="711023" />
	</node>
	<node lat="59.331074998208074" lon="9.20549999951211" id="-25546">
		<tag k="name" v="Kåsindalen" />
		<tag k="natural" v="valley" />
		<tag k="place" v="locality" />
		<tag k="ssr:stedsnr" v="711145" />
	</node>
	<node lat="59.34120555998966" lon="9.169855553919602" id="-25547">
		<tag k="fixme" v="consider natural=peak for the most distinct mountains in the district" />
		<tag k="name" v="Gangsjå-åsen" />
		<tag k="natural" v="hill" />
		<tag k="place" v="locality" />
		<tag k="ssr:stedsnr" v="711154" />
	</node>
	<node lat="59.470277775635296" lon="9.271077774449989" id="-25548">
		<tag k="fixme" v="consider natural=peak for the most distinct mountains in the district" />
		<tag k="name" v="Bakke-åsene" />
		<tag k="natural" v="hill" />
		<tag k="place" v="locality" />
		<tag k="ssr:stedsnr" v="711228" />
	</node>
	<node lat="59.373516666227616" lon="9.302105562632073" id="-25554">
		<tag k="name" v="Bånetjønn-dalen" />
		<tag k="natural" v="valley" />
		<tag k="place" v="locality" />
		<tag k="ssr:stedsnr" v="711334" />
	</node>
	<node lat="59.43559722400986" lon="9.194902779157246" id="-25567">
		<tag k="fixme" v="consider natural=peak for the most distinct mountains in the district" />
		<tag k="name" v="Skåråfjell" />
		<tag k="natural" v="hill" />
		<tag k="place" v="locality" />
		<tag k="ssr:stedsnr" v="730424" />
	</node>
	<node lat="59.44508611179866" lon="9.133080551263467" id="-25570">
		<tag k="name" v="Barlinddalen" />
		<tag k="natural" v="valley" />
		<tag k="place" v="locality" />
		<tag k="ssr:stedsnr" v="730483" />
	</node>
	<node lat="59.47684444149356" lon="8.96042500415796" id="-25572">
		<tag k="fixme" v="consider natural=peak for the most distinct mountains in the district" />
		<tag k="name" v="Falkefjellåsane" />
		<tag k="natural" v="hill" />
		<tag k="place" v="locality" />
		<tag k="ssr:stedsnr" v="730667" />
	</node>
	<node lat="59.38247222286092" lon="8.966544440183615" id="-25581">
		<tag k="name" v="Langedalsfjellet" />
		<tag k="place" v="locality" />
		<tag k="ssr:stedsnr" v="752059" />
	</node>
	<node lat="59.420711110319985" lon="8.961172216113095" id="-25587">
		<tag k="name" v="Tjyruhjelldokka" />
		<tag k="natural" v="valley" />
		<tag k="place" v="locality" />
		<tag k="ssr:stedsnr" v="754103" />
	</node>
	<node lat="59.47121666497305" lon="9.117213894627735" id="-25595">
		<tag k="name" v="Dyneberga" />
		<tag k="natural" v="hill" />
		<tag k="place" v="locality" />
		<tag k="ssr:stedsnr" v="754499" />
	</node>
	<node lat="59.45247777884357" lon="9.123033338568494" id="-25597">
		<tag k="name" v="Lauvvikberga" />
		<tag k="natural" v="hill" />
		<tag k="place" v="locality" />
		<tag k="ssr:stedsnr" v="754921" />
	</node>
	<node lat="59.47403888839326" lon="9.012725004165675" id="-25605">
		<tag k="name" v="Kalveliane" />
		<tag k="natural" v="slope" />
		<tag k="place" v="locality" />
		<tag k="ssr:stedsnr" v="756505" />
	</node>
	<node lat="59.436799997060774" lon="8.871316658372594" id="-25606">
		<tag k="name" v="Kloppmoen" />
		<tag k="place" v="locality" />
		<tag k="ssr:stedsnr" v="756912" />
	</node>
	<node lat="59.507405558170646" lon="9.272486119164563" id="-25609">
		<tag k="fixme" v="consider natural=peak for the most distinct mountains in the district" />
		<tag k="name" v="Høgsrud-åsen" />
		<tag k="natural" v="hill" />
		<tag k="place" v="locality" />
		<tag k="ssr:stedsnr" v="771016" />
	</node>
	<node lat="59.48473333407263" lon="9.46494443905875" id="-25611">
		<tag k="name" v="Vesle Vardefjell" />
		<tag k="natural" v="hill" />
		<tag k="place" v="locality" />
		<tag k="ssr:stedsnr" v="771055" />
	</node>
	<node lat="59.350405557735705" lon="9.137916671817417" id="-25612">
		<tag k="name" v="Steinstolen" />
		<tag k="place" v="locality" />
		<tag k="ssr:stedsnr" v="771158" />
	</node>
	<node lat="59.41776388851341" lon="9.35455555590688" id="-25613">
		<tag k="name" v="Børtevassdalen" />
		<tag k="natural" v="valley" />
		<tag k="place" v="locality" />
		<tag k="ssr:stedsnr" v="771363" />
	</node>
	<node lat="59.44638889106122" lon="9.345463892308342" id="-25616">
		<tag k="name" v="Grotmol-dalen" />
		<tag k="natural" v="valley" />
		<tag k="place" v="locality" />
		<tag k="ssr:stedsnr" v="771713" />
	</node>
	<node lat="59.44103611349011" lon="9.15978333681732" id="-25617">
		<tag k="fixme" v="consider natural=peak for the most distinct mountains in the district" />
		<tag k="name" v="Tveithaugene" />
		<tag k="natural" v="hill" />
		<tag k="place" v="locality" />
		<tag k="ssr:stedsnr" v="771604" />
	</node>
	<node lat="59.433041665941964" lon="9.3401888814312" id="-25619">
		<tag k="name" v="Jutulstolen" />
		<tag k="place" v="locality" />
		<tag k="ssr:stedsnr" v="771910" />
	</node>
	<node lat="59.43616110794766" lon="9.329752780121797" id="-25623">
		<tag k="name" v="Åsdalen" />
		<tag k="natural" v="valley" />
		<tag k="place" v="locality" />
		<tag k="ssr:stedsnr" v="772512" />
	</node>
	<node lat="59.374458330538815" lon="9.13324444279164" id="-25630">
		<tag k="name" v="Hestmyrdalen" />
		<tag k="natural" v="valley" />
		<tag k="place" v="locality" />
		<tag k="ssr:stedsnr" v="791322" />
	</node>
	<node lat="59.40195833436846" lon="9.091502779817576" id="-25636">
		<tag k="name" v="Sandbakkdalane" />
		<tag k="natural" v="valley" />
		<tag k="place" v="locality" />
		<tag k="ssr:stedsnr" v="791344" />
	</node>
	<node lat="59.48651111091324" lon="8.775013891420345" id="-25638">
		<tag k="name" v="Lifjell" />
		<tag k="natural" v="mountain_range" />
		<tag k="ssr:stedsnr" v="791041" />
	</node>
	<node lat="59.36486666913803" lon="8.983197216649472" id="-25640">
		<tag k="fixme" v="consider natural=peak for the most distinct mountains in the district" />
		<tag k="name" v="Gygrestolfjellet" />
		<tag k="natural" v="hill" />
		<tag k="place" v="locality" />
		<tag k="ssr:stedsnr" v="791294" />
	</node>
	<node lat="59.48257778197759" lon="9.00261111248231" id="-25644">
		<tag k="name" v="Krintokleiva" />
		<tag k="natural" v="valley" />
		<tag k="place" v="locality" />
		<tag k="ssr:stedsnr" v="791587" />
	</node>
	<node lat="59.481394448673235" lon="8.970661113892536" id="-25646">
		<tag k="alt_name" v="Okslagjuvet" />
		<tag k="name" v="Okslajuvet" />
		<tag k="natural" v="gorge" />
		<tag k="ssr:stedsnr" v="791596" />
	</node>
	<node lat="59.43231111157268" lon="9.228988883489249" id="-25654">
		<tag k="alt_name" v="Poll-nutane" />
		<tag k="fixme" v="consider natural=peak for the most distinct mountains in the district" />
		<tag k="name" v="Politinutane" />
		<tag k="natural" v="hill" />
		<tag k="place" v="locality" />
		<tag k="ssr:stedsnr" v="791948" />
	</node>
	<node lat="59.408394446610124" lon="9.191083328361383" id="-25658">
		<tag k="alt_name" v="Otersdalen" />
		<tag k="name" v="Oterdalen" />
		<tag k="natural" v="valley" />
		<tag k="place" v="locality" />
		<tag k="ssr:stedsnr" v="912363" />
	</node>
	<node lat="59.452186113079364" lon="9.144680560643184" id="-25664">
		<tag k="alt_name" v="Flogått" />
		<tag k="fixme" v="consider natural=peak for the most distinct mountains in the district" />
		<tag k="name" v="Askiltfjellet" />
		<tag k="natural" v="hill" />
		<tag k="place" v="locality" />
		<tag k="ssr:stedsnr" v="912468" />
	</node>
	<node lat="59.44095555431324" lon="9.140188886688886" id="-25665">
		<tag k="name" v="Grønlia" />
		<tag k="natural" v="slope" />
		<tag k="place" v="locality" />
		<tag k="ssr:stedsnr" v="912482" />
	</node>
	<node lat="59.39611389315623" lon="8.852255553170197" id="-25669">
		<tag k="alt_name" v="Fjellet" />
		<tag k="fixme" v="consider natural=peak for the most distinct mountains in the district" />
		<tag k="name" v="Rugbølfjellet" />
		<tag k="natural" v="hill" />
		<tag k="place" v="locality" />
		<tag k="ssr:stedsnr" v="912763" />
	</node>
	<node lat="59.42691111447668" lon="9.358686115635457" id="-25671">
		<tag k="alt_name" v="Kåsahaugane" />
		<tag k="name" v="Kåsahøgdin" />
		<tag k="natural" v="hill" />
		<tag k="place" v="locality" />
		<tag k="ssr:stedsnr" v="912959" />
	</node>
	<node lat="59.4529583327832" lon="9.29957499165724" id="-25673">
		<tag k="alt_name" v="Nonsnatten" />
		<tag k="name" v="Nonsknatten" />
		<tag k="natural" v="hill" />
		<tag k="place" v="locality" />
		<tag k="ssr:stedsnr" v="913009" />
	</node>
	<node lat="59.418741666611744" lon="8.957899994164773" id="-25698">
		<tag k="name" v="Geiteholet" />
		<tag k="natural" v="valley" />
		<tag k="place" v="locality" />
		<tag k="ssr:stedsnr" v="814084" />
	</node>
	<node lat="59.405144446880506" lon="9.034222219548301" id="-25699">
		<tag k="fixme" v="consider natural=peak for the most distinct mountains in the district" />
		<tag k="name" v="Molandsåsen" />
		<tag k="natural" v="hill" />
		<tag k="place" v="locality" />
		<tag k="ssr:stedsnr" v="814303" />
	</node>
	<node lat="59.4243500001444" lon="9.077275003274144" id="-25706">
		<tag k="name" v="Ågetveitjuva" />
		<tag k="natural" v="gorge" />
		<tag k="ssr:stedsnr" v="815229" />
	</node>
	<node lat="59.39104166949398" lon="9.00833334172226" id="-25707">
		<tag k="name" v="Hasleliane" />
		<tag k="natural" v="slope" />
		<tag k="place" v="locality" />
		<tag k="ssr:stedsnr" v="815320" />
	</node>
	<node lat="59.51583333598152" lon="9.056152784156835" id="-25708">
		<tag k="name" v="Blåtjønndalen" />
		<tag k="natural" v="valley" />
		<tag k="place" v="locality" />
		<tag k="ssr:stedsnr" v="815527" />
	</node>
	<node lat="59.49705000093333" lon="9.033713892304172" id="-25710">
		<tag k="name" v="Goddal" />
		<tag k="natural" v="valley" />
		<tag k="place" v="locality" />
		<tag k="ssr:stedsnr" v="816611" />
	</node>
	<node lat="59.38958611395257" lon="8.916824994620267" id="-25711">
		<tag k="fixme" v="consider natural=peak for the most distinct mountains in the district" />
		<tag k="name" v="Løyningåsane" />
		<tag k="natural" v="hill" />
		<tag k="place" v="locality" />
		<tag k="ssr:stedsnr" v="817011" />
	</node>
	<node lat="59.38271111042979" lon="8.911580557863315" id="-25713">
		<tag k="fixme" v="consider natural=peak for the most distinct mountains in the district" />
		<tag k="name" v="Storskott" />
		<tag k="natural" v="hill" />
		<tag k="place" v="locality" />
		<tag k="ssr:stedsnr" v="817026" />
	</node>
	<node lat="59.4680361089386" lon="9.133586111117078" id="-25717">
		<tag k="name" v="Sautjønnhaugane" />
		<tag k="natural" v="hill" />
		<tag k="place" v="locality" />
		<tag k="ssr:stedsnr" v="817924" />
	</node>
	<node lat="59.47281389215216" lon="8.94569721890515" id="-25718">
		<tag k="name" v="Geiteberget" />
		<tag k="natural" v="hill" />
		<tag k="place" v="locality" />
		<tag k="ssr:stedsnr" v="817926" />
	</node>
	<node lat="59.465366665039596" lon="8.942997217791588" id="-25719">
		<tag k="name" v="Langelia" />
		<tag k="natural" v="slope" />
		<tag k="place" v="locality" />
		<tag k="ssr:stedsnr" v="817933" />
	</node>
	<node lat="59.42713610689255" lon="8.847658342151973" id="-25720">
		<tag k="name" v="Skotmyrdalen" />
		<tag k="natural" v="valley" />
		<tag k="place" v="locality" />
		<tag k="ssr:stedsnr" v="817868" />
	</node>
	<node lat="59.46166944665256" lon="9.239916665366303" id="-25726">
		<tag k="name" v="Ørken" />
		<tag k="natural" v="slope" />
		<tag k="place" v="locality" />
		<tag k="ssr:stedsnr" v="832214" />
	</node>
	<node lat="59.43029722568689" lon="9.260077776041578" id="-25733">
		<tag k="name" v="Bakhol-liene" />
		<tag k="natural" v="slope" />
		<tag k="place" v="locality" />
		<tag k="ssr:stedsnr" v="832485" />
	</node>
	<node lat="59.42213333008357" lon="9.353625008490463" id="-25735">
		<tag k="fixme" v="consider natural=peak for the most distinct mountains in the district" />
		<tag k="name" v="Knipetang-åsene" />
		<tag k="natural" v="hill" />
		<tag k="place" v="locality" />
		<tag k="ssr:stedsnr" v="832682" />
	</node>
	<node lat="59.42733888828889" lon="9.390738891241249" id="-25737">
		<tag k="name" v="Langefonn" />
		<tag k="natural" v="ridge" />
		<tag k="place" v="locality" />
		<tag k="ssr:stedsnr" v="832700" />
	</node>
	<node lat="59.468552778911445" lon="9.334380561776877" id="-25741">
		<tag k="name" v="Slett-Havrås" />
		<tag k="natural" v="ridge" />
		<tag k="place" v="locality" />
		<tag k="ssr:stedsnr" v="832995" />
	</node>
	<node lat="59.34596388839587" lon="9.277725002171342" id="-25743">
		<tag k="fixme" v="consider natural=peak for the most distinct mountains in the district" />
		<tag k="name" v="Korpenatten" />
		<tag k="natural" v="hill" />
		<tag k="place" v="locality" />
		<tag k="ssr:stedsnr" v="832896" />
	</node>
	<node lat="59.482788889641306" lon="9.248602786348018" id="-25749">
		<tag k="name" v="Roestul-liene" />
		<tag k="natural" v="slope" />
		<tag k="place" v="locality" />
		<tag k="ssr:stedsnr" v="833208" />
	</node>
	<node lat="59.36198055707821" lon="9.319997225682249" id="-25753">
		<tag k="name" v="Barlindskotet" />
		<tag k="natural" v="cliff" />
		<tag k="ssr:stedsnr" v="833306" />
	</node>
	<node lat="59.35541666440239" lon="9.289611107552373" id="-25754">
		<tag k="name" v="Haukvikseterfjell" />
		<tag k="natural" v="hill" />
		<tag k="place" v="locality" />
		<tag k="ssr:stedsnr" v="833310" />
	</node>
	<node lat="59.46147777619566" lon="9.357697219677952" id="-25759">
		<tag k="fixme" v="consider natural=peak for the most distinct mountains in the district" />
		<tag k="name" v="Siljuåsen" />
		<tag k="natural" v="hill" />
		<tag k="place" v="locality" />
		<tag k="ssr:stedsnr" v="852008" />
	</node>
	<node lat="59.35024444714109" lon="9.174158333393889" id="-25760">
		<tag k="alt_name" v="Deilkollen" />
		<tag k="name" v="Deildkollen" />
		<tag k="natural" v="hill" />
		<tag k="place" v="locality" />
		<tag k="ssr:stedsnr" v="852273" />
	</node>
	<node lat="59.46723610830248" lon="9.015966674761021" id="-25762">
		<tag k="name" v="Vårbulia" />
		<tag k="natural" v="slope" />
		<tag k="place" v="locality" />
		<tag k="ssr:stedsnr" v="852471" />
	</node>
	<node lat="59.44758611558767" lon="8.928011118741596" id="-25763">
		<tag k="name" v="Skålbuhaugane" />
		<tag k="natural" v="hill" />
		<tag k="place" v="locality" />
		<tag k="ssr:stedsnr" v="852475" />
	</node>
	<node lat="59.45135833363448" lon="8.995783336288085" id="-25764">
		<tag k="alt_name" v="Geitskonatten" />
		<tag k="fixme" v="consider natural=peak for the most distinct mountains in the district" />
		<tag k="name" v="Geitskornatten" />
		<tag k="natural" v="hill" />
		<tag k="place" v="locality" />
		<tag k="ssr:stedsnr" v="852477" />
	</node>
	<node lat="59.39978611087696" lon="8.99642500125477" id="-25769">
		<tag k="fixme" v="consider natural=peak for the most distinct mountains in the district" />
		<tag k="name" v="Bruskor" />
		<tag k="natural" v="hill" />
		<tag k="place" v="locality" />
		<tag k="ssr:stedsnr" v="852368" />
	</node>
	<node lat="59.397002780810624" lon="9.005722230215232" id="-25770">
		<tag k="alt_name" v="Høylassnuten" />
		<tag k="fixme" v="consider natural=peak for the most distinct mountains in the district" />
		<tag k="name" v="Høyslassnuten" />
		<tag k="natural" v="hill" />
		<tag k="place" v="locality" />
		<tag k="ssr:stedsnr" v="852370" />
	</node>
	<node lat="59.53455277717114" lon="9.022275008546766" id="-25771">
		<tag k="fixme" v="consider natural=peak for the most distinct mountains in the district" />
		<tag k="name" v="Blåfjell" />
		<tag k="natural" v="hill" />
		<tag k="place" v="locality" />
		<tag k="ssr:stedsnr" v="852377" />
	</node>
	<node lat="59.48647222334538" lon="8.932483337936876" id="-25774">
		<tag k="name" v="Valgjuvet" />
		<tag k="natural" v="valley" />
		<tag k="place" v="locality" />
		<tag k="ssr:stedsnr" v="852560" />
	</node>
	<node lat="59.40605278210987" lon="8.926747226597781" id="-25791">
		<tag k="name" v="Kleivadalen" />
		<tag k="natural" v="valley" />
		<tag k="place" v="locality" />
		<tag k="ssr:stedsnr" v="876119" />
	</node>
	<node lat="59.38356388521048" lon="9.017463882976642" id="-25794">
		<tag k="name" v="Mastedalen" />
		<tag k="natural" v="valley" />
		<tag k="place" v="locality" />
		<tag k="ssr:stedsnr" v="876321" />
	</node>
	<node lat="59.40682222301825" lon="9.050680550361493" id="-25796">
		<tag k="name" v="Nigardsdalen" />
		<tag k="natural" v="valley" />
		<tag k="place" v="locality" />
		<tag k="ssr:stedsnr" v="876267" />
	</node>
	<node lat="59.50825000153013" lon="9.036188893116952" id="-25798">
		<tag k="name" v="Badstudalen" />
		<tag k="natural" v="valley" />
		<tag k="place" v="locality" />
		<tag k="ssr:stedsnr" v="876604" />
	</node>
	<node lat="59.512633333638604" lon="9.019105547908408" id="-25799">
		<tag k="fixme" v="consider natural=peak for the most distinct mountains in the district" />
		<tag k="name" v="Refshaug" />
		<tag k="natural" v="hill" />
		<tag k="place" v="locality" />
		<tag k="ssr:stedsnr" v="876601" />
	</node>
	<node lat="59.426113886123275" lon="8.967288883655355" id="-25801">
		<tag k="name" v="Stulskor" />
		<tag k="place" v="locality" />
		<tag k="ssr:stedsnr" v="877854" />
	</node>
	<node lat="59.42796666443976" lon="8.958319452636967" id="-25802">
		<tag k="fixme" v="consider natural=peak for the most distinct mountains in the district" />
		<tag k="name" v="Stegatoppen" />
		<tag k="natural" v="hill" />
		<tag k="place" v="locality" />
		<tag k="ssr:stedsnr" v="877859" />
	</node>
	<node lat="59.38395833311743" lon="8.93366389497453" id="-25805">
		<tag k="name" v="Styggedal" />
		<tag k="natural" v="valley" />
		<tag k="place" v="locality" />
		<tag k="ssr:stedsnr" v="878010" />
	</node>
	<node lat="59.38640555992503" lon="8.899372217300547" id="-25806">
		<tag k="name" v="Ramsåsmoen" />
		<tag k="place" v="locality" />
		<tag k="ssr:stedsnr" v="878016" />
	</node>
	<node lat="59.38394721859361" lon="8.942938887154941" id="-25807">
		<tag k="fixme" v="consider natural=peak for the most distinct mountains in the district" />
		<tag k="name" v="Sommarfjosåsen" />
		<tag k="natural" v="hill" />
		<tag k="place" v="locality" />
		<tag k="ssr:stedsnr" v="878257" />
	</node>
	<node lat="59.42858333105054" lon="8.884186103010336" id="-25810">
		<tag k="name" v="Herremo" />
		<tag k="place" v="locality" />
		<tag k="ssr:stedsnr" v="878861" />
	</node>
	<node lat="59.44090833228412" lon="8.963347218704094" id="-25811">
		<tag k="name" v="Krossdalane" />
		<tag k="natural" v="valley" />
		<tag k="place" v="locality" />
		<tag k="ssr:stedsnr" v="878865" />
	</node>
	<node lat="59.38093888978317" lon="8.880480558020563" id="-25812">
		<tag k="fixme" v="consider natural=peak for the most distinct mountains in the district" />
		<tag k="name" v="Ormetjønnheia" />
		<tag k="natural" v="hill" />
		<tag k="place" v="locality" />
		<tag k="ssr:stedsnr" v="934153" />
	</node>
	<node lat="59.38571111236808" lon="8.88100833189184" id="-25813">
		<tag k="name" v="Ramsåsskorra" />
		<tag k="place" v="locality" />
		<tag k="ssr:stedsnr" v="934158" />
	</node>
	<node lat="59.329149996276875" lon="9.210616661732741" id="-25815">
		<tag k="fixme" v="consider natural=peak for the most distinct mountains in the district" />
		<tag k="name" v="Skjenås" />
		<tag k="natural" v="hill" />
		<tag k="place" v="locality" />
		<tag k="ssr:stedsnr" v="893116" />
	</node>
	<node lat="59.45321666986937" lon="9.249244436480218" id="-25818">
		<tag k="fixme" v="consider natural=peak for the most distinct mountains in the district" />
		<tag k="name" v="Gvantjønn-åsene" />
		<tag k="natural" v="hill" />
		<tag k="place" v="locality" />
		<tag k="ssr:stedsnr" v="893158" />
	</node>
	<node lat="59.4772861093272" lon="9.195316666632058" id="-25820">
		<tag k="name" v="Klybbestul-liene" />
		<tag k="natural" v="slope" />
		<tag k="place" v="locality" />
		<tag k="ssr:stedsnr" v="893166" />
	</node>
	<node lat="59.489155554923634" lon="9.229172225113572" id="-25822">
		<tag k="name" v="Svarttjønn-hova" />
		<tag k="natural" v="hill" />
		<tag k="place" v="locality" />
		<tag k="ssr:stedsnr" v="893065" />
	</node>
	<node lat="59.467997220984465" lon="9.200738888870916" id="-25829">
		<tag k="name" v="Nybu-liene" />
		<tag k="natural" v="slope" />
		<tag k="place" v="locality" />
		<tag k="ssr:stedsnr" v="893262" />
	</node>
	<node lat="59.36318610970507" lon="9.3118527792542" id="-25831">
		<tag k="fixme" v="consider natural=peak for the most distinct mountains in the district" />
		<tag k="name" v="Mannbeinfjell" />
		<tag k="natural" v="hill" />
		<tag k="place" v="locality" />
		<tag k="ssr:stedsnr" v="893264" />
	</node>
	<node lat="59.47451110923151" lon="9.308416665687146" id="-25838">
		<tag k="name" v="Kongshem-berga" />
		<tag k="place" v="locality" />
		<tag k="ssr:stedsnr" v="893515" />
	</node>
	<node lat="59.35959722153523" lon="9.357702771277847" id="-25845">
		<tag k="name" v="Høymyrdalen" />
		<tag k="natural" v="valley" />
		<tag k="place" v="locality" />
		<tag k="ssr:stedsnr" v="893461" />
	</node>
	<node lat="59.42320555627841" lon="9.386741673178431" id="-25848">
		<tag k="name" v="Einarhaugen" />
		<tag k="natural" v="hill" />
		<tag k="place" v="locality" />
		<tag k="ssr:stedsnr" v="893666" />
	</node>
	<node lat="59.349061108032515" lon="9.277772219064719" id="-25849">
		<tag k="fixme" v="consider natural=peak for the most distinct mountains in the district" />
		<tag k="name" v="Damtjønn-natten" />
		<tag k="natural" v="hill" />
		<tag k="place" v="locality" />
		<tag k="ssr:stedsnr" v="893908" />
	</node>
	<node lat="59.47121388668973" lon="9.33988888615336" id="-25851">
		<tag k="fixme" v="consider natural=peak for the most distinct mountains in the district" />
		<tag k="name" v="Svartås" />
		<tag k="natural" v="hill" />
		<tag k="place" v="locality" />
		<tag k="ssr:stedsnr" v="893975" />
	</node>
	<node lat="59.35960833441666" lon="8.937247217663678" id="-25854">
		<tag k="name" v="Hestedalane" />
		<tag k="natural" v="valley" />
		<tag k="place" v="locality" />
		<tag k="ssr:stedsnr" v="912316" />
	</node>
	<node lat="59.40669166537461" lon="8.90619167292954" id="-25855">
		<tag k="fixme" v="consider natural=peak for the most distinct mountains in the district" />
		<tag k="name" v="Graveåsen" />
		<tag k="natural" v="hill" />
		<tag k="place" v="locality" />
		<tag k="ssr:stedsnr" v="912410" />
	</node>
	<node lat="59.408802780246475" lon="8.890822224359235" id="-25856">
		<tag k="name" v="Gravedalen" />
		<tag k="natural" v="valley" />
		<tag k="place" v="locality" />
		<tag k="ssr:stedsnr" v="912415" />
	</node>
	<node lat="59.43898055390208" lon="9.077658328947596" id="-25858">
		<tag k="name" v="Myramoen" />
		<tag k="place" v="locality" />
		<tag k="ssr:stedsnr" v="912488" />
	</node>
	<node lat="59.393516668082285" lon="8.973597228810585" id="-25869">
		<tag k="fixme" v="consider natural=peak for the most distinct mountains in the district" />
		<tag k="name" v="Tiurkollen" />
		<tag k="natural" v="hill" />
		<tag k="place" v="locality" />
		<tag k="ssr:stedsnr" v="935051" />
	</node>
	<node lat="59.430697222283904" lon="9.09932222746023" id="-25872">
		<tag k="name" v="Djupegrop" />
		<tag k="natural" v="valley" />
		<tag k="place" v="locality" />
		<tag k="ssr:stedsnr" v="936207" />
	</node>
	<node lat="59.37514722233701" lon="8.964677778844061" id="-25877">
		<tag k="name" v="Galtekleiv" />
		<tag k="natural" v="hill" />
		<tag k="place" v="locality" />
		<tag k="ssr:stedsnr" v="936444" />
	</node>
	<node lat="59.40438889244484" lon="8.936547215971453" id="-25883">
		<tag k="name" v="Ronningkåsberga" />
		<tag k="natural" v="hill" />
		<tag k="place" v="locality" />
		<tag k="ssr:stedsnr" v="937156" />
	</node>
	<node lat="59.450527776252756" lon="9.090888896057573" id="-25884">
		<tag k="fixme" v="consider natural=peak for the most distinct mountains in the district" />
		<tag k="name" v="Folkestadåsane" />
		<tag k="natural" v="hill" />
		<tag k="place" v="locality" />
		<tag k="ssr:stedsnr" v="937307" />
	</node>
	<node lat="59.37394722115092" lon="8.899199992677998" id="-25888">
		<tag k="name" v="Bjortjønnleiken" />
		<tag k="natural" v="slope" />
		<tag k="place" v="locality" />
		<tag k="ssr:stedsnr" v="938043" />
	</node>
	<node lat="59.458575002014456" lon="9.019669450051152" id="-25889">
		<tag k="name" v="Grindeberget" />
		<tag k="natural" v="hill" />
		<tag k="place" v="locality" />
		<tag k="ssr:stedsnr" v="938045" />
	</node>
	<node lat="59.48212221780377" lon="8.956172223901362" id="-25891">
		<tag k="name" v="Hellesdalen" />
		<tag k="natural" v="valley" />
		<tag k="place" v="locality" />
		<tag k="ssr:stedsnr" v="938639" />
	</node>
	<node lat="59.48189166903789" lon="8.991938885486649" id="-25892">
		<tag k="name" v="Okslastandar" />
		<tag k="natural" v="hill" />
		<tag k="place" v="locality" />
		<tag k="ssr:stedsnr" v="938646" />
	</node>
	<node lat="59.4258888931071" lon="8.959394436615522" id="-25893">
		<tag k="name" v="Hurromskorra" />
		<tag k="place" v="locality" />
		<tag k="ssr:stedsnr" v="938837" />
	</node>
	<node lat="59.465730556425704" lon="8.924819448448952" id="-25895">
		<tag k="name" v="Oterholtjuva" />
		<tag k="natural" v="gorge" />
		<tag k="ssr:stedsnr" v="938907" />
	</node>
	<node lat="59.477083336873115" lon="9.168086112914487" id="-25897">
		<tag k="name" v="Svarttjønndalen" />
		<tag k="natural" v="valley" />
		<tag k="place" v="locality" />
		<tag k="ssr:stedsnr" v="938933" />
	</node>
	<node lat="59.48171388496941" lon="9.292236111823497" id="-25903">
		<tag k="fixme" v="consider natural=peak for the most distinct mountains in the district" />
		<tag k="name" v="Hvitås" />
		<tag k="natural" v="hill" />
		<tag k="place" v="locality" />
		<tag k="ssr:stedsnr" v="953614" />
	</node>
	<node lat="59.42577777916305" lon="9.345358338130756" id="-25904">
		<tag k="name" v="Hanekollen" />
		<tag k="natural" v="hill" />
		<tag k="place" v="locality" />
		<tag k="ssr:stedsnr" v="953694" />
	</node>
	<node lat="59.43445278076011" lon="9.352125003206968" id="-25905">
		<tag k="fixme" v="consider natural=peak for the most distinct mountains in the district" />
		<tag k="name" v="Askemyråsen" />
		<tag k="natural" v="hill" />
		<tag k="place" v="locality" />
		<tag k="ssr:stedsnr" v="953701" />
	</node>
	<node lat="59.44466110691759" lon="9.299174999041199" id="-25908">
		<tag k="fixme" v="consider natural=peak for the most distinct mountains in the district" />
		<tag k="name" v="Geitebunatten" />
		<tag k="natural" v="hill" />
		<tag k="place" v="locality" />
		<tag k="ssr:stedsnr" v="954007" />
	</node>
	<node lat="59.47989444617818" lon="9.238294443564934" id="-25909">
		<tag k="name" v="Tjyruhjellen" />
		<tag k="place" v="locality" />
		<tag k="ssr:stedsnr" v="954192" />
	</node>
	<node lat="59.44601111189226" lon="9.222477775476449" id="-25912">
		<tag k="name" v="Heståskollen" />
		<tag k="natural" v="hill" />
		<tag k="place" v="locality" />
		<tag k="ssr:stedsnr" v="954351" />
	</node>
	<node lat="59.43397222188478" lon="9.301497214589034" id="-25913">
		<tag k="name" v="Rennefet" />
		<tag k="natural" v="slope" />
		<tag k="place" v="locality" />
		<tag k="ssr:stedsnr" v="954503" />
	</node>
	<node lat="59.431261115489136" lon="9.336966671990787" id="-25917">
		<tag k="name" v="Høgemo" />
		<tag k="place" v="locality" />
		<tag k="ssr:stedsnr" v="954589" />
	</node>
	<node lat="59.34444722485739" lon="9.14954721921713" id="-25948">
		<tag k="name" v="Røysetfjelldalen" />
		<tag k="natural" v="valley" />
		<tag k="place" v="locality" />
		<tag k="ssr:stedsnr" v="2251" />
	</node>
	<node lat="59.36005555516508" lon="9.147841662010242" id="-25949">
		<tag k="alt_name" v="Einlifjell" />
		<tag k="fixme" v="consider natural=peak for the most distinct mountains in the district" />
		<tag k="name" v="Einlifjellet" />
		<tag k="natural" v="hill" />
		<tag k="place" v="locality" />
		<tag k="ssr:stedsnr" v="2254" />
	</node>
	<node lat="59.39818333478656" lon="8.937008333167732" id="-25952">
		<tag k="fixme" v="consider natural=peak for the most distinct mountains in the district" />
		<tag k="name" v="Skrivaråsane" />
		<tag k="natural" v="hill" />
		<tag k="place" v="locality" />
		<tag k="ssr:stedsnr" v="2385" />
	</node>
	<node lat="59.43287499720032" lon="9.111669452659171" id="-25955">
		<tag k="name" v="Åsekollen" />
		<tag k="natural" v="hill" />
		<tag k="place" v="locality" />
		<tag k="ssr:stedsnr" v="2441" />
	</node>
	<node lat="59.4401666707192" lon="8.96631388614543" id="-25958">
		<tag k="fixme" v="consider natural=peak for the most distinct mountains in the district" />
		<tag k="name" v="Bryggefjellnuten" />
		<tag k="natural" v="hill" />
		<tag k="place" v="locality" />
		<tag k="ssr:stedsnr" v="2466" />
	</node>
	<node lat="59.45445277349997" lon="9.207466665957437" id="-25959">
		<tag k="alt_name" v="Svarttjørnåsen" />
		<tag k="fixme" v="consider natural=peak for the most distinct mountains in the district" />
		<tag k="name" v="Svartetjønnåsen" />
		<tag k="natural" v="hill" />
		<tag k="place" v="locality" />
		<tag k="ssr:stedsnr" v="2472" />
	</node>
	<node lat="59.47368333370848" lon="9.125683326791027" id="-25960">
		<tag k="name" v="Vermelifjellet" />
		<tag k="place" v="locality" />
		<tag k="ssr:stedsnr" v="2614" />
	</node>
	<node lat="59.480466668642194" lon="9.121666675033598" id="-25961">
		<tag k="alt_name" v="Staskleivåsane" />
		<tag k="fixme" v="consider natural=peak for the most distinct mountains in the district" />
		<tag k="name" v="Stadskleivåsane" />
		<tag k="natural" v="hill" />
		<tag k="place" v="locality" />
		<tag k="ssr:stedsnr" v="2615" />
	</node>
	<node lat="59.48080833587981" lon="8.983608327977665" id="-25962">
		<tag k="fixme" v="consider natural=peak for the most distinct mountains in the district" />
		<tag k="name" v="Anebunatten" />
		<tag k="natural" v="hill" />
		<tag k="place" v="locality" />
		<tag k="ssr:stedsnr" v="2621" />
	</node>
	<node lat="59.375222219303964" lon="8.92780833887406" id="-25963">
		<tag k="alt_name" v="Snelikleivnuten" />
		<tag k="fixme" v="consider natural=peak for the most distinct mountains in the district" />
		<tag k="name" v="Snellkleivnuten" />
		<tag k="natural" v="hill" />
		<tag k="place" v="locality" />
		<tag k="ssr:stedsnr" v="2359" />
	</node>
	<node lat="59.4716166623652" lon="9.132552781404929" id="-25966">
		<tag k="name" v="Stulsdalen" />
		<tag k="natural" v="valley" />
		<tag k="place" v="locality" />
		<tag k="ssr:stedsnr" v="2504" />
	</node>
	<node lat="59.46164444365951" lon="9.05768054993005" id="-25969">
		<tag k="alt_name" v="Bjordalen" />
		<tag k="name" v="Revdalen" />
		<tag k="natural" v="valley" />
		<tag k="place" v="locality" />
		<tag k="ssr:stedsnr" v="2523" />
	</node>
	<node lat="59.40879166938442" lon="9.350830560416213" id="-25972">
		<tag k="alt_name" v="Krumleåsene" />
		<tag k="fixme" v="consider natural=peak for the most distinct mountains in the district" />
		<tag k="name" v="Krumleåsen" />
		<tag k="natural" v="hill" />
		<tag k="place" v="locality" />
		<tag k="ssr:stedsnr" v="2866" />
	</node>
	<node lat="59.3864916668025" lon="8.950686102312412" id="-25978">
		<tag k="name" v="Normannhaugliane" />
		<tag k="natural" v="slope" />
		<tag k="place" v="locality" />
		<tag k="ssr:stedsnr" v="24054" />
	</node>
	<node lat="59.38540000084412" lon="8.989911119606422" id="-25980">
		<tag k="fixme" v="consider natural=peak for the most distinct mountains in the district" />
		<tag k="name" v="Saltgravsåsen" />
		<tag k="natural" v="hill" />
		<tag k="place" v="locality" />
		<tag k="ssr:stedsnr" v="24068" />
	</node>
	<node lat="59.44668333408188" lon="9.053519443734265" id="-25981">
		<tag k="name" v="Eikamogane" />
		<tag k="place" v="locality" />
		<tag k="ssr:stedsnr" v="25035" />
	</node>
	<node lat="59.49098333241399" lon="9.091111114699084" id="-25987">
		<tag k="name" v="Gobledalen" />
		<tag k="natural" v="valley" />
		<tag k="place" v="locality" />
		<tag k="ssr:stedsnr" v="25561" />
	</node>
	<node lat="59.43743333529675" lon="9.10529721719436" id="-25992">
		<tag k="name" v="Tølløvsondalen" />
		<tag k="natural" v="valley" />
		<tag k="place" v="locality" />
		<tag k="ssr:stedsnr" v="26040" />
	</node>
	<node lat="59.418319446490095" lon="8.95324166654214" id="-25994">
		<tag k="name" v="Livskor" />
		<tag k="natural" v="slope" />
		<tag k="place" v="locality" />
		<tag k="ssr:stedsnr" v="26052" />
	</node>
	<node lat="59.41971111032677" lon="8.955361116606694" id="-25995">
		<tag k="name" v="Søtebakke" />
		<tag k="natural" v="valley" />
		<tag k="place" v="locality" />
		<tag k="ssr:stedsnr" v="26054" />
	</node>
	<node lat="59.407702781653505" lon="8.897844445940562" id="-25997">
		<tag k="name" v="Gravsdalen" />
		<tag k="natural" v="valley" />
		<tag k="place" v="locality" />
		<tag k="ssr:stedsnr" v="26148" />
	</node>
	<node lat="59.50477778223925" lon="9.007866674850218" id="-26002">
		<tag k="name" v="Kranslinnatten" />
		<tag k="place" v="locality" />
		<tag k="ssr:stedsnr" v="26518" />
	</node>
	<node lat="59.36722778174885" lon="8.962713890372095" id="-26004">
		<tag k="fixme" v="consider natural=peak for the most distinct mountains in the district" />
		<tag k="name" v="Fagerliåsane" />
		<tag k="natural" v="hill" />
		<tag k="place" v="locality" />
		<tag k="ssr:stedsnr" v="26464" />
	</node>
	<node lat="59.403852781838616" lon="9.091594452546886" id="-26007">
		<tag k="fixme" v="consider natural=peak for the most distinct mountains in the district" />
		<tag k="name" v="Liaåsen" />
		<tag k="natural" v="hill" />
		<tag k="place" v="locality" />
		<tag k="ssr:stedsnr" v="26645" />
	</node>
	<node lat="59.514719442195656" lon="9.0960888906714" id="-26009">
		<tag k="name" v="Kjæringdalen" />
		<tag k="natural" v="valley" />
		<tag k="place" v="locality" />
		<tag k="ssr:stedsnr" v="26728" />
	</node>
	<node lat="59.50915833559252" lon="9.149663886548884" id="-26011">
		<tag k="name" v="Svartufs" />
		<tag k="natural" v="cliff" />
		<tag k="ssr:stedsnr" v="26736" />
	</node>
	<node lat="59.46194722250866" lon="9.032766669284232" id="-26015">
		<tag k="name" v="Gapet" />
		<tag k="natural" v="valley" />
		<tag k="place" v="locality" />
		<tag k="ssr:stedsnr" v="27050" />
	</node>
	<node lat="59.5016305591811" lon="9.024461105619604" id="-26018">
		<tag k="name" v="Gjertnuten" />
		<tag k="natural" v="hill" />
		<tag k="place" v="locality" />
		<tag k="ssr:stedsnr" v="27596" />
	</node>
	<node lat="59.36241666656211" lon="8.909174994716661" id="-26022">
		<tag k="name" v="Løndalen" />
		<tag k="natural" v="valley" />
		<tag k="place" v="locality" />
		<tag k="ssr:stedsnr" v="28049" />
	</node>
	<node lat="59.388836112771656" lon="8.94375833693132" id="-26023">
		<tag k="fixme" v="consider natural=peak for the most distinct mountains in the district" />
		<tag k="name" v="Oredalsnuten" />
		<tag k="natural" v="hill" />
		<tag k="place" v="locality" />
		<tag k="ssr:stedsnr" v="28263" />
	</node>
	<node lat="59.47709721885439" lon="9.04224443991999" id="-26025">
		<tag k="name" v="Almedalen" />
		<tag k="natural" v="valley" />
		<tag k="place" v="locality" />
		<tag k="ssr:stedsnr" v="28516" />
	</node>
	<node lat="59.43873332933303" lon="8.989738882298232" id="-26028">
		<tag k="name" v="Dingdangkyrkja" />
		<tag k="place" v="locality" />
		<tag k="ssr:stedsnr" v="28883" />
	</node>
	<node lat="59.37541944244275" lon="9.318816673095332" id="-26033">
		<tag k="name" v="Fugleleik-haugene" />
		<tag k="natural" v="hill" />
		<tag k="place" v="locality" />
		<tag k="ssr:stedsnr" v="43250" />
	</node>
	<node lat="59.34343333077916" lon="9.295938882331761" id="-26034">
		<tag k="fixme" v="consider natural=peak for the most distinct mountains in the district" />
		<tag k="name" v="Kroktjønnåsen" />
		<tag k="natural" v="hill" />
		<tag k="place" v="locality" />
		<tag k="ssr:stedsnr" v="43262" />
	</node>
	<node lat="59.366655559360275" lon="9.14990000518983" id="-26036">
		<tag k="name" v="Bjørnlikollen" />
		<tag k="natural" v="hill" />
		<tag k="place" v="locality" />
		<tag k="ssr:stedsnr" v="43170" />
	</node>
	<node lat="59.390961113032844" lon="9.35791389026425" id="-26039">
		<tag k="name" v="Trengen" />
		<tag k="natural" v="valley" />
		<tag k="place" v="locality" />
		<tag k="ssr:stedsnr" v="43350" />
	</node>
	<node lat="59.32525833410403" lon="9.208344449537805" id="-26041">
		<tag k="fixme" v="consider natural=peak for the most distinct mountains in the district" />
		<tag k="name" v="Middagskollen" />
		<tag k="natural" v="hill" />
		<tag k="place" v="locality" />
		<tag k="ssr:stedsnr" v="44118" />
	</node>
	<node lat="59.489355559832475" lon="9.425233338081751" id="-26042">
		<tag k="name" v="Elgsfloget" />
		<tag k="place" v="locality" />
		<tag k="ssr:stedsnr" v="43406" />
	</node>
	<node lat="59.3631944451283" lon="9.350455555825892" id="-26044">
		<tag k="fixme" v="consider natural=peak for the most distinct mountains in the district" />
		<tag k="name" v="Stulsåsen" />
		<tag k="natural" v="hill" />
		<tag k="place" v="locality" />
		<tag k="ssr:stedsnr" v="43450" />
	</node>
	<node lat="59.436955555155706" lon="9.3523194396631" id="-26050">
		<tag k="fixme" v="consider natural=peak for the most distinct mountains in the district" />
		<tag k="name" v="Kløvja-åsen" />
		<tag k="natural" v="hill" />
		<tag k="place" v="locality" />
		<tag k="ssr:stedsnr" v="43663" />
	</node>
	<node lat="59.34766944587293" lon="9.259013893191488" id="-26052">
		<tag k="fixme" v="consider natural=peak for the most distinct mountains in the district" />
		<tag k="name" v="Gjeldbekaråsen" />
		<tag k="natural" v="hill" />
		<tag k="place" v="locality" />
		<tag k="ssr:stedsnr" v="43916" />
	</node>
	<node lat="59.34437222362135" lon="9.260952770188192" id="-26054">
		<tag k="name" v="Skrubbeberga" />
		<tag k="natural" v="hill" />
		<tag k="place" v="locality" />
		<tag k="ssr:stedsnr" v="43919" />
	</node>
	<node lat="59.42021666878328" lon="9.314830563734128" id="-26055">
		<tag k="name" v="Djupedal" />
		<tag k="natural" v="valley" />
		<tag k="place" v="locality" />
		<tag k="ssr:stedsnr" v="43966" />
	</node>
	<node lat="59.4827722238259" lon="9.236247216193277" id="-26059">
		<tag k="fixme" v="consider natural=peak for the most distinct mountains in the district" />
		<tag k="name" v="Fugle-åsen" />
		<tag k="natural" v="hill" />
		<tag k="place" v="locality" />
		<tag k="ssr:stedsnr" v="44213" />
	</node>
	<node lat="59.47509166726403" lon="9.267002782042026" id="-26060">
		<tag k="fixme" v="consider natural=peak for the most distinct mountains in the district" />
		<tag k="name" v="Stampe-åsene" />
		<tag k="natural" v="hill" />
		<tag k="place" v="locality" />
		<tag k="ssr:stedsnr" v="44220" />
	</node>
	<node lat="59.47351666502924" lon="9.27815000082481" id="-26061">
		<tag k="fixme" v="consider natural=peak for the most distinct mountains in the district" />
		<tag k="name" v="Dalsås" />
		<tag k="natural" v="hill" />
		<tag k="place" v="locality" />
		<tag k="ssr:stedsnr" v="44221" />
	</node>
	<node lat="59.436547223988825" lon="8.924580558210982" id="-26066">
		<tag k="fixme" v="consider natural=peak for the most distinct mountains in the district" />
		<tag k="name" v="Hanakam" />
		<tag k="natural" v="hill" />
		<tag k="place" v="locality" />
		<tag k="ssr:stedsnr" v="63472" />
	</node>
	<node lat="59.46078610876685" lon="9.383819445361253" id="-26068">
		<tag k="name" v="Hytteskota" />
		<tag k="natural" v="hill" />
		<tag k="place" v="locality" />
		<tag k="ssr:stedsnr" v="63028" />
	</node>
	<node lat="59.32953888651043" lon="9.206058331050766" id="-26071">
		<tag k="alt_name" v="Ramsenatten, vle;Vesle Ramseknatten" />
		<tag k="fixme" v="consider natural=peak for the most distinct mountains in the district" />
		<tag k="name" v="Vesle Ramsenatten" />
		<tag k="natural" v="hill" />
		<tag k="place" v="locality" />
		<tag k="ssr:stedsnr" v="63236" />
	</node>
	<node lat="59.38767777926832" lon="9.131730548554952" id="-26072">
		<tag k="name" v="Godal" />
		<tag k="natural" v="valley" />
		<tag k="place" v="locality" />
		<tag k="ssr:stedsnr" v="63348" />
	</node>
	<node lat="59.40428332960944" lon="9.38321110783802" id="-26084">
		<tag k="alt_name" v="Bjørndalsfjell" />
		<tag k="fixme" v="consider natural=peak for the most distinct mountains in the district" />
		<tag k="name" v="Bjørndalsfjellet" />
		<tag k="natural" v="hill" />
		<tag k="place" v="locality" />
		<tag k="ssr:stedsnr" v="63867" />
	</node>
	<node lat="59.47555833770648" lon="9.44683333060382" id="-26090">
		<tag k="fixme" v="consider natural=peak for the most distinct mountains in the district" />
		<tag k="name" v="Geitås" />
		<tag k="natural" v="hill" />
		<tag k="place" v="locality" />
		<tag k="ssr:stedsnr" v="82789" />
	</node>
	<node lat="59.37339444104403" lon="9.38038333750106" id="-26091">
		<tag k="fixme" v="consider natural=peak for the most distinct mountains in the district" />
		<tag k="name" v="Banneråsane" />
		<tag k="natural" v="hill" />
		<tag k="place" v="locality" />
		<tag k="ssr:stedsnr" v="82775" />
	</node>
	<node lat="59.39670000394325" lon="8.954183332042277" id="-26092">
		<tag k="name" v="Bugrasskota" />
		<tag k="place" v="locality" />
		<tag k="ssr:stedsnr" v="85040" />
	</node>
	<node lat="59.47206944439657" lon="9.144491667996986" id="-26096">
		<tag k="name" v="Heimlihaugane" />
		<tag k="natural" v="hill" />
		<tag k="place" v="locality" />
		<tag k="ssr:stedsnr" v="86920" />
	</node>
	<node lat="59.44180000300896" lon="9.10616666778644" id="-26097">
		<tag k="name" v="Svenkeheller" />
		<tag k="place" v="locality" />
		<tag k="ssr:stedsnr" v="87039" />
	</node>
	<node lat="59.415013890690666" lon="8.960494445624391" id="-26099">
		<tag k="name" v="Hegnaåsen" />
		<tag k="natural" v="hill" />
		<tag k="place" v="locality" />
		<tag k="ssr:stedsnr" v="87047" />
	</node>
	<node lat="59.42641666986038" lon="9.110472228508836" id="-26102">
		<tag k="name" v="Øygardsdalen" />
		<tag k="natural" v="valley" />
		<tag k="place" v="locality" />
		<tag k="ssr:stedsnr" v="86200" />
	</node>
	<node lat="59.40272777648818" lon="9.105163882664169" id="-26107">
		<tag k="name" v="Skogliane" />
		<tag k="natural" v="slope" />
		<tag k="place" v="locality" />
		<tag k="ssr:stedsnr" v="86648" />
	</node>
	<node lat="59.51284166527834" lon="9.081250005480994" id="-26109">
		<tag k="name" v="Bjønneskaret" />
		<tag k="natural" v="valley" />
		<tag k="place" v="locality" />
		<tag k="ssr:stedsnr" v="86736" />
	</node>
	<node lat="59.52197500013656" lon="9.064824992218393" id="-26110">
		<tag k="fixme" v="consider natural=peak for the most distinct mountains in the district" />
		<tag k="name" v="Alfarnuten" />
		<tag k="natural" v="hill" />
		<tag k="place" v="locality" />
		<tag k="ssr:stedsnr" v="86740" />
	</node>
	<node lat="59.524097224564464" lon="9.081497223202648" id="-26111">
		<tag k="name" v="Ljosliane" />
		<tag k="natural" v="slope" />
		<tag k="place" v="locality" />
		<tag k="ssr:stedsnr" v="86741" />
	</node>
	<node lat="59.489552780550675" lon="9.061019443672214" id="-26122">
		<tag k="name" v="Binnebotn" />
		<tag k="natural" v="valley" />
		<tag k="place" v="locality" />
		<tag k="ssr:stedsnr" v="88690" />
	</node>
	<node lat="59.37702777782128" lon="8.922980554414226" id="-26123">
		<tag k="name" v="Spangekjerrhaugane" />
		<tag k="natural" v="hill" />
		<tag k="place" v="locality" />
		<tag k="ssr:stedsnr" v="89047" />
	</node>
	<node lat="59.36902222281004" lon="8.904825008172615" id="-26124">
		<tag k="fixme" v="consider natural=peak for the most distinct mountains in the district" />
		<tag k="name" v="Bakkjeråsane" />
		<tag k="natural" v="hill" />
		<tag k="place" v="locality" />
		<tag k="ssr:stedsnr" v="89049" />
	</node>
	<node lat="59.397977780935726" lon="8.997597218712146" id="-26125">
		<tag k="name" v="Glahaug" />
		<tag k="natural" v="hill" />
		<tag k="place" v="locality" />
		<tag k="ssr:stedsnr" v="89058" />
	</node>
	<node lat="59.443761111699416" lon="9.000672228958315" id="-26126">
		<tag k="name" v="Slettelihåva" />
		<tag k="natural" v="slope" />
		<tag k="place" v="locality" />
		<tag k="ssr:stedsnr" v="89090" />
	</node>
	<node lat="59.44434166883705" lon="8.981786114700567" id="-26127">
		<tag k="name" v="Bryggjefjelliane" />
		<tag k="natural" v="slope" />
		<tag k="place" v="locality" />
		<tag k="ssr:stedsnr" v="89092" />
	</node>
	<node lat="59.46850555588148" lon="9.001966669676923" id="-26130">
		<tag k="name" v="Anlaugsholune" />
		<tag k="natural" v="valley" />
		<tag k="place" v="locality" />
		<tag k="ssr:stedsnr" v="89699" />
	</node>
	<node lat="59.446969446651416" lon="8.928844440631837" id="-26133">
		<tag k="name" v="Trongedal" />
		<tag k="natural" v="valley" />
		<tag k="place" v="locality" />
		<tag k="ssr:stedsnr" v="89820" />
	</node>
	<node lat="59.47512222014263" lon="8.934550007445683" id="-26134">
		<tag k="name" v="Røksbulia" />
		<tag k="natural" v="slope" />
		<tag k="place" v="locality" />
		<tag k="ssr:stedsnr" v="89896" />
	</node>
	<node lat="59.47108333490916" lon="8.945297228816973" id="-26135">
		<tag k="name" v="Røytejuvet" />
		<tag k="natural" v="gorge" />
		<tag k="ssr:stedsnr" v="89899" />
	</node>
	<node lat="59.484105551174046" lon="8.910972226290037" id="-26137">
		<tag k="name" v="Trettarhaugen" />
		<tag k="natural" v="hill" />
		<tag k="place" v="locality" />
		<tag k="ssr:stedsnr" v="89989" />
	</node>
	<node lat="59.45678888786498" lon="8.9179444419296" id="-26138">
		<tag k="name" v="Langeli" />
		<tag k="natural" v="slope" />
		<tag k="place" v="locality" />
		<tag k="ssr:stedsnr" v="89957" />
	</node>
	<node lat="59.44611388791241" lon="9.343586113602417" id="-26141">
		<tag k="name" v="Grotmoldalen" />
		<tag k="natural" v="valley" />
		<tag k="place" v="locality" />
		<tag k="ssr:stedsnr" v="103239" />
	</node>
	<node lat="59.344236109781875" lon="9.177727772420623" id="-26143">
		<tag k="fixme" v="consider natural=peak for the most distinct mountains in the district" />
		<tag k="name" v="Gjernestjønnkollen" />
		<tag k="natural" v="hill" />
		<tag k="place" v="locality" />
		<tag k="ssr:stedsnr" v="104050" />
	</node>
	<node lat="59.337508335602266" lon="9.181613887485181" id="-26144">
		<tag k="name" v="Bjørndalen" />
		<tag k="natural" v="valley" />
		<tag k="place" v="locality" />
		<tag k="ssr:stedsnr" v="104052" />
	</node>
	<node lat="59.43465555922772" lon="9.241916659394533" id="-26149">
		<tag k="fixme" v="consider natural=peak for the most distinct mountains in the district" />
		<tag k="name" v="Beller-ås" />
		<tag k="natural" v="hill" />
		<tag k="place" v="locality" />
		<tag k="ssr:stedsnr" v="104444" />
	</node>
	<node lat="59.36370277374338" lon="9.36673889231765" id="-26151">
		<tag k="name" v="Knuteliene" />
		<tag k="natural" v="slope" />
		<tag k="place" v="locality" />
		<tag k="ssr:stedsnr" v="104459" />
	</node>
	<node lat="59.47416944304977" lon="9.180986114144208" id="-26154">
		<tag k="fixme" v="consider natural=peak for the most distinct mountains in the district" />
		<tag k="name" v="Dufre-fjell" />
		<tag k="natural" v="hill" />
		<tag k="place" v="locality" />
		<tag k="ssr:stedsnr" v="104158" />
	</node>
	<node lat="59.477002779544954" lon="9.230033338610932" id="-26155">
		<tag k="fixme" v="consider natural=peak for the most distinct mountains in the district" />
		<tag k="name" v="Vestre Helgebuåsen" />
		<tag k="natural" v="hill" />
		<tag k="place" v="locality" />
		<tag k="ssr:stedsnr" v="104160" />
	</node>
	<node lat="59.35716667107358" lon="9.31263889040415" id="-26157">
		<tag k="fixme" v="consider natural=peak for the most distinct mountains in the district" />
		<tag k="name" v="Svarttjønn-natten" />
		<tag k="natural" v="hill" />
		<tag k="place" v="locality" />
		<tag k="ssr:stedsnr" v="104310" />
	</node>
	<node lat="59.46881666503176" lon="9.431733337368957" id="-26158">
		<tag k="name" v="Sponlia" />
		<tag k="natural" v="slope" />
		<tag k="place" v="locality" />
		<tag k="ssr:stedsnr" v="104476" />
	</node>
	<node lat="59.37985277680487" lon="9.155913883579503" id="-26159">
		<tag k="name" v="Skroftedalen" />
		<tag k="natural" v="valley" />
		<tag k="place" v="locality" />
		<tag k="ssr:stedsnr" v="104235" />
	</node>
	<node lat="59.43022778080296" lon="9.308038890040867" id="-26163">
		<tag k="name" v="Dyrdals-spranget" />
		<tag k="natural" v="slope" />
		<tag k="place" v="locality" />
		<tag k="ssr:stedsnr" v="104600" />
	</node>
	<node lat="59.451630553514235" lon="9.365944444818464" id="-26164">
		<tag k="name" v="Svartdiket" />
		<tag k="natural" v="valley" />
		<tag k="place" v="locality" />
		<tag k="ssr:stedsnr" v="104707" />
	</node>
	<node lat="59.459386113040686" lon="9.385250002505819" id="-26165">
		<tag k="fixme" v="consider natural=peak for the most distinct mountains in the district" />
		<tag k="name" v="Vestre Holtstjønnfjellet" />
		<tag k="natural" v="hill" />
		<tag k="place" v="locality" />
		<tag k="ssr:stedsnr" v="104715" />
	</node>
	<node lat="59.486797218413265" lon="9.211816666250968" id="-26172">
		<tag k="name" v="Godlidalen" />
		<tag k="natural" v="valley" />
		<tag k="place" v="locality" />
		<tag k="ssr:stedsnr" v="105064" />
	</node>
	<node lat="59.48931388621612" lon="9.282324999507823" id="-26174">
		<tag k="name" v="Masteskotet" />
		<tag k="natural" v="cliff" />
		<tag k="ssr:stedsnr" v="105243" />
	</node>
	<node lat="59.36718055609706" lon="9.136997215315942" id="-26185">
		<tag k="alt_name" v="Bjørnlikollene" />
		<tag k="name" v="Bjørnlikollen" />
		<tag k="natural" v="hill" />
		<tag k="place" v="locality" />
		<tag k="ssr:stedsnr" v="123325" />
	</node>
	<node lat="59.37185833617867" lon="9.159750000088483" id="-26186">
		<tag k="name" v="Hetterudkollen" />
		<tag k="natural" v="hill" />
		<tag k="place" v="locality" />
		<tag k="ssr:stedsnr" v="123327" />
	</node>
	<node lat="59.36246944278979" lon="8.916261118388276" id="-26187">
		<tag k="alt_name" v="Benkeliane" />
		<tag k="name" v="Benkjeliane" />
		<tag k="natural" v="slope" />
		<tag k="place" v="locality" />
		<tag k="ssr:stedsnr" v="123332" />
	</node>
	<node lat="59.40152777601097" lon="8.976327780191115" id="-26199">
		<tag k="fixme" v="consider natural=peak for the most distinct mountains in the district" />
		<tag k="name" v="Fjosås" />
		<tag k="natural" v="hill" />
		<tag k="place" v="locality" />
		<tag k="ssr:stedsnr" v="123440" />
	</node>
	<node lat="59.43131666642981" lon="9.160172217377763" id="-26202">
		<tag k="alt_name" v="Kviteflog" />
		<tag k="name" v="Gviteflåg" />
		<tag k="natural" v="slope" />
		<tag k="place" v="locality" />
		<tag k="ssr:stedsnr" v="123459" />
	</node>
	<node lat="59.38745833147095" lon="8.95922223036142" id="-26213">
		<tag k="name" v="Tjønnåsen" />
		<tag k="natural" v="hill" />
		<tag k="place" v="locality" />
		<tag k="ssr:stedsnr" v="145065" />
	</node>
	<node lat="59.38834722007489" lon="8.979333339562904" id="-26216">
		<tag k="fixme" v="consider natural=peak for the most distinct mountains in the district" />
		<tag k="name" v="Slettåsane" />
		<tag k="natural" v="hill" />
		<tag k="place" v="locality" />
		<tag k="ssr:stedsnr" v="145072" />
	</node>
	<node lat="59.398511114232775" lon="8.857497223333297" id="-26217">
		<tag k="name" v="Trolldalen" />
		<tag k="natural" v="valley" />
		<tag k="place" v="locality" />
		<tag k="ssr:stedsnr" v="145172" />
	</node>
	<node lat="59.380027778158265" lon="8.96502500484719" id="-26218">
		<tag k="fixme" v="consider natural=peak for the most distinct mountains in the district" />
		<tag k="name" v="Vesledalsfjellet" />
		<tag k="natural" v="hill" />
		<tag k="place" v="locality" />
		<tag k="ssr:stedsnr" v="145098" />
	</node>
	<node lat="59.40163611272115" lon="8.94197777983262" id="-26220">
		<tag k="name" v="Svartufs" />
		<tag k="natural" v="cliff" />
		<tag k="ssr:stedsnr" v="147128" />
	</node>
	<node lat="59.49048889147958" lon="9.000175003643012" id="-26222">
		<tag k="name" v="Skåråfjelldekkane" />
		<tag k="natural" v="slope" />
		<tag k="place" v="locality" />
		<tag k="ssr:stedsnr" v="145923" />
	</node>
	<node lat="59.430377778724754" lon="9.006816667952007" id="-26224">
		<tag k="name" v="Modalen" />
		<tag k="natural" v="valley" />
		<tag k="place" v="locality" />
		<tag k="ssr:stedsnr" v="146489" />
	</node>
	<node lat="59.49444444371802" lon="9.093830551647306" id="-26227">
		<tag k="fixme" v="consider natural=peak for the most distinct mountains in the district" />
		<tag k="name" v="Lonaråsen" />
		<tag k="natural" v="hill" />
		<tag k="place" v="locality" />
		<tag k="ssr:stedsnr" v="146543" />
	</node>
	<node lat="59.44841944651933" lon="9.017675000200319" id="-26229">
		<tag k="name" v="Svartufs" />
		<tag k="natural" v="cliff" />
		<tag k="ssr:stedsnr" v="147025" />
	</node>
	<node lat="59.44847778023683" lon="9.032430556329876" id="-26233">
		<tag k="name" v="Raukleivjuvet" />
		<tag k="natural" v="gorge" />
		<tag k="ssr:stedsnr" v="147047" />
	</node>
	<node lat="59.41810000305089" lon="9.063972227122395" id="-26239">
		<tag k="name" v="Sisjordalen" />
		<tag k="natural" v="valley" />
		<tag k="place" v="locality" />
		<tag k="ssr:stedsnr" v="147676" />
	</node>
	<node lat="59.435583330181025" lon="9.032880554081657" id="-26244">
		<tag k="name" v="Oterholtmogane" />
		<tag k="place" v="locality" />
		<tag k="ssr:stedsnr" v="147543" />
	</node>
	<node lat="59.512730559466455" lon="9.043147222221384" id="-26245">
		<tag k="name" v="Øvrekvelv" />
		<tag k="natural" v="valley" />
		<tag k="place" v="locality" />
		<tag k="ssr:stedsnr" v="147544" />
	</node>
	<node lat="59.51621388679556" lon="9.023094441447327" id="-26246">
		<tag k="name" v="Bukkeliberga" />
		<tag k="natural" v="hill" />
		<tag k="place" v="locality" />
		<tag k="ssr:stedsnr" v="147546" />
	</node>
	<node lat="59.41526110747505" lon="9.086669440004043" id="-26247">
		<tag k="name" v="Grivimoen" />
		<tag k="place" v="locality" />
		<tag k="ssr:stedsnr" v="147679" />
	</node>
	<node lat="59.45235833777402" lon="9.012886109269866" id="-26248">
		<tag k="fixme" v="consider natural=peak for the most distinct mountains in the district" />
		<tag k="name" v="Kolmyråsen" />
		<tag k="natural" v="hill" />
		<tag k="place" v="locality" />
		<tag k="ssr:stedsnr" v="148060" />
	</node>
	<node lat="59.4722138916521" lon="8.991997222904605" id="-26249">
		<tag k="name" v="Grostuljuvet" />
		<tag k="natural" v="gorge" />
		<tag k="ssr:stedsnr" v="149690" />
	</node>
	<node lat="59.46693333478361" lon="9.006136110501272" id="-26250">
		<tag k="name" v="Blåbæråsen" />
		<tag k="natural" v="hill" />
		<tag k="place" v="locality" />
		<tag k="ssr:stedsnr" v="149693" />
	</node>
	<node lat="59.374163886004226" lon="8.942972228033042" id="-26253">
		<tag k="fixme" v="consider natural=peak for the most distinct mountains in the district" />
		<tag k="name" v="Rivedalsnuten" />
		<tag k="natural" v="hill" />
		<tag k="place" v="locality" />
		<tag k="ssr:stedsnr" v="149031" />
	</node>
	<node lat="59.453138888754886" lon="8.915244450156278" id="-26255">
		<tag k="name" v="Råteli" />
		<tag k="natural" v="slope" />
		<tag k="place" v="locality" />
		<tag k="ssr:stedsnr" v="149833" />
	</node>
	<node lat="59.43407500351336" lon="8.872372228698884" id="-26259">
		<tag k="name" v="Hagahaug" />
		<tag k="natural" v="hill" />
		<tag k="place" v="locality" />
		<tag k="ssr:stedsnr" v="149880" />
	</node>
	<node lat="59.48592500444838" lon="8.936116674949709" id="-26262">
		<tag k="name" v="Kamperhaug" />
		<tag k="natural" v="slope" />
		<tag k="place" v="locality" />
		<tag k="ssr:stedsnr" v="149989" />
	</node>
	<node lat="59.443488890981406" lon="9.248574993024869" id="-26263">
		<tag k="name" v="Kringsås-hovet" />
		<tag k="place" v="locality" />
		<tag k="ssr:stedsnr" v="164206" />
	</node>
	<node lat="59.45433889232793" lon="9.278580550231117" id="-26264">
		<tag k="name" v="Knølen" />
		<tag k="natural" v="hill" />
		<tag k="place" v="locality" />
		<tag k="ssr:stedsnr" v="164137" />
	</node>
	<node lat="59.40504444334145" lon="9.369038892147453" id="-26267">
		<tag k="name" v="Nordagutuliene" />
		<tag k="natural" v="slope" />
		<tag k="place" v="locality" />
		<tag k="ssr:stedsnr" v="164218" />
	</node>
	<node lat="59.40870277378552" lon="9.381277784116513" id="-26268">
		<tag k="name" v="Gullbufjell" />
		<tag k="natural" v="hill" />
		<tag k="place" v="locality" />
		<tag k="ssr:stedsnr" v="164223" />
	</node>
	<node lat="59.42575833118065" lon="9.340425002714971" id="-26275">
		<tag k="name" v="Hanekoll-lia" />
		<tag k="natural" v="slope" />
		<tag k="place" v="locality" />
		<tag k="ssr:stedsnr" v="164924" />
	</node>
	<node lat="59.432447220778265" lon="9.32695554775534" id="-26276">
		<tag k="fixme" v="consider natural=peak for the most distinct mountains in the district" />
		<tag k="name" v="Kyrkjehaug" />
		<tag k="natural" v="hill" />
		<tag k="place" v="locality" />
		<tag k="ssr:stedsnr" v="164931" />
	</node>
	<node lat="59.49528611401372" lon="9.206425007158295" id="-26282">
		<tag k="fixme" v="consider natural=peak for the most distinct mountains in the district" />
		<tag k="name" v="Blomtjønnåsen" />
		<tag k="natural" v="hill" />
		<tag k="place" v="locality" />
		<tag k="ssr:stedsnr" v="165050" />
	</node>
	<node lat="59.444361107266495" lon="9.174330561124563" id="-26293">
		<tag k="fixme" v="consider natural=peak for the most distinct mountains in the district" />
		<tag k="name" v="Storhøvd" />
		<tag k="natural" v="hill" />
		<tag k="place" v="locality" />
		<tag k="ssr:stedsnr" v="165689" />
	</node>
	<node lat="59.40696944566116" lon="9.226572214537164" id="-26295">
		<tag k="fixme" v="consider natural=peak for the most distinct mountains in the district" />
		<tag k="name" v="Holtan-åsen" />
		<tag k="natural" v="hill" />
		<tag k="place" v="locality" />
		<tag k="ssr:stedsnr" v="165436" />
	</node>
	<node lat="59.43643611458695" lon="9.33504999763393" id="-26299">
		<tag k="fixme" v="consider natural=peak for the most distinct mountains in the district" />
		<tag k="name" v="Svartåsen" />
		<tag k="natural" v="hill" />
		<tag k="place" v="locality" />
		<tag k="ssr:stedsnr" v="165952" />
	</node>
	<node lat="59.37021111489904" lon="9.024469448608365" id="-26303">
		<tag k="fixme" v="consider natural=peak for the most distinct mountains in the district" />
		<tag k="name" v="Skavdalskollen" />
		<tag k="natural" v="hill" />
		<tag k="place" v="locality" />
		<tag k="ssr:stedsnr" v="184286" />
	</node>
	<node lat="59.36448889084915" lon="8.869286111463776" id="-26305">
		<tag k="alt_name" v="Raunnuten" />
		<tag k="fixme" v="consider natural=peak for the most distinct mountains in the district" />
		<tag k="name" v="Rognnuten" />
		<tag k="natural" v="hill" />
		<tag k="place" v="locality" />
		<tag k="ssr:stedsnr" v="184303" />
	</node>
	<node lat="59.36951667112404" lon="8.939605552687228" id="-26310">
		<tag k="alt_name" v="Svarttjørndalane" />
		<tag k="name" v="Svarttjønndalen" />
		<tag k="natural" v="valley" />
		<tag k="place" v="locality" />
		<tag k="ssr:stedsnr" v="184280" />
	</node>
	<node lat="59.40299999792223" lon="8.918283330887157" id="-26313">
		<tag k="alt_name" v="Lovaldåsen" />
		<tag k="fixme" v="consider natural=peak for the most distinct mountains in the district" />
		<tag k="name" v="Løvollåsen" />
		<tag k="natural" v="hill" />
		<tag k="place" v="locality" />
		<tag k="ssr:stedsnr" v="184402" />
	</node>
	<node lat="59.40384444263067" lon="9.022699992282645" id="-26317">
		<tag k="fixme" v="consider natural=peak for the most distinct mountains in the district" />
		<tag k="name" v="Nordbøåsane" />
		<tag k="natural" v="hill" />
		<tag k="place" v="locality" />
		<tag k="ssr:stedsnr" v="184353" />
	</node>
	<node lat="59.403538886833324" lon="9.086669444171873" id="-26318">
		<tag k="alt_name" v="Hjåsådalen" />
		<tag k="name" v="Jåsådalen" />
		<tag k="natural" v="valley" />
		<tag k="place" v="locality" />
		<tag k="ssr:stedsnr" v="184365" />
	</node>
	<node lat="59.46882778157265" lon="9.01926110941854" id="-26322">
		<tag k="fixme" v="consider natural=peak for the most distinct mountains in the district" />
		<tag k="name" v="Høgefjell" />
		<tag k="natural" v="hill" />
		<tag k="place" v="locality" />
		<tag k="ssr:stedsnr" v="184495" />
	</node>
	<node lat="59.49123889011876" lon="9.009799997570775" id="-26324">
		<tag k="name" v="Skåråfjelldekkane" />
		<tag k="natural" v="slope" />
		<tag k="place" v="locality" />
		<tag k="ssr:stedsnr" v="184591" />
	</node>
	<node lat="59.41269166782213" lon="9.239038890193184" id="-26331">
		<tag k="fixme" v="consider natural=peak for the most distinct mountains in the district" />
		<tag k="name" v="Vegemfjellet" />
		<tag k="natural" v="hill" />
		<tag k="place" v="locality" />
		<tag k="ssr:stedsnr" v="184999" />
	</node>
	<node lat="59.40463333140051" lon="8.877108328686592" id="-26334">
		<tag k="fixme" v="consider natural=peak for the most distinct mountains in the district" />
		<tag k="name" v="Stigfjellet" />
		<tag k="natural" v="hill" />
		<tag k="place" v="locality" />
		<tag k="ssr:stedsnr" v="185369" />
	</node>
	<node lat="59.4317888858305" lon="9.372222230604606" id="-26336">
		<tag k="name" v="Kuslungbotnen" />
		<tag k="natural" v="valley" />
		<tag k="place" v="locality" />
		<tag k="ssr:stedsnr" v="203792" />
	</node>
	<node lat="59.49063889250939" lon="8.990927775129366" id="-26337">
		<tag k="name" v="Tunglijuvet" />
		<tag k="natural" v="gorge" />
		<tag k="ssr:stedsnr" v="206922" />
	</node>
	<node lat="59.46633055247031" lon="9.11793610534699" id="-26339">
		<tag k="name" v="Vermelidalen" />
		<tag k="natural" v="valley" />
		<tag k="place" v="locality" />
		<tag k="ssr:stedsnr" v="207447" />
	</node>
	<node lat="59.439424998076916" lon="9.008655557278718" id="-26344">
		<tag k="name" v="Skorranuten" />
		<tag k="natural" v="hill" />
		<tag k="place" v="locality" />
		<tag k="ssr:stedsnr" v="207493" />
	</node>
	<node lat="59.51312499575948" lon="9.002722227398086" id="-26350">
		<tag k="name" v="Bjønneliane" />
		<tag k="natural" v="slope" />
		<tag k="place" v="locality" />
		<tag k="ssr:stedsnr" v="208571" />
	</node>
	<node lat="59.51090833031007" lon="9.002505560569896" id="-26351">
		<tag k="name" v="Fjellstulskorra" />
		<tag k="natural" v="gorge" />
		<tag k="ssr:stedsnr" v="208572" />
	</node>
	<node lat="59.384466665267524" lon="9.085597228950252" id="-26354">
		<tag k="fixme" v="consider natural=peak for the most distinct mountains in the district" />
		<tag k="name" v="Fjellet" />
		<tag k="natural" v="hill" />
		<tag k="place" v="locality" />
		<tag k="ssr:stedsnr" v="208376" />
	</node>
	<node lat="59.466002773976186" lon="9.104208328837522" id="-26355">
		<tag k="name" v="Skarkebekkmogen" />
		<tag k="place" v="locality" />
		<tag k="ssr:stedsnr" v="208398" />
	</node>
	<node lat="59.512424995881624" lon="9.086733333384416" id="-26360">
		<tag k="fixme" v="consider natural=peak for the most distinct mountains in the district" />
		<tag k="name" v="Hestemyrfjellet" />
		<tag k="natural" v="hill" />
		<tag k="place" v="locality" />
		<tag k="ssr:stedsnr" v="208769" />
	</node>
	<node lat="59.45768333579517" lon="9.135913887484238" id="-26362">
		<tag k="name" v="Båsdalen" />
		<tag k="natural" v="valley" />
		<tag k="place" v="locality" />
		<tag k="ssr:stedsnr" v="208932" />
	</node>
	<node lat="59.40174444339858" lon="8.93333611917274" id="-26364">
		<tag k="fixme" v="consider natural=peak for the most distinct mountains in the district" />
		<tag k="name" v="Tveitanåsen" />
		<tag k="natural" v="hill" />
		<tag k="place" v="locality" />
		<tag k="ssr:stedsnr" v="209125" />
	</node>
	<node lat="59.45702222023665" lon="9.022991671789859" id="-26369">
		<tag k="name" v="Listeberget" />
		<tag k="natural" v="hill" />
		<tag k="place" v="locality" />
		<tag k="ssr:stedsnr" v="210057" />
	</node>
	<node lat="59.45033333033456" lon="8.952430558479707" id="-26370">
		<tag k="name" v="Steinsruddalen" />
		<tag k="natural" v="valley" />
		<tag k="place" v="locality" />
		<tag k="ssr:stedsnr" v="210064" />
	</node>
	<node lat="59.50262777915811" lon="9.05666943582374" id="-26371">
		<tag k="name" v="Bråtålinuten" />
		<tag k="place" v="locality" />
		<tag k="ssr:stedsnr" v="210521" />
	</node>
	<node lat="59.48215555687307" lon="8.942125005979884" id="-26375">
		<tag k="name" v="Valjuvet" />
		<tag k="natural" v="gorge" />
		<tag k="ssr:stedsnr" v="210994" />
	</node>
	<node lat="59.4102249958954" lon="9.367602783056723" id="-26380">
		<tag k="name" v="Børtevassliene" />
		<tag k="natural" v="slope" />
		<tag k="place" v="locality" />
		<tag k="ssr:stedsnr" v="225371" />
	</node>
	<node lat="59.40889721935602" lon="9.337327775013017" id="-26387">
		<tag k="fixme" v="consider natural=peak for the most distinct mountains in the district" />
		<tag k="name" v="Øverland-åsen" />
		<tag k="natural" v="hill" />
		<tag k="place" v="locality" />
		<tag k="ssr:stedsnr" v="225102" />
	</node>
	<node lat="59.45281944526963" lon="9.274802769138848" id="-26391">
		<tag k="name" v="Sjølskota" />
		<tag k="natural" v="slope" />
		<tag k="place" v="locality" />
		<tag k="ssr:stedsnr" v="225150" />
	</node>
	<node lat="59.35458055479288" lon="9.136336113943857" id="-26393">
		<tag k="name" v="Sol-liene" />
		<tag k="natural" v="slope" />
		<tag k="place" v="locality" />
		<tag k="ssr:stedsnr" v="225162" />
	</node>
	<node lat="59.43878055863846" lon="9.332241664746634" id="-26399">
		<tag k="fixme" v="consider natural=peak for the most distinct mountains in the district" />
		<tag k="name" v="Hvitås" />
		<tag k="natural" v="hill" />
		<tag k="place" v="locality" />
		<tag k="ssr:stedsnr" v="225924" />
	</node>
	<node lat="59.339411107924334" lon="9.206330557013453" id="-26405">
		<tag k="fixme" v="consider natural=peak for the most distinct mountains in the district" />
		<tag k="name" v="Folgedalsåsen" />
		<tag k="natural" v="hill" />
		<tag k="place" v="locality" />
		<tag k="ssr:stedsnr" v="226038" />
	</node>
	<node lat="59.50361388625934" lon="9.286216673476408" id="-26406">
		<tag k="fixme" v="consider natural=peak for the most distinct mountains in the district" />
		<tag k="name" v="Vesleåsen" />
		<tag k="natural" v="hill" />
		<tag k="place" v="locality" />
		<tag k="ssr:stedsnr" v="226040" />
	</node>
	<node lat="59.485436110791376" lon="9.251811114855158" id="-26407">
		<tag k="name" v="Roestul-liene" />
		<tag k="natural" v="slope" />
		<tag k="place" v="locality" />
		<tag k="ssr:stedsnr" v="226029" />
	</node>
	<node lat="59.33045555819501" lon="9.215794451033464" id="-26409">
		<tag k="name" v="Syngardalene" />
		<tag k="natural" v="valley" />
		<tag k="place" v="locality" />
		<tag k="ssr:stedsnr" v="226130" />
	</node>
	<node lat="59.419719444144754" lon="9.184486113867836" id="-26410">
		<tag k="name" v="Bjørndalen" />
		<tag k="natural" v="valley" />
		<tag k="place" v="locality" />
		<tag k="ssr:stedsnr" v="226651" />
	</node>
	<node lat="59.412202777630824" lon="9.367344437982018" id="-26422">
		<tag k="name" v="Sommerflåtin" />
		<tag k="place" v="locality" />
		<tag k="ssr:stedsnr" v="285346" />
	</node>
	<node lat="59.37183888837504" lon="9.339600003909986" id="-26431">
		<tag k="fixme" v="consider natural=peak for the most distinct mountains in the district" />
		<tag k="name" v="Daleåsene" />
		<tag k="natural" v="hill" />
		<tag k="place" v="locality" />
		<tag k="ssr:stedsnr" v="286314" />
	</node>
	<node lat="59.44610000080237" lon="9.222427783579633" id="-26433">
		<tag k="fixme" v="consider natural=peak for the most distinct mountains in the district" />
		<tag k="name" v="Heståskollen" />
		<tag k="natural" v="hill" />
		<tag k="place" v="locality" />
		<tag k="ssr:stedsnr" v="286321" />
	</node>
	<node lat="59.36286389288071" lon="9.344219450036073" id="-26435">
		<tag k="name" v="Svarttjønndalen" />
		<tag k="natural" v="valley" />
		<tag k="place" v="locality" />
		<tag k="ssr:stedsnr" v="286484" />
	</node>
	<node lat="59.39115555796148" lon="9.36654444864374" id="-26439">
		<tag k="name" v="Rogholtliene" />
		<tag k="natural" v="slope" />
		<tag k="place" v="locality" />
		<tag k="ssr:stedsnr" v="286361" />
	</node>
	<node lat="59.43635555874484" lon="9.151041659611646" id="-26442">
		<tag k="name" v="Spelberga" />
		<tag k="natural" v="hill" />
		<tag k="place" v="locality" />
		<tag k="ssr:stedsnr" v="286601" />
	</node>
	<node lat="59.485094443230786" lon="9.240894439915385" id="-26450">
		<tag k="name" v="Elgestupet" />
		<tag k="natural" v="cliff" />
		<tag k="ssr:stedsnr" v="287042" />
	</node>
	<node lat="59.501930559286976" lon="9.279161111321867" id="-26451">
		<tag k="name" v="Haukedals-skotet" />
		<tag k="natural" v="cliff" />
		<tag k="ssr:stedsnr" v="287049" />
	</node>
	<node lat="59.50041110877671" lon="9.272991666614656" id="-26452">
		<tag k="fixme" v="consider natural=peak for the most distinct mountains in the district" />
		<tag k="name" v="Haukedalsåsen" />
		<tag k="natural" v="hill" />
		<tag k="place" v="locality" />
		<tag k="ssr:stedsnr" v="287050" />
	</node>
	<node lat="59.49895833244756" lon="9.241722230759025" id="-26453">
		<tag k="name" v="Spiredalen" />
		<tag k="natural" v="valley" />
		<tag k="place" v="locality" />
		<tag k="ssr:stedsnr" v="287052" />
	</node>
	<node lat="59.3402388861264" lon="9.196105554185825" id="-26454">
		<tag k="fixme" v="consider natural=peak for the most distinct mountains in the district" />
		<tag k="name" v="Damås" />
		<tag k="natural" v="hill" />
		<tag k="place" v="locality" />
		<tag k="ssr:stedsnr" v="287053" />
	</node>
	<node lat="59.500080552085414" lon="9.244486114946579" id="-26455">
		<tag k="fixme" v="consider natural=peak for the most distinct mountains in the district" />
		<tag k="name" v="Grønekoll" />
		<tag k="natural" v="hill" />
		<tag k="place" v="locality" />
		<tag k="ssr:stedsnr" v="287056" />
	</node>
	<node lat="59.331994445405016" lon="9.2079638928203" id="-26457">
		<tag k="fixme" v="consider natural=peak for the most distinct mountains in the district" />
		<tag k="name" v="Grindås" />
		<tag k="natural" v="hill" />
		<tag k="place" v="locality" />
		<tag k="ssr:stedsnr" v="287148" />
	</node>
	<node lat="59.373663887597665" lon="9.023072217397857" id="-26464">
		<tag k="alt_name" v="Meungsdalen" />
		<tag k="name" v="Meongdalen" />
		<tag k="natural" v="valley" />
		<tag k="place" v="locality" />
		<tag k="ssr:stedsnr" v="305301" />
	</node>
	<node lat="59.391486107745344" lon="8.978069448194116" id="-26468">
		<tag k="alt_name" v="Gampenatten" />
		<tag k="fixme" v="consider natural=peak for the most distinct mountains in the district" />
		<tag k="name" v="Gampenuten" />
		<tag k="natural" v="hill" />
		<tag k="place" v="locality" />
		<tag k="ssr:stedsnr" v="305378" />
	</node>
	<node lat="59.49238611272417" lon="9.016238886539101" id="-26472">
		<tag k="fixme" v="consider natural=peak for the most distinct mountains in the district" />
		<tag k="name" v="Husnatten" />
		<tag k="natural" v="hill" />
		<tag k="place" v="locality" />
		<tag k="ssr:stedsnr" v="305635" />
	</node>
	<node lat="59.35514722670008" lon="8.943363886878611" id="-26476">
		<tag k="fixme" v="consider natural=peak for the most distinct mountains in the district" />
		<tag k="name" v="Bjørnhusk" />
		<tag k="natural" v="hill" />
		<tag k="place" v="locality" />
		<tag k="ssr:stedsnr" v="305258" />
	</node>
	<node lat="59.353333335198194" lon="8.871883328470496" id="-26477">
		<tag k="alt_name" v="Grånåfjellet" />
		<tag k="fixme" v="consider natural=peak for the most distinct mountains in the district" />
		<tag k="name" v="Grånåfjell" />
		<tag k="natural" v="hill" />
		<tag k="place" v="locality" />
		<tag k="ssr:stedsnr" v="305263" />
	</node>
	<node lat="59.461244444272026" lon="9.080688881720771" id="-26484">
		<tag k="alt_name" v="Landemyrdalen" />
		<tag k="name" v="Langemyrdalen" />
		<tag k="natural" v="valley" />
		<tag k="place" v="locality" />
		<tag k="ssr:stedsnr" v="306463" />
	</node>
	<node lat="59.417116666407175" lon="9.011875007924196" id="-26486">
		<tag k="fixme" v="consider natural=peak for the most distinct mountains in the district" />
		<tag k="name" v="Forbergåsen" />
		<tag k="natural" v="hill" />
		<tag k="place" v="locality" />
		<tag k="ssr:stedsnr" v="306365" />
	</node>
	<node lat="59.41809166717684" lon="8.880702771617448" id="-26487">
		<tag k="alt_name" v="Geitskoråsane" />
		<tag k="fixme" v="consider natural=peak for the most distinct mountains in the district" />
		<tag k="name" v="Geiteskaråsane" />
		<tag k="natural" v="hill" />
		<tag k="place" v="locality" />
		<tag k="ssr:stedsnr" v="306378" />
	</node>
	<node lat="59.50256110947731" lon="9.106588881144381" id="-26490">
		<tag k="name" v="Hyttedalen" />
		<tag k="natural" v="valley" />
		<tag k="place" v="locality" />
		<tag k="ssr:stedsnr" v="306445" />
	</node>
	<node lat="59.42012777616318" lon="9.349472229890013" id="-26491">
		<tag k="alt_name" v="Langåsen" />
		<tag k="fixme" v="consider natural=peak for the most distinct mountains in the district" />
		<tag k="name" v="Langåsåsen" />
		<tag k="natural" v="hill" />
		<tag k="place" v="locality" />
		<tag k="ssr:stedsnr" v="306990" />
	</node>
	<node lat="59.381802773718036" lon="9.003255548914488" id="-26492">
		<tag k="name" v="Kåsakollen" />
		<tag k="natural" v="hill" />
		<tag k="place" v="locality" />
		<tag k="ssr:stedsnr" v="327085" />
	</node>
	<node lat="59.39595277396668" lon="8.975311106857886" id="-26493">
		<tag k="name" v="Vestredal" />
		<tag k="natural" v="valley" />
		<tag k="place" v="locality" />
		<tag k="ssr:stedsnr" v="328057" />
	</node>
	<node lat="59.42907777786635" lon="9.065952774629945" id="-26497">
		<tag k="name" v="Sisjordjuva" />
		<tag k="natural" v="gorge" />
		<tag k="ssr:stedsnr" v="329143" />
	</node>
	<node lat="59.49225277543801" lon="8.940772219346105" id="-26503">
		<tag k="name" v="Rjupedalen" />
		<tag k="natural" v="valley" />
		<tag k="place" v="locality" />
		<tag k="ssr:stedsnr" v="330940" />
	</node>
	<node lat="59.51688333577213" lon="9.140847222328317" id="-26505">
		<tag k="name" v="Vatnarliane" />
		<tag k="natural" v="slope" />
		<tag k="place" v="locality" />
		<tag k="ssr:stedsnr" v="329744" />
	</node>
	<node lat="59.40221111512946" lon="8.998413884488132" id="-26508">
		<tag k="name" v="Skorra" />
		<tag k="place" v="locality" />
		<tag k="ssr:stedsnr" v="330017" />
	</node>
	<node lat="59.41698611445465" lon="8.907161106522116" id="-26510">
		<tag k="name" v="Sandamoen" />
		<tag k="place" v="locality" />
		<tag k="ssr:stedsnr" v="330133" />
	</node>
	<node lat="59.39656666252269" lon="9.027897229084076" id="-26512">
		<tag k="name" v="Mogane" />
		<tag k="place" v="locality" />
		<tag k="ssr:stedsnr" v="330325" />
	</node>
	<node lat="59.38476388780287" lon="9.027480563780792" id="-26513">
		<tag k="fixme" v="consider natural=peak for the most distinct mountains in the district" />
		<tag k="name" v="Brennekollen" />
		<tag k="natural" v="hill" />
		<tag k="place" v="locality" />
		<tag k="ssr:stedsnr" v="330347" />
	</node>
	<node lat="59.40560277743318" lon="9.048686115330396" id="-26514">
		<tag k="name" v="Niståsnabben" />
		<tag k="natural" v="hill" />
		<tag k="place" v="locality" />
		<tag k="ssr:stedsnr" v="330288" />
	</node>
	<node lat="59.401524999666776" lon="9.020033336092366" id="-26515">
		<tag k="name" v="Senklenuten" />
		<tag k="natural" v="hill" />
		<tag k="place" v="locality" />
		<tag k="ssr:stedsnr" v="330295" />
	</node>
	<node lat="59.46633055247031" lon="9.11793610534699" id="-26516">
		<tag k="name" v="Vermelidalen" />
		<tag k="natural" v="valley" />
		<tag k="place" v="locality" />
		<tag k="ssr:stedsnr" v="330436" />
	</node>
	<node lat="59.52392222074388" lon="9.043805559618324" id="-26517">
		<tag k="name" v="Smånabbane" />
		<tag k="place" v="locality" />
		<tag k="ssr:stedsnr" v="330675" />
	</node>
	<node lat="59.365444443036914" lon="8.937272226686499" id="-26518">
		<tag k="fixme" v="consider natural=peak for the most distinct mountains in the district" />
		<tag k="name" v="Sollifjellet" />
		<tag k="natural" v="hill" />
		<tag k="place" v="locality" />
		<tag k="ssr:stedsnr" v="331035" />
	</node>
	<node lat="59.369263891960514" lon="8.927272223471027" id="-26519">
		<tag k="name" v="Sandkleivåsen" />
		<tag k="natural" v="hill" />
		<tag k="place" v="locality" />
		<tag k="ssr:stedsnr" v="331036" />
	</node>
	<node lat="59.45398888749756" lon="9.019461104356365" id="-26520">
		<tag k="name" v="Storejuv" />
		<tag k="natural" v="gorge" />
		<tag k="ssr:stedsnr" v="331047" />
	</node>
	<node lat="59.45293888571924" lon="8.984386103893083" id="-26521">
		<tag k="fixme" v="consider natural=peak for the most distinct mountains in the district" />
		<tag k="name" v="Ostebekkhaugane" />
		<tag k="natural" v="hill" />
		<tag k="place" v="locality" />
		<tag k="ssr:stedsnr" v="331055" />
	</node>
	<node lat="59.44606666807188" lon="8.917230561048745" id="-26524">
		<tag k="fixme" v="consider natural=peak for the most distinct mountains in the district" />
		<tag k="name" v="Brendeåsen" />
		<tag k="natural" v="hill" />
		<tag k="place" v="locality" />
		<tag k="ssr:stedsnr" v="331830" />
	</node>
	<node lat="59.42958055451896" lon="8.958786102978934" id="-26526">
		<tag k="name" v="Vesleåntoskorra" />
		<tag k="place" v="locality" />
		<tag k="ssr:stedsnr" v="331852" />
	</node>
	<node lat="59.35732777968754" lon="9.378844445043484" id="-26530">
		<tag k="fixme" v="consider natural=peak for the most distinct mountains in the district" />
		<tag k="name" v="Sauetjønnåsene" />
		<tag k="natural" v="hill" />
		<tag k="place" v="locality" />
		<tag k="ssr:stedsnr" v="346497" />
	</node>
	<node lat="59.46156944493909" lon="9.284641674473429" id="-26536">
		<tag k="name" v="Åsli" />
		<tag k="natural" v="slope" />
		<tag k="place" v="locality" />
		<tag k="ssr:stedsnr" v="346189" />
	</node>
	<node lat="59.46079722150826" lon="9.243052773863297" id="-26538">
		<tag k="fixme" v="consider natural=peak for the most distinct mountains in the district" />
		<tag k="name" v="Lienn-åsen" />
		<tag k="natural" v="hill" />
		<tag k="place" v="locality" />
		<tag k="ssr:stedsnr" v="346191" />
	</node>
	<node lat="59.351172225601985" lon="9.317522217206058" id="-26539">
		<tag k="name" v="Gothol" />
		<tag k="natural" v="valley" />
		<tag k="place" v="locality" />
		<tag k="ssr:stedsnr" v="346298" />
	</node>
	<node lat="59.39169722395283" lon="9.330933335083557" id="-26540">
		<tag k="fixme" v="consider natural=peak for the most distinct mountains in the district" />
		<tag k="name" v="Ferto" />
		<tag k="natural" v="hill" />
		<tag k="place" v="locality" />
		<tag k="ssr:stedsnr" v="347030" />
	</node>
	<node lat="59.490213888345565" lon="9.274369450822208" id="-26541">
		<tag k="name" v="Standar-haugene" />
		<tag k="natural" v="hill" />
		<tag k="place" v="locality" />
		<tag k="ssr:stedsnr" v="347036" />
	</node>
	<node lat="59.33622499593666" lon="9.196255560825575" id="-26543">
		<tag k="name" v="Holteheia" />
		<tag k="natural" v="hill" />
		<tag k="place" v="locality" />
		<tag k="ssr:stedsnr" v="347041" />
	</node>
	<node lat="59.334705551792695" lon="9.199558331587005" id="-26544">
		<tag k="name" v="Spirdalen" />
		<tag k="natural" v="valley" />
		<tag k="place" v="locality" />
		<tag k="ssr:stedsnr" v="347042" />
	</node>
	<node lat="59.500808331983386" lon="9.25788889577336" id="-26545">
		<tag k="name" v="Frosthola" />
		<tag k="natural" v="valley" />
		<tag k="place" v="locality" />
		<tag k="ssr:stedsnr" v="347044" />
	</node>
	<node lat="59.44615555219399" lon="9.320283326009738" id="-26549">
		<tag k="fixme" v="consider natural=peak for the most distinct mountains in the district" />
		<tag k="name" v="Øya-åsen" />
		<tag k="natural" v="hill" />
		<tag k="place" v="locality" />
		<tag k="ssr:stedsnr" v="346230" />
	</node>
	<node lat="59.48348889268439" lon="9.444783336039814" id="-26553">
		<tag k="name" v="Veahaugen" />
		<tag k="natural" v="hill" />
		<tag k="place" v="locality" />
		<tag k="ssr:stedsnr" v="346531" />
	</node>
	<node lat="59.4701805553902" lon="9.455430562588417" id="-26555">
		<tag k="name" v="Grisen" />
		<tag k="place" v="locality" />
		<tag k="ssr:stedsnr" v="346534" />
	</node>
	<node lat="59.43898055921695" lon="9.390008328771879" id="-26560">
		<tag k="name" v="Dugurdsfjell-dalen" />
		<tag k="natural" v="valley" />
		<tag k="place" v="locality" />
		<tag k="ssr:stedsnr" v="346698" />
	</node>
	<node lat="59.363319447952605" lon="9.271761104274818" id="-26563">
		<tag k="name" v="Briskehaugene" />
		<tag k="natural" v="hill" />
		<tag k="place" v="locality" />
		<tag k="ssr:stedsnr" v="346795" />
	</node>
	<node lat="59.39540555857314" lon="9.156686104518933" id="-26579">
		<tag k="fixme" v="consider natural=peak for the most distinct mountains in the district" />
		<tag k="name" v="Kvigarden" />
		<tag k="natural" v="hill" />
		<tag k="place" v="locality" />
		<tag k="ssr:stedsnr" v="347234" />
	</node>
	<node lat="59.369794446660045" lon="9.315744441753983" id="-26580">
		<tag k="name" v="Trengliene" />
		<tag k="natural" v="slope" />
		<tag k="place" v="locality" />
		<tag k="ssr:stedsnr" v="347243" />
	</node>
	<node lat="59.43315833386663" lon="8.93875833172433" id="-26596">
		<tag k="fixme" v="consider natural=peak for the most distinct mountains in the district" />
		<tag k="name" v="Gråndalsnuten" />
		<tag k="natural" v="hill" />
		<tag k="place" v="locality" />
		<tag k="ssr:stedsnr" v="366466" />
	</node>
	<node lat="59.43867777758183" lon="9.187905558194881" id="-26598">
		<tag k="name" v="Rekmyrdalen" />
		<tag k="natural" v="valley" />
		<tag k="place" v="locality" />
		<tag k="ssr:stedsnr" v="366475" />
	</node>
	<node lat="59.4752749970001" lon="9.158333327407814" id="-26600">
		<tag k="alt_name" v="Krikstjørnnuten" />
		<tag k="fixme" v="consider natural=peak for the most distinct mountains in the district" />
		<tag k="name" v="Krigstjønnuten" />
		<tag k="natural" v="hill" />
		<tag k="place" v="locality" />
		<tag k="ssr:stedsnr" v="366608" />
	</node>
	<node lat="59.47863611247302" lon="8.940619435987399" id="-26602">
		<tag k="fixme" v="consider natural=peak for the most distinct mountains in the district" />
		<tag k="name" v="Valgjuvsnatten" />
		<tag k="natural" v="hill" />
		<tag k="place" v="locality" />
		<tag k="ssr:stedsnr" v="366617" />
	</node>
	<node lat="59.48554721788745" lon="9.186363887393625" id="-26603">
		<tag k="alt_name" v="Roemsheia;Roheimsheia" />
		<tag k="name" v="Roheimheia" />
		<tag k="natural" v="hill" />
		<tag k="place" v="locality" />
		<tag k="ssr:stedsnr" v="366618" />
	</node>
	<node lat="59.503516662573496" lon="9.076783334053223" id="-26614">
		<tag k="alt_name" v="Gamlestulfjellet" />
		<tag k="fixme" v="consider natural=peak for the most distinct mountains in the district" />
		<tag k="name" v="Gamlestulfjell" />
		<tag k="natural" v="hill" />
		<tag k="place" v="locality" />
		<tag k="ssr:stedsnr" v="367413" />
	</node>
	<node lat="59.36673333769854" lon="9.321455558951108" id="-26615">
		<tag k="alt_name" v="Vardefjellet" />
		<tag k="fixme" v="consider natural=peak for the most distinct mountains in the district" />
		<tag k="name" v="Vardefjell" />
		<tag k="natural" v="hill" />
		<tag k="place" v="locality" />
		<tag k="ssr:stedsnr" v="373680" />
	</node>
	<node lat="59.41872777973238" lon="8.96089166556913" id="-26618">
		<tag k="name" v="Nyhusskora" />
		<tag k="natural" v="valley" />
		<tag k="place" v="locality" />
		<tag k="ssr:stedsnr" v="389070" />
	</node>
	<node lat="59.42793611369404" lon="9.073030561016855" id="-26622">
		<tag k="name" v="Folkestaddalen" />
		<tag k="natural" v="valley" />
		<tag k="place" v="locality" />
		<tag k="ssr:stedsnr" v="389136" />
	</node>
	<node lat="59.36511388773196" lon="9.014841658202057" id="-26624">
		<tag k="fixme" v="consider natural=peak for the most distinct mountains in the district" />
		<tag k="name" v="Fiskestigen" />
		<tag k="natural" v="hill" />
		<tag k="place" v="locality" />
		<tag k="ssr:stedsnr" v="389415" />
	</node>
	<node lat="59.40889444700014" lon="9.040297218697617" id="-26626">
		<tag k="name" v="Smiuhaugen" />
		<tag k="natural" v="hill" />
		<tag k="place" v="locality" />
		<tag k="ssr:stedsnr" v="389255" />
	</node>
	<node lat="59.35670556003845" lon="8.918141664584791" id="-26627">
		<tag k="name" v="Grånåstulhova" />
		<tag k="natural" v="hill" />
		<tag k="place" v="locality" />
		<tag k="ssr:stedsnr" v="389446" />
	</node>
	<node lat="59.48664444415048" lon="9.069802777122133" id="-26628">
		<tag k="name" v="Hellerhaug" />
		<tag k="natural" v="hill" />
		<tag k="place" v="locality" />
		<tag k="ssr:stedsnr" v="389457" />
	</node>
	<node lat="59.499369443580484" lon="9.100941672876953" id="-26632">
		<tag k="name" v="Spondalsmoen" />
		<tag k="place" v="locality" />
		<tag k="ssr:stedsnr" v="389595" />
	</node>
	<node lat="59.45388888899122" lon="9.135091666473206" id="-26634">
		<tag k="name" v="Merraskotet" />
		<tag k="natural" v="slope" />
		<tag k="place" v="locality" />
		<tag k="ssr:stedsnr" v="389920" />
	</node>
	<node lat="59.401102778841405" lon="8.936633330787023" id="-26636">
		<tag k="name" v="Grønskdalen" />
		<tag k="natural" v="valley" />
		<tag k="place" v="locality" />
		<tag k="ssr:stedsnr" v="390134" />
	</node>
	<node lat="59.390105557506686" lon="9.005200004128758" id="-26640">
		<tag k="name" v="Sonstuldalen" />
		<tag k="natural" v="valley" />
		<tag k="place" v="locality" />
		<tag k="ssr:stedsnr" v="390315" />
	</node>
	<node lat="59.39175277939153" lon="9.086274999125946" id="-26642">
		<tag k="name" v="Skrikeruddalane" />
		<tag k="natural" v="valley" />
		<tag k="place" v="locality" />
		<tag k="ssr:stedsnr" v="390365" />
	</node>
	<node lat="59.331633336193974" lon="9.180455553979888" id="-26643">
		<tag k="name" v="Gangsjådalen" />
		<tag k="natural" v="valley" />
		<tag k="place" v="locality" />
		<tag k="ssr:stedsnr" v="390469" />
	</node>
	<node lat="59.532652777297415" lon="9.024319439536905" id="-26645">
		<tag k="name" v="Blåfjellskorra" />
		<tag k="natural" v="hill" />
		<tag k="place" v="locality" />
		<tag k="ssr:stedsnr" v="390576" />
	</node>
	<node lat="59.4626305587178" lon="9.043713887077558" id="-26649">
		<tag k="name" v="Østliholet" />
		<tag k="natural" v="gorge" />
		<tag k="ssr:stedsnr" v="391059" />
	</node>
	<node lat="59.387963891057225" lon="8.897563891791453" id="-26651">
		<tag k="fixme" v="consider natural=peak for the most distinct mountains in the district" />
		<tag k="name" v="Ramsåsnuten" />
		<tag k="natural" v="hill" />
		<tag k="place" v="locality" />
		<tag k="ssr:stedsnr" v="392019" />
	</node>
	<node lat="59.424638891142884" lon="8.912897223178584" id="-26653">
		<tag k="name" v="Kalvejuvet" />
		<tag k="natural" v="gorge" />
		<tag k="ssr:stedsnr" v="392821" />
	</node>
	<node lat="59.42583055751591" lon="8.995933335338707" id="-26655">
		<tag k="name" v="Askeberga" />
		<tag k="natural" v="hill" />
		<tag k="place" v="locality" />
		<tag k="ssr:stedsnr" v="392858" />
	</node>
	<node lat="59.43233610715603" lon="8.96496389587347" id="-26657">
		<tag k="name" v="Åntojuvet" />
		<tag k="natural" v="gorge" />
		<tag k="ssr:stedsnr" v="392868" />
	</node>
	<node lat="59.47260555833287" lon="8.927258335271056" id="-26661">
		<tag k="name" v="Røksbudalen" />
		<tag k="natural" v="valley" />
		<tag k="place" v="locality" />
		<tag k="ssr:stedsnr" v="392924" />
	</node>
	<node lat="59.47419999999886" lon="8.947147226870529" id="-26662">
		<tag k="name" v="Køytelia" />
		<tag k="natural" v="slope" />
		<tag k="place" v="locality" />
		<tag k="ssr:stedsnr" v="392926" />
	</node>
	<node lat="59.449133334976096" lon="9.247341657991287" id="-26673">
		<tag k="name" v="Gvanntjønn-liene" />
		<tag k="natural" v="slope" />
		<tag k="place" v="locality" />
		<tag k="ssr:stedsnr" v="407164" />
	</node>
	<node lat="59.417908333311686" lon="9.370097225832048" id="-26676">
		<tag k="name" v="Flathusliene" />
		<tag k="natural" v="slope" />
		<tag k="place" v="locality" />
		<tag k="ssr:stedsnr" v="407365" />
	</node>
	<node lat="59.384072220898915" lon="9.360744446441114" id="-26679">
		<tag k="name" v="Vihusliene" />
		<tag k="natural" v="slope" />
		<tag k="place" v="locality" />
		<tag k="ssr:stedsnr" v="407384" />
	</node>
	<node lat="59.3571666673364" lon="9.342777776783713" id="-26681">
		<tag k="name" v="Mjågetjønnliene" />
		<tag k="natural" v="slope" />
		<tag k="place" v="locality" />
		<tag k="ssr:stedsnr" v="407294" />
	</node>
	<node lat="59.34691388820612" lon="9.288333340937786" id="-26683">
		<tag k="name" v="Ottersnesfjellet" />
		<tag k="natural" v="hill" />
		<tag k="place" v="locality" />
		<tag k="ssr:stedsnr" v="407308" />
	</node>
	<node lat="59.35431388797324" lon="9.322636114601837" id="-26684">
		<tag k="name" v="Svartefjell" />
		<tag k="natural" v="hill" />
		<tag k="place" v="locality" />
		<tag k="ssr:stedsnr" v="407319" />
	</node>
	<node lat="59.36054721980681" lon="9.283749995875642" id="-26698">
		<tag k="fixme" v="consider natural=peak for the most distinct mountains in the district" />
		<tag k="name" v="Uldrefloget" />
		<tag k="natural" v="hill" />
		<tag k="place" v="locality" />
		<tag k="ssr:stedsnr" v="407826" />
	</node>
	<node lat="59.433677780398114" lon="9.336716666744554" id="-26701">
		<tag k="fixme" v="consider natural=peak for the most distinct mountains in the district" />
		<tag k="name" v="Skåpilmyr-åsen" />
		<tag k="natural" v="hill" />
		<tag k="place" v="locality" />
		<tag k="ssr:stedsnr" v="407935" />
	</node>
	<node lat="59.46683332960495" lon="9.268269439087064" id="-26704">
		<tag k="name" v="Å-rinnen" />
		<tag k="place" v="locality" />
		<tag k="ssr:stedsnr" v="408213" />
	</node>
	<node lat="59.48219722190239" lon="9.27961111963881" id="-26705">
		<tag k="fixme" v="consider natural=peak for the most distinct mountains in the district" />
		<tag k="name" v="Damtjønn-åsene" />
		<tag k="natural" v="hill" />
		<tag k="place" v="locality" />
		<tag k="ssr:stedsnr" v="408215" />
	</node>
	<node lat="59.32746389309064" lon="9.1945916614544" id="-26710">
		<tag k="fixme" v="consider natural=peak for the most distinct mountains in the district" />
		<tag k="name" v="Versmyråsen" />
		<tag k="natural" v="hill" />
		<tag k="place" v="locality" />
		<tag k="ssr:stedsnr" v="408138" />
	</node>
	<node lat="59.346725002795694" lon="8.92245000668901" id="-26718">
		<tag k="alt_name" v="Bjønnefjell" />
		<tag k="fixme" v="consider natural=peak for the most distinct mountains in the district" />
		<tag k="name" v="Bjørnefjell" />
		<tag k="natural" v="hill" />
		<tag k="place" v="locality" />
		<tag k="ssr:stedsnr" v="427282" />
	</node>
	<node lat="59.47252222234885" lon="9.344733333771936" id="-26722">
		<tag k="alt_name" v="Haugåsen" />
		<tag k="fixme" v="consider natural=peak for the most distinct mountains in the district" />
		<tag k="name" v="Haugås" />
		<tag k="natural" v="hill" />
		<tag k="place" v="locality" />
		<tag k="ssr:stedsnr" v="427039" />
	</node>
	<node lat="59.327536107705036" lon="9.203458341418383" id="-26724">
		<tag k="alt_name" v="Ramsenatten, store;Store Ramseknatten" />
		<tag k="fixme" v="consider natural=peak for the most distinct mountains in the district" />
		<tag k="name" v="Store Ramsenatten" />
		<tag k="natural" v="hill" />
		<tag k="place" v="locality" />
		<tag k="ssr:stedsnr" v="427242" />
	</node>
	<node lat="59.391430554133045" lon="8.970174998757237" id="-26726">
		<tag k="name" v="Jønneberghøgda" />
		<tag k="natural" v="hill" />
		<tag k="place" v="locality" />
		<tag k="ssr:stedsnr" v="427345" />
	</node>
	<node lat="59.3826361130858" lon="8.953408338533162" id="-26727">
		<tag k="name" v="Uvdalsheia" />
		<tag k="natural" v="hill" />
		<tag k="place" v="locality" />
		<tag k="ssr:stedsnr" v="427346" />
	</node>
	<node lat="59.3898249975765" lon="9.351955546807806" id="-26739">
		<tag k="alt_name" v="Skulsnibben" />
		<tag k="name" v="Skulssnippen" />
		<tag k="natural" v="hill" />
		<tag k="place" v="locality" />
		<tag k="ssr:stedsnr" v="427893" />
	</node>
	<node lat="59.367341665248205" lon="8.87001111229804" id="-26746">
		<tag k="name" v="Rognliane" />
		<tag k="natural" v="slope" />
		<tag k="place" v="locality" />
		<tag k="ssr:stedsnr" v="509197" />
	</node>
	<node lat="59.5036333340608" lon="8.99587499588886" id="-26749">
		<tag k="name" v="Hålåmønane" />
		<tag k="natural" v="hill" />
		<tag k="place" v="locality" />
		<tag k="ssr:stedsnr" v="510935" />
	</node>
	<node lat="59.493555559465335" lon="9.155950001897537" id="-26761">
		<tag k="fixme" v="consider natural=peak for the most distinct mountains in the district" />
		<tag k="name" v="Kønnåsnuten" />
		<tag k="natural" v="hill" />
		<tag k="place" v="locality" />
		<tag k="ssr:stedsnr" v="511555" />
	</node>
	<node lat="59.41531111443917" lon="8.934644440034512" id="-26767">
		<tag k="fixme" v="consider natural=peak for the most distinct mountains in the district" />
		<tag k="name" v="Revsås" />
		<tag k="natural" v="hill" />
		<tag k="place" v="locality" />
		<tag k="ssr:stedsnr" v="512162" />
	</node>
	<node lat="59.374680559070846" lon="8.91103332715496" id="-26771">
		<tag k="name" v="Jammerdal" />
		<tag k="natural" v="valley" />
		<tag k="place" v="locality" />
		<tag k="ssr:stedsnr" v="513046" />
	</node>
	<node lat="59.36452777827033" lon="8.941547219694133" id="-26772">
		<tag k="name" v="Svarttjønndalen" />
		<tag k="natural" v="valley" />
		<tag k="place" v="locality" />
		<tag k="ssr:stedsnr" v="513059" />
	</node>
	<node lat="59.388108329652326" lon="8.939697218607211" id="-26773">
		<tag k="name" v="Hidalen" />
		<tag k="natural" v="valley" />
		<tag k="place" v="locality" />
		<tag k="ssr:stedsnr" v="513006" />
	</node>
	<node lat="59.387836115231" lon="8.907258341224724" id="-26774">
		<tag k="fixme" v="consider natural=peak for the most distinct mountains in the district" />
		<tag k="name" v="Borkenuten" />
		<tag k="natural" v="hill" />
		<tag k="place" v="locality" />
		<tag k="ssr:stedsnr" v="513013" />
	</node>
	<node lat="59.452150004363816" lon="9.00182777689817" id="-26776">
		<tag k="name" v="Helleliane" />
		<tag k="natural" v="slope" />
		<tag k="place" v="locality" />
		<tag k="ssr:stedsnr" v="513081" />
	</node>
	<node lat="59.445300000770935" lon="8.966641659000246" id="-26777">
		<tag k="name" v="Bryggjefjellnåsa" />
		<tag k="place" v="locality" />
		<tag k="ssr:stedsnr" v="513084" />
	</node>
	<node lat="59.461719440149196" lon="8.976269446047535" id="-26778">
		<tag k="fixme" v="consider natural=peak for the most distinct mountains in the district" />
		<tag k="name" v="Sauliåsen" />
		<tag k="natural" v="hill" />
		<tag k="place" v="locality" />
		<tag k="ssr:stedsnr" v="513085" />
	</node>
	<node lat="59.50576110794679" lon="9.058161117026499" id="-26780">
		<tag k="name" v="Kåsåskaret" />
		<tag k="natural" v="valley" />
		<tag k="place" v="locality" />
		<tag k="ssr:stedsnr" v="513548" />
	</node>
	<node lat="59.50461666274244" lon="9.062325008316265" id="-26781">
		<tag k="name" v="Grønmyrdalen" />
		<tag k="natural" v="valley" />
		<tag k="place" v="locality" />
		<tag k="ssr:stedsnr" v="513557" />
	</node>
	<node lat="59.43752499775245" lon="8.96713334104398" id="-26782">
		<tag k="name" v="Hottane" />
		<tag k="natural" v="hill" />
		<tag k="place" v="locality" />
		<tag k="ssr:stedsnr" v="513880" />
	</node>
	<node lat="59.43592221846145" lon="8.901316660306914" id="-26785">
		<tag k="name" v="Landsverkdalen" />
		<tag k="natural" v="valley" />
		<tag k="place" v="locality" />
		<tag k="ssr:stedsnr" v="513828" />
	</node>
	<node lat="59.47543055127058" lon="9.171102779189248" id="-26790">
		<tag k="name" v="Tokleivdalen" />
		<tag k="natural" v="valley" />
		<tag k="place" v="locality" />
		<tag k="ssr:stedsnr" v="513935" />
	</node>
	<node lat="59.47706667100646" lon="8.929550002787744" id="-26793">
		<tag k="name" v="Jordfjellet" />
		<tag k="place" v="locality" />
		<tag k="ssr:stedsnr" v="514000" />
	</node>
	<node lat="59.40875833206752" lon="9.362119436254066" id="-26795">
		<tag k="name" v="Kabrettholet" />
		<tag k="natural" v="valley" />
		<tag k="place" v="locality" />
		<tag k="ssr:stedsnr" v="528398" />
	</node>
	<node lat="59.48055278105268" lon="9.453905550409834" id="-26796">
		<tag k="name" v="Øvre-Djupedal" />
		<tag k="natural" v="valley" />
		<tag k="place" v="locality" />
		<tag k="ssr:stedsnr" v="528490" />
	</node>
	<node lat="59.49154999978356" lon="9.240527785233027" id="-26809">
		<tag k="name" v="Slåtteseterliene" />
		<tag k="natural" v="slope" />
		<tag k="place" v="locality" />
		<tag k="ssr:stedsnr" v="529030" />
	</node>
	<node lat="59.35265278039637" lon="9.177097230353757" id="-26811">
		<tag k="fixme" v="consider natural=peak for the most distinct mountains in the district" />
		<tag k="name" v="Åsmyråsen" />
		<tag k="natural" v="hill" />
		<tag k="place" v="locality" />
		<tag k="ssr:stedsnr" v="529071" />
	</node>
</osm>
