<?xml version="1.0" encoding="UTF-8"?>
<<<<<<< HEAD
<osm version="0.6" generator="osmapis">
	<node lat="59.36666110878544" lon="9.191411109256022" id="-20269">
		<tag k="man_made" v="quay" />
		<tag k="name" v="Årnes" />
		<tag k="place" v="locality" />
		<tag k="ssr:stedsnr" v="2320" />
	</node>
	<node lat="59.47559166392412" lon="9.310244449760495" id="-20339">
		<tag k="fixme" v="verify maritime location" />
		<tag k="mooring" v="yes" />
		<tag k="name" v="Svarteholet" />
		<tag k="place" v="locality" />
		<tag k="ssr:stedsnr" v="43987" />
	</node>
	<node lat="59.37489444725661" lon="9.044674999436968" id="-20351">
		<tag k="bridge" v="yes" />
		<tag k="layer" v="1" />
		<tag k="name" v="Åse" />
		<tag k="ssr:stedsnr" v="46274" />
	</node>
	<node lat="59.45193889014574" lon="8.910022223952716" id="-20360">
=======
<osm generator="osmapis" version="0.6">
	<node id="-444924" lat="59.3844499961" lon="9.1020499989">
		<tag k="man_made" v="cairn" />
		<tag k="name" v="Røysdeilda" />
		<tag k="place" v="locality" />
		<tag k="ssr:stedsnr" v="450583" />
	</node>
	<node id="-445432" lat="59.4794805538" lon="8.96909722009">
		<tag k="highway" v="path" />
		<tag k="name" v="Stretakleiv" />
		<tag k="ssr:stedsnr" v="513674" />
	</node>
	<node id="-447474" lat="59.4093833359" lon="9.0690111184">
		<tag k="alt_name" v="Bø stasjon" />
		<tag k="name" v="Bø" />
		<tag k="railway" v="station" />
		<tag k="ssr:stedsnr" v="791333" />
		<tag k="train" v="yes" />
	</node>
	<node id="-445931" lat="59.4117055562" lon="9.06943611877">
		<tag k="bridge" v="yes" />
		<tag k="layer" v="1" />
		<tag k="name" v="Bøevja" />
		<tag k="ssr:stedsnr" v="775259" />
	</node>
	<node id="-444896" lat="59.4228694464" lon="8.90534167497">
		<tag k="bridge" v="yes" />
		<tag k="layer" v="1" />
		<tag k="name" v="Verpe" />
		<tag k="ssr:stedsnr" v="228266" />
	</node>
	<node id="-447455" lat="59.4127194415" lon="9.11655555302">
		<tag k="bridge" v="yes" />
		<tag k="layer" v="1" />
		<tag k="name" v="Mannebru" />
		<tag k="ssr:stedsnr" v="875686" />
	</node>
	<node id="-444894" lat="59.3634749979" lon="9.18339999422">
		<tag k="bridge" v="yes" />
		<tag k="layer" v="1" />
		<tag k="name" v="Årnesbekk" />
		<tag k="ssr:stedsnr" v="228256" />
	</node>
	<node id="-445913" lat="59.4041416684" lon="9.16709723048">
		<tag k="fixme" v="verify maritime location" />
		<tag k="mooring" v="yes" />
		<tag k="name" v="Kolatangen" />
		<tag k="place" v="locality" />
		<tag k="ssr:stedsnr" v="771272" />
	</node>
	<node id="-444920" lat="59.371105559" lon="9.03196110788">
		<tag k="fixme" v="consider highway=path" />
		<tag k="highway" v="track" />
		<tag k="name" v="Hurrongvegen" />
		<tag k="ssr:stedsnr" v="450401" />
	</node>
	<node id="-444868" lat="59.4602083359" lon="9.31381110686">
		<tag k="bridge" v="yes" />
		<tag k="layer" v="1" />
		<tag k="name" v="Nautesund bru" />
		<tag k="ssr:stedsnr" v="286783" />
	</node>
	<node id="-447423" lat="59.4891666707" lon="9.30357221776">
		<tag k="fixme" v="verify maritime location" />
		<tag k="mooring" v="yes" />
		<tag k="name" v="Nordstå" />
		<tag k="place" v="locality" />
		<tag k="ssr:stedsnr" v="771089" />
	</node>
	<node id="-444844" lat="59.4196749974" lon="9.27775278166">
		<tag k="bridge" v="yes" />
		<tag k="layer" v="1" />
		<tag k="name" v="Sauar" />
		<tag k="ssr:stedsnr" v="168261" />
	</node>
	<node id="-446890" lat="59.3968861155" lon="8.95034999525">
		<tag k="highway" v="path" />
		<tag k="name" v="Langeskota" />
		<tag k="ssr:stedsnr" v="388048" />
	</node>
	<node id="-444840" lat="59.3666249967" lon="9.30028610616">
		<tag k="name" v="Vinterlaget" />
		<tag k="place" v="locality" />
		<tag k="ssr:stedsnr" v="165255" />
	</node>
	<node id="-444834" lat="59.4590027753" lon="9.30515556066">
		<tag k="alt_name" v="Klevar" />
		<tag k="bridge" v="yes" />
		<tag k="layer" v="1" />
		<tag k="name" v="Klevarbrua" />
		<tag k="ssr:stedsnr" v="165153" />
	</node>
	<node id="-447393" lat="59.4876027803" lon="9.01646666555">
		<tag k="highway" v="path" />
		<tag k="name" v="Sandkleiv" />
		<tag k="ssr:stedsnr" v="755558" />
	</node>
	<node id="-447390" lat="59.4064999978" lon="8.9007666747">
		<tag k="highway" v="path" />
		<tag k="name" v="Sandstulvegen" />
		<tag k="ssr:stedsnr" v="755122" />
	</node>
	<node id="-446365" lat="59.4914916695" lon="8.96307221701">
		<tag k="name" v="Okslagrinda" />
		<tag k="place" v="locality" />
		<tag k="ssr:stedsnr" v="87594" />
	</node>
	<node id="-446870" lat="59.4031944405" lon="9.31196110586">
		<tag k="name" v="Moen" />
		<tag k="railway" v="station" />
		<tag k="ssr:stedsnr" v="366857" />
		<tag k="train" v="yes" />
	</node>
	<node id="-447378" lat="59.4695416639" lon="9.09362778657">
		<tag k="alt_name" v="Høgfosskås" />
		<tag k="bridge" v="yes" />
		<tag k="layer" v="1" />
		<tag k="name" v="Høgfosskåsbrua" />
		<tag k="ssr:stedsnr" v="754510" />
	</node>
	<node id="-445329" lat="59.4584083322" lon="9.11078334118">
		<tag k="bridge" v="yes" />
		<tag k="layer" v="1" />
		<tag k="name" v="Ølsbru" />
		<tag k="ssr:stedsnr" v="451303" />
	</node>
	<node id="-445326" lat="59.4440777787" lon="9.01731111117">
		<tag k="name" v="Klovleet" />
		<tag k="place" v="locality" />
		<tag k="ssr:stedsnr" v="451028" />
	</node>
	<node id="-447372" lat="59.4201194453" lon="8.90195833526">
		<tag k="alt_name" v="Sanda" />
>>>>>>> e1d4bc35ff8a6074a6f2e91616a996b547c36f15
		<tag k="bridge" v="yes" />
		<tag k="layer" v="1" />
		<tag k="name" v="Myklestulbrua" />
		<tag k="ssr:stedsnr" v="63506" />
	</node>
<<<<<<< HEAD
	<node lat="59.43083055249906" lon="9.05314167537914" id="-20399">
=======
	<node id="-446347" lat="59.4308305525" lon="9.05314167538">
>>>>>>> e1d4bc35ff8a6074a6f2e91616a996b547c36f15
		<tag k="landuse" v="industrial" />
		<tag k="name" v="Kraftverk" />
		<tag k="power" v="plant" />
		<tag k="ssr:stedsnr" v="86577" />
	</node>
<<<<<<< HEAD
	<node lat="59.474902779946504" lon="9.167824996076428" id="-20408">
		<tag k="highway" v="path" />
		<tag k="name" v="Sandkleiv" />
		<tag k="ssr:stedsnr" v="86910" />
	</node>
	<node lat="59.417899999115356" lon="9.32287500312877" id="-20427">
		<tag k="name" v="Nordagutu" />
		<tag k="railway" v="station" />
		<tag k="ssr:stedsnr" v="245989" />
		<tag k="train" v="yes" />
	</node>
	<node lat="59.4637972209894" lon="8.959427777999286" id="-20485">
=======
	<node id="-446336" lat="59.4452749956" lon="9.05214445131">
		<tag k="bridge" v="yes" />
		<tag k="layer" v="1" />
		<tag k="name" v="Bekkåsbru" />
		<tag k="ssr:stedsnr" v="86042" />
	</node>
	<node id="-444798" lat="59.463797221" lon="8.959427778">
>>>>>>> e1d4bc35ff8a6074a6f2e91616a996b547c36f15
		<tag k="highway" v="path" />
		<tag k="name" v="Råmundsklopp" />
		<tag k="ssr:stedsnr" v="147115" />
	</node>
<<<<<<< HEAD
	<node lat="59.41967499735527" lon="9.277752781656693" id="-20528">
=======
	<node id="-447352" lat="59.4232083347" lon="8.98166943913">
>>>>>>> e1d4bc35ff8a6074a6f2e91616a996b547c36f15
		<tag k="bridge" v="yes" />
		<tag k="layer" v="1" />
		<tag k="name" v="Sauar" />
		<tag k="ssr:stedsnr" v="168261" />
	</node>
<<<<<<< HEAD
	<node lat="59.39797222235385" lon="9.243136106708755" id="-20529">
		<tag k="bridge" v="yes" />
		<tag k="layer" v="1" />
		<tag k="name" v="Jonsåsreset" />
		<tag k="ssr:stedsnr" v="168264" />
	</node>
	<node lat="59.38277500186556" lon="9.041980560018189" id="-20530">
		<tag k="bridge" v="yes" />
		<tag k="layer" v="1" />
		<tag k="name" v="Tjønnås" />
		<tag k="ssr:stedsnr" v="168270" />
	</node>
	<node lat="59.38641111297463" lon="9.329905551001266" id="-20542">
		<tag k="name" v="Dalsvatn" />
		<tag k="railway" v="station" />
		<tag k="ssr:stedsnr" v="184886" />
		<tag k="train" v="yes" />
	</node>
	<node lat="59.43930833181548" lon="9.045430559519595" id="-20587">
=======
	<node id="-447350" lat="59.3976194436" lon="9.2439416691">
		<tag k="junction" v="yes" />
		<tag k="name" v="Reset" />
		<tag k="place" v="locality" />
		<tag k="ssr:stedsnr" v="651673" />
	</node>
	<node id="-447347" lat="59.3707944412" lon="9.20944444852">
		<tag k="man_made" v="quay" />
		<tag k="name" v="Aslaksborg" />
		<tag k="place" v="locality" />
		<tag k="ssr:stedsnr" v="650887" />
	</node>
	<node id="-447720" lat="59.3697527779" lon="9.17746944961">
		<tag k="bridge" v="yes" />
		<tag k="layer" v="1" />
		<tag k="name" v="Årnes" />
		<tag k="ssr:stedsnr" v="957260" />
	</node>
	<node id="-444782" lat="59.440030554" lon="9.04082500087">
		<tag k="highway" v="path" />
		<tag k="name" v="Liskott" />
		<tag k="ssr:stedsnr" v="269647" />
	</node>
	<node id="-444781" lat="59.4393083318" lon="9.04543055952">
>>>>>>> e1d4bc35ff8a6074a6f2e91616a996b547c36f15
		<tag k="bridge" v="yes" />
		<tag k="layer" v="1" />
		<tag k="name" v="Juvsåbrua" />
		<tag k="ssr:stedsnr" v="269641" />
	</node>
<<<<<<< HEAD
	<node lat="59.44003055397137" lon="9.040825000866382" id="-20588">
		<tag k="highway" v="path" />
		<tag k="name" v="Liskott" />
		<tag k="ssr:stedsnr" v="269647" />
	</node>
	<node lat="59.384966664247344" lon="8.904188883455236" id="-20596">
		<tag k="highway" v="path" />
		<tag k="name" v="Vrangeskot" />
		<tag k="ssr:stedsnr" v="271017" />
	</node>
	<node lat="59.37134166468093" lon="8.883261108062275" id="-20599">
=======
	<node id="-447512" lat="59.3974694452" lon="9.06627222323">
		<tag k="highway" v="path" />
		<tag k="name" v="Bordvegen" />
		<tag k="ssr:stedsnr" v="814435" />
	</node>
	<node id="-445799" lat="59.4028694418" lon="9.21793056263">
>>>>>>> e1d4bc35ff8a6074a6f2e91616a996b547c36f15
		<tag k="ford" v="yes" />
		<tag k="name" v="Bakkjerkromla" />
		<tag k="place" v="locality" />
<<<<<<< HEAD
		<tag k="ssr:stedsnr" v="271265" />
	</node>
	<node lat="59.37110555904277" lon="9.031961107877173" id="-20625">
		<tag k="fixme" v="consider highway=path" />
		<tag k="highway" v="track" />
		<tag k="name" v="Hurrongvegen" />
		<tag k="ssr:stedsnr" v="450401" />
	</node>
	<node lat="59.351571199750516" lon="8.88175943229043" id="-20626">
		<tag k="man_made" v="cairn" />
		<tag k="name" v="Grånåfjellvarden" />
		<tag k="place" v="locality" />
		<tag k="ssr:stedsnr" v="450432" />
	</node>
	<node lat="59.44407777874766" lon="9.017311111165796" id="-20637">
		<tag k="name" v="Klovleet" />
		<tag k="place" v="locality" />
		<tag k="ssr:stedsnr" v="451028" />
	</node>
	<node lat="59.4783333306513" lon="8.994663891640391" id="-20677">
		<tag k="ford" v="yes" />
		<tag k="name" v="Grostulvaet" />
		<tag k="place" v="locality" />
		<tag k="ssr:stedsnr" v="452659" />
	</node>
	<node lat="59.46020833594283" lon="9.31381110686014" id="-20738">
		<tag k="bridge" v="yes" />
		<tag k="layer" v="1" />
		<tag k="name" v="Nautesund bru" />
		<tag k="ssr:stedsnr" v="286783" />
	</node>
	<node lat="59.48716666399565" lon="9.306130546884598" id="-20804">
=======
		<tag k="ssr:stedsnr" v="893429" />
	</node>
	<node id="-445278" lat="59.376724998" lon="8.94020000631">
		<tag k="bridge" v="yes" />
		<tag k="layer" v="1" />
		<tag k="name" v="Tveitbrua" />
		<tag k="ssr:stedsnr" v="513037" />
	</node>
	<node id="-446297" lat="59.4259083303" lon="9.07192500062">
		<tag k="bridge" v="yes" />
		<tag k="layer" v="1" />
		<tag k="name" v="Folkestad" />
		<tag k="ssr:stedsnr" v="46293" />
	</node>
	<node id="-446296" lat="59.3748944473" lon="9.04467499944">
		<tag k="bridge" v="yes" />
		<tag k="layer" v="1" />
		<tag k="name" v="Åse" />
		<tag k="ssr:stedsnr" v="46274" />
	</node>
	<node id="-445268" lat="59.4183638901" lon="9.12023611465">
		<tag k="bridge" v="yes" />
		<tag k="layer" v="1" />
		<tag k="name" v="Bergingsbru" />
		<tag k="ssr:stedsnr" v="511964" />
	</node>
	<node id="-446796" lat="59.4744333377" lon="9.44557777701">
		<tag k="highway" v="path" />
		<tag k="name" v="Stulsvegen" />
		<tag k="ssr:stedsnr" v="346532" />
	</node>
	<node id="-444746" lat="59.3985833363" lon="9.14242499839">
		<tag k="bridge" v="yes" />
		<tag k="layer" v="1" />
		<tag k="name" v="Liaberget" />
		<tag k="ssr:stedsnr" v="107255" />
	</node>
	<node id="-445766" lat="59.3352500005" lon="9.22415278334">
		<tag k="man_made" v="quay" />
		<tag k="name" v="Gamle brygge" />
		<tag k="place" v="locality" />
		<tag k="ssr:stedsnr" v="893081" />
	</node>
	<node id="-446277" lat="59.4755916639" lon="9.31024444976">
>>>>>>> e1d4bc35ff8a6074a6f2e91616a996b547c36f15
		<tag k="fixme" v="verify maritime location" />
		<tag k="mooring" v="yes" />
		<tag k="name" v="Brattestå" />
		<tag k="place" v="locality" />
		<tag k="ssr:stedsnr" v="468830" />
	</node>
<<<<<<< HEAD
	<node lat="59.43648055220152" lon="9.30632222329692" id="-20867">
		<tag k="man_made" v="quay" />
		<tag k="name" v="Sanden" />
		<tag k="place" v="locality" />
		<tag k="ssr:stedsnr" v="347605" />
	</node>
	<node lat="59.39688611550548" lon="8.950349995252104" id="-20898">
=======
	<node id="-444733" lat="59.4749027799" lon="9.16782499608">
		<tag k="highway" v="path" />
		<tag k="name" v="Sandkleiv" />
		<tag k="ssr:stedsnr" v="86910" />
	</node>
	<node id="-444895" lat="59.3877083375" lon="9.16850278404">
		<tag k="bridge" v="yes" />
		<tag k="layer" v="1" />
		<tag k="name" v="Gvarv" />
		<tag k="ssr:stedsnr" v="228262" />
	</node>
	<node id="-445748" lat="59.4762333307" lon="9.0678305608">
>>>>>>> e1d4bc35ff8a6074a6f2e91616a996b547c36f15
		<tag k="highway" v="path" />
		<tag k="name" v="Langeskota" />
		<tag k="ssr:stedsnr" v="388048" />
	</node>
<<<<<<< HEAD
	<node lat="59.38444999612234" lon="9.102049998898552" id="-21014">
		<tag k="man_made" v="cairn" />
		<tag k="name" v="Røysdeilda" />
		<tag k="place" v="locality" />
		<tag k="ssr:stedsnr" v="450583" />
	</node>
	<node lat="59.45840833218817" lon="9.11078334117688" id="-21018">
		<tag k="bridge" v="yes" />
		<tag k="layer" v="1" />
		<tag k="name" v="Ølsbru" />
		<tag k="ssr:stedsnr" v="451303" />
	</node>
	<node lat="59.473769443456185" lon="9.300138885118548" id="-21063">
=======
	<node id="-445747" lat="59.4780972243" lon="9.07019722624">
		<tag k="bridge" v="yes" />
		<tag k="layer" v="1" />
		<tag k="name" v="Åsebrua" />
		<tag k="ssr:stedsnr" v="694467" />
	</node>
	<node id="-445745" lat="59.4052055548" lon="8.90805278645">
>>>>>>> e1d4bc35ff8a6074a6f2e91616a996b547c36f15
		<tag k="highway" v="path" />
		<tag k="name" v="Vrangberg" />
		<tag k="ssr:stedsnr" v="468502" />
	</node>
<<<<<<< HEAD
	<node lat="59.479480553775595" lon="8.969097220085226" id="-21108">
=======
	<node id="-445738" lat="59.4873861072" lon="9.07202499648">
>>>>>>> e1d4bc35ff8a6074a6f2e91616a996b547c36f15
		<tag k="highway" v="path" />
		<tag k="name" v="Stretakleiv" />
		<tag k="ssr:stedsnr" v="513674" />
	</node>
<<<<<<< HEAD
	<node lat="59.50228333578512" lon="9.293066658315814" id="-21122">
		<tag k="fixme" v="verify maritime location" />
		<tag k="mooring" v="yes" />
		<tag k="name" v="Haslestå" />
		<tag k="place" v="locality" />
		<tag k="ssr:stedsnr" v="528808" />
	</node>
	<node lat="59.415152780555225" lon="9.055933327084489" id="-21168">
=======
	<node id="-444721" lat="59.4178999991" lon="9.32287500313">
		<tag k="name" v="Nordagutu" />
		<tag k="railway" v="station" />
		<tag k="ssr:stedsnr" v="245989" />
		<tag k="train" v="yes" />
	</node>
	<node id="-447268" lat="59.3991333378" lon="8.88352499967">
		<tag k="ford" v="yes" />
		<tag k="name" v="Kilevaet" />
		<tag k="place" v="locality" />
		<tag k="ssr:stedsnr" v="630182" />
	</node>
	<node id="-445216" lat="59.424827776" lon="8.91693332492">
		<tag k="fixme" v="consider highway=path" />
		<tag k="highway" v="track" />
		<tag k="name" v="Karistulvegen" />
		<tag k="ssr:stedsnr" v="392823" />
	</node>
	<node id="-445727" lat="59.4833555522" lon="9.13784167388">
		<tag k="highway" v="path" />
		<tag k="name" v="Ospeskåtet" />
		<tag k="ssr:stedsnr" v="878910" />
	</node>
	<node id="-446736" lat="59.4366805521" lon="9.13236944542">
>>>>>>> e1d4bc35ff8a6074a6f2e91616a996b547c36f15
		<tag k="bridge" v="yes" />
		<tag k="layer" v="1" />
		<tag k="name" v="Prestebrua" />
		<tag k="ssr:stedsnr" v="693286" />
	</node>
<<<<<<< HEAD
	<node lat="59.487386107161164" lon="9.072024996481536" id="-21177">
		<tag k="highway" v="path" />
		<tag k="name" v="Løyto" />
		<tag k="ssr:stedsnr" v="693455" />
	</node>
	<node lat="59.4141444456306" lon="9.093938887231682" id="-21190">
		<tag k="alt_name" v="Gaara" />
=======
	<node id="-446735" lat="59.438313893" lon="9.12276388287">
		<tag k="highway" v="path" />
		<tag k="name" v="Kromla" />
		<tag k="ssr:stedsnr" v="329289" />
	</node>
	<node id="-447758" lat="58.9440068917" lon="9.63791772882">
		<tag k="name" v="Tonerhavn" />
		<tag k="place" v="locality" />
		<tag k="ssr:stedsnr" v="1074516" />
	</node>
	<node id="-444682" lat="59.4519388901" lon="8.91002222395">
>>>>>>> e1d4bc35ff8a6074a6f2e91616a996b547c36f15
		<tag k="bridge" v="yes" />
		<tag k="layer" v="1" />
		<tag k="name" v="Gårabru" />
		<tag k="ssr:stedsnr" v="693728" />
	</node>
<<<<<<< HEAD
	<node lat="59.469591669372825" lon="8.96441111946779" id="-21213">
		<tag k="ford" v="yes" />
		<tag k="name" v="Lislestulvaet" />
		<tag k="place" v="locality" />
		<tag k="ssr:stedsnr" v="574711" />
	</node>
	<node lat="59.370794441207266" lon="9.209444448515072" id="-21331">
		<tag k="man_made" v="quay" />
		<tag k="name" v="Aslaksborg" />
		<tag k="place" v="locality" />
		<tag k="ssr:stedsnr" v="650887" />
	</node>
	<node lat="59.42320833467582" lon="8.981669439133306" id="-21332">
		<tag k="bridge" v="yes" />
		<tag k="layer" v="1" />
		<tag k="name" v="Vreim" />
		<tag k="ssr:stedsnr" v="653249" />
	</node>
	<node lat="59.33525000047327" lon="9.224152783342099" id="-21364">
=======
	<node id="-446589" lat="59.3892833349" lon="9.17823054762">
		<tag k="name" v="Gvarv" />
		<tag k="railway" v="station" />
		<tag k="ssr:stedsnr" v="184318" />
		<tag k="train" v="yes" />
	</node>
	<node id="-447722" lat="59.3936472241" lon="9.260958333">
		<tag k="bridge" v="yes" />
		<tag k="layer" v="1" />
		<tag k="name" v="Akkerhaugen" />
		<tag k="ssr:stedsnr" v="957266" />
	</node>
	<node id="-447721" lat="59.4048833361" lon="9.31163055129">
		<tag k="bridge" v="yes" />
		<tag k="layer" v="1" />
		<tag k="name" v="Moen" />
		<tag k="ssr:stedsnr" v="957264" />
	</node>
	<node id="-445672" lat="59.3869972221" lon="9.22782500457">
		<tag k="name" v="Prestholt" />
		<tag k="railway" v="station" />
		<tag k="ssr:stedsnr" v="731914" />
		<tag k="train" v="yes" />
	</node>
	<node id="-445155" lat="59.4364805522" lon="9.3063222233">
		<tag k="man_made" v="quay" />
		<tag k="name" v="Sanden" />
		<tag k="place" v="locality" />
		<tag k="ssr:stedsnr" v="347605" />
	</node>
	<node id="-447706" lat="59.3372444415" lon="9.22367222523">
>>>>>>> e1d4bc35ff8a6074a6f2e91616a996b547c36f15
		<tag k="man_made" v="quay" />
		<tag k="name" v="Gamle brygge" />
		<tag k="place" v="locality" />
<<<<<<< HEAD
		<tag k="ssr:stedsnr" v="893081" />
	</node>
	<node lat="59.40286944181681" lon="9.21793056263434" id="-21377">
		<tag k="ford" v="yes" />
		<tag k="name" v="Heimevadet" />
		<tag k="place" v="locality" />
		<tag k="ssr:stedsnr" v="893429" />
	</node>
	<node lat="59.405205554801825" lon="8.908052786450034" id="-21402">
		<tag k="highway" v="path" />
		<tag k="name" v="Ollerskleiv" />
		<tag k="ssr:stedsnr" v="694111" />
	</node>
	<node lat="59.478097224327826" lon="9.070197226240811" id="-21409">
=======
		<tag k="ssr:stedsnr" v="954069" />
	</node>
	<node id="-445639" lat="59.4568166675" lon="9.33939166857">
		<tag k="name" v="Holtsås" />
		<tag k="railway" v="station" />
		<tag k="ssr:stedsnr" v="730001" />
		<tag k="train" v="yes" />
	</node>
	<node id="-446659" lat="59.4094305559" lon="9.09104166126">
		<tag k="name" v="Sperrudvelta" />
		<tag k="place" v="locality" />
		<tag k="ssr:stedsnr" v="208700" />
	</node>
	<node id="-447165" lat="59.4756249967" lon="8.96598056315">
		<tag k="highway" v="path" />
		<tag k="name" v="Spreglebakke" />
		<tag k="ssr:stedsnr" v="574682" />
	</node>
	<node id="-445627" lat="59.4058750009" lon="8.85656110933">
		<tag k="highway" v="path" />
		<tag k="name" v="Grisestigen" />
		<tag k="ssr:stedsnr" v="633174" />
	</node>
	<node id="-444597" lat="59.4583805592" lon="9.31459166139">
		<tag k="fixme" v="verify maritime location" />
		<tag k="mooring" v="yes" />
		<tag k="name" v="Nesestå" />
		<tag k="place" v="locality" />
		<tag k="ssr:stedsnr" v="225028" />
	</node>
	<node id="-446128" lat="59.3666611088" lon="9.19141110926">
		<tag k="man_made" v="quay" />
		<tag k="name" v="Årnes" />
		<tag k="place" v="locality" />
		<tag k="ssr:stedsnr" v="2320" />
	</node>
	<node id="-447659" lat="59.4294111111" lon="9.04650556029">
		<tag k="alt_name" v="Oterholt" />
>>>>>>> e1d4bc35ff8a6074a6f2e91616a996b547c36f15
		<tag k="bridge" v="yes" />
		<tag k="layer" v="1" />
		<tag k="name" v="Åsebrua" />
		<tag k="ssr:stedsnr" v="694467" />
	</node>
	<node lat="59.47623333071505" lon="9.067830560802353" id="-21410">
		<tag k="highway" v="path" />
		<tag k="name" v="Ostebakke" />
		<tag k="ssr:stedsnr" v="694469" />
	</node>
<<<<<<< HEAD
	<node lat="59.40750000059447" lon="8.95903333182436" id="-21456">
		<tag k="bridge" v="yes" />
		<tag k="layer" v="1" />
		<tag k="name" v="Skoe" />
		<tag k="ssr:stedsnr" v="714248" />
	</node>
	<node lat="59.420119445299555" lon="8.901958335263506" id="-21482">
		<tag k="alt_name" v="Sanda" />
		<tag k="bridge" v="yes" />
		<tag k="layer" v="1" />
		<tag k="name" v="Sandabrua" />
		<tag k="ssr:stedsnr" v="754168" />
	</node>
	<node lat="59.46954166389127" lon="9.09362778657276" id="-21484">
		<tag k="alt_name" v="Høgfosskås" />
=======
	<node id="-447657" lat="59.4240166641" lon="9.1267694439">
		<tag k="alt_name" v="Hørte" />
		<tag k="bridge" v="yes" />
		<tag k="layer" v="1" />
		<tag k="name" v="Hørte bru" />
		<tag k="ssr:stedsnr" v="875293" />
	</node>
	<node id="-447652" lat="59.4451138914" lon="9.0272750033">
		<tag k="name" v="Bjønnåkeleet" />
		<tag k="place" v="locality" />
		<tag k="ssr:stedsnr" v="875010" />
	</node>
	<node id="-445080" lat="59.487166664" lon="9.30613054688">
		<tag k="fixme" v="verify maritime location" />
		<tag k="mooring" v="yes" />
		<tag k="name" v="Brattestå" />
		<tag k="place" v="locality" />
		<tag k="ssr:stedsnr" v="468830" />
	</node>
	<node id="-447127" lat="59.4088027754" lon="8.95972221382">
		<tag k="bridge" v="yes" />
		<tag k="layer" v="1" />
		<tag k="name" v="Tjønntveit bru" />
		<tag k="ssr:stedsnr" v="571046" />
	</node>
	<node id="-446614" lat="59.386411113" lon="9.329905551">
		<tag k="name" v="Dalsvatn" />
		<tag k="railway" v="station" />
		<tag k="ssr:stedsnr" v="184886" />
		<tag k="train" v="yes" />
	</node>
	<node id="-445589" lat="59.4075000006" lon="8.95903333182">
>>>>>>> e1d4bc35ff8a6074a6f2e91616a996b547c36f15
		<tag k="bridge" v="yes" />
		<tag k="layer" v="1" />
		<tag k="name" v="Høgfosskåsbrua" />
		<tag k="ssr:stedsnr" v="754510" />
	</node>
<<<<<<< HEAD
	<node lat="59.406499997751524" lon="8.900766674704757" id="-21491">
=======
	<node id="-446096" lat="59.4835055559" lon="9.05535832497">
>>>>>>> e1d4bc35ff8a6074a6f2e91616a996b547c36f15
		<tag k="highway" v="path" />
		<tag k="name" v="Sandstulvegen" />
		<tag k="ssr:stedsnr" v="755122" />
	</node>
<<<<<<< HEAD
	<node lat="59.48760278033386" lon="9.016466665549743" id="-21494">
		<tag k="highway" v="path" />
		<tag k="name" v="Sandkleiv" />
		<tag k="ssr:stedsnr" v="755558" />
	</node>
	<node lat="59.40414166840944" lon="9.167097230478523" id="-21508">
		<tag k="fixme" v="verify maritime location" />
		<tag k="mooring" v="yes" />
		<tag k="name" v="Kolatangen" />
		<tag k="place" v="locality" />
		<tag k="ssr:stedsnr" v="771272" />
	</node>
	<node lat="59.41170555621762" lon="9.069436118774382" id="-21518">
=======
	<node id="-445071" lat="59.4737694435" lon="9.30013888512">
		<tag k="highway" v="path" />
		<tag k="name" v="Vrangberg" />
		<tag k="ssr:stedsnr" v="468502" />
	</node>
	<node id="-446093" lat="59.4326694481" lon="9.0534777863">
		<tag k="name" v="Haugesagvelta" />
		<tag k="place" v="locality" />
		<tag k="ssr:stedsnr" v="937612" />
	</node>
	<node id="-446084" lat="59.3941805547" lon="9.08540833364">
		<tag k="highway" v="path" />
		<tag k="name" v="Steinskotet" />
		<tag k="ssr:stedsnr" v="936429" />
	</node>
	<node id="-447613" lat="59.3885055542" lon="9.16522499751">
>>>>>>> e1d4bc35ff8a6074a6f2e91616a996b547c36f15
		<tag k="bridge" v="yes" />
		<tag k="layer" v="1" />
		<tag k="name" v="Bøevja" />
		<tag k="ssr:stedsnr" v="775259" />
	</node>
<<<<<<< HEAD
	<node lat="59.4093833358986" lon="9.069011118397146" id="-21525">
		<tag k="alt_name" v="Bø stasjon" />
		<tag k="name" v="Bø" />
		<tag k="railway" v="station" />
		<tag k="ssr:stedsnr" v="791333" />
		<tag k="train" v="yes" />
	</node>
	<node lat="59.3974694452495" lon="9.066272223227601" id="-21593">
		<tag k="highway" v="path" />
		<tag k="name" v="Bordvegen" />
		<tag k="ssr:stedsnr" v="814435" />
	</node>
	<node lat="59.44368888654495" lon="9.299766668038693" id="-21637">
=======
	<node id="-446581" lat="59.3827750019" lon="9.04198056002">
		<tag k="bridge" v="yes" />
		<tag k="layer" v="1" />
		<tag k="name" v="Tjønnås" />
		<tag k="ssr:stedsnr" v="168270" />
	</node>
	<node id="-446580" lat="59.3979722224" lon="9.24313610671">
		<tag k="bridge" v="yes" />
		<tag k="layer" v="1" />
		<tag k="name" v="Jonsåsreset" />
		<tag k="ssr:stedsnr" v="168264" />
	</node>
	<node id="-447597" lat="59.4436888865" lon="9.29976666804">
>>>>>>> e1d4bc35ff8a6074a6f2e91616a996b547c36f15
		<tag k="highway" v="path" />
		<tag k="name" v="Stegakleiv" />
		<tag k="ssr:stedsnr" v="833007" />
	</node>
<<<<<<< HEAD
	<node lat="59.42941111107706" lon="9.04650556029123" id="-21677">
		<tag k="alt_name" v="Oterholt" />
		<tag k="bridge" v="yes" />
		<tag k="layer" v="1" />
		<tag k="name" v="Oterholtbrua" />
		<tag k="ssr:stedsnr" v="875564" />
	</node>
	<node lat="59.483355552231856" lon="9.137841673883933" id="-21701">
=======
	<node id="-447072" lat="59.4495305589" lon="9.32603055907">
		<tag k="bridge" v="yes" />
		<tag k="layer" v="1" />
		<tag k="name" v="Tveiten" />
		<tag k="ssr:stedsnr" v="532241" />
	</node>
	<node id="-445533" lat="59.4695916694" lon="8.96441111947">
		<tag k="ford" v="yes" />
		<tag k="name" v="Lislestulvaet" />
		<tag k="place" v="locality" />
		<tag k="ssr:stedsnr" v="574711" />
	</node>
	<node id="-445711" lat="59.3648500044" lon="8.90653889605">
		<tag k="name" v="Rullet" />
		<tag k="place" v="locality" />
		<tag k="ssr:stedsnr" v="878046" />
	</node>
	<node id="-445003" lat="59.3713416647" lon="8.88326110806">
		<tag k="ford" v="yes" />
		<tag k="name" v="Bakkjerkromla" />
		<tag k="place" v="locality" />
		<tag k="ssr:stedsnr" v="271265" />
	</node>
	<node id="-445002" lat="59.3849666642" lon="8.90418888346">
>>>>>>> e1d4bc35ff8a6074a6f2e91616a996b547c36f15
		<tag k="highway" v="path" />
		<tag k="name" v="Ospeskåtet" />
		<tag k="ssr:stedsnr" v="878910" />
	</node>
<<<<<<< HEAD
	<node lat="59.4119499977747" lon="8.916116668346119" id="-21775">
=======
	<node id="-446534" lat="59.4568083347" lon="8.99443611195">
>>>>>>> e1d4bc35ff8a6074a6f2e91616a996b547c36f15
		<tag k="bridge" v="yes" />
		<tag k="layer" v="1" />
		<tag k="name" v="Hålåbrua" />
		<tag k="ssr:stedsnr" v="937144" />
	</node>
<<<<<<< HEAD
	<node lat="59.432669448128536" lon="9.053477786301025" id="-21779">
		<tag k="name" v="Haugesagvelta" />
=======
	<node id="-446012" lat="59.4312805565" lon="9.06011110326">
		<tag k="name" v="Hellosvelta" />
>>>>>>> e1d4bc35ff8a6074a6f2e91616a996b547c36f15
		<tag k="place" v="locality" />
		<tag k="ssr:stedsnr" v="937612" />
	</node>
<<<<<<< HEAD
	<node lat="59.48350555585993" lon="9.05535832496563" id="-21783">
		<tag k="highway" v="path" />
		<tag k="name" v="Grivibakken" />
		<tag k="ssr:stedsnr" v="938404" />
	</node>
	<node lat="59.425908330277665" lon="9.071925000619082" id="-21957">
=======
	<node id="-446010" lat="59.4081944467" lon="8.88923889481">
		<tag k="highway" v="path" />
		<tag k="name" v="Stigskotet" />
		<tag k="ssr:stedsnr" v="937202" />
	</node>
	<node id="-447030" lat="59.5022833358" lon="9.29306665832">
		<tag k="fixme" v="verify maritime location" />
		<tag k="mooring" v="yes" />
		<tag k="name" v="Haslestå" />
		<tag k="place" v="locality" />
		<tag k="ssr:stedsnr" v="528808" />
	</node>
	<node id="-446004" lat="59.4119499978" lon="8.91611666835">
>>>>>>> e1d4bc35ff8a6074a6f2e91616a996b547c36f15
		<tag k="bridge" v="yes" />
		<tag k="layer" v="1" />
		<tag k="name" v="Folkestad" />
		<tag k="ssr:stedsnr" v="46293" />
	</node>
<<<<<<< HEAD
	<node lat="59.44527499564002" lon="9.052144451306063" id="-21993">
=======
	<node id="-445995" lat="59.4949055543" lon="9.14157499857">
>>>>>>> e1d4bc35ff8a6074a6f2e91616a996b547c36f15
		<tag k="bridge" v="yes" />
		<tag k="layer" v="1" />
		<tag k="name" v="Bekkåsbru" />
		<tag k="ssr:stedsnr" v="86042" />
	</node>
<<<<<<< HEAD
	<node lat="59.49149166951004" lon="8.96307221700572" id="-22006">
		<tag k="name" v="Okslagrinda" />
		<tag k="place" v="locality" />
		<tag k="ssr:stedsnr" v="87594" />
	</node>
	<node lat="59.398583336298536" lon="9.14242499838521" id="-22069">
=======
	<node id="-446506" lat="59.4949027788" lon="9.10356666546">
		<tag k="alt_name" v="Lona" />
>>>>>>> e1d4bc35ff8a6074a6f2e91616a996b547c36f15
		<tag k="bridge" v="yes" />
		<tag k="layer" v="1" />
		<tag k="name" v="Liaberget" />
		<tag k="ssr:stedsnr" v="107255" />
	</node>
<<<<<<< HEAD
	<node lat="59.49890000205163" lon="9.104638889847415" id="-22118">
=======
	<node id="-446505" lat="59.4989000021" lon="9.10463888985">
>>>>>>> e1d4bc35ff8a6074a6f2e91616a996b547c36f15
		<tag k="bridge" v="yes" />
		<tag k="layer" v="1" />
		<tag k="name" v="Jørgedalsbrua" />
		<tag k="ssr:stedsnr" v="146534" />
	</node>
<<<<<<< HEAD
	<node lat="59.494902778837215" lon="9.10356666546126" id="-22119">
		<tag k="alt_name" v="Lona" />
=======
	<node id="-445987" lat="59.3770869451" lon="9.01120761494">
		<tag k="junction" v="yes" />
		<tag k="name" v="Begvahaugen" />
		<tag k="place" v="locality" />
		<tag k="ssr:stedsnr" v="936395" />
	</node>
	<node id="-445471" lat="59.4141444456" lon="9.09393888723">
		<tag k="alt_name" v="Gaara" />
>>>>>>> e1d4bc35ff8a6074a6f2e91616a996b547c36f15
		<tag k="bridge" v="yes" />
		<tag k="layer" v="1" />
		<tag k="name" v="Lonabrua" />
		<tag k="ssr:stedsnr" v="146538" />
	</node>
<<<<<<< HEAD
	<node lat="59.456808334669134" lon="8.994436111950543" id="-22145">
		<tag k="bridge" v="yes" />
		<tag k="layer" v="1" />
		<tag k="name" v="Tilfangbrua" />
		<tag k="ssr:stedsnr" v="149086" />
	</node>
	<node lat="59.4590027753211" lon="9.305155560659946" id="-22180">
		<tag k="alt_name" v="Klevar" />
=======
	<node id="-444952" lat="59.4783333307" lon="8.99466389164">
		<tag k="ford" v="yes" />
		<tag k="name" v="Grostulvaet" />
		<tag k="place" v="locality" />
		<tag k="ssr:stedsnr" v="452659" />
	</node>
	<node id="-445461" lat="59.4151527806" lon="9.05593332708">
>>>>>>> e1d4bc35ff8a6074a6f2e91616a996b547c36f15
		<tag k="bridge" v="yes" />
		<tag k="layer" v="1" />
		<tag k="name" v="Klevarbrua" />
		<tag k="ssr:stedsnr" v="165153" />
	</node>
<<<<<<< HEAD
	<node lat="59.366624996660455" lon="9.300286106159225" id="-22181">
		<tag k="name" v="Vinterlaget" />
=======
	<node id="-445961" lat="59.4011305528" lon="9.04889721391">
		<tag k="junction" v="yes" />
		<tag k="name" v="Tandrebakke" />
>>>>>>> e1d4bc35ff8a6074a6f2e91616a996b547c36f15
		<tag k="place" v="locality" />
		<tag k="ssr:stedsnr" v="165255" />
	</node>
<<<<<<< HEAD
	<node lat="59.389283334858796" lon="9.178230547623844" id="-22200">
		<tag k="name" v="Gvarv" />
		<tag k="railway" v="station" />
		<tag k="ssr:stedsnr" v="184318" />
		<tag k="train" v="yes" />
	</node>
	<node lat="59.40943055586447" lon="9.091041661262464" id="-22251">
		<tag k="name" v="Sperrudvelta" />
		<tag k="place" v="locality" />
		<tag k="ssr:stedsnr" v="208700" />
	</node>
	<node lat="59.458380559185876" lon="9.314591661390253" id="-22279">
		<tag k="fixme" v="verify maritime location" />
		<tag k="mooring" v="yes" />
		<tag k="name" v="Nesestå" />
		<tag k="place" v="locality" />
		<tag k="ssr:stedsnr" v="225028" />
	</node>
	<node lat="59.363474997917" lon="9.183399994224656" id="-22308">
		<tag k="bridge" v="yes" />
		<tag k="layer" v="1" />
		<tag k="name" v="Årnesbekk" />
		<tag k="ssr:stedsnr" v="228256" />
	</node>
	<node lat="59.387708337532054" lon="9.168502784035377" id="-22309">
		<tag k="bridge" v="yes" />
		<tag k="layer" v="1" />
		<tag k="name" v="Gvarv" />
		<tag k="ssr:stedsnr" v="228262" />
	</node>
	<node lat="59.42286944640514" lon="8.90534167497137" id="-22310">
		<tag k="bridge" v="yes" />
		<tag k="layer" v="1" />
		<tag k="name" v="Verpe" />
		<tag k="ssr:stedsnr" v="228266" />
	</node>
	<node lat="59.438313893035684" lon="9.122763882874052" id="-22391">
		<tag k="highway" v="path" />
		<tag k="name" v="Kromla" />
		<tag k="ssr:stedsnr" v="329289" />
	</node>
	<node lat="59.436680552091325" lon="9.132369445419137" id="-22392">
		<tag k="bridge" v="yes" />
		<tag k="layer" v="1" />
		<tag k="name" v="Skvisla" />
		<tag k="ssr:stedsnr" v="329297" />
	</node>
	<node lat="59.47443333766271" lon="9.445577777005592" id="-22447">
		<tag k="highway" v="path" />
		<tag k="name" v="Stulsvegen" />
		<tag k="ssr:stedsnr" v="346532" />
	</node>
	<node lat="59.40319444048772" lon="9.311961105856724" id="-22498">
		<tag k="name" v="Moen" />
		<tag k="railway" v="station" />
		<tag k="ssr:stedsnr" v="366857" />
		<tag k="train" v="yes" />
	</node>
	<node lat="59.42482777602746" lon="8.916933324915966" id="-22547">
		<tag k="fixme" v="consider highway=path" />
		<tag k="highway" v="track" />
		<tag k="name" v="Karistulvegen" />
		<tag k="ssr:stedsnr" v="392823" />
	</node>
	<node lat="59.36992500345891" lon="9.14186389673911" id="-22607">
		<tag k="highway" v="path" />
		<tag k="name" v="Stuls-vegen" />
		<tag k="ssr:stedsnr" v="408231" />
	</node>
	<node lat="59.41836389009778" lon="9.120236114647602" id="-22659">
		<tag k="bridge" v="yes" />
		<tag k="layer" v="1" />
		<tag k="name" v="Bergingsbru" />
		<tag k="ssr:stedsnr" v="511964" />
	</node>
	<node lat="59.37672499795796" lon="8.940200006314381" id="-22663">
		<tag k="bridge" v="yes" />
		<tag k="layer" v="1" />
		<tag k="name" v="Tveitbrua" />
		<tag k="ssr:stedsnr" v="513037" />
	</node>
=======
	<node id="-446981" lat="59.3699250035" lon="9.14186389674">
		<tag k="highway" v="path" />
		<tag k="name" v="Stuls-vegen" />
		<tag k="ssr:stedsnr" v="408231" />
	</node>
>>>>>>> e1d4bc35ff8a6074a6f2e91616a996b547c36f15
</osm>
