<?xml version="1.0" encoding="UTF-8"?>
<osm version="0.6" generator="osmapis">
	<node id="127867478" lat="59.8561452" lon="10.6616211" version="13" timestamp="2022-08-04T07:34:46Z" changeset="124466298" uid="7436199" user="aleksaJov">
		<tag k="name" v="Nesoddtangen" />
		<tag k="place" v="town" />
		<tag k="population" v="13150" />
		<tag k="population:date" v="2021-01-01" />
		<tag k="ref:ssb_tettsted" v="0541" />
		<tag k="source:population" v="SSB - befolkning i tettstedet" />
		<tag k="ssr:stedsnr" v="732798" />
		<tag k="wikidata" v="Q616208" />
		<tag k="wikipedia" v="en:Nesoddtangen" />
	</node>
	<node id="293015092" lat="59.7979477" lon="10.6153616" version="8" timestamp="2021-10-29T06:11:26Z" changeset="113107708" uid="3497659" user="NKA">
		<tag k="name" v="Fjellstrand" />
		<tag k="place" v="village" />
		<tag k="population" v="1283" />
		<tag k="population:date" v="2021-01-01" />
		<tag k="ref:ssb_tettsted" v="0542" />
		<tag k="source:population" v="SSB - befolkning i tettstedet" />
		<tag k="ssr:stedsnr" v="125675" />
	</node>
	<node id="293020224" lat="59.7396833" lon="10.5974391" version="7" timestamp="2021-10-29T06:11:26Z" changeset="113107708" uid="3497659" user="NKA">
		<tag k="name" v="Fagerstrand" />
		<tag k="place" v="village" />
		<tag k="population" v="2854" />
		<tag k="population:date" v="2021-01-01" />
		<tag k="ref:ssb_tettsted" v="0543" />
		<tag k="source:population" v="SSB - befolkning i tettstedet" />
		<tag k="ssr:stedsnr" v="913969" />
	</node>
	<node id="293024858" lat="59.8292361" lon="10.6952444" version="5" timestamp="2019-05-10T07:04:55Z" changeset="70098176" uid="633013" user="Honning">
		<tag k="name" v="Fjordvangen" />
		<tag k="place" v="quarter" />
		<tag k="ssr:stedsnr" v="65736" />
	</node>
	<node id="293026952" lat="59.8444877" lon="10.6911815" version="4" timestamp="2019-05-10T07:04:55Z" changeset="70098176" uid="633013" user="Honning">
		<tag k="name" v="Hellvik" />
		<tag k="old_name" v="Helvik" />
		<tag k="place" v="quarter" />
		<tag k="ssr:stedsnr" v="65785" />
	</node>
	<node id="293400183" lat="59.8613972" lon="10.6717945" version="2" timestamp="2019-05-10T07:04:55Z" changeset="70098176" uid="633013" user="Honning">
		<tag k="name" v="Oksval" />
		<tag k="place" v="quarter" />
		<tag k="ssr:stedsnr" v="65804" />
	</node>
	<node id="1401648454" lat="59.7911746" lon="10.7054424" version="2" timestamp="2019-05-10T07:04:55Z" changeset="70098176" uid="633013" user="Honning">
		<tag k="name" v="Bomansvik" />
		<tag k="place" v="quarter" />
		<tag k="source:name" v="sign" />
		<tag k="ssr:stedsnr" v="490671" />
	</node>
	<node id="1401649203" lat="59.8330472" lon="10.6940861" version="2" timestamp="2019-05-10T07:04:55Z" changeset="70098176" uid="633013" user="Honning">
		<tag k="name" v="Berger" />
		<tag k="place" v="quarter" />
		<tag k="source:name" v="sign" />
		<tag k="ssr:stedsnr" v="5742" />
	</node>
	<node id="2837309536" lat="59.7955028" lon="10.6403" version="2" timestamp="2019-05-10T07:04:55Z" changeset="70098176" uid="633013" user="Honning">
		<tag k="name" v="Fjell" />
		<tag k="place" v="farm" />
		<tag k="size_level" v="9" />
		<tag k="source" v="local knowledge" />
		<tag k="ssr:stedsnr" v="915684" />
	</node>
	<node id="2837309537" lat="59.7908556" lon="10.6376667" version="2" timestamp="2019-05-10T07:04:56Z" changeset="70098176" uid="633013" user="Honning">
		<tag k="name" v="Lunner" />
		<tag k="place" v="hamlet" />
		<tag k="size_level" v="9" />
		<tag k="source" v="local knowledge" />
		<tag k="ssr:stedsnr" v="888132" />
	</node>
	<node id="2837323695" lat="59.7851833" lon="10.6530306" version="2" timestamp="2019-05-10T07:04:56Z" changeset="70098176" uid="633013" user="Honning">
		<tag k="alt_name" v="Høybråten" />
		<tag k="name" v="Høybråtan" />
		<tag k="place" v="hamlet" />
		<tag k="size_level" v="9" />
		<tag k="source" v="local knowledge" />
		<tag k="ssr:stedsnr" v="854645" />
	</node>
	<node id="2837323697" lat="59.79335" lon="10.6630056" version="2" timestamp="2019-05-10T07:04:56Z" changeset="70098176" uid="633013" user="Honning">
		<tag k="name" v="Naverud" />
		<tag k="place" v="farm" />
		<tag k="size_level" v="9" />
		<tag k="source" v="local knowledge" />
		<tag k="ssr:stedsnr" v="4661" />
	</node>
	<node id="2837323698" lat="59.7860944" lon="10.6391806" version="2" timestamp="2019-05-10T07:04:56Z" changeset="70098176" uid="633013" user="Honning">
		<tag k="loc_name" v="Nordre Granerud" />
		<tag k="name" v="Nordre Granerud" />
		<tag k="place" v="farm" />
		<tag k="size_level" v="9" />
		<tag k="source" v="local knowledge" />
		<tag k="ssr:stedsnr" v="647413" />
	</node>
	<node id="2837323699" lat="59.7797917" lon="10.6369806" version="2" timestamp="2019-05-10T07:04:56Z" changeset="70098176" uid="633013" user="Honning">
		<tag k="name" v="Søndre Granerud" />
		<tag k="place" v="farm" />
		<tag k="size_level" v="9" />
		<tag k="source" v="local knowledge" />
		<tag k="ssr:stedsnr" v="65664" />
	</node>
	<node id="3051501313" lat="59.8205639" lon="10.6763639" version="2" timestamp="2019-05-10T07:04:56Z" changeset="70098176" uid="633013" user="Honning">
		<tag k="name" v="Solbergbråten" />
		<tag k="place" v="farm" />
		<tag k="size_level" v="10" />
		<tag k="source" v="local knowledge" />
		<tag k="ssr:stedsnr" v="828834" />
	</node>
	<node id="3220431982" lat="59.8700129" lon="10.6579705" version="4" timestamp="2022-06-20T14:39:06Z" changeset="122627654" uid="3497659" user="NKA">
		<tag k="capacity" v="6" />
		<tag k="dnt:classification" v="ubetjent" />
		<tag k="dnt:iid" v="1403" />
		<tag k="ele" v="2" />
		<tag k="name" v="Rødstua" />
		<tag k="note:no" v="kystledhytte" />
		<tag k="operator" v="Oslofjordens friluftsråd" />
		<tag k="ref:kartverket:hytte" v="5447" />
		<tag k="ssr:stedsnr" v="463320" />
		<tag k="tourism" v="chalet" />
		<tag k="website" v="https://www.oslofjorden.org/portal/page/portal/of/kystleden/hytteinformasjon?http://www.oslofjorden.org/portal/page/portal/of/kystleden/hytteinformasjon?displaypage=TRUE&amp;element_id=6434&amp;p_hy_id=105" />
	</node>
	<node id="6463658398" lat="59.8087667" lon="10.6851333" version="1" timestamp="2019-05-10T07:04:40Z" changeset="70098176" uid="633013" user="Honning">
		<tag k="name" v="Løs" />
		<tag k="place" v="hamlet" />
		<tag k="ssr:stedsnr" v="733673" />
	</node>
	<node id="6463658399" lat="59.7421444" lon="10.6126139" version="1" timestamp="2019-05-10T07:04:40Z" changeset="70098176" uid="633013" user="Honning">
		<tag k="name" v="Søndre Myklerud" />
		<tag k="place" v="farm" />
		<tag k="ssr:stedsnr" v="828344" />
	</node>
	<node id="6463658401" lat="59.7874472" lon="10.6552472" version="1" timestamp="2019-05-10T07:04:40Z" changeset="70098176" uid="633013" user="Honning">
		<tag k="name" v="Rugbråtan" />
		<tag k="place" v="locality" />
		<tag k="ssr:stedsnr" v="951389" />
	</node>
	<node id="6463658402" lat="59.8360384" lon="10.6755386" version="1" timestamp="2019-05-10T07:04:40Z" changeset="70098176" uid="633013" user="Honning">
		<tag k="leisure" v="pitch" />
		<tag k="name" v="Berger idrettspark" />
		<tag k="ssr:stedsnr" v="663070" />
	</node>
	<node id="6463658403" lat="59.7848937" lon="10.6378607" version="2" timestamp="2020-03-02T12:41:18Z" changeset="81681076" uid="9403796" user="SAShah01">
		<tag k="name" v="Granerud" />
		<tag k="place" v="hamlet" />
		<tag k="ssr:stedsnr" v="308646" />
	</node>
	<node id="6463658404" lat="59.7528722" lon="10.6218167" version="1" timestamp="2019-05-10T07:04:40Z" changeset="70098176" uid="633013" user="Honning">
		<tag k="alt_name" v="Damengen" />
		<tag k="name" v="Damenga" />
		<tag k="place" v="farm" />
		<tag k="ssr:stedsnr" v="672584" />
	</node>
	<node id="6463658405" lat="59.7650417" lon="10.6377194" version="1" timestamp="2019-05-10T07:04:40Z" changeset="70098176" uid="633013" user="Honning">
		<tag k="name" v="Svestad" />
		<tag k="place" v="farm" />
		<tag k="ssr:stedsnr" v="672616" />
	</node>
	<node id="6463658406" lat="59.7577333" lon="10.5840639" version="1" timestamp="2019-05-10T07:04:40Z" changeset="70098176" uid="633013" user="Honning">
		<tag k="name" v="Søndre Spro" />
		<tag k="place" v="village" />
		<tag k="ssr:stedsnr" v="672628" />
	</node>
	<node id="6463658407" lat="59.7941194" lon="10.689525" version="1" timestamp="2019-05-10T07:04:40Z" changeset="70098176" uid="633013" user="Honning">
		<tag k="name" v="Jaer" />
		<tag k="place" v="farm" />
		<tag k="ssr:stedsnr" v="672642" />
	</node>
	<node id="6463658408" lat="59.785325" lon="10.6815806" version="1" timestamp="2019-05-10T07:04:40Z" changeset="70098176" uid="633013" user="Honning">
		<tag k="alt_name" v="Kongebråten" />
		<tag k="name" v="Kongebråtan" />
		<tag k="place" v="farm" />
		<tag k="ssr:stedsnr" v="672655" />
	</node>
	<node id="6463658409" lat="59.8003889" lon="10.6575556" version="1" timestamp="2019-05-10T07:04:40Z" changeset="70098176" uid="633013" user="Honning">
		<tag k="name" v="Myra" />
		<tag k="place" v="farm" />
		<tag k="ssr:stedsnr" v="672684" />
	</node>
	<node id="6463658410" lat="59.833075" lon="10.6756333" version="1" timestamp="2019-05-10T07:04:40Z" changeset="70098176" uid="633013" user="Honning">
		<tag k="name" v="Berger" />
		<tag k="place" v="farm" />
		<tag k="ssr:stedsnr" v="672747" />
	</node>
	<node id="6463658411" lat="59.7553306" lon="10.6118611" version="1" timestamp="2019-05-10T07:04:40Z" changeset="70098176" uid="633013" user="Honning">
		<tag k="alt_name" v="Langfjell østre" />
		<tag k="name" v="Østre Langfjell" />
		<tag k="place" v="farm" />
		<tag k="ssr:stedsnr" v="828565" />
	</node>
	<node id="6463658412" lat="59.7577917" lon="10.5913111" version="1" timestamp="2019-05-10T07:04:41Z" changeset="70098176" uid="633013" user="Honning">
		<tag k="alt_name" v="Storrudbråten" />
		<tag k="name" v="Storerudbråten" />
		<tag k="place" v="farm" />
		<tag k="ssr:stedsnr" v="693184" />
	</node>
	<node id="6463658413" lat="59.8383826" lon="10.6785246" version="1" timestamp="2019-05-10T07:04:41Z" changeset="70098176" uid="633013" user="Honning">
		<tag k="leisure" v="pitch" />
		<tag k="name" v="Berger idrettspark østre" />
		<tag k="ssr:stedsnr" v="693843" />
	</node>
	<node id="6463658414" lat="59.8062639" lon="10.6722583" version="1" timestamp="2019-05-10T07:04:41Z" changeset="70098176" uid="633013" user="Honning">
		<tag k="name" v="Nordhagen" />
		<tag k="place" v="farm" />
		<tag k="ssr:stedsnr" v="706095" />
	</node>
	<node id="6463658415" lat="59.790931" lon="10.689677" version="8" timestamp="2022-01-13T22:06:13Z" changeset="116126514" uid="9451067" user="b-jazz-bot">
		<tag k="amenity" v="school" />
		<tag k="capacity" v="76" />
		<tag k="email" v="jaer.skole@nesodden.kommune.no" />
		<tag k="fee" v="no" />
		<tag k="grades" v="1-7" />
		<tag k="isced:level" v="1" />
		<tag k="name" v="Jaer skole" />
		<tag k="operator" v="Nesodden kommune" />
		<tag k="operator:type" v="public" />
		<tag k="phone" v="+47 66965470" />
		<tag k="ref:gsi" v="2102" />
		<tag k="ref:udir_nsr" v="1006559" />
		<tag k="ssr:stedsnr" v="706100" />
		<tag k="website" v="https://www.nesodden.kommune.no/skoler/jaer/jaerinnh.htm" />
		<tag k="wikidata" v="Q19376032" />
	</node>
	<node id="6463658416" lat="59.7921194" lon="10.6370861" version="1" timestamp="2019-05-10T07:04:41Z" changeset="70098176" uid="633013" user="Honning">
		<tag k="name" v="Finstad" />
		<tag k="place" v="farm" />
		<tag k="ssr:stedsnr" v="706135" />
	</node>
	<node id="6463658417" lat="59.7744361" lon="10.5932805" version="1" timestamp="2019-05-10T07:04:41Z" changeset="70098176" uid="633013" user="Honning">
		<tag k="name" v="Svestadstøen" />
		<tag k="place" v="isolated_dwelling" />
		<tag k="ssr:stedsnr" v="706482" />
	</node>
	<node id="6463658418" lat="59.8510194" lon="10.6558667" version="1" timestamp="2019-05-10T07:04:41Z" changeset="70098176" uid="633013" user="Honning">
		<tag k="name" v="Øvre Flaskebekk" />
		<tag k="place" v="isolated_dwelling" />
		<tag k="ssr:stedsnr" v="966263" />
	</node>
	<node id="6463658420" lat="59.8135861" lon="10.67705" version="1" timestamp="2019-05-10T07:04:41Z" changeset="70098176" uid="633013" user="Honning">
		<tag k="alt_name" v="Rør" />
		<tag k="name" v="Røer" />
		<tag k="place" v="farm" />
		<tag k="ssr:stedsnr" v="708228;5719" />
	</node>
	<node id="6463658421" lat="59.7700917" lon="10.6697917" version="1" timestamp="2019-05-10T07:04:41Z" changeset="70098176" uid="633013" user="Honning">
		<tag k="alt_name" v="Hokholt østre" />
		<tag k="name" v="Østre Hokholt" />
		<tag k="place" v="farm" />
		<tag k="ssr:stedsnr" v="708401" />
	</node>
	<node id="6463658422" lat="59.7814278" lon="10.6948167" version="1" timestamp="2019-05-10T07:04:41Z" changeset="70098176" uid="633013" user="Honning">
		<tag k="alt_name" v="Krange østre" />
		<tag k="name" v="Østre Krange" />
		<tag k="place" v="farm" />
		<tag k="ssr:stedsnr" v="283331" />
	</node>
	<node id="6463658424" lat="59.8602361" lon="10.6656111" version="1" timestamp="2019-05-10T07:04:41Z" changeset="70098176" uid="633013" user="Honning">
		<tag k="name" v="Granholt" />
		<tag k="place" v="isolated_dwelling" />
		<tag k="ssr:stedsnr" v="724244" />
	</node>
	<node id="6463658425" lat="59.7305479" lon="10.6172464" version="1" timestamp="2019-05-10T07:04:41Z" changeset="70098176" uid="633013" user="Honning">
		<tag k="name" v="Agnor" />
		<tag k="place" v="hamlet" />
		<tag k="ssr:stedsnr" v="731776" />
	</node>
	<node id="6463658427" lat="59.765975" lon="10.6160583" version="1" timestamp="2019-05-10T07:04:41Z" changeset="70098176" uid="633013" user="Honning">
		<tag k="name" v="Tjernsbråtan" />
		<tag k="old_name" v="Tjernsbråten" />
		<tag k="place" v="isolated_dwelling" />
		<tag k="ssr:stedsnr" v="733602" />
	</node>
	<node id="6463658428" lat="59.7624556" lon="10.5836278" version="1" timestamp="2019-05-10T07:04:41Z" changeset="70098176" uid="633013" user="Honning">
		<tag k="alt_name" v="Spro" />
		<tag k="name" v="Nordre Spro" />
		<tag k="place" v="quarter" />
		<tag k="ssr:stedsnr" v="733601" />
	</node>
	<node id="6463658430" lat="59.8178194" lon="10.6908333" version="1" timestamp="2019-05-10T07:04:42Z" changeset="70098176" uid="633013" user="Honning">
		<tag k="name" v="Sørby" />
		<tag k="place" v="farm" />
		<tag k="ssr:stedsnr" v="733714" />
	</node>
	<node id="6463658431" lat="59.76515" lon="10.5923917" version="1" timestamp="2019-05-10T07:04:42Z" changeset="70098176" uid="633013" user="Honning">
		<tag k="name" v="Holtet" />
		<tag k="place" v="farm" />
		<tag k="ssr:stedsnr" v="753136" />
	</node>
	<node id="6463658432" lat="59.8028167" lon="10.6650278" version="1" timestamp="2019-05-10T07:04:42Z" changeset="70098176" uid="633013" user="Honning">
		<tag k="name" v="Bjerklund" />
		<tag k="place" v="farm" />
		<tag k="ssr:stedsnr" v="767107" />
	</node>
	<node id="6463658433" lat="59.79825" lon="10.6105639" version="1" timestamp="2019-05-10T07:04:42Z" changeset="70098176" uid="633013" user="Honning">
		<tag k="name" v="Glanern" />
		<tag k="place" v="isolated_dwelling" />
		<tag k="ssr:stedsnr" v="767145" />
	</node>
	<node id="6463658434" lat="59.7758833" lon="10.6789333" version="1" timestamp="2019-05-10T07:04:42Z" changeset="70098176" uid="633013" user="Honning">
		<tag k="name" v="Kuås" />
		<tag k="place" v="farm" />
		<tag k="ssr:stedsnr" v="767188" />
	</node>
	<node id="6463658435" lat="59.7849278" lon="10.5997472" version="1" timestamp="2019-05-10T07:04:42Z" changeset="70098176" uid="633013" user="Honning">
		<tag k="name" v="Kvistemyr" />
		<tag k="place" v="isolated_dwelling" />
		<tag k="ssr:stedsnr" v="767502" />
	</node>
	<node id="6463658436" lat="59.7725222" lon="10.5909972" version="1" timestamp="2019-05-10T07:04:42Z" changeset="70098176" uid="633013" user="Honning">
		<tag k="name" v="Eng" />
		<tag k="place" v="isolated_dwelling" />
		<tag k="ssr:stedsnr" v="767515" />
	</node>
	<node id="6463658437" lat="59.8043944" lon="10.6089889" version="1" timestamp="2019-05-10T07:04:42Z" changeset="70098176" uid="633013" user="Honning">
		<tag k="name" v="Ommen" />
		<tag k="old_name" v="Ovnen" />
		<tag k="place" v="isolated_dwelling" />
		<tag k="ssr:stedsnr" v="307718" />
	</node>
	<node id="6463658438" lat="59.8015194" lon="10.6200444" version="1" timestamp="2019-05-10T07:04:42Z" changeset="70098176" uid="633013" user="Honning">
		<tag k="name" v="Urianstadbråten" />
		<tag k="place" v="farm" />
		<tag k="ssr:stedsnr" v="282141" />
	</node>
	<node id="6463658439" lat="59.7960917" lon="10.6463722" version="1" timestamp="2019-05-10T07:04:42Z" changeset="70098176" uid="633013" user="Honning">
		<tag k="name" v="Kirkerud" />
		<tag k="place" v="farm" />
		<tag k="ssr:stedsnr" v="282160" />
	</node>
	<node id="6463658440" lat="59.7908333" lon="10.608975" version="1" timestamp="2019-05-10T07:04:42Z" changeset="70098176" uid="633013" user="Honning">
		<tag k="name" v="Løkkeberg" />
		<tag k="place" v="isolated_dwelling" />
		<tag k="ssr:stedsnr" v="282173" />
	</node>
	<node id="6463658441" lat="59.7771306" lon="10.6727972" version="1" timestamp="2019-05-10T07:04:42Z" changeset="70098176" uid="633013" user="Honning">
		<tag k="name" v="Utenga" />
		<tag k="place" v="farm" />
		<tag k="ssr:stedsnr" v="282197" />
	</node>
	<node id="6463658442" lat="59.7456917" lon="10.6106139" version="1" timestamp="2019-05-10T07:04:42Z" changeset="70098176" uid="633013" user="Honning">
		<tag k="name" v="Kirkeli" />
		<tag k="place" v="farm" />
		<tag k="ssr:stedsnr" v="282313" />
	</node>
	<node id="6463658443" lat="59.7330083" lon="10.6128306" version="1" timestamp="2019-05-10T07:04:42Z" changeset="70098176" uid="633013" user="Honning">
		<tag k="name" v="Svartebråtan" />
		<tag k="place" v="locality" />
		<tag k="ssr:stedsnr" v="282343" />
	</node>
	<node id="6463658444" lat="59.7453194" lon="10.6320556" version="1" timestamp="2019-05-10T07:04:42Z" changeset="70098176" uid="633013" user="Honning">
		<tag k="name" v="Munkerud" />
		<tag k="place" v="farm" />
		<tag k="ssr:stedsnr" v="792933" />
	</node>
	<node id="6463658445" lat="59.74298" lon="10.6126711" version="1" timestamp="2019-05-10T07:04:42Z" changeset="70098176" uid="633013" user="Honning">
		<tag k="name" v="Myklerud" />
		<tag k="place" v="hamlet" />
		<tag k="ssr:stedsnr" v="792936" />
	</node>
	<node id="6463658447" lat="59.7695944" lon="10.5889361" version="1" timestamp="2019-05-10T07:04:42Z" changeset="70098176" uid="633013" user="Honning">
		<tag k="name" v="Rogneskjær" />
		<tag k="place" v="isolated_dwelling" />
		<tag k="ssr:stedsnr" v="282577" />
	</node>
	<node id="6463658448" lat="59.8067306" lon="10.6221861" version="1" timestamp="2019-05-10T07:04:42Z" changeset="70098176" uid="633013" user="Honning">
		<tag k="name" v="Ellingstadåsen" />
		<tag k="place" v="quarter" />
		<tag k="ssr:stedsnr" v="794743" />
	</node>
	<node id="6463658449" lat="59.741425" lon="10.5818694" version="1" timestamp="2019-05-10T07:04:43Z" changeset="70098176" uid="633013" user="Honning">
		<tag k="alt_name" v="Solbakken" />
		<tag k="name" v="Solbakke" />
		<tag k="place" v="isolated_dwelling" />
		<tag k="ssr:stedsnr" v="814158" />
	</node>
	<node id="6463658450" lat="59.8237389" lon="10.675275" version="1" timestamp="2019-05-10T07:04:43Z" changeset="70098176" uid="633013" user="Honning">
		<tag k="name" v="Smedhagen" />
		<tag k="place" v="locality" />
		<tag k="ssr:stedsnr" v="282838" />
	</node>
	<node id="6463658451" lat="59.7743056" lon="10.6681667" version="1" timestamp="2019-05-10T07:04:43Z" changeset="70098176" uid="633013" user="Honning">
		<tag k="name" v="Løkka" />
		<tag k="place" v="locality" />
		<tag k="ssr:stedsnr" v="283325" />
	</node>
	<node id="6463658452" lat="59.7802861" lon="10.7032389" version="1" timestamp="2019-05-10T07:04:43Z" changeset="70098176" uid="633013" user="Honning">
		<tag k="name" v="Rosenhøy" />
		<tag k="place" v="farm" />
		<tag k="ssr:stedsnr" v="283330" />
	</node>
	<node id="6463658453" lat="59.8030694" lon="10.6535611" version="1" timestamp="2019-05-10T07:04:43Z" changeset="70098176" uid="633013" user="Honning">
		<tag k="name" v="Løkke" />
		<tag k="place" v="farm" />
		<tag k="ssr:stedsnr" v="828139" />
	</node>
	<node id="6463658454" lat="59.7899139" lon="10.6025889" version="1" timestamp="2019-05-10T07:04:43Z" changeset="70098176" uid="633013" user="Honning">
		<tag k="name" v="Fjelltun" />
		<tag k="place" v="farm" />
		<tag k="ssr:stedsnr" v="828164" />
	</node>
	<node id="6463658455" lat="59.7885306" lon="10.6718167" version="1" timestamp="2019-05-10T07:04:43Z" changeset="70098176" uid="633013" user="Honning">
		<tag k="name" v="Persbråten" />
		<tag k="place" v="isolated_dwelling" />
		<tag k="ssr:stedsnr" v="828166" />
	</node>
	<node id="6463658456" lat="59.8600028" lon="10.6663306" version="1" timestamp="2019-05-10T07:04:43Z" changeset="70098176" uid="633013" user="Honning">
		<tag k="name" v="Toppen" />
		<tag k="place" v="quarter" />
		<tag k="ssr:stedsnr" v="284483" />
	</node>
	<node id="6463658457" lat="59.7744972" lon="10.6016167" version="1" timestamp="2019-05-10T07:04:43Z" changeset="70098176" uid="633013" user="Honning">
		<tag k="name" v="Fjellheim" />
		<tag k="place" v="farm" />
		<tag k="ssr:stedsnr" v="828503" />
	</node>
	<node id="6463658458" lat="59.8419694" lon="10.6711583" version="1" timestamp="2019-05-10T07:04:43Z" changeset="70098176" uid="633013" user="Honning">
		<tag k="alt_name" v="Skoklefall vestre" />
		<tag k="name" v="Vestre Skoklefall" />
		<tag k="place" v="farm" />
		<tag k="ssr:stedsnr" v="284514" />
	</node>
	<node id="6463658459" lat="59.8129556" lon="10.6279083" version="1" timestamp="2019-05-10T07:04:43Z" changeset="70098176" uid="633013" user="Honning">
		<tag k="loc_name" v="Flatebybråtan" />
		<tag k="name" v="Flatebybråten" />
		<tag k="place" v="locality" />
		<tag k="ssr:stedsnr" v="828751" />
	</node>
	<node id="6463658460" lat="59.8505917" lon="10.6803222" version="1" timestamp="2019-05-10T07:04:43Z" changeset="70098176" uid="633013" user="Honning">
		<tag k="name" v="Skoklefallstrand" />
		<tag k="place" v="isolated_dwelling" />
		<tag k="ssr:stedsnr" v="299412" />
	</node>
	<node id="6463658461" lat="59.8277822" lon="10.6795882" version="1" timestamp="2019-05-10T07:04:43Z" changeset="70098176" uid="633013" user="Honning">
		<tag k="alt_name" v="Flateby nordre" />
		<tag k="name" v="Nordre Flateby" />
		<tag k="place" v="farm" />
		<tag k="ssr:stedsnr" v="828843" />
	</node>
	<node id="6463658462" lat="59.7497833" lon="10.5902" version="1" timestamp="2019-05-10T07:04:43Z" changeset="70098176" uid="633013" user="Honning">
		<tag k="name" v="Sylta" />
		<tag k="place" v="farm" />
		<tag k="ssr:stedsnr" v="828933" />
	</node>
	<node id="6463658463" lat="59.7819861" lon="10.6330111" version="1" timestamp="2019-05-10T07:04:43Z" changeset="70098176" uid="633013" user="Honning">
		<tag k="name" v="Heimli" />
		<tag k="place" v="farm" />
		<tag k="ssr:stedsnr" v="308644" />
	</node>
	<node id="6463658464" lat="59.7302444" lon="10.6177694" version="1" timestamp="2019-05-10T07:04:43Z" changeset="70098176" uid="633013" user="Honning">
		<tag k="alt_name" v="Agnor søndre" />
		<tag k="name" v="Søndre Agnor" />
		<tag k="place" v="farm" />
		<tag k="ssr:stedsnr" v="828950" />
	</node>
	<node id="6463658465" lat="59.83765" lon="10.6425694" version="1" timestamp="2019-05-10T07:04:43Z" changeset="70098176" uid="633013" user="Honning">
		<tag k="amenity" v="nursing_home" />
		<tag k="name" v="Nesoddtunet" />
		<tag k="ssr:stedsnr" v="889873" />
	</node>
	<node id="6463658466" lat="59.7834444" lon="10.6137694" version="1" timestamp="2019-05-10T07:04:43Z" changeset="70098176" uid="633013" user="Honning">
		<tag k="name" v="Nylenna" />
		<tag k="place" v="farm" />
		<tag k="ssr:stedsnr" v="830416" />
	</node>
	<node id="6463658467" lat="59.7336167" lon="10.6233389" version="1" timestamp="2019-05-10T07:04:44Z" changeset="70098176" uid="633013" user="Honning">
		<tag k="alt_name" v="Agnor nordre" />
		<tag k="name" v="Nordre Agnor" />
		<tag k="place" v="farm" />
		<tag k="ssr:stedsnr" v="342938" />
	</node>
	<node id="6463658468" lat="59.8078162" lon="10.6831613" version="2" timestamp="2021-09-23T16:07:06Z" changeset="111604424" uid="3497659" user="NKA">
		<tag k="name" v="Sandmo" />
		<tag k="place" v="locality" />
		<tag k="ssr:stedsnr" v="342047" />
	</node>
	<node id="6463658469" lat="59.8087972" lon="10.6284917" version="1" timestamp="2019-05-10T07:04:44Z" changeset="70098176" uid="633013" user="Honning">
		<tag k="name" v="Berget" />
		<tag k="place" v="farm" />
		<tag k="ssr:stedsnr" v="342120" />
	</node>
	<node id="6463658470" lat="59.8036417" lon="10.6248528" version="1" timestamp="2019-05-10T07:04:44Z" changeset="70098176" uid="633013" user="Honning">
		<tag k="alt_name" v="Holen østre" />
		<tag k="name" v="Østre Holen" />
		<tag k="place" v="farm" />
		<tag k="ssr:stedsnr" v="342129" />
	</node>
	<node id="6463658472" lat="59.792025" lon="10.6956389" version="1" timestamp="2019-05-10T07:04:44Z" changeset="70098176" uid="633013" user="Honning">
		<tag k="alt_name" v="Østeråt" />
		<tag k="name" v="Østrått" />
		<tag k="place" v="isolated_dwelling" />
		<tag k="ssr:stedsnr" v="847338" />
	</node>
	<node id="6463658473" lat="59.774425" lon="10.6070417" version="1" timestamp="2019-05-10T07:04:44Z" changeset="70098176" uid="633013" user="Honning">
		<tag k="alt_name" v="Korsveien" />
		<tag k="name" v="Korsvegen" />
		<tag k="place" v="farm" />
		<tag k="ssr:stedsnr" v="854606" />
	</node>
	<node id="6463658474" lat="59.746925" lon="10.62345" version="1" timestamp="2019-05-10T07:04:44Z" changeset="70098176" uid="633013" user="Honning">
		<tag k="name" v="Myrvoll" />
		<tag k="place" v="farm" />
		<tag k="ssr:stedsnr" v="342499" />
	</node>
	<node id="6463658475" lat="59.8175861" lon="10.6225612" version="1" timestamp="2019-05-10T07:04:44Z" changeset="70098176" uid="633013" user="Honning">
		<tag k="name" v="Leina" />
		<tag k="place" v="hamlet" />
		<tag k="ssr:stedsnr" v="342770" />
	</node>
	<node id="6463658476" lat="59.8257611" lon="10.6737361" version="1" timestamp="2019-05-10T07:04:44Z" changeset="70098176" uid="633013" user="Honning">
		<tag k="name" v="Sandaker" />
		<tag k="place" v="farm" />
		<tag k="ssr:stedsnr" v="854699" />
	</node>
	<node id="6463658477" lat="59.7776194" lon="10.6907417" version="1" timestamp="2019-05-10T07:04:44Z" changeset="70098176" uid="633013" user="Honning">
		<tag k="name" v="Søndre Hasle" />
		<tag k="place" v="farm" />
		<tag k="ssr:stedsnr" v="344432" />
	</node>
	<node id="6463658479" lat="59.8614917" lon="10.6544944" version="1" timestamp="2019-05-10T07:04:44Z" changeset="70098176" uid="633013" user="Honning">
		<tag k="name" v="Flaskebekkbråten" />
		<tag k="place" v="hamlet" />
		<tag k="ssr:stedsnr" v="405467" />
	</node>
	<node id="6463658480" lat="59.8497722" lon="10.6549667" version="1" timestamp="2019-05-10T07:04:44Z" changeset="70098176" uid="633013" user="Honning">
		<tag k="name" v="Brubakken" />
		<tag k="place" v="quarter" />
		<tag k="ssr:stedsnr" v="344510" />
	</node>
	<node id="6463658481" lat="59.8058833" lon="10.6090944" version="1" timestamp="2019-05-10T07:04:44Z" changeset="70098176" uid="633013" user="Honning">
		<tag k="name" v="Vestli" />
		<tag k="ssr:stedsnr" v="354046" />
		<tag k="tourism" v="chalet" />
	</node>
	<node id="6463658482" lat="59.7795056" lon="10.6047972" version="1" timestamp="2019-05-10T07:04:44Z" changeset="70098176" uid="633013" user="Honning">
		<tag k="name" v="Sandbakken" />
		<tag k="place" v="isolated_dwelling" />
		<tag k="ssr:stedsnr" v="359072" />
	</node>
	<node id="6463658483" lat="59.8642" lon="10.6683444" version="1" timestamp="2019-05-10T07:04:44Z" changeset="70098176" uid="633013" user="Honning">
		<tag k="alt_name" v="Hatten" />
		<tag k="name" v="Hatt" />
		<tag k="place" v="isolated_dwelling" />
		<tag k="ssr:stedsnr" v="906520" />
	</node>
	<node id="6463658484" lat="59.7751389" lon="10.5944889" version="1" timestamp="2019-05-10T07:04:44Z" changeset="70098176" uid="633013" user="Honning">
		<tag k="name" v="Svestad" />
		<tag k="place" v="hamlet" />
		<tag k="ssr:stedsnr" v="368664" />
	</node>
	<node id="6463659285" lat="59.7808056" lon="10.6910917" version="1" timestamp="2019-05-10T07:04:44Z" changeset="70098176" uid="633013" user="Honning">
		<tag k="name" v="Krange" />
		<tag k="place" v="hamlet" />
		<tag k="ssr:stedsnr" v="368716" />
	</node>
	<node id="6463659286" lat="59.7779083" lon="10.7058778" version="1" timestamp="2019-05-10T07:04:45Z" changeset="70098176" uid="633013" user="Honning">
		<tag k="alt_name" v="Blylaget" />
		<tag k="name" v="Sundby" />
		<tag k="place" v="farm" />
		<tag k="ssr:stedsnr" v="368715" />
	</node>
	<node id="6463659287" lat="59.8603806" lon="10.6542444" version="1" timestamp="2019-05-10T07:04:45Z" changeset="70098176" uid="633013" user="Honning">
		<tag k="name" v="Flaskebekk" />
		<tag k="place" v="hamlet" />
		<tag k="ssr:stedsnr" v="914800" />
	</node>
	<node id="6463659288" lat="59.7531389" lon="10.6386861" version="1" timestamp="2019-05-10T07:04:45Z" changeset="70098176" uid="633013" user="Honning">
		<tag k="name" v="Klufta" />
		<tag k="place" v="farm" />
		<tag k="ssr:stedsnr" v="915582" />
	</node>
	<node id="6463659289" lat="59.7560942" lon="10.6108555" version="1" timestamp="2019-05-10T07:04:45Z" changeset="70098176" uid="633013" user="Honning">
		<tag k="name" v="Langfjell" />
		<tag k="place" v="hamlet" />
		<tag k="ssr:stedsnr" v="915633" />
	</node>
	<node id="6463659290" lat="59.7886111" lon="10.6683111" version="1" timestamp="2019-05-10T07:04:45Z" changeset="70098176" uid="633013" user="Honning">
		<tag k="alt_name" v="Kjensli" />
		<tag k="name" v="Tjernsli" />
		<tag k="place" v="farm" />
		<tag k="ssr:stedsnr" v="915640" />
	</node>
	<node id="6463659291" lat="59.8064361" lon="10.6256111" version="1" timestamp="2019-05-10T07:04:45Z" changeset="70098176" uid="633013" user="Honning">
		<tag k="name" v="Ellingstad" />
		<tag k="place" v="farm" />
		<tag k="ssr:stedsnr" v="369640" />
	</node>
	<node id="6463659292" lat="59.7994639" lon="10.6280167" version="1" timestamp="2019-05-10T07:04:45Z" changeset="70098176" uid="633013" user="Honning">
		<tag k="alt_name" v="Urianstad" />
		<tag k="name" v="Ørjanstad" />
		<tag k="place" v="farm" />
		<tag k="ssr:stedsnr" v="915685" />
	</node>
	<node id="6463659293" lat="59.8010028" lon="10.6131389" version="1" timestamp="2019-05-10T07:04:45Z" changeset="70098176" uid="633013" user="Honning">
		<tag k="name" v="Sofienlund" />
		<tag k="place" v="isolated_dwelling" />
		<tag k="ssr:stedsnr" v="403123" />
	</node>
	<node id="6463659294" lat="59.7959389" lon="10.631125" version="1" timestamp="2019-05-10T07:04:45Z" changeset="70098176" uid="633013" user="Honning">
		<tag k="name" v="Solhaug" />
		<tag k="place" v="farm" />
		<tag k="ssr:stedsnr" v="403154" />
	</node>
	<node id="6463659295" lat="59.7617556" lon="10.64915" version="1" timestamp="2019-05-10T07:04:45Z" changeset="70098176" uid="633013" user="Honning">
		<tag k="name" v="Tomta" />
		<tag k="place" v="locality" />
		<tag k="ssr:stedsnr" v="403576" />
	</node>
	<node id="6463659297" lat="59.7845778" lon="10.6398361" version="1" timestamp="2019-05-10T07:04:45Z" changeset="70098176" uid="633013" user="Honning">
		<tag k="alt_name" v="Granerud midtre" />
		<tag k="name" v="Midtre Granerud" />
		<tag k="place" v="farm" />
		<tag k="ssr:stedsnr" v="405420" />
	</node>
	<node id="6463659298" lat="59.7437611" lon="10.6126389" version="1" timestamp="2019-05-10T07:04:45Z" changeset="70098176" uid="633013" user="Honning">
		<tag k="name" v="Nordre Myklerud" />
		<tag k="place" v="farm" />
		<tag k="ssr:stedsnr" v="949313" />
	</node>
	<node id="6463659299" lat="59.7686694" lon="10.6335333" version="1" timestamp="2019-05-10T07:04:45Z" changeset="70098176" uid="633013" user="Honning">
		<tag k="name" v="Høybråtaløkka" />
		<tag k="place" v="locality" />
		<tag k="ssr:stedsnr" v="949374" />
	</node>
	<node id="6463659300" lat="59.8135861" lon="10.67705" version="1" timestamp="2019-05-10T07:04:45Z" changeset="70098176" uid="633013" user="Honning">
		<tag k="alt_name" v="Røer" />
		<tag k="name" v="Rør" />
		<tag k="place" v="farm" />
		<tag k="ssr:stedsnr" v="413235" />
	</node>
	<node id="6463659301" lat="59.7660806" lon="10.6487389" version="1" timestamp="2019-05-10T07:04:45Z" changeset="70098176" uid="633013" user="Honning">
		<tag k="name" v="Fundingrudhaugen" />
		<tag k="place" v="locality" />
		<tag k="ssr:stedsnr" v="949542" />
	</node>
	<node id="6463659302" lat="59.7832389" lon="10.6938389" version="1" timestamp="2019-05-10T07:04:45Z" changeset="70098176" uid="633013" user="Honning">
		<tag k="alt_name" v="Grøstad søndre" />
		<tag k="name" v="Søndre Grøstad" />
		<tag k="place" v="farm" />
		<tag k="ssr:stedsnr" v="888193" />
	</node>
	<node id="6463659303" lat="59.7798111" lon="10.6032972" version="1" timestamp="2019-05-10T07:04:46Z" changeset="70098176" uid="633013" user="Honning">
		<tag k="name" v="Sandbakke" />
		<tag k="place" v="isolated_dwelling" />
		<tag k="ssr:stedsnr" v="889510" />
	</node>
	<node id="6463659304" lat="59.8413944" lon="10.6426833" version="1" timestamp="2019-05-10T07:04:46Z" changeset="70098176" uid="633013" user="Honning">
		<tag k="name" v="Østlaget" />
		<tag k="place" v="isolated_dwelling" />
		<tag k="ssr:stedsnr" v="889625" />
	</node>
	<node id="6463659305" lat="59.7712028" lon="10.6627945" version="1" timestamp="2019-05-10T07:04:46Z" changeset="70098176" uid="633013" user="Honning">
		<tag k="alt_name" v="Hokholt vestre" />
		<tag k="name" v="Vestre Hokholt" />
		<tag k="place" v="farm" />
		<tag k="ssr:stedsnr" v="951403" />
	</node>
	<node id="6463659306" lat="59.7771861" lon="10.700675" version="1" timestamp="2019-05-10T07:04:46Z" changeset="70098176" uid="633013" user="Honning">
		<tag k="name" v="Holmen" />
		<tag k="place" v="farm" />
		<tag k="ssr:stedsnr" v="951415" />
	</node>
	<node id="6463659307" lat="59.7817194" lon="10.6918222" version="1" timestamp="2019-05-10T07:04:46Z" changeset="70098176" uid="633013" user="Honning">
		<tag k="alt_name" v="Krange nordre" />
		<tag k="name" v="Nordre Krange" />
		<tag k="place" v="farm" />
		<tag k="ssr:stedsnr" v="890403" />
	</node>
	<node id="6463659308" lat="59.7755944" lon="10.6042694" version="1" timestamp="2019-05-10T07:04:46Z" changeset="70098176" uid="633013" user="Honning">
		<tag k="name" v="Trygvang" />
		<tag k="place" v="farm" />
		<tag k="ssr:stedsnr" v="890430" />
	</node>
	<node id="6463659309" lat="59.7745167" lon="10.6108972" version="1" timestamp="2019-05-10T07:04:46Z" changeset="70098176" uid="633013" user="Honning">
		<tag k="name" v="Ankerløkka" />
		<tag k="place" v="locality" />
		<tag k="ssr:stedsnr" v="890433" />
	</node>
	<node id="6463659310" lat="59.8471139" lon="10.6492111" version="1" timestamp="2019-05-10T07:04:46Z" changeset="70098176" uid="633013" user="Honning">
		<tag k="name" v="Flauet" />
		<tag k="place" v="hamlet" />
		<tag k="ssr:stedsnr" v="951495" />
	</node>
	<node id="6463659311" lat="59.8438" lon="10.6811556" version="1" timestamp="2019-05-10T07:04:46Z" changeset="70098176" uid="633013" user="Honning">
		<tag k="name" v="Hellevikskogen" />
		<tag k="place" v="quarter" />
		<tag k="ssr:stedsnr" v="951503" />
	</node>
	<node id="6463659312" lat="59.8350461" lon="10.6742909" version="1" timestamp="2019-05-10T07:04:46Z" changeset="70098176" uid="633013" user="Honning">
		<tag k="leisure" v="pitch" />
		<tag k="name" v="Berger idrettspark vestre" />
		<tag k="ssr:stedsnr" v="966061" />
	</node>
	<node id="6463659313" lat="59.7915" lon="10.6492778" version="1" timestamp="2019-05-10T07:04:46Z" changeset="70098176" uid="633013" user="Honning">
		<tag k="name" v="Lønnås" />
		<tag k="place" v="farm" />
		<tag k="ssr:stedsnr" v="4662" />
	</node>
	<node id="6463659314" lat="59.7784917" lon="10.6608361" version="1" timestamp="2019-05-10T07:04:46Z" changeset="70098176" uid="633013" user="Honning">
		<tag k="name" v="Sandåsen" />
		<tag k="place" v="isolated_dwelling" />
		<tag k="ssr:stedsnr" v="4680" />
	</node>
	<node id="6463659315" lat="59.8224222" lon="10.6623861" version="1" timestamp="2019-05-10T07:04:46Z" changeset="70098176" uid="633013" user="Honning">
		<tag k="alt_name" v="Bekkbråten" />
		<tag k="name" v="Bekkbråtan" />
		<tag k="place" v="farm" />
		<tag k="ssr:stedsnr" v="5721" />
	</node>
	<node id="6463659316" lat="59.7455722" lon="10.6034889" version="1" timestamp="2019-05-10T07:04:46Z" changeset="70098176" uid="633013" user="Honning">
		<tag k="alt_name" v="Lillengen" />
		<tag k="name" v="Lillenga" />
		<tag k="place" v="farm" />
		<tag k="ssr:stedsnr" v="25136" />
	</node>
	<node id="6463659317" lat="59.7431167" lon="10.5851861" version="1" timestamp="2019-05-10T07:04:46Z" changeset="70098176" uid="633013" user="Honning">
		<tag k="alt_name" v="Hytten" />
		<tag k="name" v="Hytta" />
		<tag k="place" v="isolated_dwelling" />
		<tag k="ssr:stedsnr" v="25138" />
	</node>
	<node id="6463659318" lat="59.7503889" lon="10.5944111" version="1" timestamp="2019-05-10T07:04:46Z" changeset="70098176" uid="633013" user="Honning">
		<tag k="name" v="Store Rud" />
		<tag k="place" v="farm" />
		<tag k="ssr:stedsnr" v="25154" />
	</node>
	<node id="6463659319" lat="59.8104167" lon="10.6992667" version="1" timestamp="2019-05-10T07:04:46Z" changeset="70098176" uid="633013" user="Honning">
		<tag k="name" v="Kirkevika" />
		<tag k="place" v="isolated_dwelling" />
		<tag k="ssr:stedsnr" v="39024" />
	</node>
	<node id="6463659320" lat="59.8062222" lon="10.6805639" version="1" timestamp="2019-05-10T07:04:47Z" changeset="70098176" uid="633013" user="Honning">
		<tag k="name" v="Holt" />
		<tag k="place" v="farm" />
		<tag k="ssr:stedsnr" v="39104" />
	</node>
	<node id="6463659321" lat="59.80395" lon="10.6269167" version="1" timestamp="2019-05-10T07:04:47Z" changeset="70098176" uid="633013" user="Honning">
		<tag k="name" v="Bekkevoll" />
		<tag k="place" v="farm" />
		<tag k="ssr:stedsnr" v="39120" />
	</node>
	<node id="6463659322" lat="59.7357028" lon="10.6048139" version="1" timestamp="2019-05-10T07:04:47Z" changeset="70098176" uid="633013" user="Honning">
		<tag k="amenity" v="nursing_home" />
		<tag k="name" v="Grøndalen" />
		<tag k="ssr:stedsnr" v="39292" />
	</node>
	<node id="6463659323" lat="59.8303444" lon="10.6699889" version="1" timestamp="2019-05-10T07:04:47Z" changeset="70098176" uid="633013" user="Honning">
		<tag k="loc_name" v="Vamyra" />
		<tag k="name" v="Vamyrplassen" />
		<tag k="place" v="locality" />
		<tag k="ssr:stedsnr" v="342819" />
	</node>
	<node id="6463659324" lat="59.8189611" lon="10.6518695" version="1" timestamp="2019-05-10T07:04:47Z" changeset="70098176" uid="633013" user="Honning">
		<tag k="name" v="Langemyr" />
		<tag k="place" v="isolated_dwelling" />
		<tag k="ssr:stedsnr" v="39766" />
	</node>
	<node id="6463659325" lat="59.8236417" lon="10.6249528" version="1" timestamp="2019-05-10T07:04:47Z" changeset="70098176" uid="633013" user="Honning">
		<tag k="name" v="Mellomstrand" />
		<tag k="place" v="isolated_dwelling" />
		<tag k="ssr:stedsnr" v="39788" />
	</node>
	<node id="6463659326" lat="59.8260306" lon="10.680225" version="1" timestamp="2019-05-10T07:04:47Z" changeset="70098176" uid="633013" user="Honning">
		<tag k="alt_name" v="Flateby søndre" />
		<tag k="name" v="Søndre Flateby" />
		<tag k="place" v="farm" />
		<tag k="ssr:stedsnr" v="39829" />
	</node>
	<node id="6463659327" lat="59.8223806" lon="10.6902083" version="1" timestamp="2019-05-10T07:04:47Z" changeset="70098176" uid="633013" user="Honning">
		<tag k="name" v="Solberg" />
		<tag k="place" v="farm" />
		<tag k="ssr:stedsnr" v="854717" />
	</node>
	<node id="6463659328" lat="59.7358111" lon="10.6018472" version="1" timestamp="2019-05-10T07:04:47Z" changeset="70098176" uid="633013" user="Honning">
		<tag k="name" v="Dal" />
		<tag k="place" v="isolated_dwelling" />
		<tag k="ssr:stedsnr" v="39954" />
	</node>
	<node id="6463659329" lat="59.7809583" lon="10.6908389" version="1" timestamp="2019-05-10T07:04:47Z" changeset="70098176" uid="633013" user="Honning">
		<tag k="alt_name" v="Krange søndre" />
		<tag k="name" v="Søndre Krange" />
		<tag k="place" v="farm" />
		<tag k="ssr:stedsnr" v="40409" />
	</node>
	<node id="6463659330" lat="59.7807167" lon="10.6056028" version="1" timestamp="2019-05-10T07:04:47Z" changeset="70098176" uid="633013" user="Honning">
		<tag k="name" v="Moen" />
		<tag k="place" v="isolated_dwelling" />
		<tag k="ssr:stedsnr" v="41438" />
	</node>
	<node id="6463659331" lat="59.7489417" lon="10.6307" version="1" timestamp="2019-05-10T07:04:47Z" changeset="70098176" uid="633013" user="Honning">
		<tag k="name" v="Veum" />
		<tag k="place" v="farm" />
		<tag k="ssr:stedsnr" v="64955" />
	</node>
	<node id="6463659332" lat="59.77725" lon="10.6906805" version="1" timestamp="2019-05-10T07:04:47Z" changeset="70098176" uid="633013" user="Honning">
		<tag k="name" v="Hasle" />
		<tag k="place" v="hamlet" />
		<tag k="ssr:stedsnr" v="65612" />
	</node>
	<node id="6463659333" lat="59.8154139" lon="10.6485333" version="1" timestamp="2019-05-10T07:04:47Z" changeset="70098176" uid="633013" user="Honning">
		<tag k="name" v="Jonsrud" />
		<tag k="place" v="farm" />
		<tag k="ssr:stedsnr" v="915724" />
	</node>
	<node id="6463659334" lat="59.7857611" lon="10.6091556" version="1" timestamp="2019-05-10T07:04:47Z" changeset="70098176" uid="633013" user="Honning">
		<tag k="name" v="Dalen" />
		<tag k="place" v="farm" />
		<tag k="ssr:stedsnr" v="65654" />
	</node>
	<node id="6463659335" lat="59.77515" lon="10.7004472" version="1" timestamp="2019-05-10T07:04:47Z" changeset="70098176" uid="633013" user="Honning">
		<tag k="name" v="Vestby" />
		<tag k="place" v="farm" />
		<tag k="ssr:stedsnr" v="708406" />
	</node>
	<node id="6463659336" lat="59.7408861" lon="10.5906861" version="1" timestamp="2019-05-10T07:04:47Z" changeset="70098176" uid="633013" user="Honning">
		<tag k="name" v="Lillerud" />
		<tag k="place" v="farm" />
		<tag k="ssr:stedsnr" v="86145" />
	</node>
	<node id="6463659337" lat="59.799" lon="10.6903445" version="1" timestamp="2019-05-10T07:04:47Z" changeset="70098176" uid="633013" user="Honning">
		<tag k="name" v="Rudsborg" />
		<tag k="place" v="farm" />
		<tag k="ssr:stedsnr" v="99115" />
	</node>
	<node id="6463659338" lat="59.8022111" lon="10.6223056" version="1" timestamp="2019-05-10T07:04:47Z" changeset="70098176" uid="633013" user="Honning">
		<tag k="name" v="Skogsrud" />
		<tag k="place" v="farm" />
		<tag k="ssr:stedsnr" v="99143" />
	</node>
	<node id="6463659339" lat="59.7762194" lon="10.6809083" version="1" timestamp="2019-05-10T07:04:48Z" changeset="70098176" uid="633013" user="Honning">
		<tag k="name" v="Åslund" />
		<tag k="place" v="farm" />
		<tag k="ssr:stedsnr" v="99241" />
	</node>
	<node id="6463659340" lat="59.8061389" lon="10.6926306" version="1" timestamp="2019-05-10T07:04:48Z" changeset="70098176" uid="633013" user="Honning">
		<tag k="name" v="Nesodden prestegård" />
		<tag k="place" v="farm" />
		<tag k="ssr:stedsnr" v="100040" />
	</node>
	<node id="6463659341" lat="59.7501056" lon="10.6241028" version="1" timestamp="2019-05-10T07:04:48Z" changeset="70098176" uid="633013" user="Honning">
		<tag k="name" v="Myrås" />
		<tag k="place" v="isolated_dwelling" />
		<tag k="ssr:stedsnr" v="100548" />
	</node>
	<node id="6463659342" lat="59.8664528" lon="10.6555806" version="1" timestamp="2019-05-10T07:04:48Z" changeset="70098176" uid="633013" user="Honning">
		<tag k="name" v="Gråbeinberget" />
		<tag k="place" v="isolated_dwelling" />
		<tag k="ssr:stedsnr" v="102525" />
	</node>
	<node id="6463659344" lat="59.8691154" lon="10.718403" version="3" timestamp="2022-06-20T14:39:06Z" changeset="122627654" uid="3497659" user="NKA">
		<tag k="name" v="Langøyene" />
		<tag k="network" v="Den Norske Turistforening" />
		<tag k="ref:kartverket:hytte" v="1530" />
		<tag k="ssr:stedsnr" v="103871" />
		<tag k="tourism" v="chalet" />
	</node>
	<node id="6463659345" lat="59.842325" lon="10.6437444" version="1" timestamp="2019-05-10T07:04:48Z" changeset="70098176" uid="633013" user="Honning">
		<tag k="name" v="Bjørklund" />
		<tag k="place" v="isolated_dwelling" />
		<tag k="ssr:stedsnr" v="117301" />
	</node>
	<node id="6463659346" lat="59.7417667" lon="10.6247444" version="1" timestamp="2019-05-10T07:04:48Z" changeset="70098176" uid="633013" user="Honning">
		<tag k="name" v="Ødegaarden" />
		<tag k="place" v="farm" />
		<tag k="ssr:stedsnr" v="124965" />
	</node>
	<node id="6463659348" lat="59.7662028" lon="10.6011306" version="1" timestamp="2019-05-10T07:04:48Z" changeset="70098176" uid="633013" user="Honning">
		<tag k="name" v="Labråtan" />
		<tag k="old_name" v="Lubråten" />
		<tag k="place" v="isolated_dwelling" />
		<tag k="ssr:stedsnr" v="126628" />
	</node>
	<node id="6463659349" lat="59.822775" lon="10.655" version="1" timestamp="2019-05-10T07:04:48Z" changeset="70098176" uid="633013" user="Honning">
		<tag k="name" v="To" />
		<tag k="place" v="farm" />
		<tag k="ssr:stedsnr" v="855754" />
	</node>
	<node id="6463659350" lat="59.7860444" lon="10.5987667" version="1" timestamp="2019-05-10T07:04:48Z" changeset="70098176" uid="633013" user="Honning">
		<tag k="name" v="Nordstrand" />
		<tag k="place" v="hamlet" />
		<tag k="ssr:stedsnr" v="126654" />
	</node>
	<node id="6463659351" lat="59.8415591" lon="10.6737482" version="1" timestamp="2019-05-10T07:04:48Z" changeset="70098176" uid="633013" user="Honning">
		<tag k="name" v="Skoklefall" />
		<tag k="place" v="hamlet" />
		<tag k="ssr:stedsnr" v="126745" />
	</node>
	<node id="6463659352" lat="59.8370778" lon="10.694825" version="1" timestamp="2019-05-10T07:04:48Z" changeset="70098176" uid="633013" user="Honning">
		<tag k="name" v="Bonden" />
		<tag k="place" v="isolated_dwelling" />
		<tag k="ssr:stedsnr" v="146359" />
	</node>
	<node id="6463659353" lat="59.8011806" lon="10.7044111" version="1" timestamp="2019-05-10T07:04:48Z" changeset="70098176" uid="633013" user="Honning">
		<tag k="name" v="Juten" />
		<tag k="place" v="farm" />
		<tag k="ssr:stedsnr" v="160035" />
	</node>
	<node id="6463659354" lat="59.7946" lon="10.6923667" version="1" timestamp="2019-05-10T07:04:48Z" changeset="70098176" uid="633013" user="Honning">
		<tag k="name" v="Loftu" />
		<tag k="place" v="farm" />
		<tag k="ssr:stedsnr" v="160091" />
	</node>
	<node id="6463659355" lat="59.8043778" lon="10.6089861" version="1" timestamp="2019-05-10T07:04:48Z" changeset="70098176" uid="633013" user="Honning">
		<tag k="alt_name" v="Ommen nordre" />
		<tag k="name" v="Nordre Ommen" />
		<tag k="place" v="farm" />
		<tag k="ssr:stedsnr" v="160107" />
	</node>
	<node id="6463659356" lat="59.7945583" lon="10.609975" version="1" timestamp="2019-05-10T07:04:48Z" changeset="70098176" uid="633013" user="Honning">
		<tag k="name" v="Steinor" />
		<tag k="place" v="farm" />
		<tag k="ssr:stedsnr" v="160121" />
	</node>
	<node id="6463659357" lat="59.7746694" lon="10.6805472" version="1" timestamp="2019-05-10T07:04:48Z" changeset="70098176" uid="633013" user="Honning">
		<tag k="name" v="Kollen" />
		<tag k="place" v="farm" />
		<tag k="ssr:stedsnr" v="160170" />
	</node>
	<node id="6463659358" lat="59.8149083" lon="10.6512583" version="1" timestamp="2019-05-10T07:04:49Z" changeset="70098176" uid="633013" user="Honning">
		<tag k="name" v="Ravnsborg" />
		<tag k="place" v="locality" />
		<tag k="ssr:stedsnr" v="160765" />
	</node>
	<node id="6463659359" lat="59.7604111" lon="10.6085278" version="1" timestamp="2019-05-10T07:04:49Z" changeset="70098176" uid="633013" user="Honning">
		<tag k="name" v="Nordby" />
		<tag k="place" v="farm" />
		<tag k="ssr:stedsnr" v="160551" />
	</node>
	<node id="6463659360" lat="59.8207222" lon="10.6207444" version="1" timestamp="2019-05-10T07:04:49Z" changeset="70098176" uid="633013" user="Honning">
		<tag k="name" v="Alvern" />
		<tag k="place" v="farm" />
		<tag k="ssr:stedsnr" v="160785" />
	</node>
	<node id="6463659361" lat="59.8240472" lon="10.6681028" version="1" timestamp="2019-05-10T07:04:49Z" changeset="70098176" uid="633013" user="Honning">
		<tag k="name" v="Nissestua" />
		<tag k="place" v="farm" />
		<tag k="ssr:stedsnr" v="160864" />
	</node>
	<node id="6463659363" lat="59.7825556" lon="10.6102528" version="1" timestamp="2019-05-10T07:04:49Z" changeset="70098176" uid="633013" user="Honning">
		<tag k="name" v="Åsland" />
		<tag k="place" v="farm" />
		<tag k="ssr:stedsnr" v="162439" />
	</node>
	<node id="6463659364" lat="59.8038167" lon="10.7047056" version="1" timestamp="2019-05-10T07:04:49Z" changeset="70098176" uid="633013" user="Honning">
		<tag k="name" v="Skjærløkka" />
		<tag k="place" v="isolated_dwelling" />
		<tag k="ssr:stedsnr" v="907285" />
	</node>
	<node id="6463659365" lat="59.8383917" lon="10.6700694" version="1" timestamp="2019-05-10T07:04:49Z" changeset="70098176" uid="633013" user="Honning">
		<tag k="name" v="Isakstubråten" />
		<tag k="place" v="locality" />
		<tag k="ssr:stedsnr" v="162490" />
	</node>
	<node id="6463659366" lat="59.836125" lon="10.6772889" version="1" timestamp="2019-05-10T07:04:49Z" changeset="70098176" uid="633013" user="Honning">
		<tag k="name" v="Halvorstubråten" />
		<tag k="place" v="locality" />
		<tag k="ssr:stedsnr" v="162493" />
	</node>
	<node id="6463659367" lat="59.8385167" lon="10.6729667" version="1" timestamp="2019-05-10T07:04:49Z" changeset="70098176" uid="633013" user="Honning">
		<tag k="name" v="Fagerås" />
		<tag k="place" v="locality" />
		<tag k="ssr:stedsnr" v="162495" />
	</node>
	<node id="6463659368" lat="59.8421611" lon="10.6744889" version="1" timestamp="2019-05-10T07:04:49Z" changeset="70098176" uid="633013" user="Honning">
		<tag k="alt_name" v="Skoklefall østre" />
		<tag k="name" v="Østre Skoklefall" />
		<tag k="place" v="farm" />
		<tag k="ssr:stedsnr" v="162515" />
	</node>
	<node id="6463659369" lat="59.8511139" lon="10.6781167" version="1" timestamp="2019-05-10T07:04:49Z" changeset="70098176" uid="633013" user="Honning">
		<tag k="name" v="Bergum" />
		<tag k="place" v="isolated_dwelling" />
		<tag k="ssr:stedsnr" v="177382" />
	</node>
	<node id="6463659370" lat="59.8209306" lon="10.6277806" version="1" timestamp="2019-05-10T07:04:49Z" changeset="70098176" uid="633013" user="Honning">
		<tag k="name" v="Alværn" />
		<tag k="place" v="quarter" />
		<tag k="ssr:stedsnr" v="855756" />
	</node>
	<node id="6463659371" lat="59.8428333" lon="10.6632056" version="1" timestamp="2019-05-10T07:04:49Z" changeset="70098176" uid="633013" user="Honning">
		<tag k="name" v="Kallestad" />
		<tag k="place" v="locality" />
		<tag k="ssr:stedsnr" v="830493" />
	</node>
	<node id="6463659372" lat="59.7887806" lon="10.610675" version="1" timestamp="2019-05-10T07:04:49Z" changeset="70098176" uid="633013" user="Honning">
		<tag k="alt_name" v="Beksrud" />
		<tag k="name" v="Bekksrud" />
		<tag k="place" v="farm" />
		<tag k="ssr:stedsnr" v="186690" />
	</node>
	<node id="6463659373" lat="59.8507333" lon="10.6776861" version="1" timestamp="2019-05-10T07:04:49Z" changeset="70098176" uid="633013" user="Honning">
		<tag k="name" v="Ursvik" />
		<tag k="place" v="village" />
		<tag k="ssr:stedsnr" v="186806" />
	</node>
	<node id="6463659374" lat="59.7385056" lon="10.6299056" version="1" timestamp="2019-05-10T07:04:49Z" changeset="70098176" uid="633013" user="Honning">
		<tag k="name" v="Rustad" />
		<tag k="place" v="farm" />
		<tag k="ssr:stedsnr" v="913972" />
	</node>
	<node id="6463659375" lat="59.7432222" lon="10.6068111" version="1" timestamp="2019-05-10T07:04:50Z" changeset="70098176" uid="633013" user="Honning">
		<tag k="name" v="Nygård" />
		<tag k="place" v="farm" />
		<tag k="ssr:stedsnr" v="207132" />
	</node>
	<node id="6463659376" lat="59.8346167" lon="10.6956472" version="1" timestamp="2019-05-10T07:04:50Z" changeset="70098176" uid="633013" user="Honning">
		<tag k="name" v="Lillestrand" />
		<tag k="place" v="isolated_dwelling" />
		<tag k="ssr:stedsnr" v="207369" />
	</node>
	<node id="6463659377" lat="59.8088917" lon="10.6641" version="1" timestamp="2019-05-10T07:04:50Z" changeset="70098176" uid="633013" user="Honning">
		<tag k="name" v="Smedsrud" />
		<tag k="place" v="locality" />
		<tag k="ssr:stedsnr" v="221027" />
	</node>
	<node id="6463659378" lat="59.7919667" lon="10.6868861" version="1" timestamp="2019-05-10T07:04:50Z" changeset="70098176" uid="633013" user="Honning">
		<tag k="name" v="Jaersbråtan" />
		<tag k="place" v="farm" />
		<tag k="ssr:stedsnr" v="221105" />
	</node>
	<node id="6463659379" lat="59.8006972" lon="10.6572917" version="1" timestamp="2019-05-10T07:04:50Z" changeset="70098176" uid="633013" user="Honning">
		<tag k="alt_name" v="Myra vestre" />
		<tag k="name" v="Vestre Myra" />
		<tag k="place" v="farm" />
		<tag k="ssr:stedsnr" v="221132" />
	</node>
	<node id="6463659380" lat="59.8018333" lon="10.6610389" version="1" timestamp="2019-05-10T07:04:50Z" changeset="70098176" uid="633013" user="Honning">
		<tag k="alt_name" v="Myra østre" />
		<tag k="name" v="Østre Myra" />
		<tag k="place" v="farm" />
		<tag k="ssr:stedsnr" v="221136" />
	</node>
	<node id="6463659381" lat="59.7909667" lon="10.6067917" version="1" timestamp="2019-05-10T07:04:50Z" changeset="70098176" uid="633013" user="Honning">
		<tag k="name" v="Løkkeåsen" />
		<tag k="place" v="hamlet" />
		<tag k="ssr:stedsnr" v="221158" />
	</node>
	<node id="6463659382" lat="59.7792333" lon="10.6818278" version="1" timestamp="2019-05-10T07:04:50Z" changeset="70098176" uid="633013" user="Honning">
		<tag k="name" v="Haslehagen" />
		<tag k="place" v="farm" />
		<tag k="ssr:stedsnr" v="221190" />
	</node>
	<node id="6463659383" lat="59.7338472" lon="10.5883417" version="1" timestamp="2019-05-10T07:04:50Z" changeset="70098176" uid="633013" user="Honning">
		<tag k="name" v="Grisebu" />
		<tag k="place" v="isolated_dwelling" />
		<tag k="ssr:stedsnr" v="221329" />
	</node>
	<node id="6463659384" lat="59.7669556" lon="10.6556194" version="1" timestamp="2019-05-10T07:04:50Z" changeset="70098176" uid="633013" user="Honning">
		<tag k="name" v="Fundingrud" />
		<tag k="place" v="farm" />
		<tag k="ssr:stedsnr" v="855659;282579" />
	</node>
	<node id="6463659485" lat="59.7481194" lon="10.5822028" version="1" timestamp="2019-05-10T07:04:50Z" changeset="70098176" uid="633013" user="Honning">
		<tag k="name" v="Fjordheim" />
		<tag k="place" v="isolated_dwelling" />
		<tag k="ssr:stedsnr" v="221334" />
	</node>
	<node id="6463659486" lat="59.7405306" lon="10.6043333" version="1" timestamp="2019-05-10T07:04:50Z" changeset="70098176" uid="633013" user="Honning">
		<tag k="name" v="Bråten" />
		<tag k="place" v="farm" />
		<tag k="ssr:stedsnr" v="221339" />
	</node>
	<node id="6463659487" lat="59.7529333" lon="10.5829278" version="1" timestamp="2019-05-10T07:04:50Z" changeset="70098176" uid="633013" user="Honning">
		<tag k="name" v="Bekk" />
		<tag k="place" v="hamlet" />
		<tag k="ssr:stedsnr" v="221348" />
	</node>
	<node id="6463659488" lat="59.8223972" lon="10.6261583" version="1" timestamp="2019-05-10T07:04:50Z" changeset="70098176" uid="633013" user="Honning">
		<tag k="name" v="Tømmerbakke" />
		<tag k="place" v="isolated_dwelling" />
		<tag k="ssr:stedsnr" v="221792" />
	</node>
	<node id="6463659489" lat="59.8116722" lon="10.6870083" version="1" timestamp="2019-05-10T07:04:50Z" changeset="70098176" uid="633013" user="Honning">
		<tag k="name" v="Kontra" />
		<tag k="place" v="farm" />
		<tag k="ssr:stedsnr" v="221809" />
	</node>
	<node id="6463659490" lat="59.7300889" lon="10.6084945" version="1" timestamp="2019-05-10T07:04:50Z" changeset="70098176" uid="633013" user="Honning">
		<tag k="name" v="Granli" />
		<tag k="place" v="farm" />
		<tag k="ssr:stedsnr" v="221941" />
	</node>
	<node id="6463659491" lat="59.7445556" lon="10.5829417" version="1" timestamp="2019-05-10T07:04:50Z" changeset="70098176" uid="633013" user="Honning">
		<tag k="name" v="Fjellvik" />
		<tag k="place" v="isolated_dwelling" />
		<tag k="ssr:stedsnr" v="221940" />
	</node>
	<node id="6463659492" lat="59.7754028" lon="10.6968445" version="1" timestamp="2019-05-10T07:04:50Z" changeset="70098176" uid="633013" user="Honning">
		<tag k="name" v="Brenningen" />
		<tag k="place" v="locality" />
		<tag k="ssr:stedsnr" v="223426" />
	</node>
	<node id="6463659493" lat="59.77555" lon="10.6895667" version="1" timestamp="2019-05-10T07:04:51Z" changeset="70098176" uid="633013" user="Honning">
		<tag k="name" v="Søndre Hasle" />
		<tag k="place" v="farm" />
		<tag k="ssr:stedsnr" v="223430" />
	</node>
	<node id="6463659494" lat="59.8649972" lon="10.6549917" version="1" timestamp="2019-05-10T07:04:51Z" changeset="70098176" uid="633013" user="Honning">
		<tag k="name" v="Bratli" />
		<tag k="place" v="isolated_dwelling" />
		<tag k="ssr:stedsnr" v="223472" />
	</node>
	<node id="6463659495" lat="59.8630889" lon="10.665825" version="1" timestamp="2019-05-10T07:04:51Z" changeset="70098176" uid="633013" user="Honning">
		<tag k="name" v="Amalienborg" />
		<tag k="place" v="isolated_dwelling" />
		<tag k="ssr:stedsnr" v="238402" />
	</node>
	<node id="6463659496" lat="59.7509104" lon="10.6076923" version="1" timestamp="2019-05-10T07:04:51Z" changeset="70098176" uid="633013" user="Honning">
		<tag k="name" v="Gjøfjell" />
		<tag k="place" v="hamlet" />
		<tag k="ssr:stedsnr" v="247571" />
	</node>
	<node id="6463659497" lat="59.7566917" lon="10.6397667" version="1" timestamp="2019-05-10T07:04:51Z" changeset="70098176" uid="633013" user="Honning">
		<tag k="name" v="Teigen" />
		<tag k="place" v="locality" />
		<tag k="ssr:stedsnr" v="247587" />
	</node>
	<node id="6463659498" lat="59.7707938" lon="10.6687374" version="1" timestamp="2019-05-10T07:04:51Z" changeset="70098176" uid="633013" user="Honning">
		<tag k="name" v="Hokholt" />
		<tag k="place" v="hamlet" />
		<tag k="ssr:stedsnr" v="247604" />
	</node>
	<node id="6463659499" lat="59.7615694" lon="10.6251945" version="1" timestamp="2019-05-10T07:04:51Z" changeset="70098176" uid="633013" user="Honning">
		<tag k="name" v="Ravnsborg" />
		<tag k="place" v="isolated_dwelling" />
		<tag k="ssr:stedsnr" v="247614" />
	</node>
	<node id="6463659500" lat="59.7890889" lon="10.5996556" version="1" timestamp="2019-05-10T07:04:51Z" changeset="70098176" uid="633013" user="Honning">
		<tag k="name" v="Dalbo" />
		<tag k="place" v="isolated_dwelling" />
		<tag k="ssr:stedsnr" v="247637" />
	</node>
	<node id="6463659501" lat="59.8273309" lon="10.6798515" version="1" timestamp="2019-05-10T07:04:51Z" changeset="70098176" uid="633013" user="Honning">
		<tag k="name" v="Flateby" />
		<tag k="place" v="hamlet" />
		<tag k="ssr:stedsnr" v="247708" />
	</node>
	<node id="6463659502" lat="59.8196389" lon="10.64425" version="1" timestamp="2019-05-10T07:04:51Z" changeset="70098176" uid="633013" user="Honning">
		<tag k="name" v="Sylta" />
		<tag k="place" v="locality" />
		<tag k="ssr:stedsnr" v="767799" />
	</node>
	<node id="6463659503" lat="59.8493278" lon="10.6822028" version="1" timestamp="2019-05-10T07:04:51Z" changeset="70098176" uid="633013" user="Honning">
		<tag k="name" v="Grønnbogen" />
		<tag k="place" v="isolated_dwelling" />
		<tag k="ssr:stedsnr" v="421382" />
	</node>
	<node id="6463659504" lat="59.7851393" lon="10.6932175" version="1" timestamp="2019-05-10T07:04:51Z" changeset="70098176" uid="633013" user="Honning">
		<tag k="name" v="Grøstad" />
		<tag k="place" v="hamlet" />
		<tag k="ssr:stedsnr" v="429660" />
	</node>
	<node id="6463659505" lat="59.7976861" lon="10.6866917" version="1" timestamp="2019-05-10T07:04:51Z" changeset="70098176" uid="633013" user="Honning">
		<tag k="name" v="Roberg" />
		<tag k="place" v="farm" />
		<tag k="ssr:stedsnr" v="429715" />
	</node>
	<node id="6463659506" lat="59.8160028" lon="10.6997083" version="1" timestamp="2019-05-10T07:04:51Z" changeset="70098176" uid="633013" user="Honning">
		<tag k="name" v="Torvvik" />
		<tag k="place" v="isolated_dwelling" />
		<tag k="ssr:stedsnr" v="430724" />
	</node>
	<node id="6463659507" lat="59.8419667" lon="10.6931639" version="1" timestamp="2019-05-10T07:04:51Z" changeset="70098176" uid="633013" user="Honning">
		<tag k="name" v="Strandheim" />
		<tag k="place" v="isolated_dwelling" />
		<tag k="ssr:stedsnr" v="450387" />
	</node>
	<node id="6463659508" lat="59.8049722" lon="10.6854583" version="1" timestamp="2019-05-10T07:04:51Z" changeset="70098176" uid="633013" user="Honning">
		<tag k="name" v="Kirkebøen" />
		<tag k="place" v="isolated_dwelling" />
		<tag k="ssr:stedsnr" v="463083" />
	</node>
	<node id="6463659509" lat="59.7847861" lon="10.6943639" version="1" timestamp="2019-05-10T07:04:51Z" changeset="70098176" uid="633013" user="Honning">
		<tag k="alt_name" v="Grøstad nordre" />
		<tag k="name" v="Nordre Grøstad" />
		<tag k="place" v="farm" />
		<tag k="ssr:stedsnr" v="463199" />
	</node>
	<node id="6463659511" lat="59.778025" lon="10.6053833" version="1" timestamp="2019-05-10T07:04:51Z" changeset="70098176" uid="633013" user="Honning">
		<tag k="name" v="Sandvang" />
		<tag k="place" v="isolated_dwelling" />
		<tag k="ssr:stedsnr" v="464259" />
	</node>
	<node id="6463659512" lat="59.7278611" lon="10.6122472" version="1" timestamp="2019-05-10T07:04:52Z" changeset="70098176" uid="633013" user="Honning">
		<tag k="name" v="Agnor" />
		<tag k="place" v="locality" />
		<tag k="ssr:stedsnr" v="464482" />
	</node>
	<node id="6463659513" lat="59.7761889" lon="10.5960333" version="1" timestamp="2019-05-10T07:04:52Z" changeset="70098176" uid="633013" user="Honning">
		<tag k="name" v="Hella" />
		<tag k="place" v="isolated_dwelling" />
		<tag k="ssr:stedsnr" v="464532" />
	</node>
	<node id="6463659514" lat="59.8091528" lon="10.6915889" version="1" timestamp="2019-05-10T07:04:52Z" changeset="70098176" uid="633013" user="Honning">
		<tag k="name" v="Kirkeåsen" />
		<tag k="place" v="hamlet" />
		<tag k="ssr:stedsnr" v="949035" />
	</node>
	<node id="6463659515" lat="59.8126472" lon="10.6373806" version="1" timestamp="2019-05-10T07:04:52Z" changeset="70098176" uid="633013" user="Honning">
		<tag k="name" v="Holtebakken" />
		<tag k="place" v="isolated_dwelling" />
		<tag k="ssr:stedsnr" v="464843" />
	</node>
	<node id="6463659516" lat="59.8197944" lon="10.6839778" version="1" timestamp="2019-05-10T07:04:52Z" changeset="70098176" uid="633013" user="Honning">
		<tag k="name" v="Solberghagen" />
		<tag k="place" v="isolated_dwelling" />
		<tag k="ssr:stedsnr" v="464864" />
	</node>
	<node id="6463659517" lat="59.7774667" lon="10.6936194" version="1" timestamp="2019-05-10T07:04:52Z" changeset="70098176" uid="633013" user="Honning">
		<tag k="name" v="Haslehaugen" />
		<tag k="place" v="farm" />
		<tag k="ssr:stedsnr" v="465386" />
	</node>
	<node id="6463659518" lat="59.8170139" lon="10.6227583" version="1" timestamp="2019-05-10T07:04:52Z" changeset="70098176" uid="633013" user="Honning">
		<tag k="name" v="Lalien" />
		<tag k="place" v="farm" />
		<tag k="ssr:stedsnr" v="767802" />
	</node>
	<node id="6463659519" lat="59.8589068" lon="10.6712951" version="1" timestamp="2019-05-10T07:04:52Z" changeset="70098176" uid="633013" user="Honning">
		<tag k="name" v="Helgolf" />
		<tag k="place" v="isolated_dwelling" />
		<tag k="ssr:stedsnr" v="481403" />
	</node>
	<node id="6463659520" lat="59.8523389" lon="10.6581278" version="1" timestamp="2019-05-10T07:04:52Z" changeset="70098176" uid="633013" user="Honning">
		<tag k="name" v="Skogen" />
		<tag k="place" v="quarter" />
		<tag k="ssr:stedsnr" v="489787" />
	</node>
	<node id="6463659521" lat="59.7589833" lon="10.6062333" version="1" timestamp="2019-05-10T07:04:52Z" changeset="70098176" uid="633013" user="Honning">
		<tag k="name" v="Toppen" />
		<tag k="place" v="farm" />
		<tag k="ssr:stedsnr" v="490651" />
	</node>
	<node id="6463659522" lat="59.8080889" lon="10.6536139" version="1" timestamp="2019-05-10T07:04:52Z" changeset="70098176" uid="633013" user="Honning">
		<tag k="alt_name" v="Baltserud" />
		<tag k="name" v="Baltsrud" />
		<tag k="place" v="farm" />
		<tag k="ssr:stedsnr" v="490691" />
	</node>
	<node id="6463659523" lat="59.8050667" lon="10.6660861" version="1" timestamp="2019-05-10T07:04:52Z" changeset="70098176" uid="633013" user="Honning">
		<tag k="name" v="Nylenda" />
		<tag k="place" v="farm" />
		<tag k="ssr:stedsnr" v="490692" />
	</node>
	<node id="6463659524" lat="59.8351944" lon="10.6406639" version="1" timestamp="2019-05-10T07:04:52Z" changeset="70098176" uid="633013" user="Honning">
		<tag k="alt_name" v="Sunnås" />
		<tag k="amenity" v="hospital" />
		<tag k="name" v="Sunnås sykehus" />
		<tag k="ssr:stedsnr" v="490766" />
	</node>
	<node id="6463659525" lat="59.8051639" lon="10.6825611" version="1" timestamp="2019-05-10T07:04:52Z" changeset="70098176" uid="633013" user="Honning">
		<tag k="alt_name" v="Løes søndre;Søndre Løes" />
		<tag k="name" v="Søndre Løs" />
		<tag k="place" v="farm" />
		<tag k="ssr:stedsnr" v="828101" />
	</node>
	<node id="6463659526" lat="59.7547639" lon="10.5839222" version="1" timestamp="2019-05-10T07:04:52Z" changeset="70098176" uid="633013" user="Honning">
		<tag k="name" v="Leina" />
		<tag k="place" v="isolated_dwelling" />
		<tag k="ssr:stedsnr" v="511165" />
	</node>
	<node id="6463659527" lat="59.8039417" lon="10.6699333" version="1" timestamp="2019-05-10T07:04:52Z" changeset="70098176" uid="633013" user="Honning">
		<tag k="name" v="Karlstad" />
		<tag k="place" v="farm" />
		<tag k="ssr:stedsnr" v="524091" />
	</node>
	<node id="6463659528" lat="59.7994333" lon="10.6852667" version="1" timestamp="2019-05-10T07:04:52Z" changeset="70098176" uid="633013" user="Honning">
		<tag k="name" v="Sletta" />
		<tag k="place" v="farm" />
		<tag k="ssr:stedsnr" v="524096" />
	</node>
	<node id="6463659529" lat="59.7991944" lon="10.6125694" version="1" timestamp="2019-05-10T07:04:52Z" changeset="70098176" uid="633013" user="Honning">
		<tag k="name" v="Skansen" />
		<tag k="place" v="farm" />
		<tag k="ssr:stedsnr" v="524126" />
	</node>
	<node id="6463659530" lat="59.7947417" lon="10.6466083" version="1" timestamp="2019-05-10T07:04:53Z" changeset="70098176" uid="633013" user="Honning">
		<tag k="name" v="Holmsbakken" />
		<tag k="place" v="farm" />
		<tag k="ssr:stedsnr" v="524137" />
	</node>
	<node id="6463659531" lat="59.74545" lon="10.5979861" version="1" timestamp="2019-05-10T07:04:53Z" changeset="70098176" uid="633013" user="Honning">
		<tag k="name" v="Bommen" />
		<tag k="place" v="farm" />
		<tag k="ssr:stedsnr" v="524306" />
	</node>
	<node id="6463659532" lat="59.7509667" lon="10.6073611" version="1" timestamp="2019-05-10T07:04:53Z" changeset="70098176" uid="633013" user="Honning">
		<tag k="alt_name" v="Gjøfjell nordre" />
		<tag k="name" v="Nordre Gjøfjell" />
		<tag k="place" v="farm" />
		<tag k="ssr:stedsnr" v="524499" />
	</node>
	<node id="6463659533" lat="59.7484806" lon="10.620375" version="1" timestamp="2019-05-10T07:04:53Z" changeset="70098176" uid="633013" user="Honning">
		<tag k="name" v="Myrene" />
		<tag k="place" v="farm" />
		<tag k="ssr:stedsnr" v="524502" />
	</node>
	<node id="6463659534" lat="59.7562028" lon="10.6087889" version="1" timestamp="2019-05-10T07:04:53Z" changeset="70098176" uid="633013" user="Honning">
		<tag k="alt_name" v="Langfjell vestre" />
		<tag k="name" v="Vestre Langfjell" />
		<tag k="place" v="farm" />
		<tag k="ssr:stedsnr" v="524558" />
	</node>
	<node id="6463659535" lat="59.7509194" lon="10.633825" version="1" timestamp="2019-05-10T07:04:53Z" changeset="70098176" uid="633013" user="Honning">
		<tag k="name" v="Nylenna" />
		<tag k="place" v="locality" />
		<tag k="ssr:stedsnr" v="524566" />
	</node>
	<node id="6463659536" lat="59.7301833" lon="10.6102583" version="1" timestamp="2019-05-10T07:04:53Z" changeset="70098176" uid="633013" user="Honning">
		<tag k="name" v="Fagertun" />
		<tag k="place" v="farm" />
		<tag k="ssr:stedsnr" v="524950" />
	</node>
	<node id="6463659537" lat="59.8155306" lon="10.6266806" version="1" timestamp="2019-05-10T07:04:53Z" changeset="70098176" uid="633013" user="Honning">
		<tag k="name" v="Sørli" />
		<tag k="place" v="farm" />
		<tag k="ssr:stedsnr" v="525763" />
	</node>
	<node id="6463659538" lat="59.7855806" lon="10.6502" version="1" timestamp="2019-05-10T07:04:53Z" changeset="70098176" uid="633013" user="Honning">
		<tag k="alt_name" v="Høybråten vestre" />
		<tag k="name" v="Vestre Høybråten" />
		<tag k="place" v="farm" />
		<tag k="ssr:stedsnr" v="526435" />
	</node>
	<node id="6463659539" lat="59.8481222" lon="10.6825528" version="1" timestamp="2019-05-10T07:04:53Z" changeset="70098176" uid="633013" user="Honning">
		<tag k="name" v="Fjellheim" />
		<tag k="place" v="isolated_dwelling" />
		<tag k="ssr:stedsnr" v="542390" />
	</node>
	<node id="6463659540" lat="59.7317361" lon="10.6030417" version="1" timestamp="2019-05-10T07:04:53Z" changeset="70098176" uid="633013" user="Honning">
		<tag k="name" v="Labråten" />
		<tag k="place" v="farm" />
		<tag k="ssr:stedsnr" v="549769" />
	</node>
	<node id="6463659541" lat="59.8530333" lon="10.6520056" version="1" timestamp="2019-05-10T07:04:53Z" changeset="70098176" uid="633013" user="Honning">
		<tag k="name" v="Sjøstrand" />
		<tag k="place" v="quarter" />
		<tag k="ssr:stedsnr" v="550786" />
	</node>
	<node id="6463659542" lat="59.7469222" lon="10.5949944" version="1" timestamp="2019-05-10T07:04:53Z" changeset="70098176" uid="633013" user="Honning">
		<tag k="name" v="Haukemyr" />
		<tag k="place" v="farm" />
		<tag k="ssr:stedsnr" v="571142" />
	</node>
	<node id="6463659543" lat="59.8031611" lon="10.6768639" version="1" timestamp="2019-05-10T07:04:53Z" changeset="70098176" uid="633013" user="Honning">
		<tag k="name" v="Bjerkerud" />
		<tag k="place" v="farm" />
		<tag k="ssr:stedsnr" v="584111" />
	</node>
	<node id="6463659544" lat="59.8063694" lon="10.6830333" version="1" timestamp="2019-05-10T07:04:53Z" changeset="70098176" uid="633013" user="Honning">
		<tag k="alt_name" v="Løes østre;Østre Løes" />
		<tag k="name" v="Østre Løs" />
		<tag k="place" v="farm" />
		<tag k="ssr:stedsnr" v="584113" />
	</node>
	<node id="6463659545" lat="59.8029366" lon="10.6766617" version="1" timestamp="2019-05-10T07:04:53Z" changeset="70098176" uid="633013" user="Honning">
		<tag k="alt_name" v="Løes nordre;Nordre Løes" />
		<tag k="name" v="Nordre Løs" />
		<tag k="place" v="farm" />
		<tag k="ssr:stedsnr" v="584114" />
	</node>
	<node id="6463659546" lat="59.8025639" lon="10.6680278" version="1" timestamp="2019-05-10T07:04:53Z" changeset="70098176" uid="633013" user="Honning">
		<tag k="name" v="Slabråtan" />
		<tag k="old_name" v="Slabråten" />
		<tag k="place" v="farm" />
		<tag k="ssr:stedsnr" v="793732" />
	</node>
	<node id="6463659547" lat="59.7417861" lon="10.5972055" version="1" timestamp="2019-05-10T07:04:53Z" changeset="70098176" uid="633013" user="Honning">
		<tag k="name" v="Bergheim" />
		<tag k="place" v="isolated_dwelling" />
		<tag k="ssr:stedsnr" v="585313" />
	</node>
	<node id="6463659548" lat="59.7493222" lon="10.6081194" version="1" timestamp="2019-05-10T07:04:54Z" changeset="70098176" uid="633013" user="Honning">
		<tag k="alt_name" v="Gjøfjell søndre" />
		<tag k="name" v="Søndre Gjøfjell" />
		<tag k="place" v="farm" />
		<tag k="ssr:stedsnr" v="585529" />
	</node>
	<node id="6463659549" lat="59.75725" lon="10.6128972" version="1" timestamp="2019-05-10T07:04:54Z" changeset="70098176" uid="633013" user="Honning">
		<tag k="alt_name" v="Langfjell nordre" />
		<tag k="name" v="Nordre Langfjell" />
		<tag k="place" v="farm" />
		<tag k="ssr:stedsnr" v="585574" />
	</node>
	<node id="6463659550" lat="59.8291056" lon="10.6720306" version="1" timestamp="2019-05-10T07:04:54Z" changeset="70098176" uid="633013" user="Honning">
		<tag k="name" v="Nordre Sandaker" />
		<tag k="place" v="locality" />
		<tag k="ssr:stedsnr" v="585850" />
	</node>
	<node id="6463659551" lat="59.7561778" lon="10.5939417" version="1" timestamp="2019-05-10T07:04:54Z" changeset="70098176" uid="633013" user="Honning">
		<tag k="name" v="Sandheim" />
		<tag k="place" v="farm" />
		<tag k="ssr:stedsnr" v="585942" />
	</node>
	<node id="6463659552" lat="59.7387111" lon="10.60035" version="1" timestamp="2019-05-10T07:04:54Z" changeset="70098176" uid="633013" user="Honning">
		<tag k="name" v="Sandberg" />
		<tag k="place" v="isolated_dwelling" />
		<tag k="ssr:stedsnr" v="585946" />
	</node>
	<node id="6463659554" lat="59.7714861" lon="10.6879028" version="1" timestamp="2019-05-10T07:04:54Z" changeset="70098176" uid="633013" user="Honning">
		<tag k="name" v="Haslenesset" />
		<tag k="place" v="farm" />
		<tag k="ssr:stedsnr" v="586392" />
	</node>
	<node id="6463659555" lat="59.7718639" lon="10.6982139" version="1" timestamp="2019-05-10T07:04:54Z" changeset="70098176" uid="633013" user="Honning">
		<tag k="name" v="Haslerud" />
		<tag k="place" v="farm" />
		<tag k="ssr:stedsnr" v="586396" />
	</node>
	<node id="6463659556" lat="59.7815639" lon="10.708025" version="1" timestamp="2019-05-10T07:04:54Z" changeset="70098176" uid="633013" user="Honning">
		<tag k="name" v="Linaro" />
		<tag k="place" v="isolated_dwelling" />
		<tag k="ssr:stedsnr" v="586399" />
	</node>
	<node id="6463659557" lat="59.7844417" lon="10.6549889" version="1" timestamp="2019-05-10T07:04:54Z" changeset="70098176" uid="633013" user="Honning">
		<tag k="alt_name" v="Høybråten østre" />
		<tag k="name" v="Østre Høybråten" />
		<tag k="place" v="farm" />
		<tag k="ssr:stedsnr" v="586439" />
	</node>
	<node id="6463659558" lat="59.7880639" lon="10.6339306" version="1" timestamp="2019-05-10T07:04:54Z" changeset="70098176" uid="633013" user="Honning">
		<tag k="name" v="Svenskerud" />
		<tag k="place" v="farm" />
		<tag k="ssr:stedsnr" v="951398" />
	</node>
	<node id="6463659559" lat="59.7983167" lon="10.7030722" version="1" timestamp="2019-05-10T07:04:54Z" changeset="70098176" uid="633013" user="Honning">
		<tag k="name" v="Kroken" />
		<tag k="place" v="isolated_dwelling" />
		<tag k="ssr:stedsnr" v="603300" />
	</node>
	<node id="6463659560" lat="59.77645" lon="10.6100639" version="1" timestamp="2019-05-10T07:04:54Z" changeset="70098176" uid="633013" user="Honning">
		<tag k="name" v="Svenskemyr" />
		<tag k="place" v="farm" />
		<tag k="ssr:stedsnr" v="611637" />
	</node>
	<node id="6463659561" lat="59.7751833" lon="10.6520028" version="1" timestamp="2019-05-10T07:04:54Z" changeset="70098176" uid="633013" user="Honning">
		<tag k="alt_name" v="Dammyra" />
		<tag k="name" v="Hokholtdammyra" />
		<tag k="place" v="farm" />
		<tag k="ssr:stedsnr" v="611642" />
	</node>
	<node id="6463659562" lat="59.7729917" lon="10.6747972" version="1" timestamp="2019-05-10T07:04:54Z" changeset="70098176" uid="633013" user="Honning">
		<tag k="name" v="Gulstad" />
		<tag k="place" v="farm" />
		<tag k="ssr:stedsnr" v="611645" />
	</node>
	<node id="6463659563" lat="59.7975778" lon="10.69665" version="1" timestamp="2019-05-10T07:04:54Z" changeset="70098176" uid="633013" user="Honning">
		<tag k="name" v="Rud" />
		<tag k="place" v="farm" />
		<tag k="ssr:stedsnr" v="611721" />
	</node>
	<node id="6463659564" lat="59.83575" lon="10.6493028" version="1" timestamp="2019-05-10T07:04:54Z" changeset="70098176" uid="633013" user="Honning">
		<tag k="name" v="Tyristua" />
		<tag k="place" v="isolated_dwelling" />
		<tag k="ssr:stedsnr" v="611770" />
	</node>
	<node id="6463659565" lat="59.8328833" lon="10.6446195" version="1" timestamp="2019-05-10T07:04:54Z" changeset="70098176" uid="633013" user="Honning">
		<tag k="name" v="Bjørnemyrdalen" />
		<tag k="place" v="hamlet" />
		<tag k="ssr:stedsnr" v="611771" />
	</node>
	<node id="6463659566" lat="59.8409111" lon="10.6490472" version="1" timestamp="2019-05-10T07:04:55Z" changeset="70098176" uid="633013" user="Honning">
		<tag k="name" v="Varden" />
		<tag k="place" v="quarter" />
		<tag k="ssr:stedsnr" v="611793" />
	</node>
	<node id="6463659567" lat="59.7415972" lon="10.6316445" version="1" timestamp="2019-05-10T07:04:55Z" changeset="70098176" uid="633013" user="Honning">
		<tag k="name" v="Tuten" />
		<tag k="place" v="isolated_dwelling" />
		<tag k="ssr:stedsnr" v="631122" />
	</node>
	<node id="6463659568" lat="59.7872778" lon="10.6118694" version="1" timestamp="2019-05-10T07:04:55Z" changeset="70098176" uid="633013" user="Honning">
		<tag k="name" v="Tjernshaugen" />
		<tag k="place" v="farm" />
		<tag k="ssr:stedsnr" v="915642" />
	</node>
	<node id="6463659569" lat="59.8029744" lon="10.6080126" version="2" timestamp="2022-06-20T14:39:06Z" changeset="122627654" uid="3497659" user="NKA">
		<tag k="alt_name" v="Ommen søndre" />
		<tag k="name" v="Søndre Ommen" />
		<tag k="place" v="isolated_dwelling" />
		<tag k="ssr:stedsnr" v="645118" />
	</node>
	<node id="6463659570" lat="59.7965194" lon="10.6366444" version="1" timestamp="2019-05-10T07:04:55Z" changeset="70098176" uid="633013" user="Honning">
		<tag k="name" v="Fagerli" />
		<tag k="place" v="farm" />
		<tag k="ssr:stedsnr" v="645147" />
	</node>
	<node id="6463659571" lat="59.7951389" lon="10.6233528" version="1" timestamp="2019-05-10T07:04:55Z" changeset="70098176" uid="633013" user="Honning">
		<tag k="name" v="Nyborg" />
		<tag k="place" v="farm" />
		<tag k="ssr:stedsnr" v="645150" />
	</node>
	<node id="6463659572" lat="59.7876972" lon="10.6900917" version="1" timestamp="2019-05-10T07:04:55Z" changeset="70098176" uid="633013" user="Honning">
		<tag k="name" v="Hesteskoen" />
		<tag k="place" v="isolated_dwelling" />
		<tag k="ssr:stedsnr" v="645165" />
	</node>
	<node id="6463659573" lat="59.7809083" lon="10.6765667" version="1" timestamp="2019-05-10T07:04:55Z" changeset="70098176" uid="633013" user="Honning">
		<tag k="name" v="Størmyren" />
		<tag k="place" v="farm" />
		<tag k="ssr:stedsnr" v="645193" />
	</node>
	<node id="6463659574" lat="59.744575" lon="10.5960917" version="1" timestamp="2019-05-10T07:04:55Z" changeset="70098176" uid="633013" user="Honning">
		<tag k="name" v="Tajetbråten" />
		<tag k="place" v="farm" />
		<tag k="ssr:stedsnr" v="828945" />
	</node>
	<node id="6463659575" lat="59.8152361" lon="10.6807333" version="1" timestamp="2019-05-10T07:04:55Z" changeset="70098176" uid="633013" user="Honning">
		<tag k="name" v="Altenborg" />
		<tag k="place" v="locality" />
		<tag k="ssr:stedsnr" v="645820" />
	</node>
	<node id="6463659576" lat="59.7812194" lon="10.7055306" version="1" timestamp="2019-05-10T07:04:55Z" changeset="70098176" uid="633013" user="Honning">
		<tag k="name" v="Grøstadbråten" />
		<tag k="place" v="farm" />
		<tag k="ssr:stedsnr" v="647417" />
	</node>
	<node id="6463659577" lat="59.7690556" lon="10.6530167" version="1" timestamp="2019-05-10T07:04:55Z" changeset="70098176" uid="633013" user="Honning">
		<tag k="name" v="Fundingrud" />
		<tag k="place" v="farm" />
		<tag k="ssr:stedsnr" v="647431" />
	</node>
</osm>
