<?xml version="1.0" encoding="UTF-8"?>
<osm generator="osmapis" version="0.6">
	<node changeset="66729381" id="6243756032" lat="59.5000917" lon="10.8363778" timestamp="2019-01-29T07:55:22Z" uid="633013" user="Honning" version="1">
		<tag k="alt_name" v="Skårnæs" />
		<tag k="name" v="Skårnes" />
		<tag k="place" v="farm" />
		<tag k="ssr:stedsnr" v="732108" />
	</node>
	<node changeset="66729381" id="6243756033" lat="59.4947417" lon="11.0103056" timestamp="2019-01-29T07:55:22Z" uid="633013" user="Honning" version="1">
		<tag k="name" v="Ødemark" />
		<tag k="place" v="farm" />
		<tag k="ssr:stedsnr" v="750933" />
	</node>
	<node changeset="66729381" id="6243756034" lat="59.4288472" lon="10.8625083" timestamp="2019-01-29T07:55:22Z" uid="633013" user="Honning" version="1">
		<tag k="name" v="Stareng" />
		<tag k="place" v="farm" />
		<tag k="ssr:stedsnr" v="751804" />
	</node>
	<node changeset="66729381" id="6243756035" lat="59.4523972" lon="10.974" timestamp="2019-01-29T07:55:22Z" uid="633013" user="Honning" version="1">
		<tag k="name" v="Kjernsrød" />
		<tag k="place" v="farm" />
		<tag k="ssr:stedsnr" v="781090" />
	</node>
	<node changeset="66729381" id="6243756036" lat="59.4782222" lon="11.00125" timestamp="2019-01-29T07:55:22Z" uid="633013" user="Honning" version="1">
		<tag k="name" v="Brøndal" />
		<tag k="place" v="farm" />
		<tag k="ssr:stedsnr" v="781124" />
	</node>
	<node changeset="66729381" id="6243756037" lat="59.4837639" lon="10.7874861" timestamp="2019-01-29T07:55:22Z" uid="633013" user="Honning" version="1">
		<tag k="name" v="Hellhaugen" />
		<tag k="place" v="isolated_dwelling" />
		<tag k="ssr:stedsnr" v="781745" />
	</node>
	<node changeset="66729381" id="6243756038" lat="59.45045" lon="10.8324889" timestamp="2019-01-29T07:55:22Z" uid="633013" user="Honning" version="1">
		<tag k="alt_name" v="Sjulerød;Store Syverød;Syverød" />
		<tag k="name" v="Store Sjulerød" />
		<tag k="place" v="farm" />
		<tag k="ssr:stedsnr" v="786415" />
	</node>
	<node changeset="66729381" id="6243756039" lat="59.421875" lon="11.1108805" timestamp="2019-01-29T07:55:22Z" uid="633013" user="Honning" version="1">
		<tag k="name" v="Tjernsbekk" />
		<tag k="place" v="farm" />
		<tag k="ssr:stedsnr" v="791164" />
	</node>
	<node changeset="66729381" id="6243756040" lat="59.4334" lon="11.1050972" timestamp="2019-01-29T07:55:22Z" uid="633013" user="Honning" version="1">
		<tag k="name" v="Kirkerød" />
		<tag k="place" v="farm" />
		<tag k="ssr:stedsnr" v="791214" />
	</node>
	<node changeset="66729381" id="6243756041" lat="59.4411417" lon="10.879375" timestamp="2019-01-29T07:55:22Z" uid="633013" user="Honning" version="1">
		<tag k="alt_name" v="Brattengen" />
		<tag k="name" v="Brattenga" />
		<tag k="place" v="farm" />
		<tag k="ssr:stedsnr" v="791339" />
	</node>
	<node changeset="66729381" id="6243756042" lat="59.5070111" lon="11.0211333" timestamp="2019-01-29T07:55:22Z" uid="633013" user="Honning" version="1">
		<tag k="alt_name" v="Nordengen" />
		<tag k="name" v="Nordeng" />
		<tag k="place" v="farm" />
		<tag k="ssr:stedsnr" v="792085" />
	</node>
	<node changeset="66729381" id="6243756043" lat="59.484825" lon="10.8645333" timestamp="2019-01-29T07:55:23Z" uid="633013" user="Honning" version="1">
		<tag k="name" v="Ven" />
		<tag k="place" v="farm" />
		<tag k="ssr:stedsnr" v="792668" />
	</node>
	<node changeset="66729381" id="6243756044" lat="59.4879111" lon="10.91835" timestamp="2019-01-29T07:55:23Z" uid="633013" user="Honning" version="1">
		<tag k="name" v="Nordby" />
		<tag k="place" v="farm" />
		<tag k="ssr:stedsnr" v="792680" />
	</node>
	<node changeset="66729381" id="6243756045" lat="59.4865111" lon="10.8998" timestamp="2019-01-29T07:55:23Z" uid="633013" user="Honning" version="1">
		<tag k="name" v="Navestad" />
		<tag k="place" v="farm" />
		<tag k="ssr:stedsnr" v="792706" />
	</node>
	<node changeset="66729381" id="6243756046" lat="59.4717972" lon="10.85845" timestamp="2019-01-29T07:55:23Z" uid="633013" user="Honning" version="1">
		<tag k="name" v="Kalverød" />
		<tag k="place" v="farm" />
		<tag k="ssr:stedsnr" v="792716" />
	</node>
	<node changeset="66729381" id="6243756047" lat="59.5185278" lon="10.8614028" timestamp="2019-01-29T07:55:23Z" uid="633013" user="Honning" version="1">
		<tag k="name" v="Folkestadbråten" />
		<tag k="place" v="farm" />
		<tag k="ssr:stedsnr" v="793053" />
	</node>
	<node changeset="66729381" id="6243756048" lat="59.5028806" lon="11.0565695" timestamp="2019-01-29T07:55:23Z" uid="633013" user="Honning" version="1">
		<tag k="name" v="Knatten" />
		<tag k="place" v="farm" />
		<tag k="ssr:stedsnr" v="811932" />
	</node>
	<node changeset="66729381" id="6243756049" lat="59.4345917" lon="11.104975" timestamp="2019-01-29T07:55:23Z" uid="633013" user="Honning" version="1">
		<tag k="name" v="Ødegård" />
		<tag k="place" v="farm" />
		<tag k="ssr:stedsnr" v="811960" />
	</node>
	<node changeset="66729381" id="6243756050" lat="59.5099167" lon="10.9346639" timestamp="2019-01-29T07:55:23Z" uid="633013" user="Honning" version="1">
		<tag k="alt_name" v="Frosterød søndre" />
		<tag k="name" v="Søndre Frosterød" />
		<tag k="place" v="farm" />
		<tag k="ssr:stedsnr" v="811962" />
	</node>
	<node changeset="66729381" id="6243756051" lat="59.4422111" lon="11.1072361" timestamp="2019-01-29T07:55:23Z" uid="633013" user="Honning" version="1">
		<tag k="alt_name" v="Bjerketvet" />
		<tag k="name" v="Bjørketvet" />
		<tag k="place" v="farm" />
		<tag k="ssr:stedsnr" v="811965" />
	</node>
	<node changeset="66729381" id="6243756052" lat="59.4537528" lon="11.0728333" timestamp="2019-01-29T07:55:23Z" uid="633013" user="Honning" version="1">
		<tag k="name" v="Orebru" />
		<tag k="place" v="locality" />
		<tag k="ssr:stedsnr" v="812874" />
	</node>
	<node changeset="66729381" id="6243756053" lat="59.452075" lon="10.8907111" timestamp="2019-01-29T07:55:23Z" uid="633013" user="Honning" version="1">
		<tag k="name" v="Stangerengen" />
		<tag k="place" v="farm" />
		<tag k="ssr:stedsnr" v="901510;841485" />
	</node>
	<node changeset="66729381" id="6243756054" lat="59.4371417" lon="10.9345806" timestamp="2019-01-29T07:55:23Z" uid="633013" user="Honning" version="1">
		<tag k="name" v="Bjerkedalsbingen" />
		<tag k="place" v="farm" />
		<tag k="ssr:stedsnr" v="841513" />
	</node>
	<node changeset="66729381" id="6243756055" lat="59.4275667" lon="10.9954194" timestamp="2019-01-29T07:55:23Z" uid="633013" user="Honning" version="1">
		<tag k="name" v="Sæby" />
		<tag k="place" v="farm" />
		<tag k="ssr:stedsnr" v="842524" />
	</node>
	<node changeset="66729381" id="6243756056" lat="59.4843806" lon="10.8426306" timestamp="2019-01-29T07:55:23Z" uid="633013" user="Honning" version="1">
		<tag k="name" v="Elvestad" />
		<tag k="place" v="isolated_dwelling" />
		<tag k="ssr:stedsnr" v="842634" />
	</node>
	<node changeset="66729381" id="6243756057" lat="59.4625972" lon="10.774525" timestamp="2019-01-29T07:55:23Z" uid="633013" user="Honning" version="1">
		<tag k="name" v="Rød" />
		<tag k="place" v="hamlet" />
		<tag k="ssr:stedsnr" v="842743" />
	</node>
	<node changeset="66729381" id="6243756058" lat="59.4177306" lon="10.9862694" timestamp="2019-01-29T07:55:23Z" uid="633013" user="Honning" version="1">
		<tag k="alt_name" v="Holbakken" />
		<tag k="name" v="Berget" />
		<tag k="place" v="farm" />
		<tag k="ssr:stedsnr" v="852331" />
	</node>
	<node changeset="66729381" id="6243756059" lat="59.4448806" lon="10.9490417" timestamp="2019-01-29T07:55:24Z" uid="633013" user="Honning" version="1">
		<tag k="alt_name" v="Gjerredalen" />
		<tag k="name" v="Gjerdalen" />
		<tag k="place" v="farm" />
		<tag k="ssr:stedsnr" v="852369" />
	</node>
	<node changeset="66729381" id="6243756060" lat="59.4451917" lon="10.7871528" timestamp="2019-01-29T07:55:24Z" uid="633013" user="Honning" version="1">
		<tag k="name" v="Bjerkeli" />
		<tag k="place" v="farm" />
		<tag k="ssr:stedsnr" v="852375" />
	</node>
	<node changeset="66729381" id="6243756061" lat="59.4660278" lon="10.7759417" timestamp="2019-01-29T07:55:24Z" uid="633013" user="Honning" version="1">
		<tag k="alt_name" v="Rød nordre" />
		<tag k="name" v="Nordre Rød" />
		<tag k="place" v="farm" />
		<tag k="ssr:stedsnr" v="852687" />
	</node>
	<node changeset="66729381" id="6243756062" lat="59.4593056" lon="10.9024611" timestamp="2019-01-29T07:55:24Z" uid="633013" user="Honning" version="1">
		<tag k="alt_name" v="Bratterød nordre;Bratterød" />
		<tag k="name" v="Nordre Bratterød" />
		<tag k="place" v="farm" />
		<tag k="ssr:stedsnr" v="852699" />
	</node>
	<node changeset="66729381" id="6243756063" lat="59.4561611" lon="10.8024528" timestamp="2019-01-29T07:55:24Z" uid="633013" user="Honning" version="1">
		<tag k="loc_name" v="Sperrebunn" />
		<tag k="name" v="Sperbund" />
		<tag k="place" v="farm" />
		<tag k="ssr:stedsnr" v="852709" />
	</node>
	<node changeset="66729381" id="6243756064" lat="59.5070806" lon="10.88295" timestamp="2019-01-29T07:55:24Z" uid="633013" user="Honning" version="1">
		<tag k="alt_name" v="Vilskog" />
		<tag k="name" v="Villskog" />
		<tag k="place" v="farm" />
		<tag k="ssr:stedsnr" v="853043" />
	</node>
	<node changeset="66729381" id="6243756065" lat="59.50325" lon="10.9501778" timestamp="2019-01-29T07:55:24Z" uid="633013" user="Honning" version="1">
		<tag k="alt_name" v="Nesset" />
		<tag k="name" v="Neset" />
		<tag k="place" v="farm" />
		<tag k="ssr:stedsnr" v="853064" />
	</node>
	<node changeset="66729381" id="6243756066" lat="59.4961889" lon="11.01355" timestamp="2019-01-29T07:55:24Z" uid="633013" user="Honning" version="1">
		<tag k="name" v="Fløter" />
		<tag k="place" v="farm" />
		<tag k="ssr:stedsnr" v="853657" />
	</node>
	<node changeset="66729381" id="6243756067" lat="59.4890833" lon="10.83675" timestamp="2019-01-29T07:55:24Z" uid="633013" user="Honning" version="1">
		<tag k="name" v="Solli" />
		<tag k="place" v="farm" />
		<tag k="ssr:stedsnr" v="853660" />
	</node>
	<node changeset="66729381" id="6243756068" lat="59.4971556" lon="10.9581306" timestamp="2019-01-29T07:55:24Z" uid="633013" user="Honning" version="1">
		<tag k="name" v="Femtegjeld" />
		<tag k="place" v="farm" />
		<tag k="ssr:stedsnr" v="853665" />
	</node>
	<node changeset="66729381" id="6243756069" lat="59.4929333" lon="10.9358056" timestamp="2019-01-29T07:55:24Z" uid="633013" user="Honning" version="1">
		<tag k="alt_name" v="Veliødegard" />
		<tag k="name" v="Ødegården" />
		<tag k="place" v="farm" />
		<tag k="ssr:stedsnr" v="853685" />
	</node>
	<node changeset="66729381" id="6243756070" lat="59.488775" lon="10.8567472" timestamp="2019-01-29T07:55:24Z" uid="633013" user="Honning" version="1">
		<tag k="name" v="Folkestad" />
		<tag k="place" v="farm" />
		<tag k="ssr:stedsnr" v="853687" />
	</node>
	<node changeset="66729381" id="6243756071" lat="59.4774639" lon="10.7851028" timestamp="2019-01-29T07:55:24Z" uid="633013" user="Honning" version="1">
		<tag k="name" v="Kjesebotn" />
		<tag k="place" v="farm" />
		<tag k="ssr:stedsnr" v="853692" />
	</node>
	<node changeset="66729381" id="6243756072" lat="59.5210389" lon="10.9641" timestamp="2019-01-29T07:55:24Z" uid="633013" user="Honning" version="1">
		<tag k="name" v="Stallheim" />
		<tag k="place" v="farm" />
		<tag k="ssr:stedsnr" v="873692" />
	</node>
	<node changeset="66729381" id="6243756073" lat="59.4532694" lon="10.8864695" timestamp="2019-01-29T07:55:24Z" uid="633013" user="Honning" version="1">
		<tag k="name" v="Kilen" />
		<tag k="place" v="farm" />
		<tag k="ssr:stedsnr" v="873738" />
	</node>
	<node changeset="66729381" id="6243756074" lat="59.483275" lon="10.9329472" timestamp="2019-01-29T07:55:24Z" uid="633013" user="Honning" version="1">
		<tag k="name" v="Skovdal" />
		<tag k="place" v="isolated_dwelling" />
		<tag k="ssr:stedsnr" v="873737" />
	</node>
	<node changeset="66729381" id="6243756075" lat="59.4212444" lon="11.0714361" timestamp="2019-01-29T07:55:25Z" uid="633013" user="Honning" version="1">
		<tag k="name" v="Østenrød" />
		<tag k="place" v="farm" />
		<tag k="ssr:stedsnr" v="873783" />
	</node>
	<node changeset="66729381" id="6243756076" lat="59.4283418" lon="11.0894858" timestamp="2019-01-29T07:55:25Z" uid="633013" user="Honning" version="1">
		<tag k="alt_name" v="Grøttvedt" />
		<tag k="name" v="Grøttvet" />
		<tag k="place" v="farm" />
		<tag k="ssr:stedsnr" v="877366" />
	</node>
	<node changeset="66729381" id="6243756077" lat="59.4693167" lon="10.9611306" timestamp="2019-01-29T07:55:25Z" uid="633013" user="Honning" version="1">
		<tag k="alt_name" v="Haugen nordre" />
		<tag k="name" v="Nordre Haugen" />
		<tag k="place" v="farm" />
		<tag k="ssr:stedsnr" v="902066" />
	</node>
	<node changeset="66729381" id="6243756078" lat="59.4574306" lon="10.9702361" timestamp="2019-01-29T07:55:25Z" uid="633013" user="Honning" version="1">
		<tag k="name" v="Spjøter" />
		<tag k="place" v="farm" />
		<tag k="ssr:stedsnr" v="902094" />
	</node>
	<node changeset="66729381" id="6243756079" lat="59.4170806" lon="10.9762444" timestamp="2019-01-29T07:55:25Z" uid="633013" user="Honning" version="1">
		<tag k="name" v="Ertnesberget" />
		<tag k="place" v="isolated_dwelling" />
		<tag k="ssr:stedsnr" v="902555" />
	</node>
	<node changeset="66729381" id="6243756080" lat="59.4298611" lon="10.84425" timestamp="2019-01-29T07:55:25Z" uid="633013" user="Honning" version="1">
		<tag k="name" v="Mosseros" />
		<tag k="place" v="farm" />
		<tag k="ssr:stedsnr" v="903523" />
	</node>
	<node changeset="66729381" id="6243756081" lat="59.4311306" lon="10.9441944" timestamp="2019-01-29T07:55:25Z" uid="633013" user="Honning" version="1">
		<tag k="name" v="Røstad" />
		<tag k="place" v="farm" />
		<tag k="ssr:stedsnr" v="912357" />
	</node>
	<node changeset="66729381" id="6243756082" lat="59.4379" lon="11.0647472" timestamp="2019-01-29T07:55:25Z" uid="633013" user="Honning" version="1">
		<tag k="name" v="Kirkerød" />
		<tag k="place" v="farm" />
		<tag k="ssr:stedsnr" v="912358" />
	</node>
	<node changeset="66729381" id="6243756083" lat="59.4388639" lon="10.9375" timestamp="2019-01-29T07:55:25Z" uid="633013" user="Honning" version="1">
		<tag k="alt_name" v="Bjerkedal" />
		<tag k="name" v="Bjørkedal" />
		<tag k="place" v="farm" />
		<tag k="ssr:stedsnr" v="912368" />
	</node>
	<node changeset="66729381" id="6243756084" lat="59.4725611" lon="10.9058361" timestamp="2019-01-29T07:55:25Z" uid="633013" user="Honning" version="1">
		<tag k="alt_name" v="Grønnæs" />
		<tag k="name" v="Grønnes" />
		<tag k="place" v="farm" />
		<tag k="ssr:stedsnr" v="912737" />
	</node>
	<node changeset="66729381" id="6243756085" lat="59.466475" lon="11.00235" timestamp="2019-01-29T07:55:25Z" uid="633013" user="Honning" version="1">
		<tag k="alt_name" v="Bjerkeli" />
		<tag k="name" v="Bjørkelia" />
		<tag k="place" v="farm" />
		<tag k="ssr:stedsnr" v="912752" />
	</node>
	<node changeset="66729381" id="6243756086" lat="59.4407417" lon="10.8216333" timestamp="2019-01-29T07:55:26Z" uid="633013" user="Honning" version="1">
		<tag k="name" v="Toverød" />
		<tag k="place" v="farm" />
		<tag k="ssr:stedsnr" v="913348" />
	</node>
	<node changeset="66729381" id="6243756087" lat="59.4943139" lon="10.8400806" timestamp="2019-01-29T07:55:26Z" uid="633013" user="Honning" version="1">
		<tag k="alt_name" v="Tosnes" />
		<tag k="name" v="Torsnes" />
		<tag k="old_name" v="S Tosnes" />
		<tag k="place" v="farm" />
		<tag k="ssr:stedsnr" v="913650;951124" />
	</node>
	<node changeset="66729381" id="6243756088" lat="59.4530111" lon="11.0442167" timestamp="2019-01-29T07:55:26Z" uid="633013" user="Honning" version="1">
		<tag k="name" v="Vang" />
		<tag k="place" v="farm" />
		<tag k="ssr:stedsnr" v="913715" />
	</node>
	<node changeset="66729381" id="6243756089" lat="59.52045" lon="10.833175" timestamp="2019-01-29T07:55:26Z" uid="633013" user="Honning" version="1">
		<tag k="alt_name" v="Flakstad nordre" />
		<tag k="name" v="Nordre Flakestad" />
		<tag k="place" v="farm" />
		<tag k="ssr:stedsnr" v="914056" />
	</node>
	<node changeset="66729381" id="6243756090" lat="59.5072333" lon="10.8074861" timestamp="2019-01-29T07:55:26Z" uid="633013" user="Honning" version="1">
		<tag k="name" v="Kaspertomta" />
		<tag k="place" v="locality" />
		<tag k="ssr:stedsnr" v="932884" />
	</node>
	<node changeset="66729381" id="6243756091" lat="59.5102972" lon="10.9557361" timestamp="2019-01-29T07:55:26Z" uid="633013" user="Honning" version="1">
		<tag k="alt_name" v="Belgen nordre" />
		<tag k="name" v="Nordre Belgen" />
		<tag k="place" v="farm" />
		<tag k="ssr:stedsnr" v="932982" />
	</node>
	<node changeset="66729381" id="6243756092" lat="59.4985056" lon="10.8409028" timestamp="2019-01-29T07:55:26Z" uid="633013" user="Honning" version="1">
		<tag k="alt_name" v="Torsnes" />
		<tag k="name" v="Nordre Torsnes" />
		<tag k="old_name" v="N Tosnes" />
		<tag k="place" v="farm" />
		<tag k="ssr:stedsnr" v="933905" />
	</node>
	<node changeset="66729381" id="6243756093" lat="59.4896333" lon="10.9338417" timestamp="2019-01-29T07:55:26Z" uid="633013" user="Honning" version="1">
		<tag k="name" v="Søndre Guttulsrød" />
		<tag k="place" v="farm" />
		<tag k="ssr:stedsnr" v="933933" />
	</node>
	<node changeset="66729381" id="6243756094" lat="59.414125" lon="10.9602861" timestamp="2019-01-29T07:55:26Z" uid="633013" user="Honning" version="1">
		<tag k="name" v="Bråtan" />
		<tag k="place" v="locality" />
		<tag k="ssr:stedsnr" v="934818" />
	</node>
	<node changeset="66729381" id="6243756095" lat="59.4283444" lon="11.068225" timestamp="2019-01-29T07:55:26Z" uid="633013" user="Honning" version="1">
		<tag k="alt_name" v="Skotvedt" />
		<tag k="name" v="Skotvet" />
		<tag k="place" v="farm" />
		<tag k="ssr:stedsnr" v="937376" />
	</node>
	<node changeset="66729381" id="6243756096" lat="59.4493611" lon="11.0193195" timestamp="2019-01-29T07:55:26Z" uid="633013" user="Honning" version="1">
		<tag k="name" v="Sukke" />
		<tag k="place" v="farm" />
		<tag k="ssr:stedsnr" v="963094" />
	</node>
	<node changeset="66729381" id="6243756097" lat="59.4397278" lon="10.8255445" timestamp="2019-01-29T07:55:26Z" uid="633013" user="Honning" version="1">
		<tag k="alt_name" v="Guthus søndre" />
		<tag k="name" v="Søndre Guthus" />
		<tag k="place" v="farm" />
		<tag k="ssr:stedsnr" v="963681" />
	</node>
	<node changeset="66729381" id="6243756098" lat="59.4259167" lon="10.8444583" timestamp="2019-01-29T07:55:26Z" uid="633013" user="Honning" version="1">
		<tag k="name" v="Mosseros" />
		<tag k="place" v="farm" />
		<tag k="ssr:stedsnr" v="963694" />
	</node>
	<node changeset="66729381" id="31872088" lat="59.4235944" lon="11.0165861" timestamp="2019-01-29T07:55:26Z" uid="633013" user="Honning" version="3">
		<tag k="name" v="Svinndal" />
		<tag k="place" v="village" />
		<tag k="population" v="447" />
		<tag k="population:date" v="2017-01-01" />
		<tag k="ssr:stedsnr" v="448847" />
	</node>
	<node changeset="66729381" id="31872094" lat="59.4593861" lon="10.7914552" timestamp="2019-01-29T07:55:26Z" uid="633013" user="Honning" version="5">
		<tag k="name" v="Teksnes" />
		<tag k="place" v="hamlet" />
		<tag k="ssr:stedsnr" v="692120" />
	</node>
	<node changeset="66729381" id="1579983988" lat="59.4064174" lon="10.9080434" timestamp="2019-01-29T07:55:26Z" uid="633013" user="Honning" version="2">
		<tag k="name" v="Sandå" />
		<tag k="place" v="farm" />
		<tag k="ssr:stedsnr" v="305332" />
	</node>
	<node changeset="66729381" id="6243755421" lat="59.5035194" lon="10.8952111" timestamp="2019-01-29T07:55:03Z" uid="633013" user="Honning" version="1">
		<tag k="alt_name" v="Lille Sjulerød;Syverud;Syverøe" />
		<tag k="name" v="Sjulerød" />
		<tag k="place" v="farm" />
		<tag k="ssr:stedsnr" v="282099" />
	</node>
	<node changeset="66729381" id="6243755422" lat="59.4561861" lon="11.0551583" timestamp="2019-01-29T07:55:03Z" uid="633013" user="Honning" version="1">
		<tag k="name" v="Tveterhytta" />
		<tag k="place" v="isolated_dwelling" />
		<tag k="ssr:stedsnr" v="295082" />
	</node>
	<node changeset="66729381" id="6243755423" lat="59.484025" lon="10.9056694" timestamp="2019-01-29T07:55:03Z" uid="633013" user="Honning" version="1">
		<tag k="name" v="Navestad" />
		<tag k="place" v="farm" />
		<tag k="ssr:stedsnr" v="296636" />
	</node>
	<node changeset="66729381" id="6243755424" lat="59.4145972" lon="10.7956611" timestamp="2019-01-29T07:55:03Z" uid="633013" user="Honning" version="1">
		<tag k="name" v="Ødegårdssletta" />
		<tag k="place" v="farm" />
		<tag k="ssr:stedsnr" v="305333" />
	</node>
	<node changeset="66729381" id="6243755425" lat="59.4184722" lon="10.7886778" timestamp="2019-01-29T07:55:03Z" uid="633013" user="Honning" version="1">
		<tag k="alt_name" v="Kjersund" />
		<tag k="name" v="Kjærsund" />
		<tag k="place" v="farm" />
		<tag k="ssr:stedsnr" v="305342" />
	</node>
	<node changeset="66729381" id="6243755426" lat="59.4244" lon="10.7746028" timestamp="2019-01-29T07:55:03Z" uid="633013" user="Honning" version="1">
		<tag k="name" v="Ånnerød" />
		<tag k="place" v="locality" />
		<tag k="ssr:stedsnr" v="305343" />
	</node>
	<node changeset="66729381" id="6243755427" lat="59.427775" lon="11.0854" timestamp="2019-01-29T07:55:03Z" uid="633013" user="Honning" version="1">
		<tag k="name" v="Berg" />
		<tag k="place" v="farm" />
		<tag k="ssr:stedsnr" v="305345" />
	</node>
	<node changeset="66729381" id="6243755428" lat="59.4290056" lon="11.0044917" timestamp="2019-01-29T07:55:03Z" uid="633013" user="Honning" version="1">
		<tag k="name" v="Elvestad" />
		<tag k="place" v="farm" />
		<tag k="ssr:stedsnr" v="305357" />
	</node>
	<node changeset="66729381" id="6243755429" lat="59.4346806" lon="10.9964695" timestamp="2019-01-29T07:55:03Z" uid="633013" user="Honning" version="1">
		<tag k="alt_name" v="Mellegård" />
		<tag k="name" v="Mellegarden" />
		<tag k="place" v="farm" />
		<tag k="ssr:stedsnr" v="305368" />
	</node>
	<node changeset="66729381" id="6243755430" lat="59.4672139" lon="10.8008722" timestamp="2019-01-29T07:55:03Z" uid="633013" user="Honning" version="1">
		<tag k="name" v="Våk" />
		<tag k="place" v="farm" />
		<tag k="ssr:stedsnr" v="305724" />
	</node>
	<node changeset="69760184" id="6243755431" lat="59.469226" lon="10.8978697" timestamp="2019-05-01T08:44:40Z" uid="4198735" user="michalzz" version="2">
		<tag k="name" v="Ringvoll" />
		<tag k="place" v="farm" />
		<tag k="ssr:stedsnr" v="305735" />
	</node>
	<node changeset="66729381" id="6243755432" lat="59.432675" lon="11.0933972" timestamp="2019-01-29T07:55:03Z" uid="633013" user="Honning" version="1">
		<tag k="name" v="Hammersborg" />
		<tag k="place" v="farm" />
		<tag k="ssr:stedsnr" v="306207" />
	</node>
	<node changeset="66729381" id="6243755433" lat="59.4543667" lon="11.0613222" timestamp="2019-01-29T07:55:04Z" uid="633013" user="Honning" version="1">
		<tag k="name" v="Langerødødegården" />
		<tag k="place" v="farm" />
		<tag k="ssr:stedsnr" v="306361" />
	</node>
	<node changeset="66729381" id="6243755434" lat="59.4507417" lon="10.8549778" timestamp="2019-01-29T07:55:04Z" uid="633013" user="Honning" version="1">
		<tag k="name" v="Botner" />
		<tag k="place" v="farm" />
		<tag k="ssr:stedsnr" v="306360" />
	</node>
	<node changeset="66729381" id="6243755435" lat="59.4956222" lon="11.0240556" timestamp="2019-01-29T07:55:04Z" uid="633013" user="Honning" version="1">
		<tag k="alt_name" v="Kjernsbekk" />
		<tag k="name" v="Tjernsbekk" />
		<tag k="place" v="farm" />
		<tag k="ssr:stedsnr" v="306635" />
	</node>
	<node changeset="66729381" id="6243755436" lat="59.48995" lon="10.7876639" timestamp="2019-01-29T07:55:04Z" uid="633013" user="Honning" version="1">
		<tag k="name" v="Lødeng" />
		<tag k="place" v="farm" />
		<tag k="ssr:stedsnr" v="306640" />
	</node>
	<node changeset="66729381" id="6243755437" lat="59.4902389" lon="10.9526778" timestamp="2019-01-29T07:55:04Z" uid="633013" user="Honning" version="1">
		<tag k="alt_name" v="Vesleengen" />
		<tag k="name" v="Vesleenga" />
		<tag k="place" v="farm" />
		<tag k="ssr:stedsnr" v="306670" />
	</node>
	<node changeset="66729381" id="6243755438" lat="59.4786194" lon="10.9623028" timestamp="2019-01-29T07:55:04Z" uid="633013" user="Honning" version="1">
		<tag k="alt_name" v="Helgedal" />
		<tag k="name" v="Helgedalen" />
		<tag k="place" v="farm" />
		<tag k="ssr:stedsnr" v="306688" />
	</node>
	<node changeset="66729381" id="6243755439" lat="59.4543778" lon="11.0361472" timestamp="2019-01-29T07:55:04Z" uid="633013" user="Honning" version="1">
		<tag k="name" v="Lunden" />
		<tag k="place" v="isolated_dwelling" />
		<tag k="ssr:stedsnr" v="306709" />
	</node>
	<node changeset="66729381" id="6243755440" lat="59.4553833" lon="10.9026611" timestamp="2019-01-29T07:55:04Z" uid="633013" user="Honning" version="1">
		<tag k="alt_name" v="Bratterød søndre;Bratterød" />
		<tag k="name" v="Søndre Bratterød" />
		<tag k="place" v="farm" />
		<tag k="ssr:stedsnr" v="306719" />
	</node>
	<node changeset="66729381" id="6243755441" lat="59.5228556" lon="10.9123333" timestamp="2019-01-29T07:55:04Z" uid="633013" user="Honning" version="1">
		<tag k="name" v="Daler" />
		<tag k="place" v="farm" />
		<tag k="ssr:stedsnr" v="307008" />
	</node>
	<node changeset="66729381" id="6243755442" lat="59.5301194" lon="10.9441083" timestamp="2019-01-29T07:55:04Z" uid="633013" user="Honning" version="1">
		<tag k="alt_name" v="Bergby" />
		<tag k="name" v="Berby" />
		<tag k="place" v="farm" />
		<tag k="ssr:stedsnr" v="307016" />
	</node>
	<node changeset="70561174" id="6243755443" lat="59.5078363" lon="10.8330251" timestamp="2019-05-23T17:57:29Z" uid="4198735" user="michalzz" version="2">
		<tag k="alt_name" v="Såstad søndre;Såstad" />
		<tag k="name" v="Søndre Såstad" />
		<tag k="place" v="farm" />
		<tag k="ssr:stedsnr" v="307045" />
	</node>
	<node changeset="66729381" id="6243755444" lat="59.5098889" lon="10.9426806" timestamp="2019-01-29T07:55:04Z" uid="633013" user="Honning" version="1">
		<tag k="alt_name" v="Gurød" />
		<tag k="name" v="Gurrød" />
		<tag k="place" v="farm" />
		<tag k="ssr:stedsnr" v="307049" />
	</node>
	<node changeset="66729381" id="6243755445" lat="59.4980667" lon="10.8197306" timestamp="2019-01-29T07:55:04Z" uid="633013" user="Honning" version="1">
		<tag k="name" v="Bråtenes" />
		<tag k="place" v="locality" />
		<tag k="ssr:stedsnr" v="325873" />
	</node>
	<node changeset="66729381" id="6243755446" lat="59.5173028" lon="10.848225" timestamp="2019-01-29T07:55:04Z" uid="633013" user="Honning" version="1">
		<tag k="alt_name" v="Ombustvedt vestre" />
		<tag k="loc_name" v="Ombustvedt, vestre" />
		<tag k="name" v="Vestre Ombåstvet" />
		<tag k="place" v="farm" />
		<tag k="ssr:stedsnr" v="325921" />
	</node>
	<node changeset="66729381" id="6243755447" lat="59.4917833" lon="10.9379278" timestamp="2019-01-29T07:55:04Z" uid="633013" user="Honning" version="1">
		<tag k="alt_name" v="Guttulsrød nordre" />
		<tag k="name" v="Nordre Guttulsrød" />
		<tag k="place" v="farm" />
		<tag k="ssr:stedsnr" v="326893" />
	</node>
	<node changeset="66729381" id="6243755448" lat="59.4390167" lon="11.1127056" timestamp="2019-01-29T07:55:04Z" uid="633013" user="Honning" version="1">
		<tag k="alt_name" v="Bjerketvet" />
		<tag k="name" v="Bjørketvet" />
		<tag k="place" v="farm" />
		<tag k="ssr:stedsnr" v="326966" />
	</node>
	<node changeset="66729381" id="6243755449" lat="59.4396972" lon="11.1180167" timestamp="2019-01-29T07:55:05Z" uid="633013" user="Honning" version="1">
		<tag k="alt_name" v="Bjørketvet lille;Bjerketvet" />
		<tag k="name" v="Lille Bjørketvet" />
		<tag k="place" v="farm" />
		<tag k="ssr:stedsnr" v="326968" />
	</node>
	<node changeset="66729381" id="6243755450" lat="59.4334639" lon="11.1049028" timestamp="2019-01-29T07:55:05Z" uid="633013" user="Honning" version="1">
		<tag k="alt_name" v="Ødegaarden, Kirkerød lille" />
		<tag k="name" v="Ødegård" />
		<tag k="place" v="farm" />
		<tag k="ssr:stedsnr" v="326971" />
	</node>
	<node changeset="66729381" id="6243755451" lat="59.4319083" lon="11.015775" timestamp="2019-01-29T07:55:05Z" uid="633013" user="Honning" version="1">
		<tag k="name" v="Vårli" />
		<tag k="place" v="farm" />
		<tag k="ssr:stedsnr" v="327779" />
	</node>
	<node changeset="66729381" id="6243755452" lat="59.4238889" lon="10.7928028" timestamp="2019-01-29T07:55:05Z" uid="633013" user="Honning" version="1">
		<tag k="name" v="Vesetrød" />
		<tag k="place" v="farm" />
		<tag k="ssr:stedsnr" v="327796" />
	</node>
	<node changeset="83205491" id="6243755453" lat="59.4292137" lon="10.8530674" timestamp="2020-04-07T15:14:12Z" uid="4198735" user="michalzz" version="2">
		<tag k="name" v="Mosserosenga" />
		<tag k="place" v="farm" />
		<tag k="ssr:stedsnr" v="427375" />
	</node>
	<node changeset="66729381" id="6243755454" lat="59.4667389" lon="10.9629944" timestamp="2019-01-29T07:55:05Z" uid="633013" user="Honning" version="1">
		<tag k="alt_name" v="Haugen søndre" />
		<tag k="name" v="Søndre Haugen" />
		<tag k="place" v="farm" />
		<tag k="ssr:stedsnr" v="356072" />
	</node>
	<node changeset="66729381" id="6243755455" lat="59.4301722" lon="11.00185" timestamp="2019-01-29T07:55:05Z" uid="633013" user="Honning" version="1">
		<tag k="name" v="Fosseberget" />
		<tag k="place" v="hamlet" />
		<tag k="ssr:stedsnr" v="356516" />
	</node>
	<node changeset="66729381" id="6243755456" lat="59.4575444" lon="10.8097083" timestamp="2019-01-29T07:55:05Z" uid="633013" user="Honning" version="1">
		<tag k="loc_name" v="Sperrebunn" />
		<tag k="name" v="Sperbund" />
		<tag k="place" v="farm" />
		<tag k="ssr:stedsnr" v="356740" />
	</node>
	<node changeset="66729381" id="6243755457" lat="59.5182713" lon="10.8581945" timestamp="2019-01-29T07:55:05Z" uid="633013" user="Honning" version="1">
		<tag k="alt_name" v="Ombåstvet, nordre;Ombustvedt nordre" />
		<tag k="name" v="Nordre Ombåstvet" />
		<tag k="place" v="farm" />
		<tag k="ssr:stedsnr" v="361063" />
	</node>
	<node changeset="66729381" id="6243755458" lat="59.4135806" lon="10.8408083" timestamp="2019-01-29T07:55:05Z" uid="633013" user="Honning" version="1">
		<tag k="alt_name" v="Tollengen" />
		<tag k="name" v="Tålenga" />
		<tag k="place" v="farm" />
		<tag k="ssr:stedsnr" v="366318" />
	</node>
	<node changeset="66729381" id="6243755459" lat="59.4183139" lon="11.0525417" timestamp="2019-01-29T07:55:05Z" uid="633013" user="Honning" version="1">
		<tag k="alt_name" v="Måleng" />
		<tag k="name" v="Målenga" />
		<tag k="place" v="farm" />
		<tag k="ssr:stedsnr" v="366326" />
	</node>
	<node changeset="66729381" id="6243755460" lat="59.4196167" lon="10.9834028" timestamp="2019-01-29T07:55:05Z" uid="633013" user="Honning" version="1">
		<tag k="name" v="Ertnes" />
		<tag k="place" v="farm" />
		<tag k="ssr:stedsnr" v="366332" />
	</node>
	<node changeset="66729381" id="6243755461" lat="59.4266611" lon="10.9686944" timestamp="2019-01-29T07:55:05Z" uid="633013" user="Honning" version="1">
		<tag k="name" v="Unum" />
		<tag k="place" v="farm" />
		<tag k="ssr:stedsnr" v="366351" />
	</node>
	<node changeset="66729381" id="6243755462" lat="59.4319889" lon="11.0760417" timestamp="2019-01-29T07:55:05Z" uid="633013" user="Honning" version="1">
		<tag k="name" v="Solvang" />
		<tag k="place" v="farm" />
		<tag k="ssr:stedsnr" v="366352" />
	</node>
	<node changeset="66729381" id="6243755463" lat="59.4378889" lon="10.9782861" timestamp="2019-01-29T07:55:05Z" uid="633013" user="Honning" version="1">
		<tag k="name" v="Eng" />
		<tag k="place" v="farm" />
		<tag k="ssr:stedsnr" v="366357" />
	</node>
	<node changeset="66729381" id="6243755464" lat="59.4377333" lon="11.0441417" timestamp="2019-01-29T07:55:05Z" uid="633013" user="Honning" version="1">
		<tag k="name" v="Røstad" />
		<tag k="place" v="farm" />
		<tag k="ssr:stedsnr" v="366362" />
	</node>
	<node changeset="66729381" id="6243755465" lat="59.4354917" lon="10.8214389" timestamp="2019-01-29T07:55:06Z" uid="633013" user="Honning" version="1">
		<tag k="name" v="Tokerød" />
		<tag k="place" v="farm" />
		<tag k="ssr:stedsnr" v="366364" />
	</node>
	<node changeset="66729381" id="6243755466" lat="59.4389167" lon="10.967075" timestamp="2019-01-29T07:55:06Z" uid="633013" user="Honning" version="1">
		<tag k="name" v="Vestli" />
		<tag k="place" v="farm" />
		<tag k="ssr:stedsnr" v="366370" />
	</node>
	<node changeset="66729381" id="6243755467" lat="59.4465583" lon="10.8658667" timestamp="2019-01-29T07:55:06Z" uid="633013" user="Honning" version="1">
		<tag k="name" v="Skirød" />
		<tag k="place" v="farm" />
		<tag k="ssr:stedsnr" v="366385" />
	</node>
	<node changeset="66729381" id="6243755468" lat="59.4685806" lon="10.8999611" timestamp="2019-01-29T07:55:06Z" uid="633013" user="Honning" version="1">
		<tag k="alt_name" v="Lahella" />
		<tag k="name" v="Lahelle" />
		<tag k="place" v="farm" />
		<tag k="ssr:stedsnr" v="366715" />
	</node>
	<node changeset="66729381" id="6243755469" lat="59.4707167" lon="11.0583306" timestamp="2019-01-29T07:55:06Z" uid="633013" user="Honning" version="1">
		<tag k="name" v="Svartedal" />
		<tag k="place" v="isolated_dwelling" />
		<tag k="ssr:stedsnr" v="366722" />
	</node>
	<node changeset="66729381" id="6243755470" lat="59.4579222" lon="11.0751972" timestamp="2019-01-29T07:55:06Z" uid="633013" user="Honning" version="1">
		<tag k="alt_name" v="Nybråte" />
		<tag k="name" v="Nybråten" />
		<tag k="place" v="farm" />
		<tag k="ssr:stedsnr" v="366731" />
	</node>
	<node changeset="66729381" id="6243755471" lat="59.4627444" lon="10.9642778" timestamp="2019-01-29T07:55:06Z" uid="633013" user="Honning" version="1">
		<tag k="alt_name" v="Aspjøt" />
		<tag k="name" v="Åspjøt" />
		<tag k="place" v="farm" />
		<tag k="ssr:stedsnr" v="366734" />
	</node>
	<node changeset="66729381" id="6243755472" lat="59.4642083" lon="11.0067556" timestamp="2019-01-29T07:55:06Z" uid="633013" user="Honning" version="1">
		<tag k="alt_name" v="Lundem" />
		<tag k="name" v="Lundum" />
		<tag k="place" v="farm" />
		<tag k="ssr:stedsnr" v="366737" />
	</node>
	<node changeset="66729381" id="6243755473" lat="59.5058167" lon="10.8128889" timestamp="2019-01-29T07:55:06Z" uid="633013" user="Honning" version="1">
		<tag k="name" v="Gyldermyra" />
		<tag k="place" v="farm" />
		<tag k="ssr:stedsnr" v="367034" />
	</node>
	<node changeset="66729381" id="6243755474" lat="59.5033861" lon="10.97265" timestamp="2019-01-29T07:55:06Z" uid="633013" user="Honning" version="1">
		<tag k="name" v="Keiserdalen" />
		<tag k="place" v="farm" />
		<tag k="ssr:stedsnr" v="367063" />
	</node>
	<node changeset="66729381" id="6243755475" lat="59.4904167" lon="10.8068167" timestamp="2019-01-29T07:55:06Z" uid="633013" user="Honning" version="1">
		<tag k="name" v="Klypen" />
		<tag k="place" v="farm" />
		<tag k="ssr:stedsnr" v="367660" />
	</node>
	<node changeset="66729381" id="6243755476" lat="59.4926" lon="10.8151111" timestamp="2019-01-29T07:55:06Z" uid="633013" user="Honning" version="1">
		<tag k="alt_name" v="Voldengen" />
		<tag k="name" v="Voldenga" />
		<tag k="place" v="farm" />
		<tag k="ssr:stedsnr" v="367661" />
	</node>
	<node changeset="66729381" id="6243755477" lat="59.4817972" lon="10.9198306" timestamp="2019-01-29T07:55:06Z" uid="633013" user="Honning" version="1">
		<tag k="name" v="Bjerke" />
		<tag k="place" v="farm" />
		<tag k="ssr:stedsnr" v="367702" />
	</node>
	<node changeset="66729381" id="6243755478" lat="59.5209972" lon="10.910225" timestamp="2019-01-29T07:55:06Z" uid="633013" user="Honning" version="1">
		<tag k="name" v="Enga" />
		<tag k="place" v="farm" />
		<tag k="ssr:stedsnr" v="368068" />
	</node>
	<node changeset="66729381" id="6243755479" lat="59.5154278" lon="10.8327278" timestamp="2019-01-29T07:55:06Z" uid="633013" user="Honning" version="1">
		<tag k="alt_name" v="Flakstad søndre" />
		<tag k="name" v="Søndre Flakestad" />
		<tag k="place" v="farm" />
		<tag k="ssr:stedsnr" v="368070" />
	</node>
	<node changeset="66729381" id="6243755480" lat="59.5020278" lon="11.0401472" timestamp="2019-01-29T07:55:06Z" uid="633013" user="Honning" version="1">
		<tag k="name" v="Holterdalen" />
		<tag k="place" v="isolated_dwelling" />
		<tag k="ssr:stedsnr" v="368106" />
	</node>
	<node changeset="66729381" id="6243755481" lat="59.498575" lon="11.0177389" timestamp="2019-01-29T07:55:06Z" uid="633013" user="Honning" version="1">
		<tag k="name" v="Fløterneset" />
		<tag k="place" v="farm" />
		<tag k="ssr:stedsnr" v="386939" />
	</node>
	<node changeset="66729381" id="6243755482" lat="59.4644583" lon="10.8367694" timestamp="2019-01-29T07:55:06Z" uid="633013" user="Honning" version="1">
		<tag k="name" v="Kolsrød" />
		<tag k="place" v="isolated_dwelling" />
		<tag k="ssr:stedsnr" v="387767" />
	</node>
	<node changeset="66729381" id="6243755483" lat="59.4301333" lon="11.0535611" timestamp="2019-01-29T07:55:07Z" uid="633013" user="Honning" version="1">
		<tag k="name" v="Havoll" />
		<tag k="place" v="farm" />
		<tag k="ssr:stedsnr" v="245325" />
	</node>
	<node changeset="66729381" id="6243755484" lat="59.43315" lon="10.8374389" timestamp="2019-01-29T07:55:07Z" uid="633013" user="Honning" version="1">
		<tag k="name" v="Grepperød" />
		<tag k="place" v="farm" />
		<tag k="ssr:stedsnr" v="245332" />
	</node>
	<node changeset="66729381" id="6243755685" lat="59.4303806" lon="11.0167056" timestamp="2019-01-29T07:55:07Z" uid="633013" user="Honning" version="1">
		<tag k="name" v="Foko" />
		<tag k="place" v="farm" />
		<tag k="ssr:stedsnr" v="245331" />
	</node>
	<node changeset="66729381" id="6243755686" lat="59.4488361" lon="10.8409083" timestamp="2019-01-29T07:55:07Z" uid="633013" user="Honning" version="1">
		<tag k="alt_name" v="Pålhus søndre" />
		<tag k="name" v="Søndre Paulshus" />
		<tag k="place" v="farm" />
		<tag k="ssr:stedsnr" v="245351" />
	</node>
	<node changeset="66729381" id="6243755687" lat="59.4408889" lon="10.8463306" timestamp="2019-01-29T07:55:07Z" uid="633013" user="Honning" version="1">
		<tag k="name" v="Bjørnerød" />
		<tag k="place" v="farm" />
		<tag k="ssr:stedsnr" v="476532" />
	</node>
	<node changeset="66729381" id="6243755688" lat="59.4780694" lon="10.952475" timestamp="2019-01-29T07:55:07Z" uid="633013" user="Honning" version="1">
		<tag k="name" v="Skjønnerøddalen" />
		<tag k="place" v="farm" />
		<tag k="ssr:stedsnr" v="477113" />
	</node>
	<node changeset="66729381" id="6243755689" lat="59.4827194" lon="10.9033361" timestamp="2019-01-29T07:55:07Z" uid="633013" user="Honning" version="1">
		<tag k="alt_name" v="Hauger nordre" />
		<tag k="name" v="Nordre Hauger" />
		<tag k="place" v="farm" />
		<tag k="ssr:stedsnr" v="477657" />
	</node>
	<node changeset="66729381" id="6243755690" lat="59.4866917" lon="10.8665444" timestamp="2019-01-29T07:55:07Z" uid="633013" user="Honning" version="1">
		<tag k="alt_name" v="Flesberg nordre;Flesberg" />
		<tag k="name" v="Nordre Flesberg" />
		<tag k="place" v="farm" />
		<tag k="ssr:stedsnr" v="478640" />
	</node>
	<node changeset="66729381" id="6243755691" lat="59.4319472" lon="10.8230278" timestamp="2019-01-29T07:55:07Z" uid="633013" user="Honning" version="1">
		<tag k="name" v="Brønnerød" />
		<tag k="place" v="farm" />
		<tag k="ssr:stedsnr" v="478656" />
	</node>
	<node changeset="66729381" id="6243755692" lat="59.4853111" lon="10.9129639" timestamp="2019-01-29T07:55:07Z" uid="633013" user="Honning" version="1">
		<tag k="name" v="Veli" />
		<tag k="place" v="farm" />
		<tag k="ssr:stedsnr" v="891145" />
	</node>
	<node changeset="66729381" id="6243755693" lat="59.4252" lon="11.110275" timestamp="2019-01-29T07:55:07Z" uid="633013" user="Honning" version="1">
		<tag k="alt_name" v="Skaug" />
		<tag k="name" v="Skog" />
		<tag k="place" v="farm" />
		<tag k="ssr:stedsnr" v="2172" />
	</node>
	<node changeset="66729381" id="6243755694" lat="59.4115361" lon="11.0396389" timestamp="2019-01-29T07:55:07Z" uid="633013" user="Honning" version="1">
		<tag k="name" v="Åsheim" />
		<tag k="place" v="farm" />
		<tag k="ssr:stedsnr" v="2340" />
	</node>
	<node changeset="71847058" id="6243755695" lat="59.4196582" lon="10.9009576" timestamp="2019-07-03T07:09:09Z" uid="4198735" user="michalzz" version="2">
		<tag k="alt_name" v="Gjertebråten" />
		<tag k="name" v="Hjertebråten" />
		<tag k="place" v="farm" />
		<tag k="ssr:stedsnr" v="2352" />
	</node>
	<node changeset="66729381" id="6243755696" lat="59.432075" lon="11.06905" timestamp="2019-01-29T07:55:07Z" uid="633013" user="Honning" version="1">
		<tag k="name" v="Drillestad" />
		<tag k="place" v="farm" />
		<tag k="ssr:stedsnr" v="2372" />
	</node>
	<node changeset="66729381" id="6243755697" lat="59.4360556" lon="10.9913" timestamp="2019-01-29T07:55:07Z" uid="633013" user="Honning" version="1">
		<tag k="name" v="Frøland" />
		<tag k="place" v="farm" />
		<tag k="ssr:stedsnr" v="2376" />
	</node>
	<node changeset="66729381" id="6243755698" lat="59.4474556" lon="10.8584722" timestamp="2019-01-29T07:55:07Z" uid="633013" user="Honning" version="1">
		<tag k="name" v="Jonsrød" />
		<tag k="place" v="farm" />
		<tag k="ssr:stedsnr" v="2390" />
	</node>
	<node changeset="66729381" id="6243755699" lat="59.4621611" lon="10.8315555" timestamp="2019-01-29T07:55:07Z" uid="633013" user="Honning" version="1">
		<tag k="name" v="Sanderød" />
		<tag k="place" v="farm" />
		<tag k="ssr:stedsnr" v="2710" />
	</node>
	<node changeset="66729381" id="6243755700" lat="59.4636917" lon="10.7738028" timestamp="2019-01-29T07:55:07Z" uid="633013" user="Honning" version="1">
		<tag k="alt_name" v="Rød søndre" />
		<tag k="name" v="Søndre Rød" />
		<tag k="place" v="farm" />
		<tag k="ssr:stedsnr" v="2719" />
	</node>
	<node changeset="66729381" id="6243755701" lat="59.450325" lon="10.9754278" timestamp="2019-01-29T07:55:08Z" uid="633013" user="Honning" version="1">
		<tag k="alt_name" v="Tjernsrød" />
		<tag k="name" v="Kjernsrød" />
		<tag k="place" v="farm" />
		<tag k="ssr:stedsnr" v="2727" />
	</node>
	<node changeset="66729381" id="6243755702" lat="59.4535444" lon="11.0267111" timestamp="2019-01-29T07:55:08Z" uid="633013" user="Honning" version="1">
		<tag k="name" v="Tveter" />
		<tag k="place" v="farm" />
		<tag k="ssr:stedsnr" v="2729" />
	</node>
	<node changeset="66729381" id="6243755703" lat="59.456575" lon="10.78405" timestamp="2019-01-29T07:55:08Z" uid="633013" user="Honning" version="1">
		<tag k="alt_name" v="Texsnæs" />
		<tag k="name" v="Teksnes" />
		<tag k="place" v="farm" />
		<tag k="ssr:stedsnr" v="2738" />
	</node>
	<node changeset="66729381" id="6243755704" lat="59.460325" lon="10.9715833" timestamp="2019-01-29T07:55:08Z" uid="633013" user="Honning" version="1">
		<tag k="alt_name" v="Spjøter vesle" />
		<tag k="name" v="Vesle Spjøter" />
		<tag k="place" v="farm" />
		<tag k="ssr:stedsnr" v="2740" />
	</node>
	<node changeset="66729381" id="6243755705" lat="59.4024389" lon="11.0948167" timestamp="2019-01-29T07:55:08Z" uid="633013" user="Honning" version="1">
		<tag k="name" v="Allerno" />
		<tag k="place" v="locality" />
		<tag k="ssr:stedsnr" v="2819" />
	</node>
	<node changeset="66729381" id="6243755706" lat="59.4912722" lon="10.9559333" timestamp="2019-01-29T07:55:08Z" uid="633013" user="Honning" version="1">
		<tag k="name" v="Holen" />
		<tag k="place" v="farm" />
		<tag k="ssr:stedsnr" v="3668" />
	</node>
	<node changeset="66729381" id="6243755707" lat="59.47915" lon="10.8905806" timestamp="2019-01-29T07:55:08Z" uid="633013" user="Honning" version="1">
		<tag k="name" v="Haug" />
		<tag k="place" v="farm" />
		<tag k="ssr:stedsnr" v="3690" />
	</node>
	<node changeset="66729381" id="6243755708" lat="59.4836694" lon="10.8943472" timestamp="2019-01-29T07:55:08Z" uid="633013" user="Honning" version="1">
		<tag k="alt_name" v="Holm søndre" />
		<tag k="name" v="Søndre Holm" />
		<tag k="place" v="farm" />
		<tag k="ssr:stedsnr" v="3692" />
	</node>
	<node changeset="66729381" id="6243755709" lat="59.5288889" lon="10.9089556" timestamp="2019-01-29T07:55:08Z" uid="633013" user="Honning" version="1">
		<tag k="name" v="Enden" />
		<tag k="place" v="farm" />
		<tag k="ssr:stedsnr" v="4006" />
	</node>
	<node changeset="66729381" id="6243755710" lat="59.5257528" lon="10.8252361" timestamp="2019-01-29T07:55:08Z" uid="633013" user="Honning" version="1">
		<tag k="alt_name" v="Stensrød nordre" />
		<tag k="name" v="Nordre Stensrød" />
		<tag k="place" v="farm" />
		<tag k="ssr:stedsnr" v="22892" />
	</node>
	<node changeset="66729381" id="6243755711" lat="59.4969028" lon="10.9584417" timestamp="2019-01-29T07:55:08Z" uid="633013" user="Honning" version="1">
		<tag k="alt_name" v="Femtegjeld nedre" />
		<tag k="name" v="Nedre Femtegjeld" />
		<tag k="place" v="farm" />
		<tag k="ssr:stedsnr" v="22963" />
	</node>
	<node changeset="66729381" id="6243755712" lat="59.4436028" lon="10.9342861" timestamp="2019-01-29T07:55:08Z" uid="633013" user="Honning" version="1">
		<tag k="name" v="Stareng" />
		<tag k="place" v="locality" />
		<tag k="ssr:stedsnr" v="23792" />
	</node>
	<node changeset="66729381" id="6243755713" lat="59.4660694" lon="11.0218167" timestamp="2019-01-29T07:55:08Z" uid="633013" user="Honning" version="1">
		<tag k="name" v="Bråteødegård" />
		<tag k="place" v="farm" />
		<tag k="ssr:stedsnr" v="23844" />
	</node>
	<node changeset="66729381" id="6243755714" lat="59.5044389" lon="11.0001694" timestamp="2019-01-29T07:55:08Z" uid="633013" user="Honning" version="1">
		<tag k="name" v="Bekakoia" />
		<tag k="place" v="locality" />
		<tag k="ssr:stedsnr" v="23854" />
	</node>
	<node changeset="66729381" id="6243755715" lat="59.4289417" lon="10.7761778" timestamp="2019-01-29T07:55:08Z" uid="633013" user="Honning" version="1">
		<tag k="name" v="Finkastet" />
		<tag k="place" v="isolated_dwelling" />
		<tag k="ssr:stedsnr" v="23891" />
	</node>
	<node changeset="66765543" id="6243755716" lat="59.5302164" lon="10.8300644" timestamp="2019-01-30T10:27:53Z" uid="633013" user="Honning" version="2">
		<tag k="alt_name" v="Høgås" />
		<tag k="name" v="Høyås" />
		<tag k="old_name" v="Vestre Heiaas;Nordre Høiaas" />
		<tag k="place" v="farm" />
		<tag k="ssr:stedsnr" v="39180" />
	</node>
	<node changeset="66729381" id="6243755717" lat="59.4757028" lon="10.8667333" timestamp="2019-01-29T07:55:08Z" uid="633013" user="Honning" version="1">
		<tag k="name" v="Turen" />
		<tag k="place" v="farm" />
		<tag k="ssr:stedsnr" v="52580" />
	</node>
	<node changeset="66729381" id="6243755718" lat="59.460775" lon="11.0166139" timestamp="2019-01-29T07:55:09Z" uid="633013" user="Honning" version="1">
		<tag k="alt_name" v="Bråte nordre" />
		<tag k="name" v="Nordre Bråte" />
		<tag k="place" v="farm" />
		<tag k="ssr:stedsnr" v="53085;538089" />
	</node>
	<node changeset="66729381" id="6243755719" lat="59.4417611" lon="10.7875444" timestamp="2019-01-29T07:55:09Z" uid="633013" user="Honning" version="1">
		<tag k="name" v="Bjerkeli" />
		<tag k="place" v="farm" />
		<tag k="ssr:stedsnr" v="53660" />
	</node>
	<node changeset="66729381" id="6243755720" lat="59.441" lon="11.0132667" timestamp="2019-01-29T07:55:09Z" uid="633013" user="Honning" version="1">
		<tag k="name" v="Sukkehagen" />
		<tag k="place" v="farm" />
		<tag k="ssr:stedsnr" v="63383" />
	</node>
	<node changeset="66729381" id="6243755721" lat="59.4475861" lon="11.0138694" timestamp="2019-01-29T07:55:09Z" uid="633013" user="Honning" version="1">
		<tag k="name" v="Sandbråten" />
		<tag k="place" v="farm" />
		<tag k="ssr:stedsnr" v="63384" />
	</node>
	<node changeset="66729381" id="6243755722" lat="59.4431" lon="10.8667833" timestamp="2019-01-29T07:55:09Z" uid="633013" user="Honning" version="1">
		<tag k="name" v="Østenrød" />
		<tag k="place" v="farm" />
		<tag k="ssr:stedsnr" v="63388" />
	</node>
	<node changeset="66729381" id="6243755723" lat="59.4744417" lon="10.9194778" timestamp="2019-01-29T07:55:09Z" uid="633013" user="Honning" version="1">
		<tag k="name" v="Tangen" />
		<tag k="place" v="farm" />
		<tag k="ssr:stedsnr" v="63722" />
	</node>
	<node changeset="66729381" id="6243755724" lat="59.4546722" lon="10.9914167" timestamp="2019-01-29T07:55:09Z" uid="633013" user="Honning" version="1">
		<tag k="name" v="Dammen" />
		<tag k="place" v="locality" />
		<tag k="ssr:stedsnr" v="63724" />
	</node>
	<node changeset="66729381" id="6243755725" lat="59.5087306" lon="10.8388167" timestamp="2019-01-29T07:55:09Z" uid="633013" user="Honning" version="1">
		<tag k="alt_name" v="Strøm, søndre;Strøm søndre" />
		<tag k="name" v="Søndre Strøm" />
		<tag k="place" v="farm" />
		<tag k="ssr:stedsnr" v="64037" />
	</node>
	<node changeset="66729381" id="6243755726" lat="59.5060917" lon="10.9004583" timestamp="2019-01-29T07:55:09Z" uid="633013" user="Honning" version="1">
		<tag k="name" v="Voll" />
		<tag k="place" v="farm" />
		<tag k="ssr:stedsnr" v="64039" />
	</node>
	<node changeset="66729381" id="6243755727" lat="59.5092417" lon="10.9566556" timestamp="2019-01-29T07:55:09Z" uid="633013" user="Honning" version="1">
		<tag k="name" v="Belgen" />
		<tag k="place" v="farm" />
		<tag k="ssr:stedsnr" v="64038" />
	</node>
	<node changeset="66729381" id="6243755728" lat="59.5060167" lon="10.7787778" timestamp="2019-01-29T07:55:09Z" uid="633013" user="Honning" version="1">
		<tag k="name" v="Grav" />
		<tag k="place" v="farm" />
		<tag k="ssr:stedsnr" v="64080" />
	</node>
	<node changeset="66729381" id="6243755729" lat="59.49525" lon="11.0182917" timestamp="2019-01-29T07:55:09Z" uid="633013" user="Honning" version="1">
		<tag k="name" v="Ås" />
		<tag k="place" v="farm" />
		<tag k="ssr:stedsnr" v="64667" />
	</node>
	<node changeset="66729381" id="6243755730" lat="59.4851056" lon="10.8606278" timestamp="2019-01-29T07:55:09Z" uid="633013" user="Honning" version="1">
		<tag k="name" v="Løken" />
		<tag k="place" v="farm" />
		<tag k="ssr:stedsnr" v="64691" />
	</node>
	<node changeset="66729381" id="6243755731" lat="59.4710333" lon="10.8447444" timestamp="2019-01-29T07:55:09Z" uid="633013" user="Honning" version="1">
		<tag k="name" v="Eng" />
		<tag k="place" v="farm" />
		<tag k="ssr:stedsnr" v="64706" />
	</node>
	<node changeset="66729381" id="6243755732" lat="59.4788611" lon="11.0252639" timestamp="2019-01-29T07:55:09Z" uid="633013" user="Honning" version="1">
		<tag k="name" v="Pelsrød" />
		<tag k="place" v="farm" />
		<tag k="ssr:stedsnr" v="64715" />
	</node>
	<node changeset="66729381" id="6243755733" lat="59.4818444" lon="10.9499917" timestamp="2019-01-29T07:55:09Z" uid="633013" user="Honning" version="1">
		<tag k="alt_name" v="Skjønnerød" />
		<tag k="name" v="Sjønnerød" />
		<tag k="place" v="farm" />
		<tag k="ssr:stedsnr" v="64717" />
	</node>
	<node changeset="66729381" id="6243755734" lat="59.4883889" lon="10.8967778" timestamp="2019-01-29T07:55:09Z" uid="633013" user="Honning" version="1">
		<tag k="alt_name" v="Holm nordre" />
		<tag k="name" v="Nordre Holm" />
		<tag k="place" v="farm" />
		<tag k="ssr:stedsnr" v="64727" />
	</node>
	<node changeset="66729381" id="6243755735" lat="59.4710528" lon="10.8622028" timestamp="2019-01-29T07:55:10Z" uid="633013" user="Honning" version="1">
		<tag k="name" v="Røstad" />
		<tag k="place" v="farm" />
		<tag k="ssr:stedsnr" v="64744" />
	</node>
	<node changeset="66729381" id="6243755736" lat="59.5232" lon="10.9481722" timestamp="2019-01-29T07:55:10Z" uid="633013" user="Honning" version="1">
		<tag k="alt_name" v="Tveiter, vestre;Tveter vestre" />
		<tag k="name" v="Vestre Tveiter" />
		<tag k="place" v="farm" />
		<tag k="ssr:stedsnr" v="65007" />
	</node>
	<node changeset="66729381" id="6243755737" lat="59.4875667" lon="10.9480389" timestamp="2019-01-29T07:55:10Z" uid="633013" user="Honning" version="1">
		<tag k="name" v="Leina" />
		<tag k="place" v="isolated_dwelling" />
		<tag k="ssr:stedsnr" v="82957" />
	</node>
	<node changeset="66729381" id="6243755738" lat="59.4952472" lon="10.8891528" timestamp="2019-01-29T07:55:10Z" uid="633013" user="Honning" version="1">
		<tag k="name" v="Bjørnstad" />
		<tag k="place" v="farm" />
		<tag k="ssr:stedsnr" v="83889" />
	</node>
	<node changeset="66729381" id="6243755739" lat="59.4346944" lon="11.096525" timestamp="2019-01-29T07:55:10Z" uid="633013" user="Honning" version="1">
		<tag k="name" v="Nordby" />
		<tag k="place" v="farm" />
		<tag k="ssr:stedsnr" v="83966" />
	</node>
	<node changeset="66729381" id="6243755740" lat="59.4864722" lon="10.8758639" timestamp="2019-01-29T07:55:10Z" uid="633013" user="Honning" version="1">
		<tag k="alt_name" v="Berg østre" />
		<tag k="name" v="Østre Berg" />
		<tag k="place" v="farm" />
		<tag k="ssr:stedsnr" v="84803" />
	</node>
	<node changeset="66729381" id="6243755741" lat="59.4410694" lon="11.1144056" timestamp="2019-01-29T07:55:10Z" uid="633013" user="Honning" version="1">
		<tag k="name" v="Grønli" />
		<tag k="place" v="farm" />
		<tag k="ssr:stedsnr" v="84819" />
	</node>
	<node changeset="66729381" id="6243755742" lat="59.4948087" lon="10.8251104" timestamp="2019-01-29T07:55:10Z" uid="633013" user="Honning" version="1">
		<tag k="name" v="Søndre Kåbøl" />
		<tag k="place" v="farm" />
		<tag k="ssr:stedsnr" v="769119;102098" />
	</node>
	<node changeset="66729381" id="6243755743" lat="59.4563611" lon="11.0155917" timestamp="2019-01-29T07:55:10Z" uid="633013" user="Honning" version="1">
		<tag k="alt_name" v="Bråte søndre" />
		<tag k="name" v="Søndre Bråte" />
		<tag k="place" v="farm" />
		<tag k="ssr:stedsnr" v="113074" />
	</node>
	<node changeset="66729381" id="6243755744" lat="59.4664583" lon="11.00855" timestamp="2019-01-29T07:55:10Z" uid="633013" user="Honning" version="1">
		<tag k="alt_name" v="Lundem nordre" />
		<tag k="name" v="Nordre Lundem" />
		<tag k="place" v="farm" />
		<tag k="ssr:stedsnr" v="113105" />
	</node>
	<node changeset="66729381" id="6243755745" lat="59.4483611" lon="10.8585389" timestamp="2019-01-29T07:55:10Z" uid="633013" user="Honning" version="1">
		<tag k="alt_name" v="Jonsrød nordre" />
		<tag k="name" v="Nordre Jonsrød" />
		<tag k="place" v="farm" />
		<tag k="ssr:stedsnr" v="113477" />
	</node>
	<node changeset="66729381" id="6243755746" lat="59.4101861" lon="10.8102611" timestamp="2019-01-29T07:55:10Z" uid="633013" user="Honning" version="1">
		<tag k="alt_name" v="Bliksøen" />
		<tag k="name" v="Bliksøya" />
		<tag k="place" v="farm" />
		<tag k="ssr:stedsnr" v="123347" />
	</node>
	<node changeset="66729381" id="6243755747" lat="59.4190528" lon="11.0608333" timestamp="2019-01-29T07:55:10Z" uid="633013" user="Honning" version="1">
		<tag k="name" v="Tangen" />
		<tag k="place" v="farm" />
		<tag k="ssr:stedsnr" v="123352" />
	</node>
	<node changeset="66729381" id="6243755748" lat="59.4147639" lon="11.0543889" timestamp="2019-01-29T07:55:10Z" uid="633013" user="Honning" version="1">
		<tag k="alt_name" v="Enga" />
		<tag k="name" v="Engen" />
		<tag k="place" v="farm" />
		<tag k="ssr:stedsnr" v="123356" />
	</node>
	<node changeset="66729381" id="6243755749" lat="59.4399528" lon="11.0752472" timestamp="2019-01-29T07:55:10Z" uid="633013" user="Honning" version="1">
		<tag k="name" v="Vestereng" />
		<tag k="place" v="farm" />
		<tag k="ssr:stedsnr" v="124311" />
	</node>
	<node changeset="66729381" id="6243755750" lat="59.4431694" lon="10.8304417" timestamp="2019-01-29T07:55:10Z" uid="633013" user="Honning" version="1">
		<tag k="name" v="Guthus" />
		<tag k="place" v="farm" />
		<tag k="ssr:stedsnr" v="124313" />
	</node>
	<node changeset="66729381" id="6243755751" lat="59.489975" lon="11.0106639" timestamp="2019-01-29T07:55:11Z" uid="633013" user="Honning" version="1">
		<tag k="name" v="Ås" />
		<tag k="place" v="farm" />
		<tag k="ssr:stedsnr" v="124632" />
	</node>
	<node changeset="66729381" id="6243755752" lat="59.4734194" lon="10.7914194" timestamp="2019-01-29T07:55:11Z" uid="633013" user="Honning" version="1">
		<tag k="alt_name" v="Auerød;Augerød nordre" />
		<tag k="name" v="Nordre Auerød" />
		<tag k="place" v="farm" />
		<tag k="ssr:stedsnr" v="124653" />
	</node>
	<node changeset="66729381" id="6243755753" lat="59.4844306" lon="10.9875611" timestamp="2019-01-29T07:55:11Z" uid="633013" user="Honning" version="1">
		<tag k="alt_name" v="Grimsrødødegård" />
		<tag k="name" v="Grimsrødødegården" />
		<tag k="place" v="farm" />
		<tag k="ssr:stedsnr" v="124663" />
	</node>
	<node changeset="66729381" id="6243755754" lat="59.4818444" lon="10.9309528" timestamp="2019-01-29T07:55:11Z" uid="633013" user="Honning" version="1">
		<tag k="alt_name" v="Skovdal" />
		<tag k="name" v="Skavdalen" />
		<tag k="place" v="farm" />
		<tag k="ssr:stedsnr" v="124664" />
	</node>
	<node changeset="66729381" id="6243755755" lat="59.4947806" lon="10.8251306" timestamp="2019-01-29T07:55:11Z" uid="633013" user="Honning" version="1">
		<tag k="name" v="Kåbbel" />
		<tag k="place" v="farm" />
		<tag k="ssr:stedsnr" v="143887" />
	</node>
	<node changeset="66729381" id="6243755756" lat="59.5117639" lon="10.9361833" timestamp="2019-01-29T07:55:11Z" uid="633013" user="Honning" version="1">
		<tag k="alt_name" v="Frosterød nordre;Frosterud nordre" />
		<tag k="name" v="Nordre Frosterød" />
		<tag k="place" v="farm" />
		<tag k="ssr:stedsnr" v="143925" />
	</node>
	<node changeset="66729381" id="6243755757" lat="59.428325" lon="10.8180028" timestamp="2019-01-29T07:55:11Z" uid="633013" user="Honning" version="1">
		<tag k="name" v="Brønnerød" />
		<tag k="place" v="farm" />
		<tag k="ssr:stedsnr" v="174678" />
	</node>
	<node changeset="66729381" id="6243755758" lat="59.4702083" lon="10.7823028" timestamp="2019-01-29T07:55:11Z" uid="633013" user="Honning" version="1">
		<tag k="alt_name" v="Augerød søndre" />
		<tag k="name" v="Søndre Augerød" />
		<tag k="place" v="farm" />
		<tag k="ssr:stedsnr" v="174760" />
	</node>
	<node changeset="66729381" id="6243755759" lat="59.4370833" lon="10.9769167" timestamp="2019-01-29T07:55:11Z" uid="633013" user="Honning" version="1">
		<tag k="name" v="Eng" />
		<tag k="place" v="farm" />
		<tag k="ssr:stedsnr" v="174564" />
	</node>
	<node changeset="66729381" id="6243755760" lat="59.4265833" lon="11.0359806" timestamp="2019-01-29T07:55:11Z" uid="633013" user="Honning" version="1">
		<tag k="name" v="Fossum" />
		<tag k="place" v="farm" />
		<tag k="ssr:stedsnr" v="174566" />
	</node>
	<node changeset="66729381" id="6243755761" lat="59.5143444" lon="10.8541972" timestamp="2019-01-29T07:55:11Z" uid="633013" user="Honning" version="1">
		<tag k="alt_name" v="Ombåstvet, søndre;Ombustvedt søndre" />
		<tag k="name" v="Søndre Ombåstvet" />
		<tag k="place" v="farm" />
		<tag k="ssr:stedsnr" v="179065" />
	</node>
	<node changeset="66729381" id="6243755762" lat="59.4252556" lon="11.0399139" timestamp="2019-01-29T07:55:11Z" uid="633013" user="Honning" version="1">
		<tag k="name" v="Lokoberg" />
		<tag k="place" v="farm" />
		<tag k="ssr:stedsnr" v="184336" />
	</node>
	<node changeset="66729381" id="6243755763" lat="59.4231806" lon="11.0416917" timestamp="2019-01-29T07:55:11Z" uid="633013" user="Honning" version="1">
		<tag k="alt_name" v="Løkeberg" />
		<tag k="name" v="Høyda" />
		<tag k="place" v="farm" />
		<tag k="ssr:stedsnr" v="184337" />
	</node>
	<node changeset="66729381" id="6243755764" lat="59.4416444" lon="10.9583611" timestamp="2019-01-29T07:55:11Z" uid="633013" user="Honning" version="1">
		<tag k="name" v="Flesjø" />
		<tag k="place" v="farm" />
		<tag k="ssr:stedsnr" v="184368" />
	</node>
	<node changeset="66729381" id="6243755765" lat="59.5067833" lon="10.9743611" timestamp="2019-01-29T07:55:11Z" uid="633013" user="Honning" version="1">
		<tag k="alt_name" v="Belgeskogen" />
		<tag k="name" v="Belgskogen" />
		<tag k="place" v="farm" />
		<tag k="ssr:stedsnr" v="185078" />
	</node>
	<node changeset="66729381" id="6243755766" lat="59.5088" lon="11.0157972" timestamp="2019-01-29T07:55:11Z" uid="633013" user="Honning" version="1">
		<tag k="name" v="Muskedalen" />
		<tag k="place" v="farm" />
		<tag k="ssr:stedsnr" v="185079" />
	</node>
	<node changeset="66729381" id="6243755767" lat="59.446575" lon="11.0319056" timestamp="2019-01-29T07:55:12Z" uid="633013" user="Honning" version="1">
		<tag k="name" v="Sukkebråten" />
		<tag k="place" v="farm" />
		<tag k="ssr:stedsnr" v="185348" />
	</node>
	<node changeset="66729381" id="6243755768" lat="59.4711028" lon="10.809675" timestamp="2019-01-29T07:55:12Z" uid="633013" user="Honning" version="1">
		<tag k="name" v="Kjuksrød" />
		<tag k="place" v="farm" />
		<tag k="ssr:stedsnr" v="185668" />
	</node>
	<node changeset="66729381" id="6243755769" lat="59.5153" lon="10.9516333" timestamp="2019-01-29T07:55:12Z" uid="633013" user="Honning" version="1">
		<tag k="name" v="Brårød" />
		<tag k="place" v="farm" />
		<tag k="ssr:stedsnr" v="186065" />
	</node>
	<node changeset="66729381" id="6243755770" lat="59.5015222" lon="10.8868611" timestamp="2019-01-29T07:55:12Z" uid="633013" user="Honning" version="1">
		<tag k="name" v="Hagen" />
		<tag k="place" v="farm" />
		<tag k="ssr:stedsnr" v="186086" />
	</node>
	<node changeset="66729381" id="6243755771" lat="59.4293" lon="11.1046945" timestamp="2019-01-29T07:55:12Z" uid="633013" user="Honning" version="1">
		<tag k="alt_name" v="Skaug" />
		<tag k="name" v="Skog" />
		<tag k="place" v="farm" />
		<tag k="ssr:stedsnr" v="191771" />
	</node>
	<node changeset="66729381" id="6243755772" lat="59.4945167" lon="10.8442778" timestamp="2019-01-29T07:55:12Z" uid="633013" user="Honning" version="1">
		<tag k="alt_name" v="Torsnes" />
		<tag k="name" v="Søndre Torsnes" />
		<tag k="place" v="farm" />
		<tag k="ssr:stedsnr" v="204879" />
	</node>
	<node changeset="66729381" id="6243755773" lat="59.4928917" lon="11.0056167" timestamp="2019-01-29T07:55:12Z" uid="633013" user="Honning" version="1">
		<tag k="name" v="Ødemark" />
		<tag k="place" v="farm" />
		<tag k="ssr:stedsnr" v="204946" />
	</node>
	<node changeset="66729381" id="6243755774" lat="59.4381639" lon="11.1045" timestamp="2019-01-29T07:55:12Z" uid="633013" user="Honning" version="1">
		<tag k="alt_name" v="Bjerketvet" />
		<tag k="name" v="Bjørketvet" />
		<tag k="place" v="farm" />
		<tag k="ssr:stedsnr" v="204972" />
	</node>
	<node changeset="66729381" id="6243755775" lat="59.4457583" lon="10.9086028" timestamp="2019-01-29T07:55:12Z" uid="633013" user="Honning" version="1">
		<tag k="alt_name" v="Ros nordre;Ros, nordre" />
		<tag k="name" v="Nordre Ros" />
		<tag k="place" v="farm" />
		<tag k="ssr:stedsnr" v="205800" />
	</node>
	<node changeset="66729381" id="6243755776" lat="59.42025" lon="11.0409694" timestamp="2019-01-29T07:55:12Z" uid="633013" user="Honning" version="1">
		<tag k="alt_name" v="Vastvet nedre;Vastvedt nedre" />
		<tag k="name" v="Nedre Vastvet" />
		<tag k="place" v="farm" />
		<tag k="ssr:stedsnr" v="205887" />
	</node>
	<node changeset="66729381" id="6243755777" lat="59.4532556" lon="10.8897889" timestamp="2019-01-29T07:55:12Z" uid="633013" user="Honning" version="1">
		<tag k="name" v="Kilen" />
		<tag k="place" v="farm" />
		<tag k="ssr:stedsnr" v="234489" />
	</node>
	<node changeset="66729381" id="6243755778" lat="59.4344333" lon="10.921025" timestamp="2019-01-29T07:55:12Z" uid="633013" user="Honning" version="1">
		<tag k="name" v="Bjerkedaldalen" />
		<tag k="place" v="farm" />
		<tag k="ssr:stedsnr" v="234513" />
	</node>
	<node changeset="66729381" id="6243755779" lat="59.4256421" lon="11.0186017" timestamp="2019-01-29T07:55:12Z" uid="633013" user="Honning" version="1">
		<tag k="name" v="Ingulstad" />
		<tag k="place" v="farm" />
		<tag k="ssr:stedsnr" v="235561" />
	</node>
	<node changeset="66729381" id="6243755780" lat="59.421575" lon="11.0246972" timestamp="2019-01-29T07:55:12Z" uid="633013" user="Honning" version="1">
		<tag k="alt_name" v="Onsaker søndre" />
		<tag k="name" v="Søndre Onsaker" />
		<tag k="place" v="farm" />
		<tag k="ssr:stedsnr" v="235568" />
	</node>
	<node changeset="66729381" id="6243755781" lat="59.4769278" lon="10.9865722" timestamp="2019-01-29T07:55:12Z" uid="633013" user="Honning" version="1">
		<tag k="name" v="Grimsrød" />
		<tag k="place" v="farm" />
		<tag k="ssr:stedsnr" v="235139" />
	</node>
	<node changeset="66729381" id="6243755782" lat="59.4626417" lon="10.9927056" timestamp="2019-01-29T07:55:12Z" uid="633013" user="Honning" version="1">
		<tag k="alt_name" v="Lundemødegården" />
		<tag k="loc_name" v="Rud" />
		<tag k="name" v="Ruud" />
		<tag k="place" v="farm" />
		<tag k="ssr:stedsnr" v="235188" />
	</node>
	<node changeset="66729381" id="6243755783" lat="59.4385806" lon="11.0963472" timestamp="2019-01-29T07:55:13Z" uid="633013" user="Honning" version="1">
		<tag k="name" v="Nordby" />
		<tag k="place" v="farm" />
		<tag k="ssr:stedsnr" v="245178" />
	</node>
	<node changeset="66729381" id="6243755784" lat="59.4568083" lon="11.0653889" timestamp="2019-01-29T07:55:13Z" uid="633013" user="Honning" version="1">
		<tag k="alt_name" v="Sandaker" />
		<tag k="name" v="Sandåker" />
		<tag k="place" v="farm" />
		<tag k="ssr:stedsnr" v="245355" />
	</node>
	<node changeset="66729381" id="6243755785" lat="59.462" lon="10.8041555" timestamp="2019-01-29T07:55:13Z" uid="633013" user="Honning" version="1">
		<tag k="name" v="Dammyr" />
		<tag k="place" v="farm" />
		<tag k="ssr:stedsnr" v="245689" />
	</node>
	<node changeset="66729381" id="6243755786" lat="59.4609611" lon="10.9057083" timestamp="2019-01-29T07:55:13Z" uid="633013" user="Honning" version="1">
		<tag k="alt_name" v="Hauger;Hauger søndre" />
		<tag k="name" v="Søndre Hauger" />
		<tag k="place" v="farm" />
		<tag k="ssr:stedsnr" v="245720" />
	</node>
	<node changeset="66729381" id="6243755787" lat="59.5114417" lon="10.8023556" timestamp="2019-01-29T07:55:13Z" uid="633013" user="Honning" version="1">
		<tag k="alt_name" v="Gylderdammen nordre;Gylderdammen" />
		<tag k="name" v="Nordre Gylderdammen" />
		<tag k="place" v="farm" />
		<tag k="ssr:stedsnr" v="246042" />
	</node>
	<node changeset="66729381" id="6243755788" lat="59.4966778" lon="10.906025" timestamp="2019-01-29T07:55:13Z" uid="633013" user="Honning" version="1">
		<tag k="name" v="Nybråten" />
		<tag k="place" v="isolated_dwelling" />
		<tag k="ssr:stedsnr" v="246656" />
	</node>
	<node changeset="66729381" id="6243755789" lat="59.5203667" lon="10.9514194" timestamp="2019-01-29T07:55:13Z" uid="633013" user="Honning" version="1">
		<tag k="alt_name" v="Tveiter, østre;Tveter nordre;Tveter østre;Tveiter østre;Tveiter" />
		<tag k="name" v="Østre Tveiter" />
		<tag k="place" v="farm" />
		<tag k="ssr:stedsnr" v="247014" />
	</node>
	<node changeset="66729381" id="6243755790" lat="59.5170083" lon="10.7841639" timestamp="2019-01-29T07:55:13Z" uid="633013" user="Honning" version="1">
		<tag k="alt_name" v="Kåter vestre;Kåter" />
		<tag k="name" v="Vestre Kåter" />
		<tag k="place" v="farm" />
		<tag k="ssr:stedsnr" v="247045" />
	</node>
	<node changeset="66729381" id="6243755791" lat="59.5051528" lon="11.0130333" timestamp="2019-01-29T07:55:13Z" uid="633013" user="Honning" version="1">
		<tag k="name" v="Bråtenes" />
		<tag k="place" v="farm" />
		<tag k="ssr:stedsnr" v="264937" />
	</node>
	<node changeset="66729381" id="6243755792" lat="59.5076583" lon="10.9544111" timestamp="2019-01-29T07:55:13Z" uid="633013" user="Honning" version="1">
		<tag k="alt_name" v="Belgen søndre" />
		<tag k="name" v="Søndre Belgen" />
		<tag k="place" v="farm" />
		<tag k="ssr:stedsnr" v="264967" />
	</node>
	<node changeset="66729381" id="6243755793" lat="59.5113556" lon="10.9751" timestamp="2019-01-29T07:55:13Z" uid="633013" user="Honning" version="1">
		<tag k="name" v="Havnås" />
		<tag k="place" v="isolated_dwelling" />
		<tag k="ssr:stedsnr" v="264992" />
	</node>
	<node changeset="66729381" id="6243755794" lat="59.5091972" lon="10.9565611" timestamp="2019-01-29T07:55:13Z" uid="633013" user="Honning" version="1">
		<tag k="alt_name" v="Belgen mellem" />
		<tag k="name" v="Mellom-Belgen" />
		<tag k="place" v="farm" />
		<tag k="ssr:stedsnr" v="264998" />
	</node>
	<node changeset="66729381" id="6243755795" lat="59.5194111" lon="10.9040611" timestamp="2019-01-29T07:55:13Z" uid="633013" user="Honning" version="1">
		<tag k="alt_name" v="Veidal nordre;Veidal" />
		<tag k="name" v="Nordre Veidal" />
		<tag k="place" v="farm" />
		<tag k="ssr:stedsnr" v="266788" />
	</node>
	<node changeset="66729381" id="6243755796" lat="59.5209306" lon="10.9391056" timestamp="2019-01-29T07:55:13Z" uid="633013" user="Honning" version="1">
		<tag k="name" v="Stein" />
		<tag k="place" v="farm" />
		<tag k="ssr:stedsnr" v="266791" />
	</node>
	<node changeset="66729381" id="6243755797" lat="59.5267444" lon="10.9482611" timestamp="2019-01-29T07:55:13Z" uid="633013" user="Honning" version="1">
		<tag k="name" v="Bekkhus" />
		<tag k="place" v="locality" />
		<tag k="ssr:stedsnr" v="266804" />
	</node>
	<node changeset="66729381" id="6243755798" lat="59.4233" lon="11.0485861" timestamp="2019-01-29T07:55:14Z" uid="633013" user="Honning" version="1">
		<tag k="alt_name" v="Vastvet nordre" />
		<tag k="loc_name" v="Nordre Vasstvet" />
		<tag k="name" v="Nordre Vastvet" />
		<tag k="place" v="farm" />
		<tag k="ssr:stedsnr" v="266843" />
	</node>
	<node changeset="66729381" id="6243755799" lat="59.4149528" lon="11.0085667" timestamp="2019-01-29T07:55:14Z" uid="633013" user="Honning" version="1">
		<tag k="alt_name" v="Bakkon" />
		<tag k="name" v="Bakken" />
		<tag k="place" v="farm" />
		<tag k="ssr:stedsnr" v="266852" />
	</node>
	<node changeset="66729381" id="6243755800" lat="59.4182833" lon="11.0369833" timestamp="2019-01-29T07:55:14Z" uid="633013" user="Honning" version="1">
		<tag k="name" v="Åsen" />
		<tag k="place" v="locality" />
		<tag k="ssr:stedsnr" v="266853" />
	</node>
	<node changeset="66729381" id="6243755801" lat="59.4613806" lon="11.0227917" timestamp="2019-01-29T07:55:14Z" uid="633013" user="Honning" version="1">
		<tag k="name" v="Nygård" />
		<tag k="place" v="farm" />
		<tag k="ssr:stedsnr" v="417074" />
	</node>
	<node changeset="66729381" id="6243755802" lat="59.436925" lon="10.8241778" timestamp="2019-01-29T07:55:14Z" uid="633013" user="Honning" version="1">
		<tag k="name" v="Tokerød" />
		<tag k="place" v="farm" />
		<tag k="ssr:stedsnr" v="417683" />
	</node>
	<node changeset="66729381" id="6243755803" lat="59.4175222" lon="10.8211778" timestamp="2019-01-29T07:55:14Z" uid="633013" user="Honning" version="1">
		<tag k="name" v="Kjærnes" />
		<tag k="place" v="farm" />
		<tag k="ssr:stedsnr" v="417704" />
	</node>
	<node changeset="66729381" id="6243755804" lat="59.423375" lon="11.1309722" timestamp="2019-01-29T07:55:14Z" uid="633013" user="Honning" version="1">
		<tag k="name" v="Stokkebekk" />
		<tag k="place" v="farm" />
		<tag k="ssr:stedsnr" v="427182" />
	</node>
	<node changeset="66729381" id="6243755805" lat="59.4049139" lon="10.9722417" timestamp="2019-01-29T07:55:14Z" uid="633013" user="Honning" version="1">
		<tag k="name" v="Sjursbråten" />
		<tag k="place" v="isolated_dwelling" />
		<tag k="ssr:stedsnr" v="427336" />
	</node>
	<node changeset="66729381" id="6243755806" lat="59.4170306" lon="10.9715333" timestamp="2019-01-29T07:55:14Z" uid="633013" user="Honning" version="1">
		<tag k="name" v="Boslangen" />
		<tag k="place" v="farm" />
		<tag k="ssr:stedsnr" v="427354" />
	</node>
	<node changeset="66729381" id="6243755807" lat="59.4161222" lon="10.8358528" timestamp="2019-01-29T07:55:14Z" uid="633013" user="Honning" version="1">
		<tag k="alt_name" v="Rødsengen" />
		<tag k="name" v="Rødsenga" />
		<tag k="place" v="farm" />
		<tag k="ssr:stedsnr" v="427359" />
	</node>
	<node changeset="66729381" id="6243755808" lat="59.4302944" lon="11.0107056" timestamp="2019-01-29T07:55:14Z" uid="633013" user="Honning" version="1">
		<tag k="alt_name" v="Bøgle" />
		<tag k="name" v="Bøle" />
		<tag k="place" v="farm" />
		<tag k="ssr:stedsnr" v="427369" />
	</node>
	<node changeset="66729381" id="6243755809" lat="59.4241694" lon="11.0108556" timestamp="2019-01-29T07:55:14Z" uid="633013" user="Honning" version="1">
		<tag k="name" v="Gunnerød" />
		<tag k="place" v="farm" />
		<tag k="ssr:stedsnr" v="427371" />
	</node>
	<node changeset="66729381" id="6243755810" lat="59.4702056" lon="10.8540722" timestamp="2019-01-29T07:55:14Z" uid="633013" user="Honning" version="1">
		<tag k="name" v="Bakketun" />
		<tag k="place" v="farm" />
		<tag k="ssr:stedsnr" v="427693" />
	</node>
	<node changeset="66729381" id="6243755811" lat="59.4570583" lon="10.9703167" timestamp="2019-01-29T07:55:14Z" uid="633013" user="Honning" version="1">
		<tag k="alt_name" v="Spjøter store" />
		<tag k="name" v="Store Spjøter" />
		<tag k="place" v="farm" />
		<tag k="ssr:stedsnr" v="427709" />
	</node>
	<node changeset="66729381" id="6243755812" lat="59.4545611" lon="10.8636583" timestamp="2019-01-29T07:55:14Z" uid="633013" user="Honning" version="1">
		<tag k="alt_name" v="Fjeld" />
		<tag k="name" v="Fjell" />
		<tag k="place" v="farm" />
		<tag k="ssr:stedsnr" v="427708" />
	</node>
	<node changeset="66729381" id="6243755813" lat="59.4586417" lon="10.9542139" timestamp="2019-01-29T07:55:15Z" uid="633013" user="Honning" version="1">
		<tag k="name" v="Høybråten" />
		<tag k="place" v="farm" />
		<tag k="ssr:stedsnr" v="427710" />
	</node>
	<node changeset="66729381" id="6243755814" lat="59.4631556" lon="11.0593" timestamp="2019-01-29T07:55:15Z" uid="633013" user="Honning" version="1">
		<tag k="alt_name" v="Langerød" />
		<tag k="name" v="Langrød" />
		<tag k="place" v="farm" />
		<tag k="ssr:stedsnr" v="427712" />
	</node>
	<node changeset="66729381" id="6243755815" lat="59.5082056" lon="10.8017778" timestamp="2019-01-29T07:55:15Z" uid="633013" user="Honning" version="1">
		<tag k="alt_name" v="Gylderdammen søndre;Dammen" />
		<tag k="name" v="Søndre Gylderdammen" />
		<tag k="place" v="farm" />
		<tag k="ssr:stedsnr" v="428042" />
	</node>
	<node changeset="66729381" id="6243755816" lat="59.5133306" lon="10.8383" timestamp="2019-01-29T07:55:15Z" uid="633013" user="Honning" version="1">
		<tag k="alt_name" v="Strøm, nordre;Strøm" />
		<tag k="name" v="Nordre Strøm" />
		<tag k="place" v="farm" />
		<tag k="ssr:stedsnr" v="428045" />
	</node>
	<node changeset="66729381" id="6243755817" lat="59.5099139" lon="10.9346611" timestamp="2019-01-29T07:55:15Z" uid="633013" user="Honning" version="1">
		<tag k="name" v="Frosterød" />
		<tag k="place" v="farm" />
		<tag k="ssr:stedsnr" v="428049" />
	</node>
	<node changeset="66729381" id="6243755818" lat="59.4978028" lon="10.8792528" timestamp="2019-01-29T07:55:15Z" uid="633013" user="Honning" version="1">
		<tag k="alt_name" v="Orskaug" />
		<tag k="name" v="Orskog" />
		<tag k="place" v="farm" />
		<tag k="ssr:stedsnr" v="428660" />
	</node>
	<node changeset="66729381" id="6243755819" lat="59.4795694" lon="10.8477667" timestamp="2019-01-29T07:55:15Z" uid="633013" user="Honning" version="1">
		<tag k="alt_name" v="Risheim" />
		<tag k="name" v="Risum" />
		<tag k="place" v="farm" />
		<tag k="ssr:stedsnr" v="428664" />
	</node>
	<node changeset="66729381" id="6243755820" lat="59.4887333" lon="10.92515" timestamp="2019-01-29T07:55:15Z" uid="633013" user="Honning" version="1">
		<tag k="alt_name" v="Nordbyødegård" />
		<tag k="name" v="Nordbyødegården" />
		<tag k="place" v="farm" />
		<tag k="ssr:stedsnr" v="428680" />
	</node>
	<node changeset="66729381" id="6243755821" lat="59.4776389" lon="10.9932195" timestamp="2019-01-29T07:55:15Z" uid="633013" user="Honning" version="1">
		<tag k="name" v="Solberg" />
		<tag k="place" v="farm" />
		<tag k="ssr:stedsnr" v="428691" />
	</node>
	<node changeset="66729381" id="6243755822" lat="59.5257278" lon="10.8614695" timestamp="2019-01-29T07:55:15Z" uid="633013" user="Honning" version="1">
		<tag k="alt_name" v="Ombustvedt" />
		<tag k="name" v="Ødegård" />
		<tag k="old_name" v="Ødegaarden" />
		<tag k="place" v="farm" />
		<tag k="ssr:stedsnr" v="429003" />
	</node>
	<node changeset="66729381" id="6243755823" lat="59.5018528" lon="10.993075" timestamp="2019-01-29T07:55:15Z" uid="633013" user="Honning" version="1">
		<tag k="alt_name" v="Setra" />
		<tag k="name" v="Sætra" />
		<tag k="place" v="farm" />
		<tag k="ssr:stedsnr" v="429074" />
	</node>
	<node changeset="66729381" id="6243755824" lat="59.5020139" lon="11.0207639" timestamp="2019-01-29T07:55:15Z" uid="633013" user="Honning" version="1">
		<tag k="alt_name" v="Vildskog" />
		<tag k="name" v="Villskog" />
		<tag k="place" v="farm" />
		<tag k="ssr:stedsnr" v="429075" />
	</node>
	<node changeset="66729381" id="6243755825" lat="59.5168417" lon="10.9055639" timestamp="2019-01-29T07:55:15Z" uid="633013" user="Honning" version="1">
		<tag k="alt_name" v="Veidal mellem" />
		<tag k="name" v="Mellom-Veidal" />
		<tag k="place" v="farm" />
		<tag k="ssr:stedsnr" v="448811" />
	</node>
	<node changeset="66729381" id="6243755826" lat="59.5137972" lon="10.9784778" timestamp="2019-01-29T07:55:15Z" uid="633013" user="Honning" version="1">
		<tag k="name" v="Havnedalen" />
		<tag k="place" v="farm" />
		<tag k="ssr:stedsnr" v="448825" />
	</node>
	<node changeset="66729381" id="6243755827" lat="59.5174833" lon="10.9559805" timestamp="2019-01-29T07:55:15Z" uid="633013" user="Honning" version="1">
		<tag k="name" v="Torget" />
		<tag k="place" v="locality" />
		<tag k="ssr:stedsnr" v="448827" />
	</node>
	<node changeset="66729381" id="6243755828" lat="59.5096917" lon="10.80985" timestamp="2019-01-29T07:55:15Z" uid="633013" user="Honning" version="1">
		<tag k="alt_name" v="Gylder søndre" />
		<tag k="name" v="Søndre Gylder" />
		<tag k="place" v="farm" />
		<tag k="ssr:stedsnr" v="448864" />
	</node>
	<node changeset="66729381" id="6243755829" lat="59.4430306" lon="11.0865806" timestamp="2019-01-29T07:55:16Z" uid="633013" user="Honning" version="1">
		<tag k="name" v="Nordbyhytta" />
		<tag k="place" v="locality" />
		<tag k="ssr:stedsnr" v="448879" />
	</node>
	<node changeset="66729381" id="6243755830" lat="59.4311889" lon="10.7886917" timestamp="2019-01-29T07:55:16Z" uid="633013" user="Honning" version="1">
		<tag k="name" v="Svellebråten" />
		<tag k="place" v="locality" />
		<tag k="ssr:stedsnr" v="487370" />
	</node>
	<node changeset="66729381" id="6243755831" lat="59.4760889" lon="10.9791556" timestamp="2019-01-29T07:55:16Z" uid="633013" user="Honning" version="1">
		<tag k="alt_name" v="Solheim" />
		<tag k="name" v="Grimsrød" />
		<tag k="place" v="farm" />
		<tag k="ssr:stedsnr" v="487753" />
	</node>
	<node changeset="66729381" id="6243755832" lat="59.4746139" lon="10.991625" timestamp="2019-01-29T07:55:16Z" uid="633013" user="Honning" version="1">
		<tag k="name" v="Ulfsrød" />
		<tag k="place" v="farm" />
		<tag k="ssr:stedsnr" v="487754" />
	</node>
	<node changeset="66729381" id="6243755833" lat="59.4584806" lon="11.009625" timestamp="2019-01-29T07:55:16Z" uid="633013" user="Honning" version="1">
		<tag k="alt_name" v="Sandem" />
		<tag k="name" v="Sandum" />
		<tag k="place" v="farm" />
		<tag k="ssr:stedsnr" v="487771" />
	</node>
	<node changeset="66729381" id="6243755834" lat="59.4408611" lon="10.89975" timestamp="2019-01-29T07:55:16Z" uid="633013" user="Honning" version="1">
		<tag k="alt_name" v="Ros søndre" />
		<tag k="name" v="Søndre Ros" />
		<tag k="place" v="farm" />
		<tag k="ssr:stedsnr" v="488342" />
	</node>
	<node changeset="66729381" id="6243755835" lat="59.4976139" lon="10.8403278" timestamp="2019-01-29T07:55:16Z" uid="633013" user="Honning" version="1">
		<tag k="name" v="Kåbøl" />
		<tag k="place" v="farm" />
		<tag k="ssr:stedsnr" v="488657" />
	</node>
	<node changeset="66729381" id="6243755836" lat="59.4992028" lon="10.9467111" timestamp="2019-01-29T07:55:16Z" uid="633013" user="Honning" version="1">
		<tag k="name" v="Bråten" />
		<tag k="place" v="farm" />
		<tag k="ssr:stedsnr" v="488663" />
	</node>
	<node changeset="66729381" id="6243755837" lat="59.49545" lon="10.8649722" timestamp="2019-01-29T07:55:16Z" uid="633013" user="Honning" version="1">
		<tag k="name" v="Ulvestad" />
		<tag k="place" v="farm" />
		<tag k="ssr:stedsnr" v="488686" />
	</node>
	<node changeset="66729381" id="6243755838" lat="59.4742556" lon="10.7982806" timestamp="2019-01-29T07:55:16Z" uid="633013" user="Honning" version="1">
		<tag k="name" v="Hellerød" />
		<tag k="place" v="isolated_dwelling" />
		<tag k="ssr:stedsnr" v="488690" />
	</node>
	<node changeset="66729381" id="6243755839" lat="59.4821861" lon="10.8955889" timestamp="2019-01-29T07:55:16Z" uid="633013" user="Honning" version="1">
		<tag k="name" v="Stanger" />
		<tag k="place" v="farm" />
		<tag k="ssr:stedsnr" v="488708" />
	</node>
	<node changeset="66729381" id="6243755840" lat="59.4528667" lon="11.0594667" timestamp="2019-01-29T07:55:16Z" uid="633013" user="Honning" version="1">
		<tag k="alt_name" v="Lie" />
		<tag k="name" v="Li" />
		<tag k="place" v="farm" />
		<tag k="ssr:stedsnr" v="488731" />
	</node>
	<node changeset="66729381" id="6243755841" lat="59.5236083" lon="10.8401" timestamp="2019-01-29T07:55:16Z" uid="633013" user="Honning" version="1">
		<tag k="name" v="Kure" />
		<tag k="place" v="farm" />
		<tag k="ssr:stedsnr" v="489010" />
	</node>
	<node changeset="66729381" id="6243755842" lat="59.5057583" lon="11.0144861" timestamp="2019-01-29T07:55:16Z" uid="633013" user="Honning" version="1">
		<tag k="name" v="Bråtenes" />
		<tag k="place" v="farm" />
		<tag k="ssr:stedsnr" v="489103" />
	</node>
	<node changeset="66729381" id="6243755843" lat="59.4997278" lon="10.8882639" timestamp="2019-01-29T07:55:16Z" uid="633013" user="Honning" version="1">
		<tag k="alt_name" v="Bergskogen" />
		<tag k="name" v="Bergskog" />
		<tag k="place" v="farm" />
		<tag k="ssr:stedsnr" v="489108" />
	</node>
	<node changeset="66729381" id="6243755844" lat="59.4967917" lon="10.8419806" timestamp="2019-01-29T07:55:16Z" uid="633013" user="Honning" version="1">
		<tag k="name" v="Strømnes" />
		<tag k="place" v="farm" />
		<tag k="ssr:stedsnr" v="508892" />
	</node>
	<node changeset="66729381" id="6243755845" lat="59.4881222" lon="10.8617333" timestamp="2019-01-29T07:55:17Z" uid="633013" user="Honning" version="1">
		<tag k="name" v="Storengen" />
		<tag k="place" v="farm" />
		<tag k="ssr:stedsnr" v="508899" />
	</node>
	<node changeset="66729381" id="6243755846" lat="59.4386139" lon="11.1202472" timestamp="2019-01-29T07:55:17Z" uid="633013" user="Honning" version="1">
		<tag k="alt_name" v="Bjerketvet" />
		<tag k="name" v="Bjørketvet" />
		<tag k="place" v="farm" />
		<tag k="ssr:stedsnr" v="508975" />
	</node>
	<node changeset="66729381" id="6243755847" lat="59.4448111" lon="10.9036389" timestamp="2019-01-29T07:55:17Z" uid="633013" user="Honning" version="1">
		<tag k="alt_name" v="Ros mellom" />
		<tag k="name" v="Mellom-Ros" />
		<tag k="place" v="farm" />
		<tag k="ssr:stedsnr" v="509731" />
	</node>
	<node changeset="66729381" id="6243755848" lat="59.4875472" lon="10.9060417" timestamp="2019-01-29T07:55:17Z" uid="633013" user="Honning" version="1">
		<tag k="name" v="Trudvang" />
		<tag k="place" v="farm" />
		<tag k="ssr:stedsnr" v="509739" />
	</node>
	<node changeset="66729381" id="6243755849" lat="59.4871889" lon="10.9592694" timestamp="2019-01-29T07:55:17Z" uid="633013" user="Honning" version="1">
		<tag k="name" v="Ås" />
		<tag k="place" v="farm" />
		<tag k="ssr:stedsnr" v="509772" />
	</node>
	<node changeset="66729381" id="6243755850" lat="59.4209472" lon="11.0400944" timestamp="2019-01-29T07:55:17Z" uid="633013" user="Honning" version="1">
		<tag k="alt_name" v="Vastvet øvre;Vastvedt øvre" />
		<tag k="name" v="Øvre Vastvet" />
		<tag k="place" v="farm" />
		<tag k="ssr:stedsnr" v="509810" />
	</node>
	<node changeset="66729381" id="6243755851" lat="59.4905528" lon="10.8683833" timestamp="2019-01-29T07:55:17Z" uid="633013" user="Honning" version="1">
		<tag k="name" v="Kjos ( Våler prestegård )" />
		<tag k="place" v="farm" />
		<tag k="ssr:stedsnr" v="510682" />
	</node>
	<node changeset="66729381" id="6243755852" lat="59.4921" lon="10.8743222" timestamp="2019-01-29T07:55:17Z" uid="633013" user="Honning" version="1">
		<tag k="name" v="Kirkebygda" />
		<tag k="place" v="village" />
		<tag k="ssr:stedsnr" v="513364" />
	</node>
	<node changeset="66729381" id="6243755853" lat="59.4947028" lon="10.8327139" timestamp="2019-01-29T07:55:17Z" uid="633013" user="Honning" version="1">
		<tag k="alt_name" v="Kåbbel" />
		<tag k="name" v="Kåbøl" />
		<tag k="old_name" v="Østre Kaabøl" />
		<tag k="place" v="farm" />
		<tag k="ssr:stedsnr" v="526104" />
	</node>
	<node changeset="66729381" id="6243755854" lat="59.4512056" lon="10.8351806" timestamp="2019-01-29T07:55:17Z" uid="633013" user="Honning" version="1">
		<tag k="name" v="Syverød" />
		<tag k="place" v="farm" />
		<tag k="ssr:stedsnr" v="537594" />
	</node>
	<node changeset="66729381" id="6243755855" lat="59.4580139" lon="11.0150361" timestamp="2019-01-29T07:55:17Z" uid="633013" user="Honning" version="1">
		<tag k="name" v="Bråte" />
		<tag k="place" v="farm" />
		<tag k="ssr:stedsnr" v="538087" />
	</node>
	<node changeset="66729381" id="6243755856" lat="59.4561694" lon="11.0116972" timestamp="2019-01-29T07:55:17Z" uid="633013" user="Honning" version="1">
		<tag k="alt_name" v="Bråte vestre" />
		<tag k="name" v="Vestre Bråte" />
		<tag k="place" v="farm" />
		<tag k="ssr:stedsnr" v="538091" />
	</node>
	<node changeset="66729381" id="6243755857" lat="59.4503722" lon="11.0200694" timestamp="2019-01-29T07:55:17Z" uid="633013" user="Honning" version="1">
		<tag k="alt_name" v="Sukke nordre" />
		<tag k="name" v="Nordre Sukke" />
		<tag k="place" v="farm" />
		<tag k="ssr:stedsnr" v="538103" />
	</node>
	<node changeset="66729381" id="6243755858" lat="59.4253639" lon="11.0207472" timestamp="2019-01-29T07:55:17Z" uid="633013" user="Honning" version="1">
		<tag k="name" v="Ingulstad" />
		<tag k="place" v="farm" />
		<tag k="ssr:stedsnr" v="538546" />
	</node>
	<node changeset="66729381" id="6243755859" lat="59.5182639" lon="10.9442639" timestamp="2019-01-29T07:55:17Z" uid="633013" user="Honning" version="1">
		<tag k="alt_name" v="Tveter" />
		<tag k="name" v="Tveiter" />
		<tag k="place" v="farm" />
		<tag k="ssr:stedsnr" v="543069" />
	</node>
	<node changeset="66729381" id="6243755860" lat="59.4395361" lon="11.1178167" timestamp="2019-01-29T07:55:17Z" uid="633013" user="Honning" version="1">
		<tag k="alt_name" v="Bjerketvedt;Bjerketvet" />
		<tag k="name" v="Bjørketvet" />
		<tag k="place" v="farm" />
		<tag k="ssr:stedsnr" v="548200" />
	</node>
	<node changeset="66729381" id="6243755861" lat="59.4143861" lon="11.0836528" timestamp="2019-01-29T07:55:18Z" uid="633013" user="Honning" version="1">
		<tag k="name" v="Langebråte" />
		<tag k="place" v="farm" />
		<tag k="ssr:stedsnr" v="548346" />
	</node>
	<node changeset="66729381" id="6243755862" lat="59.4531444" lon="10.8435056" timestamp="2019-01-29T07:55:18Z" uid="633013" user="Honning" version="1">
		<tag k="alt_name" v="Pålshus nordre" />
		<tag k="name" v="Nordre Paulshus" />
		<tag k="place" v="farm" />
		<tag k="ssr:stedsnr" v="548393" />
	</node>
	<node changeset="66729381" id="6243755863" lat="59.469625" lon="11.0016917" timestamp="2019-01-29T07:55:18Z" uid="633013" user="Honning" version="1">
		<tag k="name" v="Lunder" />
		<tag k="place" v="farm" />
		<tag k="ssr:stedsnr" v="548711" />
	</node>
	<node changeset="66729381" id="6243755864" lat="59.4689389" lon="10.9193639" timestamp="2019-01-29T07:55:18Z" uid="633013" user="Honning" version="1">
		<tag k="name" v="Lunder" />
		<tag k="place" v="farm" />
		<tag k="ssr:stedsnr" v="548718" />
	</node>
	<node changeset="66729381" id="6243755865" lat="59.4526778" lon="10.8926778" timestamp="2019-01-29T07:55:18Z" uid="633013" user="Honning" version="1">
		<tag k="alt_name" v="Bratterøddalen" />
		<tag k="name" v="Brattenga" />
		<tag k="place" v="farm" />
		<tag k="ssr:stedsnr" v="548722" />
	</node>
	<node changeset="66729381" id="6243755866" lat="59.4799833" lon="10.8553806" timestamp="2019-01-29T07:55:18Z" uid="633013" user="Honning" version="1">
		<tag k="name" v="Tangen" />
		<tag k="place" v="farm" />
		<tag k="ssr:stedsnr" v="549669" />
	</node>
	<node changeset="66729381" id="6243755867" lat="59.4830194" lon="10.8863472" timestamp="2019-01-29T07:55:18Z" uid="633013" user="Honning" version="1">
		<tag k="name" v="Vestland" />
		<tag k="place" v="farm" />
		<tag k="ssr:stedsnr" v="549699" />
	</node>
	<node changeset="66729381" id="6243755868" lat="59.523025" lon="10.9377778" timestamp="2019-01-29T07:55:18Z" uid="633013" user="Honning" version="1">
		<tag k="name" v="Bråten" />
		<tag k="place" v="isolated_dwelling" />
		<tag k="ssr:stedsnr" v="550012" />
	</node>
	<node changeset="66729381" id="6243755869" lat="59.5190583" lon="10.9367889" timestamp="2019-01-29T07:55:18Z" uid="633013" user="Honning" version="1">
		<tag k="alt_name" v="Høyden" />
		<tag k="name" v="Høgda" />
		<tag k="place" v="farm" />
		<tag k="ssr:stedsnr" v="550066" />
	</node>
	<node changeset="66729381" id="6243755870" lat="59.5245417" lon="10.8226694" timestamp="2019-01-29T07:55:18Z" uid="633013" user="Honning" version="1">
		<tag k="alt_name" v="Stensrød søndre" />
		<tag k="name" v="Søndre Stensrød" />
		<tag k="place" v="farm" />
		<tag k="ssr:stedsnr" v="567911" />
	</node>
	<node changeset="66729381" id="6243755871" lat="59.5079083" lon="10.9678194" timestamp="2019-01-29T07:55:18Z" uid="633013" user="Honning" version="1">
		<tag k="name" v="Belgeskogen" />
		<tag k="place" v="farm" />
		<tag k="ssr:stedsnr" v="567974" />
	</node>
	<node changeset="66729381" id="6243755872" lat="59.4207611" lon="11.0747278" timestamp="2019-01-29T07:55:18Z" uid="633013" user="Honning" version="1">
		<tag k="name" v="Østenrød" />
		<tag k="place" v="farm" />
		<tag k="ssr:stedsnr" v="568699" />
	</node>
	<node changeset="66729381" id="6243755873" lat="59.4719139" lon="10.9152139" timestamp="2019-01-29T07:55:18Z" uid="633013" user="Honning" version="1">
		<tag k="name" v="Navestadhytta" />
		<tag k="place" v="isolated_dwelling" />
		<tag k="ssr:stedsnr" v="569741" />
	</node>
	<node changeset="66729381" id="6243755874" lat="59.4520278" lon="11.0858806" timestamp="2019-01-29T07:55:18Z" uid="633013" user="Honning" version="1">
		<tag k="name" v="Tatermyr" />
		<tag k="place" v="locality" />
		<tag k="ssr:stedsnr" v="569766" />
	</node>
	<node changeset="66729381" id="6243755875" lat="59.5061333" lon="10.9580528" timestamp="2019-01-29T07:55:18Z" uid="633013" user="Honning" version="1">
		<tag k="name" v="Nygårdsbingen" />
		<tag k="place" v="locality" />
		<tag k="ssr:stedsnr" v="569802" />
	</node>
	<node changeset="66729381" id="6243755876" lat="59.462325" lon="10.810925" timestamp="2019-01-29T07:55:18Z" uid="633013" user="Honning" version="1">
		<tag k="name" v="Roan" />
		<tag k="place" v="farm" />
		<tag k="ssr:stedsnr" v="569829" />
	</node>
	<node changeset="66729381" id="6243755877" lat="59.499875" lon="10.8171194" timestamp="2019-01-29T07:55:18Z" uid="633013" user="Honning" version="1">
		<tag k="name" v="Koto" />
		<tag k="place" v="farm" />
		<tag k="ssr:stedsnr" v="569846" />
	</node>
	<node changeset="66729381" id="6243755878" lat="59.4843083" lon="10.9503111" timestamp="2019-01-29T07:55:18Z" uid="633013" user="Honning" version="1">
		<tag k="name" v="Nordli" />
		<tag k="place" v="farm" />
		<tag k="ssr:stedsnr" v="598114" />
	</node>
	<node changeset="66729381" id="6243755879" lat="59.4842556" lon="10.9168611" timestamp="2019-01-29T07:55:19Z" uid="633013" user="Honning" version="1">
		<tag k="name" v="Bjerke" />
		<tag k="place" v="farm" />
		<tag k="ssr:stedsnr" v="598604" />
	</node>
	<node changeset="66729381" id="6243755880" lat="59.4140361" lon="11.0135639" timestamp="2019-01-29T07:55:19Z" uid="633013" user="Honning" version="1">
		<tag k="name" v="Myre" />
		<tag k="place" v="farm" />
		<tag k="ssr:stedsnr" v="608337" />
	</node>
	<node changeset="66729381" id="6243755881" lat="59.4378111" lon="11.0529306" timestamp="2019-01-29T07:55:19Z" uid="633013" user="Honning" version="1">
		<tag k="alt_name" v="Rødsekk" />
		<tag k="name" v="Røsek" />
		<tag k="place" v="farm" />
		<tag k="ssr:stedsnr" v="608364" />
	</node>
	<node changeset="66729381" id="6243755882" lat="59.468075" lon="10.8363556" timestamp="2019-01-29T07:55:19Z" uid="633013" user="Honning" version="1">
		<tag k="name" v="Solheim" />
		<tag k="place" v="farm" />
		<tag k="ssr:stedsnr" v="608741" />
	</node>
	<node changeset="66729381" id="6243755883" lat="59.4590333" lon="11.0160278" timestamp="2019-01-29T07:55:19Z" uid="633013" user="Honning" version="1">
		<tag k="name" v="Bråte" />
		<tag k="place" v="farm" />
		<tag k="ssr:stedsnr" v="608777" />
	</node>
	<node changeset="68450085" id="6243755884" lat="59.4344674" lon="10.783737" timestamp="2019-03-23T17:14:55Z" uid="4198735" user="michalzz" version="2">
		<tag k="name" v="Sønsterød" />
		<tag k="place" v="farm" />
		<tag k="ssr:stedsnr" v="609352" />
	</node>
	<node changeset="66729381" id="6243755985" lat="59.4927" lon="11.0099611" timestamp="2019-01-29T07:55:19Z" uid="633013" user="Honning" version="1">
		<tag k="name" v="Ødemark" />
		<tag k="place" v="farm" />
		<tag k="ssr:stedsnr" v="609662" />
	</node>
	<node changeset="66729381" id="6243755986" lat="59.51775" lon="10.8157555" timestamp="2019-01-29T07:55:19Z" uid="633013" user="Honning" version="1">
		<tag k="name" v="Boslangen" />
		<tag k="place" v="farm" />
		<tag k="ssr:stedsnr" v="610053" />
	</node>
	<node changeset="66729381" id="6243755987" lat="59.4999222" lon="11.0472278" timestamp="2019-01-29T07:55:19Z" uid="633013" user="Honning" version="1">
		<tag k="name" v="Holter" />
		<tag k="place" v="farm" />
		<tag k="ssr:stedsnr" v="610096" />
	</node>
	<node changeset="66729381" id="6243755988" lat="59.5032611" lon="10.899275" timestamp="2019-01-29T07:55:19Z" uid="633013" user="Honning" version="1">
		<tag k="name" v="Holmen" />
		<tag k="place" v="farm" />
		<tag k="ssr:stedsnr" v="610106" />
	</node>
	<node changeset="66729381" id="6243755989" lat="59.5012333" lon="10.8966861" timestamp="2019-01-29T07:55:19Z" uid="633013" user="Honning" version="1">
		<tag k="alt_name" v="Bredengen" />
		<tag k="name" v="Breidenga" />
		<tag k="place" v="farm" />
		<tag k="ssr:stedsnr" v="610107" />
	</node>
	<node changeset="66765543" id="6243755990" lat="59.4973028" lon="10.8402194" timestamp="2019-01-30T10:27:53Z" uid="633013" user="Honning" version="2">
		<tag k="name" v="Torsheim" />
		<tag k="place" v="farm" />
		<tag k="ssr:stedsnr" v="629895" />
	</node>
	<node changeset="66729381" id="6243755991" lat="59.4969222" lon="10.8347194" timestamp="2019-01-29T07:55:19Z" uid="633013" user="Honning" version="1">
		<tag k="alt_name" v="Kåbbel nordre" />
		<tag k="name" v="Nordre Kåbbel" />
		<tag k="place" v="farm" />
		<tag k="ssr:stedsnr" v="629897" />
	</node>
	<node changeset="66729381" id="6243755992" lat="59.489775" lon="10.9180305" timestamp="2019-01-29T07:55:19Z" uid="633013" user="Honning" version="1">
		<tag k="name" v="Skogly" />
		<tag k="place" v="farm" />
		<tag k="ssr:stedsnr" v="629933" />
	</node>
	<node changeset="66729381" id="6243755993" lat="59.444225" lon="10.8543555" timestamp="2019-01-29T07:55:19Z" uid="633013" user="Honning" version="1">
		<tag k="alt_name" v="Jonsrød søndre" />
		<tag k="name" v="Søndre Jonsrød" />
		<tag k="place" v="farm" />
		<tag k="ssr:stedsnr" v="630819" />
	</node>
	<node changeset="66729381" id="6243755994" lat="59.4424444" lon="10.84885" timestamp="2019-01-29T07:55:19Z" uid="633013" user="Honning" version="1">
		<tag k="name" v="Bjørnerød" />
		<tag k="place" v="farm" />
		<tag k="ssr:stedsnr" v="658541" />
	</node>
	<node changeset="66729381" id="6243755995" lat="59.44815" lon="11.0196722" timestamp="2019-01-29T07:55:19Z" uid="633013" user="Honning" version="1">
		<tag k="alt_name" v="Sukke søndre" />
		<tag k="name" v="Søndre Sukke" />
		<tag k="place" v="farm" />
		<tag k="ssr:stedsnr" v="659112" />
	</node>
	<node changeset="66729381" id="6243755996" lat="59.4293667" lon="10.995175" timestamp="2019-01-29T07:55:20Z" uid="633013" user="Honning" version="1">
		<tag k="name" v="Sæby" />
		<tag k="place" v="farm" />
		<tag k="ssr:stedsnr" v="659522" />
	</node>
	<node changeset="66729381" id="6243755997" lat="59.4865778" lon="10.8726306" timestamp="2019-01-29T07:55:20Z" uid="633013" user="Honning" version="1">
		<tag k="alt_name" v="Berg vestre" />
		<tag k="name" v="Vestre Berg" />
		<tag k="place" v="farm" />
		<tag k="ssr:stedsnr" v="660639" />
	</node>
	<node changeset="66729381" id="6243755998" lat="59.4218528" lon="11.0677222" timestamp="2019-01-29T07:55:20Z" uid="633013" user="Honning" version="1">
		<tag k="name" v="Furuset" />
		<tag k="place" v="farm" />
		<tag k="ssr:stedsnr" v="669315" />
	</node>
	<node changeset="66729381" id="6243755999" lat="59.4246778" lon="11.0236445" timestamp="2019-01-29T07:55:20Z" uid="633013" user="Honning" version="1">
		<tag k="alt_name" v="Onsåker" />
		<tag k="name" v="Onsaker" />
		<tag k="place" v="farm" />
		<tag k="ssr:stedsnr" v="669320" />
	</node>
	<node changeset="66729381" id="6243756000" lat="59.4367611" lon="11.0365222" timestamp="2019-01-29T07:55:20Z" uid="633013" user="Honning" version="1">
		<tag k="name" v="Myrvoll" />
		<tag k="place" v="farm" />
		<tag k="ssr:stedsnr" v="669336" />
	</node>
	<node changeset="66729381" id="6243756001" lat="59.4687056" lon="10.7794667" timestamp="2019-01-29T07:55:20Z" uid="633013" user="Honning" version="1">
		<tag k="name" v="Gjestvang" />
		<tag k="place" v="locality" />
		<tag k="ssr:stedsnr" v="669714" />
	</node>
	<node changeset="66729381" id="6243756002" lat="59.4739639" lon="10.8627" timestamp="2019-01-29T07:55:20Z" uid="633013" user="Honning" version="1">
		<tag k="name" v="Skallerød" />
		<tag k="place" v="farm" />
		<tag k="ssr:stedsnr" v="669722" />
	</node>
	<node changeset="66729381" id="6243756003" lat="59.4916583" lon="10.8746417" timestamp="2019-01-29T07:55:20Z" uid="633013" user="Honning" version="1">
		<tag k="name" v="Prestegården" />
		<tag k="place" v="farm" />
		<tag k="ssr:stedsnr" v="670685" />
	</node>
	<node changeset="66729381" id="6243756004" lat="59.4812806" lon="10.9029028" timestamp="2019-01-29T07:55:20Z" uid="633013" user="Honning" version="1">
		<tag k="name" v="Hauger" />
		<tag k="place" v="farm" />
		<tag k="ssr:stedsnr" v="670704" />
	</node>
	<node changeset="66729381" id="6243756005" lat="59.5241139" lon="10.8219667" timestamp="2019-01-29T07:55:20Z" uid="633013" user="Honning" version="1">
		<tag k="name" v="Steinsrud" />
		<tag k="place" v="farm" />
		<tag k="ssr:stedsnr" v="671008" />
	</node>
	<node changeset="66729381" id="6243756006" lat="59.51405" lon="10.8100444" timestamp="2019-01-29T07:55:20Z" uid="633013" user="Honning" version="1">
		<tag k="alt_name" v="Gylder nordre" />
		<tag k="name" v="Nordre Gylder" />
		<tag k="place" v="farm" />
		<tag k="ssr:stedsnr" v="671046" />
	</node>
	<node changeset="66729381" id="6243756007" lat="59.5095528" lon="10.8118889" timestamp="2019-01-29T07:55:20Z" uid="633013" user="Honning" version="1">
		<tag k="alt_name" v="Gylder, østre;Gylder østre" />
		<tag k="name" v="Østre Gylder" />
		<tag k="place" v="farm" />
		<tag k="ssr:stedsnr" v="671045" />
	</node>
	<node changeset="66729381" id="6243756008" lat="59.5111278" lon="10.8569305" timestamp="2019-01-29T07:55:20Z" uid="633013" user="Honning" version="1">
		<tag k="name" v="Fjellstad" />
		<tag k="place" v="farm" />
		<tag k="ssr:stedsnr" v="671049" />
	</node>
	<node changeset="66729381" id="6243756009" lat="59.5148306" lon="10.7890333" timestamp="2019-01-29T07:55:20Z" uid="633013" user="Honning" version="1">
		<tag k="alt_name" v="Kåter østre;Kåter" />
		<tag k="name" v="Østre Kåter" />
		<tag k="place" v="farm" />
		<tag k="ssr:stedsnr" v="671052" />
	</node>
	<node changeset="66729381" id="6243756010" lat="59.5225139" lon="10.8180972" timestamp="2019-01-29T07:55:20Z" uid="633013" user="Honning" version="1">
		<tag k="alt_name" v="Høyås" />
		<tag k="name" v="Ødegården" />
		<tag k="place" v="farm" />
		<tag k="ssr:stedsnr" v="671053" />
	</node>
	<node changeset="66729381" id="6243756011" lat="59.5022583" lon="10.9765361" timestamp="2019-01-29T07:55:20Z" uid="633013" user="Honning" version="1">
		<tag k="name" v="Kastet" />
		<tag k="place" v="farm" />
		<tag k="ssr:stedsnr" v="671092" />
	</node>
	<node changeset="66729381" id="6243756012" lat="59.4771417" lon="10.8540472" timestamp="2019-01-29T07:55:21Z" uid="633013" user="Honning" version="1">
		<tag k="name" v="Lødeng" />
		<tag k="place" v="farm" />
		<tag k="ssr:stedsnr" v="671728" />
	</node>
	<node changeset="66729381" id="6243756013" lat="59.4610472" lon="10.9988194" timestamp="2019-01-29T07:55:21Z" uid="633013" user="Honning" version="1">
		<tag k="name" v="Granli" />
		<tag k="place" v="farm" />
		<tag k="ssr:stedsnr" v="691831" />
	</node>
	<node changeset="66729381" id="6243756014" lat="59.4173639" lon="10.9883861" timestamp="2019-01-29T07:55:21Z" uid="633013" user="Honning" version="1">
		<tag k="name" v="Bustein" />
		<tag k="place" v="farm" />
		<tag k="ssr:stedsnr" v="720531" />
	</node>
	<node changeset="66729381" id="6243756015" lat="59.4112917" lon="11.0325972" timestamp="2019-01-29T07:55:21Z" uid="633013" user="Honning" version="1">
		<tag k="name" v="Ekornmyr" />
		<tag k="place" v="farm" />
		<tag k="ssr:stedsnr" v="720543" />
	</node>
	<node changeset="66729381" id="6243756016" lat="59.49815" lon="10.9958" timestamp="2019-01-29T07:55:21Z" uid="633013" user="Honning" version="1">
		<tag k="name" v="Sperredalen" />
		<tag k="place" v="farm" />
		<tag k="ssr:stedsnr" v="731637" />
	</node>
	<node changeset="66729381" id="6243756017" lat="59.4958528" lon="11.0535889" timestamp="2019-01-29T07:55:21Z" uid="633013" user="Honning" version="1">
		<tag k="name" v="Bergsjø" />
		<tag k="place" v="farm" />
		<tag k="ssr:stedsnr" v="731641" />
	</node>
	<node changeset="66729381" id="6243756018" lat="59.4833806" lon="10.8718889" timestamp="2019-01-29T07:55:21Z" uid="633013" user="Honning" version="1">
		<tag k="alt_name" v="Flesberg;Flesberg søndre" />
		<tag k="name" v="Søndre Flesberg" />
		<tag k="place" v="farm" />
		<tag k="ssr:stedsnr" v="731694" />
	</node>
	<node changeset="66729381" id="6243756019" lat="59.4167" lon="11.098625" timestamp="2019-01-29T07:55:21Z" uid="633013" user="Honning" version="1">
		<tag k="name" v="Rusvik" />
		<tag k="place" v="locality" />
		<tag k="ssr:stedsnr" v="730117" />
	</node>
	<node changeset="66729381" id="6243756020" lat="59.4039194" lon="11.0059889" timestamp="2019-01-29T07:55:21Z" uid="633013" user="Honning" version="1">
		<tag k="name" v="Fjellet" />
		<tag k="place" v="farm" />
		<tag k="ssr:stedsnr" v="730306" />
	</node>
	<node changeset="66729381" id="6243756021" lat="59.421" lon="11.0752472" timestamp="2019-01-29T07:55:21Z" uid="633013" user="Honning" version="1">
		<tag k="name" v="Østenrød" />
		<tag k="place" v="farm" />
		<tag k="ssr:stedsnr" v="730324" />
	</node>
	<node changeset="66729381" id="6243756022" lat="59.4352389" lon="11.0864" timestamp="2019-01-29T07:55:21Z" uid="633013" user="Honning" version="1">
		<tag k="alt_name" v="Brokhaug" />
		<tag k="name" v="Brokhaugen" />
		<tag k="place" v="farm" />
		<tag k="ssr:stedsnr" v="730358" />
	</node>
	<node changeset="66729381" id="6243756023" lat="59.4354361" lon="10.9646889" timestamp="2019-01-29T07:55:21Z" uid="633013" user="Honning" version="1">
		<tag k="name" v="Laksebekk" />
		<tag k="place" v="isolated_dwelling" />
		<tag k="ssr:stedsnr" v="730362" />
	</node>
	<node changeset="66729381" id="6243756024" lat="59.4659861" lon="11.0223889" timestamp="2019-01-29T07:55:21Z" uid="633013" user="Honning" version="1">
		<tag k="name" v="Bråtegarden" />
		<tag k="place" v="farm" />
		<tag k="ssr:stedsnr" v="730781" />
	</node>
	<node changeset="66729381" id="6243756025" lat="59.4527472" lon="10.795375" timestamp="2019-01-29T07:55:21Z" uid="633013" user="Honning" version="1">
		<tag k="alt_name" v="Veker" />
		<tag k="name" v="Hveker" />
		<tag k="place" v="farm" />
		<tag k="ssr:stedsnr" v="730783" />
	</node>
	<node changeset="66729381" id="6243756026" lat="59.5360972" lon="10.9449667" timestamp="2019-01-29T07:55:21Z" uid="633013" user="Honning" version="1">
		<tag k="name" v="Slåttemyr" />
		<tag k="place" v="isolated_dwelling" />
		<tag k="ssr:stedsnr" v="732031" />
	</node>
	<node changeset="66729381" id="6243756027" lat="59.509925" lon="10.8325111" timestamp="2019-01-29T07:55:21Z" uid="633013" user="Honning" version="1">
		<tag k="alt_name" v="Såstad;Såstad nordre" />
		<tag k="name" v="Nordre Såstad" />
		<tag k="place" v="farm" />
		<tag k="ssr:stedsnr" v="732047" />
	</node>
	<node changeset="66729381" id="6243756028" lat="59.5113972" lon="10.8106806" timestamp="2019-01-29T07:55:21Z" uid="633013" user="Honning" version="1">
		<tag k="alt_name" v="Gylder, m;Gylder mellem" />
		<tag k="name" v="Mellom-Gylder" />
		<tag k="place" v="farm" />
		<tag k="ssr:stedsnr" v="732048" />
	</node>
	<node changeset="66729381" id="6243756029" lat="59.5123472" lon="10.9105361" timestamp="2019-01-29T07:55:22Z" uid="633013" user="Honning" version="1">
		<tag k="alt_name" v="Veidal;Veidal østre" />
		<tag k="name" v="Østre Veidal" />
		<tag k="place" v="farm" />
		<tag k="ssr:stedsnr" v="732051" />
	</node>
	<node changeset="66729381" id="6243756030" lat="59.5167833" lon="10.8325333" timestamp="2019-01-29T07:55:22Z" uid="633013" user="Honning" version="1">
		<tag k="alt_name" v="Flakstad mellom" />
		<tag k="name" v="Mellom-Flakestad" />
		<tag k="old_name" v="Flakestad mellem" />
		<tag k="place" v="farm" />
		<tag k="ssr:stedsnr" v="732065" />
	</node>
	<node changeset="66729381" id="6243756031" lat="59.5018028" lon="11.0105389" timestamp="2019-01-29T07:55:22Z" uid="633013" user="Honning" version="1">
		<tag k="alt_name" v="Bråten" />
		<tag k="name" v="Fløterbråten" />
		<tag k="place" v="farm" />
		<tag k="ssr:stedsnr" v="732104" />
	</node>
</osm>
