<?xml version="1.0" encoding="UTF-8"?>
<osm generator="osmapis" version="0.6">
	<node id="-754816" lat="69.1919278916" lon="18.0006754443">
		<tag k="name" v="Klauva" />
		<tag k="ssr:date" v="2019-05-30" />
		<tag k="ssr:gruppe" v="veg" />
		<tag k="ssr:hovedgruppe" v="infrastruktur" />
		<tag k="ssr:stedsnr" v="1010762" />
		<tag k="ssr:type" v="adressenavn" />
	</node>
	<node id="-754815" lat="69.4597006169" lon="18.1854626887">
		<tag k="name" v="Sørvika" />
		<tag k="ssr:date" v="2019-05-30" />
		<tag k="ssr:gruppe" v="veg" />
		<tag k="ssr:hovedgruppe" v="infrastruktur" />
		<tag k="ssr:stedsnr" v="1010759" />
		<tag k="ssr:type" v="adressenavn" />
	</node>
	<node id="-754814" lat="69.3183485636" lon="17.7800251928">
		<tag k="name" v="Geitvatnet" />
		<tag k="ssr:date" v="2019-05-30" />
		<tag k="ssr:gruppe" v="veg" />
		<tag k="ssr:hovedgruppe" v="infrastruktur" />
		<tag k="ssr:stedsnr" v="1010753" />
		<tag k="ssr:type" v="adressenavn" />
	</node>
	<node id="-754813" lat="69.2381794124" lon="18.1443167634">
		<tag k="name" v="Finnfjordvatnet" />
		<tag k="ssr:date" v="2019-05-30" />
		<tag k="ssr:gruppe" v="veg" />
		<tag k="ssr:hovedgruppe" v="infrastruktur" />
		<tag k="ssr:stedsnr" v="1010749" />
		<tag k="ssr:type" v="adressenavn" />
	</node>
	<node id="-754812" lat="69.3911337111" lon="18.316574509">
		<tag k="name" v="Langbakkvatnet" />
		<tag k="ssr:date" v="2019-05-30" />
		<tag k="ssr:gruppe" v="veg" />
		<tag k="ssr:hovedgruppe" v="infrastruktur" />
		<tag k="ssr:stedsnr" v="1010744" />
		<tag k="ssr:type" v="adressenavn" />
	</node>
	<node id="-754811" lat="69.2856040347" lon="17.8495320483">
		<tag k="name" v="Grasmyrskogvatnet" />
		<tag k="ssr:date" v="2019-05-30" />
		<tag k="ssr:gruppe" v="veg" />
		<tag k="ssr:hovedgruppe" v="infrastruktur" />
		<tag k="ssr:stedsnr" v="1010738" />
		<tag k="ssr:type" v="adressenavn" />
	</node>
	<node id="-754810" lat="69.2503236882" lon="17.9375807253">
		<tag k="name" v="Storvatnet" />
		<tag k="ssr:date" v="2019-05-30" />
		<tag k="ssr:gruppe" v="veg" />
		<tag k="ssr:hovedgruppe" v="infrastruktur" />
		<tag k="ssr:stedsnr" v="1010736" />
		<tag k="ssr:type" v="adressenavn" />
	</node>
	<node id="-756473" lat="69.357000001" lon="18.1132194305">
		<tag k="name" v="Bukkskinn, Øvre" />
		<tag k="ssr:date" v="2016-05-11" />
		<tag k="ssr:gruppe" v="navigasjon" />
		<tag k="ssr:hovedgruppe" v="infrastruktur" />
		<tag k="ssr:stedsnr" v="693966" />
		<tag k="ssr:type" v="fyrlykt" />
	</node>
	<node id="-754808" lat="69.5702538104" lon="17.5570284918">
		<tag k="name" v="Breivika" />
		<tag k="ssr:date" v="2019-05-30" />
		<tag k="ssr:gruppe" v="veg" />
		<tag k="ssr:hovedgruppe" v="infrastruktur" />
		<tag k="ssr:stedsnr" v="1010719" />
		<tag k="ssr:type" v="adressenavn" />
	</node>
	<node id="-754807" lat="69.2377440784" lon="18.0360876224">
		<tag k="name" v="Orreveien" />
		<tag k="ssr:date" v="2019-05-30" />
		<tag k="ssr:gruppe" v="veg" />
		<tag k="ssr:hovedgruppe" v="infrastruktur" />
		<tag k="ssr:stedsnr" v="1010711" />
		<tag k="ssr:type" v="adressenavn" />
	</node>
	<node id="-754806" lat="69.5787797288" lon="17.8480950362">
		<tag k="name" v="Lyngvær" />
		<tag k="ssr:date" v="2019-05-30" />
		<tag k="ssr:gruppe" v="veg" />
		<tag k="ssr:hovedgruppe" v="infrastruktur" />
		<tag k="ssr:stedsnr" v="1010708" />
		<tag k="ssr:type" v="adressenavn" />
	</node>
	<node id="-754805" lat="69.5722402464" lon="17.8898709374">
		<tag k="name" v="Plogsundet" />
		<tag k="ssr:date" v="2019-05-30" />
		<tag k="ssr:gruppe" v="veg" />
		<tag k="ssr:hovedgruppe" v="infrastruktur" />
		<tag k="ssr:stedsnr" v="1010705" />
		<tag k="ssr:type" v="adressenavn" />
	</node>
	<node id="-754804" lat="69.5143284555" lon="17.7148492837">
		<tag k="name" v="Trælvika" />
		<tag k="ssr:date" v="2019-05-30" />
		<tag k="ssr:gruppe" v="veg" />
		<tag k="ssr:hovedgruppe" v="infrastruktur" />
		<tag k="ssr:stedsnr" v="1010702" />
		<tag k="ssr:type" v="adressenavn" />
	</node>
	<node id="-754803" lat="69.5932155637" lon="17.8363399603">
		<tag k="name" v="Hekkinga" />
		<tag k="ssr:date" v="2019-05-30" />
		<tag k="ssr:gruppe" v="veg" />
		<tag k="ssr:hovedgruppe" v="infrastruktur" />
		<tag k="ssr:stedsnr" v="1010699" />
		<tag k="ssr:type" v="adressenavn" />
	</node>
	<node id="-756082" lat="69.6015722218" lon="17.8297583252">
		<tag k="name" v="Hekkingen" />
		<tag k="old_name" v="Hekkingen fyr" />
		<tag k="ssr:date" v="2016-05-10" />
		<tag k="ssr:gruppe" v="navigasjon" />
		<tag k="ssr:hovedgruppe" v="infrastruktur" />
		<tag k="ssr:stedsnr" v="564797" />
		<tag k="ssr:type" v="fyrstasjon" />
	</node>
	<node id="-754801" lat="69.3704858796" lon="18.0696289101">
		<tag k="name" v="Hestøya" />
		<tag k="ssr:date" v="2019-05-30" />
		<tag k="ssr:gruppe" v="veg" />
		<tag k="ssr:hovedgruppe" v="infrastruktur" />
		<tag k="ssr:stedsnr" v="1010693" />
		<tag k="ssr:type" v="adressenavn" />
	</node>
	<node id="-754800" lat="69.5642969023" lon="17.862330137">
		<tag k="name" v="Giska" />
		<tag k="ssr:date" v="2019-05-30" />
		<tag k="ssr:gruppe" v="veg" />
		<tag k="ssr:hovedgruppe" v="infrastruktur" />
		<tag k="ssr:stedsnr" v="1010690" />
		<tag k="ssr:type" v="adressenavn" />
	</node>
	<node id="-756207" lat="69.5573972268" lon="17.5866583206">
		<tag k="name" v="Øyfjordvær" />
		<tag k="ssr:date" v="2019-05-30" />
		<tag k="ssr:gruppe" v="veg" />
		<tag k="ssr:hovedgruppe" v="infrastruktur" />
		<tag k="ssr:stedsnr" v="606779" />
		<tag k="ssr:type" v="adressenavn" />
	</node>
	<node id="-755822" lat="69.5565805588" lon="17.5873277669">
		<tag k="name" v="Toften" />
		<tag k="ssr:date" v="2019-05-30" />
		<tag k="ssr:gruppe" v="veg" />
		<tag k="ssr:hovedgruppe" v="infrastruktur" />
		<tag k="ssr:stedsnr" v="485744" />
		<tag k="ssr:type" v="adressenavn" />
	</node>
	<node id="-755821" lat="69.5977833312" lon="17.6876388744">
		<tag k="name" v="Nøringen" />
		<tag k="ssr:date" v="2016-05-10" />
		<tag k="ssr:gruppe" v="navigasjon" />
		<tag k="ssr:hovedgruppe" v="infrastruktur" />
		<tag k="ssr:stedsnr" v="481966" />
		<tag k="ssr:type" v="lanterne" />
	</node>
	<node id="-754796" lat="69.3431569592" lon="18.0270394378">
		<tag k="name" v="Eggøya" />
		<tag k="ssr:date" v="2019-05-30" />
		<tag k="ssr:gruppe" v="veg" />
		<tag k="ssr:hovedgruppe" v="infrastruktur" />
		<tag k="ssr:stedsnr" v="1010678" />
		<tag k="ssr:type" v="adressenavn" />
	</node>
	<node id="-754795" lat="69.4113378557" lon="17.7336382775">
		<tag k="name" v="Helvetesdalen" />
		<tag k="ssr:date" v="2019-05-30" />
		<tag k="ssr:gruppe" v="veg" />
		<tag k="ssr:hovedgruppe" v="infrastruktur" />
		<tag k="ssr:stedsnr" v="1010675" />
		<tag k="ssr:type" v="adressenavn" />
	</node>
	<node id="-754794" lat="69.2064240289" lon="18.1191071114">
		<tag k="name" v="Reinelvveien" />
		<tag k="ssr:date" v="2019-05-30" />
		<tag k="ssr:gruppe" v="veg" />
		<tag k="ssr:hovedgruppe" v="infrastruktur" />
		<tag k="ssr:stedsnr" v="1010645" />
		<tag k="ssr:type" v="adressenavn" />
	</node>
	<node id="-756837" lat="69.5981361129" lon="17.6849638983">
		<tag k="name" v="Nøringen lykt" />
		<tag k="ssr:date" v="2016-05-11" />
		<tag k="ssr:gruppe" v="navigasjon" />
		<tag k="ssr:hovedgruppe" v="infrastruktur" />
		<tag k="ssr:stedsnr" v="837128" />
		<tag k="ssr:type" v="fyrlykt" />
	</node>
	<node id="-755043" lat="69.3672583354" lon="18.4990305553">
		<tag k="name" v="Sultindvikneset" />
		<tag k="ssr:date" v="2016-05-10" />
		<tag k="ssr:gruppe" v="navigasjon" />
		<tag k="ssr:hovedgruppe" v="infrastruktur" />
		<tag k="ssr:stedsnr" v="79675" />
		<tag k="ssr:type" v="fyrlykt" />
	</node>
	<node id="-754394" lat="69.2991722251" lon="17.9765583269">
		<tag k="name" v="Søre Leiknesøyra" />
		<tag k="ssr:date" v="2016-05-10" />
		<tag k="ssr:gruppe" v="navigasjon" />
		<tag k="ssr:hovedgruppe" v="infrastruktur" />
		<tag k="ssr:stedsnr" v="332979" />
		<tag k="ssr:type" v="fyrlykt" />
	</node>
	<node id="-757209" lat="68.4849327361" lon="16.2297866207">
		<tag k="fixme" v="multiple name tags, choose one and add the other to alt_name" />
		<tag k="name" v="Nord-Noreg;Nord-Norge" />
		<tag k="ssr:date" v="2017-05-18" />
		<tag k="ssr:gruppe" v="administrativeIndelinger" />
		<tag k="ssr:hovedgruppe" v="offentligAdministrasjon" />
		<tag k="ssr:stedsnr" v="976106" />
		<tag k="ssr:type" v="annenAdministrativInndeling" />
	</node>
	<node id="-754809" lat="69.532503352" lon="17.7804528379">
		<tag k="name" v="Baltestadvær" />
		<tag k="ssr:date" v="2019-05-30" />
		<tag k="ssr:gruppe" v="veg" />
		<tag k="ssr:hovedgruppe" v="infrastruktur" />
		<tag k="ssr:stedsnr" v="1010733" />
		<tag k="ssr:type" v="adressenavn" />
	</node>
	<node id="-756818" lat="69.2409611134" lon="17.9714305432">
		<tag k="name" v="Bjørnhiskjær" />
		<tag k="ssr:date" v="2016-05-11" />
		<tag k="ssr:gruppe" v="navigasjon" />
		<tag k="ssr:hovedgruppe" v="infrastruktur" />
		<tag k="ssr:stedsnr" v="818509" />
		<tag k="ssr:type" v="fyrlykt" />
	</node>
	<node id="-754329" lat="69.3775277808" lon="18.093991661">
		<tag k="name" v="Slettneset" />
		<tag k="ssr:date" v="2016-05-10" />
		<tag k="ssr:gruppe" v="navigasjon" />
		<tag k="ssr:hovedgruppe" v="infrastruktur" />
		<tag k="ssr:stedsnr" v="321649" />
		<tag k="ssr:type" v="fyrlykt" />
	</node>
	<node id="-754895" lat="69.3616944478" lon="18.0932222145">
		<tag k="name" v="Vardneset" />
		<tag k="ssr:date" v="2016-05-10" />
		<tag k="ssr:gruppe" v="navigasjon" />
		<tag k="ssr:hovedgruppe" v="infrastruktur" />
		<tag k="ssr:stedsnr" v="25508" />
		<tag k="ssr:type" v="fyrlykt" />
	</node>
	<node id="-755279" lat="69.2424333323" lon="17.9654360964">
		<tag k="name" v="Gisundet bru" />
		<tag k="ssr:date" v="2016-05-10" />
		<tag k="ssr:gruppe" v="navigasjon" />
		<tag k="ssr:hovedgruppe" v="infrastruktur" />
		<tag k="ssr:stedsnr" v="150964" />
		<tag k="ssr:type" v="fyrlykt" />
	</node>
	<node id="-755272" lat="69.5147611076" lon="17.9396444467">
		<tag k="name" v="Stønesbotn" />
		<tag k="ssr:date" v="2016-05-10" />
		<tag k="ssr:gruppe" v="navigasjon" />
		<tag k="ssr:hovedgruppe" v="infrastruktur" />
		<tag k="ssr:stedsnr" v="146511" />
		<tag k="ssr:type" v="fyrlykt" />
	</node>
	<node id="-755266" lat="69.5900944409" lon="17.8526027656">
		<tag k="name" v="Hekkingsundet" />
		<tag k="old_name" v="Hekkingsund lykt" />
		<tag k="ssr:date" v="2016-05-10" />
		<tag k="ssr:gruppe" v="navigasjon" />
		<tag k="ssr:hovedgruppe" v="infrastruktur" />
		<tag k="ssr:stedsnr" v="146273" />
		<tag k="ssr:type" v="fyrlykt" />
	</node>
	<node id="-754361" lat="69.4433194442" lon="18.3700472223">
		<tag k="name" v="Klavikneset" />
		<tag k="old_name" v="Kravikneset" />
		<tag k="ssr:date" v="2016-05-10" />
		<tag k="ssr:gruppe" v="navigasjon" />
		<tag k="ssr:hovedgruppe" v="infrastruktur" />
		<tag k="ssr:stedsnr" v="322664" />
		<tag k="ssr:type" v="fyrlykt" />
	</node>
	<node id="-756285" lat="69.3138638867" lon="17.9851833256">
		<tag k="name" v="Nordre Leiknesøyra" />
		<tag k="ssr:date" v="2016-05-10" />
		<tag k="ssr:gruppe" v="navigasjon" />
		<tag k="ssr:hovedgruppe" v="infrastruktur" />
		<tag k="ssr:stedsnr" v="635874" />
		<tag k="ssr:type" v="fyrlykt" />
	</node>
	<node id="-756282" lat="69.2396638848" lon="17.9628277755">
		<tag k="name" v="Bjørnhiskjerboen" />
		<tag k="ssr:date" v="2016-05-10" />
		<tag k="ssr:gruppe" v="navigasjon" />
		<tag k="ssr:hovedgruppe" v="infrastruktur" />
		<tag k="ssr:stedsnr" v="635360" />
		<tag k="ssr:type" v="fyrlykt" />
	</node>
	<node id="-755769" lat="69.2311083368" lon="17.9873861037">
		<tag k="name" v="Lenvik kommune" />
		<tag k="ssr:date" v="2016-05-10" />
		<tag k="ssr:gruppe" v="administrativeIndelinger" />
		<tag k="ssr:hovedgruppe" v="offentligAdministrasjon" />
		<tag k="ssr:stedsnr" v="450694" />
		<tag k="ssr:type" v="kommune" />
	</node>
	<node id="-755505" lat="69.2280222261" lon="17.9708194357">
		<tag k="name" v="Finnsnes" />
		<tag k="ssr:date" v="2016-05-10" />
		<tag k="ssr:gruppe" v="navigasjon" />
		<tag k="ssr:hovedgruppe" v="infrastruktur" />
		<tag k="ssr:stedsnr" v="211494" />
		<tag k="ssr:type" v="fyrlykt" />
	</node>
	<node id="-754802" lat="69.397094593" lon="17.8508187021">
		<tag k="name" v="Ellaheimlia" />
		<tag k="ssr:date" v="2019-05-30" />
		<tag k="ssr:gruppe" v="veg" />
		<tag k="ssr:hovedgruppe" v="infrastruktur" />
		<tag k="ssr:stedsnr" v="1010696" />
		<tag k="ssr:type" v="adressenavn" />
	</node>
	<node id="-755623" lat="69.1769305597" lon="17.9572833343">
		<tag k="name" v="Klauva" />
		<tag k="ssr:date" v="2016-05-10" />
		<tag k="ssr:gruppe" v="navigasjon" />
		<tag k="ssr:hovedgruppe" v="infrastruktur" />
		<tag k="ssr:stedsnr" v="261471" />
		<tag k="ssr:type" v="fyrlykt" />
	</node>
	<node id="-754552" lat="69.600816666" lon="17.4929249938">
		<tag k="name" v="Kjølva" />
		<tag k="ssr:date" v="2016-05-10" />
		<tag k="ssr:gruppe" v="navigasjon" />
		<tag k="ssr:hovedgruppe" v="infrastruktur" />
		<tag k="ssr:stedsnr" v="382729" />
		<tag k="ssr:type" v="fyrlykt" />
	</node>
	<node id="-756257" lat="69.5846138859" lon="17.8635027732">
		<tag k="name" v="Langskjær" />
		<tag k="old_name" v="Langskjer;Langskjæret lykt" />
		<tag k="ssr:date" v="2016-05-10" />
		<tag k="ssr:gruppe" v="navigasjon" />
		<tag k="ssr:hovedgruppe" v="infrastruktur" />
		<tag k="ssr:stedsnr" v="625788" />
		<tag k="ssr:type" v="fyrlykt" />
	</node>
	<node id="-754591" lat="69.2696527785" lon="17.9745833315">
		<tag k="name" v="Trollvikgrunnen" />
		<tag k="ssr:date" v="2016-05-10" />
		<tag k="ssr:gruppe" v="navigasjon" />
		<tag k="ssr:hovedgruppe" v="infrastruktur" />
		<tag k="ssr:stedsnr" v="394889" />
		<tag k="ssr:type" v="fyrlykt" />
	</node>
	<node id="-755866" lat="69.3531972189" lon="18.1015444363">
		<tag k="name" v="Bukkskinn, Nedre" />
		<tag k="old_name" v="Bukkeskinn, nedre" />
		<tag k="ssr:date" v="2016-05-10" />
		<tag k="ssr:gruppe" v="navigasjon" />
		<tag k="ssr:hovedgruppe" v="infrastruktur" />
		<tag k="ssr:stedsnr" v="504724" />
		<tag k="ssr:type" v="fyrlykt" />
	</node>
	<node id="-754799" lat="69.5128495149" lon="17.9416938199">
		<tag k="name" v="Gavlen" />
		<tag k="ssr:date" v="2019-05-30" />
		<tag k="ssr:gruppe" v="veg" />
		<tag k="ssr:hovedgruppe" v="infrastruktur" />
		<tag k="ssr:stedsnr" v="1010687" />
		<tag k="ssr:type" v="adressenavn" />
	</node>
	<node id="-756247" lat="69.4566805556" lon="18.1333833267">
		<tag k="name" v="Rødbergsodden" />
		<tag k="ssr:date" v="2016-05-10" />
		<tag k="ssr:gruppe" v="navigasjon" />
		<tag k="ssr:hovedgruppe" v="infrastruktur" />
		<tag k="ssr:stedsnr" v="625626" />
		<tag k="ssr:type" v="fyrlykt" />
	</node>
	<node id="-754585" lat="69.23662778" lon="17.9566444302">
		<tag k="name" v="Finnsnesrenna" />
		<tag k="ssr:date" v="2016-05-10" />
		<tag k="ssr:gruppe" v="navigasjon" />
		<tag k="ssr:hovedgruppe" v="infrastruktur" />
		<tag k="ssr:stedsnr" v="393492" />
		<tag k="ssr:type" v="fyrlykt" />
	</node>
	<node id="-754798" lat="69.3609355659" lon="17.6985796794">
		<tag k="name" v="Heggedalen" />
		<tag k="ssr:date" v="2019-05-30" />
		<tag k="ssr:gruppe" v="veg" />
		<tag k="ssr:hovedgruppe" v="infrastruktur" />
		<tag k="ssr:stedsnr" v="1010682" />
		<tag k="ssr:type" v="adressenavn" />
	</node>
	<node id="-754797" lat="69.3229438114" lon="17.6658938379">
		<tag k="name" v="Kjeldevatnan" />
		<tag k="ssr:date" v="2019-05-30" />
		<tag k="ssr:gruppe" v="veg" />
		<tag k="ssr:hovedgruppe" v="infrastruktur" />
		<tag k="ssr:stedsnr" v="1010679" />
		<tag k="ssr:type" v="adressenavn" />
	</node>
	<node id="-754572" lat="69.547311112" lon="17.6535194456">
		<tag k="name" v="Øyfjord" />
		<tag k="old_name" v="Øifjord" />
		<tag k="ssr:date" v="2016-05-10" />
		<tag k="ssr:gruppe" v="navigasjon" />
		<tag k="ssr:hovedgruppe" v="infrastruktur" />
		<tag k="ssr:stedsnr" v="382864" />
		<tag k="ssr:type" v="fyrlykt" />
	</node>
	<node id="-754827" lat="69.1962888917" lon="18.0058444434">
		<tag k="name" v="Klauvskjærodden" />
		<tag k="ssr:date" v="2016-05-10" />
		<tag k="ssr:gruppe" v="navigasjon" />
		<tag k="ssr:hovedgruppe" v="infrastruktur" />
		<tag k="ssr:stedsnr" v="17746" />
		<tag k="ssr:type" v="fyrlykt" />
	</node>
	<node id="-756617" lat="69.5356861142" lon="17.7791500081">
		<tag k="name" v="Baltsfjord" />
		<tag k="ssr:date" v="2016-05-11" />
		<tag k="ssr:gruppe" v="navigasjon" />
		<tag k="ssr:hovedgruppe" v="infrastruktur" />
		<tag k="ssr:stedsnr" v="746780" />
		<tag k="ssr:type" v="fyrlykt" />
	</node>
	<node id="-756103" lat="69.297402778" lon="17.9682972133">
		<tag k="name" v="Vestre Leiknesøyra" />
		<tag k="ssr:date" v="2016-05-10" />
		<tag k="ssr:gruppe" v="navigasjon" />
		<tag k="ssr:hovedgruppe" v="infrastruktur" />
		<tag k="ssr:stedsnr" v="575984" />
		<tag k="ssr:type" v="fyrlykt" />
	</node>
	<node id="-754821" lat="69.2748753291" lon="17.6744267429">
		<tag k="name" v="Nordliveien" />
		<tag k="ssr:date" v="2019-05-30" />
		<tag k="ssr:gruppe" v="veg" />
		<tag k="ssr:hovedgruppe" v="infrastruktur" />
		<tag k="ssr:stedsnr" v="1012004" />
		<tag k="ssr:type" v="adressenavn" />
	</node>
	<node id="-754820" lat="69.227026619" lon="17.7323588756">
		<tag k="name" v="Torsmoveien" />
		<tag k="ssr:date" v="2019-05-30" />
		<tag k="ssr:gruppe" v="veg" />
		<tag k="ssr:hovedgruppe" v="infrastruktur" />
		<tag k="ssr:stedsnr" v="1011996" />
		<tag k="ssr:type" v="adressenavn" />
	</node>
	<node id="-754819" lat="69.2375230128" lon="17.92011208">
		<tag k="name" v="Alvestien" />
		<tag k="ssr:date" v="2019-05-30" />
		<tag k="ssr:gruppe" v="veg" />
		<tag k="ssr:hovedgruppe" v="infrastruktur" />
		<tag k="ssr:stedsnr" v="1010966" />
		<tag k="ssr:type" v="adressenavn" />
	</node>
	<node id="-754818" lat="69.3601861426" lon="18.0803989106">
		<tag k="name" v="Markveien" />
		<tag k="ssr:date" v="2019-05-30" />
		<tag k="ssr:gruppe" v="veg" />
		<tag k="ssr:hovedgruppe" v="infrastruktur" />
		<tag k="ssr:stedsnr" v="1010946" />
		<tag k="ssr:type" v="adressenavn" />
	</node>
	<node id="-754817" lat="69.2392460173" lon="17.9402321599">
		<tag k="name" v="Gammelveien" />
		<tag k="ssr:date" v="2019-05-30" />
		<tag k="ssr:gruppe" v="veg" />
		<tag k="ssr:hovedgruppe" v="infrastruktur" />
		<tag k="ssr:stedsnr" v="1010900" />
		<tag k="ssr:type" v="adressenavn" />
	</node>
</osm>
