<?xml version="1.0" encoding="UTF-8"?>
<osm generator="osmapis" version="0.6">
	<node id="-26496" lat="60.0914817619" lon="10.1897714301">
		<tag k="name" v="Øvre Onsakerveien" />
		<tag k="ssr:date" v="2019-12-27" />
		<tag k="ssr:gruppe" v="veg" />
		<tag k="ssr:hovedgruppe" v="infrastruktur" />
		<tag k="ssr:stedsnr" v="988754" />
		<tag k="ssr:type" v="adressenavn" />
	</node>
	<node id="-26495" lat="60.1152074195" lon="10.2348539633">
		<tag k="name" v="Skausvingen" />
		<tag k="ssr:date" v="2019-12-27" />
		<tag k="ssr:gruppe" v="veg" />
		<tag k="ssr:hovedgruppe" v="infrastruktur" />
		<tag k="ssr:stedsnr" v="988665" />
		<tag k="ssr:type" v="adressenavn" />
	</node>
	<node id="-26494" lat="59.9826994415" lon="10.3102428926">
		<tag k="name" v="Humledalsveien" />
		<tag k="ssr:date" v="2019-12-27" />
		<tag k="ssr:gruppe" v="veg" />
		<tag k="ssr:hovedgruppe" v="infrastruktur" />
		<tag k="ssr:stedsnr" v="985781" />
		<tag k="ssr:type" v="adressenavn" />
	</node>
	<node id="-26135" lat="60.0115400929" lon="10.2661241484">
		<tag k="name" v="Baker Hafnors vei" />
		<tag k="ssr:date" v="2019-12-27" />
		<tag k="ssr:gruppe" v="veg" />
		<tag k="ssr:hovedgruppe" v="infrastruktur" />
		<tag k="ssr:stedsnr" v="1036620" />
		<tag k="ssr:type" v="adressenavn" />
	</node>
	<node id="-26521" lat="60.0686322973" lon="10.3866691268">
		<tag k="name" v="Skardtjernsveien" />
		<tag k="ssr:date" v="2020-02-18" />
		<tag k="ssr:gruppe" v="veg" />
		<tag k="ssr:hovedgruppe" v="infrastruktur" />
		<tag k="ssr:stedsnr" v="1075378" />
		<tag k="ssr:type" v="adressenavn" />
	</node>
	<node id="-26520" lat="59.9116896876" lon="10.7581882267">
		<tag k="name" v="Viken fylke" />
		<tag k="ssr:date" v="2020-01-13" />
		<tag k="ssr:gruppe" v="administrativeIndelinger" />
		<tag k="ssr:hovedgruppe" v="offentligAdministrasjon" />
		<tag k="ssr:stedsnr" v="1074403" />
		<tag k="ssr:type" v="fylke" />
	</node>
	<node id="-26519" lat="60.0251454923" lon="10.2632890442">
		<tag k="name" v="Veivokterveien" />
		<tag k="ssr:date" v="2019-12-27" />
		<tag k="ssr:gruppe" v="veg" />
		<tag k="ssr:hovedgruppe" v="infrastruktur" />
		<tag k="ssr:stedsnr" v="1036612" />
		<tag k="ssr:type" v="adressenavn" />
	</node>
	<node id="-26518" lat="60.0193069184" lon="10.2624921217">
		<tag k="name" v="Ødeliveien" />
		<tag k="ssr:date" v="2019-12-27" />
		<tag k="ssr:gruppe" v="veg" />
		<tag k="ssr:hovedgruppe" v="infrastruktur" />
		<tag k="ssr:stedsnr" v="1036550" />
		<tag k="ssr:type" v="adressenavn" />
	</node>
	<node id="-26517" lat="60.0423649586" lon="10.3339865223">
		<tag k="name" v="Bønnerudveien" />
		<tag k="ssr:date" v="2019-12-27" />
		<tag k="ssr:gruppe" v="veg" />
		<tag k="ssr:hovedgruppe" v="infrastruktur" />
		<tag k="ssr:stedsnr" v="1036312" />
		<tag k="ssr:type" v="adressenavn" />
	</node>
	<node id="-26516" lat="60.0422372589" lon="10.3929712964">
		<tag k="name" v="Mattisplassveien" />
		<tag k="ssr:date" v="2019-12-27" />
		<tag k="ssr:gruppe" v="veg" />
		<tag k="ssr:hovedgruppe" v="infrastruktur" />
		<tag k="ssr:stedsnr" v="1036311" />
		<tag k="ssr:type" v="adressenavn" />
	</node>
	<node id="-26515" lat="60.034413392" lon="10.4406067055">
		<tag k="name" v="Byveien" />
		<tag k="ssr:date" v="2019-12-27" />
		<tag k="ssr:gruppe" v="veg" />
		<tag k="ssr:hovedgruppe" v="infrastruktur" />
		<tag k="ssr:stedsnr" v="1036309" />
		<tag k="ssr:type" v="adressenavn" />
	</node>
	<node id="-26514" lat="60.0875527223" lon="10.2179269324">
		<tag k="name" v="Bygata" />
		<tag k="ssr:date" v="2019-12-27" />
		<tag k="ssr:gruppe" v="veg" />
		<tag k="ssr:hovedgruppe" v="infrastruktur" />
		<tag k="ssr:stedsnr" v="989498" />
		<tag k="ssr:type" v="adressenavn" />
	</node>
	<node id="-26513" lat="60.023543273" lon="10.399149845">
		<tag k="name" v="Monsebråtaveien" />
		<tag k="ssr:date" v="2019-12-27" />
		<tag k="ssr:gruppe" v="veg" />
		<tag k="ssr:hovedgruppe" v="infrastruktur" />
		<tag k="ssr:stedsnr" v="989497" />
		<tag k="ssr:type" v="adressenavn" />
	</node>
	<node id="-26512" lat="60.0404237068" lon="10.2676963921">
		<tag k="name" v="Bråtahaugen" />
		<tag k="ssr:date" v="2019-12-27" />
		<tag k="ssr:gruppe" v="veg" />
		<tag k="ssr:hovedgruppe" v="infrastruktur" />
		<tag k="ssr:stedsnr" v="989202" />
		<tag k="ssr:type" v="adressenavn" />
	</node>
	<node id="-26095" lat="60.0801729755" lon="10.2784086428">
		<tag k="name" v="Hole kommune" />
		<tag k="ssr:date" v="2019-12-27" />
		<tag k="ssr:gruppe" v="administrativeIndelinger" />
		<tag k="ssr:hovedgruppe" v="offentligAdministrasjon" />
		<tag k="ssr:stedsnr" v="934489" />
		<tag k="ssr:type" v="kommune" />
	</node>
	<node id="-26089" lat="60.0013882044" lon="10.2700758225">
		<tag k="fixme" v="multiple name tags, choose one and add the other to alt_name" />
		<tag k="name" v="Nes-Mørkgonga;Mørkgonga" />
		<tag k="ssr:date" v="2019-12-27" />
		<tag k="ssr:gruppe" v="veg" />
		<tag k="ssr:hovedgruppe" v="infrastruktur" />
		<tag k="ssr:stedsnr" v="815368" />
		<tag k="ssr:type" v="vegstrekning" />
	</node>
	<node id="-26167" lat="60.0874281352" lon="10.2314933874">
		<tag k="name" v="Gamlegata" />
		<tag k="ssr:date" v="2019-12-27" />
		<tag k="ssr:gruppe" v="veg" />
		<tag k="ssr:hovedgruppe" v="infrastruktur" />
		<tag k="ssr:stedsnr" v="25769" />
		<tag k="ssr:type" v="adressenavn" />
	</node>
	<node id="-26023" lat="60.0013583309" lon="10.2855500005">
		<tag k="name" v="Tunnelkleiva" />
		<tag k="ssr:date" v="2019-12-27" />
		<tag k="ssr:gruppe" v="veg" />
		<tag k="ssr:hovedgruppe" v="infrastruktur" />
		<tag k="ssr:stedsnr" v="604997" />
		<tag k="ssr:type" v="adressenavn" />
	</node>
	<node id="-26134" lat="60.0033262212" lon="10.2704725867">
		<tag k="name" v="Øver-Øgardsveien" />
		<tag k="ssr:date" v="2019-12-27" />
		<tag k="ssr:gruppe" v="veg" />
		<tag k="ssr:hovedgruppe" v="infrastruktur" />
		<tag k="ssr:stedsnr" v="1036614" />
		<tag k="ssr:type" v="adressenavn" />
	</node>
	<node id="-26275" lat="60.1038222259" lon="10.2885833398">
		<tag k="fixme" v="multiple name tags, choose one and add the other to alt_name" />
		<tag k="name" v="Steinsgata;Steinssletta" />
		<tag k="old_name" v="Stensgaden" />
		<tag k="ssr:date" v="2019-12-27" />
		<tag k="ssr:gruppe" v="veg" />
		<tag k="ssr:hovedgruppe" v="infrastruktur" />
		<tag k="ssr:stedsnr" v="209698" />
		<tag k="ssr:type" v="vegstrekning" />
	</node>
	<node id="-26497" lat="60.0924318119" lon="10.1909744041">
		<tag k="name" v="Nedre Onsakerveien" />
		<tag k="ssr:date" v="2019-12-27" />
		<tag k="ssr:gruppe" v="veg" />
		<tag k="ssr:hovedgruppe" v="infrastruktur" />
		<tag k="ssr:stedsnr" v="988755" />
		<tag k="ssr:type" v="adressenavn" />
	</node>
</osm>
