<?xml version="1.0" encoding="UTF-8"?>
<osm version="0.6" generator="osmapis">
	<node lat="60.20195833605334" lon="5.170200004826005" id="-30640">
		<tag k="alt_name" v="Børnestangen" />
		<tag k="name" v="Børnestangen lykt" />
		<tag k="ssr:date" v="2019-12-27" />
		<tag k="ssr:gruppe" v="navigasjon" />
		<tag k="ssr:hovedgruppe" v="infrastruktur" />
		<tag k="ssr:stedsnr" v="4866" />
		<tag k="ssr:type" v="fyrlykt" />
	</node>
	<node lat="60.40594722016822" lon="5.09808055516355" id="-30675">
		<tag k="name" v="Midtholmen" />
		<tag k="ssr:date" v="2021-06-08" />
		<tag k="ssr:gruppe" v="navigasjon" />
		<tag k="ssr:hovedgruppe" v="infrastruktur" />
		<tag k="ssr:stedsnr" v="25876" />
		<tag k="ssr:type" v="fyrlykt" />
	</node>
	<node lat="60.69127718935564" lon="4.740554011128758" id="-30920">
		<tag k="name" v="Stakksøyna" />
		<tag k="ssr:date" v="2021-06-08" />
		<tag k="ssr:gruppe" v="navigasjon" />
		<tag k="ssr:hovedgruppe" v="infrastruktur" />
		<tag k="ssr:stedsnr" v="249873" />
		<tag k="ssr:type" v="fyrlykt" />
	</node>
	<node lat="60.586236112227155" lon="4.798072222588819" id="-30921">
		<tag k="name" v="Heggholmen" />
		<tag k="ssr:date" v="2019-12-27" />
		<tag k="ssr:gruppe" v="veg" />
		<tag k="ssr:hovedgruppe" v="infrastruktur" />
		<tag k="ssr:stedsnr" v="118175" />
		<tag k="ssr:type" v="adressenavn" />
	</node>
	<node lat="60.17087166277489" lon="5.111221136553021" id="-31081">
		<tag k="fixme" v="multiple name tags, choose one and add the other to alt_name" />
		<tag k="name" v="Ytstaskjeret lykt;Ytstaskjeret" />
		<tag k="ssr:date" v="2021-06-08" />
		<tag k="ssr:gruppe" v="navigasjon" />
		<tag k="ssr:hovedgruppe" v="infrastruktur" />
		<tag k="ssr:stedsnr" v="268322" />
		<tag k="ssr:type" v="fyrlykt" />
	</node>
	<node lat="60.402302781163044" lon="4.951255563408308" id="-31181">
		<tag k="name" v="Vestra Buarøyna" />
		<tag k="ssr:date" v="2021-06-08" />
		<tag k="ssr:gruppe" v="navigasjon" />
		<tag k="ssr:hovedgruppe" v="infrastruktur" />
		<tag k="ssr:stedsnr" v="449833" />
		<tag k="ssr:type" v="fyrlykt" />
	</node>
	<node lat="60.33665277518763" lon="5.182747220627896" id="-31222">
		<tag k="alt_name" v="Revskolten" />
		<tag k="name" v="Revskolten lykt" />
		<tag k="old_name" v="Revaskolten" />
		<tag k="ssr:date" v="2019-12-27" />
		<tag k="ssr:gruppe" v="navigasjon" />
		<tag k="ssr:hovedgruppe" v="infrastruktur" />
		<tag k="ssr:stedsnr" v="267137" />
		<tag k="ssr:type" v="fyrlykt" />
	</node>
	<node lat="60.354788885843654" lon="4.967499993680959" id="-31481">
		<tag k="name" v="Storhaugmarka" />
		<tag k="ssr:date" v="2019-12-27" />
		<tag k="ssr:gruppe" v="veg" />
		<tag k="ssr:hovedgruppe" v="infrastruktur" />
		<tag k="ssr:stedsnr" v="343594" />
		<tag k="ssr:type" v="adressenavn" />
	</node>
	<node lat="60.67455529188257" lon="4.793925019863499" id="-31589">
		<tag k="name" v="Rubbegarnståna" />
		<tag k="ssr:date" v="2021-06-08" />
		<tag k="ssr:gruppe" v="navigasjon" />
		<tag k="ssr:hovedgruppe" v="infrastruktur" />
		<tag k="ssr:stedsnr" v="370617" />
		<tag k="ssr:type" v="fyrlykt" />
	</node>
	<node lat="60.55672222123708" lon="4.820736105438146" id="-31595">
		<tag k="name" v="Nordre Rønholmen" />
		<tag k="ssr:date" v="2019-12-27" />
		<tag k="ssr:gruppe" v="veg" />
		<tag k="ssr:hovedgruppe" v="infrastruktur" />
		<tag k="ssr:stedsnr" v="482179" />
		<tag k="ssr:type" v="adressenavn" />
	</node>
	<node lat="60.7131694418078" lon="4.734908334664093" id="-31596">
		<tag k="name" v="Nordøyna" />
		<tag k="ssr:date" v="2019-12-27" />
		<tag k="ssr:gruppe" v="veg" />
		<tag k="ssr:hovedgruppe" v="infrastruktur" />
		<tag k="ssr:stedsnr" v="482186" />
		<tag k="ssr:type" v="adressenavn" />
	</node>
	<node lat="60.72594759116944" lon="4.705211355803487" id="-31605">
		<tag k="name" v="Bolleflesa lanterne" />
		<tag k="ssr:date" v="2021-06-08" />
		<tag k="ssr:gruppe" v="navigasjon" />
		<tag k="ssr:hovedgruppe" v="infrastruktur" />
		<tag k="ssr:stedsnr" v="388194" />
		<tag k="ssr:type" v="lanterne" />
	</node>
	<node lat="60.17461111117937" lon="5.085333336179751" id="-31610">
		<tag k="alt_name" v="Austefjorden" />
		<tag k="name" v="Austefjorden&#09; lykt" />
		<tag k="ssr:date" v="2019-12-27" />
		<tag k="ssr:gruppe" v="navigasjon" />
		<tag k="ssr:hovedgruppe" v="infrastruktur" />
		<tag k="ssr:stedsnr" v="389341" />
		<tag k="ssr:type" v="fyrlykt" />
	</node>
	<node lat="60.33523610802732" lon="5.120227777668099" id="-31683">
		<tag k="name" v="Varen" />
		<tag k="ssr:date" v="2019-12-27" />
		<tag k="ssr:gruppe" v="veg" />
		<tag k="ssr:hovedgruppe" v="infrastruktur" />
		<tag k="ssr:stedsnr" v="413985" />
		<tag k="ssr:type" v="adressenavn" />
	</node>
	<node lat="60.58848333263876" lon="4.831594453387585" id="-31692">
		<tag k="name" v="Ådnevikvarden" />
		<tag k="ssr:date" v="2019-12-27" />
		<tag k="ssr:gruppe" v="veg" />
		<tag k="ssr:hovedgruppe" v="infrastruktur" />
		<tag k="ssr:stedsnr" v="424817" />
		<tag k="ssr:type" v="adressenavn" />
	</node>
	<node lat="60.635709790635026" lon="4.840104719131288" id="-31730">
		<tag k="alt_name" v="Ådneset" />
		<tag k="name" v="Ådneset lykt" />
		<tag k="ssr:date" v="2020-09-08" />
		<tag k="ssr:gruppe" v="navigasjon" />
		<tag k="ssr:hovedgruppe" v="infrastruktur" />
		<tag k="ssr:stedsnr" v="431606" />
		<tag k="ssr:type" v="fyrlykt" />
	</node>
	<node lat="60.33411944265689" lon="4.987280547742198" id="-31808">
		<tag k="alt_name" v="Bleikskjeri" />
		<tag k="name" v="Bleikskjeri lykt" />
		<tag k="old_name" v="Bleikskjera" />
		<tag k="ssr:date" v="2019-12-27" />
		<tag k="ssr:gruppe" v="navigasjon" />
		<tag k="ssr:hovedgruppe" v="infrastruktur" />
		<tag k="ssr:stedsnr" v="673291" />
		<tag k="ssr:type" v="fyrlykt" />
	</node>
	<node lat="60.57910895696625" lon="4.791007087673348" id="-31919">
		<tag k="alt_name" v="Geitingen" />
		<tag k="name" v="Geitingen lykt" />
		<tag k="ssr:date" v="2020-09-08" />
		<tag k="ssr:gruppe" v="navigasjon" />
		<tag k="ssr:hovedgruppe" v="infrastruktur" />
		<tag k="ssr:stedsnr" v="491587" />
		<tag k="ssr:type" v="fyrlykt" />
	</node>
	<node lat="60.35449999931962" lon="4.966575003240568" id="-31945">
		<tag k="name" v="Storhaugbakken" />
		<tag k="ssr:date" v="2019-12-27" />
		<tag k="ssr:gruppe" v="veg" />
		<tag k="ssr:hovedgruppe" v="infrastruktur" />
		<tag k="ssr:stedsnr" v="525577" />
		<tag k="ssr:type" v="adressenavn" />
	</node>
	<node lat="60.594619447296665" lon="4.8363611153719015" id="-32001">
		<tag k="name" v="Jensvardbrekka" />
		<tag k="ssr:date" v="2019-12-27" />
		<tag k="ssr:gruppe" v="veg" />
		<tag k="ssr:hovedgruppe" v="infrastruktur" />
		<tag k="ssr:stedsnr" v="545814" />
		<tag k="ssr:type" v="adressenavn" />
	</node>
	<node lat="60.15482678637476" lon="5.006361639891236" id="-32027">
		<tag k="alt_name" v="Tekslo" />
		<tag k="name" v="Tekslo lykt" />
		<tag k="ssr:date" v="2020-09-08" />
		<tag k="ssr:gruppe" v="navigasjon" />
		<tag k="ssr:hovedgruppe" v="infrastruktur" />
		<tag k="ssr:stedsnr" v="551751" />
		<tag k="ssr:type" v="fyrlykt" />
	</node>
	<node lat="60.24178055227231" lon="5.163611114113984" id="-32083">
		<tag k="alt_name" v="Tangaflu" />
		<tag k="name" v="Tangaflu lykt" />
		<tag k="ssr:date" v="2019-12-27" />
		<tag k="ssr:gruppe" v="navigasjon" />
		<tag k="ssr:hovedgruppe" v="infrastruktur" />
		<tag k="ssr:stedsnr" v="571348" />
		<tag k="ssr:type" v="fyrlykt" />
	</node>
	<node lat="60.71987998974621" lon="4.72433759060992" id="-32092">
		<tag k="fixme" v="multiple name tags, choose one and add the other to alt_name" />
		<tag k="name" v="Nordøyna lykt;Nordøyna" />
		<tag k="ssr:date" v="2021-06-08" />
		<tag k="ssr:gruppe" v="navigasjon" />
		<tag k="ssr:hovedgruppe" v="infrastruktur" />
		<tag k="ssr:stedsnr" v="574025" />
		<tag k="ssr:type" v="fyrlykt" />
	</node>
	<node lat="60.60377500314802" lon="4.762358338528974" id="-32103">
		<tag k="name" v="Kylpa" />
		<tag k="ssr:date" v="2019-12-27" />
		<tag k="ssr:gruppe" v="sjøbunn" />
		<tag k="ssr:hovedgruppe" v="sjø" />
		<tag k="ssr:stedsnr" v="590778" />
		<tag k="ssr:type" v="søkkISjø" />
	</node>
	<node lat="60.22715357141959" lon="5.172186604801248" id="-32282">
		<tag k="name" v="Lerøyna" />
		<tag k="ssr:date" v="2021-06-08" />
		<tag k="ssr:gruppe" v="navigasjon" />
		<tag k="ssr:hovedgruppe" v="infrastruktur" />
		<tag k="ssr:stedsnr" v="672817" />
		<tag k="ssr:type" v="fyrlykt" />
	</node>
	<node lat="60.45389218449416" lon="4.949222581299742" id="-32484">
		<tag k="alt_name" v="Svelgen" />
		<tag k="name" v="Svelgen lykt" />
		<tag k="ssr:date" v="2020-09-03" />
		<tag k="ssr:gruppe" v="navigasjon" />
		<tag k="ssr:hovedgruppe" v="infrastruktur" />
		<tag k="ssr:stedsnr" v="733147" />
		<tag k="ssr:type" v="fyrlykt" />
	</node>
	<node lat="60.490046735062556" lon="4.832495836064189" id="-32503">
		<tag k="alt_name" v="Greipingen" />
		<tag k="name" v="Greipingen lykt" />
		<tag k="ssr:date" v="2020-09-03" />
		<tag k="ssr:gruppe" v="navigasjon" />
		<tag k="ssr:hovedgruppe" v="infrastruktur" />
		<tag k="ssr:stedsnr" v="734226" />
		<tag k="ssr:type" v="fyrlykt" />
	</node>
	<node lat="60.63247823661491" lon="4.786940313453559" id="-32511">
		<tag k="name" v="Laksholmsundet" />
		<tag k="ssr:date" v="2021-06-08" />
		<tag k="ssr:gruppe" v="navigasjon" />
		<tag k="ssr:hovedgruppe" v="infrastruktur" />
		<tag k="ssr:stedsnr" v="734618" />
		<tag k="ssr:type" v="fyrlykt" />
	</node>
	<node lat="60.51871110837732" lon="4.9115805630431275" id="-32558">
		<tag k="name" v="Ivarsholmen" />
		<tag k="ssr:date" v="2019-12-27" />
		<tag k="ssr:gruppe" v="veg" />
		<tag k="ssr:hovedgruppe" v="infrastruktur" />
		<tag k="ssr:stedsnr" v="907177" />
		<tag k="ssr:type" v="adressenavn" />
	</node>
	<node lat="60.30849635528632" lon="4.92729721936419" id="-32618">
		<tag k="name" v="Hissøyna lykt" />
		<tag k="ssr:date" v="2021-02-09" />
		<tag k="ssr:gruppe" v="navigasjon" />
		<tag k="ssr:hovedgruppe" v="infrastruktur" />
		<tag k="ssr:stedsnr" v="794265" />
		<tag k="ssr:type" v="fyrlykt" />
	</node>
	<node lat="60.509782933632394" lon="4.866227904245155" id="-32699">
		<tag k="alt_name" v="Oneknappen" />
		<tag k="name" v="Oneknappen lykt" />
		<tag k="ssr:date" v="2019-12-27" />
		<tag k="ssr:gruppe" v="navigasjon" />
		<tag k="ssr:hovedgruppe" v="infrastruktur" />
		<tag k="ssr:stedsnr" v="917720" />
		<tag k="ssr:type" v="fyrlykt" />
	</node>
	<node lat="60.459958334026396" lon="4.922405554045191" id="-32742">
		<tag k="alt_name" v="Skåragavlen" />
		<tag k="name" v="Skåragavlen lykt" />
		<tag k="old_name" v="Skoragavlen" />
		<tag k="ssr:date" v="2019-12-27" />
		<tag k="ssr:gruppe" v="navigasjon" />
		<tag k="ssr:hovedgruppe" v="infrastruktur" />
		<tag k="ssr:stedsnr" v="855132" />
		<tag k="ssr:type" v="fyrlykt" />
	</node>
	<node lat="60.48911239963951" lon="4.9243341185863025" id="-32746">
		<tag k="name" v="Rongasundet" />
		<tag k="ssr:date" v="2021-06-08" />
		<tag k="ssr:gruppe" v="navigasjon" />
		<tag k="ssr:hovedgruppe" v="infrastruktur" />
		<tag k="ssr:stedsnr" v="855213" />
		<tag k="ssr:type" v="fyrlykt" />
	</node>
	<node lat="60.55436666492312" lon="4.815852783861327" id="-32861">
		<tag k="name" v="Rønevågen" />
		<tag k="ssr:date" v="2019-12-27" />
		<tag k="ssr:gruppe" v="veg" />
		<tag k="ssr:hovedgruppe" v="infrastruktur" />
		<tag k="ssr:stedsnr" v="907173" />
		<tag k="ssr:type" v="adressenavn" />
	</node>
	<node lat="60.303067176172746" lon="5.177939763428829" id="-32969">
		<tag k="name" v="Glåmsneset" />
		<tag k="ssr:date" v="2019-12-27" />
		<tag k="ssr:gruppe" v="veg" />
		<tag k="ssr:hovedgruppe" v="infrastruktur" />
		<tag k="ssr:stedsnr" v="987398" />
		<tag k="ssr:type" v="adressenavn" />
	</node>
	<node lat="60.333218191338965" lon="5.185506302534528" id="-32970">
		<tag k="name" v="Fløsteinen" />
		<tag k="ssr:date" v="2019-12-27" />
		<tag k="ssr:gruppe" v="veg" />
		<tag k="ssr:hovedgruppe" v="infrastruktur" />
		<tag k="ssr:stedsnr" v="987399" />
		<tag k="ssr:type" v="adressenavn" />
	</node>
	<node lat="60.361314749700774" lon="5.104839395812746" id="-32971">
		<tag k="name" v="Nordre Bildøyna" />
		<tag k="ssr:date" v="2019-12-27" />
		<tag k="ssr:gruppe" v="veg" />
		<tag k="ssr:hovedgruppe" v="infrastruktur" />
		<tag k="ssr:stedsnr" v="987400" />
		<tag k="ssr:type" v="adressenavn" />
	</node>
	<node lat="60.3836431795192" lon="5.101425068215956" id="-32972">
		<tag k="name" v="Nordre Foldnesvågen" />
		<tag k="ssr:date" v="2019-12-27" />
		<tag k="ssr:gruppe" v="veg" />
		<tag k="ssr:hovedgruppe" v="infrastruktur" />
		<tag k="ssr:stedsnr" v="987401" />
		<tag k="ssr:type" v="adressenavn" />
	</node>
	<node lat="60.39484895231631" lon="5.077447694670662" id="-32973">
		<tag k="name" v="Austre Geitanger" />
		<tag k="ssr:date" v="2019-12-27" />
		<tag k="ssr:gruppe" v="veg" />
		<tag k="ssr:hovedgruppe" v="infrastruktur" />
		<tag k="ssr:stedsnr" v="987402" />
		<tag k="ssr:type" v="adressenavn" />
	</node>
	<node lat="60.3997794965337" lon="5.070893937945201" id="-32974">
		<tag k="name" v="Nordre Geitanger" />
		<tag k="ssr:date" v="2019-12-27" />
		<tag k="ssr:gruppe" v="veg" />
		<tag k="ssr:hovedgruppe" v="infrastruktur" />
		<tag k="ssr:stedsnr" v="987403" />
		<tag k="ssr:type" v="adressenavn" />
	</node>
	<node lat="60.393556361216284" lon="5.07233525059756" id="-32975">
		<tag k="name" v="Vestre Geitanger" />
		<tag k="ssr:date" v="2019-12-27" />
		<tag k="ssr:gruppe" v="veg" />
		<tag k="ssr:hovedgruppe" v="infrastruktur" />
		<tag k="ssr:stedsnr" v="987404" />
		<tag k="ssr:type" v="adressenavn" />
	</node>
	<node lat="60.38981765404697" lon="5.074802398888179" id="-32976">
		<tag k="name" v="Søre Geitanger" />
		<tag k="ssr:date" v="2019-12-27" />
		<tag k="ssr:gruppe" v="veg" />
		<tag k="ssr:hovedgruppe" v="infrastruktur" />
		<tag k="ssr:stedsnr" v="987405" />
		<tag k="ssr:type" v="adressenavn" />
	</node>
	<node lat="60.370688956821034" lon="4.944600041524455" id="-32977">
		<tag k="name" v="Dyrøyna" />
		<tag k="ssr:date" v="2019-12-27" />
		<tag k="ssr:gruppe" v="veg" />
		<tag k="ssr:hovedgruppe" v="infrastruktur" />
		<tag k="ssr:stedsnr" v="987407" />
		<tag k="ssr:type" v="adressenavn" />
	</node>
	<node lat="60.30751558094542" lon="4.935538633232705" id="-32978">
		<tag k="name" v="Hissøyna" />
		<tag k="ssr:date" v="2019-12-27" />
		<tag k="ssr:gruppe" v="veg" />
		<tag k="ssr:hovedgruppe" v="infrastruktur" />
		<tag k="ssr:stedsnr" v="987408" />
		<tag k="ssr:type" v="adressenavn" />
	</node>
	<node lat="60.31202018780337" lon="4.955564904710132" id="-32979">
		<tag k="name" v="Narøyna" />
		<tag k="ssr:date" v="2019-12-27" />
		<tag k="ssr:gruppe" v="veg" />
		<tag k="ssr:hovedgruppe" v="infrastruktur" />
		<tag k="ssr:stedsnr" v="987409" />
		<tag k="ssr:type" v="adressenavn" />
	</node>
	<node lat="60.359475522243706" lon="4.923791747894981" id="-32992">
		<tag k="name" v="Tjørnøyhaugen varde" />
		<tag k="ssr:date" v="2019-12-27" />
		<tag k="ssr:gruppe" v="navigasjon" />
		<tag k="ssr:hovedgruppe" v="infrastruktur" />
		<tag k="ssr:stedsnr" v="991236" />
		<tag k="ssr:type" v="sjøvarde" />
	</node>
	<node lat="60.45176930112885" lon="4.973031818470848" id="-33021">
		<tag k="alt_name" v="Misjeholmane" />
		<tag k="name" v="Misjeholmane lykt" />
		<tag k="ssr:date" v="2019-12-27" />
		<tag k="ssr:gruppe" v="navigasjon" />
		<tag k="ssr:hovedgruppe" v="infrastruktur" />
		<tag k="ssr:stedsnr" v="5142" />
		<tag k="ssr:type" v="fyrlykt" />
	</node>
	<node lat="60.605706106953825" lon="4.797725269356359" id="-33040">
		<tag k="name" v="Søra Kvalvika" />
		<tag k="ssr:date" v="2021-06-08" />
		<tag k="ssr:gruppe" v="navigasjon" />
		<tag k="ssr:hovedgruppe" v="infrastruktur" />
		<tag k="ssr:stedsnr" v="6570" />
		<tag k="ssr:type" v="fyrlykt" />
	</node>
	<node lat="60.68793589815777" lon="4.72237222167687" id="-33231">
		<tag k="alt_name" v="Hernar" />
		<tag k="name" v="Hernar lykt" />
		<tag k="ssr:date" v="2020-09-08" />
		<tag k="ssr:gruppe" v="navigasjon" />
		<tag k="ssr:hovedgruppe" v="infrastruktur" />
		<tag k="ssr:stedsnr" v="67880" />
		<tag k="ssr:type" v="fyrlykt" />
	</node>
	<node lat="60.520186870001105" lon="4.938219475345224" id="-33414">
		<tag k="name" v="Gjona" />
		<tag k="ssr:date" v="2021-06-08" />
		<tag k="ssr:gruppe" v="navigasjon" />
		<tag k="ssr:hovedgruppe" v="infrastruktur" />
		<tag k="ssr:stedsnr" v="127774" />
		<tag k="ssr:type" v="fyrlykt" />
	</node>
	<node lat="60.30234444766926" lon="5.143661116223244" id="-33608">
		<tag k="name" v="Kobbaleia" />
		<tag k="ssr:date" v="2021-06-08" />
		<tag k="ssr:gruppe" v="navigasjon" />
		<tag k="ssr:hovedgruppe" v="infrastruktur" />
		<tag k="ssr:stedsnr" v="206120" />
		<tag k="ssr:type" v="fyrlykt" />
	</node>
	<node lat="60.54880555307375" lon="4.822872227404599" id="-33622">
		<tag k="name" v="Vardholmen" />
		<tag k="ssr:date" v="2019-12-27" />
		<tag k="ssr:gruppe" v="veg" />
		<tag k="ssr:hovedgruppe" v="infrastruktur" />
		<tag k="ssr:stedsnr" v="221731" />
		<tag k="ssr:type" v="adressenavn" />
	</node>
	<node lat="60.50442452888617" lon="4.830941182571527" id="-33819">
		<tag k="fixme" v="multiple name tags, choose one and add the other to alt_name" />
		<tag k="name" v="Skarvøyna;Skarvøyna lykt" />
		<tag k="ssr:date" v="2021-06-08" />
		<tag k="ssr:gruppe" v="navigasjon" />
		<tag k="ssr:hovedgruppe" v="infrastruktur" />
		<tag k="ssr:stedsnr" v="297160" />
		<tag k="ssr:type" v="fyrlykt" />
	</node>
	<node lat="60.54510000365863" lon="4.822308330140972" id="-33889">
		<tag k="name" v="Luseskjeret" />
		<tag k="ssr:date" v="2021-06-08" />
		<tag k="ssr:gruppe" v="navigasjon" />
		<tag k="ssr:hovedgruppe" v="infrastruktur" />
		<tag k="ssr:stedsnr" v="329336" />
		<tag k="ssr:type" v="fyrlykt" />
	</node>
	<node lat="60.28421593371954" lon="5.072698953936538" id="-34014">
		<tag k="name" v="Anskotet" />
		<tag k="ssr:date" v="2021-06-08" />
		<tag k="ssr:gruppe" v="farvann" />
		<tag k="ssr:hovedgruppe" v="sjø" />
		<tag k="ssr:stedsnr" v="360048" />
		<tag k="ssr:type" v="fiskeplassISjø" />
	</node>
	<node lat="60.655178424418644" lon="4.786448646268763" id="-34223">
		<tag k="alt_name" v="Svellingen" />
		<tag k="name" v="Svellingen lykt" />
		<tag k="ssr:date" v="2020-09-08" />
		<tag k="ssr:gruppe" v="navigasjon" />
		<tag k="ssr:hovedgruppe" v="infrastruktur" />
		<tag k="ssr:stedsnr" v="431628" />
		<tag k="ssr:type" v="fyrlykt" />
	</node>
	<node lat="60.20742979801909" lon="5.013177032445493" id="-34383">
		<tag k="alt_name" v="Glesvær" />
		<tag k="name" v="Glesvær lykt" />
		<tag k="ssr:date" v="2019-12-27" />
		<tag k="ssr:gruppe" v="navigasjon" />
		<tag k="ssr:hovedgruppe" v="infrastruktur" />
		<tag k="ssr:stedsnr" v="550671" />
		<tag k="ssr:type" v="fyrlykt" />
	</node>
	<node lat="60.403566349540895" lon="4.93157187050939" id="-34411">
		<tag k="name" v="Havrøyna" />
		<tag k="ssr:date" v="2021-06-08" />
		<tag k="ssr:gruppe" v="navigasjon" />
		<tag k="ssr:hovedgruppe" v="infrastruktur" />
		<tag k="ssr:stedsnr" v="551333" />
		<tag k="ssr:type" v="fyrlykt" />
	</node>
	<node lat="60.33624192454359" lon="5.169577004470637" id="-34437">
		<tag k="alt_name" v="Vonflua" />
		<tag k="name" v="Vonflua lykt" />
		<tag k="ssr:date" v="2019-12-27" />
		<tag k="ssr:gruppe" v="navigasjon" />
		<tag k="ssr:hovedgruppe" v="infrastruktur" />
		<tag k="ssr:stedsnr" v="570146" />
		<tag k="ssr:type" v="fyrlykt" />
	</node>
	<node lat="60.434538892812" lon="5.017544446743113" id="-34458">
		<tag k="alt_name" v="Kalvanes" />
		<tag k="name" v="Kalvanes lykt" />
		<tag k="ssr:date" v="2019-12-27" />
		<tag k="ssr:gruppe" v="navigasjon" />
		<tag k="ssr:hovedgruppe" v="infrastruktur" />
		<tag k="ssr:stedsnr" v="571878" />
		<tag k="ssr:type" v="fyrlykt" />
	</node>
	<node lat="60.58956582448142" lon="4.861232244307076" id="-34578">
		<tag k="alt_name" v="Straumøytangen" />
		<tag k="name" v="Straumøytangen lykt" />
		<tag k="ssr:date" v="2020-09-08" />
		<tag k="ssr:gruppe" v="navigasjon" />
		<tag k="ssr:hovedgruppe" v="infrastruktur" />
		<tag k="ssr:stedsnr" v="613549" />
		<tag k="ssr:type" v="fyrlykt" />
	</node>
	<node lat="60.61130833353701" lon="4.867388881160297" id="-34599">
		<tag k="alt_name" v="Stureholmen" />
		<tag k="name" v="Stureholmen lykt" />
		<tag k="ssr:date" v="2019-12-27" />
		<tag k="ssr:gruppe" v="navigasjon" />
		<tag k="ssr:hovedgruppe" v="infrastruktur" />
		<tag k="ssr:stedsnr" v="634018" />
		<tag k="ssr:type" v="fyrlykt" />
	</node>
	<node lat="60.59040555208238" lon="4.809666673673876" id="-34602">
		<tag k="name" v="Solheim" />
		<tag k="ssr:date" v="2019-12-27" />
		<tag k="ssr:gruppe" v="veg" />
		<tag k="ssr:hovedgruppe" v="infrastruktur" />
		<tag k="ssr:stedsnr" v="646744" />
		<tag k="ssr:type" v="adressenavn" />
	</node>
	<node lat="60.590636107787645" lon="4.791302780528547" id="-34704">
		<tag k="name" v="Gjesholmen" />
		<tag k="ssr:date" v="2019-12-27" />
		<tag k="ssr:gruppe" v="veg" />
		<tag k="ssr:hovedgruppe" v="infrastruktur" />
		<tag k="ssr:stedsnr" v="664178" />
		<tag k="ssr:type" v="adressenavn" />
	</node>
	<node lat="60.56553888890906" lon="4.8601444429294105" id="-34707">
		<tag k="name" v="Hildalen" />
		<tag k="ssr:date" v="2019-12-27" />
		<tag k="ssr:gruppe" v="veg" />
		<tag k="ssr:hovedgruppe" v="infrastruktur" />
		<tag k="ssr:stedsnr" v="666816" />
		<tag k="ssr:type" v="adressenavn" />
	</node>
	<node lat="60.467475001261164" lon="4.929508339249069" id="-34774">
		<tag k="name" v="Lyklholet" />
		<tag k="ssr:date" v="2021-06-08" />
		<tag k="ssr:gruppe" v="sjøbunn" />
		<tag k="ssr:hovedgruppe" v="sjø" />
		<tag k="ssr:stedsnr" v="713363" />
		<tag k="ssr:type" v="søkkISjø" />
	</node>
	<node lat="60.57797221967447" lon="4.846527776997911" id="-34810">
		<tag k="name" v="Galten" />
		<tag k="ssr:date" v="2019-12-27" />
		<tag k="ssr:gruppe" v="veg" />
		<tag k="ssr:hovedgruppe" v="infrastruktur" />
		<tag k="ssr:stedsnr" v="725193" />
		<tag k="ssr:type" v="adressenavn" />
	</node>
	<node lat="60.36057346403603" lon="4.915154086646956" id="-34821">
		<tag k="name" v="Tjørnøyna" />
		<tag k="ssr:date" v="2021-06-08" />
		<tag k="ssr:gruppe" v="navigasjon" />
		<tag k="ssr:hovedgruppe" v="infrastruktur" />
		<tag k="ssr:stedsnr" v="733337" />
		<tag k="ssr:type" v="fyrlykt" />
	</node>
	<node lat="60.24335000326332" lon="4.980338882201704" id="-34869">
		<tag k="name" v="Telavågen lykt" />
		<tag k="ssr:date" v="2019-12-27" />
		<tag k="ssr:gruppe" v="navigasjon" />
		<tag k="ssr:hovedgruppe" v="infrastruktur" />
		<tag k="ssr:stedsnr" v="754332" />
		<tag k="ssr:type" v="fyrlykt" />
	</node>
	<node lat="60.187199582240154" lon="5.040365231021048" id="-34990">
		<tag k="alt_name" v="Toftøyosen" />
		<tag k="name" v="Toftøyosen lykt" />
		<tag k="ssr:date" v="2020-09-03" />
		<tag k="ssr:gruppe" v="navigasjon" />
		<tag k="ssr:hovedgruppe" v="infrastruktur" />
		<tag k="ssr:stedsnr" v="793729" />
		<tag k="ssr:type" v="fyrlykt" />
	</node>
	<node lat="60.66760863113669" lon="4.7486975164438086" id="-35026">
		<tag k="name" v="Lyngøy molo" />
		<tag k="ssr:date" v="2020-09-08" />
		<tag k="ssr:gruppe" v="navigasjon" />
		<tag k="ssr:hovedgruppe" v="infrastruktur" />
		<tag k="ssr:stedsnr" v="795640" />
		<tag k="ssr:type" v="fyrlykt" />
	</node>
	<node lat="60.59740000433778" lon="4.793347223354855" id="-35173">
		<tag k="name" v="Stridsholmen" />
		<tag k="ssr:date" v="2019-12-27" />
		<tag k="ssr:gruppe" v="veg" />
		<tag k="ssr:hovedgruppe" v="infrastruktur" />
		<tag k="ssr:stedsnr" v="846167" />
		<tag k="ssr:type" v="adressenavn" />
	</node>
	<node lat="60.43431462732106" lon="4.906699770587854" id="-35184">
		<tag k="name" v="Litla-Turøyna" />
		<tag k="ssr:date" v="2021-06-08" />
		<tag k="ssr:gruppe" v="navigasjon" />
		<tag k="ssr:hovedgruppe" v="infrastruktur" />
		<tag k="ssr:stedsnr" v="855155" />
		<tag k="ssr:type" v="fyrlykt" />
	</node>
</osm>
