<?xml version="1.0" encoding="UTF-8"?>
<osm version="0.6" generator="osmapis">
	<node lat="60.61893610668358" lon="4.846491659083163" id="-45157">
		<tag k="old_name" v="Eideto" />
		<tag k="place" v="locality" />
		<tag k="ssr:date" v="2019-12-27" />
		<tag k="ssr:gruppe" v="ferskvannskontur" />
		<tag k="ssr:hovedgruppe" v="ferskvann" />
		<tag k="ssr:stedsnr" v="106477" />
		<tag k="ssr:type" v="eid" />
	</node>
	<node lat="60.618158330790145" lon="4.849350009036352" id="-45341">
		<tag k="fixme" v="consider natural=peak for the most distinct mountains in the district" />
		<tag k="natural" v="hill" />
		<tag k="old_name" v="Eidtuva;Søre Eidtua;Søra Eidtua;Eidtua" />
		<tag k="place" v="locality" />
		<tag k="ssr:date" v="2021-06-08" />
		<tag k="ssr:gruppe" v="høyder" />
		<tag k="ssr:hovedgruppe" v="terreng" />
		<tag k="ssr:stedsnr" v="188625" />
		<tag k="ssr:type" v="ås" />
	</node>
	<node lat="60.31074444764423" lon="5.167827782905937" id="-46519">
		<tag k="fixme" v="consider natural=peak for the most distinct mountains in the district" />
		<tag k="natural" v="hill" />
		<tag k="old_name" v="Nibben" />
		<tag k="place" v="locality" />
		<tag k="ssr:date" v="2019-12-27" />
		<tag k="ssr:gruppe" v="høyder" />
		<tag k="ssr:hovedgruppe" v="terreng" />
		<tag k="ssr:stedsnr" v="652288" />
		<tag k="ssr:type" v="fjell" />
	</node>
	<node lat="60.331036111814576" lon="4.937519447518045" id="-46565">
		<tag k="old_name" v="Risholmen" />
		<tag k="place" v="islet" />
		<tag k="ssr:date" v="2019-12-27" />
		<tag k="ssr:gruppe" v="kystkontur" />
		<tag k="ssr:hovedgruppe" v="sjø" />
		<tag k="ssr:stedsnr" v="672266" />
		<tag k="ssr:type" v="holmeISjø" />
	</node>
	<node lat="60.626723571245904" lon="4.853898905598823" id="-47136">
		<tag k="natural" v="bay" />
		<tag k="old_name" v="Djupevika" />
		<tag k="ssr:date" v="2019-12-27" />
		<tag k="ssr:gruppe" v="kystkontur" />
		<tag k="ssr:hovedgruppe" v="sjø" />
		<tag k="ssr:stedsnr" v="895866" />
		<tag k="ssr:type" v="vikISjø" />
	</node>
	<node lat="60.527169443423766" lon="4.859338892790135" id="-47188">
		<tag k="building" v="industrial" />
		<tag k="industrial" v="factory" />
		<tag k="old_name" v="Kvalstasjon" />
		<tag k="ssr:date" v="2019-12-27" />
		<tag k="ssr:gruppe" v="næring" />
		<tag k="ssr:hovedgruppe" v="bebyggelse" />
		<tag k="ssr:stedsnr" v="954080" />
		<tag k="ssr:type" v="fabrikk" />
	</node>
	<node lat="60.470519445246154" lon="4.959519444366921" id="-47290">
		<tag k="bridge" v="yes" />
		<tag k="layer" v="1" />
		<tag k="old_name" v="Vik" />
		<tag k="ssr:date" v="2019-12-27" />
		<tag k="ssr:gruppe" v="samferdselsanlegg" />
		<tag k="ssr:hovedgruppe" v="infrastruktur" />
		<tag k="ssr:stedsnr" v="229026" />
		<tag k="ssr:type" v="bru" />
	</node>
	<node lat="60.221438888782906" lon="5.052075005613753" id="-47489">
		<tag k="old_name" v="Espevik" />
		<tag k="place" v="isolated_dwelling" />
		<tag k="ssr:date" v="2019-12-27" />
		<tag k="ssr:gruppe" v="bolighus" />
		<tag k="ssr:hovedgruppe" v="bebyggelse" />
		<tag k="ssr:stedsnr" v="65690" />
		<tag k="ssr:type" v="eneboligMindreBoligbygg" />
	</node>
	<node lat="60.53477500343011" lon="4.890441668426797" id="-47661">
		<tag k="bridge" v="yes" />
		<tag k="layer" v="1" />
		<tag k="old_name" v="Blom" />
		<tag k="ssr:date" v="2019-12-27" />
		<tag k="ssr:gruppe" v="samferdselsanlegg" />
		<tag k="ssr:hovedgruppe" v="infrastruktur" />
		<tag k="ssr:stedsnr" v="108001" />
		<tag k="ssr:type" v="bru" />
	</node>
	<node lat="60.405127773612016" lon="4.911269450129662" id="-47800">
		<tag k="old_name" v="Skorholmen" />
		<tag k="place" v="locality" />
		<tag k="seamark:type" v="rock" />
		<tag k="ssr:date" v="2019-12-27" />
		<tag k="ssr:gruppe" v="grunnerISjø" />
		<tag k="ssr:hovedgruppe" v="sjø" />
		<tag k="ssr:stedsnr" v="167534" />
		<tag k="ssr:type" v="båeISjø" />
	</node>
</osm>
