<?xml version="1.0" encoding="UTF-8"?>
<osm version="0.6" generator="osmapis">
	<node id="9427514692" lat="63.044408" lon="11.6743338" version="1" timestamp="2022-01-18T07:49:55Z" changeset="116285062" uid="3497659" user="NKA">
		<tag k="amenity" v="cafe" />
		<tag k="name" v="705 senteret" />
		<tag k="ssr:stedsnr" v="1076873" />
	</node>
	<node id="6928651542" lat="63.0549055" lon="11.4555494" version="1" timestamp="2019-10-29T20:44:45Z" changeset="76365018" uid="3497659" user="NKA" />
	<node id="6928651543" lat="63.0542974" lon="11.4548791" version="1" timestamp="2019-10-29T20:44:45Z" changeset="76365018" uid="3497659" user="NKA" />
	<node id="6928660418" lat="63.0704882" lon="11.4360236" version="1" timestamp="2019-10-29T20:44:48Z" changeset="76365019" uid="3497659" user="NKA" />
	<node id="6928660420" lat="63.0703471" lon="11.4370498" version="1" timestamp="2019-10-29T20:44:48Z" changeset="76365019" uid="3497659" user="NKA" />
	<node id="6928658159" lat="63.0876545" lon="11.4353348" version="1" timestamp="2019-10-29T20:44:48Z" changeset="76365019" uid="3497659" user="NKA" />
	<node id="6928658160" lat="63.0876891" lon="11.4352362" version="1" timestamp="2019-10-29T20:44:48Z" changeset="76365019" uid="3497659" user="NKA" />
	<node id="6928645965" lat="62.9996742" lon="11.6827381" version="1" timestamp="2019-10-29T20:44:45Z" changeset="76365018" uid="3497659" user="NKA" />
	<node id="6928645967" lat="62.9992974" lon="11.6828512" version="1" timestamp="2019-10-29T20:44:45Z" changeset="76365018" uid="3497659" user="NKA" />
	<node id="6928661981" lat="63.046391" lon="11.673474" version="1" timestamp="2019-10-29T20:44:48Z" changeset="76365019" uid="3497659" user="NKA" />
	<node id="6928661982" lat="63.0463313" lon="11.6735877" version="1" timestamp="2019-10-29T20:44:48Z" changeset="76365019" uid="3497659" user="NKA" />
	<node id="6928661983" lat="63.0462645" lon="11.6737053" version="1" timestamp="2019-10-29T20:44:48Z" changeset="76365019" uid="3497659" user="NKA" />
	<node id="6928661984" lat="63.0462157" lon="11.6737822" version="1" timestamp="2019-10-29T20:44:48Z" changeset="76365019" uid="3497659" user="NKA" />
	<node id="6928661985" lat="63.0461652" lon="11.6738568" version="1" timestamp="2019-10-29T20:44:48Z" changeset="76365019" uid="3497659" user="NKA" />
	<node id="6928661986" lat="63.0460952" lon="11.6739467" version="1" timestamp="2019-10-29T20:44:48Z" changeset="76365019" uid="3497659" user="NKA" />
	<node id="6928661284" lat="62.8969585" lon="11.8816277" version="1" timestamp="2019-10-29T20:44:48Z" changeset="76365019" uid="3497659" user="NKA" />
	<node id="6928661285" lat="62.8969966" lon="11.8811983" version="1" timestamp="2019-10-29T20:44:48Z" changeset="76365019" uid="3497659" user="NKA" />
	<node id="6928646068" lat="62.96651" lon="11.7580308" version="1" timestamp="2019-10-29T20:44:45Z" changeset="76365018" uid="3497659" user="NKA" />
	<node id="6928646070" lat="62.9662812" lon="11.7578801" version="1" timestamp="2019-10-29T20:44:45Z" changeset="76365018" uid="3497659" user="NKA" />
	<node id="6928658948" lat="62.9497221" lon="11.8052211" version="2" timestamp="2022-01-24T21:00:15Z" changeset="116559033" uid="3497659" user="NKA" />
	<node id="6928658949" lat="62.9495105" lon="11.8050225" version="1" timestamp="2019-10-29T20:44:48Z" changeset="76365019" uid="3497659" user="NKA" />
	<way id="8091742" version="12" timestamp="2022-01-24T21:00:15Z" changeset="116559033" uid="3497659" user="NKA">
		<tag k="bridge" v="yes" />
		<tag k="highway" v="primary" />
		<tag k="layer" v="1" />
		<tag k="maxspeed" v="80" />
		<tag k="name" v="Hillmobrua" />
		<tag k="old_name" v="Hilmobrua" />
		<tag k="ref" v="705" />
		<tag k="ssr:stedsnr" v="152595" />
		<nd ref="6928660418" />
		<nd ref="6928660420" />
	</way>
	<way id="40360553" version="3" timestamp="2022-01-24T21:00:15Z" changeset="116559033" uid="3497659" user="NKA">
		<tag k="bridge" v="yes" />
		<tag k="bridge:structure" v="suspension" />
		<tag k="highway" v="track" />
		<tag k="layer" v="1" />
		<tag k="name" v="Gresslibrua" />
		<tag k="old_name" v="Greslibrua" />
		<tag k="ssr:stedsnr" v="152565" />
		<nd ref="6928651542" />
		<nd ref="6928651543" />
	</way>
	<way id="396129393" version="3" timestamp="2022-01-24T21:00:15Z" changeset="116559033" uid="3497659" user="NKA">
		<tag k="bridge" v="yes" />
		<tag k="highway" v="primary" />
		<tag k="layer" v="1" />
		<tag k="maxspeed" v="60" />
		<tag k="name" v="Møåbrua" />
		<tag k="ref" v="705" />
		<tag k="ssr:stedsnr" v="395926" />
		<nd ref="6928661284" />
		<nd ref="6928661285" />
	</way>
	<way id="396129400" version="3" timestamp="2022-01-24T21:00:15Z" changeset="116559033" uid="3497659" user="NKA">
		<tag k="bridge" v="yes" />
		<tag k="highway" v="primary" />
		<tag k="layer" v="1" />
		<tag k="maxspeed" v="50" />
		<tag k="name" v="Nebrua" />
		<tag k="ref" v="705" />
		<tag k="ssr:stedsnr" v="819596" />
		<nd ref="6928661981" />
		<nd ref="6928661982" />
		<nd ref="6928661983" />
		<nd ref="6928661984" />
		<nd ref="6928661985" />
		<nd ref="6928661986" />
	</way>
	<way id="740011288" version="4" timestamp="2022-01-24T21:00:15Z" changeset="116559033" uid="3497659" user="NKA">
		<tag k="alt_name" v="Løvøya bru" />
		<tag k="bridge" v="yes" />
		<tag k="cycleway:both" v="no" />
		<tag k="highway" v="residential" />
		<tag k="layer" v="1" />
		<tag k="maxspeed" v="80" />
		<tag k="name" v="Løvøybrua" />
		<tag k="old_name" v="Lauvøya bru" />
		<tag k="sidewalk" v="none" />
		<tag k="ssr:stedsnr" v="880825" />
		<nd ref="6928645965" />
		<nd ref="6928645967" />
	</way>
	<way id="740011293" version="2" timestamp="2022-01-24T21:00:15Z" changeset="116559033" uid="3497659" user="NKA">
		<tag k="bridge" v="yes" />
		<tag k="highway" v="unclassified" />
		<tag k="layer" v="1" />
		<tag k="name" v="Mobrua" />
		<tag k="ssr:stedsnr" v="874068" />
		<nd ref="6928646068" />
		<nd ref="6928646070" />
	</way>
	<way id="740011445" version="2" timestamp="2022-01-24T21:00:15Z" changeset="116559033" uid="3497659" user="NKA">
		<tag k="bridge" v="yes" />
		<tag k="highway" v="service" />
		<tag k="layer" v="1" />
		<tag k="name" v="Seteråbrua" />
		<tag k="ssr:stedsnr" v="759797" />
		<nd ref="6928658159" />
		<nd ref="6928658160" />
	</way>
	<way id="740011454" version="2" timestamp="2022-01-24T21:00:15Z" changeset="116559033" uid="3497659" user="NKA">
		<tag k="bridge" v="yes" />
		<tag k="highway" v="service" />
		<tag k="layer" v="1" />
		<tag k="name" v="Reitanbrua" />
		<tag k="ssr:stedsnr" v="820884" />
		<nd ref="6928658948" />
		<nd ref="6928658949" />
	</way>
</osm>
