<?xml version="1.0" encoding="UTF-8"?>
<osm generator="osmapis" version="0.6">
	<node id="-738706" lat="68.4908138881" lon="20.2265527604">
		<tag k="historic" v="boundary_stone" />
		<tag k="man_made" v="cairn" />
		<tag k="name" v="Kiepanvarrirøysa" />
		<tag k="old_name" v="Kiepanwara Røset" />
		<tag k="place" v="locality" />
		<tag k="ssr:stedsnr" v="49407" />
	</node>
	<node id="-740905" lat="68.5645416706" lon="18.2999138758">
		<tag k="alt_name" v="Stokkivarirøysa" />
		<tag k="historic" v="boundary_stone" />
		<tag k="man_made" v="cairn" />
		<tag k="name" v="Stokkijaurerøysa" />
		<tag k="old_name" v="Stokki Jaure Røset" />
		<tag k="place" v="locality" />
		<tag k="ssr:stedsnr" v="899423" />
	</node>
	<node id="-740209" lat="68.5818777732" lon="18.4056888888">
		<tag k="historic" v="boundary_stone" />
		<tag k="man_made" v="cairn" />
		<tag k="name" v="Vuoidascaccarøysa" />
		<tag k="old_name" v="Voydas Kiatza Røset" />
		<tag k="place" v="locality" />
		<tag k="ssr:stedsnr" v="656416" />
	</node>
	<node id="-738707" lat="68.4293805584" lon="19.5008583157">
		<tag k="historic" v="boundary_stone" />
		<tag k="man_made" v="cairn" />
		<tag k="name" v="Sapposvarrirøysa" />
		<tag k="old_name" v="Sappes Wari Røset" />
		<tag k="place" v="locality" />
		<tag k="ssr:stedsnr" v="49472" />
	</node>
	<node id="-740562" lat="68.388158333" lon="19.9779555356">
		<tag k="historic" v="boundary_stone" />
		<tag k="man_made" v="cairn" />
		<tag k="name" v="Vuoskumuotkirøysa" />
		<tag k="old_name" v="Vuoskomodka Røset" />
		<tag k="place" v="locality" />
		<tag k="ssr:stedsnr" v="777367" />
	</node>
	<node id="-740563" lat="68.4751555546" lon="19.2315416518">
		<tag k="fixme" v="multiple name tags, choose one and add the other to alt_name" />
		<tag k="historic" v="boundary_stone" />
		<tag k="man_made" v="cairn" />
		<tag k="name" v="Vaggadatjåkkarøysa;Vaggirøysa" />
		<tag k="old_name" v="Wagg Elvs Røset" />
		<tag k="place" v="locality" />
		<tag k="ssr:stedsnr" v="777426" />
	</node>
	<node id="-738192" lat="68.5540027786" lon="19.0840166506">
		<tag k="fixme" v="consider boundary=protected_area and relevant protect_class if not nature reserve" />
		<tag k="leisure" v="nature_reserve" />
		<tag k="name" v="Rohkunborri nasjonalpark" />
		<tag k="ssr:stedsnr" v="282273" />
	</node>
	<node id="-738194" lat="68.3939138854" lon="19.7075861078">
		<tag k="historic" v="boundary_stone" />
		<tag k="man_made" v="cairn" />
		<tag k="name" v="Cærrugæccirøysa" />
		<tag k="old_name" v="Kiærro Geitze" />
		<tag k="place" v="locality" />
		<tag k="ssr:stedsnr" v="292356" />
	</node>
	<node id="-741074" lat="68.5069583348" lon="18.6212277734">
		<tag k="historic" v="boundary_stone" />
		<tag k="man_made" v="cairn" />
		<tag k="name" v="Pælnorøysa" />
		<tag k="old_name" v="Polno Røset;Poldno Røset" />
		<tag k="place" v="locality" />
		<tag k="ssr:stedsnr" v="959375" />
	</node>
	<node id="-740396" lat="68.5104527749" lon="18.7403222157">
		<tag k="alt_name" v="Lullehacårrorøysa" />
		<tag k="historic" v="boundary_stone" />
		<tag k="man_made" v="cairn" />
		<tag k="name" v="Lullecorrorøysa" />
		<tag k="old_name" v="Lullihava Tiorro Røset" />
		<tag k="place" v="locality" />
		<tag k="ssr:stedsnr" v="717435" />
	</node>
	<node id="-740395" lat="68.5308138869" lon="20.0258749951">
		<tag k="historic" v="boundary_stone" />
		<tag k="man_made" v="cairn" />
		<tag k="name" v="Darfalvarrirøysa" />
		<tag k="old_name" v="Tarfelwara Røset" />
		<tag k="place" v="locality" />
		<tag k="ssr:stedsnr" v="716309" />
	</node>
	<node id="-739242" lat="68.5169638892" lon="18.9838111071">
		<tag k="alt_name" v="Hjertarøysa" />
		<tag k="historic" v="boundary_stone" />
		<tag k="man_made" v="cairn" />
		<tag k="name" v="Hjerterøysa" />
		<tag k="old_name" v="Hierte Røset" />
		<tag k="place" v="locality" />
		<tag k="ssr:stedsnr" v="231470" />
	</node>
	<node id="-739049" lat="68.3560138889" lon="19.9213777567">
		<tag k="historic" v="boundary_stone" />
		<tag k="man_made" v="cairn" />
		<tag k="name" v="Gaivarrirøysa" />
		<tag k="old_name" v="Køiwarak Røset" />
		<tag k="place" v="locality" />
		<tag k="ssr:stedsnr" v="171368" />
	</node>
	<node id="-740904" lat="68.4059777757" lon="19.6550777729">
		<tag k="historic" v="boundary_stone" />
		<tag k="man_made" v="cairn" />
		<tag k="name" v="Cærrucåkka" />
		<tag k="name:se" v="Cærrucåkka" />
		<tag k="place" v="locality" />
		<tag k="ssr:stedsnr" v="899392" />
	</node>
	<node id="-739241" lat="68.5579416687" lon="19.9375027551">
		<tag k="fixme" v="multiple name tags, choose one and add the other to alt_name" />
		<tag k="historic" v="boundary_stone" />
		<tag k="man_made" v="cairn" />
		<tag k="name" v="Cuovzavarrirøysa;Tiandevarrirøysa" />
		<tag k="old_name" v="Tiandewara Røset" />
		<tag k="place" v="locality" />
		<tag k="ssr:stedsnr" v="231315" />
	</node>
	<node id="-738193" lat="68.4438222253" lon="20.110572215">
		<tag k="fixme" v="multiple name tags, choose one and add the other to alt_name" />
		<tag k="historic" v="boundary_stone" />
		<tag k="man_made" v="cairn" />
		<tag k="name" v="Cuojavarrirøysa;Muvragåppirøysa" />
		<tag k="old_name" v="Tiojawara Røset" />
		<tag k="place" v="locality" />
		<tag k="ssr:stedsnr" v="292353" />
	</node>
	<node id="-739686" lat="68.8226722237" lon="18.1959333421">
		<tag k="fixme" v="specify shooting=range, clay_pigeon etc" />
		<tag k="leisure" v="pitch" />
		<tag k="name" v="Salangsdalen" />
		<tag k="sport" v="shooting" />
		<tag k="ssr:stedsnr" v="481317" />
	</node>
	<node id="-738593" lat="68.5565055509" lon="18.4856777811">
		<tag k="historic" v="boundary_stone" />
		<tag k="man_made" v="cairn" />
		<tag k="name" v="Cunorøysa" />
		<tag k="old_name" v="Kundno Røset" />
		<tag k="place" v="locality" />
		<tag k="ssr:stedsnr" v="413435" />
	</node>
</osm>
