<?xml version="1.0" encoding="UTF-8"?>
<osm generator="osmapis" version="0.6">
	<node id="-739132" lat="68.7430861091" lon="18.5520694403">
		<tag k="amenity" v="place_of_worship" />
		<tag k="denomination" v="lutheran" />
		<tag k="name" v="Øvre Bardu kapell" />
		<tag k="religion" v="christian" />
		<tag k="ssr:stedsnr" v="178079" />
	</node>
	<node id="-739770" lat="68.8249638852" lon="18.1845472081">
		<tag k="amenity" v="community_centre" />
		<tag k="name" v="Brandhaug" />
		<tag k="ssr:stedsnr" v="503525" />
	</node>
	<node id="-738938" lat="68.6386944443" lon="18.2434388807">
		<tag k="historic" v="heritage" />
		<tag k="name" v="Offersteinen" />
		<tag k="place" v="locality" />
		<tag k="ssr:stedsnr" v="115932" />
	</node>
	<node id="-739768" lat="68.8650888934" lon="18.3480972125">
		<tag k="amenity" v="place_of_worship" />
		<tag k="denomination" v="lutheran" />
		<tag k="name" v="Bardu" />
		<tag k="religion" v="christian" />
		<tag k="ssr:stedsnr" v="503500" />
	</node>
	<node id="-738838" lat="68.7077805536" lon="18.5533444444">
		<tag k="amenity" v="community_centre" />
		<tag k="name" v="Granmo" />
		<tag k="ssr:stedsnr" v="78340" />
	</node>
	<node id="-740783" lat="69.0094861133" lon="18.4931916677">
		<tag k="amenity" v="community_centre" />
		<tag k="name" v="Kampenheimen" />
		<tag k="ssr:stedsnr" v="844984" />
	</node>
	<node id="-738922" lat="68.8277777741" lon="18.4217861148">
		<tag k="amenity" v="community_centre" />
		<tag k="name" v="Ranheim" />
		<tag k="ssr:stedsnr" v="115440" />
	</node>
	<node id="-740988" lat="68.7994999979" lon="18.5476638941">
		<tag k="name" v="Dølahall" />
		<tag k="place" v="locality" />
		<tag k="ssr:stedsnr" v="906206" />
	</node>
</osm>
