<?xml version="1.0" encoding="UTF-8"?>
<osm generator="osmapis" version="0.6">
	<node id="-79871" lat="62.927733337" lon="7.99387777455">
		<tag k="historic" v="shieling" />
		<tag k="name" v="Midtsetra" />
		<tag k="place" v="locality" />
		<tag k="ssr:stedsnr" v="763657" />
	</node>
	<node id="-79865" lat="62.8681027822" lon="7.7692749915">
		<tag k="name" v="Dyrlistøa" />
		<tag k="place" v="locality" />
		<tag k="ssr:stedsnr" v="762942" />
	</node>
	<node id="-79855" lat="62.9652138872" lon="7.68551945194">
		<tag k="name" v="Vestgård" />
		<tag k="place" v="farm" />
		<tag k="ssr:stedsnr" v="762067" />
	</node>
	<node id="-79854" lat="62.862036113" lon="7.67854999253">
		<tag k="name" v="Silsethytta" />
		<tag k="place" v="isolated_dwelling" />
		<tag k="ssr:stedsnr" v="762061" />
	</node>
	<node id="-79849" lat="62.8490720879" lon="7.54593284125">
		<tag k="name" v="Ullaland" />
		<tag k="place" v="locality" />
		<tag k="ssr:stedsnr" v="740706" />
	</node>
	<node id="-79846" lat="62.8592005131" lon="7.90595510558">
		<tag k="fixme" v="consider place=hamlet" />
		<tag k="name" v="Fostervollen" />
		<tag k="place" v="farm" />
		<tag k="ssr:stedsnr" v="740503" />
	</node>
	<node id="-79845" lat="62.9539722205" lon="8.02995833593">
		<tag k="name" v="Hjellan" />
		<tag k="place" v="farm" />
		<tag k="ssr:stedsnr" v="739875" />
	</node>
	<node id="-79844" lat="62.9573497654" lon="7.88958800988">
		<tag k="fixme" v="consider place=hamlet" />
		<tag k="name" v="Slettneset" />
		<tag k="place" v="farm" />
		<tag k="ssr:stedsnr" v="739868" />
	</node>
	<node id="-79838" lat="62.9008064257" lon="7.70162029085">
		<tag k="fixme" v="consider place=hamlet" />
		<tag k="name" v="Løvollan" />
		<tag k="place" v="farm" />
		<tag k="ssr:stedsnr" v="739617" />
	</node>
	<node id="-79830" lat="62.9306388891" lon="7.6038083329">
		<tag k="name" v="Elvebakken" />
		<tag k="place" v="farm" />
		<tag k="ssr:stedsnr" v="702820" />
	</node>
	<node id="-79827" lat="62.9351472207" lon="7.59646110931">
		<tag k="name" v="Vorpbukta" />
		<tag k="place" v="farm" />
		<tag k="ssr:stedsnr" v="702406" />
	</node>
	<node id="-79826" lat="62.9435361087" lon="7.61346666682">
		<tag k="name" v="Trøhaugen" />
		<tag k="place" v="farm" />
		<tag k="ssr:stedsnr" v="702404" />
	</node>
	<node id="-79823" lat="62.9685277737" lon="7.72024445414">
		<tag k="name" v="Trøa" />
		<tag k="place" v="farm" />
		<tag k="ssr:stedsnr" v="702060" />
	</node>
	<node id="-79816" lat="62.8887500018" lon="7.97401666266">
		<tag k="name" v="Nistua" />
		<tag k="place" v="farm" />
		<tag k="ssr:stedsnr" v="702014" />
	</node>
	<node id="-79815" lat="62.9274249963" lon="7.99719443649">
		<tag k="historic" v="shieling" />
		<tag k="name" v="Nersetra" />
		<tag k="place" v="locality" />
		<tag k="ssr:stedsnr" v="702012" />
	</node>
	<node id="-79810" lat="62.9383027779" lon="7.64061945341">
		<tag k="historic" v="shieling" />
		<tag k="name" v="Ødegårdsstølen" />
		<tag k="place" v="locality" />
		<tag k="ssr:stedsnr" v="885886" />
	</node>
	<node id="-79768" lat="62.9461166673" lon="7.62725833264">
		<tag k="alt_name" v="Løbergsli" />
		<tag k="name" v="Løbersli" />
		<tag k="place" v="farm" />
		<tag k="ssr:stedsnr" v="884395" />
	</node>
	<node id="-79766" lat="62.9344622196" lon="8.07080756271">
		<tag k="fixme" v="consider place=hamlet" />
		<tag k="name" v="Flemma" />
		<tag k="place" v="farm" />
		<tag k="ssr:stedsnr" v="884141" />
	</node>
	<node id="-79764" lat="62.8451805561" lon="7.8396805516">
		<tag k="name" v="Kroken" />
		<tag k="place" v="farm" />
		<tag k="ssr:stedsnr" v="884042" />
	</node>
	<node id="-79751" lat="62.8357361067" lon="7.60452777405">
		<tag k="name" v="Fursetsetra" />
		<tag k="place" v="isolated_dwelling" />
		<tag k="ssr:stedsnr" v="679672" />
	</node>
	<node id="-79734" lat="62.8543277814" lon="7.86644721305">
		<tag k="name" v="Duelva hytteområde" />
		<tag k="place" v="neighbourhood" />
		<tag k="ssr:stedsnr" v="725746" />
	</node>
	<node id="-79733" lat="62.9710388884" lon="7.83121666022">
		<tag k="name" v="Hagan" />
		<tag k="place" v="farm" />
		<tag k="ssr:stedsnr" v="618823" />
	</node>
	<node id="-79732" lat="62.9290722194" lon="7.84748610141">
		<tag k="name" v="Gammelsetra" />
		<tag k="place" v="farm" />
		<tag k="ssr:stedsnr" v="618910" />
	</node>
	<node id="-79730" lat="62.9930249961" lon="7.82735834215">
		<tag k="name" v="Setra" />
		<tag k="place" v="farm" />
		<tag k="ssr:stedsnr" v="618784" />
	</node>
	<node id="-79728" lat="62.85413208" lon="7.59602152038">
		<tag k="fixme" v="consider place=hamlet" />
		<tag k="name" v="Furset" />
		<tag k="place" v="farm" />
		<tag k="ssr:stedsnr" v="618638" />
	</node>
	<node id="-79701" lat="62.8668361116" lon="7.90049722804">
		<tag k="name" v="Bytreitan" />
		<tag k="place" v="farm" />
		<tag k="ssr:stedsnr" v="702941" />
	</node>
	<node id="-79685" lat="62.855891663" lon="7.56804444539">
		<tag k="name" v="Busteigen" />
		<tag k="place" v="farm" />
		<tag k="ssr:stedsnr" v="702773" />
	</node>
	<node id="-79639" lat="62.9060416641" lon="7.6777611146">
		<tag k="name" v="Astadhaugen" />
		<tag k="place" v="farm" />
		<tag k="ssr:stedsnr" v="702051" />
	</node>
	<node id="-79638" lat="62.9288361107" lon="7.72184166401">
		<tag k="name" v="Nordheim" />
		<tag k="place" v="farm" />
		<tag k="ssr:stedsnr" v="702048" />
	</node>
	<node id="-79637" lat="62.8400694459" lon="7.82528332904">
		<tag k="name" v="Gammelhaltbakken" />
		<tag k="place" v="farm" />
		<tag k="ssr:stedsnr" v="702041" />
	</node>
	<node id="-79636" lat="62.9654722192" lon="8.01061110715">
		<tag k="name" v="Bakketun" />
		<tag k="place" v="farm" />
		<tag k="ssr:stedsnr" v="702031" />
	</node>
	<node id="-79635" lat="62.9108250042" lon="7.89170278085">
		<tag k="name" v="Bortistua" />
		<tag k="place" v="farm" />
		<tag k="ssr:stedsnr" v="702028" />
	</node>
	<node id="-79632" lat="62.8557472205" lon="8.00952500035">
		<tag k="historic" v="shieling" />
		<tag k="name" v="Åbakksetra" />
		<tag k="place" v="locality" />
		<tag k="ssr:stedsnr" v="558557" />
	</node>
	<node id="-79630" lat="62.8848555572" lon="7.90375833982">
		<tag k="name" v="Brekka" />
		<tag k="place" v="farm" />
		<tag k="ssr:stedsnr" v="557966" />
	</node>
	<node id="-79628" lat="62.9298555585" lon="7.86321387994">
		<tag k="name" v="Høgmyra" />
		<tag k="place" v="isolated_dwelling" />
		<tag k="ssr:stedsnr" v="557906" />
	</node>
	<node id="-79620" lat="62.9346805534" lon="7.603522214">
		<tag k="name" v="Sevikneset" />
		<tag k="place" v="farm" />
		<tag k="ssr:stedsnr" v="534228" />
	</node>
	<node id="-79618" lat="62.9739972186" lon="7.79103334282">
		<tag k="name" v="Hamna bustadfelt" />
		<tag k="place" v="quarter" />
		<tag k="ssr:stedsnr" v="526813" />
	</node>
	<node id="-79611" lat="62.9142268824" lon="8.02290227453">
		<tag k="fixme" v="consider place=hamlet" />
		<tag k="name" v="Flemsetra" />
		<tag k="place" v="farm" />
		<tag k="ssr:stedsnr" v="497936" />
	</node>
	<node id="-79610" lat="62.9178402814" lon="8.103545142">
		<tag k="fixme" v="consider place=hamlet" />
		<tag k="name" v="Haltvikan" />
		<tag k="place" v="farm" />
		<tag k="ssr:stedsnr" v="497935" />
	</node>
	<node id="-79609" lat="62.9376689017" lon="7.98303761571">
		<tag k="fixme" v="consider place=hamlet" />
		<tag k="name" v="Kinna" />
		<tag k="place" v="farm" />
		<tag k="ssr:stedsnr" v="497917" />
	</node>
	<node id="-79608" lat="62.9653805551" lon="7.9608333297">
		<tag k="name" v="Myra" />
		<tag k="place" v="farm" />
		<tag k="ssr:stedsnr" v="497910" />
	</node>
	<node id="-79605" lat="62.9644139106" lon="7.76740916247">
		<tag k="fixme" v="consider place=hamlet" />
		<tag k="name" v="Hogset" />
		<tag k="place" v="farm" />
		<tag k="ssr:stedsnr" v="497902" />
	</node>
	<node id="-79600" lat="62.8598805537" lon="7.86481944703">
		<tag k="name" v="Vollan" />
		<tag k="place" v="farm" />
		<tag k="ssr:stedsnr" v="497503" />
	</node>
	<node id="-79598" lat="62.923402779" lon="8.01389722363">
		<tag k="historic" v="shieling" />
		<tag k="name" v="Flemsetra" />
		<tag k="place" v="locality" />
		<tag k="ssr:stedsnr" v="679947" />
	</node>
	<node id="-79594" lat="62.8926250029" lon="8.04400554817">
		<tag k="name" v="Nerbø" />
		<tag k="place" v="farm" />
		<tag k="ssr:stedsnr" v="679998" />
	</node>
	<node id="-79593" lat="62.9072505923" lon="8.01234476156">
		<tag k="fixme" v="consider place=hamlet" />
		<tag k="name" v="Flemseterhaugen" />
		<tag k="place" v="farm" />
		<tag k="ssr:stedsnr" v="679990" />
	</node>
	<node id="-79592" lat="62.9045617717" lon="8.09332988684">
		<tag k="fixme" v="consider place=hamlet" />
		<tag k="name" v="Sjølsvikan" />
		<tag k="place" v="farm" />
		<tag k="ssr:stedsnr" v="679987" />
	</node>
	<node id="-79590" lat="62.971494443" lon="7.84942499056">
		<tag k="name" v="Molen" />
		<tag k="place" v="farm" />
		<tag k="ssr:stedsnr" v="679832" />
	</node>
	<node id="-79587" lat="62.9460861705" lon="7.87480530803">
		<tag k="fixme" v="consider place=hamlet" />
		<tag k="name" v="Orset" />
		<tag k="place" v="farm" />
		<tag k="ssr:stedsnr" v="679915" />
	</node>
	<node id="-79585" lat="62.8892894979" lon="7.6606235466">
		<tag k="fixme" v="consider place=hamlet" />
		<tag k="name" v="Harstad" />
		<tag k="place" v="farm" />
		<tag k="ssr:stedsnr" v="679552" />
	</node>
	<node id="-79583" lat="62.9915166678" lon="7.81547499811">
		<tag k="name" v="Saltkjelen" />
		<tag k="place" v="farm" />
		<tag k="ssr:stedsnr" v="679787" />
	</node>
	<node id="-79581" lat="62.9631924026" lon="8.0171384489">
		<tag k="fixme" v="consider place=hamlet" />
		<tag k="name" v="Hoemsvika" />
		<tag k="place" v="farm" />
		<tag k="ssr:stedsnr" v="678869" />
	</node>
	<node id="-79573" lat="62.9700805588" lon="7.7988388943">
		<tag k="name" v="Hylla" />
		<tag k="place" v="farm" />
		<tag k="ssr:stedsnr" v="519466" />
	</node>
	<node id="-79572" lat="62.9222472206" lon="8.02806666252">
		<tag k="historic" v="shieling" />
		<tag k="name" v="Gammelsetra" />
		<tag k="place" v="locality" />
		<tag k="ssr:stedsnr" v="519462" />
	</node>
	<node id="-79571" lat="62.9738138848" lon="7.84555555926">
		<tag k="name" v="Lyngmo" />
		<tag k="place" v="farm" />
		<tag k="ssr:stedsnr" v="519460" />
	</node>
	<node id="-79565" lat="62.8809666676" lon="7.92570833318">
		<tag k="name" v="Langhaugen" />
		<tag k="place" v="farm" />
		<tag k="ssr:stedsnr" v="519024" />
	</node>
	<node id="-79564" lat="62.8687888897" lon="7.95362499247">
		<tag k="name" v="Sygarden" />
		<tag k="place" v="farm" />
		<tag k="ssr:stedsnr" v="519019" />
	</node>
	<node id="-79563" lat="62.9251499997" lon="8.1006000048">
		<tag k="name" v="Nistua" />
		<tag k="place" v="farm" />
		<tag k="ssr:stedsnr" v="519016" />
	</node>
	<node id="-79562" lat="62.9372083292" lon="7.98293611364">
		<tag k="name" v="Oppistua" />
		<tag k="place" v="farm" />
		<tag k="ssr:stedsnr" v="519001" />
	</node>
	<node id="-79560" lat="62.9104240396" lon="7.89003449155">
		<tag k="fixme" v="consider place=hamlet" />
		<tag k="name" v="Dalen" />
		<tag k="place" v="farm" />
		<tag k="ssr:stedsnr" v="436934" />
	</node>
	<node id="-79558" lat="62.8706700445" lon="7.63474917682">
		<tag k="fixme" v="consider place=hamlet" />
		<tag k="name" v="Bjerkeset" />
		<tag k="place" v="farm" />
		<tag k="ssr:stedsnr" v="436606" />
	</node>
	<node id="-79555" lat="62.8882578807" lon="8.06576525651">
		<tag k="historic" v="shieling" />
		<tag k="name" v="Heimsetra" />
		<tag k="place" v="locality" />
		<tag k="ssr:stedsnr" v="506650" />
	</node>
	<node id="-79552" lat="62.8700888878" lon="7.9573722149">
		<tag k="name" v="Vollan" />
		<tag k="place" v="farm" />
		<tag k="ssr:stedsnr" v="398010" />
	</node>
	<node id="-79551" lat="62.8681305558" lon="7.95068332958">
		<tag k="name" v="Bekken" />
		<tag k="place" v="farm" />
		<tag k="ssr:stedsnr" v="398006" />
	</node>
	<node id="-79550" lat="62.9097583365" lon="7.89133888071">
		<tag k="name" v="Bortate" />
		<tag k="place" v="farm" />
		<tag k="ssr:stedsnr" v="398003" />
	</node>
	<node id="-79542" lat="62.9293333337" lon="7.72380276905">
		<tag k="alt_name" v="Sandvollen" />
		<tag k="name" v="Sandvollan" />
		<tag k="place" v="farm" />
		<tag k="ssr:stedsnr" v="375913" />
	</node>
	<node id="-79541" lat="62.9423545332" lon="7.85660917582">
		<tag k="fixme" v="consider place=hamlet" />
		<tag k="name" v="Torvika" />
		<tag k="place" v="farm" />
		<tag k="ssr:stedsnr" v="375905" />
	</node>
	<node id="-79537" lat="62.8962557949" lon="8.04112016695">
		<tag k="fixme" v="consider place=hamlet" />
		<tag k="name" v="Sollia" />
		<tag k="place" v="farm" />
		<tag k="ssr:stedsnr" v="497999" />
	</node>
	<node id="-79534" lat="62.8872462765" lon="7.95766493435">
		<tag k="name" v="Vatn" />
		<tag k="place" v="locality" />
		<tag k="ssr:stedsnr" v="497971" />
	</node>
	<node id="-79532" lat="62.9117809306" lon="7.72447660977">
		<tag k="fixme" v="consider place=hamlet" />
		<tag k="name" v="Øygarden" />
		<tag k="place" v="farm" />
		<tag k="ssr:stedsnr" v="497957" />
	</node>
	<node id="-79526" lat="62.8482166626" lon="7.58226667244">
		<tag k="name" v="Hjellbakken" />
		<tag k="place" v="farm" />
		<tag k="ssr:stedsnr" v="497687" />
	</node>
	<node id="-79525" lat="62.8946305529" lon="7.67251110996">
		<tag k="name" v="Batnfjordsøra" />
		<tag k="place" v="village" />
		<tag k="ssr:stedsnr" v="497568" />
	</node>
	<node id="-79523" lat="62.8707497009" lon="7.95629673183">
		<tag k="alt_name" v="Blikås" />
		<tag k="fixme" v="consider place=hamlet" />
		<tag k="name" v="Blikåsen" />
		<tag k="place" v="farm" />
		<tag k="ssr:stedsnr" v="497487" />
	</node>
	<node id="-79520" lat="62.943625" lon="7.8573999908">
		<tag k="fixme" v="consider place=hamlet" />
		<tag k="loc_name" v="Torvika" />
		<tag k="name" v="Torvikbukt" />
		<tag k="place" v="village" />
		<tag k="ssr:stedsnr" v="496926" />
	</node>
	<node id="-79519" lat="62.9442083584" lon="7.82999992684">
		<tag k="alt_name" v="Holtet" />
		<tag k="fixme" v="consider place=hamlet" />
		<tag k="name" v="Holten" />
		<tag k="place" v="farm" />
		<tag k="ssr:stedsnr" v="496925" />
	</node>
	<node id="-79518" lat="62.9523666636" lon="7.76978889282">
		<tag k="name" v="Storteigen" />
		<tag k="place" v="farm" />
		<tag k="ssr:stedsnr" v="496878" />
	</node>
	<node id="-79516" lat="62.9641638888" lon="7.77093055155">
		<tag k="fixme" v="multiple name tags, choose one and add the other to alt_name" />
		<tag k="name" v="Hogset;Skogåkran" />
		<tag k="place" v="farm" />
		<tag k="ssr:stedsnr" v="362973" />
	</node>
	<node id="-79505" lat="62.9209638908" lon="7.70484722651">
		<tag k="name" v="Bø" />
		<tag k="place" v="farm" />
		<tag k="ssr:stedsnr" v="337460" />
	</node>
	<node id="-79504" lat="62.8833111099" lon="8.1001777801">
		<tag k="historic" v="shieling" />
		<tag k="name" v="Nesasetra" />
		<tag k="place" v="locality" />
		<tag k="ssr:stedsnr" v="337016" />
	</node>
	<node id="-79503" lat="62.8611138903" lon="8.11090555741">
		<tag k="name" v="Bakkan" />
		<tag k="place" v="farm" />
		<tag k="ssr:stedsnr" v="337015" />
	</node>
	<node id="-79502" lat="62.9371250035" lon="7.98694443893">
		<tag k="name" v="Negarden" />
		<tag k="place" v="farm" />
		<tag k="ssr:stedsnr" v="337006" />
	</node>
	<node id="-79486" lat="62.8575472195" lon="7.69003055997">
		<tag k="name" v="Gammelsetra" />
		<tag k="place" v="isolated_dwelling" />
		<tag k="ssr:stedsnr" v="314675" />
	</node>
	<node id="-79485" lat="62.8556638923" lon="7.64561111873">
		<tag k="historic" v="shieling" />
		<tag k="name" v="Nysetra" />
		<tag k="place" v="locality" />
		<tag k="ssr:stedsnr" v="314674" />
	</node>
	<node id="-79484" lat="62.8585588548" lon="7.60196242387">
		<tag k="fixme" v="consider place=hamlet" />
		<tag k="name" v="Furulia" />
		<tag k="place" v="farm" />
		<tag k="ssr:stedsnr" v="314673" />
	</node>
	<node id="-79483" lat="62.9721454773" lon="7.81921327293">
		<tag k="name" v="Hallset" />
		<tag k="place" v="farm" />
		<tag k="ssr:stedsnr" v="464374" />
	</node>
	<node id="-79432" lat="62.9034083339" lon="8.01005834003">
		<tag k="name" v="Skogan" />
		<tag k="place" v="farm" />
		<tag k="ssr:stedsnr" v="460264" />
	</node>
	<node id="-79421" lat="62.9704305594" lon="7.80176666133">
		<tag k="name" v="Nerkroken" />
		<tag k="place" v="farm" />
		<tag k="ssr:stedsnr" v="459976" />
	</node>
	<node id="-79417" lat="62.8506222212" lon="7.9182833328">
		<tag k="historic" v="shieling" />
		<tag k="name" v="Fostervollsetra" />
		<tag k="place" v="locality" />
		<tag k="ssr:stedsnr" v="459929" />
	</node>
	<node id="-79399" lat="62.8742361089" lon="7.62543056107">
		<tag k="name" v="Solstad" />
		<tag k="place" v="farm" />
		<tag k="ssr:stedsnr" v="459057" />
	</node>
	<node id="-79398" lat="62.94249722" lon="7.74605832676">
		<tag k="name" v="Kariset" />
		<tag k="place" v="farm" />
		<tag k="ssr:stedsnr" v="459051" />
	</node>
	<node id="-79397" lat="62.9310972242" lon="7.79092778232">
		<tag k="name" v="Trøa" />
		<tag k="place" v="farm" />
		<tag k="ssr:stedsnr" v="459040" />
	</node>
	<node id="-79392" lat="62.8877666669" lon="7.9705722224">
		<tag k="name" v="Negarden" />
		<tag k="place" v="farm" />
		<tag k="ssr:stedsnr" v="459027" />
	</node>
	<node id="-79391" lat="62.8944944452" lon="8.08858611744">
		<tag k="name" v="Sletta" />
		<tag k="place" v="farm" />
		<tag k="ssr:stedsnr" v="459018" />
	</node>
	<node id="-79390" lat="62.8872249972" lon="7.96503056181">
		<tag k="name" v="Nylenda" />
		<tag k="place" v="farm" />
		<tag k="ssr:stedsnr" v="459010" />
	</node>
	<node id="-79389" lat="62.9382222227" lon="7.99186944041">
		<tag k="name" v="Rabben" />
		<tag k="place" v="farm" />
		<tag k="ssr:stedsnr" v="459005" />
	</node>
	<node id="-79384" lat="62.9126638859" lon="7.88836110176">
		<tag k="name" v="Røtå" />
		<tag k="place" v="farm" />
		<tag k="ssr:stedsnr" v="277020" />
	</node>
	<node id="-79383" lat="62.961647219" lon="7.9272277742">
		<tag k="name" v="Sygarden" />
		<tag k="place" v="farm" />
		<tag k="ssr:stedsnr" v="277016" />
	</node>
	<node id="-79382" lat="62.9140527759" lon="8.02444166427">
		<tag k="name" v="Midtgarden" />
		<tag k="place" v="farm" />
		<tag k="ssr:stedsnr" v="277014" />
	</node>
	<node id="-79381" lat="62.886536358" lon="8.10687226424">
		<tag k="fixme" v="consider place=hamlet" />
		<tag k="name" v="Knivskjenes" />
		<tag k="place" v="farm" />
		<tag k="ssr:stedsnr" v="458999" />
	</node>
	<node id="-79378" lat="62.9356833318" lon="7.82910833525">
		<tag k="historic" v="shieling" />
		<tag k="name" v="Holtasetra" />
		<tag k="place" v="locality" />
		<tag k="ssr:stedsnr" v="458596" />
	</node>
	<node id="-79368" lat="62.9167749994" lon="7.74523332655">
		<tag k="name" v="Ørlia bustadfelt" />
		<tag k="place" v="quarter" />
		<tag k="ssr:stedsnr" v="222709" />
	</node>
	<node id="-79367" lat="62.9730027798" lon="7.82307221502">
		<tag k="name" v="Hallset" />
		<tag k="place" v="farm" />
		<tag k="ssr:stedsnr" v="218324" />
	</node>
	<node id="-79347" lat="62.9931638852" lon="7.83936389035">
		<tag k="name" v="Storvika" />
		<tag k="place" v="farm" />
		<tag k="ssr:stedsnr" v="216405" />
	</node>
	<node id="-79346" lat="62.9094722191" lon="7.89420278432">
		<tag k="name" v="Trøen" />
		<tag k="place" v="farm" />
		<tag k="ssr:stedsnr" v="216403" />
	</node>
	<node id="-79345" lat="62.8546833342" lon="7.5635333244">
		<tag k="name" v="Furuhaugen" />
		<tag k="place" v="farm" />
		<tag k="ssr:stedsnr" v="216048" />
	</node>
	<node id="-79344" lat="62.960452775" lon="7.78835278039">
		<tag k="name" v="Brusetgarden" />
		<tag k="place" v="farm" />
		<tag k="ssr:stedsnr" v="216047" />
	</node>
	<node id="-79343" lat="62.8595861075" lon="7.90496389425">
		<tag k="name" v="Nystua" />
		<tag k="place" v="farm" />
		<tag k="ssr:stedsnr" v="216042" />
	</node>
	<node id="-79342" lat="62.9157166674" lon="7.76434166081">
		<tag k="name" v="Øver Grinåkeren" />
		<tag k="place" v="farm" />
		<tag k="ssr:stedsnr" v="216040" />
	</node>
	<node id="-79341" lat="62.9239694474" lon="7.77068056026">
		<tag k="name" v="Fjøsteigen" />
		<tag k="place" v="farm" />
		<tag k="ssr:stedsnr" v="216035" />
	</node>
	<node id="-79340" lat="62.9678583325" lon="7.80696943624">
		<tag k="name" v="Vollan" />
		<tag k="place" v="farm" />
		<tag k="ssr:stedsnr" v="216030" />
	</node>
	<node id="-79339" lat="62.8506027811" lon="7.85127500221">
		<tag k="name" v="Sygarden" />
		<tag k="place" v="farm" />
		<tag k="ssr:stedsnr" v="216027" />
	</node>
	<node id="-79338" lat="62.8661027761" lon="7.87136388042">
		<tag k="name" v="Arnlia" />
		<tag k="place" v="farm" />
		<tag k="ssr:stedsnr" v="216022" />
	</node>
	<node id="-79337" lat="62.8985583373" lon="8.08906388751">
		<tag k="name" v="Myra" />
		<tag k="place" v="farm" />
		<tag k="ssr:stedsnr" v="216015" />
	</node>
	<node id="-79334" lat="62.902161107" lon="7.66544722224">
		<tag k="fixme" v="consider place=suburb, village or hamlet" />
		<tag k="name" v="Solsida" />
		<tag k="place" v="quarter" />
		<tag k="ssr:stedsnr" v="202816" />
	</node>
	<node id="-79325" lat="62.9880222244" lon="7.80651945362">
		<tag k="name" v="Brannvika" />
		<tag k="place" v="farm" />
		<tag k="ssr:stedsnr" v="193820" />
	</node>
	<node id="-79324" lat="62.9669666703" lon="7.74361388768">
		<tag k="alt_name" v="Høgset industriområde" />
		<tag k="name" v="Hogset industriområde" />
		<tag k="place" v="quarter" />
		<tag k="ssr:stedsnr" v="283798" />
	</node>
	<node id="-79323" lat="62.8987750041" lon="7.66674444943">
		<tag k="name" v="Solsida 2" />
		<tag k="place" v="quarter" />
		<tag k="ssr:stedsnr" v="283701" />
	</node>
	<node id="-79297" lat="62.9333166635" lon="7.72953888516">
		<tag k="name" v="Kammen" />
		<tag k="place" v="farm" />
		<tag k="ssr:stedsnr" v="278364" />
	</node>
	<node id="-79290" lat="62.9376194446" lon="7.80386110292">
		<tag k="name" v="Bjørkelund" />
		<tag k="place" v="farm" />
		<tag k="ssr:stedsnr" v="277964" />
	</node>
	<node id="-79261" lat="62.8890388916" lon="8.08600000955">
		<tag k="name" v="Sanden" />
		<tag k="place" v="farm" />
		<tag k="ssr:stedsnr" v="155016" />
	</node>
	<node id="-79260" lat="62.8684888879" lon="8.10819721934">
		<tag k="name" v="Berget" />
		<tag k="place" v="farm" />
		<tag k="ssr:stedsnr" v="155011" />
	</node>
	<node id="-79259" lat="62.9567694449" lon="7.93801388734">
		<tag k="historic" v="shieling" />
		<tag k="name" v="Setra" />
		<tag k="place" v="locality" />
		<tag k="ssr:stedsnr" v="155008" />
	</node>
	<node id="-79258" lat="62.9692000026" lon="7.99158333396">
		<tag k="name" v="Plassen" />
		<tag k="place" v="farm" />
		<tag k="ssr:stedsnr" v="155007" />
	</node>
	<node id="-79222" lat="62.9537083331" lon="8.02432777537">
		<tag k="name" v="Vollen" />
		<tag k="place" v="farm" />
		<tag k="ssr:stedsnr" v="132929" />
	</node>
	<node id="-79219" lat="62.8752853737" lon="7.87183196186">
		<tag k="fixme" v="consider place=hamlet" />
		<tag k="name" v="Hanaset" />
		<tag k="place" v="farm" />
		<tag k="ssr:stedsnr" v="255977" />
	</node>
	<node id="-79197" lat="62.9640861142" lon="8.03634723078">
		<tag k="name" v="Kroken" />
		<tag k="place" v="farm" />
		<tag k="ssr:stedsnr" v="96158" />
	</node>
	<node id="-79184" lat="62.8907398525" lon="8.01966814413">
		<tag k="fixme" v="consider place=hamlet" />
		<tag k="name" v="Aspåsen" />
		<tag k="place" v="farm" />
		<tag k="ssr:stedsnr" v="254950" />
	</node>
	<node id="-79182" lat="62.9210554599" lon="8.11363656017">
		<tag k="fixme" v="consider place=hamlet" />
		<tag k="name" v="Sogna" />
		<tag k="place" v="farm" />
		<tag k="ssr:stedsnr" v="254948" />
	</node>
	<node id="-79181" lat="62.9042111156" lon="7.90305555922">
		<tag k="name" v="Reitan" />
		<tag k="place" v="farm" />
		<tag k="ssr:stedsnr" v="254933" />
	</node>
	<node id="-79178" lat="62.9831812903" lon="7.79994555475">
		<tag k="fixme" v="consider place=hamlet" />
		<tag k="name" v="Jelkrem" />
		<tag k="place" v="farm" />
		<tag k="ssr:stedsnr" v="254847" />
	</node>
	<node id="-79175" lat="62.9751317629" lon="7.85296232929">
		<tag k="fixme" v="consider place=hamlet" />
		<tag k="name" v="Hjorten" />
		<tag k="place" v="farm" />
		<tag k="ssr:stedsnr" v="254830" />
	</node>
	<node id="-79174" lat="62.8922499995" lon="8.08603610144">
		<tag k="fixme" v="consider place=hamlet" />
		<tag k="name" v="Angvika" />
		<tag k="place" v="village" />
		<tag k="ssr:stedsnr" v="254995" />
	</node>
	<node id="-79170" lat="62.9673771707" lon="7.69576633773">
		<tag k="fixme" v="consider place=hamlet" />
		<tag k="name" v="Grønset" />
		<tag k="place" v="farm" />
		<tag k="ssr:stedsnr" v="254959" />
	</node>
	<node id="-79169" lat="62.8881865556" lon="7.92571295504">
		<tag k="fixme" v="consider place=hamlet" />
		<tag k="name" v="Øye" />
		<tag k="place" v="farm" />
		<tag k="ssr:stedsnr" v="254958" />
	</node>
	<node id="-79164" lat="62.9201166819" lon="7.70530379069">
		<tag k="fixme" v="consider place=hamlet" />
		<tag k="name" v="Blakkstad" />
		<tag k="place" v="farm" />
		<tag k="ssr:stedsnr" v="254562" />
	</node>
	<node id="-79163" lat="62.8305277774" lon="7.69596388446">
		<tag k="historic" v="shieling" />
		<tag k="name" v="Langlia" />
		<tag k="place" v="locality" />
		<tag k="ssr:stedsnr" v="73746" />
	</node>
	<node id="-79160" lat="62.8730283805" lon="8.1066857003">
		<tag k="fixme" v="consider place=hamlet" />
		<tag k="name" v="Katthammaren" />
		<tag k="place" v="farm" />
		<tag k="ssr:stedsnr" v="73520" />
	</node>
	<node id="-79159" lat="62.9470805516" lon="7.75658888956">
		<tag k="name" v="Frekhaugen" />
		<tag k="place" v="farm" />
		<tag k="ssr:stedsnr" v="72911" />
	</node>
	<node id="-79158" lat="62.9340694438" lon="7.85365277396">
		<tag k="name" v="Åsan" />
		<tag k="place" v="farm" />
		<tag k="ssr:stedsnr" v="72908" />
	</node>
	<node id="-79156" lat="62.945752781" lon="7.75463611557">
		<tag k="name" v="Gjemnesstranda boligfelt" />
		<tag k="place" v="quarter" />
		<tag k="ssr:stedsnr" v="40822" />
	</node>
	<node id="-79148" lat="62.9077722238" lon="7.82131666873">
		<tag k="historic" v="shieling" />
		<tag k="name" v="Negardsetra" />
		<tag k="place" v="locality" />
		<tag k="ssr:stedsnr" v="12941" />
	</node>
	<node id="-79147" lat="62.9666138866" lon="7.97236666251">
		<tag k="name" v="Åkerfallet" />
		<tag k="place" v="farm" />
		<tag k="ssr:stedsnr" v="12907" />
	</node>
	<node id="-79145" lat="62.8460785553" lon="7.58150163507">
		<tag k="fixme" v="consider place=hamlet" />
		<tag k="name" v="Sørlia" />
		<tag k="place" v="farm" />
		<tag k="ssr:stedsnr" v="12709" />
	</node>
	<node id="-79144" lat="62.9486379557" lon="7.63481301322">
		<tag k="fixme" v="consider place=hamlet" />
		<tag k="name" v="Røvik" />
		<tag k="place" v="farm" />
		<tag k="ssr:stedsnr" v="12831" />
	</node>
	<node id="-79142" lat="62.9300139815" lon="7.78727451144">
		<tag k="fixme" v="consider place=hamlet" />
		<tag k="name" v="Bakke" />
		<tag k="place" v="farm" />
		<tag k="ssr:stedsnr" v="11915" />
	</node>
	<node id="-79140" lat="62.9983305552" lon="7.84485276807">
		<tag k="name" v="Måløy" />
		<tag k="place" v="farm" />
		<tag k="ssr:stedsnr" v="11834" />
	</node>
	<node id="-81153" lat="62.959818093" lon="7.78574020557">
		<tag k="fixme" v="consider place=hamlet" />
		<tag k="name" v="Gjemnes" />
		<tag k="place" v="farm" />
		<tag k="ssr:stedsnr" v="980533" />
	</node>
	<node id="-81152" lat="62.9381967682" lon="7.73746997998">
		<tag k="fixme" v="consider place=hamlet" />
		<tag k="name" v="Knutset" />
		<tag k="place" v="farm" />
		<tag k="ssr:stedsnr" v="980532" />
	</node>
	<node id="-81151" lat="62.8687933618" lon="7.63035866839">
		<tag k="name" v="Bjerkeset" />
		<tag k="place" v="farm" />
		<tag k="ssr:stedsnr" v="976269" />
	</node>
	<node id="-81150" lat="62.870726334" lon="7.63323506085">
		<tag k="name" v="Bjerkeset" />
		<tag k="place" v="farm" />
		<tag k="ssr:stedsnr" v="976268" />
	</node>
	<node id="-81149" lat="62.873349494" lon="7.63900887441">
		<tag k="name" v="Bjerkeset" />
		<tag k="place" v="farm" />
		<tag k="ssr:stedsnr" v="976267" />
	</node>
	<node id="-81148" lat="62.8744513582" lon="7.63866585677">
		<tag k="name" v="Bjerkeset" />
		<tag k="place" v="farm" />
		<tag k="ssr:stedsnr" v="976266" />
	</node>
	<node id="-81147" lat="62.87376204" lon="7.64165513622">
		<tag k="name" v="Bjerkeset" />
		<tag k="place" v="farm" />
		<tag k="ssr:stedsnr" v="976265" />
	</node>
	<node id="-81146" lat="62.8697811688" lon="7.63155570144">
		<tag k="name" v="Bjerkeset" />
		<tag k="place" v="farm" />
		<tag k="ssr:stedsnr" v="976264" />
	</node>
	<node id="-81145" lat="62.9285741546" lon="7.78570954979">
		<tag k="name" v="Breiteigen" />
		<tag k="place" v="farm" />
		<tag k="ssr:stedsnr" v="975655" />
	</node>
	<node id="-81144" lat="62.9311777773" lon="7.60613056118">
		<tag k="name" v="Sevika boligfelt" />
		<tag k="place" v="quarter" />
		<tag k="ssr:stedsnr" v="951829" />
	</node>
	<node id="-81138" lat="62.9608252608" lon="7.92815826999">
		<tag k="fixme" v="consider place=hamlet" />
		<tag k="name" v="Ranem" />
		<tag k="place" v="farm" />
		<tag k="ssr:stedsnr" v="861888" />
	</node>
	<node id="-81136" lat="62.9929198328" lon="7.84055730299">
		<tag k="fixme" v="consider place=hamlet" />
		<tag k="name" v="Storvika" />
		<tag k="place" v="farm" />
		<tag k="ssr:stedsnr" v="861880" />
	</node>
	<node id="-81132" lat="62.9146555561" lon="7.76768888396">
		<tag k="name" v="Orskogsteigen" />
		<tag k="place" v="farm" />
		<tag k="ssr:stedsnr" v="861974" />
	</node>
	<node id="-81129" lat="62.8672333336" lon="7.66620833771">
		<tag k="name" v="Kleiva" />
		<tag k="place" v="isolated_dwelling" />
		<tag k="ssr:stedsnr" v="861638" />
	</node>
	<node id="-81086" lat="62.9633916657" lon="7.76001388433">
		<tag k="name" v="Liabø" />
		<tag k="place" v="farm" />
		<tag k="ssr:stedsnr" v="823431" />
	</node>
	<node id="-81085" lat="62.8876999967" lon="7.65595277264">
		<tag k="name" v="Rabben" />
		<tag k="place" v="farm" />
		<tag k="ssr:stedsnr" v="823041" />
	</node>
	<node id="-81084" lat="62.9263857447" lon="7.77757678411">
		<tag k="name" v="Myrteigen" />
		<tag k="place" v="farm" />
		<tag k="ssr:stedsnr" v="823025" />
	</node>
	<node id="-81083" lat="62.9486111067" lon="7.7598194485">
		<tag k="name" v="Jutulen" />
		<tag k="place" v="farm" />
		<tag k="ssr:stedsnr" v="823022" />
	</node>
	<node id="-81082" lat="62.939838885" lon="7.80983889239">
		<tag k="name" v="Sivertplassen" />
		<tag k="place" v="farm" />
		<tag k="ssr:stedsnr" v="823020" />
	</node>
	<node id="-81081" lat="62.8621055568" lon="7.86480832702">
		<tag k="name" v="Haugen" />
		<tag k="place" v="farm" />
		<tag k="ssr:stedsnr" v="823017" />
	</node>
	<node id="-81080" lat="62.9131666669" lon="8.02197499596">
		<tag k="name" v="Nistua" />
		<tag k="place" v="farm" />
		<tag k="ssr:stedsnr" v="823014" />
	</node>
	<node id="-81069" lat="62.90833611" lon="7.77907499136">
		<tag k="name" v="Steffenhaugen" />
		<tag k="place" v="farm" />
		<tag k="ssr:stedsnr" v="801942" />
	</node>
	<node id="-81066" lat="62.8389527791" lon="7.47399721461">
		<tag k="historic" v="shieling" />
		<tag k="name" v="Åndalssetra" />
		<tag k="place" v="locality" />
		<tag k="ssr:stedsnr" v="801665" />
	</node>
	<node id="-81060" lat="62.8638750001" lon="7.87388056457">
		<tag k="name" v="Asplia" />
		<tag k="place" v="farm" />
		<tag k="ssr:stedsnr" v="801500" />
	</node>
	<node id="-81057" lat="62.91972713" lon="7.76184750204">
		<tag k="fixme" v="consider place=hamlet" />
		<tag k="name" v="Myklebostad" />
		<tag k="place" v="farm" />
		<tag k="ssr:stedsnr" v="800951" />
	</node>
	<node id="-81054" lat="62.942638885" lon="7.84559166238">
		<tag k="name" v="Bakkan" />
		<tag k="place" v="farm" />
		<tag k="ssr:stedsnr" v="800907" />
	</node>
	<node id="-81053" lat="62.9426750005" lon="7.86549444054">
		<tag k="name" v="Vollan" />
		<tag k="place" v="farm" />
		<tag k="ssr:stedsnr" v="800904" />
	</node>
	<node id="-81050" lat="62.9553611148" lon="7.87817221751">
		<tag k="name" v="Klokkarhaugen" />
		<tag k="place" v="farm" />
		<tag k="ssr:stedsnr" v="800880" />
	</node>
	<node id="-81048" lat="62.9454635583" lon="7.62087811542">
		<tag k="fixme" v="consider place=hamlet" />
		<tag k="name" v="Skjerset" />
		<tag k="place" v="farm" />
		<tag k="ssr:stedsnr" v="800504" />
	</node>
	<node id="-81047" lat="62.9076863419" lon="7.71241940983">
		<tag k="fixme" v="consider place=hamlet" />
		<tag k="name" v="Tørriset" />
		<tag k="place" v="farm" />
		<tag k="ssr:stedsnr" v="800565" />
	</node>
	<node id="-81044" lat="62.9251499972" lon="8.10043056321">
		<tag k="fixme" v="multiple name tags, choose one and add the other to alt_name" />
		<tag k="name" v="Gagnat;Nistua" />
		<tag k="place" v="farm" />
		<tag k="ssr:stedsnr" v="769885" />
	</node>
	<node id="-81043" lat="62.8894166691" lon="7.97070276968">
		<tag k="name" v="Fagerlia hyttefelt" />
		<tag k="place" v="neighbourhood" />
		<tag k="ssr:stedsnr" v="768739" />
	</node>
	<node id="-81027" lat="62.9061138895" lon="8.01192499936">
		<tag k="name" v="Sørhaugen" />
		<tag k="place" v="farm" />
		<tag k="ssr:stedsnr" v="763620" />
	</node>
	<node id="-81026" lat="62.8817111123" lon="7.92314167309">
		<tag k="name" v="Langhaugen" />
		<tag k="place" v="farm" />
		<tag k="ssr:stedsnr" v="763593" />
	</node>
	<node id="-81007" lat="62.8781083368" lon="7.82666944552">
		<tag k="name" v="Duålisetra" />
		<tag k="place" v="locality" />
		<tag k="ssr:stedsnr" v="763236" />
	</node>
	<node id="-80994" lat="62.8930250016" lon="7.85668332542">
		<tag k="historic" v="shieling" />
		<tag k="name" v="Sørdalssetra" />
		<tag k="place" v="locality" />
		<tag k="ssr:stedsnr" v="763537" />
	</node>
	<node id="-80982" lat="62.9251166623" lon="7.71017778168">
		<tag k="name" v="Ligarden" />
		<tag k="place" v="farm" />
		<tag k="ssr:stedsnr" v="762047" />
	</node>
	<node id="-80981" lat="62.9270908006" lon="7.77875906058">
		<tag k="name" v="Høybuteigen" />
		<tag k="place" v="farm" />
		<tag k="ssr:stedsnr" v="762037" />
	</node>
	<node id="-80980" lat="62.8883944424" lon="7.92799721982">
		<tag k="name" v="Øygarden" />
		<tag k="place" v="farm" />
		<tag k="ssr:stedsnr" v="762018" />
	</node>
	<node id="-80979" lat="62.8585166624" lon="8.10585277444">
		<tag k="name" v="Innate" />
		<tag k="place" v="farm" />
		<tag k="ssr:stedsnr" v="762008" />
	</node>
	<node id="-80978" lat="62.9538444471" lon="8.02408611477">
		<tag k="name" v="Nybråten" />
		<tag k="place" v="farm" />
		<tag k="ssr:stedsnr" v="762005" />
	</node>
	<node id="-80977" lat="62.9649166691" lon="7.96395833085">
		<tag k="name" v="Brekka" />
		<tag k="place" v="farm" />
		<tag k="ssr:stedsnr" v="762003" />
	</node>
	<node id="-80973" lat="62.8992119964" lon="7.89639804102">
		<tag k="fixme" v="consider place=hamlet" />
		<tag k="name" v="Sørdalen" />
		<tag k="place" v="farm" />
		<tag k="ssr:stedsnr" v="740939" />
	</node>
	<node id="-80972" lat="62.9686999998" lon="7.71203888321">
		<tag k="name" v="Asphaugtrøa" />
		<tag k="place" v="farm" />
		<tag k="ssr:stedsnr" v="740937" />
	</node>
	<node id="-80968" lat="62.9701722243" lon="7.79870556032">
		<tag k="name" v="Kroken" />
		<tag k="place" v="farm" />
		<tag k="ssr:stedsnr" v="740831" />
	</node>
	<node id="-80967" lat="62.8673285498" lon="7.61129708564">
		<tag k="fixme" v="consider place=hamlet" />
		<tag k="name" v="Pesetra" />
		<tag k="place" v="farm" />
		<tag k="ssr:stedsnr" v="740672" />
	</node>
	<node id="-80962" lat="62.8605761904" lon="7.9887953441">
		<tag k="fixme" v="consider place=hamlet" />
		<tag k="name" v="Åbakkan" />
		<tag k="place" v="farm" />
		<tag k="ssr:stedsnr" v="740498" />
	</node>
	<node id="-80959" lat="62.8932812374" lon="7.6871662189">
		<tag k="fixme" v="consider place=hamlet" />
		<tag k="name" v="Nåstad" />
		<tag k="place" v="farm" />
		<tag k="ssr:stedsnr" v="740580" />
	</node>
	<node id="-80955" lat="62.9322120596" lon="7.96839352714">
		<tag k="historic" v="shieling" />
		<tag k="name" v="Svanavollen" />
		<tag k="place" v="locality" />
		<tag k="ssr:stedsnr" v="739901" />
	</node>
	<node id="-80954" lat="62.9321552617" lon="7.79679918523">
		<tag k="fixme" v="consider place=hamlet" />
		<tag k="name" v="Dønnem" />
		<tag k="place" v="farm" />
		<tag k="ssr:stedsnr" v="739895" />
	</node>
	<node id="-80952" lat="62.9357222217" lon="8.0752055652">
		<tag k="fixme" v="consider place=hamlet" />
		<tag k="name" v="Flemma" />
		<tag k="place" v="village" />
		<tag k="ssr:stedsnr" v="739892" />
	</node>
	<node id="-80941" lat="62.8849611072" lon="7.90263610982">
		<tag k="name" v="Sør-Brekka" />
		<tag k="place" v="farm" />
		<tag k="ssr:stedsnr" v="641674" />
	</node>
	<node id="-80938" lat="62.8603250017" lon="8.07915554971">
		<tag k="name" v="Slåttamyrløa" />
		<tag k="place" v="locality" />
		<tag k="ssr:stedsnr" v="641642" />
	</node>
	<node id="-80926" lat="62.9145555547" lon="8.02611389042">
		<tag k="name" v="Oppigarden" />
		<tag k="place" v="farm" />
		<tag k="ssr:stedsnr" v="641497" />
	</node>
	<node id="-80895" lat="62.9024083327" lon="8.06274443609">
		<tag k="historic" v="shieling" />
		<tag k="name" v="Skjølsviksetra" />
		<tag k="place" v="locality" />
		<tag k="ssr:stedsnr" v="640461" />
	</node>
	<node id="-80886" lat="62.9179361093" lon="7.76144166584">
		<tag k="name" v="Gammelskulen" />
		<tag k="place" v="farm" />
		<tag k="ssr:stedsnr" v="640055" />
	</node>
	<node id="-80885" lat="62.8625277819" lon="7.62954722674">
		<tag k="historic" v="shieling" />
		<tag k="name" v="Bjerkesetsetra" />
		<tag k="place" v="locality" />
		<tag k="ssr:stedsnr" v="640049" />
	</node>
	<node id="-80884" lat="62.898411107" lon="7.74020555119">
		<tag k="name" v="Raudbergstua" />
		<tag k="place" v="isolated_dwelling" />
		<tag k="ssr:stedsnr" v="640048" />
	</node>
	<node id="-80883" lat="62.9714472207" lon="7.81345832827">
		<tag k="name" v="Myra" />
		<tag k="place" v="farm" />
		<tag k="ssr:stedsnr" v="640032" />
	</node>
	<node id="-80882" lat="62.9175388853" lon="8.0335805641">
		<tag k="name" v="Vollan" />
		<tag k="place" v="farm" />
		<tag k="ssr:stedsnr" v="640021" />
	</node>
	<node id="-80881" lat="62.9351388909" lon="8.07048056389">
		<tag k="name" v="Oppistua" />
		<tag k="place" v="farm" />
		<tag k="ssr:stedsnr" v="640020" />
	</node>
	<node id="-80880" lat="62.9126055576" lon="8.10726944364">
		<tag k="name" v="Vikan" />
		<tag k="place" v="farm" />
		<tag k="ssr:stedsnr" v="640015" />
	</node>
	<node id="-80879" lat="62.8869249994" lon="7.95683610868">
		<tag k="name" v="Hola" />
		<tag k="place" v="farm" />
		<tag k="ssr:stedsnr" v="640011" />
	</node>
	<node id="-80872" lat="62.847788885" lon="8.01923888544">
		<tag k="historic" v="shieling" />
		<tag k="name" v="Brakstadsetra" />
		<tag k="place" v="locality" />
		<tag k="ssr:stedsnr" v="619557" />
	</node>
	<node id="-80870" lat="62.9628611139" lon="7.95739443574">
		<tag k="name" v="Øygarden" />
		<tag k="place" v="farm" />
		<tag k="ssr:stedsnr" v="618899" />
	</node>
	<node id="-80866" lat="62.8898960971" lon="7.68333221228">
		<tag k="fixme" v="consider place=hamlet" />
		<tag k="name" v="Innergarden" />
		<tag k="place" v="farm" />
		<tag k="ssr:stedsnr" v="618575" />
	</node>
	<node id="-80863" lat="62.8961722211" lon="7.90705277579">
		<tag k="name" v="Furuhaugen" />
		<tag k="place" v="farm" />
		<tag k="ssr:stedsnr" v="619000" />
	</node>
	<node id="-80860" lat="62.9506926004" lon="7.6429776798">
		<tag k="name" v="Røvik" />
		<tag k="place" v="farm" />
		<tag k="ssr:stedsnr" v="618981" />
	</node>
	<node id="-80858" lat="62.9300638917" lon="7.99191667634">
		<tag k="name" v="Hoemssetra" />
		<tag k="place" v="isolated_dwelling" />
		<tag k="ssr:stedsnr" v="618945" />
	</node>
	<node id="-80857" lat="62.9060268814" lon="7.78238447196">
		<tag k="fixme" v="consider place=hamlet" />
		<tag k="name" v="Skei" />
		<tag k="place" v="farm" />
		<tag k="ssr:stedsnr" v="618942" />
	</node>
	<node id="-80851" lat="62.8625916694" lon="7.68615000335">
		<tag k="name" v="Silsetfjellet hytteområde" />
		<tag k="place" v="neighbourhood" />
		<tag k="ssr:stedsnr" v="586807" />
	</node>
	<node id="-80850" lat="62.9330416631" lon="7.60111944481">
		<tag k="name" v="Sevika" />
		<tag k="place" v="farm" />
		<tag k="ssr:stedsnr" v="586805" />
	</node>
	<node id="-80849" lat="62.9311777773" lon="7.60613056118">
		<tag k="loc_name" v="Sevikneset hyttefelt" />
		<tag k="name" v="Sevika hyttefelt" />
		<tag k="place" v="neighbourhood" />
		<tag k="ssr:stedsnr" v="586800" />
	</node>
	<node id="-80848" lat="62.9677911406" lon="7.8187847933">
		<tag k="alt_name" v="Halset hyttefelt" />
		<tag k="name" v="Hallset hyttefelt" />
		<tag k="place" v="neighbourhood" />
		<tag k="ssr:stedsnr" v="586724" />
	</node>
	<node id="-80811" lat="62.9372472232" lon="7.73570277067">
		<tag k="name" v="Haugan" />
		<tag k="place" v="farm" />
		<tag k="ssr:stedsnr" v="580051" />
	</node>
	<node id="-80810" lat="62.968161109" lon="7.71697221952">
		<tag k="name" v="Nyland" />
		<tag k="place" v="farm" />
		<tag k="ssr:stedsnr" v="580049" />
	</node>
	<node id="-80809" lat="62.9392055565" lon="7.80839444688">
		<tag k="name" v="Bjørnplassen" />
		<tag k="place" v="farm" />
		<tag k="ssr:stedsnr" v="580044" />
	</node>
	<node id="-80808" lat="62.918305555" lon="7.75050276841">
		<tag k="alt_name" v="Øre" />
		<tag k="fixme" v="consider place=hamlet" />
		<tag k="name" v="Prestgarden" />
		<tag k="place" v="farm" />
		<tag k="ssr:stedsnr" v="580040" />
	</node>
	<node id="-80807" lat="62.9606416701" lon="7.93258333919">
		<tag k="name" v="Bakken" />
		<tag k="place" v="farm" />
		<tag k="ssr:stedsnr" v="580025" />
	</node>
	<node id="-80797" lat="62.893701372" lon="8.08731588054">
		<tag k="fixme" v="consider place=hamlet" />
		<tag k="name" v="Angvika" />
		<tag k="place" v="farm" />
		<tag k="ssr:stedsnr" v="566655" />
	</node>
	<node id="-80794" lat="62.8443480545" lon="7.52443016911">
		<tag k="name" v="Øyan" />
		<tag k="place" v="locality" />
		<tag k="ssr:stedsnr" v="558743" />
	</node>
	<node id="-80791" lat="62.8694739524" lon="8.10636196895">
		<tag k="fixme" v="consider place=hamlet" />
		<tag k="name" v="Brubekken" />
		<tag k="place" v="farm" />
		<tag k="ssr:stedsnr" v="558528" />
	</node>
	<node id="-80787" lat="62.9211361083" lon="7.89432777126">
		<tag k="historic" v="shieling" />
		<tag k="name" v="Åsasetra" />
		<tag k="place" v="locality" />
		<tag k="ssr:stedsnr" v="557944" />
	</node>
	<node id="-80785" lat="62.9084750031" lon="7.7722388831">
		<tag k="fixme" v="consider place=hamlet" />
		<tag k="name" v="Skeisdalen" />
		<tag k="place" v="village" />
		<tag k="ssr:stedsnr" v="557925" />
	</node>
	<node id="-80783" lat="62.9377805579" lon="7.73915277262">
		<tag k="fixme" v="consider place=hamlet" />
		<tag k="name" v="Knutset" />
		<tag k="place" v="village" />
		<tag k="ssr:stedsnr" v="557918" />
	</node>
	<node id="-80782" lat="62.9486342339" lon="8.06092067838">
		<tag k="fixme" v="consider place=hamlet" />
		<tag k="name" v="Varvika" />
		<tag k="place" v="farm" />
		<tag k="ssr:stedsnr" v="557912" />
	</node>
	<node id="-80780" lat="62.9334055584" lon="7.72899721364">
		<tag k="alt_name" v="Kjerkevollan" />
		<tag k="name" v="Kjerkvollan" />
		<tag k="place" v="farm" />
		<tag k="ssr:stedsnr" v="557900" />
	</node>
	<node id="-80779" lat="62.9433138904" lon="7.88503889684">
		<tag k="historic" v="shieling" />
		<tag k="name" v="Orsetsetra" />
		<tag k="place" v="locality" />
		<tag k="ssr:stedsnr" v="557893" />
	</node>
	<node id="-80777" lat="62.8972388931" lon="8.08038889717">
		<tag k="name" v="Haltlia" />
		<tag k="place" v="farm" />
		<tag k="ssr:stedsnr" v="557994" />
	</node>
	<node id="-80775" lat="62.9814862588" lon="7.86580460507">
		<tag k="fixme" v="consider place=hamlet" />
		<tag k="name" v="Berge" />
		<tag k="place" v="farm" />
		<tag k="ssr:stedsnr" v="557847" />
	</node>
	<node id="-80770" lat="62.9024529385" lon="7.67880492456">
		<tag k="fixme" v="consider place=hamlet" />
		<tag k="name" v="Astad" />
		<tag k="place" v="farm" />
		<tag k="ssr:stedsnr" v="557577" />
	</node>
	<node id="-80769" lat="62.8641666676" lon="7.89468334174">
		<tag k="name" v="Fosterlågen hytteområde" />
		<tag k="place" v="neighbourhood" />
		<tag k="ssr:stedsnr" v="526711" />
	</node>
	<node id="-80709" lat="62.9781305554" lon="7.85999722571">
		<tag k="name" v="Leitet" />
		<tag k="place" v="farm" />
		<tag k="ssr:stedsnr" v="437822" />
	</node>
	<node id="-80699" lat="62.8630944411" lon="7.63143055951">
		<tag k="historic" v="shieling" />
		<tag k="name" v="Gammelsetra" />
		<tag k="place" v="locality" />
		<tag k="ssr:stedsnr" v="436651" />
	</node>
	<node id="-80697" lat="62.8964194466" lon="7.69156110138">
		<tag k="name" v="Nåstadøra" />
		<tag k="place" v="farm" />
		<tag k="ssr:stedsnr" v="436581" />
	</node>
	<node id="-80695" lat="62.9609473436" lon="7.67270926933">
		<tag k="fixme" v="consider place=hamlet" />
		<tag k="name" v="Stokke" />
		<tag k="place" v="farm" />
		<tag k="ssr:stedsnr" v="436958" />
	</node>
	<node id="-80693" lat="62.9467109848" lon="7.62760883261">
		<tag k="fixme" v="consider place=hamlet" />
		<tag k="name" v="Øygarden" />
		<tag k="place" v="farm" />
		<tag k="ssr:stedsnr" v="436501" />
	</node>
	<node id="-80692" lat="62.9706722214" lon="7.97094445254">
		<tag k="name" v="Klokkarbukta hyttefelt" />
		<tag k="place" v="neighbourhood" />
		<tag k="ssr:stedsnr" v="404711" />
	</node>
	<node id="-80691" lat="62.959350491" lon="8.03229100452">
		<tag k="fixme" v="consider place=hamlet" />
		<tag k="name" v="Hoem" />
		<tag k="place" v="farm" />
		<tag k="ssr:stedsnr" v="401596" />
	</node>
	<node id="-80687" lat="62.8874583305" lon="7.64968055456">
		<tag k="name" v="Brattmyra" />
		<tag k="place" v="farm" />
		<tag k="ssr:stedsnr" v="399827" />
	</node>
	<node id="-80662" lat="62.8866500003" lon="7.83670554797">
		<tag k="historic" v="shieling" />
		<tag k="name" v="Slettnessetra" />
		<tag k="place" v="locality" />
		<tag k="ssr:stedsnr" v="399569" />
	</node>
	<node id="-80655" lat="62.9438330283" lon="7.8217588388">
		<tag k="fixme" v="consider place=hamlet" />
		<tag k="name" v="Nautnes" />
		<tag k="place" v="farm" />
		<tag k="ssr:stedsnr" v="399362" />
	</node>
	<node id="-80650" lat="62.8658194482" lon="7.72029165989">
		<tag k="historic" v="shieling" />
		<tag k="name" v="Nåstadsetra" />
		<tag k="place" v="locality" />
		<tag k="ssr:stedsnr" v="399227" />
	</node>
	<node id="-80639" lat="62.9681083315" lon="7.81318055546">
		<tag k="name" v="Gammelstua" />
		<tag k="place" v="farm" />
		<tag k="ssr:stedsnr" v="398954" />
	</node>
	<node id="-80625" lat="62.9526583375" lon="7.6386277772">
		<tag k="name" v="Hammaren" />
		<tag k="place" v="farm" />
		<tag k="ssr:stedsnr" v="398057" />
	</node>
	<node id="-80624" lat="62.9624833291" lon="7.77655000685">
		<tag k="name" v="Bytenga" />
		<tag k="place" v="farm" />
		<tag k="ssr:stedsnr" v="398051" />
	</node>
	<node id="-80623" lat="62.90365" lon="7.78206666319">
		<tag k="name" v="Myra" />
		<tag k="place" v="farm" />
		<tag k="ssr:stedsnr" v="398049" />
	</node>
	<node id="-80622" lat="62.9411583318" lon="7.74150556416">
		<tag k="name" v="Knutsetneset" />
		<tag k="place" v="farm" />
		<tag k="ssr:stedsnr" v="398046" />
	</node>
	<node id="-80621" lat="62.9170527807" lon="7.76184445225">
		<tag k="name" v="Ner Grinåkeren" />
		<tag k="place" v="farm" />
		<tag k="ssr:stedsnr" v="398045" />
	</node>
	<node id="-80620" lat="62.9296805542" lon="7.78950833646">
		<tag k="name" v="Øverhjellen" />
		<tag k="place" v="farm" />
		<tag k="ssr:stedsnr" v="398042" />
	</node>
	<node id="-80619" lat="62.8645000004" lon="7.87451944181">
		<tag k="name" v="Kallslættet" />
		<tag k="place" v="farm" />
		<tag k="ssr:stedsnr" v="398031" />
	</node>
	<node id="-80618" lat="62.9164916686" lon="8.03163888197">
		<tag k="name" v="Lund" />
		<tag k="place" v="farm" />
		<tag k="ssr:stedsnr" v="398022" />
	</node>
	<node id="-80616" lat="62.9493668953" lon="7.84714710331">
		<tag k="fixme" v="consider place=hamlet" />
		<tag k="name" v="Torviknes" />
		<tag k="place" v="farm" />
		<tag k="ssr:stedsnr" v="397555" />
	</node>
	<node id="-80608" lat="62.9642694439" lon="8.03421111367">
		<tag k="name" v="Kroken" />
		<tag k="place" v="farm" />
		<tag k="ssr:stedsnr" v="376882" />
	</node>
	<node id="-80605" lat="62.8349444442" lon="7.51486944316">
		<tag k="name" v="Raudmelen" />
		<tag k="place" v="locality" />
		<tag k="ssr:stedsnr" v="376713" />
	</node>
	<node id="-80603" lat="62.9252233121" lon="8.09802349252">
		<tag k="fixme" v="consider place=hamlet" />
		<tag k="name" v="Gagnat" />
		<tag k="place" v="farm" />
		<tag k="ssr:stedsnr" v="375949" />
	</node>
	<node id="-80601" lat="62.9834138919" lon="7.85503333321">
		<tag k="name" v="Hamna" />
		<tag k="place" v="farm" />
		<tag k="ssr:stedsnr" v="375842" />
	</node>
	<node id="-80600" lat="62.9730598786" lon="7.82081502864">
		<tag k="fixme" v="consider place=hamlet" />
		<tag k="name" v="Hallset" />
		<tag k="place" v="farm" />
		<tag k="ssr:stedsnr" v="375895" />
	</node>
	<node id="-80596" lat="62.9452267791" lon="7.62534127415">
		<tag k="name" v="Haugan" />
		<tag k="place" v="farm" />
		<tag k="ssr:stedsnr" v="375477" />
	</node>
	<node id="-80593" lat="62.9722166693" lon="7.97378612086">
		<tag k="name" v="Kvalvågneset hyttefelt" />
		<tag k="place" v="neighbourhood" />
		<tag k="ssr:stedsnr" v="343759" />
	</node>
	<node id="-80576" lat="62.8559388891" lon="7.78620556294">
		<tag k="historic" v="shieling" />
		<tag k="name" v="Dyrlisetra" />
		<tag k="place" v="locality" />
		<tag k="ssr:stedsnr" v="338733" />
	</node>
	<node id="-80561" lat="62.8601222186" lon="7.99079444222">
		<tag k="name" v="Smihaugen" />
		<tag k="place" v="isolated_dwelling" />
		<tag k="ssr:stedsnr" v="338557" />
	</node>
	<node id="-80560" lat="62.9039611075" lon="8.02824722626">
		<tag k="historic" v="shieling" />
		<tag k="name" v="Gagnatsetra" />
		<tag k="place" v="locality" />
		<tag k="ssr:stedsnr" v="338548" />
	</node>
	<node id="-80553" lat="62.9394722193" lon="8.04038612054">
		<tag k="historic" v="shieling" />
		<tag k="name" v="Seterstølen" />
		<tag k="place" v="locality" />
		<tag k="ssr:stedsnr" v="338497" />
	</node>
	<node id="-80533" lat="62.9155416678" lon="7.75197500011">
		<tag k="name" v="Saltbuhaugen" />
		<tag k="place" v="farm" />
		<tag k="ssr:stedsnr" v="337858" />
	</node>
	<node id="-80510" lat="62.9250845229" lon="7.7736644114">
		<tag k="name" v="Ørteigen" />
		<tag k="place" v="farm" />
		<tag k="ssr:stedsnr" v="337056" />
	</node>
	<node id="-80509" lat="62.9412916642" lon="7.81294721601">
		<tag k="name" v="Amundplassen" />
		<tag k="place" v="farm" />
		<tag k="ssr:stedsnr" v="337054" />
	</node>
	<node id="-80508" lat="62.8610055578" lon="7.90717499767">
		<tag k="name" v="Oppistua" />
		<tag k="place" v="farm" />
		<tag k="ssr:stedsnr" v="337040" />
	</node>
	<node id="-80505" lat="62.8736527817" lon="8.01943889846">
		<tag k="historic" v="shieling" />
		<tag k="name" v="Angviksetra" />
		<tag k="place" v="locality" />
		<tag k="ssr:stedsnr" v="324639" />
	</node>
	<node id="-80504" lat="62.8961972251" lon="8.06013888831">
		<tag k="name" v="Myrvang" />
		<tag k="place" v="farm" />
		<tag k="ssr:stedsnr" v="315996" />
	</node>
	<node id="-80502" lat="62.8885885556" lon="7.97157044847">
		<tag k="fixme" v="consider place=hamlet" />
		<tag k="name" v="Fagerlia" />
		<tag k="place" v="farm" />
		<tag k="ssr:stedsnr" v="315964" />
	</node>
	<node id="-80500" lat="62.9687194417" lon="7.98276666568">
		<tag k="name" v="Kvalvåg" />
		<tag k="place" v="hamlet" />
		<tag k="ssr:stedsnr" v="315897" />
	</node>
	<node id="-80498" lat="62.9104444455" lon="7.9690388938">
		<tag k="name" v="Solskinskvilaren" />
		<tag k="place" v="isolated_dwelling" />
		<tag k="ssr:stedsnr" v="315927" />
	</node>
	<node id="-80495" lat="62.9034305575" lon="7.70406111818">
		<tag k="name" v="Vika" />
		<tag k="place" v="farm" />
		<tag k="ssr:stedsnr" v="315588" />
	</node>
	<node id="-80490" lat="62.8377956421" lon="7.82041388777">
		<tag k="fixme" v="consider place=hamlet" />
		<tag k="name" v="Meinset" />
		<tag k="place" v="farm" />
		<tag k="ssr:stedsnr" v="315529" />
	</node>
	<node id="-80486" lat="62.8712421896" lon="7.88960790124">
		<tag k="fixme" v="consider place=hamlet" />
		<tag k="name" v="Heggem" />
		<tag k="place" v="farm" />
		<tag k="ssr:stedsnr" v="315485" />
	</node>
	<node id="-80475" lat="62.9146388846" lon="7.76767221981">
		<tag k="name" v="Orskogteigen" />
		<tag k="place" v="farm" />
		<tag k="ssr:stedsnr" v="203664" />
	</node>
	<node id="-80473" lat="62.8994944427" lon="8.09627777974">
		<tag k="name" v="Skjæret" />
		<tag k="place" v="farm" />
		<tag k="ssr:stedsnr" v="194995" />
	</node>
	<node id="-80472" lat="62.903772226" lon="8.08419999203">
		<tag k="name" v="Rønningen" />
		<tag k="place" v="farm" />
		<tag k="ssr:stedsnr" v="194991" />
	</node>
	<node id="-80466" lat="62.8985686446" lon="7.78882567742">
		<tag k="fixme" v="consider place=hamlet" />
		<tag k="name" v="Larssetra" />
		<tag k="place" v="farm" />
		<tag k="ssr:stedsnr" v="194941" />
	</node>
	<node id="-80464" lat="62.8496416639" lon="7.70228610323">
		<tag k="fixme" v="consider place=hamlet" />
		<tag k="name" v="Stokkåsen" />
		<tag k="place" v="farm" />
		<tag k="ssr:stedsnr" v="194687" />
	</node>
	<node id="-80461" lat="62.8616333368" lon="7.58806666095">
		<tag k="name" v="Haugan" />
		<tag k="place" v="farm" />
		<tag k="ssr:stedsnr" v="194648" />
	</node>
	<node id="-80460" lat="62.8500931372" lon="8.11662744933">
		<tag k="name" v="Kristenvika" />
		<tag k="place" v="locality" />
		<tag k="ssr:stedsnr" v="194482" />
	</node>
	<node id="-80459" lat="62.8478555592" lon="7.85764167269">
		<tag k="name" v="Ner-Duåsen" />
		<tag k="place" v="farm" />
		<tag k="ssr:stedsnr" v="194453" />
	</node>
	<node id="-80457" lat="62.8889956119" lon="7.69488374258">
		<tag k="name" v="Fjellsetra" />
		<tag k="place" v="locality" />
		<tag k="ssr:stedsnr" v="194546" />
	</node>
	<node id="-80454" lat="62.8593749991" lon="7.70427221545">
		<tag k="historic" v="shieling" />
		<tag k="name" v="Innergardssetra" />
		<tag k="place" v="locality" />
		<tag k="ssr:stedsnr" v="193650" />
	</node>
	<node id="-80448" lat="62.8598111838" lon="7.57908564775">
		<tag k="fixme" v="consider place=hamlet" />
		<tag k="name" v="Åndal" />
		<tag k="place" v="farm" />
		<tag k="ssr:stedsnr" v="193640" />
	</node>
	<node id="-80446" lat="62.8738553389" lon="7.64376522382">
		<tag k="name" v="Bjerkeset" />
		<tag k="place" v="farm" />
		<tag k="ssr:stedsnr" v="157215" />
	</node>
	<node id="-80431" lat="62.930422218" lon="7.78976944252">
		<tag k="name" v="Nerhjellen" />
		<tag k="place" v="farm" />
		<tag k="ssr:stedsnr" v="156774" />
	</node>
	<node id="-80427" lat="62.861361108" lon="7.90945833321">
		<tag k="name" v="Rishaugen" />
		<tag k="place" v="isolated_dwelling" />
		<tag k="ssr:stedsnr" v="156755" />
	</node>
	<node id="-80372" lat="62.9300916674" lon="7.60638332395">
		<tag k="name" v="Kringla" />
		<tag k="place" v="farm" />
		<tag k="ssr:stedsnr" v="155428" />
	</node>
	<node id="-80364" lat="62.9273549424" lon="7.78063202435">
		<tag k="name" v="Myran" />
		<tag k="place" v="farm" />
		<tag k="ssr:stedsnr" v="155051" />
	</node>
	<node id="-80363" lat="62.8826083319" lon="7.65331389379">
		<tag k="name" v="Kragan" />
		<tag k="place" v="farm" />
		<tag k="ssr:stedsnr" v="155047" />
	</node>
	<node id="-80362" lat="62.9330444442" lon="7.60111111661">
		<tag k="name" v="Nybrottet" />
		<tag k="place" v="farm" />
		<tag k="ssr:stedsnr" v="155046" />
	</node>
	<node id="-80361" lat="62.9312416647" lon="7.60602222997">
		<tag k="name" v="Røysan" />
		<tag k="place" v="farm" />
		<tag k="ssr:stedsnr" v="155045" />
	</node>
	<node id="-80360" lat="62.916247218" lon="7.75044167282">
		<tag k="name" v="Trøa" />
		<tag k="place" v="farm" />
		<tag k="ssr:stedsnr" v="155043" />
	</node>
	<node id="-80359" lat="62.942844444" lon="7.64681944138">
		<tag k="historic" v="shieling" />
		<tag k="name" v="Ekkersetra" />
		<tag k="place" v="locality" />
		<tag k="ssr:stedsnr" v="155037" />
	</node>
	<node id="-80358" lat="62.8603083316" lon="7.91142222788">
		<tag k="name" v="Hjellan" />
		<tag k="place" v="farm" />
		<tag k="ssr:stedsnr" v="155035" />
	</node>
	<node id="-80354" lat="62.8734861125" lon="8.0202111206">
		<tag k="name" v="Angviksetra" />
		<tag k="place" v="isolated_dwelling" />
		<tag k="ssr:stedsnr" v="141140" />
	</node>
	<node id="-80353" lat="62.8931527761" lon="7.7641833414">
		<tag k="historic" v="shieling" />
		<tag k="name" v="Skeissetra" />
		<tag k="place" v="locality" />
		<tag k="ssr:stedsnr" v="133985" />
	</node>
	<node id="-80351" lat="62.8715722252" lon="7.83455556048">
		<tag k="name" v="Heggemssetra" />
		<tag k="place" v="locality" />
		<tag k="ssr:stedsnr" v="133975" />
	</node>
	<node id="-80350" lat="62.8890369892" lon="7.94955359054">
		<tag k="fixme" v="consider place=hamlet" />
		<tag k="name" v="Rotlia" />
		<tag k="place" v="farm" />
		<tag k="ssr:stedsnr" v="133967" />
	</node>
	<node id="-80347" lat="62.9673275094" lon="8.00260234973">
		<tag k="fixme" v="consider place=hamlet" />
		<tag k="name" v="Lamvika" />
		<tag k="place" v="farm" />
		<tag k="ssr:stedsnr" v="133875" />
	</node>
	<node id="-80346" lat="62.968111014" lon="7.71813878615">
		<tag k="name" v="Grønset" />
		<tag k="place" v="farm" />
		<tag k="ssr:stedsnr" v="133841" />
	</node>
	<node id="-80345" lat="62.9746111086" lon="7.78767222644">
		<tag k="name" v="Hamna" />
		<tag k="place" v="farm" />
		<tag k="ssr:stedsnr" v="133834" />
	</node>
	<node id="-80339" lat="62.8591068422" lon="8.10615715538">
		<tag k="fixme" v="consider place=hamlet" />
		<tag k="name" v="Brakstad" />
		<tag k="place" v="farm" />
		<tag k="ssr:stedsnr" v="133481" />
	</node>
	<node id="-80337" lat="62.8503638873" lon="7.96615555956">
		<tag k="alt_name" v="Blikåssetra" />
		<tag k="historic" v="shieling" />
		<tag k="name" v="Durmålshaug" />
		<tag k="place" v="locality" />
		<tag k="ssr:stedsnr" v="133470" />
	</node>
	<node id="-80336" lat="62.8776611114" lon="7.93383333362">
		<tag k="name" v="Storlia" />
		<tag k="place" v="farm" />
		<tag k="ssr:stedsnr" v="133458" />
	</node>
	<node id="-80334" lat="62.9069640629" lon="7.68171972906">
		<tag k="fixme" v="consider place=hamlet" />
		<tag k="name" v="Soleneset" />
		<tag k="place" v="farm" />
		<tag k="ssr:stedsnr" v="132580" />
	</node>
	<node id="-80330" lat="62.863586111" lon="7.89384165948">
		<tag k="name" v="Steinbakkan hytteområde" />
		<tag k="place" v="neighbourhood" />
		<tag k="ssr:stedsnr" v="118769" />
	</node>
	<node id="-80329" lat="62.8946250037" lon="7.67320833193">
		<tag k="name" v="Harstad" />
		<tag k="place" v="quarter" />
		<tag k="ssr:stedsnr" v="101716" />
	</node>
	<node id="-80322" lat="62.8584055555" lon="7.61214722515">
		<tag k="name" v="Flåbakken" />
		<tag k="place" v="isolated_dwelling" />
		<tag k="ssr:stedsnr" v="96795" />
	</node>
	<node id="-80290" lat="62.9067555588" lon="8.05501666009">
		<tag k="historic" v="shieling" />
		<tag k="name" v="Gammelsetra" />
		<tag k="place" v="locality" />
		<tag k="ssr:stedsnr" v="95388" />
	</node>
	<node id="-80289" lat="62.972502776" lon="7.83813333554">
		<tag k="name" v="Trøa" />
		<tag k="place" v="farm" />
		<tag k="ssr:stedsnr" v="95384" />
	</node>
	<node id="-80280" lat="62.9521583307" lon="7.64325278235">
		<tag k="name" v="Teigen" />
		<tag k="place" v="farm" />
		<tag k="ssr:stedsnr" v="95047" />
	</node>
	<node id="-80279" lat="62.917166667" lon="7.75797777027">
		<tag k="name" v="Klokkargarden" />
		<tag k="place" v="farm" />
		<tag k="ssr:stedsnr" v="95042" />
	</node>
	<node id="-80278" lat="62.9067638874" lon="7.79758889834">
		<tag k="historic" v="shieling" />
		<tag k="name" v="Frekstusetra" />
		<tag k="place" v="locality" />
		<tag k="ssr:stedsnr" v="95035" />
	</node>
	<node id="-80277" lat="62.8443611117" lon="7.79953610362">
		<tag k="historic" v="shieling" />
		<tag k="name" v="Dyrlisetra" />
		<tag k="place" v="locality" />
		<tag k="ssr:stedsnr" v="95026" />
	</node>
	<node id="-80276" lat="62.9361444468" lon="7.80245000223">
		<tag k="name" v="Berget" />
		<tag k="place" v="farm" />
		<tag k="ssr:stedsnr" v="95021" />
	</node>
	<node id="-80260" lat="62.9533178443" lon="7.64912676293">
		<tag k="fixme" v="consider place=hamlet" />
		<tag k="name" v="Kolset" />
		<tag k="place" v="farm" />
		<tag k="ssr:stedsnr" v="72985" />
	</node>
	<node id="-80250" lat="62.8816545893" lon="7.63626142889">
		<tag k="fixme" v="consider place=hamlet" />
		<tag k="name" v="Gaupset" />
		<tag k="place" v="farm" />
		<tag k="ssr:stedsnr" v="72631" />
	</node>
	<node id="-80248" lat="62.9106750013" lon="7.79094444683">
		<tag k="historic" v="shieling" />
		<tag k="name" v="Myklebostadsetra" />
		<tag k="place" v="locality" />
		<tag k="ssr:stedsnr" v="72933" />
	</node>
	<node id="-80245" lat="62.9313351209" lon="7.60270399254">
		<tag k="fixme" v="consider place=hamlet" />
		<tag k="name" v="Sevika" />
		<tag k="place" v="farm" />
		<tag k="ssr:stedsnr" v="72521" />
	</node>
	<node id="-80244" lat="62.9419694439" lon="7.6090388794">
		<tag k="name" v="Nerlia" />
		<tag k="place" v="farm" />
		<tag k="ssr:stedsnr" v="72496" />
	</node>
	<node id="-80241" lat="62.9645777752" lon="7.76594443747">
		<tag k="alt_name" v="Hogset" />
		<tag k="name" v="Iverstua" />
		<tag k="place" v="farm" />
		<tag k="ssr:stedsnr" v="59993" />
	</node>
	<node id="-80238" lat="62.9249138869" lon="8.10018333011">
		<tag k="fixme" v="multiple name tags, choose one and add the other to alt_name" />
		<tag k="name" v="Gagnat;Oppistua" />
		<tag k="place" v="farm" />
		<tag k="ssr:stedsnr" v="41893" />
	</node>
	<node id="-80178" lat="62.9092111124" lon="7.91982222282">
		<tag k="historic" v="shieling" />
		<tag k="name" v="Gammelsetra" />
		<tag k="place" v="locality" />
		<tag k="ssr:stedsnr" v="35212" />
	</node>
	<node id="-80148" lat="62.9417055543" lon="7.61231944612">
		<tag k="name" v="Øvrebøen" />
		<tag k="place" v="farm" />
		<tag k="ssr:stedsnr" v="34396" />
	</node>
	<node id="-80141" lat="62.8816111099" lon="7.65753888885">
		<tag k="name" v="Myran" />
		<tag k="place" v="farm" />
		<tag k="ssr:stedsnr" v="34057" />
	</node>
	<node id="-80140" lat="62.9139805587" lon="7.67849444718">
		<tag k="historic" v="shieling" />
		<tag k="name" v="Rødsetra" />
		<tag k="place" v="locality" />
		<tag k="ssr:stedsnr" v="34047" />
	</node>
	<node id="-80139" lat="62.9456916654" lon="7.75027222071">
		<tag k="name" v="Varmbo" />
		<tag k="place" v="farm" />
		<tag k="ssr:stedsnr" v="34046" />
	</node>
	<node id="-80138" lat="62.9337138885" lon="7.73154444007">
		<tag k="name" v="Holten" />
		<tag k="place" v="farm" />
		<tag k="ssr:stedsnr" v="34045" />
	</node>
	<node id="-80137" lat="62.913683337" lon="7.76990833172">
		<tag k="name" v="Orskogteigen" />
		<tag k="place" v="farm" />
		<tag k="ssr:stedsnr" v="34038" />
	</node>
	<node id="-80136" lat="62.9263495189" lon="7.774193309">
		<tag k="name" v="Nerørteigen" />
		<tag k="place" v="farm" />
		<tag k="ssr:stedsnr" v="34037" />
	</node>
	<node id="-80135" lat="62.9370638933" lon="7.80236111007">
		<tag k="name" v="Skoglund" />
		<tag k="place" v="farm" />
		<tag k="ssr:stedsnr" v="34033" />
	</node>
	<node id="-80134" lat="62.9742194407" lon="7.83242777352">
		<tag k="name" v="Solbakken" />
		<tag k="place" v="farm" />
		<tag k="ssr:stedsnr" v="34029" />
	</node>
	<node id="-80133" lat="62.9706027763" lon="7.80551111476">
		<tag k="name" v="Fredheim" />
		<tag k="place" v="farm" />
		<tag k="ssr:stedsnr" v="34028" />
	</node>
	<node id="-80132" lat="62.8725527763" lon="7.96524443728">
		<tag k="name" v="Trøa" />
		<tag k="place" v="farm" />
		<tag k="ssr:stedsnr" v="34027" />
	</node>
	<node id="-80131" lat="62.8596722242" lon="7.9905694487">
		<tag k="name" v="Torestua" />
		<tag k="place" v="isolated_dwelling" />
		<tag k="ssr:stedsnr" v="34015" />
	</node>
	<node id="-80130" lat="62.8711527763" lon="7.96230000103">
		<tag k="name" v="Garden" />
		<tag k="place" v="farm" />
		<tag k="ssr:stedsnr" v="34014" />
	</node>
	<node id="-80129" lat="62.9552888859" lon="7.97423611859">
		<tag k="name" v="Kvalvågsetra" />
		<tag k="place" v="isolated_dwelling" />
		<tag k="ssr:stedsnr" v="34007" />
	</node>
	<node id="-80128" lat="62.9080305537" lon="8.01537499481">
		<tag k="name" v="Nørhaugen" />
		<tag k="place" v="farm" />
		<tag k="ssr:stedsnr" v="34003" />
	</node>
	<node id="-80121" lat="62.8997083311" lon="8.05880554625">
		<tag k="name" v="Sollilia" />
		<tag k="place" v="farm" />
		<tag k="ssr:stedsnr" v="12999" />
	</node>
	<node id="-80119" lat="62.9080444489" lon="8.06942222239">
		<tag k="name" v="Haltviksetra" />
		<tag k="place" v="isolated_dwelling" />
		<tag k="ssr:stedsnr" v="12989" />
	</node>
	<node id="-80116" lat="62.9162510282" lon="7.75644922002">
		<tag k="fixme" v="consider place=hamlet" />
		<tag k="name" v="Sjømælingan" />
		<tag k="place" v="farm" />
		<tag k="ssr:stedsnr" v="12967" />
	</node>
	<node id="-80115" lat="62.9649527762" lon="7.97337222929">
		<tag k="name" v="Skaret" />
		<tag k="place" v="farm" />
		<tag k="ssr:stedsnr" v="12874" />
	</node>
	<node id="-80105" lat="62.8504150321" lon="7.85346083606">
		<tag k="alt_name" v="Øver-Duåsen" />
		<tag k="fixme" v="consider place=hamlet" />
		<tag k="name" v="Duåsen" />
		<tag k="place" v="farm" />
		<tag k="ssr:stedsnr" v="12508" />
	</node>
	<node id="-80103" lat="62.8655083354" lon="7.89501943991">
		<tag k="name" v="Steinbakkan" />
		<tag k="place" v="farm" />
		<tag k="ssr:stedsnr" v="12502" />
	</node>
	<node id="-80102" lat="62.9606194401" lon="8.03204722013">
		<tag k="name" v="Hoem" />
		<tag k="place" v="hamlet" />
		<tag k="ssr:stedsnr" v="11886" />
	</node>
	<node id="-80101" lat="62.9560805543" lon="8.02600555716">
		<tag k="name" v="Myra" />
		<tag k="place" v="farm" />
		<tag k="ssr:stedsnr" v="11882" />
	</node>
	<node id="-80100" lat="62.9228388894" lon="7.76523610926">
		<tag k="name" v="Leitet" />
		<tag k="place" v="farm" />
		<tag k="ssr:stedsnr" v="11957" />
	</node>
	<node id="-80096" lat="62.9686411313" lon="7.98059884944">
		<tag k="fixme" v="consider place=hamlet" />
		<tag k="name" v="Kvalvåg" />
		<tag k="place" v="farm" />
		<tag k="ssr:stedsnr" v="980562" />
	</node>
	<node id="-80095" lat="62.8429995928" lon="7.88557653987">
		<tag k="name" v="Sandnes" />
		<tag k="place" v="locality" />
		<tag k="ssr:stedsnr" v="980438" />
	</node>
	<node id="-80089" lat="62.9123166651" lon="8.1067277693">
		<tag k="name" v="Hagen" />
		<tag k="place" v="farm" />
		<tag k="ssr:stedsnr" v="922927" />
	</node>
	<node id="-80088" lat="62.9413500004" lon="7.81255833343">
		<tag k="name" v="Dønnemsmyra" />
		<tag k="place" v="farm" />
		<tag k="ssr:stedsnr" v="922906" />
	</node>
	<node id="-80087" lat="62.9091291861" lon="7.68931180713">
		<tag k="fixme" v="consider place=hamlet" />
		<tag k="name" v="Rød" />
		<tag k="place" v="farm" />
		<tag k="ssr:stedsnr" v="921604" />
	</node>
	<node id="-80073" lat="62.9285611498" lon="7.78206794791">
		<tag k="name" v="Kårteigen" />
		<tag k="place" v="farm" />
		<tag k="ssr:stedsnr" v="885762" />
	</node>
	<node id="-80067" lat="62.9313444469" lon="7.72713332517">
		<tag k="name" v="Kirkevollen" />
		<tag k="place" v="farm" />
		<tag k="ssr:stedsnr" v="885855" />
	</node>
	<node id="-80066" lat="62.8768277817" lon="7.65002499762">
		<tag k="name" v="Toregarden" />
		<tag k="place" v="farm" />
		<tag k="ssr:stedsnr" v="885825" />
	</node>
	<node id="-80046" lat="62.9166055578" lon="8.03305278553">
		<tag k="name" v="Nerlund" />
		<tag k="place" v="farm" />
		<tag k="ssr:stedsnr" v="884026" />
	</node>
	<node id="-80045" lat="62.9640555541" lon="8.01836388779">
		<tag k="name" v="Røsdal" />
		<tag k="place" v="farm" />
		<tag k="ssr:stedsnr" v="884023" />
	</node>
	<node id="-80044" lat="62.9340416638" lon="8.07357776831">
		<tag k="name" v="Nistua" />
		<tag k="place" v="farm" />
		<tag k="ssr:stedsnr" v="884020" />
	</node>
	<node id="-80043" lat="62.8589138859" lon="8.11013055938">
		<tag k="name" v="Lia" />
		<tag k="place" v="farm" />
		<tag k="ssr:stedsnr" v="884012" />
	</node>
	<node id="-80042" lat="62.8594777735" lon="8.10512222898">
		<tag k="name" v="Utate" />
		<tag k="place" v="farm" />
		<tag k="ssr:stedsnr" v="884009" />
	</node>
	<node id="-80041" lat="62.9797444473" lon="7.86171111152">
		<tag k="name" v="Lundheim" />
		<tag k="place" v="farm" />
		<tag k="ssr:stedsnr" v="950260" />
	</node>
	<node id="-80020" lat="62.8676166661" lon="8.09600000033">
		<tag k="historic" v="shieling" />
		<tag k="name" v="Brubekksetra" />
		<tag k="place" v="locality" />
		<tag k="ssr:stedsnr" v="945647" />
	</node>
	<node id="-80019" lat="62.8664972208" lon="8.10933887945">
		<tag k="name" v="Brubekksaga" />
		<tag k="place" v="locality" />
		<tag k="ssr:stedsnr" v="945645" />
	</node>
	<node id="-79982" lat="62.9460305517" lon="7.75228054931">
		<tag k="name" v="Bjerkelund" />
		<tag k="place" v="farm" />
		<tag k="ssr:stedsnr" v="945049" />
	</node>
	<node id="-79981" lat="62.8979138889" lon="8.08165832759">
		<tag k="name" v="Vollan" />
		<tag k="place" v="farm" />
		<tag k="ssr:stedsnr" v="945017" />
	</node>
	<node id="-79978" lat="62.9703638902" lon="7.80845278714">
		<tag k="name" v="Øverkroken" />
		<tag k="place" v="farm" />
		<tag k="ssr:stedsnr" v="944972" />
	</node>
	<node id="-79967" lat="62.9496333294" lon="7.76596111608">
		<tag k="fixme" v="consider place=hamlet" />
		<tag k="name" v="Gjemnes" />
		<tag k="place" v="village" />
		<tag k="ssr:stedsnr" v="861926" />
	</node>
	<node id="-79963" lat="62.8830249957" lon="7.64126389869">
		<tag k="name" v="Haugen" />
		<tag k="place" v="farm" />
		<tag k="ssr:stedsnr" v="944053" />
	</node>
	<node id="-79962" lat="62.9144416663" lon="7.88511111459">
		<tag k="name" v="Haugbuen" />
		<tag k="place" v="farm" />
		<tag k="ssr:stedsnr" v="944030" />
	</node>
	<node id="-79961" lat="62.9615472228" lon="7.92974999466">
		<tag k="name" v="Nistua" />
		<tag k="place" v="farm" />
		<tag k="ssr:stedsnr" v="944029" />
	</node>
	<node id="-79920" lat="62.9414305593" lon="7.86008610458">
		<tag k="name" v="Vollabakken" />
		<tag k="place" v="hamlet" />
		<tag k="ssr:stedsnr" v="822574" />
	</node>
	<node id="-79916" lat="62.8353517291" lon="7.81022921347">
		<tag k="fixme" v="consider place=hamlet" />
		<tag k="name" v="Dyrlia" />
		<tag k="place" v="farm" />
		<tag k="ssr:stedsnr" v="923575" />
	</node>
	<node id="-79915" lat="62.9647277791" lon="7.76361110616">
		<tag k="fixme" v="multiple name tags, choose one and add the other to alt_name" />
		<tag k="name" v="Hogset;Oppistua" />
		<tag k="place" v="farm" />
		<tag k="ssr:stedsnr" v="787990" />
	</node>
	<node id="-79914" lat="62.9862951526" lon="7.85111006706">
		<tag k="fixme" v="consider place=hamlet" />
		<tag k="name" v="Litlvika" />
		<tag k="place" v="farm" />
		<tag k="ssr:stedsnr" v="922845" />
	</node>
	<node id="-79910" lat="62.8432972196" lon="7.65083334258">
		<tag k="name" v="Langlisetra" />
		<tag k="place" v="locality" />
		<tag k="ssr:stedsnr" v="922691" />
	</node>
	<node id="-79908" lat="62.8785950901" lon="7.65641892863">
		<tag k="fixme" v="consider place=hamlet" />
		<tag k="name" v="Silset" />
		<tag k="place" v="farm" />
		<tag k="ssr:stedsnr" v="922632" />
	</node>
	<node id="-79906" lat="62.9281758442" lon="7.60726261858">
		<tag k="fixme" v="consider place=hamlet" />
		<tag k="name" v="Øverland" />
		<tag k="place" v="farm" />
		<tag k="ssr:stedsnr" v="922507" />
	</node>
	<node id="-79900" lat="62.8787053286" lon="8.1057876686">
		<tag k="fixme" v="consider place=hamlet" />
		<tag k="name" v="Kattvika" />
		<tag k="place" v="farm" />
		<tag k="ssr:stedsnr" v="922460" />
	</node>
	<node id="-79898" lat="62.9440333291" lon="7.74788889171">
		<tag k="name" v="Sjøvang" />
		<tag k="place" v="farm" />
		<tag k="ssr:stedsnr" v="921909" />
	</node>
	<node id="-79895" lat="62.8997916637" lon="7.76280277288">
		<tag k="historic" v="shieling" />
		<tag k="name" v="Sjømælingssetra" />
		<tag k="place" v="locality" />
		<tag k="ssr:stedsnr" v="922937" />
	</node>
	<node id="-79894" lat="62.9621444485" lon="7.91817778632">
		<tag k="name" v="Vorpa" />
		<tag k="place" v="farm" />
		<tag k="ssr:stedsnr" v="922897" />
	</node>
</osm>
