<?xml version="1.0" encoding="UTF-8"?>
<<<<<<< HEAD
<osm version="0.6" generator="osmapis">
	<node lat="62.9364388881795" lon="7.588147221494309" id="-4582">
		<tag k="name" v="Sevikneset" />
		<tag k="natural" v="cape" />
		<tag k="ssr:stedsnr" v="11507" />
	</node>
	<node lat="62.99069444144678" lon="7.781944442047611" id="-4594">
		<tag k="name" v="Høgholmgrunnen" />
		<tag k="natural" v="shoal" />
=======
<osm generator="osmapis" version="0.6">
	<node id="-80896" lat="62.9420666711" lon="7.86105278738">
		<tag k="name" v="Myrdølabrua" />
>>>>>>> e1d4bc35ff8a6074a6f2e91616a996b547c36f15
		<tag k="place" v="locality" />
		<tag k="ssr:stedsnr" v="232293" />
	</node>
<<<<<<< HEAD
	<node lat="62.9765194457951" lon="7.777058324233697" id="-4595">
		<tag k="name" v="Kråkholmen" />
=======
	<node id="-80384" lat="62.9680694402" lon="7.76382499664">
		<tag k="name" v="Naustneset" />
		<tag k="natural" v="cape" />
		<tag k="ssr:stedsnr" v="155966" />
	</node>
	<node id="-80382" lat="62.9729638889" lon="7.76308055466">
		<tag k="fixme" v="consider seamark:type=rock or natural=shoal" />
		<tag k="name" v="Seiholmskjæra" />
>>>>>>> e1d4bc35ff8a6074a6f2e91616a996b547c36f15
		<tag k="place" v="islet" />
		<tag k="ssr:stedsnr" v="232300" />
	</node>
<<<<<<< HEAD
	<node lat="62.97070833234915" lon="7.9675083268712745" id="-4647">
		<tag k="name" v="Landfastholmen" />
=======
	<node id="-80381" lat="62.9252916676" lon="7.76555555764">
		<tag k="name" v="Farlegpynten" />
>>>>>>> e1d4bc35ff8a6074a6f2e91616a996b547c36f15
		<tag k="natural" v="cape" />
		<tag k="ssr:stedsnr" v="72880" />
	</node>
<<<<<<< HEAD
	<node lat="62.95173889325769" lon="8.06369999262886" id="-4651">
		<tag k="name" v="Geita" />
		<tag k="natural" v="cape" />
		<tag k="ssr:stedsnr" v="72920" />
	</node>
	<node lat="62.951669440004935" lon="7.63157221582331" id="-4652">
		<tag k="name" v="Røvikhammaren" />
		<tag k="natural" v="cape" />
		<tag k="ssr:stedsnr" v="72983" />
	</node>
	<node lat="62.9637666649032" lon="8.039061116472073" id="-4664">
		<tag k="name" v="Vorpneset" />
		<tag k="natural" v="cape" />
		<tag k="ssr:stedsnr" v="95511" />
	</node>
	<node lat="62.96229444253324" lon="7.665372214212141" id="-4671">
		<tag k="name" v="Søre Nessabukta" />
		<tag k="natural" v="bay" />
		<tag k="ssr:stedsnr" v="95923" />
	</node>
	<node lat="62.987761109668774" lon="7.8537333338197755" id="-4674">
		<tag k="name" v="Badstubukta" />
		<tag k="natural" v="bay" />
		<tag k="ssr:stedsnr" v="95974" />
	</node>
	<node lat="62.992688888528185" lon="7.791502770128819" id="-4708">
		<tag k="name" v="Høgholmen" />
		<tag k="place" v="islet" />
		<tag k="ssr:stedsnr" v="254793" />
	</node>
	<node lat="62.97129166342032" lon="7.760708324658974" id="-4710">
		<tag k="name" v="Skarvholmen" />
		<tag k="place" v="islet" />
		<tag k="ssr:stedsnr" v="254835" />
	</node>
	<node lat="62.96371666733311" lon="7.7949694461647585" id="-4711">
		<tag k="name" v="Gjemnessundet" />
		<tag k="natural" v="strait" />
		<tag k="ssr:stedsnr" v="254836" />
	</node>
	<node lat="62.80623610902669" lon="8.267683339161424" id="-4713">
		<tag k="bay" v="fjord" />
		<tag k="name" v="Tingvollfjorden" />
		<tag k="natural" v="bay" />
		<tag k="ssr:stedsnr" v="254881" />
	</node>
	<node lat="62.967430552594855" lon="7.8045777801893905" id="-4714">
		<tag k="name" v="Kaiholmen" />
		<tag k="place" v="islet" />
		<tag k="ssr:stedsnr" v="254894" />
	</node>
	<node lat="62.97390555616418" lon="7.856238882867646" id="-4734">
		<tag k="name" v="Hjortabukta" />
		<tag k="natural" v="bay" />
		<tag k="ssr:stedsnr" v="155953" />
	</node>
	<node lat="62.92529166758943" lon="7.765555557641277" id="-4736">
		<tag k="name" v="Farlegpynten" />
		<tag k="natural" v="cape" />
		<tag k="ssr:stedsnr" v="155957" />
	</node>
	<node lat="62.972963888855176" lon="7.763080554655787" id="-4737">
		<tag k="fixme" v="consider seamark:type=rock or natural=shoal" />
		<tag k="name" v="Seiholmskjæra" />
		<tag k="place" v="islet" />
		<tag k="ssr:stedsnr" v="155963" />
	</node>
	<node lat="62.9680694401849" lon="7.763824996644672" id="-4739">
		<tag k="name" v="Naustneset" />
		<tag k="natural" v="cape" />
		<tag k="ssr:stedsnr" v="155966" />
	</node>
	<node lat="62.9984416699475" lon="7.846822228098944" id="-4776">
		<tag k="name" v="Naustberget" />
=======
	<node id="-80379" lat="62.9739055562" lon="7.85623888287">
		<tag k="name" v="Hjortabukta" />
		<tag k="natural" v="bay" />
		<tag k="ssr:stedsnr" v="155953" />
	</node>
	<node id="-80468" lat="62.9216333325" lon="8.11534443847">
		<tag k="name" v="Gagnatskjæret" />
		<tag k="natural" v="cape" />
		<tag k="ssr:stedsnr" v="194962" />
	</node>
	<node id="-79187" lat="62.9330333288" lon="7.89459165856">
		<tag k="name" v="Dyrkollstien" />
		<tag k="place" v="locality" />
		<tag k="ssr:stedsnr" v="95461" />
	</node>
	<node id="-79850" lat="62.9687027807" lon="7.9595916598">
		<tag k="alt_name" v="Sillestadholmen" />
		<tag k="name" v="Silstadholmen" />
		<tag k="place" v="islet" />
		<tag k="ssr:stedsnr" v="740906" />
	</node>
	<node id="-80869" lat="62.9683861118" lon="7.76106945372">
		<tag k="name" v="Hogsetneset" />
		<tag k="natural" v="cape" />
		<tag k="ssr:stedsnr" v="618894" />
	</node>
	<node id="-80868" lat="62.9597497962" lon="7.78633423651">
		<tag k="alt_name" v="Gjemneset" />
		<tag k="name" v="Gjemnes" />
		<tag k="natural" v="cape" />
		<tag k="ssr:stedsnr" v="618866" />
	</node>
	<node id="-79842" lat="62.9499222195" lon="7.84613333544">
		<tag k="name" v="Torvikneset" />
		<tag k="natural" v="cape" />
		<tag k="ssr:stedsnr" v="739920" />
	</node>
	<node id="-79867" lat="62.9704805568" lon="7.83203333527">
		<tag k="name" v="Hagabukta" />
		<tag k="natural" v="bay" />
		<tag k="ssr:stedsnr" v="762945" />
	</node>
	<node id="-79328" lat="62.9315111124" lon="7.59728889552">
		<tag k="alt_name" v="Sevikbogen" />
		<tag k="name" v="Sevikbukta" />
		<tag k="natural" v="bay" />
		<tag k="ssr:stedsnr" v="194445" />
	</node>
	<node id="-79837" lat="62.9730027772" lon="7.98134167233">
		<tag k="name" v="Ottringen" />
		<tag k="place" v="locality" />
		<tag k="seamark:type" v="rock" />
		<tag k="ssr:stedsnr" v="900650" />
	</node>
	<node id="-79835" lat="63.0065666711" lon="7.79037778555">
		<tag k="name" v="Mellomtaren" />
		<tag k="natural" v="shoal" />
		<tag k="place" v="locality" />
		<tag k="ssr:stedsnr" v="899294" />
	</node>
	<node id="-80852" lat="62.9932972202" lon="7.80771111158">
		<tag k="name" v="Kjelasvaet" />
		<tag k="natural" v="strait" />
		<tag k="ssr:stedsnr" v="596307" />
	</node>
	<node id="-80841" lat="62.9964388889" lon="7.83845000385">
		<tag k="name" v="Litlbøneset" />
>>>>>>> e1d4bc35ff8a6074a6f2e91616a996b547c36f15
		<tag k="natural" v="cape" />
		<tag k="ssr:stedsnr" v="216984" />
	</node>
<<<<<<< HEAD
	<node lat="62.91377777870414" lon="7.699330564417287" id="-4781">
		<tag k="name" v="Nordbøbukta" />
=======
	<node id="-80839" lat="62.9120722196" lon="7.69690556117">
		<tag k="name" v="Gammelstøbukta" />
>>>>>>> e1d4bc35ff8a6074a6f2e91616a996b547c36f15
		<tag k="natural" v="bay" />
		<tag k="ssr:stedsnr" v="216872" />
	</node>
<<<<<<< HEAD
	<node lat="62.91741111493075" lon="7.704275003078435" id="-4849">
		<tag k="name" v="Dunateigbukta" />
		<tag k="natural" v="bay" />
		<tag k="ssr:stedsnr" v="277881" />
	</node>
	<node lat="62.97033889333193" lon="7.745774991271699" id="-4850">
		<tag k="name" v="Vorpneset" />
=======
	<node id="-80832" lat="62.9725472225" lon="7.98325555037">
		<tag k="name" v="Landholmen" />
		<tag k="place" v="islet" />
		<tag k="ssr:stedsnr" v="581706" />
	</node>
	<node id="-79293" lat="62.9882750015" lon="7.79988332364">
		<tag k="name" v="Brandvikneset" />
>>>>>>> e1d4bc35ff8a6074a6f2e91616a996b547c36f15
		<tag k="natural" v="cape" />
		<tag k="ssr:stedsnr" v="459921" />
	</node>
<<<<<<< HEAD
	<node lat="62.99393055993729" lon="7.846522215643903" id="-4853">
=======
	<node id="-79291" lat="62.9939305599" lon="7.84652221564">
>>>>>>> e1d4bc35ff8a6074a6f2e91616a996b547c36f15
		<tag k="fixme" v="consider seamark:type=rock or natural=shoal" />
		<tag k="name" v="Storvikskjæret" />
		<tag k="place" v="islet" />
		<tag k="ssr:stedsnr" v="277972" />
	</node>
<<<<<<< HEAD
	<node lat="62.9882750015497" lon="7.79988332363924" id="-4855">
		<tag k="name" v="Brandvikneset" />
		<tag k="natural" v="cape" />
		<tag k="ssr:stedsnr" v="277984" />
	</node>
	<node lat="62.92934143815112" lon="7.595080941979291" id="-4861">
		<tag k="alt_name" v="Krekvikhammaren" />
		<tag k="name" v="Hammarneset" />
		<tag k="natural" v="cape" />
		<tag k="ssr:stedsnr" v="278775" />
	</node>
	<node lat="62.88725833033843" lon="7.925638883852965" id="-4869">
		<tag k="name" v="Øysaga" />
=======
	<node id="-80314" lat="62.9174250037" lon="8.11291389679">
		<tag k="name" v="Haltviknaustet" />
>>>>>>> e1d4bc35ff8a6074a6f2e91616a996b547c36f15
		<tag k="natural" v="strait" />
		<tag k="ssr:stedsnr" v="460162" />
	</node>
<<<<<<< HEAD
	<node lat="62.921541670791896" lon="8.12035000669471" id="-4922">
		<tag k="fixme" v="consider seamark:type=rock or natural=shoal" />
		<tag k="name" v="Sognaskjæret" />
		<tag k="place" v="islet" />
		<tag k="ssr:stedsnr" v="315959" />
	</node>
	<node lat="62.95533055586555" lon="7.647761111952436" id="-4943">
		<tag k="name" v="Kolsetbukta" />
=======
	<node id="-79289" lat="62.9749722267" lon="7.86811945164">
		<tag k="name" v="Prestvika" />
>>>>>>> e1d4bc35ff8a6074a6f2e91616a996b547c36f15
		<tag k="natural" v="bay" />
		<tag k="ssr:stedsnr" v="337914" />
	</node>
<<<<<<< HEAD
	<node lat="62.964002780498745" lon="7.773694449616942" id="-4944">
		<tag k="name" v="Skogåkerbukta" />
=======
	<node id="-80824" lat="62.9848194448" lon="7.85604444503">
		<tag k="name" v="Litlvika" />
>>>>>>> e1d4bc35ff8a6074a6f2e91616a996b547c36f15
		<tag k="natural" v="bay" />
		<tag k="ssr:stedsnr" v="337957" />
	</node>
	<node lat="62.8871222181051" lon="7.930494437838216" id="-4945">
		<tag k="bay" v="fjord" />
		<tag k="name" v="Hjellhaugen" />
		<tag k="natural" v="bay" />
		<tag k="ssr:stedsnr" v="337998" />
	</node>
	<node lat="62.95951111543646" lon="7.791811116659813" id="-4956">
		<tag k="name" v="Gjemnesneset" />
		<tag k="natural" v="cape" />
		<tag k="ssr:stedsnr" v="338755" />
	</node>
<<<<<<< HEAD
	<node lat="63.00344722522377" lon="7.8627777819617775" id="-4967">
		<tag k="name" v="Skallen" />
		<tag k="natural" v="shoal" />
=======
	<node id="-80821" lat="62.9407805534" lon="7.84078611847">
		<tag k="name" v="Stegan" />
>>>>>>> e1d4bc35ff8a6074a6f2e91616a996b547c36f15
		<tag k="place" v="locality" />
		<tag k="ssr:stedsnr" v="474719" />
	</node>
<<<<<<< HEAD
	<node lat="62.97623611091008" lon="7.702552769498354" id="-4968">
		<tag k="name" v="Ospagrunnen" />
		<tag k="natural" v="shoal" />
		<tag k="place" v="locality" />
		<tag k="ssr:stedsnr" v="474348" />
	</node>
	<node lat="62.97130555938721" lon="7.680838890728227" id="-4969">
		<tag k="name" v="Sandnesgrunnen" />
		<tag k="natural" v="shoal" />
		<tag k="place" v="locality" />
		<tag k="ssr:stedsnr" v="475238" />
	</node>
	<node lat="62.99455555738681" lon="7.796875001993656" id="-4972">
		<tag k="name" v="Isakholmen" />
=======
	<node id="-79283" lat="62.9174111149" lon="7.70427500308">
		<tag k="name" v="Dunateigbukta" />
		<tag k="natural" v="bay" />
		<tag k="ssr:stedsnr" v="277881" />
	</node>
	<node id="-80816" lat="62.9767222189" lon="7.78330556306">
		<tag k="name" v="Kariholmen" />
>>>>>>> e1d4bc35ff8a6074a6f2e91616a996b547c36f15
		<tag k="place" v="islet" />
		<tag k="ssr:stedsnr" v="375791" />
	</node>
<<<<<<< HEAD
	<node lat="62.9964083321521" lon="7.802602779652157" id="-4973">
		<tag k="name" v="Storholmen" />
=======
	<node id="-80815" lat="62.9766777805" lon="7.78129722043">
		<tag k="name" v="Langholmen" />
>>>>>>> e1d4bc35ff8a6074a6f2e91616a996b547c36f15
		<tag k="place" v="islet" />
		<tag k="ssr:stedsnr" v="375795" />
	</node>
<<<<<<< HEAD
	<node lat="63.00109722270457" lon="7.792280551365493" id="-4978">
		<tag k="fixme" v="consider seamark:type=rock or natural=shoal" />
		<tag k="name" v="Belgan" />
		<tag k="place" v="islet" />
		<tag k="ssr:stedsnr" v="376202" />
	</node>
	<node lat="63.001119446494116" lon="7.786652783797113" id="-4979">
		<tag k="fixme" v="consider seamark:type=rock or natural=shoal" />
		<tag k="name" v="Steet" />
		<tag k="place" v="islet" />
		<tag k="ssr:stedsnr" v="376204" />
	</node>
	<node lat="62.96192500119322" lon="7.782594445633717" id="-4995">
		<tag k="name" v="Tingvika" />
		<tag k="natural" v="bay" />
		<tag k="ssr:stedsnr" v="399178" />
	</node>
	<node lat="62.98994722587629" lon="7.863838889598465" id="-5012">
		<tag k="name" v="Bergsøysundet" />
		<tag k="natural" v="strait" />
		<tag k="ssr:stedsnr" v="436867" />
	</node>
	<node lat="62.97180555769447" lon="7.759602775306257" id="-5028">
		<tag k="fixme" v="consider seamark:type=rock or natural=shoal" />
		<tag k="name" v="Skarvholmskjæra" />
		<tag k="place" v="islet" />
		<tag k="ssr:stedsnr" v="459969" />
	</node>
	<node lat="62.934730551553315" lon="8.080205551203969" id="-5036">
		<tag k="name" v="Øratangen" />
		<tag k="natural" v="shoal" />
		<tag k="place" v="locality" />
		<tag k="ssr:stedsnr" v="460617" />
	</node>
	<node lat="62.951927774848514" lon="7.849877782602529" id="-5049">
		<tag k="name" v="Flatholmen" />
		<tag k="place" v="islet" />
		<tag k="ssr:stedsnr" v="678868" />
	</node>
	<node lat="62.995908331305074" lon="7.848561110319048" id="-5061">
		<tag k="name" v="Måløya" />
		<tag k="place" v="island" />
		<tag k="ssr:stedsnr" v="679789" />
	</node>
	<node lat="62.96850555188928" lon="7.7738638856809885" id="-5073">
		<tag k="name" v="Omseiholmen" />
=======
	<node id="-80301" lat="62.9877611097" lon="7.85373333382">
		<tag k="name" v="Badstubukta" />
		<tag k="natural" v="bay" />
		<tag k="ssr:stedsnr" v="95974" />
	</node>
	<node id="-80285" lat="62.9804611148" lon="7.78173332393">
		<tag k="name" v="Kråka" />
>>>>>>> e1d4bc35ff8a6074a6f2e91616a996b547c36f15
		<tag k="place" v="islet" />
		<tag k="ssr:stedsnr" v="497905" />
	</node>
<<<<<<< HEAD
	<node lat="62.95954444865545" lon="7.841672218210539" id="-5074">
		<tag k="bay" v="fjord" />
		<tag k="name" v="Bergsøyfjorden" />
=======
	<node id="-79189" lat="62.9637666649" lon="8.03906111647">
		<tag k="name" v="Vorpneset" />
		<tag k="natural" v="cape" />
		<tag k="ssr:stedsnr" v="95511" />
	</node>
	<node id="-79956" lat="62.9835138849" lon="7.8609888818">
		<tag k="name" v="Hamnabukta" />
		<tag k="natural" v="bay" />
		<tag k="ssr:stedsnr" v="216955" />
	</node>
	<node id="-80274" lat="62.9045416673" lon="8.10154722817">
		<tag k="name" v="Sjølsvikbukta" />
>>>>>>> e1d4bc35ff8a6074a6f2e91616a996b547c36f15
		<tag k="natural" v="bay" />
		<tag k="ssr:stedsnr" v="497908" />
	</node>
<<<<<<< HEAD
	<node lat="62.89226944490354" lon="7.876319452746378" id="-5092">
		<tag k="bay" v="fjord" />
		<tag k="name" v="Nessabua" />
		<tag k="natural" v="bay" />
		<tag k="ssr:stedsnr" v="520120" />
	</node>
	<node lat="62.91844166287735" lon="8.035416657456059" id="-5094">
		<tag k="name" v="Skoglund" />
		<tag k="place" v="island" />
		<tag k="ssr:stedsnr" v="520166" />
	</node>
	<node lat="62.94917222186093" lon="7.834533336964862" id="-5119">
=======
	<node id="-79758" lat="62.8968111141" lon="7.6838499956">
		<tag k="name" v="Hola" />
		<tag k="natural" v="beach" />
		<tag k="place" v="locality" />
		<tag k="ssr:stedsnr" v="883080" />
	</node>
	<node id="-80781" lat="62.9491722219" lon="7.83453333696">
>>>>>>> e1d4bc35ff8a6074a6f2e91616a996b547c36f15
		<tag k="name" v="Geilen" />
		<tag k="natural" v="cape" />
		<tag k="ssr:stedsnr" v="557910" />
	</node>
<<<<<<< HEAD
	<node lat="62.97254722245067" lon="7.983255550371803" id="-5150">
		<tag k="name" v="Landholmen" />
		<tag k="place" v="islet" />
		<tag k="ssr:stedsnr" v="581706" />
	</node>
	<node lat="62.91207221962008" lon="7.696905561169434" id="-5156">
		<tag k="name" v="Gammelstøbukta" />
=======
	<node id="-79244" lat="62.9990222262" lon="7.83944721545">
		<tag k="name" v="Kroken" />
		<tag k="natural" v="cape" />
		<tag k="ssr:stedsnr" v="277139" />
	</node>
	<node id="-79238" lat="62.9471333313" lon="7.85777223085">
		<tag k="name" v="Torvikbukta" />
>>>>>>> e1d4bc35ff8a6074a6f2e91616a996b547c36f15
		<tag k="natural" v="bay" />
		<tag k="ssr:stedsnr" v="581890" />
	</node>
<<<<<<< HEAD
	<node lat="62.99329722024147" lon="7.807711111577561" id="-5160">
		<tag k="name" v="Kjelasvaet" />
		<tag k="natural" v="strait" />
		<tag k="ssr:stedsnr" v="596307" />
	</node>
	<node lat="62.97731666247844" lon="7.786144443105999" id="-5236">
		<tag k="name" v="Litlholmen" />
		<tag k="place" v="islet" />
		<tag k="ssr:stedsnr" v="702984" />
	</node>
	<node lat="62.99808333440084" lon="7.852499990549794" id="-5253">
		<tag k="name" v="Litlbrusen" />
=======
	<node id="-79237" lat="62.9466222182" lon="7.87033055673">
		<tag k="fixme" v="consider seamark:type=rock or natural=shoal" />
		<tag k="name" v="Orsetvegen" />
		<tag k="place" v="islet" />
		<tag k="ssr:stedsnr" v="276597" />
	</node>
	<node id="-80259" lat="62.95166944" lon="7.63157221582">
		<tag k="name" v="Røvikhammaren" />
		<tag k="natural" v="cape" />
		<tag k="ssr:stedsnr" v="72983" />
	</node>
	<node id="-80258" lat="62.9638861136" lon="7.91951388727">
		<tag k="fixme" v="consider seamark:type=rock or natural=shoal" />
		<tag k="name" v="Vorpskjæret" />
>>>>>>> e1d4bc35ff8a6074a6f2e91616a996b547c36f15
		<tag k="place" v="islet" />
		<tag k="ssr:stedsnr" v="640980" />
	</node>
<<<<<<< HEAD
	<node lat="62.94643055189151" lon="8.067180557843127" id="-5274">
		<tag k="name" v="Naustneset" />
		<tag k="natural" v="cape" />
		<tag k="ssr:stedsnr" v="679919" />
	</node>
	<node lat="63.00656667109767" lon="7.790377785546084" id="-5313">
		<tag k="name" v="Mellomtaren" />
		<tag k="natural" v="shoal" />
		<tag k="place" v="locality" />
		<tag k="ssr:stedsnr" v="899294" />
	</node>
	<node lat="62.973002777188206" lon="7.981341672327909" id="-5314">
		<tag k="name" v="Ottringen" />
		<tag k="place" v="locality" />
		<tag k="seamark:type" v="rock" />
		<tag k="ssr:stedsnr" v="900650" />
	</node>
	<node lat="62.96870278071732" lon="7.9595916597958" id="-5328">
		<tag k="alt_name" v="Sillestadholmen" />
		<tag k="name" v="Silstadholmen" />
		<tag k="place" v="islet" />
		<tag k="ssr:stedsnr" v="740906" />
	</node>
	<node lat="62.90389166366832" lon="8.10706388542131" id="-5330">
		<tag k="name" v="Sjølsvikhammaren" />
=======
	<node id="-80257" lat="62.9655805517" lon="7.74840555058">
		<tag k="name" v="Leira" />
		<tag k="natural" v="bay" />
		<tag k="ssr:stedsnr" v="72893" />
	</node>
	<node id="-79232" lat="62.964819447" lon="7.74833889277">
		<tag k="name" v="Klingren" />
		<tag k="natural" v="beach" />
		<tag k="place" v="locality" />
		<tag k="ssr:stedsnr" v="276232" />
	</node>
	<node id="-80255" lat="62.9707083323" lon="7.96750832687">
		<tag k="name" v="Landfastholmen" />
		<tag k="natural" v="cape" />
		<tag k="ssr:stedsnr" v="72880" />
	</node>
	<node id="-80252" lat="62.9895694465" lon="7.85252222974">
		<tag k="name" v="Hylla" />
		<tag k="natural" v="cape" />
		<tag k="ssr:stedsnr" v="72856" />
	</node>
	<node id="-80249" lat="62.9145138877" lon="7.72938333598">
		<tag k="name" v="Stakkneset" />
		<tag k="natural" v="cape" />
		<tag k="ssr:stedsnr" v="72958" />
	</node>
	<node id="-80247" lat="62.9517388933" lon="8.06369999263">
		<tag k="name" v="Geita" />
>>>>>>> e1d4bc35ff8a6074a6f2e91616a996b547c36f15
		<tag k="natural" v="cape" />
		<tag k="ssr:stedsnr" v="740988" />
	</node>
<<<<<<< HEAD
	<node lat="62.97048055682154" lon="7.832033335271506" id="-5351">
		<tag k="name" v="Hagabukta" />
		<tag k="natural" v="bay" />
		<tag k="ssr:stedsnr" v="762945" />
	</node>
	<node lat="62.97048611018772" lon="7.718280556805697" id="-5369">
		<tag k="alt_name" v="Svortholmen" />
		<tag k="name" v="Trøaholmen" />
=======
	<node id="-79731" lat="62.9962583371" lon="7.83078055598">
		<tag k="name" v="Brannholmen" />
		<tag k="place" v="islet" />
		<tag k="ssr:stedsnr" v="618787" />
	</node>
	<node id="-80752" lat="62.998419449" lon="7.85347778696">
		<tag k="name" v="Storbrusen" />
>>>>>>> e1d4bc35ff8a6074a6f2e91616a996b547c36f15
		<tag k="place" v="islet" />
		<tag k="ssr:stedsnr" v="763908" />
	</node>
<<<<<<< HEAD
	<node lat="62.97034444022778" lon="8.002375004598717" id="-5371">
		<tag k="name" v="Lamvikneset" />
		<tag k="natural" v="cape" />
		<tag k="ssr:stedsnr" v="763692" />
	</node>
	<node lat="62.96736944106032" lon="7.758086103092936" id="-5379">
		<tag k="name" v="Langneset" />
=======
	<node id="-79727" lat="63.0090000017" lon="7.84992499206">
		<tag k="name" v="Budalsgrunnen" />
		<tag k="natural" v="shoal" />
		<tag k="place" v="locality" />
		<tag k="ssr:stedsnr" v="717705" />
	</node>
	<node id="-80231" lat="62.9247916699" lon="7.71686945353">
		<tag k="name" v="Blakstadneset" />
>>>>>>> e1d4bc35ff8a6074a6f2e91616a996b547c36f15
		<tag k="natural" v="cape" />
		<tag k="ssr:stedsnr" v="778303" />
	</node>
<<<<<<< HEAD
	<node lat="62.9576388867604" lon="8.042297222922592" id="-5405">
		<tag k="name" v="Hjellabukta" />
=======
	<node id="-79333" lat="62.974180559" lon="7.76662499644">
		<tag k="name" v="Seiholmgrunnen" />
		<tag k="natural" v="shoal" />
		<tag k="place" v="locality" />
		<tag k="ssr:stedsnr" v="293367" />
	</node>
	<node id="-79194" lat="62.9622944425" lon="7.66537221421">
		<tag k="name" v="Søre Nessabukta" />
>>>>>>> e1d4bc35ff8a6074a6f2e91616a996b547c36f15
		<tag k="natural" v="bay" />
		<tag k="ssr:stedsnr" v="824565" />
	</node>
<<<<<<< HEAD
	<node lat="62.971650000465964" lon="7.981283326630058" id="-5414">
		<tag k="name" v="Klokkaren" />
		<tag k="natural" v="cape" />
		<tag k="ssr:stedsnr" v="824679" />
	</node>
	<node lat="62.975336107296656" lon="7.7850194496000436" id="-5427">
		<tag k="name" v="Kråkneset" />
		<tag k="natural" v="cape" />
		<tag k="ssr:stedsnr" v="922832" />
	</node>
	<node lat="62.971594444212265" lon="7.740180553600585" id="-5428">
		<tag k="name" v="Ikornneset" />
		<tag k="natural" v="cape" />
		<tag k="ssr:stedsnr" v="922834" />
	</node>
	<node lat="62.99038055664843" lon="7.808777771245322" id="-5446">
		<tag k="name" v="Geilvika" />
		<tag k="natural" v="bay" />
		<tag k="ssr:stedsnr" v="884156" />
	</node>
	<node lat="62.96604444768954" lon="7.766574991424525" id="-5451">
		<tag k="name" v="Hogsetbukta" />
=======
	<node id="-79705" lat="62.9773166625" lon="7.78614444311">
		<tag k="name" v="Litlholmen" />
		<tag k="place" v="islet" />
		<tag k="ssr:stedsnr" v="702984" />
	</node>
	<node id="-79588" lat="62.9464305519" lon="8.06718055784">
		<tag k="name" v="Naustneset" />
		<tag k="natural" v="cape" />
		<tag k="ssr:stedsnr" v="679919" />
	</node>
	<node id="-80725" lat="62.9184416629" lon="8.03541665746">
		<tag k="name" v="Skoglund" />
		<tag k="place" v="island" />
		<tag k="ssr:stedsnr" v="520166" />
	</node>
	<node id="-80723" lat="62.998211107" lon="7.83864722855">
		<tag k="fixme" v="consider seamark:type=rock or natural=shoal" />
		<tag k="name" v="Tørbjønn" />
		<tag k="place" v="islet" />
		<tag k="ssr:stedsnr" v="520145" />
	</node>
	<node id="-80720" lat="62.8922694449" lon="7.87631945275">
		<tag k="bay" v="fjord" />
		<tag k="name" v="Nessabua" />
		<tag k="natural" v="bay" />
		<tag k="ssr:stedsnr" v="520120" />
	</node>
	<node id="-80714" lat="62.9800972222" lon="7.7926638871">
		<tag k="name" v="Jelkremsbukta" />
>>>>>>> e1d4bc35ff8a6074a6f2e91616a996b547c36f15
		<tag k="natural" v="bay" />
		<tag k="ssr:stedsnr" v="884954" />
	</node>
<<<<<<< HEAD
	<node lat="62.95679166385069" lon="7.78218889395775" id="-5455">
		<tag k="name" v="Vorpvika" />
		<tag k="natural" v="bay" />
		<tag k="ssr:stedsnr" v="885166" />
	</node>
	<node lat="62.970941666860014" lon="7.858836103938797" id="-5488">
		<tag k="fixme" v="consider seamark:type=rock or natural=shoal" />
		<tag k="name" v="Hjortaskjæra" />
=======
	<node id="-79177" lat="62.9637166673" lon="7.79496944616">
		<tag k="name" v="Gjemnessundet" />
		<tag k="natural" v="strait" />
		<tag k="ssr:stedsnr" v="254836" />
	</node>
	<node id="-79176" lat="62.9712916634" lon="7.76070832466">
		<tag k="name" v="Skarvholmen" />
>>>>>>> e1d4bc35ff8a6074a6f2e91616a996b547c36f15
		<tag k="place" v="islet" />
		<tag k="ssr:stedsnr" v="922885" />
	</node>
<<<<<<< HEAD
	<node lat="62.974177780155614" lon="7.989244451451624" id="-5489">
		<tag k="name" v="Kvalvågholman" />
=======
	<node id="-80710" lat="62.9736805563" lon="7.85914445174">
		<tag k="name" v="Tjeldholmen" />
>>>>>>> e1d4bc35ff8a6074a6f2e91616a996b547c36f15
		<tag k="place" v="islet" />
		<tag k="ssr:stedsnr" v="922890" />
	</node>
<<<<<<< HEAD
	<node lat="62.96744722532568" lon="7.748263881856837" id="-5490">
		<tag k="name" v="Einneset" />
		<tag k="natural" v="cape" />
		<tag k="ssr:stedsnr" v="944183" />
	</node>
	<node lat="62.897422224773365" lon="8.094133343089426" id="-5506">
		<tag k="name" v="Myrabukta" />
		<tag k="natural" v="bay" />
		<tag k="ssr:stedsnr" v="945540" />
	</node>
	<node lat="62.97971944559065" lon="7.819369437404318" id="-5541">
		<tag k="name" v="Bergsøya" />
		<tag k="place" v="island" />
		<tag k="ssr:stedsnr" v="12849" />
	</node>
	<node lat="62.964486109239516" lon="7.671963883074795" id="-5573">
		<tag k="name" v="Nøre Nessabukta" />
		<tag k="natural" v="bay" />
		<tag k="ssr:stedsnr" v="34913" />
	</node>
	<node lat="62.99589722323018" lon="7.8425416624470445" id="-5578">
		<tag k="name" v="Storviksundet" />
		<tag k="natural" v="strait" />
		<tag k="ssr:stedsnr" v="34970" />
	</node>
	<node lat="62.98250277943683" lon="7.79390000032876" id="-5582">
=======
	<node id="-79841" lat="62.9442888883" lon="7.81837222366">
		<tag k="name" v="Nautneset" />
		<tag k="natural" v="cape" />
		<tag k="ssr:stedsnr" v="739909" />
	</node>
	<node id="-79168" lat="62.9674305526" lon="7.80457778019">
		<tag k="name" v="Kaiholmen" />
		<tag k="place" v="islet" />
		<tag k="ssr:stedsnr" v="254894" />
	</node>
	<node id="-79167" lat="62.806236109" lon="8.26768333916">
		<tag k="bay" v="fjord" />
		<tag k="name" v="Tingvollfjorden" />
		<tag k="natural" v="bay" />
		<tag k="ssr:stedsnr" v="254881" />
	</node>
	<node id="-79166" lat="62.9926888885" lon="7.79150277013">
		<tag k="name" v="Høgholmen" />
		<tag k="place" v="islet" />
		<tag k="ssr:stedsnr" v="254793" />
	</node>
	<node id="-80700" lat="62.9808388844" lon="7.8705861018">
		<tag k="name" v="Nakken" />
		<tag k="natural" v="cape" />
		<tag k="ssr:stedsnr" v="436848" />
	</node>
	<node id="-79157" lat="62.9849222242" lon="7.79561389499">
		<tag k="name" v="Jelkremsneset" />
		<tag k="natural" v="cape" />
		<tag k="ssr:stedsnr" v="72844" />
	</node>
	<node id="-79155" lat="62.9765194458" lon="7.77705832423">
		<tag k="name" v="Kråkholmen" />
		<tag k="place" v="islet" />
		<tag k="ssr:stedsnr" v="232300" />
	</node>
	<node id="-79154" lat="62.9906944414" lon="7.78194444205">
		<tag k="name" v="Høgholmgrunnen" />
		<tag k="natural" v="shoal" />
		<tag k="place" v="locality" />
		<tag k="ssr:stedsnr" v="232293" />
	</node>
	<node id="-80176" lat="62.9825027794" lon="7.79390000033">
>>>>>>> e1d4bc35ff8a6074a6f2e91616a996b547c36f15
		<tag k="name" v="Laberget" />
		<tag k="natural" v="cape" />
		<tag k="ssr:stedsnr" v="35191" />
	</node>
<<<<<<< HEAD
	<node lat="62.96317222519873" lon="7.781927768215482" id="-5588">
		<tag k="name" v="Tinghaugneset" />
		<tag k="natural" v="cape" />
		<tag k="ssr:stedsnr" v="34959" />
	</node>
	<node lat="62.89586111116658" lon="7.878872216255326" id="-5594">
=======
	<node id="-79661" lat="62.9470944458" lon="8.0621055616">
		<tag k="name" v="Varvikbrua" />
		<tag k="place" v="locality" />
		<tag k="ssr:stedsnr" v="702533" />
	</node>
	<node id="-80169" lat="62.8958611112" lon="7.87887221626">
>>>>>>> e1d4bc35ff8a6074a6f2e91616a996b547c36f15
		<tag k="bay" v="fjord" />
		<tag k="name" v="Donabua" />
		<tag k="natural" v="bay" />
		<tag k="ssr:stedsnr" v="35156" />
	</node>
<<<<<<< HEAD
	<node lat="62.924791669922236" lon="7.716869453532037" id="-5607">
		<tag k="name" v="Blakstadneset" />
=======
	<node id="-80163" lat="62.9958972232" lon="7.84254166245">
		<tag k="name" v="Storviksundet" />
		<tag k="natural" v="strait" />
		<tag k="ssr:stedsnr" v="34970" />
	</node>
	<node id="-80162" lat="62.9631722252" lon="7.78192776822">
		<tag k="name" v="Tinghaugneset" />
>>>>>>> e1d4bc35ff8a6074a6f2e91616a996b547c36f15
		<tag k="natural" v="cape" />
		<tag k="ssr:stedsnr" v="35888" />
	</node>
<<<<<<< HEAD
	<node lat="62.99266666360193" lon="7.845102787473845" id="-5628">
		<tag k="name" v="Storvika" />
		<tag k="natural" v="bay" />
		<tag k="ssr:stedsnr" v="50296" />
	</node>
	<node lat="62.965580551736146" lon="7.748405550580664" id="-5632">
		<tag k="name" v="Leira" />
		<tag k="natural" v="bay" />
		<tag k="ssr:stedsnr" v="72893" />
	</node>
	<node lat="62.96388611355126" lon="7.9195138872686215" id="-5633">
		<tag k="fixme" v="consider seamark:type=rock or natural=shoal" />
		<tag k="name" v="Vorpskjæret" />
		<tag k="place" v="islet" />
		<tag k="ssr:stedsnr" v="72896" />
	</node>
	<node lat="62.98492222420755" lon="7.795613894988429" id="-5636">
		<tag k="name" v="Jelkremsneset" />
		<tag k="natural" v="cape" />
		<tag k="ssr:stedsnr" v="72844" />
	</node>
	<node lat="62.98956944651274" lon="7.852522229743246" id="-5637">
		<tag k="name" v="Hylla" />
		<tag k="natural" v="cape" />
		<tag k="ssr:stedsnr" v="72856" />
	</node>
	<node lat="62.91451388769642" lon="7.729383335983265" id="-5639">
		<tag k="name" v="Stakkneset" />
=======
	<node id="-80154" lat="62.9644861092" lon="7.67196388307">
		<tag k="name" v="Nøre Nessabukta" />
		<tag k="natural" v="bay" />
		<tag k="ssr:stedsnr" v="34913" />
	</node>
	<node id="-79577" lat="62.8872583303" lon="7.92563888385">
		<tag k="name" v="Øysaga" />
		<tag k="natural" v="strait" />
		<tag k="ssr:stedsnr" v="460162" />
	</node>
	<node id="-79235" lat="62.9470138873" lon="7.83397500879">
		<tag k="name" v="Holtasaga" />
		<tag k="natural" v="strait" />
		<tag k="ssr:stedsnr" v="276593" />
	</node>
	<node id="-79234" lat="62.9370111134" lon="7.85756111149">
		<tag k="name" v="Vassverkvegen" />
		<tag k="natural" v="shoal" />
		<tag k="place" v="locality" />
		<tag k="ssr:stedsnr" v="276590" />
	</node>
	<node id="-80645" lat="62.9619250012" lon="7.78259444563">
		<tag k="name" v="Tingvika" />
		<tag k="natural" v="bay" />
		<tag k="ssr:stedsnr" v="399178" />
	</node>
	<node id="-79303" lat="62.9293414382" lon="7.59508094198">
		<tag k="alt_name" v="Krekvikhammaren" />
		<tag k="name" v="Hammarneset" />
		<tag k="natural" v="cape" />
		<tag k="ssr:stedsnr" v="278775" />
	</node>
	<node id="-80633" lat="62.9156027757" lon="7.70281389727">
		<tag k="name" v="Digerneset" />
		<tag k="natural" v="cape" />
		<tag k="ssr:stedsnr" v="398871" />
	</node>
	<node id="-79607" lat="62.9595444487" lon="7.84167221821">
		<tag k="bay" v="fjord" />
		<tag k="name" v="Bergsøyfjorden" />
		<tag k="natural" v="bay" />
		<tag k="ssr:stedsnr" v="497908" />
	</node>
	<node id="-79606" lat="62.9685055519" lon="7.77386388568">
		<tag k="name" v="Omseiholmen" />
		<tag k="place" v="islet" />
		<tag k="ssr:stedsnr" v="497905" />
	</node>
	<node id="-81139" lat="62.9722166693" lon="7.97378612086">
		<tag k="name" v="Kvalvågneset" />
>>>>>>> e1d4bc35ff8a6074a6f2e91616a996b547c36f15
		<tag k="natural" v="cape" />
		<tag k="ssr:stedsnr" v="72958" />
	</node>
<<<<<<< HEAD
	<node lat="62.91742500374242" lon="8.112913896787333" id="-5644">
		<tag k="name" v="Haltviknaustet" />
		<tag k="natural" v="strait" />
		<tag k="ssr:stedsnr" v="96594" />
	</node>
	<node lat="62.90454166734534" lon="8.101547228165416" id="-5659">
		<tag k="name" v="Sjølsvikbukta" />
		<tag k="natural" v="bay" />
		<tag k="ssr:stedsnr" v="94992" />
	</node>
	<node lat="62.9804611148229" lon="7.781733323926719" id="-5670">
		<tag k="name" v="Kråka" />
=======
	<node id="-80114" lat="62.9797194456" lon="7.8193694374">
		<tag k="name" v="Bergsøya" />
		<tag k="place" v="island" />
		<tag k="ssr:stedsnr" v="12849" />
	</node>
	<node id="-81137" lat="62.9521611071" lon="7.84192778023">
		<tag k="alt_name" v="Resholmen" />
		<tag k="name" v="Revsholmen" />
>>>>>>> e1d4bc35ff8a6074a6f2e91616a996b547c36f15
		<tag k="place" v="islet" />
		<tag k="ssr:stedsnr" v="95099" />
	</node>
<<<<<<< HEAD
	<node lat="62.97591389174112" lon="7.867836105879415" id="-5710">
		<tag k="name" v="Bergsholmen" />
		<tag k="place" v="islet" />
		<tag k="ssr:stedsnr" v="133830" />
	</node>
	<node lat="62.96800833208138" lon="7.803688883478574" id="-5751">
		<tag k="name" v="Tjeldholmen" />
=======
	<node id="-81135" lat="62.9847972259" lon="7.85955833012">
		<tag k="name" v="Rossneset" />
		<tag k="natural" v="cape" />
		<tag k="ssr:stedsnr" v="861862" />
	</node>
	<node id="-81134" lat="62.9727555575" lon="7.76184999333">
		<tag k="name" v="Seiholmen" />
>>>>>>> e1d4bc35ff8a6074a6f2e91616a996b547c36f15
		<tag k="place" v="islet" />
		<tag k="ssr:stedsnr" v="155977" />
	</node>
<<<<<<< HEAD
	<node lat="62.89957221827422" lon="8.099694441741033" id="-5765">
		<tag k="name" v="Nerskjæret" />
		<tag k="natural" v="cape" />
		<tag k="ssr:stedsnr" v="156573" />
	</node>
	<node lat="62.95100277562768" lon="8.021877773994753" id="-5771">
		<tag k="name" v="Sommarfjøsen" />
		<tag k="natural" v="strait" />
		<tag k="ssr:stedsnr" v="156538" />
	</node>
	<node lat="62.98021944570318" lon="7.794444450573538" id="-5785">
		<tag k="name" v="Jelkremstranda" />
		<tag k="natural" v="beach" />
		<tag k="ssr:stedsnr" v="171292" />
	</node>
	<node lat="62.931511112436205" lon="7.597288895520471" id="-5798">
		<tag k="alt_name" v="Sevikbogen" />
		<tag k="name" v="Sevikbukta" />
=======
	<node id="-81131" lat="62.9675388893" lon="7.68234722755">
		<tag k="name" v="Sandneset" />
		<tag k="natural" v="cape" />
		<tag k="ssr:stedsnr" v="861970" />
	</node>
	<node id="-81128" lat="62.9064138909" lon="7.7015861026">
		<tag k="bay" v="fjord" />
		<tag k="name" v="Batnfjorden" />
		<tag k="natural" v="bay" />
		<tag k="ssr:stedsnr" v="861541" />
	</node>
	<node id="-81127" lat="62.7888611127" lon="8.32847500554">
		<tag k="bay" v="fjord" />
		<tag k="name" v="Sunndalsfjorden" />
		<tag k="natural" v="bay" />
		<tag k="ssr:stedsnr" v="861179" />
	</node>
	<node id="-81126" lat="62.9641166688" lon="7.93309167017">
		<tag k="fixme" v="consider seamark:type=rock or natural=shoal" />
		<tag k="name" v="Ranemskjæran" />
		<tag k="place" v="islet" />
		<tag k="ssr:stedsnr" v="839724" />
	</node>
	<node id="-81124" lat="62.9714222238" lon="7.84584999654">
		<tag k="name" v="Molsfjøra" />
		<tag k="natural" v="beach" />
		<tag k="place" v="locality" />
		<tag k="ssr:stedsnr" v="824957" />
	</node>
	<node id="-79584" lat="62.9959083313" lon="7.84856111032">
		<tag k="name" v="Måløya" />
		<tag k="place" v="island" />
		<tag k="ssr:stedsnr" v="679789" />
	</node>
	<node id="-79580" lat="62.9519277748" lon="7.8498777826">
		<tag k="name" v="Flatholmen" />
		<tag k="place" v="islet" />
		<tag k="ssr:stedsnr" v="678868" />
	</node>
	<node id="-80602" lat="63.0476972209" lon="7.68218056029">
		<tag k="bay" v="fjord" />
		<tag k="name" v="Kvernesfjorden" />
>>>>>>> e1d4bc35ff8a6074a6f2e91616a996b547c36f15
		<tag k="natural" v="bay" />
		<tag k="ssr:stedsnr" v="194445" />
	</node>
<<<<<<< HEAD
	<node lat="62.96628333569921" lon="7.810086115462666" id="-5810">
		<tag k="name" v="Hallsetneset" />
		<tag k="natural" v="cape" />
		<tag k="ssr:stedsnr" v="194896" />
	</node>
	<node lat="62.92163333250695" lon="8.11534443847402" id="-5814">
		<tag k="name" v="Gagnatskjæret" />
=======
	<node id="-81113" lat="62.9707361109" lon="7.98416389515">
		<tag k="name" v="Kvalvågbukta" />
		<tag k="natural" v="bay" />
		<tag k="ssr:stedsnr" v="824699" />
	</node>
	<node id="-81112" lat="62.9731277799" lon="7.78501944608">
		<tag k="name" v="Hamnaklubben" />
>>>>>>> e1d4bc35ff8a6074a6f2e91616a996b547c36f15
		<tag k="natural" v="cape" />
		<tag k="ssr:stedsnr" v="194962" />
	</node>
<<<<<<< HEAD
	<node lat="62.9185333316441" lon="7.706122230333407" id="-5836">
		<tag k="name" v="Buaneset" />
		<tag k="natural" v="cape" />
		<tag k="ssr:stedsnr" v="216069" />
	</node>
	<node lat="62.96664166440472" lon="7.755302787276347" id="-5839">
		<tag k="name" v="Langnesbukta" />
		<tag k="natural" v="bay" />
		<tag k="ssr:stedsnr" v="216946" />
	</node>
	<node lat="62.96623333658353" lon="7.774211112981996" id="-5840">
		<tag k="name" v="Litlholmen" />
		<tag k="place" v="islet" />
		<tag k="ssr:stedsnr" v="216948" />
	</node>
	<node lat="62.98351388486563" lon="7.860988881804741" id="-5841">
		<tag k="name" v="Hamnabukta" />
=======
	<node id="-80599" lat="62.9964083322" lon="7.80260277965">
		<tag k="name" v="Storholmen" />
		<tag k="place" v="islet" />
		<tag k="ssr:stedsnr" v="375795" />
	</node>
	<node id="-80598" lat="62.9945555574" lon="7.79687500199">
		<tag k="name" v="Isakholmen" />
		<tag k="place" v="islet" />
		<tag k="ssr:stedsnr" v="375791" />
	</node>
	<node id="-80085" lat="62.8884138875" lon="7.92434999375">
		<tag k="name" v="Øybrua" />
		<tag k="place" v="locality" />
		<tag k="ssr:stedsnr" v="217239" />
	</node>
	<node id="-80594" lat="62.9699333328" lon="7.72980556269">
		<tag k="name" v="Svortåbukta" />
>>>>>>> e1d4bc35ff8a6074a6f2e91616a996b547c36f15
		<tag k="natural" v="bay" />
		<tag k="ssr:stedsnr" v="216955" />
	</node>
<<<<<<< HEAD
	<node lat="62.96481944695995" lon="7.748338892769068" id="-5882">
		<tag k="name" v="Klingren" />
		<tag k="natural" v="beach" />
		<tag k="ssr:stedsnr" v="276232" />
	</node>
	<node lat="62.937011113414854" lon="7.857561111485155" id="-5884">
		<tag k="name" v="Vassverkvegen" />
		<tag k="natural" v="shoal" />
		<tag k="place" v="locality" />
		<tag k="ssr:stedsnr" v="276590" />
	</node>
	<node lat="62.94701388729079" lon="7.833975008791158" id="-5885">
		<tag k="name" v="Holtasaga" />
		<tag k="natural" v="strait" />
		<tag k="ssr:stedsnr" v="276593" />
	</node>
	<node lat="62.946622218222444" lon="7.870330556732166" id="-5887">
		<tag k="fixme" v="consider seamark:type=rock or natural=shoal" />
		<tag k="name" v="Orsetvegen" />
		<tag k="place" v="islet" />
		<tag k="ssr:stedsnr" v="276597" />
	</node>
	<node lat="62.94713333134951" lon="7.857772230851505" id="-5888">
		<tag k="name" v="Torvikbukta" />
		<tag k="natural" v="bay" />
		<tag k="ssr:stedsnr" v="276996" />
	</node>
	<node lat="62.99902222619409" lon="7.83944721545261" id="-5899">
		<tag k="name" v="Kroken" />
		<tag k="natural" v="cape" />
		<tag k="ssr:stedsnr" v="277139" />
	</node>
	<node lat="62.97497222666549" lon="7.86811945163532" id="-5924">
		<tag k="name" v="Prestvika" />
=======
	<node id="-81105" lat="62.9086111108" lon="8.10428889488">
		<tag k="name" v="Innervikan" />
		<tag k="natural" v="bay" />
		<tag k="ssr:stedsnr" v="824592" />
	</node>
	<node id="-81104" lat="62.9716500005" lon="7.98128332663">
		<tag k="name" v="Klokkaren" />
		<tag k="natural" v="cape" />
		<tag k="ssr:stedsnr" v="824679" />
	</node>
	<node id="-79138" lat="62.9364388882" lon="7.58814722149">
		<tag k="name" v="Sevikneset" />
		<tag k="natural" v="cape" />
		<tag k="ssr:stedsnr" v="11507" />
	</node>
	<node id="-79223" lat="62.9759138917" lon="7.86783610588">
		<tag k="name" v="Bergsholmen" />
		<tag k="place" v="islet" />
		<tag k="ssr:stedsnr" v="133830" />
	</node>
	<node id="-81092" lat="62.9231916683" lon="7.76094999347">
		<tag k="name" v="Hundvika" />
		<tag k="natural" v="bay" />
		<tag k="ssr:stedsnr" v="824184" />
	</node>
	<node id="-81091" lat="62.9613694411" lon="7.7892305511">
		<tag k="name" v="Laberget" />
		<tag k="natural" v="cape" />
		<tag k="ssr:stedsnr" v="824183" />
	</node>
	<node id="-80060" lat="62.9567916639" lon="7.78218889396">
		<tag k="name" v="Vorpvika" />
>>>>>>> e1d4bc35ff8a6074a6f2e91616a996b547c36f15
		<tag k="natural" v="bay" />
		<tag k="ssr:stedsnr" v="277959" />
	</node>
<<<<<<< HEAD
	<node lat="62.9741805590492" lon="7.766624996437558" id="-5947">
		<tag k="name" v="Seiholmgrunnen" />
		<tag k="natural" v="shoal" />
		<tag k="place" v="locality" />
		<tag k="ssr:stedsnr" v="293367" />
	</node>
	<node lat="62.937313890079274" lon="7.583102771776102" id="-5955">
		<tag k="alt_name" v="Sevikholman" />
		<tag k="name" v="Sevikholmen" />
		<tag k="place" v="islet" />
		<tag k="ssr:stedsnr" v="315484" />
	</node>
	<node lat="62.99860277483269" lon="7.808258332059842" id="-5965">
		<tag k="name" v="Avlsholmen" />
=======
	<node id="-79547" lat="63.0011194465" lon="7.7866527838">
		<tag k="fixme" v="consider seamark:type=rock or natural=shoal" />
		<tag k="name" v="Steet" />
		<tag k="place" v="islet" />
		<tag k="ssr:stedsnr" v="376204" />
	</node>
	<node id="-79546" lat="63.0010972227" lon="7.79228055137">
		<tag k="fixme" v="consider seamark:type=rock or natural=shoal" />
		<tag k="name" v="Belgan" />
		<tag k="place" v="islet" />
		<tag k="ssr:stedsnr" v="376202" />
	</node>
	<node id="-80057" lat="62.9660444477" lon="7.76657499142">
		<tag k="name" v="Hogsetbukta" />
		<tag k="natural" v="bay" />
		<tag k="ssr:stedsnr" v="884954" />
	</node>
	<node id="-79544" lat="62.991986108" lon="7.85167777605">
		<tag k="name" v="Kariholmen" />
>>>>>>> e1d4bc35ff8a6074a6f2e91616a996b547c36f15
		<tag k="place" v="islet" />
		<tag k="ssr:stedsnr" v="315815" />
	</node>
	<node lat="62.99487500266676" lon="7.826216669488411" id="-5985">
		<tag k="name" v="Naustneset" />
		<tag k="natural" v="cape" />
		<tag k="ssr:stedsnr" v="337965" />
	</node>
<<<<<<< HEAD
	<node lat="62.89854999596856" lon="8.097225008976594" id="-5995">
		<tag k="name" v="Limneset" />
		<tag k="natural" v="cape" />
		<tag k="ssr:stedsnr" v="338179" />
	</node>
	<node lat="62.915808337373925" lon="8.09851666122172" id="-6006">
=======
	<node id="-79561" lat="62.9899472259" lon="7.8638388896">
		<tag k="name" v="Bergsøysundet" />
		<tag k="natural" v="strait" />
		<tag k="ssr:stedsnr" v="436867" />
	</node>
	<node id="-80051" lat="62.9903805566" lon="7.80877777125">
		<tag k="name" v="Geilvika" />
		<tag k="natural" v="bay" />
		<tag k="ssr:stedsnr" v="884156" />
	</node>
	<node id="-80559" lat="62.9158083374" lon="8.09851666122">
>>>>>>> e1d4bc35ff8a6074a6f2e91616a996b547c36f15
		<tag k="name" v="Haltviksaga" />
		<tag k="natural" v="strait" />
		<tag k="ssr:stedsnr" v="338539" />
	</node>
<<<<<<< HEAD
	<node lat="62.96993333276537" lon="7.7298055626948665" id="-6036">
		<tag k="name" v="Svortåbukta" />
		<tag k="natural" v="bay" />
		<tag k="ssr:stedsnr" v="353371" />
	</node>
	<node lat="63.04769722093297" lon="7.682180560289716" id="-6038">
		<tag k="bay" v="fjord" />
		<tag k="name" v="Kvernesfjorden" />
		<tag k="natural" v="bay" />
		<tag k="ssr:stedsnr" v="375946" />
	</node>
	<node lat="62.99198610796026" lon="7.8516777760466745" id="-6045">
		<tag k="name" v="Kariholmen" />
=======
	<node id="-79533" lat="62.9269888919" lon="8.10734444007">
		<tag k="name" v="Gagnatneset" />
		<tag k="natural" v="cape" />
		<tag k="ssr:stedsnr" v="497961" />
	</node>
	<node id="-80554" lat="62.9609083358" lon="8.02249166649">
		<tag k="name" v="Bjørnastien" />
		<tag k="place" v="locality" />
		<tag k="ssr:stedsnr" v="338508" />
	</node>
	<node id="-79529" lat="62.9984805531" lon="7.85339722532">
		<tag k="name" v="Brusen" />
>>>>>>> e1d4bc35ff8a6074a6f2e91616a996b547c36f15
		<tag k="place" v="islet" />
		<tag k="ssr:stedsnr" v="375860" />
	</node>
<<<<<<< HEAD
	<node lat="62.91560277568497" lon="7.702813897270093" id="-6074">
		<tag k="name" v="Digerneset" />
=======
	<node id="-79528" lat="62.9661888862" lon="8.03535277339">
		<tag k="name" v="Straumneset" />
>>>>>>> e1d4bc35ff8a6074a6f2e91616a996b547c36f15
		<tag k="natural" v="cape" />
		<tag k="ssr:stedsnr" v="398871" />
	</node>
<<<<<<< HEAD
	<node lat="62.980838884415206" lon="7.870586101800586" id="-6117">
		<tag k="name" v="Nakken" />
		<tag k="natural" v="cape" />
		<tag k="ssr:stedsnr" v="436848" />
	</node>
	<node lat="62.9736805562712" lon="7.859144451735871" id="-6126">
		<tag k="name" v="Tjeldholmen" />
=======
	<node id="-80547" lat="62.8871222181" lon="7.93049443784">
		<tag k="bay" v="fjord" />
		<tag k="name" v="Hjellhaugen" />
		<tag k="natural" v="bay" />
		<tag k="ssr:stedsnr" v="337998" />
	</node>
	<node id="-81058" lat="63.0021250022" lon="7.8249583273">
		<tag k="name" v="Jåholman" />
>>>>>>> e1d4bc35ff8a6074a6f2e91616a996b547c36f15
		<tag k="place" v="islet" />
		<tag k="ssr:stedsnr" v="437825" />
	</node>
<<<<<<< HEAD
	<node lat="63.01554658302232" lon="7.836398540814701" id="-6131">
=======
	<node id="-79521" lat="63.0749999982" lon="7.86817221365">
>>>>>>> e1d4bc35ff8a6074a6f2e91616a996b547c36f15
		<tag k="bay" v="fjord" />
		<tag k="name" v="Freifjorden" />
		<tag k="natural" v="bay" />
		<tag k="ssr:stedsnr" v="497153" />
	</node>
<<<<<<< HEAD
	<node lat="62.998480553126505" lon="7.853397225323857" id="-6135">
		<tag k="name" v="Brusen" />
		<tag k="place" v="islet" />
		<tag k="ssr:stedsnr" v="497824" />
	</node>
	<node lat="62.966188886154036" lon="8.035352773393551" id="-6140">
		<tag k="name" v="Straumneset" />
		<tag k="natural" v="cape" />
		<tag k="ssr:stedsnr" v="497865" />
	</node>
	<node lat="62.926988891924886" lon="8.1073444400716" id="-6143">
		<tag k="name" v="Gagnatneset" />
=======
	<node id="-80240" lat="62.9926666636" lon="7.84510278747">
		<tag k="name" v="Storvika" />
		<tag k="natural" v="bay" />
		<tag k="ssr:stedsnr" v="50296" />
	</node>
	<node id="-80541" lat="62.9948750027" lon="7.82621666949">
		<tag k="name" v="Naustneset" />
		<tag k="natural" v="cape" />
		<tag k="ssr:stedsnr" v="337965" />
	</node>
	<node id="-80540" lat="62.9640027805" lon="7.77369444962">
		<tag k="name" v="Skogåkerbukta" />
		<tag k="natural" v="bay" />
		<tag k="ssr:stedsnr" v="337957" />
	</node>
	<node id="-81051" lat="62.9634444459" lon="7.66703054856">
		<tag k="name" v="Stokkneset" />
>>>>>>> e1d4bc35ff8a6074a6f2e91616a996b547c36f15
		<tag k="natural" v="cape" />
		<tag k="ssr:stedsnr" v="497961" />
	</node>
<<<<<<< HEAD
	<node lat="62.98009722219319" lon="7.79266388710097" id="-6157">
		<tag k="name" v="Jelkremsbukta" />
		<tag k="natural" v="bay" />
		<tag k="ssr:stedsnr" v="519986" />
	</node>
	<node lat="62.99821110699937" lon="7.838647228548386" id="-6160">
		<tag k="fixme" v="consider seamark:type=rock or natural=shoal" />
		<tag k="name" v="Tørbjønn" />
		<tag k="place" v="islet" />
		<tag k="ssr:stedsnr" v="520145" />
	</node>
	<node lat="62.99841944903068" lon="7.853477786957898" id="-6187">
		<tag k="name" v="Storbrusen" />
		<tag k="place" v="islet" />
		<tag k="ssr:stedsnr" v="520756" />
	</node>
	<node lat="62.97667778045534" lon="7.781297220433307" id="-6237">
		<tag k="name" v="Langholmen" />
		<tag k="place" v="islet" />
		<tag k="ssr:stedsnr" v="580977" />
	</node>
	<node lat="62.976722218906936" lon="7.783305563061777" id="-6238">
		<tag k="name" v="Kariholmen" />
		<tag k="place" v="islet" />
		<tag k="ssr:stedsnr" v="580979" />
	</node>
	<node lat="62.98481944477946" lon="7.856044445032714" id="-6242">
		<tag k="name" v="Litlvika" />
		<tag k="natural" v="bay" />
		<tag k="ssr:stedsnr" v="581184" />
	</node>
	<node lat="62.996438888853" lon="7.838450003853159" id="-6256">
		<tag k="name" v="Litlbøneset" />
		<tag k="natural" v="cape" />
		<tag k="ssr:stedsnr" v="581764" />
	</node>
	<node lat="62.996258337062855" lon="7.830780555981974" id="-6268">
		<tag k="name" v="Brannholmen" />
=======
	<node id="-80538" lat="62.9553305559" lon="7.64776111195">
		<tag k="name" v="Kolsetbukta" />
		<tag k="natural" v="bay" />
		<tag k="ssr:stedsnr" v="337914" />
	</node>
	<node id="-79743" lat="62.9502083327" lon="7.76896388185">
		<tag k="name" v="Hyllneset" />
		<tag k="natural" v="cape" />
		<tag k="ssr:stedsnr" v="640947" />
	</node>
	<node id="-79509" lat="62.9595111154" lon="7.79181111666">
		<tag k="name" v="Gjemnesneset" />
		<tag k="natural" v="cape" />
		<tag k="ssr:stedsnr" v="338755" />
	</node>
	<node id="-80525" lat="62.898549996" lon="8.09722500898">
		<tag k="name" v="Limneset" />
		<tag k="natural" v="cape" />
		<tag k="ssr:stedsnr" v="338179" />
	</node>
	<node id="-80009" lat="62.8974222248" lon="8.09413334309">
		<tag k="name" v="Myrabukta" />
		<tag k="natural" v="bay" />
		<tag k="ssr:stedsnr" v="945540" />
	</node>
	<node id="-79496" lat="62.9713055594" lon="7.68083889073">
		<tag k="name" v="Sandnesgrunnen" />
		<tag k="natural" v="shoal" />
		<tag k="place" v="locality" />
		<tag k="ssr:stedsnr" v="475238" />
	</node>
	<node id="-79495" lat="63.0034472252" lon="7.86277778196">
		<tag k="name" v="Skallen" />
		<tag k="natural" v="shoal" />
		<tag k="place" v="locality" />
		<tag k="ssr:stedsnr" v="474719" />
	</node>
	<node id="-79494" lat="62.9762361109" lon="7.7025527695">
		<tag k="name" v="Ospagrunnen" />
		<tag k="natural" v="shoal" />
		<tag k="place" v="locality" />
		<tag k="ssr:stedsnr" v="474348" />
	</node>
	<node id="-81017" lat="62.9703444402" lon="8.0023750046">
		<tag k="name" v="Lamvikneset" />
		<tag k="natural" v="cape" />
		<tag k="ssr:stedsnr" v="763692" />
	</node>
	<node id="-80501" lat="62.9215416708" lon="8.12035000669">
		<tag k="fixme" v="consider seamark:type=rock or natural=shoal" />
		<tag k="name" v="Sognaskjæret" />
		<tag k="place" v="islet" />
		<tag k="ssr:stedsnr" v="315959" />
	</node>
	<node id="-80492" lat="62.9986027748" lon="7.80825833206">
		<tag k="name" v="Avlsholmen" />
>>>>>>> e1d4bc35ff8a6074a6f2e91616a996b547c36f15
		<tag k="place" v="islet" />
		<tag k="ssr:stedsnr" v="618787" />
	</node>
<<<<<<< HEAD
	<node lat="62.96838611182512" lon="7.761069453716797" id="-6269">
		<tag k="name" v="Hogsetneset" />
		<tag k="natural" v="cape" />
		<tag k="ssr:stedsnr" v="618894" />
	</node>
	<node lat="62.9597497962254" lon="7.78633423651301" id="-6272">
		<tag k="alt_name" v="Gjemneset" />
		<tag k="name" v="Gjemnes" />
=======
	<node id="-80485" lat="62.9373138901" lon="7.58310277178">
		<tag k="alt_name" v="Sevikholman" />
		<tag k="name" v="Sevikholmen" />
		<tag k="place" v="islet" />
		<tag k="ssr:stedsnr" v="315484" />
	</node>
	<node id="-80477" lat="62.9185333316" lon="7.70612223033">
		<tag k="name" v="Buaneset" />
>>>>>>> e1d4bc35ff8a6074a6f2e91616a996b547c36f15
		<tag k="natural" v="cape" />
		<tag k="ssr:stedsnr" v="618866" />
	</node>
<<<<<<< HEAD
	<node lat="62.90113055753413" lon="7.679949990091948" id="-6297">
		<tag k="name" v="Astadbukta" />
		<tag k="natural" v="bay" />
		<tag k="ssr:stedsnr" v="640860" />
	</node>
	<node lat="62.95020833267501" lon="7.7689638818492" id="-6300">
		<tag k="name" v="Hyllneset" />
=======
	<node id="-79959" lat="62.9984416699" lon="7.8468222281">
		<tag k="name" v="Naustberget" />
>>>>>>> e1d4bc35ff8a6074a6f2e91616a996b547c36f15
		<tag k="natural" v="cape" />
		<tag k="ssr:stedsnr" v="640947" />
	</node>
<<<<<<< HEAD
	<node lat="63.00900000166547" lon="7.849924992063993" id="-6333">
		<tag k="name" v="Budalsgrunnen" />
		<tag k="natural" v="shoal" />
		<tag k="place" v="locality" />
		<tag k="ssr:stedsnr" v="717705" />
	</node>
	<node lat="62.9442888882768" lon="7.818372223662216" id="-6341">
		<tag k="name" v="Nautneset" />
		<tag k="natural" v="cape" />
		<tag k="ssr:stedsnr" v="739909" />
	</node>
	<node lat="62.94992221948298" lon="7.8461333354386" id="-6342">
		<tag k="name" v="Torvikneset" />
=======
	<node id="-79444" lat="62.9347305516" lon="8.0802055512">
		<tag k="name" v="Øratangen" />
		<tag k="natural" v="shoal" />
		<tag k="place" v="locality" />
		<tag k="ssr:stedsnr" v="460617" />
	</node>
	<node id="-79955" lat="62.9662333366" lon="7.77421111298">
		<tag k="name" v="Litlholmen" />
		<tag k="place" v="islet" />
		<tag k="ssr:stedsnr" v="216948" />
	</node>
	<node id="-79954" lat="62.9666416644" lon="7.75530278728">
		<tag k="name" v="Langnesbukta" />
		<tag k="natural" v="bay" />
		<tag k="ssr:stedsnr" v="216946" />
	</node>
	<node id="-80465" lat="62.9662833357" lon="7.81008611546">
		<tag k="name" v="Hallsetneset" />
>>>>>>> e1d4bc35ff8a6074a6f2e91616a996b547c36f15
		<tag k="natural" v="cape" />
		<tag k="ssr:stedsnr" v="739920" />
	</node>
<<<<<<< HEAD
	<node lat="62.97092222346864" lon="7.848638896839908" id="-6351">
=======
	<node id="-80971" lat="62.9709222235" lon="7.84863889684">
>>>>>>> e1d4bc35ff8a6074a6f2e91616a996b547c36f15
		<tag k="name" v="Molsneset" />
		<tag k="natural" v="cape" />
		<tag k="ssr:stedsnr" v="740878" />
	</node>
<<<<<<< HEAD
	<node lat="62.887374995536" lon="8.109847218097638" id="-6355">
=======
	<node id="-80970" lat="62.9038916637" lon="8.10706388542">
		<tag k="name" v="Sjølsvikhammaren" />
		<tag k="natural" v="cape" />
		<tag k="ssr:stedsnr" v="740988" />
	</node>
	<node id="-80969" lat="62.8873749955" lon="8.1098472181">
>>>>>>> e1d4bc35ff8a6074a6f2e91616a996b547c36f15
		<tag k="name" v="Knivskjeneset" />
		<tag k="natural" v="cape" />
		<tag k="ssr:stedsnr" v="740981" />
	</node>
<<<<<<< HEAD
	<node lat="62.92447499932418" lon="7.713133341063927" id="-6411">
		<tag k="name" v="Ligardsbukta" />
=======
	<node id="-80447" lat="62.9802194457" lon="7.79444445057">
		<tag k="name" v="Jelkremstranda" />
		<tag k="natural" v="beach" />
		<tag k="place" v="locality" />
		<tag k="ssr:stedsnr" v="171292" />
	</node>
	<node id="-79934" lat="62.9576388868" lon="8.04229722292">
		<tag k="name" v="Hjellabukta" />
>>>>>>> e1d4bc35ff8a6074a6f2e91616a996b547c36f15
		<tag k="natural" v="bay" />
		<tag k="ssr:stedsnr" v="763875" />
	</node>
<<<<<<< HEAD
	<node lat="62.963444445921624" lon="7.667030548560279" id="-6425">
		<tag k="name" v="Stokkneset" />
		<tag k="natural" v="cape" />
		<tag k="ssr:stedsnr" v="800962" />
	</node>
	<node lat="63.00212500223235" lon="7.824958327299543" id="-6427">
		<tag k="name" v="Jåholman" />
		<tag k="place" v="islet" />
		<tag k="ssr:stedsnr" v="801450" />
	</node>
	<node lat="62.97312777994627" lon="7.785019446082744" id="-6448">
		<tag k="name" v="Hamnaklubben" />
=======
	<node id="-79420" lat="62.9718055577" lon="7.75960277531">
		<tag k="fixme" v="consider seamark:type=rock or natural=shoal" />
		<tag k="name" v="Skarvholmskjæra" />
		<tag k="place" v="islet" />
		<tag k="ssr:stedsnr" v="459969" />
	</node>
	<node id="-79414" lat="62.9703388933" lon="7.74577499127">
		<tag k="name" v="Vorpneset" />
		<tag k="natural" v="cape" />
		<tag k="ssr:stedsnr" v="459921" />
	</node>
	<node id="-79965" lat="62.9674472253" lon="7.74826388186">
		<tag k="name" v="Einneset" />
		<tag k="natural" v="cape" />
		<tag k="ssr:stedsnr" v="944183" />
	</node>
	<node id="-79913" lat="62.9715944442" lon="7.7401805536">
		<tag k="name" v="Ikornneset" />
>>>>>>> e1d4bc35ff8a6074a6f2e91616a996b547c36f15
		<tag k="natural" v="cape" />
		<tag k="ssr:stedsnr" v="824781" />
	</node>
<<<<<<< HEAD
	<node lat="62.96136944105711" lon="7.789230551095708" id="-6452">
		<tag k="name" v="Laberget" />
=======
	<node id="-79912" lat="62.9753361073" lon="7.7850194496">
		<tag k="name" v="Kråkneset" />
>>>>>>> e1d4bc35ff8a6074a6f2e91616a996b547c36f15
		<tag k="natural" v="cape" />
		<tag k="ssr:stedsnr" v="824183" />
	</node>
<<<<<<< HEAD
	<node lat="62.92319166829838" lon="7.760949993468264" id="-6453">
		<tag k="name" v="Hundvika" />
		<tag k="natural" v="bay" />
		<tag k="ssr:stedsnr" v="824184" />
	</node>
	<node lat="62.90861111081215" lon="8.104288894877865" id="-6469">
		<tag k="name" v="Innervikan" />
		<tag k="natural" v="bay" />
		<tag k="ssr:stedsnr" v="824592" />
	</node>
	<node lat="62.970736110860024" lon="7.984163895147476" id="-6482">
		<tag k="name" v="Kvalvågbukta" />
		<tag k="natural" v="bay" />
		<tag k="ssr:stedsnr" v="824699" />
	</node>
	<node lat="62.97142222377645" lon="7.845849996541176" id="-6490">
		<tag k="name" v="Molsfjøra" />
		<tag k="natural" v="beach" />
		<tag k="ssr:stedsnr" v="824957" />
	</node>
	<node lat="62.96411666879346" lon="7.933091670170627" id="-6491">
=======
	<node id="-79773" lat="62.8878027758" lon="8.10101388699">
		<tag k="name" v="Krokhusneset" />
		<tag k="natural" v="cape" />
		<tag k="ssr:stedsnr" v="884594" />
	</node>
	<node id="-80412" lat="62.8995722183" lon="8.09969444174">
		<tag k="name" v="Nerskjæret" />
		<tag k="natural" v="cape" />
		<tag k="ssr:stedsnr" v="156573" />
	</node>
	<node id="-80407" lat="62.9510027756" lon="8.02187777399">
		<tag k="name" v="Sommarfjøsen" />
		<tag k="natural" v="strait" />
		<tag k="ssr:stedsnr" v="156538" />
	</node>
	<node id="-79893" lat="62.9741777802" lon="7.98924445145">
		<tag k="name" v="Kvalvågholman" />
		<tag k="place" v="islet" />
		<tag k="ssr:stedsnr" v="922890" />
	</node>
	<node id="-79892" lat="62.9709416669" lon="7.85883610394">
>>>>>>> e1d4bc35ff8a6074a6f2e91616a996b547c36f15
		<tag k="fixme" v="consider seamark:type=rock or natural=shoal" />
		<tag k="name" v="Ranemskjæran" />
		<tag k="place" v="islet" />
		<tag k="ssr:stedsnr" v="839724" />
	</node>
<<<<<<< HEAD
	<node lat="62.788861112658985" lon="8.328475005543394" id="-6492">
		<tag k="bay" v="fjord" />
		<tag k="name" v="Sunndalsfjorden" />
		<tag k="natural" v="bay" />
		<tag k="ssr:stedsnr" v="861179" />
	</node>
	<node lat="62.9064138909334" lon="7.701586102602717" id="-6493">
		<tag k="bay" v="fjord" />
		<tag k="name" v="Batnfjorden" />
=======
	<node id="-79889" lat="62.9673694411" lon="7.75808610309">
		<tag k="name" v="Langneset" />
		<tag k="natural" v="cape" />
		<tag k="ssr:stedsnr" v="778303" />
	</node>
	<node id="-79888" lat="62.9137777787" lon="7.69933056442">
		<tag k="name" v="Nordbøbukta" />
>>>>>>> e1d4bc35ff8a6074a6f2e91616a996b547c36f15
		<tag k="natural" v="bay" />
		<tag k="ssr:stedsnr" v="861541" />
	</node>
<<<<<<< HEAD
	<node lat="62.97275555751417" lon="7.7618499933252965" id="-6496">
		<tag k="name" v="Seiholmen" />
=======
	<node id="-79886" lat="62.9704861102" lon="7.71828055681">
		<tag k="alt_name" v="Svortholmen" />
		<tag k="name" v="Trøaholmen" />
>>>>>>> e1d4bc35ff8a6074a6f2e91616a996b547c36f15
		<tag k="place" v="islet" />
		<tag k="ssr:stedsnr" v="861855" />
	</node>
<<<<<<< HEAD
	<node lat="62.98479722591821" lon="7.859558330117024" id="-6500">
		<tag k="name" v="Rossneset" />
		<tag k="natural" v="cape" />
		<tag k="ssr:stedsnr" v="861862" />
	</node>
	<node lat="62.95216110713785" lon="7.841927780234848" id="-6502">
		<tag k="alt_name" v="Resholmen" />
		<tag k="name" v="Revsholmen" />
=======
	<node id="-79884" lat="62.9244749993" lon="7.71313334106">
		<tag k="name" v="Ligardsbukta" />
		<tag k="natural" v="bay" />
		<tag k="ssr:stedsnr" v="763875" />
	</node>
	<node id="-80906" lat="62.9980833344" lon="7.85249999055">
		<tag k="name" v="Litlbrusen" />
>>>>>>> e1d4bc35ff8a6074a6f2e91616a996b547c36f15
		<tag k="place" v="islet" />
		<tag k="ssr:stedsnr" v="861885" />
	</node>
<<<<<<< HEAD
	<node lat="62.972216669319245" lon="7.973786120863781" id="-6504">
		<tag k="name" v="Kvalvågneset" />
		<tag k="natural" v="cape" />
		<tag k="ssr:stedsnr" v="861899" />
	</node>
	<node lat="62.96753888933188" lon="7.682347227549291" id="-6505">
		<tag k="name" v="Sandneset" />
		<tag k="natural" v="cape" />
		<tag k="ssr:stedsnr" v="861970" />
	</node>
	<node lat="62.89681111409579" lon="7.6838499956019115" id="-6515">
		<tag k="name" v="Hola" />
		<tag k="natural" v="beach" />
		<tag k="ssr:stedsnr" v="883080" />
	</node>
	<node lat="62.887802775779704" lon="8.101013886990208" id="-6535">
		<tag k="name" v="Krokhusneset" />
		<tag k="natural" v="cape" />
		<tag k="ssr:stedsnr" v="884594" />
=======
	<node id="-80387" lat="62.9418055557" lon="7.85792500609">
		<tag k="name" v="Torvikbrua" />
		<tag k="place" v="locality" />
		<tag k="ssr:stedsnr" v="155991" />
>>>>>>> e1d4bc35ff8a6074a6f2e91616a996b547c36f15
	</node>
	<node id="-80386" lat="62.9680083321" lon="7.80368888348">
		<tag k="name" v="Tjeldholmen" />
		<tag k="place" v="islet" />
		<tag k="ssr:stedsnr" v="155977" />
	</node>
	<node id="-80897" lat="62.9011305575" lon="7.67994999009">
		<tag k="name" v="Astadbukta" />
		<tag k="natural" v="bay" />
		<tag k="ssr:stedsnr" v="640860" />
	</node>
</osm>
