<?xml version="1.0" encoding="UTF-8"?>
<<<<<<< HEAD
<osm version="0.6" generator="osmapis">
	<node lat="62.93939166559107" lon="8.001338882558517" id="-4584">
		<tag k="name" v="Hoemselva" />
		<tag k="ssr:stedsnr" v="11909" />
		<tag k="waterway" v="river" />
	</node>
	<node lat="62.85332222510368" lon="8.036286102799895" id="-4588">
		<tag k="name" v="Neverlitjørna" />
		<tag k="natural" v="water" />
		<tag k="ssr:stedsnr" v="12513" />
	</node>
	<node lat="62.88041944634787" lon="8.015950003745765" id="-4599">
		<tag k="name" v="Aspåsmyran" />
		<tag k="natural" v="water" />
		<tag k="ssr:stedsnr" v="33990" />
	</node>
	<node lat="62.85386666865687" lon="7.535413881278675" id="-4602">
		<tag k="name" v="Øyaelva" />
		<tag k="ssr:stedsnr" v="34116" />
		<tag k="waterway" v="stream" />
	</node>
	<node lat="62.87803333408807" lon="7.818344443766731" id="-4611">
		<tag k="name" v="Fossen" />
		<tag k="natural" v="waterfall" />
		<tag k="ssr:stedsnr" v="35202" />
	</node>
	<node lat="62.93646666525886" lon="7.8854111158595925" id="-4616">
		<tag k="name" v="Myrdålå" />
		<tag k="natural" v="water" />
		<tag k="ssr:stedsnr" v="35162" />
		<tag k="water" v="lake" />
	</node>
	<node lat="62.85972222465409" lon="7.785177781419731" id="-4626">
		<tag k="name" v="Nedre Seterbekken" />
		<tag k="ssr:stedsnr" v="35776" />
		<tag k="waterway" v="stream" />
	</node>
	<node lat="62.90078055521624" lon="7.759141668764924" id="-4634">
		<tag k="name" v="Fjellmyrbekken" />
		<tag k="ssr:stedsnr" v="35805" />
		<tag k="waterway" v="stream" />
	</node>
	<node lat="62.83632222072969" lon="8.029341659491696" id="-4637">
		<tag k="name" v="Svartakseltjønna" />
		<tag k="natural" v="water" />
		<tag k="ssr:stedsnr" v="37562" />
	</node>
	<node lat="62.90820555599917" lon="8.03029166976412" id="-4659">
		<tag k="name" v="Vargmyra" />
		<tag k="ssr:stedsnr" v="95178" />
		<tag k="waterway" v="stream" />
	</node>
	<node lat="62.85911944466724" lon="7.8708361090007815" id="-4661">
		<tag k="name" v="Storrøsta" />
		<tag k="ssr:stedsnr" v="95425" />
		<tag k="waterway" v="river" />
	</node>
	<node lat="62.83333333642005" lon="7.996102784156023" id="-4668">
		<tag k="name" v="Skrøvdalsbekken" />
		<tag k="ssr:stedsnr" v="95566" />
		<tag k="waterway" v="stream" />
	</node>
	<node lat="62.928908336507405" lon="8.102980548011345" id="-4681">
		<tag k="name" v="Passvikneset" />
		<tag k="natural" v="shoal" />
		<tag k="place" v="locality" />
		<tag k="ssr:stedsnr" v="96603" />
	</node>
	<node lat="62.85580000135452" lon="8.110155548727358" id="-4682">
		<tag k="name" v="Ådalselva" />
		<tag k="ssr:stedsnr" v="96661" />
		<tag k="waterway" v="stream" />
	</node>
	<node lat="62.8535916662601" lon="8.09042499211081" id="-4683">
		<tag k="name" v="Slettubekken" />
		<tag k="ssr:stedsnr" v="96663" />
		<tag k="waterway" v="stream" />
	</node>
	<node lat="62.835186111839825" lon="7.427436118381782" id="-4690">
		<tag k="name" v="Bjørndalselva" />
		<tag k="ssr:stedsnr" v="96776" />
		<tag k="waterway" v="river" />
	</node>
	<node lat="62.85649999583087" lon="7.679052784381283" id="-4699">
		<tag k="name" v="Silsetvatnet" />
		<tag k="natural" v="water" />
		<tag k="ssr:stedsnr" v="132673" />
		<tag k="water" v="lake" />
	</node>
	<node lat="62.938902774516606" lon="8.043480548228695" id="-4700">
		<tag k="name" v="Varvikvatnet" />
		<tag k="natural" v="water" />
		<tag k="ssr:stedsnr" v="132907" />
	</node>
	<node lat="62.833786114462" lon="7.452999994994527" id="-4704">
		<tag k="name" v="Skjenstøa" />
		<tag k="ssr:stedsnr" v="133674" />
		<tag k="waterway" v="river" />
	</node>
	<node lat="62.86054722549361" lon="8.084838880015395" id="-4723">
		<tag k="fixme" v="multiple name tags, choose one and add the other to alt_name" />
		<tag k="name" v="Kvernhuselva;Kvernhusbekken;Ingeborgelva" />
		<tag k="ssr:stedsnr" v="255527" />
		<tag k="waterway" v="stream" />
	</node>
	<node lat="62.84696110992715" lon="7.460969440428401" id="-4726">
		<tag k="name" v="Trolldalsvatnet" />
		<tag k="natural" v="water" />
		<tag k="ssr:stedsnr" v="255725" />
	</node>
	<node lat="62.8280000031644" lon="7.608288883933249" id="-4727">
		<tag k="name" v="Stangarvatnet" />
		<tag k="natural" v="water" />
		<tag k="ssr:stedsnr" v="255760" />
	</node>
	<node lat="62.97488611225068" lon="7.854808332476223" id="-4735">
		<tag k="name" v="Hjortabekken" />
		<tag k="ssr:stedsnr" v="155955" />
		<tag k="waterway" v="stream" />
	</node>
	<node lat="62.87846944405853" lon="8.000786109420336" id="-4746">
		<tag k="name" v="Motjørna" />
		<tag k="natural" v="water" />
		<tag k="ssr:stedsnr" v="156201" />
	</node>
	<node lat="62.84437778160801" lon="7.51817499960013" id="-4751">
		<tag k="name" v="Lågåsbekken" />
		<tag k="ssr:stedsnr" v="156748" />
		<tag k="waterway" v="stream" />
	</node>
	<node lat="62.927144448711736" lon="7.657113883453257" id="-4753">
		<tag k="name" v="Storfjelltjønna" />
		<tag k="natural" v="water" />
		<tag k="ssr:stedsnr" v="156761" />
	</node>
	<node lat="62.93955833595351" lon="7.862172212313928" id="-4777">
		<tag k="name" v="Dalabekken" />
		<tag k="natural" v="water" />
		<tag k="ssr:stedsnr" v="216987" />
		<tag k="water" v="lake" />
	</node>
	<node lat="62.90875277956293" lon="7.901908336837485" id="-4778">
		<tag k="name" v="Trøbakkbekken" />
		<tag k="ssr:stedsnr" v="216993" />
		<tag k="waterway" v="stream" />
	</node>
	<node lat="62.8949805595685" lon="7.600594446707308" id="-4791">
		<tag k="name" v="Kvennaelva" />
		<tag k="ssr:stedsnr" v="217791" />
		<tag k="waterway" v="river" />
	</node>
	<node lat="62.91579721793474" lon="7.646497220780848" id="-4800">
		<tag k="name" v="Astadvatnet" />
		<tag k="natural" v="water" />
		<tag k="ssr:stedsnr" v="254568" />
	</node>
	<node lat="62.91660277694201" lon="8.08040277705242" id="-4811">
		<tag k="name" v="Gagnatelva" />
		<tag k="ssr:stedsnr" v="458989" />
		<tag k="waterway" v="stream" />
	</node>
	<node lat="62.96695832951505" lon="8.012361102631651" id="-4835">
		<tag k="name" v="Vikan" />
		<tag k="natural" v="cape" />
		<tag k="ssr:stedsnr" v="277201" />
	</node>
	<node lat="62.95041944130791" lon="7.885975009748969" id="-4839">
		<tag k="name" v="Britbekken" />
		<tag k="natural" v="water" />
		<tag k="ssr:stedsnr" v="277501" />
		<tag k="water" v="lake" />
	</node>
	<node lat="62.8811611116349" lon="7.854863890110531" id="-4843">
		<tag k="name" v="Kvernhusmyra" />
		<tag k="ssr:stedsnr" v="277506" />
		<tag k="waterway" v="stream" />
	</node>
	<node lat="62.95399721954768" lon="8.0535111075507" id="-4844">
		<tag k="name" v="Høybuvika" />
		<tag k="natural" v="cape" />
		<tag k="ssr:stedsnr" v="277526" />
	</node>
	<node lat="62.932427781282925" lon="7.632222224182536" id="-4852">
		<tag k="name" v="Skjersetelva" />
		<tag k="ssr:stedsnr" v="277910" />
		<tag k="waterway" v="river" />
	</node>
	<node lat="62.89783333191555" lon="7.777819447746331" id="-4863">
		<tag k="name" v="Gammelseterbekken" />
		<tag k="ssr:stedsnr" v="278805" />
		<tag k="waterway" v="stream" />
	</node>
	<node lat="62.955608329422795" lon="7.938702781149192" id="-4871">
		<tag k="name" v="Seterdalsbekken" />
		<tag k="ssr:stedsnr" v="279723" />
		<tag k="waterway" v="stream" />
	</node>
	<node lat="62.87253889025924" lon="7.863155563118181" id="-4872">
		<tag k="name" v="Riset" />
		<tag k="ssr:stedsnr" v="460185" />
		<tag k="waterway" v="river" />
	</node>
	<node lat="62.863202775330336" lon="7.725988892736114" id="-4875">
		<tag k="name" v="Tverrelva" />
		<tag k="ssr:stedsnr" v="460243" />
		<tag k="waterway" v="stream" />
	</node>
	<node lat="62.944891667043336" lon="8.069361108095944" id="-4879">
		<tag k="name" v="Rotvika" />
		<tag k="natural" v="cape" />
		<tag k="ssr:stedsnr" v="460292" />
	</node>
	<node lat="62.919074999889254" lon="7.853908330438884" id="-4882">
		<tag k="name" v="Seterdalsbekken" />
		<tag k="ssr:stedsnr" v="460553" />
		<tag k="waterway" v="stream" />
	</node>
	<node lat="62.90139722065893" lon="7.8767666612819225" id="-4885">
		<tag k="name" v="Krusbekken" />
		<tag k="natural" v="water" />
		<tag k="ssr:stedsnr" v="460560" />
		<tag k="water" v="lake" />
	</node>
	<node lat="62.905505554557145" lon="7.9002249937634765" id="-4886">
		<tag k="name" v="Sørdalselva" />
		<tag k="ssr:stedsnr" v="460562" />
		<tag k="waterway" v="stream" />
	</node>
	<node lat="62.92084444087106" lon="8.096016670916898" id="-4888">
		<tag k="name" v="Skjerrabekken" />
		<tag k="natural" v="water" />
		<tag k="ssr:stedsnr" v="460636" />
		<tag k="water" v="lake" />
	</node>
	<node lat="62.8503361112424" lon="8.03337500816664" id="-4892">
		<tag k="name" v="Storløken" />
		<tag k="ssr:stedsnr" v="460653" />
		<tag k="waterway" v="stream" />
	</node>
	<node lat="62.84986111238637" lon="7.792736108975453" id="-4898">
		<tag k="name" v="Sollielva" />
		<tag k="ssr:stedsnr" v="460792" />
		<tag k="waterway" v="stream" />
	</node>
	<node lat="62.898613886900705" lon="7.795541671497223" id="-4899">
		<tag k="name" v="Furuhaugbekken" />
		<tag k="ssr:stedsnr" v="460828" />
		<tag k="waterway" v="stream" />
	</node>
	<node lat="62.85809722519644" lon="7.904299995392104" id="-4910">
=======
<osm generator="osmapis" version="0.6">
	<node id="-79870" lat="62.9291083329" lon="8.00243055586">
		<tag k="name" v="Stordalsbekken" />
		<tag k="ssr:stedsnr" v="763655" />
		<tag k="waterway" v="stream" />
	</node>
	<node id="-79847" lat="62.8708194401" lon="7.70901945157">
		<tag k="name" v="Litlvatnet" />
		<tag k="natural" v="water" />
		<tag k="ssr:stedsnr" v="740616" />
	</node>
	<node id="-79843" lat="62.9502527771" lon="7.98985277291">
		<tag k="name" v="Langvatnet" />
		<tag k="natural" v="water" />
		<tag k="ssr:stedsnr" v="739923" />
		<tag k="water" v="lake" />
	</node>
	<node id="-79839" lat="62.9330833346" lon="7.69746944703">
		<tag k="name" v="Blakkstadelva" />
		<tag k="ssr:stedsnr" v="739507" />
		<tag k="waterway" v="stream" />
	</node>
	<node id="-79834" lat="62.8971194471" lon="7.75033889165">
		<tag k="name" v="Randbekken" />
		<tag k="ssr:stedsnr" v="702840" />
		<tag k="waterway" v="stream" />
	</node>
	<node id="-79832" lat="62.9023944405" lon="7.75290555088">
		<tag k="name" v="Fjellmyrbekken" />
		<tag k="ssr:stedsnr" v="702834" />
		<tag k="waterway" v="stream" />
	</node>
	<node id="-79825" lat="62.9058833303" lon="7.91132777337">
		<tag k="alt_name" v="Litlhogsetelva" />
		<tag k="name" v="Reitaelva" />
		<tag k="ssr:stedsnr" v="702504" />
		<tag k="waterway" v="stream" />
	</node>
	<node id="-79822" lat="62.8360611125" lon="7.47107222814">
		<tag k="name" v="Seterelva" />
		<tag k="ssr:stedsnr" v="702178" />
		<tag k="waterway" v="river" />
	</node>
	<node id="-79801" lat="62.9092500002" lon="7.67833888472">
		<tag k="name" v="Nessaelva" />
		<tag k="ssr:stedsnr" v="885752" />
		<tag k="waterway" v="stream" />
	</node>
	<node id="-79799" lat="62.9881583348" lon="7.83229445332">
		<tag k="name" v="Storvikelva" />
		<tag k="ssr:stedsnr" v="885734" />
		<tag k="waterway" v="stream" />
	</node>
	<node id="-79798" lat="62.9436638872" lon="7.89550278049">
		<tag k="name" v="Seterlibekken" />
		<tag k="natural" v="water" />
		<tag k="ssr:stedsnr" v="885700" />
		<tag k="water" v="lake" />
	</node>
	<node id="-79788" lat="62.9352027754" lon="8.0597638798">
		<tag k="name" v="Litlelva" />
		<tag k="natural" v="water" />
		<tag k="ssr:stedsnr" v="885243" />
		<tag k="water" v="lake" />
	</node>
	<node id="-79787" lat="62.9056083376" lon="7.89957499709">
		<tag k="name" v="Kausen" />
		<tag k="ssr:stedsnr" v="885138" />
		<tag k="waterway" v="stream" />
	</node>
	<node id="-79786" lat="62.877472224" lon="7.92422500036">
		<tag k="name" v="Marlakan" />
		<tag k="natural" v="water" />
		<tag k="ssr:stedsnr" v="885135" />
		<tag k="water" v="lake" />
	</node>
	<node id="-79777" lat="62.8959055514" lon="7.99653887991">
		<tag k="name" v="Bytbekken" />
		<tag k="ssr:stedsnr" v="884534" />
		<tag k="waterway" v="stream" />
	</node>
	<node id="-79775" lat="62.9293388907" lon="7.83357499123">
		<tag k="name" v="Styggdalsbekken" />
		<tag k="natural" v="water" />
		<tag k="ssr:stedsnr" v="884437" />
		<tag k="water" v="lake" />
	</node>
	<node id="-79774" lat="62.8734305533" lon="7.82106387952">
		<tag k="name" v="Turtlibekken" />
		<tag k="natural" v="water" />
		<tag k="ssr:stedsnr" v="884432" />
		<tag k="water" v="lake" />
	</node>
	<node id="-79760" lat="62.947250001" lon="7.90718055888">
		<tag k="name" v="Nøssamyran" />
		<tag k="ssr:stedsnr" v="883997" />
		<tag k="waterway" v="stream" />
	</node>
	<node id="-79757" lat="62.9417361127" lon="7.66451389585">
		<tag k="name" v="Tverelva" />
		<tag k="ssr:stedsnr" v="883073" />
		<tag k="waterway" v="stream" />
	</node>
	<node id="-79755" lat="62.9194666705" lon="7.63828611724">
		<tag k="name" v="Løken" />
		<tag k="ssr:stedsnr" v="883068" />
		<tag k="waterway" v="stream" />
	</node>
	<node id="-79753" lat="62.8793777783" lon="7.85609999147">
		<tag k="name" v="Fiskvasselva" />
		<tag k="ssr:stedsnr" v="679971" />
		<tag k="waterway" v="stream" />
	</node>
	<node id="-79752" lat="62.89726111" lon="7.6511694496">
		<tag k="alt_name" v="Kvennaelva" />
		<tag k="name" v="Kvernaelva" />
		<tag k="ssr:stedsnr" v="679570" />
		<tag k="waterway" v="stream" />
	</node>
	<node id="-79750" lat="62.8664222227" lon="7.62852499776">
		<tag k="name" v="Flogåa" />
		<tag k="ssr:stedsnr" v="679656" />
		<tag k="waterway" v="stream" />
	</node>
	<node id="-79744" lat="62.9507555565" lon="7.75645000179">
		<tag k="name" v="Jutulelva" />
		<tag k="ssr:stedsnr" v="640949" />
		<tag k="waterway" v="stream" />
	</node>
	<node id="-79729" lat="62.9121055571" lon="7.61390834237">
		<tag k="name" v="Nebbvatna" />
		<tag k="natural" v="water" />
		<tag k="ssr:stedsnr" v="618559" />
	</node>
	<node id="-79721" lat="62.9155249998" lon="7.75581388524">
		<tag k="name" v="Sørbekken" />
		<tag k="ssr:stedsnr" v="580937" />
		<tag k="waterway" v="stream" />
	</node>
	<node id="-79720" lat="62.8320638889" lon="7.82755555095">
		<tag k="name" v="Dyrliløken" />
		<tag k="ssr:stedsnr" v="580934" />
		<tag k="waterway" v="river" />
	</node>
	<node id="-79717" lat="62.9152666642" lon="7.88878333257">
		<tag k="name" v="Røkbekken" />
		<tag k="natural" v="water" />
		<tag k="ssr:stedsnr" v="580486" />
		<tag k="water" v="lake" />
	</node>
	<node id="-79713" lat="62.9652388893" lon="8.02012499523">
		<tag k="name" v="Kjerkjeberget" />
		<tag k="natural" v="shoal" />
		<tag k="place" v="locality" />
		<tag k="ssr:stedsnr" v="580517" />
	</node>
	<node id="-79711" lat="62.902933333" lon="7.79463888405">
		<tag k="name" v="Eiaskreå" />
		<tag k="ssr:stedsnr" v="580096" />
		<tag k="waterway" v="stream" />
	</node>
	<node id="-79707" lat="62.8947972215" lon="7.69107221333">
		<tag k="name" v="Øra-elva" />
		<tag k="ssr:stedsnr" v="580106" />
		<tag k="waterway" v="stream" />
	</node>
	<node id="-79703" lat="62.9131555537" lon="7.78513888061">
		<tag k="name" v="Ytter Stibekken" />
		<tag k="ssr:stedsnr" v="702952" />
		<tag k="waterway" v="stream" />
	</node>
	<node id="-79699" lat="62.8517833302" lon="7.91764999642">
		<tag k="name" v="Seterneset" />
		<tag k="natural" v="cape" />
		<tag k="ssr:stedsnr" v="702934" />
	</node>
	<node id="-79698" lat="62.844861109" lon="7.90439723112">
		<tag k="name" v="Ånesbukta" />
		<tag k="natural" v="bay" />
		<tag k="ssr:stedsnr" v="702930" />
	</node>
	<node id="-79693" lat="62.9420194463" lon="7.74124722309">
		<tag k="name" v="Håkåplassbekken" />
		<tag k="ssr:stedsnr" v="702901" />
		<tag k="waterway" v="stream" />
	</node>
	<node id="-79681" lat="62.9414555531" lon="7.7413611064">
		<tag k="name" v="Steinteigbekken" />
		<tag k="ssr:stedsnr" v="702741" />
		<tag k="waterway" v="stream" />
	</node>
	<node id="-79680" lat="62.892813889" lon="7.78727776794">
		<tag k="name" v="Rågrashammarbekken" />
		<tag k="ssr:stedsnr" v="702733" />
		<tag k="waterway" v="stream" />
	</node>
	<node id="-79677" lat="62.9462027742" lon="7.8337638903">
		<tag k="name" v="Holtabekken" />
		<tag k="natural" v="water" />
		<tag k="ssr:stedsnr" v="702662" />
		<tag k="water" v="lake" />
	</node>
	<node id="-79670" lat="62.8523444471" lon="8.0022638848">
		<tag k="name" v="Seterbekken" />
		<tag k="ssr:stedsnr" v="702595" />
		<tag k="waterway" v="stream" />
	</node>
	<node id="-79667" lat="62.9209000006" lon="8.04927499634">
		<tag k="name" v="Flemseterelva" />
		<tag k="ssr:stedsnr" v="702578" />
		<tag k="waterway" v="river" />
	</node>
	<node id="-79659" lat="62.8951666683" lon="7.90405278555">
		<tag k="name" v="Seterlibekken" />
		<tag k="natural" v="water" />
		<tag k="ssr:stedsnr" v="702499" />
		<tag k="water" v="lake" />
	</node>
	<node id="-79654" lat="62.9764611118" lon="7.77676111685">
		<tag k="name" v="Fyrholmen" />
		<tag k="place" v="islet" />
		<tag k="ssr:stedsnr" v="702232" />
	</node>
	<node id="-79646" lat="62.9336861108" lon="7.90242777743">
		<tag k="name" v="Pinelva" />
		<tag k="ssr:stedsnr" v="702140" />
		<tag k="waterway" v="stream" />
	</node>
	<node id="-79633" lat="62.9442611088" lon="7.84441666166">
		<tag k="name" v="Myrabekken" />
		<tag k="natural" v="water" />
		<tag k="ssr:stedsnr" v="701988" />
		<tag k="water" v="lake" />
	</node>
	<node id="-79631" lat="62.8521000029" lon="8.04418332867">
		<tag k="name" v="Brutjørna" />
		<tag k="natural" v="water" />
		<tag k="ssr:stedsnr" v="558553" />
	</node>
	<node id="-79629" lat="62.9297388912" lon="7.85206944816">
		<tag k="name" v="Torvikvatnet" />
		<tag k="natural" v="water" />
		<tag k="ssr:stedsnr" v="557907" />
	</node>
	<node id="-79627" lat="62.8919194459" lon="7.64543333827">
		<tag k="name" v="Svartdalselva" />
		<tag k="ssr:stedsnr" v="557563" />
		<tag k="waterway" v="stream" />
	</node>
	<node id="-79626" lat="62.8559777749" lon="7.53779999594">
		<tag k="name" v="Kvernsteinelva" />
		<tag k="ssr:stedsnr" v="557615" />
		<tag k="waterway" v="stream" />
	</node>
	<node id="-79617" lat="62.9127416696" lon="7.91677221555">
		<tag k="name" v="Trøbekken" />
		<tag k="ssr:stedsnr" v="521735" />
		<tag k="waterway" v="stream" />
	</node>
	<node id="-79616" lat="62.8679472178" lon="7.68760832951">
		<tag k="name" v="Nordre Steinbekken" />
		<tag k="ssr:stedsnr" v="521722" />
		<tag k="waterway" v="stream" />
	</node>
	<node id="-79614" lat="62.9011472242" lon="7.89023611292">
		<tag k="name" v="Kvernhusbekken" />
		<tag k="natural" v="water" />
		<tag k="ssr:stedsnr" v="520510" />
		<tag k="water" v="lake" />
	</node>
	<node id="-79612" lat="62.8785638865" lon="7.91769443802">
		<tag k="name" v="Tverrelva" />
		<tag k="natural" v="water" />
		<tag k="ssr:stedsnr" v="520505" />
		<tag k="water" v="lake" />
	</node>
	<node id="-79604" lat="62.8333055527" lon="7.44114722046">
		<tag k="name" v="Botnvatnet" />
		<tag k="natural" v="water" />
		<tag k="ssr:stedsnr" v="497702" />
	</node>
	<node id="-79597" lat="62.9171833347" lon="7.81241389366">
		<tag k="name" v="Bakkvatnet" />
		<tag k="natural" v="water" />
		<tag k="ssr:stedsnr" v="679944" />
	</node>
	<node id="-79595" lat="62.9044972234" lon="7.83717500388">
		<tag k="name" v="Fiskvatnet" />
		<tag k="natural" v="water" />
		<tag k="ssr:stedsnr" v="679931" />
	</node>
	<node id="-79586" lat="62.8448222259" lon="7.56711111982">
		<tag k="name" v="Kvernbekken" />
		<tag k="ssr:stedsnr" v="679685" />
		<tag k="waterway" v="stream" />
	</node>
	<node id="-79582" lat="62.8476805596" lon="7.92301666774">
		<tag k="name" v="Mebekken" />
		<tag k="ssr:stedsnr" v="679481" />
		<tag k="waterway" v="stream" />
	</node>
	<node id="-79570" lat="62.8454388877" lon="8.09803611035">
		<tag k="name" v="Vikaelva" />
		<tag k="ssr:stedsnr" v="519185" />
		<tag k="waterway" v="stream" />
	</node>
	<node id="-79554" lat="62.8377194471" lon="7.86715556164">
		<tag k="name" v="Vettalibukta" />
		<tag k="natural" v="bay" />
		<tag k="ssr:stedsnr" v="399936" />
	</node>
	<node id="-79543" lat="62.9401777766" lon="7.72951110608">
		<tag k="name" v="Knutsetelva" />
		<tag k="ssr:stedsnr" v="375922" />
		<tag k="waterway" v="stream" />
	</node>
	<node id="-79540" lat="62.9371166686" lon="7.84870554638">
		<tag k="name" v="Torvikelva" />
		<tag k="ssr:stedsnr" v="375903" />
		<tag k="waterway" v="river" />
	</node>
	<node id="-79535" lat="62.8811749975" lon="7.84326944585">
		<tag k="name" v="Seterbekken" />
		<tag k="ssr:stedsnr" v="497976" />
		<tag k="waterway" v="stream" />
	</node>
	<node id="-79531" lat="62.9222333367" lon="8.05150556162">
		<tag k="name" v="Flemelva" />
		<tag k="ssr:stedsnr" v="497954" />
		<tag k="waterway" v="river" />
	</node>
	<node id="-79530" lat="62.8180805512" lon="7.63464444333">
		<tag k="name" v="Skallelva" />
		<tag k="ssr:stedsnr" v="497844" />
		<tag k="waterway" v="river" />
	</node>
	<node id="-79527" lat="62.8919249962" lon="7.71519167021">
		<tag k="name" v="Nåstadtjørnin" />
		<tag k="natural" v="water" />
		<tag k="ssr:stedsnr" v="497618" />
	</node>
	<node id="-79524" lat="62.8691333376" lon="7.76126111654">
		<tag k="name" v="Trollvatnet" />
		<tag k="natural" v="water" />
		<tag k="ssr:stedsnr" v="497492" />
		<tag k="water" v="lake" />
	</node>
	<node id="-79522" lat="62.868713892" lon="8.08912500192">
		<tag k="name" v="Steinaslættbekken" />
		<tag k="ssr:stedsnr" v="497486" />
		<tag k="waterway" v="stream" />
	</node>
	<node id="-79515" lat="62.8560333313" lon="7.66985833445">
		<tag k="name" v="Karibekken" />
		<tag k="ssr:stedsnr" v="338820" />
		<tag k="waterway" v="stream" />
	</node>
	<node id="-79511" lat="62.853355557" lon="7.6045472163">
		<tag k="name" v="Fursetelva" />
		<tag k="ssr:stedsnr" v="338785" />
		<tag k="waterway" v="stream" />
	</node>
	<node id="-79508" lat="62.9555944473" lon="7.94242222465">
		<tag k="name" v="Fosselva" />
		<tag k="natural" v="water" />
		<tag k="ssr:stedsnr" v="338117" />
		<tag k="water" v="lake" />
	</node>
	<node id="-79482" lat="62.9573805514" lon="7.9207222188">
		<tag k="name" v="Ranemselva" />
		<tag k="ssr:stedsnr" v="461730" />
		<tag k="waterway" v="stream" />
	</node>
	<node id="-79481" lat="62.8334111075" lon="7.84126945311">
		<tag k="name" v="Krokutløken" />
		<tag k="ssr:stedsnr" v="460952" />
		<tag k="waterway" v="stream" />
	</node>
	<node id="-79480" lat="62.8580972252" lon="7.90429999539">
>>>>>>> e1d4bc35ff8a6074a6f2e91616a996b547c36f15
		<tag k="name" v="Fostervollneset" />
		<tag k="natural" v="cape" />
		<tag k="ssr:stedsnr" v="460947" />
	</node>
<<<<<<< HEAD
	<node lat="62.83341110753333" lon="7.841269453110706" id="-4911">
		<tag k="name" v="Krokutløken" />
		<tag k="ssr:stedsnr" v="460952" />
		<tag k="waterway" v="stream" />
	</node>
	<node lat="62.95738055140111" lon="7.920722218798764" id="-4912">
		<tag k="name" v="Ranemselva" />
		<tag k="ssr:stedsnr" v="461730" />
		<tag k="waterway" v="stream" />
	</node>
	<node lat="62.91463332896537" lon="7.623552776961604" id="-4915">
		<tag k="name" v="Langvatnet" />
		<tag k="natural" v="water" />
		<tag k="ssr:stedsnr" v="315567" />
	</node>
	<node lat="62.91603332895627" lon="7.681766665409939" id="-4916">
		<tag k="name" v="Rødelva" />
		<tag k="ssr:stedsnr" v="315569" />
		<tag k="waterway" v="stream" />
	</node>
	<node lat="62.87936388574174" lon="7.6117361161582595" id="-4919">
		<tag k="name" v="Tørrisbekken" />
		<tag k="ssr:stedsnr" v="315637" />
		<tag k="waterway" v="stream" />
	</node>
	<node lat="62.837547224923235" lon="7.85876943482141" id="-4934">
		<tag k="name" v="Tjørnin" />
		<tag k="natural" v="water" />
		<tag k="ssr:stedsnr" v="337116" />
	</node>
	<node lat="62.88144166880355" lon="7.694461116303866" id="-4938">
		<tag k="name" v="Søre elva" />
		<tag k="ssr:stedsnr" v="337847" />
		<tag k="waterway" v="stream" />
	</node>
	<node lat="62.95559444734972" lon="7.942422224645318" id="-4948">
		<tag k="name" v="Fosselva" />
		<tag k="natural" v="water" />
		<tag k="ssr:stedsnr" v="338117" />
		<tag k="water" v="lake" />
	</node>
	<node lat="62.945361114280566" lon="8.045638892517912" id="-4949">
		<tag k="name" v="Liaelva" />
=======
	<node id="-79467" lat="62.8986138869" lon="7.7955416715">
		<tag k="name" v="Furuhaugbekken" />
		<tag k="ssr:stedsnr" v="460828" />
		<tag k="waterway" v="stream" />
	</node>
	<node id="-79465" lat="62.8498611124" lon="7.79273610898">
		<tag k="name" v="Sollielva" />
		<tag k="ssr:stedsnr" v="460792" />
		<tag k="waterway" v="stream" />
	</node>
	<node id="-79458" lat="62.8895944443" lon="8.06323610884">
		<tag k="name" v="Seterneset" />
		<tag k="natural" v="cape" />
		<tag k="ssr:stedsnr" v="460672" />
	</node>
	<node id="-79455" lat="62.8699333305" lon="8.03803055639">
		<tag k="name" v="Litltjønna" />
		<tag k="natural" v="water" />
		<tag k="ssr:stedsnr" v="460667" />
	</node>
	<node id="-79454" lat="62.8753916657" lon="8.03323888244">
		<tag k="name" v="Tverrelva" />
		<tag k="ssr:stedsnr" v="460660" />
		<tag k="waterway" v="stream" />
	</node>
	<node id="-79452" lat="62.8503361112" lon="8.03337500817">
		<tag k="name" v="Storløken" />
		<tag k="ssr:stedsnr" v="460653" />
		<tag k="waterway" v="stream" />
	</node>
	<node id="-79448" lat="62.9208444409" lon="8.09601667092">
		<tag k="name" v="Skjerrabekken" />
>>>>>>> e1d4bc35ff8a6074a6f2e91616a996b547c36f15
		<tag k="natural" v="water" />
		<tag k="ssr:stedsnr" v="460636" />
		<tag k="water" v="lake" />
	</node>
<<<<<<< HEAD
	<node lat="62.953197217931105" lon="8.048938889265521" id="-4950">
		<tag k="name" v="Småvikan" />
		<tag k="natural" v="cape" />
		<tag k="ssr:stedsnr" v="338195" />
	</node>
	<node lat="62.862155553345616" lon="7.549222215371836" id="-4962">
		<tag k="name" v="Tverråelva" />
		<tag k="ssr:stedsnr" v="338793" />
		<tag k="waterway" v="stream" />
	</node>
	<node lat="62.82948611274444" lon="7.832344441601327" id="-4966">
		<tag k="name" v="Fagerløkhølen" />
		<tag k="place" v="locality" />
		<tag k="ssr:stedsnr" v="341593" />
	</node>
	<node lat="62.85452777684769" lon="7.7024444462794115" id="-4971">
		<tag k="name" v="Leikjesåa" />
		<tag k="ssr:stedsnr" v="375633" />
		<tag k="waterway" v="stream" />
	</node>
	<node lat="62.93711666860776" lon="7.848705546380526" id="-4974">
		<tag k="name" v="Torvikelva" />
		<tag k="ssr:stedsnr" v="375903" />
		<tag k="waterway" v="river" />
	</node>
	<node lat="62.96292222177109" lon="7.930777769021881" id="-4990">
		<tag k="name" v="Klubben" />
		<tag k="natural" v="shoal" />
		<tag k="place" v="locality" />
		<tag k="ssr:stedsnr" v="399136" />
	</node>
	<node lat="62.839613891355725" lon="7.857911110416384" id="-4992">
		<tag k="name" v="Teppinga" />
		<tag k="natural" v="bay" />
		<tag k="ssr:stedsnr" v="399206" />
	</node>
	<node lat="62.84077499813426" lon="7.859511108343925" id="-4993">
		<tag k="name" v="Kustøa" />
		<tag k="natural" v="bay" />
		<tag k="ssr:stedsnr" v="399207" />
	</node>
	<node lat="62.93140000305161" lon="8.023227770328" id="-4999">
		<tag k="name" v="Samendalsmyra" />
		<tag k="ssr:stedsnr" v="399610" />
		<tag k="waterway" v="stream" />
	</node>
	<node lat="62.96736666792492" lon="8.02870555895155" id="-5006">
		<tag k="name" v="Vikaneset" />
		<tag k="natural" v="shoal" />
		<tag k="place" v="locality" />
		<tag k="ssr:stedsnr" v="399689" />
	</node>
	<node lat="62.83652500066729" lon="7.902613882364301" id="-5013">
		<tag k="name" v="Åneselva" />
		<tag k="ssr:stedsnr" v="437551" />
		<tag k="waterway" v="river" />
	</node>
	<node lat="62.84424166513311" lon="7.57888333970904" id="-5016">
		<tag k="name" v="Ørndalsbekken" />
		<tag k="ssr:stedsnr" v="437708" />
		<tag k="waterway" v="stream" />
	</node>
	<node lat="62.87934167009306" lon="7.754402776104613" id="-5017">
		<tag k="name" v="Litle Trollvatnet" />
		<tag k="natural" v="water" />
		<tag k="ssr:stedsnr" v="437978" />
	</node>
	<node lat="62.93198055864842" lon="8.051000004625958" id="-5035">
		<tag k="name" v="Bjørnamyra" />
		<tag k="ssr:stedsnr" v="460605" />
		<tag k="waterway" v="stream" />
	</node>
	<node lat="62.87539166565166" lon="8.033238882439566" id="-5037">
		<tag k="name" v="Tverrelva" />
		<tag k="ssr:stedsnr" v="460660" />
		<tag k="waterway" v="stream" />
	</node>
	<node lat="62.8699333305331" lon="8.03803055639198" id="-5038">
		<tag k="name" v="Litltjønna" />
		<tag k="natural" v="water" />
		<tag k="ssr:stedsnr" v="460667" />
	</node>
	<node lat="62.88959444434892" lon="8.063236108844801" id="-5041">
		<tag k="name" v="Seterneset" />
		<tag k="natural" v="cape" />
		<tag k="ssr:stedsnr" v="460672" />
	</node>
	<node lat="62.88198611229" lon="7.934438898390024" id="-5042">
		<tag k="name" v="Litlvatnet" />
		<tag k="place" v="islet" />
		<tag k="ssr:stedsnr" v="460578" />
	</node>
	<node lat="62.84768055963424" lon="7.923016667742297" id="-5051">
		<tag k="name" v="Mebekken" />
		<tag k="ssr:stedsnr" v="679481" />
		<tag k="waterway" v="stream" />
	</node>
	<node lat="62.866422222673734" lon="7.628524997759105" id="-5054">
		<tag k="name" v="Flogåa" />
		<tag k="ssr:stedsnr" v="679656" />
		<tag k="waterway" v="stream" />
	</node>
	<node lat="62.84482222590671" lon="7.567111119823969" id="-5056">
		<tag k="name" v="Kvernbekken" />
		<tag k="ssr:stedsnr" v="679685" />
		<tag k="waterway" v="stream" />
	</node>
	<node lat="62.904497223360906" lon="7.837175003881815" id="-5062">
		<tag k="name" v="Fiskvatnet" />
		<tag k="natural" v="water" />
		<tag k="ssr:stedsnr" v="679931" />
	</node>
	<node lat="62.91718333471296" lon="7.812413893664341" id="-5066">
		<tag k="name" v="Bakkvatnet" />
		<tag k="natural" v="water" />
		<tag k="ssr:stedsnr" v="679944" />
	</node>
	<node lat="62.891924996218165" lon="7.715191670206749" id="-5070">
		<tag k="name" v="Nåstadtjørnin" />
		<tag k="natural" v="water" />
		<tag k="ssr:stedsnr" v="497618" />
	</node>
	<node lat="62.83330555273334" lon="7.441147220455859" id="-5071">
		<tag k="name" v="Botnvatnet" />
		<tag k="natural" v="water" />
		<tag k="ssr:stedsnr" v="497702" />
	</node>
	<node lat="62.81808055118617" lon="7.634644443330314" id="-5077">
		<tag k="name" v="Skallelva" />
		<tag k="ssr:stedsnr" v="497844" />
		<tag k="waterway" v="river" />
	</node>
	<node lat="62.87856388652595" lon="7.917694438018433" id="-5096">
		<tag k="name" v="Tverrelva" />
		<tag k="natural" v="water" />
		<tag k="ssr:stedsnr" v="520505" />
		<tag k="water" v="lake" />
	</node>
	<node lat="62.901147224194844" lon="7.890236112922558" id="-5098">
		<tag k="name" v="Kvernhusbekken" />
		<tag k="natural" v="water" />
		<tag k="ssr:stedsnr" v="520510" />
		<tag k="water" v="lake" />
	</node>
	<node lat="62.84930555398229" lon="7.426416666182338" id="-5103">
		<tag k="name" v="Vassdalselva" />
		<tag k="ssr:stedsnr" v="520817" />
		<tag k="waterway" v="river" />
	</node>
	<node lat="62.90157500280007" lon="7.81556945367373" id="-5106">
		<tag k="name" v="Grønfjellbekken" />
		<tag k="ssr:stedsnr" v="520778" />
		<tag k="waterway" v="stream" />
	</node>
	<node lat="62.96561389308037" lon="7.74324999799403" id="-5107">
		<tag k="name" v="Søre Osatrøbekken" />
		<tag k="ssr:stedsnr" v="520781" />
		<tag k="waterway" v="stream" />
	</node>
	<node lat="62.8339527775422" lon="7.834680547595118" id="-5111">
		<tag k="name" v="Haugaløken" />
		<tag k="ssr:stedsnr" v="520960" />
		<tag k="waterway" v="stream" />
	</node>
	<node lat="62.867947217789876" lon="7.687608329508346" id="-5112">
		<tag k="name" v="Nordre Steinbekken" />
		<tag k="ssr:stedsnr" v="521722" />
		<tag k="waterway" v="stream" />
	</node>
	<node lat="62.89191944592566" lon="7.645433338274119" id="-5115">
		<tag k="name" v="Svartdalselva" />
		<tag k="ssr:stedsnr" v="557563" />
		<tag k="waterway" v="stream" />
	</node>
	<node lat="62.855977774910194" lon="7.53779999593638" id="-5116">
		<tag k="name" v="Kvernsteinelva" />
		<tag k="ssr:stedsnr" v="557615" />
		<tag k="waterway" v="stream" />
	</node>
	<node lat="62.929738891207855" lon="7.8520694481602815" id="-5118">
		<tag k="name" v="Torvikvatnet" />
		<tag k="natural" v="water" />
		<tag k="ssr:stedsnr" v="557907" />
	</node>
	<node lat="62.94065833364059" lon="7.834633342004307" id="-5137">
		<tag k="name" v="Tortholbekken" />
		<tag k="natural" v="water" />
		<tag k="ssr:stedsnr" v="579994" />
		<tag k="water" v="lake" />
	</node>
	<node lat="62.894797221539186" lon="7.6910722133295595" id="-5138">
		<tag k="name" v="Øra-elva" />
		<tag k="ssr:stedsnr" v="580106" />
		<tag k="waterway" v="stream" />
	</node>
	<node lat="62.90293333296953" lon="7.79463888404819" id="-5139">
		<tag k="name" v="Eiaskreå" />
		<tag k="ssr:stedsnr" v="580096" />
		<tag k="waterway" v="stream" />
	</node>
	<node lat="62.93739999992261" lon="7.730999992626749" id="-5143">
		<tag k="name" v="Haugabekken" />
		<tag k="ssr:stedsnr" v="580895" />
		<tag k="waterway" v="stream" />
	</node>
	<node lat="62.89201666875607" lon="7.835872212756789" id="-5146">
		<tag k="name" v="Trollbekken" />
		<tag k="natural" v="water" />
		<tag k="ssr:stedsnr" v="581540" />
		<tag k="water" v="lake" />
	</node>
	<node lat="62.95390000255601" lon="7.65190277619573" id="-5153">
		<tag k="name" v="Kolsetelva" />
		<tag k="ssr:stedsnr" v="581795" />
		<tag k="waterway" v="stream" />
	</node>
	<node lat="62.94426110877558" lon="7.84441666166426" id="-5165">
		<tag k="name" v="Myrabekken" />
		<tag k="natural" v="water" />
		<tag k="ssr:stedsnr" v="701988" />
		<tag k="water" v="lake" />
	</node>
	<node lat="62.90975000409388" lon="7.770255554765111" id="-5177">
		<tag k="name" v="Skeisdalselva" />
		<tag k="old_name" v="Skeidsdalselva" />
		<tag k="ssr:stedsnr" v="618929" />
		<tag k="waterway" v="stream" />
	</node>
	<node lat="62.88673055946994" lon="7.742522215170428" id="-5181">
		<tag k="alt_name" v="Tjørnen" />
		<tag k="name" v="Tjørnin" />
		<tag k="natural" v="water" />
		<tag k="ssr:stedsnr" v="618992" />
	</node>
	<node lat="62.83348889043103" lon="7.938516674175799" id="-5187">
		<tag k="alt_name" v="Kjerringlitjørnen" />
		<tag k="name" v="Småvatna" />
		<tag k="natural" v="water" />
		<tag k="ssr:stedsnr" v="619581" />
	</node>
	<node lat="62.933686110794746" lon="7.9024277774299625" id="-5189">
		<tag k="name" v="Pinelva" />
		<tag k="ssr:stedsnr" v="702140" />
		<tag k="waterway" v="stream" />
	</node>
	<node lat="62.90239444047558" lon="7.752905550876318" id="-5196">
		<tag k="name" v="Fjellmyrbekken" />
		<tag k="ssr:stedsnr" v="702834" />
		<tag k="waterway" v="stream" />
	</node>
	<node lat="62.89711944706148" lon="7.750338891650661" id="-5198">
		<tag k="name" v="Randbekken" />
		<tag k="ssr:stedsnr" v="702840" />
		<tag k="waterway" v="stream" />
	</node>
	<node lat="62.97646111179467" lon="7.776761116852797" id="-5199">
		<tag k="name" v="Fyrholmen" />
		<tag k="place" v="islet" />
		<tag k="ssr:stedsnr" v="702232" />
	</node>
	<node lat="62.895166668345034" lon="7.904052785546278" id="-5202">
		<tag k="name" v="Seterlibekken" />
		<tag k="natural" v="water" />
		<tag k="ssr:stedsnr" v="702499" />
		<tag k="water" v="lake" />
	</node>
	<node lat="62.852344447139494" lon="8.002263884802629" id="-5209">
		<tag k="name" v="Seterbekken" />
		<tag k="ssr:stedsnr" v="702595" />
		<tag k="waterway" v="stream" />
	</node>
	<node lat="62.89281388896765" lon="7.787277767942061" id="-5215">
		<tag k="name" v="Rågrashammarbekken" />
		<tag k="ssr:stedsnr" v="702733" />
		<tag k="waterway" v="stream" />
	</node>
	<node lat="62.94145555314148" lon="7.741361106399145" id="-5216">
		<tag k="name" v="Steinteigbekken" />
		<tag k="ssr:stedsnr" v="702741" />
		<tag k="waterway" v="stream" />
	</node>
	<node lat="62.84486110899038" lon="7.904397231122842" id="-5225">
		<tag k="name" v="Ånesbukta" />
		<tag k="natural" v="bay" />
		<tag k="ssr:stedsnr" v="702930" />
	</node>
	<node lat="62.94201944628996" lon="7.741247223090278" id="-5230">
		<tag k="name" v="Håkåplassbekken" />
		<tag k="ssr:stedsnr" v="702901" />
		<tag k="waterway" v="stream" />
	</node>
	<node lat="62.851783330206054" lon="7.917649996415526" id="-5231">
		<tag k="name" v="Seterneset" />
		<tag k="natural" v="cape" />
		<tag k="ssr:stedsnr" v="702934" />
	</node>
	<node lat="62.91315555371968" lon="7.785138880607495" id="-5235">
		<tag k="name" v="Ytter Stibekken" />
		<tag k="ssr:stedsnr" v="702952" />
		<tag k="waterway" v="stream" />
	</node>
	<node lat="62.92511110903272" lon="7.862761109047892" id="-5254">
		<tag k="name" v="Øyan" />
		<tag k="ssr:stedsnr" v="641124" />
		<tag k="waterway" v="stream" />
	</node>
	<node lat="62.87171388496942" lon="7.911152783237822" id="-5257">
		<tag k="name" v="Kvernhusmyra" />
		<tag k="ssr:stedsnr" v="641477" />
		<tag k="waterway" v="stream" />
	</node>
	<node lat="62.96263610698192" lon="7.91613055226253" id="-5258">
		<tag k="name" v="Søråkerbukta" />
		<tag k="natural" v="cape" />
		<tag k="ssr:stedsnr" v="641483" />
	</node>
	<node lat="62.962852775294856" lon="7.933958326514366" id="-5260">
		<tag k="name" v="Naustneset" />
		<tag k="natural" v="shoal" />
		<tag k="place" v="locality" />
		<tag k="ssr:stedsnr" v="641494" />
	</node>
	<node lat="62.95428333178014" lon="8.018838896205896" id="-5266">
		<tag k="name" v="Høglibekken" />
		<tag k="natural" v="water" />
		<tag k="ssr:stedsnr" v="641506" />
		<tag k="water" v="lake" />
	</node>
	<node lat="62.89726111001302" lon="7.651169449599178" id="-5272">
		<tag k="alt_name" v="Kvennaelva" />
		<tag k="name" v="Kvernaelva" />
		<tag k="ssr:stedsnr" v="679570" />
		<tag k="waterway" v="stream" />
	</node>
	<node lat="62.879377778319835" lon="7.856099991470756" id="-5275">
		<tag k="name" v="Fiskvasselva" />
		<tag k="ssr:stedsnr" v="679971" />
		<tag k="waterway" v="stream" />
	</node>
	<node lat="62.83606111245349" lon="7.47107222813596" id="-5287">
		<tag k="name" v="Seterelva" />
		<tag k="ssr:stedsnr" v="702178" />
		<tag k="waterway" v="river" />
	</node>
	<node lat="62.90588333034508" lon="7.911327773367648" id="-5296">
		<tag k="alt_name" v="Litlhogsetelva" />
		<tag k="name" v="Reitaelva" />
		<tag k="ssr:stedsnr" v="702504" />
		<tag k="waterway" v="stream" />
	</node>
	<node lat="62.92090000060392" lon="8.049274996336694" id="-5299">
		<tag k="name" v="Flemseterelva" />
		<tag k="ssr:stedsnr" v="702578" />
		<tag k="waterway" v="river" />
	</node>
	<node lat="62.94620277419625" lon="7.833763890301248" id="-5301">
		<tag k="name" v="Holtabekken" />
		<tag k="natural" v="water" />
		<tag k="ssr:stedsnr" v="702662" />
		<tag k="water" v="lake" />
	</node>
	<node lat="62.93308333459338" lon="7.697469447032052" id="-5315">
		<tag k="name" v="Blakkstadelva" />
		<tag k="ssr:stedsnr" v="739507" />
		<tag k="waterway" v="stream" />
	</node>
	<node lat="62.85063333248531" lon="7.890772221250655" id="-5326">
		<tag k="name" v="Fosterlågen" />
		<tag k="natural" v="water" />
		<tag k="ssr:stedsnr" v="740490" />
		<tag k="water" v="lake" />
	</node>
	<node lat="62.87688610992088" lon="7.919522219835937" id="-5352">
		<tag k="name" v="Junen" />
		<tag k="place" v="islet" />
		<tag k="ssr:stedsnr" v="763141" />
	</node>
	<node lat="62.88713055814415" lon="7.89519999930044" id="-5366">
		<tag k="name" v="Brekkmyra" />
		<tag k="ssr:stedsnr" v="763591" />
		<tag k="waterway" v="stream" />
	</node>
	<node lat="62.89544722136889" lon="7.939822220387685" id="-5372">
		<tag k="name" v="Tverrelva" />
		<tag k="natural" v="water" />
		<tag k="ssr:stedsnr" v="763700" />
		<tag k="water" v="lake" />
	</node>
	<node lat="62.944036108273394" lon="7.641586105355395" id="-5382">
		<tag k="name" v="Røvikelva" />
		<tag k="ssr:stedsnr" v="800508" />
		<tag k="waterway" v="stream" />
	</node>
	<node lat="62.86166110675943" lon="7.9631444427473825" id="-5384">
		<tag k="name" v="Litlvatnet" />
		<tag k="natural" v="water" />
		<tag k="ssr:stedsnr" v="801508" />
	</node>
	<node lat="62.868852780313915" lon="8.04119443622773" id="-5386">
		<tag k="alt_name" v="Tomtjørna" />
		<tag k="name" v="Tomtjønna" />
		<tag k="natural" v="water" />
		<tag k="ssr:stedsnr" v="801487" />
	</node>
	<node lat="62.94606666696585" lon="7.863638893010885" id="-5394">
		<tag k="name" v="Orsetbukta" />
		<tag k="natural" v="cape" />
		<tag k="ssr:stedsnr" v="822577" />
	</node>
	<node lat="62.900447225734226" lon="7.657155555350002" id="-5399">
		<tag k="name" v="Naustbekken" />
		<tag k="ssr:stedsnr" v="823821" />
		<tag k="waterway" v="stream" />
	</node>
	<node lat="62.907669440116784" lon="7.674497229865397" id="-5400">
		<tag k="name" v="Tegabekken" />
		<tag k="ssr:stedsnr" v="823823" />
		<tag k="waterway" v="stream" />
	</node>
	<node lat="62.95325833676191" lon="8.044805553674564" id="-5406">
		<tag k="name" v="Kobbneset" />
		<tag k="natural" v="shoal" />
		<tag k="place" v="locality" />
		<tag k="ssr:stedsnr" v="824566" />
	</node>
	<node lat="62.91086666889809" lon="8.052411104175963" id="-5409">
		<tag k="name" v="Tortlibekken" />
		<tag k="natural" v="water" />
		<tag k="ssr:stedsnr" v="824607" />
		<tag k="water" v="lake" />
	</node>
	<node lat="62.90587778093528" lon="7.786277773913283" id="-5416">
		<tag k="name" v="Gjeldalsbekken" />
		<tag k="ssr:stedsnr" v="824806" />
		<tag k="waterway" v="stream" />
	</node>
	<node lat="62.85974722507719" lon="7.8144000023172495" id="-5421">
		<tag k="name" v="Svartlibekken" />
		<tag k="ssr:stedsnr" v="922458" />
		<tag k="waterway" v="stream" />
	</node>
	<node lat="62.8315583350565" lon="7.58872499894697" id="-5435">
		<tag k="alt_name" v="Oførelva" />
		<tag k="name" v="Uførelva" />
		<tag k="ssr:stedsnr" v="923762" />
		<tag k="waterway" v="stream" />
	</node>
	<node lat="62.84379923228575" lon="7.887687549952519" id="-5437">
		<tag k="name" v="Sandneset" />
		<tag k="natural" v="cape" />
		<tag k="ssr:stedsnr" v="862523" />
	</node>
	<node lat="62.94725000104793" lon="7.907180558884958" id="-5441">
		<tag k="name" v="Nøssamyran" />
		<tag k="ssr:stedsnr" v="883997" />
		<tag k="waterway" v="stream" />
	</node>
	<node lat="62.9418527744864" lon="8.07048334218918" id="-5449">
		<tag k="name" v="Djupdalsbukta" />
		<tag k="natural" v="cape" />
		<tag k="ssr:stedsnr" v="884521" />
	</node>
	<node lat="62.86354166949795" lon="7.846949992720641" id="-5458">
		<tag k="name" v="Seterelva" />
		<tag k="ssr:stedsnr" v="885216" />
		<tag k="waterway" v="river" />
	</node>
	<node lat="62.941183336390566" lon="7.880552775270776" id="-5460">
		<tag k="name" v="Trøa" />
		<tag k="natural" v="waterfall" />
		<tag k="ssr:stedsnr" v="885221" />
	</node>
	<node lat="62.94366388715555" lon="7.895502780493719" id="-5464">
		<tag k="name" v="Seterlibekken" />
		<tag k="natural" v="water" />
		<tag k="ssr:stedsnr" v="885700" />
		<tag k="water" v="lake" />
	</node>
	<node lat="62.83434166421807" lon="7.855419440478871" id="-5474">
		<tag k="name" v="Skredbekken" />
		<tag k="ssr:stedsnr" v="885913" />
		<tag k="waterway" v="stream" />
	</node>
	<node lat="62.859391667212364" lon="7.947780553746792" id="-5483">
		<tag k="name" v="Kjerringelva" />
		<tag k="ssr:stedsnr" v="922486" />
		<tag k="waterway" v="stream" />
	</node>
	<node lat="62.856641664809715" lon="7.93658332995949" id="-5491">
		<tag k="name" v="Storsanden" />
		<tag k="natural" v="beach" />
		<tag k="ssr:stedsnr" v="944918" />
	</node>
	<node lat="62.89981111114785" lon="8.075711105686452" id="-5495">
		<tag k="name" v="Løkan" />
		<tag k="ssr:stedsnr" v="945202" />
		<tag k="waterway" v="stream" />
	</node>
	<node lat="62.88344722029683" lon="8.016088884094131" id="-5499">
		<tag k="name" v="Junen" />
		<tag k="natural" v="water" />
		<tag k="ssr:stedsnr" v="945214" />
		<tag k="water" v="lake" />
	</node>
	<node lat="62.8500527784698" lon="7.877016668466373" id="-5504">
		<tag k="name" v="Bessmorholmen" />
		<tag k="place" v="islet" />
		<tag k="ssr:stedsnr" v="945429" />
	</node>
	<node lat="62.88531666677751" lon="7.872719448200103" id="-5510">
		<tag k="name" v="Tverrteigen" />
		<tag k="ssr:stedsnr" v="945483" />
		<tag k="waterway" v="river" />
	</node>
	<node lat="62.92313611005895" lon="8.004741664110952" id="-5511">
		<tag k="name" v="Samendalsbekken" />
		<tag k="ssr:stedsnr" v="945603" />
		<tag k="waterway" v="stream" />
	</node>
	<node lat="62.8622833317346" lon="7.688025003573673" id="-5514">
		<tag k="name" v="Søre Steinbekken" />
		<tag k="ssr:stedsnr" v="945808" />
		<tag k="waterway" v="stream" />
	</node>
	<node lat="62.85938332993884" lon="7.6711749924851516" id="-5515">
		<tag k="name" v="Selsolabukta" />
		<tag k="natural" v="bay" />
		<tag k="ssr:stedsnr" v="945813" />
	</node>
	<node lat="62.896933335485684" lon="7.677000000257696" id="-5533">
		<tag k="alt_name" v="Batnfjordselva;Storelva" />
		<tag k="name" v="Batnfjordelva" />
		<tag k="ssr:stedsnr" v="12631" />
		<tag k="waterway" v="river" />
	</node>
	<node lat="62.84319721984762" lon="8.00558611366939" id="-5534">
		<tag k="name" v="Langvatnet" />
		<tag k="natural" v="water" />
		<tag k="ssr:stedsnr" v="12548" />
		<tag k="water" v="lake" />
	</node>
	<node lat="62.86223333695721" lon="7.531613893177877" id="-5537">
		<tag k="name" v="Ullalandsvatnet" />
		<tag k="natural" v="water" />
		<tag k="ssr:stedsnr" v="12676" />
	</node>
	<node lat="62.840633331747405" lon="7.584144446875759" id="-5539">
		<tag k="name" v="Sørlielva" />
		<tag k="ssr:stedsnr" v="12691" />
		<tag k="waterway" v="stream" />
	</node>
	<node lat="62.900850002286994" lon="7.935491660278312" id="-5546">
		<tag k="name" v="Øyvatnet" />
		<tag k="natural" v="water" />
		<tag k="ssr:stedsnr" v="12992" />
	</node>
	<node lat="62.882352777555795" lon="7.808705545889462" id="-5575">
		<tag k="name" v="Tortlibekken" />
		<tag k="ssr:stedsnr" v="34923" />
		<tag k="waterway" v="stream" />
	</node>
	<node lat="62.8367333298049" lon="7.853763889374374" id="-5584">
		<tag k="name" v="Ner Duåskverna" />
		<tag k="place" v="locality" />
		<tag k="ssr:stedsnr" v="34935" />
	</node>
	<node lat="62.96076666811084" lon="7.953447212414043" id="-5598">
		<tag k="name" v="Øygardsbekken" />
		<tag k="ssr:stedsnr" v="35690" />
		<tag k="waterway" v="stream" />
	</node>
	<node lat="62.83173610965338" lon="7.414483339666516" id="-5605">
		<tag k="name" v="Botnagrova" />
		<tag k="ssr:stedsnr" v="35796" />
		<tag k="waterway" v="stream" />
	</node>
	<node lat="62.90516666461073" lon="7.717336117202989" id="-5606">
		<tag k="name" v="Tørrisetelva" />
		<tag k="ssr:stedsnr" v="35884" />
		<tag k="waterway" v="stream" />
	</node>
	<node lat="62.84629444747654" lon="7.99204443732869" id="-5617">
		<tag k="alt_name" v="Søbekken;Sørbekken" />
		<tag k="name" v="Litlvassbekken" />
		<tag k="ssr:stedsnr" v="35657" />
		<tag k="waterway" v="stream" />
	</node>
	<node lat="62.94194166977171" lon="7.913922223217412" id="-5618">
		<tag k="name" v="Kvennabakkan" />
		<tag k="natural" v="water" />
		<tag k="ssr:stedsnr" v="35729" />
		<tag k="water" v="lake" />
	</node>
	<node lat="62.87913333460463" lon="7.632602778324218" id="-5625">
		<tag k="name" v="Kvennaelva" />
		<tag k="ssr:stedsnr" v="35859" />
		<tag k="waterway" v="river" />
	</node>
	<node lat="62.96453611164206" lon="7.723916668349711" id="-5631">
		<tag k="name" v="Svortåa" />
		<tag k="ssr:stedsnr" v="72890" />
		<tag k="waterway" v="stream" />
	</node>
	<node lat="62.84924444758274" lon="7.8750499917390755" id="-5640">
		<tag k="name" v="Duneset" />
		<tag k="natural" v="cape" />
		<tag k="ssr:stedsnr" v="73536" />
	</node>
	<node lat="62.85692777749343" lon="7.986397224590188" id="-5641">
		<tag k="name" v="Åbakkelva" />
		<tag k="ssr:stedsnr" v="73542" />
		<tag k="waterway" v="stream" />
	</node>
	<node lat="62.91981667051608" lon="8.07630555391961" id="-5645">
		<tag k="name" v="Turtlibekken" />
		<tag k="natural" v="water" />
		<tag k="ssr:stedsnr" v="96596" />
		<tag k="water" v="lake" />
	</node>
	<node lat="62.93909166473073" lon="7.859855553939108" id="-5651">
		<tag k="name" v="Åsabekken" />
		<tag k="natural" v="water" />
		<tag k="ssr:stedsnr" v="94575" />
		<tag k="water" v="lake" />
	</node>
	<node lat="62.95038888594517" lon="7.846544441529364" id="-5653">
		<tag k="name" v="Nesabukta" />
		<tag k="natural" v="cape" />
		<tag k="ssr:stedsnr" v="94586" />
	</node>
	<node lat="62.85362777470573" lon="8.098961114168729" id="-5657">
		<tag k="name" v="Hagaelva" />
		<tag k="ssr:stedsnr" v="96233" />
		<tag k="waterway" v="stream" />
	</node>
	<node lat="62.90477777521289" lon="7.954947229408041" id="-5660">
		<tag k="name" v="Forolbekken" />
		<tag k="ssr:stedsnr" v="94998" />
		<tag k="waterway" v="stream" />
	</node>
	<node lat="62.94149999734656" lon="8.039705550149856" id="-5672">
		<tag k="name" v="Tverrelva" />
		<tag k="natural" v="water" />
		<tag k="ssr:stedsnr" v="95496" />
		<tag k="water" v="lake" />
	</node>
	<node lat="62.90156111209209" lon="8.053813895201397" id="-5674">
		<tag k="name" v="Ruskholet" />
		<tag k="ssr:stedsnr" v="95559" />
		<tag k="waterway" v="stream" />
	</node>
	<node lat="62.884597217917474" lon="7.91234722662388" id="-5676">
		<tag k="name" v="Bømyra" />
		<tag k="ssr:stedsnr" v="96147" />
		<tag k="waterway" v="stream" />
	</node>
	<node lat="62.87207221799968" lon="7.762680550611753" id="-5677">
		<tag k="name" v="Holmen" />
		<tag k="place" v="islet" />
		<tag k="ssr:stedsnr" v="96197" />
	</node>
	<node lat="62.85472500266646" lon="7.702930553909097" id="-5685">
		<tag k="name" v="Merrahølen" />
		<tag k="place" v="locality" />
		<tag k="ssr:stedsnr" v="96752" />
	</node>
	<node lat="62.878361114271165" lon="8.01516110778001" id="-5688">
		<tag k="name" v="Grøntjønna" />
		<tag k="natural" v="water" />
		<tag k="ssr:stedsnr" v="96687" />
	</node>
	<node lat="62.89703333525123" lon="7.763911118369372" id="-5690">
		<tag k="name" v="Døftabekken" />
		<tag k="ssr:stedsnr" v="96786" />
		<tag k="waterway" v="stream" />
	</node>
	<node lat="62.89224721995725" lon="7.810922215815795" id="-5691">
		<tag k="name" v="Gammelseterbekken" />
		<tag k="ssr:stedsnr" v="96794" />
		<tag k="waterway" v="stream" />
	</node>
	<node lat="62.85405277610072" lon="7.58906666657816" id="-5693">
		<tag k="name" v="Skadalselva" />
		<tag k="ssr:stedsnr" v="96799" />
		<tag k="waterway" v="river" />
	</node>
	<node lat="62.865533333034996" lon="7.683052775548031" id="-5699">
		<tag k="name" v="Nordre Steinbekken" />
		<tag k="ssr:stedsnr" v="156831" />
		<tag k="waterway" v="stream" />
	</node>
	<node lat="62.91162777818714" lon="7.674386110626917" id="-5701">
		<tag k="alt_name" v="Nessaelva" />
		<tag k="name" v="Nesaelva" />
		<tag k="ssr:stedsnr" v="132578" />
		<tag k="waterway" v="stream" />
	</node>
	<node lat="62.83014999658774" lon="7.8116472297447235" id="-5706">
		<tag k="name" v="Dyrlielva" />
		<tag k="ssr:stedsnr" v="133486" />
		<tag k="waterway" v="stream" />
	</node>
	<node lat="62.83723888469903" lon="8.007397216883563" id="-5708">
		<tag k="name" v="Raudåa" />
		<tag k="ssr:stedsnr" v="133501" />
		<tag k="waterway" v="stream" />
	</node>
	<node lat="62.87425833736599" lon="7.823233330650925" id="-5713">
		<tag k="name" v="Duskarbekken" />
		<tag k="ssr:stedsnr" v="133976" />
		<tag k="waterway" v="stream" />
	</node>
	<node lat="62.84691110901313" lon="8.041208333825477" id="-5719">
		<tag k="name" v="Fosnatjørnin" />
		<tag k="natural" v="water" />
		<tag k="ssr:stedsnr" v="142655" />
	</node>
	<node lat="62.93587777891723" lon="7.836913882863213" id="-5743">
		<tag k="name" v="Ramslibekken" />
		<tag k="natural" v="water" />
		<tag k="ssr:stedsnr" v="155475" />
		<tag k="water" v="lake" />
	</node>
	<node lat="62.9474666685461" lon="7.864172220264866" id="-5744">
		<tag k="name" v="Hamnneset" />
		<tag k="natural" v="shoal" />
		<tag k="place" v="locality" />
		<tag k="ssr:stedsnr" v="155480" />
	</node>
	<node lat="62.962619441586384" lon="7.938766674683561" id="-5745">
		<tag k="name" v="Kuneset" />
		<tag k="natural" v="shoal" />
		<tag k="place" v="locality" />
		<tag k="ssr:stedsnr" v="156137" />
	</node>
	<node lat="62.95965833703356" lon="7.906313882101256" id="-5746">
		<tag k="name" v="Oterura" />
		<tag k="ssr:stedsnr" v="156139" />
		<tag k="waterway" v="rapids" />
	</node>
	<node lat="62.942366664028775" lon="7.741669452244741" id="-5748">
		<tag k="name" v="Myrabekken" />
		<tag k="ssr:stedsnr" v="155883" />
		<tag k="waterway" v="stream" />
	</node>
	<node lat="62.95138055406301" lon="8.046941662198408" id="-5755">
		<tag k="name" v="Ura" />
		<tag k="ssr:stedsnr" v="156192" />
		<tag k="waterway" v="rapids" />
	</node>
	<node lat="62.91496389024546" lon="8.038588879221374" id="-5760">
		<tag k="name" v="Søkkjemyra" />
		<tag k="ssr:stedsnr" v="156530" />
		<tag k="waterway" v="stream" />
	</node>
	<node lat="62.93129722567769" lon="8.0084500079347" id="-5761">
		<tag k="name" v="Stordalsbekken" />
		<tag k="natural" v="water" />
		<tag k="ssr:stedsnr" v="156534" />
		<tag k="water" v="lake" />
	</node>
	<node lat="62.92087777723207" lon="8.119408334341953" id="-5769">
		<tag k="name" v="Vorpneset" />
		<tag k="natural" v="shoal" />
		<tag k="place" v="locality" />
		<tag k="ssr:stedsnr" v="156594" />
	</node>
	<node lat="62.85615832962187" lon="8.099238895401287" id="-5773">
		<tag k="name" v="Innleggsbekken" />
		<tag k="ssr:stedsnr" v="156653" />
		<tag k="waterway" v="stream" />
	</node>
	<node lat="62.964099997380806" lon="7.965527779136286" id="-5774">
		<tag k="name" v="Brekkvatnet" />
		<tag k="natural" v="water" />
		<tag k="ssr:stedsnr" v="156667" />
	</node>
	<node lat="62.90486111468525" lon="7.891969451505943" id="-5775">
		<tag k="name" v="Krusbekken" />
		<tag k="natural" v="water" />
		<tag k="ssr:stedsnr" v="156693" />
		<tag k="water" v="lake" />
	</node>
	<node lat="62.93963611351846" lon="7.741191662558305" id="-5776">
		<tag k="name" v="Pekaribekken" />
		<tag k="ssr:stedsnr" v="156767" />
		<tag k="waterway" v="stream" />
	</node>
	<node lat="62.96302221895557" lon="7.766355562556143" id="-5777">
		<tag k="name" v="Hogsetbekken" />
		<tag k="ssr:stedsnr" v="156773" />
		<tag k="waterway" v="stream" />
	</node>
	<node lat="62.8530833326449" lon="7.479847220089532" id="-5788">
		<tag k="name" v="Fagerdalsvatnet" />
		<tag k="natural" v="water" />
		<tag k="ssr:stedsnr" v="193642" />
	</node>
	<node lat="62.854072225888366" lon="7.505299996242295" id="-5789">
		<tag k="name" v="Lågåsvatnet" />
		<tag k="natural" v="water" />
		<tag k="ssr:stedsnr" v="193644" />
	</node>
	<node lat="62.89272777640058" lon="7.701916674755439" id="-5802">
		<tag k="name" v="Ørabekken" />
		<tag k="ssr:stedsnr" v="194545" />
		<tag k="waterway" v="stream" />
	</node>
	<node lat="62.877166666283685" lon="7.668627781795519" id="-5805">
		<tag k="name" v="Skardbekken" />
		<tag k="ssr:stedsnr" v="194586" />
		<tag k="waterway" v="stream" />
	</node>
	<node lat="62.83994444202711" lon="7.433469435767742" id="-5806">
		<tag k="name" v="Litlvatnet" />
		<tag k="natural" v="water" />
		<tag k="ssr:stedsnr" v="194685" />
	</node>
	<node lat="62.88243611100668" lon="7.948152770204955" id="-5815">
		<tag k="name" v="Holåvatnet" />
		<tag k="natural" v="water" />
		<tag k="ssr:stedsnr" v="194966" />
	</node>
	<node lat="62.88044999641888" lon="8.027608327346869" id="-5817">
		<tag k="name" v="Angvikelva" />
		<tag k="ssr:stedsnr" v="194981" />
		<tag k="waterway" v="river" />
	</node>
	<node lat="62.921572219032626" lon="7.867927772514723" id="-5826">
		<tag k="name" v="Sørdalsbekken" />
		<tag k="natural" v="water" />
		<tag k="ssr:stedsnr" v="217484" />
		<tag k="water" v="lake" />
	</node>
	<node lat="62.95833333717919" lon="7.926688898578907" id="-5857">
		<tag k="name" v="Gammelreita" />
		<tag k="natural" v="waterfall" />
		<tag k="ssr:stedsnr" v="217538" />
	</node>
	<node lat="62.92987221865532" lon="8.038049997505002" id="-5859">
		<tag k="name" v="Langdalsbekken" />
		<tag k="natural" v="water" />
		<tag k="ssr:stedsnr" v="217552" />
		<tag k="water" v="lake" />
	</node>
	<node lat="62.928533335072906" lon="7.680391658964987" id="-5863">
		<tag k="name" v="Skredlitjønna" />
		<tag k="natural" v="water" />
		<tag k="ssr:stedsnr" v="217872" />
	</node>
	<node lat="62.93122778151044" lon="8.0908916753538" id="-5868">
		<tag k="name" v="Breivikneset" />
		<tag k="natural" v="shoal" />
		<tag k="place" v="locality" />
		<tag k="ssr:stedsnr" v="217589" />
	</node>
	<node lat="62.85468611016504" lon="8.017802772192399" id="-5869">
		<tag k="name" v="Bytbekken" />
		<tag k="ssr:stedsnr" v="217615" />
		<tag k="waterway" v="stream" />
	</node>
	<node lat="62.883561111970984" lon="8.077536119853717" id="-5872">
		<tag k="name" v="Turtlibekken" />
		<tag k="ssr:stedsnr" v="217660" />
		<tag k="waterway" v="stream" />
	</node>
	<node lat="62.842894445418864" lon="7.433486115505146" id="-5876">
		<tag k="name" v="Litldalselva" />
		<tag k="ssr:stedsnr" v="217766" />
		<tag k="waterway" v="stream" />
	</node>
	<node lat="62.84707222338937" lon="7.497536111358744" id="-5877">
		<tag k="name" v="Trollålibekken" />
		<tag k="ssr:stedsnr" v="217771" />
		<tag k="waterway" v="stream" />
	</node>
	<node lat="62.86339999938174" lon="7.902113879098597" id="-5883">
		<tag k="name" v="Osen" />
		<tag k="natural" v="bay" />
		<tag k="ssr:stedsnr" v="276244" />
	</node>
	<node lat="62.8880833343119" lon="7.9598083383292835" id="-5889">
		<tag k="name" v="Hålabekken" />
		<tag k="ssr:stedsnr" v="276997" />
		<tag k="waterway" v="stream" />
	</node>
	<node lat="62.97757777712158" lon="7.803213892698619" id="-5902">
		<tag k="name" v="Vadet" />
		<tag k="place" v="locality" />
		<tag k="ssr:stedsnr" v="277144" />
	</node>
	<node lat="62.8958444407642" lon="7.907375005496111" id="-5906">
		<tag k="name" v="Kjærteigen" />
		<tag k="ssr:stedsnr" v="277474" />
		<tag k="waterway" v="stream" />
	</node>
	<node lat="62.899211108401005" lon="8.05174721820148" id="-5907">
		<tag k="name" v="Småslærn" />
		<tag k="ssr:stedsnr" v="277188" />
		<tag k="waterway" v="stream" />
	</node>
	<node lat="62.89985277419321" lon="7.999916674742273" id="-5910">
		<tag k="name" v="Fjøsbekken" />
		<tag k="ssr:stedsnr" v="277559" />
		<tag k="waterway" v="stream" />
	</node>
	<node lat="62.91592500259898" lon="7.989086117173065" id="-5916">
		<tag k="name" v="Lauvbekken" />
		<tag k="ssr:stedsnr" v="277644" />
		<tag k="waterway" v="stream" />
	</node>
	<node lat="62.91197499574502" lon="7.614113894986748" id="-5917">
		<tag k="name" v="Storvatnet" />
		<tag k="natural" v="water" />
		<tag k="ssr:stedsnr" v="277749" />
		<tag k="water" v="lake" />
	</node>
	<node lat="62.900627776912465" lon="7.794977776831571" id="-5918">
		<tag k="name" v="Litlhaugbekken" />
		<tag k="ssr:stedsnr" v="277751" />
		<tag k="waterway" v="stream" />
	</node>
	<node lat="62.87340833730848" lon="7.703497231059164" id="-5922">
		<tag k="name" v="Skarbekken" />
		<tag k="ssr:stedsnr" v="277859" />
		<tag k="waterway" v="stream" />
	</node>
	<node lat="62.86139444055129" lon="7.883086103406944" id="-5928">
		<tag k="name" v="Asplibekken" />
		<tag k="ssr:stedsnr" v="278292" />
		<tag k="waterway" v="stream" />
	</node>
	<node lat="62.85818333171712" lon="8.091869435178781" id="-5932">
		<tag k="name" v="Brakstadelva" />
		<tag k="ssr:stedsnr" v="278692" />
		<tag k="waterway" v="stream" />
	</node>
	<node lat="62.843005556172486" lon="8.020158328830062" id="-5933">
		<tag k="name" v="Grønlibekken" />
		<tag k="ssr:stedsnr" v="278801" />
		<tag k="waterway" v="stream" />
	</node>
	<node lat="62.853488892835585" lon="7.689408328891067" id="-5939">
		<tag k="name" v="Romsdalsneset" />
		<tag k="natural" v="cape" />
		<tag k="ssr:stedsnr" v="278838" />
	</node>
	<node lat="62.91050278103144" lon="7.6549694357719416" id="-5950">
		<tag k="name" v="Astadelva" />
		<tag k="ssr:stedsnr" v="314593" />
		<tag k="waterway" v="stream" />
	</node>
	<node lat="62.94369722167631" lon="7.929894436882378" id="-5954">
		<tag k="name" v="Ranemsvatnet" />
		<tag k="natural" v="water" />
		<tag k="ssr:stedsnr" v="314898" />
	</node>
	<node lat="62.923841662245316" lon="7.682619440981213" id="-5960">
		<tag k="name" v="Dunadteigelva" />
		<tag k="ssr:stedsnr" v="315526" />
		<tag k="waterway" v="stream" />
	</node>
	<node lat="62.83981110784626" lon="7.839866665856309" id="-5961">
		<tag k="name" v="Bjorbekken" />
		<tag k="ssr:stedsnr" v="315528" />
		<tag k="waterway" v="stream" />
	</node>
	<node lat="62.92008888896859" lon="8.008316670916194" id="-5971">
		<tag k="name" v="Flemsetervatnet" />
		<tag k="natural" v="water" />
		<tag k="ssr:stedsnr" v="315946" />
	</node>
	<node lat="62.843994448270365" lon="7.798872219700675" id="-5983">
=======
	<node id="-79443" lat="62.9319805586" lon="8.05100000463">
		<tag k="name" v="Bjørnamyra" />
		<tag k="ssr:stedsnr" v="460605" />
		<tag k="waterway" v="stream" />
	</node>
	<node id="-79441" lat="62.8819861123" lon="7.93443889839">
		<tag k="name" v="Litlvatnet" />
		<tag k="place" v="islet" />
		<tag k="ssr:stedsnr" v="460578" />
	</node>
	<node id="-79440" lat="62.9055055546" lon="7.90022499376">
		<tag k="name" v="Sørdalselva" />
		<tag k="ssr:stedsnr" v="460562" />
		<tag k="waterway" v="stream" />
	</node>
	<node id="-79439" lat="62.9013972207" lon="7.87676666128">
		<tag k="name" v="Krusbekken" />
		<tag k="natural" v="water" />
		<tag k="ssr:stedsnr" v="460560" />
		<tag k="water" v="lake" />
	</node>
	<node id="-79438" lat="62.9190749999" lon="7.85390833044">
		<tag k="name" v="Seterdalsbekken" />
		<tag k="ssr:stedsnr" v="460553" />
		<tag k="waterway" v="stream" />
	</node>
	<node id="-79434" lat="62.944891667" lon="8.0693611081">
		<tag k="name" v="Rotvika" />
		<tag k="natural" v="cape" />
		<tag k="ssr:stedsnr" v="460292" />
	</node>
	<node id="-79426" lat="62.8632027753" lon="7.72598889274">
		<tag k="name" v="Tverrelva" />
		<tag k="ssr:stedsnr" v="460243" />
		<tag k="waterway" v="stream" />
	</node>
	<node id="-79423" lat="62.8725388903" lon="7.86315556312">
		<tag k="name" v="Riset" />
		<tag k="ssr:stedsnr" v="460185" />
		<tag k="waterway" v="river" />
	</node>
	<node id="-79416" lat="62.9556083294" lon="7.93870278115">
		<tag k="name" v="Seterdalsbekken" />
		<tag k="ssr:stedsnr" v="279723" />
		<tag k="waterway" v="stream" />
	</node>
	<node id="-79408" lat="62.9324277813" lon="7.63222222418">
		<tag k="name" v="Skjersetelva" />
		<tag k="ssr:stedsnr" v="277910" />
		<tag k="waterway" v="river" />
	</node>
	<node id="-79403" lat="62.8811611116" lon="7.85486389011">
		<tag k="name" v="Kvernhusmyra" />
		<tag k="ssr:stedsnr" v="277506" />
		<tag k="waterway" v="stream" />
	</node>
	<node id="-79400" lat="62.8958444408" lon="7.9073750055">
		<tag k="name" v="Kjærteigen" />
		<tag k="ssr:stedsnr" v="277474" />
		<tag k="waterway" v="stream" />
	</node>
	<node id="-79379" lat="62.9166027769" lon="8.08040277705">
		<tag k="name" v="Gagnatelva" />
		<tag k="ssr:stedsnr" v="458989" />
		<tag k="waterway" v="stream" />
	</node>
	<node id="-79375" lat="62.8280000032" lon="7.60828888393">
		<tag k="name" v="Stangarvatnet" />
		<tag k="natural" v="water" />
		<tag k="ssr:stedsnr" v="255760" />
	</node>
	<node id="-79362" lat="62.8546861102" lon="8.01780277219">
		<tag k="name" v="Bytbekken" />
		<tag k="ssr:stedsnr" v="217615" />
		<tag k="waterway" v="stream" />
	</node>
	<node id="-79312" lat="62.8534888928" lon="7.68940832889">
		<tag k="name" v="Romsdalsneset" />
		<tag k="natural" v="cape" />
		<tag k="ssr:stedsnr" v="278838" />
	</node>
	<node id="-79306" lat="62.8978333319" lon="7.77781944775">
		<tag k="name" v="Gammelseterbekken" />
		<tag k="ssr:stedsnr" v="278805" />
		<tag k="waterway" v="stream" />
	</node>
	<node id="-79305" lat="62.8430055562" lon="8.02015832883">
		<tag k="name" v="Grønlibekken" />
		<tag k="ssr:stedsnr" v="278801" />
		<tag k="waterway" v="stream" />
	</node>
	<node id="-79301" lat="62.8581833317" lon="8.09186943518">
		<tag k="name" v="Brakstadelva" />
		<tag k="ssr:stedsnr" v="278692" />
		<tag k="waterway" v="stream" />
	</node>
	<node id="-79296" lat="62.8613944406" lon="7.88308610341">
		<tag k="name" v="Asplibekken" />
		<tag k="ssr:stedsnr" v="278292" />
		<tag k="waterway" v="stream" />
	</node>
	<node id="-79286" lat="62.9006277769" lon="7.79497777683">
		<tag k="name" v="Litlhaugbekken" />
		<tag k="ssr:stedsnr" v="277751" />
		<tag k="waterway" v="stream" />
	</node>
	<node id="-79285" lat="62.9119749957" lon="7.61411389499">
		<tag k="name" v="Storvatnet" />
		<tag k="natural" v="water" />
		<tag k="ssr:stedsnr" v="277749" />
		<tag k="water" v="lake" />
	</node>
	<node id="-79281" lat="62.8734083373" lon="7.70349723106">
		<tag k="name" v="Skarbekken" />
		<tag k="ssr:stedsnr" v="277859" />
		<tag k="waterway" v="stream" />
	</node>
	<node id="-79278" lat="62.9159250026" lon="7.98908611717">
		<tag k="name" v="Lauvbekken" />
		<tag k="ssr:stedsnr" v="277644" />
		<tag k="waterway" v="stream" />
	</node>
	<node id="-79273" lat="62.9504194413" lon="7.88597500975">
		<tag k="name" v="Britbekken" />
		<tag k="natural" v="water" />
		<tag k="ssr:stedsnr" v="277501" />
		<tag k="water" v="lake" />
	</node>
	<node id="-79265" lat="62.8998527742" lon="7.99991667474">
		<tag k="name" v="Fjøsbekken" />
		<tag k="ssr:stedsnr" v="277559" />
		<tag k="waterway" v="stream" />
	</node>
	<node id="-79263" lat="62.9539972195" lon="8.05351110755">
		<tag k="name" v="Høybuvika" />
		<tag k="natural" v="cape" />
		<tag k="ssr:stedsnr" v="277526" />
	</node>
	<node id="-79251" lat="62.9669583295" lon="8.01236110263">
		<tag k="name" v="Vikan" />
		<tag k="natural" v="cape" />
		<tag k="ssr:stedsnr" v="277201" />
	</node>
	<node id="-79249" lat="62.8992111084" lon="8.0517472182">
		<tag k="name" v="Småslærn" />
		<tag k="ssr:stedsnr" v="277188" />
		<tag k="waterway" v="stream" />
	</node>
	<node id="-79247" lat="62.9775777771" lon="7.8032138927">
		<tag k="name" v="Vadet" />
		<tag k="place" v="locality" />
		<tag k="ssr:stedsnr" v="277144" />
	</node>
	<node id="-79239" lat="62.8880833343" lon="7.95980833833">
		<tag k="name" v="Hålabekken" />
		<tag k="ssr:stedsnr" v="276997" />
		<tag k="waterway" v="stream" />
	</node>
	<node id="-79233" lat="62.8633999994" lon="7.9021138791">
		<tag k="name" v="Osen" />
		<tag k="natural" v="bay" />
		<tag k="ssr:stedsnr" v="276244" />
	</node>
	<node id="-79228" lat="62.846911109" lon="8.04120833383">
		<tag k="name" v="Fosnatjørnin" />
		<tag k="natural" v="water" />
		<tag k="ssr:stedsnr" v="142655" />
	</node>
	<node id="-79221" lat="62.9389027745" lon="8.04348054823">
		<tag k="name" v="Varvikvatnet" />
		<tag k="natural" v="water" />
		<tag k="ssr:stedsnr" v="132907" />
	</node>
	<node id="-79218" lat="62.8469611099" lon="7.46096944043">
		<tag k="name" v="Trolldalsvatnet" />
		<tag k="natural" v="water" />
		<tag k="ssr:stedsnr" v="255725" />
	</node>
	<node id="-79215" lat="62.8605472255" lon="8.08483888002">
		<tag k="fixme" v="multiple name tags, choose one and add the other to alt_name" />
		<tag k="name" v="Kvernhuselva;Ingeborgelva;Kvernhusbekken" />
		<tag k="ssr:stedsnr" v="255527" />
		<tag k="waterway" v="stream" />
	</node>
	<node id="-79209" lat="62.8535916663" lon="8.09042499211">
		<tag k="name" v="Slettubekken" />
		<tag k="ssr:stedsnr" v="96663" />
		<tag k="waterway" v="stream" />
	</node>
	<node id="-79208" lat="62.8558000014" lon="8.11015554873">
		<tag k="name" v="Ådalselva" />
		<tag k="ssr:stedsnr" v="96661" />
		<tag k="waterway" v="stream" />
	</node>
	<node id="-79207" lat="62.9289083365" lon="8.10298054801">
		<tag k="name" v="Passvikneset" />
		<tag k="natural" v="shoal" />
		<tag k="place" v="locality" />
		<tag k="ssr:stedsnr" v="96603" />
	</node>
	<node id="-79204" lat="62.8351861118" lon="7.42743611838">
		<tag k="name" v="Bjørndalselva" />
		<tag k="ssr:stedsnr" v="96776" />
		<tag k="waterway" v="river" />
	</node>
	<node id="-79201" lat="62.8547250027" lon="7.70293055391">
		<tag k="name" v="Merrahølen" />
		<tag k="place" v="locality" />
		<tag k="ssr:stedsnr" v="96752" />
	</node>
	<node id="-79186" lat="62.8591194447" lon="7.870836109">
		<tag k="name" v="Storrøsta" />
		<tag k="ssr:stedsnr" v="95425" />
		<tag k="waterway" v="river" />
	</node>
	<node id="-79165" lat="62.9157972179" lon="7.64649722078">
		<tag k="name" v="Astadvatnet" />
		<tag k="natural" v="water" />
		<tag k="ssr:stedsnr" v="254568" />
	</node>
	<node id="-79161" lat="62.8492444476" lon="7.87504999174">
		<tag k="name" v="Duneset" />
		<tag k="natural" v="cape" />
		<tag k="ssr:stedsnr" v="73536" />
	</node>
	<node id="-79153" lat="62.8538666687" lon="7.53541388128">
		<tag k="name" v="Øyaelva" />
		<tag k="ssr:stedsnr" v="34116" />
		<tag k="waterway" v="stream" />
	</node>
	<node id="-79143" lat="62.8969333355" lon="7.67700000026">
		<tag k="alt_name" v="Batnfjordselva;Storelva" />
		<tag k="name" v="Batnfjordelva" />
		<tag k="ssr:stedsnr" v="12631" />
		<tag k="waterway" v="river" />
	</node>
	<node id="-79141" lat="62.9393916656" lon="8.00133888256">
		<tag k="name" v="Hoemselva" />
		<tag k="ssr:stedsnr" v="11909" />
		<tag k="waterway" v="river" />
	</node>
	<node id="-79137" lat="62.8949805596" lon="7.60059444671">
		<tag k="name" v="Kvennaelva" />
		<tag k="ssr:stedsnr" v="217791" />
		<tag k="waterway" v="river" />
	</node>
	<node id="-79135" lat="62.8470722234" lon="7.49753611136">
		<tag k="name" v="Trollålibekken" />
		<tag k="ssr:stedsnr" v="217771" />
		<tag k="waterway" v="stream" />
	</node>
	<node id="-79134" lat="62.8428944454" lon="7.43348611551">
		<tag k="name" v="Litldalselva" />
		<tag k="ssr:stedsnr" v="217766" />
		<tag k="waterway" v="stream" />
	</node>
	<node id="-79130" lat="62.9285333351" lon="7.68039165896">
		<tag k="name" v="Skredlitjønna" />
		<tag k="natural" v="water" />
		<tag k="ssr:stedsnr" v="217872" />
	</node>
	<node id="-79126" lat="62.9312277815" lon="8.09089167535">
		<tag k="name" v="Breivikneset" />
		<tag k="natural" v="shoal" />
		<tag k="place" v="locality" />
		<tag k="ssr:stedsnr" v="217589" />
	</node>
	<node id="-79120" lat="62.9298722187" lon="8.03804999751">
		<tag k="name" v="Langdalsbekken" />
		<tag k="natural" v="water" />
		<tag k="ssr:stedsnr" v="217552" />
		<tag k="water" v="lake" />
	</node>
	<node id="-79118" lat="62.9583333372" lon="7.92668889858">
		<tag k="name" v="Gammelreita" />
		<tag k="natural" v="waterfall" />
		<tag k="ssr:stedsnr" v="217538" />
	</node>
	<node id="-79117" lat="62.883561112" lon="8.07753611985">
		<tag k="name" v="Turtlibekken" />
		<tag k="ssr:stedsnr" v="217660" />
		<tag k="waterway" v="stream" />
	</node>
	<node id="-79114" lat="62.921572219" lon="7.86792777251">
		<tag k="name" v="Sørdalsbekken" />
		<tag k="natural" v="water" />
		<tag k="ssr:stedsnr" v="217484" />
		<tag k="water" v="lake" />
	</node>
	<node id="-81158" lat="62.8363222207" lon="8.02934165949">
		<tag k="name" v="Svartakseltjønna" />
		<tag k="natural" v="water" />
		<tag k="ssr:stedsnr" v="37562" />
	</node>
	<node id="-81157" lat="62.8294861127" lon="7.8323444416">
		<tag k="name" v="Fagerløkhølen" />
		<tag k="place" v="locality" />
		<tag k="ssr:stedsnr" v="341593" />
	</node>
	<node id="-81143" lat="62.8440583345" lon="7.6959555569">
		<tag k="name" v="Skallelva" />
		<tag k="ssr:stedsnr" v="870840" />
		<tag k="waterway" v="river" />
	</node>
	<node id="-81141" lat="62.8437992323" lon="7.88768754995">
		<tag k="name" v="Sandneset" />
		<tag k="natural" v="cape" />
		<tag k="ssr:stedsnr" v="862523" />
	</node>
	<node id="-81106" lat="62.9108666689" lon="8.05241110418">
		<tag k="name" v="Tortlibekken" />
		<tag k="natural" v="water" />
		<tag k="ssr:stedsnr" v="824607" />
		<tag k="water" v="lake" />
	</node>
	<node id="-81096" lat="62.8381777814" lon="7.46360554666">
		<tag k="name" v="Trolldalselva" />
		<tag k="ssr:stedsnr" v="824231" />
		<tag k="waterway" v="river" />
	</node>
	<node id="-81095" lat="62.8381000034" lon="7.49107499722">
		<tag k="name" v="Litlfallhølen" />
		<tag k="place" v="locality" />
		<tag k="ssr:stedsnr" v="824229" />
	</node>
	<node id="-81094" lat="62.8385361136" lon="7.4957722241">
		<tag k="name" v="Fallhølen" />
		<tag k="place" v="locality" />
		<tag k="ssr:stedsnr" v="824228" />
	</node>
	<node id="-81079" lat="62.941394443" lon="7.84778610836">
		<tag k="name" v="Erikgardsbekken" />
		<tag k="natural" v="water" />
		<tag k="ssr:stedsnr" v="822995" />
		<tag k="water" v="lake" />
	</node>
	<node id="-81075" lat="62.946066667" lon="7.86363889301">
		<tag k="name" v="Orsetbukta" />
		<tag k="natural" v="cape" />
		<tag k="ssr:stedsnr" v="822577" />
	</node>
	<node id="-81061" lat="62.8616611068" lon="7.96314444275">
		<tag k="name" v="Litlvatnet" />
		<tag k="natural" v="water" />
		<tag k="ssr:stedsnr" v="801508" />
	</node>
	<node id="-81059" lat="62.8688527803" lon="8.04119443623">
		<tag k="alt_name" v="Tomtjørna" />
		<tag k="name" v="Tomtjønna" />
		<tag k="natural" v="water" />
		<tag k="ssr:stedsnr" v="801487" />
	</node>
	<node id="-81049" lat="62.9440361083" lon="7.64158610536">
		<tag k="name" v="Røvikelva" />
		<tag k="ssr:stedsnr" v="800508" />
		<tag k="waterway" v="stream" />
	</node>
	<node id="-81036" lat="62.8652750026" lon="7.60399444924">
		<tag k="name" v="Skredbekken" />
		<tag k="ssr:stedsnr" v="763788" />
		<tag k="waterway" v="stream" />
	</node>
	<node id="-81033" lat="62.892900004" lon="7.7986472129">
		<tag k="name" v="Duskarselva" />
		<tag k="ssr:stedsnr" v="763776" />
		<tag k="waterway" v="stream" />
	</node>
	<node id="-81031" lat="62.8730527806" lon="8.09373055372">
		<tag k="name" v="Hammarelva" />
		<tag k="ssr:stedsnr" v="763645" />
		<tag k="waterway" v="stream" />
	</node>
	<node id="-81025" lat="62.8871305581" lon="7.8951999993">
		<tag k="name" v="Brekkmyra" />
		<tag k="ssr:stedsnr" v="763591" />
		<tag k="waterway" v="stream" />
	</node>
	<node id="-81023" lat="62.9479888921" lon="7.88563055502">
		<tag k="name" v="Skarbekken" />
		<tag k="natural" v="water" />
		<tag k="ssr:stedsnr" v="763562" />
		<tag k="water" v="lake" />
	</node>
	<node id="-81018" lat="62.8954472214" lon="7.93982222039">
		<tag k="name" v="Tverrelva" />
		<tag k="natural" v="water" />
		<tag k="ssr:stedsnr" v="763700" />
		<tag k="water" v="lake" />
	</node>
	<node id="-81010" lat="62.8686027749" lon="7.91132500175">
		<tag k="name" v="Sagmyra" />
		<tag k="ssr:stedsnr" v="763239" />
		<tag k="waterway" v="stream" />
	</node>
	<node id="-81009" lat="62.9563388854" lon="8.03038333889">
		<tag k="name" v="Litlelva" />
		<tag k="natural" v="water" />
		<tag k="ssr:stedsnr" v="763238" />
		<tag k="water" v="lake" />
	</node>
	<node id="-81001" lat="62.9304749978" lon="8.08571666979">
		<tag k="name" v="Breivika" />
		<tag k="natural" v="cape" />
		<tag k="ssr:stedsnr" v="763199" />
	</node>
	<node id="-80989" lat="62.8768861099" lon="7.91952221984">
		<tag k="name" v="Junen" />
		<tag k="place" v="islet" />
		<tag k="ssr:stedsnr" v="763141" />
	</node>
	<node id="-80961" lat="62.8506333325" lon="7.89077222125">
		<tag k="name" v="Fosterlågen" />
		<tag k="natural" v="water" />
		<tag k="ssr:stedsnr" v="740490" />
		<tag k="water" v="lake" />
	</node>
	<node id="-80946" lat="62.8641388871" lon="7.66628610334">
		<tag k="name" v="Petterneset" />
		<tag k="natural" v="cape" />
		<tag k="ssr:stedsnr" v="641799" />
	</node>
	<node id="-80942" lat="62.8562111104" lon="7.48216388082">
		<tag k="name" v="Fagerdalstjønna" />
		<tag k="natural" v="water" />
		<tag k="ssr:stedsnr" v="641732" />
	</node>
	<node id="-80933" lat="62.8955749962" lon="7.99425555349">
		<tag k="name" v="Sagbekken" />
		<tag k="ssr:stedsnr" v="641544" />
		<tag k="waterway" v="stream" />
	</node>
	<node id="-80930" lat="62.9458083323" lon="8.02261945065">
		<tag k="name" v="Gallstøbekken" />
		<tag k="natural" v="water" />
		<tag k="ssr:stedsnr" v="641512" />
		<tag k="water" v="lake" />
	</node>
	<node id="-80928" lat="62.9542833318" lon="8.01883889621">
		<tag k="name" v="Høglibekken" />
		<tag k="natural" v="water" />
		<tag k="ssr:stedsnr" v="641506" />
		<tag k="water" v="lake" />
	</node>
	<node id="-80925" lat="62.9628527753" lon="7.93395832651">
		<tag k="name" v="Naustneset" />
		<tag k="natural" v="shoal" />
		<tag k="place" v="locality" />
		<tag k="ssr:stedsnr" v="641494" />
	</node>
	<node id="-80923" lat="62.962636107" lon="7.91613055226">
		<tag k="name" v="Søråkerbukta" />
		<tag k="natural" v="cape" />
		<tag k="ssr:stedsnr" v="641483" />
	</node>
	<node id="-80922" lat="62.871713885" lon="7.91115278324">
		<tag k="name" v="Kvernhusmyra" />
		<tag k="ssr:stedsnr" v="641477" />
		<tag k="waterway" v="stream" />
	</node>
	<node id="-80921" lat="62.8908027786" lon="7.82990000942">
		<tag k="name" v="Bytbekken" />
		<tag k="natural" v="water" />
		<tag k="ssr:stedsnr" v="641457" />
		<tag k="water" v="lake" />
	</node>
	<node id="-80919" lat="62.9286888902" lon="7.84004444538">
		<tag k="name" v="Stordalsbekken" />
		<tag k="natural" v="water" />
		<tag k="ssr:stedsnr" v="641443" />
		<tag k="water" v="lake" />
	</node>
	<node id="-80908" lat="62.925111109" lon="7.86276110905">
		<tag k="name" v="Øyan" />
		<tag k="ssr:stedsnr" v="641124" />
		<tag k="waterway" v="stream" />
	</node>
	<node id="-80876" lat="62.8462222234" lon="7.98678611888">
		<tag k="name" v="Litlvatnet" />
		<tag k="natural" v="water" />
		<tag k="ssr:stedsnr" v="619874" />
	</node>
	<node id="-80874" lat="62.8334888904" lon="7.93851667418">
		<tag k="alt_name" v="Kjerringlitjørnen" />
		<tag k="name" v="Småvatna" />
		<tag k="natural" v="water" />
		<tag k="ssr:stedsnr" v="619581" />
	</node>
	<node id="-80871" lat="62.8539722233" lon="7.86361110729">
		<tag k="name" v="Duelva" />
		<tag k="ssr:stedsnr" v="619554" />
		<tag k="waterway" v="river" />
	</node>
	<node id="-80867" lat="62.8987166669" lon="7.70883332366">
		<tag k="name" v="Lauvvollbekken" />
		<tag k="ssr:stedsnr" v="618600" />
		<tag k="waterway" v="stream" />
	</node>
	<node id="-80862" lat="62.8867305595" lon="7.74252221517">
		<tag k="alt_name" v="Tjørnen" />
		<tag k="name" v="Tjørnin" />
		<tag k="natural" v="water" />
		<tag k="ssr:stedsnr" v="618992" />
	</node>
	<node id="-80855" lat="62.9097500041" lon="7.77025555477">
		<tag k="name" v="Skeisdalselva" />
		<tag k="old_name" v="Skeidsdalselva" />
		<tag k="ssr:stedsnr" v="618929" />
		<tag k="waterway" v="stream" />
	</node>
	<node id="-80845" lat="62.9539000026" lon="7.6519027762">
		<tag k="name" v="Kolsetelva" />
		<tag k="ssr:stedsnr" v="581795" />
		<tag k="waterway" v="stream" />
	</node>
	<node id="-80834" lat="62.9670472242" lon="7.98354444909">
		<tag k="name" v="Kvalvågelva" />
		<tag k="ssr:stedsnr" v="581714" />
		<tag k="waterway" v="stream" />
	</node>
	<node id="-80829" lat="62.9627305535" lon="7.91759166555">
		<tag k="name" v="Søråkeren" />
		<tag k="ssr:stedsnr" v="581584" />
		<tag k="waterway" v="drain" />
	</node>
	<node id="-80828" lat="62.8920166688" lon="7.83587221276">
		<tag k="name" v="Trollbekken" />
		<tag k="natural" v="water" />
		<tag k="ssr:stedsnr" v="581540" />
		<tag k="water" v="lake" />
	</node>
	<node id="-80826" lat="62.9232944424" lon="7.84106388876">
		<tag k="name" v="Bjørnaråbekken" />
		<tag k="natural" v="water" />
		<tag k="ssr:stedsnr" v="581529" />
		<tag k="water" v="lake" />
	</node>
	<node id="-80822" lat="62.8977722179" lon="7.94870554736">
		<tag k="name" v="Øyelva" />
		<tag k="ssr:stedsnr" v="581169" />
		<tag k="waterway" v="stream" />
	</node>
	<node id="-80814" lat="62.9373999999" lon="7.73099999263">
		<tag k="name" v="Haugabekken" />
		<tag k="ssr:stedsnr" v="580895" />
		<tag k="waterway" v="stream" />
	</node>
	<node id="-80805" lat="62.9406583336" lon="7.834633342">
		<tag k="name" v="Tortholbekken" />
		<tag k="natural" v="water" />
		<tag k="ssr:stedsnr" v="579994" />
		<tag k="water" v="lake" />
	</node>
	<node id="-80801" lat="62.844997222" lon="7.90116945045">
		<tag k="name" v="Åneset" />
		<tag k="natural" v="cape" />
		<tag k="ssr:stedsnr" v="579186" />
	</node>
	<node id="-80790" lat="62.8224888848" lon="7.92635277031">
		<tag k="name" v="Djupdalsbekken" />
		<tag k="ssr:stedsnr" v="558587" />
		<tag k="waterway" v="stream" />
	</node>
	<node id="-80786" lat="62.9103638881" lon="7.81796665803">
		<tag k="name" v="Midtvatnet" />
		<tag k="natural" v="water" />
		<tag k="ssr:stedsnr" v="557931" />
	</node>
	<node id="-80778" lat="62.9613777767" lon="7.72401666196">
		<tag k="name" v="Svortåvatnet" />
		<tag k="natural" v="water" />
		<tag k="ssr:stedsnr" v="557889" />
	</node>
	<node id="-80772" lat="62.8654361122" lon="7.57166944864">
		<tag k="name" v="Kvernelva" />
		<tag k="ssr:stedsnr" v="557634" />
		<tag k="waterway" v="stream" />
	</node>
	<node id="-80767" lat="62.8339527775" lon="7.8346805476">
		<tag k="name" v="Haugaløken" />
		<tag k="ssr:stedsnr" v="520960" />
		<tag k="waterway" v="stream" />
	</node>
	<node id="-80762" lat="62.8891555544" lon="7.6413249955">
		<tag k="name" v="Glennbekken" />
		<tag k="ssr:stedsnr" v="520892" />
		<tag k="waterway" v="stream" />
	</node>
	<node id="-80758" lat="62.849305554" lon="7.42641666618">
		<tag k="name" v="Vassdalselva" />
		<tag k="ssr:stedsnr" v="520817" />
		<tag k="waterway" v="river" />
	</node>
	<node id="-80756" lat="62.9030944449" lon="7.77054999091">
		<tag k="name" v="Braslibekken" />
		<tag k="ssr:stedsnr" v="520795" />
		<tag k="waterway" v="stream" />
	</node>
	<node id="-80754" lat="62.9656138931" lon="7.74324999799">
		<tag k="name" v="Søre Osatrøbekken" />
		<tag k="ssr:stedsnr" v="520781" />
		<tag k="waterway" v="stream" />
	</node>
	<node id="-80753" lat="62.9015750028" lon="7.81556945367">
		<tag k="name" v="Grønfjellbekken" />
		<tag k="ssr:stedsnr" v="520778" />
		<tag k="waterway" v="stream" />
	</node>
	<node id="-80743" lat="62.8870888923" lon="7.99422777266">
		<tag k="name" v="Svartelva" />
		<tag k="ssr:stedsnr" v="520634" />
		<tag k="waterway" v="stream" />
	</node>
	<node id="-80736" lat="62.9034305582" lon="8.09115277135">
		<tag k="name" v="Kårstubekken" />
		<tag k="ssr:stedsnr" v="520588" />
		<tag k="waterway" v="stream" />
	</node>
	<node id="-80735" lat="62.8916249998" lon="8.00038610335">
		<tag k="alt_name" v="Svartbekken" />
		<tag k="name" v="Svartelva" />
		<tag k="ssr:stedsnr" v="520586" />
		<tag k="waterway" v="stream" />
	</node>
	<node id="-80732" lat="62.9362583351" lon="8.03539722318">
		<tag k="name" v="Samendalsbekken" />
		<tag k="natural" v="water" />
		<tag k="ssr:stedsnr" v="520555" />
		<tag k="water" v="lake" />
	</node>
	<node id="-80729" lat="62.8930777764" lon="8.03880277994">
		<tag k="name" v="Sneppå" />
		<tag k="ssr:stedsnr" v="520227" />
		<tag k="waterway" v="drain" />
	</node>
	<node id="-80728" lat="62.8625305571" lon="7.83969444037">
		<tag k="name" v="Ytterelva" />
		<tag k="ssr:stedsnr" v="520195" />
		<tag k="waterway" v="stream" />
	</node>
	<node id="-80722" lat="62.9592194432" lon="7.90191667283">
		<tag k="name" v="Slættet" />
		<tag k="ssr:stedsnr" v="520131" />
		<tag k="waterway" v="drain" />
	</node>
	<node id="-80712" lat="62.948533333" lon="7.73483332518">
		<tag k="name" v="Hamraelva" />
		<tag k="ssr:stedsnr" v="519898" />
		<tag k="waterway" v="stream" />
	</node>
	<node id="-80711" lat="62.8793416701" lon="7.7544027761">
		<tag k="name" v="Litle Trollvatnet" />
		<tag k="natural" v="water" />
		<tag k="ssr:stedsnr" v="437978" />
	</node>
	<node id="-80708" lat="62.8442416651" lon="7.57888333971">
		<tag k="name" v="Ørndalsbekken" />
		<tag k="ssr:stedsnr" v="437708" />
		<tag k="waterway" v="stream" />
	</node>
	<node id="-80704" lat="62.8365250007" lon="7.90261388236">
		<tag k="name" v="Åneselva" />
		<tag k="ssr:stedsnr" v="437551" />
		<tag k="waterway" v="river" />
	</node>
	<node id="-80703" lat="62.8711805519" lon="7.91014445376">
		<tag k="alt_name" v="Fostra" />
		<tag k="name" v="Sagelva" />
		<tag k="ssr:stedsnr" v="437528" />
		<tag k="waterway" v="stream" />
	</node>
	<node id="-80701" lat="62.952230556" lon="7.67241110236">
		<tag k="name" v="Stokkelva" />
		<tag k="ssr:stedsnr" v="436989" />
		<tag k="waterway" v="stream" />
	</node>
	<node id="-80696" lat="62.890336108" lon="7.70332222586">
		<tag k="name" v="Nåstadbekken" />
		<tag k="ssr:stedsnr" v="436579" />
		<tag k="waterway" v="stream" />
	</node>
	<node id="-80686" lat="62.9245416679" lon="7.60863888245">
		<tag k="name" v="Sevikelva" />
		<tag k="ssr:stedsnr" v="399818" />
		<tag k="waterway" v="stream" />
	</node>
	<node id="-80680" lat="62.9673666679" lon="8.02870555895">
		<tag k="name" v="Vikaneset" />
		<tag k="natural" v="shoal" />
		<tag k="place" v="locality" />
		<tag k="ssr:stedsnr" v="399689" />
	</node>
	<node id="-80676" lat="62.8511833348" lon="8.10637499092">
		<tag k="name" v="Høybrudalselva" />
		<tag k="ssr:stedsnr" v="399659" />
		<tag k="waterway" v="stream" />
	</node>
	<node id="-80674" lat="62.9346361102" lon="7.97588610729">
		<tag k="name" v="Tverrelva" />
		<tag k="ssr:stedsnr" v="399649" />
		<tag k="waterway" v="stream" />
	</node>
	<node id="-80672" lat="62.8887083334" lon="8.07693056194">
		<tag k="name" v="Sandabekken" />
		<tag k="ssr:stedsnr" v="399639" />
		<tag k="waterway" v="stream" />
	</node>
	<node id="-80667" lat="62.9314000031" lon="8.02322777033">
		<tag k="name" v="Samendalsmyra" />
		<tag k="ssr:stedsnr" v="399610" />
		<tag k="waterway" v="stream" />
	</node>
	<node id="-80661" lat="62.9093861121" lon="7.89629444862">
		<tag k="name" v="Kvernbekken" />
		<tag k="natural" v="water" />
		<tag k="ssr:stedsnr" v="399561" />
		<tag k="water" v="lake" />
	</node>
	<node id="-80657" lat="62.9165249978" lon="7.84018888423">
		<tag k="name" v="Stokkdalsbekken" />
		<tag k="natural" v="water" />
		<tag k="ssr:stedsnr" v="399521" />
		<tag k="water" v="lake" />
	</node>
	<node id="-80656" lat="62.8646722248" lon="7.87755554642">
		<tag k="name" v="Asplibekken" />
		<tag k="natural" v="water" />
		<tag k="ssr:stedsnr" v="399516" />
		<tag k="water" v="lake" />
	</node>
	<node id="-80649" lat="62.8407749981" lon="7.85951110834">
		<tag k="name" v="Kustøa" />
		<tag k="natural" v="bay" />
		<tag k="ssr:stedsnr" v="399207" />
	</node>
	<node id="-80648" lat="62.8396138914" lon="7.85791111042">
		<tag k="name" v="Teppinga" />
		<tag k="natural" v="bay" />
		<tag k="ssr:stedsnr" v="399206" />
	</node>
	<node id="-80642" lat="62.9629222218" lon="7.93077776902">
		<tag k="name" v="Klubben" />
		<tag k="natural" v="shoal" />
		<tag k="place" v="locality" />
		<tag k="ssr:stedsnr" v="399136" />
	</node>
	<node id="-80638" lat="62.9228277789" lon="7.79805832693">
		<tag k="name" v="Dønnemselva" />
		<tag k="ssr:stedsnr" v="398944" />
		<tag k="waterway" v="river" />
	</node>
	<node id="-80636" lat="62.8589361092" lon="7.93293333865">
		<tag k="name" v="Litlsanden" />
		<tag k="natural" v="beach" />
		<tag k="ssr:stedsnr" v="398920" />
	</node>
	<node id="-80632" lat="62.9057138917" lon="7.66166387968">
		<tag k="name" v="Storfossen" />
		<tag k="natural" v="waterfall" />
		<tag k="ssr:stedsnr" v="398854" />
	</node>
	<node id="-80629" lat="62.8707527786" lon="7.6233055561">
		<tag k="name" v="Stutøya" />
		<tag k="place" v="island" />
		<tag k="ssr:stedsnr" v="398092" />
	</node>
	<node id="-80609" lat="62.8814305572" lon="7.90107222757">
		<tag k="name" v="Heggemsvatnet" />
		<tag k="natural" v="water" />
		<tag k="ssr:stedsnr" v="376978" />
		<tag k="water" v="lake" />
	</node>
	<node id="-80606" lat="62.8357861076" lon="7.54976111211">
		<tag k="alt_name" v="Raudheivatnet;Raudheitjønna" />
		<tag k="name" v="Raudheitjørna" />
		<tag k="natural" v="water" />
		<tag k="ssr:stedsnr" v="376715" />
	</node>
	<node id="-80597" lat="62.8545277768" lon="7.70244444628">
		<tag k="name" v="Leikjesåa" />
		<tag k="ssr:stedsnr" v="375633" />
		<tag k="waterway" v="stream" />
	</node>
	<node id="-80591" lat="62.8951472201" lon="8.07802777996">
		<tag k="name" v="Haltlibekken" />
		<tag k="ssr:stedsnr" v="338991" />
		<tag k="waterway" v="stream" />
	</node>
	<node id="-80580" lat="62.8621555533" lon="7.54922221537">
		<tag k="name" v="Tverråelva" />
		<tag k="ssr:stedsnr" v="338793" />
		<tag k="waterway" v="stream" />
	</node>
	<node id="-80577" lat="62.8832416696" lon="7.69936943468">
		<tag k="alt_name" v="Nør Elva" />
		<tag k="name" v="Nordre elva" />
		<tag k="ssr:stedsnr" v="338741" />
		<tag k="waterway" v="stream" />
	</node>
	<node id="-80575" lat="62.8648472247" lon="7.69609444523">
		<tag k="name" v="Søre Steinbekken" />
		<tag k="ssr:stedsnr" v="338732" />
		<tag k="waterway" v="stream" />
	</node>
	<node id="-80572" lat="62.9645333359" lon="7.98893333883">
		<tag k="name" v="Lamvikvatnet" />
		<tag k="natural" v="water" />
		<tag k="ssr:stedsnr" v="338662" />
		<tag k="water" v="lake" />
	</node>
	<node id="-80566" lat="62.8832833356" lon="8.04027777989">
		<tag k="name" v="Kvernhushølen" />
		<tag k="place" v="locality" />
		<tag k="ssr:stedsnr" v="338590" />
	</node>
	<node id="-80565" lat="62.8723944452" lon="8.08555832472">
		<tag k="name" v="Hammarløkan" />
		<tag k="ssr:stedsnr" v="338582" />
		<tag k="waterway" v="stream" />
	</node>
	<node id="-80564" lat="62.8832416692" lon="8.0114638823">
		<tag k="name" v="Langneset" />
		<tag k="natural" v="cape" />
		<tag k="ssr:stedsnr" v="338574" />
	</node>
	<node id="-80558" lat="62.9103500011" lon="8.08169444865">
		<tag k="alt_name" v="Haltvikelva" />
		<tag k="name" v="Haltvikbekken" />
		<tag k="ssr:stedsnr" v="338537" />
		<tag k="waterway" v="stream" />
	</node>
	<node id="-80556" lat="62.8832444463" lon="7.89801389194">
		<tag k="name" v="Aurebekken" />
		<tag k="natural" v="water" />
		<tag k="ssr:stedsnr" v="338516" />
		<tag k="water" v="lake" />
	</node>
	<node id="-80546" lat="62.8957444454" lon="8.09063056405">
		<tag k="name" v="Raudbekken" />
		<tag k="ssr:stedsnr" v="337989" />
		<tag k="waterway" v="stream" />
	</node>
	<node id="-80544" lat="62.9841000005" lon="7.80307499544">
		<tag k="name" v="Grønskaretjørna" />
		<tag k="natural" v="water" />
		<tag k="ssr:stedsnr" v="337977" />
	</node>
	<node id="-80539" lat="62.8439944483" lon="7.7988722197">
>>>>>>> e1d4bc35ff8a6074a6f2e91616a996b547c36f15
		<tag k="name" v="Sollielva" />
		<tag k="ssr:stedsnr" v="337930" />
		<tag k="waterway" v="stream" />
	</node>
<<<<<<< HEAD
	<node lat="62.984100000503716" lon="7.8030749954448355" id="-5988">
		<tag k="name" v="Grønskaretjørna" />
		<tag k="natural" v="water" />
		<tag k="ssr:stedsnr" v="337977" />
	</node>
	<node lat="62.8957444453558" lon="8.090630564047627" id="-5990">
		<tag k="name" v="Raudbekken" />
		<tag k="ssr:stedsnr" v="337989" />
		<tag k="waterway" v="stream" />
	</node>
	<node lat="62.883244446250536" lon="7.8980138919415515" id="-6003">
		<tag k="name" v="Aurebekken" />
		<tag k="natural" v="water" />
		<tag k="ssr:stedsnr" v="338516" />
		<tag k="water" v="lake" />
	</node>
	<node lat="62.9103500010711" lon="8.081694448647715" id="-6005">
		<tag k="alt_name" v="Haltvikelva" />
		<tag k="name" v="Haltvikbekken" />
		<tag k="ssr:stedsnr" v="338537" />
		<tag k="waterway" v="stream" />
	</node>
	<node lat="62.96453333594145" lon="7.988933338829775" id="-6009">
		<tag k="name" v="Lamvikvatnet" />
		<tag k="natural" v="water" />
		<tag k="ssr:stedsnr" v="338662" />
		<tag k="water" v="lake" />
	</node>
	<node lat="62.864847224657694" lon="7.696094445227059" id="-6012">
		<tag k="name" v="Søre Steinbekken" />
		<tag k="ssr:stedsnr" v="338732" />
		<tag k="waterway" v="stream" />
	</node>
	<node lat="62.88324166960514" lon="7.699369434682576" id="-6014">
		<tag k="alt_name" v="Nør Elva" />
		<tag k="name" v="Nordre elva" />
		<tag k="ssr:stedsnr" v="338741" />
		<tag k="waterway" v="stream" />
	</node>
	<node lat="62.856033331297766" lon="7.669858334451711" id="-6017">
		<tag k="name" v="Karibekken" />
		<tag k="ssr:stedsnr" v="338820" />
		<tag k="waterway" v="stream" />
	</node>
	<node lat="62.883241669193346" lon="8.011463882295695" id="-6021">
		<tag k="name" v="Langneset" />
		<tag k="natural" v="cape" />
		<tag k="ssr:stedsnr" v="338574" />
	</node>
	<node lat="62.87239444521857" lon="8.085558324716837" id="-6022">
		<tag k="name" v="Hammarløkan" />
		<tag k="ssr:stedsnr" v="338582" />
		<tag k="waterway" v="stream" />
	</node>
	<node lat="62.88328333558316" lon="8.040277779893122" id="-6023">
		<tag k="name" v="Kvernhushølen" />
		<tag k="place" v="locality" />
		<tag k="ssr:stedsnr" v="338590" />
	</node>
	<node lat="62.85335555697781" lon="7.604547216303589" id="-6025">
		<tag k="name" v="Fursetelva" />
		<tag k="ssr:stedsnr" v="338785" />
		<tag k="waterway" v="stream" />
	</node>
	<node lat="62.895147220124755" lon="8.078027779960602" id="-6033">
		<tag k="name" v="Haltlibekken" />
		<tag k="ssr:stedsnr" v="338991" />
		<tag k="waterway" v="stream" />
	</node>
	<node lat="62.940177776566806" lon="7.729511106083508" id="-6044">
		<tag k="name" v="Knutsetelva" />
		<tag k="ssr:stedsnr" v="375922" />
		<tag k="waterway" v="stream" />
	</node>
	<node lat="62.835786107645006" lon="7.549761112108997" id="-6048">
		<tag k="alt_name" v="Raudheivatnet;Raudheitjønna" />
		<tag k="name" v="Raudheitjørna" />
		<tag k="natural" v="water" />
		<tag k="ssr:stedsnr" v="376715" />
	</node>
	<node lat="62.881430557214735" lon="7.901072227573197" id="-6051">
		<tag k="name" v="Heggemsvatnet" />
		<tag k="natural" v="water" />
		<tag k="ssr:stedsnr" v="376978" />
		<tag k="water" v="lake" />
	</node>
	<node lat="62.87075277856732" lon="7.623305556099973" id="-6065">
		<tag k="name" v="Stutøya" />
		<tag k="place" v="island" />
		<tag k="ssr:stedsnr" v="398092" />
	</node>
	<node lat="62.85893610915796" lon="7.932933338651807" id="-6072">
		<tag k="name" v="Litlsanden" />
		<tag k="natural" v="beach" />
		<tag k="ssr:stedsnr" v="398920" />
	</node>
	<node lat="62.905713891743474" lon="7.661663879682321" id="-6073">
		<tag k="name" v="Storfossen" />
		<tag k="natural" v="waterfall" />
		<tag k="ssr:stedsnr" v="398854" />
	</node>
	<node lat="62.9228277789062" lon="7.798058326928795" id="-6076">
		<tag k="name" v="Dønnemselva" />
		<tag k="ssr:stedsnr" v="398944" />
		<tag k="waterway" v="river" />
	</node>
	<node lat="62.90938611207188" lon="7.8962944486237365" id="-6086">
		<tag k="name" v="Kvernbekken" />
		<tag k="natural" v="water" />
		<tag k="ssr:stedsnr" v="399561" />
		<tag k="water" v="lake" />
	</node>
	<node lat="62.86467222482052" lon="7.877555546423762" id="-6087">
		<tag k="name" v="Asplibekken" />
		<tag k="natural" v="water" />
		<tag k="ssr:stedsnr" v="399516" />
		<tag k="water" v="lake" />
	</node>
	<node lat="62.91652499782548" lon="7.840188884225773" id="-6088">
		<tag k="name" v="Stokkdalsbekken" />
		<tag k="natural" v="water" />
		<tag k="ssr:stedsnr" v="399521" />
		<tag k="water" v="lake" />
	</node>
	<node lat="62.92454166790935" lon="7.6086388824451365" id="-6095">
		<tag k="name" v="Sevikelva" />
		<tag k="ssr:stedsnr" v="399818" />
		<tag k="waterway" v="stream" />
	</node>
	<node lat="62.83771944708148" lon="7.867155561635958" id="-6096">
		<tag k="name" v="Vettalibukta" />
		<tag k="natural" v="bay" />
		<tag k="ssr:stedsnr" v="399936" />
	</node>
	<node lat="62.88870833343186" lon="8.076930561937433" id="-6099">
		<tag k="name" v="Sandabekken" />
		<tag k="ssr:stedsnr" v="399639" />
		<tag k="waterway" v="stream" />
	</node>
	<node lat="62.934636110209325" lon="7.975886107287059" id="-6101">
		<tag k="name" v="Tverrelva" />
		<tag k="ssr:stedsnr" v="399649" />
		<tag k="waterway" v="stream" />
	</node>
	<node lat="62.85118333482272" lon="8.106374990916313" id="-6103">
		<tag k="name" v="Høybrudalselva" />
		<tag k="ssr:stedsnr" v="399659" />
		<tag k="waterway" v="stream" />
	</node>
	<node lat="62.8903361079739" lon="7.703322225862103" id="-6112">
		<tag k="name" v="Nåstadbekken" />
		<tag k="ssr:stedsnr" v="436579" />
		<tag k="waterway" v="stream" />
	</node>
	<node lat="62.95223055603352" lon="7.672411102357386" id="-6122">
		<tag k="name" v="Stokkelva" />
		<tag k="ssr:stedsnr" v="436989" />
		<tag k="waterway" v="stream" />
	</node>
	<node lat="62.87118055191043" lon="7.910144453761163" id="-6124">
		<tag k="alt_name" v="Fostra" />
		<tag k="name" v="Sagelva" />
		<tag k="ssr:stedsnr" v="437528" />
		<tag k="waterway" v="stream" />
	</node>
	<node lat="62.86871389198848" lon="8.089125001924778" id="-6136">
		<tag k="name" v="Steinaslættbekken" />
		<tag k="ssr:stedsnr" v="497486" />
		<tag k="waterway" v="stream" />
	</node>
	<node lat="62.86913333762416" lon="7.7612611165398215" id="-6138">
		<tag k="name" v="Trollvatnet" />
		<tag k="natural" v="water" />
		<tag k="ssr:stedsnr" v="497492" />
		<tag k="water" v="lake" />
	</node>
	<node lat="62.92223333669135" lon="8.05150556162404" id="-6141">
		<tag k="name" v="Flemelva" />
		<tag k="ssr:stedsnr" v="497954" />
		<tag k="waterway" v="river" />
	</node>
	<node lat="62.88117499751709" lon="7.843269445851119" id="-6145">
		<tag k="name" v="Seterbekken" />
		<tag k="ssr:stedsnr" v="497976" />
		<tag k="waterway" v="stream" />
	</node>
	<node lat="62.8454388876621" lon="8.098036110347904" id="-6154">
		<tag k="name" v="Vikaelva" />
		<tag k="ssr:stedsnr" v="519185" />
		<tag k="waterway" v="stream" />
	</node>
	<node lat="62.891624999774685" lon="8.000386103351829" id="-6155">
		<tag k="alt_name" v="Svartbekken" />
		<tag k="name" v="Svartelva" />
		<tag k="ssr:stedsnr" v="520586" />
		<tag k="waterway" v="stream" />
	</node>
	<node lat="62.948533332980965" lon="7.734833325176621" id="-6156">
		<tag k="name" v="Hamraelva" />
		<tag k="ssr:stedsnr" v="519898" />
		<tag k="waterway" v="stream" />
	</node>
	<node lat="62.9592194432334" lon="7.901916672833209" id="-6159">
		<tag k="name" v="Slættet" />
		<tag k="ssr:stedsnr" v="520131" />
		<tag k="waterway" v="drain" />
	</node>
	<node lat="62.862530557112855" lon="7.839694440369345" id="-6164">
		<tag k="name" v="Ytterelva" />
		<tag k="ssr:stedsnr" v="520195" />
		<tag k="waterway" v="stream" />
	</node>
	<node lat="62.89307777643996" lon="8.038802779941653" id="-6165">
		<tag k="name" v="Sneppå" />
		<tag k="ssr:stedsnr" v="520227" />
		<tag k="waterway" v="drain" />
	</node>
	<node lat="62.90343055824983" lon="8.0911527713546" id="-6170">
		<tag k="name" v="Kårstubekken" />
		<tag k="ssr:stedsnr" v="520588" />
		<tag k="waterway" v="stream" />
	</node>
	<node lat="62.887088892256024" lon="7.994227772655775" id="-6176">
		<tag k="name" v="Svartelva" />
		<tag k="ssr:stedsnr" v="520634" />
		<tag k="waterway" v="stream" />
	</node>
	<node lat="62.90309444491324" lon="7.77054999091426" id="-6182">
		<tag k="name" v="Braslibekken" />
		<tag k="ssr:stedsnr" v="520795" />
		<tag k="waterway" v="stream" />
	</node>
	<node lat="62.936258335125814" lon="8.035397223177888" id="-6184">
		<tag k="name" v="Samendalsbekken" />
		<tag k="natural" v="water" />
		<tag k="ssr:stedsnr" v="520555" />
		<tag k="water" v="lake" />
	</node>
	<node lat="62.88915555441596" lon="7.641324995501819" id="-6190">
		<tag k="name" v="Glennbekken" />
		<tag k="ssr:stedsnr" v="520892" />
		<tag k="waterway" v="stream" />
	</node>
	<node lat="62.91274166962675" lon="7.916772215553813" id="-6191">
		<tag k="name" v="Trøbekken" />
		<tag k="ssr:stedsnr" v="521735" />
		<tag k="waterway" v="stream" />
	</node>
	<node lat="62.86543611224232" lon="7.571669448640255" id="-6195">
		<tag k="name" v="Kvernelva" />
		<tag k="ssr:stedsnr" v="557634" />
		<tag k="waterway" v="stream" />
	</node>
	<node lat="62.91036388811163" lon="7.817966658030524" id="-6202">
		<tag k="name" v="Midtvatnet" />
		<tag k="natural" v="water" />
		<tag k="ssr:stedsnr" v="557931" />
	</node>
	<node lat="62.961377776655105" lon="7.724016661960349" id="-6205">
		<tag k="name" v="Svortåvatnet" />
		<tag k="natural" v="water" />
		<tag k="ssr:stedsnr" v="557889" />
	</node>
	<node lat="62.852100002942514" lon="8.044183328668051" id="-6213">
		<tag k="name" v="Brutjørna" />
		<tag k="natural" v="water" />
		<tag k="ssr:stedsnr" v="558553" />
	</node>
	<node lat="62.82248888481123" lon="7.926352770310412" id="-6217">
		<tag k="name" v="Djupdalsbekken" />
		<tag k="ssr:stedsnr" v="558587" />
		<tag k="waterway" v="stream" />
	</node>
	<node lat="62.84499722200873" lon="7.901169450447444" id="-6219">
		<tag k="name" v="Åneset" />
		<tag k="natural" v="cape" />
		<tag k="ssr:stedsnr" v="579186" />
	</node>
	<node lat="62.91526666421869" lon="7.888783332568871" id="-6229">
		<tag k="name" v="Røkbekken" />
		<tag k="natural" v="water" />
		<tag k="ssr:stedsnr" v="580486" />
		<tag k="water" v="lake" />
	</node>
	<node lat="62.965238889316375" lon="8.020124995232305" id="-6230">
		<tag k="name" v="Kjerkjeberget" />
		<tag k="natural" v="shoal" />
		<tag k="place" v="locality" />
		<tag k="ssr:stedsnr" v="580517" />
	</node>
	<node lat="62.83206388888243" lon="7.82755555095316" id="-6235">
		<tag k="name" v="Dyrliløken" />
		<tag k="ssr:stedsnr" v="580934" />
		<tag k="waterway" v="river" />
	</node>
	<node lat="62.91552499983957" lon="7.755813885238247" id="-6236">
		<tag k="name" v="Sørbekken" />
		<tag k="ssr:stedsnr" v="580937" />
		<tag k="waterway" v="stream" />
	</node>
	<node lat="62.897772217854396" lon="7.948705547358293" id="-6240">
		<tag k="name" v="Øyelva" />
		<tag k="ssr:stedsnr" v="581169" />
		<tag k="waterway" v="stream" />
	</node>
	<node lat="62.962730553501345" lon="7.917591665554084" id="-6248">
		<tag k="name" v="Søråkeren" />
		<tag k="ssr:stedsnr" v="581584" />
		<tag k="waterway" v="drain" />
	</node>
	<node lat="62.92329444244527" lon="7.841063888757069" id="-6250">
		<tag k="name" v="Bjørnaråbekken" />
		<tag k="natural" v="water" />
		<tag k="ssr:stedsnr" v="581529" />
		<tag k="water" v="lake" />
	</node>
	<node lat="62.967047224222355" lon="7.9835444490935314" id="-6251">
		<tag k="name" v="Kvalvågelva" />
		<tag k="ssr:stedsnr" v="581714" />
		<tag k="waterway" v="stream" />
	</node>
	<node lat="62.89871666685594" lon="7.708833323658044" id="-6262">
		<tag k="name" v="Lauvvollbekken" />
		<tag k="ssr:stedsnr" v="618600" />
		<tag k="waterway" v="stream" />
	</node>
	<node lat="62.91210555705176" lon="7.6139083423728415" id="-6265">
		<tag k="name" v="Nebbvatna" />
		<tag k="natural" v="water" />
		<tag k="ssr:stedsnr" v="618559" />
	</node>
	<node lat="62.85397222326772" lon="7.863611107285716" id="-6277">
		<tag k="name" v="Duelva" />
		<tag k="ssr:stedsnr" v="619554" />
		<tag k="waterway" v="river" />
	</node>
	<node lat="62.8462222233717" lon="7.986786118876543" id="-6279">
		<tag k="name" v="Litlvatnet" />
		<tag k="natural" v="water" />
		<tag k="ssr:stedsnr" v="619874" />
	</node>
	<node lat="62.95075555647047" lon="7.756450001788413" id="-6301">
		<tag k="name" v="Jutulelva" />
		<tag k="ssr:stedsnr" v="640949" />
		<tag k="waterway" v="stream" />
	</node>
	<node lat="62.928688890241496" lon="7.840044445383332" id="-6313">
		<tag k="name" v="Stordalsbekken" />
		<tag k="natural" v="water" />
		<tag k="ssr:stedsnr" v="641443" />
		<tag k="water" v="lake" />
	</node>
	<node lat="62.890802778613434" lon="7.829900009423686" id="-6315">
		<tag k="name" v="Bytbekken" />
		<tag k="natural" v="water" />
		<tag k="ssr:stedsnr" v="641457" />
		<tag k="water" v="lake" />
	</node>
	<node lat="62.89557499624541" lon="7.994255553494007" id="-6318">
		<tag k="name" v="Sagbekken" />
		<tag k="ssr:stedsnr" v="641544" />
		<tag k="waterway" v="stream" />
	</node>
	<node lat="62.94580833228431" lon="8.022619450647246" id="-6320">
		<tag k="name" v="Gallstøbekken" />
		<tag k="natural" v="water" />
		<tag k="ssr:stedsnr" v="641512" />
		<tag k="water" v="lake" />
	</node>
	<node lat="62.856211110376904" lon="7.4821638808202415" id="-6325">
		<tag k="name" v="Fagerdalstjønna" />
		<tag k="natural" v="water" />
		<tag k="ssr:stedsnr" v="641732" />
	</node>
	<node lat="62.8641388871312" lon="7.666286103341316" id="-6329">
		<tag k="name" v="Petterneset" />
		<tag k="natural" v="cape" />
		<tag k="ssr:stedsnr" v="641799" />
	</node>
	<node lat="62.95025277712352" lon="7.989852772905662" id="-6343">
		<tag k="name" v="Langvatnet" />
		<tag k="natural" v="water" />
		<tag k="ssr:stedsnr" v="739923" />
		<tag k="water" v="lake" />
	</node>
	<node lat="62.870819440062284" lon="7.709019451566895" id="-6345">
		<tag k="name" v="Litlvatnet" />
		<tag k="natural" v="water" />
		<tag k="ssr:stedsnr" v="740616" />
	</node>
	<node lat="62.93047499778062" lon="8.085716669786388" id="-6366">
		<tag k="name" v="Breivika" />
		<tag k="natural" v="cape" />
		<tag k="ssr:stedsnr" v="763199" />
	</node>
	<node lat="62.956338885438285" lon="8.03038333889307" id="-6370">
		<tag k="name" v="Litlelva" />
		<tag k="natural" v="water" />
		<tag k="ssr:stedsnr" v="763238" />
		<tag k="water" v="lake" />
	</node>
	<node lat="62.86860277487369" lon="7.911325001747443" id="-6371">
		<tag k="name" v="Sagmyra" />
		<tag k="ssr:stedsnr" v="763239" />
		<tag k="waterway" v="stream" />
	</node>
	<node lat="62.94798889212523" lon="7.8856305550240275" id="-6383">
		<tag k="name" v="Skarbekken" />
		<tag k="natural" v="water" />
		<tag k="ssr:stedsnr" v="763562" />
		<tag k="water" v="lake" />
	</node>
	<node lat="62.8730527806436" lon="8.093730553719038" id="-6385">
		<tag k="name" v="Hammarelva" />
		<tag k="ssr:stedsnr" v="763645" />
		<tag k="waterway" v="stream" />
	</node>
	<node lat="62.92910833285412" lon="8.002430555857039" id="-6387">
		<tag k="name" v="Stordalsbekken" />
		<tag k="ssr:stedsnr" v="763655" />
		<tag k="waterway" v="stream" />
	</node>
	<node lat="62.935913889834474" lon="7.595319452474072" id="-6394">
		<tag k="name" v="Buktatjønna" />
		<tag k="natural" v="water" />
		<tag k="ssr:stedsnr" v="763827" />
	</node>
	<node lat="62.89290000397269" lon="7.798647212904462" id="-6402">
		<tag k="name" v="Duskarselva" />
		<tag k="ssr:stedsnr" v="763776" />
		<tag k="waterway" v="stream" />
	</node>
	<node lat="62.865275002566364" lon="7.603994449242084" id="-6405">
=======
	<node id="-80530" lat="62.8814416688" lon="7.6944611163">
		<tag k="name" v="Søre elva" />
		<tag k="ssr:stedsnr" v="337847" />
		<tag k="waterway" v="stream" />
	</node>
	<node id="-80528" lat="62.9531972179" lon="8.04893888927">
		<tag k="name" v="Småvikan" />
		<tag k="natural" v="cape" />
		<tag k="ssr:stedsnr" v="338195" />
	</node>
	<node id="-80527" lat="62.9453611143" lon="8.04563889252">
		<tag k="name" v="Liaelva" />
		<tag k="natural" v="water" />
		<tag k="ssr:stedsnr" v="338193" />
		<tag k="water" v="lake" />
	</node>
	<node id="-80517" lat="62.8375472249" lon="7.85876943482">
		<tag k="name" v="Tjørnin" />
		<tag k="natural" v="water" />
		<tag k="ssr:stedsnr" v="337116" />
	</node>
	<node id="-80499" lat="62.920088889" lon="8.00831667092">
		<tag k="name" v="Flemsetervatnet" />
		<tag k="natural" v="water" />
		<tag k="ssr:stedsnr" v="315946" />
	</node>
	<node id="-80494" lat="62.916033329" lon="7.68176666541">
		<tag k="name" v="Rødelva" />
		<tag k="ssr:stedsnr" v="315569" />
		<tag k="waterway" v="stream" />
	</node>
	<node id="-80493" lat="62.914633329" lon="7.62355277696">
		<tag k="name" v="Langvatnet" />
		<tag k="natural" v="water" />
		<tag k="ssr:stedsnr" v="315567" />
	</node>
	<node id="-80491" lat="62.8793638857" lon="7.61173611616">
		<tag k="name" v="Tørrisbekken" />
		<tag k="ssr:stedsnr" v="315637" />
		<tag k="waterway" v="stream" />
	</node>
	<node id="-80489" lat="62.8398111078" lon="7.83986666586">
		<tag k="name" v="Bjorbekken" />
		<tag k="ssr:stedsnr" v="315528" />
		<tag k="waterway" v="stream" />
	</node>
	<node id="-80484" lat="62.9238416622" lon="7.68261944098">
		<tag k="name" v="Dunadteigelva" />
		<tag k="ssr:stedsnr" v="315526" />
		<tag k="waterway" v="stream" />
	</node>
	<node id="-80483" lat="62.9436972217" lon="7.92989443688">
		<tag k="name" v="Ranemsvatnet" />
		<tag k="natural" v="water" />
		<tag k="ssr:stedsnr" v="314898" />
	</node>
	<node id="-80482" lat="62.910502781" lon="7.65496943577">
		<tag k="name" v="Astadelva" />
		<tag k="ssr:stedsnr" v="314593" />
		<tag k="waterway" v="stream" />
	</node>
	<node id="-80471" lat="62.8804499964" lon="8.02760832735">
		<tag k="name" v="Angvikelva" />
		<tag k="ssr:stedsnr" v="194981" />
		<tag k="waterway" v="river" />
	</node>
	<node id="-80469" lat="62.882436111" lon="7.9481527702">
		<tag k="name" v="Holåvatnet" />
		<tag k="natural" v="water" />
		<tag k="ssr:stedsnr" v="194966" />
	</node>
	<node id="-80463" lat="62.8771666663" lon="7.6686277818">
		<tag k="name" v="Skardbekken" />
		<tag k="ssr:stedsnr" v="194586" />
		<tag k="waterway" v="stream" />
	</node>
	<node id="-80462" lat="62.839944442" lon="7.43346943577">
		<tag k="name" v="Litlvatnet" />
		<tag k="natural" v="water" />
		<tag k="ssr:stedsnr" v="194685" />
	</node>
	<node id="-80456" lat="62.8927277764" lon="7.70191667476">
		<tag k="name" v="Ørabekken" />
		<tag k="ssr:stedsnr" v="194545" />
		<tag k="waterway" v="stream" />
	</node>
	<node id="-80451" lat="62.8540722259" lon="7.50529999624">
		<tag k="name" v="Lågåsvatnet" />
		<tag k="natural" v="water" />
		<tag k="ssr:stedsnr" v="193644" />
	</node>
	<node id="-80450" lat="62.8530833326" lon="7.47984722009">
		<tag k="name" v="Fagerdalsvatnet" />
		<tag k="natural" v="water" />
		<tag k="ssr:stedsnr" v="193642" />
	</node>
	<node id="-80438" lat="62.865533333" lon="7.68305277555">
		<tag k="name" v="Nordre Steinbekken" />
		<tag k="ssr:stedsnr" v="156831" />
		<tag k="waterway" v="stream" />
	</node>
	<node id="-80430" lat="62.963022219" lon="7.76635556256">
		<tag k="name" v="Hogsetbekken" />
		<tag k="ssr:stedsnr" v="156773" />
		<tag k="waterway" v="stream" />
	</node>
	<node id="-80429" lat="62.9396361135" lon="7.74119166256">
		<tag k="name" v="Pekaribekken" />
		<tag k="ssr:stedsnr" v="156767" />
		<tag k="waterway" v="stream" />
	</node>
	<node id="-80428" lat="62.9271444487" lon="7.65711388345">
		<tag k="name" v="Storfjelltjønna" />
		<tag k="natural" v="water" />
		<tag k="ssr:stedsnr" v="156761" />
	</node>
	<node id="-80426" lat="62.8443777816" lon="7.5181749996">
		<tag k="name" v="Lågåsbekken" />
		<tag k="ssr:stedsnr" v="156748" />
		<tag k="waterway" v="stream" />
	</node>
	<node id="-80425" lat="62.9048611147" lon="7.89196945151">
		<tag k="name" v="Krusbekken" />
		<tag k="natural" v="water" />
		<tag k="ssr:stedsnr" v="156693" />
		<tag k="water" v="lake" />
	</node>
	<node id="-80422" lat="62.9640999974" lon="7.96552777914">
		<tag k="name" v="Brekkvatnet" />
		<tag k="natural" v="water" />
		<tag k="ssr:stedsnr" v="156667" />
	</node>
	<node id="-80421" lat="62.8561583296" lon="8.0992388954">
		<tag k="name" v="Innleggsbekken" />
		<tag k="ssr:stedsnr" v="156653" />
		<tag k="waterway" v="stream" />
	</node>
	<node id="-80416" lat="62.9208777772" lon="8.11940833434">
		<tag k="name" v="Vorpneset" />
		<tag k="natural" v="shoal" />
		<tag k="place" v="locality" />
		<tag k="ssr:stedsnr" v="156594" />
	</node>
	<node id="-80406" lat="62.9312972257" lon="8.00845000793">
		<tag k="name" v="Stordalsbekken" />
		<tag k="natural" v="water" />
		<tag k="ssr:stedsnr" v="156534" />
		<tag k="water" v="lake" />
	</node>
	<node id="-80405" lat="62.9149638902" lon="8.03858887922">
		<tag k="name" v="Søkkjemyra" />
		<tag k="ssr:stedsnr" v="156530" />
		<tag k="waterway" v="stream" />
	</node>
	<node id="-80398" lat="62.8784694441" lon="8.00078610942">
		<tag k="name" v="Motjørna" />
		<tag k="natural" v="water" />
		<tag k="ssr:stedsnr" v="156201" />
	</node>
	<node id="-80397" lat="62.9513805541" lon="8.0469416622">
		<tag k="name" v="Ura" />
		<tag k="ssr:stedsnr" v="156192" />
		<tag k="waterway" v="rapids" />
	</node>
	<node id="-80391" lat="62.959658337" lon="7.9063138821">
		<tag k="name" v="Oterura" />
		<tag k="ssr:stedsnr" v="156139" />
		<tag k="waterway" v="rapids" />
	</node>
	<node id="-80390" lat="62.9626194416" lon="7.93876667468">
		<tag k="name" v="Kuneset" />
		<tag k="natural" v="shoal" />
		<tag k="place" v="locality" />
		<tag k="ssr:stedsnr" v="156137" />
	</node>
	<node id="-80380" lat="62.9748861123" lon="7.85480833248">
		<tag k="name" v="Hjortabekken" />
		<tag k="ssr:stedsnr" v="155955" />
		<tag k="waterway" v="stream" />
	</node>
	<node id="-80376" lat="62.942366664" lon="7.74166945224">
		<tag k="name" v="Myrabekken" />
		<tag k="ssr:stedsnr" v="155883" />
		<tag k="waterway" v="stream" />
	</node>
	<node id="-80375" lat="62.9474666685" lon="7.86417222026">
		<tag k="name" v="Hamnneset" />
		<tag k="natural" v="shoal" />
		<tag k="place" v="locality" />
		<tag k="ssr:stedsnr" v="155480" />
	</node>
	<node id="-80374" lat="62.9358777789" lon="7.83691388286">
		<tag k="name" v="Ramslibekken" />
		<tag k="natural" v="water" />
		<tag k="ssr:stedsnr" v="155475" />
		<tag k="water" v="lake" />
	</node>
	<node id="-80352" lat="62.8742583374" lon="7.82323333065">
		<tag k="name" v="Duskarbekken" />
		<tag k="ssr:stedsnr" v="133976" />
		<tag k="waterway" v="stream" />
	</node>
	<node id="-80344" lat="62.8337861145" lon="7.45299999499">
		<tag k="name" v="Skjenstøa" />
		<tag k="ssr:stedsnr" v="133674" />
		<tag k="waterway" v="river" />
	</node>
	<node id="-80342" lat="62.8372388847" lon="8.00739721688">
		<tag k="name" v="Raudåa" />
		<tag k="ssr:stedsnr" v="133501" />
		<tag k="waterway" v="stream" />
	</node>
	<node id="-80340" lat="62.8301499966" lon="7.81164722974">
		<tag k="name" v="Dyrlielva" />
		<tag k="ssr:stedsnr" v="133486" />
		<tag k="waterway" v="stream" />
	</node>
	<node id="-80333" lat="62.9116277782" lon="7.67438611063">
		<tag k="alt_name" v="Nessaelva" />
		<tag k="name" v="Nesaelva" />
		<tag k="ssr:stedsnr" v="132578" />
		<tag k="waterway" v="stream" />
	</node>
	<node id="-80332" lat="62.8564999958" lon="7.67905278438">
		<tag k="name" v="Silsetvatnet" />
		<tag k="natural" v="water" />
		<tag k="ssr:stedsnr" v="132673" />
		<tag k="water" v="lake" />
	</node>
	<node id="-80323" lat="62.8540527761" lon="7.58906666658">
		<tag k="name" v="Skadalselva" />
		<tag k="ssr:stedsnr" v="96799" />
		<tag k="waterway" v="river" />
	</node>
	<node id="-80321" lat="62.89224722" lon="7.81092221582">
		<tag k="name" v="Gammelseterbekken" />
		<tag k="ssr:stedsnr" v="96794" />
		<tag k="waterway" v="stream" />
	</node>
	<node id="-80320" lat="62.8970333353" lon="7.76391111837">
		<tag k="name" v="Døftabekken" />
		<tag k="ssr:stedsnr" v="96786" />
		<tag k="waterway" v="stream" />
	</node>
	<node id="-80317" lat="62.8783611143" lon="8.01516110778">
		<tag k="name" v="Grøntjønna" />
		<tag k="natural" v="water" />
		<tag k="ssr:stedsnr" v="96687" />
	</node>
	<node id="-80315" lat="62.9198166705" lon="8.07630555392">
		<tag k="name" v="Turtlibekken" />
		<tag k="natural" v="water" />
		<tag k="ssr:stedsnr" v="96596" />
		<tag k="water" v="lake" />
	</node>
	<node id="-80306" lat="62.8536277747" lon="8.09896111417">
		<tag k="name" v="Hagaelva" />
		<tag k="ssr:stedsnr" v="96233" />
		<tag k="waterway" v="stream" />
	</node>
	<node id="-80304" lat="62.872072218" lon="7.76268055061">
		<tag k="name" v="Holmen" />
		<tag k="place" v="islet" />
		<tag k="ssr:stedsnr" v="96197" />
	</node>
	<node id="-80299" lat="62.8845972179" lon="7.91234722662">
		<tag k="name" v="Bømyra" />
		<tag k="ssr:stedsnr" v="96147" />
		<tag k="waterway" v="stream" />
	</node>
	<node id="-80294" lat="62.8333333364" lon="7.99610278416">
		<tag k="name" v="Skrøvdalsbekken" />
		<tag k="ssr:stedsnr" v="95566" />
		<tag k="waterway" v="stream" />
	</node>
	<node id="-80293" lat="62.9015611121" lon="8.0538138952">
		<tag k="name" v="Ruskholet" />
		<tag k="ssr:stedsnr" v="95559" />
		<tag k="waterway" v="stream" />
	</node>
	<node id="-80292" lat="62.9414999973" lon="8.03970555015">
		<tag k="name" v="Tverrelva" />
		<tag k="natural" v="water" />
		<tag k="ssr:stedsnr" v="95496" />
		<tag k="water" v="lake" />
	</node>
	<node id="-80288" lat="62.908205556" lon="8.03029166976">
		<tag k="name" v="Vargmyra" />
		<tag k="ssr:stedsnr" v="95178" />
		<tag k="waterway" v="stream" />
	</node>
	<node id="-80275" lat="62.9047777752" lon="7.95494722941">
		<tag k="name" v="Forolbekken" />
		<tag k="ssr:stedsnr" v="94998" />
		<tag k="waterway" v="stream" />
	</node>
	<node id="-80273" lat="62.9503888859" lon="7.84654444153">
		<tag k="name" v="Nesabukta" />
		<tag k="natural" v="cape" />
		<tag k="ssr:stedsnr" v="94586" />
	</node>
	<node id="-80271" lat="62.9390916647" lon="7.85985555394">
		<tag k="name" v="Åsabekken" />
		<tag k="natural" v="water" />
		<tag k="ssr:stedsnr" v="94575" />
		<tag k="water" v="lake" />
	</node>
	<node id="-80262" lat="62.8569277775" lon="7.98639722459">
		<tag k="name" v="Åbakkelva" />
		<tag k="ssr:stedsnr" v="73542" />
		<tag k="waterway" v="stream" />
	</node>
	<node id="-80256" lat="62.9645361116" lon="7.72391666835">
		<tag k="name" v="Svortåa" />
		<tag k="ssr:stedsnr" v="72890" />
		<tag k="waterway" v="stream" />
	</node>
	<node id="-80230" lat="62.9051666646" lon="7.7173361172">
		<tag k="name" v="Tørrisetelva" />
		<tag k="ssr:stedsnr" v="35884" />
		<tag k="waterway" v="stream" />
	</node>
	<node id="-80228" lat="62.8791333346" lon="7.63260277832">
		<tag k="name" v="Kvennaelva" />
		<tag k="ssr:stedsnr" v="35859" />
		<tag k="waterway" v="river" />
	</node>
	<node id="-80220" lat="62.9007805552" lon="7.75914166876">
		<tag k="name" v="Fjellmyrbekken" />
		<tag k="ssr:stedsnr" v="35805" />
		<tag k="waterway" v="stream" />
	</node>
	<node id="-80218" lat="62.8317361097" lon="7.41448333967">
		<tag k="name" v="Botnagrova" />
		<tag k="ssr:stedsnr" v="35796" />
		<tag k="waterway" v="stream" />
	</node>
	<node id="-80214" lat="62.8597222247" lon="7.78517778142">
		<tag k="name" v="Nedre Seterbekken" />
		<tag k="ssr:stedsnr" v="35776" />
		<tag k="waterway" v="stream" />
	</node>
	<node id="-80210" lat="62.9419416698" lon="7.91392222322">
		<tag k="name" v="Kvennabakkan" />
		<tag k="natural" v="water" />
		<tag k="ssr:stedsnr" v="35729" />
		<tag k="water" v="lake" />
	</node>
	<node id="-80206" lat="62.9607666681" lon="7.95344721241">
		<tag k="name" v="Øygardsbekken" />
		<tag k="ssr:stedsnr" v="35690" />
		<tag k="waterway" v="stream" />
	</node>
	<node id="-80202" lat="62.8462944475" lon="7.99204443733">
		<tag k="alt_name" v="Søbekken;Sørbekken" />
		<tag k="name" v="Litlvassbekken" />
		<tag k="ssr:stedsnr" v="35657" />
		<tag k="waterway" v="stream" />
	</node>
	<node id="-80177" lat="62.8780333341" lon="7.81834444377">
		<tag k="name" v="Fossen" />
		<tag k="natural" v="waterfall" />
		<tag k="ssr:stedsnr" v="35202" />
	</node>
	<node id="-80170" lat="62.9364666653" lon="7.88541111586">
		<tag k="name" v="Myrdålå" />
		<tag k="natural" v="water" />
		<tag k="ssr:stedsnr" v="35162" />
		<tag k="water" v="lake" />
	</node>
	<node id="-80158" lat="62.8367333298" lon="7.85376388937">
		<tag k="name" v="Ner Duåskverna" />
		<tag k="place" v="locality" />
		<tag k="ssr:stedsnr" v="34935" />
	</node>
	<node id="-80156" lat="62.8823527776" lon="7.80870554589">
		<tag k="name" v="Tortlibekken" />
		<tag k="ssr:stedsnr" v="34923" />
		<tag k="waterway" v="stream" />
	</node>
	<node id="-80127" lat="62.8804194463" lon="8.01595000375">
		<tag k="name" v="Aspåsmyran" />
		<tag k="natural" v="water" />
		<tag k="ssr:stedsnr" v="33990" />
	</node>
	<node id="-80120" lat="62.9008500023" lon="7.93549166028">
		<tag k="name" v="Øyvatnet" />
		<tag k="natural" v="water" />
		<tag k="ssr:stedsnr" v="12992" />
	</node>
	<node id="-80112" lat="62.8406333317" lon="7.58414444688">
		<tag k="name" v="Sørlielva" />
		<tag k="ssr:stedsnr" v="12691" />
		<tag k="waterway" v="stream" />
	</node>
	<node id="-80110" lat="62.862233337" lon="7.53161389318">
		<tag k="name" v="Ullalandsvatnet" />
		<tag k="natural" v="water" />
		<tag k="ssr:stedsnr" v="12676" />
	</node>
	<node id="-80107" lat="62.8431972198" lon="8.00558611367">
		<tag k="name" v="Langvatnet" />
		<tag k="natural" v="water" />
		<tag k="ssr:stedsnr" v="12548" />
		<tag k="water" v="lake" />
	</node>
	<node id="-80106" lat="62.8533222251" lon="8.0362861028">
		<tag k="name" v="Neverlitjørna" />
		<tag k="natural" v="water" />
		<tag k="ssr:stedsnr" v="12513" />
	</node>
	<node id="-80092" lat="62.8834472203" lon="8.01608888409">
		<tag k="name" v="Junen" />
		<tag k="natural" v="water" />
		<tag k="ssr:stedsnr" v="945214" />
		<tag k="water" v="lake" />
	</node>
	<node id="-80077" lat="62.9087527796" lon="7.90190833684">
		<tag k="name" v="Trøbakkbekken" />
		<tag k="ssr:stedsnr" v="216993" />
		<tag k="waterway" v="stream" />
	</node>
	<node id="-80076" lat="62.8343416642" lon="7.85541944048">
>>>>>>> e1d4bc35ff8a6074a6f2e91616a996b547c36f15
		<tag k="name" v="Skredbekken" />
		<tag k="ssr:stedsnr" v="885913" />
		<tag k="waterway" v="stream" />
	</node>
<<<<<<< HEAD
	<node lat="62.94139444299924" lon="7.8477861083553275" id="-6437">
		<tag k="name" v="Erikgardsbekken" />
		<tag k="natural" v="water" />
		<tag k="ssr:stedsnr" v="822995" />
		<tag k="water" v="lake" />
	</node>
	<node lat="62.869858331319634" lon="7.973738890179996" id="-6451">
		<tag k="name" v="Kubekken" />
		<tag k="ssr:stedsnr" v="824171" />
		<tag k="waterway" v="stream" />
	</node>
	<node lat="62.838536113631115" lon="7.495772224095912" id="-6455">
		<tag k="name" v="Fallhølen" />
		<tag k="place" v="locality" />
		<tag k="ssr:stedsnr" v="824228" />
	</node>
	<node lat="62.83810000336989" lon="7.49107499721981" id="-6456">
		<tag k="name" v="Litlfallhølen" />
		<tag k="place" v="locality" />
		<tag k="ssr:stedsnr" v="824229" />
	</node>
	<node lat="62.8381777813643" lon="7.4636055466584486" id="-6457">
		<tag k="name" v="Trolldalselva" />
		<tag k="ssr:stedsnr" v="824231" />
		<tag k="waterway" v="river" />
	</node>
	<node lat="62.84405833445224" lon="7.695955556895649" id="-6508">
		<tag k="name" v="Skallelva" />
		<tag k="ssr:stedsnr" v="870840" />
		<tag k="waterway" v="river" />
	</node>
	<node lat="62.91946667052321" lon="7.63828611724031" id="-6512">
		<tag k="name" v="Løken" />
		<tag k="ssr:stedsnr" v="883068" />
		<tag k="waterway" v="stream" />
	</node>
	<node lat="62.9417361127463" lon="7.6645138958500505" id="-6514">
		<tag k="name" v="Tverelva" />
		<tag k="ssr:stedsnr" v="883073" />
		<tag k="waterway" v="stream" />
	</node>
	<node lat="62.937013887753345" lon="7.903561119751448" id="-6530">
		<tag k="name" v="Lægdaelva" />
		<tag k="ssr:stedsnr" v="884471" />
		<tag k="waterway" v="stream" />
	</node>
	<node lat="62.84124722333751" lon="7.992230547715533" id="-6533">
		<tag k="name" v="Smådalsbekken" />
		<tag k="ssr:stedsnr" v="884569" />
		<tag k="waterway" v="stream" />
	</node>
	<node lat="62.87343055326" lon="7.8210638795221685" id="-6536">
		<tag k="name" v="Turtlibekken" />
		<tag k="natural" v="water" />
		<tag k="ssr:stedsnr" v="884432" />
		<tag k="water" v="lake" />
	</node>
	<node lat="62.92933889072045" lon="7.83357499122864" id="-6537">
		<tag k="name" v="Styggdalsbekken" />
		<tag k="natural" v="water" />
		<tag k="ssr:stedsnr" v="884437" />
		<tag k="water" v="lake" />
	</node>
	<node lat="62.89590555138781" lon="7.996538879912485" id="-6539">
		<tag k="name" v="Bytbekken" />
		<tag k="ssr:stedsnr" v="884534" />
		<tag k="waterway" v="stream" />
	</node>
	<node lat="62.87747222399633" lon="7.924225000364479" id="-6545">
		<tag k="name" v="Marlakan" />
		<tag k="natural" v="water" />
		<tag k="ssr:stedsnr" v="885135" />
		<tag k="water" v="lake" />
	</node>
	<node lat="62.90560833758929" lon="7.899574997093501" id="-6546">
		<tag k="name" v="Kausen" />
		<tag k="ssr:stedsnr" v="885138" />
		<tag k="waterway" v="stream" />
	</node>
	<node lat="62.935202775396704" lon="8.05976387979793" id="-6547">
		<tag k="name" v="Litlelva" />
		<tag k="natural" v="water" />
		<tag k="ssr:stedsnr" v="885243" />
		<tag k="water" v="lake" />
	</node>
	<node lat="62.98815833482336" lon="7.832294453319347" id="-6554">
		<tag k="name" v="Storvikelva" />
		<tag k="ssr:stedsnr" v="885734" />
		<tag k="waterway" v="stream" />
	</node>
	<node lat="62.90925000019729" lon="7.678338884718039" id="-6555">
		<tag k="name" v="Nessaelva" />
		<tag k="ssr:stedsnr" v="885752" />
		<tag k="waterway" v="stream" />
	</node>
	<node lat="62.888002778227175" lon="7.815880563637495" id="-6572">
		<tag k="name" v="Duskartjønna" />
		<tag k="natural" v="water" />
		<tag k="ssr:stedsnr" v="944928" />
	</node>
	<node lat="62.86281111017841" lon="7.879419438996547" id="-6574">
		<tag k="name" v="Gjøssmyran" />
		<tag k="ssr:stedsnr" v="944996" />
		<tag k="waterway" v="stream" />
	</node>
	<node lat="62.89328888498796" lon="7.664019438750406" id="-6580">
		<tag k="name" v="Dalabekken" />
		<tag k="ssr:stedsnr" v="944863" />
		<tag k="waterway" v="stream" />
	</node>
	<node lat="62.8664861105618" lon="8.096291660605914" id="-6602">
		<tag k="name" v="Sagbekken" />
		<tag k="ssr:stedsnr" v="945644" />
		<tag k="waterway" v="stream" />
	</node>
	<node lat="62.911077774844316" lon="7.616677776975876" id="-6607">
		<tag k="name" v="Litlvatnet" />
		<tag k="natural" v="water" />
		<tag k="ssr:stedsnr" v="945822" />
		<tag k="water" v="lake" />
	</node>
	<node lat="62.92707222223812" lon="8.073974994941736" id="-6610">
		<tag k="name" v="Dyrlimyrbekken" />
		<tag k="natural" v="water" />
		<tag k="ssr:stedsnr" v="945672" />
		<tag k="water" v="lake" />
	</node>
	<node lat="62.847780559515876" lon="7.42162500909077" id="-6613">
		<tag k="name" v="Skredbekken" />
		<tag k="ssr:stedsnr" v="945775" />
		<tag k="waterway" v="stream" />
	</node>
	<node lat="62.83016389078627" lon="7.835650004571675" id="-6617">
		<tag k="name" v="Aslakholmen" />
		<tag k="place" v="islet" />
		<tag k="ssr:stedsnr" v="945952" />
=======
	<node id="-80063" lat="62.9411833364" lon="7.88055277527">
		<tag k="name" v="Trøa" />
		<tag k="natural" v="waterfall" />
		<tag k="ssr:stedsnr" v="885221" />
	</node>
	<node id="-80061" lat="62.8635416695" lon="7.84694999272">
		<tag k="name" v="Seterelva" />
		<tag k="ssr:stedsnr" v="885216" />
		<tag k="waterway" v="river" />
	</node>
	<node id="-80056" lat="62.8412472233" lon="7.99223054772">
		<tag k="name" v="Smådalsbekken" />
		<tag k="ssr:stedsnr" v="884569" />
		<tag k="waterway" v="stream" />
	</node>
	<node id="-80055" lat="62.9418527745" lon="8.07048334219">
		<tag k="name" v="Djupdalsbukta" />
		<tag k="natural" v="cape" />
		<tag k="ssr:stedsnr" v="884521" />
	</node>
	<node id="-80052" lat="62.9370138878" lon="7.90356111975">
		<tag k="name" v="Lægdaelva" />
		<tag k="ssr:stedsnr" v="884471" />
		<tag k="waterway" v="stream" />
	</node>
	<node id="-80040" lat="62.8301638908" lon="7.83565000457">
		<tag k="name" v="Aslakholmen" />
		<tag k="place" v="islet" />
		<tag k="ssr:stedsnr" v="945952" />
	</node>
	<node id="-80033" lat="62.9110777748" lon="7.61667777698">
		<tag k="name" v="Litlvatnet" />
		<tag k="natural" v="water" />
		<tag k="ssr:stedsnr" v="945822" />
		<tag k="water" v="lake" />
	</node>
	<node id="-80032" lat="62.8593833299" lon="7.67117499249">
		<tag k="name" v="Selsolabukta" />
		<tag k="natural" v="bay" />
		<tag k="ssr:stedsnr" v="945813" />
	</node>
	<node id="-80031" lat="62.8622833317" lon="7.68802500357">
		<tag k="name" v="Søre Steinbekken" />
		<tag k="ssr:stedsnr" v="945808" />
		<tag k="waterway" v="stream" />
	</node>
	<node id="-80027" lat="62.8477805595" lon="7.42162500909">
		<tag k="name" v="Skredbekken" />
		<tag k="ssr:stedsnr" v="945775" />
		<tag k="waterway" v="stream" />
	</node>
	<node id="-80022" lat="62.9270722222" lon="8.07397499494">
		<tag k="name" v="Dyrlimyrbekken" />
		<tag k="natural" v="water" />
		<tag k="ssr:stedsnr" v="945672" />
		<tag k="water" v="lake" />
	</node>
	<node id="-80018" lat="62.8664861106" lon="8.09629166061">
		<tag k="name" v="Sagbekken" />
		<tag k="ssr:stedsnr" v="945644" />
		<tag k="waterway" v="stream" />
	</node>
	<node id="-80015" lat="62.9231361101" lon="8.00474166411">
		<tag k="name" v="Samendalsbekken" />
		<tag k="ssr:stedsnr" v="945603" />
		<tag k="waterway" v="stream" />
	</node>
	<node id="-80004" lat="62.8853166668" lon="7.8727194482">
		<tag k="name" v="Tverrteigen" />
		<tag k="ssr:stedsnr" v="945483" />
		<tag k="waterway" v="river" />
	</node>
	<node id="-79999" lat="62.8500527785" lon="7.87701666847">
		<tag k="name" v="Bessmorholmen" />
		<tag k="place" v="islet" />
		<tag k="ssr:stedsnr" v="945429" />
	</node>
	<node id="-79995" lat="62.8998111111" lon="8.07571110569">
		<tag k="name" v="Løkan" />
		<tag k="ssr:stedsnr" v="945202" />
		<tag k="waterway" v="stream" />
	</node>
	<node id="-79980" lat="62.8628111102" lon="7.879419439">
		<tag k="name" v="Gjøssmyran" />
		<tag k="ssr:stedsnr" v="944996" />
		<tag k="waterway" v="stream" />
	</node>
	<node id="-79975" lat="62.8880027782" lon="7.81588056364">
		<tag k="name" v="Duskartjønna" />
		<tag k="natural" v="water" />
		<tag k="ssr:stedsnr" v="944928" />
	</node>
	<node id="-79974" lat="62.8566416648" lon="7.93658332996">
		<tag k="name" v="Storsanden" />
		<tag k="natural" v="beach" />
		<tag k="ssr:stedsnr" v="944918" />
	</node>
	<node id="-79973" lat="62.893288885" lon="7.66401943875">
		<tag k="name" v="Dalabekken" />
		<tag k="ssr:stedsnr" v="944863" />
		<tag k="waterway" v="stream" />
	</node>
	<node id="-79960" lat="62.939558336" lon="7.86217221231">
		<tag k="name" v="Dalabekken" />
		<tag k="natural" v="water" />
		<tag k="ssr:stedsnr" v="216987" />
		<tag k="water" v="lake" />
	</node>
	<node id="-79946" lat="62.9058777809" lon="7.78627777391">
		<tag k="name" v="Gjeldalsbekken" />
		<tag k="ssr:stedsnr" v="824806" />
		<tag k="waterway" v="stream" />
	</node>
	<node id="-79935" lat="62.9532583368" lon="8.04480555367">
		<tag k="name" v="Kobbneset" />
		<tag k="natural" v="shoal" />
		<tag k="place" v="locality" />
		<tag k="ssr:stedsnr" v="824566" />
	</node>
	<node id="-79926" lat="62.8698583313" lon="7.97373889018">
		<tag k="name" v="Kubekken" />
		<tag k="ssr:stedsnr" v="824171" />
		<tag k="waterway" v="stream" />
	</node>
	<node id="-79925" lat="62.9076694401" lon="7.67449722987">
		<tag k="name" v="Tegabekken" />
		<tag k="ssr:stedsnr" v="823823" />
		<tag k="waterway" v="stream" />
	</node>
	<node id="-79924" lat="62.9004472257" lon="7.65715555535">
		<tag k="name" v="Naustbekken" />
		<tag k="ssr:stedsnr" v="823821" />
		<tag k="waterway" v="stream" />
	</node>
	<node id="-79917" lat="62.8315583351" lon="7.58872499895">
		<tag k="alt_name" v="Oførelva" />
		<tag k="name" v="Uførelva" />
		<tag k="ssr:stedsnr" v="923762" />
		<tag k="waterway" v="stream" />
	</node>
	<node id="-79902" lat="62.8593916672" lon="7.94778055375">
		<tag k="name" v="Kjerringelva" />
		<tag k="ssr:stedsnr" v="922486" />
		<tag k="waterway" v="stream" />
	</node>
	<node id="-79899" lat="62.8597472251" lon="7.81440000232">
		<tag k="name" v="Svartlibekken" />
		<tag k="ssr:stedsnr" v="922458" />
		<tag k="waterway" v="stream" />
	</node>
	<node id="-79875" lat="62.9359138898" lon="7.59531945247">
		<tag k="name" v="Buktatjønna" />
		<tag k="natural" v="water" />
		<tag k="ssr:stedsnr" v="763827" />
>>>>>>> e1d4bc35ff8a6074a6f2e91616a996b547c36f15
	</node>
</osm>
