<?xml version="1.0" encoding="UTF-8"?>
<osm version="0.6" generator="osmapis">
	<node lat="62.960644443712276" lon="7.710075001308315" id="-8893">
		<tag k="highway" v="path" />
		<tag k="name" v="Durmelstien" />
		<tag k="ssr:stedsnr" v="216905" />
	</node>
	<node lat="62.88587777895699" lon="7.680736106883956" id="-9367">
		<tag k="highway" v="path" />
		<tag k="name" v="Råket" />
		<tag k="ssr:stedsnr" v="640136" />
	</node>
	<node lat="62.859416670812976" lon="7.640005546156612" id="-9495">
		<tag k="highway" v="path" />
		<tag k="name" v="Nysetervegen" />
		<tag k="ssr:stedsnr" v="763845" />
	</node>
	<node lat="62.882200001389805" lon="8.023452773254954" id="-9582">
		<tag k="ford" v="yes" />
		<tag k="name" v="Oldervadet" />
		<tag k="place" v="locality" />
		<tag k="ssr:stedsnr" v="885620" />
	</node>
	<node lat="62.96253055192811" lon="7.981400002108057" id="-9586">
		<tag k="highway" v="path" />
		<tag k="name" v="Kjørvegen" />
		<tag k="ssr:stedsnr" v="885649" />
	</node>
	<node lat="62.965505559689475" lon="7.977050005065622" id="-9614">
		<tag k="bridge" v="yes" />
		<tag k="layer" v="1" />
		<tag k="name" v="Halabrua" />
		<tag k="ssr:stedsnr" v="945196" />
	</node>
	<node lat="62.87644444485647" lon="7.658430557916508" id="-9672">
		<tag k="highway" v="path" />
		<tag k="name" v="Råket" />
		<tag k="ssr:stedsnr" v="34079" />
	</node>
	<node lat="62.924938892949875" lon="7.79648889435732" id="-9706">
		<tag k="ford" v="yes" />
		<tag k="name" v="Hyllvadet" />
		<tag k="place" v="locality" />
		<tag k="ssr:stedsnr" v="34942" />
	</node>
	<node lat="62.862838884946434" lon="7.916233337667699" id="-9789">
		<tag k="fixme" v="consider highway=path" />
		<tag k="highway" v="track" />
		<tag k="name" v="Åsvegen" />
		<tag k="ssr:stedsnr" v="95086" />
	</node>
	<node lat="62.90393611503747" lon="7.784627773970904" id="-9862">
		<tag k="bridge" v="yes" />
		<tag k="layer" v="1" />
		<tag k="name" v="Myrabrua" />
		<tag k="ssr:stedsnr" v="155136" />
	</node>
	<node lat="62.97087777763947" lon="7.816083342566291" id="-9963">
		<tag k="junction" v="yes" />
		<tag k="name" v="Sjøvegskiftet" />
		<tag k="place" v="locality" />
		<tag k="ssr:stedsnr" v="216960" />
	</node>
	<node lat="62.96829722518182" lon="7.81236666123809" id="-9970">
		<tag k="highway" v="path" />
		<tag k="name" v="Sjøvegen" />
		<tag k="ssr:stedsnr" v="217155" />
	</node>
	<node lat="62.904005558186626" lon="7.749933339135924" id="-10063">
		<tag k="ford" v="yes" />
		<tag k="name" v="Hestvadet" />
		<tag k="place" v="locality" />
		<tag k="ssr:stedsnr" v="278855" />
	</node>
	<node lat="62.863261109213916" lon="7.913727778577378" id="-10065">
		<tag k="fixme" v="consider highway=path" />
		<tag k="highway" v="track" />
		<tag k="name" v="Nebbsteinvegen" />
		<tag k="ssr:stedsnr" v="278950" />
	</node>
	<node lat="62.866144445762096" lon="7.632608335489605" id="-10101">
		<tag k="highway" v="path" />
		<tag k="name" v="Stegan" />
		<tag k="ssr:stedsnr" v="337088" />
	</node>
	<node lat="62.8808083372526" lon="8.026199998800767" id="-10299">
		<tag k="ford" v="yes" />
		<tag k="name" v="Setervadet" />
		<tag k="place" v="locality" />
		<tag k="ssr:stedsnr" v="520642" />
	</node>
	<node lat="62.95006666935279" lon="7.657522218806988" id="-10412">
		<tag k="ford" v="yes" />
		<tag k="name" v="Seljepilvadet" />
		<tag k="place" v="locality" />
		<tag k="ssr:stedsnr" v="640896" />
	</node>
	<node lat="62.94130833498865" lon="7.646608325526588" id="-10477">
		<tag k="bridge" v="yes" />
		<tag k="layer" v="1" />
		<tag k="name" v="Guråbrua" />
		<tag k="ssr:stedsnr" v="761078" />
	</node>
	<node lat="62.84368610877921" lon="7.835363892518373" id="-10518">
		<tag k="bridge" v="yes" />
		<tag k="layer" v="1" />
		<tag k="name" v="Bjørbekkbrua" />
		<tag k="ssr:stedsnr" v="763929" />
	</node>
	<node lat="62.975986110271336" lon="7.7879611014678325" id="-10536">
		<tag k="barrier" v="toll_booth" />
		<tag k="name" v="Krifast" />
		<tag k="ssr:stedsnr" v="776538" />
	</node>
	<node lat="62.91493889258756" lon="7.615766668581333" id="-10600">
		<tag k="ford" v="yes" />
		<tag k="name" v="Rausvaden" />
		<tag k="place" v="locality" />
		<tag k="ssr:stedsnr" v="824846" />
	</node>
	<node lat="62.88783333261727" lon="7.676513895862161" id="-10711">
		<tag k="name" v="Buleet" />
		<tag k="place" v="locality" />
		<tag k="ssr:stedsnr" v="945096" />
	</node>
	<node lat="62.86129722486009" lon="7.917880548910945" id="-10727">
		<tag k="fixme" v="consider highway=path" />
		<tag k="highway" v="track" />
		<tag k="name" v="Ellingbuvegen" />
		<tag k="ssr:stedsnr" v="945727" />
	</node>
</osm>
