<?xml version="1.0" encoding="UTF-8"?>
<<<<<<< HEAD
<osm version="0.6" generator="osmapis">
	<node lat="62.841608334328974" lon="7.622963892389809" id="-4592">
		<tag k="name" v="Langliløken" />
		<tag k="natural" v="wetland" />
		<tag k="ssr:stedsnr" v="12712" />
	</node>
	<node lat="62.89301944491423" lon="7.982616664374799" id="-4613">
		<tag k="name" v="Aspen" />
=======
<osm generator="osmapis" version="0.6">
	<node id="-79872" lat="62.9376055528" lon="7.9858277818">
		<tag k="name" v="Maurteigen" />
>>>>>>> e1d4bc35ff8a6074a6f2e91616a996b547c36f15
		<tag k="place" v="locality" />
		<tag k="ssr:stedsnr" v="35266" />
	</node>
<<<<<<< HEAD
	<node lat="62.86961666738497" lon="7.599099997770067" id="-4693">
		<tag k="name" v="Perseterskreda" />
		<tag k="place" v="locality" />
		<tag k="ssr:stedsnr" v="96811" />
	</node>
	<node lat="62.85605278097626" lon="7.826886105514065" id="-4703">
		<tag k="name" v="Osmarka" />
		<tag k="place" v="locality" />
		<tag k="ssr:stedsnr" v="133474" />
	</node>
	<node lat="62.88373055825111" lon="8.009072225339763" id="-4716">
		<tag k="name" v="Aspåsmyran" />
=======
	<node id="-79354" lat="62.8911166682" lon="7.90924722839">
		<tag k="name" v="Brekkskiftet" />
>>>>>>> e1d4bc35ff8a6074a6f2e91616a996b547c36f15
		<tag k="natural" v="wetland" />
		<tag k="ssr:stedsnr" v="254949" />
	</node>
	<node lat="62.84755277843559" lon="7.540147213230426" id="-4732">
		<tag k="name" v="Sørbøen" />
		<tag k="place" v="locality" />
		<tag k="ssr:stedsnr" v="155105" />
	</node>
<<<<<<< HEAD
	<node lat="62.94323055719115" lon="7.988213888105203" id="-4783">
=======
	<node id="-79352" lat="62.9432305572" lon="7.98821388811">
>>>>>>> e1d4bc35ff8a6074a6f2e91616a996b547c36f15
		<tag k="name" v="Småmyran" />
		<tag k="natural" v="wetland" />
		<tag k="ssr:stedsnr" v="217213" />
	</node>
<<<<<<< HEAD
	<node lat="62.89111666822402" lon="7.90924722839242" id="-4785">
		<tag k="name" v="Brekkskiftet" />
		<tag k="natural" v="wetland" />
		<tag k="ssr:stedsnr" v="217507" />
	</node>
	<node lat="62.86965555773243" lon="7.66603888308122" id="-4794">
		<tag k="name" v="Kvilarsteinen" />
=======
	<node id="-79861" lat="62.901000001" lon="7.65184445283">
		<tag k="name" v="Majorsteinen" />
>>>>>>> e1d4bc35ff8a6074a6f2e91616a996b547c36f15
		<tag k="natural" v="stone" />
		<tag k="ssr:stedsnr" v="217826" />
	</node>
<<<<<<< HEAD
	<node lat="62.937613886321564" lon="7.6345333281546885" id="-4801">
		<tag k="name" v="Mjølkmyran" />
=======
	<node id="-80370" lat="62.8599999978" lon="7.92668610337">
		<tag k="name" v="Porsmyra" />
>>>>>>> e1d4bc35ff8a6074a6f2e91616a996b547c36f15
		<tag k="natural" v="wetland" />
		<tag k="ssr:stedsnr" v="254471" />
	</node>
<<<<<<< HEAD
	<node lat="62.924525003055884" lon="7.620449990217992" id="-4824">
		<tag k="name" v="Vollan" />
=======
	<node id="-80368" lat="62.9306805536" lon="7.60039722457">
		<tag k="name" v="Geilen" />
>>>>>>> e1d4bc35ff8a6074a6f2e91616a996b547c36f15
		<tag k="place" v="locality" />
		<tag k="ssr:stedsnr" v="459096" />
	</node>
<<<<<<< HEAD
	<node lat="62.9341999971805" lon="7.69665554639551" id="-4846">
		<tag k="name" v="Dunateigen" />
		<tag k="place" v="locality" />
		<tag k="ssr:stedsnr" v="459901" />
	</node>
	<node lat="62.97988333388846" lon="7.805597215546898" id="-4847">
		<tag k="name" v="Høgbergura" />
		<tag k="natural" v="scree" />
		<tag k="ssr:stedsnr" v="459984" />
	</node>
	<node lat="62.842747221800934" lon="7.895275004739901" id="-4851">
		<tag k="name" v="Ånesmyran" />
		<tag k="natural" v="wetland" />
		<tag k="ssr:stedsnr" v="459925" />
	</node>
	<node lat="62.928119444531546" lon="7.717274999785567" id="-4866">
=======
	<node id="-79851" lat="62.8732222216" lon="7.85077778111">
		<tag k="name" v="Hanasetmyran" />
		<tag k="natural" v="wetland" />
		<tag k="ssr:stedsnr" v="740973" />
	</node>
	<node id="-79183" lat="62.8837305583" lon="8.00907222534">
		<tag k="name" v="Aspåsmyran" />
		<tag k="natural" v="wetland" />
		<tag k="ssr:stedsnr" v="254949" />
	</node>
	<node id="-79831" lat="62.9330500039" lon="7.60912500292">
		<tag k="name" v="Ikornsteinen" />
		<tag k="natural" v="stone" />
		<tag k="ssr:stedsnr" v="702823" />
	</node>
	<node id="-79318" lat="62.9281194445" lon="7.71727499979">
>>>>>>> e1d4bc35ff8a6074a6f2e91616a996b547c36f15
		<tag k="name" v="Nordåkeren" />
		<tag k="place" v="locality" />
		<tag k="ssr:stedsnr" v="278897" />
	</node>
<<<<<<< HEAD
	<node lat="62.85767778158982" lon="7.534561113278953" id="-4902">
		<tag k="name" v="Ullalandsmyrane" />
		<tag k="natural" v="wetland" />
		<tag k="ssr:stedsnr" v="460835" />
	</node>
	<node lat="62.84716944319685" lon="7.562866658482633" id="-4903">
		<tag k="name" v="Råbreislættet" />
=======
	<node id="-80338" lat="62.856052781" lon="7.82688610551">
		<tag k="name" v="Osmarka" />
		<tag k="place" v="locality" />
		<tag k="ssr:stedsnr" v="133474" />
	</node>
	<node id="-80842" lat="62.9458916695" lon="7.6359027733">
		<tag k="name" v="Trøvollane" />
		<tag k="place" v="locality" />
		<tag k="ssr:stedsnr" v="581769" />
	</node>
	<node id="-79817" lat="62.8773333307" lon="7.62672777441">
		<tag k="name" v="Furumoen" />
>>>>>>> e1d4bc35ff8a6074a6f2e91616a996b547c36f15
		<tag k="place" v="locality" />
		<tag k="ssr:stedsnr" v="460843" />
	</node>
<<<<<<< HEAD
	<node lat="62.89609444408289" lon="7.603644437385543" id="-4906">
		<tag k="name" v="Skredhola" />
		<tag k="natural" v="stone" />
		<tag k="ssr:stedsnr" v="460876" />
	</node>
	<node lat="62.9639944409311" lon="7.710527779594052" id="-4908">
		<tag k="name" v="Gaddsteinen" />
		<tag k="natural" v="stone" />
		<tag k="ssr:stedsnr" v="460930" />
	</node>
	<node lat="62.86138611014874" lon="7.932108340774532" id="-4955">
		<tag k="name" v="Ellingbuslættet" />
=======
	<node id="-80328" lat="62.8419055556" lon="7.83000555709">
		<tag k="name" v="Holaplassen" />
		<tag k="place" v="locality" />
		<tag k="ssr:stedsnr" v="96933" />
	</node>
	<node id="-80326" lat="62.8696166674" lon="7.59909999777">
		<tag k="name" v="Perseterskreda" />
		<tag k="place" v="locality" />
		<tag k="ssr:stedsnr" v="96811" />
	</node>
	<node id="-79811" lat="62.9632555512" lon="7.69644167238">
		<tag k="name" v="Gammeltrøa" />
>>>>>>> e1d4bc35ff8a6074a6f2e91616a996b547c36f15
		<tag k="place" v="locality" />
		<tag k="ssr:stedsnr" v="338744" />
	</node>
<<<<<<< HEAD
	<node lat="62.85966388881521" lon="7.634216662022884" id="-4960">
		<tag k="name" v="Litlsetermyra" />
=======
	<node id="-79806" lat="62.8731250027" lon="7.62092222224">
		<tag k="name" v="Gaupsetmyran" />
>>>>>>> e1d4bc35ff8a6074a6f2e91616a996b547c36f15
		<tag k="natural" v="wetland" />
		<tag k="ssr:stedsnr" v="338845" />
	</node>
<<<<<<< HEAD
	<node lat="62.867752779559574" lon="7.91195833225268" id="-4981">
		<tag k="name" v="Sagmyra" />
		<tag k="natural" v="wetland" />
		<tag k="ssr:stedsnr" v="397211" />
	</node>
	<node lat="62.83520277420041" lon="7.437408334023943" id="-4987">
		<tag k="name" v="Løkan" />
=======
	<node id="-80825" lat="62.9889249957" lon="7.80669721516">
		<tag k="name" v="Fætta" />
		<tag k="place" v="locality" />
		<tag k="ssr:stedsnr" v="581193" />
	</node>
	<node id="-79800" lat="62.8894333375" lon="7.75924723104">
		<tag k="name" v="Skeismyran" />
>>>>>>> e1d4bc35ff8a6074a6f2e91616a996b547c36f15
		<tag k="natural" v="wetland" />
		<tag k="ssr:stedsnr" v="398109" />
	</node>
<<<<<<< HEAD
	<node lat="62.84450277648898" lon="7.677449997250164" id="-5015">
		<tag k="name" v="Stormyra" />
		<tag k="natural" v="wetland" />
		<tag k="ssr:stedsnr" v="437706" />
	</node>
	<node lat="62.862830551991614" lon="7.892361117548875" id="-5022">
		<tag k="name" v="Stormyra" />
=======
	<node id="-80311" lat="62.9421777741" lon="7.96076666483">
		<tag k="name" v="Eistkornet" />
		<tag k="natural" v="stone" />
		<tag k="ssr:stedsnr" v="96647" />
	</node>
	<node id="-80307" lat="62.9675333318" lon="7.97542222579">
		<tag k="name" v="Tuvmyra" />
>>>>>>> e1d4bc35ff8a6074a6f2e91616a996b547c36f15
		<tag k="natural" v="wetland" />
		<tag k="ssr:stedsnr" v="458224" />
	</node>
<<<<<<< HEAD
	<node lat="62.89083610705899" lon="7.697988896761963" id="-5025">
		<tag k="name" v="Svaa" />
=======
	<node id="-79791" lat="62.922222221" lon="7.94611943604">
		<tag k="name" v="Kvenngrøen" />
>>>>>>> e1d4bc35ff8a6074a6f2e91616a996b547c36f15
		<tag k="place" v="locality" />
		<tag k="ssr:stedsnr" v="459079" />
	</node>
<<<<<<< HEAD
	<node lat="62.86970555989749" lon="8.085977776433246" id="-5040">
		<tag k="name" v="Langhøymyra" />
=======
	<node id="-80296" lat="62.8709277806" lon="7.99834445144">
		<tag k="name" v="Brentflata" />
>>>>>>> e1d4bc35ff8a6074a6f2e91616a996b547c36f15
		<tag k="natural" v="wetland" />
		<tag k="ssr:stedsnr" v="460671" />
	</node>
<<<<<<< HEAD
	<node lat="62.8758861122598" lon="7.625330551737019" id="-5083">
		<tag k="name" v="Nyjordet" />
=======
	<node id="-79780" lat="62.9149222264" lon="7.74232500012">
		<tag k="historic" v="shieling" />
		<tag k="name" v="Mjøkstølen" />
>>>>>>> e1d4bc35ff8a6074a6f2e91616a996b547c36f15
		<tag k="place" v="locality" />
		<tag k="ssr:stedsnr" v="519110" />
	</node>
<<<<<<< HEAD
	<node lat="62.85957500222707" lon="8.0261055485179" id="-5101">
		<tag k="name" v="Bytberget" />
		<tag k="place" v="locality" />
		<tag k="ssr:stedsnr" v="520674" />
	</node>
	<node lat="62.92296666761116" lon="7.698183337876798" id="-5108">
		<tag k="name" v="Buateigen" />
=======
	<node id="-79772" lat="62.8896583345" lon="8.00253611834">
		<tag k="name" v="Storsteinen" />
		<tag k="natural" v="stone" />
		<tag k="ssr:stedsnr" v="884583" />
	</node>
	<node id="-79253" lat="62.8475527784" lon="7.54014721323">
		<tag k="name" v="Sørbøen" />
>>>>>>> e1d4bc35ff8a6074a6f2e91616a996b547c36f15
		<tag k="place" v="locality" />
		<tag k="ssr:stedsnr" v="520909" />
	</node>
<<<<<<< HEAD
	<node lat="62.98892499568133" lon="7.806697215159587" id="-5144">
		<tag k="name" v="Fætta" />
		<tag k="place" v="locality" />
		<tag k="ssr:stedsnr" v="581193" />
	</node>
	<node lat="62.89297778079658" lon="7.646155564440931" id="-5163">
=======
	<node id="-79683" lat="62.8922611127" lon="7.80864443917">
>>>>>>> e1d4bc35ff8a6074a6f2e91616a996b547c36f15
		<tag k="historic" v="shieling" />
		<tag k="name" v="Nysetra" />
		<tag k="place" v="locality" />
		<tag k="ssr:stedsnr" v="701084" />
	</node>
<<<<<<< HEAD
	<node lat="62.860233329438586" lon="7.942505549113689" id="-5164">
		<tag k="name" v="Stormyra" />
		<tag k="natural" v="wetland" />
		<tag k="ssr:stedsnr" v="701192" />
	</node>
	<node lat="62.933250004303666" lon="7.607544434672261" id="-5183">
		<tag k="name" v="Vollan" />
=======
	<node id="-80270" lat="62.8674888931" lon="7.90547499892">
		<tag k="name" v="Moen" />
		<tag k="natural" v="wetland" />
		<tag k="ssr:stedsnr" v="94231" />
	</node>
	<node id="-80763" lat="62.9229666676" lon="7.69818333788">
		<tag k="name" v="Buateigen" />
>>>>>>> e1d4bc35ff8a6074a6f2e91616a996b547c36f15
		<tag k="place" v="locality" />
		<tag k="ssr:stedsnr" v="702093" />
	</node>
<<<<<<< HEAD
	<node lat="62.943766670800876" lon="7.730174999716196" id="-5249">
		<tag k="name" v="Steinteigen" />
=======
	<node id="-79737" lat="62.8831833296" lon="7.66605555608">
		<tag k="name" v="Synnøveplassen" />
>>>>>>> e1d4bc35ff8a6074a6f2e91616a996b547c36f15
		<tag k="place" v="locality" />
		<tag k="ssr:stedsnr" v="640887" />
	</node>
<<<<<<< HEAD
	<node lat="62.86510832929727" lon="7.931333341500528" id="-5251">
		<tag k="name" v="Stakkbuslættet" />
=======
	<node id="-80748" lat="62.8595750022" lon="8.02610554852">
		<tag k="name" v="Bytberget" />
>>>>>>> e1d4bc35ff8a6074a6f2e91616a996b547c36f15
		<tag k="place" v="locality" />
		<tag k="ssr:stedsnr" v="640917" />
	</node>
<<<<<<< HEAD
	<node lat="62.96617221924077" lon="7.808355547681565" id="-5255">
		<tag k="name" v="Myra" />
=======
	<node id="-80746" lat="62.864330555" lon="7.96938610374">
		<tag k="name" v="Setermyra" />
>>>>>>> e1d4bc35ff8a6074a6f2e91616a996b547c36f15
		<tag k="natural" v="wetland" />
		<tag k="ssr:stedsnr" v="641129" />
	</node>
<<<<<<< HEAD
	<node lat="62.93234722641669" lon="7.952802768288239" id="-5263">
		<tag k="name" v="Blåbergan" />
=======
	<node id="-80227" lat="62.9384722256" lon="7.60176944956">
		<tag k="name" v="Sevikmyran" />
>>>>>>> e1d4bc35ff8a6074a6f2e91616a996b547c36f15
		<tag k="place" v="locality" />
		<tag k="ssr:stedsnr" v="641613" />
	</node>
<<<<<<< HEAD
	<node lat="62.95765555283204" lon="7.980161107275469" id="-5264">
		<tag k="name" v="Sjølvskottmyra" />
		<tag k="natural" v="wetland" />
		<tag k="ssr:stedsnr" v="641628" />
	</node>
	<node lat="62.935922224631135" lon="7.657824990813171" id="-5270">
		<tag k="name" v="Gråsteinen" />
		<tag k="natural" v="stone" />
		<tag k="ssr:stedsnr" v="641887" />
	</node>
	<node lat="62.83507221875299" lon="7.653252775374943" id="-5277">
		<tag k="name" v="Raudliløken" />
=======
	<node id="-80738" lat="62.9218361114" lon="8.10236111369">
		<tag k="name" v="Kobbsjeret" />
		<tag k="natural" v="glacier" />
		<tag k="ssr:stedsnr" v="520597" />
	</node>
	<node id="-80224" lat="62.8324722249" lon="7.59661667192">
		<tag k="name" v="Oførmyran" />
>>>>>>> e1d4bc35ff8a6074a6f2e91616a996b547c36f15
		<tag k="natural" v="wetland" />
		<tag k="ssr:stedsnr" v="680733" />
	</node>
<<<<<<< HEAD
	<node lat="62.887724999582936" lon="7.669038892374978" id="-5284">
		<tag k="name" v="Øyan" />
=======
	<node id="-79710" lat="62.8789250021" lon="7.62625555439">
		<tag k="name" v="Lyngstad" />
>>>>>>> e1d4bc35ff8a6074a6f2e91616a996b547c36f15
		<tag k="place" v="locality" />
		<tag k="ssr:stedsnr" v="702084" />
	</node>
<<<<<<< HEAD
	<node lat="62.87733333069556" lon="7.626727774412167" id="-5285">
		<tag k="name" v="Furumoen" />
		<tag k="place" v="locality" />
		<tag k="ssr:stedsnr" v="702103" />
	</node>
	<node lat="62.892791669005234" lon="7.967000004842014" id="-5297">
		<tag k="name" v="Mjøkplassmyra" />
=======
	<node id="-79708" lat="62.8807888859" lon="7.64649167166">
		<tag k="name" v="Løken" />
		<tag k="place" v="locality" />
		<tag k="ssr:stedsnr" v="580060" />
	</node>
	<node id="-80207" lat="62.9604305562" lon="7.95396389731">
		<tag k="name" v="Middagssteinen" />
		<tag k="natural" v="stone" />
		<tag k="ssr:stedsnr" v="35691" />
	</node>
	<node id="-80196" lat="62.8835694407" lon="7.93099721707">
		<tag k="name" v="Øyskiftet" />
>>>>>>> e1d4bc35ff8a6074a6f2e91616a996b547c36f15
		<tag k="natural" v="wetland" />
		<tag k="ssr:stedsnr" v="702562" />
	</node>
<<<<<<< HEAD
	<node lat="62.93305000393197" lon="7.60912500291685" id="-5305">
		<tag k="name" v="Ikornsteinen" />
		<tag k="natural" v="stone" />
		<tag k="ssr:stedsnr" v="702823" />
	</node>
	<node lat="62.85392222307798" lon="7.711155560817341" id="-5307">
=======
	<node id="-80707" lat="62.8445027765" lon="7.67744999725">
		<tag k="name" v="Stormyra" />
		<tag k="natural" v="wetland" />
		<tag k="ssr:stedsnr" v="437706" />
	</node>
	<node id="-79679" lat="62.8539222231" lon="7.71115556082">
>>>>>>> e1d4bc35ff8a6074a6f2e91616a996b547c36f15
		<tag k="name" v="Randasteinen" />
		<tag k="natural" v="stone" />
		<tag k="ssr:stedsnr" v="702715" />
	</node>
<<<<<<< HEAD
	<node lat="62.89226111266936" lon="7.808644439171208" id="-5308">
		<tag k="historic" v="shieling" />
		<tag k="name" v="Gammelsetra" />
		<tag k="place" v="locality" />
		<tag k="ssr:stedsnr" v="702767" />
	</node>
	<node lat="62.901000001024954" lon="7.651844452833355" id="-5341">
		<tag k="name" v="Majorsteinen" />
		<tag k="natural" v="stone" />
		<tag k="ssr:stedsnr" v="762858" />
	</node>
	<node lat="62.842319442371426" lon="7.631594435909697" id="-5342">
		<tag k="name" v="Langliløken" />
=======
	<node id="-80184" lat="62.871219447" lon="7.96954722068">
		<tag k="name" v="Hestmyra" />
>>>>>>> e1d4bc35ff8a6074a6f2e91616a996b547c36f15
		<tag k="natural" v="wetland" />
		<tag k="ssr:stedsnr" v="763207" />
	</node>
<<<<<<< HEAD
	<node lat="62.96974999704573" lon="7.821966672797571" id="-5401">
		<tag k="name" v="Hallsetgeilen" />
		<tag k="place" v="locality" />
		<tag k="ssr:stedsnr" v="823931" />
	</node>
	<node lat="62.94042499702741" lon="7.631213895100749" id="-5418">
		<tag k="historic" v="shieling" />
		<tag k="name" v="Gammelsetra" />
		<tag k="place" v="locality" />
		<tag k="ssr:stedsnr" v="824923" />
	</node>
	<node lat="62.8505555572012" lon="7.615316671922223" id="-5419">
		<tag k="name" v="Bergmyran" />
=======
	<node id="-80183" lat="62.8930194449" lon="7.98261666437">
		<tag k="name" v="Aspen" />
		<tag k="place" v="locality" />
		<tag k="ssr:stedsnr" v="35266" />
	</node>
	<node id="-80182" lat="62.969586115" lon="7.99869999648">
		<tag k="name" v="Oterura" />
		<tag k="natural" v="scree" />
		<tag k="ssr:stedsnr" v="35251" />
	</node>
	<node id="-80181" lat="62.9452333331" lon="7.9993138928">
		<tag k="name" v="Seterura" />
		<tag k="natural" v="scree" />
		<tag k="ssr:stedsnr" v="35247" />
	</node>
	<node id="-79665" lat="62.892791669" lon="7.96700000484">
		<tag k="name" v="Mjøkplassmyra" />
>>>>>>> e1d4bc35ff8a6074a6f2e91616a996b547c36f15
		<tag k="natural" v="wetland" />
		<tag k="ssr:stedsnr" v="921676" />
	</node>
<<<<<<< HEAD
	<node lat="62.83871666235079" lon="7.4407083265983545" id="-5443">
		<tag k="name" v="Rognola" />
		<tag k="natural" v="scree" />
		<tag k="ssr:stedsnr" v="884116" />
	</node>
	<node lat="62.914922226446" lon="7.742325000118259" id="-5452">
		<tag k="historic" v="shieling" />
		<tag k="name" v="Mjøkstølen" />
		<tag k="place" v="locality" />
		<tag k="ssr:stedsnr" v="884852" />
	</node>
	<node lat="62.87312500270791" lon="7.620922222242493" id="-5471">
		<tag k="name" v="Gaupsetmyran" />
=======
	<node id="-79146" lat="62.8416083343" lon="7.62296389239">
		<tag k="name" v="Langliløken" />
		<tag k="natural" v="wetland" />
		<tag k="ssr:stedsnr" v="12712" />
	</node>
	<node id="-80679" lat="62.9064916696" lon="8.08410832947">
		<tag k="name" v="Rønningstråkmyra" />
		<tag k="natural" v="wetland" />
		<tag k="ssr:stedsnr" v="399672" />
	</node>
	<node id="-80164" lat="62.9761944466" lon="7.79570277409">
		<tag k="name" v="Hamnamyran" />
>>>>>>> e1d4bc35ff8a6074a6f2e91616a996b547c36f15
		<tag k="natural" v="wetland" />
		<tag k="ssr:stedsnr" v="885800" />
	</node>
<<<<<<< HEAD
	<node lat="62.88943333751483" lon="7.759247231044724" id="-5472">
		<tag k="name" v="Skeismyran" />
		<tag k="natural" v="wetland" />
		<tag k="old_name" v="Skeidsmyran" />
		<tag k="ssr:stedsnr" v="885747" />
	</node>
	<node lat="62.892925003764944" lon="8.001741658793971" id="-5505">
		<tag k="historic" v="shieling" />
		<tag k="name" v="Jakobstølen" />
=======
	<node id="-80157" lat="62.8403055553" lon="7.85219999674">
		<tag k="name" v="Nerduåsmyran" />
		<tag k="natural" v="wetland" />
		<tag k="ssr:stedsnr" v="34926" />
	</node>
	<node id="-79643" lat="62.9332500043" lon="7.60754443467">
		<tag k="name" v="Vollan" />
>>>>>>> e1d4bc35ff8a6074a6f2e91616a996b547c36f15
		<tag k="place" v="locality" />
		<tag k="ssr:stedsnr" v="945532" />
	</node>
<<<<<<< HEAD
	<node lat="62.86096666350402" lon="8.079983334198081" id="-5513">
		<tag k="name" v="Slåttamyran" />
		<tag k="natural" v="wetland" />
		<tag k="ssr:stedsnr" v="945639" />
	</node>
	<node lat="62.91074110191577" lon="7.901830367789937" id="-5542">
		<tag k="historic" v="shieling" />
		<tag k="name" v="Dalasetra" />
=======
	<node id="-79641" lat="62.8877249996" lon="7.66903889237">
		<tag k="name" v="Øyan" />
		<tag k="place" v="locality" />
		<tag k="ssr:stedsnr" v="702084" />
	</node>
	<node id="-79124" lat="62.891672226" lon="7.97151111152">
		<tag k="name" v="Høgteigen" />
>>>>>>> e1d4bc35ff8a6074a6f2e91616a996b547c36f15
		<tag k="place" v="locality" />
		<tag k="ssr:stedsnr" v="12937" />
	</node>
<<<<<<< HEAD
	<node lat="62.90446388888309" lon="7.6584083352640135" id="-5551">
		<tag k="name" v="Torvmyra" />
		<tag k="natural" v="wetland" />
		<tag k="ssr:stedsnr" v="33094" />
	</node>
	<node lat="62.90958888666055" lon="7.740738898612629" id="-5553">
=======
	<node id="-80143" lat="62.9095888867" lon="7.74073889861">
>>>>>>> e1d4bc35ff8a6074a6f2e91616a996b547c36f15
		<tag k="historic" v="shieling" />
		<tag k="name" v="Ørsetra" />
		<tag k="place" v="locality" />
		<tag k="ssr:stedsnr" v="34083" />
	</node>
<<<<<<< HEAD
	<node lat="62.84030555533376" lon="7.852199996740665" id="-5576">
		<tag k="name" v="Nerduåsmyran" />
=======
	<node id="-80653" lat="62.8681666658" lon="7.98019721693">
		<tag k="name" v="Øyan" />
>>>>>>> e1d4bc35ff8a6074a6f2e91616a996b547c36f15
		<tag k="natural" v="wetland" />
		<tag k="ssr:stedsnr" v="34926" />
	</node>
<<<<<<< HEAD
	<node lat="62.97619444659526" lon="7.795702774094959" id="-5579">
		<tag k="name" v="Hamnamyran" />
=======
	<node id="-79625" lat="62.8602333294" lon="7.94250554911">
		<tag k="name" v="Stormyra" />
>>>>>>> e1d4bc35ff8a6074a6f2e91616a996b547c36f15
		<tag k="natural" v="wetland" />
		<tag k="ssr:stedsnr" v="34981" />
	</node>
<<<<<<< HEAD
	<node lat="62.94523333306693" lon="7.999313892803899" id="-5583">
		<tag k="name" v="Seterura" />
		<tag k="natural" v="scree" />
		<tag k="ssr:stedsnr" v="35247" />
	</node>
	<node lat="62.871219447036786" lon="7.969547220683426" id="-5589">
		<tag k="name" v="Hestmyra" />
=======
	<node id="-79624" lat="62.8929777808" lon="7.64615556444">
		<tag k="historic" v="shieling" />
		<tag k="name" v="Nysetra" />
		<tag k="place" v="locality" />
		<tag k="ssr:stedsnr" v="701084" />
	</node>
	<node id="-80124" lat="62.9044638889" lon="7.65840833526">
		<tag k="name" v="Torvmyra" />
>>>>>>> e1d4bc35ff8a6074a6f2e91616a996b547c36f15
		<tag k="natural" v="wetland" />
		<tag k="ssr:stedsnr" v="35273" />
	</node>
<<<<<<< HEAD
	<node lat="62.96958611500755" lon="7.998699996476021" id="-5595">
		<tag k="name" v="Oterura" />
		<tag k="natural" v="scree" />
		<tag k="ssr:stedsnr" v="35251" />
	</node>
	<node lat="62.960430556167985" lon="7.953963897308454" id="-5599">
		<tag k="name" v="Middagssteinen" />
		<tag k="natural" v="stone" />
		<tag k="ssr:stedsnr" v="35691" />
	</node>
	<node lat="62.88356944074631" lon="7.930997217074389" id="-5611">
		<tag k="name" v="Øyskiftet" />
		<tag k="natural" v="wetland" />
		<tag k="ssr:stedsnr" v="35630" />
	</node>
	<node lat="62.832472224907555" lon="7.596616671916595" id="-5621">
		<tag k="name" v="Oførmyran" />
=======
	<node id="-80631" lat="62.8427166655" lon="7.51749722126">
		<tag k="name" v="Åsmyran" />
		<tag k="natural" v="wetland" />
		<tag k="ssr:stedsnr" v="398100" />
	</node>
	<node id="-79401" lat="62.8908361071" lon="7.69798889676">
		<tag k="name" v="Svaa" />
		<tag k="place" v="locality" />
		<tag k="ssr:stedsnr" v="459079" />
	</node>
	<node id="-79601" lat="62.8350722188" lon="7.65325277537">
		<tag k="name" v="Raudliløken" />
		<tag k="natural" v="wetland" />
		<tag k="ssr:stedsnr" v="680733" />
	</node>
	<node id="-80614" lat="62.8677527796" lon="7.91195833225">
		<tag k="name" v="Sagmyra" />
>>>>>>> e1d4bc35ff8a6074a6f2e91616a996b547c36f15
		<tag k="natural" v="wetland" />
		<tag k="ssr:stedsnr" v="35837" />
	</node>
<<<<<<< HEAD
	<node lat="62.936066663394975" lon="7.621833331017114" id="-5623">
		<tag k="name" v="Mjølkemyrane" />
		<tag k="natural" v="wetland" />
		<tag k="ssr:stedsnr" v="35846" />
	</node>
	<node lat="62.938472225613175" lon="7.601769449563214" id="-5624">
		<tag k="name" v="Sevikmyran" />
		<tag k="place" v="locality" />
		<tag k="ssr:stedsnr" v="35847" />
	</node>
	<node lat="62.86748889314599" lon="7.905474998922353" id="-5650">
		<tag k="name" v="Moen" />
		<tag k="natural" v="wetland" />
		<tag k="ssr:stedsnr" v="94231" />
	</node>
	<node lat="62.967533331830836" lon="7.975422225789387" id="-5658">
		<tag k="name" v="Tuvmyra" />
		<tag k="natural" v="wetland" />
		<tag k="ssr:stedsnr" v="96238" />
	</node>
	<node lat="62.87092778064069" lon="7.99834445144309" id="-5673">
		<tag k="name" v="Brentflata" />
=======
	<node id="-81121" lat="62.894194446" lon="7.69818056327">
		<tag k="historic" v="shieling" />
		<tag k="name" v="Litlsetra" />
		<tag k="place" v="locality" />
		<tag k="ssr:stedsnr" v="824879" />
	</node>
	<node id="-79567" lat="62.8758861123" lon="7.62533055174">
		<tag k="name" v="Nyjordet" />
		<tag k="place" v="locality" />
		<tag k="ssr:stedsnr" v="519110" />
	</node>
	<node id="-80074" lat="62.8505277816" lon="7.4643249929">
		<tag k="name" v="Fagerdalssteinen" />
		<tag k="natural" v="stone" />
		<tag k="ssr:stedsnr" v="885770" />
	</node>
	<node id="-80584" lat="62.8596638888" lon="7.63421666202">
		<tag k="name" v="Litlsetermyra" />
>>>>>>> e1d4bc35ff8a6074a6f2e91616a996b547c36f15
		<tag k="natural" v="wetland" />
		<tag k="ssr:stedsnr" v="95585" />
	</node>
<<<<<<< HEAD
	<node lat="62.94217777410789" lon="7.96076666482948" id="-5683">
		<tag k="name" v="Eistkornet" />
		<tag k="natural" v="stone" />
		<tag k="ssr:stedsnr" v="96647" />
	</node>
	<node lat="62.841905555600405" lon="7.83000555709238" id="-5695">
		<tag k="name" v="Holaplassen" />
=======
	<node id="-80071" lat="62.8657666673" lon="8.10260278094">
		<tag k="name" v="Gardskogsteinen" />
		<tag k="natural" v="stone" />
		<tag k="ssr:stedsnr" v="885663" />
	</node>
	<node id="-80070" lat="62.8617027743" lon="8.07567500651">
		<tag k="historic" v="shieling" />
		<tag k="name" v="Heimsetra" />
		<tag k="place" v="locality" />
		<tag k="ssr:stedsnr" v="885661" />
	</node>
	<node id="-79478" lat="62.9639944409" lon="7.71052777959">
		<tag k="name" v="Gaddsteinen" />
		<tag k="natural" v="stone" />
		<tag k="ssr:stedsnr" v="460930" />
	</node>
	<node id="-80578" lat="62.8613861101" lon="7.93210834077">
		<tag k="name" v="Ellingbuslættet" />
>>>>>>> e1d4bc35ff8a6074a6f2e91616a996b547c36f15
		<tag k="place" v="locality" />
		<tag k="ssr:stedsnr" v="96933" />
	</node>
<<<<<<< HEAD
	<node lat="62.93068055363472" lon="7.600397224574349" id="-5734">
		<tag k="name" v="Geilen" />
=======
	<node id="-81089" lat="62.9791555532" lon="7.79529721524">
		<tag k="name" v="Høybuvollen" />
>>>>>>> e1d4bc35ff8a6074a6f2e91616a996b547c36f15
		<tag k="place" v="locality" />
		<tag k="ssr:stedsnr" v="155088" />
	</node>
<<<<<<< HEAD
	<node lat="62.85999999782951" lon="7.926686103365381" id="-5737">
		<tag k="name" v="Porsmyra" />
=======
	<node id="-81088" lat="62.9749499985" lon="7.84824999956">
		<tag k="name" v="Råkledmyran" />
>>>>>>> e1d4bc35ff8a6074a6f2e91616a996b547c36f15
		<tag k="natural" v="wetland" />
		<tag k="ssr:stedsnr" v="155178" />
	</node>
<<<<<<< HEAD
	<node lat="62.89564722580484" lon="7.981630550150483" id="-5763">
		<tag k="name" v="Hesterøsta" />
=======
	<node id="-81087" lat="62.969749997" lon="7.8219666728">
		<tag k="name" v="Hallsetgeilen" />
>>>>>>> e1d4bc35ff8a6074a6f2e91616a996b547c36f15
		<tag k="place" v="locality" />
		<tag k="ssr:stedsnr" v="156566" />
	</node>
<<<<<<< HEAD
	<node lat="62.90648332974035" lon="8.078633325401888" id="-5766">
		<tag k="name" v="Dikjemyra" />
		<tag k="natural" v="wetland" />
		<tag k="ssr:stedsnr" v="156581" />
	</node>
	<node lat="62.89211388936914" lon="7.627677769522921" id="-5804">
		<tag k="name" v="Dompin" />
=======
	<node id="-79548" lat="62.8352027742" lon="7.43740833402">
		<tag k="name" v="Løkan" />
		<tag k="natural" v="wetland" />
		<tag k="ssr:stedsnr" v="398109" />
	</node>
	<node id="-80586" lat="62.9235583375" lon="7.68379722127">
		<tag k="name" v="Alongslættet" />
		<tag k="place" v="locality" />
		<tag k="ssr:stedsnr" v="338868" />
	</node>
	<node id="-81076" lat="62.8434638927" lon="7.58410832536">
		<tag k="name" v="Myran" />
>>>>>>> e1d4bc35ff8a6074a6f2e91616a996b547c36f15
		<tag k="natural" v="wetland" />
		<tag k="ssr:stedsnr" v="194552" />
	</node>
<<<<<<< HEAD
	<node lat="62.886891665451124" lon="7.622569437133552" id="-5831">
		<tag k="name" v="Ura" />
=======
	<node id="-81074" lat="62.9592944448" lon="7.68523333272">
		<tag k="name" v="Revura" />
>>>>>>> e1d4bc35ff8a6074a6f2e91616a996b547c36f15
		<tag k="natural" v="scree" />
		<tag k="ssr:stedsnr" v="216086" />
	</node>
<<<<<<< HEAD
	<node lat="62.83041666257946" lon="7.613249999550914" id="-5832">
		<tag k="name" v="Løken" />
		<tag k="natural" v="wetland" />
		<tag k="ssr:stedsnr" v="216087" />
	</node>
	<node lat="62.89584444158746" lon="7.676647216779853" id="-5835">
		<tag k="name" v="Astadøra" />
		<tag k="place" v="locality" />
		<tag k="ssr:stedsnr" v="216068" />
	</node>
	<node lat="62.89167222599116" lon="7.97151111151536" id="-5866">
		<tag k="name" v="Høgteigen" />
		<tag k="place" v="locality" />
		<tag k="ssr:stedsnr" v="217580" />
	</node>
	<node lat="62.85649722257682" lon="7.700450002808075" id="-5875">
		<tag k="name" v="Setermyran" />
=======
	<node id="-80047" lat="62.8387166624" lon="7.4407083266">
		<tag k="name" v="Rognola" />
		<tag k="natural" v="scree" />
		<tag k="ssr:stedsnr" v="884116" />
	</node>
	<node id="-79133" lat="62.8564972226" lon="7.70045000281">
		<tag k="name" v="Setermyran" />
		<tag k="natural" v="wetland" />
		<tag k="ssr:stedsnr" v="217746" />
	</node>
	<node id="-80039" lat="62.8611472222" lon="7.9256749999">
		<tag k="name" v="Hjellmyra" />
>>>>>>> e1d4bc35ff8a6074a6f2e91616a996b547c36f15
		<tag k="natural" v="wetland" />
		<tag k="ssr:stedsnr" v="217746" />
	</node>
<<<<<<< HEAD
	<node lat="62.85152500446971" lon="7.643694449278071" id="-5896">
		<tag k="name" v="Løkane" />
		<tag k="natural" v="wetland" />
		<tag k="ssr:stedsnr" v="277067" />
	</node>
	<node lat="62.833247223682164" lon="7.462447227670924" id="-5905">
		<tag k="name" v="Elvakrokan" />
		<tag k="natural" v="wetland" />
		<tag k="ssr:stedsnr" v="277168" />
	</node>
	<node lat="62.98712777536453" lon="7.800336117191897" id="-5989">
=======
	<node id="-80038" lat="62.9635138883" lon="7.70121666379">
		<tag k="name" v="Svortesteinen" />
		<tag k="natural" v="stone" />
		<tag k="ssr:stedsnr" v="945924" />
	</node>
	<node id="-80545" lat="62.9871277754" lon="7.80033611719">
>>>>>>> e1d4bc35ff8a6074a6f2e91616a996b547c36f15
		<tag k="name" v="Høybuvollen" />
		<tag k="place" v="locality" />
		<tag k="ssr:stedsnr" v="337980" />
	</node>
<<<<<<< HEAD
	<node lat="62.900672218187125" lon="8.077850000958245" id="-5994">
		<tag k="name" v="Stormyra" />
		<tag k="natural" v="wetland" />
		<tag k="ssr:stedsnr" v="338178" />
	</node>
	<node lat="62.92355833754545" lon="7.683797221267904" id="-6028">
		<tag k="name" v="Alongslættet" />
=======
	<node id="-79386" lat="62.8515250045" lon="7.64369444928">
		<tag k="name" v="Løkane" />
		<tag k="natural" v="wetland" />
		<tag k="ssr:stedsnr" v="277067" />
	</node>
	<node id="-81046" lat="62.9668833357" lon="7.70967500943">
		<tag k="name" v="Grønsettrøa" />
>>>>>>> e1d4bc35ff8a6074a6f2e91616a996b547c36f15
		<tag k="place" v="locality" />
		<tag k="ssr:stedsnr" v="338868" />
	</node>
<<<<<<< HEAD
	<node lat="62.84271666548832" lon="7.517497221258474" id="-6067">
		<tag k="name" v="Åsmyran" />
=======
	<node id="-80017" lat="62.8609666635" lon="8.0799833342">
		<tag k="name" v="Slåttamyran" />
>>>>>>> e1d4bc35ff8a6074a6f2e91616a996b547c36f15
		<tag k="natural" v="wetland" />
		<tag k="ssr:stedsnr" v="398100" />
	</node>
<<<<<<< HEAD
	<node lat="62.868166665844285" lon="7.9801972169311215" id="-6083">
		<tag k="name" v="Øyan" />
		<tag k="natural" v="wetland" />
		<tag k="ssr:stedsnr" v="399262" />
	</node>
	<node lat="62.90649166962646" lon="8.08410832947434" id="-6106">
		<tag k="name" v="Rønningstråkmyra" />
		<tag k="natural" v="wetland" />
		<tag k="ssr:stedsnr" v="399672" />
	</node>
	<node lat="62.92183611143006" lon="8.10236111368984" id="-6172">
		<tag k="name" v="Kobbsjeret" />
		<tag k="natural" v="glacier" />
		<tag k="ssr:stedsnr" v="520597" />
	</node>
	<node lat="62.8643305549865" lon="7.969386103737768" id="-6179">
		<tag k="name" v="Setermyra" />
=======
	<node id="-81040" lat="62.8408888933" lon="7.82687222598">
		<tag k="name" v="Tonettaplassen" />
		<tag k="place" v="locality" />
		<tag k="ssr:stedsnr" v="763930" />
	</node>
	<node id="-81038" lat="62.9137305576" lon="7.66273611965">
		<tag k="historic" v="shieling" />
		<tag k="name" v="Astadsetra" />
		<tag k="place" v="locality" />
		<tag k="ssr:stedsnr" v="763882" />
	</node>
	<node id="-80524" lat="62.9006722182" lon="8.07785000096">
		<tag k="name" v="Stormyra" />
>>>>>>> e1d4bc35ff8a6074a6f2e91616a996b547c36f15
		<tag k="natural" v="wetland" />
		<tag k="ssr:stedsnr" v="520643" />
	</node>
<<<<<<< HEAD
	<node lat="62.880788885858415" lon="7.646491671659051" id="-6224">
		<tag k="name" v="Løken" />
=======
	<node id="-80008" lat="62.8929250038" lon="8.00174165879">
		<tag k="historic" v="shieling" />
		<tag k="name" v="Jakobstølen" />
>>>>>>> e1d4bc35ff8a6074a6f2e91616a996b547c36f15
		<tag k="place" v="locality" />
		<tag k="ssr:stedsnr" v="580060" />
	</node>
<<<<<<< HEAD
	<node lat="62.878925002074794" lon="7.626255554391401" id="-6226">
		<tag k="name" v="Lyngstad" />
		<tag k="place" v="locality" />
		<tag k="ssr:stedsnr" v="580086" />
	</node>
	<node lat="62.945891669489725" lon="7.635902773300228" id="-6257">
		<tag k="name" v="Trøvollane" />
=======
	<node id="-81029" lat="62.8508333325" lon="8.03929167056">
		<tag k="name" v="Brurasteinen" />
		<tag k="natural" v="stone" />
		<tag k="ssr:stedsnr" v="763638" />
	</node>
	<node id="-79990" lat="62.972588888" lon="7.84081388646">
		<tag k="name" v="Brotet" />
>>>>>>> e1d4bc35ff8a6074a6f2e91616a996b547c36f15
		<tag k="place" v="locality" />
		<tag k="ssr:stedsnr" v="581769" />
	</node>
<<<<<<< HEAD
	<node lat="62.88318332962491" lon="7.666055556081546" id="-6295">
		<tag k="name" v="Synnøveplassen" />
=======
	<node id="-79987" lat="62.8718527753" lon="7.62039445151">
		<tag k="name" v="Paulsrud" />
>>>>>>> e1d4bc35ff8a6074a6f2e91616a996b547c36f15
		<tag k="place" v="locality" />
		<tag k="ssr:stedsnr" v="640848" />
	</node>
<<<<<<< HEAD
	<node lat="62.836383334755816" lon="7.8203666710316995" id="-6306">
		<tag k="name" v="Holen" />
		<tag k="place" v="locality" />
		<tag k="ssr:stedsnr" v="641147" />
	</node>
	<node lat="62.96117222104405" lon="7.952583340381834" id="-6308">
		<tag k="historic" v="shieling" />
		<tag k="name" v="Mjøktrøa" />
		<tag k="place" v="locality" />
		<tag k="ssr:stedsnr" v="641169" />
	</node>
	<node lat="62.89866944742983" lon="7.663316675845204" id="-6331">
		<tag k="name" v="Langmyrsteinen" />
=======
	<node id="-79986" lat="62.8546888902" lon="7.58392222353">
		<tag k="name" v="Åsmyran" />
		<tag k="natural" v="wetland" />
		<tag k="ssr:stedsnr" v="945091" />
	</node>
	<node id="-79473" lat="62.8960944441" lon="7.60364443739">
		<tag k="name" v="Skredhola" />
>>>>>>> e1d4bc35ff8a6074a6f2e91616a996b547c36f15
		<tag k="natural" v="stone" />
		<tag k="ssr:stedsnr" v="641845" />
	</node>
<<<<<<< HEAD
	<node lat="62.849780026521735" lon="7.547499205803349" id="-6350">
		<tag k="name" v="Ullaland" />
=======
	<node id="-79469" lat="62.8471694432" lon="7.56286665848">
		<tag k="name" v="Råbreislættet" />
>>>>>>> e1d4bc35ff8a6074a6f2e91616a996b547c36f15
		<tag k="place" v="locality" />
		<tag k="ssr:stedsnr" v="740706" />
	</node>
<<<<<<< HEAD
	<node lat="62.873222221556524" lon="7.850777781114407" id="-6354">
		<tag k="name" v="Hanasetmyran" />
=======
	<node id="-79468" lat="62.8576777816" lon="7.53456111328">
		<tag k="name" v="Ullalandsmyrane" />
>>>>>>> e1d4bc35ff8a6074a6f2e91616a996b547c36f15
		<tag k="natural" v="wetland" />
		<tag k="ssr:stedsnr" v="740973" />
	</node>
<<<<<<< HEAD
	<node lat="62.83656388625471" lon="7.823252783205375" id="-6365">
		<tag k="name" v="Røsta" />
		<tag k="place" v="locality" />
		<tag k="ssr:stedsnr" v="763197" />
	</node>
	<node lat="62.87046110916782" lon="8.097525007312683" id="-6367">
=======
	<node id="-81003" lat="62.8423194424" lon="7.63159443591">
		<tag k="name" v="Langliløken" />
		<tag k="natural" v="wetland" />
		<tag k="ssr:stedsnr" v="763207" />
	</node>
	<node id="-81002" lat="62.8704611092" lon="8.09752500731">
>>>>>>> e1d4bc35ff8a6074a6f2e91616a996b547c36f15
		<tag k="historic" v="shieling" />
		<tag k="name" v="Hammarsetra" />
		<tag k="place" v="locality" />
		<tag k="ssr:stedsnr" v="763200" />
	</node>
<<<<<<< HEAD
	<node lat="62.92060833586686" lon="7.804066667469406" id="-6382">
=======
	<node id="-79977" lat="62.9250638886" lon="7.80310278037">
		<tag k="name" v="Kuvallmyra" />
		<tag k="natural" v="wetland" />
		<tag k="ssr:stedsnr" v="944943" />
	</node>
	<node id="-81000" lat="62.8365638863" lon="7.82325278321">
		<tag k="name" v="Røsta" />
		<tag k="place" v="locality" />
		<tag k="ssr:stedsnr" v="763197" />
	</node>
	<node id="-80999" lat="62.9206083359" lon="7.80406666747">
>>>>>>> e1d4bc35ff8a6074a6f2e91616a996b547c36f15
		<tag k="name" v="Kvilaren" />
		<tag k="natural" v="stone" />
		<tag k="ssr:stedsnr" v="763182" />
	</node>
<<<<<<< HEAD
	<node lat="62.937605552810595" lon="7.98582778180498" id="-6389">
		<tag k="name" v="Maurteigen" />
=======
	<node id="-79972" lat="62.9096027817" lon="7.66325277557">
		<tag k="historic" v="shieling" />
		<tag k="name" v="Astadsetra" />
>>>>>>> e1d4bc35ff8a6074a6f2e91616a996b547c36f15
		<tag k="place" v="locality" />
		<tag k="ssr:stedsnr" v="763659" />
	</node>
<<<<<<< HEAD
	<node lat="62.85083333252543" lon="8.039291670555892" id="-6392">
		<tag k="name" v="Brurasteinen" />
		<tag k="natural" v="stone" />
		<tag k="ssr:stedsnr" v="763638" />
	</node>
	<node lat="62.840888893291364" lon="7.826872225977379" id="-6398">
		<tag k="name" v="Tonettaplassen" />
		<tag k="place" v="locality" />
		<tag k="ssr:stedsnr" v="763930" />
	</node>
	<node lat="62.89242778039521" lon="7.712022225360712" id="-6406">
		<tag k="name" v="Torevarden" />
		<tag k="natural" v="stone" />
		<tag k="ssr:stedsnr" v="763862" />
	</node>
	<node lat="62.91373055764052" lon="7.662736119652656" id="-6412">
		<tag k="historic" v="shieling" />
		<tag k="name" v="Astadsetra" />
=======
	<node id="-79971" lat="62.9000083327" lon="7.64746388043">
		<tag k="name" v="Rabuliflata" />
		<tag k="natural" v="wetland" />
		<tag k="ssr:stedsnr" v="944858" />
	</node>
	<node id="-80481" lat="62.8304166626" lon="7.61324999955">
		<tag k="name" v="Løken" />
		<tag k="natural" v="wetland" />
		<tag k="ssr:stedsnr" v="216087" />
	</node>
	<node id="-80480" lat="62.8868916655" lon="7.62256943713">
		<tag k="name" v="Ura" />
		<tag k="natural" v="scree" />
		<tag k="ssr:stedsnr" v="216086" />
	</node>
	<node id="-79964" lat="62.9314833351" lon="7.6993500043">
		<tag k="name" v="Revtrøa" />
>>>>>>> e1d4bc35ff8a6074a6f2e91616a996b547c36f15
		<tag k="place" v="locality" />
		<tag k="ssr:stedsnr" v="763882" />
	</node>
<<<<<<< HEAD
	<node lat="62.96688333570391" lon="7.709675009426091" id="-6416">
		<tag k="name" v="Grønsettrøa" />
		<tag k="place" v="locality" />
		<tag k="ssr:stedsnr" v="778345" />
	</node>
	<node lat="62.937155730310174" lon="7.8799460417140965" id="-6420">
=======
	<node id="-79949" lat="62.940424997" lon="7.6312138951">
>>>>>>> e1d4bc35ff8a6074a6f2e91616a996b547c36f15
		<tag k="historic" v="shieling" />
		<tag k="name" v="Vollasetra" />
		<tag k="place" v="locality" />
		<tag k="ssr:stedsnr" v="800902" />
	</node>
<<<<<<< HEAD
	<node lat="62.95929444481853" lon="7.685233332717011" id="-6435">
		<tag k="name" v="Revura" />
		<tag k="natural" v="scree" />
		<tag k="ssr:stedsnr" v="822193" />
	</node>
	<node lat="62.875058336532106" lon="7.632930558263358" id="-6440">
		<tag k="name" v="Småøyan" />
		<tag k="natural" v="wetland" />
		<tag k="ssr:stedsnr" v="823069" />
	</node>
	<node lat="62.84346389269566" lon="7.5841083253555786" id="-6443">
		<tag k="name" v="Myran" />
		<tag k="natural" v="wetland" />
		<tag k="ssr:stedsnr" v="823094" />
	</node>
	<node lat="62.974949998527435" lon="7.84824999956351" id="-6446">
		<tag k="name" v="Råkledmyran" />
=======
	<node id="-80226" lat="62.9360666634" lon="7.62183333102">
		<tag k="name" v="Mjølkemyrane" />
		<tag k="natural" v="wetland" />
		<tag k="ssr:stedsnr" v="35846" />
	</node>
	<node id="-80458" lat="62.8921138894" lon="7.62767776952">
		<tag k="name" v="Dompin" />
		<tag k="natural" v="wetland" />
		<tag k="ssr:stedsnr" v="194552" />
	</node>
	<node id="-79457" lat="62.8697055599" lon="8.08597777643">
		<tag k="name" v="Langhøymyra" />
		<tag k="natural" v="wetland" />
		<tag k="ssr:stedsnr" v="460671" />
	</node>
	<node id="-79422" lat="62.9798833339" lon="7.80559721555">
		<tag k="name" v="Høgbergura" />
		<tag k="natural" v="scree" />
		<tag k="ssr:stedsnr" v="459984" />
	</node>
	<node id="-79415" lat="62.8427472218" lon="7.89527500474">
		<tag k="name" v="Ånesmyran" />
>>>>>>> e1d4bc35ff8a6074a6f2e91616a996b547c36f15
		<tag k="natural" v="wetland" />
		<tag k="ssr:stedsnr" v="823933" />
	</node>
<<<<<<< HEAD
	<node lat="62.97915555316054" lon="7.795297215239857" id="-6449">
		<tag k="name" v="Høybuvollen" />
		<tag k="place" v="locality" />
		<tag k="ssr:stedsnr" v="823975" />
	</node>
	<node lat="62.89419444602113" lon="7.698180563271111" id="-6485">
		<tag k="historic" v="shieling" />
		<tag k="name" v="Litlsetra" />
=======
	<node id="-80950" lat="62.9359222246" lon="7.65782499081">
		<tag k="name" v="Gråsteinen" />
		<tag k="natural" v="stone" />
		<tag k="ssr:stedsnr" v="641887" />
	</node>
	<node id="-79413" lat="62.9341999972" lon="7.6966555464">
		<tag k="name" v="Dunateigen" />
>>>>>>> e1d4bc35ff8a6074a6f2e91616a996b547c36f15
		<tag k="place" v="locality" />
		<tag k="ssr:stedsnr" v="824879" />
	</node>
<<<<<<< HEAD
	<node lat="62.88965833449318" lon="8.002536118335385" id="-6534">
		<tag k="name" v="Storsteinen" />
		<tag k="natural" v="stone" />
		<tag k="ssr:stedsnr" v="884583" />
	</node>
	<node lat="62.86170277426456" lon="8.075675006510304" id="-6550">
		<tag k="historic" v="shieling" />
		<tag k="name" v="Heimsetra" />
=======
	<node id="-80947" lat="62.8986694474" lon="7.66331667585">
		<tag k="name" v="Langmyrsteinen" />
		<tag k="natural" v="stone" />
		<tag k="ssr:stedsnr" v="641845" />
	</node>
	<node id="-79921" lat="62.8750583365" lon="7.63293055826">
		<tag k="name" v="Småøyan" />
		<tag k="natural" v="wetland" />
		<tag k="ssr:stedsnr" v="823069" />
	</node>
	<node id="-79404" lat="62.9245250031" lon="7.62044999022">
		<tag k="name" v="Vollan" />
>>>>>>> e1d4bc35ff8a6074a6f2e91616a996b547c36f15
		<tag k="place" v="locality" />
		<tag k="ssr:stedsnr" v="885661" />
	</node>
<<<<<<< HEAD
	<node lat="62.865766667276525" lon="8.102602780940936" id="-6551">
		<tag k="name" v="Gardskogsteinen" />
		<tag k="natural" v="stone" />
		<tag k="ssr:stedsnr" v="885663" />
	</node>
	<node lat="62.922222221036655" lon="7.946119436044045" id="-6553">
		<tag k="name" v="Kvenngrøen" />
=======
	<node id="-80937" lat="62.9576555528" lon="7.98016110728">
		<tag k="name" v="Sjølvskottmyra" />
		<tag k="natural" v="wetland" />
		<tag k="ssr:stedsnr" v="641628" />
	</node>
	<node id="-80936" lat="62.9323472264" lon="7.95280276829">
		<tag k="name" v="Blåbergan" />
>>>>>>> e1d4bc35ff8a6074a6f2e91616a996b547c36f15
		<tag k="place" v="locality" />
		<tag k="ssr:stedsnr" v="885640" />
	</node>
<<<<<<< HEAD
	<node lat="62.85052778163477" lon="7.464324992898511" id="-6557">
		<tag k="name" v="Fagerdalssteinen" />
		<tag k="natural" v="stone" />
		<tag k="ssr:stedsnr" v="885770" />
	</node>
	<node lat="62.96325555120913" lon="7.696441672378714" id="-6566">
		<tag k="name" v="Gammeltrøa" />
		<tag k="place" v="locality" />
		<tag k="ssr:stedsnr" v="885889" />
	</node>
	<node lat="62.931483335095486" lon="7.699350004299796" id="-6571">
		<tag k="name" v="Revtrøa" />
		<tag k="place" v="locality" />
		<tag k="ssr:stedsnr" v="944058" />
	</node>
	<node lat="62.900008332673245" lon="7.647463880426075" id="-6578">
		<tag k="name" v="Rabuliflata" />
=======
	<node id="-80476" lat="62.8958444416" lon="7.67664721678">
		<tag k="name" v="Astadøra" />
		<tag k="place" v="locality" />
		<tag k="ssr:stedsnr" v="216068" />
	</node>
	<node id="-79396" lat="62.8332472237" lon="7.46244722767">
		<tag k="name" v="Elvakrokan" />
		<tag k="natural" v="wetland" />
		<tag k="ssr:stedsnr" v="277168" />
	</node>
	<node id="-79739" lat="62.8651083293" lon="7.9313333415">
		<tag k="name" v="Stakkbuslættet" />
		<tag k="place" v="locality" />
		<tag k="ssr:stedsnr" v="640917" />
	</node>
	<node id="-80413" lat="62.9064833297" lon="8.0786333254">
		<tag k="name" v="Dikjemyra" />
		<tag k="natural" v="wetland" />
		<tag k="ssr:stedsnr" v="156581" />
	</node>
	<node id="-80410" lat="62.8956472258" lon="7.98163055015">
		<tag k="name" v="Hesterøsta" />
		<tag k="place" v="locality" />
		<tag k="ssr:stedsnr" v="156566" />
	</node>
	<node id="-79890" lat="62.8505555572" lon="7.61531667192">
		<tag k="name" v="Bergmyran" />
		<tag k="natural" v="wetland" />
		<tag k="ssr:stedsnr" v="921676" />
	</node>
	<node id="-79377" lat="62.862830552" lon="7.89236111755">
		<tag k="name" v="Stormyra" />
>>>>>>> e1d4bc35ff8a6074a6f2e91616a996b547c36f15
		<tag k="natural" v="wetland" />
		<tag k="ssr:stedsnr" v="944858" />
	</node>
<<<<<<< HEAD
	<node lat="62.90960278172827" lon="7.663252775569676" id="-6579">
		<tag k="historic" v="shieling" />
		<tag k="name" v="Astadsetra" />
=======
	<node id="-80912" lat="62.961172221" lon="7.95258334038">
		<tag k="historic" v="shieling" />
		<tag k="name" v="Mjøktrøa" />
		<tag k="place" v="locality" />
		<tag k="ssr:stedsnr" v="641169" />
	</node>
	<node id="-80910" lat="62.8363833348" lon="7.82036667103">
		<tag k="name" v="Holen" />
>>>>>>> e1d4bc35ff8a6074a6f2e91616a996b547c36f15
		<tag k="place" v="locality" />
		<tag k="ssr:stedsnr" v="944860" />
	</node>
<<<<<<< HEAD
	<node lat="62.925063888648786" lon="7.803102780367665" id="-6581">
		<tag k="name" v="Kuvallmyra" />
=======
	<node id="-80909" lat="62.9661722192" lon="7.80835554768">
		<tag k="name" v="Myra" />
>>>>>>> e1d4bc35ff8a6074a6f2e91616a996b547c36f15
		<tag k="natural" v="wetland" />
		<tag k="ssr:stedsnr" v="944943" />
	</node>
<<<<<<< HEAD
	<node lat="62.85468889018272" lon="7.583922223530177" id="-6583">
		<tag k="name" v="Åsmyran" />
=======
	<node id="-79372" lat="62.9376138863" lon="7.63453332815">
		<tag k="name" v="Mjølkmyran" />
>>>>>>> e1d4bc35ff8a6074a6f2e91616a996b547c36f15
		<tag k="natural" v="wetland" />
		<tag k="ssr:stedsnr" v="945091" />
	</node>
<<<<<<< HEAD
	<node lat="62.97258888798473" lon="7.840813886463178" id="-6587">
		<tag k="name" v="Brotet" />
		<tag k="place" v="locality" />
		<tag k="ssr:stedsnr" v="945142" />
	</node>
	<node lat="62.87185277532639" lon="7.620394451512655" id="-6589">
		<tag k="name" v="Paulsrud" />
		<tag k="place" v="locality" />
		<tag k="ssr:stedsnr" v="945095" />
	</node>
	<node lat="62.96351388833531" lon="7.701216663786495" id="-6609">
		<tag k="name" v="Svortesteinen" />
=======
	<node id="-79879" lat="62.8924277804" lon="7.71202222536">
		<tag k="name" v="Torevarden" />
		<tag k="natural" v="stone" />
		<tag k="ssr:stedsnr" v="763862" />
	</node>
	<node id="-79364" lat="62.8696555577" lon="7.66603888308">
		<tag k="name" v="Kvilarsteinen" />
>>>>>>> e1d4bc35ff8a6074a6f2e91616a996b547c36f15
		<tag k="natural" v="stone" />
		<tag k="ssr:stedsnr" v="945924" />
	</node>
<<<<<<< HEAD
	<node lat="62.86114722224882" lon="7.9256749999049285" id="-6616">
		<tag k="name" v="Hjellmyra" />
		<tag k="natural" v="wetland" />
		<tag k="ssr:stedsnr" v="945944" />
=======
	<node id="-80899" lat="62.9437666708" lon="7.73017499972">
		<tag k="name" v="Steinteigen" />
		<tag k="place" v="locality" />
		<tag k="ssr:stedsnr" v="640887" />
>>>>>>> e1d4bc35ff8a6074a6f2e91616a996b547c36f15
	</node>
</osm>
