<?xml version="1.0" encoding="UTF-8"?>
<<<<<<< HEAD
<osm version="0.6" generator="osmapis">
	<node lat="64.22766389144388" lon="10.668269452734949" id="-33633">
=======
<osm generator="osmapis" version="0.6">
	<node id="-732415" lat="64.1795583314" lon="10.6344222295">
>>>>>>> e1d4bc35ff8a6074a6f2e91616a996b547c36f15
		<tag k="fixme" v="consider boundary=protected_area and relevant protect_class if not nature reserve" />
		<tag k="leisure" v="nature_reserve" />
		<tag k="name" v="Elgsjøen naturreservat" />
		<tag k="ssr:stedsnr" v="41498" />
	</node>
<<<<<<< HEAD
	<node lat="64.218230554337" lon="10.704905547713514" id="-33712">
		<tag k="fixme" v="consider boundary=protected_area and relevant protect_class if not nature reserve" />
		<tag k="leisure" v="nature_reserve" />
		<tag k="name" v="Urddalen naturreservat" />
		<tag k="ssr:stedsnr" v="464491" />
	</node>
	<node lat="64.17955833142602" lon="10.63442222945358" id="-34338">
=======
	<node id="-731627" lat="64.2276638914" lon="10.6682694527">
		<tag k="fixme" v="consider boundary=protected_area and relevant protect_class if not nature reserve" />
		<tag k="leisure" v="nature_reserve" />
		<tag k="name" v="Seterelva naturreservat" />
		<tag k="ssr:stedsnr" v="242515" />
	</node>
	<node id="-731743" lat="64.2182305543" lon="10.7049055477">
>>>>>>> e1d4bc35ff8a6074a6f2e91616a996b547c36f15
		<tag k="fixme" v="consider boundary=protected_area and relevant protect_class if not nature reserve" />
		<tag k="leisure" v="nature_reserve" />
		<tag k="name" v="Elgsjøen naturreservat" />
		<tag k="ssr:stedsnr" v="41498" />
	</node>
</osm>
