<?xml version="1.0" encoding="UTF-8"?>
<osm version="0.6" generator="osmapis">
	<node lat="64.25172500349882" lon="10.674774998766205" id="-81920">
		<tag k="name" v="Botnen" />
		<tag k="natural" v="valley" />
		<tag k="place" v="locality" />
		<tag k="ssr:stedsnr" v="14339" />
	</node>
	<node lat="64.34172222037355" lon="10.455038884237476" id="-81922">
		<tag k="name" v="Sørfjellet" />
		<tag k="natural" v="hill" />
		<tag k="place" v="locality" />
		<tag k="ssr:stedsnr" v="14705" />
	</node>
	<node lat="64.20734444669361" lon="10.711338889797354" id="-81923">
		<tag k="fixme" v="consider natural=peak for the most distinct mountains in the district" />
		<tag k="name" v="Blåheia" />
		<tag k="natural" v="hill" />
		<tag k="place" v="locality" />
		<tag k="ssr:stedsnr" v="14761" />
	</node>
	<node lat="64.36693611424776" lon="10.708783342688342" id="-81928">
		<tag k="name" v="Sagholet" />
		<tag k="natural" v="valley" />
		<tag k="place" v="locality" />
		<tag k="ssr:stedsnr" v="14666" />
	</node>
	<node lat="64.27716666806435" lon="10.481347230011513" id="-81933">
		<tag k="name" v="Vassbakkan" />
		<tag k="natural" v="slope" />
		<tag k="place" v="locality" />
		<tag k="ssr:stedsnr" v="33003" />
	</node>
	<node lat="64.30425000390335" lon="10.517166674856426" id="-81942">
		<tag k="name" v="Kjerringhaugan" />
		<tag k="natural" v="hill" />
		<tag k="place" v="locality" />
		<tag k="ssr:stedsnr" v="33281" />
	</node>
	<node lat="64.25611944821559" lon="10.640349995764861" id="-81943">
		<tag k="fixme" v="consider natural=peak for the most distinct mountains in the district" />
		<tag k="name" v="Svarttjønnhaugan" />
		<tag k="natural" v="hill" />
		<tag k="place" v="locality" />
		<tag k="ssr:stedsnr" v="33420" />
	</node>
	<node lat="64.25872221893626" lon="10.425772212023572" id="-81947">
		<tag k="name" v="Langbakkan" />
		<tag k="natural" v="slope" />
		<tag k="place" v="locality" />
		<tag k="ssr:stedsnr" v="33443" />
	</node>
	<node lat="64.29000277740262" lon="10.529186120422116" id="-81951">
		<tag k="name" v="Litlføruklumpen" />
		<tag k="natural" v="hill" />
		<tag k="place" v="locality" />
		<tag k="ssr:stedsnr" v="33569" />
	</node>
	<node lat="64.31622222378641" lon="10.475736106546195" id="-81955">
		<tag k="name" v="Tjonarhallin" />
		<tag k="natural" v="hill" />
		<tag k="place" v="locality" />
		<tag k="ssr:stedsnr" v="33720" />
	</node>
	<node lat="64.31528610792196" lon="10.590194454218828" id="-81957">
		<tag k="name" v="Halsfjellholet" />
		<tag k="natural" v="valley" />
		<tag k="place" v="locality" />
		<tag k="ssr:stedsnr" v="33467" />
	</node>
	<node lat="64.28566110793727" lon="10.283980552636732" id="-81958">
		<tag k="name" v="Gangstuhaugan" />
		<tag k="natural" v="hill" />
		<tag k="place" v="locality" />
		<tag k="ssr:stedsnr" v="33663" />
	</node>
	<node lat="64.30762500286232" lon="10.55588610367197" id="-81959">
		<tag k="name" v="Seterhaugen" />
		<tag k="natural" v="hill" />
		<tag k="place" v="locality" />
		<tag k="ssr:stedsnr" v="33682" />
	</node>
	<node lat="64.35235278075822" lon="10.538358343170444" id="-81975">
		<tag k="name" v="Nasen" />
		<tag k="natural" v="hill" />
		<tag k="place" v="locality" />
		<tag k="ssr:stedsnr" v="74702" />
	</node>
	<node lat="64.1827027796032" lon="10.73600555408301" id="-81981">
		<tag k="name" v="Grasvasskardet - Kraesievaajja" />
		<tag k="name:no" v="Grasvasskardet" />
		<tag k="name:sma" v="Kraesievaajja" />
		<tag k="natural" v="valley" />
		<tag k="place" v="locality" />
		<tag k="ssr:stedsnr" v="75602" />
	</node>
	<node lat="64.3175694452284" lon="10.507522212163966" id="-81984">
		<tag k="name" v="Kjerringa" />
		<tag k="natural" v="slope" />
		<tag k="place" v="locality" />
		<tag k="ssr:stedsnr" v="75561" />
	</node>
	<node lat="64.33542778070371" lon="10.393794454702867" id="-81990">
		<tag k="name" v="Kroken" />
		<tag k="natural" v="slope" />
		<tag k="place" v="locality" />
		<tag k="ssr:stedsnr" v="94012" />
	</node>
	<node lat="64.33155000253558" lon="10.4045750010629" id="-81991">
		<tag k="name" v="Hansinedalen" />
		<tag k="natural" v="valley" />
		<tag k="place" v="locality" />
		<tag k="ssr:stedsnr" v="94080" />
	</node>
	<node lat="64.27643889083716" lon="10.629288887190132" id="-81993">
		<tag k="name" v="Hestmoen" />
		<tag k="place" v="locality" />
		<tag k="ssr:stedsnr" v="94460" />
	</node>
	<node lat="64.2283999966447" lon="10.654174992910656" id="-81994">
		<tag k="name" v="Lauvhaugan" />
		<tag k="natural" v="hill" />
		<tag k="place" v="locality" />
		<tag k="ssr:stedsnr" v="94307" />
	</node>
	<node lat="64.30329166628104" lon="10.53248334242598" id="-81996">
		<tag k="fixme" v="consider natural=peak for the most distinct mountains in the district" />
		<tag k="name" v="Litllauvåsen" />
		<tag k="natural" v="hill" />
		<tag k="place" v="locality" />
		<tag k="ssr:stedsnr" v="94506" />
	</node>
	<node lat="64.27690555532546" lon="10.536008329076136" id="-81997">
		<tag k="name" v="Mørkdalen" />
		<tag k="natural" v="slope" />
		<tag k="place" v="locality" />
		<tag k="ssr:stedsnr" v="94513" />
	</node>
	<node lat="64.23892777822712" lon="10.596947221508692" id="-81998">
		<tag k="name" v="Abakaholet" />
		<tag k="natural" v="valley" />
		<tag k="place" v="locality" />
		<tag k="ssr:stedsnr" v="94516" />
	</node>
	<node lat="64.29714721839466" lon="10.677055552345877" id="-82008">
		<tag k="fixme" v="consider natural=peak for the most distinct mountains in the district" />
		<tag k="name" v="Lauvliheia" />
		<tag k="natural" v="hill" />
		<tag k="place" v="locality" />
		<tag k="ssr:stedsnr" v="135556" />
	</node>
	<node lat="64.2878694399733" lon="10.497738894750507" id="-82010">
		<tag k="name" v="Svartholdalen" />
		<tag k="natural" v="valley" />
		<tag k="place" v="locality" />
		<tag k="ssr:stedsnr" v="135567" />
	</node>
	<node lat="64.29166388552883" lon="10.46535833994857" id="-82011">
		<tag k="name" v="Pervikheia" />
		<tag k="natural" v="hill" />
		<tag k="place" v="locality" />
		<tag k="ssr:stedsnr" v="135571" />
	</node>
	<node lat="64.34301666800904" lon="10.637919445711212" id="-82014">
		<tag k="name" v="Kudalen" />
		<tag k="natural" v="valley" />
		<tag k="place" v="locality" />
		<tag k="ssr:stedsnr" v="135718" />
	</node>
	<node lat="64.21467777489202" lon="10.639208324699288" id="-82018">
		<tag k="fixme" v="consider natural=peak for the most distinct mountains in the district" />
		<tag k="name" v="Rørliheia" />
		<tag k="natural" v="hill" />
		<tag k="place" v="locality" />
		<tag k="ssr:stedsnr" v="256025" />
	</node>
	<node lat="64.19383889251527" lon="10.715099995822447" id="-82020">
		<tag k="name" v="Austvasslia" />
		<tag k="natural" v="slope" />
		<tag k="place" v="locality" />
		<tag k="ssr:stedsnr" v="256438" />
	</node>
	<node lat="64.32863333289956" lon="10.537905546794914" id="-82023">
		<tag k="name" v="Nordskardet" />
		<tag k="natural" v="valley" />
		<tag k="place" v="locality" />
		<tag k="ssr:stedsnr" v="256487" />
	</node>
	<node lat="64.26318889315681" lon="10.560397216910719" id="-82030">
		<tag k="fixme" v="consider natural=peak for the most distinct mountains in the district" />
		<tag k="name" v="Fremmerheia" />
		<tag k="natural" v="hill" />
		<tag k="place" v="locality" />
		<tag k="ssr:stedsnr" v="256587" />
	</node>
	<node lat="64.29727222051305" lon="10.57007778175071" id="-82041">
		<tag k="name" v="Paprillskardet" />
		<tag k="natural" v="valley" />
		<tag k="place" v="locality" />
		<tag k="ssr:stedsnr" v="154050" />
	</node>
	<node lat="64.3076361102306" lon="10.490297230148322" id="-82042">
		<tag k="name" v="Skardlia" />
		<tag k="natural" v="slope" />
		<tag k="place" v="locality" />
		<tag k="ssr:stedsnr" v="154639" />
	</node>
	<node lat="64.30963610931875" lon="10.533388891612411" id="-82045">
		<tag k="name" v="Tenndalen" />
		<tag k="natural" v="valley" />
		<tag k="place" v="locality" />
		<tag k="ssr:stedsnr" v="154502" />
	</node>
	<node lat="64.25090833585102" lon="10.879558331004437" id="-82048">
		<tag k="name" v="Brenthallen" />
		<tag k="natural" v="ridge" />
		<tag k="place" v="locality" />
		<tag k="ssr:stedsnr" v="154562" />
	</node>
	<node lat="64.33700832910971" lon="10.60994999896643" id="-82049">
		<tag k="name" v="Klumpan" />
		<tag k="natural" v="hill" />
		<tag k="place" v="locality" />
		<tag k="ssr:stedsnr" v="154566" />
	</node>
	<node lat="64.24470833470042" lon="10.639227786144485" id="-82050">
		<tag k="name" v="Storhaugen" />
		<tag k="natural" v="hill" />
		<tag k="place" v="locality" />
		<tag k="ssr:stedsnr" v="154704" />
	</node>
	<node lat="64.2775305534374" lon="10.733536114069382" id="-82053">
		<tag k="name" v="Lia" />
		<tag k="natural" v="slope" />
		<tag k="place" v="locality" />
		<tag k="ssr:stedsnr" v="257126" />
	</node>
	<node lat="64.2641472259458" lon="10.73068611933653" id="-82054">
		<tag k="fixme" v="consider natural=peak for the most distinct mountains in the district" />
		<tag k="name" v="Klumpan" />
		<tag k="natural" v="hill" />
		<tag k="place" v="locality" />
		<tag k="ssr:stedsnr" v="257149" />
	</node>
	<node lat="64.25009999643757" lon="10.870811116401342" id="-82056">
		<tag k="name" v="Vakkerlia" />
		<tag k="natural" v="slope" />
		<tag k="place" v="locality" />
		<tag k="ssr:stedsnr" v="257250" />
	</node>
	<node lat="64.26073610906444" lon="10.38490832999061" id="-82063">
		<tag k="alt_name" v="Skjelden" />
		<tag k="fixme" v="consider natural=peak for the most distinct mountains in the district" />
		<tag k="name" v="Vikskjelm" />
		<tag k="natural" v="hill" />
		<tag k="place" v="locality" />
		<tag k="ssr:stedsnr" v="263456" />
	</node>
	<node lat="64.27321388981416" lon="10.681200001283846" id="-82065">
		<tag k="name" v="Tømtdalen" />
		<tag k="natural" v="valley" />
		<tag k="place" v="locality" />
		<tag k="ssr:stedsnr" v="195611" />
	</node>
	<node lat="64.26128889124242" lon="10.566875001706451" id="-82066">
		<tag k="name" v="Rosskardet" />
		<tag k="natural" v="valley" />
		<tag k="place" v="locality" />
		<tag k="ssr:stedsnr" v="196034" />
	</node>
	<node lat="64.24112499724718" lon="10.521961120400722" id="-82067">
		<tag k="alt_name" v="Klumpan" />
		<tag k="fixme" v="consider natural=peak for the most distinct mountains in the district" />
		<tag k="name" v="Klumpen" />
		<tag k="natural" v="hill" />
		<tag k="place" v="locality" />
		<tag k="ssr:stedsnr" v="196046" />
	</node>
	<node lat="64.22457499872517" lon="10.606916666670827" id="-82068">
		<tag k="fixme" v="consider natural=peak for the most distinct mountains in the district" />
		<tag k="name" v="Geilnova" />
		<tag k="natural" v="hill" />
		<tag k="place" v="locality" />
		<tag k="ssr:stedsnr" v="196048" />
	</node>
	<node lat="64.26563055854126" lon="10.476466660048862" id="-82077">
		<tag k="name" v="Lindsetlian" />
		<tag k="natural" v="slope" />
		<tag k="place" v="locality" />
		<tag k="ssr:stedsnr" v="196573" />
	</node>
	<node lat="64.40721110693691" lon="10.532244436429458" id="-82088">
		<tag k="name" v="Fjellvegen" />
		<tag k="natural" v="slope" />
		<tag k="place" v="locality" />
		<tag k="ssr:stedsnr" v="215330" />
	</node>
	<node lat="64.31431389109648" lon="10.494066670114906" id="-82089">
		<tag k="name" v="Frukostheia" />
		<tag k="natural" v="hill" />
		<tag k="place" v="locality" />
		<tag k="ssr:stedsnr" v="215080" />
	</node>
	<node lat="64.24402499950011" lon="10.590161116982973" id="-82092">
		<tag k="alt_name" v="Hornlien" />
		<tag k="name" v="Hornlia" />
		<tag k="natural" v="slope" />
		<tag k="place" v="locality" />
		<tag k="ssr:stedsnr" v="215507" />
	</node>
	<node lat="64.28780833243198" lon="10.789447216002374" id="-82093">
		<tag k="name" v="Koihaugen" />
		<tag k="natural" v="hill" />
		<tag k="place" v="locality" />
		<tag k="ssr:stedsnr" v="215510" />
	</node>
	<node lat="64.27478055979016" lon="10.402049993435464" id="-82095">
		<tag k="name" v="Gløshaugen" />
		<tag k="natural" v="hill" />
		<tag k="place" v="locality" />
		<tag k="ssr:stedsnr" v="215527" />
	</node>
	<node lat="64.27598611041626" lon="10.39893888450575" id="-82096">
		<tag k="name" v="Storfjellet" />
		<tag k="natural" v="hill" />
		<tag k="place" v="locality" />
		<tag k="ssr:stedsnr" v="215529" />
	</node>
	<node lat="64.40062499656534" lon="10.494302770357349" id="-82097">
		<tag k="name" v="Rekstran" />
		<tag k="natural" v="slope" />
		<tag k="place" v="locality" />
		<tag k="ssr:stedsnr" v="215710" />
	</node>
	<node lat="64.39794166664501" lon="10.497747216444903" id="-82098">
		<tag k="name" v="Skolstuhaugen" />
		<tag k="natural" v="hill" />
		<tag k="place" v="locality" />
		<tag k="ssr:stedsnr" v="215711" />
	</node>
	<node lat="64.30978611467643" lon="10.546966671113335" id="-82101">
		<tag k="name" v="Slåtthaugen" />
		<tag k="natural" v="hill" />
		<tag k="place" v="locality" />
		<tag k="ssr:stedsnr" v="215486" />
	</node>
	<node lat="64.29232222257563" lon="10.533713890421962" id="-82102">
		<tag k="name" v="Føruklumpen" />
		<tag k="natural" v="hill" />
		<tag k="place" v="locality" />
		<tag k="ssr:stedsnr" v="215492" />
	</node>
	<node lat="64.30669166803767" lon="10.54663611393288" id="-82103">
		<tag k="name" v="Granholet" />
		<tag k="natural" v="valley" />
		<tag k="place" v="locality" />
		<tag k="ssr:stedsnr" v="215493" />
	</node>
	<node lat="64.29266388455734" lon="10.508494437617163" id="-82104">
		<tag k="name" v="Mokleiva" />
		<tag k="natural" v="hill" />
		<tag k="place" v="locality" />
		<tag k="ssr:stedsnr" v="215607" />
	</node>
	<node lat="64.22252777434953" lon="10.604336101041671" id="-82105">
		<tag k="fixme" v="consider natural=peak for the most distinct mountains in the district" />
		<tag k="name" v="Vollatømtet" />
		<tag k="natural" v="hill" />
		<tag k="place" v="locality" />
		<tag k="ssr:stedsnr" v="215674" />
	</node>
	<node lat="64.32011944105753" lon="10.579730553431947" id="-82107">
		<tag k="name" v="Brattbakkan" />
		<tag k="natural" v="slope" />
		<tag k="place" v="locality" />
		<tag k="ssr:stedsnr" v="215680" />
	</node>
	<node lat="64.26016389158177" lon="10.614077779594451" id="-82108">
		<tag k="name" v="Heggdalen" />
		<tag k="natural" v="valley" />
		<tag k="place" v="locality" />
		<tag k="ssr:stedsnr" v="215773" />
	</node>
	<node lat="64.30114166506705" lon="10.643749999219565" id="-82109">
		<tag k="name" v="Langdalen" />
		<tag k="natural" v="valley" />
		<tag k="place" v="locality" />
		<tag k="ssr:stedsnr" v="215781" />
	</node>
	<node lat="64.32230833735792" lon="10.483886113682107" id="-82119">
		<tag k="fixme" v="consider natural=peak for the most distinct mountains in the district" />
		<tag k="name" v="Strandafjellet" />
		<tag k="natural" v="hill" />
		<tag k="place" v="locality" />
		<tag k="ssr:stedsnr" v="256504" />
	</node>
	<node lat="64.27156666780576" lon="10.560808330375705" id="-82120">
		<tag k="name" v="Einarsdalen" />
		<tag k="natural" v="valley" />
		<tag k="place" v="locality" />
		<tag k="ssr:stedsnr" v="257657" />
	</node>
	<node lat="64.32212778175173" lon="10.476758324619762" id="-82123">
		<tag k="name" v="Hauken" />
		<tag k="natural" v="hill" />
		<tag k="place" v="locality" />
		<tag k="ssr:stedsnr" v="458027" />
	</node>
	<node lat="64.33563611507599" lon="10.476783325574502" id="-82124">
		<tag k="name" v="Sjåskardet" />
		<tag k="natural" v="valley" />
		<tag k="place" v="locality" />
		<tag k="ssr:stedsnr" v="458032" />
	</node>
	<node lat="64.31304166994163" lon="10.53161110491396" id="-82125">
		<tag k="name" v="Reveggnova" />
		<tag k="natural" v="slope" />
		<tag k="place" v="locality" />
		<tag k="ssr:stedsnr" v="458035" />
	</node>
	<node lat="64.25531944185471" lon="10.39556945421183" id="-82126">
		<tag k="name" v="Inner Kromsfjellet" />
		<tag k="natural" v="hill" />
		<tag k="place" v="locality" />
		<tag k="ssr:stedsnr" v="458096" />
	</node>
	<node lat="64.32499721829018" lon="10.560911114379868" id="-82128">
		<tag k="name" v="Liksteinbakkan" />
		<tag k="natural" v="slope" />
		<tag k="place" v="locality" />
		<tag k="ssr:stedsnr" v="458046" />
	</node>
	<node lat="64.40430278154103" lon="10.531433330175437" id="-82130">
		<tag k="name" v="Brekka" />
		<tag k="natural" v="hill" />
		<tag k="place" v="locality" />
		<tag k="ssr:stedsnr" v="458326" />
	</node>
	<node lat="64.29938055389563" lon="10.512905554826283" id="-82132">
		<tag k="name" v="Mølnberget" />
		<tag k="natural" v="hill" />
		<tag k="place" v="locality" />
		<tag k="ssr:stedsnr" v="458340" />
	</node>
	<node lat="64.34743611131785" lon="10.50227500597906" id="-82134">
		<tag k="name" v="Jevikklumpen" />
		<tag k="natural" v="hill" />
		<tag k="place" v="locality" />
		<tag k="ssr:stedsnr" v="458372" />
	</node>
	<node lat="64.34041944677502" lon="10.467388894253927" id="-82135">
		<tag k="name" v="Sør Bakkan" />
		<tag k="natural" v="hill" />
		<tag k="place" v="locality" />
		<tag k="ssr:stedsnr" v="458380" />
	</node>
	<node lat="64.28027500181615" lon="10.601200003000505" id="-82138">
		<tag k="name" v="Midtiheia" />
		<tag k="natural" v="hill" />
		<tag k="place" v="locality" />
		<tag k="ssr:stedsnr" v="458487" />
	</node>
	<node lat="64.33691666433796" lon="10.473519447053825" id="-82139">
		<tag k="name" v="Klungskardet" />
		<tag k="natural" v="valley" />
		<tag k="place" v="locality" />
		<tag k="ssr:stedsnr" v="267793" />
	</node>
	<node lat="64.27660278180781" lon="10.618966668198539" id="-82140">
		<tag k="name" v="Høgfosslia" />
		<tag k="natural" v="slope" />
		<tag k="place" v="locality" />
		<tag k="ssr:stedsnr" v="458438" />
	</node>
	<node lat="64.32730833688626" lon="10.369469435046296" id="-82146">
		<tag k="name" v="Nordfjellet" />
		<tag k="natural" v="hill" />
		<tag k="place" v="locality" />
		<tag k="ssr:stedsnr" v="458556" />
	</node>
	<node lat="64.25186389031711" lon="10.419183338011193" id="-82147">
		<tag k="name" v="Hyllvegen" />
		<tag k="natural" v="slope" />
		<tag k="place" v="locality" />
		<tag k="ssr:stedsnr" v="458641" />
	</node>
	<node lat="64.27856666635856" lon="10.576124999257212" id="-82149">
		<tag k="name" v="Melhusenget" />
		<tag k="place" v="locality" />
		<tag k="ssr:stedsnr" v="458674" />
	</node>
	<node lat="64.27474444133088" lon="10.423019444760577" id="-82153">
		<tag k="name" v="Landaskardholten" />
		<tag k="natural" v="ridge" />
		<tag k="place" v="locality" />
		<tag k="ssr:stedsnr" v="458653" />
	</node>
	<node lat="64.29023611331816" lon="10.811983324890088" id="-82154">
		<tag k="name" v="Rørvassklumpen" />
		<tag k="natural" v="hill" />
		<tag k="place" v="locality" />
		<tag k="ssr:stedsnr" v="458721" />
	</node>
	<node lat="64.24743333547094" lon="10.6755111104662" id="-82156">
		<tag k="name" v="Nordlia" />
		<tag k="natural" v="slope" />
		<tag k="place" v="locality" />
		<tag k="ssr:stedsnr" v="458728" />
	</node>
	<node lat="64.30667500102284" lon="10.688077785814423" id="-82163">
		<tag k="name" v="Langlia" />
		<tag k="natural" v="slope" />
		<tag k="place" v="locality" />
		<tag k="ssr:stedsnr" v="458750" />
	</node>
	<node lat="64.3205749981335" lon="10.382683326474293" id="-82165">
		<tag k="name" v="Nesahaugan" />
		<tag k="natural" v="hill" />
		<tag k="place" v="locality" />
		<tag k="ssr:stedsnr" v="276022" />
	</node>
	<node lat="64.32018055810626" lon="10.482977774769278" id="-82166">
		<tag k="name" v="Kammen" />
		<tag k="natural" v="hill" />
		<tag k="place" v="locality" />
		<tag k="ssr:stedsnr" v="276024" />
	</node>
	<node lat="64.32308333520211" lon="10.490458334993388" id="-82167">
		<tag k="name" v="Hundrova" />
		<tag k="natural" v="valley" />
		<tag k="place" v="locality" />
		<tag k="ssr:stedsnr" v="276028" />
	</node>
	<node lat="64.31620555251224" lon="10.486338894493182" id="-82168">
		<tag k="name" v="Kvernhusdalen" />
		<tag k="natural" v="valley" />
		<tag k="place" v="locality" />
		<tag k="ssr:stedsnr" v="276031" />
	</node>
	<node lat="64.25116111352489" lon="10.705386121479064" id="-82172">
		<tag k="name" v="Litlstorhaugen" />
		<tag k="natural" v="hill" />
		<tag k="place" v="locality" />
		<tag k="ssr:stedsnr" v="276402" />
	</node>
	<node lat="64.27309166910055" lon="10.7491055514227" id="-82174">
		<tag k="name" v="Kaspertømtet" />
		<tag k="place" v="locality" />
		<tag k="ssr:stedsnr" v="276409" />
	</node>
	<node lat="64.40444999762323" lon="10.534108326680865" id="-82175">
		<tag k="name" v="Smalskardet" />
		<tag k="natural" v="valley" />
		<tag k="place" v="locality" />
		<tag k="ssr:stedsnr" v="276322" />
	</node>
	<node lat="64.23431944627723" lon="10.67540834322131" id="-82176">
		<tag k="name" v="Frokosthaugen" />
		<tag k="natural" v="hill" />
		<tag k="place" v="locality" />
		<tag k="ssr:stedsnr" v="276369" />
	</node>
	<node lat="64.30047499763427" lon="10.278972215839564" id="-82182">
		<tag k="name" v="Storomflauget" />
		<tag k="natural" v="hill" />
		<tag k="place" v="locality" />
		<tag k="ssr:stedsnr" v="276513" />
	</node>
	<node lat="64.29783333385" lon="10.289488898868283" id="-82183">
		<tag k="name" v="Måsfjellet" />
		<tag k="natural" v="hill" />
		<tag k="place" v="locality" />
		<tag k="ssr:stedsnr" v="276673" />
	</node>
	<node lat="64.28753610976773" lon="10.567261114760031" id="-82184">
		<tag k="name" v="Øverdalsbakkan" />
		<tag k="natural" v="slope" />
		<tag k="place" v="locality" />
		<tag k="ssr:stedsnr" v="276682" />
	</node>
	<node lat="64.287169444716" lon="10.551197212054719" id="-82185">
		<tag k="name" v="Smådølin" />
		<tag k="natural" v="valley" />
		<tag k="place" v="locality" />
		<tag k="ssr:stedsnr" v="276685" />
	</node>
	<node lat="64.32200833380321" lon="10.55143610432738" id="-82186">
		<tag k="name" v="Vingtømtet" />
		<tag k="natural" v="slope" />
		<tag k="place" v="locality" />
		<tag k="ssr:stedsnr" v="276708" />
	</node>
	<node lat="64.39957221879499" lon="10.502772213763016" id="-82187">
		<tag k="name" v="Hedningshaugen" />
		<tag k="natural" v="hill" />
		<tag k="place" v="locality" />
		<tag k="ssr:stedsnr" v="276721" />
	</node>
	<node lat="64.33608055751996" lon="10.508283334543465" id="-82189">
		<tag k="name" v="Sørholet" />
		<tag k="natural" v="hill" />
		<tag k="place" v="locality" />
		<tag k="ssr:stedsnr" v="276726" />
	</node>
	<node lat="64.27187777696994" lon="10.638219437656215" id="-82190">
		<tag k="name" v="Granbarholet" />
		<tag k="natural" v="valley" />
		<tag k="place" v="locality" />
		<tag k="ssr:stedsnr" v="276786" />
	</node>
	<node lat="64.23393888647584" lon="10.493580563661396" id="-82200">
		<tag k="name" v="Påldalen" />
		<tag k="natural" v="valley" />
		<tag k="place" v="locality" />
		<tag k="ssr:stedsnr" v="317042" />
	</node>
	<node lat="64.29653889102761" lon="10.642808331830405" id="-82206">
		<tag k="name" v="Nonspynten" />
		<tag k="natural" v="hill" />
		<tag k="place" v="locality" />
		<tag k="ssr:stedsnr" v="317515" />
	</node>
	<node lat="64.2786027785875" lon="10.493891671795678" id="-82208">
		<tag k="name" v="Nordskardet" />
		<tag k="natural" v="valley" />
		<tag k="place" v="locality" />
		<tag k="ssr:stedsnr" v="317554" />
	</node>
	<node lat="64.2748194404225" lon="10.433050002719558" id="-82214">
		<tag k="name" v="Litlhesten" />
		<tag k="natural" v="hill" />
		<tag k="place" v="locality" />
		<tag k="ssr:stedsnr" v="336003" />
	</node>
	<node lat="64.28534444789513" lon="10.555794453389653" id="-82217">
		<tag k="name" v="Lihalsan" />
		<tag k="natural" v="slope" />
		<tag k="place" v="locality" />
		<tag k="ssr:stedsnr" v="336600" />
	</node>
	<node lat="64.26397221887188" lon="10.63306387886681" id="-82218">
		<tag k="name" v="Litlbrekkfjellet" />
		<tag k="natural" v="hill" />
		<tag k="place" v="locality" />
		<tag k="ssr:stedsnr" v="336712" />
	</node>
	<node lat="64.26977499801596" lon="10.475036107054487" id="-82222">
		<tag k="name" v="Lian" />
		<tag k="natural" v="slope" />
		<tag k="place" v="locality" />
		<tag k="ssr:stedsnr" v="337055" />
	</node>
	<node lat="64.19988333178563" lon="10.681166672669796" id="-82223">
		<tag k="name" v="Førruholtet" />
		<tag k="natural" v="hill" />
		<tag k="place" v="locality" />
		<tag k="ssr:stedsnr" v="337418" />
	</node>
	<node lat="64.23219722230023" lon="10.6036750090774" id="-82225">
		<tag k="name" v="Seterlia" />
		<tag k="natural" v="slope" />
		<tag k="place" v="locality" />
		<tag k="ssr:stedsnr" v="337451" />
	</node>
	<node lat="64.20818888733129" lon="10.674338882657235" id="-82226">
		<tag k="name" v="Taraldholet" />
		<tag k="natural" v="valley" />
		<tag k="place" v="locality" />
		<tag k="ssr:stedsnr" v="337399" />
	</node>
	<node lat="64.34821111514098" lon="10.455686111337647" id="-82229">
		<tag k="name" v="Merravarden" />
		<tag k="natural" v="hill" />
		<tag k="place" v="locality" />
		<tag k="ssr:stedsnr" v="337660" />
	</node>
	<node lat="64.17085000257069" lon="10.592383328105846" id="-82235">
		<tag k="fixme" v="consider natural=peak for the most distinct mountains in the district" />
		<tag k="name" v="Mellomliheia" />
		<tag k="natural" v="hill" />
		<tag k="place" v="locality" />
		<tag k="ssr:stedsnr" v="378466" />
	</node>
	<node lat="64.18508333573018" lon="10.672580560165041" id="-82236">
		<tag k="fixme" v="consider natural=peak for the most distinct mountains in the district" />
		<tag k="name" v="Hesten" />
		<tag k="natural" v="hill" />
		<tag k="place" v="locality" />
		<tag k="ssr:stedsnr" v="378478" />
	</node>
	<node lat="64.37591110765948" lon="10.656400001746784" id="-82242">
		<tag k="fixme" v="consider natural=peak for the most distinct mountains in the district" />
		<tag k="name" v="Sørmarkfjellet" />
		<tag k="natural" v="hill" />
		<tag k="place" v="locality" />
		<tag k="ssr:stedsnr" v="378736" />
	</node>
	<node lat="64.22312499986646" lon="10.858397220557373" id="-82244">
		<tag k="fixme" v="consider natural=peak for the most distinct mountains in the district" />
		<tag k="name" v="Fiskløysheia" />
		<tag k="natural" v="hill" />
		<tag k="place" v="locality" />
		<tag k="ssr:stedsnr" v="378677" />
	</node>
	<node lat="64.29372500188018" lon="10.551572218363589" id="-82249">
		<tag k="name" v="Lomsinskardet" />
		<tag k="natural" v="valley" />
		<tag k="place" v="locality" />
		<tag k="ssr:stedsnr" v="397008" />
	</node>
	<node lat="64.25592221875071" lon="10.43073055050514" id="-82250">
		<tag k="name" v="Steinenget" />
		<tag k="natural" v="hill" />
		<tag k="place" v="locality" />
		<tag k="ssr:stedsnr" v="397105" />
	</node>
	<node lat="64.26448055727604" lon="10.58296666595526" id="-82253">
		<tag k="name" v="Storbakkan" />
		<tag k="natural" v="slope" />
		<tag k="place" v="locality" />
		<tag k="ssr:stedsnr" v="397031" />
	</node>
	<node lat="64.34873611248398" lon="10.463275008619702" id="-82254">
		<tag k="name" v="Brygghaugen" />
		<tag k="natural" v="hill" />
		<tag k="place" v="locality" />
		<tag k="ssr:stedsnr" v="397098" />
	</node>
	<node lat="64.24217499790103" lon="10.669374992046386" id="-82257">
		<tag k="fixme" v="consider natural=peak for the most distinct mountains in the district" />
		<tag k="name" v="Brannhaugpynten" />
		<tag k="natural" v="hill" />
		<tag k="place" v="locality" />
		<tag k="ssr:stedsnr" v="397291" />
	</node>
	<node lat="64.28008888627203" lon="10.66081944274744" id="-82259">
		<tag k="name" v="Granlia" />
		<tag k="natural" v="slope" />
		<tag k="place" v="locality" />
		<tag k="ssr:stedsnr" v="397300" />
	</node>
	<node lat="64.29900555503274" lon="10.285463887118143" id="-82265">
		<tag k="name" v="Grasfjellet" />
		<tag k="natural" v="hill" />
		<tag k="place" v="locality" />
		<tag k="ssr:stedsnr" v="397493" />
	</node>
	<node lat="64.33381388623687" lon="10.481308336575715" id="-82268">
		<tag k="name" v="Sjåskardfjellet" />
		<tag k="natural" v="hill" />
		<tag k="place" v="locality" />
		<tag k="ssr:stedsnr" v="397683" />
	</node>
	<node lat="64.20049999709644" lon="10.671225009552172" id="-82269">
		<tag k="name" v="Seterdalen" />
		<tag k="natural" v="valley" />
		<tag k="place" v="locality" />
		<tag k="ssr:stedsnr" v="397730" />
	</node>
	<node lat="64.23690000458657" lon="10.596613881955827" id="-82272">
		<tag k="fixme" v="consider natural=peak for the most distinct mountains in the district" />
		<tag k="name" v="Storhornet" />
		<tag k="natural" v="hill" />
		<tag k="place" v="locality" />
		<tag k="ssr:stedsnr" v="438048" />
	</node>
	<node lat="64.22155277542238" lon="10.664724991475168" id="-82273">
		<tag k="fixme" v="consider natural=peak for the most distinct mountains in the district" />
		<tag k="name" v="Middagsfjellet" />
		<tag k="natural" v="hill" />
		<tag k="place" v="locality" />
		<tag k="ssr:stedsnr" v="438049" />
	</node>
	<node lat="64.26113888543792" lon="10.531755549140003" id="-82277">
		<tag k="fixme" v="consider natural=peak for the most distinct mountains in the district" />
		<tag k="name" v="Gjeltheia" />
		<tag k="natural" v="hill" />
		<tag k="place" v="locality" />
		<tag k="ssr:stedsnr" v="438855" />
	</node>
	<node lat="64.25654444810911" lon="10.597686106987586" id="-82278">
		<tag k="name" v="Killingdalen" />
		<tag k="natural" v="valley" />
		<tag k="place" v="locality" />
		<tag k="ssr:stedsnr" v="439006" />
	</node>
	<node lat="64.27736389190662" lon="10.850038892154364" id="-82279">
		<tag k="name" v="Skåndalen" />
		<tag k="natural" v="valley" />
		<tag k="place" v="locality" />
		<tag k="ssr:stedsnr" v="439095" />
	</node>
	<node lat="64.22700833602427" lon="10.820822228064229" id="-82282">
		<tag k="name" v="Rathaugen" />
		<tag k="natural" v="hill" />
		<tag k="place" v="locality" />
		<tag k="ssr:stedsnr" v="439654" />
	</node>
	<node lat="64.2728611134028" lon="10.42626112018416" id="-82283">
		<tag k="fixme" v="consider natural=peak for the most distinct mountains in the district" />
		<tag k="name" v="Hesten" />
		<tag k="natural" v="hill" />
		<tag k="place" v="locality" />
		<tag k="ssr:stedsnr" v="439597" />
	</node>
	<node lat="64.27231666957802" lon="10.539974991703422" id="-82284">
		<tag k="fixme" v="consider natural=peak for the most distinct mountains in the district" />
		<tag k="name" v="Lågheia" />
		<tag k="natural" v="hill" />
		<tag k="place" v="locality" />
		<tag k="ssr:stedsnr" v="439600" />
	</node>
	<node lat="64.29733055552602" lon="10.42430000867492" id="-82289">
		<tag k="name" v="Manndraparen" />
		<tag k="natural" v="hill" />
		<tag k="place" v="locality" />
		<tag k="ssr:stedsnr" v="451882" />
	</node>
	<node lat="64.18867499983664" lon="10.665402778298436" id="-82290">
		<tag k="name" v="Vargklumpen" />
		<tag k="natural" v="hill" />
		<tag k="place" v="locality" />
		<tag k="ssr:stedsnr" v="458060" />
	</node>
	<node lat="64.2894361092901" lon="10.56642498966859" id="-82291">
		<tag k="name" v="Rivhaugan" />
		<tag k="natural" v="hill" />
		<tag k="place" v="locality" />
		<tag k="ssr:stedsnr" v="458062" />
	</node>
	<node lat="64.28289167013912" lon="10.471036118374728" id="-82294">
		<tag k="name" v="Rapet" />
		<tag k="natural" v="slope" />
		<tag k="place" v="locality" />
		<tag k="ssr:stedsnr" v="458073" />
	</node>
	<node lat="64.40348333169311" lon="10.536602780271163" id="-82296">
		<tag k="name" v="Staverheia" />
		<tag k="natural" v="hill" />
		<tag k="place" v="locality" />
		<tag k="ssr:stedsnr" v="458311" />
	</node>
	<node lat="64.40376388784173" lon="10.568597226507498" id="-82297">
		<tag k="name" v="Langmarka" />
		<tag k="natural" v="hill" />
		<tag k="place" v="locality" />
		<tag k="ssr:stedsnr" v="458312" />
	</node>
	<node lat="64.40503333028563" lon="10.47916943671082" id="-82298">
		<tag k="name" v="Brennhaugen" />
		<tag k="natural" v="hill" />
		<tag k="place" v="locality" />
		<tag k="ssr:stedsnr" v="458313" />
	</node>
	<node lat="64.40636110673634" lon="10.52830834273722" id="-82301">
		<tag k="name" v="Nordskaret" />
		<tag k="natural" v="valley" />
		<tag k="place" v="locality" />
		<tag k="ssr:stedsnr" v="458324" />
	</node>
	<node lat="64.30428888756843" lon="10.640455548274016" id="-82302">
		<tag k="name" v="Skavdalen" />
		<tag k="natural" v="valley" />
		<tag k="place" v="locality" />
		<tag k="ssr:stedsnr" v="458408" />
	</node>
	<node lat="64.1894972192873" lon="10.625236109852429" id="-82305">
		<tag k="name" v="Svartholhøgda" />
		<tag k="natural" v="hill" />
		<tag k="place" v="locality" />
		<tag k="ssr:stedsnr" v="458464" />
	</node>
	<node lat="64.24212777735713" lon="10.615611115002684" id="-82306">
		<tag k="name" v="Rangvassdalen" />
		<tag k="natural" v="valley" />
		<tag k="place" v="locality" />
		<tag k="ssr:stedsnr" v="458472" />
	</node>
	<node lat="64.36383610723918" lon="10.61921944170955" id="-82307">
		<tag k="name" v="Holandshaugen" />
		<tag k="natural" v="hill" />
		<tag k="place" v="locality" />
		<tag k="ssr:stedsnr" v="458360" />
	</node>
	<node lat="64.28713055709173" lon="10.744472223512018" id="-82310">
		<tag k="name" v="Langvassdalshaugen" />
		<tag k="natural" v="hill" />
		<tag k="place" v="locality" />
		<tag k="ssr:stedsnr" v="458717" />
	</node>
	<node lat="64.33226666372359" lon="10.357802785386914" id="-82313">
		<tag k="name" v="Dølkeilhaugen" />
		<tag k="natural" v="hill" />
		<tag k="place" v="locality" />
		<tag k="ssr:stedsnr" v="458660" />
	</node>
	<node lat="64.29541666674947" lon="10.278949999863597" id="-82314">
		<tag k="name" v="Hovden" />
		<tag k="natural" v="hill" />
		<tag k="place" v="locality" />
		<tag k="ssr:stedsnr" v="458665" />
	</node>
	<node lat="64.25768333675025" lon="10.518952775103319" id="-82326">
		<tag k="name" v="Lindsetstauren" />
		<tag k="natural" v="hill" />
		<tag k="place" v="locality" />
		<tag k="ssr:stedsnr" v="681433" />
	</node>
	<node lat="64.27417222226637" lon="10.746541657984945" id="-82327">
		<tag k="name" v="Jolia" />
		<tag k="natural" v="slope" />
		<tag k="place" v="locality" />
		<tag k="ssr:stedsnr" v="499108" />
	</node>
	<node lat="64.2815749991409" lon="10.616199990579993" id="-82335">
		<tag k="fixme" v="consider natural=peak for the most distinct mountains in the district" />
		<tag k="name" v="Storheia" />
		<tag k="natural" v="hill" />
		<tag k="place" v="locality" />
		<tag k="ssr:stedsnr" v="499539" />
	</node>
	<node lat="64.402819448051" lon="10.477547226847369" id="-82337">
		<tag k="name" v="Nesvågklubben" />
		<tag k="natural" v="hill" />
		<tag k="place" v="locality" />
		<tag k="ssr:stedsnr" v="499609" />
	</node>
	<node lat="64.22349722545883" lon="10.733902781191633" id="-82343">
		<tag k="name" v="Enokhaugen" />
		<tag k="natural" v="hill" />
		<tag k="place" v="locality" />
		<tag k="ssr:stedsnr" v="499592" />
	</node>
	<node lat="64.19846944707487" lon="10.603674996210856" id="-82348">
		<tag k="fixme" v="consider natural=peak for the most distinct mountains in the district" />
		<tag k="name" v="Geilvassnova" />
		<tag k="natural" v="hill" />
		<tag k="place" v="locality" />
		<tag k="ssr:stedsnr" v="681484" />
	</node>
	<node lat="64.32885555995848" lon="10.618950005435236" id="-82350">
		<tag k="name" v="Liakleiva" />
		<tag k="natural" v="slope" />
		<tag k="place" v="locality" />
		<tag k="ssr:stedsnr" v="681528" />
	</node>
	<node lat="64.27973611149939" lon="10.474163896649278" id="-82353">
		<tag k="name" v="Rapet" />
		<tag k="natural" v="valley" />
		<tag k="place" v="locality" />
		<tag k="ssr:stedsnr" v="681585" />
	</node>
	<node lat="64.27856666520707" lon="10.711930554447154" id="-82356">
		<tag k="name" v="Aksla" />
		<tag k="natural" v="hill" />
		<tag k="place" v="locality" />
		<tag k="ssr:stedsnr" v="681599" />
	</node>
	<node lat="64.25856389128909" lon="10.63601111758943" id="-82357">
		<tag k="name" v="Langdalen" />
		<tag k="natural" v="valley" />
		<tag k="place" v="locality" />
		<tag k="ssr:stedsnr" v="681629" />
	</node>
	<node lat="64.32667778200137" lon="10.364861101101821" id="-82359">
		<tag k="fixme" v="consider natural=peak for the most distinct mountains in the district" />
		<tag k="name" v="Måsfjellet" />
		<tag k="natural" v="hill" />
		<tag k="place" v="locality" />
		<tag k="ssr:stedsnr" v="681503" />
	</node>
	<node lat="64.21436111013696" lon="10.736961113435937" id="-82361">
		<tag k="name" v="Tuva" />
		<tag k="natural" v="hill" />
		<tag k="place" v="locality" />
		<tag k="ssr:stedsnr" v="681651" />
	</node>
	<node lat="64.39024999826327" lon="10.586249989851261" id="-82364">
		<tag k="name" v="Oddhammaren" />
		<tag k="natural" v="hill" />
		<tag k="place" v="locality" />
		<tag k="ssr:stedsnr" v="681697" />
	</node>
	<node lat="64.37061111084567" lon="10.63846388107468" id="-82373">
		<tag k="alt_name" v="Holanddalen" />
		<tag k="name" v="Holandsdalen" />
		<tag k="natural" v="valley" />
		<tag k="place" v="locality" />
		<tag k="ssr:stedsnr" v="681709" />
	</node>
	<node lat="64.27998611237776" lon="10.678199991371091" id="-82384">
		<tag k="name" v="Krokvadheia" />
		<tag k="natural" v="hill" />
		<tag k="place" v="locality" />
		<tag k="ssr:stedsnr" v="518713" />
	</node>
	<node lat="64.29700555511012" lon="10.624941663015093" id="-82387">
		<tag k="name" v="Gammelanderstømtet" />
		<tag k="natural" v="slope" />
		<tag k="place" v="locality" />
		<tag k="ssr:stedsnr" v="518736" />
	</node>
	<node lat="64.3626805564857" lon="10.634858323141978" id="-82394">
		<tag k="name" v="Albertvika" />
		<tag k="natural" v="slope" />
		<tag k="place" v="locality" />
		<tag k="ssr:stedsnr" v="519313" />
	</node>
	<node lat="64.410697223633" lon="10.510336102054108" id="-82395">
		<tag k="name" v="Storholmmarkhatten" />
		<tag k="natural" v="hill" />
		<tag k="place" v="locality" />
		<tag k="ssr:stedsnr" v="519314" />
	</node>
	<node lat="64.41120555362065" lon="10.534269446136644" id="-82396">
		<tag k="name" v="Ramondholet" />
		<tag k="natural" v="valley" />
		<tag k="place" v="locality" />
		<tag k="ssr:stedsnr" v="519319" />
	</node>
	<node lat="64.40636666584086" lon="10.546827772870227" id="-82398">
		<tag k="name" v="Bjørkholet" />
		<tag k="natural" v="valley" />
		<tag k="place" v="locality" />
		<tag k="ssr:stedsnr" v="519359" />
	</node>
	<node lat="64.27603610708833" lon="10.749624999538012" id="-82399">
		<tag k="name" v="Merra" />
		<tag k="natural" v="hill" />
		<tag k="place" v="locality" />
		<tag k="ssr:stedsnr" v="519364" />
	</node>
	<node lat="64.32653611194863" lon="10.458191659781862" id="-82405">
		<tag k="name" v="Høvikskardet" />
		<tag k="natural" v="valley" />
		<tag k="place" v="locality" />
		<tag k="ssr:stedsnr" v="519475" />
	</node>
	<node lat="64.2896527814125" lon="10.409949992912974" id="-82406">
		<tag k="name" v="Øksenvikhaugan" />
		<tag k="natural" v="hill" />
		<tag k="place" v="locality" />
		<tag k="ssr:stedsnr" v="519613" />
	</node>
	<node lat="64.33767500335136" lon="10.403180561509545" id="-82407">
		<tag k="name" v="Vettan" />
		<tag k="natural" v="ridge" />
		<tag k="place" v="locality" />
		<tag k="ssr:stedsnr" v="519622" />
	</node>
	<node lat="64.36623055872683" lon="10.616227783768965" id="-82408">
		<tag k="name" v="Bremvika" />
		<tag k="natural" v="slope" />
		<tag k="place" v="locality" />
		<tag k="ssr:stedsnr" v="519721" />
	</node>
	<node lat="64.25365277876794" lon="10.607611119264014" id="-82417">
		<tag k="alt_name" v="Granfjellet" />
		<tag k="fixme" v="consider natural=peak for the most distinct mountains in the district" />
		<tag k="name" v="Granfjellklumpen" />
		<tag k="natural" v="hill" />
		<tag k="place" v="locality" />
		<tag k="ssr:stedsnr" v="559405" />
	</node>
	<node lat="64.33834167079839" lon="10.466555562777343" id="-82419">
		<tag k="fixme" v="consider natural=peak for the most distinct mountains in the district" />
		<tag k="name" v="Draugfjellet" />
		<tag k="natural" v="hill" />
		<tag k="place" v="locality" />
		<tag k="ssr:stedsnr" v="559496" />
	</node>
	<node lat="64.34461388450556" lon="10.582380552996474" id="-82424">
		<tag k="name" v="Tømmerskardet" />
		<tag k="natural" v="valley" />
		<tag k="place" v="locality" />
		<tag k="ssr:stedsnr" v="559745" />
	</node>
	<node lat="64.25724722050641" lon="10.85936389408254" id="-82425">
		<tag k="fixme" v="consider natural=peak for the most distinct mountains in the district" />
		<tag k="name" v="Vakkerheia" />
		<tag k="natural" v="hill" />
		<tag k="place" v="locality" />
		<tag k="ssr:stedsnr" v="560135" />
	</node>
	<node lat="64.32271666268593" lon="10.36613610347265" id="-82435">
		<tag k="name" v="Vikarhaugan" />
		<tag k="natural" v="hill" />
		<tag k="place" v="locality" />
		<tag k="ssr:stedsnr" v="579004" />
	</node>
	<node lat="64.31870555246186" lon="10.557391672514687" id="-82436">
		<tag k="name" v="Reirskardet" />
		<tag k="natural" v="valley" />
		<tag k="place" v="locality" />
		<tag k="ssr:stedsnr" v="579040" />
	</node>
	<node lat="64.28912777958365" lon="10.562377777264011" id="-82438">
		<tag k="name" v="Rivdalen" />
		<tag k="natural" v="valley" />
		<tag k="place" v="locality" />
		<tag k="ssr:stedsnr" v="579055" />
	</node>
	<node lat="64.24761110973314" lon="10.723719445242555" id="-82439">
		<tag k="name" v="Øver Seterlia" />
		<tag k="natural" v="slope" />
		<tag k="place" v="locality" />
		<tag k="ssr:stedsnr" v="579303" />
	</node>
	<node lat="64.28971666752457" lon="10.73373611459923" id="-82440">
		<tag k="name" v="Haugavasshøgda" />
		<tag k="natural" v="hill" />
		<tag k="place" v="locality" />
		<tag k="ssr:stedsnr" v="579307" />
	</node>
	<node lat="64.40987500016567" lon="10.526894452395322" id="-82442">
		<tag k="name" v="Fossberga" />
		<tag k="natural" v="hill" />
		<tag k="place" v="locality" />
		<tag k="ssr:stedsnr" v="579313" />
	</node>
	<node lat="64.2414250035631" lon="10.639980549408463" id="-82443">
		<tag k="name" v="Kjølen" />
		<tag k="natural" v="hill" />
		<tag k="place" v="locality" />
		<tag k="ssr:stedsnr" v="579404" />
	</node>
	<node lat="64.2459555558502" lon="10.84192221631635" id="-82445">
		<tag k="name" v="Sandvasslia" />
		<tag k="natural" v="slope" />
		<tag k="place" v="locality" />
		<tag k="ssr:stedsnr" v="579490" />
	</node>
	<node lat="64.2623027811041" lon="10.450511108814617" id="-82446">
		<tag k="name" v="Grasholet" />
		<tag k="natural" v="slope" />
		<tag k="place" v="locality" />
		<tag k="ssr:stedsnr" v="579442" />
	</node>
	<node lat="64.31354721958363" lon="10.48522499435966" id="-82448">
		<tag k="name" v="Bukkskinnflauget" />
		<tag k="natural" v="hill" />
		<tag k="place" v="locality" />
		<tag k="ssr:stedsnr" v="579629" />
	</node>
	<node lat="64.29461666298523" lon="10.432883340970273" id="-82450">
		<tag k="name" v="Knubben" />
		<tag k="natural" v="ridge" />
		<tag k="place" v="locality" />
		<tag k="ssr:stedsnr" v="579649" />
	</node>
	<node lat="64.28915555476942" lon="10.303377779271289" id="-82453">
		<tag k="name" v="Harsfjellet" />
		<tag k="natural" v="hill" />
		<tag k="place" v="locality" />
		<tag k="ssr:stedsnr" v="579509" />
	</node>
	<node lat="64.2948055522036" lon="10.285261116558424" id="-82454">
		<tag k="name" v="Krokåtvarden" />
		<tag k="natural" v="hill" />
		<tag k="place" v="locality" />
		<tag k="ssr:stedsnr" v="579522" />
	</node>
	<node lat="64.40460277889399" lon="10.502813891900828" id="-82457">
		<tag k="name" v="Engelsdalen" />
		<tag k="natural" v="valley" />
		<tag k="place" v="locality" />
		<tag k="ssr:stedsnr" v="579704" />
	</node>
	<node lat="64.40203611320514" lon="10.478886112426395" id="-82461">
		<tag k="name" v="Laugavikskardet" />
		<tag k="natural" v="valley" />
		<tag k="place" v="locality" />
		<tag k="ssr:stedsnr" v="579696" />
	</node>
	<node lat="64.29158333424323" lon="10.560258342277024" id="-82467">
		<tag k="name" v="Kvernhusbakkan" />
		<tag k="natural" v="slope" />
		<tag k="place" v="locality" />
		<tag k="ssr:stedsnr" v="701049" />
	</node>
	<node lat="64.25895832889611" lon="10.64951944728166" id="-82469">
		<tag k="name" v="Tjørradalsklumpen" />
		<tag k="natural" v="hill" />
		<tag k="place" v="locality" />
		<tag k="ssr:stedsnr" v="701057" />
	</node>
	<node lat="64.24409444499611" lon="10.79618611186881" id="-82471">
		<tag k="name" v="Annfinnlia" />
		<tag k="natural" v="slope" />
		<tag k="place" v="locality" />
		<tag k="ssr:stedsnr" v="701095" />
	</node>
	<node lat="64.24557222393986" lon="10.699408339416376" id="-82473">
		<tag k="name" v="Kristianlia" />
		<tag k="natural" v="slope" />
		<tag k="place" v="locality" />
		<tag k="ssr:stedsnr" v="701345" />
	</node>
	<node lat="64.41018055878365" lon="10.50175278516139" id="-82474">
		<tag k="name" v="Storholmmarkhaugen" />
		<tag k="natural" v="hill" />
		<tag k="place" v="locality" />
		<tag k="ssr:stedsnr" v="701354" />
	</node>
	<node lat="64.34273610724178" lon="10.507672218667052" id="-82476">
		<tag k="name" v="Rabben" />
		<tag k="natural" v="slope" />
		<tag k="place" v="locality" />
		<tag k="ssr:stedsnr" v="701383" />
	</node>
	<node lat="64.19501389036049" lon="10.63933612149348" id="-82477">
		<tag k="name" v="Geilvasslia" />
		<tag k="natural" v="slope" />
		<tag k="place" v="locality" />
		<tag k="ssr:stedsnr" v="701439" />
	</node>
	<node lat="64.29166944721636" lon="10.298466662656029" id="-82480">
		<tag k="name" v="Innerøyfjellet" />
		<tag k="natural" v="hill" />
		<tag k="place" v="locality" />
		<tag k="ssr:stedsnr" v="701628" />
	</node>
	<node lat="64.29239722319468" lon="10.30206944353754" id="-82481">
		<tag k="name" v="Trollskardhaugan" />
		<tag k="natural" v="hill" />
		<tag k="place" v="locality" />
		<tag k="ssr:stedsnr" v="701629" />
	</node>
	<node lat="64.27458333622762" lon="10.470738879018196" id="-82483">
		<tag k="name" v="Iverdalen" />
		<tag k="natural" v="valley" />
		<tag k="place" v="locality" />
		<tag k="ssr:stedsnr" v="701600" />
	</node>
	<node lat="64.28743610950002" lon="10.57548055410809" id="-82485">
		<tag k="name" v="Norddalen" />
		<tag k="natural" v="valley" />
		<tag k="place" v="locality" />
		<tag k="ssr:stedsnr" v="701645" />
	</node>
	<node lat="64.20335833554815" lon="10.698124989912444" id="-82488">
		<tag k="fixme" v="consider natural=peak for the most distinct mountains in the district" />
		<tag k="name" v="Blåheinova" />
		<tag k="natural" v="hill" />
		<tag k="place" v="locality" />
		<tag k="ssr:stedsnr" v="701736" />
	</node>
	<node lat="64.33327500057295" lon="10.594741671790748" id="-82489">
		<tag k="name" v="Vingfjellet" />
		<tag k="natural" v="hill" />
		<tag k="place" v="locality" />
		<tag k="ssr:stedsnr" v="701743" />
	</node>
	<node lat="64.28601111303759" lon="10.710422215450501" id="-82492">
		<tag k="name" v="Nesahaugen" />
		<tag k="natural" v="hill" />
		<tag k="place" v="locality" />
		<tag k="ssr:stedsnr" v="701752" />
	</node>
	<node lat="64.27028888671927" lon="10.772194445057275" id="-82495">
		<tag k="name" v="Mossahaugan" />
		<tag k="natural" v="hill" />
		<tag k="place" v="locality" />
		<tag k="ssr:stedsnr" v="701704" />
	</node>
	<node lat="64.34168055822732" lon="10.6306166691649" id="-82502">
		<tag k="fixme" v="consider natural=peak for the most distinct mountains in the district" />
		<tag k="name" v="Sandvikfjellet" />
		<tag k="natural" v="hill" />
		<tag k="place" v="locality" />
		<tag k="ssr:stedsnr" v="620718" />
	</node>
	<node lat="64.28189999796066" lon="10.416933334648041" id="-82507">
		<tag k="name" v="Bukkgrova" />
		<tag k="natural" v="hill" />
		<tag k="place" v="locality" />
		<tag k="ssr:stedsnr" v="639103" />
	</node>
	<node lat="64.27138055476907" lon="10.42223055250772" id="-82508">
		<tag k="name" v="Hestgrova" />
		<tag k="natural" v="ridge" />
		<tag k="place" v="locality" />
		<tag k="ssr:stedsnr" v="639004" />
	</node>
	<node lat="64.2870388887105" lon="10.555369454163225" id="-82510">
		<tag k="name" v="Brekkfjellet" />
		<tag k="natural" v="hill" />
		<tag k="place" v="locality" />
		<tag k="ssr:stedsnr" v="639015" />
	</node>
	<node lat="64.33370555480367" lon="10.418283331128407" id="-82511">
		<tag k="fixme" v="consider natural=peak for the most distinct mountains in the district" />
		<tag k="name" v="Liafjellet" />
		<tag k="natural" v="hill" />
		<tag k="place" v="locality" />
		<tag k="ssr:stedsnr" v="639019" />
	</node>
	<node lat="64.24160832922503" lon="10.859158328582442" id="-82514">
		<tag k="name" v="Vassdøllia" />
		<tag k="natural" v="slope" />
		<tag k="place" v="locality" />
		<tag k="ssr:stedsnr" v="639276" />
	</node>
	<node lat="64.22578889012186" lon="10.856152777578124" id="-82515">
		<tag k="name" v="Fisklausheia" />
		<tag k="natural" v="hill" />
		<tag k="place" v="locality" />
		<tag k="ssr:stedsnr" v="639278" />
	</node>
	<node lat="64.25103055132112" lon="10.676824989444244" id="-82517">
		<tag k="name" v="Botnholet" />
		<tag k="natural" v="valley" />
		<tag k="place" v="locality" />
		<tag k="ssr:stedsnr" v="639286" />
	</node>
	<node lat="64.24775833331496" lon="10.684005557998885" id="-82518">
		<tag k="name" v="Vargholdalen" />
		<tag k="natural" v="valley" />
		<tag k="place" v="locality" />
		<tag k="ssr:stedsnr" v="639307" />
	</node>
	<node lat="64.37863888954305" lon="10.620883324962334" id="-82519">
		<tag k="name" v="Turuvika" />
		<tag k="natural" v="slope" />
		<tag k="place" v="locality" />
		<tag k="ssr:stedsnr" v="639323" />
	</node>
	<node lat="64.288880555446" lon="10.747880553555134" id="-82520">
		<tag k="name" v="Langvassdalen" />
		<tag k="natural" v="valley" />
		<tag k="place" v="locality" />
		<tag k="ssr:stedsnr" v="639708" />
	</node>
	<node lat="64.2547694401516" lon="10.808755553539198" id="-82522">
		<tag k="name" v="Granhaugen" />
		<tag k="natural" v="hill" />
		<tag k="place" v="locality" />
		<tag k="ssr:stedsnr" v="639711" />
	</node>
	<node lat="64.41595555333593" lon="10.487661112238966" id="-82523">
		<tag k="name" v="Breibogen" />
		<tag k="place" v="locality" />
		<tag k="ssr:stedsnr" v="640325" />
	</node>
	<node lat="64.28012500230093" lon="10.542324991469872" id="-82526">
		<tag k="name" v="Engelsdalen" />
		<tag k="natural" v="valley" />
		<tag k="place" v="locality" />
		<tag k="ssr:stedsnr" v="640437" />
	</node>
	<node lat="64.2863388845531" lon="10.429749999855154" id="-82531">
		<tag k="name" v="Synnavindshamna" />
		<tag k="natural" v="hill" />
		<tag k="place" v="locality" />
		<tag k="ssr:stedsnr" v="640613" />
	</node>
	<node lat="64.33508610710594" lon="10.4219111035024" id="-82532">
		<tag k="name" v="Lia" />
		<tag k="natural" v="slope" />
		<tag k="place" v="locality" />
		<tag k="ssr:stedsnr" v="640624" />
	</node>
	<node lat="64.27757777953501" lon="10.615474994574408" id="-82533">
		<tag k="name" v="Storkroken" />
		<tag k="natural" v="ridge" />
		<tag k="place" v="locality" />
		<tag k="ssr:stedsnr" v="640377" />
	</node>
	<node lat="64.288619442268" lon="10.508113880843759" id="-82535">
		<tag k="name" v="Ellinglia" />
		<tag k="natural" v="slope" />
		<tag k="place" v="locality" />
		<tag k="ssr:stedsnr" v="640383" />
	</node>
	<node lat="64.21768333280338" lon="10.61486111059307" id="-82537">
		<tag k="name" v="Heimdalshaugen" />
		<tag k="natural" v="hill" />
		<tag k="place" v="locality" />
		<tag k="ssr:stedsnr" v="640391" />
	</node>
	<node lat="64.33858055703682" lon="10.494133338734272" id="-82538">
		<tag k="name" v="Rapet" />
		<tag k="natural" v="hill" />
		<tag k="place" v="locality" />
		<tag k="ssr:stedsnr" v="640681" />
	</node>
	<node lat="64.22228333015853" lon="10.591175000303835" id="-82545">
		<tag k="alt_name" v="Hengreva" />
		<tag k="fixme" v="consider natural=peak for the most distinct mountains in the district" />
		<tag k="name" v="Hengræva" />
		<tag k="natural" v="hill" />
		<tag k="place" v="locality" />
		<tag k="ssr:stedsnr" v="681017" />
	</node>
	<node lat="64.26840000209467" lon="10.66341667655443" id="-82546">
		<tag k="fixme" v="consider natural=peak for the most distinct mountains in the district" />
		<tag k="name" v="Magnhildfjellet" />
		<tag k="natural" v="hill" />
		<tag k="place" v="locality" />
		<tag k="ssr:stedsnr" v="681612" />
	</node>
	<node lat="64.26816388748814" lon="10.411163892234931" id="-82561">
		<tag k="name" v="Merraberget" />
		<tag k="natural" v="hill" />
		<tag k="place" v="locality" />
		<tag k="ssr:stedsnr" v="701010" />
	</node>
	<node lat="64.33395277942512" lon="10.4073805606713" id="-82563">
		<tag k="name" v="Båsshallen" />
		<tag k="natural" v="hill" />
		<tag k="place" v="locality" />
		<tag k="ssr:stedsnr" v="701024" />
	</node>
	<node lat="64.40391944767741" lon="10.495208334004655" id="-82565">
		<tag k="name" v="Ytterkrommen" />
		<tag k="natural" v="valley" />
		<tag k="place" v="locality" />
		<tag k="ssr:stedsnr" v="701420" />
	</node>
	<node lat="64.26276111052793" lon="10.456033327074909" id="-82570">
		<tag k="name" v="Seterheian" />
		<tag k="natural" v="hill" />
		<tag k="place" v="locality" />
		<tag k="ssr:stedsnr" v="701504" />
	</node>
	<node lat="64.27297500277088" lon="10.78014445226636" id="-82572">
		<tag k="name" v="Grønnbakkan" />
		<tag k="natural" v="slope" />
		<tag k="place" v="locality" />
		<tag k="ssr:stedsnr" v="701512" />
	</node>
	<node lat="64.26496389255085" lon="10.43038888362817" id="-82575">
		<tag k="name" v="Jevikheia" />
		<tag k="natural" v="hill" />
		<tag k="place" v="locality" />
		<tag k="ssr:stedsnr" v="701463" />
	</node>
	<node lat="64.24663055571946" lon="10.746722225700795" id="-82579">
		<tag k="fixme" v="consider natural=peak for the most distinct mountains in the district" />
		<tag k="name" v="Brattåsen" />
		<tag k="natural" v="hill" />
		<tag k="place" v="locality" />
		<tag k="ssr:stedsnr" v="701710" />
	</node>
	<node lat="64.2435166670725" lon="10.6012055571816" id="-82585">
		<tag k="name" v="Litlhornet" />
		<tag k="natural" v="hill" />
		<tag k="place" v="locality" />
		<tag k="ssr:stedsnr" v="741045" />
	</node>
	<node lat="64.26418333485596" lon="10.814408327613076" id="-82587">
		<tag k="name" v="Stordalen" />
		<tag k="natural" v="valley" />
		<tag k="place" v="locality" />
		<tag k="ssr:stedsnr" v="742141" />
	</node>
	<node lat="64.31018055314264" lon="10.714966669825507" id="-82588">
		<tag k="name" v="Sørlia" />
		<tag k="natural" v="slope" />
		<tag k="place" v="locality" />
		<tag k="ssr:stedsnr" v="742499" />
	</node>
	<node lat="64.22591944059512" lon="10.763930562425989" id="-82589">
		<tag k="alt_name" v="Nord-Kangsen" />
		<tag k="fixme" v="consider natural=peak for the most distinct mountains in the district" />
		<tag k="name" v="Nordkangsen" />
		<tag k="natural" v="hill" />
		<tag k="place" v="locality" />
		<tag k="ssr:stedsnr" v="742604" />
	</node>
	<node lat="64.20808611102912" lon="10.746641661831017" id="-82592">
		<tag k="name" v="Kjerrlia" />
		<tag k="natural" v="hill" />
		<tag k="place" v="locality" />
		<tag k="ssr:stedsnr" v="742634" />
	</node>
	<node lat="64.18078055711825" lon="10.753361112769724" id="-82596">
		<tag k="fixme" v="consider natural=peak for the most distinct mountains in the district" />
		<tag k="name" v="Storheia - Jorpetjahke" />
		<tag k="name:no" v="Storheia" />
		<tag k="name:sma" v="Jorpetjahke" />
		<tag k="natural" v="hill" />
		<tag k="place" v="locality" />
		<tag k="ssr:stedsnr" v="742542" />
	</node>
	<node lat="64.32838333090581" lon="10.361100002498798" id="-82600">
		<tag k="name" v="Strupen" />
		<tag k="natural" v="hill" />
		<tag k="place" v="locality" />
		<tag k="ssr:stedsnr" v="761009" />
	</node>
	<node lat="64.3117722246172" lon="10.556916675509795" id="-82601">
		<tag k="name" v="Fremmer Vakkerholet" />
		<tag k="natural" v="valley" />
		<tag k="place" v="locality" />
		<tag k="ssr:stedsnr" v="761041" />
	</node>
	<node lat="64.40049444112995" lon="10.484247223412893" id="-82604">
		<tag k="name" v="Storklubben" />
		<tag k="natural" v="hill" />
		<tag k="place" v="locality" />
		<tag k="ssr:stedsnr" v="761312" />
	</node>
	<node lat="64.388472223867" lon="10.589491669124225" id="-82605">
		<tag k="name" v="Kattvika" />
		<tag k="natural" v="slope" />
		<tag k="place" v="locality" />
		<tag k="ssr:stedsnr" v="761345" />
	</node>
	<node lat="64.3095361081434" lon="10.495283340080492" id="-82606">
		<tag k="name" v="Anddalen" />
		<tag k="natural" v="valley" />
		<tag k="place" v="locality" />
		<tag k="ssr:stedsnr" v="761095" />
	</node>
	<node lat="64.25921388545436" lon="10.439361110641814" id="-82611">
		<tag k="name" v="Langbakkheia" />
		<tag k="natural" v="hill" />
		<tag k="place" v="locality" />
		<tag k="ssr:stedsnr" v="761418" />
	</node>
	<node lat="64.29056944132985" lon="10.46024721767938" id="-82615">
		<tag k="name" v="Ringen" />
		<tag k="natural" v="hill" />
		<tag k="place" v="locality" />
		<tag k="ssr:stedsnr" v="761509" />
	</node>
	<node lat="64.29382221946352" lon="10.458977772160733" id="-82616">
		<tag k="name" v="Skardhaugen" />
		<tag k="natural" v="hill" />
		<tag k="place" v="locality" />
		<tag k="ssr:stedsnr" v="761511" />
	</node>
	<node lat="64.29985000358212" lon="10.298588892382508" id="-82617">
		<tag k="name" v="Steksfjellet" />
		<tag k="natural" v="hill" />
		<tag k="place" v="locality" />
		<tag k="ssr:stedsnr" v="761515" />
	</node>
	<node lat="64.32379166442173" lon="10.521280556120368" id="-82618">
		<tag k="name" v="Vingsandheia" />
		<tag k="natural" v="hill" />
		<tag k="place" v="locality" />
		<tag k="ssr:stedsnr" v="761541" />
	</node>
	<node lat="64.32510277351966" lon="10.486408342549735" id="-82620">
		<tag k="name" v="Vilhelmslåtten" />
		<tag k="natural" v="hill" />
		<tag k="place" v="locality" />
		<tag k="ssr:stedsnr" v="761709" />
	</node>
	<node lat="64.32545833429994" lon="10.462791656436687" id="-82622">
		<tag k="name" v="Svartholet" />
		<tag k="natural" v="valley" />
		<tag k="place" v="locality" />
		<tag k="ssr:stedsnr" v="761718" />
	</node>
	<node lat="64.34395833493409" lon="10.464708327824702" id="-82623">
		<tag k="name" v="Middagsfjellet" />
		<tag k="natural" v="hill" />
		<tag k="place" v="locality" />
		<tag k="ssr:stedsnr" v="761720" />
	</node>
	<node lat="64.29157222498854" lon="10.497702784865126" id="-82625">
		<tag k="name" v="Svinvikaksla" />
		<tag k="natural" v="cliff" />
		<tag k="ssr:stedsnr" v="761604" />
	</node>
	<node lat="64.26554444423334" lon="10.419838886232554" id="-82627">
		<tag k="name" v="Jevikberga" />
		<tag k="natural" v="hill" />
		<tag k="place" v="locality" />
		<tag k="ssr:stedsnr" v="761613" />
	</node>
	<node lat="64.41225000003251" lon="10.499352775972074" id="-82631">
		<tag k="name" v="Litlholmmarkhaugen" />
		<tag k="natural" v="hill" />
		<tag k="place" v="locality" />
		<tag k="ssr:stedsnr" v="761700" />
	</node>
	<node lat="64.20929721941319" lon="10.61614444605508" id="-82636">
		<tag k="name" v="Granholet" />
		<tag k="natural" v="valley" />
		<tag k="place" v="locality" />
		<tag k="ssr:stedsnr" v="803014" />
	</node>
	<node lat="64.30488055689955" lon="10.643225009510541" id="-82640">
		<tag k="alt_name" v="Skavdalen, nedre" />
		<tag k="name" v="Nedre Skavdalen" />
		<tag k="natural" v="valley" />
		<tag k="place" v="locality" />
		<tag k="ssr:stedsnr" v="803562" />
	</node>
	<node lat="64.30550000401995" lon="10.623163882529147" id="-82641">
		<tag k="fixme" v="consider natural=peak for the most distinct mountains in the district" />
		<tag k="name" v="Nordfjellheia" />
		<tag k="natural" v="hill" />
		<tag k="place" v="locality" />
		<tag k="ssr:stedsnr" v="803564" />
	</node>
	<node lat="64.26917778137815" lon="10.411524994004331" id="-82649">
		<tag k="name" v="Middagsfjellet" />
		<tag k="natural" v="hill" />
		<tag k="place" v="locality" />
		<tag k="ssr:stedsnr" v="822005" />
	</node>
	<node lat="64.23103888750548" lon="10.479933337880166" id="-82650">
		<tag k="name" v="Leondalen" />
		<tag k="natural" v="valley" />
		<tag k="place" v="locality" />
		<tag k="ssr:stedsnr" v="822016" />
	</node>
	<node lat="64.40757777627118" lon="10.483688890485864" id="-82653">
		<tag k="name" v="Urddalen" />
		<tag k="natural" v="valley" />
		<tag k="place" v="locality" />
		<tag k="ssr:stedsnr" v="822327" />
	</node>
	<node lat="64.26342499907761" lon="10.668736106213142" id="-82656">
		<tag k="name" v="Elgholet" />
		<tag k="natural" v="valley" />
		<tag k="place" v="locality" />
		<tag k="ssr:stedsnr" v="822376" />
	</node>
	<node lat="64.25729722557402" lon="10.4263833365298" id="-82659">
		<tag k="name" v="Trappen" />
		<tag k="natural" v="slope" />
		<tag k="place" v="locality" />
		<tag k="ssr:stedsnr" v="822626" />
	</node>
	<node lat="64.25439999921281" lon="10.427363886571136" id="-82660">
		<tag k="name" v="Ormneset" />
		<tag k="natural" v="hill" />
		<tag k="place" v="locality" />
		<tag k="ssr:stedsnr" v="822631" />
	</node>
	<node lat="64.2798638920496" lon="10.416563881400263" id="-82662">
		<tag k="name" v="Litlfjellet" />
		<tag k="natural" v="hill" />
		<tag k="place" v="locality" />
		<tag k="ssr:stedsnr" v="822638" />
	</node>
	<node lat="64.28866110902766" lon="10.284716658363251" id="-82664">
		<tag k="name" v="Låglende" />
		<tag k="natural" v="ridge" />
		<tag k="place" v="locality" />
		<tag k="ssr:stedsnr" v="822653" />
	</node>
	<node lat="64.34158333279126" lon="10.465702775653124" id="-82666">
		<tag k="name" v="Salthammarkleiva" />
		<tag k="natural" v="hill" />
		<tag k="place" v="locality" />
		<tag k="ssr:stedsnr" v="822706" />
	</node>
	<node lat="64.28910000223516" lon="10.793394453880268" id="-82667">
		<tag k="name" v="Pålholet" />
		<tag k="natural" v="valley" />
		<tag k="place" v="locality" />
		<tag k="ssr:stedsnr" v="822718" />
	</node>
	<node lat="64.28703610925133" lon="10.539138893431142" id="-82668">
		<tag k="name" v="Bulia" />
		<tag k="natural" v="slope" />
		<tag k="place" v="locality" />
		<tag k="ssr:stedsnr" v="822665" />
	</node>
	<node lat="64.25298055264948" lon="10.685149990493175" id="-82672">
		<tag k="fixme" v="consider natural=peak for the most distinct mountains in the district" />
		<tag k="name" v="Botnklumpan" />
		<tag k="natural" v="hill" />
		<tag k="place" v="locality" />
		<tag k="ssr:stedsnr" v="924036" />
	</node>
	<node lat="64.23864444876116" lon="10.69217500029248" id="-82673">
		<tag k="name" v="Steinsdalen" />
		<tag k="natural" v="valley" />
		<tag k="place" v="locality" />
		<tag k="ssr:stedsnr" v="924041" />
	</node>
	<node lat="64.27514166590126" lon="10.754802774405345" id="-82675">
		<tag k="name" v="Finnkallen" />
		<tag k="natural" v="hill" />
		<tag k="place" v="locality" />
		<tag k="ssr:stedsnr" v="924107" />
	</node>
	<node lat="64.32412777945078" lon="10.378430555037335" id="-82678">
		<tag k="fixme" v="consider natural=peak for the most distinct mountains in the district" />
		<tag k="name" v="Husfjellet" />
		<tag k="natural" v="hill" />
		<tag k="place" v="locality" />
		<tag k="ssr:stedsnr" v="924477" />
	</node>
	<node lat="64.21470833110607" lon="10.803630547995505" id="-82681">
		<tag k="alt_name" v="Rundførruklumpen" />
		<tag k="fixme" v="consider natural=peak for the most distinct mountains in the district" />
		<tag k="name" v="Storkangsen" />
		<tag k="natural" v="hill" />
		<tag k="place" v="locality" />
		<tag k="ssr:stedsnr" v="924646" />
	</node>
	<node lat="64.3544972252496" lon="10.680733329598418" id="-82684">
		<tag k="name" v="Leirdalen" />
		<tag k="natural" v="valley" />
		<tag k="place" v="locality" />
		<tag k="ssr:stedsnr" v="924702" />
	</node>
	<node lat="64.3265138897763" lon="10.557816663160354" id="-82691">
		<tag k="name" v="Vingan" />
		<tag k="natural" v="cliff" />
		<tag k="ssr:stedsnr" v="875807" />
	</node>
	<node lat="64.33184166456373" lon="10.481552773430245" id="-82695">
		<tag k="name" v="Sjåskardet" />
		<tag k="natural" v="hill" />
		<tag k="place" v="locality" />
		<tag k="ssr:stedsnr" v="883056" />
	</node>
	<node lat="64.35177499942412" lon="10.488188894875647" id="-82701">
		<tag k="name" v="Hesten" />
		<tag k="natural" v="ridge" />
		<tag k="place" v="locality" />
		<tag k="ssr:stedsnr" v="883401" />
	</node>
	<node lat="64.40237777442242" lon="10.489500000720312" id="-82704">
		<tag k="name" v="Middagsfjellet" />
		<tag k="natural" v="hill" />
		<tag k="place" v="locality" />
		<tag k="ssr:stedsnr" v="883448" />
	</node>
	<node lat="64.40910000316877" lon="10.516425003331253" id="-82708">
		<tag k="name" v="Kvernatjønndalen" />
		<tag k="natural" v="valley" />
		<tag k="place" v="locality" />
		<tag k="ssr:stedsnr" v="883717" />
	</node>
	<node lat="64.26567777757255" lon="10.714538894855657" id="-82709">
		<tag k="name" v="Hyttlia" />
		<tag k="natural" v="slope" />
		<tag k="place" v="locality" />
		<tag k="ssr:stedsnr" v="883751" />
	</node>
	<node lat="64.32450277417415" lon="10.619636110148056" id="-82711">
		<tag k="name" v="Halsan" />
		<tag k="natural" v="valley" />
		<tag k="place" v="locality" />
		<tag k="ssr:stedsnr" v="883768" />
	</node>
	<node lat="64.28238611556516" lon="10.509049992993464" id="-82712">
		<tag k="name" v="Svartholklumpen" />
		<tag k="natural" v="hill" />
		<tag k="place" v="locality" />
		<tag k="ssr:stedsnr" v="883647" />
	</node>
	<node lat="64.28770555619896" lon="10.464941662238205" id="-82713">
		<tag k="name" v="Øykmarka" />
		<tag k="natural" v="hill" />
		<tag k="place" v="locality" />
		<tag k="ssr:stedsnr" v="883650" />
	</node>
	<node lat="64.31838888448229" lon="10.367950006015493" id="-82716">
		<tag k="name" v="Klepphaugan" />
		<tag k="natural" v="hill" />
		<tag k="place" v="locality" />
		<tag k="ssr:stedsnr" v="883663" />
	</node>
	<node lat="64.23407777399304" lon="10.625225006875526" id="-82717">
		<tag k="name" v="Storengmoan" />
		<tag k="place" v="locality" />
		<tag k="ssr:stedsnr" v="883697" />
	</node>
	<node lat="64.21625833115142" lon="10.661519453043228" id="-82719">
		<tag k="fixme" v="consider natural=peak for the most distinct mountains in the district" />
		<tag k="name" v="Steinkleivheia" />
		<tag k="natural" v="hill" />
		<tag k="place" v="locality" />
		<tag k="ssr:stedsnr" v="924006" />
	</node>
	<node lat="64.32281111349356" lon="10.632313898667473" id="-82722">
		<tag k="name" v="Svartholet" />
		<tag k="natural" v="valley" />
		<tag k="place" v="locality" />
		<tag k="ssr:stedsnr" v="924503" />
	</node>
	<node lat="64.28003611157786" lon="10.595474999495577" id="-82728">
		<tag k="name" v="Brennheia" />
		<tag k="natural" v="hill" />
		<tag k="place" v="locality" />
		<tag k="ssr:stedsnr" v="924579" />
	</node>
	<node lat="64.4031027795153" lon="10.518772226371373" id="-82737">
		<tag k="name" v="Ånnariset" />
		<tag k="natural" v="hill" />
		<tag k="place" v="locality" />
		<tag k="ssr:stedsnr" v="944310" />
	</node>
	<node lat="64.22893333218563" lon="10.60486388197784" id="-82742">
		<tag k="name" v="Sørlia" />
		<tag k="natural" v="slope" />
		<tag k="place" v="locality" />
		<tag k="ssr:stedsnr" v="944483" />
	</node>
	<node lat="64.25977221900462" lon="10.450247219754582" id="-82744">
		<tag k="name" v="Seterlia" />
		<tag k="natural" v="slope" />
		<tag k="place" v="locality" />
		<tag k="ssr:stedsnr" v="944605" />
	</node>
	<node lat="64.23518611017035" lon="10.744244451106331" id="-82747">
		<tag k="name" v="Elgpynten" />
		<tag k="natural" v="hill" />
		<tag k="place" v="locality" />
		<tag k="ssr:stedsnr" v="944380" />
	</node>
	<node lat="64.39976944650984" lon="10.515936110801398" id="-82749">
		<tag k="name" v="Kleiva" />
		<tag k="place" v="locality" />
		<tag k="ssr:stedsnr" v="944386" />
	</node>
	<node lat="64.29902777738549" lon="10.634975008895678" id="-82751">
		<tag k="name" v="Sveiet" />
		<tag k="natural" v="hill" />
		<tag k="place" v="locality" />
		<tag k="ssr:stedsnr" v="944394" />
	</node>
	<node lat="64.28478610880781" lon="10.473041671971108" id="-82752">
		<tag k="name" v="Nordskardet" />
		<tag k="natural" v="valley" />
		<tag k="place" v="locality" />
		<tag k="ssr:stedsnr" v="944586" />
	</node>
	<node lat="64.31713333715214" lon="10.677277778105866" id="-82774">
		<tag k="fixme" v="consider natural=peak for the most distinct mountains in the district" />
		<tag k="name" v="Storheia" />
		<tag k="natural" v="hill" />
		<tag k="place" v="locality" />
		<tag k="ssr:stedsnr" v="14464" />
	</node>
	<node lat="64.31425555173158" lon="10.67613054905374" id="-82776">
		<tag k="name" v="Lågheia" />
		<tag k="natural" v="hill" />
		<tag k="place" v="locality" />
		<tag k="ssr:stedsnr" v="14467" />
	</node>
	<node lat="64.22353333399184" lon="10.50359444872183" id="-82781">
		<tag k="fixme" v="consider natural=peak for the most distinct mountains in the district" />
		<tag k="name" v="Blåheia" />
		<tag k="natural" v="hill" />
		<tag k="place" v="locality" />
		<tag k="ssr:stedsnr" v="14039" />
	</node>
	<node lat="64.26346666464377" lon="10.760663897811327" id="-82783">
		<tag k="name" v="Anneliskardet" />
		<tag k="natural" v="valley" />
		<tag k="place" v="locality" />
		<tag k="ssr:stedsnr" v="14126" />
	</node>
	<node lat="64.25185000073323" lon="10.47655555023007" id="-82787">
		<tag k="name" v="Klavranten" />
		<tag k="natural" v="hill" />
		<tag k="place" v="locality" />
		<tag k="ssr:stedsnr" v="14350" />
	</node>
	<node lat="64.25376666674046" lon="10.508852770794418" id="-82788">
		<tag k="name" v="Austerheia" />
		<tag k="natural" v="hill" />
		<tag k="place" v="locality" />
		<tag k="ssr:stedsnr" v="14356" />
	</node>
	<node lat="64.33114444163397" lon="10.590258339119353" id="-82789">
		<tag k="fixme" v="consider natural=peak for the most distinct mountains in the district" />
		<tag k="name" v="Vingmyrfjellet" />
		<tag k="natural" v="hill" />
		<tag k="place" v="locality" />
		<tag k="ssr:stedsnr" v="14421" />
	</node>
	<node lat="64.29501666382559" lon="10.70588334115152" id="-82795">
		<tag k="name" v="Langliheia" />
		<tag k="natural" v="hill" />
		<tag k="place" v="locality" />
		<tag k="ssr:stedsnr" v="14510" />
	</node>
	<node lat="64.29383889195915" lon="10.429533326092697" id="-82796">
		<tag k="fixme" v="consider natural=peak for the most distinct mountains in the district" />
		<tag k="name" v="Midterfjellet" />
		<tag k="natural" v="hill" />
		<tag k="place" v="locality" />
		<tag k="ssr:stedsnr" v="14514" />
	</node>
	<node lat="64.26683888563292" lon="10.640050004812778" id="-82809">
		<tag k="name" v="Millomlia" />
		<tag k="natural" v="slope" />
		<tag k="place" v="locality" />
		<tag k="ssr:stedsnr" v="33428" />
	</node>
	<node lat="64.33145555626437" lon="10.423211117177065" id="-82810">
		<tag k="name" v="Vassfjellet" />
		<tag k="natural" v="hill" />
		<tag k="place" v="locality" />
		<tag k="ssr:stedsnr" v="33436" />
	</node>
	<node lat="64.3348972185468" lon="10.60317222931239" id="-82815">
		<tag k="name" v="Kjerkskardet" />
		<tag k="natural" v="valley" />
		<tag k="place" v="locality" />
		<tag k="ssr:stedsnr" v="33559" />
	</node>
	<node lat="64.24943611281735" lon="10.895488882218878" id="-82816">
		<tag k="name" v="Smølhaugan" />
		<tag k="natural" v="hill" />
		<tag k="place" v="locality" />
		<tag k="ssr:stedsnr" v="33560" />
	</node>
	<node lat="64.23395278100894" lon="10.677427774056108" id="-82819">
		<tag k="name" v="Frokostskardet" />
		<tag k="natural" v="valley" />
		<tag k="place" v="locality" />
		<tag k="ssr:stedsnr" v="33373" />
	</node>
	<node lat="64.33716666326791" lon="10.396669436083311" id="-82821">
		<tag k="name" v="Litlbjørnen" />
		<tag k="natural" v="hill" />
		<tag k="place" v="locality" />
		<tag k="ssr:stedsnr" v="33029" />
	</node>
	<node lat="64.30837221805241" lon="10.485972217084724" id="-82822">
		<tag k="name" v="Strandaskardet" />
		<tag k="natural" v="valley" />
		<tag k="place" v="locality" />
		<tag k="ssr:stedsnr" v="33030" />
	</node>
	<node lat="64.26984722241853" lon="10.697533327382809" id="-82824">
		<tag k="name" v="Reirlia" />
		<tag k="natural" v="slope" />
		<tag k="place" v="locality" />
		<tag k="ssr:stedsnr" v="33036" />
	</node>
	<node lat="64.3694055558643" lon="10.628891676284278" id="-82829">
		<tag k="fixme" v="consider natural=peak for the most distinct mountains in the district" />
		<tag k="name" v="Kleiva" />
		<tag k="natural" v="hill" />
		<tag k="place" v="locality" />
		<tag k="ssr:stedsnr" v="33342" />
	</node>
	<node lat="64.23044444134617" lon="10.675724996483071" id="-82831">
		<tag k="name" v="Melen" />
		<tag k="natural" v="slope" />
		<tag k="place" v="locality" />
		<tag k="ssr:stedsnr" v="33360" />
	</node>
	<node lat="64.19345833619084" lon="10.71157221485206" id="-82834">
		<tag k="name" v="Jobakkan" />
		<tag k="natural" v="slope" />
		<tag k="place" v="locality" />
		<tag k="ssr:stedsnr" v="33390" />
	</node>
	<node lat="64.40557222551965" lon="10.5026000082434" id="-82835">
		<tag k="name" v="Tømmerfjellet" />
		<tag k="natural" v="ridge" />
		<tag k="place" v="locality" />
		<tag k="ssr:stedsnr" v="33399" />
	</node>
	<node lat="64.32860555658881" lon="10.59923054751743" id="-82837">
		<tag k="name" v="Kjerkskardet" />
		<tag k="natural" v="valley" />
		<tag k="place" v="locality" />
		<tag k="ssr:stedsnr" v="33478" />
	</node>
	<node lat="64.26895555691306" lon="10.539983331172992" id="-82841">
		<tag k="name" v="Tveskardet" />
		<tag k="natural" v="valley" />
		<tag k="place" v="locality" />
		<tag k="ssr:stedsnr" v="33490" />
	</node>
	<node lat="64.29500833434003" lon="10.449899994654883" id="-82846">
		<tag k="name" v="Sjøfjellet" />
		<tag k="natural" v="hill" />
		<tag k="place" v="locality" />
		<tag k="ssr:stedsnr" v="33639" />
	</node>
	<node lat="64.27017777469119" lon="10.417619445295541" id="-82847">
		<tag k="name" v="Svartholet" />
		<tag k="natural" v="valley" />
		<tag k="place" v="locality" />
		<tag k="ssr:stedsnr" v="33646" />
	</node>
	<node lat="64.23430832975876" lon="10.653027771192498" id="-82852">
		<tag k="name" v="Litlengpynten" />
		<tag k="natural" v="hill" />
		<tag k="place" v="locality" />
		<tag k="ssr:stedsnr" v="33732" />
	</node>
	<node lat="64.21482499803216" lon="10.622222215616945" id="-82854">
		<tag k="name" v="Sjeflia" />
		<tag k="natural" v="slope" />
		<tag k="place" v="locality" />
		<tag k="ssr:stedsnr" v="33687" />
	</node>
	<node lat="64.31450833286323" lon="10.566530561910746" id="-82855">
		<tag k="name" v="Midter Vakkerholet" />
		<tag k="natural" v="valley" />
		<tag k="place" v="locality" />
		<tag k="ssr:stedsnr" v="33691" />
	</node>
	<node lat="64.29744444764749" lon="10.58131389726735" id="-82857">
		<tag k="name" v="Tverbekkskardet" />
		<tag k="natural" v="valley" />
		<tag k="place" v="locality" />
		<tag k="ssr:stedsnr" v="33698" />
	</node>
	<node lat="64.23740278056117" lon="10.63213888815049" id="-82867">
		<tag k="fixme" v="consider natural=peak for the most distinct mountains in the district" />
		<tag k="name" v="Karipynten" />
		<tag k="natural" v="hill" />
		<tag k="place" v="locality" />
		<tag k="ssr:stedsnr" v="74050" />
	</node>
	<node lat="64.31081388855819" lon="10.625522216373861" id="-82872">
		<tag k="alt_name" v="Skavdalen, øvre" />
		<tag k="name" v="Øvre Skavdalen" />
		<tag k="natural" v="valley" />
		<tag k="place" v="locality" />
		<tag k="ssr:stedsnr" v="74546" />
	</node>
	<node lat="64.26913055780261" lon="10.61807500371512" id="-82873">
		<tag k="alt_name" v="Onshaugfjellet" />
		<tag k="name" v="Onshaugen" />
		<tag k="natural" v="hill" />
		<tag k="place" v="locality" />
		<tag k="ssr:stedsnr" v="74618" />
	</node>
	<node lat="64.32576388970398" lon="10.469508329526143" id="-82880">
		<tag k="fixme" v="consider natural=peak for the most distinct mountains in the district" />
		<tag k="name" v="Tverrfjellet" />
		<tag k="natural" v="hill" />
		<tag k="place" v="locality" />
		<tag k="ssr:stedsnr" v="75536" />
	</node>
	<node lat="64.29509722108672" lon="10.521052776568785" id="-82883">
		<tag k="fixme" v="multiple name tags, choose one and add the other to alt_name; consider natural=peak for the most distinct mountains in the district" />
		<tag k="name" v="Mofjellet;Oshaugen" />
		<tag k="natural" v="hill" />
		<tag k="place" v="locality" />
		<tag k="ssr:stedsnr" v="75614" />
	</node>
	<node lat="64.38895555756514" lon="10.489494449244946" id="-82885">
		<tag k="name" v="Molthaugen" />
		<tag k="natural" v="hill" />
		<tag k="place" v="locality" />
		<tag k="ssr:stedsnr" v="75735" />
	</node>
	<node lat="64.34461389279946" lon="10.475666673506458" id="-82897">
		<tag k="name" v="Klaven" />
		<tag k="natural" v="hill" />
		<tag k="place" v="locality" />
		<tag k="ssr:stedsnr" v="94090" />
	</node>
	<node lat="64.34488333430131" lon="10.460599994380338" id="-82899">
		<tag k="name" v="Nonsfjellet" />
		<tag k="natural" v="hill" />
		<tag k="place" v="locality" />
		<tag k="ssr:stedsnr" v="94099" />
	</node>
	<node lat="64.3167361094092" lon="10.477466658943294" id="-82902">
		<tag k="name" v="Varden" />
		<tag k="natural" v="ridge" />
		<tag k="place" v="locality" />
		<tag k="ssr:stedsnr" v="94030" />
	</node>
	<node lat="64.29295555567074" lon="10.57631943457776" id="-82903">
		<tag k="name" v="Sølupallen" />
		<tag k="natural" v="slope" />
		<tag k="place" v="locality" />
		<tag k="ssr:stedsnr" v="94047" />
	</node>
	<node lat="64.3165722206728" lon="10.58365556350198" id="-82904">
		<tag k="name" v="Halstømtet" />
		<tag k="natural" v="slope" />
		<tag k="place" v="locality" />
		<tag k="ssr:stedsnr" v="94051" />
	</node>
	<node lat="64.33251666788395" lon="10.433933342122307" id="-82909">
		<tag k="name" v="Hallafjellet" />
		<tag k="natural" v="hill" />
		<tag k="place" v="locality" />
		<tag k="ssr:stedsnr" v="94443" />
	</node>
	<node lat="64.36804166890116" lon="10.616552781597669" id="-82910">
		<tag k="name" v="Bremvikhaugan" />
		<tag k="natural" v="hill" />
		<tag k="place" v="locality" />
		<tag k="ssr:stedsnr" v="94374" />
	</node>
	<node lat="64.19718611165213" lon="10.695516664471679" id="-82911">
		<tag k="name" v="Groven" />
		<tag k="natural" v="slope" />
		<tag k="place" v="locality" />
		<tag k="ssr:stedsnr" v="94482" />
	</node>
	<node lat="64.27808055930798" lon="10.593861118256518" id="-82912">
		<tag k="name" v="Tømmerholet" />
		<tag k="natural" v="valley" />
		<tag k="place" v="locality" />
		<tag k="ssr:stedsnr" v="94490" />
	</node>
	<node lat="64.2327999987691" lon="10.88479167094579" id="-82914">
		<tag k="name" v="Levasshøgda" />
		<tag k="natural" v="hill" />
		<tag k="place" v="locality" />
		<tag k="ssr:stedsnr" v="94495" />
	</node>
	<node lat="64.27109999633342" lon="10.629036115914268" id="-82921">
		<tag k="name" v="Løysemundhaugan" />
		<tag k="natural" v="hill" />
		<tag k="place" v="locality" />
		<tag k="ssr:stedsnr" v="94454" />
	</node>
	<node lat="64.32567499806586" lon="10.541180545691935" id="-82922">
		<tag k="name" v="Nord Hopaskarde" />
		<tag k="natural" v="valley" />
		<tag k="place" v="locality" />
		<tag k="ssr:stedsnr" v="94564" />
	</node>
	<node lat="64.4017083366656" lon="10.465266676042477" id="-82924">
		<tag k="name" v="Hansvikhaugan" />
		<tag k="natural" v="hill" />
		<tag k="place" v="locality" />
		<tag k="ssr:stedsnr" v="94682" />
	</node>
	<node lat="64.27528055963123" lon="10.581736101819905" id="-82926">
		<tag k="name" v="Melhusklumpen" />
		<tag k="natural" v="hill" />
		<tag k="place" v="locality" />
		<tag k="ssr:stedsnr" v="94659" />
	</node>
	<node lat="64.27220833708813" lon="10.725536112793675" id="-82928">
		<tag k="name" v="Heia" />
		<tag k="natural" v="hill" />
		<tag k="place" v="locality" />
		<tag k="ssr:stedsnr" v="94724" />
	</node>
	<node lat="64.20140278200138" lon="10.693599995144163" id="-82930">
		<tag k="name" v="Blåheilia" />
		<tag k="natural" v="slope" />
		<tag k="place" v="locality" />
		<tag k="ssr:stedsnr" v="94742" />
	</node>
	<node lat="64.33565555646693" lon="10.624888888246888" id="-82931">
		<tag k="name" v="Toven" />
		<tag k="natural" v="slope" />
		<tag k="place" v="locality" />
		<tag k="ssr:stedsnr" v="94755" />
	</node>
	<node lat="64.24540000112849" lon="10.587636112921047" id="-82935">
		<tag k="name" v="Killinggavlen" />
		<tag k="natural" v="hill" />
		<tag k="place" v="locality" />
		<tag k="ssr:stedsnr" v="134051" />
	</node>
	<node lat="64.26381389199963" lon="10.840997219467505" id="-82940">
		<tag k="name" v="Skånhaugan" />
		<tag k="natural" v="hill" />
		<tag k="place" v="locality" />
		<tag k="ssr:stedsnr" v="135132" />
	</node>
	<node lat="64.29806944264324" lon="10.576258337832131" id="-82944">
		<tag k="fixme" v="consider natural=peak for the most distinct mountains in the district" />
		<tag k="name" v="Brennfjellet" />
		<tag k="natural" v="hill" />
		<tag k="place" v="locality" />
		<tag k="ssr:stedsnr" v="135547" />
	</node>
	<node lat="64.34086111075382" lon="10.662738893092557" id="-82950">
		<tag k="fixme" v="consider natural=peak for the most distinct mountains in the district" />
		<tag k="name" v="Kudalsfjellet" />
		<tag k="natural" v="hill" />
		<tag k="place" v="locality" />
		<tag k="ssr:stedsnr" v="135833" />
	</node>
	<node lat="64.25623333630762" lon="10.844152769272467" id="-82958">
		<tag k="name" v="Kråa" />
		<tag k="natural" v="valley" />
		<tag k="place" v="locality" />
		<tag k="ssr:stedsnr" v="154749" />
	</node>
	<node lat="64.27363611524609" lon="10.483277772432015" id="-82961">
		<tag k="name" v="Stien" />
		<tag k="natural" v="slope" />
		<tag k="place" v="locality" />
		<tag k="ssr:stedsnr" v="154001" />
	</node>
	<node lat="64.30381110926295" lon="10.678433326404482" id="-82962">
		<tag k="name" v="Kringlåthaugen" />
		<tag k="natural" v="hill" />
		<tag k="place" v="locality" />
		<tag k="ssr:stedsnr" v="154021" />
	</node>
	<node lat="64.27923055650172" lon="10.426955565736911" id="-82965">
		<tag k="name" v="Storskardet" />
		<tag k="natural" v="valley" />
		<tag k="place" v="locality" />
		<tag k="ssr:stedsnr" v="154107" />
	</node>
	<node lat="64.32062499879426" lon="10.501849998359031" id="-82968">
		<tag k="name" v="Tjuvhallen" />
		<tag k="natural" v="hill" />
		<tag k="place" v="locality" />
		<tag k="ssr:stedsnr" v="154087" />
	</node>
	<node lat="64.2435027818112" lon="10.719263897279323" id="-82970">
		<tag k="name" v="Ner Seterlia" />
		<tag k="natural" v="slope" />
		<tag k="place" v="locality" />
		<tag k="ssr:stedsnr" v="154353" />
	</node>
	<node lat="64.34012222648168" lon="10.483030547921219" id="-82972">
		<tag k="name" v="Dyrgrovfjellet" />
		<tag k="natural" v="hill" />
		<tag k="place" v="locality" />
		<tag k="ssr:stedsnr" v="154375" />
	</node>
	<node lat="64.40240833297845" lon="10.522552780214586" id="-82979">
		<tag k="name" v="Galthaugen" />
		<tag k="natural" v="hill" />
		<tag k="place" v="locality" />
		<tag k="ssr:stedsnr" v="154392" />
	</node>
	<node lat="64.28295555135747" lon="10.634469454105709" id="-82980">
		<tag k="name" v="Nord Hattlia" />
		<tag k="natural" v="slope" />
		<tag k="place" v="locality" />
		<tag k="ssr:stedsnr" v="154452" />
	</node>
	<node lat="64.27823055649054" lon="10.63918888311179" id="-82982">
		<tag k="name" v="Hatten" />
		<tag k="natural" v="hill" />
		<tag k="place" v="locality" />
		<tag k="ssr:stedsnr" v="154458" />
	</node>
	<node lat="64.19049166538124" lon="10.679452783012955" id="-82984">
		<tag k="name" v="Sørlia" />
		<tag k="natural" v="slope" />
		<tag k="place" v="locality" />
		<tag k="ssr:stedsnr" v="154470" />
	</node>
	<node lat="64.28865833024567" lon="10.711786109258071" id="-82986">
		<tag k="name" v="Trefotlia" />
		<tag k="natural" v="slope" />
		<tag k="place" v="locality" />
		<tag k="ssr:stedsnr" v="154541" />
	</node>
	<node lat="64.40078333612918" lon="10.516177771411842" id="-82989">
		<tag k="name" v="Kuhallen" />
		<tag k="place" v="locality" />
		<tag k="ssr:stedsnr" v="154734" />
	</node>
	<node lat="64.25775555541713" lon="10.723038885486146" id="-82990">
		<tag k="name" v="Langhalsen" />
		<tag k="natural" v="slope" />
		<tag k="place" v="locality" />
		<tag k="ssr:stedsnr" v="154747" />
	</node>
	<node lat="64.39999444809202" lon="10.503536112835821" id="-82991">
		<tag k="name" v="Innerkrommen" />
		<tag k="natural" v="valley" />
		<tag k="place" v="locality" />
		<tag k="ssr:stedsnr" v="154412" />
	</node>
	<node lat="64.27917778074936" lon="10.72857221430884" id="-82992">
		<tag k="name" v="Ratlia" />
		<tag k="natural" v="slope" />
		<tag k="place" v="locality" />
		<tag k="ssr:stedsnr" v="154417" />
	</node>
	<node lat="64.22377499655528" lon="10.693391656906977" id="-82993">
		<tag k="name" v="Storbekklia" />
		<tag k="natural" v="slope" />
		<tag k="place" v="locality" />
		<tag k="ssr:stedsnr" v="154418" />
	</node>
	<node lat="64.40456388974224" lon="10.499455556747186" id="-82996">
		<tag k="name" v="Matearova" />
		<tag k="natural" v="valley" />
		<tag k="place" v="locality" />
		<tag k="ssr:stedsnr" v="154431" />
	</node>
	<node lat="64.40075555649081" lon="10.521672214457187" id="-82997">
		<tag k="name" v="Varden" />
		<tag k="natural" v="hill" />
		<tag k="place" v="locality" />
		<tag k="ssr:stedsnr" v="154433" />
	</node>
	<node lat="64.26009722465395" lon="10.423816671817567" id="-82999">
		<tag k="name" v="Fættahaugan" />
		<tag k="natural" v="slope" />
		<tag k="place" v="locality" />
		<tag k="ssr:stedsnr" v="154655" />
	</node>
	<node lat="64.365249997188" lon="10.626897231084993" id="-83002">
		<tag k="name" v="Antonvika" />
		<tag k="natural" v="slope" />
		<tag k="place" v="locality" />
		<tag k="ssr:stedsnr" v="154765" />
	</node>
	<node lat="64.17095277824389" lon="10.608788890459133" id="-83008">
		<tag k="name" v="Elgsjødalen" />
		<tag k="natural" v="valley" />
		<tag k="place" v="locality" />
		<tag k="ssr:stedsnr" v="196413" />
	</node>
	<node lat="64.21050000136523" lon="10.541522228031875" id="-83010">
		<tag k="name" v="Mefjellsteinen" />
		<tag k="natural" v="hill" />
		<tag k="place" v="locality" />
		<tag k="ssr:stedsnr" v="196017" />
	</node>
	<node lat="64.20534722195029" lon="10.627186118624403" id="-83014">
		<tag k="alt_name" v="Rokkoneshaugen" />
		<tag k="name" v="Rokkelneshaugen" />
		<tag k="natural" v="hill" />
		<tag k="place" v="locality" />
		<tag k="ssr:stedsnr" v="196458" />
	</node>
	<node lat="64.31575277758279" lon="10.603352786793094" id="-83017">
		<tag k="fixme" v="consider natural=peak for the most distinct mountains in the district" />
		<tag k="name" v="Halsfjellet" />
		<tag k="natural" v="hill" />
		<tag k="place" v="locality" />
		<tag k="ssr:stedsnr" v="196492" />
	</node>
	<node lat="65.11002777597567" lon="13.085422216082504" id="-83019">
		<tag k="fixme" v="consider natural=peak for the most distinct mountains in the district" />
		<tag k="name" v="Kløftfjellet - Sloeptjenguevtele" />
		<tag k="name:no" v="Kløftfjellet" />
		<tag k="name:sma" v="Sloeptjenguevtele" />
		<tag k="natural" v="hill" />
		<tag k="place" v="locality" />
		<tag k="ssr:stedsnr" v="196523" />
	</node>
	<node lat="64.28696388796871" lon="10.505708332408082" id="-83024">
		<tag k="name" v="Mosalen" />
		<tag k="natural" v="hill" />
		<tag k="place" v="locality" />
		<tag k="ssr:stedsnr" v="196537" />
	</node>
	<node lat="64.28691388842023" lon="10.413555565078324" id="-83026">
		<tag k="name" v="Heia" />
		<tag k="natural" v="hill" />
		<tag k="place" v="locality" />
		<tag k="ssr:stedsnr" v="196548" />
	</node>
	<node lat="64.2872361119167" lon="10.48935277911715" id="-83043">
		<tag k="name" v="Svartholrova" />
		<tag k="natural" v="valley" />
		<tag k="place" v="locality" />
		<tag k="ssr:stedsnr" v="215001" />
	</node>
	<node lat="64.26882500119676" lon="10.418708341649657" id="-83048">
		<tag k="name" v="Hestreva" />
		<tag k="natural" v="hill" />
		<tag k="place" v="locality" />
		<tag k="ssr:stedsnr" v="215061" />
	</node>
	<node lat="64.310266665024" lon="10.470208341255134" id="-83049">
		<tag k="name" v="Middagsholet" />
		<tag k="natural" v="slope" />
		<tag k="place" v="locality" />
		<tag k="ssr:stedsnr" v="215065" />
	</node>
	<node lat="64.40839722022447" lon="10.490630551228334" id="-83050">
		<tag k="name" v="Høgkleiva" />
		<tag k="natural" v="hill" />
		<tag k="place" v="locality" />
		<tag k="ssr:stedsnr" v="215335" />
	</node>
	<node lat="64.35411388737106" lon="10.517208336967638" id="-83054">
		<tag k="name" v="Peran" />
		<tag k="natural" v="slope" />
		<tag k="place" v="locality" />
		<tag k="ssr:stedsnr" v="215367" />
	</node>
	<node lat="64.34254166372364" lon="10.476080560605235" id="-83059">
		<tag k="name" v="Heia" />
		<tag k="natural" v="hill" />
		<tag k="place" v="locality" />
		<tag k="ssr:stedsnr" v="215395" />
	</node>
	<node lat="64.29404444412997" lon="10.273872225932921" id="-83061">
		<tag k="name" v="Hars" />
		<tag k="natural" v="hill" />
		<tag k="place" v="locality" />
		<tag k="ssr:stedsnr" v="215517" />
	</node>
	<node lat="64.26725555634411" lon="10.410699998534692" id="-83063">
		<tag k="name" v="Rossdalen" />
		<tag k="natural" v="valley" />
		<tag k="place" v="locality" />
		<tag k="ssr:stedsnr" v="215617" />
	</node>
	<node lat="64.29655000363579" lon="10.529388893811907" id="-83064">
		<tag k="name" v="Gunnhildskardet" />
		<tag k="natural" v="valley" />
		<tag k="place" v="locality" />
		<tag k="ssr:stedsnr" v="215693" />
	</node>
	<node lat="64.39709166436015" lon="10.478244435864644" id="-83065">
		<tag k="name" v="Korsvikhaugen" />
		<tag k="natural" v="hill" />
		<tag k="place" v="locality" />
		<tag k="ssr:stedsnr" v="215700" />
	</node>
	<node lat="64.24144444517749" lon="10.625797222615677" id="-83067">
		<tag k="name" v="Finnvolldalen" />
		<tag k="natural" v="valley" />
		<tag k="place" v="locality" />
		<tag k="ssr:stedsnr" v="215439" />
	</node>
	<node lat="64.27357222209505" lon="10.62312500265919" id="-83069">
		<tag k="name" v="Tausdalen" />
		<tag k="natural" v="valley" />
		<tag k="place" v="locality" />
		<tag k="ssr:stedsnr" v="215459" />
	</node>
	<node lat="64.27325833352624" lon="10.588455562889894" id="-83071">
		<tag k="name" v="Vakkerlia" />
		<tag k="natural" v="slope" />
		<tag k="place" v="locality" />
		<tag k="ssr:stedsnr" v="215471" />
	</node>
	<node lat="64.26535277486144" lon="10.454461121132661" id="-83072">
		<tag k="name" v="Småheian" />
		<tag k="natural" v="hill" />
		<tag k="place" v="locality" />
		<tag k="ssr:stedsnr" v="215537" />
	</node>
	<node lat="64.2483833323683" lon="10.71499722387657" id="-83074">
		<tag k="name" v="Sivertlia" />
		<tag k="natural" v="slope" />
		<tag k="place" v="locality" />
		<tag k="ssr:stedsnr" v="215540" />
	</node>
	<node lat="64.30465833400442" lon="10.521977775639897" id="-83076">
		<tag k="name" v="Ormmoen" />
		<tag k="place" v="locality" />
		<tag k="ssr:stedsnr" v="215562" />
	</node>
	<node lat="64.33283889097319" lon="10.419266669511002" id="-83078">
		<tag k="name" v="Vassdalen" />
		<tag k="natural" v="valley" />
		<tag k="place" v="locality" />
		<tag k="ssr:stedsnr" v="215633" />
	</node>
	<node lat="64.32775833276783" lon="10.377549991279569" id="-83082">
		<tag k="name" v="Krokhaugen" />
		<tag k="natural" v="hill" />
		<tag k="place" v="locality" />
		<tag k="ssr:stedsnr" v="215645" />
	</node>
	<node lat="64.34947777726724" lon="10.505011115925628" id="-83084">
		<tag k="name" v="Litl Jevikklumpen" />
		<tag k="natural" v="hill" />
		<tag k="place" v="locality" />
		<tag k="ssr:stedsnr" v="215733" />
	</node>
	<node lat="64.35030833406599" lon="10.49105555035274" id="-83085">
		<tag k="name" v="Løkhatten" />
		<tag k="natural" v="ridge" />
		<tag k="place" v="locality" />
		<tag k="ssr:stedsnr" v="215736" />
	</node>
	<node lat="64.19110555346202" lon="10.694699995343237" id="-83086">
		<tag k="fixme" v="consider natural=peak for the most distinct mountains in the district" />
		<tag k="name" v="Granfjellet" />
		<tag k="natural" v="hill" />
		<tag k="place" v="locality" />
		<tag k="ssr:stedsnr" v="215759" />
	</node>
	<node lat="64.37576672303301" lon="10.631326023384016" id="-83087">
		<tag k="name" v="Bøleroggo" />
		<tag k="natural" v="valley" />
		<tag k="place" v="locality" />
		<tag k="ssr:stedsnr" v="215764" />
	</node>
	<node lat="64.28212777585912" lon="10.708194441517557" id="-83088">
		<tag k="name" v="Storheia" />
		<tag k="natural" v="hill" />
		<tag k="place" v="locality" />
		<tag k="ssr:stedsnr" v="215765" />
	</node>
	<node lat="64.30901667005813" lon="10.692702783304414" id="-83089">
		<tag k="name" v="Vardan" />
		<tag k="natural" v="hill" />
		<tag k="place" v="locality" />
		<tag k="ssr:stedsnr" v="215766" />
	</node>
	<node lat="64.27797500333968" lon="10.42824723031051" id="-83093">
		<tag k="name" v="Litlskardet" />
		<tag k="natural" v="valley" />
		<tag k="place" v="locality" />
		<tag k="ssr:stedsnr" v="276052" />
	</node>
	<node lat="64.27055000228282" lon="10.562052782096885" id="-83094">
		<tag k="name" v="Fremmerheia" />
		<tag k="natural" v="hill" />
		<tag k="place" v="locality" />
		<tag k="ssr:stedsnr" v="276055" />
	</node>
	<node lat="64.28941944454186" lon="10.574477784549341" id="-83095">
		<tag k="name" v="Hansengfjellet" />
		<tag k="natural" v="hill" />
		<tag k="place" v="locality" />
		<tag k="ssr:stedsnr" v="276063" />
	</node>
	<node lat="64.1847527800042" lon="10.685222231930027" id="-83096">
		<tag k="name" v="Vakkerlia" />
		<tag k="natural" v="slope" />
		<tag k="place" v="locality" />
		<tag k="ssr:stedsnr" v="276064" />
	</node>
	<node lat="64.39856110730452" lon="10.476841656633814" id="-83098">
		<tag k="name" v="Styrvikhaugen" />
		<tag k="natural" v="hill" />
		<tag k="place" v="locality" />
		<tag k="ssr:stedsnr" v="276309" />
	</node>
	<node lat="64.23967500317902" lon="10.653055560608989" id="-83099">
		<tag k="name" v="Liastranda" />
		<tag k="natural" v="slope" />
		<tag k="place" v="locality" />
		<tag k="ssr:stedsnr" v="276312" />
	</node>
	<node lat="64.28026666946798" lon="10.689491656674619" id="-83100">
		<tag k="name" v="Vardheia" />
		<tag k="natural" v="hill" />
		<tag k="place" v="locality" />
		<tag k="ssr:stedsnr" v="276316" />
	</node>
	<node lat="64.24874166783631" lon="10.726625006887613" id="-83101">
		<tag k="fixme" v="consider natural=peak for the most distinct mountains in the district" />
		<tag k="name" v="Mossarabban" />
		<tag k="natural" v="hill" />
		<tag k="place" v="locality" />
		<tag k="ssr:stedsnr" v="276395" />
	</node>
	<node lat="64.23288889011808" lon="10.616222221255343" id="-83103">
		<tag k="name" v="Kvennlandssteinen" />
		<tag k="natural" v="hill" />
		<tag k="place" v="locality" />
		<tag k="ssr:stedsnr" v="276471" />
	</node>
	<node lat="64.27363889124044" lon="10.60320833119297" id="-83105">
		<tag k="name" v="Smihaugen" />
		<tag k="natural" v="hill" />
		<tag k="place" v="locality" />
		<tag k="ssr:stedsnr" v="276477" />
	</node>
	<node lat="64.36855555746702" lon="10.64919167280397" id="-83109">
		<tag k="name" v="Pallfjellet" />
		<tag k="natural" v="hill" />
		<tag k="place" v="locality" />
		<tag k="ssr:stedsnr" v="276343" />
	</node>
	<node lat="64.3170611088108" lon="10.48269445198342" id="-83122">
		<tag k="name" v="Molttrappan" />
		<tag k="natural" v="ridge" />
		<tag k="place" v="locality" />
		<tag k="ssr:stedsnr" v="276635" />
	</node>
	<node lat="64.30653055175745" lon="10.539755561848295" id="-83124">
		<tag k="name" v="Saubergskardet" />
		<tag k="natural" v="valley" />
		<tag k="place" v="locality" />
		<tag k="ssr:stedsnr" v="276494" />
	</node>
	<node lat="64.31806667026841" lon="10.547119444169269" id="-83126">
		<tag k="name" v="Vinghalsan" />
		<tag k="natural" v="ridge" />
		<tag k="place" v="locality" />
		<tag k="ssr:stedsnr" v="276695" />
	</node>
	<node lat="64.40540833069507" lon="10.539991657406949" id="-83129">
		<tag k="name" v="Staverdalen" />
		<tag k="natural" v="valley" />
		<tag k="place" v="locality" />
		<tag k="ssr:stedsnr" v="276699" />
	</node>
	<node lat="64.40064722635663" lon="10.535544449169127" id="-83130">
		<tag k="name" v="Sjåvika" />
		<tag k="natural" v="slope" />
		<tag k="place" v="locality" />
		<tag k="ssr:stedsnr" v="276700" />
	</node>
	<node lat="64.30690555520553" lon="10.482038888807304" id="-83131">
		<tag k="name" v="Kalvhammarfjellet" />
		<tag k="natural" v="hill" />
		<tag k="place" v="locality" />
		<tag k="ssr:stedsnr" v="276638" />
	</node>
	<node lat="64.24955555307234" lon="10.422261113712862" id="-83134">
		<tag k="name" v="Øverlia" />
		<tag k="natural" v="slope" />
		<tag k="place" v="locality" />
		<tag k="ssr:stedsnr" v="276646" />
	</node>
	<node lat="64.29045277338975" lon="10.436150006671106" id="-83136">
		<tag k="name" v="Torvhaugan" />
		<tag k="natural" v="hill" />
		<tag k="place" v="locality" />
		<tag k="ssr:stedsnr" v="276652" />
	</node>
	<node lat="64.29427222539529" lon="10.418347212617345" id="-83137">
		<tag k="name" v="Torvvegen" />
		<tag k="natural" v="slope" />
		<tag k="place" v="locality" />
		<tag k="ssr:stedsnr" v="276653" />
	</node>
	<node lat="64.32703889247085" lon="10.453988885914269" id="-83138">
		<tag k="name" v="Sandviksfjellet" />
		<tag k="natural" v="hill" />
		<tag k="place" v="locality" />
		<tag k="ssr:stedsnr" v="276729" />
	</node>
	<node lat="64.34585833473159" lon="10.468599997024373" id="-83139">
		<tag k="name" v="Bjørnaholet" />
		<tag k="natural" v="valley" />
		<tag k="place" v="locality" />
		<tag k="ssr:stedsnr" v="276731" />
	</node>
	<node lat="64.30527777943405" lon="10.745150009582535" id="-83141">
		<tag k="name" v="Vakkerliheia" />
		<tag k="natural" v="hill" />
		<tag k="place" v="locality" />
		<tag k="ssr:stedsnr" v="276735" />
	</node>
	<node lat="64.23472222603876" lon="10.792719442080097" id="-83143">
		<tag k="name" v="Dettfosslia" />
		<tag k="natural" v="slope" />
		<tag k="place" v="locality" />
		<tag k="ssr:stedsnr" v="276744" />
	</node>
	<node lat="64.23491666636541" lon="10.736186112946134" id="-83144">
		<tag k="fixme" v="consider natural=peak for the most distinct mountains in the district" />
		<tag k="name" v="Lauvhaugan" />
		<tag k="natural" v="hill" />
		<tag k="place" v="locality" />
		<tag k="ssr:stedsnr" v="276750" />
	</node>
	<node lat="64.32618888672228" lon="10.58594444360971" id="-83148">
		<tag k="name" v="Stordalen" />
		<tag k="natural" v="valley" />
		<tag k="place" v="locality" />
		<tag k="ssr:stedsnr" v="276758" />
	</node>
	<node lat="64.24453610688013" lon="10.478866668510387" id="-83152">
		<tag k="fixme" v="consider natural=peak for the most distinct mountains in the district" />
		<tag k="name" v="Gjeltheia" />
		<tag k="natural" v="hill" />
		<tag k="place" v="locality" />
		<tag k="ssr:stedsnr" v="317032" />
	</node>
	<node lat="64.29000277832424" lon="10.81486665948298" id="-83153">
		<tag k="alt_name" v="Rørvassheia" />
		<tag k="fixme" v="consider natural=peak for the most distinct mountains in the district" />
		<tag k="name" v="Rørvassklumpen" />
		<tag k="natural" v="hill" />
		<tag k="place" v="locality" />
		<tag k="ssr:stedsnr" v="317171" />
	</node>
	<node lat="64.32688055446455" lon="10.656702775077612" id="-83159">
		<tag k="fixme" v="consider natural=peak for the most distinct mountains in the district" />
		<tag k="name" v="Svartholfjellet" />
		<tag k="natural" v="hill" />
		<tag k="place" v="locality" />
		<tag k="ssr:stedsnr" v="317460" />
	</node>
	<node lat="64.24416388757048" lon="10.730741674067254" id="-83169">
		<tag k="fixme" v="consider natural=peak for the most distinct mountains in the district" />
		<tag k="name" v="Skarvåsen" />
		<tag k="natural" v="hill" />
		<tag k="place" v="locality" />
		<tag k="ssr:stedsnr" v="317674" />
	</node>
	<node lat="64.34286110941315" lon="10.67617222399953" id="-83170">
		<tag k="name" v="Leirskardet" />
		<tag k="natural" v="valley" />
		<tag k="place" v="locality" />
		<tag k="ssr:stedsnr" v="317675" />
	</node>
	<node lat="64.32178333625515" lon="10.543397216472068" id="-83186">
		<tag k="name" v="Bingsholet" />
		<tag k="natural" v="valley" />
		<tag k="place" v="locality" />
		<tag k="ssr:stedsnr" v="336487" />
	</node>
	<node lat="64.24724166472868" lon="10.825391657263856" id="-83187">
		<tag k="name" v="Jonaslia" />
		<tag k="natural" v="slope" />
		<tag k="place" v="locality" />
		<tag k="ssr:stedsnr" v="337425" />
	</node>
	<node lat="64.25413055931054" lon="10.798130561977109" id="-83188">
		<tag k="name" v="Heimheia" />
		<tag k="natural" v="hill" />
		<tag k="place" v="locality" />
		<tag k="ssr:stedsnr" v="337428" />
	</node>
	<node lat="64.31151667092679" lon="10.461247224891292" id="-83189">
		<tag k="name" v="Nausthaugan" />
		<tag k="natural" v="hill" />
		<tag k="place" v="locality" />
		<tag k="ssr:stedsnr" v="336556" />
	</node>
	<node lat="64.27932778108236" lon="10.74015278371873" id="-83190">
		<tag k="name" v="Hesten" />
		<tag k="natural" v="hill" />
		<tag k="place" v="locality" />
		<tag k="ssr:stedsnr" v="336668" />
	</node>
	<node lat="64.30245555214715" lon="10.531733328040362" id="-83191">
		<tag k="name" v="Kjerrdalskleiva" />
		<tag k="natural" v="slope" />
		<tag k="place" v="locality" />
		<tag k="ssr:stedsnr" v="336622" />
	</node>
	<node lat="64.2932777810013" lon="10.53595833664049" id="-83192">
		<tag k="name" v="Merraholet" />
		<tag k="natural" v="valley" />
		<tag k="place" v="locality" />
		<tag k="ssr:stedsnr" v="336626" />
	</node>
	<node lat="64.29022500319391" lon="10.474872213411484" id="-83196">
		<tag k="name" v="Tellegge" />
		<tag k="natural" v="hill" />
		<tag k="place" v="locality" />
		<tag k="ssr:stedsnr" v="337030" />
	</node>
	<node lat="64.25509999824388" lon="10.440699992541667" id="-83197">
		<tag k="name" v="Engheia" />
		<tag k="natural" v="hill" />
		<tag k="place" v="locality" />
		<tag k="ssr:stedsnr" v="337035" />
	</node>
	<node lat="64.33869999984034" lon="10.47396111937762" id="-83198">
		<tag k="name" v="Moan" />
		<tag k="place" v="locality" />
		<tag k="ssr:stedsnr" v="337075" />
	</node>
	<node lat="64.34571666697255" lon="10.475677773780436" id="-83199">
		<tag k="name" v="Klubben" />
		<tag k="natural" v="hill" />
		<tag k="place" v="locality" />
		<tag k="ssr:stedsnr" v="337078" />
	</node>
	<node lat="64.25551944027936" lon="10.6633888933394" id="-83203">
		<tag k="name" v="Bjørnaholet" />
		<tag k="natural" v="valley" />
		<tag k="place" v="locality" />
		<tag k="ssr:stedsnr" v="337331" />
	</node>
	<node lat="64.35539444163818" lon="10.474433340094699" id="-83204">
		<tag k="name" v="Otertofjellet" />
		<tag k="natural" v="hill" />
		<tag k="place" v="locality" />
		<tag k="ssr:stedsnr" v="337339" />
	</node>
	<node lat="64.40603888715032" lon="10.50201387993324" id="-83207">
		<tag k="name" v="Hermodlia" />
		<tag k="natural" v="slope" />
		<tag k="place" v="locality" />
		<tag k="ssr:stedsnr" v="337351" />
	</node>
	<node lat="64.39923888640442" lon="10.496844445724946" id="-83208">
		<tag k="name" v="Bekkjamyra" />
		<tag k="natural" v="slope" />
		<tag k="place" v="locality" />
		<tag k="ssr:stedsnr" v="337353" />
	</node>
	<node lat="64.36671666838983" lon="10.66816388469767" id="-83209">
		<tag k="name" v="Slettbakkan" />
		<tag k="natural" v="ridge" />
		<tag k="place" v="locality" />
		<tag k="ssr:stedsnr" v="337359" />
	</node>
	<node lat="64.21115277745787" lon="10.63030834113185" id="-83210">
		<tag k="name" v="Rørlia" />
		<tag k="natural" v="slope" />
		<tag k="place" v="locality" />
		<tag k="ssr:stedsnr" v="337363" />
	</node>
	<node lat="64.26517778189786" lon="10.639641666724094" id="-83211">
		<tag k="name" v="Johanlia" />
		<tag k="natural" v="slope" />
		<tag k="place" v="locality" />
		<tag k="ssr:stedsnr" v="337384" />
	</node>
	<node lat="64.32634166948644" lon="10.373597224101278" id="-83214">
		<tag k="name" v="Nord Skardhaugen" />
		<tag k="natural" v="hill" />
		<tag k="place" v="locality" />
		<tag k="ssr:stedsnr" v="337437" />
	</node>
	<node lat="64.28243610943086" lon="10.76323611939696" id="-83217">
		<tag k="name" v="Granhaugen" />
		<tag k="natural" v="hill" />
		<tag k="place" v="locality" />
		<tag k="ssr:stedsnr" v="337484" />
	</node>
	<node lat="64.28658055506635" lon="10.506972223687495" id="-83218">
		<tag k="name" v="Fremmerfjellet" />
		<tag k="natural" v="hill" />
		<tag k="place" v="locality" />
		<tag k="ssr:stedsnr" v="337563" />
	</node>
	<node lat="64.29702222021282" lon="10.457624989747377" id="-83219">
		<tag k="name" v="Revan" />
		<tag k="natural" v="hill" />
		<tag k="place" v="locality" />
		<tag k="ssr:stedsnr" v="337565" />
	</node>
	<node lat="64.32866389256297" lon="10.359213891953253" id="-83220">
		<tag k="name" v="Helhaugan" />
		<tag k="natural" v="hill" />
		<tag k="place" v="locality" />
		<tag k="ssr:stedsnr" v="337589" />
	</node>
	<node lat="64.35240277607929" lon="10.483319440792906" id="-83222">
		<tag k="name" v="Middagsvarden" />
		<tag k="natural" v="hill" />
		<tag k="place" v="locality" />
		<tag k="ssr:stedsnr" v="337668" />
	</node>
	<node lat="64.24774166271204" lon="10.669661107527075" id="-83229">
		<tag k="name" v="Dragdalen" />
		<tag k="natural" v="valley" />
		<tag k="place" v="locality" />
		<tag k="ssr:stedsnr" v="377046" />
	</node>
	<node lat="64.30689167041797" lon="10.482477780092053" id="-83231">
		<tag k="name" v="Kalvhammaren" />
		<tag k="natural" v="hill" />
		<tag k="place" v="locality" />
		<tag k="ssr:stedsnr" v="377534" />
	</node>
	<node lat="64.33391666930926" lon="10.418097230256254" id="-83234">
		<tag k="fixme" v="consider natural=peak for the most distinct mountains in the district" />
		<tag k="name" v="Middagsfjellet" />
		<tag k="natural" v="hill" />
		<tag k="place" v="locality" />
		<tag k="ssr:stedsnr" v="377495" />
	</node>
	<node lat="64.26011389152694" lon="10.490333328047099" id="-83240">
		<tag k="name" v="Skåpan" />
		<tag k="natural" v="valley" />
		<tag k="place" v="locality" />
		<tag k="ssr:stedsnr" v="377612" />
	</node>
	<node lat="64.26443610688065" lon="10.5493194455019" id="-83241">
		<tag k="name" v="Tverrskardet" />
		<tag k="natural" v="valley" />
		<tag k="place" v="locality" />
		<tag k="ssr:stedsnr" v="377615" />
	</node>
	<node lat="64.40241555682915" lon="10.5153309109619" id="-83248">
		<tag k="fixme" v="consider natural=peak for the most distinct mountains in the district" />
		<tag k="name" v="Nova" />
		<tag k="natural" v="hill" />
		<tag k="place" v="locality" />
		<tag k="ssr:stedsnr" v="378688" />
	</node>
	<node lat="64.28366388810541" lon="10.670741672463203" id="-83249">
		<tag k="name" v="Vakkerlia" />
		<tag k="natural" v="slope" />
		<tag k="place" v="locality" />
		<tag k="ssr:stedsnr" v="378610" />
	</node>
	<node lat="64.23425833093941" lon="10.77675277715052" id="-83254">
		<tag k="name" v="Elghaugen" />
		<tag k="natural" v="hill" />
		<tag k="place" v="locality" />
		<tag k="ssr:stedsnr" v="378655" />
	</node>
	<node lat="64.25238888722991" lon="10.426002777471579" id="-83263">
		<tag k="name" v="Mortentrappen" />
		<tag k="natural" v="slope" />
		<tag k="place" v="locality" />
		<tag k="ssr:stedsnr" v="397037" />
	</node>
	<node lat="64.27893611044847" lon="10.492952776317532" id="-83265">
		<tag k="name" v="Mæritlia" />
		<tag k="natural" v="slope" />
		<tag k="place" v="locality" />
		<tag k="ssr:stedsnr" v="397013" />
	</node>
	<node lat="64.2985777769218" lon="10.74716665939783" id="-83269">
		<tag k="name" v="Bekkadalen" />
		<tag k="natural" v="valley" />
		<tag k="place" v="locality" />
		<tag k="ssr:stedsnr" v="397414" />
	</node>
	<node lat="64.28888889032241" lon="10.46371388855953" id="-83270">
		<tag k="name" v="Raudkista" />
		<tag k="natural" v="hill" />
		<tag k="place" v="locality" />
		<tag k="ssr:stedsnr" v="397503" />
	</node>
	<node lat="64.18829166561771" lon="10.654663892612964" id="-83272">
		<tag k="name" v="Hestlia" />
		<tag k="natural" v="slope" />
		<tag k="place" v="locality" />
		<tag k="ssr:stedsnr" v="397051" />
	</node>
	<node lat="64.35568333487693" lon="10.487574992678757" id="-83275">
		<tag k="name" v="Høgsfjellet" />
		<tag k="natural" v="hill" />
		<tag k="place" v="locality" />
		<tag k="ssr:stedsnr" v="397348" />
	</node>
	<node lat="64.26527499628696" lon="10.675130559164398" id="-83276">
		<tag k="name" v="Elgholklumpen" />
		<tag k="natural" v="hill" />
		<tag k="place" v="locality" />
		<tag k="ssr:stedsnr" v="397358" />
	</node>
	<node lat="64.26173333292026" lon="10.67763055022131" id="-83277">
		<tag k="name" v="Sneiliklumpen" />
		<tag k="natural" v="hill" />
		<tag k="place" v="locality" />
		<tag k="ssr:stedsnr" v="397370" />
	</node>
	<node lat="64.23075555151752" lon="10.720400003517849" id="-83278">
		<tag k="fixme" v="consider natural=peak for the most distinct mountains in the district" />
		<tag k="name" v="Kangvasslibrottet" />
		<tag k="natural" v="hill" />
		<tag k="place" v="locality" />
		<tag k="ssr:stedsnr" v="397371" />
	</node>
	<node lat="64.3000361122199" lon="10.624394445803498" id="-83280">
		<tag k="fixme" v="consider natural=peak for the most distinct mountains in the district" />
		<tag k="name" v="Nordfjellet" />
		<tag k="natural" v="hill" />
		<tag k="place" v="locality" />
		<tag k="ssr:stedsnr" v="397438" />
	</node>
	<node lat="64.28680000436547" lon="10.543519436543429" id="-83283">
		<tag k="name" v="Riaksla" />
		<tag k="natural" v="ridge" />
		<tag k="place" v="locality" />
		<tag k="ssr:stedsnr" v="397472" />
	</node>
	<node lat="64.28339722638366" lon="10.494980559124471" id="-83284">
		<tag k="name" v="Svartholfjellet" />
		<tag k="natural" v="hill" />
		<tag k="place" v="locality" />
		<tag k="ssr:stedsnr" v="397601" />
	</node>
	<node lat="64.3316805582448" lon="10.428069450211716" id="-83285">
		<tag k="name" v="Dampskipshaugen" />
		<tag k="natural" v="hill" />
		<tag k="place" v="locality" />
		<tag k="ssr:stedsnr" v="397616" />
	</node>
	<node lat="64.2725805590118" lon="10.752613893721522" id="-83288">
		<tag k="name" v="Einmotømtet" />
		<tag k="place" v="locality" />
		<tag k="ssr:stedsnr" v="397699" />
	</node>
	<node lat="64.21955277444629" lon="10.790888887441215" id="-83290">
		<tag k="name" v="Rundførrubakk-kneppet" />
		<tag k="natural" v="ridge" />
		<tag k="place" v="locality" />
		<tag k="ssr:stedsnr" v="397712" />
	</node>
	<node lat="64.28790555429886" lon="10.559474991248974" id="-83295">
		<tag k="name" v="Brekka" />
		<tag k="natural" v="slope" />
		<tag k="place" v="locality" />
		<tag k="ssr:stedsnr" v="397642" />
	</node>
	<node lat="64.23046111178155" lon="10.633666660812214" id="-83296">
		<tag k="name" v="Litltuva" />
		<tag k="natural" v="hill" />
		<tag k="place" v="locality" />
		<tag k="ssr:stedsnr" v="397650" />
	</node>
	<node lat="64.29173333228341" lon="10.557655555890227" id="-83297">
		<tag k="name" v="Grytdalen" />
		<tag k="natural" v="valley" />
		<tag k="place" v="locality" />
		<tag k="ssr:stedsnr" v="397665" />
	</node>
	<node lat="64.25293055484774" lon="10.648277786427974" id="-83298">
		<tag k="name" v="Løsmohaugan" />
		<tag k="natural" v="hill" />
		<tag k="place" v="locality" />
		<tag k="ssr:stedsnr" v="397744" />
	</node>
	<node lat="64.25571944747215" lon="10.620611108171854" id="-83299">
		<tag k="name" v="Merkesdalen" />
		<tag k="natural" v="valley" />
		<tag k="place" v="locality" />
		<tag k="ssr:stedsnr" v="397745" />
	</node>
	<node lat="64.20382222263301" lon="10.589208339174883" id="-83310">
		<tag k="fixme" v="consider natural=peak for the most distinct mountains in the district" />
		<tag k="name" v="Finnkallan" />
		<tag k="natural" v="hill" />
		<tag k="place" v="locality" />
		<tag k="ssr:stedsnr" v="438486" />
	</node>
	<node lat="64.30723888739232" lon="10.671155545164504" id="-83312">
		<tag k="name" v="Grønlia" />
		<tag k="natural" v="slope" />
		<tag k="place" v="locality" />
		<tag k="ssr:stedsnr" v="438535" />
	</node>
	<node lat="64.26473333704948" lon="10.908761114007492" id="-83320">
		<tag k="fixme" v="consider natural=peak for the most distinct mountains in the district" />
		<tag k="name" v="Olvasskollen" />
		<tag k="natural" v="hill" />
		<tag k="place" v="locality" />
		<tag k="ssr:stedsnr" v="439125" />
	</node>
	<node lat="64.42067221924141" lon="10.52918888346893" id="-83327">
		<tag k="fixme" v="consider natural=peak for the most distinct mountains in the district" />
		<tag k="name" v="Oksbåsheia" />
		<tag k="natural" v="hill" />
		<tag k="place" v="locality" />
		<tag k="ssr:stedsnr" v="439680" />
	</node>
	<node lat="64.29079722444685" lon="10.705186105858388" id="-83331">
		<tag k="name" v="Finnbudalen" />
		<tag k="natural" v="valley" />
		<tag k="place" v="locality" />
		<tag k="ssr:stedsnr" v="499525" />
	</node>
	<node lat="64.27982777994588" lon="10.470430556474007" id="-83332">
		<tag k="name" v="Aundalen" />
		<tag k="natural" v="valley" />
		<tag k="place" v="locality" />
		<tag k="ssr:stedsnr" v="499527" />
	</node>
	<node lat="64.34708333359455" lon="10.647480550381415" id="-83336">
		<tag k="name" v="Eiterdalen" />
		<tag k="natural" v="valley" />
		<tag k="place" v="locality" />
		<tag k="ssr:stedsnr" v="499674" />
	</node>
	<node lat="64.3641388862549" lon="10.642597215707852" id="-83338">
		<tag k="fixme" v="consider natural=peak for the most distinct mountains in the district" />
		<tag k="name" v="Kudalsfjellet" />
		<tag k="natural" v="hill" />
		<tag k="place" v="locality" />
		<tag k="ssr:stedsnr" v="499682" />
	</node>
	<node lat="64.24311944503032" lon="10.658613883645224" id="-83340">
		<tag k="fixme" v="consider natural=peak for the most distinct mountains in the district" />
		<tag k="name" v="Sveafjellet" />
		<tag k="natural" v="hill" />
		<tag k="place" v="locality" />
		<tag k="ssr:stedsnr" v="499022" />
	</node>
	<node lat="64.2833805577764" lon="10.731727780996298" id="-83343">
		<tag k="name" v="Sølvhaugen" />
		<tag k="natural" v="hill" />
		<tag k="place" v="locality" />
		<tag k="ssr:stedsnr" v="499100" />
	</node>
	<node lat="64.25229444238326" lon="10.551611114943505" id="-83344">
		<tag k="name" v="Rosskardheia" />
		<tag k="natural" v="hill" />
		<tag k="place" v="locality" />
		<tag k="ssr:stedsnr" v="499357" />
	</node>
	<node lat="64.2748833373169" lon="10.464819448335394" id="-83346">
		<tag k="fixme" v="consider natural=peak for the most distinct mountains in the district" />
		<tag k="name" v="Blåfjellet" />
		<tag k="natural" v="hill" />
		<tag k="place" v="locality" />
		<tag k="ssr:stedsnr" v="499551" />
	</node>
	<node lat="64.25895277483635" lon="10.673230555841272" id="-83347">
		<tag k="name" v="Sneilia" />
		<tag k="natural" v="slope" />
		<tag k="place" v="locality" />
		<tag k="ssr:stedsnr" v="499570" />
	</node>
	<node lat="64.2553583349099" lon="10.564555547280209" id="-83348">
		<tag k="name" v="Bjørnadalen" />
		<tag k="natural" v="valley" />
		<tag k="place" v="locality" />
		<tag k="ssr:stedsnr" v="499827" />
	</node>
	<node lat="64.38778700750571" lon="10.618939336029438" id="-83351">
		<tag k="name" v="Biskopen" />
		<tag k="natural" v="hill" />
		<tag k="place" v="locality" />
		<tag k="ssr:stedsnr" v="511025" />
	</node>
	<node lat="64.21029722081244" lon="10.61015276810065" id="-83357">
		<tag k="name" v="Finnkallhalsen" />
		<tag k="natural" v="valley" />
		<tag k="place" v="locality" />
		<tag k="ssr:stedsnr" v="518252" />
	</node>
	<node lat="64.40514166999655" lon="10.521391656725578" id="-83359">
		<tag k="name" v="Fjøshaugen" />
		<tag k="natural" v="hill" />
		<tag k="place" v="locality" />
		<tag k="ssr:stedsnr" v="518274" />
	</node>
	<node lat="64.25019166677211" lon="10.798469445473346" id="-83360">
		<tag k="fixme" v="consider natural=peak for the most distinct mountains in the district" />
		<tag k="name" v="Sandvasshalsen" />
		<tag k="natural" v="hill" />
		<tag k="place" v="locality" />
		<tag k="ssr:stedsnr" v="518675" />
	</node>
	<node lat="64.22486944142734" lon="10.708716668143909" id="-83362">
		<tag k="name" v="Grankammen" />
		<tag k="natural" v="ridge" />
		<tag k="place" v="locality" />
		<tag k="ssr:stedsnr" v="518686" />
	</node>
	<node lat="64.30116389233915" lon="10.47628333504944" id="-83363">
		<tag k="name" v="Vintappen" />
		<tag k="natural" v="hill" />
		<tag k="place" v="locality" />
		<tag k="ssr:stedsnr" v="519031" />
	</node>
	<node lat="64.27780555889706" lon="10.652877771933115" id="-83364">
		<tag k="name" v="Sjetnbakkan" />
		<tag k="natural" v="slope" />
		<tag k="place" v="locality" />
		<tag k="ssr:stedsnr" v="519053" />
	</node>
	<node lat="64.24278332984751" lon="10.751158342905415" id="-83365">
		<tag k="name" v="Almlia" />
		<tag k="natural" v="slope" />
		<tag k="place" v="locality" />
		<tag k="ssr:stedsnr" v="519093" />
	</node>
	<node lat="64.28767499624351" lon="10.76477221228676" id="-83368">
		<tag k="name" v="Langvassdalsheia" />
		<tag k="natural" v="hill" />
		<tag k="place" v="locality" />
		<tag k="ssr:stedsnr" v="519487" />
	</node>
	<node lat="64.23381388929666" lon="10.726519444848096" id="-83370">
		<tag k="name" v="Kangvasslia" />
		<tag k="natural" v="slope" />
		<tag k="place" v="locality" />
		<tag k="ssr:stedsnr" v="519346" />
	</node>
	<node lat="64.29421388646082" lon="10.53901111371482" id="-83373">
		<tag k="name" v="Litlfjellet" />
		<tag k="natural" v="hill" />
		<tag k="place" v="locality" />
		<tag k="ssr:stedsnr" v="519438" />
	</node>
	<node lat="64.28572222613299" lon="10.535783323479558" id="-83374">
		<tag k="name" v="Nakken" />
		<tag k="natural" v="ridge" />
		<tag k="place" v="locality" />
		<tag k="ssr:stedsnr" v="519439" />
	</node>
	<node lat="64.28644722610036" lon="10.273397223147148" id="-83376">
		<tag k="name" v="Innerøyhovden" />
		<tag k="natural" v="hill" />
		<tag k="place" v="locality" />
		<tag k="ssr:stedsnr" v="519449" />
	</node>
	<node lat="64.24577777999365" lon="10.42574444422504" id="-83381">
		<tag k="name" v="Hundreva" />
		<tag k="natural" v="valley" />
		<tag k="place" v="locality" />
		<tag k="ssr:stedsnr" v="519600" />
	</node>
	<node lat="64.23301111408489" lon="10.68236388295237" id="-83385">
		<tag k="fixme" v="consider natural=peak for the most distinct mountains in the district" />
		<tag k="name" v="Storåsen" />
		<tag k="natural" v="hill" />
		<tag k="place" v="locality" />
		<tag k="ssr:stedsnr" v="559060" />
	</node>
	<node lat="64.25210555701904" lon="10.497372214835357" id="-83387">
		<tag k="name" v="Valheia" />
		<tag k="natural" v="hill" />
		<tag k="place" v="locality" />
		<tag k="ssr:stedsnr" v="559419" />
	</node>
	<node lat="64.32573610907832" lon="10.524169434829682" id="-83389">
		<tag k="alt_name" v="Sørhopaskardet" />
		<tag k="name" v="Sørskardet" />
		<tag k="natural" v="valley" />
		<tag k="place" v="locality" />
		<tag k="ssr:stedsnr" v="559517" />
	</node>
	<node lat="64.26811389215986" lon="10.694108336488936" id="-83394">
		<tag k="name" v="Kjølen" />
		<tag k="natural" v="hill" />
		<tag k="place" v="locality" />
		<tag k="ssr:stedsnr" v="559617" />
	</node>
	<node lat="64.31152222555161" lon="10.735374996130512" id="-83401">
		<tag k="fixme" v="consider natural=peak for the most distinct mountains in the district" />
		<tag k="name" v="Andalsliheia" />
		<tag k="natural" v="hill" />
		<tag k="place" v="locality" />
		<tag k="ssr:stedsnr" v="560149" />
	</node>
	<node lat="64.3995444451947" lon="10.490413884843315" id="-83414">
		<tag k="name" v="Melkamunnhaugen" />
		<tag k="natural" v="hill" />
		<tag k="place" v="locality" />
		<tag k="ssr:stedsnr" v="579393" />
	</node>
	<node lat="64.30766666397403" lon="10.55142222808668" id="-83415">
		<tag k="name" v="Vakkerbakkan" />
		<tag k="natural" v="slope" />
		<tag k="place" v="locality" />
		<tag k="ssr:stedsnr" v="579011" />
	</node>
	<node lat="64.33468611537951" lon="10.398333339972321" id="-83416">
		<tag k="name" v="Krokmyran" />
		<tag k="natural" v="hill" />
		<tag k="place" v="locality" />
		<tag k="ssr:stedsnr" v="579014" />
	</node>
	<node lat="64.26701666746006" lon="10.760116662393056" id="-83419">
		<tag k="fixme" v="consider natural=peak for the most distinct mountains in the district" />
		<tag k="name" v="Purka" />
		<tag k="natural" v="hill" />
		<tag k="place" v="locality" />
		<tag k="ssr:stedsnr" v="579027" />
	</node>
	<node lat="64.3150916649428" lon="10.549888883421373" id="-83420">
		<tag k="name" v="Namføruskardet" />
		<tag k="natural" v="valley" />
		<tag k="place" v="locality" />
		<tag k="ssr:stedsnr" v="579030" />
	</node>
	<node lat="64.25089722590253" lon="10.415997227014858" id="-83422">
		<tag k="name" v="Sørlia" />
		<tag k="natural" v="slope" />
		<tag k="place" v="locality" />
		<tag k="ssr:stedsnr" v="579036" />
	</node>
	<node lat="64.26870555871952" lon="10.468399995923102" id="-83423">
		<tag k="name" v="Stilia" />
		<tag k="natural" v="slope" />
		<tag k="place" v="locality" />
		<tag k="ssr:stedsnr" v="579065" />
	</node>
	<node lat="64.37570833264674" lon="10.657975007048817" id="-83425">
		<tag k="fixme" v="consider natural=peak for the most distinct mountains in the district" />
		<tag k="name" v="Nordfjellet" />
		<tag k="natural" v="hill" />
		<tag k="place" v="locality" />
		<tag k="ssr:stedsnr" v="579342" />
	</node>
	<node lat="64.30047222287438" lon="10.726324993170634" id="-83427">
		<tag k="name" v="Solliheia" />
		<tag k="natural" v="hill" />
		<tag k="place" v="locality" />
		<tag k="ssr:stedsnr" v="579362" />
	</node>
	<node lat="64.24379722383894" lon="10.72643889276721" id="-83428">
		<tag k="name" v="Seterlipynten" />
		<tag k="natural" v="hill" />
		<tag k="place" v="locality" />
		<tag k="ssr:stedsnr" v="579369" />
	</node>
	<node lat="64.25026667096098" lon="10.706663890885022" id="-83429">
		<tag k="name" v="Storhaugen" />
		<tag k="natural" v="hill" />
		<tag k="place" v="locality" />
		<tag k="ssr:stedsnr" v="579375" />
	</node>
	<node lat="64.26080555801543" lon="10.715436111712188" id="-83433">
		<tag k="name" v="Tømtlia" />
		<tag k="natural" v="slope" />
		<tag k="place" v="locality" />
		<tag k="ssr:stedsnr" v="579283" />
	</node>
	<node lat="64.40326666912296" lon="10.491336103703576" id="-83434">
		<tag k="name" v="Dyrgrova" />
		<tag k="natural" v="valley" />
		<tag k="place" v="locality" />
		<tag k="ssr:stedsnr" v="579288" />
	</node>
	<node lat="64.2447555536999" lon="10.644961107267449" id="-83435">
		<tag k="name" v="Dubbelmarka" />
		<tag k="place" v="locality" />
		<tag k="ssr:stedsnr" v="579408" />
	</node>
	<node lat="64.21978611022669" lon="10.621072230138315" id="-83439">
		<tag k="name" v="Heimdalen" />
		<tag k="natural" v="valley" />
		<tag k="place" v="locality" />
		<tag k="ssr:stedsnr" v="579462" />
	</node>
	<node lat="64.26271111506755" lon="10.589022227463426" id="-83440">
		<tag k="name" v="Tverskardet" />
		<tag k="natural" v="valley" />
		<tag k="place" v="locality" />
		<tag k="ssr:stedsnr" v="579478" />
	</node>
	<node lat="64.27634166273872" lon="10.498258334701264" id="-83442">
		<tag k="name" v="Nordfjellet" />
		<tag k="natural" v="hill" />
		<tag k="place" v="locality" />
		<tag k="ssr:stedsnr" v="579639" />
	</node>
	<node lat="64.23513888475634" lon="10.604736119160627" id="-83444">
		<tag k="name" v="Øverlia" />
		<tag k="natural" v="slope" />
		<tag k="place" v="locality" />
		<tag k="ssr:stedsnr" v="579683" />
	</node>
	<node lat="64.20991388508861" lon="10.689780559117061" id="-83446">
		<tag k="name" v="Blåheidalen" />
		<tag k="natural" v="valley" />
		<tag k="place" v="locality" />
		<tag k="ssr:stedsnr" v="579743" />
	</node>
	<node lat="64.23465000063754" lon="10.701666665886155" id="-83447">
		<tag k="name" v="Hermansslætta" />
		<tag k="natural" v="slope" />
		<tag k="place" v="locality" />
		<tag k="ssr:stedsnr" v="579744" />
	</node>
	<node lat="64.3323805542348" lon="10.636688896460509" id="-83449">
		<tag k="fixme" v="consider natural=peak for the most distinct mountains in the district" />
		<tag k="name" v="Buaranken" />
		<tag k="natural" v="hill" />
		<tag k="place" v="locality" />
		<tag k="ssr:stedsnr" v="579752" />
	</node>
	<node lat="64.29466111246707" lon="10.599399998897711" id="-83451">
		<tag k="name" v="Stanelbakkan" />
		<tag k="natural" v="slope" />
		<tag k="place" v="locality" />
		<tag k="ssr:stedsnr" v="579770" />
	</node>
	<node lat="64.28235277848428" lon="10.609591658012976" id="-83452">
		<tag k="name" v="Litlheia" />
		<tag k="natural" v="hill" />
		<tag k="place" v="locality" />
		<tag k="ssr:stedsnr" v="579772" />
	</node>
	<node lat="64.26360833579383" lon="10.659988883923534" id="-83453">
		<tag k="name" v="Vakkerlia" />
		<tag k="natural" v="slope" />
		<tag k="place" v="locality" />
		<tag k="ssr:stedsnr" v="579736" />
	</node>
	<node lat="64.31186389190603" lon="10.483386115408814" id="-83466">
		<tag k="name" v="Strandaskardet" />
		<tag k="natural" v="valley" />
		<tag k="place" v="locality" />
		<tag k="ssr:stedsnr" v="620530" />
	</node>
	<node lat="64.29532777974508" lon="10.45623055437956" id="-83467">
		<tag k="fixme" v="consider natural=peak for the most distinct mountains in the district" />
		<tag k="name" v="Lindsetfjellet" />
		<tag k="natural" v="hill" />
		<tag k="place" v="locality" />
		<tag k="ssr:stedsnr" v="620532" />
	</node>
	<node lat="64.34954722405419" lon="10.452594449611624" id="-83482">
		<tag k="name" v="Åkvikfjellet" />
		<tag k="natural" v="hill" />
		<tag k="place" v="locality" />
		<tag k="ssr:stedsnr" v="620726" />
	</node>
	<node lat="64.28776667123076" lon="10.583758323963085" id="-83489">
		<tag k="name" v="Fossgroven" />
		<tag k="natural" v="slope" />
		<tag k="place" v="locality" />
		<tag k="ssr:stedsnr" v="639047" />
	</node>
	<node lat="64.27697500265299" lon="10.429786106472307" id="-83490">
		<tag k="name" v="Gløttskardet" />
		<tag k="natural" v="valley" />
		<tag k="place" v="locality" />
		<tag k="ssr:stedsnr" v="639049" />
	</node>
	<node lat="64.28049999892356" lon="10.58216389088409" id="-83491">
		<tag k="name" v="Brennheia" />
		<tag k="natural" v="hill" />
		<tag k="place" v="locality" />
		<tag k="ssr:stedsnr" v="639065" />
	</node>
	<node lat="64.27805277588836" lon="10.75263888668942" id="-83493">
		<tag k="name" v="Rundhaugen" />
		<tag k="natural" v="hill" />
		<tag k="place" v="locality" />
		<tag k="ssr:stedsnr" v="639519" />
	</node>
	<node lat="64.30491944390963" lon="10.510074993445649" id="-83494">
		<tag k="name" v="Nordvikskardet" />
		<tag k="natural" v="valley" />
		<tag k="place" v="locality" />
		<tag k="ssr:stedsnr" v="639579" />
	</node>
	<node lat="64.24135555676935" lon="10.645980547925145" id="-83496">
		<tag k="name" v="Urdskardet" />
		<tag k="natural" v="valley" />
		<tag k="place" v="locality" />
		<tag k="ssr:stedsnr" v="639641" />
	</node>
	<node lat="64.40826944063075" lon="10.518899996248694" id="-83498">
		<tag k="name" v="Oddhaugan" />
		<tag k="natural" v="hill" />
		<tag k="place" v="locality" />
		<tag k="ssr:stedsnr" v="639657" />
	</node>
	<node lat="64.39824722439246" lon="10.577377785438733" id="-83499">
		<tag k="name" v="Mårvikheia" />
		<tag k="natural" v="hill" />
		<tag k="place" v="locality" />
		<tag k="ssr:stedsnr" v="639662" />
	</node>
	<node lat="64.34492499731215" lon="10.698499998550082" id="-83501">
		<tag k="name" v="Nordleirskardet" />
		<tag k="natural" v="valley" />
		<tag k="place" v="locality" />
		<tag k="ssr:stedsnr" v="639734" />
	</node>
	<node lat="64.25428610772755" lon="10.654916660560868" id="-83502">
		<tag k="name" v="Granaterlia" />
		<tag k="natural" v="slope" />
		<tag k="place" v="locality" />
		<tag k="ssr:stedsnr" v="639738" />
	</node>
	<node lat="64.29093333468596" lon="10.534116662422882" id="-83503">
		<tag k="name" v="Kjerkbakkan" />
		<tag k="natural" v="slope" />
		<tag k="place" v="locality" />
		<tag k="ssr:stedsnr" v="640433" />
	</node>
	<node lat="64.3304611150804" lon="10.43288055498489" id="-83511">
		<tag k="name" v="Sundstrandfjellet" />
		<tag k="natural" v="hill" />
		<tag k="place" v="locality" />
		<tag k="ssr:stedsnr" v="640362" />
	</node>
	<node lat="64.27092500326239" lon="10.620886106547953" id="-83512">
		<tag k="name" v="Onshauggrova" />
		<tag k="natural" v="valley" />
		<tag k="place" v="locality" />
		<tag k="ssr:stedsnr" v="640395" />
	</node>
	<node lat="64.26618333098322" lon="10.830208326493594" id="-83513">
		<tag k="name" v="Inner Sandvassheia" />
		<tag k="natural" v="hill" />
		<tag k="place" v="locality" />
		<tag k="ssr:stedsnr" v="640417" />
	</node>
	<node lat="64.25549167082205" lon="10.830969443761363" id="-83514">
		<tag k="name" v="Finnkruhaugen" />
		<tag k="natural" v="hill" />
		<tag k="place" v="locality" />
		<tag k="ssr:stedsnr" v="640419" />
	</node>
	<node lat="64.32996666791455" lon="10.37042777770417" id="-83515">
		<tag k="name" v="Rollavikaksla" />
		<tag k="natural" v="hill" />
		<tag k="place" v="locality" />
		<tag k="ssr:stedsnr" v="640502" />
	</node>
	<node lat="64.29236388619474" lon="10.461883339381805" id="-83516">
		<tag k="name" v="Storklaven" />
		<tag k="natural" v="hill" />
		<tag k="place" v="locality" />
		<tag k="ssr:stedsnr" v="640585" />
	</node>
	<node lat="64.33222777935403" lon="10.402541660838853" id="-83518">
		<tag k="name" v="Stornesfjellet" />
		<tag k="natural" v="hill" />
		<tag k="place" v="locality" />
		<tag k="ssr:stedsnr" v="640600" />
	</node>
	<node lat="64.25443333272595" lon="10.44481111985509" id="-83519">
		<tag k="name" v="Mørkdalen" />
		<tag k="natural" v="valley" />
		<tag k="place" v="locality" />
		<tag k="ssr:stedsnr" v="640601" />
	</node>
	<node lat="64.24454444510093" lon="10.435855559448843" id="-83526">
		<tag k="fixme" v="consider natural=peak for the most distinct mountains in the district" />
		<tag k="name" v="Øverliheia" />
		<tag k="natural" v="hill" />
		<tag k="place" v="locality" />
		<tag k="ssr:stedsnr" v="741052" />
	</node>
	<node lat="64.32899166515685" lon="10.513838883640727" id="-83532">
		<tag k="fixme" v="consider natural=peak for the most distinct mountains in the district" />
		<tag k="name" v="Hopaheia" />
		<tag k="natural" v="hill" />
		<tag k="place" v="locality" />
		<tag k="ssr:stedsnr" v="742480" />
	</node>
	<node lat="64.27583889207585" lon="10.491241670675793" id="-83535">
		<tag k="fixme" v="consider natural=peak for the most distinct mountains in the district" />
		<tag k="name" v="Kjølen" />
		<tag k="natural" v="hill" />
		<tag k="place" v="locality" />
		<tag k="ssr:stedsnr" v="742577" />
	</node>
	<node lat="64.26039999961061" lon="10.628269446823019" id="-83553">
		<tag k="name" v="Brekkmoen" />
		<tag k="place" v="locality" />
		<tag k="ssr:stedsnr" v="761434" />
	</node>
	<node lat="64.25764722441369" lon="10.646738884726808" id="-83556">
		<tag k="name" v="Tjørradalen" />
		<tag k="natural" v="valley" />
		<tag k="place" v="locality" />
		<tag k="ssr:stedsnr" v="761069" />
	</node>
	<node lat="64.2880472182791" lon="10.492280554672751" id="-83557">
		<tag k="name" v="Svartholet" />
		<tag k="natural" v="valley" />
		<tag k="place" v="locality" />
		<tag k="ssr:stedsnr" v="761002" />
	</node>
	<node lat="64.30935833056245" lon="10.688486101553346" id="-83558">
		<tag k="fixme" v="consider natural=peak for the most distinct mountains in the district" />
		<tag k="name" v="Hallen" />
		<tag k="natural" v="hill" />
		<tag k="place" v="locality" />
		<tag k="ssr:stedsnr" v="761027" />
	</node>
	<node lat="64.33250555924431" lon="10.406341661912355" id="-83559">
		<tag k="name" v="Grønnfjellet" />
		<tag k="natural" v="hill" />
		<tag k="place" v="locality" />
		<tag k="ssr:stedsnr" v="761085" />
	</node>
	<node lat="64.34318055877212" lon="10.51120833832083" id="-83562">
		<tag k="name" v="Garnhallen" />
		<tag k="natural" v="hill" />
		<tag k="place" v="locality" />
		<tag k="ssr:stedsnr" v="761373" />
	</node>
	<node lat="64.32065833399764" lon="10.51278611947575" id="-83564">
		<tag k="name" v="Midterhaugen" />
		<tag k="natural" v="hill" />
		<tag k="place" v="locality" />
		<tag k="ssr:stedsnr" v="761328" />
	</node>
	<node lat="64.31861111550513" lon="10.511022224737944" id="-83566">
		<tag k="fixme" v="consider natural=peak for the most distinct mountains in the district" />
		<tag k="name" v="Kjerringtrappen" />
		<tag k="natural" v="hill" />
		<tag k="place" v="locality" />
		<tag k="ssr:stedsnr" v="761331" />
	</node>
	<node lat="64.2866611132559" lon="10.676972213637988" id="-83567">
		<tag k="name" v="Andalslien" />
		<tag k="natural" v="slope" />
		<tag k="place" v="locality" />
		<tag k="ssr:stedsnr" v="761334" />
	</node>
	<node lat="64.27881666475895" lon="10.748636106793638" id="-83569">
		<tag k="name" v="Granholet" />
		<tag k="natural" v="hill" />
		<tag k="place" v="locality" />
		<tag k="ssr:stedsnr" v="761447" />
	</node>
	<node lat="64.3303305556675" lon="10.628299991427104" id="-83570">
		<tag k="name" v="Buabakkan" />
		<tag k="natural" v="slope" />
		<tag k="place" v="locality" />
		<tag k="ssr:stedsnr" v="761457" />
	</node>
	<node lat="64.3205916671703" lon="10.60769999708674" id="-83571">
		<tag k="name" v="Grønlia" />
		<tag k="natural" v="slope" />
		<tag k="place" v="locality" />
		<tag k="ssr:stedsnr" v="761464" />
	</node>
	<node lat="64.297249999714" lon="10.543347214539425" id="-83575">
		<tag k="name" v="Gammeljakoblia" />
		<tag k="natural" v="slope" />
		<tag k="place" v="locality" />
		<tag k="ssr:stedsnr" v="761489" />
	</node>
	<node lat="64.24983888910523" lon="10.654244441861412" id="-83576">
		<tag k="name" v="Stampfossmoen" />
		<tag k="place" v="locality" />
		<tag k="ssr:stedsnr" v="761390" />
	</node>
	<node lat="64.27644166718056" lon="10.441041667951515" id="-83580">
		<tag k="name" v="Bugrova" />
		<tag k="natural" v="valley" />
		<tag k="place" v="locality" />
		<tag k="ssr:stedsnr" v="761635" />
	</node>
	<node lat="64.25931111376693" lon="10.81864999181967" id="-83582">
		<tag k="name" v="Rundheia" />
		<tag k="natural" v="hill" />
		<tag k="place" v="locality" />
		<tag k="ssr:stedsnr" v="761740" />
	</node>
	<node lat="64.3192555526125" lon="10.617361114250299" id="-83587">
		<tag k="name" v="Grønliheia" />
		<tag k="natural" v="hill" />
		<tag k="place" v="locality" />
		<tag k="ssr:stedsnr" v="761752" />
	</node>
	<node lat="64.22496111080761" lon="10.714161114150949" id="-83598">
		<tag k="fixme" v="consider natural=peak for the most distinct mountains in the district" />
		<tag k="name" v="Persheia" />
		<tag k="natural" v="hill" />
		<tag k="place" v="locality" />
		<tag k="ssr:stedsnr" v="803004" />
	</node>
	<node lat="64.32771944509977" lon="10.727852784017955" id="-83604">
		<tag k="fixme" v="consider natural=peak for the most distinct mountains in the district" />
		<tag k="name" v="Skrottvassklumpen" />
		<tag k="natural" v="hill" />
		<tag k="place" v="locality" />
		<tag k="ssr:stedsnr" v="803329" />
	</node>
	<node lat="64.32576666474706" lon="10.600291673423817" id="-83608">
		<tag k="name" v="Sveslia" />
		<tag k="natural" v="slope" />
		<tag k="place" v="locality" />
		<tag k="ssr:stedsnr" v="803539" />
	</node>
	<node lat="64.31631944021979" lon="10.519924993228893" id="-83611">
		<tag k="name" v="Reveggheia" />
		<tag k="natural" v="hill" />
		<tag k="place" v="locality" />
		<tag k="ssr:stedsnr" v="803550" />
	</node>
	<node lat="64.28307499846427" lon="10.495247214877955" id="-83613">
		<tag k="fixme" v="consider natural=peak for the most distinct mountains in the district" />
		<tag k="name" v="Middagsfjellet" />
		<tag k="natural" v="hill" />
		<tag k="place" v="locality" />
		<tag k="ssr:stedsnr" v="803600" />
	</node>
	<node lat="64.40566944883115" lon="10.531299993070599" id="-83614">
		<tag k="fixme" v="consider natural=peak for the most distinct mountains in the district" />
		<tag k="name" v="Storfjellet" />
		<tag k="natural" v="hill" />
		<tag k="place" v="locality" />
		<tag k="ssr:stedsnr" v="803676" />
	</node>
	<node lat="64.33545555885573" lon="10.41067500557385" id="-83629">
		<tag k="name" v="Aunskardet" />
		<tag k="natural" v="valley" />
		<tag k="place" v="locality" />
		<tag k="ssr:stedsnr" v="822013" />
	</node>
	<node lat="64.28182500077989" lon="10.441977774850288" id="-83630">
		<tag k="name" v="Bukkhammaren" />
		<tag k="natural" v="hill" />
		<tag k="place" v="locality" />
		<tag k="ssr:stedsnr" v="822091" />
	</node>
	<node lat="64.28380277980295" lon="10.479308337625527" id="-83632">
		<tag k="name" v="Olderkromman" />
		<tag k="natural" v="ridge" />
		<tag k="place" v="locality" />
		<tag k="ssr:stedsnr" v="822022" />
	</node>
	<node lat="64.34846666604567" lon="10.613461110766835" id="-83637">
		<tag k="name" v="Kalvika" />
		<tag k="natural" v="valley" />
		<tag k="place" v="locality" />
		<tag k="ssr:stedsnr" v="822341" />
	</node>
	<node lat="64.41328610846786" lon="10.528363882793744" id="-83638">
		<tag k="name" v="Norddalen" />
		<tag k="natural" v="valley" />
		<tag k="place" v="locality" />
		<tag k="ssr:stedsnr" v="822344" />
	</node>
	<node lat="64.35291666538468" lon="10.479194440157933" id="-83640">
		<tag k="name" v="Jens-Aune-varden" />
		<tag k="natural" v="hill" />
		<tag k="place" v="locality" />
		<tag k="ssr:stedsnr" v="822363" />
	</node>
	<node lat="64.3276361134178" lon="10.433447231512591" id="-83642">
		<tag k="name" v="Litlengfjellet" />
		<tag k="natural" v="hill" />
		<tag k="place" v="locality" />
		<tag k="ssr:stedsnr" v="822443" />
	</node>
	<node lat="64.20649444740337" lon="10.679902769292228" id="-83643">
		<tag k="name" v="Seterbakkan" />
		<tag k="natural" v="slope" />
		<tag k="place" v="locality" />
		<tag k="ssr:stedsnr" v="822451" />
	</node>
	<node lat="64.28415555783982" lon="10.79245278159342" id="-83645">
		<tag k="fixme" v="consider natural=peak for the most distinct mountains in the district" />
		<tag k="name" v="Rørvasskolva" />
		<tag k="natural" v="hill" />
		<tag k="place" v="locality" />
		<tag k="ssr:stedsnr" v="822492" />
	</node>
	<node lat="64.29901111155415" lon="10.296472213536813" id="-83646">
		<tag k="name" v="Meterfjellet" />
		<tag k="natural" v="hill" />
		<tag k="place" v="locality" />
		<tag k="ssr:stedsnr" v="822496" />
	</node>
	<node lat="64.2428388928175" lon="10.712152775567686" id="-83647">
		<tag k="name" v="Moan" />
		<tag k="place" v="locality" />
		<tag k="ssr:stedsnr" v="822512" />
	</node>
	<node lat="64.3294805547186" lon="10.465608323405773" id="-83650">
		<tag k="name" v="Helmarka" />
		<tag k="natural" v="hill" />
		<tag k="place" v="locality" />
		<tag k="ssr:stedsnr" v="822534" />
	</node>
	<node lat="64.3270777749056" lon="10.52419167191599" id="-83653">
		<tag k="name" v="Kjølen" />
		<tag k="natural" v="ridge" />
		<tag k="place" v="locality" />
		<tag k="ssr:stedsnr" v="822552" />
	</node>
	<node lat="64.1959777772175" lon="10.64733889456795" id="-83654">
		<tag k="name" v="Finnkruheia" />
		<tag k="natural" v="hill" />
		<tag k="place" v="locality" />
		<tag k="ssr:stedsnr" v="822675" />
	</node>
	<node lat="64.314944441572" lon="10.501563898236725" id="-83657">
		<tag k="name" v="Nordvikheia" />
		<tag k="natural" v="hill" />
		<tag k="place" v="locality" />
		<tag k="ssr:stedsnr" v="822696" />
	</node>
	<node lat="64.31721110818985" lon="10.516738887993393" id="-83658">
		<tag k="name" v="Kjerringklumpen" />
		<tag k="natural" v="hill" />
		<tag k="place" v="locality" />
		<tag k="ssr:stedsnr" v="822698" />
	</node>
	<node lat="64.35007499763367" lon="10.492011107907263" id="-83666">
		<tag k="name" v="Hopahesten" />
		<tag k="natural" v="hill" />
		<tag k="place" v="locality" />
		<tag k="ssr:stedsnr" v="863715" />
	</node>
	<node lat="64.40549167088791" lon="10.553536108227433" id="-83672">
		<tag k="name" v="Hestlia" />
		<tag k="natural" v="slope" />
		<tag k="place" v="locality" />
		<tag k="ssr:stedsnr" v="863683" />
	</node>
	<node lat="64.25471944272498" lon="10.750611115258417" id="-83674">
		<tag k="fixme" v="consider natural=peak for the most distinct mountains in the district" />
		<tag k="name" v="Fjøsvassheia" />
		<tag k="natural" v="hill" />
		<tag k="place" v="locality" />
		<tag k="ssr:stedsnr" v="864239" />
	</node>
	<node lat="64.32859721878592" lon="10.498088884681195" id="-83676">
		<tag k="name" v="Knubben" />
		<tag k="natural" v="hill" />
		<tag k="place" v="locality" />
		<tag k="ssr:stedsnr" v="864562" />
	</node>
	<node lat="64.31750277784579" lon="10.57948056533217" id="-83678">
		<tag k="name" v="Halsan" />
		<tag k="natural" v="hill" />
		<tag k="place" v="locality" />
		<tag k="ssr:stedsnr" v="864573" />
	</node>
	<node lat="64.23668611329994" lon="10.878347218750926" id="-83679">
		<tag k="name" v="Levassheia" />
		<tag k="natural" v="hill" />
		<tag k="place" v="locality" />
		<tag k="ssr:stedsnr" v="864676" />
	</node>
	<node lat="64.27898611379229" lon="10.50934444463714" id="-83687">
		<tag k="name" v="Tvertferskardet" />
		<tag k="natural" v="valley" />
		<tag k="place" v="locality" />
		<tag k="ssr:stedsnr" v="883471" />
	</node>
	<node lat="64.25217500152577" lon="10.735761108919322" id="-83688">
		<tag k="name" v="Finnkrulia" />
		<tag k="natural" v="slope" />
		<tag k="place" v="locality" />
		<tag k="ssr:stedsnr" v="883483" />
	</node>
	<node lat="64.26566666875513" lon="10.746375006017109" id="-83689">
		<tag k="fixme" v="consider natural=peak for the most distinct mountains in the district" />
		<tag k="name" v="Joliklumpan" />
		<tag k="natural" v="hill" />
		<tag k="place" v="locality" />
		<tag k="ssr:stedsnr" v="883486" />
	</node>
	<node lat="64.34128055559793" lon="10.677752771163295" id="-83690">
		<tag k="name" v="Sørleirskardet" />
		<tag k="natural" v="valley" />
		<tag k="place" v="locality" />
		<tag k="ssr:stedsnr" v="883489" />
	</node>
	<node lat="64.33816111356971" lon="10.694761104240554" id="-83691">
		<tag k="name" v="Skrotvassdalen" />
		<tag k="natural" v="valley" />
		<tag k="place" v="locality" />
		<tag k="ssr:stedsnr" v="883492" />
	</node>
	<node lat="64.26831944397709" lon="10.76310554580828" id="-83695">
		<tag k="name" v="Finnlia" />
		<tag k="natural" v="slope" />
		<tag k="place" v="locality" />
		<tag k="ssr:stedsnr" v="883579" />
	</node>
	<node lat="64.25455833398847" lon="10.81844722879685" id="-83696">
		<tag k="name" v="Innertømtet" />
		<tag k="natural" v="slope" />
		<tag k="place" v="locality" />
		<tag k="ssr:stedsnr" v="883581" />
	</node>
	<node lat="64.24558055329294" lon="10.870311107778662" id="-83697">
		<tag k="name" v="Styggdalen" />
		<tag k="natural" v="valley" />
		<tag k="place" v="locality" />
		<tag k="ssr:stedsnr" v="883583" />
	</node>
	<node lat="64.32785000265476" lon="10.530908325088383" id="-83698">
		<tag k="fixme" v="consider natural=peak for the most distinct mountains in the district" />
		<tag k="name" v="Tverfjellet" />
		<tag k="natural" v="hill" />
		<tag k="place" v="locality" />
		<tag k="ssr:stedsnr" v="883586" />
	</node>
	<node lat="64.30160555959296" lon="10.526711120718582" id="-83699">
		<tag k="name" v="Steindalen" />
		<tag k="natural" v="valley" />
		<tag k="place" v="locality" />
		<tag k="ssr:stedsnr" v="883588" />
	</node>
	<node lat="64.28480000094953" lon="10.4353611029601" id="-83700">
		<tag k="name" v="Sautrappen" />
		<tag k="natural" v="hill" />
		<tag k="place" v="locality" />
		<tag k="ssr:stedsnr" v="883091" />
	</node>
	<node lat="64.29059999824246" lon="10.562908333719678" id="-83701">
		<tag k="name" v="Raudkollbakkan" />
		<tag k="natural" v="slope" />
		<tag k="place" v="locality" />
		<tag k="ssr:stedsnr" v="883037" />
	</node>
	<node lat="64.35803889322435" lon="10.48418055970017" id="-83703">
		<tag k="name" v="Torvtrappen" />
		<tag k="natural" v="slope" />
		<tag k="place" v="locality" />
		<tag k="ssr:stedsnr" v="883426" />
	</node>
	<node lat="64.28073333074073" lon="10.590605555893543" id="-83708">
		<tag k="name" v="Tømmerholheia" />
		<tag k="natural" v="hill" />
		<tag k="place" v="locality" />
		<tag k="ssr:stedsnr" v="883522" />
	</node>
	<node lat="64.29443888645498" lon="10.548613893319875" id="-83709">
		<tag k="name" v="Varden" />
		<tag k="natural" v="hill" />
		<tag k="place" v="locality" />
		<tag k="ssr:stedsnr" v="883537" />
	</node>
	<node lat="64.32471944470639" lon="10.366794446689648" id="-83710">
		<tag k="name" v="Sør Skardhaugen" />
		<tag k="natural" v="hill" />
		<tag k="place" v="locality" />
		<tag k="ssr:stedsnr" v="883540" />
	</node>
	<node lat="64.30488888815097" lon="10.50765554755614" id="-83712">
		<tag k="name" v="Stekshaugan" />
		<tag k="natural" v="hill" />
		<tag k="place" v="locality" />
		<tag k="ssr:stedsnr" v="883633" />
	</node>
	<node lat="64.30103611146718" lon="10.5160944453643" id="-83713">
		<tag k="name" v="Bleikvollhaugen" />
		<tag k="natural" v="hill" />
		<tag k="place" v="locality" />
		<tag k="ssr:stedsnr" v="883636" />
	</node>
	<node lat="64.25618055653173" lon="10.564033339865626" id="-83717">
		<tag k="name" v="Bjørnalia" />
		<tag k="natural" v="slope" />
		<tag k="place" v="locality" />
		<tag k="ssr:stedsnr" v="883687" />
	</node>
	<node lat="64.24834444089913" lon="10.707594453361258" id="-83730">
		<tag k="name" v="Fjøsvasslia" />
		<tag k="natural" v="slope" />
		<tag k="place" v="locality" />
		<tag k="ssr:stedsnr" v="943682" />
	</node>
	<node lat="64.2824166679482" lon="10.671052787240095" id="-83731">
		<tag k="fixme" v="consider natural=peak for the most distinct mountains in the district" />
		<tag k="name" v="Krokvadkleiva" />
		<tag k="natural" v="hill" />
		<tag k="place" v="locality" />
		<tag k="ssr:stedsnr" v="943706" />
	</node>
	<node lat="64.26397222567752" lon="10.595452785117502" id="-83732">
		<tag k="name" v="Steinskardheia" />
		<tag k="natural" v="hill" />
		<tag k="place" v="locality" />
		<tag k="ssr:stedsnr" v="943710" />
	</node>
	<node lat="64.29032777450014" lon="10.725083338023188" id="-83737">
		<tag k="name" v="Trefotlia" />
		<tag k="natural" v="slope" />
		<tag k="place" v="locality" />
		<tag k="ssr:stedsnr" v="943672" />
	</node>
	<node lat="64.3425749996579" lon="10.69310276959535" id="-83741">
		<tag k="name" v="Jøssundlia" />
		<tag k="natural" v="slope" />
		<tag k="place" v="locality" />
		<tag k="ssr:stedsnr" v="944033" />
	</node>
	<node lat="64.31164444106749" lon="10.473130549210426" id="-83742">
		<tag k="name" v="Stonga" />
		<tag k="natural" v="hill" />
		<tag k="place" v="locality" />
		<tag k="ssr:stedsnr" v="944020" />
	</node>
	<node lat="64.32696666776684" lon="10.421769453634099" id="-83744">
		<tag k="name" v="Korsen" />
		<tag k="natural" v="hill" />
		<tag k="place" v="locality" />
		<tag k="ssr:stedsnr" v="944079" />
	</node>
	<node lat="64.29373610674432" lon="10.43227222271673" id="-83746">
		<tag k="name" v="Bjørnarova" />
		<tag k="natural" v="valley" />
		<tag k="place" v="locality" />
		<tag k="ssr:stedsnr" v="944087" />
	</node>
	<node lat="64.27912222580743" lon="10.449972225033314" id="-83747">
		<tag k="name" v="Kastet" />
		<tag k="place" v="locality" />
		<tag k="ssr:stedsnr" v="944088" />
	</node>
	<node lat="64.37076944377618" lon="10.663911110800615" id="-83748">
		<tag k="name" v="Bjørnahiet" />
		<tag k="natural" v="ridge" />
		<tag k="place" v="locality" />
		<tag k="ssr:stedsnr" v="944317" />
	</node>
	<node lat="64.3162999961743" lon="10.571336106453236" id="-83753">
		<tag k="name" v="Vakkerholet" />
		<tag k="natural" v="valley" />
		<tag k="place" v="locality" />
		<tag k="ssr:stedsnr" v="944047" />
	</node>
	<node lat="64.28095833303341" lon="10.565624997963" id="-83754">
		<tag k="name" v="Lian" />
		<tag k="natural" v="slope" />
		<tag k="place" v="locality" />
		<tag k="ssr:stedsnr" v="944050" />
	</node>
	<node lat="64.34031388710827" lon="10.458347215034458" id="-83756">
		<tag k="name" v="Marken" />
		<tag k="natural" v="hill" />
		<tag k="place" v="locality" />
		<tag k="ssr:stedsnr" v="944351" />
	</node>
	<node lat="64.23954722214015" lon="10.621969443983483" id="-83757">
		<tag k="name" v="Finnvolldalshøgda" />
		<tag k="natural" v="hill" />
		<tag k="place" v="locality" />
		<tag k="ssr:stedsnr" v="944446" />
	</node>
	<node lat="64.32040277896331" lon="10.593994439624753" id="-83759">
		<tag k="name" v="Vallskiftlihøgda" />
		<tag k="natural" v="hill" />
		<tag k="place" v="locality" />
		<tag k="ssr:stedsnr" v="944451" />
	</node>
	<node lat="64.26057777786157" lon="10.601636111971859" id="-83760">
		<tag k="name" v="Tjørrulia" />
		<tag k="natural" v="slope" />
		<tag k="place" v="locality" />
		<tag k="ssr:stedsnr" v="944454" />
	</node>
	<node lat="64.22850833743372" lon="10.591122225057095" id="-83762">
		<tag k="name" v="Tømtholet" />
		<tag k="natural" v="valley" />
		<tag k="place" v="locality" />
		<tag k="ssr:stedsnr" v="944472" />
	</node>
	<node lat="64.23650277712832" lon="10.616538884469469" id="-83763">
		<tag k="name" v="Hjortstiholet" />
		<tag k="natural" v="valley" />
		<tag k="place" v="locality" />
		<tag k="ssr:stedsnr" v="944650" />
	</node>
	<node lat="64.40610833613434" lon="10.520138892417977" id="-83765">
		<tag k="name" v="Ekkergardsholet" />
		<tag k="natural" v="valley" />
		<tag k="place" v="locality" />
		<tag k="ssr:stedsnr" v="944660" />
	</node>
	<node lat="64.40785832970491" lon="10.479561112544955" id="-83766">
		<tag k="name" v="Urddalsfjellet" />
		<tag k="natural" v="hill" />
		<tag k="place" v="locality" />
		<tag k="ssr:stedsnr" v="944675" />
	</node>
	<node lat="64.27410555304158" lon="10.459352783523148" id="-83770">
		<tag k="name" v="Sukkerpynten" />
		<tag k="natural" v="ridge" />
		<tag k="place" v="locality" />
		<tag k="ssr:stedsnr" v="944503" />
	</node>
	<node lat="64.29966389227681" lon="10.776958339658313" id="-83771">
		<tag k="name" v="Tuskallia" />
		<tag k="natural" v="slope" />
		<tag k="place" v="locality" />
		<tag k="ssr:stedsnr" v="944506" />
	</node>
	<node lat="64.32608610715478" lon="10.350955564911263" id="-83772">
		<tag k="name" v="Hundkleppen" />
		<tag k="natural" v="hill" />
		<tag k="place" v="locality" />
		<tag k="ssr:stedsnr" v="944508" />
	</node>
	<node lat="64.19254444749268" lon="10.65448888669565" id="-83773">
		<tag k="name" v="Ratet" />
		<tag k="natural" v="slope" />
		<tag k="place" v="locality" />
		<tag k="ssr:stedsnr" v="944716" />
	</node>
	<node lat="64.37528569033006" lon="10.63175943119873" id="-83836">
		<tag k="fixme" v="consider natural=peak for the most distinct mountains in the district" />
		<tag k="name" v="Vontfjellet" />
		<tag k="natural" v="hill" />
		<tag k="place" v="locality" />
		<tag k="ssr:stedsnr" v="1077877" />
	</node>
	<node lat="64.36059507076338" lon="10.553681084623479" id="-83839">
		<tag k="fixme" v="consider natural=peak for the most distinct mountains in the district" />
		<tag k="name" v="Storvikklumpen" />
		<tag k="natural" v="hill" />
		<tag k="place" v="locality" />
		<tag k="ssr:stedsnr" v="1079066" />
	</node>
</osm>
