<?xml version="1.0" encoding="UTF-8"?>
<<<<<<< HEAD
<osm version="0.6" generator="osmapis">
	<node lat="64.33634999614068" lon="10.503480551660079" id="-33662">
		<tag k="highway" v="path" />
		<tag k="name" v="Stien" />
		<tag k="ssr:stedsnr" v="458453" />
	</node>
	<node lat="64.25065833514425" lon="10.829652768180893" id="-34015">
		<tag k="fixme" v="verify maritime location" />
		<tag k="mooring" v="yes" />
		<tag k="name" v="Ola Moe Støet" />
		<tag k="place" v="locality" />
		<tag k="ssr:stedsnr" v="639710" />
	</node>
	<node lat="64.31900277914359" lon="10.551600005686014" id="-34256">
		<tag k="highway" v="path" />
		<tag k="name" v="Vingvegen" />
		<tag k="ssr:stedsnr" v="14470" />
	</node>
	<node lat="64.32669721928785" lon="10.417099998317813" id="-34649">
		<tag k="fixme" v="verify maritime location" />
		<tag k="mooring" v="yes" />
		<tag k="name" v="Gongstøa" />
		<tag k="place" v="locality" />
		<tag k="ssr:stedsnr" v="336087" />
	</node>
	<node lat="64.39059444781938" lon="10.491858326848641" id="-34652">
=======
<osm generator="osmapis" version="0.6">
	<node id="-731682" lat="64.3363499961" lon="10.5034805517">
		<tag k="highway" v="path" />
		<tag k="name" v="Stien" />
		<tag k="ssr:stedsnr" v="458453" />
	</node>
	<node id="-732706" lat="64.3905944478" lon="10.4918583268">
>>>>>>> e1d4bc35ff8a6074a6f2e91616a996b547c36f15
		<tag k="man_made" v="cairn" />
		<tag k="name" v="Varden" />
		<tag k="place" v="locality" />
		<tag k="ssr:stedsnr" v="336289" />
	</node>
<<<<<<< HEAD
	<node lat="64.3961013830563" lon="10.470565914782705" id="-35257">
		<tag k="name" v="Singsholmsundet" />
		<tag k="place" v="locality" />
		<tag k="ssr:stedsnr" v="1079177" />
=======
	<node id="-732323" lat="64.3190027791" lon="10.5516000057">
		<tag k="highway" v="path" />
		<tag k="name" v="Vingvegen" />
		<tag k="ssr:stedsnr" v="14470" />
>>>>>>> e1d4bc35ff8a6074a6f2e91616a996b547c36f15
	</node>
	<node id="-732994" lat="64.2506583351" lon="10.8296527682">
		<tag k="fixme" v="verify maritime location" />
		<tag k="mooring" v="yes" />
		<tag k="name" v="Ola Moe Støet" />
		<tag k="place" v="locality" />
		<tag k="ssr:stedsnr" v="639710" />
	</node>
	<node id="-732707" lat="64.3266972193" lon="10.4170999983">
		<tag k="fixme" v="verify maritime location" />
		<tag k="mooring" v="yes" />
		<tag k="name" v="Gongstøa" />
		<tag k="place" v="locality" />
		<tag k="ssr:stedsnr" v="336087" />
	</node>
</osm>
