<?xml version="1.0" encoding="UTF-8"?>
<osm version="0.6" generator="osmapis">
	<node lat="64.26413888541263" lon="10.626461107558596" id="-81944">
		<tag k="name" v="Hagen" />
		<tag k="place" v="farm" />
		<tag k="ssr:stedsnr" v="33422" />
	</node>
	<node lat="64.2914416681721" lon="10.538966666252296" id="-81952">
		<tag k="name" v="Neset" />
		<tag k="place" v="farm" />
		<tag k="ssr:stedsnr" v="33701" />
	</node>
	<node lat="64.29535192150254" lon="10.507401968615214" id="-82026">
		<tag k="alt_name" v="Nesmoen;Nesmo" />
		<tag k="fixme" v="consider place=hamlet" />
		<tag k="name" v="Nesmoan" />
		<tag k="place" v="farm" />
		<tag k="ssr:stedsnr" v="256544" />
	</node>
	<node lat="64.29280000364345" lon="10.520244442872368" id="-82027">
		<tag k="fixme" v="consider place=hamlet" />
		<tag k="name" v="Mo" />
		<tag k="place" v="farm" />
		<tag k="ssr:stedsnr" v="256546" />
	</node>
	<node lat="64.2915833289755" lon="10.552947225270493" id="-82040">
		<tag k="name" v="Småmyran" />
		<tag k="place" v="farm" />
		<tag k="ssr:stedsnr" v="154008" />
	</node>
	<node lat="64.25624166263839" lon="10.630733324353724" id="-82070">
		<tag k="name" v="Nylandet" />
		<tag k="place" v="farm" />
		<tag k="ssr:stedsnr" v="196386" />
	</node>
	<node lat="64.2675027792965" lon="10.584077780057235" id="-82078">
		<tag k="name" v="Langmoen" />
		<tag k="place" v="farm" />
		<tag k="ssr:stedsnr" v="196574" />
	</node>
	<node lat="64.33851110741207" lon="10.411152783282452" id="-82080">
		<tag k="name" v="Aune" />
		<tag k="place" v="isolated_dwelling" />
		<tag k="ssr:stedsnr" v="268806" />
	</node>
	<node lat="64.32229444686898" lon="10.45678610159942" id="-82110">
		<tag k="amenity" v="school" />
		<tag k="name" v="Strand barne- og ungdomsskole" />
		<tag k="ssr:stedsnr" v="222207" />
	</node>
	<node lat="64.31371966715699" lon="10.471707006358821" id="-82118">
		<tag k="fixme" v="consider place=hamlet" />
		<tag k="name" v="Strand" />
		<tag k="place" v="farm" />
		<tag k="ssr:stedsnr" v="256502" />
	</node>
	<node lat="64.27329166670539" lon="10.605977784578464" id="-82137">
		<tag k="fixme" v="consider place=hamlet" />
		<tag k="name" v="Litlenget" />
		<tag k="place" v="farm" />
		<tag k="ssr:stedsnr" v="458485" />
	</node>
	<node lat="64.29824721904686" lon="10.51725277998393" id="-82171">
		<tag k="name" v="Sivertstu" />
		<tag k="place" v="farm" />
		<tag k="ssr:stedsnr" v="276108" />
	</node>
	<node lat="64.29941245905214" lon="10.500538085359192" id="-82193">
		<tag k="alt_name" v="Campingen" />
		<tag k="name" v="Osen fjordcamping" />
		<tag k="ssr:stedsnr" v="283792" />
		<tag k="tourism" v="camp_site" />
	</node>
	<node lat="64.30289999613912" lon="10.508766668168315" id="-82215">
		<tag k="name" v="Solbakken" />
		<tag k="place" v="farm" />
		<tag k="ssr:stedsnr" v="336547" />
	</node>
	<node lat="64.31842221862779" lon="10.466330548409095" id="-82227">
		<tag k="name" v="Haugen" />
		<tag k="place" v="farm" />
		<tag k="ssr:stedsnr" v="337558" />
	</node>
	<node lat="64.39616944128174" lon="10.584974991326703" id="-82241">
		<tag k="name" v="Mårvika" />
		<tag k="place" v="isolated_dwelling" />
		<tag k="ssr:stedsnr" v="378725" />
	</node>
	<node lat="64.3561861712069" lon="10.481714832877381" id="-82276">
		<tag k="name" v="Bjørsvika" />
		<tag k="place" v="farm" />
		<tag k="ssr:stedsnr" v="438717" />
	</node>
	<node lat="64.27629722186265" lon="10.409772227408489" id="-82293">
		<tag k="name" v="Sørjer" />
		<tag k="place" v="farm" />
		<tag k="ssr:stedsnr" v="458072" />
	</node>
	<node lat="64.23741399387114" lon="10.640536182611008" id="-82303">
		<tag k="fixme" v="consider place=hamlet" />
		<tag k="name" v="Storenget" />
		<tag k="place" v="farm" />
		<tag k="ssr:stedsnr" v="458416" />
	</node>
	<node lat="64.29183055184194" lon="10.541688891277737" id="-82308">
		<tag k="name" v="Bjørnaneset" />
		<tag k="place" v="farm" />
		<tag k="ssr:stedsnr" v="458508" />
	</node>
	<node lat="64.32069444604615" lon="10.374227783065587" id="-82312">
		<tag k="fixme" v="consider place=hamlet" />
		<tag k="name" v="Åkervika" />
		<tag k="place" v="village" />
		<tag k="ssr:stedsnr" v="458658" />
	</node>
	<node lat="64.23957500437581" lon="10.657144441706057" id="-82323">
		<tag k="name" v="Hestmoen" />
		<tag k="place" v="farm" />
		<tag k="ssr:stedsnr" v="681029" />
	</node>
	<node lat="64.23966944827218" lon="10.673961118803796" id="-82324">
		<tag k="name" v="Haugen" />
		<tag k="place" v="farm" />
		<tag k="ssr:stedsnr" v="681046" />
	</node>
	<node lat="64.30287499676828" lon="10.525077770593859" id="-82332">
		<tag k="name" v="Tingvollan" />
		<tag k="place" v="farm" />
		<tag k="ssr:stedsnr" v="499504" />
	</node>
	<node lat="64.36697778047568" lon="10.65795554700237" id="-82340">
		<tag k="fixme" v="consider place=hamlet" />
		<tag k="name" v="Ervika" />
		<tag k="old_name" v="Erivika" />
		<tag k="place" v="farm" />
		<tag k="ssr:stedsnr" v="499651" />
	</node>
	<node lat="64.34664235906398" lon="10.46372307118125" id="-82344">
		<tag k="fixme" v="consider place=hamlet" />
		<tag k="name" v="Vingsand" />
		<tag k="place" v="farm" />
		<tag k="ssr:stedsnr" v="499702" />
	</node>
	<node lat="64.19843055189322" lon="10.772499995660853" id="-82363">
		<tag k="name" v="Austvassheim" />
		<tag k="place" v="isolated_dwelling" />
		<tag k="ssr:stedsnr" v="681687" />
	</node>
	<node lat="64.27065555550776" lon="10.602161110618988" id="-82386">
		<tag k="name" v="Stein" />
		<tag k="place" v="hamlet" />
		<tag k="ssr:stedsnr" v="518726" />
	</node>
	<node lat="64.24058611412134" lon="10.647219452242343" id="-82392">
		<tag k="name" v="Godset" />
		<tag k="place" v="farm" />
		<tag k="ssr:stedsnr" v="519063" />
	</node>
	<node lat="64.30155833322183" lon="10.511772222397642" id="-82441">
		<tag k="name" v="Brenneset" />
		<tag k="place" v="farm" />
		<tag k="ssr:stedsnr" v="579308" />
	</node>
	<node lat="64.26244722434335" lon="10.619905564643673" id="-82478">
		<tag k="name" v="Krommen" />
		<tag k="place" v="farm" />
		<tag k="ssr:stedsnr" v="701446" />
	</node>
	<node lat="64.32943611041267" lon="10.456913892305295" id="-82498">
		<tag k="name" v="Vanvika" />
		<tag k="place" v="farm" />
		<tag k="ssr:stedsnr" v="620507" />
	</node>
	<node lat="64.27446666291443" lon="10.3978638854418" id="-82530">
		<tag k="name" v="Vika" />
		<tag k="place" v="farm" />
		<tag k="ssr:stedsnr" v="640605" />
	</node>
	<node lat="64.29863333380712" lon="10.517022218788258" id="-82566">
		<tag k="name" v="Framgården" />
		<tag k="place" v="farm" />
		<tag k="ssr:stedsnr" v="701305" />
	</node>
	<node lat="64.39722500016622" lon="10.500116663823162" id="-82567">
		<tag k="name" v="Skolstuberga" />
		<tag k="place" v="isolated_dwelling" />
		<tag k="ssr:stedsnr" v="701309" />
	</node>
	<node lat="64.39649166515939" lon="10.495416665300256" id="-82568">
		<tag k="name" v="Bogen" />
		<tag k="place" v="farm" />
		<tag k="ssr:stedsnr" v="701363" />
	</node>
	<node lat="64.27179999548801" lon="10.61306111812797" id="-82571">
		<tag k="name" v="Mølnstranda" />
		<tag k="place" v="farm" />
		<tag k="ssr:stedsnr" v="701505" />
	</node>
	<node lat="64.39255833660974" lon="10.486286109977323" id="-82578">
		<tag k="name" v="Buhaugen" />
		<tag k="place" v="farm" />
		<tag k="ssr:stedsnr" v="701676" />
	</node>
	<node lat="64.30708888978234" lon="10.506474991163" id="-82594">
		<tag k="name" v="Vika" />
		<tag k="place" v="farm" />
		<tag k="ssr:stedsnr" v="742504" />
	</node>
	<node lat="64.39798055278015" lon="10.494802773731784" id="-82610">
		<tag k="name" v="Gården" />
		<tag k="place" v="farm" />
		<tag k="ssr:stedsnr" v="761414" />
	</node>
	<node lat="64.32192777541073" lon="10.45527778563652" id="-82621">
		<tag k="name" v="Solstrand" />
		<tag k="place" v="farm" />
		<tag k="ssr:stedsnr" v="761714" />
	</node>
	<node lat="64.39836666221949" lon="10.494444452400105" id="-82643">
		<tag k="name" v="Sæter" />
		<tag k="place" v="farm" />
		<tag k="ssr:stedsnr" v="803706" />
	</node>
	<node lat="64.27040230292417" lon="10.586702319074604" id="-82646">
		<tag k="fixme" v="consider place=hamlet" />
		<tag k="name" v="Melhus" />
		<tag k="place" v="farm" />
		<tag k="ssr:stedsnr" v="803614" />
	</node>
	<node lat="64.29930277581754" lon="10.504208324443237" id="-82671">
		<tag k="alt_name" v="Øren" />
		<tag k="name" v="Ørin" />
		<tag k="place" v="farm" />
		<tag k="ssr:stedsnr" v="924535" />
	</node>
	<node lat="64.33100555836721" lon="10.464055561978219" id="-82679">
		<tag k="alt_name" v="Grønnvika" />
		<tag k="name" v="Grønvika" />
		<tag k="place" v="farm" />
		<tag k="ssr:stedsnr" v="924492" />
	</node>
	<node lat="64.40308368816804" lon="10.525623133443437" id="-82682">
		<tag k="fixme" v="consider place=hamlet" />
		<tag k="name" v="Angen" />
		<tag k="place" v="farm" />
		<tag k="ssr:stedsnr" v="924658" />
	</node>
	<node lat="64.30899999935211" lon="10.522913878671117" id="-82724">
		<tag k="name" v="Revegghalsen" />
		<tag k="place" v="farm" />
		<tag k="ssr:stedsnr" v="924517" />
	</node>
	<node lat="64.29056469758214" lon="10.558208244725968" id="-82725">
		<tag k="fixme" v="consider place=hamlet" />
		<tag k="name" v="Raudkollenget" />
		<tag k="place" v="farm" />
		<tag k="ssr:stedsnr" v="924565" />
	</node>
	<node lat="64.28219444292205" lon="10.52775832704077" id="-82727">
		<tag k="name" v="Engan" />
		<tag k="place" v="farm" />
		<tag k="ssr:stedsnr" v="924576" />
	</node>
	<node lat="64.29170000363924" lon="10.516588897782004" id="-82755">
		<tag k="name" v="Mo" />
		<tag k="place" v="farm" />
		<tag k="ssr:stedsnr" v="950295" />
	</node>
	<node lat="64.263977776291" lon="10.627208328138883" id="-82766">
		<tag k="name" v="Haugen" />
		<tag k="place" v="farm" />
		<tag k="ssr:stedsnr" v="13637" />
	</node>
	<node lat="64.28615278112292" lon="10.71091388191371" id="-82798">
		<tag k="name" v="Nesa" />
		<tag k="place" v="isolated_dwelling" />
		<tag k="ssr:stedsnr" v="14524" />
	</node>
	<node lat="64.32158055295156" lon="10.457058342721908" id="-82814">
		<tag k="fixme" v="consider place=suburb, village or hamlet" />
		<tag k="name" v="Strand" />
		<tag k="place" v="quarter" />
		<tag k="ssr:stedsnr" v="33553" />
	</node>
	<node lat="64.3964888881857" lon="10.492658341483239" id="-82828">
		<tag k="name" v="Barland" />
		<tag k="place" v="farm" />
		<tag k="ssr:stedsnr" v="33340" />
	</node>
	<node lat="64.18900833352653" lon="10.643169452059976" id="-82868">
		<tag k="name" v="Svartholet" />
		<tag k="place" v="isolated_dwelling" />
		<tag k="ssr:stedsnr" v="74478" />
	</node>
	<node lat="64.289751541718" lon="10.541232804986679" id="-82884">
		<tag k="alt_name" v="Øren" />
		<tag k="name" v="Ørin" />
		<tag k="place" v="farm" />
		<tag k="ssr:stedsnr" v="75616" />
	</node>
	<node lat="64.33410000341142" lon="10.475230550162403" id="-82901">
		<tag k="name" v="Nausthaugan" />
		<tag k="place" v="hamlet" />
		<tag k="ssr:stedsnr" v="94027" />
	</node>
	<node lat="64.40336389282649" lon="10.526049999335335" id="-82908">
		<tag k="name" v="Nygård" />
		<tag k="place" v="farm" />
		<tag k="ssr:stedsnr" v="94429" />
	</node>
	<node lat="64.39716944180687" lon="10.487013891456485" id="-82925">
		<tag k="alt_name" v="Sæter" />
		<tag k="fixme" v="multiple name tags, choose one and add the other to alt_name" />
		<tag k="name" v="Husvika;Seter" />
		<tag k="place" v="farm" />
		<tag k="ssr:stedsnr" v="94690" />
	</node>
	<node lat="64.39833333590629" lon="10.48730834014629" id="-82933">
		<tag k="alt_name" v="Sæter skole" />
		<tag k="amenity" v="school" />
		<tag k="name" v="Seter skole" />
		<tag k="old_name" v="Sætervik skole" />
		<tag k="ssr:stedsnr" v="101212" />
	</node>
	<node lat="64.35652894278783" lon="10.67834628732456" id="-82937">
		<tag k="name" v="Solløysa" />
		<tag k="place" v="locality" />
		<tag k="ssr:stedsnr" v="134749" />
	</node>
	<node lat="64.34019722470447" lon="10.413825009282304" id="-82945">
		<tag k="name" v="Ramsøyaunet" />
		<tag k="place" v="farm" />
		<tag k="ssr:stedsnr" v="135484" />
	</node>
	<node lat="64.3477166688242" lon="10.463577772719042" id="-82952">
		<tag k="fixme" v="consider place=hamlet" />
		<tag k="name" v="Vingsand" />
		<tag k="place" v="village" />
		<tag k="ssr:stedsnr" v="146457" />
	</node>
	<node lat="64.39514166254142" lon="10.492152778372017" id="-82973">
		<tag k="name" v="Bakkan" />
		<tag k="place" v="farm" />
		<tag k="ssr:stedsnr" v="154378" />
	</node>
	<node lat="64.39462778198808" lon="10.490827769173404" id="-82975">
		<tag k="name" v="Naustbogen" />
		<tag k="place" v="farm" />
		<tag k="ssr:stedsnr" v="154382" />
	</node>
	<node lat="64.39419444474117" lon="10.488924992770304" id="-82976">
		<tag k="name" v="Kansbuhaugen" />
		<tag k="place" v="farm" />
		<tag k="ssr:stedsnr" v="154383" />
	</node>
	<node lat="64.39627500250474" lon="10.488866673051495" id="-82978">
		<tag k="name" v="Sjøhaugen" />
		<tag k="place" v="farm" />
		<tag k="ssr:stedsnr" v="154391" />
	</node>
	<node lat="64.31325000144678" lon="10.468258340257508" id="-82985">
		<tag k="name" v="Nygården" />
		<tag k="place" v="farm" />
		<tag k="ssr:stedsnr" v="154530" />
	</node>
	<node lat="64.25101837873981" lon="10.633747125786565" id="-83007">
		<tag k="fixme" v="consider place=hamlet" />
		<tag k="name" v="Åsegg" />
		<tag k="place" v="farm" />
		<tag k="ssr:stedsnr" v="196389" />
	</node>
	<node lat="64.35050000113446" lon="10.483769451739636" id="-83009">
		<tag k="name" v="Barvika" />
		<tag k="place" v="farm" />
		<tag k="ssr:stedsnr" v="195720" />
	</node>
	<node lat="64.292308335157" lon="10.45479167258209" id="-83022">
		<tag k="fixme" v="consider place=hamlet" />
		<tag k="name" v="Lindset" />
		<tag k="place" v="farm" />
		<tag k="ssr:stedsnr" v="196533" />
	</node>
	<node lat="64.23751944029634" lon="10.667858343034373" id="-83055">
		<tag k="name" v="Lunmo" />
		<tag k="place" v="farm" />
		<tag k="ssr:stedsnr" v="215298" />
	</node>
	<node lat="64.30311111378148" lon="10.525419445066577" id="-83077">
		<tag k="name" v="Moen" />
		<tag k="place" v="farm" />
		<tag k="ssr:stedsnr" v="215563" />
	</node>
	<node lat="64.29600961793939" lon="10.295994832669374" id="-83083">
		<tag k="fixme" v="consider place=hamlet" />
		<tag k="name" v="Ytre Skjervøya" />
		<tag k="place" v="village" />
		<tag k="ssr:stedsnr" v="215656" />
	</node>
	<node lat="64.346819444083" lon="10.459672221308848" id="-83097">
		<tag k="name" v="Kleiva" />
		<tag k="place" v="farm" />
		<tag k="ssr:stedsnr" v="276092" />
	</node>
	<node lat="64.26497499598246" lon="10.606258337727388" id="-83104">
		<tag k="name" v="Granskogen" />
		<tag k="place" v="farm" />
		<tag k="ssr:stedsnr" v="276475" />
	</node>
	<node lat="64.2975833359986" lon="10.517174994884027" id="-83111">
		<tag k="name" v="Nerstu" />
		<tag k="place" v="farm" />
		<tag k="ssr:stedsnr" v="276365" />
	</node>
	<node lat="64.24816388657247" lon="10.6442083339711" id="-83113">
		<tag k="name" v="Løsmoen" />
		<tag k="place" v="farm" />
		<tag k="ssr:stedsnr" v="276440" />
	</node>
	<node lat="64.32191389238507" lon="10.468619448783201" id="-83161">
		<tag k="alt_name" v="Bråten" />
		<tag k="name" v="Bråtten" />
		<tag k="place" v="farm" />
		<tag k="ssr:stedsnr" v="317470" />
	</node>
	<node lat="64.28856388870268" lon="10.29646943529715" id="-83215">
		<tag k="fixme" v="consider place=hamlet" />
		<tag k="name" v="Indre Skjervøya" />
		<tag k="place" v="village" />
		<tag k="ssr:stedsnr" v="337441" />
	</node>
	<node lat="64.26474721875874" lon="10.61854165725978" id="-83236">
		<tag k="name" v="Engan" />
		<tag k="place" v="farm" />
		<tag k="ssr:stedsnr" v="377621" />
	</node>
	<node lat="64.33997222198293" lon="10.61138611189459" id="-83245">
		<tag k="fixme" v="consider place=hamlet" />
		<tag k="name" v="Sve" />
		<tag k="place" v="farm" />
		<tag k="ssr:stedsnr" v="377723" />
	</node>
	<node lat="64.3432444473997" lon="10.619838895231993" id="-83316">
		<tag k="name" v="Sandvika" />
		<tag k="place" v="farm" />
		<tag k="ssr:stedsnr" v="438736" />
	</node>
	<node lat="64.29760555520271" lon="10.510566664549401" id="-83330">
		<tag k="fixme" v="consider place=hamlet" />
		<tag k="name" v="Osen" />
		<tag k="place" v="village" />
		<tag k="ssr:stedsnr" v="499497" />
	</node>
	<node lat="64.29834721846578" lon="10.511238879921553" id="-83356">
		<tag k="name" v="Unlenda" />
		<tag k="place" v="farm" />
		<tag k="ssr:stedsnr" v="518250" />
	</node>
	<node lat="64.3935111085525" lon="10.492786104885813" id="-83366">
		<tag k="name" v="Klaven" />
		<tag k="place" v="isolated_dwelling" />
		<tag k="ssr:stedsnr" v="519296" />
	</node>
	<node lat="64.29193610940995" lon="10.546233343293975" id="-83392">
		<tag k="name" v="Haugen" />
		<tag k="place" v="farm" />
		<tag k="ssr:stedsnr" v="559573" />
	</node>
	<node lat="64.33633333668038" lon="10.462847231834482" id="-83409">
		<tag k="name" v="Salthammaren" />
		<tag k="place" v="farm" />
		<tag k="ssr:stedsnr" v="570792" />
	</node>
	<node lat="64.33578611305234" lon="10.469438893247563" id="-83430">
		<tag k="name" v="Stranda" />
		<tag k="place" v="farm" />
		<tag k="ssr:stedsnr" v="579563" />
	</node>
	<node lat="64.30018506777746" lon="10.501931570886294" id="-83454">
		<tag k="leisure" v="pitch" />
		<tag k="name" v="Furuly" />
		<tag k="ssr:stedsnr" v="586783" />
	</node>
	<node lat="64.251983337364" lon="10.629450002744104" id="-83465">
		<tag k="name" v="Vollan" />
		<tag k="place" v="farm" />
		<tag k="ssr:stedsnr" v="620398" />
	</node>
	<node lat="64.29617222087488" lon="10.29548055886033" id="-83471">
		<tag k="name" v="Yttervågen" />
		<tag k="place" v="hamlet" />
		<tag k="ssr:stedsnr" v="620548" />
	</node>
	<node lat="64.31657777589848" lon="10.467402779003914" id="-83504">
		<tag k="name" v="Litlhaugvollen" />
		<tag k="place" v="farm" />
		<tag k="ssr:stedsnr" v="640457" />
	</node>
	<node lat="64.30637690980487" lon="10.463847898389307" id="-83527">
		<tag k="fixme" v="consider place=hamlet" />
		<tag k="name" v="Sundet" />
		<tag k="place" v="farm" />
		<tag k="ssr:stedsnr" v="742515" />
	</node>
	<node lat="64.27374444877658" lon="10.591230550535046" id="-83536">
		<tag k="name" v="Melhusmoen" />
		<tag k="place" v="farm" />
		<tag k="ssr:stedsnr" v="742578" />
	</node>
	<node lat="64.29931944191677" lon="10.52028056367736" id="-83573">
		<tag k="name" v="Kraket" />
		<tag k="place" v="farm" />
		<tag k="ssr:stedsnr" v="761483" />
	</node>
	<node lat="64.30367778167239" lon="10.519897217459453" id="-83574">
		<tag k="name" v="Larsgården" />
		<tag k="place" v="farm" />
		<tag k="ssr:stedsnr" v="761488" />
	</node>
	<node lat="64.35233055131046" lon="10.469683333408751" id="-83596">
		<tag k="alt_name" v="Aune" />
		<tag k="name" v="Vingsandaunet" />
		<tag k="place" v="farm" />
		<tag k="ssr:stedsnr" v="802756" />
	</node>
	<node lat="64.32045555272323" lon="10.468230563074325" id="-83610">
		<tag k="name" v="Haugtun" />
		<tag k="place" v="farm" />
		<tag k="ssr:stedsnr" v="803548" />
	</node>
	<node lat="64.29751388856249" lon="10.51926111704574" id="-83651">
		<tag k="name" v="Anegården" />
		<tag k="place" v="farm" />
		<tag k="ssr:stedsnr" v="822547" />
	</node>
	<node lat="64.39957777440654" lon="10.488899996621162" id="-83656">
		<tag k="name" v="Myra" />
		<tag k="place" v="farm" />
		<tag k="ssr:stedsnr" v="822685" />
	</node>
	<node lat="64.26634914432046" lon="10.61264191784884" id="-83665">
		<tag k="name" v="Onshaugen" />
		<tag k="place" v="farm" />
		<tag k="ssr:stedsnr" v="863639" />
	</node>
	<node lat="64.3231361078406" lon="10.385580553844836" id="-83677">
		<tag k="alt_name" v="Gården" />
		<tag k="name" v="Nordberget" />
		<tag k="place" v="farm" />
		<tag k="ssr:stedsnr" v="864565" />
	</node>
	<node lat="64.3976611130863" lon="10.490569437015104" id="-83702">
		<tag k="name" v="Husvika" />
		<tag k="place" v="hamlet" />
		<tag k="ssr:stedsnr" v="883337" />
	</node>
	<node lat="64.40238611326727" lon="10.532858326750022" id="-83707">
		<tag k="name" v="Stavran" />
		<tag k="place" v="farm" />
		<tag k="ssr:stedsnr" v="883443" />
	</node>
	<node lat="64.3071250008814" lon="10.527063879738337" id="-83726">
		<tag k="name" v="Myra" />
		<tag k="place" v="farm" />
		<tag k="ssr:stedsnr" v="943633" />
	</node>
	<node lat="64.29030833730634" lon="10.536288882150709" id="-83728">
		<tag k="name" v="Aftensøya" />
		<tag k="place" v="farm" />
		<tag k="ssr:stedsnr" v="943637" />
	</node>
	<node lat="64.27360555966246" lon="10.596894437213363" id="-83734">
		<tag k="name" v="Torvenget" />
		<tag k="place" v="farm" />
		<tag k="ssr:stedsnr" v="943715" />
	</node>
	<node lat="64.27353611367327" lon="10.608597213005734" id="-83735">
		<tag k="name" v="Einmoen" />
		<tag k="place" v="farm" />
		<tag k="ssr:stedsnr" v="943719" />
	</node>
	<node lat="64.28805277880926" lon="10.520444449410174" id="-83736">
		<tag k="name" v="Nygården" />
		<tag k="place" v="farm" />
		<tag k="ssr:stedsnr" v="943617" />
	</node>
	<node lat="64.36597197996117" lon="10.621054496292006" id="-83758">
		<tag k="name" v="Holand" />
		<tag k="place" v="locality" />
		<tag k="ssr:stedsnr" v="944449" />
	</node>
</osm>
