<?xml version="1.0" encoding="UTF-8"?>
<<<<<<< HEAD
<osm version="0.6" generator="osmapis">
	<node lat="64.2363194411704" lon="10.699274996840172" id="-33454">
		<tag k="name" v="Djupdalsbekken" />
		<tag k="ssr:stedsnr" v="14002" />
		<tag k="waterway" v="stream" />
	</node>
	<node lat="64.22857222662915" lon="10.86631111367938" id="-33459">
		<tag k="name" v="Levatnet" />
		<tag k="natural" v="water" />
		<tag k="ssr:stedsnr" v="14608" />
		<tag k="water" v="lake" />
	</node>
	<node lat="64.20925277623866" lon="10.784586101941356" id="-33460">
		<tag k="name" v="Essen" />
		<tag k="natural" v="water" />
		<tag k="ssr:stedsnr" v="14611" />
	</node>
	<node lat="64.27808889176484" lon="10.4045694395498" id="-33470">
		<tag k="name" v="Kvernhusbekken" />
		<tag k="ssr:stedsnr" v="33103" />
		<tag k="waterway" v="stream" />
	</node>
	<node lat="64.28317222194369" lon="10.680777784064908" id="-33471">
		<tag k="name" v="Krokvadet" />
		<tag k="natural" v="cape" />
		<tag k="ssr:stedsnr" v="33309" />
	</node>
	<node lat="64.34431666691773" lon="10.605036104203188" id="-33481">
		<tag k="name" v="Sirielva" />
		<tag k="ssr:stedsnr" v="33425" />
		<tag k="waterway" v="river" />
	</node>
	<node lat="64.23460833014967" lon="10.612341656276591" id="-33483">
		<tag k="name" v="Urdbekken" />
		<tag k="ssr:stedsnr" v="33446" />
		<tag k="waterway" v="stream" />
	</node>
	<node lat="64.3316111085789" lon="10.702124992095099" id="-33497">
		<tag k="name" v="Skrottvatna" />
		<tag k="natural" v="water" />
		<tag k="ssr:stedsnr" v="74520" />
		<tag k="water" v="lake" />
	</node>
	<node lat="64.22098055633909" lon="10.682727773502128" id="-33501">
		<tag k="name" v="Seterelva" />
		<tag k="ssr:stedsnr" v="74759" />
		<tag k="waterway" v="river" />
	</node>
	<node lat="64.29304166629979" lon="10.78674999768879" id="-33503">
		<tag k="name" v="Rørvatnet" />
		<tag k="natural" v="water" />
		<tag k="ssr:stedsnr" v="75171" />
		<tag k="water" v="lake" />
	</node>
	<node lat="64.2869611100025" lon="10.731874995087315" id="-33504">
		<tag k="name" v="Haugavatnet" />
		<tag k="natural" v="water" />
		<tag k="ssr:stedsnr" v="75172" />
	</node>
	<node lat="64.25322500116062" lon="10.426902778123967" id="-33526">
		<tag k="name" v="Sørelva" />
		<tag k="ssr:stedsnr" v="94617" />
		<tag k="waterway" v="stream" />
	</node>
	<node lat="64.32999722213837" lon="10.484775009516774" id="-33527">
		<tag k="name" v="Langdalsbekken" />
		<tag k="ssr:stedsnr" v="94702" />
		<tag k="waterway" v="stream" />
	</node>
	<node lat="64.3204500021562" lon="10.662791661887946" id="-33546">
		<tag k="name" v="Klumptjønnin" />
		<tag k="natural" v="water" />
		<tag k="ssr:stedsnr" v="256496" />
	</node>
	<node lat="64.32028333534822" lon="10.464205561010214" id="-33568">
		<tag k="name" v="Torvhusbekken" />
		<tag k="ssr:stedsnr" v="154525" />
		<tag k="waterway" v="stream" />
	</node>
	<node lat="64.25121388567842" lon="10.815713890619673" id="-33573">
		<tag k="name" v="Purka" />
		<tag k="place" v="islet" />
		<tag k="ssr:stedsnr" v="154750" />
	</node>
	<node lat="64.25780000178597" lon="10.698099994730734" id="-33574">
		<tag k="name" v="Fjøsvassholmen" />
		<tag k="place" v="islet" />
		<tag k="ssr:stedsnr" v="154753" />
	</node>
	<node lat="64.24280833337485" lon="10.880094443184058" id="-33583">
		<tag k="name" v="Vassdølin" />
		<tag k="natural" v="water" />
		<tag k="ssr:stedsnr" v="263028" />
		<tag k="water" v="lake" />
	</node>
	<node lat="64.22920000356642" lon="10.59792499587024" id="-33590">
		<tag k="name" v="Gunhildelva" />
		<tag k="ssr:stedsnr" v="196053" />
		<tag k="waterway" v="stream" />
	</node>
	<node lat="64.21511944837616" lon="10.732677770741594" id="-33593">
		<tag k="name" v="Persheitjønna" />
		<tag k="natural" v="water" />
		<tag k="ssr:stedsnr" v="196605" />
	</node>
	<node lat="64.33520278223054" lon="10.622241669082022" id="-33636">
		<tag k="name" v="Sveselva" />
		<tag k="ssr:stedsnr" v="256466" />
		<tag k="waterway" v="stream" />
	</node>
	<node lat="64.23815000310456" lon="10.729891671247957" id="-33640">
		<tag k="name" v="Skarvåsfossen" />
		<tag k="natural" v="waterfall" />
		<tag k="ssr:stedsnr" v="257674" />
	</node>
	<node lat="64.18865000264908" lon="10.721863885379005" id="-33641">
		<tag k="name" v="Austvasselva" />
		<tag k="ssr:stedsnr" v="257715" />
		<tag k="waterway" v="stream" />
	</node>
	<node lat="64.29734721980586" lon="10.557063886717142" id="-33646">
		<tag k="name" v="Bjørndalsbekken" />
		<tag k="ssr:stedsnr" v="458099" />
		<tag k="waterway" v="stream" />
	</node>
	<node lat="64.3710944432374" lon="10.634230560791577" id="-33652">
		<tag k="name" v="Holandsbekken" />
		<tag k="ssr:stedsnr" v="458357" />
		<tag k="waterway" v="stream" />
	</node>
	<node lat="64.25667499808908" lon="10.625041676443704" id="-33660">
		<tag k="name" v="Åseggfossen" />
		<tag k="natural" v="waterfall" />
		<tag k="ssr:stedsnr" v="458440" />
	</node>
	<node lat="64.22767222127776" lon="10.832880552993265" id="-33664">
		<tag k="name" v="Fisklausbekken" />
		<tag k="ssr:stedsnr" v="458496" />
		<tag k="waterway" v="stream" />
	</node>
	<node lat="64.26618611503548" lon="10.606005551124714" id="-33678">
		<tag k="name" v="Sambrubekken" />
		<tag k="ssr:stedsnr" v="458759" />
		<tag k="waterway" v="stream" />
	</node>
	<node lat="64.24860555919062" lon="10.616205546448784" id="-33683">
		<tag k="name" v="Svellfossbekken" />
		<tag k="ssr:stedsnr" v="458754" />
		<tag k="waterway" v="stream" />
	</node>
	<node lat="64.23463611195507" lon="10.694452780966621" id="-33697">
		<tag k="name" v="Henrikdalsbekken" />
		<tag k="ssr:stedsnr" v="276383" />
		<tag k="waterway" v="stream" />
	</node>
	<node lat="64.23928055618235" lon="10.683686111816879" id="-33698">
		<tag k="name" v="Søluneset" />
		<tag k="natural" v="cape" />
		<tag k="ssr:stedsnr" v="276391" />
	</node>
	<node lat="64.21114444484317" lon="10.581347227667582" id="-33713">
		<tag k="name" v="Damtjønna" />
		<tag k="natural" v="water" />
		<tag k="ssr:stedsnr" v="317014" />
	</node>
	<node lat="64.23927222269747" lon="10.553294443797965" id="-33715">
		<tag k="name" v="Mortenjonsatjønnan" />
		<tag k="natural" v="water" />
		<tag k="ssr:stedsnr" v="317045" />
	</node>
	<node lat="64.26017500261946" lon="10.838733343519678" id="-33716">
		<tag k="name" v="Skånelva" />
		<tag k="ssr:stedsnr" v="317126" />
		<tag k="waterway" v="stream" />
	</node>
	<node lat="64.18087777952029" lon="10.60129721592943" id="-33723">
		<tag k="name" v="Hundtjønna" />
		<tag k="natural" v="water" />
		<tag k="ssr:stedsnr" v="317424" />
	</node>
	<node lat="64.18977500294477" lon="10.647413890832842" id="-33724">
		<tag k="name" v="Elgsjøelva" />
		<tag k="ssr:stedsnr" v="317427" />
		<tag k="waterway" v="stream" />
	</node>
	<node lat="64.41510000382475" lon="10.50889165864573" id="-33730">
		<tag k="name" v="Skjuraskardbekken" />
		<tag k="ssr:stedsnr" v="336646" />
		<tag k="waterway" v="stream" />
	</node>
	<node lat="64.28891388511873" lon="10.555875009344259" id="-33734">
		<tag k="name" v="Brekkøya" />
		<tag k="natural" v="cape" />
		<tag k="ssr:stedsnr" v="337012" />
	</node>
	<node lat="64.23820833749673" lon="10.666333333622886" id="-33764">
		<tag k="name" v="Luna" />
		<tag k="ssr:stedsnr" v="397278" />
		<tag k="waterway" v="river" />
	</node>
	<node lat="64.23387499985205" lon="10.84998889682118" id="-33767">
		<tag k="name" v="Levassbekken" />
		<tag k="ssr:stedsnr" v="397295" />
		<tag k="waterway" v="stream" />
	</node>
	<node lat="64.3377027802152" lon="10.601444445857254" id="-33771">
		<tag k="name" v="Vingelva" />
		<tag k="ssr:stedsnr" v="397445" />
		<tag k="waterway" v="river" />
	</node>
	<node lat="64.23871110816154" lon="10.73328055177005" id="-33806">
		<tag k="name" v="Inner Skarvåsfossen" />
		<tag k="natural" v="waterfall" />
		<tag k="ssr:stedsnr" v="458315" />
	</node>
	<node lat="64.24915555578936" lon="10.832719439269441" id="-33818">
		<tag k="name" v="Ausa" />
		<tag k="natural" v="cape" />
		<tag k="ssr:stedsnr" v="458718" />
	</node>
	<node lat="64.20630277475676" lon="10.687374989570253" id="-33822">
		<tag k="name" v="Strupen" />
		<tag k="ssr:stedsnr" v="681026" />
		<tag k="waterway" v="rapids" />
	</node>
	<node lat="64.2598083302109" lon="10.773041664637292" id="-33825">
		<tag k="name" v="Anneliskardtjønnin" />
		<tag k="natural" v="water" />
		<tag k="ssr:stedsnr" v="681141" />
	</node>
	<node lat="64.32389444127044" lon="10.4980416730979" id="-33830">
		<tag k="name" v="Høvikvatnet" />
		<tag k="natural" v="water" />
		<tag k="ssr:stedsnr" v="499447" />
	</node>
	<node lat="64.18240555703814" lon="10.621455557131485" id="-33831">
		<tag k="name" v="Kvernabekktjønna" />
		<tag k="natural" v="water" />
		<tag k="ssr:stedsnr" v="499393" />
	</node>
	<node lat="64.31467222623367" lon="10.561261102838143" id="-33851">
		<tag k="name" v="Slåttbekken" />
		<tag k="ssr:stedsnr" v="681538" />
		<tag k="waterway" v="stream" />
	</node>
	<node lat="64.2802888876225" lon="10.535480557639355" id="-33855">
		<tag k="name" v="Sørmelanselva" />
		<tag k="ssr:stedsnr" v="681591" />
		<tag k="waterway" v="stream" />
	</node>
	<node lat="64.2195222222575" lon="10.779269449379026" id="-33860">
		<tag k="name" v="Kangsvasstjønna" />
		<tag k="natural" v="water" />
		<tag k="ssr:stedsnr" v="681648" />
	</node>
	<node lat="64.28678610727049" lon="10.579675006324786" id="-33879">
		<tag k="name" v="Skauvåsbekken" />
		<tag k="ssr:stedsnr" v="518602" />
		<tag k="waterway" v="stream" />
	</node>
	<node lat="64.31103055261815" lon="10.568988886249535" id="-33880">
		<tag k="name" v="Fossan" />
		<tag k="natural" v="waterfall" />
		<tag k="ssr:stedsnr" v="518610" />
	</node>
	<node lat="64.26204166496481" lon="10.692113897476442" id="-33893">
		<tag k="name" v="Litlfjøsvassbekken" />
		<tag k="ssr:stedsnr" v="519280" />
		<tag k="waterway" v="stream" />
	</node>
	<node lat="64.26931666912805" lon="10.50291944670265" id="-33900">
		<tag k="name" v="Fossbekken" />
		<tag k="ssr:stedsnr" v="519372" />
		<tag k="waterway" v="stream" />
	</node>
	<node lat="64.26084444225923" lon="10.6105055638236" id="-33902">
		<tag k="name" v="Killingbekken" />
		<tag k="ssr:stedsnr" v="519459" />
		<tag k="waterway" v="stream" />
	</node>
	<node lat="64.25473888955811" lon="10.90977499735375" id="-33903">
		<tag k="name" v="Olvasstangen" />
		<tag k="natural" v="cape" />
		<tag k="ssr:stedsnr" v="519469" />
	</node>
	<node lat="64.36279166395481" lon="10.551063882926462" id="-33918">
		<tag k="name" v="Storvikvatnet" />
		<tag k="natural" v="water" />
		<tag k="ssr:stedsnr" v="559723" />
	</node>
	<node lat="64.2434083326596" lon="10.78969722539856" id="-33920">
		<tag k="name" v="Annfinntjønna" />
		<tag k="natural" v="water" />
		<tag k="ssr:stedsnr" v="559738" />
	</node>
	<node lat="64.28868611213844" lon="10.560441670290164" id="-33934">
		<tag k="name" v="Nordmelansfossen" />
		<tag k="natural" v="waterfall" />
		<tag k="ssr:stedsnr" v="579041" />
	</node>
	<node lat="64.24030277833582" lon="10.63775832687963" id="-33941">
		<tag k="name" v="Moengfossen" />
		<tag k="natural" v="waterfall" />
		<tag k="ssr:stedsnr" v="579405" />
	</node>
	<node lat="64.19788611468176" lon="10.68851944365912" id="-33944">
		<tag k="name" v="Austvassneset" />
		<tag k="natural" v="cape" />
		<tag k="ssr:stedsnr" v="579445" />
	</node>
	<node lat="64.25428055302432" lon="10.429736100858085" id="-33948">
		<tag k="name" v="Nordelva" />
		<tag k="ssr:stedsnr" v="579651" />
		<tag k="waterway" v="stream" />
	</node>
	<node lat="64.26284166462163" lon="10.846761110360939" id="-33953">
		<tag k="name" v="Skånhaugtjønna" />
		<tag k="natural" v="water" />
		<tag k="ssr:stedsnr" v="579552" />
	</node>
	<node lat="64.27785000175824" lon="10.446991668854508" id="-33960">
		<tag k="name" v="Sætranselva" />
		<tag k="ssr:stedsnr" v="701045" />
		<tag k="waterway" v="river" />
	</node>
	<node lat="64.41243888710436" lon="10.48238332420916" id="-33969">
		<tag k="name" v="Svartholbekken" />
		<tag k="ssr:stedsnr" v="701357" />
		<tag k="waterway" v="stream" />
	</node>
	<node lat="64.24153611296958" lon="10.84228610899956" id="-33976">
		<tag k="name" v="Sandvasselva" />
		<tag k="ssr:stedsnr" v="701537" />
		<tag k="waterway" v="river" />
	</node>
	<node lat="64.29556666871281" lon="10.689672225105653" id="-33985">
		<tag k="name" v="Smørelva" />
		<tag k="ssr:stedsnr" v="701750" />
		<tag k="waterway" v="river" />
	</node>
	<node lat="64.25849722104499" lon="10.62755277541441" id="-33987">
		<tag k="name" v="Skolengsholmen" />
		<tag k="place" v="islet" />
		<tag k="ssr:stedsnr" v="701758" />
	</node>
	<node lat="64.29703333613193" lon="10.778969447144513" id="-33990">
		<tag k="name" v="Tusskalltjønnin" />
		<tag k="natural" v="water" />
		<tag k="ssr:stedsnr" v="620175" />
	</node>
	<node lat="64.28269444421906" lon="10.693366676216453" id="-33993">
		<tag k="name" v="Stakkslættvatna" />
		<tag k="natural" v="water" />
		<tag k="ssr:stedsnr" v="620573" />
	</node>
	<node lat="64.25485833128009" lon="10.900513882091523" id="-34010">
		<tag k="name" v="Kjøttholmen" />
		<tag k="place" v="islet" />
		<tag k="ssr:stedsnr" v="639279" />
	</node>
	<node lat="64.29590555326813" lon="10.606975001599427" id="-34018">
		<tag k="name" v="Svartfossen" />
		<tag k="natural" v="waterfall" />
		<tag k="ssr:stedsnr" v="640403" />
	</node>
	<node lat="64.27444722119333" lon="10.615052780001301" id="-34028">
		<tag k="name" v="Kvernafossen" />
		<tag k="natural" v="waterfall" />
		<tag k="ssr:stedsnr" v="640378" />
	</node>
	<node lat="64.2103555517203" lon="10.616802779806312" id="-34030">
=======
<osm generator="osmapis" version="0.6">
	<node id="-733184" lat="64.2401583333" lon="10.6879583403">
		<tag k="name" v="Rokkelneset" />
		<tag k="natural" v="cape" />
		<tag k="ssr:stedsnr" v="863056" />
	</node>
	<node id="-733182" lat="64.283058334" lon="10.6920694541">
		<tag k="name" v="Fremmer Stakkslættvatnet" />
		<tag k="natural" v="water" />
		<tag k="ssr:stedsnr" v="822749" />
		<tag k="water" v="lake" />
	</node>
	<node id="-731645" lat="64.2381500031" lon="10.7298916712">
		<tag k="name" v="Skarvåsfossen" />
		<tag k="natural" v="waterfall" />
		<tag k="ssr:stedsnr" v="257674" />
	</node>
	<node id="-731643" lat="64.1886500026" lon="10.7218638854">
		<tag k="name" v="Austvasselva" />
		<tag k="ssr:stedsnr" v="257715" />
		<tag k="waterway" v="stream" />
	</node>
	<node id="-733175" lat="64.3123944471" lon="10.5537083316">
		<tag k="name" v="Slåttfossen" />
		<tag k="natural" v="waterfall" />
		<tag k="ssr:stedsnr" v="822677" />
	</node>
	<node id="-733171" lat="64.2755972261" lon="10.6996333242">
		<tag k="name" v="Lomtjønna" />
		<tag k="natural" v="water" />
		<tag k="ssr:stedsnr" v="822550" />
	</node>
	<node id="-732144" lat="64.1990527735" lon="10.7469361112">
		<tag k="name" v="Austvatnet" />
		<tag k="natural" v="water" />
		<tag k="ssr:stedsnr" v="924661" />
		<tag k="water" v="lake" />
	</node>
	<node id="-732141" lat="64.2072444424" lon="10.8142916653">
		<tag k="name" v="Tverrelvtjønnin" />
		<tag k="natural" v="water" />
		<tag k="ssr:stedsnr" v="924639" />
	</node>
	<node id="-732651" lat="64.2642861097" lon="10.712950009">
		<tag k="name" v="Hyttelibekken" />
		<tag k="ssr:stedsnr" v="215539" />
		<tag k="waterway" v="stream" />
	</node>
	<node id="-732138" lat="64.3155055558" lon="10.6513638793">
		<tag k="name" v="Svartklumptjønna" />
		<tag k="natural" v="water" />
		<tag k="ssr:stedsnr" v="924513" />
	</node>
	<node id="-733161" lat="64.2831138898" lon="10.7463472289">
		<tag k="name" v="Skjetndalsbekken" />
		<tag k="ssr:stedsnr" v="822436" />
		<tag k="waterway" v="stream" />
	</node>
	<node id="-733160" lat="64.2554583331" lon="10.6993388868">
		<tag k="name" v="Lauritstangen" />
		<tag k="natural" v="cape" />
		<tag k="ssr:stedsnr" v="822390" />
	</node>
	<node id="-733158" lat="64.2134138875" lon="10.7796694522">
		<tag k="name" v="Essbekken" />
		<tag k="ssr:stedsnr" v="822490" />
		<tag k="waterway" v="stream" />
	</node>
	<node id="-732497" lat="64.2348472256" lon="10.6197805591">
		<tag k="name" v="Gunhildelva" />
		<tag k="ssr:stedsnr" v="94668" />
		<tag k="waterway" v="river" />
	</node>
	<node id="-732132" lat="64.1766277789" lon="10.6538805621">
		<tag k="name" v="Innerelgsjøen" />
		<tag k="natural" v="water" />
		<tag k="ssr:stedsnr" v="924438" />
		<tag k="water" v="lake" />
	</node>
	<node id="-732131" lat="64.292941667" lon="10.7639750049">
		<tag k="name" v="Vakkertjønnin" />
		<tag k="natural" v="water" />
		<tag k="ssr:stedsnr" v="924150" />
	</node>
	<node id="-732642" lat="64.2916111133" lon="10.6220083351">
		<tag k="name" v="Skautjønna" />
		<tag k="natural" v="water" />
		<tag k="ssr:stedsnr" v="215463" />
	</node>
	<node id="-733152" lat="64.4050055533" lon="10.5199194462">
		<tag k="name" v="Kvernatjønna" />
		<tag k="natural" v="water" />
		<tag k="ssr:stedsnr" v="822325" />
	</node>
	<node id="-731614" lat="64.28823333" lon="10.6146277729">
		<tag k="name" v="Skautjønna" />
		<tag k="natural" v="water" />
		<tag k="ssr:stedsnr" v="439568" />
	</node>
	<node id="-731611" lat="64.3006861129" lon="10.6403083333">
		<tag k="name" v="Gammelsetertjønna" />
		<tag k="natural" v="water" />
		<tag k="ssr:stedsnr" v="439544" />
	</node>
	<node id="-732633" lat="64.2802861091" lon="10.6969444373">
		<tag k="name" v="Inner Stakkslættvatnet" />
		<tag k="natural" v="water" />
		<tag k="ssr:stedsnr" v="215322" />
		<tag k="water" v="lake" />
	</node>
	<node id="-732118" lat="64.3039444422" lon="10.5234499988">
		<tag k="name" v="Nordelva" />
		<tag k="ssr:stedsnr" v="761683" />
		<tag k="waterway" v="river" />
	</node>
	<node id="-731897" lat="64.3146722262" lon="10.5612611028">
		<tag k="name" v="Slåttbekken" />
		<tag k="ssr:stedsnr" v="681538" />
		<tag k="waterway" v="stream" />
	</node>
	<node id="-733139" lat="64.3698416682" lon="10.7057500023">
		<tag k="alt_name" v="Hestdalvatnet" />
		<tag k="name" v="Hestdalsvatnet" />
		<tag k="natural" v="water" />
		<tag k="ssr:stedsnr" v="803707" />
	</node>
	<node id="-732114" lat="64.2474277809" lon="10.8951277843">
		<tag k="name" v="Tømmerhallbukta" />
		<tag k="natural" v="bay" />
		<tag k="ssr:stedsnr" v="761546" />
	</node>
	<node id="-733128" lat="64.2395027776" lon="10.8971861138">
		<tag k="name" v="Klokkartjønna" />
		<tag k="natural" v="water" />
		<tag k="ssr:stedsnr" v="803637" />
	</node>
	<node id="-732103" lat="64.2600333328" lon="10.7107861114">
		<tag k="name" v="Litlfjøsvatnet" />
		<tag k="natural" v="water" />
		<tag k="ssr:stedsnr" v="761068" />
		<tag k="water" v="lake" />
	</node>
	<node id="-733125" lat="64.2671000033" lon="10.8950500026">
		<tag k="name" v="Langvasselva" />
		<tag k="ssr:stedsnr" v="803146" />
		<tag k="waterway" v="stream" />
	</node>
	<node id="-733124" lat="64.269624998" lon="10.7431555538">
		<tag k="name" v="Blomstertjønna" />
		<tag k="natural" v="water" />
		<tag k="ssr:stedsnr" v="803144" />
	</node>
	<node id="-733123" lat="64.256775" lon="10.9013444461">
		<tag k="name" v="Olvatnet" />
		<tag k="natural" v="water" />
		<tag k="ssr:stedsnr" v="803142" />
		<tag k="water" v="lake" />
	</node>
	<node id="-733122" lat="64.2775555543" lon="10.7225833431">
		<tag k="alt_name" v="Ratlitjønnin" />
		<tag k="name" v="Ratlitjønna" />
		<tag k="natural" v="water" />
		<tag k="ssr:stedsnr" v="803132" />
	</node>
	<node id="-733121" lat="64.2770583334" lon="10.8451027699">
		<tag k="name" v="Skånbekken" />
		<tag k="ssr:stedsnr" v="803120" />
		<tag k="waterway" v="stream" />
	</node>
	<node id="-732096" lat="64.2363888931" lon="10.7222944423">
		<tag k="alt_name" v="Kangvassbekken" />
		<tag k="name" v="Kangsvassbekken" />
		<tag k="ssr:stedsnr" v="742607" />
		<tag k="waterway" v="stream" />
	</node>
	<node id="-731703" lat="64.2491555558" lon="10.8327194393">
		<tag k="name" v="Ausa" />
		<tag k="natural" v="cape" />
		<tag k="ssr:stedsnr" v="458718" />
	</node>
	<node id="-732093" lat="64.3311638853" lon="10.5264166691">
		<tag k="name" v="Hopavatnet" />
		<tag k="natural" v="water" />
		<tag k="ssr:stedsnr" v="742472" />
	</node>
	<node id="-732092" lat="64.1965611092" lon="10.685488881">
		<tag k="name" v="Kvennlandssetertjønna" />
		<tag k="natural" v="water" />
		<tag k="ssr:stedsnr" v="742468" />
	</node>
	<node id="-731579" lat="64.2151194484" lon="10.7326777707">
		<tag k="name" v="Persheitjønna" />
		<tag k="natural" v="water" />
		<tag k="ssr:stedsnr" v="196605" />
	</node>
	<node id="-733113" lat="64.3218138887" lon="10.5988055608">
		<tag k="name" v="Vallskiftbekken" />
		<tag k="ssr:stedsnr" v="761777" />
		<tag k="waterway" v="stream" />
	</node>
	<node id="-731771" lat="64.2889138851" lon="10.5558750093">
		<tag k="name" v="Brekkøya" />
		<tag k="natural" v="cape" />
		<tag k="ssr:stedsnr" v="337012" />
	</node>
	<node id="-733111" lat="64.2571750019" lon="10.6341166663">
		<tag k="name" v="Skolengsbekken" />
		<tag k="ssr:stedsnr" v="761769" />
		<tag k="waterway" v="stream" />
	</node>
	<node id="-732596" lat="64.2292000036" lon="10.5979249959">
		<tag k="name" v="Gunhildelva" />
		<tag k="ssr:stedsnr" v="196053" />
		<tag k="waterway" v="stream" />
	</node>
	<node id="-731635" lat="64.3352027822" lon="10.6222416691">
		<tag k="name" v="Sveselva" />
		<tag k="ssr:stedsnr" v="256466" />
		<tag k="waterway" v="stream" />
	</node>
	<node id="-733104" lat="64.3146944438" lon="10.469113896">
		<tag k="name" v="Reinvassbekken" />
		<tag k="ssr:stedsnr" v="761608" />
		<tag k="waterway" v="stream" />
	</node>
	<node id="-732076" lat="64.270016669" lon="10.4591833357">
		<tag k="name" v="Kvernhusbekken" />
		<tag k="ssr:stedsnr" v="701503" />
		<tag k="waterway" v="stream" />
	</node>
	<node id="-731563" lat="64.2404472224" lon="10.7574833251">
		<tag k="name" v="Inner Almlifossen" />
		<tag k="natural" v="waterfall" />
		<tag k="ssr:stedsnr" v="276751" />
	</node>
	<node id="-733098" lat="64.4157138918" lon="10.4951111198">
		<tag k="name" v="Kvitkanttjønna" />
		<tag k="natural" v="water" />
		<tag k="ssr:stedsnr" v="761701" />
	</node>
	<node id="-732060" lat="64.2794749997" lon="10.6535527736">
		<tag k="name" v="Hattaneset" />
		<tag k="natural" v="cape" />
		<tag k="ssr:stedsnr" v="883782" />
	</node>
	<node id="-733089" lat="64.2387388866" lon="10.7242111114">
		<tag k="name" v="Fremmer Skarvåsfossen" />
		<tag k="natural" v="waterfall" />
		<tag k="ssr:stedsnr" v="761400" />
	</node>
	<node id="-732575" lat="64.2761000002" lon="10.4603861132">
		<tag k="name" v="Blåfjelltjønna" />
		<tag k="natural" v="water" />
		<tag k="ssr:stedsnr" v="154651" />
	</node>
	<node id="-732061" lat="64.2736277821" lon="10.6127666608">
		<tag k="name" v="Sagfossen" />
		<tag k="natural" v="waterfall" />
		<tag k="ssr:stedsnr" v="883789" />
	</node>
	<node id="-733084" lat="64.2419444402" lon="10.911358326">
		<tag k="name" v="Klokkartjønna" />
		<tag k="natural" v="water" />
		<tag k="ssr:stedsnr" v="761478" />
	</node>
	<node id="-733083" lat="64.2213000037" lon="10.5962027703">
		<tag k="name" v="Geilbekken" />
		<tag k="old_name" v="Geilbekkem" />
		<tag k="ssr:stedsnr" v="761173" />
		<tag k="waterway" v="stream" />
	</node>
	<node id="-732567" lat="64.3202833353" lon="10.464205561">
		<tag k="name" v="Torvhusbekken" />
		<tag k="ssr:stedsnr" v="154525" />
		<tag k="waterway" v="stream" />
	</node>
	<node id="-733078" lat="64.2645638907" lon="10.6989611135">
		<tag k="name" v="Åseggfjøsvatnet" />
		<tag k="natural" v="water" />
		<tag k="ssr:stedsnr" v="761335" />
		<tag k="water" v="lake" />
	</node>
	<node id="-732564" lat="64.3415555534" lon="10.7038833374">
		<tag k="name" v="Rundtjønna" />
		<tag k="natural" v="water" />
		<tag k="ssr:stedsnr" v="154462" />
	</node>
	<node id="-732213" lat="64.2456499963" lon="10.7865416724">
		<tag k="name" v="Fløytarbekken" />
		<tag k="ssr:stedsnr" v="944373" />
		<tag k="waterway" v="stream" />
	</node>
	<node id="-731459" lat="64.240672225" lon="10.7538972162">
		<tag k="name" v="Fremmer Almlifossen" />
		<tag k="natural" v="waterfall" />
		<tag k="ssr:stedsnr" v="33074" />
	</node>
	<node id="-731536" lat="64.2735833331" lon="10.7622722246">
		<tag k="name" v="Finnkrubekken" />
		<tag k="ssr:stedsnr" v="276548" />
		<tag k="waterway" v="stream" />
	</node>
	<node id="-731529" lat="64.2149055556" lon="10.5965194402">
		<tag k="name" v="Damtjønnbekken" />
		<tag k="ssr:stedsnr" v="276482" />
		<tag k="waterway" v="stream" />
	</node>
	<node id="-732551" lat="64.3700083303" lon="10.6488972278">
		<tag k="name" v="Holandstjønna" />
		<tag k="natural" v="water" />
		<tag k="ssr:stedsnr" v="154388" />
	</node>
	<node id="-731525" lat="64.3674499978" lon="10.6652416648">
		<tag k="name" v="Ervikelva" />
		<tag k="ssr:stedsnr" v="276350" />
		<tag k="waterway" v="river" />
	</node>
	<node id="-732545" lat="64.3200166681" lon="10.5100416754">
		<tag k="name" v="Bjørnholbekken" />
		<tag k="ssr:stedsnr" v="154374" />
		<tag k="waterway" v="stream" />
	</node>
	<node id="-731519" lat="64.2392805562" lon="10.6836861118">
		<tag k="name" v="Søluneset" />
		<tag k="natural" v="cape" />
		<tag k="ssr:stedsnr" v="276391" />
	</node>
	<node id="-732542" lat="64.2534583326" lon="10.4094722294">
		<tag k="name" v="Gjertrudbekken" />
		<tag k="ssr:stedsnr" v="154092" />
		<tag k="waterway" v="stream" />
	</node>
	<node id="-731626" lat="64.3933583371" lon="10.5974694353">
		<tag k="name" v="Drageidvatnet" />
		<tag k="natural" v="water" />
		<tag k="ssr:stedsnr" v="519727" />
		<tag k="water" v="lake" />
	</node>
	<node id="-733048" lat="64.2767277807" lon="10.6832083365">
		<tag k="name" v="Tåmåslivatnet" />
		<tag k="natural" v="water" />
		<tag k="ssr:stedsnr" v="742570" />
	</node>
	<node id="-731710" lat="64.266186115" lon="10.6060055511">
		<tag k="name" v="Sambrubekken" />
		<tag k="ssr:stedsnr" v="458759" />
		<tag k="waterway" v="stream" />
	</node>
	<node id="-732016" lat="64.3293755489" lon="10.4809838602">
		<tag k="name" v="Høvikbekken" />
		<tag k="ssr:stedsnr" v="883055" />
		<tag k="waterway" v="stream" />
	</node>
	<node id="-731965" lat="64.362791664" lon="10.5510638829">
		<tag k="name" v="Storvikvatnet" />
		<tag k="natural" v="water" />
		<tag k="ssr:stedsnr" v="559723" />
	</node>
	<node id="-732522" lat="64.2753611077" lon="10.5141416574">
		<tag k="name" v="Sørmelansvatnet" />
		<tag k="natural" v="water" />
		<tag k="ssr:stedsnr" v="135584" />
	</node>
	<node id="-732009" lat="64.2170749999" lon="10.6480055498">
		<tag k="name" v="Hønperbekken" />
		<tag k="ssr:stedsnr" v="681011" />
		<tag k="waterway" v="stream" />
	</node>
	<node id="-731495" lat="64.223863887" lon="10.6816222252">
		<tag k="name" v="Storbekken" />
		<tag k="ssr:stedsnr" v="135041" />
		<tag k="waterway" v="stream" />
	</node>
	<node id="-731492" lat="64.2428083334" lon="10.8800944432">
		<tag k="name" v="Vassdølin" />
		<tag k="natural" v="water" />
		<tag k="ssr:stedsnr" v="263028" />
		<tag k="water" v="lake" />
	</node>
	<node id="-732515" lat="64.3030749992" lon="10.6891777761">
		<tag k="name" v="Langlivatnet" />
		<tag k="natural" v="water" />
		<tag k="ssr:stedsnr" v="135546" />
	</node>
	<node id="-732731" lat="64.1897416637" lon="10.7078499912">
		<tag k="name" v="Kalvhøyneset" />
		<tag k="natural" v="cape" />
		<tag k="ssr:stedsnr" v="337344" />
	</node>
	<node id="-732000" lat="64.1837861074" lon="10.695119437">
		<tag k="name" v="Middagsheibekken" />
		<tag k="ssr:stedsnr" v="579747" />
		<tag k="waterway" v="stream" />
	</node>
	<node id="-732304" lat="64.3574888909" lon="10.5363250087">
		<tag k="name" v="Samelholtjønna" />
		<tag k="natural" v="water" />
		<tag k="ssr:stedsnr" v="13722" />
	</node>
	<node id="-732510" lat="64.2573043474" lon="10.7020289296">
		<tag k="name" v="Fjøsvatnet" />
		<tag k="natural" v="water" />
		<tag k="ssr:stedsnr" v="134658" />
		<tag k="water" v="lake" />
	</node>
	<node id="-731997" lat="64.2508749996" lon="10.670863882">
		<tag k="name" v="Torsteinengbekken" />
		<tag k="ssr:stedsnr" v="579740" />
		<tag k="waterway" v="stream" />
	</node>
	<node id="-732501" lat="64.2757055557" lon="10.773855553">
		<tag k="name" v="Finnkrutjønna" />
		<tag k="natural" v="water" />
		<tag k="ssr:stedsnr" v="94722" />
	</node>
	<node id="-732500" lat="64.3299972221" lon="10.4847750095">
		<tag k="name" v="Langdalsbekken" />
		<tag k="ssr:stedsnr" v="94702" />
		<tag k="waterway" v="stream" />
	</node>
	<node id="-733011" lat="64.2959055533" lon="10.6069750016">
		<tag k="name" v="Svartfossen" />
		<tag k="natural" v="waterfall" />
		<tag k="ssr:stedsnr" v="640403" />
	</node>
	<node id="-731474" lat="64.3204500022" lon="10.6627916619">
		<tag k="name" v="Klumptjønnin" />
		<tag k="natural" v="water" />
		<tag k="ssr:stedsnr" v="256496" />
	</node>
	<node id="-731985" lat="64.2185611068" lon="10.6145472156">
		<tag k="name" v="Heimdalsbekken" />
		<tag k="ssr:stedsnr" v="579453" />
		<tag k="waterway" v="stream" />
	</node>
	<node id="-733008" lat="64.2103555517" lon="10.6168027798">
>>>>>>> e1d4bc35ff8a6074a6f2e91616a996b547c36f15
		<tag k="name" v="Rokkelnesa" />
		<tag k="natural" v="cape" />
		<tag k="ssr:stedsnr" v="640390" />
	</node>
<<<<<<< HEAD
	<node lat="64.21707499991126" lon="10.648005549833753" id="-34035">
		<tag k="name" v="Hønperbekken" />
		<tag k="ssr:stedsnr" v="681011" />
		<tag k="waterway" v="stream" />
	</node>
	<node lat="64.24866944563783" lon="10.830852771505583" id="-34040">
		<tag k="name" v="Sandvatnet" />
		<tag k="natural" v="water" />
		<tag k="ssr:stedsnr" v="681759" />
		<tag k="water" v="lake" />
	</node>
	<node lat="64.27001666901738" lon="10.459183335664257" id="-34060">
		<tag k="name" v="Kvernhusbekken" />
		<tag k="ssr:stedsnr" v="701503" />
		<tag k="waterway" v="stream" />
	</node>
	<node lat="64.20139444526352" lon="10.618772229570654" id="-34065">
		<tag k="name" v="Auretangen" />
		<tag k="natural" v="cape" />
		<tag k="ssr:stedsnr" v="701460" />
	</node>
	<node lat="64.23638889311448" lon="10.722294442319011" id="-34078">
		<tag k="alt_name" v="Kangvassbekken" />
		<tag k="name" v="Kangsvassbekken" />
		<tag k="ssr:stedsnr" v="742607" />
		<tag k="waterway" v="stream" />
	</node>
	<node lat="64.24742778089005" lon="10.895127784289349" id="-34106">
		<tag k="name" v="Tømmerhallbukta" />
		<tag k="natural" v="bay" />
		<tag k="ssr:stedsnr" v="761546" />
	</node>
	<node lat="64.31469444375107" lon="10.469113896026716" id="-34113">
		<tag k="name" v="Reinvassbekken" />
		<tag k="ssr:stedsnr" v="761608" />
		<tag k="waterway" v="stream" />
	</node>
	<node lat="64.41571389180464" lon="10.495111119767783" id="-34119">
		<tag k="name" v="Kvitkanttjønna" />
		<tag k="natural" v="water" />
		<tag k="ssr:stedsnr" v="761701" />
	</node>
	<node lat="64.36984166823667" lon="10.705750002262956" id="-34130">
		<tag k="alt_name" v="Hestdalvatnet" />
		<tag k="name" v="Hestdalsvatnet" />
		<tag k="natural" v="water" />
		<tag k="ssr:stedsnr" v="803707" />
	</node>
	<node lat="64.40500555329294" lon="10.519919446178678" id="-34137">
		<tag k="name" v="Kvernatjønna" />
		<tag k="natural" v="water" />
		<tag k="ssr:stedsnr" v="822325" />
	</node>
	<node lat="64.27547222257263" lon="10.634327781332408" id="-34142">
		<tag k="name" v="Tverbekken" />
		<tag k="ssr:stedsnr" v="822425" />
		<tag k="waterway" v="stream" />
	</node>
	<node lat="64.29294166698055" lon="10.76397500492057" id="-34157">
		<tag k="name" v="Vakkertjønnin" />
		<tag k="natural" v="water" />
		<tag k="ssr:stedsnr" v="924150" />
	</node>
	<node lat="64.20724444241573" lon="10.81429166531883" id="-34163">
		<tag k="name" v="Tverrelvtjønnin" />
		<tag k="natural" v="water" />
		<tag k="ssr:stedsnr" v="924639" />
	</node>
	<node lat="64.19905277351427" lon="10.746936111217838" id="-34166">
		<tag k="name" v="Austvatnet" />
		<tag k="natural" v="water" />
		<tag k="ssr:stedsnr" v="924661" />
		<tag k="water" v="lake" />
	</node>
	<node lat="64.3293755488798" lon="10.480983860209845" id="-34177">
		<tag k="name" v="Høvikbekken" />
		<tag k="ssr:stedsnr" v="883055" />
		<tag k="waterway" v="stream" />
	</node>
	<node lat="64.24106944831775" lon="10.695825010300457" id="-34181">
		<tag k="name" v="Bjørnaneset" />
		<tag k="natural" v="cape" />
		<tag k="ssr:stedsnr" v="883361" />
	</node>
	<node lat="64.21417777444053" lon="10.698344441086247" id="-34183">
		<tag k="name" v="Blåheibekken" />
		<tag k="ssr:stedsnr" v="883398" />
		<tag k="waterway" v="stream" />
	</node>
	<node lat="64.26793889304129" lon="10.586622216622928" id="-34185">
		<tag k="name" v="Rosselva" />
		<tag k="ssr:stedsnr" v="883514" />
		<tag k="waterway" v="river" />
	</node>
	<node lat="64.17662777887463" lon="10.653880562115123" id="-34204">
		<tag k="name" v="Innerelgsjøen" />
		<tag k="natural" v="water" />
		<tag k="ssr:stedsnr" v="924438" />
		<tag k="water" v="lake" />
	</node>
	<node lat="64.31550555579935" lon="10.651363879256577" id="-34206">
		<tag k="name" v="Svartklumptjønna" />
		<tag k="natural" v="water" />
		<tag k="ssr:stedsnr" v="924513" />
	</node>
	<node lat="64.24307222492911" lon="10.705947224364516" id="-34221">
		<tag k="name" v="Fjøsvasselva" />
		<tag k="ssr:stedsnr" v="944219" />
		<tag k="waterway" v="stream" />
	</node>
	<node lat="64.19138055803218" lon="10.639902778777795" id="-34222">
		<tag k="name" v="Svarttjønna" />
		<tag k="ssr:stedsnr" v="944403" />
		<tag k="waterway" v="stream" />
	</node>
	<node lat="64.2456499962824" lon="10.786541672441832" id="-34228">
		<tag k="name" v="Fløytarbekken" />
		<tag k="ssr:stedsnr" v="944373" />
		<tag k="waterway" v="stream" />
	</node>
	<node lat="64.22935555799613" lon="10.743952776280786" id="-34229">
		<tag k="name" v="Ljåbekken" />
		<tag k="ssr:stedsnr" v="944378" />
		<tag k="waterway" v="stream" />
	</node>
	<node lat="64.4038388928392" lon="10.513127780893653" id="-34233">
		<tag k="name" v="Novatjønna" />
		<tag k="natural" v="water" />
		<tag k="ssr:stedsnr" v="944390" />
	</node>
	<node lat="64.26023073343224" lon="10.700496342756157" id="-34241">
		<tag k="name" v="Fjøsvatna" />
		<tag k="natural" v="water" />
		<tag k="ssr:stedsnr" v="990400" />
		<tag k="water" v="lake" />
	</node>
	<node lat="64.24677500027506" lon="10.454624995314083" id="-34242">
		<tag k="name" v="Austengvatnet" />
		<tag k="natural" v="water" />
		<tag k="ssr:stedsnr" v="13041" />
	</node>
	<node lat="64.2676916688894" lon="10.656002785269592" id="-34244">
		<tag k="name" v="Johanlitjønna" />
		<tag k="natural" v="water" />
		<tag k="ssr:stedsnr" v="13624" />
	</node>
	<node lat="64.35748889091383" lon="10.53632500872576" id="-34246">
		<tag k="name" v="Samelholtjønna" />
		<tag k="natural" v="water" />
		<tag k="ssr:stedsnr" v="13722" />
	</node>
	<node lat="64.34813055914667" lon="10.577508332231309" id="-34248">
		<tag k="name" v="Tømmerskardvatnet" />
		<tag k="natural" v="water" />
		<tag k="ssr:stedsnr" v="13735" />
	</node>
	<node lat="64.18523055382484" lon="10.636772214906813" id="-34251">
		<tag k="name" v="Fremmerelgsjøen" />
		<tag k="natural" v="water" />
		<tag k="ssr:stedsnr" v="14394" />
		<tag k="water" v="lake" />
	</node>
	<node lat="64.31306388982657" lon="10.707141659220062" id="-34254">
		<tag k="name" v="Andalslivatnet" />
		<tag k="natural" v="water" />
		<tag k="ssr:stedsnr" v="14465" />
		<tag k="water" v="lake" />
	</node>
	<node lat="64.23473889117506" lon="10.5838472203859" id="-34259">
		<tag k="alt_name" v="Rognvassdalsbekken" />
		<tag k="name" v="Rangvassdalsbekkenn" />
		<tag k="ssr:stedsnr" v="14033" />
		<tag k="waterway" v="stream" />
	</node>
	<node lat="64.29363055489543" lon="10.73487221537192" id="-34261">
		<tag k="name" v="Holman" />
		<tag k="place" v="locality" />
		<tag k="ssr:stedsnr" v="14159" />
	</node>
	<node lat="64.16752500083301" lon="10.599352778922503" id="-34265">
		<tag k="name" v="Finnvatnet" />
		<tag k="natural" v="water" />
		<tag k="ssr:stedsnr" v="14348" />
	</node>
	<node lat="64.30495833260721" lon="10.67438611647534" id="-34271">
		<tag k="name" v="Kringlåtvatna" />
		<tag k="natural" v="water" />
		<tag k="ssr:stedsnr" v="14488" />
	</node>
	<node lat="64.2939083356687" lon="10.577366673082278" id="-34272">
		<tag k="name" v="Grytelva" />
		<tag k="ssr:stedsnr" v="14491" />
		<tag k="waterway" v="stream" />
	</node>
	<node lat="64.29996111371518" lon="10.58230000400259" id="-34273">
		<tag k="name" v="Bjørndalsvatnet" />
		<tag k="natural" v="water" />
		<tag k="ssr:stedsnr" v="14496" />
	</node>
	<node lat="64.26636388673523" lon="10.463488878864244" id="-34291">
		<tag k="name" v="Litlvatnet" />
		<tag k="natural" v="water" />
		<tag k="ssr:stedsnr" v="33531" />
		<tag k="water" v="lake" />
	</node>
	<node lat="64.24067222502124" lon="10.75389721620472" id="-34297">
		<tag k="name" v="Fremmer Almlifossen" />
		<tag k="natural" v="waterfall" />
		<tag k="ssr:stedsnr" v="33074" />
	</node>
	<node lat="64.25350833647195" lon="10.661186113823662" id="-34299">
		<tag k="name" v="Larsengdalsbekken" />
		<tag k="ssr:stedsnr" v="33375" />
		<tag k="waterway" v="stream" />
	</node>
	<node lat="64.30959444769961" lon="10.701691657212484" id="-34302">
		<tag k="name" v="Andalslivatnet" />
		<tag k="natural" v="water" />
		<tag k="ssr:stedsnr" v="33033" />
		<tag k="water" v="lake" />
	</node>
	<node lat="64.18344166286768" lon="10.611863897630535" id="-34304">
		<tag k="name" v="Hundtjønnbekken" />
		<tag k="ssr:stedsnr" v="33061" />
		<tag k="waterway" v="stream" />
	</node>
	<node lat="64.20181388993548" lon="10.68509721416749" id="-34315">
		<tag k="name" v="Luna" />
		<tag k="natural" v="water" />
		<tag k="ssr:stedsnr" v="33475" />
		<tag k="water" v="lake" />
	</node>
	<node lat="64.26064166237163" lon="10.828638882427924" id="-34317">
		<tag k="name" v="Stordalsbekken" />
		<tag k="ssr:stedsnr" v="33480" />
		<tag k="waterway" v="stream" />
	</node>
	<node lat="64.23818611514261" lon="10.881691674165147" id="-34318">
		<tag k="name" v="Svarttjønna" />
		<tag k="natural" v="water" />
		<tag k="ssr:stedsnr" v="33483" />
	</node>
	<node lat="64.24713055167206" lon="10.910113898160475" id="-34330">
		<tag k="name" v="Olvasselva" />
		<tag k="ssr:stedsnr" v="33730" />
		<tag k="waterway" v="river" />
	</node>
	<node lat="64.22618333586712" lon="10.589958331624615" id="-34332">
		<tag k="name" v="Hopstaddalsbekken" />
		<tag k="ssr:stedsnr" v="33686" />
		<tag k="waterway" v="stream" />
	</node>
	<node lat="64.1958333373083" lon="10.617027776260247" id="-34341">
		<tag k="name" v="Granholvatnet" />
		<tag k="natural" v="water" />
		<tag k="ssr:stedsnr" v="74500" />
	</node>
	<node lat="64.27976389205878" lon="10.801100000951337" id="-34347">
		<tag k="name" v="Rørvassfossen" />
		<tag k="natural" v="waterfall" />
		<tag k="ssr:stedsnr" v="75128" />
	</node>
	<node lat="64.25418610761422" lon="10.892100007726455" id="-34349">
		<tag k="name" v="Sjøbukta" />
		<tag k="natural" v="bay" />
		<tag k="ssr:stedsnr" v="75225" />
	</node>
	<node lat="64.22962777466547" lon="10.751380563788588" id="-34358">
		<tag k="name" v="Ljåbekktjønna" />
		<tag k="natural" v="water" />
		<tag k="ssr:stedsnr" v="75691" />
	</node>
	<node lat="64.2389361080182" lon="10.785613891199667" id="-34359">
		<tag k="name" v="Dettfossen" />
		<tag k="natural" v="waterfall" />
		<tag k="ssr:stedsnr" v="75780" />
	</node>
	<node lat="64.31710278109166" lon="10.497661107049503" id="-34370">
		<tag k="name" v="Anddalstjønna" />
		<tag k="natural" v="water" />
		<tag k="ssr:stedsnr" v="94097" />
	</node>
	<node lat="64.23457500335053" lon="10.662672213571456" id="-34377">
		<tag k="name" v="Kvennlandsfossen" />
		<tag k="natural" v="waterfall" />
		<tag k="ssr:stedsnr" v="94324" />
	</node>
	<node lat="64.23455277681173" lon="10.910852771940382" id="-34387">
		<tag k="name" v="Meungan" />
		<tag k="natural" v="water" />
		<tag k="ssr:stedsnr" v="94499" />
		<tag k="water" v="lake" />
	</node>
	<node lat="64.23484722557546" lon="10.619780559093636" id="-34395">
		<tag k="name" v="Gunhildelva" />
		<tag k="ssr:stedsnr" v="94668" />
		<tag k="waterway" v="river" />
	</node>
	<node lat="64.27570555573934" lon="10.773855552954924" id="-34399">
		<tag k="name" v="Finnkrutjønna" />
		<tag k="natural" v="water" />
		<tag k="ssr:stedsnr" v="94722" />
	</node>
	<node lat="64.25730434737163" lon="10.702028929648764" id="-34407">
		<tag k="name" v="Fjøsvatnet" />
		<tag k="natural" v="water" />
		<tag k="ssr:stedsnr" v="134658" />
		<tag k="water" v="lake" />
	</node>
	<node lat="64.2238638869728" lon="10.681622225190502" id="-34409">
		<tag k="name" v="Storbekken" />
		<tag k="ssr:stedsnr" v="135041" />
		<tag k="waterway" v="stream" />
	</node>
	<node lat="64.26585555536806" lon="10.855344443972564" id="-34412">
		<tag k="name" v="Skåna" />
		<tag k="natural" v="water" />
		<tag k="ssr:stedsnr" v="135141" />
		<tag k="water" v="lake" />
	</node>
	<node lat="64.30307499920136" lon="10.689177776110478" id="-34414">
		<tag k="name" v="Langlivatnet" />
		<tag k="natural" v="water" />
		<tag k="ssr:stedsnr" v="135546" />
	</node>
	<node lat="64.27536110774251" lon="10.514141657413576" id="-34418">
		<tag k="name" v="Sørmelansvatnet" />
		<tag k="natural" v="water" />
		<tag k="ssr:stedsnr" v="135584" />
	</node>
	<node lat="64.25345833258513" lon="10.409472229402311" id="-34440">
		<tag k="name" v="Gjertrudbekken" />
		<tag k="ssr:stedsnr" v="154092" />
		<tag k="waterway" v="stream" />
	</node>
	<node lat="64.32001666807682" lon="10.510041675439846" id="-34442">
		<tag k="name" v="Bjørnholbekken" />
		<tag k="ssr:stedsnr" v="154374" />
		<tag k="waterway" v="stream" />
	</node>
	<node lat="64.3700083303232" lon="10.648897227811066" id="-34448">
		<tag k="name" v="Holandstjønna" />
		<tag k="natural" v="water" />
		<tag k="ssr:stedsnr" v="154388" />
	</node>
	<node lat="64.34155555336298" lon="10.703883337383054" id="-34454">
		<tag k="name" v="Rundtjønna" />
=======
	<node id="-733006" lat="64.2744472212" lon="10.61505278">
		<tag k="name" v="Kvernafossen" />
		<tag k="natural" v="waterfall" />
		<tag k="ssr:stedsnr" v="640378" />
	</node>
	<node id="-732493" lat="64.2532250012" lon="10.4269027781">
		<tag k="name" v="Sørelva" />
		<tag k="ssr:stedsnr" v="94617" />
		<tag k="waterway" v="stream" />
	</node>
	<node id="-731467" lat="64.238936108" lon="10.7856138912">
		<tag k="name" v="Dettfossen" />
		<tag k="natural" v="waterfall" />
		<tag k="ssr:stedsnr" v="75780" />
	</node>
	<node id="-733002" lat="64.2935638874" lon="10.7262416644">
		<tag k="name" v="Igeltjønna" />
		<tag k="natural" v="water" />
		<tag k="ssr:stedsnr" v="640338" />
	</node>
	<node id="-731465" lat="64.2541861076" lon="10.8921000077">
		<tag k="name" v="Sjøbukta" />
		<tag k="natural" v="bay" />
		<tag k="ssr:stedsnr" v="75225" />
	</node>
	<node id="-732074" lat="64.4124388871" lon="10.4823833242">
		<tag k="name" v="Svartholbekken" />
		<tag k="ssr:stedsnr" v="701357" />
		<tag k="waterway" v="stream" />
	</node>
	<node id="-732483" lat="64.2345527768" lon="10.9108527719">
		<tag k="name" v="Meungan" />
		<tag k="natural" v="water" />
		<tag k="ssr:stedsnr" v="94499" />
		<tag k="water" v="lake" />
	</node>
	<node id="-731970" lat="64.2755388857" lon="10.6286944481">
		<tag k="name" v="Skippelva" />
		<tag k="ssr:stedsnr" v="560611" />
		<tag k="waterway" v="river" />
	</node>
	<node id="-731457" lat="64.1834416629" lon="10.6118638976">
		<tag k="name" v="Hundtjønnbekken" />
		<tag k="ssr:stedsnr" v="33061" />
		<tag k="waterway" v="stream" />
	</node>
	<node id="-732992" lat="64.3218027741" lon="10.5308888922">
		<tag k="name" v="Reveggtjønna" />
		<tag k="natural" v="water" />
		<tag k="ssr:stedsnr" v="639673" />
	</node>
	<node id="-732640" lat="64.272063887" lon="10.7458111008">
		<tag k="name" v="Annelineset" />
		<tag k="natural" v="cape" />
		<tag k="old_name" v="Annelinese" />
		<tag k="ssr:stedsnr" v="215442" />
	</node>
	<node id="-731453" lat="64.2092527762" lon="10.7845861019">
		<tag k="name" v="Essen" />
		<tag k="natural" v="water" />
		<tag k="ssr:stedsnr" v="14611" />
	</node>
	<node id="-731452" lat="64.2285722266" lon="10.8663111137">
		<tag k="name" v="Levatnet" />
		<tag k="natural" v="water" />
		<tag k="ssr:stedsnr" v="14608" />
		<tag k="water" v="lake" />
	</node>
	<node id="-731786" lat="64.182405557" lon="10.6214555571">
		<tag k="name" v="Kvernabekktjønna" />
		<tag k="natural" v="water" />
		<tag k="ssr:stedsnr" v="499393" />
	</node>
	<node id="-732984" lat="64.2548583313" lon="10.9005138821">
		<tag k="name" v="Kjøttholmen" />
		<tag k="place" v="islet" />
		<tag k="ssr:stedsnr" v="639279" />
	</node>
	<node id="-731959" lat="64.2530527776" lon="10.5299027839">
		<tag k="name" v="Rosskardtjønna" />
		<tag k="natural" v="water" />
		<tag k="ssr:stedsnr" v="559421" />
	</node>
	<node id="-732469" lat="64.2345750034" lon="10.6626722136">
		<tag k="name" v="Kvennlandsfossen" />
		<tag k="natural" v="waterfall" />
		<tag k="ssr:stedsnr" v="94324" />
	</node>
	<node id="-732980" lat="64.300288885" lon="10.5084361028">
		<tag k="name" v="Grovla" />
		<tag k="ssr:stedsnr" v="639264" />
		<tag k="waterway" v="river" />
	</node>
	<node id="-731954" lat="64.2955666687" lon="10.6896722251">
		<tag k="name" v="Smørelva" />
		<tag k="ssr:stedsnr" v="701750" />
		<tag k="waterway" v="river" />
	</node>
	<node id="-732464" lat="64.3171027811" lon="10.497661107">
		<tag k="name" v="Anddalstjønna" />
		<tag k="natural" v="water" />
		<tag k="ssr:stedsnr" v="94097" />
	</node>
	<node id="-731438" lat="64.2363194412" lon="10.6992749968">
		<tag k="name" v="Djupdalsbekken" />
		<tag k="ssr:stedsnr" v="14002" />
		<tag k="waterway" v="stream" />
	</node>
	<node id="-731437" lat="64.2676916689" lon="10.6560027853">
		<tag k="name" v="Johanlitjønna" />
		<tag k="natural" v="water" />
		<tag k="ssr:stedsnr" v="13624" />
	</node>
	<node id="-732588" lat="64.2578000018" lon="10.6980999947">
		<tag k="name" v="Fjøsvassholmen" />
		<tag k="place" v="islet" />
		<tag k="ssr:stedsnr" v="154753" />
	</node>
	<node id="-731940" lat="64.241536113" lon="10.842286109">
		<tag k="name" v="Sandvasselva" />
		<tag k="ssr:stedsnr" v="701537" />
		<tag k="waterway" v="river" />
	</node>
	<node id="-731440" lat="64.2347388912" lon="10.5838472204">
		<tag k="alt_name" v="Rognvassdalsbekken" />
		<tag k="name" v="Rangvassdalsbekkenn" />
		<tag k="ssr:stedsnr" v="14033" />
		<tag k="waterway" v="stream" />
	</node>
	<node id="-731658" lat="64.2973472198" lon="10.5570638867">
		<tag k="name" v="Bjørndalsbekken" />
		<tag k="ssr:stedsnr" v="458099" />
		<tag k="waterway" v="stream" />
	</node>
	<node id="-732443" lat="64.2296277747" lon="10.7513805638">
		<tag k="name" v="Ljåbekktjønna" />
		<tag k="natural" v="water" />
		<tag k="ssr:stedsnr" v="75691" />
	</node>
	<node id="-732954" lat="64.2744555547" lon="10.6163000079">
		<tag k="name" v="Tausdalsfossen" />
		<tag k="natural" v="waterfall" />
		<tag k="ssr:stedsnr" v="620580" />
	</node>
	<node id="-732953" lat="64.2826944442" lon="10.6933666762">
		<tag k="name" v="Stakkslættvatna" />
		<tag k="natural" v="water" />
		<tag k="ssr:stedsnr" v="620573" />
	</node>
	<node id="-732430" lat="64.2797638921" lon="10.801100001">
		<tag k="name" v="Rørvassfossen" />
		<tag k="natural" v="waterfall" />
		<tag k="ssr:stedsnr" v="75128" />
	</node>
	<node id="-731917" lat="64.2867861073" lon="10.5796750063">
		<tag k="name" v="Skauvåsbekken" />
		<tag k="ssr:stedsnr" v="518602" />
		<tag k="waterway" v="stream" />
	</node>
	<node id="-732940" lat="64.2970333361" lon="10.7789694471">
		<tag k="name" v="Tusskalltjønnin" />
		<tag k="natural" v="water" />
		<tag k="ssr:stedsnr" v="620175" />
	</node>
	<node id="-732939" lat="64.2799333318" lon="10.7240527751">
		<tag k="alt_name" v="Annelibekken" />
		<tag k="name" v="Hølbekken" />
		<tag k="ssr:stedsnr" v="620129" />
		<tag k="waterway" v="stream" />
	</node>
	<node id="-732938" lat="64.2393777776" lon="10.5032999995">
		<tag k="name" v="Pålvatnet" />
		<tag k="natural" v="water" />
		<tag k="ssr:stedsnr" v="620053" />
	</node>
	<node id="-732937" lat="64.2366666668" lon="10.5592305551">
		<tag k="name" v="Killingvatna" />
		<tag k="natural" v="water" />
		<tag k="ssr:stedsnr" v="620050" />
		<tag k="water" v="lake" />
	</node>
	<node id="-732413" lat="64.2471305517" lon="10.9101138982">
		<tag k="name" v="Olvasselva" />
		<tag k="ssr:stedsnr" v="33730" />
		<tag k="waterway" v="river" />
	</node>
	<node id="-732422" lat="64.3316111086" lon="10.7021249921">
		<tag k="name" v="Skrottvatna" />
		<tag k="natural" v="water" />
		<tag k="ssr:stedsnr" v="74520" />
		<tag k="water" v="lake" />
	</node>
	<node id="-732420" lat="64.1958333373" lon="10.6170277763">
		<tag k="name" v="Granholvatnet" />
		<tag k="natural" v="water" />
		<tag k="ssr:stedsnr" v="74500" />
	</node>
	<node id="-732931" lat="64.254280553" lon="10.4297361009">
		<tag k="name" v="Nordelva" />
		<tag k="ssr:stedsnr" v="579651" />
		<tag k="waterway" v="stream" />
	</node>
	<node id="-732418" lat="64.28696111" lon="10.7318749951">
		<tag k="name" v="Haugavatnet" />
		<tag k="natural" v="water" />
		<tag k="ssr:stedsnr" v="75172" />
	</node>
	<node id="-732417" lat="64.2930416663" lon="10.7867499977">
		<tag k="name" v="Rørvatnet" />
		<tag k="natural" v="water" />
		<tag k="ssr:stedsnr" v="75171" />
		<tag k="water" v="lake" />
	</node>
	<node id="-731902" lat="64.2802888876" lon="10.5354805576">
		<tag k="name" v="Sørmelanselva" />
		<tag k="ssr:stedsnr" v="681591" />
		<tag k="waterway" v="stream" />
	</node>
	<node id="-732925" lat="64.2628416646" lon="10.8467611104">
		<tag k="name" v="Skånhaugtjønna" />
		<tag k="natural" v="water" />
		<tag k="ssr:stedsnr" v="579552" />
	</node>
	<node id="-731460" lat="64.2780888918" lon="10.4045694395">
		<tag k="name" v="Kvernhusbekken" />
		<tag k="ssr:stedsnr" v="33103" />
		<tag k="waterway" v="stream" />
	</node>
	<node id="-731543" lat="64.2961361153" lon="10.5086944499">
		<tag k="name" v="Marfossen" />
		<tag k="natural" v="waterfall" />
		<tag k="ssr:stedsnr" v="276642" />
	</node>
	<node id="-732920" lat="64.2293500036" lon="10.9039138788">
		<tag k="name" v="Bjørkvassbekken" />
		<tag k="ssr:stedsnr" v="579486" />
		<tag k="waterway" v="stream" />
	</node>
	<node id="-732917" lat="64.1978861147" lon="10.6885194437">
		<tag k="name" v="Austvassneset" />
		<tag k="natural" v="cape" />
		<tag k="ssr:stedsnr" v="579445" />
	</node>
	<node id="-732403" lat="64.2261833359" lon="10.5899583316">
		<tag k="name" v="Hopstaddalsbekken" />
		<tag k="ssr:stedsnr" v="33686" />
		<tag k="waterway" v="stream" />
	</node>
	<node id="-732914" lat="64.2475250002" lon="10.6416749987">
		<tag k="name" v="Torsteinengbekken" />
		<tag k="ssr:stedsnr" v="579411" />
		<tag k="waterway" v="stream" />
	</node>
	<node id="-732912" lat="64.2403027783" lon="10.6377583269">
		<tag k="name" v="Moengfossen" />
		<tag k="natural" v="waterfall" />
		<tag k="ssr:stedsnr" v="579405" />
	</node>
	<node id="-731886" lat="64.2833638909" lon="10.5671972245">
		<tag k="name" v="Steinsdalselva" />
		<tag k="ssr:stedsnr" v="499533" />
		<tag k="waterway" v="river" />
	</node>
	<node id="-731858" lat="64.2693166691" lon="10.5029194467">
		<tag k="name" v="Fossbekken" />
		<tag k="ssr:stedsnr" v="519372" />
		<tag k="waterway" v="stream" />
	</node>
	<node id="-732903" lat="64.2886861121" lon="10.5604416703">
		<tag k="name" v="Nordmelansfossen" />
		<tag k="natural" v="waterfall" />
		<tag k="ssr:stedsnr" v="579041" />
	</node>
	<node id="-731878" lat="64.2598083302" lon="10.7730416646">
		<tag k="name" v="Anneliskardtjønnin" />
		<tag k="natural" v="water" />
		<tag k="ssr:stedsnr" v="681141" />
	</node>
	<node id="-732389" lat="64.2663638867" lon="10.4634888789">
		<tag k="name" v="Litlvatnet" />
		<tag k="natural" v="water" />
		<tag k="ssr:stedsnr" v="33531" />
		<tag k="water" v="lake" />
	</node>
	<node id="-731873" lat="64.2063027748" lon="10.6873749896">
		<tag k="name" v="Strupen" />
		<tag k="ssr:stedsnr" v="681026" />
		<tag k="waterway" v="rapids" />
	</node>
	<node id="-732382" lat="64.2381861151" lon="10.8816916742">
		<tag k="name" v="Svarttjønna" />
		<tag k="natural" v="water" />
		<tag k="ssr:stedsnr" v="33483" />
	</node>
	<node id="-732381" lat="64.2606416624" lon="10.8286388824">
		<tag k="name" v="Stordalsbekken" />
		<tag k="ssr:stedsnr" v="33480" />
		<tag k="waterway" v="stream" />
	</node>
	<node id="-732379" lat="64.2018138899" lon="10.6850972142">
		<tag k="name" v="Luna" />
		<tag k="natural" v="water" />
		<tag k="ssr:stedsnr" v="33475" />
		<tag k="water" v="lake" />
	</node>
	<node id="-731865" lat="64.2547388896" lon="10.9097749974">
		<tag k="name" v="Olavsstangen" />
		<tag k="natural" v="cape" />
		<tag k="ssr:stedsnr" v="519469" />
	</node>
	<node id="-731864" lat="64.2608444423" lon="10.6105055638">
		<tag k="name" v="Killingbekken" />
		<tag k="ssr:stedsnr" v="519459" />
		<tag k="waterway" v="stream" />
	</node>
	<node id="-732374" lat="64.2346083301" lon="10.6123416563">
		<tag k="name" v="Urdbekken" />
		<tag k="ssr:stedsnr" v="33446" />
		<tag k="waterway" v="stream" />
	</node>
	<node id="-732884" lat="64.2209333297" lon="10.7524805488">
		<tag k="name" v="Kangsvatnet" />
		<tag k="natural" v="water" />
		<tag k="ssr:stedsnr" v="560646" />
		<tag k="water" v="lake" />
	</node>
	<node id="-731859" lat="64.239727776" lon="10.8977388957">
		<tag k="name" v="Langtjønna" />
		<tag k="natural" v="water" />
		<tag k="ssr:stedsnr" v="519430" />
	</node>
	<node id="-732370" lat="64.3443166669" lon="10.6050361042">
		<tag k="name" v="Sirielva" />
		<tag k="ssr:stedsnr" v="33425" />
		<tag k="waterway" v="river" />
	</node>
	<node id="-732881" lat="64.2896333369" lon="10.7433805612">
		<tag k="name" v="Langvassdalsvatnet" />
		<tag k="natural" v="water" />
		<tag k="ssr:stedsnr" v="560163" />
	</node>
	<node id="-732024" lat="64.2486694456" lon="10.8308527715">
		<tag k="name" v="Sandvatnet" />
		<tag k="natural" v="water" />
		<tag k="ssr:stedsnr" v="681759" />
		<tag k="water" v="lake" />
	</node>
	<node id="-732878" lat="64.2434083327" lon="10.7896972254">
		<tag k="name" v="Annfinntjønna" />
>>>>>>> e1d4bc35ff8a6074a6f2e91616a996b547c36f15
		<tag k="natural" v="water" />
		<tag k="ssr:stedsnr" v="559738" />
	</node>
<<<<<<< HEAD
	<node lat="64.27610000017907" lon="10.460386113177032" id="-34469">
		<tag k="name" v="Blåfjelltjønna" />
		<tag k="natural" v="water" />
		<tag k="ssr:stedsnr" v="154651" />
	</node>
	<node lat="64.26193333197119" lon="10.616608336877487" id="-34474">
		<tag k="name" v="Teberøya" />
		<tag k="place" v="islet" />
		<tag k="ssr:stedsnr" v="154770" />
	</node>
	<node lat="64.28180833296886" lon="10.653980565204442" id="-34522">
		<tag k="name" v="Smørdalsfossen" />
		<tag k="natural" v="waterfall" />
		<tag k="ssr:stedsnr" v="215350" />
	</node>
	<node lat="64.28028610907721" lon="10.696944437315679" id="-34527">
		<tag k="name" v="Inner Stakkslættvatnet" />
		<tag k="natural" v="water" />
		<tag k="ssr:stedsnr" v="215322" />
		<tag k="water" v="lake" />
	</node>
	<node lat="64.27206388700807" lon="10.74581110081301" id="-34538">
		<tag k="name" v="Annelineset" />
		<tag k="natural" v="cape" />
		<tag k="old_name" v="Annelinese" />
		<tag k="ssr:stedsnr" v="215442" />
	</node>
	<node lat="64.29161111334601" lon="10.62200833508287" id="-34540">
		<tag k="name" v="Skautjønna" />
		<tag k="natural" v="water" />
		<tag k="ssr:stedsnr" v="215463" />
	</node>
	<node lat="64.26428610973545" lon="10.712950009007274" id="-34543">
		<tag k="name" v="Hyttelibekken" />
		<tag k="ssr:stedsnr" v="215539" />
		<tag k="waterway" v="stream" />
	</node>
	<node lat="64.21490555559404" lon="10.596519440151408" id="-34575">
		<tag k="name" v="Damtjønnbekken" />
		<tag k="ssr:stedsnr" v="276482" />
		<tag k="waterway" v="stream" />
	</node>
	<node lat="64.36744999782304" lon="10.665241664805679" id="-34578">
		<tag k="name" v="Ervikelva" />
		<tag k="ssr:stedsnr" v="276350" />
		<tag k="waterway" v="river" />
	</node>
	<node lat="64.33526111007143" lon="10.518299991777228" id="-34580">
		<tag k="name" v="Hopavatnet" />
		<tag k="natural" v="water" />
		<tag k="ssr:stedsnr" v="276366" />
		<tag k="water" v="lake" />
	</node>
	<node lat="64.27358333314325" lon="10.762272224643565" id="-34587">
		<tag k="name" v="Finnkrubekken" />
		<tag k="ssr:stedsnr" v="276548" />
		<tag k="waterway" v="stream" />
	</node>
	<node lat="64.29613611532284" lon="10.508694449897764" id="-34601">
		<tag k="name" v="Marfossen" />
		<tag k="natural" v="waterfall" />
		<tag k="ssr:stedsnr" v="276642" />
	</node>
	<node lat="64.24044722244726" lon="10.757483325051346" id="-34613">
		<tag k="name" v="Inner Almlifossen" />
		<tag k="natural" v="waterfall" />
		<tag k="ssr:stedsnr" v="276751" />
	</node>
	<node lat="64.23983055164273" lon="10.750536113557768" id="-34614">
		<tag k="name" v="Øyan" />
		<tag k="place" v="islet" />
		<tag k="ssr:stedsnr" v="276752" />
	</node>
	<node lat="64.21788888857957" lon="10.754713895074211" id="-34615">
		<tag k="name" v="Fiskvika" />
		<tag k="natural" v="bay" />
		<tag k="ssr:stedsnr" v="276754" />
	</node>
	<node lat="64.30555000205655" lon="10.675186111595623" id="-34617">
		<tag k="name" v="Øver Kringlåtvatnet" />
		<tag k="natural" v="water" />
		<tag k="ssr:stedsnr" v="276768" />
		<tag k="water" v="lake" />
	</node>
	<node lat="64.18793333354627" lon="10.611050008440317" id="-34621">
		<tag k="name" v="Vestre Geilvatnet" />
		<tag k="natural" v="water" />
		<tag k="ssr:stedsnr" v="317429" />
		<tag k="water" v="lake" />
	</node>
	<node lat="64.25176944346013" lon="10.523022212308822" id="-34623">
		<tag k="name" v="Staurtjønna" />
		<tag k="natural" v="water" />
		<tag k="ssr:stedsnr" v="317386" />
	</node>
	<node lat="64.32532778054758" lon="10.659216666831169" id="-34629">
		<tag k="name" v="Svestjønna" />
		<tag k="natural" v="water" />
		<tag k="ssr:stedsnr" v="317480" />
	</node>
	<node lat="64.35061388664415" lon="10.550852780683126" id="-34633">
		<tag k="name" v="Sørmarktjønnin" />
		<tag k="natural" v="water" />
		<tag k="ssr:stedsnr" v="317659" />
	</node>
	<node lat="64.24281110765048" lon="10.880102780881915" id="-34638">
		<tag k="alt_name" v="Inner Vassdølin;Vassdølin, indre" />
		<tag k="name" v="Indre Vassdølin" />
		<tag k="natural" v="water" />
		<tag k="ssr:stedsnr" v="317677" />
		<tag k="water" v="lake" />
	</node>
	<node lat="64.27595555245237" lon="10.664750008744296" id="-34667">
		<tag k="name" v="Granlibekken" />
		<tag k="ssr:stedsnr" v="337081" />
		<tag k="waterway" v="stream" />
	</node>
	<node lat="64.34056944320511" lon="10.471608343566706" id="-34669">
		<tag k="name" v="Vingsandvatnet" />
		<tag k="natural" v="water" />
		<tag k="ssr:stedsnr" v="337321" />
		<tag k="water" v="lake" />
	</node>
	<node lat="64.18974166371629" lon="10.707849991198685" id="-34673">
		<tag k="name" v="Kalvhøyneset" />
		<tag k="natural" v="cape" />
		<tag k="ssr:stedsnr" v="337344" />
	</node>
	<node lat="64.24669444394807" lon="10.606216659529393" id="-34691">
		<tag k="name" v="Hornvatnet" />
		<tag k="natural" v="water" />
		<tag k="ssr:stedsnr" v="377035" />
	</node>
	<node lat="64.30800555264261" lon="10.58121111875742" id="-34693">
		<tag k="alt_name" v="Bjørndalsvatna, nordre" />
		<tag k="name" v="Nordre Bjørndalsvatna" />
		<tag k="natural" v="water" />
		<tag k="ssr:stedsnr" v="377531" />
	</node>
	<node lat="64.25288611103458" lon="10.447722215815904" id="-34695">
		<tag k="name" v="Mørkdalstjønna" />
		<tag k="natural" v="water" />
		<tag k="ssr:stedsnr" v="377424" />
	</node>
	<node lat="64.19708055424039" lon="10.633600003695785" id="-34696">
		<tag k="name" v="Øystre Geilvatnet" />
		<tag k="natural" v="water" />
		<tag k="ssr:stedsnr" v="377488" />
		<tag k="water" v="lake" />
	</node>
	<node lat="64.26893888550114" lon="10.689197222090893" id="-34702">
		<tag k="name" v="Kjølavatnet" />
		<tag k="natural" v="water" />
		<tag k="ssr:stedsnr" v="377604" />
	</node>
	<node lat="64.28639721789935" lon="10.595675009930632" id="-34713">
		<tag k="name" v="Svarttjønna" />
		<tag k="natural" v="water" />
		<tag k="ssr:stedsnr" v="378611" />
	</node>
	<node lat="64.27053610916171" lon="10.48837499732387" id="-34716">
		<tag k="name" v="Lindsetvatnet" />
		<tag k="natural" v="water" />
		<tag k="ssr:stedsnr" v="378639" />
		<tag k="water" v="lake" />
	</node>
	<node lat="64.23149721863511" lon="10.740611107247435" id="-34718">
		<tag k="name" v="Høveltjønna" />
		<tag k="natural" v="water" />
		<tag k="ssr:stedsnr" v="378658" />
	</node>
	<node lat="64.28886111485444" lon="10.484322226241785" id="-34726">
		<tag k="name" v="Pervikbekken" />
		<tag k="ssr:stedsnr" v="397001" />
		<tag k="waterway" v="stream" />
	</node>
	<node lat="64.25466111537044" lon="10.707877780676577" id="-34730">
		<tag k="name" v="Blomstertjønna" />
		<tag k="natural" v="water" />
		<tag k="ssr:stedsnr" v="397404" />
	</node>
	<node lat="64.22605555425179" lon="10.906922230929464" id="-34743">
		<tag k="name" v="Bjørkvatnet" />
		<tag k="natural" v="water" />
		<tag k="ssr:stedsnr" v="397451" />
		<tag k="water" v="lake" />
	</node>
	<node lat="64.25072777827353" lon="10.819402773775979" id="-34744">
		<tag k="name" v="Langtangen" />
		<tag k="natural" v="cape" />
		<tag k="ssr:stedsnr" v="397457" />
	</node>
	<node lat="64.22519166346196" lon="10.80151110840647" id="-34751">
		<tag k="name" v="Rundførrubakktjønna" />
		<tag k="ssr:stedsnr" v="397710" />
		<tag k="waterway" v="stream" />
	</node>
	<node lat="64.18604444411406" lon="10.68536389684281" id="-34753">
		<tag k="name" v="Vakkerlibekken" />
		<tag k="ssr:stedsnr" v="397724" />
		<tag k="waterway" v="stream" />
	</node>
	<node lat="64.22098055485124" lon="10.682433333907241" id="-34754">
		<tag k="name" v="Storfossen" />
		<tag k="natural" v="waterfall" />
		<tag k="ssr:stedsnr" v="397725" />
	</node>
	<node lat="64.25250833571077" lon="10.5679111115184" id="-34756">
		<tag k="name" v="Killingbekken" />
		<tag k="ssr:stedsnr" v="397639" />
		<tag k="waterway" v="stream" />
	</node>
	<node lat="64.23579722111123" lon="10.84516110468782" id="-34763">
		<tag k="alt_name" v="Vassdølin, fremre;Fremmer Vassdølin" />
		<tag k="name" v="Fremre Vassdølin" />
		<tag k="natural" v="water" />
		<tag k="ssr:stedsnr" v="439626" />
		<tag k="water" v="lake" />
	</node>
	<node lat="64.30068611290409" lon="10.640308333307363" id="-34776">
		<tag k="name" v="Gammelsetertjønna" />
		<tag k="natural" v="water" />
		<tag k="ssr:stedsnr" v="439544" />
	</node>
	<node lat="64.28823333004165" lon="10.614627772931797" id="-34779">
		<tag k="name" v="Skautjønna" />
		<tag k="natural" v="water" />
		<tag k="ssr:stedsnr" v="439568" />
	</node>
	<node lat="64.27864999880819" lon="10.574180548809888" id="-34781">
		<tag k="name" v="Liøya" />
		<tag k="place" v="islet" />
		<tag k="ssr:stedsnr" v="439586" />
	</node>
	<node lat="64.28336389085634" lon="10.56719722448225" id="-34788">
		<tag k="name" v="Steinsdalselva" />
		<tag k="ssr:stedsnr" v="499533" />
		<tag k="waterway" v="river" />
	</node>
	<node lat="64.35367221822753" lon="10.572149989686048" id="-34792">
		<tag k="name" v="Sirivatnet" />
		<tag k="natural" v="water" />
		<tag k="ssr:stedsnr" v="499676" />
	</node>
	<node lat="64.23222777813199" lon="10.672011101980178" id="-34816">
		<tag k="name" v="Melabekken" />
		<tag k="ssr:stedsnr" v="518683" />
		<tag k="waterway" v="stream" />
	</node>
	<node lat="64.23972777603616" lon="10.897738895691036" id="-34827">
		<tag k="name" v="Langtjønna" />
		<tag k="natural" v="water" />
		<tag k="ssr:stedsnr" v="519430" />
	</node>
	<node lat="64.22721666417964" lon="10.508113894121182" id="-34835">
		<tag k="name" v="Blåheitjønna" />
		<tag k="natural" v="water" />
		<tag k="ssr:stedsnr" v="519598" />
	</node>
	<node lat="64.39335833709956" lon="10.597469435263521" id="-34837">
		<tag k="name" v="Drageidvatnet" />
		<tag k="natural" v="water" />
		<tag k="ssr:stedsnr" v="519727" />
		<tag k="water" v="lake" />
	</node>
	<node lat="64.22561388984009" lon="10.558052771552882" id="-34839">
		<tag k="name" v="Finnmortentjønna" />
		<tag k="natural" v="water" />
		<tag k="ssr:stedsnr" v="559065" />
	</node>
	<node lat="64.2530527776342" lon="10.529902783947456" id="-34841">
		<tag k="name" v="Rosskardtjønna" />
		<tag k="natural" v="water" />
		<tag k="ssr:stedsnr" v="559421" />
	</node>
	<node lat="64.30731388828181" lon="10.561197231838552" id="-34846">
		<tag k="name" v="Seterbekken" />
		<tag k="ssr:stedsnr" v="559534" />
		<tag k="waterway" v="stream" />
	</node>
	<node lat="64.33937221795969" lon="10.689974993565462" id="-34850">
		<tag k="alt_name" v="Svesvatnet" />
		<tag k="name" v="Svestjønna" />
		<tag k="natural" v="water" />
		<tag k="ssr:stedsnr" v="559734" />
	</node>
	<node lat="64.21739166975009" lon="10.863002787556972" id="-34851">
		<tag k="name" v="Fiskløysvatnet" />
		<tag k="natural" v="water" />
		<tag k="ssr:stedsnr" v="559681" />
	</node>
	<node lat="64.28963333688944" lon="10.743380561192458" id="-34856">
		<tag k="name" v="Langvassdalsvatnet" />
		<tag k="natural" v="water" />
		<tag k="ssr:stedsnr" v="560163" />
	</node>
	<node lat="64.2209333297479" lon="10.752480548801435" id="-34857">
		<tag k="name" v="Kangsvatnet" />
		<tag k="natural" v="water" />
		<tag k="ssr:stedsnr" v="560646" />
		<tag k="water" v="lake" />
	</node>
	<node lat="64.2755388857246" lon="10.628694448126629" id="-34858">
		<tag k="name" v="Skippelva" />
		<tag k="ssr:stedsnr" v="560611" />
		<tag k="waterway" v="river" />
	</node>
	<node lat="64.26930555710598" lon="10.448313884252032" id="-34860">
		<tag k="name" v="Setransvatna" />
		<tag k="natural" v="water" />
		<tag k="ssr:stedsnr" v="560615" />
		<tag k="water" v="lake" />
	</node>
	<node lat="64.24752500020378" lon="10.641674998701419" id="-34889">
		<tag k="name" v="Torsteinengbekken" />
		<tag k="ssr:stedsnr" v="579411" />
		<tag k="waterway" v="stream" />
	</node>
	<node lat="64.21856110676835" lon="10.614547215640627" id="-34891">
		<tag k="name" v="Heimdalsbekken" />
		<tag k="ssr:stedsnr" v="579453" />
		<tag k="waterway" v="stream" />
	</node>
	<node lat="64.2293500035678" lon="10.903913878833347" id="-34894">
		<tag k="name" v="Bjørkvassbekken" />
		<tag k="ssr:stedsnr" v="579486" />
		<tag k="waterway" v="stream" />
	</node>
	<node lat="64.2508749996198" lon="10.670863882035041" id="-34898">
		<tag k="name" v="Torsteinengbekken" />
		<tag k="ssr:stedsnr" v="579740" />
		<tag k="waterway" v="stream" />
	</node>
	<node lat="64.18378610737373" lon="10.695119436988696" id="-34901">
		<tag k="name" v="Middagsheibekken" />
		<tag k="ssr:stedsnr" v="579747" />
		<tag k="waterway" v="stream" />
	</node>
	<node lat="64.23666666678383" lon="10.559230555110561" id="-34910">
		<tag k="name" v="Killingvatna" />
		<tag k="natural" v="water" />
		<tag k="ssr:stedsnr" v="620050" />
		<tag k="water" v="lake" />
	</node>
	<node lat="64.23937777759029" lon="10.50329999948149" id="-34911">
		<tag k="name" v="Pålvatnet" />
		<tag k="natural" v="water" />
		<tag k="ssr:stedsnr" v="620053" />
	</node>
	<node lat="64.27993333179113" lon="10.724052775149483" id="-34912">
		<tag k="alt_name" v="Annelibekken" />
		<tag k="name" v="Hølbekken" />
		<tag k="ssr:stedsnr" v="620129" />
		<tag k="waterway" v="stream" />
	</node>
	<node lat="64.2744555547496" lon="10.61630000792245" id="-34922">
		<tag k="name" v="Tausdalsfossen" />
		<tag k="natural" v="waterfall" />
		<tag k="ssr:stedsnr" v="620580" />
	</node>
	<node lat="64.30028888499261" lon="10.508436102842078" id="-34940">
		<tag k="name" v="Grovla" />
		<tag k="ssr:stedsnr" v="639264" />
		<tag k="waterway" v="river" />
	</node>
	<node lat="64.32180277411334" lon="10.530888892183109" id="-34945">
		<tag k="name" v="Reveggtjønna" />
		<tag k="natural" v="water" />
		<tag k="ssr:stedsnr" v="639673" />
	</node>
	<node lat="64.29356388740611" lon="10.726241664368677" id="-34957">
		<tag k="name" v="Igeltjønna" />
		<tag k="natural" v="water" />
		<tag k="ssr:stedsnr" v="640338" />
	</node>
	<node lat="64.1965611091864" lon="10.685488880954706" id="-34971">
		<tag k="name" v="Kvennlandssetertjønna" />
		<tag k="natural" v="water" />
		<tag k="ssr:stedsnr" v="742468" />
	</node>
	<node lat="64.33116388527628" lon="10.52641666911615" id="-34972">
		<tag k="name" v="Hopavatnet" />
		<tag k="natural" v="water" />
		<tag k="ssr:stedsnr" v="742472" />
	</node>
	<node lat="64.2767277807218" lon="10.68320833652455" id="-34976">
		<tag k="name" v="Tåmåslivatnet" />
		<tag k="natural" v="water" />
		<tag k="ssr:stedsnr" v="742570" />
	</node>
	<node lat="64.23873888658665" lon="10.724211111390265" id="-34993">
		<tag k="name" v="Fremmer Skarvåsfossen" />
		<tag k="natural" v="waterfall" />
		<tag k="ssr:stedsnr" v="761400" />
	</node>
	<node lat="64.26003333278163" lon="10.710786111404966" id="-34997">
		<tag k="name" v="Litlfjøsvatnet" />
		<tag k="natural" v="water" />
		<tag k="ssr:stedsnr" v="761068" />
		<tag k="water" v="lake" />
	</node>
	<node lat="64.22130000366056" lon="10.596202770327329" id="-35002">
		<tag k="name" v="Geilbekken" />
		<tag k="old_name" v="Geilbekkem" />
		<tag k="ssr:stedsnr" v="761173" />
		<tag k="waterway" v="stream" />
	</node>
	<node lat="64.26456389069362" lon="10.698961113460625" id="-35010">
		<tag k="name" v="Åseggfjøsvatnet" />
		<tag k="natural" v="water" />
		<tag k="ssr:stedsnr" v="761335" />
		<tag k="water" v="lake" />
	</node>
	<node lat="64.24194444018882" lon="10.911358325987248" id="-35014">
		<tag k="name" v="Klokkartjønna" />
		<tag k="natural" v="water" />
		<tag k="ssr:stedsnr" v="761478" />
	</node>
	<node lat="64.30394444219428" lon="10.52344999876277" id="-35026">
		<tag k="name" v="Nordelva" />
		<tag k="ssr:stedsnr" v="761683" />
		<tag k="waterway" v="river" />
	</node>
	<node lat="64.25717500192717" lon="10.634116666328765" id="-35031">
		<tag k="name" v="Skolengsbekken" />
		<tag k="ssr:stedsnr" v="761769" />
		<tag k="waterway" v="stream" />
	</node>
	<node lat="64.32181388866513" lon="10.598805560785667" id="-35033">
		<tag k="name" v="Vallskiftbekken" />
		<tag k="ssr:stedsnr" v="761777" />
		<tag k="waterway" v="stream" />
	</node>
	<node lat="64.27705833335712" lon="10.845102769913499" id="-35038">
		<tag k="name" v="Skånbekken" />
		<tag k="ssr:stedsnr" v="803120" />
		<tag k="waterway" v="stream" />
	</node>
	<node lat="64.2775555543008" lon="10.722583343103132" id="-35039">
		<tag k="alt_name" v="Ratlitjønnin" />
		<tag k="name" v="Ratlitjønna" />
		<tag k="natural" v="water" />
		<tag k="ssr:stedsnr" v="803132" />
	</node>
	<node lat="64.2567749999686" lon="10.901344446057577" id="-35040">
		<tag k="name" v="Olvatnet" />
		<tag k="natural" v="water" />
		<tag k="ssr:stedsnr" v="803142" />
		<tag k="water" v="lake" />
	</node>
	<node lat="64.26962499795964" lon="10.74315555384338" id="-35041">
		<tag k="name" v="Blomstertjønna" />
		<tag k="natural" v="water" />
		<tag k="ssr:stedsnr" v="803144" />
	</node>
	<node lat="64.26710000334751" lon="10.895050002590036" id="-35042">
		<tag k="name" v="Langvasselva" />
		<tag k="ssr:stedsnr" v="803146" />
		<tag k="waterway" v="stream" />
	</node>
	<node lat="64.23950277761564" lon="10.897186113783722" id="-35054">
		<tag k="name" v="Klokkartjønna" />
		<tag k="natural" v="water" />
		<tag k="ssr:stedsnr" v="803637" />
	</node>
	<node lat="64.25545833309054" lon="10.699338886799419" id="-35061">
		<tag k="name" v="Lauritstangen" />
		<tag k="natural" v="cape" />
		<tag k="ssr:stedsnr" v="822390" />
	</node>
	<node lat="64.26575832918522" lon="10.498633339958133" id="-35063">
		<tag k="name" v="Størsgrovbekken" />
		<tag k="ssr:stedsnr" v="822409" />
		<tag k="waterway" v="stream" />
	</node>
	<node lat="64.2830583339808" lon="10.692069454101073" id="-35066">
		<tag k="name" v="Fremmer Stakkslættvatnet" />
		<tag k="natural" v="water" />
		<tag k="ssr:stedsnr" v="822749" />
		<tag k="water" v="lake" />
	</node>
	<node lat="64.28311388977748" lon="10.746347228865192" id="-35080">
		<tag k="name" v="Skjetndalsbekken" />
		<tag k="ssr:stedsnr" v="822436" />
		<tag k="waterway" v="stream" />
	</node>
	<node lat="64.21341388750146" lon="10.779669452239562" id="-35083">
		<tag k="name" v="Essbekken" />
		<tag k="ssr:stedsnr" v="822490" />
		<tag k="waterway" v="stream" />
	</node>
	<node lat="64.27559722613958" lon="10.699633324170366" id="-35091">
		<tag k="name" v="Lomtjønna" />
		<tag k="natural" v="water" />
		<tag k="ssr:stedsnr" v="822550" />
	</node>
	<node lat="64.31239444713678" lon="10.553708331604495" id="-35094">
		<tag k="name" v="Slåttfossen" />
		<tag k="natural" v="waterfall" />
		<tag k="ssr:stedsnr" v="822677" />
	</node>
	<node lat="64.2401583333302" lon="10.687958340335875" id="-35101">
		<tag k="name" v="Rokkelneset" />
		<tag k="natural" v="cape" />
		<tag k="ssr:stedsnr" v="863056" />
	</node>
	<node lat="64.36128055219221" lon="10.695027782867394" id="-35105">
		<tag k="name" v="Steinsetervatnet" />
		<tag k="natural" v="water" />
		<tag k="ssr:stedsnr" v="863726" />
	</node>
	<node lat="64.30187221935425" lon="10.676555552158536" id="-35159">
		<tag k="name" v="Ner Kringlåtvatnet" />
		<tag k="natural" v="water" />
		<tag k="ssr:stedsnr" v="883774" />
		<tag k="water" v="lake" />
	</node>
	<node lat="64.27947499970645" lon="10.653552773582993" id="-35160">
		<tag k="name" v="Hattaneset" />
		<tag k="natural" v="cape" />
		<tag k="ssr:stedsnr" v="883782" />
	</node>
	<node lat="64.27362778205645" lon="10.612766660775549" id="-35161">
		<tag k="name" v="Sagfossen" />
		<tag k="natural" v="waterfall" />
		<tag k="ssr:stedsnr" v="883789" />
	</node>
	<node lat="64.31483611215731" lon="10.530622224402977" id="-35165">
		<tag k="name" v="Reveggbekken" />
		<tag k="ssr:stedsnr" v="943635" />
		<tag k="waterway" v="stream" />
	</node>
	<node lat="64.27114444438331" lon="10.591086101840283" id="-35171">
		<tag k="name" v="Torvøya" />
		<tag k="place" v="islet" />
		<tag k="ssr:stedsnr" v="943712" />
	</node>
	<node lat="64.28838888747728" lon="10.722811115490044" id="-35176">
		<tag k="name" v="Haugvassbekken" />
		<tag k="ssr:stedsnr" v="943673" />
		<tag k="waterway" v="stream" />
	</node>
	<node lat="64.33562778115089" lon="10.676788887457665" id="-35205">
		<tag k="name" v="Setertjønna" />
		<tag k="natural" v="water" />
		<tag k="ssr:stedsnr" v="944734" />
	</node>
	<node lat="64.25406666974905" lon="10.643427785446097" id="-35206">
		<tag k="name" v="Svarttjønna" />
		<tag k="natural" v="water" />
		<tag k="ssr:stedsnr" v="944410" />
=======
	<node id="-732876" lat="64.339372218" lon="10.6899749936">
		<tag k="alt_name" v="Svesvatnet" />
		<tag k="name" v="Svestjønna" />
		<tag k="natural" v="water" />
		<tag k="ssr:stedsnr" v="559734" />
	</node>
	<node id="-732362" lat="64.2535083365" lon="10.6611861138">
		<tag k="name" v="Larsengdalsbekken" />
		<tag k="ssr:stedsnr" v="33375" />
		<tag k="waterway" v="stream" />
	</node>
	<node id="-732873" lat="64.2173916698" lon="10.8630027876">
		<tag k="name" v="Fiskløysvatnet" />
		<tag k="natural" v="water" />
		<tag k="ssr:stedsnr" v="559681" />
	</node>
	<node id="-731847" lat="64.262041665" lon="10.6921138975">
		<tag k="name" v="Litlfjøsvassbekken" />
		<tag k="ssr:stedsnr" v="519280" />
		<tag k="waterway" v="stream" />
	</node>
	<node id="-732870" lat="64.3073138883" lon="10.5611972318">
		<tag k="name" v="Seterbekken" />
		<tag k="ssr:stedsnr" v="559534" />
		<tag k="waterway" v="stream" />
	</node>
	<node id="-732172" lat="64.2754722226" lon="10.6343277813">
		<tag k="name" v="Tverbekken" />
		<tag k="ssr:stedsnr" v="822425" />
		<tag k="waterway" v="stream" />
	</node>
	<node id="-732866" lat="64.2256138898" lon="10.5580527716">
		<tag k="name" v="Finnmortentjønna" />
		<tag k="natural" v="water" />
		<tag k="ssr:stedsnr" v="559065" />
	</node>
	<node id="-732192" lat="64.2711444444" lon="10.5910861018">
		<tag k="name" v="Torvøya" />
		<tag k="place" v="islet" />
		<tag k="ssr:stedsnr" v="943712" />
	</node>
	<node id="-732350" lat="64.2831722219" lon="10.6807777841">
		<tag k="name" v="Krokvadet" />
		<tag k="natural" v="cape" />
		<tag k="ssr:stedsnr" v="33309" />
	</node>
	<node id="-732727" lat="64.3405694432" lon="10.4716083436">
		<tag k="name" v="Vingsandvatnet" />
		<tag k="natural" v="water" />
		<tag k="ssr:stedsnr" v="337321" />
		<tag k="water" v="lake" />
	</node>
	<node id="-732346" lat="64.3095944477" lon="10.7016916572">
		<tag k="name" v="Andalslivatnet" />
		<tag k="natural" v="water" />
		<tag k="ssr:stedsnr" v="33033" />
		<tag k="water" v="lake" />
	</node>
	<node id="-731833" lat="64.2322277781" lon="10.672011102">
		<tag k="name" v="Melabekken" />
		<tag k="ssr:stedsnr" v="518683" />
		<tag k="waterway" v="stream" />
	</node>
	<node id="-731828" lat="64.3110305526" lon="10.5689888862">
		<tag k="name" v="Fossan" />
		<tag k="natural" v="waterfall" />
		<tag k="ssr:stedsnr" v="518610" />
	</node>
	<node id="-732845" lat="64.2209805549" lon="10.6824333339">
		<tag k="name" v="Storfossen" />
		<tag k="natural" v="waterfall" />
		<tag k="ssr:stedsnr" v="397725" />
	</node>
	<node id="-732844" lat="64.1860444441" lon="10.6853638968">
		<tag k="name" v="Vakkerlibekken" />
		<tag k="ssr:stedsnr" v="397724" />
		<tag k="waterway" v="stream" />
	</node>
	<node id="-732842" lat="64.2251916635" lon="10.8015111084">
		<tag k="name" v="Rundførrubakktjønna" />
		<tag k="ssr:stedsnr" v="397710" />
		<tag k="waterway" v="stream" />
	</node>
	<node id="-732327" lat="64.2999611137" lon="10.582300004">
		<tag k="name" v="Bjørndalsvatnet" />
		<tag k="natural" v="water" />
		<tag k="ssr:stedsnr" v="14496" />
	</node>
	<node id="-732326" lat="64.2939083357" lon="10.5773666731">
		<tag k="name" v="Grytelva" />
		<tag k="ssr:stedsnr" v="14491" />
		<tag k="waterway" v="stream" />
	</node>
	<node id="-732325" lat="64.3049583326" lon="10.6743861165">
		<tag k="name" v="Kringlåtvatna" />
		<tag k="natural" v="water" />
		<tag k="ssr:stedsnr" v="14488" />
	</node>
	<node id="-732833" lat="64.2525083357" lon="10.5679111115">
		<tag k="name" v="Killingbekken" />
		<tag k="ssr:stedsnr" v="397639" />
		<tag k="waterway" v="stream" />
	</node>
	<node id="-732318" lat="64.1852305538" lon="10.6367722149">
		<tag k="name" v="Fremmerelgsjøen" />
		<tag k="natural" v="water" />
		<tag k="ssr:stedsnr" v="14394" />
		<tag k="water" v="lake" />
	</node>
	<node id="-732315" lat="64.1675250008" lon="10.5993527789">
		<tag k="name" v="Finnvatnet" />
		<tag k="natural" v="water" />
		<tag k="ssr:stedsnr" v="14348" />
	</node>
	<node id="-732313" lat="64.2936305549" lon="10.7348722154">
		<tag k="name" v="Holman" />
		<tag k="place" v="locality" />
		<tag k="ssr:stedsnr" v="14159" />
	</node>
	<node id="-732821" lat="64.2507277783" lon="10.8194027738">
		<tag k="name" v="Langtangen" />
		<tag k="natural" v="cape" />
		<tag k="ssr:stedsnr" v="397457" />
	</node>
	<node id="-732820" lat="64.2260555543" lon="10.9069222309">
		<tag k="name" v="Bjørkvatnet" />
		<tag k="natural" v="water" />
		<tag k="ssr:stedsnr" v="397451" />
		<tag k="water" v="lake" />
	</node>
	<node id="-732819" lat="64.3377027802" lon="10.6014444459">
		<tag k="name" v="Vingelva" />
		<tag k="ssr:stedsnr" v="397445" />
		<tag k="waterway" v="river" />
	</node>
	<node id="-732306" lat="64.3481305591" lon="10.5775083322">
		<tag k="name" v="Tømmerskardvatnet" />
		<tag k="natural" v="water" />
		<tag k="ssr:stedsnr" v="13735" />
	</node>
	<node id="-732816" lat="64.2546611154" lon="10.7078777807">
		<tag k="name" v="Blomstertjønna" />
		<tag k="natural" v="water" />
		<tag k="ssr:stedsnr" v="397404" />
	</node>
	<node id="-731672" lat="64.3710944432" lon="10.6342305608">
		<tag k="name" v="Holandsbekken" />
		<tag k="ssr:stedsnr" v="458357" />
		<tag k="waterway" v="stream" />
	</node>
	<node id="-731790" lat="64.3536722182" lon="10.5721499897">
		<tag k="name" v="Sirivatnet" />
		<tag k="natural" v="water" />
		<tag k="ssr:stedsnr" v="499676" />
	</node>
	<node id="-731789" lat="64.3238944413" lon="10.4980416731">
		<tag k="name" v="Høvikvatnet" />
		<tag k="natural" v="water" />
		<tag k="ssr:stedsnr" v="499447" />
	</node>
	<node id="-732810" lat="64.2338749999" lon="10.8499888968">
		<tag k="name" v="Levassbekken" />
		<tag k="ssr:stedsnr" v="397295" />
		<tag k="waterway" v="stream" />
	</node>
	<node id="-732807" lat="64.2382083375" lon="10.6663333336">
		<tag k="name" v="Luna" />
		<tag k="ssr:stedsnr" v="397278" />
		<tag k="waterway" v="river" />
	</node>
	<node id="-732886" lat="64.2693055571" lon="10.4483138843">
		<tag k="name" v="Setransvatna" />
		<tag k="natural" v="water" />
		<tag k="ssr:stedsnr" v="560615" />
		<tag k="water" v="lake" />
	</node>
	<node id="-731776" lat="64.2689388855" lon="10.6891972221">
		<tag k="name" v="Kjølavatnet" />
		<tag k="natural" v="water" />
		<tag k="ssr:stedsnr" v="377604" />
	</node>
	<node id="-731774" lat="64.2466944439" lon="10.6062166595">
		<tag k="name" v="Hornvatnet" />
		<tag k="natural" v="water" />
		<tag k="ssr:stedsnr" v="377035" />
	</node>
	<node id="-732795" lat="64.2888611149" lon="10.4843222262">
		<tag k="name" v="Pervikbekken" />
		<tag k="ssr:stedsnr" v="397001" />
		<tag k="waterway" v="stream" />
	</node>
	<node id="-731616" lat="64.2786499988" lon="10.5741805488">
		<tag k="name" v="Liøya" />
		<tag k="place" v="islet" />
		<tag k="ssr:stedsnr" v="439586" />
	</node>
	<node id="-731497" lat="64.2658555554" lon="10.855344444">
		<tag k="name" v="Skåna" />
		<tag k="natural" v="water" />
		<tag k="ssr:stedsnr" v="135141" />
		<tag k="water" v="lake" />
	</node>
	<node id="-732276" lat="64.3018722194" lon="10.6765555522">
		<tag k="name" v="Ner Kringlåtvatnet" />
		<tag k="natural" v="water" />
		<tag k="ssr:stedsnr" v="883774" />
		<tag k="water" v="lake" />
	</node>
	<node id="-732781" lat="64.2314972186" lon="10.7406111072">
		<tag k="name" v="Høveltjønna" />
		<tag k="natural" v="water" />
		<tag k="ssr:stedsnr" v="378658" />
	</node>
	<node id="-732779" lat="64.2705361092" lon="10.4883749973">
		<tag k="name" v="Lindsetvatnet" />
		<tag k="natural" v="water" />
		<tag k="ssr:stedsnr" v="378639" />
		<tag k="water" v="lake" />
	</node>
	<node id="-731752" lat="64.3506138866" lon="10.5508527807">
		<tag k="name" v="Sørmarktjønnin" />
		<tag k="natural" v="water" />
		<tag k="ssr:stedsnr" v="317659" />
	</node>
	<node id="-732775" lat="64.2863972179" lon="10.5956750099">
		<tag k="name" v="Svarttjønna" />
		<tag k="natural" v="water" />
		<tag k="ssr:stedsnr" v="378611" />
	</node>
	<node id="-732260" lat="64.267938893" lon="10.5866222166">
		<tag k="name" v="Rosselva" />
		<tag k="ssr:stedsnr" v="883514" />
		<tag k="waterway" v="river" />
	</node>
	<node id="-731746" lat="64.2111444448" lon="10.5813472277">
		<tag k="name" v="Damtjønna" />
		<tag k="natural" v="water" />
		<tag k="ssr:stedsnr" v="317014" />
	</node>
	<node id="-732256" lat="64.2410694483" lon="10.6958250103">
		<tag k="name" v="Bjørnaneset" />
		<tag k="natural" v="cape" />
		<tag k="ssr:stedsnr" v="883361" />
	</node>
	<node id="-731930" lat="64.2778500018" lon="10.4469916689">
		<tag k="name" v="Sætranselva" />
		<tag k="ssr:stedsnr" v="701045" />
		<tag k="waterway" v="river" />
	</node>
	<node id="-731742" lat="64.3055500021" lon="10.6751861116">
		<tag k="name" v="Øver Kringlåtvatnet" />
		<tag k="natural" v="water" />
		<tag k="ssr:stedsnr" v="276768" />
		<tag k="water" v="lake" />
	</node>
	<node id="-731740" lat="64.2178888886" lon="10.7547138951">
		<tag k="name" v="Fiskvika" />
		<tag k="natural" v="bay" />
		<tag k="ssr:stedsnr" v="276754" />
	</node>
	<node id="-731739" lat="64.2398305516" lon="10.7505361136">
		<tag k="name" v="Øyan" />
		<tag k="place" v="islet" />
		<tag k="ssr:stedsnr" v="276752" />
	</node>
	<node id="-732761" lat="64.1970805542" lon="10.6336000037">
		<tag k="name" v="Øystre Geilvatnet" />
		<tag k="natural" v="water" />
		<tag k="ssr:stedsnr" v="377488" />
		<tag k="water" v="lake" />
	</node>
	<node id="-732760" lat="64.252886111" lon="10.4477222158">
		<tag k="name" v="Mørkdalstjønna" />
		<tag k="natural" v="water" />
		<tag k="ssr:stedsnr" v="377424" />
	</node>
	<node id="-732247" lat="64.3356277812" lon="10.6767888875">
		<tag k="name" v="Setertjønna" />
		<tag k="natural" v="water" />
		<tag k="ssr:stedsnr" v="944734" />
	</node>
	<node id="-732089" lat="64.258497221" lon="10.6275527754">
		<tag k="name" v="Skolengsholmen" />
		<tag k="place" v="islet" />
		<tag k="ssr:stedsnr" v="701758" />
	</node>
	<node id="-732756" lat="64.3080055526" lon="10.5812111188">
		<tag k="alt_name" v="Bjørndalsvatna, nordre" />
		<tag k="name" v="Nordre Bjørndalsvatna" />
		<tag k="natural" v="water" />
		<tag k="ssr:stedsnr" v="377531" />
	</node>
	<node id="-731728" lat="64.3352611101" lon="10.5182999918">
		<tag k="name" v="Hopavatnet" />
		<tag k="natural" v="water" />
		<tag k="ssr:stedsnr" v="276366" />
		<tag k="water" v="lake" />
	</node>
	<node id="-732428" lat="64.2209805563" lon="10.6827277735">
		<tag k="name" v="Seterelva" />
		<tag k="ssr:stedsnr" v="74759" />
		<tag k="waterway" v="river" />
	</node>
	<node id="-732301" lat="64.2467750003" lon="10.4546249953">
		<tag k="name" v="Austengvatnet" />
		<tag k="natural" v="water" />
		<tag k="ssr:stedsnr" v="13041" />
	</node>
	<node id="-732171" lat="64.2657583292" lon="10.49863334">
		<tag k="name" v="Størsgrovbekken" />
		<tag k="ssr:stedsnr" v="822409" />
		<tag k="waterway" v="stream" />
	</node>
	<node id="-732223" lat="64.2540666697" lon="10.6434277854">
		<tag k="name" v="Svarttjønna" />
		<tag k="natural" v="water" />
		<tag k="ssr:stedsnr" v="944410" />
	</node>
	<node id="-731619" lat="64.2357972211" lon="10.8451611047">
		<tag k="alt_name" v="Vassdølin, fremre;Fremmer Vassdølin" />
		<tag k="name" v="Fremre Vassdølin" />
		<tag k="natural" v="water" />
		<tag k="ssr:stedsnr" v="439626" />
		<tag k="water" v="lake" />
	</node>
	<node id="-731709" lat="64.2486055592" lon="10.6162055464">
		<tag k="name" v="Svellfossbekken" />
		<tag k="ssr:stedsnr" v="458754" />
		<tag k="waterway" v="stream" />
	</node>
	<node id="-732220" lat="64.191380558" lon="10.6399027788">
		<tag k="name" v="Svarttjønna" />
		<tag k="ssr:stedsnr" v="944403" />
		<tag k="waterway" v="stream" />
	</node>
	<node id="-732682" lat="64.1808777795" lon="10.6012972159">
		<tag k="name" v="Hundtjønna" />
		<tag k="natural" v="water" />
		<tag k="ssr:stedsnr" v="317424" />
	</node>
	<node id="-732218" lat="64.4038388928" lon="10.5131277809">
		<tag k="name" v="Novatjønna" />
		<tag k="natural" v="water" />
		<tag k="ssr:stedsnr" v="944390" />
	</node>
	<node id="-732084" lat="64.2013944453" lon="10.6187722296">
		<tag k="name" v="Auretangen" />
		<tag k="natural" v="cape" />
		<tag k="ssr:stedsnr" v="701460" />
	</node>
	<node id="-732214" lat="64.229355558" lon="10.7439527763">
		<tag k="name" v="Ljåbekken" />
		<tag k="ssr:stedsnr" v="944378" />
		<tag k="waterway" v="stream" />
	</node>
	<node id="-732725" lat="64.2759555525" lon="10.6647500087">
		<tag k="name" v="Granlibekken" />
		<tag k="ssr:stedsnr" v="337081" />
		<tag k="waterway" v="stream" />
	</node>
	<node id="-732206" lat="64.2430722249" lon="10.7059472244">
		<tag k="name" v="Fjøsvasselva" />
		<tag k="ssr:stedsnr" v="944219" />
		<tag k="waterway" v="stream" />
	</node>
	<node id="-732713" lat="64.4151000038" lon="10.5088916586">
		<tag k="name" v="Skjuraskardbekken" />
		<tag k="ssr:stedsnr" v="336646" />
		<tag k="waterway" v="stream" />
	</node>
	<node id="-731688" lat="64.2276722213" lon="10.832880553">
		<tag k="name" v="Fisklausbekken" />
		<tag k="ssr:stedsnr" v="458496" />
		<tag k="waterway" v="stream" />
	</node>
	<node id="-731681" lat="64.2566749981" lon="10.6250416764">
		<tag k="name" v="Åseggfossen" />
		<tag k="natural" v="waterfall" />
		<tag k="ssr:stedsnr" v="458440" />
	</node>
	<node id="-733216" lat="64.2602307334" lon="10.7004963428">
		<tag k="name" v="Fjøsvatna" />
		<tag k="natural" v="water" />
		<tag k="ssr:stedsnr" v="990400" />
		<tag k="water" v="lake" />
	</node>
	<node id="-732592" lat="64.261933332" lon="10.6166083369">
		<tag k="name" v="Teberøya" />
		<tag k="place" v="islet" />
		<tag k="ssr:stedsnr" v="154770" />
	</node>
	<node id="-732188" lat="64.2883888875" lon="10.7228111155">
		<tag k="name" v="Haugvassbekken" />
		<tag k="ssr:stedsnr" v="943673" />
		<tag k="waterway" v="stream" />
	</node>
	<node id="-732321" lat="64.3130638898" lon="10.7071416592">
		<tag k="name" v="Andalslivatnet" />
		<tag k="natural" v="water" />
		<tag k="ssr:stedsnr" v="14465" />
		<tag k="water" v="lake" />
	</node>
	<node id="-732030" lat="64.2141777744" lon="10.6983444411">
		<tag k="name" v="Blåheibekken" />
		<tag k="ssr:stedsnr" v="883398" />
		<tag k="waterway" v="stream" />
	</node>
	<node id="-732184" lat="64.3148361122" lon="10.5306222244">
		<tag k="name" v="Reveggbekken" />
		<tag k="ssr:stedsnr" v="943635" />
		<tag k="waterway" v="stream" />
	</node>
	<node id="-732695" lat="64.2428111077" lon="10.8801027809">
		<tag k="alt_name" v="Inner Vassdølin;Vassdølin, indre" />
		<tag k="name" v="Indre Vassdølin" />
		<tag k="natural" v="water" />
		<tag k="ssr:stedsnr" v="317677" />
		<tag k="water" v="lake" />
	</node>
	<node id="-732249" lat="64.3612805522" lon="10.6950277829">
		<tag k="name" v="Steinsetervatnet" />
		<tag k="natural" v="water" />
		<tag k="ssr:stedsnr" v="863726" />
	</node>
	<node id="-731757" lat="64.2272166642" lon="10.5081138941">
		<tag k="name" v="Blåheitjønna" />
		<tag k="natural" v="water" />
		<tag k="ssr:stedsnr" v="519598" />
	</node>
	<node id="-732691" lat="64.3253277805" lon="10.6592166668">
		<tag k="name" v="Svestjønna" />
		<tag k="natural" v="water" />
		<tag k="ssr:stedsnr" v="317480" />
	</node>
	<node id="-731666" lat="64.2387111082" lon="10.7332805518">
		<tag k="name" v="Inner Skarvåsfossen" />
		<tag k="natural" v="waterfall" />
		<tag k="ssr:stedsnr" v="458315" />
	</node>
	<node id="-732684" lat="64.1879333335" lon="10.6110500084">
		<tag k="name" v="Vestre Geilvatnet" />
		<tag k="natural" v="water" />
		<tag k="ssr:stedsnr" v="317429" />
		<tag k="water" v="lake" />
	</node>
	<node id="-732683" lat="64.1897750029" lon="10.6474138908">
		<tag k="name" v="Elgsjøelva" />
		<tag k="ssr:stedsnr" v="317427" />
		<tag k="waterway" v="stream" />
	</node>
	<node id="-731518" lat="64.234636112" lon="10.694452781">
		<tag k="name" v="Henrikdalsbekken" />
		<tag k="ssr:stedsnr" v="276383" />
		<tag k="waterway" v="stream" />
	</node>
	<node id="-732681" lat="64.2517694435" lon="10.5230222123">
		<tag k="name" v="Staurtjønna" />
		<tag k="natural" v="water" />
		<tag k="ssr:stedsnr" v="317386" />
	</node>
	<node id="-732680" lat="64.2601750026" lon="10.8387333435">
		<tag k="name" v="Skånelva" />
		<tag k="ssr:stedsnr" v="317126" />
		<tag k="waterway" v="stream" />
>>>>>>> e1d4bc35ff8a6074a6f2e91616a996b547c36f15
	</node>
	<node id="-732679" lat="64.2392722227" lon="10.5532944438">
		<tag k="name" v="Mortenjonsatjønnan" />
		<tag k="natural" v="water" />
		<tag k="ssr:stedsnr" v="317045" />
	</node>
	<node id="-731905" lat="64.2195222223" lon="10.7792694494">
		<tag k="name" v="Kangsvasstjønna" />
		<tag k="natural" v="water" />
		<tag k="ssr:stedsnr" v="681648" />
	</node>
	<node id="-732643" lat="64.281808333" lon="10.6539805652">
		<tag k="name" v="Smørdalsfossen" />
		<tag k="natural" v="waterfall" />
		<tag k="ssr:stedsnr" v="215350" />
	</node>
	<node id="-732587" lat="64.2512138857" lon="10.8157138906">
		<tag k="name" v="Purka" />
		<tag k="place" v="islet" />
		<tag k="ssr:stedsnr" v="154750" />
	</node>
</osm>
