<?xml version="1.0" encoding="UTF-8"?>
<<<<<<< HEAD
<osm version="0.6" generator="osmapis">
	<node lat="64.40658888733917" lon="10.48176943467236" id="-33472">
		<tag k="name" v="Urddalsmyra" />
		<tag k="natural" v="wetland" />
		<tag k="ssr:stedsnr" v="33317" />
	</node>
	<node lat="64.30262500213946" lon="10.50449167494113" id="-33473">
		<tag k="name" v="Ørskogan" />
=======
<osm generator="osmapis" version="0.6">
	<node id="-733181" lat="64.2009833371" lon="10.7060527679">
		<tag k="name" v="Blåheislættet" />
		<tag k="place" v="locality" />
		<tag k="ssr:stedsnr" v="822732" />
	</node>
	<node id="-733180" lat="64.2306166708" lon="10.6803805534">
		<tag k="name" v="Storåsmyra" />
		<tag k="natural" v="wetland" />
		<tag k="ssr:stedsnr" v="822728" />
	</node>
	<node id="-732666" lat="64.3414777773" lon="10.4730888815">
		<tag k="name" v="Vassurda" />
		<tag k="natural" v="scree" />
		<tag k="ssr:stedsnr" v="215732" />
	</node>
	<node id="-732662" lat="64.1916722243" lon="10.6497583384">
		<tag k="name" v="Kingoholet" />
>>>>>>> e1d4bc35ff8a6074a6f2e91616a996b547c36f15
		<tag k="place" v="locality" />
		<tag k="ssr:stedsnr" v="215676" />
	</node>
<<<<<<< HEAD
	<node lat="64.20514999691848" lon="10.680294441919315" id="-33484">
		<tag k="name" v="Brukstømtet" />
		<tag k="place" v="locality" />
		<tag k="ssr:stedsnr" v="33447" />
	</node>
	<node lat="64.33653333363664" lon="10.620499994914368" id="-33491">
		<tag k="landuse" v="meadow" />
		<tag k="name" v="Gammelsnøfonna" />
		<tag k="ssr:stedsnr" v="33463" />
	</node>
	<node lat="64.23694166437105" lon="10.62841111697783" id="-33495">
		<tag k="name" v="Mastermyra" />
		<tag k="natural" v="wetland" />
		<tag k="ssr:stedsnr" v="33684" />
	</node>
	<node lat="64.29056111157679" lon="10.451119445688516" id="-33516">
		<tag k="name" v="Bryggberget" />
		<tag k="place" v="locality" />
		<tag k="ssr:stedsnr" v="94115" />
	</node>
	<node lat="64.23346944015258" lon="10.658097223120484" id="-33519">
		<tag k="historic" v="shieling" />
		<tag k="name" v="Melkarvollen" />
		<tag k="place" v="locality" />
		<tag k="ssr:stedsnr" v="94308" />
	</node>
	<node lat="64.29761110820685" lon="10.296475004142774" id="-33524">
		<tag k="name" v="Grugghallen" />
		<tag k="natural" v="scree" />
		<tag k="ssr:stedsnr" v="94526" />
	</node>
	<node lat="64.24954722629175" lon="10.669277784788548" id="-33528">
		<tag k="name" v="Torsteinengmyra" />
		<tag k="natural" v="wetland" />
		<tag k="ssr:stedsnr" v="94762" />
	</node>
	<node lat="64.30189722064155" lon="10.648313896356061" id="-33605">
		<tag k="name" v="Langdalsmyran" />
		<tag k="natural" v="wetland" />
		<tag k="ssr:stedsnr" v="215014" />
	</node>
	<node lat="64.23962500239226" lon="10.662413894174623" id="-33607">
		<tag k="name" v="Svean" />
		<tag k="place" v="locality" />
		<tag k="ssr:stedsnr" v="215314" />
	</node>
	<node lat="64.24900833007896" lon="10.664908327234931" id="-33611">
		<tag k="name" v="Føggelmyra" />
		<tag k="natural" v="wetland" />
		<tag k="ssr:stedsnr" v="215380" />
	</node>
	<node lat="64.34147777727708" lon="10.473088881470709" id="-33620">
		<tag k="name" v="Vassurda" />
		<tag k="natural" v="scree" />
		<tag k="ssr:stedsnr" v="215732" />
	</node>
	<node lat="64.19167222425098" lon="10.64975833839539" id="-33626">
		<tag k="name" v="Kingoholet" />
		<tag k="place" v="locality" />
		<tag k="ssr:stedsnr" v="215676" />
	</node>
	<node lat="64.29007500240652" lon="10.428241660825847" id="-33648">
		<tag k="name" v="Brattjer" />
		<tag k="place" v="locality" />
		<tag k="ssr:stedsnr" v="458101" />
	</node>
	<node lat="64.29506388844825" lon="10.51178055654463" id="-33650">
		<tag k="name" v="Skogan" />
		<tag k="place" v="locality" />
		<tag k="ssr:stedsnr" v="458333" />
	</node>
	<node lat="64.25958610761461" lon="10.445730548375401" id="-33663">
		<tag k="name" v="Setermyra" />
		<tag k="natural" v="wetland" />
		<tag k="ssr:stedsnr" v="458454" />
	</node>
	<node lat="64.28163610930562" lon="10.578874993325863" id="-33667">
		<tag k="name" v="Mørkdalen" />
		<tag k="place" v="locality" />
		<tag k="ssr:stedsnr" v="458673" />
	</node>
	<node lat="64.23241388548902" lon="10.666180554387427" id="-33674">
		<tag k="name" v="Odden" />
		<tag k="natural" v="wetland" />
		<tag k="ssr:stedsnr" v="458727" />
	</node>
	<node lat="64.19178888835785" lon="10.673605551989093" id="-33676">
		<tag k="name" v="Hornmyran" />
		<tag k="natural" v="wetland" />
		<tag k="ssr:stedsnr" v="458731" />
	</node>
	<node lat="64.26826110847635" lon="10.609188890845257" id="-33679">
		<tag k="name" v="Sjursøya" />
		<tag k="place" v="locality" />
		<tag k="ssr:stedsnr" v="458764" />
	</node>
	<node lat="64.27072222201133" lon="10.755272217133825" id="-33689">
		<tag k="name" v="Bjørnamyra" />
		<tag k="natural" v="wetland" />
		<tag k="ssr:stedsnr" v="276036" />
	</node>
	<node lat="64.40076944535629" lon="10.53230832515666" id="-33692">
		<tag k="name" v="Bryggberga" />
		<tag k="place" v="locality" />
		<tag k="ssr:stedsnr" v="276407" />
	</node>
	<node lat="64.23369722056138" lon="10.665002784429586" id="-33696">
		<tag k="name" v="Kvernhusmyra" />
		<tag k="natural" v="wetland" />
		<tag k="ssr:stedsnr" v="276370" />
	</node>
	<node lat="64.23121944026748" lon="10.594508335300237" id="-33700">
		<tag k="name" v="Åseggsetertømtet" />
		<tag k="natural" v="wetland" />
		<tag k="ssr:stedsnr" v="276508" />
	</node>
	<node lat="64.32647500374812" lon="10.497127786785653" id="-33707">
		<tag k="name" v="Vassfjellet" />
		<tag k="place" v="locality" />
		<tag k="ssr:stedsnr" v="276725" />
	</node>
	<node lat="64.32832500281683" lon="10.356344443072997" id="-33733">
		<tag k="name" v="Hundhammaren" />
		<tag k="place" v="locality" />
		<tag k="ssr:stedsnr" v="337007" />
	</node>
	<node lat="64.24831944705441" lon="10.64899166699233" id="-33735">
		<tag k="name" v="Dragdalen" />
		<tag k="place" v="locality" />
		<tag k="ssr:stedsnr" v="337049" />
	</node>
	<node lat="64.3001305531422" lon="10.645113884696613" id="-33746">
		<tag k="historic" v="shieling" />
		<tag k="name" v="Gammelseteren" />
		<tag k="place" v="locality" />
		<tag k="ssr:stedsnr" v="378602" />
	</node>
	<node lat="64.32549721848078" lon="10.373855546513457" id="-33757">
		<tag k="name" v="Trolla" />
		<tag k="place" v="locality" />
		<tag k="ssr:stedsnr" v="397003" />
	</node>
	<node lat="64.2892416675026" lon="10.423791662415884" id="-33760">
		<tag k="name" v="Tørrbalen" />
		<tag k="place" v="locality" />
		<tag k="ssr:stedsnr" v="397107" />
	</node>
	<node lat="64.31934166337395" lon="10.53384165683529" id="-33761">
		<tag k="name" v="Almurda" />
		<tag k="natural" v="scree" />
		<tag k="ssr:stedsnr" v="397030" />
	</node>
	<node lat="64.26191110887513" lon="10.44269443893713" id="-33769">
		<tag k="name" v="Tømtet" />
		<tag k="place" v="locality" />
		<tag k="ssr:stedsnr" v="397396" />
	</node>
	<node lat="64.33600000069008" lon="10.591624999647411" id="-33770">
		<tag k="name" v="Vingmyra" />
		<tag k="natural" v="wetland" />
		<tag k="ssr:stedsnr" v="397527" />
	</node>
	<node lat="64.26526944503085" lon="10.469030548527368" id="-33775">
		<tag k="name" v="Litlenget" />
		<tag k="place" v="locality" />
		<tag k="ssr:stedsnr" v="397608" />
	</node>
	<node lat="64.2536638891286" lon="10.431763891328952" id="-33802">
		<tag k="name" v="Austenget" />
		<tag k="place" v="locality" />
		<tag k="ssr:stedsnr" v="458103" />
	</node>
	<node lat="64.40655555375177" lon="10.525736109273637" id="-33807">
		<tag k="name" v="Nesa" />
		<tag k="place" v="locality" />
		<tag k="ssr:stedsnr" v="458322" />
	</node>
	<node lat="64.26248611184003" lon="10.624258335533028" id="-33811">
		<tag k="name" v="Grossmyra" />
		<tag k="natural" v="wetland" />
		<tag k="ssr:stedsnr" v="458425" />
	</node>
	<node lat="64.28338055650487" lon="10.54180832322756" id="-33816">
		<tag k="name" v="Myrdalen" />
=======
	<node id="-731730" lat="64.2336972206" lon="10.6650027844">
		<tag k="name" v="Kvernhusmyra" />
		<tag k="natural" v="wetland" />
		<tag k="ssr:stedsnr" v="276370" />
	</node>
	<node id="-732647" lat="64.2490083301" lon="10.6649083272">
		<tag k="name" v="Føggelmyra" />
		<tag k="natural" v="wetland" />
		<tag k="ssr:stedsnr" v="215380" />
	</node>
	<node id="-731558" lat="64.2400027764" lon="10.717925002">
		<tag k="name" v="Stimåvadmyra" />
		<tag k="natural" v="wetland" />
		<tag k="ssr:stedsnr" v="276734" />
	</node>
	<node id="-733151" lat="64.2868972258" lon="10.5646638864">
		<tag k="name" v="Bomstranda" />
		<tag k="place" v="locality" />
		<tag k="ssr:stedsnr" v="822052" />
	</node>
	<node id="-732638" lat="64.2477694467" lon="10.6273222275">
		<tag k="name" v="Finnvollen" />
		<tag k="place" v="locality" />
		<tag k="ssr:stedsnr" v="215437" />
	</node>
	<node id="-732632" lat="64.224902782" lon="10.6814416655">
		<tag k="name" v="Snasamyra" />
		<tag k="natural" v="wetland" />
		<tag k="ssr:stedsnr" v="215318" />
	</node>
	<node id="-733143" lat="64.3066027801" lon="10.5546249986">
		<tag k="historic" v="shieling" />
		<tag k="name" v="Setervollen" />
		<tag k="place" v="locality" />
		<tag k="ssr:stedsnr" v="810816" />
	</node>
	<node id="-732117" lat="64.2865777768" lon="10.5303888901">
		<tag k="name" v="Varpet" />
		<tag k="place" v="locality" />
		<tag k="ssr:stedsnr" v="761664" />
	</node>
	<node id="-732625" lat="64.3135611098" lon="10.5687055513">
		<tag k="name" v="Hestkleiva" />
		<tag k="place" v="locality" />
		<tag k="ssr:stedsnr" v="215057" />
	</node>
	<node id="-732112" lat="64.2849833291" lon="10.5264555527">
		<tag k="name" v="Tytbærøya" />
		<tag k="place" v="locality" />
		<tag k="ssr:stedsnr" v="761538" />
	</node>
	<node id="-731597" lat="64.323166666" lon="10.3703277784">
		<tag k="name" v="Otermyra" />
		<tag k="natural" v="wetland" />
		<tag k="ssr:stedsnr" v="215644" />
	</node>
	<node id="-731595" lat="64.3298749972" lon="10.4098694545">
		<tag k="name" v="Raudberget" />
		<tag k="place" v="locality" />
		<tag k="ssr:stedsnr" v="215634" />
	</node>
	<node id="-732105" lat="64.2362694427" lon="10.6606277869">
		<tag k="name" v="Paris" />
		<tag k="place" v="locality" />
		<tag k="ssr:stedsnr" v="761303" />
	</node>
	<node id="-731591" lat="64.4015777736" lon="10.5006611071">
		<tag k="name" v="Vannhagan" />
		<tag k="place" v="locality" />
		<tag k="ssr:stedsnr" v="215410" />
	</node>
	<node id="-732102" lat="64.3164444428" lon="10.5638333359">
		<tag k="name" v="Slåttmyra" />
		<tag k="natural" v="wetland" />
		<tag k="ssr:stedsnr" v="761054" />
	</node>
	<node id="-731588" lat="64.3294388857" lon="10.4727638943">
		<tag k="name" v="Synnavindsurda" />
		<tag k="natural" v="scree" />
		<tag k="ssr:stedsnr" v="215030" />
	</node>
	<node id="-732150" lat="64.209538887" lon="10.6301694521">
		<tag k="name" v="Geilmyran" />
		<tag k="natural" v="wetland" />
		<tag k="ssr:stedsnr" v="803013" />
	</node>
	<node id="-732098" lat="64.4115111105" lon="10.4904055568">
		<tag k="name" v="Sneisa" />
		<tag k="place" v="locality" />
		<tag k="ssr:stedsnr" v="742665" />
	</node>
	<node id="-732607" lat="64.2480277822" lon="10.8009527794">
		<tag k="name" v="Buktmyra" />
		<tag k="natural" v="wetland" />
		<tag k="ssr:stedsnr" v="196730" />
	</node>
	<node id="-733112" lat="64.2682916654" lon="10.6130138841">
		<tag k="landuse" v="quarry" />
		<tag k="name" v="Onshauggruva" />
		<tag k="ssr:stedsnr" v="761771" />
	</node>
	<node id="-733110" lat="64.2577722199" lon="10.6318861014">
		<tag k="name" v="Skolenget" />
		<tag k="place" v="locality" />
		<tag k="ssr:stedsnr" v="761768" />
	</node>
	<node id="-732590" lat="64.3416361149" lon="10.607922223">
		<tag k="name" v="Stranda" />
		<tag k="place" v="locality" />
		<tag k="ssr:stedsnr" v="154761" />
	</node>
	<node id="-732589" lat="64.3288777817" lon="10.6270638869">
		<tag k="name" v="Liakleiva" />
		<tag k="place" v="locality" />
		<tag k="ssr:stedsnr" v="154759" />
	</node>
	<node id="-733100" lat="64.2393805581" lon="10.690055554">
		<tag k="name" v="Husneset" />
		<tag k="place" v="locality" />
		<tag k="ssr:stedsnr" v="761746" />
	</node>
	<node id="-731560" lat="64.2284583348" lon="10.810772226">
		<tag k="name" v="Ivertømtet" />
		<tag k="place" v="locality" />
		<tag k="ssr:stedsnr" v="276743" />
	</node>
	<node id="-733094" lat="64.2284972208" lon="10.638102769">
		<tag k="historic" v="shieling" />
		<tag k="name" v="Berntseteren" />
		<tag k="place" v="locality" />
		<tag k="ssr:stedsnr" v="761427" />
	</node>
	<node id="-733092" lat="64.2708805563" lon="10.498902787">
		<tag k="name" v="Valmyra" />
		<tag k="natural" v="wetland" />
		<tag k="ssr:stedsnr" v="761420" />
	</node>
	<node id="-731554" lat="64.3264750037" lon="10.4971277868">
		<tag k="name" v="Vassfjellet" />
		<tag k="place" v="locality" />
		<tag k="ssr:stedsnr" v="276725" />
	</node>
	<node id="-731551" lat="64.4007555595" lon="10.5646944519">
		<tag k="name" v="Vikan" />
		<tag k="place" v="locality" />
		<tag k="ssr:stedsnr" v="276698" />
	</node>
	<node id="-731550" lat="64.3174388928" lon="10.5326333431">
		<tag k="name" v="Reveggmyra" />
		<tag k="natural" v="wetland" />
		<tag k="ssr:stedsnr" v="276697" />
	</node>
	<node id="-731548" lat="64.414211109" lon="10.5220722196">
		<tag k="name" v="Ormurda" />
		<tag k="natural" v="scree" />
		<tag k="ssr:stedsnr" v="276694" />
	</node>
	<node id="-732058" lat="64.2346638853" lon="10.6459777774">
		<tag k="name" v="Høgmyråsen" />
		<tag k="natural" v="wetland" />
		<tag k="ssr:stedsnr" v="883696" />
	</node>
	<node id="-733080" lat="64.343608333" lon="10.5043138801">
		<tag k="name" v="Øra" />
		<tag k="place" v="locality" />
		<tag k="ssr:stedsnr" v="761371" />
	</node>
	<node id="-731542" lat="64.2847916692" lon="10.4599722221">
		<tag k="name" v="Kutrappen" />
		<tag k="place" v="locality" />
		<tag k="ssr:stedsnr" v="276640" />
	</node>
	<node id="-732562" lat="64.2777138889" lon="10.6333083316">
		<tag k="name" v="Svaet" />
		<tag k="place" v="locality" />
		<tag k="ssr:stedsnr" v="154457" />
	</node>
	<node id="-731537" lat="64.2752999982" lon="10.6304666605">
		<tag k="name" v="Hallrånnan" />
		<tag k="place" v="locality" />
		<tag k="ssr:stedsnr" v="276449" />
	</node>
	<node id="-732558" lat="64.4008583319" lon="10.5391916669">
		<tag k="name" v="Oterurda" />
		<tag k="natural" v="scree" />
		<tag k="ssr:stedsnr" v="154427" />
	</node>
	<node id="-732557" lat="64.3423194407" lon="10.4831166679">
		<tag k="name" v="Myran" />
>>>>>>> e1d4bc35ff8a6074a6f2e91616a996b547c36f15
		<tag k="natural" v="wetland" />
		<tag k="ssr:stedsnr" v="154423" />
	</node>
<<<<<<< HEAD
	<node lat="64.28233055531108" lon="10.545344440707598" id="-33834">
		<tag k="name" v="Sørmelansmyran" />
		<tag k="natural" v="wetland" />
		<tag k="ssr:stedsnr" v="499535" />
	</node>
	<node lat="64.40598055870763" lon="10.460933325404401" id="-33883">
		<tag k="name" v="Raffelurda" />
		<tag k="natural" v="scree" />
		<tag k="ssr:stedsnr" v="518633" />
	</node>
	<node lat="64.2777527751479" lon="10.588577787270935" id="-33885">
		<tag k="name" v="Kløvmyra" />
		<tag k="natural" v="wetland" />
		<tag k="ssr:stedsnr" v="518725" />
	</node>
	<node lat="64.20505555873696" lon="10.646491674557705" id="-33890">
		<tag k="historic" v="shieling" />
		<tag k="name" v="Tyllevseteren" />
		<tag k="place" v="locality" />
		<tag k="ssr:stedsnr" v="519007" />
	</node>
	<node lat="64.34204444209439" lon="10.468613888608472" id="-33897">
		<tag k="name" v="Vassmyra" />
		<tag k="natural" v="wetland" />
		<tag k="ssr:stedsnr" v="519324" />
	</node>
	<node lat="64.1982805560957" lon="10.694588884033868" id="-33901">
		<tag k="historic" v="shieling" />
		<tag k="name" v="Gossaseteren" />
		<tag k="place" v="locality" />
		<tag k="ssr:stedsnr" v="519410" />
	</node>
	<node lat="64.31966666951467" lon="10.49240833329148" id="-33946">
		<tag k="name" v="Moltmyran" />
		<tag k="natural" v="wetland" />
		<tag k="ssr:stedsnr" v="579631" />
	</node>
	<node lat="64.32150277630856" lon="10.47320832332894" id="-33955">
		<tag k="name" v="Brandhaugen" />
		<tag k="place" v="locality" />
		<tag k="ssr:stedsnr" v="579712" />
	</node>
	<node lat="64.35589166695449" lon="10.493638893970264" id="-33956">
		<tag k="name" v="Hushallen" />
		<tag k="place" v="locality" />
		<tag k="ssr:stedsnr" v="579713" />
	</node>
	<node lat="64.28140555631367" lon="10.572705552152309" id="-33962">
		<tag k="name" v="Syrstranda" />
		<tag k="place" v="locality" />
		<tag k="ssr:stedsnr" v="701051" />
	</node>
	<node lat="64.29295555803228" lon="10.415344440543315" id="-33966">
		<tag k="name" v="Blakkanesmyran" />
		<tag k="natural" v="wetland" />
		<tag k="ssr:stedsnr" v="701101" />
	</node>
	<node lat="64.24716944676997" lon="10.709099999646522" id="-33980">
		<tag k="name" v="Krengelmyra" />
		<tag k="natural" v="wetland" />
		<tag k="ssr:stedsnr" v="701729" />
	</node>
	<node lat="64.24273889145522" lon="10.774658326295459" id="-33981">
		<tag k="name" v="Stormyra" />
		<tag k="natural" v="wetland" />
		<tag k="ssr:stedsnr" v="701733" />
	</node>
	<node lat="64.33793889128728" lon="10.628438899329272" id="-33984">
		<tag k="name" v="Kudalsmyran" />
		<tag k="place" v="locality" />
		<tag k="ssr:stedsnr" v="701745" />
	</node>
	<node lat="64.34077222066904" lon="10.479011111260446" id="-33988">
		<tag k="name" v="Dyrgrova" />
		<tag k="natural" v="wetland" />
		<tag k="ssr:stedsnr" v="701688" />
	</node>
	<node lat="64.26732777689301" lon="10.48706667116512" id="-34006">
		<tag k="historic" v="shieling" />
		<tag k="name" v="Seteren" />
		<tag k="place" v="locality" />
		<tag k="ssr:stedsnr" v="639074" />
	</node>
	<node lat="64.24498333441103" lon="10.673988887324045" id="-34007">
		<tag k="name" v="Dragdalsmyran" />
		<tag k="natural" v="wetland" />
		<tag k="ssr:stedsnr" v="639273" />
	</node>
	<node lat="64.26822222615522" lon="10.6062055543784" id="-34019">
		<tag k="name" v="Storøya" />
		<tag k="place" v="locality" />
		<tag k="ssr:stedsnr" v="640408" />
	</node>
	<node lat="64.40857222638095" lon="10.553991660085382" id="-34067">
		<tag k="name" v="Langmyra" />
		<tag k="natural" v="wetland" />
		<tag k="ssr:stedsnr" v="701662" />
	</node>
	<node lat="64.23626944269087" lon="10.660627786937075" id="-34090">
		<tag k="name" v="Paris" />
		<tag k="place" v="locality" />
		<tag k="ssr:stedsnr" v="761303" />
	</node>
	<node lat="64.27088055630603" lon="10.498902787049497" id="-34099">
		<tag k="name" v="Valmyra" />
		<tag k="natural" v="wetland" />
		<tag k="ssr:stedsnr" v="761420" />
	</node>
	<node lat="64.23938055807527" lon="10.690055553992428" id="-34111">
		<tag k="name" v="Husneset" />
		<tag k="place" v="locality" />
		<tag k="ssr:stedsnr" v="761746" />
	</node>
	<node lat="64.41007222674462" lon="10.495386107942341" id="-34117">
		<tag k="name" v="Storholmmarka" />
		<tag k="natural" v="wetland" />
		<tag k="ssr:stedsnr" v="761697" />
	</node>
	<node lat="64.20953888696516" lon="10.630169452080853" id="-34121">
		<tag k="name" v="Geilmyran" />
		<tag k="natural" v="wetland" />
		<tag k="ssr:stedsnr" v="803013" />
	</node>
	<node lat="64.34618333254426" lon="10.480949990487133" id="-34136">
		<tag k="name" v="Apoteket" />
		<tag k="natural" v="scree" />
		<tag k="ssr:stedsnr" v="822076" />
	</node>
	<node lat="64.25037778084621" lon="10.657605562252396" id="-34140">
		<tag k="name" v="Botnan" />
		<tag k="place" v="locality" />
		<tag k="ssr:stedsnr" v="822373" />
	</node>
	<node lat="64.21691388830153" lon="10.573163897358462" id="-34173">
		<tag k="name" v="Hofstaddalsmyran" />
		<tag k="natural" v="wetland" />
		<tag k="ssr:stedsnr" v="864010" />
	</node>
	<node lat="64.33682777428403" lon="10.481280553242238" id="-34176">
		<tag k="name" v="Krommyra" />
		<tag k="natural" v="wetland" />
		<tag k="ssr:stedsnr" v="883023" />
	</node>
	<node lat="64.31581110811992" lon="10.471130558464115" id="-34179">
		<tag k="name" v="Reksterodden" />
		<tag k="place" v="locality" />
		<tag k="ssr:stedsnr" v="883057" />
	</node>
	<node lat="64.40262500302997" lon="10.545980559387466" id="-34180">
		<tag k="name" v="Bekken" />
		<tag k="natural" v="scree" />
		<tag k="ssr:stedsnr" v="883348" />
	</node>
	<node lat="64.41237222534686" lon="10.520902777006409" id="-34182">
		<tag k="name" v="Stormyra" />
		<tag k="natural" v="wetland" />
		<tag k="ssr:stedsnr" v="883366" />
	</node>
	<node lat="64.35398888675427" lon="10.487961104750669" id="-34186">
		<tag k="name" v="Tronga" />
		<tag k="natural" v="scree" />
		<tag k="ssr:stedsnr" v="883404" />
	</node>
	<node lat="64.26551944264813" lon="10.434858328475421" id="-34188">
		<tag k="historic" v="shieling" />
		<tag k="name" v="Gammelseteren" />
		<tag k="place" v="locality" />
		<tag k="ssr:stedsnr" v="883451" />
	</node>
	<node lat="64.22274999646969" lon="10.684449992525062" id="-34193">
		<tag k="name" v="Tjørraveikmyra" />
		<tag k="natural" v="wetland" />
		<tag k="ssr:stedsnr" v="883753" />
	</node>
	<node lat="64.24233055713081" lon="10.639586114163766" id="-34223">
		<tag k="name" v="Kjølamyra" />
		<tag k="natural" v="wetland" />
		<tag k="ssr:stedsnr" v="944404" />
	</node>
	<node lat="64.4031083309256" lon="10.530238889637305" id="-34231">
		<tag k="name" v="Kråksølvsteinen" />
		<tag k="natural" v="stone" />
		<tag k="ssr:stedsnr" v="944384" />
	</node>
	<node lat="64.29338888683488" lon="10.46823611011806" id="-34237">
		<tag k="name" v="Hønsteinen" />
		<tag k="place" v="locality" />
		<tag k="ssr:stedsnr" v="944595" />
	</node>
	<node lat="64.26137222280178" lon="10.88741667600037" id="-34264">
		<tag k="landuse" v="meadow" />
		<tag k="name" v="Skogslætta" />
		<tag k="ssr:stedsnr" v="14131" />
	</node>
	<node lat="64.29629166699213" lon="10.61771666966123" id="-34290">
		<tag k="name" v="Nesa" />
		<tag k="natural" v="wetland" />
		<tag k="ssr:stedsnr" v="33454" />
	</node>
	<node lat="64.25529722217664" lon="10.716336106170978" id="-34292">
		<tag k="name" v="Jakobsslætta" />
		<tag k="natural" v="wetland" />
		<tag k="ssr:stedsnr" v="33539" />
	</node>
	<node lat="64.26740555113656" lon="10.475180557898321" id="-34296">
		<tag k="name" v="Stormyra" />
		<tag k="natural" v="wetland" />
		<tag k="ssr:stedsnr" v="33068" />
	</node>
	<node lat="64.39280277437503" lon="10.4816000098288" id="-34306">
		<tag k="name" v="Raudsteinurda" />
		<tag k="natural" v="scree" />
		<tag k="ssr:stedsnr" v="33330" />
	</node>
	<node lat="64.2910666642347" lon="10.52050556200843" id="-34319">
		<tag k="landuse" v="meadow" />
		<tag k="name" v="Koldalen" />
		<tag k="ssr:stedsnr" v="33487" />
	</node>
	<node lat="64.29675833012797" lon="10.797338881069356" id="-34321">
		<tag k="name" v="Nordkolva" />
		<tag k="natural" v="wetland" />
		<tag k="ssr:stedsnr" v="33496" />
	</node>
	<node lat="64.29856111502718" lon="10.299186113946659" id="-34322">
		<tag k="name" v="Grindhallen" />
		<tag k="natural" v="scree" />
		<tag k="ssr:stedsnr" v="33505" />
	</node>
	<node lat="64.31946944051862" lon="10.377963887191619" id="-34323">
		<tag k="name" v="Nesa" />
		<tag k="place" v="locality" />
		<tag k="ssr:stedsnr" v="33509" />
	</node>
	<node lat="64.26698611350234" lon="10.492350004022141" id="-34324">
		<tag k="name" v="Størsgrova" />
		<tag k="natural" v="wetland" />
		<tag k="ssr:stedsnr" v="33637" />
	</node>
	<node lat="64.4027277738068" lon="10.556308340936358" id="-34379">
		<tag k="name" v="Urdvika" />
		<tag k="place" v="locality" />
		<tag k="ssr:stedsnr" v="94339" />
	</node>
	<node lat="64.29306666446118" lon="10.58918610803952" id="-34385">
		<tag k="name" v="Eisteinkrokan" />
		<tag k="place" v="locality" />
		<tag k="ssr:stedsnr" v="94491" />
	</node>
	<node lat="64.28440555219376" lon="10.711744435084498" id="-34388">
		<tag k="name" v="Smånesa" />
		<tag k="natural" v="wetland" />
		<tag k="ssr:stedsnr" v="94541" />
	</node>
	<node lat="64.24594999630308" lon="10.741572220879297" id="-34392">
		<tag k="name" v="Hopmyra" />
		<tag k="natural" v="wetland" />
		<tag k="ssr:stedsnr" v="94451" />
	</node>
	<node lat="64.2806722202091" lon="10.757205551322713" id="-34401">
		<tag k="name" v="Bjørkmoen" />
		<tag k="place" v="locality" />
		<tag k="ssr:stedsnr" v="94725" />
	</node>
	<node lat="64.27581110859818" lon="10.603511114756119" id="-34404">
		<tag k="name" v="Brennmyra" />
		<tag k="natural" v="wetland" />
		<tag k="ssr:stedsnr" v="94782" />
	</node>
	<node lat="64.3288777817498" lon="10.627063886906758" id="-34430">
		<tag k="name" v="Liakleiva" />
		<tag k="place" v="locality" />
		<tag k="ssr:stedsnr" v="154759" />
	</node>
	<node lat="64.34163611486427" lon="10.60792222298453" id="-34431">
		<tag k="name" v="Stranda" />
		<tag k="place" v="locality" />
		<tag k="ssr:stedsnr" v="154761" />
	</node>
	<node lat="64.28468610875943" lon="10.570952769707267" id="-34434">
		<tag k="name" v="Hillstranda" />
		<tag k="place" v="locality" />
		<tag k="ssr:stedsnr" v="154041" />
	</node>
	<node lat="64.34750277883697" lon="10.492941670919812" id="-34438">
		<tag k="name" v="Hyllan" />
		<tag k="place" v="locality" />
		<tag k="ssr:stedsnr" v="154085" />
	</node>
	<node lat="64.40750278236042" lon="10.523655548726403" id="-34445">
		<tag k="name" v="Oddgarden" />
		<tag k="place" v="locality" />
		<tag k="ssr:stedsnr" v="154379" />
	</node>
	<node lat="64.27771388888065" lon="10.63330833164275" id="-34452">
		<tag k="name" v="Svaet" />
=======
	<node id="-731530" lat="64.2923277809" lon="10.5249166587">
		<tag k="landuse" v="meadow" />
		<tag k="name" v="Momyran" />
		<tag k="ssr:stedsnr" v="276492" />
	</node>
	<node id="-731528" lat="64.3406333313" lon="10.5983888823">
		<tag k="name" v="Brandskogholten" />
		<tag k="place" v="locality" />
		<tag k="ssr:stedsnr" v="276481" />
	</node>
	<node id="-732548" lat="64.4075027824" lon="10.5236555487">
		<tag k="name" v="Oddgarden" />
		<tag k="place" v="locality" />
		<tag k="ssr:stedsnr" v="154379" />
	</node>
	<node id="-732035" lat="64.2655194426" lon="10.4348583285">
		<tag k="historic" v="shieling" />
		<tag k="name" v="Gammelseteren" />
		<tag k="place" v="locality" />
		<tag k="ssr:stedsnr" v="883451" />
	</node>
	<node id="-732029" lat="64.402625003" lon="10.5459805594">
		<tag k="name" v="Bekken" />
		<tag k="natural" v="scree" />
		<tag k="ssr:stedsnr" v="883348" />
	</node>
	<node id="-732540" lat="64.3475027788" lon="10.4929416709">
		<tag k="name" v="Hyllan" />
		<tag k="place" v="locality" />
		<tag k="ssr:stedsnr" v="154085" />
	</node>
	<node id="-731515" lat="64.270722222" lon="10.7552722171">
		<tag k="name" v="Bjørnamyra" />
		<tag k="natural" v="wetland" />
		<tag k="ssr:stedsnr" v="276036" />
	</node>
	<node id="-732536" lat="64.2846861088" lon="10.5709527697">
		<tag k="name" v="Hillstranda" />
		<tag k="place" v="locality" />
		<tag k="ssr:stedsnr" v="154041" />
	</node>
	<node id="-732018" lat="64.3158111081" lon="10.4711305585">
		<tag k="name" v="Reksterodden" />
		<tag k="place" v="locality" />
		<tag k="ssr:stedsnr" v="883057" />
	</node>
	<node id="-732012" lat="64.3368277743" lon="10.4812805532">
		<tag k="name" v="Krommyra" />
		<tag k="natural" v="wetland" />
		<tag k="ssr:stedsnr" v="883023" />
	</node>
	<node id="-732507" lat="64.2758111086" lon="10.6035111148">
		<tag k="name" v="Brennmyra" />
		<tag k="natural" v="wetland" />
		<tag k="ssr:stedsnr" v="94782" />
	</node>
	<node id="-732506" lat="64.2495472263" lon="10.6692777848">
		<tag k="name" v="Torsteinengmyra" />
		<tag k="natural" v="wetland" />
		<tag k="ssr:stedsnr" v="94762" />
	</node>
	<node id="-731993" lat="64.3215027763" lon="10.4732083233">
		<tag k="name" v="Brandhaugen" />
		<tag k="place" v="locality" />
		<tag k="ssr:stedsnr" v="579712" />
	</node>
	<node id="-732503" lat="64.2806722202" lon="10.7572055513">
		<tag k="name" v="Bjørkmoen" />
		<tag k="place" v="locality" />
		<tag k="ssr:stedsnr" v="94725" />
	</node>
	<node id="-733012" lat="64.2682222262" lon="10.6062055544">
		<tag k="name" v="Storøya" />
		<tag k="place" v="locality" />
		<tag k="ssr:stedsnr" v="640408" />
	</node>
	<node id="-731534" lat="64.2644111136" lon="10.4606611081">
		<tag k="name" v="Sørholet" />
		<tag k="place" v="locality" />
		<tag k="ssr:stedsnr" v="276532" />
	</node>
	<node id="-731533" lat="64.2959000008" lon="10.6120361102">
		<tag k="name" v="Heimholten" />
		<tag k="place" v="locality" />
		<tag k="ssr:stedsnr" v="276530" />
	</node>
	<node id="-733003" lat="64.1906583314" lon="10.707911108">
		<tag k="name" v="Storneset" />
		<tag k="natural" v="wetland" />
		<tag k="ssr:stedsnr" v="640350" />
	</node>
	<node id="-732490" lat="64.2844055522" lon="10.7117444351">
		<tag k="name" v="Smånesa" />
		<tag k="natural" v="wetland" />
		<tag k="ssr:stedsnr" v="94541" />
	</node>
	<node id="-731977" lat="64.2407833343" lon="10.718111108">
		<tag k="name" v="Stimåa" />
		<tag k="natural" v="wetland" />
		<tag k="ssr:stedsnr" v="579281" />
	</node>
	<node id="-732488" lat="64.2976111082" lon="10.2964750041">
		<tag k="name" v="Grugghallen" />
		<tag k="natural" v="scree" />
		<tag k="ssr:stedsnr" v="94526" />
	</node>
	<node id="-731699" lat="64.2816361093" lon="10.5788749933">
		<tag k="name" v="Mørkdalen" />
		<tag k="place" v="locality" />
		<tag k="ssr:stedsnr" v="458673" />
	</node>
	<node id="-732385" lat="64.2967583301" lon="10.7973388811">
		<tag k="name" v="Nordkolva" />
		<tag k="natural" v="wetland" />
		<tag k="ssr:stedsnr" v="33496" />
	</node>
	<node id="-731458" lat="64.2674055511" lon="10.4751805579">
		<tag k="name" v="Stormyra" />
		<tag k="natural" v="wetland" />
		<tag k="ssr:stedsnr" v="33068" />
	</node>
	<node id="-732481" lat="64.2930666645" lon="10.589186108">
		<tag k="name" v="Eisteinkrokan" />
		<tag k="place" v="locality" />
		<tag k="ssr:stedsnr" v="94491" />
	</node>
	<node id="-732476" lat="64.2459499963" lon="10.7415722209">
		<tag k="name" v="Hopmyra" />
		<tag k="natural" v="wetland" />
		<tag k="ssr:stedsnr" v="94451" />
	</node>
	<node id="-732471" lat="64.4027277738" lon="10.5563083409">
		<tag k="name" v="Urdvika" />
		<tag k="place" v="locality" />
		<tag k="ssr:stedsnr" v="94339" />
	</node>
	<node id="-732981" lat="64.2449833344" lon="10.6739888873">
		<tag k="name" v="Dragdalsmyran" />
		<tag k="natural" v="wetland" />
		<tag k="ssr:stedsnr" v="639273" />
	</node>
	<node id="-732468" lat="64.2334694402" lon="10.6580972231">
		<tag k="historic" v="shieling" />
		<tag k="name" v="Melkarvollen" />
		<tag k="place" v="locality" />
		<tag k="ssr:stedsnr" v="94308" />
	</node>
	<node id="-732466" lat="64.2905611116" lon="10.4511194457">
		<tag k="name" v="Bryggberget" />
		<tag k="place" v="locality" />
		<tag k="ssr:stedsnr" v="94115" />
	</node>
	<node id="-732977" lat="64.2673277769" lon="10.4870666712">
		<tag k="historic" v="shieling" />
		<tag k="name" v="Seteren" />
		<tag k="place" v="locality" />
		<tag k="ssr:stedsnr" v="639074" />
	</node>
	<node id="-731950" lat="64.2427388915" lon="10.7746583263">
		<tag k="name" v="Stormyra" />
		<tag k="natural" v="wetland" />
		<tag k="ssr:stedsnr" v="701733" />
	</node>
	<node id="-731949" lat="64.2471694468" lon="10.7090999996">
		<tag k="name" v="Krengelmyra" />
		<tag k="natural" v="wetland" />
		<tag k="ssr:stedsnr" v="701729" />
	</node>
	<node id="-731948" lat="64.3407722207" lon="10.4790111113">
		<tag k="name" v="Dyrgrova" />
		<tag k="natural" v="wetland" />
		<tag k="ssr:stedsnr" v="701688" />
	</node>
	<node id="-731945" lat="64.4085722264" lon="10.5539916601">
		<tag k="name" v="Langmyra" />
		<tag k="natural" v="wetland" />
		<tag k="ssr:stedsnr" v="701662" />
	</node>
	<node id="-731953" lat="64.3379388913" lon="10.6284388993">
		<tag k="name" v="Kudalsmyran" />
		<tag k="place" v="locality" />
		<tag k="ssr:stedsnr" v="701745" />
	</node>
	<node id="-731935" lat="64.292955558" lon="10.4153444405">
		<tag k="name" v="Blakkanesmyran" />
		<tag k="natural" v="wetland" />
		<tag k="ssr:stedsnr" v="701101" />
	</node>
	<node id="-731932" lat="64.2814055563" lon="10.5727055522">
		<tag k="name" v="Syrstranda" />
		<tag k="place" v="locality" />
		<tag k="ssr:stedsnr" v="701051" />
	</node>
	<node id="-732120" lat="64.4100722267" lon="10.4953861079">
		<tag k="name" v="Storholmmarka" />
		<tag k="natural" v="wetland" />
		<tag k="ssr:stedsnr" v="761697" />
	</node>
	<node id="-731918" lat="64.1982805561" lon="10.694588884">
		<tag k="historic" v="shieling" />
		<tag k="name" v="Gossaseteren" />
		<tag k="place" v="locality" />
		<tag k="ssr:stedsnr" v="519410" />
	</node>
	<node id="-732631" lat="64.2396250024" lon="10.6624138942">
		<tag k="name" v="Svean" />
		<tag k="place" v="locality" />
		<tag k="ssr:stedsnr" v="215314" />
	</node>
	<node id="-732933" lat="64.2724249979" lon="10.6109333368">
		<tag k="name" v="Neset" />
		<tag k="place" v="locality" />
		<tag k="ssr:stedsnr" v="579764" />
	</node>
	<node id="-732928" lat="64.3196666695" lon="10.4924083333">
		<tag k="name" v="Moltmyran" />
		<tag k="natural" v="wetland" />
		<tag k="ssr:stedsnr" v="579631" />
	</node>
	<node id="-732915" lat="64.258736107" lon="10.624397222">
		<tag k="name" v="Hovbeinan" />
		<tag k="place" v="locality" />
		<tag k="ssr:stedsnr" v="579423" />
	</node>
	<node id="-732402" lat="64.2369416644" lon="10.628411117">
		<tag k="name" v="Mastermyra" />
		<tag k="natural" v="wetland" />
		<tag k="ssr:stedsnr" v="33684" />
	</node>
	<node id="-731887" lat="64.2823305553" lon="10.5453444407">
		<tag k="name" v="Sørmelansmyran" />
		<tag k="natural" v="wetland" />
		<tag k="ssr:stedsnr" v="499535" />
	</node>
	<node id="-732395" lat="64.2669861135" lon="10.492350004">
		<tag k="name" v="Størsgrova" />
		<tag k="natural" v="wetland" />
		<tag k="ssr:stedsnr" v="33637" />
	</node>
	<node id="-732906" lat="64.2300611075" lon="10.6891805533">
		<tag k="name" v="Grankammyran" />
		<tag k="natural" v="wetland" />
		<tag k="ssr:stedsnr" v="579350" />
	</node>
	<node id="-732904" lat="64.2902611132" lon="10.4959777684">
		<tag k="name" v="Ormurda" />
		<tag k="natural" v="scree" />
		<tag k="ssr:stedsnr" v="579082" />
	</node>
	<node id="-731516" lat="64.3207277747" lon="10.552788896">
		<tag k="name" v="Vingmyra" />
		<tag k="natural" v="wetland" />
		<tag k="ssr:stedsnr" v="276051" />
	</node>
	<node id="-732390" lat="64.2552972222" lon="10.7163361062">
		<tag k="name" v="Jakobsslætta" />
		<tag k="natural" v="wetland" />
		<tag k="ssr:stedsnr" v="33539" />
	</node>
	<node id="-732387" lat="64.3194694405" lon="10.3779638872">
		<tag k="name" v="Nesa" />
		<tag k="place" v="locality" />
		<tag k="ssr:stedsnr" v="33509" />
	</node>
	<node id="-732386" lat="64.298561115" lon="10.2991861139">
		<tag k="name" v="Grindhallen" />
		<tag k="natural" v="scree" />
		<tag k="ssr:stedsnr" v="33505" />
	</node>
	<node id="-732897" lat="64.2766166645" lon="10.6436527783">
		<tag k="name" v="Magnhildkleiva" />
>>>>>>> e1d4bc35ff8a6074a6f2e91616a996b547c36f15
		<tag k="place" v="locality" />
		<tag k="ssr:stedsnr" v="579024" />
	</node>
<<<<<<< HEAD
	<node lat="64.34231944067527" lon="10.483116667854222" id="-34465">
		<tag k="name" v="Myran" />
		<tag k="natural" v="wetland" />
		<tag k="ssr:stedsnr" v="154423" />
	</node>
	<node lat="64.40085833187405" lon="10.539191666926513" id="-34466">
		<tag k="name" v="Oterurda" />
		<tag k="natural" v="scree" />
		<tag k="ssr:stedsnr" v="154427" />
	</node>
	<node lat="64.24802778222323" lon="10.800952779381825" id="-34503">
		<tag k="name" v="Buktmyra" />
		<tag k="natural" v="wetland" />
		<tag k="ssr:stedsnr" v="196730" />
	</node>
	<node lat="64.32943888573215" lon="10.472763894316884" id="-34514">
		<tag k="name" v="Synnavindsurda" />
		<tag k="natural" v="scree" />
		<tag k="ssr:stedsnr" v="215030" />
	</node>
	<node lat="64.31356110975547" lon="10.568705551335812" id="-34516">
		<tag k="name" v="Hestkleiva" />
		<tag k="place" v="locality" />
		<tag k="ssr:stedsnr" v="215057" />
	</node>
	<node lat="64.22490278201732" lon="10.681441665525146" id="-34526">
		<tag k="name" v="Snasamyra" />
		<tag k="natural" v="wetland" />
		<tag k="ssr:stedsnr" v="215318" />
	</node>
	<node lat="64.40157777363335" lon="10.500661107066472" id="-34530">
		<tag k="name" v="Vannhagan" />
		<tag k="place" v="locality" />
		<tag k="ssr:stedsnr" v="215410" />
	</node>
	<node lat="64.24776944673141" lon="10.627322227450305" id="-34536">
		<tag k="name" v="Finnvollen" />
		<tag k="place" v="locality" />
		<tag k="ssr:stedsnr" v="215437" />
	</node>
	<node lat="64.32987499719134" lon="10.409869454468025" id="-34549">
		<tag k="name" v="Raudberget" />
		<tag k="place" v="locality" />
		<tag k="ssr:stedsnr" v="215634" />
	</node>
	<node lat="64.32316666599851" lon="10.37032777839474" id="-34551">
		<tag k="name" v="Otermyra" />
		<tag k="natural" v="wetland" />
		<tag k="ssr:stedsnr" v="215644" />
	</node>
	<node lat="64.32072777469087" lon="10.55278889604987" id="-34560">
		<tag k="name" v="Vingmyra" />
		<tag k="natural" v="wetland" />
		<tag k="ssr:stedsnr" v="276051" />
	</node>
	<node lat="64.34063333129207" lon="10.598388882306455" id="-34574">
		<tag k="name" v="Brandskogholten" />
		<tag k="place" v="locality" />
		<tag k="ssr:stedsnr" v="276481" />
	</node>
	<node lat="64.27529999819669" lon="10.630466660485345" id="-34582">
		<tag k="name" v="Hallrånnan" />
		<tag k="place" v="locality" />
		<tag k="ssr:stedsnr" v="276449" />
	</node>
	<node lat="64.29590000078377" lon="10.61203611017248" id="-34584">
		<tag k="name" v="Heimholten" />
		<tag k="place" v="locality" />
		<tag k="ssr:stedsnr" v="276530" />
	</node>
	<node lat="64.26441111356225" lon="10.460661108130305" id="-34585">
		<tag k="name" v="Sørholet" />
		<tag k="place" v="locality" />
		<tag k="ssr:stedsnr" v="276532" />
	</node>
	<node lat="64.29232778088614" lon="10.524916658747882" id="-34591">
		<tag k="landuse" v="meadow" />
		<tag k="name" v="Momyran" />
		<tag k="ssr:stedsnr" v="276492" />
	</node>
	<node lat="64.41421110897193" lon="10.522072219560663" id="-34593">
		<tag k="name" v="Ormurda" />
		<tag k="natural" v="scree" />
		<tag k="ssr:stedsnr" v="276694" />
	</node>
	<node lat="64.31743889283351" lon="10.532633343125886" id="-34595">
		<tag k="name" v="Reveggmyra" />
		<tag k="natural" v="wetland" />
		<tag k="ssr:stedsnr" v="276697" />
	</node>
	<node lat="64.40075555949963" lon="10.564694451877795" id="-34596">
		<tag k="name" v="Vikan" />
		<tag k="place" v="locality" />
		<tag k="ssr:stedsnr" v="276698" />
	</node>
	<node lat="64.28479166916365" lon="10.45997222209587" id="-34600">
		<tag k="name" v="Kutrappen" />
		<tag k="place" v="locality" />
		<tag k="ssr:stedsnr" v="276640" />
	</node>
	<node lat="64.24000277640127" lon="10.717925001969418" id="-34608">
		<tag k="name" v="Stimåvadmyra" />
		<tag k="natural" v="wetland" />
		<tag k="ssr:stedsnr" v="276734" />
	</node>
	<node lat="64.22845833480258" lon="10.8107722259987" id="-34610">
		<tag k="name" v="Ivertømtet" />
		<tag k="place" v="locality" />
		<tag k="ssr:stedsnr" v="276743" />
	</node>
	<node lat="64.21913611188073" lon="10.685999996298381" id="-34650">
		<tag k="name" v="Slåttamyra" />
		<tag k="natural" v="wetland" />
		<tag k="ssr:stedsnr" v="336267" />
	</node>
	<node lat="64.28239722541771" lon="10.721533340612929" id="-34651">
		<tag k="name" v="Fætta" />
		<tag k="natural" v="wetland" />
		<tag k="ssr:stedsnr" v="336272" />
	</node>
	<node lat="64.25722499856793" lon="10.828936115306675" id="-34662">
		<tag k="name" v="Stormyra" />
		<tag k="natural" v="wetland" />
		<tag k="ssr:stedsnr" v="336676" />
	</node>
	<node lat="64.33754722621987" lon="10.67579165704884" id="-34679">
		<tag k="historic" v="shieling" />
		<tag k="name" v="Svesseteren" />
		<tag k="place" v="locality" />
		<tag k="ssr:stedsnr" v="337390" />
	</node>
	<node lat="64.30879721935543" lon="10.537549995425906" id="-34680">
		<tag k="name" v="Håvan" />
		<tag k="natural" v="wetland" />
		<tag k="ssr:stedsnr" v="337431" />
	</node>
	<node lat="64.26155555618789" lon="10.609291661216316" id="-34698">
		<tag k="name" v="Granskogen" />
		<tag k="place" v="locality" />
		<tag k="ssr:stedsnr" v="377617" />
	</node>
	<node lat="64.35397222241562" lon="10.471547225507907" id="-34736">
		<tag k="name" v="Naustmyra" />
		<tag k="natural" v="wetland" />
		<tag k="ssr:stedsnr" v="397347" />
	</node>
	<node lat="64.3304388890639" lon="10.458813883653308" id="-34748">
		<tag k="name" v="Pålberget" />
		<tag k="place" v="locality" />
		<tag k="ssr:stedsnr" v="397690" />
	</node>
	<node lat="64.33865555558363" lon="10.454888896092653" id="-34749">
		<tag k="name" v="Langurda" />
		<tag k="natural" v="scree" />
		<tag k="ssr:stedsnr" v="397697" />
	</node>
	<node lat="64.4045722212473" lon="10.47264166725891" id="-34813">
		<tag k="name" v="Mollinsteinen" />
		<tag k="natural" v="stone" />
		<tag k="ssr:stedsnr" v="518266" />
	</node>
	<node lat="64.25242500178999" lon="10.699774995406807" id="-34826">
		<tag k="name" v="Vintervegmyra" />
		<tag k="natural" v="wetland" />
		<tag k="ssr:stedsnr" v="519356" />
	</node>
	<node lat="64.24141944692988" lon="10.593988892546747" id="-34830">
		<tag k="name" v="Førrukneppet" />
		<tag k="natural" v="wetland" />
		<tag k="ssr:stedsnr" v="519447" />
	</node>
	<node lat="64.25899999812147" lon="10.405202779453527" id="-34834">
		<tag k="name" v="Åndvika" />
		<tag k="place" v="locality" />
		<tag k="ssr:stedsnr" v="519592" />
	</node>
	<node lat="64.27661666446924" lon="10.643652778263734" id="-34871">
		<tag k="name" v="Magnhildkleiva" />
		<tag k="place" v="locality" />
		<tag k="ssr:stedsnr" v="579024" />
	</node>
	<node lat="64.29026111319303" lon="10.495977768364078" id="-34877">
		<tag k="name" v="Ormurda" />
		<tag k="natural" v="scree" />
		<tag k="ssr:stedsnr" v="579082" />
	</node>
	<node lat="64.23006110748777" lon="10.689180553307427" id="-34879">
		<tag k="name" v="Grankammyran" />
		<tag k="natural" v="wetland" />
		<tag k="ssr:stedsnr" v="579350" />
	</node>
	<node lat="64.24078333432419" lon="10.718111108016124" id="-34885">
		<tag k="name" v="Stimåa" />
		<tag k="natural" v="wetland" />
		<tag k="ssr:stedsnr" v="579281" />
	</node>
	<node lat="64.2587361069767" lon="10.62439722195744" id="-34890">
		<tag k="name" v="Hovbeinan" />
		<tag k="place" v="locality" />
		<tag k="ssr:stedsnr" v="579423" />
	</node>
	<node lat="64.2972555520503" lon="10.756936110618353" id="-34896">
		<tag k="name" v="Holmtømtet" />
		<tag k="place" v="locality" />
		<tag k="ssr:stedsnr" v="579723" />
	</node>
	<node lat="64.27242499788754" lon="10.61093333683931" id="-34903">
		<tag k="name" v="Neset" />
		<tag k="place" v="locality" />
		<tag k="ssr:stedsnr" v="579764" />
	</node>
	<node lat="64.19065833143001" lon="10.707911107964923" id="-34958">
		<tag k="name" v="Storneset" />
		<tag k="natural" v="wetland" />
		<tag k="ssr:stedsnr" v="640350" />
	</node>
	<node lat="64.41151111053034" lon="10.490405556832876" id="-34980">
		<tag k="name" v="Sneisa" />
		<tag k="place" v="locality" />
		<tag k="ssr:stedsnr" v="742665" />
	</node>
	<node lat="64.22849722076475" lon="10.638102769013251" id="-34994">
		<tag k="historic" v="shieling" />
		<tag k="name" v="Berntseteren" />
		<tag k="place" v="locality" />
		<tag k="ssr:stedsnr" v="761427" />
	</node>
	<node lat="64.31644444283047" lon="10.56383333588019" id="-34996">
		<tag k="name" v="Slåttmyra" />
		<tag k="natural" v="wetland" />
		<tag k="ssr:stedsnr" v="761054" />
	</node>
	<node lat="64.34360833302917" lon="10.504313880083235" id="-35003">
		<tag k="name" v="Øra" />
		<tag k="place" v="locality" />
		<tag k="ssr:stedsnr" v="761371" />
	</node>
	<node lat="64.2849833291069" lon="10.526455552658192" id="-35020">
		<tag k="name" v="Tytbærøya" />
		<tag k="place" v="locality" />
		<tag k="ssr:stedsnr" v="761538" />
	</node>
	<node lat="64.28657777677765" lon="10.530388890052947" id="-35025">
		<tag k="name" v="Varpet" />
		<tag k="place" v="locality" />
		<tag k="ssr:stedsnr" v="761664" />
	</node>
	<node lat="64.29195833602614" lon="10.575827785794123" id="-35027">
		<tag k="name" v="Moltmyran" />
		<tag k="natural" v="wetland" />
		<tag k="ssr:stedsnr" v="761685" />
	</node>
	<node lat="64.25777221985405" lon="10.631886101362813" id="-35030">
		<tag k="name" v="Skolenget" />
		<tag k="place" v="locality" />
		<tag k="ssr:stedsnr" v="761768" />
	</node>
	<node lat="64.2682916653863" lon="10.613013884124287" id="-35032">
		<tag k="landuse" v="quarry" />
		<tag k="name" v="Onshauggruva" />
		<tag k="ssr:stedsnr" v="761771" />
	</node>
	<node lat="64.30660278012192" lon="10.55462499857815" id="-35057">
		<tag k="historic" v="shieling" />
		<tag k="name" v="Setervollen" />
		<tag k="place" v="locality" />
		<tag k="ssr:stedsnr" v="810816" />
	</node>
	<node lat="64.3319805531195" lon="10.643827781407433" id="-35062">
		<tag k="name" v="Meenget" />
		<tag k="place" v="locality" />
		<tag k="ssr:stedsnr" v="822405" />
	</node>
	<node lat="64.23061667077855" lon="10.680380553429512" id="-35064">
		<tag k="name" v="Storåsmyra" />
		<tag k="natural" v="wetland" />
		<tag k="ssr:stedsnr" v="822728" />
	</node>
	<node lat="64.20098333712605" lon="10.70605276792259" id="-35065">
		<tag k="name" v="Blåheislættet" />
		<tag k="place" v="locality" />
		<tag k="ssr:stedsnr" v="822732" />
	</node>
	<node lat="64.2668305522253" lon="10.628349990866166" id="-35067">
		<tag k="name" v="Vannhagan" />
		<tag k="natural" v="wetland" />
		<tag k="ssr:stedsnr" v="822754" />
	</node>
	<node lat="64.28689722578217" lon="10.564663886357806" id="-35074">
		<tag k="name" v="Bomstranda" />
		<tag k="place" v="locality" />
		<tag k="ssr:stedsnr" v="822052" />
	</node>
	<node lat="64.2774416637859" lon="10.761247219300873" id="-35088">
		<tag k="name" v="Ospmoan" />
		<tag k="place" v="locality" />
		<tag k="ssr:stedsnr" v="822525" />
	</node>
	<node lat="64.29633333737424" lon="10.607000005923924" id="-35099">
		<tag k="name" v="Nordmelansmarka" />
		<tag k="place" v="locality" />
		<tag k="ssr:stedsnr" v="863576" />
	</node>
	<node lat="64.2346638852765" lon="10.645977777426937" id="-35156">
		<tag k="name" v="Høgmyråsen" />
		<tag k="natural" v="wetland" />
		<tag k="ssr:stedsnr" v="883696" />
	</node>
	<node lat="64.36271388452056" lon="10.647902781761118" id="-35158">
		<tag k="name" v="Rapet" />
		<tag k="place" v="locality" />
		<tag k="ssr:stedsnr" v="883771" />
	</node>
	<node lat="64.31355555460568" lon="10.479169445433351" id="-35181">
		<tag k="name" v="Skogan" />
		<tag k="place" v="locality" />
		<tag k="ssr:stedsnr" v="944022" />
	</node>
	<node lat="64.36074444427479" lon="10.636519448840408" id="-35187">
		<tag k="name" v="Hallen" />
		<tag k="place" v="locality" />
		<tag k="ssr:stedsnr" v="944325" />
	</node>
	<node lat="64.3214138888773" lon="10.582327770954542" id="-35189">
		<tag k="name" v="Polholet" />
		<tag k="place" v="locality" />
		<tag k="ssr:stedsnr" v="944042" />
	</node>
	<node lat="64.284605551313" lon="10.577766676262987" id="-35190">
		<tag k="name" v="Høvelmyra" />
		<tag k="place" v="locality" />
		<tag k="ssr:stedsnr" v="944043" />
	</node>
	<node lat="64.35305833171671" lon="10.489397220201422" id="-35193">
		<tag k="name" v="Hestmyra" />
		<tag k="natural" v="wetland" />
		<tag k="ssr:stedsnr" v="944339" />
	</node>
	<node lat="64.28847222397738" lon="10.545966670544775" id="-35199">
		<tag k="name" v="Smådølstranda" />
		<tag k="place" v="locality" />
		<tag k="ssr:stedsnr" v="944466" />
	</node>
	<node lat="64.20975832961743" lon="10.650966671742767" id="-35202">
		<tag k="name" v="Stormyra" />
		<tag k="natural" v="wetland" />
		<tag k="ssr:stedsnr" v="944654" />
=======
	<node id="-732383" lat="64.2910666642" lon="10.520505562">
		<tag k="landuse" v="meadow" />
		<tag k="name" v="Koldalen" />
		<tag k="ssr:stedsnr" v="33487" />
	</node>
	<node id="-732377" lat="64.3365333336" lon="10.6204999949">
		<tag k="landuse" v="meadow" />
		<tag k="name" v="Gammelsnøfonna" />
		<tag k="ssr:stedsnr" v="33463" />
	</node>
	<node id="-732376" lat="64.296291667" lon="10.6177166697">
		<tag k="name" v="Nesa" />
		<tag k="natural" v="wetland" />
		<tag k="ssr:stedsnr" v="33454" />
	</node>
	<node id="-732375" lat="64.2051499969" lon="10.6802944419">
		<tag k="name" v="Brukstømtet" />
		<tag k="place" v="locality" />
		<tag k="ssr:stedsnr" v="33447" />
	</node>
	<node id="-731862" lat="64.2414194469" lon="10.5939888925">
		<tag k="name" v="Førrukneppet" />
		<tag k="natural" v="wetland" />
		<tag k="ssr:stedsnr" v="519447" />
	</node>
	<node id="-731855" lat="64.2524250018" lon="10.6997749954">
		<tag k="name" v="Vintervegmyra" />
		<tag k="natural" v="wetland" />
		<tag k="ssr:stedsnr" v="519356" />
	</node>
	<node id="-731852" lat="64.3420444421" lon="10.4686138886">
		<tag k="name" v="Vassmyra" />
		<tag k="natural" v="wetland" />
		<tag k="ssr:stedsnr" v="519324" />
	</node>
	<node id="-732353" lat="64.3928027744" lon="10.4816000098">
		<tag k="name" v="Raudsteinurda" />
		<tag k="natural" v="scree" />
		<tag k="ssr:stedsnr" v="33330" />
	</node>
	<node id="-732352" lat="64.3026250021" lon="10.5044916749">
		<tag k="name" v="Ørskogan" />
		<tag k="place" v="locality" />
		<tag k="ssr:stedsnr" v="33321" />
	</node>
	<node id="-732351" lat="64.4065888873" lon="10.4817694347">
		<tag k="name" v="Urddalsmyra" />
		<tag k="natural" v="wetland" />
		<tag k="ssr:stedsnr" v="33317" />
	</node>
	<node id="-731836" lat="64.2777527751" lon="10.5885777873">
		<tag k="name" v="Kløvmyra" />
		<tag k="natural" v="wetland" />
		<tag k="ssr:stedsnr" v="518725" />
	</node>
	<node id="-731831" lat="64.4059805587" lon="10.4609333254">
		<tag k="name" v="Raffelurda" />
		<tag k="natural" v="scree" />
		<tag k="ssr:stedsnr" v="518633" />
	</node>
	<node id="-731826" lat="64.4045722212" lon="10.4726416673">
		<tag k="name" v="Mollinsteinen" />
		<tag k="natural" v="stone" />
		<tag k="ssr:stedsnr" v="518266" />
	</node>
	<node id="-732840" lat="64.3386555556" lon="10.4548888961">
		<tag k="name" v="Langurda" />
		<tag k="natural" v="scree" />
		<tag k="ssr:stedsnr" v="397697" />
	</node>
	<node id="-732839" lat="64.3304388891" lon="10.4588138837">
		<tag k="name" v="Pålberget" />
		<tag k="place" v="locality" />
		<tag k="ssr:stedsnr" v="397690" />
	</node>
	<node id="-731809" lat="64.3539722224" lon="10.4715472255">
		<tag k="name" v="Naustmyra" />
		<tag k="natural" v="wetland" />
		<tag k="ssr:stedsnr" v="397347" />
	</node>
	<node id="-732831" lat="64.265269445" lon="10.4690305485">
		<tag k="name" v="Litlenget" />
		<tag k="place" v="locality" />
		<tag k="ssr:stedsnr" v="397608" />
	</node>
	<node id="-732829" lat="64.3360000007" lon="10.5916249996">
		<tag k="name" v="Vingmyra" />
		<tag k="natural" v="wetland" />
		<tag k="ssr:stedsnr" v="397527" />
	</node>
	<node id="-732312" lat="64.2613722228" lon="10.887416676">
		<tag k="landuse" v="meadow" />
		<tag k="name" v="Skogslætta" />
		<tag k="ssr:stedsnr" v="14131" />
	</node>
	<node id="-731659" lat="64.2900750024" lon="10.4282416608">
		<tag k="name" v="Brattjer" />
		<tag k="place" v="locality" />
		<tag k="ssr:stedsnr" v="458101" />
	</node>
	<node id="-731587" lat="64.3018972206" lon="10.6483138964">
		<tag k="name" v="Langdalsmyran" />
		<tag k="natural" v="wetland" />
		<tag k="ssr:stedsnr" v="215014" />
	</node>
	<node id="-732815" lat="64.2619111089" lon="10.4426944389">
		<tag k="name" v="Tømtet" />
		<tag k="place" v="locality" />
		<tag k="ssr:stedsnr" v="397396" />
	</node>
	<node id="-732119" lat="64.291958336" lon="10.5758277858">
		<tag k="name" v="Moltmyran" />
		<tag k="natural" v="wetland" />
		<tag k="ssr:stedsnr" v="761685" />
	</node>
	<node id="-732806" lat="64.2892416675" lon="10.4237916624">
		<tag k="name" v="Tørrbalen" />
		<tag k="place" v="locality" />
		<tag k="ssr:stedsnr" v="397107" />
	</node>
	<node id="-731841" lat="64.2050555587" lon="10.6464916746">
		<tag k="historic" v="shieling" />
		<tag k="name" v="Tyllevseteren" />
		<tag k="place" v="locality" />
		<tag k="ssr:stedsnr" v="519007" />
	</node>
	<node id="-731779" lat="64.2615555562" lon="10.6092916612">
		<tag k="name" v="Granskogen" />
		<tag k="place" v="locality" />
		<tag k="ssr:stedsnr" v="377617" />
	</node>
	<node id="-732800" lat="64.3193416634" lon="10.5338416568">
		<tag k="name" v="Almurda" />
		<tag k="natural" v="scree" />
		<tag k="ssr:stedsnr" v="397030" />
	</node>
	<node id="-732796" lat="64.3254972185" lon="10.3738555465">
		<tag k="name" v="Trolla" />
		<tag k="place" v="locality" />
		<tag k="ssr:stedsnr" v="397003" />
	</node>
	<node id="-731770" lat="64.3283250028" lon="10.3563444431">
		<tag k="name" v="Hundhammaren" />
		<tag k="place" v="locality" />
		<tag k="ssr:stedsnr" v="337007" />
	</node>
	<node id="-731768" lat="64.2823972254" lon="10.7215333406">
		<tag k="name" v="Fætta" />
		<tag k="natural" v="wetland" />
		<tag k="ssr:stedsnr" v="336272" />
	</node>
	<node id="-731767" lat="64.2191361119" lon="10.6859999963">
		<tag k="name" v="Slåttamyra" />
		<tag k="natural" v="wetland" />
		<tag k="ssr:stedsnr" v="336267" />
	</node>
	<node id="-732275" lat="64.3627138845" lon="10.6479027818">
		<tag k="name" v="Rapet" />
		<tag k="place" v="locality" />
		<tag k="ssr:stedsnr" v="883771" />
	</node>
	<node id="-732272" lat="64.2227499965" lon="10.6844499925">
		<tag k="name" v="Tjørraveikmyra" />
		<tag k="natural" v="wetland" />
		<tag k="ssr:stedsnr" v="883753" />
	</node>
	<node id="-732257" lat="64.4123722253" lon="10.520902777">
		<tag k="name" v="Stormyra" />
		<tag k="natural" v="wetland" />
		<tag k="ssr:stedsnr" v="883366" />
	</node>
	<node id="-732262" lat="64.3539888868" lon="10.4879611048">
		<tag k="name" v="Tronga" />
		<tag k="natural" v="scree" />
		<tag k="ssr:stedsnr" v="883404" />
	</node>
	<node id="-732772" lat="64.3001305531" lon="10.6451138847">
		<tag k="historic" v="shieling" />
		<tag k="name" v="Gammelseteren" />
		<tag k="place" v="locality" />
		<tag k="ssr:stedsnr" v="378602" />
	</node>
	<node id="-731745" lat="64.2589999981" lon="10.4052027795">
		<tag k="name" v="Åndvika" />
		<tag k="place" v="locality" />
		<tag k="ssr:stedsnr" v="519592" />
	</node>
	<node id="-731732" lat="64.2312194403" lon="10.5945083353">
		<tag k="name" v="Åseggsetertømtet" />
		<tag k="natural" v="wetland" />
		<tag k="ssr:stedsnr" v="276508" />
	</node>
	<node id="-732242" lat="64.2097583296" lon="10.6509666717">
		<tag k="name" v="Stormyra" />
		<tag k="natural" v="wetland" />
		<tag k="ssr:stedsnr" v="944654" />
	</node>
	<node id="-732239" lat="64.2933888868" lon="10.4682361101">
		<tag k="name" v="Hønsteinen" />
		<tag k="place" v="locality" />
		<tag k="ssr:stedsnr" v="944595" />
	</node>
	<node id="-731720" lat="64.4007694454" lon="10.5323083252">
		<tag k="name" v="Bryggberga" />
		<tag k="place" v="locality" />
		<tag k="ssr:stedsnr" v="276407" />
	</node>
	<node id="-732742" lat="64.3087972194" lon="10.5375499954">
		<tag k="name" v="Håvan" />
		<tag k="natural" v="wetland" />
		<tag k="ssr:stedsnr" v="337431" />
	</node>
	<node id="-732229" lat="64.288472224" lon="10.5459666705">
		<tag k="name" v="Smådølstranda" />
		<tag k="place" v="locality" />
		<tag k="ssr:stedsnr" v="944466" />
	</node>
	<node id="-732737" lat="64.3375472262" lon="10.675791657">
		<tag k="historic" v="shieling" />
		<tag k="name" v="Svesseteren" />
		<tag k="place" v="locality" />
		<tag k="ssr:stedsnr" v="337390" />
	</node>
	<node id="-731711" lat="64.2682611085" lon="10.6091888908">
		<tag k="name" v="Sjursøya" />
		<tag k="place" v="locality" />
		<tag k="ssr:stedsnr" v="458764" />
	</node>
	<node id="-732221" lat="64.2423305571" lon="10.6395861142">
		<tag k="name" v="Kjølamyra" />
		<tag k="natural" v="wetland" />
		<tag k="ssr:stedsnr" v="944404" />
	</node>
	<node id="-731707" lat="64.1917888884" lon="10.673605552">
		<tag k="name" v="Hornmyran" />
		<tag k="natural" v="wetland" />
		<tag k="ssr:stedsnr" v="458731" />
	</node>
	<node id="-731705" lat="64.2324138855" lon="10.6661805544">
		<tag k="name" v="Odden" />
		<tag k="natural" v="wetland" />
		<tag k="ssr:stedsnr" v="458727" />
	</node>
	<node id="-732216" lat="64.4031083309" lon="10.5302388896">
		<tag k="name" v="Kråksølvsteinen" />
		<tag k="natural" v="stone" />
		<tag k="ssr:stedsnr" v="944384" />
	</node>
	<node id="-732211" lat="64.3530583317" lon="10.4893972202">
		<tag k="name" v="Hestmyra" />
		<tag k="natural" v="wetland" />
		<tag k="ssr:stedsnr" v="944339" />
	</node>
	<node id="-732210" lat="64.3607444443" lon="10.6365194488">
		<tag k="name" v="Hallen" />
		<tag k="place" v="locality" />
		<tag k="ssr:stedsnr" v="944325" />
	</node>
	<node id="-732721" lat="64.2483194471" lon="10.648991667">
		<tag k="name" v="Dragdalen" />
		<tag k="place" v="locality" />
		<tag k="ssr:stedsnr" v="337049" />
	</node>
	<node id="-732717" lat="64.2572249986" lon="10.8289361153">
		<tag k="name" v="Stormyra" />
		<tag k="natural" v="wetland" />
		<tag k="ssr:stedsnr" v="336676" />
	</node>
	<node id="-731690" lat="64.2833805565" lon="10.5418083232">
		<tag k="name" v="Myrdalen" />
		<tag k="natural" v="wetland" />
		<tag k="ssr:stedsnr" v="458516" />
	</node>
	<node id="-732199" lat="64.2846055513" lon="10.5777666763">
		<tag k="name" v="Høvelmyra" />
		<tag k="place" v="locality" />
		<tag k="ssr:stedsnr" v="944043" />
	</node>
	<node id="-732198" lat="64.3214138889" lon="10.582327771">
		<tag k="name" v="Polholet" />
		<tag k="place" v="locality" />
		<tag k="ssr:stedsnr" v="944042" />
	</node>
	<node id="-732196" lat="64.3135555546" lon="10.4791694454">
		<tag k="name" v="Skogan" />
		<tag k="place" v="locality" />
		<tag k="ssr:stedsnr" v="944022" />
	</node>
	<node id="-731683" lat="64.2595861076" lon="10.4457305484">
		<tag k="name" v="Setermyra" />
		<tag k="natural" v="wetland" />
		<tag k="ssr:stedsnr" v="458454" />
	</node>
	<node id="-731995" lat="64.2972555521" lon="10.7569361106">
		<tag k="name" v="Holmtømtet" />
		<tag k="place" v="locality" />
		<tag k="ssr:stedsnr" v="579723" />
	</node>
	<node id="-731679" lat="64.2624861118" lon="10.6242583355">
		<tag k="name" v="Grossmyra" />
		<tag k="natural" v="wetland" />
		<tag k="ssr:stedsnr" v="458425" />
	</node>
	<node id="-731994" lat="64.355891667" lon="10.493638894">
		<tag k="name" v="Hushallen" />
		<tag k="place" v="locality" />
		<tag k="ssr:stedsnr" v="579713" />
	</node>
	<node id="-731670" lat="64.2950638884" lon="10.5117805565">
		<tag k="name" v="Skogan" />
		<tag k="place" v="locality" />
		<tag k="ssr:stedsnr" v="458333" />
	</node>
	<node id="-731667" lat="64.4065555538" lon="10.5257361093">
		<tag k="name" v="Nesa" />
		<tag k="place" v="locality" />
		<tag k="ssr:stedsnr" v="458322" />
	</node>
	<node id="-732177" lat="64.2668305522" lon="10.6283499909">
		<tag k="name" v="Vannhagan" />
		<tag k="natural" v="wetland" />
		<tag k="ssr:stedsnr" v="822754" />
	</node>
	<node id="-731660" lat="64.2536638891" lon="10.4317638913">
		<tag k="name" v="Austenget" />
		<tag k="place" v="locality" />
		<tag k="ssr:stedsnr" v="458103" />
	</node>
	<node id="-733195" lat="64.2169138883" lon="10.5731638974">
		<tag k="name" v="Hofstaddalsmyran" />
		<tag k="natural" v="wetland" />
		<tag k="ssr:stedsnr" v="864010" />
	</node>
	<node id="-732170" lat="64.3319805531" lon="10.6438277814">
		<tag k="name" v="Meenget" />
		<tag k="place" v="locality" />
		<tag k="ssr:stedsnr" v="822405" />
	</node>
	<node id="-732169" lat="64.2774416638" lon="10.7612472193">
		<tag k="name" v="Ospmoan" />
		<tag k="place" v="locality" />
		<tag k="ssr:stedsnr" v="822525" />
	</node>
	<node id="-732165" lat="64.2503777808" lon="10.6576055623">
		<tag k="name" v="Botnan" />
		<tag k="place" v="locality" />
		<tag k="ssr:stedsnr" v="822373" />
	</node>
	<node id="-733187" lat="64.2963333374" lon="10.6070000059">
		<tag k="name" v="Nordmelansmarka" />
		<tag k="place" v="locality" />
		<tag k="ssr:stedsnr" v="863576" />
	</node>
	<node id="-732162" lat="64.3461833325" lon="10.4809499905">
		<tag k="name" v="Apoteket" />
		<tag k="natural" v="scree" />
		<tag k="ssr:stedsnr" v="822076" />
>>>>>>> e1d4bc35ff8a6074a6f2e91616a996b547c36f15
	</node>
</osm>
