<?xml version="1.0" encoding="UTF-8"?>
<<<<<<< HEAD
<osm version="0.6" generator="osmapis">
	<node lat="64.42240555731232" lon="10.431947218143073" id="-33461">
		<tag k="fixme" v="consider seamark:type=rock or natural=shoal" />
		<tag k="name" v="Rasskitskjæret" />
		<tag k="place" v="islet" />
		<tag k="ssr:stedsnr" v="14613" />
	</node>
	<node lat="64.41738333054202" lon="10.41483055912735" id="-33462">
		<tag k="fixme" v="consider seamark:type=rock or natural=shoal" />
		<tag k="name" v="Grøtskjæret" />
		<tag k="place" v="islet" />
		<tag k="ssr:stedsnr" v="14639" />
	</node>
	<node lat="64.32280000052745" lon="10.131733335195527" id="-33464">
		<tag k="name" v="Kollen" />
		<tag k="natural" v="shoal" />
		<tag k="place" v="locality" />
		<tag k="ssr:stedsnr" v="14803" />
	</node>
	<node lat="64.35609444311325" lon="10.399605555419615" id="-33465">
		<tag k="fixme" v="consider seamark:type=rock or natural=shoal" />
		<tag k="name" v="Klubbskjæret" />
		<tag k="place" v="islet" />
		<tag k="ssr:stedsnr" v="24300" />
	</node>
	<node lat="64.40865833135369" lon="10.363766674410803" id="-33466">
		<tag k="fixme" v="consider seamark:type=rock or natural=shoal" />
		<tag k="name" v="Langrøa" />
		<tag k="place" v="islet" />
		<tag k="ssr:stedsnr" v="26405" />
	</node>
	<node lat="64.40264444313432" lon="10.382058330233649" id="-33467">
		<tag k="fixme" v="consider seamark:type=rock or natural=shoal" />
		<tag k="name" v="Mjølskjæra" />
		<tag k="place" v="islet" />
		<tag k="ssr:stedsnr" v="26406" />
	</node>
	<node lat="64.27972777517232" lon="10.391794451137136" id="-33469">
		<tag k="name" v="Litlholmen" />
		<tag k="place" v="islet" />
		<tag k="ssr:stedsnr" v="33023" />
	</node>
	<node lat="64.35256111446522" lon="10.504533329045273" id="-33474">
		<tag k="name" v="Ytter Grønnvika" />
=======
<osm generator="osmapis" version="0.6">
	<node id="-733167" lat="64.3210027744" lon="10.3628722295">
		<tag k="name" v="Vikanesa" />
		<tag k="natural" v="cape" />
		<tag k="ssr:stedsnr" v="822640" />
	</node>
	<node id="-733165" lat="64.3505583348" lon="10.4492888814">
		<tag k="name" v="Åkvika" />
>>>>>>> e1d4bc35ff8a6074a6f2e91616a996b547c36f15
		<tag k="natural" v="bay" />
		<tag k="ssr:stedsnr" v="33365" />
	</node>
<<<<<<< HEAD
	<node lat="64.34119166508557" lon="10.489291666055573" id="-33475">
		<tag k="name" v="Gjetarvika" />
		<tag k="natural" v="bay" />
		<tag k="ssr:stedsnr" v="33367" />
	</node>
	<node lat="64.40130306454978" lon="10.453627453699088" id="-33476">
		<tag k="name" v="Sønnaholmen" />
=======
	<node id="-733157" lat="64.3961250026" lon="10.4681361193">
		<tag k="fixme" v="consider seamark:type=rock or natural=shoal" />
		<tag k="name" v="Ringskjeret" />
>>>>>>> e1d4bc35ff8a6074a6f2e91616a996b547c36f15
		<tag k="place" v="islet" />
		<tag k="ssr:stedsnr" v="33369" />
	</node>
<<<<<<< HEAD
	<node lat="64.36333333770143" lon="10.664547223292798" id="-33480">
		<tag k="name" v="Levikodden" />
		<tag k="natural" v="cape" />
		<tag k="ssr:stedsnr" v="33405" />
	</node>
	<node lat="64.28935277385244" lon="10.458152777678325" id="-33485">
		<tag k="name" v="Røytvika" />
=======
	<node id="-733154" lat="64.3928166682" lon="10.4968555548">
		<tag k="name" v="Småvikan" />
		<tag k="natural" v="bay" />
		<tag k="ssr:stedsnr" v="822330" />
	</node>
	<node id="-733150" lat="64.2982472181" lon="10.4268138798">
		<tag k="name" v="Steinvika" />
>>>>>>> e1d4bc35ff8a6074a6f2e91616a996b547c36f15
		<tag k="natural" v="bay" />
		<tag k="ssr:stedsnr" v="33517" />
	</node>
<<<<<<< HEAD
	<node lat="64.39390555502264" lon="10.49873333584416" id="-33488">
		<tag k="fixme" v="consider seamark:type=rock or natural=shoal" />
		<tag k="name" v="Bogaskjeret" />
		<tag k="place" v="islet" />
		<tag k="ssr:stedsnr" v="33709" />
	</node>
	<node lat="64.41483611390292" lon="10.478502773715755" id="-33489">
		<tag k="name" v="Asbuneset" />
		<tag k="natural" v="cape" />
		<tag k="ssr:stedsnr" v="33712" />
	</node>
	<node lat="64.41786826984622" lon="10.426516391813761" id="-33510">
		<tag k="name" v="Buholmen" />
=======
	<node id="-733149" lat="64.3322999973" lon="10.4765444422">
		<tag k="name" v="Stranda" />
		<tag k="natural" v="beach" />
		<tag k="place" v="locality" />
		<tag k="ssr:stedsnr" v="822032" />
	</node>
	<node id="-733147" lat="64.2892388913" lon="10.4445666648">
		<tag k="name" v="Storholmen" />
>>>>>>> e1d4bc35ff8a6074a6f2e91616a996b547c36f15
		<tag k="place" v="islet" />
		<tag k="ssr:stedsnr" v="75729" />
	</node>
<<<<<<< HEAD
	<node lat="64.38841666386858" lon="10.521111106503842" id="-33511">
		<tag k="name" v="Nausttaren" />
		<tag k="natural" v="shoal" />
		<tag k="place" v="locality" />
		<tag k="ssr:stedsnr" v="85789" />
	</node>
	<node lat="64.40237222360301" lon="10.345777768487146" id="-33512">
		<tag k="name" v="Fallet" />
=======
	<node id="-733145" lat="64.2909222182" lon="10.2782916639">
		<tag k="name" v="Yttervågen" />
		<tag k="natural" v="bay" />
		<tag k="ssr:stedsnr" v="815800" />
	</node>
	<node id="-733144" lat="64.3552333314" lon="10.3729666698">
		<tag k="name" v="Biskopflua" />
>>>>>>> e1d4bc35ff8a6074a6f2e91616a996b547c36f15
		<tag k="natural" v="shoal" />
		<tag k="place" v="locality" />
		<tag k="ssr:stedsnr" v="87377" />
	</node>
<<<<<<< HEAD
	<node lat="64.2837583325181" lon="10.406661116382876" id="-33513">
		<tag k="name" v="Sandvika" />
=======
	<node id="-733141" lat="64.3452777789" lon="10.4898027705">
		<tag k="bay" v="fjord" />
		<tag k="name" v="Hopen" />
>>>>>>> e1d4bc35ff8a6074a6f2e91616a996b547c36f15
		<tag k="natural" v="bay" />
		<tag k="ssr:stedsnr" v="87821" />
	</node>
<<<<<<< HEAD
	<node lat="64.29802777869008" lon="10.273869449808805" id="-33523">
		<tag k="name" v="Yttervågan" />
=======
	<node id="-733140" lat="64.3761305511" lon="10.5660555647">
		<tag k="bay" v="fjord" />
		<tag k="name" v="Svesfjorden" />
>>>>>>> e1d4bc35ff8a6074a6f2e91616a996b547c36f15
		<tag k="natural" v="bay" />
		<tag k="ssr:stedsnr" v="94521" />
	</node>
<<<<<<< HEAD
	<node lat="64.28305555921577" lon="10.285280545735516" id="-33525">
		<tag k="name" v="Tonøya" />
		<tag k="place" v="island" />
		<tag k="ssr:stedsnr" v="94527" />
	</node>
	<node lat="64.35010833049036" lon="10.429369454423453" id="-33529">
		<tag k="name" v="Nord-Skokkeløya" />
		<tag k="place" v="island" />
		<tag k="ssr:stedsnr" v="134756" />
	</node>
	<node lat="64.3724250013797" lon="10.515563883921864" id="-33534">
		<tag k="name" v="Helvikneset" />
		<tag k="natural" v="cape" />
		<tag k="ssr:stedsnr" v="135703" />
	</node>
	<node lat="64.3717500037265" lon="10.272097216851014" id="-33535">
		<tag k="name" v="Småfalla" />
		<tag k="natural" v="shoal" />
		<tag k="place" v="locality" />
		<tag k="ssr:stedsnr" v="135705" />
	</node>
	<node lat="64.43119722377975" lon="10.421191664889527" id="-33538">
		<tag k="name" v="Oddfallet" />
		<tag k="natural" v="shoal" />
		<tag k="place" v="locality" />
		<tag k="ssr:stedsnr" v="135654" />
	</node>
	<node lat="64.40562222344408" lon="10.352411111843734" id="-33539">
		<tag k="fixme" v="consider seamark:type=rock or natural=shoal" />
		<tag k="name" v="Kårflesa" />
		<tag k="place" v="islet" />
		<tag k="ssr:stedsnr" v="135665" />
	</node>
	<node lat="64.3056916639423" lon="10.455455554776295" id="-33543">
		<tag k="name" v="Skarvsteinbukta" />
=======
	<node id="-733134" lat="64.3145805595" lon="10.2493194413">
		<tag k="name" v="Bakbåen" />
		<tag k="natural" v="shoal" />
		<tag k="place" v="locality" />
		<tag k="ssr:stedsnr" v="803547" />
	</node>
	<node id="-733132" lat="64.3187222196" lon="10.2640666735">
		<tag k="name" v="Singsholmen" />
		<tag k="place" v="islet" />
		<tag k="ssr:stedsnr" v="803530" />
	</node>
	<node id="-733131" lat="64.3257527744" lon="10.3707944356">
		<tag k="name" v="Hepsøya" />
		<tag k="place" v="island" />
		<tag k="ssr:stedsnr" v="803528" />
	</node>
	<node id="-733130" lat="64.3265833361" lon="10.4365916631">
		<tag k="name" v="Ramsøysundet" />
		<tag k="natural" v="strait" />
		<tag k="ssr:stedsnr" v="803526" />
	</node>
	<node id="-733120" lat="64.2619805513" lon="10.4190333337">
		<tag k="name" v="Jevika" />
>>>>>>> e1d4bc35ff8a6074a6f2e91616a996b547c36f15
		<tag k="natural" v="bay" />
		<tag k="ssr:stedsnr" v="256510" />
	</node>
<<<<<<< HEAD
	<node lat="64.28987500401819" lon="10.24012222291824" id="-33547">
		<tag k="name" v="Innerøyværet" />
=======
	<node id="-733119" lat="64.3587500013" lon="10.3920138834">
		<tag k="name" v="Lamholmen" />
>>>>>>> e1d4bc35ff8a6074a6f2e91616a996b547c36f15
		<tag k="place" v="islet" />
		<tag k="ssr:stedsnr" v="256529" />
	</node>
<<<<<<< HEAD
	<node lat="64.43257777730489" lon="10.464627777074508" id="-33550">
		<tag k="name" v="Auksundleia" />
		<tag k="natural" v="strait" />
		<tag k="ssr:stedsnr" v="256642" />
	</node>
	<node lat="64.41055832943633" lon="10.423713895711122" id="-33551">
		<tag k="name" v="Sandholman" />
=======
	<node id="-733118" lat="64.3563555578" lon="10.4603055644">
		<tag k="name" v="Vingsandholmen" />
>>>>>>> e1d4bc35ff8a6074a6f2e91616a996b547c36f15
		<tag k="place" v="islet" />
		<tag k="ssr:stedsnr" v="256646" />
	</node>
<<<<<<< HEAD
	<node lat="64.33993610849748" lon="10.26354999090775" id="-33555">
		<tag k="name" v="Langfalla" />
		<tag k="natural" v="shoal" />
		<tag k="place" v="locality" />
		<tag k="ssr:stedsnr" v="256705" />
	</node>
	<node lat="64.36306388848236" lon="10.498038891752039" id="-33556">
		<tag k="name" v="Fårøya" />
		<tag k="place" v="island" />
		<tag k="ssr:stedsnr" v="256671" />
	</node>
	<node lat="64.36118055441494" lon="10.354866659688623" id="-33557">
		<tag k="fixme" v="consider seamark:type=rock or natural=shoal" />
		<tag k="name" v="Haraflesan" />
=======
	<node id="-733116" lat="64.3680138906" lon="10.513686105">
		<tag k="name" v="Heimaneset" />
		<tag k="natural" v="cape" />
		<tag k="ssr:stedsnr" v="875841" />
	</node>
	<node id="-733109" lat="64.2846777792" lon="10.2701611201">
		<tag k="name" v="Hovdneset" />
		<tag k="natural" v="cape" />
		<tag k="ssr:stedsnr" v="761652" />
	</node>
	<node id="-733108" lat="64.2920472193" lon="10.2749361149">
		<tag k="name" v="Grindholmen" />
>>>>>>> e1d4bc35ff8a6074a6f2e91616a996b547c36f15
		<tag k="place" v="islet" />
		<tag k="ssr:stedsnr" v="256675" />
	</node>
<<<<<<< HEAD
	<node lat="64.35182222138579" lon="10.22814443599454" id="-33558">
		<tag k="alt_name" v="Einstøingen, nordre" />
		<tag k="name" v="Nordre Einstøingen" />
		<tag k="natural" v="shoal" />
		<tag k="place" v="locality" />
		<tag k="ssr:stedsnr" v="256695" />
	</node>
	<node lat="64.31691110864696" lon="10.156102767885207" id="-33559">
		<tag k="name" v="Nettan" />
		<tag k="natural" v="shoal" />
		<tag k="place" v="locality" />
		<tag k="ssr:stedsnr" v="256785" />
	</node>
	<node lat="64.34344721856556" lon="10.398858325306309" id="-33560">
		<tag k="alt_name" v="Hestholmen, nordre;Nord Hestholmen" />
		<tag k="name" v="Nord-Hestholmen" />
=======
	<node id="-733106" lat="64.2732999961" lon="10.4502361148">
		<tag k="name" v="Brenna" />
		<tag k="natural" v="beach" />
		<tag k="place" v="locality" />
		<tag k="ssr:stedsnr" v="761633" />
	</node>
	<node id="-733101" lat="64.2220416676" lon="10.7600138962">
		<tag k="name" v="Steintangen" />
		<tag k="natural" v="cape" />
		<tag k="ssr:stedsnr" v="761750" />
	</node>
	<node id="-733093" lat="64.2676249962" lon="10.442597231">
		<tag k="name" v="Byneset" />
		<tag k="natural" v="cape" />
		<tag k="ssr:stedsnr" v="761422" />
	</node>
	<node id="-733082" lat="64.3477722267" lon="10.5113777791">
		<tag k="fixme" v="consider seamark:type=rock or natural=shoal" />
		<tag k="name" v="Almsteinan" />
>>>>>>> e1d4bc35ff8a6074a6f2e91616a996b547c36f15
		<tag k="place" v="islet" />
		<tag k="ssr:stedsnr" v="256711" />
	</node>
<<<<<<< HEAD
	<node lat="64.29245555189001" lon="10.446930549292718" id="-33565">
		<tag k="name" v="Lindsetneset" />
=======
	<node id="-733073" lat="64.3981722264" lon="10.4688222281">
		<tag k="name" v="Singsneset" />
>>>>>>> e1d4bc35ff8a6074a6f2e91616a996b547c36f15
		<tag k="natural" v="cape" />
		<tag k="ssr:stedsnr" v="154657" />
	</node>
<<<<<<< HEAD
	<node lat="64.32663889318147" lon="10.427399996207589" id="-33566">
		<tag k="name" v="Åkervika" />
=======
	<node id="-733072" lat="64.3977444472" lon="10.4755444546">
		<tag k="name" v="Styrvika" />
>>>>>>> e1d4bc35ff8a6074a6f2e91616a996b547c36f15
		<tag k="natural" v="bay" />
		<tag k="ssr:stedsnr" v="154666" />
	</node>
<<<<<<< HEAD
	<node lat="64.32227222541756" lon="10.353777787775869" id="-33569">
		<tag k="name" v="Austvikholmen" />
=======
	<node id="-733067" lat="64.3199916633" lon="10.4461805496">
		<tag k="name" v="Sundholmen" />
>>>>>>> e1d4bc35ff8a6074a6f2e91616a996b547c36f15
		<tag k="place" v="islet" />
		<tag k="ssr:stedsnr" v="154555" />
	</node>
<<<<<<< HEAD
	<node lat="64.3709305538769" lon="10.377625001416993" id="-33580">
		<tag k="fixme" v="consider seamark:type=rock or natural=shoal" />
		<tag k="name" v="Hestskjæret" />
		<tag k="place" v="islet" />
		<tag k="ssr:stedsnr" v="257756" />
	</node>
	<node lat="64.37944722516302" lon="10.239908327064333" id="-33582">
		<tag k="name" v="Storflua" />
		<tag k="natural" v="shoal" />
		<tag k="place" v="locality" />
		<tag k="ssr:stedsnr" v="257754" />
	</node>
	<node lat="64.41750833008275" lon="10.386541668849816" id="-33594">
=======
	<node id="-733066" lat="64.3066861082" lon="10.4494333229">
		<tag k="name" v="Skarvsteinsodden" />
		<tag k="natural" v="cape" />
		<tag k="ssr:stedsnr" v="761097" />
	</node>
	<node id="-733063" lat="64.3193361123" lon="10.3504333437">
		<tag k="name" v="Vågtaren" />
		<tag k="natural" v="shoal" />
		<tag k="place" v="locality" />
		<tag k="ssr:stedsnr" v="754826" />
	</node>
	<node id="-733062" lat="64.286108333" lon="10.4030611189">
		<tag k="alt_name" v="Øksenvikneset" />
		<tag k="name" v="Øksvikneset" />
		<tag k="natural" v="cape" />
		<tag k="ssr:stedsnr" v="754814" />
	</node>
	<node id="-733061" lat="64.2746111075" lon="10.3982861015">
		<tag k="alt_name" v="Tjelddøra" />
		<tag k="name" v="Tjeldøra" />
		<tag k="natural" v="cape" />
		<tag k="ssr:stedsnr" v="754806" />
	</node>
	<node id="-733060" lat="64.273233337" lon="10.4119888917">
		<tag k="name" v="Sørjervågen" />
		<tag k="natural" v="bay" />
		<tag k="ssr:stedsnr" v="754803" />
	</node>
	<node id="-733059" lat="64.4201694453" lon="10.3729555494">
>>>>>>> e1d4bc35ff8a6074a6f2e91616a996b547c36f15
		<tag k="fixme" v="consider seamark:type=rock or natural=shoal" />
		<tag k="name" v="Barden" />
		<tag k="place" v="islet" />
		<tag k="ssr:stedsnr" v="196658" />
	</node>
<<<<<<< HEAD
	<node lat="64.34894999983528" lon="10.202400008325258" id="-33596">
		<tag k="name" v="Leifalla" />
=======
	<node id="-733058" lat="64.4145083292" lon="10.4309888787">
		<tag k="name" v="Buholmflua" />
>>>>>>> e1d4bc35ff8a6074a6f2e91616a996b547c36f15
		<tag k="natural" v="shoal" />
		<tag k="place" v="locality" />
		<tag k="ssr:stedsnr" v="196811" />
	</node>
<<<<<<< HEAD
	<node lat="64.35331666574089" lon="10.198138898609404" id="-33597">
		<tag k="name" v="Hystaren" />
=======
	<node id="-733057" lat="64.4278611118" lon="10.487411112">
		<tag k="name" v="Sneistaren" />
>>>>>>> e1d4bc35ff8a6074a6f2e91616a996b547c36f15
		<tag k="natural" v="shoal" />
		<tag k="place" v="locality" />
		<tag k="ssr:stedsnr" v="196812" />
	</node>
<<<<<<< HEAD
	<node lat="64.28117777751497" lon="10.25933332316705" id="-33600">
		<tag k="alt_name" v="Purkskjera" />
		<tag k="fixme" v="consider seamark:type=rock or natural=shoal" />
		<tag k="name" v="Purkskjæra" />
=======
	<node id="-733056" lat="64.391925" lon="10.501166672">
		<tag k="fixme" v="consider seamark:type=rock or natural=shoal" />
		<tag k="name" v="Oterstokken" />
		<tag k="place" v="islet" />
		<tag k="ssr:stedsnr" v="752301" />
	</node>
	<node id="-733055" lat="64.4642000002" lon="10.2102611019">
		<tag k="name" v="Kya" />
		<tag k="place" v="island" />
		<tag k="ssr:stedsnr" v="742801" />
	</node>
	<node id="-733054" lat="64.3844472263" lon="10.5315500003">
		<tag k="fixme" v="consider seamark:type=rock or natural=shoal" />
		<tag k="name" v="Svesøyskjæret" />
>>>>>>> e1d4bc35ff8a6074a6f2e91616a996b547c36f15
		<tag k="place" v="islet" />
		<tag k="ssr:stedsnr" v="268745" />
	</node>
<<<<<<< HEAD
	<node lat="64.30456388981757" lon="10.493580549569876" id="-33602">
		<tag k="name" v="Nordvika" />
=======
	<node id="-733045" lat="64.2964249963" lon="10.4736916622">
		<tag k="name" v="Osen" />
>>>>>>> e1d4bc35ff8a6074a6f2e91616a996b547c36f15
		<tag k="natural" v="bay" />
		<tag k="ssr:stedsnr" v="208827" />
	</node>
<<<<<<< HEAD
	<node lat="64.29135555988083" lon="10.401552776732498" id="-33603">
		<tag k="alt_name" v="Oterbordstokken" />
		<tag k="name" v="Oterstokkneset" />
		<tag k="natural" v="cape" />
		<tag k="ssr:stedsnr" v="269839" />
	</node>
	<node lat="64.31379167002162" lon="10.3885055626579" id="-33604">
		<tag k="name" v="Naustflua" />
		<tag k="natural" v="shoal" />
		<tag k="place" v="locality" />
		<tag k="ssr:stedsnr" v="269845" />
	</node>
	<node lat="64.39504722245223" lon="10.49544722473877" id="-33606">
=======
	<node id="-733040" lat="64.331586115" lon="10.3090250081">
		<tag k="name" v="Torbersøya" />
		<tag k="place" v="islet" />
		<tag k="ssr:stedsnr" v="742477" />
	</node>
	<node id="-733038" lat="64.3443166629" lon="10.4174527791">
		<tag k="name" v="Sør-Skokkeløya" />
		<tag k="place" v="island" />
		<tag k="ssr:stedsnr" v="741786" />
	</node>
	<node id="-733033" lat="64.347447224" lon="10.4651083254">
>>>>>>> e1d4bc35ff8a6074a6f2e91616a996b547c36f15
		<tag k="fixme" v="consider seamark:type=rock or natural=shoal" />
		<tag k="name" v="Bogafjæra" />
		<tag k="place" v="islet" />
<<<<<<< HEAD
		<tag k="ssr:stedsnr" v="215303" />
	</node>
	<node lat="64.39841944124551" lon="10.462144446447216" id="-33610">
		<tag k="name" v="Litlsingsholmen" />
		<tag k="place" v="islet" />
		<tag k="ssr:stedsnr" v="215373" />
	</node>
	<node lat="64.30218889242146" lon="10.288594443984568" id="-33614">
		<tag k="name" v="Buvika" />
		<tag k="natural" v="bay" />
		<tag k="ssr:stedsnr" v="215513" />
	</node>
	<node lat="64.33967499664713" lon="10.501572223390372" id="-33619">
		<tag k="name" v="Båtshallneset" />
		<tag k="natural" v="cape" />
		<tag k="ssr:stedsnr" v="215713" />
	</node>
	<node lat="64.34129999632965" lon="10.284438881497975" id="-33631">
		<tag k="name" v="Skinnbrokfallet" />
		<tag k="natural" v="shoal" />
		<tag k="place" v="locality" />
		<tag k="ssr:stedsnr" v="450751" />
	</node>
	<node lat="64.35916666318643" lon="10.48177222677718" id="-33632">
		<tag k="name" v="Bjørsviksundet" />
		<tag k="natural" v="strait" />
		<tag k="ssr:stedsnr" v="450828" />
	</node>
	<node lat="64.37195277460692" lon="10.30018887947111" id="-33634">
		<tag k="name" v="Ytre Haraflesskolten" />
		<tag k="natural" v="shoal" />
=======
		<tag k="ssr:stedsnr" v="640687" />
	</node>
	<node id="-733026" lat="64.2971055546" lon="10.4213722225">
		<tag k="name" v="Kjellvika" />
		<tag k="natural" v="bay" />
		<tag k="ssr:stedsnr" v="640596" />
	</node>
	<node id="-733023" lat="64.3319888919" lon="10.3650666667">
		<tag k="name" v="Nordaunbukta" />
		<tag k="natural" v="bay" />
		<tag k="ssr:stedsnr" v="640491" />
	</node>
	<node id="-733022" lat="64.3304805524" lon="10.3571861204">
		<tag k="name" v="Vassholet" />
		<tag k="natural" v="bay" />
		<tag k="ssr:stedsnr" v="640480" />
	</node>
	<node id="-733021" lat="64.3138500044" lon="10.360361115">
		<tag k="fixme" v="consider seamark:type=rock or natural=shoal" />
		<tag k="name" v="Håflesskjeret" />
		<tag k="place" v="islet" />
		<tag k="ssr:stedsnr" v="640477" />
	</node>
	<node id="-733020" lat="64.3316222196" lon="10.3690833317">
		<tag k="name" v="Kuppelvika" />
		<tag k="natural" v="bay" />
		<tag k="ssr:stedsnr" v="640471" />
	</node>
	<node id="-733019" lat="64.3405388909" lon="10.4092083334">
		<tag k="name" v="Torvvika" />
		<tag k="natural" v="bay" />
		<tag k="ssr:stedsnr" v="640469" />
	</node>
	<node id="-733018" lat="64.302038888" lon="10.2710555577">
		<tag k="fixme" v="consider seamark:type=rock or natural=shoal" />
		<tag k="name" v="Nord Ternskjeret" />
		<tag k="place" v="islet" />
		<tag k="ssr:stedsnr" v="640459" />
	</node>
	<node id="-733001" lat="64.4057444436" lon="10.4549833396">
		<tag k="name" v="Tørnholmen" />
		<tag k="place" v="islet" />
		<tag k="ssr:stedsnr" v="640336" />
	</node>
	<node id="-732999" lat="64.3390805512" lon="10.50525833">
		<tag k="name" v="Verkarplassen" />
		<tag k="place" v="locality" />
		<tag k="ssr:stedsnr" v="640082" />
	</node>
	<node id="-732996" lat="64.3427083354" lon="10.6123666598">
		<tag k="name" v="Svesvågen" />
		<tag k="natural" v="bay" />
		<tag k="ssr:stedsnr" v="639730" />
	</node>
	<node id="-732988" lat="64.3280777821" lon="10.4480638951">
		<tag k="name" v="Sandvika" />
		<tag k="natural" v="bay" />
		<tag k="ssr:stedsnr" v="639602" />
	</node>
	<node id="-732978" lat="64.3302249976" lon="10.3977444372">
		<tag k="name" v="Gløssvikskjeret" />
>>>>>>> e1d4bc35ff8a6074a6f2e91616a996b547c36f15
		<tag k="place" v="locality" />
		<tag k="ssr:stedsnr" v="451895" />
	</node>
<<<<<<< HEAD
	<node lat="64.39781111268434" lon="10.507594452774901" id="-33655">
		<tag k="name" v="Brennvika" />
		<tag k="natural" v="bay" />
		<tag k="ssr:stedsnr" v="458381" />
	</node>
	<node lat="64.40498055415175" lon="10.447061109473593" id="-33661">
=======
	<node id="-732971" lat="64.3429861143" lon="10.4488250091">
		<tag k="name" v="Estenvika" />
		<tag k="natural" v="bay" />
		<tag k="ssr:stedsnr" v="639013" />
	</node>
	<node id="-732969" lat="64.3062833322" lon="10.4143416745">
		<tag k="name" v="Grunningen" />
		<tag k="natural" v="shoal" />
		<tag k="place" v="locality" />
		<tag k="ssr:stedsnr" v="633897" />
	</node>
	<node id="-732968" lat="64.4285305577" lon="10.4271194457">
>>>>>>> e1d4bc35ff8a6074a6f2e91616a996b547c36f15
		<tag k="fixme" v="consider seamark:type=rock or natural=shoal" />
		<tag k="name" v="Kveldskjæret" />
		<tag k="place" v="islet" />
		<tag k="ssr:stedsnr" v="268406" />
	</node>
<<<<<<< HEAD
	<node lat="64.3958000040244" lon="10.348941665155143" id="-33669">
		<tag k="name" v="Austre Synnflesskolten" />
=======
	<node id="-732967" lat="64.3181000019" lon="10.2531388824">
		<tag k="name" v="Seiskallen" />
>>>>>>> e1d4bc35ff8a6074a6f2e91616a996b547c36f15
		<tag k="natural" v="shoal" />
		<tag k="place" v="locality" />
		<tag k="ssr:stedsnr" v="268988" />
	</node>
<<<<<<< HEAD
	<node lat="64.34833055528155" lon="10.424041656990482" id="-33670">
=======
	<node id="-732964" lat="64.3393638863" lon="10.2869972123">
>>>>>>> e1d4bc35ff8a6074a6f2e91616a996b547c36f15
		<tag k="fixme" v="consider seamark:type=rock or natural=shoal" />
		<tag k="name" v="Skokkelskjeret" />
		<tag k="place" v="islet" />
		<tag k="ssr:stedsnr" v="458649" />
	</node>
<<<<<<< HEAD
	<node lat="64.34536110894112" lon="10.452091669011491" id="-33671">
		<tag k="name" v="Håmannvika" />
		<tag k="natural" v="bay" />
		<tag k="ssr:stedsnr" v="458651" />
	</node>
	<node lat="64.33092778213674" lon="10.569436112822837" id="-33677">
		<tag k="bay" v="fjord" />
		<tag k="name" v="Vingfjorden" />
		<tag k="natural" v="bay" />
		<tag k="ssr:stedsnr" v="458695" />
	</node>
	<node lat="64.32305832984473" lon="10.398633333980214" id="-33680">
		<tag k="name" v="Hepsøyholmen" />
=======
	<node id="-732962" lat="64.3636916634" lon="10.6286249919">
		<tag k="name" v="Holandsvika" />
		<tag k="natural" v="bay" />
		<tag k="ssr:stedsnr" v="620709" />
	</node>
	<node id="-732961" lat="64.363688889" lon="10.4070555657">
		<tag k="alt_name" v="Raudøya, søre" />
		<tag k="name" v="Søre Raudøya" />
		<tag k="place" v="island" />
		<tag k="ssr:stedsnr" v="620688" />
	</node>
	<node id="-732960" lat="64.3843111146" lon="10.6089861023">
		<tag k="name" v="Drageidneset" />
		<tag k="natural" v="cape" />
		<tag k="ssr:stedsnr" v="620666" />
	</node>
	<node id="-732959" lat="64.4192555573" lon="10.4236027698">
		<tag k="fixme" v="consider seamark:type=rock or natural=shoal" />
		<tag k="name" v="Tennskjæret" />
>>>>>>> e1d4bc35ff8a6074a6f2e91616a996b547c36f15
		<tag k="place" v="islet" />
		<tag k="ssr:stedsnr" v="269927" />
	</node>
<<<<<<< HEAD
	<node lat="64.28254166879005" lon="10.458613883642958" id="-33681">
		<tag k="name" v="Aunholmen" />
=======
	<node id="-732958" lat="64.4062111115" lon="10.3719638964">
		<tag k="name" v="Flotra" />
>>>>>>> e1d4bc35ff8a6074a6f2e91616a996b547c36f15
		<tag k="place" v="islet" />
		<tag k="ssr:stedsnr" v="269878" />
	</node>
<<<<<<< HEAD
	<node lat="64.3307361147031" lon="10.492647225651197" id="-33688">
		<tag k="name" v="Lauvfjellknausen" />
		<tag k="natural" v="cape" />
		<tag k="ssr:stedsnr" v="276034" />
	</node>
	<node lat="64.3183000005612" lon="10.37185834166085" id="-33699">
		<tag k="name" v="Heimer Kleppvika" />
=======
	<node id="-732957" lat="64.4243888868" lon="10.3811805577">
		<tag k="fixme" v="consider seamark:type=rock or natural=shoal" />
		<tag k="name" v="Svartflesa" />
		<tag k="place" v="islet" />
		<tag k="ssr:stedsnr" v="620627" />
	</node>
	<node id="-732951" lat="64.293955559" lon="10.4650249914">
		<tag k="name" v="Knarrvika" />
>>>>>>> e1d4bc35ff8a6074a6f2e91616a996b547c36f15
		<tag k="natural" v="bay" />
		<tag k="ssr:stedsnr" v="276502" />
	</node>
<<<<<<< HEAD
	<node lat="64.304177781286" lon="10.26983055486736" id="-33718">
=======
	<node id="-732949" lat="64.2895833295" lon="10.374330553">
>>>>>>> e1d4bc35ff8a6074a6f2e91616a996b547c36f15
		<tag k="fixme" v="consider seamark:type=rock or natural=shoal" />
		<tag k="name" v="Ramfluskjæret" />
		<tag k="place" v="islet" />
		<tag k="ssr:stedsnr" v="317505" />
	</node>
<<<<<<< HEAD
	<node lat="64.30071389113012" lon="10.265908334056887" id="-33719">
=======
	<node id="-732948" lat="64.2925861079" lon="10.2296416685">
>>>>>>> e1d4bc35ff8a6074a6f2e91616a996b547c36f15
		<tag k="fixme" v="consider seamark:type=rock or natural=shoal" />
		<tag k="name" v="Tennskjæra" />
		<tag k="place" v="islet" />
		<tag k="ssr:stedsnr" v="317506" />
	</node>
<<<<<<< HEAD
	<node lat="64.37331944721394" lon="10.453147219136454" id="-33725">
		<tag k="name" v="Bukkhammaren" />
		<tag k="natural" v="cape" />
		<tag k="ssr:stedsnr" v="327321" />
	</node>
	<node lat="64.37320555980989" lon="10.236477771838528" id="-33726">
		<tag k="name" v="Monsen" />
		<tag k="natural" v="shoal" />
		<tag k="place" v="locality" />
		<tag k="ssr:stedsnr" v="329715" />
	</node>
	<node lat="64.3130111114342" lon="10.240480547312558" id="-33727">
		<tag k="name" v="Litletaren" />
=======
	<node id="-732943" lat="64.3381083344" lon="10.5629416575">
		<tag k="name" v="Langstranda" />
		<tag k="natural" v="beach" />
		<tag k="place" v="locality" />
		<tag k="ssr:stedsnr" v="620486" />
	</node>
	<node id="-732924" lat="64.3301277759" lon="10.3564666639">
		<tag k="name" v="Stranda" />
		<tag k="natural" v="beach" />
		<tag k="place" v="locality" />
		<tag k="ssr:stedsnr" v="579549" />
	</node>
	<node id="-732900" lat="64.2958833297" lon="10.4380555572">
		<tag k="name" v="Kvalvika" />
		<tag k="natural" v="bay" />
		<tag k="ssr:stedsnr" v="579035" />
	</node>
	<node id="-732896" lat="64.3266861151" lon="10.3826916596">
		<tag k="name" v="Jektvika" />
		<tag k="natural" v="bay" />
		<tag k="ssr:stedsnr" v="579017" />
	</node>
	<node id="-732891" lat="64.3391361117" lon="10.2915416599">
		<tag k="name" v="Ånskjerfluan" />
>>>>>>> e1d4bc35ff8a6074a6f2e91616a996b547c36f15
		<tag k="natural" v="shoal" />
		<tag k="place" v="locality" />
		<tag k="ssr:stedsnr" v="329724" />
	</node>
<<<<<<< HEAD
	<node lat="64.29905555551379" lon="10.272591673189318" id="-33738">
		<tag k="name" v="Sjåholmen" />
		<tag k="place" v="islet" />
		<tag k="ssr:stedsnr" v="337443" />
	</node>
	<node lat="64.33976666826901" lon="10.392294450178863" id="-33742">
		<tag k="name" v="Oterholet" />
=======
	<node id="-732889" lat="64.3289611109" lon="10.4138499975">
		<tag k="name" v="Ramsøyvika" />
>>>>>>> e1d4bc35ff8a6074a6f2e91616a996b547c36f15
		<tag k="natural" v="bay" />
		<tag k="ssr:stedsnr" v="337592" />
	</node>
<<<<<<< HEAD
	<node lat="64.38565833430044" lon="10.542980551583172" id="-33748">
		<tag k="name" v="Svesøya" />
		<tag k="place" v="islet" />
		<tag k="ssr:stedsnr" v="378706" />
	</node>
	<node lat="64.3671055522365" lon="10.370388885120155" id="-33754">
		<tag k="fixme" v="consider seamark:type=rock or natural=shoal" />
		<tag k="name" v="Småfalla" />
		<tag k="place" v="islet" />
		<tag k="ssr:stedsnr" v="388292" />
	</node>
	<node lat="64.37004721912415" lon="10.229933323439736" id="-33755">
		<tag k="name" v="Bremflesfalla" />
		<tag k="natural" v="shoal" />
		<tag k="place" v="locality" />
		<tag k="ssr:stedsnr" v="389740" />
	</node>
	<node lat="64.34011110745307" lon="10.557033329392272" id="-33756">
		<tag k="name" v="Langstrandodden" />
		<tag k="natural" v="cape" />
		<tag k="ssr:stedsnr" v="389810" />
	</node>
	<node lat="64.4106833291722" lon="10.467297231740393" id="-33765">
		<tag k="name" v="Blåneskeila" />
		<tag k="natural" v="bay" />
		<tag k="ssr:stedsnr" v="397286" />
	</node>
	<node lat="64.29415833477192" lon="10.299544446736004" id="-33772">
		<tag k="name" v="Gabrielsvika" />
		<tag k="natural" v="bay" />
		<tag k="ssr:stedsnr" v="397482" />
	</node>
	<node lat="64.31923055189826" lon="10.382202786994794" id="-33773">
=======
	<node id="-732888" lat="64.3777305562" lon="10.5337583324">
		<tag k="name" v="Botnvikgrunnen" />
		<tag k="natural" v="shoal" />
		<tag k="place" v="locality" />
		<tag k="ssr:stedsnr" v="566392" />
	</node>
	<node id="-732887" lat="64.365841667" lon="10.2671222299">
		<tag k="name" v="Jærfjellsflua" />
		<tag k="natural" v="shoal" />
		<tag k="place" v="locality" />
		<tag k="ssr:stedsnr" v="560697" />
	</node>
	<node id="-732875" lat="64.3508416682" lon="10.3134583388">
		<tag k="name" v="Garren" />
		<tag k="natural" v="shoal" />
		<tag k="place" v="locality" />
		<tag k="ssr:stedsnr" v="559728" />
	</node>
	<node id="-732874" lat="64.3593305565" lon="10.5901249984">
		<tag k="name" v="Skogavika" />
		<tag k="natural" v="bay" />
		<tag k="ssr:stedsnr" v="559725" />
	</node>
	<node id="-732872" lat="64.3016749998" lon="10.456833329">
		<tag k="name" v="Urdsøra" />
		<tag k="natural" v="cape" />
		<tag k="ssr:stedsnr" v="559544" />
	</node>
	<node id="-732871" lat="64.3140805536" lon="10.3635749986">
		<tag k="alt_name" v="Håflesa" />
		<tag k="fixme" v="consider seamark:type=rock or natural=shoal" />
		<tag k="name" v="Håflesan" />
		<tag k="place" v="islet" />
		<tag k="ssr:stedsnr" v="559536" />
	</node>
	<node id="-732868" lat="64.3381416623" lon="10.3712027713">
		<tag k="name" v="Sør Vedøya" />
		<tag k="place" v="islet" />
		<tag k="ssr:stedsnr" v="559498" />
	</node>
	<node id="-732862" lat="64.3345361104" lon="10.2776861158">
		<tag k="fixme" v="consider seamark:type=rock or natural=shoal" />
		<tag k="name" v="Grønnskjæret" />
		<tag k="place" v="islet" />
		<tag k="ssr:stedsnr" v="438741" />
	</node>
	<node id="-732861" lat="64.3401138897" lon="10.3208361033">
>>>>>>> e1d4bc35ff8a6074a6f2e91616a996b547c36f15
		<tag k="fixme" v="consider seamark:type=rock or natural=shoal" />
		<tag k="name" v="Nesaskjeret" />
		<tag k="place" v="islet" />
<<<<<<< HEAD
		<tag k="ssr:stedsnr" v="397489" />
	</node>
	<node lat="64.41484999594968" lon="10.4600194365" id="-33776">
=======
		<tag k="ssr:stedsnr" v="438739" />
	</node>
	<node id="-732855" lat="64.2681944439" lon="10.4027499921">
		<tag k="bay" v="fjord" />
		<tag k="name" v="Sørjerfjorden" />
		<tag k="natural" v="bay" />
		<tag k="ssr:stedsnr" v="438623" />
	</node>
	<node id="-732837" lat="64.4148499959" lon="10.4600194365">
>>>>>>> e1d4bc35ff8a6074a6f2e91616a996b547c36f15
		<tag k="bay" v="fjord" />
		<tag k="name" v="Sneisa" />
		<tag k="natural" v="bay" />
		<tag k="ssr:stedsnr" v="397679" />
	</node>
<<<<<<< HEAD
	<node lat="64.37676110773413" lon="10.271894439762354" id="-33792">
		<tag k="name" v="Havbakkfalla" />
		<tag k="natural" v="shoal" />
		<tag k="place" v="locality" />
		<tag k="ssr:stedsnr" v="439717" />
	</node>
	<node lat="64.41374166398572" lon="10.478552782824416" id="-33793">
		<tag k="name" v="Svartholet" />
=======
	<node id="-732828" lat="64.2829944432" lon="10.2736777755">
		<tag k="name" v="Torvholmen" />
		<tag k="place" v="islet" />
		<tag k="ssr:stedsnr" v="397513" />
	</node>
	<node id="-732827" lat="64.340580553" lon="10.3995249907">
		<tag k="name" v="Bjørnsvika" />
>>>>>>> e1d4bc35ff8a6074a6f2e91616a996b547c36f15
		<tag k="natural" v="bay" />
		<tag k="ssr:stedsnr" v="450410" />
	</node>
<<<<<<< HEAD
	<node lat="64.33991388748633" lon="10.421036104171955" id="-33794">
		<tag k="name" v="Aunholmen" />
=======
	<node id="-732824" lat="64.3192305519" lon="10.382202787">
		<tag k="fixme" v="consider seamark:type=rock or natural=shoal" />
		<tag k="name" v="Nesaskjeret" />
>>>>>>> e1d4bc35ff8a6074a6f2e91616a996b547c36f15
		<tag k="place" v="islet" />
		<tag k="ssr:stedsnr" v="450823" />
	</node>
<<<<<<< HEAD
	<node lat="64.42288611513628" lon="10.366530564072642" id="-33795">
		<tag k="name" v="Barleia" />
=======
	<node id="-732823" lat="64.2941583348" lon="10.2995444467">
		<tag k="name" v="Gabrielsvika" />
		<tag k="natural" v="bay" />
		<tag k="ssr:stedsnr" v="397482" />
	</node>
	<node id="-732814" lat="64.3528500031" lon="10.4662166653">
		<tag k="name" v="Aunholmen" />
		<tag k="place" v="islet" />
		<tag k="ssr:stedsnr" v="397376" />
	</node>
	<node id="-732808" lat="64.4106833292" lon="10.4672972317">
		<tag k="name" v="Blåneskeila" />
		<tag k="natural" v="bay" />
		<tag k="ssr:stedsnr" v="397286" />
	</node>
	<node id="-732799" lat="64.277380558" lon="10.4006555526">
		<tag k="name" v="Langstranda" />
		<tag k="natural" v="beach" />
		<tag k="place" v="locality" />
		<tag k="ssr:stedsnr" v="397017" />
	</node>
	<node id="-732794" lat="64.3700472191" lon="10.2299333234">
		<tag k="name" v="Bremflesfalla" />
		<tag k="natural" v="shoal" />
		<tag k="place" v="locality" />
		<tag k="ssr:stedsnr" v="389740" />
	</node>
	<node id="-732793" lat="64.3401111075" lon="10.5570333294">
		<tag k="name" v="Langstrandodden" />
		<tag k="natural" v="cape" />
		<tag k="ssr:stedsnr" v="389810" />
	</node>
	<node id="-732792" lat="64.4056166629" lon="10.4661833298">
		<tag k="name" v="Nesvågen" />
		<tag k="natural" v="bay" />
		<tag k="ssr:stedsnr" v="389435" />
	</node>
	<node id="-732791" lat="64.3671055522" lon="10.3703888851">
		<tag k="fixme" v="consider seamark:type=rock or natural=shoal" />
		<tag k="name" v="Småfalla" />
		<tag k="place" v="islet" />
		<tag k="ssr:stedsnr" v="388292" />
	</node>
	<node id="-732790" lat="64.2989944476" lon="10.4549166744">
		<tag k="name" v="Straumholet" />
>>>>>>> e1d4bc35ff8a6074a6f2e91616a996b547c36f15
		<tag k="natural" v="strait" />
		<tag k="ssr:stedsnr" v="451419" />
	</node>
<<<<<<< HEAD
	<node lat="64.33056389258836" lon="10.564413885652401" id="-33799">
		<tag k="name" v="Kalvhauet" />
		<tag k="natural" v="cape" />
		<tag k="ssr:stedsnr" v="458063" />
	</node>
	<node lat="64.32638615295146" lon="10.283479650769449" id="-33829">
		<tag k="name" v="Buarøya" />
		<tag k="place" v="island" />
		<tag k="ssr:stedsnr" v="499435" />
	</node>
	<node lat="64.29427777920735" lon="10.24719999390984" id="-33833">
		<tag k="name" v="Ytterøyværet" />
=======
	<node id="-732789" lat="64.3272527782" lon="10.1794194389">
		<tag k="name" v="Bakkbåleia" />
		<tag k="natural" v="strait" />
		<tag k="ssr:stedsnr" v="378859" />
	</node>
	<node id="-732788" lat="64.3357249972" lon="10.1994638891">
		<tag k="name" v="Storgrunnstaren" />
		<tag k="natural" v="shoal" />
		<tag k="place" v="locality" />
		<tag k="ssr:stedsnr" v="378855" />
	</node>
	<node id="-732784" lat="64.3856583343" lon="10.5429805516">
		<tag k="name" v="Svesøya" />
>>>>>>> e1d4bc35ff8a6074a6f2e91616a996b547c36f15
		<tag k="place" v="islet" />
		<tag k="ssr:stedsnr" v="499506" />
	</node>
<<<<<<< HEAD
	<node lat="64.29783889238549" lon="10.432636107819032" id="-33836">
		<tag k="name" v="Staurneset" />
		<tag k="natural" v="cape" />
		<tag k="ssr:stedsnr" v="499489" />
	</node>
	<node lat="64.38880555311206" lon="10.382813883424506" id="-33838">
		<tag k="name" v="Mefallbogen" />
=======
	<node id="-732778" lat="64.269433335" lon="10.4066333245">
		<tag k="name" v="Nesaøra" />
		<tag k="natural" v="cape" />
		<tag k="ssr:stedsnr" v="378635" />
	</node>
	<node id="-732767" lat="64.3488277789" lon="10.5251805506">
		<tag k="bay" v="fjord" />
		<tag k="name" v="Vingan" />
		<tag k="natural" v="bay" />
		<tag k="ssr:stedsnr" v="377703" />
	</node>
	<node id="-732766" lat="64.4231888866" lon="10.3364999993">
		<tag k="alt_name" v="Revlungskallen" />
		<tag k="name" v="Revlingskallen" />
>>>>>>> e1d4bc35ff8a6074a6f2e91616a996b547c36f15
		<tag k="natural" v="shoal" />
		<tag k="place" v="locality" />
		<tag k="ssr:stedsnr" v="499635" />
	</node>
<<<<<<< HEAD
	<node lat="64.4001083330593" lon="10.341038894942367" id="-33839">
=======
	<node id="-732765" lat="64.4249583319" lon="10.4249388961">
>>>>>>> e1d4bc35ff8a6074a6f2e91616a996b547c36f15
		<tag k="fixme" v="consider seamark:type=rock or natural=shoal" />
		<tag k="name" v="Synnflesa" />
		<tag k="place" v="islet" />
		<tag k="ssr:stedsnr" v="499643" />
	</node>
<<<<<<< HEAD
	<node lat="64.34212778229012" lon="10.34202777532594" id="-33842">
		<tag k="alt_name" v="Nadden" />
		<tag k="fixme" v="consider seamark:type=rock or natural=shoal" />
		<tag k="name" v="Store Nadden" />
		<tag k="place" v="islet" />
		<tag k="ssr:stedsnr" v="499698" />
	</node>
	<node lat="64.4627027805194" lon="10.192922220641812" id="-33846">
		<tag k="name" v="Vestertaren" />
		<tag k="natural" v="shoal" />
		<tag k="place" v="locality" />
		<tag k="ssr:stedsnr" v="499785" />
	</node>
	<node lat="64.33795000415854" lon="10.177477781241043" id="-33847">
		<tag k="alt_name" v="Mostertaran, s" />
		<tag k="name" v="Søre Mostertaran" />
		<tag k="natural" v="shoal" />
		<tag k="place" v="locality" />
		<tag k="ssr:stedsnr" v="499790" />
	</node>
	<node lat="64.31598611303001" lon="10.220675006870966" id="-33849">
		<tag k="alt_name" v="Revlan" />
		<tag k="name" v="Revlen" />
=======
	<node id="-732764" lat="64.4229249958" lon="10.4106305592">
		<tag k="fixme" v="consider seamark:type=rock or natural=shoal" />
		<tag k="name" v="Grønnskjæret" />
		<tag k="place" v="islet" />
		<tag k="ssr:stedsnr" v="377656" />
	</node>
	<node id="-732752" lat="64.3397666683" lon="10.3922944502">
		<tag k="name" v="Oterholet" />
		<tag k="natural" v="bay" />
		<tag k="ssr:stedsnr" v="337592" />
	</node>
	<node id="-732751" lat="64.3417750038" lon="10.4000500051">
		<tag k="name" v="Nord Bjørnsvikneset" />
		<tag k="natural" v="cape" />
		<tag k="ssr:stedsnr" v="337591" />
	</node>
	<node id="-732745" lat="64.2990555555" lon="10.2725916732">
		<tag k="name" v="Sjåholmen" />
		<tag k="place" v="islet" />
		<tag k="ssr:stedsnr" v="337443" />
	</node>
	<node id="-732730" lat="64.4040916648" lon="10.4592305547">
		<tag k="name" v="Sørholmen" />
		<tag k="natural" v="cape" />
		<tag k="ssr:stedsnr" v="337340" />
	</node>
	<node id="-732726" lat="64.3457805573" lon="10.6211083391">
		<tag k="name" v="Sandvikodden" />
		<tag k="natural" v="cape" />
		<tag k="ssr:stedsnr" v="337301" />
	</node>
	<node id="-732712" lat="64.3968388892" lon="10.4813583383">
		<tag k="name" v="Korsvika" />
		<tag k="natural" v="bay" />
		<tag k="ssr:stedsnr" v="336641" />
	</node>
	<node id="-732711" lat="64.3994361099" lon="10.4630694411">
		<tag k="name" v="Hansineholmen" />
		<tag k="place" v="islet" />
		<tag k="ssr:stedsnr" v="336631" />
	</node>
	<node id="-732705" lat="64.3222166646" lon="10.4142499952">
		<tag k="name" v="Dalflua" />
>>>>>>> e1d4bc35ff8a6074a6f2e91616a996b547c36f15
		<tag k="natural" v="shoal" />
		<tag k="place" v="locality" />
		<tag k="ssr:stedsnr" v="681526" />
	</node>
<<<<<<< HEAD
	<node lat="64.28419166722779" lon="10.392074990107295" id="-33854">
		<tag k="name" v="Jarnholmen" />
=======
	<node id="-732704" lat="64.413616663" lon="10.4241027684">
		<tag k="name" v="Persholmen" />
>>>>>>> e1d4bc35ff8a6074a6f2e91616a996b547c36f15
		<tag k="place" v="islet" />
		<tag k="ssr:stedsnr" v="681588" />
	</node>
<<<<<<< HEAD
	<node lat="64.34016944681447" lon="10.375319453142247" id="-33858">
		<tag k="name" v="Nord Vedøya" />
		<tag k="place" v="islet" />
		<tag k="ssr:stedsnr" v="681498" />
	</node>
	<node lat="64.39541667058307" lon="10.463666663552939" id="-33865">
		<tag k="name" v="Singsholmen" />
		<tag k="place" v="islet" />
		<tag k="ssr:stedsnr" v="681698" />
	</node>
	<node lat="64.4663611141852" lon="10.200961113227304" id="-33867">
		<tag k="name" v="Kytaren" />
		<tag k="natural" v="shoal" />
		<tag k="place" v="locality" />
		<tag k="ssr:stedsnr" v="681826" />
	</node>
	<node lat="64.41706110821801" lon="9.812974996003254" id="-33868">
		<tag k="name" v="Yttergrunnen" />
		<tag k="natural" v="shoal" />
		<tag k="place" v="locality" />
		<tag k="ssr:stedsnr" v="681827" />
	</node>
	<node lat="64.34204444601292" lon="10.187466657994124" id="-33869">
		<tag k="alt_name" v="Mostertaran, nordre" />
		<tag k="name" v="Nordre Mostertaran" />
		<tag k="natural" v="shoal" />
		<tag k="place" v="locality" />
		<tag k="ssr:stedsnr" v="681834" />
	</node>
	<node lat="64.32526944288134" lon="10.146480559459983" id="-33870">
		<tag k="name" v="Rauden" />
		<tag k="natural" v="shoal" />
		<tag k="place" v="locality" />
		<tag k="ssr:stedsnr" v="681836" />
	</node>
	<node lat="64.30586111160876" lon="10.175550008742395" id="-33871">
		<tag k="name" v="Litletaren" />
		<tag k="natural" v="shoal" />
		<tag k="place" v="locality" />
		<tag k="ssr:stedsnr" v="681877" />
	</node>
	<node lat="64.36956111424517" lon="10.563483338390785" id="-33872">
		<tag k="name" v="Botnvika" />
		<tag k="natural" v="bay" />
		<tag k="ssr:stedsnr" v="681708" />
	</node>
	<node lat="64.38305833004577" lon="10.253463892788467" id="-33874">
		<tag k="name" v="Djupafalla" />
		<tag k="natural" v="shoal" />
		<tag k="place" v="locality" />
		<tag k="ssr:stedsnr" v="681717" />
	</node>
	<node lat="64.37683611268056" lon="10.296002787795686" id="-33875">
		<tag k="name" v="Torshevillen" />
		<tag k="natural" v="shoal" />
		<tag k="place" v="locality" />
		<tag k="ssr:stedsnr" v="681725" />
	</node>
	<node lat="64.3306499962702" lon="10.401480552952327" id="-33876">
		<tag k="name" v="Storneset" />
		<tag k="natural" v="cape" />
		<tag k="ssr:stedsnr" v="509956" />
	</node>
	<node lat="64.32631111390556" lon="10.412099991664581" id="-33877">
		<tag k="alt_name" v="Fiskeholmen" />
		<tag k="name" v="Fiskholmen" />
=======
	<node id="-732703" lat="64.4231888907" lon="10.4869722175">
		<tag k="name" v="Sneisholmen" />
		<tag k="place" v="islet" />
		<tag k="ssr:stedsnr" v="330146" />
	</node>
	<node id="-732702" lat="64.330476771" lon="10.4498549669">
		<tag k="alt_name" v="Vanvikhammaren" />
		<tag k="name" v="Vanvikodden" />
		<tag k="natural" v="cape" />
		<tag k="ssr:stedsnr" v="329793" />
	</node>
	<node id="-732701" lat="64.3965305542" lon="10.4566138892">
		<tag k="alt_name" v="Grasråsskjeret" />
		<tag k="fixme" v="consider seamark:type=rock or natural=shoal" />
		<tag k="name" v="Grasråsskjæret" />
		<tag k="place" v="islet" />
		<tag k="ssr:stedsnr" v="329390" />
	</node>
	<node id="-732700" lat="64.33125" lon="10.4657861115">
		<tag k="name" v="Nesaodden" />
		<tag k="natural" v="cape" />
		<tag k="ssr:stedsnr" v="328793" />
	</node>
	<node id="-732699" lat="64.3733194472" lon="10.4531472191">
		<tag k="name" v="Bukkhammaren" />
		<tag k="natural" v="cape" />
		<tag k="ssr:stedsnr" v="327321" />
	</node>
	<node id="-732698" lat="64.4622138862" lon="10.2076222158">
		<tag k="name" v="Drangen" />
		<tag k="place" v="islet" />
		<tag k="ssr:stedsnr" v="317763" />
	</node>
	<node id="-732697" lat="64.4140194446" lon="10.3978638881">
		<tag k="name" v="Kvitholmen" />
		<tag k="place" v="islet" />
		<tag k="ssr:stedsnr" v="317629" />
	</node>
	<node id="-732696" lat="64.3442444487" lon="10.3411777813">
		<tag k="fixme" v="consider seamark:type=rock or natural=shoal" />
		<tag k="name" v="Litlnadden" />
		<tag k="place" v="islet" />
		<tag k="ssr:stedsnr" v="317681" />
	</node>
	<node id="-732687" lat="64.3312500011" lon="10.2829972137">
		<tag k="fixme" v="consider seamark:type=rock or natural=shoal" />
		<tag k="name" v="Seiskjæret" />
		<tag k="place" v="islet" />
		<tag k="ssr:stedsnr" v="317458" />
	</node>
	<node id="-732686" lat="64.3279222239" lon="10.2919027766">
		<tag k="name" v="Purkholmen" />
		<tag k="place" v="islet" />
		<tag k="ssr:stedsnr" v="317457" />
	</node>
	<node id="-732675" lat="64.2993361084" lon="10.4565666671">
		<tag k="name" v="Osstraumen" />
		<tag k="natural" v="strait" />
		<tag k="ssr:stedsnr" v="302998" />
	</node>
	<node id="-732653" lat="64.2808833315" lon="10.2726388897">
		<tag k="name" v="Kjellholmen" />
		<tag k="place" v="islet" />
		<tag k="ssr:stedsnr" v="215550" />
	</node>
	<node id="-732648" lat="64.400486115" lon="10.4687611192">
		<tag k="name" v="Laugavika" />
		<tag k="natural" v="bay" />
		<tag k="ssr:stedsnr" v="215393" />
	</node>
	<node id="-732646" lat="64.3984194412" lon="10.4621444464">
		<tag k="name" v="Litlsingsholmen" />
>>>>>>> e1d4bc35ff8a6074a6f2e91616a996b547c36f15
		<tag k="place" v="islet" />
		<tag k="ssr:stedsnr" v="509957" />
	</node>
<<<<<<< HEAD
	<node lat="64.43219721859273" lon="10.349608326927443" id="-33878">
		<tag k="name" v="Hovollgrunnen" />
		<tag k="natural" v="shoal" />
		<tag k="place" v="locality" />
		<tag k="ssr:stedsnr" v="511223" />
	</node>
	<node lat="64.32990555367826" lon="10.580030546393354" id="-33881">
		<tag k="name" v="Drossavika" />
=======
	<node id="-732644" lat="64.3840833344" lon="10.62078056">
		<tag k="name" v="Gangstøa" />
		<tag k="natural" v="bay" />
		<tag k="ssr:stedsnr" v="215358" />
	</node>
	<node id="-732636" lat="64.396802775" lon="10.4987916705">
		<tag k="name" v="Stadsvika" />
>>>>>>> e1d4bc35ff8a6074a6f2e91616a996b547c36f15
		<tag k="natural" v="bay" />
		<tag k="ssr:stedsnr" v="518617" />
	</node>
<<<<<<< HEAD
	<node lat="64.40006389319151" lon="10.527711118233473" id="-33882">
		<tag k="name" v="Mellomneset" />
		<tag k="natural" v="cape" />
		<tag k="ssr:stedsnr" v="518623" />
	</node>
	<node lat="64.31770000376471" lon="10.368725004560595" id="-33888">
		<tag k="name" v="Oterstokken" />
		<tag k="natural" v="bay" />
		<tag k="ssr:stedsnr" v="519002" />
	</node>
	<node lat="64.28744444037441" lon="10.404669446029024" id="-33889">
		<tag k="name" v="Øksenvika" />
=======
	<node id="-732626" lat="64.2660777809" lon="10.4089388993">
		<tag k="name" v="Sellineset" />
		<tag k="natural" v="cape" />
		<tag k="ssr:stedsnr" v="215060" />
	</node>
	<node id="-732624" lat="64.3271185544" lon="10.3354297316">
		<tag k="fixme" v="consider seamark:type=rock or natural=shoal" />
		<tag k="name" v="Langskjæret" />
		<tag k="place" v="islet" />
		<tag k="ssr:stedsnr" v="208931" />
	</node>
	<node id="-732623" lat="64.3045638898" lon="10.4935805496">
		<tag k="name" v="Nordvika" />
		<tag k="natural" v="bay" />
		<tag k="ssr:stedsnr" v="208827" />
	</node>
	<node id="-732622" lat="64.5530361095" lon="10.1551249984">
		<tag k="name" v="Skjervøygrunnen" />
		<tag k="natural" v="shoal" />
		<tag k="place" v="locality" />
		<tag k="ssr:stedsnr" v="207991" />
	</node>
	<node id="-732621" lat="64.4056472186" lon="10.331994447">
		<tag k="name" v="Ræva" />
		<tag k="natural" v="shoal" />
		<tag k="place" v="locality" />
		<tag k="ssr:stedsnr" v="207977" />
	</node>
	<node id="-732620" lat="64.3284916688" lon="10.5793027716">
		<tag k="alt_name" v="Bekkjavika" />
		<tag k="name" v="Bekkavika" />
>>>>>>> e1d4bc35ff8a6074a6f2e91616a996b547c36f15
		<tag k="natural" v="bay" />
		<tag k="ssr:stedsnr" v="519005" />
	</node>
<<<<<<< HEAD
	<node lat="64.32735277511769" lon="10.57427499235583" id="-33891">
		<tag k="name" v="Månskjennsholet" />
		<tag k="natural" v="bay" />
		<tag k="ssr:stedsnr" v="519060" />
	</node>
	<node lat="64.29270833570473" lon="10.309933341598697" id="-33904">
		<tag k="name" v="Hamnan" />
=======
	<node id="-732619" lat="64.3032611101" lon="10.1697777803">
		<tag k="alt_name" v="Sigrynnfallet, austre" />
		<tag k="name" v="Austre Sigrynnfallet" />
		<tag k="natural" v="shoal" />
		<tag k="place" v="locality" />
		<tag k="ssr:stedsnr" v="196856" />
	</node>
	<node id="-732618" lat="64.3367361113" lon="10.5406750047">
		<tag k="name" v="Storvika" />
>>>>>>> e1d4bc35ff8a6074a6f2e91616a996b547c36f15
		<tag k="natural" v="bay" />
		<tag k="ssr:stedsnr" v="519471" />
	</node>
<<<<<<< HEAD
	<node lat="64.34431110702464" lon="10.417444439405314" id="-33909">
		<tag k="name" v="Skokkeløyan" />
		<tag k="place" v="island" />
		<tag k="ssr:stedsnr" v="688026" />
	</node>
	<node lat="64.32749305181021" lon="10.336743673072982" id="-33910">
		<tag k="name" v="Aunkleppen" />
		<tag k="place" v="islet" />
		<tag k="ssr:stedsnr" v="559509" />
	</node>
	<node lat="64.33321388851084" lon="10.248797217957451" id="-33911">
		<tag k="name" v="Storfallet" />
=======
	<node id="-732617" lat="64.3533166657" lon="10.1981388986">
		<tag k="name" v="Hystaren" />
		<tag k="natural" v="shoal" />
		<tag k="place" v="locality" />
		<tag k="ssr:stedsnr" v="196812" />
	</node>
	<node id="-732616" lat="64.3489499998" lon="10.2024000083">
		<tag k="name" v="Leifalla" />
>>>>>>> e1d4bc35ff8a6074a6f2e91616a996b547c36f15
		<tag k="natural" v="shoal" />
		<tag k="place" v="locality" />
		<tag k="ssr:stedsnr" v="559513" />
	</node>
<<<<<<< HEAD
	<node lat="64.31408055360964" lon="10.363574998643172" id="-33912">
		<tag k="alt_name" v="Håflesa" />
=======
	<node id="-732615" lat="64.3734305549" lon="10.4122388972">
>>>>>>> e1d4bc35ff8a6074a6f2e91616a996b547c36f15
		<tag k="fixme" v="consider seamark:type=rock or natural=shoal" />
		<tag k="name" v="Håflesan" />
		<tag k="place" v="islet" />
		<tag k="ssr:stedsnr" v="559536" />
	</node>
<<<<<<< HEAD
	<node lat="64.30167499983575" lon="10.456833329042052" id="-33913">
		<tag k="name" v="Urdsøra" />
		<tag k="natural" v="cape" />
		<tag k="ssr:stedsnr" v="559544" />
	</node>
	<node lat="64.3320055555162" lon="10.47286111161445" id="-33915">
		<tag k="alt_name" v="Høvika" />
		<tag k="name" v="Høyvika" />
=======
	<node id="-732614" lat="64.3709722224" lon="10.5455972154">
		<tag k="name" v="Storvika" />
>>>>>>> e1d4bc35ff8a6074a6f2e91616a996b547c36f15
		<tag k="natural" v="bay" />
		<tag k="ssr:stedsnr" v="559492" />
	</node>
<<<<<<< HEAD
	<node lat="64.33814166229264" lon="10.371202771325317" id="-33917">
		<tag k="name" v="Sør Vedøya" />
=======
	<node id="-732612" lat="64.4175083301" lon="10.3865416688">
		<tag k="fixme" v="consider seamark:type=rock or natural=shoal" />
		<tag k="name" v="Barden" />
>>>>>>> e1d4bc35ff8a6074a6f2e91616a996b547c36f15
		<tag k="place" v="islet" />
		<tag k="ssr:stedsnr" v="559498" />
	</node>
<<<<<<< HEAD
	<node lat="64.36584166704803" lon="10.267122229927345" id="-33924">
		<tag k="name" v="Jærfjellsflua" />
=======
	<node id="-732609" lat="64.3170444468" lon="10.40217223">
		<tag k="name" v="Finnmarkstøyten" />
>>>>>>> e1d4bc35ff8a6074a6f2e91616a996b547c36f15
		<tag k="natural" v="shoal" />
		<tag k="place" v="locality" />
		<tag k="ssr:stedsnr" v="560697" />
	</node>
<<<<<<< HEAD
	<node lat="64.3606444478888" lon="10.42770000171542" id="-33925">
		<tag k="name" v="Takflua" />
		<tag k="natural" v="shoal" />
		<tag k="place" v="locality" />
		<tag k="ssr:stedsnr" v="692281" />
	</node>
	<node lat="64.34192777881671" lon="10.367666667497513" id="-33926">
=======
	<node id="-732583" lat="64.3909527776" lon="10.4870055492">
		<tag k="name" v="Truggsundet" />
		<tag k="natural" v="bay" />
		<tag k="ssr:stedsnr" v="154728" />
	</node>
	<node id="-732582" lat="64.3908055581" lon="10.5005833271">
>>>>>>> e1d4bc35ff8a6074a6f2e91616a996b547c36f15
		<tag k="fixme" v="consider seamark:type=rock or natural=shoal" />
		<tag k="name" v="Vedøyskjæret" />
		<tag k="place" v="islet" />
		<tag k="ssr:stedsnr" v="692963" />
	</node>
<<<<<<< HEAD
	<node lat="64.33358889062114" lon="10.431216661432504" id="-33927">
		<tag k="alt_name" v="Hallen" />
		<tag k="name" v="Ramsøyhallen" />
		<tag k="natural" v="bay" />
		<tag k="ssr:stedsnr" v="570951" />
	</node>
	<node lat="64.25548611389681" lon="10.413272220504721" id="-33928">
		<tag k="name" v="Storengbukta" />
=======
	<node id="-732580" lat="64.2946972234" lon="10.2969944525">
		<tag k="name" v="Skjervøyvågen" />
		<tag k="natural" v="bay" />
		<tag k="ssr:stedsnr" v="154687" />
	</node>
	<node id="-732579" lat="64.3351111089" lon="10.4350250057">
		<tag k="name" v="Hamnaneset" />
		<tag k="natural" v="cape" />
		<tag k="ssr:stedsnr" v="154682" />
	</node>
	<node id="-732578" lat="64.3266388932" lon="10.4273999962">
		<tag k="name" v="Åkervika" />
>>>>>>> e1d4bc35ff8a6074a6f2e91616a996b547c36f15
		<tag k="natural" v="bay" />
		<tag k="ssr:stedsnr" v="693802" />
	</node>
<<<<<<< HEAD
	<node lat="64.32913888743013" lon="10.2543444496958" id="-33929">
		<tag k="name" v="Stompen" />
		<tag k="natural" v="shoal" />
		<tag k="place" v="locality" />
		<tag k="ssr:stedsnr" v="572264" />
	</node>
	<node lat="64.41841110985588" lon="10.357358341952704" id="-33930">
		<tag k="name" v="Haufatleia" />
		<tag k="natural" v="strait" />
		<tag k="ssr:stedsnr" v="694399" />
	</node>
	<node lat="64.29773889294951" lon="10.4474361196469" id="-33931">
		<tag k="alt_name" v="Straumneset" />
		<tag k="name" v="Straumsneset" />
		<tag k="natural" v="cape" />
		<tag k="ssr:stedsnr" v="694864" />
	</node>
	<node lat="64.28075555612179" lon="10.405208336987737" id="-33949">
		<tag k="name" v="Breivika" />
=======
	<node id="-732577" lat="64.2924555519" lon="10.4469305493">
		<tag k="name" v="Lindsetneset" />
		<tag k="natural" v="cape" />
		<tag k="ssr:stedsnr" v="154657" />
	</node>
	<node id="-732571" lat="64.3222722254" lon="10.3537777878">
		<tag k="name" v="Austvikholmen" />
		<tag k="place" v="islet" />
		<tag k="ssr:stedsnr" v="154555" />
	</node>
	<node id="-732570" lat="64.3171027781" lon="10.3528138931">
		<tag k="bay" v="fjord" />
		<tag k="name" v="Buarøyfjorden" />
>>>>>>> e1d4bc35ff8a6074a6f2e91616a996b547c36f15
		<tag k="natural" v="bay" />
		<tag k="ssr:stedsnr" v="579655" />
	</node>
<<<<<<< HEAD
	<node lat="64.33012777585186" lon="10.356466663874016" id="-33952">
		<tag k="name" v="Stranda" />
=======
	<node id="-732539" lat="64.3510972256" lon="10.4749472147">
		<tag k="name" v="Aunstranda" />
>>>>>>> e1d4bc35ff8a6074a6f2e91616a996b547c36f15
		<tag k="natural" v="beach" />
		<tag k="ssr:stedsnr" v="579549" />
	</node>
<<<<<<< HEAD
	<node lat="64.4033388892198" lon="10.463963890073806" id="-33957">
		<tag k="name" v="Sørholmvalen" />
		<tag k="natural" v="bay" />
		<tag k="ssr:stedsnr" v="579695" />
	</node>
	<node lat="64.39001944615687" lon="10.496755556648909" id="-33959">
		<tag k="name" v="Kalvstranda" />
		<tag k="natural" v="beach" />
		<tag k="ssr:stedsnr" v="579697" />
	</node>
	<node lat="64.34713332935742" lon="10.469374989853385" id="-33964">
		<tag k="name" v="Klungeren" />
=======
	<node id="-732537" lat="64.33218889" lon="10.5759666662">
		<tag k="name" v="Nordvingan" />
		<tag k="natural" v="bay" />
		<tag k="ssr:stedsnr" v="154042" />
	</node>
	<node id="-732532" lat="64.3032338715" lon="10.3004769519">
		<tag k="fixme" v="consider seamark:type=rock or natural=shoal" />
		<tag k="name" v="Barkholman" />
		<tag k="place" v="islet" />
		<tag k="ssr:stedsnr" v="147748" />
	</node>
	<node id="-732531" lat="64.4018083307" lon="10.44573056">
		<tag k="fixme" v="consider seamark:type=rock or natural=shoal" />
		<tag k="name" v="Langtareskjæret" />
		<tag k="place" v="islet" />
		<tag k="ssr:stedsnr" v="147425" />
	</node>
	<node id="-732530" lat="64.413888885" lon="10.3689972195">
		<tag k="name" v="Haufattaren" />
>>>>>>> e1d4bc35ff8a6074a6f2e91616a996b547c36f15
		<tag k="natural" v="shoal" />
		<tag k="place" v="locality" />
		<tag k="ssr:stedsnr" v="701087" />
	</node>
<<<<<<< HEAD
	<node lat="64.3257111095368" lon="10.426644451454742" id="-33973">
		<tag k="name" v="Åkervikodden" />
		<tag k="natural" v="cape" />
		<tag k="ssr:stedsnr" v="701457" />
	</node>
	<node lat="64.28636111309872" lon="10.45510555222759" id="-33978">
		<tag k="name" v="Jevikodden" />
=======
	<node id="-732529" lat="64.4150416663" lon="10.445430552">
		<tag k="name" v="Buholmråsa" />
		<tag k="natural" v="strait" />
		<tag k="ssr:stedsnr" v="147154" />
	</node>
	<node id="-732528" lat="64.3865083365" lon="10.5725083348">
		<tag k="name" v="Øyaodden" />
>>>>>>> e1d4bc35ff8a6074a6f2e91616a996b547c36f15
		<tag k="natural" v="cape" />
		<tag k="ssr:stedsnr" v="701602" />
	</node>
<<<<<<< HEAD
	<node lat="64.3636888889703" lon="10.407055565719485" id="-33995">
		<tag k="alt_name" v="Raudøya, søre" />
		<tag k="name" v="Søre Raudøya" />
		<tag k="place" v="island" />
		<tag k="ssr:stedsnr" v="620688" />
	</node>
	<node lat="64.33936388632044" lon="10.286997212270887" id="-33997">
=======
	<node id="-732526" lat="64.3940249966" lon="10.3199000057">
		<tag k="name" v="Bardgrynna" />
		<tag k="natural" v="shoal" />
		<tag k="place" v="locality" />
		<tag k="ssr:stedsnr" v="135682" />
	</node>
	<node id="-732525" lat="64.4056222234" lon="10.3524111118">
>>>>>>> e1d4bc35ff8a6074a6f2e91616a996b547c36f15
		<tag k="fixme" v="consider seamark:type=rock or natural=shoal" />
		<tag k="name" v="Ånskjæra" />
		<tag k="place" v="islet" />
		<tag k="ssr:stedsnr" v="620723" />
	</node>
<<<<<<< HEAD
	<node lat="64.37168055549891" lon="10.338619454190647" id="-33998">
		<tag k="name" v="Fluskolten" />
		<tag k="place" v="locality" />
		<tag k="seamark:type" v="rock" />
		<tag k="ssr:stedsnr" v="630307" />
	</node>
	<node lat="64.31810000189685" lon="10.253138882433326" id="-33999">
		<tag k="name" v="Seiskallen" />
=======
	<node id="-732524" lat="64.4311972238" lon="10.4211916649">
		<tag k="name" v="Oddfallet" />
>>>>>>> e1d4bc35ff8a6074a6f2e91616a996b547c36f15
		<tag k="natural" v="shoal" />
		<tag k="place" v="locality" />
		<tag k="ssr:stedsnr" v="632735" />
	</node>
<<<<<<< HEAD
	<node lat="64.30628333215776" lon="10.414341674452727" id="-34000">
		<tag k="name" v="Grunningen" />
		<tag k="natural" v="shoal" />
		<tag k="place" v="locality" />
		<tag k="ssr:stedsnr" v="633897" />
	</node>
	<node lat="64.342986114266" lon="10.448825009109786" id="-34003">
		<tag k="name" v="Estenvika" />
		<tag k="natural" v="bay" />
		<tag k="ssr:stedsnr" v="639013" />
	</node>
	<node lat="64.31385000436588" lon="10.360361115011404" id="-34021">
		<tag k="fixme" v="consider seamark:type=rock or natural=shoal" />
		<tag k="name" v="Håflesskjeret" />
		<tag k="place" v="islet" />
		<tag k="ssr:stedsnr" v="640477" />
	</node>
	<node lat="64.33048055241512" lon="10.35718612040286" id="-34022">
		<tag k="name" v="Vassholet" />
		<tag k="natural" v="bay" />
		<tag k="ssr:stedsnr" v="640480" />
	</node>
	<node lat="64.33198889191253" lon="10.36506666673121" id="-34023">
		<tag k="name" v="Nordaunbukta" />
=======
	<node id="-732521" lat="64.2854777797" lon="10.2242861071">
		<tag k="fixme" v="consider seamark:type=rock or natural=shoal" />
		<tag k="name" v="Leiaskjæret" />
		<tag k="place" v="islet" />
		<tag k="ssr:stedsnr" v="135580" />
	</node>
	<node id="-732512" lat="64.3501083305" lon="10.4293694544">
		<tag k="name" v="Nord-Skokkeløya" />
		<tag k="place" v="island" />
		<tag k="ssr:stedsnr" v="134756" />
	</node>
	<node id="-732495" lat="64.284627774" lon="10.2770583397">
		<tag k="name" v="Fiskholmen" />
		<tag k="place" v="islet" />
		<tag k="ssr:stedsnr" v="94645" />
	</node>
	<node id="-732494" lat="64.288861108" lon="10.4397805592">
		<tag k="name" v="Sjåneset" />
		<tag k="natural" v="cape" />
		<tag k="ssr:stedsnr" v="94632" />
	</node>
	<node id="-732491" lat="64.3403888845" lon="10.3973972315">
		<tag k="name" v="Sør Bjørnsvikneset" />
		<tag k="natural" v="cape" />
		<tag k="ssr:stedsnr" v="94543" />
	</node>
	<node id="-732489" lat="64.2830555592" lon="10.2852805457">
		<tag k="name" v="Tonøya" />
		<tag k="place" v="island" />
		<tag k="ssr:stedsnr" v="94527" />
	</node>
	<node id="-732487" lat="64.2980277787" lon="10.2738694498">
		<tag k="name" v="Yttervågan" />
>>>>>>> e1d4bc35ff8a6074a6f2e91616a996b547c36f15
		<tag k="natural" v="bay" />
		<tag k="ssr:stedsnr" v="640491" />
	</node>
<<<<<<< HEAD
	<node lat="64.34744722396533" lon="10.465108325393654" id="-34033">
		<tag k="fixme" v="consider seamark:type=rock or natural=shoal" />
		<tag k="name" v="Skjeret" />
=======
	<node id="-732472" lat="64.4022111101" lon="10.4607194408">
		<tag k="name" v="Rørvikholman" />
>>>>>>> e1d4bc35ff8a6074a6f2e91616a996b547c36f15
		<tag k="place" v="islet" />
		<tag k="ssr:stedsnr" v="640687" />
	</node>
<<<<<<< HEAD
	<node lat="64.33547499979024" lon="10.32150276844983" id="-34039">
		<tag k="name" v="Kalværet" />
		<tag k="place" v="island" />
		<tag k="ssr:stedsnr" v="681757" />
	</node>
	<node lat="64.34483055862155" lon="10.44857777989228" id="-34041">
		<tag k="alt_name" v="Håmannvika" />
		<tag k="name" v="Håmannsvika" />
=======
	<node id="-732470" lat="64.4084472215" lon="10.4713416706">
		<tag k="name" v="Valan" />
>>>>>>> e1d4bc35ff8a6074a6f2e91616a996b547c36f15
		<tag k="natural" v="bay" />
		<tag k="ssr:stedsnr" v="681761" />
	</node>
<<<<<<< HEAD
	<node lat="64.37729166449758" lon="10.575194449392061" id="-34043">
		<tag k="name" v="Drageidtaren" />
=======
	<node id="-732456" lat="64.3459472223" lon="10.3337666721">
		<tag k="alt_name" v="Bleksfallet" />
		<tag k="name" v="Bleiksfallet" />
		<tag k="natural" v="shoal" />
>>>>>>> e1d4bc35ff8a6074a6f2e91616a996b547c36f15
		<tag k="place" v="locality" />
		<tag k="seamark:type" v="rock" />
		<tag k="ssr:stedsnr" v="688406" />
	</node>
<<<<<<< HEAD
	<node lat="64.39493610847374" lon="10.483077775799265" id="-34044">
		<tag k="name" v="Setervågen" />
=======
	<node id="-732455" lat="64.2837583325" lon="10.4066611164">
		<tag k="name" v="Sandvika" />
>>>>>>> e1d4bc35ff8a6074a6f2e91616a996b547c36f15
		<tag k="natural" v="bay" />
		<tag k="ssr:stedsnr" v="693417" />
	</node>
<<<<<<< HEAD
	<node lat="64.33271110835398" lon="10.271063895373077" id="-34046">
		<tag k="name" v="Bolleflua" />
=======
	<node id="-732454" lat="64.4023722236" lon="10.3457777685">
		<tag k="name" v="Fallet" />
>>>>>>> e1d4bc35ff8a6074a6f2e91616a996b547c36f15
		<tag k="natural" v="shoal" />
		<tag k="place" v="locality" />
		<tag k="ssr:stedsnr" v="693772" />
	</node>
<<<<<<< HEAD
	<node lat="64.32374444143291" lon="10.259580548641406" id="-34047">
		<tag k="name" v="Krabben" />
=======
	<node id="-732453" lat="64.449380558" lon="10.3913555503">
		<tag k="name" v="Pælskoltan" />
>>>>>>> e1d4bc35ff8a6074a6f2e91616a996b547c36f15
		<tag k="natural" v="shoal" />
		<tag k="place" v="locality" />
		<tag k="ssr:stedsnr" v="693773" />
	</node>
<<<<<<< HEAD
	<node lat="64.35817777994784" lon="10.32621944562657" id="-34048">
		<tag k="name" v="Laksefallet" />
=======
	<node id="-732452" lat="64.4651611098" lon="10.2407305517">
		<tag k="name" v="Austertaren" />
>>>>>>> e1d4bc35ff8a6074a6f2e91616a996b547c36f15
		<tag k="natural" v="shoal" />
		<tag k="place" v="locality" />
		<tag k="ssr:stedsnr" v="694868" />
	</node>
<<<<<<< HEAD
	<node lat="64.34188333019458" lon="10.316841674071565" id="-34049">
		<tag k="name" v="Estenskjerfallet" />
=======
	<node id="-732451" lat="64.3829944454" lon="10.2641805547">
		<tag k="name" v="Lemskolten" />
>>>>>>> e1d4bc35ff8a6074a6f2e91616a996b547c36f15
		<tag k="natural" v="shoal" />
		<tag k="place" v="locality" />
		<tag k="ssr:stedsnr" v="694871" />
	</node>
<<<<<<< HEAD
	<node lat="64.36789722431487" lon="10.331225004937178" id="-34050">
		<tag k="name" v="Jøfalla" />
=======
	<node id="-732450" lat="64.3725361111" lon="10.2696083433">
		<tag k="name" v="Havbakkskolten" />
>>>>>>> e1d4bc35ff8a6074a6f2e91616a996b547c36f15
		<tag k="natural" v="shoal" />
		<tag k="place" v="locality" />
		<tag k="ssr:stedsnr" v="694887" />
	</node>
<<<<<<< HEAD
	<node lat="64.321477780631" lon="10.436822216685828" id="-34051">
		<tag k="name" v="Strandholmen" />
		<tag k="place" v="islet" />
		<tag k="ssr:stedsnr" v="694917" />
	</node>
	<node lat="64.33714999564448" lon="10.42316944449974" id="-34053">
		<tag k="name" v="Liaodden" />
		<tag k="natural" v="cape" />
		<tag k="ssr:stedsnr" v="701017" />
	</node>
	<node lat="64.39923611344871" lon="10.571111118376047" id="-34055">
		<tag k="name" v="Laksblekkvika" />
		<tag k="natural" v="bay" />
		<tag k="ssr:stedsnr" v="701417" />
	</node>
	<node lat="64.29156944460041" lon="10.291508330301156" id="-34064">
		<tag k="name" v="Sjetnvika" />
		<tag k="natural" v="bay" />
		<tag k="ssr:stedsnr" v="701517" />
	</node>
	<node lat="64.39365277732081" lon="10.486255559717677" id="-34068">
		<tag k="name" v="Leira" />
		<tag k="natural" v="bay" />
		<tag k="ssr:stedsnr" v="701672" />
	</node>
	<node lat="64.34431666288168" lon="10.41745277906569" id="-34073">
		<tag k="name" v="Sør-Skokkeløya" />
		<tag k="place" v="island" />
		<tag k="ssr:stedsnr" v="741786" />
	</node>
	<node lat="64.29642499634744" lon="10.473691662196766" id="-34082">
		<tag k="name" v="Osen" />
		<tag k="natural" v="bay" />
		<tag k="ssr:stedsnr" v="742534" />
	</node>
	<node lat="64.3410277744418" lon="10.20861943804724" id="-34084">
		<tag k="alt_name" v="Einstøingen, s" />
		<tag k="name" v="Søre Einstøingen" />
=======
	<node id="-732449" lat="64.3884166639" lon="10.5211111065">
		<tag k="name" v="Nausttaren" />
		<tag k="natural" v="shoal" />
		<tag k="place" v="locality" />
		<tag k="ssr:stedsnr" v="85789" />
	</node>
	<node id="-732448" lat="64.3626222204" lon="10.2144944536">
		<tag k="name" v="Havbakken" />
		<tag k="natural" v="shoal" />
		<tag k="place" v="locality" />
		<tag k="ssr:stedsnr" v="75869" />
	</node>
	<node id="-732447" lat="64.463188886" lon="10.2099694526">
		<tag k="name" v="Kysundet" />
		<tag k="natural" v="strait" />
		<tag k="ssr:stedsnr" v="75866" />
	</node>
	<node id="-732444" lat="64.4179972211" lon="10.4284583297">
		<tag k="name" v="Buholmen" />
		<tag k="place" v="islet" />
		<tag k="ssr:stedsnr" v="75729" />
	</node>
	<node id="-732435" lat="64.3232583294" lon="10.2449111148">
		<tag k="name" v="Småfalla" />
>>>>>>> e1d4bc35ff8a6074a6f2e91616a996b547c36f15
		<tag k="natural" v="shoal" />
		<tag k="place" v="locality" />
		<tag k="ssr:stedsnr" v="742807" />
	</node>
<<<<<<< HEAD
	<node lat="64.27323333704082" lon="10.411988891716467" id="-34085">
		<tag k="name" v="Sørjervågen" />
		<tag k="natural" v="bay" />
		<tag k="ssr:stedsnr" v="754803" />
	</node>
	<node lat="64.27461110748793" lon="10.398286101451147" id="-34086">
		<tag k="alt_name" v="Tjelddøra" />
		<tag k="name" v="Tjeldøra" />
		<tag k="natural" v="cape" />
		<tag k="ssr:stedsnr" v="754806" />
	</node>
	<node lat="64.31999166330512" lon="10.446180549644936" id="-34089">
		<tag k="name" v="Sundholmen" />
		<tag k="place" v="islet" />
		<tag k="ssr:stedsnr" v="761103" />
	</node>
	<node lat="64.3066861081895" lon="10.449433322881909" id="-34094">
		<tag k="name" v="Skarvsteinsodden" />
		<tag k="natural" v="cape" />
		<tag k="ssr:stedsnr" v="761097" />
	</node>
	<node lat="64.39774444719247" lon="10.475544454647894" id="-34095">
=======
	<node id="-732424" lat="64.2972833335" lon="10.2844777839">
		<tag k="name" v="Ytre Skjervøya" />
		<tag k="place" v="island" />
		<tag k="ssr:stedsnr" v="74542" />
	</node>
	<node id="-732412" lat="64.3480222214" lon="10.4872888832">
>>>>>>> e1d4bc35ff8a6074a6f2e91616a996b547c36f15
		<tag k="name" v="Styrvika" />
		<tag k="natural" v="bay" />
		<tag k="ssr:stedsnr" v="761297" />
	</node>
	<node lat="64.39817222642382" lon="10.468822228088737" id="-34096">
		<tag k="name" v="Singsneset" />
		<tag k="natural" v="cape" />
		<tag k="ssr:stedsnr" v="761300" />
	</node>
<<<<<<< HEAD
	<node lat="64.2676249962344" lon="10.442597230978873" id="-34100">
		<tag k="name" v="Byneset" />
=======
	<node id="-732410" lat="64.4148361139" lon="10.4785027737">
		<tag k="name" v="Asbuneset" />
>>>>>>> e1d4bc35ff8a6074a6f2e91616a996b547c36f15
		<tag k="natural" v="cape" />
		<tag k="ssr:stedsnr" v="761422" />
	</node>
<<<<<<< HEAD
	<node lat="64.29594166696137" lon="10.464927774846418" id="-34101">
		<tag k="name" v="Knarrvikneset" />
		<tag k="natural" v="cape" />
		<tag k="ssr:stedsnr" v="761508" />
	</node>
	<node lat="64.29204721927806" lon="10.274936114879662" id="-34115">
		<tag k="name" v="Grindholmen" />
=======
	<node id="-732409" lat="64.393905555" lon="10.4987333358">
		<tag k="fixme" v="consider seamark:type=rock or natural=shoal" />
		<tag k="name" v="Bogaskjeret" />
>>>>>>> e1d4bc35ff8a6074a6f2e91616a996b547c36f15
		<tag k="place" v="islet" />
		<tag k="ssr:stedsnr" v="761647" />
	</node>
<<<<<<< HEAD
	<node lat="64.28467777923154" lon="10.270161120085952" id="-34116">
		<tag k="name" v="Hovdneset" />
=======
	<node id="-732406" lat="64.3988111125" lon="10.5238000012">
		<tag k="name" v="Neset" />
>>>>>>> e1d4bc35ff8a6074a6f2e91616a996b547c36f15
		<tag k="natural" v="cape" />
		<tag k="ssr:stedsnr" v="761652" />
	</node>
<<<<<<< HEAD
	<node lat="64.35635555778627" lon="10.460305564423853" id="-34123">
		<tag k="name" v="Vingsandholmen" />
=======
	<node id="-732399" lat="64.3020944458" lon="10.2993611009">
		<tag k="fixme" v="consider seamark:type=rock or natural=shoal" />
		<tag k="name" v="Sør Barkholmen" />
>>>>>>> e1d4bc35ff8a6074a6f2e91616a996b547c36f15
		<tag k="place" v="islet" />
		<tag k="ssr:stedsnr" v="802769" />
	</node>
<<<<<<< HEAD
	<node lat="64.3587500013146" lon="10.392013883417874" id="-34124">
		<tag k="name" v="Lamholmen" />
=======
	<node id="-732398" lat="64.345199996" lon="10.3953750087">
		<tag k="fixme" v="consider seamark:type=rock or natural=shoal" />
		<tag k="name" v="Hestholmskjeret" />
>>>>>>> e1d4bc35ff8a6074a6f2e91616a996b547c36f15
		<tag k="place" v="islet" />
		<tag k="ssr:stedsnr" v="802771" />
	</node>
<<<<<<< HEAD
	<node lat="64.37613055109547" lon="10.566055564704325" id="-34131">
		<tag k="bay" v="fjord" />
		<tag k="name" v="Svesfjorden" />
		<tag k="natural" v="bay" />
		<tag k="ssr:stedsnr" v="803718" />
	</node>
	<node lat="64.3552333314018" lon="10.372966669834845" id="-34133">
		<tag k="name" v="Biskopflua" />
=======
	<node id="-732388" lat="64.2893527739" lon="10.4581527777">
		<tag k="name" v="Røytvika" />
		<tag k="natural" v="bay" />
		<tag k="ssr:stedsnr" v="33517" />
	</node>
	<node id="-732367" lat="64.3633333377" lon="10.6645472233">
		<tag k="name" v="Levikodden" />
		<tag k="natural" v="cape" />
		<tag k="ssr:stedsnr" v="33405" />
	</node>
	<node id="-732364" lat="64.3559277751" lon="10.4664166578">
		<tag k="name" v="Galeasknausen" />
>>>>>>> e1d4bc35ff8a6074a6f2e91616a996b547c36f15
		<tag k="natural" v="shoal" />
		<tag k="place" v="locality" />
		<tag k="ssr:stedsnr" v="813278" />
	</node>
<<<<<<< HEAD
	<node lat="64.35089999908904" lon="10.508208323979245" id="-34139">
		<tag k="name" v="Inner Grønnvika" />
=======
	<node id="-732363" lat="64.3527472195" lon="10.4691583368">
		<tag k="name" v="Aunvika" />
>>>>>>> e1d4bc35ff8a6074a6f2e91616a996b547c36f15
		<tag k="natural" v="bay" />
		<tag k="ssr:stedsnr" v="822367" />
	</node>
<<<<<<< HEAD
	<node lat="64.28018611483938" lon="10.458386117676005" id="-34143">
		<tag k="name" v="Kalvvika" />
		<tag k="natural" v="cape" />
		<tag k="ssr:stedsnr" v="822613" />
	</node>
	<node lat="64.35055833484982" lon="10.449288881362666" id="-34146">
		<tag k="name" v="Åkvika" />
=======
	<node id="-732360" lat="64.4013030645" lon="10.4536274537">
		<tag k="name" v="Sønnaholmen" />
		<tag k="place" v="islet" />
		<tag k="ssr:stedsnr" v="33369" />
	</node>
	<node id="-732359" lat="64.3411916651" lon="10.4892916661">
		<tag k="name" v="Gjetarvika" />
>>>>>>> e1d4bc35ff8a6074a6f2e91616a996b547c36f15
		<tag k="natural" v="bay" />
		<tag k="ssr:stedsnr" v="822634" />
	</node>
<<<<<<< HEAD
	<node lat="64.32100277435339" lon="10.362872229548" id="-34148">
		<tag k="name" v="Vikanesa" />
		<tag k="natural" v="cape" />
		<tag k="ssr:stedsnr" v="822640" />
	</node>
	<node lat="64.35758611270504" lon="10.476544448438235" id="-34150">
		<tag k="name" v="Litlvika" />
=======
	<node id="-732358" lat="64.3525611145" lon="10.504533329">
		<tag k="name" v="Ytter Grønnvika" />
>>>>>>> e1d4bc35ff8a6074a6f2e91616a996b547c36f15
		<tag k="natural" v="bay" />
		<tag k="ssr:stedsnr" v="822703" />
	</node>
<<<<<<< HEAD
	<node lat="64.33558611187082" lon="10.414374993230902" id="-34159">
		<tag k="name" v="Ramsøya" />
		<tag k="place" v="island" />
		<tag k="ssr:stedsnr" v="924470" />
	</node>
	<node lat="64.3037805578885" lon="10.162130563363645" id="-34168">
		<tag k="alt_name" v="Sigrynnfallet, vestre" />
		<tag k="name" v="Vestre Sigrynnfallet" />
		<tag k="natural" v="shoal" />
		<tag k="place" v="locality" />
		<tag k="ssr:stedsnr" v="924844" />
	</node>
	<node lat="64.45936944619253" lon="10.102963890393989" id="-34172">
		<tag k="name" v="Torsbakken" />
		<tag k="natural" v="shoal" />
		<tag k="place" v="locality" />
		<tag k="ssr:stedsnr" v="863802" />
	</node>
	<node lat="64.31940833510707" lon="10.374966668597999" id="-34175">
		<tag k="name" v="Åkervika" />
		<tag k="natural" v="bay" />
		<tag k="ssr:stedsnr" v="883004" />
	</node>
	<node lat="64.30493055716929" lon="10.466372227686866" id="-34189">
		<tag k="name" v="Sundabukta" />
		<tag k="natural" v="bay" />
		<tag k="ssr:stedsnr" v="883549" />
	</node>
	<node lat="64.40762499595316" lon="10.457805555848017" id="-34190">
		<tag k="name" v="Skarvan" />
=======
	<node id="-732356" lat="64.3768333321" lon="10.6169750079">
		<tag k="name" v="Turuvikneset" />
		<tag k="natural" v="cape" />
		<tag k="ssr:stedsnr" v="33345" />
	</node>
	<node id="-732348" lat="64.3039720244" lon="10.2999395671">
		<tag k="fixme" v="consider seamark:type=rock or natural=shoal" />
		<tag k="name" v="Nord Barkholmen" />
		<tag k="place" v="islet" />
		<tag k="ssr:stedsnr" v="33147" />
	</node>
	<node id="-732343" lat="64.2797277752" lon="10.3917944511">
		<tag k="name" v="Litlholmen" />
		<tag k="place" v="islet" />
		<tag k="ssr:stedsnr" v="33023" />
	</node>
	<node id="-732341" lat="64.3293388894" lon="10.3537583368">
		<tag k="alt_name" v="Hamnaholmen" />
		<tag k="name" v="Hamneholmen" />
>>>>>>> e1d4bc35ff8a6074a6f2e91616a996b547c36f15
		<tag k="place" v="islet" />
		<tag k="ssr:stedsnr" v="883716" />
	</node>
<<<<<<< HEAD
	<node lat="64.27256666863956" lon="10.410061118215616" id="-34197">
		<tag k="name" v="Vågen" />
		<tag k="natural" v="bay" />
		<tag k="ssr:stedsnr" v="883658" />
	</node>
	<node lat="64.27296110830198" lon="10.402772222607489" id="-34198">
		<tag k="name" v="Stranda" />
		<tag k="natural" v="beach" />
		<tag k="ssr:stedsnr" v="883659" />
	</node>
	<node lat="64.33436944251642" lon="10.37168056374278" id="-34201">
		<tag k="fixme" v="consider seamark:type=rock or natural=shoal" />
		<tag k="name" v="Dørgaskjæra" />
		<tag k="place" v="islet" />
		<tag k="ssr:stedsnr" v="934978" />
	</node>
	<node lat="64.28512222021314" lon="10.241952786913869" id="-34209">
		<tag k="fixme" v="consider seamark:type=rock or natural=shoal" />
		<tag k="name" v="Engelskskjæra" />
		<tag k="place" v="islet" />
		<tag k="ssr:stedsnr" v="924570" />
	</node>
	<node lat="64.35678333071988" lon="10.346986105292869" id="-34212">
=======
	<node id="-732340" lat="64.2602555591" lon="10.4229277691">
		<tag k="name" v="Feta" />
		<tag k="natural" v="cape" />
		<tag k="ssr:stedsnr" v="26764" />
	</node>
	<node id="-732339" lat="64.3528694447" lon="10.4453777676">
		<tag k="name" v="Bjørsneset" />
		<tag k="natural" v="cape" />
		<tag k="ssr:stedsnr" v="25832" />
	</node>
	<node id="-732338" lat="64.3597916677" lon="10.5126944441">
		<tag k="name" v="Stillingsodden" />
		<tag k="natural" v="cape" />
		<tag k="ssr:stedsnr" v="25824" />
	</node>
	<node id="-732337" lat="64.3313010052" lon="10.4416770534">
		<tag k="alt_name" v="Stagganesodden;Stangnesodden" />
		<tag k="name" v="Stakanesodden" />
		<tag k="natural" v="cape" />
		<tag k="ssr:stedsnr" v="24967" />
	</node>
	<node id="-732336" lat="64.3560944431" lon="10.3996055554">
>>>>>>> e1d4bc35ff8a6074a6f2e91616a996b547c36f15
		<tag k="fixme" v="consider seamark:type=rock or natural=shoal" />
		<tag k="name" v="Grønnskjæret" />
		<tag k="place" v="islet" />
		<tag k="ssr:stedsnr" v="924708" />
	</node>
<<<<<<< HEAD
	<node lat="64.39635555850523" lon="10.412897230383518" id="-34213">
		<tag k="name" v="Vakafallet" />
=======
	<node id="-732335" lat="64.2888694488" lon="10.208833342">
		<tag k="name" v="Råstaren" />
>>>>>>> e1d4bc35ff8a6074a6f2e91616a996b547c36f15
		<tag k="natural" v="shoal" />
		<tag k="place" v="locality" />
		<tag k="ssr:stedsnr" v="924674" />
	</node>
<<<<<<< HEAD
	<node lat="64.39513333761344" lon="10.499952784249068" id="-34214">
		<tag k="alt_name" v="Stadsvikskjeret" />
		<tag k="fixme" v="consider seamark:type=rock or natural=shoal" />
		<tag k="name" v="Stasvikskjæret" />
=======
	<node id="-732334" lat="64.2965555513" lon="10.2106999921">
		<tag k="name" v="Flesan" />
>>>>>>> e1d4bc35ff8a6074a6f2e91616a996b547c36f15
		<tag k="place" v="islet" />
		<tag k="ssr:stedsnr" v="934304" />
	</node>
	<node lat="64.36865277630447" lon="10.454061117097849" id="-34215">
		<tag k="name" v="Oksholmen" />
		<tag k="place" v="islet" />
		<tag k="ssr:stedsnr" v="934306" />
	</node>
<<<<<<< HEAD
	<node lat="64.388038888022" lon="10.481855564143181" id="-34216">
=======
	<node id="-732332" lat="64.3714666646" lon="10.2421805595">
>>>>>>> e1d4bc35ff8a6074a6f2e91616a996b547c36f15
		<tag k="fixme" v="consider seamark:type=rock or natural=shoal" />
		<tag k="name" v="Easkjæra" />
		<tag k="place" v="islet" />
		<tag k="ssr:stedsnr" v="936406" />
	</node>
<<<<<<< HEAD
	<node lat="64.42635833112278" lon="10.475119437847916" id="-34217">
		<tag k="fixme" v="consider seamark:type=rock or natural=shoal" />
		<tag k="name" v="Såfalla" />
		<tag k="place" v="islet" />
		<tag k="ssr:stedsnr" v="937160" />
	</node>
	<node lat="64.3331527812127" lon="10.338402767601943" id="-34218">
=======
	<node id="-732330" lat="64.3879111095" lon="10.6006333281">
		<tag k="name" v="Bromsvika" />
		<tag k="natural" v="bay" />
		<tag k="ssr:stedsnr" v="14651" />
	</node>
	<node id="-732329" lat="64.4173833305" lon="10.4148305591">
>>>>>>> e1d4bc35ff8a6074a6f2e91616a996b547c36f15
		<tag k="fixme" v="consider seamark:type=rock or natural=shoal" />
		<tag k="name" v="Søre Kvalhausen" />
		<tag k="place" v="islet" />
		<tag k="ssr:stedsnr" v="938511" />
	</node>
<<<<<<< HEAD
	<node lat="64.41548055195152" lon="10.471838896580884" id="-34219">
=======
	<node id="-732328" lat="64.4224055573" lon="10.4319472181">
>>>>>>> e1d4bc35ff8a6074a6f2e91616a996b547c36f15
		<tag k="fixme" v="consider seamark:type=rock or natural=shoal" />
		<tag k="name" v="Svartholskjera" />
		<tag k="place" v="islet" />
		<tag k="ssr:stedsnr" v="944305" />
	</node>
<<<<<<< HEAD
	<node lat="64.3260027771995" lon="10.42351943981678" id="-34224">
		<tag k="name" v="Helvete" />
=======
	<node id="-732319" lat="64.3285694432" lon="10.5701805537">
		<tag k="name" v="Vingvågen" />
>>>>>>> e1d4bc35ff8a6074a6f2e91616a996b547c36f15
		<tag k="natural" v="bay" />
		<tag k="ssr:stedsnr" v="944434" />
	</node>
<<<<<<< HEAD
	<node lat="64.28604722163266" lon="10.460166661283653" id="-34226">
		<tag k="name" v="Øykvika" />
		<tag k="natural" v="bay" />
		<tag k="ssr:stedsnr" v="944484" />
	</node>
	<node lat="64.29944722555845" lon="10.492080550349641" id="-34236">
		<tag k="name" v="Skolmeistervika" />
		<tag k="natural" v="bay" />
		<tag k="ssr:stedsnr" v="944593" />
	</node>
	<node lat="64.34883611455967" lon="10.259858325371264" id="-34249">
=======
	<node id="-732308" lat="64.3563027747" lon="10.2617944396">
		<tag k="name" v="Støttingen" />
		<tag k="natural" v="shoal" />
		<tag k="place" v="locality" />
		<tag k="ssr:stedsnr" v="13746" />
	</node>
	<node id="-732307" lat="64.3488361146" lon="10.2598583254">
>>>>>>> e1d4bc35ff8a6074a6f2e91616a996b547c36f15
		<tag k="name" v="Støttingsflua" />
		<tag k="natural" v="shoal" />
		<tag k="place" v="locality" />
		<tag k="ssr:stedsnr" v="13737" />
	</node>
<<<<<<< HEAD
	<node lat="64.3563027747107" lon="10.261794439599468" id="-34250">
		<tag k="name" v="Støttingen" />
		<tag k="natural" v="shoal" />
		<tag k="place" v="locality" />
		<tag k="ssr:stedsnr" v="13746" />
	</node>
	<node lat="64.32856944318776" lon="10.570180553683043" id="-34252">
		<tag k="name" v="Vingvågen" />
		<tag k="natural" v="bay" />
		<tag k="ssr:stedsnr" v="14462" />
	</node>
	<node lat="64.3292111118985" lon="10.291219447856248" id="-34269">
=======
	<node id="-732287" lat="64.2770027746" lon="10.3888749956">
>>>>>>> e1d4bc35ff8a6074a6f2e91616a996b547c36f15
		<tag k="fixme" v="consider seamark:type=rock or natural=shoal" />
		<tag k="name" v="Langdraget" />
		<tag k="place" v="islet" />
		<tag k="ssr:stedsnr" v="14432" />
	</node>
<<<<<<< HEAD
	<node lat="64.32722499941738" lon="10.278361103803796" id="-34270">
		<tag k="name" v="Skarvkleppen" />
=======
	<node id="-732286" lat="64.3331527812" lon="10.3384027676">
		<tag k="fixme" v="consider seamark:type=rock or natural=shoal" />
		<tag k="name" v="Søre Kvalhausen" />
>>>>>>> e1d4bc35ff8a6074a6f2e91616a996b547c36f15
		<tag k="place" v="islet" />
		<tag k="ssr:stedsnr" v="14436" />
	</node>
<<<<<<< HEAD
	<node lat="64.38791110954803" lon="10.600633328051234" id="-34279">
		<tag k="name" v="Bromsvika" />
		<tag k="natural" v="bay" />
		<tag k="ssr:stedsnr" v="14651" />
	</node>
	<node lat="64.3714666646215" lon="10.242180559505796" id="-34280">
=======
	<node id="-732285" lat="64.3654416655" lon="10.4234333346">
		<tag k="name" v="Raudøyan" />
		<tag k="place" v="island" />
		<tag k="ssr:stedsnr" v="936934" />
	</node>
	<node id="-732284" lat="64.388038888" lon="10.4818555641">
>>>>>>> e1d4bc35ff8a6074a6f2e91616a996b547c36f15
		<tag k="fixme" v="consider seamark:type=rock or natural=shoal" />
		<tag k="name" v="Bremflesa" />
		<tag k="place" v="islet" />
		<tag k="ssr:stedsnr" v="14680" />
	</node>
<<<<<<< HEAD
	<node lat="64.29655555134649" lon="10.210699992070138" id="-34281">
		<tag k="name" v="Flesan" />
=======
	<node id="-732283" lat="64.3686527763" lon="10.4540611171">
		<tag k="name" v="Oksholmen" />
>>>>>>> e1d4bc35ff8a6074a6f2e91616a996b547c36f15
		<tag k="place" v="islet" />
		<tag k="ssr:stedsnr" v="14840" />
	</node>
<<<<<<< HEAD
	<node lat="64.28886944876209" lon="10.208833341990003" id="-34282">
		<tag k="name" v="Råstaren" />
		<tag k="natural" v="shoal" />
		<tag k="place" v="locality" />
		<tag k="ssr:stedsnr" v="14847" />
	</node>
	<node lat="64.33130100521095" lon="10.441677053357068" id="-34283">
		<tag k="alt_name" v="Stagganesodden;Stangnesodden" />
		<tag k="name" v="Stakanesodden" />
		<tag k="natural" v="cape" />
		<tag k="ssr:stedsnr" v="24967" />
	</node>
	<node lat="64.35979166769383" lon="10.512694444105895" id="-34284">
		<tag k="name" v="Stillingsodden" />
		<tag k="natural" v="cape" />
		<tag k="ssr:stedsnr" v="25824" />
	</node>
	<node lat="64.35286944466151" lon="10.445377767572905" id="-34285">
		<tag k="name" v="Bjørsneset" />
		<tag k="natural" v="cape" />
		<tag k="ssr:stedsnr" v="25832" />
	</node>
	<node lat="64.26025555912251" lon="10.42292776911321" id="-34286">
		<tag k="name" v="Feta" />
		<tag k="natural" v="cape" />
		<tag k="ssr:stedsnr" v="26764" />
	</node>
	<node lat="64.32933888936068" lon="10.353758336825495" id="-34287">
		<tag k="alt_name" v="Hamnaholmen" />
		<tag k="name" v="Hamneholmen" />
		<tag k="place" v="islet" />
		<tag k="ssr:stedsnr" v="26886" />
	</node>
	<node lat="64.30397202443518" lon="10.299939567053768" id="-34305">
=======
	<node id="-732282" lat="64.3951333376" lon="10.4999527842">
		<tag k="alt_name" v="Stadsvikskjeret" />
>>>>>>> e1d4bc35ff8a6074a6f2e91616a996b547c36f15
		<tag k="fixme" v="consider seamark:type=rock or natural=shoal" />
		<tag k="name" v="Nord Barkholmen" />
		<tag k="place" v="islet" />
		<tag k="ssr:stedsnr" v="33147" />
	</node>
	<node lat="64.37683333211731" lon="10.616975007920363" id="-34309">
		<tag k="name" v="Turuvikneset" />
		<tag k="natural" v="cape" />
		<tag k="ssr:stedsnr" v="33345" />
	</node>
	<node lat="64.35274721945635" lon="10.469158336840064" id="-34311">
		<tag k="name" v="Aunvika" />
		<tag k="natural" v="bay" />
		<tag k="ssr:stedsnr" v="33383" />
	</node>
	<node lat="64.35592777512493" lon="10.466416657814015" id="-34312">
		<tag k="name" v="Galeasknausen" />
		<tag k="natural" v="shoal" />
		<tag k="place" v="locality" />
		<tag k="ssr:stedsnr" v="33388" />
	</node>
<<<<<<< HEAD
	<node lat="64.34519999602394" lon="10.395375008727092" id="-34327">
=======
	<node id="-732281" lat="64.3567833307" lon="10.3469861053">
>>>>>>> e1d4bc35ff8a6074a6f2e91616a996b547c36f15
		<tag k="fixme" v="consider seamark:type=rock or natural=shoal" />
		<tag k="name" v="Hestholmskjeret" />
		<tag k="place" v="islet" />
		<tag k="ssr:stedsnr" v="33656" />
	</node>
<<<<<<< HEAD
	<node lat="64.30209444584831" lon="10.299361100916476" id="-34328">
=======
	<node id="-732278" lat="64.2851222202" lon="10.2419527869">
>>>>>>> e1d4bc35ff8a6074a6f2e91616a996b547c36f15
		<tag k="fixme" v="consider seamark:type=rock or natural=shoal" />
		<tag k="name" v="Sør Barkholmen" />
		<tag k="place" v="islet" />
		<tag k="ssr:stedsnr" v="33660" />
	</node>
<<<<<<< HEAD
	<node lat="64.34802222144218" lon="10.487288883201861" id="-34329">
		<tag k="name" v="Styrvika" />
		<tag k="natural" v="bay" />
		<tag k="ssr:stedsnr" v="33724" />
	</node>
	<node lat="64.3988111124917" lon="10.5238000011707" id="-34335">
		<tag k="name" v="Neset" />
=======
	<node id="-732274" lat="64.3481000032" lon="10.6154694394">
		<tag k="name" v="Kalvikodden" />
>>>>>>> e1d4bc35ff8a6074a6f2e91616a996b547c36f15
		<tag k="natural" v="cape" />
		<tag k="ssr:stedsnr" v="33692" />
	</node>
<<<<<<< HEAD
	<node lat="64.29728333347066" lon="10.284477783863823" id="-34343">
		<tag k="name" v="Ytre Skjervøya" />
		<tag k="place" v="island" />
		<tag k="ssr:stedsnr" v="74542" />
	</node>
	<node lat="64.32325832941407" lon="10.244911114796109" id="-34354">
		<tag k="name" v="Småfalla" />
		<tag k="natural" v="shoal" />
		<tag k="place" v="locality" />
		<tag k="ssr:stedsnr" v="75546" />
	</node>
	<node lat="64.46318888603757" lon="10.209969452614528" id="-34360">
		<tag k="name" v="Kysundet" />
		<tag k="natural" v="strait" />
		<tag k="ssr:stedsnr" v="75866" />
	</node>
	<node lat="64.3626222204039" lon="10.214494453550627" id="-34361">
		<tag k="name" v="Havbakken" />
		<tag k="natural" v="shoal" />
=======
	<node id="-732271" lat="64.4096388897" lon="10.460191671">
		<tag k="name" v="Stangholmen" />
		<tag k="place" v="islet" />
		<tag k="ssr:stedsnr" v="883723" />
	</node>
	<node id="-732269" lat="64.407624996" lon="10.4578055558">
		<tag k="name" v="Skarvan" />
		<tag k="place" v="islet" />
		<tag k="ssr:stedsnr" v="883716" />
	</node>
	<node id="-732268" lat="64.3222277787" lon="10.3610972146">
		<tag k="name" v="Heimer Vikan" />
		<tag k="natural" v="bay" />
		<tag k="ssr:stedsnr" v="883667" />
	</node>
	<node id="-732266" lat="64.2729611083" lon="10.4027722226">
		<tag k="name" v="Stranda" />
		<tag k="natural" v="beach" />
>>>>>>> e1d4bc35ff8a6074a6f2e91616a996b547c36f15
		<tag k="place" v="locality" />
		<tag k="ssr:stedsnr" v="75869" />
	</node>
<<<<<<< HEAD
	<node lat="64.37253611114623" lon="10.269608343288818" id="-34363">
		<tag k="name" v="Havbakkskolten" />
		<tag k="natural" v="shoal" />
		<tag k="place" v="locality" />
		<tag k="ssr:stedsnr" v="86744" />
	</node>
	<node lat="64.3829944453999" lon="10.264180554696706" id="-34364">
		<tag k="name" v="Lemskolten" />
		<tag k="natural" v="shoal" />
		<tag k="place" v="locality" />
		<tag k="ssr:stedsnr" v="86745" />
	</node>
	<node lat="64.26277565237268" lon="10.404791726622202" id="-34365">
		<tag k="name" v="Steinbitodden" />
		<tag k="natural" v="cape" />
		<tag k="ssr:stedsnr" v="87015" />
	</node>
	<node lat="64.46516110978314" lon="10.240730551682553" id="-34366">
		<tag k="name" v="Austertaren" />
		<tag k="natural" v="shoal" />
		<tag k="place" v="locality" />
		<tag k="ssr:stedsnr" v="87217" />
	</node>
	<node lat="64.44938055798666" lon="10.391355550314229" id="-34367">
		<tag k="name" v="Pælskoltan" />
		<tag k="natural" v="shoal" />
		<tag k="place" v="locality" />
		<tag k="ssr:stedsnr" v="87218" />
	</node>
	<node lat="64.34594722226515" lon="10.333766672077546" id="-34368">
		<tag k="alt_name" v="Bleksfallet" />
		<tag k="name" v="Bleiksfallet" />
=======
	<node id="-732265" lat="64.2725666686" lon="10.4100611182">
		<tag k="name" v="Vågen" />
		<tag k="natural" v="bay" />
		<tag k="ssr:stedsnr" v="883658" />
	</node>
	<node id="-732259" lat="64.357016666" lon="10.4968805583">
		<tag k="bay" v="fjord" />
		<tag k="name" v="Vingan" />
		<tag k="natural" v="bay" />
		<tag k="ssr:stedsnr" v="883375" />
	</node>
	<node id="-732258" lat="64.3933138892" lon="10.4818444486">
		<tag k="name" v="Tomåsneset" />
		<tag k="natural" v="cape" />
		<tag k="ssr:stedsnr" v="883370" />
	</node>
	<node id="-732255" lat="64.353799998" lon="10.3900666735">
		<tag k="fixme" v="consider seamark:type=rock or natural=shoal" />
		<tag k="name" v="Leirskjæret" />
		<tag k="place" v="islet" />
		<tag k="ssr:stedsnr" v="874322" />
	</node>
	<node id="-732253" lat="64.3408138844" lon="10.3877333433">
		<tag k="alt_name" v="Hestholmen, s;Sør Hestholmen" />
		<tag k="name" v="Sør-Hestholmen" />
		<tag k="place" v="islet" />
		<tag k="ssr:stedsnr" v="863739" />
	</node>
	<node id="-732252" lat="64.3360833361" lon="10.3474444354">
		<tag k="alt_name" v="Nord Kvalhausen" />
		<tag k="fixme" v="multiple name tags, choose one and add the other to alt_name; consider seamark:type=rock or natural=shoal" />
		<tag k="name" v="Kvalhausen;Nordre Kvalhausen" />
		<tag k="place" v="islet" />
		<tag k="ssr:stedsnr" v="863736" />
	</node>
	<node id="-732250" lat="64.3569250034" lon="10.327669444">
		<tag k="name" v="Heilfalla" />
>>>>>>> e1d4bc35ff8a6074a6f2e91616a996b547c36f15
		<tag k="natural" v="shoal" />
		<tag k="place" v="locality" />
		<tag k="ssr:stedsnr" v="87868" />
	</node>
<<<<<<< HEAD
	<node lat="64.40221111013048" lon="10.460719440772772" id="-34372">
		<tag k="name" v="Rørvikholman" />
		<tag k="place" v="islet" />
		<tag k="ssr:stedsnr" v="94367" />
	</node>
	<node lat="64.40844722147719" lon="10.47134167063389" id="-34378">
		<tag k="name" v="Valan" />
=======
	<node id="-732245" lat="64.3450472196" lon="10.4836500001">
		<tag k="name" v="Frolandsvika" />
		<tag k="natural" v="bay" />
		<tag k="ssr:stedsnr" v="944691" />
	</node>
	<node id="-732238" lat="64.2994472256" lon="10.4920805503">
		<tag k="name" v="Skolmeistervika" />
>>>>>>> e1d4bc35ff8a6074a6f2e91616a996b547c36f15
		<tag k="natural" v="bay" />
		<tag k="ssr:stedsnr" v="94334" />
	</node>
<<<<<<< HEAD
	<node lat="64.34038888448838" lon="10.397397231548222" id="-34389">
		<tag k="name" v="Sør Bjørnsvikneset" />
		<tag k="natural" v="cape" />
		<tag k="ssr:stedsnr" v="94543" />
	</node>
	<node lat="64.28886110800502" lon="10.439780559170611" id="-34390">
		<tag k="name" v="Sjåneset" />
		<tag k="natural" v="cape" />
		<tag k="ssr:stedsnr" v="94632" />
	</node>
	<node lat="64.28462777399483" lon="10.277058339713674" id="-34391">
		<tag k="name" v="Fiskholmen" />
		<tag k="place" v="islet" />
		<tag k="ssr:stedsnr" v="94645" />
	</node>
	<node lat="64.32166666977372" lon="10.272288892837079" id="-34413">
		<tag k="name" v="Levringen" />
		<tag k="place" v="island" />
		<tag k="ssr:stedsnr" v="135503" />
	</node>
	<node lat="64.28547777971716" lon="10.224286107135294" id="-34417">
=======
	<node id="-732233" lat="64.3317444402" lon="10.3711083245">
		<tag k="name" v="Øra" />
		<tag k="place" v="locality" />
		<tag k="ssr:stedsnr" v="944502" />
	</node>
	<node id="-732232" lat="64.2860472216" lon="10.4601666613">
		<tag k="name" v="Øykvika" />
		<tag k="natural" v="bay" />
		<tag k="ssr:stedsnr" v="944484" />
	</node>
	<node id="-732224" lat="64.3260027772" lon="10.4235194398">
		<tag k="name" v="Helvete" />
		<tag k="natural" v="bay" />
		<tag k="ssr:stedsnr" v="944434" />
	</node>
	<node id="-732222" lat="64.3372305519" lon="10.5097833303">
		<tag k="name" v="Søvika" />
		<tag k="natural" v="bay" />
		<tag k="ssr:stedsnr" v="944406" />
	</node>
	<node id="-732207" lat="64.415480552" lon="10.4718388966">
>>>>>>> e1d4bc35ff8a6074a6f2e91616a996b547c36f15
		<tag k="fixme" v="consider seamark:type=rock or natural=shoal" />
		<tag k="name" v="Leiaskjæret" />
		<tag k="place" v="islet" />
		<tag k="ssr:stedsnr" v="135580" />
	</node>
<<<<<<< HEAD
	<node lat="64.39402499658522" lon="10.319900005703893" id="-34420">
		<tag k="name" v="Bardgrynna" />
		<tag k="natural" v="shoal" />
		<tag k="place" v="locality" />
		<tag k="ssr:stedsnr" v="135682" />
	</node>
	<node lat="64.38650833653159" lon="10.572508334786221" id="-34422">
		<tag k="name" v="Øyaodden" />
		<tag k="natural" v="cape" />
		<tag k="ssr:stedsnr" v="142377" />
	</node>
	<node lat="64.30323387151155" lon="10.30047695194006" id="-34424">
=======
	<node id="-732203" lat="64.2910583327" lon="10.439116661">
		<tag k="name" v="Skogavika" />
		<tag k="natural" v="bay" />
		<tag k="ssr:stedsnr" v="944084" />
	</node>
	<node id="-732186" lat="64.3976194407" lon="10.4662777703">
>>>>>>> e1d4bc35ff8a6074a6f2e91616a996b547c36f15
		<tag k="fixme" v="consider seamark:type=rock or natural=shoal" />
		<tag k="name" v="Barkholman" />
		<tag k="place" v="islet" />
		<tag k="ssr:stedsnr" v="147748" />
	</node>
<<<<<<< HEAD
	<node lat="64.41504166626696" lon="10.445430552007736" id="-34425">
		<tag k="name" v="Buholmråsa" />
		<tag k="natural" v="strait" />
		<tag k="ssr:stedsnr" v="147154" />
	</node>
	<node lat="64.41388888501325" lon="10.368997219460999" id="-34426">
		<tag k="name" v="Haufattaren" />
		<tag k="natural" v="shoal" />
=======
	<node id="-732181" lat="64.3019111071" lon="10.4836388933">
		<tag k="name" v="Kalvstranda" />
		<tag k="natural" v="beach" />
>>>>>>> e1d4bc35ff8a6074a6f2e91616a996b547c36f15
		<tag k="place" v="locality" />
		<tag k="ssr:stedsnr" v="147389" />
	</node>
<<<<<<< HEAD
	<node lat="64.39053332901405" lon="10.459469447434625" id="-34427">
		<tag k="name" v="Låven" />
		<tag k="natural" v="shoal" />
		<tag k="place" v="locality" />
		<tag k="ssr:stedsnr" v="147412" />
	</node>
	<node lat="64.40180833065905" lon="10.445730559961783" id="-34428">
=======
	<node id="-732180" lat="64.4263583311" lon="10.4751194378">
		<tag k="fixme" v="consider seamark:type=rock or natural=shoal" />
		<tag k="name" v="Såfalla" />
		<tag k="place" v="islet" />
		<tag k="ssr:stedsnr" v="937160" />
	</node>
	<node id="-732179" lat="64.3343694425" lon="10.3716805637">
>>>>>>> e1d4bc35ff8a6074a6f2e91616a996b547c36f15
		<tag k="fixme" v="consider seamark:type=rock or natural=shoal" />
		<tag k="name" v="Langtareskjæret" />
		<tag k="place" v="islet" />
		<tag k="ssr:stedsnr" v="147425" />
	</node>
<<<<<<< HEAD
	<node lat="64.3321888900115" lon="10.57596666623159" id="-34435">
		<tag k="name" v="Nordvingan" />
=======
	<node id="-732175" lat="64.3575861127" lon="10.4765444484">
		<tag k="name" v="Litlvika" />
>>>>>>> e1d4bc35ff8a6074a6f2e91616a996b547c36f15
		<tag k="natural" v="bay" />
		<tag k="ssr:stedsnr" v="154042" />
	</node>
<<<<<<< HEAD
	<node lat="64.35109722559763" lon="10.474947214702407" id="-34437">
		<tag k="name" v="Aunstranda" />
		<tag k="natural" v="beach" />
		<tag k="ssr:stedsnr" v="154083" />
	</node>
	<node lat="64.39080555811633" lon="10.500583327115379" id="-34458">
=======
	<node id="-732173" lat="64.2801861148" lon="10.4583861177">
		<tag k="name" v="Kalvvika" />
		<tag k="natural" v="cape" />
		<tag k="ssr:stedsnr" v="822613" />
	</node>
	<node id="-732168" lat="64.2853833319" lon="10.2660833312">
>>>>>>> e1d4bc35ff8a6074a6f2e91616a996b547c36f15
		<tag k="fixme" v="consider seamark:type=rock or natural=shoal" />
		<tag k="name" v="Kalvstrandskjera" />
		<tag k="place" v="islet" />
		<tag k="ssr:stedsnr" v="154727" />
	</node>
<<<<<<< HEAD
	<node lat="64.39095277755335" lon="10.487005549243896" id="-34459">
		<tag k="name" v="Truggsundet" />
=======
	<node id="-732164" lat="64.3508999991" lon="10.508208324">
		<tag k="name" v="Inner Grønnvika" />
>>>>>>> e1d4bc35ff8a6074a6f2e91616a996b547c36f15
		<tag k="natural" v="bay" />
		<tag k="ssr:stedsnr" v="154728" />
	</node>
<<<<<<< HEAD
	<node lat="64.33511110894867" lon="10.435025005660258" id="-34471">
		<tag k="name" v="Hamnaneset" />
		<tag k="natural" v="cape" />
		<tag k="ssr:stedsnr" v="154682" />
	</node>
	<node lat="64.29469722341659" lon="10.296994452490546" id="-34472">
		<tag k="name" v="Skjervøyvågen" />
=======
	<node id="-732158" lat="64.3036694429" lon="10.4053805649">
		<tag k="bay" v="fjord" />
		<tag k="name" v="Osenfjorden" />
>>>>>>> e1d4bc35ff8a6074a6f2e91616a996b547c36f15
		<tag k="natural" v="bay" />
		<tag k="ssr:stedsnr" v="154687" />
	</node>
<<<<<<< HEAD
	<node lat="64.35673333424958" lon="10.38045555153193" id="-34475">
=======
	<node id="-732157" lat="64.3172888895" lon="10.4463249972">
		<tag k="alt_name" v="Dyrskjeret" />
>>>>>>> e1d4bc35ff8a6074a6f2e91616a996b547c36f15
		<tag k="fixme" v="consider seamark:type=rock or natural=shoal" />
		<tag k="name" v="Biskopen" />
		<tag k="place" v="islet" />
		<tag k="ssr:stedsnr" v="195743" />
	</node>
<<<<<<< HEAD
	<node lat="64.33673611131209" lon="10.540675004696935" id="-34481">
		<tag k="name" v="Storvika" />
=======
	<node id="-732156" lat="64.2847638845" lon="10.2867666689">
		<tag k="name" v="Grisvågen" />
>>>>>>> e1d4bc35ff8a6074a6f2e91616a996b547c36f15
		<tag k="natural" v="bay" />
		<tag k="ssr:stedsnr" v="196853" />
	</node>
<<<<<<< HEAD
	<node lat="64.30326111005694" lon="10.169777780283647" id="-34482">
		<tag k="alt_name" v="Sigrynnfallet, austre" />
		<tag k="name" v="Austre Sigrynnfallet" />
=======
	<node id="-732147" lat="64.3037805579" lon="10.1621305634">
		<tag k="alt_name" v="Sigrynnfallet, vestre" />
		<tag k="name" v="Vestre Sigrynnfallet" />
>>>>>>> e1d4bc35ff8a6074a6f2e91616a996b547c36f15
		<tag k="natural" v="shoal" />
		<tag k="place" v="locality" />
		<tag k="ssr:stedsnr" v="196856" />
	</node>
<<<<<<< HEAD
	<node lat="64.31704444678505" lon="10.402172229985467" id="-34485">
		<tag k="name" v="Finnmarkstøyten" />
=======
	<node id="-732145" lat="64.3963555585" lon="10.4128972304">
		<tag k="name" v="Vakafallet" />
>>>>>>> e1d4bc35ff8a6074a6f2e91616a996b547c36f15
		<tag k="natural" v="shoal" />
		<tag k="place" v="locality" />
		<tag k="ssr:stedsnr" v="196481" />
	</node>
<<<<<<< HEAD
	<node lat="64.307152778923" lon="10.301083324332463" id="-34488">
		<tag k="name" v="Barkholmtaran" />
		<tag k="natural" v="shoal" />
		<tag k="place" v="locality" />
		<tag k="ssr:stedsnr" v="196504" />
	</node>
	<node lat="64.29186388534677" lon="10.40856111840057" id="-34491">
		<tag k="name" v="Breivika" />
		<tag k="natural" v="bay" />
		<tag k="ssr:stedsnr" v="196531" />
	</node>
	<node lat="64.27756944025565" lon="10.394055562837563" id="-34495">
		<tag k="name" v="Nisneset" />
=======
	<node id="-732133" lat="64.3355861119" lon="10.4143749932">
		<tag k="name" v="Ramsøya" />
		<tag k="place" v="island" />
		<tag k="ssr:stedsnr" v="924470" />
	</node>
	<node id="-732125" lat="64.3581138898" lon="10.4871611087">
		<tag k="name" v="Otertoa" />
>>>>>>> e1d4bc35ff8a6074a6f2e91616a996b547c36f15
		<tag k="natural" v="cape" />
		<tag k="ssr:stedsnr" v="196543" />
	</node>
<<<<<<< HEAD
	<node lat="64.37097222240766" lon="10.545597215402154" id="-34499">
		<tag k="name" v="Storvika" />
=======
	<node id="-732111" lat="64.3286694452" lon="10.3755111199">
		<tag k="name" v="Kroken" />
>>>>>>> e1d4bc35ff8a6074a6f2e91616a996b547c36f15
		<tag k="natural" v="bay" />
		<tag k="ssr:stedsnr" v="196684" />
	</node>
<<<<<<< HEAD
	<node lat="64.37343055490877" lon="10.41223889718387" id="-34500">
		<tag k="fixme" v="consider seamark:type=rock or natural=shoal" />
		<tag k="name" v="Ballskjæret" />
		<tag k="place" v="islet" />
		<tag k="ssr:stedsnr" v="196701" />
	</node>
	<node lat="64.33382499914387" lon="10.266663890138663" id="-34501">
		<tag k="fixme" v="consider seamark:type=rock or natural=shoal" />
		<tag k="name" v="Gåsskjæret" />
		<tag k="place" v="islet" />
		<tag k="ssr:stedsnr" v="196724" />
	</node>
	<node lat="64.33275555842754" lon="10.359780545939037" id="-34502">
		<tag k="name" v="Bølneset" />
=======
	<node id="-732107" lat="64.295941667" lon="10.4649277748">
		<tag k="name" v="Knarrvikneset" />
>>>>>>> e1d4bc35ff8a6074a6f2e91616a996b547c36f15
		<tag k="natural" v="cape" />
		<tag k="ssr:stedsnr" v="196728" />
	</node>
<<<<<<< HEAD
	<node lat="64.42066110987983" lon="10.45704166162776" id="-34504">
		<tag k="fixme" v="consider seamark:type=rock or natural=shoal" />
		<tag k="name" v="Ersboggan" />
		<tag k="place" v="islet" />
		<tag k="ssr:stedsnr" v="196628" />
	</node>
	<node lat="64.40599444094237" lon="10.339127787480495" id="-34505">
		<tag k="name" v="Kårflesleia" />
		<tag k="natural" v="strait" />
		<tag k="ssr:stedsnr" v="196640" />
	</node>
	<node lat="64.4101861157082" lon="10.388538880209545" id="-34506">
		<tag k="fixme" v="consider seamark:type=rock or natural=shoal" />
		<tag k="name" v="Haufatet" />
		<tag k="place" v="islet" />
		<tag k="ssr:stedsnr" v="196645" />
	</node>
	<node lat="64.55303610947239" lon="10.15512499837465" id="-34507">
		<tag k="name" v="Skjervøygrunnen" />
		<tag k="natural" v="shoal" />
		<tag k="place" v="locality" />
		<tag k="ssr:stedsnr" v="207991" />
	</node>
	<node lat="64.32849166881688" lon="10.579302771645223" id="-34508">
		<tag k="alt_name" v="Bekkjavika" />
		<tag k="name" v="Bekkavika" />
		<tag k="natural" v="bay" />
		<tag k="ssr:stedsnr" v="207815" />
	</node>
	<node lat="64.40564721859889" lon="10.331994447036474" id="-34509">
		<tag k="name" v="Ræva" />
=======
	<node id="-732101" lat="64.296413887" lon="10.1838666567">
		<tag k="name" v="Langfallet" />
		<tag k="natural" v="shoal" />
		<tag k="place" v="locality" />
		<tag k="ssr:stedsnr" v="742866" />
	</node>
	<node id="-732100" lat="64.3410277744" lon="10.208619438">
		<tag k="alt_name" v="Einstøingen, s" />
		<tag k="name" v="Søre Einstøingen" />
		<tag k="natural" v="shoal" />
		<tag k="place" v="locality" />
		<tag k="ssr:stedsnr" v="742807" />
	</node>
	<node id="-732099" lat="64.4142638881" lon="10.3140638942">
		<tag k="name" v="Bjørnskallen" />
		<tag k="natural" v="shoal" />
		<tag k="place" v="locality" />
		<tag k="ssr:stedsnr" v="742673" />
	</node>
	<node id="-732083" lat="64.3257111095" lon="10.4266444515">
		<tag k="name" v="Åkervikodden" />
		<tag k="natural" v="cape" />
		<tag k="ssr:stedsnr" v="701457" />
	</node>
	<node id="-732081" lat="64.3992361134" lon="10.5711111184">
		<tag k="name" v="Laksblekkvika" />
		<tag k="natural" v="bay" />
		<tag k="ssr:stedsnr" v="701417" />
	</node>
	<node id="-732080" lat="64.2915694446" lon="10.2915083303">
		<tag k="name" v="Sjetnvika" />
		<tag k="natural" v="bay" />
		<tag k="ssr:stedsnr" v="701517" />
	</node>
	<node id="-732069" lat="64.3371499956" lon="10.4231694445">
		<tag k="name" v="Liaodden" />
		<tag k="natural" v="cape" />
		<tag k="ssr:stedsnr" v="701017" />
	</node>
	<node id="-732067" lat="64.3418833302" lon="10.3168416741">
		<tag k="name" v="Estenskjerfallet" />
>>>>>>> e1d4bc35ff8a6074a6f2e91616a996b547c36f15
		<tag k="natural" v="shoal" />
		<tag k="place" v="locality" />
		<tag k="ssr:stedsnr" v="207977" />
	</node>
<<<<<<< HEAD
	<node lat="64.40436389002878" lon="10.415613891746801" id="-34510">
		<tag k="name" v="Sandholmtaren" />
		<tag k="natural" v="shoal" />
		<tag k="place" v="locality" />
		<tag k="ssr:stedsnr" v="208427" />
	</node>
	<node lat="64.41239722169671" lon="10.446827771055137" id="-34511">
		<tag k="fixme" v="consider seamark:type=rock or natural=shoal" />
		<tag k="name" v="Nesvågfluan" />
		<tag k="place" v="islet" />
		<tag k="ssr:stedsnr" v="208432" />
	</node>
	<node lat="64.32711855436877" lon="10.335429731596696" id="-34512">
=======
	<node id="-732066" lat="64.3581777799" lon="10.3262194456">
		<tag k="name" v="Laksefallet" />
		<tag k="natural" v="shoal" />
		<tag k="place" v="locality" />
		<tag k="ssr:stedsnr" v="694868" />
	</node>
	<node id="-732065" lat="64.2977388929" lon="10.4474361196">
		<tag k="alt_name" v="Straumneset" />
		<tag k="name" v="Straumsneset" />
		<tag k="natural" v="cape" />
		<tag k="ssr:stedsnr" v="694864" />
	</node>
	<node id="-732064" lat="64.3214777806" lon="10.4368222167">
		<tag k="name" v="Strandholmen" />
		<tag k="place" v="islet" />
		<tag k="ssr:stedsnr" v="694917" />
	</node>
	<node id="-732063" lat="64.3327111084" lon="10.2710638954">
		<tag k="name" v="Bolleflua" />
		<tag k="natural" v="shoal" />
		<tag k="place" v="locality" />
		<tag k="ssr:stedsnr" v="693772" />
	</node>
	<node id="-732062" lat="64.3419277788" lon="10.3676666675">
>>>>>>> e1d4bc35ff8a6074a6f2e91616a996b547c36f15
		<tag k="fixme" v="consider seamark:type=rock or natural=shoal" />
		<tag k="name" v="Langskjæret" />
		<tag k="place" v="islet" />
		<tag k="ssr:stedsnr" v="208931" />
	</node>
<<<<<<< HEAD
	<node lat="64.2720222247911" lon="10.44748332460892" id="-34515">
		<tag k="name" v="Kaukarhaugen" />
		<tag k="natural" v="cape" />
		<tag k="ssr:stedsnr" v="215035" />
	</node>
	<node lat="64.26607778088068" lon="10.408938899250176" id="-34517">
		<tag k="name" v="Sellineset" />
		<tag k="natural" v="cape" />
		<tag k="ssr:stedsnr" v="215060" />
	</node>
	<node lat="64.39680277504799" lon="10.498791670478736" id="-34521">
		<tag k="name" v="Stadsvika" />
=======
	<node id="-732055" lat="64.3566638928" lon="10.4948111058">
		<tag k="name" v="Jekta" />
		<tag k="place" v="locality" />
		<tag k="ssr:stedsnr" v="883734" />
	</node>
	<node id="-732045" lat="64.3229500032" lon="10.3585861059">
		<tag k="name" v="Ytter Vikan" />
		<tag k="natural" v="bay" />
		<tag k="ssr:stedsnr" v="883574" />
	</node>
	<node id="-732044" lat="64.2912861137" lon="10.3120805539">
		<tag k="name" v="Inner Hamnneset" />
>>>>>>> e1d4bc35ff8a6074a6f2e91616a996b547c36f15
		<tag k="natural" v="bay" />
		<tag k="ssr:stedsnr" v="215337" />
	</node>
<<<<<<< HEAD
	<node lat="64.3840833343632" lon="10.620780559985656" id="-34523">
		<tag k="name" v="Gangstøa" />
		<tag k="natural" v="bay" />
		<tag k="ssr:stedsnr" v="215358" />
	</node>
	<node lat="64.40048611498068" lon="10.46876111924303" id="-34528">
		<tag k="name" v="Laugavika" />
=======
	<node id="-732043" lat="64.2946305573" lon="10.3085000022">
		<tag k="name" v="Hamneset" />
		<tag k="natural" v="cape" />
		<tag k="ssr:stedsnr" v="883566" />
	</node>
	<node id="-732039" lat="64.3049305572" lon="10.4663722277">
		<tag k="name" v="Sundabukta" />
>>>>>>> e1d4bc35ff8a6074a6f2e91616a996b547c36f15
		<tag k="natural" v="bay" />
		<tag k="ssr:stedsnr" v="215393" />
	</node>
<<<<<<< HEAD
	<node lat="64.29459444719537" lon="10.268594446063796" id="-34532">
		<tag k="name" v="Småholman" />
=======
	<node id="-732038" lat="64.3182250011" lon="10.3788055469">
		<tag k="fixme" v="consider seamark:type=rock or natural=shoal" />
		<tag k="name" v="Sandskjeret" />
>>>>>>> e1d4bc35ff8a6074a6f2e91616a996b547c36f15
		<tag k="place" v="islet" />
		<tag k="ssr:stedsnr" v="215519" />
	</node>
<<<<<<< HEAD
	<node lat="64.28088333147576" lon="10.2726388897299" id="-34545">
		<tag k="name" v="Kjellholmen" />
=======
	<node id="-732028" lat="64.3955333374" lon="10.4839805567">
		<tag k="fixme" v="consider seamark:type=rock or natural=shoal" />
		<tag k="name" v="Sjåskjeret" />
>>>>>>> e1d4bc35ff8a6074a6f2e91616a996b547c36f15
		<tag k="place" v="islet" />
		<tag k="ssr:stedsnr" v="215550" />
	</node>
<<<<<<< HEAD
	<node lat="64.2869722181484" lon="10.302688887800034" id="-34550">
		<tag k="bay" v="fjord" />
		<tag k="name" v="Innerøysjøen" />
=======
	<node id="-732025" lat="64.3448305586" lon="10.4485777799">
		<tag k="alt_name" v="Håmannvika" />
		<tag k="name" v="Håmannsvika" />
>>>>>>> e1d4bc35ff8a6074a6f2e91616a996b547c36f15
		<tag k="natural" v="bay" />
		<tag k="ssr:stedsnr" v="215642" />
	</node>
<<<<<<< HEAD
	<node lat="64.3565722266559" lon="10.470883331563234" id="-34570">
		<tag k="name" v="Skinnbrokneset" />
		<tag k="natural" v="cape" />
		<tag k="ssr:stedsnr" v="276398" />
	</node>
	<node lat="64.41152222066346" lon="10.470919449635904" id="-34576">
		<tag k="name" v="Blåneset" />
		<tag k="natural" v="cape" />
		<tag k="ssr:stedsnr" v="276341" />
	</node>
	<node lat="64.29839444498269" lon="10.30710000373146" id="-34583">
		<tag k="name" v="Saltneset" />
		<tag k="natural" v="cape" />
		<tag k="ssr:stedsnr" v="276528" />
	</node>
	<node lat="64.32507777652755" lon="10.352169435657764" id="-34586">
		<tag k="name" v="Telletomtvika" />
=======
	<node id="-732023" lat="64.3354749998" lon="10.3215027684">
		<tag k="name" v="Kalværet" />
		<tag k="place" v="island" />
		<tag k="ssr:stedsnr" v="681757" />
	</node>
	<node id="-732022" lat="64.38305833" lon="10.2534638928">
		<tag k="name" v="Djupafalla" />
		<tag k="natural" v="shoal" />
		<tag k="place" v="locality" />
		<tag k="ssr:stedsnr" v="681717" />
	</node>
	<node id="-732020" lat="64.3695611142" lon="10.5634833384">
		<tag k="name" v="Botnvika" />
>>>>>>> e1d4bc35ff8a6074a6f2e91616a996b547c36f15
		<tag k="natural" v="bay" />
		<tag k="ssr:stedsnr" v="276544" />
	</node>
<<<<<<< HEAD
	<node lat="64.31925555392621" lon="10.367133331984915" id="-34588">
		<tag k="name" v="Kleppvika" />
=======
	<node id="-732011" lat="64.3194083351" lon="10.3749666686">
		<tag k="name" v="Åkervika" />
>>>>>>> e1d4bc35ff8a6074a6f2e91616a996b547c36f15
		<tag k="natural" v="bay" />
		<tag k="ssr:stedsnr" v="276564" />
	</node>
<<<<<<< HEAD
	<node lat="64.32904722482817" lon="10.439802786957973" id="-34603">
		<tag k="name" v="Sundstranda" />
		<tag k="natural" v="beach" />
		<tag k="ssr:stedsnr" v="276650" />
	</node>
	<node lat="64.29933610836015" lon="10.456566667114403" id="-34618">
		<tag k="name" v="Osstraumen" />
		<tag k="natural" v="strait" />
		<tag k="ssr:stedsnr" v="302998" />
	</node>
	<node lat="64.3279222238505" lon="10.291902776617752" id="-34624">
		<tag k="name" v="Purkholmen" />
=======
	<node id="-732008" lat="64.3348666662" lon="10.344177781">
		<tag k="fixme" v="consider seamark:type=rock or natural=shoal" />
		<tag k="name" v="Midtre Kvalhausen" />
>>>>>>> e1d4bc35ff8a6074a6f2e91616a996b547c36f15
		<tag k="place" v="islet" />
		<tag k="ssr:stedsnr" v="317457" />
	</node>
<<<<<<< HEAD
	<node lat="64.33125000111937" lon="10.282997213716989" id="-34625">
		<tag k="fixme" v="consider seamark:type=rock or natural=shoal" />
		<tag k="name" v="Seiskjæret" />
		<tag k="place" v="islet" />
		<tag k="ssr:stedsnr" v="317458" />
	</node>
	<node lat="64.41167500116853" lon="10.359827772099454" id="-34631">
=======
	<node id="-732005" lat="64.2977361112" lon="10.4890777811">
		<tag k="name" v="Forøya" />
		<tag k="natural" v="cape" />
		<tag k="ssr:stedsnr" v="633903" />
	</node>
	<node id="-732004" lat="64.3364805527" lon="10.3005444426">
>>>>>>> e1d4bc35ff8a6074a6f2e91616a996b547c36f15
		<tag k="fixme" v="consider seamark:type=rock or natural=shoal" />
		<tag k="name" v="Ruglflesa" />
		<tag k="place" v="islet" />
		<tag k="ssr:stedsnr" v="317620" />
	</node>
<<<<<<< HEAD
	<node lat="64.41401944455778" lon="10.397863888057808" id="-34632">
		<tag k="name" v="Kvitholmen" />
		<tag k="place" v="islet" />
		<tag k="ssr:stedsnr" v="317629" />
	</node>
	<node lat="64.34388611166244" lon="10.239302782040916" id="-34635">
		<tag k="name" v="Råstaren" />
		<tag k="natural" v="shoal" />
=======
	<node id="-732002" lat="64.3716805555" lon="10.3386194542">
		<tag k="name" v="Fluskolten" />
>>>>>>> e1d4bc35ff8a6074a6f2e91616a996b547c36f15
		<tag k="place" v="locality" />
		<tag k="ssr:stedsnr" v="317667" />
	</node>
<<<<<<< HEAD
	<node lat="64.34424444870189" lon="10.34117778128203" id="-34639">
		<tag k="fixme" v="consider seamark:type=rock or natural=shoal" />
		<tag k="name" v="Litlnadden" />
		<tag k="place" v="islet" />
		<tag k="ssr:stedsnr" v="317681" />
	</node>
	<node lat="64.46221388622756" lon="10.207622215836903" id="-34640">
		<tag k="name" v="Drangen" />
		<tag k="place" v="islet" />
		<tag k="ssr:stedsnr" v="317763" />
	</node>
	<node lat="64.3312500000108" lon="10.465786111455953" id="-34641">
		<tag k="name" v="Nesaodden" />
		<tag k="natural" v="cape" />
		<tag k="ssr:stedsnr" v="328793" />
	</node>
	<node lat="64.35679167049786" lon="10.23308889414277" id="-34642">
		<tag k="name" v="Raudflua" />
		<tag k="natural" v="shoal" />
=======
	<node id="-731991" lat="64.3900194462" lon="10.4967555566">
		<tag k="name" v="Kalvstranda" />
		<tag k="natural" v="beach" />
>>>>>>> e1d4bc35ff8a6074a6f2e91616a996b547c36f15
		<tag k="place" v="locality" />
		<tag k="ssr:stedsnr" v="329226" />
	</node>
<<<<<<< HEAD
	<node lat="64.3965305541854" lon="10.456613889155873" id="-34643">
		<tag k="alt_name" v="Grasråsskjeret" />
		<tag k="fixme" v="consider seamark:type=rock or natural=shoal" />
		<tag k="name" v="Grasråsskjæret" />
		<tag k="place" v="islet" />
		<tag k="ssr:stedsnr" v="329390" />
	</node>
	<node lat="64.27981666358274" lon="10.268463891147356" id="-34644">
		<tag k="alt_name" v="Kjellholmskjeret" />
		<tag k="fixme" v="consider seamark:type=rock or natural=shoal" />
		<tag k="name" v="Tjeldholmskjæret" />
		<tag k="place" v="islet" />
		<tag k="ssr:stedsnr" v="329727" />
	</node>
	<node lat="64.33047677100606" lon="10.449854966866749" id="-34645">
		<tag k="alt_name" v="Vanvikhammaren" />
		<tag k="name" v="Vanvikodden" />
		<tag k="natural" v="cape" />
		<tag k="ssr:stedsnr" v="329793" />
	</node>
	<node lat="64.42318889074649" lon="10.486972217548411" id="-34646">
		<tag k="name" v="Sneisholmen" />
		<tag k="place" v="islet" />
		<tag k="ssr:stedsnr" v="330146" />
	</node>
	<node lat="64.41361666296108" lon="10.424102768403149" id="-34647">
		<tag k="name" v="Persholmen" />
=======
	<node id="-731989" lat="64.4033388892" lon="10.4639638901">
		<tag k="name" v="Sørholmvalen" />
		<tag k="natural" v="bay" />
		<tag k="ssr:stedsnr" v="579695" />
	</node>
	<node id="-731987" lat="64.3233833307" lon="10.3526472144">
		<tag k="name" v="Kuppelvika" />
		<tag k="natural" v="bay" />
		<tag k="ssr:stedsnr" v="579658" />
	</node>
	<node id="-731986" lat="64.2807555561" lon="10.405208337">
		<tag k="name" v="Breivika" />
		<tag k="natural" v="bay" />
		<tag k="ssr:stedsnr" v="579655" />
	</node>
	<node id="-731984" lat="64.3729277737" lon="10.6263333267">
		<tag k="name" v="Bjørnavika" />
		<tag k="natural" v="bay" />
		<tag k="ssr:stedsnr" v="579339" />
	</node>
	<node id="-731975" lat="64.3295972246" lon="10.3532333291">
		<tag k="name" v="Hamneholmen" />
>>>>>>> e1d4bc35ff8a6074a6f2e91616a996b547c36f15
		<tag k="place" v="islet" />
		<tag k="ssr:stedsnr" v="330437" />
	</node>
<<<<<<< HEAD
	<node lat="64.3222166645963" lon="10.414249995184125" id="-34648">
		<tag k="name" v="Dalflua" />
=======
	<node id="-731974" lat="64.3617249994" lon="10.3029805508">
		<tag k="name" v="Djupseitaren" />
>>>>>>> e1d4bc35ff8a6074a6f2e91616a996b547c36f15
		<tag k="natural" v="shoal" />
		<tag k="place" v="locality" />
		<tag k="ssr:stedsnr" v="330879" />
	</node>
<<<<<<< HEAD
	<node lat="64.39943610990277" lon="10.463069441104615" id="-34660">
		<tag k="name" v="Hansineholmen" />
		<tag k="place" v="islet" />
		<tag k="ssr:stedsnr" v="336631" />
	</node>
	<node lat="64.39683888916578" lon="10.481358338324567" id="-34661">
		<tag k="name" v="Korsvika" />
=======
	<node id="-731973" lat="64.3291388874" lon="10.2543444497">
		<tag k="name" v="Stompen" />
		<tag k="natural" v="shoal" />
		<tag k="place" v="locality" />
		<tag k="ssr:stedsnr" v="572264" />
	</node>
	<node id="-731972" lat="64.3335888906" lon="10.4312166614">
		<tag k="alt_name" v="Hallen" />
		<tag k="name" v="Ramsøyhallen" />
>>>>>>> e1d4bc35ff8a6074a6f2e91616a996b547c36f15
		<tag k="natural" v="bay" />
		<tag k="ssr:stedsnr" v="336641" />
	</node>
<<<<<<< HEAD
	<node lat="64.34578055728834" lon="10.621108339123031" id="-34668">
		<tag k="name" v="Sandvikodden" />
		<tag k="natural" v="cape" />
		<tag k="ssr:stedsnr" v="337301" />
	</node>
	<node lat="64.4040916647521" lon="10.45923055470667" id="-34672">
		<tag k="name" v="Sørholmen" />
		<tag k="natural" v="cape" />
		<tag k="ssr:stedsnr" v="337340" />
	</node>
	<node lat="64.29310833066216" lon="10.284730552899266" id="-34683">
		<tag k="name" v="Sjåneset" />
		<tag k="natural" v="cape" />
		<tag k="ssr:stedsnr" v="337470" />
	</node>
	<node lat="64.34177500378702" lon="10.400050005059322" id="-34688">
		<tag k="name" v="Nord Bjørnsvikneset" />
		<tag k="natural" v="cape" />
		<tag k="ssr:stedsnr" v="337591" />
	</node>
	<node lat="64.42292499575622" lon="10.410630559231922" id="-34705">
		<tag k="fixme" v="consider seamark:type=rock or natural=shoal" />
		<tag k="name" v="Grønnskjæret" />
=======
	<node id="-731969" lat="64.3090527803" lon="10.1670833324">
		<tag k="name" v="Hystaren" />
		<tag k="natural" v="shoal" />
		<tag k="place" v="locality" />
		<tag k="ssr:stedsnr" v="559861" />
	</node>
	<node id="-731968" lat="64.3134305573" lon="10.1850111161">
		<tag k="name" v="Revlgrunnen" />
		<tag k="natural" v="shoal" />
		<tag k="place" v="locality" />
		<tag k="ssr:stedsnr" v="559858" />
	</node>
	<node id="-731966" lat="64.3320055555" lon="10.4728611116">
		<tag k="alt_name" v="Høvika" />
		<tag k="name" v="Høyvika" />
		<tag k="natural" v="bay" />
		<tag k="ssr:stedsnr" v="559492" />
	</node>
	<node id="-731961" lat="64.3332138885" lon="10.248797218">
		<tag k="name" v="Storfallet" />
		<tag k="natural" v="shoal" />
		<tag k="place" v="locality" />
		<tag k="ssr:stedsnr" v="559513" />
	</node>
	<node id="-731960" lat="64.3274930518" lon="10.3367436731">
		<tag k="name" v="Aunkleppen" />
>>>>>>> e1d4bc35ff8a6074a6f2e91616a996b547c36f15
		<tag k="place" v="islet" />
		<tag k="ssr:stedsnr" v="377656" />
	</node>
	<node lat="64.42495833188418" lon="10.424938896119603" id="-34706">
		<tag k="fixme" v="consider seamark:type=rock or natural=shoal" />
		<tag k="name" v="Hundholskjæret" />
		<tag k="place" v="islet" />
		<tag k="ssr:stedsnr" v="377657" />
	</node>
	<node lat="64.42318888655755" lon="10.336499999281669" id="-34707">
		<tag k="alt_name" v="Revlungskallen" />
		<tag k="name" v="Revlingskallen" />
		<tag k="natural" v="shoal" />
		<tag k="place" v="locality" />
		<tag k="ssr:stedsnr" v="377658" />
	</node>
<<<<<<< HEAD
	<node lat="64.34882777891603" lon="10.525180550584809" id="-34709">
		<tag k="bay" v="fjord" />
		<tag k="name" v="Vingan" />
=======
	<node id="-731946" lat="64.3936527773" lon="10.4862555597">
		<tag k="name" v="Leira" />
>>>>>>> e1d4bc35ff8a6074a6f2e91616a996b547c36f15
		<tag k="natural" v="bay" />
		<tag k="ssr:stedsnr" v="377703" />
	</node>
<<<<<<< HEAD
	<node lat="64.269433334961" lon="10.406633324535056" id="-34715">
		<tag k="name" v="Nesaøra" />
=======
	<node id="-731942" lat="64.2863611131" lon="10.4551055522">
		<tag k="name" v="Jevikodden" />
>>>>>>> e1d4bc35ff8a6074a6f2e91616a996b547c36f15
		<tag k="natural" v="cape" />
		<tag k="ssr:stedsnr" v="378635" />
	</node>
<<<<<<< HEAD
	<node lat="64.33572499717299" lon="10.199463889091465" id="-34719">
		<tag k="name" v="Storgrunnstaren" />
=======
	<node id="-731933" lat="64.3471333294" lon="10.4693749899">
		<tag k="name" v="Klungeren" />
>>>>>>> e1d4bc35ff8a6074a6f2e91616a996b547c36f15
		<tag k="natural" v="shoal" />
		<tag k="place" v="locality" />
		<tag k="ssr:stedsnr" v="378855" />
	</node>
<<<<<<< HEAD
	<node lat="64.32725277823019" lon="10.179419438899084" id="-34720">
		<tag k="name" v="Bakkbåleia" />
		<tag k="natural" v="strait" />
		<tag k="ssr:stedsnr" v="378859" />
	</node>
	<node lat="64.29899444763737" lon="10.454916674382835" id="-34721">
		<tag k="name" v="Straumholet" />
=======
	<node id="-731928" lat="64.3678972243" lon="10.3312250049">
		<tag k="name" v="Jøfalla" />
		<tag k="natural" v="shoal" />
		<tag k="place" v="locality" />
		<tag k="ssr:stedsnr" v="694887" />
	</node>
	<node id="-731927" lat="64.4184111099" lon="10.357358342">
		<tag k="name" v="Haufatleia" />
>>>>>>> e1d4bc35ff8a6074a6f2e91616a996b547c36f15
		<tag k="natural" v="strait" />
		<tag k="ssr:stedsnr" v="385551" />
	</node>
<<<<<<< HEAD
	<node lat="64.40561666285141" lon="10.466183329797229" id="-34722">
		<tag k="name" v="Nesvågen" />
=======
	<node id="-731926" lat="64.2554861139" lon="10.4132722205">
		<tag k="name" v="Storengbukta" />
>>>>>>> e1d4bc35ff8a6074a6f2e91616a996b547c36f15
		<tag k="natural" v="bay" />
		<tag k="ssr:stedsnr" v="389435" />
	</node>
<<<<<<< HEAD
	<node lat="64.35832499864128" lon="10.382194439724564" id="-34723">
		<tag k="name" v="Famulus" />
=======
	<node id="-731925" lat="64.3237444414" lon="10.2595805486">
		<tag k="name" v="Krabben" />
>>>>>>> e1d4bc35ff8a6074a6f2e91616a996b547c36f15
		<tag k="natural" v="shoal" />
		<tag k="place" v="locality" />
		<tag k="ssr:stedsnr" v="390861" />
	</node>
<<<<<<< HEAD
	<node lat="64.3873805549852" lon="10.289099998330428" id="-34724">
		<tag k="name" v="Raudøyleia" />
		<tag k="natural" v="strait" />
		<tag k="ssr:stedsnr" v="390870" />
	</node>
	<node lat="64.27738055800081" lon="10.40065555263049" id="-34728">
		<tag k="name" v="Langstranda" />
		<tag k="natural" v="beach" />
		<tag k="ssr:stedsnr" v="397017" />
	</node>
	<node lat="64.40725833526558" lon="10.463677770859935" id="-34729">
		<tag k="name" v="Nordholmen" />
		<tag k="natural" v="cape" />
		<tag k="ssr:stedsnr" v="397314" />
	</node>
	<node lat="64.34058055304321" lon="10.399524990667507" id="-34733">
		<tag k="name" v="Bjørnsvika" />
		<tag k="natural" v="bay" />
		<tag k="ssr:stedsnr" v="397504" />
	</node>
	<node lat="64.34399166831815" lon="10.501619446988837" id="-34735">
		<tag k="name" v="Hammaren" />
		<tag k="natural" v="cape" />
		<tag k="ssr:stedsnr" v="397345" />
	</node>
	<node lat="64.35285000312389" lon="10.466216665259182" id="-34741">
		<tag k="name" v="Aunholmen" />
		<tag k="place" v="islet" />
		<tag k="ssr:stedsnr" v="397376" />
	</node>
	<node lat="64.28299444322899" lon="10.273677775479268" id="-34755">
		<tag k="name" v="Torvholmen" />
		<tag k="place" v="islet" />
		<tag k="ssr:stedsnr" v="397513" />
	</node>
	<node lat="64.39532222052138" lon="10.404505550133594" id="-34764">
		<tag k="name" v="Jarhattan" />
=======
	<node id="-731923" lat="64.3949361085" lon="10.4830777758">
		<tag k="name" v="Setervågen" />
		<tag k="natural" v="bay" />
		<tag k="ssr:stedsnr" v="693417" />
	</node>
	<node id="-731922" lat="64.3606444479" lon="10.4277000017">
		<tag k="name" v="Takflua" />
		<tag k="natural" v="shoal" />
		<tag k="place" v="locality" />
		<tag k="ssr:stedsnr" v="692281" />
	</node>
	<node id="-731921" lat="64.3772916645" lon="10.5751944494">
		<tag k="name" v="Drageidtaren" />
		<tag k="place" v="locality" />
		<tag k="seamark:type" v="rock" />
		<tag k="ssr:stedsnr" v="688406" />
	</node>
	<node id="-731920" lat="64.344311107" lon="10.4174444394">
		<tag k="name" v="Skokkeløyan" />
		<tag k="place" v="island" />
		<tag k="ssr:stedsnr" v="688026" />
	</node>
	<node id="-731916" lat="64.3252694429" lon="10.1464805595">
		<tag k="name" v="Rauden" />
		<tag k="natural" v="shoal" />
		<tag k="place" v="locality" />
		<tag k="ssr:stedsnr" v="681836" />
	</node>
	<node id="-731915" lat="64.342044446" lon="10.187466658">
		<tag k="alt_name" v="Mostertaran, nordre" />
		<tag k="name" v="Nordre Mostertaran" />
		<tag k="natural" v="shoal" />
		<tag k="place" v="locality" />
		<tag k="ssr:stedsnr" v="681834" />
	</node>
	<node id="-731914" lat="64.4170611082" lon="9.812974996">
		<tag k="name" v="Yttergrunnen" />
		<tag k="natural" v="shoal" />
		<tag k="place" v="locality" />
		<tag k="ssr:stedsnr" v="681827" />
	</node>
	<node id="-731913" lat="64.4663611142" lon="10.2009611132">
		<tag k="name" v="Kytaren" />
>>>>>>> e1d4bc35ff8a6074a6f2e91616a996b547c36f15
		<tag k="natural" v="shoal" />
		<tag k="place" v="locality" />
		<tag k="ssr:stedsnr" v="439698" />
	</node>
<<<<<<< HEAD
	<node lat="64.26819444390773" lon="10.402749992112298" id="-34768">
		<tag k="bay" v="fjord" />
		<tag k="name" v="Sørjerfjorden" />
		<tag k="natural" v="bay" />
		<tag k="ssr:stedsnr" v="438623" />
	</node>
	<node lat="64.34011388972446" lon="10.32083610331141" id="-34772">
		<tag k="fixme" v="consider seamark:type=rock or natural=shoal" />
		<tag k="name" v="Estenskjæret" />
		<tag k="place" v="islet" />
		<tag k="ssr:stedsnr" v="438739" />
	</node>
	<node lat="64.33453611037397" lon="10.277686115836024" id="-34773">
		<tag k="fixme" v="consider seamark:type=rock or natural=shoal" />
		<tag k="name" v="Grønnskjæret" />
=======
	<node id="-731911" lat="64.3058611116" lon="10.1755500087">
		<tag k="name" v="Litletaren" />
		<tag k="natural" v="shoal" />
		<tag k="place" v="locality" />
		<tag k="ssr:stedsnr" v="681877" />
	</node>
	<node id="-731910" lat="64.3768361127" lon="10.2960027878">
		<tag k="name" v="Torshevillen" />
		<tag k="natural" v="shoal" />
		<tag k="place" v="locality" />
		<tag k="ssr:stedsnr" v="681725" />
	</node>
	<node id="-731908" lat="64.3954166706" lon="10.4636666636">
		<tag k="name" v="Singsholmen" />
>>>>>>> e1d4bc35ff8a6074a6f2e91616a996b547c36f15
		<tag k="place" v="islet" />
		<tag k="ssr:stedsnr" v="438741" />
	</node>
<<<<<<< HEAD
	<node lat="64.2904527739661" lon="10.253474994226291" id="-34777">
		<tag k="name" v="Måøya" />
=======
	<node id="-731901" lat="64.2841916672" lon="10.3920749901">
		<tag k="name" v="Jarnholmen" />
>>>>>>> e1d4bc35ff8a6074a6f2e91616a996b547c36f15
		<tag k="place" v="islet" />
		<tag k="ssr:stedsnr" v="439553" />
	</node>
<<<<<<< HEAD
	<node lat="64.29059722580345" lon="10.490841668674879" id="-34778">
		<tag k="name" v="Svinvika" />
		<tag k="natural" v="bay" />
		<tag k="ssr:stedsnr" v="439557" />
	</node>
	<node lat="64.38690555178133" lon="10.453158333303065" id="-34783">
		<tag k="name" v="Sørlåven" />
=======
	<node id="-731895" lat="64.315986113" lon="10.2206750069">
		<tag k="alt_name" v="Revlan" />
		<tag k="name" v="Revlen" />
>>>>>>> e1d4bc35ff8a6074a6f2e91616a996b547c36f15
		<tag k="natural" v="shoal" />
		<tag k="place" v="locality" />
		<tag k="ssr:stedsnr" v="439689" />
	</node>
<<<<<<< HEAD
	<node lat="64.29348611481846" lon="10.207444448210548" id="-34784">
		<tag k="name" v="Flesaskjækan" />
		<tag k="place" v="islet" />
		<tag k="ssr:stedsnr" v="439883" />
	</node>
	<node lat="64.36230833297395" lon="10.47868888343129" id="-34789">
=======
	<node id="-731894" lat="64.3401694468" lon="10.3753194531">
		<tag k="name" v="Nord Vedøya" />
		<tag k="place" v="islet" />
		<tag k="ssr:stedsnr" v="681498" />
	</node>
	<node id="-731890" lat="64.3705000021" lon="10.4411833294">
		<tag k="alt_name" v="Raudøya, nordre" />
		<tag k="name" v="Nordre Raudøya" />
		<tag k="place" v="island" />
		<tag k="ssr:stedsnr" v="499665" />
	</node>
	<node id="-731889" lat="64.362308333" lon="10.4786888834">
>>>>>>> e1d4bc35ff8a6074a6f2e91616a996b547c36f15
		<tag k="name" v="Vingholmen" />
		<tag k="place" v="islet" />
		<tag k="ssr:stedsnr" v="499657" />
	</node>
<<<<<<< HEAD
	<node lat="64.37050000210083" lon="10.44118332943554" id="-34790">
		<tag k="alt_name" v="Raudøya, nordre" />
		<tag k="name" v="Nordre Raudøya" />
		<tag k="place" v="island" />
		<tag k="ssr:stedsnr" v="499665" />
	</node>
	<node lat="64.34357777697585" lon="10.527891674966696" id="-34796">
		<tag k="name" v="Hanodden" />
=======
	<node id="-731883" lat="64.2942777792" lon="10.2471999939">
		<tag k="name" v="Ytterøyværet" />
		<tag k="place" v="islet" />
		<tag k="ssr:stedsnr" v="499506" />
	</node>
	<node id="-731881" lat="64.2978388924" lon="10.4326361078">
		<tag k="name" v="Staurneset" />
>>>>>>> e1d4bc35ff8a6074a6f2e91616a996b547c36f15
		<tag k="natural" v="cape" />
		<tag k="ssr:stedsnr" v="510844" />
	</node>
<<<<<<< HEAD
	<node lat="64.30701666504042" lon="10.4531888975166" id="-34800">
=======
	<node id="-731880" lat="64.307016665" lon="10.4531888975">
>>>>>>> e1d4bc35ff8a6074a6f2e91616a996b547c36f15
		<tag k="name" v="Skarvsteinøra" />
		<tag k="natural" v="cape" />
		<tag k="ssr:stedsnr" v="499479" />
	</node>
<<<<<<< HEAD
	<node lat="64.34161666877353" lon="10.39594999372193" id="-34804">
		<tag k="name" v="Hestholmsundet" />
		<tag k="natural" v="strait" />
		<tag k="ssr:stedsnr" v="509955" />
	</node>
	<node lat="64.3979305561941" lon="10.329877783534448" id="-34805">
		<tag k="name" v="Vestre Synnflesskolten" />
		<tag k="natural" v="shoal" />
		<tag k="place" v="locality" />
		<tag k="ssr:stedsnr" v="510976" />
	</node>
	<node lat="64.30065833562925" lon="10.321986115459524" id="-34807">
		<tag k="name" v="Aunøygrunnen" />
		<tag k="natural" v="shoal" />
		<tag k="place" v="locality" />
		<tag k="ssr:stedsnr" v="511729" />
	</node>
	<node lat="64.3222611118431" lon="10.301011105310005" id="-34808">
		<tag k="bay" v="fjord" />
		<tag k="name" v="Buarøyfjorden" />
=======
	<node id="-731872" lat="64.4228861151" lon="10.3665305641">
		<tag k="name" v="Barleia" />
		<tag k="natural" v="strait" />
		<tag k="ssr:stedsnr" v="451419" />
	</node>
	<node id="-731871" lat="64.2934861148" lon="10.2074444482">
		<tag k="name" v="Flesaskjækan" />
		<tag k="place" v="islet" />
		<tag k="ssr:stedsnr" v="439883" />
	</node>
	<node id="-731868" lat="64.3213166633" lon="10.370083332">
		<tag k="name" v="Vågen" />
		<tag k="natural" v="bay" />
		<tag k="ssr:stedsnr" v="519484" />
	</node>
	<node id="-731866" lat="64.2927083357" lon="10.3099333416">
		<tag k="name" v="Hamnan" />
		<tag k="natural" v="bay" />
		<tag k="ssr:stedsnr" v="519471" />
	</node>
	<node id="-731853" lat="64.4002777816" lon="10.4571499933">
		<tag k="name" v="Litlsønnaholmen" />
		<tag k="place" v="islet" />
		<tag k="ssr:stedsnr" v="519338" />
	</node>
	<node id="-731844" lat="64.3273527751" lon="10.5742749924">
		<tag k="name" v="Månskjennsholet" />
		<tag k="natural" v="bay" />
		<tag k="ssr:stedsnr" v="519060" />
	</node>
	<node id="-731840" lat="64.2874444404" lon="10.404669446">
		<tag k="name" v="Øksenvika" />
		<tag k="natural" v="bay" />
		<tag k="ssr:stedsnr" v="519005" />
	</node>
	<node id="-731839" lat="64.3177000038" lon="10.3687250046">
		<tag k="name" v="Oterstokken" />
>>>>>>> e1d4bc35ff8a6074a6f2e91616a996b547c36f15
		<tag k="natural" v="bay" />
		<tag k="ssr:stedsnr" v="511773" />
	</node>
<<<<<<< HEAD
	<node lat="64.29323889158557" lon="10.495138886251276" id="-34809">
		<tag k="name" v="Svinvikodden" />
		<tag k="natural" v="cape" />
		<tag k="ssr:stedsnr" v="511796" />
	</node>
	<node lat="64.36834166923083" lon="10.305675006613058" id="-34810">
=======
	<node id="-731830" lat="64.4000638932" lon="10.5277111182">
		<tag k="name" v="Mellomneset" />
		<tag k="natural" v="cape" />
		<tag k="ssr:stedsnr" v="518623" />
	</node>
	<node id="-731829" lat="64.3299055537" lon="10.5800305464">
		<tag k="name" v="Drossavika" />
		<tag k="natural" v="bay" />
		<tag k="ssr:stedsnr" v="518617" />
	</node>
	<node id="-731823" lat="64.3683416692" lon="10.3056750066">
>>>>>>> e1d4bc35ff8a6074a6f2e91616a996b547c36f15
		<tag k="name" v="Indre Haraflesskolten" />
		<tag k="natural" v="shoal" />
		<tag k="place" v="locality" />
		<tag k="ssr:stedsnr" v="512896" />
	</node>
<<<<<<< HEAD
	<node lat="64.32131666328262" lon="10.370083332041245" id="-34822">
		<tag k="name" v="Vågen" />
		<tag k="natural" v="bay" />
		<tag k="ssr:stedsnr" v="519484" />
	</node>
	<node lat="64.40027778156569" lon="10.457149993274344" id="-34824">
		<tag k="name" v="Litlsønnaholmen" />
		<tag k="place" v="islet" />
		<tag k="ssr:stedsnr" v="519338" />
	</node>
	<node lat="64.29716944670382" lon="10.272147223365305" id="-34832">
		<tag k="name" v="Langfaldraget" />
=======
	<node id="-731822" lat="64.2932388916" lon="10.4951388863">
		<tag k="name" v="Svinvikodden" />
>>>>>>> e1d4bc35ff8a6074a6f2e91616a996b547c36f15
		<tag k="natural" v="cape" />
		<tag k="ssr:stedsnr" v="519631" />
	</node>
<<<<<<< HEAD
	<node lat="64.29243611212081" lon="10.47757777324405" id="-34833">
		<tag k="name" v="Pervika" />
=======
	<node id="-731821" lat="64.3222611118" lon="10.3010111053">
		<tag k="bay" v="fjord" />
		<tag k="name" v="Buarøyfjorden" />
>>>>>>> e1d4bc35ff8a6074a6f2e91616a996b547c36f15
		<tag k="natural" v="bay" />
		<tag k="ssr:stedsnr" v="519582" />
	</node>
<<<<<<< HEAD
	<node lat="64.3593305565314" lon="10.590124998390705" id="-34848">
		<tag k="name" v="Skogavika" />
		<tag k="natural" v="bay" />
		<tag k="ssr:stedsnr" v="559725" />
	</node>
	<node lat="64.35084166816888" lon="10.313458338795757" id="-34849">
		<tag k="name" v="Garren" />
=======
	<node id="-731820" lat="64.3006583356" lon="10.3219861155">
		<tag k="name" v="Aunøygrunnen" />
>>>>>>> e1d4bc35ff8a6074a6f2e91616a996b547c36f15
		<tag k="natural" v="shoal" />
		<tag k="place" v="locality" />
		<tag k="ssr:stedsnr" v="559728" />
	</node>
<<<<<<< HEAD
	<node lat="64.31343055730453" lon="10.18501111610507" id="-34852">
		<tag k="name" v="Revlgrunnen" />
=======
	<node id="-731819" lat="64.4321972186" lon="10.3496083269">
		<tag k="name" v="Hovollgrunnen" />
>>>>>>> e1d4bc35ff8a6074a6f2e91616a996b547c36f15
		<tag k="natural" v="shoal" />
		<tag k="place" v="locality" />
		<tag k="ssr:stedsnr" v="559858" />
	</node>
<<<<<<< HEAD
	<node lat="64.30905278034774" lon="10.167083332369083" id="-34853">
		<tag k="name" v="Hystaren" />
		<tag k="natural" v="shoal" />
		<tag k="place" v="locality" />
		<tag k="ssr:stedsnr" v="559861" />
	</node>
	<node lat="64.3777305562139" lon="10.533758332409871" id="-34861">
		<tag k="name" v="Botnvikgrunnen" />
=======
	<node id="-731817" lat="64.3979305562" lon="10.3298777835">
		<tag k="name" v="Vestre Synnflesskolten" />
		<tag k="natural" v="shoal" />
		<tag k="place" v="locality" />
		<tag k="ssr:stedsnr" v="510976" />
	</node>
	<node id="-731816" lat="64.343577777" lon="10.527891675">
		<tag k="name" v="Hanodden" />
		<tag k="natural" v="cape" />
		<tag k="ssr:stedsnr" v="510844" />
	</node>
	<node id="-731815" lat="64.3263111139" lon="10.4120999917">
		<tag k="alt_name" v="Fiskeholmen" />
		<tag k="name" v="Fiskholmen" />
		<tag k="place" v="islet" />
		<tag k="ssr:stedsnr" v="509957" />
	</node>
	<node id="-731814" lat="64.3306499963" lon="10.401480553">
		<tag k="name" v="Storneset" />
		<tag k="natural" v="cape" />
		<tag k="ssr:stedsnr" v="509956" />
	</node>
	<node id="-731813" lat="64.3416166688" lon="10.3959499937">
		<tag k="name" v="Hestholmsundet" />
		<tag k="natural" v="strait" />
		<tag k="ssr:stedsnr" v="509955" />
	</node>
	<node id="-731808" lat="64.3439916683" lon="10.501619447">
		<tag k="name" v="Hammaren" />
		<tag k="natural" v="cape" />
		<tag k="ssr:stedsnr" v="397345" />
	</node>
	<node id="-731807" lat="64.4072583353" lon="10.4636777709">
		<tag k="name" v="Nordholmen" />
		<tag k="natural" v="cape" />
		<tag k="ssr:stedsnr" v="397314" />
	</node>
	<node id="-731806" lat="64.387380555" lon="10.2890999983">
		<tag k="name" v="Raudøyleia" />
		<tag k="natural" v="strait" />
		<tag k="ssr:stedsnr" v="390870" />
	</node>
	<node id="-731805" lat="64.3583249986" lon="10.3821944397">
		<tag k="name" v="Famulus" />
>>>>>>> e1d4bc35ff8a6074a6f2e91616a996b547c36f15
		<tag k="natural" v="shoal" />
		<tag k="place" v="locality" />
		<tag k="ssr:stedsnr" v="566392" />
	</node>
	<node lat="64.32896111090271" lon="10.413849997535607" id="-34863">
		<tag k="name" v="Ramsøyvika" />
		<tag k="natural" v="bay" />
		<tag k="ssr:stedsnr" v="570955" />
	</node>
<<<<<<< HEAD
	<node lat="64.33913611174061" lon="10.29154165987367" id="-34864">
		<tag k="name" v="Ånskjerfluan" />
=======
	<node id="-731803" lat="64.3379500042" lon="10.1774777812">
		<tag k="alt_name" v="Mostertaran, s" />
		<tag k="name" v="Søre Mostertaran" />
>>>>>>> e1d4bc35ff8a6074a6f2e91616a996b547c36f15
		<tag k="natural" v="shoal" />
		<tag k="place" v="locality" />
		<tag k="ssr:stedsnr" v="571769" />
	</node>
<<<<<<< HEAD
	<node lat="64.36172499937898" lon="10.302980550773738" id="-34865">
		<tag k="name" v="Djupseitaren" />
=======
	<node id="-731802" lat="64.4627027805" lon="10.1929222206">
		<tag k="name" v="Vestertaren" />
>>>>>>> e1d4bc35ff8a6074a6f2e91616a996b547c36f15
		<tag k="natural" v="shoal" />
		<tag k="place" v="locality" />
		<tag k="ssr:stedsnr" v="572884" />
	</node>
<<<<<<< HEAD
	<node lat="64.37292777367458" lon="10.626333326689615" id="-34866">
		<tag k="name" v="Bjørnavika" />
		<tag k="natural" v="bay" />
		<tag k="ssr:stedsnr" v="579339" />
	</node>
	<node lat="64.3266861150818" lon="10.38269165960935" id="-34870">
		<tag k="name" v="Jektvika" />
		<tag k="natural" v="bay" />
		<tag k="ssr:stedsnr" v="579017" />
	</node>
	<node lat="64.2958833296861" lon="10.438055557187832" id="-34874">
		<tag k="name" v="Kvalvika" />
		<tag k="natural" v="bay" />
		<tag k="ssr:stedsnr" v="579035" />
	</node>
	<node lat="64.32338333074333" lon="10.352647214430087" id="-34884">
		<tag k="name" v="Kuppelvika" />
		<tag k="natural" v="bay" />
		<tag k="ssr:stedsnr" v="579658" />
	</node>
	<node lat="64.33810833437948" lon="10.562941657527336" id="-34909">
		<tag k="name" v="Langstranda" />
		<tag k="natural" v="beach" />
		<tag k="ssr:stedsnr" v="620486" />
	</node>
	<node lat="64.29258610792563" lon="10.229641668544419" id="-34917">
=======
	<node id="-731800" lat="64.4001083331" lon="10.3410388949">
		<tag k="fixme" v="consider seamark:type=rock or natural=shoal" />
		<tag k="name" v="Synnflesa" />
		<tag k="place" v="islet" />
		<tag k="ssr:stedsnr" v="499643" />
	</node>
	<node id="-731799" lat="64.3888055531" lon="10.3828138834">
		<tag k="name" v="Mefallbogen" />
		<tag k="natural" v="shoal" />
		<tag k="place" v="locality" />
		<tag k="ssr:stedsnr" v="499635" />
	</node>
	<node id="-731793" lat="64.3421277823" lon="10.3420277753">
		<tag k="alt_name" v="Nadden" />
>>>>>>> e1d4bc35ff8a6074a6f2e91616a996b547c36f15
		<tag k="fixme" v="consider seamark:type=rock or natural=shoal" />
		<tag k="name" v="Langdraget" />
		<tag k="place" v="islet" />
		<tag k="ssr:stedsnr" v="620542" />
	</node>
<<<<<<< HEAD
	<node lat="64.28958332952178" lon="10.374330553015408" id="-34918">
		<tag k="fixme" v="consider seamark:type=rock or natural=shoal" />
		<tag k="name" v="Skjærbaken" />
		<tag k="place" v="islet" />
		<tag k="ssr:stedsnr" v="620545" />
	</node>
	<node lat="64.29395555895805" lon="10.465024991437248" id="-34920">
		<tag k="name" v="Knarrvika" />
		<tag k="natural" v="bay" />
		<tag k="ssr:stedsnr" v="620550" />
	</node>
	<node lat="64.42438888676838" lon="10.381180557743173" id="-34924">
=======
	<node id="-731788" lat="64.3257208653" lon="10.2861178785">
		<tag k="name" v="Buarøya" />
		<tag k="place" v="island" />
		<tag k="ssr:stedsnr" v="499435" />
	</node>
	<node id="-731772" lat="64.2931083307" lon="10.2847305529">
		<tag k="name" v="Sjåneset" />
		<tag k="natural" v="cape" />
		<tag k="ssr:stedsnr" v="337470" />
	</node>
	<node id="-731765" lat="64.2798166636" lon="10.2684638911">
		<tag k="alt_name" v="Kjellholmskjeret" />
>>>>>>> e1d4bc35ff8a6074a6f2e91616a996b547c36f15
		<tag k="fixme" v="consider seamark:type=rock or natural=shoal" />
		<tag k="name" v="Svartflesa" />
		<tag k="place" v="islet" />
		<tag k="ssr:stedsnr" v="620627" />
	</node>
<<<<<<< HEAD
	<node lat="64.4062111115091" lon="10.371963896407186" id="-34925">
		<tag k="name" v="Flotra" />
		<tag k="place" v="islet" />
		<tag k="ssr:stedsnr" v="620651" />
	</node>
	<node lat="64.41925555728358" lon="10.423602769783674" id="-34926">
		<tag k="fixme" v="consider seamark:type=rock or natural=shoal" />
		<tag k="name" v="Tennskjæret" />
		<tag k="place" v="islet" />
		<tag k="ssr:stedsnr" v="620657" />
	</node>
	<node lat="64.3636916633558" lon="10.62862499186011" id="-34927">
		<tag k="name" v="Holandsvika" />
		<tag k="natural" v="bay" />
		<tag k="ssr:stedsnr" v="620709" />
	</node>
	<node lat="64.3843111145604" lon="10.608986102316802" id="-34928">
		<tag k="name" v="Drageidneset" />
		<tag k="natural" v="cape" />
		<tag k="ssr:stedsnr" v="620666" />
	</node>
	<node lat="64.3364805527377" lon="10.300544442607505" id="-34932">
=======
	<node id="-731764" lat="64.3130111114" lon="10.2404805473">
		<tag k="name" v="Litletaren" />
		<tag k="natural" v="shoal" />
		<tag k="place" v="locality" />
		<tag k="ssr:stedsnr" v="329724" />
	</node>
	<node id="-731763" lat="64.3732055598" lon="10.2364777718">
		<tag k="name" v="Monsen" />
		<tag k="natural" v="shoal" />
		<tag k="place" v="locality" />
		<tag k="ssr:stedsnr" v="329715" />
	</node>
	<node id="-731762" lat="64.3567916705" lon="10.2330888941">
		<tag k="name" v="Raudflua" />
		<tag k="natural" v="shoal" />
		<tag k="place" v="locality" />
		<tag k="ssr:stedsnr" v="329226" />
	</node>
	<node id="-731761" lat="64.2971694467" lon="10.2721472234">
		<tag k="name" v="Langfaldraget" />
		<tag k="natural" v="cape" />
		<tag k="ssr:stedsnr" v="519631" />
	</node>
	<node id="-731754" lat="64.3438861117" lon="10.239302782">
		<tag k="name" v="Råstaren" />
		<tag k="natural" v="shoal" />
		<tag k="place" v="locality" />
		<tag k="ssr:stedsnr" v="317667" />
	</node>
	<node id="-731751" lat="64.4116750012" lon="10.3598277721">
>>>>>>> e1d4bc35ff8a6074a6f2e91616a996b547c36f15
		<tag k="fixme" v="consider seamark:type=rock or natural=shoal" />
		<tag k="name" v="Kingsa" />
		<tag k="place" v="islet" />
		<tag k="ssr:stedsnr" v="632773" />
	</node>
<<<<<<< HEAD
	<node lat="64.42853055768933" lon="10.42711944567378" id="-34933">
=======
	<node id="-731749" lat="64.3007138911" lon="10.2659083341">
>>>>>>> e1d4bc35ff8a6074a6f2e91616a996b547c36f15
		<tag k="fixme" v="consider seamark:type=rock or natural=shoal" />
		<tag k="name" v="Knausen" />
		<tag k="place" v="islet" />
		<tag k="ssr:stedsnr" v="633146" />
	</node>
<<<<<<< HEAD
	<node lat="64.2977361112229" lon="10.489077781120512" id="-34934">
		<tag k="name" v="Forøya" />
		<tag k="natural" v="cape" />
		<tag k="ssr:stedsnr" v="633903" />
	</node>
	<node lat="64.32807778210785" lon="10.448063895131247" id="-34943">
		<tag k="name" v="Sandvika" />
=======
	<node id="-731748" lat="64.3041777813" lon="10.2698305549">
		<tag k="fixme" v="consider seamark:type=rock or natural=shoal" />
		<tag k="name" v="Ramfluskjæret" />
		<tag k="place" v="islet" />
		<tag k="ssr:stedsnr" v="317505" />
	</node>
	<node id="-731744" lat="64.2924361121" lon="10.4775777732">
		<tag k="name" v="Pervika" />
>>>>>>> e1d4bc35ff8a6074a6f2e91616a996b547c36f15
		<tag k="natural" v="bay" />
		<tag k="ssr:stedsnr" v="639602" />
	</node>
<<<<<<< HEAD
	<node lat="64.34270833535764" lon="10.612366659798202" id="-34948">
		<tag k="name" v="Svesvågen" />
=======
	<node id="-731731" lat="64.3183000006" lon="10.3718583417">
		<tag k="name" v="Heimer Kleppvika" />
>>>>>>> e1d4bc35ff8a6074a6f2e91616a996b547c36f15
		<tag k="natural" v="bay" />
		<tag k="ssr:stedsnr" v="639730" />
	</node>
<<<<<<< HEAD
	<node lat="64.3020388879809" lon="10.271055557688829" id="-34953">
		<tag k="fixme" v="consider seamark:type=rock or natural=shoal" />
		<tag k="name" v="Nord Ternskjeret" />
		<tag k="place" v="islet" />
		<tag k="ssr:stedsnr" v="640459" />
	</node>
	<node lat="64.34053889089114" lon="10.40920833336024" id="-34954">
		<tag k="name" v="Torvvika" />
=======
	<node id="-731701" lat="64.3309277821" lon="10.5694361128">
		<tag k="bay" v="fjord" />
		<tag k="name" v="Vingfjorden" />
>>>>>>> e1d4bc35ff8a6074a6f2e91616a996b547c36f15
		<tag k="natural" v="bay" />
		<tag k="ssr:stedsnr" v="640469" />
	</node>
<<<<<<< HEAD
	<node lat="64.3316222196329" lon="10.369083331719228" id="-34955">
		<tag k="name" v="Kuppelvika" />
=======
	<node id="-731694" lat="64.3453611089" lon="10.452091669">
		<tag k="name" v="Håmannvika" />
>>>>>>> e1d4bc35ff8a6074a6f2e91616a996b547c36f15
		<tag k="natural" v="bay" />
		<tag k="ssr:stedsnr" v="640471" />
	</node>
<<<<<<< HEAD
	<node lat="64.40574444357325" lon="10.454983339628436" id="-34956">
		<tag k="name" v="Tørnholmen" />
=======
	<node id="-731693" lat="64.3483305553" lon="10.424041657">
		<tag k="fixme" v="consider seamark:type=rock or natural=shoal" />
		<tag k="name" v="Skokkelskjeret" />
>>>>>>> e1d4bc35ff8a6074a6f2e91616a996b547c36f15
		<tag k="place" v="islet" />
		<tag k="ssr:stedsnr" v="640336" />
	</node>
<<<<<<< HEAD
	<node lat="64.29710555456582" lon="10.42137222246928" id="-34965">
		<tag k="name" v="Kjellvika" />
=======
	<node id="-731676" lat="64.3978111127" lon="10.5075944528">
		<tag k="name" v="Brennvika" />
>>>>>>> e1d4bc35ff8a6074a6f2e91616a996b547c36f15
		<tag k="natural" v="bay" />
		<tag k="ssr:stedsnr" v="640596" />
	</node>
<<<<<<< HEAD
	<node lat="64.3315861150121" lon="10.309025008091036" id="-34973">
		<tag k="name" v="Torbersøya" />
=======
	<node id="-731661" lat="64.4049805542" lon="10.4470611095">
		<tag k="fixme" v="consider seamark:type=rock or natural=shoal" />
		<tag k="name" v="Kveldskjæret" />
>>>>>>> e1d4bc35ff8a6074a6f2e91616a996b547c36f15
		<tag k="place" v="islet" />
		<tag k="ssr:stedsnr" v="742477" />
	</node>
<<<<<<< HEAD
	<node lat="64.41426388810437" lon="10.31406389418866" id="-34981">
		<tag k="name" v="Bjørnskallen" />
		<tag k="natural" v="shoal" />
		<tag k="place" v="locality" />
		<tag k="ssr:stedsnr" v="742673" />
	</node>
	<node lat="64.38444722631971" lon="10.531550000339541" id="-34984">
=======
	<node id="-731654" lat="64.3305638926" lon="10.5644138857">
		<tag k="name" v="Kalvhauet" />
		<tag k="natural" v="cape" />
		<tag k="ssr:stedsnr" v="458063" />
	</node>
	<node id="-731647" lat="64.3709305539" lon="10.3776250014">
>>>>>>> e1d4bc35ff8a6074a6f2e91616a996b547c36f15
		<tag k="fixme" v="consider seamark:type=rock or natural=shoal" />
		<tag k="name" v="Svesøyskjæret" />
		<tag k="place" v="islet" />
		<tag k="ssr:stedsnr" v="742699" />
	</node>
<<<<<<< HEAD
	<node lat="64.46420000019353" lon="10.210261101884035" id="-34985">
		<tag k="name" v="Kya" />
		<tag k="place" v="island" />
		<tag k="ssr:stedsnr" v="742801" />
	</node>
	<node lat="64.29641388697702" lon="10.183866656670896" id="-34986">
		<tag k="name" v="Langfallet" />
		<tag k="natural" v="shoal" />
		<tag k="place" v="locality" />
		<tag k="ssr:stedsnr" v="742866" />
	</node>
	<node lat="64.39192500004741" lon="10.501166671959282" id="-34987">
		<tag k="fixme" v="consider seamark:type=rock or natural=shoal" />
		<tag k="name" v="Oterstokken" />
=======
	<node id="-731646" lat="64.3794472252" lon="10.2399083271">
		<tag k="name" v="Storflua" />
		<tag k="natural" v="shoal" />
		<tag k="place" v="locality" />
		<tag k="ssr:stedsnr" v="257754" />
	</node>
	<node id="-731642" lat="64.3630638885" lon="10.4980388918">
		<tag k="name" v="Fårøya" />
		<tag k="place" v="island" />
		<tag k="ssr:stedsnr" v="256671" />
	</node>
	<node id="-731640" lat="64.3434472186" lon="10.3988583253">
		<tag k="alt_name" v="Hestholmen, nordre;Nord Hestholmen" />
		<tag k="name" v="Nord-Hestholmen" />
>>>>>>> e1d4bc35ff8a6074a6f2e91616a996b547c36f15
		<tag k="place" v="islet" />
		<tag k="ssr:stedsnr" v="752301" />
	</node>
<<<<<<< HEAD
	<node lat="64.42786111175293" lon="10.487411111992138" id="-34988">
		<tag k="name" v="Sneistaren" />
		<tag k="natural" v="shoal" />
		<tag k="place" v="locality" />
		<tag k="ssr:stedsnr" v="754137" />
	</node>
	<node lat="64.41450832916512" lon="10.43098887869633" id="-34989">
		<tag k="name" v="Buholmflua" />
=======
	<node id="-731639" lat="64.3399361085" lon="10.2635499909">
		<tag k="name" v="Langfalla" />
		<tag k="natural" v="shoal" />
		<tag k="place" v="locality" />
		<tag k="ssr:stedsnr" v="256705" />
	</node>
	<node id="-731638" lat="64.3056916639" lon="10.4554555548">
		<tag k="name" v="Skarvsteinbukta" />
		<tag k="natural" v="bay" />
		<tag k="ssr:stedsnr" v="256510" />
	</node>
	<node id="-731633" lat="64.3719527746" lon="10.3001888795">
		<tag k="name" v="Ytre Haraflesskolten" />
>>>>>>> e1d4bc35ff8a6074a6f2e91616a996b547c36f15
		<tag k="natural" v="shoal" />
		<tag k="place" v="locality" />
		<tag k="ssr:stedsnr" v="754436" />
	</node>
<<<<<<< HEAD
	<node lat="64.42016944529853" lon="10.372955549385251" id="-34990">
		<tag k="fixme" v="consider seamark:type=rock or natural=shoal" />
		<tag k="name" v="Kobbodden" />
		<tag k="place" v="islet" />
		<tag k="ssr:stedsnr" v="754438" />
	</node>
	<node lat="64.28610833301434" lon="10.403061118929536" id="-34991">
		<tag k="alt_name" v="Øksenvikneset" />
		<tag k="name" v="Øksvikneset" />
		<tag k="natural" v="cape" />
		<tag k="ssr:stedsnr" v="754814" />
	</node>
	<node lat="64.3193361122686" lon="10.350433343684038" id="-34992">
		<tag k="name" v="Vågtaren" />
		<tag k="natural" v="shoal" />
		<tag k="place" v="locality" />
		<tag k="ssr:stedsnr" v="754826" />
	</node>
	<node lat="64.34777222670492" lon="10.511377779088043" id="-35005">
		<tag k="fixme" v="consider seamark:type=rock or natural=shoal" />
		<tag k="name" v="Almsteinan" />
=======
	<node id="-731631" lat="64.3412999963" lon="10.2844388815">
		<tag k="name" v="Skinnbrokfallet" />
		<tag k="natural" v="shoal" />
		<tag k="place" v="locality" />
		<tag k="ssr:stedsnr" v="450751" />
	</node>
	<node id="-731630" lat="64.3591666632" lon="10.4817722268">
		<tag k="name" v="Bjørsviksundet" />
		<tag k="natural" v="strait" />
		<tag k="ssr:stedsnr" v="450828" />
	</node>
	<node id="-731629" lat="64.3399138875" lon="10.4210361042">
		<tag k="name" v="Aunholmen" />
>>>>>>> e1d4bc35ff8a6074a6f2e91616a996b547c36f15
		<tag k="place" v="islet" />
		<tag k="ssr:stedsnr" v="761375" />
	</node>
<<<<<<< HEAD
	<node lat="64.32866944515982" lon="10.375511119926756" id="-35019">
		<tag k="name" v="Kroken" />
=======
	<node id="-731628" lat="64.413741664" lon="10.4785527828">
		<tag k="name" v="Svartholet" />
>>>>>>> e1d4bc35ff8a6074a6f2e91616a996b547c36f15
		<tag k="natural" v="bay" />
		<tag k="ssr:stedsnr" v="761536" />
	</node>
<<<<<<< HEAD
	<node lat="64.27329999610956" lon="10.450236114843797" id="-35021">
		<tag k="name" v="Brenna" />
		<tag k="natural" v="beach" />
		<tag k="ssr:stedsnr" v="761633" />
	</node>
	<node lat="64.35811388980834" lon="10.487161108716395" id="-35023">
		<tag k="name" v="Otertoa" />
		<tag k="natural" v="cape" />
		<tag k="ssr:stedsnr" v="761721" />
	</node>
	<node lat="64.2220416675637" lon="10.760013896181663" id="-35028">
		<tag k="name" v="Steintangen" />
		<tag k="natural" v="cape" />
		<tag k="ssr:stedsnr" v="761750" />
	</node>
	<node lat="64.26198055133757" lon="10.419033333692866" id="-35036">
		<tag k="name" v="Jevika" />
		<tag k="natural" v="bay" />
		<tag k="ssr:stedsnr" v="802667" />
	</node>
	<node lat="64.32658333606734" lon="10.436591663090395" id="-35044">
		<tag k="name" v="Ramsøysundet" />
		<tag k="natural" v="strait" />
		<tag k="ssr:stedsnr" v="803526" />
	</node>
	<node lat="64.32575277439445" lon="10.370794435565331" id="-35045">
		<tag k="name" v="Hepsøya" />
		<tag k="place" v="island" />
		<tag k="ssr:stedsnr" v="803528" />
	</node>
	<node lat="64.31872221956097" lon="10.264066673548959" id="-35046">
		<tag k="name" v="Singsholmen" />
		<tag k="place" v="islet" />
		<tag k="ssr:stedsnr" v="803530" />
	</node>
	<node lat="64.31458055952095" lon="10.249319441262859" id="-35048">
		<tag k="name" v="Bakbåen" />
=======
	<node id="-731624" lat="64.3767611077" lon="10.2718944398">
		<tag k="name" v="Havbakkfalla" />
		<tag k="natural" v="shoal" />
		<tag k="place" v="locality" />
		<tag k="ssr:stedsnr" v="439717" />
	</node>
	<node id="-731623" lat="64.3953222205" lon="10.4045055501">
		<tag k="name" v="Jarhattan" />
		<tag k="natural" v="shoal" />
		<tag k="place" v="locality" />
		<tag k="ssr:stedsnr" v="439698" />
	</node>
	<node id="-731622" lat="64.3869055518" lon="10.4531583333">
		<tag k="name" v="Sørlåven" />
>>>>>>> e1d4bc35ff8a6074a6f2e91616a996b547c36f15
		<tag k="natural" v="shoal" />
		<tag k="place" v="locality" />
		<tag k="ssr:stedsnr" v="803547" />
	</node>
	<node lat="64.28476388445463" lon="10.286766668931197" id="-35051">
		<tag k="name" v="Grisvågen" />
		<tag k="natural" v="bay" />
		<tag k="ssr:stedsnr" v="803594" />
	</node>
	<node lat="64.34527777891863" lon="10.489802770536574" id="-35055">
		<tag k="bay" v="fjord" />
		<tag k="name" v="Hopen" />
		<tag k="natural" v="bay" />
		<tag k="ssr:stedsnr" v="803751" />
	</node>
<<<<<<< HEAD
	<node lat="64.29092221824082" lon="10.27829166392606" id="-35058">
		<tag k="name" v="Yttervågen" />
=======
	<node id="-731613" lat="64.2905972258" lon="10.4908416687">
		<tag k="name" v="Svinvika" />
>>>>>>> e1d4bc35ff8a6074a6f2e91616a996b547c36f15
		<tag k="natural" v="bay" />
		<tag k="ssr:stedsnr" v="815800" />
	</node>
<<<<<<< HEAD
	<node lat="64.31728888952611" lon="10.446324997221579" id="-35059">
		<tag k="alt_name" v="Dyrskjeret" />
		<tag k="fixme" v="consider seamark:type=rock or natural=shoal" />
		<tag k="name" v="Dyrskjæret" />
=======
	<node id="-731612" lat="64.290452774" lon="10.2534749942">
		<tag k="name" v="Måøya" />
>>>>>>> e1d4bc35ff8a6074a6f2e91616a996b547c36f15
		<tag k="place" v="islet" />
		<tag k="ssr:stedsnr" v="815858" />
	</node>
<<<<<<< HEAD
	<node lat="64.30366944287714" lon="10.405380564903966" id="-35060">
		<tag k="bay" v="fjord" />
		<tag k="name" v="Osenfjorden" />
		<tag k="natural" v="bay" />
		<tag k="ssr:stedsnr" v="815859" />
	</node>
	<node lat="64.28923889126926" lon="10.444566664781302" id="-35070">
		<tag k="name" v="Storholmen" />
=======
	<node id="-731608" lat="64.3396749966" lon="10.5015722234">
		<tag k="name" v="Båtshallneset" />
		<tag k="natural" v="cape" />
		<tag k="ssr:stedsnr" v="215713" />
	</node>
	<node id="-731603" lat="64.2945944472" lon="10.2685944461">
		<tag k="name" v="Småholman" />
>>>>>>> e1d4bc35ff8a6074a6f2e91616a996b547c36f15
		<tag k="place" v="islet" />
		<tag k="ssr:stedsnr" v="822101" />
	</node>
<<<<<<< HEAD
	<node lat="64.33229999733447" lon="10.476544442236731" id="-35072">
		<tag k="name" v="Stranda" />
		<tag k="natural" v="beach" />
		<tag k="ssr:stedsnr" v="822032" />
	</node>
	<node lat="64.2982472181385" lon="10.426813879754818" id="-35073">
		<tag k="name" v="Steinvika" />
=======
	<node id="-731601" lat="64.3021888924" lon="10.288594444">
		<tag k="name" v="Buvika" />
>>>>>>> e1d4bc35ff8a6074a6f2e91616a996b547c36f15
		<tag k="natural" v="bay" />
		<tag k="ssr:stedsnr" v="822039" />
	</node>
<<<<<<< HEAD
	<node lat="64.3928166681757" lon="10.496855554848336" id="-35075">
		<tag k="name" v="Småvikan" />
=======
	<node id="-731596" lat="64.2869722181" lon="10.3026888878">
		<tag k="bay" v="fjord" />
		<tag k="name" v="Innerøysjøen" />
>>>>>>> e1d4bc35ff8a6074a6f2e91616a996b547c36f15
		<tag k="natural" v="bay" />
		<tag k="ssr:stedsnr" v="822330" />
	</node>
<<<<<<< HEAD
	<node lat="64.3961250026312" lon="10.468136119314053" id="-35078">
=======
	<node id="-731590" lat="64.3950472225" lon="10.4954472247">
>>>>>>> e1d4bc35ff8a6074a6f2e91616a996b547c36f15
		<tag k="fixme" v="consider seamark:type=rock or natural=shoal" />
		<tag k="name" v="Ringskjeret" />
		<tag k="place" v="islet" />
<<<<<<< HEAD
		<tag k="ssr:stedsnr" v="822347" />
	</node>
	<node lat="64.28538333187423" lon="10.266083331193549" id="-35087">
=======
		<tag k="ssr:stedsnr" v="215303" />
	</node>
	<node id="-731589" lat="64.2720222248" lon="10.4474833246">
		<tag k="name" v="Kaukarhaugen" />
		<tag k="natural" v="cape" />
		<tag k="ssr:stedsnr" v="215035" />
	</node>
	<node id="-731586" lat="64.4123972217" lon="10.4468277711">
>>>>>>> e1d4bc35ff8a6074a6f2e91616a996b547c36f15
		<tag k="fixme" v="consider seamark:type=rock or natural=shoal" />
		<tag k="name" v="Hovdskjeret" />
		<tag k="place" v="islet" />
		<tag k="ssr:stedsnr" v="822521" />
	</node>
<<<<<<< HEAD
	<node lat="64.3023166686627" lon="10.314166672757969" id="-35098">
		<tag k="name" v="Aunøya" />
		<tag k="place" v="island" />
		<tag k="ssr:stedsnr" v="863560" />
	</node>
	<node lat="64.28883333109347" lon="10.294330548522293" id="-35100">
		<tag k="name" v="Indre Skjervøya" />
		<tag k="place" v="island" />
		<tag k="ssr:stedsnr" v="863580" />
	</node>
	<node lat="64.35692500335483" lon="10.32766944399992" id="-35106">
		<tag k="name" v="Heilfalla" />
=======
	<node id="-731585" lat="64.40436389" lon="10.4156138917">
		<tag k="name" v="Sandholmtaren" />
>>>>>>> e1d4bc35ff8a6074a6f2e91616a996b547c36f15
		<tag k="natural" v="shoal" />
		<tag k="place" v="locality" />
		<tag k="ssr:stedsnr" v="863731" />
	</node>
<<<<<<< HEAD
	<node lat="64.33608333612993" lon="10.347444435445848" id="-35108">
		<tag k="alt_name" v="Nord Kvalhausen" />
		<tag k="fixme" v="multiple name tags, choose one and add the other to alt_name; consider seamark:type=rock or natural=shoal" />
		<tag k="name" v="Nordre Kvalhausen;Kvalhausen" />
		<tag k="place" v="islet" />
		<tag k="ssr:stedsnr" v="863736" />
	</node>
	<node lat="64.34081388444747" lon="10.38773334333007" id="-35109">
		<tag k="alt_name" v="Hestholmen, s;Sør Hestholmen" />
		<tag k="name" v="Sør-Hestholmen" />
=======
	<node id="-731584" lat="64.3327555584" lon="10.3597805459">
		<tag k="name" v="Bølneset" />
		<tag k="natural" v="cape" />
		<tag k="ssr:stedsnr" v="196728" />
	</node>
	<node id="-731583" lat="64.3338249991" lon="10.2666638901">
		<tag k="fixme" v="consider seamark:type=rock or natural=shoal" />
		<tag k="name" v="Gåsskjæret" />
>>>>>>> e1d4bc35ff8a6074a6f2e91616a996b547c36f15
		<tag k="place" v="islet" />
		<tag k="ssr:stedsnr" v="863739" />
	</node>
<<<<<<< HEAD
	<node lat="64.40505277415032" lon="10.3922416755984" id="-35111">
=======
	<node id="-731582" lat="64.4101861157" lon="10.3885388802">
>>>>>>> e1d4bc35ff8a6074a6f2e91616a996b547c36f15
		<tag k="fixme" v="consider seamark:type=rock or natural=shoal" />
		<tag k="name" v="Småflotra" />
		<tag k="place" v="islet" />
<<<<<<< HEAD
		<tag k="ssr:stedsnr" v="863687" />
	</node>
	<node lat="64.32837777404077" lon="10.296208326463649" id="-35113">
		<tag k="name" v="Høgholmen" />
=======
		<tag k="ssr:stedsnr" v="196645" />
	</node>
	<node id="-731581" lat="64.4059944409" lon="10.3391277875">
		<tag k="name" v="Kårflesleia" />
		<tag k="natural" v="strait" />
		<tag k="ssr:stedsnr" v="196640" />
	</node>
	<node id="-731580" lat="64.4206611099" lon="10.4570416616">
		<tag k="fixme" v="consider seamark:type=rock or natural=shoal" />
		<tag k="name" v="Ersboggan" />
>>>>>>> e1d4bc35ff8a6074a6f2e91616a996b547c36f15
		<tag k="place" v="islet" />
		<tag k="ssr:stedsnr" v="864555" />
	</node>
<<<<<<< HEAD
	<node lat="64.29489167109735" lon="10.409025003864247" id="-35118">
		<tag k="name" v="Blakkaneset" />
=======
	<node id="-731577" lat="64.2775694403" lon="10.3940555628">
		<tag k="name" v="Nisneset" />
>>>>>>> e1d4bc35ff8a6074a6f2e91616a996b547c36f15
		<tag k="natural" v="cape" />
		<tag k="ssr:stedsnr" v="864610" />
	</node>
<<<<<<< HEAD
	<node lat="64.28401944760435" lon="10.446833337882394" id="-35119">
		<tag k="name" v="Brattjerfjorden" />
=======
	<node id="-731573" lat="64.2918638853" lon="10.4085611184">
		<tag k="name" v="Breivika" />
>>>>>>> e1d4bc35ff8a6074a6f2e91616a996b547c36f15
		<tag k="natural" v="bay" />
		<tag k="ssr:stedsnr" v="864635" />
	</node>
<<<<<<< HEAD
	<node lat="64.3833305554651" lon="10.321438886090695" id="-35120">
		<tag k="name" v="Estengrunnen" />
=======
	<node id="-731571" lat="64.3071527789" lon="10.3010833243">
		<tag k="name" v="Barkholmtaran" />
>>>>>>> e1d4bc35ff8a6074a6f2e91616a996b547c36f15
		<tag k="natural" v="shoal" />
		<tag k="place" v="locality" />
		<tag k="ssr:stedsnr" v="864738" />
	</node>
<<<<<<< HEAD
	<node lat="64.35379999800719" lon="10.390066673485395" id="-35121">
=======
	<node id="-731569" lat="64.3567333342" lon="10.3804555515">
>>>>>>> e1d4bc35ff8a6074a6f2e91616a996b547c36f15
		<tag k="fixme" v="consider seamark:type=rock or natural=shoal" />
		<tag k="name" v="Leirskjæret" />
		<tag k="place" v="islet" />
		<tag k="ssr:stedsnr" v="874322" />
	</node>
<<<<<<< HEAD
	<node lat="64.37016110798947" lon="10.352408341536245" id="-35122">
		<tag k="name" v="Storflua" />
		<tag k="place" v="locality" />
		<tag k="seamark:type" v="rock" />
		<tag k="ssr:stedsnr" v="874328" />
	</node>
	<node lat="64.36801389057166" lon="10.513686104970027" id="-35123">
		<tag k="name" v="Heimaneset" />
=======
	<node id="-731545" lat="64.3290472248" lon="10.439802787">
		<tag k="name" v="Sundstranda" />
		<tag k="natural" v="beach" />
		<tag k="place" v="locality" />
		<tag k="ssr:stedsnr" v="276650" />
	</node>
	<node id="-731538" lat="64.3192555539" lon="10.367133332">
		<tag k="name" v="Kleppvika" />
		<tag k="natural" v="bay" />
		<tag k="ssr:stedsnr" v="276564" />
	</node>
	<node id="-731535" lat="64.3250777765" lon="10.3521694357">
		<tag k="name" v="Telletomtvika" />
		<tag k="natural" v="bay" />
		<tag k="ssr:stedsnr" v="276544" />
	</node>
	<node id="-731532" lat="64.298394445" lon="10.3071000037">
		<tag k="name" v="Saltneset" />
		<tag k="natural" v="cape" />
		<tag k="ssr:stedsnr" v="276528" />
	</node>
	<node id="-731523" lat="64.4115222207" lon="10.4709194496">
		<tag k="name" v="Blåneset" />
>>>>>>> e1d4bc35ff8a6074a6f2e91616a996b547c36f15
		<tag k="natural" v="cape" />
		<tag k="ssr:stedsnr" v="875841" />
	</node>
<<<<<<< HEAD
	<node lat="64.33486666617779" lon="10.3441777810476" id="-35124">
		<tag k="fixme" v="consider seamark:type=rock or natural=shoal" />
		<tag k="name" v="Midtre Kvalhausen" />
		<tag k="place" v="islet" />
		<tag k="ssr:stedsnr" v="878580" />
	</node>
	<node lat="64.29463055727624" lon="10.30850000224182" id="-35130">
		<tag k="name" v="Hamneset" />
=======
	<node id="-731521" lat="64.3565722267" lon="10.4708833316">
		<tag k="name" v="Skinnbrokneset" />
		<tag k="natural" v="cape" />
		<tag k="ssr:stedsnr" v="276398" />
	</node>
	<node id="-731514" lat="64.3307361147" lon="10.4926472257">
		<tag k="name" v="Lauvfjellknausen" />
>>>>>>> e1d4bc35ff8a6074a6f2e91616a996b547c36f15
		<tag k="natural" v="cape" />
		<tag k="ssr:stedsnr" v="883566" />
	</node>
<<<<<<< HEAD
	<node lat="64.29128611369693" lon="10.312080553867025" id="-35131">
		<tag k="name" v="Inner Hamnneset" />
		<tag k="natural" v="bay" />
		<tag k="ssr:stedsnr" v="883567" />
	</node>
	<node lat="64.32295000317423" lon="10.358586105857851" id="-35132">
		<tag k="name" v="Ytter Vikan" />
		<tag k="natural" v="bay" />
		<tag k="ssr:stedsnr" v="883574" />
	</node>
	<node lat="64.39331388919122" lon="10.48184444861103" id="-35142">
		<tag k="name" v="Tomåsneset" />
=======
	<node id="-731511" lat="64.390533329" lon="10.4594694474">
		<tag k="name" v="Låven" />
		<tag k="natural" v="shoal" />
		<tag k="place" v="locality" />
		<tag k="ssr:stedsnr" v="147412" />
	</node>
	<node id="-731509" lat="64.31379167" lon="10.3885055627">
		<tag k="name" v="Naustflua" />
		<tag k="natural" v="shoal" />
		<tag k="place" v="locality" />
		<tag k="ssr:stedsnr" v="269845" />
	</node>
	<node id="-731508" lat="64.2913555599" lon="10.4015527767">
		<tag k="alt_name" v="Oterbordstokken" />
		<tag k="name" v="Oterstokkneset" />
>>>>>>> e1d4bc35ff8a6074a6f2e91616a996b547c36f15
		<tag k="natural" v="cape" />
		<tag k="ssr:stedsnr" v="883370" />
	</node>
<<<<<<< HEAD
	<node lat="64.35701666596665" lon="10.496880558338116" id="-35143">
		<tag k="bay" v="fjord" />
		<tag k="name" v="Vingan" />
		<tag k="natural" v="bay" />
		<tag k="ssr:stedsnr" v="883375" />
	</node>
	<node lat="64.39553333738368" lon="10.483980556658123" id="-35144">
		<tag k="fixme" v="consider seamark:type=rock or natural=shoal" />
		<tag k="name" v="Sjåskjeret" />
		<tag k="place" v="islet" />
		<tag k="ssr:stedsnr" v="883379" />
	</node>
	<node lat="64.31822500107319" lon="10.378805546943793" id="-35149">
=======
	<node id="-731507" lat="64.3230583298" lon="10.398633334">
		<tag k="name" v="Hepsøyholmen" />
		<tag k="place" v="islet" />
		<tag k="ssr:stedsnr" v="269927" />
	</node>
	<node id="-731506" lat="64.2825416688" lon="10.4586138836">
		<tag k="name" v="Aunholmen" />
		<tag k="place" v="islet" />
		<tag k="ssr:stedsnr" v="269878" />
	</node>
	<node id="-731505" lat="64.395800004" lon="10.3489416652">
		<tag k="name" v="Austre Synnflesskolten" />
		<tag k="natural" v="shoal" />
		<tag k="place" v="locality" />
		<tag k="ssr:stedsnr" v="268988" />
	</node>
	<node id="-731504" lat="64.2811777775" lon="10.2593333232">
		<tag k="alt_name" v="Purkskjera" />
>>>>>>> e1d4bc35ff8a6074a6f2e91616a996b547c36f15
		<tag k="fixme" v="consider seamark:type=rock or natural=shoal" />
		<tag k="name" v="Sandskjeret" />
		<tag k="place" v="islet" />
		<tag k="ssr:stedsnr" v="883545" />
	</node>
<<<<<<< HEAD
	<node lat="64.40963888972549" lon="10.460191671017132" id="-35152">
		<tag k="name" v="Stangholmen" />
		<tag k="place" v="islet" />
		<tag k="ssr:stedsnr" v="883723" />
	</node>
	<node lat="64.32222777871391" lon="10.361097214563433" id="-35154">
		<tag k="name" v="Heimer Vikan" />
		<tag k="natural" v="bay" />
		<tag k="ssr:stedsnr" v="883667" />
	</node>
	<node lat="64.34810000316155" lon="10.615469439408484" id="-35157">
		<tag k="name" v="Kalvikodden" />
=======
	<node id="-731501" lat="64.3717500037" lon="10.2720972169">
		<tag k="name" v="Småfalla" />
		<tag k="natural" v="shoal" />
		<tag k="place" v="locality" />
		<tag k="ssr:stedsnr" v="135705" />
	</node>
	<node id="-731500" lat="64.3724250014" lon="10.5155638839">
		<tag k="name" v="Helvikneset" />
>>>>>>> e1d4bc35ff8a6074a6f2e91616a996b547c36f15
		<tag k="natural" v="cape" />
		<tag k="ssr:stedsnr" v="883769" />
	</node>
<<<<<<< HEAD
	<node lat="64.36544166547318" lon="10.423433334619903" id="-35162">
		<tag k="name" v="Raudøyan" />
		<tag k="place" v="island" />
		<tag k="ssr:stedsnr" v="936934" />
	</node>
	<node lat="64.30191110706564" lon="10.483638893326116" id="-35163">
		<tag k="name" v="Kalvstranda" />
		<tag k="natural" v="beach" />
		<tag k="ssr:stedsnr" v="937901" />
	</node>
	<node lat="64.39761944074024" lon="10.466277770342977" id="-35167">
=======
	<node id="-731499" lat="64.3216666698" lon="10.2722888928">
		<tag k="name" v="Levringen" />
		<tag k="place" v="island" />
		<tag k="ssr:stedsnr" v="135503" />
	</node>
	<node id="-731485" lat="64.3169111086" lon="10.1561027679">
		<tag k="name" v="Nettan" />
		<tag k="natural" v="shoal" />
		<tag k="place" v="locality" />
		<tag k="ssr:stedsnr" v="256785" />
	</node>
	<node id="-731484" lat="64.3518222214" lon="10.228144436">
		<tag k="alt_name" v="Einstøingen, nordre" />
		<tag k="name" v="Nordre Einstøingen" />
		<tag k="natural" v="shoal" />
		<tag k="place" v="locality" />
		<tag k="ssr:stedsnr" v="256695" />
	</node>
	<node id="-731483" lat="64.4105583294" lon="10.4237138957">
		<tag k="name" v="Sandholman" />
		<tag k="place" v="islet" />
		<tag k="ssr:stedsnr" v="256646" />
	</node>
	<node id="-731482" lat="64.4325777773" lon="10.4646277771">
		<tag k="name" v="Auksundleia" />
		<tag k="natural" v="strait" />
		<tag k="ssr:stedsnr" v="256642" />
	</node>
	<node id="-731479" lat="64.289875004" lon="10.2401222229">
		<tag k="name" v="Innerøyværet" />
		<tag k="place" v="islet" />
		<tag k="ssr:stedsnr" v="256529" />
	</node>
	<node id="-731478" lat="64.3611805544" lon="10.3548666597">
>>>>>>> e1d4bc35ff8a6074a6f2e91616a996b547c36f15
		<tag k="fixme" v="consider seamark:type=rock or natural=shoal" />
		<tag k="name" v="Singsskjeret" />
		<tag k="place" v="islet" />
		<tag k="ssr:stedsnr" v="943643" />
	</node>
<<<<<<< HEAD
	<node lat="64.34504721964218" lon="10.48365000009255" id="-35177">
		<tag k="name" v="Frolandsvika" />
		<tag k="natural" v="bay" />
		<tag k="ssr:stedsnr" v="944691" />
	</node>
	<node lat="64.27700277456194" lon="10.388874995576165" id="-35178">
=======
	<node id="-731468" lat="64.2627756524" lon="10.4047917266">
		<tag k="name" v="Steinbitodden" />
		<tag k="natural" v="cape" />
		<tag k="ssr:stedsnr" v="87015" />
	</node>
	<node id="-731456" lat="64.4026444431" lon="10.3820583302">
>>>>>>> e1d4bc35ff8a6074a6f2e91616a996b547c36f15
		<tag k="fixme" v="consider seamark:type=rock or natural=shoal" />
		<tag k="name" v="Bergurdskjeret" />
		<tag k="place" v="islet" />
		<tag k="ssr:stedsnr" v="944008" />
	</node>
<<<<<<< HEAD
	<node lat="64.29105833265103" lon="10.439116661032038" id="-35183">
		<tag k="name" v="Skogavika" />
		<tag k="natural" v="bay" />
		<tag k="ssr:stedsnr" v="944084" />
	</node>
	<node lat="64.33723055194802" lon="10.50978333032797" id="-35188">
		<tag k="name" v="Søvika" />
		<tag k="natural" v="bay" />
		<tag k="ssr:stedsnr" v="944406" />
	</node>
	<node lat="64.3340062492139" lon="10.35108284140037" id="-35254">
		<tag k="name" v="Hepsøyflaket" />
=======
	<node id="-731455" lat="64.4086583314" lon="10.3637666744">
		<tag k="fixme" v="consider seamark:type=rock or natural=shoal" />
		<tag k="name" v="Langrøa" />
		<tag k="place" v="islet" />
		<tag k="ssr:stedsnr" v="26405" />
	</node>
	<node id="-731451" lat="64.3228000005" lon="10.1317333352">
		<tag k="name" v="Kollen" />
>>>>>>> e1d4bc35ff8a6074a6f2e91616a996b547c36f15
		<tag k="natural" v="shoal" />
		<tag k="place" v="locality" />
		<tag k="ssr:stedsnr" v="1079162" />
	</node>
<<<<<<< HEAD
	<node lat="64.33592709745311" lon="10.346232303787462" id="-35255">
		<tag k="name" v="Kvalhausan" />
=======
	<node id="-731444" lat="64.3272249994" lon="10.2783611038">
		<tag k="name" v="Skarvkleppen" />
>>>>>>> e1d4bc35ff8a6074a6f2e91616a996b547c36f15
		<tag k="place" v="islet" />
		<tag k="ssr:stedsnr" v="1079163" />
	</node>
<<<<<<< HEAD
	<node lat="64.34142536125839" lon="10.419707646164797" id="-35256">
		<tag k="name" v="Aunsundet" />
		<tag k="natural" v="strait" />
		<tag k="ssr:stedsnr" v="1079171" />
	</node>
	<node lat="64.41012334865293" lon="10.447347602486335" id="-35258">
		<tag k="name" v="Søre Nesvågflua" />
		<tag k="natural" v="shoal" />
		<tag k="place" v="locality" />
		<tag k="ssr:stedsnr" v="1079178" />
=======
	<node id="-731443" lat="64.3292111119" lon="10.2912194479">
		<tag k="fixme" v="consider seamark:type=rock or natural=shoal" />
		<tag k="name" v="Langdraget" />
		<tag k="place" v="islet" />
		<tag k="ssr:stedsnr" v="14432" />
>>>>>>> e1d4bc35ff8a6074a6f2e91616a996b547c36f15
	</node>
	<node id="-733205" lat="64.370161108" lon="10.3524083415">
		<tag k="name" v="Storflua" />
		<tag k="place" v="locality" />
		<tag k="seamark:type" v="rock" />
		<tag k="ssr:stedsnr" v="874328" />
	</node>
	<node id="-733204" lat="64.3833305555" lon="10.3214388861">
		<tag k="name" v="Estengrunnen" />
		<tag k="natural" v="shoal" />
		<tag k="place" v="locality" />
		<tag k="ssr:stedsnr" v="864738" />
	</node>
	<node id="-733202" lat="64.2840194476" lon="10.4468333379">
		<tag k="name" v="Brattjerfjorden" />
		<tag k="natural" v="bay" />
		<tag k="ssr:stedsnr" v="864635" />
	</node>
	<node id="-733201" lat="64.2948916711" lon="10.4090250039">
		<tag k="name" v="Blakkaneset" />
		<tag k="natural" v="cape" />
		<tag k="ssr:stedsnr" v="864610" />
	</node>
	<node id="-733197" lat="64.328377774" lon="10.2962083265">
		<tag k="name" v="Høgholmen" />
		<tag k="place" v="islet" />
		<tag k="ssr:stedsnr" v="864555" />
	</node>
	<node id="-733194" lat="64.4593694462" lon="10.1029638904">
		<tag k="name" v="Torsbakken" />
		<tag k="natural" v="shoal" />
		<tag k="place" v="locality" />
		<tag k="ssr:stedsnr" v="863802" />
	</node>
	<node id="-733193" lat="64.4050527742" lon="10.3922416756">
		<tag k="fixme" v="consider seamark:type=rock or natural=shoal" />
		<tag k="name" v="Småflotra" />
		<tag k="place" v="islet" />
		<tag k="ssr:stedsnr" v="863687" />
	</node>
	<node id="-733188" lat="64.2888333311" lon="10.2943305485">
		<tag k="name" v="Indre Skjervøya" />
		<tag k="place" v="island" />
		<tag k="ssr:stedsnr" v="863580" />
	</node>
	<node id="-733186" lat="64.3023166687" lon="10.3141666728">
		<tag k="name" v="Aunøya" />
		<tag k="place" v="island" />
		<tag k="ssr:stedsnr" v="863560" />
	</node>
</osm>
