<?xml version="1.0" encoding="UTF-8"?>
<osm generator="osmapis" version="0.6">
	<node id="-824832" lat="64.139581578" lon="11.4308912687">
		<tag k="name" v="Jønnemsklumpen" />
		<tag k="ssr:date" v="2019-05-30" />
		<tag k="ssr:gruppe" v="veg" />
		<tag k="ssr:hovedgruppe" v="infrastruktur" />
		<tag k="ssr:stedsnr" v="1022193" />
		<tag k="ssr:type" v="adressenavn" />
	</node>
	<node id="-824831" lat="63.9183332819" lon="11.9665590767">
		<tag k="name" v="Grandseteren" />
		<tag k="ssr:date" v="2019-05-30" />
		<tag k="ssr:gruppe" v="veg" />
		<tag k="ssr:hovedgruppe" v="infrastruktur" />
		<tag k="ssr:stedsnr" v="1021515" />
		<tag k="ssr:type" v="adressenavn" />
	</node>
	<node id="-824830" lat="64.2013661561" lon="11.6268019556">
		<tag k="name" v="Giltmarka" />
		<tag k="ssr:date" v="2019-05-30" />
		<tag k="ssr:gruppe" v="veg" />
		<tag k="ssr:hovedgruppe" v="infrastruktur" />
		<tag k="ssr:stedsnr" v="1021488" />
		<tag k="ssr:type" v="adressenavn" />
	</node>
	<node id="-824829" lat="64.0054229653" lon="12.1579685512">
		<tag k="name" v="Gaulstadelva" />
		<tag k="ssr:date" v="2019-05-30" />
		<tag k="ssr:gruppe" v="veg" />
		<tag k="ssr:hovedgruppe" v="infrastruktur" />
		<tag k="ssr:stedsnr" v="1021462" />
		<tag k="ssr:type" v="adressenavn" />
	</node>
	<node id="-824828" lat="63.9664077773" lon="12.1354166124">
		<tag k="name" v="Gruvfjellet" />
		<tag k="ssr:date" v="2019-05-30" />
		<tag k="ssr:gruppe" v="veg" />
		<tag k="ssr:hovedgruppe" v="infrastruktur" />
		<tag k="ssr:stedsnr" v="1021247" />
		<tag k="ssr:type" v="adressenavn" />
	</node>
	<node id="-824827" lat="63.9299429414" lon="11.6982177361">
		<tag k="name" v="Henningvatnet" />
		<tag k="ssr:date" v="2019-05-30" />
		<tag k="ssr:gruppe" v="veg" />
		<tag k="ssr:hovedgruppe" v="infrastruktur" />
		<tag k="ssr:stedsnr" v="1021163" />
		<tag k="ssr:type" v="adressenavn" />
	</node>
	<node id="-824826" lat="63.9211214364" lon="11.7645517919">
		<tag k="name" v="Bulderåstjønna" />
		<tag k="ssr:date" v="2019-05-30" />
		<tag k="ssr:gruppe" v="veg" />
		<tag k="ssr:hovedgruppe" v="infrastruktur" />
		<tag k="ssr:stedsnr" v="1020838" />
		<tag k="ssr:type" v="adressenavn" />
	</node>
	<node id="-824825" lat="64.0219460021" lon="11.4837524383">
		<tag k="name" v="Bratlivegen" />
		<tag k="ssr:date" v="2019-05-30" />
		<tag k="ssr:gruppe" v="veg" />
		<tag k="ssr:hovedgruppe" v="infrastruktur" />
		<tag k="ssr:stedsnr" v="1020653" />
		<tag k="ssr:type" v="adressenavn" />
	</node>
	<node id="-824824" lat="63.9774345146" lon="12.1230957134">
		<tag k="name" v="Damtjønndalen" />
		<tag k="ssr:date" v="2019-05-30" />
		<tag k="ssr:gruppe" v="veg" />
		<tag k="ssr:hovedgruppe" v="infrastruktur" />
		<tag k="ssr:stedsnr" v="1020550" />
		<tag k="ssr:type" v="adressenavn" />
	</node>
	<node id="-824823" lat="64.0187726452" lon="12.1755079431">
		<tag k="name" v="Daltjønna" />
		<tag k="ssr:date" v="2019-05-30" />
		<tag k="ssr:gruppe" v="veg" />
		<tag k="ssr:hovedgruppe" v="infrastruktur" />
		<tag k="ssr:stedsnr" v="1020530" />
		<tag k="ssr:type" v="adressenavn" />
	</node>
	<node id="-821758" lat="64.0129138905" lon="11.4967027811">
		<tag k="name" v="Steinkjer kommune" />
		<tag k="ssr:date" v="2018-01-09" />
		<tag k="ssr:gruppe" v="administrativeIndelinger" />
		<tag k="ssr:hovedgruppe" v="offentligAdministrasjon" />
		<tag k="ssr:stedsnr" v="25261" />
		<tag k="ssr:type" v="kommune" />
	</node>
	<node id="-824816" lat="64.0144468016" lon="11.4818866293">
		<tag k="fixme" v="multiple name tags, choose one and add the other to alt_name" />
		<tag k="name" v="Trøndelag fylke - Trööndelage;Trööndelagen fylhke" />
		<tag k="name:no" v="Trøndelag fylke" />
		<tag k="name:sma" v="Trööndelage;Trööndelagen fylhke" />
		<tag k="ssr:date" v="2019-11-14" />
		<tag k="ssr:gruppe" v="administrativeIndelinger" />
		<tag k="ssr:hovedgruppe" v="offentligAdministrasjon" />
		<tag k="ssr:stedsnr" v="980645" />
		<tag k="ssr:type" v="fylke" />
	</node>
	<node id="-823428" lat="64.0042250004" lon="12.2970555492">
		<tag k="name" v="Andreastjønna" />
		<tag k="ssr:date" v="2019-05-30" />
		<tag k="ssr:gruppe" v="veg" />
		<tag k="ssr:hovedgruppe" v="infrastruktur" />
		<tag k="ssr:stedsnr" v="222117" />
		<tag k="ssr:type" v="adressenavn" />
	</node>
	<node id="-818661" lat="64.0578638922" lon="11.2308305461">
		<tag k="name" v="Bartnesholmen" />
		<tag k="ssr:date" v="2018-01-09" />
		<tag k="ssr:gruppe" v="navigasjon" />
		<tag k="ssr:hovedgruppe" v="infrastruktur" />
		<tag k="ssr:stedsnr" v="227189" />
		<tag k="ssr:type" v="lanterne" />
	</node>
	<node id="-818783" lat="63.9325527746" lon="11.8558361081">
		<tag k="name" v="Innherad" />
		<tag k="ssr:date" v="2018-01-09" />
		<tag k="ssr:gruppe" v="terrengområder" />
		<tag k="ssr:hovedgruppe" v="terreng" />
		<tag k="ssr:stedsnr" v="513804" />
		<tag k="ssr:type" v="landskapsområde" />
	</node>
	<node id="-821242" lat="63.9564861108" lon="12.1447666735">
		<tag k="name" v="Badstubekkhytta" />
		<tag k="ssr:date" v="2019-05-30" />
		<tag k="ssr:gruppe" v="veg" />
		<tag k="ssr:hovedgruppe" v="infrastruktur" />
		<tag k="ssr:stedsnr" v="586121" />
		<tag k="ssr:type" v="adressenavn" />
	</node>
	<node id="-824786" lat="63.9484638901" lon="11.7386583412">
		<tag k="name" v="Aunvatna" />
		<tag k="ssr:date" v="2019-05-30" />
		<tag k="ssr:gruppe" v="veg" />
		<tag k="ssr:hovedgruppe" v="infrastruktur" />
		<tag k="ssr:stedsnr" v="890133" />
		<tag k="ssr:type" v="adressenavn" />
	</node>
	<node id="-822655" lat="64.0289833371" lon="11.2381527801">
		<tag k="name" v="Sæterviknes" />
		<tag k="ssr:date" v="2018-01-09" />
		<tag k="ssr:gruppe" v="navigasjon" />
		<tag k="ssr:hovedgruppe" v="infrastruktur" />
		<tag k="ssr:stedsnr" v="591149" />
		<tag k="ssr:type" v="fyrlykt" />
	</node>
	<node id="-824458" lat="64.0106416638" lon="11.4642249922">
		<tag k="name" v="Eggebogtangen" />
		<tag k="ssr:date" v="2018-01-09" />
		<tag k="ssr:gruppe" v="navigasjon" />
		<tag k="ssr:hovedgruppe" v="infrastruktur" />
		<tag k="ssr:stedsnr" v="288623" />
		<tag k="ssr:type" v="fyrlykt" />
	</node>
	<node id="-821747" lat="64.2545333292" lon="11.9604583429">
		<tag k="name" v="Ausvikbukta" />
		<tag k="ssr:date" v="2019-05-30" />
		<tag k="ssr:gruppe" v="veg" />
		<tag k="ssr:hovedgruppe" v="infrastruktur" />
		<tag k="ssr:stedsnr" v="40143" />
		<tag k="ssr:type" v="adressenavn" />
	</node>
	<node id="-824855" lat="63.9571199345" lon="11.761626138">
		<tag k="name" v="Åksjøen" />
		<tag k="ssr:date" v="2019-05-30" />
		<tag k="ssr:gruppe" v="veg" />
		<tag k="ssr:hovedgruppe" v="infrastruktur" />
		<tag k="ssr:stedsnr" v="1029103" />
		<tag k="ssr:type" v="adressenavn" />
	</node>
	<node id="-824854" lat="64.2031710937" lon="11.6625282438">
		<tag k="name" v="Åssvesetran" />
		<tag k="ssr:date" v="2019-05-30" />
		<tag k="ssr:gruppe" v="veg" />
		<tag k="ssr:hovedgruppe" v="infrastruktur" />
		<tag k="ssr:stedsnr" v="1028637" />
		<tag k="ssr:type" v="adressenavn" />
	</node>
	<node id="-824853" lat="64.0053824887" lon="12.1391356643">
		<tag k="name" v="Torengåsen" />
		<tag k="ssr:date" v="2019-05-30" />
		<tag k="ssr:gruppe" v="veg" />
		<tag k="ssr:hovedgruppe" v="infrastruktur" />
		<tag k="ssr:stedsnr" v="1028042" />
		<tag k="ssr:type" v="adressenavn" />
	</node>
	<node id="-824852" lat="63.9615746844" lon="11.6951354074">
		<tag k="name" v="Tjuvdalen" />
		<tag k="ssr:date" v="2019-05-30" />
		<tag k="ssr:gruppe" v="veg" />
		<tag k="ssr:hovedgruppe" v="infrastruktur" />
		<tag k="ssr:stedsnr" v="1027913" />
		<tag k="ssr:type" v="adressenavn" />
	</node>
	<node id="-824851" lat="64.012458214" lon="12.1985250341">
		<tag k="name" v="Vintertjønna" />
		<tag k="ssr:date" v="2019-05-30" />
		<tag k="ssr:gruppe" v="veg" />
		<tag k="ssr:hovedgruppe" v="infrastruktur" />
		<tag k="ssr:stedsnr" v="1027184" />
		<tag k="ssr:type" v="adressenavn" />
	</node>
	<node id="-824850" lat="63.9289301674" lon="11.8048534474">
		<tag k="name" v="Vestre Langvatnet" />
		<tag k="ssr:date" v="2019-05-30" />
		<tag k="ssr:gruppe" v="veg" />
		<tag k="ssr:hovedgruppe" v="infrastruktur" />
		<tag k="ssr:stedsnr" v="1027159" />
		<tag k="ssr:type" v="adressenavn" />
	</node>
	<node id="-824849" lat="63.9808802065" lon="12.3350239139">
		<tag k="name" v="Skjækervatnet" />
		<tag k="ssr:date" v="2019-05-30" />
		<tag k="ssr:gruppe" v="veg" />
		<tag k="ssr:hovedgruppe" v="infrastruktur" />
		<tag k="ssr:stedsnr" v="1027082" />
		<tag k="ssr:type" v="adressenavn" />
	</node>
	<node id="-824848" lat="63.9993414516" lon="12.1995984264">
		<tag k="name" v="Skjellivatnet" />
		<tag k="ssr:date" v="2019-05-30" />
		<tag k="ssr:gruppe" v="veg" />
		<tag k="ssr:hovedgruppe" v="infrastruktur" />
		<tag k="ssr:stedsnr" v="1027068" />
		<tag k="ssr:type" v="adressenavn" />
	</node>
	<node id="-824847" lat="64.012634808" lon="12.2351362662">
		<tag k="name" v="Sottjønna" />
		<tag k="ssr:date" v="2019-05-30" />
		<tag k="ssr:gruppe" v="veg" />
		<tag k="ssr:hovedgruppe" v="infrastruktur" />
		<tag k="ssr:stedsnr" v="1026697" />
		<tag k="ssr:type" v="adressenavn" />
	</node>
	<node id="-824846" lat="63.9787801402" lon="12.1326274844">
		<tag k="name" v="Småslettbekken" />
		<tag k="ssr:date" v="2019-05-30" />
		<tag k="ssr:gruppe" v="veg" />
		<tag k="ssr:hovedgruppe" v="infrastruktur" />
		<tag k="ssr:stedsnr" v="1026596" />
		<tag k="ssr:type" v="adressenavn" />
	</node>
	<node id="-824845" lat="63.9439518521" lon="12.1599334906">
		<tag k="name" v="Stortjønna" />
		<tag k="ssr:date" v="2019-05-30" />
		<tag k="ssr:gruppe" v="veg" />
		<tag k="ssr:hovedgruppe" v="infrastruktur" />
		<tag k="ssr:stedsnr" v="1026317" />
		<tag k="ssr:type" v="adressenavn" />
	</node>
	<node id="-824844" lat="63.9522917667" lon="12.0402547448">
		<tag k="name" v="Storfjorden" />
		<tag k="ssr:date" v="2019-05-30" />
		<tag k="ssr:gruppe" v="veg" />
		<tag k="ssr:hovedgruppe" v="infrastruktur" />
		<tag k="ssr:stedsnr" v="1026298" />
		<tag k="ssr:type" v="adressenavn" />
	</node>
	<node id="-824843" lat="63.934588954" lon="11.7225233849">
		<tag k="name" v="Storbutjønna" />
		<tag k="ssr:date" v="2019-05-30" />
		<tag k="ssr:gruppe" v="veg" />
		<tag k="ssr:hovedgruppe" v="infrastruktur" />
		<tag k="ssr:stedsnr" v="1026286" />
		<tag k="ssr:type" v="adressenavn" />
	</node>
	<node id="-824842" lat="63.9451802279" lon="11.6804296798">
		<tag k="name" v="Okstadvollen" />
		<tag k="ssr:date" v="2019-05-30" />
		<tag k="ssr:gruppe" v="veg" />
		<tag k="ssr:hovedgruppe" v="infrastruktur" />
		<tag k="ssr:stedsnr" v="1025998" />
		<tag k="ssr:type" v="adressenavn" />
	</node>
	<node id="-824841" lat="64.0319414921" lon="11.2388842455">
		<tag k="name" v="Ronesvegen" />
		<tag k="ssr:date" v="2019-05-30" />
		<tag k="ssr:gruppe" v="veg" />
		<tag k="ssr:hovedgruppe" v="infrastruktur" />
		<tag k="ssr:stedsnr" v="1025110" />
		<tag k="ssr:type" v="adressenavn" />
	</node>
	<node id="-824840" lat="63.9982865736" lon="12.3033747177">
		<tag k="name" v="Setertjønna" />
		<tag k="ssr:date" v="2019-05-30" />
		<tag k="ssr:gruppe" v="veg" />
		<tag k="ssr:hovedgruppe" v="infrastruktur" />
		<tag k="ssr:stedsnr" v="1024944" />
		<tag k="ssr:type" v="adressenavn" />
	</node>
	<node id="-824839" lat="63.9096889757" lon="11.6398628187">
		<tag k="name" v="Selisteinen" />
		<tag k="ssr:date" v="2019-05-30" />
		<tag k="ssr:gruppe" v="veg" />
		<tag k="ssr:hovedgruppe" v="infrastruktur" />
		<tag k="ssr:stedsnr" v="1024874" />
		<tag k="ssr:type" v="adressenavn" />
	</node>
	<node id="-824838" lat="63.938471075" lon="12.0662196041">
		<tag k="name" v="Naustbukta" />
		<tag k="ssr:date" v="2019-05-30" />
		<tag k="ssr:gruppe" v="veg" />
		<tag k="ssr:hovedgruppe" v="infrastruktur" />
		<tag k="ssr:stedsnr" v="1024416" />
		<tag k="ssr:type" v="adressenavn" />
	</node>
	<node id="-824837" lat="63.9783567052" lon="11.381960322">
		<tag k="name" v="Kråkbergstien" />
		<tag k="ssr:date" v="2019-05-30" />
		<tag k="ssr:gruppe" v="veg" />
		<tag k="ssr:hovedgruppe" v="infrastruktur" />
		<tag k="ssr:stedsnr" v="1023743" />
		<tag k="ssr:type" v="adressenavn" />
	</node>
	<node id="-824836" lat="63.9285761531" lon="11.8948205551">
		<tag k="name" v="Lauvvatnet" />
		<tag k="ssr:date" v="2019-05-30" />
		<tag k="ssr:gruppe" v="veg" />
		<tag k="ssr:hovedgruppe" v="infrastruktur" />
		<tag k="ssr:stedsnr" v="1023619" />
		<tag k="ssr:type" v="adressenavn" />
	</node>
	<node id="-824835" lat="63.93059194" lon="12.071777639">
		<tag k="name" v="Litjfjorden" />
		<tag k="ssr:date" v="2019-05-30" />
		<tag k="ssr:gruppe" v="veg" />
		<tag k="ssr:hovedgruppe" v="infrastruktur" />
		<tag k="ssr:stedsnr" v="1023188" />
		<tag k="ssr:type" v="adressenavn" />
	</node>
	<node id="-824834" lat="63.9802660848" lon="12.274431099">
		<tag k="name" v="Lågvassbua" />
		<tag k="ssr:date" v="2019-05-30" />
		<tag k="ssr:gruppe" v="veg" />
		<tag k="ssr:hovedgruppe" v="infrastruktur" />
		<tag k="ssr:stedsnr" v="1022985" />
		<tag k="ssr:type" v="adressenavn" />
	</node>
	<node id="-824833" lat="64.2230590824" lon="11.7599075608">
		<tag k="name" v="Hælssetran" />
		<tag k="ssr:date" v="2019-05-30" />
		<tag k="ssr:gruppe" v="veg" />
		<tag k="ssr:hovedgruppe" v="infrastruktur" />
		<tag k="ssr:stedsnr" v="1022665" />
		<tag k="ssr:type" v="adressenavn" />
	</node>
</osm>
