<?xml version="1.0" encoding="UTF-8"?>
<osm generator="osmapis" version="0.6">
	<node id="-219133" lat="59.6845916667" lon="8.99353611254">
		<tag k="name" v="Mjagetolia" />
		<tag k="place" v="locality" />
		<tag k="ssr:stedsnr" v="773000" />
	</node>
	<node id="-217770" lat="59.816405557" lon="8.98598611339">
		<tag k="alt_name" v="Busnesgrend" />
		<tag k="name" v="Busnesgrenda" />
		<tag k="place" v="hamlet" />
		<tag k="ssr:stedsnr" v="247412" />
	</node>
	<node id="-219129" lat="59.6883444478" lon="9.02953889737">
		<tag k="name" v="Klokkargarden" />
		<tag k="place" v="farm" />
		<tag k="ssr:stedsnr" v="772970" />
	</node>
	<node id="-219125" lat="59.5550694465" lon="9.07886110749">
		<tag k="name" v="Grytelia" />
		<tag k="place" v="locality" />
		<tag k="ssr:stedsnr" v="772888" />
	</node>
	<node id="-219114" lat="59.5974305541" lon="9.13370278521">
		<tag k="name" v="Holtekåsa" />
		<tag k="place" v="quarter" />
		<tag k="ssr:stedsnr" v="772595" />
	</node>
	<node id="-219113" lat="59.6025805578" lon="9.11123333129">
		<tag k="name" v="Hegna" />
		<tag k="place" v="farm" />
		<tag k="ssr:stedsnr" v="772590" />
	</node>
	<node id="-219112" lat="59.594505554" lon="9.11878055864">
		<tag k="name" v="Surtevju" />
		<tag k="place" v="farm" />
		<tag k="ssr:stedsnr" v="772573" />
	</node>
	<node id="-219111" lat="59.5739305565" lon="9.25559721393">
		<tag k="name" v="Anundskås" />
		<tag k="place" v="quarter" />
		<tag k="ssr:stedsnr" v="772549" />
	</node>
	<node id="-219109" lat="59.5769388877" lon="9.25001110308">
		<tag k="aerialway" v="drag_lift" />
		<tag k="fixme" v="consider the other aerialway types" />
		<tag k="name" v="Storeskar" />
		<tag k="ssr:stedsnr" v="772533" />
	</node>
	<node id="-217059" lat="59.7626499978" lon="9.12173610474">
		<tag k="alt_name" v="Sandastul" />
		<tag k="historic" v="shieling" />
		<tag k="name" v="Sandåstulen" />
		<tag k="place" v="locality" />
		<tag k="ssr:stedsnr" v="65409" />
	</node>
	<node id="-219105" lat="59.6013833366" lon="9.20948056058">
		<tag k="historic" v="shieling" />
		<tag k="name" v="Gamlestul" />
		<tag k="place" v="locality" />
		<tag k="ssr:stedsnr" v="772513" />
	</node>
	<node id="-217053" lat="59.578525001" lon="9.23087499478">
		<tag k="alt_name" v="Semsstulen" />
		<tag k="name" v="Seimstølen" />
		<tag k="place" v="isolated_dwelling" />
		<tag k="ssr:stedsnr" v="64795" />
	</node>
	<node id="-217050" lat="59.5443000017" lon="9.28760555967">
		<tag k="fixme" v="consider place=hamlet" />
		<tag k="name" v="Gjestrud" />
		<tag k="place" v="farm" />
		<tag k="ssr:stedsnr" v="64766" />
	</node>
	<node id="-217049" lat="59.5511972243" lon="9.22481388146">
		<tag k="name" v="Ståo" />
		<tag k="place" v="farm" />
		<tag k="ssr:stedsnr" v="64764" />
	</node>
	<node id="-219096" lat="59.6787833294" lon="9.10799166482">
		<tag k="name" v="Steinsrudstulen" />
		<tag k="place" v="locality" />
		<tag k="ssr:stedsnr" v="772421" />
	</node>
	<node id="-219095" lat="59.5713666691" lon="9.19615000238">
		<tag k="name" v="Tjønnekåsa" />
		<tag k="place" v="farm" />
		<tag k="ssr:stedsnr" v="772362" />
	</node>
	<node id="-217045" lat="59.7768805527" lon="8.92670000321">
		<tag k="name" v="Kråkås" />
		<tag k="place" v="locality" />
		<tag k="ssr:stedsnr" v="64461" />
	</node>
	<node id="-217042" lat="59.5635333333" lon="9.1824555637">
		<tag k="name" v="Moen" />
		<tag k="place" v="farm" />
		<tag k="ssr:stedsnr" v="64397" />
	</node>
	<node id="-219088" lat="59.5855194476" lon="9.12522499121">
		<tag k="fixme" v="consider place=hamlet" />
		<tag k="name" v="Tveiten" />
		<tag k="place" v="farm" />
		<tag k="ssr:stedsnr" v="772200" />
	</node>
	<node id="-219086" lat="59.6024083337" lon="9.0503444497">
		<tag k="fixme" v="consider place=hamlet" />
		<tag k="name" v="Bamle" />
		<tag k="place" v="farm" />
		<tag k="ssr:stedsnr" v="772188" />
	</node>
	<node id="-219085" lat="59.5903249962" lon="9.16956943894">
		<tag k="fixme" v="consider place=hamlet" />
		<tag k="name" v="Holla nedre" />
		<tag k="place" v="farm" />
		<tag k="ssr:stedsnr" v="772183" />
	</node>
	<node id="-217034" lat="59.6020916678" lon="9.11358056004">
		<tag k="alt_name" v="Sollid" />
		<tag k="name" v="Solli" />
		<tag k="place" v="farm" />
		<tag k="ssr:stedsnr" v="64249" />
	</node>
	<node id="-219081" lat="59.5688305586" lon="9.25461110716">
		<tag k="name" v="Anundskås" />
		<tag k="place" v="quarter" />
		<tag k="ssr:stedsnr" v="772164" />
	</node>
	<node id="-217031" lat="59.6605944481" lon="9.02542778146">
		<tag k="alt_name" v="Hafsten" />
		<tag k="fixme" v="consider place=hamlet" />
		<tag k="name" v="Havstein" />
		<tag k="place" v="farm" />
		<tag k="ssr:stedsnr" v="64197" />
	</node>
	<node id="-217029" lat="59.6546222231" lon="9.1958166719">
		<tag k="name" v="Mork" />
		<tag k="place" v="farm" />
		<tag k="ssr:stedsnr" v="64176" />
	</node>
	<node id="-219076" lat="59.5633777802" lon="9.19604722467">
		<tag k="name" v="Gutukjær" />
		<tag k="place" v="farm" />
		<tag k="ssr:stedsnr" v="772114" />
	</node>
	<node id="-219075" lat="59.5515833348" lon="9.11765832959">
		<tag k="historic" v="shieling" />
		<tag k="name" v="Svevet" />
		<tag k="place" v="locality" />
		<tag k="ssr:stedsnr" v="772081" />
	</node>
	<node id="-219074" lat="59.5842666704" lon="9.04656944735">
		<tag k="name" v="Kråkeberget" />
		<tag k="place" v="locality" />
		<tag k="ssr:stedsnr" v="772072" />
	</node>
	<node id="-219073" lat="59.6878472188" lon="9.13066389694">
		<tag k="historic" v="shieling" />
		<tag k="name" v="Jonsgard" />
		<tag k="place" v="locality" />
		<tag k="ssr:stedsnr" v="772040" />
	</node>
	<node id="-217024" lat="59.6808611067" lon="9.03084166565">
		<tag k="alt_name" v="Jore" />
		<tag k="name" v="Jordet" />
		<tag k="place" v="farm" />
		<tag k="ssr:stedsnr" v="64139" />
	</node>
	<node id="-217023" lat="59.694313888" lon="8.989638887">
		<tag k="alt_name" v="Juvslia" />
		<tag k="name" v="Gjuvslia" />
		<tag k="place" v="isolated_dwelling" />
		<tag k="ssr:stedsnr" v="64135" />
	</node>
	<node id="-217021" lat="59.6862527769" lon="9.1000805521">
		<tag k="name" v="Liangrenda" />
		<tag k="place" v="hamlet" />
		<tag k="ssr:stedsnr" v="64117" />
	</node>
	<node id="-219068" lat="59.5635388903" lon="9.2645638873">
		<tag k="name" v="Toreskås" />
		<tag k="place" v="locality" />
		<tag k="ssr:stedsnr" v="771257" />
	</node>
	<node id="-217016" lat="59.7449194436" lon="9.20828055642">
		<tag k="name" v="Midbøen" />
		<tag k="place" v="farm" />
		<tag k="ssr:stedsnr" v="64091" />
	</node>
	<node id="-217014" lat="59.7330527737" lon="8.98261945318">
		<tag k="name" v="Bakken" />
		<tag k="place" v="farm" />
		<tag k="ssr:stedsnr" v="64008" />
	</node>
	<node id="-217013" lat="59.7387333339" lon="8.94472777979">
		<tag k="name" v="Kasin" />
		<tag k="place" v="isolated_dwelling" />
		<tag k="ssr:stedsnr" v="64003" />
	</node>
	<node id="-219059" lat="59.8343277764" lon="8.90949167513">
		<tag k="historic" v="shieling" />
		<tag k="name" v="Dokkestul" />
		<tag k="place" v="locality" />
		<tag k="ssr:stedsnr" v="770084" />
	</node>
	<node id="-217007" lat="59.621999999" lon="9.24327500251">
		<tag k="alt_name" v="Rønningen" />
		<tag k="name" v="Rydningen" />
		<tag k="place" v="farm" />
		<tag k="ssr:stedsnr" v="63848" />
	</node>
	<node id="-217198" lat="59.6700222252" lon="8.91466111987">
		<tag k="name" v="Nybustulen" />
		<tag k="place" v="locality" />
		<tag k="ssr:stedsnr" v="107000" />
	</node>
	<node id="-217002" lat="59.5763944478" lon="9.18771666409">
		<tag k="name" v="Heddal bygdetun" />
		<tag k="place" v="farm" />
		<tag k="ssr:stedsnr" v="63380" />
	</node>
	<node id="-217000" lat="59.6733111126" lon="9.01253056227">
		<tag k="name" v="Masteholtet" />
		<tag k="place" v="farm" />
		<tag k="ssr:stedsnr" v="63261" />
	</node>
	<node id="-217756" lat="59.6048222181" lon="9.4136500077">
		<tag k="name" v="Hovet" />
		<tag k="place" v="isolated_dwelling" />
		<tag k="ssr:stedsnr" v="246797" />
	</node>
	<node id="-216997" lat="59.6825361117" lon="9.2076333384">
		<tag k="name" v="Myra" />
		<tag k="place" v="isolated_dwelling" />
		<tag k="ssr:stedsnr" v="63145" />
	</node>
	<node id="-216996" lat="59.7195194442" lon="9.00307499804">
		<tag k="name" v="Mosrygg" />
		<tag k="place" v="farm" />
		<tag k="ssr:stedsnr" v="63101" />
	</node>
	<node id="-217755" lat="59.5629833301" lon="9.23113888135">
		<tag k="alt_name" v="Mærde" />
		<tag k="name" v="Merde" />
		<tag k="place" v="quarter" />
		<tag k="ssr:stedsnr" v="246782" />
	</node>
	<node id="-216992" lat="59.7623972251" lon="8.94291111437">
		<tag k="historic" v="shieling" />
		<tag k="name" v="Rånåbu" />
		<tag k="place" v="locality" />
		<tag k="ssr:stedsnr" v="59737" />
	</node>
	<node id="-216990" lat="59.7759249978" lon="9.22833610293">
		<tag k="name" v="Meheia" />
		<tag k="place" v="neighbourhood" />
		<tag k="ssr:stedsnr" v="59463" />
	</node>
	<node id="-217413" lat="59.6804472258" lon="9.02379722844">
		<tag k="name" v="Maurud" />
		<tag k="place" v="locality" />
		<tag k="ssr:stedsnr" v="166810" />
	</node>
	<node id="-216987" lat="59.770852776" lon="8.91921666931">
		<tag k="historic" v="shieling" />
		<tag k="name" v="Nesbuset" />
		<tag k="place" v="locality" />
		<tag k="ssr:stedsnr" v="58923" />
	</node>
	<node id="-219032" lat="59.8659111088" lon="8.92737499765">
		<tag k="alt_name" v="Kåsa" />
		<tag k="name" v="Kåsi" />
		<tag k="place" v="locality" />
		<tag k="ssr:stedsnr" v="732486" />
	</node>
	<node id="-219031" lat="59.857541669" lon="8.94054999605">
		<tag k="name" v="Torud" />
		<tag k="place" v="isolated_dwelling" />
		<tag k="ssr:stedsnr" v="732484" />
	</node>
	<node id="-219029" lat="59.8146083352" lon="8.9208749956">
		<tag k="name" v="Skariset" />
		<tag k="place" v="isolated_dwelling" />
		<tag k="ssr:stedsnr" v="732465" />
	</node>
	<node id="-219028" lat="59.763500004" lon="9.08697499645">
		<tag k="fixme" v="consider place=hamlet" />
		<tag k="name" v="Reisjå" />
		<tag k="place" v="farm" />
		<tag k="ssr:stedsnr" v="732458" />
	</node>
	<node id="-219027" lat="59.7945249965" lon="9.15567500799">
		<tag k="fixme" v="consider tourism=alpine_hut or tourism=chalet" />
		<tag k="name" v="Sigridsbu" />
		<tag k="ssr:stedsnr" v="732409" />
		<tag k="tourism" v="wilderness_hut" />
	</node>
	<node id="-217752" lat="59.5415972259" lon="9.30088054812">
		<tag k="name" v="Hagen" />
		<tag k="place" v="farm" />
		<tag k="ssr:stedsnr" v="246733" />
	</node>
	<node id="-216974" lat="59.7168361098" lon="9.26817778511">
		<tag k="name" v="Pålskås" />
		<tag k="place" v="locality" />
		<tag k="ssr:stedsnr" v="57523" />
	</node>
	<node id="-219020" lat="59.6744972252" lon="9.27230000854">
		<tag k="name" v="Langedokk" />
		<tag k="place" v="farm" />
		<tag k="ssr:stedsnr" v="731900" />
	</node>
	<node id="-216968" lat="59.7658583307" lon="8.9985999979">
		<tag k="historic" v="shieling" />
		<tag k="name" v="Ormeroe" />
		<tag k="place" v="locality" />
		<tag k="ssr:stedsnr" v="55065" />
	</node>
	<node id="-219011" lat="59.5826305513" lon="9.27298611088">
		<tag k="name" v="Skogen" />
		<tag k="place" v="farm" />
		<tag k="ssr:stedsnr" v="731821" />
	</node>
	<node id="-219010" lat="59.6021500042" lon="9.27857500459">
		<tag k="fixme" v="consider place=hamlet" />
		<tag k="name" v="Bøen" />
		<tag k="place" v="farm" />
		<tag k="ssr:stedsnr" v="731814" />
	</node>
	<node id="-219009" lat="59.5715222208" lon="9.29389722419">
		<tag k="name" v="Fykerud" />
		<tag k="place" v="isolated_dwelling" />
		<tag k="ssr:stedsnr" v="731793" />
	</node>
	<node id="-219005" lat="59.5334027746" lon="9.26009722514">
		<tag k="name" v="Haugen" />
		<tag k="place" v="farm" />
		<tag k="ssr:stedsnr" v="731722" />
	</node>
	<node id="-219004" lat="59.518050004" lon="9.31252222769">
		<tag k="name" v="Skogen" />
		<tag k="place" v="farm" />
		<tag k="ssr:stedsnr" v="731713" />
	</node>
	<node id="-216953" lat="59.6774333367" lon="9.0212027692">
		<tag k="name" v="Sønstebø" />
		<tag k="place" v="farm" />
		<tag k="ssr:stedsnr" v="45784" />
	</node>
	<node id="-218997" lat="59.5538916691" lon="9.20428889452">
		<tag k="alt_name" v="Kleppen" />
		<tag k="fixme" v="consider place=hamlet" />
		<tag k="name" v="Kleppan" />
		<tag k="place" v="farm" />
		<tag k="ssr:stedsnr" v="731374" />
	</node>
	<node id="-218994" lat="59.5323861118" lon="8.89671666598">
		<tag k="alt_name" v="Tjørnstul" />
		<tag k="name" v="Tjønnstul" />
		<tag k="place" v="isolated_dwelling" />
		<tag k="ssr:stedsnr" v="731339" />
	</node>
	<node id="-218993" lat="59.5899444485" lon="9.04582777182">
		<tag k="name" v="Luten" />
		<tag k="place" v="farm" />
		<tag k="ssr:stedsnr" v="731295" />
	</node>
	<node id="-218992" lat="59.5698888926" lon="9.16272499296">
		<tag k="name" v="Haugen" />
		<tag k="place" v="farm" />
		<tag k="ssr:stedsnr" v="731285" />
	</node>
	<node id="-218991" lat="59.6105555582" lon="9.03580832723">
		<tag k="name" v="Bakken" />
		<tag k="place" v="isolated_dwelling" />
		<tag k="ssr:stedsnr" v="731256" />
	</node>
	<node id="-217403" lat="59.550869447" lon="9.31972777512">
		<tag k="historic" v="shieling" />
		<tag k="name" v="Kveldro" />
		<tag k="place" v="locality" />
		<tag k="ssr:stedsnr" v="166108" />
	</node>
	<node id="-216941" lat="59.7273361077" lon="9.04991110898">
		<tag k="name" v="Bekkestul" />
		<tag k="place" v="locality" />
		<tag k="ssr:stedsnr" v="44993" />
	</node>
	<node id="-218987" lat="59.6031342487" lon="9.15535614498">
		<tag k="fixme" v="consider place=hamlet" />
		<tag k="name" v="Brekke" />
		<tag k="place" v="farm" />
		<tag k="ssr:stedsnr" v="731226" />
	</node>
	<node id="-218986" lat="59.6071111142" lon="9.16190833322">
		<tag k="name" v="Murukleiv" />
		<tag k="place" v="isolated_dwelling" />
		<tag k="ssr:stedsnr" v="731225" />
	</node>
	<node id="-217063" lat="59.5544638879" lon="9.28173333346">
		<tag k="name" v="Tveiten" />
		<tag k="place" v="quarter" />
		<tag k="ssr:stedsnr" v="97205" />
	</node>
	<node id="-218983" lat="59.6750250018" lon="9.04697500541">
		<tag k="name" v="Tråer" />
		<tag k="place" v="farm" />
		<tag k="ssr:stedsnr" v="731192" />
	</node>
	<node id="-218981" lat="59.6790027754" lon="9.16966111816">
		<tag k="name" v="Mastedalen" />
		<tag k="place" v="isolated_dwelling" />
		<tag k="ssr:stedsnr" v="731180" />
	</node>
	<node id="-218979" lat="59.6596666692" lon="9.08922500806">
		<tag k="name" v="Gråbu" />
		<tag k="place" v="isolated_dwelling" />
		<tag k="ssr:stedsnr" v="731171" />
	</node>
	<node id="-218978" lat="59.6473444471" lon="9.03875832489">
		<tag k="name" v="Havsteinkåsa" />
		<tag k="place" v="locality" />
		<tag k="ssr:stedsnr" v="731170" />
	</node>
	<node id="-216929" lat="59.6260166636" lon="9.23186110842">
		<tag k="name" v="Dalen" />
		<tag k="place" v="farm" />
		<tag k="ssr:stedsnr" v="44868" />
	</node>
	<node id="-218975" lat="59.7117972237" lon="9.03929721751">
		<tag k="name" v="Gjenga" />
		<tag k="place" v="isolated_dwelling" />
		<tag k="ssr:stedsnr" v="731143" />
	</node>
	<node id="-218972" lat="59.7162777803" lon="8.93090000344">
		<tag k="name" v="Kaptein" />
		<tag k="place" v="isolated_dwelling" />
		<tag k="ssr:stedsnr" v="731080" />
	</node>
	<node id="-218970" lat="59.727236108" lon="9.04336666766">
		<tag k="name" v="Lislestul" />
		<tag k="place" v="isolated_dwelling" />
		<tag k="ssr:stedsnr" v="731077" />
	</node>
	<node id="-218969" lat="59.7473138878" lon="8.93526666073">
		<tag k="historic" v="shieling" />
		<tag k="name" v="Åkroken" />
		<tag k="place" v="locality" />
		<tag k="ssr:stedsnr" v="731001" />
	</node>
	<node id="-216918" lat="59.5430666662" lon="9.20726389071">
		<tag k="name" v="Sollid" />
		<tag k="place" v="farm" />
		<tag k="ssr:stedsnr" v="44550" />
	</node>
	<node id="-216917" lat="59.5828416675" lon="9.27358054678">
		<tag k="name" v="Midtskogen" />
		<tag k="place" v="quarter" />
		<tag k="ssr:stedsnr" v="44548" />
	</node>
	<node id="-216916" lat="59.6109583364" lon="9.27996944898">
		<tag k="name" v="Revsmoen" />
		<tag k="place" v="farm" />
		<tag k="ssr:stedsnr" v="44536" />
	</node>
	<node id="-217743" lat="59.5565750015" lon="9.00810000869">
		<tag k="alt_name" v="Breistul" />
		<tag k="name" v="Breidstul" />
		<tag k="place" v="isolated_dwelling" />
		<tag k="ssr:stedsnr" v="246393" />
	</node>
	<node id="-216912" lat="59.6093166668" lon="9.2095500069">
		<tag k="historic" v="shieling" />
		<tag k="name" v="Halfarlia" />
		<tag k="place" v="locality" />
		<tag k="ssr:stedsnr" v="44505" />
	</node>
	<node id="-216910" lat="59.6857027796" lon="9.0725972254">
		<tag k="name" v="Bjønnekasin" />
		<tag k="place" v="farm" />
		<tag k="ssr:stedsnr" v="44496" />
	</node>
	<node id="-216909" lat="59.6963722232" lon="9.10391111285">
		<tag k="alt_name" v="Nedre Folseland" />
		<tag k="fixme" v="consider place=hamlet" />
		<tag k="name" v="Folsland nedre" />
		<tag k="place" v="farm" />
		<tag k="ssr:stedsnr" v="44485" />
	</node>
	<node id="-216907" lat="59.5132722228" lon="9.25179721421">
		<tag k="historic" v="shieling" />
		<tag k="name" v="Øvrestul" />
		<tag k="place" v="locality" />
		<tag k="ssr:stedsnr" v="44477" />
	</node>
	<node id="-216906" lat="59.5989444419" lon="9.09989445222">
		<tag k="name" v="Lykkja" />
		<tag k="place" v="farm" />
		<tag k="ssr:stedsnr" v="44575" />
	</node>
	<node id="-216905" lat="59.5443138911" lon="9.21136110961">
		<tag k="name" v="Juvskås" />
		<tag k="place" v="farm" />
		<tag k="ssr:stedsnr" v="44555" />
	</node>
	<node id="-218952" lat="59.7983777775" lon="8.99317221394">
		<tag k="historic" v="shieling" />
		<tag k="name" v="Berglia" />
		<tag k="place" v="locality" />
		<tag k="ssr:stedsnr" v="725612" />
	</node>
	<node id="-217740" lat="59.5926916637" lon="9.09765555839">
		<tag k="fixme" v="consider place=hamlet" />
		<tag k="name" v="Melås" />
		<tag k="place" v="farm" />
		<tag k="ssr:stedsnr" v="246335" />
	</node>
	<node id="-216902" lat="59.5763138908" lon="9.19455278167">
		<tag k="name" v="Klokkarrud" />
		<tag k="place" v="farm" />
		<tag k="ssr:stedsnr" v="44364" />
	</node>
	<node id="-218949" lat="59.8078166632" lon="8.99025833279">
		<tag k="fixme" v="consider place=hamlet" />
		<tag k="name" v="Vestre Busnes" />
		<tag k="place" v="farm" />
		<tag k="ssr:stedsnr" v="725580" />
	</node>
	<node id="-216899" lat="59.5872388874" lon="9.16011667433">
		<tag k="name" v="Smedsrud" />
		<tag k="place" v="farm" />
		<tag k="ssr:stedsnr" v="44187" />
	</node>
	<node id="-217739" lat="59.5947933689" lon="9.15605189336">
		<tag k="name" v="Løkja" />
		<tag k="place" v="farm" />
		<tag k="ssr:stedsnr" v="246280" />
	</node>
	<node id="-216895" lat="59.6072500009" lon="9.04430832878">
		<tag k="alt_name" v="Nordre Sauer" />
		<tag k="fixme" v="consider place=hamlet" />
		<tag k="name" v="Sauar nordre" />
		<tag k="place" v="farm" />
		<tag k="ssr:stedsnr" v="44159" />
	</node>
	<node id="-216892" lat="59.5822666622" lon="9.05534444138">
		<tag k="name" v="Haugen" />
		<tag k="place" v="locality" />
		<tag k="ssr:stedsnr" v="44088" />
	</node>
	<node id="-217738" lat="59.6021658453" lon="9.13694164392">
		<tag k="fixme" v="consider place=hamlet" />
		<tag k="name" v="Holte" />
		<tag k="place" v="farm" />
		<tag k="ssr:stedsnr" v="246276" />
	</node>
	<node id="-216890" lat="59.6829805528" lon="9.14676389594">
		<tag k="name" v="Lia" />
		<tag k="place" v="isolated_dwelling" />
		<tag k="ssr:stedsnr" v="44060" />
	</node>
	<node id="-216887" lat="59.6878833352" lon="9.15749166518">
		<tag k="name" v="Runningen" />
		<tag k="place" v="locality" />
		<tag k="ssr:stedsnr" v="44006" />
	</node>
	<node id="-216886" lat="59.563991665" lon="9.26662777663">
		<tag k="amenity" v="school" />
		<tag k="name" v="Notodden skole" />
		<tag k="ssr:stedsnr" v="43224" />
	</node>
	<node id="-217737" lat="59.5982166663" lon="9.12592499957">
		<tag k="name" v="Viperud" />
		<tag k="place" v="farm" />
		<tag k="ssr:stedsnr" v="246273" />
	</node>
	<node id="-216878" lat="59.8284777811" lon="8.96492222343">
		<tag k="historic" v="shieling" />
		<tag k="name" v="Bjønnåsen" />
		<tag k="place" v="locality" />
		<tag k="ssr:stedsnr" v="42745" />
	</node>
	<node id="-218925" lat="59.7445333349" lon="8.96609166238">
		<tag k="name" v="Steinbakken" />
		<tag k="place" v="locality" />
		<tag k="ssr:stedsnr" v="712964" />
	</node>
	<node id="-218924" lat="59.533772223" lon="9.30778611923">
		<tag k="name" v="Ramberg" />
		<tag k="place" v="farm" />
		<tag k="ssr:stedsnr" v="712962" />
	</node>
	<node id="-217394" lat="59.7277416625" lon="8.97973889717">
		<tag k="historic" v="shieling" />
		<tag k="name" v="Veslestul" />
		<tag k="place" v="locality" />
		<tag k="ssr:stedsnr" v="165920" />
	</node>
	<node id="-217735" lat="59.5935388918" lon="9.07751944917">
		<tag k="name" v="Øya" />
		<tag k="place" v="farm" />
		<tag k="ssr:stedsnr" v="246253" />
	</node>
	<node id="-216869" lat="59.6791027801" lon="9.32729165839">
		<tag k="name" v="Nordstulbrakka" />
		<tag k="place" v="locality" />
		<tag k="ssr:stedsnr" v="41844" />
	</node>
	<node id="-217733" lat="59.6056555524" lon="9.06268611211">
		<tag k="alt_name" v="Sud-Sauar" />
		<tag k="name" v="Sauar" />
		<tag k="place" v="farm" />
		<tag k="ssr:stedsnr" v="246248" />
	</node>
	<node id="-217741" lat="59.5503805526" lon="9.21711110901">
		<tag k="alt_name" v="Hefre" />
		<tag k="fixme" v="consider place=hamlet" />
		<tag k="name" v="Hevre" />
		<tag k="place" v="farm" />
		<tag k="ssr:stedsnr" v="246387" />
	</node>
	<node id="-218898" lat="59.7386138896" lon="9.04038889481">
		<tag k="name" v="Lislestul" />
		<tag k="place" v="locality" />
		<tag k="ssr:stedsnr" v="711985" />
	</node>
	<node id="-218896" lat="59.6891916637" lon="9.02881111792">
		<tag k="name" v="Køyta" />
		<tag k="place" v="farm" />
		<tag k="ssr:stedsnr" v="711976" />
	</node>
	<node id="-218893" lat="59.5431166626" lon="9.08842777705">
		<tag k="historic" v="shieling" />
		<tag k="name" v="Saga" />
		<tag k="place" v="locality" />
		<tag k="ssr:stedsnr" v="711954" />
	</node>
	<node id="-216843" lat="59.5619027809" lon="9.24206666394">
		<tag k="name" v="Tinnes" />
		<tag k="place" v="quarter" />
		<tag k="ssr:stedsnr" v="24284" />
	</node>
	<node id="-218884" lat="59.6529555513" lon="9.08464722661">
		<tag k="name" v="Gullbekkstulen" />
		<tag k="place" v="locality" />
		<tag k="ssr:stedsnr" v="711872" />
	</node>
	<node id="-218883" lat="59.6514749961" lon="9.21190832934">
		<tag k="name" v="Fosstveit" />
		<tag k="place" v="isolated_dwelling" />
		<tag k="ssr:stedsnr" v="711846" />
	</node>
	<node id="-217728" lat="59.6562861122" lon="9.20892499577">
		<tag k="name" v="Grønvollfoss" />
		<tag k="place" v="hamlet" />
		<tag k="ssr:stedsnr" v="246191" />
	</node>
	<node id="-218875" lat="59.6715277763" lon="9.00589999861">
		<tag k="name" v="Dalen" />
		<tag k="place" v="farm" />
		<tag k="ssr:stedsnr" v="711780" />
	</node>
	<node id="-218873" lat="59.5949915386" lon="9.15664422547">
		<tag k="alt_name" v="Løken" />
		<tag k="fixme" v="consider place=hamlet" />
		<tag k="name" v="Løkja" />
		<tag k="place" v="farm" />
		<tag k="ssr:stedsnr" v="711627" />
	</node>
	<node id="-218872" lat="59.5936249968" lon="9.12533055903">
		<tag k="name" v="Moen" />
		<tag k="place" v="farm" />
		<tag k="ssr:stedsnr" v="711600" />
	</node>
	<node id="-218870" lat="59.546461109" lon="9.22393334136">
		<tag k="name" v="Flåterud" />
		<tag k="place" v="farm" />
		<tag k="ssr:stedsnr" v="711546" />
	</node>
	<node id="-218869" lat="59.5775694414" lon="9.25828889417">
		<tag k="name" v="Hellebrekke" />
		<tag k="place" v="quarter" />
		<tag k="ssr:stedsnr" v="711545" />
	</node>
	<node id="-218868" lat="59.609274997" lon="9.28973888614">
		<tag k="name" v="Jonsli" />
		<tag k="place" v="farm" />
		<tag k="ssr:stedsnr" v="711530" />
	</node>
	<node id="-218490" lat="59.7104055549" lon="9.02427499609">
		<tag k="fixme" v="consider place=hamlet" />
		<tag k="name" v="Nisi" />
		<tag k="place" v="farm" />
		<tag k="ssr:stedsnr" v="609175" />
	</node>
	<node id="-216816" lat="59.542777774" lon="9.25552777154">
		<tag k="fixme" v="consider place=hamlet" />
		<tag k="name" v="Gyving" />
		<tag k="place" v="farm" />
		<tag k="ssr:stedsnr" v="3760" />
	</node>
	<node id="-218863" lat="59.684394449" lon="9.09460277281">
		<tag k="historic" v="shieling" />
		<tag k="name" v="Stykke" />
		<tag k="place" v="locality" />
		<tag k="ssr:stedsnr" v="711451" />
	</node>
	<node id="-218862" lat="59.5851472195" lon="9.16748611157">
		<tag k="name" v="Deila" />
		<tag k="place" v="farm" />
		<tag k="ssr:stedsnr" v="711383" />
	</node>
	<node id="-218858" lat="59.5647416638" lon="9.19776110792">
		<tag k="name" v="Juteskar" />
		<tag k="place" v="farm" />
		<tag k="ssr:stedsnr" v="711139" />
	</node>
	<node id="-218855" lat="59.5709222223" lon="9.16438056265">
		<tag k="name" v="Haugen" />
		<tag k="place" v="farm" />
		<tag k="ssr:stedsnr" v="711111" />
	</node>
	<node id="-218853" lat="59.5526722226" lon="9.21739444563">
		<tag k="name" v="Hegg" />
		<tag k="place" v="quarter" />
		<tag k="ssr:stedsnr" v="711054" />
	</node>
	<node id="-216803" lat="59.5338638869" lon="8.87110833205">
		<tag k="alt_name" v="Lindeburoe" />
		<tag k="name" v="Lindeburoa" />
		<tag k="place" v="isolated_dwelling" />
		<tag k="ssr:stedsnr" v="3332" />
	</node>
	<node id="-216802" lat="59.59285833" lon="9.04808333777">
		<tag k="fixme" v="consider place=hamlet" />
		<tag k="name" v="Langerud" />
		<tag k="place" v="farm" />
		<tag k="ssr:stedsnr" v="3304" />
	</node>
	<node id="-216801" lat="59.5874277769" lon="9.06487777267">
		<tag k="name" v="Åse" />
		<tag k="place" v="farm" />
		<tag k="ssr:stedsnr" v="3303" />
	</node>
	<node id="-216799" lat="59.6106000011" lon="9.14160000068">
		<tag k="name" v="Godli" />
		<tag k="place" v="farm" />
		<tag k="ssr:stedsnr" v="3276" />
	</node>
	<node id="-216796" lat="59.588229089" lon="9.18637521679">
		<tag k="name" v="Dalen" />
		<tag k="place" v="farm" />
		<tag k="ssr:stedsnr" v="3242" />
	</node>
	<node id="-216795" lat="59.5841416686" lon="9.15287500621">
		<tag k="alt_name" v="Roe" />
		<tag k="name" v="Rui" />
		<tag k="place" v="farm" />
		<tag k="ssr:stedsnr" v="3240" />
	</node>
	<node id="-216791" lat="59.6774027782" lon="9.11137777375">
		<tag k="name" v="Listul" />
		<tag k="place" v="isolated_dwelling" />
		<tag k="ssr:stedsnr" v="3194" />
	</node>
	<node id="-216790" lat="59.6748666703" lon="9.15975000148">
		<tag k="name" v="Kleivdal" />
		<tag k="place" v="isolated_dwelling" />
		<tag k="ssr:stedsnr" v="3193" />
	</node>
	<node id="-216789" lat="59.705488885" lon="9.10622777583">
		<tag k="alt_name" v="Runningen" />
		<tag k="name" v="Rudningen" />
		<tag k="place" v="locality" />
		<tag k="ssr:stedsnr" v="3162" />
	</node>
	<node id="-217038" lat="59.5967388332" lon="9.140345507">
		<tag k="name" v="Hegna" />
		<tag k="place" v="farm" />
		<tag k="ssr:stedsnr" v="64278" />
	</node>
	<node id="-216784" lat="59.6871583377" lon="9.06921667288">
		<tag k="name" v="Kasinhaugen" />
		<tag k="place" v="isolated_dwelling" />
		<tag k="ssr:stedsnr" v="3144" />
	</node>
	<node id="-216783" lat="59.6867027738" lon="9.05068889114">
		<tag k="name" v="Bøengrenda" />
		<tag k="place" v="hamlet" />
		<tag k="ssr:stedsnr" v="3141" />
	</node>
	<node id="-216782" lat="59.6968805574" lon="8.98458889423">
		<tag k="alt_name" v="Juvet" />
		<tag k="name" v="Gjuvet" />
		<tag k="place" v="isolated_dwelling" />
		<tag k="ssr:stedsnr" v="3131" />
	</node>
	<node id="-217037" lat="59.7551777773" lon="8.99935555322">
		<tag k="name" v="Haugero" />
		<tag k="place" v="locality" />
		<tag k="ssr:stedsnr" v="64274" />
	</node>
	<node id="-218828" lat="59.8399194429" lon="8.88856945078">
		<tag k="historic" v="shieling" />
		<tag k="name" v="Mjelteflatin" />
		<tag k="place" v="locality" />
		<tag k="ssr:stedsnr" v="707878" />
	</node>
	<node id="-216778" lat="59.6859694407" lon="9.05791111844">
		<tag k="name" v="Bjørnekasin" />
		<tag k="place" v="farm" />
		<tag k="ssr:stedsnr" v="3115" />
	</node>
	<node id="-216777" lat="59.7435749988" lon="9.01789445289">
		<tag k="name" v="Kleiva" />
		<tag k="place" v="farm" />
		<tag k="ssr:stedsnr" v="3111" />
	</node>
	<node id="-216774" lat="59.7467500032" lon="9.15196111716">
		<tag k="name" v="Dalstul" />
		<tag k="place" v="locality" />
		<tag k="ssr:stedsnr" v="3099" />
	</node>
	<node id="-216772" lat="59.7361416676" lon="9.21356666666">
		<tag k="name" v="Helleberg" />
		<tag k="place" v="farm" />
		<tag k="ssr:stedsnr" v="3094" />
	</node>
	<node id="-218814" lat="59.7735194489" lon="9.2901944405">
		<tag k="alt_name" v="Søtdalsstulen" />
		<tag k="historic" v="shieling" />
		<tag k="name" v="Søtdalen" />
		<tag k="place" v="locality" />
		<tag k="ssr:stedsnr" v="671884" />
	</node>
	<node id="-218813" lat="59.8157166695" lon="8.96827778079">
		<tag k="name" v="Storekås" />
		<tag k="place" v="isolated_dwelling" />
		<tag k="ssr:stedsnr" v="671502" />
	</node>
	<node id="-218812" lat="59.8126749981" lon="8.98817500466">
		<tag k="name" v="Haugetrå" />
		<tag k="place" v="farm" />
		<tag k="ssr:stedsnr" v="671494" />
	</node>
	<node id="-218810" lat="59.7775583294" lon="8.97909167305">
		<tag k="name" v="Fjellstul" />
		<tag k="place" v="isolated_dwelling" />
		<tag k="ssr:stedsnr" v="671476" />
	</node>
	<node id="-216761" lat="59.6185444455" lon="9.04572499181">
		<tag k="name" v="Solberg" />
		<tag k="place" v="locality" />
		<tag k="ssr:stedsnr" v="2329" />
	</node>
	<node id="-216760" lat="59.6430138926" lon="9.2168027768">
		<tag k="name" v="Morkkåsa" />
		<tag k="place" v="farm" />
		<tag k="ssr:stedsnr" v="2305" />
	</node>
	<node id="-218805" lat="59.7631083303" lon="9.06603889364">
		<tag k="name" v="Damstul" />
		<tag k="place" v="isolated_dwelling" />
		<tag k="ssr:stedsnr" v="671417" />
	</node>
	<node id="-216753" lat="59.5524551948" lon="8.93515835823">
		<tag k="fixme" v="consider tourism=alpine_hut or tourism=chalet" />
		<tag k="name" v="Himingsjå" />
		<tag k="ssr:stedsnr" v="1073628" />
		<tag k="tourism" v="wilderness_hut" />
	</node>
	<node id="-218798" lat="59.7867194447" lon="9.14072499683">
		<tag k="historic" v="shieling" />
		<tag k="name" v="Pusup" />
		<tag k="place" v="locality" />
		<tag k="ssr:stedsnr" v="671377" />
	</node>
	<node id="-218796" lat="59.6825055565" lon="9.02070277036">
		<tag k="name" v="Nymoen" />
		<tag k="place" v="isolated_dwelling" />
		<tag k="ssr:stedsnr" v="671144" />
	</node>
	<node id="-216690" lat="59.5174916683" lon="9.20975554955">
		<tag k="historic" v="shieling" />
		<tag k="name" v="Klokkjerstul" />
		<tag k="place" v="locality" />
		<tag k="ssr:stedsnr" v="894499" />
	</node>
	<node id="-218794" lat="59.6846555555" lon="9.10390832612">
		<tag k="name" v="Sigurdsrud" />
		<tag k="place" v="farm" />
		<tag k="ssr:stedsnr" v="671129" />
	</node>
	<node id="-218793" lat="59.6938999978" lon="9.09240555324">
		<tag k="name" v="Rugholt" />
		<tag k="place" v="farm" />
		<tag k="ssr:stedsnr" v="671130" />
	</node>
	<node id="-218791" lat="59.5350250007" lon="9.26629167078">
		<tag k="fixme" v="consider place=hamlet" />
		<tag k="name" v="Søndre Strand" />
		<tag k="place" v="farm" />
		<tag k="ssr:stedsnr" v="671003" />
	</node>
	<node id="-216741" lat="59.6793972186" lon="9.02173610983">
		<tag k="name" v="Nautestret" />
		<tag k="place" v="farm" />
		<tag k="ssr:stedsnr" v="895774" />
	</node>
	<node id="-218781" lat="59.5406527768" lon="9.21924999185">
		<tag k="name" v="Bergskot" />
		<tag k="place" v="farm" />
		<tag k="ssr:stedsnr" v="670760" />
	</node>
	<node id="-218779" lat="59.5584011413" lon="9.27531403843">
		<tag k="name" v="Tinne" />
		<tag k="place" v="farm" />
		<tag k="ssr:stedsnr" v="670742" />
	</node>
	<node id="-218778" lat="59.5149500022" lon="9.29020000854">
		<tag k="name" v="Plassen" />
		<tag k="place" v="farm" />
		<tag k="ssr:stedsnr" v="670716" />
	</node>
	<node id="-218777" lat="59.7421500042" lon="9.30677222899">
		<tag k="name" v="Heimstul" />
		<tag k="place" v="locality" />
		<tag k="ssr:stedsnr" v="670458" />
	</node>
	<node id="-218776" lat="59.5519861122" lon="9.0691083267">
		<tag k="alt_name" v="Langetjønnstul" />
		<tag k="name" v="Langetjørnstulen" />
		<tag k="place" v="isolated_dwelling" />
		<tag k="ssr:stedsnr" v="670422" />
	</node>
	<node id="-217028" lat="59.7103499992" lon="9.03723056097">
		<tag k="name" v="Lia" />
		<tag k="place" v="farm" />
		<tag k="ssr:stedsnr" v="64160" />
	</node>
	<node id="-216345" lat="59.6364222204" lon="9.14309167277">
		<tag k="historic" v="shieling" />
		<tag k="name" v="Koppeset" />
		<tag k="place" v="locality" />
		<tag k="ssr:stedsnr" v="347897" />
	</node>
	<node id="-218771" lat="59.5613194442" lon="9.19398611422">
		<tag k="name" v="Yli" />
		<tag k="place" v="quarter" />
		<tag k="ssr:stedsnr" v="670401" />
	</node>
	<node id="-217027" lat="59.7005250035" lon="8.973949992">
		<tag k="name" v="Meland" />
		<tag k="place" v="locality" />
		<tag k="ssr:stedsnr" v="64159" />
	</node>
	<node id="-218767" lat="59.5794916686" lon="9.15901389739">
		<tag k="fixme" v="consider place=hamlet" />
		<tag k="name" v="Herbjørnsrud" />
		<tag k="place" v="farm" />
		<tag k="ssr:stedsnr" v="670362" />
	</node>
	<node id="-218766" lat="59.5868444403" lon="9.12007500783">
		<tag k="name" v="Tveiten" />
		<tag k="place" v="farm" />
		<tag k="ssr:stedsnr" v="670335" />
	</node>
	<node id="-218765" lat="59.577827781" lon="9.14689445142">
		<tag k="name" v="Knurrlia" />
		<tag k="place" v="farm" />
		<tag k="ssr:stedsnr" v="670332" />
	</node>
	<node id="-218764" lat="59.6200749963" lon="9.03431111864">
		<tag k="name" v="Bekkestul" />
		<tag k="place" v="isolated_dwelling" />
		<tag k="ssr:stedsnr" v="670305" />
	</node>
	<node id="-218763" lat="59.6092138852" lon="9.11540555848">
		<tag k="fixme" v="consider place=hamlet" />
		<tag k="name" v="Seljord" />
		<tag k="place" v="farm" />
		<tag k="ssr:stedsnr" v="670294" />
	</node>
	<node id="-218762" lat="59.593247226" lon="9.1425305525">
		<tag k="name" v="Kolbjørnsrud" />
		<tag k="place" v="farm" />
		<tag k="ssr:stedsnr" v="670263" />
	</node>
	<node id="-218760" lat="59.5962136316" lon="9.06282940559">
		<tag k="name" v="Hægar" />
		<tag k="place" v="farm" />
		<tag k="ssr:stedsnr" v="670243" />
	</node>
	<node id="-218759" lat="59.6715166661" lon="9.00575000472">
		<tag k="name" v="Kåsalia" />
		<tag k="place" v="farm" />
		<tag k="ssr:stedsnr" v="670237" />
	</node>
	<node id="-218758" lat="59.6820500021" lon="9.05339444699">
		<tag k="name" v="Seljordslia" />
		<tag k="place" v="farm" />
		<tag k="ssr:stedsnr" v="670232" />
	</node>
	<node id="-216707" lat="59.6894333352" lon="9.04692499806">
		<tag k="name" v="Åsluten" />
		<tag k="place" v="locality" />
		<tag k="ssr:stedsnr" v="894837" />
	</node>
	<node id="-218754" lat="59.6472444479" lon="9.00526389663">
		<tag k="name" v="Bakken" />
		<tag k="place" v="isolated_dwelling" />
		<tag k="ssr:stedsnr" v="670211" />
	</node>
	<node id="-218753" lat="59.6515194418" lon="9.18676666854">
		<tag k="name" v="Myra" />
		<tag k="place" v="isolated_dwelling" />
		<tag k="ssr:stedsnr" v="670201" />
	</node>
	<node id="-216701" lat="59.6030333295" lon="9.16099166425">
		<tag k="name" v="Kvennestugo" />
		<tag k="place" v="farm" />
		<tag k="ssr:stedsnr" v="894656" />
	</node>
	<node id="-218748" lat="59.7089777744" lon="9.17546388827">
		<tag k="alt_name" v="Sollid" />
		<tag k="name" v="Solli" />
		<tag k="place" v="farm" />
		<tag k="ssr:stedsnr" v="670159" />
	</node>
	<node id="-216699" lat="59.5991111086" lon="9.15022499248">
		<tag k="fixme" v="consider place=hamlet" />
		<tag k="name" v="Nyhus" />
		<tag k="place" v="farm" />
		<tag k="ssr:stedsnr" v="894637" />
	</node>
	<node id="-218746" lat="59.6838888856" lon="8.99262500708">
		<tag k="name" v="Lia" />
		<tag k="place" v="locality" />
		<tag k="ssr:stedsnr" v="670142" />
	</node>
	<node id="-216697" lat="59.5951277822" lon="9.26460832976">
		<tag k="name" v="Høymyrmoen" />
		<tag k="place" v="farm" />
		<tag k="ssr:stedsnr" v="894576" />
	</node>
	<node id="-216695" lat="59.5220500009" lon="9.27110277683">
		<tag k="name" v="Simones" />
		<tag k="place" v="farm" />
		<tag k="ssr:stedsnr" v="894540" />
	</node>
	<node id="-216694" lat="59.5188416661" lon="9.28333333968">
		<tag k="fixme" v="consider place=hamlet" />
		<tag k="name" v="Simones" />
		<tag k="place" v="farm" />
		<tag k="ssr:stedsnr" v="894536" />
	</node>
	<node id="-218738" lat="59.7606638886" lon="8.94430000881">
		<tag k="name" v="Rånebua" />
		<tag k="place" v="isolated_dwelling" />
		<tag k="ssr:stedsnr" v="671270" />
	</node>
	<node id="-218737" lat="59.7665361146" lon="9.08802221478">
		<tag k="name" v="Kyrkjetomta" />
		<tag k="place" v="locality" />
		<tag k="ssr:stedsnr" v="666389" />
	</node>
	<node id="-216688" lat="59.5724027738" lon="9.19417499627">
		<tag k="name" v="Tjønn" />
		<tag k="place" v="farm" />
		<tag k="ssr:stedsnr" v="894413" />
	</node>
	<node id="-216687" lat="59.5738222192" lon="9.1851861147">
		<tag k="name" v="Øya" />
		<tag k="place" v="farm" />
		<tag k="ssr:stedsnr" v="894407" />
	</node>
	<node id="-216685" lat="59.5663000031" lon="9.25579166212">
		<tag k="amenity" v="hospital" />
		<tag k="name" v="Notodden sjukehus" />
		<tag k="ssr:stedsnr" v="894285" />
	</node>
	<node id="-216684" lat="59.5789111131" lon="9.17155278379">
		<tag k="name" v="Deila" />
		<tag k="place" v="farm" />
		<tag k="ssr:stedsnr" v="894213" />
	</node>
	<node id="-216682" lat="59.5635972181" lon="9.23951666134">
		<tag k="fixme" v="consider place=hamlet" />
		<tag k="name" v="Tinnes nordre" />
		<tag k="place" v="farm" />
		<tag k="ssr:stedsnr" v="894161" />
	</node>
	<node id="-216679" lat="59.5612750037" lon="9.19215834132">
		<tag k="amenity" v="school" />
		<tag k="name" v="Yli skole" />
		<tag k="ssr:stedsnr" v="894134" />
	</node>
	<node id="-216680" lat="59.713358335" lon="9.02681944374">
		<tag k="name" v="Nisi" />
		<tag k="place" v="farm" />
		<tag k="ssr:stedsnr" v="894151" />
	</node>
	<node id="-217020" lat="59.7429583334" lon="8.98885832979">
		<tag k="name" v="Kolistulen" />
		<tag k="place" v="isolated_dwelling" />
		<tag k="ssr:stedsnr" v="64114" />
	</node>
	<node id="-216673" lat="59.5691361143" lon="9.21409999403">
		<tag k="name" v="Rognestå" />
		<tag k="place" v="quarter" />
		<tag k="ssr:stedsnr" v="894019" />
	</node>
	<node id="-218717" lat="59.7981027789" lon="9.19091667192">
		<tag k="historic" v="shieling" />
		<tag k="name" v="Grotbua" />
		<tag k="place" v="locality" />
		<tag k="ssr:stedsnr" v="664019" />
	</node>
	<node id="-216665" lat="59.6818388845" lon="9.10526944788">
		<tag k="historic" v="shieling" />
		<tag k="name" v="Bergelia" />
		<tag k="place" v="locality" />
		<tag k="ssr:stedsnr" v="893443" />
	</node>
	<node id="-216661" lat="59.6808444404" lon="9.15300000621">
		<tag k="historic" v="shieling" />
		<tag k="name" v="Sud-Årlia" />
		<tag k="place" v="locality" />
		<tag k="ssr:stedsnr" v="893030" />
	</node>
	<node id="-216660" lat="59.8308374704" lon="8.98103796852">
		<tag k="name" v="Sanden" />
		<tag k="place" v="farm" />
		<tag k="ssr:stedsnr" v="892799" />
	</node>
	<node id="-216658" lat="59.8162305547" lon="8.98788055642">
		<tag k="name" v="Bøen" />
		<tag k="place" v="farm" />
		<tag k="ssr:stedsnr" v="892761" />
	</node>
	<node id="-216656" lat="59.73713333" lon="9.31466110998">
		<tag k="historic" v="shieling" />
		<tag k="name" v="Dålåstul" />
		<tag k="place" v="locality" />
		<tag k="ssr:stedsnr" v="891937" />
	</node>
	<node id="-218702" lat="59.5572916631" lon="9.42095277192">
		<tag k="historic" v="shieling" />
		<tag k="name" v="Skvakkhaug" />
		<tag k="place" v="locality" />
		<tag k="ssr:stedsnr" v="652897" />
	</node>
	<node id="-216652" lat="59.6802671785" lon="9.31880903002">
		<tag k="historic" v="shieling" />
		<tag k="name" v="Nordstul" />
		<tag k="place" v="locality" />
		<tag k="ssr:stedsnr" v="891859" />
	</node>
	<node id="-216331" lat="59.6103527823" lon="9.13058611569">
		<tag k="name" v="Kåsa" />
		<tag k="place" v="farm" />
		<tag k="ssr:stedsnr" v="347591" />
	</node>
	<node id="-218674" lat="59.6616444469" lon="8.95851111781">
		<tag k="name" v="Krossfurudalen" />
		<tag k="place" v="locality" />
		<tag k="ssr:stedsnr" v="651235" />
	</node>
	<node id="-218666" lat="59.6857777749" lon="9.15950555848">
		<tag k="historic" v="shieling" />
		<tag k="name" v="Kåsa" />
		<tag k="place" v="locality" />
		<tag k="ssr:stedsnr" v="651016" />
	</node>
	<node id="-216609" lat="59.5366055511" lon="8.94890556263">
		<tag k="name" v="Brøløs" />
		<tag k="place" v="isolated_dwelling" />
		<tag k="ssr:stedsnr" v="409337" />
	</node>
	<node id="-216324" lat="59.6889888933" lon="9.09947500453">
		<tag k="name" v="Nille" />
		<tag k="place" v="locality" />
		<tag k="ssr:stedsnr" v="347491" />
	</node>
	<node id="-216593" lat="59.736858333" lon="8.99410555341">
		<tag k="name" v="Ormebrekke" />
		<tag k="place" v="locality" />
		<tag k="ssr:stedsnr" v="408974" />
	</node>
	<node id="-218638" lat="59.5957527771" lon="9.14855555724">
		<tag k="name" v="Haugan" />
		<tag k="place" v="farm" />
		<tag k="ssr:stedsnr" v="650574" />
	</node>
	<node id="-218637" lat="59.6050277781" lon="9.1403694469">
		<tag k="name" v="Håberg nordre" />
		<tag k="place" v="farm" />
		<tag k="ssr:stedsnr" v="650559" />
	</node>
	<node id="-218635" lat="59.5481666655" lon="9.23668888482">
		<tag k="name" v="Åshildrud" />
		<tag k="place" v="farm" />
		<tag k="ssr:stedsnr" v="650525" />
	</node>
	<node id="-216580" lat="59.6445388861" lon="9.1139444482">
		<tag k="name" v="Myrastul" />
		<tag k="place" v="locality" />
		<tag k="ssr:stedsnr" v="408845" />
	</node>
	<node id="-217744" lat="59.7860944414" lon="8.99609443685">
		<tag k="name" v="Dalen" />
		<tag k="place" v="locality" />
		<tag k="ssr:stedsnr" v="246440" />
	</node>
	<node id="-218622" lat="59.5592138909" lon="9.2696722274">
		<tag k="name" v="Kattekleiv" />
		<tag k="place" v="quarter" />
		<tag k="ssr:stedsnr" v="650185" />
	</node>
	<node id="-218621" lat="59.5822611099" lon="9.06346943761">
		<tag k="name" v="Kåsa" />
		<tag k="place" v="locality" />
		<tag k="ssr:stedsnr" v="650177" />
	</node>
	<node id="-218620" lat="59.5922361086" lon="9.05246111544">
		<tag k="name" v="Langerud" />
		<tag k="place" v="farm" />
		<tag k="ssr:stedsnr" v="650165" />
	</node>
	<node id="-218619" lat="59.5916138886" lon="9.15187777471">
		<tag k="name" v="Løkjamoen" />
		<tag k="place" v="farm" />
		<tag k="ssr:stedsnr" v="650164" />
	</node>
	<node id="-216570" lat="59.5996583331" lon="9.11356110349">
		<tag k="name" v="Vegen" />
		<tag k="place" v="farm" />
		<tag k="ssr:stedsnr" v="408576" />
	</node>
	<node id="-218617" lat="59.583141664" lon="9.17710278136">
		<tag k="name" v="Rygi" />
		<tag k="place" v="farm" />
		<tag k="ssr:stedsnr" v="650153" />
	</node>
	<node id="-218616" lat="59.56263611" lon="9.25173332763">
		<tag k="fixme" v="consider place=hamlet" />
		<tag k="name" v="Tinnes søndre" />
		<tag k="place" v="farm" />
		<tag k="ssr:stedsnr" v="650136" />
	</node>
	<node id="-218615" lat="59.5855361143" lon="9.08252776977">
		<tag k="name" v="Duverud" />
		<tag k="place" v="farm" />
		<tag k="ssr:stedsnr" v="650131" />
	</node>
	<node id="-218605" lat="59.6846472178" lon="9.13295554946">
		<tag k="name" v="Nord-Årlia" />
		<tag k="place" v="farm" />
		<tag k="ssr:stedsnr" v="650068" />
	</node>
	<node id="-216556" lat="59.5763055564" lon="9.19582499481">
		<tag k="name" v="Trolldalen" />
		<tag k="place" v="quarter" />
		<tag k="ssr:stedsnr" v="408400" />
	</node>
	<node id="-216553" lat="59.5789611075" lon="9.20058055562">
		<tag k="name" v="Runningen" />
		<tag k="place" v="farm" />
		<tag k="ssr:stedsnr" v="408340" />
	</node>
	<node id="-216550" lat="59.5937722194" lon="9.15107778289">
		<tag k="name" v="Løkjamoen" />
		<tag k="place" v="farm" />
		<tag k="ssr:stedsnr" v="408181" />
	</node>
	<node id="-218597" lat="59.8108555549" lon="8.98528888914">
		<tag k="name" v="Sjosåsen" />
		<tag k="place" v="farm" />
		<tag k="ssr:stedsnr" v="648770" />
	</node>
	<node id="-216548" lat="59.6007444463" lon="9.01808055458">
		<tag k="name" v="Dalen" />
		<tag k="place" v="farm" />
		<tag k="ssr:stedsnr" v="408168" />
	</node>
	<node id="-218591" lat="59.7739277764" lon="9.16575278148">
		<tag k="name" v="Breivassdalen" />
		<tag k="place" v="isolated_dwelling" />
		<tag k="ssr:stedsnr" v="648349" />
	</node>
	<node id="-218580" lat="59.7311194475" lon="9.26014722576">
		<tag k="name" v="Øygarden" />
		<tag k="place" v="farm" />
		<tag k="ssr:stedsnr" v="646931" />
	</node>
	<node id="-218578" lat="59.6670694455" lon="9.40179722184">
		<tag k="historic" v="shieling" />
		<tag k="name" v="Bjønndalshytta" />
		<tag k="place" v="locality" />
		<tag k="ssr:stedsnr" v="646925" />
	</node>
	<node id="-218575" lat="59.6459527753" lon="9.32246389578">
		<tag k="historic" v="shieling" />
		<tag k="name" v="Dårbu" />
		<tag k="place" v="locality" />
		<tag k="ssr:stedsnr" v="646859" />
	</node>
	<node id="-218567" lat="59.5357583331" lon="9.2969916648">
		<tag k="name" v="Ramberg" />
		<tag k="place" v="hamlet" />
		<tag k="ssr:stedsnr" v="631270" />
	</node>
	<node id="-216517" lat="59.7247694462" lon="9.27405555826">
		<tag k="name" v="Uppigard Bolkesjø hotell" />
		<tag k="ssr:stedsnr" v="404996" />
		<tag k="tourism" v="hotel" />
	</node>
	<node id="-218564" lat="59.8178694485" lon="8.86619722103">
		<tag k="alt_name" v="Vasslian" />
		<tag k="name" v="Vasslii" />
		<tag k="place" v="isolated_dwelling" />
		<tag k="ssr:stedsnr" v="611449" />
	</node>
	<node id="-218561" lat="59.5083805513" lon="9.252872214">
		<tag k="historic" v="shieling" />
		<tag k="name" v="Simonesvihus" />
		<tag k="place" v="locality" />
		<tag k="ssr:stedsnr" v="610726" />
	</node>
	<node id="-218558" lat="59.8049194411" lon="8.93394166769">
		<tag k="name" v="Bekkestul" />
		<tag k="place" v="isolated_dwelling" />
		<tag k="ssr:stedsnr" v="610533" />
	</node>
	<node id="-218555" lat="59.7830861145" lon="9.00263333896">
		<tag k="name" v="Timmerkastet" />
		<tag k="place" v="isolated_dwelling" />
		<tag k="ssr:stedsnr" v="610523" />
	</node>
	<node id="-218547" lat="59.5707250016" lon="9.02673888282">
		<tag k="name" v="Nystul" />
		<tag k="place" v="isolated_dwelling" />
		<tag k="ssr:stedsnr" v="610447" />
	</node>
	<node id="-216496" lat="59.8667333311" lon="8.9186055638">
		<tag k="alt_name" v="Juvstul" />
		<tag k="name" v="Gjuvstulen" />
		<tag k="place" v="isolated_dwelling" />
		<tag k="ssr:stedsnr" v="368503" />
	</node>
	<node id="-218543" lat="59.559252775" lon="9.17066666065">
		<tag k="name" v="Øygarden" />
		<tag k="place" v="isolated_dwelling" />
		<tag k="ssr:stedsnr" v="610439" />
	</node>
	<node id="-218541" lat="59.5904055585" lon="9.13257223082">
		<tag k="name" v="Villand" />
		<tag k="place" v="farm" />
		<tag k="ssr:stedsnr" v="610316" />
	</node>
	<node id="-218540" lat="59.5980138903" lon="9.15311111167">
		<tag k="name" v="Stivi" />
		<tag k="place" v="farm" />
		<tag k="ssr:stedsnr" v="610312" />
	</node>
	<node id="-216490" lat="59.7779055569" lon="9.09956667167">
		<tag k="name" v="Høymyr" />
		<tag k="place" v="isolated_dwelling" />
		<tag k="ssr:stedsnr" v="368403" />
	</node>
	<node id="-218536" lat="59.6843861095" lon="9.13818611396">
		<tag k="fixme" v="consider place=hamlet" />
		<tag k="name" v="Årlia" />
		<tag k="place" v="farm" />
		<tag k="ssr:stedsnr" v="610154" />
	</node>
	<node id="-218533" lat="59.7460833365" lon="8.94996388656">
		<tag k="alt_name" v="Høgebrenne" />
		<tag k="name" v="Høgbrenna" />
		<tag k="place" v="isolated_dwelling" />
		<tag k="ssr:stedsnr" v="610009" />
	</node>
	<node id="-216482" lat="59.612672218" lon="9.2704722155">
		<tag k="name" v="Landsverk" />
		<tag k="place" v="farm" />
		<tag k="ssr:stedsnr" v="367854" />
	</node>
	<node id="-217266" lat="59.5726777769" lon="9.1601555508">
		<tag k="fixme" v="consider place=hamlet" />
		<tag k="name" v="Glittenberg" />
		<tag k="place" v="farm" />
		<tag k="ssr:stedsnr" v="124278" />
	</node>
	<node id="-218525" lat="59.6465305598" lon="9.22227222942">
		<tag k="name" v="Barrikmo" />
		<tag k="place" v="farm" />
		<tag k="ssr:stedsnr" v="609861" />
	</node>
	<node id="-218524" lat="59.6142527776" lon="9.28395000418">
		<tag k="name" v="Bråtelia" />
		<tag k="place" v="farm" />
		<tag k="ssr:stedsnr" v="609846" />
	</node>
	<node id="-216474" lat="59.8135555537" lon="8.98774999178">
		<tag k="fixme" v="consider place=hamlet" />
		<tag k="name" v="Feten" />
		<tag k="place" v="farm" />
		<tag k="ssr:stedsnr" v="367421" />
	</node>
	<node id="-216471" lat="59.7222499993" lon="9.27272500463">
		<tag k="name" v="Oppigard" />
		<tag k="place" v="farm" />
		<tag k="ssr:stedsnr" v="367387" />
	</node>
	<node id="-218517" lat="59.6074472184" lon="9.35384721779">
		<tag k="historic" v="shieling" />
		<tag k="name" v="Tovestul" />
		<tag k="place" v="locality" />
		<tag k="ssr:stedsnr" v="609784" />
	</node>
	<node id="-218516" lat="59.5667999984" lon="9.25287222734">
		<tag k="name" v="Øygarden" />
		<tag k="place" v="farm" />
		<tag k="ssr:stedsnr" v="609777" />
	</node>
	<node id="-218515" lat="59.574797222" lon="9.4333222243">
		<tag k="alt_name" v="Rjomestul" />
		<tag k="historic" v="shieling" />
		<tag k="name" v="Romestul" />
		<tag k="place" v="locality" />
		<tag k="ssr:stedsnr" v="609775" />
	</node>
	<node id="-216465" lat="59.586452774" lon="9.07706110477">
		<tag k="alt_name" v="Tråserud;Troserud" />
		<tag k="fixme" v="consider place=hamlet" />
		<tag k="name" v="Trosarud" />
		<tag k="place" v="farm" />
		<tag k="ssr:stedsnr" v="367277" />
	</node>
	<node id="-216464" lat="59.5904638861" lon="9.08640277921">
		<tag k="name" v="Vollan" />
		<tag k="place" v="farm" />
		<tag k="ssr:stedsnr" v="367276" />
	</node>
	<node id="-216463" lat="59.5649499989" lon="9.17182777179">
		<tag k="name" v="Hustveit" />
		<tag k="place" v="farm" />
		<tag k="ssr:stedsnr" v="367272" />
	</node>
	<node id="-216462" lat="59.5914305518" lon="9.13156666437">
		<tag k="name" v="Moen" />
		<tag k="place" v="farm" />
		<tag k="ssr:stedsnr" v="367229" />
	</node>
	<node id="-218507" lat="59.526350003" lon="9.19323332732">
		<tag k="name" v="Smedstul" />
		<tag k="place" v="isolated_dwelling" />
		<tag k="ssr:stedsnr" v="609391" />
	</node>
	<node id="-218506" lat="59.5163916709" lon="8.85716110561">
		<tag k="name" v="Sunnstul" />
		<tag k="place" v="isolated_dwelling" />
		<tag k="ssr:stedsnr" v="609380" />
	</node>
	<node id="-218505" lat="59.5681083337" lon="9.21218333518">
		<tag k="fixme" v="consider place=suburb, village or hamlet" />
		<tag k="name" v="Strupa" />
		<tag k="place" v="quarter" />
		<tag k="ssr:stedsnr" v="609345" />
	</node>
	<node id="-216455" lat="59.6761833301" lon="8.94554165968">
		<tag k="name" v="Plassen" />
		<tag k="place" v="farm" />
		<tag k="ssr:stedsnr" v="367188" />
	</node>
	<node id="-218499" lat="59.5832750006" lon="9.17296666915">
		<tag k="name" v="Rygi" />
		<tag k="place" v="farm" />
		<tag k="ssr:stedsnr" v="609254" />
	</node>
	<node id="-218498" lat="59.6771861131" lon="9.03346388462">
		<tag k="fixme" v="consider place=hamlet" />
		<tag k="name" v="Grandås" />
		<tag k="place" v="farm" />
		<tag k="ssr:stedsnr" v="609233" />
	</node>
	<node id="-216449" lat="59.7014388909" lon="9.03688333351">
		<tag k="fixme" v="consider place=hamlet" />
		<tag k="name" v="Li" />
		<tag k="place" v="farm" />
		<tag k="ssr:stedsnr" v="367152" />
	</node>
	<node id="-216448" lat="59.7018833345" lon="8.98430554779">
		<tag k="fixme" v="consider place=hamlet" />
		<tag k="name" v="Brekke" />
		<tag k="place" v="farm" />
		<tag k="ssr:stedsnr" v="367146" />
	</node>
	<node id="-218495" lat="59.6734361087" lon="9.0726083373">
		<tag k="name" v="Åsen" />
		<tag k="place" v="isolated_dwelling" />
		<tag k="ssr:stedsnr" v="609209" />
	</node>
	<node id="-216446" lat="59.6951750013" lon="9.07119722243">
		<tag k="fixme" v="consider place=hamlet" />
		<tag k="name" v="Kopsland" />
		<tag k="place" v="farm" />
		<tag k="ssr:stedsnr" v="367131" />
	</node>
	<node id="-216445" lat="59.6813249997" lon="9.04247500628">
		<tag k="fixme" v="consider place=hamlet" />
		<tag k="name" v="Romme" />
		<tag k="place" v="farm" />
		<tag k="ssr:stedsnr" v="367130" />
	</node>
	<node id="-216442" lat="59.6899000023" lon="9.09788333811">
		<tag k="name" v="Moen" />
		<tag k="place" v="farm" />
		<tag k="ssr:stedsnr" v="367111" />
	</node>
	<node id="-216441" lat="59.6941777813" lon="9.11209166158">
		<tag k="alt_name" v="Jore" />
		<tag k="name" v="Jordet" />
		<tag k="place" v="farm" />
		<tag k="ssr:stedsnr" v="367112" />
	</node>
	<node id="-216440" lat="59.737749997" lon="8.99944443594">
		<tag k="alt_name" v="Kåli" />
		<tag k="fixme" v="consider place=hamlet" />
		<tag k="name" v="Koli" />
		<tag k="place" v="farm" />
		<tag k="ssr:stedsnr" v="367107" />
	</node>
	<node id="-216439" lat="59.7376500034" lon="8.9901944383">
		<tag k="name" v="Lislerud" />
		<tag k="place" v="isolated_dwelling" />
		<tag k="ssr:stedsnr" v="367105" />
	</node>
	<node id="-216438" lat="59.7373111096" lon="9.14313055378">
		<tag k="name" v="Svartebu" />
		<tag k="place" v="locality" />
		<tag k="ssr:stedsnr" v="367095" />
	</node>
	<node id="-216437" lat="59.7472944415" lon="9.20045000183">
		<tag k="name" v="Berglia" />
		<tag k="place" v="farm" />
		<tag k="ssr:stedsnr" v="367089" />
	</node>
	<node id="-216431" lat="59.7447305589" lon="8.96464444948">
		<tag k="name" v="Steinbakken" />
		<tag k="place" v="isolated_dwelling" />
		<tag k="ssr:stedsnr" v="367002" />
	</node>
	<node id="-216429" lat="59.7108305519" lon="9.25844721786">
		<tag k="alt_name" v="Dalviken" />
		<tag k="name" v="Dalvika" />
		<tag k="place" v="farm" />
		<tag k="ssr:stedsnr" v="366958" />
	</node>
	<node id="-218474" lat="59.8668750005" lon="8.93134722924">
		<tag k="historic" v="shieling" />
		<tag k="name" v="Perskås" />
		<tag k="place" v="locality" />
		<tag k="ssr:stedsnr" v="604011" />
	</node>
	<node id="-218473" lat="59.7059388873" lon="8.94885277702">
		<tag k="historic" v="shieling" />
		<tag k="name" v="Nystul" />
		<tag k="place" v="locality" />
		<tag k="ssr:stedsnr" v="603985" />
	</node>
	<node id="-217660" lat="59.5327805547" lon="9.29807222334">
		<tag k="name" v="Ramberg" />
		<tag k="place" v="farm" />
		<tag k="ssr:stedsnr" v="227968" />
	</node>
	<node id="-216416" lat="59.762255554" lon="9.22524999938">
		<tag k="name" v="Nordstul" />
		<tag k="place" v="neighbourhood" />
		<tag k="ssr:stedsnr" v="362463" />
	</node>
	<node id="-218453" lat="59.7608638865" lon="9.01092778459">
		<tag k="historic" v="shieling" />
		<tag k="name" v="Lynnedal" />
		<tag k="place" v="locality" />
		<tag k="ssr:stedsnr" v="601070" />
	</node>
	<node id="-218452" lat="59.7446250038" lon="8.96191388642">
		<tag k="name" v="Nystul" />
		<tag k="place" v="locality" />
		<tag k="ssr:stedsnr" v="591964" />
	</node>
	<node id="-218449" lat="59.5330749976" lon="8.93700554913">
		<tag k="name" v="Gavlesjåhytta" />
		<tag k="place" v="isolated_dwelling" />
		<tag k="ssr:stedsnr" v="591940" />
	</node>
	<node id="-219806" lat="59.537773656" lon="9.2634733933">
		<tag k="name" v="Strand" />
		<tag k="place" v="hamlet" />
		<tag k="ssr:stedsnr" v="980304" />
	</node>
	<node id="-218442" lat="59.6191194454" lon="9.05432222759">
		<tag k="name" v="Solbergstulen" />
		<tag k="place" v="locality" />
		<tag k="ssr:stedsnr" v="591203" />
	</node>
	<node id="-216393" lat="59.7550833292" lon="8.99922222037">
		<tag k="historic" v="shieling" />
		<tag k="name" v="Haugero" />
		<tag k="place" v="locality" />
		<tag k="ssr:stedsnr" v="358085" />
	</node>
	<node id="-216389" lat="59.5251472188" lon="9.30599445169">
		<tag k="name" v="Tveitan" />
		<tag k="place" v="farm" />
		<tag k="ssr:stedsnr" v="349853" />
	</node>
	<node id="-218433" lat="59.5308111094" lon="9.30484166167">
		<tag k="name" v="Ramberg" />
		<tag k="place" v="farm" />
		<tag k="ssr:stedsnr" v="590953" />
	</node>
	<node id="-216384" lat="59.6987777746" lon="9.02327500053">
		<tag k="name" v="Årud" />
		<tag k="place" v="locality" />
		<tag k="ssr:stedsnr" v="348922" />
	</node>
	<node id="-218423" lat="59.6411972207" lon="9.17660277695">
		<tag k="name" v="Diplestul" />
		<tag k="place" v="locality" />
		<tag k="ssr:stedsnr" v="590859" />
	</node>
	<node id="-218420" lat="59.6562444464" lon="9.22424721445">
		<tag k="name" v="Oddestul" />
		<tag k="place" v="locality" />
		<tag k="ssr:stedsnr" v="590810" />
	</node>
	<node id="-216370" lat="59.5933722202" lon="9.43778055441">
		<tag k="name" v="Drive" />
		<tag k="place" v="locality" />
		<tag k="ssr:stedsnr" v="348130" />
	</node>
	<node id="-216363" lat="59.5837416675" lon="9.30824444772">
		<tag k="name" v="Leivstein" />
		<tag k="place" v="locality" />
		<tag k="ssr:stedsnr" v="348063" />
	</node>
	<node id="-216361" lat="59.6210194408" lon="9.24642777642">
		<tag k="name" v="Nystul" />
		<tag k="place" v="locality" />
		<tag k="ssr:stedsnr" v="347991" />
	</node>
	<node id="-218406" lat="59.6030277754" lon="9.14351110735">
		<tag k="name" v="Håberg" />
		<tag k="place" v="farm" />
		<tag k="ssr:stedsnr" v="590601" />
	</node>
	<node id="-218405" lat="59.595566669" lon="9.11510277359">
		<tag k="name" v="Sundet" />
		<tag k="place" v="farm" />
		<tag k="ssr:stedsnr" v="590588" />
	</node>
	<node id="-218404" lat="59.5418305554" lon="9.21223888701">
		<tag k="name" v="Deilkås" />
		<tag k="place" v="farm" />
		<tag k="ssr:stedsnr" v="590558" />
	</node>
	<node id="-216354" lat="59.6160638899" lon="9.2841805555">
		<tag k="name" v="Snippen" />
		<tag k="place" v="isolated_dwelling" />
		<tag k="ssr:stedsnr" v="347961" />
	</node>
	<node id="-218400" lat="59.5164527773" lon="9.28756388089">
		<tag k="name" v="Simones" />
		<tag k="place" v="farm" />
		<tag k="ssr:stedsnr" v="590503" />
	</node>
	<node id="-218398" lat="59.5207861138" lon="9.19838611494">
		<tag k="historic" v="shieling" />
		<tag k="name" v="Gullbekkseter" />
		<tag k="place" v="locality" />
		<tag k="ssr:stedsnr" v="590467" />
	</node>
	<node id="-218396" lat="59.5725527801" lon="9.19168332453">
		<tag k="name" v="Moen" />
		<tag k="place" v="farm" />
		<tag k="ssr:stedsnr" v="590331" />
	</node>
	<node id="-218394" lat="59.5691138933" lon="9.27925278572">
		<tag k="name" v="Setre" />
		<tag k="place" v="farm" />
		<tag k="ssr:stedsnr" v="590214" />
	</node>
	<node id="-218393" lat="59.5835277775" lon="9.13102221796">
		<tag k="name" v="Grene nordre" />
		<tag k="place" v="farm" />
		<tag k="ssr:stedsnr" v="590205" />
	</node>
	<node id="-218389" lat="59.581880553" lon="9.17057777828">
		<tag k="amenity" v="school" />
		<tag k="name" v="Rygi skole" />
		<tag k="ssr:stedsnr" v="590183" />
	</node>
	<node id="-218387" lat="59.5927999975" lon="9.09746110313">
		<tag k="name" v="Øygarden" />
		<tag k="place" v="farm" />
		<tag k="ssr:stedsnr" v="590155" />
	</node>
	<node id="-218385" lat="59.7221833294" lon="9.04607499916">
		<tag k="historic" v="shieling" />
		<tag k="name" v="Dalen" />
		<tag k="place" v="locality" />
		<tag k="ssr:stedsnr" v="590152" />
	</node>
	<node id="-216335" lat="59.6928944475" lon="8.95373055307">
		<tag k="name" v="Skardet" />
		<tag k="place" v="locality" />
		<tag k="ssr:stedsnr" v="347766" />
	</node>
	<node id="-216332" lat="59.6006722206" lon="9.17020000124">
		<tag k="name" v="Hagen" />
		<tag k="place" v="farm" />
		<tag k="ssr:stedsnr" v="347606" />
	</node>
	<node id="-218379" lat="59.5849166641" lon="9.06001943567">
		<tag k="name" v="Åse" />
		<tag k="place" v="farm" />
		<tag k="ssr:stedsnr" v="590099" />
	</node>
	<node id="-216327" lat="59.5903166668" lon="9.27652223068">
		<tag k="name" v="Snøyrud" />
		<tag k="place" v="locality" />
		<tag k="ssr:stedsnr" v="347518" />
	</node>
	<node id="-218372" lat="59.6828694486" lon="9.06007500438">
		<tag k="name" v="Tinglia" />
		<tag k="place" v="farm" />
		<tag k="ssr:stedsnr" v="589979" />
	</node>
	<node id="-216322" lat="59.5756944419" lon="9.20058333193">
		<tag k="name" v="Lauskås" />
		<tag k="place" v="quarter" />
		<tag k="ssr:stedsnr" v="347354" />
	</node>
	<node id="-216320" lat="59.5856861153" lon="9.1899611054">
		<tag k="name" v="Dalen" />
		<tag k="place" v="farm" />
		<tag k="ssr:stedsnr" v="347342" />
	</node>
	<node id="-216319" lat="59.5912777757" lon="9.18288888559">
		<tag k="name" v="Holla" />
		<tag k="place" v="farm" />
		<tag k="ssr:stedsnr" v="347325" />
	</node>
	<node id="-218366" lat="59.8137444454" lon="8.98353888361">
		<tag k="name" v="Tufte" />
		<tag k="place" v="isolated_dwelling" />
		<tag k="ssr:stedsnr" v="588829" />
	</node>
	<node id="-216317" lat="59.5685861114" lon="9.25593611665">
		<tag k="name" v="Meaksmoen" />
		<tag k="place" v="quarter" />
		<tag k="ssr:stedsnr" v="347227" />
	</node>
	<node id="-216315" lat="59.6093027785" lon="9.03760000853">
		<tag k="name" v="Bråbekk" />
		<tag k="place" v="farm" />
		<tag k="ssr:stedsnr" v="347155" />
	</node>
	<node id="-216314" lat="59.6088333339" lon="9.04186110904">
		<tag k="name" v="Kallbekkdalen" />
		<tag k="place" v="farm" />
		<tag k="ssr:stedsnr" v="347154" />
	</node>
	<node id="-216311" lat="59.5506777752" lon="9.1367361128">
		<tag k="historic" v="shieling" />
		<tag k="name" v="Nystul" />
		<tag k="place" v="locality" />
		<tag k="ssr:stedsnr" v="347106" />
	</node>
	<node id="-216700" lat="59.6068888845" lon="9.13543333945">
		<tag k="name" v="Runningen" />
		<tag k="place" v="farm" />
		<tag k="ssr:stedsnr" v="894651" />
	</node>
	<node id="-216304" lat="59.5702055592" lon="9.27565554985">
		<tag k="amenity" v="school" />
		<tag k="name" v="Notodden høgere skole" />
		<tag k="ssr:stedsnr" v="346239" />
	</node>
	<node id="-216299" lat="59.8247972184" lon="8.98700000735">
		<tag k="historic" v="shieling" />
		<tag k="name" v="Åvaldskås" />
		<tag k="place" v="locality" />
		<tag k="ssr:stedsnr" v="345772" />
	</node>
	<node id="-218343" lat="59.7217999991" lon="9.27748055666">
		<tag k="name" v="Bolkesjø turisthotell" />
		<tag k="ssr:stedsnr" v="586000" />
		<tag k="tourism" v="hotel" />
	</node>
	<node id="-216294" lat="59.7528611092" lon="9.01940556177">
		<tag k="name" v="Sundvoll" />
		<tag k="place" v="farm" />
		<tag k="ssr:stedsnr" v="345282" />
	</node>
	<node id="-217292" lat="59.5692500009" lon="9.27439722488">
		<tag k="alt_name" v="Setre" />
		<tag k="fixme" v="consider place=hamlet" />
		<tag k="name" v="Sætre" />
		<tag k="place" v="farm" />
		<tag k="ssr:stedsnr" v="124773" />
	</node>
	<node id="-218330" lat="59.8640833293" lon="8.89085000591">
		<tag k="alt_name" v="Boslie" />
		<tag k="name" v="Boslii" />
		<tag k="place" v="locality" />
		<tag k="ssr:stedsnr" v="550449" />
	</node>
	<node id="-218329" lat="59.8491916632" lon="8.94208055687">
		<tag k="alt_name" v="Svalestuen" />
		<tag k="fixme" v="consider place=hamlet" />
		<tag k="name" v="Svålåstugo" />
		<tag k="place" v="farm" />
		<tag k="ssr:stedsnr" v="550445" />
	</node>
	<node id="-216358" lat="59.6846166622" lon="9.02462222158">
		<tag k="name" v="Merde" />
		<tag k="place" v="locality" />
		<tag k="ssr:stedsnr" v="347979" />
	</node>
	<node id="-218327" lat="59.8252194453" lon="8.98146667029">
		<tag k="name" v="Dalen" />
		<tag k="place" v="locality" />
		<tag k="ssr:stedsnr" v="550430" />
	</node>
	<node id="-218325" lat="59.7553055541" lon="9.08316110704">
		<tag k="name" v="Grivloset" />
		<tag k="place" v="isolated_dwelling" />
		<tag k="ssr:stedsnr" v="550409" />
	</node>
	<node id="-218324" lat="59.7803166629" lon="9.19712499918">
		<tag k="historic" v="shieling" />
		<tag k="name" v="Nordstul" />
		<tag k="place" v="locality" />
		<tag k="ssr:stedsnr" v="550380" />
	</node>
	<node id="-218321" lat="59.6880250041" lon="9.28290277384">
		<tag k="name" v="Åmot" />
		<tag k="place" v="isolated_dwelling" />
		<tag k="ssr:stedsnr" v="549958" />
	</node>
	<node id="-218320" lat="59.6267305519" lon="9.2340583334">
		<tag k="alt_name" v="Storemo" />
		<tag k="name" v="Stormo" />
		<tag k="place" v="farm" />
		<tag k="ssr:stedsnr" v="549896" />
	</node>
	<node id="-218319" lat="59.6435249969" lon="9.32672500189">
		<tag k="name" v="Dårstul" />
		<tag k="place" v="isolated_dwelling" />
		<tag k="ssr:stedsnr" v="549876" />
	</node>
	<node id="-218316" lat="59.5875777744" lon="9.2743749983">
		<tag k="alt_name" v="Skogen, nordre;Skogen" />
		<tag k="name" v="Nordre Skogen" />
		<tag k="place" v="farm" />
		<tag k="ssr:stedsnr" v="549821" />
	</node>
	<node id="-216267" lat="59.6881722254" lon="9.36361111118">
		<tag k="fixme" v="consider tourism=alpine_hut or tourism=chalet" />
		<tag k="name" v="Selsli" />
		<tag k="ssr:stedsnr" v="326240" />
		<tag k="tourism" v="wilderness_hut" />
	</node>
	<node id="-218314" lat="59.5845777823" lon="9.36568054936">
		<tag k="name" v="Pina" />
		<tag k="place" v="isolated_dwelling" />
		<tag k="ssr:stedsnr" v="549778" />
	</node>
	<node id="-218312" lat="59.5750805562" lon="9.35847499574">
		<tag k="alt_name" v="Velesetra" />
		<tag k="historic" v="shieling" />
		<tag k="name" v="Velesætra" />
		<tag k="place" v="locality" />
		<tag k="ssr:stedsnr" v="549764" />
	</node>
	<node id="-216268" lat="59.5848250027" lon="9.16153056054">
		<tag k="name" v="Lillemoen" />
		<tag k="place" v="farm" />
		<tag k="ssr:stedsnr" v="105205" />
	</node>
	<node id="-218310" lat="59.5728249999" lon="9.25359999703">
		<tag k="name" v="Haugen" />
		<tag k="place" v="farm" />
		<tag k="ssr:stedsnr" v="549760" />
	</node>
	<node id="-218308" lat="59.5486972242" lon="9.23245000638">
		<tag k="name" v="Åshildrud" />
		<tag k="place" v="farm" />
		<tag k="ssr:stedsnr" v="549737" />
	</node>
	<node id="-218307" lat="59.5285499994" lon="9.23120277284">
		<tag k="historic" v="shieling" />
		<tag k="name" v="Vihussætra" />
		<tag k="place" v="locality" />
		<tag k="ssr:stedsnr" v="549717" />
	</node>
	<node id="-218306" lat="59.5144999957" lon="9.25119722079">
		<tag k="historic" v="shieling" />
		<tag k="name" v="Vihus" />
		<tag k="place" v="locality" />
		<tag k="ssr:stedsnr" v="549707" />
	</node>
	<node id="-216257" lat="59.8062444478" lon="8.88515832548">
		<tag k="name" v="Busnessjåen" />
		<tag k="place" v="isolated_dwelling" />
		<tag k="ssr:stedsnr" v="307516" />
	</node>
	<node id="-216256" lat="59.8100333296" lon="8.98605554708">
		<tag k="name" v="Skjesåsen" />
		<tag k="place" v="isolated_dwelling" />
		<tag k="ssr:stedsnr" v="307508" />
	</node>
	<node id="-216255" lat="59.8034999999" lon="8.98652499879">
		<tag k="name" v="Bråten" />
		<tag k="place" v="farm" />
		<tag k="ssr:stedsnr" v="307503" />
	</node>
	<node id="-218302" lat="59.812088888" lon="8.98049167435">
		<tag k="name" v="Kasin" />
		<tag k="place" v="farm" />
		<tag k="ssr:stedsnr" v="549459" />
	</node>
	<node id="-216252" lat="59.8749416637" lon="8.90509999492">
		<tag k="alt_name" v="Frilistul" />
		<tag k="name" v="Frili" />
		<tag k="place" v="locality" />
		<tag k="ssr:stedsnr" v="307487" />
	</node>
	<node id="-216251" lat="59.8525777815" lon="8.92611944133">
		<tag k="alt_name" v="Berglii, nedre" />
		<tag k="name" v="Nedre Berglii" />
		<tag k="place" v="locality" />
		<tag k="ssr:stedsnr" v="307472" />
	</node>
	<node id="-218298" lat="59.7705805522" lon="8.91882500723">
		<tag k="name" v="Nesbuset" />
		<tag k="place" v="locality" />
		<tag k="ssr:stedsnr" v="549445" />
	</node>
	<node id="-216244" lat="59.6944444402" lon="9.04085555327">
		<tag k="name" v="To" />
		<tag k="place" v="farm" />
		<tag k="ssr:stedsnr" v="307160" />
	</node>
	<node id="-218290" lat="59.5800750036" lon="9.04908889179">
		<tag k="name" v="Dalen" />
		<tag k="place" v="isolated_dwelling" />
		<tag k="ssr:stedsnr" v="549348" />
	</node>
	<node id="-218289" lat="59.5895249983" lon="9.10253332645">
		<tag k="alt_name" v="Tubås" />
		<tag k="name" v="Tubbås" />
		<tag k="place" v="farm" />
		<tag k="ssr:stedsnr" v="549345" />
	</node>
	<node id="-218287" lat="59.5963413918" lon="9.05998424707">
		<tag k="name" v="Flatland" />
		<tag k="place" v="farm" />
		<tag k="ssr:stedsnr" v="549252" />
	</node>
	<node id="-218286" lat="59.6688277787" lon="8.97114999553">
		<tag k="name" v="Dalen" />
		<tag k="place" v="isolated_dwelling" />
		<tag k="ssr:stedsnr" v="549250" />
	</node>
	<node id="-218285" lat="59.6661444452" lon="8.98355833702">
		<tag k="name" v="Vårstulen" />
		<tag k="place" v="farm" />
		<tag k="ssr:stedsnr" v="549249" />
	</node>
	<node id="-218284" lat="59.6699611096" lon="9.00869444312">
		<tag k="name" v="Kåsa" />
		<tag k="place" v="isolated_dwelling" />
		<tag k="ssr:stedsnr" v="549247" />
	</node>
	<node id="-216235" lat="59.5998250014" lon="9.17457500849">
		<tag k="name" v="Kasin" />
		<tag k="place" v="isolated_dwelling" />
		<tag k="ssr:stedsnr" v="307308" />
	</node>
	<node id="-218282" lat="59.6783250036" lon="8.95503611707">
		<tag k="fixme" v="consider place=hamlet" />
		<tag k="name" v="Siljudalen" />
		<tag k="place" v="farm" />
		<tag k="ssr:stedsnr" v="549233" />
	</node>
	<node id="-219335" lat="59.5424416658" lon="9.20495277701">
		<tag k="name" v="Kåsa" />
		<tag k="place" v="farm" />
		<tag k="ssr:stedsnr" v="833562" />
	</node>
	<node id="-218277" lat="59.6411611113" lon="9.02892499773">
		<tag k="alt_name" v="Løngset" />
		<tag k="name" v="Lyngset" />
		<tag k="place" v="isolated_dwelling" />
		<tag k="ssr:stedsnr" v="549198" />
	</node>
	<node id="-216228" lat="59.5443333363" lon="9.16958333291">
		<tag k="name" v="Siljustul" />
		<tag k="place" v="isolated_dwelling" />
		<tag k="ssr:stedsnr" v="306420" />
	</node>
	<node id="-216227" lat="59.5618694435" lon="9.10070000482">
		<tag k="alt_name" v="Grønkjær" />
		<tag k="historic" v="shieling" />
		<tag k="name" v="Grønkjerr" />
		<tag k="place" v="locality" />
		<tag k="ssr:stedsnr" v="306408" />
	</node>
	<node id="-216224" lat="59.5732500041" lon="9.01459999676">
		<tag k="name" v="Gvammen" />
		<tag k="place" v="isolated_dwelling" />
		<tag k="ssr:stedsnr" v="306401" />
	</node>
	<node id="-218271" lat="59.6855555595" lon="9.03279999446">
		<tag k="fixme" v="consider place=hamlet" />
		<tag k="name" v="Hesledalen" />
		<tag k="place" v="farm" />
		<tag k="ssr:stedsnr" v="549155" />
	</node>
	<node id="-216221" lat="59.5278361116" lon="8.97903055813">
		<tag k="name" v="Grønbygil" />
		<tag k="place" v="isolated_dwelling" />
		<tag k="ssr:stedsnr" v="306382" />
	</node>
	<node id="-218268" lat="59.688902777" lon="9.15121944579">
		<tag k="name" v="Lia" />
		<tag k="place" v="isolated_dwelling" />
		<tag k="ssr:stedsnr" v="549145" />
	</node>
	<node id="-218267" lat="59.6820638865" lon="9.10139444001">
		<tag k="alt_name" v="Bjønnerud" />
		<tag k="name" v="Bjørnerud" />
		<tag k="place" v="isolated_dwelling" />
		<tag k="ssr:stedsnr" v="549140" />
	</node>
	<node id="-216218" lat="59.593111115" lon="9.02131944649">
		<tag k="name" v="Bjørnhaug" />
		<tag k="place" v="farm" />
		<tag k="ssr:stedsnr" v="306332" />
	</node>
	<node id="-216217" lat="59.5922555515" lon="9.03178611563">
		<tag k="name" v="Kåsa" />
		<tag k="place" v="farm" />
		<tag k="ssr:stedsnr" v="306330" />
	</node>
	<node id="-216216" lat="59.5918305513" lon="9.04264166565">
		<tag k="name" v="Øygarden" />
		<tag k="place" v="farm" />
		<tag k="ssr:stedsnr" v="306331" />
	</node>
	<node id="-216215" lat="59.5875277767" lon="9.10707778413">
		<tag k="name" v="Gudmundsrud" />
		<tag k="place" v="farm" />
		<tag k="ssr:stedsnr" v="306321" />
	</node>
	<node id="-216213" lat="59.5825083343" lon="9.19976944611">
		<tag k="name" v="Åsen" />
		<tag k="place" v="farm" />
		<tag k="ssr:stedsnr" v="306252" />
	</node>
	<node id="-216212" lat="59.6040555525" lon="9.03574999886">
		<tag k="name" v="Sauar" />
		<tag k="place" v="farm" />
		<tag k="ssr:stedsnr" v="306237" />
	</node>
	<node id="-216211" lat="59.608813892" lon="9.17869721863">
		<tag k="historic" v="shieling" />
		<tag k="name" v="Solberg" />
		<tag k="place" v="locality" />
		<tag k="ssr:stedsnr" v="306234" />
	</node>
	<node id="-218257" lat="59.5456749997" lon="9.09647499864">
		<tag k="name" v="Reskjem" />
		<tag k="place" v="farm" />
		<tag k="ssr:stedsnr" v="548444" />
	</node>
	<node id="-218255" lat="59.5725226826" lon="9.21548359342">
		<tag k="name" v="Sem" />
		<tag k="place" v="farm" />
		<tag k="ssr:stedsnr" v="548376" />
	</node>
	<node id="-218253" lat="59.6155694477" lon="9.11271389028">
		<tag k="name" v="Kleivkås" />
		<tag k="place" v="locality" />
		<tag k="ssr:stedsnr" v="548322" />
	</node>
	<node id="-216204" lat="59.7068305515" lon="8.97218333319">
		<tag k="alt_name" v="Oddrud" />
		<tag k="name" v="Odderud" />
		<tag k="place" v="locality" />
		<tag k="ssr:stedsnr" v="306164" />
	</node>
	<node id="-216203" lat="59.7109805534" lon="9.00900833119">
		<tag k="name" v="Øygarden" />
		<tag k="place" v="farm" />
		<tag k="ssr:stedsnr" v="306163" />
	</node>
	<node id="-216202" lat="59.7138305545" lon="9.12899443643">
		<tag k="historic" v="shieling" />
		<tag k="name" v="Vassbotn" />
		<tag k="place" v="locality" />
		<tag k="ssr:stedsnr" v="306150" />
	</node>
	<node id="-218249" lat="59.5866333358" lon="9.17981945095">
		<tag k="name" v="Rinde" />
		<tag k="place" v="farm" />
		<tag k="ssr:stedsnr" v="548277" />
	</node>
	<node id="-216200" lat="59.5863777804" lon="9.26033055873">
		<tag k="name" v="Kåfjell" />
		<tag k="place" v="farm" />
		<tag k="ssr:stedsnr" v="306814" />
	</node>
	<node id="-218245" lat="59.5634138877" lon="9.29242499511">
		<tag k="name" v="Høgås" />
		<tag k="place" v="quarter" />
		<tag k="ssr:stedsnr" v="544453" />
	</node>
	<node id="-216195" lat="59.724694443" lon="9.02711667286">
		<tag k="fixme" v="consider place=hamlet" />
		<tag k="name" v="Tinnoset" />
		<tag k="place" v="village" />
		<tag k="ssr:stedsnr" v="306094" />
	</node>
	<node id="-216194" lat="59.721091668" lon="9.12777500084">
		<tag k="name" v="Gjuvbekk" />
		<tag k="place" v="locality" />
		<tag k="ssr:stedsnr" v="306092" />
	</node>
	<node id="-218238" lat="59.8092694402" lon="8.99436666932">
		<tag k="fixme" v="consider place=hamlet" />
		<tag k="name" v="Østre Busnes" />
		<tag k="place" v="farm" />
		<tag k="ssr:stedsnr" v="543625" />
	</node>
	<node id="-216189" lat="59.7487138908" lon="8.9287749983">
		<tag k="alt_name" v="Grastjørn" />
		<tag k="name" v="Grastjønn" />
		<tag k="place" v="isolated_dwelling" />
		<tag k="ssr:stedsnr" v="306002" />
	</node>
	<node id="-218230" lat="59.5603999963" lon="9.03255833881">
		<tag k="name" v="Damstul" />
		<tag k="place" v="neighbourhood" />
		<tag k="ssr:stedsnr" v="542246" />
	</node>
	<node id="-218229" lat="59.5584638895" lon="8.95143333505">
		<tag k="name" v="Myregvarv" />
		<tag k="place" v="neighbourhood" />
		<tag k="ssr:stedsnr" v="542243" />
	</node>
	<node id="-216170" lat="59.6509194428" lon="9.37889444805">
		<tag k="historic" v="shieling" />
		<tag k="name" v="Tysjøseter" />
		<tag k="place" v="locality" />
		<tag k="ssr:stedsnr" v="57324" />
	</node>
	<node id="-218213" lat="59.590166667" lon="9.35363610668">
		<tag k="historic" v="shieling" />
		<tag k="name" v="Nybu" />
		<tag k="place" v="locality" />
		<tag k="ssr:stedsnr" v="531100" />
	</node>
	<node id="-217275" lat="59.5518166681" lon="9.2101138821">
		<tag k="fixme" v="consider place=hamlet" />
		<tag k="name" v="Hovdejord" />
		<tag k="place" v="farm" />
		<tag k="ssr:stedsnr" v="124356" />
	</node>
	<node id="-216160" lat="59.8530916668" lon="8.93945556357">
		<tag k="name" v="Jore" />
		<tag k="place" v="farm" />
		<tag k="ssr:stedsnr" v="300039" />
	</node>
	<node id="-216933" lat="59.7154805537" lon="9.01262777312">
		<tag k="historic" v="shieling" />
		<tag k="name" v="Kålekåsa" />
		<tag k="place" v="locality" />
		<tag k="ssr:stedsnr" v="44896" />
	</node>
	<node id="-217274" lat="59.5507638856" lon="9.20372500762">
		<tag k="fixme" v="consider place=hamlet" />
		<tag k="name" v="Tveitan" />
		<tag k="place" v="farm" />
		<tag k="ssr:stedsnr" v="124355" />
	</node>
	<node id="-218201" lat="59.607458336" lon="9.05122222719">
		<tag k="alt_name" v="Sauer midgård" />
		<tag k="fixme" v="consider place=hamlet" />
		<tag k="name" v="Midt-Sauar" />
		<tag k="place" v="farm" />
		<tag k="ssr:stedsnr" v="530187" />
	</node>
	<node id="-217273" lat="59.5022944415" lon="9.18502500131">
		<tag k="name" v="Nystul" />
		<tag k="place" v="isolated_dwelling" />
		<tag k="ssr:stedsnr" v="124347" />
	</node>
	<node id="-216148" lat="59.6032166642" lon="9.08996110953">
		<tag k="name" v="Nørsterud" />
		<tag k="place" v="farm" />
		<tag k="ssr:stedsnr" v="44609" />
	</node>
	<node id="-216147" lat="59.5948777783" lon="9.07625833863">
		<tag k="name" v="Øya" />
		<tag k="place" v="farm" />
		<tag k="ssr:stedsnr" v="44610" />
	</node>
	<node id="-216146" lat="59.5953027823" lon="9.13525276913">
		<tag k="name" v="Viperudmoen" />
		<tag k="place" v="quarter" />
		<tag k="ssr:stedsnr" v="44604" />
	</node>
	<node id="-216145" lat="59.6037111079" lon="9.13851667075">
		<tag k="name" v="Holte" />
		<tag k="place" v="farm" />
		<tag k="ssr:stedsnr" v="44602" />
	</node>
	<node id="-217613" lat="59.6085750012" lon="9.13566388443">
		<tag k="name" v="Seland" />
		<tag k="place" v="farm" />
		<tag k="ssr:stedsnr" v="226653" />
	</node>
	<node id="-218188" lat="59.6068611152" lon="9.32035277312">
		<tag k="name" v="Kroktjønnhytta" />
		<tag k="place" v="isolated_dwelling" />
		<tag k="ssr:stedsnr" v="530065" />
	</node>
	<node id="-216930" lat="59.6293611106" lon="9.15502222178">
		<tag k="historic" v="shieling" />
		<tag k="name" v="Trånåbu" />
		<tag k="place" v="locality" />
		<tag k="ssr:stedsnr" v="44873" />
	</node>
	<node id="-218184" lat="59.743158331" lon="8.98900832695">
		<tag k="historic" v="shieling" />
		<tag k="name" v="Kålilia" />
		<tag k="place" v="locality" />
		<tag k="ssr:stedsnr" v="529979" />
	</node>
	<node id="-218178" lat="59.655716671" lon="9.09231389507">
		<tag k="name" v="Takhol" />
		<tag k="place" v="locality" />
		<tag k="ssr:stedsnr" v="529874" />
	</node>
	<node id="-218177" lat="59.638894445" lon="9.12190833049">
		<tag k="name" v="Tausestul" />
		<tag k="place" v="locality" />
		<tag k="ssr:stedsnr" v="529869" />
	</node>
	<node id="-218171" lat="59.5981694483" lon="9.16511389002">
		<tag k="fixme" v="consider place=hamlet" />
		<tag k="name" v="Tovsrud" />
		<tag k="place" v="farm" />
		<tag k="ssr:stedsnr" v="529604" />
	</node>
	<node id="-218170" lat="59.6077694465" lon="9.10277223057">
		<tag k="name" v="Hellem" />
		<tag k="place" v="farm" />
		<tag k="ssr:stedsnr" v="529590" />
	</node>
	<node id="-218169" lat="59.5417777749" lon="9.20788888269">
		<tag k="name" v="Kleivkås" />
		<tag k="place" v="farm" />
		<tag k="ssr:stedsnr" v="529541" />
	</node>
	<node id="-218168" lat="59.5740750007" lon="9.26913888573">
		<tag k="name" v="Setremoen" />
		<tag k="place" v="quarter" />
		<tag k="ssr:stedsnr" v="529540" />
	</node>
	<node id="-218292" lat="59.5117444482" lon="9.17627500742">
		<tag k="name" v="Åsmundstul" />
		<tag k="place" v="locality" />
		<tag k="ssr:stedsnr" v="549394" />
	</node>
	<node id="-216115" lat="59.690080556" lon="9.02859722202">
		<tag k="name" v="Tjønnås" />
		<tag k="place" v="isolated_dwelling" />
		<tag k="ssr:stedsnr" v="287943" />
	</node>
	<node id="-218162" lat="59.5968333353" lon="9.25932222002">
		<tag k="name" v="Kåsa" />
		<tag k="place" v="farm" />
		<tag k="ssr:stedsnr" v="529499" />
	</node>
	<node id="-216242" lat="59.6787500044" lon="9.26309721411">
		<tag k="name" v="Leirodden" />
		<tag k="place" v="isolated_dwelling" />
		<tag k="ssr:stedsnr" v="306964" />
	</node>
	<node id="-219817" lat="59.5656224503" lon="9.1728225071">
		<tag k="name" v="Huristveit" />
		<tag k="place" v="hamlet" />
		<tag k="ssr:stedsnr" v="980316" />
	</node>
	<node id="-218152" lat="59.574650001" lon="9.19348610716">
		<tag k="name" v="Haugmoen" />
		<tag k="place" v="farm" />
		<tag k="ssr:stedsnr" v="529372" />
	</node>
	<node id="-218151" lat="59.5798722241" lon="9.18816111758">
		<tag k="name" v="Bekkhus" />
		<tag k="place" v="quarter" />
		<tag k="ssr:stedsnr" v="529370" />
	</node>
	<node id="-218148" lat="59.6623027743" lon="9.14290832685">
		<tag k="name" v="Nordstul" />
		<tag k="place" v="locality" />
		<tag k="ssr:stedsnr" v="529173" />
	</node>
	<node id="-218146" lat="59.6665694411" lon="9.16413888382">
		<tag k="name" v="Bekkhus" />
		<tag k="place" v="locality" />
		<tag k="ssr:stedsnr" v="529165" />
	</node>
	<node id="-218145" lat="59.5640222189" lon="9.19199445155">
		<tag k="name" v="Brenna" />
		<tag k="place" v="farm" />
		<tag k="ssr:stedsnr" v="529130" />
	</node>
	<node id="-216096" lat="59.6061805583" lon="9.1337000079">
		<tag k="name" v="Runnan" />
		<tag k="place" v="farm" />
		<tag k="ssr:stedsnr" v="287662" />
	</node>
	<node id="-216095" lat="59.6027444459" lon="9.17042500406">
		<tag k="name" v="Kåsa" />
		<tag k="place" v="farm" />
		<tag k="ssr:stedsnr" v="287649" />
	</node>
	<node id="-218142" lat="59.5604694486" lon="9.20046943773">
		<tag k="name" v="Undeland" />
		<tag k="place" v="farm" />
		<tag k="ssr:stedsnr" v="529110" />
	</node>
	<node id="-216093" lat="59.5990250012" lon="9.09123611894">
		<tag k="name" v="Nord-Kasin" />
		<tag k="place" v="farm" />
		<tag k="ssr:stedsnr" v="287608" />
	</node>
	<node id="-216092" lat="59.5725083326" lon="9.25878332595">
		<tag k="name" v="Meaksmoen" />
		<tag k="place" v="quarter" />
		<tag k="ssr:stedsnr" v="287591" />
	</node>
	<node id="-217511" lat="59.5380277737" lon="9.29057499279">
		<tag k="name" v="Ramberg" />
		<tag k="place" v="farm" />
		<tag k="ssr:stedsnr" v="185751" />
	</node>
	<node id="-216089" lat="59.68813611" lon="9.09989999402">
		<tag k="name" v="Moen" />
		<tag k="place" v="farm" />
		<tag k="ssr:stedsnr" v="287528" />
	</node>
	<node id="-218132" lat="59.7343805541" lon="9.29757777327">
		<tag k="aerialway" v="drag_lift" />
		<tag k="fixme" v="consider the other aerialway types" />
		<tag k="name" v="Bolkesjøheisen" />
		<tag k="ssr:stedsnr" v="527922" />
	</node>
	<node id="-216238" lat="59.64309722" lon="9.26957499356">
		<tag k="alt_name" v="Austgvammen" />
		<tag k="name" v="Austkvammen" />
		<tag k="place" v="locality" />
		<tag k="ssr:stedsnr" v="306889" />
	</node>
	<node id="-216079" lat="59.5866888933" lon="9.11997500574">
		<tag k="name" v="Smylingsås" />
		<tag k="place" v="farm" />
		<tag k="ssr:stedsnr" v="287163" />
	</node>
	<node id="-216078" lat="59.5613555547" lon="9.18448333782">
		<tag k="name" v="Roe" />
		<tag k="place" v="farm" />
		<tag k="ssr:stedsnr" v="287149" />
	</node>
	<node id="-218123" lat="59.7365944461" lon="9.21709166369">
		<tag k="name" v="Helleberg" />
		<tag k="place" v="hamlet" />
		<tag k="ssr:stedsnr" v="527422" />
	</node>
	<node id="-216072" lat="59.5687916707" lon="9.2133749972">
		<tag k="name" v="Buøya" />
		<tag k="place" v="locality" />
		<tag k="ssr:stedsnr" v="287034" />
	</node>
	<node id="-217260" lat="59.5867611068" lon="9.1546361037">
		<tag k="name" v="Smedsrud" />
		<tag k="place" v="farm" />
		<tag k="ssr:stedsnr" v="124219" />
	</node>
	<node id="-216064" lat="59.6968361086" lon="9.07587778064">
		<tag k="name" v="Gvelven" />
		<tag k="place" v="locality" />
		<tag k="ssr:stedsnr" v="286453" />
	</node>
	<node id="-216062" lat="59.5797000018" lon="9.03536667499">
		<tag k="name" v="Amerika" />
		<tag k="place" v="locality" />
		<tag k="ssr:stedsnr" v="286081" />
	</node>
	<node id="-216061" lat="59.5800166641" lon="9.05282222354">
		<tag k="name" v="Brekke" />
		<tag k="place" v="locality" />
		<tag k="ssr:stedsnr" v="286066" />
	</node>
	<node id="-216234" lat="59.5643722227" lon="9.3309472146">
		<tag k="name" v="Slåttemyr" />
		<tag k="place" v="isolated_dwelling" />
		<tag k="ssr:stedsnr" v="306777" />
	</node>
	<node id="-218097" lat="59.6841722211" lon="9.17020832902">
		<tag k="name" v="Russholte" />
		<tag k="place" v="locality" />
		<tag k="ssr:stedsnr" v="529022" />
	</node>
	<node id="-216573" lat="59.6030083294" lon="9.14691110797">
		<tag k="name" v="Håberg" />
		<tag k="place" v="farm" />
		<tag k="ssr:stedsnr" v="408610" />
	</node>
	<node id="-218089" lat="59.7699388878" lon="8.93183610649">
		<tag k="name" v="Rusjølju" />
		<tag k="place" v="isolated_dwelling" />
		<tag k="ssr:stedsnr" v="489495" />
	</node>
	<node id="-217596" lat="59.5923638868" lon="9.15414445302">
		<tag k="leisure" v="pitch" />
		<tag k="name" v="Vidarvold" />
		<tag k="ssr:stedsnr" v="226194" />
	</node>
	<node id="-218086" lat="59.8240666693" lon="8.94437499877">
		<tag k="alt_name" v="Gvamslistul" />
		<tag k="name" v="Kvamslistulen" />
		<tag k="place" v="isolated_dwelling" />
		<tag k="ssr:stedsnr" v="489459" />
	</node>
	<node id="-218085" lat="59.5509500026" lon="9.02540000788">
		<tag k="name" v="Listul" />
		<tag k="place" v="isolated_dwelling" />
		<tag k="ssr:stedsnr" v="489450" />
	</node>
	<node id="-216571" lat="59.546602775" lon="9.24508333579">
		<tag k="name" v="Kasin" />
		<tag k="place" v="locality" />
		<tag k="ssr:stedsnr" v="408580" />
	</node>
	<node id="-216031" lat="59.7494694419" lon="9.25799443584">
		<tag k="historic" v="shieling" />
		<tag k="name" v="Flatlistulen" />
		<tag k="place" v="locality" />
		<tag k="ssr:stedsnr" v="283788" />
	</node>
	<node id="-216229" lat="59.7275472232" lon="9.27572500382">
		<tag k="name" v="Sigurdskås" />
		<tag k="place" v="farm" />
		<tag k="ssr:stedsnr" v="306431" />
	</node>
	<node id="-217594" lat="59.5902055529" lon="9.11360554685">
		<tag k="name" v="Tonnepall" />
		<tag k="place" v="farm" />
		<tag k="ssr:stedsnr" v="226189" />
	</node>
	<node id="-218074" lat="59.6270750028" lon="9.23955555354">
		<tag k="name" v="Gravningen" />
		<tag k="place" v="farm" />
		<tag k="ssr:stedsnr" v="488895" />
	</node>
	<node id="-218069" lat="59.5486472178" lon="9.2458250036">
		<tag k="alt_name" v="Kaste" />
		<tag k="name" v="Kastet" />
		<tag k="place" v="farm" />
		<tag k="ssr:stedsnr" v="488752" />
	</node>
	<node id="-218068" lat="59.5268000008" lon="9.27194999941">
		<tag k="name" v="Kantebakke" />
		<tag k="place" v="farm" />
		<tag k="ssr:stedsnr" v="488740" />
	</node>
	<node id="-218067" lat="59.5303750029" lon="9.34930000561">
		<tag k="name" v="Kloppa" />
		<tag k="place" v="isolated_dwelling" />
		<tag k="ssr:stedsnr" v="488734" />
	</node>
	<node id="-218066" lat="59.6710250008" lon="9.27042500734">
		<tag k="name" v="Vassbotn" />
		<tag k="place" v="farm" />
		<tag k="ssr:stedsnr" v="488967" />
	</node>
	<node id="-216568" lat="59.5793944432" lon="9.27078332828">
		<tag k="name" v="Skogen" />
		<tag k="place" v="quarter" />
		<tag k="ssr:stedsnr" v="408564" />
	</node>
	<node id="-218062" lat="59.664175002" lon="9.23260000508">
		<tag k="alt_name" v="Gamlestulen" />
		<tag k="historic" v="shieling" />
		<tag k="name" v="Gammelstulen" />
		<tag k="place" v="locality" />
		<tag k="ssr:stedsnr" v="488918" />
	</node>
	<node id="-218049" lat="59.595187159" lon="9.02291969239">
		<tag k="name" v="Lia" />
		<tag k="place" v="farm" />
		<tag k="ssr:stedsnr" v="488310" />
	</node>
	<node id="-218048" lat="59.5892027796" lon="9.05578055663">
		<tag k="fixme" v="consider place=hamlet" />
		<tag k="name" v="Haugerud" />
		<tag k="place" v="farm" />
		<tag k="ssr:stedsnr" v="488308" />
	</node>
	<node id="-218272" lat="59.6872888894" lon="9.07691945174">
		<tag k="name" v="Kåsa" />
		<tag k="place" v="isolated_dwelling" />
		<tag k="ssr:stedsnr" v="549160" />
	</node>
	<node id="-218046" lat="59.5619388869" lon="9.17781110704">
		<tag k="alt_name" v="Roe" />
		<tag k="name" v="Rui" />
		<tag k="place" v="farm" />
		<tag k="ssr:stedsnr" v="488297" />
	</node>
	<node id="-218044" lat="59.6070500021" lon="9.02076111816">
		<tag k="name" v="Ørvella" />
		<tag k="place" v="farm" />
		<tag k="ssr:stedsnr" v="488277" />
	</node>
	<node id="-218043" lat="59.6298416677" lon="9.12634443591">
		<tag k="name" v="Vollan" />
		<tag k="place" v="isolated_dwelling" />
		<tag k="ssr:stedsnr" v="488257" />
	</node>
	<node id="-218041" lat="59.6033431041" lon="9.14472576156">
		<tag k="fixme" v="consider place=hamlet" />
		<tag k="name" v="Håberg" />
		<tag k="place" v="farm" />
		<tag k="ssr:stedsnr" v="488242" />
	</node>
	<node id="-218040" lat="59.594024997" lon="9.12121388009">
		<tag k="name" v="Velta" />
		<tag k="place" v="farm" />
		<tag k="ssr:stedsnr" v="488240" />
	</node>
	<node id="-218039" lat="59.5881611145" lon="9.20840833129">
		<tag k="name" v="Åsen" />
		<tag k="place" v="isolated_dwelling" />
		<tag k="ssr:stedsnr" v="488235" />
	</node>
	<node id="-218037" lat="59.6037111069" lon="9.04242777443">
		<tag k="name" v="Sauarkåsa" />
		<tag k="place" v="farm" />
		<tag k="ssr:stedsnr" v="488216" />
	</node>
	<node id="-217246" lat="59.7215694434" lon="9.04200833262">
		<tag k="name" v="Olesrud" />
		<tag k="place" v="farm" />
		<tag k="ssr:stedsnr" v="124085" />
	</node>
	<node id="-216458" lat="59.6025527786" lon="9.04460555581">
		<tag k="name" v="Bamle" />
		<tag k="place" v="farm" />
		<tag k="ssr:stedsnr" v="367198" />
	</node>
	<node id="-218033" lat="59.6500805557" lon="9.04720556046">
		<tag k="name" v="Myrastul" />
		<tag k="place" v="isolated_dwelling" />
		<tag k="ssr:stedsnr" v="488182" />
	</node>
	<node id="-218026" lat="59.7487249984" lon="9.01793055112">
		<tag k="fixme" v="consider place=hamlet" />
		<tag k="name" v="Lynnevik" />
		<tag k="place" v="farm" />
		<tag k="ssr:stedsnr" v="488114" />
	</node>
	<node id="-218025" lat="59.7356444465" lon="9.03462499549">
		<tag k="name" v="Breiddal" />
		<tag k="place" v="isolated_dwelling" />
		<tag k="ssr:stedsnr" v="488109" />
	</node>
	<node id="-218022" lat="59.7030861087" lon="8.91267776902">
		<tag k="name" v="Grønli" />
		<tag k="place" v="locality" />
		<tag k="ssr:stedsnr" v="488074" />
	</node>
	<node id="-219291" lat="59.6859805517" lon="9.18600278452">
		<tag k="name" v="Deilviken" />
		<tag k="place" v="locality" />
		<tag k="ssr:stedsnr" v="831005" />
	</node>
	<node id="-218014" lat="59.7780888912" lon="9.09971111597">
		<tag k="historic" v="shieling" />
		<tag k="name" v="Høymyr" />
		<tag k="place" v="locality" />
		<tag k="ssr:stedsnr" v="484357" />
	</node>
	<node id="-216901" lat="59.5675222198" lon="9.28360834085">
		<tag k="name" v="Heibøkåsa" />
		<tag k="place" v="quarter" />
		<tag k="ssr:stedsnr" v="44216" />
	</node>
	<node id="-217994" lat="59.8544638864" lon="8.94181665837">
		<tag k="name" v="Sagflåta" />
		<tag k="place" v="farm" />
		<tag k="ssr:stedsnr" v="482034" />
	</node>
	<node id="-217993" lat="59.8103222192" lon="9.23907500356">
		<tag k="historic" v="shieling" />
		<tag k="name" v="Grotburoe" />
		<tag k="place" v="locality" />
		<tag k="ssr:stedsnr" v="482031" />
	</node>
	<node id="-217506" lat="59.8094500001" lon="8.9950250031">
		<tag k="name" v="Busnes" />
		<tag k="place" v="farm" />
		<tag k="ssr:stedsnr" v="185447" />
	</node>
	<node id="-217987" lat="59.7208472241" lon="9.01508888151">
		<tag k="name" v="Torrud" />
		<tag k="place" v="farm" />
		<tag k="ssr:stedsnr" v="470884" />
	</node>
	<node id="-217978" lat="59.5939527769" lon="9.03950000666">
		<tag k="name" v="Øygarden" />
		<tag k="place" v="farm" />
		<tag k="ssr:stedsnr" v="470132" />
	</node>
	<node id="-217977" lat="59.5939841006" lon="9.02836043555">
		<tag k="name" v="Lia" />
		<tag k="place" v="farm" />
		<tag k="ssr:stedsnr" v="470133" />
	</node>
	<node id="-217968" lat="59.5480305534" lon="9.09604444198">
		<tag k="name" v="Runningen" />
		<tag k="place" v="locality" />
		<tag k="ssr:stedsnr" v="469938" />
	</node>
	<node id="-216346" lat="59.6680916706" lon="8.98784443651">
		<tag k="name" v="Deilda" />
		<tag k="place" v="farm" />
		<tag k="ssr:stedsnr" v="347900" />
	</node>
	<node id="-217964" lat="59.6262055561" lon="9.21745833101">
		<tag k="historic" v="shieling" />
		<tag k="name" v="Tverrdalen" />
		<tag k="place" v="locality" />
		<tag k="ssr:stedsnr" v="469888" />
	</node>
	<node id="-217955" lat="59.6870305527" lon="9.02069167308">
		<tag k="name" v="Kaldebekk" />
		<tag k="place" v="isolated_dwelling" />
		<tag k="ssr:stedsnr" v="469817" />
	</node>
	<node id="-216549" lat="59.5887083337" lon="9.16032777236">
		<tag k="name" v="Klufta" />
		<tag k="place" v="farm" />
		<tag k="ssr:stedsnr" v="408178" />
	</node>
	<node id="-217948" lat="59.6096972248" lon="9.11005833636">
		<tag k="name" v="Hellem" />
		<tag k="place" v="farm" />
		<tag k="ssr:stedsnr" v="469632" />
	</node>
	<node id="-217946" lat="59.5939305568" lon="9.13280277291">
		<tag k="name" v="Heggekroken" />
		<tag k="place" v="quarter" />
		<tag k="ssr:stedsnr" v="469626" />
	</node>
	<node id="-217944" lat="59.5482638921" lon="9.24910277104">
		<tag k="name" v="Kastbakken" />
		<tag k="place" v="locality" />
		<tag k="ssr:stedsnr" v="469600" />
	</node>
	<node id="-217935" lat="59.5722527772" lon="9.16533055074">
		<tag k="name" v="Haugen" />
		<tag k="place" v="isolated_dwelling" />
		<tag k="ssr:stedsnr" v="469176" />
	</node>
	<node id="-217934" lat="59.5849583298" lon="9.17813889591">
		<tag k="name" v="Rygi" />
		<tag k="place" v="farm" />
		<tag k="ssr:stedsnr" v="469174" />
	</node>
	<node id="-217933" lat="59.6071027812" lon="9.0486277822">
		<tag k="alt_name" v="Lille Sauer" />
		<tag k="fixme" v="consider place=hamlet" />
		<tag k="name" v="Sauar" />
		<tag k="place" v="farm" />
		<tag k="ssr:stedsnr" v="469164" />
	</node>
	<node id="-217923" lat="59.6766277817" lon="9.07436389253">
		<tag k="historic" v="shieling" />
		<tag k="name" v="Storemyr" />
		<tag k="place" v="locality" />
		<tag k="ssr:stedsnr" v="468392" />
	</node>
	<node id="-217922" lat="59.5893138905" lon="9.07071111017">
		<tag k="name" v="Flåta" />
		<tag k="place" v="farm" />
		<tag k="ssr:stedsnr" v="469155" />
	</node>
	<node id="-217920" lat="59.5699555548" lon="9.27138333939">
		<tag k="name" v="Setremoen" />
		<tag k="place" v="quarter" />
		<tag k="ssr:stedsnr" v="468199" />
	</node>
	<node id="-217915" lat="59.5565111115" lon="9.19305278463">
		<tag k="name" v="Skogen" />
		<tag k="place" v="farm" />
		<tag k="ssr:stedsnr" v="468068" />
	</node>
	<node id="-216543" lat="59.5687500042" lon="9.1701500086">
		<tag k="name" v="Breidal" />
		<tag k="place" v="farm" />
		<tag k="ssr:stedsnr" v="408108" />
	</node>
	<node id="-217026" lat="59.7045166696" lon="8.99114722331">
		<tag k="fixme" v="consider place=hamlet" />
		<tag k="name" v="Mjelland" />
		<tag k="place" v="farm" />
		<tag k="ssr:stedsnr" v="64156" />
	</node>
	<node id="-217503" lat="59.7258222218" lon="9.27961388126">
		<tag k="name" v="Kåsa" />
		<tag k="place" v="farm" />
		<tag k="ssr:stedsnr" v="185409" />
	</node>
	<node id="-217888" lat="59.830744445" lon="8.90752777107">
		<tag k="historic" v="shieling" />
		<tag k="name" v="Lian" />
		<tag k="place" v="locality" />
		<tag k="ssr:stedsnr" v="464997" />
	</node>
	<node id="-216197" lat="59.7216166661" lon="8.9235999974">
		<tag k="name" v="Vindolen" />
		<tag k="place" v="isolated_dwelling" />
		<tag k="ssr:stedsnr" v="306099" />
	</node>
	<node id="-217880" lat="59.7906611105" lon="9.30945833051">
		<tag k="name" v="Flisebu" />
		<tag k="place" v="isolated_dwelling" />
		<tag k="ssr:stedsnr" v="429911" />
	</node>
	<node id="-217875" lat="59.7737777803" lon="9.0942666751">
		<tag k="name" v="Hegna" />
		<tag k="place" v="isolated_dwelling" />
		<tag k="ssr:stedsnr" v="429359" />
	</node>
	<node id="-217874" lat="59.8633638854" lon="8.93066666328">
		<tag k="name" v="Dalen" />
		<tag k="place" v="isolated_dwelling" />
		<tag k="ssr:stedsnr" v="429448" />
	</node>
	<node id="-217873" lat="59.8334055587" lon="8.97093610752">
		<tag k="alt_name" v="Håkedalen" />
		<tag k="fixme" v="consider place=hamlet" />
		<tag k="name" v="Haukedalen" />
		<tag k="place" v="farm" />
		<tag k="ssr:stedsnr" v="429434" />
	</node>
	<node id="-217866" lat="59.6900305534" lon="9.26878055655">
		<tag k="name" v="Jonrud" />
		<tag k="place" v="farm" />
		<tag k="ssr:stedsnr" v="428931" />
	</node>
	<node id="-217865" lat="59.6299805555" lon="9.36369444738">
		<tag k="alt_name" v="Vipeto-seter" />
		<tag k="historic" v="shieling" />
		<tag k="name" v="Vipeto" />
		<tag k="place" v="locality" />
		<tag k="ssr:stedsnr" v="428906" />
	</node>
	<node id="-217860" lat="59.5936222216" lon="9.39377500345">
		<tag k="historic" v="shieling" />
		<tag k="name" v="Tellerud" />
		<tag k="place" v="locality" />
		<tag k="ssr:stedsnr" v="428843" />
	</node>
	<node id="-217858" lat="59.6023250034" lon="9.26352222894">
		<tag k="fixme" v="consider place=hamlet" />
		<tag k="name" v="Høymyr" />
		<tag k="place" v="farm" />
		<tag k="ssr:stedsnr" v="428822" />
	</node>
	<node id="-217854" lat="59.5593527786" lon="9.2585305516">
		<tag k="name" v="Notodden" />
		<tag k="place" v="town" />
		<tag k="ssr:stedsnr" v="428748" />
	</node>
	<node id="-217853" lat="59.5536555556" lon="9.35752777137">
		<tag k="alt_name" v="Lauvåssætra" />
		<tag k="name" v="Lauvås" />
		<tag k="place" v="isolated_dwelling" />
		<tag k="ssr:stedsnr" v="428745" />
	</node>
	<node id="-218047" lat="59.5786138853" lon="9.14452221902">
		<tag k="name" v="Kasin" />
		<tag k="place" v="farm" />
		<tag k="ssr:stedsnr" v="488298" />
	</node>
	<node id="-217849" lat="59.8158138862" lon="8.98041666484">
		<tag k="alt_name" v="Lisland, nordre;Lisland n." />
		<tag k="name" v="Nordre Lisland" />
		<tag k="place" v="isolated_dwelling" />
		<tag k="ssr:stedsnr" v="428446" />
	</node>
	<node id="-217845" lat="59.7648666684" lon="8.91310277039">
		<tag k="name" v="Sjølju" />
		<tag k="place" v="isolated_dwelling" />
		<tag k="ssr:stedsnr" v="428430" />
	</node>
	<node id="-216190" lat="59.700944446" lon="8.95609166254">
		<tag k="name" v="Dammen" />
		<tag k="place" v="locality" />
		<tag k="ssr:stedsnr" v="306075" />
	</node>
	<node id="-217839" lat="59.5607361072" lon="9.0372611135">
		<tag k="name" v="Damstul" />
		<tag k="place" v="isolated_dwelling" />
		<tag k="ssr:stedsnr" v="428381" />
	</node>
	<node id="-217832" lat="59.6017111151" lon="9.10427499613">
		<tag k="fixme" v="consider place=hamlet" />
		<tag k="name" v="Haugetuft" />
		<tag k="place" v="farm" />
		<tag k="ssr:stedsnr" v="428238" />
	</node>
	<node id="-217828" lat="59.6976138876" lon="9.10478333034">
		<tag k="alt_name" v="Folsland" />
		<tag k="name" v="Follseland" />
		<tag k="place" v="farm" />
		<tag k="ssr:stedsnr" v="428165" />
	</node>
	<node id="-217827" lat="59.6998638903" lon="9.1180444371">
		<tag k="name" v="Bakka" />
		<tag k="place" v="farm" />
		<tag k="ssr:stedsnr" v="428164" />
	</node>
	<node id="-217826" lat="59.7064416654" lon="9.03734999699">
		<tag k="alt_name" v="Likasin" />
		<tag k="name" v="Liakasin" />
		<tag k="place" v="isolated_dwelling" />
		<tag k="ssr:stedsnr" v="428160" />
	</node>
	<node id="-217825" lat="59.7071194437" lon="8.9862416626">
		<tag k="name" v="Mjaugeto" />
		<tag k="place" v="locality" />
		<tag k="ssr:stedsnr" v="428151" />
	</node>
	<node id="-217552" lat="59.6748055522" lon="9.23762499345">
		<tag k="name" v="Nyheim" />
		<tag k="place" v="locality" />
		<tag k="ssr:stedsnr" v="222081" />
	</node>
	<node id="-217820" lat="59.6906222205" lon="9.03834999428">
		<tag k="fixme" v="consider place=hamlet" />
		<tag k="name" v="Gransherad" />
		<tag k="place" v="village" />
		<tag k="ssr:stedsnr" v="428123" />
	</node>
	<node id="-217819" lat="59.7356555516" lon="9.02040000147">
		<tag k="name" v="Finnekåsa" />
		<tag k="place" v="farm" />
		<tag k="ssr:stedsnr" v="428105" />
	</node>
	<node id="-217818" lat="59.7203555589" lon="8.91519166803">
		<tag k="name" v="Listul" />
		<tag k="place" v="locality" />
		<tag k="ssr:stedsnr" v="428094" />
	</node>
	<node id="-217815" lat="59.5503500004" lon="9.1749388962">
		<tag k="name" v="Rudningen" />
		<tag k="place" v="isolated_dwelling" />
		<tag k="ssr:stedsnr" v="427451" />
	</node>
	<node id="-217809" lat="59.582255554" lon="9.19455277177">
		<tag k="fixme" v="consider place=hamlet" />
		<tag k="name" v="Spærud" />
		<tag k="place" v="farm" />
		<tag k="ssr:stedsnr" v="427296" />
	</node>
	<node id="-217193" lat="59.710930554" lon="8.99713889402">
		<tag k="name" v="Tisrud" />
		<tag k="place" v="locality" />
		<tag k="ssr:stedsnr" v="106930" />
	</node>
	<node id="-219852" lat="59.6559072738" lon="9.19749873876">
		<tag k="name" v="Mork" />
		<tag k="place" v="hamlet" />
		<tag k="ssr:stedsnr" v="980352" />
	</node>
	<node id="-218250" lat="59.5949777755" lon="9.17809167149">
		<tag k="fixme" v="consider place=hamlet" />
		<tag k="name" v="Bakka" />
		<tag k="place" v="farm" />
		<tag k="ssr:stedsnr" v="548282" />
	</node>
	<node id="-217802" lat="59.7141611134" lon="9.15526666889">
		<tag k="historic" v="shieling" />
		<tag k="name" v="Tangestul" />
		<tag k="place" v="locality" />
		<tag k="ssr:stedsnr" v="422997" />
	</node>
	<node id="-219849" lat="59.6552760556" lon="9.19493767829">
		<tag k="fixme" v="consider place=hamlet" />
		<tag k="name" v="Søndre Mork" />
		<tag k="place" v="farm" />
		<tag k="ssr:stedsnr" v="980351" />
	</node>
	<node id="-219848" lat="59.8544781272" lon="8.93936659761">
		<tag k="fixme" v="consider place=hamlet" />
		<tag k="name" v="Rui" />
		<tag k="place" v="farm" />
		<tag k="ssr:stedsnr" v="980381" />
	</node>
	<node id="-219847" lat="59.7253471935" lon="9.27951805889">
		<tag k="fixme" v="consider place=hamlet" />
		<tag k="name" v="Øvre Bolkesjø" />
		<tag k="place" v="farm" />
		<tag k="ssr:stedsnr" v="980380" />
	</node>
	<node id="-219846" lat="59.7349761197" lon="9.22036287348">
		<tag k="name" v="Helleberg" />
		<tag k="place" v="hamlet" />
		<tag k="ssr:stedsnr" v="980379" />
	</node>
	<node id="-219845" lat="59.735154776" lon="9.21464153803">
		<tag k="fixme" v="consider place=hamlet" />
		<tag k="name" v="Nordre Helleberg" />
		<tag k="place" v="farm" />
		<tag k="ssr:stedsnr" v="980377" />
	</node>
	<node id="-219844" lat="59.6984066931" lon="9.10525709116">
		<tag k="name" v="Folseland" />
		<tag k="place" v="hamlet" />
		<tag k="ssr:stedsnr" v="980376" />
	</node>
	<node id="-219843" lat="59.8150277187" lon="8.97969295231">
		<tag k="fixme" v="consider place=hamlet" />
		<tag k="name" v="Lilleland" />
		<tag k="place" v="farm" />
		<tag k="ssr:stedsnr" v="980374" />
	</node>
	<node id="-219842" lat="59.8103365193" lon="8.99205483552">
		<tag k="name" v="Busnes" />
		<tag k="place" v="hamlet" />
		<tag k="ssr:stedsnr" v="980372" />
	</node>
	<node id="-219841" lat="59.7297195779" lon="9.01998032455">
		<tag k="fixme" v="consider place=hamlet" />
		<tag k="name" v="Tinnoset" />
		<tag k="place" v="farm" />
		<tag k="ssr:stedsnr" v="980371" />
	</node>
	<node id="-219840" lat="59.729773446" lon="8.98280713443">
		<tag k="fixme" v="consider place=hamlet" />
		<tag k="name" v="Vestre Rui" />
		<tag k="place" v="farm" />
		<tag k="ssr:stedsnr" v="980370" />
	</node>
	<node id="-219839" lat="59.7343899745" lon="8.98068633439">
		<tag k="name" v="Venås" />
		<tag k="place" v="hamlet" />
		<tag k="ssr:stedsnr" v="980369" />
	</node>
	<node id="-219838" lat="59.7356374484" lon="8.97863771865">
		<tag k="fixme" v="consider place=hamlet" />
		<tag k="name" v="Nordre Venås" />
		<tag k="place" v="farm" />
		<tag k="ssr:stedsnr" v="980368" />
	</node>
	<node id="-219837" lat="59.7339445191" lon="8.98199293358">
		<tag k="fixme" v="consider place=hamlet" />
		<tag k="name" v="Søndre Venås" />
		<tag k="place" v="farm" />
		<tag k="ssr:stedsnr" v="980367" />
	</node>
	<node id="-219836" lat="59.7197030399" lon="9.00441075814">
		<tag k="fixme" v="consider place=hamlet" />
		<tag k="name" v="Mosrygg" />
		<tag k="place" v="farm" />
		<tag k="ssr:stedsnr" v="980366" />
	</node>
	<node id="-219835" lat="59.6993281012" lon="9.00920481739">
		<tag k="fixme" v="consider place=hamlet" />
		<tag k="name" v="Oterbæk" />
		<tag k="place" v="farm" />
		<tag k="ssr:stedsnr" v="980365" />
	</node>
	<node id="-219834" lat="59.6861979701" lon="9.05312183573">
		<tag k="name" v="Bøen" />
		<tag k="place" v="hamlet" />
		<tag k="ssr:stedsnr" v="980364" />
	</node>
	<node id="-219833" lat="59.6912590915" lon="9.02906374342">
		<tag k="fixme" v="consider place=hamlet" />
		<tag k="name" v="Kirkevollen" />
		<tag k="place" v="farm" />
		<tag k="ssr:stedsnr" v="980363" />
	</node>
	<node id="-219832" lat="59.6875469765" lon="9.04461803372">
		<tag k="fixme" v="consider place=hamlet" />
		<tag k="name" v="Nordre Bøen" />
		<tag k="place" v="farm" />
		<tag k="ssr:stedsnr" v="980362" />
	</node>
	<node id="-219831" lat="59.6878119994" lon="9.05110586032">
		<tag k="fixme" v="consider place=hamlet" />
		<tag k="name" v="Nedre Bøen" />
		<tag k="place" v="farm" />
		<tag k="ssr:stedsnr" v="980361" />
	</node>
	<node id="-219830" lat="59.6855798024" lon="9.06048048804">
		<tag k="fixme" v="consider place=hamlet" />
		<tag k="name" v="Øvre Bøen" />
		<tag k="place" v="farm" />
		<tag k="ssr:stedsnr" v="980360" />
	</node>
	<node id="-219829" lat="59.6602929947" lon="9.35765561596">
		<tag k="fixme" v="consider place=hamlet" />
		<tag k="name" v="Breistøl" />
		<tag k="place" v="farm" />
		<tag k="ssr:stedsnr" v="980359" />
	</node>
	<node id="-219828" lat="59.6240550791" lon="9.27007428584">
		<tag k="fixme" v="consider place=hamlet" />
		<tag k="name" v="Øvre Hove" />
		<tag k="place" v="farm" />
		<tag k="ssr:stedsnr" v="980358" />
	</node>
	<node id="-217779" lat="59.7775638874" lon="8.9790333276">
		<tag k="alt_name" v="S. Fjellstul" />
		<tag k="historic" v="shieling" />
		<tag k="name" v="Søre Fjellstul" />
		<tag k="place" v="locality" />
		<tag k="ssr:stedsnr" v="479640" />
	</node>
	<node id="-219826" lat="59.6145437253" lon="9.26983589575">
		<tag k="name" v="Landsverk" />
		<tag k="place" v="hamlet" />
		<tag k="ssr:stedsnr" v="980355" />
	</node>
	<node id="-219825" lat="59.6116756922" lon="9.27127875997">
		<tag k="fixme" v="consider place=hamlet" />
		<tag k="name" v="Søndre Landsverk" />
		<tag k="place" v="farm" />
		<tag k="ssr:stedsnr" v="980354" />
	</node>
	<node id="-219824" lat="59.6124744598" lon="9.26700969238">
		<tag k="fixme" v="consider place=hamlet" />
		<tag k="name" v="Nordre Landsverk" />
		<tag k="place" v="farm" />
		<tag k="ssr:stedsnr" v="980353" />
	</node>
	<node id="-219823" lat="59.6482472189" lon="9.21741597251">
		<tag k="fixme" v="consider place=hamlet" />
		<tag k="name" v="Mellem Mork" />
		<tag k="place" v="farm" />
		<tag k="ssr:stedsnr" v="980350" />
	</node>
	<node id="-219822" lat="59.5884675338" lon="9.06576009965">
		<tag k="name" v="Åse" />
		<tag k="place" v="hamlet" />
		<tag k="ssr:stedsnr" v="980349" />
	</node>
	<node id="-219821" lat="59.5861720217" lon="9.05832124252">
		<tag k="fixme" v="consider place=hamlet" />
		<tag k="name" v="Øvre Åse" />
		<tag k="place" v="farm" />
		<tag k="ssr:stedsnr" v="980348" />
	</node>
	<node id="-219820" lat="59.5876327468" lon="9.06326967703">
		<tag k="fixme" v="consider place=hamlet" />
		<tag k="name" v="Nedre Åse" />
		<tag k="place" v="farm" />
		<tag k="ssr:stedsnr" v="980347" />
	</node>
	<node id="-219819" lat="59.5896218811" lon="9.07186582888">
		<tag k="fixme" v="consider place=hamlet" />
		<tag k="name" v="Søndre Åse" />
		<tag k="place" v="farm" />
		<tag k="ssr:stedsnr" v="980346" />
	</node>
	<node id="-219818" lat="59.5838131469" lon="9.13363700781">
		<tag k="fixme" v="consider place=hamlet" />
		<tag k="name" v="Grini" />
		<tag k="place" v="farm" />
		<tag k="ssr:stedsnr" v="980317" />
	</node>
	<node id="-216519" lat="59.7228722204" lon="9.27206666442">
		<tag k="name" v="Uppigard Bolkesjø" />
		<tag k="place" v="farm" />
		<tag k="ssr:stedsnr" v="405000" />
	</node>
	<node id="-219816" lat="59.5666852831" lon="9.17217391027">
		<tag k="fixme" v="consider place=hamlet" />
		<tag k="name" v="Nordre Huristveit" />
		<tag k="place" v="farm" />
		<tag k="ssr:stedsnr" v="980315" />
	</node>
	<node id="-219815" lat="59.5646009927" lon="9.17355301539">
		<tag k="fixme" v="consider place=hamlet" />
		<tag k="name" v="Søndre Huristveit" />
		<tag k="place" v="farm" />
		<tag k="ssr:stedsnr" v="980314" />
	</node>
	<node id="-217766" lat="59.7824444428" lon="9.20456111931">
		<tag k="name" v="Nordstulhytta" />
		<tag k="place" v="isolated_dwelling" />
		<tag k="ssr:stedsnr" v="247375" />
	</node>
	<node id="-219813" lat="59.5613771254" lon="9.17710039429">
		<tag k="fixme" v="consider place=hamlet" />
		<tag k="name" v="Vestre Rui" />
		<tag k="place" v="farm" />
		<tag k="ssr:stedsnr" v="980312" />
	</node>
	<node id="-219812" lat="59.5621382976" lon="9.18464119512">
		<tag k="fixme" v="consider place=hamlet" />
		<tag k="name" v="Søndre Rui" />
		<tag k="place" v="farm" />
		<tag k="ssr:stedsnr" v="980311" />
	</node>
	<node id="-219811" lat="59.5624401293" lon="9.19130996468">
		<tag k="fixme" v="consider place=hamlet" />
		<tag k="name" v="Holland" />
		<tag k="place" v="farm" />
		<tag k="ssr:stedsnr" v="980310" />
	</node>
	<node id="-219810" lat="59.5602335876" lon="9.20082957872">
		<tag k="fixme" v="consider place=hamlet" />
		<tag k="name" v="Undelåna" />
		<tag k="place" v="farm" />
		<tag k="ssr:stedsnr" v="980308" />
	</node>
	<node id="-219809" lat="59.5566468431" lon="9.20432573183">
		<tag k="name" v="Yli" />
		<tag k="place" v="hamlet" />
		<tag k="ssr:stedsnr" v="980307" />
	</node>
	<node id="-217760" lat="59.5966472222" lon="9.27085277763">
		<tag k="fixme" v="consider place=suburb, village or hamlet" />
		<tag k="name" v="Svelgfoss" />
		<tag k="place" v="quarter" />
		<tag k="ssr:stedsnr" v="246828" />
	</node>
	<node id="-219807" lat="59.55527831" lon="9.20281000521">
		<tag k="fixme" v="consider place=hamlet" />
		<tag k="name" v="Nordre Yli" />
		<tag k="place" v="farm" />
		<tag k="ssr:stedsnr" v="980305" />
	</node>
	<node id="-217758" lat="59.5918694425" lon="9.36162221437">
		<tag k="alt_name" v="Sløkjedalen" />
		<tag k="name" v="Sløkedalen" />
		<tag k="place" v="isolated_dwelling" />
		<tag k="ssr:stedsnr" v="246823" />
	</node>
	<node id="-219805" lat="59.5383603283" lon="9.26238981799">
		<tag k="fixme" v="consider place=hamlet" />
		<tag k="name" v="Midtstrand" />
		<tag k="place" v="farm" />
		<tag k="ssr:stedsnr" v="980303" />
	</node>
	<node id="-219804" lat="59.5356880579" lon="9.29463471736">
		<tag k="name" v="Ramberg" />
		<tag k="place" v="hamlet" />
		<tag k="ssr:stedsnr" v="980302" />
	</node>
	<node id="-219803" lat="59.5326173881" lon="9.29906445047">
		<tag k="fixme" v="consider place=hamlet" />
		<tag k="name" v="Søndre Ramberg" />
		<tag k="place" v="farm" />
		<tag k="ssr:stedsnr" v="980301" />
	</node>
	<node id="-219802" lat="59.5362866516" lon="9.29309149516">
		<tag k="fixme" v="consider place=hamlet" />
		<tag k="name" v="Midgard Ramberg" />
		<tag k="place" v="farm" />
		<tag k="ssr:stedsnr" v="980300" />
	</node>
	<node id="-219801" lat="59.5386657431" lon="9.28893732609">
		<tag k="fixme" v="consider place=hamlet" />
		<tag k="name" v="Nordre Ramberg" />
		<tag k="place" v="farm" />
		<tag k="ssr:stedsnr" v="980299" />
	</node>
	<node id="-219800" lat="59.5541219783" lon="9.28695515441">
		<tag k="name" v="Tveiten" />
		<tag k="place" v="locality" />
		<tag k="ssr:stedsnr" v="980298" />
	</node>
	<node id="-219798" lat="59.5712258391" lon="9.21019839595">
		<tag k="name" v="Sem" />
		<tag k="place" v="hamlet" />
		<tag k="ssr:stedsnr" v="980295" />
	</node>
	<node id="-219797" lat="59.5715967685" lon="9.21644119444">
		<tag k="fixme" v="consider place=hamlet" />
		<tag k="name" v="Søndre Sem" />
		<tag k="place" v="farm" />
		<tag k="ssr:stedsnr" v="980294" />
	</node>
	<node id="-219796" lat="59.5722832051" lon="9.20893376404">
		<tag k="fixme" v="consider place=hamlet" />
		<tag k="name" v="Nordre Sem" />
		<tag k="place" v="farm" />
		<tag k="ssr:stedsnr" v="980293" />
	</node>
	<node id="-219795" lat="59.5790174956" lon="9.17717389444">
		<tag k="fixme" v="consider place=hamlet" />
		<tag k="name" v="Prestegården" />
		<tag k="place" v="farm" />
		<tag k="ssr:stedsnr" v="980292" />
	</node>
	<node id="-219794" lat="59.5835209902" lon="9.1771831254">
		<tag k="name" v="Ryen" />
		<tag k="place" v="hamlet" />
		<tag k="ssr:stedsnr" v="980291" />
	</node>
	<node id="-219793" lat="59.5817726647" lon="9.18017950729">
		<tag k="fixme" v="consider place=hamlet" />
		<tag k="name" v="Søndre Ryen" />
		<tag k="place" v="farm" />
		<tag k="ssr:stedsnr" v="980290" />
	</node>
	<node id="-219792" lat="59.5820599373" lon="9.17367853258">
		<tag k="fixme" v="consider place=hamlet" />
		<tag k="name" v="Nedre Ryen" />
		<tag k="place" v="farm" />
		<tag k="ssr:stedsnr" v="980289" />
	</node>
	<node id="-219791" lat="59.584370529" lon="9.17762112436">
		<tag k="fixme" v="consider place=hamlet" />
		<tag k="name" v="Øvre Ryen" />
		<tag k="place" v="farm" />
		<tag k="ssr:stedsnr" v="980288" />
	</node>
	<node id="-219790" lat="59.5917956186" lon="9.17130044083">
		<tag k="name" v="Holla" />
		<tag k="place" v="hamlet" />
		<tag k="ssr:stedsnr" v="980287" />
	</node>
	<node id="-219789" lat="59.5921051345" lon="9.18092857706">
		<tag k="fixme" v="consider place=hamlet" />
		<tag k="name" v="Øvre Holla" />
		<tag k="place" v="farm" />
		<tag k="ssr:stedsnr" v="980286" />
	</node>
	<node id="-219788" lat="59.5955148916" lon="9.15044520176">
		<tag k="name" v="Stiven" />
		<tag k="place" v="hamlet" />
		<tag k="ssr:stedsnr" v="980285" />
	</node>
	<node id="-219787" lat="59.583016745" lon="9.15275927539">
		<tag k="fixme" v="consider place=hamlet" />
		<tag k="name" v="Østre Rui" />
		<tag k="place" v="farm" />
		<tag k="ssr:stedsnr" v="980284" />
	</node>
	<node id="-219786" lat="59.5972967336" lon="9.15278066473">
		<tag k="fixme" v="consider place=hamlet" />
		<tag k="name" v="Søndre Stiven" />
		<tag k="place" v="farm" />
		<tag k="ssr:stedsnr" v="980283" />
	</node>
	<node id="-219785" lat="59.5902267981" lon="9.14430775477">
		<tag k="fixme" v="consider place=hamlet" />
		<tag k="name" v="Nordre Stiven" />
		<tag k="place" v="farm" />
		<tag k="ssr:stedsnr" v="980282" />
	</node>
	<node id="-219784" lat="59.5978638504" lon="9.1503544964">
		<tag k="fixme" v="consider place=hamlet" />
		<tag k="name" v="Åkre" />
		<tag k="place" v="farm" />
		<tag k="ssr:stedsnr" v="980281" />
	</node>
	<node id="-219783" lat="59.6005209389" lon="9.14004340636">
		<tag k="fixme" v="consider place=hamlet" />
		<tag k="name" v="Gangvik" />
		<tag k="place" v="farm" />
		<tag k="ssr:stedsnr" v="980280" />
	</node>
	<node id="-219782" lat="59.6062261979" lon="9.12615935564">
		<tag k="name" v="Rekå" />
		<tag k="place" v="hamlet" />
		<tag k="ssr:stedsnr" v="980261" />
	</node>
	<node id="-219781" lat="59.6086717765" lon="9.12888373243">
		<tag k="fixme" v="consider place=hamlet" />
		<tag k="name" v="Øvre Rekå" />
		<tag k="place" v="farm" />
		<tag k="ssr:stedsnr" v="980258" />
	</node>
	<node id="-219780" lat="59.6104451099" lon="9.10406429771">
		<tag k="name" v="Hellem" />
		<tag k="place" v="hamlet" />
		<tag k="ssr:stedsnr" v="980256" />
	</node>
	<node id="-219779" lat="59.6088131957" lon="9.11104129154">
		<tag k="fixme" v="consider place=hamlet" />
		<tag k="name" v="Øvre Hellem" />
		<tag k="place" v="farm" />
		<tag k="ssr:stedsnr" v="980255" />
	</node>
	<node id="-219778" lat="59.6085850832" lon="9.1059627317">
		<tag k="fixme" v="consider place=hamlet" />
		<tag k="name" v="Nordre Hellem" />
		<tag k="place" v="farm" />
		<tag k="ssr:stedsnr" v="980252" />
	</node>
	<node id="-219777" lat="59.5982090688" lon="9.09743442075">
		<tag k="fixme" v="consider place=hamlet" />
		<tag k="name" v="Nordre Rui" />
		<tag k="place" v="farm" />
		<tag k="ssr:stedsnr" v="980251" />
	</node>
	<node id="-219776" lat="59.6054279823" lon="9.05143318636">
		<tag k="name" v="Sauer" />
		<tag k="place" v="hamlet" />
		<tag k="ssr:stedsnr" v="980250" />
	</node>
	<node id="-217727" lat="59.6988749993" lon="9.01024721347">
		<tag k="name" v="Oterbekk" />
		<tag k="place" v="isolated_dwelling" />
		<tag k="ssr:stedsnr" v="246182" />
	</node>
	<node id="-217721" lat="59.7347861138" lon="8.99868055208">
		<tag k="fixme" v="consider place=hamlet" />
		<tag k="name" v="Bergan" />
		<tag k="place" v="farm" />
		<tag k="ssr:stedsnr" v="246125" />
	</node>
	<node id="-217719" lat="59.7439055583" lon="9.03538334058">
		<tag k="name" v="Brennemo" />
		<tag k="place" v="isolated_dwelling" />
		<tag k="ssr:stedsnr" v="246122" />
	</node>
	<node id="-217717" lat="59.7489083339" lon="9.12223888466">
		<tag k="alt_name" v="Sandaroe" />
		<tag k="name" v="Sandaroi" />
		<tag k="place" v="isolated_dwelling" />
		<tag k="ssr:stedsnr" v="246115" />
	</node>
	<node id="-217715" lat="59.7376805559" lon="8.96052500627">
		<tag k="name" v="Gvammen" />
		<tag k="place" v="isolated_dwelling" />
		<tag k="ssr:stedsnr" v="246009" />
	</node>
	<node id="-217714" lat="59.7425333319" lon="8.94699999573">
		<tag k="name" v="Veslero" />
		<tag k="place" v="isolated_dwelling" />
		<tag k="ssr:stedsnr" v="246004" />
	</node>
	<node id="-219757" lat="59.7067611081" lon="8.9476388812">
		<tag k="historic" v="shieling" />
		<tag k="name" v="Sæterstul" />
		<tag k="place" v="locality" />
		<tag k="ssr:stedsnr" v="967976" />
	</node>
	<node id="-217707" lat="59.6411972214" lon="9.21842499881">
		<tag k="name" v="Aursand" />
		<tag k="place" v="farm" />
		<tag k="ssr:stedsnr" v="245883" />
	</node>
	<node id="-217705" lat="59.609102777" lon="9.28640278389">
		<tag k="name" v="Halvorsgard" />
		<tag k="place" v="farm" />
		<tag k="ssr:stedsnr" v="245860" />
	</node>
	<node id="-217700" lat="59.5266027763" lon="8.92443055753">
		<tag k="name" v="Aslakstul" />
		<tag k="place" v="locality" />
		<tag k="ssr:stedsnr" v="245366" />
	</node>
	<node id="-219745" lat="59.7518055513" lon="9.00165278223">
		<tag k="historic" v="shieling" />
		<tag k="name" v="Haugestøl" />
		<tag k="place" v="locality" />
		<tag k="ssr:stedsnr" v="965086" />
	</node>
	<node id="-219735" lat="59.6184777735" lon="9.32060555351">
		<tag k="name" v="Jønnbua" />
		<tag k="place" v="locality" />
		<tag k="ssr:stedsnr" v="956521" />
	</node>
	<node id="-217529" lat="59.8805861116" lon="8.91283611089">
		<tag k="alt_name" v="Fåne, n" />
		<tag k="name" v="Fåne" />
		<tag k="place" v="isolated_dwelling" />
		<tag k="ssr:stedsnr" v="186520" />
	</node>
	<node id="-219728" lat="59.5360499963" lon="9.30160833082">
		<tag k="name" v="Kåsa" />
		<tag k="place" v="farm" />
		<tag k="ssr:stedsnr" v="955941" />
	</node>
	<node id="-219727" lat="59.7011083339" lon="9.01091944832">
		<tag k="name" v="Mjellekås" />
		<tag k="place" v="farm" />
		<tag k="ssr:stedsnr" v="955929" />
	</node>
	<node id="-219725" lat="59.5293749997" lon="9.3415777748">
		<tag k="name" v="Vårbu" />
		<tag k="place" v="locality" />
		<tag k="ssr:stedsnr" v="955923" />
	</node>
	<node id="-217527" lat="59.8504194427" lon="8.94018889333">
		<tag k="alt_name" v="Hovde" />
		<tag k="fixme" v="consider place=hamlet" />
		<tag k="name" v="Hovda" />
		<tag k="place" v="farm" />
		<tag k="ssr:stedsnr" v="186510" />
	</node>
	<node id="-219814" lat="59.5618786662" lon="9.18043816701">
		<tag k="name" v="Rui" />
		<tag k="place" v="hamlet" />
		<tag k="ssr:stedsnr" v="980313" />
	</node>
	<node id="-219708" lat="59.5812472179" lon="9.34348611784">
		<tag k="name" v="Goasholt" />
		<tag k="place" v="locality" />
		<tag k="ssr:stedsnr" v="955107" />
	</node>
	<node id="-217533" lat="59.7925527767" lon="9.1885888907">
		<tag k="historic" v="shieling" />
		<tag k="name" v="Grotbua" />
		<tag k="place" v="locality" />
		<tag k="ssr:stedsnr" v="186427" />
	</node>
	<node id="-217183" lat="59.5954027798" lon="9.03506665856">
		<tag k="name" v="Moen" />
		<tag k="place" v="farm" />
		<tag k="ssr:stedsnr" v="106152" />
	</node>
	<node id="-216157" lat="59.53525556" lon="9.25890277215">
		<tag k="name" v="Strand" />
		<tag k="place" v="hamlet" />
		<tag k="ssr:stedsnr" v="300003" />
	</node>
	<node id="-217522" lat="59.7095388888" lon="9.31516389394">
		<tag k="alt_name" v="Fisketjørnstulen" />
		<tag k="historic" v="shieling" />
		<tag k="name" v="Fisketjønnstulen" />
		<tag k="place" v="locality" />
		<tag k="ssr:stedsnr" v="185980" />
	</node>
	<node id="-217642" lat="59.5601694485" lon="9.36528333908">
		<tag k="name" v="Damstugo" />
		<tag k="place" v="locality" />
		<tag k="ssr:stedsnr" v="227131" />
	</node>
	<node id="-219688" lat="59.5545166658" lon="9.07310000632">
		<tag k="name" v="Rosttjønnbekken" />
		<tag k="place" v="locality" />
		<tag k="ssr:stedsnr" v="954897" />
	</node>
	<node id="-219685" lat="59.646152778" lon="9.18721665846">
		<tag k="name" v="Heimstul" />
		<tag k="place" v="locality" />
		<tag k="ssr:stedsnr" v="954830" />
	</node>
	<node id="-217630" lat="59.6217805586" lon="9.17058334179">
		<tag k="historic" v="shieling" />
		<tag k="name" v="Grautedalen" />
		<tag k="place" v="locality" />
		<tag k="ssr:stedsnr" v="226912" />
	</node>
	<node id="-219677" lat="59.6012722208" lon="9.12521389589">
		<tag k="name" v="Småkasin" />
		<tag k="place" v="farm" />
		<tag k="ssr:stedsnr" v="954609" />
	</node>
	<node id="-219676" lat="59.598927774" lon="9.1721777815">
		<tag k="name" v="Bakkalia" />
		<tag k="place" v="farm" />
		<tag k="ssr:stedsnr" v="954604" />
	</node>
	<node id="-219675" lat="59.6018638894" lon="9.17357499211">
		<tag k="name" v="Haukelia" />
		<tag k="place" v="farm" />
		<tag k="ssr:stedsnr" v="954602" />
	</node>
	<node id="-219674" lat="59.5939888928" lon="9.14603332512">
		<tag k="name" v="Stivimoen" />
		<tag k="place" v="quarter" />
		<tag k="ssr:stedsnr" v="954596" />
	</node>
	<node id="-219672" lat="59.5443666698" lon="9.23706944837">
		<tag k="name" v="Dalen" />
		<tag k="place" v="farm" />
		<tag k="ssr:stedsnr" v="954552" />
	</node>
	<node id="-219670" lat="59.5711666678" lon="9.25269722012">
		<tag k="name" v="Bergstugo" />
		<tag k="place" v="locality" />
		<tag k="ssr:stedsnr" v="954510" />
	</node>
	<node id="-219667" lat="59.5799166663" lon="9.20125833755">
		<tag k="name" v="Lia" />
		<tag k="place" v="quarter" />
		<tag k="ssr:stedsnr" v="954365" />
	</node>
	<node id="-219666" lat="59.5715222202" lon="9.20544444903">
		<tag k="name" v="Semsjordet" />
		<tag k="place" v="quarter" />
		<tag k="ssr:stedsnr" v="954335" />
	</node>
	<node id="-219665" lat="59.5898083303" lon="9.18219999166">
		<tag k="name" v="Holla" />
		<tag k="place" v="farm" />
		<tag k="ssr:stedsnr" v="954330" />
	</node>
	<node id="-217616" lat="59.543788888" lon="9.1696083279">
		<tag k="historic" v="shieling" />
		<tag k="name" v="Siljustul" />
		<tag k="place" v="locality" />
		<tag k="ssr:stedsnr" v="226739" />
	</node>
	<node id="-217614" lat="59.5373777759" lon="9.25273055319">
		<tag k="name" v="Øyan" />
		<tag k="place" v="farm" />
		<tag k="ssr:stedsnr" v="226655" />
	</node>
	<node id="-219661" lat="59.5866722233" lon="9.1540500059">
		<tag k="name" v="Smedsrud nedre" />
		<tag k="place" v="farm" />
		<tag k="ssr:stedsnr" v="954172" />
	</node>
	<node id="-217612" lat="59.6001888893" lon="9.1652472306">
		<tag k="fixme" v="consider place=hamlet" />
		<tag k="name" v="Enggrav" />
		<tag k="place" v="farm" />
		<tag k="ssr:stedsnr" v="226641" />
	</node>
	<node id="-219659" lat="59.5891805527" lon="9.0688666624">
		<tag k="name" v="Åse" />
		<tag k="place" v="farm" />
		<tag k="ssr:stedsnr" v="954155" />
	</node>
	<node id="-217610" lat="59.6027361142" lon="9.07551667155">
		<tag k="name" v="Hola" />
		<tag k="place" v="locality" />
		<tag k="ssr:stedsnr" v="226619" />
	</node>
	<node id="-217609" lat="59.5959750029" lon="9.1208833276">
		<tag k="name" v="Slettemoen" />
		<tag k="place" v="farm" />
		<tag k="ssr:stedsnr" v="226614" />
	</node>
	<node id="-219655" lat="59.5585722197" lon="9.18901666194">
		<tag k="name" v="Kåsa" />
		<tag k="place" v="farm" />
		<tag k="ssr:stedsnr" v="954065" />
	</node>
	<node id="-219654" lat="59.5730250012" lon="9.04189166691">
		<tag k="name" v="Pongerud" />
		<tag k="place" v="locality" />
		<tag k="ssr:stedsnr" v="954066" />
	</node>
	<node id="-219652" lat="59.5556833362" lon="9.19344166946">
		<tag k="name" v="Moen" />
		<tag k="place" v="farm" />
		<tag k="ssr:stedsnr" v="954055" />
	</node>
	<node id="-217601" lat="59.6735361088" lon="9.08853334101">
		<tag k="name" v="Bøenstulen" />
		<tag k="place" v="locality" />
		<tag k="ssr:stedsnr" v="226451" />
	</node>
	<node id="-217599" lat="59.5753527756" lon="9.18297499405">
		<tag k="name" v="Moen" />
		<tag k="place" v="farm" />
		<tag k="ssr:stedsnr" v="226411" />
	</node>
	<node id="-217597" lat="59.5835111075" lon="9.1652166752">
		<tag k="name" v="Dikekåsa" />
		<tag k="place" v="farm" />
		<tag k="ssr:stedsnr" v="226216" />
	</node>
	<node id="-219644" lat="59.5594833313" lon="9.28065554851">
		<tag k="name" v="Tinnekasin" />
		<tag k="place" v="quarter" />
		<tag k="ssr:stedsnr" v="953223" />
	</node>
	<node id="-219642" lat="59.8117861134" lon="8.99166666081">
		<tag k="name" v="Luen" />
		<tag k="place" v="farm" />
		<tag k="ssr:stedsnr" v="952771" />
	</node>
	<node id="-217592" lat="59.612499999" lon="9.01298611124">
		<tag k="name" v="Myre" />
		<tag k="place" v="farm" />
		<tag k="ssr:stedsnr" v="226176" />
	</node>
	<node id="-217589" lat="59.5655027817" lon="9.25720555813">
		<tag k="name" v="Tinnesmoen" />
		<tag k="place" v="quarter" />
		<tag k="ssr:stedsnr" v="226154" />
	</node>
	<node id="-217588" lat="59.5910638923" lon="9.10626110688">
		<tag k="fixme" v="consider place=hamlet" />
		<tag k="name" v="Tubås" />
		<tag k="place" v="farm" />
		<tag k="ssr:stedsnr" v="226155" />
	</node>
	<node id="-217586" lat="59.562763886" lon="9.1744333379">
		<tag k="name" v="Hustveit" />
		<tag k="place" v="locality" />
		<tag k="ssr:stedsnr" v="226122" />
	</node>
	<node id="-217577" lat="59.570238892" lon="9.21990278448">
		<tag k="name" v="Kleiverud" />
		<tag k="place" v="locality" />
		<tag k="ssr:stedsnr" v="226023" />
	</node>
	<node id="-219622" lat="59.7224194442" lon="9.27348610979">
		<tag k="alt_name" v="Nedre Bolkesjø" />
		<tag k="fixme" v="consider place=hamlet" />
		<tag k="name" v="Nerigard Bolkesjø" />
		<tag k="place" v="farm" />
		<tag k="ssr:stedsnr" v="951000" />
	</node>
	<node id="-217565" lat="59.834058332" lon="8.95274999262">
		<tag k="historic" v="shieling" />
		<tag k="name" v="Almelie" />
		<tag k="place" v="locality" />
		<tag k="ssr:stedsnr" v="224112" />
	</node>
	<node id="-217850" lat="59.7426444428" lon="9.23040277363">
		<tag k="name" v="Hellem" />
		<tag k="place" v="farm" />
		<tag k="ssr:stedsnr" v="428452" />
	</node>
	<node id="-219610" lat="59.7802194421" lon="8.97441944836">
		<tag k="alt_name" v="N. Fjellstul" />
		<tag k="name" v="Nordre Fjellstul" />
		<tag k="place" v="isolated_dwelling" />
		<tag k="ssr:stedsnr" v="950019" />
	</node>
	<node id="-219609" lat="59.5774275568" lon="9.29636130401">
		<tag k="name" v="Tinne" />
		<tag k="place" v="locality" />
		<tag k="ssr:stedsnr" v="946175" />
	</node>
	<node id="-219608" lat="59.7496888849" lon="9.25783055264">
		<tag k="name" v="Flatlisætra" />
		<tag k="place" v="locality" />
		<tag k="ssr:stedsnr" v="914990" />
	</node>
	<node id="-219607" lat="59.5167777789" lon="8.84247500798">
		<tag k="name" v="Urdevatnar" />
		<tag k="place" v="isolated_dwelling" />
		<tag k="ssr:stedsnr" v="914980" />
	</node>
	<node id="-217557" lat="59.8172138877" lon="8.86778611944">
		<tag k="historic" v="shieling" />
		<tag k="name" v="Vasslian" />
		<tag k="place" v="locality" />
		<tag k="ssr:stedsnr" v="222812" />
	</node>
	<node id="-217166" lat="59.5331138932" lon="9.30439167175">
		<tag k="name" v="Ramberg" />
		<tag k="place" v="farm" />
		<tag k="ssr:stedsnr" v="105954" />
	</node>
	<node id="-217507" lat="59.5842999982" lon="9.32937499218">
		<tag k="name" v="Ingerhøy" />
		<tag k="place" v="isolated_dwelling" />
		<tag k="ssr:stedsnr" v="185776" />
	</node>
	<node id="-219600" lat="59.8118944465" lon="9.00826667462">
		<tag k="name" v="Galten" />
		<tag k="place" v="isolated_dwelling" />
		<tag k="ssr:stedsnr" v="914513" />
	</node>
	<node id="-219597" lat="59.8567527787" lon="8.87946388993">
		<tag k="name" v="Skinholt" />
		<tag k="place" v="locality" />
		<tag k="ssr:stedsnr" v="914474" />
	</node>
	<node id="-219596" lat="59.8544444418" lon="8.94194999589">
		<tag k="alt_name" v="Rue" />
		<tag k="name" v="Rui" />
		<tag k="place" v="isolated_dwelling" />
		<tag k="ssr:stedsnr" v="914472" />
	</node>
	<node id="-219595" lat="59.8396027818" lon="8.88864444621">
		<tag k="alt_name" v="Glahaug" />
		<tag k="name" v="Gladhaug" />
		<tag k="place" v="isolated_dwelling" />
		<tag k="ssr:stedsnr" v="914463" />
	</node>
	<node id="-217545" lat="59.6741722233" lon="9.36207776927">
		<tag k="historic" v="shieling" />
		<tag k="name" v="Ræpliseter" />
		<tag k="place" v="locality" />
		<tag k="ssr:stedsnr" v="222935" />
	</node>
	<node id="-219592" lat="59.8310209887" lon="8.980697526">
		<tag k="fixme" v="consider place=hamlet" />
		<tag k="name" v="Sanden" />
		<tag k="place" v="farm" />
		<tag k="ssr:stedsnr" v="914444" />
	</node>
	<node id="-217543" lat="59.6148638918" lon="9.28039166506">
		<tag k="name" v="Silva" />
		<tag k="place" v="quarter" />
		<tag k="ssr:stedsnr" v="207500" />
	</node>
	<node id="-219589" lat="59.7746805588" lon="9.08563055775">
		<tag k="name" v="Krosshøl" />
		<tag k="place" v="isolated_dwelling" />
		<tag k="ssr:stedsnr" v="914376" />
	</node>
	<node id="-219588" lat="59.697211114" lon="9.03830000032">
		<tag k="alt_name" v="Lirunningen" />
		<tag k="name" v="Lirudningen" />
		<tag k="place" v="isolated_dwelling" />
		<tag k="ssr:stedsnr" v="914152" />
	</node>
	<node id="-219586" lat="59.7412999998" lon="9.08029999285">
		<tag k="name" v="Tjågestul" />
		<tag k="place" v="isolated_dwelling" />
		<tag k="ssr:stedsnr" v="914125" />
	</node>
	<node id="-219584" lat="59.7416500013" lon="9.20561111288">
		<tag k="name" v="Engevoll" />
		<tag k="place" v="isolated_dwelling" />
		<tag k="ssr:stedsnr" v="914120" />
	</node>
	<node id="-219583" lat="59.535030559" lon="9.29329721702">
		<tag k="name" v="Ramberg" />
		<tag k="place" v="farm" />
		<tag k="ssr:stedsnr" v="914006" />
	</node>
	<node id="-219581" lat="59.651149999" lon="9.21917222011">
		<tag k="name" v="Lauvøya" />
		<tag k="place" v="farm" />
		<tag k="ssr:stedsnr" v="913872" />
	</node>
	<node id="-219579" lat="59.5961055533" lon="9.26224166173">
		<tag k="name" v="Nymoen" />
		<tag k="place" v="farm" />
		<tag k="ssr:stedsnr" v="913835" />
	</node>
	<node id="-219577" lat="59.6011277768" lon="9.40285277223">
		<tag k="name" v="Fjellstul" />
		<tag k="place" v="isolated_dwelling" />
		<tag k="ssr:stedsnr" v="913808" />
	</node>
	<node id="-217528" lat="59.8530555545" lon="8.90327500661">
		<tag k="alt_name" v="Nørebu" />
		<tag k="name" v="Nørdrebu" />
		<tag k="place" v="isolated_dwelling" />
		<tag k="ssr:stedsnr" v="186513" />
	</node>
	<node id="-219575" lat="59.5796194486" lon="9.27383055765">
		<tag k="name" v="Oppskogen" />
		<tag k="place" v="farm" />
		<tag k="ssr:stedsnr" v="913773" />
	</node>
	<node id="-219573" lat="59.53867222" lon="9.35697222165">
		<tag k="name" v="Vårbu" />
		<tag k="place" v="isolated_dwelling" />
		<tag k="ssr:stedsnr" v="913748" />
	</node>
	<node id="-217524" lat="59.8469500011" lon="8.94638611213">
		<tag k="alt_name" v="Sønstegård" />
		<tag k="fixme" v="consider place=hamlet" />
		<tag k="name" v="Sønstegard" />
		<tag k="place" v="farm" />
		<tag k="ssr:stedsnr" v="186503" />
	</node>
	<node id="-219570" lat="59.5508249988" lon="9.29252499953">
		<tag k="fixme" v="consider place=hamlet" />
		<tag k="name" v="Bentsrud" />
		<tag k="place" v="farm" />
		<tag k="ssr:stedsnr" v="913734" />
	</node>
	<node id="-219568" lat="59.5099972222" lon="9.22877222056">
		<tag k="name" v="Granin" />
		<tag k="place" v="isolated_dwelling" />
		<tag k="ssr:stedsnr" v="913707" />
	</node>
	<node id="-217518" lat="59.6412722185" lon="9.24343611027">
		<tag k="alt_name" v="Vestgvammen" />
		<tag k="name" v="Vestkvammen" />
		<tag k="place" v="isolated_dwelling" />
		<tag k="ssr:stedsnr" v="185881" />
	</node>
	<node id="-219565" lat="59.5520527754" lon="9.03240278615">
		<tag k="alt_name" v="Krokan" />
		<tag k="name" v="Kroken" />
		<tag k="place" v="isolated_dwelling" />
		<tag k="ssr:stedsnr" v="913414" />
	</node>
	<node id="-219564" lat="59.577855556" lon="9.00224443801">
		<tag k="name" v="Våtmyr" />
		<tag k="place" v="locality" />
		<tag k="ssr:stedsnr" v="913400" />
	</node>
	<node id="-219563" lat="59.5447111136" lon="9.2011388815">
		<tag k="name" v="Fåne" />
		<tag k="place" v="farm" />
		<tag k="ssr:stedsnr" v="913397" />
	</node>
	<node id="-219560" lat="59.5787166661" lon="9.17659166499">
		<tag k="name" v="Holmen" />
		<tag k="place" v="farm" />
		<tag k="ssr:stedsnr" v="913349" />
	</node>
	<node id="-219559" lat="59.5900638862" lon="9.07887499235">
		<tag k="name" v="Dalen" />
		<tag k="place" v="farm" />
		<tag k="ssr:stedsnr" v="913330" />
	</node>
	<node id="-217510" lat="59.5527750041" lon="9.28447499285">
		<tag k="name" v="Tveiten" />
		<tag k="place" v="farm" />
		<tag k="ssr:stedsnr" v="185743" />
	</node>
	<node id="-217509" lat="59.5466261572" lon="9.29884293673">
		<tag k="name" v="Tunga" />
		<tag k="place" v="farm" />
		<tag k="ssr:stedsnr" v="185737" />
	</node>
	<node id="-219556" lat="59.6294694489" lon="9.15481944141">
		<tag k="name" v="Trånåbu" />
		<tag k="place" v="locality" />
		<tag k="ssr:stedsnr" v="913271" />
	</node>
	<node id="-219555" lat="59.5964138902" lon="9.16338056249">
		<tag k="name" v="Tovsrud" />
		<tag k="place" v="farm" />
		<tag k="ssr:stedsnr" v="913252" />
	</node>
	<node id="-219554" lat="59.5912333293" lon="9.17607499812">
		<tag k="name" v="Holla" />
		<tag k="place" v="farm" />
		<tag k="ssr:stedsnr" v="913250" />
	</node>
	<node id="-219552" lat="59.6742861103" lon="9.03186388912">
		<tag k="name" v="Tråerkåsa" />
		<tag k="place" v="locality" />
		<tag k="ssr:stedsnr" v="913227" />
	</node>
	<node id="-219551" lat="59.6796861143" lon="9.18985554819">
		<tag k="alt_name" v="Follsærås;Folserås" />
		<tag k="fixme" v="consider place=hamlet" />
		<tag k="name" v="Follserås" />
		<tag k="place" v="farm" />
		<tag k="ssr:stedsnr" v="913214" />
	</node>
	<node id="-219550" lat="59.6754416637" lon="9.06359443718">
		<tag k="historic" v="shieling" />
		<tag k="name" v="Storemyr" />
		<tag k="place" v="locality" />
		<tag k="ssr:stedsnr" v="913210" />
	</node>
	<node id="-217498" lat="59.5555805554" lon="9.03881110988">
		<tag k="alt_name" v="Løkelia" />
		<tag k="name" v="Løkjelia" />
		<tag k="place" v="isolated_dwelling" />
		<tag k="ssr:stedsnr" v="185391" />
	</node>
	<node id="-216815" lat="59.5373722199" lon="9.32139999202">
		<tag k="name" v="Dammyra" />
		<tag k="place" v="isolated_dwelling" />
		<tag k="ssr:stedsnr" v="3752" />
	</node>
	<node id="-219544" lat="59.6991277796" lon="9.13643055238">
		<tag k="name" v="Dalen" />
		<tag k="place" v="isolated_dwelling" />
		<tag k="ssr:stedsnr" v="913157" />
	</node>
	<node id="-219543" lat="59.6844611137" lon="9.19551110459">
		<tag k="name" v="Odden" />
		<tag k="place" v="farm" />
		<tag k="ssr:stedsnr" v="913139" />
	</node>
	<node id="-219542" lat="59.7178250031" lon="8.9523888958">
		<tag k="name" v="Nystul" />
		<tag k="place" v="locality" />
		<tag k="ssr:stedsnr" v="913094" />
	</node>
	<node id="-217497" lat="59.566033334" lon="9.09325832646">
		<tag k="name" v="Skjeggestul" />
		<tag k="place" v="isolated_dwelling" />
		<tag k="ssr:stedsnr" v="185386" />
	</node>
	<node id="-217492" lat="59.6593250038" lon="9.12441388945">
		<tag k="alt_name" v="Grautebua" />
		<tag k="name" v="Grautebu" />
		<tag k="place" v="locality" />
		<tag k="ssr:stedsnr" v="185195" />
	</node>
	<node id="-219539" lat="59.6998416638" lon="8.96788888654">
		<tag k="fixme" v="consider place=hamlet" />
		<tag k="name" v="Sætre" />
		<tag k="place" v="farm" />
		<tag k="ssr:stedsnr" v="913068" />
	</node>
	<node id="-219808" lat="59.557805675" lon="9.20401866905">
		<tag k="fixme" v="consider place=hamlet" />
		<tag k="name" v="Søndre Yli" />
		<tag k="place" v="farm" />
		<tag k="ssr:stedsnr" v="980306" />
	</node>
	<node id="-217486" lat="59.7607916703" lon="9.01208333543">
		<tag k="name" v="Lynnevikstulen" />
		<tag k="place" v="locality" />
		<tag k="ssr:stedsnr" v="185260" />
	</node>
	<node id="-217484" lat="59.5874500007" lon="9.17210277447">
		<tag k="fixme" v="consider place=hamlet" />
		<tag k="name" v="Heddal" />
		<tag k="place" v="village" />
		<tag k="ssr:stedsnr" v="185252" />
	</node>
	<node id="-219529" lat="59.7721305586" lon="9.10583055211">
		<tag k="historic" v="shieling" />
		<tag k="name" v="Reisjåstulen" />
		<tag k="place" v="locality" />
		<tag k="ssr:stedsnr" v="909390" />
	</node>
	<node id="-217480" lat="59.5989944455" lon="9.09710555803">
		<tag k="name" v="Kasin" />
		<tag k="place" v="farm" />
		<tag k="ssr:stedsnr" v="185238" />
	</node>
	<node id="-217478" lat="59.6711749978" lon="9.16656666318">
		<tag k="name" v="Vårås" />
		<tag k="place" v="farm" />
		<tag k="ssr:stedsnr" v="185219" />
	</node>
	<node id="-217477" lat="59.6797805514" lon="9.10435278574">
		<tag k="name" v="Høgeli" />
		<tag k="place" v="isolated_dwelling" />
		<tag k="ssr:stedsnr" v="185206" />
	</node>
	<node id="-216807" lat="59.5578777815" lon="8.97858055233">
		<tag k="name" v="Myregvarv" />
		<tag k="place" v="isolated_dwelling" />
		<tag k="ssr:stedsnr" v="3368" />
	</node>
	<node id="-217473" lat="59.7026833289" lon="9.11828610671">
		<tag k="name" v="Kåsa" />
		<tag k="place" v="locality" />
		<tag k="ssr:stedsnr" v="185160" />
	</node>
	<node id="-217472" lat="59.7291638873" lon="9.00863888478">
		<tag k="name" v="Bergsland" />
		<tag k="place" v="isolated_dwelling" />
		<tag k="ssr:stedsnr" v="185086" />
	</node>
	<node id="-217471" lat="59.7314611133" lon="9.02057221406">
		<tag k="name" v="Moen" />
		<tag k="place" v="farm" />
		<tag k="ssr:stedsnr" v="185081" />
	</node>
	<node id="-217493" lat="59.5884249985" lon="9.08669999909">
		<tag k="fixme" v="consider place=hamlet" />
		<tag k="name" v="Baugerud" />
		<tag k="place" v="farm" />
		<tag k="ssr:stedsnr" v="185322" />
	</node>
	<node id="-217467" lat="59.6842527787" lon="9.14546666621">
		<tag k="name" v="Årlifoss" />
		<tag k="place" v="hamlet" />
		<tag k="ssr:stedsnr" v="185127" />
	</node>
	<node id="-217466" lat="59.691955558" lon="9.12540555233">
		<tag k="alt_name" v="Runningen" />
		<tag k="name" v="Rudningen" />
		<tag k="place" v="farm" />
		<tag k="ssr:stedsnr" v="185123" />
	</node>
	<node id="-219504" lat="59.8530277757" lon="8.92648333542">
		<tag k="historic" v="shieling" />
		<tag k="name" v="Berglia" />
		<tag k="place" v="locality" />
		<tag k="ssr:stedsnr" v="907035" />
	</node>
	<node id="-219497" lat="59.5680361111" lon="9.21749165984">
		<tag k="name" v="Tuven" />
		<tag k="place" v="quarter" />
		<tag k="ssr:stedsnr" v="874430" />
	</node>
	<node id="-219494" lat="59.7526194483" lon="9.02001666593">
		<tag k="name" v="Lynnevik" />
		<tag k="place" v="farm" />
		<tag k="ssr:stedsnr" v="854595" />
	</node>
	<node id="-219489" lat="59.7635749994" lon="9.12702777347">
		<tag k="alt_name" v="Bjønndalen" />
		<tag k="name" v="Bjørndalen" />
		<tag k="place" v="locality" />
		<tag k="ssr:stedsnr" v="854409" />
	</node>
	<node id="-219329" lat="59.6869472224" lon="9.0985250009">
		<tag k="name" v="Lien" />
		<tag k="place" v="farm" />
		<tag k="ssr:stedsnr" v="833503" />
	</node>
	<node id="-216122" lat="59.6088416676" lon="9.31348333903">
		<tag k="name" v="Svarttjønnkåsa" />
		<tag k="place" v="isolated_dwelling" />
		<tag k="ssr:stedsnr" v="288062" />
	</node>
	<node id="-217487" lat="59.6081138888" lon="9.12426110249">
		<tag k="name" v="Rekå" />
		<tag k="place" v="farm" />
		<tag k="ssr:stedsnr" v="185263" />
	</node>
	<node id="-219478" lat="59.6233277806" lon="9.2690499967">
		<tag k="name" v="Hove" />
		<tag k="place" v="farm" />
		<tag k="ssr:stedsnr" v="853855" />
	</node>
	<node id="-219476" lat="59.6082777753" lon="9.28150555485">
		<tag k="alt_name" v="Graver" />
		<tag k="fixme" v="consider place=hamlet" />
		<tag k="name" v="Gravar" />
		<tag k="place" v="farm" />
		<tag k="ssr:stedsnr" v="853821" />
	</node>
	<node id="-219475" lat="59.5636999959" lon="9.28025277314">
		<tag k="fixme" v="consider place=hamlet" />
		<tag k="name" v="Heibø" />
		<tag k="place" v="farm" />
		<tag k="ssr:stedsnr" v="853788" />
	</node>
	<node id="-219472" lat="59.5207500037" lon="9.22220554931">
		<tag k="name" v="Velebua" />
		<tag k="place" v="isolated_dwelling" />
		<tag k="ssr:stedsnr" v="853737" />
	</node>
	<node id="-219471" lat="59.5194777776" lon="9.31222499596">
		<tag k="name" v="Kåsa" />
		<tag k="place" v="farm" />
		<tag k="ssr:stedsnr" v="853714" />
	</node>
	<node id="-219469" lat="59.8024444467" lon="8.94219999353">
		<tag k="name" v="Torvelia" />
		<tag k="place" v="isolated_dwelling" />
		<tag k="ssr:stedsnr" v="853473" />
	</node>
	<node id="-219467" lat="59.7337722191" lon="9.23075000752">
		<tag k="name" v="Kåsa" />
		<tag k="place" v="farm" />
		<tag k="ssr:stedsnr" v="853435" />
	</node>
	<node id="-219466" lat="59.544627778" lon="8.92523888977">
		<tag k="historic" v="shieling" />
		<tag k="name" v="Gavlesjå" />
		<tag k="place" v="locality" />
		<tag k="ssr:stedsnr" v="853423" />
	</node>
	<node id="-218167" lat="59.6116" lon="9.28203056018">
		<tag k="name" v="Graverkasin" />
		<tag k="place" v="quarter" />
		<tag k="ssr:stedsnr" v="529526" />
	</node>
	<node id="-219464" lat="59.5238305529" lon="9.14784999248">
		<tag k="alt_name" v="Hankvarstul" />
		<tag k="name" v="Hankvarstulen" />
		<tag k="place" v="isolated_dwelling" />
		<tag k="ssr:stedsnr" v="853398" />
	</node>
	<node id="-219850" lat="59.7366759982" lon="9.22328701882">
		<tag k="fixme" v="consider place=hamlet" />
		<tag k="name" v="Søndre Helleberg" />
		<tag k="place" v="farm" />
		<tag k="ssr:stedsnr" v="980378" />
	</node>
	<node id="-219462" lat="59.5968083318" lon="9.03538611">
		<tag k="name" v="Moen" />
		<tag k="place" v="farm" />
		<tag k="ssr:stedsnr" v="853340" />
	</node>
	<node id="-219461" lat="59.586636107" lon="9.11298889212">
		<tag k="fixme" v="consider place=hamlet" />
		<tag k="name" v="Jamtveit" />
		<tag k="place" v="farm" />
		<tag k="ssr:stedsnr" v="853332" />
	</node>
	<node id="-219460" lat="59.5833944436" lon="9.13273610239">
		<tag k="alt_name" v="Grini" />
		<tag k="name" v="Grene" />
		<tag k="place" v="farm" />
		<tag k="ssr:stedsnr" v="853326" />
	</node>
	<node id="-219458" lat="59.590005553" lon="9.14643611271">
		<tag k="name" v="Velta" />
		<tag k="place" v="farm" />
		<tag k="ssr:stedsnr" v="853268" />
	</node>
	<node id="-219457" lat="59.7501416623" lon="8.9157416603">
		<tag k="alt_name" v="Tjørnebotn" />
		<tag k="name" v="Tjønnebotn" />
		<tag k="place" v="isolated_dwelling" />
		<tag k="ssr:stedsnr" v="853254" />
	</node>
	<node id="-216372" lat="59.6216083344" lon="9.04127500064">
		<tag k="name" v="Gammelstul" />
		<tag k="place" v="locality" />
		<tag k="ssr:stedsnr" v="348228" />
	</node>
	<node id="-219454" lat="59.604305552" lon="9.02057222609">
		<tag k="name" v="Dalen" />
		<tag k="place" v="farm" />
		<tag k="ssr:stedsnr" v="853242" />
	</node>
	<node id="-219453" lat="59.5660833359" lon="9.02422499392">
		<tag k="name" v="Bakken" />
		<tag k="place" v="farm" />
		<tag k="ssr:stedsnr" v="853238" />
	</node>
	<node id="-219452" lat="59.6040198265" lon="9.0934406666">
		<tag k="alt_name" v="Nøsterud" />
		<tag k="fixme" v="consider place=hamlet" />
		<tag k="name" v="Nørdsterud" />
		<tag k="place" v="farm" />
		<tag k="ssr:stedsnr" v="853231" />
	</node>
	<node id="-219451" lat="59.6013328854" lon="9.05815181343">
		<tag k="alt_name" v="Søndre Sauer" />
		<tag k="fixme" v="consider place=hamlet" />
		<tag k="name" v="Sauar" />
		<tag k="place" v="farm" />
		<tag k="ssr:stedsnr" v="853223" />
	</node>
	<node id="-219450" lat="59.6730944487" lon="8.8785444472">
		<tag k="name" v="Nybustugo" />
		<tag k="place" v="isolated_dwelling" />
		<tag k="ssr:stedsnr" v="853212" />
	</node>
	<node id="-216457" lat="59.6679861134" lon="8.98586666726">
		<tag k="name" v="Vårli" />
		<tag k="place" v="farm" />
		<tag k="ssr:stedsnr" v="367192" />
	</node>
	<node id="-219444" lat="59.6918638933" lon="8.95640556068">
		<tag k="name" v="Skardet" />
		<tag k="place" v="locality" />
		<tag k="ssr:stedsnr" v="853134" />
	</node>
	<node id="-219443" lat="59.6829499997" lon="9.05037777384">
		<tag k="name" v="Seljord" />
		<tag k="place" v="isolated_dwelling" />
		<tag k="ssr:stedsnr" v="853118" />
	</node>
	<node id="-219442" lat="59.6816250043" lon="8.98780000624">
		<tag k="name" v="Dokka" />
		<tag k="place" v="isolated_dwelling" />
		<tag k="ssr:stedsnr" v="853113" />
	</node>
	<node id="-219440" lat="59.7424861136" lon="9.06078611574">
		<tag k="name" v="Skitnebu" />
		<tag k="place" v="isolated_dwelling" />
		<tag k="ssr:stedsnr" v="853094" />
	</node>
	<node id="-219436" lat="59.7305833357" lon="8.98128610457">
		<tag k="alt_name" v="Rue" />
		<tag k="name" v="Rui" />
		<tag k="place" v="farm" />
		<tag k="ssr:stedsnr" v="853005" />
	</node>
	<node id="-217387" lat="59.6713611149" lon="9.23395832967">
		<tag k="name" v="Nystul" />
		<tag k="place" v="locality" />
		<tag k="ssr:stedsnr" v="165818" />
	</node>
	<node id="-219433" lat="59.6630500038" lon="9.36098055272">
		<tag k="alt_name" v="Breistul" />
		<tag k="historic" v="shieling" />
		<tag k="name" v="Breidstul" />
		<tag k="place" v="locality" />
		<tag k="ssr:stedsnr" v="852912" />
	</node>
	<node id="-217383" lat="59.6029749976" lon="9.15530555592">
		<tag k="name" v="Brekke" />
		<tag k="place" v="farm" />
		<tag k="ssr:stedsnr" v="165625" />
	</node>
	<node id="-217381" lat="59.5956333351" lon="9.13835278064">
		<tag k="name" v="Kolbjørnsrud" />
		<tag k="place" v="farm" />
		<tag k="ssr:stedsnr" v="165616" />
	</node>
	<node id="-219428" lat="59.6221444416" lon="9.02148055843">
		<tag k="name" v="Sauarlia" />
		<tag k="place" v="farm" />
		<tag k="ssr:stedsnr" v="852309" />
	</node>
	<node id="-217378" lat="59.6028222237" lon="9.09322777559">
		<tag k="name" v="Kåsa" />
		<tag k="place" v="farm" />
		<tag k="ssr:stedsnr" v="165562" />
	</node>
	<node id="-217377" lat="59.5994055538" lon="9.09257222908">
		<tag k="amenity" v="school" />
		<tag k="name" v="Nordbygda skule" />
		<tag k="ssr:stedsnr" v="165554" />
	</node>
	<node id="-217281" lat="59.8151138846" lon="8.97838611047">
		<tag k="alt_name" v="Lisland, øvre" />
		<tag k="name" v="Øvre Lisland" />
		<tag k="place" v="isolated_dwelling" />
		<tag k="ssr:stedsnr" v="124431" />
	</node>
	<node id="-217372" lat="59.6124472225" lon="9.27067500273">
		<tag k="name" v="Landsverk søndre" />
		<tag k="place" v="farm" />
		<tag k="ssr:stedsnr" v="165518" />
	</node>
	<node id="-217370" lat="59.6969111085" lon="9.10715555372">
		<tag k="alt_name" v="Øvre Folseland" />
		<tag k="fixme" v="consider place=hamlet" />
		<tag k="name" v="Folsland øvre" />
		<tag k="place" v="farm" />
		<tag k="ssr:stedsnr" v="165490" />
	</node>
	<node id="-219417" lat="59.8024000007" lon="8.94230834001">
		<tag k="historic" v="shieling" />
		<tag k="name" v="Torvelistulan" />
		<tag k="place" v="locality" />
		<tag k="ssr:stedsnr" v="847927" />
	</node>
	<node id="-217364" lat="59.5832888891" lon="9.18255832879">
		<tag k="name" v="Gvålen" />
		<tag k="place" v="farm" />
		<tag k="ssr:stedsnr" v="165375" />
	</node>
	<node id="-217417" lat="59.5299000013" lon="9.30686666419">
		<tag k="name" v="Brudalen" />
		<tag k="place" v="farm" />
		<tag k="ssr:stedsnr" v="166952" />
	</node>
	<node id="-217361" lat="59.5841611136" lon="9.17935833269">
		<tag k="name" v="Rygi" />
		<tag k="place" v="farm" />
		<tag k="ssr:stedsnr" v="165166" />
	</node>
	<node id="-217356" lat="59.5573999976" lon="9.20335000103">
		<tag k="name" v="Yli" />
		<tag k="place" v="farm" />
		<tag k="ssr:stedsnr" v="165109" />
	</node>
	<node id="-217354" lat="59.5917111106" lon="9.03547223013">
		<tag k="name" v="Øygarden" />
		<tag k="place" v="farm" />
		<tag k="ssr:stedsnr" v="165089" />
	</node>
	<node id="-219401" lat="59.5570722216" lon="9.04485000829">
		<tag k="name" v="Nystulvatnet" />
		<tag k="place" v="neighbourhood" />
		<tag k="ssr:stedsnr" v="846218" />
	</node>
	<node id="-217347" lat="59.5600805565" lon="9.2696916667">
		<tag k="name" v="Kattekleiv" />
		<tag k="place" v="quarter" />
		<tag k="ssr:stedsnr" v="164251" />
	</node>
	<node id="-216447" lat="59.6903944468" lon="9.0762694432">
		<tag k="name" v="Steinsrud" />
		<tag k="place" v="isolated_dwelling" />
		<tag k="ssr:stedsnr" v="367133" />
	</node>
	<node id="-217336" lat="59.8099083364" lon="8.96174999586">
		<tag k="historic" v="shieling" />
		<tag k="name" v="Listul" />
		<tag k="place" v="locality" />
		<tag k="ssr:stedsnr" v="163784" />
	</node>
	<node id="-219381" lat="59.6859999998" lon="9.04051944153">
		<tag k="name" v="Runningen" />
		<tag k="place" v="isolated_dwelling" />
		<tag k="ssr:stedsnr" v="834822" />
	</node>
	<node id="-219374" lat="59.5019333359" lon="8.82550555515">
		<tag k="name" v="Vesle Godal" />
		<tag k="place" v="locality" />
		<tag k="ssr:stedsnr" v="834436" />
	</node>
	<node id="-219362" lat="59.6191250036" lon="9.08605555789">
		<tag k="name" v="Sarp" />
		<tag k="place" v="locality" />
		<tag k="ssr:stedsnr" v="833956" />
	</node>
	<node id="-217308" lat="59.8451888911" lon="8.8617694462">
		<tag k="name" v="Øvrestul" />
		<tag k="place" v="isolated_dwelling" />
		<tag k="ssr:stedsnr" v="125487" />
	</node>
	<node id="-217307" lat="59.8375694435" lon="8.89400277058">
		<tag k="name" v="Myklebu" />
		<tag k="place" v="isolated_dwelling" />
		<tag k="ssr:stedsnr" v="125473" />
	</node>
	<node id="-219352" lat="59.6418750024" lon="9.13471944761">
		<tag k="name" v="Brekkehytta" />
		<tag k="place" v="locality" />
		<tag k="ssr:stedsnr" v="833890" />
	</node>
	<node id="-217295" lat="59.6181000015" lon="9.25187499429">
		<tag k="alt_name" v="Nykås" />
		<tag k="name" v="Nykåsa" />
		<tag k="place" v="farm" />
		<tag k="ssr:stedsnr" v="124848" />
	</node>
	<node id="-217294" lat="59.6049972212" lon="9.27630554696">
		<tag k="alt_name" v="Flaaten" />
		<tag k="fixme" v="consider place=hamlet" />
		<tag k="name" v="Flåten" />
		<tag k="place" v="farm" />
		<tag k="ssr:stedsnr" v="124793" />
	</node>
	<node id="-217293" lat="59.5631499961" lon="9.23975000462">
		<tag k="name" v="Tinnes" />
		<tag k="place" v="farm" />
		<tag k="ssr:stedsnr" v="124774" />
	</node>
	<node id="-219340" lat="59.6059305557" lon="9.09086666619">
		<tag k="name" v="Nørsterud" />
		<tag k="place" v="farm" />
		<tag k="ssr:stedsnr" v="833624" />
	</node>
	<node id="-217291" lat="59.5729222221" lon="9.39660278646">
		<tag k="historic" v="shieling" />
		<tag k="name" v="Øysteinstul" />
		<tag k="place" v="locality" />
		<tag k="ssr:stedsnr" v="124771" />
	</node>
	<node id="-219338" lat="59.6119833323" lon="9.12309166274">
		<tag k="name" v="Kvennhusmoen" />
		<tag k="place" v="farm" />
		<tag k="ssr:stedsnr" v="833621" />
	</node>
	<node id="-217288" lat="59.5378722179" lon="9.27042222718">
		<tag k="alt_name" v="Strandstå" />
		<tag k="name" v="Strandestå" />
		<tag k="place" v="farm" />
		<tag k="ssr:stedsnr" v="124739" />
	</node>
	<node id="-217287" lat="59.537924996" lon="9.3791222251">
		<tag k="name" v="Nybu" />
		<tag k="place" v="isolated_dwelling" />
		<tag k="ssr:stedsnr" v="124725" />
	</node>
	<node id="-217286" lat="59.5362222247" lon="9.30452778516">
		<tag k="name" v="Brattekås" />
		<tag k="place" v="farm" />
		<tag k="ssr:stedsnr" v="124716" />
	</node>
	<node id="-217285" lat="59.5198749971" lon="9.28127499266">
		<tag k="name" v="Simones" />
		<tag k="place" v="farm" />
		<tag k="ssr:stedsnr" v="124693" />
	</node>
	<node id="-217283" lat="59.7370249958" lon="9.22348056043">
		<tag k="name" v="Helleberg" />
		<tag k="place" v="farm" />
		<tag k="ssr:stedsnr" v="124436" />
	</node>
	<node id="-219851" lat="59.6072293509" lon="9.1236243041">
		<tag k="fixme" v="consider place=hamlet" />
		<tag k="name" v="Nedre Rekå" />
		<tag k="place" v="farm" />
		<tag k="ssr:stedsnr" v="980257" />
	</node>
	<node id="-217280" lat="59.8069861075" lon="9.00113056042">
		<tag k="alt_name" v="Øye" />
		<tag k="name" v="Øya" />
		<tag k="place" v="isolated_dwelling" />
		<tag k="ssr:stedsnr" v="124427" />
	</node>
	<node id="-217278" lat="59.7247500042" lon="9.27692499165">
		<tag k="name" v="Bolkesjø" />
		<tag k="place" v="hamlet" />
		<tag k="ssr:stedsnr" v="124388" />
	</node>
	<node id="-219323" lat="59.5758166677" lon="9.20947499776">
		<tag k="name" v="Kasin" />
		<tag k="place" v="farm" />
		<tag k="ssr:stedsnr" v="833345" />
	</node>
	<node id="-219322" lat="59.5817361073" lon="9.19740833805">
		<tag k="name" v="Solhovd" />
		<tag k="place" v="farm" />
		<tag k="ssr:stedsnr" v="833333" />
	</node>
	<node id="-219321" lat="59.6032833374" lon="9.07396944657">
		<tag k="name" v="Hambergkåsa" />
		<tag k="place" v="locality" />
		<tag k="ssr:stedsnr" v="833605" />
	</node>
	<node id="-217271" lat="59.5102777793" lon="8.90981945266">
		<tag k="historic" v="shieling" />
		<tag k="name" v="Hollan" />
		<tag k="place" v="locality" />
		<tag k="ssr:stedsnr" v="124327" />
	</node>
	<node id="-217270" lat="59.5112249994" lon="8.94176110286">
		<tag k="alt_name" v="Dyrdalsstulen" />
		<tag k="name" v="Dyrdalstulen" />
		<tag k="place" v="isolated_dwelling" />
		<tag k="ssr:stedsnr" v="124326" />
	</node>
	<node id="-217268" lat="59.5712083303" lon="9.1897722232">
		<tag k="name" v="Lysthus" />
		<tag k="place" v="farm" />
		<tag k="ssr:stedsnr" v="124309" />
	</node>
	<node id="-216094" lat="59.5973444414" lon="9.13116666225">
		<tag k="name" v="Haugen" />
		<tag k="place" v="farm" />
		<tag k="ssr:stedsnr" v="287643" />
	</node>
	<node id="-219314" lat="59.7215138884" lon="9.02729445031">
		<tag k="historic" v="shieling" />
		<tag k="name" v="Oskasin" />
		<tag k="place" v="locality" />
		<tag k="ssr:stedsnr" v="833129" />
	</node>
	<node id="-216459" lat="59.6203166637" lon="9.18519443753">
		<tag k="name" v="Listul" />
		<tag k="place" v="isolated_dwelling" />
		<tag k="ssr:stedsnr" v="367208" />
	</node>
	<node id="-217261" lat="59.5830611134" lon="9.18960833368">
		<tag k="alt_name" v="Hvålen" />
		<tag k="fixme" v="consider place=hamlet" />
		<tag k="name" v="Gvålen" />
		<tag k="place" v="farm" />
		<tag k="ssr:stedsnr" v="124221" />
	</node>
	<node id="-219308" lat="59.5595555521" lon="9.18996110703">
		<tag k="name" v="Engeland" />
		<tag k="place" v="farm" />
		<tag k="ssr:stedsnr" v="833053" />
	</node>
	<node id="-217258" lat="59.6004527791" lon="9.05985555398">
		<tag k="name" v="Sauar" />
		<tag k="place" v="farm" />
		<tag k="ssr:stedsnr" v="124201" />
	</node>
	<node id="-217253" lat="59.7154444425" lon="9.01266944398">
		<tag k="name" v="Kolekåsa" />
		<tag k="place" v="farm" />
		<tag k="ssr:stedsnr" v="124155" />
	</node>
	<node id="-217251" lat="59.680525003" lon="9.03853055636">
		<tag k="alt_name" v="Håve" />
		<tag k="fixme" v="consider place=hamlet" />
		<tag k="name" v="Hove" />
		<tag k="place" v="farm" />
		<tag k="ssr:stedsnr" v="124135" />
	</node>
	<node id="-217250" lat="59.6854527765" lon="9.15981944964">
		<tag k="name" v="Kåsa" />
		<tag k="place" v="isolated_dwelling" />
		<tag k="ssr:stedsnr" v="124116" />
	</node>
	<node id="-219294" lat="59.8385722245" lon="8.95519722867">
		<tag k="historic" v="shieling" />
		<tag k="name" v="Skuggen" />
		<tag k="place" v="locality" />
		<tag k="ssr:stedsnr" v="831099" />
	</node>
	<node id="-216425" lat="59.6078055517" lon="9.10437777354">
		<tag k="name" v="Hellem" />
		<tag k="place" v="farm" />
		<tag k="ssr:stedsnr" v="366301" />
	</node>
	<node id="-217754" lat="59.5398138927" lon="9.26043889624">
		<tag k="fixme" v="consider place=hamlet" />
		<tag k="name" v="Nordre Strand" />
		<tag k="place" v="farm" />
		<tag k="ssr:stedsnr" v="246744" />
	</node>
	<node id="-217238" lat="59.7350944483" lon="8.98114721626">
		<tag k="name" v="Venås" />
		<tag k="place" v="hamlet" />
		<tag k="ssr:stedsnr" v="124011" />
	</node>
	<node id="-217235" lat="59.49691667" lon="9.17367499711">
		<tag k="alt_name" v="Breistul" />
		<tag k="name" v="Breidstul" />
		<tag k="place" v="isolated_dwelling" />
		<tag k="ssr:stedsnr" v="123621" />
	</node>
	<node id="-216780" lat="59.6892833338" lon="9.18985555201">
		<tag k="fixme" v="consider place=hamlet" />
		<tag k="name" v="Vik" />
		<tag k="place" v="farm" />
		<tag k="ssr:stedsnr" v="3126" />
	</node>
	<node id="-219271" lat="59.8111611154" lon="9.24584999122">
		<tag k="name" v="Grøtbusætra, s" />
		<tag k="place" v="locality" />
		<tag k="ssr:stedsnr" v="793947" />
	</node>
	<node id="-217380" lat="59.5959250002" lon="9.17446389011">
		<tag k="name" v="Bakka" />
		<tag k="place" v="farm" />
		<tag k="ssr:stedsnr" v="165613" />
	</node>
	<node id="-217753" lat="59.543399999" lon="9.23015555499">
		<tag k="fixme" v="consider place=hamlet" />
		<tag k="name" v="Haugerud" />
		<tag k="place" v="farm" />
		<tag k="ssr:stedsnr" v="246741" />
	</node>
	<node id="-216426" lat="59.621730557" lon="9.04805278585">
		<tag k="alt_name" v="Hålåstul" />
		<tag k="name" v="Holastul" />
		<tag k="place" v="locality" />
		<tag k="ssr:stedsnr" v="366311" />
	</node>
	<node id="-219257" lat="59.5446972266" lon="9.22321388121">
		<tag k="fixme" v="consider place=hamlet" />
		<tag k="name" v="Flåterud" />
		<tag k="place" v="farm" />
		<tag k="ssr:stedsnr" v="792745" />
	</node>
	<node id="-219256" lat="59.5238000022" lon="9.30672500505">
		<tag k="fixme" v="consider place=hamlet" />
		<tag k="name" v="Tveitan" />
		<tag k="place" v="farm" />
		<tag k="ssr:stedsnr" v="792735" />
	</node>
	<node id="-216084" lat="59.5812666645" lon="9.18888334009">
		<tag k="name" v="Haugen" />
		<tag k="place" v="farm" />
		<tag k="ssr:stedsnr" v="287344" />
	</node>
	<node id="-219254" lat="59.8192111109" lon="8.98332499588">
		<tag k="name" v="Veslefet" />
		<tag k="place" v="farm" />
		<tag k="ssr:stedsnr" v="792489" />
	</node>
	<node id="-216698" lat="59.6082111089" lon="9.12547221774">
		<tag k="name" v="Rekå" />
		<tag k="place" v="farm" />
		<tag k="ssr:stedsnr" v="894628" />
	</node>
	<node id="-219253" lat="59.7352999976" lon="9.33037499756">
		<tag k="name" v="Dalen" />
		<tag k="place" v="farm" />
		<tag k="ssr:stedsnr" v="792488" />
	</node>
	<node id="-216083" lat="59.5826944477" lon="9.19022778147">
		<tag k="name" v="Hagen" />
		<tag k="place" v="farm" />
		<tag k="ssr:stedsnr" v="287343" />
	</node>
	<node id="-219246" lat="59.7315972234" lon="9.33547221547">
		<tag k="name" v="Dale" />
		<tag k="place" v="farm" />
		<tag k="ssr:stedsnr" v="792429" />
	</node>
	<node id="-219245" lat="59.73144722" lon="9.24640277141">
		<tag k="name" v="Skogholtet" />
		<tag k="place" v="farm" />
		<tag k="ssr:stedsnr" v="792418" />
	</node>
	<node id="-219243" lat="59.5556999975" lon="9.20136111401">
		<tag k="name" v="Yli" />
		<tag k="place" v="farm" />
		<tag k="ssr:stedsnr" v="792388" />
	</node>
	<node id="-219241" lat="59.6355722208" lon="9.09729999807">
		<tag k="alt_name" v="Seljordstulen" />
		<tag k="name" v="Seljordstul" />
		<tag k="place" v="isolated_dwelling" />
		<tag k="ssr:stedsnr" v="792274" />
	</node>
	<node id="-219240" lat="59.629911111" lon="9.08545832566">
		<tag k="alt_name" v="Hellemstul" />
		<tag k="name" v="Hellemstulen" />
		<tag k="place" v="isolated_dwelling" />
		<tag k="ssr:stedsnr" v="792273" />
	</node>
	<node id="-217190" lat="59.6779055532" lon="9.02376666184">
		<tag k="name" v="Stålen" />
		<tag k="place" v="farm" />
		<tag k="ssr:stedsnr" v="106815" />
	</node>
	<node id="-219237" lat="59.5982354469" lon="9.08207549253">
		<tag k="alt_name" v="Ingolfsrud;Ingulsrud" />
		<tag k="fixme" v="consider place=hamlet" />
		<tag k="name" v="Ingulvsrud" />
		<tag k="place" v="farm" />
		<tag k="ssr:stedsnr" v="792245" />
	</node>
	<node id="-219236" lat="59.5976194436" lon="9.06962778631">
		<tag k="name" v="Langedokk" />
		<tag k="place" v="farm" />
		<tag k="ssr:stedsnr" v="792239" />
	</node>
	<node id="-217185" lat="59.6198333333" lon="9.04653888359">
		<tag k="name" v="Skavdalen" />
		<tag k="place" v="locality" />
		<tag k="ssr:stedsnr" v="106231" />
	</node>
	<node id="-219231" lat="59.6613750003" lon="9.1837166605">
		<tag k="alt_name" v="Mork, nordre;Mork" />
		<tag k="fixme" v="consider place=hamlet" />
		<tag k="name" v="Nordre Mork" />
		<tag k="place" v="farm" />
		<tag k="ssr:stedsnr" v="792189" />
	</node>
	<node id="-217182" lat="59.5958694465" lon="9.02753333275">
		<tag k="name" v="Moen" />
		<tag k="place" v="farm" />
		<tag k="ssr:stedsnr" v="106153" />
	</node>
	<node id="-219227" lat="59.7146194461" lon="9.19265000852">
		<tag k="name" v="Anundskås" />
		<tag k="place" v="farm" />
		<tag k="ssr:stedsnr" v="792163" />
	</node>
	<node id="-219226" lat="59.6941527786" lon="9.0859777862">
		<tag k="name" v="Evju" />
		<tag k="place" v="isolated_dwelling" />
		<tag k="ssr:stedsnr" v="792155" />
	</node>
	<node id="-219225" lat="59.6904249999" lon="9.05456389119">
		<tag k="name" v="Frenderud" />
		<tag k="place" v="farm" />
		<tag k="ssr:stedsnr" v="792152" />
	</node>
	<node id="-219223" lat="59.6851555524" lon="8.99157778608">
		<tag k="name" v="Mjaugeto" />
		<tag k="place" v="isolated_dwelling" />
		<tag k="ssr:stedsnr" v="792145" />
	</node>
	<node id="-219222" lat="59.6812055549" lon="9.14527499349">
		<tag k="name" v="Hellemstulen" />
		<tag k="place" v="farm" />
		<tag k="ssr:stedsnr" v="792131" />
	</node>
	<node id="-219218" lat="59.7053416642" lon="8.92946388245">
		<tag k="name" v="Nappedal" />
		<tag k="place" v="isolated_dwelling" />
		<tag k="ssr:stedsnr" v="792069" />
	</node>
	<node id="-219216" lat="59.7411583355" lon="8.91080000542">
		<tag k="historic" v="shieling" />
		<tag k="name" v="Nordstulen" />
		<tag k="place" v="locality" />
		<tag k="ssr:stedsnr" v="792020" />
	</node>
	<node id="-219214" lat="59.6619749966" lon="9.32280000417">
		<tag k="historic" v="shieling" />
		<tag k="name" v="Lislestul" />
		<tag k="place" v="locality" />
		<tag k="ssr:stedsnr" v="791915" />
	</node>
	<node id="-219212" lat="59.6267277813" lon="9.30752778174">
		<tag k="name" v="Bråtelia" />
		<tag k="place" v="isolated_dwelling" />
		<tag k="ssr:stedsnr" v="791897" />
	</node>
	<node id="-219207" lat="59.5508916648" lon="9.13657500015">
		<tag k="name" v="Nystul" />
		<tag k="place" v="isolated_dwelling" />
		<tag k="ssr:stedsnr" v="791410" />
	</node>
	<node id="-217156" lat="59.6389305531" lon="9.22255833568">
		<tag k="name" v="Bråten" />
		<tag k="place" v="farm" />
		<tag k="ssr:stedsnr" v="105800" />
	</node>
	<node id="-217782" lat="59.747205552" lon="8.96071111395">
		<tag k="historic" v="shieling" />
		<tag k="name" v="Kåsa" />
		<tag k="place" v="locality" />
		<tag k="ssr:stedsnr" v="480061" />
	</node>
	<node id="-217150" lat="59.6070083354" lon="9.10573056281">
		<tag k="name" v="Hellem" />
		<tag k="place" v="farm" />
		<tag k="ssr:stedsnr" v="105622" />
	</node>
	<node id="-217147" lat="59.6003416659" lon="9.08706666456">
		<tag k="name" v="Hagalia" />
		<tag k="place" v="farm" />
		<tag k="ssr:stedsnr" v="105587" />
	</node>
	<node id="-217137" lat="59.6856611096" lon="9.10249444832">
		<tag k="name" v="Lien" />
		<tag k="place" v="farm" />
		<tag k="ssr:stedsnr" v="105504" />
	</node>
	<node id="-219193" lat="59.7081750028" lon="9.25259445263">
		<tag k="historic" v="shieling" />
		<tag k="name" v="Dokka" />
		<tag k="place" v="locality" />
		<tag k="ssr:stedsnr" v="787555" />
	</node>
	<node id="-217144" lat="59.5793222203" lon="9.27133332886">
		<tag k="name" v="Oppskogen" />
		<tag k="place" v="quarter" />
		<tag k="ssr:stedsnr" v="105560" />
	</node>
	<node id="-219189" lat="59.862138887" lon="8.93300277809">
		<tag k="historic" v="shieling" />
		<tag k="name" v="Mebuflåta" />
		<tag k="place" v="locality" />
		<tag k="ssr:stedsnr" v="787013" />
	</node>
	<node id="-217140" lat="59.526961108" lon="9.26663611452">
		<tag k="name" v="Søndre Strand" />
		<tag k="place" v="farm" />
		<tag k="ssr:stedsnr" v="105511" />
	</node>
	<node id="-219827" lat="59.6220761629" lon="9.2706032808">
		<tag k="fixme" v="consider place=hamlet" />
		<tag k="name" v="Nedre Hove" />
		<tag k="place" v="farm" />
		<tag k="ssr:stedsnr" v="980356" />
	</node>
	<node id="-217130" lat="59.5625249966" lon="9.27287777402">
		<tag k="name" v="Gvålatoppen" />
		<tag k="place" v="quarter" />
		<tag k="ssr:stedsnr" v="105216" />
	</node>
	<node id="-216071" lat="59.569444445" lon="9.21091388274">
		<tag k="amenity" v="school" />
		<tag k="name" v="Sem skole" />
		<tag k="ssr:stedsnr" v="287015" />
	</node>
	<node id="-217127" lat="59.5808888925" lon="9.16836111577">
		<tag k="name" v="Gullbring" />
		<tag k="place" v="farm" />
		<tag k="ssr:stedsnr" v="105183" />
	</node>
	<node id="-219172" lat="59.8753083358" lon="8.89304445222">
		<tag k="name" v="Fåneøvrestul" />
		<tag k="place" v="locality" />
		<tag k="ssr:stedsnr" v="793504" />
	</node>
	<node id="-219170" lat="59.7621500006" lon="9.09373333528">
		<tag k="name" v="Myran" />
		<tag k="place" v="isolated_dwelling" />
		<tag k="ssr:stedsnr" v="793468" />
	</node>
	<node id="-217115" lat="59.5548055532" lon="9.11788610801">
		<tag k="name" v="Lauvstul" />
		<tag k="place" v="locality" />
		<tag k="ssr:stedsnr" v="105082" />
	</node>
	<node id="-219161" lat="59.5180583374" lon="9.30945832479">
		<tag k="name" v="Logndal" />
		<tag k="place" v="locality" />
		<tag k="ssr:stedsnr" v="774811" />
	</node>
	<node id="-219160" lat="59.5179166681" lon="9.31701667496">
		<tag k="name" v="Skogen" />
		<tag k="place" v="farm" />
		<tag k="ssr:stedsnr" v="774810" />
	</node>
	<node id="-217204" lat="59.7558250008" lon="9.00039166592">
		<tag k="historic" v="shieling" />
		<tag k="name" v="Bekkestul" />
		<tag k="place" v="locality" />
		<tag k="ssr:stedsnr" v="116088" />
	</node>
	<node id="-219481" lat="59.7839638925" lon="9.22618055312">
		<tag k="alt_name" v="Sørstulsætra" />
		<tag k="historic" v="shieling" />
		<tag k="name" v="Sudstul" />
		<tag k="place" v="locality" />
		<tag k="ssr:stedsnr" v="853908" />
	</node>
	<node id="-219151" lat="59.5488333359" lon="9.30027223086">
		<tag k="historic" v="shieling" />
		<tag k="name" v="Skrubbhol" />
		<tag k="place" v="locality" />
		<tag k="ssr:stedsnr" v="773892" />
	</node>
	<node id="-219316" lat="59.5762333317" lon="9.15098055553">
		<tag k="name" v="Rønning" />
		<tag k="place" v="farm" />
		<tag k="ssr:stedsnr" v="833180" />
	</node>
	<node id="-217098" lat="59.8194388881" lon="8.98292778032">
		<tag k="name" v="Dalen" />
		<tag k="place" v="isolated_dwelling" />
		<tag k="ssr:stedsnr" v="103782" />
	</node>
	<node id="-217772" lat="59.8501999993" lon="8.94217221982">
		<tag k="alt_name" v="Rudsgrend" />
		<tag k="name" v="Rudsgrendi" />
		<tag k="place" v="hamlet" />
		<tag k="ssr:stedsnr" v="247433" />
	</node>
	<node id="-217771" lat="59.8363583337" lon="8.94240834002">
		<tag k="alt_name" v="Solemlie" />
		<tag k="name" v="Solemslii" />
		<tag k="place" v="locality" />
		<tag k="ssr:stedsnr" v="247425" />
	</node>
</osm>
