<?xml version="1.0" encoding="UTF-8"?>
<osm generator="osmapis" version="0.6">
	<node id="-217076" lat="59.5711750024" lon="9.01280278488">
		<tag k="name" v="Torvmyra" />
		<tag k="natural" v="wetland" />
		<tag k="ssr:stedsnr" v="166102" />
	</node>
	<node id="-219120" lat="59.6885083292" lon="8.95857500838">
		<tag k="name" v="Stordiplemyr" />
		<tag k="natural" v="wetland" />
		<tag k="ssr:stedsnr" v="853135" />
	</node>
	<node id="-217070" lat="59.5499166704" lon="9.09419167451">
		<tag k="name" v="Fuglemyr" />
		<tag k="natural" v="wetland" />
		<tag k="ssr:stedsnr" v="165950" />
	</node>
	<node id="-217068" lat="59.635152774" lon="9.21817500711">
		<tag k="name" v="Stutemyr" />
		<tag k="natural" v="wetland" />
		<tag k="ssr:stedsnr" v="165911" />
	</node>
	<node id="-217061" lat="59.6899916684" lon="9.00625833328">
		<tag k="historic" v="shieling" />
		<tag k="name" v="Øvrestul" />
		<tag k="place" v="locality" />
		<tag k="ssr:stedsnr" v="165796" />
	</node>
	<node id="-217060" lat="59.5331444457" lon="9.16160277285">
		<tag k="name" v="Urdemyr" />
		<tag k="natural" v="wetland" />
		<tag k="ssr:stedsnr" v="165728" />
	</node>
	<node id="-217040" lat="59.6687166638" lon="9.10871666077">
		<tag k="name" v="Søtemyrrenna" />
		<tag k="natural" v="wetland" />
		<tag k="ssr:stedsnr" v="165432" />
	</node>
	<node id="-219084" lat="59.7181166669" lon="8.93048610721">
		<tag k="name" v="Sleppmyra" />
		<tag k="natural" v="wetland" />
		<tag k="ssr:stedsnr" v="846981" />
	</node>
	<node id="-219082" lat="59.7138222251" lon="9.28763610295">
		<tag k="name" v="Grendalsmyra" />
		<tag k="natural" v="wetland" />
		<tag k="ssr:stedsnr" v="846555" />
	</node>
	<node id="-217028" lat="59.5739055532" lon="9.02706388607">
		<tag k="name" v="Meisteinmyra" />
		<tag k="natural" v="wetland" />
		<tag k="ssr:stedsnr" v="165075" />
	</node>
	<node id="-219066" lat="59.5389833295" lon="9.3714944457">
		<tag k="name" v="Breimyra" />
		<tag k="natural" v="wetland" />
		<tag k="ssr:stedsnr" v="835066" />
	</node>
	<node id="-217012" lat="59.7536666702" lon="9.3291944503">
		<tag k="name" v="Kvislin" />
		<tag k="natural" v="wetland" />
		<tag k="ssr:stedsnr" v="163848" />
	</node>
	<node id="-217009" lat="59.7740833346" lon="8.99839166721">
		<tag k="name" v="Kloppmyr" />
		<tag k="natural" v="wetland" />
		<tag k="ssr:stedsnr" v="163555" />
	</node>
	<node id="-219052" lat="59.6722027791" lon="9.05003055431">
		<tag k="name" v="Tråermyra" />
		<tag k="natural" v="wetland" />
		<tag k="ssr:stedsnr" v="834786" />
	</node>
	<node id="-219044" lat="59.6008861069" lon="9.39161389668">
		<tag k="name" v="Raubekkmyran" />
		<tag k="natural" v="wetland" />
		<tag k="ssr:stedsnr" v="834009" />
	</node>
	<node id="-216990" lat="59.7830333377" lon="9.16959721791">
		<tag k="name" v="Stolsmyra" />
		<tag k="natural" v="wetland" />
		<tag k="ssr:stedsnr" v="161287" />
	</node>
	<node id="-216989" lat="59.7103999992" lon="9.13095278559">
		<tag k="name" v="Juklemyr" />
		<tag k="natural" v="wetland" />
		<tag k="ssr:stedsnr" v="161182" />
	</node>
	<node id="-216988" lat="59.7038722208" lon="9.12916945311">
		<tag k="name" v="Orremyr" />
		<tag k="natural" v="wetland" />
		<tag k="ssr:stedsnr" v="161173" />
	</node>
	<node id="-219035" lat="59.6167222203" lon="9.08547500505">
		<tag k="name" v="Listulmyra" />
		<tag k="natural" v="wetland" />
		<tag k="ssr:stedsnr" v="833937" />
	</node>
	<node id="-219034" lat="59.6241055539" lon="9.19009722345">
		<tag k="name" v="Stavstømyr" />
		<tag k="natural" v="wetland" />
		<tag k="ssr:stedsnr" v="833930" />
	</node>
	<node id="-219032" lat="59.6313305563" lon="9.22198056334">
		<tag k="name" v="Morkmyra" />
		<tag k="natural" v="wetland" />
		<tag k="ssr:stedsnr" v="833922" />
	</node>
	<node id="-219031" lat="59.6237277741" lon="9.20477778094">
		<tag k="name" v="Slåttemyr" />
		<tag k="natural" v="wetland" />
		<tag k="ssr:stedsnr" v="833904" />
	</node>
	<node id="-216981" lat="59.8206388917" lon="8.92505278078">
		<tag k="name" v="Skarisetmyran" />
		<tag k="natural" v="wetland" />
		<tag k="ssr:stedsnr" v="125461" />
	</node>
	<node id="-219028" lat="59.6440166692" lon="9.17232499516">
		<tag k="name" v="Storemyr" />
		<tag k="natural" v="wetland" />
		<tag k="ssr:stedsnr" v="833892" />
	</node>
	<node id="-219019" lat="59.6679638903" lon="9.22473332937">
		<tag k="name" v="Steinrugmyra" />
		<tag k="natural" v="wetland" />
		<tag k="ssr:stedsnr" v="833814" />
	</node>
	<node id="-219009" lat="59.5988944467" lon="9.25016666767">
		<tag k="name" v="Torvmyra" />
		<tag k="natural" v="wetland" />
		<tag k="ssr:stedsnr" v="833547" />
	</node>
	<node id="-219006" lat="59.6034055515" lon="9.24686388542">
		<tag k="name" v="Visarmyr" />
		<tag k="natural" v="wetland" />
		<tag k="ssr:stedsnr" v="833518" />
	</node>
	<node id="-219000" lat="59.6700944424" lon="9.08761110961">
		<tag k="name" v="Postmyr" />
		<tag k="natural" v="wetland" />
		<tag k="ssr:stedsnr" v="833412" />
	</node>
	<node id="-218995" lat="59.5721222204" lon="9.1632027778">
		<tag k="landuse" v="quarry" />
		<tag k="name" v="Glittenberg-gruva" />
		<tag k="ssr:stedsnr" v="833202" />
	</node>
	<node id="-216942" lat="59.604555556" lon="9.20422222525">
		<tag k="alt_name" v="Bakkestulmyra, store" />
		<tag k="name" v="Store Bakkestulmyra" />
		<tag k="natural" v="wetland" />
		<tag k="ssr:stedsnr" v="124305" />
	</node>
	<node id="-218984" lat="59.5786472202" lon="9.03235555423">
		<tag k="name" v="Amerikamyra" />
		<tag k="natural" v="wetland" />
		<tag k="ssr:stedsnr" v="833078" />
	</node>
	<node id="-218980" lat="59.7219527741" lon="9.32100554714">
		<tag k="name" v="Halvfarmyra" />
		<tag k="natural" v="wetland" />
		<tag k="ssr:stedsnr" v="831926" />
	</node>
	<node id="-218979" lat="59.638733335" lon="9.24767500151">
		<tag k="name" v="Gvamsmyra" />
		<tag k="natural" v="wetland" />
		<tag k="ssr:stedsnr" v="831865" />
	</node>
	<node id="-218973" lat="59.7787972253" lon="8.99370832729">
		<tag k="name" v="Deilmyr" />
		<tag k="natural" v="wetland" />
		<tag k="ssr:stedsnr" v="831542" />
	</node>
	<node id="-218971" lat="59.7513194449" lon="9.22400277811">
		<tag k="name" v="Fjerdingsmyr" />
		<tag k="natural" v="wetland" />
		<tag k="ssr:stedsnr" v="831191" />
	</node>
	<node id="-218964" lat="59.7400250043" lon="8.95210834179">
		<tag k="historic" v="shieling" />
		<tag k="name" v="Sauklopp" />
		<tag k="place" v="locality" />
		<tag k="ssr:stedsnr" v="830918" />
	</node>
	<node id="-216909" lat="59.7490722267" lon="9.0733555515">
		<tag k="name" v="Diplemyr" />
		<tag k="natural" v="wetland" />
		<tag k="ssr:stedsnr" v="120385" />
	</node>
	<node id="-218949" lat="59.7697527778" lon="9.13342222786">
		<tag k="name" v="Tverrmyr" />
		<tag k="natural" v="wetland" />
		<tag k="ssr:stedsnr" v="829265" />
	</node>
	<node id="-216888" lat="59.8597833356" lon="8.90687221416">
		<tag k="name" v="Bjønnlimyr" />
		<tag k="natural" v="wetland" />
		<tag k="ssr:stedsnr" v="118037" />
	</node>
	<node id="-216869" lat="59.7212638869" lon="8.9931833278">
		<tag k="name" v="Toreskåsa" />
		<tag k="place" v="locality" />
		<tag k="ssr:stedsnr" v="106934" />
	</node>
	<node id="-216863" lat="59.6720250007" lon="9.05863611381">
		<tag k="name" v="Storsteinmyra" />
		<tag k="natural" v="wetland" />
		<tag k="ssr:stedsnr" v="106801" />
	</node>
	<node id="-216026" lat="59.628930558" lon="9.2210888866">
		<tag k="name" v="Bjotrudmyr" />
		<tag k="natural" v="wetland" />
		<tag k="ssr:stedsnr" v="347912" />
	</node>
	<node id="-218903" lat="59.6851055572" lon="8.92345000206">
		<tag k="name" v="Bodikstulmyra" />
		<tag k="natural" v="wetland" />
		<tag k="ssr:stedsnr" v="792173" />
	</node>
	<node id="-216853" lat="59.5571388875" lon="9.32552499376">
		<tag k="name" v="Kusemyr" />
		<tag k="natural" v="wetland" />
		<tag k="ssr:stedsnr" v="106107" />
	</node>
	<node id="-216851" lat="59.582250004" lon="9.34257778399">
		<tag k="name" v="Vesle Goasholtmyra" />
		<tag k="natural" v="wetland" />
		<tag k="ssr:stedsnr" v="106096" />
	</node>
	<node id="-216850" lat="59.582402776" lon="9.33130555479">
		<tag k="name" v="Goasholtmyr" />
		<tag k="natural" v="wetland" />
		<tag k="ssr:stedsnr" v="106095" />
	</node>
	<node id="-216839" lat="59.6244444484" lon="9.13573333749">
		<tag k="name" v="Vetterlagsmyra" />
		<tag k="natural" v="wetland" />
		<tag k="ssr:stedsnr" v="105928" />
	</node>
	<node id="-216838" lat="59.7269111146" lon="8.95837499946">
		<tag k="name" v="Høgelimyr" />
		<tag k="natural" v="wetland" />
		<tag k="ssr:stedsnr" v="105920" />
	</node>
	<node id="-216837" lat="59.7122750003" lon="9.01109167391">
		<tag k="historic" v="shieling" />
		<tag k="name" v="Kåleholtet" />
		<tag k="place" v="locality" />
		<tag k="ssr:stedsnr" v="105904" />
	</node>
	<node id="-216835" lat="59.6309055563" lon="9.16840277628">
		<tag k="name" v="Tollemyran" />
		<tag k="natural" v="wetland" />
		<tag k="ssr:stedsnr" v="105889" />
	</node>
	<node id="-216824" lat="59.6072805532" lon="9.07660000174">
		<tag k="name" v="Saltgravmyra" />
		<tag k="natural" v="wetland" />
		<tag k="ssr:stedsnr" v="105612" />
	</node>
	<node id="-218866" lat="59.741875" lon="9.20065277468">
		<tag k="landuse" v="meadow" />
		<tag k="name" v="Gråbukåsa" />
		<tag k="ssr:stedsnr" v="787489" />
	</node>
	<node id="-218862" lat="59.6500416642" lon="9.26901111611">
		<tag k="name" v="Bakholmyra" />
		<tag k="natural" v="wetland" />
		<tag k="ssr:stedsnr" v="786826" />
	</node>
	<node id="-218856" lat="59.6535861113" lon="9.35088888844">
		<tag k="name" v="Glakollstandarden" />
		<tag k="natural" v="wetland" />
		<tag k="ssr:stedsnr" v="785578" />
	</node>
	<node id="-218851" lat="59.7724638893" lon="9.2987055612">
		<tag k="historic" v="shieling" />
		<tag k="name" v="Gamlero" />
		<tag k="place" v="locality" />
		<tag k="ssr:stedsnr" v="785201" />
	</node>
	<node id="-218828" lat="59.7037361101" lon="9.00358055512">
		<tag k="name" v="Store Heggemyr" />
		<tag k="natural" v="wetland" />
		<tag k="ssr:stedsnr" v="773917" />
	</node>
	<node id="-216768" lat="59.6820027749" lon="9.32069443622">
		<tag k="name" v="Nordstulmyran" />
		<tag k="natural" v="wetland" />
		<tag k="ssr:stedsnr" v="102862" />
	</node>
	<node id="-216765" lat="59.7413388883" lon="9.22150000652">
		<tag k="name" v="Ospåsmyra" />
		<tag k="natural" v="wetland" />
		<tag k="ssr:stedsnr" v="102476" />
	</node>
	<node id="-216759" lat="59.746905552" lon="8.92767778658">
		<tag k="name" v="Grastjønnmyra" />
		<tag k="natural" v="wetland" />
		<tag k="ssr:stedsnr" v="102042" />
	</node>
	<node id="-216754" lat="59.7136083296" lon="9.10163054929">
		<tag k="name" v="Folemyra" />
		<tag k="natural" v="wetland" />
		<tag k="ssr:stedsnr" v="101648" />
	</node>
	<node id="-216750" lat="59.6612777777" lon="9.24553333509">
		<tag k="name" v="Tiurleikmyra" />
		<tag k="natural" v="wetland" />
		<tag k="ssr:stedsnr" v="101072" />
	</node>
	<node id="-218794" lat="59.6418861085" lon="9.18185000861">
		<tag k="name" v="Langkloppmyran" />
		<tag k="natural" v="wetland" />
		<tag k="ssr:stedsnr" v="772824" />
	</node>
	<node id="-218783" lat="59.5769972221" lon="9.23560833695">
		<tag k="name" v="Semstulmyra" />
		<tag k="natural" v="wetland" />
		<tag k="ssr:stedsnr" v="772528" />
	</node>
	<node id="-216731" lat="59.6211277783" lon="9.35864999614">
		<tag k="alt_name" v="Deilmyr" />
		<tag k="name" v="Delemyra" />
		<tag k="natural" v="wetland" />
		<tag k="ssr:stedsnr" v="64862" />
	</node>
	<node id="-218773" lat="59.6619111136" lon="9.09549443913">
		<tag k="name" v="Gråbumyran" />
		<tag k="natural" v="wetland" />
		<tag k="ssr:stedsnr" v="772453" />
	</node>
	<node id="-218772" lat="59.6751972246" lon="9.08366945054">
		<tag k="name" v="Geiterudmyra" />
		<tag k="natural" v="wetland" />
		<tag k="ssr:stedsnr" v="772425" />
	</node>
	<node id="-218769" lat="59.5857500044" lon="9.1475333272">
		<tag k="name" v="Hågån" />
		<tag k="natural" v="wetland" />
		<tag k="ssr:stedsnr" v="772347" />
	</node>
	<node id="-218768" lat="59.5820388856" lon="9.22775277829">
		<tag k="name" v="Stormyr" />
		<tag k="natural" v="wetland" />
		<tag k="ssr:stedsnr" v="772342" />
	</node>
	<node id="-218765" lat="59.6637361086" lon="8.95810278527">
		<tag k="name" v="Småmyran" />
		<tag k="natural" v="wetland" />
		<tag k="ssr:stedsnr" v="772213" />
	</node>
	<node id="-218757" lat="59.7162111076" lon="9.03243610271">
		<tag k="name" v="Selsmyr" />
		<tag k="natural" v="wetland" />
		<tag k="ssr:stedsnr" v="772167" />
	</node>
	<node id="-216705" lat="59.6471027736" lon="9.15165277615">
		<tag k="alt_name" v="Kristesmyr" />
		<tag k="name" v="Kristesmyra" />
		<tag k="natural" v="wetland" />
		<tag k="ssr:stedsnr" v="64181" />
	</node>
	<node id="-218752" lat="59.5661138866" lon="9.13589167299">
		<tag k="name" v="Leikmyran" />
		<tag k="natural" v="wetland" />
		<tag k="ssr:stedsnr" v="772123" />
	</node>
	<node id="-218741" lat="59.6448638857" lon="9.25914167085">
		<tag k="name" v="Stillemyr" />
		<tag k="natural" v="wetland" />
		<tag k="ssr:stedsnr" v="770875" />
	</node>
	<node id="-218738" lat="59.6902777806" lon="9.31061389461">
		<tag k="name" v="Hafsteinbukrokan" />
		<tag k="natural" v="wetland" />
		<tag k="ssr:stedsnr" v="770766" />
	</node>
	<node id="-218733" lat="59.7411472263" lon="8.90905555694">
		<tag k="historic" v="shieling" />
		<tag k="name" v="Nordstålen" />
		<tag k="place" v="locality" />
		<tag k="ssr:stedsnr" v="769931" />
	</node>
	<node id="-218731" lat="59.7612305547" lon="9.11478055607">
		<tag k="name" v="Snipmyr" />
		<tag k="natural" v="wetland" />
		<tag k="ssr:stedsnr" v="769575" />
	</node>
	<node id="-218725" lat="59.7516500036" lon="8.91766945244">
		<tag k="historic" v="shieling" />
		<tag k="name" v="Fjøsstul" />
		<tag k="place" v="locality" />
		<tag k="ssr:stedsnr" v="769042" />
	</node>
	<node id="-218724" lat="59.7538777751" lon="8.91466111195">
		<tag k="name" v="Rusulmyran" />
		<tag k="natural" v="wetland" />
		<tag k="ssr:stedsnr" v="769024" />
	</node>
	<node id="-218721" lat="59.7222222226" lon="9.12363889209">
		<tag k="historic" v="shieling" />
		<tag k="name" v="Juvbekk" />
		<tag k="place" v="locality" />
		<tag k="ssr:stedsnr" v="768653" />
	</node>
	<node id="-216666" lat="59.7397527767" lon="9.19094444503">
		<tag k="name" v="Haugemyr" />
		<tag k="natural" v="wetland" />
		<tag k="ssr:stedsnr" v="59480" />
	</node>
	<node id="-216676" lat="59.5995166707" lon="9.20026110779">
		<tag k="name" v="Hestemyr" />
		<tag k="natural" v="wetland" />
		<tag k="ssr:stedsnr" v="63293" />
	</node>
	<node id="-216661" lat="59.6527277785" lon="9.2513777829">
		<tag k="name" v="Runde Hemyr" />
		<tag k="natural" v="wetland" />
		<tag k="ssr:stedsnr" v="58842" />
	</node>
	<node id="-216658" lat="59.7633222212" lon="9.13545000064">
		<tag k="name" v="Blautmyra" />
		<tag k="natural" v="wetland" />
		<tag k="ssr:stedsnr" v="58736" />
	</node>
	<node id="-216651" lat="59.7176194475" lon="9.22379443774">
		<tag k="historic" v="shieling" />
		<tag k="name" v="Kobolt" />
		<tag k="place" v="locality" />
		<tag k="ssr:stedsnr" v="57226" />
	</node>
	<node id="-218696" lat="59.6638166624" lon="9.24581666921">
		<tag k="name" v="Tiurleikmyra" />
		<tag k="natural" v="wetland" />
		<tag k="ssr:stedsnr" v="731907" />
	</node>
	<node id="-218690" lat="59.6130000003" lon="9.33047500579">
		<tag k="name" v="Storemyr" />
		<tag k="natural" v="wetland" />
		<tag k="ssr:stedsnr" v="731855" />
	</node>
	<node id="-216639" lat="59.6786500012" lon="8.93856388371">
		<tag k="name" v="Romyran" />
		<tag k="natural" v="wetland" />
		<tag k="ssr:stedsnr" v="45988" />
	</node>
	<node id="-218682" lat="59.5778055564" lon="9.31028333008">
		<tag k="name" v="Røyrmyr" />
		<tag k="natural" v="wetland" />
		<tag k="ssr:stedsnr" v="731777" />
	</node>
	<node id="-216625" lat="59.5628944406" lon="9.34006666504">
		<tag k="name" v="Skarkemyr" />
		<tag k="natural" v="wetland" />
		<tag k="ssr:stedsnr" v="45134" />
	</node>
	<node id="-216621" lat="59.5312583342" lon="9.35873888972">
		<tag k="name" v="Skavreimyra" />
		<tag k="natural" v="wetland" />
		<tag k="ssr:stedsnr" v="45081" />
	</node>
	<node id="-216618" lat="59.5953194488" lon="9.29311944096">
		<tag k="name" v="Damtjønnmyra" />
		<tag k="natural" v="wetland" />
		<tag k="ssr:stedsnr" v="45060" />
	</node>
	<node id="-216617" lat="59.6083805576" lon="9.02959445263">
		<tag k="name" v="Storemyr" />
		<tag k="natural" v="wetland" />
		<tag k="ssr:stedsnr" v="45157" />
	</node>
	<node id="-216611" lat="59.632944443" lon="9.26775554747">
		<tag k="name" v="Uppigardsmyra" />
		<tag k="natural" v="wetland" />
		<tag k="ssr:stedsnr" v="44965" />
	</node>
	<node id="-216602" lat="59.6553833296" lon="9.15804444861">
		<tag k="name" v="Krossmyran" />
		<tag k="natural" v="wetland" />
		<tag k="ssr:stedsnr" v="44862" />
	</node>
	<node id="-216597" lat="59.6608194444" lon="9.22038611401">
		<tag k="name" v="Hestemyr" />
		<tag k="natural" v="wetland" />
		<tag k="ssr:stedsnr" v="44786" />
	</node>
	<node id="-216596" lat="59.6958027767" lon="8.9575805493">
		<tag k="name" v="Almelidalsmyra" />
		<tag k="natural" v="wetland" />
		<tag k="ssr:stedsnr" v="44747" />
	</node>
	<node id="-216594" lat="59.5314444463" lon="9.16841944173">
		<tag k="name" v="Vollanmyran" />
		<tag k="natural" v="wetland" />
		<tag k="ssr:stedsnr" v="44710" />
	</node>
	<node id="-218638" lat="59.7393416629" lon="9.20677500844">
		<tag k="landuse" v="meadow" />
		<tag k="name" v="Slåttun" />
		<tag k="ssr:stedsnr" v="726498" />
	</node>
	<node id="-218630" lat="59.7936888872" lon="8.91683611821">
		<tag k="name" v="Storrstakken" />
		<tag k="natural" v="wetland" />
		<tag k="ssr:stedsnr" v="725932" />
	</node>
	<node id="-218629" lat="59.7764500033" lon="8.8995472288">
		<tag k="historic" v="shieling" />
		<tag k="name" v="Finnvollan" />
		<tag k="place" v="locality" />
		<tag k="ssr:stedsnr" v="725910" />
	</node>
	<node id="-218617" lat="59.8038694405" lon="9.22629443708">
		<tag k="name" v="Storrløyta" />
		<tag k="natural" v="wetland" />
		<tag k="ssr:stedsnr" v="725025" />
	</node>
	<node id="-216546" lat="59.7490222221" lon="9.3338111194">
		<tag k="name" v="Dusanmyra" />
		<tag k="natural" v="wetland" />
		<tag k="ssr:stedsnr" v="41848" />
	</node>
	<node id="-218590" lat="59.7223000014" lon="8.96785833517">
		<tag k="name" v="Tjønnfløy" />
		<tag k="natural" v="wetland" />
		<tag k="ssr:stedsnr" v="712877" />
	</node>
	<node id="-216540" lat="59.682116669" lon="8.91401666228">
		<tag k="historic" v="shieling" />
		<tag k="name" v="Gvelvestul" />
		<tag k="place" v="locality" />
		<tag k="ssr:stedsnr" v="41303" />
	</node>
	<node id="-216538" lat="59.7278361109" lon="9.21895556033">
		<tag k="name" v="Geitekleivmyra" />
		<tag k="natural" v="wetland" />
		<tag k="ssr:stedsnr" v="41410" />
	</node>
	<node id="-216536" lat="59.7627888883" lon="9.22771110439">
		<tag k="name" v="Ostebrekkmyra" />
		<tag k="natural" v="wetland" />
		<tag k="ssr:stedsnr" v="41079" />
	</node>
	<node id="-216534" lat="59.7500638854" lon="8.910333338">
		<tag k="historic" v="shieling" />
		<tag k="name" v="Urdstul" />
		<tag k="place" v="locality" />
		<tag k="ssr:stedsnr" v="41036" />
	</node>
	<node id="-216533" lat="59.7584249963" lon="8.91558611911">
		<tag k="name" v="Gulstein" />
		<tag k="natural" v="stone" />
		<tag k="ssr:stedsnr" v="41033" />
	</node>
	<node id="-218579" lat="59.5772888868" lon="9.34350000072">
		<tag k="name" v="Halvfarmyra" />
		<tag k="natural" v="wetland" />
		<tag k="ssr:stedsnr" v="712096" />
	</node>
	<node id="-218570" lat="59.6293472256" lon="9.26461111853">
		<tag k="name" v="Storstokkdiket" />
		<tag k="natural" v="wetland" />
		<tag k="ssr:stedsnr" v="711969" />
	</node>
	<node id="-218557" lat="59.6519305543" lon="9.22630277832">
		<tag k="name" v="Tegemyr" />
		<tag k="natural" v="wetland" />
		<tag k="ssr:stedsnr" v="711840" />
	</node>
	<node id="-218555" lat="59.4878083349" lon="9.18314166592">
		<tag k="name" v="Primtjønnstandaren" />
		<tag k="place" v="locality" />
		<tag k="ssr:stedsnr" v="711823" />
	</node>
	<node id="-218552" lat="59.6697111143" lon="8.97543333658">
		<tag k="name" v="Surtemyr" />
		<tag k="natural" v="wetland" />
		<tag k="ssr:stedsnr" v="711793" />
	</node>
	<node id="-218551" lat="59.6755944469" lon="8.96644999333">
		<tag k="name" v="Brennhaugmyra" />
		<tag k="natural" v="wetland" />
		<tag k="ssr:stedsnr" v="711790" />
	</node>
	<node id="-218542" lat="59.5725027792" lon="9.24211388914">
		<tag k="name" v="Breskemyr" />
		<tag k="natural" v="wetland" />
		<tag k="ssr:stedsnr" v="711508" />
	</node>
	<node id="-216486" lat="59.8107083291" lon="8.90303611357">
		<tag k="name" v="Skarvsmyran" />
		<tag k="natural" v="wetland" />
		<tag k="ssr:stedsnr" v="3443" />
	</node>
	<node id="-216484" lat="59.7171972241" lon="9.30455278161">
		<tag k="name" v="Paulusmyra" />
		<tag k="natural" v="wetland" />
		<tag k="ssr:stedsnr" v="3407" />
	</node>
	<node id="-218511" lat="59.7485777746" lon="8.90468888187">
		<tag k="name" v="Holfetmyran" />
		<tag k="natural" v="wetland" />
		<tag k="ssr:stedsnr" v="709046" />
	</node>
	<node id="-216462" lat="59.6849361117" lon="8.96436944419">
		<tag k="alt_name" v="Juvsmyr" />
		<tag k="name" v="Gjuvsmyr" />
		<tag k="natural" v="wetland" />
		<tag k="ssr:stedsnr" v="3153" />
	</node>
	<node id="-218505" lat="59.773041668" lon="9.13751943565">
		<tag k="name" v="Hestemyr" />
		<tag k="natural" v="wetland" />
		<tag k="ssr:stedsnr" v="708282" />
	</node>
	<node id="-218501" lat="59.6737472257" lon="9.31809444491">
		<tag k="name" v="Djupemyr" />
		<tag k="natural" v="wetland" />
		<tag k="ssr:stedsnr" v="707813" />
	</node>
	<node id="-216980" lat="59.8200027782" lon="8.95509999342">
		<tag k="alt_name" v="Gvamslimyr" />
		<tag k="name" v="Kvamslimyra" />
		<tag k="natural" v="wetland" />
		<tag k="ssr:stedsnr" v="125460" />
	</node>
	<node id="-218481" lat="59.8196083298" lon="8.88275556008">
		<tag k="name" v="Storefjellmyran" />
		<tag k="natural" v="wetland" />
		<tag k="ssr:stedsnr" v="671437" />
	</node>
	<node id="-216423" lat="59.5854666646" lon="9.44162221482">
		<tag k="name" v="Blakksmyran" />
		<tag k="natural" v="wetland" />
		<tag k="ssr:stedsnr" v="895918" />
	</node>
	<node id="-218342" lat="59.6322388855" lon="9.35049999486">
		<tag k="name" v="Postmyr" />
		<tag k="natural" v="wetland" />
		<tag k="ssr:stedsnr" v="651043" />
	</node>
	<node id="-216417" lat="59.5286805551" lon="8.90037221523">
		<tag k="name" v="Finnvollen" />
		<tag k="natural" v="wetland" />
		<tag k="ssr:stedsnr" v="895638" />
	</node>
	<node id="-218464" lat="59.6813999976" lon="9.31095833033">
		<tag k="alt_name" v="Dipilmyr" />
		<tag k="name" v="Dipilmyra" />
		<tag k="natural" v="wetland" />
		<tag k="ssr:stedsnr" v="670963" />
	</node>
	<node id="-216403" lat="59.55891111" lon="9.37503056192">
		<tag k="name" v="Saumyr" />
		<tag k="natural" v="wetland" />
		<tag k="ssr:stedsnr" v="895095" />
	</node>
	<node id="-216401" lat="59.6222361074" lon="9.28859722242">
		<tag k="name" v="Djupemyr" />
		<tag k="natural" v="wetland" />
		<tag k="ssr:stedsnr" v="894979" />
	</node>
	<node id="-216396" lat="59.6284250027" lon="9.11749444883">
		<tag k="name" v="Hestemyran" />
		<tag k="natural" v="wetland" />
		<tag k="ssr:stedsnr" v="894937" />
	</node>
	<node id="-216391" lat="59.626191667" lon="9.19707499292">
		<tag k="name" v="Mosemyr" />
		<tag k="natural" v="wetland" />
		<tag k="ssr:stedsnr" v="894911" />
	</node>
	<node id="-216390" lat="59.6291138888" lon="9.19310554797">
		<tag k="name" v="Elgemyra" />
		<tag k="natural" v="wetland" />
		<tag k="ssr:stedsnr" v="894910" />
	</node>
	<node id="-216389" lat="59.7128055582" lon="9.01282500428">
		<tag k="name" v="Jønnemyr" />
		<tag k="natural" v="wetland" />
		<tag k="ssr:stedsnr" v="894908" />
	</node>
	<node id="-216382" lat="59.6858527808" lon="8.96064166802">
		<tag k="name" v="Langkroka" />
		<tag k="natural" v="wetland" />
		<tag k="ssr:stedsnr" v="894758" />
	</node>
	<node id="-218422" lat="59.710436113" lon="9.14399444503">
		<tag k="name" v="Bumyr" />
		<tag k="natural" v="wetland" />
		<tag k="ssr:stedsnr" v="670158" />
	</node>
	<node id="-216371" lat="59.5119472254" lon="9.23886944722">
		<tag k="name" v="Løkjemyr" />
		<tag k="natural" v="wetland" />
		<tag k="ssr:stedsnr" v="894522" />
	</node>
	<node id="-216364" lat="59.5912138933" lon="9.20487500165">
		<tag k="landuse" v="quarry" />
		<tag k="name" v="Hollagruva" />
		<tag k="ssr:stedsnr" v="894402" />
	</node>
	<node id="-218404" lat="59.770377779" lon="8.94928889297">
		<tag k="historic" v="shieling" />
		<tag k="name" v="Nordstul" />
		<tag k="place" v="locality" />
		<tag k="ssr:stedsnr" v="664930" />
	</node>
	<node id="-218403" lat="59.6499666705" lon="9.25779723052">
		<tag k="name" v="Lange Hemyr" />
		<tag k="natural" v="wetland" />
		<tag k="ssr:stedsnr" v="664821" />
	</node>
	<node id="-218401" lat="59.7509416651" lon="9.1294277768">
		<tag k="historic" v="shieling" />
		<tag k="name" v="Ertstjønnstulen" />
		<tag k="place" v="locality" />
		<tag k="ssr:stedsnr" v="664763" />
	</node>
	<node id="-216349" lat="59.6861111074" lon="8.98722500027">
		<tag k="name" v="Mjagetomyra" />
		<tag k="natural" v="wetland" />
		<tag k="ssr:stedsnr" v="893998" />
	</node>
	<node id="-218389" lat="59.7643305549" lon="8.95693055524">
		<tag k="name" v="Storegvelv" />
		<tag k="natural" v="wetland" />
		<tag k="ssr:stedsnr" v="662058" />
	</node>
	<node id="-216337" lat="59.8203638931" lon="8.98834722782">
		<tag k="name" v="Lauvskogmyra" />
		<tag k="natural" v="wetland" />
		<tag k="ssr:stedsnr" v="892766" />
	</node>
	<node id="-216335" lat="59.8122333297" lon="8.99035555831">
		<tag k="historic" v="shieling" />
		<tag k="name" v="Øyan" />
		<tag k="place" v="locality" />
		<tag k="ssr:stedsnr" v="892758" />
	</node>
	<node id="-218375" lat="59.6323833322" lon="9.30115276955">
		<tag k="name" v="Lekkersmyr" />
		<tag k="natural" v="wetland" />
		<tag k="ssr:stedsnr" v="652439" />
	</node>
	<node id="-218373" lat="59.5770722243" lon="9.40199999933">
		<tag k="name" v="Dåpån" />
		<tag k="natural" v="wetland" />
		<tag k="ssr:stedsnr" v="652095" />
	</node>
	<node id="-216324" lat="59.7415472227" lon="9.22608889654">
		<tag k="name" v="Hellemmoen" />
		<tag k="place" v="locality" />
		<tag k="ssr:stedsnr" v="891438" />
	</node>
	<node id="-216314" lat="59.7491916649" lon="9.26258333369">
		<tag k="name" v="Skjenholtmyra" />
		<tag k="natural" v="wetland" />
		<tag k="ssr:stedsnr" v="890808" />
	</node>
	<node id="-218361" lat="59.7355138914" lon="8.96616665832">
		<tag k="name" v="Gvamsmyr" />
		<tag k="natural" v="wetland" />
		<tag k="ssr:stedsnr" v="651964" />
	</node>
	<node id="-216302" lat="59.6326138847" lon="9.3183194385">
		<tag k="name" v="Halvfarmyra" />
		<tag k="natural" v="wetland" />
		<tag k="ssr:stedsnr" v="410503" />
	</node>
	<node id="-216297" lat="59.5318222256" lon="9.33443611316">
		<tag k="name" v="Porsmyra" />
		<tag k="natural" v="wetland" />
		<tag k="ssr:stedsnr" v="409921" />
	</node>
	<node id="-216295" lat="59.5434333298" lon="9.33645833674">
		<tag k="name" v="Jutemyr" />
		<tag k="natural" v="wetland" />
		<tag k="ssr:stedsnr" v="409914" />
	</node>
	<node id="-216294" lat="59.5415333342" lon="9.33949999351">
		<tag k="name" v="Bjønndalsmyra" />
		<tag k="natural" v="wetland" />
		<tag k="ssr:stedsnr" v="409912" />
	</node>
	<node id="-216289" lat="59.6614666676" lon="9.03908611959">
		<tag k="name" v="Tiurleikmyran" />
		<tag k="natural" v="wetland" />
		<tag k="ssr:stedsnr" v="409774" />
	</node>
	<node id="-218336" lat="59.6194638847" lon="9.26313055886">
		<tag k="name" v="Stuthavna" />
		<tag k="place" v="locality" />
		<tag k="ssr:stedsnr" v="650947" />
	</node>
	<node id="-218335" lat="59.7236999976" lon="8.97221945218">
		<tag k="name" v="Rundemyr" />
		<tag k="natural" v="wetland" />
		<tag k="ssr:stedsnr" v="650915" />
	</node>
	<node id="-218331" lat="59.6982722261" lon="8.97156388553">
		<tag k="name" v="Diplemyr" />
		<tag k="natural" v="wetland" />
		<tag k="ssr:stedsnr" v="650894" />
	</node>
	<node id="-216276" lat="59.6266722217" lon="9.37224721693">
		<tag k="name" v="Juvmyr" />
		<tag k="natural" v="wetland" />
		<tag k="ssr:stedsnr" v="409030" />
	</node>
	<node id="-216274" lat="59.7239416655" lon="9.01141666747">
		<tag k="name" v="Spangemyr" />
		<tag k="natural" v="wetland" />
		<tag k="ssr:stedsnr" v="408999" />
	</node>
	<node id="-218320" lat="59.6729944476" lon="9.23133610674">
		<tag k="name" v="Nystulmyra" />
		<tag k="natural" v="wetland" />
		<tag k="ssr:stedsnr" v="650780" />
	</node>
	<node id="-218319" lat="59.640155554" lon="9.20625832728">
		<tag k="name" v="Storrdokka" />
		<tag k="natural" v="wetland" />
		<tag k="ssr:stedsnr" v="650777" />
	</node>
	<node id="-216265" lat="59.6170527793" lon="9.12869444184">
		<tag k="name" v="Kleivsmyr" />
		<tag k="natural" v="wetland" />
		<tag k="ssr:stedsnr" v="408898" />
	</node>
	<node id="-216260" lat="59.6361138884" lon="9.17425000101">
		<tag k="name" v="Deilmyran" />
		<tag k="natural" v="wetland" />
		<tag k="ssr:stedsnr" v="408881" />
	</node>
	<node id="-216240" lat="59.5962888932" lon="9.236855558">
		<tag k="name" v="Høgestandard" />
		<tag k="natural" v="wetland" />
		<tag k="ssr:stedsnr" v="408532" />
	</node>
	<node id="-219289" lat="59.7321250013" lon="9.12156389502">
		<tag k="name" v="Storemyr" />
		<tag k="natural" v="wetland" />
		<tag k="ssr:stedsnr" v="950616" />
	</node>
	<node id="-216236" lat="59.6779972251" lon="9.07020277493">
		<tag k="name" v="Storemyra" />
		<tag k="natural" v="wetland" />
		<tag k="ssr:stedsnr" v="408467" />
	</node>
	<node id="-219335" lat="59.6756972255" lon="9.13160278023">
		<tag k="name" v="Løkjemyr" />
		<tag k="natural" v="wetland" />
		<tag k="ssr:stedsnr" v="954157" />
	</node>
	<node id="-216229" lat="59.6777027802" lon="8.96261666021">
		<tag k="name" v="Tjønnfløymyra" />
		<tag k="natural" v="wetland" />
		<tag k="ssr:stedsnr" v="408214" />
	</node>
	<node id="-218273" lat="59.8194277787" lon="8.95669167004">
		<tag k="name" v="Gvamslimyr" />
		<tag k="natural" v="wetland" />
		<tag k="ssr:stedsnr" v="648786" />
	</node>
	<node id="-216223" lat="59.562488891" lon="9.13545832584">
		<tag k="name" v="Bjørkmyra" />
		<tag k="natural" v="wetland" />
		<tag k="ssr:stedsnr" v="408136" />
	</node>
	<node id="-218267" lat="59.7271555557" lon="9.21338611331">
		<tag k="name" v="Vetmyran" />
		<tag k="natural" v="wetland" />
		<tag k="ssr:stedsnr" v="648405" />
	</node>
	<node id="-216218" lat="59.5625916683" lon="9.22413610433">
		<tag k="name" v="Tinnesøyan" />
		<tag k="natural" v="wetland" />
		<tag k="ssr:stedsnr" v="408033" />
	</node>
	<node id="-218261" lat="59.7511722181" lon="8.94185278297">
		<tag k="historic" v="shieling" />
		<tag k="name" v="Listul" />
		<tag k="place" v="locality" />
		<tag k="ssr:stedsnr" v="648040" />
	</node>
	<node id="-218259" lat="59.7099833312" lon="9.08991665879">
		<tag k="name" v="Raumyr" />
		<tag k="natural" v="wetland" />
		<tag k="ssr:stedsnr" v="647934" />
	</node>
	<node id="-216207" lat="59.6635888884" lon="9.27174722974">
		<tag k="name" v="Fossbumyran" />
		<tag k="natural" v="wetland" />
		<tag k="ssr:stedsnr" v="406234" />
	</node>
	<node id="-216202" lat="59.7581999973" lon="9.11551389284">
		<tag k="name" v="Raumyr" />
		<tag k="natural" v="wetland" />
		<tag k="ssr:stedsnr" v="405598" />
	</node>
	<node id="-218243" lat="59.5306166699" lon="9.10607222238">
		<tag k="name" v="Deildsmyr" />
		<tag k="natural" v="wetland" />
		<tag k="ssr:stedsnr" v="632754" />
	</node>
	<node id="-216190" lat="59.6633638869" lon="9.34428333255">
		<tag k="name" v="Brannsmyran" />
		<tag k="natural" v="wetland" />
		<tag k="ssr:stedsnr" v="404781" />
	</node>
	<node id="-216189" lat="59.784383334" lon="9.14744166677">
		<tag k="name" v="Gulli" />
		<tag k="natural" v="wetland" />
		<tag k="ssr:stedsnr" v="404262" />
	</node>
	<node id="-216186" lat="59.6606999998" lon="9.23761388469">
		<tag k="name" v="Åsemyr" />
		<tag k="natural" v="wetland" />
		<tag k="ssr:stedsnr" v="404081" />
	</node>
	<node id="-218225" lat="59.5405055583" lon="8.94376111818">
		<tag k="name" v="Blåurdlia" />
		<tag k="natural" v="scree" />
		<tag k="ssr:stedsnr" v="610462" />
	</node>
	<node id="-216173" lat="59.8419777754" lon="8.92075276905">
		<tag k="alt_name" v="Løkjemyr" />
		<tag k="name" v="Løkemyr" />
		<tag k="natural" v="wetland" />
		<tag k="ssr:stedsnr" v="368488" />
	</node>
	<node id="-216153" lat="59.7342527806" lon="9.2950499964">
		<tag k="name" v="Storemyr" />
		<tag k="natural" v="wetland" />
		<tag k="ssr:stedsnr" v="367423" />
	</node>
	<node id="-216931" lat="59.6443055592" lon="9.12020833575">
		<tag k="name" v="Slåttemyr" />
		<tag k="natural" v="wetland" />
		<tag k="ssr:stedsnr" v="124175" />
	</node>
	<node id="-218187" lat="59.5807944475" lon="9.23301110967">
		<tag k="name" v="Fuglemyr" />
		<tag k="natural" v="wetland" />
		<tag k="ssr:stedsnr" v="609744" />
	</node>
	<node id="-216114" lat="59.7195416689" lon="8.96225278427">
		<tag k="name" v="Fuglefotmyra" />
		<tag k="natural" v="wetland" />
		<tag k="ssr:stedsnr" v="367075" />
	</node>
	<node id="-216110" lat="59.7448138925" lon="8.97788054703">
		<tag k="name" v="Breidmyr" />
		<tag k="natural" v="wetland" />
		<tag k="ssr:stedsnr" v="367005" />
	</node>
	<node id="-218155" lat="59.8871055587" lon="8.89577777842">
		<tag k="name" v="Presteurda" />
		<tag k="natural" v="scree" />
		<tag k="ssr:stedsnr" v="605817" />
	</node>
	<node id="-218136" lat="59.7172361122" lon="9.28700833002">
		<tag k="name" v="Grendalsmyra" />
		<tag k="natural" v="wetland" />
		<tag k="ssr:stedsnr" v="603552" />
	</node>
	<node id="-218126" lat="59.7076055595" lon="9.00555277749">
		<tag k="name" v="Vesle Heggemyr" />
		<tag k="natural" v="wetland" />
		<tag k="ssr:stedsnr" v="591942" />
	</node>
	<node id="-216076" lat="59.7321833378" lon="9.22405278007">
		<tag k="landuse" v="meadow" />
		<tag k="name" v="Kasin" />
		<tag k="ssr:stedsnr" v="360340" />
	</node>
	<node id="-218123" lat="59.7043111109" lon="8.97408332882">
		<tag k="name" v="Hestemyra" />
		<tag k="natural" v="wetland" />
		<tag k="ssr:stedsnr" v="591926" />
	</node>
	<node id="-216073" lat="59.8118749985" lon="9.19176389756">
		<tag k="name" v="Griseflatin" />
		<tag k="natural" v="wetland" />
		<tag k="ssr:stedsnr" v="360020" />
	</node>
	<node id="-218120" lat="59.7147361117" lon="8.96556111775">
		<tag k="name" v="Saltgrasholet" />
		<tag k="natural" v="wetland" />
		<tag k="ssr:stedsnr" v="591879" />
	</node>
	<node id="-218119" lat="59.6697249958" lon="9.03371111445">
		<tag k="name" v="Småmyran" />
		<tag k="natural" v="wetland" />
		<tag k="ssr:stedsnr" v="591779" />
	</node>
	<node id="-218113" lat="59.5778138865" lon="9.33036389124">
		<tag k="name" v="Fugleleiken" />
		<tag k="natural" v="wetland" />
		<tag k="ssr:stedsnr" v="591072" />
	</node>
	<node id="-216059" lat="59.5703611074" lon="9.40740833534">
		<tag k="name" v="Torgunhol" />
		<tag k="natural" v="wetland" />
		<tag k="ssr:stedsnr" v="348895" />
	</node>
	<node id="-216047" lat="59.5816361105" lon="9.39452778088">
		<tag k="name" v="Bjønndalsmyra" />
		<tag k="natural" v="wetland" />
		<tag k="ssr:stedsnr" v="348119" />
	</node>
	<node id="-218094" lat="59.6499638851" lon="9.18046110929">
		<tag k="name" v="Kringlemyr" />
		<tag k="natural" v="wetland" />
		<tag k="ssr:stedsnr" v="590808" />
	</node>
	<node id="-219303" lat="59.7264444478" lon="8.95209165943">
		<tag k="name" v="Orreleikmyran" />
		<tag k="natural" v="wetland" />
		<tag k="ssr:stedsnr" v="951922" />
	</node>
	<node id="-218087" lat="59.6876194464" lon="8.97098889168">
		<tag k="name" v="Sollikåsa" />
		<tag k="natural" v="wetland" />
		<tag k="ssr:stedsnr" v="590742" />
	</node>
	<node id="-218083" lat="59.5427583346" lon="9.15729722446">
		<tag k="name" v="Briskemyr" />
		<tag k="natural" v="wetland" />
		<tag k="ssr:stedsnr" v="590705" />
	</node>
	<node id="-216031" lat="59.6186166705" lon="9.23667221709">
		<tag k="name" v="Åsholtmyr" />
		<tag k="natural" v="wetland" />
		<tag k="ssr:stedsnr" v="347930" />
	</node>
	<node id="-218277" lat="59.7493138882" lon="9.24994999443">
		<tag k="name" v="Dågålimyra" />
		<tag k="natural" v="wetland" />
		<tag k="ssr:stedsnr" v="648880" />
	</node>
	<node id="-216028" lat="59.6293000009" lon="9.14837221839">
		<tag k="name" v="Trånåbumyra" />
		<tag k="natural" v="wetland" />
		<tag k="ssr:stedsnr" v="347914" />
	</node>
	<node id="-218074" lat="59.5065277735" lon="9.25090000794">
		<tag k="name" v="Langemyr" />
		<tag k="natural" v="wetland" />
		<tag k="ssr:stedsnr" v="590493" />
	</node>
	<node id="-218066" lat="59.6605611153" lon="9.12885555471">
		<tag k="name" v="Grautebumyran" />
		<tag k="natural" v="wetland" />
		<tag k="ssr:stedsnr" v="590193" />
	</node>
	<node id="-218957" lat="59.7486944427" lon="8.91356666081">
		<tag k="historic" v="shieling" />
		<tag k="name" v="Lushatten" />
		<tag k="place" v="locality" />
		<tag k="ssr:stedsnr" v="830034" />
	</node>
	<node id="-216011" lat="59.5356361108" lon="9.17297222859">
		<tag k="name" v="Tinnemannmyra" />
		<tag k="natural" v="wetland" />
		<tag k="ssr:stedsnr" v="347702" />
	</node>
	<node id="-218053" lat="59.5733916705" lon="8.99138055298">
		<tag k="name" v="Stulensholmyra" />
		<tag k="natural" v="wetland" />
		<tag k="ssr:stedsnr" v="590097" />
	</node>
	<node id="-216001" lat="59.5227305548" lon="9.28064444486">
		<tag k="landuse" v="quarry" />
		<tag k="name" v="Kvartsbrotet" />
		<tag k="ssr:stedsnr" v="347487" />
	</node>
	<node id="-218043" lat="59.4942611073" lon="9.18936666597">
		<tag k="name" v="Breistulmyran" />
		<tag k="natural" v="wetland" />
		<tag k="ssr:stedsnr" v="589706" />
	</node>
	<node id="-218042" lat="59.6641472213" lon="9.0748361154">
		<tag k="name" v="Romegrasmyra" />
		<tag k="natural" v="wetland" />
		<tag k="ssr:stedsnr" v="589427" />
	</node>
	<node id="-218271" lat="59.813047226" lon="8.97477777657">
		<tag k="name" v="Slåttekås" />
		<tag k="place" v="locality" />
		<tag k="ssr:stedsnr" v="648769" />
	</node>
	<node id="-218038" lat="59.6998694417" lon="9.18757222008">
		<tag k="name" v="Langemyr" />
		<tag k="natural" v="wetland" />
		<tag k="ssr:stedsnr" v="587774" />
	</node>
	<node id="-218037" lat="59.7767805579" lon="8.98119167324">
		<tag k="name" v="Fjellstulmyra" />
		<tag k="natural" v="wetland" />
		<tag k="ssr:stedsnr" v="587631" />
	</node>
	<node id="-218033" lat="59.7418416685" lon="9.18604722164">
		<tag k="name" v="Djupemyr" />
		<tag k="natural" v="wetland" />
		<tag k="ssr:stedsnr" v="587456" />
	</node>
	<node id="-218028" lat="59.7568611127" lon="9.23375834099">
		<tag k="name" v="Ø Bjønnemyr" />
		<tag k="natural" v="wetland" />
		<tag k="ssr:stedsnr" v="587081" />
	</node>
	<node id="-218022" lat="59.6709944441" lon="9.33839722506">
		<tag k="name" v="Skrememyr" />
		<tag k="natural" v="wetland" />
		<tag k="ssr:stedsnr" v="586791" />
	</node>
	<node id="-218021" lat="59.7131472203" lon="9.13050278003">
		<tag k="name" v="Vassbottmyra" />
		<tag k="natural" v="wetland" />
		<tag k="ssr:stedsnr" v="586168" />
	</node>
	<node id="-218020" lat="59.7113083368" lon="9.17457222106">
		<tag k="name" v="Rognskotmyra" />
		<tag k="natural" v="wetland" />
		<tag k="ssr:stedsnr" v="586162" />
	</node>
	<node id="-218019" lat="59.6936888887" lon="9.26664445128">
		<tag k="name" v="Porsmyr" />
		<tag k="natural" v="wetland" />
		<tag k="ssr:stedsnr" v="586053" />
	</node>
	<node id="-215965" lat="59.7474166692" lon="8.93624167129">
		<tag k="historic" v="shieling" />
		<tag k="name" v="Kåleflåta" />
		<tag k="place" v="locality" />
		<tag k="ssr:stedsnr" v="344055" />
	</node>
	<node id="-215964" lat="59.7276583342" lon="9.2532555559">
		<tag k="name" v="Aurstjønnkåsa" />
		<tag k="place" v="locality" />
		<tag k="ssr:stedsnr" v="343960" />
	</node>
	<node id="-217242" lat="59.7408833294" lon="9.31323611528">
		<tag k="name" v="Heimstulmyra" />
		<tag k="natural" v="wetland" />
		<tag k="ssr:stedsnr" v="224931" />
	</node>
	<node id="-215958" lat="59.673377779" lon="9.32609999762">
		<tag k="name" v="Svarttjønnmyra" />
		<tag k="natural" v="wetland" />
		<tag k="ssr:stedsnr" v="343832" />
	</node>
	<node id="-215957" lat="59.6671416623" lon="9.30580277801">
		<tag k="name" v="Springfire" />
		<tag k="natural" v="wetland" />
		<tag k="ssr:stedsnr" v="343827" />
	</node>
	<node id="-215953" lat="59.715641665" lon="9.17088055965">
		<tag k="name" v="Storemyr" />
		<tag k="natural" v="wetland" />
		<tag k="ssr:stedsnr" v="343157" />
	</node>
	<node id="-217997" lat="59.5328249992" lon="8.83143888196">
		<tag k="name" v="Løyningsløken" />
		<tag k="natural" v="wetland" />
		<tag k="ssr:stedsnr" v="549977" />
	</node>
	<node id="-215931" lat="59.7778416646" lon="8.9313444398">
		<tag k="name" v="Kråkåsmyran" />
		<tag k="natural" v="wetland" />
		<tag k="ssr:stedsnr" v="307492" />
	</node>
	<node id="-215928" lat="59.8507194446" lon="8.90670833014">
		<tag k="alt_name" v="Nørebumyra" />
		<tag k="name" v="Nørdrebumyri" />
		<tag k="natural" v="wetland" />
		<tag k="ssr:stedsnr" v="307465" />
	</node>
	<node id="-215917" lat="59.6329194434" lon="9.27580554907">
		<tag k="name" v="Lonmyra" />
		<tag k="natural" v="wetland" />
		<tag k="ssr:stedsnr" v="306900" />
	</node>
	<node id="-217963" lat="59.6299166646" lon="9.14065277946">
		<tag k="alt_name" v="Håbergmyran" />
		<tag k="name" v="Håbergmyra" />
		<tag k="natural" v="wetland" />
		<tag k="ssr:stedsnr" v="549301" />
	</node>
	<node id="-217954" lat="59.6555138891" lon="9.05000000522">
		<tag k="name" v="Havsteinmyra" />
		<tag k="natural" v="wetland" />
		<tag k="ssr:stedsnr" v="549212" />
	</node>
	<node id="-215887" lat="59.6772694446" lon="9.0708583372">
		<tag k="name" v="Orremyr" />
		<tag k="natural" v="wetland" />
		<tag k="ssr:stedsnr" v="306213" />
	</node>
	<node id="-217923" lat="59.7196055512" lon="9.083363883">
		<tag k="name" v="Olavsmyr" />
		<tag k="natural" v="wetland" />
		<tag k="ssr:stedsnr" v="544966" />
	</node>
	<node id="-217919" lat="59.7074888921" lon="9.17860556352">
		<tag k="name" v="Stor-Aslaugmyra" />
		<tag k="natural" v="wetland" />
		<tag k="ssr:stedsnr" v="543998" />
	</node>
	<node id="-217915" lat="59.7616777809" lon="9.13108888481">
		<tag k="name" v="Bjønndalsmyra" />
		<tag k="natural" v="wetland" />
		<tag k="ssr:stedsnr" v="543699" />
	</node>
	<node id="-217912" lat="59.6379722206" lon="9.36952500366">
		<tag k="name" v="Sleppmyra" />
		<tag k="natural" v="wetland" />
		<tag k="ssr:stedsnr" v="543370" />
	</node>
	<node id="-216542" lat="59.801572219" lon="8.95740277701">
		<tag k="name" v="Baksølåmyra" />
		<tag k="natural" v="wetland" />
		<tag k="ssr:stedsnr" v="41839" />
	</node>
	<node id="-215858" lat="59.7545999976" lon="8.94689167154">
		<tag k="name" v="Hestemyr" />
		<tag k="natural" v="wetland" />
		<tag k="ssr:stedsnr" v="301764" />
	</node>
	<node id="-215849" lat="59.6483944481" lon="9.25274722382">
		<tag k="name" v="Holtemyr" />
		<tag k="natural" v="wetland" />
		<tag k="ssr:stedsnr" v="300819" />
	</node>
	<node id="-217896" lat="59.5738083313" lon="9.42444722563">
		<tag k="name" v="Haugmyran" />
		<tag k="natural" v="wetland" />
		<tag k="ssr:stedsnr" v="531935" />
	</node>
	<node id="-215844" lat="59.7210083318" lon="9.31765556384">
		<tag k="name" v="Heia" />
		<tag k="place" v="locality" />
		<tag k="ssr:stedsnr" v="300573" />
	</node>
	<node id="-217877" lat="59.5417777779" lon="8.94426943931">
		<tag k="name" v="Blåur" />
		<tag k="natural" v="scree" />
		<tag k="ssr:stedsnr" v="530313" />
	</node>
	<node id="-215827" lat="59.539958337" lon="9.24682221649">
		<tag k="name" v="Bjønnemyr" />
		<tag k="natural" v="wetland" />
		<tag k="ssr:stedsnr" v="44627" />
	</node>
	<node id="-217864" lat="59.6087972192" lon="9.34696110985">
		<tag k="name" v="Fuglemyr" />
		<tag k="natural" v="wetland" />
		<tag k="ssr:stedsnr" v="530075" />
	</node>
	<node id="-217862" lat="59.6292749999" lon="9.35305555988">
		<tag k="name" v="Kinnkleivmyr" />
		<tag k="natural" v="wetland" />
		<tag k="ssr:stedsnr" v="530031" />
	</node>
	<node id="-215811" lat="59.6754472259" lon="9.05279166578">
		<tag k="name" v="Bleikemyr" />
		<tag k="natural" v="wetland" />
		<tag k="ssr:stedsnr" v="288756" />
	</node>
	<node id="-215806" lat="59.5899749993" lon="9.36504999508">
		<tag k="historic" v="shieling" />
		<tag k="name" v="Setresletta" />
		<tag k="place" v="locality" />
		<tag k="ssr:stedsnr" v="288122" />
	</node>
	<node id="-217557" lat="59.7017666711" lon="9.30144443848">
		<tag k="name" v="Hesjåmyr" />
		<tag k="natural" v="wetland" />
		<tag k="ssr:stedsnr" v="464606" />
	</node>
	<node id="-215804" lat="59.5838833296" lon="9.34496110604">
		<tag k="name" v="Bjalkemyr" />
		<tag k="natural" v="wetland" />
		<tag k="ssr:stedsnr" v="288097" />
	</node>
	<node id="-217851" lat="59.6489722216" lon="9.00146110765">
		<tag k="name" v="Slåttemyr" />
		<tag k="natural" v="wetland" />
		<tag k="ssr:stedsnr" v="529802" />
	</node>
	<node id="-215802" lat="59.5442638861" lon="9.37690000543">
		<tag k="name" v="Smalemyra" />
		<tag k="natural" v="wetland" />
		<tag k="ssr:stedsnr" v="288079" />
	</node>
	<node id="-217849" lat="59.6762083312" lon="8.97173054814">
		<tag k="name" v="Løkjemyr" />
		<tag k="natural" v="wetland" />
		<tag k="ssr:stedsnr" v="529789" />
	</node>
	<node id="-215798" lat="59.59249722" lon="9.39587776912">
		<tag k="name" v="Tellerudmyran" />
		<tag k="natural" v="wetland" />
		<tag k="ssr:stedsnr" v="288012" />
	</node>
	<node id="-217836" lat="59.689858333" lon="9.09173332528">
		<tag k="historic" v="shieling" />
		<tag k="name" v="Kasin" />
		<tag k="place" v="locality" />
		<tag k="ssr:stedsnr" v="529493" />
	</node>
	<node id="-217831" lat="59.5211777797" lon="9.2018583276">
		<tag k="name" v="Holman" />
		<tag k="natural" v="wetland" />
		<tag k="ssr:stedsnr" v="529450" />
	</node>
	<node id="-217829" lat="59.6712416687" lon="9.07256666673">
		<tag k="name" v="Valemyr" />
		<tag k="natural" v="wetland" />
		<tag k="ssr:stedsnr" v="529424" />
	</node>
	<node id="-217828" lat="59.6591888909" lon="9.08734722866">
		<tag k="name" v="Bjønndalsbekken" />
		<tag k="natural" v="wetland" />
		<tag k="ssr:stedsnr" v="529399" />
	</node>
	<node id="-215777" lat="59.5383555599" lon="9.16412499527">
		<tag k="name" v="Slåttemyr" />
		<tag k="natural" v="wetland" />
		<tag k="ssr:stedsnr" v="287736" />
	</node>
	<node id="-215766" lat="59.5078805558" lon="9.2525416747">
		<tag k="historic" v="shieling" />
		<tag k="name" v="Vihus" />
		<tag k="place" v="locality" />
		<tag k="ssr:stedsnr" v="287521" />
	</node>
	<node id="-217813" lat="59.5525499966" lon="9.09696943953">
		<tag k="name" v="Kloppmyr" />
		<tag k="natural" v="wetland" />
		<tag k="ssr:stedsnr" v="529063" />
	</node>
	<node id="-217810" lat="59.738911113" lon="9.34025555956">
		<tag k="name" v="Diplemyr" />
		<tag k="natural" v="wetland" />
		<tag k="ssr:stedsnr" v="527939" />
	</node>
	<node id="-215754" lat="59.5627166635" lon="9.21439444109">
		<tag k="name" v="Semsøyan" />
		<tag k="natural" v="wetland" />
		<tag k="ssr:stedsnr" v="287142" />
	</node>
	<node id="-217796" lat="59.7483805549" lon="9.22010556401">
		<tag k="name" v="Halvfjerdingsmyr" />
		<tag k="natural" v="wetland" />
		<tag k="ssr:stedsnr" v="527194" />
	</node>
	<node id="-215746" lat="59.6993472217" lon="8.99433333299">
		<tag k="name" v="Veslejuv" />
		<tag k="natural" v="wetland" />
		<tag k="ssr:stedsnr" v="286906" />
	</node>
	<node id="-217793" lat="59.689952782" lon="8.93352778367">
		<tag k="historic" v="shieling" />
		<tag k="name" v="Damstul" />
		<tag k="place" v="locality" />
		<tag k="ssr:stedsnr" v="526296" />
	</node>
	<node id="-215735" lat="59.748075004" lon="9.24554722316">
		<tag k="name" v="Storemyr" />
		<tag k="natural" v="wetland" />
		<tag k="ssr:stedsnr" v="284887" />
	</node>
	<node id="-215733" lat="59.7640000025" lon="9.26159722443">
		<tag k="name" v="Kvålimyra" />
		<tag k="natural" v="wetland" />
		<tag k="ssr:stedsnr" v="284856" />
	</node>
	<node id="-215730" lat="59.7427861123" lon="9.18596389112">
		<tag k="historic" v="shieling" />
		<tag k="name" v="Nystul" />
		<tag k="place" v="locality" />
		<tag k="ssr:stedsnr" v="284440" />
	</node>
	<node id="-217773" lat="59.6744972223" lon="9.2932999999">
		<tag k="name" v="Svarverudmyr" />
		<tag k="natural" v="wetland" />
		<tag k="ssr:stedsnr" v="525074" />
	</node>
	<node id="-215720" lat="59.8321527754" lon="8.93871945109">
		<tag k="name" v="Langemyr" />
		<tag k="natural" v="wetland" />
		<tag k="ssr:stedsnr" v="284092" />
	</node>
	<node id="-215706" lat="59.7504527754" lon="8.97763056283">
		<tag k="name" v="Snaunattmyra" />
		<tag k="natural" v="wetland" />
		<tag k="ssr:stedsnr" v="283405" />
	</node>
	<node id="-215703" lat="59.6355083295" lon="9.32966944879">
		<tag k="name" v="Grokleivmyra" />
		<tag k="natural" v="wetland" />
		<tag k="ssr:stedsnr" v="282871" />
	</node>
	<node id="-217747" lat="59.6509750011" lon="9.25782499652">
		<tag k="name" v="Hemyrane" />
		<tag k="natural" v="wetland" />
		<tag k="ssr:stedsnr" v="488875" />
	</node>
	<node id="-217709" lat="59.6679777735" lon="9.11731110984">
		<tag k="name" v="Deilmyran" />
		<tag k="natural" v="wetland" />
		<tag k="ssr:stedsnr" v="488186" />
	</node>
	<node id="-217698" lat="59.7227416679" lon="9.07522499597">
		<tag k="name" v="Kopslandmyra" />
		<tag k="natural" v="wetland" />
		<tag k="ssr:stedsnr" v="488079" />
	</node>
	<node id="-217694" lat="59.7668166642" lon="9.0960888855">
		<tag k="name" v="Reisjåmyra" />
		<tag k="natural" v="wetland" />
		<tag k="ssr:stedsnr" v="484374" />
	</node>
	<node id="-217684" lat="59.7553583374" lon="9.03745832775">
		<tag k="historic" v="shieling" />
		<tag k="name" v="Mikkelsgard" />
		<tag k="place" v="locality" />
		<tag k="ssr:stedsnr" v="483289" />
	</node>
	<node id="-217682" lat="59.7149416658" lon="8.93832221563">
		<tag k="name" v="Fransdiplan" />
		<tag k="natural" v="wetland" />
		<tag k="ssr:stedsnr" v="482978" />
	</node>
	<node id="-217678" lat="59.6444111148" lon="9.31409167406">
		<tag k="name" v="Damåsmyra" />
		<tag k="natural" v="wetland" />
		<tag k="ssr:stedsnr" v="482588" />
	</node>
	<node id="-217676" lat="59.7313388877" lon="9.22923889304">
		<tag k="landuse" v="meadow" />
		<tag k="name" v="Juvakåsa" />
		<tag k="ssr:stedsnr" v="482368" />
	</node>
	<node id="-217665" lat="59.7106416705" lon="8.96332222154">
		<tag k="name" v="Bjønnemyr" />
		<tag k="natural" v="wetland" />
		<tag k="ssr:stedsnr" v="470934" />
	</node>
	<node id="-217664" lat="59.5661305547" lon="9.41451667394">
		<tag k="name" v="Rakketjønnmyran" />
		<tag k="natural" v="wetland" />
		<tag k="ssr:stedsnr" v="470912" />
	</node>
	<node id="-217659" lat="59.6697583309" lon="9.01355278158">
		<tag k="name" v="Køyun" />
		<tag k="natural" v="wetland" />
		<tag k="ssr:stedsnr" v="470799" />
	</node>
	<node id="-217658" lat="59.6779083329" lon="9.01219445253">
		<tag k="name" v="Storedokkmyra" />
		<tag k="natural" v="wetland" />
		<tag k="ssr:stedsnr" v="470791" />
	</node>
	<node id="-217654" lat="59.61753611" lon="9.05311944568">
		<tag k="name" v="Solbergmyra" />
		<tag k="natural" v="wetland" />
		<tag k="ssr:stedsnr" v="470200" />
	</node>
	<node id="-217651" lat="59.5985888924" lon="9.05467777231">
		<tag k="name" v="Langemyr" />
		<tag k="natural" v="wetland" />
		<tag k="ssr:stedsnr" v="470114" />
	</node>
	<node id="-215816" lat="59.7436666625" lon="8.95519166369">
		<tag k="name" v="Høgebrennmyran" />
		<tag k="natural" v="wetland" />
		<tag k="ssr:stedsnr" v="288962" />
	</node>
	<node id="-217646" lat="59.7391777755" lon="8.96530555141">
		<tag k="name" v="Springrosmyra" />
		<tag k="natural" v="wetland" />
		<tag k="ssr:stedsnr" v="469962" />
	</node>
	<node id="-217644" lat="59.5291611085" lon="9.09962499523">
		<tag k="name" v="Løkjemyr" />
		<tag k="natural" v="wetland" />
		<tag k="ssr:stedsnr" v="469943" />
	</node>
	<node id="-217638" lat="59.5624500014" lon="9.11683055535">
		<tag k="name" v="Øvre Bjørkemyr" />
		<tag k="natural" v="wetland" />
		<tag k="ssr:stedsnr" v="469882" />
	</node>
	<node id="-217617" lat="59.6084250017" lon="9.21732222823">
		<tag k="name" v="Viermyr" />
		<tag k="natural" v="wetland" />
		<tag k="ssr:stedsnr" v="469545" />
	</node>
	<node id="-217615" lat="59.5142249999" lon="9.26249166343">
		<tag k="name" v="Trandlemyr" />
		<tag k="natural" v="wetland" />
		<tag k="ssr:stedsnr" v="469512" />
	</node>
	<node id="-217614" lat="59.6775638933" lon="9.0878027818">
		<tag k="name" v="Elgstjønnmyra" />
		<tag k="natural" v="wetland" />
		<tag k="ssr:stedsnr" v="469437" />
	</node>
	<node id="-217601" lat="59.6962083303" lon="9.1141361028">
		<tag k="name" v="Joremyra" />
		<tag k="natural" v="wetland" />
		<tag k="ssr:stedsnr" v="468407" />
	</node>
	<node id="-217600" lat="59.696741663" lon="9.12162500473">
		<tag k="name" v="Tråtåsmyra" />
		<tag k="natural" v="wetland" />
		<tag k="ssr:stedsnr" v="468403" />
	</node>
	<node id="-217585" lat="59.7450111084" lon="9.24218055785">
		<tag k="name" v="Storvollmyra" />
		<tag k="natural" v="wetland" />
		<tag k="ssr:stedsnr" v="466879" />
	</node>
	<node id="-217579" lat="59.6879944413" lon="8.9230027702">
		<tag k="historic" v="shieling" />
		<tag k="name" v="Bodikstulen" />
		<tag k="place" v="locality" />
		<tag k="ssr:stedsnr" v="466328" />
	</node>
	<node id="-217574" lat="59.7588305557" lon="9.2267222177">
		<tag k="name" v="Blautemyr" />
		<tag k="natural" v="wetland" />
		<tag k="ssr:stedsnr" v="466072" />
	</node>
	<node id="-217572" lat="59.7559416695" lon="8.92625833223">
		<tag k="name" v="Tiurleikmyra" />
		<tag k="natural" v="wetland" />
		<tag k="ssr:stedsnr" v="466043" />
	</node>
	<node id="-217567" lat="59.7143194422" lon="9.09505278562">
		<tag k="name" v="Slåttemyr" />
		<tag k="natural" v="wetland" />
		<tag k="ssr:stedsnr" v="465652" />
	</node>
	<node id="-217565" lat="59.718205557" lon="9.16801389062">
		<tag k="name" v="Ambjørgsmyr" />
		<tag k="natural" v="wetland" />
		<tag k="ssr:stedsnr" v="465171" />
	</node>
	<node id="-215801" lat="59.6076638894" lon="9.32361666546">
		<tag k="name" v="Kroktjønnmyra" />
		<tag k="natural" v="wetland" />
		<tag k="ssr:stedsnr" v="288064" />
	</node>
	<node id="-217538" lat="59.6510472187" lon="9.29820277588">
		<tag k="alt_name" v="Slåttemyr" />
		<tag k="name" v="Slåttemyra" />
		<tag k="natural" v="wetland" />
		<tag k="ssr:stedsnr" v="428887" />
	</node>
	<node id="-217537" lat="59.6216694451" lon="9.29991111342">
		<tag k="name" v="Hestemyra" />
		<tag k="natural" v="wetland" />
		<tag k="ssr:stedsnr" v="428856" />
	</node>
	<node id="-216814" lat="59.6804083323" lon="9.11887221994">
		<tag k="name" v="Rundemyr" />
		<tag k="natural" v="wetland" />
		<tag k="ssr:stedsnr" v="105509" />
	</node>
	<node id="-217479" lat="59.738061108" lon="9.19854999494">
		<tag k="name" v="Breimyr" />
		<tag k="natural" v="wetland" />
		<tag k="ssr:stedsnr" v="423517" />
	</node>
	<node id="-217473" lat="59.6377694462" lon="9.28888332969">
		<tag k="name" v="Raumåsåmyra" />
		<tag k="natural" v="wetland" />
		<tag k="ssr:stedsnr" v="422836" />
	</node>
	<node id="-217455" lat="59.7452138926" lon="8.95829443922">
		<tag k="historic" v="shieling" />
		<tag k="name" v="Bråtekåsa" />
		<tag k="place" v="locality" />
		<tag k="ssr:stedsnr" v="480058" />
	</node>
	<node id="-219474" lat="59.5834897954" lon="9.34429487609">
		<tag k="name" v="Hvåla" />
		<tag k="place" v="locality" />
		<tag k="ssr:stedsnr" v="980296" />
	</node>
	<node id="-217407" lat="59.657641669" lon="9.09885556161">
		<tag k="name" v="Gråbumyran" />
		<tag k="natural" v="wetland" />
		<tag k="ssr:stedsnr" v="246221" />
	</node>
	<node id="-219438" lat="59.6444138891" lon="9.26382222139">
		<tag k="name" v="Hekleivmyra" />
		<tag k="natural" v="wetland" />
		<tag k="ssr:stedsnr" v="968827" />
	</node>
	<node id="-219437" lat="59.7488361079" lon="9.10588333455">
		<tag k="name" v="Storemyr" />
		<tag k="natural" v="wetland" />
		<tag k="ssr:stedsnr" v="968542" />
	</node>
	<node id="-217386" lat="59.6688500031" lon="9.38060000675">
		<tag k="name" v="Venemyr" />
		<tag k="natural" v="wetland" />
		<tag k="ssr:stedsnr" v="245919" />
	</node>
	<node id="-219431" lat="59.7078083369" lon="8.94175833784">
		<tag k="name" v="Gaukemyra" />
		<tag k="natural" v="wetland" />
		<tag k="ssr:stedsnr" v="967972" />
	</node>
	<node id="-219429" lat="59.7274166701" lon="9.0861027763">
		<tag k="name" v="Villemyr" />
		<tag k="natural" v="wetland" />
		<tag k="ssr:stedsnr" v="967657" />
	</node>
	<node id="-217358" lat="59.8625222265" lon="8.92670833091">
		<tag k="historic" v="shieling" />
		<tag k="name" v="Jonsbråten" />
		<tag k="place" v="locality" />
		<tag k="ssr:stedsnr" v="241007" />
	</node>
	<node id="-217353" lat="59.7799611144" lon="9.19988055022">
		<tag k="name" v="Stulsmyr" />
		<tag k="natural" v="wetland" />
		<tag k="ssr:stedsnr" v="240223" />
	</node>
	<node id="-219398" lat="59.7057472222" lon="8.95600833727">
		<tag k="name" v="Folemyra" />
		<tag k="natural" v="wetland" />
		<tag k="ssr:stedsnr" v="955914" />
	</node>
	<node id="-219396" lat="59.7120749977" lon="8.97057778372">
		<tag k="name" v="Langmyr" />
		<tag k="natural" v="wetland" />
		<tag k="ssr:stedsnr" v="955879" />
	</node>
	<node id="-219394" lat="59.675072223" lon="9.06130555363">
		<tag k="name" v="Tjuvedalsmyra" />
		<tag k="natural" v="wetland" />
		<tag k="ssr:stedsnr" v="955789" />
	</node>
	<node id="-219393" lat="59.5155527751" lon="8.9150805495">
		<tag k="historic" v="shieling" />
		<tag k="name" v="Caperhytta" />
		<tag k="place" v="locality" />
		<tag k="ssr:stedsnr" v="955728" />
	</node>
	<node id="-217344" lat="59.7225361132" lon="9.23689721806">
		<tag k="name" v="Bergmyr" />
		<tag k="natural" v="wetland" />
		<tag k="ssr:stedsnr" v="239345" />
	</node>
	<node id="-217329" lat="59.545913887" lon="9.33596389431">
		<tag k="name" v="Høgemyr" />
		<tag k="natural" v="wetland" />
		<tag k="ssr:stedsnr" v="227913" />
	</node>
	<node id="-217327" lat="59.7035861084" lon="8.95774722714">
		<tag k="name" v="Vettermyr" />
		<tag k="natural" v="wetland" />
		<tag k="ssr:stedsnr" v="227905" />
	</node>
	<node id="-219373" lat="59.7400361152" lon="9.01334999539">
		<tag k="name" v="Fivelimyr" />
		<tag k="natural" v="wetland" />
		<tag k="ssr:stedsnr" v="954950" />
	</node>
	<node id="-217324" lat="59.6885083361" lon="9.03829722403">
		<tag k="name" v="Hågåskeiet" />
		<tag k="place" v="locality" />
		<tag k="ssr:stedsnr" v="227818" />
	</node>
	<node id="-217322" lat="59.6631666667" lon="9.06348055448">
		<tag k="name" v="Tverrmyr" />
		<tag k="natural" v="wetland" />
		<tag k="ssr:stedsnr" v="227776" />
	</node>
	<node id="-217321" lat="59.6630138848" lon="9.05623888384">
		<tag k="name" v="Tråeråsmyra" />
		<tag k="natural" v="wetland" />
		<tag k="ssr:stedsnr" v="227774" />
	</node>
	<node id="-219368" lat="59.6261944468" lon="9.13883888393">
		<tag k="name" v="Postmyr" />
		<tag k="natural" v="wetland" />
		<tag k="ssr:stedsnr" v="954926" />
	</node>
	<node id="-217310" lat="59.7433499997" lon="8.97798610574">
		<tag k="name" v="Breimyr" />
		<tag k="natural" v="wetland" />
		<tag k="ssr:stedsnr" v="226972" />
	</node>
	<node id="-217309" lat="59.6176694459" lon="9.06940555113">
		<tag k="name" v="Krossmyr" />
		<tag k="natural" v="wetland" />
		<tag k="ssr:stedsnr" v="226930" />
	</node>
	<node id="-219354" lat="59.4877472211" lon="9.17717499418">
		<tag k="historic" v="shieling" />
		<tag k="name" v="Grasbott" />
		<tag k="place" v="locality" />
		<tag k="ssr:stedsnr" v="954713" />
	</node>
	<node id="-217304" lat="59.6239388911" lon="9.20976388137">
		<tag k="name" v="Karhølen" />
		<tag k="natural" v="wetland" />
		<tag k="ssr:stedsnr" v="226909" />
	</node>
	<node id="-217303" lat="59.6176583327" lon="9.21343888293">
		<tag k="name" v="Spiremyr" />
		<tag k="natural" v="wetland" />
		<tag k="ssr:stedsnr" v="226906" />
	</node>
	<node id="-217297" lat="59.6583416712" lon="9.22328888953">
		<tag k="name" v="Slåttemyr" />
		<tag k="natural" v="wetland" />
		<tag k="ssr:stedsnr" v="226832" />
	</node>
	<node id="-216780" lat="59.5462638878" lon="9.15488333779">
		<tag k="name" v="Hestemyra" />
		<tag k="natural" v="wetland" />
		<tag k="ssr:stedsnr" v="104743" />
	</node>
	<node id="-219323" lat="59.6865527761" lon="9.17589167174">
		<tag k="name" v="Krossflåta" />
		<tag k="natural" v="wetland" />
		<tag k="ssr:stedsnr" v="954016" />
	</node>
	<node id="-219320" lat="59.535308333" lon="9.39772500537">
		<tag k="name" v="Nybumyra" />
		<tag k="natural" v="wetland" />
		<tag k="ssr:stedsnr" v="953695" />
	</node>
	<node id="-219311" lat="59.7549305524" lon="9.23312222967">
		<tag k="name" v="N Bjønnemyr" />
		<tag k="natural" v="wetland" />
		<tag k="ssr:stedsnr" v="952214" />
	</node>
	<node id="-217255" lat="59.5524027748" lon="9.11394444509">
		<tag k="name" v="Svevsmyran" />
		<tag k="natural" v="wetland" />
		<tag k="ssr:stedsnr" v="226082" />
	</node>
	<node id="-219299" lat="59.7759444475" lon="9.27015555387">
		<tag k="name" v="Skjønbuksmyr" />
		<tag k="natural" v="wetland" />
		<tag k="ssr:stedsnr" v="951181" />
	</node>
	<node id="-219296" lat="59.830138888" lon="8.94811666657">
		<tag k="historic" v="shieling" />
		<tag k="name" v="Gvamslikåsa" />
		<tag k="place" v="locality" />
		<tag k="ssr:stedsnr" v="950991" />
	</node>
	<node id="-219295" lat="59.7280388861" lon="9.24193333775">
		<tag k="name" v="Tiurleikmyra" />
		<tag k="natural" v="wetland" />
		<tag k="ssr:stedsnr" v="950933" />
	</node>
	<node id="-219294" lat="59.7330500027" lon="9.25671110364">
		<tag k="name" v="Svarverud" />
		<tag k="natural" v="wetland" />
		<tag k="ssr:stedsnr" v="950927" />
	</node>
	<node id="-219293" lat="59.7340888889" lon="9.26609444477">
		<tag k="name" v="Slåttemyr" />
		<tag k="natural" v="wetland" />
		<tag k="ssr:stedsnr" v="950926" />
	</node>
	<node id="-219290" lat="59.7243944457" lon="9.10237500607">
		<tag k="name" v="Bergmyra" />
		<tag k="natural" v="wetland" />
		<tag k="ssr:stedsnr" v="950617" />
	</node>
	<node id="-217241" lat="59.8326944465" lon="8.94657499229">
		<tag k="historic" v="shieling" />
		<tag k="name" v="Heggedokk" />
		<tag k="place" v="locality" />
		<tag k="ssr:stedsnr" v="224111" />
	</node>
	<node id="-219286" lat="59.7132527735" lon="9.14043888504">
		<tag k="name" v="Dammyr" />
		<tag k="natural" v="wetland" />
		<tag k="ssr:stedsnr" v="950184" />
	</node>
	<node id="-217235" lat="59.745625001" lon="8.93809722208">
		<tag k="historic" v="shieling" />
		<tag k="name" v="Storero" />
		<tag k="place" v="locality" />
		<tag k="ssr:stedsnr" v="223065" />
	</node>
	<node id="-217229" lat="59.7200638924" lon="9.1281805532">
		<tag k="name" v="Langemyr" />
		<tag k="natural" v="wetland" />
		<tag k="ssr:stedsnr" v="222144" />
	</node>
	<node id="-217224" lat="59.6600888931" lon="9.25216111839">
		<tag k="name" v="Kjerrmyr" />
		<tag k="natural" v="wetland" />
		<tag k="ssr:stedsnr" v="222064" />
	</node>
	<node id="-219269" lat="59.8283638848" lon="8.86492500498">
		<tag k="name" v="Digermyr" />
		<tag k="natural" v="wetland" />
		<tag k="ssr:stedsnr" v="914454" />
	</node>
	<node id="-217219" lat="59.72448056" lon="9.26180277345">
		<tag k="name" v="Holdgutumyra" />
		<tag k="natural" v="wetland" />
		<tag k="ssr:stedsnr" v="222930" />
	</node>
	<node id="-217210" lat="59.7601750041" lon="9.0628111173">
		<tag k="name" v="Storemyr" />
		<tag k="natural" v="wetland" />
		<tag k="ssr:stedsnr" v="186470" />
	</node>
	<node id="-219155" lat="59.6393222254" lon="9.36466111302">
		<tag k="alt_name" v="Vipetomyran" />
		<tag k="name" v="Vipetomyrane" />
		<tag k="natural" v="wetland" />
		<tag k="ssr:stedsnr" v="853900" />
	</node>
	<node id="-217200" lat="59.8412611076" lon="8.87679166889">
		<tag k="alt_name" v="Glahaugmyran" />
		<tag k="name" v="Gladhaugmyran" />
		<tag k="natural" v="wetland" />
		<tag k="ssr:stedsnr" v="186505" />
	</node>
	<node id="-217189" lat="59.6139722237" lon="9.34857222642">
		<tag k="alt_name" v="Tuemyr" />
		<tag k="name" v="Tumyr" />
		<tag k="natural" v="wetland" />
		<tag k="ssr:stedsnr" v="185861" />
	</node>
	<node id="-219223" lat="59.6589027778" lon="9.06340277313">
		<tag k="name" v="Hovsmyra" />
		<tag k="natural" v="wetland" />
		<tag k="ssr:stedsnr" v="913202" />
	</node>
	<node id="-219208" lat="59.6587250015" lon="9.28640000243">
		<tag k="alt_name" v="Ramsåsmyran" />
		<tag k="name" v="Ramsåsmyra" />
		<tag k="natural" v="wetland" />
		<tag k="ssr:stedsnr" v="913933" />
	</node>
	<node id="-219201" lat="59.7042111114" lon="9.27630555978">
		<tag k="name" v="Gampeskrottmyra" />
		<tag k="natural" v="wetland" />
		<tag k="ssr:stedsnr" v="908577" />
	</node>
	<node id="-217149" lat="59.631883332" lon="9.05673610941">
		<tag k="name" v="Storemyr" />
		<tag k="natural" v="wetland" />
		<tag k="ssr:stedsnr" v="185172" />
	</node>
	<node id="-219196" lat="59.7102805513" lon="8.92380278267">
		<tag k="name" v="Meheimyran" />
		<tag k="natural" v="wetland" />
		<tag k="ssr:stedsnr" v="907983" />
	</node>
	<node id="-219195" lat="59.7160888855" lon="8.94957222928">
		<tag k="name" v="Tiurleikmyran" />
		<tag k="natural" v="wetland" />
		<tag k="ssr:stedsnr" v="907981" />
	</node>
	<node id="-219188" lat="59.7234083322" lon="9.07521388656">
		<tag k="name" v="Kopslandmyr" />
		<tag k="natural" v="wetland" />
		<tag k="ssr:stedsnr" v="907646" />
	</node>
	<node id="-217138" lat="59.7151805511" lon="9.1051111178">
		<tag k="name" v="Småmyran" />
		<tag k="natural" v="wetland" />
		<tag k="ssr:stedsnr" v="180955" />
	</node>
	<node id="-217137" lat="59.7186055533" lon="9.1007583354">
		<tag k="name" v="Visemyr" />
		<tag k="natural" v="wetland" />
		<tag k="ssr:stedsnr" v="180956" />
	</node>
	<node id="-218802" lat="59.6327861136" lon="9.17986388948">
		<tag k="name" v="Steinsmyran" />
		<tag k="natural" v="wetland" />
		<tag k="ssr:stedsnr" v="772902" />
	</node>
	<node id="-217120" lat="59.7109416624" lon="9.16026389385">
		<tag k="name" v="Nøstjønnmyran" />
		<tag k="natural" v="wetland" />
		<tag k="ssr:stedsnr" v="179996" />
	</node>
	<node id="-217117" lat="59.790997218" lon="8.99969721601">
		<tag k="landuse" v="meadow" />
		<tag k="name" v="Breigvam" />
		<tag k="ssr:stedsnr" v="179652" />
	</node>
	<node id="-217114" lat="59.803300003" lon="9.20848332487">
		<tag k="name" v="Bonjomsmyra" />
		<tag k="natural" v="wetland" />
		<tag k="ssr:stedsnr" v="179029" />
	</node>
	<node id="-217112" lat="59.710752777" lon="9.30664443896">
		<tag k="name" v="Gapetjønnmyra" />
		<tag k="natural" v="wetland" />
		<tag k="ssr:stedsnr" v="178561" />
	</node>
	<node id="-217110" lat="59.6463194471" lon="9.41322222988">
		<tag k="historic" v="shieling" />
		<tag k="name" v="Finnvollen" />
		<tag k="place" v="locality" />
		<tag k="ssr:stedsnr" v="178408" />
	</node>
	<node id="-218798" lat="59.6208666706" lon="9.22289166075">
		<tag k="name" v="Bjøllemyr" />
		<tag k="natural" v="wetland" />
		<tag k="ssr:stedsnr" v="772881" />
	</node>
	<node id="-217106" lat="59.8861444425" lon="8.90030000682">
		<tag k="name" v="Presturda" />
		<tag k="natural" v="scree" />
		<tag k="ssr:stedsnr" v="176584" />
	</node>
	<node id="-217104" lat="59.7451027736" lon="8.97164999283">
		<tag k="name" v="Fjellsendmyran" />
		<tag k="natural" v="wetland" />
		<tag k="ssr:stedsnr" v="176084" />
	</node>
	<node id="-215725" lat="59.6864333364" lon="8.94057222044">
		<tag k="name" v="Holemyr" />
		<tag k="natural" v="wetland" />
		<tag k="ssr:stedsnr" v="284310" />
	</node>
	<node id="-217094" lat="59.6682083303" lon="8.94966111755">
		<tag k="name" v="Tingelmyr" />
		<tag k="natural" v="wetland" />
		<tag k="ssr:stedsnr" v="166994" />
	</node>
	<node id="-216065" lat="59.6721472257" lon="8.92883888458">
		<tag k="name" v="Langheimyra" />
		<tag k="natural" v="wetland" />
		<tag k="ssr:stedsnr" v="348987" />
	</node>
</osm>
