<?xml version="1.0" encoding="UTF-8"?>
<osm generator="osmapis" version="0.6">
	<node id="-219515" lat="59.7397472234" lon="9.12144445235">
		<tag k="name" v="Kjerraten" />
		<tag k="place" v="locality" />
		<tag k="ssr:stedsnr" v="907682" />
	</node>
	<node id="-217974" lat="59.6665083374" lon="8.93783333743">
		<tag k="name" v="Saltkleiv" />
		<tag k="place" v="locality" />
		<tag k="ssr:stedsnr" v="469994" />
	</node>
	<node id="-217801" lat="59.7307138862" lon="9.13768332454">
		<tag k="name" v="Fanturda" />
		<tag k="place" v="locality" />
		<tag k="ssr:stedsnr" v="422995" />
	</node>
	<node id="-216979" lat="59.7086972226" lon="9.11854721471">
		<tag k="name" v="Lauvhytta" />
		<tag k="place" v="locality" />
		<tag k="ssr:stedsnr" v="57818" />
	</node>
	<node id="-216175" lat="59.7069222228" lon="9.15048889262">
		<tag k="name" v="Tjågedammen" />
		<tag k="place" v="locality" />
		<tag k="ssr:stedsnr" v="301000" />
	</node>
	<node id="-216174" lat="59.8034916631" lon="8.91182499773">
		<tag k="name" v="Skarpro" />
		<tag k="place" v="locality" />
		<tag k="ssr:stedsnr" v="300930" />
	</node>
	<node id="-219501" lat="59.7930555522" lon="9.26298332874">
		<tag k="name" v="Steinroe" />
		<tag k="place" v="locality" />
		<tag k="ssr:stedsnr" v="906081" />
	</node>
	<node id="-219499" lat="59.87866389" lon="8.91505832871">
		<tag k="name" v="Fåne, s" />
		<tag k="place" v="locality" />
		<tag k="ssr:stedsnr" v="905637" />
	</node>
	<node id="-216552" lat="59.568072224" lon="9.25764166887">
		<tag k="cemetery" v="grave" />
		<tag k="name" v="Notodden gravlund" />
		<tag k="place" v="locality" />
		<tag k="ssr:stedsnr" v="408233" />
	</node>
	<node id="-218470" lat="59.8003138856" lon="8.95780833108">
		<tag k="name" v="Kolbotn" />
		<tag k="place" v="locality" />
		<tag k="ssr:stedsnr" v="603809" />
	</node>
	<node id="-216676" lat="59.5823416654" lon="9.31710833175">
		<tag k="name" v="Gaustad-utsikten" />
		<tag k="ssr:stedsnr" v="894087" />
		<tag k="tourism" v="viewpoint" />
	</node>
	<node id="-216163" lat="59.7205666707" lon="9.2566527848">
		<tag k="name" v="Saga" />
		<tag k="place" v="locality" />
		<tag k="ssr:stedsnr" v="300548" />
	</node>
	<node id="-218846" lat="59.8281055564" lon="8.97602221839">
		<tag k="name" v="Sigurdskås" />
		<tag k="place" v="locality" />
		<tag k="ssr:stedsnr" v="709796" />
	</node>
	<node id="-216925" lat="59.6688333328" lon="9.1727972202">
		<tag k="name" v="Movelta" />
		<tag k="place" v="locality" />
		<tag k="ssr:stedsnr" v="44833" />
	</node>
	<node id="-218715" lat="59.7999666708" lon="9.26467778061">
		<tag k="name" v="Storedalsroe" />
		<tag k="place" v="locality" />
		<tag k="ssr:stedsnr" v="663102" />
	</node>
	<node id="-218842" lat="59.7818444472" lon="9.00841667528">
		<tag k="name" v="Kvartsbrotet" />
		<tag k="place" v="locality" />
		<tag k="ssr:stedsnr" v="709595" />
	</node>
	<node id="-216023" lat="59.6894694429" lon="9.03574444701">
		<tag k="alt_name" v="Gransherad kyrkje" />
		<tag k="amenity" v="place_of_worship" />
		<tag k="denomination" v="lutheran" />
		<tag k="name" v="Gransherad" />
		<tag k="religion" v="christian" />
		<tag k="ssr:stedsnr" v="271184" />
	</node>
	<node id="-218576" lat="59.6363361108" lon="9.29525556132">
		<tag k="name" v="Lontangen" />
		<tag k="place" v="locality" />
		<tag k="ssr:stedsnr" v="646862" />
	</node>
	<node id="-216525" lat="59.6956694488" lon="9.18616388137">
		<tag k="name" v="Dårudvegen" />
		<tag k="place" v="locality" />
		<tag k="ssr:stedsnr" v="405774" />
	</node>
	<node id="-219209" lat="59.6149055575" lon="9.26422499619">
		<tag k="alt_name" v="Lisleherad kyrkje" />
		<tag k="amenity" v="place_of_worship" />
		<tag k="denomination" v="lutheran" />
		<tag k="name" v="Lisleherad" />
		<tag k="religion" v="christian" />
		<tag k="ssr:stedsnr" v="791871" />
	</node>
	<node id="-218050" lat="59.579580552" lon="9.17626110405">
		<tag k="amenity" v="place_of_worship" />
		<tag k="denomination" v="lutheran" />
		<tag k="name" v="Heddal" />
		<tag k="religion" v="christian" />
		<tag k="ssr:stedsnr" v="488336" />
	</node>
	<node id="-218011" lat="59.7399888868" lon="9.19518056141">
		<tag k="name" v="Kjerringa" />
		<tag k="place" v="locality" />
		<tag k="ssr:stedsnr" v="483511" />
	</node>
	<node id="-218428" lat="59.6256055521" lon="9.1945638887">
		<tag k="name" v="Stavstø" />
		<tag k="place" v="locality" />
		<tag k="ssr:stedsnr" v="590904" />
	</node>
	<node id="-216885" lat="59.5612666637" lon="9.26489445222">
		<tag k="amenity" v="place_of_worship" />
		<tag k="denomination" v="lutheran" />
		<tag k="name" v="Notodden kirke" />
		<tag k="religion" v="christian" />
		<tag k="ssr:stedsnr" v="43223" />
	</node>
	<node id="-217905" lat="59.7754694464" lon="9.00675000666">
		<tag k="name" v="Bergstugo" />
		<tag k="place" v="locality" />
		<tag k="ssr:stedsnr" v="466359" />
	</node>
	<node id="-219312" lat="59.5539222233" lon="8.99165278145">
		<tag k="name" v="Kolabotn" />
		<tag k="place" v="locality" />
		<tag k="ssr:stedsnr" v="833108" />
	</node>
	<node id="-216285" lat="59.7320666693" lon="9.23899165917">
		<tag k="name" v="Biskopstolen" />
		<tag k="place" v="locality" />
		<tag k="ssr:stedsnr" v="343959" />
	</node>
	<node id="-217129" lat="59.5802083317" lon="9.17422222147">
		<tag k="amenity" v="place_of_worship" />
		<tag k="denomination" v="lutheran" />
		<tag k="name" v="Heddal stavkyrkje" />
		<tag k="religion" v="christian" />
		<tag k="ssr:stedsnr" v="105211" />
	</node>
	<node id="-219681" lat="59.6378333291" lon="9.18072499617">
		<tag k="name" v="Kolabotn" />
		<tag k="place" v="locality" />
		<tag k="ssr:stedsnr" v="954793" />
	</node>
	<node id="-218143" lat="59.55083611" lon="9.23040554721">
		<tag k="name" v="Rullnes" />
		<tag k="place" v="locality" />
		<tag k="ssr:stedsnr" v="529121" />
	</node>
	<node id="-218395" lat="59.5808638901" lon="9.19742222594">
		<tag k="amenity" v="place_of_worship" />
		<tag k="fixme" v="specify religion=*, denomination=*, building=* etc" />
		<tag k="name" v="Solbakken" />
		<tag k="ssr:stedsnr" v="590325" />
	</node>
	<node id="-217363" lat="59.5839722248" lon="9.14607777032">
		<tag k="name" v="Kålabotn" />
		<tag k="place" v="locality" />
		<tag k="ssr:stedsnr" v="165341" />
	</node>
	<node id="-218127" lat="59.8155638856" lon="8.97416110744">
		<tag k="name" v="Aslakskås" />
		<tag k="place" v="locality" />
		<tag k="ssr:stedsnr" v="527777" />
	</node>
	<node id="-216347" lat="59.6221472203" lon="9.23483056193">
		<tag k="name" v="Blakkeskot" />
		<tag k="place" v="locality" />
		<tag k="ssr:stedsnr" v="347907" />
	</node>
	<node id="-217794" lat="59.7733833318" lon="9.33020278496">
		<tag k="name" v="Nåttersåta" />
		<tag k="place" v="locality" />
		<tag k="ssr:stedsnr" v="422167" />
	</node>
	<node id="-219146" lat="59.6222111116" lon="9.33913888348">
		<tag k="name" v="Tore Brodden" />
		<tag k="place" v="locality" />
		<tag k="ssr:stedsnr" v="773479" />
	</node>
	<node id="-218377" lat="59.6297333307" lon="9.35149166246">
		<tag k="name" v="Lensmannssessen" />
		<tag k="place" v="locality" />
		<tag k="ssr:stedsnr" v="590025" />
	</node>
	<node id="-218888" lat="59.6177916684" lon="9.12488333612">
		<tag k="name" v="Borgja" />
		<tag k="place" v="locality" />
		<tag k="ssr:stedsnr" v="711908" />
	</node>
	<node id="-216708" lat="59.6198638889" lon="9.19983055015">
		<tag k="name" v="Løyningstandaren" />
		<tag k="place" v="locality" />
		<tag k="ssr:stedsnr" v="894892" />
	</node>
	<node id="-216578" lat="59.6503027791" lon="9.18371666015">
		<tag k="name" v="Halvfaret" />
		<tag k="place" v="locality" />
		<tag k="ssr:stedsnr" v="408832" />
	</node>
	<node id="-216555" lat="59.5787138907" lon="9.18199166932">
		<tag k="name" v="Bygdetunet" />
		<tag k="ssr:stedsnr" v="408398" />
		<tag k="tourism" v="museum" />
	</node>
</osm>
