<?xml version="1.0" encoding="UTF-8"?>
<osm generator="osmapis" version="0.6">
	<node id="-780127" lat="70.273869506" lon="30.9046478849">
		<tag k="name" v="Solstad" />
		<tag k="place" v="farm" />
		<tag k="ssr:stedsnr" v="774942" />
	</node>
	<node id="-779701" lat="70.4411750512" lon="30.8595730219">
		<tag k="name" v="Prestnæringen" />
		<tag k="place" v="isolated_dwelling" />
		<tag k="ssr:stedsnr" v="384551" />
	</node>
	<node id="-779996" lat="70.2564278381" lon="30.688934151">
		<tag k="fixme" v="consider place=hamlet" />
		<tag k="name" v="Langbunes" />
		<tag k="place" v="village" />
		<tag k="ssr:stedsnr" v="571538" />
	</node>
	<node id="-779963" lat="70.4369695037" lon="30.9633173809">
		<tag k="name" v="Kavringen" />
		<tag k="place" v="farm" />
		<tag k="ssr:stedsnr" v="512416" />
	</node>
	<node id="-779866" lat="70.2853667331" lon="30.9972644864">
		<tag k="alt_name:no" v="Kiberg, yt;Ytre Kiberg" />
		<tag k="name" v="Kiberg - Kiiperi" />
		<tag k="name:fkv" v="Kiiperi" />
		<tag k="name:no" v="Kiberg" />
		<tag k="place" v="village" />
		<tag k="ssr:stedsnr" v="202520" />
	</node>
	<node id="-779769" lat="70.4264639421" lon="30.7636369659">
		<tag k="name" v="Hamna" />
		<tag k="place" v="isolated_dwelling" />
		<tag k="ssr:stedsnr" v="20611" />
	</node>
	<node id="-779863" lat="70.2261333935" lon="30.4904648218">
		<tag k="name" v="Tyrolheim" />
		<tag k="place" v="isolated_dwelling" />
		<tag k="ssr:stedsnr" v="202511" />
	</node>
	<node id="-780118" lat="70.3853500557" lon="31.0204284317">
		<tag k="fixme" v="consider place=hamlet" />
		<tag k="name" v="Smelror" />
		<tag k="place" v="village" />
		<tag k="ssr:stedsnr" v="755402" />
	</node>
	<node id="-779993" lat="70.3720556184" lon="31.0953228066">
		<tag k="alt_name" v="Vardøhus festning" />
		<tag k="landuse" v="military" />
		<tag k="name" v="Vardøhus" />
		<tag k="ssr:stedsnr" v="566599" />
	</node>
	<node id="-779859" lat="70.3749972863" lon="31.1175283494">
		<tag k="name" v="Vestervågen" />
		<tag k="place" v="suburb" />
		<tag k="ssr:stedsnr" v="167997" />
	</node>
	<node id="-779763" lat="70.2457639418" lon="30.5331259066">
		<tag k="fixme" v="consider place=hamlet" />
		<tag k="name" v="Komagvær - Kumaveri" />
		<tag k="name:fkv" v="Kumaveri" />
		<tag k="name:no" v="Komagvær" />
		<tag k="place" v="village" />
		<tag k="ssr:stedsnr" v="20524" />
	</node>
	<node id="-780240" lat="70.2844056195" lon="30.999225593">
		<tag k="building" v="industrial" />
		<tag k="industrial" v="factory" />
		<tag k="name" v="Mathisenbruket" />
		<tag k="ssr:stedsnr" v="957782" />
	</node>
	<node id="-780143" lat="70.2743972868" lon="30.9424950888">
		<tag k="alt_name" v="Kiberg, in" />
		<tag k="name" v="Indre Kiberg" />
		<tag k="place" v="hamlet" />
		<tag k="ssr:stedsnr" v="808489" />
	</node>
	<node id="-779694" lat="70.2665222834" lon="30.8590145809">
		<tag k="name" v="Kramvik" />
		<tag k="place" v="hamlet" />
		<tag k="ssr:stedsnr" v="383536" />
	</node>
	<node id="-780075" lat="70.3586861663" lon="31.0300200773">
		<tag k="name" v="Svartnes" />
		<tag k="place" v="hamlet" />
		<tag k="ssr:stedsnr" v="688619" />
	</node>
	<node id="-779881" lat="70.4257833879" lon="30.7184786644">
		<tag k="name" v="Vesterelva" />
		<tag k="place" v="hamlet" />
		<tag k="ssr:stedsnr" v="207642" />
	</node>
	<node id="-780199" lat="70.4202889403" lon="30.7910675046">
		<tag k="fixme" v="consider place=hamlet" />
		<tag k="name" v="Persfjord" />
		<tag k="place" v="village" />
		<tag k="ssr:stedsnr" v="930593" />
	</node>
	<node id="-780071" lat="70.3662250524" lon="30.7903619099">
		<tag k="name" v="Russehytta" />
		<tag k="place" v="locality" />
		<tag k="ssr:stedsnr" v="688596" />
	</node>
	<node id="-779910" lat="70.3705167293" lon="31.1095366695">
		<tag k="name" v="Vardø - Vuorea" />
		<tag k="name:fkv" v="Vuorea" />
		<tag k="name:no" v="Vardø" />
		<tag k="place" v="town" />
		<tag k="ssr:stedsnr" v="263614" />
	</node>
	<node id="-779894" lat="70.3673361753" lon="31.1177699999">
		<tag k="name" v="Østervågen" />
		<tag k="place" v="suburb" />
		<tag k="ssr:stedsnr" v="228960" />
	</node>
	<node id="-779843" lat="70.2668472766" lon="30.3263566164">
		<tag k="name" v="Abrahamsenslåtta" />
		<tag k="place" v="locality" />
		<tag k="ssr:stedsnr" v="141907" />
	</node>
</osm>
