<?xml version="1.0" encoding="UTF-8"?>
<osm generator="osmapis" version="0.6">
	<node id="-778751" lat="70.4609250499" lon="30.7349481101">
		<tag k="alt_name" v="Kvamhulnes" />
		<tag k="fixme" v="multiple name tags, choose one and add the other to alt_name" />
		<tag k="name" v="Blåsenberg;Kvamholnes" />
		<tag k="natural" v="cape" />
		<tag k="ssr:stedsnr" v="869909" />
	</node>
	<node id="-778747" lat="70.2409667233" lon="30.5253092427">
		<tag k="name" v="Komagværbukta" />
		<tag k="natural" v="bay" />
		<tag k="ssr:stedsnr" v="869534" />
	</node>
	<node id="-778746" lat="70.2366556151" lon="30.6097008611">
		<tag k="name" v="Trollelvfluan" />
		<tag k="natural" v="shoal" />
		<tag k="place" v="locality" />
		<tag k="ssr:stedsnr" v="843092" />
	</node>
	<node id="-778233" lat="70.4040695088" lon="31.1264922418">
		<tag k="name" v="Seigrunnen" />
		<tag k="natural" v="shoal" />
		<tag k="place" v="locality" />
		<tag k="ssr:stedsnr" v="323604" />
	</node>
	<node id="-778232" lat="70.3837611728" lon="31.1249394593">
		<tag k="name" v="Reinøysundet" />
		<tag k="natural" v="strait" />
		<tag k="ssr:stedsnr" v="323599" />
	</node>
	<node id="-778231" lat="70.4052472785" lon="31.0679756261">
		<tag k="name" v="Skagodden" />
		<tag k="natural" v="cape" />
		<tag k="ssr:stedsnr" v="323589" />
	</node>
	<node id="-778741" lat="70.3716722832" lon="31.0903311539">
		<tag k="name" v="Sunddammen" />
		<tag k="natural" v="bay" />
		<tag k="ssr:stedsnr" v="835995" />
	</node>
	<node id="-778228" lat="70.4368083847" lon="30.9666785047">
		<tag k="name" v="Kavringen" />
		<tag k="natural" v="cape" />
		<tag k="ssr:stedsnr" v="323573" />
	</node>
	<node id="-778225" lat="70.3833917304" lon="31.0921116952">
		<tag k="name" v="Lillesvinvika" />
		<tag k="natural" v="bay" />
		<tag k="ssr:stedsnr" v="289987" />
	</node>
	<node id="-778224" lat="70.4408306057" lon="30.8461147035">
		<tag k="name" v="Nordvestkeila" />
		<tag k="natural" v="bay" />
		<tag k="ssr:stedsnr" v="289975" />
	</node>
	<node id="-778223" lat="70.4003389491" lon="31.0143867773">
		<tag k="fixme" v="consider seamark:type=rock or natural=shoal" />
		<tag k="name" v="Stabben" />
		<tag k="place" v="islet" />
		<tag k="ssr:stedsnr" v="289560" />
	</node>
	<node id="-778220" lat="70.4407778343" lon="30.8566674658">
		<tag k="name" v="Prestnæringen" />
		<tag k="natural" v="cape" />
		<tag k="ssr:stedsnr" v="288969" />
	</node>
	<node id="-778219" lat="70.4395472741" lon="30.8729757769">
		<tag k="name" v="Næringsbukta" />
		<tag k="natural" v="bay" />
		<tag k="ssr:stedsnr" v="288968" />
	</node>
	<node id="-778728" lat="70.3209778356" lon="31.0575172543">
		<tag k="name" v="Kvannvika" />
		<tag k="natural" v="bay" />
		<tag k="ssr:stedsnr" v="835958" />
	</node>
	<node id="-778214" lat="70.2394111643" lon="30.5509509087">
		<tag k="name" v="Komagværnes" />
		<tag k="natural" v="cape" />
		<tag k="ssr:stedsnr" v="288059" />
	</node>
	<node id="-778721" lat="70.3850695073" lon="31.0997978028">
		<tag k="alt_name" v="Tofteskitan" />
		<tag k="name" v="Toftskitan" />
		<tag k="natural" v="shoal" />
		<tag k="place" v="locality" />
		<tag k="ssr:stedsnr" v="815790" />
	</node>
	<node id="-778720" lat="70.2453000673" lon="30.9462839407">
		<tag k="fixme" v="consider seamark:type=rock or natural=shoal" />
		<tag k="name" v="Seigrunnen" />
		<tag k="place" v="islet" />
		<tag k="ssr:stedsnr" v="814694" />
	</node>
	<node id="-778715" lat="70.4416583883" lon="30.8743480214">
		<tag k="name" v="Prestnæringsbukta" />
		<tag k="natural" v="bay" />
		<tag k="ssr:stedsnr" v="809600" />
	</node>
	<node id="-778714" lat="70.2124806163" lon="30.4784231493">
		<tag k="name" v="Kvalnesbukta" />
		<tag k="natural" v="bay" />
		<tag k="ssr:stedsnr" v="809580" />
	</node>
	<node id="-778711" lat="70.253700067" lon="30.9217867527">
		<tag k="fixme" v="consider seamark:type=rock or natural=shoal" />
		<tag k="name" v="Rakkeskjæret" />
		<tag k="place" v="islet" />
		<tag k="ssr:stedsnr" v="809539" />
	</node>
	<node id="-778710" lat="70.3040528436" lon="31.0466116879">
		<tag k="name" v="Molvika" />
		<tag k="natural" v="bay" />
		<tag k="ssr:stedsnr" v="808616" />
	</node>
	<node id="-778708" lat="70.2822278377" lon="31.0348033551">
		<tag k="alt_name" v="Oterholla" />
		<tag k="name" v="Oterhola" />
		<tag k="natural" v="bay" />
		<tag k="ssr:stedsnr" v="808480" />
	</node>
	<node id="-778707" lat="70.2059472831" lon="30.6612146832">
		<tag k="name" v="Storgrunnen" />
		<tag k="natural" v="shoal" />
		<tag k="place" v="locality" />
		<tag k="ssr:stedsnr" v="782072" />
	</node>
	<node id="-778744" lat="70.2702389471" lon="30.9475395289">
		<tag k="name" v="Sundnes" />
		<tag k="natural" v="cape" />
		<tag k="ssr:stedsnr" v="836779" />
	</node>
	<node id="-778701" lat="70.3898222859" lon="31.151733892">
		<tag k="name" v="Småsundan" />
		<tag k="natural" v="strait" />
		<tag k="ssr:stedsnr" v="774991" />
	</node>
	<node id="-778697" lat="70.4420306096" lon="30.8606841266">
		<tag k="name" v="Næringskeila" />
		<tag k="natural" v="bay" />
		<tag k="ssr:stedsnr" v="774970" />
	</node>
	<node id="-778696" lat="70.4362333902" lon="30.9640007225">
		<tag k="name" v="Kavringkeila" />
		<tag k="natural" v="bay" />
		<tag k="ssr:stedsnr" v="774968" />
	</node>
	<node id="-778691" lat="70.4005695058" lon="31.0144089953">
		<tag k="name" v="Stabbkeila" />
		<tag k="natural" v="bay" />
		<tag k="ssr:stedsnr" v="774583" />
	</node>
	<node id="-778690" lat="70.3926222772" lon="31.0703089469">
		<tag k="name" v="Kolakoffbukta" />
		<tag k="natural" v="bay" />
		<tag k="ssr:stedsnr" v="774566" />
	</node>
	<node id="-778689" lat="70.2461167243" lon="30.5613508954">
		<tag k="name" v="Ytterstranda" />
		<tag k="natural" v="beach" />
		<tag k="place" v="locality" />
		<tag k="ssr:stedsnr" v="773078" />
	</node>
	<node id="-778682" lat="70.2920639578" lon="31.0553866672">
		<tag k="name" v="Lille-Molvika" />
		<tag k="natural" v="bay" />
		<tag k="ssr:stedsnr" v="752265" />
	</node>
	<node id="-778678" lat="70.3176028377" lon="31.0593727926">
		<tag k="name" v="Nordvestkeila" />
		<tag k="natural" v="bay" />
		<tag k="ssr:stedsnr" v="748636" />
	</node>
	<node id="-778676" lat="70.386444506" lon="31.1645755336">
		<tag k="name" v="Store Avløysa" />
		<tag k="natural" v="cape" />
		<tag k="ssr:stedsnr" v="748622" />
	</node>
	<node id="-778672" lat="70.4057139461" lon="31.0106534597">
		<tag k="alt_name" v="Vargholla" />
		<tag k="name" v="Vargholet" />
		<tag k="natural" v="bay" />
		<tag k="ssr:stedsnr" v="748600" />
	</node>
	<node id="-778669" lat="70.2555695" lon="30.7234230141">
		<tag k="alt_name" v="Bukta" />
		<tag k="name" v="Langbubukta" />
		<tag k="natural" v="bay" />
		<tag k="ssr:stedsnr" v="748531" />
	</node>
	<node id="-778665" lat="70.2576750647" lon="30.8805229068">
		<tag k="fixme" v="consider seamark:type=rock or natural=shoal" />
		<tag k="name" v="Skarvskitan" />
		<tag k="place" v="islet" />
		<tag k="ssr:stedsnr" v="747497" />
	</node>
	<node id="-778737" lat="70.4413806066" lon="30.8628952377">
		<tag k="name" v="Østerkeila" />
		<tag k="natural" v="bay" />
		<tag k="ssr:stedsnr" v="835976" />
	</node>
	<node id="-778660" lat="70.4006889445" lon="31.0771700576">
		<tag k="name" v="Rokeila" />
		<tag k="natural" v="bay" />
		<tag k="ssr:stedsnr" v="714455" />
	</node>
	<node id="-778659" lat="70.3623000619" lon="31.0298867443">
		<tag k="name" v="Kroken" />
		<tag k="natural" v="bay" />
		<tag k="ssr:stedsnr" v="713992" />
	</node>
	<node id="-778736" lat="70.3638333972" lon="31.1149894622">
		<tag k="name" v="Gullringnes" />
		<tag k="natural" v="cape" />
		<tag k="ssr:stedsnr" v="835966" />
	</node>
	<node id="-778652" lat="70.3973611668" lon="31.0210728871">
		<tag k="name" v="Langfjærnes" />
		<tag k="natural" v="cape" />
		<tag k="ssr:stedsnr" v="713543" />
	</node>
	<node id="-778642" lat="70.2633333955" lon="30.9916644687">
		<tag k="fixme" v="consider seamark:type=rock or natural=shoal" />
		<tag k="name" v="Heimtaket" />
		<tag k="place" v="islet" />
		<tag k="ssr:stedsnr" v="692668" />
	</node>
	<node id="-778640" lat="70.3645083934" lon="31.1196977795">
		<tag k="name" v="Russevika" />
		<tag k="natural" v="bay" />
		<tag k="ssr:stedsnr" v="688613" />
	</node>
	<node id="-778638" lat="70.3733695014" lon="31.1043672453">
		<tag k="name" v="Vestervågen" />
		<tag k="natural" v="bay" />
		<tag k="ssr:stedsnr" v="688597" />
	</node>
	<node id="-778296" lat="70.390222284" lon="31.033386762">
		<tag k="name" v="Smelrorfjæra" />
		<tag k="natural" v="bay" />
		<tag k="ssr:stedsnr" v="410974" />
	</node>
	<node id="-778632" lat="70.4299306108" lon="30.809361942">
		<tag k="alt_name" v="Hestmanneset" />
		<tag k="name" v="Hestmannes" />
		<tag k="natural" v="cape" />
		<tag k="ssr:stedsnr" v="687603" />
	</node>
	<node id="-778732" lat="70.4361361655" lon="30.728178679">
		<tag k="name" v="Kvannvikneset" />
		<tag k="natural" v="cape" />
		<tag k="ssr:stedsnr" v="835937" />
	</node>
	<node id="-778624" lat="70.2690333983" lon="30.9475728601">
		<tag k="name" v="Sundet" />
		<tag k="natural" v="strait" />
		<tag k="ssr:stedsnr" v="653792" />
	</node>
	<node id="-778623" lat="70.284233398" lon="30.9777978397">
		<tag k="name" v="Sandsenden" />
		<tag k="natural" v="bay" />
		<tag k="ssr:stedsnr" v="652991" />
	</node>
	<node id="-778619" lat="70.3670056196" lon="31.1065616784">
		<tag k="name" v="Kjerringræva" />
		<tag k="natural" v="strait" />
		<tag k="ssr:stedsnr" v="652951" />
	</node>
	<node id="-778615" lat="70.3963417251" lon="31.0264756605">
		<tag k="name" v="Løkvikkeila" />
		<tag k="natural" v="bay" />
		<tag k="ssr:stedsnr" v="652513" />
	</node>
	<node id="-778612" lat="70.3791222845" lon="31.1481977556">
		<tag k="name" v="Hornøyflua" />
		<tag k="natural" v="shoal" />
		<tag k="place" v="locality" />
		<tag k="ssr:stedsnr" v="632758" />
	</node>
	<node id="-778610" lat="70.2781111751" lon="31.0348450067">
		<tag k="fixme" v="consider seamark:type=rock or natural=shoal" />
		<tag k="name" v="Ramnfloggrunnen" />
		<tag k="place" v="islet" />
		<tag k="ssr:stedsnr" v="631710" />
	</node>
	<node id="-778609" lat="70.2374333999" lon="30.9881005845">
		<tag k="fixme" v="consider seamark:type=rock or natural=shoal" />
		<tag k="name" v="Per Mikkelsengrunnen" />
		<tag k="place" v="islet" />
		<tag k="ssr:stedsnr" v="631680" />
	</node>
	<node id="-778608" lat="70.3288917329" lon="31.0546422523">
		<tag k="name" v="Stauran" />
		<tag k="natural" v="cape" />
		<tag k="ssr:stedsnr" v="627633" />
	</node>
	<node id="-778603" lat="70.4465639361" lon="30.7250842246">
		<tag k="alt_name" v="Reinkalvvika, store" />
		<tag k="fixme" v="multiple name tags, choose one and add the other to alt_name" />
		<tag k="name" v="Reinkalvvika;Store Reinkalvvika" />
		<tag k="natural" v="bay" />
		<tag k="ssr:stedsnr" v="626925" />
	</node>
	<node id="-778602" lat="70.387777836" lon="31.1541672233">
		<tag k="alt_name" v="Hornøy" />
		<tag k="name" v="Hornøya" />
		<tag k="place" v="island" />
		<tag k="ssr:stedsnr" v="626627" />
	</node>
	<node id="-778601" lat="70.3839000583" lon="31.0342756263">
		<tag k="alt_name" v="Smellror, in" />
		<tag k="name" v="Indre Smellror" />
		<tag k="natural" v="cape" />
		<tag k="ssr:stedsnr" v="626617" />
	</node>
	<node id="-778600" lat="70.3907611672" lon="31.1325255741">
		<tag k="alt_name" v="Reinøy" />
		<tag k="name" v="Reinøya" />
		<tag k="place" v="island" />
		<tag k="ssr:stedsnr" v="626615" />
	</node>
	<node id="-778597" lat="70.4266167257" lon="30.9742007091">
		<tag k="name" v="Barden" />
		<tag k="place" v="islet" />
		<tag k="ssr:stedsnr" v="626605" />
	</node>
	<node id="-778596" lat="70.4338167169" lon="30.8259424951">
		<tag k="name" v="Godkeila" />
		<tag k="natural" v="bay" />
		<tag k="ssr:stedsnr" v="626601" />
	</node>
	<node id="-778595" lat="70.2589111735" lon="30.790970191">
		<tag k="alt_name" v="Svartneset" />
		<tag k="name" v="Svartnes" />
		<tag k="natural" v="cape" />
		<tag k="ssr:stedsnr" v="626585" />
	</node>
	<node id="-778593" lat="70.2690972891" lon="30.902822881">
		<tag k="alt_name" v="Løkvikneset" />
		<tag k="name" v="Laukvikneset" />
		<tag k="natural" v="cape" />
		<tag k="ssr:stedsnr" v="626542" />
	</node>
	<node id="-778591" lat="70.3700000654" lon="31.1075811209">
		<tag k="name" v="Valen" />
		<tag k="natural" v="strait" />
		<tag k="ssr:stedsnr" v="592999" />
	</node>
	<node id="-778590" lat="70.3741028385" lon="31.1268033333">
		<tag k="name" v="Selerinakeila" />
		<tag k="natural" v="bay" />
		<tag k="ssr:stedsnr" v="592996" />
	</node>
	<node id="-778581" lat="70.2491389507" lon="30.6454897305">
		<tag k="name" v="Storbukta" />
		<tag k="natural" v="bay" />
		<tag k="ssr:stedsnr" v="592346" />
	</node>
	<node id="-778580" lat="70.2461083875" lon="30.6091091861">
		<tag k="name" v="Tarebukta" />
		<tag k="natural" v="bay" />
		<tag k="ssr:stedsnr" v="592347" />
	</node>
	<node id="-778575" lat="70.4314278286" lon="30.7426425321">
		<tag k="name" v="Langkeila" />
		<tag k="natural" v="bay" />
		<tag k="ssr:stedsnr" v="591941" />
	</node>
	<node id="-778572" lat="70.2591028354" lon="30.8398729311">
		<tag k="name" v="Kaibukta" />
		<tag k="natural" v="bay" />
		<tag k="ssr:stedsnr" v="591908" />
	</node>
	<node id="-778570" lat="70.2458111737" lon="30.6871174674">
		<tag k="name" v="Innerneset" />
		<tag k="natural" v="cape" />
		<tag k="ssr:stedsnr" v="591885" />
	</node>
	<node id="-778567" lat="70.2341889434" lon="30.5018259292">
		<tag k="name" v="Innerstranda" />
		<tag k="natural" v="beach" />
		<tag k="place" v="locality" />
		<tag k="ssr:stedsnr" v="591055" />
	</node>
	<node id="-778560" lat="70.2652583967" lon="30.8547951551">
		<tag k="name" v="Kramvika" />
		<tag k="natural" v="bay" />
		<tag k="ssr:stedsnr" v="570250" />
	</node>
	<node id="-778558" lat="70.387375064" lon="31.1341561297">
		<tag k="name" v="Gambukta" />
		<tag k="natural" v="bay" />
		<tag k="ssr:stedsnr" v="566585" />
	</node>
	<node id="-778553" lat="70.4779694985" lon="30.901573023">
		<tag k="alt_name" v="Østhavet" />
		<tag k="name" v="Austhavet" />
		<tag k="place" v="sea" />
		<tag k="ssr:stedsnr" v="565913" />
	</node>
	<node id="-778550" lat="70.2634945061" lon="30.9259562091">
		<tag k="fixme" v="consider seamark:type=rock or natural=shoal" />
		<tag k="name" v="Galten" />
		<tag k="place" v="islet" />
		<tag k="ssr:stedsnr" v="565503" />
	</node>
	<node id="-778549" lat="70.2654000655" lon="30.9359228599">
		<tag k="fixme" v="consider seamark:type=rock or natural=shoal" />
		<tag k="name" v="Svenskeskjæret" />
		<tag k="place" v="islet" />
		<tag k="ssr:stedsnr" v="565501" />
	</node>
	<node id="-778545" lat="70.3896417318" lon="31.1633838696">
		<tag k="name" v="Oterbukta" />
		<tag k="natural" v="bay" />
		<tag k="ssr:stedsnr" v="531996" />
	</node>
	<node id="-778290" lat="70.2592222873" lon="30.8427368062">
		<tag k="name" v="Grunnesodden" />
		<tag k="natural" v="cape" />
		<tag k="ssr:stedsnr" v="410924" />
	</node>
	<node id="-778539" lat="70.3927917286" lon="31.1124894757">
		<tag k="name" v="Seigrunnen" />
		<tag k="natural" v="shoal" />
		<tag k="place" v="locality" />
		<tag k="ssr:stedsnr" v="531964" />
	</node>
	<node id="-778536" lat="70.3968667262" lon="31.0160562274">
		<tag k="name" v="Langfjæra" />
		<tag k="natural" v="beach" />
		<tag k="place" v="locality" />
		<tag k="ssr:stedsnr" v="531568" />
	</node>
	<node id="-778534" lat="70.2494500554" lon="30.6677452581">
		<tag k="name" v="Langbubukta" />
		<tag k="natural" v="bay" />
		<tag k="ssr:stedsnr" v="531441" />
	</node>
	<node id="-778531" lat="70.1911111634" lon="30.4841648114">
		<tag k="name" v="Komaggrunnen" />
		<tag k="natural" v="shoal" />
		<tag k="place" v="locality" />
		<tag k="ssr:stedsnr" v="526222" />
	</node>
	<node id="-778530" lat="70.2463472825" lon="30.5621286692">
		<tag k="name" v="Ytterstranda" />
		<tag k="natural" v="beach" />
		<tag k="place" v="locality" />
		<tag k="ssr:stedsnr" v="516615" />
	</node>
	<node id="-778528" lat="70.381163949" lon="31.1005089249">
		<tag k="name" v="Sandvikflua" />
		<tag k="natural" v="shoal" />
		<tag k="place" v="locality" />
		<tag k="ssr:stedsnr" v="511763" />
	</node>
	<node id="-778527" lat="70.3635583994" lon="31.1258144352">
		<tag k="name" v="Vårbergtåa" />
		<tag k="natural" v="cape" />
		<tag k="ssr:stedsnr" v="510669" />
	</node>
	<node id="-778520" lat="70.3678306137" lon="31.1065366911">
		<tag k="name" v="Østervågen" />
		<tag k="natural" v="bay" />
		<tag k="ssr:stedsnr" v="505618" />
	</node>
	<node id="-778519" lat="70.3837167298" lon="31.1524699808">
		<tag k="name" v="Sautaket" />
		<tag k="natural" v="cape" />
		<tag k="ssr:stedsnr" v="505608" />
	</node>
	<node id="-778518" lat="70.3821222806" lon="31.1607116466">
		<tag k="name" v="Avløysa" />
		<tag k="place" v="islet" />
		<tag k="ssr:stedsnr" v="505605" />
	</node>
	<node id="-778517" lat="70.3875833938" lon="31.0440006387">
		<tag k="name" v="Tjuvholmen" />
		<tag k="place" v="islet" />
		<tag k="ssr:stedsnr" v="505601" />
	</node>
	<node id="-778512" lat="70.3851917256" lon="31.1512060929">
		<tag k="alt_name" v="Omen" />
		<tag k="name" v="Omnsholla" />
		<tag k="natural" v="cape" />
		<tag k="ssr:stedsnr" v="471988" />
	</node>
	<node id="-778504" lat="70.2806361781" lon="31.0191644811">
		<tag k="name" v="Vesterkeila" />
		<tag k="natural" v="bay" />
		<tag k="ssr:stedsnr" v="471795" />
	</node>
	<node id="-778492" lat="70.3979611689" lon="31.1456366732">
		<tag k="alt_name" v="Kålnes;Kvalneset" />
		<tag k="name" v="Kålneset" />
		<tag k="natural" v="cape" />
		<tag k="ssr:stedsnr" v="451823" />
	</node>
	<node id="-778490" lat="70.3498861704" lon="31.0543366968">
		<tag k="alt_name" v="Svartnes, in" />
		<tag k="name" v="Indre Svartnes" />
		<tag k="natural" v="cape" />
		<tag k="ssr:stedsnr" v="445626" />
	</node>
	<node id="-778489" lat="70.412363949" lon="31.0016812395">
		<tag k="name" v="Kistmolla" />
		<tag k="natural" v="cape" />
		<tag k="ssr:stedsnr" v="445599" />
	</node>
	<node id="-778487" lat="70.2186806129" lon="30.4906592558">
		<tag k="name" v="Kvalnes" />
		<tag k="natural" v="cape" />
		<tag k="ssr:stedsnr" v="445529" />
	</node>
	<node id="-778483" lat="70.2599722811" lon="30.7587979853">
		<tag k="name" v="Svartnesbukta" />
		<tag k="natural" v="bay" />
		<tag k="ssr:stedsnr" v="444505" />
	</node>
	<node id="-778481" lat="70.2888806177" lon="31.0617727657">
		<tag k="name" v="Kibergsneset" />
		<tag k="natural" v="cape" />
		<tag k="ssr:stedsnr" v="444488" />
	</node>
	<node id="-778479" lat="70.4333333897" lon="31.1999977649">
		<tag k="name" v="Klakken" />
		<tag k="natural" v="shoal" />
		<tag k="ssr:stedsnr" v="424410" />
	</node>
	<node id="-778478" lat="70.4508333891" lon="30.9333312976">
		<tag k="name" v="Galjegrunnen" />
		<tag k="natural" v="shoal" />
		<tag k="place" v="locality" />
		<tag k="ssr:stedsnr" v="267654" />
	</node>
	<node id="-778474" lat="70.4069833915" lon="31.0091645667">
		<tag k="name" v="Stauren" />
		<tag k="natural" v="cape" />
		<tag k="ssr:stedsnr" v="263594" />
	</node>
	<node id="-778473" lat="70.4318056065" lon="30.7571536294">
		<tag k="alt_name" v="Bukkemolltangen" />
		<tag k="name" v="Bukkemoltangen" />
		<tag k="natural" v="cape" />
		<tag k="ssr:stedsnr" v="263589" />
	</node>
	<node id="-778472" lat="70.4265028287" lon="30.7731869604">
		<tag k="name" v="Kroknes" />
		<tag k="natural" v="cape" />
		<tag k="ssr:stedsnr" v="263587" />
	</node>
	<node id="-778469" lat="70.4669528257" lon="30.7449536564">
		<tag k="alt_name" v="Segelodden" />
		<tag k="name" v="Seglodden" />
		<tag k="natural" v="cape" />
		<tag k="ssr:stedsnr" v="262931" />
	</node>
	<node id="-778467" lat="70.4473250557" lon="30.9069896627">
		<tag k="name" v="Jernsteinvika" />
		<tag k="natural" v="bay" />
		<tag k="ssr:stedsnr" v="262586" />
	</node>
	<node id="-778466" lat="70.2651472818" lon="30.81763685">
		<tag k="name" v="Grunnesbukta" />
		<tag k="natural" v="bay" />
		<tag k="ssr:stedsnr" v="262534" />
	</node>
	<node id="-778464" lat="70.3916667299" lon="31.0333311917">
		<tag k="name" v="Smellror" />
		<tag k="natural" v="cape" />
		<tag k="ssr:stedsnr" v="242393" />
	</node>
	<node id="-778463" lat="70.2778556192" lon="30.9894645021">
		<tag k="name" v="Heimtaket" />
		<tag k="natural" v="shoal" />
		<tag k="place" v="locality" />
		<tag k="ssr:stedsnr" v="229783" />
	</node>
	<node id="-778456" lat="70.2449195001" lon="30.7085452343">
		<tag k="name" v="Ytterkeila" />
		<tag k="natural" v="bay" />
		<tag k="ssr:stedsnr" v="228924" />
	</node>
	<node id="-778449" lat="70.3829639495" lon="31.0700922766">
		<tag k="name" v="Engelsvikflua" />
		<tag k="natural" v="shoal" />
		<tag k="place" v="locality" />
		<tag k="ssr:stedsnr" v="208798" />
	</node>
	<node id="-778448" lat="70.4544417174" lon="30.9263674259">
		<tag k="name" v="Galjegrunnen" />
		<tag k="natural" v="shoal" />
		<tag k="place" v="locality" />
		<tag k="ssr:stedsnr" v="208670" />
	</node>
	<node id="-778441" lat="70.3647806145" lon="31.0967783428">
		<tag k="name" v="Steglneset" />
		<tag k="natural" v="cape" />
		<tag k="ssr:stedsnr" v="202631" />
	</node>
	<node id="-778440" lat="70.3808000617" lon="31.0348173162">
		<tag k="name" v="Skyttargamnes" />
		<tag k="natural" v="cape" />
		<tag k="ssr:stedsnr" v="202629" />
	</node>
	<node id="-778439" lat="70.3900000565" lon="31.1476227751">
		<tag k="name" v="Prestholmen" />
		<tag k="place" v="islet" />
		<tag k="ssr:stedsnr" v="202619" />
	</node>
	<node id="-778436" lat="70.2617000674" lon="30.9537783954">
		<tag k="fixme" v="consider seamark:type=rock or natural=shoal" />
		<tag k="name" v="Rundskjæret" />
		<tag k="place" v="islet" />
		<tag k="ssr:stedsnr" v="202538" />
	</node>
	<node id="-778434" lat="70.2476195023" lon="30.5866175573">
		<tag k="fixme" v="multiple name tags, choose one and add the other to alt_name" />
		<tag k="name" v="Trollbukta;Trollelvbukta" />
		<tag k="natural" v="bay" />
		<tag k="ssr:stedsnr" v="202526" />
	</node>
	<node id="-778433" lat="70.2684000627" lon="30.9482506349">
		<tag k="alt_name" v="Sundskjeret;Knoteskjeret" />
		<tag k="fixme" v="multiple name tags, choose one and add the other to alt_name; consider seamark:type=rock or natural=shoal" />
		<tag k="name" v="Kunteskjæret;Sundskjæret" />
		<tag k="place" v="islet" />
		<tag k="ssr:stedsnr" v="202523" />
	</node>
	<node id="-778279" lat="70.3904611714" lon="31.1630255315">
		<tag k="name" v="Staurneset" />
		<tag k="natural" v="cape" />
		<tag k="ssr:stedsnr" v="390798" />
	</node>
	<node id="-778424" lat="70.3756695079" lon="31.1245338891">
		<tag k="name" v="Oldringkeila" />
		<tag k="natural" v="bay" />
		<tag k="ssr:stedsnr" v="167995" />
	</node>
	<node id="-778420" lat="70.268588948" lon="30.8854062323">
		<tag k="name" v="Mollkeila" />
		<tag k="natural" v="bay" />
		<tag k="ssr:stedsnr" v="167946" />
	</node>
	<node id="-778419" lat="70.2707583936" lon="30.915120106">
		<tag k="name" v="Tareholla" />
		<tag k="natural" v="bay" />
		<tag k="ssr:stedsnr" v="167944" />
	</node>
	<node id="-778417" lat="70.396480617" lon="31.0236839976">
		<tag k="name" v="Sundfjærmola" />
		<tag k="natural" v="bay" />
		<tag k="ssr:stedsnr" v="167571" />
	</node>
	<node id="-778415" lat="70.2460889474" lon="30.5967592086">
		<tag k="name" v="Mikkelhamnnes" />
		<tag k="natural" v="cape" />
		<tag k="ssr:stedsnr" v="167343" />
	</node>
	<node id="-778412" lat="70.3997472777" lon="31.0660617349">
		<tag k="name" v="Ramnflogkeila" />
		<tag k="natural" v="bay" />
		<tag k="ssr:stedsnr" v="147791" />
	</node>
	<node id="-778411" lat="70.285955624" lon="31.0583699985">
		<tag k="name" v="Nordvestkeila" />
		<tag k="natural" v="bay" />
		<tag k="ssr:stedsnr" v="146686" />
	</node>
	<node id="-778410" lat="70.2459278397" lon="30.971981153">
		<tag k="fixme" v="consider seamark:type=rock or natural=shoal" />
		<tag k="name" v="Reigrunnen" />
		<tag k="place" v="islet" />
		<tag k="ssr:stedsnr" v="146669" />
	</node>
	<node id="-778268" lat="70.4488444975" lon="30.9289007444">
		<tag k="name" v="Blodskytodden" />
		<tag k="natural" v="cape" />
		<tag k="ssr:stedsnr" v="384553" />
	</node>
	<node id="-778403" lat="70.4237250544" lon="30.9746062683">
		<tag k="name" v="Østerbardvika" />
		<tag k="natural" v="bay" />
		<tag k="ssr:stedsnr" v="141581" />
	</node>
	<node id="-778400" lat="70.26844173" lon="30.8943117938">
		<tag k="alt_name" v="Løkvika" />
		<tag k="name" v="Laukvika" />
		<tag k="natural" v="bay" />
		<tag k="ssr:stedsnr" v="140483" />
	</node>
	<node id="-778399" lat="70.2799528424" lon="30.988886718">
		<tag k="alt_name" v="Skippaskjeret" />
		<tag k="fixme" v="consider seamark:type=rock or natural=shoal" />
		<tag k="name" v="Skipparskjæret" />
		<tag k="place" v="islet" />
		<tag k="ssr:stedsnr" v="140480" />
	</node>
	<node id="-778398" lat="70.2916667331" lon="31.2666642893">
		<tag k="name" v="Austerbakken" />
		<tag k="place" v="locality" />
		<tag k="ssr:stedsnr" v="121339" />
	</node>
	<node id="-778396" lat="70.4219361693" lon="30.9863784638">
		<tag k="name" v="Dorskekeila" />
		<tag k="natural" v="bay" />
		<tag k="ssr:stedsnr" v="107971" />
	</node>
	<node id="-778395" lat="70.4405028352" lon="30.9664868459">
		<tag k="name" v="Kavringen" />
		<tag k="natural" v="cape" />
		<tag k="ssr:stedsnr" v="107972" />
	</node>
	<node id="-778394" lat="70.3915861765" lon="31.150553332">
		<tag k="name" v="Staurbukta" />
		<tag k="natural" v="bay" />
		<tag k="ssr:stedsnr" v="107964" />
	</node>
	<node id="-778390" lat="70.4369500532" lon="30.8338286072">
		<tag k="name" v="Synnavindsbukta" />
		<tag k="natural" v="bay" />
		<tag k="ssr:stedsnr" v="107948" />
	</node>
	<node id="-778387" lat="70.2727945109" lon="30.9350534262">
		<tag k="name" v="Indre Kibergbukta" />
		<tag k="natural" v="bay" />
		<tag k="ssr:stedsnr" v="107796" />
	</node>
	<node id="-778381" lat="70.2383889422" lon="30.5526397904">
		<tag k="name" v="Sinavatnet" />
		<tag k="natural" v="bay" />
		<tag k="ssr:stedsnr" v="106050" />
	</node>
	<node id="-778379" lat="70.319958396" lon="31.0624450111">
		<tag k="alt_name" v="Molvika, lille" />
		<tag k="name" v="Lille Molvika" />
		<tag k="natural" v="bay" />
		<tag k="ssr:stedsnr" v="87787" />
	</node>
	<node id="-778378" lat="70.3754417244" lon="31.1194144646">
		<tag k="name" v="Vardøya" />
		<tag k="place" v="island" />
		<tag k="ssr:stedsnr" v="87713" />
	</node>
	<node id="-778376" lat="70.2720972822" lon="31.0056061469">
		<tag k="fixme" v="consider seamark:type=rock or natural=shoal" />
		<tag k="name" v="Hansegrunnen" />
		<tag k="place" v="islet" />
		<tag k="ssr:stedsnr" v="85661" />
	</node>
	<node id="-778375" lat="70.4294056095" lon="30.9797312479">
		<tag k="name" v="Bardvika" />
		<tag k="natural" v="bay" />
		<tag k="ssr:stedsnr" v="85612" />
	</node>
	<node id="-778374" lat="70.3486556137" lon="31.0481978357">
		<tag k="name" v="Skinnstakkvika" />
		<tag k="natural" v="bay" />
		<tag k="ssr:stedsnr" v="81631" />
	</node>
	<node id="-778373" lat="70.3977861663" lon="31.0176728834">
		<tag k="name" v="Laukvika" />
		<tag k="natural" v="bay" />
		<tag k="ssr:stedsnr" v="81617" />
	</node>
	<node id="-778370" lat="70.444313945" lon="30.9521840666">
		<tag k="name" v="Daudmannsmolla" />
		<tag k="natural" v="cape" />
		<tag k="ssr:stedsnr" v="80577" />
	</node>
	<node id="-778368" lat="70.2789472884" lon="30.9738756211">
		<tag k="name" v="Slettaodden" />
		<tag k="natural" v="cape" />
		<tag k="ssr:stedsnr" v="80507" />
	</node>
	<node id="-778365" lat="70.3888139481" lon="31.0907839269">
		<tag k="name" v="Gaupekeila" />
		<tag k="natural" v="bay" />
		<tag k="ssr:stedsnr" v="46983" />
	</node>
	<node id="-778360" lat="70.3680445077" lon="31.1310977721">
		<tag k="name" v="Staurkeila" />
		<tag k="natural" v="bay" />
		<tag k="ssr:stedsnr" v="46964" />
	</node>
	<node id="-778346" lat="70.340547287" lon="31.0449978299">
		<tag k="fixme" v="multiple name tags, choose one and add the other to alt_name" />
		<tag k="name" v="Kvannvika;Skinnstakksvika" />
		<tag k="natural" v="bay" />
		<tag k="ssr:stedsnr" v="26747" />
	</node>
	<node id="-778343" lat="70.4533194978" lon="30.7911730761">
		<tag k="bay" v="fjord" />
		<tag k="name" v="Persfjorden - Biesavuotna" />
		<tag k="name:no" v="Persfjorden" />
		<tag k="name:se" v="Biesavuotna" />
		<tag k="natural" v="bay" />
		<tag k="old_name:se" v="Biesavuodna" />
		<tag k="ssr:stedsnr" v="20924" />
	</node>
	<node id="-778338" lat="70.361747278" lon="31.052958949">
		<tag k="alt_name" v="Svartnes" />
		<tag k="name" v="Ytre Svartnes" />
		<tag k="natural" v="cape" />
		<tag k="ssr:stedsnr" v="20642" />
	</node>
	<node id="-778337" lat="70.3700861675" lon="31.0533117219">
		<tag k="name" v="Bussesundet" />
		<tag k="natural" v="strait" />
		<tag k="ssr:stedsnr" v="20635" />
	</node>
	<node id="-778336" lat="70.3683945068" lon="31.018686757">
		<tag k="name" v="Sanden" />
		<tag k="natural" v="beach" />
		<tag k="place" v="locality" />
		<tag k="ssr:stedsnr" v="20631" />
	</node>
	<node id="-778334" lat="70.4276250589" lon="30.9665646091">
		<tag k="name" v="Vesterbardvika" />
		<tag k="natural" v="bay" />
		<tag k="ssr:stedsnr" v="20603" />
	</node>
	<node id="-778332" lat="70.4421167164" lon="30.7301481228">
		<tag k="alt_name" v="Reinkalvvika, l" />
		<tag k="name" v="Lille Reinkalvvika" />
		<tag k="natural" v="bay" />
		<tag k="ssr:stedsnr" v="20595" />
	</node>
	<node id="-778331" lat="70.2079500538" lon="30.4777398321">
		<tag k="name" v="Kommagnes" />
		<tag k="natural" v="cape" />
		<tag k="ssr:stedsnr" v="20575" />
	</node>
	<node id="-778330" lat="70.2610472827" lon="30.8414034968">
		<tag k="alt_name" v="Grunneset" />
		<tag k="name" v="Grunnes" />
		<tag k="natural" v="cape" />
		<tag k="ssr:stedsnr" v="20526" />
	</node>
	<node id="-778327" lat="70.2758333947" lon="30.9707006109">
		<tag k="name" v="Langbukta" />
		<tag k="natural" v="bay" />
		<tag k="ssr:stedsnr" v="20506" />
	</node>
	<node id="-778323" lat="70.3770361683" lon="31.0983366904">
		<tag k="name" v="Sandvika" />
		<tag k="natural" v="bay" />
		<tag k="ssr:stedsnr" v="896992" />
	</node>
	<node id="-778321" lat="70.449961168" lon="30.9267840984">
		<tag k="name" v="Blodskyttkeila" />
		<tag k="natural" v="bay" />
		<tag k="ssr:stedsnr" v="896966" />
	</node>
	<node id="-778318" lat="70.280527843" lon="31.0179728044">
		<tag k="name" v="Dakkokeila" />
		<tag k="natural" v="bay" />
		<tag k="ssr:stedsnr" v="896832" />
	</node>
	<node id="-778317" lat="70.2460583866" lon="30.6165064136">
		<tag k="name" v="Raneset" />
		<tag k="natural" v="cape" />
		<tag k="ssr:stedsnr" v="896344" />
	</node>
	<node id="-778310" lat="70.4345806069" lon="30.7248092229">
		<tag k="name" v="Kvannvikbukta" />
		<tag k="natural" v="bay" />
		<tag k="ssr:stedsnr" v="895910" />
	</node>
	<node id="-778309" lat="70.4021333925" lon="31.0633145108">
		<tag k="name" v="Skagkeila" />
		<tag k="natural" v="bay" />
		<tag k="ssr:stedsnr" v="896569" />
	</node>
	<node id="-778302" lat="70.2811306148" lon="30.9958200522">
		<tag k="fixme" v="consider seamark:type=rock or natural=shoal" />
		<tag k="name" v="Thomasskjæret" />
		<tag k="place" v="islet" />
		<tag k="ssr:stedsnr" v="411775" />
	</node>
	<node id="-778298" lat="70.3897917251" lon="31.0715256241">
		<tag k="name" v="Sjulginvika" />
		<tag k="natural" v="bay" />
		<tag k="ssr:stedsnr" v="410977" />
	</node>
	<node id="-778808" lat="70.4237111617" lon="30.7957619391">
		<tag k="name" v="Molla" />
		<tag k="natural" v="cape" />
		<tag k="ssr:stedsnr" v="957943" />
	</node>
	<node id="-778295" lat="70.4421556071" lon="30.8538980352">
		<tag k="name" v="Vesterkeila" />
		<tag k="natural" v="bay" />
		<tag k="ssr:stedsnr" v="410951" />
	</node>
	<node id="-778802" lat="70.3856389522" lon="31.0335034149">
		<tag k="name" v="Bukten" />
		<tag k="natural" v="bay" />
		<tag k="ssr:stedsnr" v="956987" />
	</node>
	<node id="-778801" lat="70.3828833906" lon="31.0362006239">
		<tag k="name" v="Monsebukt" />
		<tag k="natural" v="bay" />
		<tag k="ssr:stedsnr" v="956988" />
	</node>
	<node id="-778288" lat="70.3919528384" lon="31.0332867604">
		<tag k="name" v="Smelrorvalen" />
		<tag k="natural" v="bay" />
		<tag k="ssr:stedsnr" v="410537" />
	</node>
	<node id="-778799" lat="70.3892528388" lon="31.0423978611">
		<tag k="fixme" v="consider seamark:type=rock or natural=shoal" />
		<tag k="name" v="Holmskjæret" />
		<tag k="place" v="islet" />
		<tag k="ssr:stedsnr" v="956984" />
	</node>
	<node id="-778797" lat="70.3636417285" lon="31.1161977873">
		<tag k="name" v="Batteriet" />
		<tag k="place" v="islet" />
		<tag k="ssr:stedsnr" v="956976" />
	</node>
	<node id="-778796" lat="70.4298528326" lon="30.7380397747">
		<tag k="name" v="Frøkenhollbukta" />
		<tag k="natural" v="bay" />
		<tag k="ssr:stedsnr" v="956972" />
	</node>
	<node id="-778283" lat="70.083075054" lon="30.2349371373">
		<tag k="name" v="Ramnfloggrunnen" />
		<tag k="natural" v="shoal" />
		<tag k="place" v="locality" />
		<tag k="ssr:stedsnr" v="405237" />
	</node>
	<node id="-778794" lat="70.2669333968" lon="30.8773312474">
		<tag k="name" v="Varkeila" />
		<tag k="natural" v="bay" />
		<tag k="ssr:stedsnr" v="956954" />
	</node>
	<node id="-778791" lat="70.2447945005" lon="30.6994424613">
		<tag k="name" v="Vardenes" />
		<tag k="natural" v="cape" />
		<tag k="ssr:stedsnr" v="956917" />
	</node>
	<node id="-778790" lat="70.3927889452" lon="31.0826367071">
		<tag k="name" v="Store Svinvika" />
		<tag k="natural" v="bay" />
		<tag k="ssr:stedsnr" v="956563" />
	</node>
	<node id="-778788" lat="70.332341725" lon="31.0501339188">
		<tag k="name" v="Domsholla" />
		<tag k="natural" v="bay" />
		<tag k="ssr:stedsnr" v="956216" />
	</node>
	<node id="-778273" lat="70.3780639537" lon="31.0785478191">
		<tag k="name" v="Engelsviktangen" />
		<tag k="natural" v="cape" />
		<tag k="ssr:stedsnr" v="384591" />
	</node>
	<node id="-778272" lat="70.3801500586" lon="31.1186061352">
		<tag k="alt_name" v="Hasselnes" />
		<tag k="name" v="Hasselneset" />
		<tag k="natural" v="cape" />
		<tag k="ssr:stedsnr" v="384590" />
	</node>
	<node id="-778271" lat="70.3785695026" lon="31.0322062006">
		<tag k="name" v="Sandbukta" />
		<tag k="natural" v="bay" />
		<tag k="ssr:stedsnr" v="384588" />
	</node>
	<node id="-778270" lat="70.3655778337" lon="31.0279228526">
		<tag k="name" v="Svartnesbukta" />
		<tag k="natural" v="bay" />
		<tag k="ssr:stedsnr" v="384586" />
	</node>
	<node id="-778269" lat="70.3979028417" lon="31.0867478294">
		<tag k="alt_name" v="Svinøy" />
		<tag k="name" v="Svinøya" />
		<tag k="place" v="island" />
		<tag k="ssr:stedsnr" v="384581" />
	</node>
	<node id="-778780" lat="70.3934111722" lon="31.0886533894">
		<tag k="alt_name" v="Svartuksen" />
		<tag k="name" v="Svartoksen" />
		<tag k="natural" v="shoal" />
		<tag k="place" v="locality" />
		<tag k="ssr:stedsnr" v="936758" />
	</node>
	<node id="-778778" lat="70.2639195116" lon="30.8861978908">
		<tag k="fixme" v="consider seamark:type=rock or natural=shoal" />
		<tag k="name" v="Geitryggan" />
		<tag k="place" v="islet" />
		<tag k="ssr:stedsnr" v="935530" />
	</node>
	<node id="-778772" lat="70.4422167195" lon="30.8561091439">
		<tag k="name" v="Næringsodden" />
		<tag k="natural" v="cape" />
		<tag k="ssr:stedsnr" v="930907" />
	</node>
	<node id="-778259" lat="70.2716306179" lon="30.956131175">
		<tag k="name" v="Langkeila" />
		<tag k="natural" v="bay" />
		<tag k="ssr:stedsnr" v="383532" />
	</node>
	<node id="-778257" lat="70.2081667226" lon="30.6039452855">
		<tag k="name" v="Litlgrunnen" />
		<tag k="natural" v="shoal" />
		<tag k="place" v="locality" />
		<tag k="ssr:stedsnr" v="357088" />
	</node>
	<node id="-778767" lat="70.4036306204" lon="31.1201366934">
		<tag k="fixme" v="consider seamark:type=rock or natural=shoal" />
		<tag k="name" v="Reinøyskjæret" />
		<tag k="place" v="islet" />
		<tag k="ssr:stedsnr" v="930612" />
	</node>
	<node id="-778766" lat="70.4202028344" lon="30.9903423658">
		<tag k="name" v="Sprengsneset" />
		<tag k="natural" v="cape" />
		<tag k="ssr:stedsnr" v="930601" />
	</node>
	<node id="-778764" lat="70.2473833917" lon="30.699775793">
		<tag k="alt_name" v="Langbuneset" />
		<tag k="name" v="Langbunes" />
		<tag k="natural" v="cape" />
		<tag k="ssr:stedsnr" v="930545" />
	</node>
	<node id="-778763" lat="70.2489083973" lon="30.895864542">
		<tag k="fixme" v="consider seamark:type=rock or natural=shoal" />
		<tag k="name" v="Storskjæret" />
		<tag k="place" v="islet" />
		<tag k="ssr:stedsnr" v="930542" />
	</node>
	<node id="-778249" lat="70.2455472837" lon="30.6894063525">
		<tag k="name" v="Midtkeila" />
		<tag k="natural" v="bay" />
		<tag k="ssr:stedsnr" v="349939" />
	</node>
	<node id="-778248" lat="70.2449944999" lon="30.697989687">
		<tag k="name" v="Storkeila" />
		<tag k="natural" v="bay" />
		<tag k="ssr:stedsnr" v="349938" />
	</node>
	<node id="-778757" lat="70.28445006" lon="30.9799783896">
		<tag k="name" v="Sandsenden" />
		<tag k="natural" v="bay" />
		<tag k="ssr:stedsnr" v="874713" />
	</node>
	<node id="-778755" lat="70.3928417227" lon="31.031225655">
		<tag k="alt_name" v="Smellror, yt" />
		<tag k="name" v="Ytre Smellror" />
		<tag k="natural" v="cape" />
		<tag k="ssr:stedsnr" v="870587" />
	</node>
	<node id="-778242" lat="70.3753056186" lon="31.0832255922">
		<tag k="name" v="Engelsvika" />
		<tag k="natural" v="bay" />
		<tag k="ssr:stedsnr" v="330726" />
	</node>
</osm>
