<?xml version="1.0" encoding="UTF-8"?>
<osm version="0.6" generator="osmapis">
	<node lat="64.92525833367628" lon="12.045033326817112" id="-53829">
		<tag k="ford" v="yes" />
		<tag k="name" v="Hesthagavadet" />
		<tag k="place" v="locality" />
		<tag k="ssr:stedsnr" v="234824" />
	</node>
	<node lat="65.01550833588325" lon="11.638130561268833" id="-53884">
		<tag k="highway" v="path" />
		<tag k="name" v="Breiveigen" />
		<tag k="ssr:stedsnr" v="47875" />
	</node>
	<node lat="64.93339444804253" lon="11.44927500143284" id="-54181">
		<tag k="fixme" v="verify maritime location" />
		<tag k="mooring" v="yes" />
		<tag k="name" v="Litlstøa" />
		<tag k="place" v="locality" />
		<tag k="ssr:stedsnr" v="146106" />
	</node>
	<node lat="64.94444722555913" lon="11.262802786352607" id="-54602">
		<tag k="name" v="Ramnholmråsa" />
		<tag k="place" v="locality" />
		<tag k="ssr:stedsnr" v="271013" />
	</node>
	<node lat="64.86607500148544" lon="11.046486110612886" id="-54649">
		<tag k="man_made" v="quay" />
		<tag k="name" v="Vågøyhamn" />
		<tag k="place" v="locality" />
		<tag k="ssr:stedsnr" v="229602" />
	</node>
	<node lat="64.95814722486048" lon="12.21435833882011" id="-54831">
		<tag k="junction" v="yes" />
		<tag k="name" v="Vennevikkorsen" />
		<tag k="place" v="locality" />
		<tag k="ssr:stedsnr" v="270330" />
	</node>
	<node lat="64.7899055594463" lon="11.399097221927581" id="-54844">
		<tag k="bridge" v="yes" />
		<tag k="layer" v="1" />
		<tag k="name" v="Lunnan" />
		<tag k="ssr:stedsnr" v="271829" />
	</node>
	<node lat="64.95352221841091" lon="11.992172224632723" id="-55463">
		<tag k="junction" v="yes" />
		<tag k="name" v="Skaftneskorsen" />
		<tag k="place" v="locality" />
		<tag k="ssr:stedsnr" v="452378" />
	</node>
	<node lat="64.88791944471743" lon="11.43833889697967" id="-55849">
		<tag k="name" v="Velte" />
		<tag k="place" v="locality" />
		<tag k="ssr:stedsnr" v="530413" />
	</node>
	<node lat="64.93997500298356" lon="12.31415834378763" id="-56044">
		<tag k="fixme" v="verify maritime location" />
		<tag k="mooring" v="yes" />
		<tag k="name" v="Gammelstøa" />
		<tag k="place" v="locality" />
		<tag k="ssr:stedsnr" v="695292" />
	</node>
	<node lat="64.81596110726883" lon="11.626066672674916" id="-56214">
		<tag k="amenity" v="ferry_terminal" />
		<tag k="name" v="Geisnes ferjekai" />
		<tag k="ssr:stedsnr" v="703858" />
	</node>
	<node lat="64.71634444423462" lon="11.102044446247689" id="-56241">
		<tag k="name" v="Tvibergleia" />
		<tag k="old_name" v="Tvibergleden" />
		<tag k="place" v="locality" />
		<tag k="ssr:stedsnr" v="634096" />
	</node>
	<node lat="65.00857222467573" lon="11.62679999089025" id="-56527">
		<tag k="fixme" v="verify maritime location" />
		<tag k="mooring" v="yes" />
		<tag k="name" v="Dolmstøa" />
		<tag k="place" v="locality" />
		<tag k="ssr:stedsnr" v="897855" />
	</node>
	<node lat="65.04677500046984" lon="11.913627770388576" id="-56598">
		<tag k="highway" v="path" />
		<tag k="name" v="Steinveigen" />
		<tag k="ssr:stedsnr" v="725105" />
	</node>
	<node lat="64.79352222000306" lon="11.31259445194214" id="-56897">
		<tag k="fixme" v="verify maritime location" />
		<tag k="mooring" v="yes" />
		<tag k="name" v="Varøystøa" />
		<tag k="place" v="locality" />
		<tag k="ssr:stedsnr" v="833199" />
	</node>
	<node lat="64.93465555417318" lon="11.37700833413323" id="-57004">
		<tag k="name" v="Hummulråsa" />
		<tag k="place" v="locality" />
		<tag k="ssr:stedsnr" v="925229" />
	</node>
	<node lat="64.94779444461678" lon="12.280349997799059" id="-57133">
		<tag k="highway" v="path" />
		<tag k="name" v="Teplingstien" />
		<tag k="ssr:stedsnr" v="877311" />
	</node>
	<node lat="64.92069722673183" lon="11.56974999042602" id="-57389">
		<tag k="highway" v="path" />
		<tag k="name" v="Revstien" />
		<tag k="ssr:stedsnr" v="955140" />
	</node>
</osm>
