<?xml version="1.0" encoding="UTF-8"?>
<<<<<<< HEAD
<osm version="0.6" generator="osmapis">
	<node lat="64.92813888627676" lon="11.447091663913369" id="-36836">
		<tag k="name" v="Langmyra" />
		<tag k="natural" v="wetland" />
		<tag k="ssr:stedsnr" v="25074" />
	</node>
	<node lat="64.80905000087824" lon="11.748633328592687" id="-36881">
		<tag k="name" v="Bjønnavika" />
		<tag k="place" v="locality" />
		<tag k="ssr:stedsnr" v="43022" />
	</node>
	<node lat="64.88675555948596" lon="11.454602780147088" id="-36894">
		<tag k="name" v="Søkkmyrå" />
		<tag k="natural" v="wetland" />
		<tag k="ssr:stedsnr" v="44389" />
	</node>
	<node lat="64.98070555307392" lon="11.716527784383207" id="-36904">
		<tag k="name" v="Nordskogen" />
		<tag k="place" v="locality" />
		<tag k="ssr:stedsnr" v="47503" />
	</node>
	<node lat="64.9272083371279" lon="11.048788895670675" id="-36908">
		<tag k="name" v="Dragsmarka" />
		<tag k="place" v="locality" />
		<tag k="ssr:stedsnr" v="47574" />
	</node>
	<node lat="65.00244444837347" lon="12.166836115679857" id="-36933">
=======
<osm generator="osmapis" version="0.6">
	<node id="-828927" lat="64.8251777803" lon="11.9186972168">
		<tag k="name" v="Steinbrumyra" />
		<tag k="natural" v="wetland" />
		<tag k="ssr:stedsnr" v="293021" />
	</node>
	<node id="-831486" lat="64.9666833348" lon="10.8761500078">
		<tag k="name" v="Skogen" />
		<tag k="place" v="locality" />
		<tag k="ssr:stedsnr" v="15727" />
	</node>
	<node id="-830459" lat="64.8481361069" lon="11.9624916698">
		<tag k="name" v="Blakkmyra" />
		<tag k="natural" v="wetland" />
		<tag k="ssr:stedsnr" v="682954" />
	</node>
	<node id="-829434" lat="64.8406305529" lon="11.231072222">
		<tag k="name" v="Engan" />
		<tag k="place" v="locality" />
		<tag k="ssr:stedsnr" v="512994" />
	</node>
	<node id="-829421" lat="64.8962805551" lon="11.8439444375">
		<tag k="name" v="Middagsmarka" />
		<tag k="natural" v="wetland" />
		<tag k="ssr:stedsnr" v="511229" />
	</node>
	<node id="-830955" lat="64.8378944488" lon="11.6066666666">
		<tag k="alt_name" v="Stormyrå" />
		<tag k="name" v="Stormyra" />
		<tag k="natural" v="wetland" />
		<tag k="ssr:stedsnr" v="925513" />
	</node>
	<node id="-827881" lat="65.0024444484" lon="12.1668361157">
>>>>>>> e1d4bc35ff8a6074a6f2e91616a996b547c36f15
		<tag k="name" v="Hjartura" />
		<tag k="natural" v="scree" />
		<tag k="ssr:stedsnr" v="52204" />
	</node>
<<<<<<< HEAD
	<node lat="64.90431944505153" lon="11.416649996942693" id="-36954">
		<tag k="name" v="Øvermarka" />
=======
	<node id="-828903" lat="64.9342611069" lon="11.034116666">
		<tag k="name" v="Sundsmarka" />
>>>>>>> e1d4bc35ff8a6074a6f2e91616a996b547c36f15
		<tag k="place" v="locality" />
		<tag k="ssr:stedsnr" v="75021" />
	</node>
<<<<<<< HEAD
	<node lat="64.82635000099621" lon="11.26643611286508" id="-37063">
		<tag k="name" v="Litlflosanden" />
=======
	<node id="-828902" lat="64.8770166676" lon="11.5119027678">
		<tag k="name" v="Urtergården" />
>>>>>>> e1d4bc35ff8a6074a6f2e91616a996b547c36f15
		<tag k="place" v="locality" />
		<tag k="ssr:stedsnr" v="105204" />
	</node>
<<<<<<< HEAD
	<node lat="64.90568888875603" lon="11.609900006490019" id="-37070">
		<tag k="name" v="Bjørkskardmyrå" />
=======
	<node id="-829413" lat="64.8833277794" lon="11.5323722128">
		<tag k="name" v="Liamyra" />
>>>>>>> e1d4bc35ff8a6074a6f2e91616a996b547c36f15
		<tag k="natural" v="wetland" />
		<tag k="ssr:stedsnr" v="106108" />
	</node>
<<<<<<< HEAD
	<node lat="65.04948888862323" lon="11.939619452867815" id="-37087">
		<tag k="name" v="Hattbrottmyrå" />
=======
	<node id="-831458" lat="64.8596055517" lon="10.8898027759">
		<tag k="name" v="Kjerkbrumyra" />
>>>>>>> e1d4bc35ff8a6074a6f2e91616a996b547c36f15
		<tag k="natural" v="wetland" />
		<tag k="ssr:stedsnr" v="108472" />
	</node>
<<<<<<< HEAD
	<node lat="64.93475555197926" lon="10.937611110683093" id="-37093">
		<tag k="name" v="Vestmyro" />
		<tag k="natural" v="wetland" />
		<tag k="ssr:stedsnr" v="108793" />
	</node>
	<node lat="64.80170277382949" lon="11.759991665145819" id="-37102">
		<tag k="name" v="Stormyrå" />
		<tag k="natural" v="wetland" />
		<tag k="ssr:stedsnr" v="111076" />
	</node>
	<node lat="64.94862777617672" lon="11.4117527762822" id="-37106">
		<tag k="name" v="Langmyrå" />
=======
	<node id="-829435" lat="64.8412916651" lon="11.2241027715">
		<tag k="name" v="Setervollen" />
		<tag k="place" v="locality" />
		<tag k="ssr:stedsnr" v="512995" />
	</node>
	<node id="-828893" lat="64.9257277738" lon="11.5636944496">
		<tag k="name" v="Urdmomyrå" />
>>>>>>> e1d4bc35ff8a6074a6f2e91616a996b547c36f15
		<tag k="natural" v="wetland" />
		<tag k="ssr:stedsnr" v="111476" />
	</node>
<<<<<<< HEAD
	<node lat="64.96979444156709" lon="11.987294440718694" id="-37187">
		<tag k="name" v="Nordmarka" />
		<tag k="place" v="locality" />
		<tag k="ssr:stedsnr" v="136649" />
	</node>
	<node lat="64.94125555642583" lon="11.492980552648522" id="-37218">
		<tag k="name" v="Revskogmyra" />
		<tag k="natural" v="wetland" />
		<tag k="ssr:stedsnr" v="147057" />
	</node>
	<node lat="64.83501111105728" lon="11.557141668032484" id="-37401">
		<tag k="name" v="Stavåsmyra" />
		<tag k="natural" v="wetland" />
		<tag k="ssr:stedsnr" v="165070" />
	</node>
	<node lat="64.83279721913132" lon="11.626950003541857" id="-37402">
		<tag k="name" v="Øystervika" />
		<tag k="place" v="locality" />
		<tag k="ssr:stedsnr" v="165072" />
	</node>
	<node lat="64.75251110880194" lon="11.269369450182063" id="-37409">
		<tag k="name" v="Gildevangen" />
		<tag k="place" v="locality" />
		<tag k="ssr:stedsnr" v="165124" />
	</node>
	<node lat="64.7723277747403" lon="11.377730551467726" id="-37411">
		<tag k="name" v="Vargtuva" />
		<tag k="place" v="locality" />
		<tag k="ssr:stedsnr" v="165137" />
	</node>
	<node lat="64.87714443997012" lon="10.817738898748978" id="-37423">
		<tag k="name" v="Småskogan" />
		<tag k="place" v="locality" />
		<tag k="ssr:stedsnr" v="168159" />
	</node>
	<node lat="64.8731916670577" lon="11.12619722143465" id="-37426">
		<tag k="name" v="Reitan" />
		<tag k="place" v="locality" />
		<tag k="ssr:stedsnr" v="168263" />
	</node>
	<node lat="64.88322500411972" lon="11.137450007275099" id="-37427">
		<tag k="name" v="Gurilimyro" />
		<tag k="natural" v="wetland" />
		<tag k="ssr:stedsnr" v="168267" />
	</node>
	<node lat="64.98325278129757" lon="11.67120000656337" id="-37436">
		<tag k="name" v="Ytter-Heimerengan" />
		<tag k="place" v="locality" />
		<tag k="ssr:stedsnr" v="169507" />
	</node>
	<node lat="64.83321944615695" lon="11.899186119049217" id="-37447">
		<tag k="name" v="Vannhagan" />
		<tag k="place" v="locality" />
		<tag k="ssr:stedsnr" v="172010" />
	</node>
	<node lat="65.02412499930277" lon="11.766375002516542" id="-37495">
		<tag k="alt_name" v="Skotnesmyrån" />
		<tag k="name" v="Skotnesmyra" />
		<tag k="natural" v="wetland" />
		<tag k="ssr:stedsnr" v="197168" />
	</node>
	<node lat="64.91726388504514" lon="12.308930546214604" id="-37531">
		<tag k="historic" v="shieling" />
		<tag k="name" v="Holmdalssætra" />
		<tag k="place" v="locality" />
		<tag k="ssr:stedsnr" v="197802" />
	</node>
	<node lat="64.89455555438445" lon="11.678027783772018" id="-37572">
		<tag k="name" v="Storsteinmyra" />
		<tag k="natural" v="wetland" />
		<tag k="ssr:stedsnr" v="208029" />
	</node>
	<node lat="64.91310555138251" lon="11.81548610950553" id="-37587">
		<tag k="name" v="Storsteinmyra" />
		<tag k="natural" v="wetland" />
		<tag k="ssr:stedsnr" v="269013" />
	</node>
	<node lat="64.90061110798231" lon="11.817341668616388" id="-37599">
		<tag k="name" v="Kjeurda" />
		<tag k="natural" v="scree" />
		<tag k="ssr:stedsnr" v="269266" />
	</node>
	<node lat="64.92350555199934" lon="12.237691663924892" id="-37611">
		<tag k="name" v="Råsbakkenget" />
		<tag k="natural" v="wetland" />
		<tag k="ssr:stedsnr" v="211188" />
	</node>
	<node lat="64.94718611265213" lon="12.20936945226778" id="-37619">
		<tag k="name" v="Hesthagan" />
		<tag k="place" v="locality" />
		<tag k="ssr:stedsnr" v="270334" />
	</node>
	<node lat="64.9114083347989" lon="11.303825009648659" id="-37623">
		<tag k="name" v="Sørøymarka" />
		<tag k="place" v="locality" />
		<tag k="ssr:stedsnr" v="270452" />
	</node>
	<node lat="64.85507777553244" lon="11.471080562107911" id="-37656">
		<tag k="name" v="Naklingsmarka" />
		<tag k="place" v="locality" />
		<tag k="ssr:stedsnr" v="226113" />
	</node>
	<node lat="64.85799444249467" lon="11.517100002026138" id="-37657">
		<tag k="name" v="Ryphammaren" />
=======
	<node id="-827928" lat="64.9553944453" lon="11.9414638887">
		<tag k="name" v="Stormyra" />
		<tag k="natural" v="wetland" />
		<tag k="ssr:stedsnr" v="86211" />
	</node>
	<node id="-827860" lat="64.9807055531" lon="11.7165277844">
		<tag k="name" v="Nordskogen" />
		<tag k="place" v="locality" />
		<tag k="ssr:stedsnr" v="47503" />
	</node>
	<node id="-828365" lat="65.0245222246" lon="11.8672472315">
		<tag k="name" v="Hogget" />
		<tag k="place" v="locality" />
		<tag k="ssr:stedsnr" v="290288" />
	</node>
	<node id="-829386" lat="64.8225361076" lon="11.7005833254">
		<tag k="historic" v="shieling" />
		<tag k="name" v="Geisnessetran" />
		<tag k="place" v="locality" />
		<tag k="ssr:stedsnr" v="408062" />
	</node>
	<node id="-828357" lat="64.9245722254" lon="11.5569138965">
		<tag k="name" v="Klokkaåttemyrå" />
		<tag k="natural" v="wetland" />
		<tag k="ssr:stedsnr" v="288135" />
	</node>
	<node id="-828351" lat="64.7679861086" lon="11.356813884">
		<tag k="name" v="Nordstranda" />
>>>>>>> e1d4bc35ff8a6074a6f2e91616a996b547c36f15
		<tag k="place" v="locality" />
		<tag k="ssr:stedsnr" v="226114" />
	</node>
<<<<<<< HEAD
	<node lat="64.89380832955659" lon="11.459461117823963" id="-37666">
		<tag k="name" v="Seterlia" />
		<tag k="place" v="locality" />
		<tag k="ssr:stedsnr" v="227391" />
	</node>
	<node lat="64.91787499563378" lon="11.700905552201705" id="-37681">
		<tag k="name" v="Nakkmyrå" />
		<tag k="natural" v="wetland" />
		<tag k="ssr:stedsnr" v="229706" />
	</node>
	<node lat="64.92896944203683" lon="11.50613889122915" id="-37706">
		<tag k="name" v="Torvmyra" />
		<tag k="natural" v="wetland" />
		<tag k="ssr:stedsnr" v="450074" />
	</node>
	<node lat="64.88828055506701" lon="11.238100003358694" id="-37765">
		<tag k="name" v="Sammarfjøsmyra" />
		<tag k="natural" v="wetland" />
		<tag k="ssr:stedsnr" v="452522" />
	</node>
	<node lat="64.84913888721448" lon="11.310088892039655" id="-37858">
		<tag k="name" v="Laugmyra" />
		<tag k="natural" v="wetland" />
		<tag k="ssr:stedsnr" v="269912" />
	</node>
	<node lat="64.94053888626964" lon="12.161216676588602" id="-37863">
		<tag k="name" v="Bogaenget" />
		<tag k="natural" v="wetland" />
		<tag k="ssr:stedsnr" v="270328" />
	</node>
	<node lat="64.80827777976309" lon="11.849136104665831" id="-37887">
		<tag k="name" v="Jensåkkråa" />
		<tag k="natural" v="wetland" />
		<tag k="ssr:stedsnr" v="286030" />
	</node>
	<node lat="64.9245722254216" lon="11.556913896538019" id="-37901">
		<tag k="name" v="Klokkaåttemyrå" />
		<tag k="natural" v="wetland" />
		<tag k="ssr:stedsnr" v="288135" />
	</node>
	<node lat="65.02452222461145" lon="11.867247231543777" id="-37907">
		<tag k="name" v="Hogget" />
		<tag k="place" v="locality" />
		<tag k="ssr:stedsnr" v="290288" />
	</node>
	<node lat="64.82517778028922" lon="11.918697216802638" id="-37933">
		<tag k="name" v="Steinbrumyra" />
		<tag k="natural" v="wetland" />
		<tag k="ssr:stedsnr" v="293021" />
	</node>
	<node lat="64.83640555339547" lon="11.519058342007133" id="-37972">
		<tag k="fixme" v="multiple name tags, choose one and add the other to alt_name" />
		<tag k="name" v="Stormyra;Torvmyra" />
		<tag k="natural" v="wetland" />
		<tag k="ssr:stedsnr" v="318254" />
	</node>
	<node lat="64.7352277765392" lon="11.207469451457165" id="-38045">
		<tag k="name" v="Hesthagan" />
=======
	<node id="-828860" lat="64.9114083348" lon="11.3038250096">
		<tag k="name" v="Sørøymarka" />
		<tag k="place" v="locality" />
		<tag k="ssr:stedsnr" v="270452" />
	</node>
	<node id="-829879" lat="64.8246833351" lon="11.2808333423">
		<tag k="name" v="Krokmyrin" />
		<tag k="place" v="locality" />
		<tag k="ssr:stedsnr" v="529176" />
	</node>
	<node id="-829364" lat="64.8629944418" lon="11.3062083393">
		<tag k="name" v="Fagervollen" />
		<tag k="place" v="locality" />
		<tag k="ssr:stedsnr" v="390891" />
	</node>
	<node id="-830899" lat="64.8839500006" lon="11.4605999996">
		<tag k="name" v="Peenget" />
		<tag k="place" v="locality" />
		<tag k="ssr:stedsnr" v="925143" />
	</node>
	<node id="-829872" lat="64.8134833321" lon="11.737013894">
		<tag k="name" v="Småengmarka" />
>>>>>>> e1d4bc35ff8a6074a6f2e91616a996b547c36f15
		<tag k="place" v="locality" />
		<tag k="ssr:stedsnr" v="468198" />
	</node>
<<<<<<< HEAD
	<node lat="64.73814166691567" lon="11.208555565367064" id="-38046">
		<tag k="name" v="Aunet" />
		<tag k="place" v="locality" />
		<tag k="ssr:stedsnr" v="468200" />
	</node>
	<node lat="64.78399999650404" lon="11.899358340344083" id="-38049">
		<tag k="historic" v="shieling" />
		<tag k="name" v="Borkmosetran" />
		<tag k="place" v="locality" />
		<tag k="ssr:stedsnr" v="468946" />
	</node>
	<node lat="64.8732888931657" lon="11.434930565466814" id="-38053">
		<tag k="name" v="Langmyrå" />
		<tag k="natural" v="wetland" />
		<tag k="ssr:stedsnr" v="469443" />
	</node>
	<node lat="64.92573888775118" lon="11.558494448459713" id="-38056">
		<tag k="name" v="Stormyrå" />
		<tag k="natural" v="wetland" />
		<tag k="ssr:stedsnr" v="470140" />
	</node>
	<node lat="64.9135277759339" lon="11.449524992703621" id="-38058">
		<tag k="name" v="Blekkadalsmyra" />
		<tag k="natural" v="wetland" />
		<tag k="ssr:stedsnr" v="328914" />
	</node>
	<node lat="64.85318055207037" lon="10.798344446257461" id="-38086">
		<tag k="name" v="Nordurda" />
		<tag k="natural" v="scree" />
		<tag k="ssr:stedsnr" v="471145" />
	</node>
	<node lat="64.94356944499447" lon="11.580966661886102" id="-38089">
		<tag k="name" v="Jektvikmyrån" />
=======
	<node id="-828846" lat="64.8491388872" lon="11.310088892">
		<tag k="name" v="Laugmyra" />
		<tag k="natural" v="wetland" />
		<tag k="ssr:stedsnr" v="269912" />
	</node>
	<node id="-828843" lat="64.900611108" lon="11.8173416686">
		<tag k="name" v="Kjeurda" />
		<tag k="natural" v="scree" />
		<tag k="ssr:stedsnr" v="269266" />
	</node>
	<node id="-829862" lat="64.8537277811" lon="11.1639388808">
		<tag k="name" v="Tassamyra" />
>>>>>>> e1d4bc35ff8a6074a6f2e91616a996b547c36f15
		<tag k="natural" v="wetland" />
		<tag k="ssr:stedsnr" v="472235" />
	</node>
<<<<<<< HEAD
	<node lat="64.88341944104405" lon="11.163180548265922" id="-38098">
		<tag k="name" v="Kariskogen" />
		<tag k="place" v="locality" />
		<tag k="ssr:stedsnr" v="472252" />
	</node>
	<node lat="65.01270833485883" lon="11.720919439217758" id="-38105">
		<tag k="name" v="Jomyrå" />
		<tag k="natural" v="wetland" />
		<tag k="ssr:stedsnr" v="472526" />
	</node>
	<node lat="64.9488833338352" lon="11.120419435498583" id="-38116">
		<tag k="name" v="Langmyro" />
=======
	<node id="-831389" lat="64.9432388897" lon="11.412983334">
		<tag k="name" v="Breivikmyrå" />
>>>>>>> e1d4bc35ff8a6074a6f2e91616a996b547c36f15
		<tag k="natural" v="wetland" />
		<tag k="ssr:stedsnr" v="472700" />
	</node>
<<<<<<< HEAD
	<node lat="64.8227833320759" lon="11.680886118232062" id="-38137">
		<tag k="name" v="Røyrmyrå" />
		<tag k="natural" v="wetland" />
		<tag k="ssr:stedsnr" v="347057" />
	</node>
	<node lat="64.8550305578761" lon="11.606363885815991" id="-38138">
		<tag k="name" v="Langmyra" />
		<tag k="natural" v="wetland" />
		<tag k="ssr:stedsnr" v="347071" />
	</node>
	<node lat="64.73766111450706" lon="11.218997213144101" id="-38139">
		<tag k="name" v="Tjukkskogan" />
		<tag k="place" v="locality" />
		<tag k="ssr:stedsnr" v="347206" />
	</node>
	<node lat="64.92674722622756" lon="11.592180565506608" id="-38154">
		<tag k="name" v="Mundmyrå" />
		<tag k="natural" v="wetland" />
		<tag k="ssr:stedsnr" v="348163" />
	</node>
	<node lat="64.81323333050547" lon="11.159297216346395" id="-38161">
		<tag k="name" v="Kjerksanden" />
		<tag k="natural" v="beach" />
		<tag k="ssr:stedsnr" v="350613" />
		<tag k="surface" v="sand" />
	</node>
	<node lat="64.96504444628923" lon="10.87243889692378" id="-38171">
		<tag k="name" v="Stromsimyro" />
		<tag k="natural" v="wetland" />
		<tag k="ssr:stedsnr" v="350959" />
	</node>
	<node lat="64.9025166709094" lon="10.88353610678171" id="-38175">
		<tag k="name" v="Gråmyro" />
		<tag k="natural" v="wetland" />
		<tag k="ssr:stedsnr" v="350825" />
	</node>
	<node lat="64.8898861136845" lon="10.984625007198227" id="-38177">
		<tag k="name" v="Stråmyro" />
		<tag k="natural" v="wetland" />
		<tag k="ssr:stedsnr" v="350857" />
	</node>
	<node lat="64.88434722365275" lon="11.161697215757481" id="-38185">
		<tag k="name" v="Årlimyro" />
		<tag k="natural" v="wetland" />
		<tag k="ssr:stedsnr" v="351266" />
	</node>
	<node lat="64.96949444145382" lon="11.92357221783685" id="-38192">
		<tag k="name" v="Årforsetran" />
		<tag k="place" v="locality" />
		<tag k="ssr:stedsnr" v="355185" />
	</node>
	<node lat="64.95992499936357" lon="11.93319999064155" id="-38195">
		<tag k="name" v="Benjaminsetran" />
		<tag k="place" v="locality" />
		<tag k="ssr:stedsnr" v="355859" />
	</node>
	<node lat="64.9211611139061" lon="11.448533323180689" id="-38296">
		<tag k="name" v="Steinskardskogen" />
=======
	<node id="-831386" lat="64.7996361116" lon="11.7794805646">
		<tag k="name" v="Finnstranda" />
		<tag k="place" v="locality" />
		<tag k="ssr:stedsnr" v="960066" />
	</node>
	<node id="-829850" lat="64.8427055542" lon="11.2323638839">
		<tag k="name" v="Per-Olsaslåtten" />
		<tag k="place" v="locality" />
		<tag k="ssr:stedsnr" v="512918" />
	</node>
	<node id="-828310" lat="64.9832527813" lon="11.6712000066">
		<tag k="name" v="Ytter-Heimerengan" />
		<tag k="place" v="locality" />
		<tag k="ssr:stedsnr" v="169507" />
	</node>
	<node id="-829593" lat="64.8845777742" lon="12.2044138931">
		<tag k="name" v="Rakelsetran" />
		<tag k="name:sma" v="Rakelsetran" />
		<tag k="place" v="locality" />
		<tag k="ssr:stedsnr" v="477208" />
	</node>
	<node id="-828302" lat="64.9917972195" lon="11.6133055506">
		<tag k="name" v="Nordsanden" />
		<tag k="natural" v="beach" />
		<tag k="ssr:stedsnr" v="168869" />
		<tag k="surface" v="sand" />
	</node>
	<node id="-828296" lat="64.8731916671" lon="11.1261972214">
		<tag k="name" v="Reitan" />
		<tag k="place" v="locality" />
		<tag k="ssr:stedsnr" v="168263" />
	</node>
	<node id="-831367" lat="64.9519722193" lon="12.1372638868">
		<tag k="name" v="Kålåmarka" />
>>>>>>> e1d4bc35ff8a6074a6f2e91616a996b547c36f15
		<tag k="place" v="locality" />
		<tag k="ssr:stedsnr" v="389109" />
	</node>
<<<<<<< HEAD
	<node lat="64.86299444181834" lon="11.306208339259118" id="-38315">
		<tag k="name" v="Fagervollen" />
		<tag k="place" v="locality" />
		<tag k="ssr:stedsnr" v="390891" />
	</node>
	<node lat="64.83169444706172" lon="11.603438883055853" id="-38350">
		<tag k="name" v="Lomtjønnskogen" />
		<tag k="place" v="locality" />
		<tag k="ssr:stedsnr" v="408090" />
	</node>
	<node lat="64.88332777941234" lon="11.532372212817332" id="-38362">
		<tag k="name" v="Liamyra" />
=======
	<node id="-831366" lat="64.9576444403" lon="12.2157444527">
		<tag k="name" v="Halvardenget" />
		<tag k="place" v="locality" />
		<tag k="ssr:stedsnr" v="938314" />
	</node>
	<node id="-828293" lat="64.9345472262" lon="11.8402888891">
		<tag k="historic" v="shieling" />
		<tag k="name" v="Haugasetran" />
		<tag k="place" v="locality" />
		<tag k="ssr:stedsnr" v="168325" />
	</node>
	<node id="-831382" lat="64.8790527801" lon="11.5350083354">
		<tag k="name" v="Toskardmyra" />
		<tag k="natural" v="wetland" />
		<tag k="ssr:stedsnr" v="957428" />
	</node>
	<node id="-829826" lat="64.8596777787" lon="12.0035277844">
		<tag k="name" v="Vakkermyra" />
		<tag k="natural" v="wetland" />
		<tag k="ssr:stedsnr" v="682991" />
	</node>
	<node id="-829823" lat="64.8652944484" lon="10.8905805566">
		<tag k="name" v="Magnusmyra" />
		<tag k="natural" v="wetland" />
		<tag k="ssr:stedsnr" v="682982" />
	</node>
	<node id="-830333" lat="64.9847416661" lon="11.6852999915">
		<tag k="name" v="Heimerengan" />
		<tag k="place" v="locality" />
		<tag k="ssr:stedsnr" v="654506" />
	</node>
	<node id="-830329" lat="64.9296611128" lon="11.6328083309">
		<tag k="name" v="Haugamyrå" />
		<tag k="natural" v="wetland" />
		<tag k="ssr:stedsnr" v="654205" />
	</node>
	<node id="-827768" lat="64.7915138912" lon="11.2576666624">
		<tag k="name" v="Stokkdikberget" />
		<tag k="place" v="locality" />
		<tag k="ssr:stedsnr" v="226209" />
	</node>
	<node id="-830837" lat="64.7649138852" lon="11.8187666767">
		<tag k="name" v="Monsøysetran" />
		<tag k="place" v="locality" />
		<tag k="ssr:stedsnr" v="778103" />
	</node>
	<node id="-828274" lat="64.8327972191" lon="11.6269500035">
		<tag k="name" v="Øystervika" />
		<tag k="place" v="locality" />
		<tag k="ssr:stedsnr" v="165072" />
	</node>
	<node id="-831345" lat="64.9115000043" lon="11.799455552">
		<tag k="name" v="Stormyra" />
		<tag k="natural" v="wetland" />
		<tag k="ssr:stedsnr" v="925563" />
	</node>
	<node id="-830319" lat="64.8990111123" lon="11.6256666581">
		<tag k="name" v="Storgryttjønnmyrå" />
		<tag k="natural" v="wetland" />
		<tag k="ssr:stedsnr" v="651125" />
	</node>
	<node id="-828270" lat="64.7525111088" lon="11.2693694502">
		<tag k="name" v="Gildevangen" />
		<tag k="place" v="locality" />
		<tag k="ssr:stedsnr" v="165124" />
	</node>
	<node id="-827757" lat="64.7423611109" lon="11.2704527732">
		<tag k="name" v="Mariusskogen" />
		<tag k="place" v="locality" />
		<tag k="ssr:stedsnr" v="226144" />
	</node>
	<node id="-830828" lat="64.9473999961" lon="11.8164916614">
		<tag k="name" v="Vassbygda Statsskog" />
		<tag k="place" v="locality" />
		<tag k="ssr:stedsnr" v="775718" />
	</node>
	<node id="-827755" lat="64.7420777787" lon="11.2566444352">
		<tag k="name" v="Lian" />
		<tag k="place" v="locality" />
		<tag k="ssr:stedsnr" v="226136" />
	</node>
	<node id="-827752" lat="64.8162083293" lon="11.4632166629">
		<tag k="name" v="Momyra" />
>>>>>>> e1d4bc35ff8a6074a6f2e91616a996b547c36f15
		<tag k="natural" v="wetland" />
		<tag k="ssr:stedsnr" v="411411" />
	</node>
<<<<<<< HEAD
	<node lat="64.95111110834054" lon="11.404861119174257" id="-38380">
		<tag k="name" v="Arvikmyrån" />
		<tag k="natural" v="wetland" />
		<tag k="ssr:stedsnr" v="414495" />
	</node>
	<node lat="64.92383055246971" lon="12.077016662951085" id="-38385">
		<tag k="name" v="Bergbakkmyra" />
=======
	<node id="-830310" lat="64.8134527815" lon="11.4029444414">
		<tag k="name" v="Stormyra" />
		<tag k="natural" v="wetland" />
		<tag k="ssr:stedsnr" v="650104" />
	</node>
	<node id="-830820" lat="64.9786500018" lon="11.8384444443">
		<tag k="landuse" v="meadow" />
		<tag k="name" v="Lidarenget" />
		<tag k="ssr:stedsnr" v="775311" />
	</node>
	<node id="-827747" lat="64.8550777755" lon="11.4710805621">
		<tag k="name" v="Naklingsmarka" />
		<tag k="place" v="locality" />
		<tag k="ssr:stedsnr" v="226113" />
	</node>
	<node id="-830816" lat="64.8952749992" lon="11.606599997">
		<tag k="name" v="Dragskardmyrå" />
>>>>>>> e1d4bc35ff8a6074a6f2e91616a996b547c36f15
		<tag k="natural" v="wetland" />
		<tag k="ssr:stedsnr" v="416790" />
	</node>
<<<<<<< HEAD
	<node lat="64.89280555317559" lon="11.263288886288729" id="-38455">
		<tag k="name" v="Hansvikmyran" />
		<tag k="natural" v="wetland" />
		<tag k="ssr:stedsnr" v="440106" />
	</node>
	<node lat="64.91817777467709" lon="11.55200277465" id="-38537">
		<tag k="name" v="Høgmyrå" />
		<tag k="natural" v="wetland" />
		<tag k="ssr:stedsnr" v="470103" />
	</node>
	<node lat="64.93588889061097" lon="11.789499993458026" id="-38552">
		<tag k="name" v="Nærøy prestegårdsskog" />
=======
	<node id="-827742" lat="64.8167083308" lon="11.6576388986">
		<tag k="name" v="Sandgrova" />
		<tag k="natural" v="beach" />
		<tag k="ssr:stedsnr" v="226059" />
		<tag k="surface" v="sand" />
	</node>
	<node id="-830813" lat="64.8291861091" lon="11.6028027729">
		<tag k="name" v="Storholet" />
		<tag k="place" v="locality" />
		<tag k="ssr:stedsnr" v="772089" />
	</node>
	<node id="-830522" lat="64.8185277738" lon="11.8187527789">
		<tag k="historic" v="shieling" />
		<tag k="name" v="Setersetran" />
		<tag k="place" v="locality" />
		<tag k="ssr:stedsnr" v="893027" />
	</node>
	<node id="-827737" lat="64.8089194466" lon="11.7111055544">
		<tag k="historic" v="shieling" />
		<tag k="name" v="Nersetran" />
>>>>>>> e1d4bc35ff8a6074a6f2e91616a996b547c36f15
		<tag k="place" v="locality" />
		<tag k="ssr:stedsnr" v="472717" />
	</node>
<<<<<<< HEAD
	<node lat="64.88457777417193" lon="12.20441389311163" id="-38559">
		<tag k="name" v="Rakelsetran" />
		<tag k="name:sma" v="Rakelsetran" />
		<tag k="place" v="locality" />
		<tag k="ssr:stedsnr" v="477208" />
	</node>
	<node lat="65.00066389170583" lon="12.171252778395557" id="-38561">
		<tag k="name" v="Fjellmyrene" />
		<tag k="natural" v="wetland" />
		<tag k="ssr:stedsnr" v="477215" />
	</node>
	<node lat="64.83156111021171" lon="11.441325005791063" id="-38598">
		<tag k="name" v="Kistmyra" />
		<tag k="natural" v="wetland" />
		<tag k="ssr:stedsnr" v="499191" />
	</node>
	<node lat="64.87965277422381" lon="11.446494435535957" id="-38630">
		<tag k="alt_name" v="Gråhaugmyrå" />
		<tag k="name" v="Gråhaugmyra" />
		<tag k="natural" v="wetland" />
		<tag k="ssr:stedsnr" v="500440" />
	</node>
	<node lat="64.9707416658658" lon="11.819069454799381" id="-38780">
		<tag k="name" v="Haltussvassmyra" />
		<tag k="natural" v="wetland" />
		<tag k="ssr:stedsnr" v="682687" />
	</node>
	<node lat="64.84813610691177" lon="11.962491669836115" id="-38811">
		<tag k="name" v="Blakkmyra" />
		<tag k="natural" v="wetland" />
		<tag k="ssr:stedsnr" v="682954" />
	</node>
	<node lat="64.86529444837547" lon="10.89058055658936" id="-38825">
		<tag k="name" v="Magnusmyra" />
		<tag k="natural" v="wetland" />
		<tag k="ssr:stedsnr" v="682982" />
	</node>
	<node lat="64.85967777868923" lon="12.003527784377807" id="-38828">
		<tag k="name" v="Vakkermyra" />
=======
	<node id="-830808" lat="64.8216222185" lon="11.6880277756">
		<tag k="name" v="Buøymyrå" />
		<tag k="natural" v="wetland" />
		<tag k="ssr:stedsnr" v="772057" />
	</node>
	<node id="-830804" lat="64.8496833336" lon="11.4637083252">
		<tag k="name" v="Dyrstanskleiva" />
		<tag k="place" v="locality" />
		<tag k="ssr:stedsnr" v="772104" />
	</node>
	<node id="-829582" lat="64.9181777747" lon="11.5520027746">
		<tag k="name" v="Høgmyrå" />
		<tag k="natural" v="wetland" />
		<tag k="ssr:stedsnr" v="470103" />
	</node>
	<node id="-830800" lat="64.9308111082" lon="12.1772861088">
		<tag k="name" v="Storbergmyra" />
		<tag k="natural" v="wetland" />
		<tag k="ssr:stedsnr" v="756171" />
	</node>
	<node id="-829253" lat="64.8796527742" lon="11.4464944355">
		<tag k="alt_name" v="Gråhaugmyrå" />
		<tag k="name" v="Gråhaugmyra" />
		<tag k="natural" v="wetland" />
		<tag k="ssr:stedsnr" v="500440" />
	</node>
	<node id="-828732" lat="64.8882805551" lon="11.2381000034">
		<tag k="name" v="Sammarfjøsmyra" />
		<tag k="natural" v="wetland" />
		<tag k="ssr:stedsnr" v="452522" />
	</node>
	<node id="-831803" lat="64.8795249999" lon="11.464311114">
		<tag k="name" v="Stakkmyra" />
		<tag k="natural" v="wetland" />
		<tag k="ssr:stedsnr" v="75398" />
	</node>
	<node id="-831289" lat="64.8135999955" lon="11.1747750039">
		<tag k="landuse" v="meadow" />
		<tag k="name" v="Frukostenget" />
		<tag k="ssr:stedsnr" v="897272" />
	</node>
	<node id="-830770" lat="64.9758250043" lon="12.0262444378">
		<tag k="name" v="Blåmyrån" />
		<tag k="natural" v="wetland" />
		<tag k="ssr:stedsnr" v="743669" />
	</node>
	<node id="-828207" lat="64.9471861127" lon="12.2093694523">
		<tag k="name" v="Hesthagan" />
		<tag k="place" v="locality" />
		<tag k="ssr:stedsnr" v="270334" />
	</node>
	<node id="-828204" lat="64.9405388863" lon="12.1612166766">
		<tag k="name" v="Bogaenget" />
		<tag k="natural" v="wetland" />
		<tag k="ssr:stedsnr" v="270328" />
	</node>
	<node id="-828295" lat="65.0166666706" lon="11.8127722162">
		<tag k="name" v="Stormyrå" />
		<tag k="natural" v="wetland" />
		<tag k="ssr:stedsnr" v="168254" />
	</node>
	<node id="-828195" lat="64.9131055514" lon="11.8154861095">
		<tag k="name" v="Storsteinmyra" />
>>>>>>> e1d4bc35ff8a6074a6f2e91616a996b547c36f15
		<tag k="natural" v="wetland" />
		<tag k="ssr:stedsnr" v="682991" />
	</node>
<<<<<<< HEAD
	<node lat="64.97304444189164" lon="12.065830545810222" id="-38849">
		<tag k="name" v="Stakkmyra" />
		<tag k="natural" v="wetland" />
		<tag k="ssr:stedsnr" v="513368" />
	</node>
	<node lat="64.97246389128583" lon="12.078019437080107" id="-38850">
		<tag k="name" v="Stormyra" />
		<tag k="natural" v="wetland" />
		<tag k="ssr:stedsnr" v="513372" />
	</node>
	<node lat="64.81348333209573" lon="11.73701389398247" id="-38862">
		<tag k="name" v="Småengmarka" />
		<tag k="place" v="locality" />
		<tag k="ssr:stedsnr" v="528024" />
	</node>
	<node lat="64.82468333508602" lon="11.280833342318537" id="-38872">
		<tag k="name" v="Krokmyrin" />
		<tag k="place" v="locality" />
		<tag k="ssr:stedsnr" v="529176" />
	</node>
	<node lat="64.8589027788158" lon="11.102344446913422" id="-38904">
		<tag k="name" v="Sjymyro" />
=======
	<node id="-828331" lat="64.8082777798" lon="11.8491361047">
		<tag k="name" v="Jensåkkråa" />
		<tag k="natural" v="wetland" />
		<tag k="ssr:stedsnr" v="286030" />
	</node>
	<node id="-827781" lat="64.7920333293" lon="11.3162361077">
		<tag k="name" v="Øysanden" />
		<tag k="place" v="locality" />
		<tag k="ssr:stedsnr" v="226959" />
	</node>
	<node id="-828698" lat="64.928969442" lon="11.5061388912">
		<tag k="name" v="Torvmyra" />
		<tag k="natural" v="wetland" />
		<tag k="ssr:stedsnr" v="450074" />
	</node>
	<node id="-831764" lat="64.9043194451" lon="11.4166499969">
		<tag k="name" v="Øvermarka" />
		<tag k="place" v="locality" />
		<tag k="ssr:stedsnr" v="75021" />
	</node>
	<node id="-830227" lat="64.8650861092" lon="11.7894777689">
		<tag k="historic" v="shieling" />
		<tag k="name" v="Djupviksetran" />
		<tag k="place" v="locality" />
		<tag k="ssr:stedsnr" v="718848" />
	</node>
	<node id="-831755" lat="65.0087305566" lon="11.9897138846">
		<tag k="name" v="Marka" />
		<tag k="place" v="locality" />
		<tag k="ssr:stedsnr" v="75175" />
	</node>
	<node id="-830209" lat="64.7983138875" lon="11.7636277831">
		<tag k="name" v="Løvikmyrå" />
		<tag k="natural" v="wetland" />
		<tag k="ssr:stedsnr" v="717056" />
	</node>
	<node id="-830207" lat="64.9212222245" lon="12.4076944458">
		<tag k="name" v="Saltbumarka" />
		<tag k="place" v="locality" />
		<tag k="ssr:stedsnr" v="716602" />
	</node>
	<node id="-828666" lat="64.9178749956" lon="11.7009055522">
		<tag k="name" v="Nakkmyrå" />
>>>>>>> e1d4bc35ff8a6074a6f2e91616a996b547c36f15
		<tag k="natural" v="wetland" />
		<tag k="ssr:stedsnr" v="533606" />
	</node>
<<<<<<< HEAD
	<node lat="64.99063888820808" lon="11.718719445436532" id="-38907">
		<tag k="name" v="Nordeitermyrån" />
		<tag k="natural" v="wetland" />
		<tag k="ssr:stedsnr" v="533509" />
	</node>
	<node lat="64.94383611050888" lon="10.94745555614535" id="-38912">
		<tag k="name" v="Trongkleivmyro" />
		<tag k="natural" v="wetland" />
		<tag k="ssr:stedsnr" v="533778" />
	</node>
	<node lat="64.84323333708086" lon="11.08073333206525" id="-38913">
		<tag k="name" v="Krattskogan" />
		<tag k="place" v="locality" />
		<tag k="ssr:stedsnr" v="533909" />
	</node>
	<node lat="64.84551110791143" lon="11.113030555248308" id="-38914">
		<tag k="name" v="Stormyro" />
		<tag k="natural" v="wetland" />
		<tag k="ssr:stedsnr" v="533913" />
	</node>
	<node lat="65.0228749997643" lon="11.941483343865885" id="-38920">
		<tag k="name" v="Skjulheimen" />
		<tag k="place" v="locality" />
		<tag k="ssr:stedsnr" v="537923" />
	</node>
	<node lat="64.81458888619278" lon="11.927138899069966" id="-39086">
		<tag k="name" v="Gammelsetermarka" />
		<tag k="place" v="locality" />
		<tag k="ssr:stedsnr" v="589004" />
	</node>
	<node lat="64.8198611128007" lon="11.925616665202563" id="-39087">
		<tag k="name" v="Aunan" />
		<tag k="place" v="locality" />
		<tag k="ssr:stedsnr" v="589006" />
	</node>
	<node lat="64.792525002277" lon="11.300730545386763" id="-39090">
		<tag k="name" v="Dya" />
		<tag k="place" v="locality" />
		<tag k="ssr:stedsnr" v="590204" />
	</node>
	<node lat="64.91019722046947" lon="11.442777768496667" id="-39099">
		<tag k="name" v="Granvikmyrå" />
		<tag k="natural" v="wetland" />
		<tag k="ssr:stedsnr" v="591358" />
	</node>
	<node lat="64.91063055768542" lon="11.456691663804044" id="-39101">
		<tag k="name" v="Tverrlimyrå" />
		<tag k="natural" v="wetland" />
		<tag k="ssr:stedsnr" v="591361" />
	</node>
	<node lat="64.8306111147211" lon="11.710374995702582" id="-39131">
		<tag k="name" v="Urdsflauget" />
		<tag k="place" v="locality" />
		<tag k="ssr:stedsnr" v="596856" />
	</node>
	<node lat="65.0728861096686" lon="11.96998056069507" id="-39137">
		<tag k="name" v="Marenhalla" />
		<tag k="place" v="locality" />
		<tag k="ssr:stedsnr" v="598824" />
	</node>
	<node lat="64.99366666510385" lon="11.947105559452584" id="-39142">
		<tag k="name" v="Hesthagan" />
		<tag k="place" v="locality" />
		<tag k="ssr:stedsnr" v="598922" />
	</node>
	<node lat="64.93158055902671" lon="11.769677779906763" id="-39265">
		<tag k="name" v="Storenget" />
		<tag k="natural" v="wetland" />
		<tag k="ssr:stedsnr" v="632034" />
	</node>
	<node lat="64.86197499569076" lon="11.150008326132953" id="-39277">
		<tag k="name" v="Gråtmyra" />
		<tag k="natural" v="wetland" />
		<tag k="ssr:stedsnr" v="634480" />
	</node>
	<node lat="64.85110277478014" lon="11.183669444433873" id="-39278">
		<tag k="name" v="Tjønnmyra" />
		<tag k="natural" v="wetland" />
		<tag k="ssr:stedsnr" v="634482" />
	</node>
	<node lat="64.81345278150772" lon="11.402944441395313" id="-39293">
		<tag k="name" v="Stormyra" />
		<tag k="natural" v="wetland" />
		<tag k="ssr:stedsnr" v="650104" />
	</node>
	<node lat="64.89197222078703" lon="10.981180558789386" id="-39313">
		<tag k="historic" v="shieling" />
		<tag k="name" v="Setervollen" />
		<tag k="place" v="locality" />
		<tag k="ssr:stedsnr" v="653882" />
	</node>
	<node lat="64.92966111283388" lon="11.632808330883366" id="-39314">
		<tag k="name" v="Haugamyrå" />
		<tag k="natural" v="wetland" />
		<tag k="ssr:stedsnr" v="654205" />
	</node>
	<node lat="64.98474166605527" lon="11.685299991546716" id="-39323">
		<tag k="name" v="Heimerengan" />
		<tag k="place" v="locality" />
		<tag k="ssr:stedsnr" v="654506" />
	</node>
	<node lat="64.81312778158777" lon="11.883580551276452" id="-39371">
		<tag k="name" v="Stormyra" />
		<tag k="natural" v="wetland" />
		<tag k="ssr:stedsnr" v="710031" />
	</node>
	<node lat="64.91425833584906" lon="11.404966656575523" id="-39490">
		<tag k="name" v="Markaholet" />
		<tag k="place" v="locality" />
		<tag k="ssr:stedsnr" v="693915" />
	</node>
	<node lat="64.87564999650776" lon="11.378702779036882" id="-39493">
		<tag k="name" v="Bidalsmyra" />
		<tag k="natural" v="wetland" />
		<tag k="ssr:stedsnr" v="694888" />
	</node>
	<node lat="64.8798500032255" lon="11.320022228912142" id="-39500">
		<tag k="name" v="Åsmyra" />
		<tag k="natural" v="wetland" />
		<tag k="ssr:stedsnr" v="695419" />
	</node>
	<node lat="64.96296944248994" lon="12.199199995090037" id="-39506">
		<tag k="name" v="Enget" />
		<tag k="place" v="locality" />
		<tag k="ssr:stedsnr" v="695317" />
	</node>
	<node lat="64.94805277614363" lon="11.62501111728652" id="-39521">
		<tag k="name" v="Skavrapet" />
=======
	<node id="-827775" lat="64.9173888877" lon="11.4556472163">
		<tag k="name" v="Nils-Jensmyra" />
		<tag k="natural" v="wetland" />
		<tag k="ssr:stedsnr" v="25917" />
	</node>
	<node id="-829396" lat="64.939625002" lon="11.9146333337">
		<tag k="name" v="Stormyra" />
		<tag k="natural" v="wetland" />
		<tag k="ssr:stedsnr" v="510195" />
	</node>
	<node id="-829171" lat="64.8315611102" lon="11.4413250058">
		<tag k="name" v="Kistmyra" />
		<tag k="natural" v="wetland" />
		<tag k="ssr:stedsnr" v="499191" />
	</node>
	<node id="-831725" lat="64.9280583373" lon="12.0428388833">
		<tag k="name" v="Gammelgårdsmyrån" />
		<tag k="natural" v="wetland" />
		<tag k="ssr:stedsnr" v="52785" />
	</node>
	<node id="-831211" lat="64.9589472228" lon="12.1956138835">
		<tag k="name" v="Stormyra" />
		<tag k="natural" v="wetland" />
		<tag k="ssr:stedsnr" v="938297" />
	</node>
	<node id="-829157" lat="64.7738194406" lon="11.7909166702">
		<tag k="name" v="Ranvika" />
		<tag k="place" v="locality" />
		<tag k="ssr:stedsnr" v="353028" />
	</node>
	<node id="-830692" lat="64.9869194447" lon="12.0712888901">
		<tag k="name" v="Tverrakselsetran" />
		<tag k="place" v="locality" />
		<tag k="ssr:stedsnr" v="902801" />
	</node>
	<node id="-829153" lat="64.9025166709" lon="10.8835361068">
		<tag k="name" v="Gråmyro" />
		<tag k="natural" v="wetland" />
		<tag k="ssr:stedsnr" v="350825" />
	</node>
	<node id="-831200" lat="64.8862083324" lon="11.5055666565">
		<tag k="name" v="Storlimyra" />
		<tag k="natural" v="wetland" />
		<tag k="ssr:stedsnr" v="836358" />
	</node>
	<node id="-829151" lat="65.0630999962" lon="11.9067916694">
		<tag k="name" v="Årsetengan" />
		<tag k="place" v="locality" />
		<tag k="ssr:stedsnr" v="350329" />
	</node>
	<node id="-831709" lat="64.8855666661" lon="11.1648000036">
		<tag k="name" v="Storskogen" />
		<tag k="place" v="locality" />
		<tag k="ssr:stedsnr" v="48238" />
	</node>
	<node id="-829147" lat="64.9267472262" lon="11.5921805655">
		<tag k="name" v="Mundmyrå" />
		<tag k="natural" v="wetland" />
		<tag k="ssr:stedsnr" v="348163" />
	</node>
	<node id="-829657" lat="64.8702249984" lon="11.5910249966">
		<tag k="name" v="Leirvikmyra" />
		<tag k="natural" v="wetland" />
		<tag k="ssr:stedsnr" v="500457" />
	</node>
	<node id="-830158" lat="64.9463944488" lon="11.5822416653">
		<tag k="name" v="Klungvikmyrån" />
		<tag k="natural" v="wetland" />
		<tag k="ssr:stedsnr" v="593228" />
	</node>
	<node id="-829132" lat="64.7376611145" lon="11.2189972131">
		<tag k="name" v="Tjukkskogan" />
		<tag k="place" v="locality" />
		<tag k="ssr:stedsnr" v="347206" />
	</node>
	<node id="-829130" lat="64.8550305579" lon="11.6063638858">
		<tag k="name" v="Langmyra" />
		<tag k="natural" v="wetland" />
		<tag k="ssr:stedsnr" v="347071" />
	</node>
	<node id="-829129" lat="64.8227833321" lon="11.6808861182">
		<tag k="name" v="Røyrmyrå" />
		<tag k="natural" v="wetland" />
		<tag k="ssr:stedsnr" v="347057" />
	</node>
	<node id="-830668" lat="64.9794611105" lon="11.6316861009">
		<tag k="name" v="Sandan" />
		<tag k="natural" v="beach" />
		<tag k="ssr:stedsnr" v="897839" />
		<tag k="surface" v="sand" />
	</node>
	<node id="-830150" lat="64.8774555588" lon="11.4336500026">
		<tag k="name" v="Stormyrå" />
		<tag k="natural" v="wetland" />
		<tag k="ssr:stedsnr" v="712392" />
	</node>
	<node id="-830661" lat="64.951702774" lon="10.999661112">
		<tag k="name" v="Valdskiftmyro" />
		<tag k="natural" v="wetland" />
		<tag k="ssr:stedsnr" v="897637" />
	</node>
	<node id="-829078" lat="64.9135277759" lon="11.4495249927">
		<tag k="name" v="Blekkadalsmyra" />
		<tag k="natural" v="wetland" />
		<tag k="ssr:stedsnr" v="328914" />
	</node>
	<node id="-831682" lat="64.9272083371" lon="11.0487888957">
		<tag k="name" v="Dragsmarka" />
		<tag k="place" v="locality" />
		<tag k="ssr:stedsnr" v="47574" />
	</node>
	<node id="-830656" lat="64.9244805554" lon="11.0325861104">
		<tag k="landuse" v="meadow" />
		<tag k="name" v="Gudmundsenget" />
		<tag k="ssr:stedsnr" v="897542" />
	</node>
	<node id="-830655" lat="64.926775001" lon="11.0052361158">
		<tag k="name" v="Veimyro" />
		<tag k="natural" v="wetland" />
		<tag k="ssr:stedsnr" v="897539" />
	</node>
	<node id="-831165" lat="64.9148555526" lon="11.7355777873">
		<tag k="name" v="Stormyra" />
		<tag k="natural" v="wetland" />
		<tag k="ssr:stedsnr" v="936025" />
	</node>
	<node id="-830138" lat="64.771222222" lon="11.4047138831">
		<tag k="name" v="Vikaskarmyra" />
		<tag k="natural" v="wetland" />
		<tag k="ssr:stedsnr" v="590131" />
	</node>
	<node id="-831154" lat="64.9289194446" lon="11.4589861177">
		<tag k="name" v="Jomyra" />
		<tag k="natural" v="wetland" />
		<tag k="ssr:stedsnr" v="935077" />
	</node>
	<node id="-831603" lat="64.9142999995" lon="12.2399944423">
		<tag k="name" v="Langmyra" />
		<tag k="natural" v="wetland" />
		<tag k="ssr:stedsnr" v="29194" />
	</node>
	<node id="-830127" lat="64.7840861148" lon="11.3974972246">
		<tag k="name" v="Vestmarka" />
		<tag k="place" v="locality" />
		<tag k="ssr:stedsnr" v="589148" />
	</node>
	<node id="-830638" lat="64.9288583369" lon="11.2063583344">
		<tag k="name" v="Finnvika" />
		<tag k="place" v="locality" />
		<tag k="ssr:stedsnr" v="897293" />
	</node>
	<node id="-830125" lat="64.7861249996" lon="11.4339027723">
		<tag k="name" v="Austmarka" />
		<tag k="place" v="locality" />
		<tag k="ssr:stedsnr" v="589145" />
	</node>
	<node id="-831175" lat="64.8108694403" lon="11.4078388814">
		<tag k="name" v="Stormomyra" />
		<tag k="natural" v="wetland" />
		<tag k="ssr:stedsnr" v="833106" />
	</node>
	<node id="-830120" lat="64.8214166665" lon="11.2670166767">
		<tag k="name" v="Skurstranda" />
		<tag k="place" v="locality" />
		<tag k="ssr:stedsnr" v="711195" />
	</node>
	<node id="-828273" lat="64.8350111111" lon="11.557141668">
		<tag k="name" v="Stavåsmyra" />
		<tag k="natural" v="wetland" />
		<tag k="ssr:stedsnr" v="165070" />
	</node>
	<node id="-828614" lat="64.8928055532" lon="11.2632888863">
		<tag k="name" v="Hansvikmyran" />
		<tag k="natural" v="wetland" />
		<tag k="ssr:stedsnr" v="440106" />
	</node>
	<node id="-831649" lat="64.8974361074" lon="11.618727776">
		<tag k="name" v="Gryttjønnmyrå" />
		<tag k="natural" v="wetland" />
		<tag k="ssr:stedsnr" v="45111" />
	</node>
	<node id="-830623" lat="64.9480527761" lon="11.6250111173">
		<tag k="name" v="Skavrapet" />
		<tag k="place" v="locality" />
		<tag k="ssr:stedsnr" v="897180" />
	</node>
	<node id="-831644" lat="64.8292694408" lon="11.605966658">
		<tag k="name" v="Skjurarevvå" />
		<tag k="place" v="locality" />
		<tag k="ssr:stedsnr" v="44954" />
	</node>
	<node id="-829595" lat="65.0006638917" lon="12.1712527784">
		<tag k="name" v="Fjellmyrene" />
		<tag k="natural" v="wetland" />
		<tag k="ssr:stedsnr" v="477215" />
	</node>
	<node id="-831641" lat="64.8867555595" lon="11.4546027801">
		<tag k="name" v="Søkkmyrå" />
		<tag k="natural" v="wetland" />
		<tag k="ssr:stedsnr" v="44389" />
	</node>
	<node id="-830616" lat="64.9272694446" lon="12.0786249929">
		<tag k="alt_name" v="Stråmyra" />
		<tag k="name" v="Strålmyra" />
		<tag k="natural" v="wetland" />
		<tag k="ssr:stedsnr" v="720841" />
	</node>
	<node id="-830103" lat="64.8131277816" lon="11.8835805513">
		<tag k="name" v="Stormyra" />
		<tag k="natural" v="wetland" />
		<tag k="ssr:stedsnr" v="710031" />
	</node>
	<node id="-830614" lat="64.9305111124" lon="12.0421805547">
		<tag k="name" v="Aunet" />
		<tag k="place" v="locality" />
		<tag k="ssr:stedsnr" v="720833" />
	</node>
	<node id="-831120" lat="64.9487055526" lon="12.3246361162">
		<tag k="name" v="Stormyra" />
		<tag k="natural" v="wetland" />
		<tag k="ssr:stedsnr" v="804834" />
	</node>
	<node id="-830488" lat="64.9142583358" lon="11.4049666566">
		<tag k="name" v="Markaholet" />
		<tag k="place" v="locality" />
		<tag k="ssr:stedsnr" v="693915" />
	</node>
	<node id="-830606" lat="64.9089416623" lon="10.9548527776">
		<tag k="name" v="Steinvikmyron" />
		<tag k="natural" v="wetland" />
		<tag k="ssr:stedsnr" v="715827" />
	</node>
	<node id="-829634" lat="64.9064055587" lon="11.6282888866">
		<tag k="name" v="Bjørkskardmyra" />
		<tag k="natural" v="wetland" />
		<tag k="ssr:stedsnr" v="500057" />
	</node>
	<node id="-828951" lat="64.7352277765" lon="11.2074694515">
		<tag k="name" v="Hesthagan" />
		<tag k="place" v="locality" />
		<tag k="ssr:stedsnr" v="468198" />
	</node>
	<node id="-831680" lat="64.8996166634" lon="11.0103138857">
		<tag k="name" v="Klongmyro" />
		<tag k="natural" v="wetland" />
		<tag k="ssr:stedsnr" v="47557" />
	</node>
	<node id="-830078" lat="64.946255556" lon="11.9001916704">
		<tag k="name" v="Hølbekkemyra" />
		<tag k="natural" v="wetland" />
		<tag k="ssr:stedsnr" v="572267" />
	</node>
	<node id="-831093" lat="64.9662611099" lon="12.4493499971">
		<tag k="alt_name" v="Erikmyrån" />
		<tag k="name" v="Erikmyran" />
		<tag k="natural" v="wetland" />
		<tag k="ssr:stedsnr" v="803824" />
	</node>
	<node id="-830579" lat="64.8773222191" lon="11.440988888">
		<tag k="name" v="Runghaugmyrå" />
		<tag k="natural" v="wetland" />
		<tag k="ssr:stedsnr" v="894457" />
	</node>
	<node id="-830570" lat="64.8198944488" lon="11.1981611185">
		<tag k="historic" v="shieling" />
		<tag k="name" v="Springarvollen" />
		<tag k="place" v="locality" />
		<tag k="ssr:stedsnr" v="711232" />
	</node>
	<node id="-829798" lat="64.9707416659" lon="11.8190694548">
		<tag k="name" v="Haltussvassmyra" />
		<tag k="natural" v="wetland" />
		<tag k="ssr:stedsnr" v="682687" />
	</node>
	<node id="-831579" lat="64.8578555514" lon="11.1689611203">
		<tag k="name" v="Lundsåkermyra" />
		<tag k="natural" v="wetland" />
		<tag k="ssr:stedsnr" v="27467" />
	</node>
	<node id="-827748" lat="64.8579944425" lon="11.517100002">
		<tag k="name" v="Ryphammaren" />
		<tag k="place" v="locality" />
		<tag k="ssr:stedsnr" v="226114" />
	</node>
	<node id="-830549" lat="64.8645638892" lon="11.5147055527">
		<tag k="name" v="Leirmoen" />
		<tag k="place" v="locality" />
		<tag k="ssr:stedsnr" v="893974" />
	</node>
	<node id="-829009" lat="64.9358888906" lon="11.7894999935">
		<tag k="name" v="Nærøy prestegårdsskog" />
		<tag k="place" v="locality" />
		<tag k="ssr:stedsnr" v="472717" />
	</node>
	<node id="-829008" lat="64.9488833338" lon="11.1204194355">
		<tag k="name" v="Langmyro" />
		<tag k="natural" v="wetland" />
		<tag k="ssr:stedsnr" v="472700" />
	</node>
	<node id="-830028" lat="64.9091777751" lon="11.1396444417">
		<tag k="name" v="Skjelåsmyra" />
		<tag k="natural" v="wetland" />
		<tag k="ssr:stedsnr" v="560608" />
	</node>
	<node id="-829000" lat="65.0127083349" lon="11.7209194392">
		<tag k="name" v="Jomyrå" />
		<tag k="natural" v="wetland" />
		<tag k="ssr:stedsnr" v="472526" />
	</node>
	<node id="-831614" lat="64.8090500009" lon="11.7486333286">
		<tag k="name" v="Bjønnavika" />
		<tag k="place" v="locality" />
		<tag k="ssr:stedsnr" v="43022" />
	</node>
	<node id="-827659" lat="64.8938083296" lon="11.4594611178">
		<tag k="name" v="Seterlia" />
		<tag k="place" v="locality" />
		<tag k="ssr:stedsnr" v="227391" />
	</node>
	<node id="-828992" lat="64.883419441" lon="11.1631805483">
		<tag k="name" v="Kariskogen" />
>>>>>>> e1d4bc35ff8a6074a6f2e91616a996b547c36f15
		<tag k="place" v="locality" />
		<tag k="ssr:stedsnr" v="897180" />
	</node>
<<<<<<< HEAD
	<node lat="64.9288583368982" lon="11.206358334375365" id="-39530">
		<tag k="name" v="Finnvika" />
		<tag k="place" v="locality" />
		<tag k="ssr:stedsnr" v="897293" />
	</node>
	<node lat="64.92677500100665" lon="11.005236115822242" id="-39540">
		<tag k="name" v="Veimyro" />
		<tag k="natural" v="wetland" />
		<tag k="ssr:stedsnr" v="897539" />
	</node>
	<node lat="64.92448055541674" lon="11.032586110429882" id="-39541">
		<tag k="landuse" v="meadow" />
		<tag k="name" v="Gudmundsenget" />
		<tag k="ssr:stedsnr" v="897542" />
	</node>
	<node lat="64.95170277395518" lon="10.999661112009159" id="-39543">
		<tag k="name" v="Valdskiftmyro" />
		<tag k="natural" v="wetland" />
		<tag k="ssr:stedsnr" v="897637" />
	</node>
	<node lat="64.97946111045607" lon="11.631686100883485" id="-39554">
		<tag k="name" v="Sandan" />
		<tag k="natural" v="beach" />
		<tag k="ssr:stedsnr" v="897839" />
		<tag k="surface" v="sand" />
	</node>
	<node lat="64.8198944488057" lon="11.198161118511809" id="-39577">
		<tag k="historic" v="shieling" />
		<tag k="name" v="Springarvollen" />
		<tag k="place" v="locality" />
		<tag k="ssr:stedsnr" v="711232" />
	</node>
	<node lat="64.87745555878129" lon="11.433650002565754" id="-39586">
		<tag k="name" v="Stormyrå" />
		<tag k="natural" v="wetland" />
		<tag k="ssr:stedsnr" v="712392" />
	</node>
	<node lat="64.90894166227646" lon="10.954852777623492" id="-39608">
		<tag k="name" v="Steinvikmyron" />
		<tag k="natural" v="wetland" />
		<tag k="ssr:stedsnr" v="715827" />
	</node>
	<node lat="64.81578332937862" lon="11.494541656986748" id="-39667">
		<tag k="name" v="Strandamarka" />
		<tag k="place" v="locality" />
		<tag k="ssr:stedsnr" v="743339" />
	</node>
	<node lat="64.84968333355722" lon="11.463708325232867" id="-39744">
		<tag k="name" v="Dyrstanskleiva" />
		<tag k="place" v="locality" />
		<tag k="ssr:stedsnr" v="772104" />
	</node>
	<node lat="64.82162221851873" lon="11.688027775581444" id="-39750">
		<tag k="name" v="Buøymyrå" />
		<tag k="natural" v="wetland" />
		<tag k="ssr:stedsnr" v="772057" />
	</node>
	<node lat="64.8952749991955" lon="11.606599996958533" id="-39754">
		<tag k="name" v="Dragskardmyrå" />
		<tag k="natural" v="wetland" />
		<tag k="ssr:stedsnr" v="773107" />
	</node>
	<node lat="64.9280638888641" lon="11.216661101825913" id="-39767">
		<tag k="name" v="Morbrovika" />
		<tag k="place" v="locality" />
		<tag k="ssr:stedsnr" v="775269" />
	</node>
	<node lat="64.88853889256323" lon="11.549250010202675" id="-39770">
		<tag k="name" v="Heimsenget" />
		<tag k="place" v="locality" />
		<tag k="ssr:stedsnr" v="775410" />
	</node>
	<node lat="64.97865000181457" lon="11.838444444290452" id="-39773">
		<tag k="landuse" v="meadow" />
		<tag k="name" v="Lidarenget" />
		<tag k="ssr:stedsnr" v="775311" />
	</node>
	<node lat="64.9473999960619" lon="11.81649166138759" id="-39787">
		<tag k="name" v="Vassbygda Statsskog" />
=======
	<node id="-827744" lat="64.8192361121" lon="11.7209666719">
		<tag k="name" v="Bustamyrå" />
		<tag k="natural" v="wetland" />
		<tag k="ssr:stedsnr" v="226070" />
	</node>
	<node id="-831550" lat="64.9281388863" lon="11.4470916639">
		<tag k="name" v="Langmyra" />
		<tag k="natural" v="wetland" />
		<tag k="ssr:stedsnr" v="25074" />
	</node>
	<node id="-828988" lat="64.943569445" lon="11.5809666619">
		<tag k="name" v="Jektvikmyrån" />
		<tag k="natural" v="wetland" />
		<tag k="ssr:stedsnr" v="472235" />
	</node>
	<node id="-828475" lat="65.0621666628" lon="11.9631916669">
		<tag k="name" v="Sømlimarka" />
		<tag k="place" v="locality" />
		<tag k="ssr:stedsnr" v="295844" />
	</node>
	<node id="-831546" lat="64.9273499978" lon="11.5067694457">
		<tag k="name" v="Bjørnakløyvmyra" />
		<tag k="natural" v="wetland" />
		<tag k="ssr:stedsnr" v="25063" />
	</node>
	<node id="-828340" lat="64.8140555591" lon="11.7332277758">
		<tag k="name" v="Bukkatjønnmyrå" />
		<tag k="natural" v="wetland" />
		<tag k="ssr:stedsnr" v="287047" />
	</node>
	<node id="-828972" lat="64.8531805521" lon="10.7983444463">
		<tag k="name" v="Nordurda" />
		<tag k="natural" v="scree" />
		<tag k="ssr:stedsnr" v="471145" />
	</node>
	<node id="-828965" lat="64.9257388878" lon="11.5584944485">
		<tag k="name" v="Stormyrå" />
		<tag k="natural" v="wetland" />
		<tag k="ssr:stedsnr" v="470140" />
	</node>
	<node id="-828962" lat="64.8732888932" lon="11.4349305655">
		<tag k="name" v="Langmyrå" />
		<tag k="natural" v="wetland" />
		<tag k="ssr:stedsnr" v="469443" />
	</node>
	<node id="-828446" lat="64.917263885" lon="12.3089305462">
		<tag k="historic" v="shieling" />
		<tag k="name" v="Holmdalssætra" />
>>>>>>> e1d4bc35ff8a6074a6f2e91616a996b547c36f15
		<tag k="place" v="locality" />
		<tag k="ssr:stedsnr" v="775718" />
	</node>
<<<<<<< HEAD
	<node lat="64.76491388521015" lon="11.81876667666623" id="-39793">
		<tag k="name" v="Monsøysetran" />
		<tag k="place" v="locality" />
		<tag k="ssr:stedsnr" v="778103" />
	</node>
	<node lat="64.7700472242761" lon="11.842558331496319" id="-39794">
		<tag k="name" v="Salviksetran" />
		<tag k="place" v="locality" />
		<tag k="ssr:stedsnr" v="778102" />
	</node>
	<node lat="64.90396944544166" lon="12.236316672242156" id="-39799">
		<tag k="name" v="Svartvassetran" />
=======
	<node id="-828955" lat="64.7839999965" lon="11.8993583403">
		<tag k="historic" v="shieling" />
		<tag k="name" v="Borkmosetran" />
		<tag k="place" v="locality" />
		<tag k="ssr:stedsnr" v="468946" />
	</node>
	<node id="-828952" lat="64.7381416669" lon="11.2085555654">
		<tag k="name" v="Aunet" />
>>>>>>> e1d4bc35ff8a6074a6f2e91616a996b547c36f15
		<tag k="place" v="locality" />
		<tag k="ssr:stedsnr" v="780212" />
	</node>
<<<<<<< HEAD
	<node lat="64.92318333043177" lon="11.659088888700072" id="-39810">
		<tag k="name" v="Lømarka" />
		<tag k="place" v="locality" />
		<tag k="ssr:stedsnr" v="803023" />
	</node>
	<node lat="64.97103611046292" lon="11.846258322689836" id="-39868">
=======
	<node id="-829975" lat="64.8798500032" lon="11.3200222289">
		<tag k="name" v="Åsmyra" />
		<tag k="natural" v="wetland" />
		<tag k="ssr:stedsnr" v="695419" />
	</node>
	<node id="-830998" lat="64.9752555536" lon="12.1153916621">
		<tag k="name" v="Langmarkmyran" />
		<tag k="natural" v="wetland" />
		<tag k="ssr:stedsnr" v="925703" />
	</node>
	<node id="-831509" lat="64.8370666648" lon="11.8144333229">
		<tag k="name" v="Langmarka" />
		<tag k="place" v="locality" />
		<tag k="ssr:stedsnr" v="15955" />
	</node>
	<node id="-829457" lat="64.9724638913" lon="12.0780194371">
>>>>>>> e1d4bc35ff8a6074a6f2e91616a996b547c36f15
		<tag k="name" v="Stormyra" />
		<tag k="natural" v="wetland" />
		<tag k="ssr:stedsnr" v="804659" />
	</node>
<<<<<<< HEAD
	<node lat="64.91979166867328" lon="12.219861103253436" id="-39918">
		<tag k="name" v="Litl-Nesenget" />
=======
	<node id="-829456" lat="64.9730444419" lon="12.0658305458">
		<tag k="name" v="Stakkmyra" />
>>>>>>> e1d4bc35ff8a6074a6f2e91616a996b547c36f15
		<tag k="natural" v="wetland" />
		<tag k="ssr:stedsnr" v="818179" />
	</node>
<<<<<<< HEAD
	<node lat="64.8000222220592" lon="11.881172221997232" id="-39922">
		<tag k="name" v="Firhunderen" />
		<tag k="place" v="locality" />
		<tag k="ssr:stedsnr" v="832005" />
	</node>
	<node lat="64.81086944029721" lon="11.407838881374033" id="-39923">
		<tag k="name" v="Stormomyra" />
		<tag k="natural" v="wetland" />
		<tag k="ssr:stedsnr" v="833106" />
	</node>
	<node lat="64.9141277783324" lon="11.701763880724409" id="-39947">
		<tag k="name" v="Lonmyrå" />
		<tag k="natural" v="wetland" />
		<tag k="ssr:stedsnr" v="836692" />
	</node>
	<node lat="64.9486277773965" lon="11.42340001004009" id="-39969">
		<tag k="name" v="Feskjivågmyrå" />
		<tag k="natural" v="wetland" />
		<tag k="ssr:stedsnr" v="839505" />
	</node>
	<node lat="64.92500277759666" lon="12.02415555052628" id="-39984">
		<tag k="name" v="Nesasetran" />
		<tag k="place" v="locality" />
		<tag k="ssr:stedsnr" v="841789" />
	</node>
	<node lat="64.95508333253238" lon="11.93410278034469" id="-39988">
		<tag k="name" v="Olavssetran" />
		<tag k="place" v="locality" />
		<tag k="ssr:stedsnr" v="841882" />
	</node>
	<node lat="64.88395000062123" lon="11.460599999617871" id="-40024">
		<tag k="name" v="Peenget" />
		<tag k="place" v="locality" />
		<tag k="ssr:stedsnr" v="925143" />
	</node>
	<node lat="64.91150000426995" lon="11.799455552015306" id="-40056">
		<tag k="name" v="Stormyra" />
		<tag k="natural" v="wetland" />
		<tag k="ssr:stedsnr" v="925563" />
	</node>
	<node lat="64.81852777378187" lon="11.818752778889435" id="-40193">
		<tag k="historic" v="shieling" />
		<tag k="name" v="Setersetran" />
		<tag k="place" v="locality" />
		<tag k="ssr:stedsnr" v="893027" />
	</node>
	<node lat="64.86456388917934" lon="11.514705552687303" id="-40206">
		<tag k="name" v="Leirmoen" />
		<tag k="place" v="locality" />
		<tag k="ssr:stedsnr" v="893974" />
	</node>
	<node lat="64.87732221906627" lon="11.440988888009551" id="-40215">
		<tag k="name" v="Runghaugmyrå" />
		<tag k="natural" v="wetland" />
		<tag k="ssr:stedsnr" v="894457" />
	</node>
	<node lat="64.81359999551948" lon="11.17477500386227" id="-40233">
		<tag k="landuse" v="meadow" />
		<tag k="name" v="Frukostenget" />
		<tag k="ssr:stedsnr" v="897272" />
	</node>
	<node lat="64.98691944468766" lon="12.071288890126363" id="-40266">
		<tag k="name" v="Tverrakselsetran" />
		<tag k="place" v="locality" />
		<tag k="ssr:stedsnr" v="902801" />
=======
	<node id="-829967" lat="64.9629694425" lon="12.1991999951">
		<tag k="name" v="Enget" />
		<tag k="place" v="locality" />
		<tag k="ssr:stedsnr" v="695317" />
	</node>
	<node id="-830129" lat="64.8271888934" lon="11.5994777726">
		<tag k="name" v="Trinehaugen" />
		<tag k="place" v="locality" />
		<tag k="ssr:stedsnr" v="590054" />
	</node>
	<node id="-829442" lat="64.9699972249" lon="12.1700611086">
		<tag k="name" v="Valåsmyra" />
		<tag k="natural" v="wetland" />
		<tag k="ssr:stedsnr" v="513323" />
	</node>
	<node id="-829953" lat="64.8756499965" lon="11.378702779">
		<tag k="name" v="Bidalsmyra" />
		<tag k="natural" v="wetland" />
		<tag k="ssr:stedsnr" v="694888" />
>>>>>>> e1d4bc35ff8a6074a6f2e91616a996b547c36f15
	</node>
</osm>
