<?xml version="1.0" encoding="UTF-8"?>
<osm generator="osmapis" version="0.6">
	<node id="-831475" lat="65.0018694432" lon="11.9645166605">
		<tag k="loc_name" v="Hundtjønna" />
		<tag k="name" v="Trollvatnet" />
		<tag k="natural" v="water" />
		<tag k="ssr:stedsnr" v="15198" />
	</node>
	<node id="-829425" lat="64.9104527813" lon="11.2089638839">
		<tag k="name" v="Grønntjønna" />
		<tag k="natural" v="water" />
		<tag k="ssr:stedsnr" v="412275" />
		<tag k="water" v="pond" />
	</node>
	<node id="-831465" lat="64.8940305523" lon="11.4534888876">
		<tag k="name" v="Søråvatnet" />
		<tag k="natural" v="water" />
		<tag k="ssr:stedsnr" v="15098" />
		<tag k="water" v="lake" />
	</node>
	<node id="-829414" lat="65.0502472232" lon="11.8352805518">
		<tag k="name" v="Seterlibekken" />
		<tag k="ssr:stedsnr" v="411414" />
		<tag k="waterway" v="stream" />
	</node>
	<node id="-831461" lat="64.9232027773" lon="11.5278833374">
		<tag k="name" v="Væremsvatnet" />
		<tag k="natural" v="water" />
		<tag k="ssr:stedsnr" v="15024" />
	</node>
	<node id="-831431" lat="64.9516250011" lon="11.7259249939">
		<tag k="fixme" v="multiple name tags, choose one and add the other to alt_name" />
		<tag k="name" v="Djupvikvatnet;Juviktjønna" />
		<tag k="natural" v="water" />
		<tag k="ssr:stedsnr" v="14475" />
	</node>
	<node id="-831421" lat="64.9225805552" lon="11.2119805568">
		<tag k="name" v="Sandhalsvatnet" />
		<tag k="natural" v="water" />
		<tag k="ssr:stedsnr" v="14547" />
	</node>
	<node id="-829372" lat="64.8560055525" lon="11.1700055587">
		<tag k="name" v="Merratjønna" />
		<tag k="natural" v="water" />
		<tag k="ssr:stedsnr" v="391468" />
	</node>
	<node id="-831413" lat="64.8270249977" lon="11.3084000029">
		<tag k="name" v="Staverengvatnet" />
		<tag k="natural" v="water" />
		<tag k="ssr:stedsnr" v="14212" />
	</node>
	<node id="-831412" lat="64.8305444447" lon="11.5593527768">
		<tag k="alt_name" v="Kvennbekken" />
		<tag k="name" v="Kvernbekken" />
		<tag k="ssr:stedsnr" v="14209" />
		<tag k="waterway" v="stream" />
	</node>
	<node id="-831411" lat="64.8353361144" lon="11.4221416766">
		<tag k="name" v="Lisetjønnin" />
		<tag k="natural" v="water" />
		<tag k="ssr:stedsnr" v="14208" />
	</node>
	<node id="-831406" lat="64.8779472194" lon="11.3758805454">
		<tag k="name" v="Gorrtjønna" />
		<tag k="natural" v="water" />
		<tag k="ssr:stedsnr" v="14078" />
	</node>
	<node id="-831402" lat="65.0151111106" lon="11.8663694395">
		<tag k="alt_name" v="Bjørndalsvatnet" />
		<tag k="name" v="Bjønndalsvatnet" />
		<tag k="natural" v="water" />
		<tag k="ssr:stedsnr" v="14151" />
	</node>
	<node id="-829352" lat="64.9234249963" lon="11.8658416627">
		<tag k="name" v="Haugaelva" />
		<tag k="ssr:stedsnr" v="390002" />
		<tag k="waterway" v="stream" />
	</node>
	<node id="-831399" lat="64.9094388881" lon="11.6041805649">
		<tag k="name" v="Lomstjønna" />
		<tag k="natural" v="water" />
		<tag k="ssr:stedsnr" v="14040" />
	</node>
	<node id="-829332" lat="64.9112638904" lon="12.2605833243">
		<tag k="name" v="Fiskløysa" />
		<tag k="natural" v="water" />
		<tag k="ssr:stedsnr" v="500828" />
	</node>
	<node id="-831379" lat="64.9810972188" lon="11.8567222272">
		<tag k="name" v="Åsabekken" />
		<tag k="ssr:stedsnr" v="957330" />
		<tag k="waterway" v="stream" />
	</node>
	<node id="-831373" lat="64.9317305519" lon="11.328722226">
		<tag k="name" v="Nordvatnet" />
		<tag k="natural" v="water" />
		<tag k="ssr:stedsnr" v="938469" />
		<tag k="water" v="lake" />
	</node>
	<node id="-831364" lat="64.9691805539" lon="12.1514083419">
		<tag k="name" v="Sagelva" />
		<tag k="ssr:stedsnr" v="938306" />
		<tag k="waterway" v="river" />
	</node>
	<node id="-831363" lat="64.9680722182" lon="12.2419611118">
		<tag k="name" v="Langtjønna" />
		<tag k="natural" v="water" />
		<tag k="ssr:stedsnr" v="938303" />
	</node>
	<node id="-829311" lat="64.9849666679" lon="11.9416027712">
		<tag k="name" v="Langtjønna" />
		<tag k="natural" v="water" />
		<tag k="ssr:stedsnr" v="500729" />
	</node>
	<node id="-829309" lat="64.9903694443" lon="11.8415500022">
		<tag k="name" v="Kilsdalsvatnet" />
		<tag k="natural" v="water" />
		<tag k="ssr:stedsnr" v="500727" />
		<tag k="water" v="lake" />
	</node>
	<node id="-831356" lat="64.8818249982" lon="11.3736138871">
		<tag k="name" v="Stikkfjelltjønna" />
		<tag k="natural" v="water" />
		<tag k="ssr:stedsnr" v="937912" />
	</node>
	<node id="-829299" lat="64.861525003" lon="12.1545805617">
		<tag k="name" v="Stordalsbekken" />
		<tag k="ssr:stedsnr" v="500990" />
		<tag k="waterway" v="stream" />
	</node>
	<node id="-829297" lat="64.8738416639" lon="11.7918777778">
		<tag k="name" v="Taklivatnet" />
		<tag k="natural" v="water" />
		<tag k="ssr:stedsnr" v="500976" />
		<tag k="water" v="lake" />
	</node>
	<node id="-829294" lat="64.8252305566" lon="11.9260444433">
		<tag k="name" v="Liavasselva" />
		<tag k="ssr:stedsnr" v="500970" />
		<tag k="waterway" v="river" />
	</node>
	<node id="-829284" lat="64.9384638903" lon="11.754588899">
		<tag k="name" v="Kattuvbekken" />
		<tag k="ssr:stedsnr" v="500641" />
		<tag k="waterway" v="stream" />
	</node>
	<node id="-829271" lat="64.9047027802" lon="12.1174611166">
		<tag k="name" v="Setertjønna" />
		<tag k="natural" v="water" />
		<tag k="ssr:stedsnr" v="500608" />
	</node>
	<node id="-831318" lat="64.9543583378" lon="11.8992527713">
		<tag k="name" v="Haltustjønna" />
		<tag k="natural" v="water" />
		<tag k="ssr:stedsnr" v="902910" />
	</node>
	<node id="-829269" lat="64.9487861072" lon="11.0164361184">
		<tag k="name" v="Hasfjordvatnet" />
		<tag k="natural" v="water" />
		<tag k="ssr:stedsnr" v="500603" />
		<tag k="water" v="lake" />
	</node>
	<node id="-831316" lat="65.0622805554" lon="11.9559722269">
		<tag k="name" v="Ådalsbekken" />
		<tag k="ssr:stedsnr" v="902852" />
		<tag k="waterway" v="stream" />
	</node>
	<node id="-831314" lat="65.0593916687" lon="12.0081527882">
		<tag k="name" v="Løken" />
		<tag k="natural" v="water" />
		<tag k="ssr:stedsnr" v="902316" />
		<tag k="water" v="lake" />
	</node>
	<node id="-829265" lat="64.885377781" lon="12.0154388969">
		<tag k="name" v="Kjøkentjønnin" />
		<tag k="natural" v="water" />
		<tag k="ssr:stedsnr" v="500595" />
	</node>
	<node id="-829264" lat="64.8873694402" lon="11.9675138862">
		<tag k="name" v="Storvatnet" />
		<tag k="natural" v="water" />
		<tag k="ssr:stedsnr" v="500594" />
		<tag k="water" v="lake" />
	</node>
	<node id="-829262" lat="64.8775527777" lon="11.7793555654">
		<tag k="name" v="Skardmovatnet" />
		<tag k="natural" v="water" />
		<tag k="ssr:stedsnr" v="500583" />
	</node>
	<node id="-831308" lat="65.0196666646" lon="11.668969442">
		<tag k="name" v="Vattaviktjønna" />
		<tag k="natural" v="water" />
		<tag k="ssr:stedsnr" v="897968" />
	</node>
	<node id="-831303" lat="64.9629999993" lon="11.6419861048">
		<tag k="name" v="Øyrsnørtjønnin" />
		<tag k="natural" v="water" />
		<tag k="ssr:stedsnr" v="897777" />
	</node>
	<node id="-831300" lat="64.9668694411" lon="11.0284194492">
		<tag k="name" v="Lomtjønna" />
		<tag k="natural" v="water" />
		<tag k="ssr:stedsnr" v="897625" />
	</node>
	<node id="-831293" lat="64.8658694459" lon="11.1168055492">
		<tag k="name" v="Fjilltjønna" />
		<tag k="natural" v="water" />
		<tag k="ssr:stedsnr" v="897556" />
	</node>
	<node id="-829241" lat="64.8197777736" lon="11.2912111038">
		<tag k="alt_name" v="Nyheimlonet" />
		<tag k="name" v="Nyheimslonet" />
		<tag k="natural" v="water" />
		<tag k="ssr:stedsnr" v="500347" />
	</node>
	<node id="-831286" lat="64.8754194424" lon="11.1341222321">
		<tag k="name" v="Reittjønna" />
		<tag k="natural" v="water" />
		<tag k="ssr:stedsnr" v="897257" />
	</node>
	<node id="-831279" lat="64.8863277775" lon="10.9841888928">
		<tag k="name" v="Kvennhusbekken" />
		<tag k="ssr:stedsnr" v="896913" />
		<tag k="waterway" v="stream" />
	</node>
	<node id="-831110" lat="64.9170388908" lon="12.0120999954">
		<tag k="name" v="Rundtjønna" />
		<tag k="natural" v="water" />
		<tag k="ssr:stedsnr" v="804561" />
	</node>
	<node id="-829215" lat="64.928805559" lon="11.5564111219">
		<tag k="name" v="Nubbelva" />
		<tag k="ssr:stedsnr" v="500032" />
		<tag k="waterway" v="stream" />
	</node>
	<node id="-831256" lat="64.8836000032" lon="11.4347916623">
		<tag k="name" v="Søråelva" />
		<tag k="ssr:stedsnr" v="864418" />
		<tag k="waterway" v="stream" />
	</node>
	<node id="-831252" lat="64.8396638894" lon="11.5513222241">
		<tag k="name" v="Skagatjønna" />
		<tag k="natural" v="water" />
		<tag k="ssr:stedsnr" v="864523" />
	</node>
	<node id="-831251" lat="64.8445111143" lon="11.5399666609">
		<tag k="name" v="Svarttjønna" />
		<tag k="natural" v="water" />
		<tag k="ssr:stedsnr" v="864519" />
	</node>
	<node id="-829198" lat="64.9011916656" lon="11.3693944509">
		<tag k="name" v="Juvikbekken" />
		<tag k="ssr:stedsnr" v="500099" />
		<tag k="waterway" v="stream" />
	</node>
	<node id="-831244" lat="64.8923333362" lon="12.1566111149">
		<tag k="name" v="Tinnaurvassbekken" />
		<tag k="ssr:stedsnr" v="841223" />
		<tag k="waterway" v="stream" />
	</node>
	<node id="-831243" lat="65.0373777755" lon="12.0279194392">
		<tag k="name" v="Brannvatnet" />
		<tag k="natural" v="water" />
		<tag k="ssr:stedsnr" v="841310" />
	</node>
	<node id="-831241" lat="65.0295972203" lon="12.0343722275">
		<tag k="name" v="Sandbukta" />
		<tag k="natural" v="bay" />
		<tag k="ssr:stedsnr" v="841305" />
	</node>
	<node id="-831238" lat="64.9137027744" lon="12.2461222243">
		<tag k="name" v="Langmyrtjønna" />
		<tag k="natural" v="water" />
		<tag k="ssr:stedsnr" v="939200" />
	</node>
	<node id="-831237" lat="64.9112972217" lon="12.2241722173">
		<tag k="name" v="Vester Reinbenktjønna" />
		<tag k="natural" v="water" />
		<tag k="ssr:stedsnr" v="939199" />
	</node>
	<node id="-828714" lat="64.9018305517" lon="11.8325861152">
		<tag k="name" v="Lassemotjønna" />
		<tag k="natural" v="water" />
		<tag k="ssr:stedsnr" v="451268" />
	</node>
	<node id="-831222" lat="64.9060222234" lon="11.1956583437">
		<tag k="name" v="Middagsfjellvatnet" />
		<tag k="natural" v="water" />
		<tag k="ssr:stedsnr" v="837309" />
	</node>
	<node id="-831198" lat="64.9400527776" lon="11.548891667">
		<tag k="name" v="Lauvhattjønna" />
		<tag k="natural" v="water" />
		<tag k="ssr:stedsnr" v="836180" />
	</node>
	<node id="-829149" lat="64.8770111121" lon="11.506311102">
		<tag k="name" v="Fossen" />
		<tag k="natural" v="waterfall" />
		<tag k="ssr:stedsnr" v="350421" />
	</node>
	<node id="-831196" lat="64.932861114" lon="12.0401194532">
		<tag k="name" v="Kovaråbekken" />
		<tag k="ssr:stedsnr" v="938354" />
		<tag k="waterway" v="stream" />
	</node>
	<node id="-831189" lat="64.8301972252" lon="11.1985527689">
		<tag k="name" v="Skeielva" />
		<tag k="ssr:stedsnr" v="937968" />
		<tag k="waterway" v="stream" />
	</node>
	<node id="-831188" lat="64.9308555517" lon="11.5952527805">
		<tag k="name" v="Kjerstidikjet" />
		<tag k="ssr:stedsnr" v="834175" />
		<tag k="waterway" v="stream" />
	</node>
	<node id="-829139" lat="64.8148583365" lon="11.2838749985">
		<tag k="name" v="Tesillonet" />
		<tag k="natural" v="water" />
		<tag k="ssr:stedsnr" v="347173" />
		<tag k="water" v="lake" />
	</node>
	<node id="-829138" lat="64.8429333356" lon="11.4439722287">
		<tag k="name" v="Sauvika" />
		<tag k="natural" v="bay" />
		<tag k="ssr:stedsnr" v="347110" />
	</node>
	<node id="-829124" lat="64.8142805592" lon="11.8875111167">
		<tag k="name" v="Oterbekken" />
		<tag k="ssr:stedsnr" v="346025" />
		<tag k="waterway" v="stream" />
	</node>
	<node id="-829123" lat="64.8067305516" lon="11.7964305554">
		<tag k="name" v="Grovdalstjønna" />
		<tag k="natural" v="water" />
		<tag k="ssr:stedsnr" v="346024" />
	</node>
	<node id="-829122" lat="64.8085361078" lon="11.8583027704">
		<tag k="name" v="Oppløybekken" />
		<tag k="ssr:stedsnr" v="346021" />
		<tag k="waterway" v="stream" />
	</node>
	<node id="-831169" lat="64.8795111126" lon="11.67009444">
		<tag k="name" v="Lomtjønna" />
		<tag k="natural" v="water" />
		<tag k="ssr:stedsnr" v="936047" />
	</node>
	<node id="-829090" lat="64.8615222181" lon="11.3042833239">
		<tag k="name" v="Fagervollbekken" />
		<tag k="ssr:stedsnr" v="330927" />
		<tag k="waterway" v="stream" />
	</node>
	<node id="-829721" lat="65.0503750019" lon="11.8498527704">
		<tag k="alt_name" v="Vardtjørna" />
		<tag k="name" v="Vardtjønna" />
		<tag k="natural" v="water" />
		<tag k="ssr:stedsnr" v="682142" />
	</node>
	<node id="-831123" lat="64.8396833316" lon="11.9522138945">
		<tag k="name" v="Liafossen" />
		<tag k="natural" v="waterfall" />
		<tag k="ssr:stedsnr" v="804958" />
	</node>
	<node id="-831122" lat="64.8462555546" lon="12.1832444376">
		<tag k="name" v="Leirdamman" />
		<tag k="natural" v="water" />
		<tag k="ssr:stedsnr" v="804955" />
	</node>
	<node id="-831114" lat="64.9278611103" lon="11.7202305518">
		<tag k="name" v="Tverråa" />
		<tag k="ssr:stedsnr" v="804577" />
		<tag k="waterway" v="stream" />
	</node>
	<node id="-831113" lat="64.9352055556" lon="12.0988388846">
		<tag k="name" v="Storskardlitjønna" />
		<tag k="natural" v="water" />
		<tag k="ssr:stedsnr" v="804571" />
	</node>
	<node id="-829062" lat="64.9501666685" lon="11.8678083394">
		<tag k="alt_name" v="Haltusvatnet" />
		<tag k="name" v="Haltussvatnet" />
		<tag k="natural" v="water" />
		<tag k="ssr:stedsnr" v="318605" />
	</node>
	<node id="-829061" lat="64.9200972238" lon="11.0317111103">
		<tag k="name" v="Jostakktjønna" />
		<tag k="natural" v="water" />
		<tag k="ssr:stedsnr" v="318604" />
	</node>
	<node id="-827670" lat="64.9110258779" lon="11.6516933082">
		<tag k="alt_name" v="Vestre Blåvatnet" />
		<tag k="name" v="Blåvatnet" />
		<tag k="natural" v="water" />
		<tag k="old_name" v="Blåvatnet, vestre" />
		<tag k="ssr:stedsnr" v="14037" />
		<tag k="water" v="lake" />
	</node>
	<node id="-831103" lat="65.0428750006" lon="11.943774994">
		<tag k="name" v="Mellavatnet" />
		<tag k="natural" v="water" />
		<tag k="ssr:stedsnr" v="804154" />
	</node>
	<node id="-829054" lat="64.9214333363" lon="11.8129777823">
		<tag k="name" v="Rokkelva" />
		<tag k="ssr:stedsnr" v="318553" />
		<tag k="waterway" v="stream" />
	</node>
	<node id="-829039" lat="64.9579888915" lon="11.7465749903">
		<tag k="name" v="Aunvatnet" />
		<tag k="natural" v="water" />
		<tag k="ssr:stedsnr" v="317559" />
	</node>
	<node id="-829034" lat="64.9298083373" lon="10.9762888822">
		<tag k="name" v="Brattlivatnet" />
		<tag k="natural" v="water" />
		<tag k="ssr:stedsnr" v="317452" />
	</node>
	<node id="-829026" lat="64.7757611091" lon="11.9084333316">
		<tag k="name" v="Skiftesåa" />
		<tag k="ssr:stedsnr" v="474096" />
		<tag k="waterway" v="stream" />
	</node>
	<node id="-829024" lat="64.798849998" lon="11.7727583358">
		<tag k="name" v="Mevågtjønna" />
		<tag k="natural" v="water" />
		<tag k="ssr:stedsnr" v="474060" />
	</node>
	<node id="-831071" lat="65.0094194441" lon="11.8104749989">
		<tag k="name" v="Kilsvatnet" />
		<tag k="natural" v="water" />
		<tag k="ssr:stedsnr" v="803188" />
	</node>
	<node id="-831070" lat="65.0084583364" lon="11.9000472205">
		<tag k="alt_name" v="Sætertjørna" />
		<tag k="name" v="Sætertjønna" />
		<tag k="natural" v="water" />
		<tag k="ssr:stedsnr" v="803187" />
	</node>
	<node id="-831062" lat="64.9372138874" lon="11.677269445">
		<tag k="name" v="Strandavatnet" />
		<tag k="natural" v="water" />
		<tag k="ssr:stedsnr" v="803205" />
	</node>
	<node id="-831055" lat="64.8800749972" lon="12.033311119">
		<tag k="name" v="Fuglvatnet" />
		<tag k="natural" v="water" />
		<tag k="ssr:stedsnr" v="925981" />
	</node>
	<node id="-829006" lat="64.940438887" lon="11.1015750048">
		<tag k="name" v="Smiådalsbekken" />
		<tag k="ssr:stedsnr" v="472685" />
		<tag k="waterway" v="stream" />
	</node>
	<node id="-831046" lat="64.8403333309" lon="12.1233805455">
		<tag k="name" v="Nordre Nevertjønna" />
		<tag k="natural" v="water" />
		<tag k="ssr:stedsnr" v="925958" />
	</node>
	<node id="-828995" lat="64.9815277745" lon="11.8118916751">
		<tag k="name" v="Bjørgodden" />
		<tag k="natural" v="cape" />
		<tag k="ssr:stedsnr" v="472331" />
	</node>
	<node id="-831041" lat="64.8931777771" lon="11.1682277756">
		<tag k="name" v="Årlivatnet" />
		<tag k="natural" v="water" />
		<tag k="ssr:stedsnr" v="925948" />
	</node>
	<node id="-828991" lat="64.9123027808" lon="11.1891555527">
		<tag k="name" v="Laugen" />
		<tag k="natural" v="water" />
		<tag k="ssr:stedsnr" v="472245" />
	</node>
	<node id="-831030" lat="64.954338892" lon="12.3878749929">
		<tag k="alt_name" v="Simontjørna" />
		<tag k="name" v="Simontjønna" />
		<tag k="natural" v="water" />
		<tag k="ssr:stedsnr" v="925875" />
	</node>
	<node id="-828980" lat="64.9930444426" lon="11.7934555483">
		<tag k="name" v="Kvennhusbekken" />
		<tag k="ssr:stedsnr" v="471581" />
		<tag k="waterway" v="stream" />
	</node>
	<node id="-828979" lat="65.0449666667" lon="11.8069416608">
		<tag k="name" v="Hellerselva" />
		<tag k="ssr:stedsnr" v="471470" />
		<tag k="waterway" v="stream" />
	</node>
	<node id="-828949" lat="64.8577999966" lon="11.6194611099">
		<tag k="name" v="Øyraelva" />
		<tag k="ssr:stedsnr" v="468079" />
		<tag k="waterway" v="river" />
	</node>
	<node id="-830996" lat="64.9730916697" lon="12.0202500084">
		<tag k="name" v="Borkamoelva" />
		<tag k="ssr:stedsnr" v="925687" />
		<tag k="waterway" v="stream" />
	</node>
	<node id="-828943" lat="64.754124999" lon="11.367530546">
		<tag k="name" v="Storvatnet" />
		<tag k="natural" v="water" />
		<tag k="ssr:stedsnr" v="468151" />
		<tag k="water" v="lake" />
	</node>
	<node id="-830990" lat="64.9198694473" lon="10.9319444514">
		<tag k="name" v="Austafjordvatnet" />
		<tag k="natural" v="water" />
		<tag k="ssr:stedsnr" v="925671" />
	</node>
	<node id="-830981" lat="64.9244999994" lon="11.0522027697">
		<tag k="name" v="Osplivatnet" />
		<tag k="natural" v="water" />
		<tag k="ssr:stedsnr" v="925637" />
	</node>
	<node id="-830968" lat="64.9312444487" lon="11.7793361113">
		<tag k="name" v="Langdalstjønna" />
		<tag k="natural" v="water" />
		<tag k="ssr:stedsnr" v="925581" />
	</node>
	<node id="-828918" lat="64.9761805579" lon="11.0799499917">
		<tag k="name" v="Borgonbekken" />
		<tag k="ssr:stedsnr" v="290622" />
		<tag k="waterway" v="stream" />
	</node>
	<node id="-830963" lat="64.8803694471" lon="11.8562361195">
		<tag k="name" v="Olaholdalsbekken" />
		<tag k="ssr:stedsnr" v="925547" />
		<tag k="waterway" v="stream" />
	</node>
	<node id="-830959" lat="64.8450305597" lon="11.4640861159">
		<tag k="fixme" v="multiple name tags, choose one and add the other to alt_name" />
		<tag k="name" v="Naklingvatnet;Rotvikvatnet" />
		<tag k="natural" v="water" />
		<tag k="ssr:stedsnr" v="925524" />
		<tag k="water" v="lake" />
	</node>
	<node id="-830952" lat="64.8540833362" lon="11.3541500082">
		<tag k="name" v="Vestervatnet" />
		<tag k="natural" v="water" />
		<tag k="ssr:stedsnr" v="925492" />
	</node>
	<node id="-830948" lat="64.8664138872" lon="11.2994055567">
		<tag k="name" v="Kvernhusvatnet" />
		<tag k="natural" v="water" />
		<tag k="ssr:stedsnr" v="925466" />
	</node>
	<node id="-830943" lat="64.8766944421" lon="11.474677788">
		<tag k="name" v="Lomtjønnin" />
		<tag k="natural" v="water" />
		<tag k="ssr:stedsnr" v="925424" />
	</node>
	<node id="-830920" lat="64.9272750006" lon="11.6901611213">
		<tag k="name" v="Bjørklivatnet" />
		<tag k="natural" v="water" />
		<tag k="ssr:stedsnr" v="925262" />
	</node>
	<node id="-828854" lat="64.9509305544" lon="12.277686113">
		<tag k="name" v="Stiengbekken" />
		<tag k="ssr:stedsnr" v="270274" />
		<tag k="waterway" v="stream" />
	</node>
	<node id="-827977" lat="65.0128611122" lon="11.9239888899">
		<tag k="name" v="Stongvatna" />
		<tag k="natural" v="water" />
		<tag k="ssr:stedsnr" v="257188" />
	</node>
	<node id="-830900" lat="65.0361333335" lon="11.9886833338">
		<tag k="name" v="Svartvatnet" />
		<tag k="natural" v="water" />
		<tag k="ssr:stedsnr" v="925148" />
	</node>
	<node id="-830896" lat="64.8811444461" lon="11.3613944474">
		<tag k="name" v="Bidalsvatnet" />
		<tag k="natural" v="water" />
		<tag k="ssr:stedsnr" v="925124" />
	</node>
	<node id="-830892" lat="64.8858833296" lon="11.7152000047">
		<tag k="name" v="Grøtåa" />
		<tag k="ssr:stedsnr" v="925107" />
		<tag k="waterway" v="stream" />
	</node>
	<node id="-828842" lat="64.8946250012" lon="11.8450166644">
		<tag k="name" v="Middagsmarkvatnet" />
		<tag k="natural" v="water" />
		<tag k="ssr:stedsnr" v="269262" />
		<tag k="water" v="lake" />
	</node>
	<node id="-828841" lat="64.8903916689" lon="11.819230547">
		<tag k="name" v="Jutuldalsbekken" />
		<tag k="ssr:stedsnr" v="269254" />
		<tag k="waterway" v="stream" />
	</node>
	<node id="-830887" lat="64.9057999969" lon="11.2428805586">
		<tag k="name" v="Sildnestjønna" />
		<tag k="natural" v="water" />
		<tag k="ssr:stedsnr" v="925077" />
	</node>
	<node id="-830885" lat="64.9102916658" lon="11.5364166575">
		<tag k="name" v="Strandavatnet" />
		<tag k="natural" v="water" />
		<tag k="ssr:stedsnr" v="925069" />
	</node>
	<node id="-830883" lat="64.9029833307" lon="11.4976694486">
		<tag k="name" v="Vikavatnet" />
		<tag k="natural" v="water" />
		<tag k="ssr:stedsnr" v="925057" />
	</node>
	<node id="-830879" lat="64.9167388899" lon="11.4477611054">
		<tag k="name" v="Eidshaugvatnet" />
		<tag k="natural" v="water" />
		<tag k="ssr:stedsnr" v="925016" />
		<tag k="water" v="lake" />
	</node>
	<node id="-828821" lat="64.8948416666" lon="12.2995888972">
		<tag k="alt_name" v="Stortjørna" />
		<tag k="name" v="Stortjønna" />
		<tag k="natural" v="water" />
		<tag k="ssr:stedsnr" v="257855" />
	</node>
	<node id="-828814" lat="64.8415638904" lon="12.1147444549">
		<tag k="name" v="Finnperelva" />
		<tag k="ssr:stedsnr" v="257956" />
		<tag k="waterway" v="stream" />
	</node>
	<node id="-830859" lat="64.7684944459" lon="11.8392055637">
		<tag k="name" v="Salviktjønna" />
		<tag k="natural" v="water" />
		<tag k="ssr:stedsnr" v="924841" />
	</node>
	<node id="-828810" lat="64.7881944423" lon="11.9022777753">
		<tag k="name" v="Langvassbekken" />
		<tag k="ssr:stedsnr" v="257917" />
		<tag k="waterway" v="stream" />
	</node>
	<node id="-830857" lat="64.8912250001" lon="12.2206888797">
		<tag k="alt_name" v="Murultjørna" />
		<tag k="name" v="Murrultjønna" />
		<tag k="natural" v="water" />
		<tag k="ssr:stedsnr" v="924785" />
	</node>
	<node id="-829647" lat="65.0439361075" lon="11.8998444517">
		<tag k="name" v="Kvernaelva" />
		<tag k="ssr:stedsnr" v="500146" />
		<tag k="waterway" v="stream" />
	</node>
	<node id="-828793" lat="64.9603750007" lon="11.7875305641">
		<tag k="name" v="Angeltjønna" />
		<tag k="natural" v="water" />
		<tag k="ssr:stedsnr" v="257663" />
	</node>
	<node id="-830839" lat="64.8697611119" lon="11.9595416585">
		<tag k="name" v="Sørtjønna" />
		<tag k="natural" v="bay" />
		<tag k="ssr:stedsnr" v="779006" />
	</node>
	<node id="-830836" lat="64.9092305583" lon="11.2420250095">
		<tag k="name" v="Sildnessbekken" />
		<tag k="ssr:stedsnr" v="776278" />
		<tag k="waterway" v="stream" />
	</node>
	<node id="-830835" lat="64.8598555541" lon="11.0947861048">
		<tag k="name" v="Revstrandbekken" />
		<tag k="ssr:stedsnr" v="775890" />
		<tag k="waterway" v="stream" />
	</node>
	<node id="-828776" lat="64.9017944408" lon="11.9570138965">
		<tag k="name" v="Sandvatnet" />
		<tag k="natural" v="water" />
		<tag k="ssr:stedsnr" v="257572" />
		<tag k="water" v="lake" />
	</node>
	<node id="-828774" lat="64.889419441" lon="11.94432501">
		<tag k="name" v="Småvatna" />
		<tag k="natural" v="water" />
		<tag k="ssr:stedsnr" v="257562" />
	</node>
	<node id="-830821" lat="64.9908388847" lon="11.8435944374">
		<tag k="name" v="Fremmer Kilsdalsvatnet" />
		<tag k="natural" v="water" />
		<tag k="ssr:stedsnr" v="775320" />
	</node>
	<node id="-828772" lat="64.8878472238" lon="11.8434027792">
		<tag k="name" v="Merratjønna" />
		<tag k="natural" v="water" />
		<tag k="ssr:stedsnr" v="257559" />
	</node>
	<node id="-828770" lat="64.9398805522" lon="11.1117388859">
		<tag k="name" v="Smiådalsvatnet" />
		<tag k="natural" v="water" />
		<tag k="ssr:stedsnr" v="257552" />
	</node>
	<node id="-828752" lat="64.9332361117" lon="11.6722777851">
		<tag k="name" v="Rødsvatnet" />
		<tag k="natural" v="water" />
		<tag k="ssr:stedsnr" v="257257" />
	</node>
	<node id="-830790" lat="64.8751250006" lon="12.0652861182">
		<tag k="name" v="Åsvasselva" />
		<tag k="ssr:stedsnr" v="743974" />
		<tag k="waterway" v="river" />
	</node>
	<node id="-830789" lat="64.8698888863" lon="11.7948888794">
		<tag k="name" v="Taklivassbekken" />
		<tag k="ssr:stedsnr" v="743968" />
		<tag k="waterway" v="stream" />
	</node>
	<node id="-830788" lat="64.8278750004" lon="11.7770999928">
		<tag k="name" v="Svarttjønna" />
		<tag k="natural" v="water" />
		<tag k="ssr:stedsnr" v="743960" />
	</node>
	<node id="-830787" lat="64.8307583364" lon="11.8608249938">
		<tag k="name" v="Lornstjønna" />
		<tag k="natural" v="water" />
		<tag k="ssr:stedsnr" v="743958" />
	</node>
	<node id="-830784" lat="64.8144833369" lon="11.7332750073">
		<tag k="name" v="Bukkatjønna" />
		<tag k="natural" v="water" />
		<tag k="ssr:stedsnr" v="743913" />
	</node>
	<node id="-830783" lat="64.8115194433" lon="11.8869361186">
		<tag k="name" v="Oppløyelva" />
		<tag k="ssr:stedsnr" v="743906" />
		<tag k="waterway" v="river" />
	</node>
	<node id="-828733" lat="64.874288893" lon="11.2513555605">
		<tag k="name" v="Storvatnet" />
		<tag k="natural" v="water" />
		<tag k="ssr:stedsnr" v="452524" />
	</node>
	<node id="-828730" lat="64.8537777782" lon="11.1767583334">
		<tag k="name" v="Ryemselva" />
		<tag k="ssr:stedsnr" v="452464" />
		<tag k="waterway" v="river" />
	</node>
	<node id="-828726" lat="64.9507416673" lon="11.9950000065">
		<tag k="name" v="Lømobekken" />
		<tag k="ssr:stedsnr" v="452381" />
		<tag k="waterway" v="stream" />
	</node>
	<node id="-828723" lat="64.9672499984" lon="12.1557472164">
		<tag k="name" v="Litlåa" />
		<tag k="ssr:stedsnr" v="452289" />
		<tag k="waterway" v="stream" />
	</node>
	<node id="-828722" lat="64.9471972215" lon="12.3235222327">
		<tag k="name" v="Djupneset" />
		<tag k="natural" v="cape" />
		<tag k="ssr:stedsnr" v="452277" />
	</node>
	<node id="-830762" lat="64.9478166695" lon="12.0945333427">
		<tag k="name" v="Ånnviktjønna" />
		<tag k="natural" v="water" />
		<tag k="ssr:stedsnr" v="743578" />
	</node>
	<node id="-828712" lat="64.8973972238" lon="11.8419305516">
		<tag k="name" v="Harrtjønna" />
		<tag k="natural" v="water" />
		<tag k="ssr:stedsnr" v="451263" />
	</node>
	<node id="-830758" lat="64.9364194458" lon="11.7560111036">
		<tag k="name" v="Bergtjønna" />
		<tag k="natural" v="water" />
		<tag k="ssr:stedsnr" v="743565" />
	</node>
	<node id="-828706" lat="64.9429027745" lon="11.5070527718">
		<tag k="name" v="Petrabekken" />
		<tag k="ssr:stedsnr" v="451068" />
		<tag k="waterway" v="stream" />
	</node>
	<node id="-828699" lat="64.9130333329" lon="11.4533638882">
		<tag k="name" v="Blekkadalsbekken" />
		<tag k="ssr:stedsnr" v="450078" />
		<tag k="waterway" v="stream" />
	</node>
	<node id="-830746" lat="64.9322416685" lon="11.6043416654">
		<tag k="name" v="Torvhaugtjønna" />
		<tag k="natural" v="water" />
		<tag k="ssr:stedsnr" v="743267" />
	</node>
	<node id="-830726" lat="64.9797027766" lon="12.4519111215">
		<tag k="alt_name" v="Urdalstjørna" />
		<tag k="name" v="Urdalstjønna" />
		<tag k="natural" v="water" />
		<tag k="ssr:stedsnr" v="742805" />
	</node>
	<node id="-828672" lat="64.9943805517" lon="11.6488500099">
		<tag k="name" v="Tømmervikbekken" />
		<tag k="ssr:stedsnr" v="229870" />
		<tag k="waterway" v="stream" />
	</node>
	<node id="-830710" lat="64.9185694476" lon="11.4642805576">
		<tag k="name" v="Blåfjellvatnet" />
		<tag k="natural" v="water" />
		<tag k="ssr:stedsnr" v="742013" />
	</node>
	<node id="-830708" lat="64.9184749979" lon="11.2958694348">
		<tag k="name" v="Sørvatnet" />
		<tag k="natural" v="water" />
		<tag k="ssr:stedsnr" v="742004" />
	</node>
	<node id="-828659" lat="64.9951111119" lon="11.7140750031">
		<tag k="name" v="Angeltrappen" />
		<tag k="natural" v="cape" />
		<tag k="ssr:stedsnr" v="229509" />
	</node>
	<node id="-828658" lat="64.9851972263" lon="11.8409222309">
		<tag k="name" v="Dalodden" />
		<tag k="natural" v="cape" />
		<tag k="ssr:stedsnr" v="229364" />
	</node>
	<node id="-828649" lat="64.8915333305" lon="11.5029777869">
		<tag k="name" v="Stordalsbekken" />
		<tag k="ssr:stedsnr" v="227374" />
		<tag k="waterway" v="stream" />
	</node>
	<node id="-828644" lat="64.8664888887" lon="12.1795777766">
		<tag k="name" v="Sandbukta" />
		<tag k="natural" v="bay" />
		<tag k="ssr:stedsnr" v="440987" />
	</node>
	<node id="-830691" lat="64.8330277816" lon="11.7651166644">
		<tag k="name" v="Urdbekken" />
		<tag k="ssr:stedsnr" v="900839" />
		<tag k="waterway" v="stream" />
	</node>
	<node id="-828639" lat="64.8154583339" lon="11.7274694542">
		<tag k="name" v="Guronesbekken" />
		<tag k="ssr:stedsnr" v="440910" />
		<tag k="waterway" v="stream" />
	</node>
	<node id="-828638" lat="64.8194055561" lon="11.9180555583">
		<tag k="name" v="Mjosundlendinga" />
		<tag k="place" v="locality" />
		<tag k="ssr:stedsnr" v="440908" />
	</node>
	<node id="-828637" lat="64.8252444432" lon="12.0106444357">
		<tag k="alt_name" v="Taraldsbekken" />
		<tag k="name" v="Taraldslættelva" />
		<tag k="ssr:stedsnr" v="440904" />
		<tag k="waterway" v="stream" />
	</node>
	<node id="-828623" lat="65.0256000006" lon="12.0411277749">
		<tag k="name" v="Storvåvatnet" />
		<tag k="natural" v="water" />
		<tag k="ssr:stedsnr" v="440191" />
		<tag k="water" v="lake" />
	</node>
	<node id="-830680" lat="64.7773083373" lon="11.915483327">
		<tag k="name" v="Mevassodden" />
		<tag k="natural" v="cape" />
		<tag k="ssr:stedsnr" v="899118" />
	</node>
	<node id="-830671" lat="65.0383222244" lon="11.790494452">
		<tag k="name" v="Joengfossen" />
		<tag k="natural" v="waterfall" />
		<tag k="ssr:stedsnr" v="897929" />
	</node>
	<node id="-828622" lat="65.0322666677" lon="11.869827771">
		<tag k="name" v="Lundsengelva" />
		<tag k="ssr:stedsnr" v="440188" />
		<tag k="waterway" v="stream" />
	</node>
	<node id="-830665" lat="64.9018944404" lon="10.8855388807">
		<tag k="name" v="Okstjønna" />
		<tag k="natural" v="water" />
		<tag k="ssr:stedsnr" v="897805" />
	</node>
	<node id="-828609" lat="64.8746305575" lon="11.7530111078">
		<tag k="name" v="Fjellvatnet" />
		<tag k="natural" v="water" />
		<tag k="ssr:stedsnr" v="439972" />
	</node>
	<node id="-830654" lat="64.9111444489" lon="11.022141664">
		<tag k="name" v="Valdskifttjønna" />
		<tag k="natural" v="water" />
		<tag k="ssr:stedsnr" v="897532" />
	</node>
	<node id="-828601" lat="64.8570444465" lon="11.1942916581">
		<tag k="name" v="Klumpavatnet" />
		<tag k="natural" v="water" />
		<tag k="ssr:stedsnr" v="439951" />
	</node>
	<node id="-828597" lat="64.9665749974" lon="12.2407777863">
		<tag k="alt_name" v="Kverntjørna" />
		<tag k="name" v="Kverntjønna" />
		<tag k="natural" v="water" />
		<tag k="ssr:stedsnr" v="439844" />
	</node>
	<node id="-828595" lat="64.890411112" lon="12.2451777767">
		<tag k="name" v="Kjøringsvatnet" />
		<tag k="natural" v="water" />
		<tag k="ssr:stedsnr" v="439827" />
		<tag k="water" v="lake" />
	</node>
	<node id="-828575" lat="64.9982055587" lon="12.1683083321">
		<tag k="name" v="Gjertrudelva" />
		<tag k="ssr:stedsnr" v="439678" />
		<tag k="waterway" v="stream" />
	</node>
	<node id="-828573" lat="64.9943055558" lon="11.9858750057">
		<tag k="name" v="Langtjønna" />
		<tag k="natural" v="water" />
		<tag k="ssr:stedsnr" v="439670" />
	</node>
	<node id="-828572" lat="64.9936527823" lon="11.9376333273">
		<tag k="name" v="Bogavatnet" />
		<tag k="natural" v="water" />
		<tag k="ssr:stedsnr" v="439665" />
		<tag k="water" v="lake" />
	</node>
	<node id="-828571" lat="64.9849361092" lon="12.0704638823">
		<tag k="name" v="Sjølstadelva" />
		<tag k="ssr:stedsnr" v="439661" />
		<tag k="waterway" v="river" />
	</node>
	<node id="-830617" lat="64.9211249965" lon="12.1167861165">
		<tag k="name" v="Svarttjønnelva" />
		<tag k="ssr:stedsnr" v="720843" />
		<tag k="waterway" v="stream" />
	</node>
	<node id="-828566" lat="64.9823583357" lon="11.8154805474">
		<tag k="name" v="Storvatnet" />
		<tag k="natural" v="water" />
		<tag k="ssr:stedsnr" v="439638" />
		<tag k="water" v="lake" />
	</node>
	<node id="-830613" lat="64.9919305543" lon="12.0776222232">
		<tag k="name" v="Strendern" />
		<tag k="natural" v="beach" />
		<tag k="ssr:stedsnr" v="720813" />
	</node>
	<node id="-828555" lat="64.9560777751" lon="11.9505055501">
		<tag k="name" v="Årforelva" />
		<tag k="ssr:stedsnr" v="439590" />
		<tag k="waterway" v="stream" />
	</node>
	<node id="-830601" lat="64.9844249978" lon="11.8472666719">
		<tag k="name" v="Kaukarodden" />
		<tag k="natural" v="cape" />
		<tag k="ssr:stedsnr" v="715386" />
	</node>
	<node id="-828547" lat="64.9094583324" lon="11.1455638898">
		<tag k="name" v="Lomtjønna" />
		<tag k="natural" v="water" />
		<tag k="ssr:stedsnr" v="439571" />
	</node>
	<node id="-828546" lat="64.9457833332" lon="11.7901611086">
		<tag k="name" v="Svanavatnet" />
		<tag k="natural" v="water" />
		<tag k="ssr:stedsnr" v="439564" />
	</node>
	<node id="-830583" lat="64.8213583296" lon="11.8060222242">
		<tag k="name" v="Peengbekken" />
		<tag k="ssr:stedsnr" v="711959" />
		<tag k="waterway" v="stream" />
	</node>
	<node id="-828532" lat="64.9288611116" lon="11.7959361025">
		<tag k="name" v="Storskardtjønnin" />
		<tag k="natural" v="water" />
		<tag k="ssr:stedsnr" v="439525" />
	</node>
	<node id="-830578" lat="64.8849888895" lon="11.4542583228">
		<tag k="name" v="Peengbekken" />
		<tag k="ssr:stedsnr" v="894455" />
		<tag k="waterway" v="stream" />
	</node>
	<node id="-828524" lat="64.9045944455" lon="12.2066638879">
		<tag k="name" v="Reinbenktjønna" />
		<tag k="natural" v="water" />
		<tag k="ssr:stedsnr" v="439489" />
	</node>
	<node id="-828523" lat="64.8752138931" lon="12.0358027752">
		<tag k="name" v="Fuglvasselva" />
		<tag k="ssr:stedsnr" v="439483" />
		<tag k="waterway" v="river" />
	</node>
	<node id="-828521" lat="64.853350004" lon="11.6150861143">
		<tag k="name" v="Øyrelva" />
		<tag k="ssr:stedsnr" v="439455" />
		<tag k="waterway" v="stream" />
	</node>
	<node id="-830538" lat="64.8107305528" lon="11.3651055526">
		<tag k="name" v="Varøyelva" />
		<tag k="ssr:stedsnr" v="893157" />
		<tag k="waterway" v="river" />
	</node>
	<node id="-830535" lat="64.7578388881" lon="11.3743416608">
		<tag k="name" v="Litlvatnet" />
		<tag k="natural" v="water" />
		<tag k="ssr:stedsnr" v="893149" />
		<tag k="water" v="lake" />
	</node>
	<node id="-830528" lat="64.8497277779" lon="11.4784416685">
		<tag k="name" v="Peholet" />
		<tag k="natural" v="bay" />
		<tag k="ssr:stedsnr" v="893105" />
	</node>
	<node id="-828474" lat="65.0637555532" lon="11.9917888938">
		<tag k="name" v="Langosbekken" />
		<tag k="ssr:stedsnr" v="295841" />
		<tag k="waterway" v="stream" />
	</node>
	<node id="-829620" lat="65.0224166678" lon="11.8492055605">
		<tag k="fixme" v="multiple name tags, choose one and add the other to alt_name" />
		<tag k="name" v="Kvernhusbekken;Nesaelva" />
		<tag k="ssr:stedsnr" v="499112" />
		<tag k="waterway" v="stream" />
	</node>
	<node id="-828464" lat="64.8597972248" lon="11.7926416632">
		<tag k="name" v="Storøya" />
		<tag k="place" v="island" />
		<tag k="ssr:stedsnr" v="293866" />
	</node>
	<node id="-828463" lat="64.8567694412" lon="11.7871861163">
		<tag k="name" v="Midterøya" />
		<tag k="place" v="island" />
		<tag k="ssr:stedsnr" v="293864" />
	</node>
	<node id="-828458" lat="64.8902500016" lon="10.9564361019">
		<tag k="name" v="Skitvatnet" />
		<tag k="natural" v="water" />
		<tag k="ssr:stedsnr" v="197935" />
	</node>
	<node id="-830505" lat="64.9334472184" lon="12.0367611007">
		<tag k="name" v="Steinaelva" />
		<tag k="ssr:stedsnr" v="695366" />
		<tag k="waterway" v="stream" />
	</node>
	<node id="-828448" lat="64.9056999999" lon="12.2546194416">
		<tag k="alt_name" v="Reinberlivatnet" />
		<tag k="name" v="Reinbærlivatnet" />
		<tag k="natural" v="water" />
		<tag k="ssr:stedsnr" v="197807" />
	</node>
	<node id="-830490" lat="64.8620444457" lon="11.2958083406">
		<tag k="name" v="Kvernhusbekken" />
		<tag k="ssr:stedsnr" v="694906" />
		<tag k="waterway" v="stream" />
	</node>
	<node id="-828437" lat="64.9429583298" lon="12.161113889">
		<tag k="name" v="Åvikelva" />
		<tag k="ssr:stedsnr" v="197603" />
		<tag k="waterway" v="stream" />
	</node>
	<node id="-830478" lat="64.9263194464" lon="11.5011499965">
		<tag k="name" v="Straumbekken" />
		<tag k="ssr:stedsnr" v="693117" />
		<tag k="waterway" v="stream" />
	</node>
	<node id="-828419" lat="64.8046444448" lon="11.769419437">
		<tag k="name" v="Setertjønna" />
		<tag k="natural" v="water" />
		<tag k="ssr:stedsnr" v="196925" />
	</node>
	<node id="-830455" lat="64.8819888902" lon="10.8452722205">
		<tag k="name" v="Langtjønna" />
		<tag k="natural" v="water" />
		<tag k="ssr:stedsnr" v="682911" />
	</node>
	<node id="-830454" lat="64.7905083307" lon="11.9068027766">
		<tag k="fixme" v="multiple name tags, choose one and add the other to alt_name" />
		<tag k="name" v="Bårdtjønna;Svartsniltjønna" />
		<tag k="natural" v="water" />
		<tag k="ssr:stedsnr" v="682910" />
	</node>
	<node id="-828403" lat="64.9137388882" lon="11.4468305497">
		<tag k="name" v="Granvika" />
		<tag k="natural" v="bay" />
		<tag k="ssr:stedsnr" v="196014" />
	</node>
	<node id="-830441" lat="64.9271638931" lon="12.4229555602">
		<tag k="alt_name" v="Grytbugelva" />
		<tag k="name" v="Grytbogelva" />
		<tag k="ssr:stedsnr" v="682838" />
		<tag k="waterway" v="river" />
	</node>
	<node id="-828385" lat="64.8946527779" lon="10.9122888879">
		<tag k="name" v="Ostjønna" />
		<tag k="natural" v="water" />
		<tag k="ssr:stedsnr" v="290811" />
	</node>
	<node id="-830430" lat="64.8499500008" lon="11.3146666743">
		<tag k="name" v="Laugen" />
		<tag k="natural" v="water" />
		<tag k="ssr:stedsnr" v="682508" />
	</node>
	<node id="-830427" lat="64.9880166702" lon="11.9634250055">
		<tag k="name" v="Brannvatnet" />
		<tag k="natural" v="water" />
		<tag k="ssr:stedsnr" v="682713" />
	</node>
	<node id="-828371" lat="64.985966666" lon="11.8449166709">
		<tag k="name" v="Stangvikodden" />
		<tag k="natural" v="cape" />
		<tag k="ssr:stedsnr" v="290338" />
	</node>
	<node id="-828370" lat="64.939291665" lon="11.5666138851">
		<tag k="name" v="Sørvassbekken" />
		<tag k="ssr:stedsnr" v="290236" />
		<tag k="waterway" v="stream" />
	</node>
	<node id="-828369" lat="65.0038222222" lon="11.7177277706">
		<tag k="name" v="Stortjønna" />
		<tag k="natural" v="water" />
		<tag k="ssr:stedsnr" v="290484" />
	</node>
	<node id="-828368" lat="64.9982472264" lon="11.7131722293">
		<tag k="name" v="Pilsvika" />
		<tag k="natural" v="bay" />
		<tag k="ssr:stedsnr" v="290482" />
	</node>
	<node id="-830412" lat="65.0084611099" lon="11.8543416744">
		<tag k="alt_name" v="Grønlitjørna" />
		<tag k="name" v="Grønnlitjønna" />
		<tag k="natural" v="water" />
		<tag k="ssr:stedsnr" v="682208" />
	</node>
	<node id="-830411" lat="64.8958194421" lon="11.5931555634">
		<tag k="alt_name" v="Botnbekken" />
		<tag k="name" v="Botnelva" />
		<tag k="ssr:stedsnr" v="682074" />
		<tag k="waterway" v="stream" />
	</node>
	<node id="-828350" lat="64.8137694488" lon="11.2661611208">
		<tag k="name" v="Daverlonet" />
		<tag k="natural" v="water" />
		<tag k="ssr:stedsnr" v="286964" />
		<tag k="water" v="lake" />
	</node>
	<node id="-830375" lat="64.9502527772" lon="11.9743861054">
		<tag k="name" v="Inngårdsbekken" />
		<tag k="ssr:stedsnr" v="877386" />
		<tag k="waterway" v="stream" />
	</node>
	<node id="-830363" lat="64.9781388918" lon="12.13555833">
		<tag k="name" v="Langåa" />
		<tag k="ssr:stedsnr" v="877294" />
		<tag k="waterway" v="stream" />
	</node>
	<node id="-830361" lat="65.0346111118" lon="12.0367416718">
		<tag k="name" v="Grannodden" />
		<tag k="natural" v="cape" />
		<tag k="ssr:stedsnr" v="659300" />
	</node>
	<node id="-830346" lat="64.8286111089" lon="11.9045249983">
		<tag k="name" v="Krokvasselva" />
		<tag k="ssr:stedsnr" v="657927" />
		<tag k="waterway" v="river" />
	</node>
	<node id="-828294" lat="64.981630559" lon="11.8547333274">
		<tag k="name" v="Svartvasselva" />
		<tag k="ssr:stedsnr" v="168360" />
		<tag k="waterway" v="stream" />
	</node>
	<node id="-828280" lat="64.7894361096" lon="11.2642666719">
		<tag k="name" v="Arnøyvatnet" />
		<tag k="natural" v="water" />
		<tag k="ssr:stedsnr" v="165362" />
	</node>
	<node id="-830318" lat="64.89310833" lon="11.5864888937">
		<tag k="name" v="Storbuktbekken" />
		<tag k="ssr:stedsnr" v="651076" />
		<tag k="waterway" v="stream" />
	</node>
	<node id="-830315" lat="64.8442111069" lon="11.6417500051">
		<tag k="name" v="Valdbekken" />
		<tag k="ssr:stedsnr" v="650086" />
		<tag k="waterway" v="stream" />
	</node>
	<node id="-828257" lat="64.9538861123" lon="12.2461638861">
		<tag k="name" v="Oselva" />
		<tag k="ssr:stedsnr" v="149313" />
		<tag k="waterway" v="stream" />
	</node>
	<node id="-830304" lat="64.8787138905" lon="11.3150472328">
		<tag k="name" v="Tronga" />
		<tag k="ssr:stedsnr" v="634422" />
		<tag k="waterway" v="stream" />
	</node>
	<node id="-828254" lat="64.9126444437" lon="12.2864916576">
		<tag k="name" v="Langtjønnbekken" />
		<tag k="ssr:stedsnr" v="149252" />
		<tag k="waterway" v="stream" />
	</node>
	<node id="-830296" lat="64.8874777801" lon="11.3469750087">
		<tag k="name" v="Bidalselva" />
		<tag k="ssr:stedsnr" v="633919" />
		<tag k="waterway" v="stream" />
	</node>
	<node id="-828230" lat="64.8403333309" lon="12.1233805455">
		<tag k="name" v="Nevertjønnin" />
		<tag k="natural" v="water" />
		<tag k="ssr:stedsnr" v="145423" />
	</node>
	<node id="-830603" lat="64.9303999964" lon="10.9852111064">
		<tag k="name" v="Vassviktjønna" />
		<tag k="natural" v="water" />
		<tag k="ssr:stedsnr" v="715808" />
	</node>
	<node id="-830271" lat="64.9067749991" lon="10.8045249956">
		<tag k="name" v="Syltavatnet" />
		<tag k="natural" v="water" />
		<tag k="ssr:stedsnr" v="621638" />
	</node>
	<node id="-830268" lat="64.9459249959" lon="11.7430944398">
		<tag k="name" v="Kattuvvatnet" />
		<tag k="natural" v="water" />
		<tag k="ssr:stedsnr" v="621632" />
	</node>
	<node id="-830267" lat="64.9486138853" lon="11.7407638837">
		<tag k="name" v="Keipvatnet" />
		<tag k="natural" v="water" />
		<tag k="ssr:stedsnr" v="621629" />
	</node>
	<node id="-828895" lat="64.9332416668" lon="11.3187611078">
		<tag k="name" v="Hesttjønna" />
		<tag k="natural" v="water" />
		<tag k="ssr:stedsnr" v="289354" />
	</node>
	<node id="-830257" lat="64.9065305571" lon="10.9106527747">
		<tag k="name" v="Svartfjelltjønna" />
		<tag k="natural" v="water" />
		<tag k="ssr:stedsnr" v="621608" />
	</node>
	<node id="-830252" lat="64.9859444465" lon="12.1262916566">
		<tag k="name" v="Foldereidtjønna" />
		<tag k="natural" v="water" />
		<tag k="old_name" v="Sætertjørna;Sætertjønna;Setertjønna" />
		<tag k="ssr:stedsnr" v="621712" />
	</node>
	<node id="-830249" lat="64.9814166697" lon="11.968336107">
		<tag k="name" v="Sandvatnet" />
		<tag k="natural" v="water" />
		<tag k="ssr:stedsnr" v="621705" />
	</node>
	<node id="-828197" lat="64.9309166663" lon="11.8405249946">
		<tag k="name" v="Hans Kristian-odden" />
		<tag k="natural" v="cape" />
		<tag k="ssr:stedsnr" v="269023" />
	</node>
	<node id="-829231" lat="64.9432833353" lon="11.5393500099">
		<tag k="name" v="Nordnubblivatnet" />
		<tag k="natural" v="water" />
		<tag k="ssr:stedsnr" v="500229" />
		<tag k="water" v="lake" />
	</node>
	<node id="-830230" lat="64.9853416624" lon="12.0484722203">
		<tag k="name" v="Langvasstjønnin" />
		<tag k="natural" v="water" />
		<tag k="ssr:stedsnr" v="720888" />
	</node>
	<node id="-830595" lat="64.8816166682" lon="11.4150166705">
		<tag k="name" v="Tverrbekken" />
		<tag k="ssr:stedsnr" v="895379" />
		<tag k="waterway" v="stream" />
	</node>
	<node id="-828175" lat="64.9636888882" lon="11.8042138811">
		<tag k="name" v="Grunntjønna" />
		<tag k="natural" v="water" />
		<tag k="ssr:stedsnr" v="136628" />
	</node>
	<node id="-828163" lat="64.817194446" lon="11.708108331">
		<tag k="name" v="Buøyseterelva" />
		<tag k="ssr:stedsnr" v="136327" />
		<tag k="waterway" v="stream" />
	</node>
	<node id="-830199" lat="64.987330552" lon="11.6472305451">
		<tag k="name" v="Akkeleitjønna" />
		<tag k="natural" v="water" />
		<tag k="ssr:stedsnr" v="715860" />
	</node>
	<node id="-830189" lat="64.8614944469" lon="11.116552784">
		<tag k="name" v="Evenstadelva" />
		<tag k="ssr:stedsnr" v="715596" />
		<tag k="waterway" v="stream" />
	</node>
	<node id="-830187" lat="64.9027861121" lon="11.1591250062">
		<tag k="name" v="Langvassbekken" />
		<tag k="ssr:stedsnr" v="715335" />
		<tag k="waterway" v="stream" />
	</node>
	<node id="-828131" lat="64.9296916642" lon="11.1301888966">
		<tag k="name" v="Stangringhopen" />
		<tag k="natural" v="water" />
		<tag k="ssr:stedsnr" v="135603" />
	</node>
	<node id="-830171" lat="64.8948805533" lon="11.0009305528">
		<tag k="name" v="Lødalsbekken" />
		<tag k="ssr:stedsnr" v="714517" />
		<tag k="waterway" v="stream" />
	</node>
	<node id="-828121" lat="64.9445361137" lon="11.3625333384">
		<tag k="name" v="Hummulvatnet" />
		<tag k="natural" v="water" />
		<tag k="ssr:stedsnr" v="135203" />
	</node>
	<node id="-830166" lat="64.8840861122" lon="11.5115833378">
		<tag k="name" v="Tjønnmarkbekken" />
		<tag k="ssr:stedsnr" v="714339" />
		<tag k="waterway" v="stream" />
	</node>
	<node id="-827851" lat="64.8863861122" lon="12.0967472272">
		<tag k="name" v="Finntrappodden" />
		<tag k="natural" v="cape" />
		<tag k="ssr:stedsnr" v="234820" />
	</node>
	<node id="-830156" lat="64.9371861096" lon="11.594233335">
		<tag k="name" v="Langvassbekken" />
		<tag k="ssr:stedsnr" v="593222" />
		<tag k="waterway" v="stream" />
	</node>
	<node id="-828535" lat="64.9268305583" lon="12.1796638992">
		<tag k="name" v="Leirtjønnelva" />
		<tag k="ssr:stedsnr" v="439534" />
		<tag k="waterway" v="river" />
	</node>
	<node id="-830148" lat="64.8888611099" lon="11.4510916748">
		<tag k="name" v="Tjønna" />
		<tag k="natural" v="water" />
		<tag k="ssr:stedsnr" v="712380" />
	</node>
	<node id="-828097" lat="64.9990694461" lon="11.9576333259">
		<tag k="name" v="Trollvasstjønna" />
		<tag k="natural" v="water" />
		<tag k="ssr:stedsnr" v="113917" />
	</node>
	<node id="-830144" lat="64.9317472215" lon="11.5652138953">
		<tag k="name" v="Litlvatnet" />
		<tag k="natural" v="water" />
		<tag k="ssr:stedsnr" v="712145" />
	</node>
	<node id="-828095" lat="64.9256583329" lon="12.1171916769">
		<tag k="name" v="Angelodden" />
		<tag k="natural" v="cape" />
		<tag k="ssr:stedsnr" v="113805" />
	</node>
	<node id="-828094" lat="64.8262527782" lon="11.9255055618">
		<tag k="name" v="Notneset" />
		<tag k="natural" v="cape" />
		<tag k="ssr:stedsnr" v="112017" />
	</node>
	<node id="-830141" lat="64.8926472184" lon="11.6144722181">
		<tag k="name" v="Demmå" />
		<tag k="natural" v="waterfall" />
		<tag k="ssr:stedsnr" v="712102" />
	</node>
	<node id="-828090" lat="64.7787666708" lon="11.9218138834">
		<tag k="name" v="Slættvika" />
		<tag k="natural" v="bay" />
		<tag k="ssr:stedsnr" v="111114" />
	</node>
	<node id="-830135" lat="64.8431499995" lon="11.4815249987">
		<tag k="name" v="Middagsvika" />
		<tag k="natural" v="bay" />
		<tag k="ssr:stedsnr" v="590103" />
	</node>
	<node id="-830133" lat="64.8430111136" lon="11.6137444364">
		<tag k="name" v="Setertjønnin" />
		<tag k="natural" v="water" />
		<tag k="ssr:stedsnr" v="590076" />
	</node>
	<node id="-828077" lat="64.8581861147" lon="12.0001472185">
		<tag k="name" v="Lomtjønna" />
		<tag k="natural" v="water" />
		<tag k="ssr:stedsnr" v="257991" />
	</node>
	<node id="-828075" lat="64.8689944446" lon="12.206808323">
		<tag k="name" v="Kjøringsvassodden" />
		<tag k="natural" v="cape" />
		<tag k="ssr:stedsnr" v="257983" />
	</node>
	<node id="-828074" lat="64.8845805519" lon="12.0943249922">
		<tag k="name" v="Åsvatnet" />
		<tag k="natural" v="water" />
		<tag k="ssr:stedsnr" v="257979" />
		<tag k="water" v="lake" />
	</node>
	<node id="-828073" lat="64.7811472209" lon="11.9047111193">
		<tag k="name" v="Langvatnet" />
		<tag k="natural" v="water" />
		<tag k="ssr:stedsnr" v="104013" />
		<tag k="water" v="lake" />
	</node>
	<node id="-828049" lat="64.9153249999" lon="12.3060888858">
		<tag k="name" v="Holmdalselva" />
		<tag k="ssr:stedsnr" v="257839" />
		<tag k="waterway" v="river" />
	</node>
	<node id="-828038" lat="64.9842833338" lon="12.1692583256">
		<tag k="name" v="Leirnesbekken" />
		<tag k="ssr:stedsnr" v="257700" />
		<tag k="waterway" v="stream" />
	</node>
	<node id="-828037" lat="64.9779305594" lon="11.880430546">
		<tag k="name" v="Bergvatnet" />
		<tag k="natural" v="water" />
		<tag k="ssr:stedsnr" v="257698" />
	</node>
	<node id="-828032" lat="64.9762611149" lon="11.8566749951">
		<tag k="name" v="Skarvtjønna" />
		<tag k="natural" v="water" />
		<tag k="ssr:stedsnr" v="257678" />
	</node>
	<node id="-828031" lat="64.9668250022" lon="11.0826944538">
		<tag k="name" v="Lyngsnesvatnet" />
		<tag k="natural" v="water" />
		<tag k="ssr:stedsnr" v="257598" />
		<tag k="water" v="lake" />
	</node>
	<node id="-828030" lat="64.9242888873" lon="12.2063500046">
		<tag k="alt_name" v="Flekjeelva" />
		<tag k="name" v="Bogaelva" />
		<tag k="ssr:stedsnr" v="257597" />
		<tag k="waterway" v="river" />
	</node>
	<node id="-830076" lat="64.9180055534" lon="11.4098416701">
		<tag k="name" v="Vattavikbekken" />
		<tag k="ssr:stedsnr" v="571914" />
		<tag k="waterway" v="stream" />
	</node>
	<node id="-828026" lat="64.9189972261" lon="12.0116444508">
		<tag k="name" v="Langtjønna" />
		<tag k="natural" v="water" />
		<tag k="ssr:stedsnr" v="257586" />
	</node>
	<node id="-828025" lat="64.91646389" lon="11.9093749929">
		<tag k="name" v="Nonsåa" />
		<tag k="ssr:stedsnr" v="257585" />
		<tag k="waterway" v="stream" />
	</node>
	<node id="-829886" lat="64.9249305594" lon="11.5633083426">
		<tag k="name" v="Holbekken" />
		<tag k="ssr:stedsnr" v="530155" />
		<tag k="waterway" v="stream" />
	</node>
	<node id="-828015" lat="64.9698416672" lon="10.8761555471">
		<tag k="name" v="Vollalonet" />
		<tag k="place" v="locality" />
		<tag k="ssr:stedsnr" v="257732" />
	</node>
	<node id="-828012" lat="64.993066664" lon="11.7237444364">
		<tag k="name" v="Heggdalsvatnet" />
		<tag k="natural" v="water" />
		<tag k="ssr:stedsnr" v="257723" />
	</node>
	<node id="-830059" lat="64.822536115" lon="11.9049000054">
		<tag k="name" v="Krokvasselva" />
		<tag k="ssr:stedsnr" v="560969" />
		<tag k="waterway" v="stream" />
	</node>
	<node id="-828008" lat="64.9119444407" lon="11.157541665">
		<tag k="name" v="Skjelåsvatnet" />
		<tag k="natural" v="water" />
		<tag k="ssr:stedsnr" v="257637" />
	</node>
	<node id="-830052" lat="64.8438055568" lon="12.0569749957">
		<tag k="name" v="Hågenholet" />
		<tag k="natural" v="bay" />
		<tag k="ssr:stedsnr" v="560957" />
	</node>
	<node id="-830048" lat="64.7787527796" lon="11.932477777">
		<tag k="name" v="Litllangvatnet" />
		<tag k="natural" v="water" />
		<tag k="ssr:stedsnr" v="560906" />
	</node>
	<node id="-830029" lat="64.9917027757" lon="11.8843555545">
		<tag k="alt_name" v="Skillingsvatnet" />
		<tag k="name" v="Skillingdalsvatnet" />
		<tag k="natural" v="water" />
		<tag k="ssr:stedsnr" v="560652" />
	</node>
	<node id="-830027" lat="64.9527527748" lon="12.1005500005">
		<tag k="alt_name" v="Ånnvikbekken" />
		<tag k="name" v="Ånnvikelva" />
		<tag k="ssr:stedsnr" v="560605" />
		<tag k="waterway" v="stream" />
	</node>
	<node id="-830025" lat="64.890583331" lon="12.0195750011">
		<tag k="name" v="Elgsetertjønna" />
		<tag k="natural" v="water" />
		<tag k="ssr:stedsnr" v="560519" />
	</node>
	<node id="-830023" lat="64.941100002" lon="11.1601416597">
		<tag k="name" v="Lysøyvatnet" />
		<tag k="natural" v="water" />
		<tag k="ssr:stedsnr" v="560514" />
		<tag k="water" v="lake" />
	</node>
	<node id="-827973" lat="64.9492694403" lon="11.7156888805">
		<tag k="fixme" v="multiple name tags, choose one and add the other to alt_name" />
		<tag k="name" v="Djupvikvatnet;Juvikvatnet" />
		<tag k="natural" v="water" />
		<tag k="ssr:stedsnr" v="257176" />
	</node>
	<node id="-830008" lat="64.856400003" lon="11.3700749919">
		<tag k="name" v="Lonet" />
		<tag k="natural" v="water" />
		<tag k="ssr:stedsnr" v="560452" />
	</node>
	<node id="-830005" lat="64.8301083334" lon="11.3738555484">
		<tag k="name" v="Løypmotjønnin" />
		<tag k="natural" v="water" />
		<tag k="ssr:stedsnr" v="560263" />
	</node>
	<node id="-827956" lat="65.036925" lon="11.7812611043">
		<tag k="alt_name" v="Hellerselva" />
		<tag k="name" v="Hellerelva" />
		<tag k="ssr:stedsnr" v="257144" />
		<tag k="waterway" v="stream" />
	</node>
	<node id="-827952" lat="65.0489499959" lon="11.8256333378">
		<tag k="name" v="Svartvatnet" />
		<tag k="natural" v="water" />
		<tag k="ssr:stedsnr" v="257124" />
	</node>
	<node id="-829983" lat="64.8471638875" lon="11.1417416761">
		<tag k="name" v="Åkvikelva" />
		<tag k="ssr:stedsnr" v="695498" />
		<tag k="waterway" v="stream" />
	</node>
	<node id="-829982" lat="64.874924997" lon="11.1918166593">
		<tag k="name" v="Ryemsbekken" />
		<tag k="ssr:stedsnr" v="695497" />
		<tag k="waterway" v="stream" />
	</node>
	<node id="-829980" lat="64.8659750007" lon="11.219463893">
		<tag k="name" v="Stordammen" />
		<tag k="ssr:stedsnr" v="695427" />
		<tag k="waterway" v="dam" />
	</node>
	<node id="-829977" lat="64.8717777806" lon="11.2949805597">
		<tag k="name" v="Langstrupelva" />
		<tag k="ssr:stedsnr" v="695423" />
		<tag k="waterway" v="stream" />
	</node>
	<node id="-827927" lat="64.9245833359" lon="11.5144888954">
		<tag k="name" v="Osabekken" />
		<tag k="ssr:stedsnr" v="86066" />
		<tag k="waterway" v="stream" />
	</node>
	<node id="-829952" lat="64.8320861152" lon="11.2509500077">
		<tag k="name" v="Litl-Kjerringholmen" />
		<tag k="place" v="islet" />
		<tag k="ssr:stedsnr" v="695000" />
	</node>
	<node id="-829950" lat="64.9005583357" lon="11.6983527734">
		<tag k="name" v="Otertjønna" />
		<tag k="natural" v="water" />
		<tag k="ssr:stedsnr" v="694029" />
	</node>
	<node id="-827885" lat="64.9955638853" lon="12.090694446">
		<tag k="name" v="Storvikodden" />
		<tag k="natural" v="cape" />
		<tag k="ssr:stedsnr" v="52759" />
	</node>
	<node id="-827879" lat="64.8342861111" lon="11.8555333333">
		<tag k="name" v="Sautjønna" />
		<tag k="natural" v="water" />
		<tag k="ssr:stedsnr" v="51016" />
	</node>
	<node id="-829926" lat="64.9242805521" lon="11.4385138828">
		<tag k="name" v="Fjellmyrbekken" />
		<tag k="ssr:stedsnr" v="693130" />
		<tag k="waterway" v="stream" />
	</node>
	<node id="-827874" lat="64.870625001" lon="11.8220805538">
		<tag k="name" v="Svartfossen" />
		<tag k="natural" v="waterfall" />
		<tag k="ssr:stedsnr" v="50809" />
	</node>
	<node id="-829909" lat="65.0300333377" lon="12.036999991">
		<tag k="name" v="Mjosundet" />
		<tag k="natural" v="strait" />
		<tag k="ssr:stedsnr" v="539010" />
	</node>
	<node id="-827858" lat="64.9773083314" lon="12.0050611084">
		<tag k="name" v="Storskardsbekken" />
		<tag k="ssr:stedsnr" v="234879" />
		<tag k="waterway" v="stream" />
	</node>
	<node id="-829905" lat="65.0194083372" lon="11.7512555509">
		<tag k="name" v="Skotnesbekken" />
		<tag k="ssr:stedsnr" v="533952" />
		<tag k="waterway" v="stream" />
	</node>
	<node id="-827853" lat="64.9262888908" lon="12.0414999938">
		<tag k="name" v="Sørelva" />
		<tag k="ssr:stedsnr" v="234825" />
		<tag k="waterway" v="stream" />
	</node>
	<node id="-829899" lat="64.9748694405" lon="10.9162055657">
		<tag k="name" v="Svanafloa" />
		<tag k="ssr:stedsnr" v="532968" />
		<tag k="waterway" v="drain" />
	</node>
	<node id="-829894" lat="64.9487333371" lon="11.5655583385">
		<tag k="name" v="Bekkvikbekken" />
		<tag k="ssr:stedsnr" v="532213" />
		<tag k="waterway" v="stream" />
	</node>
	<node id="-827838" lat="64.7736444467" lon="11.7852138835">
		<tag k="name" v="Ranvikbekken" />
		<tag k="ssr:stedsnr" v="232090" />
		<tag k="waterway" v="stream" />
	</node>
	<node id="-827834" lat="64.9754555587" lon="11.1211944471">
		<tag k="name" v="Kvenndammen" />
		<tag k="natural" v="water" />
		<tag k="ssr:stedsnr" v="230643" />
	</node>
	<node id="-827833" lat="64.944975" lon="11.0279999984">
		<tag k="name" v="Lomtjønna" />
		<tag k="natural" v="water" />
		<tag k="ssr:stedsnr" v="230633" />
	</node>
	<node id="-831558" lat="64.897553265" lon="12.1560762067">
		<tag k="name" v="Tinnaurvatnet - Bovgan-vaerien jaevrie" />
		<tag k="name:no" v="Tinnaurvatnet" />
		<tag k="name:sma" v="Bovgan-vaerien jaevrie" />
		<tag k="natural" v="water" />
		<tag k="old_name:no" v="Fiskløysa" />
		<tag k="ssr:stedsnr" v="25497" />
		<tag k="water" v="lake" />
	</node>
	<node id="-827803" lat="64.9676972258" lon="11.8214722296">
		<tag k="name" v="Sautunga" />
		<tag k="natural" v="cape" />
		<tag k="ssr:stedsnr" v="229332" />
	</node>
	<node id="-829849" lat="65.012094448" lon="11.6788527838">
		<tag k="name" v="Tennfjordslua" />
		<tag k="natural" v="shoal" />
		<tag k="place" v="locality" />
		<tag k="ssr:stedsnr" v="512255" />
	</node>
	<node id="-829831" lat="64.8971499973" lon="10.9520555562">
		<tag k="name" v="Horsengvatnet" />
		<tag k="natural" v="water" />
		<tag k="ssr:stedsnr" v="682934" />
	</node>
	<node id="-828139" lat="64.9237027789" lon="11.6439888978">
		<tag k="alt_name" v="Rødsbekken" />
		<tag k="name" v="Rødselva" />
		<tag k="ssr:stedsnr" v="136034" />
		<tag k="waterway" v="stream" />
	</node>
	<node id="-829822" lat="64.8677500002" lon="12.0526388893">
		<tag k="name" v="Åsvassløken" />
		<tag k="natural" v="bay" />
		<tag k="ssr:stedsnr" v="682981" />
	</node>
	<node id="-829808" lat="64.9930999956" lon="11.9635861206">
		<tag k="alt_name" v="Stor-Kamvatnet" />
		<tag k="name" v="Storkamvatnet" />
		<tag k="natural" v="water" />
		<tag k="ssr:stedsnr" v="682729" />
	</node>
	<node id="-829803" lat="64.9819777769" lon="11.7758444527">
		<tag k="name" v="Lonet" />
		<tag k="natural" v="water" />
		<tag k="ssr:stedsnr" v="682695" />
		<tag k="water" v="lake" />
	</node>
	<node id="-829800" lat="64.9733027807" lon="11.9621777728">
		<tag k="alt_name" v="Litl-Fiskløysa" />
		<tag k="name" v="Litlfiskløysa" />
		<tag k="natural" v="water" />
		<tag k="ssr:stedsnr" v="682690" />
	</node>
	<node id="-827749" lat="64.8947277792" lon="11.618763885">
		<tag k="name" v="Grytdalsbekken" />
		<tag k="ssr:stedsnr" v="226116" />
		<tag k="waterway" v="stream" />
	</node>
	<node id="-831844" lat="64.9144666682" lon="11.0284916638">
		<tag k="name" v="Svarthammarvatnet" />
		<tag k="natural" v="water" />
		<tag k="ssr:stedsnr" v="75624" />
	</node>
	<node id="-831843" lat="64.944561109" lon="11.724700007">
		<tag k="name" v="Lauvhattvatnet" />
		<tag k="natural" v="water" />
		<tag k="ssr:stedsnr" v="75621" />
	</node>
	<node id="-827746" lat="64.8416499984" lon="11.6187972189">
		<tag k="name" v="Tørrvedholtjønna" />
		<tag k="natural" v="water" />
		<tag k="ssr:stedsnr" v="226094" />
	</node>
	<node id="-827745" lat="64.8404749968" lon="11.6400333429">
		<tag k="name" v="Pelbekken" />
		<tag k="ssr:stedsnr" v="226091" />
		<tag k="waterway" v="stream" />
	</node>
	<node id="-831836" lat="64.9055194479" lon="10.9890250023">
		<tag k="name" v="Gravsetvatnet" />
		<tag k="natural" v="water" />
		<tag k="ssr:stedsnr" v="75600" />
	</node>
	<node id="-831833" lat="64.9326805537" lon="11.8736027833">
		<tag k="name" v="Seteråstjønna" />
		<tag k="natural" v="water" />
		<tag k="ssr:stedsnr" v="75588" />
	</node>
	<node id="-831828" lat="64.9269777783" lon="11.8302777736">
		<tag k="name" v="Rokkvatnet" />
		<tag k="natural" v="water" />
		<tag k="ssr:stedsnr" v="75568" />
		<tag k="water" v="lake" />
	</node>
	<node id="-827726" lat="64.841405559" lon="11.908116673">
		<tag k="name" v="Krokvatnet" />
		<tag k="natural" v="water" />
		<tag k="ssr:stedsnr" v="15939" />
		<tag k="water" v="lake" />
	</node>
	<node id="-831820" lat="64.8971888863" lon="11.8921277777">
		<tag k="name" v="Fuglvatnet" />
		<tag k="natural" v="water" />
		<tag k="ssr:stedsnr" v="75542" />
		<tag k="water" v="lake" />
	</node>
	<node id="-827720" lat="64.8983749998" lon="11.06098611">
		<tag k="name" v="Setnøyvatnet" />
		<tag k="natural" v="water" />
		<tag k="ssr:stedsnr" v="15911" />
	</node>
	<node id="-827718" lat="64.9910888911" lon="11.9864277749">
		<tag k="name" v="Litlkverntjønna" />
		<tag k="natural" v="water" />
		<tag k="ssr:stedsnr" v="15705" />
	</node>
	<node id="-829765" lat="64.8407805587" lon="11.4079083413">
		<tag k="name" v="Botnet" />
		<tag k="natural" v="bay" />
		<tag k="ssr:stedsnr" v="682537" />
	</node>
	<node id="-829764" lat="64.8429138857" lon="11.5010000092">
		<tag k="name" v="Lauvsetbukta" />
		<tag k="natural" v="bay" />
		<tag k="ssr:stedsnr" v="682534" />
	</node>
	<node id="-828811" lat="64.7944500003" lon="11.949516669">
		<tag k="name" v="Elgåvatnet" />
		<tag k="natural" v="water" />
		<tag k="ssr:stedsnr" v="257919" />
		<tag k="water" v="lake" />
	</node>
	<node id="-829760" lat="64.874630554" lon="11.9542555539">
		<tag k="name" v="Krokvatnet" />
		<tag k="natural" v="water" />
		<tag k="ssr:stedsnr" v="682564" />
	</node>
	<node id="-827709" lat="64.8928500026" lon="11.797236104">
		<tag k="name" v="Setervatnet" />
		<tag k="natural" v="water" />
		<tag k="ssr:stedsnr" v="15547" />
	</node>
	<node id="-827698" lat="65.0388111153" lon="11.8941444455">
		<tag k="name" v="Skjulelva" />
		<tag k="ssr:stedsnr" v="15132" />
		<tag k="waterway" v="stream" />
	</node>
	<node id="-829737" lat="64.8276500013" lon="11.283200005">
		<tag k="alt_name" v="Kvennhusvatnet" />
		<tag k="name" v="Kvernhusvatnet" />
		<tag k="natural" v="water" />
		<tag k="ssr:stedsnr" v="682296" />
	</node>
	<node id="-827682" lat="64.9922138855" lon="11.7994805482">
		<tag k="alt_name" v="Kvernhusvatnet" />
		<tag k="name" v="Kvennhusvatnet" />
		<tag k="natural" v="water" />
		<tag k="ssr:stedsnr" v="14610" />
	</node>
	<node id="-829729" lat="64.9334472249" lon="11.3398611037">
		<tag k="name" v="Elvåstjønna" />
		<tag k="natural" v="water" />
		<tag k="ssr:stedsnr" v="682276" />
	</node>
	<node id="-827680" lat="64.9139277771" lon="11.2121388888">
		<tag k="name" v="Mølndalsvatnet" />
		<tag k="natural" v="water" />
		<tag k="ssr:stedsnr" v="14525" />
	</node>
	<node id="-829725" lat="65.0434277821" lon="11.9254694347">
		<tag k="name" v="Kvernavatnet" />
		<tag k="natural" v="water" />
		<tag k="ssr:stedsnr" v="682152" />
	</node>
	<node id="-831769" lat="64.9138138863" lon="11.6591999901">
		<tag k="alt_name" v="Austre Blåvatnet" />
		<tag k="name" v="Blåvatnet" />
		<tag k="natural" v="water" />
		<tag k="old_name" v="Blåvatnet, austre" />
		<tag k="ssr:stedsnr" v="75040" />
		<tag k="water" v="lake" />
	</node>
	<node id="-831768" lat="64.908000004" lon="11.6725583373">
		<tag k="name" v="Skjæråa" />
		<tag k="ssr:stedsnr" v="75039" />
		<tag k="waterway" v="stream" />
	</node>
	<node id="-829718" lat="64.8985944483" lon="11.5059916647">
		<tag k="name" v="Røyrdalsvatnet" />
		<tag k="natural" v="water" />
		<tag k="ssr:stedsnr" v="682095" />
	</node>
	<node id="-831763" lat="64.9165583366" lon="11.7008277857">
		<tag k="name" v="Storsjøbekken" />
		<tag k="ssr:stedsnr" v="75018" />
		<tag k="waterway" v="stream" />
	</node>
	<node id="-829714" lat="65.0148111088" lon="11.8534055582">
		<tag k="name" v="Kamvatnet" />
		<tag k="natural" v="water" />
		<tag k="ssr:stedsnr" v="682198" />
	</node>
	<node id="-827658" lat="64.8933972216" lon="11.4521027829">
		<tag k="name" v="Sandhalsen" />
		<tag k="natural" v="cape" />
		<tag k="ssr:stedsnr" v="227389" />
	</node>
	<node id="-827655" lat="64.7925361087" lon="11.9105611178">
		<tag k="name" v="Gorrtjønna" />
		<tag k="natural" v="water" />
		<tag k="ssr:stedsnr" v="219788" />
	</node>
	<node id="-831731" lat="64.9805972186" lon="12.0336388828">
		<tag k="name" v="Annfinndalsbekken" />
		<tag k="ssr:stedsnr" v="53880" />
		<tag k="waterway" v="stream" />
	</node>
	<node id="-829674" lat="64.8097888896" lon="11.8495777745">
		<tag k="name" v="Brottengbekken" />
		<tag k="ssr:stedsnr" v="500933" />
		<tag k="waterway" v="stream" />
	</node>
	<node id="-829668" lat="64.9803861089" lon="11.843224997">
		<tag k="alt_name" v="Lissmarkvatnet" />
		<tag k="name" v="Litlmarkvatnet" />
		<tag k="natural" v="water" />
		<tag k="ssr:stedsnr" v="500713" />
	</node>
	<node id="-831705" lat="65.0363666647" lon="11.7940250077">
		<tag k="name" v="Engesbekken" />
		<tag k="ssr:stedsnr" v="47936" />
		<tag k="waterway" v="stream" />
	</node>
	<node id="-829656" lat="64.7946361073" lon="11.8980194458">
		<tag k="name" v="Elgåa" />
		<tag k="ssr:stedsnr" v="681537" />
		<tag k="waterway" v="river" />
	</node>
	<node id="-829654" lat="64.8544444417" lon="11.7089861113">
		<tag k="alt_name" v="Sørkløyvvatnet" />
		<tag k="name" v="Sørklauvvatnet" />
		<tag k="natural" v="water" />
		<tag k="ssr:stedsnr" v="500516" />
	</node>
	<node id="-829649" lat="64.9354583357" lon="11.1041555545">
		<tag k="name" v="Harralivatnet" />
		<tag k="natural" v="water" />
		<tag k="ssr:stedsnr" v="681494" />
	</node>
	<node id="-831380" lat="64.9906416624" lon="11.826758326">
		<tag k="name" v="Drossabukta" />
		<tag k="natural" v="bay" />
		<tag k="ssr:stedsnr" v="957343" />
	</node>
	<node id="-829644" lat="64.8870111139" lon="11.3786861063">
		<tag k="name" v="Storvatnet" />
		<tag k="natural" v="water" />
		<tag k="ssr:stedsnr" v="500129" />
	</node>
	<node id="-829643" lat="65.0412138902" lon="11.8106611078">
		<tag k="alt_name" v="Flauglitjørna" />
		<tag k="fixme" v="multiple name tags, choose one and add the other to alt_name" />
		<tag k="name" v="Grønnlitjønna;Flauglitjønna" />
		<tag k="natural" v="water" />
		<tag k="ssr:stedsnr" v="500123" />
	</node>
	<node id="-829641" lat="65.0603305578" lon="12.0445777734">
		<tag k="name" v="Saglielva" />
		<tag k="ssr:stedsnr" v="500113" />
		<tag k="waterway" v="stream" />
	</node>
	<node id="-829640" lat="65.0617749977" lon="12.0204055553">
		<tag k="name" v="Trollskardvatnet" />
		<tag k="natural" v="water" />
		<tag k="ssr:stedsnr" v="500110" />
	</node>
	<node id="-829638" lat="64.9045000002" lon="11.73544444">
		<tag k="name" v="Finnevatnet" />
		<tag k="natural" v="water" />
		<tag k="ssr:stedsnr" v="500089" />
	</node>
	<node id="-829636" lat="64.9001888892" lon="11.6292888949">
		<tag k="name" v="Stor-Gryttjønna" />
		<tag k="natural" v="water" />
		<tag k="ssr:stedsnr" v="500080" />
	</node>
	<node id="-829627" lat="64.9131916638" lon="11.1698027684">
		<tag k="name" v="Langvatnet" />
		<tag k="natural" v="water" />
		<tag k="ssr:stedsnr" v="499530" />
		<tag k="water" v="lake" />
	</node>
	<node id="-829623" lat="65.0124583345" lon="11.8701833229">
		<tag k="name" v="Fagerlivatnet" />
		<tag k="natural" v="water" />
		<tag k="ssr:stedsnr" v="499134" />
	</node>
	<node id="-831668" lat="64.9220944408" lon="11.1726722276">
		<tag k="name" v="Osatjønna" />
		<tag k="natural" v="water" />
		<tag k="ssr:stedsnr" v="47301" />
	</node>
	<node id="-829615" lat="65.0225611129" lon="11.9585500059">
		<tag k="alt_name" v="Langvatna" />
		<tag k="name" v="Langvatnet" />
		<tag k="natural" v="water" />
		<tag k="ssr:stedsnr" v="681150" />
	</node>
	<node id="-829614" lat="65.026816664" lon="11.8580249993">
		<tag k="alt_name" v="Brattåelva" />
		<tag k="name" v="Brattåa" />
		<tag k="ssr:stedsnr" v="681149" />
		<tag k="waterway" v="stream" />
	</node>
	<node id="-829598" lat="64.9874111133" lon="12.057069454">
		<tag k="name" v="Tverrelva" />
		<tag k="ssr:stedsnr" v="477904" />
		<tag k="waterway" v="stream" />
	</node>
	<node id="-831626" lat="64.8324499999" lon="11.6052361201">
		<tag k="name" v="Lomtjønna" />
		<tag k="natural" v="water" />
		<tag k="ssr:stedsnr" v="44078" />
	</node>
	<node id="-830145" lat="64.9302583364" lon="11.5758666686">
		<tag k="name" v="Urdmofjelltjønnin" />
		<tag k="natural" v="water" />
		<tag k="ssr:stedsnr" v="712150" />
	</node>
	<node id="-831851" lat="64.9196749969" lon="11.1972305541">
		<tag k="name" v="Vikestadvatnet" />
		<tag k="natural" v="water" />
		<tag k="ssr:stedsnr" v="75639" />
	</node>
	<node id="-831600" lat="64.9259416663" lon="12.1660583263">
		<tag k="name" v="Tverrbekken" />
		<tag k="ssr:stedsnr" v="29181" />
		<tag k="waterway" v="stream" />
	</node>
	<node id="-831594" lat="64.8855777778" lon="11.2404333416">
		<tag k="name" v="Valdskiftbekken" />
		<tag k="ssr:stedsnr" v="28524" />
		<tag k="waterway" v="stream" />
	</node>
	<node id="-831590" lat="64.8599999965" lon="11.219669438">
		<tag k="name" v="Skjånesbekken" />
		<tag k="ssr:stedsnr" v="28464" />
		<tag k="waterway" v="stream" />
	</node>
	<node id="-829538" lat="64.9040861092" lon="11.7202833241">
		<tag k="name" v="Lonet" />
		<tag k="natural" v="water" />
		<tag k="ssr:stedsnr" v="451026" />
		<tag k="water" v="lake" />
	</node>
	<node id="-828773" lat="64.8927611107" lon="11.9106111111">
		<tag k="name" v="Rotvatnet" />
		<tag k="natural" v="water" />
		<tag k="ssr:stedsnr" v="257561" />
	</node>
	<node id="-831572" lat="64.8856944477" lon="11.3286805546">
		<tag k="name" v="Hestvikbekken" />
		<tag k="ssr:stedsnr" v="26854" />
		<tag k="waterway" v="stream" />
	</node>
	<node id="-831565" lat="64.9511083335" lon="11.5284861172">
		<tag k="name" v="Kvernhusbekken" />
		<tag k="ssr:stedsnr" v="26074" />
		<tag k="waterway" v="stream" />
	</node>
	<node id="-829510" lat="64.9041305579" lon="12.2814638891">
		<tag k="alt_name" v="Langtjørna" />
		<tag k="name" v="Langtjønna" />
		<tag k="natural" v="water" />
		<tag k="ssr:stedsnr" v="440794" />
	</node>
	<node id="-829509" lat="64.9008916641" lon="12.222927778">
		<tag k="name" v="Svartvatnet" />
		<tag k="natural" v="water" />
		<tag k="ssr:stedsnr" v="440786" />
		<tag k="water" v="lake" />
	</node>
	<node id="-831553" lat="64.9219777782" lon="11.4414416708">
		<tag k="name" v="Sandvikelva" />
		<tag k="ssr:stedsnr" v="25095" />
		<tag k="waterway" v="river" />
	</node>
	<node id="-831551" lat="64.924530555" lon="11.4724694439">
		<tag k="name" v="Urdvikbekken" />
		<tag k="ssr:stedsnr" v="25080" />
		<tag k="waterway" v="stream" />
	</node>
	<node id="-829500" lat="64.8913749995" lon="10.8436527768">
		<tag k="name" v="Eian" />
		<tag k="natural" v="strait" />
		<tag k="ssr:stedsnr" v="439934" />
	</node>
	<node id="-829499" lat="64.8889833363" lon="10.9837027827">
		<tag k="alt_name" v="Kvernhusvatnet" />
		<tag k="name" v="Kvennhusvatnet" />
		<tag k="natural" v="water" />
		<tag k="ssr:stedsnr" v="439930" />
	</node>
	<node id="-829498" lat="64.8942083338" lon="10.8828972132">
		<tag k="name" v="Lissvatnet" />
		<tag k="natural" v="water" />
		<tag k="ssr:stedsnr" v="439928" />
	</node>
	<node id="-829485" lat="64.996861114" lon="11.7091694529">
		<tag k="name" v="Vasslivatnet" />
		<tag k="natural" v="water" />
		<tag k="ssr:stedsnr" v="439123" />
	</node>
	<node id="-831529" lat="64.8804111111" lon="10.8891111181">
		<tag k="alt_name" v="Brattlibekken" />
		<tag k="name" v="Brattfjellbekken" />
		<tag k="ssr:stedsnr" v="15879" />
		<tag k="waterway" v="stream" />
	</node>
	<node id="-829477" lat="64.9269111108" lon="12.0761638925">
		<tag k="alt_name" v="Stråmyrtjønna" />
		<tag k="name" v="Strålmyrtjønna" />
		<tag k="natural" v="water" />
		<tag k="ssr:stedsnr" v="424606" />
	</node>
	<node id="-831517" lat="64.9516611099" lon="12.3076083433">
		<tag k="alt_name" v="Kvernbekken" />
		<tag k="name" v="Kvennbekken" />
		<tag k="ssr:stedsnr" v="15836" />
		<tag k="waterway" v="stream" />
	</node>
	<node id="-831510" lat="64.8361277814" lon="11.9903888843">
		<tag k="name" v="Hustjønna" />
		<tag k="natural" v="water" />
		<tag k="ssr:stedsnr" v="15957" />
	</node>
	<node id="-831508" lat="64.8423777818" lon="12.0277555614">
		<tag k="name" v="Rørtjønna" />
		<tag k="natural" v="water" />
		<tag k="ssr:stedsnr" v="15952" />
	</node>
	<node id="-829454" lat="64.9610250044" lon="12.0195277791">
		<tag k="name" v="Moaelva" />
		<tag k="ssr:stedsnr" v="513360" />
		<tag k="waterway" v="stream" />
	</node>
	<node id="-831500" lat="64.9751305556" lon="11.8035888842">
		<tag k="name" v="Moabukta" />
		<tag k="natural" v="bay" />
		<tag k="ssr:stedsnr" v="15675" />
	</node>
	<node id="-831491" lat="64.9346277737" lon="12.1571249891">
		<tag k="alt_name" v="Langbogelva" />
		<tag k="name" v="Langbogaelva" />
		<tag k="ssr:stedsnr" v="15580" />
		<tag k="waterway" v="stream" />
	</node>
</osm>
