<?xml version="1.0" encoding="UTF-8"?>
<osm version="0.6" generator="osmapis">
	<node lat="64.88691666890459" lon="11.107997220321984" id="-41086">
		<tag k="name" v="Farkodden" />
		<tag k="natural" v="cape" />
		<tag k="ssr:stedsnr" v="229611" />
	</node>
	<node lat="64.87604722556021" lon="11.082647232783437" id="-41087">
		<tag k="name" v="Nesset" />
		<tag k="natural" v="cape" />
		<tag k="ssr:stedsnr" v="229617" />
	</node>
	<node lat="64.98627500297418" lon="11.609858334588523" id="-41088">
		<tag k="name" v="Heimer-Sandvika" />
		<tag k="natural" v="bay" />
		<tag k="ssr:stedsnr" v="229774" />
	</node>
	<node lat="64.85858888580088" lon="10.860563880091268" id="-41093">
		<tag k="name" v="Tørrviklonet" />
		<tag k="natural" v="bay" />
		<tag k="ssr:stedsnr" v="229874" />
	</node>
	<node lat="65.0266222216907" lon="11.733961103454503" id="-41096">
		<tag k="name" v="Sør-Småholmen" />
		<tag k="place" v="islet" />
		<tag k="ssr:stedsnr" v="229968" />
	</node>
	<node lat="65.02807777803922" lon="11.732233329478374" id="-41097">
		<tag k="name" v="Nord-Småholmen" />
		<tag k="place" v="islet" />
		<tag k="ssr:stedsnr" v="229971" />
	</node>
	<node lat="65.02024444304172" lon="11.642619448426045" id="-41098">
		<tag k="name" v="Aunodden" />
		<tag k="natural" v="cape" />
		<tag k="ssr:stedsnr" v="229978" />
	</node>
	<node lat="64.91041666922841" lon="11.256858339757082" id="-41099">
		<tag k="name" v="Birgittaodden" />
		<tag k="natural" v="cape" />
		<tag k="ssr:stedsnr" v="230298" />
	</node>
	<node lat="64.91889722267426" lon="11.319247213679429" id="-41100">
		<tag k="name" v="Tjeldnesset" />
		<tag k="natural" v="cape" />
		<tag k="ssr:stedsnr" v="230320" />
	</node>
	<node lat="64.841008335871" lon="11.06949166408908" id="-41103">
		<tag k="fixme" v="consider seamark:type=rock or natural=shoal" />
		<tag k="name" v="Sandskjæra" />
		<tag k="place" v="islet" />
		<tag k="ssr:stedsnr" v="230891" />
	</node>
	<node lat="64.78396389021113" lon="11.745030549971075" id="-41105">
		<tag k="name" v="Otervika" />
		<tag k="natural" v="bay" />
		<tag k="ssr:stedsnr" v="232120" />
	</node>
	<node lat="64.79810833753879" lon="11.46748611384628" id="-41110">
		<tag k="name" v="Kalven" />
		<tag k="natural" v="cape" />
		<tag k="ssr:stedsnr" v="14272" />
	</node>
	<node lat="64.79716944509794" lon="11.36339444408943" id="-41111">
		<tag k="name" v="Valøya" />
		<tag k="place" v="islet" />
		<tag k="ssr:stedsnr" v="14275" />
	</node>
	<node lat="64.90982777821345" lon="10.849955545814023" id="-41115">
		<tag k="alt_name" v="Ulsundvågen" />
		<tag k="bay" v="fjord" />
		<tag k="name" v="Ulsundsvågen" />
		<tag k="natural" v="bay" />
		<tag k="ssr:stedsnr" v="14558" />
	</node>
	<node lat="65.13981111335933" lon="10.768800009902865" id="-41116">
		<tag k="name" v="Grunnråsa" />
		<tag k="natural" v="shoal" />
		<tag k="place" v="locality" />
		<tag k="ssr:stedsnr" v="14559" />
	</node>
	<node lat="65.1031555578687" lon="10.9073583275626" id="-41118">
		<tag k="name" v="Skjæribåen" />
		<tag k="natural" v="shoal" />
		<tag k="place" v="locality" />
		<tag k="ssr:stedsnr" v="14565" />
	</node>
	<node lat="64.921108336443" lon="10.78838055690106" id="-41119">
		<tag k="name" v="Veraholmen" />
		<tag k="place" v="islet" />
		<tag k="ssr:stedsnr" v="14566" />
	</node>
	<node lat="64.83471944333765" lon="10.92999166405325" id="-41121">
		<tag k="name" v="Brønnøysandholman" />
		<tag k="place" v="islet" />
		<tag k="ssr:stedsnr" v="14713" />
	</node>
	<node lat="64.83496388652202" lon="10.942236112766768" id="-41122">
		<tag k="name" v="Trettholmen" />
		<tag k="place" v="islet" />
		<tag k="ssr:stedsnr" v="14714" />
	</node>
	<node lat="64.82966111121745" lon="10.99295277401669" id="-41123">
		<tag k="name" v="Trettholman" />
		<tag k="place" v="islet" />
		<tag k="ssr:stedsnr" v="14720" />
	</node>
	<node lat="64.84028610693646" lon="10.714061102971728" id="-41125">
		<tag k="name" v="Brentøya" />
		<tag k="place" v="islet" />
		<tag k="ssr:stedsnr" v="14616" />
	</node>
	<node lat="64.83480555293386" lon="10.621016657178627" id="-41126">
		<tag k="fixme" v="consider seamark:type=rock or natural=shoal" />
		<tag k="name" v="Joskjæret" />
		<tag k="place" v="islet" />
		<tag k="ssr:stedsnr" v="14624" />
	</node>
	<node lat="64.84168056015585" lon="10.62419165702765" id="-41127">
		<tag k="name" v="Revsholmen" />
		<tag k="place" v="islet" />
		<tag k="ssr:stedsnr" v="14630" />
	</node>
	<node lat="64.97833888985801" lon="10.955538895679526" id="-41128">
		<tag k="name" v="Bruraknappan" />
		<tag k="place" v="islet" />
		<tag k="ssr:stedsnr" v="14656" />
	</node>
	<node lat="64.97535833359889" lon="10.966405558360325" id="-41129">
		<tag k="name" v="Guttormsøya" />
		<tag k="place" v="islet" />
		<tag k="ssr:stedsnr" v="14658" />
	</node>
	<node lat="64.72348332971342" lon="10.553213880455354" id="-41131">
		<tag k="fixme" v="consider seamark:type=rock or natural=shoal" />
		<tag k="name" v="Sørøyhesten" />
		<tag k="place" v="islet" />
		<tag k="ssr:stedsnr" v="14862" />
	</node>
	<node lat="64.72975277370742" lon="10.574699991521907" id="-41132">
		<tag k="alt_name" v="Melgrunnen, austre" />
		<tag k="name" v="Austre Melgrunnen" />
		<tag k="natural" v="shoal" />
		<tag k="place" v="locality" />
		<tag k="ssr:stedsnr" v="14865" />
	</node>
	<node lat="64.70542221958569" lon="10.5872388879897" id="-41133">
		<tag k="fixme" v="consider seamark:type=rock or natural=shoal" />
		<tag k="name" v="Hyllfalla" />
		<tag k="place" v="islet" />
		<tag k="ssr:stedsnr" v="14868" />
	</node>
	<node lat="64.80442500223891" lon="11.75081389958681" id="-41136">
		<tag k="name" v="Kobbholet" />
		<tag k="natural" v="bay" />
		<tag k="old_name" v="Kobbhullet" />
		<tag k="ssr:stedsnr" v="14904" />
	</node>
	<node lat="64.74192499791116" lon="10.758688882353344" id="-41138">
		<tag k="alt_name" v="Ramnnakken" />
		<tag k="name" v="Ramnnakkan" />
		<tag k="place" v="islet" />
		<tag k="ssr:stedsnr" v="14910" />
	</node>
	<node lat="64.7248888880128" lon="10.783724997791007" id="-41140">
		<tag k="name" v="Auster-Kvernan" />
		<tag k="natural" v="shoal" />
		<tag k="place" v="locality" />
		<tag k="ssr:stedsnr" v="14965" />
	</node>
	<node lat="64.72028333472664" lon="11.145702774671589" id="-41141">
		<tag k="name" v="Skarvholmen" />
		<tag k="place" v="islet" />
		<tag k="ssr:stedsnr" v="14967" />
	</node>
	<node lat="64.9024583336441" lon="10.590311106730862" id="-41144">
		<tag k="fixme" v="consider seamark:type=rock or natural=shoal" />
		<tag k="name" v="Meløset" />
		<tag k="place" v="islet" />
		<tag k="ssr:stedsnr" v="15159" />
	</node>
	<node lat="64.93186944549967" lon="11.250586118107643" id="-41145">
		<tag k="name" v="Liss-Ramnholmen" />
		<tag k="place" v="islet" />
		<tag k="ssr:stedsnr" v="15201" />
	</node>
	<node lat="64.93583055623866" lon="11.395633325292286" id="-41147">
		<tag k="fixme" v="consider seamark:type=rock or natural=shoal" />
		<tag k="name" v="Ausa" />
		<tag k="place" v="islet" />
		<tag k="ssr:stedsnr" v="15267" />
	</node>
	<node lat="64.79053333704684" lon="11.230794450152603" id="-41148">
		<tag k="name" v="Litl-Sandøya" />
		<tag k="place" v="islet" />
		<tag k="ssr:stedsnr" v="15403" />
	</node>
	<node lat="64.81712499913198" lon="11.631127783531719" id="-41149">
		<tag k="name" v="Geisnes" />
		<tag k="natural" v="cape" />
		<tag k="ssr:stedsnr" v="15315" />
	</node>
	<node lat="64.81043333265558" lon="11.252136120149766" id="-41150">
		<tag k="alt_name" v="Leirvikvågen" />
		<tag k="name" v="Levikvågen" />
		<tag k="natural" v="bay" />
		<tag k="ssr:stedsnr" v="15362" />
	</node>
	<node lat="64.94243055232015" lon="11.9751583405165" id="-41153">
		<tag k="name" v="Årforholmen" />
		<tag k="place" v="islet" />
		<tag k="ssr:stedsnr" v="15606" />
	</node>
	<node lat="65.0095194432762" lon="10.694027787677033" id="-41154">
		<tag k="name" v="Monsrestaren" />
		<tag k="natural" v="shoal" />
		<tag k="place" v="locality" />
		<tag k="ssr:stedsnr" v="15616" />
	</node>
	<node lat="65.02315277885165" lon="11.113374990327724" id="-41155">
		<tag k="alt_name" v="Håvsundet" />
		<tag k="name" v="Hovsundet" />
		<tag k="natural" v="strait" />
		<tag k="ssr:stedsnr" v="15622" />
	</node>
	<node lat="64.97221111530844" lon="11.754861103925556" id="-41156">
		<tag k="name" v="Heggvika" />
		<tag k="natural" v="bay" />
		<tag k="ssr:stedsnr" v="15655" />
	</node>
	<node lat="64.78064166432" lon="10.645305550943455" id="-41157">
		<tag k="fixme" v="consider seamark:type=rock or natural=shoal" />
		<tag k="name" v="Stabben" />
		<tag k="place" v="islet" />
		<tag k="ssr:stedsnr" v="15658" />
	</node>
	<node lat="64.96861944605577" lon="12.055977786205668" id="-41158">
		<tag k="name" v="Åbogen" />
		<tag k="natural" v="bay" />
		<tag k="ssr:stedsnr" v="15667" />
	</node>
	<node lat="64.84165833250164" lon="10.734769447456335" id="-41160">
		<tag k="name" v="Kløvningsvalen" />
		<tag k="natural" v="strait" />
		<tag k="ssr:stedsnr" v="15808" />
	</node>
	<node lat="64.9338805594531" lon="12.286627783538831" id="-41162">
		<tag k="name" v="Forneset" />
		<tag k="natural" v="cape" />
		<tag k="ssr:stedsnr" v="15816" />
	</node>
	<node lat="65.01176944736339" lon="11.144250003647795" id="-41165">
		<tag k="alt_name" v="Andaholman" />
		<tag k="name" v="Andaholmen" />
		<tag k="place" v="islet" />
		<tag k="ssr:stedsnr" v="15701" />
	</node>
	<node lat="65.00761944645971" lon="10.960141674833032" id="-41166">
		<tag k="name" v="Måholman" />
		<tag k="place" v="island" />
		<tag k="ssr:stedsnr" v="15703" />
	</node>
	<node lat="64.96746388844367" lon="10.750883328444841" id="-41168">
		<tag k="name" v="Grønnholmen" />
		<tag k="place" v="islet" />
		<tag k="ssr:stedsnr" v="15723" />
	</node>
	<node lat="64.79615555907314" lon="10.529147223704157" id="-41176">
		<tag k="name" v="Gullfrøholmhausen" />
		<tag k="natural" v="shoal" />
		<tag k="place" v="locality" />
		<tag k="ssr:stedsnr" v="23482" />
	</node>
	<node lat="64.99864444167738" lon="10.99273054515337" id="-41177">
		<tag k="name" v="Galtslua" />
		<tag k="natural" v="shoal" />
		<tag k="place" v="locality" />
		<tag k="ssr:stedsnr" v="24629" />
	</node>
	<node lat="64.75344660583872" lon="11.174663107117217" id="-41178">
		<tag k="name" v="Ormtunga" />
		<tag k="place" v="islet" />
		<tag k="ssr:stedsnr" v="24873" />
	</node>
	<node lat="64.72656667113557" lon="10.826674992036804" id="-41182">
		<tag k="name" v="Austrevet" />
		<tag k="natural" v="shoal" />
		<tag k="place" v="locality" />
		<tag k="ssr:stedsnr" v="25203" />
	</node>
	<node lat="64.7369583362498" lon="10.81078055596111" id="-41183">
		<tag k="name" v="Mefjordskjærslua" />
		<tag k="natural" v="shoal" />
		<tag k="place" v="locality" />
		<tag k="ssr:stedsnr" v="25211" />
	</node>
	<node lat="64.70271110668719" lon="10.751386117363573" id="-41184">
		<tag k="name" v="Knausen" />
		<tag k="natural" v="shoal" />
		<tag k="place" v="locality" />
		<tag k="ssr:stedsnr" v="25184" />
	</node>
	<node lat="64.72342778187603" lon="10.819155562945797" id="-41185">
		<tag k="name" v="Midtrevet" />
		<tag k="natural" v="shoal" />
		<tag k="place" v="locality" />
		<tag k="ssr:stedsnr" v="25194" />
	</node>
	<node lat="64.67559722535307" lon="10.55198332576783" id="-41186">
		<tag k="name" v="Skjærtaran" />
		<tag k="natural" v="shoal" />
		<tag k="place" v="locality" />
		<tag k="ssr:stedsnr" v="25301" />
	</node>
	<node lat="64.93371388507512" lon="10.749652779705173" id="-41187">
		<tag k="name" v="Æmådraget" />
		<tag k="place" v="islet" />
		<tag k="ssr:stedsnr" v="25694" />
	</node>
	<node lat="64.90173888514988" lon="11.354886118227645" id="-41191">
		<tag k="name" v="Torstadhammeren" />
		<tag k="natural" v="cape" />
		<tag k="ssr:stedsnr" v="26911" />
	</node>
	<node lat="64.79040555475017" lon="11.046722227758105" id="-41192">
		<tag k="name" v="Råholmen" />
		<tag k="place" v="islet" />
		<tag k="ssr:stedsnr" v="27300" />
	</node>
	<node lat="64.93047777992271" lon="11.35425000986262" id="-41194">
		<tag k="name" v="Ytter-Hauøytaran" />
		<tag k="natural" v="shoal" />
		<tag k="place" v="locality" />
		<tag k="ssr:stedsnr" v="28020" />
	</node>
	<node lat="64.96561666879042" lon="11.321613883795528" id="-41195">
		<tag k="name" v="Breigrunnen" />
		<tag k="natural" v="shoal" />
		<tag k="place" v="locality" />
		<tag k="ssr:stedsnr" v="28023" />
	</node>
	<node lat="64.94856389163279" lon="11.245808342213712" id="-41196">
		<tag k="name" v="Ramnholmslua" />
		<tag k="place" v="locality" />
		<tag k="seamark:type" v="rock" />
		<tag k="ssr:stedsnr" v="28025" />
	</node>
	<node lat="64.75631944692039" lon="11.135363885749708" id="-41197">
		<tag k="name" v="Baltaran" />
		<tag k="natural" v="shoal" />
		<tag k="place" v="locality" />
		<tag k="ssr:stedsnr" v="28110" />
	</node>
	<node lat="64.80532499953692" lon="11.068158330347083" id="-41206">
		<tag k="fixme" v="consider seamark:type=rock or natural=shoal" />
		<tag k="name" v="Vinterflesa" />
		<tag k="place" v="islet" />
		<tag k="ssr:stedsnr" v="28608" />
	</node>
	<node lat="64.80229166368012" lon="11.132136114227992" id="-41207">
		<tag k="name" v="Storslua" />
		<tag k="natural" v="shoal" />
		<tag k="place" v="locality" />
		<tag k="ssr:stedsnr" v="28612" />
	</node>
	<node lat="65.0697944464286" lon="11.981222221038163" id="-41208">
		<tag k="name" v="Marenodden" />
		<tag k="natural" v="cape" />
		<tag k="ssr:stedsnr" v="234840" />
	</node>
	<node lat="64.95468611175967" lon="12.188355562317327" id="-41211">
		<tag k="name" v="Straumnesodden" />
		<tag k="natural" v="cape" />
		<tag k="ssr:stedsnr" v="236395" />
	</node>
	<node lat="64.81177500244321" lon="11.580061112275779" id="-41230">
		<tag k="bay" v="fjord" />
		<tag k="name" v="Buøyråsa" />
		<tag k="natural" v="bay" />
		<tag k="ssr:stedsnr" v="44104" />
	</node>
	<node lat="64.79376944637708" lon="11.245208340146085" id="-41235">
		<tag k="name" v="Arnøysteinen" />
		<tag k="place" v="island" />
		<tag k="ssr:stedsnr" v="44383" />
	</node>
	<node lat="64.73563847161525" lon="11.200972904676524" id="-41238">
		<tag k="alt_name" v="Auneholmen" />
		<tag k="name" v="Aunholmen" />
		<tag k="place" v="islet" />
		<tag k="ssr:stedsnr" v="44393" />
	</node>
	<node lat="64.95002499901909" lon="11.63684443794863" id="-41240">
		<tag k="name" v="Småvikodden" />
		<tag k="natural" v="cape" />
		<tag k="ssr:stedsnr" v="47212" />
	</node>
	<node lat="64.92346944221151" lon="10.80446110312739" id="-41243">
		<tag k="name" v="Hammarsnessa" />
		<tag k="natural" v="cape" />
		<tag k="ssr:stedsnr" v="47177" />
	</node>
	<node lat="64.9298944444195" lon="11.226611118549062" id="-41245">
		<tag k="name" v="Vikestadodden" />
		<tag k="natural" v="cape" />
		<tag k="ssr:stedsnr" v="47304" />
	</node>
	<node lat="64.92898888947042" lon="11.247377775210472" id="-41246">
		<tag k="name" v="Fornøyta" />
		<tag k="place" v="islet" />
		<tag k="ssr:stedsnr" v="47305" />
	</node>
	<node lat="64.98058055681086" lon="11.702752785287512" id="-41248">
		<tag k="name" v="Liss-Hestvika" />
		<tag k="natural" v="bay" />
		<tag k="ssr:stedsnr" v="47506" />
	</node>
	<node lat="64.90074444307231" lon="11.09264999176203" id="-41254">
		<tag k="name" v="Buvika" />
		<tag k="natural" v="beach" />
		<tag k="ssr:stedsnr" v="47616" />
	</node>
	<node lat="64.8557583346151" lon="11.07950833779927" id="-41264">
		<tag k="name" v="Ofstadrevstranda" />
		<tag k="natural" v="beach" />
		<tag k="ssr:stedsnr" v="47886" />
	</node>
	<node lat="64.91700555283771" lon="11.28454722620186" id="-41266">
		<tag k="name" v="Litl-Flatøya" />
		<tag k="natural" v="beach" />
		<tag k="ssr:stedsnr" v="48302" />
	</node>
	<node lat="64.85907222104846" lon="11.805855547140805" id="-41268">
		<tag k="name" v="Kvistabotnet" />
		<tag k="natural" v="bay" />
		<tag k="ssr:stedsnr" v="50789" />
	</node>
	<node lat="64.83584999730306" lon="11.667775007160312" id="-41271">
		<tag k="name" v="Daukjerringrevvå" />
		<tag k="natural" v="beach" />
		<tag k="ssr:stedsnr" v="50813" />
	</node>
	<node lat="64.83392777660433" lon="11.742544438653772" id="-41272">
		<tag k="name" v="Estenodden" />
		<tag k="natural" v="cape" />
		<tag k="ssr:stedsnr" v="50819" />
	</node>
	<node lat="64.8481777755604" lon="11.785580552985532" id="-41273">
		<tag k="name" v="Saltbuvika" />
		<tag k="natural" v="bay" />
		<tag k="ssr:stedsnr" v="50823" />
	</node>
	<node lat="64.74454999805073" lon="10.776852782049383" id="-41281">
		<tag k="fixme" v="consider seamark:type=rock or natural=shoal" />
		<tag k="name" v="Flintskjæret" />
		<tag k="place" v="islet" />
		<tag k="ssr:stedsnr" v="53487" />
	</node>
	<node lat="64.91793333759279" lon="11.338805546647212" id="-41293">
		<tag k="name" v="Steinsøya" />
		<tag k="place" v="islet" />
		<tag k="ssr:stedsnr" v="75004" />
	</node>
	<node lat="64.9161805577308" lon="11.375225008024595" id="-41294">
		<tag k="name" v="Svinøya" />
		<tag k="place" v="island" />
		<tag k="ssr:stedsnr" v="75005" />
	</node>
	<node lat="64.90356944323419" lon="11.28126111066808" id="-41300">
		<tag k="alt_name" v="Djupvika" />
		<tag k="name" v="Juvika" />
		<tag k="natural" v="bay" />
		<tag k="ssr:stedsnr" v="75064" />
	</node>
	<node lat="64.90998888510772" lon="10.660349999206469" id="-41303">
		<tag k="name" v="Bjørholman" />
		<tag k="place" v="islet" />
		<tag k="ssr:stedsnr" v="75160" />
	</node>
	<node lat="64.91628888631827" lon="10.548630545210482" id="-41304">
		<tag k="fixme" v="consider seamark:type=rock or natural=shoal" />
		<tag k="name" v="Svartskjæret" />
		<tag k="place" v="islet" />
		<tag k="ssr:stedsnr" v="75164" />
	</node>
	<node lat="65.01764999945976" lon="11.806330549443587" id="-41305">
		<tag k="name" v="Myrvika" />
		<tag k="natural" v="bay" />
		<tag k="ssr:stedsnr" v="75168" />
	</node>
	<node lat="64.72898333625535" lon="11.250294441269872" id="-41309">
		<tag k="alt_name" v="Hestvikholmen" />
		<tag k="name" v="Hestvikhaugen" />
		<tag k="natural" v="cape" />
		<tag k="ssr:stedsnr" v="75319" />
	</node>
	<node lat="64.8693749984859" lon="11.571536121478925" id="-41310">
		<tag k="name" v="Nordsjøen" />
		<tag k="natural" v="bay" />
		<tag k="ssr:stedsnr" v="75415" />
	</node>
	<node lat="65.02322499994914" lon="11.104311114369445" id="-41315">
		<tag k="name" v="Bårdsøya" />
		<tag k="old_name" v="Bårdsøya, store" />
		<tag k="place" v="islet" />
		<tag k="ssr:stedsnr" v="75607" />
	</node>
	<node lat="65.02716111005162" lon="10.747086111835516" id="-41316">
		<tag k="alt_name" v="Binderøytaren;Bindøytaren" />
		<tag k="name" v="Binnerøytaren" />
		<tag k="natural" v="shoal" />
		<tag k="place" v="locality" />
		<tag k="ssr:stedsnr" v="75609" />
	</node>
	<node lat="64.90612500010015" lon="11.064772228917285" id="-41317">
		<tag k="bay" v="fjord" />
		<tag k="name" v="Kleifjorden" />
		<tag k="natural" v="bay" />
		<tag k="ssr:stedsnr" v="75612" />
	</node>
	<node lat="64.83932500337829" lon="11.324469447520782" id="-41322">
		<tag k="name" v="Lonet" />
		<tag k="natural" v="bay" />
		<tag k="ssr:stedsnr" v="75519" />
	</node>
	<node lat="64.95574444567532" lon="11.165411103142391" id="-41324">
		<tag k="alt_name" v="Fåhøvo" />
		<tag k="name" v="Fåhøva" />
		<tag k="place" v="islet" />
		<tag k="ssr:stedsnr" v="75553" />
	</node>
	<node lat="64.95813055724659" lon="11.168633334491771" id="-41325">
		<tag k="name" v="Nisøya" />
		<tag k="place" v="islet" />
		<tag k="ssr:stedsnr" v="75555" />
	</node>
	<node lat="64.95059722305467" lon="11.211733340857455" id="-41327">
		<tag k="name" v="Balan" />
		<tag k="place" v="islet" />
		<tag k="ssr:stedsnr" v="75557" />
	</node>
	<node lat="64.82863333766619" lon="10.706386113961134" id="-41331">
		<tag k="name" v="Gåsværet" />
		<tag k="place" v="islet" />
		<tag k="ssr:stedsnr" v="75701" />
	</node>
	<node lat="64.81589721961332" lon="10.558744435817202" id="-41332">
		<tag k="fixme" v="consider seamark:type=rock or natural=shoal" />
		<tag k="name" v="Stongtarraskjæret" />
		<tag k="place" v="islet" />
		<tag k="ssr:stedsnr" v="75703" />
	</node>
	<node lat="64.84447221980002" lon="10.71610000494358" id="-41336">
		<tag k="name" v="Steinsholmen" />
		<tag k="place" v="islet" />
		<tag k="ssr:stedsnr" v="75719" />
	</node>
	<node lat="64.95844999972647" lon="12.030700007120434" id="-41337">
		<tag k="name" v="Sjøstranda" />
		<tag k="natural" v="beach" />
		<tag k="ssr:stedsnr" v="75649" />
	</node>
	<node lat="65.04744999781528" lon="10.723827781279727" id="-41339">
		<tag k="name" v="Skåktaran" />
		<tag k="natural" v="shoal" />
		<tag k="place" v="locality" />
		<tag k="ssr:stedsnr" v="75657" />
	</node>
	<node lat="64.92620555747183" lon="10.773825010600454" id="-41340">
		<tag k="alt_name" v="Hinnholmen" />
		<tag k="name" v="Hindholmen" />
		<tag k="place" v="islet" />
		<tag k="ssr:stedsnr" v="75659" />
	</node>
	<node lat="64.74153888872816" lon="10.559336116504676" id="-41343">
		<tag k="name" v="Bursryggen" />
		<tag k="natural" v="shoal" />
		<tag k="place" v="locality" />
		<tag k="ssr:stedsnr" v="75914" />
	</node>
	<node lat="64.72737500328427" lon="10.599063881015404" id="-41344">
		<tag k="fixme" v="consider seamark:type=rock or natural=shoal" />
		<tag k="name" v="Svartflesa" />
		<tag k="place" v="islet" />
		<tag k="ssr:stedsnr" v="75919" />
	</node>
	<node lat="64.72899167116091" lon="10.684899993225832" id="-41345">
		<tag k="name" v="Skjeggbåsluin" />
		<tag k="natural" v="shoal" />
		<tag k="place" v="locality" />
		<tag k="ssr:stedsnr" v="75920" />
	</node>
	<node lat="64.74397777838435" lon="10.764602769493646" id="-41346">
		<tag k="name" v="Lissøyan" />
		<tag k="place" v="islet" />
		<tag k="ssr:stedsnr" v="75951" />
	</node>
	<node lat="64.74277777792675" lon="11.022711109896651" id="-41347">
		<tag k="name" v="Spygrunnsfallet" />
		<tag k="natural" v="shoal" />
		<tag k="place" v="locality" />
		<tag k="ssr:stedsnr" v="75953" />
	</node>
	<node lat="64.86060833601168" lon="11.029011116890091" id="-41350">
		<tag k="name" v="Skaget" />
		<tag k="natural" v="cape" />
		<tag k="ssr:stedsnr" v="75958" />
	</node>
	<node lat="64.74036016896157" lon="10.771927752249583" id="-41351">
		<tag k="name" v="Sør-Gjæslingan" />
		<tag k="place" v="island" />
		<tag k="ssr:stedsnr" v="75962" />
	</node>
	<node lat="64.89226389088158" lon="11.648275010088842" id="-41353">
		<tag k="name" v="Stor-Saltøya" />
		<tag k="place" v="islet" />
		<tag k="ssr:stedsnr" v="76099" />
	</node>
	<node lat="64.81043333069232" lon="11.69486945073599" id="-41354">
		<tag k="name" v="Kvalvika" />
		<tag k="natural" v="bay" />
		<tag k="ssr:stedsnr" v="76320" />
	</node>
	<node lat="64.75438888481784" lon="11.267313886124223" id="-41358">
		<tag k="alt_name" v="Gildevangholmen" />
		<tag k="name" v="Gilvangholmen" />
		<tag k="place" v="islet" />
		<tag k="ssr:stedsnr" v="76701" />
	</node>
	<node lat="64.7593555545724" lon="11.32253054527842" id="-41359">
		<tag k="name" v="Stor-Juvika" />
		<tag k="natural" v="bay" />
		<tag k="ssr:stedsnr" v="76713" />
	</node>
	<node lat="64.75810000119895" lon="11.429388887665743" id="-41360">
		<tag k="alt_name" v="Fallråsa" />
		<tag k="name" v="Fallråa" />
		<tag k="place" v="islet" />
		<tag k="ssr:stedsnr" v="76720" />
	</node>
	<node lat="64.78972499775777" lon="11.812230548270062" id="-41361">
		<tag k="fixme" v="consider seamark:type=rock or natural=shoal" />
		<tag k="name" v="Salvikskjæra" />
		<tag k="place" v="islet" />
		<tag k="ssr:stedsnr" v="76864" />
	</node>
	<node lat="64.79440000262206" lon="11.851469449789871" id="-41362">
		<tag k="name" v="Hagaodden" />
		<tag k="natural" v="cape" />
		<tag k="ssr:stedsnr" v="76865" />
	</node>
	<node lat="64.83735000219261" lon="11.795099997386918" id="-41365">
		<tag k="name" v="Jekthopen" />
		<tag k="natural" v="bay" />
		<tag k="ssr:stedsnr" v="76951" />
	</node>
	<node lat="64.80460277877701" lon="10.61796110075284" id="-41366">
		<tag k="name" v="Liss-Råholmen" />
		<tag k="place" v="islet" />
		<tag k="ssr:stedsnr" v="84410" />
	</node>
	<node lat="64.87735277730481" lon="10.508805558963987" id="-41367">
		<tag k="name" v="Nord-Valøyfalla" />
		<tag k="natural" v="shoal" />
		<tag k="place" v="locality" />
		<tag k="ssr:stedsnr" v="85333" />
	</node>
	<node lat="64.8455972232911" lon="10.452341664811422" id="-41369">
		<tag k="name" v="Djuptaren" />
		<tag k="natural" v="shoal" />
		<tag k="place" v="locality" />
		<tag k="ssr:stedsnr" v="86013" />
	</node>
	<node lat="64.85607777833435" lon="10.513711107595764" id="-41370">
		<tag k="name" v="Sistafalla" />
		<tag k="natural" v="shoal" />
		<tag k="place" v="locality" />
		<tag k="ssr:stedsnr" v="86027" />
	</node>
	<node lat="64.91016944118013" lon="10.51453888507105" id="-41371">
		<tag k="name" v="Olsbåen" />
		<tag k="natural" v="shoal" />
		<tag k="place" v="locality" />
		<tag k="ssr:stedsnr" v="85773" />
	</node>
	<node lat="65.00396944086214" lon="10.904799994153365" id="-41372">
		<tag k="name" v="Brossøyfalla" />
		<tag k="natural" v="shoal" />
		<tag k="place" v="locality" />
		<tag k="ssr:stedsnr" v="85998" />
	</node>
	<node lat="64.92206111225003" lon="11.504122215501727" id="-41373">
		<tag k="name" v="Kattulvikern" />
		<tag k="natural" v="bay" />
		<tag k="ssr:stedsnr" v="86078" />
	</node>
	<node lat="64.71928888744246" lon="10.757558339943296" id="-41375">
		<tag k="name" v="Vinterknausen" />
		<tag k="natural" v="shoal" />
		<tag k="place" v="locality" />
		<tag k="ssr:stedsnr" v="86223" />
	</node>
	<node lat="64.77985555860118" lon="10.750200007310243" id="-41376">
		<tag k="name" v="Guridslua" />
		<tag k="natural" v="shoal" />
		<tag k="place" v="locality" />
		<tag k="ssr:stedsnr" v="86155" />
	</node>
	<node lat="64.92524999551124" lon="11.895380564144302" id="-41378">
		<tag k="name" v="Sandaodden" />
		<tag k="natural" v="cape" />
		<tag k="ssr:stedsnr" v="87014" />
	</node>
	<node lat="64.9855083300056" lon="11.191233342417025" id="-41384">
		<tag k="name" v="Ytter-Ragnhildtaren" />
		<tag k="place" v="locality" />
		<tag k="seamark:type" v="rock" />
		<tag k="ssr:stedsnr" v="88491" />
	</node>
	<node lat="64.9680361097159" lon="11.314405548691221" id="-41387">
		<tag k="name" v="Metaren" />
		<tag k="natural" v="shoal" />
		<tag k="place" v="locality" />
		<tag k="ssr:stedsnr" v="89011" />
	</node>
	<node lat="64.79611666325259" lon="11.842513880294423" id="-41388">
		<tag k="fixme" v="consider seamark:type=rock or natural=shoal" />
		<tag k="name" v="Oppløyskjæret" />
		<tag k="place" v="islet" />
		<tag k="ssr:stedsnr" v="89118" />
	</node>
	<node lat="64.9430416704307" lon="12.303602784650238" id="-41389">
		<tag k="name" v="Heimsneshammaren" />
		<tag k="natural" v="cape" />
		<tag k="ssr:stedsnr" v="96326" />
	</node>
	<node lat="64.83574444285505" lon="11.275013892151563" id="-41399">
		<tag k="name" v="Sørvågen" />
		<tag k="natural" v="bay" />
		<tag k="ssr:stedsnr" v="104179" />
	</node>
	<node lat="64.83439166950473" lon="11.631227773761687" id="-41405">
		<tag k="name" v="Hyllå" />
		<tag k="natural" v="beach" />
		<tag k="ssr:stedsnr" v="105095" />
	</node>
	<node lat="64.83568611387123" lon="11.634555563921095" id="-41406">
		<tag k="name" v="Skjuravika" />
		<tag k="natural" v="bay" />
		<tag k="ssr:stedsnr" v="105096" />
	</node>
	<node lat="64.78658611398292" lon="11.290858337935816" id="-41408">
		<tag k="name" v="Pungen" />
		<tag k="natural" v="bay" />
		<tag k="ssr:stedsnr" v="105213" />
	</node>
	<node lat="64.7361944432447" lon="11.16984999118887" id="-41411">
		<tag k="name" v="Abelvær" />
		<tag k="place" v="island" />
		<tag k="ssr:stedsnr" v="105422" />
	</node>
	<node lat="64.99330278114842" lon="11.78250832479636" id="-41418">
		<tag k="name" v="Tjuvneset" />
		<tag k="natural" v="cape" />
		<tag k="ssr:stedsnr" v="107603" />
	</node>
	<node lat="64.83837499610152" lon="10.771122220767209" id="-41419">
		<tag k="name" v="Skurven" />
		<tag k="place" v="islet" />
		<tag k="ssr:stedsnr" v="108124" />
	</node>
	<node lat="65.01727500074708" lon="11.780872227819726" id="-41420">
		<tag k="name" v="Buneset" />
		<tag k="natural" v="cape" />
		<tag k="ssr:stedsnr" v="108021" />
	</node>
	<node lat="64.93569999875865" lon="11.648536113000068" id="-41422">
		<tag k="name" v="Røyrstrandholmen" />
		<tag k="place" v="islet" />
		<tag k="ssr:stedsnr" v="108211" />
	</node>
	<node lat="64.933802775154" lon="11.653630561577703" id="-41423">
		<tag k="name" v="Andersvika" />
		<tag k="natural" v="bay" />
		<tag k="ssr:stedsnr" v="108213" />
	</node>
	<node lat="64.94479166459764" lon="11.575863894800632" id="-41425">
		<tag k="name" v="Jektvika" />
		<tag k="natural" v="bay" />
		<tag k="ssr:stedsnr" v="108224" />
	</node>
	<node lat="64.92499444174022" lon="11.597347228208694" id="-41426">
		<tag k="name" v="Olderneset" />
		<tag k="natural" v="cape" />
		<tag k="ssr:stedsnr" v="108170" />
	</node>
	<node lat="65.02188055131514" lon="11.818586105594267" id="-41428">
		<tag k="name" v="Lusvika" />
		<tag k="natural" v="bay" />
		<tag k="ssr:stedsnr" v="108282" />
	</node>
	<node lat="65.05542777724158" lon="11.891283333455547" id="-41433">
		<tag k="name" v="Mannaodden" />
		<tag k="natural" v="cape" />
		<tag k="ssr:stedsnr" v="108481" />
	</node>
	<node lat="65.05151111111444" lon="11.883869436240623" id="-41434">
		<tag k="name" v="Mønnavika" />
		<tag k="natural" v="bay" />
		<tag k="ssr:stedsnr" v="108483" />
	</node>
	<node lat="64.83994999719178" lon="11.08835833851987" id="-41443">
		<tag k="name" v="Dekkerhusvågen" />
		<tag k="natural" v="bay" />
		<tag k="ssr:stedsnr" v="109879" />
	</node>
	<node lat="64.84012778146034" lon="11.074222215095233" id="-41444">
		<tag k="name" v="Munksteinholmen" />
		<tag k="place" v="islet" />
		<tag k="ssr:stedsnr" v="109887" />
	</node>
	<node lat="64.95215555620663" lon="11.423527779559894" id="-41448">
		<tag k="name" v="Feskjivågodden" />
		<tag k="natural" v="cape" />
		<tag k="ssr:stedsnr" v="111471" />
	</node>
	<node lat="64.95421944076205" lon="11.426891661780434" id="-41449">
		<tag k="name" v="Klubben" />
		<tag k="place" v="islet" />
		<tag k="ssr:stedsnr" v="111473" />
	</node>
	<node lat="64.85604166616419" lon="11.80335277776275" id="-41452">
		<tag k="name" v="Grønneset" />
		<tag k="natural" v="cape" />
		<tag k="ssr:stedsnr" v="111811" />
	</node>
	<node lat="64.83466111168809" lon="11.675338881791987" id="-41453">
		<tag k="fixme" v="consider seamark:type=rock or natural=shoal" />
		<tag k="name" v="Valaskjæra" />
		<tag k="place" v="islet" />
		<tag k="ssr:stedsnr" v="111821" />
	</node>
	<node lat="64.91522499776612" lon="11.266277774332451" id="-41463">
		<tag k="name" v="Kvitholmen" />
		<tag k="place" v="islet" />
		<tag k="ssr:stedsnr" v="135002" />
	</node>
	<node lat="64.91976388446797" lon="11.346833336802243" id="-41465">
		<tag k="fixme" v="consider seamark:type=rock or natural=shoal" />
		<tag k="name" v="Steinsøyskjæret" />
		<tag k="place" v="islet" />
		<tag k="ssr:stedsnr" v="135007" />
	</node>
	<node lat="64.88729192912534" lon="11.597684218693525" id="-41467">
		<tag k="name" v="Bjørkneset" />
		<tag k="natural" v="cape" />
		<tag k="ssr:stedsnr" v="135112" />
	</node>
	<node lat="64.97827499808433" lon="11.619675001139983" id="-41468">
		<tag k="alt_name" v="Båsnesodden" />
		<tag k="name" v="Båsneset" />
		<tag k="natural" v="cape" />
		<tag k="ssr:stedsnr" v="135116" />
	</node>
	<node lat="64.80609166305737" lon="11.644016669154292" id="-41470">
		<tag k="alt_name" v="Himmelsholmen" />
		<tag k="name" v="Himmelholmen" />
		<tag k="place" v="islet" />
		<tag k="ssr:stedsnr" v="135310" />
	</node>
	<node lat="64.80261388650091" lon="11.535133340856772" id="-41471">
		<tag k="name" v="Gåshaugvika" />
		<tag k="natural" v="bay" />
		<tag k="ssr:stedsnr" v="135312" />
	</node>
	<node lat="64.80397499676947" lon="11.506824994376878" id="-41472">
		<tag k="name" v="Tjeldneset" />
		<tag k="natural" v="cape" />
		<tag k="ssr:stedsnr" v="135314" />
	</node>
	<node lat="64.8049666688114" lon="11.291661108971915" id="-41474">
		<tag k="bay" v="fjord" />
		<tag k="name" v="Rossøyfjorden" />
		<tag k="natural" v="bay" />
		<tag k="ssr:stedsnr" v="135317" />
	</node>
	<node lat="64.80421944050106" lon="11.233338889410266" id="-41476">
		<tag k="name" v="Korsholmen" />
		<tag k="place" v="islet" />
		<tag k="ssr:stedsnr" v="135323" />
	</node>
	<node lat="64.80026885270219" lon="11.337362493865696" id="-41478">
		<tag k="name" v="Kjeøya" />
		<tag k="place" v="island" />
		<tag k="ssr:stedsnr" v="135334" />
	</node>
	<node lat="64.83276110711773" lon="11.676730562261904" id="-41480">
		<tag k="name" v="Fugløya" />
		<tag k="place" v="islet" />
		<tag k="ssr:stedsnr" v="135251" />
	</node>
	<node lat="64.82461111221376" lon="11.258150002625106" id="-41481">
		<tag k="name" v="Flosandvågen" />
		<tag k="natural" v="bay" />
		<tag k="ssr:stedsnr" v="135254" />
	</node>
	<node lat="64.98580833149809" lon="11.078449991745822" id="-41484">
		<tag k="name" v="Hjortøykalven" />
		<tag k="natural" v="cape" />
		<tag k="ssr:stedsnr" v="135702" />
	</node>
	<node lat="64.99930277647138" lon="11.147955551938951" id="-41486">
		<tag k="name" v="Olsøya" />
		<tag k="place" v="islet" />
		<tag k="ssr:stedsnr" v="135720" />
	</node>
	<node lat="64.83476111208617" lon="10.625736111706583" id="-41489">
		<tag k="name" v="Valholmen" />
		<tag k="place" v="islet" />
		<tag k="ssr:stedsnr" v="135657" />
	</node>
	<node lat="64.89185555562986" lon="10.920738898675033" id="-41496">
		<tag k="name" v="Storøya" />
		<tag k="place" v="islet" />
		<tag k="ssr:stedsnr" v="135904" />
	</node>
	<node lat="64.72882096775332" lon="11.191913850065104" id="-41497">
		<tag k="alt_name" v="Follaholmen" />
		<tag k="name" v="Foldaholmen" />
		<tag k="place" v="islet" />
		<tag k="ssr:stedsnr" v="135950" />
	</node>
	<node lat="64.86705000307691" lon="10.931802774947432" id="-41499">
		<tag k="name" v="Rossøyvågen" />
		<tag k="natural" v="strait" />
		<tag k="ssr:stedsnr" v="135962" />
	</node>
	<node lat="64.86783611181508" lon="11.076591668499331" id="-41500">
		<tag k="name" v="Hammarsaunvågen" />
		<tag k="natural" v="bay" />
		<tag k="ssr:stedsnr" v="135966" />
	</node>
	<node lat="64.85857499743786" lon="10.951580558424956" id="-41502">
		<tag k="name" v="Hestøydraget" />
		<tag k="place" v="islet" />
		<tag k="ssr:stedsnr" v="135988" />
	</node>
	<node lat="64.89893610764955" lon="11.354758339085471" id="-41504">
		<tag k="name" v="Dummelodden" />
		<tag k="natural" v="cape" />
		<tag k="ssr:stedsnr" v="136110" />
	</node>
	<node lat="64.9267555568664" lon="11.286930547450357" id="-41506">
		<tag k="name" v="Kvalvika" />
		<tag k="natural" v="bay" />
		<tag k="ssr:stedsnr" v="136258" />
	</node>
	<node lat="64.9620194457584" lon="10.652877773546123" id="-41511">
		<tag k="name" v="Kvernskaftet" />
		<tag k="place" v="islet" />
		<tag k="ssr:stedsnr" v="136199" />
	</node>
	<node lat="64.95962499843414" lon="10.747297216617834" id="-41514">
		<tag k="name" v="Tjønnholmen" />
		<tag k="place" v="islet" />
		<tag k="ssr:stedsnr" v="136350" />
	</node>
	<node lat="64.81542777904887" lon="11.657900007806571" id="-41517">
		<tag k="name" v="Kalvneset" />
		<tag k="natural" v="cape" />
		<tag k="ssr:stedsnr" v="136359" />
	</node>
	<node lat="64.96615832990337" lon="10.958166656973217" id="-41521">
		<tag k="alt_name" v="Hinnholmen" />
		<tag k="name" v="Hindholmen" />
		<tag k="place" v="islet" />
		<tag k="ssr:stedsnr" v="136567" />
	</node>
	<node lat="64.75564999598613" lon="11.29067500161632" id="-41522">
		<tag k="name" v="Litløya" />
		<tag k="place" v="islet" />
		<tag k="ssr:stedsnr" v="136712" />
	</node>
	<node lat="64.76715000360295" lon="11.34025834233489" id="-41523">
		<tag k="name" v="Rotholmen" />
		<tag k="place" v="islet" />
		<tag k="ssr:stedsnr" v="136717" />
	</node>
	<node lat="64.76562500335602" lon="11.318438880345628" id="-41524">
		<tag k="alt_name" v="Steinslangøya" />
		<tag k="name" v="Steinslangholmen" />
		<tag k="place" v="islet" />
		<tag k="ssr:stedsnr" v="136723" />
	</node>
	<node lat="64.76721389129226" lon="10.62173610215605" id="-41525">
		<tag k="name" v="Rognholman" />
		<tag k="place" v="islet" />
		<tag k="ssr:stedsnr" v="136765" />
	</node>
	<node lat="64.94885277486298" lon="11.953819437650514" id="-41530">
		<tag k="name" v="Årforbukta" />
		<tag k="natural" v="bay" />
		<tag k="ssr:stedsnr" v="136610" />
	</node>
	<node lat="64.78248333773878" lon="10.859344450821192" id="-41539">
		<tag k="fixme" v="consider seamark:type=rock or natural=shoal" />
		<tag k="name" v="Ertnbrakan" />
		<tag k="place" v="islet" />
		<tag k="ssr:stedsnr" v="136822" />
	</node>
	<node lat="64.84342222663342" lon="10.929055553040737" id="-41542">
		<tag k="fixme" v="consider seamark:type=rock or natural=shoal" />
		<tag k="name" v="Dyrøyskjæran" />
		<tag k="place" v="islet" />
		<tag k="ssr:stedsnr" v="136801" />
	</node>
	<node lat="65.00590833322029" lon="11.063016676953483" id="-41550">
		<tag k="name" v="Emåflaket" />
		<tag k="natural" v="shoal" />
		<tag k="place" v="locality" />
		<tag k="ssr:stedsnr" v="145712" />
	</node>
	<node lat="65.00750833064316" lon="11.0769333305141" id="-41551">
		<tag k="name" v="Kjeften" />
		<tag k="place" v="islet" />
		<tag k="ssr:stedsnr" v="145713" />
	</node>
	<node lat="64.88498333171115" lon="10.492569447510517" id="-41552">
		<tag k="name" v="Kollbåen" />
		<tag k="natural" v="shoal" />
		<tag k="place" v="locality" />
		<tag k="ssr:stedsnr" v="146015" />
	</node>
	<node lat="64.88418610777755" lon="10.5200444444662" id="-41553">
		<tag k="name" v="Vintertaren" />
		<tag k="natural" v="shoal" />
		<tag k="place" v="locality" />
		<tag k="ssr:stedsnr" v="146018" />
	</node>
	<node lat="64.74171388802607" lon="10.73138889541855" id="-41557">
		<tag k="name" v="Ramnnakktaren" />
		<tag k="natural" v="shoal" />
		<tag k="place" v="locality" />
		<tag k="ssr:stedsnr" v="146221" />
	</node>
	<node lat="64.76525832996668" lon="10.682072222844521" id="-41559">
		<tag k="name" v="Kvitingtaren" />
		<tag k="natural" v="shoal" />
		<tag k="place" v="locality" />
		<tag k="ssr:stedsnr" v="146107" />
	</node>
	<node lat="64.77164166856896" lon="10.466138880000367" id="-41560">
		<tag k="name" v="Merraskolten" />
		<tag k="natural" v="shoal" />
		<tag k="place" v="locality" />
		<tag k="ssr:stedsnr" v="146119" />
	</node>
	<node lat="65.00235555542689" lon="10.703994434506052" id="-41561">
		<tag k="name" v="Sørtåa" />
		<tag k="natural" v="shoal" />
		<tag k="place" v="locality" />
		<tag k="ssr:stedsnr" v="146907" />
	</node>
	<node lat="64.88823611050867" lon="11.66210556233578" id="-41563">
		<tag k="name" v="Bolodden" />
		<tag k="natural" v="cape" />
		<tag k="ssr:stedsnr" v="147059" />
	</node>
	<node lat="64.91595000417593" lon="10.828047214138483" id="-41569">
		<tag k="fixme" v="consider seamark:type=rock or natural=shoal" />
		<tag k="name" v="Karstenskjæret" />
		<tag k="place" v="islet" />
		<tag k="ssr:stedsnr" v="147663" />
	</node>
	<node lat="64.9605611142205" lon="10.619113889606863" id="-41570">
		<tag k="name" v="Bondrevelen" />
		<tag k="natural" v="shoal" />
		<tag k="place" v="locality" />
		<tag k="ssr:stedsnr" v="147706" />
	</node>
	<node lat="64.95750278132581" lon="10.602980550845169" id="-41571">
		<tag k="name" v="Isterhausan" />
		<tag k="natural" v="shoal" />
		<tag k="place" v="locality" />
		<tag k="ssr:stedsnr" v="147707" />
	</node>
	<node lat="64.94486111403701" lon="10.641533341694602" id="-41572">
		<tag k="name" v="Storsluin" />
		<tag k="natural" v="shoal" />
		<tag k="place" v="locality" />
		<tag k="ssr:stedsnr" v="147716" />
	</node>
	<node lat="64.96879722008232" lon="10.590055550201013" id="-41573">
		<tag k="name" v="Oksrevelhausen" />
		<tag k="natural" v="shoal" />
		<tag k="place" v="locality" />
		<tag k="ssr:stedsnr" v="147721" />
	</node>
	<node lat="64.9745444448844" lon="10.6232444484391" id="-41574">
		<tag k="name" v="Storsluin" />
		<tag k="natural" v="shoal" />
		<tag k="place" v="locality" />
		<tag k="ssr:stedsnr" v="147722" />
	</node>
	<node lat="64.90794999662701" lon="11.306705555636102" id="-41577">
		<tag k="name" v="Kvalpen" />
		<tag k="natural" v="cape" />
		<tag k="ssr:stedsnr" v="257031" />
	</node>
	<node lat="64.99002499579282" lon="11.586700003059345" id="-41584">
		<tag k="name" v="Hornbåen" />
		<tag k="place" v="locality" />
		<tag k="seamark:type" v="rock" />
		<tag k="ssr:stedsnr" v="149112" />
	</node>
	<node lat="64.97060000323165" lon="11.425411106850978" id="-41585">
		<tag k="name" v="Djupbåen" />
		<tag k="place" v="locality" />
		<tag k="seamark:type" v="rock" />
		<tag k="ssr:stedsnr" v="149023" />
	</node>
	<node lat="64.94008055678637" lon="10.82116388306278" id="-41586">
		<tag k="fixme" v="consider seamark:type=rock or natural=shoal" />
		<tag k="name" v="Masterskjæret" />
		<tag k="place" v="islet" />
		<tag k="ssr:stedsnr" v="149202" />
	</node>
	<node lat="64.83920833080208" lon="11.708088882078767" id="-41587">
		<tag k="name" v="Klauva" />
		<tag k="natural" v="bay" />
		<tag k="ssr:stedsnr" v="149459" />
	</node>
	<node lat="64.852822220656" lon="11.025072223684028" id="-41588">
		<tag k="name" v="Adrianaflu" />
		<tag k="natural" v="shoal" />
		<tag k="place" v="locality" />
		<tag k="ssr:stedsnr" v="149672" />
	</node>
	<node lat="64.80526666838387" lon="10.963986113393055" id="-41589">
		<tag k="name" v="Lisstaren" />
		<tag k="natural" v="shoal" />
		<tag k="place" v="locality" />
		<tag k="ssr:stedsnr" v="149718" />
	</node>
	<node lat="64.74630000265768" lon="11.160799991611544" id="-41590">
		<tag k="name" v="Storvika" />
		<tag k="natural" v="bay" />
		<tag k="ssr:stedsnr" v="256937" />
	</node>
	<node lat="64.73198610954067" lon="10.849636115600196" id="-41591">
		<tag k="name" v="Flåtaren" />
		<tag k="natural" v="shoal" />
		<tag k="place" v="locality" />
		<tag k="ssr:stedsnr" v="256950" />
	</node>
	<node lat="64.8608722222559" lon="10.68211388542269" id="-41597">
		<tag k="name" v="Kvitholmen" />
		<tag k="place" v="islet" />
		<tag k="ssr:stedsnr" v="257132" />
	</node>
	<node lat="64.98214166579227" lon="11.699894437930686" id="-41598">
		<tag k="alt_name" v="Stor-Hestvika" />
		<tag k="name" v="Hestvika" />
		<tag k="natural" v="bay" />
		<tag k="ssr:stedsnr" v="257136" />
	</node>
	<node lat="64.97371110916103" lon="11.511049993480414" id="-41599">
		<tag k="alt_name" v="Kålvøya" />
		<tag k="name" v="Kalvøya" />
		<tag k="place" v="islet" />
		<tag k="ssr:stedsnr" v="257141" />
	</node>
	<node lat="64.89538611427675" lon="11.350980557824933" id="-41605">
		<tag k="name" v="Torstadvika" />
		<tag k="natural" v="bay" />
		<tag k="ssr:stedsnr" v="257089" />
	</node>
	<node lat="64.90283883188879" lon="11.331000715791637" id="-41606">
		<tag k="name" v="Krigsborgan" />
		<tag k="place" v="islet" />
		<tag k="ssr:stedsnr" v="257091" />
	</node>
	<node lat="64.90180278207423" lon="11.306980551094835" id="-41607">
		<tag k="name" v="Lamholmen" />
		<tag k="place" v="islet" />
		<tag k="ssr:stedsnr" v="257092" />
	</node>
	<node lat="64.89448889202544" lon="10.689650001442883" id="-41610">
		<tag k="name" v="Aspundsøya" />
		<tag k="place" v="island" />
		<tag k="ssr:stedsnr" v="257163" />
	</node>
	<node lat="64.9004472265852" lon="10.54351110442235" id="-41612">
		<tag k="name" v="Fruflesa" />
		<tag k="place" v="islet" />
		<tag k="ssr:stedsnr" v="257172" />
	</node>
	<node lat="64.89889722547396" lon="10.54488055963818" id="-41613">
		<tag k="fixme" v="consider seamark:type=rock or natural=shoal" />
		<tag k="name" v="Fruflesskjæran" />
		<tag k="place" v="islet" />
		<tag k="ssr:stedsnr" v="257173" />
	</node>
	<node lat="64.95034166519581" lon="10.712647223397575" id="-41615">
		<tag k="fixme" v="consider seamark:type=rock or natural=shoal" />
		<tag k="name" v="Aust-Granskjæran" />
		<tag k="place" v="islet" />
		<tag k="ssr:stedsnr" v="257183" />
	</node>
	<node lat="64.94958889259823" lon="11.340550009018681" id="-41616">
		<tag k="name" v="Oterholmen" />
		<tag k="place" v="islet" />
		<tag k="ssr:stedsnr" v="257184" />
	</node>
	<node lat="65.02121388578148" lon="11.809469437452114" id="-41617">
		<tag k="alt_name" v="Storholmen" />
		<tag k="name" v="Kilsholmen" />
		<tag k="place" v="islet" />
		<tag k="ssr:stedsnr" v="257185" />
	</node>
	<node lat="64.96033333476238" lon="10.637269454470708" id="-41619">
		<tag k="name" v="Ertnholmen" />
		<tag k="place" v="islet" />
		<tag k="ssr:stedsnr" v="257189" />
	</node>
	<node lat="64.98156666456909" lon="10.605205544855028" id="-41621">
		<tag k="fixme" v="consider seamark:type=rock or natural=shoal" />
		<tag k="name" v="Svartflesa" />
		<tag k="place" v="islet" />
		<tag k="ssr:stedsnr" v="257193" />
	</node>
	<node lat="64.96026111437224" lon="11.681883330108368" id="-41622">
		<tag k="fixme" v="consider seamark:type=rock or natural=shoal" />
		<tag k="name" v="Skjæret" />
		<tag k="place" v="islet" />
		<tag k="ssr:stedsnr" v="257195" />
	</node>
	<node lat="64.94273055489856" lon="11.45108611656533" id="-41625">
		<tag k="alt_name" v="Sela;Sæla" />
		<tag k="fixme" v="consider seamark:type=rock or natural=shoal" />
		<tag k="name" v="Gjerdinggalten" />
		<tag k="place" v="islet" />
		<tag k="ssr:stedsnr" v="257231" />
	</node>
	<node lat="64.92986666710443" lon="11.233300010052126" id="-41626">
		<tag k="name" v="Skaftholmen" />
		<tag k="place" v="islet" />
		<tag k="ssr:stedsnr" v="257252" />
	</node>
	<node lat="64.80420555323177" lon="11.249216674332565" id="-41629">
		<tag k="name" v="Sagmeisterholmen" />
		<tag k="place" v="islet" />
		<tag k="ssr:stedsnr" v="257385" />
	</node>
	<node lat="64.90858055740402" lon="11.286736101612677" id="-41630">
		<tag k="name" v="Steinsøya" />
		<tag k="place" v="islet" />
		<tag k="ssr:stedsnr" v="257328" />
	</node>
	<node lat="64.9640888870816" lon="10.774024989436242" id="-41635">
		<tag k="name" v="Grønholmen" />
		<tag k="place" v="islet" />
		<tag k="ssr:stedsnr" v="257335" />
	</node>
	<node lat="64.80387500193049" lon="11.342752784928098" id="-41640">
		<tag k="name" v="Varøyholmen" />
		<tag k="place" v="islet" />
		<tag k="ssr:stedsnr" v="257397" />
	</node>
	<node lat="64.89335766920145" lon="11.767883942113158" id="-41643">
		<tag k="bay" v="fjord" />
		<tag k="fixme" v="multiple name tags, choose one and add the other to alt_name" />
		<tag k="name" v="Innerfolda;Foldafjorden" />
		<tag k="natural" v="bay" />
		<tag k="old_name" v="Indre Follafjorden" />
		<tag k="ssr:stedsnr" v="257429" />
	</node>
	<node lat="64.85191389015434" lon="11.31171388711536" id="-41646">
		<tag k="name" v="Klungvikstraumen" />
		<tag k="natural" v="strait" />
		<tag k="ssr:stedsnr" v="257498" />
	</node>
	<node lat="64.8873111155037" lon="11.76255278234952" id="-41651">
		<tag k="name" v="Hopen" />
		<tag k="natural" v="cape" />
		<tag k="ssr:stedsnr" v="257549" />
	</node>
	<node lat="65.03936111359626" lon="11.07834999077751" id="-41654">
		<tag k="fixme" v="consider seamark:type=rock or natural=shoal" />
		<tag k="name" v="Sandflesin" />
		<tag k="place" v="islet" />
		<tag k="ssr:stedsnr" v="257627" />
	</node>
	<node lat="64.94381111144044" lon="10.81304999814049" id="-41657">
		<tag k="name" v="Gunnarsnakken" />
		<tag k="place" v="islet" />
		<tag k="ssr:stedsnr" v="257577" />
	</node>
	<node lat="64.78760833230531" lon="11.838374991367312" id="-41659">
		<tag k="name" v="Kvalvika" />
		<tag k="natural" v="bay" />
		<tag k="ssr:stedsnr" v="257584" />
	</node>
	<node lat="64.94929722045782" lon="10.734555547891025" id="-41662">
		<tag k="name" v="Likholmen" />
		<tag k="place" v="islet" />
		<tag k="ssr:stedsnr" v="257592" />
	</node>
	<node lat="65.01546944594249" lon="10.910202777417155" id="-41668">
		<tag k="name" v="Hellibåen" />
		<tag k="natural" v="shoal" />
		<tag k="place" v="locality" />
		<tag k="ssr:stedsnr" v="257631" />
	</node>
	<node lat="64.84345555171836" lon="10.576811117740275" id="-41676">
		<tag k="name" v="Geitholman" />
		<tag k="place" v="islet" />
		<tag k="ssr:stedsnr" v="257725" />
	</node>
	<node lat="64.97048888907608" lon="10.779324999739687" id="-41677">
		<tag k="name" v="Møskja" />
		<tag k="place" v="island" />
		<tag k="ssr:stedsnr" v="257726" />
	</node>
	<node lat="64.81191388992252" lon="10.608855556747464" id="-41678">
		<tag k="fixme" v="consider seamark:type=rock or natural=shoal" />
		<tag k="name" v="Stabben" />
		<tag k="place" v="islet" />
		<tag k="ssr:stedsnr" v="257690" />
	</node>
	<node lat="64.81686389050765" lon="10.706611120176417" id="-41680">
		<tag k="name" v="Liss-Bondøya" />
		<tag k="place" v="island" />
		<tag k="ssr:stedsnr" v="257695" />
	</node>
	<node lat="64.81874394598675" lon="10.720515065696313" id="-41681">
		<tag k="name" v="Bondøya" />
		<tag k="place" v="island" />
		<tag k="ssr:stedsnr" v="257697" />
	</node>
	<node lat="64.98949444721818" lon="10.975969439135765" id="-41684">
		<tag k="alt_name" v="Nord Porkholman" />
		<tag k="name" v="Purkholman" />
		<tag k="place" v="islet" />
		<tag k="ssr:stedsnr" v="257761" />
	</node>
	<node lat="64.99761388714725" lon="11.098988882829552" id="-41685">
		<tag k="fixme" v="consider seamark:type=rock or natural=shoal" />
		<tag k="name" v="Eiston" />
		<tag k="place" v="islet" />
		<tag k="ssr:stedsnr" v="257763" />
	</node>
	<node lat="64.7685277822436" lon="11.351694446940582" id="-41687">
		<tag k="name" v="Risholmen" />
		<tag k="place" v="islet" />
		<tag k="ssr:stedsnr" v="257773" />
	</node>
	<node lat="64.9947805570034" lon="10.886536104682342" id="-41688">
		<tag k="alt_name" v="Stor-Anderøya" />
		<tag k="name" v="Storanderøya" />
		<tag k="place" v="islet" />
		<tag k="ssr:stedsnr" v="257775" />
	</node>
	<node lat="64.99326110720597" lon="10.99949722358623" id="-41689">
		<tag k="name" v="Fjærholman" />
		<tag k="place" v="islet" />
		<tag k="ssr:stedsnr" v="257777" />
	</node>
	<node lat="64.7709916674784" lon="11.444855562062486" id="-41690">
		<tag k="name" v="Hindholmen" />
		<tag k="place" v="islet" />
		<tag k="ssr:stedsnr" v="257779" />
	</node>
	<node lat="64.75158889154177" lon="10.568069450027744" id="-41691">
		<tag k="name" v="Sørøysburan" />
		<tag k="place" v="islet" />
		<tag k="ssr:stedsnr" v="257782" />
	</node>
	<node lat="64.99159192600416" lon="10.809978524734706" id="-41692">
		<tag k="name" v="Korsholman" />
		<tag k="place" v="islet" />
		<tag k="ssr:stedsnr" v="257786" />
	</node>
	<node lat="64.99523611324624" lon="10.854736109000376" id="-41693">
		<tag k="fixme" v="consider seamark:type=rock or natural=shoal" />
		<tag k="name" v="Hysskjæret" />
		<tag k="place" v="islet" />
		<tag k="ssr:stedsnr" v="257790" />
	</node>
	<node lat="64.78136110932576" lon="11.384108343610249" id="-41694">
		<tag k="name" v="Ekornbukta" />
		<tag k="natural" v="bay" />
		<tag k="ssr:stedsnr" v="257797" />
	</node>
	<node lat="64.84107778230684" lon="11.028908325619131" id="-41697">
		<tag k="name" v="Stokksøyholmen" />
		<tag k="place" v="islet" />
		<tag k="ssr:stedsnr" v="257857" />
	</node>
	<node lat="64.78130833559777" lon="10.945300003509919" id="-41698">
		<tag k="name" v="Kvalholman" />
		<tag k="place" v="islet" />
		<tag k="ssr:stedsnr" v="257861" />
	</node>
	<node lat="64.76647777678139" lon="10.958641676784866" id="-41699">
		<tag k="fixme" v="consider seamark:type=rock or natural=shoal" />
		<tag k="name" v="Tjønnskjæret" />
		<tag k="place" v="islet" />
		<tag k="ssr:stedsnr" v="257862" />
	</node>
	<node lat="64.76359722526782" lon="10.935952786730914" id="-41700">
		<tag k="fixme" v="consider seamark:type=rock or natural=shoal" />
		<tag k="name" v="Brattholmskjæran" />
		<tag k="place" v="islet" />
		<tag k="ssr:stedsnr" v="257865" />
	</node>
	<node lat="64.76342778050139" lon="11.232091674655225" id="-41707">
		<tag k="fixme" v="consider seamark:type=rock or natural=shoal" />
		<tag k="name" v="Svartskjæret" />
		<tag k="place" v="islet" />
		<tag k="ssr:stedsnr" v="257748" />
	</node>
	<node lat="64.97912777594735" lon="10.883866661975315" id="-41708">
		<tag k="name" v="Buahestøya" />
		<tag k="place" v="island" />
		<tag k="ssr:stedsnr" v="257750" />
	</node>
	<node lat="64.8298583298403" lon="11.131402787970236" id="-41710">
		<tag k="name" v="Vikaholmen" />
		<tag k="place" v="islet" />
		<tag k="ssr:stedsnr" v="257814" />
	</node>
	<node lat="64.821580558866" lon="11.211825003149892" id="-41712">
		<tag k="name" v="Sandvika" />
		<tag k="natural" v="bay" />
		<tag k="ssr:stedsnr" v="257825" />
	</node>
	<node lat="64.84060278065397" lon="10.85356944283576" id="-41716">
		<tag k="name" v="Åkervika" />
		<tag k="natural" v="bay" />
		<tag k="ssr:stedsnr" v="257844" />
	</node>
	<node lat="64.70629722325562" lon="10.525291665127389" id="-41718">
		<tag k="name" v="Vestbrakan" />
		<tag k="place" v="islet" />
		<tag k="ssr:stedsnr" v="257931" />
	</node>
	<node lat="64.8790416641856" lon="11.016886103443673" id="-41719">
		<tag k="name" v="Trollhauet" />
		<tag k="place" v="islet" />
		<tag k="ssr:stedsnr" v="257936" />
	</node>
	<node lat="64.85823333159675" lon="10.7413888785356" id="-41723">
		<tag k="name" v="Skarvholmen" />
		<tag k="place" v="islet" />
		<tag k="ssr:stedsnr" v="257954" />
	</node>
	<node lat="64.8117083292138" lon="11.006458327847142" id="-41724">
		<tag k="name" v="Måøybalen" />
		<tag k="place" v="islet" />
		<tag k="ssr:stedsnr" v="257872" />
	</node>
	<node lat="65.00848055744608" lon="11.642761103082028" id="-41725">
		<tag k="name" v="Dolmsundet" />
		<tag k="natural" v="strait" />
		<tag k="ssr:stedsnr" v="257883" />
	</node>
	<node lat="64.81155555150525" lon="10.844894453897991" id="-41726">
		<tag k="fixme" v="consider seamark:type=rock or natural=shoal" />
		<tag k="name" v="Stabben" />
		<tag k="place" v="islet" />
		<tag k="ssr:stedsnr" v="257884" />
	</node>
	<node lat="65.01010277943469" lon="11.62004445203366" id="-41727">
		<tag k="name" v="Dolmvågen" />
		<tag k="natural" v="bay" />
		<tag k="ssr:stedsnr" v="257885" />
	</node>
	<node lat="65.018097218302" lon="11.715722222007917" id="-41728">
		<tag k="fixme" v="consider seamark:type=rock or natural=shoal" />
		<tag k="name" v="Stangskjæret" />
		<tag k="place" v="islet" />
		<tag k="ssr:stedsnr" v="257888" />
	</node>
	<node lat="65.00603333464746" lon="11.595911116167407" id="-41729">
		<tag k="name" v="Langøya" />
		<tag k="place" v="islet" />
		<tag k="ssr:stedsnr" v="257890" />
	</node>
	<node lat="64.80086389228987" lon="10.983624997704528" id="-41730">
		<tag k="name" v="Edøygalten" />
		<tag k="place" v="islet" />
		<tag k="ssr:stedsnr" v="257896" />
	</node>
	<node lat="64.79581110805407" lon="11.021805552749528" id="-41731">
		<tag k="name" v="Geitholmen" />
		<tag k="place" v="islet" />
		<tag k="ssr:stedsnr" v="257898" />
	</node>
	<node lat="64.84664999814085" lon="11.057152778228893" id="-41734">
		<tag k="name" v="Singsøyan" />
		<tag k="place" v="islet" />
		<tag k="ssr:stedsnr" v="257961" />
	</node>
	<node lat="64.84900278044215" lon="10.921458325223925" id="-41736">
		<tag k="name" v="Laukøya" />
		<tag k="place" v="islet" />
		<tag k="ssr:stedsnr" v="257970" />
	</node>
	<node lat="64.8573118673848" lon="11.789007842354762" id="-41739">
		<tag k="alt_name" v="Tverrsundet, midtre" />
		<tag k="name" v="Midtre Tverrsundet" />
		<tag k="natural" v="strait" />
		<tag k="ssr:stedsnr" v="257997" />
	</node>
	<node lat="64.8170972249858" lon="10.53190555928419" id="-41741">
		<tag k="name" v="Nordøyane" />
		<tag k="place" v="island" />
		<tag k="ssr:stedsnr" v="162704" />
	</node>
	<node lat="64.7994194440727" lon="11.828627785514445" id="-41742">
		<tag k="name" v="Langnesbukta" />
		<tag k="natural" v="bay" />
		<tag k="ssr:stedsnr" v="164008" />
	</node>
	<node lat="64.7272749990628" lon="11.152136101622146" id="-41748">
		<tag k="name" v="Krokøyholmen" />
		<tag k="place" v="islet" />
		<tag k="ssr:stedsnr" v="165209" />
	</node>
	<node lat="64.77773888927311" lon="11.361466663223593" id="-41754">
		<tag k="name" v="Vannholmneset" />
		<tag k="natural" v="cape" />
		<tag k="ssr:stedsnr" v="165135" />
	</node>
	<node lat="64.91496666600584" lon="11.585186105837733" id="-41760">
		<tag k="fixme" v="consider seamark:type=rock or natural=shoal" />
		<tag k="name" v="Tennskjæret" />
		<tag k="place" v="islet" />
		<tag k="ssr:stedsnr" v="166157" />
	</node>
	<node lat="64.91661944793385" lon="11.56875555350306" id="-41761">
		<tag k="name" v="Nesodden" />
		<tag k="natural" v="cape" />
		<tag k="ssr:stedsnr" v="166162" />
	</node>
	<node lat="64.89210278197201" lon="11.540577783888363" id="-41765">
		<tag k="name" v="Hesthagabukta" />
		<tag k="natural" v="bay" />
		<tag k="ssr:stedsnr" v="168015" />
	</node>
	<node lat="64.91804721968293" lon="10.840813882690803" id="-41769">
		<tag k="name" v="Langstranda" />
		<tag k="natural" v="beach" />
		<tag k="ssr:stedsnr" v="168169" />
	</node>
	<node lat="64.92400277889647" lon="10.970477769620603" id="-41776">
		<tag k="name" v="Botnstranda" />
		<tag k="natural" v="beach" />
		<tag k="ssr:stedsnr" v="168805" />
	</node>
	<node lat="64.95224999866453" lon="11.336200001250873" id="-41778">
		<tag k="name" v="Stor-Grønningen" />
		<tag k="place" v="islet" />
		<tag k="ssr:stedsnr" v="169304" />
	</node>
	<node lat="64.94977222144269" lon="11.065738896539226" id="-41782">
		<tag k="name" v="Moavika" />
		<tag k="natural" v="bay" />
		<tag k="ssr:stedsnr" v="169705" />
	</node>
	<node lat="64.9514305598615" lon="11.095719441163098" id="-41783">
		<tag k="fixme" v="consider seamark:type=rock or natural=shoal" />
		<tag k="name" v="Farøyskjæra" />
		<tag k="place" v="islet" />
		<tag k="ssr:stedsnr" v="169709" />
	</node>
	<node lat="64.95039722361763" lon="11.074252777464947" id="-41784">
		<tag k="name" v="Litlstraumen" />
		<tag k="natural" v="strait" />
		<tag k="ssr:stedsnr" v="169710" />
	</node>
	<node lat="64.83044444288342" lon="11.060847216179017" id="-41785">
		<tag k="name" v="Iggeløya" />
		<tag k="place" v="islet" />
		<tag k="ssr:stedsnr" v="169888" />
	</node>
	<node lat="64.8377611108793" lon="11.073580546238382" id="-41786">
		<tag k="name" v="Nordøya" />
		<tag k="place" v="islet" />
		<tag k="ssr:stedsnr" v="169893" />
	</node>
	<node lat="64.74529444035015" lon="10.776474997339022" id="-41792">
		<tag k="name" v="Hollendersundet" />
		<tag k="natural" v="strait" />
		<tag k="ssr:stedsnr" v="174511" />
	</node>
	<node lat="64.75244166924784" lon="10.817172215145483" id="-41793">
		<tag k="name" v="Svardalsholmen" />
		<tag k="place" v="islet" />
		<tag k="ssr:stedsnr" v="174513" />
	</node>
	<node lat="64.74002500365052" lon="10.763930563054814" id="-41794">
		<tag k="name" v="Litl-Langøya" />
		<tag k="place" v="island" />
		<tag k="ssr:stedsnr" v="174518" />
	</node>
	<node lat="64.744213888066" lon="10.7651138965368" id="-41795">
		<tag k="fixme" v="consider seamark:type=rock or natural=shoal" />
		<tag k="name" v="Litløyskjæret" />
		<tag k="place" v="islet" />
		<tag k="ssr:stedsnr" v="174525" />
	</node>
	<node lat="64.97296944241828" lon="11.633849994558679" id="-41803">
		<tag k="bay" v="fjord" />
		<tag k="name" v="Eiterfjorden" />
		<tag k="natural" v="bay" />
		<tag k="ssr:stedsnr" v="196125" />
	</node>
	<node lat="64.96896389029403" lon="11.538669439589723" id="-41804">
		<tag k="fixme" v="consider seamark:type=rock or natural=shoal" />
		<tag k="name" v="Risværgalten" />
		<tag k="place" v="islet" />
		<tag k="ssr:stedsnr" v="196128" />
	</node>
	<node lat="64.8603833303559" lon="10.626841674785005" id="-41805">
		<tag k="name" v="Leiøyan" />
		<tag k="place" v="island" />
		<tag k="ssr:stedsnr" v="196139" />
	</node>
	<node lat="64.86730278200423" lon="10.620313885260998" id="-41806">
		<tag k="name" v="Råholmen" />
		<tag k="place" v="islet" />
		<tag k="ssr:stedsnr" v="196140" />
	</node>
	<node lat="64.86960555560819" lon="10.64517222339728" id="-41807">
		<tag k="name" v="Likholmen" />
		<tag k="place" v="islet" />
		<tag k="ssr:stedsnr" v="196142" />
	</node>
	<node lat="64.97965833614813" lon="11.531649992131364" id="-41808">
		<tag k="name" v="Hamnaholmen" />
		<tag k="place" v="islet" />
		<tag k="ssr:stedsnr" v="196143" />
	</node>
	<node lat="64.97752499858214" lon="11.565830557550328" id="-41809">
		<tag k="alt_name" v="Lamholman;Stor-Lamholmen" />
		<tag k="name" v="Lamholmen" />
		<tag k="place" v="islet" />
		<tag k="ssr:stedsnr" v="196145" />
	</node>
	<node lat="64.88224722162144" lon="10.617772221057086" id="-41810">
		<tag k="name" v="Dømlingan" />
		<tag k="place" v="islet" />
		<tag k="ssr:stedsnr" v="196148" />
	</node>
	<node lat="64.98257499590979" lon="11.552469448939453" id="-41813">
		<tag k="name" v="Steinsøya" />
		<tag k="place" v="islet" />
		<tag k="ssr:stedsnr" v="196153" />
	</node>
	<node lat="65.06580833516992" lon="11.94684165661035" id="-41814">
		<tag k="name" v="Leira" />
		<tag k="natural" v="bay" />
		<tag k="ssr:stedsnr" v="196079" />
	</node>
	<node lat="64.74063333144689" lon="10.872688886091417" id="-41815">
		<tag k="fixme" v="consider seamark:type=rock or natural=shoal" />
		<tag k="name" v="Kvitskjæret" />
		<tag k="place" v="islet" />
		<tag k="ssr:stedsnr" v="196202" />
	</node>
	<node lat="64.84438888778831" lon="10.570011116838408" id="-41819">
		<tag k="name" v="Uren" />
		<tag k="place" v="island" />
		<tag k="ssr:stedsnr" v="196662" />
	</node>
	<node lat="64.75142778173105" lon="11.236608336239739" id="-41820">
		<tag k="name" v="Ramstadholman" />
		<tag k="place" v="islet" />
		<tag k="ssr:stedsnr" v="196673" />
	</node>
	<node lat="65.13444722137737" lon="11.064994454304546" id="-41823">
		<tag k="name" v="Lisstaren" />
		<tag k="natural" v="shoal" />
		<tag k="place" v="locality" />
		<tag k="ssr:stedsnr" v="196557" />
	</node>
	<node lat="65.11300000060886" lon="10.942275004384479" id="-41825">
		<tag k="fixme" v="consider seamark:type=rock or natural=shoal" />
		<tag k="name" v="Vegflesbarnet" />
		<tag k="place" v="islet" />
		<tag k="ssr:stedsnr" v="196561" />
	</node>
	<node lat="65.06346944502862" lon="11.054600007036175" id="-41826">
		<tag k="name" v="Hesthaugsluin" />
		<tag k="natural" v="shoal" />
		<tag k="place" v="locality" />
		<tag k="ssr:stedsnr" v="196567" />
	</node>
	<node lat="64.98674444630309" lon="10.820305562859303" id="-41830">
		<tag k="name" v="Liss-Ormsøya" />
		<tag k="place" v="islet" />
		<tag k="ssr:stedsnr" v="196711" />
	</node>
	<node lat="64.73145278204152" lon="11.145119444458697" id="-41831">
		<tag k="alt_name" v="Jørnøya" />
		<tag k="name" v="Jørgenøya" />
		<tag k="place" v="island" />
		<tag k="ssr:stedsnr" v="196959" />
	</node>
	<node lat="64.72126944879545" lon="11.079433326663809" id="-41832">
		<tag k="fixme" v="consider seamark:type=rock or natural=shoal" />
		<tag k="name" v="Skarvskjæret" />
		<tag k="place" v="islet" />
		<tag k="ssr:stedsnr" v="196964" />
	</node>
	<node lat="64.87330000107316" lon="10.782644449586588" id="-41836">
		<tag k="name" v="Hopen" />
		<tag k="natural" v="bay" />
		<tag k="ssr:stedsnr" v="196978" />
	</node>
	<node lat="65.03273611420305" lon="11.84529166584724" id="-41838">
		<tag k="alt_name" v="Sellisetøyra" />
		<tag k="fixme" v="consider seamark:type=rock or natural=shoal" />
		<tag k="name" v="Sellisetøra" />
		<tag k="place" v="islet" />
		<tag k="ssr:stedsnr" v="197159" />
	</node>
	<node lat="64.90177222257816" lon="10.716758327130512" id="-41840">
		<tag k="name" v="Oterholmsdraga" />
		<tag k="place" v="islet" />
		<tag k="ssr:stedsnr" v="197170" />
	</node>
	<node lat="64.89411666745981" lon="10.650919438149915" id="-41841">
		<tag k="name" v="Sanddraget" />
		<tag k="place" v="islet" />
		<tag k="ssr:stedsnr" v="197173" />
	</node>
	<node lat="64.90296944087767" lon="11.542997221148942" id="-41843">
		<tag k="name" v="Dyrvika" />
		<tag k="natural" v="bay" />
		<tag k="ssr:stedsnr" v="197062" />
	</node>
	<node lat="64.78969167040869" lon="11.428444436082422" id="-41854">
		<tag k="name" v="Laugvågen" />
		<tag k="natural" v="bay" />
		<tag k="ssr:stedsnr" v="197416" />
	</node>
	<node lat="64.76583055574376" lon="10.595116669432317" id="-41863">
		<tag k="name" v="Heimværet" />
		<tag k="place" v="islet" />
		<tag k="ssr:stedsnr" v="197768" />
	</node>
	<node lat="64.89500278041545" lon="11.031249998200826" id="-41868">
		<tag k="alt_name" v="Hestøya" />
		<tag k="name" v="Hestholmen" />
		<tag k="place" v="islet" />
		<tag k="ssr:stedsnr" v="197925" />
	</node>
	<node lat="64.80465555429282" lon="10.543566675845035" id="-41872">
		<tag k="name" v="Nordøyan" />
		<tag k="place" v="island" />
		<tag k="ssr:stedsnr" v="197673" />
	</node>
	<node lat="64.9849138933538" lon="11.725774992066675" id="-41874">
		<tag k="fixme" v="consider seamark:type=rock or natural=shoal" />
		<tag k="name" v="Landskjæret" />
		<tag k="place" v="islet" />
		<tag k="ssr:stedsnr" v="197678" />
	</node>
	<node lat="64.83900000193576" lon="11.12196110346188" id="-41878">
		<tag k="name" v="Åkvikvågen" />
		<tag k="natural" v="bay" />
		<tag k="ssr:stedsnr" v="197817" />
	</node>
	<node lat="64.83990555736965" lon="11.006088882918393" id="-41879">
		<tag k="name" v="Kalvholman" />
		<tag k="place" v="islet" />
		<tag k="ssr:stedsnr" v="197820" />
	</node>
	<node lat="64.81303888480157" lon="10.977925007146638" id="-41880">
		<tag k="name" v="Husvedøya" />
		<tag k="place" v="islet" />
		<tag k="ssr:stedsnr" v="197856" />
	</node>
	<node lat="64.80302777713716" lon="10.763977782461073" id="-41881">
		<tag k="fixme" v="consider seamark:type=rock or natural=shoal" />
		<tag k="name" v="Langskjæret" />
		<tag k="place" v="islet" />
		<tag k="ssr:stedsnr" v="197868" />
	</node>
	<node lat="64.96600277471538" lon="10.632024991426533" id="-41883">
		<tag k="name" v="Steinen" />
		<tag k="natural" v="shoal" />
		<tag k="place" v="locality" />
		<tag k="ssr:stedsnr" v="268697" />
	</node>
	<node lat="65.06401389003472" lon="12.045641670755447" id="-41884">
		<tag k="alt_name" v="Sagbugta" />
		<tag k="name" v="Sagbukta" />
		<tag k="natural" v="bay" />
		<tag k="ssr:stedsnr" v="267862" />
	</node>
	<node lat="64.7976583306252" lon="10.65756388565279" id="-41885">
		<tag k="name" v="Grønholmslua" />
		<tag k="natural" v="shoal" />
		<tag k="place" v="locality" />
		<tag k="ssr:stedsnr" v="267943" />
	</node>
	<node lat="64.85319999900608" lon="10.472266668215667" id="-41886">
		<tag k="name" v="Tverrtarahausen" />
		<tag k="natural" v="shoal" />
		<tag k="place" v="locality" />
		<tag k="ssr:stedsnr" v="268016" />
	</node>
	<node lat="64.86977499729922" lon="10.51441666018921" id="-41890">
		<tag k="name" v="Storslua" />
		<tag k="natural" v="shoal" />
		<tag k="place" v="locality" />
		<tag k="ssr:stedsnr" v="268028" />
	</node>
	<node lat="64.84615833088873" lon="10.547866669048943" id="-41891">
		<tag k="name" v="Smalslua" />
		<tag k="natural" v="shoal" />
		<tag k="place" v="locality" />
		<tag k="ssr:stedsnr" v="268033" />
	</node>
	<node lat="64.87546944473512" lon="11.687550007169678" id="-41892">
		<tag k="name" v="Straumneset" />
		<tag k="natural" v="cape" />
		<tag k="ssr:stedsnr" v="268048" />
	</node>
	<node lat="64.76234999971204" lon="10.344266670104126" id="-41894">
		<tag k="name" v="Hilddulen" />
		<tag k="natural" v="shoal" />
		<tag k="place" v="locality" />
		<tag k="ssr:stedsnr" v="268128" />
	</node>
	<node lat="64.75594166467812" lon="10.436174995560602" id="-41895">
		<tag k="name" v="Krafsan" />
		<tag k="natural" v="shoal" />
		<tag k="place" v="locality" />
		<tag k="ssr:stedsnr" v="268133" />
	</node>
	<node lat="64.76336944131594" lon="10.769633341583683" id="-41897">
		<tag k="fixme" v="consider seamark:type=rock or natural=shoal" />
		<tag k="name" v="Knubbholmskjæret" />
		<tag k="place" v="islet" />
		<tag k="ssr:stedsnr" v="268146" />
	</node>
	<node lat="64.99830277687198" lon="10.565786106384893" id="-41898">
		<tag k="name" v="Bolletrevlen" />
		<tag k="natural" v="shoal" />
		<tag k="place" v="locality" />
		<tag k="ssr:stedsnr" v="268162" />
	</node>
	<node lat="65.09799999592826" lon="10.78831387957962" id="-41899">
		<tag k="name" v="Falltaren" />
		<tag k="natural" v="shoal" />
		<tag k="place" v="locality" />
		<tag k="ssr:stedsnr" v="268165" />
	</node>
	<node lat="65.15408888823693" lon="10.68185000983348" id="-41900">
		<tag k="name" v="Galtaren" />
		<tag k="natural" v="shoal" />
		<tag k="place" v="locality" />
		<tag k="ssr:stedsnr" v="268169" />
	</node>
	<node lat="65.10223888955505" lon="10.783636117764974" id="-41901">
		<tag k="name" v="Ingebrettaren" />
		<tag k="natural" v="shoal" />
		<tag k="place" v="locality" />
		<tag k="ssr:stedsnr" v="268172" />
	</node>
	<node lat="64.73790278186407" lon="10.711755549610253" id="-41902">
		<tag k="name" v="Tjeldbåknausen" />
		<tag k="natural" v="shoal" />
		<tag k="place" v="locality" />
		<tag k="ssr:stedsnr" v="268222" />
	</node>
	<node lat="64.99240000207098" lon="11.180680549157175" id="-41903">
		<tag k="name" v="Stortaren" />
		<tag k="natural" v="shoal" />
		<tag k="place" v="locality" />
		<tag k="ssr:stedsnr" v="206713" />
	</node>
	<node lat="65.02681666490314" lon="11.076311106704171" id="-41904">
		<tag k="fixme" v="consider seamark:type=rock or natural=shoal" />
		<tag k="name" v="Svartskjæran" />
		<tag k="place" v="islet" />
		<tag k="ssr:stedsnr" v="206721" />
	</node>
	<node lat="64.85512222440701" lon="10.439038884135387" id="-41905">
		<tag k="name" v="Skjærsgrunnen" />
		<tag k="natural" v="shoal" />
		<tag k="place" v="locality" />
		<tag k="ssr:stedsnr" v="207009" />
	</node>
	<node lat="64.92779444483041" lon="11.476191663957103" id="-41906">
		<tag k="name" v="Urdvika" />
		<tag k="natural" v="bay" />
		<tag k="ssr:stedsnr" v="207049" />
	</node>
	<node lat="64.93384722553184" lon="11.453205553969786" id="-41907">
		<tag k="name" v="Øverneset" />
		<tag k="natural" v="cape" />
		<tag k="ssr:stedsnr" v="207108" />
	</node>
	<node lat="64.78009999735485" lon="10.475644441415183" id="-41908">
		<tag k="name" v="Hesten" />
		<tag k="natural" v="shoal" />
		<tag k="place" v="locality" />
		<tag k="ssr:stedsnr" v="207118" />
	</node>
	<node lat="64.76400278017074" lon="10.468225006129725" id="-41909">
		<tag k="name" v="Merraryggen" />
		<tag k="natural" v="shoal" />
		<tag k="place" v="locality" />
		<tag k="ssr:stedsnr" v="207128" />
	</node>
	<node lat="64.77106944019344" lon="10.801772229651288" id="-41910">
		<tag k="name" v="Nordkyrøya" />
		<tag k="place" v="island" />
		<tag k="ssr:stedsnr" v="207137" />
	</node>
	<node lat="64.79128610929175" lon="10.663130556257054" id="-41912">
		<tag k="name" v="Skarvskjærtaran" />
		<tag k="natural" v="shoal" />
		<tag k="place" v="locality" />
		<tag k="ssr:stedsnr" v="207939" />
	</node>
	<node lat="65.0091861081318" lon="10.622608333597364" id="-41913">
		<tag k="name" v="Råstaren" />
		<tag k="natural" v="shoal" />
		<tag k="place" v="locality" />
		<tag k="ssr:stedsnr" v="268913" />
	</node>
	<node lat="64.99332500068634" lon="10.635877787338439" id="-41914">
		<tag k="name" v="Binnerøysluin" />
		<tag k="natural" v="shoal" />
		<tag k="place" v="locality" />
		<tag k="ssr:stedsnr" v="268914" />
	</node>
	<node lat="64.94511110870944" lon="11.49699722525411" id="-41918">
		<tag k="fixme" v="consider seamark:type=rock or natural=shoal" />
		<tag k="name" v="Ørnskjæret" />
		<tag k="place" v="islet" />
		<tag k="ssr:stedsnr" v="208050" />
	</node>
	<node lat="64.86906666993654" lon="11.643969449363658" id="-41921">
		<tag k="name" v="Djupvika" />
		<tag k="natural" v="bay" />
		<tag k="ssr:stedsnr" v="269034" />
	</node>
	<node lat="64.760244447737" lon="11.306566660871253" id="-41935">
		<tag k="fixme" v="consider seamark:type=rock or natural=shoal" />
		<tag k="name" v="Flakavikskjæra" />
		<tag k="place" v="islet" />
		<tag k="ssr:stedsnr" v="210257" />
	</node>
	<node lat="64.77441666586185" lon="11.348047230843223" id="-41936">
		<tag k="name" v="Olaholman" />
		<tag k="place" v="islet" />
		<tag k="ssr:stedsnr" v="210258" />
	</node>
	<node lat="64.7671416650616" lon="11.265149998098803" id="-41937">
		<tag k="name" v="Sandværtaren" />
		<tag k="natural" v="shoal" />
		<tag k="place" v="locality" />
		<tag k="ssr:stedsnr" v="210260" />
	</node>
	<node lat="64.8978444480784" lon="11.316274990609609" id="-41950">
		<tag k="name" v="Lyngøyvågen" />
		<tag k="natural" v="bay" />
		<tag k="ssr:stedsnr" v="210477" />
	</node>
	<node lat="64.96662500051714" lon="11.203122227985055" id="-41951">
		<tag k="name" v="Inner-Ragnhildtaren" />
		<tag k="natural" v="shoal" />
		<tag k="place" v="locality" />
		<tag k="ssr:stedsnr" v="210576" />
	</node>
	<node lat="64.88483055686633" lon="11.045416668670349" id="-41952">
		<tag k="fixme" v="consider seamark:type=rock or natural=shoal" />
		<tag k="name" v="Lyngøyskjæran" />
		<tag k="place" v="islet" />
		<tag k="ssr:stedsnr" v="210702" />
	</node>
	<node lat="64.78798333140143" lon="10.920361102500152" id="-41953">
		<tag k="name" v="Støhausen" />
		<tag k="natural" v="shoal" />
		<tag k="place" v="locality" />
		<tag k="ssr:stedsnr" v="210730" />
	</node>
	<node lat="64.80028333514497" lon="11.516113894073156" id="-41956">
		<tag k="name" v="Øksninga" />
		<tag k="place" v="island" />
		<tag k="ssr:stedsnr" v="269456" />
	</node>
	<node lat="64.94388332894611" lon="11.991519453450007" id="-41957">
		<tag k="fixme" v="consider seamark:type=rock or natural=shoal" />
		<tag k="name" v="Strandaskjæret" />
		<tag k="place" v="islet" />
		<tag k="ssr:stedsnr" v="270391" />
	</node>
	<node lat="64.96942499831233" lon="10.655349994925082" id="-41958">
		<tag k="name" v="Benksluin" />
		<tag k="natural" v="shoal" />
		<tag k="place" v="locality" />
		<tag k="ssr:stedsnr" v="269765" />
	</node>
	<node lat="64.83219999723775" lon="11.19236389798694" id="-41959">
		<tag k="name" v="Lusvika" />
		<tag k="natural" v="bay" />
		<tag k="ssr:stedsnr" v="269965" />
	</node>
	<node lat="64.78860555341802" lon="10.77903333847739" id="-41960">
		<tag k="name" v="Kløftholmtaran" />
		<tag k="place" v="islet" />
		<tag k="ssr:stedsnr" v="269969" />
	</node>
	<node lat="64.93461944585674" lon="12.215469447618402" id="-41964">
		<tag k="name" v="Fossvika" />
		<tag k="natural" v="bay" />
		<tag k="ssr:stedsnr" v="270335" />
	</node>
	<node lat="64.90241388721499" lon="11.262061106176263" id="-41968">
		<tag k="name" v="Osodden" />
		<tag k="natural" v="cape" />
		<tag k="ssr:stedsnr" v="270454" />
	</node>
	<node lat="64.91516666585137" lon="11.378838885793053" id="-41974">
		<tag k="name" v="Skjevelodden" />
		<tag k="natural" v="cape" />
		<tag k="ssr:stedsnr" v="270510" />
	</node>
	<node lat="64.99608610763838" lon="11.119933338370386" id="-41978">
		<tag k="name" v="Ternholmen" />
		<tag k="place" v="islet" />
		<tag k="ssr:stedsnr" v="271005" />
	</node>
	<node lat="64.83211111329922" lon="11.652608332424892" id="-41980">
		<tag k="name" v="Falskenestaren" />
		<tag k="natural" v="shoal" />
		<tag k="place" v="locality" />
		<tag k="ssr:stedsnr" v="271048" />
	</node>
	<node lat="64.80765833292057" lon="11.651191669033018" id="-41981">
		<tag k="name" v="Stormaritøya" />
		<tag k="place" v="islet" />
		<tag k="ssr:stedsnr" v="271053" />
	</node>
	<node lat="64.90090277740337" lon="11.258922227084001" id="-41983">
		<tag k="name" v="Hansvika" />
		<tag k="natural" v="bay" />
		<tag k="ssr:stedsnr" v="271083" />
	</node>
	<node lat="64.91785832906315" lon="11.403672214896472" id="-41984">
		<tag k="name" v="Vattavikstranda" />
		<tag k="natural" v="bay" />
		<tag k="ssr:stedsnr" v="271088" />
	</node>
	<node lat="64.89193055232343" lon="11.338213897430197" id="-41985">
		<tag k="name" v="Vika" />
		<tag k="natural" v="bay" />
		<tag k="ssr:stedsnr" v="271097" />
	</node>
	<node lat="64.80507499737611" lon="11.705230544845328" id="-41987">
		<tag k="name" v="Guroneset" />
		<tag k="natural" v="cape" />
		<tag k="ssr:stedsnr" v="271103" />
	</node>
	<node lat="64.79475277807876" lon="11.735972229245817" id="-41988">
		<tag k="name" v="Galtnesodden" />
		<tag k="natural" v="cape" />
		<tag k="ssr:stedsnr" v="271104" />
	</node>
	<node lat="64.96417499576539" lon="11.52048056574658" id="-41993">
		<tag k="name" v="Litloterholmen" />
		<tag k="place" v="islet" />
		<tag k="ssr:stedsnr" v="271139" />
	</node>
	<node lat="64.95001388845061" lon="11.506844441846512" id="-41994">
		<tag k="name" v="Jonsviktangen" />
		<tag k="natural" v="cape" />
		<tag k="ssr:stedsnr" v="271143" />
	</node>
	<node lat="64.9764416681564" lon="11.574108333545997" id="-41995">
		<tag k="name" v="Lamholmskolten" />
		<tag k="natural" v="shoal" />
		<tag k="place" v="locality" />
		<tag k="ssr:stedsnr" v="271146" />
	</node>
	<node lat="64.74387777358304" lon="11.361347215287006" id="-41996">
		<tag k="fixme" v="consider seamark:type=rock or natural=shoal" />
		<tag k="name" v="Storskjæret" />
		<tag k="old_name" v="Storeskjæret" />
		<tag k="place" v="islet" />
		<tag k="ssr:stedsnr" v="271169" />
	</node>
	<node lat="64.88372499897365" lon="11.725349993543851" id="-41998">
		<tag k="name" v="Stakkvika" />
		<tag k="natural" v="bay" />
		<tag k="old_name" v="Stakvika" />
		<tag k="ssr:stedsnr" v="271514" />
	</node>
	<node lat="64.81043888684503" lon="11.232772232257219" id="-41999">
		<tag k="name" v="Gamsen" />
		<tag k="place" v="islet" />
		<tag k="ssr:stedsnr" v="226011" />
	</node>
	<node lat="64.73607500370063" lon="11.189491663826638" id="-42004">
		<tag k="name" v="Purkholmen" />
		<tag k="place" v="islet" />
		<tag k="ssr:stedsnr" v="226232" />
	</node>
	<node lat="64.91417222420338" lon="10.742077777953067" id="-42014">
		<tag k="name" v="Singsdragan" />
		<tag k="place" v="islet" />
		<tag k="ssr:stedsnr" v="229181" />
	</node>
	<node lat="64.94597777963597" lon="10.823363883419692" id="-42016">
		<tag k="name" v="Inner-Kråkøya" />
		<tag k="place" v="islet" />
		<tag k="ssr:stedsnr" v="449337" />
	</node>
	<node lat="65.0236750039396" lon="11.834511101407433" id="-42019">
		<tag k="fixme" v="consider seamark:type=rock or natural=shoal" />
		<tag k="name" v="Kilsskjæra" />
		<tag k="place" v="islet" />
		<tag k="ssr:stedsnr" v="229291" />
	</node>
	<node lat="64.95684999926465" lon="10.56738611554205" id="-42021">
		<tag k="name" v="Midt-Nordfluene" />
		<tag k="natural" v="shoal" />
		<tag k="place" v="locality" />
		<tag k="ssr:stedsnr" v="449354" />
	</node>
	<node lat="65.00311666455947" lon="11.683183326588821" id="-42023">
		<tag k="name" v="Hatlvika" />
		<tag k="natural" v="bay" />
		<tag k="ssr:stedsnr" v="229536" />
	</node>
	<node lat="64.95857777651905" lon="11.588452768189049" id="-42030">
		<tag k="name" v="Buret" />
		<tag k="natural" v="bay" />
		<tag k="ssr:stedsnr" v="229810" />
	</node>
	<node lat="64.95631389296513" lon="11.554113884156678" id="-42031">
		<tag k="name" v="Nordsjøen" />
		<tag k="natural" v="beach" />
		<tag k="ssr:stedsnr" v="229813" />
	</node>
	<node lat="65.03748611345928" lon="11.741824991567107" id="-42032">
		<tag k="name" v="Hellersflesa" />
		<tag k="place" v="islet" />
		<tag k="ssr:stedsnr" v="229934" />
	</node>
	<node lat="64.92192777590017" lon="11.28976388441642" id="-42035">
		<tag k="name" v="Sagstua" />
		<tag k="natural" v="beach" />
		<tag k="ssr:stedsnr" v="230316" />
	</node>
	<node lat="64.91669444360814" lon="11.267000002321948" id="-42036">
		<tag k="name" v="Kvitholmen" />
		<tag k="place" v="islet" />
		<tag k="ssr:stedsnr" v="230329" />
	</node>
	<node lat="64.94237499739359" lon="11.225386116917674" id="-42037">
		<tag k="name" v="Brødskjærholmen" />
		<tag k="place" v="islet" />
		<tag k="ssr:stedsnr" v="230283" />
	</node>
	<node lat="65.02673055255362" lon="11.101788882463064" id="-42042">
		<tag k="name" v="Stampen" />
		<tag k="place" v="locality" />
		<tag k="seamark:type" v="rock" />
		<tag k="ssr:stedsnr" v="449703" />
	</node>
	<node lat="64.99713055873998" lon="10.71666388952599" id="-42043">
		<tag k="name" v="Langtaren" />
		<tag k="natural" v="shoal" />
		<tag k="place" v="locality" />
		<tag k="ssr:stedsnr" v="449757" />
	</node>
	<node lat="64.78809999675609" lon="10.491463890042724" id="-42045">
		<tag k="name" v="Håkonsluene" />
		<tag k="natural" v="shoal" />
		<tag k="place" v="locality" />
		<tag k="ssr:stedsnr" v="449845" />
	</node>
	<node lat="64.86263055244665" lon="10.652027768720169" id="-42046">
		<tag k="name" v="Gardsøysundet" />
		<tag k="natural" v="strait" />
		<tag k="ssr:stedsnr" v="450028" />
	</node>
	<node lat="64.8428027737538" lon="10.833583338770747" id="-42047">
		<tag k="name" v="Ormtunga" />
		<tag k="natural" v="cape" />
		<tag k="ssr:stedsnr" v="449981" />
	</node>
	<node lat="65.00530555107257" lon="10.870097229674665" id="-42048">
		<tag k="name" v="Tomasflesa" />
		<tag k="place" v="islet" />
		<tag k="ssr:stedsnr" v="450000" />
	</node>
	<node lat="64.85507778031243" lon="10.714983330196155" id="-42053">
		<tag k="name" v="Biholmen" />
		<tag k="place" v="islet" />
		<tag k="ssr:stedsnr" v="450041" />
	</node>
	<node lat="64.93202500170639" lon="10.807497214121888" id="-42072">
		<tag k="name" v="Valøyfjorden" />
		<tag k="natural" v="strait" />
		<tag k="ssr:stedsnr" v="450717" />
	</node>
	<node lat="64.94459444199018" lon="10.789355563429822" id="-42073">
		<tag k="name" v="Kleppdraget" />
		<tag k="natural" v="shoal" />
		<tag k="place" v="locality" />
		<tag k="ssr:stedsnr" v="450719" />
	</node>
	<node lat="64.97667221854317" lon="10.687777781513029" id="-42074">
		<tag k="name" v="Rundfallet" />
		<tag k="natural" v="shoal" />
		<tag k="place" v="locality" />
		<tag k="ssr:stedsnr" v="450733" />
	</node>
	<node lat="64.83858333173364" lon="10.519241663578708" id="-42075">
		<tag k="name" v="Stortaren" />
		<tag k="natural" v="shoal" />
		<tag k="place" v="locality" />
		<tag k="ssr:stedsnr" v="450895" />
	</node>
	<node lat="64.82008333133741" lon="10.62283055898009" id="-42076">
		<tag k="alt_name" v="Håskjeret, nordre" />
		<tag k="name" v="Nordre Håskjeret" />
		<tag k="place" v="islet" />
		<tag k="ssr:stedsnr" v="240304" />
	</node>
	<node lat="64.90208055249654" lon="11.692608322938012" id="-42080">
		<tag k="name" v="Grønholmen" />
		<tag k="place" v="islet" />
		<tag k="ssr:stedsnr" v="451033" />
	</node>
	<node lat="64.87944444028483" lon="11.707141673863594" id="-42083">
		<tag k="name" v="Finnemoholmen" />
		<tag k="place" v="islet" />
		<tag k="ssr:stedsnr" v="451046" />
	</node>
	<node lat="64.76925833294132" lon="10.601269449041718" id="-42085">
		<tag k="name" v="Brandholmen" />
		<tag k="place" v="islet" />
		<tag k="ssr:stedsnr" v="451109" />
	</node>
	<node lat="64.91777500125868" lon="11.855886114497894" id="-42087">
		<tag k="name" v="Langnesbukta" />
		<tag k="natural" v="bay" />
		<tag k="ssr:stedsnr" v="453476" />
	</node>
	<node lat="64.94765555351944" lon="10.60825555679847" id="-42095">
		<tag k="name" v="Slugarden" />
		<tag k="natural" v="shoal" />
		<tag k="place" v="locality" />
		<tag k="ssr:stedsnr" v="451754" />
	</node>
	<node lat="64.8402694414633" lon="11.2020944509999" id="-42097">
		<tag k="name" v="Storoksbåsen" />
		<tag k="natural" v="bay" />
		<tag k="ssr:stedsnr" v="451983" />
	</node>
	<node lat="64.83727777988426" lon="10.773263886616288" id="-42098">
		<tag k="name" v="Skurven" />
		<tag k="place" v="islet" />
		<tag k="ssr:stedsnr" v="451994" />
	</node>
	<node lat="64.94596667078669" lon="12.049202771349297" id="-42103">
		<tag k="name" v="Ytter Kalvhagaodden" />
		<tag k="natural" v="cape" />
		<tag k="ssr:stedsnr" v="452337" />
	</node>
	<node lat="64.96595832915217" lon="12.04910555775906" id="-42106">
		<tag k="name" v="Saltbuengodden" />
		<tag k="natural" v="cape" />
		<tag k="ssr:stedsnr" v="452392" />
	</node>
	<node lat="64.96453889266307" lon="12.063072226573295" id="-42107">
		<tag k="fixme" v="consider seamark:type=rock or natural=shoal" />
		<tag k="name" v="Storskjæret" />
		<tag k="place" v="islet" />
		<tag k="ssr:stedsnr" v="452393" />
	</node>
	<node lat="64.89041666945775" lon="11.293297228002102" id="-42108">
		<tag k="name" v="Kråkøysundet" />
		<tag k="natural" v="strait" />
		<tag k="ssr:stedsnr" v="452397" />
	</node>
	<node lat="64.87157222574845" lon="11.078527770422443" id="-42111">
		<tag k="name" v="Jektvikneset" />
		<tag k="natural" v="cape" />
		<tag k="old_name" v="Jægtvikneset" />
		<tag k="ssr:stedsnr" v="452678" />
	</node>
	<node lat="64.76415000065593" lon="10.98799722646337" id="-42112">
		<tag k="name" v="Storslua" />
		<tag k="natural" v="shoal" />
		<tag k="place" v="locality" />
		<tag k="ssr:stedsnr" v="452765" />
	</node>
	<node lat="64.77455277515149" lon="10.946058332753722" id="-42113">
		<tag k="name" v="Kvalholmslua" />
		<tag k="natural" v="shoal" />
		<tag k="place" v="locality" />
		<tag k="ssr:stedsnr" v="452761" />
	</node>
	<node lat="64.76247222625992" lon="10.853363893099345" id="-42116">
		<tag k="name" v="Nord-Blikkøya" />
		<tag k="place" v="island" />
		<tag k="ssr:stedsnr" v="453036" />
	</node>
	<node lat="64.87232500091862" lon="10.962313886473506" id="-42117">
		<tag k="name" v="Garstadsjøen" />
		<tag k="natural" v="beach" />
		<tag k="ssr:stedsnr" v="453095" />
	</node>
	<node lat="64.7653138861183" lon="11.452338896031264" id="-42118">
		<tag k="name" v="Litltaren" />
		<tag k="natural" v="shoal" />
		<tag k="place" v="locality" />
		<tag k="ssr:stedsnr" v="453169" />
	</node>
	<node lat="64.97879722045029" lon="11.576052774438184" id="-42119">
		<tag k="alt_name" v="Drenkern" />
		<tag k="fixme" v="consider seamark:type=rock or natural=shoal" />
		<tag k="name" v="Drenken" />
		<tag k="place" v="islet" />
		<tag k="ssr:stedsnr" v="453140" />
	</node>
	<node lat="64.79459166429" lon="11.470811110774802" id="-42120">
		<tag k="name" v="Purkholmen" />
		<tag k="place" v="islet" />
		<tag k="ssr:stedsnr" v="453226" />
	</node>
	<node lat="64.77589721884053" lon="11.35318334286427" id="-42121">
		<tag k="fixme" v="consider seamark:type=rock or natural=shoal" />
		<tag k="name" v="Terneskjæret" />
		<tag k="place" v="islet" />
		<tag k="ssr:stedsnr" v="453260" />
	</node>
	<node lat="64.97950000251582" lon="11.182833328799314" id="-42122">
		<tag k="name" v="Oterholmsfallan" />
		<tag k="place" v="locality" />
		<tag k="seamark:type" v="rock" />
		<tag k="ssr:stedsnr" v="453592" />
	</node>
	<node lat="64.73136944674485" lon="11.011172230891885" id="-42123">
		<tag k="name" v="Sauturørin" />
		<tag k="natural" v="shoal" />
		<tag k="place" v="locality" />
		<tag k="ssr:stedsnr" v="453744" />
	</node>
	<node lat="64.919102776651" lon="12.40222223214492" id="-42124">
		<tag k="name" v="Saltbuvika" />
		<tag k="natural" v="bay" />
		<tag k="ssr:stedsnr" v="453761" />
	</node>
	<node lat="64.92010278165472" lon="10.860247214930082" id="-42125">
		<tag k="name" v="Sørholmen" />
		<tag k="place" v="islet" />
		<tag k="ssr:stedsnr" v="453998" />
	</node>
	<node lat="64.9195305595695" lon="11.259725010582182" id="-42126">
		<tag k="alt_name" v="Løngøya" />
		<tag k="name" v="Lyngøya" />
		<tag k="place" v="islet" />
		<tag k="ssr:stedsnr" v="257003" />
	</node>
	<node lat="64.89199166721335" lon="11.338599992561365" id="-42128">
		<tag k="name" v="Kvernavika" />
		<tag k="natural" v="bay" />
		<tag k="ssr:stedsnr" v="257109" />
	</node>
	<node lat="65.00183611553062" lon="11.728394444515544" id="-42132">
		<tag k="alt_name" v="Kalvvika;Kaldvikbukta" />
		<tag k="name" v="Kalvika" />
		<tag k="natural" v="bay" />
		<tag k="ssr:stedsnr" v="257211" />
	</node>
	<node lat="64.93760555449714" lon="11.419627770683105" id="-42135">
		<tag k="fixme" v="consider seamark:type=rock or natural=shoal" />
		<tag k="name" v="Silsandskjæra" />
		<tag k="place" v="islet" />
		<tag k="ssr:stedsnr" v="257271" />
	</node>
	<node lat="64.9389416697163" lon="11.407002781509318" id="-42136">
		<tag k="name" v="Breivikern" />
		<tag k="natural" v="bay" />
		<tag k="ssr:stedsnr" v="257276" />
	</node>
	<node lat="64.80065833211292" lon="11.533475008917383" id="-42137">
		<tag k="name" v="Steinvika" />
		<tag k="natural" v="bay" />
		<tag k="ssr:stedsnr" v="257413" />
	</node>
	<node lat="64.8219638914877" lon="11.24579165855421" id="-42141">
		<tag k="name" v="Mikkelsmessholmen" />
		<tag k="place" v="islet" />
		<tag k="ssr:stedsnr" v="257321" />
	</node>
	<node lat="64.80828333525955" lon="11.662774996200051" id="-42142">
		<tag k="name" v="Skarvøya" />
		<tag k="place" v="islet" />
		<tag k="ssr:stedsnr" v="257368" />
	</node>
	<node lat="64.86474444263618" lon="11.374755545092057" id="-42145">
		<tag k="name" v="Sandhalsen" />
		<tag k="natural" v="cape" />
		<tag k="ssr:stedsnr" v="257464" />
	</node>
	<node lat="64.96576944550327" lon="10.914941664363285" id="-42147">
		<tag k="alt_name" v="Stakkholmen" />
		<tag k="name" v="Nord Hamnaholmen" />
		<tag k="place" v="islet" />
		<tag k="ssr:stedsnr" v="257604" />
	</node>
	<node lat="64.95729444740117" lon="10.78986111307482" id="-42148">
		<tag k="name" v="Kleppen" />
		<tag k="place" v="islet" />
		<tag k="ssr:stedsnr" v="257611" />
	</node>
	<node lat="65.02259167109074" lon="11.024936117090686" id="-42149">
		<tag k="name" v="Oterholmen" />
		<tag k="place" v="islet" />
		<tag k="ssr:stedsnr" v="257614" />
	</node>
	<node lat="65.0185833319832" lon="11.034525009894594" id="-42150">
		<tag k="name" v="Kultøya" />
		<tag k="place" v="island" />
		<tag k="ssr:stedsnr" v="257615" />
	</node>
	<node lat="64.96123332979249" lon="12.02747499233773" id="-42154">
		<tag k="alt_name" v="Leirvikbukta" />
		<tag k="name" v="Leirvika" />
		<tag k="natural" v="bay" />
		<tag k="ssr:stedsnr" v="257660" />
	</node>
	<node lat="65.03308889168568" lon="11.001463885224242" id="-42157">
		<tag k="name" v="Skarvbalen" />
		<tag k="place" v="islet" />
		<tag k="ssr:stedsnr" v="257665" />
	</node>
	<node lat="64.97025278192133" lon="12.116488880273607" id="-42158">
		<tag k="name" v="Finnvika" />
		<tag k="natural" v="bay" />
		<tag k="ssr:stedsnr" v="257666" />
	</node>
	<node lat="65.1096361103892" lon="11.098511102008775" id="-42159">
		<tag k="name" v="Kvaløyskoltan" />
		<tag k="natural" v="shoal" />
		<tag k="place" v="locality" />
		<tag k="ssr:stedsnr" v="257667" />
	</node>
	<node lat="65.0768361142683" lon="11.066183331518438" id="-42161">
		<tag k="name" v="Nordoddhausen" />
		<tag k="natural" v="shoal" />
		<tag k="place" v="locality" />
		<tag k="ssr:stedsnr" v="257670" />
	</node>
	<node lat="64.77026111209237" lon="10.60793332446448" id="-42162">
		<tag k="name" v="Lyngøya" />
		<tag k="place" v="islet" />
		<tag k="ssr:stedsnr" v="257672" />
	</node>
	<node lat="64.93367499724394" lon="10.725472223536675" id="-42163">
		<tag k="fixme" v="consider seamark:type=rock or natural=shoal" />
		<tag k="name" v="Flatskjæret" />
		<tag k="place" v="islet" />
		<tag k="ssr:stedsnr" v="257558" />
	</node>
	<node lat="64.81542500153127" lon="10.534113896065286" id="-42164">
		<tag k="name" v="Traugråsa" />
		<tag k="natural" v="strait" />
		<tag k="ssr:stedsnr" v="257703" />
	</node>
	<node lat="65.0108861076386" lon="11.084811119584952" id="-42165">
		<tag k="name" v="Gåsholmen" />
		<tag k="place" v="islet" />
		<tag k="ssr:stedsnr" v="257704" />
	</node>
	<node lat="64.82070000365061" lon="10.49908055021439" id="-42166">
		<tag k="fixme" v="consider seamark:type=rock or natural=shoal" />
		<tag k="name" v="Skringen" />
		<tag k="place" v="islet" />
		<tag k="ssr:stedsnr" v="257705" />
	</node>
	<node lat="64.82296388798329" lon="10.596302767442648" id="-42167">
		<tag k="name" v="Leverholmen" />
		<tag k="place" v="islet" />
		<tag k="ssr:stedsnr" v="257706" />
	</node>
	<node lat="64.82892778013401" lon="10.569024997748343" id="-42168">
		<tag k="fixme" v="consider seamark:type=rock or natural=shoal" />
		<tag k="name" v="Storflesa" />
		<tag k="place" v="islet" />
		<tag k="ssr:stedsnr" v="257709" />
	</node>
	<node lat="64.84175000035573" lon="10.569938888349292" id="-42170">
		<tag k="name" v="Skjærværet" />
		<tag k="place" v="island" />
		<tag k="ssr:stedsnr" v="257719" />
	</node>
	<node lat="64.74876388451038" lon="11.220561112569948" id="-42172">
		<tag k="name" v="Ramstadsundet" />
		<tag k="natural" v="strait" />
		<tag k="ssr:stedsnr" v="257799" />
	</node>
	<node lat="64.78619166419416" lon="11.03061666693195" id="-42173">
		<tag k="fixme" v="consider seamark:type=rock or natural=shoal" />
		<tag k="name" v="Snikskjæret" />
		<tag k="place" v="islet" />
		<tag k="ssr:stedsnr" v="257907" />
	</node>
	<node lat="64.79184444275995" lon="10.828416659859878" id="-42174">
		<tag k="fixme" v="consider seamark:type=rock or natural=shoal" />
		<tag k="name" v="Buktaskjæran" />
		<tag k="place" v="islet" />
		<tag k="ssr:stedsnr" v="257908" />
	</node>
	<node lat="64.67168491927903" lon="10.443561899947879" id="-42180">
		<tag k="name" v="Storklakken" />
		<tag k="natural" v="shoal" />
		<tag k="place" v="locality" />
		<tag k="ssr:stedsnr" v="257926" />
	</node>
	<node lat="64.82803610825691" lon="10.64014721468208" id="-42186">
		<tag k="name" v="Benråsa" />
		<tag k="natural" v="strait" />
		<tag k="ssr:stedsnr" v="267930" />
	</node>
	<node lat="64.99830555558336" lon="10.855608334882497" id="-42187">
		<tag k="name" v="Urtholmen" />
		<tag k="place" v="islet" />
		<tag k="ssr:stedsnr" v="267984" />
	</node>
	<node lat="64.99326110720597" lon="10.99949722358623" id="-42188">
		<tag k="name" v="Nord-Fjærholmen" />
		<tag k="place" v="islet" />
		<tag k="ssr:stedsnr" v="267990" />
	</node>
	<node lat="64.92517777889698" lon="11.492252786473097" id="-42190">
		<tag k="name" v="Straumholmen" />
		<tag k="place" v="islet" />
		<tag k="ssr:stedsnr" v="268103" />
	</node>
	<node lat="64.92934166945601" lon="11.465880556358652" id="-42193">
		<tag k="name" v="Langnesbukta" />
		<tag k="natural" v="bay" />
		<tag k="ssr:stedsnr" v="268094" />
	</node>
	<node lat="64.93261944579872" lon="11.464316658466771" id="-42194">
		<tag k="name" v="Sjånesodden" />
		<tag k="natural" v="cape" />
		<tag k="ssr:stedsnr" v="268095" />
	</node>
	<node lat="64.7244805575438" lon="10.84648056449485" id="-42196">
		<tag k="name" v="Hempen" />
		<tag k="natural" v="shoal" />
		<tag k="place" v="locality" />
		<tag k="ssr:stedsnr" v="268200" />
	</node>
	<node lat="64.8263416680488" lon="10.52186111370138" id="-42197">
		<tag k="name" v="Småfalla" />
		<tag k="natural" v="shoal" />
		<tag k="place" v="locality" />
		<tag k="ssr:stedsnr" v="268884" />
	</node>
	<node lat="65.01298333482855" lon="10.601744453877766" id="-42198">
		<tag k="name" v="Revlhausan" />
		<tag k="natural" v="shoal" />
		<tag k="place" v="locality" />
		<tag k="ssr:stedsnr" v="268899" />
	</node>
	<node lat="64.99753333147336" lon="10.76763610416208" id="-42200">
		<tag k="fixme" v="consider seamark:type=rock or natural=shoal" />
		<tag k="name" v="Brusøyskjæran" />
		<tag k="place" v="islet" />
		<tag k="ssr:stedsnr" v="268925" />
	</node>
	<node lat="64.82601944590368" lon="10.736949994761702" id="-42203">
		<tag k="fixme" v="consider seamark:type=rock or natural=shoal" />
		<tag k="name" v="Stokkskjæret" />
		<tag k="place" v="islet" />
		<tag k="ssr:stedsnr" v="269973" />
	</node>
	<node lat="64.77601666922124" lon="11.16002222705611" id="-42204">
		<tag k="name" v="Meslua" />
		<tag k="natural" v="shoal" />
		<tag k="place" v="locality" />
		<tag k="ssr:stedsnr" v="270103" />
	</node>
	<node lat="64.72380277610272" lon="11.113625004278703" id="-42205">
		<tag k="name" v="Ramstadflu" />
		<tag k="natural" v="shoal" />
		<tag k="place" v="locality" />
		<tag k="ssr:stedsnr" v="270106" />
	</node>
	<node lat="64.93910833576743" lon="12.037458343491453" id="-42210">
		<tag k="name" v="Almvika" />
		<tag k="natural" v="bay" />
		<tag k="ssr:stedsnr" v="270302" />
	</node>
	<node lat="64.93631666689515" lon="12.333302788091236" id="-42214">
		<tag k="name" v="Rønningsvika" />
		<tag k="natural" v="bay" />
		<tag k="ssr:stedsnr" v="270286" />
	</node>
	<node lat="64.8266305511364" lon="11.104361119394097" id="-42216">
		<tag k="name" v="Laukviktaren" />
		<tag k="natural" v="shoal" />
		<tag k="place" v="locality" />
		<tag k="ssr:stedsnr" v="270602" />
	</node>
	<node lat="64.82170278140696" lon="11.101722223646389" id="-42217">
		<tag k="name" v="Oternesflaget" />
		<tag k="natural" v="shoal" />
		<tag k="place" v="locality" />
		<tag k="ssr:stedsnr" v="270593" />
	</node>
	<node lat="64.81232221893555" lon="11.087002787281424" id="-42218">
		<tag k="name" v="Storflaget" />
		<tag k="natural" v="shoal" />
		<tag k="place" v="locality" />
		<tag k="ssr:stedsnr" v="270597" />
	</node>
	<node lat="64.81278610699103" lon="11.12209444604658" id="-42219">
		<tag k="name" v="Edøytaren" />
		<tag k="natural" v="shoal" />
		<tag k="place" v="locality" />
		<tag k="ssr:stedsnr" v="270598" />
	</node>
	<node lat="64.74023055787691" lon="11.30969167315671" id="-42220">
		<tag k="name" v="Nilsvikodden" />
		<tag k="place" v="islet" />
		<tag k="ssr:stedsnr" v="271170" />
	</node>
	<node lat="64.79953889064005" lon="11.810038888108648" id="-42230">
		<tag k="name" v="Piningen" />
		<tag k="natural" v="cape" />
		<tag k="ssr:stedsnr" v="286013" />
	</node>
</osm>
