<?xml version="1.0" encoding="UTF-8"?>
<<<<<<< HEAD
<osm version="0.6" generator="osmapis">
	<node lat="64.92185000413868" lon="11.221386119369042" id="-36763">
		<tag k="name" v="Sandhalsen" />
		<tag k="place" v="farm" />
		<tag k="ssr:stedsnr" v="14014" />
	</node>
	<node lat="64.8422249983994" lon="11.335391674802496" id="-36769">
		<tag k="fixme" v="multiple name tags, choose one and add the other to alt_name" />
		<tag k="name" v="Nybrott;Løhaugen" />
		<tag k="place" v="farm" />
		<tag k="ssr:stedsnr" v="14408" />
	</node>
	<node lat="64.86984166602758" lon="11.254894447491262" id="-36770">
		<tag k="name" v="Vikket" />
		<tag k="place" v="isolated_dwelling" />
		<tag k="ssr:stedsnr" v="14324" />
	</node>
	<node lat="64.84965833436831" lon="11.300233330903104" id="-36771">
		<tag k="alt_name" v="Neset" />
		<tag k="name" v="Næs" />
		<tag k="place" v="farm" />
		<tag k="ssr:stedsnr" v="14382" />
	</node>
	<node lat="64.92583889246119" lon="11.171861112585981" id="-36774">
		<tag k="name" v="Buøya" />
		<tag k="place" v="farm" />
		<tag k="ssr:stedsnr" v="14561" />
	</node>
	<node lat="64.92364166298356" lon="10.86122777241433" id="-36777">
		<tag k="name" v="Breidvika" />
		<tag k="place" v="locality" />
		<tag k="ssr:stedsnr" v="14568" />
	</node>
	<node lat="64.87137499812096" lon="10.767041672053962" id="-36791">
		<tag k="name" v="Leitet" />
		<tag k="place" v="farm" />
		<tag k="ssr:stedsnr" v="14871" />
	</node>
	<node lat="64.89722835934982" lon="11.561092990059612" id="-36792">
=======
<osm generator="osmapis" version="0.6">
	<node id="-831483" lat="64.862088885" lon="11.6149416677">
		<tag k="name" v="Odden" />
		<tag k="place" v="farm" />
		<tag k="ssr:stedsnr" v="15479" />
	</node>
	<node id="-831479" lat="64.9472805574" lon="10.974288882">
		<tag k="name" v="Ramstadsjøen" />
		<tag k="place" v="farm" />
		<tag k="ssr:stedsnr" v="15557" />
	</node>
	<node id="-831478" lat="64.9517138847" lon="11.062927779">
		<tag k="name" v="Moen" />
		<tag k="place" v="farm" />
		<tag k="ssr:stedsnr" v="15555" />
	</node>
	<node id="-831476" lat="65.0041132947" lon="11.9223328762">
		<tag k="name" v="Heimen" />
		<tag k="place" v="isolated_dwelling" />
		<tag k="ssr:stedsnr" v="15199" />
	</node>
	<node id="-831470" lat="64.8134333334" lon="11.702630553">
		<tag k="name" v="Buøysetra" />
		<tag k="place" v="farm" />
		<tag k="ssr:stedsnr" v="15349" />
	</node>
	<node id="-831469" lat="64.8190522633" lon="11.5401793303">
		<tag k="fixme" v="consider place=hamlet" />
		<tag k="name" v="Skaga" />
		<tag k="place" v="farm" />
		<tag k="ssr:stedsnr" v="15344" />
	</node>
	<node id="-831468" lat="64.8172444416" lon="11.5290916567">
		<tag k="fixme" v="multiple name tags, choose one and add the other to alt_name" />
		<tag k="name" v="Odden;Skaga" />
		<tag k="place" v="farm" />
		<tag k="ssr:stedsnr" v="15343" />
	</node>
	<node id="-831467" lat="64.819277777" lon="11.44141389">
		<tag k="name" v="Valmoen" />
		<tag k="place" v="farm" />
		<tag k="ssr:stedsnr" v="15336" />
	</node>
	<node id="-831463" lat="64.8972283593" lon="11.5610929901">
>>>>>>> e1d4bc35ff8a6074a6f2e91616a996b547c36f15
		<tag k="name" v="Sørstranda" />
		<tag k="place" v="locality" />
		<tag k="ssr:stedsnr" v="15075" />
	</node>
<<<<<<< HEAD
	<node lat="64.79886632830974" lon="11.852021640105413" id="-36794">
		<tag k="fixme" v="consider place=hamlet" />
		<tag k="name" v="Oppløya" />
		<tag k="place" v="farm" />
		<tag k="ssr:stedsnr" v="14908" />
	</node>
	<node lat="64.80484444639771" lon="11.787186113491778" id="-36796">
		<tag k="name" v="Setran" />
		<tag k="place" v="farm" />
		<tag k="ssr:stedsnr" v="14911" />
	</node>
	<node lat="64.86838468725664" lon="11.006932154630984" id="-36799">
=======
	<node id="-831462" lat="64.9195750016" lon="11.5953500022">
		<tag k="name" v="Stranda" />
		<tag k="place" v="farm" />
		<tag k="ssr:stedsnr" v="15027" />
	</node>
	<node id="-831459" lat="64.859655558" lon="10.8194916741">
		<tag k="name" v="Liberg" />
		<tag k="place" v="isolated_dwelling" />
		<tag k="ssr:stedsnr" v="14997" />
	</node>
	<node id="-831454" lat="64.8713749981" lon="10.7670416721">
		<tag k="name" v="Leitet" />
		<tag k="place" v="farm" />
		<tag k="ssr:stedsnr" v="14871" />
	</node>
	<node id="-831447" lat="64.8683846873" lon="11.0069321546">
>>>>>>> e1d4bc35ff8a6074a6f2e91616a996b547c36f15
		<tag k="alt_name" v="Svinøystranda" />
		<tag k="name" v="Stranda" />
		<tag k="place" v="locality" />
		<tag k="ssr:stedsnr" v="14968" />
	</node>
<<<<<<< HEAD
	<node lat="64.83618333426541" lon="11.373311115260703" id="-36808">
		<tag k="name" v="Slettenget" />
		<tag k="place" v="farm" />
		<tag k="ssr:stedsnr" v="15520" />
	</node>
	<node lat="64.84600277623964" lon="11.198852781175148" id="-36818">
		<tag k="name" v="Sandmoen" />
		<tag k="place" v="isolated_dwelling" />
		<tag k="ssr:stedsnr" v="15811" />
	</node>
	<node lat="64.84403308429941" lon="11.182860293084566" id="-36820">
		<tag k="fixme" v="consider place=hamlet" />
		<tag k="name" v="Sandvika" />
		<tag k="place" v="farm" />
		<tag k="ssr:stedsnr" v="15822" />
	</node>
	<node lat="64.95171388466072" lon="11.062927779030073" id="-36821">
		<tag k="name" v="Moen" />
		<tag k="place" v="farm" />
		<tag k="ssr:stedsnr" v="15555" />
	</node>
	<node lat="64.7925801242852" lon="11.4407980678741" id="-36826">
		<tag k="name" v="Innersjøen" />
		<tag k="place" v="farm" />
		<tag k="ssr:stedsnr" v="15763" />
	</node>
	<node lat="64.81725278155834" lon="11.899186109624956" id="-36830">
		<tag k="alt_name" v="Synnesbrekka" />
		<tag k="name" v="Brekka" />
		<tag k="place" v="farm" />
		<tag k="ssr:stedsnr" v="15919" />
	</node>
	<node lat="64.93844128298171" lon="12.236796757680226" id="-36831">
		<tag k="fixme" v="consider place=hamlet" />
		<tag k="name" v="Fesund" />
		<tag k="place" v="farm" />
		<tag k="ssr:stedsnr" v="15855" />
	</node>
	<node lat="64.81778076999655" lon="11.63937371384542" id="-36847">
		<tag k="fixme" v="consider place=hamlet" />
		<tag k="name" v="Geisnes" />
		<tag k="place" v="farm" />
		<tag k="ssr:stedsnr" v="26322" />
	</node>
	<node lat="64.87834722247679" lon="11.266600006708485" id="-36850">
		<tag k="name" v="Lundemo" />
		<tag k="place" v="farm" />
		<tag k="ssr:stedsnr" v="27406" />
	</node>
	<node lat="64.85268055137617" lon="11.243633329492706" id="-36860">
		<tag k="name" v="Nygården" />
		<tag k="place" v="isolated_dwelling" />
		<tag k="ssr:stedsnr" v="28467" />
	</node>
	<node lat="64.8013361131213" lon="11.80947777004454" id="-36880">
		<tag k="name" v="Bursvika" />
		<tag k="place" v="farm" />
		<tag k="ssr:stedsnr" v="43014" />
	</node>
	<node lat="64.88304444245358" lon="11.114061107148842" id="-36909">
		<tag k="name" v="Nord-Tuftin" />
		<tag k="place" v="isolated_dwelling" />
		<tag k="ssr:stedsnr" v="47608" />
	</node>
	<node lat="64.87285833026762" lon="11.091527782767217" id="-36910">
		<tag k="name" v="Gjeilan" />
		<tag k="place" v="isolated_dwelling" />
		<tag k="ssr:stedsnr" v="47611" />
	</node>
	<node lat="64.86971944021094" lon="11.080727778726027" id="-36919">
		<tag k="name" v="Sørosan" />
		<tag k="place" v="isolated_dwelling" />
		<tag k="ssr:stedsnr" v="47880" />
	</node>
	<node lat="64.84400277851314" lon="11.912680553537587" id="-36931">
		<tag k="name" v="Isakstua" />
		<tag k="place" v="isolated_dwelling" />
		<tag k="ssr:stedsnr" v="51011" />
	</node>
	<node lat="65.06421389075345" lon="11.974405554898546" id="-36934">
		<tag k="name" v="Vassmoen" />
		<tag k="place" v="isolated_dwelling" />
		<tag k="ssr:stedsnr" v="52801" />
	</node>
	<node lat="64.9451707466425" lon="11.441733457650887" id="-36957">
		<tag k="fixme" v="consider place=hamlet" />
		<tag k="name" v="Gjerdinga" />
		<tag k="place" v="farm" />
		<tag k="ssr:stedsnr" v="75206" />
	</node>
	<node lat="64.81723333126939" lon="11.439586112065284" id="-36963">
		<tag k="name" v="Berg" />
		<tag k="place" v="farm" />
		<tag k="ssr:stedsnr" v="75312" />
	</node>
	<node lat="64.8616638871511" lon="11.5962166620854" id="-36968">
		<tag k="name" v="Kjerkåsen" />
		<tag k="place" v="isolated_dwelling" />
		<tag k="ssr:stedsnr" v="75455" />
	</node>
	<node lat="64.8532591790095" lon="11.483125417895977" id="-36969">
		<tag k="fixme" v="consider place=hamlet" />
		<tag k="name" v="Nakling" />
		<tag k="place" v="farm" />
		<tag k="ssr:stedsnr" v="75463" />
	</node>
	<node lat="64.83273055248571" lon="11.330013886387453" id="-36975">
=======
	<node id="-829389" lat="64.8420388855" lon="11.2978138802">
		<tag k="alt_name" v="Østvika" />
		<tag k="name" v="Austvik" />
		<tag k="place" v="farm" />
		<tag k="ssr:stedsnr" v="408438" />
	</node>
	<node id="-831436" lat="64.7523055551" lon="11.2838750057">
		<tag k="name" v="Ottersøya" />
		<tag k="place" v="farm" />
		<tag k="ssr:stedsnr" v="14650" />
	</node>
	<node id="-831430" lat="64.8508694404" lon="11.5371249946">
		<tag k="alt_name" v="Hammer" />
		<tag k="name" v="Hammar" />
		<tag k="place" v="farm" />
		<tag k="ssr:stedsnr" v="14398" />
	</node>
	<node id="-831429" lat="64.8496583344" lon="11.3002333309">
		<tag k="alt_name" v="Neset" />
		<tag k="name" v="Næs" />
		<tag k="place" v="farm" />
		<tag k="ssr:stedsnr" v="14382" />
	</node>
	<node id="-831428" lat="64.923641663" lon="10.8612277724">
		<tag k="name" v="Breidvika" />
		<tag k="place" v="locality" />
		<tag k="ssr:stedsnr" v="14568" />
	</node>
	<node id="-831425" lat="64.9258388925" lon="11.1718611126">
		<tag k="name" v="Buøya" />
		<tag k="place" v="farm" />
		<tag k="ssr:stedsnr" v="14561" />
	</node>
	<node id="-831422" lat="64.9179388931" lon="11.1878027847">
		<tag k="name" v="Skigård" />
		<tag k="place" v="farm" />
		<tag k="ssr:stedsnr" v="14548" />
	</node>
	<node id="-831419" lat="64.957527774" lon="11.7853249964">
		<tag k="name" v="Fagerli" />
		<tag k="place" v="farm" />
		<tag k="ssr:stedsnr" v="14543" />
	</node>
	<node id="-827961" lat="64.8154846319" lon="11.4412698105">
		<tag k="fixme" v="consider place=hamlet" />
		<tag k="name" v="Storval" />
		<tag k="place" v="farm" />
		<tag k="ssr:stedsnr" v="257331" />
	</node>
	<node id="-831417" lat="64.9229611151" lon="10.9538111197">
		<tag k="name" v="Nygården" />
		<tag k="place" v="farm" />
		<tag k="ssr:stedsnr" v="14534" />
	</node>
	<node id="-831414" lat="64.805544444" lon="11.4587083298">
		<tag k="name" v="Laugmoen" />
		<tag k="place" v="farm" />
		<tag k="ssr:stedsnr" v="14250" />
	</node>
	<node id="-831409" lat="64.9387333292" lon="11.479727775">
		<tag k="fixme" v="consider place=hamlet" />
		<tag k="name" v="Måneset" />
		<tag k="place" v="village" />
		<tag k="ssr:stedsnr" v="14176" />
	</node>
	<node id="-831405" lat="65.0579583312" lon="12.044180553">
		<tag k="name" v="Saglia" />
		<tag k="place" v="isolated_dwelling" />
		<tag k="ssr:stedsnr" v="14072" />
	</node>
	<node id="-831404" lat="65.0651605602" lon="11.9665362481">
		<tag k="fixme" v="consider place=hamlet" />
		<tag k="name" v="Simle" />
		<tag k="place" v="farm" />
		<tag k="ssr:stedsnr" v="14065" />
	</node>
	<node id="-829767" lat="64.8380999977" lon="11.3315527859">
		<tag k="name" v="Skardet" />
		<tag k="place" v="farm" />
		<tag k="ssr:stedsnr" v="682547" />
	</node>
	<node id="-831400" lat="65.0223863517" lon="11.7931629528">
		<tag k="name" v="Døløra" />
		<tag k="place" v="farm" />
		<tag k="ssr:stedsnr" v="14135" />
	</node>
	<node id="-829349" lat="64.950869443" lon="11.9629527708">
		<tag k="name" v="Storgården" />
		<tag k="place" v="farm" />
		<tag k="ssr:stedsnr" v="389197" />
	</node>
	<node id="-831814" lat="64.8327305525" lon="11.3300138864">
>>>>>>> e1d4bc35ff8a6074a6f2e91616a996b547c36f15
		<tag k="name" v="Myrmo" />
		<tag k="place" v="farm" />
		<tag k="ssr:stedsnr" v="75510" />
	</node>
<<<<<<< HEAD
	<node lat="64.83281388577598" lon="11.36045000862768" id="-36976">
		<tag k="name" v="Li" />
		<tag k="place" v="farm" />
		<tag k="ssr:stedsnr" v="75511" />
	</node>
	<node lat="64.83706076430998" lon="11.289978338479953" id="-36977">
		<tag k="name" v="Moritsøya" />
		<tag k="place" v="farm" />
		<tag k="ssr:stedsnr" v="75516" />
	</node>
	<node lat="64.91436531742825" lon="11.825519130882705" id="-36984">
		<tag k="fixme" v="consider place=hamlet" />
		<tag k="name" v="Rokka" />
		<tag k="place" v="farm" />
		<tag k="ssr:stedsnr" v="75559" />
	</node>
	<node lat="64.97028333567856" lon="12.096727774653694" id="-36997">
		<tag k="name" v="Lømoen" />
		<tag k="place" v="farm" />
		<tag k="ssr:stedsnr" v="75664" />
	</node>
	<node lat="65.01875832976485" lon="11.643905554244858" id="-36998">
		<tag k="alt_name" v="Aunet" />
		<tag k="name" v="Dolmaunet" />
		<tag k="place" v="isolated_dwelling" />
		<tag k="ssr:stedsnr" v="75901" />
	</node>
	<node lat="64.85622777712753" lon="10.75495277037889" id="-37004">
		<tag k="name" v="Kjørsenget" />
		<tag k="place" v="farm" />
		<tag k="ssr:stedsnr" v="75954" />
	</node>
	<node lat="64.85788333606098" lon="11.381705548418363" id="-37012">
		<tag k="name" v="Bergem" />
		<tag k="place" v="farm" />
		<tag k="ssr:stedsnr" v="76461" />
	</node>
	<node lat="65.04044722467057" lon="11.883208325613083" id="-37024">
		<tag k="name" v="Kvernastranda" />
		<tag k="place" v="farm" />
		<tag k="ssr:stedsnr" v="85823" />
	</node>
	<node lat="64.9730138930307" lon="11.097400003860384" id="-37035">
		<tag k="fixme" v="consider place=hamlet" />
		<tag k="loc_name" v="Lyngsneset" />
		<tag k="name" v="Lyngsnes" />
		<tag k="place" v="village" />
		<tag k="ssr:stedsnr" v="87409" />
	</node>
	<node lat="64.932886111707" lon="12.282277772075812" id="-37037">
		<tag k="name" v="Forneset" />
		<tag k="place" v="farm" />
		<tag k="ssr:stedsnr" v="88215" />
	</node>
	<node lat="64.85111111500613" lon="11.248619434679863" id="-37041">
		<tag k="name" v="Myra" />
		<tag k="place" v="isolated_dwelling" />
		<tag k="ssr:stedsnr" v="88376" />
	</node>
	<node lat="64.85113522921392" lon="11.168749386243956" id="-37042">
		<tag k="name" v="Ryem" />
		<tag k="place" v="hamlet" />
		<tag k="ssr:stedsnr" v="88380" />
	</node>
	<node lat="64.85510277976869" lon="11.501033329996108" id="-37053">
		<tag k="name" v="Heimstad" />
		<tag k="place" v="farm" />
		<tag k="ssr:stedsnr" v="104110" />
	</node>
	<node lat="64.83313055949392" lon="11.275394435266124" id="-37054">
		<tag k="name" v="Bekkvikmoen" />
		<tag k="place" v="farm" />
		<tag k="ssr:stedsnr" v="104178" />
	</node>
	<node lat="64.90036669171667" lon="10.947667328316165" id="-37094">
		<tag k="fixme" v="consider place=hamlet" />
		<tag k="name" v="Horsenget" />
		<tag k="place" v="farm" />
		<tag k="ssr:stedsnr" v="108795" />
	</node>
	<node lat="64.87746388937123" lon="11.88638889401354" id="-37107">
		<tag k="historic" v="shieling" />
		<tag k="name" v="Fuglmosetran" />
		<tag k="place" v="isolated_dwelling" />
		<tag k="ssr:stedsnr" v="111803" />
	</node>
	<node lat="64.92060833595347" lon="11.309274990676817" id="-37120">
		<tag k="alt_name" v="Øvergårdan" />
		<tag k="name" v="Øvergården" />
		<tag k="place" v="farm" />
		<tag k="ssr:stedsnr" v="135003" />
	</node>
	<node lat="64.8078583290102" lon="11.388408335733633" id="-37125">
		<tag k="name" v="Bakkestranda" />
		<tag k="place" v="farm" />
		<tag k="ssr:stedsnr" v="135309" />
	</node>
	<node lat="64.80418611337444" lon="11.531405547145974" id="-37129">
		<tag k="alt_name" v="Øksningen, austre" />
		<tag k="fixme" v="multiple name tags, choose one and add the other to alt_name" />
		<tag k="name" v="Øksninga;Austre Øksningen" />
		<tag k="place" v="farm" />
		<tag k="ssr:stedsnr" v="135315" />
	</node>
	<node lat="64.79791388825825" lon="11.276152771864838" id="-37131">
		<tag k="name" v="Gullbringen" />
		<tag k="place" v="farm" />
		<tag k="ssr:stedsnr" v="135320" />
	</node>
	<node lat="64.79838676017577" lon="11.434816676458713" id="-37133">
		<tag k="fixme" v="consider place=hamlet" />
		<tag k="name" v="Lauga" />
		<tag k="place" v="farm" />
		<tag k="ssr:stedsnr" v="135332" />
	</node>
	<node lat="64.90865328865259" lon="10.934329917756662" id="-37138">
		<tag k="alt_name" v="Bålvika;Bordvika" />
		<tag k="name" v="Bårdsvika" />
		<tag k="place" v="locality" />
		<tag k="ssr:stedsnr" v="135560" />
	</node>
	<node lat="64.92700555546193" lon="11.5180416619255" id="-37149">
		<tag k="name" v="Osan" />
		<tag k="place" v="farm" />
		<tag k="ssr:stedsnr" v="136024" />
	</node>
	<node lat="64.91970555850293" lon="11.535636115475835" id="-37150">
		<tag k="name" v="Småenglia" />
		<tag k="place" v="farm" />
		<tag k="ssr:stedsnr" v="136027" />
	</node>
	<node lat="64.8679638931967" lon="10.756327776538889" id="-37157">
		<tag k="name" v="Urstad" />
		<tag k="place" v="farm" />
		<tag k="ssr:stedsnr" v="135973" />
	</node>
	<node lat="64.86341667032363" lon="10.743852785968016" id="-37159">
		<tag k="name" v="Vågan" />
		<tag k="place" v="farm" />
		<tag k="ssr:stedsnr" v="136000" />
	</node>
	<node lat="64.86925555668125" lon="11.288586116125531" id="-37163">
		<tag k="name" v="Øverenget" />
		<tag k="place" v="farm" />
		<tag k="ssr:stedsnr" v="136453" />
	</node>
	<node lat="64.95620000074638" lon="11.663044441133662" id="-37168">
		<tag k="name" v="Moen" />
		<tag k="place" v="farm" />
		<tag k="ssr:stedsnr" v="136201" />
	</node>
	<node lat="64.83172499609921" lon="11.333005562001256" id="-37169">
		<tag k="name" v="Furem" />
		<tag k="place" v="farm" />
		<tag k="ssr:stedsnr" v="136314" />
	</node>
	<node lat="64.96112322157082" lon="11.080642167470725" id="-37176">
		<tag k="name" v="Hatlan" />
		<tag k="place" v="farm" />
		<tag k="ssr:stedsnr" v="136562" />
	</node>
	<node lat="64.95690832953915" lon="12.013327777724042" id="-37185">
		<tag k="name" v="Brekka" />
		<tag k="place" v="farm" />
		<tag k="ssr:stedsnr" v="136607" />
	</node>
	<node lat="64.9661361122582" lon="12.016986112113685" id="-37190">
		<tag k="name" v="Takåsen" />
		<tag k="place" v="farm" />
		<tag k="ssr:stedsnr" v="136662" />
	</node>
	<node lat="64.96543333001506" lon="12.0085722232812" id="-37191">
		<tag k="name" v="Høgheim" />
		<tag k="place" v="farm" />
		<tag k="ssr:stedsnr" v="136663" />
	</node>
	<node lat="64.85120512167651" lon="11.11837625180677" id="-37199">
		<tag k="fixme" v="consider place=hamlet" />
		<tag k="name" v="Dekkerhus" />
		<tag k="place" v="farm" />
		<tag k="ssr:stedsnr" v="136950" />
	</node>
	<node lat="64.85047499952152" lon="11.167888889687704" id="-37200">
		<tag k="name" v="Lian" />
		<tag k="place" v="farm" />
		<tag k="ssr:stedsnr" v="136954" />
	</node>
	<node lat="64.85371459467915" lon="10.871322472924822" id="-37203">
		<tag k="fixme" v="consider place=hamlet" />
		<tag k="name" v="Berg" />
		<tag k="place" v="farm" />
		<tag k="ssr:stedsnr" v="136959" />
	</node>
	<node lat="64.87302500044586" lon="11.02703332939687" id="-37205">
		<tag k="name" v="Steina" />
		<tag k="place" v="isolated_dwelling" />
		<tag k="ssr:stedsnr" v="136901" />
	</node>
	<node lat="64.9359361085787" lon="11.479949997035767" id="-37223">
		<tag k="alt_name" v="Måneset indre" />
		<tag k="name" v="Indre Måneset" />
		<tag k="place" v="farm" />
		<tag k="ssr:stedsnr" v="147214" />
	</node>
	<node lat="64.96715277714368" lon="12.071100001332582" id="-37239">
		<tag k="name" v="Sjølstad" />
		<tag k="place" v="hamlet" />
		<tag k="ssr:stedsnr" v="148360" />
	</node>
	<node lat="64.9116999992122" lon="11.391277768403757" id="-37250">
		<tag k="name" v="Laukvikstranda" />
		<tag k="place" v="isolated_dwelling" />
		<tag k="ssr:stedsnr" v="257037" />
	</node>
	<node lat="64.91845555944758" lon="11.51662499604088" id="-37252">
		<tag k="alt_name" v="Småengan" />
		<tag k="name" v="Småenget" />
		<tag k="place" v="farm" />
		<tag k="ssr:stedsnr" v="257046" />
	</node>
	<node lat="65.03177209486735" lon="11.86575235578076" id="-37257">
		<tag k="fixme" v="consider place=hamlet" />
		<tag k="name" v="Lundsenget" />
		<tag k="place" v="farm" />
		<tag k="ssr:stedsnr" v="257146" />
	</node>
	<node lat="64.99892624662978" lon="11.625415706970442" id="-37265">
		<tag k="name" v="Kråkvika" />
		<tag k="place" v="farm" />
		<tag k="ssr:stedsnr" v="257161" />
	</node>
	<node lat="65.00935555839763" lon="11.724213883482255" id="-37279">
		<tag k="name" v="Nordtun" />
		<tag k="place" v="farm" />
		<tag k="ssr:stedsnr" v="257199" />
	</node>
	<node lat="64.81637500023672" lon="11.261886118194127" id="-37283">
		<tag k="name" v="Lundring" />
		<tag k="place" v="farm" />
		<tag k="ssr:stedsnr" v="257322" />
	</node>
	<node lat="64.81548463194002" lon="11.441269810524544" id="-37288">
		<tag k="fixme" v="consider place=hamlet" />
		<tag k="name" v="Storval" />
		<tag k="place" v="farm" />
		<tag k="ssr:stedsnr" v="257331" />
	</node>
	<node lat="64.82005555324166" lon="11.447638884591727" id="-37289">
		<tag k="name" v="Vassdalen" />
		<tag k="place" v="farm" />
		<tag k="ssr:stedsnr" v="257332" />
	</node>
	<node lat="64.8093138866769" lon="11.366449999180205" id="-37292">
		<tag k="name" v="Bakkan" />
		<tag k="place" v="farm" />
		<tag k="ssr:stedsnr" v="257344" />
	</node>
	<node lat="64.81060555751993" lon="11.277500001960052" id="-37293">
		<tag k="name" v="Grevstad" />
		<tag k="place" v="farm" />
		<tag k="ssr:stedsnr" v="257351" />
	</node>
	<node lat="64.80088333079962" lon="11.411633327695572" id="-37294">
		<tag k="name" v="Yttersjøen" />
		<tag k="place" v="farm" />
		<tag k="ssr:stedsnr" v="257391" />
	</node>
	<node lat="64.80140000368314" lon="11.46494445483142" id="-37295">
		<tag k="name" v="Skogly" />
		<tag k="place" v="farm" />
		<tag k="ssr:stedsnr" v="257394" />
	</node>
	<node lat="64.8583999980369" lon="11.646013890120647" id="-37297">
		<tag k="name" v="Storvika" />
		<tag k="place" v="farm" />
		<tag k="ssr:stedsnr" v="257476" />
	</node>
	<node lat="64.85829886807608" lon="11.672664864412141" id="-37298">
		<tag k="fixme" v="consider place=hamlet" />
		<tag k="name" v="Finnestranda" />
		<tag k="place" v="farm" />
		<tag k="ssr:stedsnr" v="257479" />
	</node>
	<node lat="64.84678888448532" lon="11.368063891425567" id="-37301">
		<tag k="alt_name" v="Fagerlia" />
		<tag k="name" v="Fagerli" />
		<tag k="place" v="farm" />
		<tag k="ssr:stedsnr" v="257531" />
	</node>
	<node lat="64.85742028267717" lon="11.288086647412538" id="-37303">
		<tag k="fixme" v="consider place=suburb, village or hamlet" />
		<tag k="name" v="Ottersøya" />
		<tag k="place" v="quarter" />
		<tag k="ssr:stedsnr" v="257500" />
	</node>
	<node lat="64.94647778023953" lon="11.06248056516283" id="-37311">
		<tag k="name" v="Straumsnes" />
		<tag k="place" v="farm" />
		<tag k="ssr:stedsnr" v="257566" />
	</node>
	<node lat="64.91807499961534" lon="11.850791658136448" id="-37314">
		<tag k="name" v="Åsheim" />
		<tag k="place" v="farm" />
		<tag k="ssr:stedsnr" v="257583" />
	</node>
	<node lat="64.92261944847805" lon="11.877416673419926" id="-37319">
		<tag k="name" v="Saltkjelvika" />
		<tag k="place" v="farm" />
		<tag k="ssr:stedsnr" v="257593" />
	</node>
	<node lat="64.89814444438909" lon="11.113888892623505" id="-37325">
		<tag k="name" v="Valan" />
		<tag k="place" v="farm" />
		<tag k="ssr:stedsnr" v="257632" />
	</node>
	<node lat="64.91713333120863" lon="10.939619451398972" id="-37327">
=======
	<node id="-829345" lat="64.9387732313" lon="11.9217757095">
		<tag k="fixme" v="consider place=hamlet" />
		<tag k="name" v="Kalvika" />
		<tag k="place" v="farm" />
		<tag k="ssr:stedsnr" v="389206" />
	</node>
	<node id="-829322" lat="64.7500999993" lon="11.2735361177">
		<tag k="name" v="Grindvollen" />
		<tag k="place" v="farm" />
		<tag k="ssr:stedsnr" v="500767" />
	</node>
	<node id="-829320" lat="64.9945722231" lon="11.7457638869">
		<tag k="name" v="Bjørkmoen" />
		<tag k="place" v="farm" />
		<tag k="ssr:stedsnr" v="500765" />
	</node>
	<node id="-827713" lat="64.9479527817" lon="12.0126000109">
		<tag k="name" v="Laberg" />
		<tag k="place" v="farm" />
		<tag k="ssr:stedsnr" v="15626" />
	</node>
	<node id="-829300" lat="64.86345833" lon="10.9066638941">
		<tag k="name" v="Årengan" />
		<tag k="place" v="farm" />
		<tag k="ssr:stedsnr" v="500992" />
	</node>
	<node id="-831344" lat="64.9525000014" lon="11.0580333411">
		<tag k="name" v="Vestermoen" />
		<tag k="place" v="farm" />
		<tag k="ssr:stedsnr" v="925560" />
	</node>
	<node id="-829295" lat="64.8320944476" lon="11.7366805507">
		<tag k="name" v="Midterenget" />
		<tag k="place" v="farm" />
		<tag k="ssr:stedsnr" v="500972" />
	</node>
	<node id="-831341" lat="64.903616665" lon="11.0994388975">
		<tag k="fixme" v="multiple name tags, choose one and add the other to alt_name" />
		<tag k="name" v="Brøken;Innersund" />
		<tag k="place" v="farm" />
		<tag k="ssr:stedsnr" v="925612" />
	</node>
	<node id="-829292" lat="64.8486651707" lon="11.1497415491">
		<tag k="fixme" v="consider place=hamlet" />
		<tag k="name" v="Åkvika" />
		<tag k="place" v="farm" />
		<tag k="ssr:stedsnr" v="500967" />
	</node>
	<node id="-829286" lat="64.8600111113" lon="11.1072111007">
		<tag k="name" v="Kleiva" />
		<tag k="place" v="farm" />
		<tag k="ssr:stedsnr" v="500958" />
	</node>
	<node id="-831333" lat="64.9181694461" lon="11.2140916743">
		<tag k="name" v="Dalheim" />
		<tag k="place" v="farm" />
		<tag k="ssr:stedsnr" v="924585" />
	</node>
	<node id="-831332" lat="64.9157277791" lon="10.9738999935">
		<tag k="alt_name" v="Sjyenget" />
		<tag k="name" v="Sjøenget" />
		<tag k="place" v="isolated_dwelling" />
		<tag k="ssr:stedsnr" v="924558" />
	</node>
	<node id="-829754" lat="64.8015333326" lon="11.4328999946">
		<tag k="name" v="Lystad" />
		<tag k="place" v="farm" />
		<tag k="ssr:stedsnr" v="682381" />
	</node>
	<node id="-829274" lat="64.9548444481" lon="11.0064944532">
		<tag k="alt_name" v="Valhaugen" />
		<tag k="name" v="Valhaug" />
		<tag k="place" v="farm" />
		<tag k="ssr:stedsnr" v="500614" />
	</node>
	<node id="-831321" lat="64.9898527752" lon="11.7304416629">
		<tag k="amenity" v="school" />
		<tag k="name" v="Gravvik oppvekstsenter" />
		<tag k="old_name" v="Gravvik skole" />
		<tag k="ssr:stedsnr" v="905408" />
	</node>
	<node id="-829270" lat="64.9090666698" lon="11.7857749922">
		<tag k="name" v="Skogen" />
		<tag k="place" v="farm" />
		<tag k="ssr:stedsnr" v="500605" />
	</node>
	<node id="-827705" lat="64.8331555557" lon="11.2811527839">
		<tag k="name" v="Bekkvika" />
		<tag k="place" v="farm" />
		<tag k="ssr:stedsnr" v="15525" />
	</node>
	<node id="-829268" lat="64.949447225" lon="11.0607638934">
		<tag k="name" v="Lissvika" />
		<tag k="place" v="farm" />
		<tag k="ssr:stedsnr" v="500602" />
	</node>
	<node id="-829267" lat="64.9033287473" lon="11.8358316156">
		<tag k="fixme" v="consider place=hamlet" />
		<tag k="name" v="Lassemoen" />
		<tag k="place" v="farm" />
		<tag k="ssr:stedsnr" v="500598" />
	</node>
	<node id="-829261" lat="64.8370249999" lon="11.6816385193">
		<tag k="fixme" v="consider place=hamlet" />
		<tag k="name" v="Kvistarøya" />
		<tag k="place" v="farm" />
		<tag k="ssr:stedsnr" v="500580" />
	</node>
	<node id="-829260" lat="64.8327694423" lon="11.3349499911">
		<tag k="alt_name" v="Drolen" />
		<tag k="name" v="Granheim" />
		<tag k="place" v="farm" />
		<tag k="ssr:stedsnr" v="500571" />
	</node>
	<node id="-829258" lat="64.8430527793" lon="11.3392805503">
		<tag k="name" v="Aunet" />
		<tag k="place" v="farm" />
		<tag k="ssr:stedsnr" v="500564" />
	</node>
	<node id="-829257" lat="64.9594361087" lon="12.0186888798">
		<tag k="name" v="Skaftnesmoen" />
		<tag k="place" v="farm" />
		<tag k="ssr:stedsnr" v="500673" />
	</node>
	<node id="-829255" lat="64.8648361143" lon="11.5561555602">
		<tag k="name" v="Mulstadenget" />
		<tag k="place" v="farm" />
		<tag k="ssr:stedsnr" v="500446" />
	</node>
	<node id="-829252" lat="64.8746222252" lon="11.6691749991">
		<tag k="name" v="Buvika" />
		<tag k="place" v="isolated_dwelling" />
		<tag k="ssr:stedsnr" v="500434" />
	</node>
	<node id="-829250" lat="64.8074611137" lon="11.35079167">
		<tag k="name" v="Haugen" />
		<tag k="place" v="farm" />
		<tag k="ssr:stedsnr" v="500393" />
	</node>
	<node id="-831296" lat="64.9974027761" lon="11.7201805645">
		<tag k="name" v="Myrvang" />
		<tag k="place" v="isolated_dwelling" />
		<tag k="ssr:stedsnr" v="897456" />
	</node>
	<node id="-831295" lat="64.8904555547" lon="11.1135999899">
		<tag k="name" v="Fornes" />
		<tag k="place" v="isolated_dwelling" />
		<tag k="ssr:stedsnr" v="897570" />
	</node>
	<node id="-829243" lat="64.8204777774" lon="11.3356138979">
		<tag k="name" v="Dalen prestegard" />
		<tag k="place" v="farm" />
		<tag k="ssr:stedsnr" v="500358" />
	</node>
	<node id="-829238" lat="64.8240388917" lon="11.4166333311">
		<tag k="name" v="Bjørkli" />
		<tag k="place" v="farm" />
		<tag k="ssr:stedsnr" v="500328" />
	</node>
	<node id="-831283" lat="64.9420527811" lon="11.568458334">
		<tag k="name" v="Innerplassen" />
		<tag k="place" v="locality" />
		<tag k="ssr:stedsnr" v="897208" />
	</node>
	<node id="-831276" lat="64.8247499993" lon="11.4139000045">
		<tag k="name" v="Valmyra" />
		<tag k="place" v="hamlet" />
		<tag k="ssr:stedsnr" v="893810" />
	</node>
	<node id="-831275" lat="64.8914722224" lon="11.0663333309">
		<tag k="fixme" v="multiple name tags, choose one and add the other to alt_name" />
		<tag k="name" v="Vestre Setnøya;Setnøya" />
		<tag k="place" v="farm" />
		<tag k="ssr:stedsnr" v="891112" />
	</node>
	<node id="-831271" lat="64.9767861101" lon="10.9177000019">
		<tag k="name" v="Svanafloa" />
		<tag k="place" v="farm" />
		<tag k="ssr:stedsnr" v="877056" />
	</node>
	<node id="-829214" lat="64.9212444402" lon="11.4858305522">
		<tag k="fixme" v="multiple name tags, choose one and add the other to alt_name" />
		<tag k="name" v="Kvalvika;Asplund" />
		<tag k="place" v="farm" />
		<tag k="ssr:stedsnr" v="500019" />
	</node>
	<node id="-829213" lat="64.8686217265" lon="10.9243633021">
		<tag k="fixme" v="consider place=hamlet" />
		<tag k="name" v="Rossøya" />
		<tag k="place" v="farm" />
		<tag k="ssr:stedsnr" v="499984" />
	</node>
	<node id="-829212" lat="64.8708472219" lon="10.8648888789">
		<tag k="name" v="Heimsvika" />
		<tag k="place" v="farm" />
		<tag k="ssr:stedsnr" v="499981" />
	</node>
	<node id="-829211" lat="64.8701991334" lon="10.8461530086">
		<tag k="fixme" v="consider place=hamlet" />
		<tag k="name" v="Hunnestad" />
		<tag k="place" v="farm" />
		<tag k="ssr:stedsnr" v="499978" />
	</node>
	<node id="-828092" lat="64.8774638894" lon="11.886388894">
		<tag k="historic" v="shieling" />
		<tag k="name" v="Fuglmosetran" />
		<tag k="place" v="locality" />
		<tag k="ssr:stedsnr" v="111803" />
	</node>
	<node id="-831255" lat="64.8741166661" lon="11.2382555483">
		<tag k="name" v="Østly" />
		<tag k="place" v="farm" />
		<tag k="ssr:stedsnr" v="864411" />
	</node>
	<node id="-831254" lat="64.877088886" lon="11.2314638942">
		<tag k="name" v="Breidablikk" />
		<tag k="place" v="isolated_dwelling" />
		<tag k="ssr:stedsnr" v="864410" />
	</node>
	<node id="-829201" lat="65.0278749973" lon="12.0337194467">
		<tag k="loc_name" v="Myra" />
		<tag k="name" v="Myrå" />
		<tag k="place" v="farm" />
		<tag k="ssr:stedsnr" v="500165" />
	</node>
	<node id="-831246" lat="65.065402782" lon="11.9571999929">
		<tag k="name" v="Åsheim" />
		<tag k="place" v="farm" />
		<tag k="ssr:stedsnr" v="841810" />
	</node>
	<node id="-827691" lat="64.7988663283" lon="11.8520216401">
		<tag k="fixme" v="consider place=hamlet" />
		<tag k="name" v="Oppløya" />
		<tag k="place" v="farm" />
		<tag k="ssr:stedsnr" v="14908" />
	</node>
	<node id="-829184" lat="64.843091671" lon="11.2141194389">
		<tag k="name" v="Haugheim" />
		<tag k="place" v="isolated_dwelling" />
		<tag k="ssr:stedsnr" v="378821" />
	</node>
	<node id="-829738" lat="64.8203194473" lon="11.5319944424">
		<tag k="name" v="Tømmermoen" />
		<tag k="place" v="farm" />
		<tag k="ssr:stedsnr" v="682314" />
	</node>
	<node id="-829169" lat="64.8082388876" lon="11.7044249929">
		<tag k="alt_name" v="Stor-Hestvika" />
		<tag k="name" v="Storhestvika" />
		<tag k="place" v="isolated_dwelling" />
		<tag k="ssr:stedsnr" v="499286" />
	</node>
	<node id="-829165" lat="64.8785483891" lon="11.3028941666">
		<tag k="name" v="Garmannvika" />
		<tag k="place" v="farm" />
		<tag k="ssr:stedsnr" v="499074" />
	</node>
	<node id="-827997" lat="64.858399998" lon="11.6460138901">
		<tag k="name" v="Storvika" />
		<tag k="place" v="farm" />
		<tag k="ssr:stedsnr" v="257476" />
	</node>
	<node id="-829658" lat="64.8666972252" lon="11.5907916659">
		<tag k="name" v="Kolvereid prestegard" />
		<tag k="place" v="farm" />
		<tag k="ssr:stedsnr" v="500459" />
	</node>
	<node id="-827676" lat="64.8422249984" lon="11.3353916748">
		<tag k="fixme" v="multiple name tags, choose one and add the other to alt_name" />
		<tag k="name" v="Løhaugen;Nybrott" />
		<tag k="place" v="farm" />
		<tag k="ssr:stedsnr" v="14408" />
	</node>
	<node id="-831137" lat="64.8810750034" lon="11.2370611171">
		<tag k="name" v="Solvang" />
		<tag k="place" v="isolated_dwelling" />
		<tag k="ssr:stedsnr" v="816554" />
	</node>
	<node id="-829082" lat="64.8689833341" lon="11.5765916718">
		<tag k="alt_name" v="Nordsjøen" />
		<tag k="name" v="Åsheim" />
		<tag k="place" v="farm" />
		<tag k="ssr:stedsnr" v="329502" />
	</node>
	<node id="-831115" lat="64.9278611101" lon="11.7454555498">
		<tag k="name" v="Høgstad" />
		<tag k="place" v="farm" />
		<tag k="ssr:stedsnr" v="804580" />
	</node>
	<node id="-829065" lat="64.8417305587" lon="11.792577775">
		<tag k="name" v="Kvistagården" />
		<tag k="place" v="isolated_dwelling" />
		<tag k="ssr:stedsnr" v="475828" />
	</node>
	<node id="-829377" lat="64.9817615772" lon="11.7669273794">
		<tag k="fixme" v="consider place=hamlet" />
		<tag k="name" v="Strømsneset" />
		<tag k="place" v="farm" />
		<tag k="ssr:stedsnr" v="392102" />
	</node>
	<node id="-831106" lat="64.8093083375" lon="11.3724833257">
		<tag k="name" v="Fagerheim" />
		<tag k="place" v="farm" />
		<tag k="ssr:stedsnr" v="804368" />
	</node>
	<node id="-831102" lat="64.8712083342" lon="10.8879361077">
		<tag k="name" v="Bjørvika" />
		<tag k="place" v="farm" />
		<tag k="ssr:stedsnr" v="803984" />
	</node>
	<node id="-831101" lat="64.8691333293" lon="10.8510166734">
		<tag k="name" v="Osa" />
		<tag k="place" v="farm" />
		<tag k="ssr:stedsnr" v="803983" />
	</node>
	<node id="-829048" lat="64.934177779" lon="11.3368361114">
		<tag k="name" v="Søråsen" />
		<tag k="place" v="isolated_dwelling" />
		<tag k="ssr:stedsnr" v="318161" />
	</node>
	<node id="-829045" lat="65.0091749979" lon="11.8912083432">
		<tag k="name" v="Sætran" />
		<tag k="place" v="isolated_dwelling" />
		<tag k="ssr:stedsnr" v="318156" />
	</node>
	<node id="-831091" lat="64.944402781" lon="11.766933329">
		<tag k="name" v="Granås" />
		<tag k="place" v="farm" />
		<tag k="ssr:stedsnr" v="803591" />
	</node>
	<node id="-831090" lat="64.9128436522" lon="10.9649125337">
		<tag k="fixme" v="consider place=hamlet" />
		<tag k="name" v="Sæterneset" />
		<tag k="place" v="farm" />
		<tag k="ssr:stedsnr" v="803590" />
	</node>
	<node id="-827667" lat="64.9113085922" lon="11.5211243669">
		<tag k="fixme" v="consider place=hamlet" />
		<tag k="name" v="Langstranda" />
		<tag k="place" v="farm" />
		<tag k="ssr:stedsnr" v="14029" />
	</node>
	<node id="-831088" lat="64.9430916681" lon="11.9350416575">
		<tag k="name" v="Sørvika" />
		<tag k="place" v="farm" />
		<tag k="ssr:stedsnr" v="803585" />
	</node>
	<node id="-828007" lat="64.9171333312" lon="10.9396194514">
>>>>>>> e1d4bc35ff8a6074a6f2e91616a996b547c36f15
		<tag k="fixme" v="consider place=hamlet" />
		<tag k="name" v="Austafjord" />
		<tag k="place" v="village" />
		<tag k="ssr:stedsnr" v="257635" />
	</node>
<<<<<<< HEAD
	<node lat="64.9132999984036" lon="11.215130557044793" id="-37329">
		<tag k="name" v="Vassbotnet" />
		<tag k="place" v="farm" />
		<tag k="ssr:stedsnr" v="257643" />
	</node>
	<node lat="64.94909444553032" lon="11.948527776796078" id="-37330">
		<tag k="name" v="Sørlia" />
		<tag k="place" v="farm" />
		<tag k="ssr:stedsnr" v="257649" />
	</node>
	<node lat="64.74606389306709" lon="11.331855555703923" id="-37342">
		<tag k="name" v="Løvmo" />
		<tag k="place" v="farm" />
		<tag k="ssr:stedsnr" v="257764" />
	</node>
	<node lat="64.99733333443311" lon="11.733536106844795" id="-37360">
		<tag k="name" v="Austvang" />
		<tag k="place" v="isolated_dwelling" />
		<tag k="ssr:stedsnr" v="257735" />
	</node>
	<node lat="64.75995555567809" lon="11.339677783295436" id="-37361">
		<tag k="name" v="Storeinen" />
		<tag k="place" v="farm" />
		<tag k="ssr:stedsnr" v="257741" />
	</node>
	<node lat="64.83101388733141" lon="11.199950006711358" id="-37367">
		<tag k="name" v="Finnvika" />
		<tag k="place" v="isolated_dwelling" />
		<tag k="ssr:stedsnr" v="257816" />
	</node>
	<node lat="64.80112500361851" lon="11.82473611673069" id="-37378">
		<tag k="alt_name" v="Langneset" />
		<tag k="name" v="Langnes" />
		<tag k="place" v="hamlet" />
		<tag k="ssr:stedsnr" v="257951" />
	</node>
	<node lat="64.86313049787495" lon="11.119517204062511" id="-37389">
		<tag k="fixme" v="consider place=hamlet" />
		<tag k="name" v="Evenstad" />
		<tag k="place" v="farm" />
		<tag k="ssr:stedsnr" v="257958" />
	</node>
	<node lat="64.84682222165006" lon="11.089399991740237" id="-37391">
		<tag k="name" v="Tjønnavika" />
		<tag k="place" v="isolated_dwelling" />
		<tag k="ssr:stedsnr" v="257965" />
	</node>
	<node lat="64.87241111062214" lon="11.846163884533471" id="-37393">
		<tag k="alt_name" v="Løenget" />
		<tag k="name" v="Lauvenget" />
		<tag k="place" v="locality" />
		<tag k="ssr:stedsnr" v="257972" />
	</node>
	<node lat="64.91789999866197" lon="10.807274997281338" id="-37424">
		<tag k="name" v="Fagervollen" />
		<tag k="place" v="isolated_dwelling" />
		<tag k="ssr:stedsnr" v="168165" />
	</node>
	<node lat="64.86231111530175" lon="11.116058336224768" id="-37437">
		<tag k="name" v="Evenstad" />
		<tag k="place" v="farm" />
		<tag k="ssr:stedsnr" v="169579" />
	</node>
	<node lat="64.94572222663282" lon="11.432644436602036" id="-37444">
		<tag k="name" v="Solbakken" />
		<tag k="place" v="farm" />
		<tag k="ssr:stedsnr" v="171512" />
	</node>
	<node lat="64.9170641234447" lon="11.710310159460047" id="-37458">
		<tag k="fixme" v="consider place=hamlet" />
		<tag k="name" v="Horven" />
		<tag k="place" v="farm" />
		<tag k="ssr:stedsnr" v="196031" />
	</node>
	<node lat="64.99374166726635" lon="11.71687499563326" id="-37468">
		<tag k="name" v="Grindstad" />
		<tag k="place" v="farm" />
		<tag k="ssr:stedsnr" v="196151" />
	</node>
	<node lat="64.80627500134405" lon="11.397474996984988" id="-37473">
		<tag k="name" v="Vindskielva" />
		<tag k="place" v="farm" />
		<tag k="ssr:stedsnr" v="196297" />
	</node>
	<node lat="64.98953055834032" lon="11.771202777976528" id="-37474">
		<tag k="alt_name" v="Gravika" />
		<tag k="name" v="Gravvika" />
		<tag k="place" v="hamlet" />
		<tag k="ssr:stedsnr" v="196660" />
	</node>
	<node lat="64.97632499644592" lon="11.144441674504321" id="-37477">
		<tag k="name" v="Lyngsnesengan" />
		<tag k="place" v="farm" />
		<tag k="ssr:stedsnr" v="196674" />
	</node>
	<node lat="64.9222319724156" lon="11.124089079244532" id="-37480">
		<tag k="fixme" v="consider place=hamlet" />
		<tag k="name" v="Stangringa" />
		<tag k="place" v="farm" />
		<tag k="ssr:stedsnr" v="196558" />
	</node>
	<node lat="64.87162500149856" lon="11.082055557678908" id="-37489">
		<tag k="name" v="Sørosan" />
		<tag k="place" v="farm" />
		<tag k="ssr:stedsnr" v="196969" />
	</node>
	<node lat="64.86532195957808" lon="11.04386806936677" id="-37490">
		<tag k="fixme" v="consider place=hamlet" />
		<tag k="name" v="Vågøya" />
		<tag k="place" v="farm" />
		<tag k="ssr:stedsnr" v="196970" />
	</node>
	<node lat="64.86993201032799" lon="10.762992307970311" id="-37491">
		<tag k="fixme" v="consider place=hamlet" />
		<tag k="name" v="Tjønnsøya" />
		<tag k="place" v="farm" />
		<tag k="ssr:stedsnr" v="196975" />
	</node>
	<node lat="64.92092777497744" lon="11.513349993393131" id="-37498">
		<tag k="name" v="Hesenget" />
		<tag k="place" v="farm" />
		<tag k="ssr:stedsnr" v="197021" />
	</node>
	<node lat="64.9082527786655" lon="11.586600004645918" id="-37500">
		<tag k="name" v="Ekrån" />
		<tag k="place" v="farm" />
		<tag k="ssr:stedsnr" v="197063" />
	</node>
	<node lat="64.91642257625628" lon="11.60364230576494" id="-37501">
		<tag k="alt_name" v="Fjær søre" />
		<tag k="name" v="Fjær" />
		<tag k="place" v="farm" />
		<tag k="ssr:stedsnr" v="197069" />
	</node>
	<node lat="64.82905555746098" lon="11.322655557043298" id="-37505">
		<tag k="name" v="Vågsmyra" />
		<tag k="place" v="farm" />
		<tag k="ssr:stedsnr" v="197309" />
	</node>
	<node lat="64.83393055119468" lon="11.36940278732002" id="-37508">
		<tag k="name" v="Dy" />
		<tag k="place" v="farm" />
		<tag k="ssr:stedsnr" v="197528" />
	</node>
	<node lat="64.93557500371901" lon="11.463766666761906" id="-37509">
		<tag k="name" v="Nerneset" />
		<tag k="place" v="farm" />
		<tag k="ssr:stedsnr" v="197269" />
	</node>
	<node lat="64.86225000165066" lon="11.568216664564863" id="-37513">
		<tag k="name" v="Haugnes" />
		<tag k="place" v="farm" />
		<tag k="ssr:stedsnr" v="197474" />
	</node>
	<node lat="64.94549167116423" lon="12.185524999349052" id="-37515">
		<tag k="alt_name" v="Bergsvik" />
		<tag k="name" v="Bergsvika" />
		<tag k="place" v="farm" />
		<tag k="ssr:stedsnr" v="197604" />
	</node>
	<node lat="65.00325833198978" lon="11.13512222433381" id="-37516">
		<tag k="alt_name" v="Lissvikmoen" />
		<tag k="name" v="Kvaløy" />
		<tag k="place" v="farm" />
		<tag k="ssr:stedsnr" v="197710" />
	</node>
	<node lat="64.79309444740707" lon="11.450019438531102" id="-37517">
		<tag k="alt_name" v="Inderberg" />
		<tag k="name" v="Innerberget" />
		<tag k="old_name" v="Indreberg" />
		<tag k="place" v="farm" />
		<tag k="ssr:stedsnr" v="197760" />
	</node>
	<node lat="64.87705278131206" lon="11.10313333672719" id="-37520">
		<tag k="fixme" v="consider place=hamlet" />
		<tag k="name" v="Ofstad" />
		<tag k="place" v="village" />
		<tag k="ssr:stedsnr" v="197906" />
	</node>
	<node lat="64.87313333518075" lon="11.047902775968613" id="-37522">
		<tag k="name" v="Litlenget" />
		<tag k="place" v="farm" />
		<tag k="ssr:stedsnr" v="197915" />
	</node>
	<node lat="64.89513611377984" lon="11.01955277626379" id="-37523">
		<tag k="name" v="Nygården" />
		<tag k="place" v="farm" />
		<tag k="ssr:stedsnr" v="197924" />
	</node>
	<node lat="64.97287241137067" lon="11.811260837689607" id="-37525">
		<tag k="fixme" v="consider place=hamlet" />
		<tag k="name" v="Fredrikmoen" />
		<tag k="place" v="farm" />
		<tag k="ssr:stedsnr" v="197662" />
	</node>
	<node lat="64.91357777649273" lon="11.49429165718397" id="-37543">
		<tag k="name" v="Brattberg" />
		<tag k="place" v="farm" />
		<tag k="ssr:stedsnr" v="268101" />
	</node>
	<node lat="64.87592222535505" lon="11.672216671257118" id="-37573">
		<tag k="name" v="Buvika" />
		<tag k="place" v="hamlet" />
		<tag k="ssr:stedsnr" v="208047" />
	</node>
	<node lat="64.92848571683342" lon="11.644064866475334" id="-37576">
		<tag k="fixme" v="consider place=hamlet" />
		<tag k="name" v="Rød" />
		<tag k="place" v="farm" />
		<tag k="ssr:stedsnr" v="208329" />
	</node>
	<node lat="64.9166611106158" lon="11.84092499581431" id="-37584">
		<tag k="name" v="Hesthagan" />
		<tag k="place" v="farm" />
		<tag k="ssr:stedsnr" v="269001" />
	</node>
	<node lat="64.9191611139255" lon="11.856083337708272" id="-37585">
		<tag k="name" v="Åsen" />
		<tag k="place" v="farm" />
		<tag k="ssr:stedsnr" v="269003" />
	</node>
	<node lat="64.96981666332712" lon="12.04986943410272" id="-37596">
		<tag k="name" v="Leirviksetran" />
		<tag k="place" v="farm" />
		<tag k="ssr:stedsnr" v="210406" />
	</node>
	<node lat="64.91274999702947" lon="12.273125008844966" id="-37600">
		<tag k="historic" v="shieling" />
		<tag k="name" v="Ole Samuelsensetran" />
		<tag k="place" v="isolated_dwelling" />
		<tag k="ssr:stedsnr" v="210302" />
	</node>
	<node lat="64.93377777590246" lon="12.280202769836581" id="-37602">
		<tag k="name" v="Forneset" />
		<tag k="place" v="farm" />
		<tag k="ssr:stedsnr" v="210307" />
	</node>
	<node lat="64.98407221923695" lon="12.174452779542198" id="-37618">
		<tag k="name" v="Leirneset" />
		<tag k="place" v="farm" />
		<tag k="ssr:stedsnr" v="270268" />
	</node>
	<node lat="64.96583888769018" lon="12.082858326460116" id="-37625">
		<tag k="name" v="Sandan" />
		<tag k="place" v="farm" />
		<tag k="ssr:stedsnr" v="270347" />
	</node>
	<node lat="64.898041666358" lon="10.918205548482879" id="-37627">
=======
	<node id="-829032" lat="64.8084416671" lon="11.5055527793">
		<tag k="name" v="Nyheim" />
		<tag k="place" v="farm" />
		<tag k="ssr:stedsnr" v="317306" />
	</node>
	<node id="-831079" lat="64.928230557" lon="11.1889222257">
		<tag k="name" v="Åsvika" />
		<tag k="place" v="farm" />
		<tag k="ssr:stedsnr" v="803625" />
	</node>
	<node id="-829029" lat="64.9802928644" lon="11.7099088017">
		<tag k="alt_name" v="Nordeitran" />
		<tag k="fixme" v="consider place=hamlet" />
		<tag k="name" v="Nord-Eitran" />
		<tag k="place" v="farm" />
		<tag k="ssr:stedsnr" v="317116" />
	</node>
	<node id="-829371" lat="64.8517916709" lon="11.233116669">
		<tag k="name" v="Haug" />
		<tag k="place" v="farm" />
		<tag k="ssr:stedsnr" v="391464" />
	</node>
	<node id="-831069" lat="64.9592556537" lon="11.6688748627">
		<tag k="fixme" v="consider place=hamlet" />
		<tag k="name" v="Sør-Eitran" />
		<tag k="place" v="farm" />
		<tag k="ssr:stedsnr" v="803180" />
	</node>
	<node id="-831067" lat="64.9539816861" lon="11.7110304255">
		<tag k="fixme" v="consider place=hamlet" />
		<tag k="name" v="Djupvika" />
		<tag k="place" v="farm" />
		<tag k="ssr:stedsnr" v="803177" />
	</node>
	<node id="-831066" lat="64.9500333316" lon="11.4524999937">
		<tag k="name" v="Moen" />
		<tag k="place" v="farm" />
		<tag k="ssr:stedsnr" v="803173" />
	</node>
	<node id="-829369" lat="64.9649666666" lon="12.0315361188">
		<tag k="loc_name" v="Bergenget" />
		<tag k="name" v="Solberg" />
		<tag k="place" v="farm" />
		<tag k="ssr:stedsnr" v="391408" />
	</node>
	<node id="-831051" lat="64.8518916652" lon="11.1075388947">
		<tag k="name" v="Hamran" />
		<tag k="place" v="farm" />
		<tag k="ssr:stedsnr" v="925967" />
	</node>
	<node id="-829001" lat="65.0006833363" lon="11.7284638844">
		<tag k="name" v="Fossmoen" />
		<tag k="place" v="isolated_dwelling" />
		<tag k="ssr:stedsnr" v="472532" />
	</node>
	<node id="-827660" lat="64.8815726715" lon="11.429196741">
		<tag k="fixme" v="consider place=hamlet" />
		<tag k="name" v="Søråaunet" />
		<tag k="place" v="farm" />
		<tag k="ssr:stedsnr" v="227394" />
	</node>
	<node id="-831045" lat="64.8516916666" lon="10.7812416573">
		<tag k="name" v="Øyadalen" />
		<tag k="place" v="farm" />
		<tag k="ssr:stedsnr" v="925955" />
	</node>
	<node id="-831040" lat="64.8089638882" lon="11.8773916741">
		<tag k="name" v="Brottenget" />
		<tag k="place" v="isolated_dwelling" />
		<tag k="ssr:stedsnr" v="925940" />
	</node>
	<node id="-831038" lat="64.8796111112" lon="11.0451694544">
		<tag k="alt_name" v="Svoltenenget;Edmundenget" />
		<tag k="name" v="Vågøyhamna" />
		<tag k="old_name" v="Vaagøhavnen" />
		<tag k="place" v="farm" />
		<tag k="ssr:stedsnr" v="925927" />
	</node>
	<node id="-831031" lat="64.9462888895" lon="12.2249722195">
		<tag k="name" v="Stranda" />
		<tag k="place" v="farm" />
		<tag k="ssr:stedsnr" v="925879" />
	</node>
	<node id="-831767" lat="64.9181416678" lon="11.6017305576">
		<tag k="name" v="Slåtten" />
		<tag k="place" v="farm" />
		<tag k="ssr:stedsnr" v="75035" />
	</node>
	<node id="-831025" lat="64.8425092619" lon="10.8712918376">
		<tag k="fixme" v="consider place=hamlet" />
		<tag k="name" v="Bergsnova" />
		<tag k="place" v="farm" />
		<tag k="ssr:stedsnr" v="925841" />
	</node>
	<node id="-831023" lat="64.9232826589" lon="12.3960713961">
		<tag k="fixme" v="consider place=hamlet" />
		<tag k="name" v="Grytbugen" />
		<tag k="place" v="farm" />
		<tag k="ssr:stedsnr" v="925836" />
	</node>
	<node id="-828973" lat="64.8526472193" lon="10.7888972251">
		<tag k="name" v="Laugvika" />
		<tag k="place" v="isolated_dwelling" />
		<tag k="ssr:stedsnr" v="471146" />
	</node>
	<node id="-831014" lat="64.7804499989" lon="11.3889305577">
		<tag k="name" v="Engesneset" />
		<tag k="place" v="farm" />
		<tag k="ssr:stedsnr" v="925789" />
	</node>
	<node id="-831008" lat="64.975591663" lon="10.9133972148">
		<tag k="name" v="Svanafloa" />
		<tag k="place" v="farm" />
		<tag k="ssr:stedsnr" v="925754" />
	</node>
	<node id="-828958" lat="64.8400861142" lon="11.3402722286">
		<tag k="name" v="Bangan" />
		<tag k="place" v="farm" />
		<tag k="ssr:stedsnr" v="469281" />
	</node>
	<node id="-831004" lat="64.9701666631" lon="10.8798361093">
		<tag k="name" v="Sandstad" />
		<tag k="place" v="locality" />
		<tag k="ssr:stedsnr" v="925738" />
	</node>
	<node id="-828953" lat="64.8159305556" lon="11.6851722181">
		<tag k="name" v="Ospvika" />
		<tag k="place" v="farm" />
		<tag k="ssr:stedsnr" v="468291" />
	</node>
	<node id="-828948" lat="64.8146472196" lon="11.6978249993">
		<tag k="name" v="Gammelgården" />
		<tag k="place" v="locality" />
		<tag k="ssr:stedsnr" v="468070" />
	</node>
	<node id="-830987" lat="64.9600527759" lon="11.7843583231">
		<tag k="name" v="Skogstad" />
		<tag k="place" v="farm" />
		<tag k="ssr:stedsnr" v="925661" />
	</node>
	<node id="-830986" lat="64.9658611076" lon="11.7994166671">
		<tag k="name" v="Åsheim" />
		<tag k="place" v="farm" />
		<tag k="ssr:stedsnr" v="925660" />
	</node>
	<node id="-830982" lat="64.9503750008" lon="11.9491777791">
		<tag k="name" v="Heimly" />
		<tag k="place" v="farm" />
		<tag k="ssr:stedsnr" v="925639" />
	</node>
	<node id="-828929" lat="64.8972083292" lon="11.0720805494">
		<tag k="name" v="Setnøya" />
		<tag k="place" v="farm" />
		<tag k="ssr:stedsnr" v="466091" />
	</node>
	<node id="-828928" lat="64.9611166704" lon="12.1778250081">
		<tag k="amenity" v="school" />
		<tag k="name" v="Foldereid oppvekstsenter" />
		<tag k="ssr:stedsnr" v="466001" />
	</node>
	<node id="-830975" lat="64.9030142076" lon="10.8517300947">
		<tag k="fixme" v="consider place=hamlet" />
		<tag k="name" v="Ulsund" />
		<tag k="place" v="farm" />
		<tag k="ssr:stedsnr" v="925600" />
	</node>
	<node id="-830974" lat="64.9077888908" lon="10.838949999">
		<tag k="name" v="Lia" />
		<tag k="place" v="farm" />
		<tag k="ssr:stedsnr" v="925598" />
	</node>
	<node id="-830973" lat="64.933425002" lon="11.7585583426">
		<tag k="name" v="Bjørkås" />
		<tag k="place" v="isolated_dwelling" />
		<tag k="ssr:stedsnr" v="925596" />
	</node>
	<node id="-830972" lat="64.9262861152" lon="11.7388416619">
		<tag k="name" v="Bakketun" />
		<tag k="place" v="farm" />
		<tag k="ssr:stedsnr" v="925592" />
	</node>
	<node id="-830967" lat="64.9165749992" lon="11.8390194373">
		<tag k="name" v="Rønningsmoen" />
		<tag k="place" v="farm" />
		<tag k="ssr:stedsnr" v="925577" />
	</node>
	<node id="-828009" lat="64.9132999984" lon="11.215130557">
		<tag k="name" v="Vassbotnet" />
		<tag k="place" v="farm" />
		<tag k="ssr:stedsnr" v="257643" />
	</node>
	<node id="-830961" lat="64.8378861084" lon="11.4008166749">
		<tag k="name" v="Nordbø" />
		<tag k="place" v="farm" />
		<tag k="ssr:stedsnr" v="925531" />
	</node>
	<node id="-830960" lat="64.8356777768" lon="11.4014194418">
		<tag k="alt_name" v="Bjønndalen" />
		<tag k="name" v="Bjørndal" />
		<tag k="place" v="farm" />
		<tag k="ssr:stedsnr" v="925526" />
	</node>
	<node id="-830958" lat="64.8442222224" lon="11.4209361033">
		<tag k="name" v="Hestlia" />
		<tag k="place" v="farm" />
		<tag k="ssr:stedsnr" v="925520" />
	</node>
	<node id="-830957" lat="64.8427111093" lon="11.5173500099">
		<tag k="name" v="Gjerdet" />
		<tag k="place" v="farm" />
		<tag k="ssr:stedsnr" v="925516" />
	</node>
	<node id="-830953" lat="64.8557751182" lon="11.3636054259">
		<tag k="fixme" v="consider place=hamlet" />
		<tag k="name" v="Sandnes" />
		<tag k="place" v="farm" />
		<tag k="ssr:stedsnr" v="925493" />
	</node>
	<node id="-830951" lat="64.849697223" lon="11.4191527799">
		<tag k="fixme" v="multiple name tags, choose one and add the other to alt_name" />
		<tag k="name" v="Hestlia;Litlveamoen" />
		<tag k="place" v="farm" />
		<tag k="ssr:stedsnr" v="925488" />
	</node>
	<node id="-830950" lat="64.8613861134" lon="11.6176805505">
		<tag k="name" v="Rønningen" />
		<tag k="place" v="farm" />
		<tag k="ssr:stedsnr" v="925483" />
	</node>
	<node id="-830949" lat="64.865494448" lon="11.6046472146">
		<tag k="name" v="Kolvereid" />
		<tag k="place" v="town" />
		<tag k="ssr:stedsnr" v="925480" />
	</node>
	<node id="-830947" lat="64.8629500023" lon="11.4104611147">
		<tag k="name" v="Framnes" />
		<tag k="place" v="farm" />
		<tag k="ssr:stedsnr" v="925454" />
	</node>
	<node id="-830941" lat="64.870719446" lon="11.7131166568">
		<tag k="alt_name" v="Aunvik" />
		<tag k="name" v="Aunvika" />
		<tag k="place" v="farm" />
		<tag k="ssr:stedsnr" v="925418" />
	</node>
	<node id="-830940" lat="64.872131629" lon="11.7095643525">
		<tag k="alt_name" v="Urdshalsen" />
		<tag k="fixme" v="consider place=hamlet" />
		<tag k="name" v="Urshalsen" />
		<tag k="place" v="farm" />
		<tag k="ssr:stedsnr" v="925417" />
	</node>
	<node id="-830937" lat="64.8023000028" lon="11.4502833368">
		<tag k="name" v="Austvika" />
		<tag k="place" v="farm" />
		<tag k="ssr:stedsnr" v="925396" />
	</node>
	<node id="-830936" lat="64.8066499969" lon="11.3854361045">
		<tag k="name" v="Rønningan" />
		<tag k="place" v="farm" />
		<tag k="ssr:stedsnr" v="925380" />
	</node>
	<node id="-830935" lat="64.8103099102" lon="11.2868200961">
		<tag k="fixme" v="consider place=hamlet" />
		<tag k="name" v="Rossøya" />
		<tag k="place" v="farm" />
		<tag k="ssr:stedsnr" v="925374" />
	</node>
	<node id="-830933" lat="64.8150000007" lon="11.5351000086">
		<tag k="name" v="Skagasjøen" />
		<tag k="place" v="farm" />
		<tag k="ssr:stedsnr" v="925356" />
	</node>
	<node id="-828884" lat="64.8435555578" lon="11.3518027746">
		<tag k="name" v="Øyahalsengan" />
		<tag k="place" v="farm" />
		<tag k="ssr:stedsnr" v="286170" />
	</node>
	<node id="-830928" lat="64.7413555575" lon="11.2301638827">
		<tag k="name" v="Dalen" />
		<tag k="place" v="farm" />
		<tag k="ssr:stedsnr" v="925333" />
	</node>
	<node id="-830927" lat="64.8254249968" lon="11.5089499981">
		<tag k="name" v="Nordly" />
		<tag k="place" v="farm" />
		<tag k="ssr:stedsnr" v="925324" />
	</node>
	<node id="-830923" lat="64.8289194427" lon="11.2763249963">
		<tag k="name" v="Løenget" />
		<tag k="place" v="farm" />
		<tag k="ssr:stedsnr" v="925309" />
	</node>
	<node id="-830922" lat="64.8297670776" lon="11.2198745504">
		<tag k="alt_name" v="Nærøya" />
		<tag k="fixme" v="consider place=hamlet" />
		<tag k="name" v="Nærøy" />
		<tag k="place" v="farm" />
		<tag k="ssr:stedsnr" v="925302" />
	</node>
	<node id="-830919" lat="64.9254055844" lon="11.4836212675">
		<tag k="name" v="Bakkan" />
		<tag k="place" v="farm" />
		<tag k="ssr:stedsnr" v="925247" />
	</node>
	<node id="-828865" lat="64.8980416664" lon="10.9182055485">
>>>>>>> e1d4bc35ff8a6074a6f2e91616a996b547c36f15
		<tag k="name" v="Dalasjøen" />
		<tag k="place" v="isolated_dwelling" />
		<tag k="ssr:stedsnr" v="270615" />
	</node>
<<<<<<< HEAD
	<node lat="64.92509999715409" lon="12.39168056255191" id="-37663">
		<tag k="name" v="Gammelgården" />
		<tag k="place" v="locality" />
		<tag k="ssr:stedsnr" v="271792" />
	</node>
	<node lat="64.881572671531" lon="11.429196740974701" id="-37667">
		<tag k="fixme" v="consider place=hamlet" />
		<tag k="name" v="Søråaunet" />
		<tag k="place" v="farm" />
		<tag k="ssr:stedsnr" v="227394" />
	</node>
	<node lat="65.00218610780736" lon="11.68145277448563" id="-37678">
		<tag k="name" v="Nordvika" />
		<tag k="place" v="isolated_dwelling" />
		<tag k="ssr:stedsnr" v="229532" />
	</node>
	<node lat="64.99853055387871" lon="11.63057499387942" id="-37689">
		<tag k="name" v="Myrvang" />
		<tag k="place" v="locality" />
		<tag k="ssr:stedsnr" v="229997" />
	</node>
	<node lat="65.00712778035941" lon="11.645963887992895" id="-37690">
		<tag k="name" v="Vestervika" />
		<tag k="place" v="isolated_dwelling" />
		<tag k="ssr:stedsnr" v="229881" />
	</node>
	<node lat="64.91718055518768" lon="11.495916662406957" id="-37708">
		<tag k="name" v="Halsan" />
		<tag k="place" v="farm" />
		<tag k="ssr:stedsnr" v="450082" />
	</node>
	<node lat="65.03468611420708" lon="11.76600833487733" id="-37720">
		<tag k="loc_name" v="Heller Østre" />
		<tag k="name" v="Østre Heller" />
		<tag k="place" v="farm" />
		<tag k="ssr:stedsnr" v="237403" />
	</node>
	<node lat="64.87815833456037" lon="11.664863889990047" id="-37738">
		<tag k="fixme" v="consider place=hamlet" />
		<tag k="name" v="Finne" />
		<tag k="place" v="farm" />
		<tag k="ssr:stedsnr" v="451040" />
	</node>
	<node lat="64.90475277725712" lon="11.857497221530979" id="-37745">
		<tag k="name" v="Vågen" />
		<tag k="place" v="isolated_dwelling" />
		<tag k="ssr:stedsnr" v="451260" />
	</node>
	<node lat="64.91544444288792" lon="11.91087222019445" id="-37749">
		<tag k="historic" v="shieling" />
		<tag k="name" v="Persviksetran" />
		<tag k="place" v="isolated_dwelling" />
		<tag k="ssr:stedsnr" v="451273" />
	</node>
	<node lat="64.87847127543425" lon="11.73486141930082" id="-37752">
		<tag k="fixme" v="consider place=hamlet" />
		<tag k="name" v="Kjøløya" />
		<tag k="place" v="farm" />
		<tag k="ssr:stedsnr" v="453297" />
	</node>
	<node lat="64.96314166806317" lon="12.016233325132985" id="-37757">
		<tag k="name" v="Leirvik" />
		<tag k="place" v="farm" />
		<tag k="ssr:stedsnr" v="452326" />
	</node>
	<node lat="64.82589444257322" lon="11.389544443593797" id="-37795">
		<tag k="name" v="Haugli" />
		<tag k="place" v="farm" />
		<tag k="ssr:stedsnr" v="257304" />
	</node>
	<node lat="64.82260833314358" lon="11.493275005025687" id="-37796">
		<tag k="name" v="Bjørset" />
		<tag k="place" v="farm" />
		<tag k="ssr:stedsnr" v="257309" />
	</node>
	<node lat="64.855255559312" lon="11.547288891965511" id="-37799">
		<tag k="name" v="Engan" />
		<tag k="place" v="farm" />
		<tag k="ssr:stedsnr" v="257518" />
	</node>
	<node lat="64.8604694417572" lon="11.399475001020157" id="-37802">
		<tag k="alt_name" v="Vestmo" />
		<tag k="name" v="Vestmoen" />
		<tag k="place" v="farm" />
		<tag k="ssr:stedsnr" v="257466" />
	</node>
	<node lat="64.93085833482964" lon="11.186108331899332" id="-37812">
		<tag k="name" v="Kleiva" />
		<tag k="place" v="farm" />
		<tag k="ssr:stedsnr" v="257664" />
	</node>
	<node lat="64.92508888761049" lon="10.887369450539614" id="-37816">
=======
	<node id="-830907" lat="64.9601694475" lon="11.6619361096">
		<tag k="name" v="Osplia" />
		<tag k="place" v="farm" />
		<tag k="ssr:stedsnr" v="925183" />
	</node>
	<node id="-830902" lat="64.9492527775" lon="11.5101777871">
		<tag k="alt_name" v="Nord-Tangen" />
		<tag k="name" v="Nordtangen" />
		<tag k="place" v="isolated_dwelling" />
		<tag k="ssr:stedsnr" v="925171" />
	</node>
	<node id="-830901" lat="65.0346003522" lon="11.7660587314">
		<tag k="fixme" v="consider place=hamlet" />
		<tag k="name" v="Heller" />
		<tag k="place" v="farm" />
		<tag k="ssr:stedsnr" v="925156" />
	</node>
	<node id="-828852" lat="64.9840722192" lon="12.1744527795">
		<tag k="name" v="Leirneset" />
		<tag k="place" v="farm" />
		<tag k="ssr:stedsnr" v="270268" />
	</node>
	<node id="-830891" lat="64.8798305541" lon="11.2622166737">
		<tag k="name" v="Elverud" />
		<tag k="place" v="farm" />
		<tag k="ssr:stedsnr" v="925106" />
	</node>
	<node id="-830881" lat="64.9242083301" lon="11.4858305629">
		<tag k="name" v="Bjørge" />
		<tag k="place" v="farm" />
		<tag k="ssr:stedsnr" v="925025" />
	</node>
	<node id="-830877" lat="64.8737555528" lon="10.8475166677">
		<tag k="name" v="Dysjan" />
		<tag k="place" v="farm" />
		<tag k="ssr:stedsnr" v="924970" />
	</node>
	<node id="-828819" lat="64.8724111106" lon="11.8461638845">
		<tag k="alt_name" v="Løenget" />
		<tag k="name" v="Lauvenget" />
		<tag k="place" v="locality" />
		<tag k="ssr:stedsnr" v="257972" />
	</node>
	<node id="-828817" lat="64.8468222217" lon="11.0893999917">
		<tag k="name" v="Tjønnavika" />
		<tag k="place" v="isolated_dwelling" />
		<tag k="ssr:stedsnr" v="257965" />
	</node>
	<node id="-828815" lat="64.8631304979" lon="11.1195172041">
		<tag k="fixme" v="consider place=hamlet" />
		<tag k="name" v="Evenstad" />
		<tag k="place" v="farm" />
		<tag k="ssr:stedsnr" v="257958" />
	</node>
	<node id="-828488" lat="64.8707888928" lon="11.2796194355">
		<tag k="name" v="Juldagen" />
		<tag k="place" v="farm" />
		<tag k="ssr:stedsnr" v="210806" />
	</node>
	<node id="-830854" lat="64.9119138849" lon="10.8444083374">
		<tag k="name" v="Nyheim" />
		<tag k="place" v="farm" />
		<tag k="ssr:stedsnr" v="924589" />
	</node>
	<node id="-830852" lat="64.933680559" lon="10.9197555514">
		<tag k="name" v="Småvollan" />
		<tag k="place" v="farm" />
		<tag k="ssr:stedsnr" v="924481" />
	</node>
	<node id="-830851" lat="64.9267555551" lon="11.0199722227">
		<tag k="name" v="Dragvika" />
		<tag k="place" v="locality" />
		<tag k="ssr:stedsnr" v="924476" />
	</node>
	<node id="-830850" lat="64.9257277776" lon="11.0131416745">
		<tag k="name" v="Aurstad" />
		<tag k="place" v="locality" />
		<tag k="ssr:stedsnr" v="924475" />
	</node>
	<node id="-830849" lat="64.811063885" lon="11.3861444336">
		<tag k="alt_name" v="Fagervollen" />
		<tag k="name" v="Fagervoll" />
		<tag k="place" v="farm" />
		<tag k="ssr:stedsnr" v="924300" />
	</node>
	<node id="-830848" lat="65.0171866237" lon="11.835404651">
		<tag k="fixme" v="consider place=hamlet" />
		<tag k="name" v="Kil" />
		<tag k="place" v="farm" />
		<tag k="ssr:stedsnr" v="924151" />
	</node>
	<node id="-830847" lat="64.9979578265" lon="11.6715345052">
		<tag k="fixme" v="consider place=hamlet" />
		<tag k="name" v="Tennfjord" />
		<tag k="place" v="farm" />
		<tag k="ssr:stedsnr" v="924132" />
	</node>
	<node id="-828798" lat="64.9250888876" lon="10.8873694505">
>>>>>>> e1d4bc35ff8a6074a6f2e91616a996b547c36f15
		<tag k="name" v="Smådikan" />
		<tag k="place" v="farm" />
		<tag k="ssr:stedsnr" v="257669" />
	</node>
<<<<<<< HEAD
	<node lat="64.99073611446988" lon="12.149024991150553" id="-37825">
=======
	<node id="-828794" lat="64.9308583348" lon="11.1861083319">
		<tag k="name" v="Kleiva" />
		<tag k="place" v="farm" />
		<tag k="ssr:stedsnr" v="257664" />
	</node>
	<node id="-828782" lat="64.9907361145" lon="12.1490249912">
>>>>>>> e1d4bc35ff8a6074a6f2e91616a996b547c36f15
		<tag k="name" v="Litlkvennlisetran" />
		<tag k="place" v="isolated_dwelling" />
		<tag k="ssr:stedsnr" v="257713" />
	</node>
<<<<<<< HEAD
	<node lat="64.88922828526741" lon="11.01336427424341" id="-37835">
		<tag k="fixme" v="consider place=hamlet" />
		<tag k="name" v="Olsvika" />
		<tag k="place" v="farm" />
		<tag k="ssr:stedsnr" v="257924" />
	</node>
	<node lat="64.86157499978314" lon="10.919655561721981" id="-37840">
		<tag k="name" v="Nyheim" />
		<tag k="place" v="farm" />
		<tag k="ssr:stedsnr" v="257987" />
	</node>
	<node lat="64.92314722363967" lon="11.490444454689394" id="-37851">
		<tag k="name" v="Valen" />
		<tag k="place" v="farm" />
		<tag k="ssr:stedsnr" v="268100" />
	</node>
	<node lat="64.90403889187147" lon="11.71033056399562" id="-37855">
		<tag k="name" v="Verkarplassen" />
		<tag k="place" v="locality" />
		<tag k="ssr:stedsnr" v="269026" />
	</node>
	<node lat="64.80544444373109" lon="11.87302222160339" id="-37885">
		<tag k="name" v="Brottet" />
		<tag k="place" v="isolated_dwelling" />
		<tag k="ssr:stedsnr" v="286010" />
	</node>
	<node lat="64.82529722544044" lon="11.576816675065825" id="-37888">
		<tag k="name" v="Skagamoen" />
		<tag k="place" v="farm" />
		<tag k="ssr:stedsnr" v="286110" />
	</node>
	<node lat="64.85220833478083" lon="10.785333339481756" id="-37903">
		<tag k="name" v="Gjertrudvika" />
		<tag k="place" v="isolated_dwelling" />
		<tag k="ssr:stedsnr" v="289133" />
	</node>
	<node lat="64.84413610985555" lon="11.894836105078744" id="-37932">
		<tag k="name" v="Osvollen" />
		<tag k="place" v="isolated_dwelling" />
		<tag k="ssr:stedsnr" v="293017" />
	</node>
	<node lat="64.96111667039443" lon="12.177825008136821" id="-37948">
		<tag k="amenity" v="school" />
		<tag k="name" v="Foldereid oppvekstsenter" />
		<tag k="ssr:stedsnr" v="466001" />
	</node>
	<node lat="64.89720832923011" lon="11.072080549444888" id="-37949">
		<tag k="name" v="Setnøya" />
		<tag k="place" v="farm" />
		<tag k="ssr:stedsnr" v="466091" />
	</node>
	<node lat="64.98029286440642" lon="11.709908801663602" id="-37953">
		<tag k="alt_name" v="Nordeitran" />
		<tag k="fixme" v="consider place=hamlet" />
		<tag k="name" v="Nord-Eitran" />
		<tag k="place" v="farm" />
		<tag k="ssr:stedsnr" v="317116" />
	</node>
	<node lat="65.01077261274118" lon="11.717813340160308" id="-37966">
		<tag k="fixme" v="consider place=hamlet" />
		<tag k="name" v="Fjølvika" />
		<tag k="place" v="farm" />
		<tag k="ssr:stedsnr" v="317823" />
	</node>
	<node lat="64.9031111089204" lon="11.564641664068667" id="-37968">
		<tag k="name" v="Fallet" />
		<tag k="place" v="farm" />
		<tag k="ssr:stedsnr" v="318046" />
	</node>
	<node lat="64.93491110734374" lon="11.3452638889259" id="-37971">
		<tag k="alt_name" v="Elvåsen" />
		<tag k="name" v="Elvåsmoen" />
		<tag k="place" v="farm" />
		<tag k="ssr:stedsnr" v="318247" />
	</node>
	<node lat="64.84459999900089" lon="11.517630549135555" id="-37984">
		<tag k="name" v="Vollen" />
		<tag k="place" v="farm" />
		<tag k="ssr:stedsnr" v="318493" />
	</node>
	<node lat="64.92166389202033" lon="11.103599994917337" id="-37991">
		<tag k="name" v="Drag" />
		<tag k="place" v="farm" />
		<tag k="ssr:stedsnr" v="318609" />
	</node>
	<node lat="64.97243055466882" lon="12.05791944078961" id="-37993">
		<tag k="name" v="Litlenget" />
		<tag k="place" v="farm" />
		<tag k="ssr:stedsnr" v="318641" />
	</node>
	<node lat="64.96898888693872" lon="11.85038611681143" id="-37997">
		<tag k="name" v="Nordbakk" />
		<tag k="place" v="farm" />
		<tag k="ssr:stedsnr" v="318653" />
	</node>
	<node lat="64.95639722405564" lon="11.033152783041292" id="-37999">
		<tag k="alt_name" v="Hasfjord, øvre" />
		<tag k="fixme" v="multiple name tags, choose one and add the other to alt_name" />
		<tag k="name" v="Hasfjord;Øvre Hasfjord" />
		<tag k="place" v="farm" />
		<tag k="ssr:stedsnr" v="318547" />
	</node>
	<node lat="64.99623055842726" lon="11.7695361144696" id="-38003">
		<tag k="alt_name" v="Østvika" />
		<tag k="name" v="Austvika" />
		<tag k="place" v="farm" />
		<tag k="ssr:stedsnr" v="318707" />
	</node>
	<node lat="64.93484999563861" lon="12.238486113622121" id="-38017">
		<tag k="name" v="Åsheim" />
		<tag k="place" v="farm" />
		<tag k="ssr:stedsnr" v="318853" />
	</node>
	<node lat="64.89376183014521" lon="11.075603203209315" id="-38028">
		<tag k="name" v="Setnøya" />
		<tag k="place" v="farm" />
		<tag k="ssr:stedsnr" v="318942" />
	</node>
	<node lat="64.81593055560721" lon="11.685172218101146" id="-38047">
		<tag k="name" v="Ospvika" />
		<tag k="place" v="farm" />
		<tag k="ssr:stedsnr" v="468291" />
	</node>
	<node lat="65.07429166819534" lon="11.95416944593816" id="-38060">
		<tag k="name" v="Valen" />
		<tag k="place" v="isolated_dwelling" />
		<tag k="ssr:stedsnr" v="328860" />
	</node>
	<node lat="64.86898333407606" lon="11.576591671767794" id="-38063">
		<tag k="alt_name" v="Nordsjøen" />
		<tag k="name" v="Åsheim" />
		<tag k="place" v="farm" />
		<tag k="ssr:stedsnr" v="329502" />
	</node>
	<node lat="64.90783333097491" lon="11.528616671294504" id="-38085">
		<tag k="fixme" v="consider place=hamlet" />
		<tag k="name" v="Langstranda" />
		<tag k="place" v="village" />
		<tag k="ssr:stedsnr" v="471033" />
	</node>
	<node lat="64.8526472192816" lon="10.78889722506757" id="-38087">
		<tag k="name" v="Laugvika" />
		<tag k="place" v="isolated_dwelling" />
		<tag k="ssr:stedsnr" v="471146" />
	</node>
	<node lat="65.00068333626503" lon="11.728463884371948" id="-38106">
		<tag k="name" v="Fossmoen" />
		<tag k="place" v="isolated_dwelling" />
		<tag k="ssr:stedsnr" v="472532" />
	</node>
	<node lat="64.7992972188455" lon="11.854141659580666" id="-38126">
		<tag k="name" v="Oppløya" />
		<tag k="place" v="farm" />
		<tag k="ssr:stedsnr" v="344773" />
	</node>
	<node lat="64.91524444882592" lon="11.600430552416038" id="-38158">
		<tag k="fixme" v="consider place=hamlet" />
		<tag k="name" v="Fjær" />
		<tag k="place" v="village" />
		<tag k="ssr:stedsnr" v="350157" />
	</node>
	<node lat="64.8711611080796" lon="11.100427769876903" id="-38164">
		<tag k="name" v="Måssavollan" />
		<tag k="place" v="farm" />
		<tag k="ssr:stedsnr" v="350559" />
	</node>
	<node lat="64.9551285430029" lon="11.631733822824991" id="-38231">
		<tag k="fixme" v="consider place=hamlet" />
		<tag k="name" v="Hjelmsenget" />
		<tag k="place" v="farm" />
		<tag k="ssr:stedsnr" v="378166" />
	</node>
	<node lat="64.81699166550914" lon="11.449488886250963" id="-38234">
		<tag k="name" v="Tvillstad" />
		<tag k="place" v="farm" />
		<tag k="ssr:stedsnr" v="378309" />
	</node>
	<node lat="64.81718055383864" lon="11.512266670271547" id="-38236">
		<tag k="name" v="Bø" />
		<tag k="place" v="farm" />
		<tag k="ssr:stedsnr" v="378313" />
	</node>
	<node lat="64.86525833065556" lon="11.609930550070958" id="-38243">
		<tag k="name" v="Sanden" />
		<tag k="place" v="farm" />
		<tag k="ssr:stedsnr" v="378414" />
	</node>
	<node lat="64.84263888875479" lon="11.276811120818286" id="-38244">
		<tag k="name" v="Solenget" />
		<tag k="place" v="farm" />
		<tag k="ssr:stedsnr" v="378470" />
	</node>
	<node lat="64.97204444488364" lon="10.909241661148448" id="-38253">
		<tag k="name" v="Salbu" />
		<tag k="place" v="isolated_dwelling" />
		<tag k="ssr:stedsnr" v="378712" />
	</node>
	<node lat="64.99976257147" lon="11.735490935165606" id="-38254">
		<tag k="fixme" v="consider place=hamlet" />
		<tag k="name" v="Finnsetmoen" />
		<tag k="place" v="farm" />
		<tag k="ssr:stedsnr" v="378719" />
	</node>
	<node lat="64.77358332937958" lon="11.378077770412439" id="-38255">
		<tag k="name" v="Åsheim" />
		<tag k="place" v="farm" />
		<tag k="ssr:stedsnr" v="378740" />
	</node>
	<node lat="64.77533889123183" lon="11.376652774075199" id="-38257">
		<tag k="name" v="Nordmoen" />
		<tag k="place" v="farm" />
		<tag k="ssr:stedsnr" v="378744" />
	</node>
	<node lat="64.9884610555124" lon="11.849443676913161" id="-38262">
		<tag k="fixme" v="consider place=hamlet" />
		<tag k="name" v="Stongvika" />
		<tag k="place" v="farm" />
		<tag k="ssr:stedsnr" v="378678" />
	</node>
	<node lat="64.94870555854985" lon="12.271108343248565" id="-38267">
		<tag k="alt_name" v="Stienget" />
		<tag k="name" v="Stigen" />
		<tag k="place" v="farm" />
		<tag k="ssr:stedsnr" v="378861" />
	</node>
	<node lat="64.92450555429872" lon="11.322727786464373" id="-38273">
		<tag k="name" v="Moen" />
		<tag k="place" v="farm" />
		<tag k="ssr:stedsnr" v="379222" />
	</node>
	<node lat="64.80563333277824" lon="11.368941672779167" id="-38277">
		<tag k="name" v="Fuglvika" />
		<tag k="place" v="farm" />
		<tag k="ssr:stedsnr" v="379313" />
	</node>
	<node lat="64.81020555255252" lon="11.347811100424705" id="-38278">
		<tag k="fixme" v="consider place=hamlet" />
		<tag k="name" v="Varøya" />
		<tag k="place" v="village" />
		<tag k="ssr:stedsnr" v="379315" />
	</node>
	<node lat="64.95359444864523" lon="11.032049990170435" id="-38281">
		<tag k="alt_name" v="Hasfjord, nedre" />
		<tag k="fixme" v="multiple name tags, choose one and add the other to alt_name" />
		<tag k="name" v="Hasfjord;Nedre Hasfjord" />
		<tag k="place" v="farm" />
		<tag k="ssr:stedsnr" v="379521" />
	</node>
	<node lat="64.85054167073217" lon="11.228044452450563" id="-38285">
		<tag k="name" v="Smevika" />
		<tag k="place" v="farm" />
		<tag k="ssr:stedsnr" v="379409" />
	</node>
	<node lat="64.83608637977015" lon="11.09416947814374" id="-38290">
		<tag k="fixme" v="consider place=hamlet" />
		<tag k="name" v="Breivika" />
		<tag k="place" v="farm" />
		<tag k="ssr:stedsnr" v="379772" />
	</node>
	<node lat="64.93877323125851" lon="11.92177570946806" id="-38297">
		<tag k="fixme" v="consider place=hamlet" />
		<tag k="name" v="Kalvika" />
		<tag k="place" v="farm" />
		<tag k="ssr:stedsnr" v="389206" />
	</node>
	<node lat="64.95086944302143" lon="11.962952770760564" id="-38299">
		<tag k="name" v="Storgården" />
		<tag k="place" v="farm" />
		<tag k="ssr:stedsnr" v="389197" />
	</node>
	<node lat="64.96335094790368" lon="12.020931827225024" id="-38319">
		<tag k="fixme" v="consider place=hamlet" />
		<tag k="name" v="Leirvika" />
		<tag k="place" v="farm" />
		<tag k="ssr:stedsnr" v="391339" />
	</node>
	<node lat="64.9649666665532" lon="12.031536118830884" id="-38322">
		<tag k="loc_name" v="Bergenget" />
		<tag k="name" v="Solberg" />
		<tag k="place" v="farm" />
		<tag k="ssr:stedsnr" v="391408" />
	</node>
	<node lat="64.98176157715909" lon="11.766927379351614" id="-38326">
		<tag k="fixme" v="consider place=hamlet" />
		<tag k="name" v="Strømsneset" />
		<tag k="place" v="farm" />
		<tag k="ssr:stedsnr" v="392102" />
	</node>
	<node lat="64.78381388966454" lon="11.819569439852627" id="-38346">
		<tag k="name" v="Sandvika" />
		<tag k="place" v="isolated_dwelling" />
		<tag k="ssr:stedsnr" v="408015" />
	</node>
	<node lat="64.95546685544603" lon="11.549169087650203" id="-38374">
		<tag k="name" v="Morvika" />
		<tag k="place" v="locality" />
		<tag k="ssr:stedsnr" v="411793" />
	</node>
	<node lat="64.83907777631264" lon="11.717430561086912" id="-38381">
		<tag k="name" v="Myra" />
		<tag k="place" v="locality" />
		<tag k="ssr:stedsnr" v="414838" />
	</node>
	<node lat="64.91794166355149" lon="11.24070277349692" id="-38398">
		<tag k="name" v="Nordstranda" />
		<tag k="place" v="farm" />
		<tag k="ssr:stedsnr" v="439001" />
	</node>
	<node lat="64.97481388484654" lon="11.5367638878314" id="-38400">
		<tag k="fixme" v="consider place=hamlet" />
		<tag k="name" v="Risværet" />
		<tag k="place" v="farm" />
		<tag k="ssr:stedsnr" v="439106" />
	</node>
	<node lat="64.95865833760718" lon="11.66409443439861" id="-38403">
		<tag k="name" v="Vollen" />
		<tag k="place" v="farm" />
		<tag k="ssr:stedsnr" v="439146" />
	</node>
	<node lat="64.95289166539459" lon="11.703413878425689" id="-38408">
		<tag k="fixme" v="consider place=hamlet" />
		<tag k="name" v="Bjørnvika" />
		<tag k="place" v="farm" />
		<tag k="ssr:stedsnr" v="439153" />
	</node>
	<node lat="64.8328750035179" lon="11.316894454471452" id="-38416">
		<tag k="fixme" v="multiple name tags, choose one and add the other to alt_name" />
		<tag k="name" v="Vassli;Gjersenget" />
		<tag k="place" v="farm" />
		<tag k="ssr:stedsnr" v="439251" />
	</node>
	<node lat="64.80891667017772" lon="11.449136102581617" id="-38417">
		<tag k="name" v="Bogen" />
		<tag k="place" v="farm" />
		<tag k="ssr:stedsnr" v="439312" />
	</node>
	<node lat="64.8653487468039" lon="11.357973671447512" id="-38421">
		<tag k="fixme" v="consider place=hamlet" />
		<tag k="name" v="Holand" />
		<tag k="place" v="farm" />
		<tag k="ssr:stedsnr" v="439393" />
	</node>
	<node lat="64.9188000006222" lon="11.86089999327234" id="-38424">
		<tag k="name" v="Rotvika" />
		<tag k="place" v="farm" />
		<tag k="ssr:stedsnr" v="439516" />
	</node>
	<node lat="64.84746388784393" lon="11.301036106881003" id="-38426">
		<tag k="alt_name" v="Klungervika" />
		<tag k="name" v="Klungvika" />
		<tag k="place" v="farm" />
		<tag k="ssr:stedsnr" v="439445" />
	</node>
	<node lat="64.92570277455609" lon="10.875077782971113" id="-38433">
		<tag k="name" v="Fjukstadstranda" />
		<tag k="place" v="farm" />
		<tag k="ssr:stedsnr" v="439614" />
	</node>
	<node lat="64.97928055498261" lon="11.106658323024615" id="-38439">
		<tag k="name" v="Grindvika" />
		<tag k="place" v="isolated_dwelling" />
		<tag k="ssr:stedsnr" v="439702" />
	</node>
	<node lat="64.78608611298972" lon="11.282880560122523" id="-38443">
		<tag k="name" v="Moen" />
		<tag k="place" v="farm" />
		<tag k="ssr:stedsnr" v="439746" />
	</node>
	<node lat="64.8911111100526" lon="11.065861118355759" id="-38445">
		<tag k="fixme" v="multiple name tags, choose one and add the other to alt_name" />
		<tag k="name" v="Setnøyaunet;Setnøya" />
		<tag k="place" v="farm" />
		<tag k="ssr:stedsnr" v="439916" />
	</node>
	<node lat="64.9375444454929" lon="12.225227781979168" id="-38449">
		<tag k="name" v="Sørheim" />
		<tag k="place" v="farm" />
		<tag k="ssr:stedsnr" v="439852" />
	</node>
	<node lat="64.9486054551813" lon="12.228881189695695" id="-38450">
		<tag k="fixme" v="consider place=hamlet" />
		<tag k="name" v="Vennavika" />
		<tag k="place" v="farm" />
		<tag k="ssr:stedsnr" v="439855" />
	</node>
	<node lat="64.8133333312857" lon="11.371152787872813" id="-38463">
		<tag k="name" v="Tunga" />
		<tag k="place" v="farm" />
		<tag k="ssr:stedsnr" v="440350" />
	</node>
	<node lat="64.97035555441204" lon="12.140052785638552" id="-38464">
		<tag k="name" v="Stevika" />
		<tag k="place" v="farm" />
		<tag k="ssr:stedsnr" v="440606" />
	</node>
	<node lat="64.76306388955865" lon="11.409644450957291" id="-38465">
		<tag k="name" v="Skogmo" />
		<tag k="place" v="farm" />
		<tag k="ssr:stedsnr" v="440693" />
	</node>
	<node lat="64.92731388552765" lon="11.89183334078483" id="-38486">
		<tag k="name" v="Øystergården" />
		<tag k="place" v="farm" />
		<tag k="ssr:stedsnr" v="451018" />
	</node>
	<node lat="64.94677500407383" lon="12.221911101036735" id="-38493">
		<tag k="name" v="Bliksvik" />
		<tag k="place" v="farm" />
		<tag k="ssr:stedsnr" v="452312" />
	</node>
	<node lat="64.86551666319707" lon="11.243291664080504" id="-38499">
		<tag k="name" v="Myrstad" />
		<tag k="place" v="farm" />
		<tag k="ssr:stedsnr" v="452412" />
	</node>
	<node lat="64.91275278108314" lon="10.964486112930983" id="-38503">
		<tag k="name" v="Seterneset" />
		<tag k="place" v="farm" />
		<tag k="ssr:stedsnr" v="452617" />
	</node>
	<node lat="64.99980555379624" lon="11.80051389425593" id="-38505">
		<tag k="alt_name" v="Kongsvik" />
		<tag k="name" v="Kongsvika" />
		<tag k="place" v="farm" />
		<tag k="ssr:stedsnr" v="452864" />
	</node>
	<node lat="64.81464721956587" lon="11.697824999320416" id="-38518">
		<tag k="name" v="Gammelgården" />
		<tag k="place" v="locality" />
		<tag k="ssr:stedsnr" v="468070" />
	</node>
	<node lat="64.81781111374819" lon="11.521916665041847" id="-38521">
		<tag k="name" v="Litlenget" />
		<tag k="place" v="farm" />
		<tag k="ssr:stedsnr" v="468114" />
	</node>
	<node lat="64.83338333278253" lon="11.404272216553963" id="-38522">
		<tag k="name" v="Østgård" />
		<tag k="place" v="farm" />
		<tag k="ssr:stedsnr" v="468119" />
	</node>
	<node lat="64.84171111165286" lon="11.434499999071882" id="-38523">
		<tag k="fixme" v="consider place=hamlet" />
		<tag k="name" v="Rotvika" />
		<tag k="place" v="farm" />
		<tag k="ssr:stedsnr" v="468105" />
	</node>
	<node lat="64.84008611415169" lon="11.340272228630752" id="-38530">
		<tag k="name" v="Bangan" />
		<tag k="place" v="farm" />
		<tag k="ssr:stedsnr" v="469281" />
	</node>
	<node lat="65.00040832984713" lon="11.68433611787941" id="-38551">
		<tag k="name" v="Sveet" />
		<tag k="place" v="farm" />
		<tag k="ssr:stedsnr" v="472511" />
	</node>
	<node lat="64.84173055873846" lon="11.792577775016" id="-38558">
		<tag k="name" v="Kvistagården" />
		<tag k="place" v="isolated_dwelling" />
		<tag k="ssr:stedsnr" v="475828" />
	</node>
	<node lat="64.8876138924074" lon="10.767797221481517" id="-38577">
		<tag k="name" v="Løvåg" />
		<tag k="place" v="farm" />
		<tag k="ssr:stedsnr" v="485059" />
	</node>
	<node lat="65.02818333137027" lon="11.854244436369102" id="-38587">
		<tag k="alt_name" v="Brattåa" />
		<tag k="name" v="Lundset" />
		<tag k="place" v="farm" />
		<tag k="ssr:stedsnr" v="499110" />
	</node>
	<node lat="64.80349999880441" lon="11.51465832460152" id="-38592">
		<tag k="alt_name" v="Øksningen, vestre" />
		<tag k="fixme" v="multiple name tags, choose one and add the other to alt_name" />
		<tag k="name" v="Øksninga;Vestre Øksningen" />
		<tag k="place" v="farm" />
		<tag k="ssr:stedsnr" v="681332" />
	</node>
	<node lat="64.80830833778296" lon="11.457716661679807" id="-38594">
		<tag k="name" v="Skjåneset" />
		<tag k="place" v="farm" />
		<tag k="ssr:stedsnr" v="499260" />
	</node>
	<node lat="64.80823888762495" lon="11.70442499292853" id="-38596">
		<tag k="alt_name" v="Stor-Hestvika" />
		<tag k="name" v="Storhestvika" />
		<tag k="place" v="isolated_dwelling" />
		<tag k="ssr:stedsnr" v="499286" />
	</node>
	<node lat="64.87084722194632" lon="10.864888878904226" id="-38617">
		<tag k="name" v="Heimsvika" />
		<tag k="place" v="farm" />
		<tag k="ssr:stedsnr" v="499981" />
	</node>
	<node lat="64.86862172647218" lon="10.924363302061783" id="-38618">
		<tag k="fixme" v="consider place=hamlet" />
		<tag k="name" v="Rossøya" />
		<tag k="place" v="farm" />
		<tag k="ssr:stedsnr" v="499984" />
	</node>
	<node lat="65.04421111084802" lon="11.896272217415758" id="-38620">
		<tag k="fixme" v="consider place=hamlet" />
		<tag k="name" v="Kvernan" />
		<tag k="place" v="farm" />
		<tag k="ssr:stedsnr" v="500140" />
	</node>
	<node lat="64.87462222523898" lon="11.669174999095352" id="-38629">
		<tag k="name" v="Buvika" />
		<tag k="place" v="isolated_dwelling" />
		<tag k="ssr:stedsnr" v="500434" />
	</node>
	<node lat="64.86799722283075" lon="11.702466668317783" id="-38633">
		<tag k="alt_name" v="Blavika" />
		<tag k="name" v="Bladvika" />
		<tag k="place" v="isolated_dwelling" />
		<tag k="ssr:stedsnr" v="500500" />
	</node>
	<node lat="64.94944722497901" lon="11.06076389344498" id="-38634">
		<tag k="name" v="Lissvika" />
		<tag k="place" v="farm" />
		<tag k="ssr:stedsnr" v="500602" />
	</node>
	<node lat="64.90906666979367" lon="11.785774992206616" id="-38636">
		<tag k="name" v="Skogen" />
		<tag k="place" v="farm" />
		<tag k="ssr:stedsnr" v="500605" />
	</node>
	<node lat="64.80746111371666" lon="11.350791669966165" id="-38643">
		<tag k="name" v="Haugen" />
		<tag k="place" v="farm" />
		<tag k="ssr:stedsnr" v="500393" />
	</node>
	<node lat="64.85993333481515" lon="11.628241677088894" id="-38645">
		<tag k="alt_name" v="Korsnesøra;Øyra" />
		<tag k="name" v="Øren" />
		<tag k="place" v="farm" />
		<tag k="ssr:stedsnr" v="500507" />
	</node>
	<node lat="64.83702499988213" lon="11.681638519253804" id="-38646">
		<tag k="alt_name" v="Kvistarøya" />
		<tag k="fixme" v="consider place=hamlet" />
		<tag k="name" v="Kvisterøya" />
		<tag k="place" v="farm" />
		<tag k="ssr:stedsnr" v="500580" />
	</node>
	<node lat="64.96429999917875" lon="12.043722211966818" id="-38649">
		<tag k="fixme" v="multiple name tags, choose one and add the other to alt_name" />
		<tag k="name" v="Naustenget;Åsheim" />
		<tag k="place" v="farm" />
		<tag k="ssr:stedsnr" v="500702" />
	</node>
	<node lat="64.88163333309161" lon="11.108172228335503" id="-38663">
		<tag k="name" v="Tuftin" />
		<tag k="place" v="farm" />
		<tag k="ssr:stedsnr" v="500906" />
	</node>
	<node lat="64.81002570134054" lon="11.75608346909258" id="-38666">
		<tag k="name" v="Risviksetran" />
		<tag k="place" v="locality" />
		<tag k="ssr:stedsnr" v="500934" />
	</node>
	<node lat="64.90443333462099" lon="11.287755553959007" id="-38692">
		<tag k="name" v="Kåvika" />
		<tag k="place" v="farm" />
		<tag k="ssr:stedsnr" v="682071" />
	</node>
	<node lat="64.81733611549132" lon="11.516875001796805" id="-38695">
		<tag k="name" v="Fagerli" />
		<tag k="place" v="farm" />
		<tag k="ssr:stedsnr" v="682345" />
	</node>
	<node lat="64.89333889184529" lon="11.577719438117485" id="-38698">
		<tag k="name" v="Kjellingaunet" />
		<tag k="place" v="farm" />
		<tag k="ssr:stedsnr" v="682080" />
	</node>
	<node lat="64.8965750044396" lon="11.359586111994497" id="-38703">
		<tag k="fixme" v="consider place=hamlet" />
		<tag k="name" v="Torstad" />
		<tag k="place" v="village" />
		<tag k="ssr:stedsnr" v="682100" />
	</node>
	<node lat="64.90438055534604" lon="11.296255564696407" id="-38709">
		<tag k="fixme" v="consider place=hamlet" />
		<tag k="name" v="Storvika" />
		<tag k="place" v="farm" />
		<tag k="ssr:stedsnr" v="682044" />
	</node>
	<node lat="64.9534750007513" lon="11.685949998027667" id="-38717">
		<tag k="name" v="Osan" />
		<tag k="place" v="isolated_dwelling" />
		<tag k="ssr:stedsnr" v="682201" />
	</node>
	<node lat="64.93174444783172" lon="11.6623499997568" id="-38718">
		<tag k="name" v="Vangsåsen" />
		<tag k="place" v="isolated_dwelling" />
		<tag k="ssr:stedsnr" v="682258" />
	</node>
	<node lat="64.88150277971174" lon="11.70651667492749" id="-38719">
		<tag k="name" v="Finnemoen" />
		<tag k="place" v="farm" />
		<tag k="ssr:stedsnr" v="682109" />
	</node>
	<node lat="64.88015277530879" lon="11.423200000297005" id="-38721">
		<tag k="name" v="Solli" />
		<tag k="place" v="farm" />
		<tag k="ssr:stedsnr" v="682114" />
	</node>
	<node lat="64.88652499782616" lon="11.322719436526674" id="-38725">
		<tag k="name" v="Hestvika" />
		<tag k="place" v="farm" />
		<tag k="ssr:stedsnr" v="682126" />
	</node>
	<node lat="64.84430277598335" lon="11.495263896409032" id="-38733">
		<tag k="name" v="Lausetet" />
		<tag k="place" v="farm" />
		<tag k="ssr:stedsnr" v="682540" />
	</node>
	<node lat="64.83809999771569" lon="11.331552785910908" id="-38734">
		<tag k="name" v="Skardet" />
		<tag k="place" v="farm" />
		<tag k="ssr:stedsnr" v="682547" />
	</node>
	<node lat="64.80153333260961" lon="11.432899994581854" id="-38746">
		<tag k="name" v="Lystad" />
		<tag k="place" v="farm" />
		<tag k="ssr:stedsnr" v="682381" />
	</node>
	<node lat="64.79830000314936" lon="11.409863891911778" id="-38747">
		<tag k="name" v="Sjøbursenget" />
		<tag k="place" v="farm" />
		<tag k="ssr:stedsnr" v="682382" />
	</node>
	<node lat="64.78788610678075" lon="11.394913885762481" id="-38748">
		<tag k="name" v="Utheim" />
		<tag k="place" v="farm" />
		<tag k="ssr:stedsnr" v="682399" />
	</node>
	<node lat="64.94585000315907" lon="11.959924997634108" id="-38750">
		<tag k="name" v="Bergheim" />
		<tag k="place" v="farm" />
		<tag k="ssr:stedsnr" v="682628" />
	</node>
	<node lat="64.84955930041907" lon="11.40775034486722" id="-38756">
		<tag k="fixme" v="consider place=hamlet" />
		<tag k="name" v="Litlvea" />
		<tag k="place" v="farm" />
		<tag k="ssr:stedsnr" v="682494" />
	</node>
	<node lat="64.85136944814252" lon="11.32063332822487" id="-38757">
		<tag k="name" v="Leirvika" />
		<tag k="place" v="farm" />
		<tag k="ssr:stedsnr" v="682497" />
	</node>
	<node lat="64.84056389187624" lon="11.29150277187343" id="-38758">
		<tag k="name" v="Liland" />
		<tag k="place" v="farm" />
		<tag k="ssr:stedsnr" v="682553" />
	</node>
	<node lat="64.94729166529322" lon="10.943241668625541" id="-38759">
		<tag k="fixme" v="consider place=hamlet" />
		<tag k="name" v="Sylta" />
		<tag k="place" v="farm" />
		<tag k="ssr:stedsnr" v="682584" />
	</node>
	<node lat="64.95763777967325" lon="11.008889342296362" id="-38761">
		<tag k="fixme" v="consider place=hamlet" />
		<tag k="name" v="Grunnan" />
		<tag k="place" v="farm" />
		<tag k="ssr:stedsnr" v="682591" />
	</node>
	<node lat="64.92885833212148" lon="12.022736118306355" id="-38764">
		<tag k="name" v="Varpmoen" />
		<tag k="place" v="farm" />
		<tag k="ssr:stedsnr" v="682603" />
	</node>
	<node lat="64.9137833317355" lon="11.19266666039143" id="-38768">
		<tag k="name" v="Laugen" />
		<tag k="place" v="farm" />
		<tag k="ssr:stedsnr" v="682645" />
	</node>
	<node lat="64.90453333527266" lon="10.797108335441212" id="-38769">
		<tag k="name" v="Sylta" />
		<tag k="place" v="farm" />
		<tag k="ssr:stedsnr" v="682650" />
	</node>
	<node lat="64.99741666865785" lon="11.797950009858777" id="-38772">
		<tag k="name" v="Sørheim" />
		<tag k="place" v="farm" />
		<tag k="ssr:stedsnr" v="682728" />
	</node>
	<node lat="64.98703908001012" lon="11.735423743091365" id="-38776">
		<tag k="name" v="Årlia" />
		<tag k="place" v="farm" />
		<tag k="ssr:stedsnr" v="682738" />
	</node>
	<node lat="64.97029166614945" lon="12.094761104864379" id="-38779">
		<tag k="name" v="Groftbuenget" />
		<tag k="place" v="farm" />
		<tag k="ssr:stedsnr" v="682682" />
	</node>
	<node lat="64.76590833256354" lon="11.41358055480357" id="-38790">
		<tag k="name" v="Hamlandsvika" />
		<tag k="place" v="farm" />
		<tag k="ssr:stedsnr" v="682765" />
	</node>
	<node lat="64.7467472250736" lon="11.232502778412822" id="-38799">
		<tag k="fixme" v="consider place=hamlet" />
		<tag k="name" v="Ramstad" />
		<tag k="place" v="farm" />
		<tag k="ssr:stedsnr" v="682801" />
	</node>
	<node lat="64.91682500387489" lon="12.407786121885717" id="-38804">
		<tag k="name" v="Holandsætran" />
		<tag k="place" v="locality" />
		<tag k="ssr:stedsnr" v="682848" />
	</node>
	<node lat="64.88755555438355" lon="10.879238894664107" id="-38806">
		<tag k="name" v="Lauvset" />
		<tag k="place" v="farm" />
		<tag k="ssr:stedsnr" v="682942" />
	</node>
	<node lat="64.86725000425193" lon="11.037111102562509" id="-38819">
		<tag k="name" v="Storenget" />
		<tag k="place" v="farm" />
		<tag k="ssr:stedsnr" v="682970" />
	</node>
	<node lat="64.86221111549108" lon="10.826461117291814" id="-38827">
		<tag k="name" v="Myra" />
		<tag k="place" v="farm" />
		<tag k="ssr:stedsnr" v="682987" />
	</node>
	<node lat="64.94714153358099" lon="12.307543903545618" id="-38830">
		<tag k="fixme" v="consider place=hamlet" />
		<tag k="name" v="Teplingan" />
		<tag k="place" v="farm" />
		<tag k="ssr:stedsnr" v="682876" />
	</node>
	<node lat="64.95745277722044" lon="12.020683341019776" id="-38848">
		<tag k="name" v="Jakobslåttet" />
		<tag k="place" v="farm" />
		<tag k="ssr:stedsnr" v="513365" />
	</node>
	<node lat="64.97065947239818" lon="10.91400339723194" id="-38854">
		<tag k="fixme" v="consider place=hamlet" />
		<tag k="name" v="Borgan" />
		<tag k="place" v="farm" />
		<tag k="ssr:stedsnr" v="513773" />
	</node>
	<node lat="64.79924166569566" lon="11.874133323085958" id="-38863">
		<tag k="name" v="Borkmoen" />
		<tag k="place" v="farm" />
		<tag k="ssr:stedsnr" v="528010" />
	</node>
	<node lat="65.04840277391953" lon="11.870691676023593" id="-38892">
		<tag k="name" v="Sørlia" />
		<tag k="place" v="farm" />
		<tag k="ssr:stedsnr" v="532422" />
	</node>
	<node lat="64.95440555387633" lon="11.055322226841083" id="-38906">
		<tag k="name" v="Nyheim" />
		<tag k="place" v="isolated_dwelling" />
		<tag k="ssr:stedsnr" v="533674" />
	</node>
	<node lat="64.98756944490053" lon="11.725808325399546" id="-38909">
		<tag k="name" v="Skardet" />
		<tag k="place" v="farm" />
		<tag k="ssr:stedsnr" v="533518" />
	</node>
	<node lat="64.91491944777373" lon="11.242333343932327" id="-38931">
=======
	<node id="-827965" lat="64.8093138867" lon="11.3664499992">
		<tag k="name" v="Bakkan" />
		<tag k="place" v="farm" />
		<tag k="ssr:stedsnr" v="257344" />
	</node>
	<node id="-828775" lat="64.9464777802" lon="11.0624805652">
		<tag k="name" v="Straumsnes" />
		<tag k="place" v="farm" />
		<tag k="ssr:stedsnr" v="257566" />
	</node>
	<node id="-828768" lat="64.8552555593" lon="11.547288892">
		<tag k="name" v="Engan" />
		<tag k="place" v="farm" />
		<tag k="ssr:stedsnr" v="257518" />
	</node>
	<node id="-828766" lat="64.8163750002" lon="11.2618861182">
		<tag k="name" v="Lundring" />
		<tag k="place" v="farm" />
		<tag k="ssr:stedsnr" v="257322" />
	</node>
	<node id="-828764" lat="64.8226083331" lon="11.493275005">
		<tag k="name" v="Bjørset" />
		<tag k="place" v="farm" />
		<tag k="ssr:stedsnr" v="257309" />
	</node>
	<node id="-828763" lat="64.8258944426" lon="11.3895444436">
		<tag k="name" v="Haugli" />
		<tag k="place" v="farm" />
		<tag k="ssr:stedsnr" v="257304" />
	</node>
	<node id="-828757" lat="64.9989262466" lon="11.625415707">
		<tag k="name" v="Kråkvika" />
		<tag k="place" v="farm" />
		<tag k="ssr:stedsnr" v="257161" />
	</node>
	<node id="-830799" lat="64.9128527819" lon="10.9965972258">
		<tag k="name" v="Gravsetmoen" />
		<tag k="place" v="farm" />
		<tag k="ssr:stedsnr" v="909668" />
	</node>
	<node id="-828744" lat="64.8784712754" lon="11.7348614193">
		<tag k="fixme" v="consider place=hamlet" />
		<tag k="name" v="Kjøløya" />
		<tag k="place" v="farm" />
		<tag k="ssr:stedsnr" v="453297" />
	</node>
	<node id="-830786" lat="64.8519083354" lon="11.1690583417">
		<tag k="name" v="Klumpen" />
		<tag k="place" v="farm" />
		<tag k="ssr:stedsnr" v="743953" />
	</node>
	<node id="-828735" lat="64.9998055538" lon="11.8005138943">
		<tag k="alt_name" v="Kongsvik" />
		<tag k="name" v="Kongsvika" />
		<tag k="place" v="farm" />
		<tag k="ssr:stedsnr" v="452864" />
	</node>
	<node id="-830778" lat="64.8790472249" lon="10.904391661">
		<tag k="name" v="Nord-Breivika" />
		<tag k="place" v="farm" />
		<tag k="ssr:stedsnr" v="743871" />
	</node>
	<node id="-830766" lat="64.9834166638" lon="11.764202773">
		<tag k="alt_name" v="Straumlia;Strømlia" />
		<tag k="name" v="Strømslia" />
		<tag k="place" v="farm" />
		<tag k="ssr:stedsnr" v="743653" />
	</node>
	<node id="-828715" lat="64.9154444429" lon="11.9108722202">
		<tag k="historic" v="shieling" />
		<tag k="name" v="Persviksetran" />
		<tag k="place" v="locality" />
		<tag k="ssr:stedsnr" v="451273" />
	</node>
	<node id="-828711" lat="64.9047527773" lon="11.8574972215">
		<tag k="name" v="Vågen" />
		<tag k="place" v="isolated_dwelling" />
		<tag k="ssr:stedsnr" v="451260" />
	</node>
	<node id="-830757" lat="64.9328352937" lon="12.011354308">
		<tag k="alt_name" v="Svinnstineset" />
		<tag k="fixme" v="consider place=hamlet" />
		<tag k="name" v="Neset" />
		<tag k="place" v="farm" />
		<tag k="ssr:stedsnr" v="743560" />
	</node>
	<node id="-828700" lat="64.9171805552" lon="11.4959166624">
		<tag k="name" v="Halsan" />
		<tag k="place" v="farm" />
		<tag k="ssr:stedsnr" v="450082" />
	</node>
	<node id="-830747" lat="64.9343638863" lon="11.6321500069">
		<tag k="name" v="Fredheim" />
		<tag k="place" v="farm" />
		<tag k="ssr:stedsnr" v="743269" />
	</node>
	<node id="-830738" lat="64.905286115" lon="11.5459638907">
		<tag k="alt_name" v="Nubbdalsenget" />
		<tag k="name" v="Nubdalsenget" />
		<tag k="place" v="farm" />
		<tag k="ssr:stedsnr" v="743056" />
	</node>
	<node id="-830736" lat="64.8598361108" lon="11.1424972252">
		<tag k="name" v="Sandmoen" />
		<tag k="place" v="farm" />
		<tag k="ssr:stedsnr" v="742956" />
	</node>
	<node id="-830733" lat="64.8245111146" lon="11.5494638881">
		<tag k="name" v="Skogly" />
		<tag k="place" v="farm" />
		<tag k="ssr:stedsnr" v="743321" />
	</node>
	<node id="-830732" lat="64.8214916689" lon="11.5122694355">
		<tag k="name" v="Sørly" />
		<tag k="place" v="farm" />
		<tag k="ssr:stedsnr" v="743319" />
	</node>
	<node id="-828631" lat="64.7630638896" lon="11.409644451">
		<tag k="name" v="Skogmo" />
		<tag k="place" v="farm" />
		<tag k="ssr:stedsnr" v="440693" />
	</node>
	<node id="-827948" lat="64.9184555594" lon="11.516624996">
		<tag k="alt_name" v="Småengan" />
		<tag k="name" v="Småenget" />
		<tag k="place" v="farm" />
		<tag k="ssr:stedsnr" v="257046" />
	</node>
	<node id="-830724" lat="64.9971249974" lon="12.1802138875">
		<tag k="alt_name" v="Lien" />
		<tag k="name" v="Lia" />
		<tag k="place" v="isolated_dwelling" />
		<tag k="ssr:stedsnr" v="742661" />
	</node>
	<node id="-830723" lat="64.9952083374" lon="11.7987333387">
		<tag k="name" v="Høgmoen" />
		<tag k="place" v="farm" />
		<tag k="ssr:stedsnr" v="742655" />
	</node>
	<node id="-831701" lat="64.8697194402" lon="11.0807277787">
		<tag k="name" v="Sørosan" />
		<tag k="place" v="isolated_dwelling" />
		<tag k="ssr:stedsnr" v="47880" />
	</node>
	<node id="-828660" lat="64.9859510471" lon="11.7562792537">
		<tag k="name" v="Naustbukta" />
		<tag k="place" v="farm" />
		<tag k="ssr:stedsnr" v="229558" />
	</node>
	<node id="-830697" lat="64.8635972198" lon="11.547450003">
		<tag k="alt_name" v="Mulstadaunet Vestre" />
		<tag k="fixme" v="multiple name tags, choose one and add the other to alt_name" />
		<tag k="name" v="Mulstadaunet;Vestre Mulstadaunet" />
		<tag k="place" v="farm" />
		<tag k="ssr:stedsnr" v="905687" />
	</node>
	<node id="-827732" lat="64.9674833321" lon="12.0468583394">
		<tag k="fixme" v="multiple name tags, choose one and add the other to alt_name" />
		<tag k="name" v="Lund;Saltbuenget" />
		<tag k="place" v="farm" />
		<tag k="ssr:stedsnr" v="24613" />
	</node>
	<node id="-828632" lat="64.8822169279" lon="10.9118633928">
		<tag k="name" v="Ørnvika" />
		<tag k="place" v="locality" />
		<tag k="ssr:stedsnr" v="440866" />
	</node>
	<node id="-830679" lat="64.7789722242" lon="11.7714388802">
		<tag k="fixme" v="multiple name tags, choose one and add the other to alt_name; consider place=hamlet" />
		<tag k="name" v="Hjelmsøya;Monsøya" />
		<tag k="place" v="farm" />
		<tag k="ssr:stedsnr" v="899083" />
	</node>
	<node id="-828630" lat="64.9703555544" lon="12.1400527856">
		<tag k="name" v="Stevika" />
		<tag k="place" v="farm" />
		<tag k="ssr:stedsnr" v="440606" />
	</node>
	<node id="-828629" lat="64.8133333313" lon="11.3711527879">
		<tag k="name" v="Tunga" />
		<tag k="place" v="farm" />
		<tag k="ssr:stedsnr" v="440350" />
	</node>
	<node id="-830675" lat="64.9103333638" lon="11.2497730067">
		<tag k="fixme" v="consider place=hamlet" />
		<tag k="name" v="Sildnesstranda" />
		<tag k="place" v="farm" />
		<tag k="ssr:stedsnr" v="898300" />
	</node>
	<node id="-828621" lat="65.0304166697" lon="11.8131750103">
		<tag k="name" v="Hagan" />
		<tag k="place" v="farm" />
		<tag k="ssr:stedsnr" v="440182" />
	</node>
	<node id="-828619" lat="65.0369054367" lon="11.8372426403">
		<tag k="name" v="Selliset" />
		<tag k="place" v="farm" />
		<tag k="ssr:stedsnr" v="440179" />
	</node>
	<node id="-830663" lat="64.8970444476" lon="10.8566638912">
		<tag k="name" v="Solli" />
		<tag k="place" v="locality" />
		<tag k="ssr:stedsnr" v="897799" />
	</node>
	<node id="-830657" lat="64.8670972256" lon="11.0932222198">
		<tag k="name" v="Kleivan" />
		<tag k="place" v="farm" />
		<tag k="ssr:stedsnr" v="897552" />
	</node>
	<node id="-828606" lat="64.8724916656" lon="10.9486527855">
		<tag k="name" v="Melkarmoen" />
		<tag k="place" v="farm" />
		<tag k="ssr:stedsnr" v="439967" />
	</node>
	<node id="-830650" lat="64.9343388847" lon="11.6654083306">
		<tag k="name" v="Vangsås" />
		<tag k="place" v="locality" />
		<tag k="ssr:stedsnr" v="897593" />
	</node>
	<node id="-828591" lat="64.786086113" lon="11.2828805601">
		<tag k="name" v="Moen" />
		<tag k="place" v="farm" />
		<tag k="ssr:stedsnr" v="439746" />
	</node>
	<node id="-828579" lat="64.979280555" lon="11.106658323">
		<tag k="name" v="Grindvika" />
		<tag k="place" v="isolated_dwelling" />
		<tag k="ssr:stedsnr" v="439702" />
	</node>
	<node id="-828577" lat="64.9924916674" lon="11.7740749972">
		<tag k="name" v="Nerli" />
		<tag k="place" v="farm" />
		<tag k="ssr:stedsnr" v="439686" />
	</node>
	<node id="-828576" lat="64.986316668" lon="11.7505250034">
		<tag k="name" v="Sildvika" />
		<tag k="place" v="farm" />
		<tag k="ssr:stedsnr" v="439685" />
	</node>
	<node id="-828574" lat="64.9953750039" lon="12.0072555602">
		<tag k="name" v="Tørbermoen" />
		<tag k="old_name" v="Tørrbergmoen" />
		<tag k="place" v="locality" />
		<tag k="ssr:stedsnr" v="439674" />
	</node>
	<node id="-828562" lat="64.9257027746" lon="10.875077783">
		<tag k="name" v="Fjukstadstranda" />
		<tag k="place" v="farm" />
		<tag k="ssr:stedsnr" v="439614" />
	</node>
	<node id="-828553" lat="64.9247583291" lon="10.9592305566">
		<tag k="name" v="Hagan" />
		<tag k="place" v="farm" />
		<tag k="ssr:stedsnr" v="439587" />
	</node>
	<node id="-830596" lat="64.9703583318" lon="10.8845999968">
		<tag k="name" v="Vollan" />
		<tag k="place" v="locality" />
		<tag k="ssr:stedsnr" v="714958" />
	</node>
	<node id="-828544" lat="64.9403472257" lon="11.9230250009">
		<tag k="name" v="Kalvikmoen" />
		<tag k="place" v="farm" />
		<tag k="ssr:stedsnr" v="439559" />
	</node>
	<node id="-830591" lat="64.9349083332" lon="11.6675638868">
		<tag k="name" v="Fjellstad" />
		<tag k="place" v="locality" />
		<tag k="ssr:stedsnr" v="714618" />
	</node>
	<node id="-828541" lat="64.9098250018" lon="10.8527861092">
		<tag k="name" v="Aunet" />
		<tag k="place" v="isolated_dwelling" />
		<tag k="ssr:stedsnr" v="439552" />
	</node>
	<node id="-828539" lat="64.9310305558" lon="11.9006888784">
		<tag k="name" v="Sandmoen" />
		<tag k="place" v="farm" />
		<tag k="ssr:stedsnr" v="439546" />
	</node>
	<node id="-828529" lat="64.9188000006" lon="11.8608999933">
		<tag k="name" v="Rotvika" />
		<tag k="place" v="farm" />
		<tag k="ssr:stedsnr" v="439516" />
	</node>
	<node id="-828520" lat="64.8474638878" lon="11.3010361069">
		<tag k="alt_name" v="Klungervika" />
		<tag k="name" v="Klungvika" />
		<tag k="place" v="farm" />
		<tag k="ssr:stedsnr" v="439445" />
	</node>
	<node id="-828519" lat="64.8476749997" lon="11.5107027866">
		<tag k="name" v="Korshaugan" />
		<tag k="place" v="farm" />
		<tag k="ssr:stedsnr" v="439430" />
	</node>
	<node id="-828517" lat="64.8653487468" lon="11.3579736714">
		<tag k="fixme" v="consider place=hamlet" />
		<tag k="name" v="Holand" />
		<tag k="place" v="farm" />
		<tag k="ssr:stedsnr" v="439393" />
	</node>
	<node id="-830564" lat="64.8748972221" lon="11.4398694536">
		<tag k="name" v="Høgstad" />
		<tag k="place" v="farm" />
		<tag k="ssr:stedsnr" v="894406" />
	</node>
	<node id="-830563" lat="64.8776722242" lon="11.4279361207">
		<tag k="name" v="Sørågården" />
		<tag k="place" v="farm" />
		<tag k="ssr:stedsnr" v="894405" />
	</node>
	<node id="-828514" lat="64.8789133971" lon="11.5587611614">
		<tag k="fixme" v="consider place=hamlet" />
		<tag k="name" v="Liavika" />
		<tag k="place" v="farm" />
		<tag k="ssr:stedsnr" v="439372" />
	</node>
	<node id="-830551" lat="64.8930916691" lon="11.5738194547">
		<tag k="name" v="Solheim" />
		<tag k="place" v="isolated_dwelling" />
		<tag k="ssr:stedsnr" v="894071" />
	</node>
	<node id="-830536" lat="64.7715722261" lon="11.3657750099">
		<tag k="name" v="Haugen" />
		<tag k="place" v="farm" />
		<tag k="ssr:stedsnr" v="893151" />
	</node>
	<node id="-828487" lat="64.9698166633" lon="12.0498694341">
		<tag k="name" v="Leirviksetran" />
		<tag k="place" v="farm" />
		<tag k="ssr:stedsnr" v="210406" />
	</node>
	<node id="-828483" lat="64.9337777759" lon="12.2802027698">
		<tag k="name" v="Forneset" />
		<tag k="place" v="farm" />
		<tag k="ssr:stedsnr" v="210307" />
	</node>
	<node id="-828481" lat="64.912749997" lon="12.2731250088">
		<tag k="historic" v="shieling" />
		<tag k="name" v="Ole Samuelsensetran" />
		<tag k="place" v="locality" />
		<tag k="ssr:stedsnr" v="210302" />
	</node>
	<node id="-830525" lat="64.8266999965" lon="11.5948805461">
		<tag k="name" v="Permoen" />
		<tag k="place" v="farm" />
		<tag k="ssr:stedsnr" v="893053" />
	</node>
	<node id="-830517" lat="64.7481055587" lon="11.2400361106">
		<tag k="alt_name" v="Ramstad Østre" />
		<tag k="name" v="Østre Ramstad" />
		<tag k="place" v="farm" />
		<tag k="ssr:stedsnr" v="891643" />
	</node>
	<node id="-830510" lat="64.8626055578" lon="11.5991000062">
		<tag k="amenity" v="school" />
		<tag k="name" v="Nærøy ungdomsskole" />
		<tag k="ssr:stedsnr" v="891285" />
	</node>
	<node id="-830504" lat="64.9592222192" lon="12.1025972141">
		<tag k="name" v="Ånnvika" />
		<tag k="place" v="locality" />
		<tag k="ssr:stedsnr" v="695363" />
	</node>
	<node id="-828455" lat="64.8951361138" lon="11.0195527763">
		<tag k="name" v="Nygården" />
		<tag k="place" v="farm" />
		<tag k="ssr:stedsnr" v="197924" />
	</node>
	<node id="-828454" lat="64.8731333352" lon="11.047902776">
		<tag k="name" v="Litlenget" />
		<tag k="place" v="farm" />
		<tag k="ssr:stedsnr" v="197915" />
	</node>
	<node id="-828452" lat="64.8770527813" lon="11.1031333367">
		<tag k="fixme" v="consider place=hamlet" />
		<tag k="name" v="Ofstad" />
		<tag k="place" v="village" />
		<tag k="ssr:stedsnr" v="197906" />
	</node>
	<node id="-828442" lat="64.9492111074" lon="11.7793527755">
		<tag k="name" v="Svanås" />
		<tag k="place" v="farm" />
		<tag k="ssr:stedsnr" v="197615" />
	</node>
	<node id="-828440" lat="64.944902777" lon="11.941438881">
		<tag k="name" v="Hestmarka" />
		<tag k="place" v="farm" />
		<tag k="ssr:stedsnr" v="197611" />
	</node>
	<node id="-828438" lat="64.9454916712" lon="12.1855249993">
		<tag k="alt_name" v="Bergsvik" />
		<tag k="name" v="Bergsvika" />
		<tag k="place" v="farm" />
		<tag k="ssr:stedsnr" v="197604" />
	</node>
	<node id="-828435" lat="64.8339305512" lon="11.3694027873">
		<tag k="name" v="Dy" />
		<tag k="place" v="farm" />
		<tag k="ssr:stedsnr" v="197528" />
	</node>
	<node id="-828432" lat="64.8598555542" lon="11.4025444496">
		<tag k="name" v="Austmoen" />
		<tag k="place" v="farm" />
		<tag k="ssr:stedsnr" v="197452" />
	</node>
	<node id="-828431" lat="64.8621861132" lon="11.4253666742">
		<tag k="name" v="Sandnesenget" />
		<tag k="place" v="farm" />
		<tag k="ssr:stedsnr" v="197451" />
	</node>
	<node id="-828430" lat="64.8638277816" lon="11.3510944529">
		<tag k="alt_name" v="Engdalen" />
		<tag k="name" v="Engdal" />
		<tag k="place" v="farm" />
		<tag k="ssr:stedsnr" v="197447" />
	</node>
	<node id="-828429" lat="64.8690750019" lon="11.6185777848">
		<tag k="name" v="Hagan" />
		<tag k="place" v="farm" />
		<tag k="ssr:stedsnr" v="197434" />
	</node>
	<node id="-828427" lat="64.8290555575" lon="11.322655557">
		<tag k="name" v="Vågsmyra" />
		<tag k="place" v="farm" />
		<tag k="ssr:stedsnr" v="197309" />
	</node>
	<node id="-830474" lat="64.9459083367" lon="11.8716388791">
		<tag k="historic" v="shieling" />
		<tag k="name" v="Kreklingsetran" />
		<tag k="place" v="locality" />
		<tag k="ssr:stedsnr" v="693262" />
	</node>
	<node id="-828420" lat="64.920927775" lon="11.5133499934">
		<tag k="name" v="Hesenget" />
		<tag k="place" v="farm" />
		<tag k="ssr:stedsnr" v="197021" />
	</node>
	<node id="-830463" lat="64.8672500043" lon="11.0371111026">
		<tag k="name" v="Storenget" />
		<tag k="place" v="farm" />
		<tag k="ssr:stedsnr" v="682970" />
	</node>
	<node id="-830457" lat="64.7742583342" lon="11.7970055622">
		<tag k="name" v="Monsøysetran" />
		<tag k="place" v="isolated_dwelling" />
		<tag k="ssr:stedsnr" v="682926" />
	</node>
	<node id="-828926" lat="64.8441361099" lon="11.8948361051">
		<tag k="name" v="Osvollen" />
		<tag k="place" v="isolated_dwelling" />
		<tag k="ssr:stedsnr" v="293017" />
	</node>
	<node id="-828401" lat="64.794894447" lon="11.7703749929">
		<tag k="name" v="Lautvika" />
		<tag k="place" v="isolated_dwelling" />
		<tag k="ssr:stedsnr" v="292107" />
	</node>
	<node id="-830445" lat="64.9513457468" lon="12.2397963518">
		<tag k="fixme" v="consider place=hamlet" />
		<tag k="name" v="Holand" />
		<tag k="place" v="farm" />
		<tag k="ssr:stedsnr" v="682855" />
	</node>
	<node id="-830444" lat="64.9168250039" lon="12.4077861219">
		<tag k="name" v="Holandsætran" />
		<tag k="place" v="locality" />
		<tag k="ssr:stedsnr" v="682848" />
	</node>
	<node id="-830431" lat="64.847508334" lon="11.2859555558">
		<tag k="name" v="Lørdagsvika" />
		<tag k="place" v="farm" />
		<tag k="ssr:stedsnr" v="682512" />
	</node>
	<node id="-830429" lat="64.8446027749" lon="11.3115972313">
		<tag k="fixme" v="multiple name tags, choose one and add the other to alt_name" />
		<tag k="name" v="Nyvoll;Vikmoen" />
		<tag k="place" v="farm" />
		<tag k="ssr:stedsnr" v="682507" />
	</node>
	<node id="-830425" lat="64.9317444478" lon="11.6623499998">
		<tag k="name" v="Vangsåsen" />
		<tag k="place" v="isolated_dwelling" />
		<tag k="ssr:stedsnr" v="682258" />
	</node>
	<node id="-830424" lat="64.822961112" lon="11.5308750101">
		<tag k="name" v="Sørheim" />
		<tag k="place" v="farm" />
		<tag k="ssr:stedsnr" v="682308" />
	</node>
	<node id="-830423" lat="64.9944500016" lon="11.7080527876">
		<tag k="name" v="Fagertun" />
		<tag k="place" v="farm" />
		<tag k="ssr:stedsnr" v="682166" />
	</node>
	<node id="-830418" lat="64.8801527753" lon="11.4232000003">
		<tag k="name" v="Solli" />
		<tag k="place" v="farm" />
		<tag k="ssr:stedsnr" v="682114" />
	</node>
	<node id="-830416" lat="64.8815027797" lon="11.7065166749">
		<tag k="name" v="Finnemoen" />
		<tag k="place" v="farm" />
		<tag k="ssr:stedsnr" v="682109" />
	</node>
	<node id="-830409" lat="64.9044333346" lon="11.287755554">
		<tag k="name" v="Kåvika" />
		<tag k="place" v="farm" />
		<tag k="ssr:stedsnr" v="682071" />
	</node>
	<node id="-828359" lat="64.8522083348" lon="10.7853333395">
		<tag k="name" v="Gjertrudvika" />
		<tag k="place" v="isolated_dwelling" />
		<tag k="ssr:stedsnr" v="289133" />
	</node>
	<node id="-830404" lat="64.9204091366" lon="11.2318911454">
		<tag k="fixme" v="consider place=hamlet" />
		<tag k="name" v="Flerenget" />
		<tag k="place" v="farm" />
		<tag k="ssr:stedsnr" v="682003" />
	</node>
	<node id="-830402" lat="64.9637861072" lon="12.2003111054">
		<tag k="loc_name" v="Engan" />
		<tag k="name" v="Skardmoen" />
		<tag k="place" v="farm" />
		<tag k="ssr:stedsnr" v="681606" />
	</node>
	<node id="-828344" lat="64.921927779" lon="11.5321638809">
		<tag k="name" v="Stormyra" />
		<tag k="place" v="isolated_dwelling" />
		<tag k="ssr:stedsnr" v="287141" />
	</node>
	<node id="-828333" lat="64.8252972254" lon="11.5768166751">
		<tag k="name" v="Skagamoen" />
		<tag k="place" v="farm" />
		<tag k="ssr:stedsnr" v="286110" />
	</node>
	<node id="-830377" lat="64.9721361067" lon="12.0555388908">
		<tag k="name" v="Åbogen" />
		<tag k="place" v="farm" />
		<tag k="ssr:stedsnr" v="877390" />
	</node>
	<node id="-828325" lat="64.7859777785" lon="11.4213972135">
		<tag k="amenity" v="school" />
		<tag k="name" v="Val videregående skole" />
		<tag k="ssr:stedsnr" v="285249" />
	</node>
	<node id="-828282" lat="64.9016583335" lon="11.6614083231">
		<tag k="name" v="Osen" />
		<tag k="place" v="farm" />
		<tag k="ssr:stedsnr" v="166123" />
	</node>
	<node id="-831061" lat="64.9371999986" lon="11.6265638918">
		<tag k="name" v="Hemmingstranda" />
		<tag k="place" v="farm" />
		<tag k="ssr:stedsnr" v="803204" />
	</node>
	<node id="-828251" lat="64.9671527771" lon="12.0711000013">
		<tag k="name" v="Sjølstad" />
		<tag k="place" v="hamlet" />
		<tag k="ssr:stedsnr" v="148360" />
	</node>
	<node id="-828239" lat="64.9359361086" lon="11.479949997">
		<tag k="alt_name" v="Måneset indre" />
		<tag k="name" v="Indre Måneset" />
		<tag k="place" v="farm" />
		<tag k="ssr:stedsnr" v="147214" />
	</node>
	<node id="-830275" lat="64.9205968135" lon="11.0888298789">
		<tag k="name" v="Sæter" />
		<tag k="place" v="locality" />
		<tag k="ssr:stedsnr" v="621648" />
	</node>
	<node id="-828226" lat="64.9250999972" lon="12.3916805626">
		<tag k="name" v="Gammelgården" />
		<tag k="place" v="locality" />
		<tag k="ssr:stedsnr" v="271792" />
	</node>
	<node id="-830266" lat="64.9477499968" lon="11.7926749948">
		<tag k="name" v="Masterdalen" />
		<tag k="place" v="farm" />
		<tag k="ssr:stedsnr" v="621628" />
	</node>
	<node id="-830262" lat="64.9452277779" lon="11.961402768">
		<tag k="name" v="Årstad" />
		<tag k="place" v="farm" />
		<tag k="ssr:stedsnr" v="621618" />
	</node>
	<node id="-830261" lat="64.9015527787" lon="11.1091722153">
		<tag k="name" v="Søraunet" />
		<tag k="place" v="farm" />
		<tag k="ssr:stedsnr" v="621617" />
	</node>
	<node id="-828210" lat="64.9658388877" lon="12.0828583265">
		<tag k="name" v="Sandan" />
		<tag k="place" v="farm" />
		<tag k="ssr:stedsnr" v="270347" />
	</node>
	<node id="-830251" lat="64.9850694485" lon="12.147449996">
		<tag k="historic" v="shieling" />
		<tag k="name" v="Nersetran" />
		<tag k="place" v="locality" />
		<tag k="ssr:stedsnr" v="621711" />
	</node>
	<node id="-828892" lat="64.8565083317" lon="11.5692694356">
		<tag k="name" v="Austli" />
		<tag k="place" v="farm" />
		<tag k="ssr:stedsnr" v="287321" />
	</node>
	<node id="-828198" lat="64.9040388919" lon="11.710330564">
		<tag k="name" v="Verkarplassen" />
		<tag k="place" v="locality" />
		<tag k="ssr:stedsnr" v="269026" />
	</node>
	<node id="-830244" lat="64.7294444435" lon="11.1801222141">
		<tag k="fixme" v="consider place=suburb, village or hamlet" />
		<tag k="name" v="Abelvær" />
		<tag k="place" v="quarter" />
		<tag k="ssr:stedsnr" v="620946" />
	</node>
	<node id="-828193" lat="64.9191611139" lon="11.8560833377">
		<tag k="name" v="Åsen" />
		<tag k="place" v="farm" />
		<tag k="ssr:stedsnr" v="269003" />
	</node>
	<node id="-828192" lat="64.9166611106" lon="11.8409249958">
		<tag k="name" v="Hesthagan" />
		<tag k="place" v="farm" />
		<tag k="ssr:stedsnr" v="269001" />
	</node>
	<node id="-828173" lat="64.9569083295" lon="12.0133277777">
		<tag k="name" v="Brekka" />
		<tag k="place" v="farm" />
		<tag k="ssr:stedsnr" v="136607" />
	</node>
	<node id="-830219" lat="64.8713527784" lon="10.846677769">
		<tag k="name" v="Hunnestad" />
		<tag k="place" v="farm" />
		<tag k="ssr:stedsnr" v="602761" />
	</node>
	<node id="-828170" lat="64.7705647961" lon="11.3732085726">
		<tag k="fixme" v="consider place=hamlet" />
		<tag k="name" v="Hamland" />
		<tag k="place" v="farm" />
		<tag k="ssr:stedsnr" v="136737" />
	</node>
	<node id="-830211" lat="64.7948527763" lon="11.7607805517">
		<tag k="name" v="Barnesvika" />
		<tag k="place" v="isolated_dwelling" />
		<tag k="ssr:stedsnr" v="717107" />
	</node>
	<node id="-828162" lat="64.8317249961" lon="11.333005562">
		<tag k="name" v="Furem" />
		<tag k="place" v="farm" />
		<tag k="ssr:stedsnr" v="136314" />
	</node>
	<node id="-830206" lat="65.0331722204" lon="11.7535027724">
		<tag k="name" v="Elvheim" />
		<tag k="place" v="isolated_dwelling" />
		<tag k="ssr:stedsnr" v="715937" />
	</node>
	<node id="-828153" lat="64.9135777765" lon="11.4942916572">
		<tag k="name" v="Brattberg" />
		<tag k="place" v="farm" />
		<tag k="ssr:stedsnr" v="268101" />
	</node>
	<node id="-828152" lat="64.9231472236" lon="11.4904444547">
		<tag k="name" v="Valen" />
		<tag k="place" v="farm" />
		<tag k="ssr:stedsnr" v="268100" />
	</node>
	<node id="-830196" lat="64.9370055573" lon="11.0896833335">
		<tag k="name" v="Korsenget" />
		<tag k="place" v="isolated_dwelling" />
		<tag k="ssr:stedsnr" v="715707" />
	</node>
	<node id="-830191" lat="64.994602778" lon="11.7201805648">
		<tag k="name" v="Austvang" />
		<tag k="place" v="farm" />
		<tag k="ssr:stedsnr" v="715524" />
	</node>
	<node id="-828138" lat="64.9197055585" lon="11.5356361155">
		<tag k="name" v="Småenglia" />
		<tag k="place" v="farm" />
		<tag k="ssr:stedsnr" v="136027" />
	</node>
	<node id="-828137" lat="64.9270055555" lon="11.5180416619">
		<tag k="name" v="Osan" />
		<tag k="place" v="farm" />
		<tag k="ssr:stedsnr" v="136024" />
	</node>
	<node id="-830172" lat="64.9873416689" lon="11.7704055587">
		<tag k="name" v="Nytun" />
		<tag k="place" v="farm" />
		<tag k="ssr:stedsnr" v="714533" />
	</node>
	<node id="-828122" lat="64.807858329" lon="11.3884083357">
		<tag k="name" v="Bakkestranda" />
		<tag k="place" v="farm" />
		<tag k="ssr:stedsnr" v="135309" />
	</node>
	<node id="-828879" lat="64.8054444437" lon="11.8730222216">
		<tag k="name" v="Brottet" />
		<tag k="place" v="isolated_dwelling" />
		<tag k="ssr:stedsnr" v="286010" />
	</node>
	<node id="-828119" lat="65.0288611147" lon="11.808550007">
		<tag k="name" v="Fagerbakken" />
		<tag k="place" v="isolated_dwelling" />
		<tag k="ssr:stedsnr" v="135143" />
	</node>
	<node id="-828118" lat="65.0240694436" lon="11.7982999973">
		<tag k="name" v="Aspenget" />
		<tag k="place" v="farm" />
		<tag k="ssr:stedsnr" v="135142" />
	</node>
	<node id="-828105" lat="64.920608336" lon="11.3092749907">
		<tag k="alt_name" v="Øvergårdan" />
		<tag k="name" v="Øvergården" />
		<tag k="place" v="farm" />
		<tag k="ssr:stedsnr" v="135003" />
	</node>
	<node id="-830152" lat="64.8713999964" lon="11.4395027844">
		<tag k="name" v="Dalasjøen" />
		<tag k="place" v="isolated_dwelling" />
		<tag k="ssr:stedsnr" v="712330" />
	</node>
	<node id="-830142" lat="64.9203055537" lon="11.5657416646">
		<tag k="building" v="industrial" />
		<tag k="name" v="Nergården" />
		<tag k="ssr:stedsnr" v="712129" />
	</node>
	<node id="-830140" lat="64.8498833368" lon="11.4112888834">
		<tag k="name" v="Vea" />
		<tag k="place" v="farm" />
		<tag k="ssr:stedsnr" v="711946" />
	</node>
	<node id="-828083" lat="64.873269446" lon="11.0889611179">
		<tag k="name" v="Osan" />
		<tag k="place" v="farm" />
		<tag k="ssr:stedsnr" v="108620" />
	</node>
	<node id="-828081" lat="64.8011250036" lon="11.8247361167">
		<tag k="alt_name" v="Langneset" />
		<tag k="name" v="Langnes" />
		<tag k="place" v="hamlet" />
		<tag k="ssr:stedsnr" v="257951" />
	</node>
	<node id="-828076" lat="64.8615749998" lon="10.9196555617">
		<tag k="name" v="Nyheim" />
		<tag k="place" v="farm" />
		<tag k="ssr:stedsnr" v="257987" />
	</node>
	<node id="-830123" lat="64.8521729947" lon="11.4797332782">
		<tag k="name" v="Nakling" />
		<tag k="place" v="farm" />
		<tag k="ssr:stedsnr" v="589111" />
	</node>
	<node id="-830117" lat="64.7508777752" lon="11.3000083351">
		<tag k="name" v="Krokan" />
		<tag k="place" v="farm" />
		<tag k="ssr:stedsnr" v="711140" />
	</node>
	<node id="-830114" lat="64.845291667" lon="11.5208027679">
		<tag k="fixme" v="consider place=hamlet" />
		<tag k="name" v="Horvereid" />
		<tag k="place" v="farm" />
		<tag k="ssr:stedsnr" v="711108" />
	</node>
	<node id="-828058" lat="64.8551027798" lon="11.50103333">
		<tag k="name" v="Heimstad" />
		<tag k="place" v="farm" />
		<tag k="ssr:stedsnr" v="104110" />
	</node>
	<node id="-830105" lat="64.849517781" lon="11.1454861343">
		<tag k="name" v="Åkvika" />
		<tag k="place" v="farm" />
		<tag k="ssr:stedsnr" v="588138" />
	</node>
	<node id="-828053" lat="64.8892282853" lon="11.0133642742">
		<tag k="fixme" v="consider place=hamlet" />
		<tag k="name" v="Olsvika" />
		<tag k="place" v="farm" />
		<tag k="ssr:stedsnr" v="257924" />
	</node>
	<node id="-830094" lat="64.7450416658" lon="11.2324055481">
		<tag k="alt_name" v="Ramstad Øvre" />
		<tag k="name" v="Øvre Ramstad" />
		<tag k="place" v="farm" />
		<tag k="ssr:stedsnr" v="709610" />
	</node>
	<node id="-830084" lat="64.8456861115" lon="11.2548888926">
		<tag k="name" v="Marøystranda" />
		<tag k="place" v="farm" />
		<tag k="ssr:stedsnr" v="572902" />
	</node>
	<node id="-828028" lat="64.9226194485" lon="11.8774166734">
		<tag k="name" v="Saltkjelvika" />
		<tag k="place" v="farm" />
		<tag k="ssr:stedsnr" v="257593" />
	</node>
	<node id="-828023" lat="64.9180749996" lon="11.8507916581">
		<tag k="name" v="Åsheim" />
		<tag k="place" v="farm" />
		<tag k="ssr:stedsnr" v="257583" />
	</node>
	<node id="-828017" lat="64.7599555557" lon="11.3396777833">
		<tag k="name" v="Storeinen" />
		<tag k="place" v="farm" />
		<tag k="ssr:stedsnr" v="257741" />
	</node>
	<node id="-828016" lat="64.9973333344" lon="11.7335361068">
		<tag k="name" v="Austvang" />
		<tag k="place" v="isolated_dwelling" />
		<tag k="ssr:stedsnr" v="257735" />
	</node>
	<node id="-828010" lat="64.9490944455" lon="11.9485277768">
		<tag k="name" v="Sørlia" />
		<tag k="place" v="farm" />
		<tag k="ssr:stedsnr" v="257649" />
	</node>
	<node id="-830057" lat="64.8536557717" lon="10.844794417">
		<tag k="fixme" v="consider place=hamlet" />
		<tag k="name" v="Vågsenget" />
		<tag k="place" v="farm" />
		<tag k="ssr:stedsnr" v="560967" />
	</node>
	<node id="-830055" lat="64.851522223" lon="10.8698027776">
		<tag k="name" v="Fjellsenget" />
		<tag k="place" v="farm" />
		<tag k="ssr:stedsnr" v="560965" />
	</node>
	<node id="-828005" lat="64.8981444444" lon="11.1138888926">
		<tag k="name" v="Valan" />
		<tag k="place" v="farm" />
		<tag k="ssr:stedsnr" v="257632" />
	</node>
	<node id="-828802" lat="64.8310138873" lon="11.1999500067">
		<tag k="name" v="Finnvika" />
		<tag k="place" v="isolated_dwelling" />
		<tag k="ssr:stedsnr" v="257816" />
	</node>
	<node id="-828000" lat="64.8574202827" lon="11.2880866474">
		<tag k="fixme" v="consider place=suburb, village or hamlet" />
		<tag k="name" v="Ottersøya" />
		<tag k="place" v="quarter" />
		<tag k="ssr:stedsnr" v="257500" />
	</node>
	<node id="-827998" lat="64.8582988681" lon="11.6726648644">
		<tag k="fixme" v="consider place=hamlet" />
		<tag k="name" v="Finnestranda" />
		<tag k="place" v="farm" />
		<tag k="ssr:stedsnr" v="257479" />
	</node>
	<node id="-830565" lat="64.7833555599" lon="11.8119083364">
		<tag k="fixme" v="consider place=hamlet" />
		<tag k="name" v="Salvika" />
		<tag k="place" v="farm" />
		<tag k="ssr:stedsnr" v="711019" />
	</node>
	<node id="-827996" lat="64.8604694418" lon="11.399475001">
		<tag k="alt_name" v="Vestmo" />
		<tag k="name" v="Vestmoen" />
		<tag k="place" v="farm" />
		<tag k="ssr:stedsnr" v="257466" />
	</node>
	<node id="-827993" lat="64.8014000037" lon="11.4649444548">
		<tag k="name" v="Skogly" />
		<tag k="place" v="farm" />
		<tag k="ssr:stedsnr" v="257394" />
	</node>
	<node id="-827992" lat="64.8008833308" lon="11.4116333277">
		<tag k="name" v="Yttersjøen" />
		<tag k="place" v="farm" />
		<tag k="ssr:stedsnr" v="257391" />
	</node>
	<node id="-827990" lat="64.8467888845" lon="11.3680638914">
		<tag k="alt_name" v="Fagerlia" />
		<tag k="name" v="Fagerli" />
		<tag k="place" v="farm" />
		<tag k="ssr:stedsnr" v="257531" />
	</node>
	<node id="-827987" lat="64.8106055575" lon="11.277500002">
		<tag k="name" v="Grevstad" />
		<tag k="place" v="farm" />
		<tag k="ssr:stedsnr" v="257351" />
	</node>
	<node id="-828515" lat="64.8741833312" lon="11.4444555514">
		<tag k="name" v="Sørådalen" />
		<tag k="place" v="farm" />
		<tag k="ssr:stedsnr" v="439382" />
	</node>
	<node id="-827982" lat="65.0093555584" lon="11.7242138835">
		<tag k="name" v="Nordtun" />
		<tag k="place" v="farm" />
		<tag k="ssr:stedsnr" v="257199" />
	</node>
	<node id="-830021" lat="64.8760305582" lon="11.6601111057">
		<tag k="alt_name" v="Finne vestre" />
		<tag k="name" v="Finne" />
		<tag k="place" v="farm" />
		<tag k="ssr:stedsnr" v="560367" />
	</node>
	<node id="-830019" lat="64.7934083355" lon="11.4174916715">
		<tag k="name" v="Korsskogan" />
		<tag k="place" v="farm" />
		<tag k="ssr:stedsnr" v="560358" />
	</node>
	<node id="-830013" lat="64.8525305512" lon="11.5609194474">
		<tag k="name" v="Kjerkskardet" />
		<tag k="old_name" v="Skaret øvre;Øvre Skaret" />
		<tag k="place" v="farm" />
		<tag k="ssr:stedsnr" v="560474" />
	</node>
	<node id="-830012" lat="64.8498083322" lon="11.2251388923">
		<tag k="name" v="Smedvikaunet" />
		<tag k="place" v="farm" />
		<tag k="ssr:stedsnr" v="560470" />
	</node>
	<node id="-827962" lat="64.8200555532" lon="11.4476388846">
		<tag k="name" v="Vassdalen" />
		<tag k="place" v="farm" />
		<tag k="ssr:stedsnr" v="257332" />
	</node>
	<node id="-830009" lat="64.8585611111" lon="11.3097750072">
		<tag k="name" v="Valheim" />
		<tag k="place" v="isolated_dwelling" />
		<tag k="ssr:stedsnr" v="560460" />
	</node>
	<node id="-830006" lat="64.8592527748" lon="11.5214305512">
		<tag k="name" v="Leirbogen" />
		<tag k="place" v="farm" />
		<tag k="ssr:stedsnr" v="560408" />
	</node>
	<node id="-827957" lat="65.0317720949" lon="11.8657523558">
		<tag k="fixme" v="consider place=hamlet" />
		<tag k="name" v="Lundsenget" />
		<tag k="place" v="farm" />
		<tag k="ssr:stedsnr" v="257146" />
	</node>
	<node id="-830004" lat="64.8259000015" lon="11.2757972147">
		<tag k="name" v="Nergård" />
		<tag k="place" v="farm" />
		<tag k="ssr:stedsnr" v="560262" />
	</node>
	<node id="-830003" lat="64.8256944481" lon="11.6945833409">
		<tag k="name" v="Mølnvika" />
		<tag k="place" v="farm" />
		<tag k="ssr:stedsnr" v="560259" />
	</node>
	<node id="-830002" lat="64.903197767" lon="11.6651673018">
		<tag k="fixme" v="consider place=hamlet" />
		<tag k="name" v="Osen" />
		<tag k="place" v="farm" />
		<tag k="ssr:stedsnr" v="560069" />
	</node>
	<node id="-829999" lat="64.8905361071" lon="11.2256555612">
		<tag k="name" v="Kverndal" />
		<tag k="place" v="isolated_dwelling" />
		<tag k="ssr:stedsnr" v="560057" />
	</node>
	<node id="-829996" lat="64.913741668" lon="11.3959027779">
		<tag k="name" v="Bosskogmarka" />
		<tag k="place" v="farm" />
		<tag k="ssr:stedsnr" v="560008" />
	</node>
	<node id="-829995" lat="64.9149194478" lon="11.2423333439">
>>>>>>> e1d4bc35ff8a6074a6f2e91616a996b547c36f15
		<tag k="name" v="Flerengstranda" />
		<tag k="place" v="farm" />
		<tag k="ssr:stedsnr" v="560003" />
	</node>
<<<<<<< HEAD
	<node lat="64.91374166804016" lon="11.395902777936902" id="-38932">
		<tag k="name" v="Bosskogmarka" />
		<tag k="place" v="farm" />
		<tag k="ssr:stedsnr" v="560008" />
	</node>
	<node lat="64.90316388694593" lon="11.518344440083577" id="-38934">
		<tag k="name" v="Røyrdalen" />
		<tag k="place" v="isolated_dwelling" />
		<tag k="ssr:stedsnr" v="560034" />
	</node>
	<node lat="64.91045190763029" lon="11.588513683075766" id="-38935">
		<tag k="fixme" v="consider place=hamlet" />
		<tag k="name" v="Ramfjord" />
		<tag k="place" v="farm" />
		<tag k="ssr:stedsnr" v="560041" />
	</node>
	<node lat="64.8867910036519" lon="11.534145880637578" id="-38936">
=======
	<node id="-827946" lat="64.9116999992" lon="11.3912777684">
		<tag k="name" v="Laukvikstranda" />
		<tag k="place" v="isolated_dwelling" />
		<tag k="ssr:stedsnr" v="257037" />
	</node>
	<node id="-829991" lat="65.0405500004" lon="12.0242305482">
		<tag k="alt_name" v="Saglisetran" />
		<tag k="name" v="Saglisætran" />
		<tag k="place" v="isolated_dwelling" />
		<tag k="ssr:stedsnr" v="560110" />
	</node>
	<node id="-829988" lat="64.8867910037" lon="11.5341458806">
>>>>>>> e1d4bc35ff8a6074a6f2e91616a996b547c36f15
		<tag k="fixme" v="consider place=hamlet" />
		<tag k="name" v="Li" />
		<tag k="place" v="farm" />
		<tag k="ssr:stedsnr" v="560102" />
	</node>
<<<<<<< HEAD
	<node lat="65.04055000035954" lon="12.024230548227559" id="-38939">
		<tag k="alt_name" v="Saglisetran" />
		<tag k="name" v="Saglisætran" />
		<tag k="place" v="isolated_dwelling" />
		<tag k="ssr:stedsnr" v="560110" />
	</node>
	<node lat="64.94434999959078" lon="11.503302773074958" id="-38946">
		<tag k="alt_name" v="Lømoen nordre" />
		<tag k="name" v="Lømoen" />
		<tag k="place" v="farm" />
		<tag k="ssr:stedsnr" v="560193" />
	</node>
	<node lat="64.82569444806592" lon="11.694583340941204" id="-38952">
		<tag k="name" v="Mølnvika" />
		<tag k="place" v="farm" />
		<tag k="ssr:stedsnr" v="560259" />
	</node>
	<node lat="64.82590000151329" lon="11.27579721472372" id="-38953">
		<tag k="name" v="Nergård" />
		<tag k="place" v="farm" />
		<tag k="ssr:stedsnr" v="560262" />
	</node>
	<node lat="64.81791389109861" lon="11.297375009278529" id="-38955">
		<tag k="name" v="Solvika" />
		<tag k="place" v="isolated_dwelling" />
		<tag k="ssr:stedsnr" v="560289" />
	</node>
	<node lat="64.81614444853588" lon="11.381094438722291" id="-38956">
		<tag k="name" v="Myrheim" />
		<tag k="place" v="farm" />
		<tag k="ssr:stedsnr" v="560294" />
	</node>
	<node lat="64.85925277477796" lon="11.521430551186688" id="-38957">
		<tag k="name" v="Leirbogen" />
		<tag k="place" v="farm" />
		<tag k="ssr:stedsnr" v="560408" />
	</node>
	<node lat="64.86041666560837" lon="11.563125006990917" id="-38958">
		<tag k="name" v="Elvenes" />
		<tag k="place" v="farm" />
		<tag k="ssr:stedsnr" v="560435" />
	</node>
	<node lat="64.85930000036939" lon="11.621619451530567" id="-38959">
		<tag k="fixme" v="multiple name tags, choose one and add the other to alt_name" />
		<tag k="name" v="Knårråmoen;Moen" />
		<tag k="place" v="farm" />
		<tag k="ssr:stedsnr" v="560437" />
	</node>
	<node lat="64.85185000114097" lon="11.44590833832294" id="-38960">
		<tag k="name" v="Vestgård" />
		<tag k="place" v="farm" />
		<tag k="ssr:stedsnr" v="560444" />
	</node>
	<node lat="64.86955832906821" lon="11.287577767334984" id="-38962">
		<tag k="name" v="Hagan" />
=======
	<node id="-827929" lat="64.950080554" lon="11.9592861215">
		<tag k="name" v="Utgården" />
		<tag k="place" v="locality" />
		<tag k="ssr:stedsnr" v="86212" />
	</node>
	<node id="-827924" lat="65.0404472247" lon="11.8832083256">
		<tag k="name" v="Kvernastranda" />
		<tag k="place" v="farm" />
		<tag k="ssr:stedsnr" v="85823" />
	</node>
	<node id="-827917" lat="64.7800555556" lon="11.3905583262">
		<tag k="name" v="Solheim" />
		<tag k="place" v="farm" />
		<tag k="ssr:stedsnr" v="75789" />
	</node>
	<node id="-827912" lat="64.7486144444" lon="11.2943985816">
		<tag k="alt_name" v="Stein" />
		<tag k="fixme" v="consider place=hamlet" />
		<tag k="name" v="Steine" />
		<tag k="place" v="farm" />
		<tag k="ssr:stedsnr" v="75764" />
	</node>
	<node id="-827908" lat="64.9451707466" lon="11.4417334577">
		<tag k="fixme" v="consider place=hamlet" />
		<tag k="name" v="Gjerdinga" />
		<tag k="place" v="farm" />
		<tag k="ssr:stedsnr" v="75206" />
	</node>
	<node id="-827888" lat="65.0346861142" lon="11.7660083349">
		<tag k="loc_name" v="Heller Østre" />
		<tag k="name" v="Østre Heller" />
		<tag k="place" v="farm" />
		<tag k="ssr:stedsnr" v="237403" />
	</node>
	<node id="-829933" lat="64.9554444422" lon="11.0321055604">
		<tag k="fixme" v="consider place=hamlet" />
		<tag k="name" v="Hasfjord" />
		<tag k="place" v="farm" />
		<tag k="ssr:stedsnr" v="693232" />
	</node>
	<node id="-827883" lat="65.0642138908" lon="11.9744055549">
		<tag k="name" v="Vassmoen" />
		<tag k="place" v="isolated_dwelling" />
		<tag k="ssr:stedsnr" v="52801" />
	</node>
	<node id="-829929" lat="64.929725002" lon="11.4591722254">
		<tag k="name" v="Reitmoen" />
		<tag k="place" v="isolated_dwelling" />
		<tag k="ssr:stedsnr" v="693145" />
	</node>
	<node id="-827878" lat="64.8440027785" lon="11.9126805535">
		<tag k="name" v="Isakstua" />
		<tag k="place" v="isolated_dwelling" />
		<tag k="ssr:stedsnr" v="51011" />
	</node>
	<node id="-829915" lat="64.9661111099" lon="11.9378861077">
		<tag k="historic" v="shieling" />
		<tag k="name" v="Sørlisetran" />
		<tag k="place" v="locality" />
		<tag k="ssr:stedsnr" v="692174" />
	</node>
	<node id="-829906" lat="65.0200328599" lon="11.7501835346">
		<tag k="fixme" v="consider place=hamlet" />
		<tag k="name" v="Skotnes" />
		<tag k="place" v="farm" />
		<tag k="ssr:stedsnr" v="533954" />
	</node>
	<node id="-829893" lat="64.9432000023" lon="11.5699944524">
		<tag k="name" v="Plassen" />
		<tag k="place" v="locality" />
		<tag k="ssr:stedsnr" v="532202" />
	</node>
	<node id="-827828" lat="64.9985305539" lon="11.6305749939">
		<tag k="name" v="Myrvang" />
		<tag k="place" v="locality" />
		<tag k="ssr:stedsnr" v="229997" />
	</node>
	<node id="-829875" lat="64.8050750021" lon="11.7799027828">
		<tag k="historic" v="shieling" />
		<tag k="name" v="Galtnessetran" />
		<tag k="place" v="locality" />
		<tag k="ssr:stedsnr" v="529017" />
	</node>
	<node id="-829871" lat="64.7992416657" lon="11.8741333231">
		<tag k="name" v="Borkmoen" />
		<tag k="place" v="farm" />
		<tag k="ssr:stedsnr" v="528010" />
	</node>
	<node id="-827812" lat="65.0021861078" lon="11.6814527745">
		<tag k="name" v="Nordvika" />
		<tag k="place" v="isolated_dwelling" />
		<tag k="ssr:stedsnr" v="229532" />
	</node>
	<node id="-827806" lat="65.013266671" lon="11.804172217">
		<tag k="name" v="Rønningen" />
		<tag k="place" v="farm" />
		<tag k="ssr:stedsnr" v="229262" />
	</node>
	<node id="-829847" lat="64.9264611097" lon="11.8948055552">
		<tag k="name" v="Sandvika" />
>>>>>>> e1d4bc35ff8a6074a6f2e91616a996b547c36f15
		<tag k="place" v="farm" />
		<tag k="ssr:stedsnr" v="560389" />
	</node>
<<<<<<< HEAD
	<node lat="64.87528333627445" lon="11.42326665658357" id="-38964">
		<tag k="name" v="Vestre Sørå" />
		<tag k="place" v="farm" />
		<tag k="ssr:stedsnr" v="560395" />
	</node>
	<node lat="64.90846111330231" lon="11.810216667199528" id="-38965">
		<tag k="name" v="Buvika" />
		<tag k="place" v="farm" />
		<tag k="ssr:stedsnr" v="560534" />
	</node>
	<node lat="64.921427776526" lon="11.723324999511128" id="-38966">
		<tag k="name" v="Moen" />
		<tag k="place" v="farm" />
		<tag k="ssr:stedsnr" v="560535" />
	</node>
	<node lat="64.90585833637729" lon="10.969880564298952" id="-38968">
		<tag k="fixme" v="consider place=hamlet" />
		<tag k="name" v="Kvernvika" />
		<tag k="place" v="farm" />
		<tag k="ssr:stedsnr" v="560587" />
	</node>
	<node lat="64.85018611038761" lon="11.196711121106745" id="-38982">
		<tag k="name" v="Nordtun" />
		<tag k="place" v="farm" />
		<tag k="ssr:stedsnr" v="560801" />
	</node>
	<node lat="64.85365577168585" lon="10.84479441696119" id="-38986">
		<tag k="fixme" v="consider place=hamlet" />
		<tag k="name" v="Vågsenget" />
		<tag k="place" v="farm" />
		<tag k="ssr:stedsnr" v="560967" />
	</node>
	<node lat="64.87699999970978" lon="10.877402785774345" id="-38991">
		<tag k="name" v="Nordvika" />
		<tag k="place" v="isolated_dwelling" />
		<tag k="ssr:stedsnr" v="560884" />
	</node>
	<node lat="64.88276666885886" lon="10.996950007189767" id="-38993">
		<tag k="name" v="Vannhagan" />
		<tag k="place" v="isolated_dwelling" />
		<tag k="ssr:stedsnr" v="560894" />
	</node>
	<node lat="64.92972500195413" lon="11.459172225360042" id="-39014">
		<tag k="name" v="Reitmoen" />
		<tag k="place" v="isolated_dwelling" />
		<tag k="ssr:stedsnr" v="693145" />
	</node>
	<node lat="64.95544444223788" lon="11.03210556037323" id="-39016">
		<tag k="fixme" v="consider place=hamlet" />
		<tag k="name" v="Hasfjord" />
		<tag k="place" v="farm" />
		<tag k="ssr:stedsnr" v="693232" />
	</node>
	<node lat="64.94590833674141" lon="11.871638879148307" id="-39021">
		<tag k="historic" v="shieling" />
		<tag k="name" v="Kreklingsetran" />
		<tag k="place" v="isolated_dwelling" />
		<tag k="ssr:stedsnr" v="693262" />
	</node>
	<node lat="64.84568611154954" lon="11.25488889256801" id="-39042">
		<tag k="name" v="Marøystranda" />
		<tag k="place" v="farm" />
		<tag k="ssr:stedsnr" v="572902" />
	</node>
	<node lat="64.84990833329589" lon="11.2255555488732" id="-39048">
		<tag k="name" v="Vestvik" />
		<tag k="place" v="farm" />
		<tag k="ssr:stedsnr" v="573426" />
	</node>
	<node lat="64.85069722420941" lon="11.228330552772238" id="-39049">
		<tag k="name" v="Smevikaunet" />
		<tag k="place" v="farm" />
		<tag k="ssr:stedsnr" v="573428" />
	</node>
	<node lat="64.95922221917797" lon="12.102597214130686" id="-39072">
		<tag k="name" v="Ånnvika" />
		<tag k="place" v="locality" />
		<tag k="ssr:stedsnr" v="695363" />
	</node>
	<node lat="64.88680833364106" lon="10.826997232689719" id="-39109">
		<tag k="name" v="Lund" />
		<tag k="place" v="isolated_dwelling" />
		<tag k="ssr:stedsnr" v="593152" />
	</node>
	<node lat="64.87321111094778" lon="12.059844453172474" id="-39139">
		<tag k="name" v="Åsvasskroken" />
		<tag k="place" v="isolated_dwelling" />
		<tag k="ssr:stedsnr" v="598798" />
	</node>
	<node lat="64.90235277822238" lon="11.266211115502486" id="-39159">
		<tag k="name" v="Klasmoen" />
		<tag k="place" v="farm" />
		<tag k="ssr:stedsnr" v="621068" />
	</node>
	<node lat="64.93946666894152" lon="11.49569167368661" id="-39163">
		<tag k="alt_name" v="Skarstad" />
		<tag k="name" v="Skardstad" />
		<tag k="place" v="farm" />
		<tag k="ssr:stedsnr" v="621206" />
	</node>
	<node lat="65.0186555598938" lon="12.129969444801358" id="-39180">
		<tag k="name" v="Grønlandssætra" />
		<tag k="place" v="locality" />
		<tag k="ssr:stedsnr" v="621179" />
	</node>
	<node lat="64.82109444048456" lon="11.293747216997991" id="-39186">
		<tag k="name" v="Nyheim" />
		<tag k="place" v="farm" />
		<tag k="ssr:stedsnr" v="621306" />
	</node>
	<node lat="64.82153333438232" lon="11.285080556751478" id="-39187">
		<tag k="alt_name" v="Svenninga" />
		<tag k="name" v="Svenningan" />
		<tag k="place" v="farm" />
		<tag k="ssr:stedsnr" v="621308" />
	</node>
	<node lat="64.82885278098445" lon="11.261963898976454" id="-39191">
		<tag k="name" v="Flosanden" />
		<tag k="place" v="farm" />
		<tag k="ssr:stedsnr" v="621270" />
	</node>
	<node lat="64.87481666968644" lon="11.428208326109353" id="-39193">
		<tag k="name" v="Buvollan" />
		<tag k="place" v="farm" />
		<tag k="ssr:stedsnr" v="621412" />
	</node>
	<node lat="64.87423055670014" lon="11.293211103568584" id="-39194">
		<tag k="name" v="Odden" />
		<tag k="place" v="farm" />
		<tag k="ssr:stedsnr" v="621422" />
	</node>
	<node lat="64.86185277799528" lon="11.23968612015093" id="-39195">
		<tag k="name" v="Rørvik" />
		<tag k="place" v="town" />
		<tag k="ssr:stedsnr" v="621466" />
	</node>
	<node lat="64.85448611241374" lon="11.530902770948773" id="-39197">
		<tag k="name" v="Neset" />
		<tag k="place" v="farm" />
		<tag k="ssr:stedsnr" v="621475" />
	</node>
	<node lat="64.9015527787196" lon="11.109172215271398" id="-39203">
		<tag k="name" v="Søraunet" />
		<tag k="place" v="farm" />
		<tag k="ssr:stedsnr" v="621617" />
	</node>
	<node lat="64.94522777788396" lon="11.961402767978877" id="-39204">
		<tag k="name" v="Årstad" />
		<tag k="place" v="farm" />
		<tag k="ssr:stedsnr" v="621618" />
	</node>
	<node lat="64.91568888757006" lon="11.809483333714494" id="-39213">
		<tag k="name" v="Rokkskogen" />
		<tag k="place" v="farm" />
		<tag k="ssr:stedsnr" v="621585" />
	</node>
	<node lat="64.83920833787005" lon="11.102136102535033" id="-39224">
		<tag k="name" v="Skogan" />
		<tag k="place" v="farm" />
		<tag k="ssr:stedsnr" v="621819" />
	</node>
	<node lat="64.8802068554215" lon="10.953899037908666" id="-39238">
		<tag k="fixme" v="consider place=hamlet" />
		<tag k="name" v="Garstad" />
		<tag k="place" v="farm" />
		<tag k="ssr:stedsnr" v="621911" />
	</node>
	<node lat="64.87137221808389" lon="10.891602785462604" id="-39243">
		<tag k="name" v="Sør-Breivika" />
		<tag k="place" v="farm" />
		<tag k="ssr:stedsnr" v="621978" />
	</node>
	<node lat="64.91233610981936" lon="10.988941660400547" id="-39286">
		<tag k="name" v="Brattmoen" />
		<tag k="place" v="farm" />
		<tag k="ssr:stedsnr" v="648599" />
	</node>
	<node lat="64.75711944532006" lon="11.317180555330625" id="-39297">
		<tag k="name" v="Aspmoen" />
		<tag k="place" v="isolated_dwelling" />
		<tag k="ssr:stedsnr" v="650336" />
	</node>
	<node lat="64.88021389186095" lon="11.045836111182066" id="-39306">
		<tag k="alt_name" v="Svoltnenget;Svoltenenget" />
		<tag k="name" v="Vågøyhamna" />
		<tag k="place" v="farm" />
		<tag k="ssr:stedsnr" v="653631" />
	</node>
	<node lat="64.85863611518707" lon="10.826130547632657" id="-39312">
		<tag k="name" v="Roaldsvika" />
		<tag k="place" v="isolated_dwelling" />
		<tag k="ssr:stedsnr" v="654140" />
	</node>
	<node lat="64.93309722024762" lon="11.207788881145316" id="-39321">
		<tag k="name" v="Anevika" />
		<tag k="place" v="isolated_dwelling" />
		<tag k="ssr:stedsnr" v="654309" />
	</node>
	<node lat="64.74504166581345" lon="11.232405548066572" id="-39361">
		<tag k="alt_name" v="Ramstad Øvre" />
		<tag k="name" v="Øvre Ramstad" />
		<tag k="place" v="farm" />
		<tag k="ssr:stedsnr" v="709610" />
	</node>
	<node lat="64.89147222244522" lon="11.066333330882228" id="-39373">
		<tag k="fixme" v="multiple name tags, choose one and add the other to alt_name" />
		<tag k="name" v="Vestre Setnøya;Setnøya" />
		<tag k="place" v="farm" />
		<tag k="ssr:stedsnr" v="891112" />
	</node>
	<node lat="64.86260555784332" lon="11.599100006155242" id="-39374">
		<tag k="amenity" v="school" />
		<tag k="name" v="Nærøy ungdomsskole" />
		<tag k="ssr:stedsnr" v="891285" />
	</node>
	<node lat="64.74810555871095" lon="11.240036110557648" id="-39378">
		<tag k="alt_name" v="Ramstad Østre" />
		<tag k="name" v="Østre Ramstad" />
		<tag k="place" v="farm" />
		<tag k="ssr:stedsnr" v="891643" />
	</node>
	<node lat="64.96378610716961" lon="12.200311105394496" id="-39381">
		<tag k="loc_name" v="Engan" />
		<tag k="name" v="Skardmoen" />
		<tag k="place" v="farm" />
		<tag k="ssr:stedsnr" v="681606" />
	</node>
	<node lat="64.92040913661704" lon="11.231891145408879" id="-39386">
		<tag k="fixme" v="consider place=hamlet" />
		<tag k="name" v="Flerenget" />
		<tag k="place" v="farm" />
		<tag k="ssr:stedsnr" v="682003" />
	</node>
	<node lat="64.9281750025935" lon="11.338555557116283" id="-39393">
		<tag k="name" v="Andvika" />
		<tag k="place" v="farm" />
		<tag k="ssr:stedsnr" v="682244" />
	</node>
	<node lat="64.9253444466183" lon="11.316533330177561" id="-39394">
		<tag k="alt_name" v="Øygården" />
		<tag k="name" v="Ødegården" />
		<tag k="place" v="farm" />
		<tag k="ssr:stedsnr" v="682246" />
	</node>
	<node lat="64.99445000164735" lon="11.708052787623522" id="-39396">
		<tag k="name" v="Fagertun" />
		<tag k="place" v="farm" />
		<tag k="ssr:stedsnr" v="682166" />
	</node>
	<node lat="64.82296111198127" lon="11.530875010142069" id="-39397">
		<tag k="name" v="Sørheim" />
		<tag k="place" v="farm" />
		<tag k="ssr:stedsnr" v="682308" />
	</node>
	<node lat="64.82031944727635" lon="11.531994442378513" id="-39398">
		<tag k="name" v="Tømmermoen" />
		<tag k="place" v="farm" />
		<tag k="ssr:stedsnr" v="682314" />
	</node>
	<node lat="64.81723530634271" lon="11.263087072747833" id="-39399">
		<tag k="fixme" v="consider place=hamlet" />
		<tag k="name" v="Lundring" />
		<tag k="place" v="farm" />
		<tag k="ssr:stedsnr" v="682321" />
	</node>
	<node lat="64.84460277489454" lon="11.311597231303441" id="-39411">
		<tag k="fixme" v="multiple name tags, choose one and add the other to alt_name" />
		<tag k="name" v="Nyvoll;Vikmoen" />
		<tag k="place" v="farm" />
		<tag k="ssr:stedsnr" v="682507" />
	</node>
	<node lat="64.84750833398229" lon="11.285955555833702" id="-39413">
		<tag k="name" v="Lørdagsvika" />
		<tag k="place" v="farm" />
		<tag k="ssr:stedsnr" v="682512" />
	</node>
	<node lat="64.93275905833438" lon="12.193975614559463" id="-39420">
		<tag k="fixme" v="consider place=hamlet" />
		<tag k="name" v="Bogan" />
		<tag k="place" v="farm" />
		<tag k="ssr:stedsnr" v="682608" />
	</node>
	<node lat="64.9295444461579" lon="11.748649993642609" id="-39422">
		<tag k="name" v="Jonsrud" />
		<tag k="place" v="farm" />
		<tag k="ssr:stedsnr" v="682611" />
	</node>
	<node lat="64.95134574683324" lon="12.239796351784832" id="-39434">
		<tag k="fixme" v="consider place=hamlet" />
		<tag k="name" v="Holand" />
		<tag k="place" v="farm" />
		<tag k="ssr:stedsnr" v="682855" />
	</node>
	<node lat="64.77425833417473" lon="11.797005562241372" id="-39444">
		<tag k="name" v="Monsøysetran" />
		<tag k="place" v="isolated_dwelling" />
		<tag k="ssr:stedsnr" v="682926" />
	</node>
	<node lat="64.82669999646762" lon="11.594880546110815" id="-39446">
		<tag k="name" v="Permoen" />
		<tag k="place" v="farm" />
		<tag k="ssr:stedsnr" v="893053" />
	</node>
	<node lat="64.77157222607632" lon="11.365775009919107" id="-39451">
		<tag k="name" v="Haugen" />
=======
	<node id="-827791" lat="64.962100004" lon="12.0216888818">
		<tag k="name" v="Leirvik" />
		<tag k="place" v="farm" />
		<tag k="ssr:stedsnr" v="28341" />
	</node>
	<node id="-829832" lat="64.8875555544" lon="10.8792388947">
		<tag k="name" v="Lauvset" />
		<tag k="place" v="farm" />
		<tag k="ssr:stedsnr" v="682942" />
	</node>
	<node id="-827778" lat="64.8783472225" lon="11.2666000067">
		<tag k="name" v="Lundemo" />
		<tag k="place" v="farm" />
		<tag k="ssr:stedsnr" v="27406" />
	</node>
	<node id="-829825" lat="64.8622111155" lon="10.8264611173">
		<tag k="name" v="Myra" />
		<tag k="place" v="farm" />
		<tag k="ssr:stedsnr" v="682987" />
	</node>
	<node id="-829821" lat="64.7467472251" lon="11.2325027784">
		<tag k="fixme" v="consider place=hamlet" />
		<tag k="name" v="Ramstad" />
		<tag k="place" v="farm" />
		<tag k="ssr:stedsnr" v="682801" />
	</node>
	<node id="-831867" lat="64.9786000007" lon="11.8353361153">
		<tag k="name" v="Øvermoen" />
		<tag k="place" v="isolated_dwelling" />
		<tag k="ssr:stedsnr" v="75685" />
	</node>
	<node id="-829818" lat="64.7659083326" lon="11.4135805548">
		<tag k="name" v="Hamlandsvika" />
		<tag k="place" v="farm" />
		<tag k="ssr:stedsnr" v="682765" />
	</node>
	<node id="-829817" lat="64.9471415336" lon="12.3075439035">
		<tag k="fixme" v="consider place=hamlet" />
		<tag k="name" v="Teplingan" />
		<tag k="place" v="farm" />
		<tag k="ssr:stedsnr" v="682876" />
	</node>
	<node id="-831863" lat="64.9819888901" lon="12.1802583389">
		<tag k="name" v="Botnet" />
		<tag k="place" v="farm" />
		<tag k="ssr:stedsnr" v="75668" />
	</node>
	<node id="-827766" lat="64.8120638925" lon="11.3639944449">
		<tag k="name" v="Varøya" />
		<tag k="place" v="farm" />
		<tag k="ssr:stedsnr" v="226181" />
	</node>
	<node id="-831860" lat="64.9702833357" lon="12.0967277747">
		<tag k="name" v="Lømoen" />
		<tag k="place" v="farm" />
		<tag k="ssr:stedsnr" v="75664" />
	</node>
	<node id="-829811" lat="64.98703908" lon="11.7354237431">
		<tag k="name" v="Årlia" />
		<tag k="place" v="farm" />
		<tag k="ssr:stedsnr" v="682738" />
	</node>
	<node id="-831855" lat="64.9600499996" lon="12.2174361062">
		<tag k="name" v="Øverås" />
		<tag k="place" v="farm" />
		<tag k="ssr:stedsnr" v="75643" />
	</node>
	<node id="-827758" lat="64.8039388909" lon="11.4342444511">
		<tag k="name" v="Moan" />
		<tag k="place" v="farm" />
		<tag k="ssr:stedsnr" v="226147" />
	</node>
	<node id="-827753" lat="64.8162861114" lon="11.5152749983">
		<tag k="name" v="Strandeng" />
		<tag k="place" v="farm" />
		<tag k="ssr:stedsnr" v="226128" />
	</node>
	<node id="-829797" lat="64.9702916661" lon="12.0947611049">
		<tag k="name" v="Groftbuenget" />
>>>>>>> e1d4bc35ff8a6074a6f2e91616a996b547c36f15
		<tag k="place" v="farm" />
		<tag k="ssr:stedsnr" v="893151" />
	</node>
<<<<<<< HEAD
	<node lat="64.82474999934263" lon="11.41390000451611" id="-39454">
		<tag k="name" v="Valmyra" />
		<tag k="place" v="hamlet" />
		<tag k="ssr:stedsnr" v="893810" />
	</node>
	<node lat="64.96611110994981" lon="11.937886107693988" id="-39469">
		<tag k="historic" v="shieling" />
		<tag k="name" v="Sørlisetran" />
		<tag k="place" v="isolated_dwelling" />
		<tag k="ssr:stedsnr" v="692174" />
	</node>
	<node lat="64.99740277610167" lon="11.720180564451445" id="-39533">
		<tag k="name" v="Myrvang" />
		<tag k="place" v="isolated_dwelling" />
		<tag k="ssr:stedsnr" v="897456" />
	</node>
	<node lat="64.86709722558766" lon="11.093222219774649" id="-39542">
		<tag k="name" v="Kleivan" />
		<tag k="place" v="farm" />
		<tag k="ssr:stedsnr" v="897552" />
	</node>
	<node lat="64.93433888466251" lon="11.665408330615389" id="-39548">
		<tag k="name" v="Vangsås" />
		<tag k="place" v="locality" />
		<tag k="ssr:stedsnr" v="897593" />
	</node>
	<node lat="64.89704444761168" lon="10.856663891228427" id="-39558">
		<tag k="name" v="Solli" />
		<tag k="place" v="locality" />
		<tag k="ssr:stedsnr" v="897799" />
	</node>
	<node lat="64.78335555985711" lon="11.811908336420528" id="-39563">
		<tag k="fixme" v="consider place=hamlet" />
		<tag k="name" v="Salvika" />
		<tag k="place" v="farm" />
		<tag k="ssr:stedsnr" v="711019" />
	</node>
	<node lat="64.75087777516876" lon="11.300008335088776" id="-39566">
		<tag k="name" v="Krokan" />
		<tag k="place" v="farm" />
		<tag k="ssr:stedsnr" v="711140" />
	</node>
	<node lat="64.84529166697386" lon="11.520802767900957" id="-39569">
		<tag k="fixme" v="consider place=hamlet" />
		<tag k="name" v="Horvereid" />
		<tag k="place" v="farm" />
		<tag k="ssr:stedsnr" v="711108" />
	</node>
	<node lat="64.9203055536698" lon="11.565741664570098" id="-39580">
		<tag k="building" v="industrial" />
		<tag k="name" v="Nergården" />
		<tag k="ssr:stedsnr" v="712129" />
	</node>
	<node lat="64.9103333638323" lon="11.24977300673704" id="-39581">
		<tag k="fixme" v="consider place=hamlet" />
		<tag k="name" v="Sildnesstranda" />
		<tag k="place" v="farm" />
		<tag k="ssr:stedsnr" v="898300" />
	</node>
	<node lat="64.9946027779507" lon="11.720180564790281" id="-39601">
		<tag k="name" v="Austvang" />
		<tag k="place" v="farm" />
		<tag k="ssr:stedsnr" v="715524" />
	</node>
	<node lat="64.93700555729764" lon="11.089683333474374" id="-39609">
		<tag k="name" v="Korsenget" />
		<tag k="place" v="isolated_dwelling" />
		<tag k="ssr:stedsnr" v="715707" />
	</node>
	<node lat="65.03317222035615" lon="11.753502772415002" id="-39613">
		<tag k="name" v="Elvheim" />
		<tag k="place" v="isolated_dwelling" />
		<tag k="ssr:stedsnr" v="715937" />
	</node>
	<node lat="64.79485277633817" lon="11.760780551704077" id="-39614">
		<tag k="name" v="Barnesvika" />
		<tag k="place" v="isolated_dwelling" />
		<tag k="ssr:stedsnr" v="717107" />
	</node>
	<node lat="64.77897222415334" lon="11.771438880201897" id="-39616">
		<tag k="fixme" v="multiple name tags, choose one and add the other to alt_name; consider place=hamlet" />
		<tag k="name" v="Hjelmsøya;Monsøya" />
		<tag k="place" v="farm" />
		<tag k="ssr:stedsnr" v="899083" />
	</node>
	<node lat="64.82897499702067" lon="11.299500004295442" id="-39638">
		<tag k="name" v="Staverenget" />
		<tag k="place" v="farm" />
		<tag k="ssr:stedsnr" v="742244" />
	</node>
	<node lat="64.98442304689885" lon="11.625321510675258" id="-39639">
		<tag k="fixme" v="consider place=hamlet" />
		<tag k="name" v="Eiternes" />
		<tag k="place" v="farm" />
		<tag k="ssr:stedsnr" v="742136" />
	</node>
	<node lat="64.93822872379585" lon="11.049425134103066" id="-39643">
		<tag k="fixme" v="consider place=hamlet" />
		<tag k="name" v="Yttersund" />
		<tag k="place" v="farm" />
		<tag k="ssr:stedsnr" v="742486" />
	</node>
	<node lat="64.9290000011708" lon="11.07893610559097" id="-39646">
		<tag k="fixme" v="consider place=hamlet" />
		<tag k="name" v="Drag" />
		<tag k="place" v="village" />
		<tag k="ssr:stedsnr" v="742584" />
	</node>
	<node lat="64.8727316951376" lon="11.140251803716342" id="-39656">
		<tag k="name" v="Tømmervika" />
		<tag k="place" v="locality" />
		<tag k="ssr:stedsnr" v="742896" />
	</node>
	<node lat="64.90233333399958" lon="11.360786107696137" id="-39662">
		<tag k="name" v="Moen" />
		<tag k="place" v="farm" />
		<tag k="ssr:stedsnr" v="743113" />
	</node>
	<node lat="64.81405120876276" lon="11.400185393030537" id="-39665">
		<tag k="name" v="Åsli" />
		<tag k="place" v="locality" />
		<tag k="ssr:stedsnr" v="743331" />
	</node>
	<node lat="64.84378888692883" lon="11.514624991537064" id="-39674">
		<tag k="name" v="Horvereid" />
		<tag k="place" v="farm" />
		<tag k="ssr:stedsnr" v="743479" />
	</node>
	<node lat="64.96448888767772" lon="11.734441666331133" id="-39678">
		<tag k="name" v="Tømmervika" />
		<tag k="place" v="farm" />
		<tag k="ssr:stedsnr" v="743631" />
	</node>
	<node lat="64.95111990645094" lon="12.174980304037362" id="-39696">
		<tag k="fixme" v="consider place=hamlet" />
		<tag k="name" v="Berg" />
		<tag k="place" v="farm" />
		<tag k="ssr:stedsnr" v="743598" />
	</node>
	<node lat="64.8635972198077" lon="11.547450003021378" id="-39738">
		<tag k="alt_name" v="Mulstadaunet Vestre" />
		<tag k="fixme" v="multiple name tags, choose one and add the other to alt_name" />
		<tag k="name" v="Mulstadaunet;Vestre Mulstadaunet" />
		<tag k="place" v="farm" />
		<tag k="ssr:stedsnr" v="905687" />
	</node>
	<node lat="64.86983333656512" lon="11.236233342058243" id="-39741">
		<tag k="amenity" v="school" />
		<tag k="name" v="Rørvik skole" />
		<tag k="ssr:stedsnr" v="770244" />
	</node>
	<node lat="64.77508333587396" lon="11.37001667306925" id="-39753">
		<tag k="name" v="Herseidet" />
		<tag k="place" v="farm" />
		<tag k="ssr:stedsnr" v="772159" />
	</node>
	<node lat="65.03904860983268" lon="11.84485911709638" id="-39769">
		<tag k="fixme" v="consider place=hamlet" />
		<tag k="name" v="Selliset" />
		<tag k="place" v="farm" />
		<tag k="ssr:stedsnr" v="775409" />
	</node>
	<node lat="64.91285278186946" lon="10.99659722583815" id="-39804">
		<tag k="name" v="Gravsetmoen" />
		<tag k="place" v="farm" />
		<tag k="ssr:stedsnr" v="909668" />
	</node>
	<node lat="64.79004167100881" lon="11.290077768554504" id="-39812">
		<tag k="name" v="Skardet" />
		<tag k="place" v="farm" />
		<tag k="ssr:stedsnr" v="803372" />
	</node>
	<node lat="64.79296110899057" lon="11.307924998748351" id="-39813">
		<tag k="name" v="Nordgård" />
		<tag k="place" v="farm" />
		<tag k="ssr:stedsnr" v="803376" />
	</node>
	<node lat="64.93719999858045" lon="11.626563891822087" id="-39816">
		<tag k="name" v="Hemmingstranda" />
		<tag k="place" v="farm" />
		<tag k="ssr:stedsnr" v="803204" />
	</node>
	<node lat="64.82960277712422" lon="11.347055562913273" id="-39820">
		<tag k="fixme" v="multiple name tags, choose one and add the other to alt_name" />
		<tag k="name" v="Storenget;Nyland" />
		<tag k="place" v="farm" />
		<tag k="ssr:stedsnr" v="803281" />
	</node>
	<node lat="64.97301110770485" lon="10.9305055517155" id="-39828">
		<tag k="name" v="Borg" />
		<tag k="place" v="locality" />
		<tag k="ssr:stedsnr" v="803714" />
	</node>
	<node lat="64.92823055695976" lon="11.188922225695775" id="-39837">
		<tag k="name" v="Åsvika" />
		<tag k="place" v="farm" />
		<tag k="ssr:stedsnr" v="803625" />
	</node>
	<node lat="64.8691333292874" lon="10.85101667338484" id="-39848">
		<tag k="name" v="Osa" />
		<tag k="place" v="farm" />
		<tag k="ssr:stedsnr" v="803983" />
	</node>
	<node lat="64.8712083342271" lon="10.887936107658224" id="-39849">
		<tag k="name" v="Bjørvika" />
		<tag k="place" v="farm" />
		<tag k="ssr:stedsnr" v="803984" />
	</node>
	<node lat="64.89986744367508" lon="11.291540316394688" id="-39850">
		<tag k="fixme" v="consider place=hamlet" />
		<tag k="name" v="Stakkskardet" />
		<tag k="old_name" v="Stakskaret" />
		<tag k="place" v="farm" />
		<tag k="ssr:stedsnr" v="804116" />
	</node>
	<node lat="64.92173055905549" lon="11.56449999451434" id="-39852">
		<tag k="fixme" v="consider place=hamlet" />
		<tag k="name" v="Nubbdal" />
		<tag k="place" v="farm" />
		<tag k="ssr:stedsnr" v="804031" />
	</node>
	<node lat="64.85979999682462" lon="11.535158338397352" id="-39854">
		<tag k="name" v="Mulstadlia" />
		<tag k="place" v="farm" />
		<tag k="ssr:stedsnr" v="804439" />
	</node>
	<node lat="64.85688822772255" lon="11.670327033945924" id="-39856">
		<tag k="name" v="Litlstranda" />
		<tag k="place" v="farm" />
		<tag k="ssr:stedsnr" v="804450" />
	</node>
	<node lat="64.85885000066222" lon="11.649394438240556" id="-39857">
		<tag k="name" v="Austvika" />
		<tag k="place" v="farm" />
		<tag k="ssr:stedsnr" v="804452" />
	</node>
	<node lat="64.86016110792822" lon="11.556513883689208" id="-39858">
		<tag k="name" v="Åneset" />
		<tag k="place" v="farm" />
		<tag k="ssr:stedsnr" v="804454" />
	</node>
	<node lat="64.80930833748155" lon="11.37248332566151" id="-39865">
		<tag k="name" v="Fagerheim" />
		<tag k="place" v="farm" />
		<tag k="ssr:stedsnr" v="804368" />
	</node>
	<node lat="64.96703055869918" lon="12.077697224544675" id="-39866">
		<tag k="name" v="Øystergården" />
		<tag k="place" v="farm" />
		<tag k="ssr:stedsnr" v="804653" />
	</node>
	<node lat="64.91572777909492" lon="10.973899993480144" id="-39932">
		<tag k="alt_name" v="Sjyenget" />
		<tag k="name" v="Sjøenget" />
		<tag k="place" v="isolated_dwelling" />
		<tag k="ssr:stedsnr" v="924558" />
	</node>
	<node lat="65.01718662367486" lon="11.835404650993583" id="-39933">
		<tag k="fixme" v="consider place=hamlet" />
		<tag k="name" v="Kil" />
		<tag k="place" v="farm" />
		<tag k="ssr:stedsnr" v="924151" />
	</node>
	<node lat="65.02701944222731" lon="11.805280553563884" id="-39937">
		<tag k="name" v="Solvang" />
		<tag k="place" v="isolated_dwelling" />
		<tag k="ssr:stedsnr" v="836237" />
	</node>
	<node lat="64.99885277391525" lon="11.722405551512418" id="-39940">
		<tag k="fixme" v="consider place=hamlet" />
		<tag k="name" v="Kaldvika" />
		<tag k="place" v="village" />
		<tag k="ssr:stedsnr" v="836511" />
	</node>
	<node lat="64.81106388504915" lon="11.386144433586036" id="-39958">
		<tag k="alt_name" v="Fagervollen" />
		<tag k="name" v="Fagervoll" />
		<tag k="place" v="farm" />
		<tag k="ssr:stedsnr" v="924300" />
	</node>
	<node lat="64.91191388493245" lon="10.844408337430409" id="-39963">
		<tag k="name" v="Nyheim" />
		<tag k="place" v="farm" />
		<tag k="ssr:stedsnr" v="924589" />
	</node>
	<node lat="64.92572777756541" lon="11.013141674494355" id="-39964">
		<tag k="name" v="Aurstad" />
		<tag k="place" v="locality" />
		<tag k="ssr:stedsnr" v="924475" />
	</node>
	<node lat="64.92675555514138" lon="11.019972222676255" id="-39965">
		<tag k="name" v="Dragvika" />
		<tag k="place" v="locality" />
		<tag k="ssr:stedsnr" v="924476" />
	</node>
	<node lat="64.93368055903558" lon="10.919755551381519" id="-39966">
		<tag k="name" v="Småvollan" />
		<tag k="place" v="farm" />
		<tag k="ssr:stedsnr" v="924481" />
	</node>
	<node lat="65.0654027819643" lon="11.957199992894505" id="-39987">
		<tag k="name" v="Åsheim" />
		<tag k="place" v="farm" />
		<tag k="ssr:stedsnr" v="841810" />
	</node>
	<node lat="64.87375555276078" lon="10.847516667650263" id="-39993">
		<tag k="name" v="Dysjan" />
		<tag k="place" v="farm" />
		<tag k="ssr:stedsnr" v="924970" />
	</node>
	<node lat="64.92420833009882" lon="11.48583056290993" id="-39998">
		<tag k="name" v="Bjørge" />
		<tag k="place" v="farm" />
		<tag k="ssr:stedsnr" v="925025" />
	</node>
	<node lat="64.94925277751784" lon="11.510177787108104" id="-40009">
		<tag k="alt_name" v="Nord-Tangen" />
		<tag k="name" v="Nordtangen" />
		<tag k="place" v="isolated_dwelling" />
		<tag k="ssr:stedsnr" v="925171" />
	</node>
	<node lat="64.96016944752985" lon="11.66193610962527" id="-40018">
		<tag k="name" v="Osplia" />
		<tag k="place" v="farm" />
		<tag k="ssr:stedsnr" v="925183" />
	</node>
	<node lat="65.03460035220225" lon="11.76605873144559" id="-40028">
		<tag k="fixme" v="consider place=hamlet" />
		<tag k="name" v="Heller" />
		<tag k="place" v="farm" />
		<tag k="ssr:stedsnr" v="925156" />
	</node>
	<node lat="64.92540558439647" lon="11.483621267490761" id="-40040">
		<tag k="name" v="Bakkan" />
		<tag k="place" v="farm" />
		<tag k="ssr:stedsnr" v="925247" />
	</node>
	<node lat="64.81030991021723" lon="11.2868200961215" id="-40044">
		<tag k="fixme" v="consider place=hamlet" />
		<tag k="name" v="Rossøya" />
		<tag k="place" v="farm" />
		<tag k="ssr:stedsnr" v="925374" />
	</node>
	<node lat="64.80664999687103" lon="11.385436104469376" id="-40045">
		<tag k="name" v="Rønningan" />
		<tag k="place" v="farm" />
		<tag k="ssr:stedsnr" v="925380" />
	</node>
	<node lat="64.81500000066266" lon="11.535100008570183" id="-40046">
		<tag k="name" v="Skagasjøen" />
		<tag k="place" v="farm" />
		<tag k="ssr:stedsnr" v="925356" />
	</node>
	<node lat="64.86295000225212" lon="11.4104611147498" id="-40051">
		<tag k="name" v="Framnes" />
		<tag k="place" v="farm" />
		<tag k="ssr:stedsnr" v="925454" />
	</node>
	<node lat="64.84271110931523" lon="11.517350009886933" id="-40054">
		<tag k="fixme" v="multiple name tags, choose one and add the other to alt_name" />
		<tag k="name" v="Gjerdet;Horvereid" />
		<tag k="place" v="farm" />
		<tag k="ssr:stedsnr" v="925516" />
	</node>
	<node lat="64.84422222237889" lon="11.420936103335649" id="-40055">
		<tag k="name" v="Hestlia" />
		<tag k="place" v="farm" />
		<tag k="ssr:stedsnr" v="925520" />
	</node>
	<node lat="64.9699972201191" lon="10.905433323087935" id="-40057">
		<tag k="fixme" v="multiple name tags, choose one and add the other to alt_name" />
		<tag k="name" v="Borgan;Brasta" />
		<tag k="place" v="farm" />
		<tag k="ssr:stedsnr" v="846505" />
	</node>
	<node lat="64.83567777679332" lon="11.401419441765523" id="-40059">
		<tag k="alt_name" v="Bjønndalen" />
		<tag k="name" v="Bjørndal" />
		<tag k="place" v="farm" />
		<tag k="ssr:stedsnr" v="925526" />
	</node>
	<node lat="64.83788610837277" lon="11.400816674910248" id="-40060">
		<tag k="name" v="Nordbø" />
		<tag k="place" v="farm" />
		<tag k="ssr:stedsnr" v="925531" />
	</node>
	<node lat="64.91657499919204" lon="11.83901943728265" id="-40066">
		<tag k="name" v="Rønningsmoen" />
		<tag k="place" v="farm" />
		<tag k="ssr:stedsnr" v="925577" />
	</node>
	<node lat="64.9262861152462" lon="11.738841661941084" id="-40071">
		<tag k="name" v="Bakketun" />
		<tag k="place" v="farm" />
		<tag k="ssr:stedsnr" v="925592" />
	</node>
	<node lat="64.93342500200417" lon="11.758558342566587" id="-40072">
		<tag k="name" v="Bjørkås" />
		<tag k="place" v="isolated_dwelling" />
		<tag k="ssr:stedsnr" v="925596" />
	</node>
	<node lat="64.90778889082729" lon="10.838949998963962" id="-40073">
		<tag k="name" v="Lia" />
		<tag k="place" v="farm" />
		<tag k="ssr:stedsnr" v="925598" />
	</node>
	<node lat="64.90301420758914" lon="10.851730094685594" id="-40074">
		<tag k="fixme" v="consider place=hamlet" />
		<tag k="name" v="Ulsund" />
		<tag k="place" v="farm" />
		<tag k="ssr:stedsnr" v="925600" />
	</node>
	<node lat="64.95250000141515" lon="11.0580333411324" id="-40076">
		<tag k="name" v="Vestermoen" />
		<tag k="place" v="farm" />
		<tag k="ssr:stedsnr" v="925560" />
	</node>
	<node lat="64.95037500075021" lon="11.949177779109133" id="-40083">
		<tag k="name" v="Heimly" />
		<tag k="place" v="farm" />
		<tag k="ssr:stedsnr" v="925639" />
	</node>
	<node lat="64.96586110758491" lon="11.799416667068344" id="-40098">
		<tag k="name" v="Åsheim" />
		<tag k="place" v="farm" />
		<tag k="ssr:stedsnr" v="925660" />
	</node>
	<node lat="64.9600527758969" lon="11.784358323147675" id="-40099">
		<tag k="name" v="Skogstad" />
		<tag k="place" v="farm" />
		<tag k="ssr:stedsnr" v="925661" />
	</node>
	<node lat="64.9755916630263" lon="10.913397214760051" id="-40103">
		<tag k="name" v="Svanafloa" />
		<tag k="place" v="farm" />
		<tag k="ssr:stedsnr" v="925754" />
	</node>
	<node lat="64.84250926186279" lon="10.871291837567346" id="-40106">
=======
	<node id="-829794" lat="64.9045333353" lon="10.7971083354">
		<tag k="name" v="Sylta" />
		<tag k="place" v="farm" />
		<tag k="ssr:stedsnr" v="682650" />
	</node>
	<node id="-829793" lat="64.9137833317" lon="11.1926666604">
		<tag k="name" v="Laugen" />
		<tag k="place" v="farm" />
		<tag k="ssr:stedsnr" v="682645" />
	</node>
	<node id="-829787" lat="64.9458500032" lon="11.9599249976">
		<tag k="name" v="Bergheim" />
		<tag k="place" v="farm" />
		<tag k="ssr:stedsnr" v="682628" />
	</node>
	<node id="-831832" lat="64.9313777808" lon="11.7533805631">
		<tag k="name" v="Skogmo" />
		<tag k="place" v="farm" />
		<tag k="ssr:stedsnr" v="75582" />
	</node>
	<node id="-829782" lat="64.9295444462" lon="11.7486499936">
		<tag k="name" v="Jonsrud" />
		<tag k="place" v="farm" />
		<tag k="ssr:stedsnr" v="682611" />
	</node>
	<node id="-829780" lat="64.9327590583" lon="12.1939756146">
		<tag k="fixme" v="consider place=hamlet" />
		<tag k="name" v="Bogan" />
		<tag k="place" v="farm" />
		<tag k="ssr:stedsnr" v="682608" />
	</node>
	<node id="-831827" lat="64.9143653174" lon="11.8255191309">
		<tag k="fixme" v="consider place=hamlet" />
		<tag k="name" v="Rokka" />
		<tag k="place" v="farm" />
		<tag k="ssr:stedsnr" v="75559" />
	</node>
	<node id="-829778" lat="64.9288583321" lon="12.0227361183">
		<tag k="name" v="Varpmoen" />
		<tag k="place" v="farm" />
		<tag k="ssr:stedsnr" v="682603" />
	</node>
	<node id="-829775" lat="64.9576377797" lon="11.0088893423">
		<tag k="fixme" v="consider place=hamlet" />
		<tag k="name" v="Grunnan" />
		<tag k="place" v="farm" />
		<tag k="ssr:stedsnr" v="682591" />
	</node>
	<node id="-829773" lat="64.9472916653" lon="10.9432416686">
		<tag k="fixme" v="consider place=hamlet" />
		<tag k="name" v="Sylta" />
		<tag k="place" v="farm" />
		<tag k="ssr:stedsnr" v="682584" />
	</node>
	<node id="-827722" lat="64.8172527816" lon="11.8991861096">
		<tag k="alt_name" v="Synnesbrekka" />
		<tag k="name" v="Brekka" />
		<tag k="place" v="farm" />
		<tag k="ssr:stedsnr" v="15919" />
	</node>
	<node id="-831816" lat="64.8370607643" lon="11.2899783385">
		<tag k="name" v="Moritsøya" />
		<tag k="place" v="farm" />
		<tag k="ssr:stedsnr" v="75516" />
	</node>
	<node id="-831815" lat="64.8328138858" lon="11.3604500086">
		<tag k="name" v="Li" />
		<tag k="place" v="farm" />
		<tag k="ssr:stedsnr" v="75511" />
	</node>
	<node id="-829766" lat="64.844302776" lon="11.4952638964">
		<tag k="name" v="Lausetet" />
		<tag k="place" v="farm" />
		<tag k="ssr:stedsnr" v="682540" />
	</node>
	<node id="-831813" lat="64.8492833341" lon="11.5373138957">
		<tag k="name" v="Tømmervika" />
		<tag k="place" v="farm" />
		<tag k="ssr:stedsnr" v="75494" />
	</node>
	<node id="-829763" lat="64.8513694481" lon="11.3206333282">
		<tag k="name" v="Leirvika" />
		<tag k="place" v="farm" />
		<tag k="ssr:stedsnr" v="682497" />
	</node>
	<node id="-831810" lat="64.853259179" lon="11.4831254179">
		<tag k="fixme" v="consider place=hamlet" />
		<tag k="name" v="Nakling" />
		<tag k="place" v="farm" />
		<tag k="ssr:stedsnr" v="75463" />
	</node>
	<node id="-831809" lat="64.8616638872" lon="11.5962166621">
		<tag k="name" v="Kjerkåsen" />
		<tag k="place" v="isolated_dwelling" />
		<tag k="ssr:stedsnr" v="75455" />
	</node>
	<node id="-831808" lat="64.8629583363" lon="11.6984222226">
		<tag k="name" v="Setervika" />
		<tag k="place" v="farm" />
		<tag k="ssr:stedsnr" v="75440" />
	</node>
	<node id="-829758" lat="64.8405638919" lon="11.2915027719">
		<tag k="name" v="Liland" />
		<tag k="place" v="farm" />
		<tag k="ssr:stedsnr" v="682553" />
	</node>
	<node id="-829756" lat="64.7878861068" lon="11.3949138858">
		<tag k="name" v="Utheim" />
		<tag k="place" v="farm" />
		<tag k="ssr:stedsnr" v="682399" />
	</node>
	<node id="-829755" lat="64.7983000031" lon="11.4098638919">
		<tag k="name" v="Sjøbursenget" />
		<tag k="place" v="farm" />
		<tag k="ssr:stedsnr" v="682382" />
	</node>
	<node id="-831802" lat="64.7869755424" lon="11.4180041645">
		<tag k="fixme" v="consider place=hamlet" />
		<tag k="name" v="Lissval" />
		<tag k="place" v="farm" />
		<tag k="ssr:stedsnr" v="75381" />
	</node>
	<node id="-831801" lat="64.7902722184" lon="11.4005583334">
		<tag k="name" v="Valan" />
		<tag k="place" v="farm" />
		<tag k="ssr:stedsnr" v="75380" />
	</node>
	<node id="-827704" lat="64.8361833343" lon="11.3733111153">
		<tag k="name" v="Slettenget" />
		<tag k="place" v="farm" />
		<tag k="ssr:stedsnr" v="15520" />
	</node>
	<node id="-829750" lat="64.8495593004" lon="11.4077503449">
		<tag k="fixme" v="consider place=hamlet" />
		<tag k="name" v="Litlvea" />
		<tag k="place" v="farm" />
		<tag k="ssr:stedsnr" v="682494" />
	</node>
	<node id="-831797" lat="64.7993000004" lon="11.4246944417">
		<tag k="name" v="Myra" />
		<tag k="place" v="farm" />
		<tag k="ssr:stedsnr" v="75363" />
	</node>
	<node id="-829748" lat="64.8173361155" lon="11.5168750018">
		<tag k="name" v="Fagerli" />
		<tag k="place" v="farm" />
		<tag k="ssr:stedsnr" v="682345" />
	</node>
	<node id="-831795" lat="64.815799996" lon="11.6296972287">
		<tag k="alt_name" v="Nesset" />
		<tag k="name" v="Neset" />
		<tag k="place" v="farm" />
		<tag k="ssr:stedsnr" v="75331" />
	</node>
	<node id="-831792" lat="64.8172333313" lon="11.4395861121">
		<tag k="name" v="Berg" />
		<tag k="place" v="farm" />
		<tag k="ssr:stedsnr" v="75312" />
	</node>
	<node id="-831790" lat="64.8230277772" lon="11.5175333348">
		<tag k="name" v="Lauvåsen" />
		<tag k="place" v="farm" />
		<tag k="ssr:stedsnr" v="75291" />
	</node>
	<node id="-827693" lat="64.8048444464" lon="11.7871861135">
		<tag k="name" v="Setran" />
		<tag k="place" v="farm" />
		<tag k="ssr:stedsnr" v="14911" />
	</node>
	<node id="-831788" lat="64.8234333329" lon="11.4987888899">
		<tag k="name" v="Skagakorsen" />
		<tag k="place" v="isolated_dwelling" />
		<tag k="ssr:stedsnr" v="75286" />
	</node>
	<node id="-829739" lat="64.8172353063" lon="11.2630870727">
		<tag k="fixme" v="consider place=hamlet" />
		<tag k="name" v="Lundring" />
		<tag k="place" v="farm" />
		<tag k="ssr:stedsnr" v="682321" />
	</node>
	<node id="-831786" lat="64.8235333333" lon="11.4239888877">
		<tag k="name" v="Brekstad" />
		<tag k="place" v="farm" />
		<tag k="ssr:stedsnr" v="75283" />
	</node>
	<node id="-831785" lat="64.8308666643" lon="11.3952777869">
		<tag k="name" v="Bustad" />
		<tag k="place" v="farm" />
		<tag k="ssr:stedsnr" v="75279" />
	</node>
	<node id="-831784" lat="64.8257944451" lon="11.2759805658">
		<tag k="name" v="Vassenget" />
		<tag k="place" v="farm" />
		<tag k="ssr:stedsnr" v="75271" />
	</node>
	<node id="-829735" lat="64.9253444466" lon="11.3165333302">
		<tag k="alt_name" v="Øygården" />
		<tag k="name" v="Ødegården" />
		<tag k="place" v="farm" />
		<tag k="ssr:stedsnr" v="682246" />
	</node>
	<node id="-829734" lat="64.9281750026" lon="11.3385555571">
		<tag k="name" v="Andvika" />
		<tag k="place" v="farm" />
		<tag k="ssr:stedsnr" v="682244" />
	</node>
	<node id="-831781" lat="64.8294194448" lon="11.6146805609">
		<tag k="name" v="Høgmoen" />
		<tag k="place" v="farm" />
		<tag k="ssr:stedsnr" v="75262" />
	</node>
	<node id="-828806" lat="64.7460638931" lon="11.3318555557">
		<tag k="name" v="Løvmo" />
		<tag k="place" v="farm" />
		<tag k="ssr:stedsnr" v="257764" />
	</node>
	<node id="-827681" lat="64.9134974114" lon="11.1837243632">
		<tag k="fixme" v="consider place=hamlet" />
		<tag k="name" v="Vikestad" />
		<tag k="place" v="farm" />
		<tag k="ssr:stedsnr" v="14528" />
	</node>
	<node id="-831774" lat="64.8862305571" lon="11.2682916643">
		<tag k="name" v="Bakketun" />
		<tag k="place" v="farm" />
		<tag k="ssr:stedsnr" v="75085" />
	</node>
	<node id="-827677" lat="64.8467833289" lon="11.3779000055">
		<tag k="name" v="Moholt" />
		<tag k="place" v="farm" />
		<tag k="ssr:stedsnr" v="14412" />
	</node>
	<node id="-831772" lat="64.8818861069" lon="11.268811107">
		<tag k="name" v="Nordlund" />
		<tag k="place" v="farm" />
		<tag k="ssr:stedsnr" v="75080" />
	</node>
	<node id="-827675" lat="64.869841666" lon="11.2548944475">
		<tag k="name" v="Vikket" />
		<tag k="place" v="isolated_dwelling" />
		<tag k="ssr:stedsnr" v="14324" />
	</node>
	<node id="-829720" lat="64.8865249978" lon="11.3227194365">
		<tag k="name" v="Hestvika" />
		<tag k="place" v="farm" />
		<tag k="ssr:stedsnr" v="682126" />
	</node>
	<node id="-829719" lat="64.8965750044" lon="11.359586112">
		<tag k="fixme" v="consider place=hamlet" />
		<tag k="name" v="Torstad" />
		<tag k="place" v="village" />
		<tag k="ssr:stedsnr" v="682100" />
	</node>
	<node id="-831766" lat="64.9081194478" lon="11.5055694538">
		<tag k="name" v="Kobbsteinvika" />
		<tag k="place" v="locality" />
		<tag k="ssr:stedsnr" v="75025" />
	</node>
	<node id="-827669" lat="64.9087500001" lon="11.56881666">
		<tag k="name" v="Ærshylla" />
		<tag k="place" v="farm" />
		<tag k="ssr:stedsnr" v="14035" />
	</node>
	<node id="-829715" lat="64.9534750008" lon="11.685949998">
		<tag k="name" v="Osan" />
		<tag k="place" v="isolated_dwelling" />
		<tag k="ssr:stedsnr" v="682201" />
	</node>
	<node id="-827666" lat="64.9218500041" lon="11.2213861194">
		<tag k="name" v="Sandhalsen" />
		<tag k="place" v="farm" />
		<tag k="ssr:stedsnr" v="14014" />
	</node>
	<node id="-831758" lat="65.0033518816" lon="11.7619394098">
		<tag k="fixme" v="consider place=hamlet" />
		<tag k="name" v="Høkholm" />
		<tag k="place" v="farm" />
		<tag k="ssr:stedsnr" v="75190" />
	</node>
	<node id="-831756" lat="65.0108305601" lon="11.8051499972">
		<tag k="name" v="Løvollen" />
		<tag k="place" v="farm" />
		<tag k="ssr:stedsnr" v="75183" />
	</node>
	<node id="-829707" lat="64.9043805553" lon="11.2962555647">
		<tag k="fixme" v="consider place=hamlet" />
		<tag k="name" v="Storvika" />
		<tag k="place" v="farm" />
		<tag k="ssr:stedsnr" v="682044" />
	</node>
	<node id="-829703" lat="64.8933388918" lon="11.5777194381">
		<tag k="name" v="Kjellingaunet" />
		<tag k="place" v="farm" />
		<tag k="ssr:stedsnr" v="682080" />
	</node>
	<node id="-831747" lat="64.9924373065" lon="10.8097566026">
		<tag k="name" v="Korsholman" />
		<tag k="place" v="locality" />
		<tag k="ssr:stedsnr" v="58271" />
	</node>
	<node id="-831530" lat="64.7970726317" lon="11.7464578974">
		<tag k="fixme" v="consider place=hamlet" />
		<tag k="name" v="Galtneset" />
		<tag k="place" v="farm" />
		<tag k="ssr:stedsnr" v="15880" />
	</node>
	<node id="-829687" lat="64.9543611124" lon="12.2311833255">
		<tag k="name" v="Moen" />
		<tag k="place" v="farm" />
		<tag k="ssr:stedsnr" v="500853" />
	</node>
	<node id="-829685" lat="64.9589499965" lon="12.1889722264">
		<tag k="name" v="Finnmoen" />
		<tag k="place" v="farm" />
		<tag k="ssr:stedsnr" v="500658" />
	</node>
	<node id="-829684" lat="64.9434111134" lon="11.7232500002">
		<tag k="name" v="Bjørnviksetran" />
		<tag k="place" v="isolated_dwelling" />
		<tag k="ssr:stedsnr" v="500657" />
	</node>
	<node id="-829682" lat="64.9043493753" lon="11.1470085353">
		<tag k="fixme" v="consider place=hamlet" />
		<tag k="name" v="Lødding" />
		<tag k="place" v="farm" />
		<tag k="ssr:stedsnr" v="500652" />
	</node>
	<node id="-831726" lat="64.9159833373" lon="12.1178444532">
		<tag k="historic" v="shieling" />
		<tag k="name" v="Svarttjønnsetran" />
		<tag k="place" v="locality" />
		<tag k="ssr:stedsnr" v="52797" />
	</node>
	<node id="-829675" lat="64.8100257013" lon="11.7560834691">
		<tag k="name" v="Risviksetran" />
		<tag k="place" v="locality" />
		<tag k="ssr:stedsnr" v="500934" />
	</node>
	<node id="-829673" lat="64.8764527778" lon="11.042266666">
		<tag k="name" v="Stranda" />
		<tag k="place" v="farm" />
		<tag k="ssr:stedsnr" v="500918" />
	</node>
	<node id="-829671" lat="64.8816333331" lon="11.1081722283">
		<tag k="name" v="Tuftin" />
		<tag k="place" v="farm" />
		<tag k="ssr:stedsnr" v="500906" />
	</node>
	<node id="-829664" lat="64.9642999992" lon="12.043722212">
		<tag k="fixme" v="multiple name tags, choose one and add the other to alt_name" />
		<tag k="name" v="Naustenget;Åsheim" />
		<tag k="place" v="farm" />
		<tag k="ssr:stedsnr" v="500702" />
	</node>
	<node id="-829663" lat="64.8679972228" lon="11.7024666683">
		<tag k="alt_name" v="Blavika" />
		<tag k="name" v="Bladvika" />
		<tag k="place" v="isolated_dwelling" />
		<tag k="ssr:stedsnr" v="500500" />
	</node>
	<node id="-827823" lat="65.0071277804" lon="11.645963888">
		<tag k="name" v="Vestervika" />
		<tag k="place" v="isolated_dwelling" />
		<tag k="ssr:stedsnr" v="229881" />
	</node>
	<node id="-829655" lat="64.8602388922" lon="11.6023305486">
		<tag k="name" v="Åsly" />
		<tag k="place" v="farm" />
		<tag k="ssr:stedsnr" v="500523" />
	</node>
	<node id="-829653" lat="64.8599333348" lon="11.6282416771">
		<tag k="alt_name" v="Korsnesøra;Øyra" />
		<tag k="name" v="Øren" />
		<tag k="place" v="farm" />
		<tag k="ssr:stedsnr" v="500507" />
	</node>
	<node id="-829645" lat="65.0442111108" lon="11.8962722174">
		<tag k="fixme" v="consider place=hamlet" />
		<tag k="name" v="Kvernan" />
		<tag k="place" v="farm" />
		<tag k="ssr:stedsnr" v="500140" />
	</node>
	<node id="-831685" lat="64.8728583303" lon="11.0915277828">
		<tag k="name" v="Gjeilan" />
		<tag k="place" v="isolated_dwelling" />
		<tag k="ssr:stedsnr" v="47611" />
	</node>
	<node id="-831684" lat="64.8830444425" lon="11.1140611071">
		<tag k="name" v="Nord-Tuftin" />
		<tag k="place" v="isolated_dwelling" />
		<tag k="ssr:stedsnr" v="47608" />
	</node>
	<node id="-829631" lat="64.8034999988" lon="11.5146583246">
		<tag k="alt_name" v="Øksningen, vestre" />
		<tag k="fixme" v="multiple name tags, choose one and add the other to alt_name" />
		<tag k="name" v="Øksninga;Vestre Øksningen" />
		<tag k="place" v="farm" />
		<tag k="ssr:stedsnr" v="681332" />
	</node>
	<node id="-831678" lat="64.9934944481" lon="11.6728555648">
		<tag k="name" v="Rishaugen" />
		<tag k="place" v="farm" />
		<tag k="ssr:stedsnr" v="47495" />
	</node>
	<node id="-831676" lat="65.0431916701" lon="11.8914055461">
		<tag k="name" v="Kvernmoen" />
		<tag k="place" v="farm" />
		<tag k="ssr:stedsnr" v="47457" />
	</node>
	<node id="-831673" lat="64.9731944487" lon="11.8410333429">
		<tag k="name" v="Vårtun" />
		<tag k="place" v="isolated_dwelling" />
		<tag k="ssr:stedsnr" v="47337" />
	</node>
	<node id="-829624" lat="64.8083083378" lon="11.4577166617">
		<tag k="name" v="Skjåneset" />
		<tag k="place" v="farm" />
		<tag k="ssr:stedsnr" v="499260" />
	</node>
	<node id="-829619" lat="65.0281833314" lon="11.8542444364">
		<tag k="alt_name" v="Brattåa" />
		<tag k="name" v="Lundset" />
		<tag k="place" v="farm" />
		<tag k="ssr:stedsnr" v="499110" />
	</node>
	<node id="-829609" lat="64.8876138924" lon="10.7677972215">
		<tag k="name" v="Løvåg" />
		<tag k="place" v="farm" />
		<tag k="ssr:stedsnr" v="485059" />
	</node>
	<node id="-831643" lat="64.8460138855" lon="11.4297638835">
		<tag k="name" v="Midtbø" />
		<tag k="place" v="farm" />
		<tag k="ssr:stedsnr" v="44937" />
	</node>
	<node id="-829807" lat="64.9974166687" lon="11.7979500099">
		<tag k="name" v="Sørheim" />
		<tag k="place" v="farm" />
		<tag k="ssr:stedsnr" v="682728" />
	</node>
	<node id="-829591" lat="65.0004083298" lon="11.6843361179">
		<tag k="name" v="Sveet" />
		<tag k="place" v="farm" />
		<tag k="ssr:stedsnr" v="472511" />
	</node>
	<node id="-831637" lat="64.742854233" lon="11.2187768854">
		<tag k="name" v="Ramstad" />
		<tag k="place" v="farm" />
		<tag k="ssr:stedsnr" v="44222" />
	</node>
	<node id="-829588" lat="64.907833331" lon="11.5286166713">
>>>>>>> e1d4bc35ff8a6074a6f2e91616a996b547c36f15
		<tag k="fixme" v="consider place=hamlet" />
		<tag k="name" v="Langstranda" />
		<tag k="place" v="village" />
		<tag k="ssr:stedsnr" v="471033" />
	</node>
	<node id="-829578" lat="64.8333833328" lon="11.4042722166">
		<tag k="name" v="Østgård" />
		<tag k="place" v="farm" />
		<tag k="ssr:stedsnr" v="468119" />
	</node>
<<<<<<< HEAD
	<node lat="64.78044999888964" lon="11.388930557715394" id="-40112">
		<tag k="name" v="Engesneset" />
=======
	<node id="-829577" lat="64.8178111137" lon="11.521916665">
		<tag k="name" v="Litlenget" />
		<tag k="place" v="farm" />
		<tag k="ssr:stedsnr" v="468114" />
	</node>
	<node id="-829575" lat="64.8417111117" lon="11.4344999991">
		<tag k="fixme" v="consider place=hamlet" />
		<tag k="name" v="Rotvika" />
		<tag k="place" v="farm" />
		<tag k="ssr:stedsnr" v="468105" />
	</node>
	<node id="-831611" lat="64.8013361131" lon="11.80947777">
		<tag k="name" v="Bursvika" />
>>>>>>> e1d4bc35ff8a6074a6f2e91616a996b547c36f15
		<tag k="place" v="farm" />
		<tag k="ssr:stedsnr" v="43014" />
	</node>
<<<<<<< HEAD
	<node lat="64.87961111120107" lon="11.045169454392072" id="-40121">
		<tag k="alt_name" v="Svoltenenget;Edmundenget" />
		<tag k="name" v="Vågøyhamna" />
		<tag k="old_name" v="Vaagøhavnen" />
		<tag k="place" v="farm" />
		<tag k="ssr:stedsnr" v="925927" />
	</node>
	<node lat="64.80896388822754" lon="11.877391674128207" id="-40123">
		<tag k="name" v="Brottenget" />
		<tag k="place" v="isolated_dwelling" />
		<tag k="ssr:stedsnr" v="925940" />
	</node>
	<node lat="64.85169166664556" lon="10.781241657348565" id="-40128">
		<tag k="name" v="Øyadalen" />
		<tag k="place" v="farm" />
		<tag k="ssr:stedsnr" v="925955" />
	</node>
	<node lat="64.91069819602232" lon="11.500017161560347" id="-40133">
		<tag k="name" v="Bogen" />
		<tag k="place" v="farm" />
		<tag k="ssr:stedsnr" v="864039" />
	</node>
	<node lat="65.02455555542545" lon="11.84765000200706" id="-40140">
		<tag k="alt_name" v="Olderbotnet" />
		<tag k="name" v="Olderbotn" />
		<tag k="place" v="isolated_dwelling" />
		<tag k="ssr:stedsnr" v="864144" />
	</node>
	<node lat="64.93736567596886" lon="11.648703009651038" id="-40142">
		<tag k="alt_name" v="Røyrstranda" />
		<tag k="fixme" v="consider place=hamlet" />
		<tag k="name" v="Rørstranda" />
		<tag k="place" v="farm" />
		<tag k="ssr:stedsnr" v="864198" />
	</node>
	<node lat="64.81014721920239" lon="11.470780562568168" id="-40143">
		<tag k="name" v="Strandhaugan" />
=======
	<node id="-829557" lat="64.9127527811" lon="10.9644861129">
		<tag k="name" v="Seterneset" />
		<tag k="place" v="farm" />
		<tag k="ssr:stedsnr" v="452617" />
	</node>
	<node id="-831604" lat="64.8954777774" lon="11.0777361148">
		<tag k="name" v="Setnøya" />
		<tag k="place" v="farm" />
		<tag k="ssr:stedsnr" v="41094" />
	</node>
	<node id="-829554" lat="64.8655166632" lon="11.2432916641">
		<tag k="name" v="Myrstad" />
		<tag k="place" v="farm" />
		<tag k="ssr:stedsnr" v="452412" />
	</node>
	<node id="-829551" lat="64.9631416681" lon="12.0162333251">
		<tag k="name" v="Leirvik" />
		<tag k="place" v="farm" />
		<tag k="ssr:stedsnr" v="452326" />
	</node>
	<node id="-829548" lat="64.9467750041" lon="12.221911101">
		<tag k="name" v="Bliksvik" />
		<tag k="place" v="farm" />
		<tag k="ssr:stedsnr" v="452312" />
	</node>
	<node id="-831591" lat="64.8526805514" lon="11.2436333295">
		<tag k="name" v="Nygården" />
		<tag k="place" v="isolated_dwelling" />
		<tag k="ssr:stedsnr" v="28467" />
	</node>
	<node id="-829541" lat="64.8781583346" lon="11.66486389">
		<tag k="fixme" v="consider place=hamlet" />
		<tag k="name" v="Finne" />
		<tag k="place" v="farm" />
		<tag k="ssr:stedsnr" v="451040" />
	</node>
	<node id="-829537" lat="64.9273138855" lon="11.8918333408">
		<tag k="name" v="Øystergården" />
>>>>>>> e1d4bc35ff8a6074a6f2e91616a996b547c36f15
		<tag k="place" v="farm" />
		<tag k="ssr:stedsnr" v="451018" />
	</node>
<<<<<<< HEAD
	<node lat="64.81059976123137" lon="11.482806018757989" id="-40144">
		<tag k="fixme" v="consider place=hamlet" />
		<tag k="name" v="Strand" />
		<tag k="place" v="farm" />
		<tag k="ssr:stedsnr" v="864348" />
	</node>
	<node lat="64.87708888595695" lon="11.231463894174817" id="-40154">
		<tag k="name" v="Breidablikk" />
		<tag k="place" v="isolated_dwelling" />
		<tag k="ssr:stedsnr" v="864410" />
	</node>
	<node lat="64.87411666610564" lon="11.2382555483019" id="-40155">
		<tag k="name" v="Østly" />
		<tag k="place" v="farm" />
		<tag k="ssr:stedsnr" v="864411" />
	</node>
	<node lat="64.97678611013333" lon="10.917700001899295" id="-40162">
		<tag k="name" v="Svanafloa" />
		<tag k="place" v="farm" />
		<tag k="ssr:stedsnr" v="877056" />
	</node>
	<node lat="64.89309166907286" lon="11.57381945466594" id="-40208">
		<tag k="name" v="Solheim" />
		<tag k="place" v="isolated_dwelling" />
		<tag k="ssr:stedsnr" v="894071" />
	</node>
	<node lat="64.87767222420479" lon="11.427936120670225" id="-40210">
		<tag k="name" v="Sørågården" />
		<tag k="place" v="farm" />
		<tag k="ssr:stedsnr" v="894405" />
	</node>
	<node lat="64.87489722209477" lon="11.439869453559991" id="-40211">
		<tag k="name" v="Høgstad" />
		<tag k="place" v="farm" />
		<tag k="ssr:stedsnr" v="894406" />
	</node>
	<node lat="64.94205278112821" lon="11.568458334024701" id="-40228">
		<tag k="name" v="Innerplassen" />
		<tag k="place" v="locality" />
		<tag k="ssr:stedsnr" v="897208" />
	</node>
	<node lat="64.89045555467368" lon="11.11359998992436" id="-40242">
		<tag k="name" v="Fornes" />
		<tag k="place" v="isolated_dwelling" />
		<tag k="ssr:stedsnr" v="897570" />
	</node>
	<node lat="64.98985277523154" lon="11.730441662871993" id="-40271">
		<tag k="amenity" v="school" />
		<tag k="name" v="Gravvik oppvekstsenter" />
		<tag k="old_name" v="Gravvik skole" />
		<tag k="ssr:stedsnr" v="905408" />
	</node>
	<node lat="64.99795782645377" lon="11.671534505209948" id="-40282">
		<tag k="fixme" v="consider place=hamlet" />
		<tag k="name" v="Tennfjord" />
		<tag k="place" v="farm" />
		<tag k="ssr:stedsnr" v="924132" />
	</node>
	<node lat="64.91816944607915" lon="11.214091674272192" id="-40283">
		<tag k="name" v="Dalheim" />
		<tag k="place" v="farm" />
		<tag k="ssr:stedsnr" v="924585" />
	</node>
	<node lat="64.87983055406448" lon="11.262216673670697" id="-40292">
		<tag k="name" v="Elverud" />
		<tag k="place" v="farm" />
		<tag k="ssr:stedsnr" v="925106" />
	</node>
	<node lat="64.8289194426988" lon="11.276324996291729" id="-40300">
		<tag k="name" v="Løenget" />
		<tag k="place" v="farm" />
		<tag k="ssr:stedsnr" v="925309" />
	</node>
	<node lat="64.82542499680478" lon="11.50894999810805" id="-40304">
		<tag k="name" v="Nordly" />
		<tag k="place" v="farm" />
		<tag k="ssr:stedsnr" v="925324" />
	</node>
	<node lat="64.74135555749643" lon="11.230163882724643" id="-40305">
		<tag k="name" v="Dalen" />
		<tag k="place" v="farm" />
		<tag k="ssr:stedsnr" v="925333" />
	</node>
	<node lat="64.8023000027953" lon="11.450283336771609" id="-40308">
		<tag k="name" v="Austvika" />
		<tag k="place" v="farm" />
		<tag k="ssr:stedsnr" v="925396" />
	</node>
	<node lat="64.82976707757999" lon="11.219874550439553" id="-40309">
		<tag k="alt_name" v="Nærøya" />
		<tag k="fixme" v="consider place=hamlet" />
		<tag k="name" v="Nærøy" />
		<tag k="place" v="farm" />
		<tag k="ssr:stedsnr" v="925302" />
=======
	<node id="-831503" lat="64.9803750005" lon="11.8282694508">
		<tag k="name" v="Hansmoen" />
		<tag k="place" v="farm" />
		<tag k="ssr:stedsnr" v="15683" />
	</node>
	<node id="-831571" lat="64.81778077" lon="11.6393737138">
		<tag k="fixme" v="consider place=hamlet" />
		<tag k="name" v="Geisnes" />
		<tag k="place" v="farm" />
		<tag k="ssr:stedsnr" v="26322" />
	</node>
	<node id="-831570" lat="64.9206722198" lon="11.8689916574">
		<tag k="name" v="Bergtun" />
		<tag k="place" v="farm" />
		<tag k="ssr:stedsnr" v="26266" />
	</node>
	<node id="-831564" lat="64.87775556" lon="11.6571083312">
		<tag k="name" v="Finne" />
		<tag k="place" v="farm" />
		<tag k="ssr:stedsnr" v="26070" />
	</node>
	<node id="-831562" lat="64.873683333" lon="11.707149996">
		<tag k="name" v="Nordhalsen" />
		<tag k="place" v="farm" />
		<tag k="ssr:stedsnr" v="26053" />
	</node>
	<node id="-829507" lat="64.928254028" lon="12.3177135062">
		<tag k="alt_name" v="Løkholmen" />
		<tag k="fixme" v="consider place=hamlet" />
		<tag k="name" v="Holmen" />
		<tag k="place" v="farm" />
		<tag k="ssr:stedsnr" v="440778" />
	</node>
	<node id="-829497" lat="64.8986393657" lon="10.9002990354">
		<tag k="fixme" v="consider place=hamlet" />
		<tag k="name" v="Dalin" />
		<tag k="place" v="farm" />
		<tag k="ssr:stedsnr" v="439927" />
	</node>
	<node id="-829495" lat="64.8911111101" lon="11.0658611184">
		<tag k="fixme" v="multiple name tags, choose one and add the other to alt_name" />
		<tag k="name" v="Setnøyaunet;Setnøya" />
		<tag k="place" v="farm" />
		<tag k="ssr:stedsnr" v="439916" />
	</node>
	<node id="-829488" lat="64.9486054552" lon="12.2288811897">
		<tag k="fixme" v="consider place=hamlet" />
		<tag k="name" v="Vennavika" />
		<tag k="place" v="farm" />
		<tag k="ssr:stedsnr" v="439855" />
	</node>
	<node id="-829487" lat="64.9375444455" lon="12.225227782">
		<tag k="name" v="Sørheim" />
		<tag k="place" v="farm" />
		<tag k="ssr:stedsnr" v="439852" />
	</node>
	<node id="-829486" lat="64.9896000035" lon="11.6149083399">
		<tag k="name" v="Sandvika" />
		<tag k="place" v="isolated_dwelling" />
		<tag k="ssr:stedsnr" v="439126" />
	</node>
	<node id="-831533" lat="64.8785750015" lon="11.7403361208">
		<tag k="name" v="Kjøløymoen" />
		<tag k="place" v="farm" />
		<tag k="ssr:stedsnr" v="15979" />
	</node>
	<node id="-829482" lat="64.9748138848" lon="11.5367638878">
		<tag k="fixme" v="consider place=hamlet" />
		<tag k="name" v="Risværet" />
		<tag k="place" v="farm" />
		<tag k="ssr:stedsnr" v="439106" />
	</node>
	<node id="-831528" lat="64.8765083319" lon="10.8784666696">
		<tag k="name" v="Sørvika" />
		<tag k="place" v="isolated_dwelling" />
		<tag k="ssr:stedsnr" v="15878" />
	</node>
	<node id="-831524" lat="64.9510805579" lon="12.2498972182">
		<tag k="name" v="Osan" />
		<tag k="place" v="isolated_dwelling" />
		<tag k="ssr:stedsnr" v="15860" />
	</node>
	<node id="-831522" lat="64.938441283" lon="12.2367967577">
		<tag k="fixme" v="consider place=hamlet" />
		<tag k="name" v="Fesund" />
		<tag k="place" v="farm" />
		<tag k="ssr:stedsnr" v="15855" />
	</node>
	<node id="-831516" lat="64.9036666647" lon="12.2515555647">
		<tag k="alt_name" v="Reinbærslisætra;Reinberlisetran" />
		<tag k="name" v="Reinbærlisætra" />
		<tag k="place" v="isolated_dwelling" />
		<tag k="ssr:stedsnr" v="15832" />
	</node>
	<node id="-831514" lat="64.8440330843" lon="11.1828602931">
		<tag k="fixme" v="consider place=hamlet" />
		<tag k="name" v="Sandvika" />
		<tag k="place" v="farm" />
		<tag k="ssr:stedsnr" v="15822" />
	</node>
	<node id="-831512" lat="64.8460027762" lon="11.1988527812">
		<tag k="name" v="Sandmoen" />
		<tag k="place" v="isolated_dwelling" />
		<tag k="ssr:stedsnr" v="15811" />
	</node>
	<node id="-831511" lat="64.7922388923" lon="11.4411777746">
		<tag k="name" v="Innersjøen" />
		<tag k="place" v="farm" />
		<tag k="ssr:stedsnr" v="15763" />
	</node>
	<node id="-829462" lat="64.9697277796" lon="10.9150777711">
		<tag k="fixme" v="consider place=hamlet" />
		<tag k="name" v="Borgan" />
		<tag k="place" v="farm" />
		<tag k="ssr:stedsnr" v="513773" />
	</node>
	<node id="-829459" lat="64.9317305579" lon="12.0343027818">
		<tag k="name" v="Svinnstien" />
		<tag k="place" v="locality" />
		<tag k="ssr:stedsnr" v="513388" />
	</node>
	<node id="-829455" lat="64.9574527772" lon="12.020683341">
		<tag k="name" v="Jakobslåttet" />
		<tag k="place" v="farm" />
		<tag k="ssr:stedsnr" v="513365" />
	</node>
	<node id="-827759" lat="64.797927776" lon="11.4242361146">
		<tag k="name" v="Lauga" />
		<tag k="place" v="farm" />
		<tag k="ssr:stedsnr" v="226149" />
	</node>
	<node id="-831492" lat="64.9693083349" lon="10.9051305629">
		<tag k="alt_name" v="Borgann" />
		<tag k="fixme" v="consider place=hamlet" />
		<tag k="name" v="Borgan" />
		<tag k="place" v="village" />
		<tag k="ssr:stedsnr" v="15584" />
>>>>>>> e1d4bc35ff8a6074a6f2e91616a996b547c36f15
	</node>
</osm>
