<?xml version="1.0" encoding="UTF-8"?>
<osm version="0.6" generator="osmapis">
	<node lat="64.9876805572358" lon="11.613422223826902" id="-41089">
		<tag k="name" v="Middagshaugen" />
		<tag k="natural" v="hill" />
		<tag k="place" v="locality" />
		<tag k="ssr:stedsnr" v="229775" />
	</node>
	<node lat="64.95643610683726" lon="11.649105548696427" id="-41090">
		<tag k="name" v="Torvfjellet" />
		<tag k="natural" v="hill" />
		<tag k="place" v="locality" />
		<tag k="ssr:stedsnr" v="229797" />
	</node>
	<node lat="64.99126388486687" lon="11.633611115285186" id="-41092">
		<tag k="fixme" v="consider natural=peak for the most distinct mountains in the district" />
		<tag k="name" v="Kongen" />
		<tag k="natural" v="hill" />
		<tag k="place" v="locality" />
		<tag k="ssr:stedsnr" v="229872" />
	</node>
	<node lat="64.88273888910146" lon="10.962774991093973" id="-41094">
		<tag k="name" v="Revsulo" />
		<tag k="place" v="locality" />
		<tag k="ssr:stedsnr" v="229876" />
	</node>
	<node lat="64.97366666749569" lon="10.908402770787502" id="-41095">
		<tag k="name" v="Stor-rakleppen" />
		<tag k="natural" v="hill" />
		<tag k="place" v="locality" />
		<tag k="ssr:stedsnr" v="229957" />
	</node>
	<node lat="64.97741666892745" lon="11.106163897919643" id="-41102">
		<tag k="name" v="Borgonhammaren" />
		<tag k="natural" v="hill" />
		<tag k="place" v="locality" />
		<tag k="ssr:stedsnr" v="230644" />
	</node>
	<node lat="64.77924166571547" lon="11.761272217225153" id="-41104">
		<tag k="name" v="Storhøgda" />
		<tag k="natural" v="hill" />
		<tag k="place" v="locality" />
		<tag k="ssr:stedsnr" v="232071" />
	</node>
	<node lat="64.97432778089177" lon="11.088008334670008" id="-41130">
		<tag k="name" v="Juva" />
		<tag k="natural" v="hill" />
		<tag k="place" v="locality" />
		<tag k="ssr:stedsnr" v="14661" />
	</node>
	<node lat="64.89216666874674" lon="11.436266666917051" id="-41143">
		<tag k="name" v="Slåttfjellet" />
		<tag k="natural" v="hill" />
		<tag k="place" v="locality" />
		<tag k="ssr:stedsnr" v="15117" />
	</node>
	<node lat="64.94133611030963" lon="11.598661115744873" id="-41146">
		<tag k="name" v="Båfjordlia" />
		<tag k="natural" v="slope" />
		<tag k="place" v="locality" />
		<tag k="ssr:stedsnr" v="15208" />
	</node>
	<node lat="64.95034722049306" lon="11.427580555302576" id="-41152">
		<tag k="name" v="Raftaskardet" />
		<tag k="natural" v="valley" />
		<tag k="place" v="locality" />
		<tag k="ssr:stedsnr" v="232460" />
	</node>
	<node lat="64.90027222389605" lon="10.969025001424702" id="-41172">
		<tag k="fixme" v="consider natural=peak for the most distinct mountains in the district" />
		<tag k="name" v="Storfjellet" />
		<tag k="natural" v="hill" />
		<tag k="place" v="locality" />
		<tag k="ssr:stedsnr" v="15918" />
	</node>
	<node lat="64.87913055672615" lon="11.827747212087704" id="-41175">
		<tag k="name" v="Svartdalen" />
		<tag k="natural" v="valley" />
		<tag k="place" v="locality" />
		<tag k="ssr:stedsnr" v="232824" />
	</node>
	<node lat="64.9177444405006" lon="11.458261101808752" id="-41181">
		<tag k="name" v="Nils-Jensflauget" />
		<tag k="natural" v="cliff" />
		<tag k="ssr:stedsnr" v="25085" />
	</node>
	<node lat="64.92933055945883" lon="11.756561104662048" id="-41188">
		<tag k="name" v="Litlengdalen" />
		<tag k="natural" v="valley" />
		<tag k="place" v="locality" />
		<tag k="ssr:stedsnr" v="26021" />
	</node>
	<node lat="64.939377779092" lon="11.523038884348615" id="-41189">
		<tag k="name" v="Sør Nubblia" />
		<tag k="natural" v="slope" />
		<tag k="place" v="locality" />
		<tag k="ssr:stedsnr" v="26085" />
	</node>
	<node lat="64.94533611393179" lon="12.181199992233513" id="-41198">
		<tag k="name" v="Bergsvikhatten" />
		<tag k="natural" v="hill" />
		<tag k="place" v="locality" />
		<tag k="ssr:stedsnr" v="28321" />
	</node>
	<node lat="64.940019448601" lon="12.17715833998871" id="-41199">
		<tag k="name" v="Stakkvikhatten" />
		<tag k="natural" v="hill" />
		<tag k="place" v="locality" />
		<tag k="ssr:stedsnr" v="28323" />
	</node>
	<node lat="64.92289721969722" lon="12.311480557898483" id="-41200">
		<tag k="name" v="Vakkerhalla" />
		<tag k="natural" v="slope" />
		<tag k="place" v="locality" />
		<tag k="ssr:stedsnr" v="28289" />
	</node>
	<node lat="64.96850000251818" lon="12.034211109926943" id="-41201">
		<tag k="name" v="Nerskaret" />
		<tag k="natural" v="valley" />
		<tag k="place" v="locality" />
		<tag k="ssr:stedsnr" v="28402" />
	</node>
	<node lat="64.96722777415677" lon="12.039950009941599" id="-41202">
		<tag k="name" v="Åsan" />
		<tag k="place" v="locality" />
		<tag k="ssr:stedsnr" v="28408" />
	</node>
	<node lat="65.07182500133037" lon="11.958433339039763" id="-41209">
		<tag k="fixme" v="consider natural=peak for the most distinct mountains in the district" />
		<tag k="name" v="Valaåsen" />
		<tag k="natural" v="hill" />
		<tag k="place" v="locality" />
		<tag k="ssr:stedsnr" v="234841" />
	</node>
	<node lat="64.81013333487162" lon="11.747244454624743" id="-41225">
		<tag k="name" v="Middagshaugen" />
		<tag k="natural" v="hill" />
		<tag k="place" v="locality" />
		<tag k="ssr:stedsnr" v="43023" />
	</node>
	<node lat="64.80443333617896" lon="11.8180194458189" id="-41226">
		<tag k="name" v="Bursvikhøgda" />
		<tag k="natural" v="hill" />
		<tag k="place" v="locality" />
		<tag k="ssr:stedsnr" v="43027" />
	</node>
	<node lat="64.83700000380821" lon="11.628288887732987" id="-41232">
		<tag k="name" v="Forrokammen" />
		<tag k="natural" v="ridge" />
		<tag k="place" v="locality" />
		<tag k="ssr:stedsnr" v="44086" />
	</node>
	<node lat="64.81732500188525" lon="11.538763879006872" id="-41233">
		<tag k="name" v="Ekkerhaugen" />
		<tag k="natural" v="hill" />
		<tag k="place" v="locality" />
		<tag k="ssr:stedsnr" v="44099" />
	</node>
	<node lat="64.83479722092757" lon="11.342655549886002" id="-41234">
		<tag k="name" v="Rundklumpen" />
		<tag k="natural" v="hill" />
		<tag k="place" v="locality" />
		<tag k="ssr:stedsnr" v="44158" />
	</node>
	<node lat="64.89009444357552" lon="11.437594435238076" id="-41236">
		<tag k="name" v="Storfårråslettå" />
		<tag k="place" v="locality" />
		<tag k="ssr:stedsnr" v="44387" />
	</node>
	<node lat="64.90820833138862" lon="11.600813895290411" id="-41239">
		<tag k="name" v="Ormhaugen" />
		<tag k="natural" v="hill" />
		<tag k="place" v="locality" />
		<tag k="ssr:stedsnr" v="45107" />
	</node>
	<node lat="64.8738083328429" lon="11.155027787974664" id="-41241">
		<tag k="name" v="Festningshaugan" />
		<tag k="natural" v="hill" />
		<tag k="place" v="locality" />
		<tag k="ssr:stedsnr" v="47273" />
	</node>
	<node lat="64.86459166913177" lon="10.770155551021896" id="-41242">
		<tag k="name" v="Vannhagan" />
		<tag k="natural" v="valley" />
		<tag k="place" v="locality" />
		<tag k="ssr:stedsnr" v="47171" />
	</node>
	<node lat="65.02874722258721" lon="11.793402780839228" id="-41249">
		<tag k="name" v="Masterdalen" />
		<tag k="natural" v="valley" />
		<tag k="place" v="locality" />
		<tag k="ssr:stedsnr" v="47509" />
	</node>
	<node lat="65.03064722515103" lon="11.770725009733871" id="-41250">
		<tag k="name" v="Veraåsen" />
		<tag k="natural" v="ridge" />
		<tag k="place" v="locality" />
		<tag k="ssr:stedsnr" v="47513" />
	</node>
	<node lat="64.91384722592454" lon="11.694038884328142" id="-41255">
		<tag k="name" v="Fjellvollen" />
		<tag k="place" v="locality" />
		<tag k="ssr:stedsnr" v="47706" />
	</node>
	<node lat="64.93659166222804" lon="11.804058339612855" id="-41256">
		<tag k="name" v="Gråmarkåsen" />
		<tag k="natural" v="ridge" />
		<tag k="place" v="locality" />
		<tag k="ssr:stedsnr" v="47723" />
	</node>
	<node lat="64.91922777557312" lon="10.889130545229365" id="-41257">
		<tag k="name" v="Fjukstadkleiva" />
		<tag k="natural" v="slope" />
		<tag k="place" v="locality" />
		<tag k="ssr:stedsnr" v="47783" />
	</node>
	<node lat="64.96308055791656" lon="11.623316666381747" id="-41258">
		<tag k="fixme" v="consider natural=peak for the most distinct mountains in the district" />
		<tag k="name" v="Hjelmsengbjørga" />
		<tag k="natural" v="hill" />
		<tag k="place" v="locality" />
		<tag k="ssr:stedsnr" v="47792" />
	</node>
	<node lat="65.00060555639786" lon="11.648750009142292" id="-41259">
		<tag k="name" v="Hallartinden" />
		<tag k="natural" v="hill" />
		<tag k="place" v="locality" />
		<tag k="ssr:stedsnr" v="47872" />
	</node>
	<node lat="65.01166388582334" lon="11.640669436848409" id="-41261">
		<tag k="name" v="Ørnkulå" />
		<tag k="natural" v="hill" />
		<tag k="place" v="locality" />
		<tag k="ssr:stedsnr" v="47879" />
	</node>
	<node lat="65.0141611082942" lon="11.655877784025138" id="-41263">
		<tag k="name" v="Breifjellet" />
		<tag k="natural" v="hill" />
		<tag k="place" v="locality" />
		<tag k="ssr:stedsnr" v="47884" />
	</node>
	<node lat="64.86075278016277" lon="11.08335001071642" id="-41265">
		<tag k="name" v="Litlstudalen" />
		<tag k="natural" v="valley" />
		<tag k="place" v="locality" />
		<tag k="ssr:stedsnr" v="47887" />
	</node>
	<node lat="64.94774999676476" lon="10.994286121000016" id="-41267">
		<tag k="name" v="Ringen" />
		<tag k="place" v="locality" />
		<tag k="ssr:stedsnr" v="48629" />
	</node>
	<node lat="64.87076944109518" lon="11.843544446556452" id="-41269">
		<tag k="name" v="Løengpynten" />
		<tag k="natural" v="hill" />
		<tag k="place" v="locality" />
		<tag k="ssr:stedsnr" v="50807" />
	</node>
	<node lat="65.01133611019871" lon="11.943036119144246" id="-41278">
		<tag k="name" v="Skutå" />
		<tag k="natural" v="hill" />
		<tag k="place" v="locality" />
		<tag k="ssr:stedsnr" v="52925" />
	</node>
	<node lat="64.86123611278761" lon="12.16575278501171" id="-41279">
		<tag k="name" v="Langdalen" />
		<tag k="natural" v="valley" />
		<tag k="place" v="locality" />
		<tag k="ssr:stedsnr" v="53209" />
	</node>
	<node lat="64.74282777383658" lon="10.77922222839048" id="-41280">
		<tag k="name" v="Øksnhylla" />
		<tag k="place" v="locality" />
		<tag k="ssr:stedsnr" v="53484" />
	</node>
	<node lat="64.9218250043381" lon="11.680811114459534" id="-41295">
		<tag k="fixme" v="consider natural=peak for the most distinct mountains in the district" />
		<tag k="name" v="Skavdalsheia" />
		<tag k="natural" v="hill" />
		<tag k="place" v="locality" />
		<tag k="ssr:stedsnr" v="75016" />
	</node>
	<node lat="64.90342500042323" lon="11.448913898595258" id="-41299">
		<tag k="fixme" v="multiple name tags, choose one and add the other to alt_name" />
		<tag k="name" v="Eidshaugskardet;Søråskardet" />
		<tag k="natural" v="valley" />
		<tag k="place" v="locality" />
		<tag k="ssr:stedsnr" v="75022" />
	</node>
	<node lat="65.02066388874486" lon="11.982661103071425" id="-41302">
		<tag k="fixme" v="consider natural=peak for the most distinct mountains in the district" />
		<tag k="name" v="Kårfjellet" />
		<tag k="natural" v="hill" />
		<tag k="place" v="locality" />
		<tag k="ssr:stedsnr" v="75157" />
	</node>
	<node lat="64.73927777632849" lon="11.269452774929105" id="-41306">
		<tag k="name" v="Bølfjellet" />
		<tag k="natural" v="hill" />
		<tag k="place" v="locality" />
		<tag k="ssr:stedsnr" v="75305" />
	</node>
	<node lat="64.82038610944082" lon="11.473174994440342" id="-41308">
		<tag k="name" v="Melkskardtinden" />
		<tag k="natural" v="hill" />
		<tag k="place" v="locality" />
		<tag k="ssr:stedsnr" v="75315" />
	</node>
	<node lat="64.86846666661529" lon="11.366552786045325" id="-41311">
		<tag k="name" v="Humpen" />
		<tag k="natural" v="hill" />
		<tag k="place" v="locality" />
		<tag k="ssr:stedsnr" v="75422" />
	</node>
	<node lat="64.90646666918364" lon="11.047888889127943" id="-41314">
		<tag k="fixme" v="consider natural=peak for the most distinct mountains in the district" />
		<tag k="name" v="Stufjellet" />
		<tag k="natural" v="hill" />
		<tag k="place" v="locality" />
		<tag k="ssr:stedsnr" v="75604" />
	</node>
	<node lat="64.91516666276755" lon="11.775511106247842" id="-41326">
		<tag k="name" v="Langdalslia" />
		<tag k="natural" v="slope" />
		<tag k="place" v="locality" />
		<tag k="ssr:stedsnr" v="75556" />
	</node>
	<node lat="64.98375833510568" lon="11.900869449909878" id="-41334">
		<tag k="name" v="Bergvassdalen" />
		<tag k="natural" v="valley" />
		<tag k="place" v="locality" />
		<tag k="ssr:stedsnr" v="75705" />
	</node>
	<node lat="64.91606944764226" lon="10.876650008176412" id="-41338">
		<tag k="fixme" v="consider natural=peak for the most distinct mountains in the district" />
		<tag k="name" v="Flåfjellet" />
		<tag k="natural" v="hill" />
		<tag k="place" v="locality" />
		<tag k="ssr:stedsnr" v="75650" />
	</node>
	<node lat="64.85530833419702" lon="10.789386121250187" id="-41349">
		<tag k="name" v="Kristendalen" />
		<tag k="natural" v="valley" />
		<tag k="place" v="locality" />
		<tag k="ssr:stedsnr" v="75955" />
	</node>
	<node lat="64.8942805517635" lon="11.222522218943684" id="-41352">
		<tag k="name" v="Grønndalen" />
		<tag k="natural" v="valley" />
		<tag k="place" v="locality" />
		<tag k="ssr:stedsnr" v="76097" />
	</node>
	<node lat="64.85546110680197" lon="11.618202784195399" id="-41355">
		<tag k="alt_name" v="Furuhaugen" />
		<tag k="name" v="Forohaugen" />
		<tag k="natural" v="hill" />
		<tag k="place" v="locality" />
		<tag k="ssr:stedsnr" v="76453" />
	</node>
	<node lat="65.01451666871378" lon="11.133619446062733" id="-41357">
		<tag k="fixme" v="consider natural=peak for the most distinct mountains in the district" />
		<tag k="name" v="Bratthammaren" />
		<tag k="natural" v="hill" />
		<tag k="place" v="locality" />
		<tag k="ssr:stedsnr" v="76665" />
	</node>
	<node lat="64.82862500409901" lon="12.014102776347618" id="-41364">
		<tag k="name" v="Taraldsslættet" />
		<tag k="place" v="locality" />
		<tag k="ssr:stedsnr" v="76903" />
	</node>
	<node lat="64.92104722191519" lon="11.51952778240515" id="-41374">
		<tag k="name" v="Småengfjellet" />
		<tag k="natural" v="hill" />
		<tag k="place" v="locality" />
		<tag k="ssr:stedsnr" v="86080" />
	</node>
	<node lat="64.92389722387728" lon="11.848813894611705" id="-41377">
		<tag k="name" v="Trolldalen" />
		<tag k="natural" v="valley" />
		<tag k="place" v="locality" />
		<tag k="ssr:stedsnr" v="87008" />
	</node>
	<node lat="64.90215833261229" lon="11.37964166567348" id="-41380">
		<tag k="name" v="Strandareva" />
		<tag k="natural" v="valley" />
		<tag k="place" v="locality" />
		<tag k="ssr:stedsnr" v="87913" />
	</node>
	<node lat="64.91412222627562" lon="12.272072218402624" id="-41382">
		<tag k="name" v="Mellomegga" />
		<tag k="place" v="locality" />
		<tag k="ssr:stedsnr" v="88223" />
	</node>
	<node lat="64.92249444321354" lon="12.307238886951257" id="-41383">
		<tag k="name" v="Kikarberget" />
		<tag k="natural" v="hill" />
		<tag k="place" v="locality" />
		<tag k="ssr:stedsnr" v="88224" />
	</node>
	<node lat="64.80770833135539" lon="11.866549997812003" id="-41395">
		<tag k="name" v="Jaran" />
		<tag k="natural" v="hill" />
		<tag k="place" v="locality" />
		<tag k="ssr:stedsnr" v="104004" />
	</node>
	<node lat="64.85606389211131" lon="11.37548611832363" id="-41400">
		<tag k="name" v="Høgmoen" />
		<tag k="place" v="locality" />
		<tag k="ssr:stedsnr" v="104186" />
	</node>
	<node lat="64.82010833253518" lon="11.493247216151511" id="-41401">
		<tag k="name" v="Revmobakkan" />
		<tag k="natural" v="slope" />
		<tag k="place" v="locality" />
		<tag k="ssr:stedsnr" v="104123" />
	</node>
	<node lat="64.76530000387298" lon="11.401272224229567" id="-41402">
		<tag k="name" v="Litltinden" />
		<tag k="natural" v="hill" />
		<tag k="place" v="locality" />
		<tag k="ssr:stedsnr" v="104130" />
	</node>
	<node lat="64.746344440498" lon="11.2910638915486" id="-41403">
		<tag k="name" v="Sommerfjøshaugen" />
		<tag k="natural" v="hill" />
		<tag k="place" v="locality" />
		<tag k="ssr:stedsnr" v="104135" />
	</node>
	<node lat="64.8341055583001" lon="11.589169434437025" id="-41404">
		<tag k="name" v="Skagamodalen" />
		<tag k="natural" v="valley" />
		<tag k="place" v="locality" />
		<tag k="ssr:stedsnr" v="105085" />
	</node>
	<node lat="64.8998777792527" lon="11.616930556838513" id="-41410">
		<tag k="name" v="Skuggedalen" />
		<tag k="natural" v="valley" />
		<tag k="place" v="locality" />
		<tag k="ssr:stedsnr" v="105125" />
	</node>
	<node lat="64.90351666850191" lon="11.613102768918335" id="-41412">
		<tag k="name" v="Kjølsmåttå" />
		<tag k="natural" v="valley" />
		<tag k="place" v="locality" />
		<tag k="ssr:stedsnr" v="106105" />
	</node>
	<node lat="64.90455277496345" lon="11.612269444182825" id="-41413">
		<tag k="name" v="Larsiskogan" />
		<tag k="natural" v="slope" />
		<tag k="place" v="locality" />
		<tag k="ssr:stedsnr" v="106106" />
	</node>
	<node lat="64.89641944867442" lon="11.59975278073869" id="-41415">
		<tag k="name" v="Bekkskardet" />
		<tag k="natural" v="valley" />
		<tag k="place" v="locality" />
		<tag k="ssr:stedsnr" v="106098" />
	</node>
	<node lat="64.90741389331684" lon="11.460005552513154" id="-41416">
		<tag k="name" v="Tverrlirevvå" />
		<tag k="natural" v="gorge" />
		<tag k="ssr:stedsnr" v="106375" />
	</node>
	<node lat="64.89936944648875" lon="11.450386120713983" id="-41417">
		<tag k="name" v="Storlia" />
		<tag k="natural" v="slope" />
		<tag k="place" v="locality" />
		<tag k="ssr:stedsnr" v="106379" />
	</node>
	<node lat="64.94320833274362" lon="11.649958332578622" id="-41421">
		<tag k="name" v="Hamran" />
		<tag k="natural" v="hill" />
		<tag k="place" v="locality" />
		<tag k="ssr:stedsnr" v="108209" />
	</node>
	<node lat="64.93988333089105" lon="11.56346111959822" id="-41424">
		<tag k="name" v="Groftdalen" />
		<tag k="natural" v="valley" />
		<tag k="place" v="locality" />
		<tag k="ssr:stedsnr" v="108220" />
	</node>
	<node lat="64.93531388766051" lon="11.833575007730493" id="-41427">
		<tag k="name" v="Oksskardlia" />
		<tag k="natural" v="slope" />
		<tag k="place" v="locality" />
		<tag k="ssr:stedsnr" v="108323" />
	</node>
	<node lat="64.87776111504105" lon="11.515427781020197" id="-41429">
		<tag k="name" v="Urtergårdshaugan" />
		<tag k="natural" v="hill" />
		<tag k="place" v="locality" />
		<tag k="ssr:stedsnr" v="108410" />
	</node>
	<node lat="65.04441944879119" lon="11.911866663113205" id="-41432">
		<tag k="name" v="Vargmoen" />
		<tag k="place" v="locality" />
		<tag k="ssr:stedsnr" v="108474" />
	</node>
	<node lat="64.96404444487082" lon="11.650047211726802" id="-41435">
		<tag k="fixme" v="consider natural=peak for the most distinct mountains in the district" />
		<tag k="name" v="Bjørgatinden" />
		<tag k="natural" v="hill" />
		<tag k="place" v="locality" />
		<tag k="ssr:stedsnr" v="108782" />
	</node>
	<node lat="64.9674972207674" lon="11.640236116456041" id="-41436">
		<tag k="name" v="Onsskardheia" />
		<tag k="natural" v="slope" />
		<tag k="place" v="locality" />
		<tag k="ssr:stedsnr" v="108785" />
	</node>
	<node lat="64.9550138857474" lon="11.728780563632982" id="-41439">
		<tag k="name" v="Keiptrappen" />
		<tag k="natural" v="hill" />
		<tag k="place" v="locality" />
		<tag k="ssr:stedsnr" v="108677" />
	</node>
	<node lat="64.90207777822341" lon="10.98353888918181" id="-41440">
		<tag k="name" v="Olderlikammen" />
		<tag k="natural" v="hill" />
		<tag k="place" v="locality" />
		<tag k="ssr:stedsnr" v="108807" />
	</node>
	<node lat="65.00970833567521" lon="11.64331665771239" id="-41441">
		<tag k="name" v="Kløyvan" />
		<tag k="natural" v="slope" />
		<tag k="place" v="locality" />
		<tag k="ssr:stedsnr" v="108873" />
	</node>
	<node lat="64.97339166672913" lon="11.121588885660461" id="-41442">
		<tag k="name" v="Svartmoen" />
		<tag k="place" v="locality" />
		<tag k="ssr:stedsnr" v="109630" />
	</node>
	<node lat="64.78663055891181" lon="11.756530547923255" id="-41447">
		<tag k="name" v="Monsøytuva" />
		<tag k="natural" v="hill" />
		<tag k="place" v="locality" />
		<tag k="ssr:stedsnr" v="111120" />
	</node>
	<node lat="64.83885277685278" lon="11.918291659899708" id="-41454">
		<tag k="name" v="Lamdalen" />
		<tag k="natural" v="valley" />
		<tag k="place" v="locality" />
		<tag k="ssr:stedsnr" v="112008" />
	</node>
	<node lat="64.81798888633845" lon="12.191799996720857" id="-41462">
		<tag k="fixme" v="consider natural=peak for the most distinct mountains in the district" />
		<tag k="name" v="Fossdalsfjella" />
		<tag k="natural" v="hill" />
		<tag k="place" v="locality" />
		<tag k="ssr:stedsnr" v="117312" />
	</node>
	<node lat="64.91862222059808" lon="11.424616669017963" id="-41466">
		<tag k="fixme" v="consider natural=peak for the most distinct mountains in the district" />
		<tag k="name" v="Vattin" />
		<tag k="natural" v="hill" />
		<tag k="place" v="locality" />
		<tag k="ssr:stedsnr" v="135012" />
	</node>
	<node lat="64.74456944716157" lon="11.296586101195352" id="-41485">
		<tag k="fixme" v="consider natural=peak for the most distinct mountains in the district" />
		<tag k="name" v="Ramnskjulen" />
		<tag k="natural" v="hill" />
		<tag k="place" v="locality" />
		<tag k="ssr:stedsnr" v="135708" />
	</node>
	<node lat="64.8338999988202" lon="11.379794450505434" id="-41487">
		<tag k="name" v="Løypmokrona" />
		<tag k="natural" v="hill" />
		<tag k="place" v="locality" />
		<tag k="ssr:stedsnr" v="135467" />
	</node>
	<node lat="64.9971677386674" lon="11.899748470632993" id="-41490">
		<tag k="fixme" v="consider natural=peak for the most distinct mountains in the district" />
		<tag k="name" v="Skillingsåsen" />
		<tag k="natural" v="hill" />
		<tag k="place" v="locality" />
		<tag k="ssr:stedsnr" v="135662" />
	</node>
	<node lat="64.9993111155097" lon="12.132099991273895" id="-41491">
		<tag k="fixme" v="consider natural=peak for the most distinct mountains in the district" />
		<tag k="name" v="Grønlandsfjellet" />
		<tag k="natural" v="hill" />
		<tag k="place" v="locality" />
		<tag k="ssr:stedsnr" v="135666" />
	</node>
	<node lat="64.99380833424893" lon="11.73279445019961" id="-41492">
		<tag k="fixme" v="consider natural=peak for the most distinct mountains in the district" />
		<tag k="name" v="Heggdalsfjellet" />
		<tag k="natural" v="hill" />
		<tag k="place" v="locality" />
		<tag k="ssr:stedsnr" v="135671" />
	</node>
	<node lat="64.85631110915068" lon="11.60097777429836" id="-41508">
		<tag k="name" v="Lyarhaugen" />
		<tag k="natural" v="hill" />
		<tag k="place" v="locality" />
		<tag k="ssr:stedsnr" v="136463" />
	</node>
	<node lat="64.87173333086096" lon="11.103983334672032" id="-41515">
		<tag k="alt_name" v="Stufjellet" />
		<tag k="fixme" v="consider natural=peak for the most distinct mountains in the district" />
		<tag k="name" v="Måssavollaksla" />
		<tag k="natural" v="hill" />
		<tag k="place" v="locality" />
		<tag k="ssr:stedsnr" v="136352" />
	</node>
	<node lat="64.80974444779058" lon="11.701080563880332" id="-41516">
		<tag k="name" v="Hestvikfjellet" />
		<tag k="natural" v="hill" />
		<tag k="place" v="locality" />
		<tag k="ssr:stedsnr" v="136355" />
	</node>
	<node lat="64.92049999734348" lon="12.006322227046908" id="-41518">
		<tag k="fixme" v="consider natural=peak for the most distinct mountains in the district" />
		<tag k="name" v="Skjolden" />
		<tag k="natural" v="hill" />
		<tag k="place" v="locality" />
		<tag k="ssr:stedsnr" v="136548" />
	</node>
	<node lat="64.93029166926121" lon="11.765244453436711" id="-41519">
		<tag k="name" v="Langdalen" />
		<tag k="natural" v="valley" />
		<tag k="place" v="locality" />
		<tag k="ssr:stedsnr" v="136550" />
	</node>
	<node lat="64.7840472183904" lon="11.380577769049442" id="-41526">
		<tag k="name" v="Lundamo" />
		<tag k="place" v="locality" />
		<tag k="ssr:stedsnr" v="136768" />
	</node>
	<node lat="64.94962499931249" lon="12.153533335025202" id="-41527">
		<tag k="alt_name" v="Nonsheian" />
		<tag k="name" v="Nonshaugen" />
		<tag k="natural" v="hill" />
		<tag k="place" v="locality" />
		<tag k="ssr:stedsnr" v="136603" />
	</node>
	<node lat="64.97870555249669" lon="11.812813878425501" id="-41536">
		<tag k="name" v="Storbjørga" />
		<tag k="natural" v="hill" />
		<tag k="place" v="locality" />
		<tag k="ssr:stedsnr" v="136665" />
	</node>
	<node lat="64.98274999747508" lon="11.9867499903167" id="-41537">
		<tag k="name" v="Storskardet" />
		<tag k="natural" v="valley" />
		<tag k="place" v="locality" />
		<tag k="ssr:stedsnr" v="136668" />
	</node>
	<node lat="64.94288888505555" lon="12.329300005477252" id="-41540">
		<tag k="name" v="Svehaugen" />
		<tag k="natural" v="hill" />
		<tag k="place" v="locality" />
		<tag k="ssr:stedsnr" v="136846" />
	</node>
	<node lat="64.84491111221219" lon="11.190858328758921" id="-41541">
		<tag k="alt_name" v="Hatten;Ingvaldsteinen" />
		<tag k="name" v="Ingvaldstein" />
		<tag k="natural" v="hill" />
		<tag k="place" v="locality" />
		<tag k="ssr:stedsnr" v="136800" />
	</node>
	<node lat="64.85203888502295" lon="11.176474998385686" id="-41545">
		<tag k="fixme" v="consider natural=peak for the most distinct mountains in the district" />
		<tag k="name" v="Hunndalsfjellet" />
		<tag k="natural" v="hill" />
		<tag k="place" v="locality" />
		<tag k="ssr:stedsnr" v="136957" />
	</node>
	<node lat="64.82351388847137" lon="11.81645277813408" id="-41548">
		<tag k="fixme" v="consider natural=peak for the most distinct mountains in the district" />
		<tag k="name" v="Kattugltinden" />
		<tag k="natural" v="hill" />
		<tag k="place" v="locality" />
		<tag k="ssr:stedsnr" v="136960" />
	</node>
	<node lat="64.92038333466327" lon="11.47640000833819" id="-41555">
		<tag k="name" v="Bakkafjellet" />
		<tag k="place" v="locality" />
		<tag k="ssr:stedsnr" v="146082" />
	</node>
	<node lat="64.92546388508153" lon="11.457505547964146" id="-41556">
		<tag k="name" v="Steinskardet" />
		<tag k="natural" v="valley" />
		<tag k="place" v="locality" />
		<tag k="ssr:stedsnr" v="146091" />
	</node>
	<node lat="64.94961388649715" lon="11.526202783407621" id="-41564">
		<tag k="name" v="Fossdalen" />
		<tag k="natural" v="valley" />
		<tag k="place" v="locality" />
		<tag k="ssr:stedsnr" v="147063" />
	</node>
	<node lat="64.88997222206648" lon="10.750566665140523" id="-41568">
		<tag k="name" v="Børsøyhauet" />
		<tag k="natural" v="hill" />
		<tag k="place" v="locality" />
		<tag k="ssr:stedsnr" v="147620" />
	</node>
	<node lat="64.84764444494151" lon="11.232169441633884" id="-41575">
		<tag k="name" v="Løssiskardet" />
		<tag k="natural" v="valley" />
		<tag k="place" v="locality" />
		<tag k="ssr:stedsnr" v="147877" />
	</node>
	<node lat="64.7428111073267" lon="11.20452500847266" id="-41576">
		<tag k="fixme" v="consider natural=peak for the most distinct mountains in the district" />
		<tag k="name" v="Vollafjellet" />
		<tag k="natural" v="hill" />
		<tag k="place" v="locality" />
		<tag k="ssr:stedsnr" v="148057" />
	</node>
	<node lat="64.90594444444699" lon="11.389333332181677" id="-41578">
		<tag k="name" v="Sørfjellet" />
		<tag k="natural" v="hill" />
		<tag k="place" v="locality" />
		<tag k="ssr:stedsnr" v="147919" />
	</node>
	<node lat="64.89427500147535" lon="11.364816656405681" id="-41579">
		<tag k="name" v="Kleivan" />
		<tag k="place" v="locality" />
		<tag k="ssr:stedsnr" v="147921" />
	</node>
	<node lat="64.89439999729295" lon="11.372186116467253" id="-41580">
		<tag k="name" v="Ormhaugen" />
		<tag k="natural" v="hill" />
		<tag k="place" v="locality" />
		<tag k="ssr:stedsnr" v="147922" />
	</node>
	<node lat="64.98264444829002" lon="12.154219435779998" id="-41581">
		<tag k="name" v="Eldhuskløyva" />
		<tag k="place" v="locality" />
		<tag k="ssr:stedsnr" v="148278" />
	</node>
	<node lat="64.86668055263979" lon="11.225552769859803" id="-41582">
		<tag k="name" v="Skjuraberget" />
		<tag k="natural" v="hill" />
		<tag k="place" v="locality" />
		<tag k="ssr:stedsnr" v="148411" />
	</node>
	<node lat="64.8906138873494" lon="11.686594450263996" id="-41592">
		<tag k="name" v="Rogndalen" />
		<tag k="natural" v="valley" />
		<tag k="place" v="locality" />
		<tag k="ssr:stedsnr" v="257077" />
	</node>
	<node lat="64.91102873507442" lon="11.459892392153483" id="-41593">
		<tag k="name" v="Blekkadalen" />
		<tag k="natural" v="valley" />
		<tag k="place" v="locality" />
		<tag k="ssr:stedsnr" v="257036" />
	</node>
	<node lat="64.91415277741226" lon="11.555311111269463" id="-41595">
		<tag k="fixme" v="consider natural=peak for the most distinct mountains in the district" />
		<tag k="name" v="Kamfjellet" />
		<tag k="natural" v="hill" />
		<tag k="place" v="locality" />
		<tag k="ssr:stedsnr" v="257044" />
	</node>
	<node lat="64.89032499827019" lon="11.708058325147551" id="-41602">
		<tag k="fixme" v="consider natural=peak for the most distinct mountains in the district" />
		<tag k="name" v="Finnefjellet" />
		<tag k="natural" v="hill" />
		<tag k="place" v="locality" />
		<tag k="ssr:stedsnr" v="257079" />
	</node>
	<node lat="64.9052083316528" lon="11.640752772790131" id="-41603">
		<tag k="fixme" v="consider natural=peak for the most distinct mountains in the district" />
		<tag k="name" v="Myvasslifjellet" />
		<tag k="natural" v="hill" />
		<tag k="place" v="locality" />
		<tag k="ssr:stedsnr" v="257084" />
	</node>
	<node lat="64.89457500111746" lon="11.458574989806696" id="-41604">
		<tag k="name" v="Slettmarka" />
		<tag k="place" v="locality" />
		<tag k="ssr:stedsnr" v="257087" />
	</node>
	<node lat="65.05928888751458" lon="11.858974996689241" id="-41608">
		<tag k="fixme" v="consider natural=peak for the most distinct mountains in the district" />
		<tag k="name" v="Storsteinheia" />
		<tag k="natural" v="hill" />
		<tag k="place" v="locality" />
		<tag k="ssr:stedsnr" v="257101" />
	</node>
	<node lat="64.94835000011413" lon="11.602369437771387" id="-41611">
		<tag k="fixme" v="consider natural=peak for the most distinct mountains in the district" />
		<tag k="name" v="Båfjordfjellet" />
		<tag k="natural" v="hill" />
		<tag k="place" v="locality" />
		<tag k="ssr:stedsnr" v="257165" />
	</node>
	<node lat="64.95823888791757" lon="11.640750007308592" id="-41620">
		<tag k="fixme" v="multiple name tags, choose one and add the other to alt_name; consider natural=peak for the most distinct mountains in the district" />
		<tag k="name" v="Svanhaugan;Dyrhaugtinden" />
		<tag k="natural" v="hill" />
		<tag k="place" v="locality" />
		<tag k="ssr:stedsnr" v="257190" />
	</node>
	<node lat="64.83078888676349" lon="11.522538881927767" id="-41624">
		<tag k="fixme" v="consider natural=peak for the most distinct mountains in the district" />
		<tag k="name" v="Brennåsen" />
		<tag k="natural" v="hill" />
		<tag k="place" v="locality" />
		<tag k="ssr:stedsnr" v="257288" />
	</node>
	<node lat="64.83151111046955" lon="11.224849991732844" id="-41628">
		<tag k="name" v="Storhaugen" />
		<tag k="natural" v="hill" />
		<tag k="place" v="locality" />
		<tag k="ssr:stedsnr" v="257295" />
	</node>
	<node lat="64.8185694405731" lon="11.41884166045308" id="-41631">
		<tag k="name" v="Vardhaugen" />
		<tag k="natural" v="hill" />
		<tag k="place" v="locality" />
		<tag k="ssr:stedsnr" v="257330" />
	</node>
	<node lat="64.81488611353922" lon="11.478969455027682" id="-41634">
		<tag k="name" v="Storhaugen" />
		<tag k="natural" v="hill" />
		<tag k="place" v="locality" />
		<tag k="ssr:stedsnr" v="257334" />
	</node>
	<node lat="64.84091110971033" lon="11.47959165936664" id="-41644">
		<tag k="name" v="Måssahaugen" />
		<tag k="natural" v="hill" />
		<tag k="place" v="locality" />
		<tag k="ssr:stedsnr" v="257529" />
	</node>
	<node lat="64.94081388824881" lon="12.08468055146129" id="-41653">
		<tag k="fixme" v="consider natural=peak for the most distinct mountains in the district" />
		<tag k="name" v="Ånnvikfjellet" />
		<tag k="natural" v="hill" />
		<tag k="place" v="locality" />
		<tag k="ssr:stedsnr" v="257624" />
	</node>
	<node lat="64.9231111075903" lon="12.00296111759307" id="-41664">
		<tag k="name" v="Råvaldsskardet" />
		<tag k="natural" v="valley" />
		<tag k="place" v="locality" />
		<tag k="ssr:stedsnr" v="257594" />
	</node>
	<node lat="64.9168888876955" lon="10.958777775764334" id="-41670">
		<tag k="fixme" v="consider natural=peak for the most distinct mountains in the district" />
		<tag k="name" v="Belsengfjellet" />
		<tag k="natural" v="hill" />
		<tag k="place" v="locality" />
		<tag k="ssr:stedsnr" v="257634" />
	</node>
	<node lat="64.9166083349575" lon="11.064627774765908" id="-41675">
		<tag k="fixme" v="consider natural=peak for the most distinct mountains in the district" />
		<tag k="name" v="Nesa" />
		<tag k="natural" v="hill" />
		<tag k="place" v="locality" />
		<tag k="ssr:stedsnr" v="257652" />
	</node>
	<node lat="64.9758944426782" lon="11.984433337611021" id="-41679">
		<tag k="fixme" v="consider natural=peak for the most distinct mountains in the district" />
		<tag k="name" v="Koppargruvfjellet" />
		<tag k="natural" v="hill" />
		<tag k="old_name" v="Sæterfjellet;Seterfjellet" />
		<tag k="place" v="locality" />
		<tag k="ssr:stedsnr" v="257694" />
	</node>
	<node lat="64.77669999873544" lon="11.413155545043267" id="-41695">
		<tag k="name" v="Torlandstinden" />
		<tag k="natural" v="hill" />
		<tag k="place" v="locality" />
		<tag k="ssr:stedsnr" v="257798" />
	</node>
	<node lat="64.94813611376675" lon="12.331380555791702" id="-41702">
		<tag k="alt_name" v="Moan" />
		<tag k="name" v="Heimsnesengan" />
		<tag k="place" v="locality" />
		<tag k="ssr:stedsnr" v="257868" />
	</node>
	<node lat="64.98126389138524" lon="10.934086106241443" id="-41706">
		<tag k="name" v="Arafjellet" />
		<tag k="natural" v="hill" />
		<tag k="place" v="locality" />
		<tag k="ssr:stedsnr" v="257746" />
	</node>
	<node lat="64.9866444426425" lon="10.890375006579678" id="-41709">
		<tag k="name" v="Kleppen" />
		<tag k="natural" v="hill" />
		<tag k="place" v="locality" />
		<tag k="ssr:stedsnr" v="257753" />
	</node>
	<node lat="64.91414444680044" lon="12.285616670084918" id="-41714">
		<tag k="name" v="Holmdalen" />
		<tag k="natural" v="valley" />
		<tag k="place" v="locality" />
		<tag k="ssr:stedsnr" v="257840" />
	</node>
	<node lat="64.84911111386667" lon="11.187297222313" id="-41715">
		<tag k="fixme" v="consider natural=peak for the most distinct mountains in the district" />
		<tag k="name" v="Tjønnfjellet" />
		<tag k="natural" v="hill" />
		<tag k="place" v="locality" />
		<tag k="ssr:stedsnr" v="257841" />
	</node>
	<node lat="64.84066389215971" lon="11.111002772982793" id="-41717">
		<tag k="alt_name" v="Vardfjellet" />
		<tag k="fixme" v="consider natural=peak for the most distinct mountains in the district" />
		<tag k="name" v="Åkvikaksla" />
		<tag k="natural" v="hill" />
		<tag k="old_name" v="Åkvikakslen" />
		<tag k="place" v="locality" />
		<tag k="ssr:stedsnr" v="257853" />
	</node>
	<node lat="64.89634999772258" lon="10.926513886084381" id="-41720">
		<tag k="alt_name" v="Nesshaugen" />
		<tag k="name" v="Neshaugen" />
		<tag k="natural" v="hill" />
		<tag k="place" v="locality" />
		<tag k="ssr:stedsnr" v="257942" />
	</node>
	<node lat="64.89878055845678" lon="10.84728889584535" id="-41721">
		<tag k="name" v="Nonhaugen" />
		<tag k="natural" v="hill" />
		<tag k="place" v="locality" />
		<tag k="ssr:stedsnr" v="257945" />
	</node>
	<node lat="64.81330000108221" lon="11.750538886136823" id="-41743">
		<tag k="name" v="Svartholet" />
		<tag k="natural" v="valley" />
		<tag k="place" v="locality" />
		<tag k="ssr:stedsnr" v="164017" />
	</node>
	<node lat="64.81986111113059" lon="11.815850000714345" id="-41744">
		<tag k="name" v="Seterlia" />
		<tag k="natural" v="slope" />
		<tag k="place" v="locality" />
		<tag k="ssr:stedsnr" v="164025" />
	</node>
	<node lat="64.86144721986832" lon="11.489374994497544" id="-41747">
		<tag k="fixme" v="consider natural=peak for the most distinct mountains in the district" />
		<tag k="name" v="Ørntuva" />
		<tag k="natural" v="hill" />
		<tag k="place" v="locality" />
		<tag k="ssr:stedsnr" v="165081" />
	</node>
	<node lat="64.74603055647371" lon="11.162727780656855" id="-41749">
		<tag k="name" v="Abelværhaugen" />
		<tag k="natural" v="hill" />
		<tag k="place" v="locality" />
		<tag k="ssr:stedsnr" v="165213" />
	</node>
	<node lat="64.74808333119984" lon="11.165044452178897" id="-41750">
		<tag k="name" v="Kuvikhaugen" />
		<tag k="natural" v="hill" />
		<tag k="place" v="locality" />
		<tag k="ssr:stedsnr" v="165214" />
	</node>
	<node lat="64.74864999808456" lon="11.267361102214608" id="-41751">
		<tag k="name" v="Nordlimoen" />
		<tag k="natural" v="slope" />
		<tag k="place" v="locality" />
		<tag k="ssr:stedsnr" v="165112" />
	</node>
	<node lat="64.7947666705261" lon="11.449833324624514" id="-41752">
		<tag k="name" v="Dyrskaret" />
		<tag k="natural" v="valley" />
		<tag k="place" v="locality" />
		<tag k="ssr:stedsnr" v="165122" />
	</node>
	<node lat="64.76747499890831" lon="11.38215833469318" id="-41756">
		<tag k="name" v="Hestkleiva" />
		<tag k="natural" v="slope" />
		<tag k="place" v="locality" />
		<tag k="ssr:stedsnr" v="165138" />
	</node>
	<node lat="64.84284166894079" lon="11.281497218560945" id="-41757">
		<tag k="name" v="Storhaugen" />
		<tag k="natural" v="hill" />
		<tag k="place" v="locality" />
		<tag k="ssr:stedsnr" v="165168" />
	</node>
	<node lat="64.90265833440272" lon="11.606822212183394" id="-41759">
		<tag k="name" v="Bjørkskardet" />
		<tag k="natural" v="valley" />
		<tag k="place" v="locality" />
		<tag k="ssr:stedsnr" v="166109" />
	</node>
	<node lat="64.93274444809434" lon="11.591424990524738" id="-41762">
		<tag k="name" v="Fjalirevvå" />
		<tag k="natural" v="valley" />
		<tag k="place" v="locality" />
		<tag k="ssr:stedsnr" v="166170" />
	</node>
	<node lat="64.92864444274178" lon="11.588480547516076" id="-41763">
		<tag k="name" v="Hestlifjellet" />
		<tag k="natural" v="hill" />
		<tag k="place" v="locality" />
		<tag k="ssr:stedsnr" v="166172" />
	</node>
	<node lat="64.8860638921581" lon="11.424758335264851" id="-41764">
		<tag k="fixme" v="consider natural=peak for the most distinct mountains in the district" />
		<tag k="name" v="Aurfjellet" />
		<tag k="natural" v="hill" />
		<tag k="place" v="locality" />
		<tag k="ssr:stedsnr" v="166409" />
	</node>
	<node lat="64.9103222200148" lon="11.560972215984444" id="-41766">
		<tag k="name" v="Kalvhagan" />
		<tag k="natural" v="slope" />
		<tag k="place" v="locality" />
		<tag k="ssr:stedsnr" v="168021" />
	</node>
	<node lat="65.01198888992279" lon="11.834363897990704" id="-41772">
		<tag k="name" v="Middagslia" />
		<tag k="natural" v="slope" />
		<tag k="place" v="locality" />
		<tag k="ssr:stedsnr" v="168303" />
	</node>
	<node lat="65.00891388725847" lon="11.849400003355976" id="-41773">
		<tag k="name" v="Grønnlia" />
		<tag k="natural" v="slope" />
		<tag k="place" v="locality" />
		<tag k="ssr:stedsnr" v="168304" />
	</node>
	<node lat="64.95588610786892" lon="11.666800008140859" id="-41775">
		<tag k="name" v="Hokleppen" />
		<tag k="natural" v="hill" />
		<tag k="place" v="locality" />
		<tag k="ssr:stedsnr" v="168667" />
	</node>
	<node lat="64.98696111389482" lon="11.608991672904923" id="-41777">
		<tag k="name" v="Kjerkberget" />
		<tag k="natural" v="hill" />
		<tag k="place" v="locality" />
		<tag k="ssr:stedsnr" v="168771" />
	</node>
	<node lat="64.9858249974788" lon="11.679702771206285" id="-41779">
		<tag k="name" v="Durmålsdalen" />
		<tag k="natural" v="valley" />
		<tag k="place" v="locality" />
		<tag k="ssr:stedsnr" v="169503" />
	</node>
	<node lat="64.77816111051278" lon="11.770736115127821" id="-41787">
		<tag k="name" v="Naustbakken" />
		<tag k="natural" v="slope" />
		<tag k="place" v="locality" />
		<tag k="ssr:stedsnr" v="171070" />
	</node>
	<node lat="64.94704444191886" lon="11.41303056025986" id="-41789">
		<tag k="name" v="Sandvikfjellet" />
		<tag k="natural" v="hill" />
		<tag k="place" v="locality" />
		<tag k="ssr:stedsnr" v="171515" />
	</node>
	<node lat="64.83718056000917" lon="11.502469443827925" id="-41816">
		<tag k="fixme" v="consider natural=peak for the most distinct mountains in the district" />
		<tag k="name" v="Kløyvfjellet" />
		<tag k="natural" v="hill" />
		<tag k="place" v="locality" />
		<tag k="ssr:stedsnr" v="196239" />
	</node>
	<node lat="64.92566388891197" lon="11.039936108024543" id="-41827">
		<tag k="name" v="Brennfjellet" />
		<tag k="natural" v="hill" />
		<tag k="place" v="locality" />
		<tag k="ssr:stedsnr" v="196568" />
	</node>
	<node lat="65.0403250020631" lon="11.824144442441357" id="-41837">
		<tag k="fixme" v="consider natural=peak for the most distinct mountains in the district" />
		<tag k="name" v="Blåfjellet" />
		<tag k="natural" v="hill" />
		<tag k="place" v="locality" />
		<tag k="ssr:stedsnr" v="197126" />
	</node>
	<node lat="64.909633331437" lon="11.620588891666571" id="-41847">
		<tag k="fixme" v="consider natural=peak for the most distinct mountains in the district" />
		<tag k="name" v="Engesfjellet" />
		<tag k="natural" v="hill" />
		<tag k="place" v="locality" />
		<tag k="ssr:stedsnr" v="197075" />
	</node>
	<node lat="64.94159721804428" lon="11.69968610699845" id="-41848">
		<tag k="fixme" v="consider natural=peak for the most distinct mountains in the district" />
		<tag k="name" v="Svartdalsfjellet" />
		<tag k="natural" v="hill" />
		<tag k="place" v="locality" />
		<tag k="ssr:stedsnr" v="197221" />
	</node>
	<node lat="64.82836389251246" lon="11.417802783156036" id="-41850">
		<tag k="alt_name" v="Bjønndalsholet" />
		<tag k="name" v="Bjørndalsholet" />
		<tag k="natural" v="valley" />
		<tag k="place" v="locality" />
		<tag k="ssr:stedsnr" v="197314" />
	</node>
	<node lat="64.84573611273174" lon="11.543202772423097" id="-41851">
		<tag k="name" v="Svartflauget" />
		<tag k="natural" v="hill" />
		<tag k="place" v="locality" />
		<tag k="ssr:stedsnr" v="197517" />
	</node>
	<node lat="64.85562500385679" lon="11.642344453556282" id="-41855">
		<tag k="name" v="Øyrafjellet" />
		<tag k="natural" v="hill" />
		<tag k="place" v="locality" />
		<tag k="ssr:stedsnr" v="197464" />
	</node>
	<node lat="64.786225001371" lon="11.441775000803764" id="-41862">
		<tag k="name" v="Lissvaltuva" />
		<tag k="natural" v="hill" />
		<tag k="place" v="locality" />
		<tag k="ssr:stedsnr" v="197763" />
	</node>
	<node lat="64.87657499608574" lon="11.111749999087248" id="-41865">
		<tag k="fixme" v="consider natural=peak for the most distinct mountains in the district" />
		<tag k="name" v="Ofstadkeipen" />
		<tag k="natural" v="hill" />
		<tag k="place" v="locality" />
		<tag k="ssr:stedsnr" v="197908" />
	</node>
	<node lat="64.91033055624615" lon="12.263813899006571" id="-41876">
		<tag k="alt_name" v="Skjurhaugen" />
		<tag k="name" v="Skjulhaugen" />
		<tag k="natural" v="hill" />
		<tag k="place" v="locality" />
		<tag k="ssr:stedsnr" v="197804" />
	</node>
	<node lat="64.92592777450533" lon="11.439405548845887" id="-41888">
		<tag k="name" v="Sandvikmoen" />
		<tag k="place" v="locality" />
		<tag k="ssr:stedsnr" v="268114" />
	</node>
	<node lat="64.92299166327822" lon="11.413902768915868" id="-41889">
		<tag k="name" v="Fjellnova" />
		<tag k="place" v="locality" />
		<tag k="ssr:stedsnr" v="268118" />
	</node>
	<node lat="64.87848055366793" lon="11.681874996154262" id="-41893">
		<tag k="name" v="Kvernavikdalen" />
		<tag k="natural" v="valley" />
		<tag k="place" v="locality" />
		<tag k="ssr:stedsnr" v="268054" />
	</node>
	<node lat="64.92321388730784" lon="11.41683332890215" id="-41896">
		<tag k="name" v="Oksreva" />
		<tag k="place" v="locality" />
		<tag k="ssr:stedsnr" v="268120" />
	</node>
	<node lat="64.92581944799169" lon="11.454188895869788" id="-41911">
		<tag k="name" v="Ølløvheia" />
		<tag k="place" v="locality" />
		<tag k="ssr:stedsnr" v="268940" />
	</node>
	<node lat="64.90958333229206" lon="11.390361107533842" id="-41919">
		<tag k="name" v="Sørdalen" />
		<tag k="natural" v="valley" />
		<tag k="place" v="locality" />
		<tag k="ssr:stedsnr" v="268942" />
	</node>
	<node lat="64.91737777533508" lon="11.445447222989866" id="-41923">
		<tag k="name" v="Sørlihammeren" />
		<tag k="natural" v="hill" />
		<tag k="place" v="locality" />
		<tag k="ssr:stedsnr" v="268921" />
	</node>
	<node lat="64.92456666748605" lon="11.4415722141614" id="-41924">
		<tag k="name" v="Kvernhusmoen" />
		<tag k="place" v="locality" />
		<tag k="ssr:stedsnr" v="268923" />
	</node>
	<node lat="64.94886944011373" lon="11.521747219401096" id="-41925">
		<tag k="name" v="Midtiremma" />
		<tag k="place" v="locality" />
		<tag k="ssr:stedsnr" v="269052" />
	</node>
	<node lat="64.88314721886667" lon="11.659975000253798" id="-41926">
		<tag k="name" v="Vadet" />
		<tag k="place" v="locality" />
		<tag k="ssr:stedsnr" v="269061" />
	</node>
	<node lat="64.88532222413266" lon="11.648930563094472" id="-41927">
		<tag k="name" v="Fjølvikskaret" />
		<tag k="natural" v="valley" />
		<tag k="place" v="locality" />
		<tag k="ssr:stedsnr" v="269068" />
	</node>
	<node lat="64.92022222608404" lon="11.819144453917252" id="-41930">
		<tag k="name" v="Hesjeholet" />
		<tag k="place" v="locality" />
		<tag k="ssr:stedsnr" v="269009" />
	</node>
	<node lat="64.9177194475562" lon="11.78219166314038" id="-41932">
		<tag k="fixme" v="consider natural=peak for the most distinct mountains in the district" />
		<tag k="name" v="Langdalslifjellet" />
		<tag k="natural" v="hill" />
		<tag k="place" v="locality" />
		<tag k="ssr:stedsnr" v="269014" />
	</node>
	<node lat="64.89976666821572" lon="11.388891657564317" id="-41934">
		<tag k="name" v="Nesjlian" />
		<tag k="natural" v="slope" />
		<tag k="place" v="locality" />
		<tag k="ssr:stedsnr" v="209933" />
	</node>
	<node lat="64.97835000047604" lon="12.150569437725197" id="-41938">
		<tag k="name" v="Bjørnstokkkløyva" />
		<tag k="place" v="locality" />
		<tag k="ssr:stedsnr" v="210295" />
	</node>
	<node lat="64.97136389270528" lon="12.062024996046201" id="-41939">
		<tag k="name" v="Kinnmelliholet" />
		<tag k="place" v="locality" />
		<tag k="ssr:stedsnr" v="210405" />
	</node>
	<node lat="64.92625833044919" lon="12.313175008850152" id="-41945">
		<tag k="name" v="Kvernhusdalen" />
		<tag k="natural" v="valley" />
		<tag k="place" v="locality" />
		<tag k="ssr:stedsnr" v="210305" />
	</node>
	<node lat="64.96727222206582" lon="12.16744165724232" id="-41947">
		<tag k="name" v="Sandvegan" />
		<tag k="place" v="locality" />
		<tag k="ssr:stedsnr" v="210325" />
	</node>
	<node lat="64.97215278142619" lon="12.156791656812675" id="-41948">
		<tag k="fixme" v="consider natural=peak for the most distinct mountains in the district" />
		<tag k="name" v="Hessengåsen" />
		<tag k="natural" v="hill" />
		<tag k="place" v="locality" />
		<tag k="ssr:stedsnr" v="210331" />
	</node>
	<node lat="64.95425277363711" lon="11.987738889547133" id="-41949">
		<tag k="name" v="Vargholet" />
		<tag k="place" v="locality" />
		<tag k="ssr:stedsnr" v="210392" />
	</node>
	<node lat="64.9179527808484" lon="12.157730563046233" id="-41954">
		<tag k="name" v="Søyholet" />
		<tag k="natural" v="valley" />
		<tag k="place" v="locality" />
		<tag k="ssr:stedsnr" v="211186" />
	</node>
	<node lat="64.83281388658976" lon="11.20651111171725" id="-41961">
		<tag k="name" v="Haninghaugen" />
		<tag k="natural" v="hill" />
		<tag k="place" v="locality" />
		<tag k="ssr:stedsnr" v="269999" />
	</node>
	<node lat="64.93684166570337" lon="12.23341388049538" id="-41965">
		<tag k="name" v="Høghaugen" />
		<tag k="natural" v="hill" />
		<tag k="place" v="locality" />
		<tag k="ssr:stedsnr" v="270336" />
	</node>
	<node lat="64.95615833083401" lon="12.19200555971447" id="-41966">
		<tag k="name" v="Kamman" />
		<tag k="natural" v="hill" />
		<tag k="place" v="locality" />
		<tag k="ssr:stedsnr" v="270315" />
	</node>
	<node lat="64.94473610952639" lon="12.0535083286183" id="-41970">
		<tag k="name" v="Raplia" />
		<tag k="natural" v="slope" />
		<tag k="place" v="locality" />
		<tag k="ssr:stedsnr" v="270362" />
	</node>
	<node lat="64.91361666856733" lon="11.391916676713949" id="-41972">
		<tag k="name" v="Fallet" />
		<tag k="place" v="locality" />
		<tag k="ssr:stedsnr" v="270461" />
	</node>
	<node lat="64.90046666218225" lon="11.295544451383268" id="-41973">
		<tag k="name" v="Stakkskardet" />
		<tag k="natural" v="valley" />
		<tag k="place" v="locality" />
		<tag k="ssr:stedsnr" v="270469" />
	</node>
	<node lat="64.8055083342996" lon="11.90834443848063" id="-41997">
		<tag k="name" v="Svarttjønnlia" />
		<tag k="natural" v="slope" />
		<tag k="place" v="locality" />
		<tag k="ssr:stedsnr" v="225004" />
	</node>
	<node lat="64.85250555246395" lon="11.504736117841347" id="-42003">
		<tag k="name" v="Kabelhaugen" />
		<tag k="natural" v="hill" />
		<tag k="place" v="locality" />
		<tag k="ssr:stedsnr" v="226117" />
	</node>
	<node lat="64.75018611054826" lon="11.247644441572401" id="-42005">
		<tag k="name" v="Strandaskaret" />
		<tag k="natural" v="valley" />
		<tag k="place" v="locality" />
		<tag k="ssr:stedsnr" v="226236" />
	</node>
	<node lat="64.82554166641765" lon="11.191000001105467" id="-42006">
		<tag k="name" v="Svinstigen" />
		<tag k="natural" v="slope" />
		<tag k="place" v="locality" />
		<tag k="ssr:stedsnr" v="226240" />
	</node>
	<node lat="64.90531944908713" lon="11.475049990567497" id="-42008">
		<tag k="name" v="Tronga" />
		<tag k="natural" v="slope" />
		<tag k="place" v="locality" />
		<tag k="ssr:stedsnr" v="227377" />
	</node>
	<node lat="64.88979444559246" lon="11.441766664067636" id="-42012">
		<tag k="name" v="Tømmerskardet" />
		<tag k="natural" v="valley" />
		<tag k="place" v="locality" />
		<tag k="ssr:stedsnr" v="227399" />
	</node>
	<node lat="64.9010972250571" lon="11.51943332618738" id="-42013">
		<tag k="name" v="Slettfjellet" />
		<tag k="natural" v="hill" />
		<tag k="place" v="locality" />
		<tag k="ssr:stedsnr" v="227442" />
	</node>
	<node lat="64.93085000094533" lon="11.63515277978066" id="-42017">
		<tag k="name" v="Rødshaugen" />
		<tag k="natural" v="hill" />
		<tag k="place" v="locality" />
		<tag k="ssr:stedsnr" v="229204" />
	</node>
	<node lat="64.95193610760911" lon="11.595116674392772" id="-42018">
		<tag k="name" v="Storklaven" />
		<tag k="natural" v="cliff" />
		<tag k="ssr:stedsnr" v="229241" />
	</node>
	<node lat="64.88165833153248" lon="11.499125007726704" id="-42020">
		<tag k="name" v="Einmoen" />
		<tag k="place" v="locality" />
		<tag k="ssr:stedsnr" v="229439" />
	</node>
	<node lat="64.85756944594749" lon="11.111877778643407" id="-42024">
		<tag k="name" v="Fløyhaugen" />
		<tag k="natural" v="hill" />
		<tag k="place" v="locality" />
		<tag k="ssr:stedsnr" v="229600" />
	</node>
	<node lat="64.94869444071323" lon="11.673402779523126" id="-42027">
		<tag k="name" v="Lømarka" />
		<tag k="natural" v="slope" />
		<tag k="place" v="locality" />
		<tag k="ssr:stedsnr" v="229634" />
	</node>
	<node lat="64.95684721869569" lon="11.709291662080433" id="-42028">
		<tag k="name" v="Matberget" />
		<tag k="natural" v="hill" />
		<tag k="place" v="locality" />
		<tag k="ssr:stedsnr" v="229680" />
	</node>
	<node lat="64.96226944299633" lon="11.65290554882327" id="-42029">
		<tag k="name" v="Onsskardet" />
		<tag k="natural" v="valley" />
		<tag k="place" v="locality" />
		<tag k="ssr:stedsnr" v="229804" />
	</node>
	<node lat="64.96716110918639" lon="11.038416676032623" id="-42038">
		<tag k="name" v="Skogli" />
		<tag k="natural" v="slope" />
		<tag k="place" v="locality" />
		<tag k="ssr:stedsnr" v="230632" />
	</node>
	<node lat="64.92832500218661" lon="11.084533332017287" id="-42040">
		<tag k="name" v="Stutinden" />
		<tag k="natural" v="hill" />
		<tag k="place" v="locality" />
		<tag k="ssr:stedsnr" v="230689" />
	</node>
	<node lat="64.93525277476353" lon="11.464563893128448" id="-42041">
		<tag k="name" v="Storhaugen" />
		<tag k="natural" v="hill" />
		<tag k="place" v="locality" />
		<tag k="ssr:stedsnr" v="451075" />
	</node>
	<node lat="64.9320805599685" lon="11.512852768090864" id="-42049">
		<tag k="name" v="Brattheia" />
		<tag k="place" v="locality" />
		<tag k="ssr:stedsnr" v="450073" />
	</node>
	<node lat="64.97960833437463" lon="12.096938879979874" id="-42054">
		<tag k="name" v="Vattalia" />
		<tag k="natural" v="slope" />
		<tag k="place" v="locality" />
		<tag k="ssr:stedsnr" v="234802" />
	</node>
	<node lat="64.93364721808905" lon="12.080827782194296" id="-42055">
		<tag k="name" v="Sandbankan" />
		<tag k="place" v="locality" />
		<tag k="ssr:stedsnr" v="234829" />
	</node>
	<node lat="64.92617221833366" lon="12.04932778467709" id="-42056">
		<tag k="fixme" v="consider natural=peak for the most distinct mountains in the district" />
		<tag k="name" v="Høgaksla" />
		<tag k="natural" v="hill" />
		<tag k="place" v="locality" />
		<tag k="ssr:stedsnr" v="234836" />
	</node>
	<node lat="64.9369194456114" lon="11.488141660288852" id="-42057">
		<tag k="fixme" v="consider natural=peak for the most distinct mountains in the district" />
		<tag k="name" v="Torvfjellet" />
		<tag k="natural" v="hill" />
		<tag k="place" v="locality" />
		<tag k="ssr:stedsnr" v="450060" />
	</node>
	<node lat="64.98704722258117" lon="12.08090276794369" id="-42058">
		<tag k="name" v="Vattanesa" />
		<tag k="place" v="locality" />
		<tag k="ssr:stedsnr" v="234797" />
	</node>
	<node lat="64.93289999958468" lon="11.526877777253562" id="-42059">
		<tag k="name" v="Setran" />
		<tag k="place" v="locality" />
		<tag k="ssr:stedsnr" v="450066" />
	</node>
	<node lat="64.98588055384982" lon="12.044911107524909" id="-42061">
		<tag k="name" v="Fjelldalen" />
		<tag k="natural" v="valley" />
		<tag k="place" v="locality" />
		<tag k="ssr:stedsnr" v="234882" />
	</node>
	<node lat="64.94140833083598" lon="11.907872220741412" id="-42062">
		<tag k="name" v="Storenget" />
		<tag k="place" v="locality" />
		<tag k="ssr:stedsnr" v="450194" />
	</node>
	<node lat="64.91848610985366" lon="11.449088882335813" id="-42078">
		<tag k="name" v="Steinkløyva" />
		<tag k="place" v="locality" />
		<tag k="ssr:stedsnr" v="450933" />
	</node>
	<node lat="64.90447499903948" lon="11.76779999162379" id="-42081">
		<tag k="name" v="Strupen" />
		<tag k="natural" v="valley" />
		<tag k="place" v="locality" />
		<tag k="ssr:stedsnr" v="451034" />
	</node>
	<node lat="64.93408888509525" lon="11.51743054870343" id="-42084">
		<tag k="name" v="Smådalen" />
		<tag k="natural" v="valley" />
		<tag k="place" v="locality" />
		<tag k="ssr:stedsnr" v="451091" />
	</node>
	<node lat="64.9476861097915" lon="11.881824992369898" id="-42088">
		<tag k="name" v="Finnhytthaugen" />
		<tag k="natural" v="hill" />
		<tag k="place" v="locality" />
		<tag k="ssr:stedsnr" v="451259" />
	</node>
	<node lat="64.89933332924173" lon="11.81530833988226" id="-42091">
		<tag k="fixme" v="consider natural=peak for the most distinct mountains in the district" />
		<tag k="name" v="Kjeurdfjellet" />
		<tag k="natural" v="hill" />
		<tag k="place" v="locality" />
		<tag k="ssr:stedsnr" v="451265" />
	</node>
	<node lat="64.8448916682666" lon="11.232858332723733" id="-42094">
		<tag k="name" v="Kudaufjellet" />
		<tag k="natural" v="hill" />
		<tag k="place" v="locality" />
		<tag k="ssr:stedsnr" v="451909" />
	</node>
	<node lat="64.8421166642009" lon="11.236994452435306" id="-42099">
		<tag k="name" v="Glåmen" />
		<tag k="natural" v="hill" />
		<tag k="place" v="locality" />
		<tag k="ssr:stedsnr" v="451998" />
	</node>
	<node lat="64.82929166821421" lon="11.210105555662881" id="-42100">
		<tag k="name" v="Litl-Risdalen" />
		<tag k="natural" v="valley" />
		<tag k="place" v="locality" />
		<tag k="ssr:stedsnr" v="451999" />
	</node>
	<node lat="64.93349444126062" lon="12.045283325322032" id="-42104">
		<tag k="name" v="Kovaråa" />
		<tag k="place" v="locality" />
		<tag k="ssr:stedsnr" v="452359" />
	</node>
	<node lat="64.92198333088538" lon="11.463330561445785" id="-42127">
		<tag k="fixme" v="consider natural=peak for the most distinct mountains in the district" />
		<tag k="name" v="Blåfjellet" />
		<tag k="natural" v="hill" />
		<tag k="place" v="locality" />
		<tag k="ssr:stedsnr" v="257018" />
	</node>
	<node lat="64.89433611067318" lon="11.622455558734787" id="-42130">
		<tag k="name" v="Grytdalen" />
		<tag k="natural" v="valley" />
		<tag k="place" v="locality" />
		<tag k="ssr:stedsnr" v="257059" />
	</node>
	<node lat="64.89247499754295" lon="11.288683343445918" id="-42131">
		<tag k="name" v="Skarvberget" />
		<tag k="natural" v="hill" />
		<tag k="place" v="locality" />
		<tag k="ssr:stedsnr" v="257067" />
	</node>
	<node lat="64.92625833479464" lon="11.654802779755869" id="-42134">
		<tag k="name" v="Dugurdstuva" />
		<tag k="natural" v="hill" />
		<tag k="place" v="locality" />
		<tag k="ssr:stedsnr" v="257258" />
	</node>
	<node lat="64.82566666614709" lon="11.362183328309113" id="-42138">
		<tag k="name" v="Ramtinden" />
		<tag k="natural" v="hill" />
		<tag k="place" v="locality" />
		<tag k="ssr:stedsnr" v="257302" />
	</node>
	<node lat="64.8419027770413" lon="11.569272227176262" id="-42144">
		<tag k="alt_name" v="Urskaret" />
		<tag k="name" v="Urdskardet" />
		<tag k="natural" v="valley" />
		<tag k="place" v="locality" />
		<tag k="ssr:stedsnr" v="257520" />
	</node>
	<node lat="64.90144166761253" lon="10.87714999438433" id="-42152">
		<tag k="alt_name" v="Ulsundtuvo" />
		<tag k="fixme" v="consider natural=peak for the most distinct mountains in the district" />
		<tag k="name" v="Ulsundtuva" />
		<tag k="natural" v="hill" />
		<tag k="place" v="locality" />
		<tag k="ssr:stedsnr" v="257618" />
	</node>
	<node lat="64.94097221916333" lon="12.137752784787853" id="-42153">
		<tag k="alt_name" v="Vassveiglia" />
		<tag k="name" v="Vassveglia" />
		<tag k="natural" v="slope" />
		<tag k="place" v="locality" />
		<tag k="ssr:stedsnr" v="257622" />
	</node>
	<node lat="64.88252500291384" lon="10.877008337488453" id="-42175">
		<tag k="name" v="Ormsletta" />
		<tag k="place" v="locality" />
		<tag k="ssr:stedsnr" v="257911" />
	</node>
	<node lat="64.8844444440066" lon="11.156211102122505" id="-42178">
		<tag k="fixme" v="consider natural=peak for the most distinct mountains in the district" />
		<tag k="name" v="Årlitinden" />
		<tag k="natural" v="hill" />
		<tag k="place" v="locality" />
		<tag k="ssr:stedsnr" v="257922" />
	</node>
	<node lat="64.87293611466922" lon="11.095016663048629" id="-42181">
		<tag k="fixme" v="consider natural=peak for the most distinct mountains in the district" />
		<tag k="name" v="Meraftasfjellet" />
		<tag k="natural" v="hill" />
		<tag k="place" v="locality" />
		<tag k="ssr:stedsnr" v="257927" />
	</node>
	<node lat="65.0234138852491" lon="11.056405559579037" id="-42185">
		<tag k="name" v="Leikås" />
		<tag k="natural" v="hill" />
		<tag k="place" v="locality" />
		<tag k="ssr:stedsnr" v="267702" />
	</node>
	<node lat="64.93643055606965" lon="11.496030555493602" id="-42191">
		<tag k="name" v="Sankthanshaugen" />
		<tag k="natural" v="hill" />
		<tag k="place" v="locality" />
		<tag k="ssr:stedsnr" v="268082" />
	</node>
	<node lat="64.92149722219305" lon="11.52576665966269" id="-42192">
		<tag k="name" v="Vasskardet" />
		<tag k="place" v="locality" />
		<tag k="ssr:stedsnr" v="268087" />
	</node>
	<node lat="64.89670832984689" lon="11.364458334915454" id="-42201">
		<tag k="name" v="Vargskardet" />
		<tag k="natural" v="valley" />
		<tag k="place" v="locality" />
		<tag k="ssr:stedsnr" v="269906" />
	</node>
	<node lat="64.96369444752509" lon="12.169986119006506" id="-42206">
		<tag k="name" v="Rønningen" />
		<tag k="place" v="locality" />
		<tag k="ssr:stedsnr" v="270324" />
	</node>
	<node lat="64.93429444833988" lon="12.193716660525375" id="-42209">
		<tag k="name" v="Sjøhaugen" />
		<tag k="natural" v="hill" />
		<tag k="place" v="locality" />
		<tag k="ssr:stedsnr" v="270331" />
	</node>
	<node lat="64.98827499632478" lon="12.136783340657932" id="-42211">
		<tag k="name" v="Småkamman" />
		<tag k="natural" v="ridge" />
		<tag k="place" v="locality" />
		<tag k="ssr:stedsnr" v="270271" />
	</node>
	<node lat="64.91526944219414" lon="12.272605564703854" id="-42213">
		<tag k="name" v="Egga" />
		<tag k="place" v="locality" />
		<tag k="ssr:stedsnr" v="270281" />
	</node>
	<node lat="64.8455583357409" lon="11.16034722132916" id="-42215">
		<tag k="name" v="Sjyhaugen" />
		<tag k="natural" v="hill" />
		<tag k="place" v="locality" />
		<tag k="ssr:stedsnr" v="270491" />
	</node>
	<node lat="64.92205832877896" lon="12.143616672869285" id="-42222">
		<tag k="name" v="Leirtjønnlia" />
		<tag k="natural" v="slope" />
		<tag k="place" v="locality" />
		<tag k="ssr:stedsnr" v="272172" />
	</node>
	<node lat="64.92754444262326" lon="12.165658324568323" id="-42223">
		<tag k="name" v="Slettberga" />
		<tag k="natural" v="hill" />
		<tag k="place" v="locality" />
		<tag k="ssr:stedsnr" v="272174" />
	</node>
	<node lat="64.82186944504541" lon="11.911633323467475" id="-42227">
		<tag k="name" v="Saubekkdalen" />
		<tag k="natural" v="valley" />
		<tag k="place" v="locality" />
		<tag k="ssr:stedsnr" v="286004" />
	</node>
	<node lat="64.80073889171837" lon="11.87921945143849" id="-42228">
		<tag k="name" v="Råtinden" />
		<tag k="natural" v="hill" />
		<tag k="place" v="locality" />
		<tag k="ssr:stedsnr" v="286005" />
	</node>
</osm>
