<?xml version="1.0" encoding="UTF-8"?>
<<<<<<< HEAD
<osm version="0.6" generator="osmapis">
	<node lat="64.83650277892615" lon="11.488511103532508" id="-38352">
=======
<osm generator="osmapis" version="0.6">
	<node id="-831398" lat="64.8543104607" lon="12.1748179185">
		<tag k="fixme" v="consider boundary=protected_area and relevant protect_class if not nature reserve" />
		<tag k="leisure" v="nature_reserve" />
		<tag k="name" v="MjÃ¸sund naturreservat" />
		<tag k="ssr:stedsnr" v="981202" />
	</node>
	<node id="-829387" lat="64.8365027789" lon="11.4885111035">
>>>>>>> e1d4bc35ff8a6074a6f2e91616a996b547c36f15
		<tag k="name" v="Lauvset statsallmenning" />
		<tag k="place" v="locality" />
		<tag k="ssr:stedsnr" v="408104" />
	</node>
<<<<<<< HEAD
	<node lat="64.8360055544772" lon="12.152169442393367" id="-39126">
		<tag k="name" v="Mjosund statsallmenning" />
		<tag k="place" v="locality" />
		<tag k="ssr:stedsnr" v="596062" />
	</node>
=======
>>>>>>> e1d4bc35ff8a6074a6f2e91616a996b547c36f15
</osm>
