<?xml version="1.0" encoding="UTF-8"?>
<osm version="0.6" generator="osmapis">
	<node lat="58.764377776225366" lon="8.82161945284285" id="-31678">
		<tag k="alt_name" v="Åsen, nordre" />
		<tag k="fixme" v="consider natural=peak for the most distinct mountains in the district" />
		<tag k="name" v="Nordre Åsen" />
		<tag k="natural" v="hill" />
		<tag k="place" v="locality" />
		<tag k="ssr:stedsnr" v="550" />
	</node>
	<node lat="58.77255277378778" lon="8.91968056236586" id="-31679">
		<tag k="fixme" v="consider natural=peak for the most distinct mountains in the district" />
		<tag k="name" v="Galteheia" />
		<tag k="natural" v="hill" />
		<tag k="place" v="locality" />
		<tag k="ssr:stedsnr" v="444" />
	</node>
	<node lat="58.67765277877578" lon="8.73295277066843" id="-31681">
		<tag k="fixme" v="consider natural=peak for the most distinct mountains in the district" />
		<tag k="name" v="Skolbergknatten" />
		<tag k="natural" v="hill" />
		<tag k="place" v="locality" />
		<tag k="ssr:stedsnr" v="916" />
	</node>
	<node lat="58.81743055698671" lon="8.974519438792006" id="-31682">
		<tag k="fixme" v="consider natural=peak for the most distinct mountains in the district" />
		<tag k="name" v="Raunbæråsen" />
		<tag k="natural" v="hill" />
		<tag k="place" v="locality" />
		<tag k="ssr:stedsnr" v="1039" />
	</node>
	<node lat="58.82228888662003" lon="8.850555546994462" id="-31683">
		<tag k="alt_name" v="Renstøllia" />
		<tag k="name" v="Rennstøllia" />
		<tag k="natural" v="slope" />
		<tag k="place" v="locality" />
		<tag k="ssr:stedsnr" v="1089" />
	</node>
	<node lat="58.71868888901655" lon="8.82421945190247" id="-31684">
		<tag k="fixme" v="consider natural=peak for the most distinct mountains in the district" />
		<tag k="name" v="Knollen" />
		<tag k="natural" v="hill" />
		<tag k="place" v="locality" />
		<tag k="ssr:stedsnr" v="1109" />
	</node>
	<node lat="58.809224997295466" lon="8.704558325132686" id="-31691">
		<tag k="fixme" v="consider natural=peak for the most distinct mountains in the district" />
		<tag k="name" v="Lonfjell" />
		<tag k="natural" v="hill" />
		<tag k="place" v="locality" />
		<tag k="ssr:stedsnr" v="1591" />
	</node>
	<node lat="58.81985000322089" lon="8.693300002545916" id="-31692">
		<tag k="alt_name" v="Moripfjell" />
		<tag k="fixme" v="consider natural=peak for the most distinct mountains in the district" />
		<tag k="name" v="Moripfjellet" />
		<tag k="natural" v="hill" />
		<tag k="place" v="locality" />
		<tag k="ssr:stedsnr" v="1685" />
	</node>
	<node lat="58.698261113540745" lon="8.83433055336999" id="-31693">
		<tag k="fixme" v="consider natural=peak for the most distinct mountains in the district" />
		<tag k="name" v="Bårknuten" />
		<tag k="natural" v="hill" />
		<tag k="place" v="locality" />
		<tag k="ssr:stedsnr" v="1880" />
	</node>
	<node lat="58.687052781305866" lon="8.853797230767466" id="-31696">
		<tag k="fixme" v="consider natural=peak for the most distinct mountains in the district" />
		<tag k="name" v="Skrefjell" />
		<tag k="natural" v="hill" />
		<tag k="place" v="locality" />
		<tag k="ssr:stedsnr" v="29821" />
	</node>
	<node lat="58.697419446281906" lon="8.80505278144209" id="-31698">
		<tag k="fixme" v="consider natural=peak for the most distinct mountains in the district" />
		<tag k="name" v="Øksfjellheia" />
		<tag k="natural" v="hill" />
		<tag k="place" v="locality" />
		<tag k="ssr:stedsnr" v="31003" />
	</node>
	<node lat="58.76456388813729" lon="8.760972230807823" id="-31699">
		<tag k="name" v="Den lange heia" />
		<tag k="natural" v="ridge" />
		<tag k="place" v="locality" />
		<tag k="ssr:stedsnr" v="31004" />
	</node>
	<node lat="58.70831110987244" lon="8.784538880338749" id="-31701">
		<tag k="name" v="Heibekkbråta" />
		<tag k="natural" v="slope" />
		<tag k="place" v="locality" />
		<tag k="ssr:stedsnr" v="31014" />
	</node>
	<node lat="58.705377777297144" lon="8.81837778281766" id="-31702">
		<tag k="fixme" v="consider natural=peak for the most distinct mountains in the district" />
		<tag k="name" v="Bågstølåsen" />
		<tag k="natural" v="hill" />
		<tag k="place" v="locality" />
		<tag k="ssr:stedsnr" v="31017" />
	</node>
	<node lat="58.80866944093585" lon="8.903311106255472" id="-31704">
		<tag k="name" v="Sirismyrdalen" />
		<tag k="natural" v="valley" />
		<tag k="place" v="locality" />
		<tag k="ssr:stedsnr" v="31103" />
	</node>
	<node lat="58.817655553009715" lon="8.91140833647233" id="-31710">
		<tag k="name" v="Skjellarbakken" />
		<tag k="natural" v="hill" />
		<tag k="place" v="locality" />
		<tag k="ssr:stedsnr" v="31120" />
	</node>
	<node lat="58.73381667109178" lon="8.82225833483112" id="-31711">
		<tag k="name" v="Oksdalen" />
		<tag k="natural" v="valley" />
		<tag k="place" v="locality" />
		<tag k="ssr:stedsnr" v="31163" />
	</node>
	<node lat="58.65203611017979" lon="8.807761106754239" id="-31718">
		<tag k="name" v="Damkleiv" />
		<tag k="natural" v="slope" />
		<tag k="place" v="locality" />
		<tag k="ssr:stedsnr" v="31177" />
	</node>
	<node lat="58.751924995830024" lon="8.798941667186714" id="-31719">
		<tag k="name" v="Skeimodalen" />
		<tag k="natural" v="valley" />
		<tag k="place" v="locality" />
		<tag k="ssr:stedsnr" v="31183" />
	</node>
	<node lat="58.76223889119206" lon="8.847880551267153" id="-31724">
		<tag k="fixme" v="consider natural=peak for the most distinct mountains in the district" />
		<tag k="name" v="Øverliknatten" />
		<tag k="natural" v="hill" />
		<tag k="place" v="locality" />
		<tag k="ssr:stedsnr" v="31309" />
	</node>
	<node lat="58.775041668845404" lon="8.840997214746725" id="-31726">
		<tag k="name" v="Bruredalen" />
		<tag k="natural" v="valley" />
		<tag k="place" v="locality" />
		<tag k="ssr:stedsnr" v="31315" />
	</node>
	<node lat="58.73465277742529" lon="8.895941660414413" id="-31727">
		<tag k="name" v="Lyngmyrheia" />
		<tag k="natural" v="hill" />
		<tag k="place" v="locality" />
		<tag k="ssr:stedsnr" v="31316" />
	</node>
	<node lat="58.76832222050306" lon="8.879644442373197" id="-31728">
		<tag k="name" v="Brattåsdalen" />
		<tag k="natural" v="valley" />
		<tag k="place" v="locality" />
		<tag k="ssr:stedsnr" v="31319" />
	</node>
	<node lat="58.73979721997226" lon="8.919130546954525" id="-31731">
		<tag k="name" v="Ingeborgstølen" />
		<tag k="natural" v="hill" />
		<tag k="place" v="locality" />
		<tag k="ssr:stedsnr" v="31263" />
	</node>
	<node lat="58.75712500299895" lon="8.904388896024999" id="-31736">
		<tag k="name" v="Rosendal" />
		<tag k="natural" v="valley" />
		<tag k="place" v="locality" />
		<tag k="ssr:stedsnr" v="31276" />
	</node>
	<node lat="58.70150833033215" lon="8.84617222079656" id="-31737">
		<tag k="fixme" v="consider natural=peak for the most distinct mountains in the district" />
		<tag k="name" v="Røssmyrknuten" />
		<tag k="natural" v="hill" />
		<tag k="place" v="locality" />
		<tag k="ssr:stedsnr" v="31401" />
	</node>
	<node lat="58.81227500205369" lon="8.833649992157993" id="-31739">
		<tag k="name" v="Barlinddalen" />
		<tag k="natural" v="valley" />
		<tag k="place" v="locality" />
		<tag k="ssr:stedsnr" v="31412" />
	</node>
	<node lat="58.736624997904855" lon="8.994052782706534" id="-31745">
		<tag k="fixme" v="consider natural=peak for the most distinct mountains in the district" />
		<tag k="name" v="Stiansknuten" />
		<tag k="natural" v="hill" />
		<tag k="place" v="locality" />
		<tag k="ssr:stedsnr" v="31513" />
	</node>
	<node lat="58.77939166752973" lon="8.981675001310336" id="-31746">
		<tag k="fixme" v="consider natural=peak for the most distinct mountains in the district" />
		<tag k="name" v="Kvennåsen" />
		<tag k="natural" v="hill" />
		<tag k="place" v="locality" />
		<tag k="ssr:stedsnr" v="31523" />
	</node>
	<node lat="58.74198055807682" lon="8.93924444019189" id="-31747">
		<tag k="fixme" v="consider natural=peak for the most distinct mountains in the district" />
		<tag k="name" v="Stormyråsen" />
		<tag k="natural" v="hill" />
		<tag k="place" v="locality" />
		<tag k="ssr:stedsnr" v="31566" />
	</node>
	<node lat="58.66300833421438" lon="8.76568332617629" id="-31754">
		<tag k="fixme" v="consider natural=peak for the most distinct mountains in the district" />
		<tag k="name" v="Fjellmyrheia" />
		<tag k="natural" v="hill" />
		<tag k="place" v="locality" />
		<tag k="ssr:stedsnr" v="31676" />
	</node>
	<node lat="58.659305551981284" lon="8.769361113679164" id="-31755">
		<tag k="name" v="Einerbekktangane" />
		<tag k="place" v="locality" />
		<tag k="ssr:stedsnr" v="31679" />
	</node>
	<node lat="58.8042694416914" lon="8.80816945034828" id="-31757">
		<tag k="fixme" v="consider natural=peak for the most distinct mountains in the district" />
		<tag k="name" v="Løvikheia" />
		<tag k="natural" v="hill" />
		<tag k="place" v="locality" />
		<tag k="ssr:stedsnr" v="31808" />
	</node>
	<node lat="58.78981666940548" lon="8.813230555836032" id="-31759">
		<tag k="name" v="St. Olavs gryte" />
		<tag k="natural" v="valley" />
		<tag k="place" v="locality" />
		<tag k="ssr:stedsnr" v="31764" />
	</node>
	<node lat="58.6976722246438" lon="8.92873889572029" id="-31766">
		<tag k="fixme" v="consider natural=peak for the most distinct mountains in the district" />
		<tag k="name" v="Furreheia" />
		<tag k="natural" v="hill" />
		<tag k="place" v="locality" />
		<tag k="ssr:stedsnr" v="32432" />
	</node>
	<node lat="58.70555833583815" lon="8.689608333122546" id="-31771">
		<tag k="alt_name" v="Dalsfjell" />
		<tag k="fixme" v="consider natural=peak for the most distinct mountains in the district" />
		<tag k="name" v="Dalsfjellet" />
		<tag k="natural" v="hill" />
		<tag k="place" v="locality" />
		<tag k="ssr:stedsnr" v="61073" />
	</node>
	<node lat="58.75338333366674" lon="8.669999993191327" id="-31772">
		<tag k="fixme" v="consider natural=peak for the most distinct mountains in the district" />
		<tag k="name" v="Haukåsen" />
		<tag k="natural" v="hill" />
		<tag k="place" v="locality" />
		<tag k="ssr:stedsnr" v="61185" />
	</node>
	<node lat="58.76411667116444" lon="8.740380554646626" id="-31777">
		<tag k="alt_name" v="Knuten" />
		<tag k="fixme" v="consider natural=peak for the most distinct mountains in the district" />
		<tag k="name" v="Geitknuten" />
		<tag k="natural" v="hill" />
		<tag k="place" v="locality" />
		<tag k="ssr:stedsnr" v="61509" />
	</node>
	<node lat="58.69973333577415" lon="8.773941659216096" id="-31786">
		<tag k="fixme" v="consider natural=peak for the most distinct mountains in the district" />
		<tag k="name" v="Eikåsen" />
		<tag k="natural" v="hill" />
		<tag k="place" v="locality" />
		<tag k="ssr:stedsnr" v="62901" />
	</node>
	<node lat="58.84235555868863" lon="8.92884167364051" id="-31787">
		<tag k="fixme" v="consider natural=peak for the most distinct mountains in the district" />
		<tag k="name" v="Buråsen" />
		<tag k="natural" v="hill" />
		<tag k="place" v="locality" />
		<tag k="ssr:stedsnr" v="243039" />
	</node>
	<node lat="58.720197224889326" lon="8.743558341111" id="-31788">
		<tag k="alt_name" v="Tryttjenn" />
		<tag k="fixme" v="consider natural=peak for the most distinct mountains in the district" />
		<tag k="name" v="Høgåsen" />
		<tag k="natural" v="hill" />
		<tag k="place" v="locality" />
		<tag k="ssr:stedsnr" v="243054" />
	</node>
	<node lat="58.82654999726372" lon="8.947700004302684" id="-31790">
		<tag k="name" v="Knutsbulia" />
		<tag k="natural" v="slope" />
		<tag k="place" v="locality" />
		<tag k="ssr:stedsnr" v="243033" />
	</node>
	<node lat="58.73433888989181" lon="8.71588610575552" id="-31791">
		<tag k="fixme" v="consider natural=peak for the most distinct mountains in the district" />
		<tag k="name" v="Knutsmyrheia" />
		<tag k="natural" v="hill" />
		<tag k="place" v="locality" />
		<tag k="ssr:stedsnr" v="243095" />
	</node>
	<node lat="58.758805556788566" lon="8.82505277562502" id="-31792">
		<tag k="fixme" v="consider natural=peak for the most distinct mountains in the district" />
		<tag k="name" v="Byttåsen" />
		<tag k="natural" v="hill" />
		<tag k="place" v="locality" />
		<tag k="ssr:stedsnr" v="243548" />
	</node>
	<node lat="58.78137500108557" lon="8.816966661094607" id="-31797">
		<tag k="name" v="Steheia" />
		<tag k="natural" v="hill" />
		<tag k="place" v="locality" />
		<tag k="ssr:stedsnr" v="243523" />
	</node>
	<node lat="58.855436113251066" lon="8.797008328993888" id="-31800">
		<tag k="name" v="Økssteindalen" />
		<tag k="natural" v="valley" />
		<tag k="place" v="locality" />
		<tag k="ssr:stedsnr" v="243726" />
	</node>
	<node lat="58.859324999942054" lon="8.79811389388452" id="-31801">
		<tag k="name" v="Olsokheia" />
		<tag k="natural" v="hill" />
		<tag k="place" v="locality" />
		<tag k="ssr:stedsnr" v="243727" />
	</node>
	<node lat="58.80444444264031" lon="8.810650000319315" id="-31807">
		<tag k="name" v="Askedalen" />
		<tag k="natural" v="valley" />
		<tag k="place" v="locality" />
		<tag k="ssr:stedsnr" v="244616" />
	</node>
	<node lat="58.77599166681964" lon="8.79133055611834" id="-31808">
		<tag k="fixme" v="consider natural=peak for the most distinct mountains in the district" />
		<tag k="name" v="Nipane" />
		<tag k="natural" v="hill" />
		<tag k="place" v="locality" />
		<tag k="ssr:stedsnr" v="244553" />
	</node>
	<node lat="58.78712499877319" lon="8.67936666382337" id="-31809">
		<tag k="name" v="Skålheia" />
		<tag k="natural" v="hill" />
		<tag k="place" v="locality" />
		<tag k="ssr:stedsnr" v="244643" />
	</node>
	<node lat="58.794663892637004" lon="8.786325006104917" id="-31811">
		<tag k="name" v="Spårådalen" />
		<tag k="natural" v="valley" />
		<tag k="place" v="locality" />
		<tag k="ssr:stedsnr" v="244659" />
	</node>
	<node lat="58.69906388473221" lon="8.813169451201373" id="-31813">
		<tag k="fixme" v="consider natural=peak for the most distinct mountains in the district" />
		<tag k="name" v="Strålausfjella" />
		<tag k="natural" v="hill" />
		<tag k="place" v="locality" />
		<tag k="ssr:stedsnr" v="92002" />
	</node>
	<node lat="58.76096944723436" lon="8.756527780167406" id="-31814">
		<tag k="name" v="Rossdalsknatten" />
		<tag k="natural" v="hill" />
		<tag k="place" v="locality" />
		<tag k="ssr:stedsnr" v="92007" />
	</node>
	<node lat="58.71129166861702" lon="8.874436109551054" id="-31816">
		<tag k="fixme" v="consider natural=peak for the most distinct mountains in the district" />
		<tag k="name" v="Rødsknatten" />
		<tag k="natural" v="hill" />
		<tag k="place" v="locality" />
		<tag k="ssr:stedsnr" v="92105" />
	</node>
	<node lat="58.71335000264943" lon="8.86664167128969" id="-31817">
		<tag k="name" v="Vesterdal" />
		<tag k="natural" v="valley" />
		<tag k="place" v="locality" />
		<tag k="ssr:stedsnr" v="92106" />
	</node>
	<node lat="58.72147222578144" lon="8.873402776907747" id="-31820">
		<tag k="fixme" v="consider natural=peak for the most distinct mountains in the district" />
		<tag k="name" v="Eggane" />
		<tag k="natural" v="hill" />
		<tag k="place" v="locality" />
		<tag k="ssr:stedsnr" v="92114" />
	</node>
	<node lat="58.65992222121273" lon="8.82073055171153" id="-31821">
		<tag k="fixme" v="consider natural=peak for the most distinct mountains in the district" />
		<tag k="name" v="Gjerdefjell" />
		<tag k="natural" v="hill" />
		<tag k="place" v="locality" />
		<tag k="ssr:stedsnr" v="92117" />
	</node>
	<node lat="58.660936111015886" lon="8.811738896436806" id="-31822">
		<tag k="fixme" v="consider natural=peak for the most distinct mountains in the district" />
		<tag k="name" v="Kloppkjerrheia" />
		<tag k="natural" v="hill" />
		<tag k="place" v="locality" />
		<tag k="ssr:stedsnr" v="92120" />
	</node>
	<node lat="58.80484444852864" lon="8.720222216900936" id="-31823">
		<tag k="name" v="Langmyrliene" />
		<tag k="natural" v="slope" />
		<tag k="place" v="locality" />
		<tag k="ssr:stedsnr" v="92121" />
	</node>
	<node lat="58.72428055295447" lon="8.755000008631885" id="-31827">
		<tag k="fixme" v="consider natural=peak for the most distinct mountains in the district" />
		<tag k="name" v="Grønfjell" />
		<tag k="natural" v="hill" />
		<tag k="place" v="locality" />
		<tag k="ssr:stedsnr" v="92163" />
	</node>
	<node lat="58.74458888528952" lon="8.811788892059708" id="-31832">
		<tag k="fixme" v="consider natural=peak for the most distinct mountains in the district" />
		<tag k="name" v="Byttåsen" />
		<tag k="natural" v="hill" />
		<tag k="place" v="locality" />
		<tag k="ssr:stedsnr" v="92179" />
	</node>
	<node lat="58.734419446706326" lon="8.91119722045323" id="-31835">
		<tag k="name" v="Ramsliheia" />
		<tag k="natural" v="hill" />
		<tag k="place" v="locality" />
		<tag k="ssr:stedsnr" v="92306" />
	</node>
	<node lat="58.76599444250806" lon="8.843294448038392" id="-31836">
		<tag k="name" v="Lia" />
		<tag k="natural" v="slope" />
		<tag k="place" v="locality" />
		<tag k="ssr:stedsnr" v="92309" />
	</node>
	<node lat="58.76628889104508" lon="8.851008334256576" id="-31839">
		<tag k="name" v="Stannarbakken" />
		<tag k="natural" v="hill" />
		<tag k="place" v="locality" />
		<tag k="ssr:stedsnr" v="92321" />
	</node>
	<node lat="58.80397499643574" lon="8.887372220845293" id="-31844">
		<tag k="fixme" v="consider natural=peak for the most distinct mountains in the district" />
		<tag k="name" v="Kreklingås" />
		<tag k="natural" v="hill" />
		<tag k="place" v="locality" />
		<tag k="ssr:stedsnr" v="92081" />
	</node>
	<node lat="58.71413333350323" lon="8.724050002888136" id="-31845">
		<tag k="fixme" v="consider natural=peak for the most distinct mountains in the district" />
		<tag k="name" v="Stormyrfjell" />
		<tag k="natural" v="hill" />
		<tag k="place" v="locality" />
		<tag k="ssr:stedsnr" v="92203" />
	</node>
	<node lat="58.75469444420518" lon="8.811500007513292" id="-31846">
		<tag k="name" v="Torvtjennåsen" />
		<tag k="natural" v="hill" />
		<tag k="place" v="locality" />
		<tag k="ssr:stedsnr" v="92207" />
	</node>
	<node lat="58.69750277879446" lon="8.728919442548762" id="-31849">
		<tag k="name" v="Røyrmyrdalen" />
		<tag k="natural" v="valley" />
		<tag k="place" v="locality" />
		<tag k="ssr:stedsnr" v="92219" />
	</node>
	<node lat="58.69598055428408" lon="8.754725004587915" id="-31850">
		<tag k="name" v="Molandsdalen" />
		<tag k="natural" v="valley" />
		<tag k="place" v="locality" />
		<tag k="ssr:stedsnr" v="92220" />
	</node>
	<node lat="58.669369443801166" lon="8.759605556712566" id="-31856">
		<tag k="name" v="Ommundsli" />
		<tag k="natural" v="slope" />
		<tag k="place" v="locality" />
		<tag k="ssr:stedsnr" v="92277" />
	</node>
	<node lat="58.822027777145884" lon="8.914008335774092" id="-31859">
		<tag k="name" v="Heståslia" />
		<tag k="natural" v="slope" />
		<tag k="place" v="locality" />
		<tag k="ssr:stedsnr" v="92414" />
	</node>
	<node lat="58.78095000318771" lon="8.681011105243657" id="-31865">
		<tag k="name" v="Godfarslåttheia" />
		<tag k="natural" v="hill" />
		<tag k="place" v="locality" />
		<tag k="ssr:stedsnr" v="92603" />
	</node>
	<node lat="58.79419722101658" lon="8.971480550062298" id="-31867">
		<tag k="fixme" v="consider natural=peak for the most distinct mountains in the district" />
		<tag k="name" v="Ravnknatten" />
		<tag k="natural" v="hill" />
		<tag k="place" v="locality" />
		<tag k="ssr:stedsnr" v="92611" />
	</node>
	<node lat="58.81110555972434" lon="8.848113886775746" id="-31871">
		<tag k="fixme" v="consider natural=peak for the most distinct mountains in the district" />
		<tag k="name" v="Hagtjennåsen" />
		<tag k="natural" v="hill" />
		<tag k="place" v="locality" />
		<tag k="ssr:stedsnr" v="92371" />
	</node>
	<node lat="58.74455277748949" lon="8.986541658587909" id="-31872">
		<tag k="fixme" v="consider natural=peak for the most distinct mountains in the district" />
		<tag k="name" v="Jerpedalsheia" />
		<tag k="natural" v="hill" />
		<tag k="place" v="locality" />
		<tag k="ssr:stedsnr" v="92503" />
	</node>
	<node lat="58.7247250032895" lon="8.65181388824433" id="-31878">
		<tag k="name" v="Eikåsdalen" />
		<tag k="natural" v="valley" />
		<tag k="place" v="locality" />
		<tag k="ssr:stedsnr" v="92711" />
	</node>
	<node lat="58.71387222317813" lon="8.648577770244653" id="-31880">
		<tag k="name" v="Tiurleiken" />
		<tag k="natural" v="hill" />
		<tag k="place" v="locality" />
		<tag k="ssr:stedsnr" v="92718" />
	</node>
	<node lat="58.642911110260265" lon="8.79767500100784" id="-31881">
		<tag k="name" v="Nordheia" />
		<tag k="natural" v="ridge" />
		<tag k="place" v="locality" />
		<tag k="ssr:stedsnr" v="92725" />
	</node>
	<node lat="58.803766666367416" lon="8.825608331535982" id="-31883">
		<tag k="name" v="Kolvedhogsten" />
		<tag k="natural" v="slope" />
		<tag k="place" v="locality" />
		<tag k="ssr:stedsnr" v="92809" />
	</node>
	<node lat="58.75305000204237" lon="8.659525001066818" id="-31896">
		<tag k="name" v="Persliene" />
		<tag k="natural" v="slope" />
		<tag k="place" v="locality" />
		<tag k="ssr:stedsnr" v="92981" />
	</node>
	<node lat="58.74270277654328" lon="8.622752785480127" id="-31898">
		<tag k="fixme" v="consider natural=peak for the most distinct mountains in the district" />
		<tag k="name" v="Raudhellheia" />
		<tag k="natural" v="hill" />
		<tag k="place" v="locality" />
		<tag k="ssr:stedsnr" v="92989" />
	</node>
	<node lat="58.837577778127184" lon="8.913761110684607" id="-31902">
		<tag k="fixme" v="consider natural=peak for the most distinct mountains in the district" />
		<tag k="name" v="Buholtåsen" />
		<tag k="natural" v="hill" />
		<tag k="place" v="locality" />
		<tag k="ssr:stedsnr" v="122103" />
	</node>
	<node lat="58.82840000233711" lon="8.945966673337018" id="-31908">
		<tag k="fixme" v="consider natural=peak for the most distinct mountains in the district" />
		<tag k="name" v="Knutsbufjell" />
		<tag k="natural" v="hill" />
		<tag k="place" v="locality" />
		<tag k="ssr:stedsnr" v="122079" />
	</node>
	<node lat="58.81717777362545" lon="8.791152780047291" id="-31919">
		<tag k="alt_name" v="Blekkfjell" />
		<tag k="fixme" v="consider natural=peak for the most distinct mountains in the district" />
		<tag k="name" v="Blekfjell" />
		<tag k="natural" v="hill" />
		<tag k="place" v="locality" />
		<tag k="ssr:stedsnr" v="122574" />
	</node>
	<node lat="58.80260833590038" lon="8.668333329322662" id="-31920">
		<tag k="name" v="Donafjellmoen" />
		<tag k="place" v="locality" />
		<tag k="ssr:stedsnr" v="152111" />
	</node>
	<node lat="58.75160000351998" lon="8.912366663253417" id="-31923">
		<tag k="fixme" v="consider natural=peak for the most distinct mountains in the district" />
		<tag k="name" v="Bronåsen" />
		<tag k="natural" v="hill" />
		<tag k="place" v="locality" />
		<tag k="ssr:stedsnr" v="152504" />
	</node>
	<node lat="58.76752499893004" lon="8.751691668168254" id="-31926">
		<tag k="fixme" v="consider natural=peak for the most distinct mountains in the district" />
		<tag k="name" v="Lille Åslandsfjell" />
		<tag k="natural" v="hill" />
		<tag k="place" v="locality" />
		<tag k="ssr:stedsnr" v="153012" />
	</node>
	<node lat="58.77610000039869" lon="8.905688897082538" id="-31928">
		<tag k="fixme" v="consider natural=peak for the most distinct mountains in the district" />
		<tag k="name" v="Hoffjellbakkane" />
		<tag k="natural" v="hill" />
		<tag k="place" v="locality" />
		<tag k="ssr:stedsnr" v="153015" />
	</node>
	<node lat="58.78404444648228" lon="8.89326944895605" id="-31930">
		<tag k="name" v="Byttingsmyrlia" />
		<tag k="natural" v="slope" />
		<tag k="place" v="locality" />
		<tag k="ssr:stedsnr" v="153019" />
	</node>
	<node lat="58.78150833112323" lon="8.873769449717065" id="-31933">
		<tag k="fixme" v="consider natural=peak for the most distinct mountains in the district" />
		<tag k="name" v="Støleheia" />
		<tag k="natural" v="hill" />
		<tag k="place" v="locality" />
		<tag k="ssr:stedsnr" v="153052" />
	</node>
	<node lat="58.695363885333386" lon="8.783066666387644" id="-31934">
		<tag k="name" v="Årdalen" />
		<tag k="natural" v="valley" />
		<tag k="place" v="locality" />
		<tag k="ssr:stedsnr" v="153053" />
	</node>
	<node lat="58.699691666285965" lon="8.780255562628131" id="-31936">
		<tag k="name" v="Hyttejordet" />
		<tag k="place" v="locality" />
		<tag k="ssr:stedsnr" v="153057" />
	</node>
	<node lat="58.708666666378065" lon="8.72779166800877" id="-31945">
		<tag k="fixme" v="consider natural=peak for the most distinct mountains in the district" />
		<tag k="name" v="Diplemyrknatten" />
		<tag k="natural" v="hill" />
		<tag k="place" v="locality" />
		<tag k="ssr:stedsnr" v="153207" />
	</node>
	<node lat="58.69736111208614" lon="8.76091667434476" id="-31946">
		<tag k="name" v="Bøykedalen" />
		<tag k="natural" v="valley" />
		<tag k="place" v="locality" />
		<tag k="ssr:stedsnr" v="153208" />
	</node>
	<node lat="58.75642500169715" lon="8.718188882546118" id="-31948">
		<tag k="fixme" v="consider natural=peak for the most distinct mountains in the district" />
		<tag k="name" v="Ramsåsen" />
		<tag k="natural" v="hill" />
		<tag k="place" v="locality" />
		<tag k="ssr:stedsnr" v="153213" />
	</node>
	<node lat="58.715575002616156" lon="8.865972226875723" id="-31961">
		<tag k="fixme" v="consider natural=peak for the most distinct mountains in the district" />
		<tag k="name" v="Hareåsen" />
		<tag k="natural" v="hill" />
		<tag k="place" v="locality" />
		<tag k="ssr:stedsnr" v="153120" />
	</node>
	<node lat="58.64868055540333" lon="8.786394450801696" id="-31966">
		<tag k="name" v="Jammerdal" />
		<tag k="natural" v="valley" />
		<tag k="place" v="locality" />
		<tag k="ssr:stedsnr" v="153168" />
	</node>
	<node lat="58.74480555513141" lon="8.92795000411724" id="-31972">
		<tag k="name" v="Almedalen" />
		<tag k="natural" v="valley" />
		<tag k="place" v="locality" />
		<tag k="ssr:stedsnr" v="153304" />
	</node>
	<node lat="58.71895555416052" lon="8.889155547165585" id="-31974">
		<tag k="fixme" v="consider natural=peak for the most distinct mountains in the district" />
		<tag k="name" v="Grosskjerrheia" />
		<tag k="natural" v="hill" />
		<tag k="place" v="locality" />
		<tag k="ssr:stedsnr" v="153380" />
	</node>
	<node lat="58.80770833196119" lon="8.866150006903846" id="-31976">
		<tag k="name" v="Hulldalen" />
		<tag k="natural" v="valley" />
		<tag k="place" v="locality" />
		<tag k="ssr:stedsnr" v="153384" />
	</node>
	<node lat="58.70244166722" lon="8.874883333647729" id="-31981">
		<tag k="fixme" v="consider natural=peak for the most distinct mountains in the district" />
		<tag k="name" v="Grasåsen" />
		<tag k="natural" v="hill" />
		<tag k="place" v="locality" />
		<tag k="ssr:stedsnr" v="153414" />
	</node>
	<node lat="58.70392777966767" lon="8.927083331196341" id="-31982">
		<tag k="name" v="Siristjennlia" />
		<tag k="natural" v="slope" />
		<tag k="place" v="locality" />
		<tag k="ssr:stedsnr" v="153450" />
	</node>
	<node lat="58.82126666760349" lon="8.709549998387697" id="-31989">
		<tag k="name" v="Stemdalen" />
		<tag k="natural" v="valley" />
		<tag k="place" v="locality" />
		<tag k="ssr:stedsnr" v="153608" />
	</node>
	<node lat="58.812516664765425" lon="8.710316659459403" id="-31996">
		<tag k="name" v="Lille Londal" />
		<tag k="natural" v="valley" />
		<tag k="place" v="locality" />
		<tag k="ssr:stedsnr" v="153912" />
	</node>
	<node lat="58.66995277665278" lon="8.764322227148345" id="-32000">
		<tag k="fixme" v="consider natural=peak for the most distinct mountains in the district" />
		<tag k="name" v="Ospelundsknatten" />
		<tag k="natural" v="hill" />
		<tag k="place" v="locality" />
		<tag k="ssr:stedsnr" v="153651" />
	</node>
	<node lat="58.783522221820704" lon="8.801422214905815" id="-32001">
		<tag k="name" v="Kvernknatten" />
		<tag k="natural" v="hill" />
		<tag k="place" v="locality" />
		<tag k="ssr:stedsnr" v="153803" />
	</node>
	<node lat="58.7879083325958" lon="8.800916660384921" id="-32002">
		<tag k="name" v="Færsnesbakkane" />
		<tag k="natural" v="slope" />
		<tag k="place" v="locality" />
		<tag k="ssr:stedsnr" v="153809" />
	</node>
	<node lat="58.82396666864993" lon="8.753636114285685" id="-32003">
		<tag k="name" v="Tjennslåttliene" />
		<tag k="natural" v="slope" />
		<tag k="place" v="locality" />
		<tag k="ssr:stedsnr" v="153813" />
	</node>
	<node lat="58.718447130095704" lon="8.838361187375183" id="-32006">
		<tag k="fixme" v="consider natural=peak for the most distinct mountains in the district" />
		<tag k="name" v="Gjersfjellet" />
		<tag k="natural" v="hill" />
		<tag k="place" v="locality" />
		<tag k="ssr:stedsnr" v="182062" />
	</node>
	<node lat="58.76604166740747" lon="8.771852771337908" id="-32008">
		<tag k="name" v="Bjørndalen" />
		<tag k="natural" v="valley" />
		<tag k="place" v="locality" />
		<tag k="ssr:stedsnr" v="182551" />
	</node>
	<node lat="58.7423416679773" lon="8.878905551366284" id="-32017">
		<tag k="fixme" v="consider natural=peak for the most distinct mountains in the district" />
		<tag k="name" v="Råsfjell" />
		<tag k="natural" v="hill" />
		<tag k="place" v="locality" />
		<tag k="ssr:stedsnr" v="183505" />
	</node>
	<node lat="58.77070000109788" lon="8.764877776808781" id="-32024">
		<tag k="name" v="Gjersliene" />
		<tag k="natural" v="slope" />
		<tag k="place" v="locality" />
		<tag k="ssr:stedsnr" v="214004" />
	</node>
	<node lat="58.6750361110574" lon="8.82706943963022" id="-32031">
		<tag k="name" v="Grasåslia" />
		<tag k="natural" v="slope" />
		<tag k="place" v="locality" />
		<tag k="ssr:stedsnr" v="214030" />
	</node>
	<node lat="58.79888333502058" lon="8.893613896435049" id="-32034">
		<tag k="fixme" v="consider natural=peak for the most distinct mountains in the district" />
		<tag k="name" v="Flatli" />
		<tag k="natural" v="hill" />
		<tag k="place" v="locality" />
		<tag k="ssr:stedsnr" v="214079" />
	</node>
	<node lat="58.80732777865024" lon="8.894830549879378" id="-32035">
		<tag k="name" v="Nepedalen" />
		<tag k="natural" v="valley" />
		<tag k="place" v="locality" />
		<tag k="ssr:stedsnr" v="214080" />
	</node>
	<node lat="58.80648055859957" lon="8.93770278196048" id="-32036">
		<tag k="fixme" v="consider natural=peak for the most distinct mountains in the district" />
		<tag k="name" v="Saukollen" />
		<tag k="natural" v="hill" />
		<tag k="place" v="locality" />
		<tag k="ssr:stedsnr" v="214089" />
	</node>
	<node lat="58.72716944296608" lon="8.892172220918448" id="-32037">
		<tag k="fixme" v="consider natural=peak for the most distinct mountains in the district" />
		<tag k="name" v="Raudmyrheia" />
		<tag k="natural" v="hill" />
		<tag k="place" v="locality" />
		<tag k="ssr:stedsnr" v="214090" />
	</node>
	<node lat="58.72148055595584" lon="8.843205550346498" id="-32039">
		<tag k="name" v="Pøntane" />
		<tag k="natural" v="ridge" />
		<tag k="place" v="locality" />
		<tag k="ssr:stedsnr" v="214100" />
	</node>
	<node lat="58.713024996399426" lon="8.819288881350188" id="-32042">
		<tag k="name" v="Jambukkdalen" />
		<tag k="natural" v="valley" />
		<tag k="place" v="locality" />
		<tag k="ssr:stedsnr" v="214204" />
	</node>
	<node lat="58.73844722550292" lon="8.866105558493395" id="-32044">
		<tag k="name" v="Klova" />
		<tag k="natural" v="valley" />
		<tag k="place" v="locality" />
		<tag k="ssr:stedsnr" v="214212" />
	</node>
	<node lat="58.74886944402499" lon="8.855899992084401" id="-32046">
		<tag k="fixme" v="consider natural=peak for the most distinct mountains in the district" />
		<tag k="name" v="Djuptjennhaugen" />
		<tag k="natural" v="hill" />
		<tag k="place" v="locality" />
		<tag k="ssr:stedsnr" v="214230" />
	</node>
	<node lat="58.65694722351672" lon="8.786699993266723" id="-32051">
		<tag k="fixme" v="consider natural=peak for the most distinct mountains in the district" />
		<tag k="name" v="Langtjennheia" />
		<tag k="natural" v="hill" />
		<tag k="place" v="locality" />
		<tag k="ssr:stedsnr" v="214110" />
	</node>
	<node lat="58.79971666997166" lon="8.749583327988848" id="-32052">
		<tag k="name" v="Myrbakken" />
		<tag k="natural" v="slope" />
		<tag k="place" v="locality" />
		<tag k="ssr:stedsnr" v="214111" />
	</node>
	<node lat="58.759044443437965" lon="8.807916662497647" id="-32056">
		<tag k="name" v="Råbulia" />
		<tag k="natural" v="slope" />
		<tag k="place" v="locality" />
		<tag k="ssr:stedsnr" v="214178" />
	</node>
	<node lat="58.77063055994401" lon="8.813797220457408" id="-32059">
		<tag k="fixme" v="consider natural=peak for the most distinct mountains in the district" />
		<tag k="name" v="Trandlebruheia" />
		<tag k="natural" v="hill" />
		<tag k="place" v="locality" />
		<tag k="ssr:stedsnr" v="214192" />
	</node>
	<node lat="58.717552780207825" lon="8.925180553122381" id="-32062">
		<tag k="fixme" v="consider natural=peak for the most distinct mountains in the district" />
		<tag k="name" v="Havsåsheia" />
		<tag k="natural" v="hill" />
		<tag k="place" v="locality" />
		<tag k="ssr:stedsnr" v="214376" />
	</node>
	<node lat="58.804591667348184" lon="8.845805557754877" id="-32064">
		<tag k="name" v="Mosteinen" />
		<tag k="place" v="locality" />
		<tag k="ssr:stedsnr" v="214380" />
	</node>
	<node lat="58.705944446390724" lon="8.86235833889886" id="-32068">
		<tag k="fixme" v="consider natural=peak for the most distinct mountains in the district" />
		<tag k="name" v="Svintoksåsen" />
		<tag k="natural" v="hill" />
		<tag k="place" v="locality" />
		<tag k="ssr:stedsnr" v="214388" />
	</node>
	<node lat="58.81845277434258" lon="8.977894446485044" id="-32077">
		<tag k="name" v="Takseråsfjell" />
		<tag k="natural" v="hill" />
		<tag k="place" v="locality" />
		<tag k="ssr:stedsnr" v="214576" />
	</node>
	<node lat="58.74276666276816" lon="8.835155552008013" id="-32081">
		<tag k="name" v="Linddalshei" />
		<tag k="natural" v="hill" />
		<tag k="place" v="locality" />
		<tag k="ssr:stedsnr" v="214279" />
	</node>
	<node lat="58.69598611492838" lon="8.837091661788223" id="-32084">
		<tag k="name" v="Dipildalen" />
		<tag k="natural" v="valley" />
		<tag k="place" v="locality" />
		<tag k="ssr:stedsnr" v="214415" />
	</node>
	<node lat="58.68810000109084" lon="8.938722224346161" id="-32088">
		<tag k="fixme" v="consider natural=peak for the most distinct mountains in the district" />
		<tag k="name" v="Blautmyrknatten" />
		<tag k="natural" v="hill" />
		<tag k="place" v="locality" />
		<tag k="ssr:stedsnr" v="214481" />
	</node>
	<node lat="58.8553611095123" lon="8.852058325353896" id="-32089">
		<tag k="name" v="Trettebekklia" />
		<tag k="natural" v="slope" />
		<tag k="place" v="locality" />
		<tag k="ssr:stedsnr" v="214482" />
	</node>
	<node lat="58.67559722354316" lon="8.81080556128462" id="-32095">
		<tag k="name" v="Ubergsdalen" />
		<tag k="natural" v="valley" />
		<tag k="place" v="locality" />
		<tag k="ssr:stedsnr" v="214709" />
	</node>
	<node lat="58.77044722025834" lon="8.952413897311999" id="-32097">
		<tag k="name" v="Røynfjelldalen" />
		<tag k="natural" v="valley" />
		<tag k="place" v="locality" />
		<tag k="ssr:stedsnr" v="214730" />
	</node>
	<node lat="58.6847972181184" lon="8.760130549119642" id="-32107">
		<tag k="fixme" v="consider natural=peak for the most distinct mountains in the district" />
		<tag k="name" v="Øyråsknatten" />
		<tag k="natural" v="hill" />
		<tag k="place" v="locality" />
		<tag k="ssr:stedsnr" v="214674" />
	</node>
	<node lat="58.6705138862939" lon="8.798163894169354" id="-32108">
		<tag k="name" v="Badstuheia" />
		<tag k="natural" v="ridge" />
		<tag k="place" v="locality" />
		<tag k="ssr:stedsnr" v="214685" />
	</node>
	<node lat="58.67111666952181" lon="8.783825002388257" id="-32109">
		<tag k="name" v="Østre Skrubbedalen" />
		<tag k="natural" v="valley" />
		<tag k="place" v="locality" />
		<tag k="ssr:stedsnr" v="214688" />
	</node>
	<node lat="58.77769722292418" lon="8.749022223435329" id="-32117">
		<tag k="fixme" v="consider natural=peak for the most distinct mountains in the district" />
		<tag k="name" v="Kjørkemyrheia" />
		<tag k="natural" v="hill" />
		<tag k="place" v="locality" />
		<tag k="ssr:stedsnr" v="214881" />
	</node>
	<node lat="58.782161111551" lon="8.735569441235002" id="-32118">
		<tag k="name" v="Saurdalen" />
		<tag k="natural" v="valley" />
		<tag k="place" v="locality" />
		<tag k="ssr:stedsnr" v="214888" />
	</node>
	<node lat="58.81679166504429" lon="8.943491672721601" id="-32126">
		<tag k="name" v="Jerpelia" />
		<tag k="natural" v="slope" />
		<tag k="place" v="locality" />
		<tag k="ssr:stedsnr" v="244038" />
	</node>
	<node lat="58.75948889220755" lon="9.009580562227743" id="-32129">
		<tag k="fixme" v="consider natural=peak for the most distinct mountains in the district" />
		<tag k="name" v="Stormyråsen" />
		<tag k="natural" v="hill" />
		<tag k="place" v="locality" />
		<tag k="ssr:stedsnr" v="244407" />
	</node>
	<node lat="58.792713891005214" lon="8.938338895911947" id="-32130">
		<tag k="fixme" v="consider natural=peak for the most distinct mountains in the district" />
		<tag k="name" v="Jordsmyrheia" />
		<tag k="natural" v="hill" />
		<tag k="place" v="locality" />
		<tag k="ssr:stedsnr" v="244505" />
	</node>
	<node lat="58.795974999266036" lon="8.94560000832401" id="-32131">
		<tag k="fixme" v="consider natural=peak for the most distinct mountains in the district" />
		<tag k="name" v="Spokkåsen" />
		<tag k="natural" v="hill" />
		<tag k="place" v="locality" />
		<tag k="ssr:stedsnr" v="244507" />
	</node>
	<node lat="58.71879166614228" lon="8.9661277775289" id="-32135">
		<tag k="fixme" v="consider natural=peak for the most distinct mountains in the district" />
		<tag k="name" v="Vierliheia" />
		<tag k="natural" v="hill" />
		<tag k="place" v="locality" />
		<tag k="ssr:stedsnr" v="244606" />
	</node>
	<node lat="58.700072220303376" lon="8.690072221467457" id="-32139">
		<tag k="name" v="Skipsknatten" />
		<tag k="natural" v="hill" />
		<tag k="place" v="locality" />
		<tag k="ssr:stedsnr" v="244905" />
	</node>
	<node lat="58.69905000442597" lon="8.819452769824718" id="-32140">
		<tag k="fixme" v="consider natural=peak for the most distinct mountains in the district" />
		<tag k="name" v="Langklevheia" />
		<tag k="natural" v="hill" />
		<tag k="place" v="locality" />
		<tag k="ssr:stedsnr" v="244884" />
	</node>
	<node lat="58.726433329334554" lon="8.862247218973044" id="-32142">
		<tag k="fixme" v="consider natural=peak for the most distinct mountains in the district" />
		<tag k="name" v="Strandheia" />
		<tag k="natural" v="hill" />
		<tag k="place" v="locality" />
		<tag k="ssr:stedsnr" v="456078" />
	</node>
	<node lat="58.68837777864215" lon="8.899197226088825" id="-32147">
		<tag k="fixme" v="consider natural=peak for the most distinct mountains in the district" />
		<tag k="name" v="Mellomåsen" />
		<tag k="natural" v="hill" />
		<tag k="place" v="locality" />
		<tag k="ssr:stedsnr" v="456041" />
	</node>
	<node lat="58.81308055153731" lon="8.92155556389643" id="-32158">
		<tag k="name" v="Viernes" />
		<tag k="natural" v="hill" />
		<tag k="place" v="locality" />
		<tag k="ssr:stedsnr" v="456138" />
	</node>
	<node lat="58.71756389041752" lon="8.853675007941048" id="-32160">
		<tag k="name" v="Kloppedalen" />
		<tag k="natural" v="valley" />
		<tag k="place" v="locality" />
		<tag k="ssr:stedsnr" v="456150" />
	</node>
	<node lat="58.79816666527813" lon="8.726605559576106" id="-32165">
		<tag k="name" v="Einerrenna" />
		<tag k="natural" v="valley" />
		<tag k="place" v="locality" />
		<tag k="ssr:stedsnr" v="456158" />
	</node>
	<node lat="58.730466665028125" lon="8.737074996916718" id="-32166">
		<tag k="fixme" v="consider natural=peak for the most distinct mountains in the district" />
		<tag k="name" v="Grasåsen" />
		<tag k="natural" v="hill" />
		<tag k="place" v="locality" />
		<tag k="ssr:stedsnr" v="456179" />
	</node>
	<node lat="58.652869446590266" lon="8.805508335185667" id="-32169">
		<tag k="fixme" v="consider natural=peak for the most distinct mountains in the district" />
		<tag k="name" v="Kvennmyrheia" />
		<tag k="natural" v="hill" />
		<tag k="place" v="locality" />
		<tag k="ssr:stedsnr" v="456189" />
	</node>
	<node lat="58.736338886576696" lon="8.751952777550414" id="-32171">
		<tag k="name" v="Knollen" />
		<tag k="natural" v="hill" />
		<tag k="place" v="locality" />
		<tag k="ssr:stedsnr" v="456195" />
	</node>
	<node lat="58.77105277874762" lon="8.858725007829449" id="-32174">
		<tag k="name" v="Hølliene" />
		<tag k="natural" v="slope" />
		<tag k="place" v="locality" />
		<tag k="ssr:stedsnr" v="456292" />
	</node>
	<node lat="58.77041388956968" lon="8.796105560745902" id="-32178">
		<tag k="fixme" v="consider natural=peak for the most distinct mountains in the district" />
		<tag k="name" v="Rustknuten" />
		<tag k="natural" v="hill" />
		<tag k="place" v="locality" />
		<tag k="ssr:stedsnr" v="456238" />
	</node>
	<node lat="58.716311108360166" lon="8.774761106346727" id="-32180">
		<tag k="fixme" v="consider natural=peak for the most distinct mountains in the district" />
		<tag k="name" v="Langmyrheia" />
		<tag k="natural" v="hill" />
		<tag k="place" v="locality" />
		<tag k="ssr:stedsnr" v="456244" />
	</node>
	<node lat="58.708844444768154" lon="8.743308325906673" id="-32182">
		<tag k="fixme" v="consider natural=peak for the most distinct mountains in the district" />
		<tag k="name" v="Hanekam" />
		<tag k="natural" v="hill" />
		<tag k="place" v="locality" />
		<tag k="ssr:stedsnr" v="456254" />
	</node>
	<node lat="58.70497222188373" lon="8.85625834016077" id="-32184">
		<tag k="name" v="Hasseldalsheia" />
		<tag k="natural" v="valley" />
		<tag k="place" v="locality" />
		<tag k="ssr:stedsnr" v="456386" />
	</node>
	<node lat="58.825797221432204" lon="8.903113895619468" id="-32187">
		<tag k="fixme" v="consider natural=peak for the most distinct mountains in the district" />
		<tag k="name" v="Bronåsen" />
		<tag k="natural" v="hill" />
		<tag k="place" v="locality" />
		<tag k="ssr:stedsnr" v="456394" />
	</node>
	<node lat="58.72021667028803" lon="8.925763880752145" id="-32188">
		<tag k="name" v="Klomrene" />
		<tag k="place" v="locality" />
		<tag k="ssr:stedsnr" v="456347" />
	</node>
	<node lat="58.718136106986485" lon="8.9136722208616" id="-32190">
		<tag k="fixme" v="consider natural=peak for the most distinct mountains in the district" />
		<tag k="name" v="Lille Høgås" />
		<tag k="natural" v="hill" />
		<tag k="place" v="locality" />
		<tag k="ssr:stedsnr" v="456349" />
	</node>
	<node lat="58.71903889168077" lon="8.892897228136597" id="-32192">
		<tag k="name" v="Borkhusdalen" />
		<tag k="natural" v="valley" />
		<tag k="place" v="locality" />
		<tag k="ssr:stedsnr" v="456355" />
	</node>
	<node lat="58.705500002946344" lon="8.91538611434414" id="-32195">
		<tag k="fixme" v="consider natural=peak for the most distinct mountains in the district" />
		<tag k="name" v="Åsane" />
		<tag k="natural" v="hill" />
		<tag k="place" v="locality" />
		<tag k="ssr:stedsnr" v="456429" />
	</node>
	<node lat="58.83131666496499" lon="8.904480562472873" id="-32198">
		<tag k="name" v="Eikebrekksdalen" />
		<tag k="natural" v="valley" />
		<tag k="place" v="locality" />
		<tag k="ssr:stedsnr" v="456401" />
	</node>
	<node lat="58.73183055401372" lon="8.954905556427883" id="-32199">
		<tag k="fixme" v="consider natural=peak for the most distinct mountains in the district" />
		<tag k="name" v="Øygardshotten" />
		<tag k="natural" v="hill" />
		<tag k="place" v="locality" />
		<tag k="ssr:stedsnr" v="456484" />
	</node>
	<node lat="58.72718611126974" lon="8.970899998203757" id="-32201">
		<tag k="name" v="Uvannsliene" />
		<tag k="natural" v="slope" />
		<tag k="place" v="locality" />
		<tag k="ssr:stedsnr" v="456486" />
	</node>
	<node lat="58.746030553321134" lon="8.884833332806112" id="-32202">
		<tag k="fixme" v="consider natural=peak for the most distinct mountains in the district" />
		<tag k="name" v="Bæråsen" />
		<tag k="natural" v="hill" />
		<tag k="place" v="locality" />
		<tag k="ssr:stedsnr" v="456488" />
	</node>
	<node lat="58.72851111411522" lon="8.982308328673334" id="-32203">
		<tag k="fixme" v="consider natural=peak for the most distinct mountains in the district" />
		<tag k="name" v="Hvalåsen" />
		<tag k="natural" v="hill" />
		<tag k="place" v="locality" />
		<tag k="ssr:stedsnr" v="456492" />
	</node>
	<node lat="58.76534166261261" lon="8.961872213611496" id="-32209">
		<tag k="fixme" v="consider natural=peak for the most distinct mountains in the district" />
		<tag k="name" v="Midttjennheia" />
		<tag k="natural" v="hill" />
		<tag k="place" v="locality" />
		<tag k="ssr:stedsnr" v="456534" />
	</node>
	<node lat="58.67799349192132" lon="8.783097039457353" id="-32213">
		<tag k="fixme" v="consider natural=peak for the most distinct mountains in the district" />
		<tag k="name" v="Storvarde" />
		<tag k="natural" v="hill" />
		<tag k="place" v="locality" />
		<tag k="ssr:stedsnr" v="456671" />
	</node>
	<node lat="58.67068055515261" lon="8.780955550306915" id="-32215">
		<tag k="name" v="Vestre Skrubbedalen" />
		<tag k="natural" v="valley" />
		<tag k="place" v="locality" />
		<tag k="ssr:stedsnr" v="456655" />
	</node>
	<node lat="58.67170277697039" lon="8.80721666984503" id="-32216">
		<tag k="fixme" v="consider natural=peak for the most distinct mountains in the district" />
		<tag k="name" v="Lille Lauvås" />
		<tag k="natural" v="hill" />
		<tag k="place" v="locality" />
		<tag k="ssr:stedsnr" v="456657" />
	</node>
	<node lat="58.72971110927821" lon="8.67361111741948" id="-32217">
		<tag k="name" v="Ravneflog" />
		<tag k="natural" v="cliff" />
		<tag k="ssr:stedsnr" v="456711" />
	</node>
	<node lat="58.71361388572446" lon="8.699072220169509" id="-32221">
		<tag k="name" v="Botingsli" />
		<tag k="natural" v="slope" />
		<tag k="place" v="locality" />
		<tag k="ssr:stedsnr" v="456732" />
	</node>
	<node lat="58.76691389330574" lon="8.942902769469" id="-32222">
		<tag k="name" v="Heftet" />
		<tag k="natural" v="hill" />
		<tag k="place" v="locality" />
		<tag k="ssr:stedsnr" v="456697" />
	</node>
	<node lat="58.7984277739591" lon="8.758652773820447" id="-32231">
		<tag k="name" v="Sandbuktbråta" />
		<tag k="natural" v="slope" />
		<tag k="place" v="locality" />
		<tag k="ssr:stedsnr" v="456817" />
	</node>
	<node lat="58.73990555241245" lon="8.687366662365017" id="-32233">
		<tag k="name" v="Fjellvegg" />
		<tag k="natural" v="valley" />
		<tag k="place" v="locality" />
		<tag k="ssr:stedsnr" v="456870" />
	</node>
	<node lat="58.80248055372025" lon="8.805480556959582" id="-32237">
		<tag k="name" v="Løvikliene" />
		<tag k="natural" v="slope" />
		<tag k="place" v="locality" />
		<tag k="ssr:stedsnr" v="456836" />
	</node>
	<node lat="58.81214166359553" lon="8.71289722957512" id="-32241">
		<tag k="name" v="Londalen" />
		<tag k="natural" v="valley" />
		<tag k="place" v="locality" />
		<tag k="ssr:stedsnr" v="456889" />
	</node>
	<node lat="58.73706388553927" lon="8.704552779287456" id="-32242">
		<tag k="fixme" v="consider natural=peak for the most distinct mountains in the district" />
		<tag k="name" v="Foreknutsheia" />
		<tag k="natural" v="hill" />
		<tag k="place" v="locality" />
		<tag k="ssr:stedsnr" v="456895" />
	</node>
	<node lat="58.77120555591031" lon="8.683069438648158" id="-32253">
		<tag k="fixme" v="consider natural=peak for the most distinct mountains in the district" />
		<tag k="name" v="Grasliheia" />
		<tag k="natural" v="hill" />
		<tag k="place" v="locality" />
		<tag k="ssr:stedsnr" v="456953" />
	</node>
	<node lat="58.758816666326496" lon="8.88453889030933" id="-32254">
		<tag k="fixme" v="consider natural=peak for the most distinct mountains in the district" />
		<tag k="name" v="Kvennåsen" />
		<tag k="natural" v="hill" />
		<tag k="place" v="locality" />
		<tag k="ssr:stedsnr" v="457321" />
	</node>
	<node lat="58.688286112687" lon="8.936308333527233" id="-32255">
		<tag k="name" v="Lyngrotheia" />
		<tag k="natural" v="hill" />
		<tag k="place" v="locality" />
		<tag k="ssr:stedsnr" v="263070" />
	</node>
	<node lat="58.759230553623304" lon="8.756952781841212" id="-32257">
		<tag k="name" v="Breibekkbakkane" />
		<tag k="natural" v="slope" />
		<tag k="place" v="locality" />
		<tag k="ssr:stedsnr" v="274005" />
	</node>
	<node lat="58.70419166265957" lon="8.772525008097652" id="-32259">
		<tag k="name" v="Hekkensdal" />
		<tag k="natural" v="valley" />
		<tag k="place" v="locality" />
		<tag k="ssr:stedsnr" v="274011" />
	</node>
	<node lat="58.69217222599938" lon="8.768136114176329" id="-32262">
		<tag k="name" v="Sandbekkdalen" />
		<tag k="natural" v="valley" />
		<tag k="place" v="locality" />
		<tag k="ssr:stedsnr" v="274026" />
	</node>
	<node lat="58.776555551344586" lon="8.885522227974509" id="-32264">
		<tag k="name" v="Knollen" />
		<tag k="natural" v="hill" />
		<tag k="place" v="locality" />
		<tag k="ssr:stedsnr" v="274028" />
	</node>
	<node lat="58.65163610780752" lon="8.84306945100556" id="-32265">
		<tag k="fixme" v="consider natural=peak for the most distinct mountains in the district" />
		<tag k="name" v="Vassendknuten" />
		<tag k="natural" v="hill" />
		<tag k="place" v="locality" />
		<tag k="ssr:stedsnr" v="274073" />
	</node>
	<node lat="58.68846666272589" lon="8.91856944903138" id="-32267">
		<tag k="name" v="Lille Slettåsdalen" />
		<tag k="natural" v="valley" />
		<tag k="place" v="locality" />
		<tag k="ssr:stedsnr" v="274079" />
	</node>
	<node lat="58.815477773841444" lon="8.688572228834609" id="-32268">
		<tag k="alt_name" v="Moripdalen" />
		<tag k="name" v="Moripdalane" />
		<tag k="natural" v="valley" />
		<tag k="place" v="locality" />
		<tag k="ssr:stedsnr" v="274080" />
	</node>
	<node lat="58.80721667042317" lon="8.907805560568788" id="-32270">
		<tag k="name" v="Heitjenndalen" />
		<tag k="natural" v="valley" />
		<tag k="place" v="locality" />
		<tag k="ssr:stedsnr" v="274088" />
	</node>
	<node lat="58.69944444379551" lon="8.747666659716065" id="-32274">
		<tag k="name" v="Flåta" />
		<tag k="place" v="locality" />
		<tag k="ssr:stedsnr" v="274212" />
	</node>
	<node lat="58.71842222532997" lon="8.872119439054925" id="-32279">
		<tag k="fixme" v="consider natural=peak for the most distinct mountains in the district" />
		<tag k="name" v="Smifjell" />
		<tag k="natural" v="hill" />
		<tag k="place" v="locality" />
		<tag k="ssr:stedsnr" v="274106" />
	</node>
	<node lat="58.814850000119726" lon="8.91004721775281" id="-32280">
		<tag k="name" v="Røylunden" />
		<tag k="place" v="locality" />
		<tag k="ssr:stedsnr" v="274108" />
	</node>
	<node lat="58.80034166742451" lon="8.724480560960695" id="-32282">
		<tag k="name" v="Nordslåttdalen" />
		<tag k="natural" v="valley" />
		<tag k="place" v="locality" />
		<tag k="ssr:stedsnr" v="274127" />
	</node>
	<node lat="58.725705559947755" lon="8.794286112563137" id="-32286">
		<tag k="name" v="Dørliheia" />
		<tag k="natural" v="hill" />
		<tag k="place" v="locality" />
		<tag k="ssr:stedsnr" v="274183" />
	</node>
	<node lat="58.70734722128398" lon="8.91529443943401" id="-32290">
		<tag k="fixme" v="consider natural=peak for the most distinct mountains in the district" />
		<tag k="name" v="Hylleheia" />
		<tag k="natural" v="hill" />
		<tag k="place" v="locality" />
		<tag k="ssr:stedsnr" v="274407" />
	</node>
	<node lat="58.69601944868704" lon="8.92634721919078" id="-32294">
		<tag k="name" v="Rompaltur" />
		<tag k="place" v="locality" />
		<tag k="ssr:stedsnr" v="274420" />
	</node>
	<node lat="58.74974166934047" lon="9.012816664354784" id="-32298">
		<tag k="name" v="Djupmyrlia" />
		<tag k="natural" v="slope" />
		<tag k="place" v="locality" />
		<tag k="ssr:stedsnr" v="274479" />
	</node>
	<node lat="58.68053611547129" lon="8.755205564021896" id="-32301">
		<tag k="name" v="Skrubbedalen" />
		<tag k="natural" v="valley" />
		<tag k="place" v="locality" />
		<tag k="ssr:stedsnr" v="274626" />
	</node>
	<node lat="58.761880553999546" lon="8.967119444365853" id="-32303">
		<tag k="name" v="Hasselhogsten" />
		<tag k="natural" v="slope" />
		<tag k="place" v="locality" />
		<tag k="ssr:stedsnr" v="274520" />
	</node>
	<node lat="58.78038055297784" lon="8.685036107999329" id="-32305">
		<tag k="name" v="Bjørnstillingsknatten" />
		<tag k="natural" v="hill" />
		<tag k="place" v="locality" />
		<tag k="ssr:stedsnr" v="274570" />
	</node>
	<node lat="58.78003889041602" lon="8.692705563091952" id="-32306">
		<tag k="name" v="Gorrdalen" />
		<tag k="natural" v="valley" />
		<tag k="place" v="locality" />
		<tag k="ssr:stedsnr" v="274572" />
	</node>
	<node lat="58.782036109334584" lon="8.939738884801558" id="-32307">
		<tag k="name" v="Rossnesdalen" />
		<tag k="natural" v="valley" />
		<tag k="place" v="locality" />
		<tag k="ssr:stedsnr" v="274580" />
	</node>
	<node lat="58.70738610983018" lon="8.659861117216764" id="-32308">
		<tag k="name" v="Saueknatten" />
		<tag k="natural" v="hill" />
		<tag k="place" v="locality" />
		<tag k="ssr:stedsnr" v="274706" />
	</node>
	<node lat="58.76898888704199" lon="8.94274723012739" id="-32309">
		<tag k="name" v="Toppreisdal" />
		<tag k="natural" v="slope" />
		<tag k="place" v="locality" />
		<tag k="ssr:stedsnr" v="274673" />
	</node>
	<node lat="58.802572224445385" lon="8.820308333021904" id="-32311">
		<tag k="fixme" v="consider natural=peak for the most distinct mountains in the district" />
		<tag k="name" v="Fjellmyrknatten" />
		<tag k="natural" v="hill" />
		<tag k="place" v="locality" />
		<tag k="ssr:stedsnr" v="274805" />
	</node>
	<node lat="58.782161110910984" lon="8.687666664063842" id="-32316">
		<tag k="name" v="Hellerdalen" />
		<tag k="natural" v="valley" />
		<tag k="place" v="locality" />
		<tag k="ssr:stedsnr" v="274913" />
	</node>
	<node lat="58.74528611070444" lon="8.626852777216719" id="-32317">
		<tag k="fixme" v="consider natural=peak for the most distinct mountains in the district" />
		<tag k="name" v="Danielsslåttfjella" />
		<tag k="natural" v="hill" />
		<tag k="place" v="locality" />
		<tag k="ssr:stedsnr" v="274987" />
	</node>
	<node lat="58.7612444468099" lon="8.877427784133458" id="-32319">
		<tag k="name" v="Søre Fleskedalen" />
		<tag k="natural" v="valley" />
		<tag k="place" v="locality" />
		<tag k="ssr:stedsnr" v="286686" />
	</node>
	<node lat="58.83137500001062" lon="8.919424992823714" id="-32323">
		<tag k="fixme" v="consider natural=peak for the most distinct mountains in the district" />
		<tag k="name" v="Nutknuten" />
		<tag k="natural" v="hill" />
		<tag k="place" v="locality" />
		<tag k="ssr:stedsnr" v="304073" />
	</node>
	<node lat="58.82846389059903" lon="8.904536108653701" id="-32325">
		<tag k="fixme" v="consider natural=peak for the most distinct mountains in the district" />
		<tag k="name" v="Øygardsfjell" />
		<tag k="natural" v="hill" />
		<tag k="place" v="locality" />
		<tag k="ssr:stedsnr" v="304075" />
	</node>
	<node lat="58.76691666584783" lon="8.933819446141191" id="-32327">
		<tag k="fixme" v="consider natural=peak for the most distinct mountains in the district" />
		<tag k="name" v="Ospelundheia" />
		<tag k="natural" v="hill" />
		<tag k="place" v="locality" />
		<tag k="ssr:stedsnr" v="304427" />
	</node>
	<node lat="58.76515277681275" lon="8.979794439787185" id="-32328">
		<tag k="fixme" v="consider natural=peak for the most distinct mountains in the district" />
		<tag k="name" v="Tranbæråsen" />
		<tag k="natural" v="hill" />
		<tag k="place" v="locality" />
		<tag k="ssr:stedsnr" v="304429" />
	</node>
	<node lat="58.80964722648747" lon="8.733891661596482" id="-32329">
		<tag k="name" v="Karislåttheia" />
		<tag k="natural" v="hill" />
		<tag k="place" v="locality" />
		<tag k="ssr:stedsnr" v="304583" />
	</node>
	<node lat="58.80716944384477" lon="8.833122219635422" id="-32331">
		<tag k="fixme" v="consider natural=peak for the most distinct mountains in the district" />
		<tag k="name" v="Svinsås" />
		<tag k="natural" v="hill" />
		<tag k="place" v="locality" />
		<tag k="ssr:stedsnr" v="304586" />
	</node>
	<node lat="58.79908055888169" lon="8.83994721570922" id="-32332">
		<tag k="fixme" v="consider natural=peak for the most distinct mountains in the district" />
		<tag k="name" v="Åsane" />
		<tag k="natural" v="hill" />
		<tag k="place" v="locality" />
		<tag k="ssr:stedsnr" v="304589" />
	</node>
	<node lat="58.67924444397075" lon="8.778197223018722" id="-32334">
		<tag k="name" v="Tørrmo" />
		<tag k="place" v="locality" />
		<tag k="ssr:stedsnr" v="304905" />
	</node>
	<node lat="58.795074995617" lon="8.934666670638547" id="-32335">
		<tag k="alt_name" v="Tykkli" />
		<tag k="name" v="Tykklia" />
		<tag k="natural" v="slope" />
		<tag k="place" v="locality" />
		<tag k="ssr:stedsnr" v="305520" />
	</node>
	<node lat="58.79476944644653" lon="8.874499991390064" id="-32336">
		<tag k="fixme" v="consider natural=peak for the most distinct mountains in the district" />
		<tag k="name" v="Havsåsen" />
		<tag k="natural" v="hill" />
		<tag k="place" v="locality" />
		<tag k="ssr:stedsnr" v="305525" />
	</node>
	<node lat="58.7670305515259" lon="8.759972230016807" id="-32337">
		<tag k="fixme" v="consider natural=peak for the most distinct mountains in the district" />
		<tag k="name" v="Østre Åslandsheia" />
		<tag k="natural" v="hill" />
		<tag k="place" v="locality" />
		<tag k="ssr:stedsnr" v="335003" />
	</node>
	<node lat="58.70651388769729" lon="8.797800003448872" id="-32339">
		<tag k="name" v="Bronen" />
		<tag k="natural" v="hill" />
		<tag k="place" v="locality" />
		<tag k="ssr:stedsnr" v="335021" />
	</node>
	<node lat="58.71993610779078" lon="8.849608340730352" id="-32342">
		<tag k="name" v="Pindalen" />
		<tag k="natural" v="valley" />
		<tag k="place" v="locality" />
		<tag k="ssr:stedsnr" v="335103" />
	</node>
	<node lat="58.71666944498771" lon="8.86285833366273" id="-32343">
		<tag k="name" v="Røyrmyrdalen" />
		<tag k="natural" v="valley" />
		<tag k="place" v="locality" />
		<tag k="ssr:stedsnr" v="335105" />
	</node>
	<node lat="58.658936107609684" lon="8.780322228220339" id="-32344">
		<tag k="fixme" v="consider natural=peak for the most distinct mountains in the district" />
		<tag k="name" v="Langtjennheia" />
		<tag k="natural" v="hill" />
		<tag k="place" v="locality" />
		<tag k="ssr:stedsnr" v="335108" />
	</node>
	<node lat="58.82186666940786" lon="8.933736106421811" id="-32355">
		<tag k="name" v="Koven" />
		<tag k="natural" v="valley" />
		<tag k="place" v="locality" />
		<tag k="ssr:stedsnr" v="335410" />
	</node>
	<node lat="58.73090000347577" lon="8.804791663139472" id="-32357">
		<tag k="name" v="Galtelia" />
		<tag k="natural" v="slope" />
		<tag k="place" v="locality" />
		<tag k="ssr:stedsnr" v="335193" />
	</node>
	<node lat="58.7243277771253" lon="8.728602778170833" id="-32359">
		<tag k="fixme" v="consider natural=peak for the most distinct mountains in the district" />
		<tag k="name" v="Varden" />
		<tag k="natural" v="hill" />
		<tag k="place" v="locality" />
		<tag k="ssr:stedsnr" v="335147" />
	</node>
	<node lat="58.769952775210164" lon="8.982377783386623" id="-32364">
		<tag k="name" v="Kattdalen" />
		<tag k="natural" v="valley" />
		<tag k="place" v="locality" />
		<tag k="ssr:stedsnr" v="335546" />
	</node>
	<node lat="58.74808888466227" lon="8.946750006470412" id="-32365">
		<tag k="fixme" v="consider natural=peak for the most distinct mountains in the district" />
		<tag k="name" v="Grasåsheia" />
		<tag k="natural" v="hill" />
		<tag k="place" v="locality" />
		<tag k="ssr:stedsnr" v="335561" />
	</node>
	<node lat="58.69209166287716" lon="8.922816659781404" id="-32370">
		<tag k="name" v="Høgslettåsdalen" />
		<tag k="natural" v="valley" />
		<tag k="place" v="locality" />
		<tag k="ssr:stedsnr" v="335495" />
	</node>
	<node lat="58.783627778522586" lon="8.949586103304792" id="-32371">
		<tag k="fixme" v="consider natural=peak for the most distinct mountains in the district" />
		<tag k="name" v="Sundåsen" />
		<tag k="natural" v="hill" />
		<tag k="place" v="locality" />
		<tag k="ssr:stedsnr" v="335607" />
	</node>
	<node lat="58.805300002429874" lon="8.941491658496407" id="-32374">
		<tag k="fixme" v="consider natural=peak for the most distinct mountains in the district" />
		<tag k="name" v="Åsen" />
		<tag k="natural" v="hill" />
		<tag k="place" v="locality" />
		<tag k="ssr:stedsnr" v="335615" />
	</node>
	<node lat="58.805224997508574" lon="8.954344448721827" id="-32377">
		<tag k="name" v="Tjennlia" />
		<tag k="natural" v="slope" />
		<tag k="place" v="locality" />
		<tag k="ssr:stedsnr" v="335626" />
	</node>
	<node lat="58.68072777698731" lon="8.81235833341129" id="-32378">
		<tag k="name" v="Kongsli" />
		<tag k="natural" v="slope" />
		<tag k="place" v="locality" />
		<tag k="ssr:stedsnr" v="335648" />
	</node>
	<node lat="58.683763885273144" lon="8.825338895704197" id="-32379">
		<tag k="fixme" v="consider natural=peak for the most distinct mountains in the district" />
		<tag k="name" v="Timmeråsen" />
		<tag k="natural" v="hill" />
		<tag k="place" v="locality" />
		<tag k="ssr:stedsnr" v="335651" />
	</node>
	<node lat="58.68231666437229" lon="8.780552771705265" id="-32380">
		<tag k="fixme" v="consider natural=peak for the most distinct mountains in the district" />
		<tag k="name" v="Skangerborg" />
		<tag k="natural" v="hill" />
		<tag k="place" v="locality" />
		<tag k="ssr:stedsnr" v="335699" />
	</node>
	<node lat="58.782622221101775" lon="8.679922217231056" id="-32383">
		<tag k="name" v="Skålmoen" />
		<tag k="place" v="locality" />
		<tag k="ssr:stedsnr" v="335947" />
	</node>
	<node lat="58.80457777763791" lon="8.942055550076306" id="-32388">
		<tag k="fixme" v="consider natural=peak for the most distinct mountains in the district" />
		<tag k="name" v="Kjellingåsen" />
		<tag k="natural" v="hill" />
		<tag k="place" v="locality" />
		<tag k="ssr:stedsnr" v="364003" />
	</node>
	<node lat="58.72520555379161" lon="8.821405557890955" id="-32389">
		<tag k="alt_name" v="Ribbåsen;Heståsen" />
		<tag k="fixme" v="consider natural=peak for the most distinct mountains in the district" />
		<tag k="name" v="Repåsen" />
		<tag k="natural" v="hill" />
		<tag k="place" v="locality" />
		<tag k="ssr:stedsnr" v="364123" />
	</node>
	<node lat="58.766461112083405" lon="8.750427780739754" id="-32391">
		<tag k="alt_name" v="Åslandsfjell" />
		<tag k="fixme" v="consider natural=peak for the most distinct mountains in the district" />
		<tag k="name" v="Åslandsfjellet" />
		<tag k="natural" v="hill" />
		<tag k="place" v="locality" />
		<tag k="ssr:stedsnr" v="364507" />
	</node>
	<node lat="58.697658330480614" lon="8.881613885878977" id="-32395">
		<tag k="alt_name" v="Brattåsen" />
		<tag k="fixme" v="consider natural=peak for the most distinct mountains in the district" />
		<tag k="name" v="Brattliknuten" />
		<tag k="natural" v="hill" />
		<tag k="place" v="locality" />
		<tag k="ssr:stedsnr" v="364499" />
	</node>
	<node lat="58.75740277962139" lon="8.873747230049354" id="-32399">
		<tag k="fixme" v="consider natural=peak for the most distinct mountains in the district" />
		<tag k="name" v="Bråråsen" />
		<tag k="natural" v="hill" />
		<tag k="place" v="locality" />
		<tag k="ssr:stedsnr" v="365402" />
	</node>
	<node lat="58.80085555261783" lon="8.683913882527971" id="-32402">
		<tag k="fixme" v="consider natural=peak for the most distinct mountains in the district" />
		<tag k="name" v="Blautmyrfjella" />
		<tag k="natural" v="hill" />
		<tag k="place" v="locality" />
		<tag k="ssr:stedsnr" v="365593" />
	</node>
	<node lat="58.69484444103722" lon="8.747944445633502" id="-32409">
		<tag k="fixme" v="consider natural=peak for the most distinct mountains in the district" />
		<tag k="name" v="Vassendknatten" />
		<tag k="natural" v="hill" />
		<tag k="place" v="locality" />
		<tag k="ssr:stedsnr" v="395033" />
	</node>
	<node lat="58.72715555432775" lon="8.810822230491409" id="-32417">
		<tag k="fixme" v="consider natural=peak for the most distinct mountains in the district" />
		<tag k="name" v="Kvilestadheia" />
		<tag k="natural" v="hill" />
		<tag k="place" v="locality" />
		<tag k="ssr:stedsnr" v="395203" />
	</node>
	<node lat="58.75625278106573" lon="8.908011114490703" id="-32421">
		<tag k="name" v="Ripeheia" />
		<tag k="natural" v="hill" />
		<tag k="place" v="locality" />
		<tag k="ssr:stedsnr" v="395282" />
	</node>
	<node lat="58.73435833250271" lon="8.88338888805075" id="-32424">
		<tag k="fixme" v="consider natural=peak for the most distinct mountains in the district" />
		<tag k="name" v="Grindtjennåsen" />
		<tag k="natural" v="hill" />
		<tag k="place" v="locality" />
		<tag k="ssr:stedsnr" v="395288" />
	</node>
	<node lat="58.77105555770508" lon="8.892697215202414" id="-32427">
		<tag k="fixme" v="consider natural=peak for the most distinct mountains in the district" />
		<tag k="name" v="Øygardsåsen" />
		<tag k="natural" v="hill" />
		<tag k="place" v="locality" />
		<tag k="ssr:stedsnr" v="395299" />
	</node>
	<node lat="58.70926944509066" lon="8.935649998927147" id="-32431">
		<tag k="fixme" v="consider natural=peak for the most distinct mountains in the district" />
		<tag k="name" v="Bekkslåttheia" />
		<tag k="natural" v="hill" />
		<tag k="place" v="locality" />
		<tag k="ssr:stedsnr" v="395438" />
	</node>
	<node lat="58.71608055440976" lon="8.8344805517634" id="-32432">
		<tag k="fixme" v="consider natural=peak for the most distinct mountains in the district" />
		<tag k="name" v="Vestre Gjerslifjell" />
		<tag k="natural" v="hill" />
		<tag k="place" v="locality" />
		<tag k="ssr:stedsnr" v="395134" />
	</node>
	<node lat="58.72993055188298" lon="8.72710278180001" id="-32434">
		<tag k="name" v="Svartebekkdalen" />
		<tag k="natural" v="valley" />
		<tag k="place" v="locality" />
		<tag k="ssr:stedsnr" v="395178" />
	</node>
	<node lat="58.73466110683152" lon="8.737947222289842" id="-32436">
		<tag k="fixme" v="consider natural=peak for the most distinct mountains in the district" />
		<tag k="name" v="Ertknipåsen" />
		<tag k="natural" v="hill" />
		<tag k="place" v="locality" />
		<tag k="ssr:stedsnr" v="395191" />
	</node>
	<node lat="58.73436388657733" lon="8.744741672928521" id="-32437">
		<tag k="fixme" v="consider natural=peak for the most distinct mountains in the district" />
		<tag k="name" v="Formyrheia" />
		<tag k="natural" v="hill" />
		<tag k="place" v="locality" />
		<tag k="ssr:stedsnr" v="395192" />
	</node>
	<node lat="58.74928055415373" lon="8.809830563953128" id="-32439">
		<tag k="name" v="Barlindbakkane" />
		<tag k="natural" v="slope" />
		<tag k="place" v="locality" />
		<tag k="ssr:stedsnr" v="395199" />
	</node>
	<node lat="58.767566666847536" lon="8.89995277317762" id="-32440">
		<tag k="fixme" v="consider natural=peak for the most distinct mountains in the district" />
		<tag k="name" v="Middagsåsen" />
		<tag k="natural" v="hill" />
		<tag k="place" v="locality" />
		<tag k="ssr:stedsnr" v="395304" />
	</node>
	<node lat="58.76266389117576" lon="8.898647229915268" id="-32441">
		<tag k="fixme" v="consider natural=peak for the most distinct mountains in the district" />
		<tag k="name" v="Revåsen" />
		<tag k="natural" v="hill" />
		<tag k="place" v="locality" />
		<tag k="ssr:stedsnr" v="395305" />
	</node>
	<node lat="58.79319444561944" lon="8.774799998600708" id="-32442">
		<tag k="name" v="Butangliene" />
		<tag k="natural" v="slope" />
		<tag k="place" v="locality" />
		<tag k="ssr:stedsnr" v="395306" />
	</node>
	<node lat="58.798325002727985" lon="8.709947224360798" id="-32443">
		<tag k="name" v="Rønninglia" />
		<tag k="natural" v="slope" />
		<tag k="place" v="locality" />
		<tag k="ssr:stedsnr" v="395307" />
	</node>
	<node lat="58.74699722204554" lon="8.872772229973812" id="-32444">
		<tag k="name" v="Tjennheia" />
		<tag k="natural" v="hill" />
		<tag k="place" v="locality" />
		<tag k="ssr:stedsnr" v="395309" />
	</node>
	<node lat="58.74315555230027" lon="8.837741658624989" id="-32445">
		<tag k="fixme" v="consider natural=peak for the most distinct mountains in the district" />
		<tag k="name" v="Slettåsen" />
		<tag k="natural" v="hill" />
		<tag k="place" v="locality" />
		<tag k="ssr:stedsnr" v="395312" />
	</node>
	<node lat="58.758694444744606" lon="8.848080554007685" id="-32446">
		<tag k="name" v="Osplundsdalen" />
		<tag k="natural" v="valley" />
		<tag k="place" v="locality" />
		<tag k="ssr:stedsnr" v="395328" />
	</node>
	<node lat="58.75945832933977" lon="8.87509166426938" id="-32447">
		<tag k="name" v="Hesteflåta" />
		<tag k="place" v="locality" />
		<tag k="ssr:stedsnr" v="395335" />
	</node>
	<node lat="58.715738891360516" lon="8.898530556261735" id="-32450">
		<tag k="fixme" v="consider natural=peak for the most distinct mountains in the district" />
		<tag k="name" v="Langmyrheia" />
		<tag k="natural" v="hill" />
		<tag k="place" v="locality" />
		<tag k="ssr:stedsnr" v="395385" />
	</node>
	<node lat="58.813538892218446" lon="8.964725004121599" id="-32456">
		<tag k="name" v="Renna" />
		<tag k="natural" v="valley" />
		<tag k="place" v="locality" />
		<tag k="ssr:stedsnr" v="395586" />
	</node>
	<node lat="58.773611108739395" lon="8.953502777161921" id="-32459">
		<tag k="name" v="Rundmyrknatten" />
		<tag k="natural" v="hill" />
		<tag k="place" v="locality" />
		<tag k="ssr:stedsnr" v="395727" />
	</node>
	<node lat="58.80299166608881" lon="8.69409166165428" id="-32467">
		<tag k="name" v="Heiblekken" />
		<tag k="natural" v="ridge" />
		<tag k="place" v="locality" />
		<tag k="ssr:stedsnr" v="395909" />
	</node>
	<node lat="58.778461109835625" lon="8.668425004628828" id="-32470">
		<tag k="name" v="Høgåsdalen" />
		<tag k="natural" v="valley" />
		<tag k="place" v="locality" />
		<tag k="ssr:stedsnr" v="395937" />
	</node>
	<node lat="58.773774997143875" lon="8.667486107547274" id="-32474">
		<tag k="name" v="Svensknoll" />
		<tag k="natural" v="hill" />
		<tag k="place" v="locality" />
		<tag k="ssr:stedsnr" v="485448" />
	</node>
	<node lat="58.80979444610254" lon="8.885888883545991" id="-32477">
		<tag k="fixme" v="consider natural=peak for the most distinct mountains in the district" />
		<tag k="name" v="Bjørnåsen" />
		<tag k="natural" v="hill" />
		<tag k="place" v="locality" />
		<tag k="ssr:stedsnr" v="486023" />
	</node>
	<node lat="58.70722777347613" lon="8.77123610392742" id="-32478">
		<tag k="alt_name" v="Hekkenshei" />
		<tag k="fixme" v="consider natural=peak for the most distinct mountains in the district" />
		<tag k="name" v="Hekkensheia" />
		<tag k="natural" v="hill" />
		<tag k="place" v="locality" />
		<tag k="ssr:stedsnr" v="486066" />
	</node>
	<node lat="58.7372833370272" lon="8.695322218656356" id="-32481">
		<tag k="fixme" v="consider natural=peak for the most distinct mountains in the district" />
		<tag k="name" v="Markramnen" />
		<tag k="natural" v="hill" />
		<tag k="place" v="locality" />
		<tag k="ssr:stedsnr" v="486077" />
	</node>
	<node lat="58.75497778217251" lon="8.777333338353253" id="-32487">
		<tag k="fixme" v="consider natural=peak for the most distinct mountains in the district" />
		<tag k="name" v="Stutåsen" />
		<tag k="natural" v="hill" />
		<tag k="place" v="locality" />
		<tag k="ssr:stedsnr" v="486177" />
	</node>
	<node lat="58.79735833135724" lon="8.689102775389076" id="-32489">
		<tag k="fixme" v="consider natural=peak for the most distinct mountains in the district" />
		<tag k="name" v="Svarthufsheia" />
		<tag k="natural" v="hill" />
		<tag k="place" v="locality" />
		<tag k="ssr:stedsnr" v="486576" />
	</node>
	<node lat="58.72528888808807" lon="8.87600554936943" id="-32491">
		<tag k="fixme" v="consider natural=peak for the most distinct mountains in the district" />
		<tag k="name" v="Pøddåsen" />
		<tag k="natural" v="hill" />
		<tag k="place" v="locality" />
		<tag k="ssr:stedsnr" v="486585" />
	</node>
	<node lat="58.828377776018115" lon="8.730850004106694" id="-32492">
		<tag k="name" v="Svenjeslåttknollen" />
		<tag k="natural" v="hill" />
		<tag k="place" v="locality" />
		<tag k="ssr:stedsnr" v="486661" />
	</node>
	<node lat="58.84346944064239" lon="8.832583337727339" id="-32493">
		<tag k="alt_name" v="Kleivvassknuten, østre" />
		<tag k="fixme" v="consider natural=peak for the most distinct mountains in the district" />
		<tag k="name" v="Østre Kleivvassknuten" />
		<tag k="natural" v="hill" />
		<tag k="place" v="locality" />
		<tag k="ssr:stedsnr" v="486671" />
	</node>
	<node lat="58.82710833700504" lon="8.825994448352496" id="-32494">
		<tag k="fixme" v="consider natural=peak for the most distinct mountains in the district" />
		<tag k="name" v="Håglifjell" />
		<tag k="natural" v="hill" />
		<tag k="place" v="locality" />
		<tag k="ssr:stedsnr" v="486701" />
	</node>
	<node lat="58.75095555330973" lon="8.735000005730722" id="-32496">
		<tag k="fixme" v="consider natural=peak for the most distinct mountains in the district" />
		<tag k="name" v="Sandusåsen" />
		<tag k="natural" v="hill" />
		<tag k="place" v="locality" />
		<tag k="ssr:stedsnr" v="486944" />
	</node>
	<node lat="58.66374999894432" lon="8.822355562617334" id="-32497">
		<tag k="fixme" v="consider natural=peak for the most distinct mountains in the district" />
		<tag k="name" v="Nesfjellet" />
		<tag k="natural" v="hill" />
		<tag k="place" v="locality" />
		<tag k="ssr:stedsnr" v="486953" />
	</node>
	<node lat="58.77177500152123" lon="8.999125000527108" id="-32500">
		<tag k="alt_name" v="Saltvannsheia" />
		<tag k="fixme" v="consider natural=peak for the most distinct mountains in the district" />
		<tag k="name" v="Saltvassheia" />
		<tag k="natural" v="hill" />
		<tag k="place" v="locality" />
		<tag k="ssr:stedsnr" v="487445" />
	</node>
	<node lat="58.80662499608711" lon="8.865077778882409" id="-32501">
		<tag k="fixme" v="consider natural=peak for the most distinct mountains in the district" />
		<tag k="name" v="Sundfjell" />
		<tag k="natural" v="hill" />
		<tag k="place" v="locality" />
		<tag k="ssr:stedsnr" v="425011" />
	</node>
	<node lat="58.7689138847787" lon="8.88993889735462" id="-32505">
		<tag k="alt_name" v="Østre Bronfjell" />
		<tag k="fixme" v="consider natural=peak for the most distinct mountains in the district" />
		<tag k="name" v="Østre Brunfjell" />
		<tag k="natural" v="hill" />
		<tag k="place" v="locality" />
		<tag k="ssr:stedsnr" v="425423" />
	</node>
	<node lat="58.755538891919116" lon="8.67695834109995" id="-32506">
		<tag k="alt_name" v="Tveitfjell" />
		<tag k="fixme" v="consider natural=peak for the most distinct mountains in the district" />
		<tag k="name" v="Tveitfjellet" />
		<tag k="natural" v="hill" />
		<tag k="place" v="locality" />
		<tag k="ssr:stedsnr" v="425521" />
	</node>
	<node lat="58.71817222287134" lon="8.917180561932062" id="-32508">
		<tag k="fixme" v="consider natural=peak for the most distinct mountains in the district" />
		<tag k="name" v="Høgås" />
		<tag k="natural" v="hill" />
		<tag k="place" v="locality" />
		<tag k="ssr:stedsnr" v="426148" />
	</node>
	<node lat="58.78190832949687" lon="8.963250005699802" id="-32509">
		<tag k="name" v="Bjorvasslia" />
		<tag k="natural" v="slope" />
		<tag k="place" v="locality" />
		<tag k="ssr:stedsnr" v="426431" />
	</node>
	<node lat="58.809483332503646" lon="8.831013884448776" id="-32514">
		<tag k="name" v="Sautangdalen" />
		<tag k="natural" v="valley" />
		<tag k="place" v="locality" />
		<tag k="ssr:stedsnr" v="426589" />
	</node>
	<node lat="58.789705551570584" lon="8.816905552236717" id="-32517">
		<tag k="fixme" v="consider natural=peak for the most distinct mountains in the district" />
		<tag k="name" v="Husfjell" />
		<tag k="natural" v="hill" />
		<tag k="place" v="locality" />
		<tag k="ssr:stedsnr" v="426596" />
	</node>
	<node lat="58.85511666422174" lon="8.825038897488508" id="-32519">
		<tag k="name" v="Steinslåttheia" />
		<tag k="natural" v="hill" />
		<tag k="place" v="locality" />
		<tag k="ssr:stedsnr" v="426731" />
	</node>
	<node lat="58.77369999969974" lon="8.883377781163583" id="-32521">
		<tag k="fixme" v="consider natural=peak for the most distinct mountains in the district" />
		<tag k="name" v="Linderåsen" />
		<tag k="natural" v="hill" />
		<tag k="place" v="locality" />
		<tag k="ssr:stedsnr" v="427475" />
	</node>
	<node lat="58.76458333585145" lon="8.754155560908421" id="-32522">
		<tag k="name" v="Åslandsdalen" />
		<tag k="natural" v="valley" />
		<tag k="place" v="locality" />
		<tag k="ssr:stedsnr" v="456003" />
	</node>
	<node lat="58.701991662978465" lon="8.77902222334674" id="-32525">
		<tag k="fixme" v="consider natural=peak for the most distinct mountains in the district" />
		<tag k="name" v="Hestmyrheia" />
		<tag k="natural" v="hill" />
		<tag k="place" v="locality" />
		<tag k="ssr:stedsnr" v="456016" />
	</node>
	<node lat="58.77511111474313" lon="8.726877778484845" id="-32527">
		<tag k="name" v="Høgknatte" />
		<tag k="natural" v="hill" />
		<tag k="place" v="locality" />
		<tag k="ssr:stedsnr" v="456023" />
	</node>
	<node lat="58.659452777220785" lon="8.828577773691286" id="-32530">
		<tag k="fixme" v="consider natural=peak for the most distinct mountains in the district" />
		<tag k="name" v="Bjoråsen" />
		<tag k="natural" v="hill" />
		<tag k="place" v="locality" />
		<tag k="ssr:stedsnr" v="456107" />
	</node>
	<node lat="58.795441668979585" lon="8.909011104411286" id="-32535">
		<tag k="name" v="Harefjella" />
		<tag k="natural" v="hill" />
		<tag k="place" v="locality" />
		<tag k="ssr:stedsnr" v="456065" />
	</node>
	<node lat="58.74892778005988" lon="8.764488883619588" id="-32541">
		<tag k="fixme" v="consider natural=peak for the most distinct mountains in the district" />
		<tag k="name" v="Sjølvskotheia" />
		<tag k="natural" v="hill" />
		<tag k="place" v="locality" />
		<tag k="ssr:stedsnr" v="456211" />
	</node>
	<node lat="58.71959722477599" lon="8.764552774871357" id="-32543">
		<tag k="name" v="Skårfjell" />
		<tag k="natural" v="hill" />
		<tag k="place" v="locality" />
		<tag k="ssr:stedsnr" v="456220" />
	</node>
	<node lat="58.734944442603094" lon="8.863397225971678" id="-32544">
		<tag k="name" v="Blautkjerrheia" />
		<tag k="natural" v="hill" />
		<tag k="place" v="locality" />
		<tag k="ssr:stedsnr" v="456259" />
	</node>
	<node lat="58.72212777354899" lon="8.95113611662053" id="-32546">
		<tag k="name" v="Bomskjerrdalen" />
		<tag k="natural" v="valley" />
		<tag k="place" v="locality" />
		<tag k="ssr:stedsnr" v="456263" />
	</node>
	<node lat="58.69799722397098" lon="8.823386110227796" id="-32547">
		<tag k="name" v="Hedalen" />
		<tag k="natural" v="valley" />
		<tag k="place" v="locality" />
		<tag k="ssr:stedsnr" v="456265" />
	</node>
	<node lat="58.749575001185214" lon="8.926555560761413" id="-32549">
		<tag k="name" v="Ånonsmyrheia" />
		<tag k="natural" v="hill" />
		<tag k="place" v="locality" />
		<tag k="ssr:stedsnr" v="456267" />
	</node>
	<node lat="58.73468056002678" lon="8.92943056157114" id="-32551">
		<tag k="name" v="Langansknollen" />
		<tag k="natural" v="hill" />
		<tag k="place" v="locality" />
		<tag k="ssr:stedsnr" v="456274" />
	</node>
	<node lat="58.76072777954535" lon="8.930250006482" id="-32553">
		<tag k="name" v="Bakkeheia" />
		<tag k="natural" v="hill" />
		<tag k="place" v="locality" />
		<tag k="ssr:stedsnr" v="456280" />
	</node>
	<node lat="58.69648055418592" lon="8.879236116830995" id="-32554">
		<tag k="fixme" v="consider natural=peak for the most distinct mountains in the district" />
		<tag k="name" v="Lille Brattliknuten" />
		<tag k="natural" v="hill" />
		<tag k="place" v="locality" />
		<tag k="ssr:stedsnr" v="456402" />
	</node>
	<node lat="58.709177776445905" lon="8.915280553452456" id="-32557">
		<tag k="name" v="Eikhaugen" />
		<tag k="natural" v="hill" />
		<tag k="place" v="locality" />
		<tag k="ssr:stedsnr" v="456414" />
	</node>
	<node lat="58.792680551091586" lon="8.76963332506394" id="-32563">
		<tag k="name" v="Butangliene" />
		<tag k="natural" v="slope" />
		<tag k="place" v="locality" />
		<tag k="ssr:stedsnr" v="456302" />
	</node>
	<node lat="58.76681111296056" lon="8.854330551756421" id="-32569">
		<tag k="name" v="Liksteinsfjella" />
		<tag k="natural" v="hill" />
		<tag k="place" v="locality" />
		<tag k="ssr:stedsnr" v="456315" />
	</node>
	<node lat="58.71948611075517" lon="8.935122228824515" id="-32572">
		<tag k="fixme" v="consider natural=peak for the most distinct mountains in the district" />
		<tag k="name" v="Skangarborg" />
		<tag k="natural" v="hill" />
		<tag k="place" v="locality" />
		<tag k="ssr:stedsnr" v="456366" />
	</node>
	<node lat="58.71312777981155" lon="8.898352771239411" id="-32574">
		<tag k="name" v="Tonjesmyrsæten" />
		<tag k="natural" v="hill" />
		<tag k="place" v="locality" />
		<tag k="ssr:stedsnr" v="456376" />
	</node>
	<node lat="58.69006944813051" lon="8.902999996006555" id="-32576">
		<tag k="fixme" v="consider natural=peak for the most distinct mountains in the district" />
		<tag k="name" v="Bronåsen" />
		<tag k="natural" v="hill" />
		<tag k="place" v="locality" />
		<tag k="ssr:stedsnr" v="456469" />
	</node>
	<node lat="58.81906944119938" lon="8.972191673032173" id="-32580">
		<tag k="name" v="Barbudalen" />
		<tag k="natural" v="valley" />
		<tag k="place" v="locality" />
		<tag k="ssr:stedsnr" v="456565" />
	</node>
	<node lat="58.81820833105192" lon="8.962208334859646" id="-32581">
		<tag k="name" v="Versellia" />
		<tag k="natural" v="slope" />
		<tag k="place" v="locality" />
		<tag k="ssr:stedsnr" v="456573" />
	</node>
	<node lat="58.81152777769529" lon="8.740724993263436" id="-32593">
		<tag k="fixme" v="consider natural=peak for the most distinct mountains in the district" />
		<tag k="name" v="Nesknollen" />
		<tag k="natural" v="hill" />
		<tag k="place" v="locality" />
		<tag k="ssr:stedsnr" v="486604" />
	</node>
	<node lat="58.814255557527574" lon="8.718488882540564" id="-32594">
		<tag k="alt_name" v="Mjåvassknollen;Mjåvatsknollen" />
		<tag k="fixme" v="consider natural=peak for the most distinct mountains in the district" />
		<tag k="name" v="Mjåvasskollen" />
		<tag k="natural" v="hill" />
		<tag k="place" v="locality" />
		<tag k="ssr:stedsnr" v="486606" />
	</node>
	<node lat="58.78219166658343" lon="8.763305553559682" id="-32603">
		<tag k="fixme" v="consider natural=peak for the most distinct mountains in the district" />
		<tag k="name" v="Grasåsen" />
		<tag k="natural" v="hill" />
		<tag k="place" v="locality" />
		<tag k="ssr:stedsnr" v="486538" />
	</node>
	<node lat="58.77736388633138" lon="8.736874992990977" id="-32604">
		<tag k="fixme" v="consider natural=peak for the most distinct mountains in the district" />
		<tag k="name" v="Nonnuten" />
		<tag k="natural" v="hill" />
		<tag k="place" v="locality" />
		<tag k="ssr:stedsnr" v="486539" />
	</node>
	<node lat="58.67606110991574" lon="8.760452771171371" id="-32606">
		<tag k="fixme" v="consider natural=peak for the most distinct mountains in the district" />
		<tag k="name" v="Spetåsen" />
		<tag k="natural" v="hill" />
		<tag k="place" v="locality" />
		<tag k="ssr:stedsnr" v="486907" />
	</node>
	<node lat="58.68389444371373" lon="8.79343056120013" id="-32608">
		<tag k="alt_name" v="Rambergfjell" />
		<tag k="fixme" v="consider natural=peak for the most distinct mountains in the district" />
		<tag k="name" v="Rambergfjellet" />
		<tag k="natural" v="hill" />
		<tag k="place" v="locality" />
		<tag k="ssr:stedsnr" v="486925" />
	</node>
	<node lat="58.70263055233587" lon="8.793544437980568" id="-32610">
		<tag k="name" v="Bjørkestedalen" />
		<tag k="natural" v="valley" />
		<tag k="place" v="locality" />
		<tag k="ssr:stedsnr" v="517008" />
	</node>
	<node lat="58.76792777917753" lon="8.743263891025077" id="-32611">
		<tag k="fixme" v="consider natural=peak for the most distinct mountains in the district" />
		<tag k="name" v="Tjenneråsen" />
		<tag k="natural" v="hill" />
		<tag k="place" v="locality" />
		<tag k="ssr:stedsnr" v="517013" />
	</node>
	<node lat="58.70360277997278" lon="8.780408325498016" id="-32613">
		<tag k="name" v="Røyslandsliene" />
		<tag k="natural" v="slope" />
		<tag k="place" v="locality" />
		<tag k="ssr:stedsnr" v="517019" />
	</node>
	<node lat="58.655211113703" lon="8.830058326655092" id="-32615">
		<tag k="fixme" v="consider natural=peak for the most distinct mountains in the district" />
		<tag k="name" v="Nordre Breivikheia" />
		<tag k="natural" v="hill" />
		<tag k="place" v="locality" />
		<tag k="ssr:stedsnr" v="517074" />
	</node>
	<node lat="58.653541669193245" lon="8.84099444051213" id="-32616">
		<tag k="name" v="Tjuvdalen" />
		<tag k="natural" v="valley" />
		<tag k="place" v="locality" />
		<tag k="ssr:stedsnr" v="517077" />
	</node>
	<node lat="58.80609722431427" lon="8.719966660834771" id="-32618">
		<tag k="name" v="Langmyrfjella" />
		<tag k="natural" v="ridge" />
		<tag k="place" v="locality" />
		<tag k="ssr:stedsnr" v="517114" />
	</node>
	<node lat="58.65741667100918" lon="8.80092221691593" id="-32620">
		<tag k="name" v="Tiurleikkjerrbakkane" />
		<tag k="natural" v="hill" />
		<tag k="place" v="locality" />
		<tag k="ssr:stedsnr" v="517121" />
	</node>
	<node lat="58.74671666784663" lon="8.802944444475248" id="-32621">
		<tag k="fixme" v="consider natural=peak for the most distinct mountains in the district" />
		<tag k="name" v="Tereleikfjell" />
		<tag k="natural" v="hill" />
		<tag k="place" v="locality" />
		<tag k="ssr:stedsnr" v="517163" />
	</node>
	<node lat="58.72278333635947" lon="8.775086106472623" id="-32626">
		<tag k="name" v="Østenfjell" />
		<tag k="natural" v="hill" />
		<tag k="place" v="locality" />
		<tag k="ssr:stedsnr" v="517175" />
	</node>
	<node lat="58.76177777536053" lon="8.795236116869008" id="-32627">
		<tag k="name" v="Nottolvsli" />
		<tag k="natural" v="slope" />
		<tag k="place" v="locality" />
		<tag k="ssr:stedsnr" v="517179" />
	</node>
	<node lat="58.762600001135326" lon="8.858863896964975" id="-32628">
		<tag k="name" v="Hengflyfjell" />
		<tag k="natural" v="hill" />
		<tag k="place" v="locality" />
		<tag k="ssr:stedsnr" v="517313" />
	</node>
	<node lat="58.73643611007401" lon="8.828905552700228" id="-32629">
		<tag k="fixme" v="consider natural=peak for the most distinct mountains in the district" />
		<tag k="name" v="Ålkjerråsen" />
		<tag k="natural" v="hill" />
		<tag k="place" v="locality" />
		<tag k="ssr:stedsnr" v="517320" />
	</node>
	<node lat="58.78698889098613" lon="8.944763886555414" id="-32634">
		<tag k="fixme" v="consider natural=peak for the most distinct mountains in the district" />
		<tag k="name" v="Vestre Åsen" />
		<tag k="natural" v="hill" />
		<tag k="place" v="locality" />
		<tag k="ssr:stedsnr" v="517278" />
	</node>
	<node lat="58.71920278088632" lon="8.662000003052908" id="-32636">
		<tag k="fixme" v="consider natural=peak for the most distinct mountains in the district" />
		<tag k="name" v="Liheia" />
		<tag k="natural" v="hill" />
		<tag k="place" v="locality" />
		<tag k="ssr:stedsnr" v="517282" />
	</node>
	<node lat="58.800300002965294" lon="8.700297223786087" id="-32637">
		<tag k="name" v="Heftelia" />
		<tag k="natural" v="slope" />
		<tag k="place" v="locality" />
		<tag k="ssr:stedsnr" v="517287" />
	</node>
	<node lat="58.69285277784502" lon="8.874608332847322" id="-32638">
		<tag k="fixme" v="consider natural=peak for the most distinct mountains in the district" />
		<tag k="name" v="Høgliknuten" />
		<tag k="natural" v="hill" />
		<tag k="place" v="locality" />
		<tag k="ssr:stedsnr" v="517404" />
	</node>
	<node lat="58.814055552381596" lon="8.847658326616129" id="-32642">
		<tag k="name" v="Geiteryggen" />
		<tag k="natural" v="ridge" />
		<tag k="place" v="locality" />
		<tag k="ssr:stedsnr" v="517423" />
	</node>
	<node lat="58.8239027784051" lon="8.957505554884857" id="-32647">
		<tag k="name" v="Storsteinslia" />
		<tag k="natural" v="slope" />
		<tag k="place" v="locality" />
		<tag k="ssr:stedsnr" v="517582" />
	</node>
	<node lat="58.672972222279434" lon="8.814716666520392" id="-32651">
		<tag k="name" v="Knuten" />
		<tag k="natural" v="hill" />
		<tag k="place" v="locality" />
		<tag k="ssr:stedsnr" v="517662" />
	</node>
	<node lat="58.818413893307955" lon="8.784180554130979" id="-32656">
		<tag k="fixme" v="consider natural=peak for the most distinct mountains in the district" />
		<tag k="name" v="Homstjennfjell" />
		<tag k="natural" v="hill" />
		<tag k="place" v="locality" />
		<tag k="ssr:stedsnr" v="517832" />
	</node>
	<node lat="58.791099997271495" lon="8.827108334131207" id="-32662">
		<tag k="name" v="Ringåsdal" />
		<tag k="natural" v="valley" />
		<tag k="place" v="locality" />
		<tag k="ssr:stedsnr" v="517766" />
	</node>
	<node lat="58.79236666970089" lon="8.670255551387829" id="-32665">
		<tag k="name" v="Skålmoen" />
		<tag k="place" v="locality" />
		<tag k="ssr:stedsnr" v="517913" />
	</node>
	<node lat="58.79835000319934" lon="8.681674996714202" id="-32666">
		<tag k="name" v="Takliheia" />
		<tag k="natural" v="ridge" />
		<tag k="place" v="locality" />
		<tag k="ssr:stedsnr" v="517915" />
	</node>
	<node lat="58.7483083305273" lon="8.658241675306702" id="-32669">
		<tag k="name" v="Langkjerrhaugane" />
		<tag k="natural" v="hill" />
		<tag k="place" v="locality" />
		<tag k="ssr:stedsnr" v="517987" />
	</node>
	<node lat="58.80252499729736" lon="8.928283332260541" id="-32672">
		<tag k="fixme" v="consider natural=peak for the most distinct mountains in the district" />
		<tag k="name" v="Kalvkjerrheia" />
		<tag k="natural" v="hill" />
		<tag k="place" v="locality" />
		<tag k="ssr:stedsnr" v="546005" />
	</node>
	<node lat="58.74066666378671" lon="8.788000001565438" id="-32677">
		<tag k="fixme" v="consider natural=peak for the most distinct mountains in the district" />
		<tag k="name" v="Besteliheia" />
		<tag k="natural" v="hill" />
		<tag k="place" v="locality" />
		<tag k="ssr:stedsnr" v="547116" />
	</node>
	<node lat="58.84934722217142" lon="8.848674995478001" id="-32680">
		<tag k="fixme" v="consider natural=peak for the most distinct mountains in the district" />
		<tag k="name" v="Fisketjennknuten" />
		<tag k="natural" v="hill" />
		<tag k="place" v="locality" />
		<tag k="ssr:stedsnr" v="547066" />
	</node>
	<node lat="58.8148944469908" lon="8.727400006787173" id="-32685">
		<tag k="name" v="Sjølvskotdalen" />
		<tag k="natural" v="valley" />
		<tag k="place" v="locality" />
		<tag k="ssr:stedsnr" v="547718" />
	</node>
	<node lat="58.80252500110943" lon="8.709583329554325" id="-32688">
		<tag k="fixme" v="consider natural=peak for the most distinct mountains in the district" />
		<tag k="name" v="Vardheia" />
		<tag k="natural" v="hill" />
		<tag k="place" v="locality" />
		<tag k="ssr:stedsnr" v="547631" />
	</node>
	<node lat="58.79440277674705" lon="8.699838887509149" id="-32689">
		<tag k="name" v="Raudsanddalen" />
		<tag k="natural" v="valley" />
		<tag k="place" v="locality" />
		<tag k="ssr:stedsnr" v="547671" />
	</node>
	<node lat="58.69856389203594" lon="8.793508325336362" id="-32694">
		<tag k="name" v="Hus i Hansbygd" />
		<tag k="natural" v="hill" />
		<tag k="place" v="locality" />
		<tag k="ssr:stedsnr" v="577003" />
	</node>
	<node lat="58.77958333312435" lon="8.908361115145993" id="-32698">
		<tag k="fixme" v="consider natural=peak for the most distinct mountains in the district" />
		<tag k="name" v="Sollenborgfjell" />
		<tag k="natural" v="hill" />
		<tag k="place" v="locality" />
		<tag k="ssr:stedsnr" v="577019" />
	</node>
	<node lat="58.69151944503516" lon="8.820950004848457" id="-32699">
		<tag k="fixme" v="consider natural=peak for the most distinct mountains in the district" />
		<tag k="name" v="Songåsen" />
		<tag k="natural" v="hill" />
		<tag k="place" v="locality" />
		<tag k="ssr:stedsnr" v="577048" />
	</node>
	<node lat="58.796547224632086" lon="8.906675003482563" id="-32700">
		<tag k="name" v="Bjørnhidalen" />
		<tag k="natural" v="valley" />
		<tag k="place" v="locality" />
		<tag k="ssr:stedsnr" v="577050" />
	</node>
	<node lat="58.695158329826285" lon="8.797347214068852" id="-32701">
		<tag k="fixme" v="consider natural=peak for the most distinct mountains in the district" />
		<tag k="name" v="Dapknatten" />
		<tag k="natural" v="hill" />
		<tag k="place" v="locality" />
		<tag k="ssr:stedsnr" v="577055" />
	</node>
	<node lat="58.69740277437378" lon="8.791686115848462" id="-32703">
		<tag k="name" v="Skyvers hefte" />
		<tag k="natural" v="hill" />
		<tag k="place" v="locality" />
		<tag k="ssr:stedsnr" v="577061" />
	</node>
	<node lat="58.802311108731104" lon="8.89816111317835" id="-32708">
		<tag k="name" v="Hasselbekkbrotet" />
		<tag k="place" v="locality" />
		<tag k="ssr:stedsnr" v="577104" />
	</node>
	<node lat="58.804938887641605" lon="8.924238881699559" id="-32709">
		<tag k="fixme" v="consider natural=peak for the most distinct mountains in the district" />
		<tag k="name" v="Krakheia" />
		<tag k="natural" v="hill" />
		<tag k="place" v="locality" />
		<tag k="ssr:stedsnr" v="577112" />
	</node>
	<node lat="58.712827774613096" lon="8.831961110589717" id="-32710">
		<tag k="fixme" v="consider natural=peak for the most distinct mountains in the district" />
		<tag k="name" v="Langtjennfjell" />
		<tag k="natural" v="hill" />
		<tag k="place" v="locality" />
		<tag k="ssr:stedsnr" v="577116" />
	</node>
	<node lat="58.74646944365563" lon="8.828980547060372" id="-32715">
		<tag k="name" v="Breiungfjella" />
		<tag k="natural" v="slope" />
		<tag k="place" v="locality" />
		<tag k="ssr:stedsnr" v="577296" />
	</node>
	<node lat="58.70966944453636" lon="8.865800008148549" id="-32717">
		<tag k="fixme" v="consider natural=peak for the most distinct mountains in the district" />
		<tag k="name" v="Småmyrbakkane" />
		<tag k="natural" v="hill" />
		<tag k="place" v="locality" />
		<tag k="ssr:stedsnr" v="577407" />
	</node>
	<node lat="58.828519447234356" lon="8.884775007310624" id="-32719">
		<tag k="name" v="Grandalen" />
		<tag k="natural" v="valley" />
		<tag k="place" v="locality" />
		<tag k="ssr:stedsnr" v="577419" />
	</node>
	<node lat="58.69397222581034" lon="8.870380555644143" id="-32721">
		<tag k="fixme" v="consider natural=peak for the most distinct mountains in the district" />
		<tag k="name" v="Kilheia" />
		<tag k="natural" v="hill" />
		<tag k="place" v="locality" />
		<tag k="ssr:stedsnr" v="577422" />
	</node>
	<node lat="58.696233333249374" lon="8.846402776046416" id="-32723">
		<tag k="fixme" v="consider natural=peak for the most distinct mountains in the district" />
		<tag k="name" v="Lille Røyslandsknuten" />
		<tag k="natural" v="hill" />
		<tag k="place" v="locality" />
		<tag k="ssr:stedsnr" v="577425" />
	</node>
	<node lat="58.69575277809518" lon="8.83981388382783" id="-32724">
		<tag k="name" v="Korsheia" />
		<tag k="natural" v="ridge" />
		<tag k="place" v="locality" />
		<tag k="ssr:stedsnr" v="577426" />
	</node>
	<node lat="58.80044722108265" lon="8.831161111728983" id="-32727">
		<tag k="name" v="Svinsmyrdalen" />
		<tag k="natural" v="valley" />
		<tag k="place" v="locality" />
		<tag k="ssr:stedsnr" v="577397" />
	</node>
	<node lat="58.85635000416404" lon="8.832338889779349" id="-32730">
		<tag k="name" v="Jammerdalen" />
		<tag k="natural" v="valley" />
		<tag k="place" v="locality" />
		<tag k="ssr:stedsnr" v="577495" />
	</node>
	<node lat="58.80390278164863" lon="8.966988887601238" id="-32734">
		<tag k="name" v="Roliknatten" />
		<tag k="natural" v="hill" />
		<tag k="place" v="locality" />
		<tag k="ssr:stedsnr" v="577613" />
	</node>
	<node lat="58.67816111356787" lon="8.755908324764034" id="-32737">
		<tag k="name" v="Spetåsdalen" />
		<tag k="natural" v="valley" />
		<tag k="place" v="locality" />
		<tag k="ssr:stedsnr" v="577654" />
	</node>
	<node lat="58.70444722434431" lon="8.685069439662731" id="-32742">
		<tag k="fixme" v="consider natural=peak for the most distinct mountains in the district" />
		<tag k="name" v="Takliknatten" />
		<tag k="natural" v="hill" />
		<tag k="place" v="locality" />
		<tag k="ssr:stedsnr" v="577745" />
	</node>
	<node lat="58.749130553526186" lon="8.686852775022638" id="-32743">
		<tag k="name" v="Stemtjennliene" />
		<tag k="natural" v="slope" />
		<tag k="place" v="locality" />
		<tag k="ssr:stedsnr" v="577894" />
	</node>
	<node lat="58.70095000067118" lon="8.656494450382972" id="-32749">
		<tag k="name" v="Byttingsknatten" />
		<tag k="natural" v="hill" />
		<tag k="place" v="locality" />
		<tag k="ssr:stedsnr" v="578492" />
	</node>
	<node lat="58.689177781301495" lon="8.9060444509232" id="-32751">
		<tag k="name" v="Vreen" />
		<tag k="place" v="locality" />
		<tag k="ssr:stedsnr" v="699035" />
	</node>
	<node lat="58.80952777411006" lon="8.916030554910485" id="-32757">
		<tag k="fixme" v="consider natural=peak for the most distinct mountains in the district" />
		<tag k="name" v="Kjerrbærfjell" />
		<tag k="natural" v="hill" />
		<tag k="place" v="locality" />
		<tag k="ssr:stedsnr" v="699093" />
	</node>
	<node lat="58.81083055163044" lon="8.932291665596988" id="-32759">
		<tag k="fixme" v="consider natural=peak for the most distinct mountains in the district" />
		<tag k="name" v="Grokjerråsen" />
		<tag k="natural" v="hill" />
		<tag k="place" v="locality" />
		<tag k="ssr:stedsnr" v="699095" />
	</node>
	<node lat="58.77790555304998" lon="8.864258341364083" id="-32763">
		<tag k="fixme" v="consider natural=peak for the most distinct mountains in the district" />
		<tag k="name" v="Heitjennfjell" />
		<tag k="natural" v="hill" />
		<tag k="place" v="locality" />
		<tag k="ssr:stedsnr" v="699048" />
	</node>
	<node lat="58.71205555371081" lon="8.864097215284074" id="-32769">
		<tag k="fixme" v="consider natural=peak for the most distinct mountains in the district" />
		<tag k="name" v="Fuglebakkane" />
		<tag k="natural" v="hill" />
		<tag k="place" v="locality" />
		<tag k="ssr:stedsnr" v="699097" />
	</node>
	<node lat="58.71291666574148" lon="8.840444447290572" id="-32770">
		<tag k="fixme" v="consider natural=peak for the most distinct mountains in the district" />
		<tag k="name" v="Store Årliknuten" />
		<tag k="natural" v="hill" />
		<tag k="place" v="locality" />
		<tag k="ssr:stedsnr" v="699098" />
	</node>
	<node lat="58.81011944882534" lon="8.924283326892386" id="-32771">
		<tag k="name" v="Vestre Stutdalen" />
		<tag k="natural" v="valley" />
		<tag k="place" v="locality" />
		<tag k="ssr:stedsnr" v="699099" />
	</node>
	<node lat="58.70278055571784" lon="8.727344439016122" id="-32774">
		<tag k="name" v="Raddane" />
		<tag k="natural" v="ridge" />
		<tag k="place" v="locality" />
		<tag k="ssr:stedsnr" v="699181" />
	</node>
	<node lat="58.77282222434453" lon="8.81600556372134" id="-32776">
		<tag k="name" v="Haukreirsliene" />
		<tag k="natural" v="slope" />
		<tag k="place" v="locality" />
		<tag k="ssr:stedsnr" v="699193" />
	</node>
	<node lat="58.74110000046317" lon="8.77974999439437" id="-32788">
		<tag k="fixme" v="consider natural=peak for the most distinct mountains in the district" />
		<tag k="name" v="Skarheia" />
		<tag k="natural" v="hill" />
		<tag k="place" v="locality" />
		<tag k="ssr:stedsnr" v="699138" />
	</node>
	<node lat="58.72774722255757" lon="8.760991660650319" id="-32789">
		<tag k="fixme" v="consider natural=peak for the most distinct mountains in the district" />
		<tag k="name" v="Dikesmyrheia" />
		<tag k="natural" v="hill" />
		<tag k="place" v="locality" />
		<tag k="ssr:stedsnr" v="699140" />
	</node>
	<node lat="58.73930000005227" lon="8.721175006244136" id="-32793">
		<tag k="fixme" v="consider natural=peak for the most distinct mountains in the district" />
		<tag k="name" v="Ormåsen" />
		<tag k="natural" v="hill" />
		<tag k="place" v="locality" />
		<tag k="ssr:stedsnr" v="699156" />
	</node>
	<node lat="58.74427500269789" lon="8.842663893264389" id="-32802">
		<tag k="name" v="Moltemyrliene" />
		<tag k="natural" v="slope" />
		<tag k="place" v="locality" />
		<tag k="ssr:stedsnr" v="699295" />
	</node>
	<node lat="58.77324444726648" lon="8.856000005692797" id="-32803">
		<tag k="name" v="Bærheia" />
		<tag k="natural" v="hill" />
		<tag k="place" v="locality" />
		<tag k="ssr:stedsnr" v="699296" />
	</node>
	<node lat="58.70423333521621" lon="8.941491671709834" id="-32807">
		<tag k="name" v="Snørlåglia" />
		<tag k="natural" v="slope" />
		<tag k="place" v="locality" />
		<tag k="ssr:stedsnr" v="699254" />
	</node>
	<node lat="58.69569999780367" lon="8.878947228625128" id="-32809">
		<tag k="name" v="Brattlidalen" />
		<tag k="natural" v="valley" />
		<tag k="place" v="locality" />
		<tag k="ssr:stedsnr" v="699260" />
	</node>
	<node lat="58.84336944841527" lon="8.910622222136285" id="-32814">
		<tag k="name" v="Fjellet" />
		<tag k="place" v="locality" />
		<tag k="ssr:stedsnr" v="699427" />
	</node>
	<node lat="58.820869440878546" lon="8.905541668474788" id="-32818">
		<tag k="fixme" v="consider natural=peak for the most distinct mountains in the district" />
		<tag k="name" v="Kløppingsåsen" />
		<tag k="natural" v="hill" />
		<tag k="place" v="locality" />
		<tag k="ssr:stedsnr" v="699397" />
	</node>
	<node lat="58.70063055148923" lon="8.861386116221546" id="-32819">
		<tag k="fixme" v="consider natural=peak for the most distinct mountains in the district" />
		<tag k="name" v="Sankt Hansfjell" />
		<tag k="natural" v="hill" />
		<tag k="place" v="locality" />
		<tag k="ssr:stedsnr" v="699400" />
	</node>
	<node lat="58.74784722470842" lon="8.959130554203325" id="-32820">
		<tag k="fixme" v="consider natural=peak for the most distinct mountains in the district" />
		<tag k="name" v="Rødsknuten" />
		<tag k="natural" v="hill" />
		<tag k="place" v="locality" />
		<tag k="ssr:stedsnr" v="699483" />
	</node>
	<node lat="58.74622778199019" lon="8.977380549326538" id="-32821">
		<tag k="fixme" v="consider natural=peak for the most distinct mountains in the district" />
		<tag k="name" v="Tjennheia" />
		<tag k="natural" v="hill" />
		<tag k="place" v="locality" />
		<tag k="ssr:stedsnr" v="699484" />
	</node>
	<node lat="58.73491944248021" lon="8.948283328169994" id="-32826">
		<tag k="fixme" v="consider natural=peak for the most distinct mountains in the district" />
		<tag k="name" v="Takseråsknuten" />
		<tag k="natural" v="hill" />
		<tag k="place" v="locality" />
		<tag k="ssr:stedsnr" v="699527" />
	</node>
	<node lat="58.82490000220839" lon="8.919524995383695" id="-32829">
		<tag k="fixme" v="consider natural=peak for the most distinct mountains in the district" />
		<tag k="name" v="Kjerrhjellhei" />
		<tag k="natural" v="hill" />
		<tag k="place" v="locality" />
		<tag k="ssr:stedsnr" v="699447" />
	</node>
	<node lat="58.68764444797125" lon="8.817797221560916" id="-32837">
		<tag k="fixme" v="consider natural=peak for the most distinct mountains in the district" />
		<tag k="name" v="Østre Songåsen" />
		<tag k="natural" v="hill" />
		<tag k="place" v="locality" />
		<tag k="ssr:stedsnr" v="699610" />
	</node>
	<node lat="58.66965555277725" lon="8.813930550792579" id="-32838">
		<tag k="name" v="Ravnklova" />
		<tag k="natural" v="valley" />
		<tag k="place" v="locality" />
		<tag k="ssr:stedsnr" v="699638" />
	</node>
	<node lat="58.709861114512776" lon="8.652477784312682" id="-32841">
		<tag k="fixme" v="consider natural=peak for the most distinct mountains in the district" />
		<tag k="name" v="Furuknusteren" />
		<tag k="natural" v="hill" />
		<tag k="place" v="locality" />
		<tag k="ssr:stedsnr" v="699719" />
	</node>
	<node lat="58.779883337700994" lon="8.783286113872286" id="-32844">
		<tag k="fixme" v="consider natural=peak for the most distinct mountains in the district" />
		<tag k="name" v="Ufsdalsknuten" />
		<tag k="natural" v="hill" />
		<tag k="place" v="locality" />
		<tag k="ssr:stedsnr" v="699748" />
	</node>
	<node lat="58.820541663591214" lon="8.72660833672157" id="-32848">
		<tag k="name" v="Stallene" />
		<tag k="natural" v="valley" />
		<tag k="place" v="locality" />
		<tag k="ssr:stedsnr" v="699758" />
	</node>
	<node lat="58.79747222364185" lon="8.812758328617612" id="-32851">
		<tag k="fixme" v="consider natural=peak for the most distinct mountains in the district" />
		<tag k="name" v="Hesto" />
		<tag k="natural" v="hill" />
		<tag k="place" v="locality" />
		<tag k="ssr:stedsnr" v="699832" />
	</node>
	<node lat="58.784886112704775" lon="8.756080559883891" id="-32852">
		<tag k="name" v="Kleivdalsheia" />
		<tag k="natural" v="hill" />
		<tag k="place" v="locality" />
		<tag k="ssr:stedsnr" v="699839" />
	</node>
	<node lat="58.83973611553573" lon="8.939175005443257" id="-32862">
		<tag k="alt_name" v="Asgjerdsbrot" />
		<tag k="name" v="Asgjerdsbråten" />
		<tag k="place" v="locality" />
		<tag k="ssr:stedsnr" v="607096" />
	</node>
	<node lat="58.80663333474123" lon="8.703552780123877" id="-32864">
		<tag k="name" v="Førdalen" />
		<tag k="natural" v="valley" />
		<tag k="place" v="locality" />
		<tag k="ssr:stedsnr" v="699897" />
	</node>
	<node lat="58.80561111152834" lon="8.700572218680811" id="-32865">
		<tag k="fixme" v="consider natural=peak for the most distinct mountains in the district" />
		<tag k="name" v="Førdalsheia" />
		<tag k="natural" v="hill" />
		<tag k="place" v="locality" />
		<tag k="ssr:stedsnr" v="699898" />
	</node>
	<node lat="58.675702780379154" lon="8.816466667732273" id="-32875">
		<tag k="alt_name" v="Ubergfjellet" />
		<tag k="fixme" v="consider natural=peak for the most distinct mountains in the district" />
		<tag k="name" v="Ubergsfjell" />
		<tag k="natural" v="hill" />
		<tag k="place" v="locality" />
		<tag k="ssr:stedsnr" v="607910" />
	</node>
	<node lat="58.67466933079649" lon="8.785211806393662" id="-32876">
		<tag k="fixme" v="consider natural=peak for the most distinct mountains in the district" />
		<tag k="name" v="Slettåsheia" />
		<tag k="natural" v="hill" />
		<tag k="place" v="locality" />
		<tag k="ssr:stedsnr" v="607896" />
	</node>
	<node lat="58.77232777621045" lon="8.732294445830881" id="-32884">
		<tag k="name" v="Sagdalen" />
		<tag k="natural" v="valley" />
		<tag k="place" v="locality" />
		<tag k="ssr:stedsnr" v="638022" />
	</node>
	<node lat="58.77941944647447" lon="8.88689722165535" id="-32886">
		<tag k="name" v="Ospeseten" />
		<tag k="place" v="locality" />
		<tag k="ssr:stedsnr" v="638028" />
	</node>
	<node lat="58.815469445631706" lon="8.887530563692282" id="-32889">
		<tag k="fixme" v="consider natural=peak for the most distinct mountains in the district" />
		<tag k="name" v="Kvernåsen" />
		<tag k="natural" v="hill" />
		<tag k="place" v="locality" />
		<tag k="ssr:stedsnr" v="638106" />
	</node>
	<node lat="58.660061106687" lon="8.774074992047773" id="-32890">
		<tag k="name" v="Rugdåsbrota" />
		<tag k="natural" v="slope" />
		<tag k="place" v="locality" />
		<tag k="ssr:stedsnr" v="638107" />
	</node>
	<node lat="58.79779166523825" lon="8.905744441040065" id="-32894">
		<tag k="name" v="Glomstjennliene" />
		<tag k="natural" v="slope" />
		<tag k="place" v="locality" />
		<tag k="ssr:stedsnr" v="638080" />
	</node>
	<node lat="58.80234722308821" lon="8.932502770149044" id="-32895">
		<tag k="name" v="Moenslia" />
		<tag k="natural" v="slope" />
		<tag k="place" v="locality" />
		<tag k="ssr:stedsnr" v="638084" />
	</node>
	<node lat="58.71313889211072" lon="8.806202772107152" id="-32901">
		<tag k="name" v="Londalsheia" />
		<tag k="natural" v="hill" />
		<tag k="place" v="locality" />
		<tag k="ssr:stedsnr" v="638211" />
	</node>
	<node lat="58.705299999549766" lon="8.766608329278595" id="-32903">
		<tag k="name" v="Albogsteinheia" />
		<tag k="natural" v="ridge" />
		<tag k="place" v="locality" />
		<tag k="ssr:stedsnr" v="638214" />
	</node>
	<node lat="58.766072224201686" lon="8.733566667193411" id="-32904">
		<tag k="fixme" v="consider natural=peak for the most distinct mountains in the district" />
		<tag k="name" v="Lauvåsen" />
		<tag k="natural" v="hill" />
		<tag k="place" v="locality" />
		<tag k="ssr:stedsnr" v="638215" />
	</node>
	<node lat="58.74650000101822" lon="8.850550006699105" id="-32907">
		<tag k="name" v="Trandlemyrdalen" />
		<tag k="natural" v="valley" />
		<tag k="place" v="locality" />
		<tag k="ssr:stedsnr" v="638225" />
	</node>
	<node lat="58.71041389267192" lon="8.809055562080292" id="-32909">
		<tag k="name" v="Londalen" />
		<tag k="natural" v="valley" />
		<tag k="place" v="locality" />
		<tag k="ssr:stedsnr" v="638234" />
	</node>
	<node lat="58.705330559966406" lon="8.894697228445127" id="-32910">
		<tag k="fixme" v="consider natural=peak for the most distinct mountains in the district" />
		<tag k="name" v="Ålkjerrbakkane" />
		<tag k="natural" v="hill" />
		<tag k="place" v="locality" />
		<tag k="ssr:stedsnr" v="638411" />
	</node>
	<node lat="58.71565000018685" lon="8.753713895839267" id="-32914">
		<tag k="name" v="Barlinddalen" />
		<tag k="natural" v="valley" />
		<tag k="place" v="locality" />
		<tag k="ssr:stedsnr" v="638183" />
	</node>
	<node lat="58.705141668301465" lon="8.724455553274616" id="-32918">
		<tag k="name" v="Lonliene" />
		<tag k="natural" v="slope" />
		<tag k="place" v="locality" />
		<tag k="ssr:stedsnr" v="638194" />
	</node>
	<node lat="58.76226667030943" lon="8.844149998829582" id="-32920">
		<tag k="name" v="Barbrosheia" />
		<tag k="natural" v="hill" />
		<tag k="place" v="locality" />
		<tag k="ssr:stedsnr" v="638306" />
	</node>
	<node lat="58.70129166842363" lon="8.841794447777998" id="-32925">
		<tag k="name" v="Stobleberga" />
		<tag k="natural" v="cliff" />
		<tag k="ssr:stedsnr" v="638380" />
	</node>
	<node lat="58.820077779959234" lon="8.89192221441066" id="-32926">
		<tag k="name" v="Esktjennlia" />
		<tag k="natural" v="slope" />
		<tag k="place" v="locality" />
		<tag k="ssr:stedsnr" v="638383" />
	</node>
	<node lat="58.73434999651088" lon="8.90369166885033" id="-32927">
		<tag k="fixme" v="consider natural=peak for the most distinct mountains in the district" />
		<tag k="name" v="Bjønnhiåsen" />
		<tag k="natural" v="hill" />
		<tag k="place" v="locality" />
		<tag k="ssr:stedsnr" v="638424" />
	</node>
	<node lat="58.77763333385312" lon="8.985430551612048" id="-32929">
		<tag k="fixme" v="consider natural=peak for the most distinct mountains in the district" />
		<tag k="name" v="Kloppåsen" />
		<tag k="natural" v="hill" />
		<tag k="place" v="locality" />
		<tag k="ssr:stedsnr" v="638485" />
	</node>
	<node lat="58.795911112258764" lon="8.941066670792246" id="-32944">
		<tag k="name" v="Stutdalsheia" />
		<tag k="natural" v="hill" />
		<tag k="place" v="locality" />
		<tag k="ssr:stedsnr" v="638593" />
	</node>
	<node lat="58.71761944097131" lon="8.676675002048928" id="-32946">
		<tag k="name" v="Gruveheia" />
		<tag k="natural" v="hill" />
		<tag k="place" v="locality" />
		<tag k="ssr:stedsnr" v="638725" />
	</node>
	<node lat="58.796052781609134" lon="8.74973888945217" id="-32953">
		<tag k="name" v="Bromlia" />
		<tag k="natural" v="slope" />
		<tag k="place" v="locality" />
		<tag k="ssr:stedsnr" v="638825" />
	</node>
	<node lat="58.807044442989806" lon="8.708269448987025" id="-32956">
		<tag k="name" v="Lonmønene" />
		<tag k="natural" v="ridge" />
		<tag k="place" v="locality" />
		<tag k="ssr:stedsnr" v="638895" />
	</node>
	<node lat="58.83913055869573" lon="8.863219442659664" id="-32961">
		<tag k="name" v="Sagliene" />
		<tag k="natural" v="slope" />
		<tag k="place" v="locality" />
		<tag k="ssr:stedsnr" v="668097" />
	</node>
	<node lat="58.72818610849633" lon="8.785313880624997" id="-32962">
		<tag k="fixme" v="consider natural=peak for the most distinct mountains in the district" />
		<tag k="name" v="Hanekam" />
		<tag k="natural" v="hill" />
		<tag k="place" v="locality" />
		<tag k="ssr:stedsnr" v="668100" />
	</node>
	<node lat="58.702741664612574" lon="8.801877771865437" id="-32977">
		<tag k="name" v="Ospehommen" />
		<tag k="natural" v="ridge" />
		<tag k="place" v="locality" />
		<tag k="ssr:stedsnr" v="699010" />
	</node>
	<node lat="58.71905833356896" lon="8.835963893432275" id="-32984">
		<tag k="name" v="Slette Liene" />
		<tag k="natural" v="slope" />
		<tag k="place" v="locality" />
		<tag k="ssr:stedsnr" v="699065" />
	</node>
	<node lat="58.70818333385644" lon="8.75868056327028" id="-32989">
		<tag k="fixme" v="consider natural=peak for the most distinct mountains in the district" />
		<tag k="name" v="Høydalsheia" />
		<tag k="natural" v="hill" />
		<tag k="place" v="locality" />
		<tag k="ssr:stedsnr" v="699213" />
	</node>
	<node lat="58.71994722001555" lon="8.742455563686875" id="-32993">
		<tag k="fixme" v="consider natural=peak for the most distinct mountains in the district" />
		<tag k="name" v="Åsane" />
		<tag k="natural" v="hill" />
		<tag k="place" v="locality" />
		<tag k="ssr:stedsnr" v="699162" />
	</node>
	<node lat="58.77025833349711" lon="8.91159166143186" id="-32996">
		<tag k="name" v="Rindane" />
		<tag k="natural" v="hill" />
		<tag k="place" v="locality" />
		<tag k="ssr:stedsnr" v="699303" />
	</node>
	<node lat="58.74495277537407" lon="8.882205553502383" id="-32998">
		<tag k="name" v="Korsdalen" />
		<tag k="natural" v="valley" />
		<tag k="place" v="locality" />
		<tag k="ssr:stedsnr" v="699263" />
	</node>
	<node lat="58.755844442136706" lon="8.920041666666526" id="-32999">
		<tag k="fixme" v="consider natural=peak for the most distinct mountains in the district" />
		<tag k="name" v="Jonsmyråsen" />
		<tag k="natural" v="hill" />
		<tag k="place" v="locality" />
		<tag k="ssr:stedsnr" v="699268" />
	</node>
	<node lat="58.81144444597962" lon="8.837749994644286" id="-33001">
		<tag k="name" v="Fjellveggen" />
		<tag k="natural" v="hill" />
		<tag k="place" v="locality" />
		<tag k="ssr:stedsnr" v="699404" />
	</node>
	<node lat="58.69764166597302" lon="8.847097224476817" id="-33003">
		<tag k="fixme" v="consider natural=peak for the most distinct mountains in the district" />
		<tag k="name" v="Oppreisås" />
		<tag k="natural" v="hill" />
		<tag k="place" v="locality" />
		<tag k="ssr:stedsnr" v="699406" />
	</node>
	<node lat="58.74137777389455" lon="8.898180549905867" id="-33005">
		<tag k="fixme" v="consider natural=peak for the most distinct mountains in the district" />
		<tag k="name" v="Stormyråsen" />
		<tag k="natural" v="hill" />
		<tag k="place" v="locality" />
		<tag k="ssr:stedsnr" v="699464" />
	</node>
	<node lat="58.72465000389481" lon="8.974966675183454" id="-33009">
		<tag k="name" v="Trolldalen" />
		<tag k="natural" v="valley" />
		<tag k="place" v="locality" />
		<tag k="ssr:stedsnr" v="699479" />
	</node>
	<node lat="58.77158889230677" lon="8.96978611079678" id="-33015">
		<tag k="name" v="Skarkedalen" />
		<tag k="natural" v="valley" />
		<tag k="place" v="locality" />
		<tag k="ssr:stedsnr" v="699520" />
	</node>
	<node lat="58.75630833515432" lon="8.972347223277497" id="-33017">
		<tag k="name" v="Langemyrdalen" />
		<tag k="natural" v="valley" />
		<tag k="place" v="locality" />
		<tag k="ssr:stedsnr" v="699524" />
	</node>
	<node lat="58.82049721958361" lon="8.954491663169458" id="-33018">
		<tag k="name" v="Tjærefjell" />
		<tag k="natural" v="hill" />
		<tag k="place" v="locality" />
		<tag k="ssr:stedsnr" v="699553" />
	</node>
	<node lat="58.76422222114022" lon="8.950811106364961" id="-33023">
		<tag k="name" v="Sjømannsheia" />
		<tag k="natural" v="hill" />
		<tag k="place" v="locality" />
		<tag k="ssr:stedsnr" v="699680" />
	</node>
	<node lat="58.72076666285772" lon="8.650322220406865" id="-33024">
		<tag k="fixme" v="consider natural=peak for the most distinct mountains in the district" />
		<tag k="name" v="Eikåsåsen" />
		<tag k="natural" v="hill" />
		<tag k="place" v="locality" />
		<tag k="ssr:stedsnr" v="699683" />
	</node>
	<node lat="58.796613887272606" lon="8.721038889190423" id="-33026">
		<tag k="fixme" v="consider natural=peak for the most distinct mountains in the district" />
		<tag k="name" v="Sønningheia" />
		<tag k="natural" v="hill" />
		<tag k="place" v="locality" />
		<tag k="ssr:stedsnr" v="699815" />
	</node>
	<node lat="58.687333333492546" lon="8.758194444089744" id="-33028">
		<tag k="name" v="Middagsvarden" />
		<tag k="place" v="locality" />
		<tag k="ssr:stedsnr" v="699712" />
	</node>
	<node lat="58.827916668208324" lon="8.779769442943374" id="-33029">
		<tag k="name" v="Nordre Kortdalen" />
		<tag k="natural" v="valley" />
		<tag k="place" v="locality" />
		<tag k="ssr:stedsnr" v="699787" />
	</node>
	<node lat="58.766241668960575" lon="8.672241672391934" id="-33033">
		<tag k="name" v="Bjørndalen" />
		<tag k="natural" v="valley" />
		<tag k="place" v="locality" />
		<tag k="ssr:stedsnr" v="699971" />
	</node>
	<node lat="58.74221666828848" lon="8.685586116884993" id="-33038">
		<tag k="alt_name" v="Bjortjennåsen" />
		<tag k="fixme" v="consider natural=peak for the most distinct mountains in the district" />
		<tag k="name" v="Bjortjørnåsen" />
		<tag k="natural" v="hill" />
		<tag k="place" v="locality" />
		<tag k="ssr:stedsnr" v="729026" />
	</node>
	<node lat="58.70966389159611" lon="8.71334165928049" id="-33040">
		<tag k="fixme" v="consider natural=peak for the most distinct mountains in the district" />
		<tag k="name" v="Ulskollen" />
		<tag k="natural" v="hill" />
		<tag k="place" v="locality" />
		<tag k="ssr:stedsnr" v="729071" />
	</node>
	<node lat="58.73676944621323" lon="8.789786104085508" id="-33044">
		<tag k="name" v="Skoredalen" />
		<tag k="natural" v="valley" />
		<tag k="place" v="locality" />
		<tag k="ssr:stedsnr" v="729110" />
	</node>
	<node lat="58.76466666339176" lon="8.90526943759714" id="-33049">
		<tag k="fixme" v="consider natural=peak for the most distinct mountains in the district" />
		<tag k="name" v="Bjelkåsen" />
		<tag k="natural" v="hill" />
		<tag k="place" v="locality" />
		<tag k="ssr:stedsnr" v="729405" />
	</node>
	<node lat="58.798319444691366" lon="8.919813882957879" id="-33051">
		<tag k="name" v="Svarttjennheia" />
		<tag k="natural" v="hill" />
		<tag k="place" v="locality" />
		<tag k="ssr:stedsnr" v="729477" />
	</node>
	<node lat="58.79462499642605" lon="8.68431667133971" id="-33054">
		<tag k="fixme" v="consider natural=peak for the most distinct mountains in the district" />
		<tag k="name" v="Høgfjell" />
		<tag k="natural" v="hill" />
		<tag k="place" v="locality" />
		<tag k="ssr:stedsnr" v="729567" />
	</node>
	<node lat="58.73013889334304" lon="8.991849997564874" id="-33055">
		<tag k="alt_name" v="Langhølknatten" />
		<tag k="fixme" v="consider natural=peak for the most distinct mountains in the district" />
		<tag k="name" v="Langhølknuten" />
		<tag k="natural" v="hill" />
		<tag k="place" v="locality" />
		<tag k="ssr:stedsnr" v="729568" />
	</node>
	<node lat="58.68361944732424" lon="8.840005558630677" id="-33058">
		<tag k="alt_name" v="Snøfjell" />
		<tag k="fixme" v="consider natural=peak for the most distinct mountains in the district" />
		<tag k="name" v="Snøfjellet" />
		<tag k="natural" v="hill" />
		<tag k="place" v="locality" />
		<tag k="ssr:stedsnr" v="729915" />
	</node>
	<node lat="58.782958332237854" lon="8.892930559744576" id="-33060">
		<tag k="fixme" v="consider natural=peak for the most distinct mountains in the district" />
		<tag k="name" v="Byttingsmyråsen" />
		<tag k="natural" v="hill" />
		<tag k="place" v="locality" />
		<tag k="ssr:stedsnr" v="730470" />
	</node>
	<node lat="58.790136108984754" lon="8.8679611161815" id="-33061">
		<tag k="fixme" v="consider natural=peak for the most distinct mountains in the district" />
		<tag k="name" v="Lauvkollen" />
		<tag k="natural" v="hill" />
		<tag k="place" v="locality" />
		<tag k="ssr:stedsnr" v="730475" />
	</node>
	<node lat="58.81398333516271" lon="8.90282500364836" id="-33065">
		<tag k="name" v="Skredalen" />
		<tag k="natural" v="valley" />
		<tag k="place" v="locality" />
		<tag k="ssr:stedsnr" v="759125" />
	</node>
	<node lat="58.773933329767" lon="8.754680551030457" id="-33071">
		<tag k="fixme" v="consider natural=peak for the most distinct mountains in the district" />
		<tag k="name" v="Ålkjerråsen" />
		<tag k="natural" v="hill" />
		<tag k="place" v="locality" />
		<tag k="ssr:stedsnr" v="759011" />
	</node>
	<node lat="58.77059444584351" lon="8.746647216150166" id="-33072">
		<tag k="alt_name" v="Kvernvasliene" />
		<tag k="name" v="Kvennvassliene" />
		<tag k="natural" v="slope" />
		<tag k="place" v="locality" />
		<tag k="ssr:stedsnr" v="759014" />
	</node>
	<node lat="58.77894722554458" lon="8.903622222975978" id="-33073">
		<tag k="name" v="Tollslåttbakkane" />
		<tag k="natural" v="hill" />
		<tag k="place" v="locality" />
		<tag k="ssr:stedsnr" v="759020" />
	</node>
	<node lat="58.755966664615535" lon="8.800419451806134" id="-33078">
		<tag k="fixme" v="consider natural=peak for the most distinct mountains in the district" />
		<tag k="name" v="Elgstjennåsen" />
		<tag k="natural" v="hill" />
		<tag k="place" v="locality" />
		<tag k="ssr:stedsnr" v="759212" />
	</node>
	<node lat="58.77021666231261" lon="8.87213333006278" id="-33081">
		<tag k="name" v="Geiteberget" />
		<tag k="place" v="locality" />
		<tag k="ssr:stedsnr" v="759309" />
	</node>
	<node lat="58.74321110693587" lon="8.973772213599082" id="-33082">
		<tag k="name" v="Fidalen" />
		<tag k="natural" v="valley" />
		<tag k="place" v="locality" />
		<tag k="ssr:stedsnr" v="759506" />
	</node>
	<node lat="58.74377777408071" lon="8.911486109353707" id="-33085">
		<tag k="fixme" v="consider natural=peak for the most distinct mountains in the district" />
		<tag k="name" v="Sjøknuten" />
		<tag k="natural" v="hill" />
		<tag k="place" v="locality" />
		<tag k="ssr:stedsnr" v="759251" />
	</node>
	<node lat="58.75523888674409" lon="8.840819440747747" id="-33086">
		<tag k="fixme" v="consider natural=peak for the most distinct mountains in the district" />
		<tag k="name" v="Furuåsen" />
		<tag k="natural" v="hill" />
		<tag k="place" v="locality" />
		<tag k="ssr:stedsnr" v="759301" />
	</node>
	<node lat="58.741319443444965" lon="8.910894437398987" id="-33091">
		<tag k="name" v="Fjellvikheia" />
		<tag k="natural" v="hill" />
		<tag k="place" v="locality" />
		<tag k="ssr:stedsnr" v="759450" />
	</node>
	<node lat="58.72882777679963" lon="8.641683325346944" id="-33093">
		<tag k="fixme" v="consider natural=peak for the most distinct mountains in the district" />
		<tag k="name" v="Blåmyrheia" />
		<tag k="natural" v="hill" />
		<tag k="place" v="locality" />
		<tag k="ssr:stedsnr" v="759704" />
	</node>
	<node lat="58.700750001130636" lon="8.686111111806355" id="-33095">
		<tag k="name" v="Barlinddalen" />
		<tag k="natural" v="valley" />
		<tag k="place" v="locality" />
		<tag k="ssr:stedsnr" v="759710" />
	</node>
	<node lat="58.64551111255343" lon="8.817024996202068" id="-33096">
		<tag k="name" v="Korsordalen" />
		<tag k="natural" v="valley" />
		<tag k="place" v="locality" />
		<tag k="ssr:stedsnr" v="759717" />
	</node>
	<node lat="58.793058337344206" lon="8.751869448094155" id="-33102">
		<tag k="name" v="Kvernhusknatten" />
		<tag k="natural" v="hill" />
		<tag k="place" v="locality" />
		<tag k="ssr:stedsnr" v="759818" />
	</node>
	<node lat="58.69342222493636" lon="8.800086113975368" id="-33109">
		<tag k="name" v="Sølvgruveknatten" />
		<tag k="natural" v="hill" />
		<tag k="place" v="locality" />
		<tag k="ssr:stedsnr" v="760054" />
	</node>
	<node lat="58.79741388552898" lon="8.89744444223195" id="-33111">
		<tag k="name" v="Rullane" />
		<tag k="natural" v="slope" />
		<tag k="place" v="locality" />
		<tag k="ssr:stedsnr" v="760098" />
	</node>
	<node lat="58.72428055680818" lon="8.932980549477216" id="-33112">
		<tag k="fixme" v="consider natural=peak for the most distinct mountains in the district" />
		<tag k="name" v="Hagås" />
		<tag k="natural" v="hill" />
		<tag k="place" v="locality" />
		<tag k="ssr:stedsnr" v="760102" />
	</node>
	<node lat="58.728305551130525" lon="8.780616669831723" id="-33113">
		<tag k="name" v="Svartufs" />
		<tag k="natural" v="slope" />
		<tag k="place" v="locality" />
		<tag k="ssr:stedsnr" v="760203" />
	</node>
	<node lat="58.695994445538126" lon="8.763205560574542" id="-33118">
		<tag k="name" v="Trondalen" />
		<tag k="natural" v="valley" />
		<tag k="place" v="locality" />
		<tag k="ssr:stedsnr" v="760213" />
	</node>
	<node lat="58.72924444721905" lon="8.907247218201887" id="-33125">
		<tag k="fixme" v="consider natural=peak for the most distinct mountains in the district" />
		<tag k="name" v="Dåbuknuten" />
		<tag k="natural" v="hill" />
		<tag k="place" v="locality" />
		<tag k="ssr:stedsnr" v="760109" />
	</node>
	<node lat="58.81135555846378" lon="8.925213894934691" id="-33127">
		<tag k="name" v="Østre Stutdalen" />
		<tag k="natural" v="valley" />
		<tag k="place" v="locality" />
		<tag k="ssr:stedsnr" v="760115" />
	</node>
	<node lat="58.6651250031296" lon="8.779772215960124" id="-33128">
		<tag k="name" v="Høghei" />
		<tag k="natural" v="hill" />
		<tag k="place" v="locality" />
		<tag k="ssr:stedsnr" v="760149" />
	</node>
	<node lat="58.72906388769132" lon="8.748794438650256" id="-33131">
		<tag k="name" v="Kjørkegårdsknatten" />
		<tag k="natural" v="hill" />
		<tag k="place" v="locality" />
		<tag k="ssr:stedsnr" v="760157" />
	</node>
	<node lat="58.720097226728676" lon="8.783702772806338" id="-33132">
		<tag k="fixme" v="consider natural=peak for the most distinct mountains in the district" />
		<tag k="name" v="Smalsundheia" />
		<tag k="natural" v="hill" />
		<tag k="place" v="locality" />
		<tag k="ssr:stedsnr" v="760192" />
	</node>
	<node lat="58.70638333501715" lon="8.918450006891678" id="-33138">
		<tag k="name" v="Glokjerrdalen" />
		<tag k="natural" v="valley" />
		<tag k="place" v="locality" />
		<tag k="ssr:stedsnr" v="760444" />
	</node>
	<node lat="58.702897221816315" lon="8.649661106365372" id="-33145">
		<tag k="alt_name" v="Hjerpåshefte" />
		<tag k="name" v="Jerpåshefte" />
		<tag k="natural" v="hill" />
		<tag k="place" v="locality" />
		<tag k="ssr:stedsnr" v="760527" />
	</node>
	<node lat="58.792861109860034" lon="8.795188891017839" id="-33147">
		<tag k="fixme" v="consider natural=peak for the most distinct mountains in the district" />
		<tag k="name" v="Kilandsheia" />
		<tag k="natural" v="hill" />
		<tag k="place" v="locality" />
		<tag k="ssr:stedsnr" v="760741" />
	</node>
	<node lat="58.78675000118952" lon="8.798261103756865" id="-33148">
		<tag k="name" v="Finnreisdal" />
		<tag k="natural" v="valley" />
		<tag k="place" v="locality" />
		<tag k="ssr:stedsnr" v="760761" />
	</node>
	<node lat="58.799713893119" lon="8.688336102605899" id="-33150">
		<tag k="name" v="Taklidalen" />
		<tag k="natural" v="valley" />
		<tag k="place" v="locality" />
		<tag k="ssr:stedsnr" v="760905" />
	</node>
	<node lat="58.829944442271405" lon="8.898036116042896" id="-33154">
		<tag k="fixme" v="consider natural=peak for the most distinct mountains in the district" />
		<tag k="name" v="Heståsen" />
		<tag k="natural" v="hill" />
		<tag k="place" v="locality" />
		<tag k="ssr:stedsnr" v="911089" />
	</node>
	<node lat="58.73002222113788" lon="8.766388888227032" id="-33156">
		<tag k="fixme" v="consider natural=peak for the most distinct mountains in the district" />
		<tag k="name" v="Nipfjell" />
		<tag k="natural" v="hill" />
		<tag k="place" v="locality" />
		<tag k="ssr:stedsnr" v="911100" />
	</node>
	<node lat="58.69308610899415" lon="8.908177776079135" id="-33160">
		<tag k="fixme" v="consider natural=peak for the most distinct mountains in the district" />
		<tag k="name" v="Haukåsen" />
		<tag k="natural" v="hill" />
		<tag k="place" v="locality" />
		<tag k="ssr:stedsnr" v="911496" />
	</node>
	<node lat="58.805302780265876" lon="8.751347218353942" id="-33167">
		<tag k="fixme" v="consider natural=peak for the most distinct mountains in the district" />
		<tag k="name" v="Ryggfjella" />
		<tag k="natural" v="hill" />
		<tag k="place" v="locality" />
		<tag k="ssr:stedsnr" v="911583" />
	</node>
	<node lat="58.770061115176674" lon="8.883208336936562" id="-33174">
		<tag k="name" v="Betlia" />
		<tag k="natural" v="slope" />
		<tag k="place" v="locality" />
		<tag k="ssr:stedsnr" v="911443" />
	</node>
	<node lat="58.72195833431522" lon="8.89276944855452" id="-33176">
		<tag k="fixme" v="consider natural=peak for the most distinct mountains in the district" />
		<tag k="name" v="Hestheia" />
		<tag k="natural" v="hill" />
		<tag k="place" v="locality" />
		<tag k="ssr:stedsnr" v="790606" />
	</node>
	<node lat="58.762361106963425" lon="8.985102772747764" id="-33178">
		<tag k="alt_name" v="Ekksjølia" />
		<tag k="name" v="Eksjølia" />
		<tag k="natural" v="slope" />
		<tag k="place" v="locality" />
		<tag k="ssr:stedsnr" v="790397" />
	</node>
	<node lat="58.6912873413768" lon="8.806991085460481" id="-33184">
		<tag k="alt_name" v="Øksfjell;Veten" />
		<tag k="fixme" v="consider natural=peak for the most distinct mountains in the district" />
		<tag k="name" v="Øksfjellet" />
		<tag k="natural" v="hill" />
		<tag k="place" v="locality" />
		<tag k="ssr:stedsnr" v="911911" />
	</node>
	<node lat="58.69881389038673" lon="8.793463880426424" id="-33185">
		<tag k="fixme" v="consider natural=peak for the most distinct mountains in the district" />
		<tag k="name" v="Dalsheia" />
		<tag k="natural" v="hill" />
		<tag k="place" v="locality" />
		<tag k="ssr:stedsnr" v="911865" />
	</node>
	<node lat="58.64689722527898" lon="8.813877784407572" id="-33187">
		<tag k="fixme" v="consider natural=peak for the most distinct mountains in the district" />
		<tag k="name" v="Stutåsen" />
		<tag k="natural" v="hill" />
		<tag k="place" v="locality" />
		<tag k="ssr:stedsnr" v="911979" />
	</node>
	<node lat="58.77917500305819" lon="9.00476110777908" id="-33192">
		<tag k="fixme" v="consider natural=peak for the most distinct mountains in the district" />
		<tag k="name" v="Ljøsvassheia" />
		<tag k="natural" v="hill" />
		<tag k="place" v="locality" />
		<tag k="ssr:stedsnr" v="912433" />
	</node>
	<node lat="58.786169445063045" lon="8.91134445103054" id="-33194">
		<tag k="alt_name" v="Villeråsen" />
		<tag k="fixme" v="consider natural=peak for the most distinct mountains in the district" />
		<tag k="name" v="Vilderåsen" />
		<tag k="natural" v="hill" />
		<tag k="place" v="locality" />
		<tag k="ssr:stedsnr" v="912472" />
	</node>
	<node lat="58.77507222196254" lon="8.735886118930738" id="-33195">
		<tag k="fixme" v="consider natural=peak for the most distinct mountains in the district" />
		<tag k="name" v="Vikheia" />
		<tag k="natural" v="hill" />
		<tag k="place" v="locality" />
		<tag k="ssr:stedsnr" v="820005" />
	</node>
	<node lat="58.77602500249677" lon="8.744191667079258" id="-33196">
		<tag k="fixme" v="consider natural=peak for the most distinct mountains in the district" />
		<tag k="name" v="Kvernvassheia" />
		<tag k="natural" v="hill" />
		<tag k="place" v="locality" />
		<tag k="ssr:stedsnr" v="820007" />
	</node>
	<node lat="58.79857777514553" lon="8.745633338919815" id="-33201">
		<tag k="fixme" v="consider natural=peak for the most distinct mountains in the district" />
		<tag k="name" v="Revurheia" />
		<tag k="natural" v="hill" />
		<tag k="place" v="locality" />
		<tag k="ssr:stedsnr" v="820169" />
	</node>
	<node lat="58.75982221785594" lon="8.937022214398196" id="-33211">
		<tag k="name" v="Kleivheia" />
		<tag k="natural" v="hill" />
		<tag k="place" v="locality" />
		<tag k="ssr:stedsnr" v="820283" />
	</node>
	<node lat="58.70624444785329" lon="8.849827782851657" id="-33218">
		<tag k="fixme" v="consider natural=peak for the most distinct mountains in the district" />
		<tag k="name" v="Hasseldalsheia" />
		<tag k="natural" v="hill" />
		<tag k="place" v="locality" />
		<tag k="ssr:stedsnr" v="820388" />
	</node>
	<node lat="58.69531944296275" lon="8.89785833432193" id="-33225">
		<tag k="fixme" v="consider natural=peak for the most distinct mountains in the district" />
		<tag k="name" v="Lauvreisås" />
		<tag k="natural" v="hill" />
		<tag k="place" v="locality" />
		<tag k="ssr:stedsnr" v="820471" />
	</node>
	<node lat="58.72813889071116" lon="8.683805563713358" id="-33227">
		<tag k="fixme" v="consider natural=peak for the most distinct mountains in the district" />
		<tag k="name" v="Fenuten" />
		<tag k="natural" v="hill" />
		<tag k="place" v="locality" />
		<tag k="ssr:stedsnr" v="820675" />
	</node>
	<node lat="58.72256388442241" lon="8.704719439886773" id="-33229">
		<tag k="name" v="Lindtjenndalen" />
		<tag k="natural" v="valley" />
		<tag k="place" v="locality" />
		<tag k="ssr:stedsnr" v="820687" />
	</node>
	<node lat="58.79725277720225" lon="8.729391664782664" id="-33233">
		<tag k="name" v="Bjørnknatten" />
		<tag k="natural" v="hill" />
		<tag k="place" v="locality" />
		<tag k="ssr:stedsnr" v="820814" />
	</node>
	<node lat="58.793763888955404" lon="8.736613896732406" id="-33234">
		<tag k="name" v="Hakenesliene" />
		<tag k="natural" v="slope" />
		<tag k="place" v="locality" />
		<tag k="ssr:stedsnr" v="820815" />
	</node>
	<node lat="58.71281666587283" lon="8.658713886040456" id="-33235">
		<tag k="name" v="Ospedalen" />
		<tag k="natural" v="valley" />
		<tag k="place" v="locality" />
		<tag k="ssr:stedsnr" v="820708" />
	</node>
	<node lat="58.68900555852246" lon="8.763688882064217" id="-33237">
		<tag k="name" v="Halvgåttvarden" />
		<tag k="place" v="locality" />
		<tag k="ssr:stedsnr" v="820717" />
	</node>
	<node lat="58.82650555279875" lon="8.784099993746064" id="-33240">
		<tag k="name" v="Søndre Kortdalen" />
		<tag k="natural" v="valley" />
		<tag k="place" v="locality" />
		<tag k="ssr:stedsnr" v="820785" />
	</node>
	<node lat="58.79215277849132" lon="8.690894437696016" id="-33241">
		<tag k="name" v="Moensliene" />
		<tag k="natural" v="slope" />
		<tag k="place" v="locality" />
		<tag k="ssr:stedsnr" v="820920" />
	</node>
	<node lat="58.7925527801708" lon="8.67711666045708" id="-33242">
		<tag k="name" v="Tverrdalen" />
		<tag k="natural" v="valley" />
		<tag k="place" v="locality" />
		<tag k="ssr:stedsnr" v="820921" />
	</node>
	<node lat="58.70638333429783" lon="8.755663884305983" id="-33246">
		<tag k="name" v="Ufsene" />
		<tag k="natural" v="cliff" />
		<tag k="ssr:stedsnr" v="821217" />
	</node>
	<node lat="58.709319441370006" lon="8.753752771743072" id="-33247">
		<tag k="name" v="Høydalen" />
		<tag k="natural" v="valley" />
		<tag k="place" v="locality" />
		<tag k="ssr:stedsnr" v="821218" />
	</node>
	<node lat="58.71820555379291" lon="8.814055557360822" id="-33248">
		<tag k="name" v="Nordmyrliheia" />
		<tag k="natural" v="hill" />
		<tag k="place" v="locality" />
		<tag k="ssr:stedsnr" v="821178" />
	</node>
	<node lat="58.72968888787617" lon="8.773774993162032" id="-33250">
		<tag k="fixme" v="consider natural=peak for the most distinct mountains in the district" />
		<tag k="name" v="Kvedukheia" />
		<tag k="natural" v="hill" />
		<tag k="place" v="locality" />
		<tag k="ssr:stedsnr" v="821187" />
	</node>
	<node lat="58.74454999844692" lon="8.850194446098925" id="-33251">
		<tag k="name" v="Knollen" />
		<tag k="natural" v="hill" />
		<tag k="place" v="locality" />
		<tag k="ssr:stedsnr" v="821309" />
	</node>
	<node lat="58.775030558125124" lon="8.8910527843005" id="-33252">
		<tag k="name" v="Slettene" />
		<tag k="natural" v="slope" />
		<tag k="place" v="locality" />
		<tag k="ssr:stedsnr" v="821324" />
	</node>
	<node lat="58.64596666986868" lon="8.807605550478801" id="-33254">
		<tag k="fixme" v="consider natural=peak for the most distinct mountains in the district" />
		<tag k="name" v="Knutskjerrheia" />
		<tag k="natural" v="hill" />
		<tag k="place" v="locality" />
		<tag k="ssr:stedsnr" v="821273" />
	</node>
	<node lat="58.78912222376068" lon="8.947494447577519" id="-33258">
		<tag k="fixme" v="consider natural=peak for the most distinct mountains in the district" />
		<tag k="name" v="Østre Åsen" />
		<tag k="natural" v="hill" />
		<tag k="place" v="locality" />
		<tag k="ssr:stedsnr" v="821290" />
	</node>
	<node lat="58.808536107426356" lon="8.907186109823614" id="-33267">
		<tag k="alt_name" v="Grønliholtane" />
		<tag k="fixme" v="consider natural=peak for the most distinct mountains in the district" />
		<tag k="name" v="Grønlihottene" />
		<tag k="natural" v="hill" />
		<tag k="place" v="locality" />
		<tag k="ssr:stedsnr" v="850001" />
	</node>
	<node lat="58.801988887526946" lon="8.961011107403145" id="-33269">
		<tag k="name" v="Bjørnåslia" />
		<tag k="natural" v="slope" />
		<tag k="place" v="locality" />
		<tag k="ssr:stedsnr" v="850006" />
	</node>
	<node lat="58.71178611416036" lon="8.814655548214319" id="-33271">
		<tag k="alt_name" v="Bågstølheia" />
		<tag k="fixme" v="consider natural=peak for the most distinct mountains in the district" />
		<tag k="name" v="Bågestølheia" />
		<tag k="natural" v="hill" />
		<tag k="place" v="locality" />
		<tag k="ssr:stedsnr" v="850095" />
	</node>
	<node lat="58.77966666982755" lon="8.663988890312481" id="-33272">
		<tag k="fixme" v="consider natural=peak for the most distinct mountains in the district" />
		<tag k="name" v="Høgås" />
		<tag k="natural" v="hill" />
		<tag k="place" v="locality" />
		<tag k="ssr:stedsnr" v="850189" />
	</node>
	<node lat="58.76321666909655" lon="8.994108330911654" id="-33273">
		<tag k="alt_name" v="Kallvannsheia;Kallsvassheia;Kallsvannsheia" />
		<tag k="fixme" v="consider natural=peak for the most distinct mountains in the district" />
		<tag k="name" v="Kallsvannheia" />
		<tag k="natural" v="hill" />
		<tag k="place" v="locality" />
		<tag k="ssr:stedsnr" v="850392" />
	</node>
	<node lat="58.8112083373658" lon="8.950477775078799" id="-33277">
		<tag k="fixme" v="consider natural=peak for the most distinct mountains in the district" />
		<tag k="name" v="Hullåsen" />
		<tag k="natural" v="hill" />
		<tag k="place" v="locality" />
		<tag k="ssr:stedsnr" v="851031" />
	</node>
	<node lat="58.73128333781162" lon="8.899863893367469" id="-33286">
		<tag k="fixme" v="consider natural=peak for the most distinct mountains in the district" />
		<tag k="name" v="Skravdalsknuten" />
		<tag k="natural" v="hill" />
		<tag k="place" v="locality" />
		<tag k="ssr:stedsnr" v="881104" />
	</node>
	<node lat="58.74469722582252" lon="8.791541667903676" id="-33291">
		<tag k="name" v="Svarttjenndalen" />
		<tag k="natural" v="valley" />
		<tag k="place" v="locality" />
		<tag k="ssr:stedsnr" v="881151" />
	</node>
	<node lat="58.734469441376255" lon="8.780736109346963" id="-33292">
		<tag k="fixme" v="consider natural=peak for the most distinct mountains in the district" />
		<tag k="name" v="Lille Besteliheia" />
		<tag k="natural" v="hill" />
		<tag k="place" v="locality" />
		<tag k="ssr:stedsnr" v="881157" />
	</node>
	<node lat="58.64940000094419" lon="8.820263881070725" id="-33294">
		<tag k="name" v="Suggeheia" />
		<tag k="natural" v="hill" />
		<tag k="place" v="locality" />
		<tag k="ssr:stedsnr" v="881163" />
	</node>
	<node lat="58.7666250001926" lon="8.750238882009079" id="-33308">
		<tag k="name" v="Varden" />
		<tag k="place" v="locality" />
		<tag k="ssr:stedsnr" v="881224" />
	</node>
	<node lat="58.69507777527985" lon="8.902963891029636" id="-33311">
		<tag k="name" v="Furuheia" />
		<tag k="natural" v="ridge" />
		<tag k="place" v="locality" />
		<tag k="ssr:stedsnr" v="881459" />
	</node>
	<node lat="58.74902777523614" lon="8.887508330645607" id="-33312">
		<tag k="fixme" v="consider natural=peak for the most distinct mountains in the district" />
		<tag k="name" v="Ljøstadåsen" />
		<tag k="natural" v="hill" />
		<tag k="place" v="locality" />
		<tag k="ssr:stedsnr" v="881460" />
	</node>
	<node lat="58.81517222282409" lon="8.98266665992748" id="-33318">
		<tag k="name" v="Tykkli" />
		<tag k="natural" v="slope" />
		<tag k="place" v="locality" />
		<tag k="ssr:stedsnr" v="881611" />
	</node>
	<node lat="58.67513888827908" lon="8.77460555416799" id="-33320">
		<tag k="name" v="Bjortjennliene" />
		<tag k="natural" v="slope" />
		<tag k="place" v="locality" />
		<tag k="ssr:stedsnr" v="881660" />
	</node>
	<node lat="58.675480553948496" lon="8.819608328891247" id="-33321">
		<tag k="name" v="Kalveknatten" />
		<tag k="natural" v="hill" />
		<tag k="place" v="locality" />
		<tag k="ssr:stedsnr" v="881667" />
	</node>
	<node lat="58.72457222302624" lon="8.884147223684469" id="-33323">
		<tag k="fixme" v="consider natural=peak for the most distinct mountains in the district" />
		<tag k="name" v="Småtjennåsen" />
		<tag k="natural" v="hill" />
		<tag k="place" v="locality" />
		<tag k="ssr:stedsnr" v="881352" />
	</node>
	<node lat="58.74108055506219" lon="8.958277772836247" id="-33328">
		<tag k="fixme" v="consider natural=peak for the most distinct mountains in the district" />
		<tag k="name" v="Bjønnåsen" />
		<tag k="natural" v="hill" />
		<tag k="place" v="locality" />
		<tag k="ssr:stedsnr" v="881548" />
	</node>
	<node lat="58.812866667528" lon="8.948291670651463" id="-33329">
		<tag k="name" v="Hulldalen" />
		<tag k="natural" v="valley" />
		<tag k="place" v="locality" />
		<tag k="ssr:stedsnr" v="881566" />
	</node>
	<node lat="58.79515277970653" lon="8.784552773306253" id="-33331">
		<tag k="fixme" v="consider natural=peak for the most distinct mountains in the district" />
		<tag k="name" v="Spåråheia" />
		<tag k="natural" v="hill" />
		<tag k="place" v="locality" />
		<tag k="ssr:stedsnr" v="881751" />
	</node>
	<node lat="58.79423888826297" lon="8.687658326256006" id="-33334">
		<tag k="name" v="Knatten" />
		<tag k="natural" v="hill" />
		<tag k="place" v="locality" />
		<tag k="ssr:stedsnr" v="881906" />
	</node>
	<node lat="58.70820833581705" lon="8.966674992651356" id="-33342">
		<tag k="name" v="Blekktjennheia" />
		<tag k="natural" v="hill" />
		<tag k="place" v="locality" />
		<tag k="ssr:stedsnr" v="934887" />
	</node>
	<node lat="58.74684444494217" lon="8.7219194511016" id="-33345">
		<tag k="fixme" v="consider natural=peak for the most distinct mountains in the district" />
		<tag k="name" v="Nonnuten" />
		<tag k="natural" v="hill" />
		<tag k="place" v="locality" />
		<tag k="ssr:stedsnr" v="911036" />
	</node>
	<node lat="58.718447223935215" lon="8.683972221109046" id="-33348">
		<tag k="fixme" v="consider natural=peak for the most distinct mountains in the district" />
		<tag k="name" v="Valåsen" />
		<tag k="natural" v="hill" />
		<tag k="place" v="locality" />
		<tag k="ssr:stedsnr" v="911077" />
	</node>
	<node lat="58.83114444616424" lon="8.86843055366919" id="-33363">
		<tag k="name" v="Raudnes" />
		<tag k="natural" v="hill" />
		<tag k="place" v="locality" />
		<tag k="ssr:stedsnr" v="88" />
	</node>
	<node lat="58.724638887505876" lon="8.728605554177644" id="-33366">
		<tag k="fixme" v="consider natural=peak for the most distinct mountains in the district" />
		<tag k="name" v="Kaldalsfjell" />
		<tag k="natural" v="hill" />
		<tag k="place" v="locality" />
		<tag k="ssr:stedsnr" v="121" />
	</node>
	<node lat="58.71538889314742" lon="8.912869448698034" id="-33369">
		<tag k="alt_name" v="Sauknollane" />
		<tag k="fixme" v="consider natural=peak for the most distinct mountains in the district" />
		<tag k="name" v="Sauknollene" />
		<tag k="natural" v="hill" />
		<tag k="place" v="locality" />
		<tag k="ssr:stedsnr" v="572" />
	</node>
	<node lat="58.703277776267186" lon="8.93160555199307" id="-33371">
		<tag k="alt_name" v="Østebøfjell" />
		<tag k="fixme" v="consider natural=peak for the most distinct mountains in the district" />
		<tag k="name" v="Østebøfjellet" />
		<tag k="natural" v="hill" />
		<tag k="place" v="locality" />
		<tag k="ssr:stedsnr" v="609" />
	</node>
	<node lat="58.83914166425339" lon="8.873041665925491" id="-33373">
		<tag k="fixme" v="consider natural=peak for the most distinct mountains in the district" />
		<tag k="name" v="Akselfjell" />
		<tag k="natural" v="hill" />
		<tag k="place" v="locality" />
		<tag k="ssr:stedsnr" v="1121" />
	</node>
	<node lat="58.78859999993709" lon="8.9666666731327" id="-33375">
		<tag k="fixme" v="consider natural=peak for the most distinct mountains in the district" />
		<tag k="name" v="Haftåsen" />
		<tag k="natural" v="hill" />
		<tag k="place" v="locality" />
		<tag k="ssr:stedsnr" v="1447" />
	</node>
	<node lat="58.78477499716837" lon="8.865411115316215" id="-33377">
		<tag k="alt_name" v="Høljelandsfjell" />
		<tag k="fixme" v="consider natural=peak for the most distinct mountains in the district" />
		<tag k="name" v="Høljelandsfjellet" />
		<tag k="natural" v="hill" />
		<tag k="place" v="locality" />
		<tag k="ssr:stedsnr" v="1456" />
	</node>
	<node lat="58.78147500043095" lon="8.882486107106525" id="-33389">
		<tag k="name" v="Dalfjell" />
		<tag k="natural" v="hill" />
		<tag k="place" v="locality" />
		<tag k="ssr:stedsnr" v="31050" />
	</node>
	<node lat="58.79913888678809" lon="8.907008333052337" id="-33399">
		<tag k="fixme" v="consider natural=peak for the most distinct mountains in the district" />
		<tag k="name" v="Urfjell" />
		<tag k="natural" v="hill" />
		<tag k="place" v="locality" />
		<tag k="ssr:stedsnr" v="31083" />
	</node>
	<node lat="58.66076388830853" lon="8.832024994670986" id="-33400">
		<tag k="fixme" v="consider natural=peak for the most distinct mountains in the district" />
		<tag k="name" v="Åsane" />
		<tag k="natural" v="hill" />
		<tag k="place" v="locality" />
		<tag k="ssr:stedsnr" v="31089" />
	</node>
	<node lat="58.66221111091566" lon="8.836336108958806" id="-33401">
		<tag k="name" v="Moldskotet" />
		<tag k="natural" v="slope" />
		<tag k="place" v="locality" />
		<tag k="ssr:stedsnr" v="31090" />
	</node>
	<node lat="58.76156666725744" lon="8.78191110480169" id="-33408">
		<tag k="name" v="Sågliene" />
		<tag k="natural" v="slope" />
		<tag k="place" v="locality" />
		<tag k="ssr:stedsnr" v="31198" />
	</node>
	<node lat="58.68874166616925" lon="8.846772219582373" id="-33410">
		<tag k="fixme" v="consider natural=peak for the most distinct mountains in the district" />
		<tag k="name" v="Buheia" />
		<tag k="natural" v="hill" />
		<tag k="place" v="locality" />
		<tag k="ssr:stedsnr" v="31286" />
	</node>
	<node lat="58.75993611331364" lon="8.824491673636427" id="-33412">
		<tag k="name" v="Byttåsdalen" />
		<tag k="natural" v="valley" />
		<tag k="place" v="locality" />
		<tag k="ssr:stedsnr" v="31293" />
	</node>
	<node lat="58.7735472200435" lon="8.962041663056777" id="-33413">
		<tag k="name" v="Bromlia" />
		<tag k="natural" v="slope" />
		<tag k="place" v="locality" />
		<tag k="ssr:stedsnr" v="31294" />
	</node>
	<node lat="58.72447777599151" lon="8.65905555687794" id="-33414">
		<tag k="name" v="Vasslia" />
		<tag k="natural" v="slope" />
		<tag k="place" v="locality" />
		<tag k="ssr:stedsnr" v="31295" />
	</node>
	<node lat="58.73751388603563" lon="8.622480552096182" id="-33416">
		<tag k="fixme" v="consider natural=peak for the most distinct mountains in the district" />
		<tag k="name" v="Fanteheia" />
		<tag k="natural" v="hill" />
		<tag k="place" v="locality" />
		<tag k="ssr:stedsnr" v="31127" />
	</node>
	<node lat="58.6568888873632" lon="8.823783331689178" id="-33421">
		<tag k="name" v="Sølvgråbakkane" />
		<tag k="natural" v="slope" />
		<tag k="place" v="locality" />
		<tag k="ssr:stedsnr" v="31144" />
	</node>
	<node lat="58.798674999117964" lon="8.756413896764242" id="-33422">
		<tag k="name" v="Knuten" />
		<tag k="natural" v="hill" />
		<tag k="place" v="locality" />
		<tag k="ssr:stedsnr" v="31145" />
	</node>
	<node lat="58.65849166385221" lon="8.758858339022146" id="-33424">
		<tag k="fixme" v="consider natural=peak for the most distinct mountains in the district" />
		<tag k="name" v="Røyråsen" />
		<tag k="natural" v="hill" />
		<tag k="place" v="locality" />
		<tag k="ssr:stedsnr" v="31150" />
	</node>
	<node lat="58.70915000376847" lon="8.942663882922078" id="-33434">
		<tag k="name" v="Lauvbuliene" />
		<tag k="natural" v="slope" />
		<tag k="place" v="locality" />
		<tag k="ssr:stedsnr" v="31247" />
	</node>
	<node lat="58.7131083360938" lon="8.965086109719522" id="-33436">
		<tag k="name" v="Dalen" />
		<tag k="natural" v="valley" />
		<tag k="place" v="locality" />
		<tag k="ssr:stedsnr" v="31255" />
	</node>
	<node lat="58.7248222208841" lon="8.944549991877286" id="-33437">
		<tag k="fixme" v="consider natural=peak for the most distinct mountains in the district" />
		<tag k="name" v="Osplunden" />
		<tag k="natural" v="hill" />
		<tag k="place" v="locality" />
		<tag k="ssr:stedsnr" v="31256" />
	</node>
	<node lat="58.748766669629" lon="8.9335138971386" id="-33439">
		<tag k="name" v="Molbukjerrknuten" />
		<tag k="natural" v="hill" />
		<tag k="place" v="locality" />
		<tag k="ssr:stedsnr" v="31258" />
	</node>
	<node lat="58.70511944784386" lon="8.861397226534045" id="-33441">
		<tag k="name" v="Eineråsdalen" />
		<tag k="natural" v="valley" />
		<tag k="place" v="locality" />
		<tag k="ssr:stedsnr" v="31378" />
	</node>
	<node lat="58.70606388916759" lon="8.83874444099704" id="-33444">
		<tag k="name" v="Korvfjell" />
		<tag k="natural" v="hill" />
		<tag k="place" v="locality" />
		<tag k="ssr:stedsnr" v="31384" />
	</node>
	<node lat="58.82048611372061" lon="8.922697225710351" id="-33446">
		<tag k="name" v="Sagheia" />
		<tag k="natural" v="hill" />
		<tag k="place" v="locality" />
		<tag k="ssr:stedsnr" v="31388" />
	</node>
	<node lat="58.72912777889833" lon="8.967324997582729" id="-33452">
		<tag k="name" v="Uvannsdalen" />
		<tag k="natural" v="valley" />
		<tag k="place" v="locality" />
		<tag k="ssr:stedsnr" v="31488" />
	</node>
	<node lat="58.826327777623554" lon="8.76727221639082" id="-33459">
		<tag k="name" v="Urvassliene" />
		<tag k="natural" v="slope" />
		<tag k="place" v="locality" />
		<tag k="ssr:stedsnr" v="31783" />
	</node>
	<node lat="58.72074166471255" lon="8.91798332689929" id="-33462">
		<tag k="fixme" v="consider natural=peak for the most distinct mountains in the district" />
		<tag k="name" v="Dipelheia" />
		<tag k="natural" v="hill" />
		<tag k="place" v="locality" />
		<tag k="ssr:stedsnr" v="31353" />
	</node>
	<node lat="58.708338892737" lon="8.913163889506825" id="-33464">
		<tag k="name" v="Bergsmyrfjellet" />
		<tag k="natural" v="hill" />
		<tag k="place" v="locality" />
		<tag k="ssr:stedsnr" v="31436" />
	</node>
	<node lat="58.70245833597651" lon="8.892180559553973" id="-33465">
		<tag k="name" v="Hønsedalen" />
		<tag k="natural" v="valley" />
		<tag k="place" v="locality" />
		<tag k="ssr:stedsnr" v="31451" />
	</node>
	<node lat="58.742430559206106" lon="8.911211114736854" id="-33468">
		<tag k="name" v="Ljøstadfjell" />
		<tag k="natural" v="hill" />
		<tag k="place" v="locality" />
		<tag k="ssr:stedsnr" v="31460" />
	</node>
	<node lat="58.80741388833515" lon="8.975300002077091" id="-33472">
		<tag k="name" v="Langli" />
		<tag k="natural" v="slope" />
		<tag k="place" v="locality" />
		<tag k="ssr:stedsnr" v="31629" />
	</node>
	<node lat="58.816174996462784" lon="8.99296389495629" id="-33473">
		<tag k="name" v="Bronheia" />
		<tag k="natural" v="hill" />
		<tag k="place" v="locality" />
		<tag k="ssr:stedsnr" v="31634" />
	</node>
	<node lat="58.80973055395528" lon="8.986744453010353" id="-33474">
		<tag k="name" v="Kverndalshei" />
		<tag k="natural" v="hill" />
		<tag k="place" v="locality" />
		<tag k="ssr:stedsnr" v="31637" />
	</node>
	<node lat="58.71403333469442" lon="8.669294446046466" id="-33480">
		<tag k="fixme" v="consider natural=peak for the most distinct mountains in the district" />
		<tag k="name" v="Kringleås" />
		<tag k="natural" v="hill" />
		<tag k="place" v="locality" />
		<tag k="ssr:stedsnr" v="31743" />
	</node>
	<node lat="58.707316663191094" lon="8.711338896663465" id="-33481">
		<tag k="name" v="Steindalen" />
		<tag k="natural" v="valley" />
		<tag k="place" v="locality" />
		<tag k="ssr:stedsnr" v="31750" />
	</node>
	<node lat="58.70486944100667" lon="8.6630111168059" id="-33482">
		<tag k="name" v="Hovdefjellkollane" />
		<tag k="natural" v="hill" />
		<tag k="place" v="locality" />
		<tag k="ssr:stedsnr" v="31752" />
	</node>
	<node lat="58.79113610834588" lon="8.797538890484745" id="-33483">
		<tag k="name" v="Klomreiknatten" />
		<tag k="natural" v="hill" />
		<tag k="place" v="locality" />
		<tag k="ssr:stedsnr" v="31757" />
	</node>
	<node lat="58.7450166629601" lon="8.647097228432832" id="-33494">
		<tag k="fixme" v="consider natural=peak for the most distinct mountains in the district" />
		<tag k="name" v="Kverndalsheia" />
		<tag k="natural" v="hill" />
		<tag k="place" v="locality" />
		<tag k="ssr:stedsnr" v="31992" />
	</node>
	<node lat="58.78307500084831" lon="8.685036117713176" id="-33499">
		<tag k="fixme" v="consider natural=peak for the most distinct mountains in the district" />
		<tag k="name" v="Lille Skålheia" />
		<tag k="natural" v="hill" />
		<tag k="place" v="locality" />
		<tag k="ssr:stedsnr" v="31929" />
	</node>
	<node lat="58.77472222498582" lon="8.676561112392703" id="-33500">
		<tag k="name" v="Skuggemyrknattene" />
		<tag k="natural" v="hill" />
		<tag k="place" v="locality" />
		<tag k="ssr:stedsnr" v="31942" />
	</node>
	<node lat="58.6467805531636" lon="8.820011110806036" id="-33508">
		<tag k="alt_name" v="Gunnarskjerråsen;Gunnerskjerråsen" />
		<tag k="fixme" v="consider natural=peak for the most distinct mountains in the district" />
		<tag k="name" v="Gunderskjerråsen" />
		<tag k="natural" v="hill" />
		<tag k="place" v="locality" />
		<tag k="ssr:stedsnr" v="62993" />
	</node>
	<node lat="58.65504166801154" lon="8.826191662409803" id="-33509">
		<tag k="fixme" v="consider natural=peak for the most distinct mountains in the district" />
		<tag k="name" v="Fagerliåsen" />
		<tag k="natural" v="hill" />
		<tag k="place" v="locality" />
		<tag k="ssr:stedsnr" v="63000" />
	</node>
	<node lat="58.82204444600653" lon="8.965600008455773" id="-33510">
		<tag k="fixme" v="consider natural=peak for the most distinct mountains in the district" />
		<tag k="name" v="Oksås" />
		<tag k="natural" v="hill" />
		<tag k="place" v="locality" />
		<tag k="ssr:stedsnr" v="61040" />
	</node>
	<node lat="58.82161666394992" lon="8.76163611526373" id="-33515">
		<tag k="name" v="Tollhommen" />
		<tag k="natural" v="hill" />
		<tag k="place" v="locality" />
		<tag k="ssr:stedsnr" v="61666" />
	</node>
	<node lat="58.80107499600709" lon="8.736980563028935" id="-33524">
		<tag k="alt_name" v="Gunnarslåttheia" />
		<tag k="name" v="Gunderslåttheia" />
		<tag k="natural" v="hill" />
		<tag k="place" v="locality" />
		<tag k="ssr:stedsnr" v="61548" />
	</node>
	<node lat="58.83867499574136" lon="8.901041665872171" id="-33527">
		<tag k="name" v="Hundsvassdalen" />
		<tag k="natural" v="valley" />
		<tag k="place" v="locality" />
		<tag k="ssr:stedsnr" v="62095" />
	</node>
	<node lat="58.76217499710271" lon="8.882922215551883" id="-33533">
		<tag k="alt_name" v="Fleskedalsheia, s" />
		<tag k="fixme" v="consider natural=peak for the most distinct mountains in the district" />
		<tag k="name" v="Søre Fleskedalsheia" />
		<tag k="natural" v="hill" />
		<tag k="place" v="locality" />
		<tag k="ssr:stedsnr" v="62392" />
	</node>
	<node lat="58.769233336314194" lon="8.741311110587679" id="-33539">
		<tag k="name" v="Øygardshogsten" />
		<tag k="natural" v="slope" />
		<tag k="place" v="locality" />
		<tag k="ssr:stedsnr" v="92016" />
	</node>
	<node lat="58.77863055297271" lon="8.89472222413047" id="-33541">
		<tag k="name" v="Bjørndalen" />
		<tag k="natural" v="valley" />
		<tag k="place" v="locality" />
		<tag k="ssr:stedsnr" v="92027" />
	</node>
	<node lat="58.67785000245685" lon="8.847119442307774" id="-33544">
		<tag k="fixme" v="consider natural=peak for the most distinct mountains in the district" />
		<tag k="name" v="Stutåsen" />
		<tag k="natural" v="hill" />
		<tag k="place" v="locality" />
		<tag k="ssr:stedsnr" v="92034" />
	</node>
	<node lat="58.67579444306541" lon="8.842772220047856" id="-33545">
		<tag k="fixme" v="consider natural=peak for the most distinct mountains in the district" />
		<tag k="name" v="Kjørkeheia" />
		<tag k="natural" v="hill" />
		<tag k="place" v="locality" />
		<tag k="ssr:stedsnr" v="92036" />
	</node>
	<node lat="58.79167777337753" lon="8.911474995431162" id="-33546">
		<tag k="name" v="Revslåttdalen" />
		<tag k="natural" v="valley" />
		<tag k="place" v="locality" />
		<tag k="ssr:stedsnr" v="92037" />
	</node>
	<node lat="58.71803610913915" lon="8.669266658725412" id="-33552">
		<tag k="fixme" v="consider natural=peak for the most distinct mountains in the district" />
		<tag k="name" v="Knippen" />
		<tag k="natural" v="hill" />
		<tag k="place" v="locality" />
		<tag k="ssr:stedsnr" v="92736" />
	</node>
	<node lat="58.79255833042837" lon="8.797605561268718" id="-33553">
		<tag k="name" v="Bærlia" />
		<tag k="natural" v="slope" />
		<tag k="place" v="locality" />
		<tag k="ssr:stedsnr" v="92749" />
	</node>
	<node lat="58.69366666931503" lon="8.783711116185547" id="-33556">
		<tag k="fixme" v="consider natural=peak for the most distinct mountains in the district" />
		<tag k="name" v="Granheia" />
		<tag k="natural" v="hill" />
		<tag k="place" v="locality" />
		<tag k="ssr:stedsnr" v="92048" />
	</node>
	<node lat="58.65785833134805" lon="8.795441673529375" id="-33559">
		<tag k="fixme" v="consider natural=peak for the most distinct mountains in the district" />
		<tag k="name" v="Tiurleikheia" />
		<tag k="natural" v="hill" />
		<tag k="place" v="locality" />
		<tag k="ssr:stedsnr" v="92130" />
	</node>
	<node lat="58.81671388760295" lon="8.740241666942396" id="-33560">
		<tag k="name" v="Tørjeslåttdalen" />
		<tag k="natural" v="valley" />
		<tag k="place" v="locality" />
		<tag k="ssr:stedsnr" v="92131" />
	</node>
	<node lat="58.76459444360846" lon="8.728288894623669" id="-33570">
		<tag k="fixme" v="consider natural=peak for the most distinct mountains in the district" />
		<tag k="name" v="Foreheia" />
		<tag k="natural" v="hill" />
		<tag k="place" v="locality" />
		<tag k="ssr:stedsnr" v="92237" />
	</node>
	<node lat="58.72338889316366" lon="8.939633325437011" id="-33572">
		<tag k="fixme" v="consider natural=peak for the most distinct mountains in the district" />
		<tag k="name" v="Tjennheia" />
		<tag k="natural" v="hill" />
		<tag k="place" v="locality" />
		<tag k="ssr:stedsnr" v="92249" />
	</node>
	<node lat="58.738177781545645" lon="8.92056111631937" id="-33574">
		<tag k="name" v="Rørmyrdalen" />
		<tag k="natural" v="valley" />
		<tag k="place" v="locality" />
		<tag k="ssr:stedsnr" v="92254" />
	</node>
	<node lat="58.69628610670673" lon="8.943363892876494" id="-33575">
		<tag k="name" v="Langevasskotet" />
		<tag k="natural" v="slope" />
		<tag k="place" v="locality" />
		<tag k="ssr:stedsnr" v="92261" />
	</node>
	<node lat="58.72608889204924" lon="8.924661111851933" id="-33576">
		<tag k="fixme" v="consider natural=peak for the most distinct mountains in the district" />
		<tag k="name" v="Grasåsen" />
		<tag k="natural" v="hill" />
		<tag k="place" v="locality" />
		<tag k="ssr:stedsnr" v="92088" />
	</node>
	<node lat="58.705386115391754" lon="8.868969449789608" id="-33586">
		<tag k="fixme" v="consider natural=peak for the most distinct mountains in the district" />
		<tag k="name" v="Kvernåsen" />
		<tag k="natural" v="hill" />
		<tag k="place" v="locality" />
		<tag k="ssr:stedsnr" v="92394" />
	</node>
	<node lat="58.82374722014852" lon="8.91286388792163" id="-33588">
		<tag k="name" v="Jordbærdalen" />
		<tag k="natural" v="valley" />
		<tag k="place" v="locality" />
		<tag k="ssr:stedsnr" v="92408" />
	</node>
	<node lat="58.727675000220266" lon="8.963927775555135" id="-33590">
		<tag k="name" v="Store Bjørkekjerrheia" />
		<tag k="natural" v="hill" />
		<tag k="place" v="locality" />
		<tag k="ssr:stedsnr" v="92489" />
	</node>
	<node lat="58.71068889031309" lon="8.925666660320477" id="-33597">
		<tag k="fixme" v="consider natural=peak for the most distinct mountains in the district" />
		<tag k="name" v="Hålaheia" />
		<tag k="natural" v="hill" />
		<tag k="place" v="locality" />
		<tag k="ssr:stedsnr" v="92440" />
	</node>
	<node lat="58.706922225179014" lon="8.919722225551084" id="-33598">
		<tag k="name" v="Bekkjerråsen" />
		<tag k="natural" v="hill" />
		<tag k="place" v="locality" />
		<tag k="ssr:stedsnr" v="92442" />
	</node>
	<node lat="58.702861111294965" lon="8.890383329761162" id="-33600">
		<tag k="fixme" v="consider natural=peak for the most distinct mountains in the district" />
		<tag k="name" v="Løråsen" />
		<tag k="natural" v="hill" />
		<tag k="place" v="locality" />
		<tag k="ssr:stedsnr" v="92450" />
	</node>
	<node lat="58.82827777845508" lon="8.836150007923791" id="-33602">
		<tag k="name" v="Hågli" />
		<tag k="natural" v="slope" />
		<tag k="place" v="locality" />
		<tag k="ssr:stedsnr" v="92455" />
	</node>
	<node lat="58.827644448346256" lon="8.922944439611063" id="-33603">
		<tag k="fixme" v="consider natural=peak for the most distinct mountains in the district" />
		<tag k="name" v="Kjerrhjellfjell" />
		<tag k="natural" v="hill" />
		<tag k="place" v="locality" />
		<tag k="ssr:stedsnr" v="92459" />
	</node>
	<node lat="58.73187222021336" lon="8.68440277340931" id="-33613">
		<tag k="fixme" v="consider natural=peak for the most distinct mountains in the district" />
		<tag k="name" v="Vardehei" />
		<tag k="natural" v="hill" />
		<tag k="place" v="locality" />
		<tag k="ssr:stedsnr" v="92688" />
	</node>
	<node lat="58.83198610915254" lon="8.77689166304515" id="-33616">
		<tag k="name" v="Haukdalen" />
		<tag k="natural" v="valley" />
		<tag k="place" v="locality" />
		<tag k="ssr:stedsnr" v="92784" />
	</node>
	<node lat="58.79630555604499" lon="8.674674991370434" id="-33622">
		<tag k="name" v="Ubergsdalen" />
		<tag k="natural" v="valley" />
		<tag k="place" v="locality" />
		<tag k="ssr:stedsnr" v="92885" />
	</node>
	<node lat="58.794019440033715" lon="8.711169444200332" id="-33624">
		<tag k="name" v="Tjennmoen" />
		<tag k="place" v="locality" />
		<tag k="ssr:stedsnr" v="92897" />
	</node>
	<node lat="58.79392500159855" lon="8.67724444952787" id="-33625">
		<tag k="fixme" v="consider natural=peak for the most distinct mountains in the district" />
		<tag k="name" v="Tverrdalsheia" />
		<tag k="natural" v="hill" />
		<tag k="place" v="locality" />
		<tag k="ssr:stedsnr" v="92900" />
	</node>
	<node lat="58.74475000065011" lon="8.942688895435268" id="-33628">
		<tag k="fixme" v="consider natural=peak for the most distinct mountains in the district" />
		<tag k="name" v="Middagsåsen" />
		<tag k="natural" v="hill" />
		<tag k="place" v="locality" />
		<tag k="ssr:stedsnr" v="92559" />
	</node>
	<node lat="58.79916111326599" lon="8.945458329770439" id="-33629">
		<tag k="fixme" v="consider natural=peak for the most distinct mountains in the district" />
		<tag k="name" v="Spokkåsen" />
		<tag k="natural" v="hill" />
		<tag k="place" v="locality" />
		<tag k="ssr:stedsnr" v="92625" />
	</node>
	<node lat="58.68021388858771" lon="8.733930553190149" id="-33632">
		<tag k="name" v="Skolbergliene" />
		<tag k="natural" v="slope" />
		<tag k="place" v="locality" />
		<tag k="ssr:stedsnr" v="92653" />
	</node>
	<node lat="58.77970277610861" lon="8.734544448291327" id="-33635">
		<tag k="name" v="Budalen" />
		<tag k="natural" v="valley" />
		<tag k="place" v="locality" />
		<tag k="ssr:stedsnr" v="92833" />
	</node>
	<node lat="58.780447222835456" lon="8.744783340310416" id="-33636">
		<tag k="name" v="Ringdal" />
		<tag k="natural" v="valley" />
		<tag k="place" v="locality" />
		<tag k="ssr:stedsnr" v="92841" />
	</node>
	<node lat="58.78606111487449" lon="8.744711114342337" id="-33639">
		<tag k="name" v="Slettvollia" />
		<tag k="natural" v="slope" />
		<tag k="place" v="locality" />
		<tag k="ssr:stedsnr" v="92846" />
	</node>
	<node lat="58.74045555809904" lon="8.712441669603532" id="-33641">
		<tag k="name" v="Mastedalen" />
		<tag k="natural" v="valley" />
		<tag k="place" v="locality" />
		<tag k="ssr:stedsnr" v="92854" />
	</node>
	<node lat="58.74923610828274" lon="8.698877777387933" id="-33650">
		<tag k="name" v="Tjussliene" />
		<tag k="natural" v="slope" />
		<tag k="place" v="locality" />
		<tag k="ssr:stedsnr" v="92997" />
	</node>
	<node lat="58.84912500381729" lon="8.826758340516413" id="-33651">
		<tag k="name" v="Bjordalen" />
		<tag k="natural" v="valley" />
		<tag k="place" v="locality" />
		<tag k="ssr:stedsnr" v="122728" />
	</node>
	<node lat="58.816727778933455" lon="8.899913883073328" id="-33653">
		<tag k="name" v="Rauerlia" />
		<tag k="natural" v="slope" />
		<tag k="place" v="locality" />
		<tag k="ssr:stedsnr" v="122029" />
	</node>
	<node lat="58.8234333328094" lon="8.954511107513042" id="-33655">
		<tag k="name" v="Krokslåttlia" />
		<tag k="natural" v="slope" />
		<tag k="place" v="locality" />
		<tag k="ssr:stedsnr" v="122047" />
	</node>
	<node lat="58.7551361079423" lon="8.855591671220179" id="-33657">
		<tag k="fixme" v="consider natural=peak for the most distinct mountains in the district" />
		<tag k="name" v="Kjørkeliheia" />
		<tag k="natural" v="hill" />
		<tag k="place" v="locality" />
		<tag k="ssr:stedsnr" v="122058" />
	</node>
	<node lat="58.761247220633095" lon="8.874725000947393" id="-33660">
		<tag k="alt_name" v="Fleskedalsheia, nordre" />
		<tag k="fixme" v="consider natural=peak for the most distinct mountains in the district" />
		<tag k="name" v="Nordre Fleskedalsheia" />
		<tag k="natural" v="hill" />
		<tag k="place" v="locality" />
		<tag k="ssr:stedsnr" v="122397" />
	</node>
	<node lat="58.771874998437525" lon="8.806849994112355" id="-33666">
		<tag k="name" v="Knøsheia" />
		<tag k="natural" v="hill" />
		<tag k="place" v="locality" />
		<tag k="ssr:stedsnr" v="122546" />
	</node>
	<node lat="58.795044443586136" lon="8.813077771251304" id="-33670">
		<tag k="name" v="Vardåsheia" />
		<tag k="natural" v="hill" />
		<tag k="place" v="locality" />
		<tag k="ssr:stedsnr" v="122625" />
	</node>
	<node lat="58.67047500268953" lon="8.808305562367664" id="-33673">
		<tag k="fixme" v="consider natural=peak for the most distinct mountains in the district" />
		<tag k="name" v="Lauvåsen" />
		<tag k="natural" v="hill" />
		<tag k="place" v="locality" />
		<tag k="ssr:stedsnr" v="122969" />
	</node>
	<node lat="58.75231388905425" lon="8.80802778534447" id="-33675">
		<tag k="fixme" v="consider natural=peak for the most distinct mountains in the district" />
		<tag k="name" v="Båniåsen" />
		<tag k="natural" v="hill" />
		<tag k="place" v="locality" />
		<tag k="ssr:stedsnr" v="122936" />
	</node>
	<node lat="58.772086109196266" lon="8.909563881457434" id="-33691">
		<tag k="name" v="Hesteknatten" />
		<tag k="natural" v="hill" />
		<tag k="place" v="locality" />
		<tag k="ssr:stedsnr" v="152300" />
	</node>
	<node lat="58.65154722037595" lon="8.83526944385033" id="-33692">
		<tag k="fixme" v="consider natural=peak for the most distinct mountains in the district" />
		<tag k="name" v="Søndre Breivikheia" />
		<tag k="natural" v="hill" />
		<tag k="place" v="locality" />
		<tag k="ssr:stedsnr" v="153080" />
	</node>
	<node lat="58.65295833575918" lon="8.836577770424725" id="-33693">
		<tag k="name" v="Breivikdalen" />
		<tag k="natural" v="valley" />
		<tag k="place" v="locality" />
		<tag k="ssr:stedsnr" v="153081" />
	</node>
	<node lat="58.64912589524863" lon="8.842013181931083" id="-33694">
		<tag k="name" v="Vassendfjell" />
		<tag k="natural" v="hill" />
		<tag k="place" v="locality" />
		<tag k="ssr:stedsnr" v="153084" />
	</node>
	<node lat="58.726727778538056" lon="8.777541669263329" id="-33699">
		<tag k="name" v="Kvedukane" />
		<tag k="place" v="locality" />
		<tag k="ssr:stedsnr" v="153182" />
	</node>
	<node lat="58.716888889036504" lon="8.721950007132266" id="-33703">
		<tag k="fixme" v="consider natural=peak for the most distinct mountains in the district" />
		<tag k="name" v="Heståsen" />
		<tag k="natural" v="hill" />
		<tag k="place" v="locality" />
		<tag k="ssr:stedsnr" v="153194" />
	</node>
	<node lat="58.69287778150806" lon="8.770725001920031" id="-33708">
		<tag k="fixme" v="consider natural=peak for the most distinct mountains in the district" />
		<tag k="name" v="Foråsen" />
		<tag k="natural" v="hill" />
		<tag k="place" v="locality" />
		<tag k="ssr:stedsnr" v="153257" />
	</node>
	<node lat="58.70371111432972" lon="8.709205560249545" id="-33717">
		<tag k="fixme" v="consider natural=peak for the most distinct mountains in the district" />
		<tag k="name" v="Heislåttheia" />
		<tag k="natural" v="hill" />
		<tag k="place" v="locality" />
		<tag k="ssr:stedsnr" v="152794" />
	</node>
	<node lat="58.66696389105227" lon="8.79251111770538" id="-33739">
		<tag k="name" v="Beinmyrspranget" />
		<tag k="natural" v="cliff" />
		<tag k="ssr:stedsnr" v="153149" />
	</node>
	<node lat="58.763480554258194" lon="8.755472230293899" id="-33742">
		<tag k="name" v="Rørmyrlia" />
		<tag k="natural" v="slope" />
		<tag k="place" v="locality" />
		<tag k="ssr:stedsnr" v="153234" />
	</node>
	<node lat="58.71732500426575" lon="8.938930558074626" id="-33744">
		<tag k="name" v="Tereleiken" />
		<tag k="natural" v="hill" />
		<tag k="place" v="locality" />
		<tag k="ssr:stedsnr" v="153248" />
	</node>
	<node lat="58.71611389203265" lon="8.92535277386624" id="-33745">
		<tag k="name" v="Fagerlidalen" />
		<tag k="natural" v="valley" />
		<tag k="place" v="locality" />
		<tag k="ssr:stedsnr" v="153390" />
	</node>
	<node lat="58.69724721844565" lon="8.905075007770145" id="-33746">
		<tag k="fixme" v="consider natural=peak for the most distinct mountains in the district" />
		<tag k="name" v="Fjellsmyrheia" />
		<tag k="natural" v="hill" />
		<tag k="place" v="locality" />
		<tag k="ssr:stedsnr" v="153477" />
	</node>
	<node lat="58.69025000098727" lon="8.889252769897832" id="-33747">
		<tag k="fixme" v="consider natural=peak for the most distinct mountains in the district" />
		<tag k="name" v="Kobberknatten" />
		<tag k="natural" v="hill" />
		<tag k="place" v="locality" />
		<tag k="ssr:stedsnr" v="153480" />
	</node>
	<node lat="58.694580555718325" lon="8.893591671888766" id="-33748">
		<tag k="name" v="Tviskjelet" />
		<tag k="place" v="locality" />
		<tag k="ssr:stedsnr" v="153482" />
	</node>
	<node lat="58.69380833389861" lon="8.932905559560862" id="-33749">
		<tag k="fixme" v="consider natural=peak for the most distinct mountains in the district" />
		<tag k="name" v="Rullane" />
		<tag k="natural" v="hill" />
		<tag k="place" v="locality" />
		<tag k="ssr:stedsnr" v="153487" />
	</node>
	<node lat="58.715722219862855" lon="8.845280551037671" id="-33754">
		<tag k="name" v="Årlia" />
		<tag k="natural" v="slope" />
		<tag k="place" v="locality" />
		<tag k="ssr:stedsnr" v="153281" />
	</node>
	<node lat="58.81530278115537" lon="8.959616675000802" id="-33763">
		<tag k="name" v="Lisleli" />
		<tag k="natural" v="slope" />
		<tag k="place" v="locality" />
		<tag k="ssr:stedsnr" v="153592" />
	</node>
	<node lat="58.686144441126075" lon="8.729761118574897" id="-33765">
		<tag k="name" v="Tryturdalen" />
		<tag k="natural" v="valley" />
		<tag k="place" v="locality" />
		<tag k="ssr:stedsnr" v="153665" />
	</node>
	<node lat="58.67052221787253" lon="8.791250005169859" id="-33766">
		<tag k="name" v="Ellingsdalen" />
		<tag k="natural" v="valley" />
		<tag k="place" v="locality" />
		<tag k="ssr:stedsnr" v="153678" />
	</node>
	<node lat="58.66905833757937" lon="8.77594999925574" id="-33767">
		<tag k="name" v="Venhaugen" />
		<tag k="natural" v="hill" />
		<tag k="place" v="locality" />
		<tag k="ssr:stedsnr" v="153685" />
	</node>
	<node lat="58.74152499821716" lon="8.709733332055535" id="-33772">
		<tag k="fixme" v="consider natural=peak for the most distinct mountains in the district" />
		<tag k="name" v="Stortjennåsen" />
		<tag k="natural" v="hill" />
		<tag k="place" v="locality" />
		<tag k="ssr:stedsnr" v="153896" />
	</node>
	<node lat="58.78986944753291" lon="8.96132499708801" id="-33773">
		<tag k="name" v="Vrangkleiv" />
		<tag k="natural" v="slope" />
		<tag k="place" v="locality" />
		<tag k="ssr:stedsnr" v="153626" />
	</node>
	<node lat="58.79464721809911" lon="8.70194166223773" id="-33780">
		<tag k="name" v="Jørnsbekkdalen" />
		<tag k="natural" v="valley" />
		<tag k="place" v="locality" />
		<tag k="ssr:stedsnr" v="153937" />
	</node>
	<node lat="58.749538888574946" lon="8.682180559939352" id="-33783">
		<tag k="name" v="Vadalen" />
		<tag k="natural" v="valley" />
		<tag k="place" v="locality" />
		<tag k="ssr:stedsnr" v="153996" />
	</node>
	<node lat="58.81340555637964" lon="8.895299993071136" id="-33791">
		<tag k="fixme" v="consider natural=peak for the most distinct mountains in the district" />
		<tag k="name" v="Slettåsen" />
		<tag k="natural" v="hill" />
		<tag k="place" v="locality" />
		<tag k="ssr:stedsnr" v="183021" />
	</node>
	<node lat="58.78519999569" lon="8.987427772425857" id="-33793">
		<tag k="fixme" v="consider natural=peak for the most distinct mountains in the district" />
		<tag k="name" v="Liheia" />
		<tag k="natural" v="hill" />
		<tag k="place" v="locality" />
		<tag k="ssr:stedsnr" v="183062" />
	</node>
	<node lat="58.70362777451144" lon="8.658025004102964" id="-33796">
		<tag k="fixme" v="consider natural=peak for the most distinct mountains in the district" />
		<tag k="name" v="Hovdefjell" />
		<tag k="natural" v="hill" />
		<tag k="place" v="locality" />
		<tag k="ssr:stedsnr" v="183081" />
	</node>
	<node lat="58.831105553146955" lon="8.775030562173235" id="-33802">
		<tag k="fixme" v="consider natural=peak for the most distinct mountains in the district" />
		<tag k="name" v="Risfjell" />
		<tag k="natural" v="hill" />
		<tag k="place" v="locality" />
		<tag k="ssr:stedsnr" v="183634" />
	</node>
	<node lat="58.81794166970469" lon="8.712588883782354" id="-33804">
		<tag k="name" v="Liknollen" />
		<tag k="natural" v="hill" />
		<tag k="place" v="locality" />
		<tag k="ssr:stedsnr" v="183684" />
	</node>
	<node lat="58.80765000304361" lon="8.82151943612157" id="-33810">
		<tag k="alt_name" v="Skombekkliene" />
		<tag k="name" v="Skumbekkliane" />
		<tag k="natural" v="slope" />
		<tag k="place" v="locality" />
		<tag k="ssr:stedsnr" v="183563" />
	</node>
</osm>
