<?xml version="1.0" encoding="UTF-8"?>
<osm version="0.6" generator="osmapis">
	<node lat="58.819022222969394" lon="8.952961116814803" id="-31751">
		<tag k="fixme" v="consider highway=path" />
		<tag k="highway" v="track" />
		<tag k="name" v="Skårmyrkleivene" />
		<tag k="ssr:stedsnr" v="31602" />
	</node>
	<node lat="58.82306110871941" lon="8.955225002826703" id="-31752">
		<tag k="fixme" v="consider highway=path" />
		<tag k="highway" v="track" />
		<tag k="name" v="Prestevegen" />
		<tag k="ssr:stedsnr" v="31605" />
	</node>
	<node lat="58.774619446834095" lon="8.862127775882225" id="-31899">
		<tag k="bridge" v="yes" />
		<tag k="layer" v="1" />
		<tag k="name" v="Høl" />
		<tag k="ssr:stedsnr" v="107024" />
	</node>
	<node lat="58.726394442230415" lon="8.670127774440843" id="-31900">
		<tag k="bridge" v="yes" />
		<tag k="layer" v="1" />
		<tag k="name" v="Ufsvatn bru" />
		<tag k="ssr:stedsnr" v="107194" />
	</node>
	<node lat="58.7950694450449" lon="8.802136118777376" id="-32100">
		<tag k="fixme" v="verify maritime location" />
		<tag k="mooring" v="yes" />
		<tag k="name" v="Kilansstøa" />
		<tag k="place" v="locality" />
		<tag k="ssr:stedsnr" v="214783" />
	</node>
	<node lat="58.73559999738838" lon="8.85477223014256" id="-32121">
		<tag k="bridge" v="yes" />
		<tag k="layer" v="1" />
		<tag k="name" v="Hov" />
		<tag k="ssr:stedsnr" v="228031" />
	</node>
	<node lat="58.704875003491615" lon="8.737216674024037" id="-32387">
		<tag k="bridge" v="yes" />
		<tag k="layer" v="1" />
		<tag k="name" v="Ormshammerskottet" />
		<tag k="ssr:stedsnr" v="350207" />
	</node>
	<node lat="58.78677222018991" lon="8.918511119418879" id="-32411">
		<tag k="fixme" v="verify maritime location" />
		<tag k="mooring" v="yes" />
		<tag k="name" v="Vinterveistøa" />
		<tag k="place" v="locality" />
		<tag k="ssr:stedsnr" v="395039" />
	</node>
	<node lat="58.836791668356824" lon="8.861083324977223" id="-32498">
		<tag k="bridge" v="yes" />
		<tag k="layer" v="1" />
		<tag k="name" v="Teinelags" />
		<tag k="ssr:stedsnr" v="410208" />
	</node>
	<node lat="58.743833334490986" lon="8.934819442178291" id="-32589">
		<tag k="bridge" v="yes" />
		<tag k="layer" v="1" />
		<tag k="name" v="Fossane" />
		<tag k="ssr:stedsnr" v="471017" />
	</node>
	<node lat="58.77412499878936" lon="8.940183327478227" id="-32648">
		<tag k="ford" v="yes" />
		<tag k="name" v="Lauvbuvaet" />
		<tag k="place" v="locality" />
		<tag k="ssr:stedsnr" v="517714" />
	</node>
	<node lat="58.80749722198721" lon="8.826061115583919" id="-32654">
		<tag k="bridge" v="yes" />
		<tag k="layer" v="1" />
		<tag k="name" v="Årekloppa" />
		<tag k="ssr:stedsnr" v="517825" />
	</node>
	<node lat="58.74686388650765" lon="8.999513887429991" id="-32670">
		<tag k="bridge" v="yes" />
		<tag k="layer" v="1" />
		<tag k="name" v="Fossen" />
		<tag k="ssr:stedsnr" v="532027" />
	</node>
	<node lat="58.805375000148445" lon="8.970724998082755" id="-32671">
		<tag k="bridge" v="yes" />
		<tag k="layer" v="1" />
		<tag k="name" v="Gromsbru" />
		<tag k="ssr:stedsnr" v="532028" />
	</node>
	<node lat="58.736175004193804" lon="8.639516670880484" id="-32870">
		<tag k="bridge" v="yes" />
		<tag k="layer" v="1" />
		<tag k="name" v="Risbruene" />
		<tag k="ssr:stedsnr" v="699989" />
	</node>
	<node lat="58.79299166963928" lon="8.836994448703543" id="-32957">
		<tag k="bridge" v="yes" />
		<tag k="layer" v="1" />
		<tag k="name" v="Rønningen" />
		<tag k="ssr:stedsnr" v="653208" />
	</node>
	<node lat="58.775697218960225" lon="8.884611111967887" id="-32982">
		<tag k="bridge" v="yes" />
		<tag k="layer" v="1" />
		<tag k="name" v="Jordbrua" />
		<tag k="ssr:stedsnr" v="699032" />
	</node>
	<node lat="58.70652499617368" lon="8.839061103413822" id="-33036">
		<tag k="bridge" v="yes" />
		<tag k="layer" v="1" />
		<tag k="name" v="Haugland" />
		<tag k="ssr:stedsnr" v="896020" />
	</node>
	<node lat="58.78136389149322" lon="8.733863893285388" id="-33105">
		<tag k="junction" v="yes" />
		<tag k="name" v="Sandabrekka" />
		<tag k="place" v="locality" />
		<tag k="ssr:stedsnr" v="759860" />
	</node>
	<node lat="58.75626944471713" lon="8.71397222469489" id="-33263">
		<tag k="fixme" v="verify maritime location" />
		<tag k="mooring" v="yes" />
		<tag k="name" v="Vestre Tjusslistøa" />
		<tag k="place" v="locality" />
		<tag k="ssr:stedsnr" v="821970" />
	</node>
	<node lat="58.75654166246302" lon="8.688449992731334" id="-33264">
		<tag k="name" v="Tellefsrull" />
		<tag k="place" v="locality" />
		<tag k="ssr:stedsnr" v="821971" />
	</node>
	<node lat="58.65936110786347" lon="8.812774998000263" id="-33265">
		<tag k="bridge" v="yes" />
		<tag k="layer" v="1" />
		<tag k="name" v="Våje" />
		<tag k="ssr:stedsnr" v="835224" />
	</node>
	<node lat="58.75923888969545" lon="8.858591675293377" id="-33266">
		<tag k="bridge" v="yes" />
		<tag k="layer" v="1" />
		<tag k="name" v="Moland" />
		<tag k="ssr:stedsnr" v="835226" />
	</node>
	<node lat="58.729172218047694" lon="8.94436111254254" id="-33315">
		<tag k="ford" v="yes" />
		<tag k="name" v="Teinlaget" />
		<tag k="place" v="locality" />
		<tag k="ssr:stedsnr" v="881468" />
	</node>
	<node lat="58.78619722192443" lon="8.995138896383475" id="-33324">
		<tag k="bridge" v="yes" />
		<tag k="layer" v="1" />
		<tag k="name" v="Nautbrua" />
		<tag k="ssr:stedsnr" v="881503" />
	</node>
	<node lat="58.780047221350415" lon="8.987252770116896" id="-33325">
		<tag k="ford" v="yes" />
		<tag k="name" v="Vaet" />
		<tag k="place" v="locality" />
		<tag k="ssr:stedsnr" v="881507" />
	</node>
	<node lat="58.82638333027692" lon="8.955227785315325" id="-33330">
		<tag k="fixme" v="consider highway=path" />
		<tag k="highway" v="track" />
		<tag k="name" v="Vrangevreen" />
		<tag k="ssr:stedsnr" v="881568" />
	</node>
	<node lat="58.794736111277984" lon="8.797941659439488" id="-33332">
		<tag k="fixme" v="verify maritime location" />
		<tag k="mooring" v="yes" />
		<tag k="name" v="Færsnesstøa" />
		<tag k="place" v="locality" />
		<tag k="ssr:stedsnr" v="881754" />
	</node>
	<node lat="58.68157222142749" lon="8.818458340945838" id="-33343">
		<tag k="bridge" v="yes" />
		<tag k="layer" v="1" />
		<tag k="name" v="Songer" />
		<tag k="ssr:stedsnr" v="896228" />
	</node>
	<node lat="58.71862221778802" lon="8.769780548553143" id="-33347">
		<tag k="name" v="Espelandsmyr" />
		<tag k="railway" v="station" />
		<tag k="ssr:stedsnr" v="911076" />
		<tag k="train" v="yes" />
	</node>
	<node lat="58.776786106732466" lon="8.830705552216585" id="-33392">
		<tag k="ford" v="yes" />
		<tag k="name" v="Svartvad" />
		<tag k="place" v="locality" />
		<tag k="ssr:stedsnr" v="31065" />
	</node>
	<node lat="58.83311111536116" lon="8.884191675301889" id="-33502">
		<tag k="bridge" v="yes" />
		<tag k="layer" v="1" />
		<tag k="name" v="Mo" />
		<tag k="ssr:stedsnr" v="46227" />
	</node>
	<node lat="58.691483331036345" lon="8.825305556036682" id="-33722">
		<tag k="alt_name" v="Heskrebekk" />
		<tag k="bridge" v="yes" />
		<tag k="layer" v="1" />
		<tag k="name" v="Heskrebekkbrua" />
		<tag k="ssr:stedsnr" v="153043" />
	</node>
	<node lat="58.75106111091988" lon="8.89086388708916" id="-33784">
		<tag k="bridge" v="yes" />
		<tag k="layer" v="1" />
		<tag k="name" v="Såge" />
		<tag k="ssr:stedsnr" v="168218" />
	</node>
</osm>
