<?xml version="1.0" encoding="UTF-8"?>
<osm version="0.6" generator="osmapis">
	<node lat="58.69521944264524" lon="8.767811106130189" id="-34320">
		<tag k="amenity" v="community_centre" />
		<tag k="name" v="Tveiten" />
		<tag k="ssr:stedsnr" v="31024" />
	</node>
	<node lat="58.763727780982684" lon="8.854325008287102" id="-34454">
		<tag k="name" v="Øverli" />
		<tag k="place" v="locality" />
		<tag k="ssr:stedsnr" v="92317" />
	</node>
	<node lat="58.660733335943554" lon="8.790727770264398" id="-34579">
		<tag k="name" v="Skarken" />
		<tag k="place" v="locality" />
		<tag k="ssr:stedsnr" v="153122" />
	</node>
	<node lat="58.719244443933576" lon="8.95606666690393" id="-34595">
		<tag k="name" v="Hova" />
		<tag k="place" v="locality" />
		<tag k="ssr:stedsnr" v="153504" />
	</node>
	<node lat="58.73899167039103" lon="8.666880556465303" id="-34612">
		<tag k="name" v="Ulvefallet" />
		<tag k="ssr:stedsnr" v="153907" />
		<tag k="tourism" v="attraction" />
	</node>
	<node lat="58.76617500239875" lon="8.887566663175852" id="-34790">
		<tag k="name" v="Trullet" />
		<tag k="place" v="locality" />
		<tag k="ssr:stedsnr" v="456289" />
	</node>
	<node lat="58.705147223958434" lon="8.935191658329435" id="-34811">
		<tag k="name" v="Bytteika" />
		<tag k="place" v="locality" />
		<tag k="ssr:stedsnr" v="456421" />
	</node>
	<node lat="58.72328055375204" lon="8.897894442651056" id="-35066">
		<tag k="name" v="Hesteheftet" />
		<tag k="place" v="locality" />
		<tag k="ssr:stedsnr" v="395378" />
	</node>
	<node lat="58.7025416668881" lon="8.811130551198522" id="-35313">
		<tag k="name" v="Kruses-plass" />
		<tag k="place" v="locality" />
		<tag k="ssr:stedsnr" v="577007" />
	</node>
	<node lat="58.68416388974065" lon="8.804533329944935" id="-35352">
		<tag k="amenity" v="community_centre" />
		<tag k="name" v="Vegarheim" />
		<tag k="ssr:stedsnr" v="577643" />
	</node>
	<node lat="58.6935916661774" lon="8.815636104870343" id="-35379">
		<tag k="name" v="Tiurleiken" />
		<tag k="place" v="locality" />
		<tag k="ssr:stedsnr" v="699047" />
	</node>
	<node lat="58.74051944620667" lon="8.809058325713139" id="-35402">
		<tag k="name" v="Bjørkestespranget" />
		<tag k="place" v="locality" />
		<tag k="ssr:stedsnr" v="699131" />
	</node>
	<node lat="58.72128611163199" lon="8.819488889184974" id="-35414">
		<tag k="name" v="Gamlemyrstølen" />
		<tag k="place" v="locality" />
		<tag k="ssr:stedsnr" v="699160" />
	</node>
	<node lat="58.69263212617198" lon="8.789759451061318" id="-35798">
		<tag k="name" v="Finnsrud" />
		<tag k="place" v="locality" />
		<tag k="ssr:stedsnr" v="790897" />
	</node>
	<node lat="58.69456944310482" lon="8.822038895386362" id="-35914">
		<tag k="name" v="Varsle" />
		<tag k="place" v="locality" />
		<tag k="ssr:stedsnr" v="881049" />
	</node>
	<node lat="58.690130559098705" lon="8.893597230393437" id="-35927">
		<tag k="name" v="Elvstølen" />
		<tag k="place" v="locality" />
		<tag k="ssr:stedsnr" v="881456" />
	</node>
	<node lat="58.744997218680155" lon="8.88606944312078" id="-35933">
		<tag k="name" v="Varselet" />
		<tag k="place" v="locality" />
		<tag k="ssr:stedsnr" v="881472" />
	</node>
	<node lat="58.65894453753698" lon="8.788887507281718" id="-35998">
		<tag k="name" v="Lia" />
		<tag k="place" v="locality" />
		<tag k="ssr:stedsnr" v="1949" />
	</node>
	<node lat="58.82569054373612" lon="8.721056382085088" id="-36075">
		<tag k="name" v="Kragslåttbua" />
		<tag k="place" v="locality" />
		<tag k="ssr:stedsnr" v="31780" />
	</node>
	<node lat="58.71339444075714" lon="8.969566669336514" id="-36188">
		<tag k="name" v="Hagen" />
		<tag k="place" v="locality" />
		<tag k="ssr:stedsnr" v="92248" />
	</node>
	<node lat="58.68636666959765" lon="8.798788886901312" id="-36248">
		<tag k="name" v="Kjerringsprang" />
		<tag k="place" v="locality" />
		<tag k="ssr:stedsnr" v="92651" />
	</node>
	<node lat="58.73749166982027" lon="8.879580562002367" id="-36281">
		<tag k="name" v="Råsmyra" />
		<tag k="place" v="locality" />
		<tag k="ssr:stedsnr" v="122534" />
	</node>
	<node lat="58.80505555695855" lon="8.74838333316248" id="-36301">
		<tag k="name" v="Skottgarden" />
		<tag k="place" v="locality" />
		<tag k="ssr:stedsnr" v="152174" />
	</node>
	<node lat="58.74008888745839" lon="8.856822223770068" id="-36306">
		<tag k="name" v="Kvienga" />
		<tag k="place" v="locality" />
		<tag k="ssr:stedsnr" v="152275" />
	</node>
	<node lat="58.83472777896873" lon="8.85898611599362" id="-36329">
		<tag k="name" v="Tjæreovnen" />
		<tag k="place" v="locality" />
		<tag k="ssr:stedsnr" v="152472" />
	</node>
	<node lat="58.83166944693353" lon="8.843155557026439" id="-36332">
		<tag k="name" v="Vestre Bronen" />
		<tag k="place" v="locality" />
		<tag k="ssr:stedsnr" v="152491" />
	</node>
	<node lat="58.68460000245343" lon="8.83082500428015" id="-36338">
		<tag k="name" v="Bronbånnen" />
		<tag k="place" v="locality" />
		<tag k="ssr:stedsnr" v="153036" />
	</node>
	<node lat="58.6940361116671" lon="8.944119443554769" id="-36479">
		<tag k="name" v="Tereleiken" />
		<tag k="place" v="locality" />
		<tag k="ssr:stedsnr" v="214246" />
	</node>
	<node lat="58.77204444131387" lon="8.946372227265353" id="-36599">
		<tag k="name" v="Haraldsbonn" />
		<tag k="place" v="locality" />
		<tag k="ssr:stedsnr" v="274680" />
	</node>
	<node lat="58.75970833479562" lon="8.819383331736388" id="-36722">
		<tag k="name" v="Råbutangen" />
		<tag k="place" v="locality" />
		<tag k="ssr:stedsnr" v="335185" />
	</node>
	<node lat="58.753322225636" lon="8.863069439027521" id="-36866">
		<tag k="amenity" v="community_centre" />
		<tag k="name" v="Fjellheim" />
		<tag k="ssr:stedsnr" v="395257" />
	</node>
	<node lat="58.686969441120276" lon="8.803286115076611" id="-36903">
		<tag k="name" v="Skåpet" />
		<tag k="place" v="locality" />
		<tag k="ssr:stedsnr" v="395672" />
	</node>
	<node lat="58.683933331057496" lon="8.733511116174167" id="-36904">
		<tag k="name" v="Flækåsstøa" />
		<tag k="place" v="locality" />
		<tag k="ssr:stedsnr" v="395673" />
	</node>
	<node lat="58.75829231134696" lon="8.858772602136325" id="-36938">
		<tag k="alt_name" v="Vegårshei kjørke" />
		<tag k="amenity" v="place_of_worship" />
		<tag k="denomination" v="lutheran" />
		<tag k="name" v="Vegårshei kirke" />
		<tag k="religion" v="christian" />
		<tag k="ssr:stedsnr" v="426369" />
	</node>
	<node lat="58.80309166999849" lon="8.892536113512211" id="-36960">
		<tag k="name" v="Skjellarplassen" />
		<tag k="place" v="locality" />
		<tag k="ssr:stedsnr" v="517089" />
	</node>
	<node lat="58.802977775644486" lon="8.944724997817813" id="-37022">
		<tag k="name" v="Trullane" />
		<tag k="place" v="locality" />
		<tag k="ssr:stedsnr" v="517597" />
	</node>
	<node lat="58.74701666720984" lon="8.809547223936235" id="-37395">
		<tag k="name" v="Stableberga" />
		<tag k="place" v="locality" />
		<tag k="ssr:stedsnr" v="759186" />
	</node>
</osm>
