<?xml version="1.0" encoding="UTF-8"?>
<osm version="0.6" generator="osmapis">
	<node lat="58.76687778175885" lon="8.766597217893043" id="-34314">
		<tag k="name" v="Spetkjerra" />
		<tag k="natural" v="wetland" />
		<tag k="ssr:stedsnr" v="31001" />
	</node>
	<node lat="58.77359999974703" lon="8.758608335187699" id="-34317">
		<tag k="name" v="Åslandsmyra" />
		<tag k="natural" v="wetland" />
		<tag k="ssr:stedsnr" v="31008" />
	</node>
	<node lat="58.727002778068886" lon="8.894183326858537" id="-34322">
		<tag k="name" v="Raudmyr" />
		<tag k="natural" v="wetland" />
		<tag k="ssr:stedsnr" v="31104" />
	</node>
	<node lat="58.713238893263785" lon="8.850569441223744" id="-34323">
		<tag k="name" v="Hempemyr" />
		<tag k="natural" v="wetland" />
		<tag k="ssr:stedsnr" v="31111" />
	</node>
	<node lat="58.767222218270085" lon="8.64683333587915" id="-34324">
		<tag k="name" v="Strandslåtta" />
		<tag k="natural" v="wetland" />
		<tag k="ssr:stedsnr" v="31114" />
	</node>
	<node lat="58.7121694486658" lon="8.873616668356902" id="-34326">
		<tag k="name" v="Beinkjerr" />
		<tag k="natural" v="wetland" />
		<tag k="ssr:stedsnr" v="31118" />
	</node>
	<node lat="58.72333610725409" lon="8.734494436955648" id="-34329">
		<tag k="name" v="Lyngmyr" />
		<tag k="natural" v="wetland" />
		<tag k="ssr:stedsnr" v="31167" />
	</node>
	<node lat="58.73028889315619" lon="8.756677776064475" id="-34332">
		<tag k="name" v="Jabrumyra" />
		<tag k="natural" v="wetland" />
		<tag k="ssr:stedsnr" v="31171" />
	</node>
	<node lat="58.73336110827222" lon="8.72441110555372" id="-34333">
		<tag k="name" v="Strandslåtta" />
		<tag k="natural" v="wetland" />
		<tag k="ssr:stedsnr" v="31174" />
	</node>
	<node lat="58.751086113445616" lon="8.810316659544148" id="-34337">
		<tag k="name" v="Dei små steene" />
		<tag k="natural" v="wetland" />
		<tag k="ssr:stedsnr" v="31184" />
	</node>
	<node lat="58.73220555625144" lon="8.811211108737119" id="-34338">
		<tag k="name" v="Nedre Eldsmyr" />
		<tag k="natural" v="wetland" />
		<tag k="ssr:stedsnr" v="31185" />
	</node>
	<node lat="58.75741111480065" lon="8.836811104085584" id="-34339">
		<tag k="name" v="Nordskau" />
		<tag k="place" v="locality" />
		<tag k="ssr:stedsnr" v="31303" />
	</node>
	<node lat="58.77361944453551" lon="8.844686112808072" id="-34342">
		<tag k="name" v="Pankafeta" />
		<tag k="natural" v="wetland" />
		<tag k="ssr:stedsnr" v="31313" />
	</node>
	<node lat="58.72937221874519" lon="8.80846110752393" id="-34346">
		<tag k="name" v="Øvre Eldsmyr" />
		<tag k="natural" v="wetland" />
		<tag k="ssr:stedsnr" v="31212" />
	</node>
	<node lat="58.75539166812937" lon="8.747711114015152" id="-34347">
		<tag k="name" v="Bjørnbåkmyra" />
		<tag k="natural" v="wetland" />
		<tag k="ssr:stedsnr" v="31218" />
	</node>
	<node lat="58.69246666588128" lon="8.877486105635361" id="-34355">
		<tag k="name" v="Badstusteinen" />
		<tag k="natural" v="stone" />
		<tag k="ssr:stedsnr" v="31404" />
	</node>
	<node lat="58.69104166398535" lon="8.852930563655312" id="-34358">
		<tag k="name" v="Solbumyr" />
		<tag k="natural" v="wetland" />
		<tag k="ssr:stedsnr" v="31421" />
	</node>
	<node lat="58.81209999784215" lon="8.979030557779476" id="-34365">
		<tag k="name" v="Likjerr" />
		<tag k="natural" v="wetland" />
		<tag k="ssr:stedsnr" v="31584" />
	</node>
	<node lat="58.834527781595455" lon="8.773186116669622" id="-34373">
		<tag k="name" v="Nedre Bjordamstea" />
		<tag k="natural" v="wetland" />
		<tag k="ssr:stedsnr" v="31801" />
	</node>
	<node lat="58.79947222576508" lon="8.760994440114402" id="-34375">
		<tag k="name" v="Sandene" />
		<tag k="natural" v="beach" />
		<tag k="ssr:stedsnr" v="31812" />
		<tag k="surface" v="sand" />
	</node>
	<node lat="58.80843888841434" lon="8.679800001703626" id="-34378">
		<tag k="name" v="Blautmyrkilane" />
		<tag k="natural" v="wetland" />
		<tag k="ssr:stedsnr" v="31903" />
	</node>
	<node lat="58.80028888941356" lon="8.71642500564606" id="-34379">
		<tag k="name" v="Storste" />
		<tag k="natural" v="wetland" />
		<tag k="ssr:stedsnr" v="31914" />
	</node>
	<node lat="58.79656944163251" lon="8.693038888308234" id="-34380">
		<tag k="name" v="Svartufsmyra" />
		<tag k="natural" v="wetland" />
		<tag k="ssr:stedsnr" v="31922" />
	</node>
	<node lat="58.73808333340867" lon="8.886269442757031" id="-34382">
		<tag k="name" v="Alvsbuholta" />
		<tag k="place" v="locality" />
		<tag k="ssr:stedsnr" v="32301" />
	</node>
	<node lat="58.69685555268982" lon="8.926225002408858" id="-34384">
		<tag k="name" v="Eikeskauen" />
		<tag k="place" v="locality" />
		<tag k="ssr:stedsnr" v="32433" />
	</node>
	<node lat="58.797733334131784" lon="8.703566673433963" id="-34402">
		<tag k="name" v="Jørnsmyr" />
		<tag k="natural" v="wetland" />
		<tag k="ssr:stedsnr" v="62625" />
	</node>
	<node lat="58.761716671032055" lon="8.754983327268134" id="-34432">
		<tag k="name" v="Rossdalsmyra" />
		<tag k="natural" v="wetland" />
		<tag k="ssr:stedsnr" v="92008" />
	</node>
	<node lat="58.81450277715652" lon="8.908813892563371" id="-34435">
		<tag k="name" v="Grasmyr" />
		<tag k="natural" v="wetland" />
		<tag k="ssr:stedsnr" v="92108" />
	</node>
	<node lat="58.81056666640169" lon="8.885894449037387" id="-34436">
		<tag k="name" v="Nordbø" />
		<tag k="natural" v="wetland" />
		<tag k="ssr:stedsnr" v="92112" />
	</node>
	<node lat="58.65821110784802" lon="8.803088891544643" id="-34442">
		<tag k="name" v="Moltehola" />
		<tag k="natural" v="wetland" />
		<tag k="ssr:stedsnr" v="92126" />
	</node>
	<node lat="58.73386388794465" lon="8.728888885936666" id="-34446">
		<tag k="name" v="Bjellekjerr" />
		<tag k="natural" v="wetland" />
		<tag k="ssr:stedsnr" v="92166" />
	</node>
	<node lat="58.64900833008626" lon="8.814969437189987" id="-34447">
		<tag k="name" v="Store Gunnarskjerr" />
		<tag k="natural" v="wetland" />
		<tag k="ssr:stedsnr" v="92171" />
	</node>
	<node lat="58.73882499792244" lon="8.908502771490827" id="-34451">
		<tag k="name" v="Fjellvikmyrene" />
		<tag k="natural" v="wetland" />
		<tag k="ssr:stedsnr" v="92305" />
	</node>
	<node lat="58.76967500432756" lon="8.849880559477615" id="-34455">
		<tag k="name" v="Nedstaumyra" />
		<tag k="place" v="locality" />
		<tag k="ssr:stedsnr" v="92320" />
	</node>
	<node lat="58.78388610671143" lon="8.868019436507574" id="-34458">
		<tag k="name" v="Bjørnekjerr" />
		<tag k="natural" v="wetland" />
		<tag k="ssr:stedsnr" v="92065" />
	</node>
	<node lat="58.77294722562085" lon="8.779005560290074" id="-34464">
		<tag k="name" v="Gjersmyra" />
		<tag k="natural" v="wetland" />
		<tag k="ssr:stedsnr" v="92212" />
	</node>
	<node lat="58.75545555392614" lon="8.741836117158016" id="-34465">
		<tag k="name" v="Tunge" />
		<tag k="natural" v="wetland" />
		<tag k="ssr:stedsnr" v="92218" />
	</node>
	<node lat="58.699036111468075" lon="8.727355556801806" id="-34469">
		<tag k="name" v="Ospelundskjerra" />
		<tag k="natural" v="wetland" />
		<tag k="ssr:stedsnr" v="92225" />
	</node>
	<node lat="58.747755551121706" lon="8.923727781993227" id="-34471">
		<tag k="name" v="Hesthagmyra" />
		<tag k="natural" v="wetland" />
		<tag k="ssr:stedsnr" v="92268" />
	</node>
	<node lat="58.77384444671499" lon="8.907097223936113" id="-34472">
		<tag k="name" v="Stormyr" />
		<tag k="natural" v="wetland" />
		<tag k="ssr:stedsnr" v="92275" />
	</node>
	<node lat="58.804022225643784" lon="8.974327775422314" id="-34474">
		<tag k="name" v="Vestre Skorstølmyr" />
		<tag k="natural" v="wetland" />
		<tag k="ssr:stedsnr" v="92287" />
	</node>
	<node lat="58.820966663383956" lon="8.920638883442644" id="-34475">
		<tag k="name" v="Sagmyra" />
		<tag k="natural" v="wetland" />
		<tag k="ssr:stedsnr" v="92403" />
	</node>
	<node lat="58.822752776660685" lon="8.88425278044628" id="-34477">
		<tag k="name" v="Mårsdamkjerret" />
		<tag k="natural" v="wetland" />
		<tag k="ssr:stedsnr" v="92415" />
	</node>
	<node lat="58.695099997815504" lon="8.867580562620532" id="-34478">
		<tag k="name" v="Kilen" />
		<tag k="natural" v="wetland" />
		<tag k="ssr:stedsnr" v="92417" />
	</node>
	<node lat="58.737408332178646" lon="8.899897218807084" id="-34479">
		<tag k="name" v="Damslåtta" />
		<tag k="natural" v="wetland" />
		<tag k="ssr:stedsnr" v="92467" />
	</node>
	<node lat="58.692183331775944" lon="8.915652778790527" id="-34481">
		<tag k="name" v="Lyngmyr" />
		<tag k="natural" v="wetland" />
		<tag k="ssr:stedsnr" v="92480" />
	</node>
	<node lat="58.7976277781687" lon="8.940452780017328" id="-34485">
		<tag k="name" v="Korsmyr" />
		<tag k="natural" v="wetland" />
		<tag k="ssr:stedsnr" v="92613" />
	</node>
	<node lat="58.78350000186423" lon="8.999486115031383" id="-34491">
		<tag k="name" v="Henriksur" />
		<tag k="natural" v="scree" />
		<tag k="ssr:stedsnr" v="92515" />
	</node>
	<node lat="58.777177780661475" lon="8.99074722030802" id="-34492">
		<tag k="name" v="Olasmyr" />
		<tag k="natural" v="wetland" />
		<tag k="ssr:stedsnr" v="92521" />
	</node>
	<node lat="58.773752777979574" lon="8.970030562795944" id="-34494">
		<tag k="name" v="Linmyr" />
		<tag k="natural" v="wetland" />
		<tag k="ssr:stedsnr" v="92708" />
	</node>
	<node lat="58.714127781376014" lon="8.645933332167541" id="-34496">
		<tag k="name" v="Kringlemyr" />
		<tag k="natural" v="wetland" />
		<tag k="ssr:stedsnr" v="92715" />
	</node>
	<node lat="58.817294440693935" lon="8.807322219096575" id="-34499">
		<tag k="name" v="Lyngvassurene" />
		<tag k="natural" v="scree" />
		<tag k="ssr:stedsnr" v="92805" />
	</node>
	<node lat="58.79966110867003" lon="8.802316662387778" id="-34501">
		<tag k="name" v="Raudnesmyrene" />
		<tag k="natural" v="wetland" />
		<tag k="ssr:stedsnr" v="92821" />
	</node>
	<node lat="58.80657778196613" lon="8.715194438690725" id="-34502">
		<tag k="name" v="Lonsteene" />
		<tag k="natural" v="wetland" />
		<tag k="ssr:stedsnr" v="92869" />
	</node>
	<node lat="58.81285000029587" lon="8.706372215809662" id="-34503">
		<tag k="name" v="Svarttjennkilen" />
		<tag k="natural" v="wetland" />
		<tag k="ssr:stedsnr" v="92871" />
	</node>
	<node lat="58.84821110936652" lon="8.812602771732568" id="-34506">
		<tag k="name" v="Diplemyra" />
		<tag k="natural" v="wetland" />
		<tag k="ssr:stedsnr" v="92779" />
	</node>
	<node lat="58.77988055449511" lon="8.670030553402517" id="-34507">
		<tag k="name" v="Skremyr" />
		<tag k="natural" v="wetland" />
		<tag k="ssr:stedsnr" v="92912" />
	</node>
	<node lat="58.786786110562616" lon="8.663650004386232" id="-34508">
		<tag k="name" v="Pungslåtta" />
		<tag k="natural" v="wetland" />
		<tag k="ssr:stedsnr" v="92915" />
	</node>
	<node lat="58.76583888914469" lon="8.654797230130317" id="-34509">
		<tag k="name" v="Nordslåtta" />
		<tag k="natural" v="wetland" />
		<tag k="ssr:stedsnr" v="92923" />
	</node>
	<node lat="58.74418611189728" lon="8.650908336648689" id="-34512">
		<tag k="name" v="Kverndalsmyra" />
		<tag k="natural" v="wetland" />
		<tag k="ssr:stedsnr" v="92980" />
	</node>
	<node lat="58.749566664814765" lon="8.659105557370772" id="-34514">
		<tag k="name" v="Langkjerr" />
		<tag k="natural" v="wetland" />
		<tag k="ssr:stedsnr" v="92984" />
	</node>
	<node lat="58.76383888923957" lon="8.857472223619869" id="-34539">
		<tag k="name" v="Røyvoll" />
		<tag k="place" v="locality" />
		<tag k="ssr:stedsnr" v="152353" />
	</node>
	<node lat="58.70354999733548" lon="8.819813884620658" id="-34541">
		<tag k="name" v="Mannmannsmyra" />
		<tag k="natural" v="wetland" />
		<tag k="ssr:stedsnr" v="153007" />
	</node>
	<node lat="58.759061109947254" lon="8.759444452434138" id="-34542">
		<tag k="name" v="Godmorslått" />
		<tag k="natural" v="wetland" />
		<tag k="ssr:stedsnr" v="153008" />
	</node>
	<node lat="58.77334721961263" lon="8.76260556231602" id="-34544">
		<tag k="name" v="Åslandsstykket" />
		<tag k="place" v="locality" />
		<tag k="ssr:stedsnr" v="153014" />
	</node>
	<node lat="58.777891667497926" lon="8.875299992144832" id="-34549">
		<tag k="name" v="Jenseskjerr" />
		<tag k="natural" v="wetland" />
		<tag k="ssr:stedsnr" v="153050" />
	</node>
	<node lat="58.7224611079855" lon="8.863111119616722" id="-34555">
		<tag k="name" v="Kokåsmyra" />
		<tag k="natural" v="wetland" />
		<tag k="ssr:stedsnr" v="153062" />
	</node>
	<node lat="58.78224999878884" lon="8.832483336083603" id="-34556">
		<tag k="name" v="Ura" />
		<tag k="natural" v="stone" />
		<tag k="ssr:stedsnr" v="153064" />
	</node>
	<node lat="58.72951388487327" lon="8.8768138926541" id="-34559">
		<tag k="name" v="Langemyrhogsten" />
		<tag k="place" v="locality" />
		<tag k="ssr:stedsnr" v="153074" />
	</node>
	<node lat="58.80703888476834" lon="8.90473889334949" id="-34560">
		<tag k="name" v="Heitjennmyra" />
		<tag k="natural" v="wetland" />
		<tag k="ssr:stedsnr" v="153100" />
	</node>
	<node lat="58.704208332981004" lon="8.762949991622833" id="-34564">
		<tag k="name" v="Albogsteinen" />
		<tag k="natural" v="stone" />
		<tag k="ssr:stedsnr" v="153210" />
	</node>
	<node lat="58.723027774038854" lon="8.914424999013292" id="-34567">
		<tag k="name" v="Svivarkjerr" />
		<tag k="natural" v="wetland" />
		<tag k="ssr:stedsnr" v="153102" />
	</node>
	<node lat="58.72989721858313" lon="8.927530556969671" id="-34570">
		<tag k="name" v="Langmyr" />
		<tag k="natural" v="wetland" />
		<tag k="ssr:stedsnr" v="153107" />
	</node>
	<node lat="58.805691664442634" lon="8.918255549864647" id="-34571">
		<tag k="name" v="Kjempekjerr" />
		<tag k="natural" v="wetland" />
		<tag k="ssr:stedsnr" v="153108" />
	</node>
	<node lat="58.807691663516614" lon="8.917313891380335" id="-34572">
		<tag k="name" v="Grønlimyra" />
		<tag k="natural" v="wetland" />
		<tag k="ssr:stedsnr" v="153109" />
	</node>
	<node lat="58.72865555982605" lon="8.93200555029427" id="-34573">
		<tag k="name" v="Rundmyra" />
		<tag k="place" v="locality" />
		<tag k="ssr:stedsnr" v="153110" />
	</node>
	<node lat="58.80461389329956" lon="8.921000003289867" id="-34574">
		<tag k="name" v="Lindstølmyra" />
		<tag k="natural" v="wetland" />
		<tag k="ssr:stedsnr" v="153111" />
	</node>
	<node lat="58.81315278068098" lon="8.928491663936429" id="-34575">
		<tag k="name" v="Halvfarkjerr" />
		<tag k="natural" v="wetland" />
		<tag k="ssr:stedsnr" v="153113" />
	</node>
	<node lat="58.720172226134544" lon="8.857486108744547" id="-34577">
		<tag k="name" v="Hauglandsmyrene" />
		<tag k="natural" v="wetland" />
		<tag k="ssr:stedsnr" v="153119" />
	</node>
	<node lat="58.719366670169876" lon="8.723941671191529" id="-34581">
		<tag k="name" v="Aslaksmyr" />
		<tag k="natural" v="wetland" />
		<tag k="ssr:stedsnr" v="153157" />
	</node>
	<node lat="58.747244447599144" lon="8.78144999998034" id="-34582">
		<tag k="name" v="Øvre Ullsmyrene" />
		<tag k="natural" v="wetland" />
		<tag k="ssr:stedsnr" v="153167" />
	</node>
	<node lat="58.744119446245726" lon="8.821449993703581" id="-34584">
		<tag k="name" v="Fjellsmyr" />
		<tag k="natural" v="wetland" />
		<tag k="ssr:stedsnr" v="153169" />
	</node>
	<node lat="58.7424055586807" lon="8.74366944874976" id="-34585">
		<tag k="name" v="Stembrumyra" />
		<tag k="natural" v="wetland" />
		<tag k="ssr:stedsnr" v="153171" />
	</node>
	<node lat="58.72334722313063" lon="8.825577780002028" id="-34587">
		<tag k="name" v="Åsmyr" />
		<tag k="natural" v="wetland" />
		<tag k="ssr:stedsnr" v="153174" />
	</node>
	<node lat="58.753616669784776" lon="8.72984444462859" id="-34588">
		<tag k="name" v="Kallarbergmyra" />
		<tag k="natural" v="wetland" />
		<tag k="ssr:stedsnr" v="153200" />
	</node>
	<node lat="58.75330833765659" lon="8.964574996158548" id="-34596">
		<tag k="name" v="Eksjøkjerr" />
		<tag k="natural" v="wetland" />
		<tag k="ssr:stedsnr" v="153507" />
	</node>
	<node lat="58.70545277740117" lon="8.885286112736916" id="-34600">
		<tag k="name" v="Nordmyra" />
		<tag k="place" v="locality" />
		<tag k="ssr:stedsnr" v="153458" />
	</node>
	<node lat="58.82249444188741" lon="8.8402055623699" id="-34601">
		<tag k="name" v="Krokslåtta" />
		<tag k="natural" v="wetland" />
		<tag k="ssr:stedsnr" v="153466" />
	</node>
	<node lat="58.71869444324268" lon="8.972741659613886" id="-34603">
		<tag k="name" v="Langkjerr" />
		<tag k="natural" v="wetland" />
		<tag k="ssr:stedsnr" v="153500" />
	</node>
	<node lat="58.72167222397575" lon="8.95731944284304" id="-34604">
		<tag k="name" v="Kittelsslåtta" />
		<tag k="natural" v="wetland" />
		<tag k="ssr:stedsnr" v="153501" />
	</node>
	<node lat="58.72355555921638" lon="8.715277782276493" id="-34608">
		<tag k="name" v="Stormyr" />
		<tag k="natural" v="wetland" />
		<tag k="ssr:stedsnr" v="153704" />
	</node>
	<node lat="58.787736112043525" lon="8.820411114494394" id="-34610">
		<tag k="name" v="Kvernkjerr" />
		<tag k="natural" v="wetland" />
		<tag k="ssr:stedsnr" v="153771" />
	</node>
	<node lat="58.80333888719932" lon="8.676383332223402" id="-34614">
		<tag k="name" v="Foten" />
		<tag k="natural" v="wetland" />
		<tag k="ssr:stedsnr" v="153923" />
	</node>
	<node lat="58.760844448002096" lon="8.64317222250498" id="-34615">
		<tag k="name" v="Steinsmyr" />
		<tag k="natural" v="wetland" />
		<tag k="ssr:stedsnr" v="153958" />
	</node>
	<node lat="58.68784166716843" lon="8.781974994520533" id="-34616">
		<tag k="name" v="Øvre Selåskjerr" />
		<tag k="natural" v="wetland" />
		<tag k="ssr:stedsnr" v="153649" />
	</node>
	<node lat="58.802430551372545" lon="8.908708339789708" id="-34622">
		<tag k="name" v="Diplemyr" />
		<tag k="natural" v="wetland" />
		<tag k="ssr:stedsnr" v="182003" />
	</node>
	<node lat="58.75813611124479" lon="8.966866665783085" id="-34630">
		<tag k="name" v="Store Lyngmyr" />
		<tag k="natural" v="wetland" />
		<tag k="ssr:stedsnr" v="183357" />
	</node>
	<node lat="58.80540555403183" lon="8.992155550417383" id="-34638">
		<tag k="name" v="Kortmyr" />
		<tag k="natural" v="wetland" />
		<tag k="ssr:stedsnr" v="267552" />
	</node>
	<node lat="58.699447225470706" lon="8.811855555683675" id="-34640">
		<tag k="name" v="Kloppmyra" />
		<tag k="natural" v="wetland" />
		<tag k="ssr:stedsnr" v="214002" />
	</node>
	<node lat="58.76145000164426" lon="8.765177781765411" id="-34642">
		<tag k="name" v="Breibekkmyra" />
		<tag k="natural" v="wetland" />
		<tag k="ssr:stedsnr" v="214007" />
	</node>
	<node lat="58.70345555540741" lon="8.81447500016265" id="-34643">
		<tag k="name" v="Bronshol" />
		<tag k="natural" v="wetland" />
		<tag k="ssr:stedsnr" v="214008" />
	</node>
	<node lat="58.70391389225896" lon="8.790294436978876" id="-34645">
		<tag k="name" v="Heimrekjerr" />
		<tag k="natural" v="wetland" />
		<tag k="ssr:stedsnr" v="214012" />
	</node>
	<node lat="58.770116664766455" lon="8.749891664459819" id="-34646">
		<tag k="name" v="Skarkkjerr" />
		<tag k="natural" v="wetland" />
		<tag k="ssr:stedsnr" v="214014" />
	</node>
	<node lat="58.67263055928744" lon="8.835519446363897" id="-34647">
		<tag k="name" v="Øygardsmyra" />
		<tag k="natural" v="wetland" />
		<tag k="ssr:stedsnr" v="214028" />
	</node>
	<node lat="58.790113889072636" lon="8.9183305601676" id="-34649">
		<tag k="name" v="Ålmyra" />
		<tag k="natural" v="wetland" />
		<tag k="ssr:stedsnr" v="214035" />
	</node>
	<node lat="58.801733335777726" lon="8.8931472300316" id="-34650">
		<tag k="name" v="Slekjerr" />
		<tag k="natural" v="wetland" />
		<tag k="ssr:stedsnr" v="214075" />
	</node>
	<node lat="58.80604444690029" lon="8.929730555675814" id="-34655">
		<tag k="name" v="Krakmyra" />
		<tag k="natural" v="wetland" />
		<tag k="ssr:stedsnr" v="214091" />
	</node>
	<node lat="58.76633611384923" lon="8.722308331372771" id="-34657">
		<tag k="name" v="Sortmyr" />
		<tag k="natural" v="wetland" />
		<tag k="ssr:stedsnr" v="214202" />
	</node>
	<node lat="58.717386110912805" lon="8.877919448659382" id="-34665">
		<tag k="name" v="Kartkjerr" />
		<tag k="natural" v="wetland" />
		<tag k="ssr:stedsnr" v="214103" />
	</node>
	<node lat="58.662122218059714" lon="8.796647215841563" id="-34666">
		<tag k="name" v="Storkilkjerret" />
		<tag k="natural" v="wetland" />
		<tag k="ssr:stedsnr" v="214107" />
	</node>
	<node lat="58.799744447055105" lon="8.738966670253193" id="-34667">
		<tag k="name" v="Langkjerr" />
		<tag k="natural" v="wetland" />
		<tag k="ssr:stedsnr" v="214109" />
	</node>
	<node lat="58.80701111354983" lon="8.83762500312471" id="-34680">
		<tag k="name" v="Faulkjerra" />
		<tag k="natural" v="wetland" />
		<tag k="ssr:stedsnr" v="214379" />
	</node>
	<node lat="58.705188891712034" lon="8.842830563055534" id="-34687">
		<tag k="name" v="Torvkjerr" />
		<tag k="natural" v="wetland" />
		<tag k="ssr:stedsnr" v="214392" />
	</node>
	<node lat="58.70313888986931" lon="8.878891672148733" id="-34688">
		<tag k="name" v="Bormyr" />
		<tag k="natural" v="wetland" />
		<tag k="ssr:stedsnr" v="214394" />
	</node>
	<node lat="58.710166668600245" lon="8.868233336320403" id="-34690">
		<tag k="name" v="Småmyrene" />
		<tag k="natural" v="wetland" />
		<tag k="ssr:stedsnr" v="214398" />
	</node>
	<node lat="58.7689305521112" lon="8.999644447589796" id="-34692">
		<tag k="alt_name" v="Kallvannsmyra;Kallsvannsmyra" />
		<tag k="name" v="Kallsvannmyra" />
		<tag k="natural" v="wetland" />
		<tag k="ssr:stedsnr" v="214515" />
	</node>
	<node lat="58.76060555577546" lon="8.963055555973447" id="-34693">
		<tag k="name" v="Stokksmyr" />
		<tag k="natural" v="wetland" />
		<tag k="ssr:stedsnr" v="214530" />
	</node>
	<node lat="58.75222500237194" lon="8.846205550091657" id="-34695">
		<tag k="name" v="Dalholene" />
		<tag k="natural" v="wetland" />
		<tag k="ssr:stedsnr" v="214275" />
	</node>
	<node lat="58.74889444122967" lon="8.87040832722668" id="-34697">
		<tag k="name" v="Myrvamoen" />
		<tag k="natural" v="beach" />
		<tag k="ssr:stedsnr" v="214278" />
		<tag k="surface" v="sand" />
	</node>
	<node lat="58.71160277572174" lon="8.935075008164379" id="-34699">
		<tag k="name" v="Bekkslåtta" />
		<tag k="natural" v="wetland" />
		<tag k="ssr:stedsnr" v="214282" />
	</node>
	<node lat="58.70445833758589" lon="8.920205563615559" id="-34702">
		<tag k="name" v="Sporen" />
		<tag k="natural" v="wetland" />
		<tag k="ssr:stedsnr" v="214431" />
	</node>
	<node lat="58.73182777385342" lon="8.975333326818463" id="-34707">
		<tag k="name" v="Nordkil" />
		<tag k="natural" v="wetland" />
		<tag k="ssr:stedsnr" v="214486" />
	</node>
	<node lat="58.67561666778269" lon="8.775583338635835" id="-34710">
		<tag k="name" v="Djupkjerr" />
		<tag k="natural" v="wetland" />
		<tag k="ssr:stedsnr" v="214702" />
	</node>
	<node lat="58.683022219016195" lon="8.785461112006484" id="-34711">
		<tag k="name" v="Venesteinen" />
		<tag k="natural" v="stone" />
		<tag k="ssr:stedsnr" v="214706" />
	</node>
	<node lat="58.71697777596972" lon="8.68800277201213" id="-34713">
		<tag k="name" v="Sporkjerr" />
		<tag k="natural" v="wetland" />
		<tag k="ssr:stedsnr" v="214728" />
	</node>
	<node lat="58.73655833766531" lon="8.687438891563447" id="-34719">
		<tag k="name" v="Tjusslimyrene" />
		<tag k="natural" v="wetland" />
		<tag k="ssr:stedsnr" v="214905" />
	</node>
	<node lat="58.81440277944167" lon="8.714236107630532" id="-34720">
		<tag k="name" v="Kalvekjerr" />
		<tag k="natural" v="wetland" />
		<tag k="ssr:stedsnr" v="214909" />
	</node>
	<node lat="58.81464166772458" lon="8.706136108925369" id="-34721">
		<tag k="name" v="Bjordamsholta" />
		<tag k="place" v="locality" />
		<tag k="ssr:stedsnr" v="214915" />
	</node>
	<node lat="58.80221944359939" lon="8.691205554407274" id="-34722">
		<tag k="name" v="Heiblekkmyra" />
		<tag k="natural" v="wetland" />
		<tag k="ssr:stedsnr" v="214925" />
	</node>
	<node lat="58.66343055154813" lon="8.758636111793582" id="-34727">
		<tag k="name" v="Fjellkjerrene" />
		<tag k="natural" v="wetland" />
		<tag k="ssr:stedsnr" v="214693" />
	</node>
	<node lat="58.82345832915702" lon="8.775852778458995" id="-34730">
		<tag k="name" v="Kortmyr" />
		<tag k="natural" v="wetland" />
		<tag k="ssr:stedsnr" v="214829" />
	</node>
	<node lat="58.77852222478181" lon="8.724886110120021" id="-34732">
		<tag k="name" v="Korvenesmyra" />
		<tag k="natural" v="wetland" />
		<tag k="ssr:stedsnr" v="214876" />
	</node>
	<node lat="58.78176389253417" lon="8.7238277855749" id="-34733">
		<tag k="name" v="Kjøreneskjerret" />
		<tag k="natural" v="wetland" />
		<tag k="ssr:stedsnr" v="214877" />
	</node>
	<node lat="58.833005555782904" lon="8.772263895475053" id="-34740">
		<tag k="name" v="Tvibumyr" />
		<tag k="natural" v="wetland" />
		<tag k="ssr:stedsnr" v="243640" />
	</node>
	<node lat="58.848350003584834" lon="8.856424995480078" id="-34744">
		<tag k="name" v="Ålkarmyra" />
		<tag k="natural" v="wetland" />
		<tag k="ssr:stedsnr" v="244142" />
	</node>
	<node lat="58.841027775460574" lon="8.921394444523983" id="-34745">
		<tag k="alt_name" v="Skipreidmyra" />
		<tag k="name" v="Skipreimyra" />
		<tag k="natural" v="wetland" />
		<tag k="ssr:stedsnr" v="244112" />
	</node>
	<node lat="58.805658330062556" lon="8.832125003079152" id="-34753">
		<tag k="name" v="Svinsmyr" />
		<tag k="natural" v="wetland" />
		<tag k="ssr:stedsnr" v="244611" />
	</node>
	<node lat="58.72936666430923" lon="8.84121389207376" id="-34761">
		<tag k="name" v="Svintoksmyra" />
		<tag k="natural" v="wetland" />
		<tag k="ssr:stedsnr" v="456081" />
	</node>
	<node lat="58.78079999846575" lon="8.926219436258942" id="-34765">
		<tag k="name" v="Bjørnskjerr" />
		<tag k="natural" v="wetland" />
		<tag k="ssr:stedsnr" v="456043" />
	</node>
	<node lat="58.790944442574336" lon="8.916777783127204" id="-34766">
		<tag k="name" v="Skrubbmyr" />
		<tag k="natural" v="wetland" />
		<tag k="ssr:stedsnr" v="456048" />
	</node>
	<node lat="58.678077779922816" lon="8.833327780111986" id="-34767">
		<tag k="name" v="Trandlebrumyra" />
		<tag k="natural" v="wetland" />
		<tag k="ssr:stedsnr" v="456050" />
	</node>
	<node lat="58.79335000366655" lon="8.919680558527523" id="-34771">
		<tag k="name" v="Mjotsmyra" />
		<tag k="natural" v="wetland" />
		<tag k="ssr:stedsnr" v="456057" />
	</node>
	<node lat="58.80555555519895" lon="8.914452776458916" id="-34773">
		<tag k="name" v="Lekskjerr" />
		<tag k="natural" v="wetland" />
		<tag k="ssr:stedsnr" v="456128" />
	</node>
	<node lat="58.81489166998923" lon="8.905469452717963" id="-34778">
		<tag k="name" v="Rotveitkjerr" />
		<tag k="natural" v="wetland" />
		<tag k="ssr:stedsnr" v="456151" />
	</node>
	<node lat="58.81077499911638" lon="8.901847222054828" id="-34779">
		<tag k="name" v="Pøddetjennmyra" />
		<tag k="natural" v="wetland" />
		<tag k="ssr:stedsnr" v="456152" />
	</node>
	<node lat="58.797880558706474" lon="8.732269452549305" id="-34781">
		<tag k="name" v="Halvveiskjerret" />
		<tag k="natural" v="wetland" />
		<tag k="ssr:stedsnr" v="456157" />
	</node>
	<node lat="58.73681111197973" lon="8.822886109595952" id="-34784">
		<tag k="name" v="Skarkmyr" />
		<tag k="natural" v="wetland" />
		<tag k="ssr:stedsnr" v="456180" />
	</node>
	<node lat="58.738230554404595" lon="8.717233328800129" id="-34787">
		<tag k="name" v="Vestre Tjusslikjerret" />
		<tag k="natural" v="wetland" />
		<tag k="ssr:stedsnr" v="456192" />
	</node>
	<node lat="58.73553333539717" lon="8.754549991642332" id="-34789">
		<tag k="name" v="Refsholene" />
		<tag k="natural" v="wetland" />
		<tag k="ssr:stedsnr" v="456197" />
	</node>
	<node lat="58.699447225182595" lon="8.738850002440229" id="-34794">
		<tag k="name" v="Stormyr" />
		<tag k="natural" v="wetland" />
		<tag k="ssr:stedsnr" v="456236" />
	</node>
	<node lat="58.76170833005959" lon="8.746324995243672" id="-34796">
		<tag k="name" v="Diplemyr" />
		<tag k="natural" v="wetland" />
		<tag k="ssr:stedsnr" v="456241" />
	</node>
	<node lat="58.706536110596986" lon="8.762947224601255" id="-34798">
		<tag k="name" v="Hestbyttkjerrene" />
		<tag k="natural" v="wetland" />
		<tag k="ssr:stedsnr" v="456245" />
	</node>
	<node lat="58.822638888866145" lon="8.926274998522567" id="-34803">
		<tag k="name" v="Kittelsmyr" />
		<tag k="natural" v="wetland" />
		<tag k="ssr:stedsnr" v="456392" />
	</node>
	<node lat="58.83343888729855" lon="8.850669445271347" id="-34810">
		<tag k="name" v="Klingermyr" />
		<tag k="natural" v="wetland" />
		<tag k="ssr:stedsnr" v="456420" />
	</node>
	<node lat="58.81981666265104" lon="8.875222221150258" id="-34813">
		<tag k="name" v="Lyngkjerr" />
		<tag k="natural" v="wetland" />
		<tag k="ssr:stedsnr" v="456430" />
	</node>
	<node lat="58.72654166381555" lon="8.973111108217266" id="-34817">
		<tag k="name" v="Uvannsmyra" />
		<tag k="natural" v="wetland" />
		<tag k="ssr:stedsnr" v="456485" />
	</node>
	<node lat="58.70165832909538" lon="8.90836666833063" id="-34822">
		<tag k="name" v="Steinsmyr" />
		<tag k="natural" v="wetland" />
		<tag k="ssr:stedsnr" v="456442" />
	</node>
	<node lat="58.720399996350444" lon="8.959947223799958" id="-34823">
		<tag k="name" v="Grandalskjerr" />
		<tag k="natural" v="wetland" />
		<tag k="ssr:stedsnr" v="456501" />
	</node>
	<node lat="58.82310555278737" lon="8.961302781622573" id="-34824">
		<tag k="name" v="Byttingskjerra" />
		<tag k="natural" v="wetland" />
		<tag k="ssr:stedsnr" v="456582" />
	</node>
	<node lat="58.779472220986996" lon="8.97365278510052" id="-34825">
		<tag k="name" v="Øygardsmyra" />
		<tag k="natural" v="wetland" />
		<tag k="ssr:stedsnr" v="456522" />
	</node>
	<node lat="58.75965000042923" lon="8.977588883351755" id="-34827">
		<tag k="name" v="Diplemyr" />
		<tag k="natural" v="wetland" />
		<tag k="ssr:stedsnr" v="456538" />
	</node>
	<node lat="58.74769999625726" lon="8.949697223196548" id="-34829">
		<tag k="name" v="Torskjerr" />
		<tag k="natural" v="wetland" />
		<tag k="ssr:stedsnr" v="456547" />
	</node>
	<node lat="58.716141668819716" lon="8.664016669584617" id="-34837">
		<tag k="name" v="Stemmyra" />
		<tag k="natural" v="wetland" />
		<tag k="ssr:stedsnr" v="456730" />
	</node>
	<node lat="58.82501944525532" lon="8.737202781852611" id="-34840">
		<tag k="name" v="Ruskeslåtta" />
		<tag k="natural" v="wetland" />
		<tag k="ssr:stedsnr" v="456780" />
	</node>
	<node lat="58.82110000292216" lon="8.773558329087336" id="-34842">
		<tag k="name" v="Skjerslåtta" />
		<tag k="natural" v="wetland" />
		<tag k="ssr:stedsnr" v="456794" />
	</node>
	<node lat="58.70772777672684" lon="8.678188885827462" id="-34843">
		<tag k="name" v="Øvre Knutsmyr" />
		<tag k="natural" v="wetland" />
		<tag k="ssr:stedsnr" v="456740" />
	</node>
	<node lat="58.82800555785016" lon="8.818466662044749" id="-34845">
		<tag k="name" v="Tobakkskjerret" />
		<tag k="natural" v="wetland" />
		<tag k="ssr:stedsnr" v="456801" />
	</node>
	<node lat="58.836144445592666" lon="8.810702769281539" id="-34846">
		<tag k="name" v="Storrkjerret" />
		<tag k="natural" v="wetland" />
		<tag k="ssr:stedsnr" v="456805" />
	</node>
	<node lat="58.800538885297534" lon="8.81187499731771" id="-34855">
		<tag k="name" v="Lyngmyr" />
		<tag k="natural" v="wetland" />
		<tag k="ssr:stedsnr" v="456838" />
	</node>
	<node lat="58.78324999986989" lon="8.756188897196061" id="-34856">
		<tag k="name" v="Lauveråsmyra" />
		<tag k="natural" v="wetland" />
		<tag k="ssr:stedsnr" v="456845" />
	</node>
	<node lat="58.746388891133755" lon="8.66839722559493" id="-34857">
		<tag k="name" v="Byttingssnippane" />
		<tag k="natural" v="wetland" />
		<tag k="ssr:stedsnr" v="456881" />
	</node>
	<node lat="58.80079999878201" lon="8.675736118604798" id="-34861">
		<tag k="name" v="Hansslått" />
		<tag k="natural" v="wetland" />
		<tag k="ssr:stedsnr" v="456913" />
	</node>
	<node lat="58.763580556114164" lon="8.694075002915959" id="-34862">
		<tag k="name" v="Diplemyr" />
		<tag k="natural" v="wetland" />
		<tag k="ssr:stedsnr" v="456969" />
	</node>
	<node lat="58.757672225915485" lon="8.684369447314774" id="-34863">
		<tag k="name" v="Bjåmyr" />
		<tag k="natural" v="wetland" />
		<tag k="ssr:stedsnr" v="456973" />
	</node>
	<node lat="58.7487833359413" lon="8.662808330771874" id="-34865">
		<tag k="name" v="Jorunnskjerr" />
		<tag k="natural" v="wetland" />
		<tag k="ssr:stedsnr" v="456998" />
	</node>
	<node lat="58.78100555562803" lon="8.675202784627235" id="-34868">
		<tag k="name" v="Høgåskjerra" />
		<tag k="natural" v="wetland" />
		<tag k="ssr:stedsnr" v="456937" />
	</node>
	<node lat="58.702522221041185" lon="8.775933330516619" id="-34877">
		<tag k="name" v="Hestmyr" />
		<tag k="natural" v="wetland" />
		<tag k="ssr:stedsnr" v="274012" />
	</node>
	<node lat="58.77486389204227" lon="8.770097219477721" id="-34878">
		<tag k="name" v="Hansesslått" />
		<tag k="natural" v="wetland" />
		<tag k="ssr:stedsnr" v="274013" />
	</node>
	<node lat="58.64849722179243" lon="8.827227780509414" id="-34883">
		<tag k="name" v="Bordalskjerra" />
		<tag k="natural" v="wetland" />
		<tag k="ssr:stedsnr" v="274075" />
	</node>
	<node lat="58.79607778109631" lon="8.83975277344734" id="-34886">
		<tag k="name" v="Øygardsmyra" />
		<tag k="natural" v="wetland" />
		<tag k="ssr:stedsnr" v="274082" />
	</node>
	<node lat="58.755752776826746" lon="8.761099998947257" id="-34888">
		<tag k="name" v="Kampmyr" />
		<tag k="natural" v="wetland" />
		<tag k="ssr:stedsnr" v="274208" />
	</node>
	<node lat="58.703683335055565" lon="8.745011116770343" id="-34889">
		<tag k="name" v="Søglemyr" />
		<tag k="natural" v="wetland" />
		<tag k="ssr:stedsnr" v="274209" />
	</node>
	<node lat="58.76643888510194" lon="8.811261119317976" id="-34890">
		<tag k="name" v="Bråtansteene" />
		<tag k="natural" v="wetland" />
		<tag k="ssr:stedsnr" v="274210" />
	</node>
	<node lat="58.6948611152094" lon="8.732613885034072" id="-34892">
		<tag k="name" v="Lyngkjerr" />
		<tag k="natural" v="wetland" />
		<tag k="ssr:stedsnr" v="274215" />
	</node>
	<node lat="58.70656944816035" lon="8.749794452301064" id="-34893">
		<tag k="name" v="Rinderkjerr" />
		<tag k="natural" v="wetland" />
		<tag k="ssr:stedsnr" v="274226" />
	</node>
	<node lat="58.7132722213689" lon="8.87504165951351" id="-34895">
		<tag k="name" v="Beinmyr" />
		<tag k="natural" v="wetland" />
		<tag k="ssr:stedsnr" v="274102" />
	</node>
	<node lat="58.74387500347377" lon="8.745461114479356" id="-34900">
		<tag k="name" v="Fantelta" />
		<tag k="natural" v="wetland" />
		<tag k="ssr:stedsnr" v="274171" />
	</node>
	<node lat="58.74545555593347" lon="8.756661112371521" id="-34901">
		<tag k="name" v="Hestmyr" />
		<tag k="natural" v="wetland" />
		<tag k="ssr:stedsnr" v="274173" />
	</node>
	<node lat="58.7268111147676" lon="8.7959333393357" id="-34902">
		<tag k="name" v="Hareholta" />
		<tag k="place" v="locality" />
		<tag k="ssr:stedsnr" v="274181" />
	</node>
	<node lat="58.745383337706805" lon="8.731091661415768" id="-34904">
		<tag k="name" v="Bjørkkjerra" />
		<tag k="natural" v="wetland" />
		<tag k="ssr:stedsnr" v="274184" />
	</node>
	<node lat="58.83590277816333" lon="8.896638892742827" id="-34908">
		<tag k="name" v="Grønmyr" />
		<tag k="place" v="locality" />
		<tag k="ssr:stedsnr" v="274411" />
	</node>
	<node lat="58.82924722041588" lon="8.916552771668352" id="-34910">
		<tag k="name" v="Nutmyra" />
		<tag k="natural" v="wetland" />
		<tag k="ssr:stedsnr" v="274418" />
	</node>
	<node lat="58.836338887180666" lon="8.928244441937832" id="-34913">
		<tag k="name" v="Halvtekkmyra" />
		<tag k="natural" v="wetland" />
		<tag k="ssr:stedsnr" v="274422" />
	</node>
	<node lat="58.75062777536409" lon="8.97956110608509" id="-34914">
		<tag k="name" v="Kvilarkjerret" />
		<tag k="natural" v="wetland" />
		<tag k="ssr:stedsnr" v="274470" />
	</node>
	<node lat="58.68134721990346" lon="8.768275004914875" id="-34917">
		<tag k="name" v="Takåsmyra" />
		<tag k="natural" v="wetland" />
		<tag k="ssr:stedsnr" v="274621" />
	</node>
	<node lat="58.76366388647765" lon="8.981613889317225" id="-34921">
		<tag k="name" v="Tranbærmyra" />
		<tag k="natural" v="wetland" />
		<tag k="ssr:stedsnr" v="274523" />
	</node>
	<node lat="58.76716388781404" lon="8.943269442993339" id="-34927">
		<tag k="name" v="Bjønnhiet" />
		<tag k="natural" v="scree" />
		<tag k="ssr:stedsnr" v="274676" />
	</node>
	<node lat="58.80407778056683" lon="8.674052779095625" id="-34929">
		<tag k="name" v="Myramyra" />
		<tag k="natural" v="wetland" />
		<tag k="ssr:stedsnr" v="274869" />
	</node>
	<node lat="58.804155557324336" lon="8.67013611508388" id="-34930">
		<tag k="name" v="Vrangmyrkilen" />
		<tag k="natural" v="wetland" />
		<tag k="ssr:stedsnr" v="274887" />
	</node>
	<node lat="58.79177777844828" lon="8.705377786400614" id="-34931">
		<tag k="name" v="Holtet" />
		<tag k="place" v="locality" />
		<tag k="ssr:stedsnr" v="274890" />
	</node>
	<node lat="58.67836666612021" lon="8.83062222970855" id="-34957">
		<tag k="name" v="Revura" />
		<tag k="natural" v="scree" />
		<tag k="ssr:stedsnr" v="335044" />
	</node>
	<node lat="58.71919166765609" lon="8.869122228316758" id="-34958">
		<tag k="name" v="Røyrmyr" />
		<tag k="natural" v="wetland" />
		<tag k="ssr:stedsnr" v="335102" />
	</node>
	<node lat="58.75410833769418" lon="8.633647229566536" id="-34962">
		<tag k="name" v="Diplemyr" />
		<tag k="natural" v="wetland" />
		<tag k="ssr:stedsnr" v="335095" />
	</node>
	<node lat="58.73566110710764" lon="8.838741661455337" id="-34964">
		<tag k="name" v="Espelandskjerra" />
		<tag k="natural" v="wetland" />
		<tag k="ssr:stedsnr" v="335246" />
	</node>
	<node lat="58.739441670627805" lon="8.924522216977142" id="-34967">
		<tag k="name" v="Rørmyr" />
		<tag k="natural" v="wetland" />
		<tag k="ssr:stedsnr" v="335253" />
	</node>
	<node lat="58.7433861113292" lon="8.915788893533474" id="-34968">
		<tag k="name" v="Torsmyrene" />
		<tag k="natural" v="wetland" />
		<tag k="ssr:stedsnr" v="335258" />
	</node>
	<node lat="58.709052780094666" lon="8.871313894946908" id="-34971">
		<tag k="name" v="Rødsmyra" />
		<tag k="natural" v="wetland" />
		<tag k="ssr:stedsnr" v="335409" />
	</node>
	<node lat="58.69790555945819" lon="8.827225008499715" id="-34973">
		<tag k="historic" v="shieling" />
		<tag k="name" v="Heane" />
		<tag k="place" v="locality" />
		<tag k="ssr:stedsnr" v="335414" />
	</node>
	<node lat="58.81329444896372" lon="8.727316668186226" id="-34977">
		<tag k="name" v="Sjølvskotmyrene" />
		<tag k="natural" v="wetland" />
		<tag k="ssr:stedsnr" v="335148" />
	</node>
	<node lat="58.6529388870614" lon="8.81827221957523" id="-34978">
		<tag k="name" v="Lille Gunnarskjerr" />
		<tag k="natural" v="wetland" />
		<tag k="ssr:stedsnr" v="335150" />
	</node>
	<node lat="58.75096944425652" lon="8.953169446875284" id="-34983">
		<tag k="name" v="Rødsmyra" />
		<tag k="natural" v="wetland" />
		<tag k="ssr:stedsnr" v="335565" />
	</node>
	<node lat="58.67595833004827" lon="8.784819441850006" id="-34984">
		<tag k="name" v="Heislåtta" />
		<tag k="natural" v="wetland" />
		<tag k="ssr:stedsnr" v="335703" />
	</node>
	<node lat="58.78423333477702" lon="8.957133331953179" id="-34990">
		<tag k="name" v="Langemyr" />
		<tag k="natural" v="wetland" />
		<tag k="ssr:stedsnr" v="335610" />
	</node>
	<node lat="58.79480000315232" lon="8.94886666307902" id="-34992">
		<tag k="name" v="Snømyrkjerra" />
		<tag k="natural" v="wetland" />
		<tag k="ssr:stedsnr" v="335618" />
	</node>
	<node lat="58.777974999572194" lon="8.693294446428697" id="-34999">
		<tag k="name" v="Ålkjerrmyra" />
		<tag k="natural" v="wetland" />
		<tag k="ssr:stedsnr" v="335945" />
	</node>
	<node lat="58.8239694468905" lon="8.826341666551476" id="-35001">
		<tag k="name" v="Torgrimsmyr" />
		<tag k="natural" v="wetland" />
		<tag k="ssr:stedsnr" v="335951" />
	</node>
	<node lat="58.812244442678235" lon="8.967230561211107" id="-35015">
		<tag k="name" v="Stormyr" />
		<tag k="natural" v="wetland" />
		<tag k="ssr:stedsnr" v="365017" />
	</node>
	<node lat="58.775988887616094" lon="8.762375000859631" id="-35022">
		<tag k="name" v="Eikekjerr" />
		<tag k="natural" v="wetland" />
		<tag k="ssr:stedsnr" v="395009" />
	</node>
	<node lat="58.708258331734356" lon="8.787336106047245" id="-35024">
		<tag k="name" v="Midtimyr" />
		<tag k="natural" v="wetland" />
		<tag k="ssr:stedsnr" v="395012" />
	</node>
	<node lat="58.77816110912744" lon="8.899175008546125" id="-35025">
		<tag k="name" v="Jonsmyr" />
		<tag k="natural" v="wetland" />
		<tag k="ssr:stedsnr" v="395031" />
	</node>
	<node lat="58.784461109183965" lon="8.93270556366502" id="-35027">
		<tag k="name" v="Sveigsmyr" />
		<tag k="natural" v="wetland" />
		<tag k="ssr:stedsnr" v="395036" />
	</node>
	<node lat="58.73116667038339" lon="8.879375002126704" id="-35031">
		<tag k="name" v="Kolbånnkjerr" />
		<tag k="natural" v="wetland" />
		<tag k="ssr:stedsnr" v="395085" />
	</node>
	<node lat="58.7933611083424" lon="8.881697220887245" id="-35032">
		<tag k="name" v="Kvernkjerr" />
		<tag k="natural" v="wetland" />
		<tag k="ssr:stedsnr" v="395091" />
	</node>
	<node lat="58.7923333318881" lon="8.881661113995511" id="-35033">
		<tag k="name" v="Djupkjerr" />
		<tag k="natural" v="wetland" />
		<tag k="ssr:stedsnr" v="395092" />
	</node>
	<node lat="58.75733610905928" lon="8.74460556223189" id="-35035">
		<tag k="name" v="Årmyr" />
		<tag k="natural" v="wetland" />
		<tag k="ssr:stedsnr" v="395234" />
	</node>
	<node lat="58.752136108519785" lon="8.87819445261332" id="-35036">
		<tag k="name" v="Kvennmyra" />
		<tag k="natural" v="wetland" />
		<tag k="ssr:stedsnr" v="395278" />
	</node>
	<node lat="58.77554444089469" lon="8.753549997996009" id="-35039">
		<tag k="name" v="Kjørkemyra" />
		<tag k="natural" v="wetland" />
		<tag k="ssr:stedsnr" v="395283" />
	</node>
	<node lat="58.77377778188447" lon="8.894211111316242" id="-35045">
		<tag k="name" v="Masterkjerr" />
		<tag k="natural" v="wetland" />
		<tag k="ssr:stedsnr" v="395300" />
	</node>
	<node lat="58.81188888748748" lon="8.921399993273841" id="-35050">
		<tag k="name" v="Stokkbuslåtta" />
		<tag k="natural" v="wetland" />
		<tag k="ssr:stedsnr" v="395135" />
	</node>
	<node lat="58.65226944426259" lon="8.788219440350508" id="-35055">
		<tag k="name" v="Falkreirkjerr" />
		<tag k="natural" v="wetland" />
		<tag k="ssr:stedsnr" v="395198" />
	</node>
	<node lat="58.74391388741347" lon="8.96293610799052" id="-35072">
		<tag k="name" v="Hestkjerret" />
		<tag k="natural" v="wetland" />
		<tag k="ssr:stedsnr" v="395579" />
	</node>
	<node lat="58.81469721781333" lon="8.97249999943592" id="-35074">
		<tag k="name" v="Astridskjerra" />
		<tag k="natural" v="wetland" />
		<tag k="ssr:stedsnr" v="395588" />
	</node>
	<node lat="58.81980555504797" lon="8.94381666197918" id="-35075">
		<tag k="name" v="Kjellingmyra" />
		<tag k="natural" v="wetland" />
		<tag k="ssr:stedsnr" v="395596" />
	</node>
	<node lat="58.77877221901741" lon="8.963544444027127" id="-35077">
		<tag k="name" v="Tjennslåttene" />
		<tag k="natural" v="wetland" />
		<tag k="ssr:stedsnr" v="395628" />
	</node>
	<node lat="58.836005553395836" lon="8.771697224439754" id="-35078">
		<tag k="name" v="Bjordamsteene" />
		<tag k="natural" v="wetland" />
		<tag k="ssr:stedsnr" v="395805" />
	</node>
	<node lat="58.83145278101027" lon="8.82539167014627" id="-35081">
		<tag k="name" v="Sauren" />
		<tag k="natural" v="wetland" />
		<tag k="ssr:stedsnr" v="395821" />
	</node>
	<node lat="58.81211110955186" lon="8.700500001426587" id="-35083">
		<tag k="name" v="Nordmyr" />
		<tag k="natural" v="wetland" />
		<tag k="ssr:stedsnr" v="395902" />
	</node>
	<node lat="58.77886667091959" lon="8.677838897059376" id="-35086">
		<tag k="name" v="Hullmyr" />
		<tag k="natural" v="wetland" />
		<tag k="ssr:stedsnr" v="395935" />
	</node>
	<node lat="58.742694441453445" lon="8.66087499803521" id="-35089">
		<tag k="name" v="Lundmyra" />
		<tag k="natural" v="wetland" />
		<tag k="ssr:stedsnr" v="395986" />
	</node>
	<node lat="58.7085305574492" lon="8.681919440806876" id="-35096">
		<tag k="name" v="Knutsmyr" />
		<tag k="natural" v="wetland" />
		<tag k="ssr:stedsnr" v="486070" />
	</node>
	<node lat="58.82664999684861" lon="8.933169453018468" id="-35101">
		<tag k="alt_name" v="Moltemyrene" />
		<tag k="name" v="Moltemyrane" />
		<tag k="natural" v="wetland" />
		<tag k="ssr:stedsnr" v="486042" />
	</node>
	<node lat="58.77738055692377" lon="8.953738890764487" id="-35116">
		<tag k="name" v="Stormyr" />
		<tag k="natural" v="wetland" />
		<tag k="ssr:stedsnr" v="487440" />
	</node>
	<node lat="58.70113055580074" lon="8.80946945195282" id="-35140">
		<tag k="name" v="Småmyrene" />
		<tag k="natural" v="wetland" />
		<tag k="ssr:stedsnr" v="456007" />
	</node>
	<node lat="58.70376110944245" lon="8.798922213726545" id="-35141">
		<tag k="name" v="Bjørksteene" />
		<tag k="natural" v="wetland" />
		<tag k="ssr:stedsnr" v="456012" />
	</node>
	<node lat="58.794994448879066" lon="8.831202783263322" id="-35146">
		<tag k="name" v="Kvernmyra" />
		<tag k="natural" v="wetland" />
		<tag k="ssr:stedsnr" v="456104" />
	</node>
	<node lat="58.80839999817524" lon="8.894166663365445" id="-35148">
		<tag k="name" v="Snømyr" />
		<tag k="natural" v="wetland" />
		<tag k="ssr:stedsnr" v="456112" />
	</node>
	<node lat="58.80899444087238" lon="8.913163891552768" id="-35149">
		<tag k="name" v="Grønliholtkjerr" />
		<tag k="natural" v="wetland" />
		<tag k="old_name" v="Gronlihottkjerr" />
		<tag k="ssr:stedsnr" v="456121" />
	</node>
	<node lat="58.795041671068965" lon="8.898605552003588" id="-35150">
		<tag k="name" v="Torsmyr" />
		<tag k="natural" v="wetland" />
		<tag k="ssr:stedsnr" v="456061" />
	</node>
	<node lat="58.783116669304654" lon="8.846827783542459" id="-35153">
		<tag k="name" v="Slåttøysteinen" />
		<tag k="natural" v="stone" />
		<tag k="ssr:stedsnr" v="456068" />
	</node>
	<node lat="58.65436389141377" lon="8.790158333140788" id="-35155">
		<tag k="name" v="Stråløs" />
		<tag k="natural" v="wetland" />
		<tag k="ssr:stedsnr" v="456204" />
	</node>
	<node lat="58.72686944598609" lon="8.817247224271812" id="-35156">
		<tag k="name" v="Heimyrene" />
		<tag k="natural" v="wetland" />
		<tag k="ssr:stedsnr" v="456206" />
	</node>
	<node lat="58.741011111391714" lon="8.718502770422807" id="-35157">
		<tag k="name" v="Tjusslikjerrene" />
		<tag k="natural" v="wetland" />
		<tag k="ssr:stedsnr" v="456209" />
	</node>
	<node lat="58.764200002612725" lon="8.79409999846776" id="-35159">
		<tag k="name" v="Erteknippslåtta" />
		<tag k="natural" v="wetland" />
		<tag k="ssr:stedsnr" v="456216" />
	</node>
	<node lat="58.65443889081587" lon="8.772716672427178" id="-35165">
		<tag k="name" v="Stormyr" />
		<tag k="natural" v="wetland" />
		<tag k="ssr:stedsnr" v="456266" />
	</node>
	<node lat="58.83650833223964" lon="8.862444439630654" id="-35173">
		<tag k="name" v="Teinlagkjerret" />
		<tag k="natural" v="wetland" />
		<tag k="ssr:stedsnr" v="456413" />
	</node>
	<node lat="58.83388333277205" lon="8.875080549744803" id="-35175">
		<tag k="name" v="Kjellingmyra" />
		<tag k="natural" v="wetland" />
		<tag k="ssr:stedsnr" v="456415" />
	</node>
	<node lat="58.83347221889785" lon="8.865197222404632" id="-35176">
		<tag k="name" v="Raudnesmoen" />
		<tag k="place" v="locality" />
		<tag k="ssr:stedsnr" v="456418" />
	</node>
	<node lat="58.65811388861695" lon="8.781777776487292" id="-35177">
		<tag k="name" v="Langtjennmyr" />
		<tag k="natural" v="wetland" />
		<tag k="ssr:stedsnr" v="456162" />
	</node>
	<node lat="58.7396527802076" lon="8.90374443931083" id="-35183">
		<tag k="name" v="Hyttekjerrene" />
		<tag k="natural" v="wetland" />
		<tag k="ssr:stedsnr" v="456311" />
	</node>
	<node lat="58.743863886685" lon="8.971916660762101" id="-35192">
		<tag k="name" v="Fidalsmyr" />
		<tag k="natural" v="wetland" />
		<tag k="ssr:stedsnr" v="456508" />
	</node>
	<node lat="58.795111109010385" lon="8.947297215801424" id="-35196">
		<tag k="name" v="Snømyr" />
		<tag k="place" v="locality" />
		<tag k="ssr:stedsnr" v="456602" />
	</node>
	<node lat="58.81756388898755" lon="8.951655554492795" id="-35199">
		<tag k="name" v="Skårmyra" />
		<tag k="natural" v="wetland" />
		<tag k="ssr:stedsnr" v="456576" />
	</node>
	<node lat="58.80261388913796" lon="8.702775004771835" id="-35203">
		<tag k="name" v="Bløyta" />
		<tag k="natural" v="wetland" />
		<tag k="ssr:stedsnr" v="456905" />
	</node>
	<node lat="58.76920277751194" lon="8.695641674635644" id="-35204">
		<tag k="name" v="Husmyra" />
		<tag k="natural" v="wetland" />
		<tag k="ssr:stedsnr" v="456958" />
	</node>
	<node lat="58.765663887540775" lon="8.80470277625159" id="-35218">
		<tag k="alt_name" v="Kortmyr, l" />
		<tag k="name" v="Lille Kortmyr" />
		<tag k="natural" v="wetland" />
		<tag k="ssr:stedsnr" v="486562" />
	</node>
	<node lat="58.8280472226956" lon="8.957824998006092" id="-35226">
		<tag k="name" v="Byttingsmyr" />
		<tag k="natural" v="wetland" />
		<tag k="ssr:stedsnr" v="509915" />
	</node>
	<node lat="58.76875000277744" lon="8.757791667386824" id="-35229">
		<tag k="name" v="Åslandssteene" />
		<tag k="natural" v="wetland" />
		<tag k="ssr:stedsnr" v="517014" />
	</node>
	<node lat="58.804163892938426" lon="8.739216667078283" id="-35234">
		<tag k="name" v="Anskjerra" />
		<tag k="natural" v="wetland" />
		<tag k="ssr:stedsnr" v="517111" />
	</node>
	<node lat="58.79774166985758" lon="8.736411114590718" id="-35236">
		<tag k="name" v="Gunnarslåttmyra" />
		<tag k="natural" v="wetland" />
		<tag k="ssr:stedsnr" v="517117" />
	</node>
	<node lat="58.73346111219724" lon="8.753511117074579" id="-35239">
		<tag k="name" v="Mosteene" />
		<tag k="natural" v="wetland" />
		<tag k="ssr:stedsnr" v="517165" />
	</node>
	<node lat="58.65276666363581" lon="8.782666664128184" id="-35240">
		<tag k="name" v="Nybumyra" />
		<tag k="natural" v="wetland" />
		<tag k="ssr:stedsnr" v="517166" />
	</node>
	<node lat="58.76368332950988" lon="8.721863887686695" id="-35247">
		<tag k="name" v="Einerkjerr" />
		<tag k="natural" v="wetland" />
		<tag k="ssr:stedsnr" v="517211" />
	</node>
	<node lat="58.82736944195772" lon="8.915805547008041" id="-35256">
		<tag k="name" v="Lyngkjerr" />
		<tag k="natural" v="wetland" />
		<tag k="ssr:stedsnr" v="517409" />
	</node>
	<node lat="58.695394444741254" lon="8.827525004383897" id="-35258">
		<tag k="name" v="Stoblemyra" />
		<tag k="natural" v="wetland" />
		<tag k="ssr:stedsnr" v="517421" />
	</node>
	<node lat="58.69903888649364" lon="8.906422217302813" id="-35260">
		<tag k="name" v="Østre Fjellsmyr" />
		<tag k="natural" v="wetland" />
		<tag k="ssr:stedsnr" v="517468" />
	</node>
	<node lat="58.69943333181274" lon="8.898927772846243" id="-35261">
		<tag k="name" v="Snøkjerra" />
		<tag k="natural" v="wetland" />
		<tag k="ssr:stedsnr" v="517473" />
	</node>
	<node lat="58.78993333341088" lon="8.981180552437372" id="-35262">
		<tag k="name" v="Stormyrstykket" />
		<tag k="natural" v="wetland" />
		<tag k="ssr:stedsnr" v="517528" />
	</node>
	<node lat="58.796349997222485" lon="8.989488882456657" id="-35263">
		<tag k="name" v="Sandbergmyra" />
		<tag k="natural" v="wetland" />
		<tag k="ssr:stedsnr" v="517533" />
	</node>
	<node lat="58.78984722473343" lon="8.743319452135948" id="-35274">
		<tag k="name" v="Store Sundmyr" />
		<tag k="natural" v="wetland" />
		<tag k="ssr:stedsnr" v="517851" />
	</node>
	<node lat="58.78971110937308" lon="8.74596111117391" id="-35275">
		<tag k="name" v="Store Bjørnmyr" />
		<tag k="natural" v="wetland" />
		<tag k="ssr:stedsnr" v="517852" />
	</node>
	<node lat="58.78616110725802" lon="8.771222229636557" id="-35276">
		<tag k="name" v="Eidbumyra" />
		<tag k="natural" v="wetland" />
		<tag k="ssr:stedsnr" v="517861" />
	</node>
	<node lat="58.80509444677896" lon="8.708530554245723" id="-35280">
		<tag k="name" v="Strandslåtta" />
		<tag k="natural" v="wetland" />
		<tag k="ssr:stedsnr" v="517910" />
	</node>
	<node lat="58.770586109520146" lon="8.714141669698108" id="-35284">
		<tag k="name" v="Langøysanden" />
		<tag k="natural" v="beach" />
		<tag k="ssr:stedsnr" v="517966" />
		<tag k="surface" v="sand" />
	</node>
	<node lat="58.76419722512495" lon="9.006188889425756" id="-35310">
		<tag k="name" v="Djupmyr" />
		<tag k="natural" v="wetland" />
		<tag k="ssr:stedsnr" v="691000" />
	</node>
	<node lat="58.70154166246553" lon="8.812794451511671" id="-35312">
		<tag k="name" v="Lindroshøgstane" />
		<tag k="place" v="locality" />
		<tag k="ssr:stedsnr" v="577005" />
	</node>
	<node lat="58.69240555192753" lon="8.786847215800329" id="-35319">
		<tag k="name" v="Stemmyra" />
		<tag k="natural" v="wetland" />
		<tag k="ssr:stedsnr" v="577056" />
	</node>
	<node lat="58.72392777869577" lon="8.924802783699574" id="-35323">
		<tag k="name" v="Myrajordet" />
		<tag k="place" v="locality" />
		<tag k="ssr:stedsnr" v="577102" />
	</node>
	<node lat="58.804144446215986" lon="8.901975002415393" id="-35324">
		<tag k="name" v="Søre Heitjennmyra" />
		<tag k="natural" v="wetland" />
		<tag k="ssr:stedsnr" v="577103" />
	</node>
	<node lat="58.802905552182004" lon="8.889225003451015" id="-35328">
		<tag k="name" v="Dukane" />
		<tag k="natural" v="wetland" />
		<tag k="ssr:stedsnr" v="577096" />
	</node>
	<node lat="58.744352775155285" lon="8.72224721539928" id="-35330">
		<tag k="name" v="Nonnutkjerrene" />
		<tag k="natural" v="wetland" />
		<tag k="ssr:stedsnr" v="577205" />
	</node>
	<node lat="58.82714999984911" lon="8.892680547481538" id="-35335">
		<tag k="name" v="Øvre Bråtemyrene" />
		<tag k="natural" v="wetland" />
		<tag k="ssr:stedsnr" v="577415" />
	</node>
	<node lat="58.79192499856147" lon="8.943094446702085" id="-35349">
		<tag k="name" v="Jordsmyra" />
		<tag k="place" v="locality" />
		<tag k="ssr:stedsnr" v="577608" />
	</node>
	<node lat="58.79382500408221" lon="8.956133331743796" id="-35350">
		<tag k="name" v="Diplemyr" />
		<tag k="natural" v="wetland" />
		<tag k="ssr:stedsnr" v="577610" />
	</node>
	<node lat="58.67968055730793" lon="8.761433332702135" id="-35353">
		<tag k="name" v="Skarkbeinmyra" />
		<tag k="natural" v="wetland" />
		<tag k="ssr:stedsnr" v="577652" />
	</node>
	<node lat="58.76831110879291" lon="8.962161105464334" id="-35355">
		<tag k="name" v="Graskjerr" />
		<tag k="natural" v="wetland" />
		<tag k="ssr:stedsnr" v="577542" />
	</node>
	<node lat="58.736658334715074" lon="8.698488884839907" id="-35361">
		<tag k="name" v="Markramnsmyra" />
		<tag k="natural" v="wetland" />
		<tag k="ssr:stedsnr" v="577899" />
	</node>
	<node lat="58.74150000367329" lon="8.666619437071038" id="-35362">
		<tag k="name" v="Lusmyr" />
		<tag k="natural" v="wetland" />
		<tag k="ssr:stedsnr" v="577900" />
	</node>
	<node lat="58.740072226377535" lon="8.667119447617981" id="-35363">
		<tag k="name" v="Mågstadmyra" />
		<tag k="natural" v="wetland" />
		<tag k="ssr:stedsnr" v="577901" />
	</node>
	<node lat="58.78216666955013" lon="8.888508327117599" id="-35367">
		<tag k="name" v="Kalveskinnsmyra" />
		<tag k="natural" v="wetland" />
		<tag k="ssr:stedsnr" v="699026" />
	</node>
	<node lat="58.68614444756981" lon="8.848861110639545" id="-35369">
		<tag k="name" v="Røyrmyr" />
		<tag k="natural" v="wetland" />
		<tag k="ssr:stedsnr" v="699041" />
	</node>
	<node lat="58.80057777980203" lon="8.949997213692617" id="-35370">
		<tag k="name" v="Bedalskjerr" />
		<tag k="natural" v="wetland" />
		<tag k="ssr:stedsnr" v="699589" />
	</node>
	<node lat="58.726430559746994" lon="8.897099997118136" id="-35373">
		<tag k="name" v="Rundmyr" />
		<tag k="natural" v="wetland" />
		<tag k="ssr:stedsnr" v="699089" />
	</node>
	<node lat="58.72974722633601" lon="8.915975000230713" id="-35375">
		<tag k="name" v="Lyngmyr" />
		<tag k="natural" v="wetland" />
		<tag k="ssr:stedsnr" v="699094" />
	</node>
	<node lat="58.813405551751494" lon="8.933749993695882" id="-35377">
		<tag k="name" v="Blaute Dalen" />
		<tag k="natural" v="wetland" />
		<tag k="ssr:stedsnr" v="699096" />
	</node>
	<node lat="58.79353610694482" lon="8.908636115440617" id="-35378">
		<tag k="name" v="Nymyr" />
		<tag k="natural" v="wetland" />
		<tag k="ssr:stedsnr" v="699045" />
	</node>
	<node lat="58.72515555282808" lon="8.847075008210268" id="-35384">
		<tag k="name" v="Lille Kartmyr" />
		<tag k="natural" v="wetland" />
		<tag k="ssr:stedsnr" v="699059" />
	</node>
	<node lat="58.729988889033656" lon="8.88329722125962" id="-35389">
		<tag k="name" v="Haraldsmyr" />
		<tag k="natural" v="wetland" />
		<tag k="ssr:stedsnr" v="699102" />
	</node>
	<node lat="58.75694722589047" lon="8.799658341952396" id="-35390">
		<tag k="name" v="Urene" />
		<tag k="natural" v="scree" />
		<tag k="ssr:stedsnr" v="699178" />
	</node>
	<node lat="58.709505558476764" lon="8.945063883382534" id="-35396">
		<tag k="name" v="Heimyr" />
		<tag k="natural" v="wetland" />
		<tag k="ssr:stedsnr" v="699221" />
	</node>
	<node lat="58.73523611102298" lon="8.845694442211608" id="-35397">
		<tag k="name" v="Kloppa" />
		<tag k="place" v="locality" />
		<tag k="ssr:stedsnr" v="699225" />
	</node>
	<node lat="58.803427778919044" lon="8.73061110653046" id="-35399">
		<tag k="name" v="Nordslåtta" />
		<tag k="natural" v="wetland" />
		<tag k="ssr:stedsnr" v="699115" />
	</node>
	<node lat="58.65330277886754" lon="8.767002772649098" id="-35400">
		<tag k="name" v="Langmyr" />
		<tag k="natural" v="wetland" />
		<tag k="ssr:stedsnr" v="699125" />
	</node>
	<node lat="58.73088889241915" lon="8.734433334646184" id="-35404">
		<tag k="name" v="Ekornkjerrene" />
		<tag k="natural" v="wetland" />
		<tag k="ssr:stedsnr" v="699135" />
	</node>
	<node lat="58.735130555641796" lon="8.722755556879877" id="-35407">
		<tag k="name" v="Bøykarholta" />
		<tag k="place" v="locality" />
		<tag k="ssr:stedsnr" v="699142" />
	</node>
	<node lat="58.72579999572319" lon="8.773205562554097" id="-35408">
		<tag k="name" v="Kolbonnsmyr" />
		<tag k="natural" v="wetland" />
		<tag k="ssr:stedsnr" v="699153" />
	</node>
	<node lat="58.72288333493537" lon="8.773994446636062" id="-35411">
		<tag k="name" v="Lange Askekjerr" />
		<tag k="natural" v="wetland" />
		<tag k="ssr:stedsnr" v="699157" />
	</node>
	<node lat="58.72224999775255" lon="8.809938895653598" id="-35412">
		<tag k="name" v="Korsdeilda" />
		<tag k="natural" v="stone" />
		<tag k="ssr:stedsnr" v="699158" />
	</node>
	<node lat="58.76908610669231" lon="8.897383328138064" id="-35415">
		<tag k="name" v="Harekjærstea" />
		<tag k="natural" v="wetland" />
		<tag k="ssr:stedsnr" v="699288" />
	</node>
	<node lat="58.765555556760205" lon="8.899652773902897" id="-35416">
		<tag k="name" v="Rørkjerr" />
		<tag k="natural" v="wetland" />
		<tag k="ssr:stedsnr" v="699290" />
	</node>
	<node lat="58.7782416680093" lon="8.767500008021507" id="-35417">
		<tag k="name" v="Orremyrene" />
		<tag k="natural" v="wetland" />
		<tag k="ssr:stedsnr" v="699292" />
	</node>
	<node lat="58.77531666313613" lon="8.85404166921522" id="-35421">
		<tag k="name" v="Hølmyra" />
		<tag k="natural" v="wetland" />
		<tag k="ssr:stedsnr" v="699297" />
	</node>
	<node lat="58.76902777465943" lon="8.914436103740092" id="-35425">
		<tag k="name" v="Lyngmyr" />
		<tag k="natural" v="wetland" />
		<tag k="ssr:stedsnr" v="699257" />
	</node>
	<node lat="58.83276388683674" lon="8.835313894733453" id="-35430">
		<tag k="name" v="Heislåtta" />
		<tag k="natural" v="wetland" />
		<tag k="ssr:stedsnr" v="699424" />
	</node>
	<node lat="58.80369166718641" lon="8.861319451268894" id="-35433">
		<tag k="name" v="Skardalskjerret" />
		<tag k="natural" v="wetland" />
		<tag k="ssr:stedsnr" v="699382" />
	</node>
	<node lat="58.748655554367815" lon="8.976833340269037" id="-35439">
		<tag k="name" v="Langsemyr" />
		<tag k="natural" v="wetland" />
		<tag k="ssr:stedsnr" v="699487" />
	</node>
	<node lat="58.733333331022344" lon="8.991649996444638" id="-35440">
		<tag k="name" v="Langhølmyra" />
		<tag k="natural" v="wetland" />
		<tag k="ssr:stedsnr" v="699490" />
	</node>
	<node lat="58.73840555387258" lon="8.896469448607045" id="-35448">
		<tag k="name" v="Haugslåtta" />
		<tag k="natural" v="wetland" />
		<tag k="ssr:stedsnr" v="699455" />
	</node>
	<node lat="58.75318055787406" lon="8.894636109914911" id="-35449">
		<tag k="name" v="Hegglundsdukane" />
		<tag k="natural" v="wetland" />
		<tag k="ssr:stedsnr" v="699459" />
	</node>
	<node lat="58.70124166865765" lon="8.690583330339523" id="-35451">
		<tag k="name" v="Knivkjerra" />
		<tag k="natural" v="wetland" />
		<tag k="ssr:stedsnr" v="699698" />
	</node>
	<node lat="58.64297499663871" lon="8.806311109751102" id="-35452">
		<tag k="name" v="Stuttjennkarten" />
		<tag k="natural" v="wetland" />
		<tag k="ssr:stedsnr" v="699700" />
	</node>
	<node lat="58.66407221919112" lon="8.769341672859268" id="-35457">
		<tag k="name" v="Korsvidda" />
		<tag k="natural" v="wetland" />
		<tag k="ssr:stedsnr" v="699641" />
	</node>
	<node lat="58.70951944893264" lon="8.709141663674972" id="-35459">
		<tag k="name" v="Ulsmyr" />
		<tag k="natural" v="wetland" />
		<tag k="ssr:stedsnr" v="699722" />
	</node>
	<node lat="58.78147500297065" lon="8.804974994630953" id="-35460">
		<tag k="name" v="Rånstykket" />
		<tag k="place" v="locality" />
		<tag k="ssr:stedsnr" v="699740" />
	</node>
	<node lat="58.81997777741483" lon="8.75754999179586" id="-35463">
		<tag k="name" v="Tollhommslåtta" />
		<tag k="natural" v="wetland" />
		<tag k="ssr:stedsnr" v="699756" />
	</node>
	<node lat="58.820691671072844" lon="8.73628888472738" id="-35464">
		<tag k="name" v="Hytteslåtta" />
		<tag k="natural" v="wetland" />
		<tag k="ssr:stedsnr" v="699757" />
	</node>
	<node lat="58.82206389138489" lon="8.730880561620394" id="-35466">
		<tag k="name" v="Dalslått" />
		<tag k="natural" v="wetland" />
		<tag k="ssr:stedsnr" v="699759" />
	</node>
	<node lat="58.82680000050801" lon="8.730408338652955" id="-35467">
		<tag k="name" v="Svenjeslått" />
		<tag k="natural" v="wetland" />
		<tag k="ssr:stedsnr" v="699761" />
	</node>
	<node lat="58.75224722266543" lon="8.7151083249818" id="-35478">
		<tag k="name" v="Rørkjerr" />
		<tag k="natural" v="wetland" />
		<tag k="ssr:stedsnr" v="699875" />
	</node>
	<node lat="58.808683333007984" lon="8.700472214425414" id="-35480">
		<tag k="name" v="Nordmyrkjerra" />
		<tag k="natural" v="wetland" />
		<tag k="ssr:stedsnr" v="699895" />
	</node>
	<node lat="58.79986110746147" lon="8.701897218085671" id="-35483">
		<tag k="name" v="Øvre Jørnsmyr" />
		<tag k="natural" v="wetland" />
		<tag k="ssr:stedsnr" v="699906" />
	</node>
	<node lat="58.750405554715165" lon="8.680122230364427" id="-35488">
		<tag k="name" v="Hasselholta" />
		<tag k="place" v="locality" />
		<tag k="ssr:stedsnr" v="699995" />
	</node>
	<node lat="58.76332778009493" lon="8.762622219071673" id="-35496">
		<tag k="name" v="Øktaskjerret" />
		<tag k="natural" v="wetland" />
		<tag k="ssr:stedsnr" v="638003" />
	</node>
	<node lat="58.75864444788076" lon="8.769750003846918" id="-35497">
		<tag k="name" v="Grytemyrene" />
		<tag k="natural" v="wetland" />
		<tag k="ssr:stedsnr" v="638008" />
	</node>
	<node lat="58.81153611379111" lon="8.899905554299297" id="-35505">
		<tag k="name" v="Strandkjerra" />
		<tag k="natural" v="wetland" />
		<tag k="ssr:stedsnr" v="638104" />
	</node>
	<node lat="58.80886110669096" lon="8.744730548806904" id="-35508">
		<tag k="name" v="Ryggslåttene" />
		<tag k="natural" v="wetland" />
		<tag k="ssr:stedsnr" v="638110" />
	</node>
	<node lat="58.80028888793723" lon="8.758733337842305" id="-35509">
		<tag k="name" v="Fiskaroddkjerret" />
		<tag k="natural" v="wetland" />
		<tag k="ssr:stedsnr" v="638117" />
	</node>
	<node lat="58.80402500374294" lon="8.932572220763" id="-35513">
		<tag k="name" v="Kalvkjerra" />
		<tag k="natural" v="wetland" />
		<tag k="ssr:stedsnr" v="638085" />
	</node>
	<node lat="58.730219448827384" lon="8.896491673072491" id="-35515">
		<tag k="name" v="Skravdalsmyra" />
		<tag k="natural" v="wetland" />
		<tag k="ssr:stedsnr" v="638090" />
	</node>
	<node lat="58.72739444570708" lon="8.93195832578451" id="-35516">
		<tag k="name" v="Dukane" />
		<tag k="natural" v="wetland" />
		<tag k="ssr:stedsnr" v="638091" />
	</node>
	<node lat="58.77435555484339" lon="8.811641664526704" id="-35517">
		<tag k="name" v="Heimyr" />
		<tag k="natural" v="wetland" />
		<tag k="ssr:stedsnr" v="638204" />
	</node>
	<node lat="58.71046111222326" lon="8.768827775052955" id="-35519">
		<tag k="name" v="Sagstea" />
		<tag k="natural" v="wetland" />
		<tag k="ssr:stedsnr" v="638213" />
	</node>
	<node lat="58.7381000005918" lon="8.862041674217368" id="-35522">
		<tag k="name" v="Kjerrgjellkjerr" />
		<tag k="natural" v="wetland" />
		<tag k="ssr:stedsnr" v="638216" />
	</node>
	<node lat="58.713830553128936" lon="8.958530558467512" id="-35523">
		<tag k="name" v="Flatkjerr" />
		<tag k="natural" v="wetland" />
		<tag k="ssr:stedsnr" v="638224" />
	</node>
	<node lat="58.7263916635791" lon="8.953047217715875" id="-35525">
		<tag k="name" v="Heimyr" />
		<tag k="natural" v="wetland" />
		<tag k="ssr:stedsnr" v="638229" />
	</node>
	<node lat="58.70183333373143" lon="8.903638882024236" id="-35528">
		<tag k="name" v="Bikkjetjennmyra" />
		<tag k="natural" v="wetland" />
		<tag k="ssr:stedsnr" v="638412" />
	</node>
	<node lat="58.71752777406053" lon="8.744188896281369" id="-35532">
		<tag k="name" v="Snipmyr" />
		<tag k="natural" v="wetland" />
		<tag k="ssr:stedsnr" v="638184" />
	</node>
	<node lat="58.75639166316877" lon="8.784313895893117" id="-35533">
		<tag k="name" v="Råtnemyra" />
		<tag k="natural" v="wetland" />
		<tag k="ssr:stedsnr" v="638187" />
	</node>
	<node lat="58.75768611139806" lon="8.751144448285542" id="-35536">
		<tag k="name" v="Strandslåtta" />
		<tag k="natural" v="wetland" />
		<tag k="ssr:stedsnr" v="638197" />
	</node>
	<node lat="58.80674166834495" lon="8.990497216869924" id="-35549">
		<tag k="name" v="Bjorstemstea" />
		<tag k="natural" v="wetland" />
		<tag k="ssr:stedsnr" v="638612" />
	</node>
	<node lat="58.7220027768193" lon="8.691477786168784" id="-35550">
		<tag k="name" v="Småsteene" />
		<tag k="natural" v="wetland" />
		<tag k="ssr:stedsnr" v="638689" />
	</node>
	<node lat="58.716027775405095" lon="8.699577769849464" id="-35552">
		<tag k="name" v="Langåsmyrene" />
		<tag k="natural" v="wetland" />
		<tag k="ssr:stedsnr" v="638694" />
	</node>
	<node lat="58.77397777770738" lon="8.949291671865028" id="-35553">
		<tag k="name" v="Stormyrkjerr" />
		<tag k="natural" v="wetland" />
		<tag k="ssr:stedsnr" v="638696" />
	</node>
	<node lat="58.84031389264934" lon="8.79447499710027" id="-35555">
		<tag k="name" v="Slåtta på Fjellet" />
		<tag k="natural" v="wetland" />
		<tag k="ssr:stedsnr" v="638804" />
	</node>
	<node lat="58.7401722179089" lon="8.942083325099375" id="-35558">
		<tag k="name" v="Stormyr" />
		<tag k="natural" v="wetland" />
		<tag k="ssr:stedsnr" v="638530" />
	</node>
	<node lat="58.791266664656476" lon="8.702311109878444" id="-35564">
		<tag k="name" v="Smiholtet" />
		<tag k="place" v="locality" />
		<tag k="ssr:stedsnr" v="638907" />
	</node>
	<node lat="58.785244445474675" lon="8.669611111833483" id="-35566">
		<tag k="name" v="Skålslåtta" />
		<tag k="natural" v="wetland" />
		<tag k="ssr:stedsnr" v="638931" />
	</node>
	<node lat="58.79214444024702" lon="8.893111106536864" id="-35592">
		<tag k="name" v="Donåsmyra" />
		<tag k="natural" v="wetland" />
		<tag k="ssr:stedsnr" v="669510" />
	</node>
	<node lat="58.77196111344292" lon="8.744122217016864" id="-35595">
		<tag k="name" v="Kvernvassmyra" />
		<tag k="natural" v="wetland" />
		<tag k="ssr:stedsnr" v="699012" />
	</node>
	<node lat="58.71085833198047" lon="8.792338893770982" id="-35597">
		<tag k="name" v="Ramshaugkjerrene" />
		<tag k="natural" v="wetland" />
		<tag k="ssr:stedsnr" v="699022" />
	</node>
	<node lat="58.7203527798519" lon="8.834102781802729" id="-35600">
		<tag k="name" v="Bjørkesteene" />
		<tag k="natural" v="wetland" />
		<tag k="ssr:stedsnr" v="699064" />
	</node>
	<node lat="58.7271222185249" lon="8.846399992535066" id="-35603">
		<tag k="name" v="Spillsmyra" />
		<tag k="natural" v="wetland" />
		<tag k="ssr:stedsnr" v="699071" />
	</node>
	<node lat="58.71258610771486" lon="8.868211112420482" id="-35607">
		<tag k="name" v="Hasseldalskjerret" />
		<tag k="natural" v="wetland" />
		<tag k="ssr:stedsnr" v="699104" />
	</node>
	<node lat="58.72297777410714" lon="8.847347229489143" id="-35609">
		<tag k="name" v="Kartmyra" />
		<tag k="natural" v="wetland" />
		<tag k="ssr:stedsnr" v="699108" />
	</node>
	<node lat="58.76458888834402" lon="8.78155277405598" id="-35611">
		<tag k="name" v="Sågmyrene" />
		<tag k="natural" v="wetland" />
		<tag k="ssr:stedsnr" v="699166" />
	</node>
	<node lat="58.768277778306604" lon="8.836344443351672" id="-35614">
		<tag k="name" v="Sjølvskotmyra" />
		<tag k="natural" v="wetland" />
		<tag k="ssr:stedsnr" v="699310" />
	</node>
	<node lat="58.732533334153544" lon="8.841433329201298" id="-35617">
		<tag k="name" v="Dukmyr" />
		<tag k="natural" v="wetland" />
		<tag k="ssr:stedsnr" v="699271" />
	</node>
	<node lat="58.69934166532649" lon="8.875147224045534" id="-35619">
		<tag k="name" v="Grasåskjerrene" />
		<tag k="natural" v="wetland" />
		<tag k="ssr:stedsnr" v="699405" />
	</node>
	<node lat="58.73338888831832" lon="8.891819449906018" id="-35624">
		<tag k="name" v="Mosemyr" />
		<tag k="natural" v="wetland" />
		<tag k="ssr:stedsnr" v="699471" />
	</node>
	<node lat="58.797477773428525" lon="8.84993334178336" id="-35627">
		<tag k="name" v="Flåtmyra" />
		<tag k="natural" v="wetland" />
		<tag k="ssr:stedsnr" v="699371" />
	</node>
	<node lat="58.79971389067517" lon="8.79730278061928" id="-35644">
		<tag k="name" v="Gunnufstein" />
		<tag k="natural" v="stone" />
		<tag k="ssr:stedsnr" v="699827" />
	</node>
	<node lat="58.70336111492629" lon="8.679600003012382" id="-35660">
		<tag k="name" v="Stormyr" />
		<tag k="natural" v="wetland" />
		<tag k="ssr:stedsnr" v="729083" />
	</node>
	<node lat="58.809277777670566" lon="8.931186116578493" id="-35680">
		<tag k="name" v="Eilevsslått" />
		<tag k="natural" v="wetland" />
		<tag k="ssr:stedsnr" v="759103" />
	</node>
	<node lat="58.8082138904496" lon="8.938294449410032" id="-35681">
		<tag k="name" v="Lauvstakkmyra" />
		<tag k="natural" v="wetland" />
		<tag k="ssr:stedsnr" v="759105" />
	</node>
	<node lat="58.80851111517218" lon="8.733025004212298" id="-35683">
		<tag k="name" v="Karislått" />
		<tag k="natural" v="wetland" />
		<tag k="ssr:stedsnr" v="759127" />
	</node>
	<node lat="58.815744440018996" lon="8.734175004823687" id="-35684">
		<tag k="name" v="Tørjeslåttene" />
		<tag k="natural" v="wetland" />
		<tag k="ssr:stedsnr" v="759144" />
	</node>
	<node lat="58.81393889218129" lon="8.739666673697545" id="-35685">
		<tag k="name" v="Lille Karislått" />
		<tag k="natural" v="wetland" />
		<tag k="ssr:stedsnr" v="759145" />
	</node>
	<node lat="58.815036111502394" lon="8.745572230243717" id="-35686">
		<tag k="name" v="Store Karislått" />
		<tag k="natural" v="wetland" />
		<tag k="ssr:stedsnr" v="759148" />
	</node>
	<node lat="58.81736388462544" lon="8.753927783227253" id="-35687">
		<tag k="name" v="Øfsslåttsvåene" />
		<tag k="place" v="locality" />
		<tag k="ssr:stedsnr" v="759153" />
	</node>
	<node lat="58.76629444152586" lon="8.78977777485904" id="-35693">
		<tag k="name" v="Sågsteinen" />
		<tag k="natural" v="stone" />
		<tag k="ssr:stedsnr" v="759206" />
	</node>
	<node lat="58.762161112709805" lon="8.81106667121064" id="-35694">
		<tag k="name" v="Lauvesteene" />
		<tag k="natural" v="wetland" />
		<tag k="ssr:stedsnr" v="759209" />
	</node>
	<node lat="58.763719442209435" lon="8.8818027748313" id="-35696">
		<tag k="name" v="Flåtebrusteene" />
		<tag k="natural" v="wetland" />
		<tag k="ssr:stedsnr" v="759304" />
	</node>
	<node lat="58.75871944769599" lon="8.871591667251725" id="-35697">
		<tag k="name" v="Bjørnekjerr" />
		<tag k="natural" v="wetland" />
		<tag k="ssr:stedsnr" v="759307" />
	</node>
	<node lat="58.823588892523354" lon="8.916947225963773" id="-35707">
		<tag k="name" v="Nutkjerr" />
		<tag k="natural" v="wetland" />
		<tag k="ssr:stedsnr" v="759445" />
	</node>
	<node lat="58.64020833271936" lon="8.80540278228184" id="-35714">
		<tag k="name" v="Stølsmyr" />
		<tag k="natural" v="wetland" />
		<tag k="ssr:stedsnr" v="759723" />
	</node>
	<node lat="58.68405555657056" lon="8.746955562945573" id="-35716">
		<tag k="name" v="Ålekarmyra" />
		<tag k="natural" v="wetland" />
		<tag k="ssr:stedsnr" v="759649" />
	</node>
	<node lat="58.763569440164225" lon="8.770744442874316" id="-35723">
		<tag k="name" v="Budekkene" />
		<tag k="natural" v="wetland" />
		<tag k="ssr:stedsnr" v="760005" />
	</node>
	<node lat="58.68908889029482" lon="8.85049166608194" id="-35724">
		<tag k="name" v="Snaddkjerrene" />
		<tag k="natural" v="wetland" />
		<tag k="ssr:stedsnr" v="760050" />
	</node>
	<node lat="58.6910055546774" lon="8.817455559867218" id="-35725">
		<tag k="name" v="Songåsmyrene" />
		<tag k="natural" v="wetland" />
		<tag k="ssr:stedsnr" v="760053" />
	</node>
	<node lat="58.80159999874961" lon="8.935036114617857" id="-35727">
		<tag k="name" v="Moen" />
		<tag k="place" v="locality" />
		<tag k="ssr:stedsnr" v="760093" />
	</node>
	<node lat="58.732349999333245" lon="8.790111114341839" id="-35731">
		<tag k="name" v="Vikingmyr" />
		<tag k="natural" v="wetland" />
		<tag k="ssr:stedsnr" v="760204" />
	</node>
	<node lat="58.77457221820315" lon="8.794811118750049" id="-35733">
		<tag k="name" v="Alv Skånes stein" />
		<tag k="natural" v="stone" />
		<tag k="ssr:stedsnr" v="760208" />
	</node>
	<node lat="58.75524444838674" lon="8.745902772164241" id="-35736">
		<tag k="name" v="Tungehommen" />
		<tag k="place" v="locality" />
		<tag k="ssr:stedsnr" v="760215" />
	</node>
	<node lat="58.70521666632833" lon="8.961402784271083" id="-35741">
		<tag k="name" v="Bjørnekjerr" />
		<tag k="natural" v="wetland" />
		<tag k="ssr:stedsnr" v="760248" />
	</node>
	<node lat="58.66778889332297" lon="8.790516668752911" id="-35746">
		<tag k="name" v="Beinmyr" />
		<tag k="natural" v="wetland" />
		<tag k="ssr:stedsnr" v="760153" />
	</node>
	<node lat="58.82150833265532" lon="8.946630562482973" id="-35750">
		<tag k="name" v="Vestre Krokslåtta" />
		<tag k="natural" v="wetland" />
		<tag k="ssr:stedsnr" v="760307" />
	</node>
	<node lat="58.70982222647837" lon="8.917433336633476" id="-35754">
		<tag k="name" v="Sauknollmyra" />
		<tag k="natural" v="wetland" />
		<tag k="ssr:stedsnr" v="760442" />
	</node>
	<node lat="58.67786110880881" lon="8.764283339344772" id="-35759">
		<tag k="name" v="Harkjerr" />
		<tag k="natural" v="wetland" />
		<tag k="ssr:stedsnr" v="760642" />
	</node>
	<node lat="58.83400277368106" lon="8.790324995916295" id="-35766">
		<tag k="name" v="Grønfjellstykket" />
		<tag k="place" v="locality" />
		<tag k="ssr:stedsnr" v="760797" />
	</node>
	<node lat="58.79203888477422" lon="8.672072219896537" id="-35769">
		<tag k="name" v="Skålslåtta" />
		<tag k="natural" v="wetland" />
		<tag k="ssr:stedsnr" v="760902" />
	</node>
	<node lat="58.777599997426925" lon="8.933775000708431" id="-35815">
		<tag k="name" v="Tellefskjerr" />
		<tag k="natural" v="wetland" />
		<tag k="ssr:stedsnr" v="820023" />
	</node>
	<node lat="58.799591669383105" lon="8.908541669250882" id="-35816">
		<tag k="name" v="Porskjerr" />
		<tag k="natural" v="wetland" />
		<tag k="ssr:stedsnr" v="820107" />
	</node>
	<node lat="58.724077780624576" lon="8.919380560540308" id="-35817">
		<tag k="name" v="Myramyra" />
		<tag k="natural" v="wetland" />
		<tag k="ssr:stedsnr" v="820113" />
	</node>
	<node lat="58.81180833177691" lon="8.758933332683782" id="-35819">
		<tag k="name" v="Eikeslåtta" />
		<tag k="natural" v="wetland" />
		<tag k="ssr:stedsnr" v="820173" />
	</node>
	<node lat="58.809383337806" lon="8.76369167140601" id="-35820">
		<tag k="name" v="Skjolmyra" />
		<tag k="natural" v="wetland" />
		<tag k="ssr:stedsnr" v="820176" />
	</node>
	<node lat="58.766113887454416" lon="8.79788610440457" id="-35821">
		<tag k="name" v="Magnhildslåtta" />
		<tag k="natural" v="wetland" />
		<tag k="ssr:stedsnr" v="820215" />
	</node>
	<node lat="58.76409721834601" lon="8.82524722308665" id="-35822">
		<tag k="name" v="Mariskjerr" />
		<tag k="natural" v="wetland" />
		<tag k="ssr:stedsnr" v="820217" />
	</node>
	<node lat="58.756824999848796" lon="8.815480559181548" id="-35823">
		<tag k="name" v="Råbumyrene" />
		<tag k="natural" v="wetland" />
		<tag k="ssr:stedsnr" v="820223" />
	</node>
	<node lat="58.759438886785134" lon="8.92248611495164" id="-35827">
		<tag k="historic" v="shieling" />
		<tag k="name" v="Stølen" />
		<tag k="place" v="locality" />
		<tag k="ssr:stedsnr" v="820281" />
	</node>
	<node lat="58.81494444031974" lon="8.895327782583117" id="-35833">
		<tag k="name" v="Bjørndalenssteinen" />
		<tag k="natural" v="stone" />
		<tag k="ssr:stedsnr" v="820384" />
	</node>
	<node lat="58.813591670357525" lon="8.978416664918713" id="-35839">
		<tag k="name" v="Hallkjerra" />
		<tag k="natural" v="wetland" />
		<tag k="ssr:stedsnr" v="820568" />
	</node>
	<node lat="58.8205111069568" lon="8.95744999982148" id="-35840">
		<tag k="name" v="Storsteinsmyra" />
		<tag k="natural" v="wetland" />
		<tag k="ssr:stedsnr" v="820578" />
	</node>
	<node lat="58.63979167023987" lon="8.809527781192063" id="-35853">
		<tag k="name" v="Lyngmyr" />
		<tag k="natural" v="wetland" />
		<tag k="ssr:stedsnr" v="820712" />
	</node>
	<node lat="58.81946389321127" lon="8.744116674101846" id="-35855">
		<tag k="name" v="Nobbeslåtta" />
		<tag k="natural" v="wetland" />
		<tag k="ssr:stedsnr" v="820773" />
	</node>
	<node lat="58.83257777894997" lon="8.772586115406646" id="-35856">
		<tag k="name" v="Rundmyr" />
		<tag k="natural" v="wetland" />
		<tag k="ssr:stedsnr" v="820776" />
	</node>
	<node lat="58.787980551491195" lon="8.746027778704253" id="-35860">
		<tag k="name" v="Halvfarneskjerret" />
		<tag k="natural" v="wetland" />
		<tag k="ssr:stedsnr" v="820869" />
	</node>
	<node lat="58.71808055642101" lon="8.74212778000409" id="-35866">
		<tag k="name" v="Snømyr" />
		<tag k="natural" v="wetland" />
		<tag k="ssr:stedsnr" v="821183" />
	</node>
	<node lat="58.732708332845306" lon="8.89488055176809" id="-35872">
		<tag k="name" v="Lyngmyr" />
		<tag k="natural" v="wetland" />
		<tag k="ssr:stedsnr" v="821276" />
	</node>
	<node lat="58.758727778198086" lon="8.96948610755605" id="-35873">
		<tag k="name" v="Lille Lyngmyr" />
		<tag k="natural" v="wetland" />
		<tag k="ssr:stedsnr" v="821284" />
	</node>
	<node lat="58.77231944398357" lon="8.866827776120786" id="-35874">
		<tag k="name" v="Haukedalsskau" />
		<tag k="place" v="locality" />
		<tag k="ssr:stedsnr" v="821287" />
	</node>
	<node lat="58.702822220448546" lon="8.838333338324839" id="-35876">
		<tag k="name" v="Hommelskårhagen" />
		<tag k="place" v="locality" />
		<tag k="ssr:stedsnr" v="821417" />
	</node>
	<node lat="58.75601111487836" lon="8.67424443810394" id="-35879">
		<tag k="name" v="Tveitsmyr" />
		<tag k="natural" v="wetland" />
		<tag k="ssr:stedsnr" v="821966" />
	</node>
	<node lat="58.83753888906535" lon="8.92549167357637" id="-35885">
		<tag k="name" v="Ålkjerrmyra" />
		<tag k="natural" v="wetland" />
		<tag k="ssr:stedsnr" v="850109" />
	</node>
	<node lat="58.7783277802509" lon="8.927433337587352" id="-35897">
		<tag k="name" v="Lundeåsmyra" />
		<tag k="natural" v="wetland" />
		<tag k="ssr:stedsnr" v="851379" />
	</node>
	<node lat="58.78933333491071" lon="8.935644451543505" id="-35899">
		<tag k="name" v="Husmyr" />
		<tag k="natural" v="wetland" />
		<tag k="ssr:stedsnr" v="851416" />
	</node>
	<node lat="58.760138886614584" lon="8.756130553769689" id="-35902">
		<tag k="name" v="Høydalskjerrene" />
		<tag k="natural" v="wetland" />
		<tag k="ssr:stedsnr" v="881009" />
	</node>
	<node lat="58.813716669698046" lon="8.932641671063925" id="-35904">
		<tag k="name" v="Frubærkjerra" />
		<tag k="natural" v="wetland" />
		<tag k="ssr:stedsnr" v="881113" />
	</node>
	<node lat="58.72731111348812" lon="8.747666661906619" id="-35907">
		<tag k="name" v="Langmyr" />
		<tag k="natural" v="wetland" />
		<tag k="ssr:stedsnr" v="881150" />
	</node>
	<node lat="58.73626944871619" lon="8.761983330750018" id="-35912">
		<tag k="name" v="Mostekilen" />
		<tag k="natural" v="wetland" />
		<tag k="ssr:stedsnr" v="881167" />
	</node>
	<node lat="58.788786115561415" lon="8.901874999989372" id="-35915">
		<tag k="name" v="Ingeborgsmyr" />
		<tag k="natural" v="wetland" />
		<tag k="ssr:stedsnr" v="881050" />
	</node>
	<node lat="58.72205277347578" lon="8.902688885091777" id="-35916">
		<tag k="name" v="Hestekjerrene" />
		<tag k="natural" v="wetland" />
		<tag k="ssr:stedsnr" v="881102" />
	</node>
	<node lat="58.70328611401668" lon="8.716844452559375" id="-35917">
		<tag k="name" v="Kjumyr" />
		<tag k="natural" v="wetland" />
		<tag k="ssr:stedsnr" v="881204" />
	</node>
	<node lat="58.715986111549604" lon="8.787855553141075" id="-35920">
		<tag k="name" v="Heibekkmyr" />
		<tag k="natural" v="wetland" />
		<tag k="ssr:stedsnr" v="881214" />
	</node>
	<node lat="58.714502778069956" lon="8.780338895035088" id="-35922">
		<tag k="name" v="Langmyr" />
		<tag k="natural" v="wetland" />
		<tag k="ssr:stedsnr" v="881216" />
	</node>
	<node lat="58.720791664670685" lon="8.823244448354988" id="-35923">
		<tag k="name" v="Gamlemyr" />
		<tag k="natural" v="wetland" />
		<tag k="ssr:stedsnr" v="881218" />
	</node>
	<node lat="58.75812499829026" lon="8.737866671748996" id="-35924">
		<tag k="name" v="Moltekjerr" />
		<tag k="natural" v="wetland" />
		<tag k="ssr:stedsnr" v="881222" />
	</node>
	<node lat="58.69718333175751" lon="8.948472216208437" id="-35926">
		<tag k="name" v="Langevasshogsten" />
		<tag k="place" v="locality" />
		<tag k="ssr:stedsnr" v="881250" />
	</node>
	<node lat="58.80594166883453" lon="8.980880548787459" id="-35934">
		<tag k="name" v="Skorstølmyra" />
		<tag k="natural" v="wetland" />
		<tag k="ssr:stedsnr" v="881610" />
	</node>
	<node lat="58.77933610979237" lon="8.980030549856481" id="-35943">
		<tag k="name" v="Lilleslått" />
		<tag k="natural" v="wetland" />
		<tag k="ssr:stedsnr" v="881511" />
	</node>
	<node lat="58.77787222128357" lon="8.673005561765486" id="-35952">
		<tag k="name" v="Hullmyrkjerra" />
		<tag k="natural" v="wetland" />
		<tag k="ssr:stedsnr" v="881924" />
	</node>
	<node lat="58.761033335870245" lon="8.675405549564898" id="-35954">
		<tag k="name" v="Fågerlimyrene" />
		<tag k="natural" v="wetland" />
		<tag k="ssr:stedsnr" v="881960" />
	</node>
	<node lat="58.76301111167741" lon="8.830880554510786" id="-35970">
		<tag k="name" v="Furuheikjerra" />
		<tag k="natural" v="wetland" />
		<tag k="ssr:stedsnr" v="953704" />
	</node>
	<node lat="58.83386388604754" lon="8.910394447486727" id="-35978">
		<tag k="name" v="Eikebrekksmyra" />
		<tag k="natural" v="wetland" />
		<tag k="ssr:stedsnr" v="84" />
	</node>
	<node lat="58.75269444220435" lon="9.012800002382866" id="-36001">
		<tag k="name" v="Bjørkekjerr" />
		<tag k="natural" v="wetland" />
		<tag k="ssr:stedsnr" v="23963" />
	</node>
	<node lat="58.69528333562168" lon="8.742102770174526" id="-36002">
		<tag k="name" v="Fremstemyr" />
		<tag k="place" v="locality" />
		<tag k="ssr:stedsnr" v="31028" />
	</node>
	<node lat="58.68276944594909" lon="8.850474998651492" id="-36005">
		<tag k="name" v="Lyngmyr" />
		<tag k="natural" v="wetland" />
		<tag k="ssr:stedsnr" v="31042" />
	</node>
	<node lat="58.73162221802113" lon="8.874136104546464" id="-36010">
		<tag k="name" v="Langemyr" />
		<tag k="natural" v="wetland" />
		<tag k="ssr:stedsnr" v="31072" />
	</node>
	<node lat="58.813683337319695" lon="8.68559167122651" id="-36015">
		<tag k="name" v="Moripmyra" />
		<tag k="natural" v="wetland" />
		<tag k="ssr:stedsnr" v="31082" />
	</node>
	<node lat="58.74179722537519" lon="8.75645555315687" id="-36020">
		<tag k="name" v="Storste" />
		<tag k="natural" v="wetland" />
		<tag k="ssr:stedsnr" v="31187" />
	</node>
	<node lat="58.75325833114554" lon="8.753041664461323" id="-36021">
		<tag k="name" v="Fosstølsteene" />
		<tag k="natural" v="wetland" />
		<tag k="ssr:stedsnr" v="31189" />
	</node>
	<node lat="58.724838890470615" lon="8.806675008567735" id="-36023">
		<tag k="name" v="Blautmyr" />
		<tag k="natural" v="wetland" />
		<tag k="ssr:stedsnr" v="31191" />
	</node>
	<node lat="58.740038884531984" lon="8.752505557519498" id="-36024">
		<tag k="name" v="Kjørrfetmyra" />
		<tag k="natural" v="wetland" />
		<tag k="ssr:stedsnr" v="31197" />
	</node>
	<node lat="58.75983333184233" lon="8.778166669420678" id="-36026">
		<tag k="name" v="Årmannskjerret" />
		<tag k="natural" v="wetland" />
		<tag k="ssr:stedsnr" v="31199" />
	</node>
	<node lat="58.719461114284876" lon="8.87770555090827" id="-36034">
		<tag k="name" v="Bjormyra" />
		<tag k="natural" v="wetland" />
		<tag k="ssr:stedsnr" v="31131" />
	</node>
	<node lat="58.6586722178715" lon="8.772591664195534" id="-36035">
		<tag k="name" v="Høljesmyr" />
		<tag k="natural" v="wetland" />
		<tag k="ssr:stedsnr" v="31134" />
	</node>
	<node lat="58.805974998516355" lon="8.74121388061408" id="-36036">
		<tag k="name" v="Bjørnhikjerret" />
		<tag k="natural" v="wetland" />
		<tag k="ssr:stedsnr" v="31136" />
	</node>
	<node lat="58.809633336104866" lon="8.720950008517377" id="-36037">
		<tag k="name" v="Lille Diplemyr" />
		<tag k="natural" v="wetland" />
		<tag k="ssr:stedsnr" v="31137" />
	</node>
	<node lat="58.812441670108946" lon="8.76538889006548" id="-36040">
		<tag k="name" v="Skjolmyrkjerret" />
		<tag k="natural" v="wetland" />
		<tag k="ssr:stedsnr" v="31149" />
	</node>
	<node lat="58.71390555153026" lon="8.8063277764081" id="-36047">
		<tag k="name" v="Stakksneiskjerr" />
		<tag k="natural" v="wetland" />
		<tag k="ssr:stedsnr" v="31232" />
	</node>
	<node lat="58.71618333321221" lon="8.817663881971574" id="-36048">
		<tag k="name" v="Nordmyra" />
		<tag k="natural" v="wetland" />
		<tag k="ssr:stedsnr" v="31233" />
	</node>
	<node lat="58.760375002167066" lon="8.751172229643498" id="-36049">
		<tag k="name" v="Rørmyr" />
		<tag k="natural" v="wetland" />
		<tag k="ssr:stedsnr" v="31237" />
	</node>
	<node lat="58.74246944198264" lon="8.863191671850657" id="-36050">
		<tag k="name" v="Grønnste" />
		<tag k="place" v="locality" />
		<tag k="ssr:stedsnr" v="31245" />
	</node>
	<node lat="58.711491663742876" lon="8.947430561623165" id="-36052">
		<tag k="name" v="Trandelbrukjerret" />
		<tag k="natural" v="wetland" />
		<tag k="ssr:stedsnr" v="31250" />
	</node>
	<node lat="58.74841944472105" lon="8.929225006225845" id="-36055">
		<tag k="name" v="Ånonsmyr" />
		<tag k="natural" v="wetland" />
		<tag k="ssr:stedsnr" v="31257" />
	</node>
	<node lat="58.82124444390933" lon="8.973647218059938" id="-36057">
		<tag k="name" v="Østre Langkjerr" />
		<tag k="natural" v="wetland" />
		<tag k="ssr:stedsnr" v="31299" />
	</node>
	<node lat="58.829383337741795" lon="8.93501389646859" id="-36062">
		<tag k="name" v="Moltemyrsteene" />
		<tag k="natural" v="wetland" />
		<tag k="ssr:stedsnr" v="31385" />
	</node>
	<node lat="58.82556944097265" lon="8.915508331220305" id="-36064">
		<tag k="name" v="Groskjerr" />
		<tag k="natural" v="wetland" />
		<tag k="ssr:stedsnr" v="31395" />
	</node>
	<node lat="58.70251666395631" lon="8.864780560072123" id="-36065">
		<tag k="name" v="Det runde kjerret" />
		<tag k="natural" v="wetland" />
		<tag k="ssr:stedsnr" v="31400" />
	</node>
	<node lat="58.72387222041367" lon="8.973055561861923" id="-36071">
		<tag k="name" v="Ingridskjerr" />
		<tag k="natural" v="wetland" />
		<tag k="ssr:stedsnr" v="31494" />
	</node>
	<node lat="58.72373611194448" lon="8.97714167071707" id="-36072">
		<tag k="name" v="Trettemyr" />
		<tag k="natural" v="wetland" />
		<tag k="ssr:stedsnr" v="31497" />
	</node>
	<node lat="58.72222222199901" lon="8.974272217731409" id="-36073">
		<tag k="name" v="Lille Trettemyr" />
		<tag k="natural" v="wetland" />
		<tag k="ssr:stedsnr" v="31499" />
	</node>
	<node lat="58.825644447052476" lon="8.959819448114859" id="-36074">
		<tag k="name" v="Torjusmyr" />
		<tag k="natural" v="wetland" />
		<tag k="ssr:stedsnr" v="31597" />
	</node>
	<node lat="58.84357222076546" lon="8.786483336676222" id="-36077">
		<tag k="name" v="Sugga" />
		<tag k="natural" v="stone" />
		<tag k="ssr:stedsnr" v="31785" />
	</node>
	<node lat="58.82150833630553" lon="8.776661114686753" id="-36078">
		<tag k="name" v="Graskjerra" />
		<tag k="natural" v="wetland" />
		<tag k="ssr:stedsnr" v="31788" />
	</node>
	<node lat="58.82438055282731" lon="8.925475001217993" id="-36083">
		<tag k="name" v="Kartane" />
		<tag k="natural" v="wetland" />
		<tag k="ssr:stedsnr" v="31454" />
	</node>
	<node lat="58.704330558492536" lon="8.912333329720488" id="-36084">
		<tag k="name" v="Steinsmyrkjerr" />
		<tag k="natural" v="wetland" />
		<tag k="ssr:stedsnr" v="31455" />
	</node>
	<node lat="58.74584999867621" lon="8.951738888832432" id="-36087">
		<tag k="name" v="Holbekkmyra" />
		<tag k="natural" v="wetland" />
		<tag k="ssr:stedsnr" v="31557" />
	</node>
	<node lat="58.745088889134735" lon="8.95355833657514" id="-36088">
		<tag k="name" v="Krokmyr" />
		<tag k="natural" v="wetland" />
		<tag k="ssr:stedsnr" v="31559" />
	</node>
	<node lat="58.67893889292177" lon="8.769947226749315" id="-36093">
		<tag k="name" v="Røyrkjerr" />
		<tag k="natural" v="wetland" />
		<tag k="ssr:stedsnr" v="31661" />
	</node>
	<node lat="58.713836109877164" lon="8.677824993663009" id="-36096">
		<tag k="name" v="Bæråsmyra" />
		<tag k="natural" v="wetland" />
		<tag k="ssr:stedsnr" v="31742" />
	</node>
	<node lat="58.677716665238435" lon="8.779736118346461" id="-36104">
		<tag k="name" v="Tørrmokjerra" />
		<tag k="natural" v="wetland" />
		<tag k="ssr:stedsnr" v="31686" />
	</node>
	<node lat="58.75431944476626" lon="8.685305563526747" id="-36107">
		<tag k="name" v="Strandmyr" />
		<tag k="natural" v="wetland" />
		<tag k="ssr:stedsnr" v="31880" />
	</node>
	<node lat="58.748913887305115" lon="8.692330548582476" id="-36108">
		<tag k="name" v="Åvoldskjerr" />
		<tag k="natural" v="wetland" />
		<tag k="ssr:stedsnr" v="31881" />
	</node>
	<node lat="58.73621111251621" lon="8.703761107798261" id="-36110">
		<tag k="name" v="Foreknutsmyra" />
		<tag k="natural" v="wetland" />
		<tag k="ssr:stedsnr" v="31899" />
	</node>
	<node lat="58.74820277961805" lon="8.675875003189068" id="-36113">
		<tag k="name" v="Ormslåtta" />
		<tag k="natural" v="wetland" />
		<tag k="ssr:stedsnr" v="31997" />
	</node>
	<node lat="58.75876666544325" lon="8.840605555220378" id="-36118">
		<tag k="name" v="Dei lange kjerra" />
		<tag k="natural" v="wetland" />
		<tag k="ssr:stedsnr" v="43659" />
	</node>
	<node lat="58.84139444214001" lon="8.87282778093585" id="-36146">
		<tag k="name" v="Kortmyr" />
		<tag k="natural" v="wetland" />
		<tag k="ssr:stedsnr" v="62098" />
	</node>
	<node lat="58.69037761649972" lon="8.946729460394133" id="-36155">
		<tag k="name" v="Djupmyr" />
		<tag k="natural" v="wetland" />
		<tag k="ssr:stedsnr" v="90279" />
	</node>
	<node lat="58.77978889333422" lon="8.896613885213606" id="-36157">
		<tag k="name" v="Rørkjerr" />
		<tag k="natural" v="wetland" />
		<tag k="ssr:stedsnr" v="92025" />
	</node>
	<node lat="58.68500555832286" lon="8.827463893329561" id="-36164">
		<tag k="name" v="Bjønnbakkjerr" />
		<tag k="natural" v="wetland" />
		<tag k="ssr:stedsnr" v="92042" />
	</node>
	<node lat="58.69593055665942" lon="8.821799994419234" id="-36166">
		<tag k="name" v="Hedalssteene" />
		<tag k="place" v="locality" />
		<tag k="ssr:stedsnr" v="92009" />
	</node>
	<node lat="58.724524995987544" lon="8.928699993349625" id="-36168">
		<tag k="name" v="Dukmyr" />
		<tag k="natural" v="wetland" />
		<tag k="ssr:stedsnr" v="92086" />
	</node>
	<node lat="58.790169446883354" lon="8.807008335820273" id="-36171">
		<tag k="name" v="Elgedalsmyra" />
		<tag k="natural" v="wetland" />
		<tag k="ssr:stedsnr" v="92752" />
	</node>
	<node lat="58.7902666703293" lon="8.908933332060414" id="-36172">
		<tag k="name" v="Revkjerr" />
		<tag k="natural" v="wetland" />
		<tag k="ssr:stedsnr" v="92044" />
	</node>
	<node lat="58.695627779368856" lon="8.779786118867529" id="-36174">
		<tag k="name" v="Kjørkholtkjerrene" />
		<tag k="natural" v="wetland" />
		<tag k="ssr:stedsnr" v="92050" />
	</node>
	<node lat="58.784688888156886" lon="8.875102784073624" id="-36175">
		<tag k="name" v="Høljelandsmyra" />
		<tag k="natural" v="wetland" />
		<tag k="ssr:stedsnr" v="92062" />
	</node>
	<node lat="58.81049444192605" lon="8.753452780777488" id="-36178">
		<tag k="name" v="Eikelia" />
		<tag k="place" v="locality" />
		<tag k="ssr:stedsnr" v="92135" />
	</node>
	<node lat="58.66657778000307" lon="8.784713897246204" id="-36181">
		<tag k="name" v="Skrubbmyr" />
		<tag k="natural" v="wetland" />
		<tag k="ssr:stedsnr" v="92148" />
	</node>
	<node lat="58.72049722658419" lon="8.726938889448158" id="-36183">
		<tag k="name" v="Gjeldlauvsmyr" />
		<tag k="natural" v="wetland" />
		<tag k="ssr:stedsnr" v="92157" />
	</node>
	<node lat="58.7450944432047" lon="8.774986106594703" id="-36184">
		<tag k="name" v="Rustmyr" />
		<tag k="natural" v="wetland" />
		<tag k="ssr:stedsnr" v="92160" />
	</node>
	<node lat="58.758966664836095" lon="8.735636113155527" id="-36186">
		<tag k="name" v="Hestkjerr" />
		<tag k="natural" v="wetland" />
		<tag k="ssr:stedsnr" v="92234" />
	</node>
	<node lat="58.80299722532547" lon="8.912302777515446" id="-36194">
		<tag k="name" v="Rørkjerr" />
		<tag k="natural" v="wetland" />
		<tag k="ssr:stedsnr" v="92092" />
	</node>
	<node lat="58.801561111923355" lon="8.986791664880862" id="-36198">
		<tag k="name" v="Vestre Kortmyr" />
		<tag k="natural" v="wetland" />
		<tag k="ssr:stedsnr" v="92288" />
	</node>
	<node lat="58.73961944415683" lon="8.829950000733035" id="-36199">
		<tag k="name" v="Barbrosmyr" />
		<tag k="natural" v="wetland" />
		<tag k="ssr:stedsnr" v="92290" />
	</node>
	<node lat="58.77354722516681" lon="8.898097229945238" id="-36200">
		<tag k="name" v="Tollslåtta" />
		<tag k="natural" v="wetland" />
		<tag k="ssr:stedsnr" v="92292" />
	</node>
	<node lat="58.79735000113048" lon="8.701708330143543" id="-36201">
		<tag k="name" v="Nedre Jørnsmyr" />
		<tag k="natural" v="wetland" />
		<tag k="ssr:stedsnr" v="92301" />
	</node>
	<node lat="58.82780555752547" lon="8.937916663114644" id="-36204">
		<tag k="name" v="Rundmyr" />
		<tag k="natural" v="wetland" />
		<tag k="ssr:stedsnr" v="92400" />
	</node>
	<node lat="58.72969999722516" lon="8.94646111561009" id="-36206">
		<tag k="name" v="Rundmyr" />
		<tag k="natural" v="wetland" />
		<tag k="ssr:stedsnr" v="92487" />
	</node>
	<node lat="58.84249444607156" lon="8.840741661875697" id="-36208">
		<tag k="name" v="Torgrimsmyr" />
		<tag k="natural" v="wetland" />
		<tag k="ssr:stedsnr" v="92493" />
	</node>
	<node lat="58.692883331240864" lon="8.871644436639016" id="-36210">
		<tag k="name" v="Diplan" />
		<tag k="natural" v="wetland" />
		<tag k="ssr:stedsnr" v="92418" />
	</node>
	<node lat="58.768241664326744" lon="8.96950555183285" id="-36221">
		<tag k="name" v="Geitbrumyra" />
		<tag k="natural" v="wetland" />
		<tag k="ssr:stedsnr" v="92533" />
	</node>
	<node lat="58.76218888777011" lon="8.989588881635948" id="-36222">
		<tag k="name" v="Eksjøkjerr" />
		<tag k="natural" v="wetland" />
		<tag k="ssr:stedsnr" v="92537" />
	</node>
	<node lat="58.75999444257711" lon="8.971305551902564" id="-36224">
		<tag k="name" v="Bjørstemkjerrene" />
		<tag k="natural" v="wetland" />
		<tag k="ssr:stedsnr" v="92544" />
	</node>
	<node lat="58.80992222506314" lon="8.941980547058305" id="-36225">
		<tag k="name" v="Orremyra" />
		<tag k="natural" v="wetland" />
		<tag k="ssr:stedsnr" v="92587" />
	</node>
	<node lat="58.84247221868482" lon="8.806902779210402" id="-36226">
		<tag k="name" v="Den runde myra" />
		<tag k="natural" v="wetland" />
		<tag k="ssr:stedsnr" v="92596" />
	</node>
	<node lat="58.822375000802396" lon="8.9498638930075" id="-36227">
		<tag k="name" v="Krokslåtta" />
		<tag k="natural" v="wetland" />
		<tag k="ssr:stedsnr" v="92598" />
	</node>
	<node lat="58.68102777880055" lon="8.786172228531102" id="-36228">
		<tag k="name" v="Venhaugmyra" />
		<tag k="natural" v="wetland" />
		<tag k="ssr:stedsnr" v="92679" />
	</node>
	<node lat="58.826633329831296" lon="8.774122224009924" id="-36234">
		<tag k="name" v="Risfjellmyra" />
		<tag k="natural" v="wetland" />
		<tag k="ssr:stedsnr" v="92787" />
	</node>
	<node lat="58.8314083325475" lon="8.810666669175838" id="-36235">
		<tag k="name" v="Graskjerret" />
		<tag k="natural" v="wetland" />
		<tag k="ssr:stedsnr" v="92791" />
	</node>
	<node lat="58.83490278182987" lon="8.804474999032385" id="-36236">
		<tag k="name" v="Stormyrlunden" />
		<tag k="place" v="locality" />
		<tag k="ssr:stedsnr" v="92792" />
	</node>
	<node lat="58.80040277698166" lon="8.698002782323758" id="-36240">
		<tag k="name" v="Svartufskjerra" />
		<tag k="natural" v="wetland" />
		<tag k="ssr:stedsnr" v="92887" />
	</node>
	<node lat="58.78413055954219" lon="8.6934916630489" id="-36243">
		<tag k="name" v="Orrenesmyra" />
		<tag k="natural" v="wetland" />
		<tag k="ssr:stedsnr" v="92903" />
	</node>
	<node lat="58.67408333475635" lon="8.74786666031588" id="-36247">
		<tag k="name" v="Eriksmyr" />
		<tag k="natural" v="wetland" />
		<tag k="ssr:stedsnr" v="92645" />
	</node>
	<node lat="58.78583889265104" lon="8.733136102886988" id="-36255">
		<tag k="name" v="Dei lange kjerrene" />
		<tag k="natural" v="wetland" />
		<tag k="ssr:stedsnr" v="92844" />
	</node>
	<node lat="58.76923333446893" lon="8.688163885545908" id="-36260">
		<tag k="name" v="Løvnesslåtta" />
		<tag k="natural" v="wetland" />
		<tag k="ssr:stedsnr" v="92945" />
	</node>
	<node lat="58.84698333440016" lon="8.820244438749326" id="-36269">
		<tag k="alt_name" v="Trandlemyrene" />
		<tag k="name" v="Trandlemyrane" />
		<tag k="natural" v="wetland" />
		<tag k="ssr:stedsnr" v="122732" />
	</node>
	<node lat="58.76748055656665" lon="8.799574999255366" id="-36282">
		<tag k="alt_name" v="Kortmyr, store;Store Kartmyr" />
		<tag k="name" v="Store Kortmyr" />
		<tag k="natural" v="wetland" />
		<tag k="ssr:stedsnr" v="122535" />
	</node>
	<node lat="58.80563611441518" lon="8.68106666565493" id="-36289">
		<tag k="name" v="Blautmyr" />
		<tag k="natural" v="wetland" />
		<tag k="ssr:stedsnr" v="122572" />
	</node>
	<node lat="58.73933610971137" lon="8.807316660568787" id="-36302">
		<tag k="name" v="Bjørkesteene" />
		<tag k="natural" v="wetland" />
		<tag k="ssr:stedsnr" v="152178" />
	</node>
	<node lat="58.814913888175596" lon="8.726583337999513" id="-36303">
		<tag k="name" v="Dei tykke holta" />
		<tag k="place" v="locality" />
		<tag k="ssr:stedsnr" v="152189" />
	</node>
	<node lat="58.73542222574338" lon="8.732958336531158" id="-36304">
		<tag k="name" v="Fjellmyr" />
		<tag k="natural" v="wetland" />
		<tag k="ssr:stedsnr" v="152194" />
	</node>
	<node lat="58.74548055153707" lon="8.853725006209217" id="-36305">
		<tag k="name" v="Fuglemyrholene" />
		<tag k="natural" v="wetland" />
		<tag k="ssr:stedsnr" v="152274" />
	</node>
	<node lat="58.64987222596365" lon="8.835311107586577" id="-36312">
		<tag k="name" v="Lille Vassendmyra" />
		<tag k="natural" v="wetland" />
		<tag k="ssr:stedsnr" v="153086" />
	</node>
	<node lat="58.79874166503311" lon="8.933552769966031" id="-36313">
		<tag k="name" v="Fisketjennmyra" />
		<tag k="natural" v="wetland" />
		<tag k="ssr:stedsnr" v="153088" />
	</node>
	<node lat="58.721916662671305" lon="8.79893333660735" id="-36317">
		<tag k="name" v="Lyngmyr" />
		<tag k="natural" v="wetland" />
		<tag k="ssr:stedsnr" v="153184" />
	</node>
	<node lat="58.717855559351634" lon="8.81149443597048" id="-36318">
		<tag k="name" v="Tverrmyr" />
		<tag k="natural" v="wetland" />
		<tag k="ssr:stedsnr" v="153186" />
	</node>
	<node lat="58.72190833022689" lon="8.735927782436308" id="-36319">
		<tag k="name" v="Nedre Jordsmyr" />
		<tag k="natural" v="wetland" />
		<tag k="ssr:stedsnr" v="153187" />
	</node>
	<node lat="58.71464999612998" lon="8.727841665159225" id="-36321">
		<tag k="name" v="Stormyr" />
		<tag k="natural" v="wetland" />
		<tag k="ssr:stedsnr" v="153195" />
	</node>
	<node lat="58.75601388733787" lon="8.798600005080555" id="-36322">
		<tag k="name" v="Stemmyr" />
		<tag k="natural" v="wetland" />
		<tag k="ssr:stedsnr" v="153196" />
	</node>
	<node lat="58.71445833455085" lon="8.721122229721725" id="-36323">
		<tag k="name" v="Eidgranskilen" />
		<tag k="natural" v="wetland" />
		<tag k="ssr:stedsnr" v="153197" />
	</node>
	<node lat="58.72023055896814" lon="8.95083610401706" id="-36324">
		<tag k="name" v="Rugdemyr" />
		<tag k="natural" v="wetland" />
		<tag k="ssr:stedsnr" v="153256" />
	</node>
	<node lat="58.69491944392149" lon="8.723402783821966" id="-36326">
		<tag k="name" v="Røyrmyr" />
		<tag k="natural" v="wetland" />
		<tag k="ssr:stedsnr" v="153267" />
	</node>
	<node lat="58.74455833423908" lon="8.884263897494185" id="-36327">
		<tag k="name" v="Varselkjerret" />
		<tag k="natural" v="wetland" />
		<tag k="ssr:stedsnr" v="152526" />
	</node>
	<node lat="58.84269722138281" lon="8.906561115971224" id="-36328">
		<tag k="name" v="Bråkollskjerret" />
		<tag k="natural" v="wetland" />
		<tag k="ssr:stedsnr" v="152533" />
	</node>
	<node lat="58.78908055417132" lon="8.910030563513695" id="-36337">
		<tag k="name" v="Kamperhaugmyra" />
		<tag k="natural" v="wetland" />
		<tag k="ssr:stedsnr" v="153035" />
	</node>
	<node lat="58.78015833280245" lon="8.800786117992565" id="-36341">
		<tag k="name" v="Småmyrene" />
		<tag k="natural" v="wetland" />
		<tag k="ssr:stedsnr" v="153789" />
	</node>
	<node lat="58.78298055549149" lon="8.784450008058045" id="-36342">
		<tag k="name" v="Forbumyra" />
		<tag k="natural" v="wetland" />
		<tag k="old_name" v="Fobumyra" />
		<tag k="ssr:stedsnr" v="153793" />
	</node>
	<node lat="58.75874722169918" lon="8.668702779407083" id="-36343">
		<tag k="name" v="Hustjennslåtta" />
		<tag k="natural" v="wetland" />
		<tag k="ssr:stedsnr" v="153971" />
	</node>
	<node lat="58.75362222540262" lon="8.654394446664488" id="-36345">
		<tag k="name" v="Persmyr" />
		<tag k="natural" v="wetland" />
		<tag k="ssr:stedsnr" v="153984" />
	</node>
	<node lat="58.741566667801834" lon="8.622488885060502" id="-36347">
		<tag k="name" v="Raudhellmyra" />
		<tag k="natural" v="wetland" />
		<tag k="ssr:stedsnr" v="153992" />
	</node>
	<node lat="58.655947226090845" lon="8.763783327888614" id="-36352">
		<tag k="name" v="Røykmyr" />
		<tag k="natural" v="wetland" />
		<tag k="ssr:stedsnr" v="153141" />
	</node>
	<node lat="58.655213888885896" lon="8.766086104439466" id="-36354">
		<tag k="name" v="Storste" />
		<tag k="natural" v="wetland" />
		<tag k="ssr:stedsnr" v="153143" />
	</node>
	<node lat="58.71459444124755" lon="8.78635556327073" id="-36357">
		<tag k="name" v="Skarkmyr" />
		<tag k="natural" v="wetland" />
		<tag k="ssr:stedsnr" v="153231" />
	</node>
	<node lat="58.73123610842472" lon="8.952405555966331" id="-36367">
		<tag k="name" v="Øygardsmyra" />
		<tag k="natural" v="wetland" />
		<tag k="ssr:stedsnr" v="153489" />
	</node>
	<node lat="58.69184166310588" lon="8.935555549056282" id="-36368">
		<tag k="name" v="Lyngrotmyra" />
		<tag k="natural" v="wetland" />
		<tag k="ssr:stedsnr" v="153271" />
	</node>
	<node lat="58.745788890974175" lon="8.888541663582071" id="-36376">
		<tag k="name" v="Varselkjerret" />
		<tag k="natural" v="wetland" />
		<tag k="ssr:stedsnr" v="153495" />
	</node>
	<node lat="58.81136389252686" lon="8.961297214955776" id="-36377">
		<tag k="name" v="Steinbekkslåtta" />
		<tag k="natural" v="wetland" />
		<tag k="ssr:stedsnr" v="153574" />
	</node>
	<node lat="58.810622219023195" lon="8.974369448100331" id="-36379">
		<tag k="name" v="Fuglevingen" />
		<tag k="natural" v="wetland" />
		<tag k="ssr:stedsnr" v="153583" />
	</node>
	<node lat="58.680388891954166" lon="8.728191659853275" id="-36381">
		<tag k="name" v="Vassendslåtta" />
		<tag k="natural" v="wetland" />
		<tag k="ssr:stedsnr" v="153662" />
	</node>
	<node lat="58.683997222059396" lon="8.781827775753085" id="-36385">
		<tag k="name" v="Diplemyr" />
		<tag k="natural" v="wetland" />
		<tag k="ssr:stedsnr" v="153693" />
	</node>
	<node lat="58.80499444458649" lon="8.939427780499095" id="-36391">
		<tag k="name" v="Lillemyr" />
		<tag k="natural" v="wetland" />
		<tag k="ssr:stedsnr" v="153636" />
	</node>
	<node lat="58.80903333687691" lon="8.99391110699416" id="-36392">
		<tag k="name" v="Lyngmyr" />
		<tag k="natural" v="wetland" />
		<tag k="ssr:stedsnr" v="153643" />
	</node>
	<node lat="58.83231111396998" lon="8.797886116919136" id="-36393">
		<tag k="name" v="Langkjerr" />
		<tag k="natural" v="wetland" />
		<tag k="ssr:stedsnr" v="153836" />
	</node>
	<node lat="58.82708889241688" lon="8.809086114605131" id="-36394">
		<tag k="landuse" v="meadow" />
		<tag k="name" v="Vollen" />
		<tag k="ssr:stedsnr" v="153838" />
	</node>
	<node lat="58.79856666313841" lon="8.677849996197892" id="-36396">
		<tag k="name" v="Vestre Taklimyra" />
		<tag k="natural" v="wetland" />
		<tag k="ssr:stedsnr" v="153933" />
	</node>
	<node lat="58.79542222445268" lon="8.680130555904686" id="-36398">
		<tag k="name" v="Høgfjellskjerra" />
		<tag k="natural" v="wetland" />
		<tag k="ssr:stedsnr" v="153939" />
	</node>
	<node lat="58.750630554613316" lon="8.676725001682227" id="-36399">
		<tag k="name" v="Lille Kringlemyr" />
		<tag k="natural" v="wetland" />
		<tag k="ssr:stedsnr" v="153998" />
	</node>
	<node lat="58.800405637124115" lon="8.898507444920195" id="-36402">
		<tag k="name" v="Torgrimsmyr" />
		<tag k="natural" v="wetland" />
		<tag k="ssr:stedsnr" v="182005" />
	</node>
	<node lat="58.835441662977445" lon="8.790349998515712" id="-36414">
		<tag k="name" v="Stormyr" />
		<tag k="natural" v="wetland" />
		<tag k="ssr:stedsnr" v="183185" />
	</node>
	<node lat="58.78101666976777" lon="8.66203888569968" id="-36415">
		<tag k="name" v="Venemyr" />
		<tag k="natural" v="wetland" />
		<tag k="ssr:stedsnr" v="183588" />
	</node>
	<node lat="58.78552778137912" lon="8.895413882992893" id="-36438">
		<tag k="name" v="Byttingsmyr" />
		<tag k="natural" v="wetland" />
		<tag k="ssr:stedsnr" v="184465" />
	</node>
	<node lat="58.68183055296367" lon="8.836422218155196" id="-36440">
		<tag k="name" v="Gaupkjerr" />
		<tag k="natural" v="wetland" />
		<tag k="ssr:stedsnr" v="214036" />
	</node>
	<node lat="58.792405551464405" lon="8.897166658898122" id="-36442">
		<tag k="name" v="Syltemyr" />
		<tag k="natural" v="wetland" />
		<tag k="ssr:stedsnr" v="214041" />
	</node>
	<node lat="58.72541110740254" lon="8.83123333273779" id="-36446">
		<tag k="name" v="Stampekjerr" />
		<tag k="natural" v="wetland" />
		<tag k="ssr:stedsnr" v="214056" />
	</node>
	<node lat="58.70484722324483" lon="8.808952773948029" id="-36452">
		<tag k="name" v="Bågstølmyra" />
		<tag k="natural" v="wetland" />
		<tag k="ssr:stedsnr" v="214019" />
	</node>
	<node lat="58.70513888777092" lon="8.794791674126117" id="-36453">
		<tag k="name" v="Stormyr" />
		<tag k="natural" v="wetland" />
		<tag k="ssr:stedsnr" v="214021" />
	</node>
	<node lat="58.80411388936068" lon="8.700713886346017" id="-36457">
		<tag k="name" v="Nordre Bløyta" />
		<tag k="natural" v="wetland" />
		<tag k="ssr:stedsnr" v="214920" />
	</node>
	<node lat="58.729447220814755" lon="8.87195000320826" id="-36461">
		<tag k="name" v="Voksdalsmyra" />
		<tag k="natural" v="wetland" />
		<tag k="ssr:stedsnr" v="214067" />
	</node>
	<node lat="58.727961111570245" lon="8.768313895354089" id="-36465">
		<tag k="name" v="Rønningsmyr" />
		<tag k="natural" v="wetland" />
		<tag k="ssr:stedsnr" v="214137" />
	</node>
	<node lat="58.72454444254869" lon="8.818922222211848" id="-36470">
		<tag k="name" v="Kartmyr" />
		<tag k="natural" v="wetland" />
		<tag k="ssr:stedsnr" v="214156" />
	</node>
	<node lat="58.721727781436634" lon="8.782383325654106" id="-36472">
		<tag k="name" v="Espelandsmyra" />
		<tag k="natural" v="wetland" />
		<tag k="ssr:stedsnr" v="214162" />
	</node>
	<node lat="58.743558336869896" lon="8.762805550189327" id="-36473">
		<tag k="name" v="Kjørkemyra" />
		<tag k="natural" v="wetland" />
		<tag k="ssr:stedsnr" v="214166" />
	</node>
	<node lat="58.77050833058663" lon="8.903644452291624" id="-36482">
		<tag k="name" v="Vinterkjerr" />
		<tag k="natural" v="wetland" />
		<tag k="ssr:stedsnr" v="214261" />
	</node>
	<node lat="58.77296388696582" lon="8.916083333255896" id="-36484">
		<tag k="name" v="Hansesmyr" />
		<tag k="natural" v="wetland" />
		<tag k="ssr:stedsnr" v="214270" />
	</node>
	<node lat="58.77193055722378" lon="8.799147221039723" id="-36485">
		<tag k="name" v="Djupkjerr" />
		<tag k="natural" v="wetland" />
		<tag k="ssr:stedsnr" v="214199" />
	</node>
	<node lat="58.713255558381306" lon="8.943011118203588" id="-36486">
		<tag k="name" v="Dekkjerr" />
		<tag k="natural" v="wetland" />
		<tag k="old_name" v="Dekkkjerr" />
		<tag k="ssr:stedsnr" v="214220" />
	</node>
	<node lat="58.677813886796216" lon="8.771808333677178" id="-36493">
		<tag k="name" v="Ytre Røyrkjerr" />
		<tag k="natural" v="wetland" />
		<tag k="ssr:stedsnr" v="214700" />
	</node>
	<node lat="58.83907222236788" lon="8.920463896337692" id="-36501">
		<tag k="name" v="Skipreimyra" />
		<tag k="natural" v="wetland" />
		<tag k="ssr:stedsnr" v="214460" />
	</node>
	<node lat="58.740099995962694" lon="8.950336116437994" id="-36508">
		<tag k="name" v="Bakkansmyra" />
		<tag k="natural" v="wetland" />
		<tag k="ssr:stedsnr" v="214548" />
	</node>
	<node lat="58.81011111363406" lon="8.97041388468869" id="-36510">
		<tag k="name" v="Bakkslåtta" />
		<tag k="natural" v="wetland" />
		<tag k="ssr:stedsnr" v="214565" />
	</node>
	<node lat="58.68488333439381" lon="8.727627769455768" id="-36518">
		<tag k="name" v="Flækåskjerret" />
		<tag k="natural" v="wetland" />
		<tag k="ssr:stedsnr" v="214669" />
	</node>
	<node lat="58.64491111026392" lon="8.803066674486823" id="-36521">
		<tag k="name" v="Bjorstemkjerra" />
		<tag k="natural" v="wetland" />
		<tag k="ssr:stedsnr" v="214744" />
	</node>
	<node lat="58.64512778078016" lon="8.810808337908053" id="-36522">
		<tag k="name" v="Trandlebrukjerret" />
		<tag k="natural" v="wetland" />
		<tag k="ssr:stedsnr" v="214748" />
	</node>
	<node lat="58.64475555953308" lon="8.808641659469226" id="-36523">
		<tag k="name" v="Stuttjennkjerra" />
		<tag k="natural" v="wetland" />
		<tag k="ssr:stedsnr" v="214749" />
	</node>
	<node lat="58.787366667317265" lon="8.822583333483283" id="-36528">
		<tag k="name" v="Revura" />
		<tag k="natural" v="scree" />
		<tag k="ssr:stedsnr" v="214769" />
	</node>
	<node lat="58.81499721879993" lon="8.773672224737721" id="-36529">
		<tag k="name" v="Bertesmyr" />
		<tag k="natural" v="wetland" />
		<tag k="ssr:stedsnr" v="214844" />
	</node>
	<node lat="58.86619166527821" lon="8.800691671428552" id="-36535">
		<tag k="name" v="Ringslåtta" />
		<tag k="natural" v="wetland" />
		<tag k="ssr:stedsnr" v="214954" />
	</node>
	<node lat="58.771658335629176" lon="8.693533338869976" id="-36537">
		<tag k="name" v="Grandalsmyra" />
		<tag k="natural" v="wetland" />
		<tag k="ssr:stedsnr" v="214959" />
	</node>
	<node lat="58.77868610920361" lon="8.913313883777821" id="-36542">
		<tag k="name" v="Bjordammen" />
		<tag k="natural" v="wetland" />
		<tag k="ssr:stedsnr" v="274018" />
	</node>
	<node lat="58.729633336899234" lon="8.923261116873766" id="-36543">
		<tag k="name" v="Kringlemyr" />
		<tag k="natural" v="wetland" />
		<tag k="ssr:stedsnr" v="274098" />
	</node>
	<node lat="58.713716667856346" lon="8.863761112297903" id="-36544">
		<tag k="name" v="Granmyr" />
		<tag k="natural" v="wetland" />
		<tag k="ssr:stedsnr" v="274115" />
	</node>
	<node lat="58.81333611538765" lon="8.888405552668805" id="-36545">
		<tag k="name" v="Normannslåtta" />
		<tag k="natural" v="wetland" />
		<tag k="ssr:stedsnr" v="274118" />
	</node>
	<node lat="58.79073055345623" lon="8.899252770939825" id="-36553">
		<tag k="name" v="Flekmyra" />
		<tag k="natural" v="wetland" />
		<tag k="ssr:stedsnr" v="274045" />
	</node>
	<node lat="58.793716664745006" lon="8.890797219036653" id="-36554">
		<tag k="name" v="Kvernmyra" />
		<tag k="natural" v="wetland" />
		<tag k="ssr:stedsnr" v="274046" />
	</node>
	<node lat="58.78811111073669" lon="8.881505547102131" id="-36559">
		<tag k="name" v="Store Moltekjerr" />
		<tag k="natural" v="wetland" />
		<tag k="ssr:stedsnr" v="274066" />
	</node>
	<node lat="58.783961109594074" lon="8.878863891138117" id="-36560">
		<tag k="name" v="Håkjerr" />
		<tag k="natural" v="wetland" />
		<tag k="ssr:stedsnr" v="274068" />
	</node>
	<node lat="58.79796666248571" lon="8.741630558727573" id="-36561">
		<tag k="name" v="Storrkjerr" />
		<tag k="natural" v="wetland" />
		<tag k="ssr:stedsnr" v="274131" />
	</node>
	<node lat="58.800255551342104" lon="8.747952779778629" id="-36563">
		<tag k="name" v="Dalmyra" />
		<tag k="natural" v="wetland" />
		<tag k="ssr:stedsnr" v="274133" />
	</node>
	<node lat="58.64706666836655" lon="8.792061112354343" id="-36570">
		<tag k="name" v="Parkkjerr" />
		<tag k="natural" v="wetland" />
		<tag k="ssr:stedsnr" v="274163" />
	</node>
	<node lat="58.65035278057872" lon="8.785980555256376" id="-36571">
		<tag k="name" v="Finnstea" />
		<tag k="natural" v="wetland" />
		<tag k="ssr:stedsnr" v="274165" />
	</node>
	<node lat="58.74377222005875" lon="8.845180553335393" id="-36574">
		<tag k="name" v="Moltemyr" />
		<tag k="natural" v="wetland" />
		<tag k="ssr:stedsnr" v="274235" />
	</node>
	<node lat="58.70251111096209" lon="8.959811115130844" id="-36575">
		<tag k="name" v="Sandvasslåtta" />
		<tag k="natural" v="wetland" />
		<tag k="ssr:stedsnr" v="274242" />
	</node>
	<node lat="58.742830556245686" lon="8.93209722173212" id="-36577">
		<tag k="name" v="Slåttarkjerret" />
		<tag k="natural" v="wetland" />
		<tag k="ssr:stedsnr" v="274247" />
	</node>
	<node lat="58.77108611486515" lon="8.924338889609318" id="-36581">
		<tag k="name" v="Kålamyra" />
		<tag k="natural" v="wetland" />
		<tag k="ssr:stedsnr" v="274264" />
	</node>
	<node lat="58.722294443783696" lon="8.90779443651382" id="-36582">
		<tag k="name" v="Tøksla" />
		<tag k="place" v="locality" />
		<tag k="ssr:stedsnr" v="274336" />
	</node>
	<node lat="58.71575277882485" lon="8.91856943861523" id="-36584">
		<tag k="name" v="Lille Fagerlimyr" />
		<tag k="natural" v="wetland" />
		<tag k="ssr:stedsnr" v="274341" />
	</node>
	<node lat="58.713416665328566" lon="8.934322214154472" id="-36586">
		<tag k="name" v="Arntstjennbukta" />
		<tag k="natural" v="wetland" />
		<tag k="ssr:stedsnr" v="274348" />
	</node>
	<node lat="58.69820833305456" lon="8.862472224890439" id="-36589">
		<tag k="name" v="Midtslåtta" />
		<tag k="natural" v="wetland" />
		<tag k="ssr:stedsnr" v="274383" />
	</node>
	<node lat="58.69128888935727" lon="8.875141658837544" id="-36594">
		<tag k="name" v="Kolbotnkjerr" />
		<tag k="natural" v="wetland" />
		<tag k="ssr:stedsnr" v="274393" />
	</node>
	<node lat="58.69345000303679" lon="8.856277769209179" id="-36595">
		<tag k="name" v="Bjørksteene" />
		<tag k="natural" v="wetland" />
		<tag k="ssr:stedsnr" v="274394" />
	</node>
	<node lat="58.641594445931105" lon="8.807255563963631" id="-36601">
		<tag k="name" v="Moltemyra" />
		<tag k="natural" v="wetland" />
		<tag k="ssr:stedsnr" v="274692" />
	</node>
	<node lat="58.6876222216345" lon="8.737380547957361" id="-36602">
		<tag k="name" v="Flækåsmyra" />
		<tag k="natural" v="wetland" />
		<tag k="ssr:stedsnr" v="274693" />
	</node>
	<node lat="58.818766663784366" lon="8.92255832592331" id="-36605">
		<tag k="name" v="Ålkjerrmyra" />
		<tag k="natural" v="wetland" />
		<tag k="ssr:stedsnr" v="274366" />
	</node>
	<node lat="58.71013333311516" lon="8.862830554801636" id="-36606">
		<tag k="name" v="Korsmyr" />
		<tag k="natural" v="wetland" />
		<tag k="ssr:stedsnr" v="274367" />
	</node>
	<node lat="58.74709444221974" lon="8.903908333015165" id="-36609">
		<tag k="name" v="Kaslåttmyra" />
		<tag k="natural" v="wetland" />
		<tag k="ssr:stedsnr" v="274434" />
	</node>
	<node lat="58.726611112125944" lon="8.959555558402075" id="-36612">
		<tag k="name" v="Bjørkekjerra" />
		<tag k="natural" v="wetland" />
		<tag k="ssr:stedsnr" v="274454" />
	</node>
	<node lat="58.741641668888484" lon="8.96758054765978" id="-36615">
		<tag k="name" v="Kvennstea" />
		<tag k="natural" v="wetland" />
		<tag k="ssr:stedsnr" v="274538" />
	</node>
	<node lat="58.81113055167768" lon="8.954908334504239" id="-36618">
		<tag k="name" v="Muskjerra" />
		<tag k="natural" v="wetland" />
		<tag k="ssr:stedsnr" v="274544" />
	</node>
	<node lat="58.82541110690718" lon="8.951697225991675" id="-36619">
		<tag k="name" v="Knutsbumyr" />
		<tag k="natural" v="wetland" />
		<tag k="ssr:stedsnr" v="274559" />
	</node>
	<node lat="58.682400003621076" lon="8.754294452117632" id="-36620">
		<tag k="name" v="Spendelmyr" />
		<tag k="natural" v="wetland" />
		<tag k="ssr:stedsnr" v="274627" />
	</node>
	<node lat="58.73183611226337" lon="8.70025832687897" id="-36623">
		<tag k="name" v="Lindtjennkjørka" />
		<tag k="natural" v="stone" />
		<tag k="ssr:stedsnr" v="274655" />
	</node>
	<node lat="58.72250833265534" lon="8.670627782769241" id="-36626">
		<tag k="name" v="Kaldalskjær" />
		<tag k="natural" v="wetland" />
		<tag k="ssr:stedsnr" v="274666" />
	</node>
	<node lat="58.82173333305136" lon="8.72218888203838" id="-36629">
		<tag k="name" v="Farslåtta" />
		<tag k="natural" v="wetland" />
		<tag k="ssr:stedsnr" v="274750" />
	</node>
	<node lat="58.82479999978066" lon="8.794844440969571" id="-36630">
		<tag k="name" v="Røyrkjerr" />
		<tag k="natural" v="wetland" />
		<tag k="ssr:stedsnr" v="274759" />
	</node>
	<node lat="58.801116664549454" lon="8.808800004461968" id="-36632">
		<tag k="name" v="Linmyr" />
		<tag k="natural" v="wetland" />
		<tag k="ssr:stedsnr" v="274797" />
	</node>
	<node lat="58.764325004272095" lon="8.646375003045312" id="-36637">
		<tag k="name" v="Strandmyra" />
		<tag k="natural" v="wetland" />
		<tag k="ssr:stedsnr" v="274927" />
	</node>
	<node lat="58.77548333716668" lon="8.69291110373682" id="-36638">
		<tag k="name" v="Otermyr" />
		<tag k="natural" v="wetland" />
		<tag k="ssr:stedsnr" v="274940" />
	</node>
	<node lat="58.805461107191356" lon="8.693805558602833" id="-36659">
		<tag k="name" v="Asgautsmyra" />
		<tag k="natural" v="wetland" />
		<tag k="ssr:stedsnr" v="304599" />
	</node>
	<node lat="58.728661114135434" lon="8.832058341890782" id="-36677">
		<tag k="name" v="Kartmyr" />
		<tag k="natural" v="wetland" />
		<tag k="ssr:stedsnr" v="335075" />
	</node>
	<node lat="58.792261107033696" lon="8.86911388495218" id="-36678">
		<tag k="name" v="Klingerkjerr" />
		<tag k="natural" v="wetland" />
		<tag k="ssr:stedsnr" v="335078" />
	</node>
	<node lat="58.72499444797049" lon="8.916461107217776" id="-36679">
		<tag k="name" v="Vinterkjerr" />
		<tag k="natural" v="wetland" />
		<tag k="ssr:stedsnr" v="335085" />
	</node>
	<node lat="58.647994448895545" lon="8.783102784514004" id="-36680">
		<tag k="name" v="Østigardskjerret" />
		<tag k="natural" v="wetland" />
		<tag k="ssr:stedsnr" v="335152" />
	</node>
	<node lat="58.649238887114514" lon="8.788788889344124" id="-36682">
		<tag k="name" v="Bjørksteene" />
		<tag k="natural" v="wetland" />
		<tag k="ssr:stedsnr" v="335159" />
	</node>
	<node lat="58.80928055705185" lon="8.952925005135581" id="-36684">
		<tag k="name" v="Normannssteinen" />
		<tag k="natural" v="stone" />
		<tag k="ssr:stedsnr" v="335572" />
	</node>
	<node lat="58.81356388987305" lon="8.961230553161172" id="-36686">
		<tag k="name" v="Verslemyra" />
		<tag k="natural" v="wetland" />
		<tag k="ssr:stedsnr" v="335588" />
	</node>
	<node lat="58.68175277414968" lon="8.763983330649939" id="-36687">
		<tag k="name" v="Lyngmyr" />
		<tag k="natural" v="wetland" />
		<tag k="ssr:stedsnr" v="335667" />
	</node>
	<node lat="58.68159166961071" lon="8.747594439957606" id="-36688">
		<tag k="name" v="Svåa" />
		<tag k="place" v="locality" />
		<tag k="ssr:stedsnr" v="335668" />
	</node>
	<node lat="58.665052777565165" lon="8.764458325201302" id="-36691">
		<tag k="name" v="Langskåren" />
		<tag k="natural" v="wetland" />
		<tag k="ssr:stedsnr" v="335684" />
	</node>
	<node lat="58.80016944833638" lon="8.754947223666276" id="-36695">
		<tag k="name" v="Blautkjerr" />
		<tag k="natural" v="wetland" />
		<tag k="ssr:stedsnr" v="335121" />
	</node>
	<node lat="58.807805553645" lon="8.76020833249934" id="-36702">
		<tag k="name" v="Vesslåtten" />
		<tag k="natural" v="wetland" />
		<tag k="ssr:stedsnr" v="335135" />
	</node>
	<node lat="58.710344448391545" lon="8.73955277435671" id="-36706">
		<tag k="name" v="Venemyr" />
		<tag k="natural" v="wetland" />
		<tag k="ssr:stedsnr" v="335220" />
	</node>
	<node lat="58.71598610747719" lon="8.947594440115845" id="-36709">
		<tag k="name" v="Rossålkleivkilane" />
		<tag k="natural" v="wetland" />
		<tag k="ssr:stedsnr" v="335239" />
	</node>
	<node lat="58.703049996050154" lon="8.951377774581454" id="-36711">
		<tag k="name" v="Ålkarmyrene" />
		<tag k="natural" v="wetland" />
		<tag k="ssr:stedsnr" v="335269" />
	</node>
	<node lat="58.70126110855901" lon="8.960158340494546" id="-36712">
		<tag k="name" v="Byttingsmyra" />
		<tag k="natural" v="wetland" />
		<tag k="ssr:stedsnr" v="335272" />
	</node>
	<node lat="58.740041669351136" lon="8.76374166746593" id="-36714">
		<tag k="name" v="Skaremyra" />
		<tag k="natural" v="wetland" />
		<tag k="ssr:stedsnr" v="335166" />
	</node>
	<node lat="58.72257777865312" lon="8.795872228755169" id="-36716">
		<tag k="name" v="Dørliheimyr (nedre)" />
		<tag k="natural" v="wetland" />
		<tag k="ssr:stedsnr" v="335169" />
	</node>
	<node lat="58.73953333620716" lon="8.717588894837656" id="-36718">
		<tag k="name" v="Langekjerret" />
		<tag k="natural" v="wetland" />
		<tag k="ssr:stedsnr" v="335175" />
	</node>
	<node lat="58.715900004466256" lon="8.767397225154385" id="-36719">
		<tag k="name" v="Hengemyr" />
		<tag k="natural" v="wetland" />
		<tag k="ssr:stedsnr" v="335181" />
	</node>
	<node lat="58.76105000298462" lon="8.802900005779208" id="-36724">
		<tag k="name" v="Byttingsmyrene" />
		<tag k="natural" v="wetland" />
		<tag k="ssr:stedsnr" v="335187" />
	</node>
	<node lat="58.75504166935054" lon="8.814736115895206" id="-36725">
		<tag k="name" v="Holmesteinen" />
		<tag k="natural" v="stone" />
		<tag k="ssr:stedsnr" v="335191" />
	</node>
	<node lat="58.72971944127401" lon="8.78658332847623" id="-36726">
		<tag k="name" v="Kjelstjennmyra" />
		<tag k="natural" v="wetland" />
		<tag k="ssr:stedsnr" v="335192" />
	</node>
	<node lat="58.75675555916648" lon="8.851344441518908" id="-36729">
		<tag k="name" v="Nedre Molandsdalen" />
		<tag k="natural" v="wetland" />
		<tag k="ssr:stedsnr" v="335318" />
	</node>
	<node lat="58.736280554846694" lon="8.894794445606806" id="-36732">
		<tag k="name" v="Mosemyrholene" />
		<tag k="place" v="locality" />
		<tag k="ssr:stedsnr" v="335498" />
	</node>
	<node lat="58.842025000437154" lon="8.850583329191874" id="-36734">
		<tag k="name" v="Øygardskjerr" />
		<tag k="natural" v="wetland" />
		<tag k="ssr:stedsnr" v="335507" />
	</node>
	<node lat="58.787555554501445" lon="8.994280557476014" id="-36737">
		<tag k="name" v="Vassbotn" />
		<tag k="natural" v="wetland" />
		<tag k="ssr:stedsnr" v="335525" />
	</node>
	<node lat="58.68329444182339" lon="8.771480554733854" id="-36742">
		<tag k="name" v="Vormvikmyra" />
		<tag k="natural" v="wetland" />
		<tag k="ssr:stedsnr" v="335288" />
	</node>
	<node lat="58.806922219600146" lon="8.847491669368882" id="-36745">
		<tag k="name" v="Almdalskjerra" />
		<tag k="natural" v="wetland" />
		<tag k="ssr:stedsnr" v="335385" />
	</node>
	<node lat="58.80425277801226" lon="8.838747222996195" id="-36746">
		<tag k="name" v="Åskjerr" />
		<tag k="natural" v="wetland" />
		<tag k="ssr:stedsnr" v="335388" />
	</node>
	<node lat="58.82118055776651" lon="8.914363888580072" id="-36751">
		<tag k="name" v="Nordre Langkjerr" />
		<tag k="natural" v="wetland" />
		<tag k="ssr:stedsnr" v="335418" />
	</node>
	<node lat="58.702516662572656" lon="8.919175007080323" id="-36761">
		<tag k="name" v="Vomma" />
		<tag k="natural" v="wetland" />
		<tag k="ssr:stedsnr" v="335464" />
	</node>
	<node lat="58.754261112452966" lon="8.941908326213381" id="-36762">
		<tag k="name" v="Dukmyr" />
		<tag k="place" v="locality" />
		<tag k="ssr:stedsnr" v="335537" />
	</node>
	<node lat="58.7902194424288" lon="8.795111112211378" id="-36766">
		<tag k="name" v="Myra under fjellet" />
		<tag k="natural" v="wetland" />
		<tag k="ssr:stedsnr" v="335780" />
	</node>
	<node lat="58.69092222225984" lon="8.897133339622805" id="-36771">
		<tag k="name" v="Haukåskjerret" />
		<tag k="natural" v="wetland" />
		<tag k="ssr:stedsnr" v="335485" />
	</node>
	<node lat="58.740350003391455" lon="8.898772228465905" id="-36773">
		<tag k="name" v="Skårgangen" />
		<tag k="natural" v="wetland" />
		<tag k="ssr:stedsnr" v="335490" />
	</node>
	<node lat="58.693499997343075" lon="8.91754444142035" id="-36774">
		<tag k="name" v="Perskjerr" />
		<tag k="natural" v="wetland" />
		<tag k="ssr:stedsnr" v="335492" />
	</node>
	<node lat="58.70499166657246" lon="8.703955550195095" id="-36778">
		<tag k="name" v="Dalsmyr" />
		<tag k="natural" v="wetland" />
		<tag k="ssr:stedsnr" v="335740" />
	</node>
	<node lat="58.85775277411918" lon="8.808322228840119" id="-36780">
		<tag k="name" v="Donasmyra" />
		<tag k="natural" v="wetland" />
		<tag k="ssr:stedsnr" v="335822" />
	</node>
	<node lat="58.81077777779166" lon="8.78002778495498" id="-36782">
		<tag k="name" v="Storrkjerra" />
		<tag k="natural" v="wetland" />
		<tag k="ssr:stedsnr" v="335840" />
	</node>
	<node lat="58.789894440696656" lon="8.774927784443463" id="-36787">
		<tag k="name" v="Tallaks myrer" />
		<tag k="natural" v="wetland" />
		<tag k="ssr:stedsnr" v="335877" />
	</node>
	<node lat="58.73650555538138" lon="8.661608327734013" id="-36789">
		<tag k="name" v="Svellekjerr" />
		<tag k="natural" v="wetland" />
		<tag k="ssr:stedsnr" v="335896" />
	</node>
	<node lat="58.80496389197594" lon="8.689597221753568" id="-36790">
		<tag k="name" v="Blautmyrsmalingen" />
		<tag k="natural" v="wetland" />
		<tag k="ssr:stedsnr" v="335911" />
	</node>
	<node lat="58.79924167108263" lon="8.713763890243312" id="-36791">
		<tag k="name" v="Greftmyr" />
		<tag k="natural" v="wetland" />
		<tag k="ssr:stedsnr" v="335918" />
	</node>
	<node lat="58.74812222138803" lon="8.818361111240451" id="-36810">
		<tag k="alt_name" v="Hattemyr" />
		<tag k="name" v="Hattmyra" />
		<tag k="natural" v="wetland" />
		<tag k="ssr:stedsnr" v="365120" />
	</node>
	<node lat="58.75461388510153" lon="9.01127500512627" id="-36821">
		<tag k="name" v="Dukmyr" />
		<tag k="natural" v="wetland" />
		<tag k="ssr:stedsnr" v="387956" />
	</node>
	<node lat="58.83203888596811" lon="8.892436116615453" id="-36824">
		<tag k="name" v="Loåsmyra" />
		<tag k="natural" v="wetland" />
		<tag k="ssr:stedsnr" v="395420" />
	</node>
	<node lat="58.78204999788935" lon="8.902825006886038" id="-36828">
		<tag k="name" v="Vikingsmyr" />
		<tag k="natural" v="wetland" />
		<tag k="ssr:stedsnr" v="395023" />
	</node>
	<node lat="58.799549995936864" lon="8.916572223633166" id="-36831">
		<tag k="name" v="Mariskjerr" />
		<tag k="natural" v="wetland" />
		<tag k="ssr:stedsnr" v="395100" />
	</node>
	<node lat="58.806991664065244" lon="8.924588894602035" id="-36837">
		<tag k="name" v="Toksmyra" />
		<tag k="natural" v="wetland" />
		<tag k="ssr:stedsnr" v="395121" />
	</node>
	<node lat="58.72840555936625" lon="8.920783337412134" id="-36838">
		<tag k="name" v="Tellevskjerr" />
		<tag k="natural" v="wetland" />
		<tag k="ssr:stedsnr" v="395126" />
	</node>
	<node lat="58.72268610954677" lon="8.817102781571046" id="-36839">
		<tag k="name" v="Tverrmyr" />
		<tag k="natural" v="wetland" />
		<tag k="ssr:stedsnr" v="395214" />
	</node>
	<node lat="58.694702775147846" lon="8.813244449890012" id="-36843">
		<tag k="name" v="Halvkarslåtten" />
		<tag k="natural" v="wetland" />
		<tag k="ssr:stedsnr" v="395059" />
	</node>
	<node lat="58.69121944839745" lon="8.780027776963538" id="-36844">
		<tag k="name" v="Selåskjerr" />
		<tag k="natural" v="wetland" />
		<tag k="ssr:stedsnr" v="395065" />
	</node>
	<node lat="58.722808337134275" lon="8.831405548631277" id="-36846">
		<tag k="name" v="Busvennskjerr" />
		<tag k="natural" v="wetland" />
		<tag k="ssr:stedsnr" v="395076" />
	</node>
	<node lat="58.65987778040124" lon="8.787486106984119" id="-36854">
		<tag k="name" v="Bjørnstein" />
		<tag k="natural" v="stone" />
		<tag k="ssr:stedsnr" v="395158" />
	</node>
	<node lat="58.654194440224614" lon="8.762205550352354" id="-36855">
		<tag k="name" v="Raudhellmyra" />
		<tag k="natural" v="wetland" />
		<tag k="ssr:stedsnr" v="395160" />
	</node>
	<node lat="58.66694166631873" lon="8.776655551229373" id="-36856">
		<tag k="name" v="Rundtjennslåtta" />
		<tag k="natural" v="wetland" />
		<tag k="ssr:stedsnr" v="395163" />
	</node>
	<node lat="58.81426944778373" lon="8.759277779229494" id="-36858">
		<tag k="name" v="Slettmyr" />
		<tag k="natural" v="wetland" />
		<tag k="ssr:stedsnr" v="395173" />
	</node>
	<node lat="58.81256944649975" lon="8.769469444209083" id="-36859">
		<tag k="name" v="Steene" />
		<tag k="natural" v="wetland" />
		<tag k="ssr:stedsnr" v="395175" />
	</node>
	<node lat="58.74109999862838" lon="8.809186115698576" id="-36860">
		<tag k="name" v="Det hole kjerret" />
		<tag k="natural" v="wetland" />
		<tag k="ssr:stedsnr" v="395176" />
	</node>
	<node lat="58.70947778101014" lon="8.9639722249389" id="-36865">
		<tag k="name" v="Blekktjennmyra" />
		<tag k="natural" v="wetland" />
		<tag k="ssr:stedsnr" v="395256" />
	</node>
	<node lat="58.739105552818984" lon="8.874111114210036" id="-36868">
		<tag k="name" v="Råsfjellkjerret" />
		<tag k="natural" v="wetland" />
		<tag k="ssr:stedsnr" v="395260" />
	</node>
	<node lat="58.7100527787503" lon="8.926211111357667" id="-36874">
		<tag k="name" v="Byttingskilen" />
		<tag k="natural" v="wetland" />
		<tag k="ssr:stedsnr" v="395441" />
	</node>
	<node lat="58.820580553144445" lon="8.828397214441418" id="-36875">
		<tag k="name" v="Den raude slåtta" />
		<tag k="natural" v="wetland" />
		<tag k="ssr:stedsnr" v="395445" />
	</node>
	<node lat="58.831738887450015" lon="8.872947228134562" id="-36877">
		<tag k="name" v="Ånkjerr" />
		<tag k="natural" v="wetland" />
		<tag k="ssr:stedsnr" v="395455" />
	</node>
	<node lat="58.742455554539056" lon="8.906425001061331" id="-36879">
		<tag k="name" v="Grandalsmyra" />
		<tag k="natural" v="wetland" />
		<tag k="ssr:stedsnr" v="395472" />
	</node>
	<node lat="58.75264721836853" lon="8.941036118924167" id="-36881">
		<tag k="name" v="Linmyra" />
		<tag k="natural" v="wetland" />
		<tag k="ssr:stedsnr" v="395571" />
	</node>
	<node lat="58.73542222390811" lon="8.860652780483074" id="-36882">
		<tag k="name" v="Vegerstølmyra" />
		<tag k="natural" v="wetland" />
		<tag k="ssr:stedsnr" v="395261" />
	</node>
	<node lat="58.7376361091938" lon="8.838872221478962" id="-36883">
		<tag k="name" v="Husmyr" />
		<tag k="natural" v="wetland" />
		<tag k="ssr:stedsnr" v="395263" />
	</node>
	<node lat="58.851636107300436" lon="8.84763055981077" id="-36890">
		<tag k="name" v="Knutslåtta" />
		<tag k="natural" v="wetland" />
		<tag k="ssr:stedsnr" v="395494" />
	</node>
	<node lat="58.72685277930711" lon="8.97698056094565" id="-36892">
		<tag k="name" v="Diplene" />
		<tag k="natural" v="wetland" />
		<tag k="ssr:stedsnr" v="395500" />
	</node>
	<node lat="58.84658332935612" lon="8.846216663162778" id="-36893">
		<tag k="name" v="Fisketjennkjerr" />
		<tag k="natural" v="wetland" />
		<tag k="ssr:stedsnr" v="395508" />
	</node>
	<node lat="58.67894999575786" lon="8.742091674984515" id="-36895">
		<tag k="name" v="Kvennhusmyra" />
		<tag k="natural" v="wetland" />
		<tag k="ssr:stedsnr" v="395682" />
	</node>
	<node lat="58.80250555444806" lon="8.94802221602446" id="-36899">
		<tag k="name" v="Tjennslåtta" />
		<tag k="natural" v="wetland" />
		<tag k="ssr:stedsnr" v="395642" />
	</node>
	<node lat="58.670566669895116" lon="8.749916662727712" id="-36902">
		<tag k="name" v="Slåttesteene" />
		<tag k="natural" v="wetland" />
		<tag k="ssr:stedsnr" v="395655" />
	</node>
	<node lat="58.79626388672662" lon="8.8051416667791" id="-36906">
		<tag k="name" v="Sortmyr" />
		<tag k="natural" v="wetland" />
		<tag k="ssr:stedsnr" v="395778" />
	</node>
	<node lat="58.777413889055765" lon="8.780427785559127" id="-36908">
		<tag k="name" v="Orrevasskjerrene" />
		<tag k="natural" v="wetland" />
		<tag k="ssr:stedsnr" v="395792" />
	</node>
	<node lat="58.78815833335895" lon="8.740191661734462" id="-36909">
		<tag k="name" v="Lille Sundmyr" />
		<tag k="natural" v="wetland" />
		<tag k="ssr:stedsnr" v="395883" />
	</node>
	<node lat="58.70660833268523" lon="8.714236112322535" id="-36914">
		<tag k="name" v="Grankjerr" />
		<tag k="natural" v="wetland" />
		<tag k="ssr:stedsnr" v="395768" />
	</node>
	<node lat="58.78378611121184" lon="8.76673610931223" id="-36915">
		<tag k="name" v="Knutskjerr" />
		<tag k="natural" v="wetland" />
		<tag k="ssr:stedsnr" v="395857" />
	</node>
	<node lat="58.75856388622986" lon="8.652550000848034" id="-36916">
		<tag k="name" v="Nordslåtta" />
		<tag k="natural" v="wetland" />
		<tag k="ssr:stedsnr" v="395945" />
	</node>
	<node lat="58.76720555384549" lon="8.665761117993856" id="-36921">
		<tag k="name" v="Bråkollslåtta" />
		<tag k="natural" v="wetland" />
		<tag k="ssr:stedsnr" v="395965" />
	</node>
	<node lat="58.70430555708242" lon="8.707919450455396" id="-36923">
		<tag k="name" v="Heislåtta" />
		<tag k="natural" v="wetland" />
		<tag k="ssr:stedsnr" v="396523" />
	</node>
	<node lat="58.765961111198656" lon="8.945541669123315" id="-36928">
		<tag k="name" v="Røynfjellmyra" />
		<tag k="natural" v="wetland" />
		<tag k="ssr:stedsnr" v="425428" />
	</node>
	<node lat="58.79453888559637" lon="8.843580550152137" id="-36943">
		<tag k="name" v="Flåtmyra" />
		<tag k="natural" v="wetland" />
		<tag k="ssr:stedsnr" v="426461" />
	</node>
	<node lat="58.81714444046855" lon="8.76604721820102" id="-36949">
		<tag k="name" v="Østre Øfsslått" />
		<tag k="natural" v="wetland" />
		<tag k="ssr:stedsnr" v="517131" />
	</node>
	<node lat="58.73705277462475" lon="8.808150003339666" id="-36955">
		<tag k="name" v="Marismyr" />
		<tag k="natural" v="wetland" />
		<tag k="ssr:stedsnr" v="517144" />
	</node>
	<node lat="58.698197222077546" lon="8.79567777930681" id="-36957">
		<tag k="name" v="Fjellmyr" />
		<tag k="natural" v="wetland" />
		<tag k="ssr:stedsnr" v="517001" />
	</node>
	<node lat="58.72647777545751" lon="8.90048888076174" id="-36961">
		<tag k="name" v="Svivarkjerr" />
		<tag k="natural" v="wetland" />
		<tag k="ssr:stedsnr" v="517093" />
	</node>
	<node lat="58.731375001424304" lon="8.793566666122008" id="-36965">
		<tag k="name" v="Det store moltekjerr" />
		<tag k="natural" v="wetland" />
		<tag k="ssr:stedsnr" v="517189" />
	</node>
	<node lat="58.77022500046031" lon="8.81845000756527" id="-36967">
		<tag k="name" v="Kristismyr" />
		<tag k="natural" v="wetland" />
		<tag k="ssr:stedsnr" v="517198" />
	</node>
	<node lat="58.695255556490146" lon="8.816169441342636" id="-36969">
		<tag k="name" v="Kveldstea" />
		<tag k="natural" v="wetland" />
		<tag k="ssr:stedsnr" v="517053" />
	</node>
	<node lat="58.72575000122244" lon="8.739519448946469" id="-36975">
		<tag k="name" v="Skeimomyra" />
		<tag k="natural" v="wetland" />
		<tag k="ssr:stedsnr" v="517151" />
	</node>
	<node lat="58.6553444434912" lon="8.800286109119018" id="-36976">
		<tag k="name" v="Dapen" />
		<tag k="natural" v="wetland" />
		<tag k="ssr:stedsnr" v="517155" />
	</node>
	<node lat="58.709197219149736" lon="8.766847223456729" id="-36977">
		<tag k="name" v="Striklekjerr" />
		<tag k="natural" v="wetland" />
		<tag k="ssr:stedsnr" v="517219" />
	</node>
	<node lat="58.705847226155505" lon="8.958791662859532" id="-36978">
		<tag k="name" v="Kremmerkjerr" />
		<tag k="natural" v="wetland" />
		<tag k="ssr:stedsnr" v="517220" />
	</node>
	<node lat="58.70918610975669" lon="8.958388882440126" id="-36979">
		<tag k="name" v="Vierlimyra" />
		<tag k="natural" v="wetland" />
		<tag k="ssr:stedsnr" v="517223" />
	</node>
	<node lat="58.70961944514955" lon="8.937658336688596" id="-36986">
		<tag k="name" v="Rørmyr" />
		<tag k="natural" v="wetland" />
		<tag k="ssr:stedsnr" v="517258" />
	</node>
	<node lat="58.74890555869971" lon="8.883191668452024" id="-36993">
		<tag k="name" v="Kyrhagen" />
		<tag k="place" v="locality" />
		<tag k="ssr:stedsnr" v="517479" />
	</node>
	<node lat="58.74601944423837" lon="8.901447220246354" id="-36994">
		<tag k="name" v="Kaslåtten" />
		<tag k="natural" v="wetland" />
		<tag k="ssr:stedsnr" v="517480" />
	</node>
	<node lat="58.69640277444393" lon="8.738333328908421" id="-36996">
		<tag k="name" v="Ostekil" />
		<tag k="natural" v="wetland" />
		<tag k="ssr:stedsnr" v="517202" />
	</node>
	<node lat="58.719608333543654" lon="8.88555000425604" id="-36998">
		<tag k="name" v="Jonsmyr" />
		<tag k="natural" v="wetland" />
		<tag k="ssr:stedsnr" v="517362" />
	</node>
	<node lat="58.71738889233687" lon="8.933186102528772" id="-37002">
		<tag k="name" v="Knollmyr" />
		<tag k="natural" v="wetland" />
		<tag k="ssr:stedsnr" v="517372" />
	</node>
	<node lat="58.712966664826226" lon="8.925744441069826" id="-37003">
		<tag k="name" v="Steinsmyr" />
		<tag k="place" v="locality" />
		<tag k="ssr:stedsnr" v="517376" />
	</node>
	<node lat="58.71184166676305" lon="8.928580558075454" id="-37004">
		<tag k="name" v="Hålamyra" />
		<tag k="natural" v="wetland" />
		<tag k="ssr:stedsnr" v="517378" />
	</node>
	<node lat="58.70503333005009" lon="8.847486112358553" id="-37006">
		<tag k="name" v="Langmyr" />
		<tag k="natural" v="wetland" />
		<tag k="ssr:stedsnr" v="517387" />
	</node>
	<node lat="58.70579999921118" lon="8.908527775160978" id="-37012">
		<tag k="name" v="Bergsmyr" />
		<tag k="natural" v="wetland" />
		<tag k="ssr:stedsnr" v="517438" />
	</node>
	<node lat="58.70319166951929" lon="8.914891659303516" id="-37016">
		<tag k="name" v="Raudmyr" />
		<tag k="natural" v="wetland" />
		<tag k="ssr:stedsnr" v="517459" />
	</node>
	<node lat="58.72783055777835" lon="8.94227222655626" id="-37018">
		<tag k="name" v="Bekkslåtta" />
		<tag k="natural" v="wetland" />
		<tag k="ssr:stedsnr" v="517486" />
	</node>
	<node lat="58.7833388868584" lon="8.964175001789874" id="-37020">
		<tag k="name" v="Revåskjerret" />
		<tag k="natural" v="wetland" />
		<tag k="ssr:stedsnr" v="517589" />
	</node>
	<node lat="58.79325833020112" lon="8.976288892065464" id="-37021">
		<tag k="name" v="Tjennmyra" />
		<tag k="natural" v="wetland" />
		<tag k="ssr:stedsnr" v="517593" />
	</node>
	<node lat="58.662719445632085" lon="8.764491667007174" id="-37023">
		<tag k="name" v="Fjellmyr" />
		<tag k="natural" v="wetland" />
		<tag k="ssr:stedsnr" v="517668" />
	</node>
	<node lat="58.68114166312929" lon="8.773558337071174" id="-37024">
		<tag k="name" v="Lyngmyr" />
		<tag k="natural" v="wetland" />
		<tag k="ssr:stedsnr" v="517678" />
	</node>
	<node lat="58.751697222184504" lon="8.938394436975802" id="-37031">
		<tag k="name" v="Nepekjerr" />
		<tag k="natural" v="wetland" />
		<tag k="ssr:stedsnr" v="517557" />
	</node>
	<node lat="58.8030361111105" lon="8.960313896876215" id="-37032">
		<tag k="name" v="Bjørnåskjerra" />
		<tag k="natural" v="wetland" />
		<tag k="ssr:stedsnr" v="517611" />
	</node>
	<node lat="58.81666388657134" lon="8.98606667352159" id="-37033">
		<tag k="name" v="Mosemyra" />
		<tag k="natural" v="wetland" />
		<tag k="ssr:stedsnr" v="517622" />
	</node>
	<node lat="58.680577779006214" lon="8.752419450976571" id="-37036">
		<tag k="name" v="Nypmyr" />
		<tag k="natural" v="wetland" />
		<tag k="ssr:stedsnr" v="517658" />
	</node>
	<node lat="58.78769166902868" lon="8.803750005124472" id="-37039">
		<tag k="name" v="Kristismyr" />
		<tag k="natural" v="wetland" />
		<tag k="ssr:stedsnr" v="517795" />
	</node>
	<node lat="58.78939166232084" lon="8.795408329002488" id="-37040">
		<tag k="name" v="Tollholta" />
		<tag k="place" v="locality" />
		<tag k="ssr:stedsnr" v="517797" />
	</node>
	<node lat="58.781897221457676" lon="8.749230563012851" id="-37042">
		<tag k="name" v="Tjærhjellmyra" />
		<tag k="natural" v="wetland" />
		<tag k="ssr:stedsnr" v="517866" />
	</node>
	<node lat="58.780708337536794" lon="8.733313880331165" id="-37043">
		<tag k="name" v="Dukmyra" />
		<tag k="place" v="locality" />
		<tag k="ssr:stedsnr" v="517876" />
	</node>
	<node lat="58.77855833062808" lon="8.762549995963838" id="-37044">
		<tag k="name" v="Lille Orremyr" />
		<tag k="natural" v="wetland" />
		<tag k="ssr:stedsnr" v="517878" />
	</node>
	<node lat="58.71441111464549" lon="8.688163887866128" id="-37047">
		<tag k="name" v="Kloppemyrene" />
		<tag k="natural" v="wetland" />
		<tag k="ssr:stedsnr" v="517746" />
	</node>
	<node lat="58.79476944224317" lon="8.817130557780228" id="-37048">
		<tag k="name" v="Hyttekjerr" />
		<tag k="natural" v="wetland" />
		<tag k="ssr:stedsnr" v="517759" />
	</node>
	<node lat="58.82383333549088" lon="8.809461113605222" id="-37052">
		<tag k="name" v="Det råtne kjerret" />
		<tag k="natural" v="wetland" />
		<tag k="ssr:stedsnr" v="517941" />
	</node>
	<node lat="58.744916665262615" lon="8.676466671207042" id="-37055">
		<tag k="name" v="Hammerbakkmyren" />
		<tag k="natural" v="wetland" />
		<tag k="ssr:stedsnr" v="517902" />
	</node>
	<node lat="58.70655833720803" lon="8.648711105428946" id="-37068">
		<tag k="name" v="Kortmyr" />
		<tag k="natural" v="wetland" />
		<tag k="ssr:stedsnr" v="547098" />
	</node>
	<node lat="58.85015277558474" lon="8.801111107892154" id="-37073">
		<tag k="name" v="Halvtekkmyra" />
		<tag k="natural" v="wetland" />
		<tag k="ssr:stedsnr" v="547771" />
	</node>
	<node lat="58.654177774612116" lon="8.771702775843536" id="-37076">
		<tag k="name" v="Våjemyrane" />
		<tag k="natural" v="wetland" />
		<tag k="ssr:stedsnr" v="547995" />
	</node>
	<node lat="58.70794167024151" lon="8.924961115839183" id="-37080">
		<tag k="name" v="Hølane" />
		<tag k="natural" v="wetland" />
		<tag k="ssr:stedsnr" v="577450" />
	</node>
	<node lat="58.783386110669994" lon="8.899538881328313" id="-37085">
		<tag k="name" v="Den runde byttesteinen" />
		<tag k="natural" v="stone" />
		<tag k="ssr:stedsnr" v="577024" />
	</node>
	<node lat="58.673358332923925" lon="8.84289722722186" id="-37089">
		<tag k="name" v="Kjørka" />
		<tag k="natural" v="stone" />
		<tag k="ssr:stedsnr" v="577035" />
	</node>
	<node lat="58.79083055292304" lon="8.913188889689438" id="-37091">
		<tag k="name" v="Persmyr" />
		<tag k="natural" v="wetland" />
		<tag k="ssr:stedsnr" v="577042" />
	</node>
	<node lat="58.783663891023174" lon="8.87010833346966" id="-37096">
		<tag k="name" v="Stølemyra" />
		<tag k="natural" v="wetland" />
		<tag k="ssr:stedsnr" v="577084" />
	</node>
	<node lat="58.73240555117611" lon="8.739863893588923" id="-37099">
		<tag k="name" v="Ekornmyra" />
		<tag k="natural" v="wetland" />
		<tag k="ssr:stedsnr" v="577162" />
	</node>
	<node lat="58.73136110785296" lon="8.720669452976045" id="-37100">
		<tag k="name" v="Knutsmyr" />
		<tag k="natural" v="wetland" />
		<tag k="ssr:stedsnr" v="577165" />
	</node>
	<node lat="58.7105194476998" lon="8.730822219493353" id="-37104">
		<tag k="name" v="Diplemyr" />
		<tag k="natural" v="wetland" />
		<tag k="ssr:stedsnr" v="577246" />
	</node>
	<node lat="58.68981388796158" lon="8.938797224637808" id="-37110">
		<tag k="name" v="Blautmyrkjerrene" />
		<tag k="natural" v="wetland" />
		<tag k="ssr:stedsnr" v="577268" />
	</node>
	<node lat="58.75744444012594" lon="8.90795832575679" id="-37112">
		<tag k="name" v="Harebeita" />
		<tag k="natural" v="wetland" />
		<tag k="ssr:stedsnr" v="577277" />
	</node>
	<node lat="58.645722225672806" lon="8.79325000845792" id="-37115">
		<tag k="name" v="Tolvsøygardstykket" />
		<tag k="place" v="locality" />
		<tag k="ssr:stedsnr" v="577284" />
	</node>
	<node lat="58.713419441827476" lon="8.901524998619662" id="-37121">
		<tag k="name" v="Tonjesmyr" />
		<tag k="natural" v="wetland" />
		<tag k="ssr:stedsnr" v="577384" />
	</node>
	<node lat="58.711641667804" lon="8.898047220498698" id="-37122">
		<tag k="name" v="Bjørkekjerra" />
		<tag k="natural" v="wetland" />
		<tag k="ssr:stedsnr" v="577385" />
	</node>
	<node lat="58.72969721956165" lon="8.782083341818886" id="-37126">
		<tag k="name" v="Kjerrgjelmyra" />
		<tag k="natural" v="wetland" />
		<tag k="ssr:stedsnr" v="577221" />
	</node>
	<node lat="58.703602777105175" lon="8.73806389406699" id="-37127">
		<tag k="name" v="Stea" />
		<tag k="place" v="locality" />
		<tag k="ssr:stedsnr" v="577227" />
	</node>
	<node lat="58.7755916667351" lon="8.787694439791442" id="-37128">
		<tag k="name" v="Røyrkjerr" />
		<tag k="natural" v="wetland" />
		<tag k="ssr:stedsnr" v="577231" />
	</node>
	<node lat="58.70127778197714" lon="8.753558331275178" id="-37129">
		<tag k="name" v="Nordmyr" />
		<tag k="natural" v="wetland" />
		<tag k="ssr:stedsnr" v="577234" />
	</node>
	<node lat="58.75593888490423" lon="8.892269450906726" id="-37132">
		<tag k="name" v="Beinkjerr" />
		<tag k="natural" v="wetland" />
		<tag k="ssr:stedsnr" v="577303" />
	</node>
	<node lat="58.75519166263399" lon="8.876422223013577" id="-37134">
		<tag k="name" v="Klatremyra" />
		<tag k="natural" v="wetland" />
		<tag k="ssr:stedsnr" v="577309" />
	</node>
	<node lat="58.73294722367781" lon="8.906758337607553" id="-37138">
		<tag k="name" v="Dåbumyrene" />
		<tag k="natural" v="wetland" />
		<tag k="ssr:stedsnr" v="577326" />
	</node>
	<node lat="58.778805552335704" lon="8.988216674766567" id="-37147">
		<tag k="name" v="Fjølmyr" />
		<tag k="natural" v="wetland" />
		<tag k="ssr:stedsnr" v="577529" />
	</node>
	<node lat="58.78874444640081" lon="8.972063893415033" id="-37148">
		<tag k="name" v="Ingridsmyr" />
		<tag k="natural" v="wetland" />
		<tag k="ssr:stedsnr" v="577536" />
	</node>
	<node lat="58.8083527773372" lon="8.971822223716567" id="-37150">
		<tag k="name" v="Gampmyra" />
		<tag k="natural" v="wetland" />
		<tag k="ssr:stedsnr" v="577621" />
	</node>
	<node lat="58.68950277719951" lon="8.780641661707142" id="-37151">
		<tag k="name" v="Nedre Seljåskjerr" />
		<tag k="natural" v="wetland" />
		<tag k="ssr:stedsnr" v="577625" />
	</node>
	<node lat="58.68206944576235" lon="8.81455833479029" id="-37153">
		<tag k="name" v="Bøen" />
		<tag k="place" v="locality" />
		<tag k="ssr:stedsnr" v="577636" />
	</node>
	<node lat="58.83765833334725" lon="8.81386389114246" id="-37157">
		<tag k="name" v="Storrkjerrstykket" />
		<tag k="place" v="locality" />
		<tag k="ssr:stedsnr" v="577823" />
	</node>
	<node lat="58.81868889329146" lon="8.777130554515871" id="-37159">
		<tag k="name" v="Graskjerr" />
		<tag k="natural" v="wetland" />
		<tag k="ssr:stedsnr" v="577836" />
	</node>
	<node lat="58.84847778213366" lon="8.868230559735135" id="-37163">
		<tag k="name" v="Bjørkekjerra" />
		<tag k="natural" v="wetland" />
		<tag k="ssr:stedsnr" v="577488" />
	</node>
	<node lat="58.81175555192543" lon="8.973591661517627" id="-37164">
		<tag k="name" v="Raunbærmyra" />
		<tag k="natural" v="wetland" />
		<tag k="ssr:stedsnr" v="577576" />
	</node>
	<node lat="58.8153666679645" lon="8.948886119040274" id="-37165">
		<tag k="name" v="Skårmyrkarten" />
		<tag k="natural" v="wetland" />
		<tag k="ssr:stedsnr" v="577584" />
	</node>
	<node lat="58.82424167065557" lon="8.945688892586233" id="-37167">
		<tag k="name" v="Tjenndepilen" />
		<tag k="natural" v="wetland" />
		<tag k="ssr:stedsnr" v="577588" />
	</node>
	<node lat="58.66927222545534" lon="8.778500001906206" id="-37168">
		<tag k="name" v="Rundtjennmyra" />
		<tag k="natural" v="wetland" />
		<tag k="ssr:stedsnr" v="577661" />
	</node>
	<node lat="58.80161944652986" lon="8.817550007314209" id="-37176">
		<tag k="name" v="Fjellmyr" />
		<tag k="natural" v="wetland" />
		<tag k="ssr:stedsnr" v="577855" />
	</node>
	<node lat="58.77737222572884" lon="8.743550000652391" id="-37181">
		<tag k="name" v="Sortkjerr" />
		<tag k="natural" v="wetland" />
		<tag k="ssr:stedsnr" v="577878" />
	</node>
	<node lat="58.807513891547686" lon="8.711813887422586" id="-37182">
		<tag k="name" v="Simonskart" />
		<tag k="natural" v="wetland" />
		<tag k="ssr:stedsnr" v="577908" />
	</node>
	<node lat="58.76703610992703" lon="8.68500833622596" id="-37185">
		<tag k="name" v="Løvnesslåtta" />
		<tag k="natural" v="wetland" />
		<tag k="ssr:stedsnr" v="577965" />
	</node>
	<node lat="58.75796389202248" lon="8.663636109670582" id="-37187">
		<tag k="name" v="Blautmyr" />
		<tag k="natural" v="wetland" />
		<tag k="ssr:stedsnr" v="577971" />
	</node>
	<node lat="58.74486944150054" lon="8.658472227977418" id="-37189">
		<tag k="name" v="Raudmyr" />
		<tag k="natural" v="wetland" />
		<tag k="ssr:stedsnr" v="577982" />
	</node>
	<node lat="58.78583055634807" lon="8.882316674310408" id="-37192">
		<tag k="name" v="Diplemyr" />
		<tag k="natural" v="wetland" />
		<tag k="ssr:stedsnr" v="607063" />
	</node>
	<node lat="58.8467277786326" lon="8.888905553954606" id="-37202">
		<tag k="name" v="Stormyr" />
		<tag k="natural" v="wetland" />
		<tag k="ssr:stedsnr" v="607135" />
	</node>
	<node lat="58.79080277676497" lon="9.00547778107784" id="-37213">
		<tag k="name" v="Skillarkjerra" />
		<tag k="natural" v="wetland" />
		<tag k="ssr:stedsnr" v="630860" />
	</node>
	<node lat="58.784655555500954" lon="8.902972215050895" id="-37214">
		<tag k="name" v="Klovsteinen" />
		<tag k="natural" v="stone" />
		<tag k="ssr:stedsnr" v="638038" />
	</node>
	<node lat="58.686441670467225" lon="8.830158334715259" id="-37218">
		<tag k="name" v="Det hole kjerret" />
		<tag k="natural" v="wetland" />
		<tag k="ssr:stedsnr" v="638047" />
	</node>
	<node lat="58.79688055931366" lon="8.890605555194892" id="-37219">
		<tag k="name" v="Kortmyr" />
		<tag k="natural" v="wetland" />
		<tag k="ssr:stedsnr" v="638049" />
	</node>
	<node lat="58.7319999968051" lon="8.919172214116422" id="-37220">
		<tag k="name" v="Geitkjerr" />
		<tag k="natural" v="wetland" />
		<tag k="ssr:stedsnr" v="638092" />
	</node>
	<node lat="58.711166669521525" lon="8.870541674929544" id="-37222">
		<tag k="name" v="Hampmyr" />
		<tag k="natural" v="wetland" />
		<tag k="ssr:stedsnr" v="638099" />
	</node>
	<node lat="58.81104444608795" lon="8.7506527773135" id="-37226">
		<tag k="name" v="Eikelikjerret" />
		<tag k="natural" v="wetland" />
		<tag k="ssr:stedsnr" v="638121" />
	</node>
	<node lat="58.82563888695399" lon="8.743758336862124" id="-37227">
		<tag k="name" v="Bærslåtta" />
		<tag k="natural" v="wetland" />
		<tag k="ssr:stedsnr" v="638775" />
	</node>
	<node lat="58.85689722165391" lon="8.81406944055373" id="-37229">
		<tag k="name" v="Rørmyr" />
		<tag k="natural" v="wetland" />
		<tag k="ssr:stedsnr" v="638788" />
	</node>
	<node lat="58.85551111031642" lon="8.802847229382804" id="-37230">
		<tag k="name" v="Økssteinmyra" />
		<tag k="natural" v="wetland" />
		<tag k="ssr:stedsnr" v="638791" />
	</node>
	<node lat="58.837111111683974" lon="8.825755562452136" id="-37231">
		<tag k="name" v="Tverrkjerrene" />
		<tag k="natural" v="wetland" />
		<tag k="ssr:stedsnr" v="638798" />
	</node>
	<node lat="58.81468333759043" lon="8.776758331747233" id="-37232">
		<tag k="name" v="Skjerrslåttene" />
		<tag k="natural" v="wetland" />
		<tag k="ssr:stedsnr" v="638813" />
	</node>
	<node lat="58.80356944128856" lon="8.811222222021415" id="-37234">
		<tag k="name" v="Askedalskjerret" />
		<tag k="natural" v="wetland" />
		<tag k="ssr:stedsnr" v="638833" />
	</node>
	<node lat="58.78796666666345" lon="8.767447229265244" id="-37235">
		<tag k="name" v="Lauvhogsten" />
		<tag k="place" v="locality" />
		<tag k="ssr:stedsnr" v="638839" />
	</node>
	<node lat="58.73082221934027" lon="8.838594445077568" id="-37239">
		<tag k="name" v="Fisketjennmyrene" />
		<tag k="natural" v="wetland" />
		<tag k="ssr:stedsnr" v="638062" />
	</node>
	<node lat="58.72869166653998" lon="8.854419445646677" id="-37240">
		<tag k="name" v="Nesmyra" />
		<tag k="natural" v="wetland" />
		<tag k="ssr:stedsnr" v="638066" />
	</node>
	<node lat="58.742736108687254" lon="8.801727776673061" id="-37244">
		<tag k="name" v="Hyttekjerr" />
		<tag k="natural" v="wetland" />
		<tag k="ssr:stedsnr" v="638131" />
	</node>
	<node lat="58.7409055549327" lon="8.784513889094745" id="-37248">
		<tag k="name" v="Steinsstykket" />
		<tag k="place" v="locality" />
		<tag k="ssr:stedsnr" v="638140" />
	</node>
	<node lat="58.72556388670463" lon="8.763747224036212" id="-37249">
		<tag k="name" v="Dikesmyr" />
		<tag k="natural" v="wetland" />
		<tag k="ssr:stedsnr" v="638147" />
	</node>
	<node lat="58.74223055617163" lon="8.7377222230992" id="-37254">
		<tag k="name" v="Sines" />
		<tag k="place" v="locality" />
		<tag k="ssr:stedsnr" v="638162" />
	</node>
	<node lat="58.741874995540435" lon="8.737505554696828" id="-37255">
		<tag k="name" v="Moltekjerret" />
		<tag k="natural" v="wetland" />
		<tag k="ssr:stedsnr" v="638164" />
	</node>
	<node lat="58.74738611349265" lon="8.869816659962597" id="-37262">
		<tag k="name" v="Storste" />
		<tag k="place" v="locality" />
		<tag k="ssr:stedsnr" v="638242" />
	</node>
	<node lat="58.76444444154423" lon="8.919688881493338" id="-37266">
		<tag k="name" v="Porskjerr" />
		<tag k="natural" v="wetland" />
		<tag k="ssr:stedsnr" v="638251" />
	</node>
	<node lat="58.753547221438104" lon="8.868686103009185" id="-37273">
		<tag k="name" v="Svendskjerr" />
		<tag k="natural" v="wetland" />
		<tag k="ssr:stedsnr" v="638218" />
	</node>
	<node lat="58.828247217978344" lon="8.911772217877466" id="-37278">
		<tag k="name" v="Østre Øygardsmyra" />
		<tag k="natural" v="wetland" />
		<tag k="ssr:stedsnr" v="638387" />
	</node>
	<node lat="58.69472777546109" lon="8.899200007499646" id="-37282">
		<tag k="name" v="Snøkjerra" />
		<tag k="natural" v="wetland" />
		<tag k="ssr:stedsnr" v="638425" />
	</node>
	<node lat="58.740494445321275" lon="8.895374995904977" id="-37285">
		<tag k="name" v="Heimre Haugslåtta" />
		<tag k="natural" v="wetland" />
		<tag k="ssr:stedsnr" v="638431" />
	</node>
	<node lat="58.74745833678425" lon="8.965619436488902" id="-37288">
		<tag k="name" v="Fisketjennmyra" />
		<tag k="natural" v="wetland" />
		<tag k="ssr:stedsnr" v="638447" />
	</node>
	<node lat="58.74918610961711" lon="8.972886111398816" id="-37289">
		<tag k="name" v="Heislåttene" />
		<tag k="natural" v="wetland" />
		<tag k="ssr:stedsnr" v="638448" />
	</node>
	<node lat="58.751102775227245" lon="9.009733336754309" id="-37291">
		<tag k="name" v="Djupmyr" />
		<tag k="natural" v="wetland" />
		<tag k="ssr:stedsnr" v="638464" />
	</node>
	<node lat="58.72023888788014" lon="8.919005562990503" id="-37292">
		<tag k="name" v="Dipelmyr" />
		<tag k="natural" v="wetland" />
		<tag k="ssr:stedsnr" v="638344" />
	</node>
	<node lat="58.7118166698009" lon="8.90335833507823" id="-37296">
		<tag k="name" v="Dipelen" />
		<tag k="natural" v="wetland" />
		<tag k="ssr:stedsnr" v="638366" />
	</node>
	<node lat="58.71685555334927" lon="8.893655548651063" id="-37297">
		<tag k="name" v="Fjellvikkjerra" />
		<tag k="natural" v="wetland" />
		<tag k="ssr:stedsnr" v="638367" />
	</node>
	<node lat="58.70550555629208" lon="8.865613890411995" id="-37298">
		<tag k="name" v="Porsmyr" />
		<tag k="natural" v="wetland" />
		<tag k="ssr:stedsnr" v="638369" />
	</node>
	<node lat="58.769411114570524" lon="8.986636117699058" id="-37299">
		<tag k="name" v="Djupkjerr" />
		<tag k="natural" v="wetland" />
		<tag k="ssr:stedsnr" v="638515" />
	</node>
	<node lat="58.73727777460388" lon="8.955161112315169" id="-37300">
		<tag k="name" v="Bjørnkjerra" />
		<tag k="natural" v="wetland" />
		<tag k="ssr:stedsnr" v="638522" />
	</node>
	<node lat="58.74957500018977" lon="9.00643889650073" id="-37304">
		<tag k="name" v="Nærestadkjerr" />
		<tag k="natural" v="wetland" />
		<tag k="ssr:stedsnr" v="638465" />
	</node>
	<node lat="58.82337221939722" lon="8.96812777472534" id="-37308">
		<tag k="name" v="Langkjerr" />
		<tag k="natural" v="wetland" />
		<tag k="ssr:stedsnr" v="638556" />
	</node>
	<node lat="58.681852776466" lon="8.735833329288557" id="-37311">
		<tag k="name" v="Skolbergkjerra" />
		<tag k="natural" v="wetland" />
		<tag k="ssr:stedsnr" v="638647" />
	</node>
	<node lat="58.65820277543599" lon="8.767355547057088" id="-37312">
		<tag k="name" v="Dartmyrene" />
		<tag k="natural" v="wetland" />
		<tag k="ssr:stedsnr" v="638657" />
	</node>
	<node lat="58.66459167003618" lon="8.760661110851537" id="-37315">
		<tag k="name" v="Strålaus" />
		<tag k="natural" v="wetland" />
		<tag k="ssr:stedsnr" v="638668" />
	</node>
	<node lat="58.70895833530794" lon="8.690508334412561" id="-37317">
		<tag k="name" v="Tverrbekk" />
		<tag k="natural" v="wetland" />
		<tag k="ssr:stedsnr" v="638740" />
	</node>
	<node lat="58.70305000096401" lon="8.664861108778892" id="-37318">
		<tag k="name" v="Fjellmyr" />
		<tag k="natural" v="wetland" />
		<tag k="ssr:stedsnr" v="638742" />
	</node>
	<node lat="58.80780277893367" lon="8.683494448346826" id="-37327">
		<tag k="name" v="Ormslåtta" />
		<tag k="natural" v="wetland" />
		<tag k="ssr:stedsnr" v="638900" />
	</node>
	<node lat="58.76086666393577" lon="8.656661114108935" id="-37330">
		<tag k="name" v="Langtjennslåtta" />
		<tag k="natural" v="wetland" />
		<tag k="ssr:stedsnr" v="638937" />
	</node>
	<node lat="58.770583336501524" lon="8.667044437086242" id="-37331">
		<tag k="name" v="Slettmyr" />
		<tag k="natural" v="wetland" />
		<tag k="ssr:stedsnr" v="638940" />
	</node>
	<node lat="58.749924999998036" lon="8.654827777996088" id="-37337">
		<tag k="name" v="Fjellknattmyra" />
		<tag k="natural" v="wetland" />
		<tag k="ssr:stedsnr" v="638973" />
	</node>
	<node lat="58.81296388665116" lon="8.936974996807658" id="-37340">
		<tag k="name" v="Skremsmyr" />
		<tag k="natural" v="wetland" />
		<tag k="ssr:stedsnr" v="668026" />
	</node>
	<node lat="58.751233331409104" lon="8.782888887881601" id="-37365">
		<tag k="alt_name" v="Ullsmyrene" />
		<tag k="name" v="Ullsmyrane" />
		<tag k="natural" v="wetland" />
		<tag k="ssr:stedsnr" v="729032" />
	</node>
	<node lat="58.79340277924722" lon="8.932122217377986" id="-37388">
		<tag k="name" v="Rolikjerr" />
		<tag k="natural" v="wetland" />
		<tag k="ssr:stedsnr" v="759041" />
	</node>
	<node lat="58.74049722590984" lon="8.800975000868892" id="-37391">
		<tag k="name" v="Lyngmyr" />
		<tag k="natural" v="wetland" />
		<tag k="ssr:stedsnr" v="759165" />
	</node>
	<node lat="58.81833055908996" lon="8.73048054833386" id="-37392">
		<tag k="name" v="Bjørnslåtta" />
		<tag k="natural" v="wetland" />
		<tag k="ssr:stedsnr" v="759171" />
	</node>
	<node lat="58.81814999859336" lon="8.723008334054764" id="-37393">
		<tag k="name" v="Farslåtta" />
		<tag k="natural" v="wetland" />
		<tag k="ssr:stedsnr" v="759173" />
	</node>
	<node lat="58.7392166645168" lon="8.911716660076435" id="-37397">
		<tag k="name" v="Hyttemyrene" />
		<tag k="natural" v="wetland" />
		<tag k="ssr:stedsnr" v="759259" />
	</node>
	<node lat="58.773486114942905" lon="8.91045000185489" id="-37398">
		<tag k="name" v="Bjordammen" />
		<tag k="natural" v="wetland" />
		<tag k="ssr:stedsnr" v="759264" />
	</node>
	<node lat="58.75729444879153" lon="8.922736117905995" id="-37400">
		<tag k="name" v="Varselmyra" />
		<tag k="place" v="locality" />
		<tag k="ssr:stedsnr" v="759268" />
	</node>
	<node lat="58.763797222968805" lon="8.9237666632052" id="-37401">
		<tag k="name" v="Øygardsmyra" />
		<tag k="natural" v="wetland" />
		<tag k="ssr:stedsnr" v="759270" />
	</node>
	<node lat="58.77191666227474" lon="8.922472226763327" id="-37402">
		<tag k="name" v="Galten" />
		<tag k="place" v="locality" />
		<tag k="ssr:stedsnr" v="759274" />
	</node>
	<node lat="58.82523333591862" lon="8.907583341801312" id="-37404">
		<tag k="name" v="Vestre Øygardsmyr" />
		<tag k="natural" v="wetland" />
		<tag k="ssr:stedsnr" v="759379" />
	</node>
	<node lat="58.82960833764969" lon="8.888772218535216" id="-37405">
		<tag k="name" v="Nedre Bråtemyrene" />
		<tag k="natural" v="wetland" />
		<tag k="ssr:stedsnr" v="759390" />
	</node>
	<node lat="58.83122778209001" lon="8.882288880808604" id="-37409">
		<tag k="name" v="Sørsteinen" />
		<tag k="natural" v="stone" />
		<tag k="ssr:stedsnr" v="759433" />
	</node>
	<node lat="58.80806944575346" lon="8.978702776391815" id="-37411">
		<tag k="name" v="Storkjerr" />
		<tag k="natural" v="wetland" />
		<tag k="ssr:stedsnr" v="759623" />
	</node>
	<node lat="58.72212499907386" lon="8.662441666645602" id="-37413">
		<tag k="name" v="Limyra" />
		<tag k="natural" v="wetland" />
		<tag k="ssr:stedsnr" v="759691" />
	</node>
	<node lat="58.781952780725746" lon="8.789019436150546" id="-37417">
		<tag k="name" v="Porskjerret" />
		<tag k="natural" v="wetland" />
		<tag k="ssr:stedsnr" v="760764" />
	</node>
	<node lat="58.7112666634068" lon="8.649424998227587" id="-37418">
		<tag k="name" v="Ripekarten" />
		<tag k="natural" v="wetland" />
		<tag k="ssr:stedsnr" v="759736" />
	</node>
	<node lat="58.70424999800667" lon="8.825336114984976" id="-37420">
		<tag k="name" v="Loftsmyr" />
		<tag k="natural" v="wetland" />
		<tag k="ssr:stedsnr" v="760008" />
	</node>
	<node lat="58.679347226211256" lon="8.841313883081492" id="-37426">
		<tag k="name" v="Kolhussteene" />
		<tag k="place" v="locality" />
		<tag k="ssr:stedsnr" v="760041" />
	</node>
	<node lat="58.7266000022877" lon="8.850583325363495" id="-37429">
		<tag k="name" v="Nesmyrkjerrene" />
		<tag k="natural" v="wetland" />
		<tag k="ssr:stedsnr" v="760075" />
	</node>
	<node lat="58.66443888804011" lon="8.828011119643545" id="-37431">
		<tag k="name" v="Store Gangdalsmyra" />
		<tag k="natural" v="wetland" />
		<tag k="ssr:stedsnr" v="760091" />
	</node>
	<node lat="58.65499444050993" lon="8.778055548876264" id="-37433">
		<tag k="alt_name" v="Lillesteholmane" />
		<tag k="name" v="Lillsteholmane" />
		<tag k="place" v="locality" />
		<tag k="ssr:stedsnr" v="760179" />
	</node>
	<node lat="58.713661113981054" lon="8.920852783665241" id="-37438">
		<tag k="name" v="Fagerlimyr" />
		<tag k="natural" v="wetland" />
		<tag k="ssr:stedsnr" v="760389" />
	</node>
	<node lat="58.72973889162385" lon="8.936486108652756" id="-37445">
		<tag k="name" v="Monskjerr" />
		<tag k="natural" v="wetland" />
		<tag k="ssr:stedsnr" v="760298" />
	</node>
	<node lat="58.70350000061437" lon="8.863383333874708" id="-37451">
		<tag k="name" v="Kolbotnkjerr" />
		<tag k="natural" v="wetland" />
		<tag k="ssr:stedsnr" v="760419" />
	</node>
	<node lat="58.703044448028685" lon="8.841047228136917" id="-37452">
		<tag k="name" v="Djupkjerr" />
		<tag k="natural" v="wetland" />
		<tag k="ssr:stedsnr" v="760421" />
	</node>
	<node lat="58.707074996411166" lon="8.694297223792137" id="-37458">
		<tag k="name" v="Kringlemyr" />
		<tag k="natural" v="wetland" />
		<tag k="ssr:stedsnr" v="760733" />
	</node>
	<node lat="58.78163889116989" lon="8.681283330880717" id="-37465">
		<tag k="name" v="Godfarslåtta" />
		<tag k="natural" v="wetland" />
		<tag k="ssr:stedsnr" v="760590" />
	</node>
	<node lat="58.81932777575265" lon="8.784800005856814" id="-37466">
		<tag k="name" v="Homstjennslåtta" />
		<tag k="natural" v="wetland" />
		<tag k="ssr:stedsnr" v="760784" />
	</node>
	<node lat="58.76568055728459" lon="8.683452773585657" id="-37470">
		<tag k="name" v="Langemyr" />
		<tag k="natural" v="wetland" />
		<tag k="ssr:stedsnr" v="760969" />
	</node>
	<node lat="58.746963891067935" lon="8.653186109356996" id="-37472">
		<tag k="name" v="Asgerdsmyr" />
		<tag k="natural" v="wetland" />
		<tag k="ssr:stedsnr" v="760981" />
	</node>
	<node lat="58.737950001865286" lon="8.64292499502433" id="-37475">
		<tag k="name" v="Lundstølmyra" />
		<tag k="natural" v="wetland" />
		<tag k="ssr:stedsnr" v="760990" />
	</node>
	<node lat="58.824005553430574" lon="8.784541667577221" id="-37477">
		<tag k="name" v="Skrivarsteinene" />
		<tag k="natural" v="stone" />
		<tag k="ssr:stedsnr" v="760935" />
	</node>
	<node lat="58.8043666673927" lon="8.715683328917889" id="-37524">
		<tag k="name" v="Hellermyra" />
		<tag k="natural" v="wetland" />
		<tag k="ssr:stedsnr" v="820896" />
	</node>
	<node lat="58.76441666387793" lon="8.68142778406827" id="-37526">
		<tag k="name" v="Kilskjerret" />
		<tag k="natural" v="wetland" />
		<tag k="ssr:stedsnr" v="820972" />
	</node>
	<node lat="58.699930558132756" lon="8.814180562128177" id="-37529">
		<tag k="name" v="Strålausmyra" />
		<tag k="natural" v="wetland" />
		<tag k="ssr:stedsnr" v="821001" />
	</node>
	<node lat="58.68871388495517" lon="8.894847227387807" id="-37535">
		<tag k="name" v="Byttekjerr" />
		<tag k="natural" v="wetland" />
		<tag k="ssr:stedsnr" v="820039" />
	</node>
	<node lat="58.794491667197654" lon="8.922302784260598" id="-37539">
		<tag k="name" v="Mjotskarten" />
		<tag k="natural" v="wetland" />
		<tag k="ssr:stedsnr" v="820052" />
	</node>
	<node lat="58.68702777832845" lon="8.828991659880705" id="-37541">
		<tag k="name" v="Dyråsmyra" />
		<tag k="natural" v="wetland" />
		<tag k="ssr:stedsnr" v="820059" />
	</node>
	<node lat="58.80561111005627" lon="8.908619449892008" id="-37547">
		<tag k="name" v="Kongslått" />
		<tag k="natural" v="wetland" />
		<tag k="ssr:stedsnr" v="820121" />
	</node>
	<node lat="58.80259166705498" lon="8.92454167460864" id="-37549">
		<tag k="name" v="Kalvkjerra" />
		<tag k="natural" v="wetland" />
		<tag k="ssr:stedsnr" v="820128" />
	</node>
	<node lat="58.816077778939395" lon="8.935422230221626" id="-37550">
		<tag k="name" v="Nordre Skremsmyr" />
		<tag k="natural" v="wetland" />
		<tag k="ssr:stedsnr" v="820133" />
	</node>
	<node lat="58.80441944382256" lon="8.726038890739398" id="-37556">
		<tag k="name" v="Porsmyr" />
		<tag k="natural" v="wetland" />
		<tag k="ssr:stedsnr" v="820162" />
	</node>
	<node lat="58.7694499962032" lon="8.937538891471853" id="-37559">
		<tag k="name" v="Rørmyr" />
		<tag k="natural" v="wetland" />
		<tag k="ssr:stedsnr" v="820306" />
	</node>
	<node lat="58.8014777744711" lon="8.882375000412186" id="-37562">
		<tag k="name" v="Depelmyr" />
		<tag k="natural" v="wetland" />
		<tag k="ssr:stedsnr" v="820394" />
	</node>
	<node lat="58.724088890121834" lon="8.870136116489762" id="-37566">
		<tag k="name" v="Tjøregravmyra" />
		<tag k="natural" v="wetland" />
		<tag k="ssr:stedsnr" v="820079" />
	</node>
	<node lat="58.782494445070824" lon="8.880994446633276" id="-37570">
		<tag k="name" v="Mariskjerr" />
		<tag k="natural" v="wetland" />
		<tag k="ssr:stedsnr" v="820096" />
	</node>
	<node lat="58.74388611540431" lon="8.79449721765394" id="-37571">
		<tag k="name" v="Bestelimyra" />
		<tag k="natural" v="wetland" />
		<tag k="ssr:stedsnr" v="820187" />
	</node>
	<node lat="58.810491662755624" lon="8.72530000419291" id="-37573">
		<tag k="name" v="Store Diplemyr" />
		<tag k="natural" v="wetland" />
		<tag k="ssr:stedsnr" v="820195" />
	</node>
	<node lat="58.77302500147341" lon="8.820916662890786" id="-37576">
		<tag k="name" v="Tørrgranmyra" />
		<tag k="natural" v="wetland" />
		<tag k="ssr:stedsnr" v="820233" />
	</node>
	<node lat="58.80715556006722" lon="8.843305551114003" id="-37589">
		<tag k="name" v="Pissurdapen" />
		<tag k="natural" v="wetland" />
		<tag k="ssr:stedsnr" v="820367" />
	</node>
	<node lat="58.850480551753115" lon="8.873202769717304" id="-37598">
		<tag k="name" v="Bjørkekjerra" />
		<tag k="natural" v="wetland" />
		<tag k="ssr:stedsnr" v="820492" />
	</node>
	<node lat="58.79621388929368" lon="8.954250003613954" id="-37603">
		<tag k="name" v="Skarkkjerra" />
		<tag k="natural" v="wetland" />
		<tag k="ssr:stedsnr" v="820601" />
	</node>
	<node lat="58.70369444319523" lon="8.906402777836863" id="-37606">
		<tag k="name" v="Kokarholta" />
		<tag k="place" v="locality" />
		<tag k="ssr:stedsnr" v="821451" />
	</node>
	<node lat="58.69892222154894" lon="8.91196388067823" id="-37609">
		<tag k="name" v="Djupmyr" />
		<tag k="natural" v="wetland" />
		<tag k="ssr:stedsnr" v="821460" />
	</node>
	<node lat="58.683986113469416" lon="8.757224996992228" id="-37611">
		<tag k="name" v="Rundkjerr" />
		<tag k="natural" v="wetland" />
		<tag k="ssr:stedsnr" v="820640" />
	</node>
	<node lat="58.79421110745961" lon="8.821630556979832" id="-37612">
		<tag k="name" v="Størrdapane" />
		<tag k="natural" v="wetland" />
		<tag k="ssr:stedsnr" v="820744" />
	</node>
	<node lat="58.78294444369115" lon="8.770741666552714" id="-37616">
		<tag k="name" v="Kyrslåtta" />
		<tag k="natural" v="wetland" />
		<tag k="ssr:stedsnr" v="820834" />
	</node>
	<node lat="58.77137222217242" lon="8.673130547199744" id="-37620">
		<tag k="name" v="Bjordammskarten" />
		<tag k="natural" v="wetland" />
		<tag k="ssr:stedsnr" v="820955" />
	</node>
	<node lat="58.65237500404693" lon="8.772169448500597" id="-37628">
		<tag k="name" v="Fjøstimmerhøgsten" />
		<tag k="place" v="locality" />
		<tag k="ssr:stedsnr" v="821165" />
	</node>
	<node lat="58.708102776083486" lon="8.736627771585084" id="-37630">
		<tag k="name" v="Ufsvasskjerra" />
		<tag k="natural" v="wetland" />
		<tag k="ssr:stedsnr" v="821224" />
	</node>
</osm>
