<?xml version="1.0" encoding="UTF-8"?>
<osm version="0.6" generator="osmapis">
	<node lat="58.753138890926444" lon="8.961166668859732" id="-26594">
		<tag k="name" v="Øygarden" />
		<tag k="place" v="farm" />
		<tag k="ssr:stedsnr" v="351" />
	</node>
	<node lat="58.730297685180545" lon="8.669362156209155" id="-26603">
		<tag k="name" v="Lauvdal" />
		<tag k="place" v="farm" />
		<tag k="ssr:stedsnr" v="1116" />
	</node>
	<node lat="58.79334444609285" lon="8.971402784120604" id="-26605">
		<tag k="name" v="Neset" />
		<tag k="place" v="isolated_dwelling" />
		<tag k="ssr:stedsnr" v="1496" />
	</node>
	<node lat="58.78274166667288" lon="8.827302783236803" id="-26606">
		<tag k="fixme" v="consider place=hamlet" />
		<tag k="name" v="Rugnes" />
		<tag k="place" v="farm" />
		<tag k="ssr:stedsnr" v="1607" />
	</node>
	<node lat="58.72415000228911" lon="8.864530554493781" id="-26608">
		<tag k="name" v="Norum" />
		<tag k="place" v="farm" />
		<tag k="ssr:stedsnr" v="1586" />
	</node>
	<node lat="58.72695555838401" lon="8.752327783154094" id="-26631">
		<tag k="name" v="Sommerseth" />
		<tag k="place" v="farm" />
		<tag k="ssr:stedsnr" v="31168" />
	</node>
	<node lat="58.76534166992328" lon="8.885711107335297" id="-26641">
		<tag k="name" v="Vatnebu" />
		<tag k="place" v="isolated_dwelling" />
		<tag k="ssr:stedsnr" v="31306" />
	</node>
	<node lat="58.74052778025339" lon="8.908527772955589" id="-26652">
		<tag k="name" v="Fjellvik" />
		<tag k="place" v="locality" />
		<tag k="ssr:stedsnr" v="31272" />
	</node>
	<node lat="58.835036114675056" lon="8.865861115633177" id="-26660">
		<tag k="name" v="Plassen" />
		<tag k="place" v="locality" />
		<tag k="ssr:stedsnr" v="31423" />
	</node>
	<node lat="58.7162777781977" lon="8.728524996658923" id="-26686">
		<tag k="fixme" v="consider place=hamlet" />
		<tag k="name" v="Kaldalen" />
		<tag k="place" v="farm" />
		<tag k="ssr:stedsnr" v="59982" />
	</node>
	<node lat="58.80578055926988" lon="8.888855548525495" id="-26687">
		<tag k="fixme" v="consider place=hamlet" />
		<tag k="name" v="Romundstad" />
		<tag k="place" v="farm" />
		<tag k="ssr:stedsnr" v="61001" />
	</node>
	<node lat="58.73898055179101" lon="8.927022226760233" id="-26696">
		<tag k="name" v="Brekke" />
		<tag k="place" v="farm" />
		<tag k="ssr:stedsnr" v="61511" />
	</node>
	<node lat="58.78035833249105" lon="8.742786102622773" id="-26699">
		<tag k="fixme" v="consider place=hamlet" />
		<tag k="name" v="Mjåvatn" />
		<tag k="place" v="farm" />
		<tag k="ssr:stedsnr" v="62523" />
	</node>
	<node lat="58.72209166781029" lon="8.880216660394233" id="-26700">
		<tag k="name" v="Bjormyr" />
		<tag k="place" v="farm" />
		<tag k="ssr:stedsnr" v="62571" />
	</node>
	<node lat="58.728177777034674" lon="8.910833339724773" id="-26701">
		<tag k="name" v="Dåbu" />
		<tag k="place" v="farm" />
		<tag k="ssr:stedsnr" v="62575" />
	</node>
	<node lat="58.76401166388673" lon="8.751547655588908" id="-26711">
		<tag k="name" v="Åsland" />
		<tag k="place" v="farm" />
		<tag k="ssr:stedsnr" v="243571" />
	</node>
	<node lat="58.7479861104113" lon="8.907855553143465" id="-26714">
		<tag k="fixme" v="consider place=hamlet" />
		<tag k="name" v="Bulia" />
		<tag k="place" v="farm" />
		<tag k="ssr:stedsnr" v="243522" />
	</node>
	<node lat="58.748352781523344" lon="8.882061104898794" id="-26716">
		<tag k="name" v="Kroken" />
		<tag k="place" v="farm" />
		<tag k="ssr:stedsnr" v="243525" />
	</node>
	<node lat="58.813022704982245" lon="8.973727359154795" id="-26721">
		<tag k="name" v="Hallen" />
		<tag k="place" v="locality" />
		<tag k="ssr:stedsnr" v="244020" />
	</node>
	<node lat="58.80157499752464" lon="8.85976666020856" id="-26723">
		<tag k="name" v="Sundet" />
		<tag k="place" v="farm" />
		<tag k="ssr:stedsnr" v="244500" />
	</node>
	<node lat="58.65889444774761" lon="8.788536116620042" id="-26744">
		<tag k="name" v="Lia nedre" />
		<tag k="place" v="locality" />
		<tag k="ssr:stedsnr" v="92127" />
	</node>
	<node lat="58.81661072631168" lon="8.72534977165193" id="-26746">
		<tag k="name" v="Farslåttstaua" />
		<tag k="place" v="locality" />
		<tag k="ssr:stedsnr" v="92165" />
	</node>
	<node lat="58.768197219545" lon="8.83971389482357" id="-26758">
		<tag k="name" v="Slettli" />
		<tag k="place" v="locality" />
		<tag k="ssr:stedsnr" v="92323" />
	</node>
	<node lat="58.74971666855896" lon="8.870952784194262" id="-26771">
		<tag k="name" v="Saga" />
		<tag k="place" v="farm" />
		<tag k="ssr:stedsnr" v="92263" />
	</node>
	<node lat="58.721163887036376" lon="8.66628055667968" id="-26822">
		<tag k="fixme" v="consider place=hamlet" />
		<tag k="name" v="Gisletveit" />
		<tag k="place" v="farm" />
		<tag k="ssr:stedsnr" v="122107" />
	</node>
	<node lat="58.808049997453644" lon="8.855275003525602" id="-26823">
		<tag k="name" v="Lindtveitstranda" />
		<tag k="place" v="farm" />
		<tag k="ssr:stedsnr" v="122016" />
	</node>
	<node lat="58.73973888929659" lon="8.990155559939916" id="-26828">
		<tag k="name" v="Myra" />
		<tag k="place" v="farm" />
		<tag k="ssr:stedsnr" v="122510" />
	</node>
	<node lat="58.761366670628085" lon="8.729900006991748" id="-26829">
		<tag k="alt_name" v="Leiulstad" />
		<tag k="fixme" v="consider place=hamlet" />
		<tag k="name" v="Leiulvstad" />
		<tag k="place" v="farm" />
		<tag k="ssr:stedsnr" v="122516" />
	</node>
	<node lat="58.79100833530587" lon="8.708813889517911" id="-26836">
		<tag k="name" v="Raudsandtangen" />
		<tag k="place" v="farm" />
		<tag k="ssr:stedsnr" v="122605" />
	</node>
	<node lat="58.755286106995484" lon="8.886802780932253" id="-26839">
		<tag k="name" v="Haugen" />
		<tag k="place" v="farm" />
		<tag k="ssr:stedsnr" v="152323" />
	</node>
	<node lat="58.705399996248616" lon="8.81374722185919" id="-26847">
		<tag k="name" v="Bågstøl" />
		<tag k="place" v="isolated_dwelling" />
		<tag k="ssr:stedsnr" v="153016" />
	</node>
	<node lat="58.699736109860865" lon="8.783708324883857" id="-26855">
		<tag k="name" v="Røysland" />
		<tag k="place" v="locality" />
		<tag k="ssr:stedsnr" v="153059" />
	</node>
	<node lat="58.7283888868907" lon="8.756136118347142" id="-26881">
		<tag k="name" v="Solhaug" />
		<tag k="place" v="farm" />
		<tag k="ssr:stedsnr" v="153150" />
	</node>
	<node lat="58.72013889014754" lon="8.904786105030238" id="-26891">
		<tag k="name" v="Sprengsmyr" />
		<tag k="place" v="locality" />
		<tag k="ssr:stedsnr" v="153379" />
	</node>
	<node lat="58.681167437528934" lon="8.821280093693678" id="-26928">
		<tag k="name" v="Engene" />
		<tag k="place" v="farm" />
		<tag k="ssr:stedsnr" v="182910" />
	</node>
	<node lat="58.67503610735529" lon="8.820780549459869" id="-26929">
		<tag k="fixme" v="consider place=hamlet" />
		<tag k="name" v="Uberg" />
		<tag k="place" v="farm" />
		<tag k="ssr:stedsnr" v="182911" />
	</node>
	<node lat="58.74553611125795" lon="8.960349995366311" id="-26934">
		<tag k="name" v="Espedalen" />
		<tag k="place" v="farm" />
		<tag k="ssr:stedsnr" v="183499" />
	</node>
	<node lat="58.79347259213792" lon="8.813745472948334" id="-26937">
		<tag k="name" v="Hytta" />
		<tag k="place" v="farm" />
		<tag k="ssr:stedsnr" v="183612" />
	</node>
	<node lat="58.75022777769401" lon="8.840780564003678" id="-26963">
		<tag k="name" v="Ettevass-stranda" />
		<tag k="place" v="farm" />
		<tag k="ssr:stedsnr" v="214228" />
	</node>
	<node lat="58.655811110812294" lon="8.78236111781011" id="-26971">
		<tag k="name" v="Livoll" />
		<tag k="place" v="farm" />
		<tag k="ssr:stedsnr" v="214112" />
	</node>
	<node lat="58.80940000263299" lon="8.768097221885926" id="-26972">
		<tag k="name" v="Urånkrekstaua" />
		<tag k="place" v="locality" />
		<tag k="ssr:stedsnr" v="214124" />
	</node>
	<node lat="58.70015000267651" lon="8.76643333487086" id="-26975">
		<tag k="name" v="Norkjenn" />
		<tag k="place" v="farm" />
		<tag k="ssr:stedsnr" v="214188" />
	</node>
	<node lat="58.7715666654738" lon="8.93170555387258" id="-26979">
		<tag k="name" v="Stebekk" />
		<tag k="place" v="locality" />
		<tag k="ssr:stedsnr" v="214308" />
	</node>
	<node lat="58.705938891279416" lon="8.859261106728445" id="-26987">
		<tag k="name" v="Hasseldalsbua" />
		<tag k="place" v="locality" />
		<tag k="ssr:stedsnr" v="214389" />
	</node>
	<node lat="58.748258329027166" lon="8.86635555665381" id="-26997">
		<tag k="name" v="Hovet" />
		<tag k="place" v="farm" />
		<tag k="ssr:stedsnr" v="214276" />
	</node>
	<node lat="58.79855434306314" lon="8.942679632834476" id="-27009">
		<tag k="name" v="Nybø" />
		<tag k="place" v="farm" />
		<tag k="ssr:stedsnr" v="214609" />
	</node>
	<node lat="58.791922221623075" lon="8.80818056114471" id="-27016">
		<tag k="name" v="Flatland" />
		<tag k="place" v="farm" />
		<tag k="ssr:stedsnr" v="214778" />
	</node>
	<node lat="58.7039388931981" lon="8.887527775044555" id="-27043">
		<tag k="fixme" v="consider place=hamlet" />
		<tag k="name" v="Ås" />
		<tag k="place" v="farm" />
		<tag k="ssr:stedsnr" v="243601" />
	</node>
	<node lat="58.799569440922006" lon="8.889350005140216" id="-27050">
		<tag k="name" v="Solberg" />
		<tag k="place" v="farm" />
		<tag k="ssr:stedsnr" v="244510" />
	</node>
	<node lat="58.79185833586845" lon="8.906174997755068" id="-27051">
		<tag k="fixme" v="consider place=hamlet" />
		<tag k="name" v="Skollenborg" />
		<tag k="place" v="farm" />
		<tag k="ssr:stedsnr" v="244512" />
	</node>
	<node lat="58.73194029094359" lon="8.931567333131348" id="-27055">
		<tag k="name" v="Rønnås" />
		<tag k="place" v="farm" />
		<tag k="ssr:stedsnr" v="244595" />
	</node>
	<node lat="58.733525000961166" lon="8.933750002174417" id="-27056">
		<tag k="name" v="Langan" />
		<tag k="place" v="farm" />
		<tag k="ssr:stedsnr" v="244598" />
	</node>
	<node lat="58.682355553584486" lon="8.827588885253581" id="-27069">
		<tag k="name" v="Nordbråten" />
		<tag k="place" v="locality" />
		<tag k="ssr:stedsnr" v="456053" />
	</node>
	<node lat="58.66125555634368" lon="8.818286104112689" id="-27081">
		<tag k="name" v="Våje øst" />
		<tag k="place" v="farm" />
		<tag k="ssr:stedsnr" v="456155" />
	</node>
	<node lat="58.71571111186937" lon="8.680747228877248" id="-27132">
		<tag k="name" v="Bærås" />
		<tag k="place" v="locality" />
		<tag k="ssr:stedsnr" v="456691" />
	</node>
	<node lat="58.79224167077675" lon="8.800019448912515" id="-27145">
		<tag k="name" v="Skogli" />
		<tag k="place" v="farm" />
		<tag k="ssr:stedsnr" v="456752" />
	</node>
	<node lat="58.69803888860066" lon="8.93313333636567" id="-27174">
		<tag k="name" v="Hytta" />
		<tag k="place" v="farm" />
		<tag k="ssr:stedsnr" v="263071" />
	</node>
	<node lat="58.74630833572549" lon="8.672538891283516" id="-27239">
		<tag k="name" v="Kylland" />
		<tag k="place" v="isolated_dwelling" />
		<tag k="ssr:stedsnr" v="304032" />
	</node>
	<node lat="58.74634721928508" lon="8.745977781097887" id="-27240">
		<tag k="name" v="Norddal" />
		<tag k="place" v="farm" />
		<tag k="ssr:stedsnr" v="304036" />
	</node>
	<node lat="58.82994166227431" lon="8.925424995019736" id="-27242">
		<tag k="name" v="Nuten" />
		<tag k="place" v="isolated_dwelling" />
		<tag k="ssr:stedsnr" v="304074" />
	</node>
	<node lat="58.7704388847072" lon="8.907027780087653" id="-27244">
		<tag k="alt_name" v="Rindar" />
		<tag k="name" v="Rindan" />
		<tag k="place" v="farm" />
		<tag k="ssr:stedsnr" v="304426" />
	</node>
	<node lat="58.75607410731521" lon="8.731561462941537" id="-27308">
		<tag k="alt_name" v="Jåvnes" />
		<tag k="name" v="Jovnes" />
		<tag k="place" v="farm" />
		<tag k="ssr:stedsnr" v="364547" />
	</node>
	<node lat="58.71453333667133" lon="8.963833335176028" id="-27314">
		<tag k="fixme" v="consider place=hamlet" />
		<tag k="name" v="Vierli" />
		<tag k="place" v="farm" />
		<tag k="ssr:stedsnr" v="364602" />
	</node>
	<node lat="58.81144166935501" lon="8.98993054803189" id="-27315">
		<tag k="fixme" v="consider place=hamlet" />
		<tag k="name" v="Lia" />
		<tag k="place" v="farm" />
		<tag k="ssr:stedsnr" v="365016" />
	</node>
	<node lat="58.76078332905269" lon="8.860161109565867" id="-27318">
		<tag k="name" v="Moland" />
		<tag k="place" v="isolated_dwelling" />
		<tag k="ssr:stedsnr" v="365403" />
	</node>
	<node lat="58.739149997415666" lon="8.847702777008518" id="-27319">
		<tag k="fixme" v="consider place=hamlet" />
		<tag k="name" v="Myre" />
		<tag k="place" v="farm" />
		<tag k="ssr:stedsnr" v="365542" />
	</node>
	<node lat="58.79551388777789" lon="8.808811108024567" id="-27321">
		<tag k="name" v="Kilane" />
		<tag k="place" v="farm" />
		<tag k="ssr:stedsnr" v="365642" />
	</node>
	<node lat="58.69243611035664" lon="8.761238895909583" id="-27322">
		<tag k="fixme" v="consider place=hamlet" />
		<tag k="name" v="Selås" />
		<tag k="place" v="farm" />
		<tag k="ssr:stedsnr" v="365914" />
	</node>
	<node lat="58.777427774018676" lon="8.977266672763008" id="-27370">
		<tag k="name" v="Kleggstøl" />
		<tag k="place" v="locality" />
		<tag k="ssr:stedsnr" v="395529" />
	</node>
	<node lat="58.83321021624991" lon="8.772811473177573" id="-27380">
		<tag k="name" v="Bjordamstaua" />
		<tag k="place" v="locality" />
		<tag k="ssr:stedsnr" v="395808" />
	</node>
	<node lat="58.73337571509272" lon="8.746159000682669" id="-27398">
		<tag k="name" v="Skeimyr" />
		<tag k="place" v="farm" />
		<tag k="ssr:stedsnr" v="486076" />
	</node>
	<node lat="58.72641944216121" lon="8.670783331405431" id="-27400">
		<tag k="fixme" v="consider place=hamlet" />
		<tag k="name" v="Ufsvatn" />
		<tag k="place" v="farm" />
		<tag k="ssr:stedsnr" v="486092" />
	</node>
	<node lat="58.7192583329687" lon="8.652122223411817" id="-27404">
		<tag k="fixme" v="consider place=hamlet" />
		<tag k="name" v="Eikås" />
		<tag k="place" v="farm" />
		<tag k="ssr:stedsnr" v="486055" />
	</node>
	<node lat="58.77090277914825" lon="8.90011944770249" id="-27406">
		<tag k="fixme" v="consider place=hamlet" />
		<tag k="name" v="Harekjær" />
		<tag k="place" v="farm" />
		<tag k="ssr:stedsnr" v="486454" />
	</node>
	<node lat="58.70709251265179" lon="8.835831008820842" id="-27413">
		<tag k="name" v="Berget" />
		<tag k="place" v="isolated_dwelling" />
		<tag k="ssr:stedsnr" v="486896" />
	</node>
	<node lat="58.73018888769298" lon="8.79581943923856" id="-27422">
		<tag k="name" v="Dale" />
		<tag k="place" v="farm" />
		<tag k="ssr:stedsnr" v="425116" />
	</node>
	<node lat="58.68035344564001" lon="8.817706084079102" id="-27425">
		<tag k="name" v="Ekra" />
		<tag k="place" v="farm" />
		<tag k="ssr:stedsnr" v="425916" />
	</node>
	<node lat="58.773375001931065" lon="8.740936118779256" id="-27431">
		<tag k="name" v="Tjernbrekka" />
		<tag k="place" v="locality" />
		<tag k="ssr:stedsnr" v="426512" />
	</node>
	<node lat="58.78371111028142" lon="8.67666389748112" id="-27436">
		<tag k="alt_name" v="Skålstaua" />
		<tag k="name" v="Skålstua" />
		<tag k="place" v="isolated_dwelling" />
		<tag k="ssr:stedsnr" v="426600" />
	</node>
	<node lat="58.69638610684801" lon="8.742249996050838" id="-27438">
		<tag k="name" v="Bakke" />
		<tag k="place" v="farm" />
		<tag k="ssr:stedsnr" v="426907" />
	</node>
	<node lat="58.726227777375506" lon="8.791488886908487" id="-27543">
		<tag k="name" v="Ettedalen" />
		<tag k="place" v="farm" />
		<tag k="ssr:stedsnr" v="517172" />
	</node>
	<node lat="58.76591666704734" lon="8.931983332511658" id="-27549">
		<tag k="name" v="Dalane" />
		<tag k="place" v="farm" />
		<tag k="ssr:stedsnr" v="517266" />
	</node>
	<node lat="58.76693610723583" lon="8.96841388923068" id="-27550">
		<tag k="name" v="Simonstad vestre" />
		<tag k="place" v="farm" />
		<tag k="ssr:stedsnr" v="517273" />
	</node>
	<node lat="58.772008335522145" lon="8.890036111303132" id="-27551">
		<tag k="name" v="Øygarden" />
		<tag k="place" v="locality" />
		<tag k="ssr:stedsnr" v="517275" />
	</node>
	<node lat="58.77238333260807" lon="8.90296111223494" id="-27553">
		<tag k="name" v="Stuestøl" />
		<tag k="place" v="locality" />
		<tag k="ssr:stedsnr" v="517280" />
	</node>
	<node lat="58.69331666949401" lon="8.84547777512213" id="-27558">
		<tag k="name" v="Røysland" />
		<tag k="place" v="locality" />
		<tag k="ssr:stedsnr" v="517418" />
	</node>
	<node lat="58.79643055163362" lon="8.821344438754434" id="-27578">
		<tag k="name" v="Korsli" />
		<tag k="place" v="locality" />
		<tag k="ssr:stedsnr" v="517761" />
	</node>
	<node lat="58.784394445349676" lon="8.825130557942689" id="-27579">
		<tag k="name" v="Vanes" />
		<tag k="place" v="farm" />
		<tag k="ssr:stedsnr" v="517762" />
	</node>
	<node lat="58.731791665418186" lon="8.751763887757672" id="-27592">
		<tag k="name" v="Fosså" />
		<tag k="place" v="farm" />
		<tag k="ssr:stedsnr" v="546098" />
	</node>
	<node lat="58.74452213141976" lon="8.754020988351872" id="-27596">
		<tag k="fixme" v="multiple name tags, choose one and add the other to alt_name" />
		<tag k="name" v="Kvisla;Sørdal" />
		<tag k="place" v="farm" />
		<tag k="ssr:stedsnr" v="547118" />
	</node>
	<node lat="58.71718610986938" lon="8.791233326139468" id="-27599">
		<tag k="name" v="Fosse" />
		<tag k="place" v="farm" />
		<tag k="ssr:stedsnr" v="547077" />
	</node>
	<node lat="58.796769807508504" lon="8.752567943636656" id="-27608">
		<tag k="name" v="Brattland" />
		<tag k="place" v="farm" />
		<tag k="ssr:stedsnr" v="547673" />
	</node>
	<node lat="58.77538701680391" lon="8.930714086879933" id="-27610">
		<tag k="name" v="Brattekleiv" />
		<tag k="place" v="farm" />
		<tag k="ssr:stedsnr" v="548424" />
	</node>
	<node lat="58.70292500199093" lon="8.785736113445056" id="-27615">
		<tag k="name" v="Songelia" />
		<tag k="place" v="locality" />
		<tag k="ssr:stedsnr" v="577009" />
	</node>
	<node lat="58.83516110882345" lon="8.890311109639585" id="-27638">
		<tag k="name" v="Linmoen" />
		<tag k="place" v="locality" />
		<tag k="ssr:stedsnr" v="577420" />
	</node>
	<node lat="58.81886388476674" lon="8.881600005505756" id="-27643">
		<tag k="name" v="Solli" />
		<tag k="place" v="farm" />
		<tag k="ssr:stedsnr" v="577449" />
	</node>
	<node lat="58.74953333657832" lon="8.739563891124583" id="-27644">
		<tag k="name" v="Stien" />
		<tag k="place" v="farm" />
		<tag k="ssr:stedsnr" v="577199" />
	</node>
	<node lat="58.74856111198088" lon="8.953699999164026" id="-27647">
		<tag k="name" v="Heimdal" />
		<tag k="place" v="farm" />
		<tag k="ssr:stedsnr" v="577512" />
	</node>
	<node lat="58.71442222272789" lon="8.65703333483013" id="-27659">
		<tag k="name" v="Liansvollen" />
		<tag k="place" v="locality" />
		<tag k="ssr:stedsnr" v="577742" />
	</node>
	<node lat="58.72329722486988" lon="8.838980551925484" id="-27686">
		<tag k="name" v="Nedre Gjerslia" />
		<tag k="place" v="locality" />
		<tag k="ssr:stedsnr" v="699060" />
	</node>
	<node lat="58.72606666970358" lon="8.778975004950006" id="-27710">
		<tag k="name" v="Rotkleivdalen" />
		<tag k="place" v="locality" />
		<tag k="ssr:stedsnr" v="699155" />
	</node>
	<node lat="58.74276388627587" lon="8.764458332377483" id="-27714">
		<tag k="name" v="Skarstøl" />
		<tag k="place" v="locality" />
		<tag k="ssr:stedsnr" v="699159" />
	</node>
	<node lat="58.74908332897184" lon="8.878888888613757" id="-27724">
		<tag k="name" v="Sletta" />
		<tag k="place" v="farm" />
		<tag k="ssr:stedsnr" v="699251" />
	</node>
	<node lat="58.759838886803294" lon="8.911366667246575" id="-27728">
		<tag k="name" v="Lia" />
		<tag k="place" v="locality" />
		<tag k="ssr:stedsnr" v="699261" />
	</node>
	<node lat="58.83346388450266" lon="8.85561666103002" id="-27730">
		<tag k="name" v="Sutste" />
		<tag k="place" v="locality" />
		<tag k="ssr:stedsnr" v="699423" />
	</node>
	<node lat="58.685422220814324" lon="8.821727776328672" id="-27754">
		<tag k="name" v="Bråten" />
		<tag k="place" v="farm" />
		<tag k="ssr:stedsnr" v="699605" />
	</node>
	<node lat="58.80568610924677" lon="8.946694445489591" id="-27773">
		<tag k="fixme" v="consider place=hamlet" />
		<tag k="name" v="Takserås" />
		<tag k="place" v="farm" />
		<tag k="ssr:stedsnr" v="607005" />
	</node>
	<node lat="58.722147226475265" lon="8.777925002578165" id="-27776">
		<tag k="name" v="Askekjerr" />
		<tag k="place" v="farm" />
		<tag k="ssr:stedsnr" v="607105" />
	</node>
	<node lat="58.73593889257633" lon="8.831413890214172" id="-27777">
		<tag k="alt_name" v="Bjormyr" />
		<tag k="name" v="Bjårmyr" />
		<tag k="place" v="isolated_dwelling" />
		<tag k="ssr:stedsnr" v="607119" />
	</node>
	<node lat="58.73665277670504" lon="8.813108325474094" id="-27778">
		<tag k="name" v="Ettestøl" />
		<tag k="place" v="farm" />
		<tag k="ssr:stedsnr" v="607121" />
	</node>
	<node lat="58.78160000018096" lon="8.993155562361649" id="-27796">
		<tag k="fixme" v="consider place=hamlet" />
		<tag k="name" v="Slettås" />
		<tag k="place" v="farm" />
		<tag k="ssr:stedsnr" v="608415" />
	</node>
	<node lat="58.68785833409408" lon="8.915619446669139" id="-27811">
		<tag k="name" v="Rundmyr" />
		<tag k="place" v="locality" />
		<tag k="ssr:stedsnr" v="638075" />
	</node>
	<node lat="58.70099166229917" lon="8.727569444837805" id="-27835">
		<tag k="name" v="Ospelunden" />
		<tag k="place" v="locality" />
		<tag k="ssr:stedsnr" v="638191" />
	</node>
	<node lat="58.7639138912482" lon="8.842713892395384" id="-27840">
		<tag k="name" v="Liaplassen" />
		<tag k="place" v="locality" />
		<tag k="ssr:stedsnr" v="638312" />
	</node>
	<node lat="58.81612500366241" lon="8.822727771391335" id="-27857">
		<tag k="name" v="Kvernnesroa" />
		<tag k="place" v="locality" />
		<tag k="ssr:stedsnr" v="638806" />
	</node>
	<node lat="58.78062500079246" lon="8.948638888687666" id="-27861">
		<tag k="name" v="Rønningen" />
		<tag k="place" v="isolated_dwelling" />
		<tag k="ssr:stedsnr" v="638590" />
	</node>
	<node lat="58.74058055761696" lon="8.656661110647686" id="-27876">
		<tag k="name" v="Lundstøl" />
		<tag k="place" v="isolated_dwelling" />
		<tag k="ssr:stedsnr" v="668016" />
	</node>
	<node lat="58.83736111346216" lon="8.854216667429155" id="-27878">
		<tag k="name" v="Øygardslia" />
		<tag k="place" v="farm" />
		<tag k="ssr:stedsnr" v="668095" />
	</node>
	<node lat="58.71326111491949" lon="8.853750007052444" id="-27884">
		<tag k="fixme" v="consider place=hamlet" />
		<tag k="name" v="Haugland" />
		<tag k="place" v="farm" />
		<tag k="ssr:stedsnr" v="668592" />
	</node>
	<node lat="58.8258951918515" lon="8.811136374164597" id="-27886">
		<tag k="name" v="Lyngvassdalen" />
		<tag k="place" v="farm" />
		<tag k="ssr:stedsnr" v="668689" />
	</node>
	<node lat="58.682668632118634" lon="8.805291562473082" id="-27887">
		<tag k="name" v="Rambergstea" />
		<tag k="place" v="locality" />
		<tag k="ssr:stedsnr" v="668911" />
	</node>
	<node lat="58.777899996511984" lon="8.915205561331941" id="-27889">
		<tag k="name" v="Flaten" />
		<tag k="place" v="farm" />
		<tag k="ssr:stedsnr" v="669413" />
	</node>
	<node lat="58.69337778097753" lon="8.75488888779123" id="-27899">
		<tag k="name" v="Nordigard" />
		<tag k="place" v="farm" />
		<tag k="ssr:stedsnr" v="699030" />
	</node>
	<node lat="58.787188887685595" lon="8.830383338992876" id="-27903">
		<tag k="name" v="Nesland" />
		<tag k="place" v="farm" />
		<tag k="ssr:stedsnr" v="699066" />
	</node>
	<node lat="58.69108055152516" lon="8.84424999811095" id="-27922">
		<tag k="name" v="Bjortjenndalen" />
		<tag k="place" v="locality" />
		<tag k="ssr:stedsnr" v="699411" />
	</node>
	<node lat="58.801288892009815" lon="8.848949993655701" id="-27955">
		<tag k="fixme" v="consider place=hamlet" />
		<tag k="name" v="Lindtveit" />
		<tag k="place" v="farm" />
		<tag k="ssr:stedsnr" v="729014" />
	</node>
	<node lat="58.74691667073721" lon="8.747527770910182" id="-27957">
		<tag k="name" v="Fossli" />
		<tag k="place" v="farm" />
		<tag k="ssr:stedsnr" v="729029" />
	</node>
	<node lat="58.831108332607826" lon="8.946463884072196" id="-27959">
		<tag k="name" v="Holmvassmyra" />
		<tag k="place" v="isolated_dwelling" />
		<tag k="ssr:stedsnr" v="729074" />
	</node>
	<node lat="58.70219166654337" lon="8.739530549261666" id="-27960">
		<tag k="name" v="Vangen" />
		<tag k="place" v="farm" />
		<tag k="ssr:stedsnr" v="729078" />
	</node>
	<node lat="58.722633331050254" lon="8.763244438497356" id="-27965">
		<tag k="fixme" v="consider place=hamlet" />
		<tag k="name" v="Espeland" />
		<tag k="place" v="farm" />
		<tag k="ssr:stedsnr" v="729116" />
	</node>
	<node lat="58.79836389168329" lon="8.97198888322873" id="-27970">
		<tag k="name" v="Tangane" />
		<tag k="place" v="isolated_dwelling" />
		<tag k="ssr:stedsnr" v="729478" />
	</node>
	<node lat="58.73624444737025" lon="8.985163894252693" id="-27971">
		<tag k="name" v="Bjorstemkjær" />
		<tag k="place" v="farm" />
		<tag k="ssr:stedsnr" v="729547" />
	</node>
	<node lat="58.7537416679336" lon="8.899352780248691" id="-28010">
		<tag k="name" v="Hegglund" />
		<tag k="place" v="farm" />
		<tag k="ssr:stedsnr" v="759457" />
	</node>
	<node lat="58.72802777883318" lon="8.667216660422648" id="-28012">
		<tag k="name" v="Jordet" />
		<tag k="place" v="farm" />
		<tag k="ssr:stedsnr" v="759707" />
	</node>
	<node lat="58.79546389097652" lon="8.725816670985159" id="-28019">
		<tag k="name" v="Bjelkekastet" />
		<tag k="place" v="isolated_dwelling" />
		<tag k="ssr:stedsnr" v="759813" />
	</node>
	<node lat="58.69989444759165" lon="8.738574996153888" id="-28038">
		<tag k="name" v="Fjell" />
		<tag k="place" v="farm" />
		<tag k="ssr:stedsnr" v="760218" />
	</node>
	<node lat="58.69223333700465" lon="8.752713892555494" id="-28040">
		<tag k="name" v="Vestigard" />
		<tag k="place" v="farm" />
		<tag k="ssr:stedsnr" v="760223" />
	</node>
	<node lat="58.737861474563175" lon="8.77294295553696" id="-28071">
		<tag k="name" v="Bråten" />
		<tag k="place" v="farm" />
		<tag k="ssr:stedsnr" v="911106" />
	</node>
	<node lat="58.73099986317709" lon="8.80077012770987" id="-28075">
		<tag k="name" v="Dalshov" />
		<tag k="place" v="farm" />
		<tag k="ssr:stedsnr" v="789122" />
	</node>
	<node lat="58.711822221069326" lon="8.796427770320408" id="-28076">
		<tag k="name" v="Nordheim" />
		<tag k="place" v="farm" />
		<tag k="ssr:stedsnr" v="789058" />
	</node>
	<node lat="58.75358333688598" lon="8.886088882317734" id="-28077">
		<tag k="fixme" v="consider place=hamlet" />
		<tag k="name" v="Ljøstad" />
		<tag k="place" v="farm" />
		<tag k="ssr:stedsnr" v="789373" />
	</node>
	<node lat="58.74082314221518" lon="8.995055530689578" id="-28080">
		<tag k="name" v="Saga" />
		<tag k="place" v="farm" />
		<tag k="ssr:stedsnr" v="911545" />
	</node>
	<node lat="58.744444440922635" lon="8.948547225196412" id="-28081">
		<tag k="name" v="Grasåsen" />
		<tag k="place" v="farm" />
		<tag k="ssr:stedsnr" v="911548" />
	</node>
	<node lat="58.72162499936051" lon="8.944383325462283" id="-28084">
		<tag k="name" v="Solbakken" />
		<tag k="place" v="farm" />
		<tag k="ssr:stedsnr" v="911576" />
	</node>
	<node lat="58.682144991885394" lon="8.821679138903301" id="-28086">
		<tag k="name" v="Brumoen" />
		<tag k="place" v="farm" />
		<tag k="ssr:stedsnr" v="789921" />
	</node>
	<node lat="58.759613888154725" lon="8.919233334881623" id="-28090">
		<tag k="alt_name" v="Olemstad" />
		<tag k="fixme" v="consider place=hamlet" />
		<tag k="name" v="Olimstad" />
		<tag k="place" v="farm" />
		<tag k="ssr:stedsnr" v="911415" />
	</node>
	<node lat="58.780873369285295" lon="8.722929821015454" id="-28097">
		<tag k="name" v="Espestøa" />
		<tag k="place" v="farm" />
		<tag k="ssr:stedsnr" v="790551" />
	</node>
	<node lat="58.750955553912384" lon="8.761858334227373" id="-28108">
		<tag k="name" v="Bjørkholta" />
		<tag k="place" v="locality" />
		<tag k="ssr:stedsnr" v="911932" />
	</node>
	<node lat="58.66398888672321" lon="8.780344441784454" id="-28109">
		<tag k="name" v="Kleiveheia" />
		<tag k="place" v="farm" />
		<tag k="ssr:stedsnr" v="911938" />
	</node>
	<node lat="58.70875555966157" lon="8.857211103550162" id="-28131">
		<tag k="name" v="Almdalstølen" />
		<tag k="place" v="locality" />
		<tag k="ssr:stedsnr" v="820404" />
	</node>
	<node lat="58.80137275508494" lon="8.853903685427607" id="-28133">
		<tag k="name" v="Lunde" />
		<tag k="place" v="farm" />
		<tag k="ssr:stedsnr" v="820378" />
	</node>
	<node lat="58.81606389199731" lon="8.895072221157381" id="-28135">
		<tag k="name" v="Bjørndalen" />
		<tag k="place" v="locality" />
		<tag k="ssr:stedsnr" v="820386" />
	</node>
	<node lat="58.720877777003665" lon="8.681141669475208" id="-28146">
		<tag k="name" v="Kollen" />
		<tag k="place" v="locality" />
		<tag k="ssr:stedsnr" v="820682" />
	</node>
	<node lat="58.71578888806653" lon="8.82431943692089" id="-28188">
		<tag k="name" v="Stormyrlia" />
		<tag k="place" v="farm" />
		<tag k="ssr:stedsnr" v="850093" />
	</node>
	<node lat="58.71020833524865" lon="8.928158333590392" id="-28192">
		<tag k="name" v="Flaten" />
		<tag k="place" v="isolated_dwelling" />
		<tag k="ssr:stedsnr" v="850577" />
	</node>
	<node lat="58.75166111471598" lon="8.670599997468953" id="-28193">
		<tag k="name" v="Eiker" />
		<tag k="place" v="locality" />
		<tag k="ssr:stedsnr" v="850927" />
	</node>
	<node lat="58.83695000332264" lon="8.85212221507298" id="-28194">
		<tag k="name" v="Vollane" />
		<tag k="place" v="farm" />
		<tag k="ssr:stedsnr" v="851103" />
	</node>
	<node lat="58.74210555993048" lon="8.7492388818845" id="-28197">
		<tag k="name" v="Bruslåtta" />
		<tag k="place" v="farm" />
		<tag k="ssr:stedsnr" v="851102" />
	</node>
	<node lat="58.69379166825304" lon="8.936199999412343" id="-28232">
		<tag k="name" v="Lyngrot" />
		<tag k="place" v="locality" />
		<tag k="ssr:stedsnr" v="881465" />
	</node>
	<node lat="58.80123889061045" lon="8.97667499928024" id="-28262">
		<tag k="name" v="Bjørnåsmyra" />
		<tag k="place" v="farm" />
		<tag k="ssr:stedsnr" v="911014" />
	</node>
	<node lat="58.717269440327826" lon="8.781961112080637" id="-28264">
		<tag k="name" v="Hausland" />
		<tag k="place" v="farm" />
		<tag k="ssr:stedsnr" v="911075" />
	</node>
	<node lat="58.75190000034012" lon="9.002577773213254" id="-28268">
		<tag k="name" v="Limyra" />
		<tag k="place" v="farm" />
		<tag k="ssr:stedsnr" v="911357" />
	</node>
	<node lat="58.7688194437956" lon="8.682786117360168" id="-28269">
		<tag k="historic" v="shieling" />
		<tag k="name" v="Grasli" />
		<tag k="place" v="isolated_dwelling" />
		<tag k="ssr:stedsnr" v="911503" />
	</node>
	<node lat="58.733888892165524" lon="8.750144452251485" id="-28282">
		<tag k="alt_name" v="Mosti" />
		<tag k="name" v="Maste" />
		<tag k="place" v="farm" />
		<tag k="ssr:stedsnr" v="96" />
	</node>
	<node lat="58.85429999988098" lon="8.852708334351298" id="-28283">
		<tag k="name" v="Trettebekkmoen" />
		<tag k="place" v="isolated_dwelling" />
		<tag k="ssr:stedsnr" v="180" />
	</node>
	<node lat="58.70875278133851" lon="8.846016661728093" id="-28288">
		<tag k="name" v="Skotkjær" />
		<tag k="place" v="farm" />
		<tag k="ssr:stedsnr" v="588" />
	</node>
	<node lat="58.79590833461413" lon="8.706869443237853" id="-28292">
		<tag k="alt_name" v="Rausandlia" />
		<tag k="fixme" v="consider place=hamlet" />
		<tag k="name" v="Raudsandlia" />
		<tag k="place" v="farm" />
		<tag k="ssr:stedsnr" v="1634" />
	</node>
	<node lat="58.786277778131485" lon="8.979263883656" id="-28294">
		<tag k="name" v="Stormyr" />
		<tag k="place" v="farm" />
		<tag k="ssr:stedsnr" v="1449" />
	</node>
	<node lat="58.69557935794023" lon="8.772089662584452" id="-28297">
		<tag k="name" v="Åsheim" />
		<tag k="place" v="farm" />
		<tag k="ssr:stedsnr" v="1876" />
	</node>
	<node lat="58.68947811795147" lon="8.825309775833135" id="-28298">
		<tag k="name" v="Saglia" />
		<tag k="place" v="farm" />
		<tag k="ssr:stedsnr" v="1922" />
	</node>
	<node lat="58.781641664946996" lon="8.868036115715924" id="-28308">
		<tag k="name" v="Støle" />
		<tag k="place" v="farm" />
		<tag k="ssr:stedsnr" v="31052" />
	</node>
	<node lat="58.75295000444453" lon="8.744794442441805" id="-28323">
		<tag k="name" v="Mohaug" />
		<tag k="place" v="farm" />
		<tag k="ssr:stedsnr" v="31190" />
	</node>
	<node lat="58.783158333150126" lon="8.83074167094189" id="-28333">
		<tag k="name" v="Rugnestangen" />
		<tag k="place" v="isolated_dwelling" />
		<tag k="ssr:stedsnr" v="31062" />
	</node>
	<node lat="58.664344447218895" lon="8.819966672832724" id="-28344">
		<tag k="name" v="Rønningen" />
		<tag k="place" v="locality" />
		<tag k="ssr:stedsnr" v="31154" />
	</node>
	<node lat="58.72850833336686" lon="8.75406943805152" id="-28345">
		<tag k="name" v="Bergland" />
		<tag k="place" v="farm" />
		<tag k="ssr:stedsnr" v="31157" />
	</node>
	<node lat="58.73291944259604" lon="8.953897214288917" id="-28387">
		<tag k="name" v="Øygarden" />
		<tag k="place" v="locality" />
		<tag k="ssr:stedsnr" v="31555" />
	</node>
	<node lat="58.716444442688704" lon="8.66796111428592" id="-28396">
		<tag k="name" v="Øygarden" />
		<tag k="place" v="locality" />
		<tag k="ssr:stedsnr" v="31738" />
	</node>
	<node lat="58.79371110826518" lon="8.759786103938765" id="-28404">
		<tag k="name" v="Eidet" />
		<tag k="place" v="farm" />
		<tag k="ssr:stedsnr" v="31847" />
	</node>
	<node lat="58.781531639900436" lon="8.732544157989684" id="-28415">
		<tag k="name" v="Engen" />
		<tag k="place" v="farm" />
		<tag k="ssr:stedsnr" v="31857" />
	</node>
	<node lat="58.72590277826217" lon="8.669597213616555" id="-28421">
		<tag k="name" v="Ufsvatn" />
		<tag k="place" v="farm" />
		<tag k="ssr:stedsnr" v="60362" />
	</node>
	<node lat="58.670175003533224" lon="8.818288891370402" id="-28424">
		<tag k="name" v="Kallarberg" />
		<tag k="place" v="farm" />
		<tag k="ssr:stedsnr" v="61957" />
	</node>
	<node lat="58.71904722437421" lon="8.792258330618868" id="-28431">
		<tag k="name" v="Borge" />
		<tag k="place" v="farm" />
		<tag k="ssr:stedsnr" v="61053" />
	</node>
	<node lat="58.74958055958419" lon="8.943650000008047" id="-28434">
		<tag k="alt_name" v="Mønekjenn" />
		<tag k="name" v="Mønetjern" />
		<tag k="place" v="farm" />
		<tag k="ssr:stedsnr" v="61336" />
	</node>
	<node lat="58.71184999904181" lon="8.926186112310036" id="-28443">
		<tag k="name" v="Hola" />
		<tag k="place" v="farm" />
		<tag k="ssr:stedsnr" v="61566" />
	</node>
	<node lat="58.74835555895955" lon="8.743852774883138" id="-28449">
		<tag k="alt_name" v="Moheim" />
		<tag k="name" v="Nordheim" />
		<tag k="place" v="farm" />
		<tag k="ssr:stedsnr" v="62034" />
	</node>
	<node lat="58.77359166798872" lon="8.86157778281843" id="-28453">
		<tag k="name" v="Høl" />
		<tag k="place" v="farm" />
		<tag k="ssr:stedsnr" v="62434" />
	</node>
	<node lat="58.78029350804208" lon="8.852426989350707" id="-28455">
		<tag k="name" v="Vegar" />
		<tag k="place" v="farm" />
		<tag k="ssr:stedsnr" v="62465" />
	</node>
	<node lat="58.67765833201093" lon="8.824252785750547" id="-28530">
		<tag k="name" v="Moen" />
		<tag k="place" v="farm" />
		<tag k="ssr:stedsnr" v="92684" />
	</node>
	<node lat="58.7252555559031" lon="8.666455556719447" id="-28532">
		<tag k="name" v="Bråten" />
		<tag k="place" v="locality" />
		<tag k="ssr:stedsnr" v="92690" />
	</node>
	<node lat="58.783930551659715" lon="8.732716660973573" id="-28555">
		<tag k="name" v="Rønningen" />
		<tag k="place" v="locality" />
		<tag k="ssr:stedsnr" v="92842" />
	</node>
	<node lat="58.75338333467397" lon="8.68587777570339" id="-28560">
		<tag k="name" v="Knatten" />
		<tag k="place" v="isolated_dwelling" />
		<tag k="ssr:stedsnr" v="92858" />
	</node>
	<node lat="58.76588055329071" lon="8.696397226883597" id="-28566">
		<tag k="name" v="Åre østre" />
		<tag k="place" v="locality" />
		<tag k="ssr:stedsnr" v="92953" />
	</node>
	<node lat="58.74793055129448" lon="9.00033334108494" id="-28579">
		<tag k="name" v="Fossen" />
		<tag k="place" v="isolated_dwelling" />
		<tag k="ssr:stedsnr" v="122496" />
	</node>
	<node lat="58.74651388942352" lon="8.952286108164312" id="-28580">
		<tag k="name" v="Rød" />
		<tag k="place" v="farm" />
		<tag k="ssr:stedsnr" v="122497" />
	</node>
	<node lat="58.73557499895056" lon="8.922280562876143" id="-28581">
		<tag k="name" v="Arnheim" />
		<tag k="place" v="farm" />
		<tag k="ssr:stedsnr" v="122533" />
	</node>
	<node lat="58.72674444614871" lon="8.864727771923423" id="-28586">
		<tag k="name" v="Voll" />
		<tag k="place" v="farm" />
		<tag k="ssr:stedsnr" v="122564" />
	</node>
	<node lat="58.81902777690559" lon="8.83827499223379" id="-28589">
		<tag k="name" v="Rennsunda" />
		<tag k="place" v="isolated_dwelling" />
		<tag k="ssr:stedsnr" v="122652" />
	</node>
	<node lat="58.66159780815884" lon="8.804864283515368" id="-28594">
		<tag k="name" v="Kleiva" />
		<tag k="place" v="locality" />
		<tag k="ssr:stedsnr" v="122953" />
	</node>
	<node lat="58.66312248451971" lon="8.813351946209234" id="-28595">
		<tag k="name" v="Bråten" />
		<tag k="place" v="farm" />
		<tag k="ssr:stedsnr" v="122954" />
	</node>
	<node lat="58.809372225424575" lon="8.772091672161036" id="-28601">
		<tag k="name" v="Mortenstaua" />
		<tag k="place" v="locality" />
		<tag k="ssr:stedsnr" v="152172" />
	</node>
	<node lat="58.80734166836909" lon="8.886369443059563" id="-28616">
		<tag k="name" v="Romundstadstranda" />
		<tag k="place" v="farm" />
		<tag k="ssr:stedsnr" v="153099" />
	</node>
	<node lat="58.67147500024724" lon="8.832141661562758" id="-28636">
		<tag k="name" v="Fidalen" />
		<tag k="place" v="locality" />
		<tag k="ssr:stedsnr" v="153025" />
	</node>
	<node lat="58.79779722528493" lon="8.721294446812859" id="-28650">
		<tag k="name" v="Sonnmyr" />
		<tag k="place" v="locality" />
		<tag k="ssr:stedsnr" v="153130" />
	</node>
	<node lat="58.6577527822082" lon="8.816927782413615" id="-28651">
		<tag k="name" v="Våje vest" />
		<tag k="place" v="farm" />
		<tag k="ssr:stedsnr" v="153135" />
	</node>
	<node lat="58.815238892124015" lon="8.76122500704881" id="-28654">
		<tag k="name" v="Sultangmyrbua" />
		<tag k="place" v="locality" />
		<tag k="ssr:stedsnr" v="153142" />
	</node>
	<node lat="58.80504166957273" lon="8.958688894867601" id="-28704">
		<tag k="name" v="Skogli" />
		<tag k="place" v="farm" />
		<tag k="ssr:stedsnr" v="182009" />
	</node>
	<node lat="58.76776267644426" lon="8.733058589276919" id="-28705">
		<tag k="name" v="Øygarden" />
		<tag k="place" v="farm" />
		<tag k="ssr:stedsnr" v="182492" />
	</node>
	<node lat="58.81690268241926" lon="8.878072207075073" id="-28710">
		<tag k="name" v="Haukenes" />
		<tag k="place" v="farm" />
		<tag k="ssr:stedsnr" v="183058" />
	</node>
	<node lat="58.71509444576349" lon="8.792011115106975" id="-28712">
		<tag k="name" v="Søreng" />
		<tag k="place" v="farm" />
		<tag k="ssr:stedsnr" v="183066" />
	</node>
	<node lat="58.73588055743464" lon="8.925672218759821" id="-28723">
		<tag k="name" v="Ramsland" />
		<tag k="place" v="farm" />
		<tag k="ssr:stedsnr" v="183521" />
	</node>
	<node lat="58.72153055650077" lon="8.933713895819881" id="-28724">
		<tag k="fixme" v="consider place=hamlet" />
		<tag k="name" v="Værland" />
		<tag k="place" v="farm" />
		<tag k="ssr:stedsnr" v="183528" />
	</node>
	<node lat="58.72593590105357" lon="8.93552598865123" id="-28725">
		<tag k="fixme" v="multiple name tags, choose one and add the other to alt_name" />
		<tag k="name" v="Kvennhuslia;Værland" />
		<tag k="place" v="farm" />
		<tag k="ssr:stedsnr" v="183529" />
	</node>
	<node lat="58.7902361113822" lon="8.799786108363016" id="-28732">
		<tag k="alt_name" v="Fersnes" />
		<tag k="name" v="Færsnes" />
		<tag k="place" v="farm" />
		<tag k="ssr:stedsnr" v="183580" />
	</node>
	<node lat="58.69281944689212" lon="8.780336105176598" id="-28734">
		<tag k="name" v="Frivoll" />
		<tag k="place" v="farm" />
		<tag k="ssr:stedsnr" v="183880" />
	</node>
	<node lat="58.75377777808782" lon="8.718744440882617" id="-28736">
		<tag k="alt_name" v="Tjusslia" />
		<tag k="name" v="Tjuslia" />
		<tag k="place" v="locality" />
		<tag k="ssr:stedsnr" v="183944" />
	</node>
	<node lat="58.780363889793065" lon="8.884050005249179" id="-28740">
		<tag k="fixme" v="consider place=hamlet" />
		<tag k="name" v="Dalane" />
		<tag k="place" v="farm" />
		<tag k="ssr:stedsnr" v="184478" />
	</node>
	<node lat="58.694541666636304" lon="8.780069436634369" id="-28744">
		<tag k="name" v="Åsen" />
		<tag k="place" v="farm" />
		<tag k="ssr:stedsnr" v="214051" />
	</node>
	<node lat="58.72298888474871" lon="8.834483329570162" id="-28746">
		<tag k="name" v="Øvre Gjerslia" />
		<tag k="place" v="locality" />
		<tag k="ssr:stedsnr" v="214055" />
	</node>
	<node lat="58.70554999990578" lon="8.802219442851767" id="-28752">
		<tag k="historic" v="shieling" />
		<tag k="name" v="Lonstølen" />
		<tag k="place" v="isolated_dwelling" />
		<tag k="ssr:stedsnr" v="214016" />
	</node>
	<node lat="58.79463610867045" lon="8.83754999919439" id="-28763">
		<tag k="name" v="Rønningen" />
		<tag k="place" v="locality" />
		<tag k="ssr:stedsnr" v="214070" />
	</node>
	<node lat="58.790875001400444" lon="8.838027775680818" id="-28764">
		<tag k="name" v="Nesstranda" />
		<tag k="place" v="isolated_dwelling" />
		<tag k="ssr:stedsnr" v="214072" />
	</node>
	<node lat="58.69684166485684" lon="8.953599997239271" id="-28779">
		<tag k="name" v="Steika" />
		<tag k="place" v="locality" />
		<tag k="ssr:stedsnr" v="214244" />
	</node>
	<node lat="58.7605944444241" lon="8.911061116778827" id="-28782">
		<tag k="name" v="Lunden" />
		<tag k="place" v="locality" />
		<tag k="ssr:stedsnr" v="214257" />
	</node>
	<node lat="58.74100555535898" lon="8.950886108777835" id="-28810">
		<tag k="name" v="Bakkane" />
		<tag k="place" v="locality" />
		<tag k="ssr:stedsnr" v="214553" />
	</node>
	<node lat="58.70715832899525" lon="8.69860000228427" id="-28828">
		<tag k="name" v="Dal" />
		<tag k="place" v="locality" />
		<tag k="ssr:stedsnr" v="214767" />
	</node>
	<node lat="58.66536388901591" lon="8.812733341432649" id="-28866">
		<tag k="building" v="industrial" />
		<tag k="industrial" v="factory" />
		<tag k="name" v="Saga" />
		<tag k="ssr:stedsnr" v="274142" />
	</node>
	<node lat="58.75258055479874" lon="8.861036109678793" id="-28874">
		<tag k="amenity" v="school" />
		<tag k="name" v="Vegårshei skule" />
		<tag k="ssr:stedsnr" v="274229" />
	</node>
</osm>
