<?xml version="1.0" encoding="UTF-8"?>
<osm generator="osmapis" version="0.6">
	<node changeset="58497758" id="4471613952" lat="58.8379828" lon="8.9856527" timestamp="2018-04-28T08:07:05Z" uid="3497659" user="NKA" version="3">
		<tag k="alt_name" v="Svarttjernsæter" />
		<tag k="building" v="cabin" />
		<tag k="historic" v="shieling" />
		<tag k="name" v="Svarttjenn" />
		<tag k="place" v="isolated_dwelling" />
		<tag k="ssr:stedsnr" v="122097" />
		<tag k="ssr:type" v="fritidsbolig" />
	</node>
	<node changeset="57982147" id="4471613953" lat="58.8883438" lon="8.9393626" timestamp="2018-04-10T18:50:30Z" uid="3497659" user="NKA" version="2">
		<tag k="name" v="Svarvaren" />
		<tag k="place" v="farm" />
		<tag k="ssr:stedsnr" v="934446" />
		<tag k="ssr:type" v="bruk" />
	</node>
	<node changeset="57982147" id="4471613954" lat="58.8536549" lon="9.0808872" timestamp="2018-04-10T18:50:30Z" uid="3497659" user="NKA" version="2">
		<tag k="name" v="Tangen" />
		<tag k="place" v="farm" />
		<tag k="ssr:stedsnr" v="729155" />
		<tag k="ssr:type" v="eneboligMindreBoligbygg" />
	</node>
	<node changeset="57982147" id="4471613955" lat="58.8779892" lon="9.0286134" timestamp="2018-04-10T18:50:30Z" uid="3497659" user="NKA" version="2">
		<tag k="name" v="Tangen" />
		<tag k="place" v="farm" />
		<tag k="ssr:stedsnr" v="509771" />
		<tag k="ssr:type" v="bruk" />
	</node>
	<node changeset="57982147" id="4471613956" lat="58.9225557" lon="8.9584486" timestamp="2018-04-10T18:50:30Z" uid="3497659" user="NKA" version="2">
		<tag k="name" v="Tangvall" />
		<tag k="place" v="farm" />
		<tag k="ssr:stedsnr" v="569848" />
		<tag k="ssr:type" v="eneboligMindreBoligbygg" />
	</node>
	<node changeset="57982147" id="4471613957" lat="58.8417955" lon="9.0816236" timestamp="2018-04-10T18:50:30Z" uid="3497659" user="NKA" version="2">
		<tag k="name" v="Tegleverket" />
		<tag k="place" v="farm" />
		<tag k="ssr:stedsnr" v="569969" />
		<tag k="ssr:type" v="bruk" />
	</node>
	<node changeset="57982147" id="4471613958" lat="58.8886378" lon="9.0499572" timestamp="2018-04-10T18:50:30Z" uid="3497659" user="NKA" version="4">
		<tag k="addr:city" v="Gjerstad" />
		<tag k="addr:housenumber" v="144" />
		<tag k="addr:postcode" v="4980" />
		<tag k="addr:street" v="Aplandsveien" />
		<tag k="ele" v="80" />
		<tag k="email" v="magnus@tjennbakken.no" />
		<tag k="name" v="Tjennbakken" />
		<tag k="phone" v="+47 90163589" />
		<tag k="place" v="farm" />
		<tag k="ssr:stedsnr" v="509986" />
		<tag k="ssr:type" v="bruk" />
		<tag k="website" v="http://www.tjennbakken.no/" />
	</node>
	<node changeset="57982147" id="4471613959" lat="58.8881108" lon="9.0563679" timestamp="2018-04-10T18:50:30Z" uid="3497659" user="NKA" version="2">
		<tag k="name" v="Tjennstranda" />
		<tag k="place" v="farm" />
		<tag k="ssr:stedsnr" v="267800" />
		<tag k="ssr:type" v="bruk" />
	</node>
	<node changeset="57982147" id="4471613960" lat="58.8961315" lon="8.9766682" timestamp="2018-04-10T18:50:31Z" uid="3497659" user="NKA" version="2">
		<tag k="name" v="Tollheimen" />
		<tag k="place" v="farm" />
		<tag k="ssr:stedsnr" v="388986" />
		<tag k="ssr:type" v="eneboligMindreBoligbygg" />
	</node>
	<node changeset="57982147" id="4471613961" lat="58.8821205" lon="8.8550616" timestamp="2018-04-10T18:50:31Z" uid="3497659" user="NKA" version="2">
		<tag k="building" v="cabin" />
		<tag k="name" v="Torbjørnslia" />
		<tag k="place" v="isolated_dwelling" />
		<tag k="ssr:stedsnr" v="668274" />
		<tag k="ssr:type" v="fritidsbolig" />
	</node>
	<node changeset="57982147" id="4471613962" lat="58.839352" lon="8.9598878" timestamp="2018-04-10T18:50:31Z" uid="3497659" user="NKA" version="2">
		<tag k="building" v="cabin" />
		<tag k="name" v="Tormodsmyr" />
		<tag k="place" v="isolated_dwelling" />
		<tag k="ssr:stedsnr" v="752929" />
		<tag k="ssr:type" v="fritidsbolig" />
	</node>
	<node changeset="57982147" id="4471613963" lat="58.8821843" lon="8.9960624" timestamp="2018-04-10T18:50:31Z" uid="3497659" user="NKA" version="2">
		<tag k="name" v="Trevoll" />
		<tag k="place" v="farm" />
		<tag k="ssr:stedsnr" v="509800" />
		<tag k="ssr:type" v="bruk" />
	</node>
	<node changeset="58497758" id="4471613964" lat="58.8593176" lon="9.182247" timestamp="2018-04-28T08:07:05Z" uid="3497659" user="NKA" version="3">
		<tag k="fixme" v="check position" />
		<tag k="historic" v="shieling" />
		<tag k="name" v="Trollvasseteren" />
		<tag k="place" v="locality" />
		<tag k="ruins" v="yes" />
		<tag k="ssr:stedsnr" v="24660" />
		<tag k="ssr:type" v="seterStøl" />
	</node>
	<node changeset="57982147" id="4471613965" lat="58.8601744" lon="9.1477125" timestamp="2018-04-10T18:50:31Z" uid="3497659" user="NKA" version="2">
		<tag k="fixme" v="check position" />
		<tag k="historic" v="ruins" />
		<tag k="name" v="Tufttjenndalen" />
		<tag k="place" v="locality" />
		<tag k="ssr:stedsnr" v="934712" />
		<tag k="ssr:type" v="gammelBosettingsplass" />
	</node>
	<node changeset="57982147" id="4471613966" lat="58.8614758" lon="9.1541654" timestamp="2018-04-10T18:50:31Z" uid="3497659" user="NKA" version="2">
		<tag k="alt_name" v="Tufttjernøygard" />
		<tag k="name" v="Tufttjennøygard" />
		<tag k="place" v="farm" />
		<tag k="ssr:stedsnr" v="122116" />
		<tag k="ssr:type" v="bruk" />
	</node>
	<node changeset="57982147" id="4471613967" lat="58.8901213" lon="9.0146668" timestamp="2018-04-10T18:50:32Z" uid="3497659" user="NKA" version="2">
		<tag k="name" v="Tuvestykket" />
		<tag k="place" v="farm" />
		<tag k="ssr:stedsnr" v="266745" />
		<tag k="ssr:type" v="bruk" />
	</node>
	<node changeset="57982147" id="4471613968" lat="58.8517299" lon="9.0909723" timestamp="2018-04-10T18:50:32Z" uid="3497659" user="NKA" version="2">
		<tag k="name" v="Tveit" />
		<tag k="place" v="farm" />
		<tag k="ssr:stedsnr" v="851115" />
		<tag k="ssr:type" v="bruk" />
	</node>
	<node changeset="57982147" id="4471613969" lat="58.8500527" lon="9.0832074" timestamp="2018-04-10T18:50:32Z" uid="3497659" user="NKA" version="2">
		<tag k="name" v="Tveitstangen" />
		<tag k="place" v="farm" />
		<tag k="ssr:stedsnr" v="813971" />
		<tag k="ssr:type" v="bruk" />
	</node>
	<node changeset="57982147" id="4471613970" lat="58.869576" lon="9.0184156" timestamp="2018-04-10T18:50:32Z" uid="3497659" user="NKA" version="2">
		<tag k="name" v="Ulltveit" />
		<tag k="place" v="farm" />
		<tag k="ssr:stedsnr" v="789164" />
		<tag k="ssr:type" v="bruk" />
	</node>
	<node changeset="58497758" id="4471613971" lat="58.8017839" lon="9.020202" timestamp="2018-04-28T08:07:05Z" uid="3497659" user="NKA" version="3">
		<tag k="building" v="cabin" />
		<tag k="historic" v="shieling" />
		<tag k="name" v="Urfjelldalen" />
		<tag k="place" v="isolated_dwelling" />
		<tag k="ssr:stedsnr" v="145869" />
		<tag k="ssr:type" v="seterStøl" />
	</node>
	<node changeset="57982147" id="4471613972" lat="58.9234704" lon="8.9481136" timestamp="2018-04-10T18:50:32Z" uid="3497659" user="NKA" version="2">
		<tag k="name" v="Valle" />
		<tag k="place" v="farm" />
		<tag k="ssr:stedsnr" v="630823" />
		<tag k="ssr:type" v="eneboligMindreBoligbygg" />
	</node>
	<node changeset="57982147" id="4471613973" lat="58.8830166" lon="8.9408617" timestamp="2018-04-10T18:50:32Z" uid="3497659" user="NKA" version="2">
		<tag k="name" v="Varden" />
		<tag k="place" v="farm" />
		<tag k="ssr:stedsnr" v="327745" />
		<tag k="ssr:type" v="bruk" />
	</node>
	<node changeset="57982147" id="4471613974" lat="58.8745127" lon="8.8592641" timestamp="2018-04-10T18:50:32Z" uid="3497659" user="NKA" version="2">
		<tag k="historic" v="ruins" />
		<tag k="name" v="Vefall" />
		<tag k="place" v="locality" />
		<tag k="ssr:stedsnr" v="851188" />
		<tag k="ssr:type" v="gammelBosettingsplass" />
	</node>
	<node changeset="57982147" id="4471613975" lat="58.83874" lon="8.973393" timestamp="2018-04-10T18:50:32Z" uid="3497659" user="NKA" version="2">
		<tag k="alt_name" v="Vedhus" />
		<tag k="name" v="Vehus" />
		<tag k="place" v="farm" />
		<tag k="ssr:stedsnr" v="729097" />
		<tag k="ssr:type" v="bruk" />
	</node>
	<node changeset="57982147" id="4471613976" lat="58.8481739" lon="8.982812" timestamp="2018-04-10T18:50:33Z" uid="3497659" user="NKA" version="2">
		<tag k="alt_name" v="Vehusmyra" />
		<tag k="building" v="cabin" />
		<tag k="name" v="Vehusmyr" />
		<tag k="place" v="isolated_dwelling" />
		<tag k="ssr:stedsnr" v="729135" />
		<tag k="ssr:type" v="fritidsbolig" />
	</node>
	<node changeset="57982147" id="4471613977" lat="58.899219" lon="8.9709827" timestamp="2018-04-10T18:50:33Z" uid="3497659" user="NKA" version="2">
		<tag k="name" v="Vekjen" />
		<tag k="place" v="farm" />
		<tag k="ssr:stedsnr" v="123779" />
		<tag k="ssr:type" v="bruk" />
	</node>
	<node changeset="57982147" id="4471613978" lat="58.8163349" lon="9.0309436" timestamp="2018-04-10T18:50:33Z" uid="3497659" user="NKA" version="2">
		<tag k="name" v="Venli" />
		<tag k="place" v="farm" />
		<tag k="ssr:stedsnr" v="365023" />
		<tag k="ssr:type" v="bruk" />
	</node>
	<node changeset="57982147" id="4471613979" lat="58.8380212" lon="9.0311216" timestamp="2018-04-10T18:50:33Z" uid="3497659" user="NKA" version="2">
		<tag k="building" v="cabin" />
		<tag k="name" v="Venli" />
		<tag k="place" v="isolated_dwelling" />
		<tag k="ssr:stedsnr" v="388943" />
		<tag k="ssr:type" v="fritidsbolig" />
	</node>
	<node changeset="57982147" id="4471613980" lat="58.828685" lon="8.9612799" timestamp="2018-04-10T18:50:33Z" uid="3497659" user="NKA" version="2">
		<tag k="name" v="Venås" />
		<tag k="place" v="farm" />
		<tag k="ssr:stedsnr" v="304071" />
		<tag k="ssr:type" v="bruk" />
	</node>
	<node changeset="57982147" id="4471613981" lat="58.8101392" lon="9.0394542" timestamp="2018-04-10T18:50:33Z" uid="3497659" user="NKA" version="2">
		<tag k="building" v="cabin" />
		<tag k="name" v="Vesterli" />
		<tag k="place" v="isolated_dwelling" />
		<tag k="ssr:stedsnr" v="873863" />
		<tag k="ssr:type" v="fritidsbolig" />
	</node>
	<node changeset="57982147" id="4471613982" lat="58.874068" lon="9.033911" timestamp="2018-04-10T18:50:33Z" uid="3497659" user="NKA" version="2">
		<tag k="name" v="Vestgård" />
		<tag k="place" v="farm" />
		<tag k="ssr:stedsnr" v="365191" />
		<tag k="ssr:type" v="bruk" />
	</node>
	<node changeset="57982147" id="4471613983" lat="58.9619602" lon="8.9632957" timestamp="2018-04-10T18:50:33Z" uid="3497659" user="NKA" version="2">
		<tag k="building" v="cabin" />
		<tag k="name" v="Vestiøygard" />
		<tag k="place" v="isolated_dwelling" />
		<tag k="ssr:stedsnr" v="876" />
		<tag k="ssr:type" v="fritidsbolig" />
	</node>
	<node changeset="57982147" id="4471613984" lat="58.884741" lon="8.948673" timestamp="2018-04-10T18:50:34Z" uid="3497659" user="NKA" version="2">
		<tag k="name" v="Vestre Løyte" />
		<tag k="place" v="farm" />
		<tag k="ssr:stedsnr" v="970151" />
		<tag k="ssr:type" v="bruk" />
	</node>
	<node changeset="57982147" id="4471613985" lat="58.8607539" lon="8.9217812" timestamp="2018-04-10T18:50:34Z" uid="3497659" user="NKA" version="2">
		<tag k="name" v="Vestøl" />
		<tag k="place" v="hamlet" />
		<tag k="ssr:stedsnr" v="789147" />
		<tag k="ssr:type" v="bruk" />
	</node>
	<node changeset="57982147" id="4471613986" lat="58.8963342" lon="8.9903353" timestamp="2018-04-10T18:50:34Z" uid="3497659" user="NKA" version="2">
		<tag k="name" v="Vevstad" />
		<tag k="place" v="farm" />
		<tag k="ssr:stedsnr" v="668807" />
		<tag k="ssr:type" v="bruk" />
	</node>
	<node changeset="57982147" id="4471613987" lat="58.8627364" lon="8.8677018" timestamp="2018-04-10T18:50:34Z" uid="3497659" user="NKA" version="2">
		<tag k="fixme" v="check position" />
		<tag k="historic" v="ruins" />
		<tag k="name" v="Vik" />
		<tag k="place" v="locality" />
		<tag k="ssr:stedsnr" v="546168" />
		<tag k="ssr:type" v="gammelBosettingsplass" />
	</node>
	<node changeset="57982147" id="4471613988" lat="58.8685204" lon="9.0452622" timestamp="2018-04-10T18:50:34Z" uid="3497659" user="NKA" version="2">
		<tag k="name" v="Vik" />
		<tag k="place" v="farm" />
		<tag k="ssr:stedsnr" v="122145" />
		<tag k="ssr:type" v="bruk" />
	</node>
	<node changeset="57982147" id="4471613989" lat="58.827375" lon="9.1059716" timestamp="2018-04-10T18:50:34Z" uid="3497659" user="NKA" version="2">
		<tag k="name" v="Vika" />
		<tag k="place" v="farm" />
		<tag k="ssr:stedsnr" v="850057" />
		<tag k="ssr:type" v="bruk" />
	</node>
	<node changeset="57982147" id="4471613990" lat="58.859406" lon="9.1150509" timestamp="2018-04-10T18:50:34Z" uid="3497659" user="NKA" version="2">
		<tag k="name" v="Vindfjell" />
		<tag k="place" v="farm" />
		<tag k="ssr:stedsnr" v="122115" />
		<tag k="ssr:type" v="eneboligMindreBoligbygg" />
	</node>
	<node changeset="57982147" id="4471613991" lat="58.9063047" lon="8.9613554" timestamp="2018-04-10T18:50:34Z" uid="3497659" user="NKA" version="2">
		<tag k="name" v="Våle" />
		<tag k="place" v="farm" />
		<tag k="ssr:stedsnr" v="244784" />
		<tag k="ssr:type" v="bruk" />
	</node>
	<node changeset="57982147" id="4471614381" lat="58.8558785" lon="9.0555112" timestamp="2018-04-10T18:50:35Z" uid="3497659" user="NKA" version="2">
		<tag k="building" v="cabin" />
		<tag k="name" v="Åsen" />
		<tag k="place" v="isolated_dwelling" />
		<tag k="ssr:stedsnr" v="207992" />
		<tag k="ssr:type" v="fritidsbolig" />
	</node>
	<node changeset="56035354" id="4434045674" lat="58.8827591" lon="9.0197118" timestamp="2018-02-03T17:50:00Z" uid="2114448" user="FredrikLindseth_import" version="3" />
	<node changeset="56035354" id="4434045673" lat="58.8827876" lon="9.0196909" timestamp="2018-02-03T17:50:00Z" uid="2114448" user="FredrikLindseth_import" version="3" />
	<node changeset="57982147" id="4471613614" lat="58.8842645" lon="9.0413226" timestamp="2018-04-10T18:50:00Z" uid="3497659" user="NKA" version="2">
		<tag k="alt_name" v="Apeland" />
		<tag k="name" v="Apland" />
		<tag k="place" v="farm" />
		<tag k="ssr:stedsnr" v="668257" />
		<tag k="ssr:type" v="bruk" />
	</node>
	<node changeset="57982147" id="4471613615" lat="58.8891195" lon="9.0435571" timestamp="2018-04-10T18:50:00Z" uid="3497659" user="NKA" version="2">
		<tag k="name" v="Ausland" />
		<tag k="place" v="hamlet" />
		<tag k="ssr:stedsnr" v="729268" />
		<tag k="ssr:type" v="grend" />
	</node>
	<node changeset="57982147" id="4471613616" lat="58.8925703" lon="8.9973173" timestamp="2018-04-10T18:50:00Z" uid="3497659" user="NKA" version="2">
		<tag k="name" v="Bakkane" />
		<tag k="place" v="farm" />
		<tag k="ssr:stedsnr" v="327725" />
		<tag k="ssr:type" v="eneboligMindreBoligbygg" />
	</node>
	<node changeset="57982147" id="4471613617" lat="58.8325583" lon="9.0565291" timestamp="2018-04-10T18:50:01Z" uid="3497659" user="NKA" version="2">
		<tag k="fixme" v="check position" />
		<tag k="name" v="Bakken" />
		<tag k="place" v="locality" />
		<tag k="ruins" v="yes" />
		<tag k="ssr:stedsnr" v="145778" />
		<tag k="ssr:type" v="bruk" />
	</node>
	<node changeset="57982147" id="4471613618" lat="58.8148306" lon="9.0455633" timestamp="2018-04-10T18:50:01Z" uid="3497659" user="NKA" version="2">
		<tag k="name" v="Barbulia" />
		<tag k="place" v="farm" />
		<tag k="ssr:stedsnr" v="304024" />
		<tag k="ssr:type" v="eneboligMindreBoligbygg" />
	</node>
	<node changeset="57982147" id="4471613619" lat="58.8807673" lon="8.9939106" timestamp="2018-04-10T18:50:01Z" uid="3497659" user="NKA" version="2">
		<tag k="name" v="Bjellås" />
		<tag k="place" v="farm" />
		<tag k="ssr:stedsnr" v="691766" />
		<tag k="ssr:type" v="bruk" />
	</node>
	<node changeset="57982147" id="4471613620" lat="58.8101574" lon="9.0948293" timestamp="2018-04-10T18:50:01Z" uid="3497659" user="NKA" version="2">
		<tag k="name" v="Bjordammen" />
		<tag k="place" v="farm" />
		<tag k="ssr:stedsnr" v="691926" />
		<tag k="ssr:type" v="bruk" />
	</node>
	<node changeset="57982147" id="4471613621" lat="58.8429019" lon="9.118662" timestamp="2018-04-10T18:50:01Z" uid="3497659" user="NKA" version="2">
		<tag k="name" v="Bjordammen" />
		<tag k="place" v="farm" />
		<tag k="ssr:stedsnr" v="729093" />
		<tag k="ssr:type" v="bruk" />
	</node>
	<node changeset="57982147" id="4471613622" lat="58.818506" lon="9.0027221" timestamp="2018-04-10T18:50:01Z" uid="3497659" user="NKA" version="2">
		<tag k="alt_name" v="Bjortjerndalen" />
		<tag k="name" v="Bjortjenndalen" />
		<tag k="place" v="farm" />
		<tag k="ssr:stedsnr" v="911054" />
		<tag k="ssr:type" v="eneboligMindreBoligbygg" />
	</node>
	<node changeset="57982147" id="4471613623" lat="58.8357611" lon="9.0950236" timestamp="2018-04-10T18:50:01Z" uid="3497659" user="NKA" version="2">
		<tag k="name" v="Bjørndalen" />
		<tag k="place" v="farm" />
		<tag k="ssr:stedsnr" v="426069" />
		<tag k="ssr:type" v="bruk" />
	</node>
	<node changeset="57982147" id="4471613624" lat="58.8648088" lon="9.0021196" timestamp="2018-04-10T18:50:01Z" uid="3497659" user="NKA" version="2">
		<tag k="alt_name" v="Bjørn" />
		<tag k="building" v="cabin" />
		<tag k="name" v="Bjørns" />
		<tag k="place" v="isolated_dwelling" />
		<tag k="ssr:stedsnr" v="486142" />
		<tag k="ssr:type" v="fritidsbolig" />
	</node>
	<node changeset="57982147" id="4471613625" lat="58.9790706" lon="8.9750926" timestamp="2018-04-10T18:50:02Z" uid="3497659" user="NKA" version="2">
		<tag k="building" v="cabin" />
		<tag k="name" v="Bjørnstad" />
		<tag k="place" v="isolated_dwelling" />
		<tag k="ssr:stedsnr" v="728993" />
		<tag k="ssr:type" v="fritidsbolig" />
	</node>
	<node changeset="57982147" id="4471613626" lat="58.9107124" lon="8.8618591" timestamp="2018-04-10T18:50:02Z" uid="3497659" user="NKA" version="2">
		<tag k="eve" v="394" />
		<tag k="name" v="Bjørnåsen" />
		<tag k="natural" v="hill" />
		<tag k="place" v="locality" />
		<tag k="ssr:stedsnr" v="244877" />
		<tag k="ssr:type" v="fritidsbolig" />
	</node>
	<node changeset="57982147" id="4471613627" lat="58.8705616" lon="9.0010313" timestamp="2018-04-10T18:50:02Z" uid="3497659" user="NKA" version="2">
		<tag k="name" v="Brattli" />
		<tag k="place" v="farm" />
		<tag k="ssr:stedsnr" v="570816" />
		<tag k="ssr:type" v="bruk" />
	</node>
	<node changeset="57982147" id="4471613628" lat="58.864004" lon="9.1409123" timestamp="2018-04-10T18:50:02Z" uid="3497659" user="NKA" version="2">
		<tag k="alt_name" v="Breidøygard" />
		<tag k="name" v="Breiøygard" />
		<tag k="place" v="farm" />
		<tag k="ssr:stedsnr" v="668173" />
		<tag k="ssr:type" v="bruk" />
	</node>
	<node changeset="57982147" id="4471613629" lat="58.8907376" lon="8.9980532" timestamp="2018-04-10T18:50:02Z" uid="3497659" user="NKA" version="2">
		<tag k="name" v="Brekka" />
		<tag k="place" v="farm" />
		<tag k="ssr:stedsnr" v="934733" />
		<tag k="ssr:type" v="bruk" />
	</node>
	<node changeset="57982147" id="4471613630" lat="58.902402" lon="9.0245877" timestamp="2018-04-10T18:50:02Z" uid="3497659" user="NKA" version="2">
		<tag k="alt_name" v="Brenndalsmoen" />
		<tag k="name" v="Brendalsmoen" />
		<tag k="place" v="farm" />
		<tag k="ssr:stedsnr" v="851793" />
		<tag k="ssr:type" v="bruk" />
	</node>
	<node changeset="57982147" id="4471613631" lat="58.8126324" lon="9.0867148" timestamp="2018-04-10T18:50:02Z" uid="3497659" user="NKA" version="2">
		<tag k="alt_name" v="Brokland" />
		<tag k="name" v="Brokeland" />
		<tag k="place" v="hamlet" />
		<tag k="ssr:stedsnr" v="365024" />
		<tag k="ssr:type" v="bruk" />
	</node>
	<node changeset="57982147" id="4471613633" lat="58.8868947" lon="9.0588839" timestamp="2018-04-10T18:50:02Z" uid="3497659" user="NKA" version="2">
		<tag k="name" v="Brubakken" />
		<tag k="place" v="farm" />
		<tag k="ssr:stedsnr" v="61230" />
		<tag k="ssr:type" v="bruk" />
	</node>
	<node changeset="57982147" id="4471613634" lat="58.8162885" lon="9.1454835" timestamp="2018-04-10T18:50:02Z" uid="3497659" user="NKA" version="2">
		<tag k="alt_name" v="Brudalstøa" />
		<tag k="building" v="cabin" />
		<tag k="name" v="Brudalsstøa" />
		<tag k="place" v="isolated_dwelling" />
		<tag k="ssr:stedsnr" v="62012" />
		<tag k="ssr:type" v="fritidsbolig" />
	</node>
	<node changeset="57982147" id="4471613635" lat="58.7955153" lon="9.0980138" timestamp="2018-04-10T18:50:03Z" uid="3497659" user="NKA" version="2">
		<tag k="name" v="Bråtane" />
		<tag k="place" v="farm" />
		<tag k="ssr:stedsnr" v="426430" />
		<tag k="ssr:type" v="bruk" />
	</node>
	<node changeset="57982147" id="4471613636" lat="58.8384639" lon="9.0995708" timestamp="2018-04-10T18:50:03Z" uid="3497659" user="NKA" version="2">
		<tag k="name" v="Bråtane" />
		<tag k="place" v="farm" />
		<tag k="ssr:stedsnr" v="630721" />
		<tag k="ssr:type" v="bruk" />
	</node>
	<node changeset="57982147" id="4471613637" lat="58.8462269" lon="9.1153868" timestamp="2018-04-10T18:50:03Z" uid="3497659" user="NKA" version="2">
		<tag k="name" v="Bråtane" />
		<tag k="place" v="farm" />
		<tag k="ssr:stedsnr" v="145988" />
		<tag k="ssr:type" v="bruk" />
	</node>
	<node changeset="57982147" id="4471613638" lat="58.8687793" lon="9.0787405" timestamp="2018-04-10T18:50:03Z" uid="3497659" user="NKA" version="2">
		<tag k="fixme" v="check position" />
		<tag k="historic" v="ruins" />
		<tag k="name" v="Bråtane" />
		<tag k="place" v="locality" />
		<tag k="ssr:stedsnr" v="752847" />
		<tag k="ssr:type" v="gammelBosettingsplass" />
	</node>
	<node changeset="57982147" id="4471613639" lat="58.8810044" lon="9.0032754" timestamp="2018-04-10T18:50:03Z" uid="3497659" user="NKA" version="2">
		<tag k="name" v="Bråtane" />
		<tag k="place" v="farm" />
		<tag k="ssr:stedsnr" v="668207" />
		<tag k="ssr:type" v="bruk" />
	</node>
	<node changeset="57982147" id="4471613640" lat="58.8907512" lon="9.0507713" timestamp="2018-04-10T18:50:03Z" uid="3497659" user="NKA" version="2">
		<tag k="name" v="Bråtane" />
		<tag k="place" v="farm" />
		<tag k="ssr:stedsnr" v="509989" />
		<tag k="ssr:type" v="bruk" />
	</node>
	<node changeset="57982147" id="4471613641" lat="58.9041898" lon="9.0206502" timestamp="2018-04-10T18:50:03Z" uid="3497659" user="NKA" version="2">
		<tag k="name" v="Bråtane" />
		<tag k="place" v="farm" />
		<tag k="ssr:stedsnr" v="366780" />
		<tag k="ssr:type" v="eneboligMindreBoligbygg" />
	</node>
	<node changeset="57982147" id="4471613642" lat="58.8239189" lon="9.094613" timestamp="2018-04-10T18:50:03Z" uid="3497659" user="NKA" version="2">
		<tag k="name" v="Bråten" />
		<tag k="place" v="farm" />
		<tag k="ssr:stedsnr" v="570712" />
		<tag k="ssr:type" v="bruk" />
	</node>
	<node changeset="57982147" id="4471613643" lat="58.8351882" lon="9.0844223" timestamp="2018-04-10T18:50:03Z" uid="3497659" user="NKA" version="2">
		<tag k="name" v="Bråten" />
		<tag k="place" v="farm" />
		<tag k="ssr:stedsnr" v="752730" />
		<tag k="ssr:type" v="bruk" />
	</node>
	<node changeset="57982147" id="4471613644" lat="58.8634813" lon="9.0423493" timestamp="2018-04-10T18:50:04Z" uid="3497659" user="NKA" version="2">
		<tag k="name" v="Bråten" />
		<tag k="place" v="farm" />
		<tag k="ssr:stedsnr" v="873788" />
		<tag k="ssr:type" v="bruk" />
	</node>
	<node changeset="57982147" id="4471613645" lat="58.8908281" lon="8.9869916" timestamp="2018-04-10T18:50:04Z" uid="3497659" user="NKA" version="2">
		<tag k="name" v="Bråten" />
		<tag k="place" v="farm" />
		<tag k="ssr:stedsnr" v="243208" />
		<tag k="ssr:type" v="eneboligMindreBoligbygg" />
	</node>
	<node changeset="57982147" id="4471613646" lat="58.9618312" lon="8.9696167" timestamp="2018-04-10T18:50:04Z" uid="3497659" user="NKA" version="2">
		<tag k="building" v="cabin" />
		<tag k="name" v="Bråtøygard" />
		<tag k="place" v="isolated_dwelling" />
		<tag k="ssr:stedsnr" v="426911" />
		<tag k="ssr:type" v="fritidsbolig" />
	</node>
	<node changeset="57982147" id="4471613647" lat="58.8541156" lon="9.0622077" timestamp="2018-04-10T18:50:04Z" uid="3497659" user="NKA" version="2">
		<tag k="name" v="Byholt" />
		<tag k="place" v="farm" />
		<tag k="ssr:stedsnr" v="244129" />
		<tag k="ssr:type" v="bruk" />
	</node>
	<node changeset="57982147" id="4471613648" lat="58.8912205" lon="8.9513307" timestamp="2018-04-10T18:50:04Z" uid="3497659" user="NKA" version="2">
		<tag k="name" v="Dalane" />
		<tag k="place" v="farm" />
		<tag k="ssr:stedsnr" v="122796" />
		<tag k="ssr:type" v="bruk" />
	</node>
	<node changeset="57982147" id="4471613649" lat="58.8058199" lon="9.0901433" timestamp="2018-04-10T18:50:04Z" uid="3497659" user="NKA" version="2">
		<tag k="name" v="Dalen" />
		<tag k="place" v="farm" />
		<tag k="ssr:stedsnr" v="182468" />
		<tag k="ssr:type" v="bruk" />
	</node>
	<node changeset="57982147" id="4471613650" lat="58.8934881" lon="9.0010766" timestamp="2018-04-10T18:50:04Z" uid="3497659" user="NKA" version="2">
		<tag k="name" v="Dalen" />
		<tag k="place" v="farm" />
		<tag k="ssr:stedsnr" v="851799" />
		<tag k="ssr:type" v="bruk" />
	</node>
	<node changeset="57982147" id="4471613651" lat="58.8887038" lon="9.0247691" timestamp="2018-04-10T18:50:04Z" uid="3497659" user="NKA" version="2">
		<tag k="name" v="Danielsplass" />
		<tag k="place" v="farm" />
		<tag k="ssr:stedsnr" v="813743" />
		<tag k="ssr:type" v="eneboligMindreBoligbygg" />
	</node>
	<node changeset="57982147" id="4471613652" lat="58.9574876" lon="8.9631858" timestamp="2018-04-10T18:50:04Z" uid="3497659" user="NKA" version="2">
		<tag k="building" v="cabin" />
		<tag k="name" v="Digerdal" />
		<tag k="place" v="isolated_dwelling" />
		<tag k="ssr:stedsnr" v="850902" />
		<tag k="ssr:type" v="fritidsbolig" />
	</node>
	<node changeset="57982147" id="4471613653" lat="58.8723465" lon="9.0128394" timestamp="2018-04-10T18:50:04Z" uid="3497659" user="NKA" version="2">
		<tag k="name" v="Egddalen" />
		<tag k="place" v="hamlet" />
		<tag k="ssr:stedsnr" v="911204" />
		<tag k="ssr:type" v="grend" />
	</node>
	<node changeset="57982147" id="4471613654" lat="58.8761167" lon="9.0140294" timestamp="2018-04-10T18:50:05Z" uid="3497659" user="NKA" version="2">
		<tag k="name" v="Egderød" />
		<tag k="place" v="farm" />
		<tag k="ssr:stedsnr" v="266822" />
		<tag k="ssr:type" v="bruk" />
	</node>
	<node changeset="57982147" id="4471613655" lat="58.8134911" lon="9.0993223" timestamp="2018-04-10T18:50:05Z" uid="3497659" user="NKA" version="2">
		<tag k="name" v="Eidet" />
		<tag k="place" v="farm" />
		<tag k="ssr:stedsnr" v="145934" />
		<tag k="ssr:type" v="bruk" />
	</node>
	<node changeset="57982147" id="4471613656" lat="58.8021452" lon="9.0961565" timestamp="2018-04-10T18:50:05Z" uid="3497659" user="NKA" version="2">
		<tag k="name" v="Eikeland" />
		<tag k="place" v="hamlet" />
		<tag k="ssr:stedsnr" v="668490" />
		<tag k="ssr:type" v="bruk" />
	</node>
	<node changeset="57982147" id="4471613657" lat="58.8255793" lon="9.1540274" timestamp="2018-04-10T18:50:05Z" uid="3497659" user="NKA" version="2">
		<tag k="alt_name" v="Eikestøtjerret" />
		<tag k="building" v="cabin" />
		<tag k="name" v="Eikstøkjerret" />
		<tag k="place" v="isolated_dwelling" />
		<tag k="ssr:stedsnr" v="607037" />
		<tag k="ssr:type" v="fritidsbolig" />
	</node>
	<node changeset="57982147" id="4471613658" lat="58.8947803" lon="8.9776675" timestamp="2018-04-10T18:50:05Z" uid="3497659" user="NKA" version="2">
		<tag k="name" v="Eikvadsbråten" />
		<tag k="place" v="farm" />
		<tag k="ssr:stedsnr" v="266990" />
		<tag k="ssr:type" v="eneboligMindreBoligbygg" />
	</node>
	<node changeset="57982147" id="4471613659" lat="58.8491727" lon="9.1221003" timestamp="2018-04-10T18:50:05Z" uid="3497659" user="NKA" version="2">
		<tag k="historic" v="ruins" />
		<tag k="name" v="Elvebakken" />
		<tag k="place" v="locality" />
		<tag k="ssr:stedsnr" v="607111" />
		<tag k="ssr:type" v="bruk" />
	</node>
	<node changeset="57982147" id="4471613660" lat="58.892528" lon="9.0298539" timestamp="2018-04-10T18:50:05Z" uid="3497659" user="NKA" version="2">
		<tag k="name" v="Eskeland" />
		<tag k="place" v="farm" />
		<tag k="ssr:stedsnr" v="668806" />
		<tag k="ssr:type" v="bruk" />
	</node>
	<node changeset="57982147" id="4471613661" lat="58.8296805" lon="8.9700446" timestamp="2018-04-10T18:50:05Z" uid="3497659" user="NKA" version="2">
		<tag k="name" v="Espemyråsen" />
		<tag k="place" v="farm" />
		<tag k="ssr:stedsnr" v="183071" />
		<tag k="ssr:type" v="bruk" />
	</node>
	<node changeset="57982147" id="4471613662" lat="58.7661199" lon="9.0392697" timestamp="2018-04-10T18:50:05Z" uid="3497659" user="NKA" version="2">
		<tag k="building" v="cabin" />
		<tag k="name" v="Espestø" />
		<tag k="place" v="isolated_dwelling" />
		<tag k="ssr:stedsnr" v="364389" />
		<tag k="ssr:type" v="fritidsbolig" />
	</node>
	<node changeset="57982147" id="4471613663" lat="58.8106495" lon="9.1101188" timestamp="2018-04-10T18:50:06Z" uid="3497659" user="NKA" version="2">
		<tag k="alt_name" v="Espevika" />
		<tag k="name" v="Espevik" />
		<tag k="place" v="farm" />
		<tag k="ssr:stedsnr" v="183015" />
		<tag k="ssr:type" v="bruk" />
	</node>
	<node changeset="57982147" id="4471613664" lat="58.9248952" lon="9.0140053" timestamp="2018-04-10T18:50:06Z" uid="3497659" user="NKA" version="2">
		<tag k="building" v="cabin" />
		<tag k="name" v="Evjebu" />
		<tag k="place" v="isolated_dwelling" />
		<tag k="ssr:stedsnr" v="388873" />
		<tag k="ssr:type" v="fritidsbolig" />
	</node>
	<node changeset="57982147" id="4471613665" lat="58.8042522" lon="9.0773465" timestamp="2018-04-10T18:50:06Z" uid="3497659" user="NKA" version="2">
		<tag k="name" v="Fiane" />
		<tag k="place" v="village" />
		<tag k="ssr:stedsnr" v="729472" />
		<tag k="ssr:type" v="tettsted" />
	</node>
	<node changeset="57982147" id="4471613666" lat="58.936789" lon="8.877657" timestamp="2018-04-10T18:50:06Z" uid="3497659" user="NKA" version="2">
		<tag k="fixme" v="check position" />
		<tag k="historic" v="ruins" />
		<tag k="name" v="Finnen" />
		<tag k="place" v="locality" />
		<tag k="ssr:stedsnr" v="547841" />
		<tag k="ssr:type" v="gammelBosettingsplass" />
	</node>
	<node changeset="57982147" id="4471613667" lat="58.8638905" lon="8.9098433" timestamp="2018-04-10T18:50:06Z" uid="3497659" user="NKA" version="2">
		<tag k="alt_name" v="Finnlia" />
		<tag k="fixme" v="check position" />
		<tag k="historic" v="ruins" />
		<tag k="name" v="Finnli" />
		<tag k="place" v="locality" />
		<tag k="ssr:stedsnr" v="304163" />
		<tag k="ssr:type" v="gammelBosettingsplass" />
	</node>
	<node changeset="57982147" id="4471613668" lat="58.8650104" lon="8.9133086" timestamp="2018-04-10T18:50:06Z" uid="3497659" user="NKA" version="2">
		<tag k="name" v="Fjellheim" />
		<tag k="place" v="farm" />
		<tag k="ssr:stedsnr" v="304164" />
		<tag k="ssr:type" v="bruk" />
	</node>
	<node changeset="57982147" id="4471613669" lat="58.8998777" lon="9.0026667" timestamp="2018-04-10T18:50:06Z" uid="3497659" user="NKA" version="2">
		<tag k="name" v="Fjellstad" />
		<tag k="place" v="farm" />
		<tag k="ssr:stedsnr" v="206745" />
		<tag k="ssr:type" v="bruk" />
	</node>
	<node changeset="58497758" id="4471613670" lat="58.8432478" lon="9.0049474" timestamp="2018-04-28T08:07:04Z" uid="3497659" user="NKA" version="3">
		<tag k="building" v="cabin" />
		<tag k="historic" v="shieling" />
		<tag k="name" v="Fjellstøl" />
		<tag k="place" v="isolated_dwelling" />
		<tag k="ssr:stedsnr" v="85931" />
		<tag k="ssr:type" v="seterStøl" />
	</node>
	<node changeset="57982147" id="4471613671" lat="58.9665397" lon="8.8969045" timestamp="2018-04-10T18:50:06Z" uid="3497659" user="NKA" version="2">
		<tag k="building" v="cabin" />
		<tag k="name" v="Fjosbu" />
		<tag k="place" v="isolated_dwelling" />
		<tag k="ssr:stedsnr" v="486885" />
		<tag k="ssr:type" v="fritidsbolig" />
	</node>
	<node changeset="57982147" id="4471613672" lat="58.7993712" lon="9.1203114" timestamp="2018-04-10T18:50:07Z" uid="3497659" user="NKA" version="2">
		<tag k="name" v="Flaten" />
		<tag k="place" v="farm" />
		<tag k="ssr:stedsnr" v="790452" />
		<tag k="ssr:type" v="bruk" />
	</node>
	<node changeset="57982147" id="4471613673" lat="58.8902329" lon="9.0474557" timestamp="2018-04-10T18:50:07Z" uid="3497659" user="NKA" version="2">
		<tag k="name" v="Flaten" />
		<tag k="place" v="farm" />
		<tag k="ssr:stedsnr" v="569988" />
		<tag k="ssr:type" v="bruk" />
	</node>
	<node changeset="57982147" id="4471613674" lat="58.9006988" lon="9.0076871" timestamp="2018-04-10T18:50:07Z" uid="3497659" user="NKA" version="2">
		<tag k="name" v="Flaten" />
		<tag k="place" v="farm" />
		<tag k="ssr:stedsnr" v="305797" />
		<tag k="ssr:type" v="bruk" />
	</node>
	<node changeset="57982147" id="4471613675" lat="58.9017825" lon="9.0180571" timestamp="2018-04-10T18:50:07Z" uid="3497659" user="NKA" version="2">
		<tag k="name" v="Flåta" />
		<tag k="place" v="farm" />
		<tag k="ssr:stedsnr" v="449734" />
		<tag k="ssr:type" v="bruk" />
	</node>
	<node changeset="57982147" id="4471613676" lat="58.8491928" lon="9.0778767" timestamp="2018-04-10T18:50:07Z" uid="3497659" user="NKA" version="2">
		<tag k="name" v="Fone" />
		<tag k="place" v="farm" />
		<tag k="ssr:stedsnr" v="607116" />
		<tag k="ssr:type" v="bruk" />
	</node>
	<node changeset="57982147" id="4471613677" lat="58.9032773" lon="9.0142828" timestamp="2018-04-10T18:50:07Z" uid="3497659" user="NKA" version="2">
		<tag k="name" v="Fossbrekk" />
		<tag k="place" v="farm" />
		<tag k="ssr:stedsnr" v="548786" />
		<tag k="ssr:type" v="bruk" />
	</node>
	<node changeset="57982147" id="4471613678" lat="58.806097" lon="9.1073338" timestamp="2018-04-10T18:50:07Z" uid="3497659" user="NKA" version="2">
		<tag k="name" v="Fossen" />
		<tag k="place" v="farm" />
		<tag k="ssr:stedsnr" v="24942" />
		<tag k="ssr:type" v="bruk" />
	</node>
	<node changeset="57982147" id="4471613679" lat="58.8473205" lon="9.0856302" timestamp="2018-04-10T18:50:07Z" uid="3497659" user="NKA" version="2">
		<tag k="name" v="Fossåsen" />
		<tag k="place" v="farm" />
		<tag k="ssr:stedsnr" v="1134" />
		<tag k="ssr:type" v="bruk" />
	</node>
	<node changeset="57982147" id="4471613680" lat="58.8516253" lon="9.1220393" timestamp="2018-04-10T18:50:07Z" uid="3497659" user="NKA" version="2">
		<tag k="name" v="Gamleplass" />
		<tag k="place" v="locality" />
		<tag k="ssr:stedsnr" v="936000" />
		<tag k="ssr:type" v="gammelBosettingsplass" />
	</node>
	<node changeset="57982147" id="4471613681" lat="58.8797274" lon="9.0216276" timestamp="2018-04-10T18:50:08Z" uid="3497659" user="NKA" version="2">
		<tag k="name" v="Gjerstad prestegard" />
		<tag k="place" v="farm" />
		<tag k="ssr:stedsnr" v="24830" />
		<tag k="ssr:type" v="bruk" />
	</node>
	<node changeset="56035354" id="4434045682" lat="58.8828509" lon="9.0196422" timestamp="2018-02-03T17:50:00Z" uid="2114448" user="FredrikLindseth_import" version="3" />
	<node changeset="57982147" id="4471613683" lat="58.837142" lon="9.0915987" timestamp="2018-04-10T18:50:08Z" uid="3497659" user="NKA" version="2">
		<tag k="name" v="Granli" />
		<tag k="place" v="farm" />
		<tag k="ssr:stedsnr" v="934737" />
		<tag k="ssr:type" v="bruk" />
	</node>
	<node changeset="57982147" id="4471613684" lat="58.8758724" lon="9.0252933" timestamp="2018-04-10T18:50:08Z" uid="3497659" user="NKA" version="2">
		<tag k="name" v="Grantangen" />
		<tag k="place" v="farm" />
		<tag k="ssr:stedsnr" v="691797" />
		<tag k="ssr:type" v="bruk" />
	</node>
	<node changeset="57982147" id="4471613685" lat="58.8817351" lon="8.8074505" timestamp="2018-04-10T18:50:08Z" uid="3497659" user="NKA" version="2">
		<tag k="fixme" v="check position" />
		<tag k="historic" v="ruins" />
		<tag k="name" v="Grasåsen" />
		<tag k="place" v="locality" />
		<tag k="ssr:stedsnr" v="304732" />
		<tag k="ssr:type" v="gammelBosettingsplass" />
	</node>
	<node changeset="57982147" id="4471613686" lat="58.8973384" lon="8.999204" timestamp="2018-04-10T18:50:08Z" uid="3497659" user="NKA" version="2">
		<tag k="name" v="Grunnsvoll" />
		<tag k="place" v="farm" />
		<tag k="ssr:stedsnr" v="24772" />
		<tag k="ssr:type" v="bruk" />
	</node>
	<node changeset="57982147" id="4471613687" lat="58.8299641" lon="9.0542043" timestamp="2018-04-10T18:50:08Z" uid="3497659" user="NKA" version="2">
		<tag k="name" v="Gryting" />
		<tag k="place" v="farm" />
		<tag k="ssr:stedsnr" v="546070" />
		<tag k="ssr:type" v="bruk" />
	</node>
	<node changeset="57982147" id="4471613688" lat="58.8313041" lon="9.0557224" timestamp="2018-04-10T18:50:09Z" uid="3497659" user="NKA" version="2">
		<tag k="name" v="Grytinggrend" />
		<tag k="place" v="hamlet" />
		<tag k="ssr:stedsnr" v="206781" />
		<tag k="ssr:type" v="grend" />
	</node>
	<node changeset="57982147" id="4471613689" lat="58.8009094" lon="9.1311609" timestamp="2018-04-10T18:50:09Z" uid="3497659" user="NKA" version="2">
		<tag k="building" v="cabin" />
		<tag k="name" v="Grønland" />
		<tag k="place" v="isolated_dwelling" />
		<tag k="ssr:stedsnr" v="790496" />
		<tag k="ssr:type" v="fritidsbolig" />
	</node>
	<node changeset="57982147" id="4471613690" lat="58.891981" lon="9.0598609" timestamp="2018-04-10T18:50:09Z" uid="3497659" user="NKA" version="2">
		<tag k="name" v="Gunnustad" />
		<tag k="place" v="farm" />
		<tag k="ssr:stedsnr" v="486244" />
		<tag k="ssr:type" v="bruk" />
	</node>
	<node changeset="57982147" id="4471613691" lat="58.8444164" lon="9.1177194" timestamp="2018-04-10T18:50:09Z" uid="3497659" user="NKA" version="2">
		<tag k="name" v="Hagane" />
		<tag k="place" v="farm" />
		<tag k="ssr:stedsnr" v="692990" />
		<tag k="ssr:type" v="bruk" />
	</node>
	<node changeset="57982147" id="4471613692" lat="58.852123" lon="9.0695352" timestamp="2018-04-10T18:50:09Z" uid="3497659" user="NKA" version="2">
		<tag k="name" v="Hagane" />
		<tag k="place" v="farm" />
		<tag k="ssr:stedsnr" v="122112" />
		<tag k="ssr:type" v="bruk" />
	</node>
	<node changeset="57982147" id="4471613693" lat="58.8261" lon="9.0460784" timestamp="2018-04-10T18:50:09Z" uid="3497659" user="NKA" version="2">
		<tag k="name" v="Hagelia" />
		<tag k="place" v="farm" />
		<tag k="ssr:stedsnr" v="813954" />
		<tag k="ssr:type" v="bruk" />
	</node>
	<node changeset="57982147" id="4471613694" lat="58.8829252" lon="8.9313743" timestamp="2018-04-10T18:50:09Z" uid="3497659" user="NKA" version="2">
		<tag k="name" v="Hagen" />
		<tag k="place" v="farm" />
		<tag k="ssr:stedsnr" v="668270" />
		<tag k="ssr:type" v="bruk" />
	</node>
	<node changeset="57982147" id="4471613695" lat="58.8753235" lon="9.0311045" timestamp="2018-04-10T18:50:09Z" uid="3497659" user="NKA" version="2">
		<tag k="name" v="Hallen" />
		<tag k="place" v="farm" />
		<tag k="ssr:stedsnr" v="607198" />
		<tag k="ssr:type" v="bruk" />
	</node>
	<node changeset="57982147" id="4471613696" lat="58.8306193" lon="9.1001427" timestamp="2018-04-10T18:50:09Z" uid="3497659" user="NKA" version="2">
		<tag k="alt_name" v="Fergestaden" />
		<tag k="name" v="Harsund" />
		<tag k="place" v="farm" />
		<tag k="ssr:stedsnr" v="668068" />
		<tag k="ssr:type" v="eneboligMindreBoligbygg" />
	</node>
	<node changeset="57982147" id="4471613697" lat="58.8235954" lon="9.1671269" timestamp="2018-04-10T18:50:10Z" uid="3497659" user="NKA" version="2">
		<tag k="fixme" v="check position" />
		<tag k="historic" v="ruins" />
		<tag k="name" v="Hasseldalen" />
		<tag k="place" v="locality" />
		<tag k="ssr:stedsnr" v="509633" />
		<tag k="ssr:type" v="gammelBosettingsplass" />
	</node>
	<node changeset="57982147" id="4471613698" lat="58.7953367" lon="9.074576" timestamp="2018-04-10T18:50:10Z" uid="3497659" user="NKA" version="2">
		<tag k="name" v="Haugemoen" />
		<tag k="place" v="farm" />
		<tag k="ssr:stedsnr" v="873957" />
		<tag k="ssr:type" v="bruk" />
	</node>
	<node changeset="57982147" id="4471613699" lat="58.7972878" lon="9.069638" timestamp="2018-04-10T18:50:10Z" uid="3497659" user="NKA" version="2">
		<tag k="name" v="Haugen" />
		<tag k="place" v="farm" />
		<tag k="ssr:stedsnr" v="122473" />
		<tag k="ssr:type" v="bruk" />
	</node>
	<node changeset="57982147" id="4471613700" lat="58.827731" lon="9.0783009" timestamp="2018-04-10T18:50:10Z" uid="3497659" user="NKA" version="2">
		<tag k="name" v="Haugen" />
		<tag k="place" v="farm" />
		<tag k="ssr:stedsnr" v="789061" />
		<tag k="ssr:type" v="eneboligMindreBoligbygg" />
	</node>
	<node changeset="57982147" id="4471613701" lat="58.8843021" lon="8.9577996" timestamp="2018-04-10T18:50:10Z" uid="3497659" user="NKA" version="2">
		<tag k="name" v="Haugen" />
		<tag k="place" v="farm" />
		<tag k="ssr:stedsnr" v="122191" />
		<tag k="ssr:type" v="bruk" />
	</node>
	<node changeset="57982147" id="4471613702" lat="58.886567" lon="8.9507798" timestamp="2018-04-10T18:50:10Z" uid="3497659" user="NKA" version="2">
		<tag k="name" v="Haugen" />
		<tag k="place" v="farm" />
		<tag k="ssr:stedsnr" v="304204" />
		<tag k="ssr:type" v="bruk" />
	</node>
	<node changeset="57982147" id="4471613703" lat="58.8607288" lon="9.0451673" timestamp="2018-04-10T18:50:10Z" uid="3497659" user="NKA" version="2">
		<tag k="name" v="Haugeto" />
		<tag k="place" v="farm" />
		<tag k="ssr:stedsnr" v="122139" />
		<tag k="ssr:type" v="bruk" />
	</node>
	<node changeset="58497758" id="4471613704" lat="58.7793649" lon="9.0204594" timestamp="2018-04-28T08:07:04Z" uid="3497659" user="NKA" version="3">
		<tag k="alt_name" v="Haugsætra" />
		<tag k="historic" v="shieling" />
		<tag k="name" v="Haugsetra" />
		<tag k="place" v="isolated_dwelling" />
		<tag k="ssr:stedsnr" v="123464" />
		<tag k="ssr:type" v="seterStøl" />
	</node>
	<node changeset="57982147" id="4471613705" lat="58.8890964" lon="8.9299925" timestamp="2018-04-10T18:50:11Z" uid="3497659" user="NKA" version="2">
		<tag k="building" v="cabin" />
		<tag k="name" v="Haukedalen" />
		<tag k="place" v="isolated_dwelling" />
		<tag k="ssr:stedsnr" v="61237" />
		<tag k="ssr:type" v="fritidsbolig" />
	</node>
	<node changeset="57982147" id="4471613707" lat="58.8477356" lon="9.1268309" timestamp="2018-04-10T18:50:11Z" uid="3497659" user="NKA" version="2">
		<tag k="name" v="Hegdesbråten" />
		<tag k="place" v="farm" />
		<tag k="ssr:stedsnr" v="244125" />
		<tag k="ssr:type" v="bruk" />
	</node>
	<node changeset="57982147" id="4471613708" lat="58.8883295" lon="9.0228762" timestamp="2018-04-10T18:50:11Z" uid="3497659" user="NKA" version="2">
		<tag k="name" v="Hegna" />
		<tag k="place" v="farm" />
		<tag k="ssr:stedsnr" v="691726" />
		<tag k="ssr:type" v="bruk" />
	</node>
	<node changeset="57982147" id="4471613709" lat="58.7967305" lon="9.0913098" timestamp="2018-04-10T18:50:11Z" uid="3497659" user="NKA" version="2">
		<tag k="name" v="Heiland" />
		<tag k="place" v="farm" />
		<tag k="ssr:stedsnr" v="327905" />
		<tag k="ssr:type" v="bruk" />
	</node>
	<node changeset="57982147" id="4471613710" lat="58.9379269" lon="8.8275499" timestamp="2018-04-10T18:50:11Z" uid="3497659" user="NKA" version="2">
		<tag k="name" v="Heiland" />
		<tag k="place" v="farm" />
		<tag k="ssr:stedsnr" v="729422" />
		<tag k="ssr:type" v="eneboligMindreBoligbygg" />
	</node>
	<node changeset="57982147" id="4471613711" lat="58.8347766" lon="9.1435355" timestamp="2018-04-10T18:50:11Z" uid="3497659" user="NKA" version="2">
		<tag k="fixme" v="check position" />
		<tag k="historic" v="ruins" />
		<tag k="name" v="Heljesøygard" />
		<tag k="place" v="locality" />
		<tag k="ssr:stedsnr" v="206789" />
		<tag k="ssr:type" v="gammelBosettingsplass" />
	</node>
	<node changeset="57982147" id="4471613712" lat="58.9034932" lon="9.066248" timestamp="2018-04-10T18:50:12Z" uid="3497659" user="NKA" version="2">
		<tag k="alt_name" v="Hessmoen" />
		<tag k="building" v="cabin" />
		<tag k="name" v="Hessmo" />
		<tag k="place" v="isolated_dwelling" />
		<tag k="ssr:stedsnr" v="790814" />
		<tag k="ssr:type" v="fritidsbolig" />
	</node>
	<node changeset="57982147" id="4471613713" lat="58.8156405" lon="9.1012488" timestamp="2018-04-10T18:50:12Z" uid="3497659" user="NKA" version="2">
		<tag k="name" v="Hjellen" />
		<tag k="place" v="farm" />
		<tag k="ssr:stedsnr" v="813921" />
		<tag k="ssr:type" v="bruk" />
	</node>
	<node changeset="57982147" id="4471613714" lat="58.8972559" lon="8.9636292" timestamp="2018-04-10T18:50:12Z" uid="3497659" user="NKA" version="2">
		<tag k="alt_name" v="Holmen" />
		<tag k="name" v="Holmen gård" />
		<tag k="place" v="farm" />
		<tag k="ssr:stedsnr" v="244817" />
		<tag k="ssr:type" v="bruk" />
	</node>
	<node changeset="57982147" id="4471613715" lat="58.9633243" lon="8.9749386" timestamp="2018-04-10T18:50:12Z" uid="3497659" user="NKA" version="2">
		<tag k="building" v="cabin" />
		<tag k="name" v="Holmøygard" />
		<tag k="place" v="isolated_dwelling" />
		<tag k="ssr:stedsnr" v="878" />
		<tag k="ssr:type" v="fritidsbolig" />
	</node>
	<node changeset="57982147" id="4471613716" lat="58.8731963" lon="8.964616" timestamp="2018-04-10T18:50:12Z" uid="3497659" user="NKA" version="2">
		<tag k="alt_name" v="Holstølen" />
		<tag k="historic" v="ruins" />
		<tag k="name" v="Holstøl" />
		<tag k="place" v="locality" />
		<tag k="ssr:stedsnr" v="244200" />
		<tag k="ssr:type" v="gammelBosettingsplass" />
	</node>
	<node changeset="57982147" id="4471613717" lat="58.8359921" lon="9.109605" timestamp="2018-04-10T18:50:12Z" uid="3497659" user="NKA" version="2">
		<tag k="name" v="Holte" />
		<tag k="place" v="farm" />
		<tag k="ssr:stedsnr" v="850085" />
		<tag k="ssr:type" v="bruk" />
	</node>
	<node changeset="57982147" id="4471613718" lat="58.843823" lon="8.9389188" timestamp="2018-04-10T18:50:12Z" uid="3497659" user="NKA" version="2">
		<tag k="building" v="cabin" />
		<tag k="fixme" v="check position" />
		<tag k="name" v="Hundsvassøygard" />
		<tag k="place" v="isolated_dwelling" />
		<tag k="ssr:stedsnr" v="873483" />
		<tag k="ssr:type" v="gammelBosettingsplass" />
	</node>
	<node changeset="57982147" id="4471613719" lat="58.885815" lon="9.0052787" timestamp="2018-04-10T18:50:13Z" uid="3497659" user="NKA" version="2">
		<tag k="name" v="Høgbråt" />
		<tag k="place" v="farm" />
		<tag k="ssr:stedsnr" v="813763" />
		<tag k="ssr:type" v="bruk" />
	</node>
	<node changeset="57982147" id="4471613720" lat="58.8761902" lon="9.165718" timestamp="2018-04-10T18:50:13Z" uid="3497659" user="NKA" version="2">
		<tag k="name" v="Høgstli" />
		<tag k="place" v="farm" />
		<tag k="ssr:stedsnr" v="304178" />
		<tag k="ssr:type" v="bruk" />
	</node>
	<node changeset="57982147" id="4471613721" lat="58.8862888" lon="9.0311198" timestamp="2018-04-10T18:50:13Z" uid="3497659" user="NKA" version="2">
		<tag k="name" v="Høstfet" />
		<tag k="place" v="farm" />
		<tag k="ssr:stedsnr" v="182220" />
		<tag k="ssr:type" v="bruk" />
	</node>
	<node changeset="57982147" id="4471613722" lat="58.85851" lon="9.110025" timestamp="2018-04-10T18:50:13Z" uid="3497659" user="NKA" version="2">
		<tag k="name" v="Isaks Øygard" />
		<tag k="place" v="farm" />
		<tag k="ssr:stedsnr" v="85990" />
		<tag k="ssr:type" v="bruk" />
	</node>
	<node changeset="57982147" id="4471613723" lat="58.840365" lon="9.1024398" timestamp="2018-04-10T18:50:13Z" uid="3497659" user="NKA" version="2">
		<tag k="alt_name" v="Ivarshagen" />
		<tag k="name" v="Ivarshage" />
		<tag k="place" v="farm" />
		<tag k="ssr:stedsnr" v="789080" />
		<tag k="ssr:type" v="bruk" />
	</node>
	<node changeset="57982147" id="4471613724" lat="58.8586332" lon="8.9155845" timestamp="2018-04-10T18:50:13Z" uid="3497659" user="NKA" version="2">
		<tag k="name" v="Jørenshaug" />
		<tag k="place" v="farm" />
		<tag k="ssr:stedsnr" v="24486" />
		<tag k="ssr:type" v="bruk" />
	</node>
	<node changeset="57982147" id="4471613725" lat="58.9064326" lon="8.8293164" timestamp="2018-04-10T18:50:13Z" uid="3497659" user="NKA" version="2">
		<tag k="name" v="Kabrettstea" />
		<tag k="place" v="farm" />
		<tag k="ssr:stedsnr" v="365475" />
		<tag k="ssr:type" v="eneboligMindreBoligbygg" />
	</node>
	<node changeset="57982147" id="4471613726" lat="58.8308324" lon="9.0919702" timestamp="2018-04-10T18:50:14Z" uid="3497659" user="NKA" version="2">
		<tag k="name" v="Kals" />
		<tag k="place" v="farm" />
		<tag k="ssr:stedsnr" v="789064" />
		<tag k="ssr:type" v="bruk" />
	</node>
	<node changeset="57982147" id="4471613727" lat="58.8877863" lon="9.0255471" timestamp="2018-04-10T18:50:14Z" uid="3497659" user="NKA" version="2">
		<tag k="name" v="Kleiva" />
		<tag k="place" v="farm" />
		<tag k="ssr:stedsnr" v="570708" />
		<tag k="ssr:type" v="eneboligMindreBoligbygg" />
	</node>
	<node changeset="57982147" id="4471613728" lat="58.8773922" lon="8.9627449" timestamp="2018-04-10T18:50:14Z" uid="3497659" user="NKA" version="2">
		<tag k="building" v="cabin" />
		<tag k="name" v="Kleivane" />
		<tag k="place" v="isolated_dwelling" />
		<tag k="ssr:stedsnr" v="729221" />
		<tag k="ssr:type" v="fritidsbolig" />
	</node>
	<node changeset="57982147" id="4471613729" lat="58.8803142" lon="9.0302111" timestamp="2018-04-10T18:50:14Z" uid="3497659" user="NKA" version="2">
		<tag k="name" v="Klokkargarden" />
		<tag k="place" v="farm" />
		<tag k="ssr:stedsnr" v="752804" />
		<tag k="ssr:type" v="eneboligMindreBoligbygg" />
	</node>
	<node changeset="57982147" id="4471613730" lat="58.8856831" lon="9.022962" timestamp="2018-04-10T18:50:14Z" uid="3497659" user="NKA" version="2">
		<tag k="name" v="Kongsnes" />
		<tag k="place" v="farm" />
		<tag k="ssr:stedsnr" v="327704" />
		<tag k="ssr:type" v="bruk" />
	</node>
	<node changeset="57982147" id="4471613731" lat="58.9029991" lon="9.0080736" timestamp="2018-04-10T18:50:14Z" uid="3497659" user="NKA" version="2">
		<tag k="name" v="Kristisdal" />
		<tag k="place" v="farm" />
		<tag k="ssr:stedsnr" v="145737" />
		<tag k="ssr:type" v="eneboligMindreBoligbygg" />
	</node>
	<node changeset="57982147" id="4471613732" lat="58.862678" lon="9.0581863" timestamp="2018-04-10T18:50:14Z" uid="3497659" user="NKA" version="2">
		<tag k="name" v="Kufjell" />
		<tag k="place" v="farm" />
		<tag k="ssr:stedsnr" v="607160" />
		<tag k="ssr:type" v="eneboligMindreBoligbygg" />
	</node>
	<node changeset="57982147" id="4471613733" lat="58.878632" lon="9.037257" timestamp="2018-04-10T18:50:14Z" uid="3497659" user="NKA" version="2">
		<tag k="name" v="Kveim" />
		<tag k="place" v="farm" />
		<tag k="ssr:stedsnr" v="790154" />
		<tag k="ssr:type" v="bruk" />
	</node>
	<node changeset="57982147" id="4471613734" lat="58.8845156" lon="8.9873608" timestamp="2018-04-10T18:50:14Z" uid="3497659" user="NKA" version="2">
		<tag k="name" v="Landsverk" />
		<tag k="place" v="farm" />
		<tag k="ssr:stedsnr" v="607232" />
		<tag k="ssr:type" v="bruk" />
	</node>
	<node changeset="57982147" id="4471613735" lat="58.8351066" lon="9.057831" timestamp="2018-04-10T18:50:15Z" uid="3497659" user="NKA" version="2">
		<tag k="name" v="Langmyrlia" />
		<tag k="place" v="farm" />
		<tag k="ssr:stedsnr" v="546077" />
		<tag k="ssr:type" v="eneboligMindreBoligbygg" />
	</node>
	<node changeset="57982147" id="4471613736" lat="58.8333213" lon="9.1422191" timestamp="2018-04-10T18:50:15Z" uid="3497659" user="NKA" version="2">
		<tag k="fixme" v="check position" />
		<tag k="historic" v="ruins" />
		<tag k="name" v="Lars Jensens øygard" />
		<tag k="place" v="locality" />
		<tag k="ssr:stedsnr" v="327749" />
		<tag k="ssr:type" v="gammelBosettingsplass" />
	</node>
	<node changeset="57982147" id="4471613737" lat="58.8225003" lon="9.0937397" timestamp="2018-04-10T18:50:15Z" uid="3497659" user="NKA" version="2">
		<tag k="name" v="Lia" />
		<tag k="place" v="farm" />
		<tag k="ssr:stedsnr" v="486038" />
		<tag k="ssr:type" v="eneboligMindreBoligbygg" />
	</node>
	<node changeset="57982147" id="4471613738" lat="58.8662797" lon="8.9133336" timestamp="2018-04-10T18:50:15Z" uid="3497659" user="NKA" version="2">
		<tag k="name" v="Lia" />
		<tag k="place" v="farm" />
		<tag k="ssr:stedsnr" v="850187" />
		<tag k="ssr:type" v="bruk" />
	</node>
	<node changeset="57982147" id="4471613739" lat="58.8820784" lon="9.1158996" timestamp="2018-04-10T18:50:15Z" uid="3497659" user="NKA" version="2">
		<tag k="building" v="cabin" />
		<tag k="name" v="Lia" />
		<tag k="place" v="isolated_dwelling" />
		<tag k="ssr:stedsnr" v="425222" />
		<tag k="ssr:type" v="fritidsbolig" />
	</node>
	<node changeset="57982147" id="4471613740" lat="58.8871764" lon="8.9982727" timestamp="2018-04-10T18:50:15Z" uid="3497659" user="NKA" version="2">
		<tag k="name" v="Lia" />
		<tag k="place" v="farm" />
		<tag k="ssr:stedsnr" v="813755" />
		<tag k="ssr:type" v="eneboligMindreBoligbygg" />
	</node>
	<node changeset="57982147" id="4471613741" lat="58.8612119" lon="8.9393256" timestamp="2018-04-10T18:50:16Z" uid="3497659" user="NKA" version="2">
		<tag k="fixme" v="check position" />
		<tag k="historic" v="ruins" />
		<tag k="name" v="Liane" />
		<tag k="place" v="locality" />
		<tag k="ssr:stedsnr" v="850151" />
		<tag k="ssr:type" v="gammelBosettingsplass" />
	</node>
	<node changeset="58497758" id="4471613742" lat="58.8295698" lon="9.108139" timestamp="2018-04-28T08:07:04Z" uid="3497659" user="NKA" version="3">
		<tag k="historic" v="shieling" />
		<tag k="name" v="Libråten" />
		<tag k="place" v="isolated_dwelling" />
		<tag k="ssr:stedsnr" v="85733" />
		<tag k="ssr:type" v="seterStøl" />
	</node>
	<node changeset="57982147" id="4471613743" lat="58.8583193" lon="9.054048" timestamp="2018-04-10T18:50:16Z" uid="3497659" user="NKA" version="2">
		<tag k="name" v="Lille Haugeto" />
		<tag k="place" v="farm" />
		<tag k="ssr:stedsnr" v="874969" />
		<tag k="ssr:type" v="bruk" />
	</node>
	<node changeset="57982147" id="4471613744" lat="58.8605663" lon="9.1258713" timestamp="2018-04-10T18:50:16Z" uid="3497659" user="NKA" version="2">
		<tag k="name" v="Lille Sundsøygard" />
		<tag k="place" v="farm" />
		<tag k="ssr:stedsnr" v="207997" />
		<tag k="ssr:type" v="bruk" />
	</node>
	<node changeset="57982147" id="4471613745" lat="58.8425473" lon="9.106204" timestamp="2018-04-10T18:50:16Z" uid="3497659" user="NKA" version="2">
		<tag k="alt_name" v="Østerholt lille" />
		<tag k="name" v="Lille Østerholt" />
		<tag k="place" v="farm" />
		<tag k="ssr:stedsnr" v="850087" />
		<tag k="ssr:type" v="bruk" />
	</node>
	<node changeset="58497758" id="4471613746" lat="58.8398518" lon="9.0144719" timestamp="2018-04-28T08:07:04Z" uid="3497659" user="NKA" version="3">
		<tag k="building" v="cabin" />
		<tag k="historic" v="shieling" />
		<tag k="name" v="Listøl" />
		<tag k="place" v="isolated_dwelling" />
		<tag k="ssr:stedsnr" v="91" />
		<tag k="ssr:type" v="fritidsbolig" />
	</node>
	<node changeset="57982147" id="4471613747" lat="58.9266416" lon="8.8831904" timestamp="2018-04-10T18:50:16Z" uid="3497659" user="NKA" version="2">
		<tag k="building" v="cabin" />
		<tag k="name" v="Ljådal" />
		<tag k="place" v="isolated_dwelling" />
		<tag k="ssr:stedsnr" v="789844" />
		<tag k="ssr:type" v="fritidsbolig" />
	</node>
	<node changeset="57982147" id="4471613748" lat="58.8880496" lon="9.0185936" timestamp="2018-04-10T18:50:16Z" uid="3497659" user="NKA" version="2">
		<tag k="name" v="Lunde" />
		<tag k="place" v="farm" />
		<tag k="ssr:stedsnr" v="61211" />
		<tag k="ssr:type" v="bruk" />
	</node>
	<node changeset="72430138" id="4471613749" lat="58.8965033" lon="8.9683016" timestamp="2019-07-19T12:55:08Z" uid="2337920" user="JensKveli" version="3">
		<tag k="name" v="Lunden" />
		<tag k="place" v="farm" />
		<tag k="ssr:stedsnr" v="729808" />
		<tag k="ssr:type" v="bruk" />
	</node>
	<node changeset="57982147" id="4471613750" lat="58.9618719" lon="8.9736201" timestamp="2018-04-10T18:50:17Z" uid="3497659" user="NKA" version="2">
		<tag k="building" v="cabin" />
		<tag k="name" v="Lundøygard" />
		<tag k="place" v="isolated_dwelling" />
		<tag k="ssr:stedsnr" v="569897" />
		<tag k="ssr:type" v="fritidsbolig" />
	</node>
	<node changeset="57982147" id="4471613751" lat="58.8723964" lon="8.8651183" timestamp="2018-04-10T18:50:17Z" uid="3497659" user="NKA" version="2">
		<tag k="building" v="cabin" />
		<tag k="name" v="Luten" />
		<tag k="place" v="isolated_dwelling" />
		<tag k="ssr:stedsnr" v="851191" />
		<tag k="ssr:type" v="fritidsbolig" />
	</node>
	<node changeset="58497758" id="4471613752" lat="58.8532761" lon="8.9583796" timestamp="2018-04-28T08:07:04Z" uid="3497659" user="NKA" version="3">
		<tag k="building" v="cabin" />
		<tag k="historic" v="shieling" />
		<tag k="name" v="Lyngstøl" />
		<tag k="place" v="isolated_dwelling" />
		<tag k="ssr:stedsnr" v="607145" />
		<tag k="ssr:type" v="fritidsbolig" />
	</node>
	<node changeset="57982147" id="4471613753" lat="58.8317023" lon="9.0055908" timestamp="2018-04-10T18:50:17Z" uid="3497659" user="NKA" version="2">
		<tag k="building" v="cabin" />
		<tag k="name" v="Lyngås" />
		<tag k="place" v="isolated_dwelling" />
		<tag k="ssr:stedsnr" v="729072" />
		<tag k="ssr:type" v="fritidsbolig" />
	</node>
	<node changeset="57982147" id="4471613754" lat="58.8774214" lon="8.846285" timestamp="2018-04-10T18:50:17Z" uid="3497659" user="NKA" version="2">
		<tag k="name" v="Løyte" />
		<tag k="place" v="farm" />
		<tag k="ssr:stedsnr" v="788581" />
		<tag k="ssr:type" v="bruk" />
	</node>
	<node changeset="57982147" id="4471613755" lat="58.8848287" lon="8.9515608" timestamp="2018-04-10T18:50:17Z" uid="3497659" user="NKA" version="2">
		<tag k="name" v="Løyte" />
		<tag k="place" v="hamlet" />
		<tag k="ssr:stedsnr" v="911235" />
		<tag k="ssr:type" v="gard" />
	</node>
	<node changeset="57982147" id="4471613756" lat="58.8855909" lon="8.9520564" timestamp="2018-04-10T18:50:17Z" uid="3497659" user="NKA" version="2">
		<tag k="name" v="Løytesbakken" />
		<tag k="place" v="farm" />
		<tag k="ssr:stedsnr" v="424590" />
		<tag k="ssr:type" v="bruk" />
	</node>
	<node changeset="57982147" id="4471613757" lat="58.828046" lon="9.0916162" timestamp="2018-04-10T18:50:17Z" uid="3497659" user="NKA" version="2">
		<tag k="fixme" v="check position" />
		<tag k="historic" v="ruins" />
		<tag k="name" v="Martesplass" />
		<tag k="place" v="locality" />
		<tag k="ssr:stedsnr" v="813736" />
		<tag k="ssr:type" v="gammelBosettingsplass" />
	</node>
	<node changeset="57982147" id="4471613759" lat="58.8237717" lon="8.9851029" timestamp="2018-04-10T18:50:18Z" uid="3497659" user="NKA" version="2">
		<tag k="building" v="cabin" />
		<tag k="name" v="Maurlia" />
		<tag k="place" v="isolated_dwelling" />
		<tag k="ssr:stedsnr" v="850045" />
		<tag k="ssr:type" v="fritidsbolig" />
	</node>
	<node changeset="57982147" id="4471613760" lat="58.884646" lon="8.9943864" timestamp="2018-04-10T18:50:18Z" uid="3497659" user="NKA" version="2">
		<tag k="name" v="Melås" />
		<tag k="place" v="farm" />
		<tag k="ssr:stedsnr" v="729228" />
		<tag k="ssr:type" v="bruk" />
	</node>
	<node changeset="57982147" id="4471613761" lat="58.8700904" lon="8.9606567" timestamp="2018-04-10T18:50:18Z" uid="3497659" user="NKA" version="2">
		<tag k="name" v="Mesel" />
		<tag k="place" v="farm" />
		<tag k="ssr:stedsnr" v="789197" />
		<tag k="ssr:type" v="bruk" />
	</node>
	<node changeset="57982147" id="4471613762" lat="58.8676209" lon="8.8451369" timestamp="2018-04-10T18:50:18Z" uid="3497659" user="NKA" version="2">
		<tag k="building" v="cabin" />
		<tag k="name" v="Midtli" />
		<tag k="place" v="isolated_dwelling" />
		<tag k="ssr:stedsnr" v="546172" />
		<tag k="ssr:type" v="fritidsbolig" />
	</node>
	<node changeset="57982147" id="4471613763" lat="58.8614231" lon="9.0765774" timestamp="2018-04-10T18:50:18Z" uid="3497659" user="NKA" version="2">
		<tag k="name" v="Mo" />
		<tag k="place" v="farm" />
		<tag k="ssr:stedsnr" v="729153" />
		<tag k="ssr:type" v="bruk" />
	</node>
	<node changeset="57982147" id="4471613764" lat="58.8958381" lon="8.9812237" timestamp="2018-04-10T18:50:18Z" uid="3497659" user="NKA" version="2">
		<tag k="name" v="Moen" />
		<tag k="place" v="farm" />
		<tag k="ssr:stedsnr" v="753000" />
		<tag k="ssr:type" v="bruk" />
	</node>
	<node changeset="57982147" id="4471613765" lat="58.9021701" lon="8.959208" timestamp="2018-04-10T18:50:18Z" uid="3497659" user="NKA" version="2">
		<tag k="name" v="Moen" />
		<tag k="place" v="farm" />
		<tag k="ssr:stedsnr" v="305765" />
		<tag k="ssr:type" v="bruk" />
	</node>
	<node changeset="57982147" id="4471613766" lat="58.8985046" lon="8.9393985" timestamp="2018-04-10T18:50:19Z" uid="3497659" user="NKA" version="2">
		<tag k="building" v="cabin" />
		<tag k="name" v="Morka" />
		<tag k="place" v="isolated_dwelling" />
		<tag k="ssr:stedsnr" v="62811" />
		<tag k="ssr:type" v="fritidsbolig" />
	</node>
	<node changeset="57982147" id="4471613767" lat="58.9114948" lon="8.9345004" timestamp="2018-04-10T18:50:19Z" uid="3497659" user="NKA" version="2">
		<tag k="building" v="cabin" />
		<tag k="name" v="Morka" />
		<tag k="place" v="isolated_dwelling" />
		<tag k="ssr:stedsnr" v="487779" />
		<tag k="ssr:type" v="fritidsbolig" />
	</node>
	<node changeset="57982147" id="4471613768" lat="58.8884173" lon="9.0085418" timestamp="2018-04-10T18:50:19Z" uid="3497659" user="NKA" version="2">
		<tag k="name" v="Mostad" />
		<tag k="place" v="hamlet" />
		<tag k="ssr:stedsnr" v="226" />
		<tag k="ssr:type" v="bruk" />
	</node>
	<node changeset="57982147" id="4471613769" lat="58.8829898" lon="8.9379748" timestamp="2018-04-10T18:50:19Z" uid="3497659" user="NKA" version="2">
		<tag k="name" v="Mykland" />
		<tag k="place" v="farm" />
		<tag k="ssr:stedsnr" v="607236" />
		<tag k="ssr:type" v="bruk" />
	</node>
	<node changeset="57982147" id="4471613770" lat="58.9016835" lon="8.9655403" timestamp="2018-04-10T18:50:19Z" uid="3497659" user="NKA" version="2">
		<tag k="name" v="Myra" />
		<tag k="place" v="farm" />
		<tag k="ssr:stedsnr" v="487782" />
		<tag k="ssr:type" v="bruk" />
	</node>
	<node changeset="57982147" id="4471613771" lat="58.8241909" lon="9.0118146" timestamp="2018-04-10T18:50:19Z" uid="3497659" user="NKA" version="2">
		<tag k="name" v="Myre" />
		<tag k="place" v="farm" />
		<tag k="ssr:stedsnr" v="486037" />
		<tag k="ssr:type" v="bruk" />
	</node>
	<node changeset="57982147" id="4471613772" lat="58.84936" lon="9.0963002" timestamp="2018-04-10T18:50:19Z" uid="3497659" user="NKA" version="2">
		<tag k="name" v="Myrland" />
		<tag k="place" v="farm" />
		<tag k="ssr:stedsnr" v="206970" />
		<tag k="ssr:type" v="bruk" />
	</node>
	<node changeset="57982147" id="4471613773" lat="58.9571627" lon="8.9638017" timestamp="2018-04-10T18:50:19Z" uid="3497659" user="NKA" version="2">
		<tag k="fixme" v="check position" />
		<tag k="name" v="Myrøygard" />
		<tag k="place" v="locality" />
		<tag k="ruins" v="yes" />
		<tag k="ssr:stedsnr" v="266915" />
		<tag k="ssr:type" v="fritidsbolig" />
	</node>
	<node changeset="57982147" id="4471613774" lat="58.9583098" lon="8.9615345" timestamp="2018-04-10T18:50:20Z" uid="3497659" user="NKA" version="2">
		<tag k="building" v="cabin" />
		<tag k="name" v="Nediøygard" />
		<tag k="place" v="isolated_dwelling" />
		<tag k="ssr:stedsnr" v="24909" />
		<tag k="ssr:type" v="fritidsbolig" />
	</node>
	<node changeset="57982147" id="4471613775" lat="58.8617515" lon="9.0491121" timestamp="2018-04-10T18:50:20Z" uid="3497659" user="NKA" version="2">
		<tag k="name" v="Neset" />
		<tag k="place" v="farm" />
		<tag k="ssr:stedsnr" v="570782" />
		<tag k="ssr:type" v="bruk" />
	</node>
	<node changeset="57982147" id="4471613776" lat="58.869158" lon="8.8590332" timestamp="2018-04-10T18:50:20Z" uid="3497659" user="NKA" version="2">
		<tag k="fixme" v="check position" />
		<tag k="historic" v="ruins" />
		<tag k="name" v="Nordbø" />
		<tag k="place" v="locality" />
		<tag k="ssr:stedsnr" v="182170" />
		<tag k="ssr:type" v="gammelBosettingsplass" />
	</node>
	<node changeset="57982147" id="4471613777" lat="58.8955444" lon="9.0285121" timestamp="2018-04-10T18:50:20Z" uid="3497659" user="NKA" version="2">
		<tag k="alt_name" v="Norheim" />
		<tag k="name" v="Nordheim" />
		<tag k="place" v="locality" />
		<tag k="ssr:stedsnr" v="365819" />
		<tag k="ssr:type" v="fritidsbolig" />
	</node>
	<node changeset="57982147" id="4471613778" lat="58.8946266" lon="9.0032897" timestamp="2018-04-10T18:50:20Z" uid="3497659" user="NKA" version="2">
		<tag k="name" v="Nordli" />
		<tag k="place" v="farm" />
		<tag k="ssr:stedsnr" v="206756" />
		<tag k="ssr:type" v="eneboligMindreBoligbygg" />
	</node>
	<node changeset="57982147" id="4471613779" lat="58.8618048" lon="9.0436087" timestamp="2018-04-10T18:50:20Z" uid="3497659" user="NKA" version="2">
		<tag k="name" v="Nordvoll" />
		<tag k="place" v="farm" />
		<tag k="ssr:stedsnr" v="206799" />
		<tag k="ssr:type" v="eneboligMindreBoligbygg" />
	</node>
	<node changeset="57982147" id="4471613780" lat="58.9726182" lon="8.9401794" timestamp="2018-04-10T18:50:20Z" uid="3497659" user="NKA" version="2">
		<tag k="fixme" v="check position" />
		<tag k="historic" v="ruins" />
		<tag k="name" v="Nybu" />
		<tag k="place" v="locality" />
		<tag k="ssr:stedsnr" v="935611" />
		<tag k="ssr:type" v="gammelBosettingsplass" />
	</node>
	<node changeset="57982147" id="4471613781" lat="58.8183315" lon="9.0703374" timestamp="2018-04-10T18:50:20Z" uid="3497659" user="NKA" version="2">
		<tag k="alt_name" v="Nybøen" />
		<tag k="name" v="Nybø" />
		<tag k="place" v="farm" />
		<tag k="ssr:stedsnr" v="61031" />
		<tag k="ssr:type" v="bruk" />
	</node>
	<node changeset="57982147" id="4471613782" lat="58.7808767" lon="9.0536069" timestamp="2018-04-10T18:50:20Z" uid="3497659" user="NKA" version="2">
		<tag k="name" v="Nygård" />
		<tag k="place" v="farm" />
		<tag k="ssr:stedsnr" v="630956" />
		<tag k="ssr:type" v="bruk" />
	</node>
	<node changeset="57982147" id="4471613783" lat="58.8925951" lon="8.9666253" timestamp="2018-04-10T18:50:21Z" uid="3497659" user="NKA" version="2">
		<tag k="fixme" v="check position" />
		<tag k="historic" v="ruins" />
		<tag k="name" v="Nygård" />
		<tag k="place" v="locality" />
		<tag k="ssr:stedsnr" v="85989" />
		<tag k="ssr:type" v="gammelBosettingsplass" />
	</node>
	<node changeset="57982147" id="4471613784" lat="58.8814258" lon="9.0072531" timestamp="2018-04-10T18:50:21Z" uid="3497659" user="NKA" version="2">
		<tag k="name" v="Ormekleiv" />
		<tag k="place" v="farm" />
		<tag k="ssr:stedsnr" v="873818" />
		<tag k="ssr:type" v="bruk" />
	</node>
	<node changeset="57982147" id="4471613785" lat="58.9538752" lon="9.0098442" timestamp="2018-04-10T18:50:21Z" uid="3497659" user="NKA" version="2">
		<tag k="building" v="cabin" />
		<tag k="name" v="Orremyrhytta" />
		<tag k="place" v="isolated_dwelling" />
		<tag k="ssr:stedsnr" v="145922" />
		<tag k="ssr:type" v="fritidsbolig" />
	</node>
	<node changeset="57982147" id="4471613786" lat="58.8798172" lon="8.9882265" timestamp="2018-04-10T18:50:21Z" uid="3497659" user="NKA" version="2">
		<tag k="alt_name" v="Åsmunddalen" />
		<tag k="name" v="Osmunddalen" />
		<tag k="place" v="isolated_dwelling" />
		<tag k="ssr:stedsnr" v="547204" />
		<tag k="ssr:type" v="gammelBosettingsplass" />
	</node>
	<node changeset="57982147" id="4471613787" lat="58.9098948" lon="8.9348442" timestamp="2018-04-10T18:50:21Z" uid="3497659" user="NKA" version="2">
		<tag k="fixme" v="check position" />
		<tag k="historic" v="ruins" />
		<tag k="name" v="Per Reinertsens plass" />
		<tag k="place" v="locality" />
		<tag k="ssr:stedsnr" v="691551" />
		<tag k="ssr:type" v="gammelBosettingsplass" />
	</node>
	<node changeset="57982147" id="4471613788" lat="58.83836" lon="9.0339637" timestamp="2018-04-10T18:50:22Z" uid="3497659" user="NKA" version="2">
		<tag k="building" v="cabin" />
		<tag k="name" v="Per-Alis" />
		<tag k="place" v="isolated_dwelling" />
		<tag k="ssr:stedsnr" v="85945" />
		<tag k="ssr:type" v="fritidsbolig" />
	</node>
	<node changeset="56035354" id="4434045672" lat="58.8827764" lon="9.0196351" timestamp="2018-02-03T17:50:00Z" uid="2114448" user="FredrikLindseth_import" version="3" />
	<node changeset="56035354" id="4471614327" lat="58.8828489" lon="9.0201003" timestamp="2018-02-03T17:50:05Z" uid="2114448" user="FredrikLindseth_import" version="2" />
	<node changeset="56035354" id="4471614328" lat="58.8828696" lon="9.020148" timestamp="2018-02-03T17:50:05Z" uid="2114448" user="FredrikLindseth_import" version="2" />
	<node changeset="56035354" id="4471614329" lat="58.8829113" lon="9.0202392" timestamp="2018-02-03T17:50:05Z" uid="2114448" user="FredrikLindseth_import" version="2" />
	<node changeset="56035354" id="4471614330" lat="58.8829167" lon="9.0202348" timestamp="2018-02-03T17:50:05Z" uid="2114448" user="FredrikLindseth_import" version="2" />
	<node changeset="56035354" id="4471614331" lat="58.8829218" lon="9.0202603" timestamp="2018-02-03T17:50:05Z" uid="2114448" user="FredrikLindseth_import" version="2" />
	<node changeset="56035354" id="4471614332" lat="58.8829447" lon="9.0202127" timestamp="2018-02-03T17:50:05Z" uid="2114448" user="FredrikLindseth_import" version="2" />
	<node changeset="56035354" id="4471614333" lat="58.8829479" lon="9.0200283" timestamp="2018-02-03T17:50:05Z" uid="2114448" user="FredrikLindseth_import" version="2" />
	<node changeset="56035354" id="4471614334" lat="58.88295" lon="9.0202391" timestamp="2018-02-03T17:50:05Z" uid="2114448" user="FredrikLindseth_import" version="2" />
	<node changeset="56035354" id="4471614335" lat="58.8829505" lon="9.0200865" timestamp="2018-02-03T17:50:05Z" uid="2114448" user="FredrikLindseth_import" version="2" />
	<node changeset="56035354" id="4471614336" lat="58.8829507" lon="9.0202084" timestamp="2018-02-03T17:50:05Z" uid="2114448" user="FredrikLindseth_import" version="2" />
	<node changeset="56035354" id="4434045675" lat="58.8828307" lon="9.0200726" timestamp="2018-02-03T17:50:00Z" uid="2114448" user="FredrikLindseth_import" version="3" />
	<node changeset="56035354" id="4434045676" lat="58.8828417" lon="9.0200643" timestamp="2018-02-03T17:50:00Z" uid="2114448" user="FredrikLindseth_import" version="3" />
	<node changeset="56035354" id="4434045677" lat="58.882897" lon="9.0201664" timestamp="2018-02-03T17:50:00Z" uid="2114448" user="FredrikLindseth_import" version="3" />
	<node changeset="56035354" id="4434045678" lat="58.8829359" lon="9.0201344" timestamp="2018-02-03T17:50:00Z" uid="2114448" user="FredrikLindseth_import" version="3" />
	<node changeset="56035354" id="4434045679" lat="58.8829405" lon="9.0199912" timestamp="2018-02-03T17:50:00Z" uid="2114448" user="FredrikLindseth_import" version="3" />
	<node changeset="56035354" id="3329612189" lat="58.8828402" lon="9.0195879" timestamp="2018-02-03T17:49:53Z" uid="2114448" user="FredrikLindseth_import" version="5" />
	<node changeset="57982147" id="3329612190" lat="58.8813561" lon="9.0194874" timestamp="2018-04-10T18:40:10Z" uid="3497659" user="NKA" version="6">
		<tag k="name" v="Gjerstad" />
		<tag k="place" v="village" />
		<tag k="population" v="310" />
		<tag k="ssr:stedsnr" v="328363" />
		<tag k="ssr:type" v="bygdelagBygd" />
	</node>
	<node changeset="56035354" id="4434045680" lat="58.8829523" lon="9.0199824" timestamp="2018-02-03T17:50:00Z" uid="2114448" user="FredrikLindseth_import" version="3" />
	<node changeset="56035354" id="4434045681" lat="58.8828804" lon="9.0196204" timestamp="2018-02-03T17:50:00Z" uid="2114448" user="FredrikLindseth_import" version="3" />
	<node changeset="57982147" id="4471614377" lat="58.8312126" lon="9.0787069" timestamp="2018-04-10T18:50:35Z" uid="3497659" user="NKA" version="2">
		<tag k="alt_name" v="Åbu" />
		<tag k="name" v="Åbø" />
		<tag k="place" v="farm" />
		<tag k="ssr:stedsnr" v="607066" />
		<tag k="ssr:type" v="bruk" />
	</node>
	<node changeset="57982147" id="4471614378" lat="58.8320393" lon="9.1688179" timestamp="2018-04-10T18:50:35Z" uid="3497659" user="NKA" version="2">
		<tag k="building" v="cabin" />
		<tag k="name" v="Ålkarberget" />
		<tag k="place" v="isolated_dwelling" />
		<tag k="ssr:stedsnr" v="630609" />
		<tag k="ssr:type" v="fritidsbolig" />
	</node>
	<node changeset="57982147" id="4471614379" lat="58.8661436" lon="8.8466345" timestamp="2018-04-10T18:50:35Z" uid="3497659" user="NKA" version="2">
		<tag k="alt_name" v="Ållstua" />
		<tag k="building" v="cabin" />
		<tag k="name" v="Ållstaua" />
		<tag k="place" v="isolated_dwelling" />
		<tag k="ssr:stedsnr" v="850174" />
		<tag k="ssr:type" v="fritidsbolig" />
	</node>
	<node changeset="57982147" id="4471614380" lat="58.8874348" lon="8.9602801" timestamp="2018-04-10T18:50:35Z" uid="3497659" user="NKA" version="2">
		<tag k="name" v="Åsbø" />
		<tag k="place" v="farm" />
		<tag k="ssr:stedsnr" v="607235" />
		<tag k="ssr:type" v="bruk" />
	</node>
	<node changeset="57982147" id="4471613682" lat="58.8603127" lon="9.0652988" timestamp="2018-04-10T18:50:08Z" uid="3497659" user="NKA" version="2">
		<tag k="name" v="Godmorshage" />
		<tag k="place" v="farm" />
		<tag k="ssr:stedsnr" v="388987" />
		<tag k="ssr:type" v="eneboligMindreBoligbygg" />
	</node>
	<node changeset="57982147" id="4471614382" lat="58.8834886" lon="9.0350226" timestamp="2018-04-10T18:50:35Z" uid="3497659" user="NKA" version="2">
		<tag k="name" v="Åsheim" />
		<tag k="place" v="farm" />
		<tag k="ssr:stedsnr" v="691715" />
		<tag k="ssr:type" v="bruk" />
	</node>
	<node changeset="57982147" id="4471614383" lat="58.8243557" lon="9.1081311" timestamp="2018-04-10T18:50:35Z" uid="3497659" user="NKA" version="2">
		<tag k="name" v="Åsland" />
		<tag k="place" v="farm" />
		<tag k="ssr:stedsnr" v="729047" />
		<tag k="ssr:type" v="bruk" />
	</node>
	<node changeset="57982147" id="4471614384" lat="58.8909317" lon="8.9695603" timestamp="2018-04-10T18:50:36Z" uid="3497659" user="NKA" version="2">
		<tag k="name" v="Åsmundstøl" />
		<tag k="place" v="farm" />
		<tag k="ssr:stedsnr" v="911805" />
		<tag k="ssr:type" v="bruk" />
	</node>
	<node changeset="57982147" id="4471614385" lat="58.9015494" lon="9.0126511" timestamp="2018-04-10T18:50:36Z" uid="3497659" user="NKA" version="2">
		<tag k="alt_name" v="Osvang" />
		<tag k="name" v="Åsvang" />
		<tag k="place" v="farm" />
		<tag k="ssr:stedsnr" v="2778" />
		<tag k="ssr:type" v="bruk" />
	</node>
	<node changeset="57982147" id="4471614386" lat="58.8917233" lon="8.9476588" timestamp="2018-04-10T18:50:36Z" uid="3497659" user="NKA" version="2">
		<tag k="fixme" v="check position" />
		<tag k="historic" v="ruins" />
		<tag k="name" v="Åvåldsplass" />
		<tag k="place" v="locality" />
		<tag k="ssr:stedsnr" v="873980" />
		<tag k="ssr:type" v="gammelBosettingsplass" />
	</node>
	<node changeset="57982147" id="4471614387" lat="58.8459366" lon="9.1073551" timestamp="2018-04-10T18:50:36Z" uid="3497659" user="NKA" version="2">
		<tag k="name" v="Østerholt" />
		<tag k="place" v="hamlet" />
		<tag k="ssr:stedsnr" v="426126" />
		<tag k="ssr:type" v="bruk" />
	</node>
	<node changeset="57982147" id="4471614388" lat="58.8570578" lon="9.1187058" timestamp="2018-04-10T18:50:36Z" uid="3497659" user="NKA" version="2">
		<tag k="alt_name" v="Øygarden øvre" />
		<tag k="name" v="Øvre Øygarden" />
		<tag k="place" v="farm" />
		<tag k="ssr:stedsnr" v="1174" />
		<tag k="ssr:type" v="bruk" />
	</node>
	<node changeset="57982147" id="4471614389" lat="58.8460303" lon="8.9434854" timestamp="2018-04-10T18:50:36Z" uid="3497659" user="NKA" version="2">
		<tag k="alt_name" v="Øygard" />
		<tag k="building" v="cabin" />
		<tag k="name" v="Øygarden" />
		<tag k="place" v="isolated_dwelling" />
		<tag k="ssr:stedsnr" v="729104" />
		<tag k="ssr:type" v="fritidsbolig" />
	</node>
	<node changeset="57982147" id="4471614390" lat="58.8548566" lon="9.1159371" timestamp="2018-04-10T18:50:37Z" uid="3497659" user="NKA" version="2">
		<tag k="name" v="Øygarden" />
		<tag k="place" v="farm" />
		<tag k="ssr:stedsnr" v="631995" />
		<tag k="ssr:type" v="bruk" />
	</node>
	<node changeset="57982147" id="4471614391" lat="58.8920412" lon="8.9634515" timestamp="2018-04-10T18:50:37Z" uid="3497659" user="NKA" version="2">
		<tag k="name" v="Øygarden" />
		<tag k="place" v="farm" />
		<tag k="ssr:stedsnr" v="851805" />
		<tag k="ssr:type" v="bruk" />
	</node>
	<node changeset="57982147" id="4471614392" lat="58.9036388" lon="9.0157006" timestamp="2018-04-10T18:50:37Z" uid="3497659" user="NKA" version="2">
		<tag k="name" v="Øygarden" />
		<tag k="place" v="farm" />
		<tag k="ssr:stedsnr" v="145743" />
		<tag k="ssr:type" v="eneboligMindreBoligbygg" />
	</node>
	<node changeset="57982147" id="4471614393" lat="58.9335108" lon="8.7975996" timestamp="2018-04-10T18:50:37Z" uid="3497659" user="NKA" version="2">
		<tag k="name" v="Øygarden" />
		<tag k="place" v="farm" />
		<tag k="ssr:stedsnr" v="668428" />
		<tag k="ssr:type" v="bruk" />
	</node>
	<node changeset="57982147" id="4471613889" lat="58.8258069" lon="9.1708338" timestamp="2018-04-10T18:50:22Z" uid="3497659" user="NKA" version="2">
		<tag k="fixme" v="check position" />
		<tag k="historic" v="ruins" />
		<tag k="name" v="Plassen" />
		<tag k="place" v="locality" />
		<tag k="ssr:stedsnr" v="388651" />
		<tag k="ssr:type" v="gammelBosettingsplass" />
	</node>
	<node changeset="57982147" id="4471613890" lat="58.8421574" lon="9.0715229" timestamp="2018-04-10T18:50:22Z" uid="3497659" user="NKA" version="2">
		<tag k="fixme" v="check position" />
		<tag k="historic" v="ruins" />
		<tag k="name" v="Plassen" />
		<tag k="place" v="locality" />
		<tag k="ssr:stedsnr" v="691985" />
		<tag k="ssr:type" v="gammelBosettingsplass" />
	</node>
	<node changeset="57982147" id="4471613891" lat="58.8803853" lon="8.9856802" timestamp="2018-04-10T18:50:22Z" uid="3497659" user="NKA" version="2">
		<tag k="fixme" v="check position" />
		<tag k="historic" v="ruins" />
		<tag k="name" v="Plassen" />
		<tag k="place" v="locality" />
		<tag k="ssr:stedsnr" v="509727" />
		<tag k="ssr:type" v="gammelBosettingsplass" />
	</node>
	<node changeset="57982147" id="4471613892" lat="58.9068221" lon="8.9333761" timestamp="2018-04-10T18:50:22Z" uid="3497659" user="NKA" version="2">
		<tag k="building" v="cabin" />
		<tag k="name" v="Plassen" />
		<tag k="place" v="isolated_dwelling" />
		<tag k="ssr:stedsnr" v="790792" />
		<tag k="ssr:type" v="fritidsbolig" />
	</node>
	<node changeset="57982147" id="4471613893" lat="58.8718185" lon="9.0039149" timestamp="2018-04-10T18:50:22Z" uid="3497659" user="NKA" version="2">
		<tag k="alt_name" v="Presthagen" />
		<tag k="name" v="Prestehagen" />
		<tag k="place" v="farm" />
		<tag k="ssr:stedsnr" v="668196" />
		<tag k="ssr:type" v="bruk" />
	</node>
	<node changeset="58497758" id="4471613894" lat="58.87094" lon="9.083803" timestamp="2018-04-28T08:07:04Z" uid="3497659" user="NKA" version="3">
		<tag k="historic" v="shieling" />
		<tag k="name" v="Rafstøl" />
		<tag k="place" v="isolated_dwelling" />
		<tag k="ssr:stedsnr" v="934843" />
		<tag k="ssr:type" v="seterStøl" />
	</node>
	<node changeset="57982147" id="4471613895" lat="58.9139183" lon="8.9583849" timestamp="2018-04-10T18:50:23Z" uid="3497659" user="NKA" version="2">
		<tag k="alt_name" v="Rakkedal" />
		<tag k="name" v="Rakkedalen" />
		<tag k="place" v="farm" />
		<tag k="ssr:stedsnr" v="487780" />
		<tag k="ssr:type" v="bruk" />
	</node>
	<node changeset="57982147" id="4471613896" lat="58.9039427" lon="8.9300608" timestamp="2018-04-10T18:50:23Z" uid="3497659" user="NKA" version="2">
		<tag k="building" v="cabin" />
		<tag k="name" v="Raundalen" />
		<tag k="place" v="isolated_dwelling" />
		<tag k="ssr:stedsnr" v="184753" />
		<tag k="ssr:type" v="fritidsbolig" />
	</node>
	<node changeset="57982147" id="4471613897" lat="58.836752" lon="9.0865168" timestamp="2018-04-10T18:50:23Z" uid="3497659" user="NKA" version="2">
		<tag k="name" v="Renstøl" />
		<tag k="place" v="farm" />
		<tag k="ssr:stedsnr" v="752732" />
		<tag k="ssr:type" v="bruk" />
	</node>
	<node changeset="57982147" id="4471613898" lat="58.8821801" lon="9.0356986" timestamp="2018-04-10T18:50:23Z" uid="3497659" user="NKA" version="2">
		<tag k="name" v="Rinnen" />
		<tag k="place" v="farm" />
		<tag k="ssr:stedsnr" v="266810" />
		<tag k="ssr:type" v="eneboligMindreBoligbygg" />
	</node>
	<node changeset="57982147" id="4471613899" lat="58.8956699" lon="9.0041632" timestamp="2018-04-10T18:50:23Z" uid="3497659" user="NKA" version="2">
		<tag k="name" v="Rognbråten" />
		<tag k="place" v="farm" />
		<tag k="ssr:stedsnr" v="145751" />
		<tag k="ssr:type" v="bruk" />
	</node>
	<node changeset="57982147" id="4471613900" lat="58.8770017" lon="9.1330639" timestamp="2018-04-10T18:50:23Z" uid="3497659" user="NKA" version="2">
		<tag k="building" v="cabin" />
		<tag k="name" v="Rågeitlia" />
		<tag k="place" v="isolated_dwelling" />
		<tag k="ssr:stedsnr" v="729207" />
		<tag k="ssr:type" v="fritidsbolig" />
	</node>
	<node changeset="57982147" id="4471613901" lat="58.8935372" lon="8.9879681" timestamp="2018-04-10T18:50:23Z" uid="3497659" user="NKA" version="2">
		<tag k="name" v="Røa" />
		<tag k="place" v="farm" />
		<tag k="ssr:stedsnr" v="752988" />
		<tag k="ssr:type" v="eneboligMindreBoligbygg" />
	</node>
	<node changeset="57982147" id="4471613902" lat="58.8399783" lon="9.114675" timestamp="2018-04-10T18:50:23Z" uid="3497659" user="NKA" version="2">
		<tag k="name" v="Rød" />
		<tag k="place" v="farm" />
		<tag k="ssr:stedsnr" v="364087" />
		<tag k="ssr:type" v="bruk" />
	</node>
	<node changeset="57982147" id="4471613903" lat="58.893202" lon="8.9934845" timestamp="2018-04-10T18:50:23Z" uid="3497659" user="NKA" version="2">
		<tag k="name" v="Rød" />
		<tag k="place" v="hamlet" />
		<tag k="ssr:stedsnr" v="426807" />
		<tag k="ssr:type" v="bruk" />
	</node>
	<node changeset="57982147" id="4471613904" lat="58.8420745" lon="9.1353522" timestamp="2018-04-10T18:50:24Z" uid="3497659" user="NKA" version="2">
		<tag k="fixme" v="check position" />
		<tag k="historic" v="ruins" />
		<tag k="name" v="Rødsøygard" />
		<tag k="place" v="locality" />
		<tag k="ssr:stedsnr" v="449722" />
		<tag k="ssr:type" v="gammelBosettingsplass" />
	</node>
	<node changeset="57982147" id="4471613905" lat="58.8269538" lon="9.0528592" timestamp="2018-04-10T18:50:24Z" uid="3497659" user="NKA" version="2">
		<tag k="name" v="Rønningen" />
		<tag k="place" v="farm" />
		<tag k="ssr:stedsnr" v="630742" />
		<tag k="ssr:type" v="bruk" />
	</node>
	<node changeset="57982147" id="4471613906" lat="58.8448465" lon="9.1219753" timestamp="2018-04-10T18:50:24Z" uid="3497659" user="NKA" version="2">
		<tag k="name" v="Rønningen" />
		<tag k="place" v="farm" />
		<tag k="ssr:stedsnr" v="850090" />
		<tag k="ssr:type" v="bruk" />
	</node>
	<node changeset="57982147" id="4471613907" lat="58.8654166" lon="8.869712" timestamp="2018-04-10T18:50:24Z" uid="3497659" user="NKA" version="2">
		<tag k="fixme" v="check position" />
		<tag k="historic" v="ruins" />
		<tag k="name" v="Rønningen" />
		<tag k="place" v="locality" />
		<tag k="ssr:stedsnr" v="61170" />
		<tag k="ssr:type" v="gammelBosettingsplass" />
	</node>
	<node changeset="57982147" id="4471613908" lat="58.8944656" lon="8.9708596" timestamp="2018-04-10T18:50:24Z" uid="3497659" user="NKA" version="2">
		<tag k="name" v="Rønningen" />
		<tag k="place" v="farm" />
		<tag k="ssr:stedsnr" v="327997" />
		<tag k="ssr:type" v="bruk" />
	</node>
	<node changeset="58497758" id="4471613909" lat="58.8919444" lon="9.1016838" timestamp="2018-04-28T08:07:04Z" uid="3497659" user="NKA" version="3">
		<tag k="building" v="cabin" />
		<tag k="historic" v="shieling" />
		<tag k="name" v="Røysland" />
		<tag k="place" v="isolated_dwelling" />
		<tag k="ssr:stedsnr" v="122251" />
		<tag k="ssr:type" v="fritidsbolig" />
	</node>
	<node changeset="57982147" id="4471613910" lat="58.8815648" lon="8.9141867" timestamp="2018-04-10T18:50:24Z" uid="3497659" user="NKA" version="2">
		<tag k="building" v="cabin" />
		<tag k="name" v="Saghausen" />
		<tag k="place" v="isolated_dwelling" />
		<tag k="ssr:stedsnr" v="668267" />
		<tag k="ssr:type" v="fritidsbolig" />
	</node>
	<node changeset="57982147" id="4471613911" lat="58.884687" lon="9.0345257" timestamp="2018-04-10T18:50:25Z" uid="3497659" user="NKA" version="2">
		<tag k="name" v="Saglia" />
		<tag k="place" v="farm" />
		<tag k="ssr:stedsnr" v="691717" />
		<tag k="ssr:type" v="eneboligMindreBoligbygg" />
	</node>
	<node changeset="57982147" id="4471613912" lat="58.8124943" lon="9.0946687" timestamp="2018-04-10T18:50:25Z" uid="3497659" user="NKA" version="2">
		<tag k="name" v="Sagåsen" />
		<tag k="place" v="farm" />
		<tag k="ssr:stedsnr" v="873926" />
		<tag k="ssr:type" v="bruk" />
	</node>
	<node changeset="57982147" id="4471613913" lat="58.8188573" lon="9.0981664" timestamp="2018-04-10T18:50:25Z" uid="3497659" user="NKA" version="2">
		<tag k="name" v="Sagåsen" />
		<tag k="place" v="farm" />
		<tag k="ssr:stedsnr" v="327706" />
		<tag k="ssr:type" v="bruk" />
	</node>
	<node changeset="57982147" id="4471613914" lat="58.8561384" lon="9.1196755" timestamp="2018-04-10T18:50:25Z" uid="3497659" user="NKA" version="2">
		<tag k="name" v="Sandnes" />
		<tag k="place" v="farm" />
		<tag k="ssr:stedsnr" v="668118" />
		<tag k="ssr:type" v="bruk" />
	</node>
	<node changeset="57982147" id="4471613915" lat="58.9317446" lon="8.8758601" timestamp="2018-04-10T18:50:25Z" uid="3497659" user="NKA" version="2">
		<tag k="building" v="cabin" />
		<tag k="name" v="Sandvad" />
		<tag k="place" v="isolated_dwelling" />
		<tag k="ssr:stedsnr" v="243837" />
		<tag k="ssr:type" v="fritidsbolig" />
	</node>
	<node changeset="57982147" id="4471613916" lat="58.890693" lon="9.0264677" timestamp="2018-04-10T18:50:25Z" uid="3497659" user="NKA" version="2">
		<tag k="name" v="Sandåker" />
		<tag k="place" v="farm" />
		<tag k="ssr:stedsnr" v="790823" />
		<tag k="ssr:type" v="bruk" />
	</node>
	<node changeset="58497758" id="4471613917" lat="58.8864538" lon="9.0701866" timestamp="2018-04-28T08:07:04Z" uid="3497659" user="NKA" version="3">
		<tag k="alt_name" v="Sandåkersæter" />
		<tag k="building" v="cabin" />
		<tag k="historic" v="shieling" />
		<tag k="name" v="Sandåkersetra" />
		<tag k="place" v="isolated_dwelling" />
		<tag k="ssr:stedsnr" v="304213" />
		<tag k="ssr:type" v="fritidsbolig" />
	</node>
	<node changeset="57982147" id="4471613918" lat="58.8563493" lon="9.0096597" timestamp="2018-04-10T18:50:25Z" uid="3497659" user="NKA" version="2">
		<tag k="alt_name" v="Skalldrup" />
		<tag k="building" v="yes" />
		<tag k="name" v="Skaldrup" />
		<tag k="place" v="isolated_dwelling" />
		<tag k="ssr:stedsnr" v="729149" />
		<tag k="ssr:type" v="gammelBosettingsplass" />
	</node>
	<node changeset="57982147" id="4471613919" lat="58.8313681" lon="9.0447377" timestamp="2018-04-10T18:50:25Z" uid="3497659" user="NKA" version="2">
		<tag k="name" v="Skeilidalen" />
		<tag k="place" v="farm" />
		<tag k="ssr:stedsnr" v="449923" />
		<tag k="ssr:type" v="bruk" />
	</node>
	<node changeset="57982147" id="4471613920" lat="58.8822033" lon="9.0174099" timestamp="2018-04-10T18:50:26Z" uid="3497659" user="NKA" version="2">
		<tag k="name" v="Skogly" />
		<tag k="place" v="farm" />
		<tag k="ssr:stedsnr" v="813814" />
		<tag k="ssr:type" v="eneboligMindreBoligbygg" />
	</node>
	<node changeset="57982147" id="4471613921" lat="58.8182619" lon="9.0283055" timestamp="2018-04-10T18:50:26Z" uid="3497659" user="NKA" version="2">
		<tag k="name" v="Skogvang" />
		<tag k="place" v="farm" />
		<tag k="ssr:stedsnr" v="327941" />
		<tag k="ssr:type" v="bruk" />
	</node>
	<node changeset="57982147" id="4471613922" lat="58.7955549" lon="9.0294066" timestamp="2018-04-10T18:50:26Z" uid="3497659" user="NKA" version="2">
		<tag k="name" v="Skorstøl" />
		<tag k="place" v="farm" />
		<tag k="ssr:stedsnr" v="426477" />
		<tag k="ssr:type" v="bruk" />
	</node>
	<node changeset="57982147" id="4471613923" lat="58.9306832" lon="8.8870033" timestamp="2018-04-10T18:50:26Z" uid="3497659" user="NKA" version="2">
		<tag k="name" v="Skorva" />
		<tag k="place" v="hamlet" />
		<tag k="ssr:stedsnr" v="546821" />
		<tag k="ssr:type" v="fritidsbolig" />
	</node>
	<node changeset="57982147" id="4471613924" lat="58.8676625" lon="9.0320259" timestamp="2018-04-10T18:50:26Z" uid="3497659" user="NKA" version="2">
		<tag k="name" v="Skuggvik" />
		<tag k="place" v="farm" />
		<tag k="ssr:stedsnr" v="364174" />
		<tag k="ssr:type" v="eneboligMindreBoligbygg" />
	</node>
	<node changeset="57982147" id="4471613925" lat="58.887359" lon="9.0166853" timestamp="2018-04-10T18:50:26Z" uid="3497659" user="NKA" version="2">
		<tag k="name" v="Sletta" />
		<tag k="place" v="farm" />
		<tag k="ssr:stedsnr" v="449728" />
		<tag k="ssr:type" v="bruk" />
	</node>
	<node changeset="57982147" id="4471613926" lat="58.8962378" lon="8.9303249" timestamp="2018-04-10T18:50:26Z" uid="3497659" user="NKA" version="2">
		<tag k="name" v="Sletteberg" />
		<tag k="place" v="farm" />
		<tag k="ssr:stedsnr" v="183819" />
		<tag k="ssr:type" v="bruk" />
	</node>
	<node changeset="57982147" id="4471613927" lat="58.8286881" lon="9.0234423" timestamp="2018-04-10T18:50:26Z" uid="3497659" user="NKA" version="2">
		<tag k="building" v="cabin" />
		<tag k="name" v="Småkjerra" />
		<tag k="place" v="isolated_dwelling" />
		<tag k="ssr:stedsnr" v="72" />
		<tag k="ssr:type" v="fritidsbolig" />
	</node>
	<node changeset="57982147" id="4471613928" lat="58.8995687" lon="9.0049299" timestamp="2018-04-10T18:50:27Z" uid="3497659" user="NKA" version="2">
		<tag k="name" v="Snipen" />
		<tag k="place" v="farm" />
		<tag k="ssr:stedsnr" v="85717" />
		<tag k="ssr:type" v="bruk" />
	</node>
	<node changeset="57982147" id="4471613929" lat="58.9154087" lon="8.9993472" timestamp="2018-04-10T18:50:27Z" uid="3497659" user="NKA" version="2">
		<tag k="alt_name" v="Snipsætra" />
		<tag k="fixme" v="check position" />
		<tag k="historic" v="ruins" />
		<tag k="name" v="Snipsetra" />
		<tag k="place" v="locality" />
		<tag k="ssr:stedsnr" v="365775" />
		<tag k="ssr:type" v="gammelBosettingsplass" />
	</node>
	<node changeset="57982147" id="4471613930" lat="58.8830823" lon="9.1238383" timestamp="2018-04-10T18:50:27Z" uid="3497659" user="NKA" version="2">
		<tag k="building" v="cabin" />
		<tag k="name" v="Solem" />
		<tag k="place" v="isolated_dwelling" />
		<tag k="ssr:stedsnr" v="122229" />
		<tag k="ssr:type" v="gammelBosettingsplass" />
	</node>
	<node changeset="57982147" id="4471613931" lat="58.9324189" lon="8.897058" timestamp="2018-04-10T18:50:27Z" uid="3497659" user="NKA" version="2">
		<tag k="building" v="cabin" />
		<tag k="name" v="Solem" />
		<tag k="place" v="isolated_dwelling" />
		<tag k="ssr:stedsnr" v="607835" />
		<tag k="ssr:type" v="fritidsbolig" />
	</node>
	<node changeset="57982147" id="4471613932" lat="58.8986048" lon="9.0014762" timestamp="2018-04-10T18:50:27Z" uid="3497659" user="NKA" version="2">
		<tag k="historic" v="ruins" />
		<tag k="name" v="Solli" />
		<tag k="place" v="locality" />
		<tag k="ssr:stedsnr" v="691744" />
		<tag k="ssr:type" v="gammelBosettingsplass" />
	</node>
	<node changeset="57982147" id="4471613933" lat="58.8016059" lon="9.0838179" timestamp="2018-04-10T18:50:27Z" uid="3497659" user="NKA" version="2">
		<tag k="name" v="Solås" />
		<tag k="place" v="farm" />
		<tag k="ssr:stedsnr" v="425462" />
		<tag k="ssr:type" v="bruk" />
	</node>
	<node changeset="57982147" id="4471613934" lat="58.8429161" lon="9.0439309" timestamp="2018-04-10T18:50:27Z" uid="3497659" user="NKA" version="2">
		<tag k="building" v="yes" />
		<tag k="name" v="Spjøtåsen" />
		<tag k="place" v="isolated_dwelling" />
		<tag k="ssr:stedsnr" v="569899" />
		<tag k="ssr:type" v="gammelBosettingsplass" />
	</node>
	<node changeset="57982147" id="4471613935" lat="58.8816685" lon="9.0110908" timestamp="2018-04-10T18:50:27Z" uid="3497659" user="NKA" version="2">
		<tag k="name" v="Stemkjær" />
		<tag k="place" v="farm" />
		<tag k="ssr:stedsnr" v="24829" />
		<tag k="ssr:type" v="bruk" />
	</node>
	<node changeset="57982147" id="4471613936" lat="58.8701988" lon="8.8744134" timestamp="2018-04-10T18:50:28Z" uid="3497659" user="NKA" version="2">
		<tag k="alt_name" v="Stigen" />
		<tag k="historic" v="ruins" />
		<tag k="name" v="Stien" />
		<tag k="place" v="locality" />
		<tag k="ssr:stedsnr" v="668183" />
		<tag k="ssr:type" v="gammelBosettingsplass" />
	</node>
	<node changeset="57982147" id="4471613937" lat="58.8970846" lon="9.0257407" timestamp="2018-04-10T18:50:28Z" uid="3497659" user="NKA" version="2">
		<tag k="name" v="Stien" />
		<tag k="place" v="farm" />
		<tag k="ssr:stedsnr" v="630696" />
		<tag k="ssr:type" v="bruk" />
	</node>
	<node changeset="57982147" id="4471613938" lat="58.7910375" lon="9.0899295" timestamp="2018-04-10T18:50:28Z" uid="3497659" user="NKA" version="2">
		<tag k="name" v="Stifoss" />
		<tag k="place" v="farm" />
		<tag k="ssr:stedsnr" v="691956" />
		<tag k="ssr:type" v="eneboligMindreBoligbygg" />
	</node>
	<node changeset="57982147" id="4471613939" lat="58.7816105" lon="9.053573" timestamp="2018-04-10T18:50:28Z" uid="3497659" user="NKA" version="2">
		<tag k="name" v="Stormyr" />
		<tag k="place" v="farm" />
		<tag k="ssr:stedsnr" v="305437" />
		<tag k="ssr:type" v="bruk" />
	</node>
	<node changeset="57982147" id="4471613940" lat="58.827168" lon="9.0337581" timestamp="2018-04-10T18:50:28Z" uid="3497659" user="NKA" version="2">
		<tag k="name" v="Stormyr" />
		<tag k="place" v="farm" />
		<tag k="ssr:stedsnr" v="729044" />
		<tag k="ssr:type" v="bruk" />
	</node>
	<node changeset="57982147" id="4471613941" lat="58.86474" lon="8.9019754" timestamp="2018-04-10T18:50:28Z" uid="3497659" user="NKA" version="2">
		<tag k="alt_name" v="Storemyr" />
		<tag k="name" v="Stormyr" />
		<tag k="place" v="farm" />
		<tag k="ssr:stedsnr" v="122171" />
		<tag k="ssr:type" v="bruk" />
	</node>
	<node changeset="57982147" id="4471613942" lat="58.8805899" lon="9.0906613" timestamp="2018-04-10T18:50:28Z" uid="3497659" user="NKA" version="2">
		<tag k="name" v="Stormyr" />
		<tag k="place" v="farm" />
		<tag k="ssr:stedsnr" v="449808" />
		<tag k="ssr:type" v="bruk" />
	</node>
	<node changeset="57982147" id="4471613943" lat="58.8647223" lon="8.9046313" timestamp="2018-04-10T18:50:28Z" uid="3497659" user="NKA" version="2">
		<tag k="name" v="Stormyrkjerret" />
		<tag k="place" v="farm" />
		<tag k="ssr:stedsnr" v="206492" />
		<tag k="ssr:type" v="bruk" />
	</node>
	<node changeset="58497758" id="4471613944" lat="58.8757792" lon="9.1416389" timestamp="2018-04-28T08:07:05Z" uid="3497659" user="NKA" version="3">
		<tag k="building" v="cabin" />
		<tag k="historic" v="shieling" />
		<tag k="name" v="Storsunds" />
		<tag k="place" v="isolated_dwelling" />
		<tag k="ssr:stedsnr" v="388616" />
		<tag k="ssr:type" v="seterStøl" />
	</node>
	<node changeset="57982147" id="4471613945" lat="58.8418086" lon="9.1136041" timestamp="2018-04-10T18:50:29Z" uid="3497659" user="NKA" version="2">
		<tag k="name" v="Storøygard" />
		<tag k="place" v="farm" />
		<tag k="ssr:stedsnr" v="510989" />
		<tag k="ssr:type" v="bruk" />
	</node>
	<node changeset="57982147" id="4471613946" lat="58.8200265" lon="9.0961791" timestamp="2018-04-10T18:50:29Z" uid="3497659" user="NKA" version="2">
		<tag k="name" v="Stranda" />
		<tag k="place" v="farm" />
		<tag k="ssr:stedsnr" v="267714" />
		<tag k="ssr:type" v="bruk" />
	</node>
	<node changeset="57982147" id="4471613947" lat="58.8646939" lon="9.0409235" timestamp="2018-04-10T18:50:29Z" uid="3497659" user="NKA" version="2">
		<tag k="name" v="Stranda" />
		<tag k="place" v="farm" />
		<tag k="ssr:stedsnr" v="668154" />
		<tag k="ssr:type" v="eneboligMindreBoligbygg" />
	</node>
	<node changeset="57982147" id="4471613948" lat="58.833476" lon="9.1845657" timestamp="2018-04-10T18:50:29Z" uid="3497659" user="NKA" version="2">
		<tag k="name" v="Strat" />
		<tag k="place" v="farm" />
		<tag k="ssr:stedsnr" v="364051" />
		<tag k="ssr:type" v="bruk" />
	</node>
	<node changeset="57982147" id="4471613949" lat="58.8987841" lon="9.0250748" timestamp="2018-04-10T18:50:29Z" uid="3497659" user="NKA" version="2">
		<tag k="name" v="Stålerød" />
		<tag k="place" v="farm" />
		<tag k="ssr:stedsnr" v="244810" />
		<tag k="ssr:type" v="bruk" />
	</node>
	<node changeset="57982147" id="4471613950" lat="58.844627" lon="9.0968014" timestamp="2018-04-10T18:50:29Z" uid="3497659" user="NKA" version="2">
		<tag k="name" v="Sunde" />
		<tag k="place" v="farm" />
		<tag k="ssr:stedsnr" v="668082" />
		<tag k="ssr:type" v="bruk" />
	</node>
	<node changeset="57982147" id="4471613951" lat="58.8380102" lon="9.0865005" timestamp="2018-04-10T18:50:29Z" uid="3497659" user="NKA" version="2">
		<tag k="name" v="Sundebru" />
		<tag k="place" v="hamlet" />
		<tag k="ssr:stedsnr" v="546096" />
		<tag k="ssr:type" v="grend" />
	</node>
	<way changeset="57983805" id="446074279" timestamp="2018-04-10T19:47:55Z" uid="3497659" user="NKA" version="6">
		<tag k="addr:city" v="Gjerstad" />
		<tag k="addr:housenumber" v="1" />
		<tag k="addr:postcode" v="4980" />
		<tag k="addr:street" v="Niels Henrik Abels Plass" />
		<tag k="amenity" v="place_of_worship" />
		<tag k="architect" v="Chr.H.Grosch/Lars Listøl/Hans Olaf Aanensen (2004)" />
		<tag k="building" v="church" />
		<tag k="capacity" v="500" />
		<tag k="deanery" v="Aust-Nedenes" />
		<tag k="denomination" v="lutheran" />
		<tag k="diocese" v="Agder og Telemark" />
		<tag k="image" v="https://www.kirkebyggdatabasen.no/KBDBweb/getPublicImage.aspx?vedleggId=4686E1BF-7F94-4D4F-B66A-A6FFF8B514BC" />
		<tag k="name" v="Gjerstad kirke" />
		<tag k="operator" v="Gjerstad menighetsråd" />
		<tag k="parish" v="Gjerstad" />
		<tag k="religion" v="christian" />
		<tag k="ssr:stedsnr" v="789228" />
		<tag k="ssr:type" v="kirke" />
		<tag k="start_date" v="1848" />
		<tag k="wikidata" v="Q3743469" />
		<nd ref="4434045674" />
		<nd ref="4434045673" />
		<nd ref="4434045672" />
		<nd ref="3329612189" />
		<nd ref="4434045682" />
		<nd ref="4434045681" />
		<nd ref="4434045680" />
		<nd ref="4434045679" />
		<nd ref="4471614333" />
		<nd ref="4471614335" />
		<nd ref="4434045678" />
		<nd ref="4471614336" />
		<nd ref="4471614332" />
		<nd ref="4471614334" />
		<nd ref="4471614331" />
		<nd ref="4471614330" />
		<nd ref="4471614329" />
		<nd ref="4434045677" />
		<nd ref="4471614328" />
		<nd ref="4471614327" />
		<nd ref="4434045676" />
		<nd ref="4434045675" />
		<nd ref="4434045674" />
	</way>
</osm>
