<?xml version="1.0" encoding="UTF-8"?>
<osm version="0.6" generator="osmapis">
	<node id="274650948" lat="67.8986695" lon="15.1911815" version="3" timestamp="2022-07-14T08:03:12Z" changeset="123595551" uid="3497659" user="NKA">
		<tag k="alt_name" v="Bogen" />
		<tag k="name" v="Leirvikbogen" />
		<tag k="place" v="village" />
		<tag k="ssr:stedsnr" v="199855" />
	</node>
	<node id="1014729082" lat="67.762175" lon="15.2269226" version="2" timestamp="2022-07-14T08:03:12Z" changeset="123595551" uid="3497659" user="NKA">
		<tag k="name" v="Nordfold" />
		<tag k="place" v="village" />
		<tag k="ssr:stedsnr" v="572438" />
	</node>
	<node id="1019364062" lat="67.7755603" lon="15.017395" version="3" timestamp="2022-07-14T08:03:12Z" changeset="123595551" uid="3497659" user="NKA">
		<tag k="alt_name" v="Leinesfjorden;Leinesfjord" />
		<tag k="name" v="Myklebostad" />
		<tag k="place" v="village" />
		<tag k="population" v="211" />
		<tag k="population:date" v="2020-01-01" />
		<tag k="ref:ssb_tettsted" v="7703" />
		<tag k="source:population" v="SSB - befolkning i tettstedet" />
		<tag k="ssr:stedsnr" v="440967" />
	</node>
	<node id="1019365722" lat="67.7736497" lon="15.1680988" version="3" timestamp="2022-07-14T08:03:12Z" changeset="123595551" uid="3497659" user="NKA">
		<tag k="alt_name" v="Marhaug" />
		<tag k="name" v="Marhaugen" />
		<tag k="place" v="hamlet" />
		<tag k="ssr:stedsnr" v="502935" />
	</node>
	<node id="1019553061" lat="67.8327858" lon="14.7906098" version="3" timestamp="2022-07-14T08:03:12Z" changeset="123595551" uid="3497659" user="NKA">
		<tag k="name" v="Nordskot" />
		<tag k="place" v="village" />
		<tag k="ssr:stedsnr" v="1085159" />
	</node>
	<node id="1019713383" lat="67.7922365" lon="15.055342" version="4" timestamp="2022-07-14T08:03:12Z" changeset="123595551" uid="3497659" user="NKA">
		<tag k="alt_name" v="Saursfjord" />
		<tag k="name" v="Saursfjorden" />
		<tag k="place" v="hamlet" />
		<tag k="ssr:stedsnr" v="198995" />
	</node>
	<node id="1019716524" lat="67.8084675" lon="14.8453172" version="3" timestamp="2022-07-14T08:03:12Z" changeset="123595551" uid="3497659" user="NKA">
		<tag k="name" v="Lund" />
		<tag k="place" v="hamlet" />
		<tag k="ssr:stedsnr" v="26629" />
	</node>
	<node id="1019717817" lat="67.7635519" lon="15.1507061" version="3" timestamp="2022-07-14T08:03:12Z" changeset="123595551" uid="3497659" user="NKA">
		<tag k="alt_name" v="Botnen" />
		<tag k="name" v="Botn" />
		<tag k="place" v="hamlet" />
		<tag k="ssr:stedsnr" v="17951" />
	</node>
	<node id="1020875587" lat="67.9251115" lon="15.5610525" version="2" timestamp="2022-07-14T08:03:12Z" changeset="123595551" uid="3497659" user="NKA">
		<tag k="alt_name" v="Storstraumfjord;Straumfjorden, store" />
		<tag k="name" v="Store Straumfjorden" />
		<tag k="old_name" v="Straumfjorden" />
		<tag k="place" v="hamlet" />
		<tag k="ssr:stedsnr" v="16529" />
	</node>
	<node id="1020876465" lat="67.9491202" lon="15.5924567" version="3" timestamp="2022-07-14T08:03:12Z" changeset="123595551" uid="3497659" user="NKA">
		<tag k="name" v="Sirines" />
		<tag k="place" v="hamlet" />
		<tag k="ssr:stedsnr" v="563572" />
	</node>
	<node id="1020878222" lat="67.9392965" lon="15.5224804" version="2" timestamp="2022-07-14T08:03:12Z" changeset="123595551" uid="3497659" user="NKA">
		<tag k="name" v="Svartfjell" />
		<tag k="place" v="hamlet" />
		<tag k="ssr:stedsnr" v="745571" />
	</node>
	<node id="1020879218" lat="67.9559213" lon="15.6485485" version="3" timestamp="2022-07-14T08:03:12Z" changeset="123595551" uid="3497659" user="NKA">
		<tag k="name" v="Forsan" />
		<tag k="place" v="hamlet" />
		<tag k="ssr:stedsnr" v="972468" />
	</node>
	<node id="1693125278" lat="67.8811928" lon="14.8932155" version="2" timestamp="2022-07-14T08:03:12Z" changeset="123595551" uid="3497659" user="NKA">
		<tag k="name" v="Holkestad" />
		<tag k="place" v="hamlet" />
		<tag k="ssr:stedsnr" v="441883" />
	</node>
	<node id="4395152760" lat="67.9281713" lon="15.4686726" version="2" timestamp="2022-01-26T06:22:04Z" changeset="116610177" uid="3497659" user="NKA">
		<tag k="junction" v="yes" />
		<tag k="name" v="Skranstadkrysset" />
		<tag k="ssr:stedsnr" v="662279" />
	</node>
	<node id="4395747457" lat="67.7503942" lon="15.1804233" version="2" timestamp="2022-01-26T06:22:04Z" changeset="116610177" uid="3497659" user="NKA">
		<tag k="junction" v="yes" />
		<tag k="name" v="Korsvegen" />
		<tag k="ssr:stedsnr" v="461877" />
	</node>
	<node id="6188685486" lat="67.9491677" lon="15.2007631" version="2" timestamp="2022-07-14T08:03:12Z" changeset="123595551" uid="3497659" user="NKA">
		<tag k="name" v="Gjerdvika" />
		<tag k="place" v="farm" />
		<tag k="ssr:stedsnr" v="441233" />
	</node>
	<node id="6188685586" lat="67.9500002" lon="15.2277851" version="2" timestamp="2022-07-14T08:03:12Z" changeset="123595551" uid="3497659" user="NKA">
		<tag k="name" v="Asplund" />
		<tag k="place" v="farm" />
		<tag k="ssr:stedsnr" v="806574" />
	</node>
	<node id="6205774472" lat="67.9638139" lon="15.0319408" version="2" timestamp="2022-07-14T08:03:12Z" changeset="123595551" uid="3497659" user="NKA">
		<tag k="alt_name" v="Engeløya" />
		<tag k="name" v="Bø" />
		<tag k="place" v="hamlet" />
		<tag k="ssr:stedsnr" v="1076280" />
	</node>
	<node id="6205774483" lat="67.7371387" lon="14.8101052" version="2" timestamp="2022-07-14T08:03:12Z" changeset="123595551" uid="3497659" user="NKA">
		<tag k="name" v="Leines" />
		<tag k="place" v="village" />
		<tag k="ssr:stedsnr" v="806154" />
	</node>
	<node id="9886670450" lat="67.9966576" lon="15.1148397" version="1" timestamp="2022-07-14T08:03:12Z" changeset="123595551" uid="3497659" user="NKA">
		<tag k="name" v="Brunneset" />
		<tag k="place" v="farm" />
		<tag k="ssr:stedsnr" v="972286" />
	</node>
	<node id="9886670451" lat="67.9941042" lon="15.1195618" version="1" timestamp="2022-07-14T08:03:12Z" changeset="123595551" uid="3497659" user="NKA">
		<tag k="name" v="Brunes" />
		<tag k="place" v="farm" />
		<tag k="ssr:stedsnr" v="502053" />
	</node>
	<node id="9886670452" lat="67.9994909" lon="15.1132646" version="1" timestamp="2022-07-14T08:03:12Z" changeset="123595551" uid="3497659" user="NKA">
		<tag k="name" v="Solstrand" />
		<tag k="place" v="farm" />
		<tag k="ssr:stedsnr" v="442062" />
	</node>
	<node id="9886670453" lat="68.0368259" lon="15.2274977" version="1" timestamp="2022-07-14T08:03:12Z" changeset="123595551" uid="3497659" user="NKA">
		<tag k="name" v="Øksnes" />
		<tag k="place" v="farm" />
		<tag k="ssr:stedsnr" v="502927" />
	</node>
	<node id="9886670454" lat="67.9742247" lon="15.2437851" version="1" timestamp="2022-07-14T08:03:12Z" changeset="123595551" uid="3497659" user="NKA">
		<tag k="name" v="Vikmarka" />
		<tag k="place" v="hamlet" />
		<tag k="ssr:stedsnr" v="259597" />
	</node>
	<node id="9886670455" lat="67.6856283" lon="15.0329062" version="1" timestamp="2022-07-14T08:03:12Z" changeset="123595551" uid="3497659" user="NKA">
		<tag k="name" v="Langnes" />
		<tag k="place" v="farm" />
		<tag k="ssr:stedsnr" v="927227" />
	</node>
	<node id="9886670456" lat="67.9807335" lon="15.0927453" version="1" timestamp="2022-07-14T08:03:12Z" changeset="123595551" uid="3497659" user="NKA">
		<tag k="alt_name" v="Eide" />
		<tag k="name" v="Eidet" />
		<tag k="place" v="farm" />
		<tag k="ssr:stedsnr" v="381062" />
	</node>
	<node id="9886670457" lat="67.9746445" lon="15.2396612" version="1" timestamp="2022-07-14T08:03:12Z" changeset="123595551" uid="3497659" user="NKA">
		<tag k="name" v="Mevika" />
		<tag k="place" v="farm" />
		<tag k="ssr:stedsnr" v="380656" />
	</node>
	<node id="9886670458" lat="67.6856469" lon="15.2434503" version="1" timestamp="2022-07-14T08:03:12Z" changeset="123595551" uid="3497659" user="NKA">
		<tag k="name" v="Sletten" />
		<tag k="place" v="farm" />
		<tag k="ssr:stedsnr" v="723691" />
	</node>
	<node id="9886670459" lat="67.6865037" lon="15.32493" version="1" timestamp="2022-07-14T08:03:12Z" changeset="123595551" uid="3497659" user="NKA">
		<tag k="name" v="Nyheim" />
		<tag k="place" v="farm" />
		<tag k="ssr:stedsnr" v="502833" />
	</node>
	<node id="9886670460" lat="67.6855437" lon="15.2452123" version="1" timestamp="2022-07-14T08:03:12Z" changeset="123595551" uid="3497659" user="NKA">
		<tag k="name" v="Bjerkli" />
		<tag k="place" v="farm" />
		<tag k="ssr:stedsnr" v="723693" />
	</node>
	<node id="9886670461" lat="67.7102722" lon="15.12185" version="1" timestamp="2022-07-14T08:03:12Z" changeset="123595551" uid="3497659" user="NKA">
		<tag k="name" v="Haugan" />
		<tag k="place" v="farm" />
		<tag k="ssr:stedsnr" v="806246" />
	</node>
	<node id="9886670462" lat="67.6851879" lon="15.3191559" version="1" timestamp="2022-07-14T08:03:12Z" changeset="123595551" uid="3497659" user="NKA">
		<tag k="name" v="Vangen" />
		<tag k="place" v="farm" />
		<tag k="ssr:stedsnr" v="381847" />
	</node>
	<node id="9886670463" lat="67.6850847" lon="15.2482243" version="1" timestamp="2022-07-14T08:03:12Z" changeset="123595551" uid="3497659" user="NKA">
		<tag k="name" v="Nygård" />
		<tag k="place" v="farm" />
		<tag k="ssr:stedsnr" v="298676" />
	</node>
	<node id="9886670464" lat="67.6980374" lon="15.0761277" version="1" timestamp="2022-07-14T08:03:12Z" changeset="123595551" uid="3497659" user="NKA">
		<tag k="name" v="Nystad" />
		<tag k="place" v="farm" />
		<tag k="ssr:stedsnr" v="528773" />
	</node>
	<node id="9886670465" lat="67.7087722" lon="15.1002529" version="1" timestamp="2022-07-14T08:03:12Z" changeset="123595551" uid="3497659" user="NKA">
		<tag k="name" v="Langstranda" />
		<tag k="place" v="farm" />
		<tag k="ssr:stedsnr" v="502225" />
	</node>
	<node id="9886670466" lat="67.6838902" lon="15.0214469" version="1" timestamp="2022-07-14T08:03:12Z" changeset="123595551" uid="3497659" user="NKA">
		<tag k="name" v="Skoglund" />
		<tag k="place" v="farm" />
		<tag k="ssr:stedsnr" v="1075359" />
	</node>
	<node id="9886670467" lat="67.6900512" lon="15.0536858" version="1" timestamp="2022-07-14T08:03:12Z" changeset="123595551" uid="3497659" user="NKA">
		<tag k="name" v="Håsand" />
		<tag k="place" v="hamlet" />
		<tag k="ssr:stedsnr" v="137187" />
	</node>
	<node id="9886670468" lat="67.7433646" lon="15.0494123" version="1" timestamp="2022-07-14T08:03:12Z" changeset="123595551" uid="3497659" user="NKA">
		<tag k="alt_name" v="Åsjord" />
		<tag k="name" v="Åsjorda" />
		<tag k="place" v="farm" />
		<tag k="ssr:stedsnr" v="927183" />
	</node>
	<node id="9886670469" lat="67.9710528" lon="15.0243223" version="1" timestamp="2022-07-14T08:03:12Z" changeset="123595551" uid="3497659" user="NKA">
		<tag k="name" v="Stranda" />
		<tag k="place" v="locality" />
		<tag k="ssr:stedsnr" v="825437" />
	</node>
	<node id="9886670470" lat="67.6861833" lon="15.0206342" version="1" timestamp="2022-07-14T08:03:12Z" changeset="123595551" uid="3497659" user="NKA">
		<tag k="name" v="Stranden" />
		<tag k="place" v="farm" />
		<tag k="ssr:stedsnr" v="1075307" />
	</node>
	<node id="9886670471" lat="67.7459682" lon="15.04127" version="1" timestamp="2022-07-14T08:03:12Z" changeset="123595551" uid="3497659" user="NKA">
		<tag k="name" v="Breiveien" />
		<tag k="place" v="farm" />
		<tag k="ssr:stedsnr" v="825979" />
	</node>
	<node id="9886670472" lat="67.8200972" lon="15.1088083" version="1" timestamp="2022-07-14T08:03:12Z" changeset="123595551" uid="3497659" user="NKA">
		<tag k="name" v="Furulund" />
		<tag k="place" v="farm" />
		<tag k="ssr:stedsnr" v="684781" />
	</node>
	<node id="9886670473" lat="67.8863679" lon="15.0336818" version="1" timestamp="2022-07-14T08:03:12Z" changeset="123595551" uid="3497659" user="NKA">
		<tag k="name" v="Marka" />
		<tag k="place" v="farm" />
		<tag k="ssr:stedsnr" v="723569" />
	</node>
	<node id="9886670474" lat="67.9634889" lon="15.0359667" version="1" timestamp="2022-07-14T08:03:12Z" changeset="123595551" uid="3497659" user="NKA">
		<tag k="alt_name" v="Austgården" />
		<tag k="name" v="Austgarden" />
		<tag k="place" v="farm" />
		<tag k="ssr:stedsnr" v="745254" />
	</node>
	<node id="9886670475" lat="67.7449706" lon="15.0223484" version="1" timestamp="2022-07-14T08:03:12Z" changeset="123595551" uid="3497659" user="NKA">
		<tag k="alt_name" v="Gråsteinhaugen" />
		<tag k="name" v="Gråsteinhågen" />
		<tag k="place" v="farm" />
		<tag k="ssr:stedsnr" v="745217" />
	</node>
	<node id="9886670476" lat="67.7700033" lon="15.0433879" version="1" timestamp="2022-07-14T08:03:12Z" changeset="123595551" uid="3497659" user="NKA">
		<tag k="name" v="Stormyra" />
		<tag k="place" v="hamlet" />
		<tag k="ssr:stedsnr" v="502928" />
	</node>
	<node id="9886670477" lat="67.8870147" lon="15.0355557" version="1" timestamp="2022-07-14T08:03:12Z" changeset="123595551" uid="3497659" user="NKA">
		<tag k="alt_name" v="Gynnelmarka;Gynnelsmark" />
		<tag k="name" v="Gynnelsmarka" />
		<tag k="place" v="farm" />
		<tag k="ssr:stedsnr" v="502868" />
	</node>
	<node id="9886670478" lat="67.8754928" lon="15.0874159" version="1" timestamp="2022-07-14T08:03:12Z" changeset="123595551" uid="3497659" user="NKA">
		<tag k="alt_name" v="Innerskotsfjord;in Skotsfjord, østre;indre Skotsfjord, østre;Skotsfjord;Indre Skotsfjord" />
		<tag k="name" v="Østre Innerskotsfjord" />
		<tag k="place" v="farm" />
		<tag k="ssr:stedsnr" v="684829" />
	</node>
	<node id="9886670479" lat="67.9215611" lon="15.0533528" version="1" timestamp="2022-07-14T08:03:12Z" changeset="123595551" uid="3497659" user="NKA">
		<tag k="alt_name" v="Sandvågen, øvre" />
		<tag k="name" v="Øvre Sandvåg" />
		<tag k="place" v="farm" />
		<tag k="ssr:stedsnr" v="684129" />
	</node>
	<node id="9886670480" lat="67.9210549" lon="15.0915608" version="1" timestamp="2022-07-14T08:03:12Z" changeset="123595551" uid="3497659" user="NKA">
		<tag k="alt_name" v="Mølleskog, østre" />
		<tag k="name" v="Østre Mølleskog" />
		<tag k="place" v="farm" />
		<tag k="ssr:stedsnr" v="381155" />
	</node>
	<node id="9886670481" lat="67.9203944" lon="15.0833138" version="1" timestamp="2022-07-14T08:03:12Z" changeset="123595551" uid="3497659" user="NKA">
		<tag k="alt_name" v="Mølleskog, vestre" />
		<tag k="name" v="Vestre Mølleskog" />
		<tag k="place" v="farm" />
		<tag k="ssr:stedsnr" v="320131" />
	</node>
	<node id="9886670482" lat="67.963925" lon="15.0500611" version="1" timestamp="2022-07-14T08:03:12Z" changeset="123595551" uid="3497659" user="NKA">
		<tag k="name" v="Øvrevoll" />
		<tag k="place" v="farm" />
		<tag k="ssr:stedsnr" v="442256" />
	</node>
	<node id="9886670483" lat="67.9234944" lon="15.0303499" version="1" timestamp="2022-07-14T08:03:12Z" changeset="123595551" uid="3497659" user="NKA">
		<tag k="name" v="Gjerde" />
		<tag k="place" v="farm" />
		<tag k="ssr:stedsnr" v="138137" />
	</node>
	<node id="9886670484" lat="67.9225084" lon="15.1029972" version="1" timestamp="2022-07-14T08:03:12Z" changeset="123595551" uid="3497659" user="NKA">
		<tag k="name" v="Sigden" />
		<tag k="place" v="farm" />
		<tag k="ssr:stedsnr" v="138154" />
	</node>
	<node id="9886670485" lat="67.7502084" lon="15.0722056" version="1" timestamp="2022-07-14T08:03:12Z" changeset="123595551" uid="3497659" user="NKA">
		<tag k="name" v="Røyrnes" />
		<tag k="place" v="farm" />
		<tag k="ssr:stedsnr" v="299662" />
	</node>
	<node id="9886670486" lat="67.878575" lon="15.0632749" version="1" timestamp="2022-07-14T08:03:12Z" changeset="123595551" uid="3497659" user="NKA">
		<tag k="name" v="Myrvang" />
		<tag k="place" v="farm" />
		<tag k="ssr:stedsnr" v="157921" />
	</node>
	<node id="9886670487" lat="67.8233693" lon="15.0700985" version="1" timestamp="2022-07-14T08:03:12Z" changeset="123595551" uid="3497659" user="NKA">
		<tag k="name" v="Skihytta" />
		<tag k="place" v="isolated_dwelling" />
		<tag k="ssr:stedsnr" v="117754" />
	</node>
	<node id="9886670488" lat="67.9004166" lon="15.061736" version="1" timestamp="2022-07-14T08:03:12Z" changeset="123595551" uid="3497659" user="NKA">
		<tag k="name" v="Tjuskåkeren" />
		<tag k="place" v="farm" />
		<tag k="ssr:stedsnr" v="36674" />
	</node>
	<node id="9886670489" lat="67.9641805" lon="15.0276082" version="1" timestamp="2022-07-14T08:03:12Z" changeset="123595551" uid="3497659" user="NKA">
		<tag k="name" v="Megarden" />
		<tag k="place" v="farm" />
		<tag k="ssr:stedsnr" v="157453" />
	</node>
	<node id="9886670490" lat="67.8714081" lon="15.0451023" version="1" timestamp="2022-07-14T08:03:12Z" changeset="123595551" uid="3497659" user="NKA">
		<tag k="alt_name" v="Underås" />
		<tag k="name" v="Underåsen" />
		<tag k="place" v="farm" />
		<tag k="ssr:stedsnr" v="137817" />
	</node>
	<node id="9886670491" lat="67.7248765" lon="15.2906458" version="1" timestamp="2022-07-14T08:03:12Z" changeset="123595551" uid="3497659" user="NKA">
		<tag k="name" v="Vinknes" />
		<tag k="place" v="hamlet" />
		<tag k="ssr:stedsnr" v="926834" />
	</node>
	<node id="9886670492" lat="67.7935855" lon="15.2967156" version="1" timestamp="2022-07-14T08:03:12Z" changeset="123595551" uid="3497659" user="NKA">
		<tag k="name" v="Dalbrott" />
		<tag k="place" v="farm" />
		<tag k="ssr:stedsnr" v="684711" />
	</node>
	<node id="9886670493" lat="67.7947706" lon="15.0560332" version="1" timestamp="2022-07-14T08:03:12Z" changeset="123595551" uid="3497659" user="NKA">
		<tag k="name" v="Saursfjord" />
		<tag k="place" v="farm" />
		<tag k="ssr:stedsnr" v="1076245" />
	</node>
	<node id="9886670494" lat="67.7917278" lon="15.3005668" version="1" timestamp="2022-07-14T08:03:12Z" changeset="123595551" uid="3497659" user="NKA">
		<tag k="name" v="Snehaug" />
		<tag k="place" v="farm" />
		<tag k="ssr:stedsnr" v="502699" />
	</node>
	<node id="9886670495" lat="67.7925709" lon="15.3069323" version="1" timestamp="2022-07-14T08:03:12Z" changeset="123595551" uid="3497659" user="NKA">
		<tag k="name" v="Lakså" />
		<tag k="place" v="hamlet" />
		<tag k="ssr:stedsnr" v="320678" />
	</node>
	<node id="9886670496" lat="67.7936292" lon="15.3166172" version="1" timestamp="2022-07-14T08:03:12Z" changeset="123595551" uid="3497659" user="NKA">
		<tag k="alt_name" v="Kjærran" />
		<tag k="name" v="Kjerran" />
		<tag k="place" v="farm" />
		<tag k="ssr:stedsnr" v="502726" />
	</node>
	<node id="9886670497" lat="67.7954278" lon="15.3039832" version="1" timestamp="2022-07-14T08:03:12Z" changeset="123595551" uid="3497659" user="NKA">
		<tag k="name" v="Moen" />
		<tag k="place" v="farm" />
		<tag k="ssr:stedsnr" v="441724" />
	</node>
	<node id="9886670498" lat="67.6893722" lon="15.6562195" version="1" timestamp="2022-07-14T08:03:12Z" changeset="123595551" uid="3497659" user="NKA">
		<tag k="name" v="Elvebakk" />
		<tag k="place" v="isolated_dwelling" />
		<tag k="ssr:stedsnr" v="966510" />
	</node>
	<node id="9886670499" lat="67.7940527" lon="15.3102944" version="1" timestamp="2022-07-14T08:03:12Z" changeset="123595551" uid="3497659" user="NKA">
		<tag k="name" v="Fredheim" />
		<tag k="place" v="farm" />
		<tag k="ssr:stedsnr" v="805706" />
	</node>
	<node id="9886670500" lat="67.7889306" lon="15.2956" version="1" timestamp="2022-07-14T08:03:12Z" changeset="123595551" uid="3497659" user="NKA">
		<tag k="name" v="Strandlemmen" />
		<tag k="place" v="farm" />
		<tag k="ssr:stedsnr" v="259681" />
	</node>
	<node id="9886670501" lat="67.7236676" lon="15.2911235" version="1" timestamp="2022-07-14T08:03:12Z" changeset="123595551" uid="3497659" user="NKA">
		<tag k="loc_name" v="Bortigarden" />
		<tag k="name" v="Vinkenes midtre" />
		<tag k="place" v="farm" />
		<tag k="ssr:stedsnr" v="116696" />
	</node>
	<node id="9886670502" lat="67.7886389" lon="15.6086334" version="1" timestamp="2022-07-14T08:03:12Z" changeset="123595551" uid="3497659" user="NKA">
		<tag k="alt_name" v="Hopen, vestre" />
		<tag k="name" v="Vestre Hopen" />
		<tag k="place" v="farm" />
		<tag k="ssr:stedsnr" v="684688" />
	</node>
	<node id="9886670503" lat="67.808436" lon="15.7437856" version="1" timestamp="2022-07-14T08:03:12Z" changeset="123595551" uid="3497659" user="NKA">
		<tag k="name" v="Vatnøyra" />
		<tag k="place" v="farm" />
		<tag k="ssr:stedsnr" v="442485" />
	</node>
	<node id="9886670504" lat="67.8105493" lon="15.7420704" version="1" timestamp="2022-07-14T08:03:12Z" changeset="123595551" uid="3497659" user="NKA">
		<tag k="name" v="Hopvatnet" />
		<tag k="place" v="hamlet" />
		<tag k="ssr:stedsnr" v="927479" />
	</node>
	<node id="9886670505" lat="67.7894476" lon="15.6158006" version="1" timestamp="2022-07-14T08:03:12Z" changeset="123595551" uid="3497659" user="NKA">
		<tag k="name" v="Hopen" />
		<tag k="place" v="hamlet" />
		<tag k="ssr:stedsnr" v="693337" />
	</node>
	<node id="9886670506" lat="67.7583139" lon="15.7022249" version="1" timestamp="2022-07-14T08:03:12Z" changeset="123595551" uid="3497659" user="NKA">
		<tag k="name" v="Skytvika" />
		<tag k="place" v="farm" />
		<tag k="ssr:stedsnr" v="259675" />
	</node>
	<node id="9886670507" lat="67.7597861" lon="15.6972557" version="1" timestamp="2022-07-14T08:03:12Z" changeset="123595551" uid="3497659" user="NKA">
		<tag k="name" v="Sandvik" />
		<tag k="place" v="farm" />
		<tag k="ssr:stedsnr" v="165083" />
	</node>
	<node id="9886670508" lat="67.8023049" lon="15.3563446" version="1" timestamp="2022-07-14T08:03:12Z" changeset="123595551" uid="3497659" user="NKA">
		<tag k="name" v="Mellomgården" />
		<tag k="place" v="farm" />
		<tag k="ssr:stedsnr" v="805701" />
	</node>
	<node id="9886670509" lat="67.9304371" lon="15.5509808" version="1" timestamp="2022-07-14T08:03:12Z" changeset="123595551" uid="3497659" user="NKA">
		<tag k="alt_name" v="Straumfjorden, l;Lille Straumfjord" />
		<tag k="name" v="Litl Straumfjorden" />
		<tag k="place" v="farm" />
		<tag k="ssr:stedsnr" v="745557" />
	</node>
	<node id="9886670510" lat="67.7025235" lon="15.4120525" version="1" timestamp="2022-07-14T08:03:12Z" changeset="123595551" uid="3497659" user="NKA">
		<tag k="name" v="Kjerran" />
		<tag k="place" v="farm" />
		<tag k="ssr:stedsnr" v="927827" />
	</node>
	<node id="9886670511" lat="67.6921278" lon="15.3407418" version="1" timestamp="2022-07-14T08:03:12Z" changeset="123595551" uid="3497659" user="NKA">
		<tag k="name" v="Skoglund" />
		<tag k="place" v="farm" />
		<tag k="ssr:stedsnr" v="806846" />
	</node>
	<node id="9886670512" lat="67.9020303" lon="15.3299059" version="1" timestamp="2022-07-14T08:03:12Z" changeset="123595551" uid="3497659" user="NKA">
		<tag k="alt_name" v="Pollen" />
		<tag k="name" v="Dypingspollen" />
		<tag k="place" v="farm" />
		<tag k="ssr:stedsnr" v="441547" />
	</node>
	<node id="9886670513" lat="67.9121774" lon="15.3848128" version="1" timestamp="2022-07-14T08:03:12Z" changeset="123595551" uid="3497659" user="NKA">
		<tag k="name" v="Gamman" />
		<tag k="place" v="farm" />
		<tag k="ssr:stedsnr" v="380589" />
	</node>
	<node id="9886670514" lat="67.7547555" lon="15.4187555" version="1" timestamp="2022-07-14T08:03:12Z" changeset="123595551" uid="3497659" user="NKA">
		<tag k="name" v="Tobvik" />
		<tag k="place" v="isolated_dwelling" />
		<tag k="ssr:stedsnr" v="588799" />
	</node>
	<node id="9886670515" lat="67.9111944" lon="15.3329555" version="1" timestamp="2022-07-14T08:03:12Z" changeset="123595551" uid="3497659" user="NKA">
		<tag k="name" v="Nordli" />
		<tag k="place" v="farm" />
		<tag k="ssr:stedsnr" v="320530" />
	</node>
	<node id="9886670516" lat="67.8241667" lon="15.3860887" version="1" timestamp="2022-07-14T08:03:12Z" changeset="123595551" uid="3497659" user="NKA">
		<tag k="name" v="Lundeng" />
		<tag k="place" v="farm" />
		<tag k="ssr:stedsnr" v="298222" />
	</node>
	<node id="9886705317" lat="67.9120167" lon="15.3396" version="1" timestamp="2022-07-14T08:03:12Z" changeset="123595551" uid="3497659" user="NKA">
		<tag k="name" v="Sjøvoll" />
		<tag k="place" v="farm" />
		<tag k="ssr:stedsnr" v="380580" />
	</node>
	<node id="9886705318" lat="67.9164949" lon="15.532844" version="1" timestamp="2022-07-14T08:03:12Z" changeset="123595551" uid="3497659" user="NKA">
		<tag k="alt_name" v="Vassvik" />
		<tag k="name" v="Vassvika" />
		<tag k="place" v="farm" />
		<tag k="ssr:stedsnr" v="320540" />
	</node>
	<node id="9886705319" lat="67.9155749" lon="15.3924159" version="1" timestamp="2022-07-14T08:03:12Z" changeset="123595551" uid="3497659" user="NKA">
		<tag k="alt_name" v="Mortenstrand" />
		<tag k="name" v="Mortenstranda" />
		<tag k="place" v="hamlet" />
		<tag k="ssr:stedsnr" v="137531" />
	</node>
	<node id="9886705320" lat="67.6947957" lon="15.4641516" version="1" timestamp="2022-07-14T08:03:12Z" changeset="123595551" uid="3497659" user="NKA">
		<tag k="name" v="Bakkan" />
		<tag k="place" v="farm" />
		<tag k="ssr:stedsnr" v="237367" />
	</node>
	<node id="9886705321" lat="67.763975" lon="15.4900304" version="1" timestamp="2022-07-14T08:03:12Z" changeset="123595551" uid="3497659" user="NKA">
		<tag k="name" v="Mølnvika" />
		<tag k="place" v="isolated_dwelling" />
		<tag k="ssr:stedsnr" v="237335" />
	</node>
	<node id="9886705322" lat="67.8135287" lon="15.461069" version="1" timestamp="2022-07-14T08:03:12Z" changeset="123595551" uid="3497659" user="NKA">
		<tag k="name" v="Bjørsvika" />
		<tag k="place" v="hamlet" />
		<tag k="ssr:stedsnr" v="1076351" />
	</node>
	<node id="9886705323" lat="67.915231" lon="15.3420369" version="1" timestamp="2022-07-14T08:03:12Z" changeset="123595551" uid="3497659" user="NKA">
		<tag k="name" v="Dyping" />
		<tag k="place" v="hamlet" />
		<tag k="ssr:stedsnr" v="78550" />
	</node>
	<node id="9886705324" lat="67.9318833" lon="15.553675" version="1" timestamp="2022-07-14T08:03:12Z" changeset="123595551" uid="3497659" user="NKA">
		<tag k="name" v="Haugen" />
		<tag k="place" v="farm" />
		<tag k="ssr:stedsnr" v="946604" />
	</node>
	<node id="9886705325" lat="67.7739861" lon="15.1614472" version="1" timestamp="2022-07-14T08:03:12Z" changeset="123595551" uid="3497659" user="NKA">
		<tag k="alt_name" v="Russvoll" />
		<tag k="name" v="Russvollen" />
		<tag k="place" v="farm" />
		<tag k="ssr:stedsnr" v="926902" />
	</node>
	<node id="9886705326" lat="67.7501917" lon="15.1774001" version="1" timestamp="2022-07-14T08:03:12Z" changeset="123595551" uid="3497659" user="NKA">
		<tag k="name" v="Hulderheimen" />
		<tag k="place" v="farm" />
		<tag k="ssr:stedsnr" v="946873" />
	</node>
	<node id="9886705327" lat="67.7045499" lon="15.4047179" version="1" timestamp="2022-07-14T08:03:12Z" changeset="123595551" uid="3497659" user="NKA">
		<tag k="name" v="Indre Helldalen" />
		<tag k="place" v="farm" />
		<tag k="ssr:stedsnr" v="905306" />
	</node>
	<node id="9886705328" lat="67.7641447" lon="15.2347297" version="1" timestamp="2022-07-14T08:03:12Z" changeset="123595551" uid="3497659" user="NKA">
		<tag k="name" v="Nordfolda" />
		<tag k="place" v="farm" />
		<tag k="ssr:stedsnr" v="972546" />
	</node>
	<node id="9886705329" lat="67.7379639" lon="15.2024027" version="1" timestamp="2022-07-14T08:03:12Z" changeset="123595551" uid="3497659" user="NKA">
		<tag k="name" v="Åbornes" />
		<tag k="place" v="hamlet" />
		<tag k="ssr:stedsnr" v="745255" />
	</node>
	<node id="9886705330" lat="67.756157" lon="15.1138922" version="1" timestamp="2022-07-14T08:03:12Z" changeset="123595551" uid="3497659" user="NKA">
		<tag k="alt_name" v="Simonstrand" />
		<tag k="name" v="Simonstranda" />
		<tag k="place" v="farm" />
		<tag k="ssr:stedsnr" v="684883" />
	</node>
	<node id="9886705331" lat="67.768296" lon="15.1559426" version="1" timestamp="2022-07-14T08:03:12Z" changeset="123595551" uid="3497659" user="NKA">
		<tag k="name" v="Solvang" />
		<tag k="place" v="farm" />
		<tag k="ssr:stedsnr" v="783749" />
	</node>
	<node id="9886705332" lat="67.7650722" lon="15.1482445" version="1" timestamp="2022-07-14T08:03:12Z" changeset="123595551" uid="3497659" user="NKA">
		<tag k="alt_name" v="Lapphaugen" />
		<tag k="name" v="Lapphågen" />
		<tag k="old_name" v="Myrvolden" />
		<tag k="place" v="farm" />
		<tag k="ssr:stedsnr" v="805922" />
	</node>
	<node id="9886705333" lat="67.7268833" lon="15.182675" version="1" timestamp="2022-07-14T08:03:12Z" changeset="123595551" uid="3497659" user="NKA">
		<tag k="alt_name" v="Litlevika" />
		<tag k="name" v="Lillevik" />
		<tag k="place" v="farm" />
		<tag k="ssr:stedsnr" v="442229" />
	</node>
	<node id="9886705334" lat="67.7327257" lon="15.1906181" version="1" timestamp="2022-07-14T08:03:12Z" changeset="123595551" uid="3497659" user="NKA">
		<tag k="alt_name" v="Sandset vestre" />
		<tag k="name" v="Sandset" />
		<tag k="place" v="hamlet" />
		<tag k="ssr:stedsnr" v="381245" />
	</node>
	<node id="9886705335" lat="67.7666278" lon="15.1549305" version="1" timestamp="2022-07-14T08:03:12Z" changeset="123595551" uid="3497659" user="NKA">
		<tag k="name" v="Austgård" />
		<tag k="place" v="farm" />
		<tag k="ssr:stedsnr" v="461894" />
	</node>
	<node id="9886705336" lat="67.7753389" lon="15.1727807" version="1" timestamp="2022-07-14T08:03:12Z" changeset="123595551" uid="3497659" user="NKA">
		<tag k="name" v="Tramoa" />
		<tag k="place" v="farm" />
		<tag k="ssr:stedsnr" v="480763" />
	</node>
	<node id="9886705337" lat="67.77365" lon="15.174639" version="1" timestamp="2022-07-14T08:03:12Z" changeset="123595551" uid="3497659" user="NKA">
		<tag k="alt_name" v="Marhaugmo" />
		<tag k="name" v="Marhaugmoen" />
		<tag k="place" v="farm" />
		<tag k="ssr:stedsnr" v="137894" />
	</node>
	<node id="9886705338" lat="67.7643278" lon="15.2285361" version="1" timestamp="2022-07-14T08:03:12Z" changeset="123595551" uid="3497659" user="NKA">
		<tag k="name" v="Bakken" />
		<tag k="place" v="neighbourhood" />
		<tag k="ssr:stedsnr" v="97783" />
	</node>
	<node id="9886705339" lat="67.7529639" lon="15.1912668" version="1" timestamp="2022-07-14T08:03:12Z" changeset="123595551" uid="3497659" user="NKA">
		<tag k="name" v="Myhre" />
		<tag k="place" v="farm" />
		<tag k="ssr:stedsnr" v="339872" />
	</node>
	<node id="9886705340" lat="67.7724722" lon="15.2584168" version="1" timestamp="2022-07-14T08:03:12Z" changeset="123595551" uid="3497659" user="NKA">
		<tag k="name" v="Grytvika" />
		<tag k="place" v="hamlet" />
		<tag k="ssr:stedsnr" v="320654" />
	</node>
	<node id="9886705341" lat="67.7484099" lon="15.1758616" version="1" timestamp="2022-07-14T08:03:12Z" changeset="123595551" uid="3497659" user="NKA">
		<tag k="name" v="Skoglund" />
		<tag k="place" v="farm" />
		<tag k="ssr:stedsnr" v="17197" />
	</node>
	<node id="9886705342" lat="67.7635521" lon="15.2342817" version="1" timestamp="2022-07-14T08:03:12Z" changeset="123595551" uid="3497659" user="NKA">
		<tag k="name" v="Gjerdbakken" />
		<tag k="place" v="farm" />
		<tag k="ssr:stedsnr" v="36777" />
	</node>
	<node id="9886705343" lat="67.7654054" lon="15.1372033" version="1" timestamp="2022-07-14T08:03:12Z" changeset="123595551" uid="3497659" user="NKA">
		<tag k="name" v="Bjørkåsen" />
		<tag k="place" v="isolated_dwelling" />
		<tag k="ssr:stedsnr" v="117748" />
	</node>
	<node id="9886705344" lat="67.7570389" lon="15.2047693" version="1" timestamp="2022-07-14T08:03:12Z" changeset="123595551" uid="3497659" user="NKA">
		<tag k="alt_name" v="Øyjorda" />
		<tag k="name" v="Øyjord" />
		<tag k="place" v="farm" />
		<tag k="ssr:stedsnr" v="77868" />
	</node>
	<node id="9886705345" lat="67.8582216" lon="15.2084702" version="1" timestamp="2022-07-14T08:03:12Z" changeset="123595551" uid="3497659" user="NKA">
		<tag k="name" v="Holmvåg" />
		<tag k="place" v="farm" />
		<tag k="ssr:stedsnr" v="972360" />
	</node>
	<node id="9886705346" lat="67.8697591" lon="15.24084" version="1" timestamp="2022-07-14T08:03:12Z" changeset="123595551" uid="3497659" user="NKA">
		<tag k="name" v="Holmvåg" />
		<tag k="place" v="farm" />
		<tag k="ssr:stedsnr" v="972359" />
	</node>
	<node id="9886705347" lat="67.7253725" lon="15.1780724" version="1" timestamp="2022-07-14T08:03:12Z" changeset="123595551" uid="3497659" user="NKA">
		<tag k="name" v="Otersteinan" />
		<tag k="place" v="farm" />
		<tag k="ssr:stedsnr" v="806200" />
	</node>
	<node id="9886705348" lat="67.7587786" lon="15.1342521" version="1" timestamp="2022-07-14T08:03:12Z" changeset="123595551" uid="3497659" user="NKA">
		<tag k="name" v="Heimdal" />
		<tag k="place" v="farm" />
		<tag k="ssr:stedsnr" v="199942" />
	</node>
	<node id="9886705349" lat="67.8587752" lon="15.2189366" version="1" timestamp="2022-07-14T08:03:12Z" changeset="123595551" uid="3497659" user="NKA">
		<tag k="name" v="Holmåk" />
		<tag k="place" v="hamlet" />
		<tag k="ssr:stedsnr" v="972358" />
	</node>
	<node id="9886705350" lat="67.9384971" lon="15.1977441" version="1" timestamp="2022-07-14T08:03:12Z" changeset="123595551" uid="3497659" user="NKA">
		<tag k="name" v="Storsæter" />
		<tag k="place" v="hamlet" />
		<tag k="ssr:stedsnr" v="927238" />
	</node>
	<node id="9886705351" lat="67.7395861" lon="15.1859361" version="1" timestamp="2022-07-14T08:03:12Z" changeset="123595551" uid="3497659" user="NKA">
		<tag k="name" v="Tingvoll" />
		<tag k="place" v="farm" />
		<tag k="ssr:stedsnr" v="745204" />
	</node>
	<node id="9886705352" lat="67.9324973" lon="15.2368806" version="1" timestamp="2022-07-14T08:03:12Z" changeset="123595551" uid="3497659" user="NKA">
		<tag k="alt_name" v="Røtnes, øvre" />
		<tag k="name" v="Øvre Røtnes" />
		<tag k="place" v="farm" />
		<tag k="ssr:stedsnr" v="745566" />
	</node>
	<node id="9886705353" lat="67.9297994" lon="15.2632605" version="1" timestamp="2022-07-14T08:03:12Z" changeset="123595551" uid="3497659" user="NKA">
		<tag k="alt_name" v="Røtnes" />
		<tag k="name" v="Søre Røtnes" />
		<tag k="place" v="farm" />
		<tag k="ssr:stedsnr" v="701444" />
	</node>
	<node id="9886705354" lat="67.8515213" lon="15.1777952" version="1" timestamp="2022-07-14T08:03:12Z" changeset="123595551" uid="3497659" user="NKA">
		<tag k="name" v="Skjeret" />
		<tag k="place" v="farm" />
		<tag k="ssr:stedsnr" v="805799" />
	</node>
	<node id="9886705355" lat="67.9254648" lon="15.1959986" version="1" timestamp="2022-07-14T08:03:12Z" changeset="123595551" uid="3497659" user="NKA">
		<tag k="name" v="Myrhaug" />
		<tag k="place" v="locality" />
		<tag k="ssr:stedsnr" v="502161" />
	</node>
	<node id="9886705356" lat="67.938" lon="15.2176696" version="1" timestamp="2022-07-14T08:03:12Z" changeset="123595551" uid="3497659" user="NKA">
		<tag k="name" v="Nystad" />
		<tag k="place" v="farm" />
		<tag k="ssr:stedsnr" v="461576" />
	</node>
	<node id="9886705357" lat="67.8248639" lon="15.1386971" version="1" timestamp="2022-07-14T08:03:12Z" changeset="123595551" uid="3497659" user="NKA">
		<tag k="alt_name" v="Stenbakken" />
		<tag k="name" v="Steinbakken" />
		<tag k="place" v="farm" />
		<tag k="ssr:stedsnr" v="662746" />
	</node>
	<node id="9886705358" lat="67.9307945" lon="15.2076583" version="1" timestamp="2022-07-14T08:03:12Z" changeset="123595551" uid="3497659" user="NKA">
		<tag k="name" v="Solvang" />
		<tag k="place" v="farm" />
		<tag k="ssr:stedsnr" v="582587" />
	</node>
	<node id="9886705359" lat="67.97095" lon="15.2096111" version="1" timestamp="2022-07-14T08:03:12Z" changeset="123595551" uid="3497659" user="NKA">
		<tag k="name" v="Skardsvåg" />
		<tag k="place" v="isolated_dwelling" />
		<tag k="ssr:stedsnr" v="381251" />
	</node>
	<node id="9886705360" lat="67.9173591" lon="15.1855497" version="1" timestamp="2022-07-14T08:03:12Z" changeset="123595551" uid="3497659" user="NKA">
		<tag k="name" v="Haug" />
		<tag k="place" v="farm" />
		<tag k="ssr:stedsnr" v="381181" />
	</node>
	<node id="9886705361" lat="67.9199084" lon="15.123839" version="1" timestamp="2022-07-14T08:03:12Z" changeset="123595551" uid="3497659" user="NKA">
		<tag k="name" v="Myra" />
		<tag k="place" v="farm" />
		<tag k="ssr:stedsnr" v="442160" />
	</node>
	<node id="9886705362" lat="67.9356222" lon="15.2109222" version="1" timestamp="2022-07-14T08:03:12Z" changeset="123595551" uid="3497659" user="NKA">
		<tag k="name" v="Solbakken" />
		<tag k="place" v="farm" />
		<tag k="ssr:stedsnr" v="340564" />
	</node>
	<node id="9886705363" lat="67.9704167" lon="15.2546195" version="1" timestamp="2022-07-14T08:03:12Z" changeset="123595551" uid="3497659" user="NKA">
		<tag k="name" v="Grønvika" />
		<tag k="place" v="farm" />
		<tag k="ssr:stedsnr" v="259582" />
	</node>
	<node id="9886705364" lat="67.9541555" lon="15.1411417" version="1" timestamp="2022-07-14T08:03:12Z" changeset="123595551" uid="3497659" user="NKA">
		<tag k="name" v="Holmvegen" />
		<tag k="place" v="farm" />
		<tag k="ssr:stedsnr" v="381222" />
	</node>
	<node id="9886705365" lat="67.8959276" lon="15.1130526" version="1" timestamp="2022-07-14T08:03:12Z" changeset="123595551" uid="3497659" user="NKA">
		<tag k="name" v="Skjenaust" />
		<tag k="place" v="hamlet" />
		<tag k="ssr:stedsnr" v="380850" />
	</node>
	<node id="9886705366" lat="67.8636236" lon="15.2272883" version="1" timestamp="2022-07-14T08:03:12Z" changeset="123595551" uid="3497659" user="NKA">
		<tag k="name" v="Bakken" />
		<tag k="place" v="farm" />
		<tag k="ssr:stedsnr" v="95380" />
	</node>
	<node id="9886705367" lat="67.9138909" lon="15.1368399" version="1" timestamp="2022-07-14T08:03:12Z" changeset="123595551" uid="3497659" user="NKA">
		<tag k="name" v="Vik" />
		<tag k="place" v="hamlet" />
		<tag k="ssr:stedsnr" v="260201" />
	</node>
	<node id="9886705368" lat="67.9550379" lon="15.1784755" version="1" timestamp="2022-07-14T08:03:12Z" changeset="123595551" uid="3497659" user="NKA">
		<tag k="name" v="Hammar" />
		<tag k="place" v="hamlet" />
		<tag k="ssr:stedsnr" v="138220" />
	</node>
	<node id="9886705369" lat="67.9188608" lon="15.1882631" version="1" timestamp="2022-07-14T08:03:12Z" changeset="123595551" uid="3497659" user="NKA">
		<tag k="name" v="Elvegård" />
		<tag k="place" v="farm" />
		<tag k="ssr:stedsnr" v="36745" />
	</node>
	<node id="9886705370" lat="67.9366223" lon="15.2151277" version="1" timestamp="2022-07-14T08:03:12Z" changeset="123595551" uid="3497659" user="NKA">
		<tag k="name" v="Nordmo" />
		<tag k="place" v="farm" />
		<tag k="ssr:stedsnr" v="97553" />
	</node>
	<node id="9886705371" lat="67.9427796" lon="15.2259035" version="1" timestamp="2022-07-14T08:03:12Z" changeset="123595551" uid="3497659" user="NKA">
		<tag k="name" v="Hakvåg" />
		<tag k="place" v="hamlet" />
		<tag k="ssr:stedsnr" v="78571" />
	</node>
	<node id="9886705372" lat="67.92955" lon="15.259364" version="1" timestamp="2022-07-14T08:03:12Z" changeset="123595551" uid="3497659" user="NKA">
		<tag k="name" v="Knausen" />
		<tag k="place" v="farm" />
		<tag k="ssr:stedsnr" v="17583" />
	</node>
	<node id="9886705373" lat="67.9249583" lon="15.1782902" version="1" timestamp="2022-07-14T08:03:12Z" changeset="123595551" uid="3497659" user="NKA">
		<tag k="alt_name" v="Kalvedalen" />
		<tag k="name" v="Kalvdalen" />
		<tag k="place" v="locality" />
		<tag k="ssr:stedsnr" v="1076272" />
	</node>
	<node id="9886705374" lat="67.9289984" lon="15.2462216" version="1" timestamp="2022-07-14T08:03:12Z" changeset="123595551" uid="3497659" user="NKA">
		<tag k="name" v="Nymo" />
		<tag k="place" v="farm" />
		<tag k="ssr:stedsnr" v="947333" />
	</node>
	<node id="9886705375" lat="67.9133028" lon="15.174589" version="1" timestamp="2022-07-14T08:03:12Z" changeset="123595551" uid="3497659" user="NKA">
		<tag k="name" v="Hillbrannen" />
		<tag k="place" v="farm" />
		<tag k="ssr:stedsnr" v="17180" />
	</node>
	<node id="9886705376" lat="67.8284876" lon="15.1349172" version="1" timestamp="2022-07-14T08:03:12Z" changeset="123595551" uid="3497659" user="NKA">
		<tag k="name" v="Furulund" />
		<tag k="place" v="farm" />
		<tag k="ssr:stedsnr" v="1075278" />
	</node>
	<node id="9886705377" lat="67.8234123" lon="15.1275604" version="1" timestamp="2022-07-14T08:03:12Z" changeset="123595551" uid="3497659" user="NKA">
		<tag k="name" v="Myrvoll" />
		<tag k="place" v="farm" />
		<tag k="ssr:stedsnr" v="1075277" />
	</node>
	<node id="9886705378" lat="67.9458361" lon="15.2276527" version="1" timestamp="2022-07-14T08:03:12Z" changeset="123595551" uid="3497659" user="NKA">
		<tag k="alt_name" v="Stranda" />
		<tag k="name" v="Stranden" />
		<tag k="place" v="farm" />
		<tag k="ssr:stedsnr" v="866569" />
	</node>
	<node id="9886705379" lat="67.8181873" lon="15.1275367" version="1" timestamp="2022-07-14T08:03:12Z" changeset="123595551" uid="3497659" user="NKA">
		<tag k="name" v="Knedalsåsen" />
		<tag k="place" v="farm" />
		<tag k="ssr:stedsnr" v="1076269" />
	</node>
	<node id="9886705380" lat="67.8048055" lon="15.8382583" version="1" timestamp="2022-07-14T08:03:12Z" changeset="123595551" uid="3497659" user="NKA">
		<tag k="name" v="Lapplægeret" />
		<tag k="place" v="locality" />
		<tag k="ssr:stedsnr" v="199467" />
	</node>
	<node id="9886705381" lat="67.6826401" lon="15.5387501" version="1" timestamp="2022-07-14T08:03:12Z" changeset="123595551" uid="3497659" user="NKA">
		<tag k="name" v="Vinkfjorden" />
		<tag k="place" v="farm" />
		<tag k="ssr:stedsnr" v="973008" />
	</node>
	<node id="9886705382" lat="67.9303278" lon="15.2692555" version="1" timestamp="2022-07-14T08:03:12Z" changeset="123595551" uid="3497659" user="NKA">
		<tag k="alt_name" v="Mevold" />
		<tag k="name" v="Mevoll" />
		<tag k="place" v="farm" />
		<tag k="ssr:stedsnr" v="867585" />
	</node>
	<node id="9886705383" lat="67.8112861" lon="15.4634944" version="1" timestamp="2022-07-14T08:03:12Z" changeset="123595551" uid="3497659" user="NKA">
		<tag k="alt_name" v="Bjørsvika, s" />
		<tag k="name" v="Søre Bjørsvika" />
		<tag k="place" v="farm" />
		<tag k="ssr:stedsnr" v="867752" />
	</node>
	<node id="9886705384" lat="67.9012191" lon="15.0773806" version="1" timestamp="2022-07-14T08:03:12Z" changeset="123595551" uid="3497659" user="NKA">
		<tag k="name" v="Skånland" />
		<tag k="place" v="hamlet" />
		<tag k="ssr:stedsnr" v="78168" />
	</node>
	<node id="9886705385" lat="67.971425" lon="15.1147251" version="1" timestamp="2022-07-14T08:03:12Z" changeset="123595551" uid="3497659" user="NKA">
		<tag k="name" v="Fagerheim" />
		<tag k="place" v="farm" />
		<tag k="ssr:stedsnr" v="946711" />
	</node>
	<node id="9886705386" lat="67.9350534" lon="14.9526854" version="1" timestamp="2022-07-14T08:03:12Z" changeset="123595551" uid="3497659" user="NKA">
		<tag k="name" v="Burøya" />
		<tag k="place" v="farm" />
		<tag k="ssr:stedsnr" v="1076277" />
	</node>
	<node id="9886705387" lat="67.8537508" lon="14.9798391" version="1" timestamp="2022-07-14T08:03:12Z" changeset="123595551" uid="3497659" user="NKA">
		<tag k="name" v="Kvanndalsstranda" />
		<tag k="place" v="locality" />
		<tag k="ssr:stedsnr" v="1076250" />
	</node>
	<node id="9886705388" lat="67.8842438" lon="15.0964291" version="1" timestamp="2022-07-14T08:03:12Z" changeset="123595551" uid="3497659" user="NKA">
		<tag k="alt_name" v="Skotsfjordmarka;Skyttmark" />
		<tag k="name" v="Skyttmarka" />
		<tag k="place" v="farm" />
		<tag k="ssr:stedsnr" v="17872" />
	</node>
	<node id="9886705389" lat="67.7666238" lon="15.040207" version="1" timestamp="2022-07-14T08:03:12Z" changeset="123595551" uid="3497659" user="NKA">
		<tag k="alt_name" v="Litlosen" />
		<tag k="name" v="Lilleosen" />
		<tag k="place" v="farm" />
		<tag k="ssr:stedsnr" v="199922" />
	</node>
	<node id="9886705390" lat="67.9652029" lon="15.0217178" version="1" timestamp="2022-07-14T08:03:12Z" changeset="123595551" uid="3497659" user="NKA">
		<tag k="name" v="Klokkargarden" />
		<tag k="place" v="farm" />
		<tag k="ssr:stedsnr" v="867244" />
	</node>
	<node id="9886705391" lat="67.9110664" lon="14.876745" version="1" timestamp="2022-07-14T08:03:12Z" changeset="123595551" uid="3497659" user="NKA">
		<tag k="name" v="Lauvøya" />
		<tag k="place" v="farm" />
		<tag k="ssr:stedsnr" v="1076279" />
	</node>
	<node id="9886705392" lat="67.9149546" lon="14.9370473" version="1" timestamp="2022-07-14T08:03:12Z" changeset="123595551" uid="3497659" user="NKA">
		<tag k="alt_name" v="Røsøy" />
		<tag k="name" v="Røssøya" />
		<tag k="place" v="farm" />
		<tag k="ssr:stedsnr" v="1076278" />
	</node>
	<node id="9886705393" lat="67.9157328" lon="14.8878682" version="1" timestamp="2022-07-14T08:03:12Z" changeset="123595551" uid="3497659" user="NKA">
		<tag k="name" v="Lauvøya" />
		<tag k="place" v="farm" />
		<tag k="ssr:stedsnr" v="640179" />
	</node>
	<node id="9886705394" lat="67.8654309" lon="15.113131" version="1" timestamp="2022-07-14T08:03:12Z" changeset="123595551" uid="3497659" user="NKA">
		<tag k="name" v="Liland" />
		<tag k="place" v="farm" />
		<tag k="ssr:stedsnr" v="199189" />
	</node>
	<node id="9886705395" lat="67.759925" lon="15.0250834" version="1" timestamp="2022-07-14T08:03:12Z" changeset="123595551" uid="3497659" user="NKA">
		<tag k="name" v="Laukvika" />
		<tag k="place" v="farm" />
		<tag k="ssr:stedsnr" v="866933" />
	</node>
	<node id="9886705396" lat="67.8711056" lon="15.0216943" version="1" timestamp="2022-07-14T08:03:12Z" changeset="123595551" uid="3497659" user="NKA">
		<tag k="name" v="Sollia" />
		<tag k="place" v="farm" />
		<tag k="ssr:stedsnr" v="866836" />
	</node>
	<node id="9886705397" lat="67.8035416" lon="14.7925" version="1" timestamp="2022-07-14T08:03:12Z" changeset="123595551" uid="3497659" user="NKA">
		<tag k="alt_name" v="Halsøy" />
		<tag k="name" v="Halsøya" />
		<tag k="place" v="hamlet" />
		<tag k="ssr:stedsnr" v="198988" />
	</node>
	<node id="9886705398" lat="67.9642389" lon="15.0478389" version="1" timestamp="2022-07-14T08:03:12Z" changeset="123595551" uid="3497659" user="NKA">
		<tag k="name" v="Bøsanden" />
		<tag k="place" v="farm" />
		<tag k="ssr:stedsnr" v="703533" />
	</node>
	<node id="9886705399" lat="67.8010333" lon="15.0753277" version="1" timestamp="2022-07-14T08:03:12Z" changeset="123595551" uid="3497659" user="NKA">
		<tag k="alt_name" v="Furumoen" />
		<tag k="name" v="Furumo" />
		<tag k="place" v="farm" />
		<tag k="ssr:stedsnr" v="198994" />
	</node>
	<node id="9886705400" lat="67.8096278" lon="14.8452833" version="1" timestamp="2022-07-14T08:03:12Z" changeset="123595551" uid="3497659" user="NKA">
		<tag k="alt_name" v="Lund" />
		<tag k="name" v="Lund indre" />
		<tag k="place" v="farm" />
		<tag k="ssr:stedsnr" v="562975" />
	</node>
	<node id="9886705401" lat="67.8629431" lon="14.9244548" version="1" timestamp="2022-07-14T08:03:12Z" changeset="123595551" uid="3497659" user="NKA">
		<tag k="alt_name" v="Skotsfjord, yt" />
		<tag k="name" v="Ytre Skotsfjord" />
		<tag k="place" v="hamlet" />
		<tag k="ssr:stedsnr" v="562833" />
	</node>
	<node id="9886705402" lat="67.7497111" lon="14.9684056" version="1" timestamp="2022-07-14T08:03:12Z" changeset="123595551" uid="3497659" user="NKA">
		<tag k="name" v="Solheim" />
		<tag k="place" v="farm" />
		<tag k="ssr:stedsnr" v="642869" />
	</node>
	<node id="9886705403" lat="67.8379333" lon="14.9005388" version="1" timestamp="2022-07-14T08:03:12Z" changeset="123595551" uid="3497659" user="NKA">
		<tag k="name" v="Ersvika" />
		<tag k="place" v="locality" />
		<tag k="ssr:stedsnr" v="641428" />
	</node>
	<node id="9886705404" lat="67.8393426" lon="14.8097158" version="1" timestamp="2022-07-14T08:03:12Z" changeset="123595551" uid="3497659" user="NKA">
		<tag k="name" v="Nordskot" />
		<tag k="place" v="hamlet" />
		<tag k="ssr:stedsnr" v="147608" />
	</node>
	<node id="9886705405" lat="67.8980778" lon="15.0803084" version="1" timestamp="2022-07-14T08:03:12Z" changeset="123595551" uid="3497659" user="NKA">
		<tag k="name" v="Elvdalen" />
		<tag k="place" v="farm" />
		<tag k="ssr:stedsnr" v="138858" />
	</node>
	<node id="9886705406" lat="67.9537222" lon="15.0255666" version="1" timestamp="2022-07-14T08:03:12Z" changeset="123595551" uid="3497659" user="NKA">
		<tag k="name" v="Fjellmo" />
		<tag k="place" v="farm" />
		<tag k="ssr:stedsnr" v="157502" />
	</node>
	<node id="9886705407" lat="67.9595695" lon="15.0194612" version="1" timestamp="2022-07-14T08:03:12Z" changeset="123595551" uid="3497659" user="NKA">
		<tag k="name" v="Lyngmoen" />
		<tag k="place" v="farm" />
		<tag k="ssr:stedsnr" v="78205" />
	</node>
	<node id="9886705408" lat="67.6861538" lon="15.3234798" version="1" timestamp="2022-07-14T08:03:12Z" changeset="123595551" uid="3497659" user="NKA">
		<tag k="name" v="Solvoll" />
		<tag k="place" v="farm" />
		<tag k="ssr:stedsnr" v="723712" />
	</node>
	<node id="9886705409" lat="67.6852695" lon="15.2516279" version="1" timestamp="2022-07-14T08:03:12Z" changeset="123595551" uid="3497659" user="NKA">
		<tag k="alt_name" v="Slåttvika" />
		<tag k="name" v="Slåttvik" />
		<tag k="place" v="hamlet" />
		<tag k="ssr:stedsnr" v="441840" />
	</node>
	<node id="9886705410" lat="67.6952385" lon="15.4700904" version="1" timestamp="2022-07-14T08:03:12Z" changeset="123595551" uid="3497659" user="NKA">
		<tag k="name" v="Lassvika" />
		<tag k="place" v="farm" />
		<tag k="ssr:stedsnr" v="502823" />
	</node>
	<node id="9886705411" lat="67.7108556" lon="15.1112333" version="1" timestamp="2022-07-14T08:03:12Z" changeset="123595551" uid="3497659" user="NKA">
		<tag k="name" v="Osen" />
		<tag k="place" v="farm" />
		<tag k="ssr:stedsnr" v="867274" />
	</node>
	<node id="9886705412" lat="67.8213248" lon="15.4221552" version="1" timestamp="2022-07-14T08:03:12Z" changeset="123595551" uid="3497659" user="NKA">
		<tag k="name" v="Nøtnes" />
		<tag k="place" v="hamlet" />
		<tag k="ssr:stedsnr" v="806745" />
	</node>
	<node id="9886705413" lat="67.7567114" lon="15.4365525" version="1" timestamp="2022-07-14T08:03:12Z" changeset="123595551" uid="3497659" user="NKA">
		<tag k="name" v="Stavnes" />
		<tag k="place" v="farm" />
		<tag k="ssr:stedsnr" v="502693" />
	</node>
	<node id="9886705414" lat="67.6893873" lon="15.2884745" version="1" timestamp="2022-07-14T08:03:12Z" changeset="123595551" uid="3497659" user="NKA">
		<tag k="name" v="Myrvoll" />
		<tag k="place" v="farm" />
		<tag k="ssr:stedsnr" v="723709" />
	</node>
	<node id="9886705415" lat="67.7286056" lon="15.2933999" version="1" timestamp="2022-07-14T08:03:12Z" changeset="123595551" uid="3497659" user="NKA">
		<tag k="name" v="Bergmo" />
		<tag k="place" v="isolated_dwelling" />
		<tag k="ssr:stedsnr" v="298384" />
	</node>
	<node id="9886705416" lat="68.0011228" lon="15.1037859" version="1" timestamp="2022-07-14T08:03:12Z" changeset="123595551" uid="3497659" user="NKA">
		<tag k="name" v="Brunes" />
		<tag k="place" v="farm" />
		<tag k="ssr:stedsnr" v="972301" />
	</node>
	<node id="9886705417" lat="67.8672666" lon="14.9756918" version="1" timestamp="2022-07-14T08:03:12Z" changeset="123595551" uid="3497659" user="NKA">
		<tag k="name" v="Laukbakken" />
		<tag k="place" v="farm" />
		<tag k="ssr:stedsnr" v="927795" />
	</node>
	<node id="9886705418" lat="67.6965415" lon="15.4545466" version="1" timestamp="2022-07-14T08:03:12Z" changeset="123595551" uid="3497659" user="NKA">
		<tag k="name" v="Daljord" />
		<tag k="place" v="farm" />
		<tag k="ssr:stedsnr" v="359384" />
	</node>
	<node id="9886705419" lat="67.9327333" lon="15.2742388" version="1" timestamp="2022-07-14T08:03:12Z" changeset="123595551" uid="3497659" user="NKA">
		<tag k="name" v="Nygård" />
		<tag k="place" v="farm" />
		<tag k="ssr:stedsnr" v="684562" />
	</node>
	<node id="9886705420" lat="67.9230522" lon="15.0167089" version="1" timestamp="2022-07-14T08:03:12Z" changeset="123595551" uid="3497659" user="NKA">
		<tag k="name" v="Breidablikk" />
		<tag k="place" v="farm" />
		<tag k="ssr:stedsnr" v="684131" />
	</node>
	<node id="9886705421" lat="67.8628384" lon="14.8566768" version="1" timestamp="2022-07-14T08:03:12Z" changeset="123595551" uid="3497659" user="NKA">
		<tag k="name" v="Kvalnes" />
		<tag k="place" v="farm" />
		<tag k="ssr:stedsnr" v="927843" />
	</node>
	<node id="9886705422" lat="67.8546278" lon="15.2192528" version="1" timestamp="2022-07-14T08:03:12Z" changeset="123595551" uid="3497659" user="NKA">
		<tag k="name" v="Solbakken" />
		<tag k="place" v="farm" />
		<tag k="ssr:stedsnr" v="806493" />
	</node>
	<node id="9886705423" lat="67.8808314" lon="15.2319582" version="1" timestamp="2022-07-14T08:03:12Z" changeset="123595551" uid="3497659" user="NKA">
		<tag k="alt_name" v="Myra" />
		<tag k="name" v="Myre" />
		<tag k="place" v="farm" />
		<tag k="ssr:stedsnr" v="138516" />
	</node>
	<node id="9886705424" lat="67.9373" lon="14.9789112" version="1" timestamp="2022-07-14T08:03:12Z" changeset="123595551" uid="3497659" user="NKA">
		<tag k="name" v="Vollbakkan" />
		<tag k="place" v="farm" />
		<tag k="ssr:stedsnr" v="97533" />
	</node>
	<node id="9886705425" lat="67.8719972" lon="15.2471944" version="1" timestamp="2022-07-14T08:03:12Z" changeset="123595551" uid="3497659" user="NKA">
		<tag k="alt_name" v="Nyvold" />
		<tag k="name" v="Nyvoll" />
		<tag k="place" v="farm" />
		<tag k="ssr:stedsnr" v="502501" />
	</node>
	<node id="9886705426" lat="67.8801361" lon="14.8861277" version="1" timestamp="2022-07-14T08:03:12Z" changeset="123595551" uid="3497659" user="NKA">
		<tag k="name" v="Vikran" />
		<tag k="place" v="farm" />
		<tag k="ssr:stedsnr" v="442851" />
	</node>
	<node id="9886705427" lat="67.7727407" lon="15.0374082" version="1" timestamp="2022-07-14T08:03:12Z" changeset="123595551" uid="3497659" user="NKA">
		<tag k="name" v="Pinstranda" />
		<tag k="place" v="hamlet" />
		<tag k="ssr:stedsnr" v="947943" />
	</node>
	<node id="9886705428" lat="67.8899034" lon="15.1949183" version="1" timestamp="2022-07-14T08:03:12Z" changeset="123595551" uid="3497659" user="NKA">
		<tag k="alt_name" v="Leirvik" />
		<tag k="name" v="Leirvika" />
		<tag k="place" v="hamlet" />
		<tag k="ssr:stedsnr" v="259838" />
	</node>
	<node id="9886705429" lat="67.9644482" lon="15.1247512" version="1" timestamp="2022-07-14T08:03:12Z" changeset="123595551" uid="3497659" user="NKA">
		<tag k="name" v="Skagstad" />
		<tag k="place" v="hamlet" />
		<tag k="ssr:stedsnr" v="78242" />
	</node>
	<node id="9886705430" lat="67.6989517" lon="15.0755051" version="1" timestamp="2022-07-14T08:03:12Z" changeset="123595551" uid="3497659" user="NKA">
		<tag k="alt_name" v="Ytter-Seglstein" />
		<tag k="name" v="Ytter-Seglstein" />
		<tag k="place" v="farm" />
		<tag k="ssr:stedsnr" v="927243" />
	</node>
	<node id="9886705431" lat="67.6849988" lon="15.2496076" version="1" timestamp="2022-07-14T08:03:12Z" changeset="123595551" uid="3497659" user="NKA">
		<tag k="name" v="Engen" />
		<tag k="place" v="farm" />
		<tag k="ssr:stedsnr" v="601688" />
	</node>
	<node id="9886705432" lat="67.9321278" lon="15.2687333" version="1" timestamp="2022-07-14T08:03:12Z" changeset="123595551" uid="3497659" user="NKA">
		<tag k="name" v="Bakkehaug" />
		<tag k="place" v="farm" />
		<tag k="ssr:stedsnr" v="78560" />
	</node>
	<node id="9886705433" lat="67.7648387" lon="15.0406264" version="1" timestamp="2022-07-14T08:03:12Z" changeset="123595551" uid="3497659" user="NKA">
		<tag k="name" v="Sommarnes" />
		<tag k="place" v="hamlet" />
		<tag k="ssr:stedsnr" v="972824" />
	</node>
	<node id="9886705434" lat="67.7441582" lon="15.0109891" version="1" timestamp="2022-07-14T08:03:12Z" changeset="123595551" uid="3497659" user="NKA">
		<tag k="name" v="Skogmo" />
		<tag k="place" v="farm" />
		<tag k="ssr:stedsnr" v="116612" />
	</node>
	<node id="9886705435" lat="67.7709487" lon="15.1593716" version="1" timestamp="2022-07-14T08:03:12Z" changeset="123595551" uid="3497659" user="NKA">
		<tag k="name" v="Åsen" />
		<tag k="place" v="farm" />
		<tag k="ssr:stedsnr" v="116734" />
	</node>
	<node id="9886705436" lat="67.7216972" lon="15.2886555" version="1" timestamp="2022-07-14T08:03:12Z" changeset="123595551" uid="3497659" user="NKA">
		<tag k="name" v="Osbakkan" />
		<tag k="place" v="farm" />
		<tag k="ssr:stedsnr" v="501830" />
	</node>
	<node id="9886705437" lat="67.9155472" lon="15.0350834" version="1" timestamp="2022-07-14T08:03:12Z" changeset="123595551" uid="3497659" user="NKA">
		<tag k="name" v="Nygård" />
		<tag k="place" v="locality" />
		<tag k="ssr:stedsnr" v="684185" />
	</node>
	<node id="9886705438" lat="67.9220521" lon="15.1105333" version="1" timestamp="2022-07-14T08:03:12Z" changeset="123595551" uid="3497659" user="NKA">
		<tag k="name" v="Myklebostad" />
		<tag k="place" v="hamlet" />
		<tag k="ssr:stedsnr" v="684136" />
	</node>
	<node id="9886705439" lat="67.9312041" lon="14.9846207" version="1" timestamp="2022-07-14T08:03:12Z" changeset="123595551" uid="3497659" user="NKA">
		<tag k="name" v="Korsaksla" />
		<tag k="place" v="hamlet" />
		<tag k="ssr:stedsnr" v="806141" />
	</node>
	<node id="9886705440" lat="67.9399608" lon="14.9744866" version="1" timestamp="2022-07-14T08:03:12Z" changeset="123595551" uid="3497659" user="NKA">
		<tag k="name" v="Vollen" />
		<tag k="place" v="farm" />
		<tag k="ssr:stedsnr" v="138248" />
	</node>
	<node id="9886705441" lat="67.7052505" lon="15.3989232" version="1" timestamp="2022-07-14T08:03:12Z" changeset="123595551" uid="3497659" user="NKA">
		<tag k="name" v="Ytre Heldal" />
		<tag k="place" v="farm" />
		<tag k="ssr:stedsnr" v="662294" />
	</node>
	<node id="9886705442" lat="67.8693837" lon="15.1820886" version="1" timestamp="2022-07-14T08:03:12Z" changeset="123595551" uid="3497659" user="NKA">
		<tag k="name" v="Fure" />
		<tag k="place" v="hamlet" />
		<tag k="ssr:stedsnr" v="320842" />
	</node>
	<node id="9886705443" lat="67.9642778" lon="15.0556944" version="1" timestamp="2022-07-14T08:03:12Z" changeset="123595551" uid="3497659" user="NKA">
		<tag k="name" v="Sanden" />
		<tag k="place" v="farm" />
		<tag k="ssr:stedsnr" v="78238" />
	</node>
	<node id="9886705444" lat="67.7360303" lon="14.8681697" version="1" timestamp="2022-07-14T08:03:12Z" changeset="123595551" uid="3497659" user="NKA">
		<tag k="name" v="Skjelstad" />
		<tag k="place" v="hamlet" />
		<tag k="ssr:stedsnr" v="927191" />
	</node>
	<node id="9886705445" lat="67.7499028" lon="14.991386" version="1" timestamp="2022-07-14T08:03:12Z" changeset="123595551" uid="3497659" user="NKA">
		<tag k="name" v="Øvre" />
		<tag k="place" v="farm" />
		<tag k="ssr:stedsnr" v="927186" />
	</node>
	<node id="9886705446" lat="67.9249139" lon="15.2776111" version="1" timestamp="2022-07-14T08:03:12Z" changeset="123595551" uid="3497659" user="NKA">
		<tag k="alt_name" v="Gongstå" />
		<tag k="name" v="Gangstø" />
		<tag k="place" v="farm" />
		<tag k="ssr:stedsnr" v="502553" />
	</node>
	<node id="9886705447" lat="67.6892056" lon="15.2859222" version="1" timestamp="2022-07-14T08:03:12Z" changeset="123595551" uid="3497659" user="NKA">
		<tag k="alt_name" v="Forneset" />
		<tag k="name" v="Furuneset" />
		<tag k="place" v="farm" />
		<tag k="ssr:stedsnr" v="441843" />
	</node>
	<node id="9886705448" lat="67.7430331" lon="14.9203014" version="1" timestamp="2022-07-14T08:03:12Z" changeset="123595551" uid="3497659" user="NKA">
		<tag k="name" v="Fløstrand" />
		<tag k="place" v="farm" />
		<tag k="ssr:stedsnr" v="502164" />
	</node>
	<node id="9886705449" lat="67.7633646" lon="15.1355546" version="1" timestamp="2022-07-14T08:03:12Z" changeset="123595551" uid="3497659" user="NKA">
		<tag k="name" v="Skogly" />
		<tag k="place" v="farm" />
		<tag k="ssr:stedsnr" v="480741" />
	</node>
	<node id="9886705450" lat="67.7412333" lon="14.9180305" version="1" timestamp="2022-07-14T08:03:12Z" changeset="123595551" uid="3497659" user="NKA">
		<tag k="alt_name" v="Engen" />
		<tag k="name" v="Storenget" />
		<tag k="place" v="farm" />
		<tag k="ssr:stedsnr" v="927194" />
	</node>
	<node id="9886705451" lat="67.6750972" lon="14.96995" version="1" timestamp="2022-07-14T08:03:12Z" changeset="123595551" uid="3497659" user="NKA">
		<tag k="name" v="Kroksvoll" />
		<tag k="place" v="farm" />
		<tag k="ssr:stedsnr" v="806817" />
	</node>
	<node id="9886705452" lat="67.6669393" lon="14.946116" version="1" timestamp="2022-07-14T08:03:12Z" changeset="123595551" uid="3497659" user="NKA">
		<tag k="name" v="Nyheim" />
		<tag k="place" v="farm" />
		<tag k="ssr:stedsnr" v="424425" />
	</node>
	<node id="9886705453" lat="67.6846056" lon="15.0236901" version="1" timestamp="2022-07-14T08:03:12Z" changeset="123595551" uid="3497659" user="NKA">
		<tag k="name" v="Stamsvika" />
		<tag k="place" v="hamlet" />
		<tag k="ssr:stedsnr" v="320801" />
	</node>
	<node id="9886705454" lat="67.9529306" lon="15.14975" version="1" timestamp="2022-07-14T08:03:12Z" changeset="123595551" uid="3497659" user="NKA">
		<tag k="name" v="Solvik" />
		<tag k="place" v="farm" />
		<tag k="ssr:stedsnr" v="461246" />
	</node>
	<node id="9886705455" lat="67.7954222" lon="14.9824305" version="1" timestamp="2022-07-14T08:03:12Z" changeset="123595551" uid="3497659" user="NKA">
		<tag k="name" v="Alvely" />
		<tag k="place" v="farm" />
		<tag k="ssr:stedsnr" v="440998" />
	</node>
	<node id="9886705456" lat="67.9620556" lon="15.0209881" version="1" timestamp="2022-07-14T08:03:12Z" changeset="123595551" uid="3497659" user="NKA">
		<tag k="name" v="Sandan" />
		<tag k="place" v="farm" />
		<tag k="ssr:stedsnr" v="260233" />
	</node>
	<node id="9886705457" lat="67.7929213" lon="14.9852345" version="1" timestamp="2022-07-14T08:03:12Z" changeset="123595551" uid="3497659" user="NKA">
		<tag k="alt_name" v="Saure" />
		<tag k="name" v="Saur" />
		<tag k="place" v="hamlet" />
		<tag k="ssr:stedsnr" v="258945" />
	</node>
	<node id="9886705458" lat="67.6976167" lon="15.0657444" version="1" timestamp="2022-07-14T08:03:12Z" changeset="123595551" uid="3497659" user="NKA">
		<tag k="name" v="Ramstad" />
		<tag k="place" v="farm" />
		<tag k="ssr:stedsnr" v="320243" />
	</node>
	<node id="9886705459" lat="67.7800444" lon="14.8507171" version="1" timestamp="2022-07-14T08:03:12Z" changeset="123595551" uid="3497659" user="NKA">
		<tag k="alt_name" v="Alpøy" />
		<tag k="name" v="Alpøya" />
		<tag k="place" v="hamlet" />
		<tag k="ssr:stedsnr" v="319961" />
	</node>
	<node id="9886705460" lat="67.8149223" lon="15.4553111" version="1" timestamp="2022-07-14T08:03:12Z" changeset="123595551" uid="3497659" user="NKA">
		<tag k="alt_name" v="Bjørsvika;Bjørsvika, nordre" />
		<tag k="name" v="Nordre Bjørsvika" />
		<tag k="place" v="farm" />
		<tag k="ssr:stedsnr" v="927724" />
	</node>
	<node id="9886705461" lat="67.8013526" lon="15.3566426" version="1" timestamp="2022-07-14T08:03:12Z" changeset="123595551" uid="3497659" user="NKA">
		<tag k="name" v="Alvnes" />
		<tag k="place" v="hamlet" />
		<tag k="ssr:stedsnr" v="684706" />
	</node>
	<node id="9886705462" lat="67.7200917" lon="14.8181251" version="1" timestamp="2022-07-14T08:03:12Z" changeset="123595551" uid="3497659" user="NKA">
		<tag k="name" v="Selvik" />
		<tag k="place" v="farm" />
		<tag k="ssr:stedsnr" v="157065" />
	</node>
	<node id="9886705463" lat="67.9173435" lon="15.4030433" version="1" timestamp="2022-07-14T08:03:12Z" changeset="123595551" uid="3497659" user="NKA">
		<tag k="name" v="Fredly" />
		<tag k="place" v="farm" />
		<tag k="ssr:stedsnr" v="905489" />
	</node>
	<node id="9886705464" lat="67.7296889" lon="14.787975" version="1" timestamp="2022-07-14T08:03:12Z" changeset="123595551" uid="3497659" user="NKA">
		<tag k="name" v="Åkervik" />
		<tag k="place" v="neighbourhood" />
		<tag k="ssr:stedsnr" v="764755" />
	</node>
	<node id="9886705465" lat="67.8013747" lon="15.3658055" version="1" timestamp="2022-07-14T08:03:12Z" changeset="123595551" uid="3497659" user="NKA">
		<tag k="name" v="Indregården" />
		<tag k="place" v="farm" />
		<tag k="ssr:stedsnr" v="137677" />
	</node>
	<node id="9886705466" lat="67.8088611" lon="14.8480889" version="1" timestamp="2022-07-14T08:03:12Z" changeset="123595551" uid="3497659" user="NKA">
		<tag k="alt_name" v="Gjeldsenga" />
		<tag k="name" v="Gjelsenga" />
		<tag k="place" v="farm" />
		<tag k="ssr:stedsnr" v="805982" />
	</node>
	<node id="9886705467" lat="67.8994195" lon="15.1032473" version="1" timestamp="2022-07-14T08:03:12Z" changeset="123595551" uid="3497659" user="NKA">
		<tag k="name" v="Hamn" />
		<tag k="place" v="farm" />
		<tag k="ssr:stedsnr" v="764736" />
	</node>
	<node id="9886705468" lat="67.6830555" lon="14.7670612" version="1" timestamp="2022-07-14T08:03:12Z" changeset="123595551" uid="3497659" user="NKA">
		<tag k="name" v="Låtavik" />
		<tag k="place" v="locality" />
		<tag k="ssr:stedsnr" v="761518" />
	</node>
	<node id="9886705469" lat="67.7433103" lon="15.0295867" version="1" timestamp="2022-07-14T08:03:12Z" changeset="123595551" uid="3497659" user="NKA">
		<tag k="name" v="Furumo" />
		<tag k="place" v="farm" />
		<tag k="ssr:stedsnr" v="905619" />
	</node>
	<node id="9886705470" lat="67.74462" lon="15.0158697" version="1" timestamp="2022-07-14T08:03:12Z" changeset="123595551" uid="3497659" user="NKA">
		<tag k="name" v="Daleng" />
		<tag k="place" v="isolated_dwelling" />
		<tag k="ssr:stedsnr" v="56623" />
	</node>
	<node id="9886705471" lat="67.7647472" lon="15.2420138" version="1" timestamp="2022-07-14T08:03:12Z" changeset="123595551" uid="3497659" user="NKA">
		<tag k="name" v="Holmen" />
		<tag k="place" v="farm" />
		<tag k="ssr:stedsnr" v="158787" />
	</node>
	<node id="9886705472" lat="67.7969928" lon="15.3053449" version="1" timestamp="2022-07-14T08:03:12Z" changeset="123595551" uid="3497659" user="NKA">
		<tag k="name" v="Vebakken" />
		<tag k="place" v="farm" />
		<tag k="ssr:stedsnr" v="744696" />
	</node>
	<node id="9886705473" lat="67.7237694" lon="14.8083112" version="1" timestamp="2022-07-14T08:03:12Z" changeset="123595551" uid="3497659" user="NKA">
		<tag k="alt_name" v="Grindvik" />
		<tag k="name" v="Hammarvollen" />
		<tag k="place" v="farm" />
		<tag k="ssr:stedsnr" v="502193" />
	</node>
	<node id="9886705474" lat="67.7038939" lon="15.0944365" version="1" timestamp="2022-07-14T08:03:12Z" changeset="123595551" uid="3497659" user="NKA">
		<tag k="name" v="Inner-Seglstein" />
		<tag k="place" v="farm" />
		<tag k="ssr:stedsnr" v="983231" />
	</node>
	<node id="9886705475" lat="67.6798861" lon="14.989575" version="1" timestamp="2022-07-14T08:03:12Z" changeset="123595551" uid="3497659" user="NKA">
		<tag k="name" v="Sveen" />
		<tag k="place" v="farm" />
		<tag k="ssr:stedsnr" v="684799" />
	</node>
	<node id="9886705476" lat="67.7310639" lon="14.7824527" version="1" timestamp="2022-07-14T08:03:12Z" changeset="123595551" uid="3497659" user="NKA">
		<tag k="alt_name" v="Bjørsvika" />
		<tag k="name" v="Bjørkvik" />
		<tag k="place" v="farm" />
		<tag k="ssr:stedsnr" v="77162" />
	</node>
	<node id="9886705477" lat="67.7286783" lon="15.1812097" version="1" timestamp="2022-07-14T08:03:12Z" changeset="123595551" uid="3497659" user="NKA">
		<tag k="name" v="Lundmo" />
		<tag k="place" v="farm" />
		<tag k="ssr:stedsnr" v="528277" />
	</node>
	<node id="9886705478" lat="67.7273055" lon="15.2924862" version="1" timestamp="2022-07-14T08:03:12Z" changeset="123595551" uid="3497659" user="NKA">
		<tag k="name" v="Eian" />
		<tag k="place" v="isolated_dwelling" />
		<tag k="ssr:stedsnr" v="480425" />
	</node>
	<node id="9886705479" lat="67.9301482" lon="14.9958517" version="1" timestamp="2022-07-14T08:03:12Z" changeset="123595551" uid="3497659" user="NKA">
		<tag k="name" v="Vinjen" />
		<tag k="place" v="hamlet" />
		<tag k="ssr:stedsnr" v="320151" />
	</node>
	<node id="9886705480" lat="67.6457472" lon="15.0796278" version="1" timestamp="2022-07-14T08:03:12Z" changeset="123595551" uid="3497659" user="NKA">
		<tag k="alt_name" v="Søre Hjartøya" />
		<tag k="name" v="Innergården" />
		<tag k="place" v="farm" />
		<tag k="ssr:stedsnr" v="562762" />
	</node>
	<node id="9886705481" lat="67.7284333" lon="15.1634721" version="1" timestamp="2022-07-14T08:03:12Z" changeset="123595551" uid="3497659" user="NKA">
		<tag k="name" v="Lyngeng" />
		<tag k="place" v="farm" />
		<tag k="ssr:stedsnr" v="442237" />
	</node>
	<node id="9886705482" lat="67.7373549" lon="14.8521284" version="1" timestamp="2022-07-14T08:03:12Z" changeset="123595551" uid="3497659" user="NKA">
		<tag k="name" v="Grubstad" />
		<tag k="place" v="hamlet" />
		<tag k="ssr:stedsnr" v="259176" />
	</node>
	<node id="9886705483" lat="67.7907862" lon="14.8916569" version="1" timestamp="2022-07-14T08:03:12Z" changeset="123595551" uid="3497659" user="NKA">
		<tag k="name" v="Sund" />
		<tag k="place" v="hamlet" />
		<tag k="ssr:stedsnr" v="440945" />
	</node>
	<node id="9886705484" lat="67.9330722" lon="15.2455777" version="1" timestamp="2022-07-14T08:03:12Z" changeset="123595551" uid="3497659" user="NKA">
		<tag k="alt_name" v="Sjøhaug" />
		<tag k="name" v="Røtnes" />
		<tag k="place" v="hamlet" />
		<tag k="ssr:stedsnr" v="320562" />
	</node>
	<node id="9886705485" lat="67.703223" lon="15.086672" version="1" timestamp="2022-07-14T08:03:12Z" changeset="123595551" uid="3497659" user="NKA">
		<tag k="name" v="Seglstein" />
		<tag k="place" v="hamlet" />
		<tag k="ssr:stedsnr" v="972829" />
	</node>
	<node id="9886705486" lat="67.761925" lon="15.0354297" version="1" timestamp="2022-07-14T08:03:12Z" changeset="123595551" uid="3497659" user="NKA">
		<tag k="name" v="Sommarosen" />
		<tag k="place" v="farm" />
		<tag k="ssr:stedsnr" v="927946" />
	</node>
	<node id="9886705487" lat="67.9753481" lon="15.1013349" version="1" timestamp="2022-07-14T08:03:12Z" changeset="123595551" uid="3497659" user="NKA">
		<tag k="name" v="Mjelde" />
		<tag k="place" v="hamlet" />
		<tag k="ssr:stedsnr" v="260055" />
	</node>
	<node id="9886705488" lat="67.7980581" lon="14.8105972" version="1" timestamp="2022-07-14T08:03:12Z" changeset="123595551" uid="3497659" user="NKA">
		<tag k="name" v="Båtberget" />
		<tag k="place" v="hamlet" />
		<tag k="ssr:stedsnr" v="259986" />
	</node>
	<node id="9886705489" lat="67.6643397" lon="14.9348644" version="1" timestamp="2022-07-14T08:03:12Z" changeset="123595551" uid="3497659" user="NKA">
		<tag k="alt_name" v="Laukvik" />
		<tag k="name" v="Laukvika" />
		<tag k="place" v="hamlet" />
		<tag k="ssr:stedsnr" v="441825" />
	</node>
	<node id="9886705490" lat="67.961975" lon="15.0280832" version="1" timestamp="2022-07-14T08:03:12Z" changeset="123595551" uid="3497659" user="NKA">
		<tag k="name" v="Bjønnhågen" />
		<tag k="place" v="farm" />
		<tag k="ssr:stedsnr" v="946454" />
	</node>
	<node id="9886705491" lat="67.8996944" lon="15.1944946" version="1" timestamp="2022-07-14T08:03:12Z" changeset="123595551" uid="3497659" user="NKA">
		<tag k="name" v="Nordmarka" />
		<tag k="place" v="farm" />
		<tag k="ssr:stedsnr" v="461878" />
	</node>
	<node id="9886705492" lat="67.8660482" lon="14.8676079" version="1" timestamp="2022-07-14T08:03:12Z" changeset="123595551" uid="3497659" user="NKA">
		<tag k="name" v="Moen" />
		<tag k="place" v="farm" />
		<tag k="ssr:stedsnr" v="298543" />
	</node>
	<node id="9886705493" lat="67.764692" lon="15.02835" version="1" timestamp="2022-07-14T08:03:12Z" changeset="123595551" uid="3497659" user="NKA">
		<tag k="name" v="Myrhaug" />
		<tag k="place" v="farm" />
		<tag k="ssr:stedsnr" v="36895" />
	</node>
	<node id="9886705494" lat="67.7241862" lon="15.1527584" version="1" timestamp="2022-07-14T08:03:12Z" changeset="123595551" uid="3497659" user="NKA">
		<tag k="alt_name" v="Granhei" />
		<tag k="name" v="Granheim" />
		<tag k="place" v="farm" />
		<tag k="ssr:stedsnr" v="381217" />
	</node>
	<node id="9886705495" lat="67.8939528" lon="15.1224889" version="1" timestamp="2022-07-14T08:03:12Z" changeset="123595551" uid="3497659" user="NKA">
		<tag k="name" v="Plassen" />
		<tag k="place" v="farm" />
		<tag k="ssr:stedsnr" v="339925" />
	</node>
	<node id="9886705496" lat="67.9671658" lon="15.0220402" version="1" timestamp="2022-07-14T08:03:12Z" changeset="123595551" uid="3497659" user="NKA">
		<tag k="name" v="Vollen" />
		<tag k="place" v="farm" />
		<tag k="ssr:stedsnr" v="36445" />
	</node>
	<node id="9886705497" lat="67.6841126" lon="15.0284297" version="1" timestamp="2022-07-14T08:03:12Z" changeset="123595551" uid="3497659" user="NKA">
		<tag k="name" v="Hauglund" />
		<tag k="place" v="farm" />
		<tag k="ssr:stedsnr" v="1075363" />
	</node>
	<node id="9886705498" lat="67.7905938" lon="15.0461639" version="1" timestamp="2022-07-14T08:03:12Z" changeset="123595551" uid="3497659" user="NKA">
		<tag k="name" v="Sjyvegen" />
		<tag k="place" v="farm" />
		<tag k="ssr:stedsnr" v="886971" />
	</node>
	<node id="9886705499" lat="67.7614417" lon="15.2189417" version="1" timestamp="2022-07-14T08:03:12Z" changeset="123595551" uid="3497659" user="NKA">
		<tag k="name" v="Hamre" />
		<tag k="place" v="isolated_dwelling" />
		<tag k="ssr:stedsnr" v="886784" />
	</node>
	<node id="9886705500" lat="67.7343223" lon="14.7779749" version="1" timestamp="2022-07-14T08:03:12Z" changeset="123595551" uid="3497659" user="NKA">
		<tag k="name" v="Nygård" />
		<tag k="place" v="farm" />
		<tag k="ssr:stedsnr" v="883046" />
	</node>
	<node id="9886705501" lat="67.8995361" lon="15.1986611" version="1" timestamp="2022-07-14T08:03:12Z" changeset="123595551" uid="3497659" user="NKA">
		<tag k="name" v="Nordhøgda" />
		<tag k="place" v="neighbourhood" />
		<tag k="ssr:stedsnr" v="521870" />
	</node>
	<node id="9886705502" lat="67.7602583" lon="15.2184834" version="1" timestamp="2022-07-14T08:03:12Z" changeset="123595551" uid="3497659" user="NKA">
		<tag k="name" v="Sjøstrand" />
		<tag k="place" v="farm" />
		<tag k="ssr:stedsnr" v="845744" />
	</node>
	<node id="9886705503" lat="67.7376695" lon="14.7922055" version="1" timestamp="2022-07-14T08:03:12Z" changeset="123595551" uid="3497659" user="NKA">
		<tag k="name" v="Lysnakken" />
		<tag k="place" v="neighbourhood" />
		<tag k="ssr:stedsnr" v="643665" />
	</node>
	<node id="9886705504" lat="67.7547493" lon="15.4457225" version="1" timestamp="2022-07-14T08:03:12Z" changeset="123595551" uid="3497659" user="NKA">
		<tag k="name" v="Frumoen" />
		<tag k="place" v="isolated_dwelling" />
		<tag k="ssr:stedsnr" v="662338" />
	</node>
	<node id="9886705505" lat="67.7186389" lon="15.1669278" version="1" timestamp="2022-07-14T08:03:12Z" changeset="123595551" uid="3497659" user="NKA">
		<tag k="name" v="Sommernes" />
		<tag k="place" v="farm" />
		<tag k="ssr:stedsnr" v="563249" />
	</node>
	<node id="9886705506" lat="67.6963061" lon="15.4540444" version="1" timestamp="2022-07-14T08:03:12Z" changeset="123595551" uid="3497659" user="NKA">
		<tag k="alt_name" v="Sandbakk" />
		<tag k="name" v="Sandbakken" />
		<tag k="place" v="hamlet" />
		<tag k="ssr:stedsnr" v="441833" />
	</node>
	<node id="9886705507" lat="67.753575" lon="15.434239" version="1" timestamp="2022-07-14T08:03:12Z" changeset="123595551" uid="3497659" user="NKA">
		<tag k="name" v="Skar" />
		<tag k="place" v="isolated_dwelling" />
		<tag k="ssr:stedsnr" v="177363" />
	</node>
	<node id="9886705508" lat="67.6962167" lon="15.4591749" version="1" timestamp="2022-07-14T08:03:12Z" changeset="123595551" uid="3497659" user="NKA">
		<tag k="name" v="Lappvassvik" />
		<tag k="place" v="isolated_dwelling" />
		<tag k="ssr:stedsnr" v="55340" />
	</node>
	<node id="9886705509" lat="67.6620833" lon="15.4633194" version="1" timestamp="2022-07-14T08:03:12Z" changeset="123595551" uid="3497659" user="NKA">
		<tag k="name" v="Skogheim" />
		<tag k="place" v="isolated_dwelling" />
		<tag k="ssr:stedsnr" v="704858" />
	</node>
	<node id="9886705510" lat="67.6970695" lon="15.4521619" version="1" timestamp="2022-07-14T08:03:12Z" changeset="123595551" uid="3497659" user="NKA">
		<tag k="name" v="Leirebubakk" />
		<tag k="place" v="farm" />
		<tag k="ssr:stedsnr" v="662352" />
	</node>
	<node id="9886705511" lat="67.927211" lon="14.9840753" version="1" timestamp="2022-07-14T08:03:12Z" changeset="123595551" uid="3497659" user="NKA">
		<tag k="alt_name" v="Steinmo" />
		<tag k="name" v="Steinmoen" />
		<tag k="place" v="isolated_dwelling" />
		<tag k="ssr:stedsnr" v="806115" />
	</node>
	<node id="9886705512" lat="67.8126035" lon="14.7898867" version="1" timestamp="2022-07-14T08:03:12Z" changeset="123595551" uid="3497659" user="NKA">
		<tag k="name" v="Fjellheim" />
		<tag k="place" v="farm" />
		<tag k="ssr:stedsnr" v="783553" />
	</node>
	<node id="9886705513" lat="67.9059749" lon="15.3312162" version="1" timestamp="2022-07-14T08:03:12Z" changeset="123595551" uid="3497659" user="NKA">
		<tag k="name" v="Sandbakken" />
		<tag k="place" v="isolated_dwelling" />
		<tag k="ssr:stedsnr" v="764375" />
	</node>
	<node id="9886705514" lat="67.7591992" lon="15.1306799" version="1" timestamp="2022-07-14T08:03:12Z" changeset="123595551" uid="3497659" user="NKA">
		<tag k="name" v="Pålnes" />
		<tag k="place" v="farm" />
		<tag k="ssr:stedsnr" v="723718" />
	</node>
	<node id="9886705515" lat="67.7496768" lon="14.9782755" version="1" timestamp="2022-07-14T08:03:12Z" changeset="123595551" uid="3497659" user="NKA">
		<tag k="alt_name" v="Gylset" />
		<tag k="name" v="Gyllset" />
		<tag k="place" v="farm" />
		<tag k="ssr:stedsnr" v="623189" />
	</node>
	<node id="9886705516" lat="67.9618528" lon="15.1299139" version="1" timestamp="2022-07-14T08:03:12Z" changeset="123595551" uid="3497659" user="NKA">
		<tag k="name" v="Osen" />
		<tag k="place" v="farm" />
		<tag k="ssr:stedsnr" v="320199" />
	</node>
	<node id="9886705517" lat="67.7313216" lon="14.8858343" version="1" timestamp="2022-07-14T08:03:12Z" changeset="123595551" uid="3497659" user="NKA">
		<tag k="name" v="Jensvoll" />
		<tag k="place" v="farm" />
		<tag k="ssr:stedsnr" v="519442" />
	</node>
	<node id="9886705518" lat="67.9230871" lon="14.9973975" version="1" timestamp="2022-07-14T08:03:12Z" changeset="123595551" uid="3497659" user="NKA">
		<tag k="name" v="Våg" />
		<tag k="place" v="farm" />
		<tag k="ssr:stedsnr" v="502124" />
	</node>
	<node id="9886705519" lat="67.6885303" lon="15.2957773" version="1" timestamp="2022-07-14T08:03:12Z" changeset="123595551" uid="3497659" user="NKA">
		<tag k="name" v="Åsen" />
		<tag k="place" v="farm" />
		<tag k="ssr:stedsnr" v="541732" />
	</node>
	<node id="9886705520" lat="67.7202646" lon="15.2780922" version="1" timestamp="2022-07-14T08:03:12Z" changeset="123595551" uid="3497659" user="NKA">
		<tag k="name" v="Haugen" />
		<tag k="place" v="farm" />
		<tag k="ssr:stedsnr" v="480709" />
	</node>
	<node id="9886705521" lat="67.7217148" lon="15.281055" version="1" timestamp="2022-07-14T08:03:12Z" changeset="123595551" uid="3497659" user="NKA">
		<tag k="name" v="Moen" />
		<tag k="place" v="farm" />
		<tag k="ssr:stedsnr" v="116695" />
	</node>
	<node id="9886705522" lat="67.6898763" lon="15.2853037" version="1" timestamp="2022-07-14T08:03:12Z" changeset="123595551" uid="3497659" user="NKA">
		<tag k="name" v="Skola" />
		<tag k="place" v="isolated_dwelling" />
		<tag k="ssr:stedsnr" v="845752" />
	</node>
	<node id="9886705523" lat="67.6857843" lon="15.2407507" version="1" timestamp="2022-07-14T08:03:12Z" changeset="123595551" uid="3497659" user="NKA">
		<tag k="name" v="Nyheim" />
		<tag k="place" v="farm" />
		<tag k="ssr:stedsnr" v="56730" />
	</node>
	<node id="9886705524" lat="67.6859682" lon="15.2512533" version="1" timestamp="2022-07-14T08:03:12Z" changeset="123595551" uid="3497659" user="NKA">
		<tag k="name" v="Bakken" />
		<tag k="place" v="farm" />
		<tag k="ssr:stedsnr" v="238704" />
	</node>
	<node id="9886705525" lat="67.8151111" lon="14.7835917" version="1" timestamp="2022-07-14T08:03:12Z" changeset="123595551" uid="3497659" user="NKA">
		<tag k="name" v="Myra" />
		<tag k="place" v="farm" />
		<tag k="ssr:stedsnr" v="480555" />
	</node>
	<node id="9886705526" lat="67.7356556" lon="14.8645721" version="1" timestamp="2022-07-14T08:03:12Z" changeset="123595551" uid="3497659" user="NKA">
		<tag k="name" v="Indre Grubstad" />
		<tag k="place" v="farm" />
		<tag k="ssr:stedsnr" v="339775" />
	</node>
	<node id="9886705527" lat="67.7516167" lon="15.1511167" version="1" timestamp="2022-07-14T08:03:12Z" changeset="123595551" uid="3497659" user="NKA">
		<tag k="name" v="Kjerstenfjell" />
		<tag k="place" v="locality" />
		<tag k="ssr:stedsnr" v="825886" />
	</node>
	<node id="9886705528" lat="67.6666083" lon="14.9389472" version="1" timestamp="2022-07-14T08:03:12Z" changeset="123595551" uid="3497659" user="NKA">
		<tag k="name" v="Mælvoll" />
		<tag k="place" v="farm" />
		<tag k="ssr:stedsnr" v="480525" />
	</node>
	<node id="9886705529" lat="67.9364438" lon="14.9764179" version="1" timestamp="2022-07-14T08:03:12Z" changeset="123595551" uid="3497659" user="NKA">
		<tag k="name" v="Steigen - Stájggo" />
		<tag k="name:no" v="Steigen" />
		<tag k="name:smj" v="Stájggo" />
		<tag k="place" v="hamlet" />
		<tag k="ssr:stedsnr" v="419652" />
	</node>
	<node id="9886705530" lat="67.7618453" lon="15.0267611" version="1" timestamp="2022-07-14T08:03:12Z" changeset="123595551" uid="3497659" user="NKA">
		<tag k="name" v="Sommernes" />
		<tag k="place" v="farm" />
		<tag k="ssr:stedsnr" v="623938" />
	</node>
	<node id="9886705531" lat="67.7439582" lon="15.0195722" version="1" timestamp="2022-07-14T08:03:12Z" changeset="123595551" uid="3497659" user="NKA">
		<tag k="name" v="Åsheim" />
		<tag k="place" v="farm" />
		<tag k="ssr:stedsnr" v="541623" />
	</node>
	<node id="9886705532" lat="67.8721467" lon="15.0486098" version="1" timestamp="2022-07-14T08:03:12Z" changeset="123595551" uid="3497659" user="NKA">
		<tag k="name" v="Åsen" />
		<tag k="place" v="farm" />
		<tag k="ssr:stedsnr" v="541616" />
	</node>
	<node id="9886705533" lat="67.6673718" lon="14.9519489" version="1" timestamp="2022-07-14T08:03:12Z" changeset="123595551" uid="3497659" user="NKA">
		<tag k="name" v="Nyjord" />
		<tag k="place" v="isolated_dwelling" />
		<tag k="ssr:stedsnr" v="832282" />
	</node>
	<node id="9886705534" lat="67.9697249" lon="15.021881" version="1" timestamp="2022-07-14T08:03:12Z" changeset="123595551" uid="3497659" user="NKA">
		<tag k="alt_name" v="Sjøvollen" />
		<tag k="name" v="Sjyvollen" />
		<tag k="place" v="farm" />
		<tag k="ssr:stedsnr" v="623218" />
	</node>
	<node id="9886705535" lat="67.8815278" lon="15.2041249" version="1" timestamp="2022-07-14T08:03:12Z" changeset="123595551" uid="3497659" user="NKA">
		<tag k="name" v="Ospdalen" />
		<tag k="place" v="hamlet" />
		<tag k="ssr:stedsnr" v="623841" />
	</node>
	<node id="9886705536" lat="67.8524203" lon="14.9504722" version="1" timestamp="2022-07-14T08:03:12Z" changeset="123595551" uid="3497659" user="NKA">
		<tag k="name" v="Kvanndalen" />
		<tag k="place" v="locality" />
		<tag k="ssr:stedsnr" v="623799" />
	</node>
	<node id="9886705537" lat="67.7613576" lon="15.2243831" version="1" timestamp="2022-07-14T08:03:12Z" changeset="123595551" uid="3497659" user="NKA">
		<tag k="name" v="Klokkargården" />
		<tag k="place" v="farm" />
		<tag k="ssr:stedsnr" v="359718" />
	</node>
	<node id="9886705538" lat="67.922025" lon="15.0087249" version="1" timestamp="2022-07-14T08:03:12Z" changeset="123595551" uid="3497659" user="NKA">
		<tag k="name" v="Skoglund" />
		<tag k="place" v="farm" />
		<tag k="ssr:stedsnr" v="260168" />
	</node>
	<node id="9886705539" lat="67.8239868" lon="15.1378299" version="1" timestamp="2022-07-14T08:03:12Z" changeset="123595551" uid="3497659" user="NKA">
		<tag k="name" v="Knedalen" />
		<tag k="place" v="hamlet" />
		<tag k="ssr:stedsnr" v="623195" />
	</node>
	<node id="9886705540" lat="67.7186918" lon="15.1406348" version="1" timestamp="2022-07-14T08:03:12Z" changeset="123595551" uid="3497659" user="NKA">
		<tag k="name" v="Slottet" />
		<tag k="place" v="farm" />
		<tag k="ssr:stedsnr" v="359673" />
	</node>
	<node id="9886705541" lat="67.7977456" lon="14.8068051" version="1" timestamp="2022-07-14T08:03:12Z" changeset="123595551" uid="3497659" user="NKA">
		<tag k="name" v="Båtberg" />
		<tag k="place" v="farm" />
		<tag k="ssr:stedsnr" v="177953" />
	</node>
	<node id="9886705542" lat="67.8117141" lon="15.738682" version="1" timestamp="2022-07-14T08:03:12Z" changeset="123595551" uid="3497659" user="NKA">
		<tag k="name" v="Solheim" />
		<tag k="place" v="isolated_dwelling" />
		<tag k="ssr:stedsnr" v="238537" />
	</node>
	<node id="9886705543" lat="67.7507551" lon="15.1853764" version="1" timestamp="2022-07-14T08:03:12Z" changeset="123595551" uid="3497659" user="NKA">
		<tag k="name" v="Vangen" />
		<tag k="place" v="farm" />
		<tag k="ssr:stedsnr" v="886879" />
	</node>
	<node id="9886705544" lat="67.6826578" lon="15.0250688" version="1" timestamp="2022-07-14T08:03:12Z" changeset="123595551" uid="3497659" user="NKA">
		<tag k="loc_name" v="Lagården" />
		<tag k="name" v="Lagård" />
		<tag k="place" v="farm" />
		<tag k="ssr:stedsnr" v="346259" />
	</node>
	<node id="9886705545" lat="67.7340626" lon="14.8846063" version="1" timestamp="2022-07-14T08:03:12Z" changeset="123595551" uid="3497659" user="NKA">
		<tag k="alt_name" v="Skålvold" />
		<tag k="name" v="Skålvoll" />
		<tag k="place" v="hamlet" />
		<tag k="ssr:stedsnr" v="684191" />
	</node>
	<node id="9886705546" lat="67.9744669" lon="15.2944097" version="1" timestamp="2022-07-14T08:03:12Z" changeset="123595551" uid="3497659" user="NKA">
		<tag k="alt_name" v="Oksøya, øvre" />
		<tag k="name" v="Øvre Oksøya" />
		<tag k="place" v="hamlet" />
		<tag k="ssr:stedsnr" v="17629" />
	</node>
	<node id="9886705547" lat="67.8611866" lon="14.9191528" version="1" timestamp="2022-07-14T08:03:12Z" changeset="123595551" uid="3497659" user="NKA">
		<tag k="name" v="Ytterskotsfjorden" />
		<tag k="place" v="farm" />
		<tag k="ssr:stedsnr" v="784698" />
	</node>
	<node id="9886705548" lat="67.7084416" lon="15.1171722" version="1" timestamp="2022-07-14T08:03:12Z" changeset="123595551" uid="3497659" user="NKA">
		<tag k="name" v="Vika" />
		<tag k="place" v="farm" />
		<tag k="ssr:stedsnr" v="684242" />
	</node>
	<node id="9886705549" lat="67.789634" lon="14.9686229" version="1" timestamp="2022-07-14T08:03:12Z" changeset="123595551" uid="3497659" user="NKA">
		<tag k="name" v="Myrset" />
		<tag k="place" v="farm" />
		<tag k="ssr:stedsnr" v="319956" />
	</node>
	<node id="9886705550" lat="67.7622556" lon="15.6928251" version="1" timestamp="2022-07-14T08:03:12Z" changeset="123595551" uid="3497659" user="NKA">
		<tag k="name" v="Ånderbakken" />
		<tag k="place" v="farm" />
		<tag k="ssr:stedsnr" v="866661" />
	</node>
	<node id="9886705551" lat="67.9991372" lon="15.1841881" version="1" timestamp="2022-07-14T08:03:12Z" changeset="123595551" uid="3497659" user="NKA">
		<tag k="name" v="Lund" />
		<tag k="place" v="hamlet" />
		<tag k="ssr:stedsnr" v="1076282" />
	</node>
	<node id="9886705552" lat="67.9784889" lon="15.2657084" version="1" timestamp="2022-07-14T08:03:12Z" changeset="123595551" uid="3497659" user="NKA">
		<tag k="name" v="Grønvikdalen" />
		<tag k="place" v="farm" />
		<tag k="ssr:stedsnr" v="199628" />
	</node>
	<node id="9886705553" lat="67.6882861" lon="15.6538751" version="1" timestamp="2022-07-14T08:03:12Z" changeset="123595551" uid="3497659" user="NKA">
		<tag k="name" v="Nygård" />
		<tag k="place" v="isolated_dwelling" />
		<tag k="ssr:stedsnr" v="541494" />
	</node>
	<node id="9886705554" lat="67.7041889" lon="15.4001636" version="1" timestamp="2022-07-14T08:03:12Z" changeset="123595551" uid="3497659" user="NKA">
		<tag k="name" v="Helldalen" />
		<tag k="place" v="hamlet" />
		<tag k="ssr:stedsnr" v="866859" />
	</node>
	<node id="9886705555" lat="67.6707834" lon="14.7489278" version="1" timestamp="2022-07-14T08:03:12Z" changeset="123595551" uid="3497659" user="NKA">
		<tag k="name" v="Klokkvika" />
		<tag k="place" v="locality" />
		<tag k="ssr:stedsnr" v="276497" />
	</node>
	<node id="9886705556" lat="67.6896972" lon="15.6581388" version="1" timestamp="2022-07-14T08:03:12Z" changeset="123595551" uid="3497659" user="NKA">
		<tag k="name" v="Steinmo" />
		<tag k="place" v="isolated_dwelling" />
		<tag k="ssr:stedsnr" v="723474" />
	</node>
	<node id="9886705557" lat="67.6955043" lon="15.3422224" version="1" timestamp="2022-07-14T08:03:12Z" changeset="123595551" uid="3497659" user="NKA">
		<tag k="alt_name" v="Brattfjord" />
		<tag k="name" v="Brattfjorden" />
		<tag k="place" v="farm" />
		<tag k="ssr:stedsnr" v="199827" />
	</node>
	<node id="9886705558" lat="67.7163783" lon="15.3878686" version="1" timestamp="2022-07-14T08:03:12Z" changeset="123595551" uid="3497659" user="NKA">
		<tag k="name" v="Myrlund" />
		<tag k="place" v="isolated_dwelling" />
		<tag k="ssr:stedsnr" v="622841" />
	</node>
	<node id="9886705559" lat="67.7287528" lon="15.295814" version="1" timestamp="2022-07-14T08:03:12Z" changeset="123595551" uid="3497659" user="NKA">
		<tag k="name" v="Volden" />
		<tag k="place" v="isolated_dwelling" />
		<tag k="ssr:stedsnr" v="116360" />
	</node>
	<node id="9886705560" lat="67.7269306" lon="15.2896943" version="1" timestamp="2022-07-14T08:03:12Z" changeset="123595551" uid="3497659" user="NKA">
		<tag k="name" v="Bogen" />
		<tag k="place" v="farm" />
		<tag k="ssr:stedsnr" v="198853" />
	</node>
	<node id="9886705561" lat="67.7170268" lon="15.3820126" version="1" timestamp="2022-07-14T08:03:12Z" changeset="123595551" uid="3497659" user="NKA">
		<tag k="name" v="Myrvoll" />
		<tag k="place" v="isolated_dwelling" />
		<tag k="ssr:stedsnr" v="359326" />
	</node>
	<node id="9886705562" lat="67.6868483" lon="15.311858" version="1" timestamp="2022-07-14T08:03:12Z" changeset="123595551" uid="3497659" user="NKA">
		<tag k="name" v="Fredheim" />
		<tag k="place" v="farm" />
		<tag k="ssr:stedsnr" v="116716" />
	</node>
	<node id="9886705563" lat="67.686725" lon="15.3264389" version="1" timestamp="2022-07-14T08:03:12Z" changeset="123595551" uid="3497659" user="NKA">
		<tag k="name" v="Birgit" />
		<tag k="place" v="isolated_dwelling" />
		<tag k="ssr:stedsnr" v="359726" />
	</node>
	<node id="9886705564" lat="67.7255534" lon="15.292614" version="1" timestamp="2022-07-14T08:03:12Z" changeset="123595551" uid="3497659" user="NKA">
		<tag k="name" v="Vinkenes" />
		<tag k="place" v="farm" />
		<tag k="ssr:stedsnr" v="363634" />
	</node>
	<node id="9886705565" lat="67.9266107" lon="15.0058515" version="1" timestamp="2022-07-14T08:03:12Z" changeset="123595551" uid="3497659" user="NKA">
		<tag k="name" v="Solheim" />
		<tag k="place" v="hamlet" />
		<tag k="ssr:stedsnr" v="623152" />
	</node>
	<node id="9886705566" lat="67.7403153" lon="15.0291261" version="1" timestamp="2022-07-14T08:03:12Z" changeset="123595551" uid="3497659" user="NKA">
		<tag k="name" v="Fossheim" />
		<tag k="place" v="farm" />
		<tag k="ssr:stedsnr" v="441202" />
	</node>
	<node id="9886705567" lat="67.7615177" lon="15.024853" version="1" timestamp="2022-07-14T08:03:12Z" changeset="123595551" uid="3497659" user="NKA">
		<tag k="alt_name" v="Sommernes" />
		<tag k="name" v="Sommarnes" />
		<tag k="place" v="farm" />
		<tag k="ssr:stedsnr" v="1076244" />
	</node>
	<node id="9886705568" lat="67.6848327" lon="15.0279695" version="1" timestamp="2022-07-14T08:03:12Z" changeset="123595551" uid="3497659" user="NKA">
		<tag k="name" v="Nyland" />
		<tag k="place" v="farm" />
		<tag k="ssr:stedsnr" v="1075366" />
	</node>
	<node id="9886705569" lat="67.9742512" lon="15.1101838" version="1" timestamp="2022-07-14T08:03:12Z" changeset="123595551" uid="3497659" user="NKA">
		<tag k="alt_name" v="Myrvold" />
		<tag k="name" v="Myrvoll" />
		<tag k="place" v="farm" />
		<tag k="ssr:stedsnr" v="17042" />
	</node>
	<node id="9886705570" lat="67.8356351" lon="14.7741755" version="1" timestamp="2022-07-14T08:03:12Z" changeset="123595551" uid="3497659" user="NKA">
		<tag k="name" v="Mannshausen II" />
		<tag k="place" v="farm" />
		<tag k="ssr:stedsnr" v="1081671" />
	</node>
	<node id="9886705571" lat="67.7918972" lon="15.0126138" version="1" timestamp="2022-07-14T08:03:12Z" changeset="123595551" uid="3497659" user="NKA">
		<tag k="alt_name" v="Norheim" />
		<tag k="name" v="Nordheim" />
		<tag k="place" v="farm" />
		<tag k="ssr:stedsnr" v="622945" />
	</node>
	<node id="9886705572" lat="67.8332478" lon="14.8117248" version="1" timestamp="2022-07-14T08:03:12Z" changeset="123595551" uid="3497659" user="NKA">
		<tag k="name" v="Dalen" />
		<tag k="place" v="farm" />
		<tag k="ssr:stedsnr" v="77773" />
	</node>
	<node id="9886705573" lat="67.8761432" lon="15.0846613" version="1" timestamp="2022-07-14T08:03:12Z" changeset="123595551" uid="3497659" user="NKA">
		<tag k="name" v="Innerskotsfjord" />
		<tag k="place" v="hamlet" />
		<tag k="ssr:stedsnr" v="1076251" />
	</node>
	<node id="9886705574" lat="67.8382781" lon="14.76425" version="1" timestamp="2022-07-14T08:03:12Z" changeset="123595551" uid="3497659" user="NKA">
		<tag k="name" v="Grøtøya" />
		<tag k="place" v="locality" />
		<tag k="ssr:stedsnr" v="1076249" />
	</node>
	<node id="9886705575" lat="67.7106506" lon="15.1082869" version="1" timestamp="2022-07-14T08:03:12Z" changeset="123595551" uid="3497659" user="NKA">
		<tag k="name" v="Sjøgård" />
		<tag k="place" v="farm" />
		<tag k="ssr:stedsnr" v="1083983" />
	</node>
	<node id="9886705576" lat="67.7598158" lon="15.1395804" version="1" timestamp="2022-07-14T08:03:12Z" changeset="123595551" uid="3497659" user="NKA">
		<tag k="name" v="Nedre Botn" />
		<tag k="place" v="farm" />
		<tag k="ssr:stedsnr" v="1076243" />
	</node>
	<node id="9886705577" lat="67.7645011" lon="15.1387986" version="1" timestamp="2022-07-14T08:03:12Z" changeset="123595551" uid="3497659" user="NKA">
		<tag k="name" v="Heimtun" />
		<tag k="place" v="farm" />
		<tag k="ssr:stedsnr" v="723724" />
	</node>
	<node id="9886705578" lat="67.7227462" lon="14.821438" version="1" timestamp="2022-07-14T08:03:12Z" changeset="123595551" uid="3497659" user="NKA">
		<tag k="name" v="Tro" />
		<tag k="place" v="farm" />
		<tag k="ssr:stedsnr" v="199217" />
	</node>
	<node id="9886705579" lat="67.7369889" lon="14.8238194" version="1" timestamp="2022-07-14T08:03:12Z" changeset="123595551" uid="3497659" user="NKA">
		<tag k="name" v="Lillegrenda" />
		<tag k="place" v="hamlet" />
		<tag k="ssr:stedsnr" v="886905" />
	</node>
	<node id="9886705580" lat="67.7491004" lon="15.055714" version="1" timestamp="2022-07-14T08:03:12Z" changeset="123595551" uid="3497659" user="NKA">
		<tag k="alt_name" v="Ospenes;Aspenes" />
		<tag k="name" v="Ospnes" />
		<tag k="place" v="farm" />
		<tag k="ssr:stedsnr" v="866148" />
	</node>
	<node id="9886705581" lat="67.9580555" lon="15.0169528" version="1" timestamp="2022-07-14T08:03:12Z" changeset="123595551" uid="3497659" user="NKA">
		<tag k="name" v="Russeleiren" />
		<tag k="place" v="farm" />
		<tag k="ssr:stedsnr" v="279533" />
	</node>
	<node id="9886705582" lat="67.7645334" lon="15.1410639" version="1" timestamp="2022-07-14T08:03:12Z" changeset="123595551" uid="3497659" user="NKA">
		<tag k="name" v="Vangen" />
		<tag k="place" v="farm" />
		<tag k="ssr:stedsnr" v="642870" />
	</node>
	<node id="9886705583" lat="67.7639278" lon="15.025575" version="1" timestamp="2022-07-14T08:03:12Z" changeset="123595551" uid="3497659" user="NKA">
		<tag k="name" v="Osvold" />
		<tag k="place" v="farm" />
		<tag k="ssr:stedsnr" v="582902" />
	</node>
	<node id="9886705584" lat="67.6885667" lon="15.6579889" version="1" timestamp="2022-07-14T08:03:12Z" changeset="123595551" uid="3497659" user="NKA">
		<tag k="name" v="Stavfjorden" />
		<tag k="place" v="hamlet" />
		<tag k="ssr:stedsnr" v="927840" />
	</node>
	<node id="9886705585" lat="67.6640639" lon="14.9300168" version="1" timestamp="2022-07-14T08:03:12Z" changeset="123595551" uid="3497659" user="NKA">
		<tag k="name" v="Myra" />
		<tag k="place" v="locality" />
		<tag k="ssr:stedsnr" v="927815" />
	</node>
	<node id="9886705586" lat="67.7934611" lon="15.0396416" version="1" timestamp="2022-07-14T08:03:12Z" changeset="123595551" uid="3497659" user="NKA">
		<tag k="name" v="Solbakken" />
		<tag k="place" v="farm" />
		<tag k="ssr:stedsnr" v="218972" />
	</node>
	<node id="9886705587" lat="67.9263432" lon="15.0195446" version="1" timestamp="2022-07-14T08:03:12Z" changeset="123595551" uid="3497659" user="NKA">
		<tag k="name" v="Laskestad" />
		<tag k="place" v="hamlet" />
		<tag k="ssr:stedsnr" v="138139" />
	</node>
	<node id="9886705588" lat="67.7436223" lon="15.0530223" version="1" timestamp="2022-07-14T08:03:12Z" changeset="123595551" uid="3497659" user="NKA">
		<tag k="name" v="Moen" />
		<tag k="place" v="farm" />
		<tag k="ssr:stedsnr" v="320179" />
	</node>
	<node id="9886705589" lat="67.8266139" lon="15.1396333" version="1" timestamp="2022-07-14T08:03:12Z" changeset="123595551" uid="3497659" user="NKA">
		<tag k="name" v="Lia" />
		<tag k="place" v="farm" />
		<tag k="ssr:stedsnr" v="137746" />
	</node>
	<node id="9886705590" lat="67.7275361" lon="14.8086112" version="1" timestamp="2022-07-14T08:03:12Z" changeset="123595551" uid="3497659" user="NKA">
		<tag k="name" v="Auvika" />
		<tag k="place" v="farm" />
		<tag k="ssr:stedsnr" v="400807" />
	</node>
	<node id="9886705591" lat="67.7776003" lon="15.1579113" version="1" timestamp="2022-07-14T08:03:12Z" changeset="123595551" uid="3497659" user="NKA">
		<tag k="name" v="Sveum" />
		<tag k="place" v="farm" />
		<tag k="ssr:stedsnr" v="622913" />
	</node>
	<node id="9886705592" lat="67.7210495" lon="15.150156" version="1" timestamp="2022-07-14T08:03:12Z" changeset="123595551" uid="3497659" user="NKA">
		<tag k="alt_name" v="Breidvika;Breidvik;Breivik" />
		<tag k="name" v="Breivika" />
		<tag k="place" v="hamlet" />
		<tag k="ssr:stedsnr" v="927206" />
	</node>
	<node id="9886705593" lat="67.6956583" lon="15.0706916" version="1" timestamp="2022-07-14T08:03:12Z" changeset="123595551" uid="3497659" user="NKA">
		<tag k="name" v="Solbakken" />
		<tag k="place" v="farm" />
		<tag k="ssr:stedsnr" v="138253" />
	</node>
	<node id="9886705594" lat="67.7217778" lon="15.1713084" version="1" timestamp="2022-07-14T08:03:12Z" changeset="123595551" uid="3497659" user="NKA">
		<tag k="name" v="Solstrand" />
		<tag k="place" v="farm" />
		<tag k="ssr:stedsnr" v="17230" />
	</node>
	<node id="9886705595" lat="67.9192885" lon="15.0554779" version="1" timestamp="2022-07-14T08:03:12Z" changeset="123595551" uid="3497659" user="NKA">
		<tag k="name" v="Svartberget" />
		<tag k="place" v="farm" />
		<tag k="ssr:stedsnr" v="886673" />
	</node>
	<node id="9886705596" lat="67.9177028" lon="15.063439" version="1" timestamp="2022-07-14T08:03:12Z" changeset="123595551" uid="3497659" user="NKA">
		<tag k="name" v="Kvalvika" />
		<tag k="place" v="farm" />
		<tag k="ssr:stedsnr" v="199196" />
	</node>
	<node id="9886705597" lat="67.7791972" lon="15.0061361" version="1" timestamp="2022-07-14T08:03:12Z" changeset="123595551" uid="3497659" user="NKA">
		<tag k="name" v="Vikran" />
		<tag k="place" v="farm" />
		<tag k="ssr:stedsnr" v="865975" />
	</node>
	<node id="9886705598" lat="67.8471686" lon="15.1676372" version="1" timestamp="2022-07-14T08:03:12Z" changeset="123595551" uid="3497659" user="NKA">
		<tag k="name" v="Bjørkheim" />
		<tag k="place" v="farm" />
		<tag k="ssr:stedsnr" v="1075253" />
	</node>
	<node id="9886705599" lat="67.8627" lon="15.0366445" version="1" timestamp="2022-07-14T08:03:12Z" changeset="123595551" uid="3497659" user="NKA">
		<tag k="alt_name" v="Kvanndalsmoa" />
		<tag k="name" v="Kvanndalsmoen" />
		<tag k="place" v="locality" />
		<tag k="ssr:stedsnr" v="441803" />
	</node>
	<node id="9886705600" lat="67.7700426" lon="15.160061" version="1" timestamp="2022-07-14T08:03:12Z" changeset="123595551" uid="3497659" user="NKA">
		<tag k="name" v="Nyrud" />
		<tag k="place" v="farm" />
		<tag k="ssr:stedsnr" v="359751" />
	</node>
	<node id="9886705601" lat="67.9610139" lon="15.1267806" version="1" timestamp="2022-07-14T08:03:12Z" changeset="123595551" uid="3497659" user="NKA">
		<tag k="alt_name" v="Osbakkan" />
		<tag k="name" v="Osbakken" />
		<tag k="place" v="farm" />
		<tag k="ssr:stedsnr" v="320198" />
	</node>
	<node id="9886705602" lat="67.7217949" lon="15.1706226" version="1" timestamp="2022-07-14T08:03:12Z" changeset="123595551" uid="3497659" user="NKA">
		<tag k="name" v="Trettvik" />
		<tag k="place" v="isolated_dwelling" />
		<tag k="ssr:stedsnr" v="832274" />
	</node>
	<node id="9886705603" lat="67.6613463" lon="15.1989337" version="1" timestamp="2022-07-14T08:03:12Z" changeset="123595551" uid="3497659" user="NKA">
		<tag k="name" v="Mulen" />
		<tag k="place" v="farm" />
		<tag k="ssr:stedsnr" v="138047" />
	</node>
	<node id="9886705604" lat="67.7226538" lon="14.8459881" version="1" timestamp="2022-07-14T08:03:12Z" changeset="123595551" uid="3497659" user="NKA">
		<tag k="alt_name" v="Levik" />
		<tag k="name" v="Levika" />
		<tag k="place" v="farm" />
		<tag k="ssr:stedsnr" v="866185" />
	</node>
	<node id="9886705605" lat="67.8264282" lon="15.3873328" version="1" timestamp="2022-07-14T08:03:12Z" changeset="123595551" uid="3497659" user="NKA">
		<tag k="alt_name" v="Saga" />
		<tag k="name" v="Sagen" />
		<tag k="place" v="farm" />
		<tag k="ssr:stedsnr" v="684722" />
	</node>
	<node id="9886705606" lat="67.7731361" lon="15.2639195" version="1" timestamp="2022-07-14T08:03:12Z" changeset="123595551" uid="3497659" user="NKA">
		<tag k="name" v="Kleiva" />
		<tag k="place" v="neighbourhood" />
		<tag k="ssr:stedsnr" v="522827" />
	</node>
	<node id="9886705607" lat="67.8533894" lon="15.218795" version="1" timestamp="2022-07-14T08:03:12Z" changeset="123595551" uid="3497659" user="NKA">
		<tag k="name" v="Vangen" />
		<tag k="place" v="farm" />
		<tag k="ssr:stedsnr" v="199498" />
	</node>
	<node id="9886705608" lat="67.9437318" lon="14.9628614" version="1" timestamp="2022-07-14T08:03:12Z" changeset="123595551" uid="3497659" user="NKA">
		<tag k="alt_name" v="Steigberg" />
		<tag k="name" v="Steigberget" />
		<tag k="place" v="farm" />
		<tag k="ssr:stedsnr" v="199238" />
	</node>
	<node id="9886705609" lat="67.7587418" lon="15.2080047" version="1" timestamp="2022-07-14T08:03:12Z" changeset="123595551" uid="3497659" user="NKA">
		<tag k="name" v="Nygården" />
		<tag k="place" v="farm" />
		<tag k="ssr:stedsnr" v="199877" />
	</node>
	<node id="9886705610" lat="67.729479" lon="14.7709043" version="1" timestamp="2022-07-14T08:03:12Z" changeset="123595551" uid="3497659" user="NKA">
		<tag k="alt_name" v="Helnessund" />
		<tag k="name" v="Helnes" />
		<tag k="place" v="hamlet" />
		<tag k="ssr:stedsnr" v="199179" />
	</node>
	<node id="9886705611" lat="67.9702475" lon="15.0127348" version="1" timestamp="2022-07-14T08:03:12Z" changeset="123595551" uid="3497659" user="NKA">
		<tag k="name" v="Skjeret" />
		<tag k="place" v="isolated_dwelling" />
		<tag k="ssr:stedsnr" v="461501" />
	</node>
	<node id="9886705612" lat="67.9186643" lon="15.0346429" version="1" timestamp="2022-07-14T08:03:12Z" changeset="123595551" uid="3497659" user="NKA">
		<tag k="name" v="Nygård" />
		<tag k="place" v="farm" />
		<tag k="ssr:stedsnr" v="502116" />
	</node>
	<node id="9886705613" lat="67.9616111" lon="15.0439888" version="1" timestamp="2022-07-14T08:03:12Z" changeset="123595551" uid="3497659" user="NKA">
		<tag k="alt_name" v="Skardet" />
		<tag k="name" v="Skaret" />
		<tag k="place" v="farm" />
		<tag k="ssr:stedsnr" v="502171" />
	</node>
	<node id="9886705614" lat="67.8985" lon="15.0930279" version="1" timestamp="2022-07-14T08:03:12Z" changeset="123595551" uid="3497659" user="NKA">
		<tag k="name" v="Gamtoften" />
		<tag k="place" v="locality" />
		<tag k="ssr:stedsnr" v="521744" />
	</node>
	<node id="9886705615" lat="67.9363056" lon="14.9831833" version="1" timestamp="2022-07-14T08:03:12Z" changeset="123595551" uid="3497659" user="NKA">
		<tag k="alt_name" v="Steigen;Stegen" />
		<tag k="name" v="Stegen øvre" />
		<tag k="old_name" v="Steigen øvre" />
		<tag k="place" v="farm" />
		<tag k="ssr:stedsnr" v="398194" />
	</node>
	<node id="9886705616" lat="67.7224143" lon="14.8376422" version="1" timestamp="2022-07-14T08:03:12Z" changeset="123595551" uid="3497659" user="NKA">
		<tag k="name" v="Skår" />
		<tag k="place" v="hamlet" />
		<tag k="ssr:stedsnr" v="320219" />
	</node>
	<node id="9886705617" lat="67.7306669" lon="14.8834547" version="1" timestamp="2022-07-14T08:03:12Z" changeset="123595551" uid="3497659" user="NKA">
		<tag k="name" v="Hustoft" />
		<tag k="place" v="hamlet" />
		<tag k="ssr:stedsnr" v="442245" />
	</node>
	<node id="9886705618" lat="67.7564139" lon="15.2017083" version="1" timestamp="2022-07-14T08:03:12Z" changeset="123595551" uid="3497659" user="NKA">
		<tag k="name" v="Bergvollen" />
		<tag k="place" v="farm" />
		<tag k="ssr:stedsnr" v="380873" />
	</node>
	<node id="9886705619" lat="67.7112365" lon="15.1148469" version="1" timestamp="2022-07-14T08:03:12Z" changeset="123595551" uid="3497659" user="NKA">
		<tag k="name" v="Valle" />
		<tag k="place" v="hamlet" />
		<tag k="ssr:stedsnr" v="867290" />
	</node>
	<node id="9886705620" lat="67.8314241" lon="15.1473871" version="1" timestamp="2022-07-14T08:03:12Z" changeset="123595551" uid="3497659" user="NKA">
		<tag k="name" v="Frydenlund" />
		<tag k="place" v="farm" />
		<tag k="ssr:stedsnr" v="16740" />
	</node>
	<node id="9886705621" lat="67.7943389" lon="15.0450028" version="1" timestamp="2022-07-14T08:03:12Z" changeset="123595551" uid="3497659" user="NKA">
		<tag k="name" v="Solvoll" />
		<tag k="place" v="farm" />
		<tag k="ssr:stedsnr" v="97976" />
	</node>
	<node id="9886705622" lat="67.9200056" lon="15.0605944" version="1" timestamp="2022-07-14T08:03:12Z" changeset="123595551" uid="3497659" user="NKA">
		<tag k="alt_name" v="Einmoen" />
		<tag k="name" v="Einmoa" />
		<tag k="place" v="farm" />
		<tag k="ssr:stedsnr" v="17141" />
	</node>
	<node id="9886705623" lat="67.9526748" lon="15.1441903" version="1" timestamp="2022-07-14T08:03:12Z" changeset="123595551" uid="3497659" user="NKA">
		<tag k="alt_name" v="Lillesæter" />
		<tag k="name" v="Litlesæter" />
		<tag k="place" v="hamlet" />
		<tag k="ssr:stedsnr" v="502233" />
	</node>
	<node id="9886705624" lat="67.8332651" lon="15.1511771" version="1" timestamp="2022-07-14T08:03:12Z" changeset="123595551" uid="3497659" user="NKA">
		<tag k="name" v="Rognlia" />
		<tag k="place" v="farm" />
		<tag k="ssr:stedsnr" v="198743" />
	</node>
	<node id="9886705625" lat="67.759775" lon="15.2113028" version="1" timestamp="2022-07-14T08:03:12Z" changeset="123595551" uid="3497659" user="NKA">
		<tag k="name" v="Kjølen" />
		<tag k="place" v="farm" />
		<tag k="ssr:stedsnr" v="502884" />
	</node>
	<node id="9886705626" lat="67.6757714" lon="14.7232082" version="1" timestamp="2022-07-14T08:03:12Z" changeset="123595551" uid="3497659" user="NKA">
		<tag k="name" v="Vettøya" />
		<tag k="place" v="locality" />
		<tag k="ssr:stedsnr" v="1076366" />
	</node>
	<node id="9886705627" lat="67.6695639" lon="14.7656165" version="1" timestamp="2022-07-14T08:03:12Z" changeset="123595551" uid="3497659" user="NKA">
		<tag k="alt_name" v="Breidvika" />
		<tag k="name" v="Breivika" />
		<tag k="place" v="farm" />
		<tag k="ssr:stedsnr" v="441802" />
	</node>
	<node id="9886705628" lat="67.7312778" lon="15.1744305" version="1" timestamp="2022-07-14T08:03:12Z" changeset="123595551" uid="3497659" user="NKA">
		<tag k="name" v="Solvang" />
		<tag k="place" v="farm" />
		<tag k="ssr:stedsnr" v="562188" />
	</node>
	<node id="9886705629" lat="67.7701352" lon="15.1662569" version="1" timestamp="2022-07-14T08:03:12Z" changeset="123595551" uid="3497659" user="NKA">
		<tag k="name" v="Åsheim" />
		<tag k="place" v="farm" />
		<tag k="ssr:stedsnr" v="420761" />
	</node>
	<node id="9886705630" lat="67.6843933" lon="15.0258074" version="1" timestamp="2022-07-14T08:03:12Z" changeset="123595551" uid="3497659" user="NKA">
		<tag k="name" v="Lillejord" />
		<tag k="place" v="farm" />
		<tag k="ssr:stedsnr" v="1075362" />
	</node>
	<node id="9886705631" lat="67.6561694" lon="15.0561972" version="1" timestamp="2022-07-14T08:03:12Z" changeset="123595551" uid="3497659" user="NKA">
		<tag k="alt_name" v="Hjartøya, nordre" />
		<tag k="name" v="Nordre Hjartøya" />
		<tag k="place" v="farm" />
		<tag k="ssr:stedsnr" v="442797" />
	</node>
	<node id="9886705632" lat="67.666226" lon="14.7801589" version="1" timestamp="2022-07-14T08:03:12Z" changeset="123595551" uid="3497659" user="NKA">
		<tag k="name" v="Brennsund" />
		<tag k="place" v="hamlet" />
		<tag k="ssr:stedsnr" v="77802" />
	</node>
	<node id="9886705633" lat="67.7018667" lon="15.0845362" version="1" timestamp="2022-07-14T08:03:12Z" changeset="123595551" uid="3497659" user="NKA">
		<tag k="name" v="Elvestad" />
		<tag k="place" v="farm" />
		<tag k="ssr:stedsnr" v="563234" />
	</node>
	<node id="9886705634" lat="67.7170843" lon="15.1369657" version="1" timestamp="2022-07-14T08:03:12Z" changeset="123595551" uid="3497659" user="NKA">
		<tag k="name" v="Lappvik" />
		<tag k="place" v="farm" />
		<tag k="ssr:stedsnr" v="832276" />
	</node>
	<node id="9886705635" lat="67.6661688" lon="14.9438928" version="1" timestamp="2022-07-14T08:03:12Z" changeset="123595551" uid="3497659" user="NKA">
		<tag k="name" v="Solvold" />
		<tag k="place" v="farm" />
		<tag k="ssr:stedsnr" v="116519" />
	</node>
	<node id="9886705636" lat="67.665075" lon="14.9398694" version="1" timestamp="2022-07-14T08:03:12Z" changeset="123595551" uid="3497659" user="NKA">
		<tag k="name" v="Solheim" />
		<tag k="place" v="farm" />
		<tag k="ssr:stedsnr" v="541543" />
	</node>
	<node id="9886705637" lat="67.6731573" lon="14.9620295" version="1" timestamp="2022-07-14T08:03:12Z" changeset="123595551" uid="3497659" user="NKA">
		<tag k="loc_name" v="Ytter-Skjenken" />
		<tag k="name" v="Skjenken" />
		<tag k="place" v="farm" />
		<tag k="ssr:stedsnr" v="407288" />
	</node>
	<node id="9886705638" lat="67.6865573" lon="15.3145494" version="1" timestamp="2022-07-14T08:03:12Z" changeset="123595551" uid="3497659" user="NKA">
		<tag k="name" v="Elveheim" />
		<tag k="place" v="farm" />
		<tag k="ssr:stedsnr" v="966738" />
	</node>
	<node id="9886705639" lat="67.9178234" lon="15.1511635" version="1" timestamp="2022-07-14T08:03:12Z" changeset="123595551" uid="3497659" user="NKA">
		<tag k="name" v="Berg" />
		<tag k="place" v="hamlet" />
		<tag k="ssr:stedsnr" v="867193" />
	</node>
	<node id="9886705640" lat="67.8002111" lon="15.3518334" version="1" timestamp="2022-07-14T08:03:12Z" changeset="123595551" uid="3497659" user="NKA">
		<tag k="name" v="Reitan" />
		<tag k="place" v="farm" />
		<tag k="ssr:stedsnr" v="298297" />
	</node>
	<node id="9886705641" lat="67.766925" lon="15.2425582" version="1" timestamp="2022-07-14T08:03:12Z" changeset="123595551" uid="3497659" user="NKA">
		<tag k="name" v="Kjærran" />
		<tag k="place" v="farm" />
		<tag k="ssr:stedsnr" v="704760" />
	</node>
	<node id="9886705642" lat="67.916" lon="15.1949583" version="1" timestamp="2022-07-14T08:03:12Z" changeset="123595551" uid="3497659" user="NKA">
		<tag k="name" v="Monsholmen" />
		<tag k="place" v="farm" />
		<tag k="ssr:stedsnr" v="563164" />
	</node>
	<node id="9886705643" lat="67.9191389" lon="15.0492472" version="1" timestamp="2022-07-14T08:03:12Z" changeset="123595551" uid="3497659" user="NKA">
		<tag k="alt_name" v="Sandvåg" />
		<tag k="name" v="Sandvågen" />
		<tag k="place" v="farm" />
		<tag k="ssr:stedsnr" v="867154" />
	</node>
	<node id="9886705644" lat="67.7213861" lon="15.3757083" version="1" timestamp="2022-07-14T08:03:12Z" changeset="123595551" uid="3497659" user="NKA">
		<tag k="name" v="Nyhamn" />
		<tag k="place" v="isolated_dwelling" />
		<tag k="ssr:stedsnr" v="380853" />
	</node>
	<node id="9886705645" lat="67.9742861" lon="15.2362528" version="1" timestamp="2022-07-14T08:03:12Z" changeset="123595551" uid="3497659" user="NKA">
		<tag k="alt_name" v="Yttervika" />
		<tag k="name" v="Ytterlia" />
		<tag k="place" v="farm" />
		<tag k="ssr:stedsnr" v="320603" />
	</node>
	<node id="9886705646" lat="67.7755312" lon="15.1607662" version="1" timestamp="2022-07-14T08:03:12Z" changeset="123595551" uid="3497659" user="NKA">
		<tag k="name" v="Tverrhaug" />
		<tag k="place" v="farm" />
		<tag k="ssr:stedsnr" v="865898" />
	</node>
	<node id="9886705647" lat="67.8478018" lon="15.1696999" version="1" timestamp="2022-07-14T08:03:12Z" changeset="123595551" uid="3497659" user="NKA">
		<tag k="name" v="Skjelvareid" />
		<tag k="place" v="hamlet" />
		<tag k="ssr:stedsnr" v="562805" />
	</node>
	<node id="9886705648" lat="67.8928963" lon="15.1511684" version="1" timestamp="2022-07-14T08:03:12Z" changeset="123595551" uid="3497659" user="NKA">
		<tag k="name" v="Dypvik" />
		<tag k="place" v="farm" />
		<tag k="ssr:stedsnr" v="562856" />
	</node>
	<node id="9886705649" lat="67.8036549" lon="14.8270467" version="1" timestamp="2022-07-14T08:03:12Z" changeset="123595551" uid="3497659" user="NKA">
		<tag k="name" v="Sjybakkan" />
		<tag k="old_name" v="Bakketun" />
		<tag k="place" v="farm" />
		<tag k="ssr:stedsnr" v="991288" />
	</node>
	<node id="9886705650" lat="67.8067761" lon="14.8292565" version="1" timestamp="2022-07-14T08:03:12Z" changeset="123595551" uid="3497659" user="NKA">
		<tag k="name" v="Stokkmyra" />
		<tag k="place" v="farm" />
		<tag k="ssr:stedsnr" v="238956" />
	</node>
	<node id="9886705651" lat="67.9411618" lon="14.9637924" version="1" timestamp="2022-07-14T08:03:12Z" changeset="123595551" uid="3497659" user="NKA">
		<tag k="alt_name" v="Vestjorden;Vestjord" />
		<tag k="name" v="Vestjorda" />
		<tag k="place" v="farm" />
		<tag k="ssr:stedsnr" v="684234" />
	</node>
	<node id="9886705652" lat="67.7216003" lon="15.2896425" version="1" timestamp="2022-07-14T08:03:12Z" changeset="123595551" uid="3497659" user="NKA">
		<tag k="name" v="Vinkenes vestre" />
		<tag k="place" v="farm" />
		<tag k="ssr:stedsnr" v="667642" />
	</node>
	<node id="9886705653" lat="67.6655859" lon="14.779647" version="1" timestamp="2022-07-14T08:03:12Z" changeset="123595551" uid="3497659" user="NKA">
		<tag k="name" v="Brennsundgårdan" />
		<tag k="place" v="farm" />
		<tag k="ssr:stedsnr" v="761459" />
	</node>
	<node id="9886705654" lat="67.8753593" lon="15.0822328" version="1" timestamp="2022-07-14T08:03:12Z" changeset="123595551" uid="3497659" user="NKA">
		<tag k="alt_name" v="indre Skotsfjord, vestre" />
		<tag k="name" v="Vestre Innerskotsfjord" />
		<tag k="old_name" v="in Skotsfjord, vestre" />
		<tag k="place" v="farm" />
		<tag k="ssr:stedsnr" v="684830" />
	</node>
	<node id="9886705655" lat="67.6916139" lon="15.3396555" version="1" timestamp="2022-07-14T08:03:12Z" changeset="123595551" uid="3497659" user="NKA">
		<tag k="name" v="Lien" />
		<tag k="place" v="farm" />
		<tag k="ssr:stedsnr" v="601711" />
	</node>
	<node id="9886705656" lat="67.7633615" lon="15.1325265" version="1" timestamp="2022-07-14T08:03:12Z" changeset="123595551" uid="3497659" user="NKA">
		<tag k="name" v="Prestnes" />
		<tag k="place" v="farm" />
		<tag k="ssr:stedsnr" v="601722" />
	</node>
	<node id="9886705657" lat="67.6930889" lon="15.3417083" version="1" timestamp="2022-07-14T08:03:12Z" changeset="123595551" uid="3497659" user="NKA">
		<tag k="name" v="Myrvoll" />
		<tag k="place" v="isolated_dwelling" />
		<tag k="ssr:stedsnr" v="662735" />
	</node>
	<node id="9886705658" lat="67.7420976" lon="15.0277458" version="1" timestamp="2022-07-14T08:03:12Z" changeset="123595551" uid="3497659" user="NKA">
		<tag k="name" v="Smolåsen" />
		<tag k="place" v="farm" />
		<tag k="ssr:stedsnr" v="662625" />
	</node>
	<node id="9886705659" lat="67.8552049" lon="15.2006303" version="1" timestamp="2022-07-14T08:03:12Z" changeset="123595551" uid="3497659" user="NKA">
		<tag k="name" v="Holmvaag" />
		<tag k="place" v="farm" />
		<tag k="ssr:stedsnr" v="582877" />
	</node>
	<node id="9886705660" lat="67.6873241" lon="15.3047449" version="1" timestamp="2022-07-14T08:03:12Z" changeset="123595551" uid="3497659" user="NKA">
		<tag k="name" v="Makkleira" />
		<tag k="place" v="farm" />
		<tag k="ssr:stedsnr" v="927836" />
	</node>
	<node id="9886705661" lat="67.9548972" lon="15.0019472" version="1" timestamp="2022-07-14T08:03:12Z" changeset="123595551" uid="3497659" user="NKA">
		<tag k="name" v="Breidablikk" />
		<tag k="place" v="farm" />
		<tag k="ssr:stedsnr" v="806193" />
	</node>
	<node id="9886705662" lat="67.8147528" lon="14.7054361" version="1" timestamp="2022-07-14T08:03:12Z" changeset="123595551" uid="3497659" user="NKA">
		<tag k="name" v="Sanden" />
		<tag k="place" v="farm" />
		<tag k="ssr:stedsnr" v="17032" />
	</node>
	<node id="9886705663" lat="67.8129763" lon="14.6994848" version="1" timestamp="2022-07-14T08:03:12Z" changeset="123595551" uid="3497659" user="NKA">
		<tag k="name" v="Måløya" />
		<tag k="place" v="locality" />
		<tag k="ssr:stedsnr" v="1076247" />
	</node>
	<node id="9886705664" lat="67.6890972" lon="15.2903332" version="1" timestamp="2022-07-14T08:03:12Z" changeset="123595551" uid="3497659" user="NKA">
		<tag k="name" v="Bakkemo" />
		<tag k="place" v="isolated_dwelling" />
		<tag k="ssr:stedsnr" v="601707" />
	</node>
	<node id="9886705665" lat="67.8114806" lon="14.7047778" version="1" timestamp="2022-07-14T08:03:12Z" changeset="123595551" uid="3497659" user="NKA">
		<tag k="name" v="Skipvollen" />
		<tag k="place" v="farm" />
		<tag k="ssr:stedsnr" v="927104" />
	</node>
	<node id="9886705666" lat="67.7886305" lon="15.6252807" version="1" timestamp="2022-07-14T08:03:12Z" changeset="123595551" uid="3497659" user="NKA">
		<tag k="alt_name" v="Hopen, austre" />
		<tag k="name" v="Austre Hopen" />
		<tag k="place" v="farm" />
		<tag k="ssr:stedsnr" v="199717" />
	</node>
	<node id="9886705667" lat="67.8113167" lon="15.738775" version="1" timestamp="2022-07-14T08:03:12Z" changeset="123595551" uid="3497659" user="NKA">
		<tag k="name" v="Lofthus" />
		<tag k="place" v="isolated_dwelling" />
		<tag k="ssr:stedsnr" v="845546" />
	</node>
	<node id="9886705668" lat="67.9342083" lon="15.5584777" version="1" timestamp="2022-07-14T08:03:12Z" changeset="123595551" uid="3497659" user="NKA">
		<tag k="name" v="Gullvik" />
		<tag k="place" v="farm" />
		<tag k="ssr:stedsnr" v="157608" />
	</node>
	<node id="9886705669" lat="67.8115346" lon="15.7470318" version="1" timestamp="2022-07-14T08:03:12Z" changeset="123595551" uid="3497659" user="NKA">
		<tag k="name" v="Nygård" />
		<tag k="place" v="farm" />
		<tag k="ssr:stedsnr" v="541540" />
	</node>
	<node id="9886705670" lat="67.9179372" lon="15.5486284" version="1" timestamp="2022-07-14T08:03:12Z" changeset="123595551" uid="3497659" user="NKA">
		<tag k="name" v="Nygård" />
		<tag k="place" v="farm" />
		<tag k="ssr:stedsnr" v="562564" />
	</node>
	<node id="9886705671" lat="67.8094959" lon="15.7504558" version="1" timestamp="2022-07-14T08:03:12Z" changeset="123595551" uid="3497659" user="NKA">
		<tag k="name" v="Åsheim" />
		<tag k="place" v="farm" />
		<tag k="ssr:stedsnr" v="420554" />
	</node>
	<node id="9886705672" lat="67.7365306" lon="14.7855473" version="1" timestamp="2022-07-14T08:03:12Z" changeset="123595551" uid="3497659" user="NKA">
		<tag k="name" v="Myran" />
		<tag k="place" v="neighbourhood" />
		<tag k="ssr:stedsnr" v="825638" />
	</node>
	<node id="9886705673" lat="67.811062" lon="15.7425647" version="1" timestamp="2022-07-14T08:03:12Z" changeset="123595551" uid="3497659" user="NKA">
		<tag k="name" v="Kjellbakk" />
		<tag k="place" v="isolated_dwelling" />
		<tag k="ssr:stedsnr" v="541533" />
	</node>
	<node id="9886705674" lat="67.79785" lon="15.6405777" version="1" timestamp="2022-07-14T08:03:12Z" changeset="123595551" uid="3497659" user="NKA">
		<tag k="name" v="Røyrnes" />
		<tag k="place" v="farm" />
		<tag k="ssr:stedsnr" v="77699" />
	</node>
	<node id="9886705675" lat="67.867817" lon="14.998169" version="1" timestamp="2022-07-14T08:03:12Z" changeset="123595551" uid="3497659" user="NKA">
		<tag k="alt_name" v="Finnvik" />
		<tag k="name" v="Finnvika" />
		<tag k="place" v="farm" />
		<tag k="ssr:stedsnr" v="806861" />
	</node>
	<node id="9886705676" lat="67.7276555" lon="14.7701889" version="1" timestamp="2022-07-14T08:03:12Z" changeset="123595551" uid="3497659" user="NKA">
		<tag k="name" v="Neset" />
		<tag k="place" v="neighbourhood" />
		<tag k="ssr:stedsnr" v="582530" />
	</node>
	<node id="9886705677" lat="67.7236314" lon="14.8868971" version="1" timestamp="2022-07-14T08:03:12Z" changeset="123595551" uid="3497659" user="NKA">
		<tag k="alt_name" v="Brennvik" />
		<tag k="name" v="Brennvika" />
		<tag k="place" v="hamlet" />
		<tag k="ssr:stedsnr" v="138223" />
	</node>
	<node id="9886705678" lat="67.8654195" lon="14.9784056" version="1" timestamp="2022-07-14T08:03:12Z" changeset="123595551" uid="3497659" user="NKA">
		<tag k="name" v="Laupbakk" />
		<tag k="place" v="farm" />
		<tag k="ssr:stedsnr" v="238682" />
	</node>
	<node id="9886705679" lat="67.7904094" lon="15.0037113" version="1" timestamp="2022-07-14T08:03:12Z" changeset="123595551" uid="3497659" user="NKA">
		<tag k="name" v="Osmo" />
		<tag k="place" v="farm" />
		<tag k="ssr:stedsnr" v="400524" />
	</node>
	<node id="9886705680" lat="67.8105249" lon="14.7915094" version="1" timestamp="2022-07-14T08:03:12Z" changeset="123595551" uid="3497659" user="NKA">
		<tag k="name" v="Sørskot" />
		<tag k="place" v="hamlet" />
		<tag k="ssr:stedsnr" v="381189" />
	</node>
	<node id="9886705681" lat="67.7308043" lon="14.5950415" version="1" timestamp="2022-07-14T08:03:12Z" changeset="123595551" uid="3497659" user="NKA">
		<tag k="name" v="Husøya" />
		<tag k="place" v="locality" />
		<tag k="ssr:stedsnr" v="1076248" />
	</node>
	<node id="9886705682" lat="67.6720243" lon="14.9573144" version="1" timestamp="2022-07-14T08:03:12Z" changeset="123595551" uid="3497659" user="NKA">
		<tag k="alt_name" v="Vikan indre" />
		<tag k="name" v="Vikan" />
		<tag k="place" v="hamlet" />
		<tag k="ssr:stedsnr" v="927807" />
	</node>
	<node id="9886705683" lat="67.6777306" lon="14.9767305" version="1" timestamp="2022-07-14T08:03:12Z" changeset="123595551" uid="3497659" user="NKA">
		<tag k="name" v="Vollen" />
		<tag k="place" v="farm" />
		<tag k="ssr:stedsnr" v="16786" />
	</node>
	<node id="9886705684" lat="67.6651219" lon="14.9318439" version="1" timestamp="2022-07-14T08:03:12Z" changeset="123595551" uid="3497659" user="NKA">
		<tag k="alt_name" v="Elvemoen" />
		<tag k="name" v="Elvmoen" />
		<tag k="place" v="farm" />
		<tag k="ssr:stedsnr" v="359534" />
	</node>
	<node id="9886705685" lat="67.7387968" lon="14.8419614" version="1" timestamp="2022-07-14T08:03:12Z" changeset="123595551" uid="3497659" user="NKA">
		<tag k="alt_name" v="Steinsvika" />
		<tag k="name" v="Steinsvik" />
		<tag k="place" v="farm" />
		<tag k="ssr:stedsnr" v="259175" />
	</node>
	<node id="9886705686" lat="67.6783943" lon="14.996212" version="1" timestamp="2022-07-14T08:03:12Z" changeset="123595551" uid="3497659" user="NKA">
		<tag k="name" v="Stien" />
		<tag k="place" v="farm" />
		<tag k="ssr:stedsnr" v="1074946" />
	</node>
	<node id="9886705687" lat="67.7194042" lon="14.8926583" version="1" timestamp="2022-07-14T08:03:12Z" changeset="123595551" uid="3497659" user="NKA">
		<tag k="name" v="Leitet" />
		<tag k="place" v="locality" />
		<tag k="ssr:stedsnr" v="359541" />
	</node>
	<node id="9886705688" lat="67.7902111" lon="14.9810583" version="1" timestamp="2022-07-14T08:03:12Z" changeset="123595551" uid="3497659" user="NKA">
		<tag k="name" v="Nyborg" />
		<tag k="place" v="farm" />
		<tag k="ssr:stedsnr" v="279522" />
	</node>
	<node id="9886705689" lat="67.8131889" lon="14.7819973" version="1" timestamp="2022-07-14T08:03:12Z" changeset="123595551" uid="3497659" user="NKA">
		<tag k="name" v="Ytre Sørskot" />
		<tag k="place" v="farm" />
		<tag k="ssr:stedsnr" v="177580" />
	</node>
	<node id="9886705690" lat="67.8649256" lon="14.9422389" version="1" timestamp="2022-07-14T08:03:12Z" changeset="123595551" uid="3497659" user="NKA">
		<tag k="alt_name" v="Hasselbakk" />
		<tag k="name" v="Hasselbakken" />
		<tag k="place" v="farm" />
		<tag k="ssr:stedsnr" v="299607" />
	</node>
	<node id="9886705691" lat="67.6791683" lon="14.997734" version="1" timestamp="2022-07-14T08:03:12Z" changeset="123595551" uid="3497659" user="NKA">
		<tag k="name" v="Flekkos" />
		<tag k="place" v="hamlet" />
		<tag k="ssr:stedsnr" v="346261" />
	</node>
	<node id="9886705692" lat="67.89179" lon="15.2793037" version="1" timestamp="2022-07-14T08:03:12Z" changeset="123595551" uid="3497659" user="NKA">
		<tag k="alt_name" v="Stensland" />
		<tag k="name" v="Steinsland" />
		<tag k="place" v="hamlet" />
		<tag k="ssr:stedsnr" v="441538" />
	</node>
	<node id="9886705693" lat="67.7644833" lon="15.2248445" version="1" timestamp="2022-07-14T08:03:12Z" changeset="123595551" uid="3497659" user="NKA">
		<tag k="name" v="Øvergården" />
		<tag k="place" v="neighbourhood" />
		<tag k="ssr:stedsnr" v="582787" />
	</node>
	<node id="9886705694" lat="67.7628278" lon="15.2290417" version="1" timestamp="2022-07-14T08:03:12Z" changeset="123595551" uid="3497659" user="NKA">
		<tag k="name" v="Elvegård" />
		<tag k="place" v="neighbourhood" />
		<tag k="ssr:stedsnr" v="582789" />
	</node>
	<node id="9886705695" lat="67.8164944" lon="15.4261027" version="1" timestamp="2022-07-14T08:03:12Z" changeset="123595551" uid="3497659" user="NKA">
		<tag k="name" v="Skaøyra" />
		<tag k="place" v="farm" />
		<tag k="ssr:stedsnr" v="867758" />
	</node>
	<node id="9886705696" lat="67.8356262" lon="15.1575188" version="1" timestamp="2022-07-14T08:03:12Z" changeset="123595551" uid="3497659" user="NKA">
		<tag k="name" v="Fossheim" />
		<tag k="place" v="farm" />
		<tag k="ssr:stedsnr" v="866741" />
	</node>
	<node id="9886705697" lat="67.8605223" lon="15.216925" version="1" timestamp="2022-07-14T08:03:12Z" changeset="123595551" uid="3497659" user="NKA">
		<tag k="name" v="Tranen" />
		<tag k="place" v="isolated_dwelling" />
		<tag k="ssr:stedsnr" v="339924" />
	</node>
	<node id="9886705698" lat="67.7543014" lon="15.1943944" version="1" timestamp="2022-07-14T08:03:12Z" changeset="123595551" uid="3497659" user="NKA">
		<tag k="name" v="Osbakk" />
		<tag k="place" v="farm" />
		<tag k="ssr:stedsnr" v="218903" />
	</node>
	<node id="9886705699" lat="67.7537824" lon="15.4205653" version="1" timestamp="2022-07-14T08:03:12Z" changeset="123595551" uid="3497659" user="NKA">
		<tag k="name" v="Hamnviken" />
		<tag k="place" v="isolated_dwelling" />
		<tag k="ssr:stedsnr" v="541384" />
	</node>
	<node id="9886705700" lat="67.7984417" lon="15.2988277" version="1" timestamp="2022-07-14T08:03:12Z" changeset="123595551" uid="3497659" user="NKA">
		<tag k="name" v="Nyvoll" />
		<tag k="place" v="farm" />
		<tag k="ssr:stedsnr" v="623729" />
	</node>
	<node id="9886705701" lat="67.7682317" lon="15.2483525" version="1" timestamp="2022-07-14T08:03:12Z" changeset="123595551" uid="3497659" user="NKA">
		<tag k="name" v="Hestvikneset" />
		<tag k="place" v="hamlet" />
		<tag k="ssr:stedsnr" v="866650" />
	</node>
	<node id="9886705702" lat="67.7535422" lon="15.4171388" version="1" timestamp="2022-07-14T08:03:12Z" changeset="123595551" uid="3497659" user="NKA">
		<tag k="name" v="Nyheim" />
		<tag k="place" v="isolated_dwelling" />
		<tag k="ssr:stedsnr" v="844350" />
	</node>
	<node id="9886705703" lat="67.7909111" lon="15.2172028" version="1" timestamp="2022-07-14T08:03:12Z" changeset="123595551" uid="3497659" user="NKA">
		<tag k="name" v="Grottheim" />
		<tag k="place" v="farm" />
		<tag k="ssr:stedsnr" v="177745" />
	</node>
	<node id="9886705704" lat="67.7743453" lon="15.1667226" version="1" timestamp="2022-07-14T08:03:12Z" changeset="123595551" uid="3497659" user="NKA">
		<tag k="name" v="Lilleeng" />
		<tag k="place" v="farm" />
		<tag k="ssr:stedsnr" v="177778" />
	</node>
	<node id="9886705705" lat="67.8028056" lon="15.3672416" version="1" timestamp="2022-07-14T08:03:12Z" changeset="123595551" uid="3497659" user="NKA">
		<tag k="name" v="Stevik" />
		<tag k="place" v="farm" />
		<tag k="ssr:stedsnr" v="298236" />
	</node>
	<node id="9886705706" lat="67.7893444" lon="15.3029027" version="1" timestamp="2022-07-14T08:03:12Z" changeset="123595551" uid="3497659" user="NKA">
		<tag k="alt_name" v="Kvalporen" />
		<tag k="name" v="Kvalsporen" />
		<tag k="place" v="farm" />
		<tag k="ssr:stedsnr" v="199707" />
	</node>
	<node id="9886705707" lat="67.8132916" lon="15.2704471" version="1" timestamp="2022-07-14T08:03:12Z" changeset="123595551" uid="3497659" user="NKA">
		<tag k="alt_name" v="Finnjord" />
		<tag k="name" v="Finnjorda" />
		<tag k="place" v="farm" />
		<tag k="ssr:stedsnr" v="138746" />
	</node>
	<node id="9886705708" lat="67.7918801" lon="15.2985105" version="1" timestamp="2022-07-14T08:03:12Z" changeset="123595551" uid="3497659" user="NKA">
		<tag k="name" v="Solhaug" />
		<tag k="place" v="farm" />
		<tag k="ssr:stedsnr" v="138709" />
	</node>
	<node id="9886705709" lat="67.7534839" lon="15.4283416" version="1" timestamp="2022-07-14T08:03:12Z" changeset="123595551" uid="3497659" user="NKA">
		<tag k="name" v="Fredly" />
		<tag k="place" v="isolated_dwelling" />
		<tag k="ssr:stedsnr" v="177372" />
	</node>
	<node id="9886705710" lat="67.7685606" lon="15.2496818" version="1" timestamp="2022-07-14T08:03:12Z" changeset="123595551" uid="3497659" user="NKA">
		<tag k="name" v="Hestvik" />
		<tag k="place" v="farm" />
		<tag k="ssr:stedsnr" v="103221" />
	</node>
	<node id="9886705711" lat="67.9297819" lon="15.2422943" version="1" timestamp="2022-07-14T08:03:12Z" changeset="123595551" uid="3497659" user="NKA">
		<tag k="name" v="Grønning" />
		<tag k="place" v="farm" />
		<tag k="ssr:stedsnr" v="320561" />
	</node>
	<node id="9886705712" lat="67.9148528" lon="15.3230888" version="1" timestamp="2022-07-14T08:03:12Z" changeset="123595551" uid="3497659" user="NKA">
		<tag k="name" v="Kveldro" />
		<tag k="place" v="farm" />
		<tag k="ssr:stedsnr" v="137528" />
	</node>
	<node id="9886705713" lat="67.8551986" lon="15.5191342" version="1" timestamp="2022-07-14T08:03:12Z" changeset="123595551" uid="3497659" user="NKA">
		<tag k="name" v="Storvasseidet" />
		<tag k="place" v="locality" />
		<tag k="ssr:stedsnr" v="1076368" />
	</node>
	<node id="9886705714" lat="67.9322231" lon="15.2327445" version="1" timestamp="2022-07-14T08:03:12Z" changeset="123595551" uid="3497659" user="NKA">
		<tag k="name" v="Nordre Røtnes" />
		<tag k="place" v="farm" />
		<tag k="ssr:stedsnr" v="1076271" />
	</node>
	<node id="9886705715" lat="67.9186667" lon="15.4083555" version="1" timestamp="2022-07-14T08:03:12Z" changeset="123595551" uid="3497659" user="NKA">
		<tag k="name" v="Sommarset" />
		<tag k="place" v="locality" />
		<tag k="ssr:stedsnr" v="884342" />
	</node>
	<node id="9886705716" lat="67.9145389" lon="15.3440666" version="1" timestamp="2022-07-14T08:03:12Z" changeset="123595551" uid="3497659" user="NKA">
		<tag k="name" v="Haugen" />
		<tag k="place" v="farm" />
		<tag k="ssr:stedsnr" v="866528" />
	</node>
	<node id="9886705717" lat="67.9118468" lon="15.3796167" version="1" timestamp="2022-07-14T08:03:12Z" changeset="123595551" uid="3497659" user="NKA">
		<tag k="name" v="Høydal" />
		<tag k="place" v="farm" />
		<tag k="ssr:stedsnr" v="866533" />
	</node>
	<node id="9886705718" lat="67.9075484" lon="15.5213598" version="1" timestamp="2022-07-14T08:03:12Z" changeset="123595551" uid="3497659" user="NKA">
		<tag k="name" v="Straumfjordvatnet" />
		<tag k="place" v="farm" />
		<tag k="ssr:stedsnr" v="866512" />
	</node>
	<node id="9886705719" lat="67.8731694" lon="15.1972721" version="1" timestamp="2022-07-14T08:03:12Z" changeset="123595551" uid="3497659" user="NKA">
		<tag k="name" v="Furemo" />
		<tag k="place" v="locality" />
		<tag k="ssr:stedsnr" v="884013" />
	</node>
	<node id="9886705720" lat="67.8696361" lon="15.2406862" version="1" timestamp="2022-07-14T08:03:12Z" changeset="123595551" uid="3497659" user="NKA">
		<tag k="name" v="Nordmarka" />
		<tag k="place" v="farm" />
		<tag k="ssr:stedsnr" v="806499" />
	</node>
	<node id="9886705721" lat="67.855025" lon="15.444875" version="1" timestamp="2022-07-14T08:03:12Z" changeset="123595551" uid="3497659" user="NKA">
		<tag k="name" v="Lommeren" />
		<tag k="place" v="hamlet" />
		<tag k="ssr:stedsnr" v="562499" />
	</node>
	<node id="9886705722" lat="67.8838218" lon="15.2419152" version="1" timestamp="2022-07-14T08:03:12Z" changeset="123595551" uid="3497659" user="NKA">
		<tag k="alt_name" v="Vindsnes" />
		<tag k="name" v="Vinsnes" />
		<tag k="place" v="hamlet" />
		<tag k="ssr:stedsnr" v="562528" />
	</node>
	<node id="9886705723" lat="67.9252829" lon="15.195859" version="1" timestamp="2022-07-14T08:03:12Z" changeset="123595551" uid="3497659" user="NKA">
		<tag k="name" v="Nyhaug" />
		<tag k="place" v="farm" />
		<tag k="ssr:stedsnr" v="704725" />
	</node>
	<node id="9886705724" lat="67.9302678" lon="15.4600638" version="1" timestamp="2022-07-14T08:03:12Z" changeset="123595551" uid="3497659" user="NKA">
		<tag k="alt_name" v="Skramstad" />
		<tag k="name" v="Skranstad" />
		<tag k="place" v="hamlet" />
		<tag k="ssr:stedsnr" v="359308" />
	</node>
	<node id="9886705725" lat="67.8961972" lon="15.2811972" version="1" timestamp="2022-07-14T08:03:12Z" changeset="123595551" uid="3497659" user="NKA">
		<tag k="name" v="Åkerneset" />
		<tag k="place" v="farm" />
		<tag k="ssr:stedsnr" v="259518" />
	</node>
	<node id="9886705726" lat="67.8868694" lon="15.2518279" version="1" timestamp="2022-07-14T08:03:12Z" changeset="123595551" uid="3497659" user="NKA">
		<tag k="alt_name" v="Moen;Steinslandsmoen" />
		<tag k="name" v="Stenslandsmoen" />
		<tag k="place" v="farm" />
		<tag k="ssr:stedsnr" v="562525" />
	</node>
	<node id="9886705727" lat="67.9192284" lon="15.1732293" version="1" timestamp="2022-07-14T08:03:12Z" changeset="123595551" uid="3497659" user="NKA">
		<tag k="name" v="Ålstad" />
		<tag k="place" v="hamlet" />
		<tag k="ssr:stedsnr" v="260172" />
	</node>
	<node id="9886705728" lat="67.9200176" lon="15.1957869" version="1" timestamp="2022-07-14T08:03:12Z" changeset="123595551" uid="3497659" user="NKA">
		<tag k="name" v="Opphaug" />
		<tag k="place" v="farm" />
		<tag k="ssr:stedsnr" v="157605" />
	</node>
	<node id="4401003532" lat="67.9017923" lon="15.1834359" version="2" timestamp="2020-12-24T02:23:04Z" changeset="96352980" uid="32112" user="SverigeFan" />
	<node id="4401003550" lat="67.9020392" lon="15.1832164" version="2" timestamp="2022-05-18T16:25:07Z" changeset="121155694" uid="3497659" user="NKA">
		<tag k="bridge:support" v="pier" />
	</node>
	<node id="4401003580" lat="67.9022997" lon="15.1829828" version="2" timestamp="2022-05-18T16:25:07Z" changeset="121155694" uid="3497659" user="NKA">
		<tag k="bridge:support" v="pier" />
	</node>
	<node id="4401003607" lat="67.9025536" lon="15.1827623" version="2" timestamp="2022-05-18T16:25:07Z" changeset="121155694" uid="3497659" user="NKA">
		<tag k="bridge:support" v="pier" />
	</node>
	<node id="4401003629" lat="67.9028002" lon="15.1825538" version="3" timestamp="2021-12-18T15:20:32Z" changeset="115100001" uid="32112" user="SverigeFan">
		<tag k="bridge:support" v="pier" />
	</node>
	<node id="4401003641" lat="67.9030553" lon="15.1823248" version="3" timestamp="2021-12-18T15:20:32Z" changeset="115100001" uid="32112" user="SverigeFan">
		<tag k="bridge:support" v="pier" />
	</node>
	<node id="4401003653" lat="67.903317" lon="15.1821004" version="3" timestamp="2021-12-18T15:20:32Z" changeset="115100001" uid="32112" user="SverigeFan">
		<tag k="bridge:support" v="pier" />
	</node>
	<node id="4401003658" lat="67.9035679" lon="15.1818723" version="3" timestamp="2021-12-18T15:20:32Z" changeset="115100001" uid="32112" user="SverigeFan">
		<tag k="bridge:support" v="pier" />
	</node>
	<node id="4401003661" lat="67.9040385" lon="15.1814646" version="3" timestamp="2021-12-18T15:20:32Z" changeset="115100001" uid="32112" user="SverigeFan">
		<tag k="bridge:support" v="pier" />
	</node>
	<node id="4401003665" lat="67.9044797" lon="15.1810785" version="2" timestamp="2020-12-24T02:23:04Z" changeset="96352980" uid="32112" user="SverigeFan">
		<tag k="highway" v="passing_place" />
	</node>
	<node id="4401003674" lat="67.9049773" lon="15.1806573" version="3" timestamp="2021-12-18T15:20:32Z" changeset="115100001" uid="32112" user="SverigeFan">
		<tag k="bridge:support" v="pier" />
	</node>
	<node id="4401003675" lat="67.9051546" lon="15.1805033" version="2" timestamp="2020-12-24T02:23:04Z" changeset="96352980" uid="32112" user="SverigeFan" />
	<node id="4401003676" lat="67.9052782" lon="15.1804051" version="2" timestamp="2020-12-24T02:23:04Z" changeset="96352980" uid="32112" user="SverigeFan" />
	<node id="4401003677" lat="67.9053889" lon="15.1803354" version="2" timestamp="2020-12-24T02:23:04Z" changeset="96352980" uid="32112" user="SverigeFan" />
	<node id="4401003678" lat="67.9055597" lon="15.1802691" version="2" timestamp="2020-12-24T02:23:04Z" changeset="96352980" uid="32112" user="SverigeFan" />
	<node id="4401003679" lat="67.9056703" lon="15.1802529" version="2" timestamp="2020-12-24T02:23:04Z" changeset="96352980" uid="32112" user="SverigeFan" />
	<node id="4401003680" lat="67.9057977" lon="15.1802559" version="2" timestamp="2020-12-24T02:23:04Z" changeset="96352980" uid="32112" user="SverigeFan" />
	<node id="4401003681" lat="67.905897" lon="15.1802803" version="1" timestamp="2016-09-14T10:53:47Z" changeset="42146446" uid="2115582" user="Tractor_import" />
	<node id="4401003682" lat="67.9059977" lon="15.1803106" version="2" timestamp="2021-12-18T15:20:32Z" changeset="115100001" uid="32112" user="SverigeFan">
		<tag k="bridge:support" v="pier" />
	</node>
	<node id="4401003683" lat="67.9060623" lon="15.1803315" version="2" timestamp="2020-12-24T02:23:04Z" changeset="96352980" uid="32112" user="SverigeFan" />
	<node id="4401003684" lat="67.9061179" lon="15.1803623" version="2" timestamp="2020-12-24T02:23:04Z" changeset="96352980" uid="32112" user="SverigeFan" />
	<node id="4401003685" lat="67.906178" lon="15.1803956" version="2" timestamp="2020-12-24T02:23:04Z" changeset="96352980" uid="32112" user="SverigeFan" />
	<node id="4401003686" lat="67.9062656" lon="15.180465" version="3" timestamp="2021-12-18T15:20:32Z" changeset="115100001" uid="32112" user="SverigeFan">
		<tag k="bridge:support" v="pier" />
	</node>
	<node id="4401003687" lat="67.9063433" lon="15.1805306" version="1" timestamp="2016-09-14T10:53:47Z" changeset="42146446" uid="2115582" user="Tractor_import" />
	<node id="4401003688" lat="67.906469" lon="15.1806678" version="1" timestamp="2016-09-14T10:53:47Z" changeset="42146446" uid="2115582" user="Tractor_import" />
	<node id="8256239640" lat="67.9057345" lon="15.1802529" version="2" timestamp="2021-12-18T15:20:32Z" changeset="115100001" uid="32112" user="SverigeFan">
		<tag k="bridge:support" v="pier" />
	</node>
	<node id="8256239641" lat="67.9054551" lon="15.1802985" version="2" timestamp="2021-12-18T15:20:32Z" changeset="115100001" uid="32112" user="SverigeFan">
		<tag k="bridge:support" v="pier" />
	</node>
	<way id="442412960" version="6" timestamp="2022-07-20T09:59:12Z" changeset="123843285" uid="715936" user="Gazer75">
		<tag k="alt_name" v="Engeløy bru" />
		<tag k="bridge" v="yes" />
		<tag k="bridge:description" v="Engeløybru Høybru" />
		<tag k="bridge:structure" v="beam" />
		<tag k="highway" v="primary" />
		<tag k="lane_markings" v="no" />
		<tag k="layer" v="1" />
		<tag k="maxspeed" v="80" />
		<tag k="name" v="Engeløybrua" />
		<tag k="ref" v="835" />
		<tag k="ssr:stedsnr" v="563875" />
		<tag k="surface" v="asphalt" />
		<tag k="wikidata" v="Q1776733" />
		<nd ref="4401003532" />
		<nd ref="4401003550" />
		<nd ref="4401003580" />
		<nd ref="4401003607" />
		<nd ref="4401003629" />
		<nd ref="4401003641" />
		<nd ref="4401003653" />
		<nd ref="4401003658" />
		<nd ref="4401003661" />
		<nd ref="4401003665" />
		<nd ref="4401003674" />
		<nd ref="4401003675" />
		<nd ref="4401003676" />
		<nd ref="4401003677" />
		<nd ref="8256239641" />
		<nd ref="4401003678" />
		<nd ref="4401003679" />
		<nd ref="8256239640" />
		<nd ref="4401003680" />
		<nd ref="4401003681" />
		<nd ref="4401003682" />
		<nd ref="4401003683" />
		<nd ref="4401003684" />
		<nd ref="4401003685" />
		<nd ref="4401003686" />
		<nd ref="4401003687" />
		<nd ref="4401003688" />
	</way>
</osm>
