<?xml version="1.0" encoding="UTF-8"?>
<osm generator="osmapis" version="0.6">
	<node id="-57079" lat="60.5908609473" lon="9.63819281559">
		<tag k="fixme" v="multiple name tags, choose one and add the other to alt_name" />
		<tag k="name" v="Austlandet;Østlandet" />
		<tag k="ssr:date" v="2018-01-09" />
		<tag k="ssr:gruppe" v="administrativeIndelinger" />
		<tag k="ssr:hovedgruppe" v="offentligAdministrasjon" />
		<tag k="ssr:stedsnr" v="974775" />
		<tag k="ssr:type" v="annenAdministrativInndeling" />
	</node>
	<node id="-56145" lat="60.9557127254" lon="11.2947135866">
		<tag k="name" v="Møssmørlia" />
		<tag k="ssr:date" v="2019-05-30" />
		<tag k="ssr:gruppe" v="veg" />
		<tag k="ssr:hovedgruppe" v="infrastruktur" />
		<tag k="ssr:stedsnr" v="1007646" />
		<tag k="ssr:type" v="adressenavn" />
	</node>
	<node id="-56144" lat="60.9524944938" lon="11.2893860549">
		<tag k="name" v="Pultostvegen" />
		<tag k="ssr:date" v="2019-05-30" />
		<tag k="ssr:gruppe" v="veg" />
		<tag k="ssr:hovedgruppe" v="infrastruktur" />
		<tag k="ssr:stedsnr" v="1007645" />
		<tag k="ssr:type" v="adressenavn" />
	</node>
	<node id="-56143" lat="60.817700744" lon="11.3423457406">
		<tag k="name" v="Mary Westlies veg" />
		<tag k="ssr:date" v="2019-05-30" />
		<tag k="ssr:gruppe" v="veg" />
		<tag k="ssr:hovedgruppe" v="infrastruktur" />
		<tag k="ssr:stedsnr" v="1007586" />
		<tag k="ssr:type" v="adressenavn" />
	</node>
	<node id="-56908" lat="60.8177027795" lon="11.3437277859">
		<tag k="name" v="Løten kommune" />
		<tag k="ssr:date" v="2016-05-11" />
		<tag k="ssr:gruppe" v="administrativeIndelinger" />
		<tag k="ssr:hovedgruppe" v="offentligAdministrasjon" />
		<tag k="ssr:stedsnr" v="814001" />
		<tag k="ssr:type" v="kommune" />
	</node>
	<node id="-56069" lat="60.8011916693" lon="11.2805666588">
		<tag k="name" v="Hedmarken" />
		<tag k="ssr:date" v="2016-05-10" />
		<tag k="ssr:gruppe" v="terrengområder" />
		<tag k="ssr:hovedgruppe" v="terreng" />
		<tag k="ssr:stedsnr" v="384450" />
		<tag k="ssr:type" v="landskapsområde" />
	</node>
</osm>
