<?xml version="1.0" encoding="UTF-8"?>
<osm generator="osmapis" version="0.6">
	<node id="-720511" lat="69.1041805591" lon="15.5789249958">
		<tag k="name" v="Børvågen, Øvre" />
		<tag k="ssr:date" v="2016-05-11" />
		<tag k="ssr:gruppe" v="navigasjon" />
		<tag k="ssr:hovedgruppe" v="infrastruktur" />
		<tag k="ssr:stedsnr" v="746252" />
		<tag k="ssr:type" v="fyrlykt" />
	</node>
	<node id="-720510" lat="69.2690666665" lon="15.9287249874">
		<tag k="name" v="Storslettneset" />
		<tag k="ssr:date" v="2016-05-11" />
		<tag k="ssr:gruppe" v="navigasjon" />
		<tag k="ssr:hovedgruppe" v="infrastruktur" />
		<tag k="ssr:stedsnr" v="746228" />
		<tag k="ssr:type" v="fyrlykt" />
	</node>
	<node id="-719348" lat="69.3254499968" lon="16.0632083344">
		<tag k="name" v="Moholmen" />
		<tag k="ssr:date" v="2016-05-10" />
		<tag k="ssr:gruppe" v="navigasjon" />
		<tag k="ssr:hovedgruppe" v="infrastruktur" />
		<tag k="ssr:stedsnr" v="139170" />
		<tag k="ssr:type" v="fyrlykt" />
	</node>
	<node id="-718703" lat="69.1608499975" lon="16.0979083198">
		<tag k="name" v="Skaften" />
		<tag k="ssr:date" v="2016-05-10" />
		<tag k="ssr:gruppe" v="navigasjon" />
		<tag k="ssr:hovedgruppe" v="infrastruktur" />
		<tag k="ssr:stedsnr" v="321134" />
		<tag k="ssr:type" v="fyrlykt" />
	</node>
	<node id="-719075" lat="69.3170194481" lon="16.1269111097">
		<tag k="name" v="Andøy kommune" />
		<tag k="ssr:date" v="2016-05-10" />
		<tag k="ssr:gruppe" v="administrativeIndelinger" />
		<tag k="ssr:hovedgruppe" v="offentligAdministrasjon" />
		<tag k="ssr:stedsnr" v="26479" />
		<tag k="ssr:type" v="kommune" />
	</node>
	<node id="-719074" lat="69.2863861153" lon="16.1790833228">
		<tag k="name" v="Haugnes" />
		<tag k="ssr:date" v="2016-05-10" />
		<tag k="ssr:gruppe" v="navigasjon" />
		<tag k="ssr:hovedgruppe" v="infrastruktur" />
		<tag k="ssr:stedsnr" v="25908" />
		<tag k="ssr:type" v="fyrlykt" />
	</node>
	<node id="-718802" lat="68.9787166644" lon="15.7765555537">
		<tag k="name" v="Flesaflaket" />
		<tag k="ssr:date" v="2016-05-10" />
		<tag k="ssr:gruppe" v="navigasjon" />
		<tag k="ssr:hovedgruppe" v="infrastruktur" />
		<tag k="ssr:stedsnr" v="357884" />
		<tag k="ssr:type" v="lanterne" />
	</node>
	<node id="-719569" lat="69.2762611132" lon="15.948736102">
		<tag k="name" v="Bleik molo" />
		<tag k="ssr:date" v="2016-05-10" />
		<tag k="ssr:gruppe" v="navigasjon" />
		<tag k="ssr:hovedgruppe" v="infrastruktur" />
		<tag k="ssr:stedsnr" v="220579" />
		<tag k="ssr:type" v="fyrlykt" />
	</node>
	<node id="-720839" lat="69.1047472235" lon="15.567938885">
		<tag k="name" v="Børhella" />
		<tag k="ssr:date" v="2016-05-11" />
		<tag k="ssr:gruppe" v="navigasjon" />
		<tag k="ssr:hovedgruppe" v="infrastruktur" />
		<tag k="ssr:stedsnr" v="904909" />
		<tag k="ssr:type" v="fyrlykt" />
	</node>
	<node id="-719685" lat="69.1051499966" lon="15.567874989">
		<tag k="name" v="Børvågen, Nedre" />
		<tag k="ssr:date" v="2016-05-10" />
		<tag k="ssr:gruppe" v="navigasjon" />
		<tag k="ssr:hovedgruppe" v="infrastruktur" />
		<tag k="ssr:stedsnr" v="261252" />
		<tag k="ssr:type" v="fyrlykt" />
	</node>
	<node id="-720963" lat="69.1080944418" lon="15.9725777832">
		<tag k="name" v="Dverberg" />
		<tag k="ssr:date" v="2016-05-11" />
		<tag k="ssr:gruppe" v="navigasjon" />
		<tag k="ssr:hovedgruppe" v="infrastruktur" />
		<tag k="ssr:stedsnr" v="947839" />
		<tag k="ssr:type" v="fyrlykt" />
	</node>
	<node id="-719161" lat="69.3279638862" lon="16.1515472225">
		<tag k="name" v="Børingan lykt" />
		<tag k="ssr:date" v="2016-05-10" />
		<tag k="ssr:gruppe" v="navigasjon" />
		<tag k="ssr:hovedgruppe" v="infrastruktur" />
		<tag k="ssr:stedsnr" v="58813" />
		<tag k="ssr:type" v="fyrlykt" />
	</node>
	<node id="-719671" lat="68.9009277756" lon="15.4161749943">
		<tag k="name" v="Store Sandnes" />
		<tag k="old_name" v="Sandnes" />
		<tag k="ssr:date" v="2016-05-10" />
		<tag k="ssr:gruppe" v="navigasjon" />
		<tag k="ssr:hovedgruppe" v="infrastruktur" />
		<tag k="ssr:stedsnr" v="260740" />
		<tag k="ssr:type" v="fyrlykt" />
	</node>
	<node id="-719536" lat="69.3239833341" lon="16.1159277662">
		<tag k="name" v="Andenes" />
		<tag k="old_name" v="Andenes fyr" />
		<tag k="ssr:date" v="2016-05-10" />
		<tag k="ssr:gruppe" v="navigasjon" />
		<tag k="ssr:hovedgruppe" v="infrastruktur" />
		<tag k="ssr:stedsnr" v="207446" />
		<tag k="ssr:type" v="fyrstasjon" />
	</node>
	<node id="-720136" lat="69.3265166679" lon="16.1493888791">
		<tag k="name" v="Børingan molo" />
		<tag k="ssr:date" v="2016-05-10" />
		<tag k="ssr:gruppe" v="navigasjon" />
		<tag k="ssr:hovedgruppe" v="infrastruktur" />
		<tag k="ssr:stedsnr" v="588424" />
		<tag k="ssr:type" v="fyrlykt" />
	</node>
	<node id="-719149" lat="69.1427472245" lon="15.6751388823">
		<tag k="name" v="Nordmela molo" />
		<tag k="ssr:date" v="2016-05-10" />
		<tag k="ssr:gruppe" v="navigasjon" />
		<tag k="ssr:hovedgruppe" v="infrastruktur" />
		<tag k="ssr:stedsnr" v="47803" />
		<tag k="ssr:type" v="fyrlykt" />
	</node>
	<node id="-719012" lat="69.1379722217" lon="15.6715694335">
		<tag k="name" v="Sjåberget" />
		<tag k="ssr:date" v="2016-05-11" />
		<tag k="ssr:gruppe" v="navigasjon" />
		<tag k="ssr:hovedgruppe" v="infrastruktur" />
		<tag k="ssr:stedsnr" v="897338" />
		<tag k="ssr:type" v="fyrlykt" />
	</node>
	<node id="-720412" lat="69.327700002" lon="16.1196222163">
		<tag k="name" v="Andenes hamn" />
		<tag k="ssr:date" v="2016-05-11" />
		<tag k="ssr:gruppe" v="navigasjon" />
		<tag k="ssr:hovedgruppe" v="infrastruktur" />
		<tag k="ssr:stedsnr" v="706758" />
		<tag k="ssr:type" v="fyrlykt" />
	</node>
	<node id="-719121" lat="68.9525694444" lon="15.6199138763">
		<tag k="name" v="Øygårdsneset" />
		<tag k="ssr:date" v="2016-05-10" />
		<tag k="ssr:gruppe" v="navigasjon" />
		<tag k="ssr:hovedgruppe" v="infrastruktur" />
		<tag k="ssr:stedsnr" v="37863" />
		<tag k="ssr:type" v="fyrlykt" />
	</node>
	<node id="-718989" lat="69.334513885" lon="16.1002694374">
		<tag k="name" v="Ytre Senholmbåen" />
		<tag k="ssr:date" v="2016-05-11" />
		<tag k="ssr:gruppe" v="navigasjon" />
		<tag k="ssr:hovedgruppe" v="infrastruktur" />
		<tag k="ssr:stedsnr" v="888517" />
		<tag k="ssr:type" v="fyrlykt" />
	</node>
	<node id="-718731" lat="69.2790166662" lon="15.9203749975">
		<tag k="name" v="Nattmålskjær" />
		<tag k="old_name" v="Nattmålskjer" />
		<tag k="ssr:date" v="2016-05-10" />
		<tag k="ssr:gruppe" v="navigasjon" />
		<tag k="ssr:hovedgruppe" v="infrastruktur" />
		<tag k="ssr:stedsnr" v="322118" />
		<tag k="ssr:type" v="fyrlykt" />
	</node>
	<node id="-720649" lat="68.9764166702" lon="15.4309027731">
		<tag k="name" v="Åknes" />
		<tag k="ssr:date" v="2016-05-11" />
		<tag k="ssr:gruppe" v="navigasjon" />
		<tag k="ssr:hovedgruppe" v="infrastruktur" />
		<tag k="ssr:stedsnr" v="806621" />
		<tag k="ssr:type" v="fyrlykt" />
	</node>
	<node id="-719624" lat="69.3302944464" lon="16.1370222321">
		<tag k="name" v="Grindsteinløkta" />
		<tag k="ssr:date" v="2016-05-10" />
		<tag k="ssr:gruppe" v="navigasjon" />
		<tag k="ssr:hovedgruppe" v="infrastruktur" />
		<tag k="ssr:stedsnr" v="240817" />
		<tag k="ssr:type" v="fyrlykt" />
	</node>
	<node id="-719751" lat="68.9710750037" lon="15.7359861007">
		<tag k="name" v="Lovik" />
		<tag k="ssr:date" v="2016-05-10" />
		<tag k="ssr:gruppe" v="navigasjon" />
		<tag k="ssr:hovedgruppe" v="infrastruktur" />
		<tag k="ssr:stedsnr" v="442397" />
		<tag k="ssr:type" v="fyrlykt" />
	</node>
	<node id="-721029" lat="68.4849327361" lon="16.2297866207">
		<tag k="fixme" v="multiple name tags, choose one and add the other to alt_name" />
		<tag k="name" v="Nord-Noreg;Nord-Norge" />
		<tag k="ssr:date" v="2017-05-18" />
		<tag k="ssr:gruppe" v="administrativeIndelinger" />
		<tag k="ssr:hovedgruppe" v="offentligAdministrasjon" />
		<tag k="ssr:stedsnr" v="976106" />
		<tag k="ssr:type" v="annenAdministrativInndeling" />
	</node>
</osm>
