<?xml version="1.0" encoding="UTF-8"?>
<<<<<<< HEAD
<osm version="0.6" generator="osmapis">
	<node lat="59.70190555714932" lon="10.923388886075552" id="-19777">
		<tag k="name" v="Follo" />
		<tag k="ssr:date" v="2019-12-27" />
		<tag k="ssr:gruppe" v="terrengområder" />
		<tag k="ssr:hovedgruppe" v="terreng" />
		<tag k="ssr:stedsnr" v="267868" />
		<tag k="ssr:type" v="landskapsområde" />
	</node>
	<node lat="59.764513884576125" lon="11.144922222869443" id="-20017">
		<tag k="name" v="Enebakk kommune" />
		<tag k="ssr:date" v="2019-12-27" />
		<tag k="ssr:gruppe" v="administrativeIndelinger" />
		<tag k="ssr:hovedgruppe" v="offentligAdministrasjon" />
		<tag k="ssr:stedsnr" v="630816" />
		<tag k="ssr:type" v="kommune" />
	</node>
	<node lat="59.72189722207417" lon="10.873375006122021" id="-20076">
		<tag k="name" v="Nordre Follo prosti" />
		<tag k="ssr:date" v="2021-06-08" />
=======
<osm generator="osmapis" version="0.6">
	<node id="-256446" lat="59.9116896876" lon="10.7581882267">
		<tag k="name" v="Viken fylke" />
		<tag k="ssr:date" v="2020-01-13" />
>>>>>>> e1d4bc35ff8a6074a6f2e91616a996b547c36f15
		<tag k="ssr:gruppe" v="administrativeIndelinger" />
		<tag k="ssr:hovedgruppe" v="offentligAdministrasjon" />
		<tag k="ssr:stedsnr" v="785412" />
		<tag k="ssr:type" v="annenAdministrativInndeling" />
	</node>
<<<<<<< HEAD
	<node lat="59.735783994342576" lon="11.040722178706401" id="-20661">
		<tag k="name" v="Hakkespettveien" />
		<tag k="ssr:date" v="2021-01-19" />
=======
	<node id="-256445" lat="59.7072038413" lon="11.0989757017">
		<tag k="name" v="Lyserbråtenveien" />
		<tag k="ssr:date" v="2019-12-27" />
>>>>>>> e1d4bc35ff8a6074a6f2e91616a996b547c36f15
		<tag k="ssr:gruppe" v="veg" />
		<tag k="ssr:hovedgruppe" v="infrastruktur" />
		<tag k="ssr:stedsnr" v="981592" />
		<tag k="ssr:type" v="adressenavn" />
	</node>
<<<<<<< HEAD
	<node lat="59.737742370974466" lon="11.036008280586492" id="-20662">
		<tag k="name" v="Knerotveien" />
		<tag k="ssr:date" v="2021-01-19" />
=======
	<node id="-256444" lat="59.7648089587" lon="10.9885556181">
		<tag k="name" v="Granittveien" />
		<tag k="ssr:date" v="2019-12-27" />
>>>>>>> e1d4bc35ff8a6074a6f2e91616a996b547c36f15
		<tag k="ssr:gruppe" v="veg" />
		<tag k="ssr:hovedgruppe" v="infrastruktur" />
		<tag k="ssr:stedsnr" v="981590" />
		<tag k="ssr:type" v="adressenavn" />
	</node>
<<<<<<< HEAD
	<node lat="59.73529377692586" lon="11.036297218478037" id="-20663">
=======
	<node id="-255515" lat="59.7019055571" lon="10.9233888861">
		<tag k="name" v="Follo" />
		<tag k="ssr:date" v="2019-12-27" />
		<tag k="ssr:gruppe" v="terrengområder" />
		<tag k="ssr:hovedgruppe" v="terreng" />
		<tag k="ssr:stedsnr" v="267868" />
		<tag k="ssr:type" v="landskapsområde" />
	</node>
	<node id="-256442" lat="59.7374878093" lon="11.0353951087">
>>>>>>> e1d4bc35ff8a6074a6f2e91616a996b547c36f15
		<tag k="name" v="Brinken" />
		<tag k="ssr:date" v="2021-01-19" />
		<tag k="ssr:gruppe" v="veg" />
		<tag k="ssr:hovedgruppe" v="infrastruktur" />
		<tag k="ssr:stedsnr" v="981591" />
		<tag k="ssr:type" v="adressenavn" />
	</node>
<<<<<<< HEAD
	<node lat="59.76480895872652" lon="10.988555618105647" id="-20664">
		<tag k="name" v="Granittveien" />
=======
	<node id="-256441" lat="59.7374121154" lon="11.0344830597">
		<tag k="name" v="Knerotveien" />
>>>>>>> e1d4bc35ff8a6074a6f2e91616a996b547c36f15
		<tag k="ssr:date" v="2019-12-27" />
		<tag k="ssr:gruppe" v="veg" />
		<tag k="ssr:hovedgruppe" v="infrastruktur" />
		<tag k="ssr:stedsnr" v="1071086" />
		<tag k="ssr:type" v="adressenavn" />
	</node>
<<<<<<< HEAD
	<node lat="59.70695632877137" lon="11.100648825275478" id="-20665">
		<tag k="name" v="Lyserbråtveien" />
		<tag k="old_name" v="Lyserbråtenveien" />
		<tag k="ssr:date" v="2021-03-22" />
		<tag k="ssr:gruppe" v="veg" />
		<tag k="ssr:hovedgruppe" v="infrastruktur" />
		<tag k="ssr:stedsnr" v="1071217" />
		<tag k="ssr:type" v="adressenavn" />
	</node>
	<node lat="59.91168968762522" lon="10.758188226721538" id="-20666">
		<tag k="name" v="Viken fylke" />
		<tag k="ssr:date" v="2021-06-08" />
=======
	<node id="-256449" lat="69.6388889725" lon="30.5666644427">
		<tag k="fixme" v="multiple name tags, choose one and add the other to alt_name" />
		<tag k="loc_name:se" v="Norgga gonagasriika" />
		<tag k="loc_name:sma" v="Nöörjen gånkarïjhke" />
		<tag k="loc_name:smj" v="Vuona gånågisrijkka" />
		<tag k="name" v="Noreg;Norge" />
		<tag k="name:en" v="Norway" />
		<tag k="name:no" v="Noreg;Norge" />
		<tag k="ssr:date" v="2020-06-04" />
		<tag k="ssr:gruppe" v="administrativeIndelinger" />
		<tag k="ssr:hovedgruppe" v="offentligAdministrasjon" />
		<tag k="ssr:stedsnr" v="26330" />
		<tag k="ssr:type" v="nasjon" />
	</node>
	<node id="-256355" lat="59.7218972221" lon="10.8733750061">
		<tag k="name" v="Nordre Follo prosti" />
		<tag k="ssr:date" v="2019-12-27" />
>>>>>>> e1d4bc35ff8a6074a6f2e91616a996b547c36f15
		<tag k="ssr:gruppe" v="administrativeIndelinger" />
		<tag k="ssr:hovedgruppe" v="offentligAdministrasjon" />
		<tag k="ssr:stedsnr" v="1074403" />
		<tag k="ssr:type" v="fylke" />
	</node>
	<node lat="59.73919612668667" lon="11.019051877732542" id="-20669">
		<tag k="name" v="Kvernstubakken" />
		<tag k="ssr:date" v="2021-01-19" />
		<tag k="ssr:gruppe" v="veg" />
		<tag k="ssr:hovedgruppe" v="infrastruktur" />
		<tag k="ssr:stedsnr" v="1078410" />
		<tag k="ssr:type" v="adressenavn" />
	</node>
	<node lat="59.829825197328624" lon="11.134169415074268" id="-20675">
		<tag k="name" v="Høgåstoppen" />
		<tag k="ssr:date" v="2021-01-19" />
		<tag k="ssr:gruppe" v="veg" />
		<tag k="ssr:hovedgruppe" v="infrastruktur" />
		<tag k="ssr:stedsnr" v="1079513" />
		<tag k="ssr:type" v="adressenavn" />
	</node>
	<node lat="59.82759393140773" lon="11.13602619130573" id="-20676">
		<tag k="name" v="Høgåslia" />
		<tag k="ssr:date" v="2021-01-19" />
		<tag k="ssr:gruppe" v="veg" />
		<tag k="ssr:hovedgruppe" v="infrastruktur" />
		<tag k="ssr:stedsnr" v="1079514" />
		<tag k="ssr:type" v="adressenavn" />
	</node>
	<node lat="59.828212398691534" lon="11.134759906684593" id="-20677">
		<tag k="name" v="Ringveien" />
		<tag k="ssr:date" v="2021-01-19" />
		<tag k="ssr:gruppe" v="veg" />
		<tag k="ssr:hovedgruppe" v="infrastruktur" />
		<tag k="ssr:stedsnr" v="1079515" />
		<tag k="ssr:type" v="adressenavn" />
	</node>
	<node lat="59.82780064155677" lon="11.134059147016423" id="-20678">
		<tag k="name" v="Høgåsveien" />
		<tag k="ssr:date" v="2021-01-19" />
		<tag k="ssr:gruppe" v="veg" />
		<tag k="ssr:hovedgruppe" v="infrastruktur" />
		<tag k="ssr:stedsnr" v="1079516" />
		<tag k="ssr:type" v="adressenavn" />
	</node>
	<node lat="59.73664719636487" lon="11.00176951999262" id="-20679">
		<tag k="name" v="Furuåsen" />
		<tag k="ssr:date" v="2021-03-22" />
		<tag k="ssr:gruppe" v="veg" />
		<tag k="ssr:hovedgruppe" v="infrastruktur" />
		<tag k="ssr:stedsnr" v="1080546" />
		<tag k="ssr:type" v="adressenavn" />
	</node>
	<node lat="59.73855692165746" lon="11.003872950508796" id="-20680">
		<tag k="name" v="Flintveien" />
		<tag k="ssr:date" v="2021-03-22" />
		<tag k="ssr:gruppe" v="veg" />
		<tag k="ssr:hovedgruppe" v="infrastruktur" />
		<tag k="ssr:stedsnr" v="1080549" />
		<tag k="ssr:type" v="adressenavn" />
	</node>
	<node lat="59.76406900414002" lon="10.993835164017398" id="-20681">
		<tag k="name" v="Glimmerveien" />
		<tag k="ssr:date" v="2021-03-24" />
		<tag k="ssr:gruppe" v="veg" />
		<tag k="ssr:hovedgruppe" v="infrastruktur" />
		<tag k="ssr:stedsnr" v="1080594" />
		<tag k="ssr:type" v="adressenavn" />
	</node>
	<node lat="59.82863124838389" lon="11.144684970654145" id="-20682">
		<tag k="name" v="Liljeveien" />
		<tag k="ssr:date" v="2021-05-03" />
		<tag k="ssr:gruppe" v="veg" />
		<tag k="ssr:hovedgruppe" v="infrastruktur" />
		<tag k="ssr:stedsnr" v="1081078" />
		<tag k="ssr:type" v="adressenavn" />
	</node>
	<node lat="59.737278776229765" lon="11.027799920896932" id="-20683">
		<tag k="name" v="Røyskattveien" />
		<tag k="ssr:date" v="2021-07-30" />
		<tag k="ssr:gruppe" v="veg" />
		<tag k="ssr:hovedgruppe" v="infrastruktur" />
		<tag k="ssr:stedsnr" v="1081825" />
		<tag k="ssr:type" v="adressenavn" />
	</node>
	<node id="-256322" lat="59.7645138846" lon="11.1449222229">
		<tag k="name" v="Enebakk kommune" />
		<tag k="ssr:date" v="2019-12-27" />
		<tag k="ssr:gruppe" v="administrativeIndelinger" />
		<tag k="ssr:hovedgruppe" v="offentligAdministrasjon" />
		<tag k="ssr:stedsnr" v="630816" />
		<tag k="ssr:type" v="kommune" />
	</node>
	<node id="-256443" lat="59.7364363614" lon="11.0360072941">
		<tag k="name" v="Hakkespettveien" />
		<tag k="ssr:date" v="2019-12-27" />
		<tag k="ssr:gruppe" v="veg" />
		<tag k="ssr:hovedgruppe" v="infrastruktur" />
		<tag k="ssr:stedsnr" v="981592" />
		<tag k="ssr:type" v="adressenavn" />
	</node>
</osm>
