<?xml version="1.0" encoding="UTF-8"?>
<osm generator="osmapis" version="0.6">
	<node id="-182268" lat="60.2538444408" lon="9.36676666838">
		<tag k="name" v="Nordre Øvre-Teige" />
		<tag k="place" v="farm" />
		<tag k="ssr:stedsnr" v="880539" />
	</node>
	<node id="-182267" lat="60.2664999983" lon="9.41551389088">
		<tag k="historic" v="shieling" />
		<tag k="name" v="Bråtaseter" />
		<tag k="place" v="locality" />
		<tag k="ssr:stedsnr" v="880476" />
	</node>
	<node id="-180214" lat="60.2910944406" lon="9.29585832557">
		<tag k="historic" v="shieling" />
		<tag k="name" v="Markeli" />
		<tag k="place" v="locality" />
		<tag k="ssr:stedsnr" v="212636" />
	</node>
	<node id="-180213" lat="60.2460416647" lon="9.34096388337">
		<tag k="name" v="Frøvoll" />
		<tag k="place" v="farm" />
		<tag k="ssr:stedsnr" v="212614" />
	</node>
	<node id="-182258" lat="60.2734111094" lon="9.38726666376">
		<tag k="historic" v="shieling" />
		<tag k="name" v="Sø-Jellesetra" />
		<tag k="place" v="locality" />
		<tag k="ssr:stedsnr" v="880376" />
	</node>
	<node id="-180209" lat="60.3404916681" lon="9.18761667106">
		<tag k="fixme" v="consider tourism=alpine_hut or tourism=chalet" />
		<tag k="name" v="Turistheimen" />
		<tag k="ssr:stedsnr" v="212196" />
		<tag k="tourism" v="wilderness_hut" />
	</node>
	<node id="-182255" lat="60.1328277777" lon="9.42919723081">
		<tag k="name" v="Øvre Enger" />
		<tag k="place" v="farm" />
		<tag k="ssr:stedsnr" v="880304" />
	</node>
	<node id="-180205" lat="60.1475555576" lon="9.3474611124">
		<tag k="name" v="Trollbu" />
		<tag k="place" v="isolated_dwelling" />
		<tag k="ssr:stedsnr" v="212109" />
	</node>
	<node id="-180204" lat="60.2522750024" lon="9.36030832838">
		<tag k="name" v="Solberg" />
		<tag k="place" v="isolated_dwelling" />
		<tag k="ssr:stedsnr" v="212110" />
	</node>
	<node id="-180202" lat="60.2568382229" lon="9.32619355596">
		<tag k="fixme" v="consider place=hamlet" />
		<tag k="name" v="Hollerud" />
		<tag k="place" v="farm" />
		<tag k="ssr:stedsnr" v="212100" />
	</node>
	<node id="-182248" lat="60.1472888926" lon="9.41872777625">
		<tag k="name" v="Mellom-Lia" />
		<tag k="place" v="farm" />
		<tag k="ssr:stedsnr" v="880070" />
	</node>
	<node id="-182241" lat="60.2703000004" lon="9.26310000094">
		<tag k="name" v="Nordre Bråtan" />
		<tag k="place" v="farm" />
		<tag k="ssr:stedsnr" v="879846" />
	</node>
	<node id="-180192" lat="60.0684750031" lon="9.45779167139">
		<tag k="name" v="Søre Strand" />
		<tag k="place" v="farm" />
		<tag k="ssr:stedsnr" v="207029" />
	</node>
	<node id="-180191" lat="60.0873250028" lon="9.51830000432">
		<tag k="name" v="Skinnemoen" />
		<tag k="place" v="farm" />
		<tag k="ssr:stedsnr" v="204118" />
	</node>
	<node id="-180190" lat="59.9565833352" lon="9.83356389449">
		<tag k="name" v="Søre Bjørndalen" />
		<tag k="place" v="farm" />
		<tag k="ssr:stedsnr" v="204111" />
	</node>
	<node id="-181925" lat="60.0118027747" lon="9.61100276891">
		<tag k="historic" v="shieling" />
		<tag k="name" v="Ebbesbergsetra" />
		<tag k="place" v="locality" />
		<tag k="ssr:stedsnr" v="793954" />
	</node>
	<node id="-180187" lat="60.2497111072" lon="9.24255832929">
		<tag k="historic" v="shieling" />
		<tag k="name" v="Dønhauglisetra" />
		<tag k="place" v="locality" />
		<tag k="ssr:stedsnr" v="188918" />
	</node>
	<node id="-182230" lat="60.2394250015" lon="9.3017777831">
		<tag k="name" v="Midtstykket" />
		<tag k="place" v="locality" />
		<tag k="ssr:stedsnr" v="879562" />
	</node>
	<node id="-180179" lat="60.2718388917" lon="9.25882221444">
		<tag k="name" v="Baklirønningen" />
		<tag k="place" v="farm" />
		<tag k="ssr:stedsnr" v="188146" />
	</node>
	<node id="-179875" lat="60.0482933737" lon="9.68976041373">
		<tag k="fixme" v="consider place=hamlet" />
		<tag k="name" v="Reistad" />
		<tag k="place" v="farm" />
		<tag k="ssr:stedsnr" v="118891" />
	</node>
	<node id="-180176" lat="60.2647305525" lon="9.36995000366">
		<tag k="historic" v="shieling" />
		<tag k="name" v="Veslesetra" />
		<tag k="place" v="locality" />
		<tag k="ssr:stedsnr" v="188116" />
	</node>
	<node id="-180167" lat="60.0069666658" lon="9.7286777788">
		<tag k="name" v="Åsum" />
		<tag k="place" v="isolated_dwelling" />
		<tag k="ssr:stedsnr" v="187973" />
	</node>
	<node id="-182214" lat="60.0188972257" lon="9.74000278118">
		<tag k="name" v="Øvre Hunstad" />
		<tag k="place" v="farm" />
		<tag k="ssr:stedsnr" v="872395" />
	</node>
	<node id="-180165" lat="60.0190666684" lon="9.69450277581">
		<tag k="name" v="Søre Langerud" />
		<tag k="place" v="farm" />
		<tag k="ssr:stedsnr" v="187924" />
	</node>
	<node id="-180163" lat="60.1757805531" lon="9.40597222094">
		<tag k="name" v="Tangen" />
		<tag k="place" v="farm" />
		<tag k="ssr:stedsnr" v="187422" />
	</node>
	<node id="-182210" lat="60.2541499989" lon="9.30534999345">
		<tag k="name" v="Rust" />
		<tag k="place" v="farm" />
		<tag k="ssr:stedsnr" v="856932" />
	</node>
	<node id="-180160" lat="60.1522055565" lon="9.34698889086">
		<tag k="alt_name" v="Dukeliseter" />
		<tag k="historic" v="shieling" />
		<tag k="name" v="Dukelisetra" />
		<tag k="place" v="locality" />
		<tag k="ssr:stedsnr" v="187381" />
	</node>
	<node id="-182206" lat="60.2608870258" lon="9.3126193987">
		<tag k="fixme" v="consider place=hamlet" />
		<tag k="name" v="Jare" />
		<tag k="place" v="farm" />
		<tag k="ssr:stedsnr" v="856102" />
	</node>
	<node id="-182205" lat="60.2623694407" lon="9.28941111016">
		<tag k="name" v="Flaget" />
		<tag k="place" v="farm" />
		<tag k="ssr:stedsnr" v="856099" />
	</node>
	<node id="-180156" lat="60.0844222204" lon="9.37051388548">
		<tag k="fixme" v="multiple name tags, choose one and add the other to alt_name" />
		<tag k="name" v="Gaulsetra;Nord-Gaulen" />
		<tag k="place" v="isolated_dwelling" />
		<tag k="ssr:stedsnr" v="187096" />
	</node>
	<node id="-180155" lat="60.0433444443" lon="9.59032221357">
		<tag k="name" v="Nordre Mjøseng" />
		<tag k="place" v="farm" />
		<tag k="ssr:stedsnr" v="187055" />
	</node>
	<node id="-180154" lat="60.0905027742" lon="9.46908610809">
		<tag k="name" v="Hovlund" />
		<tag k="place" v="farm" />
		<tag k="ssr:stedsnr" v="187105" />
	</node>
	<node id="-182201" lat="60.086258334" lon="9.61196111778">
		<tag k="alt_name" v="Viksetra" />
		<tag k="name" v="Vikseter" />
		<tag k="place" v="locality" />
		<tag k="ssr:stedsnr" v="855873" />
	</node>
	<node id="-182200" lat="60.1585611101" lon="9.49509723025">
		<tag k="historic" v="shieling" />
		<tag k="name" v="Hagasetra" />
		<tag k="place" v="locality" />
		<tag k="ssr:stedsnr" v="855446" />
	</node>
	<node id="-180151" lat="60.0226055588" lon="9.66009999855">
		<tag k="name" v="Ravnås" />
		<tag k="place" v="farm" />
		<tag k="ssr:stedsnr" v="186947" />
	</node>
	<node id="-180150" lat="60.0444083323" lon="9.67189166582">
		<tag k="name" v="Tukua" />
		<tag k="place" v="farm" />
		<tag k="ssr:stedsnr" v="186923" />
	</node>
	<node id="-180149" lat="60.0432555597" lon="9.67984167409">
		<tag k="name" v="Voll" />
		<tag k="place" v="isolated_dwelling" />
		<tag k="ssr:stedsnr" v="186922" />
	</node>
	<node id="-180147" lat="59.9591944443" lon="9.82477500712">
		<tag k="name" v="Neshagan" />
		<tag k="place" v="farm" />
		<tag k="ssr:stedsnr" v="186790" />
	</node>
	<node id="-180146" lat="59.8990888921" lon="9.73096111984">
		<tag k="name" v="Elvenes" />
		<tag k="place" v="farm" />
		<tag k="ssr:stedsnr" v="186835" />
	</node>
	<node id="-180375" lat="60.072028021" lon="9.51547735882">
		<tag k="fixme" v="consider place=hamlet" />
		<tag k="name" v="Havika" />
		<tag k="place" v="farm" />
		<tag k="ssr:stedsnr" v="247071" />
	</node>
	<node id="-182192" lat="60.008830552" lon="9.67206665846">
		<tag k="name" v="Vinnord" />
		<tag k="place" v="locality" />
		<tag k="ssr:stedsnr" v="854981" />
	</node>
	<node id="-180143" lat="60.2051333319" lon="9.33479999955">
		<tag k="fixme" v="multiple name tags, choose one and add the other to alt_name" />
		<tag k="name" v="Skårsetra;Skårsheimseter" />
		<tag k="place" v="locality" />
		<tag k="ssr:stedsnr" v="186536" />
	</node>
	<node id="-180142" lat="60.2142027809" lon="9.38999167392">
		<tag k="name" v="Grønvoll" />
		<tag k="place" v="locality" />
		<tag k="ssr:stedsnr" v="186531" />
	</node>
	<node id="-180141" lat="60.110669444" lon="9.46921110315">
		<tag k="name" v="Skalstad" />
		<tag k="place" v="farm" />
		<tag k="ssr:stedsnr" v="186425" />
	</node>
	<node id="-180140" lat="60.1191805576" lon="9.26381943737">
		<tag k="alt_name" v="Mjovasseter" />
		<tag k="name" v="Mjovassetra" />
		<tag k="place" v="isolated_dwelling" />
		<tag k="ssr:stedsnr" v="186414" />
	</node>
	<node id="-182187" lat="59.9989915734" lon="9.75726687999">
		<tag k="alt_name" v="Søre Jokstad" />
		<tag k="fixme" v="consider place=hamlet" />
		<tag k="name" v="Jokstad" />
		<tag k="place" v="farm" />
		<tag k="ssr:stedsnr" v="854959" />
	</node>
	<node id="-180138" lat="59.9738527773" lon="9.56599444359">
		<tag k="name" v="Vestheim" />
		<tag k="place" v="isolated_dwelling" />
		<tag k="ssr:stedsnr" v="186334" />
	</node>
	<node id="-182185" lat="59.9886972223" lon="9.69576666169">
		<tag k="historic" v="shieling" />
		<tag k="name" v="Velstadsetra" />
		<tag k="place" v="locality" />
		<tag k="ssr:stedsnr" v="854955" />
	</node>
	<node id="-178738" lat="59.9581138899" lon="9.70261944281">
		<tag k="historic" v="shieling" />
		<tag k="name" v="Seterhagan" />
		<tag k="place" v="locality" />
		<tag k="ssr:stedsnr" v="275399" />
	</node>
	<node id="-181193" lat="60.1029250003" lon="9.65423610837">
		<tag k="name" v="Tangen" />
		<tag k="place" v="isolated_dwelling" />
		<tag k="ssr:stedsnr" v="611859" />
	</node>
	<node id="-180132" lat="59.9696910392" lon="9.75137815397">
		<tag k="fixme" v="consider place=hamlet" />
		<tag k="name" v="Søre Gren" />
		<tag k="place" v="farm" />
		<tag k="ssr:stedsnr" v="185769" />
	</node>
	<node id="-180131" lat="59.9834127718" lon="9.56037002269">
		<tag k="fixme" v="consider place=hamlet" />
		<tag k="name" v="Lindbu" />
		<tag k="place" v="farm" />
		<tag k="ssr:stedsnr" v="185317" />
	</node>
	<node id="-182178" lat="60.0526138884" lon="9.63912500477">
		<tag k="name" v="Åsly" />
		<tag k="place" v="farm" />
		<tag k="ssr:stedsnr" v="854898" />
	</node>
	<node id="-182177" lat="60.0498972262" lon="9.64408333126">
		<tag k="alt_name" v="Haugan" />
		<tag k="name" v="Øvre Haugan" />
		<tag k="place" v="farm" />
		<tag k="ssr:stedsnr" v="854897" />
	</node>
	<node id="-182175" lat="59.9734016558" lon="9.74556950757">
		<tag k="fixme" v="consider place=hamlet" />
		<tag k="name" v="Midtre Gren" />
		<tag k="place" v="farm" />
		<tag k="ssr:stedsnr" v="854788" />
	</node>
	<node id="-182174" lat="59.9450972233" lon="9.65694167479">
		<tag k="alt_name" v="Trondlia" />
		<tag k="name" v="Tronlia" />
		<tag k="place" v="isolated_dwelling" />
		<tag k="ssr:stedsnr" v="854750" />
	</node>
	<node id="-182173" lat="59.9457444459" lon="9.64580278115">
		<tag k="name" v="Grønvoll" />
		<tag k="place" v="locality" />
		<tag k="ssr:stedsnr" v="854748" />
	</node>
	<node id="-182169" lat="60.205958334" lon="9.42348611505">
		<tag k="name" v="Knebithytta" />
		<tag k="place" v="isolated_dwelling" />
		<tag k="ssr:stedsnr" v="854474" />
	</node>
	<node id="-180117" lat="60.0240194443" lon="9.43935277837">
		<tag k="name" v="Haukeli" />
		<tag k="place" v="isolated_dwelling" />
		<tag k="ssr:stedsnr" v="154192" />
	</node>
	<node id="-182163" lat="60.1395027741" lon="9.52423888243">
		<tag k="name" v="Albjørksetra" />
		<tag k="place" v="locality" />
		<tag k="ssr:stedsnr" v="854414" />
	</node>
	<node id="-182158" lat="60.2430861107" lon="9.26397778565">
		<tag k="alt_name" v="Kodalen" />
		<tag k="name" v="Sør-Kodalen" />
		<tag k="place" v="farm" />
		<tag k="ssr:stedsnr" v="854281" />
	</node>
	<node id="-182157" lat="60.2425694407" lon="9.2837138846">
		<tag k="alt_name" v="Skåla" />
		<tag k="name" v="Øvre Skåla" />
		<tag k="place" v="farm" />
		<tag k="ssr:stedsnr" v="854279" />
	</node>
	<node id="-182155" lat="60.094113023" lon="9.51984705366">
		<tag k="fixme" v="consider place=hamlet" />
		<tag k="name" v="Skinnemoen" />
		<tag k="place" v="farm" />
		<tag k="ssr:stedsnr" v="854102" />
	</node>
	<node id="-182154" lat="60.0875638845" lon="9.46226666624">
		<tag k="name" v="Orholt" />
		<tag k="place" v="farm" />
		<tag k="ssr:stedsnr" v="854095" />
	</node>
	<node id="-182153" lat="60.0853583298" lon="9.44763055106">
		<tag k="name" v="Langås" />
		<tag k="place" v="isolated_dwelling" />
		<tag k="ssr:stedsnr" v="854096" />
	</node>
	<node id="-182152" lat="60.091474586" lon="9.45367880903">
		<tag k="fixme" v="consider place=hamlet" />
		<tag k="name" v="Åsen" />
		<tag k="place" v="farm" />
		<tag k="ssr:stedsnr" v="854092" />
	</node>
	<node id="-182151" lat="60.0876527761" lon="9.46710555447">
		<tag k="name" v="Svingom" />
		<tag k="place" v="farm" />
		<tag k="ssr:stedsnr" v="854086" />
	</node>
	<node id="-182149" lat="60.0609611152" lon="9.51816943721">
		<tag k="name" v="Stubberud" />
		<tag k="place" v="farm" />
		<tag k="ssr:stedsnr" v="854056" />
	</node>
	<node id="-182148" lat="60.0602611148" lon="9.53267222124">
		<tag k="name" v="Saueton" />
		<tag k="place" v="farm" />
		<tag k="ssr:stedsnr" v="854054" />
	</node>
	<node id="-182144" lat="59.9704972231" lon="9.60494166252">
		<tag k="name" v="Åsen" />
		<tag k="place" v="isolated_dwelling" />
		<tag k="ssr:stedsnr" v="853805" />
	</node>
	<node id="-180095" lat="60.0341722194" lon="9.58292221579">
		<tag k="name" v="Jordet" />
		<tag k="place" v="farm" />
		<tag k="ssr:stedsnr" v="153755" />
	</node>
	<node id="-182142" lat="59.9750061708" lon="9.76459700685">
		<tag k="alt_name" v="Nordre Bergan" />
		<tag k="fixme" v="consider place=hamlet" />
		<tag k="name" v="Bergan" />
		<tag k="place" v="farm" />
		<tag k="ssr:stedsnr" v="853767" />
	</node>
	<node id="-182250" lat="60.2469249987" lon="9.32676111696">
		<tag k="name" v="Saghølen" />
		<tag k="place" v="locality" />
		<tag k="ssr:stedsnr" v="880101" />
	</node>
	<node id="-180812" lat="60.1137805547" lon="9.46192222932">
		<tag k="name" v="Molund" />
		<tag k="place" v="isolated_dwelling" />
		<tag k="ssr:stedsnr" v="516370" />
	</node>
	<node id="-181907" lat="60.0609305574" lon="9.48260554734">
		<tag k="name" v="Strandehagan" />
		<tag k="place" v="farm" />
		<tag k="ssr:stedsnr" v="793072" />
	</node>
	<node id="-180439" lat="60.0200527766" lon="9.56749999149">
		<tag k="name" v="Nedre Lia" />
		<tag k="place" v="farm" />
		<tag k="ssr:stedsnr" v="429016" />
	</node>
	<node id="-182127" lat="60.0397888917" lon="9.6966388964">
		<tag k="name" v="Søre Kroken" />
		<tag k="place" v="farm" />
		<tag k="ssr:stedsnr" v="821991" />
	</node>
	<node id="-182123" lat="60.0943777792" lon="9.51654444593">
		<tag k="name" v="Mohagan" />
		<tag k="place" v="farm" />
		<tag k="ssr:stedsnr" v="821917" />
	</node>
	<node id="-180069" lat="59.9613722254" lon="9.7562972162">
		<tag k="name" v="Nordre Åby" />
		<tag k="place" v="farm" />
		<tag k="ssr:stedsnr" v="153426" />
	</node>
	<node id="-180062" lat="60.0165916708" lon="9.71290556122">
		<tag k="name" v="Nedre Velstad" />
		<tag k="place" v="farm" />
		<tag k="ssr:stedsnr" v="153265" />
	</node>
	<node id="-180061" lat="60.0217333339" lon="9.72661111763">
		<tag k="name" v="Ravnås" />
		<tag k="place" v="farm" />
		<tag k="ssr:stedsnr" v="153242" />
	</node>
	<node id="-182101" lat="60.0374833372" lon="9.60722777438">
		<tag k="name" v="Øverbymoen" />
		<tag k="place" v="isolated_dwelling" />
		<tag k="ssr:stedsnr" v="821681" />
	</node>
	<node id="-182098" lat="60.0290609157" lon="9.67601684595">
		<tag k="name" v="Søre Eikje" />
		<tag k="place" v="farm" />
		<tag k="ssr:stedsnr" v="821653" />
	</node>
	<node id="-180048" lat="60.0143916688" lon="9.45108055403">
		<tag k="name" v="Øvre Stugua" />
		<tag k="place" v="isolated_dwelling" />
		<tag k="ssr:stedsnr" v="153077" />
	</node>
	<node id="-182091" lat="60.0421888876" lon="9.6508944524">
		<tag k="name" v="Prestfoss gartneri" />
		<tag k="place" v="locality" />
		<tag k="ssr:stedsnr" v="821599" />
	</node>
	<node id="-182090" lat="60.0805916702" lon="9.49729999564">
		<tag k="name" v="Østre Blekaberg" />
		<tag k="place" v="farm" />
		<tag k="ssr:stedsnr" v="821583" />
	</node>
	<node id="-182089" lat="59.9805861145" lon="9.77074721988">
		<tag k="name" v="Åsgarden" />
		<tag k="place" v="locality" />
		<tag k="ssr:stedsnr" v="821580" />
	</node>
	<node id="-182088" lat="59.9825055588" lon="9.72789722375">
		<tag k="name" v="Kvisleplassen" />
		<tag k="place" v="locality" />
		<tag k="ssr:stedsnr" v="821558" />
	</node>
	<node id="-180039" lat="60.0819444403" lon="9.40328334114">
		<tag k="historic" v="shieling" />
		<tag k="name" v="Kristiansetra" />
		<tag k="place" v="locality" />
		<tag k="ssr:stedsnr" v="152932" />
	</node>
	<node id="-180037" lat="60.0515999982" lon="9.67710277817">
		<tag k="name" v="Myra" />
		<tag k="place" v="farm" />
		<tag k="ssr:stedsnr" v="153644" />
	</node>
	<node id="-182084" lat="60.0493083371" lon="9.64321388819">
		<tag k="name" v="Nedre Haugen" />
		<tag k="place" v="farm" />
		<tag k="ssr:stedsnr" v="821503" />
	</node>
	<node id="-182082" lat="60.0562388877" lon="9.6791083319">
		<tag k="name" v="Skarpsno" />
		<tag k="place" v="farm" />
		<tag k="ssr:stedsnr" v="821496" />
	</node>
	<node id="-182080" lat="59.9566583322" lon="9.65501666483">
		<tag k="name" v="Nedre Grønset" />
		<tag k="place" v="farm" />
		<tag k="ssr:stedsnr" v="821478" />
	</node>
	<node id="-180031" lat="60.2269833326" lon="9.46758888252">
		<tag k="name" v="Skrikarlia" />
		<tag k="place" v="isolated_dwelling" />
		<tag k="ssr:stedsnr" v="152561" />
	</node>
	<node id="-182074" lat="59.964636114" lon="9.77944167171">
		<tag k="name" v="Bergerud" />
		<tag k="place" v="farm" />
		<tag k="ssr:stedsnr" v="821413" />
	</node>
	<node id="-182073" lat="59.9594611134" lon="9.61923055943">
		<tag k="name" v="Øvre Vatnås" />
		<tag k="place" v="farm" />
		<tag k="ssr:stedsnr" v="821398" />
	</node>
	<node id="-182071" lat="59.9439888856" lon="9.69185278309">
		<tag k="name" v="Fagerbakkeremsa" />
		<tag k="place" v="locality" />
		<tag k="ssr:stedsnr" v="821394" />
	</node>
	<node id="-180021" lat="60.1359833313" lon="9.43890834089">
		<tag k="name" v="Mellomøya" />
		<tag k="place" v="farm" />
		<tag k="ssr:stedsnr" v="152331" />
	</node>
	<node id="-182068" lat="60.0922027753" lon="9.45268332456">
		<tag k="name" v="Nordre Åsen" />
		<tag k="place" v="farm" />
		<tag k="ssr:stedsnr" v="821329" />
	</node>
	<node id="-182067" lat="60.0967027797" lon="9.4701749977">
		<tag k="name" v="Nordre Albjørk" />
		<tag k="place" v="farm" />
		<tag k="ssr:stedsnr" v="821326" />
	</node>
	<node id="-180017" lat="60.156897226" lon="9.34658054769">
		<tag k="historic" v="shieling" />
		<tag k="name" v="Nybuseter" />
		<tag k="place" v="locality" />
		<tag k="ssr:stedsnr" v="151981" />
	</node>
	<node id="-180166" lat="60.0151444425" lon="9.74228333273">
		<tag k="name" v="Søre Hunstad" />
		<tag k="place" v="farm" />
		<tag k="ssr:stedsnr" v="187960" />
	</node>
	<node id="-180011" lat="60.2120361115" lon="9.3602722162">
		<tag k="historic" v="shieling" />
		<tag k="name" v="Øvre Stallsbråtan" />
		<tag k="place" v="locality" />
		<tag k="ssr:stedsnr" v="151899" />
	</node>
	<node id="-180871" lat="60.047927774" lon="9.68947777223">
		<tag k="name" v="Øvre Reistad" />
		<tag k="place" v="farm" />
		<tag k="ssr:stedsnr" v="517817" />
	</node>
	<node id="-180234" lat="60.3423138929" lon="9.20071943731">
		<tag k="name" v="Rugland setermark" />
		<tag k="place" v="neighbourhood" />
		<tag k="ssr:stedsnr" v="212901" />
	</node>
	<node id="-179211" lat="60.1133166705" lon="9.57373056378">
		<tag k="historic" v="shieling" />
		<tag k="name" v="Bergetangseter" />
		<tag k="place" v="locality" />
		<tag k="ssr:stedsnr" v="396494" />
	</node>
	<node id="-180003" lat="60.2186583326" lon="9.36562776959">
		<tag k="name" v="Kranserud" />
		<tag k="place" v="isolated_dwelling" />
		<tag k="ssr:stedsnr" v="151842" />
	</node>
	<node id="-182049" lat="59.9853305561" lon="9.63739721463">
		<tag k="name" v="Dælahytta" />
		<tag k="place" v="isolated_dwelling" />
		<tag k="ssr:stedsnr" v="821135" />
	</node>
	<node id="-179980" lat="60.2569305521" lon="9.41571943903">
		<tag k="historic" v="shieling" />
		<tag k="name" v="Moheimseter" />
		<tag k="place" v="locality" />
		<tag k="ssr:stedsnr" v="151151" />
	</node>
	<node id="-179974" lat="60.2496750036" lon="9.31988889557">
		<tag k="name" v="Bjørkerud" />
		<tag k="place" v="isolated_dwelling" />
		<tag k="ssr:stedsnr" v="151113" />
	</node>
	<node id="-178817" lat="60.0686194471" lon="9.54402499433">
		<tag k="name" v="Bergetangen" />
		<tag k="place" v="farm" />
		<tag k="ssr:stedsnr" v="308071" />
	</node>
	<node id="-179970" lat="60.3127638854" lon="9.20676945319">
		<tag k="historic" v="shieling" />
		<tag k="name" v="Fekjan" />
		<tag k="place" v="locality" />
		<tag k="ssr:stedsnr" v="151090" />
	</node>
	<node id="-182017" lat="60.2548000018" lon="9.28594999448">
		<tag k="name" v="Basol" />
		<tag k="place" v="locality" />
		<tag k="ssr:stedsnr" v="819926" />
	</node>
	<node id="-179967" lat="60.321855557" lon="9.20126111102">
		<tag k="historic" v="shieling" />
		<tag k="name" v="Nord-Buin" />
		<tag k="place" v="locality" />
		<tag k="ssr:stedsnr" v="151087" />
	</node>
	<node id="-182012" lat="60.2136722265" lon="9.35000277033">
		<tag k="historic" v="shieling" />
		<tag k="name" v="Juvsrønningen" />
		<tag k="place" v="locality" />
		<tag k="ssr:stedsnr" v="819887" />
	</node>
	<node id="-182009" lat="60.218202774" lon="9.38107777329">
		<tag k="name" v="Hansongården" />
		<tag k="place" v="farm" />
		<tag k="ssr:stedsnr" v="819863" />
	</node>
	<node id="-182003" lat="60.1938722243" lon="9.39831666326">
		<tag k="name" v="Øvre Sole" />
		<tag k="place" v="farm" />
		<tag k="ssr:stedsnr" v="819761" />
	</node>
	<node id="-179952" lat="60.2373583303" lon="9.24814166914">
		<tag k="name" v="Gulhusa" />
		<tag k="place" v="locality" />
		<tag k="ssr:stedsnr" v="150100" />
	</node>
	<node id="-181998" lat="60.1711611126" lon="9.47476112012">
		<tag k="name" v="Vannberg" />
		<tag k="place" v="isolated_dwelling" />
		<tag k="ssr:stedsnr" v="819646" />
	</node>
	<node id="-179949" lat="60.207872226" lon="9.19539166062">
		<tag k="historic" v="shieling" />
		<tag k="name" v="Båsseter" />
		<tag k="place" v="locality" />
		<tag k="ssr:stedsnr" v="150009" />
	</node>
	<node id="-179947" lat="60.1129222199" lon="9.52395833234">
		<tag k="name" v="Mohagastykket" />
		<tag k="place" v="locality" />
		<tag k="ssr:stedsnr" v="152540" />
	</node>
	<node id="-179943" lat="59.9530361149" lon="9.83226111612">
		<tag k="name" v="Bjørndalsplassen" />
		<tag k="place" v="farm" />
		<tag k="ssr:stedsnr" v="143563" />
	</node>
	<node id="-179942" lat="59.9841000032" lon="9.76231665848">
		<tag k="name" v="Brekka" />
		<tag k="place" v="farm" />
		<tag k="ssr:stedsnr" v="143562" />
	</node>
	<node id="-179941" lat="60.2604722225" lon="9.42415834054">
		<tag k="historic" v="shieling" />
		<tag k="name" v="Gamlesetra" />
		<tag k="place" v="locality" />
		<tag k="ssr:stedsnr" v="143138" />
	</node>
	<node id="-181987" lat="60.2500888863" lon="9.35867222848">
		<tag k="name" v="Elvom" />
		<tag k="place" v="isolated_dwelling" />
		<tag k="ssr:stedsnr" v="819121" />
	</node>
	<node id="-179938" lat="60.2615555528" lon="9.42666666168">
		<tag k="historic" v="shieling" />
		<tag k="name" v="Gamlesetra" />
		<tag k="place" v="locality" />
		<tag k="ssr:stedsnr" v="127926" />
	</node>
	<node id="-179937" lat="60.2572299121" lon="9.33610999083">
		<tag k="fixme" v="consider place=hamlet" />
		<tag k="name" v="Åsland" />
		<tag k="place" v="farm" />
		<tag k="ssr:stedsnr" v="127924" />
	</node>
	<node id="-179936" lat="60.3085861075" lon="9.1505583274">
		<tag k="alt_name" v="Nedre Reset" />
		<tag k="historic" v="shieling" />
		<tag k="name" v="Reset" />
		<tag k="place" v="locality" />
		<tag k="ssr:stedsnr" v="127481" />
	</node>
	<node id="-180470" lat="59.9973920486" lon="9.77001145145">
		<tag k="fixme" v="consider place=hamlet" />
		<tag k="name" v="Østby" />
		<tag k="place" v="farm" />
		<tag k="ssr:stedsnr" v="429968" />
	</node>
	<node id="-179933" lat="60.260466668" lon="9.31634960864">
		<tag k="fixme" v="consider place=hamlet" />
		<tag k="name" v="Krossgarden" />
		<tag k="place" v="farm" />
		<tag k="ssr:stedsnr" v="127107" />
	</node>
	<node id="-179930" lat="60.0019861102" lon="9.72943610604">
		<tag k="name" v="Nordre Tovsrud" />
		<tag k="place" v="farm" />
		<tag k="ssr:stedsnr" v="126977" />
	</node>
	<node id="-179929" lat="60.0104611093" lon="9.71369167221">
		<tag k="name" v="Velstadbråtan" />
		<tag k="place" v="farm" />
		<tag k="ssr:stedsnr" v="126974" />
	</node>
	<node id="-179928" lat="60.0162138885" lon="9.69257777246">
		<tag k="alt_name" v="Langerudmoen" />
		<tag k="name" v="Langerudsmoen" />
		<tag k="place" v="farm" />
		<tag k="ssr:stedsnr" v="126963" />
	</node>
	<node id="-179926" lat="60.0097108527" lon="9.74429165034">
		<tag k="alt_name" v="Søre Støvern" />
		<tag k="name" v="Støvern" />
		<tag k="place" v="hamlet" />
		<tag k="ssr:stedsnr" v="126957" />
	</node>
	<node id="-181881" lat="60.0701222228" lon="9.64716666429">
		<tag k="name" v="Persbu" />
		<tag k="place" v="isolated_dwelling" />
		<tag k="ssr:stedsnr" v="761492" />
	</node>
	<node id="-179922" lat="60.0797116597" lon="9.74508919277">
		<tag k="alt_name" v="Vestre Finnerud" />
		<tag k="fixme" v="consider place=hamlet" />
		<tag k="name" v="Finnerud" />
		<tag k="place" v="farm" />
		<tag k="ssr:stedsnr" v="126867" />
	</node>
	<node id="-179921" lat="60.0196111074" lon="9.7875583317">
		<tag k="historic" v="shieling" />
		<tag k="name" v="Skatvetsetra" />
		<tag k="place" v="locality" />
		<tag k="ssr:stedsnr" v="126942" />
	</node>
	<node id="-179918" lat="60.089955554" lon="9.67813333816">
		<tag k="alt_name" v="Skartumsetra" />
		<tag k="historic" v="shieling" />
		<tag k="name" v="Skartumseter" />
		<tag k="place" v="locality" />
		<tag k="ssr:stedsnr" v="126849" />
	</node>
	<node id="-179913" lat="60.1872666629" lon="9.37671943937">
		<tag k="alt_name" v="Nedre Enderud" />
		<tag k="name" v="Enderud" />
		<tag k="place" v="farm" />
		<tag k="ssr:stedsnr" v="126496" />
	</node>
	<node id="-179912" lat="60.194816665" lon="9.28008055521">
		<tag k="name" v="Søtelisetra" />
		<tag k="place" v="isolated_dwelling" />
		<tag k="ssr:stedsnr" v="126491" />
	</node>
	<node id="-181196" lat="60.0815361122" lon="9.72245556181">
		<tag k="historic" v="shieling" />
		<tag k="name" v="Kroksetra" />
		<tag k="place" v="locality" />
		<tag k="ssr:stedsnr" v="611879" />
	</node>
	<node id="-179903" lat="60.2432277803" lon="9.35332778464">
		<tag k="alt_name" v="Moen" />
		<tag k="name" v="Nord-Moen" />
		<tag k="place" v="farm" />
		<tag k="ssr:stedsnr" v="126296" />
	</node>
	<node id="-179902" lat="60.2412027808" lon="9.27250833987">
		<tag k="name" v="Båsen" />
		<tag k="place" v="farm" />
		<tag k="ssr:stedsnr" v="126293" />
	</node>
	<node id="-179901" lat="60.2481972201" lon="9.31590000355">
		<tag k="name" v="Evju" />
		<tag k="place" v="farm" />
		<tag k="ssr:stedsnr" v="126292" />
	</node>
	<node id="-179900" lat="60.2452919642" lon="9.33781618623">
		<tag k="fixme" v="consider place=hamlet" />
		<tag k="name" v="Frøvoll" />
		<tag k="place" v="farm" />
		<tag k="ssr:stedsnr" v="126290" />
	</node>
	<node id="-181947" lat="60.2570972248" lon="9.2745527816">
		<tag k="name" v="Nordmannplassen" />
		<tag k="place" v="isolated_dwelling" />
		<tag k="ssr:stedsnr" v="795141" />
	</node>
	<node id="-179898" lat="60.0812913077" lon="9.49548216113">
		<tag k="alt_name" v="Vestre Blekaberg" />
		<tag k="name" v="Blekaberg" />
		<tag k="place" v="hamlet" />
		<tag k="ssr:stedsnr" v="126089" />
	</node>
	<node id="-179897" lat="60.0400388881" lon="9.57841388038">
		<tag k="name" v="Odden" />
		<tag k="place" v="isolated_dwelling" />
		<tag k="ssr:stedsnr" v="126058" />
	</node>
	<node id="-179894" lat="60.0390906689" lon="9.5680744662">
		<tag k="fixme" v="consider place=hamlet" />
		<tag k="name" v="Grasvik" />
		<tag k="place" v="farm" />
		<tag k="ssr:stedsnr" v="126035" />
	</node>
	<node id="-179893" lat="60.0900631107" lon="9.46423321634">
		<tag k="fixme" v="consider place=hamlet" />
		<tag k="name" v="Hole" />
		<tag k="place" v="farm" />
		<tag k="ssr:stedsnr" v="126111" />
	</node>
	<node id="-181940" lat="60.1558750018" lon="9.43069444348">
		<tag k="name" v="Tovsrud" />
		<tag k="place" v="isolated_dwelling" />
		<tag k="ssr:stedsnr" v="794445" />
	</node>
	<node id="-181938" lat="60.1675055567" lon="9.42305277781">
		<tag k="alt_name" v="Myra" />
		<tag k="name" v="Myre" />
		<tag k="place" v="locality" />
		<tag k="ssr:stedsnr" v="794439" />
	</node>
	<node id="-179889" lat="60.03786667" lon="9.63801389527">
		<tag k="name" v="Torkildsrud" />
		<tag k="place" v="farm" />
		<tag k="ssr:stedsnr" v="125940" />
	</node>
	<node id="-179888" lat="60.0339500001" lon="9.61292777518">
		<tag k="name" v="Mellom-Rustan" />
		<tag k="place" v="farm" />
		<tag k="ssr:stedsnr" v="125938" />
	</node>
	<node id="-179885" lat="59.9417611086" lon="9.71119166501">
		<tag k="name" v="Herbrandsmoen" />
		<tag k="place" v="isolated_dwelling" />
		<tag k="ssr:stedsnr" v="125780" />
	</node>
	<node id="-181932" lat="60.0431500029" lon="9.55312499838">
		<tag k="alt_name" v="Flågan" />
		<tag k="name" v="Søre Flågan" />
		<tag k="place" v="farm" />
		<tag k="ssr:stedsnr" v="794049" />
	</node>
	<node id="-182215" lat="60.0073305571" lon="9.75033055866">
		<tag k="name" v="Nordre øvre Skatvet" />
		<tag k="place" v="farm" />
		<tag k="ssr:stedsnr" v="872400" />
	</node>
	<node id="-181928" lat="59.9847444478" lon="9.76154166821">
		<tag k="name" v="Solberg" />
		<tag k="place" v="farm" />
		<tag k="ssr:stedsnr" v="793970" />
	</node>
	<node id="-181927" lat="59.9876348467" lon="9.76101320401">
		<tag k="alt_name" v="Øvre Skyliholt" />
		<tag k="fixme" v="consider place=hamlet" />
		<tag k="name" v="Skyliholt" />
		<tag k="place" v="farm" />
		<tag k="ssr:stedsnr" v="793969" />
	</node>
	<node id="-181926" lat="60.0218799057" lon="9.71833347095">
		<tag k="fixme" v="consider place=hamlet" />
		<tag k="name" v="Hovland" />
		<tag k="place" v="farm" />
		<tag k="ssr:stedsnr" v="793956" />
	</node>
	<node id="-179877" lat="60.0270361153" lon="9.58607499211">
		<tag k="name" v="Torstenrud" />
		<tag k="place" v="isolated_dwelling" />
		<tag k="ssr:stedsnr" v="125037" />
	</node>
	<node id="-181924" lat="60.033202779" lon="9.77961666364">
		<tag k="historic" v="shieling" />
		<tag k="name" v="Støvernsetra" />
		<tag k="place" v="locality" />
		<tag k="ssr:stedsnr" v="793938" />
	</node>
	<node id="-181923" lat="60.0391043917" lon="9.63316780735">
		<tag k="alt_name" v="Øvre Kringstad" />
		<tag k="fixme" v="consider place=hamlet" />
		<tag k="name" v="Kringstad" />
		<tag k="place" v="farm" />
		<tag k="ssr:stedsnr" v="793933" />
	</node>
	<node id="-181922" lat="60.0505611079" lon="9.60022776925">
		<tag k="name" v="Viksbråtan" />
		<tag k="place" v="farm" />
		<tag k="ssr:stedsnr" v="793906" />
	</node>
	<node id="-179873" lat="59.9737722183" lon="9.55640277331">
		<tag k="name" v="Bjørnebu" />
		<tag k="place" v="isolated_dwelling" />
		<tag k="ssr:stedsnr" v="125351" />
	</node>
	<node id="-181920" lat="59.9299916658" lon="9.68900833606">
		<tag k="name" v="Porten" />
		<tag k="place" v="isolated_dwelling" />
		<tag k="ssr:stedsnr" v="793853" />
	</node>
	<node id="-181919" lat="60.1057416667" lon="9.64932777035">
		<tag k="historic" v="shieling" />
		<tag k="name" v="Ramstadsetra" />
		<tag k="place" v="locality" />
		<tag k="ssr:stedsnr" v="793846" />
	</node>
	<node id="-181918" lat="60.1927111138" lon="9.38833054931">
		<tag k="name" v="Søre Kopseng" />
		<tag k="place" v="farm" />
		<tag k="ssr:stedsnr" v="793530" />
	</node>
	<node id="-182213" lat="60.1210500033" lon="9.37896111663">
		<tag k="historic" v="shieling" />
		<tag k="name" v="Østerøysetra" />
		<tag k="place" v="locality" />
		<tag k="ssr:stedsnr" v="872139" />
	</node>
	<node id="-181913" lat="60.1233284752" lon="9.44365226819">
		<tag k="alt_name" v="Nedre Tveiten" />
		<tag k="fixme" v="consider place=hamlet" />
		<tag k="name" v="Tveiten" />
		<tag k="place" v="farm" />
		<tag k="ssr:stedsnr" v="793395" />
	</node>
	<node id="-181910" lat="60.2200972251" lon="9.3246416722">
		<tag k="alt_name" v="Grøndalsetra" />
		<tag k="name" v="Grøndalseter" />
		<tag k="place" v="isolated_dwelling" />
		<tag k="ssr:stedsnr" v="793279" />
	</node>
	<node id="-179859" lat="60.0286833304" lon="9.69535277969">
		<tag k="name" v="Søre Vad" />
		<tag k="place" v="farm" />
		<tag k="ssr:stedsnr" v="93976" />
	</node>
	<node id="-181906" lat="60.0060777779" lon="9.56472500749">
		<tag k="fixme" v="multiple name tags, choose one and add the other to alt_name" />
		<tag k="name" v="Nedre Rolighøl;Roligholsetra" />
		<tag k="place" v="locality" />
		<tag k="ssr:stedsnr" v="793004" />
	</node>
	<node id="-182211" lat="60.1284444425" lon="9.43647221389">
		<tag k="name" v="Nedre Øygarden" />
		<tag k="place" v="farm" />
		<tag k="ssr:stedsnr" v="871145" />
	</node>
	<node id="-181904" lat="59.9603772299" lon="9.64346864476">
		<tag k="fixme" v="consider place=hamlet" />
		<tag k="name" v="Skuggerud" />
		<tag k="place" v="farm" />
		<tag k="ssr:stedsnr" v="792773" />
	</node>
	<node id="-181902" lat="59.9615499987" lon="9.81997500383">
		<tag k="name" v="Nordby" />
		<tag k="place" v="farm" />
		<tag k="ssr:stedsnr" v="792752" />
	</node>
	<node id="-181901" lat="59.9854411836" lon="9.58738881744">
		<tag k="alt_name" v="Øvre Nordli" />
		<tag k="fixme" v="consider place=hamlet" />
		<tag k="name" v="Nordli" />
		<tag k="place" v="farm" />
		<tag k="ssr:stedsnr" v="792288" />
	</node>
	<node id="-181900" lat="60.0647416704" lon="9.7451166625">
		<tag k="historic" v="shieling" />
		<tag k="name" v="Mosetra" />
		<tag k="place" v="locality" />
		<tag k="ssr:stedsnr" v="785938" />
	</node>
	<node id="-181898" lat="60.1739583302" lon="9.4783166632">
		<tag k="name" v="Trulsehytta" />
		<tag k="place" v="isolated_dwelling" />
		<tag k="ssr:stedsnr" v="793485" />
	</node>
	<node id="-181897" lat="60.1319888895" lon="9.56968055303">
		<tag k="alt_name" v="Skomannrudsetra" />
		<tag k="historic" v="shieling" />
		<tag k="name" v="Skomannrud" />
		<tag k="place" v="locality" />
		<tag k="ssr:stedsnr" v="793463" />
	</node>
	<node id="-181895" lat="60.1384861138" lon="9.42644166139">
		<tag k="alt_name" v="Bergerud" />
		<tag k="name" v="Øvre Bergerud" />
		<tag k="place" v="farm" />
		<tag k="ssr:stedsnr" v="793448" />
	</node>
	<node id="-181893" lat="60.1030730686" lon="9.51911208561">
		<tag k="fixme" v="consider place=hamlet" />
		<tag k="name" v="Moen" />
		<tag k="place" v="farm" />
		<tag k="ssr:stedsnr" v="793426" />
	</node>
	<node id="-181892" lat="60.1153916655" lon="9.50278332752">
		<tag k="name" v="Flatlihytta" />
		<tag k="place" v="isolated_dwelling" />
		<tag k="ssr:stedsnr" v="793418" />
	</node>
	<node id="-181891" lat="60.1188361107" lon="9.46528056162">
		<tag k="name" v="Nordre Haga" />
		<tag k="place" v="farm" />
		<tag k="ssr:stedsnr" v="793412" />
	</node>
	<node id="-181890" lat="60.1125166661" lon="9.30788889375">
		<tag k="name" v="Sagstua" />
		<tag k="place" v="isolated_dwelling" />
		<tag k="ssr:stedsnr" v="793406" />
	</node>
	<node id="-179840" lat="59.9605861132" lon="9.83619443636">
		<tag k="name" v="Langbråtan" />
		<tag k="place" v="isolated_dwelling" />
		<tag k="ssr:stedsnr" v="93664" />
	</node>
	<node id="-179836" lat="60.041561114" lon="9.67653889169">
		<tag k="name" v="Granheim" />
		<tag k="place" v="isolated_dwelling" />
		<tag k="ssr:stedsnr" v="93530" />
	</node>
	<node id="-179834" lat="60.0424888905" lon="9.60246666962">
		<tag k="name" v="Lille-Sund" />
		<tag k="place" v="farm" />
		<tag k="ssr:stedsnr" v="93598" />
	</node>
	<node id="-179833" lat="60.034861108" lon="9.60175554924">
		<tag k="name" v="Korsen" />
		<tag k="place" v="locality" />
		<tag k="ssr:stedsnr" v="93595" />
	</node>
	<node id="-181879" lat="60.0689694475" lon="9.66006389407">
		<tag k="name" v="Bjønnemyrhytta" />
		<tag k="place" v="isolated_dwelling" />
		<tag k="ssr:stedsnr" v="761482" />
	</node>
	<node id="-179830" lat="60.0277444445" lon="9.66298611417">
		<tag k="name" v="Varsla" />
		<tag k="place" v="locality" />
		<tag k="ssr:stedsnr" v="93568" />
	</node>
	<node id="-179827" lat="60.0798361097" lon="9.5259305529">
		<tag k="name" v="Bekken" />
		<tag k="place" v="farm" />
		<tag k="ssr:stedsnr" v="93493" />
	</node>
	<node id="-179826" lat="60.1142694413" lon="9.60725832786">
		<tag k="name" v="Øyvassbu" />
		<tag k="place" v="locality" />
		<tag k="ssr:stedsnr" v="93476" />
	</node>
	<node id="-181872" lat="60.0789555586" lon="9.74700276925">
		<tag k="name" v="Østre Finnerud" />
		<tag k="place" v="farm" />
		<tag k="ssr:stedsnr" v="760906" />
	</node>
	<node id="-179817" lat="60.0523250003" lon="9.54347499944">
		<tag k="name" v="Flåganbråtan" />
		<tag k="place" v="farm" />
		<tag k="ssr:stedsnr" v="93385" />
	</node>
	<node id="-179815" lat="60.0860027797" lon="9.67319167366">
		<tag k="name" v="Kroktjennhytta" />
		<tag k="place" v="isolated_dwelling" />
		<tag k="ssr:stedsnr" v="93358" />
	</node>
	<node id="-181859" lat="60.0445305529" lon="9.60313332508">
		<tag k="name" v="Bjørnsjordet" />
		<tag k="place" v="farm" />
		<tag k="ssr:stedsnr" v="760756" />
	</node>
	<node id="-181857" lat="60.0066472192" lon="9.56918611735">
		<tag k="name" v="Øvre Rolighøl" />
		<tag k="place" v="locality" />
		<tag k="ssr:stedsnr" v="760730" />
	</node>
	<node id="-181855" lat="60.0429111116" lon="9.61530000693">
		<tag k="name" v="Eikli" />
		<tag k="place" v="farm" />
		<tag k="ssr:stedsnr" v="760676" />
	</node>
	<node id="-181854" lat="60.0396527749" lon="9.64805000067">
		<tag k="name" v="Østre Ebbesberg" />
		<tag k="place" v="farm" />
		<tag k="ssr:stedsnr" v="760661" />
	</node>
	<node id="-181853" lat="60.0387888917" lon="9.64448888699">
		<tag k="name" v="Lund" />
		<tag k="place" v="isolated_dwelling" />
		<tag k="ssr:stedsnr" v="760660" />
	</node>
	<node id="-181852" lat="60.0374527795" lon="9.6511000001">
		<tag k="name" v="Skogli" />
		<tag k="place" v="farm" />
		<tag k="ssr:stedsnr" v="760659" />
	</node>
	<node id="-179802" lat="60.0154638929" lon="9.68634722851">
		<tag k="name" v="Lillemoen" />
		<tag k="place" v="farm" />
		<tag k="ssr:stedsnr" v="93225" />
	</node>
	<node id="-179801" lat="60.0021111152" lon="9.73646944838">
		<tag k="amenity" v="school" />
		<tag k="name" v="Nerstad skole" />
		<tag k="ssr:stedsnr" v="93208" />
	</node>
	<node id="-181845" lat="60.0403250042" lon="9.67347500887">
		<tag k="name" v="Fagernes" />
		<tag k="place" v="isolated_dwelling" />
		<tag k="ssr:stedsnr" v="760608" />
	</node>
	<node id="-181844" lat="60.0453472192" lon="9.67643888534">
		<tag k="alt_name" v="Plassene" />
		<tag k="name" v="Nedre Reistad" />
		<tag k="place" v="farm" />
		<tag k="ssr:stedsnr" v="760605" />
	</node>
	<node id="-181842" lat="59.9954805547" lon="9.76458611184">
		<tag k="name" v="Torrud" />
		<tag k="place" v="locality" />
		<tag k="ssr:stedsnr" v="760598" />
	</node>
	<node id="-181841" lat="59.989569444" lon="9.74936666976">
		<tag k="name" v="Lyngstad" />
		<tag k="ssr:stedsnr" v="760589" />
		<tag k="tourism" v="camp_site" />
	</node>
	<node id="-180295" lat="59.9601638847" lon="9.77432221363">
		<tag k="name" v="Flomnes" />
		<tag k="place" v="farm" />
		<tag k="ssr:stedsnr" v="214439" />
	</node>
	<node id="-181838" lat="59.9477861087" lon="9.69742500574">
		<tag k="historic" v="shieling" />
		<tag k="name" v="Berganlia" />
		<tag k="place" v="locality" />
		<tag k="ssr:stedsnr" v="760570" />
	</node>
	<node id="-179789" lat="59.9814333358" lon="9.68176945006">
		<tag k="name" v="Gamlemannstykket" />
		<tag k="place" v="locality" />
		<tag k="ssr:stedsnr" v="93123" />
	</node>
	<node id="-179786" lat="59.9850472209" lon="9.58869443954">
		<tag k="name" v="Nedre Nordli" />
		<tag k="place" v="farm" />
		<tag k="ssr:stedsnr" v="93093" />
	</node>
	<node id="-182199" lat="60.1628444479" lon="9.37729166664">
		<tag k="name" v="Biksrud" />
		<tag k="place" v="farm" />
		<tag k="ssr:stedsnr" v="855445" />
	</node>
	<node id="-182198" lat="60.1461333316" lon="9.29349166583">
		<tag k="fixme" v="multiple name tags, choose one and add the other to alt_name" />
		<tag k="historic" v="shieling" />
		<tag k="name" v="Venli;Venlisetra" />
		<tag k="old_name" v="Venlis-r" />
		<tag k="place" v="locality" />
		<tag k="ssr:stedsnr" v="855403" />
	</node>
	<node id="-181825" lat="60.0916250002" lon="9.47518611106">
		<tag k="name" v="Nedre Hov" />
		<tag k="place" v="farm" />
		<tag k="ssr:stedsnr" v="760429" />
	</node>
	<node id="-182204" lat="60.2693777759" lon="9.35555554889">
		<tag k="fixme" v="multiple name tags, choose one and add the other to alt_name" />
		<tag k="name" v="Bergsetra;Nisetra" />
		<tag k="place" v="isolated_dwelling" />
		<tag k="ssr:stedsnr" v="856091" />
	</node>
	<node id="-181819" lat="59.9775555564" lon="9.73931110552">
		<tag k="name" v="Lykkeflata" />
		<tag k="place" v="locality" />
		<tag k="ssr:stedsnr" v="760380" />
	</node>
	<node id="-181172" lat="60.2213038116" lon="9.35103488082">
		<tag k="fixme" v="consider place=hamlet" />
		<tag k="name" v="Åsan" />
		<tag k="place" v="farm" />
		<tag k="ssr:stedsnr" v="611270" />
	</node>
	<node id="-181813" lat="60.1039777787" lon="9.45624722275">
		<tag k="name" v="Ulbergsrødningen" />
		<tag k="place" v="farm" />
		<tag k="ssr:stedsnr" v="760323" />
	</node>
	<node id="-182195" lat="60.2311694421" lon="9.40357222479">
		<tag k="alt_name" v="Ellevsrud" />
		<tag k="name" v="Søre Ellevsrud" />
		<tag k="place" v="farm" />
		<tag k="ssr:stedsnr" v="855261" />
	</node>
	<node id="-181512" lat="60.1348305532" lon="9.38130000849">
		<tag k="historic" v="shieling" />
		<tag k="name" v="Bergerudseter" />
		<tag k="place" v="locality" />
		<tag k="ssr:stedsnr" v="698060" />
	</node>
	<node id="-181806" lat="60.0050750006" lon="9.67469721798">
		<tag k="name" v="Liarbu" />
		<tag k="place" v="isolated_dwelling" />
		<tag k="ssr:stedsnr" v="760130" />
	</node>
	<node id="-180430" lat="60.0493694429" lon="9.68689723056">
		<tag k="alt_name" v="Reistad mellom;Reistad" />
		<tag k="name" v="Mellom-Reistad" />
		<tag k="place" v="farm" />
		<tag k="ssr:stedsnr" v="422288" />
	</node>
	<node id="-179747" lat="60.1143555564" lon="9.46057500434">
		<tag k="building" v="industrial" />
		<tag k="name" v="Sag" />
		<tag k="ssr:stedsnr" v="91432" />
	</node>
	<node id="-179743" lat="60.1364083357" lon="9.44764999884">
		<tag k="name" v="Østerøya" />
		<tag k="place" v="isolated_dwelling" />
		<tag k="ssr:stedsnr" v="91382" />
	</node>
	<node id="-180485" lat="60.2380119582" lon="9.37992947152">
		<tag k="fixme" v="consider place=hamlet" />
		<tag k="name" v="Besserud" />
		<tag k="place" v="farm" />
		<tag k="ssr:stedsnr" v="430300" />
	</node>
	<node id="-181778" lat="60.1404555525" lon="9.4319388911">
		<tag k="name" v="Nedre Bergerud" />
		<tag k="place" v="farm" />
		<tag k="ssr:stedsnr" v="759310" />
	</node>
	<node id="-181777" lat="60.1358555547" lon="9.42313888262">
		<tag k="name" v="Brustedstykket" />
		<tag k="place" v="locality" />
		<tag k="ssr:stedsnr" v="759308" />
	</node>
	<node id="-179726" lat="60.3079944423" lon="9.15460554788">
		<tag k="historic" v="shieling" />
		<tag k="name" v="Øvre Reset" />
		<tag k="place" v="locality" />
		<tag k="ssr:stedsnr" v="91023" />
	</node>
	<node id="-182189" lat="60.0131527774" lon="9.69891667099">
		<tag k="name" v="Elverum" />
		<tag k="place" v="farm" />
		<tag k="ssr:stedsnr" v="854964" />
	</node>
	<node id="-179724" lat="60.2427833316" lon="9.28966666531">
		<tag k="name" v="Nedre Skåla" />
		<tag k="place" v="farm" />
		<tag k="ssr:stedsnr" v="90895" />
	</node>
	<node id="-179721" lat="60.2505973461" lon="9.27569862668">
		<tag k="name" v="Gamlerødningen" />
		<tag k="place" v="locality" />
		<tag k="ssr:stedsnr" v="90872" />
	</node>
	<node id="-181768" lat="60.2085916667" lon="9.37824444647">
		<tag k="name" v="Kvernrud" />
		<tag k="place" v="farm" />
		<tag k="ssr:stedsnr" v="758894" />
	</node>
	<node id="-182188" lat="60.016355553" lon="9.7244194473">
		<tag k="name" v="Hovlandsmoen" />
		<tag k="place" v="farm" />
		<tag k="ssr:stedsnr" v="854961" />
	</node>
	<node id="-179718" lat="60.2719499961" lon="9.33026110727">
		<tag k="name" v="Nysetra" />
		<tag k="place" v="isolated_dwelling" />
		<tag k="ssr:stedsnr" v="90667" />
	</node>
	<node id="-179716" lat="60.2896555579" lon="9.25859167347">
		<tag k="name" v="Bergerud" />
		<tag k="place" v="isolated_dwelling" />
		<tag k="ssr:stedsnr" v="90613" />
	</node>
	<node id="-181763" lat="60.2317805556" lon="9.37164999578">
		<tag k="name" v="Rundemyr" />
		<tag k="place" v="isolated_dwelling" />
		<tag k="ssr:stedsnr" v="758853" />
	</node>
	<node id="-180480" lat="60.0894194475" lon="9.488200004">
		<tag k="name" v="Bjøre" />
		<tag k="place" v="farm" />
		<tag k="ssr:stedsnr" v="430100" />
	</node>
	<node id="-182186" lat="59.9931500012" lon="9.75192778134">
		<tag k="name" v="Lyubråtan" />
		<tag k="place" v="farm" />
		<tag k="ssr:stedsnr" v="854956" />
	</node>
	<node id="-180479" lat="60.0792249962" lon="9.51682222897">
		<tag k="name" v="Brubråtan" />
		<tag k="place" v="farm" />
		<tag k="ssr:stedsnr" v="430088" />
	</node>
	<node id="-179703" lat="60.0098972264" lon="9.75113610502">
		<tag k="name" v="Skatvet" />
		<tag k="place" v="farm" />
		<tag k="ssr:stedsnr" v="83372" />
	</node>
	<node id="-181748" lat="60.2769777803" lon="9.34018332715">
		<tag k="historic" v="shieling" />
		<tag k="name" v="Bjørnerudsetra" />
		<tag k="place" v="locality" />
		<tag k="ssr:stedsnr" v="758483" />
	</node>
	<node id="-179699" lat="60.2503444457" lon="9.43594165994">
		<tag k="alt_name" v="Bjertnesseter" />
		<tag k="historic" v="shieling" />
		<tag k="name" v="Bjertnessetra" />
		<tag k="place" v="locality" />
		<tag k="ssr:stedsnr" v="67917" />
	</node>
	<node id="-179693" lat="60.2856499956" lon="9.21400278546">
		<tag k="historic" v="shieling" />
		<tag k="name" v="Miset" />
		<tag k="place" v="locality" />
		<tag k="ssr:stedsnr" v="67283" />
	</node>
	<node id="-179691" lat="60.2762361257" lon="9.27162259391">
		<tag k="fixme" v="consider place=hamlet" />
		<tag k="name" v="Råmannset" />
		<tag k="place" v="farm" />
		<tag k="ssr:stedsnr" v="67129" />
	</node>
	<node id="-179690" lat="60.2732583341" lon="9.26251111657">
		<tag k="name" v="Brekka" />
		<tag k="place" v="farm" />
		<tag k="ssr:stedsnr" v="67125" />
	</node>
	<node id="-179688" lat="60.2771472198" lon="9.22449722026">
		<tag k="fixme" v="multiple name tags, choose one and add the other to alt_name" />
		<tag k="name" v="Solli heimseter;Sollisetra" />
		<tag k="place" v="isolated_dwelling" />
		<tag k="ssr:stedsnr" v="67091" />
	</node>
	<node id="-179687" lat="60.282349911" lon="9.26183040817">
		<tag k="alt_name" v="Nordre Ligarden" />
		<tag k="fixme" v="consider place=hamlet" />
		<tag k="name" v="Ligarden" />
		<tag k="place" v="farm" />
		<tag k="ssr:stedsnr" v="67089" />
	</node>
	<node id="-179681" lat="60.0530205087" lon="9.62906873781">
		<tag k="alt_name" v="Østre Ramstad" />
		<tag k="fixme" v="consider place=hamlet" />
		<tag k="name" v="Ramstad" />
		<tag k="place" v="farm" />
		<tag k="ssr:stedsnr" v="66896" />
	</node>
	<node id="-181728" lat="60.2510916652" lon="9.31342777379">
		<tag k="name" v="Heimdal" />
		<tag k="place" v="isolated_dwelling" />
		<tag k="ssr:stedsnr" v="758114" />
	</node>
	<node id="-179678" lat="60.2457277512" lon="9.37283074475">
		<tag k="fixme" v="consider place=hamlet" />
		<tag k="name" v="Haugen" />
		<tag k="place" v="farm" />
		<tag k="ssr:stedsnr" v="66313" />
	</node>
	<node id="-181725" lat="60.2978527746" lon="9.23618333421">
		<tag k="name" v="Jonsbråtan" />
		<tag k="place" v="locality" />
		<tag k="ssr:stedsnr" v="758102" />
	</node>
	<node id="-179676" lat="60.2444277808" lon="9.38039722652">
		<tag k="name" v="Gulsrud" />
		<tag k="place" v="isolated_dwelling" />
		<tag k="ssr:stedsnr" v="66309" />
	</node>
	<node id="-179675" lat="60.2292861116" lon="9.40921666233">
		<tag k="historic" v="shieling" />
		<tag k="name" v="Torrud" />
		<tag k="place" v="locality" />
		<tag k="ssr:stedsnr" v="66239" />
	</node>
	<node id="-179674" lat="60.0911749977" lon="9.52033610638">
		<tag k="name" v="Lesteberg" />
		<tag k="place" v="farm" />
		<tag k="ssr:stedsnr" v="66110" />
	</node>
	<node id="-179673" lat="60.079672224" lon="9.47680554902">
		<tag k="name" v="Myran" />
		<tag k="place" v="farm" />
		<tag k="ssr:stedsnr" v="66101" />
	</node>
	<node id="-179672" lat="60.0741277819" lon="9.5318722144">
		<tag k="name" v="Vesle Eidal" />
		<tag k="place" v="farm" />
		<tag k="ssr:stedsnr" v="66095" />
	</node>
	<node id="-179671" lat="60.0454277737" lon="9.58128334065">
		<tag k="name" v="Paddegropa" />
		<tag k="place" v="isolated_dwelling" />
		<tag k="ssr:stedsnr" v="66060" />
	</node>
	<node id="-179670" lat="60.0024388855" lon="9.75382778073">
		<tag k="alt_name" v="By" />
		<tag k="name" v="Nordre By" />
		<tag k="place" v="farm" />
		<tag k="ssr:stedsnr" v="65977" />
	</node>
	<node id="-179669" lat="60.0035555514" lon="9.75800000744">
		<tag k="fixme" v="multiple name tags, choose one and add the other to alt_name" />
		<tag k="name" v="Byhovet;Øvre By" />
		<tag k="place" v="farm" />
		<tag k="ssr:stedsnr" v="65972" />
	</node>
	<node id="-181716" lat="60.219691664" lon="9.27052222823">
		<tag k="historic" v="shieling" />
		<tag k="name" v="Storhovdvollen" />
		<tag k="place" v="locality" />
		<tag k="ssr:stedsnr" v="757450" />
	</node>
	<node id="-179667" lat="59.9874527804" lon="9.61433611717">
		<tag k="name" v="Bergerud" />
		<tag k="place" v="farm" />
		<tag k="ssr:stedsnr" v="65959" />
	</node>
	<node id="-179666" lat="60.0292997485" lon="9.66162134627">
		<tag k="fixme" v="consider place=hamlet" />
		<tag k="name" v="Brandsrud" />
		<tag k="place" v="farm" />
		<tag k="ssr:stedsnr" v="65956" />
	</node>
	<node id="-182179" lat="60.0454388877" lon="9.69117777935">
		<tag k="name" v="Ås" />
		<tag k="place" v="farm" />
		<tag k="ssr:stedsnr" v="854899" />
	</node>
	<node id="-179664" lat="59.9838146534" lon="9.73440094208">
		<tag k="alt_name" v="Nordre Kvisle" />
		<tag k="fixme" v="consider place=hamlet" />
		<tag k="name" v="Kvisle" />
		<tag k="place" v="farm" />
		<tag k="ssr:stedsnr" v="65951" />
	</node>
	<node id="-179663" lat="60.0163666699" lon="9.61504166899">
		<tag k="historic" v="shieling" />
		<tag k="name" v="Mollerudsetra" />
		<tag k="place" v="locality" />
		<tag k="ssr:stedsnr" v="65950" />
	</node>
	<node id="-179662" lat="60.0375222199" lon="9.67503611513">
		<tag k="name" v="Piskerud" />
		<tag k="place" v="farm" />
		<tag k="ssr:stedsnr" v="65948" />
	</node>
	<node id="-181837" lat="59.9795611074" lon="9.75044721741">
		<tag k="name" v="Aker" />
		<tag k="place" v="farm" />
		<tag k="ssr:stedsnr" v="760566" />
	</node>
	<node id="-179659" lat="60.2114222259" lon="9.36381111746">
		<tag k="name" v="Stallsbråtan" />
		<tag k="place" v="farm" />
		<tag k="ssr:stedsnr" v="65465" />
	</node>
	<node id="-179658" lat="60.2136833315" lon="9.37145277301">
		<tag k="name" v="Ertesprang" />
		<tag k="place" v="farm" />
		<tag k="ssr:stedsnr" v="65463" />
	</node>
	<node id="-179656" lat="60.1871355942" lon="9.48242511486">
		<tag k="fixme" v="consider place=hamlet" />
		<tag k="name" v="Omlia" />
		<tag k="place" v="farm" />
		<tag k="ssr:stedsnr" v="65429" />
	</node>
	<node id="-181703" lat="60.0175036954" lon="9.67940295853">
		<tag k="name" v="Dalen" />
		<tag k="place" v="locality" />
		<tag k="ssr:stedsnr" v="753749" />
	</node>
	<node id="-179654" lat="60.1326361119" lon="9.39081666127">
		<tag k="name" v="Bergerudsetra" />
		<tag k="place" v="isolated_dwelling" />
		<tag k="ssr:stedsnr" v="65419" />
	</node>
	<node id="-181700" lat="60.0347416623" lon="9.65996110589">
		<tag k="name" v="Nedre Rolstad" />
		<tag k="place" v="farm" />
		<tag k="ssr:stedsnr" v="750339" />
	</node>
	<node id="-179651" lat="60.1454722183" lon="9.42970555796">
		<tag k="name" v="Hefta" />
		<tag k="place" v="isolated_dwelling" />
		<tag k="ssr:stedsnr" v="65403" />
	</node>
	<node id="-179650" lat="60.1022222198" lon="9.58515555787">
		<tag k="alt_name" v="Kvistoppsetra" />
		<tag k="name" v="Kvistoppseter" />
		<tag k="place" v="isolated_dwelling" />
		<tag k="ssr:stedsnr" v="65389" />
	</node>
	<node id="-181697" lat="60.1825944445" lon="9.27851944223">
		<tag k="historic" v="shieling" />
		<tag k="name" v="Skårsetra" />
		<tag k="place" v="locality" />
		<tag k="ssr:stedsnr" v="750112" />
	</node>
	<node id="-179648" lat="60.103636326" lon="9.4689524065">
		<tag k="fixme" v="consider place=hamlet" />
		<tag k="name" v="Narum" />
		<tag k="place" v="farm" />
		<tag k="ssr:stedsnr" v="65385" />
	</node>
	<node id="-179647" lat="60.0824694473" lon="9.65021389084">
		<tag k="name" v="Holmensetra" />
		<tag k="place" v="locality" />
		<tag k="ssr:stedsnr" v="66842" />
	</node>
	<node id="-179642" lat="60.0728722212" lon="9.58740555058">
		<tag k="alt_name" v="Viksetra" />
		<tag k="name" v="Vikseter" />
		<tag k="place" v="isolated_dwelling" />
		<tag k="ssr:stedsnr" v="65066" />
	</node>
	<node id="-181689" lat="60.2760916668" lon="9.34359444792">
		<tag k="historic" v="shieling" />
		<tag k="name" v="Åssetra" />
		<tag k="place" v="locality" />
		<tag k="ssr:stedsnr" v="734121" />
	</node>
	<node id="-181688" lat="60.2756222267" lon="9.29913332802">
		<tag k="historic" v="shieling" />
		<tag k="name" v="Skaresetran" />
		<tag k="place" v="locality" />
		<tag k="ssr:stedsnr" v="734119" />
	</node>
	<node id="-181687" lat="60.2750833322" lon="9.26259166995">
		<tag k="fixme" v="consider place=hamlet" />
		<tag k="name" v="Nordbygda" />
		<tag k="place" v="village" />
		<tag k="ssr:stedsnr" v="734118" />
	</node>
	<node id="-179638" lat="59.9719500009" lon="9.72909167212">
		<tag k="name" v="Solvang" />
		<tag k="place" v="farm" />
		<tag k="ssr:stedsnr" v="64818" />
	</node>
	<node id="-179637" lat="59.9572776678" lon="9.65477183119">
		<tag k="alt_name" v="Øvre Grønset" />
		<tag k="fixme" v="consider place=hamlet" />
		<tag k="name" v="Grønset" />
		<tag k="place" v="farm" />
		<tag k="ssr:stedsnr" v="64804" />
	</node>
	<node id="-179636" lat="59.9572377016" lon="9.75829974184">
		<tag k="name" v="Åby" />
		<tag k="place" v="hamlet" />
		<tag k="ssr:stedsnr" v="64799" />
	</node>
	<node id="-181683" lat="60.2855305573" lon="9.26770277989">
		<tag k="historic" v="shieling" />
		<tag k="name" v="Ligardshaugen" />
		<tag k="place" v="locality" />
		<tag k="ssr:stedsnr" v="734075" />
	</node>
	<node id="-181682" lat="60.3145888849" lon="9.30296111277">
		<tag k="historic" v="shieling" />
		<tag k="name" v="Sandvassetra" />
		<tag k="place" v="locality" />
		<tag k="ssr:stedsnr" v="734036" />
	</node>
	<node id="-179633" lat="60.2411250042" lon="9.23663889054">
		<tag k="alt_name" v="Hagan" />
		<tag k="name" v="Bøleshagan" />
		<tag k="place" v="farm" />
		<tag k="ssr:stedsnr" v="65268" />
	</node>
	<node id="-179632" lat="60.2428333297" lon="9.25545277875">
		<tag k="alt_name" v="Berget" />
		<tag k="name" v="Øvre Berget" />
		<tag k="place" v="farm" />
		<tag k="ssr:stedsnr" v="65265" />
	</node>
	<node id="-181678" lat="60.0826083344" lon="9.69940555189">
		<tag k="alt_name" v="Reistadseter" />
		<tag k="historic" v="shieling" />
		<tag k="name" v="Reistadsetra" />
		<tag k="place" v="locality" />
		<tag k="ssr:stedsnr" v="733853" />
	</node>
	<node id="-179625" lat="60.0684750031" lon="9.45779167139">
		<tag k="name" v="Skreddarrudrødningen" />
		<tag k="place" v="locality" />
		<tag k="ssr:stedsnr" v="32982" />
	</node>
	<node id="-181670" lat="60.1200133854" lon="9.33378498843">
		<tag k="historic" v="shieling" />
		<tag k="name" v="Nedalen" />
		<tag k="place" v="locality" />
		<tag k="ssr:stedsnr" v="733362" />
	</node>
	<node id="-180465" lat="59.940297225" lon="9.72751667431">
		<tag k="historic" v="shieling" />
		<tag k="name" v="Åbysetra" />
		<tag k="place" v="locality" />
		<tag k="ssr:stedsnr" v="429756" />
	</node>
	<node id="-181668" lat="60.2458250006" lon="9.35686110514">
		<tag k="name" v="Eggedal" />
		<tag k="place" v="village" />
		<tag k="ssr:stedsnr" v="733283" />
	</node>
	<node id="-181667" lat="60.2322637718" lon="9.3071358562">
		<tag k="fixme" v="consider place=hamlet" />
		<tag k="name" v="Tjernås" />
		<tag k="place" v="farm" />
		<tag k="ssr:stedsnr" v="733251" />
	</node>
	<node id="-179618" lat="60.0575749979" lon="9.62464723108">
		<tag k="name" v="Rullerud" />
		<tag k="place" v="locality" />
		<tag k="ssr:stedsnr" v="32760" />
	</node>
	<node id="-181664" lat="60.0974611136" lon="9.45318333329">
		<tag k="alt_name" v="Ulberg" />
		<tag k="name" v="Øvre Ulberg" />
		<tag k="place" v="farm" />
		<tag k="ssr:stedsnr" v="733140" />
	</node>
	<node id="-181662" lat="60.0846861154" lon="9.45807499191">
		<tag k="name" v="Skreddarrud" />
		<tag k="place" v="farm" />
		<tag k="ssr:stedsnr" v="733119" />
	</node>
	<node id="-181660" lat="60.0782222214" lon="9.46653332962">
		<tag k="name" v="Øvre Båsum" />
		<tag k="place" v="farm" />
		<tag k="ssr:stedsnr" v="733105" />
	</node>
	<node id="-179611" lat="60.0180361121" lon="9.69855000728">
		<tag k="name" v="Skorta" />
		<tag k="place" v="isolated_dwelling" />
		<tag k="ssr:stedsnr" v="32743" />
	</node>
	<node id="-179609" lat="60.035343424" lon="9.57817333205">
		<tag k="name" v="Bergerud" />
		<tag k="place" v="farm" />
		<tag k="ssr:stedsnr" v="32706" />
	</node>
	<node id="-181656" lat="59.9831555538" lon="9.59730556149">
		<tag k="name" v="Nedre Emmerud" />
		<tag k="place" v="farm" />
		<tag k="ssr:stedsnr" v="732954" />
	</node>
	<node id="-179605" lat="59.9535194423" lon="9.80957221681">
		<tag k="name" v="Søre Mellom-Nes" />
		<tag k="place" v="farm" />
		<tag k="ssr:stedsnr" v="32642" />
	</node>
	<node id="-181652" lat="60.0335277787" lon="9.64031666826">
		<tag k="name" v="Neggen" />
		<tag k="place" v="farm" />
		<tag k="ssr:stedsnr" v="732937" />
	</node>
	<node id="-179603" lat="60.0382333289" lon="9.64682222833">
		<tag k="name" v="Vestre Ebbesberg" />
		<tag k="place" v="farm" />
		<tag k="ssr:stedsnr" v="32627" />
	</node>
	<node id="-181650" lat="60.0335138866" lon="9.60720555737">
		<tag k="name" v="Nordre Rustan" />
		<tag k="place" v="farm" />
		<tag k="ssr:stedsnr" v="732934" />
	</node>
	<node id="-181649" lat="60.0365336553" lon="9.59409542505">
		<tag k="name" v="Hovelsås" />
		<tag k="place" v="farm" />
		<tag k="ssr:stedsnr" v="732932" />
	</node>
	<node id="-181647" lat="60.0451416695" lon="9.64899999124">
		<tag k="name" v="Åsen" />
		<tag k="place" v="farm" />
		<tag k="ssr:stedsnr" v="732918" />
	</node>
	<node id="-181646" lat="60.0543055528" lon="9.60433610353">
		<tag k="alt_name" v="Vik" />
		<tag k="name" v="Øvre Vik" />
		<tag k="place" v="farm" />
		<tag k="ssr:stedsnr" v="732894" />
	</node>
	<node id="-181645" lat="60.0529888934" lon="9.6364861117">
		<tag k="name" v="Solbakken" />
		<tag k="place" v="farm" />
		<tag k="ssr:stedsnr" v="732888" />
	</node>
	<node id="-179594" lat="60.0428444453" lon="9.67874166068">
		<tag k="name" v="Grønli" />
		<tag k="place" v="locality" />
		<tag k="ssr:stedsnr" v="32568" />
	</node>
	<node id="-181640" lat="59.9609526143" lon="9.62688843288">
		<tag k="alt_name" v="Øvre Vatnås" />
		<tag k="name" v="Vatnås" />
		<tag k="place" v="hamlet" />
		<tag k="ssr:stedsnr" v="732795" />
	</node>
	<node id="-179591" lat="59.9858250037" lon="9.75030000275">
		<tag k="building" v="industrial" />
		<tag k="name" v="Mølle" />
		<tag k="ssr:stedsnr" v="32548" />
	</node>
	<node id="-181638" lat="59.9664249947" lon="9.78508842628">
		<tag k="fixme" v="consider place=hamlet" />
		<tag k="name" v="Solum" />
		<tag k="place" v="farm" />
		<tag k="ssr:stedsnr" v="732783" />
	</node>
	<node id="-179589" lat="59.9473583378" lon="9.70033889445">
		<tag k="historic" v="shieling" />
		<tag k="name" v="Løkvoll" />
		<tag k="place" v="locality" />
		<tag k="ssr:stedsnr" v="32530" />
	</node>
	<node id="-181634" lat="60.2123833377" lon="9.36928333308">
		<tag k="name" v="Søre Rønningen" />
		<tag k="place" v="farm" />
		<tag k="ssr:stedsnr" v="732499" />
	</node>
	<node id="-179585" lat="60.1200416701" lon="9.59049721472">
		<tag k="name" v="Bergstykket" />
		<tag k="place" v="locality" />
		<tag k="ssr:stedsnr" v="32490" />
	</node>
	<node id="-181632" lat="60.1282638908" lon="9.43083610597">
		<tag k="name" v="Øvre Øygarden" />
		<tag k="place" v="farm" />
		<tag k="ssr:stedsnr" v="732390" />
	</node>
	<node id="-182165" lat="60.1316527777" lon="9.56925834173">
		<tag k="historic" v="shieling" />
		<tag k="name" v="Hagansetra" />
		<tag k="place" v="locality" />
		<tag k="ssr:stedsnr" v="854425" />
	</node>
	<node id="-181627" lat="59.9982444443" lon="9.53604999277">
		<tag k="name" v="Bjørnsjordsetra" />
		<tag k="place" v="farm" />
		<tag k="ssr:stedsnr" v="732273" />
	</node>
	<node id="-181626" lat="60.0618124094" lon="9.49618274914">
		<tag k="fixme" v="consider place=hamlet" />
		<tag k="name" v="Veggesrud" />
		<tag k="place" v="farm" />
		<tag k="ssr:stedsnr" v="732087" />
	</node>
	<node id="-181625" lat="60.0598111112" lon="9.52168888762">
		<tag k="name" v="Hellerud" />
		<tag k="place" v="farm" />
		<tag k="ssr:stedsnr" v="732084" />
	</node>
	<node id="-181622" lat="59.9982027746" lon="9.72988055127">
		<tag k="name" v="Torrud" />
		<tag k="place" v="farm" />
		<tag k="ssr:stedsnr" v="701996" />
	</node>
	<node id="-181621" lat="60.0349777779" lon="9.7050055601">
		<tag k="name" v="Søre Hoffar" />
		<tag k="place" v="farm" />
		<tag k="ssr:stedsnr" v="700991" />
	</node>
	<node id="-180115" lat="60.0113333314" lon="9.50616943589">
		<tag k="name" v="Mellom-Hiåsen" />
		<tag k="place" v="farm" />
		<tag k="ssr:stedsnr" v="154132" />
	</node>
	<node id="-178719" lat="60.0169166695" lon="9.69883611013">
		<tag k="name" v="Åsland" />
		<tag k="place" v="isolated_dwelling" />
		<tag k="ssr:stedsnr" v="275246" />
	</node>
	<node id="-179564" lat="60.0443888928" lon="9.55841389271">
		<tag k="name" v="Nedre Flågan" />
		<tag k="place" v="farm" />
		<tag k="ssr:stedsnr" v="32335" />
	</node>
	<node id="-180796" lat="60.2405305558" lon="9.22504444561">
		<tag k="name" v="Hagastykket" />
		<tag k="place" v="locality" />
		<tag k="ssr:stedsnr" v="515841" />
	</node>
	<node id="-179557" lat="60.0118749965" lon="9.74200555129">
		<tag k="name" v="Nordre Støvern" />
		<tag k="place" v="farm" />
		<tag k="ssr:stedsnr" v="32203" />
	</node>
	<node id="-181604" lat="60.0062888876" lon="9.72949723011">
		<tag k="name" v="Flannum" />
		<tag k="place" v="farm" />
		<tag k="ssr:stedsnr" v="700773" />
	</node>
	<node id="-181592" lat="60.0493027796" lon="9.62845833966">
		<tag k="name" v="Søre Ramstad" />
		<tag k="place" v="farm" />
		<tag k="ssr:stedsnr" v="700558" />
	</node>
	<node id="-180452" lat="60.1820861084" lon="9.32281666699">
		<tag k="historic" v="shieling" />
		<tag k="name" v="Trilla" />
		<tag k="place" v="locality" />
		<tag k="ssr:stedsnr" v="429427" />
	</node>
	<node id="-179541" lat="60.1440305573" lon="9.44512222143">
		<tag k="name" v="Nordre Stubberud" />
		<tag k="place" v="farm" />
		<tag k="ssr:stedsnr" v="31481" />
	</node>
	<node id="-181587" lat="60.1213777789" lon="9.54466666155">
		<tag k="name" v="Uksebergstykkene" />
		<tag k="place" v="locality" />
		<tag k="ssr:stedsnr" v="700478" />
	</node>
	<node id="-181584" lat="59.9676694471" lon="9.80107222041">
		<tag k="name" v="Kløyva" />
		<tag k="place" v="isolated_dwelling" />
		<tag k="ssr:stedsnr" v="700435" />
	</node>
	<node id="-181578" lat="59.9706611091" lon="9.59867778662">
		<tag k="name" v="Solli" />
		<tag k="place" v="isolated_dwelling" />
		<tag k="ssr:stedsnr" v="700387" />
	</node>
	<node id="-181576" lat="60.017713885" lon="9.71984722841">
		<tag k="name" v="Sagmoen" />
		<tag k="place" v="farm" />
		<tag k="ssr:stedsnr" v="700303" />
	</node>
	<node id="-181575" lat="59.9876388927" lon="9.73951389084">
		<tag k="name" v="Nordre Gren" />
		<tag k="place" v="farm" />
		<tag k="ssr:stedsnr" v="700292" />
	</node>
	<node id="-181574" lat="59.9883777781" lon="9.73857777875">
		<tag k="name" v="Nordre Gren" />
		<tag k="place" v="farm" />
		<tag k="ssr:stedsnr" v="700291" />
	</node>
	<node id="-181573" lat="60.0131999963" lon="9.55712499941">
		<tag k="name" v="Tufta" />
		<tag k="place" v="locality" />
		<tag k="ssr:stedsnr" v="700284" />
	</node>
	<node id="-179519" lat="60.2492916641" lon="9.36208055259">
		<tag k="name" v="Nordre Nedre-Teige" />
		<tag k="place" v="farm" />
		<tag k="ssr:stedsnr" v="30515" />
	</node>
	<node id="-179518" lat="60.2717499965" lon="9.40747222705">
		<tag k="historic" v="shieling" />
		<tag k="name" v="Besserudseter" />
		<tag k="place" v="locality" />
		<tag k="ssr:stedsnr" v="30483" />
	</node>
	<node id="-181562" lat="60.0146805571" lon="9.47204999141">
		<tag k="name" v="Sveltihel" />
		<tag k="place" v="locality" />
		<tag k="ssr:stedsnr" v="700114" />
	</node>
	<node id="-181104" lat="60.0732305559" lon="9.53624722435">
		<tag k="name" v="Øvre Bergan" />
		<tag k="place" v="farm" />
		<tag k="ssr:stedsnr" v="578393" />
	</node>
	<node id="-181470" lat="60.3182444412" lon="9.16577500791">
		<tag k="historic" v="shieling" />
		<tag k="name" v="Grønli" />
		<tag k="place" v="locality" />
		<tag k="ssr:stedsnr" v="697038" />
	</node>
	<node id="-181550" lat="60.0255694421" lon="9.62829444537">
		<tag k="name" v="Gøksrud" />
		<tag k="place" v="isolated_dwelling" />
		<tag k="ssr:stedsnr" v="699606" />
	</node>
	<node id="-179499" lat="60.2525972222" lon="9.3099638826">
		<tag k="name" v="Myrrønningen" />
		<tag k="place" v="isolated_dwelling" />
		<tag k="ssr:stedsnr" v="30113" />
	</node>
	<node id="-181127" lat="60.0312972267" lon="9.68630000449">
		<tag k="name" v="Bergheim" />
		<tag k="place" v="isolated_dwelling" />
		<tag k="ssr:stedsnr" v="578849" />
	</node>
	<node id="-179761" lat="60.2364555542" lon="9.32963888605">
		<tag k="name" v="Fram-Søland" />
		<tag k="place" v="farm" />
		<tag k="ssr:stedsnr" v="91832" />
	</node>
	<node id="-179492" lat="60.2612361131" lon="9.37314722762">
		<tag k="name" v="Sleggeberga" />
		<tag k="place" v="neighbourhood" />
		<tag k="ssr:stedsnr" v="30024" />
	</node>
	<node id="-181539" lat="60.2347027818" lon="9.45301943759">
		<tag k="alt_name" v="Djupsjøseter" />
		<tag k="historic" v="shieling" />
		<tag k="name" v="Djupsjøsetra" />
		<tag k="place" v="locality" />
		<tag k="ssr:stedsnr" v="698996" />
	</node>
	<node id="-181467" lat="60.2100472224" lon="9.20240833229">
		<tag k="name" v="Fjellrabb" />
		<tag k="place" v="isolated_dwelling" />
		<tag k="ssr:stedsnr" v="697001" />
	</node>
	<node id="-180467" lat="60.0407333313" lon="9.61500278266">
		<tag k="alt_name" v="Øverby" />
		<tag k="name" v="Søre Øverby" />
		<tag k="place" v="farm" />
		<tag k="ssr:stedsnr" v="429919" />
	</node>
	<node id="-181520" lat="60.2419555519" lon="9.18167777885">
		<tag k="historic" v="shieling" />
		<tag k="name" v="Kupa" />
		<tag k="place" v="locality" />
		<tag k="ssr:stedsnr" v="698259" />
	</node>
	<node id="-181464" lat="60.2491388891" lon="9.30143332762">
		<tag k="name" v="Bergan" />
		<tag k="place" v="locality" />
		<tag k="ssr:stedsnr" v="696920" />
	</node>
	<node id="-181518" lat="60.1362916694" lon="9.45432222983">
		<tag k="name" v="Bekkestykket" />
		<tag k="place" v="locality" />
		<tag k="ssr:stedsnr" v="698184" />
	</node>
	<node id="-179465" lat="60.0069944414" lon="9.75218889631">
		<tag k="name" v="Søre øvre Skatvet" />
		<tag k="place" v="farm" />
		<tag k="ssr:stedsnr" v="22350" />
	</node>
	<node id="-179464" lat="60.0048833333" lon="9.7433583251">
		<tag k="name" v="Nordre nedre Skatvet" />
		<tag k="place" v="farm" />
		<tag k="ssr:stedsnr" v="22348" />
	</node>
	<node id="-179463" lat="60.0340527788" lon="9.6091555644">
		<tag k="name" v="Nordre Rustan" />
		<tag k="place" v="farm" />
		<tag k="ssr:stedsnr" v="22345" />
	</node>
	<node id="-179461" lat="60.251608333" lon="9.37148610211">
		<tag k="name" v="Nordre Jellum" />
		<tag k="place" v="farm" />
		<tag k="ssr:stedsnr" v="22152" />
	</node>
	<node id="-179459" lat="60.0818638916" lon="9.46934722933">
		<tag k="name" v="Mellom-Båsum" />
		<tag k="place" v="farm" />
		<tag k="ssr:stedsnr" v="22125" />
	</node>
	<node id="-179458" lat="60.0786833373" lon="9.52436389007">
		<tag k="name" v="Nordre Eidal" />
		<tag k="place" v="farm" />
		<tag k="ssr:stedsnr" v="22121" />
	</node>
	<node id="-179457" lat="60.0792722199" lon="9.52159722181">
		<tag k="name" v="Nordre Eidal" />
		<tag k="place" v="farm" />
		<tag k="ssr:stedsnr" v="22119" />
	</node>
	<node id="-179456" lat="60.2524638865" lon="9.34290278511">
		<tag k="name" v="Søre Rugland" />
		<tag k="place" v="farm" />
		<tag k="ssr:stedsnr" v="6921" />
	</node>
	<node id="-179455" lat="60.2526166665" lon="9.33427500845">
		<tag k="name" v="Nordre Rugland" />
		<tag k="place" v="farm" />
		<tag k="ssr:stedsnr" v="6920" />
	</node>
	<node id="-179454" lat="60.251272221" lon="9.26857222097">
		<tag k="name" v="Solli" />
		<tag k="place" v="locality" />
		<tag k="ssr:stedsnr" v="6919" />
	</node>
	<node id="-179453" lat="60.3053222188" lon="9.17601110819">
		<tag k="historic" v="shieling" />
		<tag k="name" v="Skriulia" />
		<tag k="place" v="locality" />
		<tag k="ssr:stedsnr" v="6495" />
	</node>
	<node id="-179452" lat="60.3139749976" lon="9.16058887996">
		<tag k="name" v="Slokoseter" />
		<tag k="place" v="isolated_dwelling" />
		<tag k="ssr:stedsnr" v="6474" />
	</node>
	<node id="-179449" lat="60.2624444479" lon="9.17446943581">
		<tag k="name" v="Skjenvasshytta" />
		<tag k="place" v="isolated_dwelling" />
		<tag k="ssr:stedsnr" v="6316" />
	</node>
	<node id="-179448" lat="60.2788722253" lon="9.18753055257">
		<tag k="historic" v="shieling" />
		<tag k="loc_name" v="Bergesetra" />
		<tag k="name" v="Bergetsetra" />
		<tag k="place" v="locality" />
		<tag k="ssr:stedsnr" v="6284" />
	</node>
	<node id="-179444" lat="60.3117750029" lon="9.35302500252">
		<tag k="name" v="Holmevassetra" />
		<tag k="place" v="isolated_dwelling" />
		<tag k="ssr:stedsnr" v="6054" />
	</node>
	<node id="-179440" lat="60.0783194486" lon="9.6686750015">
		<tag k="historic" v="shieling" />
		<tag k="name" v="Haugansetra" />
		<tag k="place" v="locality" />
		<tag k="ssr:stedsnr" v="5833" />
	</node>
	<node id="-179439" lat="60.0956888849" lon="9.63973888783">
		<tag k="historic" v="shieling" />
		<tag k="name" v="Ramstadsetra" />
		<tag k="place" v="locality" />
		<tag k="ssr:stedsnr" v="5825" />
	</node>
	<node id="-179438" lat="60.159552779" lon="9.24082499775">
		<tag k="historic" v="shieling" />
		<tag k="name" v="Snårsetra" />
		<tag k="place" v="locality" />
		<tag k="ssr:stedsnr" v="5453" />
	</node>
	<node id="-179435" lat="60.177947226" lon="9.42628056038">
		<tag k="name" v="Lauvli" />
		<tag k="place" v="isolated_dwelling" />
		<tag k="ssr:stedsnr" v="5430" />
	</node>
	<node id="-179432" lat="60.2366416667" lon="9.35753333361">
		<tag k="name" v="Søre Moen" />
		<tag k="place" v="farm" />
		<tag k="ssr:stedsnr" v="5301" />
	</node>
	<node id="-179431" lat="60.2454444443" lon="9.29699721365">
		<tag k="name" v="Røysland" />
		<tag k="place" v="farm" />
		<tag k="ssr:stedsnr" v="5299" />
	</node>
	<node id="-179429" lat="60.2374555518" lon="9.38257500407">
		<tag k="name" v="Finnebråtan" />
		<tag k="place" v="farm" />
		<tag k="ssr:stedsnr" v="5293" />
	</node>
	<node id="-179427" lat="60.2399916662" lon="9.25795833643">
		<tag k="fixme" v="consider place=hamlet" />
		<tag k="name" v="Vestbygda" />
		<tag k="place" v="village" />
		<tag k="ssr:stedsnr" v="5281" />
	</node>
	<node id="-182139" lat="59.9979583318" lon="9.56403054986">
		<tag k="historic" v="shieling" />
		<tag k="name" v="Ospesnarsetra" />
		<tag k="place" v="locality" />
		<tag k="ssr:stedsnr" v="853230" />
	</node>
	<node id="-179422" lat="60.0850361084" lon="9.4687694376">
		<tag k="name" v="Nedre Båsum" />
		<tag k="place" v="farm" />
		<tag k="ssr:stedsnr" v="5099" />
	</node>
	<node id="-179421" lat="60.0806805554" lon="9.46121943578">
		<tag k="name" v="Båstad" />
		<tag k="place" v="farm" />
		<tag k="ssr:stedsnr" v="5082" />
	</node>
	<node id="-179420" lat="60.0345027763" lon="9.41647778569">
		<tag k="historic" v="shieling" />
		<tag k="name" v="Nåsåseter" />
		<tag k="place" v="locality" />
		<tag k="ssr:stedsnr" v="5040" />
	</node>
	<node id="-179419" lat="60.0182722256" lon="9.74046945067">
		<tag k="name" v="Nedre Hunstad" />
		<tag k="place" v="farm" />
		<tag k="ssr:stedsnr" v="4967" />
	</node>
	<node id="-179416" lat="60.0547555541" lon="9.68149444795">
		<tag k="name" v="Rimstad" />
		<tag k="place" v="farm" />
		<tag k="ssr:stedsnr" v="4903" />
	</node>
	<node id="-179415" lat="59.9635361079" lon="9.7709250073">
		<tag k="fixme" v="consider place=hamlet" />
		<tag k="name" v="Solumsmoen" />
		<tag k="place" v="village" />
		<tag k="ssr:stedsnr" v="4819" />
	</node>
	<node id="-179414" lat="59.9500722263" lon="9.63334166205">
		<tag k="alt_name" v="Klampeli" />
		<tag k="name" v="Klampelia" />
		<tag k="place" v="farm" />
		<tag k="ssr:stedsnr" v="4799" />
	</node>
	<node id="-179412" lat="60.1982916691" lon="9.39178055279">
		<tag k="name" v="Øvre Kopseng" />
		<tag k="place" v="farm" />
		<tag k="ssr:stedsnr" v="4480" />
	</node>
	<node id="-181454" lat="60.3133138873" lon="9.1584916726">
		<tag k="historic" v="shieling" />
		<tag k="name" v="Veslevollen" />
		<tag k="place" v="locality" />
		<tag k="ssr:stedsnr" v="674420" />
	</node>
	<node id="-179410" lat="60.140705556" lon="9.43550278285">
		<tag k="fixme" v="consider place=suburb, village or hamlet" />
		<tag k="name" v="Nedre Eggedal" />
		<tag k="place" v="quarter" />
		<tag k="ssr:stedsnr" v="4415" />
	</node>
	<node id="-181457" lat="60.0787055512" lon="9.46563334172">
		<tag k="name" v="Øvre Båsum" />
		<tag k="place" v="farm" />
		<tag k="ssr:stedsnr" v="690143" />
	</node>
	<node id="-179880" lat="59.9767965732" lon="9.58898630306">
		<tag k="fixme" v="consider place=hamlet" />
		<tag k="name" v="Rud" />
		<tag k="place" v="farm" />
		<tag k="ssr:stedsnr" v="125363" />
	</node>
	<node id="-179406" lat="60.1208055535" lon="9.55542778015">
		<tag k="historic" v="shieling" />
		<tag k="name" v="Eidalssetrane" />
		<tag k="place" v="locality" />
		<tag k="ssr:stedsnr" v="4369" />
	</node>
	<node id="-179405" lat="60.2179861082" lon="9.26776945183">
		<tag k="fixme" v="multiple name tags, choose one and add the other to alt_name" />
		<tag k="name" v="Storhovden;Storhovdesetra" />
		<tag k="place" v="isolated_dwelling" />
		<tag k="ssr:stedsnr" v="4268" />
	</node>
	<node id="-179404" lat="60.2189250045" lon="9.42481389371">
		<tag k="name" v="Nordre Gampeløksetra" />
		<tag k="place" v="isolated_dwelling" />
		<tag k="ssr:stedsnr" v="4262" />
	</node>
	<node id="-181450" lat="60.2895666683" lon="9.24726944058">
		<tag k="alt_name" v="Medalen" />
		<tag k="name" v="Nordre Medalen" />
		<tag k="place" v="farm" />
		<tag k="ssr:stedsnr" v="674072" />
	</node>
	<node id="-179396" lat="60.1962726706" lon="9.39280766906">
		<tag k="fixme" v="consider place=hamlet" />
		<tag k="name" v="Kopseng" />
		<tag k="place" v="farm" />
		<tag k="ssr:stedsnr" v="990081" />
	</node>
	<node id="-179395" lat="60.1372030923" lon="9.44479061927">
		<tag k="name" v="Gladheim" />
		<tag k="place" v="farm" />
		<tag k="ssr:stedsnr" v="989706" />
	</node>
	<node id="-181442" lat="60.2949166629" lon="9.37326111471">
		<tag k="historic" v="shieling" />
		<tag k="name" v="Steinveggsetran" />
		<tag k="place" v="locality" />
		<tag k="ssr:stedsnr" v="673078" />
	</node>
	<node id="-179392" lat="60.032891804" lon="9.58216018803">
		<tag k="name" v="Skogtun" />
		<tag k="place" v="farm" />
		<tag k="ssr:stedsnr" v="985062" />
	</node>
	<node id="-181439" lat="60.3072749975" lon="9.24069722025">
		<tag k="alt_name" v="Liansetra" />
		<tag k="historic" v="shieling" />
		<tag k="name" v="Lianseter" />
		<tag k="place" v="locality" />
		<tag k="ssr:stedsnr" v="673047" />
	</node>
	<node id="-179390" lat="60.281183345" lon="9.26396612493">
		<tag k="name" v="Bratland" />
		<tag k="place" v="farm" />
		<tag k="ssr:stedsnr" v="981574" />
	</node>
	<node id="-181437" lat="60.0131916665" lon="9.79096388249">
		<tag k="alt_name" v="Nordby" />
		<tag k="historic" v="shieling" />
		<tag k="name" v="Nordby-Fillebakkane" />
		<tag k="place" v="locality" />
		<tag k="ssr:stedsnr" v="672967" />
	</node>
	<node id="-179386" lat="59.9205208447" lon="9.68413707815">
		<tag k="name" v="Ingebu" />
		<tag k="place" v="hamlet" />
		<tag k="ssr:stedsnr" v="908154" />
	</node>
	<node id="-179385" lat="60.2394372839" lon="9.24074170948">
		<tag k="fixme" v="consider place=hamlet" />
		<tag k="name" v="Bøle" />
		<tag k="place" v="farm" />
		<tag k="ssr:stedsnr" v="1072511" />
	</node>
	<node id="-179384" lat="60.2410709619" lon="9.25516855641">
		<tag k="name" v="Berget" />
		<tag k="place" v="hamlet" />
		<tag k="ssr:stedsnr" v="1072510" />
	</node>
	<node id="-179383" lat="60.2428374455" lon="9.28582353631">
		<tag k="fixme" v="consider place=hamlet" />
		<tag k="name" v="Skåla" />
		<tag k="place" v="farm" />
		<tag k="ssr:stedsnr" v="1072509" />
	</node>
	<node id="-179382" lat="60.2422900396" lon="9.26396164635">
		<tag k="name" v="Kodalen" />
		<tag k="place" v="hamlet" />
		<tag k="ssr:stedsnr" v="1072508" />
	</node>
	<node id="-179381" lat="60.2887268329" lon="9.24655055641">
		<tag k="fixme" v="consider place=hamlet" />
		<tag k="name" v="Medalen" />
		<tag k="place" v="farm" />
		<tag k="ssr:stedsnr" v="1072507" />
	</node>
	<node id="-179380" lat="60.259046795" lon="9.30400609075">
		<tag k="fixme" v="consider place=hamlet" />
		<tag k="name" v="Skare" />
		<tag k="place" v="farm" />
		<tag k="ssr:stedsnr" v="1072505" />
	</node>
	<node id="-179379" lat="60.2518968548" lon="9.33931285281">
		<tag k="fixme" v="consider place=hamlet" />
		<tag k="name" v="Rugland" />
		<tag k="place" v="farm" />
		<tag k="ssr:stedsnr" v="1072504" />
	</node>
	<node id="-179378" lat="60.2556497782" lon="9.36364225362">
		<tag k="fixme" v="consider place=hamlet" />
		<tag k="name" v="Berg" />
		<tag k="place" v="farm" />
		<tag k="ssr:stedsnr" v="1072503" />
	</node>
	<node id="-179377" lat="60.252557715" lon="9.36680485241">
		<tag k="name" v="Teige" />
		<tag k="place" v="hamlet" />
		<tag k="ssr:stedsnr" v="1072502" />
	</node>
	<node id="-179376" lat="60.2356577534" lon="9.33058011385">
		<tag k="name" v="Søland" />
		<tag k="place" v="hamlet" />
		<tag k="ssr:stedsnr" v="1072501" />
	</node>
	<node id="-179375" lat="60.2159605174" lon="9.3681034244">
		<tag k="fixme" v="consider place=hamlet" />
		<tag k="name" v="Ertesprang" />
		<tag k="place" v="farm" />
		<tag k="ssr:stedsnr" v="1072499" />
	</node>
	<node id="-179374" lat="60.1929056155" lon="9.40132136537">
		<tag k="fixme" v="consider place=hamlet" />
		<tag k="name" v="Sole" />
		<tag k="place" v="farm" />
		<tag k="ssr:stedsnr" v="1072498" />
	</node>
	<node id="-181421" lat="60.1209333361" lon="9.3790083422">
		<tag k="historic" v="shieling" />
		<tag k="name" v="Engarsetra" />
		<tag k="place" v="locality" />
		<tag k="ssr:stedsnr" v="672350" />
	</node>
	<node id="-179372" lat="60.0525016497" lon="9.60577379711">
		<tag k="name" v="Vik" />
		<tag k="place" v="hamlet" />
		<tag k="ssr:stedsnr" v="1072495" />
	</node>
	<node id="-179371" lat="60.0433392061" lon="9.60906183913">
		<tag k="fixme" v="consider place=hamlet" />
		<tag k="name" v="Sund" />
		<tag k="place" v="farm" />
		<tag k="ssr:stedsnr" v="1072481" />
	</node>
	<node id="-179370" lat="60.0398221377" lon="9.61369707499">
		<tag k="fixme" v="consider place=hamlet" />
		<tag k="name" v="Øverby" />
		<tag k="place" v="farm" />
		<tag k="ssr:stedsnr" v="1072480" />
	</node>
	<node id="-179369" lat="59.9248655256" lon="9.70864477369">
		<tag k="fixme" v="consider place=hamlet" />
		<tag k="name" v="Flaget" />
		<tag k="place" v="farm" />
		<tag k="ssr:stedsnr" v="1072479" />
	</node>
	<node id="-179368" lat="59.9691117032" lon="9.64394819996">
		<tag k="fixme" v="consider place=hamlet" />
		<tag k="name" v="Li" />
		<tag k="place" v="farm" />
		<tag k="ssr:stedsnr" v="1072476" />
	</node>
	<node id="-179367" lat="59.983842311" lon="9.5961902237">
		<tag k="fixme" v="consider place=hamlet" />
		<tag k="name" v="Emmerud" />
		<tag k="place" v="farm" />
		<tag k="ssr:stedsnr" v="1072470" />
	</node>
	<node id="-179366" lat="60.0392918178" lon="9.64904008027">
		<tag k="fixme" v="consider place=hamlet" />
		<tag k="name" v="Ebbesberg" />
		<tag k="place" v="farm" />
		<tag k="ssr:stedsnr" v="1072469" />
	</node>
	<node id="-179365" lat="60.0184087416" lon="9.69377000011">
		<tag k="fixme" v="consider place=hamlet" />
		<tag k="name" v="Langerud" />
		<tag k="place" v="farm" />
		<tag k="ssr:stedsnr" v="1072468" />
	</node>
	<node id="-179364" lat="60.0478109929" lon="9.63754956333">
		<tag k="fixme" v="consider place=hamlet" />
		<tag k="name" v="Sigdal prestegård" />
		<tag k="place" v="farm" />
		<tag k="ssr:stedsnr" v="1072467" />
	</node>
	<node id="-181411" lat="60.0886999989" lon="9.5233055588">
		<tag k="name" v="Skinnemoen" />
		<tag k="place" v="farm" />
		<tag k="ssr:stedsnr" v="672102" />
	</node>
	<node id="-179362" lat="60.0462927825" lon="9.55194447275">
		<tag k="fixme" v="consider place=hamlet" />
		<tag k="name" v="Flågan" />
		<tag k="place" v="farm" />
		<tag k="ssr:stedsnr" v="1072465" />
	</node>
	<node id="-179361" lat="59.956893657" lon="9.83165266913">
		<tag k="fixme" v="consider place=hamlet" />
		<tag k="name" v="Bjørndalen" />
		<tag k="place" v="farm" />
		<tag k="ssr:stedsnr" v="1072463" />
	</node>
	<node id="-181408" lat="60.0685833368" lon="9.42413055959">
		<tag k="historic" v="shieling" />
		<tag k="name" v="Båsumsetra" />
		<tag k="place" v="locality" />
		<tag k="ssr:stedsnr" v="672086" />
	</node>
	<node id="-181407" lat="60.0724388876" lon="9.47333888737">
		<tag k="name" v="Sonheim" />
		<tag k="place" v="farm" />
		<tag k="ssr:stedsnr" v="672085" />
	</node>
	<node id="-179358" lat="60.2552780396" lon="9.32170113349">
		<tag k="name" v="Skalland" />
		<tag k="place" v="hamlet" />
		<tag k="ssr:stedsnr" v="891692" />
	</node>
	<node id="-179357" lat="60.049361686" lon="9.6869073401">
		<tag k="name" v="Mellom-Reistad" />
		<tag k="place" v="farm" />
		<tag k="ssr:stedsnr" v="889528" />
	</node>
	<node id="-181404" lat="60.0394268922" lon="9.59134286738">
		<tag k="fixme" v="consider place=hamlet" />
		<tag k="name" v="Sandsbråtan" />
		<tag k="place" v="farm" />
		<tag k="ssr:stedsnr" v="672063" />
	</node>
	<node id="-181401" lat="59.9982194475" lon="9.7621194498">
		<tag k="name" v="Vestby" />
		<tag k="place" v="farm" />
		<tag k="ssr:stedsnr" v="671963" />
	</node>
	<node id="-181400" lat="59.9819138851" lon="9.67560832839">
		<tag k="historic" v="shieling" />
		<tag k="name" v="Kvislesetra" />
		<tag k="place" v="locality" />
		<tag k="ssr:stedsnr" v="671943" />
	</node>
	<node id="-181399" lat="60.0514222229" lon="9.77038611063">
		<tag k="historic" v="shieling" />
		<tag k="name" v="Hunstadsetra" />
		<tag k="place" v="locality" />
		<tag k="ssr:stedsnr" v="671889" />
	</node>
	<node id="-181397" lat="59.9743714394" lon="9.59994763669">
		<tag k="fixme" v="consider place=hamlet" />
		<tag k="name" v="Vasslia" />
		<tag k="place" v="farm" />
		<tag k="ssr:stedsnr" v="671812" />
	</node>
	<node id="-179347" lat="60.0788305581" lon="9.74339444712">
		<tag k="name" v="Nedre Finnerud" />
		<tag k="place" v="farm" />
		<tag k="ssr:stedsnr" v="882879" />
	</node>
	<node id="-181394" lat="60.1432055561" lon="9.44932777545">
		<tag k="name" v="Åmot" />
		<tag k="place" v="farm" />
		<tag k="ssr:stedsnr" v="671411" />
	</node>
	<node id="-181384" lat="60.0921972249" lon="9.59064166501">
		<tag k="name" v="Guletjennstua" />
		<tag k="place" v="locality" />
		<tag k="ssr:stedsnr" v="639898" />
	</node>
	<node id="-179334" lat="60.0146000037" lon="9.74524167135">
		<tag k="name" v="Hagan" />
		<tag k="place" v="isolated_dwelling" />
		<tag k="ssr:stedsnr" v="882692" />
	</node>
	<node id="-179328" lat="60.0562166696" lon="9.59950556196">
		<tag k="name" v="Sandmoen" />
		<tag k="place" v="isolated_dwelling" />
		<tag k="ssr:stedsnr" v="882667" />
	</node>
	<node id="-180416" lat="60.2619578824" lon="9.28096847151">
		<tag k="fixme" v="consider place=hamlet" />
		<tag k="name" v="Nedre Kleiv" />
		<tag k="place" v="farm" />
		<tag k="ssr:stedsnr" v="249103" />
	</node>
	<node id="-181370" lat="60.0200138884" lon="9.71522221768">
		<tag k="building" v="industrial" />
		<tag k="name" v="Saga" />
		<tag k="ssr:stedsnr" v="639293" />
	</node>
	<node id="-181369" lat="60.0156277754" lon="9.55657221389">
		<tag k="name" v="Howli" />
		<tag k="place" v="isolated_dwelling" />
		<tag k="ssr:stedsnr" v="639282" />
	</node>
	<node id="-179320" lat="59.9563333334" lon="9.80369722409">
		<tag k="name" v="Nestangen" />
		<tag k="place" v="farm" />
		<tag k="ssr:stedsnr" v="882562" />
	</node>
	<node id="-179317" lat="59.9887277792" lon="9.7582222141">
		<tag k="name" v="Nedre Skyliholt" />
		<tag k="place" v="farm" />
		<tag k="ssr:stedsnr" v="882516" />
	</node>
	<node id="-179315" lat="59.9823444433" lon="9.73725277391">
		<tag k="name" v="Søre Kvisle" />
		<tag k="place" v="farm" />
		<tag k="ssr:stedsnr" v="882503" />
	</node>
	<node id="-179314" lat="59.9012444423" lon="9.72214443632">
		<tag k="name" v="Nævramoen" />
		<tag k="place" v="isolated_dwelling" />
		<tag k="ssr:stedsnr" v="882499" />
	</node>
	<node id="-179313" lat="59.9701833332" lon="9.55799166911">
		<tag k="name" v="Saglanda" />
		<tag k="place" v="isolated_dwelling" />
		<tag k="ssr:stedsnr" v="882500" />
	</node>
	<node id="-180412" lat="60.363580553" lon="9.18783888049">
		<tag k="fixme" v="multiple name tags, choose one and add the other to alt_name" />
		<tag k="historic" v="shieling" />
		<tag k="name" v="Berghammarsetra;Bergshamaren" />
		<tag k="place" v="locality" />
		<tag k="ssr:stedsnr" v="248374" />
	</node>
	<node id="-179301" lat="59.9638777751" lon="9.68337499428">
		<tag k="name" v="Hovet" />
		<tag k="place" v="locality" />
		<tag k="ssr:stedsnr" v="882410" />
	</node>
	<node id="-181438" lat="60.0096361102" lon="9.72818056338">
		<tag k="name" v="Breivik" />
		<tag k="place" v="farm" />
		<tag k="ssr:stedsnr" v="672983" />
	</node>
	<node id="-181347" lat="60.0008638871" lon="9.74950000483">
		<tag k="name" v="Mellom-By" />
		<tag k="place" v="farm" />
		<tag k="ssr:stedsnr" v="638883" />
	</node>
	<node id="-179298" lat="59.960897226" lon="9.79003611749">
		<tag k="name" v="Berget" />
		<tag k="place" v="farm" />
		<tag k="ssr:stedsnr" v="882401" />
	</node>
	<node id="-179297" lat="59.9588166667" lon="9.75921667382">
		<tag k="name" v="Søre Åby" />
		<tag k="place" v="farm" />
		<tag k="ssr:stedsnr" v="882397" />
	</node>
	<node id="-179295" lat="59.9581694487" lon="9.70539166893">
		<tag k="historic" v="shieling" />
		<tag k="name" v="Tjennbråtan" />
		<tag k="place" v="locality" />
		<tag k="ssr:stedsnr" v="882380" />
	</node>
	<node id="-181335" lat="60.035449996" lon="9.5886361075">
		<tag k="name" v="Frydenlund" />
		<tag k="place" v="isolated_dwelling" />
		<tag k="ssr:stedsnr" v="638736" />
	</node>
	<node id="-181433" lat="60.0601500002" lon="9.70823055185">
		<tag k="fixme" v="multiple name tags, choose one and add the other to alt_name" />
		<tag k="name" v="Hælfarmoen;Milebråtan" />
		<tag k="place" v="isolated_dwelling" />
		<tag k="ssr:stedsnr" v="672886" />
	</node>
	<node id="-181774" lat="60.1593583355" lon="9.35133333753">
		<tag k="historic" v="shieling" />
		<tag k="name" v="Erteliseter" />
		<tag k="place" v="locality" />
		<tag k="ssr:stedsnr" v="758981" />
	</node>
	<node id="-179280" lat="60.0160333373" lon="9.69726944697">
		<tag k="name" v="Vestheim" />
		<tag k="place" v="isolated_dwelling" />
		<tag k="ssr:stedsnr" v="882232" />
	</node>
	<node id="-181327" lat="60.0404555586" lon="9.65399999879">
		<tag k="building" v="industrial" />
		<tag k="name" v="Skartum meieri" />
		<tag k="ssr:stedsnr" v="638589" />
	</node>
	<node id="-181431" lat="60.1921333354" lon="9.40197222452">
		<tag k="alt_name" v="Sole" />
		<tag k="name" v="Nedre Sole" />
		<tag k="place" v="farm" />
		<tag k="ssr:stedsnr" v="672455" />
	</node>
	<node id="-181320" lat="60.0598500026" lon="9.67831389148">
		<tag k="name" v="Skogly" />
		<tag k="place" v="farm" />
		<tag k="ssr:stedsnr" v="638459" />
	</node>
	<node id="-181316" lat="59.9680722253" lon="9.72790000496">
		<tag k="name" v="Skreddarplassen" />
		<tag k="place" v="locality" />
		<tag k="ssr:stedsnr" v="638388" />
	</node>
	<node id="-180406" lat="60.0217944463" lon="9.73889166318">
		<tag k="name" v="Hunstadhagan" />
		<tag k="place" v="farm" />
		<tag k="ssr:stedsnr" v="247948" />
	</node>
	<node id="-181314" lat="59.9612194403" lon="9.6946666593">
		<tag k="historic" v="shieling" />
		<tag k="name" v="Herbrandseter" />
		<tag k="place" v="locality" />
		<tag k="ssr:stedsnr" v="638363" />
	</node>
	<node id="-181309" lat="60.0996833373" lon="9.45590832695">
		<tag k="name" v="Nedre Ulberg" />
		<tag k="place" v="farm" />
		<tag k="ssr:stedsnr" v="638292" />
	</node>
	<node id="-181305" lat="60.0009333346" lon="9.75431943709">
		<tag k="name" v="Søre By" />
		<tag k="place" v="farm" />
		<tag k="ssr:stedsnr" v="638884" />
	</node>
	<node id="-181428" lat="60.1856861095" lon="9.48010833751">
		<tag k="name" v="Omliplassen" />
		<tag k="place" v="farm" />
		<tag k="ssr:stedsnr" v="672416" />
	</node>
	<node id="-181300" lat="60.0784833336" lon="9.73523055753">
		<tag k="name" v="Finnerudstykket" />
		<tag k="place" v="locality" />
		<tag k="ssr:stedsnr" v="638057" />
	</node>
	<node id="-182110" lat="60.0338527819" lon="9.779369443">
		<tag k="historic" v="shieling" />
		<tag k="name" v="Haugseter" />
		<tag k="place" v="locality" />
		<tag k="ssr:stedsnr" v="821770" />
	</node>
	<node id="-179250" lat="59.9965305511" lon="9.73658055458">
		<tag k="name" v="Støa" />
		<tag k="place" v="farm" />
		<tag k="ssr:stedsnr" v="397992" />
	</node>
	<node id="-181427" lat="60.1430611129" lon="9.48560834035">
		<tag k="historic" v="shieling" />
		<tag k="name" v="Hagavollsetra" />
		<tag k="place" v="locality" />
		<tag k="ssr:stedsnr" v="672405" />
	</node>
	<node id="-179244" lat="60.0751138846" lon="9.49831945008">
		<tag k="name" v="Hagan" />
		<tag k="place" v="isolated_dwelling" />
		<tag k="ssr:stedsnr" v="396897" />
	</node>
	<node id="-180402" lat="60.0311187036" lon="9.69268634337">
		<tag k="alt_name" v="Nordre Vad" />
		<tag k="fixme" v="consider place=hamlet" />
		<tag k="name" v="Vad" />
		<tag k="place" v="farm" />
		<tag k="ssr:stedsnr" v="247924" />
	</node>
	<node id="-179242" lat="60.0996888865" lon="9.63716111173">
		<tag k="name" v="Åslyhytta" />
		<tag k="place" v="isolated_dwelling" />
		<tag k="ssr:stedsnr" v="396887" />
	</node>
	<node id="-181767" lat="60.2104499995" lon="9.38289999404">
		<tag k="name" v="Nørstengåsstykket" />
		<tag k="place" v="locality" />
		<tag k="ssr:stedsnr" v="758892" />
	</node>
	<node id="-179240" lat="60.0508416691" lon="9.6879666705">
		<tag k="name" v="Eik" />
		<tag k="place" v="isolated_dwelling" />
		<tag k="ssr:stedsnr" v="396772" />
	</node>
	<node id="-179238" lat="60.053894445" lon="9.62245555176">
		<tag k="name" v="Ramstad" />
		<tag k="place" v="farm" />
		<tag k="ssr:stedsnr" v="396754" />
	</node>
	<node id="-179237" lat="60.0243083347" lon="9.7854361075">
		<tag k="historic" v="shieling" />
		<tag k="name" v="Skatvetsetra" />
		<tag k="place" v="locality" />
		<tag k="ssr:stedsnr" v="396751" />
	</node>
	<node id="-181282" lat="60.2917972195" lon="9.29423334001">
		<tag k="historic" v="shieling" />
		<tag k="name" v="Grindestølen" />
		<tag k="place" v="locality" />
		<tag k="ssr:stedsnr" v="637659" />
	</node>
	<node id="-181424" lat="60.1148909523" lon="9.45732687926">
		<tag k="fixme" v="consider place=hamlet" />
		<tag k="name" v="Gunnerud" />
		<tag k="place" v="farm" />
		<tag k="ssr:stedsnr" v="672363" />
	</node>
	<node id="-179230" lat="60.0405361106" lon="9.61371111035">
		<tag k="name" v="Nordre Øverby" />
		<tag k="place" v="farm" />
		<tag k="ssr:stedsnr" v="396646" />
	</node>
	<node id="-179228" lat="60.0356388863" lon="9.63251666426">
		<tag k="name" v="Rørsrud" />
		<tag k="place" v="farm" />
		<tag k="ssr:stedsnr" v="396627" />
	</node>
	<node id="-181275" lat="60.1351361107" lon="9.51801110992">
		<tag k="name" v="Hallandstykket" />
		<tag k="place" v="locality" />
		<tag k="ssr:stedsnr" v="637418" />
	</node>
	<node id="-181423" lat="60.1150000019" lon="9.32409999188">
		<tag k="alt_name" v="Plassen" />
		<tag k="name" v="Nedalsplassen" />
		<tag k="place" v="farm" />
		<tag k="ssr:stedsnr" v="672360" />
	</node>
	<node id="-179222" lat="59.9640277774" lon="9.82068888449">
		<tag k="name" v="Søre Øverby" />
		<tag k="place" v="farm" />
		<tag k="ssr:stedsnr" v="396608" />
	</node>
	<node id="-179221" lat="59.9700138912" lon="9.80901110532">
		<tag k="name" v="Øverbyplassen" />
		<tag k="place" v="isolated_dwelling" />
		<tag k="ssr:stedsnr" v="396605" />
	</node>
	<node id="-179219" lat="60.0514083352" lon="9.65644723074">
		<tag k="name" v="Hauganlykka" />
		<tag k="place" v="isolated_dwelling" />
		<tag k="ssr:stedsnr" v="396596" />
	</node>
	<node id="-179215" lat="59.9919611155" lon="9.76097777728">
		<tag k="name" v="Løkka" />
		<tag k="place" v="isolated_dwelling" />
		<tag k="ssr:stedsnr" v="396569" />
	</node>
	<node id="-179214" lat="59.9919416676" lon="9.76456111609">
		<tag k="name" v="Brenna" />
		<tag k="place" v="farm" />
		<tag k="ssr:stedsnr" v="396553" />
	</node>
	<node id="-179373" lat="60.067304488" lon="9.48388007495">
		<tag k="name" v="Strand" />
		<tag k="place" v="hamlet" />
		<tag k="ssr:stedsnr" v="1072496" />
	</node>
	<node id="-181259" lat="60.2238472229" lon="9.37155834048">
		<tag k="name" v="Midtskog" />
		<tag k="place" v="locality" />
		<tag k="ssr:stedsnr" v="636847" />
	</node>
	<node id="-181254" lat="60.1901055556" lon="9.36049166272">
		<tag k="name" v="Trettedokka" />
		<tag k="place" v="locality" />
		<tag k="ssr:stedsnr" v="636760" />
	</node>
	<node id="-181252" lat="60.2693972211" lon="9.3257416746">
		<tag k="historic" v="shieling" />
		<tag k="name" v="Jareseter" />
		<tag k="place" v="locality" />
		<tag k="ssr:stedsnr" v="636705" />
	</node>
	<node id="-181419" lat="60.2422361152" lon="9.38434721565">
		<tag k="name" v="Dalen" />
		<tag k="place" v="farm" />
		<tag k="ssr:stedsnr" v="672278" />
	</node>
	<node id="-181241" lat="60.2665666663" lon="9.39797222203">
		<tag k="name" v="Tempelseterfeltet" />
		<tag k="place" v="neighbourhood" />
		<tag k="ssr:stedsnr" v="636392" />
	</node>
	<node id="-181417" lat="60.2370583314" lon="9.22171110458">
		<tag k="name" v="Dokkeberg" />
		<tag k="place" v="isolated_dwelling" />
		<tag k="ssr:stedsnr" v="672259" />
	</node>
	<node id="-181235" lat="60.2448027818" lon="9.37292499363">
		<tag k="name" v="Haugstad" />
		<tag k="place" v="farm" />
		<tag k="ssr:stedsnr" v="636149" />
	</node>
	<node id="-179186" lat="60.0220694432" lon="9.73449166854">
		<tag k="name" v="Hagan" />
		<tag k="place" v="farm" />
		<tag k="ssr:stedsnr" v="396199" />
	</node>
	<node id="-179185" lat="60.017572225" lon="9.63072778591">
		<tag k="name" v="Vardehytta" />
		<tag k="place" v="locality" />
		<tag k="ssr:stedsnr" v="396196" />
	</node>
	<node id="-181416" lat="60.2235166648" lon="9.25219722389">
		<tag k="historic" v="shieling" />
		<tag k="name" v="Putten" />
		<tag k="place" v="locality" />
		<tag k="ssr:stedsnr" v="672248" />
	</node>
	<node id="-179182" lat="60.0616916662" lon="9.50524722352">
		<tag k="name" v="Lauvlia" />
		<tag k="place" v="isolated_dwelling" />
		<tag k="ssr:stedsnr" v="396165" />
	</node>
	<node id="-181415" lat="60.2232305553" lon="9.2606416661">
		<tag k="historic" v="shieling" />
		<tag k="name" v="Skålasetra" />
		<tag k="place" v="locality" />
		<tag k="ssr:stedsnr" v="672246" />
	</node>
	<node id="-181224" lat="59.974247225" lon="9.57004444538">
		<tag k="name" v="Grindjordet" />
		<tag k="place" v="farm" />
		<tag k="ssr:stedsnr" v="628329" />
	</node>
	<node id="-181223" lat="60.2550833305" lon="9.36281110651">
		<tag k="alt_name" v="Berg" />
		<tag k="name" v="Øvre Berg" />
		<tag k="place" v="farm" />
		<tag k="ssr:stedsnr" v="613912" />
	</node>
	<node id="-181221" lat="60.2795916692" lon="9.26385276907">
		<tag k="alt_name" v="Søre Ligarden" />
		<tag k="name" v="Vesle-Ligarden" />
		<tag k="place" v="farm" />
		<tag k="ssr:stedsnr" v="613119" />
	</node>
	<node id="-181220" lat="60.2610993654" lon="9.24609234497">
		<tag k="alt_name" v="Granliseter" />
		<tag k="historic" v="shieling" />
		<tag k="name" v="Granlisetra" />
		<tag k="place" v="locality" />
		<tag k="ssr:stedsnr" v="613107" />
	</node>
	<node id="-181219" lat="60.2656013139" lon="9.27995018982">
		<tag k="fixme" v="consider place=hamlet" />
		<tag k="name" v="Øvre Kleiv" />
		<tag k="place" v="farm" />
		<tag k="ssr:stedsnr" v="613100" />
	</node>
	<node id="-181218" lat="60.2846027773" lon="9.38823889181">
		<tag k="historic" v="shieling" />
		<tag k="name" v="Istjennsetra" />
		<tag k="place" v="locality" />
		<tag k="ssr:stedsnr" v="613078" />
	</node>
	<node id="-181214" lat="60.2873999976" lon="9.18216110213">
		<tag k="alt_name" v="Kodalseter" />
		<tag k="historic" v="shieling" />
		<tag k="name" v="Kodalsetra" />
		<tag k="place" v="locality" />
		<tag k="ssr:stedsnr" v="612514" />
	</node>
	<node id="-179165" lat="59.9767376884" lon="9.53750443934">
		<tag k="name" v="Jobrennstua" />
		<tag k="place" v="isolated_dwelling" />
		<tag k="ssr:stedsnr" v="396009" />
	</node>
	<node id="-179164" lat="60.1981944484" lon="9.45255277631">
		<tag k="name" v="Hornsjøhytta" />
		<tag k="place" v="isolated_dwelling" />
		<tag k="ssr:stedsnr" v="395954" />
	</node>
	<node id="-181211" lat="60.2980861137" lon="9.28805833925">
		<tag k="historic" v="shieling" />
		<tag k="name" v="Kleivsetra" />
		<tag k="place" v="locality" />
		<tag k="ssr:stedsnr" v="612116" />
	</node>
	<node id="-181209" lat="60.0055955919" lon="9.74602277232">
		<tag k="fixme" v="consider place=hamlet" />
		<tag k="name" v="Skatvet" />
		<tag k="place" v="farm" />
		<tag k="ssr:stedsnr" v="611987" />
	</node>
	<node id="-181208" lat="60.0153694433" lon="9.79168055827">
		<tag k="alt_name" v="Østby" />
		<tag k="name" v="Østby-Fillebakkane" />
		<tag k="place" v="isolated_dwelling" />
		<tag k="ssr:stedsnr" v="611971" />
	</node>
	<node id="-181206" lat="60.0358666645" lon="9.69463888155">
		<tag k="name" v="Haugen" />
		<tag k="place" v="farm" />
		<tag k="ssr:stedsnr" v="611951" />
	</node>
	<node id="-181205" lat="60.0348166688" lon="9.62079444063">
		<tag k="name" v="Søre Rustan" />
		<tag k="place" v="farm" />
		<tag k="ssr:stedsnr" v="611947" />
	</node>
	<node id="-181204" lat="60.0402146405" lon="9.69478895237">
		<tag k="alt_name" v="Nordre Kroken" />
		<tag k="fixme" v="consider place=hamlet" />
		<tag k="name" v="Kroken" />
		<tag k="place" v="farm" />
		<tag k="ssr:stedsnr" v="611937" />
	</node>
	<node id="-181203" lat="60.0434305516" lon="9.63519721747">
		<tag k="name" v="Prestfoss" />
		<tag k="place" v="village" />
		<tag k="ssr:stedsnr" v="611936" />
	</node>
	<node id="-181202" lat="60.0412611119" lon="9.59778055858">
		<tag k="name" v="Hagajordet" />
		<tag k="place" v="farm" />
		<tag k="ssr:stedsnr" v="611934" />
	</node>
	<node id="-179363" lat="60.0502996188" lon="9.64450999636">
		<tag k="fixme" v="consider place=hamlet" />
		<tag k="name" v="Haugan" />
		<tag k="place" v="farm" />
		<tag k="ssr:stedsnr" v="1072466" />
	</node>
	<node id="-181198" lat="60.0584583321" lon="9.68173332893">
		<tag k="name" v="Glanås" />
		<tag k="place" v="farm" />
		<tag k="ssr:stedsnr" v="611896" />
	</node>
	<node id="-179148" lat="60.2317000044" lon="9.34450277509">
		<tag k="name" v="Bergerønningen" />
		<tag k="place" v="locality" />
		<tag k="ssr:stedsnr" v="394848" />
	</node>
	<node id="-181410" lat="60.0816482206" lon="9.51625462221">
		<tag k="fixme" v="multiple name tags, choose one and add the other to alt_name" />
		<tag k="loc_name" v="Eidalstangen" />
		<tag k="name" v="Tangen;Eiddalstangen" />
		<tag k="place" v="farm" />
		<tag k="ssr:stedsnr" v="672101" />
	</node>
	<node id="-179145" lat="60.2353222243" lon="9.3276583307">
		<tag k="name" v="Mellom-Søland" />
		<tag k="place" v="farm" />
		<tag k="ssr:stedsnr" v="394833" />
	</node>
	<node id="-179144" lat="60.1844638887" lon="9.37095834046">
		<tag k="name" v="Øvre Enderud" />
		<tag k="place" v="farm" />
		<tag k="ssr:stedsnr" v="394741" />
	</node>
	<node id="-179143" lat="60.1775444433" lon="9.37334444518">
		<tag k="name" v="Mellom-Enderud" />
		<tag k="place" v="isolated_dwelling" />
		<tag k="ssr:stedsnr" v="394740" />
	</node>
	<node id="-181190" lat="60.2103861097" lon="9.28342222316">
		<tag k="alt_name" v="Sølandseter" />
		<tag k="historic" v="shieling" />
		<tag k="name" v="Sølandsetra" />
		<tag k="place" v="locality" />
		<tag k="ssr:stedsnr" v="611477" />
	</node>
	<node id="-181409" lat="60.0775764021" lon="9.4709207238">
		<tag k="fixme" v="consider place=hamlet" />
		<tag k="name" v="Myre" />
		<tag k="place" v="farm" />
		<tag k="ssr:stedsnr" v="672093" />
	</node>
	<node id="-181188" lat="60.2132499985" lon="9.45037222353">
		<tag k="fixme" v="multiple name tags, choose one and add the other to alt_name" />
		<tag k="name" v="Hornsjøvollen;Norestua" />
		<tag k="place" v="isolated_dwelling" />
		<tag k="ssr:stedsnr" v="611472" />
	</node>
	<node id="-181187" lat="60.2145638926" lon="9.4784583391">
		<tag k="alt_name" v="Solesetra" />
		<tag k="historic" v="shieling" />
		<tag k="name" v="Soleseter" />
		<tag k="place" v="locality" />
		<tag k="ssr:stedsnr" v="611469" />
	</node>
	<node id="-181183" lat="60.1498250031" lon="9.4190361139">
		<tag k="alt_name" v="Nordre Lia" />
		<tag k="name" v="Lia" />
		<tag k="place" v="isolated_dwelling" />
		<tag k="ssr:stedsnr" v="611427" />
	</node>
	<node id="-179134" lat="60.2661694406" lon="9.32930000441">
		<tag k="name" v="Øvre Skallandseter" />
		<tag k="place" v="isolated_dwelling" />
		<tag k="ssr:stedsnr" v="394419" />
	</node>
	<node id="-181179" lat="60.1068833366" lon="9.45555000459">
		<tag k="name" v="Demma" />
		<tag k="place" v="farm" />
		<tag k="ssr:stedsnr" v="611415" />
	</node>
	<node id="-179130" lat="60.3443416636" lon="9.1859194399">
		<tag k="fixme" v="consider tourism=alpine_hut or tourism=chalet" />
		<tag k="name" v="Haglebu fjellstue" />
		<tag k="ssr:stedsnr" v="394170" />
		<tag k="tourism" v="wilderness_hut" />
	</node>
	<node id="-181176" lat="60.1206805571" lon="9.35057499422">
		<tag k="name" v="Halsteinrud" />
		<tag k="place" v="farm" />
		<tag k="ssr:stedsnr" v="611394" />
	</node>
	<node id="-181175" lat="60.2454555597" lon="9.30274166628">
		<tag k="name" v="Frøvollsflatin" />
		<tag k="place" v="farm" />
		<tag k="ssr:stedsnr" v="611298" />
	</node>
	<node id="-179126" lat="60.2486805573" lon="9.38851666324">
		<tag k="name" v="Juvstykket" />
		<tag k="place" v="locality" />
		<tag k="ssr:stedsnr" v="394125" />
	</node>
	<node id="-179125" lat="60.2522083294" lon="9.38394721363">
		<tag k="historic" v="shieling" />
		<tag k="name" v="Torbråtan" />
		<tag k="place" v="locality" />
		<tag k="ssr:stedsnr" v="394122" />
	</node>
	<node id="-179124" lat="60.2409583369" lon="9.38196389463">
		<tag k="name" v="Klypa" />
		<tag k="place" v="isolated_dwelling" />
		<tag k="ssr:stedsnr" v="394114" />
	</node>
	<node id="-181171" lat="60.09180556" lon="9.48634722706">
		<tag k="name" v="Hovton" />
		<tag k="place" v="farm" />
		<tag k="ssr:stedsnr" v="611101" />
	</node>
	<node id="-179122" lat="60.2534527771" lon="9.35868056098">
		<tag k="name" v="Nedre Berg" />
		<tag k="place" v="farm" />
		<tag k="ssr:stedsnr" v="394104" />
	</node>
	<node id="-179119" lat="60.2552027795" lon="9.35405556425">
		<tag k="name" v="Frydheim" />
		<tag k="place" v="isolated_dwelling" />
		<tag k="ssr:stedsnr" v="394101" />
	</node>
	<node id="-181166" lat="60.0553472219" lon="9.39307778266">
		<tag k="historic" v="shieling" />
		<tag k="name" v="Båsumsetra" />
		<tag k="place" v="locality" />
		<tag k="ssr:stedsnr" v="611072" />
	</node>
	<node id="-181405" lat="60.0732955783" lon="9.50291580087">
		<tag k="alt_name" v="Øvre Rud" />
		<tag k="fixme" v="consider place=hamlet" />
		<tag k="name" v="Rud" />
		<tag k="place" v="farm" />
		<tag k="ssr:stedsnr" v="672083" />
	</node>
	<node id="-181163" lat="60.0117197187" lon="9.50823880029">
		<tag k="alt_name" v="Østre Hiåsen" />
		<tag k="name" v="Hiåsen" />
		<tag k="place" v="hamlet" />
		<tag k="ssr:stedsnr" v="611017" />
	</node>
	<node id="-181162" lat="60.0085138931" lon="9.55913611266">
		<tag k="alt_name" v="Fram-Halvorset" />
		<tag k="name" v="Halvorset" />
		<tag k="place" v="farm" />
		<tag k="ssr:stedsnr" v="611016" />
	</node>
	<node id="-181161" lat="60.0079182882" lon="9.55608244731">
		<tag k="alt_name" v="Vest-Halvorset" />
		<tag k="fixme" v="consider place=hamlet" />
		<tag k="name" v="Halvorset" />
		<tag k="place" v="farm" />
		<tag k="ssr:stedsnr" v="611004" />
	</node>
	<node id="-181160" lat="59.9945250044" lon="9.64754167542">
		<tag k="name" v="Bråtasetra" />
		<tag k="place" v="locality" />
		<tag k="ssr:stedsnr" v="610984" />
	</node>
	<node id="-181159" lat="59.9241305552" lon="9.70713054859">
		<tag k="alt_name" v="Flaget" />
		<tag k="name" v="Sør-Flaget" />
		<tag k="place" v="farm" />
		<tag k="ssr:stedsnr" v="610873" />
	</node>
	<node id="-181158" lat="59.9672361095" lon="9.63424999371">
		<tag k="alt_name" v="Li" />
		<tag k="name" v="Vestre Li" />
		<tag k="place" v="farm" />
		<tag k="ssr:stedsnr" v="610821" />
	</node>
	<node id="-179109" lat="60.2642499995" lon="9.29943333395">
		<tag k="historic" v="shieling" />
		<tag k="name" v="Petterbråtan" />
		<tag k="place" v="locality" />
		<tag k="ssr:stedsnr" v="393879" />
	</node>
	<node id="-181156" lat="59.9692944418" lon="9.80790277185">
		<tag k="alt_name" v="Nordre Desarud" />
		<tag k="name" v="Desarudplassen" />
		<tag k="place" v="farm" />
		<tag k="ssr:stedsnr" v="610804" />
	</node>
	<node id="-181154" lat="59.9503000031" lon="9.7096055507">
		<tag k="name" v="Solheim" />
		<tag k="place" v="farm" />
		<tag k="ssr:stedsnr" v="610786" />
	</node>
	<node id="-181153" lat="59.9627833378" lon="9.79744721739">
		<tag k="alt_name" v="Nes" />
		<tag k="name" v="Neshagan" />
		<tag k="place" v="farm" />
		<tag k="ssr:stedsnr" v="610784" />
	</node>
	<node id="-181151" lat="60.0007721211" lon="9.73147522986">
		<tag k="fixme" v="consider place=hamlet" />
		<tag k="name" v="Tovsrud" />
		<tag k="place" v="farm" />
		<tag k="ssr:stedsnr" v="604432" />
	</node>
	<node id="-181142" lat="60.0486499973" lon="9.73578054793">
		<tag k="name" v="Hollenderen" />
		<tag k="place" v="locality" />
		<tag k="ssr:stedsnr" v="578955" />
	</node>
	<node id="-179092" lat="60.2368388874" lon="9.21271111902">
		<tag k="name" v="Øvre Fagerli" />
		<tag k="place" v="farm" />
		<tag k="ssr:stedsnr" v="393122" />
	</node>
	<node id="-180376" lat="60.0911472197" lon="9.51535555588">
		<tag k="alt_name" v="Sætra" />
		<tag k="name" v="Setra" />
		<tag k="place" v="farm" />
		<tag k="ssr:stedsnr" v="247085" />
	</node>
	<node id="-180478" lat="60.0305055567" lon="9.58525555228">
		<tag k="name" v="Bjørnerud" />
		<tag k="place" v="farm" />
		<tag k="ssr:stedsnr" v="430035" />
	</node>
	<node id="-179082" lat="60.1816527777" lon="9.34421943653">
		<tag k="name" v="Sandskardhytta" />
		<tag k="place" v="isolated_dwelling" />
		<tag k="ssr:stedsnr" v="386142" />
	</node>
	<node id="-179081" lat="60.2150333331" lon="9.36781110537">
		<tag k="name" v="Nordre Rønningen" />
		<tag k="place" v="farm" />
		<tag k="ssr:stedsnr" v="386141" />
	</node>
	<node id="-179080" lat="60.2614621553" lon="9.40535738058">
		<tag k="alt_name" v="Ingraseter" />
		<tag k="historic" v="shieling" />
		<tag k="name" v="Ingrasetra" />
		<tag k="place" v="locality" />
		<tag k="ssr:stedsnr" v="370924" />
	</node>
	<node id="-179079" lat="60.2502694449" lon="9.37290832644">
		<tag k="name" v="Søre Jellum" />
		<tag k="place" v="farm" />
		<tag k="ssr:stedsnr" v="370919" />
	</node>
	<node id="-179078" lat="60.2532434103" lon="9.36813032896">
		<tag k="alt_name" v="Øvre Teige" />
		<tag k="name" v="Søre Øvre-Teige" />
		<tag k="place" v="farm" />
		<tag k="ssr:stedsnr" v="370920" />
	</node>
	<node id="-179077" lat="60.319208332" lon="9.1785999933">
		<tag k="alt_name" v="Baklia" />
		<tag k="historic" v="shieling" />
		<tag k="name" v="Baklisetra" />
		<tag k="place" v="locality" />
		<tag k="ssr:stedsnr" v="370465" />
	</node>
	<node id="-179076" lat="60.2801500042" lon="9.27095555991">
		<tag k="alt_name" v="Åsland" />
		<tag k="name" v="Sør-Åsland" />
		<tag k="place" v="farm" />
		<tag k="ssr:stedsnr" v="370142" />
	</node>
	<node id="-179075" lat="60.258988885" lon="9.30732777155">
		<tag k="name" v="Søre Skare" />
		<tag k="place" v="farm" />
		<tag k="ssr:stedsnr" v="370135" />
	</node>
	<node id="-181121" lat="60.0638916658" lon="9.60592500569">
		<tag k="name" v="Lunnestadstua" />
		<tag k="place" v="locality" />
		<tag k="ssr:stedsnr" v="578716" />
	</node>
	<node id="-181120" lat="60.0056722198" lon="9.55837500012">
		<tag k="name" v="Grønli" />
		<tag k="place" v="locality" />
		<tag k="ssr:stedsnr" v="578708" />
	</node>
	<node id="-181115" lat="59.983430558" lon="9.74481666587">
		<tag k="name" v="Nedre Anfinnrud" />
		<tag k="place" v="farm" />
		<tag k="ssr:stedsnr" v="578545" />
	</node>
	<node id="-181114" lat="59.9849055563" lon="9.72940277884">
		<tag k="name" v="Solli" />
		<tag k="place" v="locality" />
		<tag k="ssr:stedsnr" v="578539" />
	</node>
	<node id="-179064" lat="60.2373132854" lon="9.46901780296">
		<tag k="alt_name" v="Narumseter" />
		<tag k="historic" v="shieling" />
		<tag k="name" v="Narumsetra" />
		<tag k="place" v="locality" />
		<tag k="ssr:stedsnr" v="369286" />
	</node>
	<node id="-181107" lat="59.9625055572" lon="9.78037777983">
		<tag k="name" v="Nedre Solum" />
		<tag k="place" v="farm" />
		<tag k="ssr:stedsnr" v="578410" />
	</node>
	<node id="-179058" lat="60.079752779" lon="9.52436111768">
		<tag k="name" v="Eidal" />
		<tag k="place" v="hamlet" />
		<tag k="ssr:stedsnr" v="369082" />
	</node>
	<node id="-181395" lat="60.1411583348" lon="9.44461943549">
		<tag k="alt_name" v="Søre Stubberud" />
		<tag k="name" v="Stubberud" />
		<tag k="place" v="farm" />
		<tag k="ssr:stedsnr" v="671410" />
	</node>
	<node id="-179056" lat="59.9958805537" lon="9.74396110647">
		<tag k="name" v="Støa" />
		<tag k="place" v="farm" />
		<tag k="ssr:stedsnr" v="368974" />
	</node>
	<node id="-179055" lat="59.993177777" lon="9.74418611273">
		<tag k="name" v="Haugen" />
		<tag k="place" v="farm" />
		<tag k="ssr:stedsnr" v="368971" />
	</node>
	<node id="-179054" lat="59.9890611131" lon="9.66581666636">
		<tag k="historic" v="shieling" />
		<tag k="name" v="Eikjesetra" />
		<tag k="place" v="locality" />
		<tag k="ssr:stedsnr" v="368966" />
	</node>
	<node id="-179052" lat="60.0254611122" lon="9.70760833107">
		<tag k="name" v="Åsen" />
		<tag k="place" v="farm" />
		<tag k="ssr:stedsnr" v="368953" />
	</node>
	<node id="-181099" lat="60.0804777796" lon="9.60994444463">
		<tag k="name" v="Nilsebu" />
		<tag k="place" v="isolated_dwelling" />
		<tag k="ssr:stedsnr" v="578369" />
	</node>
	<node id="-179050" lat="60.0366722216" lon="9.69303889105">
		<tag k="name" v="Vang" />
		<tag k="place" v="farm" />
		<tag k="ssr:stedsnr" v="368944" />
	</node>
	<node id="-179048" lat="60.0408750033" lon="9.77109444333">
		<tag k="alt_name" v="Høgseter" />
		<tag k="historic" v="shieling" />
		<tag k="name" v="Høgsetra" />
		<tag k="place" v="locality" />
		<tag k="ssr:stedsnr" v="368914" />
	</node>
	<node id="-179045" lat="59.9510222241" lon="9.60643055101">
		<tag k="historic" v="shieling" />
		<tag k="name" v="Gislegard" />
		<tag k="place" v="locality" />
		<tag k="ssr:stedsnr" v="368817" />
	</node>
	<node id="-179044" lat="60.199808329" lon="9.39438889301">
		<tag k="name" v="Nordre Kopseng" />
		<tag k="place" v="farm" />
		<tag k="ssr:stedsnr" v="368524" />
	</node>
	<node id="-179042" lat="60.2085111086" lon="9.39344167252">
		<tag k="name" v="Saga" />
		<tag k="place" v="isolated_dwelling" />
		<tag k="ssr:stedsnr" v="368516" />
	</node>
	<node id="-179038" lat="60.1170138858" lon="9.46773055977">
		<tag k="name" v="Søre Haga" />
		<tag k="place" v="farm" />
		<tag k="ssr:stedsnr" v="368422" />
	</node>
	<node id="-179035" lat="60.1196027822" lon="9.50371943588">
		<tag k="historic" v="shieling" />
		<tag k="name" v="Flatlia" />
		<tag k="place" v="locality" />
		<tag k="ssr:stedsnr" v="368404" />
	</node>
	<node id="-179034" lat="60.1240550767" lon="9.43266312507">
		<tag k="alt_name" v="Nordre Halsteinrud" />
		<tag k="fixme" v="consider place=hamlet" />
		<tag k="name" v="Halsteinrud" />
		<tag k="place" v="farm" />
		<tag k="ssr:stedsnr" v="368401" />
	</node>
	<node id="-179031" lat="60.2269944456" lon="9.31031667031">
		<tag k="name" v="Dalen" />
		<tag k="place" v="locality" />
		<tag k="ssr:stedsnr" v="368300" />
	</node>
	<node id="-181077" lat="60.0134694474" lon="9.52004721791">
		<tag k="historic" v="shieling" />
		<tag k="name" v="Nygård" />
		<tag k="place" v="locality" />
		<tag k="ssr:stedsnr" v="578104" />
	</node>
	<node id="-179028" lat="60.0929500019" lon="9.46149721715">
		<tag k="name" v="Fossheim" />
		<tag k="place" v="isolated_dwelling" />
		<tag k="ssr:stedsnr" v="368142" />
	</node>
	<node id="-179027" lat="60.0523611136" lon="9.57127778632">
		<tag k="name" v="Enge" />
		<tag k="place" v="farm" />
		<tag k="ssr:stedsnr" v="368085" />
	</node>
	<node id="-179026" lat="60.0497499976" lon="9.57498610671">
		<tag k="name" v="Endeberg" />
		<tag k="place" v="farm" />
		<tag k="ssr:stedsnr" v="368080" />
	</node>
	<node id="-180815" lat="59.9685666643" lon="9.64217222469">
		<tag k="name" v="Mellom-Li" />
		<tag k="place" v="farm" />
		<tag k="ssr:stedsnr" v="516470" />
	</node>
	<node id="-179019" lat="60.2077833351" lon="9.19524443558">
		<tag k="historic" v="shieling" />
		<tag k="name" v="Skålasetra" />
		<tag k="place" v="locality" />
		<tag k="ssr:stedsnr" v="369922" />
	</node>
	<node id="-179012" lat="60.0737138932" lon="9.47565555689">
		<tag k="name" v="Vang" />
		<tag k="place" v="farm" />
		<tag k="ssr:stedsnr" v="336928" />
	</node>
	<node id="-179007" lat="60.0124194463" lon="9.75875277499">
		<tag k="name" v="Fossestykket" />
		<tag k="place" v="locality" />
		<tag k="ssr:stedsnr" v="336893" />
	</node>
	<node id="-179059" lat="60.0752861083" lon="9.51183610877">
		<tag k="name" v="Havikhagan" />
		<tag k="place" v="farm" />
		<tag k="ssr:stedsnr" v="369085" />
	</node>
	<node id="-181050" lat="60.1561750004" lon="9.42352222421">
		<tag k="name" v="Bottolvshus" />
		<tag k="place" v="farm" />
		<tag k="ssr:stedsnr" v="576752" />
	</node>
	<node id="-181049" lat="60.1530777737" lon="9.42895833211">
		<tag k="name" v="Kilan" />
		<tag k="place" v="farm" />
		<tag k="ssr:stedsnr" v="576750" />
	</node>
	<node id="-181042" lat="60.1505305576" lon="9.42925278249">
		<tag k="building" v="industrial" />
		<tag k="industrial" v="factory" />
		<tag k="name" v="Granli trevare" />
		<tag k="ssr:stedsnr" v="576499" />
	</node>
	<node id="-178993" lat="59.9612472199" lon="9.83988334192">
		<tag k="name" v="Sandbråtan" />
		<tag k="place" v="locality" />
		<tag k="ssr:stedsnr" v="336613" />
	</node>
	<node id="-181040" lat="60.264044448" lon="9.32638332571">
		<tag k="historic" v="shieling" />
		<tag k="name" v="Nedre Skallandseter" />
		<tag k="place" v="locality" />
		<tag k="ssr:stedsnr" v="576413" />
	</node>
	<node id="-178991" lat="59.9609666708" lon="9.80795555437">
		<tag k="name" v="Sandberg" />
		<tag k="place" v="farm" />
		<tag k="ssr:stedsnr" v="336607" />
	</node>
	<node id="-178990" lat="59.9675083338" lon="9.80247500238">
		<tag k="name" v="Bråtan" />
		<tag k="place" v="isolated_dwelling" />
		<tag k="ssr:stedsnr" v="336598" />
	</node>
	<node id="-181905" lat="60.0020499974" lon="9.58691111665">
		<tag k="name" v="Øverbysetra" />
		<tag k="place" v="isolated_dwelling" />
		<tag k="ssr:stedsnr" v="793003" />
	</node>
	<node id="-181041" lat="60.2708166659" lon="9.3420111075">
		<tag k="name" v="Skaret" />
		<tag k="place" v="isolated_dwelling" />
		<tag k="ssr:stedsnr" v="576428" />
	</node>
	<node id="-181025" lat="60.1422583336" lon="9.39959721816">
		<tag k="name" v="Lurvelia" />
		<tag k="place" v="isolated_dwelling" />
		<tag k="ssr:stedsnr" v="576069" />
	</node>
	<node id="-181022" lat="60.2889250036" lon="9.24938610536">
		<tag k="name" v="Søre Medalen" />
		<tag k="place" v="farm" />
		<tag k="ssr:stedsnr" v="576006" />
	</node>
	<node id="-181021" lat="60.255308335" lon="9.30631944035">
		<tag k="name" v="Kleiverud" />
		<tag k="place" v="isolated_dwelling" />
		<tag k="ssr:stedsnr" v="575907" />
	</node>
	<node id="-178972" lat="60.0059277737" lon="9.45443054783">
		<tag k="name" v="Brenndalsbu" />
		<tag k="place" v="isolated_dwelling" />
		<tag k="ssr:stedsnr" v="336097" />
	</node>
	<node id="-181019" lat="60.2625611074" lon="9.26491667404">
		<tag k="name" v="Brenna" />
		<tag k="place" v="isolated_dwelling" />
		<tag k="ssr:stedsnr" v="575839" />
	</node>
	<node id="-181039" lat="60.1287722224" lon="9.45514166151">
		<tag k="name" v="Åsrud" />
		<tag k="place" v="isolated_dwelling" />
		<tag k="ssr:stedsnr" v="576410" />
	</node>
	<node id="-178965" lat="60.0268416711" lon="9.69860277611">
		<tag k="name" v="Strømstad" />
		<tag k="place" v="isolated_dwelling" />
		<tag k="ssr:stedsnr" v="335992" />
	</node>
	<node id="-180472" lat="60.0112499964" lon="9.70056110342">
		<tag k="name" v="Hellum" />
		<tag k="place" v="farm" />
		<tag k="ssr:stedsnr" v="429971" />
	</node>
	<node id="-178950" lat="60.0440999999" lon="9.60815277351">
		<tag k="name" v="Nordre Sund" />
		<tag k="place" v="farm" />
		<tag k="ssr:stedsnr" v="335700" />
	</node>
	<node id="-178949" lat="59.9539666647" lon="9.8065361098">
		<tag k="name" v="Nordre Mellom-Nes" />
		<tag k="place" v="farm" />
		<tag k="ssr:stedsnr" v="335693" />
	</node>
	<node id="-178948" lat="60.0323083334" lon="9.60245000447">
		<tag k="name" v="Bakken" />
		<tag k="place" v="locality" />
		<tag k="ssr:stedsnr" v="335690" />
	</node>
	<node id="-181174" lat="60.2398194439" lon="9.23966666412">
		<tag k="alt_name" v="Bøle" />
		<tag k="name" v="Vest-Bøle" />
		<tag k="place" v="farm" />
		<tag k="ssr:stedsnr" v="611280" />
	</node>
	<node id="-180991" lat="60.236263893" lon="9.28215833946">
		<tag k="name" v="Nastad" />
		<tag k="place" v="locality" />
		<tag k="ssr:stedsnr" v="568120" />
	</node>
	<node id="-178942" lat="59.9993777781" lon="9.75508056272">
		<tag k="name" v="Nordre Jokstad" />
		<tag k="place" v="farm" />
		<tag k="ssr:stedsnr" v="335604" />
	</node>
	<node id="-178940" lat="59.9561805554" lon="9.65359999306">
		<tag k="name" v="Vestre Grønset" />
		<tag k="place" v="farm" />
		<tag k="ssr:stedsnr" v="335508" />
	</node>
	<node id="-180403" lat="60.0369694456" lon="9.65454443662">
		<tag k="name" v="Eid" />
		<tag k="place" v="farm" />
		<tag k="ssr:stedsnr" v="247938" />
	</node>
	<node id="-178937" lat="59.9653286121" lon="9.75355403072">
		<tag k="fixme" v="consider place=hamlet" />
		<tag k="name" v="Fagerbakke" />
		<tag k="place" v="farm" />
		<tag k="ssr:stedsnr" v="335424" />
	</node>
	<node id="-180477" lat="60.0297916704" lon="9.58736111053">
		<tag k="name" v="Lyubråtan" />
		<tag k="place" v="farm" />
		<tag k="ssr:stedsnr" v="430032" />
	</node>
	<node id="-180983" lat="60.2805444427" lon="9.34115555263">
		<tag k="historic" v="shieling" />
		<tag k="name" v="Hollerudsetra" />
		<tag k="place" v="locality" />
		<tag k="ssr:stedsnr" v="552127" />
	</node>
	<node id="-178934" lat="59.9720222213" lon="9.76812777363">
		<tag k="name" v="Søre Bergan" />
		<tag k="place" v="farm" />
		<tag k="ssr:stedsnr" v="335404" />
	</node>
	<node id="-178933" lat="59.969505556" lon="9.76243610363">
		<tag k="name" v="Berganhagan" />
		<tag k="place" v="farm" />
		<tag k="ssr:stedsnr" v="335405" />
	</node>
	<node id="-178929" lat="59.961019448" lon="9.61556388374">
		<tag k="name" v="Nedre Vatnås" />
		<tag k="place" v="farm" />
		<tag k="ssr:stedsnr" v="335373" />
	</node>
	<node id="-180973" lat="60.0003472254" lon="9.75768610444">
		<tag k="name" v="Varsla" />
		<tag k="place" v="farm" />
		<tag k="ssr:stedsnr" v="551977" />
	</node>
	<node id="-181714" lat="60.1336444469" lon="9.27214166685">
		<tag k="name" v="Lågbu" />
		<tag k="place" v="isolated_dwelling" />
		<tag k="ssr:stedsnr" v="757366" />
	</node>
	<node id="-180970" lat="60.1539444435" lon="9.50001665808">
		<tag k="historic" v="shieling" />
		<tag k="name" v="Dalen" />
		<tag k="place" v="locality" />
		<tag k="ssr:stedsnr" v="551400" />
	</node>
	<node id="-180969" lat="60.1536027823" lon="9.31610833287">
		<tag k="historic" v="shieling" />
		<tag k="name" v="Grønnhovd" />
		<tag k="place" v="locality" />
		<tag k="ssr:stedsnr" v="551396" />
	</node>
	<node id="-180967" lat="60.2313833358" lon="9.36347499348">
		<tag k="name" v="Ovnan" />
		<tag k="place" v="farm" />
		<tag k="ssr:stedsnr" v="551257" />
	</node>
	<node id="-180964" lat="60.0729002782" lon="9.53476738821">
		<tag k="alt_name" v="Øvre Bergan" />
		<tag k="fixme" v="consider place=hamlet" />
		<tag k="name" v="Bergan" />
		<tag k="place" v="farm" />
		<tag k="ssr:stedsnr" v="551083" />
	</node>
	<node id="-180963" lat="60.040024996" lon="9.55420556158">
		<tag k="name" v="Svarverud" />
		<tag k="place" v="farm" />
		<tag k="ssr:stedsnr" v="551053" />
	</node>
	<node id="-180960" lat="59.9880695903" lon="9.74004649871">
		<tag k="fixme" v="consider place=hamlet" />
		<tag k="name" v="Nordre Gren" />
		<tag k="place" v="farm" />
		<tag k="ssr:stedsnr" v="550963" />
	</node>
	<node id="-180958" lat="60.026819442" lon="9.78224722728">
		<tag k="historic" v="shieling" />
		<tag k="name" v="Skatvetsetra" />
		<tag k="place" v="locality" />
		<tag k="ssr:stedsnr" v="550953" />
	</node>
	<node id="-180957" lat="60.020972224" lon="9.69920555203">
		<tag k="name" v="Sauerud" />
		<tag k="place" v="farm" />
		<tag k="ssr:stedsnr" v="550954" />
	</node>
	<node id="-180955" lat="60.035613892" lon="9.65663888146">
		<tag k="fixme" v="multiple name tags, choose one and add the other to alt_name" />
		<tag k="name" v="Øvre Rolstad;Rolstad" />
		<tag k="place" v="farm" />
		<tag k="ssr:stedsnr" v="550940" />
	</node>
	<node id="-180954" lat="60.0288805525" lon="9.71157499909">
		<tag k="name" v="Kinkebråtan" />
		<tag k="place" v="locality" />
		<tag k="ssr:stedsnr" v="550927" />
	</node>
	<node id="-180950" lat="60.0934888901" lon="9.704208331">
		<tag k="name" v="Plassansetra" />
		<tag k="place" v="locality" />
		<tag k="ssr:stedsnr" v="550851" />
	</node>
	<node id="-180949" lat="59.9632555558" lon="9.75530000762">
		<tag k="name" v="Sekoenga" />
		<tag k="place" v="farm" />
		<tag k="ssr:stedsnr" v="550792" />
	</node>
	<node id="-180948" lat="59.9567138931" lon="9.64689444371">
		<tag k="fixme" v="consider place=hamlet" />
		<tag k="name" v="Grenskogen" />
		<tag k="place" v="village" />
		<tag k="ssr:stedsnr" v="550775" />
	</node>
	<node id="-180946" lat="59.9638020238" lon="9.80942362247">
		<tag k="alt_name" v="Søndre Desarud;Søre Desarud" />
		<tag k="fixme" v="consider place=hamlet" />
		<tag k="name" v="Desarud" />
		<tag k="place" v="farm" />
		<tag k="ssr:stedsnr" v="550770" />
	</node>
	<node id="-180945" lat="59.9433006935" lon="9.62676034693">
		<tag k="fixme" v="consider place=hamlet" />
		<tag k="name" v="Klabu" />
		<tag k="place" v="farm" />
		<tag k="ssr:stedsnr" v="550760" />
	</node>
	<node id="-180944" lat="60.1675833375" lon="9.21211389737">
		<tag k="alt_name" v="Barlindos" />
		<tag k="historic" v="shieling" />
		<tag k="name" v="Barlindossetra" />
		<tag k="place" v="locality" />
		<tag k="ssr:stedsnr" v="550611" />
	</node>
	<node id="-181368" lat="60.0060694487" lon="9.73857222171">
		<tag k="name" v="Nerstad" />
		<tag k="place" v="isolated_dwelling" />
		<tag k="ssr:stedsnr" v="639280" />
	</node>
	<node id="-178894" lat="60.1189444443" lon="9.3417916611">
		<tag k="name" v="Hagan" />
		<tag k="place" v="isolated_dwelling" />
		<tag k="ssr:stedsnr" v="334027" />
	</node>
	<node id="-180941" lat="60.1758499995" lon="9.45394999828">
		<tag k="fixme" v="multiple name tags, choose one and add the other to alt_name" />
		<tag k="name" v="Bergbo;Bergsbu" />
		<tag k="place" v="isolated_dwelling" />
		<tag k="ssr:stedsnr" v="550440" />
	</node>
	<node id="-180940" lat="60.1773055572" lon="9.41874721623">
		<tag k="name" v="Sandan" />
		<tag k="place" v="isolated_dwelling" />
		<tag k="ssr:stedsnr" v="550439" />
	</node>
	<node id="-180939" lat="60.1038072342" lon="9.37809976517">
		<tag k="alt_name" v="Grøsetsetra" />
		<tag k="historic" v="shieling" />
		<tag k="name" v="Grøset" />
		<tag k="place" v="locality" />
		<tag k="ssr:stedsnr" v="550386" />
	</node>
	<node id="-178890" lat="60.2814211284" lon="9.26949678511">
		<tag k="fixme" v="consider place=hamlet" />
		<tag k="name" v="Nord-Åsland" />
		<tag k="place" v="farm" />
		<tag k="ssr:stedsnr" v="333862" />
	</node>
	<node id="-180937" lat="60.119665114" lon="9.45848627539">
		<tag k="fixme" v="consider place=hamlet" />
		<tag k="name" v="Gråskei" />
		<tag k="place" v="farm" />
		<tag k="ssr:stedsnr" v="550382" />
	</node>
	<node id="-178886" lat="60.2353944448" lon="9.33504166944">
		<tag k="name" v="Nedre Søland" />
		<tag k="place" v="farm" />
		<tag k="ssr:stedsnr" v="333815" />
	</node>
	<node id="-178885" lat="60.23318611" lon="9.32606388767">
		<tag k="name" v="Grindjordet" />
		<tag k="place" v="locality" />
		<tag k="ssr:stedsnr" v="333812" />
	</node>
	<node id="-180333" lat="60.0260611106" lon="9.68958611885">
		<tag k="name" v="Nygård" />
		<tag k="place" v="farm" />
		<tag k="ssr:stedsnr" v="214896" />
	</node>
	<node id="-180931" lat="60.0923437186" lon="9.47542419365">
		<tag k="alt_name" v="Øvre Hov" />
		<tag k="fixme" v="consider place=hamlet" />
		<tag k="name" v="Hov" />
		<tag k="place" v="farm" />
		<tag k="ssr:stedsnr" v="550111" />
	</node>
	<node id="-178881" lat="60.1740861131" lon="9.39279166422">
		<tag k="name" v="Nedre Grønhovd" />
		<tag k="place" v="farm" />
		<tag k="ssr:stedsnr" v="333711" />
	</node>
	<node id="-180926" lat="60.0089472199" lon="9.52060277586">
		<tag k="name" v="Gåsefra" />
		<tag k="place" v="farm" />
		<tag k="ssr:stedsnr" v="550013" />
	</node>
	<node id="-180925" lat="59.9721166662" lon="9.72512778613">
		<tag k="name" v="Steinset" />
		<tag k="place" v="farm" />
		<tag k="ssr:stedsnr" v="549795" />
	</node>
	<node id="-180924" lat="59.9687361104" lon="9.64488888358">
		<tag k="alt_name" v="Li" />
		<tag k="name" v="Østre Li" />
		<tag k="place" v="farm" />
		<tag k="ssr:stedsnr" v="549792" />
	</node>
	<node id="-180921" lat="60.0493694429" lon="9.68689723056">
		<tag k="alt_name" v="Reistad mellom" />
		<tag k="name" v="Mellom-Reistad" />
		<tag k="place" v="farm" />
		<tag k="ssr:stedsnr" v="543322" />
	</node>
	<node id="-178633" lat="60.2526055578" lon="9.40487222181">
		<tag k="name" v="Midtlihytta" />
		<tag k="place" v="isolated_dwelling" />
		<tag k="ssr:stedsnr" v="273145" />
	</node>
	<node id="-178860" lat="60.2551611154" lon="9.3130722288">
		<tag k="name" v="Smed-Rønningen" />
		<tag k="place" v="isolated_dwelling" />
		<tag k="ssr:stedsnr" v="333120" />
	</node>
	<node id="-178859" lat="60.2473222253" lon="9.32361388506">
		<tag k="name" v="Moen" />
		<tag k="place" v="locality" />
		<tag k="ssr:stedsnr" v="333114" />
	</node>
	<node id="-180902" lat="60.0068305561" lon="9.74554167159">
		<tag k="name" v="Solstad" />
		<tag k="place" v="farm" />
		<tag k="ssr:stedsnr" v="518760" />
	</node>
	<node id="-178853" lat="60.2079222205" lon="9.20789166558">
		<tag k="historic" v="shieling" />
		<tag k="name" v="Lurenhol" />
		<tag k="place" v="locality" />
		<tag k="ssr:stedsnr" v="333007" />
	</node>
	<node id="-178852" lat="60.2510555527" lon="9.30836944924">
		<tag k="name" v="Kaugerud" />
		<tag k="place" v="farm" />
		<tag k="ssr:stedsnr" v="332901" />
	</node>
	<node id="-181702" lat="60.0828749991" lon="9.4595361049">
		<tag k="name" v="Nedre Båsum" />
		<tag k="place" v="farm" />
		<tag k="ssr:stedsnr" v="750799" />
	</node>
	<node id="-180896" lat="60.0827972246" lon="9.51756945245">
		<tag k="alt_name" v="Rudstangen" />
		<tag k="name" v="Tangen" />
		<tag k="place" v="locality" />
		<tag k="ssr:stedsnr" v="518552" />
	</node>
	<node id="-178847" lat="60.2568026927" lon="9.35154824236">
		<tag k="fixme" v="consider place=hamlet" />
		<tag k="name" v="Åsen" />
		<tag k="place" v="farm" />
		<tag k="ssr:stedsnr" v="310902" />
	</node>
	<node id="-178846" lat="60.31748611" lon="9.21257222554">
		<tag k="alt_name" v="Buin setergrend" />
		<tag k="historic" v="shieling" />
		<tag k="name" v="Buin" />
		<tag k="place" v="locality" />
		<tag k="ssr:stedsnr" v="310436" />
	</node>
	<node id="-178845" lat="60.2710916707" lon="9.38203055032">
		<tag k="historic" v="shieling" />
		<tag k="name" v="Teigesetran" />
		<tag k="place" v="locality" />
		<tag k="ssr:stedsnr" v="310094" />
	</node>
	<node id="-178839" lat="60.2789352489" lon="9.26006752146">
		<tag k="fixme" v="consider place=hamlet" />
		<tag k="name" v="Bakli" />
		<tag k="place" v="farm" />
		<tag k="ssr:stedsnr" v="309114" />
	</node>
	<node id="-178835" lat="60.3204861132" lon="9.28953332765">
		<tag k="historic" v="shieling" />
		<tag k="name" v="Jøslisetra" />
		<tag k="place" v="locality" />
		<tag k="ssr:stedsnr" v="309055" />
	</node>
	<node id="-178833" lat="60.01095" lon="9.61052500138">
		<tag k="historic" v="shieling" />
		<tag k="name" v="Kvasshaugsetra" />
		<tag k="place" v="locality" />
		<tag k="ssr:stedsnr" v="308980" />
	</node>
	<node id="-178831" lat="60.0292096956" lon="9.67716791928">
		<tag k="fixme" v="consider place=hamlet" />
		<tag k="name" v="Eikje" />
		<tag k="place" v="farm" />
		<tag k="ssr:stedsnr" v="308920" />
	</node>
	<node id="-180895" lat="59.9820888893" lon="9.75250555868">
		<tag k="name" v="Rundhaug" />
		<tag k="place" v="farm" />
		<tag k="ssr:stedsnr" v="518551" />
	</node>
	<node id="-178829" lat="60.0537222209" lon="9.611366662">
		<tag k="name" v="Skogheim" />
		<tag k="place" v="farm" />
		<tag k="ssr:stedsnr" v="308906" />
	</node>
	<node id="-178828" lat="60.0489833341" lon="9.63855833129">
		<tag k="name" v="Holmen" />
		<tag k="place" v="farm" />
		<tag k="ssr:stedsnr" v="308902" />
	</node>
	<node id="-181698" lat="60.1060722185" lon="9.45703333331">
		<tag k="name" v="Amundrud" />
		<tag k="place" v="farm" />
		<tag k="ssr:stedsnr" v="750125" />
	</node>
	<node id="-178826" lat="60.2348916687" lon="9.20859999149">
		<tag k="alt_name" v="Nedre Fagerli" />
		<tag k="name" v="Fagerli" />
		<tag k="place" v="isolated_dwelling" />
		<tag k="ssr:stedsnr" v="308873" />
	</node>
	<node id="-178823" lat="60.1759833347" lon="9.29053055933">
		<tag k="historic" v="shieling" />
		<tag k="name" v="Grunntjennsetra" />
		<tag k="place" v="locality" />
		<tag k="ssr:stedsnr" v="308457" />
	</node>
	<node id="-180870" lat="60.0540666691" lon="9.60663334067">
		<tag k="name" v="Nedre Vik" />
		<tag k="place" v="farm" />
		<tag k="ssr:stedsnr" v="517801" />
	</node>
	<node id="-178821" lat="60.2043556268" lon="9.36626779022">
		<tag k="fixme" v="consider place=hamlet" />
		<tag k="name" v="Skår" />
		<tag k="place" v="farm" />
		<tag k="ssr:stedsnr" v="308437" />
	</node>
	<node id="-181422" lat="60.126363889" lon="9.53377777506">
		<tag k="alt_name" v="Blekabergseter" />
		<tag k="name" v="Blekabergsetra" />
		<tag k="place" v="locality" />
		<tag k="ssr:stedsnr" v="672355" />
	</node>
	<node id="-178819" lat="60.1130593041" lon="9.47027826792">
		<tag k="fixme" v="consider place=hamlet" />
		<tag k="name" v="Hagavoll" />
		<tag k="place" v="farm" />
		<tag k="ssr:stedsnr" v="308364" />
	</node>
	<node id="-180865" lat="60.0419377701" lon="9.62032927101">
		<tag k="fixme" v="consider place=hamlet" />
		<tag k="name" v="Slette" />
		<tag k="place" v="farm" />
		<tag k="ssr:stedsnr" v="517690" />
	</node>
	<node id="-181696" lat="60.121349998" lon="9.38103889355">
		<tag k="historic" v="shieling" />
		<tag k="name" v="Stubberudvollen" />
		<tag k="place" v="locality" />
		<tag k="ssr:stedsnr" v="750105" />
	</node>
	<node id="-180862" lat="59.958705554" lon="9.80268333615">
		<tag k="name" v="Nordre Nes" />
		<tag k="place" v="farm" />
		<tag k="ssr:stedsnr" v="517643" />
	</node>
	<node id="-178812" lat="59.960924999" lon="9.709633342">
		<tag k="name" v="Bergli" />
		<tag k="place" v="isolated_dwelling" />
		<tag k="ssr:stedsnr" v="307791" />
	</node>
	<node id="-178811" lat="59.9622249959" lon="9.82855833613">
		<tag k="name" v="Myrhagan" />
		<tag k="place" v="farm" />
		<tag k="ssr:stedsnr" v="307774" />
	</node>
	<node id="-178810" lat="59.9535333342" lon="9.83104444386">
		<tag k="name" v="Bjørnstad" />
		<tag k="place" v="farm" />
		<tag k="ssr:stedsnr" v="307755" />
	</node>
	<node id="-178809" lat="60.1369055542" lon="9.43555832737">
		<tag k="name" v="Øya" />
		<tag k="place" v="farm" />
		<tag k="ssr:stedsnr" v="307438" />
	</node>
	<node id="-178808" lat="60.1311479726" lon="9.43335614856">
		<tag k="alt_name" v="Søre Enger" />
		<tag k="name" v="Enger" />
		<tag k="place" v="hamlet" />
		<tag k="ssr:stedsnr" v="307437" />
	</node>
	<node id="-178803" lat="60.2324166662" lon="9.35743610809">
		<tag k="name" v="Tjyruhjellen" />
		<tag k="place" v="farm" />
		<tag k="ssr:stedsnr" v="308240" />
	</node>
	<node id="-180849" lat="59.9617305536" lon="9.77118055664">
		<tag k="name" v="Solumsmoen" />
		<tag k="place" v="farm" />
		<tag k="ssr:stedsnr" v="517439" />
	</node>
	<node id="-178796" lat="60.2146111088" lon="9.42334444835">
		<tag k="name" v="Søre Gampeløksetra" />
		<tag k="place" v="isolated_dwelling" />
		<tag k="ssr:stedsnr" v="307302" />
	</node>
	<node id="-180843" lat="59.9686472243" lon="9.72557500338">
		<tag k="name" v="Svalstad" />
		<tag k="place" v="farm" />
		<tag k="ssr:stedsnr" v="517402" />
	</node>
	<node id="-178791" lat="59.995074997" lon="9.73664167116">
		<tag k="name" v="Sommerro" />
		<tag k="place" v="farm" />
		<tag k="ssr:stedsnr" v="277000" />
	</node>
	<node id="-178790" lat="60.0436777758" lon="9.69124167338">
		<tag k="name" v="Nordby" />
		<tag k="place" v="locality" />
		<tag k="ssr:stedsnr" v="275995" />
	</node>
	<node id="-181458" lat="59.9575638851" lon="9.83375277563">
		<tag k="name" v="Øvre Bjørndalen" />
		<tag k="place" v="farm" />
		<tag k="ssr:stedsnr" v="690161" />
	</node>
	<node id="-180831" lat="59.9862935415" lon="9.61566619754">
		<tag k="fixme" v="consider place=hamlet" />
		<tag k="name" v="Langelund" />
		<tag k="place" v="farm" />
		<tag k="ssr:stedsnr" v="517005" />
	</node>
	<node id="-178781" lat="60.0805444466" lon="9.50926388639">
		<tag k="name" v="Røysebråtan" />
		<tag k="place" v="locality" />
		<tag k="ssr:stedsnr" v="275891" />
	</node>
	<node id="-178780" lat="60.0894000042" lon="9.66141944741">
		<tag k="name" v="Holmenhytta" />
		<tag k="place" v="isolated_dwelling" />
		<tag k="ssr:stedsnr" v="275882" />
	</node>
	<node id="-180826" lat="60.1561500007" lon="9.42834999531">
		<tag k="name" v="Solebu" />
		<tag k="place" v="locality" />
		<tag k="ssr:stedsnr" v="516703" />
	</node>
	<node id="-180823" lat="60.1691111077" lon="9.48298611773">
		<tag k="name" v="Midtstykket" />
		<tag k="place" v="locality" />
		<tag k="ssr:stedsnr" v="516622" />
	</node>
	<node id="-178767" lat="60.0239694425" lon="9.60124443928">
		<tag k="name" v="Rantestua" />
		<tag k="place" v="locality" />
		<tag k="ssr:stedsnr" v="275696" />
	</node>
	<node id="-178765" lat="59.9524527771" lon="9.81100000614">
		<tag k="name" v="Søre Nes" />
		<tag k="place" v="farm" />
		<tag k="ssr:stedsnr" v="275653" />
	</node>
	<node id="-178764" lat="60.0349722192" lon="9.59674443904">
		<tag k="name" v="Haugen" />
		<tag k="place" v="farm" />
		<tag k="ssr:stedsnr" v="275648" />
	</node>
	<node id="-178761" lat="60.027680554" lon="9.68320277952">
		<tag k="name" v="Nedre Eikje" />
		<tag k="place" v="farm" />
		<tag k="ssr:stedsnr" v="275616" />
	</node>
	<node id="-178757" lat="59.9638805532" lon="9.82685000251">
		<tag k="name" v="Øverby" />
		<tag k="place" v="farm" />
		<tag k="ssr:stedsnr" v="275606" />
	</node>
	<node id="-180804" lat="60.2401277774" lon="9.43927777579">
		<tag k="name" v="Djupsjøfeltet" />
		<tag k="place" v="neighbourhood" />
		<tag k="ssr:stedsnr" v="516173" />
	</node>
	<node id="-178755" lat="60.040602781" lon="9.63992777732">
		<tag k="leisure" v="pitch" />
		<tag k="name" v="Skibakke" />
		<tag k="ssr:stedsnr" v="275584" />
	</node>
	<node id="-180802" lat="60.1500499963" lon="9.34526388338">
		<tag k="name" v="Nilsebu" />
		<tag k="place" v="isolated_dwelling" />
		<tag k="ssr:stedsnr" v="516113" />
	</node>
	<node id="-178751" lat="60.0727333304" lon="9.50068056087">
		<tag k="name" v="Nedre Rud" />
		<tag k="place" v="locality" />
		<tag k="ssr:stedsnr" v="275539" />
	</node>
	<node id="-180798" lat="60.242002782" lon="9.26144444977">
		<tag k="name" v="Nord-Kodalen" />
		<tag k="place" v="farm" />
		<tag k="ssr:stedsnr" v="515904" />
	</node>
	<node id="-180797" lat="60.2448472202" lon="9.27627221766">
		<tag k="name" v="Båshagan" />
		<tag k="place" v="isolated_dwelling" />
		<tag k="ssr:stedsnr" v="515895" />
	</node>
	<node id="-178748" lat="60.0789861091" lon="9.52653054886">
		<tag k="name" v="Bekken" />
		<tag k="place" v="farm" />
		<tag k="ssr:stedsnr" v="275528" />
	</node>
	<node id="-180789" lat="60.1757944486" lon="9.41462778639">
		<tag k="name" v="Nedre Sandan" />
		<tag k="place" v="isolated_dwelling" />
		<tag k="ssr:stedsnr" v="515739" />
	</node>
	<node id="-178740" lat="60.0478361106" lon="9.54965276888">
		<tag k="name" v="Nordre Flågan" />
		<tag k="place" v="farm" />
		<tag k="ssr:stedsnr" v="275418" />
	</node>
	<node id="-180786" lat="60.2635138874" lon="9.31231388628">
		<tag k="name" v="Gunhildbråtan" />
		<tag k="place" v="isolated_dwelling" />
		<tag k="ssr:stedsnr" v="515689" />
	</node>
	<node id="-180784" lat="60.1735379217" lon="9.38406029384">
		<tag k="name" v="Øvre Grønhovd" />
		<tag k="place" v="farm" />
		<tag k="ssr:stedsnr" v="515664" />
	</node>
	<node id="-178735" lat="59.9620555551" lon="9.59880832929">
		<tag k="name" v="Sølvtjennmoen" />
		<tag k="place" v="isolated_dwelling" />
		<tag k="ssr:stedsnr" v="275386" />
	</node>
	<node id="-180779" lat="60.2725388902" lon="9.41094999474">
		<tag k="historic" v="shieling" />
		<tag k="name" v="Finnebråtaseter" />
		<tag k="place" v="locality" />
		<tag k="ssr:stedsnr" v="515480" />
	</node>
	<node id="-178723" lat="60.0949944419" lon="9.45155277336">
		<tag k="name" v="Åsmoen" />
		<tag k="place" v="isolated_dwelling" />
		<tag k="ssr:stedsnr" v="275312" />
	</node>
	<node id="-178720" lat="60.0186638887" lon="9.68953054841">
		<tag k="name" v="Kjemperud" />
		<tag k="place" v="farm" />
		<tag k="ssr:stedsnr" v="275251" />
	</node>
	<node id="-181680" lat="60.0159963414" lon="9.70800072936">
		<tag k="alt_name" v="Øvre Velstad" />
		<tag k="name" v="Velstad" />
		<tag k="place" v="hamlet" />
		<tag k="ssr:stedsnr" v="733957" />
	</node>
	<node id="-178716" lat="60.0121194419" lon="9.7280138942">
		<tag k="name" v="Storebråtan" />
		<tag k="place" v="farm" />
		<tag k="ssr:stedsnr" v="275223" />
	</node>
	<node id="-178714" lat="60.0018999995" lon="9.58489166022">
		<tag k="historic" v="shieling" />
		<tag k="name" v="Rustandseter" />
		<tag k="place" v="locality" />
		<tag k="ssr:stedsnr" v="275215" />
	</node>
	<node id="-180313" lat="60.0802583289" lon="9.53016666775">
		<tag k="name" v="Køsa" />
		<tag k="place" v="locality" />
		<tag k="ssr:stedsnr" v="214561" />
	</node>
	<node id="-180754" lat="60.0793222254" lon="9.52296666668">
		<tag k="name" v="Nordre Eidal" />
		<tag k="place" v="farm" />
		<tag k="ssr:stedsnr" v="508136" />
	</node>
	<node id="-180752" lat="60.2570694425" lon="9.35909445244">
		<tag k="name" v="Hagan" />
		<tag k="place" v="farm" />
		<tag k="ssr:stedsnr" v="492906" />
	</node>
	<node id="-180751" lat="60.2598469179" lon="9.32627057896">
		<tag k="fixme" v="consider place=hamlet" />
		<tag k="name" v="Bjørnerud" />
		<tag k="place" v="farm" />
		<tag k="ssr:stedsnr" v="492903" />
	</node>
	<node id="-180750" lat="60.2549833333" lon="9.32070555024">
		<tag k="name" v="Nordre Skalland" />
		<tag k="place" v="farm" />
		<tag k="ssr:stedsnr" v="492084" />
	</node>
	<node id="-180749" lat="60.2602750045" lon="9.29919722518">
		<tag k="name" v="Nord-Skare" />
		<tag k="place" v="farm" />
		<tag k="ssr:stedsnr" v="492082" />
	</node>
	<node id="-180746" lat="60.3430777789" lon="9.17679721397">
		<tag k="alt_name" v="Haglebu" />
		<tag k="historic" v="shieling" />
		<tag k="name" v="Haglebu seter" />
		<tag k="place" v="locality" />
		<tag k="ssr:stedsnr" v="491437" />
	</node>
	<node id="-178697" lat="60.02018056" lon="9.65859999152">
		<tag k="name" v="Ravnåshagan" />
		<tag k="place" v="locality" />
		<tag k="ssr:stedsnr" v="275118" />
	</node>
	<node id="-178945" lat="60.02523611" lon="9.68374722996">
		<tag k="name" v="Granheim" />
		<tag k="place" v="farm" />
		<tag k="ssr:stedsnr" v="335660" />
	</node>
	<node id="-180739" lat="60.285875001" lon="9.25615000039">
		<tag k="name" v="Flatin" />
		<tag k="place" v="farm" />
		<tag k="ssr:stedsnr" v="491073" />
	</node>
	<node id="-180738" lat="60.3214722224" lon="9.25056389591">
		<tag k="historic" v="shieling" />
		<tag k="name" v="Teigesetra" />
		<tag k="place" v="locality" />
		<tag k="ssr:stedsnr" v="491064" />
	</node>
	<node id="-178689" lat="60.0036277737" lon="9.52985555112">
		<tag k="historic" v="shieling" />
		<tag k="name" v="Plassen" />
		<tag k="place" v="locality" />
		<tag k="ssr:stedsnr" v="275062" />
	</node>
	<node id="-178687" lat="59.9988277811" lon="9.53789999761">
		<tag k="historic" v="shieling" />
		<tag k="name" v="Slettesetra" />
		<tag k="place" v="locality" />
		<tag k="ssr:stedsnr" v="275053" />
	</node>
	<node id="-180734" lat="60.012347221" lon="9.7199361167">
		<tag k="name" v="Bakken" />
		<tag k="place" v="farm" />
		<tag k="ssr:stedsnr" v="490968" />
	</node>
	<node id="-180733" lat="60.0360095038" lon="9.70516341474">
		<tag k="alt_name" v="Nordre Hoffar" />
		<tag k="fixme" v="consider place=hamlet" />
		<tag k="name" v="Hoffar" />
		<tag k="place" v="farm" />
		<tag k="ssr:stedsnr" v="490911" />
	</node>
	<node id="-180732" lat="60.0650555543" lon="9.74507776898">
		<tag k="historic" v="shieling" />
		<tag k="name" v="Hovlandsetra" />
		<tag k="place" v="locality" />
		<tag k="ssr:stedsnr" v="490885" />
	</node>
	<node id="-180729" lat="60.102552779" lon="9.45113055599">
		<tag k="name" v="Hagan" />
		<tag k="place" v="farm" />
		<tag k="ssr:stedsnr" v="490386" />
	</node>
	<node id="-180728" lat="60.1088574073" lon="9.45763052788">
		<tag k="fixme" v="consider place=hamlet" />
		<tag k="name" v="Amundrud" />
		<tag k="place" v="farm" />
		<tag k="ssr:stedsnr" v="490384" />
	</node>
	<node id="-182262" lat="60.1221694427" lon="9.43773056047">
		<tag k="name" v="Søre Halsteinrud" />
		<tag k="place" v="farm" />
		<tag k="ssr:stedsnr" v="880428" />
	</node>
	<node id="-180726" lat="60.2494166694" lon="9.38520000064">
		<tag k="alt_name" v="Bråtan" />
		<tag k="name" v="Nedre Bråtan" />
		<tag k="place" v="farm" />
		<tag k="ssr:stedsnr" v="490283" />
	</node>
	<node id="-180725" lat="60.2341861113" lon="9.3194472225">
		<tag k="alt_name" v="Søland" />
		<tag k="name" v="Vestre Søland" />
		<tag k="place" v="farm" />
		<tag k="ssr:stedsnr" v="490252" />
	</node>
	<node id="-180724" lat="60.0897805576" lon="9.43438610789">
		<tag k="name" v="Åssetra" />
		<tag k="place" v="isolated_dwelling" />
		<tag k="ssr:stedsnr" v="490105" />
	</node>
	<node id="-180723" lat="60.0087611112" lon="9.49635278294">
		<tag k="alt_name" v="Vestre Hiåsen" />
		<tag k="name" v="Hiåsen" />
		<tag k="place" v="farm" />
		<tag k="ssr:stedsnr" v="490019" />
	</node>
	<node id="-180722" lat="59.9910222241" lon="9.74105555755">
		<tag k="name" v="Øygarden" />
		<tag k="place" v="farm" />
		<tag k="ssr:stedsnr" v="489960" />
	</node>
	<node id="-180717" lat="59.9737944482" lon="9.63491944728">
		<tag k="name" v="Liplassen" />
		<tag k="place" v="isolated_dwelling" />
		<tag k="ssr:stedsnr" v="489813" />
	</node>
	<node id="-180735" lat="60.0007527752" lon="9.8134333298">
		<tag k="historic" v="shieling" />
		<tag k="name" v="Kolsrudsetra" />
		<tag k="place" v="locality" />
		<tag k="ssr:stedsnr" v="490978" />
	</node>
	<node id="-178666" lat="60.2141249973" lon="9.38237777933">
		<tag k="name" v="Tovstjennstykket" />
		<tag k="place" v="locality" />
		<tag k="ssr:stedsnr" v="273895" />
	</node>
	<node id="-180988" lat="60.2522906282" lon="9.35037971863">
		<tag k="fixme" v="consider place=hamlet" />
		<tag k="name" v="Hamre" />
		<tag k="place" v="farm" />
		<tag k="ssr:stedsnr" v="552930" />
	</node>
	<node id="-180708" lat="60.1268638904" lon="9.56044722149">
		<tag k="fixme" v="multiple name tags, choose one and add the other to alt_name" />
		<tag k="name" v="Bjørnerud;Bjørnerudsetra" />
		<tag k="place" v="locality" />
		<tag k="ssr:stedsnr" v="489457" />
	</node>
	<node id="-180707" lat="60.1333209424" lon="9.52982475796">
		<tag k="historic" v="shieling" />
		<tag k="name" v="Nedre Dalen" />
		<tag k="place" v="locality" />
		<tag k="ssr:stedsnr" v="489456" />
	</node>
	<node id="-180706" lat="60.1371869288" lon="9.41457114209">
		<tag k="name" v="Helgeset" />
		<tag k="place" v="farm" />
		<tag k="ssr:stedsnr" v="489452" />
	</node>
	<node id="-180705" lat="60.1399712245" lon="9.45386955536">
		<tag k="fixme" v="consider place=hamlet" />
		<tag k="name" v="Tales" />
		<tag k="place" v="farm" />
		<tag k="ssr:stedsnr" v="489436" />
	</node>
	<node id="-178652" lat="60.1230944418" lon="9.49931943841">
		<tag k="name" v="Flatlistykket" />
		<tag k="place" v="locality" />
		<tag k="ssr:stedsnr" v="273592" />
	</node>
	<node id="-180694" lat="60.062819447" lon="9.55689167357">
		<tag k="name" v="Frågått" />
		<tag k="place" v="farm" />
		<tag k="ssr:stedsnr" v="489089" />
	</node>
	<node id="-180692" lat="60.0472305524" lon="9.43198888479">
		<tag k="name" v="Strandebråtan" />
		<tag k="place" v="isolated_dwelling" />
		<tag k="ssr:stedsnr" v="489065" />
	</node>
	<node id="-180643" lat="59.9119972227" lon="9.72807778491">
		<tag k="name" v="Skrubbemoen" />
		<tag k="place" v="isolated_dwelling" />
		<tag k="ssr:stedsnr" v="457518" />
	</node>
	<node id="-178635" lat="60.2423916661" lon="9.41640276915">
		<tag k="name" v="Sjusjøhytta" />
		<tag k="place" v="isolated_dwelling" />
		<tag k="ssr:stedsnr" v="273162" />
	</node>
	<node id="-178935" lat="59.9777861091" lon="9.75234444234">
		<tag k="name" v="Tangen" />
		<tag k="place" v="isolated_dwelling" />
		<tag k="ssr:stedsnr" v="335407" />
	</node>
	<node id="-180461" lat="60.1105055544" lon="9.38966389786">
		<tag k="historic" v="shieling" />
		<tag k="name" v="Uvlisetra" />
		<tag k="place" v="locality" />
		<tag k="ssr:stedsnr" v="429370" />
	</node>
	<node id="-178630" lat="60.1384750028" lon="9.39084166074">
		<tag k="name" v="Solsprett" />
		<tag k="place" v="isolated_dwelling" />
		<tag k="ssr:stedsnr" v="273128" />
	</node>
	<node id="-180982" lat="60.2734122091" lon="9.27603719543">
		<tag k="fixme" v="consider place=hamlet" />
		<tag k="name" v="Steinset" />
		<tag k="place" v="farm" />
		<tag k="ssr:stedsnr" v="552126" />
	</node>
	<node id="-180670" lat="60.0487583331" lon="9.6876555591">
		<tag k="alt_name" v="Reistad med Ellevsplassen" />
		<tag k="name" v="Olstad" />
		<tag k="place" v="farm" />
		<tag k="ssr:stedsnr" v="457785" />
	</node>
	<node id="-180981" lat="60.2785888881" lon="9.23489166721">
		<tag k="historic" v="shieling" />
		<tag k="name" v="Turteli" />
		<tag k="place" v="locality" />
		<tag k="ssr:stedsnr" v="552119" />
	</node>
	<node id="-180666" lat="60.0100555564" lon="9.74729444357">
		<tag k="name" v="Øvre Haugen" />
		<tag k="place" v="farm" />
		<tag k="ssr:stedsnr" v="457756" />
	</node>
	<node id="-180663" lat="60.0118666628" lon="9.80052500556">
		<tag k="historic" v="shieling" />
		<tag k="name" v="Bysetervollane" />
		<tag k="place" v="locality" />
		<tag k="ssr:stedsnr" v="457647" />
	</node>
	<node id="-180297" lat="59.9619527796" lon="9.79340833119">
		<tag k="name" v="Høgmoen" />
		<tag k="place" v="farm" />
		<tag k="ssr:stedsnr" v="214445" />
	</node>
	<node id="-178604" lat="60.1816111089" lon="9.22561944258">
		<tag k="name" v="Langlitjennhytta" />
		<tag k="place" v="isolated_dwelling" />
		<tag k="ssr:stedsnr" v="272202" />
	</node>
	<node id="-180651" lat="60.0426222182" lon="9.64118889096">
		<tag k="leisure" v="pitch" />
		<tag k="name" v="Idrettsplass" />
		<tag k="ssr:stedsnr" v="457587" />
	</node>
	<node id="-180649" lat="59.9881666631" lon="9.74673611622">
		<tag k="name" v="Veststrøm" />
		<tag k="place" v="farm" />
		<tag k="ssr:stedsnr" v="457551" />
	</node>
	<node id="-178597" lat="60.2001194442" lon="9.24392221409">
		<tag k="name" v="Blåsbort" />
		<tag k="place" v="isolated_dwelling" />
		<tag k="ssr:stedsnr" v="272055" />
	</node>
	<node id="-178595" lat="60.2078194407" lon="9.1966722133">
		<tag k="historic" v="shieling" />
		<tag k="name" v="Røyslandseter" />
		<tag k="place" v="locality" />
		<tag k="ssr:stedsnr" v="272008" />
	</node>
	<node id="-178594" lat="60.2145472226" lon="9.1869166714">
		<tag k="name" v="Sameiga" />
		<tag k="place" v="locality" />
		<tag k="ssr:stedsnr" v="272005" />
	</node>
	<node id="-181659" lat="60.072752775" lon="9.52331388765">
		<tag k="name" v="Oset" />
		<tag k="place" v="farm" />
		<tag k="ssr:stedsnr" v="733094" />
	</node>
	<node id="-180640" lat="60.1118722238" lon="9.57171388921">
		<tag k="historic" v="shieling" />
		<tag k="name" v="Skakkeset" />
		<tag k="place" v="locality" />
		<tag k="ssr:stedsnr" v="457497" />
	</node>
	<node id="-180638" lat="59.9648305547" lon="9.67222777109">
		<tag k="name" v="Kikut" />
		<tag k="place" v="isolated_dwelling" />
		<tag k="ssr:stedsnr" v="457477" />
	</node>
	<node id="-180633" lat="60.0475055532" lon="9.55052221458">
		<tag k="name" v="Mellom-Flågan" />
		<tag k="place" v="farm" />
		<tag k="ssr:stedsnr" v="457433" />
	</node>
	<node id="-180632" lat="59.9628833305" lon="9.7701999978">
		<tag k="name" v="Storebråtan" />
		<tag k="place" v="farm" />
		<tag k="ssr:stedsnr" v="457431" />
	</node>
	<node id="-180407" lat="59.9896695814" lon="9.76260347371">
		<tag k="fixme" v="consider place=hamlet" />
		<tag k="name" v="Bakkane" />
		<tag k="place" v="farm" />
		<tag k="ssr:stedsnr" v="247950" />
	</node>
	<node id="-180630" lat="59.9734583331" lon="9.75821944792">
		<tag k="name" v="Bergheim" />
		<tag k="place" v="farm" />
		<tag k="ssr:stedsnr" v="457424" />
	</node>
	<node id="-181657" lat="59.9938027812" lon="9.81840832752">
		<tag k="fixme" v="multiple name tags, choose one and add the other to alt_name" />
		<tag k="historic" v="shieling" />
		<tag k="name" v="Solumsetrane;Solumsetra" />
		<tag k="place" v="locality" />
		<tag k="ssr:stedsnr" v="732971" />
	</node>
	<node id="-180619" lat="60.0605472182" lon="9.55972778096">
		<tag k="name" v="Snytrud" />
		<tag k="place" v="isolated_dwelling" />
		<tag k="ssr:stedsnr" v="457330" />
	</node>
	<node id="-180616" lat="60.0981333321" lon="9.45528333518">
		<tag k="name" v="Mellom-Ulberg" />
		<tag k="place" v="farm" />
		<tag k="ssr:stedsnr" v="457301" />
	</node>
	<node id="-180608" lat="59.9832249993" lon="9.63796667352">
		<tag k="name" v="Grimeli" />
		<tag k="place" v="locality" />
		<tag k="ssr:stedsnr" v="457133" />
	</node>
	<node id="-181653" lat="60.0350388872" lon="9.66698055396">
		<tag k="name" v="Sandom" />
		<tag k="place" v="farm" />
		<tag k="ssr:stedsnr" v="732939" />
	</node>
	<node id="-181413" lat="60.2337500025" lon="9.30142222861">
		<tag k="name" v="Kremarrud" />
		<tag k="place" v="isolated_dwelling" />
		<tag k="ssr:stedsnr" v="672237" />
	</node>
	<node id="-180286" lat="59.9722749979" lon="9.72802499338">
		<tag k="name" v="Bråtan" />
		<tag k="place" v="farm" />
		<tag k="ssr:stedsnr" v="214367" />
	</node>
	<node id="-181651" lat="60.0317423652" lon="9.63437849245">
		<tag k="fixme" v="consider place=hamlet" />
		<tag k="name" v="Mollerud" />
		<tag k="place" v="farm" />
		<tag k="ssr:stedsnr" v="732935" />
	</node>
	<node id="-180458" lat="60.1966694404" lon="9.37358610976">
		<tag k="name" v="Skålia" />
		<tag k="place" v="isolated_dwelling" />
		<tag k="ssr:stedsnr" v="429465" />
	</node>
	<node id="-178674" lat="60.2336805522" lon="9.31194444543">
		<tag k="name" v="Nedre Tjennås" />
		<tag k="place" v="locality" />
		<tag k="ssr:stedsnr" v="273955" />
	</node>
	<node id="-180587" lat="60.2230999975" lon="9.48123332743">
		<tag k="name" v="Nystova" />
		<tag k="place" v="isolated_dwelling" />
		<tag k="ssr:stedsnr" v="456524" />
	</node>
	<node id="-180577" lat="60.2336999994" lon="9.31556111105">
		<tag k="name" v="Gutun" />
		<tag k="place" v="isolated_dwelling" />
		<tag k="ssr:stedsnr" v="455939" />
	</node>
	<node id="-180575" lat="60.0804472255" lon="9.36881389421">
		<tag k="historic" v="shieling" />
		<tag k="name" v="Gaulen" />
		<tag k="place" v="locality" />
		<tag k="ssr:stedsnr" v="455921" />
	</node>
	<node id="-181685" lat="60.2702250017" lon="9.40819166031">
		<tag k="name" v="Tempelsetra" />
		<tag k="place" v="hamlet" />
		<tag k="ssr:stedsnr" v="734103" />
	</node>
	<node id="-181989" lat="60.25650556" lon="9.41944166045">
		<tag k="name" v="Gamleseterfeltet" />
		<tag k="old_name" v="Gamleseterfjeltet" />
		<tag k="place" v="neighbourhood" />
		<tag k="ssr:stedsnr" v="819153" />
	</node>
	<node id="-180570" lat="60.2038138879" lon="9.39043610337">
		<tag k="name" v="Vesle Nørsteng" />
		<tag k="place" v="farm" />
		<tag k="ssr:stedsnr" v="455884" />
	</node>
	<node id="-180457" lat="60.2077027801" lon="9.31894443603">
		<tag k="alt_name" v="Storlisetra" />
		<tag k="name" v="Storliseter" />
		<tag k="place" v="locality" />
		<tag k="ssr:stedsnr" v="429461" />
	</node>
	<node id="-181642" lat="59.9043015016" lon="9.73174414174">
		<tag k="fixme" v="consider place=hamlet" />
		<tag k="name" v="Nævra" />
		<tag k="place" v="farm" />
		<tag k="ssr:stedsnr" v="732815" />
	</node>
	<node id="-180538" lat="60.110844444" lon="9.37798888007">
		<tag k="name" v="Holestykket" />
		<tag k="place" v="locality" />
		<tag k="ssr:stedsnr" v="455090" />
	</node>
	<node id="-180530" lat="60.1460249992" lon="9.41883056222">
		<tag k="name" v="Søre Lia" />
		<tag k="place" v="farm" />
		<tag k="ssr:stedsnr" v="455061" />
	</node>
	<node id="-180529" lat="60.2499138886" lon="9.2865944407">
		<tag k="name" v="Haugane" />
		<tag k="place" v="locality" />
		<tag k="ssr:stedsnr" v="454920" />
	</node>
	<node id="-180528" lat="60.2398722198" lon="9.25626110518">
		<tag k="name" v="Nedre Berget" />
		<tag k="place" v="farm" />
		<tag k="ssr:stedsnr" v="454902" />
	</node>
	<node id="-180520" lat="60.1933416712" lon="9.28193055185">
		<tag k="historic" v="shieling" />
		<tag k="name" v="Åsan langseter" />
		<tag k="place" v="locality" />
		<tag k="ssr:stedsnr" v="454674" />
	</node>
	<node id="-182321" lat="60.0005893337" lon="9.54288520204">
		<tag k="fixme" v="consider place=hamlet" />
		<tag k="name" v="Horgesetra" />
		<tag k="place" v="farm" />
		<tag k="ssr:stedsnr" v="915400" />
	</node>
	<node id="-181637" lat="59.9466194406" lon="9.69787222427">
		<tag k="historic" v="shieling" />
		<tag k="name" v="Grensetra" />
		<tag k="place" v="locality" />
		<tag k="ssr:stedsnr" v="732761" />
	</node>
	<node id="-181978" lat="60.1170527805" lon="9.38186389226">
		<tag k="name" v="Fisebu" />
		<tag k="place" v="locality" />
		<tag k="ssr:stedsnr" v="819090" />
	</node>
	<node id="-180503" lat="60.2080416706" lon="9.20587500836">
		<tag k="historic" v="shieling" />
		<tag k="name" v="Kampenhaug" />
		<tag k="place" v="locality" />
		<tag k="ssr:stedsnr" v="454007" />
	</node>
	<node id="-180500" lat="60.2509253644" lon="9.35189294904">
		<tag k="fixme" v="consider place=hamlet" />
		<tag k="name" v="Hovland" />
		<tag k="place" v="farm" />
		<tag k="ssr:stedsnr" v="431927" />
	</node>
	<node id="-180496" lat="60.2672444478" lon="9.37757222646">
		<tag k="historic" v="shieling" />
		<tag k="name" v="Jellesetra" />
		<tag k="place" v="locality" />
		<tag k="ssr:stedsnr" v="431118" />
	</node>
	<node id="-180495" lat="60.2724194488" lon="9.33372221758">
		<tag k="historic" v="shieling" />
		<tag k="name" v="Krossgardsetra" />
		<tag k="place" v="locality" />
		<tag k="ssr:stedsnr" v="431115" />
	</node>
	<node id="-180494" lat="60.2929527813" lon="9.2401972219">
		<tag k="name" v="Plassen" />
		<tag k="place" v="isolated_dwelling" />
		<tag k="ssr:stedsnr" v="431110" />
	</node>
	<node id="-181483" lat="60.1592969043" lon="9.23666189634">
		<tag k="historic" v="shieling" />
		<tag k="name" v="Snårseter" />
		<tag k="place" v="locality" />
		<tag k="ssr:stedsnr" v="697167" />
	</node>
	<node id="-180489" lat="60.3387111149" lon="9.32228056242">
		<tag k="fixme" v="consider tourism=alpine_hut or tourism=chalet" />
		<tag k="name" v="Toveseter" />
		<tag k="old_name" v="Tovesætra;Tovesetra" />
		<tag k="ssr:stedsnr" v="431014" />
		<tag k="tourism" v="wilderness_hut" />
	</node>
	<node id="-180486" lat="60.2493720668" lon="9.3650921086">
		<tag k="alt_name" v="Teige" />
		<tag k="name" v="Søre Nedre-Teige" />
		<tag k="place" v="farm" />
		<tag k="ssr:stedsnr" v="430305" />
	</node>
	<node id="-181633" lat="60.1237592706" lon="9.45501857622">
		<tag k="fixme" v="consider place=hamlet" />
		<tag k="name" v="Foss" />
		<tag k="place" v="farm" />
		<tag k="ssr:stedsnr" v="732392" />
	</node>
	<node id="-180484" lat="60.2371250029" lon="9.39663889522">
		<tag k="name" v="Bjertnes" />
		<tag k="place" v="farm" />
		<tag k="ssr:stedsnr" v="430296" />
	</node>
	<node id="-180482" lat="60.233977779" lon="9.40640833595">
		<tag k="name" v="Nyhus" />
		<tag k="place" v="farm" />
		<tag k="ssr:stedsnr" v="430243" />
	</node>
	<node id="-182529" lat="60.2617904926" lon="9.28091943695">
		<tag k="name" v="Nedre Klev" />
		<tag k="place" v="farm" />
		<tag k="ssr:stedsnr" v="981205" />
	</node>
	<node id="-182528" lat="60.1733320672" lon="9.39349285463">
		<tag k="name" v="Søre Grønhovd" />
		<tag k="old_name" v="Nedre Grønhovd" />
		<tag k="place" v="farm" />
		<tag k="ssr:stedsnr" v="980980" />
	</node>
	<node id="-182527" lat="60.0190100387" lon="9.74179771387">
		<tag k="fixme" v="consider place=hamlet" />
		<tag k="name" v="Hunstad" />
		<tag k="place" v="farm" />
		<tag k="ssr:stedsnr" v="978483" />
	</node>
	<node id="-182526" lat="60.1182811019" lon="9.46611325025">
		<tag k="name" v="Haga" />
		<tag k="place" v="hamlet" />
		<tag k="ssr:stedsnr" v="978481" />
	</node>
	<node id="-182525" lat="60.0420746197" lon="9.62627101472">
		<tag k="name" v="Fjordnes" />
		<tag k="place" v="farm" />
		<tag k="ssr:stedsnr" v="978480" />
	</node>
	<node id="-182524" lat="60.1032155486" lon="9.4679501116">
		<tag k="name" v="Narum" />
		<tag k="place" v="farm" />
		<tag k="ssr:stedsnr" v="978475" />
	</node>
	<node id="-182523" lat="60.0988509532" lon="9.45608465293">
		<tag k="name" v="Ulberg" />
		<tag k="place" v="hamlet" />
		<tag k="ssr:stedsnr" v="978479" />
	</node>
	<node id="-182522" lat="60.0811794893" lon="9.46986584556">
		<tag k="name" v="Båsum" />
		<tag k="place" v="hamlet" />
		<tag k="ssr:stedsnr" v="978474" />
	</node>
	<node id="-182520" lat="60.0363299272" lon="9.57986783663">
		<tag k="name" v="Berget" />
		<tag k="place" v="farm" />
		<tag k="ssr:stedsnr" v="975553" />
	</node>
	<node id="-182519" lat="60.0295633997" lon="9.67747453239">
		<tag k="name" v="Nordre Eikje" />
		<tag k="place" v="farm" />
		<tag k="ssr:stedsnr" v="975046" />
	</node>
	<node id="-182518" lat="59.980839485" lon="9.76267502828">
		<tag k="name" v="Kolsrud" />
		<tag k="place" v="farm" />
		<tag k="ssr:stedsnr" v="975045" />
	</node>
	<node id="-182517" lat="60.0909704623" lon="9.45336965332">
		<tag k="name" v="Søre Åsen" />
		<tag k="place" v="farm" />
		<tag k="ssr:stedsnr" v="975044" />
	</node>
	<node id="-182515" lat="60.0015011804" lon="9.75252474417">
		<tag k="fixme" v="consider place=hamlet" />
		<tag k="name" v="By" />
		<tag k="place" v="farm" />
		<tag k="ssr:stedsnr" v="974341" />
	</node>
	<node id="-182513" lat="60.0493694429" lon="9.68689723056">
		<tag k="alt_name" v="Reistad mellom" />
		<tag k="name" v="Reistad" />
		<tag k="place" v="farm" />
		<tag k="ssr:stedsnr" v="968318" />
	</node>
	<node id="-182511" lat="59.9744442423" lon="9.74459715961">
		<tag k="name" v="Gren" />
		<tag k="place" v="hamlet" />
		<tag k="ssr:stedsnr" v="952508" />
	</node>
	<node id="-181629" lat="60.2185777774" lon="9.36171110273">
		<tag k="name" v="Flatin" />
		<tag k="place" v="farm" />
		<tag k="ssr:stedsnr" v="732287" />
	</node>
	<node id="-180460" lat="60.2206206628" lon="9.35614504428">
		<tag k="fixme" v="consider place=hamlet" />
		<tag k="name" v="Juvet" />
		<tag k="place" v="farm" />
		<tag k="ssr:stedsnr" v="429252" />
	</node>
	<node id="-182506" lat="60.0896416653" lon="9.63476111775">
		<tag k="name" v="Seterstykket" />
		<tag k="place" v="locality" />
		<tag k="ssr:stedsnr" v="943866" />
	</node>
	<node id="-182505" lat="60.0083083355" lon="9.74657499992">
		<tag k="name" v="Nedre Haugen" />
		<tag k="place" v="isolated_dwelling" />
		<tag k="ssr:stedsnr" v="943752" />
	</node>
	<node id="-180455" lat="60.1738694474" lon="9.25425000659">
		<tag k="name" v="Kattenbergsetra" />
		<tag k="place" v="locality" />
		<tag k="ssr:stedsnr" v="429442" />
	</node>
	<node id="-180453" lat="60.1736416668" lon="9.37233333211">
		<tag k="name" v="Grønlund" />
		<tag k="place" v="farm" />
		<tag k="ssr:stedsnr" v="429428" />
	</node>
	<node id="-182500" lat="59.9841722195" lon="9.7443111054">
		<tag k="name" v="Øvre Anfinnrud" />
		<tag k="place" v="farm" />
		<tag k="ssr:stedsnr" v="943573" />
	</node>
	<node id="-180450" lat="60.1349444478" lon="9.45261667428">
		<tag k="name" v="Steinsvad" />
		<tag k="place" v="farm" />
		<tag k="ssr:stedsnr" v="429418" />
	</node>
	<node id="-180449" lat="60.144413889" lon="9.51725555615">
		<tag k="alt_name" v="Narumsetra" />
		<tag k="historic" v="shieling" />
		<tag k="name" v="Narumseter" />
		<tag k="place" v="locality" />
		<tag k="ssr:stedsnr" v="429415" />
	</node>
	<node id="-180446" lat="60.1435500031" lon="9.30468333675">
		<tag k="alt_name" v="Sautjennsetra" />
		<tag k="historic" v="shieling" />
		<tag k="name" v="Sauetjennsetra" />
		<tag k="place" v="locality" />
		<tag k="ssr:stedsnr" v="429406" />
	</node>
	<node id="-182491" lat="60.0815861121" lon="9.59677221803">
		<tag k="name" v="Storekleivhytta" />
		<tag k="place" v="isolated_dwelling" />
		<tag k="ssr:stedsnr" v="943398" />
	</node>
	<node id="-180442" lat="60.020572219" lon="9.51247777851">
		<tag k="fixme" v="multiple name tags, choose one and add the other to alt_name" />
		<tag k="historic" v="shieling" />
		<tag k="name" v="Høgeli;Høglisetra" />
		<tag k="place" v="locality" />
		<tag k="ssr:stedsnr" v="429030" />
	</node>
	<node id="-180943" lat="60.1926777755" lon="9.47108611948">
		<tag k="name" v="Solehytta" />
		<tag k="place" v="isolated_dwelling" />
		<tag k="ssr:stedsnr" v="550481" />
	</node>
	<node id="-180440" lat="60.0161305516" lon="9.56139721817">
		<tag k="name" v="Øvre Lia" />
		<tag k="place" v="farm" />
		<tag k="ssr:stedsnr" v="429017" />
	</node>
	<node id="-182487" lat="60.0095638866" lon="9.56189444617">
		<tag k="name" v="Liabråtan" />
		<tag k="place" v="locality" />
		<tag k="ssr:stedsnr" v="943327" />
	</node>
	<node id="-180438" lat="60.0146839986" lon="9.5455790484">
		<tag k="fixme" v="consider place=hamlet" />
		<tag k="name" v="Rolsrud" />
		<tag k="place" v="farm" />
		<tag k="ssr:stedsnr" v="429015" />
	</node>
	<node id="-180437" lat="59.9613010997" lon="9.63491437445">
		<tag k="fixme" v="consider place=hamlet" />
		<tag k="name" v="Barhaugen" />
		<tag k="place" v="farm" />
		<tag k="ssr:stedsnr" v="428790" />
	</node>
	<node id="-180436" lat="59.962778958" lon="9.60510296636">
		<tag k="name" v="Vatnåsbråtan" />
		<tag k="place" v="farm" />
		<tag k="ssr:stedsnr" v="428788" />
	</node>
	<node id="-180942" lat="60.1840138928" lon="9.39060555668">
		<tag k="name" v="Bakkanbråtan" />
		<tag k="place" v="farm" />
		<tag k="ssr:stedsnr" v="550477" />
	</node>
	<node id="-180434" lat="59.9662758998" lon="9.81815728365">
		<tag k="alt_name" v="Nordre Øverby" />
		<tag k="name" v="Øverby" />
		<tag k="place" v="hamlet" />
		<tag k="ssr:stedsnr" v="428773" />
	</node>
	<node id="-182481" lat="60.0287083296" lon="9.5246388832">
		<tag k="name" v="Tverråstua" />
		<tag k="place" v="isolated_dwelling" />
		<tag k="ssr:stedsnr" v="943238" />
	</node>
	<node id="-182478" lat="60.063566663" lon="9.49247221735">
		<tag k="name" v="Treet" />
		<tag k="place" v="isolated_dwelling" />
		<tag k="ssr:stedsnr" v="943222" />
	</node>
	<node id="-180429" lat="60.2346555527" lon="9.45854165879">
		<tag k="historic" v="shieling" />
		<tag k="name" v="Lislevassetra" />
		<tag k="place" v="locality" />
		<tag k="ssr:stedsnr" v="429239" />
	</node>
	<node id="-180428" lat="59.9546204347" lon="9.70243386223">
		<tag k="fixme" v="consider place=hamlet" />
		<tag k="name" v="Grensetra" />
		<tag k="place" v="farm" />
		<tag k="ssr:stedsnr" v="265579" />
	</node>
	<node id="-180424" lat="60.2651611156" lon="9.21814444961">
		<tag k="historic" v="shieling" />
		<tag k="name" v="Rønningsetra" />
		<tag k="place" v="locality" />
		<tag k="ssr:stedsnr" v="264203" />
	</node>
	<node id="-182471" lat="60.0211444466" lon="9.4540777696">
		<tag k="historic" v="shieling" />
		<tag k="name" v="Veggesrudsetra" />
		<tag k="place" v="locality" />
		<tag k="ssr:stedsnr" v="943093" />
	</node>
	<node id="-180419" lat="60.2648083369" lon="9.21666667556">
		<tag k="historic" v="shieling" />
		<tag k="name" v="Bølesetra" />
		<tag k="place" v="locality" />
		<tag k="ssr:stedsnr" v="249284" />
	</node>
	<node id="-180417" lat="60.2569583301" lon="9.29782499742">
		<tag k="name" v="Skareløkka" />
		<tag k="place" v="farm" />
		<tag k="ssr:stedsnr" v="249105" />
	</node>
	<node id="-182464" lat="60.0254027783" lon="9.69127500669">
		<tag k="name" v="Elverud" />
		<tag k="place" v="farm" />
		<tag k="ssr:stedsnr" v="942869" />
	</node>
	<node id="-180256" lat="60.1228500026" lon="9.53023611713">
		<tag k="historic" v="shieling" />
		<tag k="name" v="Evjusetra" />
		<tag k="place" v="locality" />
		<tag k="ssr:stedsnr" v="213522" />
	</node>
	<node id="-180414" lat="60.2989749971" lon="9.23298610995">
		<tag k="historic" v="shieling" />
		<tag k="name" v="Rotvassbråtan" />
		<tag k="place" v="locality" />
		<tag k="ssr:stedsnr" v="249084" />
	</node>
	<node id="-182461" lat="60.0409722204" lon="9.62290277486">
		<tag k="leisure" v="pitch" />
		<tag k="name" v="Slettebakken" />
		<tag k="ssr:stedsnr" v="942681" />
	</node>
	<node id="-182460" lat="60.035316812" lon="9.59468283638">
		<tag k="name" v="Køssa" />
		<tag k="place" v="farm" />
		<tag k="ssr:stedsnr" v="942677" />
	</node>
	<node id="-180411" lat="60.0420663055" lon="9.56685743462">
		<tag k="fixme" v="consider place=hamlet" />
		<tag k="name" v="Nubberud" />
		<tag k="place" v="farm" />
		<tag k="ssr:stedsnr" v="248056" />
	</node>
	<node id="-180409" lat="60.0007888876" lon="9.7303000003">
		<tag k="name" v="Søre Tovsrud" />
		<tag k="place" v="farm" />
		<tag k="ssr:stedsnr" v="247978" />
	</node>
	<node id="-181937" lat="60.2491864986" lon="9.34129572003">
		<tag k="fixme" v="consider place=hamlet" />
		<tag k="name" v="Pletan" />
		<tag k="place" v="farm" />
		<tag k="ssr:stedsnr" v="794285" />
	</node>
	<node id="-182455" lat="60.0360222246" lon="9.67545833265">
		<tag k="name" v="Sundbakken" />
		<tag k="place" v="isolated_dwelling" />
		<tag k="ssr:stedsnr" v="942597" />
	</node>
	<node id="-182454" lat="59.9487138854" lon="9.69666389059">
		<tag k="historic" v="shieling" />
		<tag k="name" v="Åbysetra" />
		<tag k="place" v="locality" />
		<tag k="ssr:stedsnr" v="942557" />
	</node>
	<node id="-182453" lat="59.9661694472" lon="9.77424166897">
		<tag k="name" v="Fagerstad" />
		<tag k="place" v="isolated_dwelling" />
		<tag k="ssr:stedsnr" v="942444" />
	</node>
	<node id="-180404" lat="60.031789507" lon="9.65852543721">
		<tag k="fixme" v="consider place=hamlet" />
		<tag k="name" v="Ovestad" />
		<tag k="place" v="farm" />
		<tag k="ssr:stedsnr" v="247939" />
	</node>
	<node id="-181278" lat="60.1244055553" lon="9.44791111196">
		<tag k="name" v="Nordre Tveiten" />
		<tag k="place" v="farm" />
		<tag k="ssr:stedsnr" v="637457" />
	</node>
	<node id="-182450" lat="59.9754138873" lon="9.75064166069">
		<tag k="name" v="Noss" />
		<tag k="place" v="isolated_dwelling" />
		<tag k="ssr:stedsnr" v="942384" />
	</node>
	<node id="-180400" lat="60.044233337" lon="9.60938888746">
		<tag k="alt_name" v="Sund" />
		<tag k="name" v="Søre Sund" />
		<tag k="place" v="farm" />
		<tag k="ssr:stedsnr" v="247918" />
	</node>
	<node id="-180398" lat="60.0713111145" lon="9.73648611697">
		<tag k="fixme" v="multiple name tags, choose one and add the other to alt_name" />
		<tag k="historic" v="shieling" />
		<tag k="name" v="Hoffarsetrane;Hoffarsetra" />
		<tag k="place" v="locality" />
		<tag k="ssr:stedsnr" v="247877" />
	</node>
	<node id="-180395" lat="59.9225583348" lon="9.69334166698">
		<tag k="alt_name" v="Østre Ingebu;Øvre Ingebu" />
		<tag k="name" v="Øst-Ingebu" />
		<tag k="place" v="farm" />
		<tag k="ssr:stedsnr" v="247839" />
	</node>
	<node id="-180392" lat="60.19832222" lon="9.23987500498">
		<tag k="alt_name" v="Frøvollsetra" />
		<tag k="historic" v="shieling" />
		<tag k="name" v="Frøvollseter" />
		<tag k="place" v="locality" />
		<tag k="ssr:stedsnr" v="247455" />
	</node>
	<node id="-180389" lat="60.1666555541" lon="9.46319166805">
		<tag k="name" v="Åmotsetra" />
		<tag k="place" v="isolated_dwelling" />
		<tag k="ssr:stedsnr" v="247431" />
	</node>
	<node id="-180388" lat="60.1725611154" lon="9.39319444645">
		<tag k="name" v="Grønhovdsroa" />
		<tag k="place" v="hamlet" />
		<tag k="ssr:stedsnr" v="247427" />
	</node>
	<node id="-180387" lat="60.1696416702" lon="9.23664722841">
		<tag k="historic" v="shieling" />
		<tag k="name" v="Sølandsetra" />
		<tag k="place" v="locality" />
		<tag k="ssr:stedsnr" v="247421" />
	</node>
	<node id="-180383" lat="60.1156305554" lon="9.30046945335">
		<tag k="name" v="Kvernhus" />
		<tag k="place" v="isolated_dwelling" />
		<tag k="ssr:stedsnr" v="247370" />
	</node>
	<node id="-180933" lat="60.0979138899" lon="9.51664722526">
		<tag k="name" v="Strøm" />
		<tag k="place" v="farm" />
		<tag k="ssr:stedsnr" v="550128" />
	</node>
	<node id="-180380" lat="60.0950213085" lon="9.47359544269">
		<tag k="alt_name" v="Søre Albjørk" />
		<tag k="name" v="Albjørk" />
		<tag k="place" v="hamlet" />
		<tag k="ssr:stedsnr" v="247113" />
	</node>
	<node id="-182427" lat="60.2318194448" lon="9.49111111168">
		<tag k="name" v="Sameiga" />
		<tag k="place" v="locality" />
		<tag k="ssr:stedsnr" v="941526" />
	</node>
	<node id="-180377" lat="60.0848888879" lon="9.48926388163">
		<tag k="name" v="Evju" />
		<tag k="old_name" v="Vestre Blekaberg" />
		<tag k="place" v="farm" />
		<tag k="ssr:stedsnr" v="247087" />
	</node>
	<node id="-182424" lat="60.2296638929" lon="9.48862222961">
		<tag k="historic" v="shieling" />
		<tag k="name" v="Kopsengseter" />
		<tag k="place" v="locality" />
		<tag k="ssr:stedsnr" v="941525" />
	</node>
	<node id="-181201" lat="60.0519555531" lon="9.67411111484">
		<tag k="name" v="Kolstad" />
		<tag k="place" v="farm" />
		<tag k="ssr:stedsnr" v="611908" />
	</node>
	<node id="-180374" lat="59.9733694418" lon="9.72269166012">
		<tag k="name" v="Bråtalia" />
		<tag k="place" v="farm" />
		<tag k="ssr:stedsnr" v="246776" />
	</node>
	<node id="-180373" lat="59.984638892" lon="9.58983610735">
		<tag k="name" v="Kvernnes" />
		<tag k="place" v="farm" />
		<tag k="ssr:stedsnr" v="246338" />
	</node>
	<node id="-180370" lat="60.2633255219" lon="9.28018194186">
		<tag k="name" v="Kleiv" />
		<tag k="place" v="hamlet" />
		<tag k="ssr:stedsnr" v="240155" />
	</node>
	<node id="-182428" lat="60.1596972195" lon="9.47928056426">
		<tag k="name" v="Svarteputthytta" />
		<tag k="place" v="isolated_dwelling" />
		<tag k="ssr:stedsnr" v="941622" />
	</node>
	<node id="-182404" lat="60.2192777755" lon="9.37757222375">
		<tag k="name" v="Tjennrønningen" />
		<tag k="place" v="isolated_dwelling" />
		<tag k="ssr:stedsnr" v="940874" />
	</node>
	<node id="-180353" lat="60.0005638872" lon="9.46608611051">
		<tag k="name" v="Nedre Stugua" />
		<tag k="place" v="isolated_dwelling" />
		<tag k="ssr:stedsnr" v="215096" />
	</node>
	<node id="-182400" lat="60.2408638903" lon="9.24733056283">
		<tag k="name" v="Fram-Bøle" />
		<tag k="place" v="farm" />
		<tag k="ssr:stedsnr" v="940844" />
	</node>
	<node id="-181673" lat="60.17220556" lon="9.36642499547">
		<tag k="name" v="Gravningen" />
		<tag k="place" v="farm" />
		<tag k="ssr:stedsnr" v="733423" />
	</node>
	<node id="-181269" lat="60.1335694479" lon="9.43429443909">
		<tag k="name" v="Nedre Enger" />
		<tag k="place" v="farm" />
		<tag k="ssr:stedsnr" v="637337" />
	</node>
	<node id="-181182" lat="60.1480111151" lon="9.43066389708">
		<tag k="building" v="industrial" />
		<tag k="industrial" v="factory" />
		<tag k="name" v="Solemoa" />
		<tag k="ssr:stedsnr" v="611424" />
	</node>
	<node id="-182394" lat="60.1791361085" lon="9.40361389145">
		<tag k="name" v="Bakken" />
		<tag k="place" v="isolated_dwelling" />
		<tag k="ssr:stedsnr" v="940718" />
	</node>
	<node id="-181951" lat="60.2539000025" lon="9.29828055393">
		<tag k="name" v="Nerum" />
		<tag k="place" v="farm" />
		<tag k="ssr:stedsnr" v="795910" />
	</node>
	<node id="-182381" lat="60.2727944459" lon="9.38464443942">
		<tag k="historic" v="shieling" />
		<tag k="name" v="Sø-Teigeseter" />
		<tag k="place" v="locality" />
		<tag k="ssr:stedsnr" v="940386" />
	</node>
	<node id="-180331" lat="60.051158336" lon="9.68470833725">
		<tag k="alt_name" v="Nordre Reistad" />
		<tag k="name" v="Nord-Reistad" />
		<tag k="place" v="farm" />
		<tag k="ssr:stedsnr" v="214828" />
	</node>
	<node id="-180327" lat="60.0382527775" lon="9.61743054987">
		<tag k="name" v="Øvre Øverby" />
		<tag k="place" v="farm" />
		<tag k="ssr:stedsnr" v="214705" />
	</node>
	<node id="-182374" lat="60.2501416709" lon="9.38663056109">
		<tag k="historic" v="shieling" />
		<tag k="name" v="Øvre Bråtan" />
		<tag k="place" v="locality" />
		<tag k="ssr:stedsnr" v="940143" />
	</node>
	<node id="-182373" lat="60.168169446" lon="9.22606945176">
		<tag k="historic" v="shieling" />
		<tag k="name" v="Storvassetra" />
		<tag k="place" v="locality" />
		<tag k="ssr:stedsnr" v="940141" />
	</node>
	<node id="-180321" lat="60.041838891" lon="9.63109167156">
		<tag k="name" v="Nedre Kringstad" />
		<tag k="place" v="farm" />
		<tag k="ssr:stedsnr" v="214620" />
	</node>
	<node id="-182368" lat="60.2473972257" lon="9.32086944287">
		<tag k="name" v="Kvenna" />
		<tag k="place" v="locality" />
		<tag k="ssr:stedsnr" v="940112" />
	</node>
	<node id="-182361" lat="60.2494111105" lon="9.29439999807">
		<tag k="name" v="Flata" />
		<tag k="place" v="locality" />
		<tag k="ssr:stedsnr" v="939931" />
	</node>
	<node id="-179153" lat="60.2327472212" lon="9.39940278002">
		<tag k="name" v="Nedre Ellevsrud" />
		<tag k="place" v="farm" />
		<tag k="ssr:stedsnr" v="394876" />
	</node>
	<node id="-181949" lat="60.255499997" lon="9.32359444823">
		<tag k="name" v="Søre Skalland" />
		<tag k="place" v="farm" />
		<tag k="ssr:stedsnr" v="795144" />
	</node>
	<node id="-182357" lat="60.0039666685" lon="9.74578888235">
		<tag k="name" v="Søre nedre Skatvet" />
		<tag k="place" v="farm" />
		<tag k="ssr:stedsnr" v="933397" />
	</node>
	<node id="-182355" lat="59.9573638884" lon="9.83108889202">
		<tag k="name" v="Nedre Bjørndalen" />
		<tag k="place" v="farm" />
		<tag k="ssr:stedsnr" v="933181" />
	</node>
	<node id="-182353" lat="59.9749166711" lon="9.57901111811">
		<tag k="name" v="Vestre Lauvnes" />
		<tag k="place" v="farm" />
		<tag k="ssr:stedsnr" v="932326" />
	</node>
	<node id="-182352" lat="60.1259583365" lon="9.37570832729">
		<tag k="name" v="Ålia" />
		<tag k="place" v="isolated_dwelling" />
		<tag k="ssr:stedsnr" v="932172" />
	</node>
	<node id="-180302" lat="60.0536138887" lon="9.63199722113">
		<tag k="name" v="Ramstad" />
		<tag k="place" v="farm" />
		<tag k="ssr:stedsnr" v="214506" />
	</node>
	<node id="-179213" lat="60.0718111121" lon="9.5101694445">
		<tag k="name" v="Bråtan" />
		<tag k="place" v="locality" />
		<tag k="ssr:stedsnr" v="396543" />
	</node>
	<node id="-182348" lat="60.2692666667" lon="9.26354444311">
		<tag k="alt_name" v="Bråtan" />
		<tag k="name" v="Søre Bråtan" />
		<tag k="place" v="farm" />
		<tag k="ssr:stedsnr" v="917103" />
	</node>
	<node id="-182347" lat="60.2900222266" lon="9.19768611763">
		<tag k="alt_name" v="Sollilangsetra" />
		<tag k="name" v="Solli langseter" />
		<tag k="place" v="isolated_dwelling" />
		<tag k="ssr:stedsnr" v="916487" />
	</node>
	<node id="-182345" lat="60.3408555595" lon="9.19256943651">
		<tag k="alt_name" v="Ruglandsetra" />
		<tag k="name" v="Rugland seter" />
		<tag k="place" v="isolated_dwelling" />
		<tag k="ssr:stedsnr" v="916442" />
	</node>
	<node id="-182343" lat="60.2827222251" lon="9.25363610636">
		<tag k="name" v="Baklimoen" />
		<tag k="place" v="locality" />
		<tag k="ssr:stedsnr" v="916080" />
	</node>
	<node id="-182339" lat="60.0085694429" lon="9.73136944802">
		<tag k="name" v="Flattum" />
		<tag k="place" v="farm" />
		<tag k="ssr:stedsnr" v="915980" />
	</node>
	<node id="-182338" lat="60.0098222199" lon="9.7942916662">
		<tag k="alt_name" v="Sørby" />
		<tag k="historic" v="shieling" />
		<tag k="name" v="Sørby-Fillebakkane" />
		<tag k="place" v="locality" />
		<tag k="ssr:stedsnr" v="915974" />
	</node>
	<node id="-182337" lat="60.0240388855" lon="9.6615750058">
		<tag k="name" v="Stensrud" />
		<tag k="old_name" v="Reirsbråtan;Reiarsbråtan" />
		<tag k="place" v="farm" />
		<tag k="ssr:stedsnr" v="915952" />
	</node>
	<node id="-180288" lat="59.9726555541" lon="9.76501110333">
		<tag k="name" v="Mellom-Bergan" />
		<tag k="place" v="farm" />
		<tag k="ssr:stedsnr" v="214396" />
	</node>
	<node id="-182335" lat="60.0225722193" lon="9.69191944369">
		<tag k="name" v="Nordre Langerud" />
		<tag k="place" v="farm" />
		<tag k="ssr:stedsnr" v="915946" />
	</node>
	<node id="-182334" lat="60.0207500017" lon="9.74019444523">
		<tag k="name" v="Haug" />
		<tag k="place" v="farm" />
		<tag k="ssr:stedsnr" v="915942" />
	</node>
	<node id="-182333" lat="60.0318230473" lon="9.66577376714">
		<tag k="fixme" v="consider place=hamlet" />
		<tag k="name" v="Trøseng" />
		<tag k="place" v="farm" />
		<tag k="ssr:stedsnr" v="915933" />
	</node>
	<node id="-180283" lat="60.0583194469" lon="9.56257223102">
		<tag k="name" v="Kotrud" />
		<tag k="place" v="isolated_dwelling" />
		<tag k="ssr:stedsnr" v="214327" />
	</node>
	<node id="-180280" lat="60.0133194476" lon="9.73938054891">
		<tag k="name" v="Nordheim" />
		<tag k="place" v="farm" />
		<tag k="ssr:stedsnr" v="214222" />
	</node>
	<node id="-182325" lat="60.172609023" lon="9.38890135799">
		<tag k="alt_name" v="Øvre Grønhovd" />
		<tag k="name" v="Grønhovd" />
		<tag k="place" v="hamlet" />
		<tag k="ssr:stedsnr" v="915433" />
	</node>
	<node id="-182324" lat="60.1647361101" lon="9.37598333891">
		<tag k="name" v="Maribråtan" />
		<tag k="place" v="farm" />
		<tag k="ssr:stedsnr" v="915434" />
	</node>
	<node id="-182322" lat="60.0457499978" lon="9.59758055591">
		<tag k="name" v="Søre Mjøseng" />
		<tag k="place" v="farm" />
		<tag k="ssr:stedsnr" v="915409" />
	</node>
	<node id="-180993" lat="59.9851750032" lon="9.59431666427">
		<tag k="name" v="Øvre Emmerud" />
		<tag k="place" v="farm" />
		<tag k="ssr:stedsnr" v="568543" />
	</node>
	<node id="-182318" lat="60.2354916626" lon="9.34491944067">
		<tag k="name" v="Vik" />
		<tag k="place" v="farm" />
		<tag k="ssr:stedsnr" v="915251" />
	</node>
	<node id="-182311" lat="60.2452972182" lon="9.21291666838">
		<tag k="historic" v="shieling" />
		<tag k="name" v="Bølesheimsetra" />
		<tag k="place" v="locality" />
		<tag k="ssr:stedsnr" v="914989" />
	</node>
	<node id="-182310" lat="59.9978972232" lon="9.60073055002">
		<tag k="historic" v="shieling" />
		<tag k="name" v="Rolstadsetra" />
		<tag k="place" v="locality" />
		<tag k="ssr:stedsnr" v="914973" />
	</node>
	<node id="-180261" lat="60.1008638874" lon="9.41328610418">
		<tag k="historic" v="shieling" />
		<tag k="name" v="Amundrudseter" />
		<tag k="place" v="locality" />
		<tag k="ssr:stedsnr" v="213913" />
	</node>
	<node id="-182308" lat="59.9885700727" lon="9.76916706216">
		<tag k="fixme" v="consider place=hamlet" />
		<tag k="name" v="Dalen" />
		<tag k="place" v="farm" />
		<tag k="ssr:stedsnr" v="914955" />
	</node>
	<node id="-182307" lat="60.0448914933" lon="9.65265161557">
		<tag k="fixme" v="consider place=hamlet" />
		<tag k="name" v="Skartum" />
		<tag k="place" v="farm" />
		<tag k="ssr:stedsnr" v="914921" />
	</node>
	<node id="-182304" lat="59.9796295429" lon="9.76048950342">
		<tag k="fixme" v="consider place=hamlet" />
		<tag k="name" v="Kolsrud" />
		<tag k="place" v="farm" />
		<tag k="ssr:stedsnr" v="914805" />
	</node>
	<node id="-181936" lat="60.0837611121" lon="9.52825277359">
		<tag k="name" v="Eidalshagan" />
		<tag k="place" v="farm" />
		<tag k="ssr:stedsnr" v="794105" />
	</node>
	<node id="-182302" lat="59.9547472239" lon="9.69990278422">
		<tag k="historic" v="shieling" />
		<tag k="name" v="Nordre Setra" />
		<tag k="place" v="locality" />
		<tag k="ssr:stedsnr" v="914781" />
	</node>
	<node id="-182301" lat="59.9549412429" lon="9.80854295044">
		<tag k="alt_name" v="Nordre Nes" />
		<tag k="name" v="Nes" />
		<tag k="place" v="hamlet" />
		<tag k="ssr:stedsnr" v="914762" />
	</node>
	<node id="-180251" lat="60.1223972233" lon="9.4485666709">
		<tag k="name" v="Søre Tveiten" />
		<tag k="place" v="farm" />
		<tag k="ssr:stedsnr" v="213459" />
	</node>
	<node id="-182297" lat="60.0005083319" lon="9.54168611048">
		<tag k="name" v="Horgesetra" />
		<tag k="place" v="farm" />
		<tag k="ssr:stedsnr" v="914273" />
	</node>
	<node id="-180248" lat="60.121399998" lon="9.45763611459">
		<tag k="name" v="Bjørnhaug" />
		<tag k="place" v="isolated_dwelling" />
		<tag k="ssr:stedsnr" v="213409" />
	</node>
	<node id="-182294" lat="60.0985305589" lon="9.52160000202">
		<tag k="name" v="Lia" />
		<tag k="place" v="farm" />
		<tag k="ssr:stedsnr" v="915113" />
	</node>
	<node id="-181333" lat="60.0271000041" lon="9.62040277796">
		<tag k="name" v="Hovden" />
		<tag k="place" v="isolated_dwelling" />
		<tag k="ssr:stedsnr" v="638715" />
	</node>
	<node id="-180310" lat="59.9016083304" lon="9.73221111459">
		<tag k="name" v="Løkka" />
		<tag k="place" v="isolated_dwelling" />
		<tag k="ssr:stedsnr" v="214552" />
	</node>
	<node id="-180239" lat="60.1506194452" lon="9.47496944007">
		<tag k="name" v="Fosshytta" />
		<tag k="place" v="isolated_dwelling" />
		<tag k="ssr:stedsnr" v="213267" />
	</node>
	<node id="-181933" lat="60.0672999961" lon="9.47971944525">
		<tag k="alt_name" v="Strand" />
		<tag k="name" v="Nordre Strand" />
		<tag k="place" v="farm" />
		<tag k="ssr:stedsnr" v="794077" />
	</node>
	<node id="-182282" lat="60.1717555569" lon="9.39095554985">
		<tag k="name" v="Mellom-Grønhovd" />
		<tag k="place" v="farm" />
		<tag k="ssr:stedsnr" v="880897" />
	</node>
	<node id="-182281" lat="60.2047777762" lon="9.37434167512">
		<tag k="name" v="Skårshagan" />
		<tag k="place" v="locality" />
		<tag k="ssr:stedsnr" v="880892" />
	</node>
	<node id="-182280" lat="60.2054944424" lon="9.3819916745">
		<tag k="name" v="Bråtan" />
		<tag k="place" v="isolated_dwelling" />
		<tag k="ssr:stedsnr" v="880890" />
	</node>
	<node id="-180226" lat="60.2340055578" lon="9.39792500654">
		<tag k="name" v="Myrvoll" />
		<tag k="place" v="isolated_dwelling" />
		<tag k="ssr:stedsnr" v="212861" />
	</node>
</osm>
