<?xml version="1.0" encoding="UTF-8"?>
<osm generator="osmapis" version="0.6">
	<node id="-180218" lat="60.2130222225" lon="9.17733333276">
		<tag k="alt_name" v="Øgnesprangtjenna" />
		<tag k="name" v="Øgnesprangtjennet" />
		<tag k="natural" v="water" />
		<tag k="ssr:stedsnr" v="247907" />
	</node>
	<node id="-180216" lat="60.067883332" lon="9.62705278239">
		<tag k="fixme" v="multiple name tags, choose one and add the other to alt_name" />
		<tag k="name" v="Nedre Vikstjenn;Vikstjenna" />
		<tag k="natural" v="water" />
		<tag k="ssr:stedsnr" v="247871" />
	</node>
	<node id="-180215" lat="59.9310611112" lon="9.6676666755">
		<tag k="name" v="Bølltjenn" />
		<tag k="natural" v="water" />
		<tag k="ssr:stedsnr" v="247856" />
	</node>
	<node id="-182261" lat="60.0938305584" lon="9.63331112006">
		<tag k="name" v="Seterbekken" />
		<tag k="ssr:stedsnr" v="943864" />
		<tag k="waterway" v="stream" />
	</node>
	<node id="-180212" lat="60.1918083304" lon="9.47376111894">
		<tag k="alt_name" v="Hyttebekken" />
		<tag k="name" v="Hyttebekk" />
		<tag k="ssr:stedsnr" v="247468" />
		<tag k="waterway" v="stream" />
	</node>
	<node id="-180210" lat="60.2029055539" lon="9.26363888272">
		<tag k="name" v="Skriutjenn" />
		<tag k="natural" v="water" />
		<tag k="ssr:stedsnr" v="247452" />
	</node>
	<node id="-180209" lat="60.2151111115" lon="9.37895833743">
		<tag k="name" v="Tovstjenn" />
		<tag k="natural" v="water" />
		<tag k="ssr:stedsnr" v="247447" />
	</node>
	<node id="-182256" lat="60.0124777738" lon="9.683411107">
		<tag k="name" v="Haukåsvingen" />
		<tag k="place" v="locality" />
		<tag k="ssr:stedsnr" v="942126" />
	</node>
	<node id="-180205" lat="60.1827333296" lon="9.22414165964">
		<tag k="alt_name" v="Langelitjenn" />
		<tag k="name" v="Langlitjenn" />
		<tag k="natural" v="water" />
		<tag k="ssr:stedsnr" v="247418" />
	</node>
	<node id="-182252" lat="60.0726555591" lon="9.3734333362">
		<tag k="name" v="Størrtjennet" />
		<tag k="natural" v="water" />
		<tag k="ssr:stedsnr" v="941917" />
	</node>
	<node id="-180203" lat="60.1133111114" lon="9.30580277705">
		<tag k="name" v="Kvernhusvatnet" />
		<tag k="natural" v="water" />
		<tag k="ssr:stedsnr" v="247373" />
	</node>
	<node id="-182250" lat="60.0968611085" lon="9.41893332449">
		<tag k="name" v="Kolletjenn" />
		<tag k="natural" v="water" />
		<tag k="ssr:stedsnr" v="941896" />
	</node>
	<node id="-180201" lat="60.2136583324" lon="9.22417500091">
		<tag k="name" v="Stornattjenn" />
		<tag k="natural" v="water" />
		<tag k="ssr:stedsnr" v="247251" />
	</node>
	<node id="-180198" lat="60.0992833372" lon="9.375486105">
		<tag k="name" v="Grøsetbekken" />
		<tag k="ssr:stedsnr" v="247109" />
		<tag k="waterway" v="stream" />
	</node>
	<node id="-182244" lat="60.0857055583" lon="9.60718055895">
		<tag k="name" v="Seterbekken" />
		<tag k="ssr:stedsnr" v="943417" />
		<tag k="waterway" v="stream" />
	</node>
	<node id="-180191" lat="59.9892277742" lon="9.51633055898">
		<tag k="name" v="Brennøya" />
		<tag k="place" v="island" />
		<tag k="ssr:stedsnr" v="246297" />
	</node>
	<node id="-180190" lat="59.9911194468" lon="9.48891944029">
		<tag k="name" v="Gørrtjenn" />
		<tag k="natural" v="water" />
		<tag k="ssr:stedsnr" v="246295" />
	</node>
	<node id="-182237" lat="60.1275722221" lon="9.43448334192">
		<tag k="name" v="Svartelibekken" />
		<tag k="ssr:stedsnr" v="941397" />
		<tag k="waterway" v="stream" />
	</node>
	<node id="-180186" lat="60.1027583318" lon="9.57551944793">
		<tag k="name" v="Ulebrubekken" />
		<tag k="ssr:stedsnr" v="215902" />
		<tag k="waterway" v="stream" />
	</node>
	<node id="-182233" lat="60.1500305547" lon="9.4446305515">
		<tag k="name" v="Storevjua" />
		<tag k="natural" v="water" />
		<tag k="ssr:stedsnr" v="941192" />
		<tag k="water" v="lake" />
	</node>
	<node id="-182230" lat="60.1171583291" lon="9.37488888513">
		<tag k="name" v="Glitra" />
		<tag k="ssr:stedsnr" v="941062" />
		<tag k="waterway" v="stream" />
	</node>
	<node id="-180180" lat="60.0662500019" lon="9.63253054856">
		<tag k="name" v="Knutekulpen" />
		<tag k="natural" v="water" />
		<tag k="ssr:stedsnr" v="215479" />
		<tag k="water" v="pond" />
	</node>
	<node id="-180176" lat="60.0260888878" lon="9.51798333593">
		<tag k="name" v="Bukkebekk" />
		<tag k="ssr:stedsnr" v="215250" />
		<tag k="waterway" v="stream" />
	</node>
	<node id="-182264" lat="60.012586115" lon="9.63331110235">
		<tag k="name" v="Sjutjennsputtane" />
		<tag k="natural" v="water" />
		<tag k="ssr:stedsnr" v="942212" />
		<tag k="water" v="pond" />
	</node>
	<node id="-182221" lat="60.216669443" lon="9.35645833245">
		<tag k="name" v="Flatinbekken" />
		<tag k="ssr:stedsnr" v="940850" />
		<tag k="waterway" v="stream" />
	</node>
	<node id="-180171" lat="60.016863885" lon="9.43017778197">
		<tag k="name" v="Bågåtjenn" />
		<tag k="natural" v="water" />
		<tag k="ssr:stedsnr" v="215085" />
	</node>
	<node id="-180170" lat="59.9896249971" lon="9.51935832522">
		<tag k="name" v="Ormeodden" />
		<tag k="natural" v="cape" />
		<tag k="ssr:stedsnr" v="215078" />
	</node>
	<node id="-180169" lat="59.9928138919" lon="9.50222777989">
		<tag k="name" v="Gryteoset" />
		<tag k="natural" v="bay" />
		<tag k="ssr:stedsnr" v="215066" />
	</node>
	<node id="-182216" lat="60.2763861076" lon="9.2424972157">
		<tag k="name" v="Snaukolltjenn" />
		<tag k="natural" v="water" />
		<tag k="ssr:stedsnr" v="940841" />
	</node>
	<node id="-182215" lat="60.2685972188" lon="9.22530833989">
		<tag k="name" v="Løkan" />
		<tag k="place" v="locality" />
		<tag k="ssr:stedsnr" v="940838" />
	</node>
	<node id="-180164" lat="60.0685111144" lon="9.43852221381">
		<tag k="name" v="Søletjenn" />
		<tag k="natural" v="water" />
		<tag k="ssr:stedsnr" v="214976" />
	</node>
	<node id="-182206" lat="60.1627722217" lon="9.36542777604">
		<tag k="name" v="Spikikjøtthølet" />
		<tag k="place" v="locality" />
		<tag k="ssr:stedsnr" v="940625" />
	</node>
	<node id="-182201" lat="60.1983666684" lon="9.24843889033">
		<tag k="name" v="Nedre Feratjenn" />
		<tag k="natural" v="water" />
		<tag k="ssr:stedsnr" v="940445" />
	</node>
	<node id="-182199" lat="60.1167555553" lon="9.29559444164">
		<tag k="name" v="Vesle Repetjenn" />
		<tag k="natural" v="water" />
		<tag k="ssr:stedsnr" v="940354" />
	</node>
	<node id="-182198" lat="60.3421638857" lon="9.18423610648">
		<tag k="name" v="Flenta" />
		<tag k="ssr:stedsnr" v="940195" />
		<tag k="waterway" v="stream" />
	</node>
	<node id="-180149" lat="60.0268333311" lon="9.79219722819">
		<tag k="alt_name" v="Vesle Dylletjern" />
		<tag k="name" v="Vesle Dylletjenn" />
		<tag k="natural" v="water" />
		<tag k="ssr:stedsnr" v="214803" />
	</node>
	<node id="-182196" lat="60.2572805521" lon="9.2292111156">
		<tag k="name" v="Svartekulp" />
		<tag k="natural" v="water" />
		<tag k="ssr:stedsnr" v="940169" />
		<tag k="water" v="pond" />
	</node>
	<node id="-182191" lat="60.1665333299" lon="9.22810000352">
		<tag k="name" v="Delesodden" />
		<tag k="natural" v="cape" />
		<tag k="ssr:stedsnr" v="940140" />
	</node>
	<node id="-182190" lat="60.3062750008" lon="9.26997777023">
		<tag k="name" v="Sinefurubekken" />
		<tag k="ssr:stedsnr" v="940132" />
		<tag k="waterway" v="stream" />
	</node>
	<node id="-180133" lat="59.944366664" lon="9.70672778127">
		<tag k="name" v="Løkedammen" />
		<tag k="ssr:stedsnr" v="214563" />
		<tag k="waterway" v="dam" />
	</node>
	<node id="-180131" lat="60.0690333298" lon="9.50970000359">
		<tag k="name" v="Båneberg" />
		<tag k="natural" v="cape" />
		<tag k="ssr:stedsnr" v="214562" />
	</node>
	<node id="-180130" lat="59.9719361144" lon="9.56033055271">
		<tag k="name" v="Lomøyane" />
		<tag k="place" v="island" />
		<tag k="ssr:stedsnr" v="214559" />
	</node>
	<node id="-180127" lat="60.1118083303" lon="9.59227222992">
		<tag k="name" v="Blåsetjenn" />
		<tag k="natural" v="water" />
		<tag k="ssr:stedsnr" v="214536" />
	</node>
	<node id="-182173" lat="60.1373777763" lon="9.29108610821">
		<tag k="name" v="Tverrhøggvatnet" />
		<tag k="natural" v="water" />
		<tag k="ssr:stedsnr" v="933155" />
	</node>
	<node id="-182169" lat="60.2583305591" lon="9.43651944883">
		<tag k="alt_name" v="Tomasbekken" />
		<tag k="name" v="Tomasbekk" />
		<tag k="ssr:stedsnr" v="917907" />
		<tag k="waterway" v="stream" />
	</node>
	<node id="-182165" lat="60.2964333359" lon="9.18927777968">
		<tag k="name" v="Trytetjenn" />
		<tag k="natural" v="water" />
		<tag k="ssr:stedsnr" v="916486" />
	</node>
	<node id="-182163" lat="60.3017222243" lon="9.3574611021">
		<tag k="name" v="Svarttjenn" />
		<tag k="natural" v="water" />
		<tag k="ssr:stedsnr" v="916087" />
	</node>
	<node id="-182159" lat="60.3097722263" lon="9.30578056332">
		<tag k="name" v="Nedre Sandvatn" />
		<tag k="natural" v="water" />
		<tag k="ssr:stedsnr" v="916035" />
	</node>
	<node id="-180110" lat="60.0538333302" lon="9.5483388927">
		<tag k="name" v="Sandodden" />
		<tag k="natural" v="cape" />
		<tag k="ssr:stedsnr" v="214428" />
	</node>
	<node id="-180109" lat="59.9664555532" lon="9.59488056434">
		<tag k="name" v="Vasslitangen" />
		<tag k="natural" v="cape" />
		<tag k="ssr:stedsnr" v="214408" />
	</node>
	<node id="-180101" lat="60.1395388919" lon="9.55829167424">
		<tag k="name" v="Smalevatn" />
		<tag k="natural" v="water" />
		<tag k="ssr:stedsnr" v="214316" />
	</node>
	<node id="-182148" lat="60.1522583327" lon="9.21717776957">
		<tag k="alt_name" v="Buvatnet" />
		<tag k="name" v="Buvatn" />
		<tag k="natural" v="water" />
		<tag k="ssr:stedsnr" v="915508" />
	</node>
	<node id="-182146" lat="60.2059222182" lon="9.35478610842">
		<tag k="name" v="Trytetjenn" />
		<tag k="natural" v="water" />
		<tag k="ssr:stedsnr" v="915461" />
	</node>
	<node id="-182145" lat="60.1637392446" lon="9.26908116363">
		<tag k="name" v="Vindolvatnet" />
		<tag k="natural" v="water" />
		<tag k="ssr:stedsnr" v="915443" />
	</node>
	<node id="-182142" lat="60.1735111074" lon="9.29153610671">
		<tag k="name" v="Grunntjenn" />
		<tag k="natural" v="water" />
		<tag k="ssr:stedsnr" v="915413" />
	</node>
	<node id="-182139" lat="60.098466669" lon="9.48263611017">
		<tag k="name" v="Bjørebekk" />
		<tag k="ssr:stedsnr" v="915383" />
		<tag k="waterway" v="stream" />
	</node>
	<node id="-182138" lat="60.2453500043" lon="9.4164021872">
		<tag k="name" v="Sjusjøen" />
		<tag k="natural" v="water" />
		<tag k="ssr:stedsnr" v="915282" />
	</node>
	<node id="-182136" lat="60.0779888858" lon="9.47686666509">
		<tag k="name" v="Myrantjennet" />
		<tag k="natural" v="water" />
		<tag k="ssr:stedsnr" v="915099" />
	</node>
	<node id="-182135" lat="60.0714194432" lon="9.54421388637">
		<tag k="name" v="Flåbekken" />
		<tag k="ssr:stedsnr" v="915079" />
		<tag k="waterway" v="stream" />
	</node>
	<node id="-182133" lat="60.0283194406" lon="9.42680833335">
		<tag k="name" v="Moslontjenn" />
		<tag k="natural" v="water" />
		<tag k="ssr:stedsnr" v="915054" />
	</node>
	<node id="-182132" lat="60.0237499999" lon="9.56346111349">
		<tag k="name" v="Horga" />
		<tag k="ssr:stedsnr" v="915037" />
		<tag k="waterway" v="river" />
	</node>
	<node id="-182131" lat="60.0264027777" lon="9.54823888124">
		<tag k="name" v="Tverråa" />
		<tag k="ssr:stedsnr" v="915035" />
		<tag k="waterway" v="stream" />
	</node>
	<node id="-180081" lat="60.097966665" lon="9.41183056067">
		<tag k="name" v="Kollebekk" />
		<tag k="ssr:stedsnr" v="213914" />
		<tag k="waterway" v="stream" />
	</node>
	<node id="-182128" lat="59.9887833327" lon="9.66031665793">
		<tag k="alt_name" v="Svartputten" />
		<tag k="name" v="Svarteputt" />
		<tag k="natural" v="water" />
		<tag k="ssr:stedsnr" v="914960" />
	</node>
	<node id="-182119" lat="60.1353027811" lon="9.30075555419">
		<tag k="alt_name" v="Brennlivatnet" />
		<tag k="name" v="Brennlivatn" />
		<tag k="natural" v="water" />
		<tag k="ssr:stedsnr" v="914420" />
	</node>
	<node id="-182118" lat="60.1189861135" lon="9.26796943974">
		<tag k="alt_name" v="Mjovatnet" />
		<tag k="name" v="Mjovatn" />
		<tag k="natural" v="water" />
		<tag k="ssr:stedsnr" v="914372" />
	</node>
	<node id="-182117" lat="59.9883055584" lon="9.50993332859">
		<tag k="name" v="Grimesundet" />
		<tag k="natural" v="strait" />
		<tag k="ssr:stedsnr" v="914308" />
	</node>
	<node id="-182115" lat="60.2331213708" lon="9.4460915108">
		<tag k="name" v="Djupsjøen" />
		<tag k="natural" v="water" />
		<tag k="ssr:stedsnr" v="914271" />
	</node>
	<node id="-180064" lat="60.058344442" lon="9.40956389756">
		<tag k="name" v="Mauretjenn" />
		<tag k="natural" v="water" />
		<tag k="ssr:stedsnr" v="213341" />
	</node>
	<node id="-180062" lat="60.0509027782" lon="9.41084166761">
		<tag k="name" v="Tjennputten" />
		<tag k="natural" v="water" />
		<tag k="ssr:stedsnr" v="213338" />
		<tag k="water" v="pond" />
	</node>
	<node id="-180538" lat="60.0446083367" lon="9.73708333737">
		<tag k="name" v="Halvfartjenn" />
		<tag k="natural" v="water" />
		<tag k="ssr:stedsnr" v="489897" />
	</node>
	<node id="-181561" lat="60.2439946796" lon="9.4256573707">
		<tag k="name" v="Svarttjenn" />
		<tag k="natural" v="water" />
		<tag k="ssr:stedsnr" v="758224" />
	</node>
	<node id="-182097" lat="60.2304722228" lon="9.39763611369">
		<tag k="name" v="Løken" />
		<tag k="ssr:stedsnr" v="880856" />
		<tag k="waterway" v="stream" />
	</node>
	<node id="-182095" lat="60.2307416667" lon="9.360158342">
		<tag k="name" v="Klemmafossen" />
		<tag k="natural" v="waterfall" />
		<tag k="ssr:stedsnr" v="880839" />
	</node>
	<node id="-180042" lat="60.2747972192" lon="9.20970832895">
		<tag k="name" v="Brennattjenn" />
		<tag k="natural" v="water" />
		<tag k="ssr:stedsnr" v="212807" />
	</node>
	<node id="-182089" lat="60.1629694488" lon="9.41561389267">
		<tag k="name" v="Ulatangen" />
		<tag k="natural" v="cape" />
		<tag k="ssr:stedsnr" v="880695" />
	</node>
	<node id="-180039" lat="60.1849916626" lon="9.37351388316">
		<tag k="name" v="Enderudsbekken" />
		<tag k="ssr:stedsnr" v="212745" />
		<tag k="waterway" v="stream" />
	</node>
	<node id="-180036" lat="60.1688388863" lon="9.26960832655">
		<tag k="name" v="Puttebekken" />
		<tag k="ssr:stedsnr" v="212655" />
		<tag k="waterway" v="stream" />
	</node>
	<node id="-180030" lat="60.2194333303" lon="9.29000000692">
		<tag k="name" v="Nevretjennbekken" />
		<tag k="ssr:stedsnr" v="212446" />
		<tag k="waterway" v="stream" />
	</node>
	<node id="-182076" lat="60.2757666626" lon="9.38925277017">
		<tag k="name" v="Løkane" />
		<tag k="place" v="locality" />
		<tag k="ssr:stedsnr" v="880367" />
	</node>
	<node id="-180026" lat="60.2444388928" lon="9.21882499764">
		<tag k="name" v="Bølestjenn" />
		<tag k="natural" v="water" />
		<tag k="ssr:stedsnr" v="212164" />
	</node>
	<node id="-180025" lat="60.2461027798" lon="9.34373054799">
		<tag k="name" v="Pletanøya" />
		<tag k="place" v="island" />
		<tag k="ssr:stedsnr" v="212128" />
	</node>
	<node id="-180020" lat="60.1267027771" lon="9.30959445073">
		<tag k="name" v="Limpetjenn" />
		<tag k="natural" v="water" />
		<tag k="ssr:stedsnr" v="212096" />
	</node>
	<node id="-180019" lat="60.287955552" lon="9.24393889348">
		<tag k="name" v="Lifossen" />
		<tag k="natural" v="waterfall" />
		<tag k="ssr:stedsnr" v="212079" />
	</node>
	<node id="-180017" lat="60.1491694476" lon="9.38886388196">
		<tag k="name" v="Røtthøltjenn" />
		<tag k="natural" v="water" />
		<tag k="ssr:stedsnr" v="212074" />
	</node>
	<node id="-182062" lat="60.2512944439" lon="9.28151944399">
		<tag k="name" v="Basolfossen" />
		<tag k="natural" v="waterfall" />
		<tag k="ssr:stedsnr" v="879875" />
	</node>
	<node id="-182059" lat="60.2672833375" lon="9.26612777731">
		<tag k="name" v="Oterfoss" />
		<tag k="natural" v="waterfall" />
		<tag k="ssr:stedsnr" v="879847" />
	</node>
	<node id="-180005" lat="60.2980416672" lon="9.18173332975">
		<tag k="name" v="Eiketjenna" />
		<tag k="natural" v="water" />
		<tag k="ssr:stedsnr" v="188522" />
	</node>
	<node id="-180004" lat="60.3042999962" lon="9.17416111823">
		<tag k="name" v="Skriutjenn" />
		<tag k="natural" v="water" />
		<tag k="ssr:stedsnr" v="188505" />
	</node>
	<node id="-180001" lat="60.2893444455" lon="9.2039777705">
		<tag k="name" v="Misetbekken" />
		<tag k="ssr:stedsnr" v="188283" />
		<tag k="waterway" v="stream" />
	</node>
	<node id="-179999" lat="60.2701472253" lon="9.25357500881">
		<tag k="alt_name" v="Urdetjennbekken" />
		<tag k="name" v="Uletjennbekken" />
		<tag k="ssr:stedsnr" v="188147" />
		<tag k="waterway" v="stream" />
	</node>
	<node id="-179997" lat="60.2789116878" lon="9.39449466203">
		<tag k="fixme" v="multiple name tags, choose one and add the other to alt_name" />
		<tag k="name" v="Istjenn;Søre Istjenn" />
		<tag k="natural" v="water" />
		<tag k="ssr:stedsnr" v="188142" />
	</node>
	<node id="-182044" lat="60.1812320221" lon="9.23730021139">
		<tag k="name" v="Småløkan" />
		<tag k="place" v="locality" />
		<tag k="ssr:stedsnr" v="879175" />
	</node>
	<node id="-182043" lat="60.1876972208" lon="9.24771110563">
		<tag k="name" v="Svarttjenn" />
		<tag k="natural" v="water" />
		<tag k="ssr:stedsnr" v="879156" />
	</node>
	<node id="-179994" lat="60.2932361079" lon="9.2675305497">
		<tag k="name" v="Snårbekken" />
		<tag k="ssr:stedsnr" v="188108" />
		<tag k="waterway" v="stream" />
	</node>
	<node id="-182041" lat="60.1756527802" lon="9.25588333786">
		<tag k="name" v="Tangebekken" />
		<tag k="ssr:stedsnr" v="879138" />
		<tag k="waterway" v="stream" />
	</node>
	<node id="-179992" lat="60.3093333365" lon="9.2528888903">
		<tag k="name" v="Ormetjenn" />
		<tag k="natural" v="water" />
		<tag k="ssr:stedsnr" v="188040" />
	</node>
	<node id="-179991" lat="60.3113333348" lon="9.29404722629">
		<tag k="name" v="Kvelvsavatnet" />
		<tag k="natural" v="water" />
		<tag k="ssr:stedsnr" v="188034" />
	</node>
	<node id="-179990" lat="60.3366166675" lon="9.28695555659">
		<tag k="name" v="Bekkelitjennet" />
		<tag k="natural" v="water" />
		<tag k="ssr:stedsnr" v="188011" />
	</node>
	<node id="-179989" lat="60.2953499976" lon="9.23550000629">
		<tag k="alt_name" v="Sagfoss" />
		<tag k="name" v="Sagfossen" />
		<tag k="natural" v="waterfall" />
		<tag k="ssr:stedsnr" v="188099" />
	</node>
	<node id="-179988" lat="60.2857499988" lon="9.41552499899">
		<tag k="name" v="Rantebekken" />
		<tag k="ssr:stedsnr" v="188088" />
		<tag k="waterway" v="stream" />
	</node>
	<node id="-179987" lat="60.2893999999" lon="9.42529999973">
		<tag k="name" v="Tempelbekken" />
		<tag k="ssr:stedsnr" v="188077" />
		<tag k="waterway" v="stream" />
	</node>
	<node id="-182031" lat="60.3139611094" lon="9.29086667203">
		<tag k="name" v="Kvelvsabekk" />
		<tag k="ssr:stedsnr" v="871158" />
		<tag k="waterway" v="stream" />
	</node>
	<node id="-179981" lat="60.181041668" lon="9.40938333138">
		<tag k="name" v="Solevatnet" />
		<tag k="natural" v="water" />
		<tag k="ssr:stedsnr" v="187423" />
		<tag k="water" v="lake" />
	</node>
	<node id="-179980" lat="60.1502694455" lon="9.48643332758">
		<tag k="name" v="Hagatjenna" />
		<tag k="natural" v="water" />
		<tag k="ssr:stedsnr" v="187389" />
	</node>
	<node id="-182027" lat="60.3457722225" lon="9.14792777205">
		<tag k="name" v="Groptjenn" />
		<tag k="natural" v="water" />
		<tag k="ssr:stedsnr" v="856449" />
	</node>
	<node id="-179978" lat="60.2332159026" lon="9.42524463293">
		<tag k="name" v="Rakketjenn" />
		<tag k="natural" v="water" />
		<tag k="ssr:stedsnr" v="187241" />
	</node>
	<node id="-179977" lat="60.084627774" lon="9.51311389232">
		<tag k="name" v="Bråtatjenn" />
		<tag k="natural" v="water" />
		<tag k="ssr:stedsnr" v="187100" />
	</node>
	<node id="-179976" lat="60.0792555517" lon="9.3445638878">
		<tag k="name" v="Putten" />
		<tag k="natural" v="water" />
		<tag k="ssr:stedsnr" v="187097" />
	</node>
	<node id="-180865" lat="60.1698888879" lon="9.39325833502">
		<tag k="name" v="Grønhovdfossen" />
		<tag k="natural" v="waterfall" />
		<tag k="ssr:stedsnr" v="576651" />
	</node>
	<node id="-179972" lat="60.240124999" lon="9.21203334006">
		<tag k="name" v="Fagerlitjenn" />
		<tag k="natural" v="water" />
		<tag k="ssr:stedsnr" v="186986" />
	</node>
	<node id="-179971" lat="60.0629027776" lon="9.63822777127">
		<tag k="name" v="Vesletjenn" />
		<tag k="natural" v="water" />
		<tag k="ssr:stedsnr" v="186874" />
	</node>
	<node id="-182013" lat="60.0755000019" lon="9.37355000121">
		<tag k="alt_name" v="Store-Gaulen" />
		<tag k="name" v="Gaulsvatna" />
		<tag k="natural" v="water" />
		<tag k="ssr:stedsnr" v="855095" />
	</node>
	<node id="-179963" lat="59.9830249959" lon="9.8187749994">
		<tag k="name" v="Damtjenn" />
		<tag k="natural" v="water" />
		<tag k="ssr:stedsnr" v="186819" />
	</node>
	<node id="-182009" lat="59.9962027739" lon="9.63308055101">
		<tag k="name" v="Helletjenn" />
		<tag k="natural" v="water" />
		<tag k="ssr:stedsnr" v="854970" />
	</node>
	<node id="-181545" lat="60.1286805597" lon="9.34831666077">
		<tag k="name" v="Skarbekken" />
		<tag k="ssr:stedsnr" v="758111" />
		<tag k="waterway" v="stream" />
	</node>
	<node id="-179956" lat="59.9013361111" lon="9.71794165782">
		<tag k="name" v="Letmolielva" />
		<tag k="ssr:stedsnr" v="185820" />
		<tag k="waterway" v="river" />
	</node>
	<node id="-179954" lat="60.024102776" lon="9.43561389745">
		<tag k="name" v="Haukelitjenn" />
		<tag k="natural" v="water" />
		<tag k="ssr:stedsnr" v="186032" />
	</node>
	<node id="-179953" lat="60.0261527816" lon="9.48861388281">
		<tag k="name" v="Langetjenn" />
		<tag k="natural" v="water" />
		<tag k="ssr:stedsnr" v="186031" />
	</node>
	<node id="-179952" lat="59.9944333354" lon="9.49839445209">
		<tag k="name" v="Grytelva" />
		<tag k="ssr:stedsnr" v="186013" />
		<tag k="waterway" v="river" />
	</node>
	<node id="-181999" lat="59.9821361137" lon="9.59875556385">
		<tag k="name" v="Emmerudtjenn" />
		<tag k="natural" v="water" />
		<tag k="ssr:stedsnr" v="854937" />
	</node>
	<node id="-179949" lat="59.9942305586" lon="9.50777777216">
		<tag k="alt_name" v="Mjovatnet" />
		<tag k="name" v="Mjovatn" />
		<tag k="natural" v="water" />
		<tag k="ssr:stedsnr" v="185240" />
	</node>
	<node id="-179945" lat="60.1054555523" lon="9.60624443632">
		<tag k="name" v="Øvre Bjørketjenn" />
		<tag k="natural" v="water" />
		<tag k="ssr:stedsnr" v="154934" />
	</node>
	<node id="-181991" lat="59.9390361131" lon="9.64354167279">
		<tag k="name" v="Klabutjenn" />
		<tag k="natural" v="water" />
		<tag k="ssr:stedsnr" v="854746" />
	</node>
	<node id="-179940" lat="60.010794441" lon="9.55305000654">
		<tag k="name" v="Eivindhølen" />
		<tag k="place" v="locality" />
		<tag k="ssr:stedsnr" v="154398" />
	</node>
	<node id="-181987" lat="60.1972888887" lon="9.28901389077">
		<tag k="name" v="Høvretjenn" />
		<tag k="natural" v="water" />
		<tag k="ssr:stedsnr" v="854468" />
	</node>
	<node id="-181986" lat="60.2128472187" lon="9.40303055752">
		<tag k="name" v="Sagbekken" />
		<tag k="ssr:stedsnr" v="854459" />
		<tag k="waterway" v="stream" />
	</node>
	<node id="-179935" lat="60.0335750014" lon="9.44421389757">
		<tag k="name" v="Grasbakktjenn" />
		<tag k="natural" v="water" />
		<tag k="ssr:stedsnr" v="154189" />
	</node>
	<node id="-181981" lat="60.1306555578" lon="9.28044722074">
		<tag k="name" v="Grunntjenn" />
		<tag k="natural" v="water" />
		<tag k="ssr:stedsnr" v="854412" />
	</node>
	<node id="-179932" lat="59.9953555543" lon="9.49674167369">
		<tag k="name" v="Bekkemøtet" />
		<tag k="place" v="locality" />
		<tag k="ssr:stedsnr" v="154066" />
	</node>
	<node id="-179924" lat="60.0621555529" lon="9.70797500546">
		<tag k="name" v="Klauvbekken" />
		<tag k="ssr:stedsnr" v="153964" />
		<tag k="waterway" v="stream" />
	</node>
	<node id="-181198" lat="60.1297222255" lon="9.54296388819">
		<tag k="name" v="Aureputtane" />
		<tag k="natural" v="water" />
		<tag k="ssr:stedsnr" v="639483" />
		<tag k="water" v="pond" />
	</node>
	<node id="-181969" lat="60.070286107" lon="9.58440556082">
		<tag k="name" v="Åstjenn" />
		<tag k="natural" v="water" />
		<tag k="ssr:stedsnr" v="854062" />
	</node>
	<node id="-181966" lat="60.0503500029" lon="9.42037777494">
		<tag k="name" v="Hansbakkbekken" />
		<tag k="ssr:stedsnr" v="854044" />
		<tag k="waterway" v="stream" />
	</node>
	<node id="-181965" lat="60.0192694478" lon="9.4482249914">
		<tag k="name" v="Grytevatn" />
		<tag k="natural" v="water" />
		<tag k="ssr:stedsnr" v="854019" />
		<tag k="water" v="lake" />
	</node>
	<node id="-181964" lat="60.0169944413" lon="9.48469165897">
		<tag k="name" v="Svarteputt" />
		<tag k="natural" v="water" />
		<tag k="ssr:stedsnr" v="854012" />
	</node>
	<node id="-181957" lat="59.9968277771" lon="9.49395000149">
		<tag k="fixme" v="multiple name tags, choose one and add the other to alt_name" />
		<tag k="name" v="Nedre Kvernhølen;Kvernhølen" />
		<tag k="place" v="locality" />
		<tag k="ssr:stedsnr" v="853226" />
	</node>
	<node id="-181955" lat="60.1008750014" lon="9.64839445247">
		<tag k="name" v="Loppedammen" />
		<tag k="natural" v="water" />
		<tag k="ssr:stedsnr" v="822923" />
		<tag k="water" v="pond" />
	</node>
	<node id="-181953" lat="60.1022361072" lon="9.60353056422">
		<tag k="name" v="Mellom-Bjørketjenn" />
		<tag k="natural" v="water" />
		<tag k="ssr:stedsnr" v="822908" />
	</node>
	<node id="-179902" lat="60.1192583323" lon="9.60077500772">
		<tag k="name" v="Øyvassdammen" />
		<tag k="ssr:stedsnr" v="153553" />
		<tag k="waterway" v="dam" />
	</node>
	<node id="-181944" lat="60.020841663" lon="9.77893333411">
		<tag k="name" v="Store Rugåkertjenn" />
		<tag k="natural" v="water" />
		<tag k="ssr:stedsnr" v="821969" />
	</node>
	<node id="-179895" lat="59.9650111153" lon="9.76671944675">
		<tag k="name" v="Svingen" />
		<tag k="place" v="locality" />
		<tag k="ssr:stedsnr" v="153464" />
	</node>
	<node id="-179894" lat="59.9559527761" lon="9.61922222606">
		<tag k="name" v="Tjennet" />
		<tag k="natural" v="water" />
		<tag k="ssr:stedsnr" v="153454" />
	</node>
	<node id="-182217" lat="60.2313194412" lon="9.36476111598">
		<tag k="name" v="Igletjenn" />
		<tag k="natural" v="water" />
		<tag k="ssr:stedsnr" v="940840" />
	</node>
	<node id="-181934" lat="60.0443499989" lon="9.76388888182">
		<tag k="alt_name" v="Nattjern" />
		<tag k="name" v="Nattjenn" />
		<tag k="natural" v="water" />
		<tag k="ssr:stedsnr" v="821787" />
	</node>
	<node id="-179884" lat="60.1380944442" lon="9.5574055544">
		<tag k="name" v="Smalvasstangen" />
		<tag k="natural" v="cape" />
		<tag k="ssr:stedsnr" v="153332" />
	</node>
	<node id="-179877" lat="60.0418305592" lon="9.53309444349">
		<tag k="name" v="Fremste putten" />
		<tag k="natural" v="water" />
		<tag k="ssr:stedsnr" v="153216" />
		<tag k="water" v="pond" />
	</node>
	<node id="-179871" lat="59.9906388882" lon="9.63783333509">
		<tag k="name" v="Store Trytetjennbekken" />
		<tag k="ssr:stedsnr" v="153153" />
		<tag k="waterway" v="stream" />
	</node>
	<node id="-181918" lat="59.9985916659" lon="9.81632500808">
		<tag k="alt_name" v="Kroktjerna" />
		<tag k="name" v="Kroktjenna" />
		<tag k="natural" v="water" />
		<tag k="ssr:stedsnr" v="821675" />
	</node>
	<node id="-179866" lat="60.0131472239" lon="9.45078888235">
		<tag k="name" v="Gampehølen" />
		<tag k="place" v="locality" />
		<tag k="ssr:stedsnr" v="153078" />
	</node>
	<node id="-179857" lat="60.0792083309" lon="9.36974722917">
		<tag k="name" v="Vesle-Gaulen" />
		<tag k="natural" v="bay" />
		<tag k="ssr:stedsnr" v="152915" />
	</node>
	<node id="-179853" lat="60.0599305575" lon="9.65239999964">
		<tag k="name" v="Sagbekken" />
		<tag k="ssr:stedsnr" v="153634" />
		<tag k="waterway" v="stream" />
	</node>
	<node id="-181898" lat="59.952147225" lon="9.68579999712">
		<tag k="name" v="Brattefoss" />
		<tag k="natural" v="waterfall" />
		<tag k="ssr:stedsnr" v="821475" />
	</node>
	<node id="-181897" lat="60.1415166657" lon="9.54818054721">
		<tag k="name" v="Slibekk" />
		<tag k="ssr:stedsnr" v="821466" />
		<tag k="waterway" v="stream" />
	</node>
	<node id="-181896" lat="60.0691861126" lon="9.53784721661">
		<tag k="name" v="Aurevika" />
		<tag k="natural" v="bay" />
		<tag k="ssr:stedsnr" v="821458" />
	</node>
	<node id="-181526" lat="60.1872685959" lon="9.23503954021">
		<tag k="name" v="Feratjenn" />
		<tag k="natural" v="water" />
		<tag k="ssr:stedsnr" v="757160" />
	</node>
	<node id="-181889" lat="59.9637249982" lon="9.66194999541">
		<tag k="name" v="Svarttjenn" />
		<tag k="natural" v="water" />
		<tag k="ssr:stedsnr" v="821351" />
	</node>
	<node id="-179838" lat="60.1396138867" lon="9.47521944537">
		<tag k="name" v="Gørrtjenn" />
		<tag k="natural" v="water" />
		<tag k="ssr:stedsnr" v="152272" />
		<tag k="water" v="pond" />
	</node>
	<node id="-179837" lat="60.1469833343" lon="9.44861943878">
		<tag k="name" v="Kittilsfoss" />
		<tag k="natural" v="waterfall" />
		<tag k="ssr:stedsnr" v="152221" />
	</node>
	<node id="-181884" lat="60.0147333345" lon="9.7150611124">
		<tag k="name" v="Skarbekk" />
		<tag k="ssr:stedsnr" v="821258" />
		<tag k="waterway" v="stream" />
	</node>
	<node id="-181870" lat="59.9970972213" lon="9.64032777277">
		<tag k="name" v="Skauteputtane" />
		<tag k="natural" v="water" />
		<tag k="ssr:stedsnr" v="821138" />
		<tag k="water" v="pond" />
	</node>
	<node id="-179821" lat="60.1896277787" lon="9.32727222291">
		<tag k="name" v="Elgstjenn" />
		<tag k="natural" v="water" />
		<tag k="ssr:stedsnr" v="151760" />
	</node>
	<node id="-179817" lat="60.2677527822" lon="9.32217222246">
		<tag k="name" v="Krossgardsbekken" />
		<tag k="ssr:stedsnr" v="151691" />
		<tag k="waterway" v="stream" />
	</node>
	<node id="-179811" lat="60.2880611132" lon="9.29190555992">
		<tag k="name" v="Grashølfossen" />
		<tag k="natural" v="waterfall" />
		<tag k="ssr:stedsnr" v="151632" />
	</node>
	<node id="-181858" lat="60.0147055573" lon="9.53920277021">
		<tag k="name" v="Fjøstjenn" />
		<tag k="natural" v="water" />
		<tag k="ssr:stedsnr" v="821026" />
		<tag k="water" v="pond" />
	</node>
	<node id="-181857" lat="60.0109666636" lon="9.54974165828">
		<tag k="name" v="Saghølen" />
		<tag k="place" v="locality" />
		<tag k="ssr:stedsnr" v="821024" />
	</node>
	<node id="-179808" lat="60.1605583299" lon="9.4740666597">
		<tag k="name" v="Sleipefoss" />
		<tag k="natural" v="waterfall" />
		<tag k="ssr:stedsnr" v="151625" />
	</node>
	<node id="-181854" lat="60.0677472248" lon="9.40538054974">
		<tag k="name" v="Bjønnetjenn" />
		<tag k="natural" v="water" />
		<tag k="ssr:stedsnr" v="820932" />
	</node>
	<node id="-181853" lat="60.0682611149" lon="9.38847777998">
		<tag k="name" v="Rognetjenn" />
		<tag k="natural" v="water" />
		<tag k="ssr:stedsnr" v="820931" />
	</node>
	<node id="-181852" lat="60.0781944432" lon="9.37713888013">
		<tag k="name" v="Den fremre bekken" />
		<tag k="ssr:stedsnr" v="820916" />
		<tag k="waterway" v="stream" />
	</node>
	<node id="-180495" lat="60.0819500035" lon="9.49353611862">
		<tag k="name" v="Kvennebekken" />
		<tag k="ssr:stedsnr" v="457911" />
		<tag k="waterway" v="stream" />
	</node>
	<node id="-179797" lat="60.1358916703" lon="9.35189167537">
		<tag k="name" v="Trytetjenn" />
		<tag k="natural" v="water" />
		<tag k="ssr:stedsnr" v="151135" />
	</node>
	<node id="-181840" lat="60.1950750038" lon="9.4019944509">
		<tag k="name" v="Smilstjennputten" />
		<tag k="natural" v="water" />
		<tag k="ssr:stedsnr" v="819994" />
		<tag k="water" v="pond" />
	</node>
	<node id="-181839" lat="60.1668444448" lon="9.35755278379">
		<tag k="name" v="Klypefoss" />
		<tag k="natural" v="waterfall" />
		<tag k="ssr:stedsnr" v="819983" />
	</node>
	<node id="-179787" lat="60.1386777743" lon="9.37673889219">
		<tag k="name" v="Setertjennet" />
		<tag k="natural" v="water" />
		<tag k="ssr:stedsnr" v="151089" />
	</node>
	<node id="-181832" lat="60.3383277773" lon="9.17708055576">
		<tag k="name" v="Moltemyrløken" />
		<tag k="ssr:stedsnr" v="819888" />
		<tag k="waterway" v="stream" />
	</node>
	<node id="-179782" lat="60.3168722211" lon="9.13711389431">
		<tag k="name" v="Vesle Holmevatn" />
		<tag k="natural" v="water" />
		<tag k="ssr:stedsnr" v="151029" />
	</node>
	<node id="-179779" lat="60.1840944412" lon="9.30854999389">
		<tag k="name" v="Elgstjenn" />
		<tag k="natural" v="water" />
		<tag k="ssr:stedsnr" v="150638" />
	</node>
	<node id="-179778" lat="60.1807083293" lon="9.27870277645">
		<tag k="name" v="Putten" />
		<tag k="natural" v="water" />
		<tag k="ssr:stedsnr" v="150637" />
	</node>
	<node id="-179773" lat="60.117769442" lon="9.29157500804">
		<tag k="name" v="Store Repetjenn" />
		<tag k="natural" v="water" />
		<tag k="ssr:stedsnr" v="150362" />
	</node>
	<node id="-181820" lat="60.1745638879" lon="9.46494999964">
		<tag k="name" v="Tretjenn" />
		<tag k="natural" v="water" />
		<tag k="ssr:stedsnr" v="819701" />
	</node>
	<node id="-181812" lat="60.2664833341" lon="9.41179166033">
		<tag k="name" v="Bråtaseterfoss" />
		<tag k="natural" v="waterfall" />
		<tag k="ssr:stedsnr" v="819418" />
	</node>
	<node id="-181512" lat="60.3119833376" lon="9.14782221949">
		<tag k="name" v="Flesebekk" />
		<tag k="ssr:stedsnr" v="734476" />
		<tag k="waterway" v="stream" />
	</node>
	<node id="-179758" lat="60.2911388853" lon="9.23172500082">
		<tag k="name" v="Gørrtjenn" />
		<tag k="natural" v="water" />
		<tag k="ssr:stedsnr" v="143136" />
	</node>
	<node id="-179757" lat="60.1520333333" lon="9.32132221414">
		<tag k="name" v="Gammalseterbekken" />
		<tag k="ssr:stedsnr" v="143115" />
		<tag k="waterway" v="stream" />
	</node>
	<node id="-179753" lat="60.3274861078" lon="9.17337499984">
		<tag k="name" v="Fiskebuvika" />
		<tag k="natural" v="bay" />
		<tag k="ssr:stedsnr" v="127474" />
	</node>
	<node id="-179750" lat="60.3106999982" lon="9.37972223075">
		<tag k="name" v="Donkelitjenn" />
		<tag k="natural" v="water" />
		<tag k="ssr:stedsnr" v="127045" />
	</node>
	<node id="-181794" lat="60.2892388923" lon="9.21986944023">
		<tag k="name" v="Bjønnlitjenn" />
		<tag k="natural" v="water" />
		<tag k="ssr:stedsnr" v="819046" />
	</node>
	<node id="-179745" lat="60.0165666638" lon="9.7747166668">
		<tag k="alt_name" v="Djupedaltjenn" />
		<tag k="name" v="Djupedalstjenn" />
		<tag k="natural" v="water" />
		<tag k="ssr:stedsnr" v="126958" />
	</node>
	<node id="-181792" lat="60.2642027823" lon="9.28653332731">
		<tag k="name" v="Beinstigfossen" />
		<tag k="natural" v="waterfall" />
		<tag k="ssr:stedsnr" v="818880" />
	</node>
	<node id="-179743" lat="60.2482361146" lon="9.37118611078">
		<tag k="name" v="Jelleelva" />
		<tag k="ssr:stedsnr" v="127100" />
		<tag k="waterway" v="stream" />
	</node>
	<node id="-179742" lat="60.2783861152" lon="9.30214167411">
		<tag k="name" v="Medbekk" />
		<tag k="ssr:stedsnr" v="127094" />
		<tag k="waterway" v="stream" />
	</node>
	<node id="-179741" lat="60.3243444483" lon="9.31011667108">
		<tag k="name" v="Øvre Sandvatn" />
		<tag k="natural" v="water" />
		<tag k="ssr:stedsnr" v="127062" />
	</node>
	<node id="-181787" lat="60.1983027745" lon="9.2511416751">
		<tag k="name" v="Øvre Feratjenn" />
		<tag k="natural" v="water" />
		<tag k="ssr:stedsnr" v="818491" />
	</node>
	<node id="-179737" lat="60.0860305571" lon="9.66769166268">
		<tag k="name" v="Kroktjenn" />
		<tag k="natural" v="water" />
		<tag k="ssr:stedsnr" v="126850" />
	</node>
	<node id="-179735" lat="60.0985888873" lon="9.67455277001">
		<tag k="name" v="Fyranvatnet" />
		<tag k="natural" v="water" />
		<tag k="ssr:stedsnr" v="126838" />
		<tag k="water" v="lake" />
	</node>
	<node id="-179734" lat="60.1055361093" lon="9.6289694489">
		<tag k="name" v="Nokketjenn" />
		<tag k="natural" v="water" />
		<tag k="ssr:stedsnr" v="126818" />
	</node>
	<node id="-179732" lat="60.191113888" lon="9.23484722932">
		<tag k="name" v="Nedre Trytetjenn" />
		<tag k="natural" v="water" />
		<tag k="ssr:stedsnr" v="126497" />
	</node>
	<node id="-179727" lat="60.1531250009" lon="9.52077499824">
		<tag k="name" v="Åsvatna" />
		<tag k="natural" v="water" />
		<tag k="ssr:stedsnr" v="126416" />
	</node>
	<node id="-179726" lat="60.1712432242" lon="9.34676142413">
		<tag k="name" v="Haslitjenn" />
		<tag k="natural" v="water" />
		<tag k="ssr:stedsnr" v="126460" />
	</node>
	<node id="-181773" lat="60.1610250001" lon="9.22626666631">
		<tag k="name" v="Buvasselva" />
		<tag k="ssr:stedsnr" v="818027" />
		<tag k="waterway" v="river" />
	</node>
	<node id="-179724" lat="60.1029888849" lon="9.50641943814">
		<tag k="name" v="Uksåstjenn" />
		<tag k="natural" v="water" />
		<tag k="ssr:stedsnr" v="126397" />
	</node>
	<node id="-179723" lat="60.1050444444" lon="9.28019445024">
		<tag k="name" v="Lomtjenn" />
		<tag k="natural" v="water" />
		<tag k="ssr:stedsnr" v="126390" />
	</node>
	<node id="-179722" lat="60.1177638856" lon="9.55573332659">
		<tag k="name" v="Hertåa" />
		<tag k="ssr:stedsnr" v="126389" />
		<tag k="waterway" v="stream" />
	</node>
	<node id="-181111" lat="60.2123361069" lon="9.44718888685">
		<tag k="name" v="Lensmannsvika" />
		<tag k="natural" v="bay" />
		<tag k="ssr:stedsnr" v="637992" />
	</node>
	<node id="-181767" lat="60.2615305555" lon="9.25488333004">
		<tag k="name" v="Brennabekken" />
		<tag k="ssr:stedsnr" v="795140" />
		<tag k="waterway" v="stream" />
	</node>
	<node id="-181505" lat="60.2578333294" lon="9.2660388816">
		<tag k="name" v="Sollibekken" />
		<tag k="ssr:stedsnr" v="734107" />
		<tag k="waterway" v="stream" />
	</node>
	<node id="-181764" lat="60.3218249983" lon="9.33501945245">
		<tag k="name" v="Øvre Tovevatnet" />
		<tag k="natural" v="water" />
		<tag k="ssr:stedsnr" v="795083" />
	</node>
	<node id="-179714" lat="60.0346138897" lon="9.45363054825">
		<tag k="name" v="Haslontjenn" />
		<tag k="natural" v="water" />
		<tag k="ssr:stedsnr" v="126048" />
	</node>
	<node id="-181761" lat="60.0739916669" lon="9.68104444726">
		<tag k="name" v="Tukuelva" />
		<tag k="ssr:stedsnr" v="794842" />
		<tag k="waterway" v="stream" />
	</node>
	<node id="-181760" lat="60.090527781" lon="9.68180277127">
		<tag k="name" v="Svartputt" />
		<tag k="natural" v="water" />
		<tag k="ssr:stedsnr" v="794841" />
	</node>
	<node id="-179710" lat="59.9925083342" lon="9.65135556">
		<tag k="name" v="Vesle Trytetjenn" />
		<tag k="natural" v="water" />
		<tag k="ssr:stedsnr" v="125981" />
	</node>
	<node id="-179709" lat="59.9964861077" lon="9.77724444029">
		<tag k="name" v="Gullbergtjenn" />
		<tag k="natural" v="water" />
		<tag k="ssr:stedsnr" v="125974" />
	</node>
	<node id="-181754" lat="60.0730805561" lon="9.5823638812">
		<tag k="name" v="Helvetestjenna" />
		<tag k="natural" v="water" />
		<tag k="ssr:stedsnr" v="794088" />
	</node>
	<node id="-181753" lat="60.0735249992" lon="9.58961111513">
		<tag k="name" v="Fisibutjenn" />
		<tag k="natural" v="water" />
		<tag k="ssr:stedsnr" v="794086" />
	</node>
	<node id="-179702" lat="59.9559222196" lon="9.70605277797">
		<tag k="alt_name" v="Sætertjenn" />
		<tag k="name" v="Setertjennet" />
		<tag k="natural" v="water" />
		<tag k="ssr:stedsnr" v="125806" />
	</node>
	<node id="-179701" lat="60.2148480414" lon="9.30242239333">
		<tag k="name" v="Nevretjenn" />
		<tag k="natural" v="water" />
		<tag k="ssr:stedsnr" v="125500" />
	</node>
	<node id="-181748" lat="59.9930555544" lon="9.64251111987">
		<tag k="name" v="Store Trytetjenn" />
		<tag k="natural" v="water" />
		<tag k="ssr:stedsnr" v="793980" />
	</node>
	<node id="-179699" lat="60.1244638876" lon="9.58084443676">
		<tag k="name" v="Hjelletjenna" />
		<tag k="natural" v="water" />
		<tag k="ssr:stedsnr" v="125401" />
	</node>
	<node id="-179696" lat="60.0667444486" lon="9.55793054796">
		<tag k="name" v="Kvennebekken" />
		<tag k="ssr:stedsnr" v="125090" />
		<tag k="waterway" v="stream" />
	</node>
	<node id="-179694" lat="60.014388892" lon="9.57996389623">
		<tag k="alt_name" v="Libekken" />
		<tag k="name" v="Libekk" />
		<tag k="ssr:stedsnr" v="125017" />
		<tag k="waterway" v="stream" />
	</node>
	<node id="-179692" lat="60.1218083357" lon="9.52908611888">
		<tag k="alt_name" v="Dælabekken" />
		<tag k="name" v="Dalabekken" />
		<tag k="ssr:stedsnr" v="125442" />
		<tag k="waterway" v="stream" />
	</node>
	<node id="-179689" lat="59.9858972216" lon="9.53196944119">
		<tag k="name" v="Jønnlimyrbekken" />
		<tag k="ssr:stedsnr" v="125328" />
		<tag k="waterway" v="stream" />
	</node>
	<node id="-181736" lat="60.2153587794" lon="9.30733724819">
		<tag k="name" v="Gurotjenn" />
		<tag k="natural" v="water" />
		<tag k="ssr:stedsnr" v="793517" />
	</node>
	<node id="-179687" lat="59.975538887" lon="9.5185694423">
		<tag k="name" v="Øvre Aurehølen" />
		<tag k="place" v="locality" />
		<tag k="ssr:stedsnr" v="112368" />
	</node>
	<node id="-181734" lat="60.2108666634" lon="9.47489999663">
		<tag k="name" v="Lauvliløken" />
		<tag k="ssr:stedsnr" v="793511" />
		<tag k="waterway" v="stream" />
	</node>
	<node id="-181733" lat="60.1097777746" lon="9.27067499378">
		<tag k="name" v="Langvassåa" />
		<tag k="ssr:stedsnr" v="793401" />
		<tag k="waterway" v="stream" />
	</node>
	<node id="-181731" lat="60.1225305521" lon="9.28219445279">
		<tag k="name" v="Holmevatnet" />
		<tag k="natural" v="water" />
		<tag k="ssr:stedsnr" v="793391" />
	</node>
	<node id="-181730" lat="60.2226166706" lon="9.38971388342">
		<tag k="name" v="Tovstjennbekken" />
		<tag k="ssr:stedsnr" v="793282" />
		<tag k="waterway" v="stream" />
	</node>
	<node id="-181728" lat="60.0905194474" lon="9.36375832499">
		<tag k="alt_name" v="Damtjenn" />
		<tag k="name" v="Damtjenna" />
		<tag k="natural" v="water" />
		<tag k="ssr:stedsnr" v="793113" />
	</node>
	<node id="-181727" lat="60.0630722183" lon="9.43499443897">
		<tag k="alt_name" v="Svartetjenn" />
		<tag k="name" v="Svartetjennet" />
		<tag k="natural" v="water" />
		<tag k="ssr:stedsnr" v="793073" />
	</node>
	<node id="-181722" lat="59.9589333351" lon="9.59477499125">
		<tag k="name" v="Sørvatnet" />
		<tag k="natural" v="water" />
		<tag k="ssr:stedsnr" v="792771" />
		<tag k="water" v="lake" />
	</node>
	<node id="-181718" lat="60.1697055578" lon="9.24221388963">
		<tag k="alt_name" v="Svansvatnet" />
		<tag k="name" v="Svansvatn" />
		<tag k="natural" v="water" />
		<tag k="ssr:stedsnr" v="793494" />
	</node>
	<node id="-179669" lat="60.0694555587" lon="9.74769443605">
		<tag k="name" v="Tomasbråtabekken" />
		<tag k="ssr:stedsnr" v="93878" />
		<tag k="waterway" v="stream" />
	</node>
	<node id="-182179" lat="60.2497666662" lon="9.30524444389">
		<tag k="name" v="Kaugerudhølen" />
		<tag k="place" v="locality" />
		<tag k="ssr:stedsnr" v="939928" />
	</node>
	<node id="-179662" lat="60.1007222212" lon="9.60616943574">
		<tag k="name" v="Nedre Bjørketjenn" />
		<tag k="natural" v="water" />
		<tag k="ssr:stedsnr" v="93842" />
	</node>
	<node id="-179657" lat="59.9228222192" lon="9.66234444536">
		<tag k="name" v="Perstangen" />
		<tag k="natural" v="cape" />
		<tag k="ssr:stedsnr" v="93633" />
	</node>
	<node id="-181699" lat="60.0820611137" lon="9.67523889564">
		<tag k="name" v="Snåketjenn" />
		<tag k="natural" v="water" />
		<tag k="ssr:stedsnr" v="761485" />
	</node>
	<node id="-181835" lat="60.0899972214" lon="9.40094443789">
		<tag k="name" v="Søre Borofjelltjenn" />
		<tag k="natural" v="water" />
		<tag k="ssr:stedsnr" v="819913" />
	</node>
	<node id="-181694" lat="60.0502805588" lon="9.4294888954">
		<tag k="name" v="Nedre Størrputt" />
		<tag k="natural" v="water" />
		<tag k="ssr:stedsnr" v="760930" />
		<tag k="water" v="pond" />
	</node>
	<node id="-179643" lat="60.1107388904" lon="9.57538611289">
		<tag k="name" v="Seterbekken" />
		<tag k="ssr:stedsnr" v="93455" />
		<tag k="waterway" v="stream" />
	</node>
	<node id="-181690" lat="60.0839666642" lon="9.48634445289">
		<tag k="name" v="Dannemark" />
		<tag k="natural" v="cape" />
		<tag k="ssr:stedsnr" v="760904" />
	</node>
	<node id="-179639" lat="60.066908333" lon="9.5425833367">
		<tag k="name" v="Bergetanguksen" />
		<tag k="natural" v="cape" />
		<tag k="ssr:stedsnr" v="93406" />
	</node>
	<node id="-181684" lat="60.0462749959" lon="9.7582333386">
		<tag k="alt_name" v="Tretjern" />
		<tag k="name" v="Tretjenn" />
		<tag k="natural" v="water" />
		<tag k="ssr:stedsnr" v="760791" />
	</node>
	<node id="-181683" lat="60.0494638917" lon="9.75257500417">
		<tag k="alt_name" v="Gullromstjern" />
		<tag k="name" v="Gullromstjenn" />
		<tag k="natural" v="water" />
		<tag k="ssr:stedsnr" v="760789" />
	</node>
	<node id="-181680" lat="60.0296583293" lon="9.78431389423">
		<tag k="name" v="Vestre Gamlesetertjennet" />
		<tag k="natural" v="water" />
		<tag k="ssr:stedsnr" v="760768" />
	</node>
	<node id="-181679" lat="60.0472583323" lon="9.62222778258">
		<tag k="name" v="Lindlykkodden" />
		<tag k="natural" v="cape" />
		<tag k="ssr:stedsnr" v="760767" />
	</node>
	<node id="-179629" lat="59.9676333339" lon="9.6259777721">
		<tag k="name" v="Tjennsbekken" />
		<tag k="ssr:stedsnr" v="93350" />
		<tag k="waterway" v="stream" />
	</node>
	<node id="-179626" lat="59.9599111096" lon="9.59576666264">
		<tag k="name" v="Spælen" />
		<tag k="place" v="island" />
		<tag k="ssr:stedsnr" v="93323" />
	</node>
	<node id="-179625" lat="59.9681111083" lon="9.59740276895">
		<tag k="name" v="Gampøya" />
		<tag k="place" v="island" />
		<tag k="ssr:stedsnr" v="93321" />
	</node>
	<node id="-179616" lat="60.0343361075" lon="9.51747778413">
		<tag k="name" v="Mellom-Sulutjenn" />
		<tag k="natural" v="water" />
		<tag k="ssr:stedsnr" v="93184" />
	</node>
	<node id="-179613" lat="60.0424999958" lon="9.52634999576">
		<tag k="name" v="Tambottjenna" />
		<tag k="natural" v="water" />
		<tag k="ssr:stedsnr" v="93167" />
	</node>
	<node id="-179611" lat="59.9860138893" lon="9.65086388693">
		<tag k="name" v="Vesle Trytetjennbekken" />
		<tag k="ssr:stedsnr" v="93134" />
		<tag k="waterway" v="stream" />
	</node>
	<node id="-181655" lat="59.8983444429" lon="9.72566110574">
		<tag k="name" v="Uttangen" />
		<tag k="natural" v="cape" />
		<tag k="ssr:stedsnr" v="760529" />
	</node>
	<node id="-181654" lat="60.044091664" lon="9.63877222759">
		<tag k="name" v="Bråtahølen" />
		<tag k="place" v="locality" />
		<tag k="ssr:stedsnr" v="760516" />
	</node>
	<node id="-179603" lat="59.9815722224" lon="9.59381110699">
		<tag k="name" v="Vesletjenn" />
		<tag k="natural" v="water" />
		<tag k="ssr:stedsnr" v="93082" />
	</node>
	<node id="-181649" lat="60.0787833342" lon="9.53978056264">
		<tag k="name" v="Dælabekken" />
		<tag k="ssr:stedsnr" v="760455" />
		<tag k="waterway" v="stream" />
	</node>
	<node id="-179599" lat="59.9909888893" lon="9.51825832786">
		<tag k="name" v="Bergøya" />
		<tag k="place" v="island" />
		<tag k="ssr:stedsnr" v="93058" />
	</node>
	<node id="-181485" lat="60.227755556" lon="9.24374167248">
		<tag k="name" v="Damtjennbekken" />
		<tag k="ssr:stedsnr" v="733247" />
		<tag k="waterway" v="stream" />
	</node>
	<node id="-179591" lat="60.1026583355" lon="9.43599444039">
		<tag k="name" v="Svarthøl" />
		<tag k="place" v="locality" />
		<tag k="ssr:stedsnr" v="92246" />
	</node>
	<node id="-179590" lat="60.148549996" lon="9.35267500792">
		<tag k="name" v="Dukelibekken" />
		<tag k="ssr:stedsnr" v="91990" />
		<tag k="waterway" v="stream" />
	</node>
	<node id="-179586" lat="60.0836861156" lon="9.36639445224">
		<tag k="name" v="Rompa" />
		<tag k="natural" v="bay" />
		<tag k="ssr:stedsnr" v="91931" />
	</node>
	<node id="-179584" lat="60.2343027784" lon="9.40863889211">
		<tag k="name" v="Sjusjøbekken" />
		<tag k="ssr:stedsnr" v="91872" />
		<tag k="waterway" v="stream" />
	</node>
	<node id="-181629" lat="60.0153111111" lon="9.60067777335">
		<tag k="name" v="Saltjenn" />
		<tag k="natural" v="water" />
		<tag k="ssr:stedsnr" v="760224" />
	</node>
	<node id="-179576" lat="60.1848500032" lon="9.4473916704">
		<tag k="name" v="Lauvlibekken" />
		<tag k="ssr:stedsnr" v="91704" />
		<tag k="waterway" v="stream" />
	</node>
	<node id="-179575" lat="60.1899416666" lon="9.43177221734">
		<tag k="name" v="Gråndalsbekken" />
		<tag k="ssr:stedsnr" v="91678" />
		<tag k="waterway" v="stream" />
	</node>
	<node id="-181622" lat="60.0091361072" lon="9.47809166343">
		<tag k="name" v="Klovotjenn" />
		<tag k="natural" v="water" />
		<tag k="ssr:stedsnr" v="760121" />
	</node>
	<node id="-179572" lat="60.1148722213" lon="9.53307223032">
		<tag k="name" v="Hertåtangane" />
		<tag k="natural" v="cape" />
		<tag k="ssr:stedsnr" v="91520" />
	</node>
	<node id="-181619" lat="60.0017361095" lon="9.51892777604">
		<tag k="name" v="Puttane" />
		<tag k="natural" v="water" />
		<tag k="ssr:stedsnr" v="760076" />
		<tag k="water" v="pond" />
	</node>
	<node id="-181618" lat="59.9924361104" lon="9.50631945159">
		<tag k="name" v="Mjovassløken" />
		<tag k="ssr:stedsnr" v="760066" />
		<tag k="waterway" v="stream" />
	</node>
	<node id="-181821" lat="60.1833222213" lon="9.42183610957">
		<tag k="name" v="Fugleviktjenn" />
		<tag k="natural" v="water" />
		<tag k="ssr:stedsnr" v="819756" />
	</node>
	<node id="-181612" lat="60.0706972265" lon="9.71935277749">
		<tag k="name" v="Krokmyrsnarbekken" />
		<tag k="ssr:stedsnr" v="760037" />
		<tag k="waterway" v="stream" />
	</node>
	<node id="-181606" lat="59.9478722184" lon="9.80877778377">
		<tag k="name" v="Storelva" />
		<tag k="ssr:stedsnr" v="759866" />
		<tag k="waterway" v="river" />
	</node>
	<node id="-179555" lat="60.1298166697" lon="9.4479777841">
		<tag k="name" v="Fosstjenn" />
		<tag k="natural" v="water" />
		<tag k="ssr:stedsnr" v="91210" />
		<tag k="water" v="pond" />
	</node>
	<node id="-179547" lat="60.1342583329" lon="9.41633888323">
		<tag k="name" v="Sagfossen" />
		<tag k="natural" v="waterfall" />
		<tag k="ssr:stedsnr" v="91077" />
	</node>
	<node id="-181592" lat="60.1652750023" lon="9.36208056301">
		<tag k="name" v="Skriufoss" />
		<tag k="natural" v="waterfall" />
		<tag k="ssr:stedsnr" v="758979" />
	</node>
	<node id="-181590" lat="60.1968944456" lon="9.31895277153">
		<tag k="name" v="Damtjenn" />
		<tag k="natural" v="water" />
		<tag k="ssr:stedsnr" v="758901" />
	</node>
	<node id="-181588" lat="60.1713416695" lon="9.38065555637">
		<tag k="name" v="Grunntjennelva" />
		<tag k="ssr:stedsnr" v="758895" />
		<tag k="waterway" v="stream" />
	</node>
	<node id="-179533" lat="60.2161333289" lon="9.27656110321">
		<tag k="name" v="Smålibekken" />
		<tag k="ssr:stedsnr" v="90462" />
		<tag k="waterway" v="stream" />
	</node>
	<node id="-179530" lat="60.1214194471" lon="9.28964166441">
		<tag k="name" v="Holmevasselva" />
		<tag k="ssr:stedsnr" v="90348" />
		<tag k="waterway" v="stream" />
	</node>
	<node id="-181574" lat="60.1884083352" lon="9.4075222284">
		<tag k="name" v="Soletjennet" />
		<tag k="natural" v="water" />
		<tag k="ssr:stedsnr" v="758746" />
	</node>
	<node id="-179523" lat="60.3194583299" lon="9.16676389081">
		<tag k="name" v="Fjellbekk" />
		<tag k="ssr:stedsnr" v="90031" />
		<tag k="waterway" v="stream" />
	</node>
	<node id="-179522" lat="60.0121694473" lon="9.54478055648">
		<tag k="name" v="Rolsrudhølen" />
		<tag k="place" v="locality" />
		<tag k="ssr:stedsnr" v="83892" />
	</node>
	<node id="-179519" lat="60.3490777739" lon="9.17907778039">
		<tag k="name" v="Tjennleinebekken" />
		<tag k="ssr:stedsnr" v="82204" />
		<tag k="waterway" v="stream" />
	</node>
	<node id="-179516" lat="60.2850749999" lon="9.1853444412">
		<tag k="name" v="Flåtåtjenn" />
		<tag k="natural" v="water" />
		<tag k="ssr:stedsnr" v="67522" />
	</node>
	<node id="-181563" lat="60.2460499997" lon="9.42863332467">
		<tag k="name" v="Kjøla" />
		<tag k="ssr:stedsnr" v="758239" />
		<tag k="waterway" v="stream" />
	</node>
	<node id="-179514" lat="60.3218055576" lon="9.18868055687">
		<tag k="name" v="Haglebuelva" />
		<tag k="ssr:stedsnr" v="67467" />
		<tag k="waterway" v="river" />
	</node>
	<node id="-179513" lat="60.3155055522" lon="9.17207777578">
		<tag k="name" v="Slokobekken" />
		<tag k="ssr:stedsnr" v="67466" />
		<tag k="waterway" v="stream" />
	</node>
	<node id="-179512" lat="60.3544083378" lon="9.16708055913">
		<tag k="name" v="Nilsetjenn" />
		<tag k="natural" v="water" />
		<tag k="ssr:stedsnr" v="67396" />
	</node>
	<node id="-181556" lat="60.2450249963" lon="9.22691110792">
		<tag k="name" v="Bølestjennbekken" />
		<tag k="ssr:stedsnr" v="758197" />
		<tag k="waterway" v="stream" />
	</node>
	<node id="-179507" lat="60.2945000041" lon="9.28964999127">
		<tag k="name" v="Sandvassbekken" />
		<tag k="ssr:stedsnr" v="67108" />
		<tag k="waterway" v="stream" />
	</node>
	<node id="-179502" lat="60.312986109" lon="9.2511972234">
		<tag k="name" v="Skodøla" />
		<tag k="ssr:stedsnr" v="67056" />
		<tag k="waterway" v="stream" />
	</node>
	<node id="-182263" lat="60.0092944432" lon="9.6101666717">
		<tag k="name" v="Løken" />
		<tag k="natural" v="water" />
		<tag k="ssr:stedsnr" v="942208" />
		<tag k="water" v="lake" />
	</node>
	<node id="-179498" lat="60.1476694458" lon="9.30980277708">
		<tag k="name" v="Gammalsetertjenn" />
		<tag k="natural" v="water" />
		<tag k="ssr:stedsnr" v="66387" />
	</node>
	<node id="-179497" lat="60.252722222" lon="9.35701667157">
		<tag k="name" v="Åselva" />
		<tag k="ssr:stedsnr" v="66314" />
		<tag k="waterway" v="stream" />
	</node>
	<node id="-181537" lat="60.3219361086" lon="9.15880277714">
		<tag k="name" v="Skarbekken" />
		<tag k="ssr:stedsnr" v="758022" />
		<tag k="waterway" v="stream" />
	</node>
	<node id="-181529" lat="60.1886944489" lon="9.22370834203">
		<tag k="name" v="Langlibekken" />
		<tag k="ssr:stedsnr" v="757204" />
		<tag k="waterway" v="stream" />
	</node>
	<node id="-179478" lat="60.2034534445" lon="9.44675708053">
		<tag k="name" v="Hornsjøen" />
		<tag k="natural" v="water" />
		<tag k="ssr:stedsnr" v="65475" />
		<tag k="water" v="lake" />
	</node>
	<node id="-179475" lat="60.1775444441" lon="9.45161666568">
		<tag k="name" v="Nedre Bergstjenn" />
		<tag k="natural" v="water" />
		<tag k="ssr:stedsnr" v="65443" />
	</node>
	<node id="-179473" lat="60.1795944449" lon="9.3431805488">
		<tag k="name" v="Gørrtjenn" />
		<tag k="natural" v="water" />
		<tag k="ssr:stedsnr" v="65425" />
	</node>
	<node id="-181520" lat="60.0218277765" lon="9.74782499805">
		<tag k="name" v="Halvfarbekken" />
		<tag k="ssr:stedsnr" v="750341" />
		<tag k="waterway" v="stream" />
	</node>
	<node id="-179471" lat="60.1427916677" lon="9.53245277835">
		<tag k="name" v="Albjørktjenn" />
		<tag k="natural" v="water" />
		<tag k="ssr:stedsnr" v="65413" />
	</node>
	<node id="-179470" lat="60.14124722" lon="9.30869167048">
		<tag k="name" v="Trytetjenn" />
		<tag k="natural" v="water" />
		<tag k="ssr:stedsnr" v="65405" />
	</node>
	<node id="-179464" lat="60.0885583375" lon="9.65616110949">
		<tag k="name" v="Vardåstjenn" />
		<tag k="natural" v="water" />
		<tag k="ssr:stedsnr" v="66838" />
	</node>
	<node id="-179463" lat="60.0945277782" lon="9.39851945275">
		<tag k="alt_name" v="Nørste Borofjelltjenn" />
		<tag k="name" v="Borofjelltjenn" />
		<tag k="natural" v="water" />
		<tag k="ssr:stedsnr" v="65109" />
	</node>
	<node id="-179462" lat="60.0950472225" lon="9.51059999729">
		<tag k="alt_name" v="Sæterbekken" />
		<tag k="name" v="Seterbekken" />
		<tag k="ssr:stedsnr" v="65100" />
		<tag k="waterway" v="stream" />
	</node>
	<node id="-179461" lat="60.0895916704" lon="9.42236944293">
		<tag k="name" v="Svartetjenn" />
		<tag k="natural" v="water" />
		<tag k="ssr:stedsnr" v="65093" />
	</node>
	<node id="-179459" lat="60.0633416673" lon="9.39689722932">
		<tag k="alt_name" v="Sekstjenna" />
		<tag k="name" v="Sekstjenn" />
		<tag k="natural" v="water" />
		<tag k="ssr:stedsnr" v="65062" />
	</node>
	<node id="-179458" lat="60.0474499974" lon="9.44118611">
		<tag k="name" v="Litjenn" />
		<tag k="natural" v="water" />
		<tag k="ssr:stedsnr" v="65048" />
	</node>
	<node id="-179457" lat="60.0225500014" lon="9.50187777824">
		<tag k="alt_name" v="Bukketjenna" />
		<tag k="name" v="Bukketjenn" />
		<tag k="natural" v="water" />
		<tag k="ssr:stedsnr" v="65028" />
	</node>
	<node id="-181503" lat="60.2531083305" lon="9.31910000675">
		<tag k="name" v="Skallandsbekken" />
		<tag k="ssr:stedsnr" v="734099" />
		<tag k="waterway" v="stream" />
	</node>
	<node id="-181498" lat="60.0734527821" lon="9.63651388477">
		<tag k="name" v="Svarttjenn" />
		<tag k="natural" v="water" />
		<tag k="ssr:stedsnr" v="733856" />
	</node>
	<node id="-179449" lat="60.2475861083" lon="9.25435277824">
		<tag k="alt_name" v="Brennebekken" />
		<tag k="name" v="Brennebekk" />
		<tag k="ssr:stedsnr" v="65262" />
		<tag k="waterway" v="stream" />
	</node>
	<node id="-181801" lat="60.1332361095" lon="9.35292776901">
		<tag k="name" v="Olhovd" />
		<tag k="natural" v="water" />
		<tag k="ssr:stedsnr" v="819109" />
		<tag k="water" v="pond" />
	</node>
	<node id="-181491" lat="60.1680916705" lon="9.47259444797">
		<tag k="name" v="Grunntjenn" />
		<tag k="natural" v="water" />
		<tag k="ssr:stedsnr" v="733420" />
	</node>
	<node id="-181490" lat="60.1458777794" lon="9.45417221961">
		<tag k="name" v="Åmotelva" />
		<tag k="ssr:stedsnr" v="733388" />
		<tag k="waterway" v="stream" />
	</node>
	<node id="-179441" lat="60.0788583323" lon="9.51019443755">
		<tag k="name" v="Helleklopp" />
		<tag k="place" v="locality" />
		<tag k="ssr:stedsnr" v="32909" />
	</node>
	<node id="-181488" lat="60.2545245093" lon="9.42718060857">
		<tag k="name" v="Gamlesetervatnet" />
		<tag k="natural" v="water" />
		<tag k="ssr:stedsnr" v="733289" />
		<tag k="water" v="lake" />
	</node>
	<node id="-179437" lat="60.0253055566" lon="9.79181111718">
		<tag k="alt_name" v="Store Dylletjern" />
		<tag k="name" v="Store Dylletjenn" />
		<tag k="natural" v="water" />
		<tag k="ssr:stedsnr" v="32763" />
	</node>
	<node id="-181484" lat="60.0910333319" lon="9.49519445089">
		<tag k="name" v="Mikkeltjenn" />
		<tag k="natural" v="water" />
		<tag k="ssr:stedsnr" v="733141" />
	</node>
	<node id="-181482" lat="60.0993638887" lon="9.58895832554">
		<tag k="name" v="Bekartjenn" />
		<tag k="natural" v="water" />
		<tag k="ssr:stedsnr" v="733136" />
	</node>
	<node id="-181480" lat="60.0737666674" lon="9.48584721956">
		<tag k="name" v="Strandefjorden" />
		<tag k="natural" v="water" />
		<tag k="ssr:stedsnr" v="733108" />
	</node>
	<node id="-181798" lat="60.299727777" lon="9.22471111277">
		<tag k="name" v="Den lange lykkja" />
		<tag k="place" v="locality" />
		<tag k="ssr:stedsnr" v="819094" />
	</node>
	<node id="-181473" lat="59.985891668" lon="9.78344999466">
		<tag k="name" v="Putten" />
		<tag k="natural" v="water" />
		<tag k="ssr:stedsnr" v="732950" />
	</node>
	<node id="-179424" lat="59.9284222267" lon="9.67834999887">
		<tag k="name" v="Langtjennbekken" />
		<tag k="ssr:stedsnr" v="32674" />
		<tag k="waterway" v="stream" />
	</node>
	<node id="-181460" lat="59.9811805543" lon="9.83245555204">
		<tag k="name" v="Gørrtjenn" />
		<tag k="natural" v="water" />
		<tag k="ssr:stedsnr" v="732805" />
	</node>
	<node id="-181458" lat="59.9705138921" lon="9.84953888619">
		<tag k="name" v="Risgardtjenn" />
		<tag k="natural" v="water" />
		<tag k="ssr:stedsnr" v="732786" />
	</node>
	<node id="-179405" lat="60.1123416664" lon="9.61516388308">
		<tag k="name" v="Røvsåputtane" />
		<tag k="natural" v="water" />
		<tag k="ssr:stedsnr" v="32509" />
		<tag k="water" v="pond" />
	</node>
	<node id="-181450" lat="60.1287583342" lon="9.27184445307">
		<tag k="alt_name" v="Vikvatnet" />
		<tag k="name" v="Vikvatn" />
		<tag k="natural" v="water" />
		<tag k="ssr:stedsnr" v="732382" />
	</node>
	<node id="-181449" lat="59.9812694981" lon="9.51023712444">
		<tag k="name" v="Storøya" />
		<tag k="natural" v="cape" />
		<tag k="ssr:stedsnr" v="732334" />
	</node>
	<node id="-181447" lat="60.2276416705" lon="9.22938333645">
		<tag k="name" v="Damtjenn" />
		<tag k="natural" v="water" />
		<tag k="ssr:stedsnr" v="732284" />
	</node>
	<node id="-179396" lat="60.119280559" lon="9.54547499945">
		<tag k="name" v="Flåbekken" />
		<tag k="ssr:stedsnr" v="32424" />
		<tag k="waterway" v="stream" />
	</node>
	<node id="-181443" lat="60.0224161801" lon="9.41300355275">
		<tag k="name" v="Øgnevatn" />
		<tag k="natural" v="water" />
		<tag k="old_name" v="Öine - V." />
		<tag k="ssr:stedsnr" v="732040" />
		<tag k="water" v="lake" />
	</node>
	<node id="-179393" lat="60.0570722235" lon="9.53924166346">
		<tag k="name" v="Svartebergvika" />
		<tag k="natural" v="bay" />
		<tag k="ssr:stedsnr" v="32410" />
	</node>
	<node id="-179389" lat="59.9647500039" lon="9.59696111676">
		<tag k="alt_name" v="Pøllvika" />
		<tag k="name" v="Pollvika" />
		<tag k="natural" v="bay" />
		<tag k="ssr:stedsnr" v="32386" />
	</node>
	<node id="-181432" lat="60.0984999999" lon="9.65228334221">
		<tag k="name" v="Aurevika" />
		<tag k="natural" v="bay" />
		<tag k="ssr:stedsnr" v="700914" />
	</node>
	<node id="-181431" lat="60.0729722204" lon="9.43189166493">
		<tag k="name" v="Gampetjenn" />
		<tag k="natural" v="water" />
		<tag k="ssr:stedsnr" v="700913" />
	</node>
	<node id="-179380" lat="60.1015111094" lon="9.45501666071">
		<tag k="name" v="Vesleelva" />
		<tag k="ssr:stedsnr" v="32286" />
		<tag k="waterway" v="stream" />
	</node>
	<node id="-181427" lat="60.0498138876" lon="9.71760000736">
		<tag k="name" v="Løkane" />
		<tag k="natural" v="water" />
		<tag k="ssr:stedsnr" v="700801" />
		<tag k="water" v="lake" />
	</node>
	<node id="-180281" lat="60.1002999976" lon="9.44137499173">
		<tag k="name" v="Ulbergselva" />
		<tag k="ssr:stedsnr" v="429384" />
		<tag k="waterway" v="stream" />
	</node>
	<node id="-181414" lat="60.0725555554" lon="9.525894444">
		<tag k="name" v="Bekketangen" />
		<tag k="natural" v="cape" />
		<tag k="ssr:stedsnr" v="700589" />
	</node>
	<node id="-179365" lat="60.1183583343" lon="9.49581666291">
		<tag k="name" v="Djupendalsbekken" />
		<tag k="ssr:stedsnr" v="31437" />
		<tag k="waterway" v="stream" />
	</node>
	<node id="-181412" lat="60.1095611143" lon="9.59612500302">
		<tag k="name" v="Svarteputt" />
		<tag k="natural" v="water" />
		<tag k="ssr:stedsnr" v="700565" />
		<tag k="water" v="pond" />
	</node>
	<node id="-179363" lat="60.1318444405" lon="9.48872778004">
		<tag k="name" v="Svartetjenn" />
		<tag k="natural" v="water" />
		<tag k="ssr:stedsnr" v="31399" />
	</node>
	<node id="-179362" lat="60.1400194456" lon="9.50084444351">
		<tag k="name" v="Fugletjenn" />
		<tag k="natural" v="water" />
		<tag k="ssr:stedsnr" v="31394" />
	</node>
	<node id="-179360" lat="60.1355972263" lon="9.5121055591">
		<tag k="name" v="Dælatjenn" />
		<tag k="natural" v="water" />
		<tag k="ssr:stedsnr" v="31379" />
	</node>
	<node id="-181407" lat="59.96216667" lon="9.79699999164">
		<tag k="name" v="Sandbekken" />
		<tag k="ssr:stedsnr" v="700479" />
		<tag k="waterway" v="stream" />
	</node>
	<node id="-179357" lat="60.0871277766" lon="9.42046112002">
		<tag k="name" v="Bekartjenn" />
		<tag k="natural" v="water" />
		<tag k="ssr:stedsnr" v="31336" />
	</node>
	<node id="-179352" lat="60.2173916667" lon="9.4659888803">
		<tag k="name" v="Kannarmyrtjenn" />
		<tag k="natural" v="water" />
		<tag k="old_name" v="Kannarimyrtjenn" />
		<tag k="ssr:stedsnr" v="31529" />
	</node>
	<node id="-179344" lat="60.2752805536" lon="9.21447221706">
		<tag k="name" v="Dipilan" />
		<tag k="natural" v="water" />
		<tag k="ssr:stedsnr" v="30800" />
		<tag k="water" v="pond" />
	</node>
	<node id="-181390" lat="60.0334444442" lon="9.52598611439">
		<tag k="name" v="Puttane" />
		<tag k="natural" v="water" />
		<tag k="ssr:stedsnr" v="700245" />
		<tag k="water" v="pond" />
	</node>
	<node id="-181389" lat="60.0515194423" lon="9.47853332542">
		<tag k="name" v="Sløyfebekk" />
		<tag k="ssr:stedsnr" v="700232" />
		<tag k="waterway" v="stream" />
	</node>
	<node id="-181385" lat="59.9958888846" lon="9.59167499567">
		<tag k="name" v="Tretjennbekken" />
		<tag k="ssr:stedsnr" v="700136" />
		<tag k="waterway" v="stream" />
	</node>
	<node id="-181383" lat="60.0126027758" lon="9.50491943573">
		<tag k="name" v="Mellomgardsbekken" />
		<tag k="ssr:stedsnr" v="700128" />
		<tag k="waterway" v="stream" />
	</node>
	<node id="-179333" lat="60.1003583367" lon="9.50556666216">
		<tag k="name" v="Aureputten" />
		<tag k="natural" v="water" />
		<tag k="ssr:stedsnr" v="30434" />
		<tag k="water" v="pond" />
	</node>
	<node id="-181782" lat="60.1638138854" lon="9.2121444518">
		<tag k="name" v="Gunnarodden" />
		<tag k="natural" v="cape" />
		<tag k="ssr:stedsnr" v="818126" />
	</node>
	<node id="-181378" lat="59.9987527734" lon="9.46907500391">
		<tag k="name" v="Rundhøl" />
		<tag k="place" v="locality" />
		<tag k="ssr:stedsnr" v="700082" />
	</node>
	<node id="-181377" lat="60.0026583327" lon="9.54314167148">
		<tag k="name" v="Kanelesbekken" />
		<tag k="ssr:stedsnr" v="700075" />
		<tag k="waterway" v="stream" />
	</node>
	<node id="-181371" lat="60.06321667" lon="9.59206666218">
		<tag k="name" v="Svarteputt" />
		<tag k="natural" v="water" />
		<tag k="ssr:stedsnr" v="699728" />
		<tag k="water" v="pond" />
	</node>
	<node id="-179313" lat="60.1115" lon="9.32465278232">
		<tag k="name" v="Vestelva" />
		<tag k="ssr:stedsnr" v="30033" />
		<tag k="waterway" v="stream" />
	</node>
	<node id="-179311" lat="60.1146805544" lon="9.34202776951">
		<tag k="name" v="Tangen" />
		<tag k="natural" v="cape" />
		<tag k="ssr:stedsnr" v="30030" />
	</node>
	<node id="-179308" lat="60.1919527818" lon="9.27363610739">
		<tag k="name" v="Uksetjenn" />
		<tag k="natural" v="water" />
		<tag k="ssr:stedsnr" v="29669" />
	</node>
	<node id="-179306" lat="60.2191333368" lon="9.28136944172">
		<tag k="name" v="Heimseterbekken" />
		<tag k="ssr:stedsnr" v="29481" />
		<tag k="waterway" v="stream" />
	</node>
	<node id="-179304" lat="60.1399638854" lon="9.2735361173">
		<tag k="name" v="Rumpetjenn" />
		<tag k="natural" v="water" />
		<tag k="ssr:stedsnr" v="29385" />
	</node>
	<node id="-179302" lat="60.0990700048" lon="9.29140609844">
		<tag k="name" v="Øvre Øytjenn" />
		<tag k="natural" v="water" />
		<tag k="ssr:stedsnr" v="29356" />
	</node>
	<node id="-181349" lat="60.2262638914" lon="9.46559166772">
		<tag k="name" v="Tussetjenn" />
		<tag k="natural" v="water" />
		<tag k="ssr:stedsnr" v="698500" />
	</node>
	<node id="-179300" lat="60.1993000041" lon="9.27417499977">
		<tag k="name" v="Angerstjenn" />
		<tag k="natural" v="water" />
		<tag k="ssr:stedsnr" v="29404" />
	</node>
	<node id="-179299" lat="60.1749055591" lon="9.24088888127">
		<tag k="name" v="Breiløk" />
		<tag k="natural" v="water" />
		<tag k="ssr:stedsnr" v="29193" />
	</node>
	<node id="-179292" lat="60.1553361122" lon="9.22279166716">
		<tag k="name" v="Trollodden" />
		<tag k="natural" v="cape" />
		<tag k="ssr:stedsnr" v="29152" />
	</node>
	<node id="-179291" lat="60.1611222206" lon="9.21189722093">
		<tag k="name" v="Nedregardsøya" />
		<tag k="place" v="island" />
		<tag k="ssr:stedsnr" v="29149" />
	</node>
	<node id="-179290" lat="60.166363891" lon="9.23479722472">
		<tag k="name" v="Pråmhuselva" />
		<tag k="ssr:stedsnr" v="29136" />
		<tag k="waterway" v="stream" />
	</node>
	<node id="-179288" lat="60.1718138904" lon="9.24731388154">
		<tag k="name" v="Kattenbergvika" />
		<tag k="natural" v="bay" />
		<tag k="ssr:stedsnr" v="29122" />
	</node>
	<node id="-181319" lat="60.2648638921" lon="9.19883611195">
		<tag k="name" v="Snøfonnskartjenn" />
		<tag k="natural" v="water" />
		<tag k="ssr:stedsnr" v="697793" />
	</node>
	<node id="-179269" lat="60.3199249968" lon="9.13535556153">
		<tag k="alt_name" v="Holmevatnet" />
		<tag k="name" v="Store Holmevatn" />
		<tag k="natural" v="water" />
		<tag k="ssr:stedsnr" v="6460" />
		<tag k="water" v="lake" />
	</node>
	<node id="-181315" lat="60.2937111135" lon="9.26309445061">
		<tag k="name" v="Snårfossen" />
		<tag k="natural" v="waterfall" />
		<tag k="ssr:stedsnr" v="697605" />
	</node>
	<node id="-181771" lat="59.9982555554" lon="9.52391944529">
		<tag k="name" v="Eirputten" />
		<tag k="natural" v="water" />
		<tag k="ssr:stedsnr" v="811327" />
		<tag k="water" v="pond" />
	</node>
	<node id="-179264" lat="60.3015111092" lon="9.3825055615">
		<tag k="name" v="Neverfantetjenn" />
		<tag k="natural" v="water" />
		<tag k="ssr:stedsnr" v="6092" />
	</node>
	<node id="-179263" lat="60.3202500037" lon="9.34032500252">
		<tag k="name" v="Fiskeløysingen" />
		<tag k="natural" v="water" />
		<tag k="ssr:stedsnr" v="6062" />
	</node>
	<node id="-179260" lat="60.3125249978" lon="9.32922499157">
		<tag k="name" v="Langevatnet" />
		<tag k="natural" v="water" />
		<tag k="ssr:stedsnr" v="6042" />
	</node>
	<node id="-179259" lat="60.2134555523" lon="9.20069443879">
		<tag k="alt_name" v="Trytetjenn" />
		<tag k="name" v="Trytetjenna" />
		<tag k="natural" v="water" />
		<tag k="ssr:stedsnr" v="5902" />
	</node>
	<node id="-181306" lat="60.1171055546" lon="9.30092778188">
		<tag k="name" v="Eitermigen" />
		<tag k="ssr:stedsnr" v="697367" />
		<tag k="waterway" v="stream" />
	</node>
	<node id="-179254" lat="60.1647416623" lon="9.38193332741">
		<tag k="alt_name" v="Grønhovdselva" />
		<tag k="name" v="Grønhovdelva" />
		<tag k="ssr:stedsnr" v="5439" />
		<tag k="waterway" v="stream" />
	</node>
	<node id="-181301" lat="60.1631055548" lon="9.22491388025">
		<tag k="name" v="Åsantangen" />
		<tag k="natural" v="cape" />
		<tag k="ssr:stedsnr" v="697164" />
	</node>
	<node id="-179251" lat="60.1026861084" lon="9.29236389431">
		<tag k="name" v="Nedre Øytjenn" />
		<tag k="natural" v="water" />
		<tag k="ssr:stedsnr" v="5390" />
	</node>
	<node id="-181297" lat="60.3077749966" lon="9.29796666872">
		<tag k="name" v="Løken" />
		<tag k="ssr:stedsnr" v="697143" />
		<tag k="waterway" v="stream" />
	</node>
	<node id="-179248" lat="60.2364916647" lon="9.31448610296">
		<tag k="name" v="Tjennåsvatnet" />
		<tag k="natural" v="water" />
		<tag k="ssr:stedsnr" v="5297" />
	</node>
	<node id="-179242" lat="60.0967138896" lon="9.3210166681">
		<tag k="name" v="Vestmannåa" />
		<tag k="ssr:stedsnr" v="5108" />
		<tag k="waterway" v="stream" />
	</node>
	<node id="-179236" lat="59.981072224" lon="9.63029999946">
		<tag k="name" v="Svarttjenn" />
		<tag k="natural" v="water" />
		<tag k="ssr:stedsnr" v="4953" />
	</node>
	<node id="-181281" lat="60.1473249971" lon="9.46420278188">
		<tag k="name" v="Tangebekken" />
		<tag k="ssr:stedsnr" v="698328" />
		<tag k="waterway" v="stream" />
	</node>
	<node id="-179231" lat="60.1619916635" lon="9.21334167174">
		<tag k="alt_name" v="Storvatnet" />
		<tag k="name" v="Storvatn" />
		<tag k="natural" v="water" />
		<tag k="ssr:stedsnr" v="4606" />
	</node>
	<node id="-181765" lat="60.2994555526" lon="9.38693056038">
		<tag k="name" v="Vesletjenn" />
		<tag k="natural" v="water" />
		<tag k="ssr:stedsnr" v="795110" />
	</node>
	<node id="-179227" lat="60.1055138875" lon="9.31243332838">
		<tag k="name" v="Bråtatjenn" />
		<tag k="natural" v="water" />
		<tag k="ssr:stedsnr" v="4391" />
	</node>
	<node id="-181274" lat="60.2584055538" lon="9.36513332666">
		<tag k="name" v="Bergsbekken" />
		<tag k="ssr:stedsnr" v="674906" />
		<tag k="waterway" v="stream" />
	</node>
	<node id="-179225" lat="60.1167777747" lon="9.34585554984">
		<tag k="name" v="Nedalstjennet" />
		<tag k="natural" v="water" />
		<tag k="ssr:stedsnr" v="4376" />
		<tag k="water" v="lake" />
	</node>
	<node id="-181272" lat="60.2586500044" lon="9.19949445332">
		<tag k="alt_name" v="Urdetjenn" />
		<tag k="name" v="Uletjenn" />
		<tag k="natural" v="water" />
		<tag k="ssr:stedsnr" v="674290" />
	</node>
	<node id="-181271" lat="60.2705666651" lon="9.42219999909">
		<tag k="name" v="Ådalsbekken" />
		<tag k="ssr:stedsnr" v="674101" />
		<tag k="waterway" v="stream" />
	</node>
	<node id="-181270" lat="60.288777777" lon="9.28680834048">
		<tag k="alt_name" v="Kleivselva" />
		<tag k="name" v="Sandvassbekken" />
		<tag k="ssr:stedsnr" v="674096" />
		<tag k="waterway" v="stream" />
	</node>
	<node id="-179221" lat="60.0684561417" lon="9.57804998522">
		<tag k="name" v="Bergtjenn" />
		<tag k="natural" v="water" />
		<tag k="ssr:stedsnr" v="4089" />
	</node>
	<node id="-181268" lat="60.3337083325" lon="9.30696666206">
		<tag k="name" v="Tussetjenn" />
		<tag k="natural" v="water" />
		<tag k="ssr:stedsnr" v="674050" />
	</node>
	<node id="-179219" lat="60.0667638933" lon="9.48243055195">
		<tag k="name" v="Strandeelva" />
		<tag k="ssr:stedsnr" v="4082" />
		<tag k="waterway" v="stream" />
	</node>
	<node id="-179218" lat="59.9687310364" lon="9.53822360936">
		<tag k="name" v="Mjovatnet" />
		<tag k="natural" v="water" />
		<tag k="ssr:stedsnr" v="428300" />
	</node>
	<node id="-179217" lat="59.9503407881" lon="9.60382872402">
		<tag k="name" v="Gislegardstjennet" />
		<tag k="natural" v="water" />
		<tag k="ssr:stedsnr" v="914784" />
	</node>
	<node id="-179216" lat="60.032602782" lon="9.40687222955">
		<tag k="name" v="Rebbe" />
		<tag k="natural" v="water" />
		<tag k="ssr:stedsnr" v="672053" />
	</node>
	<node id="-179215" lat="60.0413610577" lon="9.39210523789">
		<tag k="name" v="Grunntjønn" />
		<tag k="natural" v="water" />
		<tag k="ssr:stedsnr" v="793055" />
		<tag k="water" v="lake" />
	</node>
	<node id="-181262" lat="60.2896888869" lon="9.39600832666">
		<tag k="name" v="Istjennbekken" />
		<tag k="ssr:stedsnr" v="673080" />
		<tag k="waterway" v="stream" />
	</node>
	<node id="-181260" lat="60.295038887" lon="9.36475555255">
		<tag k="name" v="Grunntjenn" />
		<tag k="natural" v="water" />
		<tag k="ssr:stedsnr" v="673076" />
	</node>
	<node id="-179209" lat="59.8980417366" lon="9.72704115533">
		<tag k="name" v="Skårfossdammen" />
		<tag k="ssr:stedsnr" v="694393" />
		<tag k="waterway" v="dam" />
	</node>
	<node id="-181255" lat="60.2025999976" lon="9.18949166892">
		<tag k="alt_name" v="Nilstjenna" />
		<tag k="name" v="Nilstjenn" />
		<tag k="natural" v="water" />
		<tag k="ssr:stedsnr" v="672929" />
	</node>
	<node id="-181253" lat="60.0559194421" lon="9.66256666981">
		<tag k="alt_name" v="Kvennbergtjenn" />
		<tag k="name" v="Kvernbergtjennet" />
		<tag k="natural" v="water" />
		<tag k="ssr:stedsnr" v="672888" />
	</node>
	<node id="-181249" lat="60.1942779403" lon="9.30321874088">
		<tag k="name" v="Skatjenn" />
		<tag k="natural" v="water" />
		<tag k="ssr:stedsnr" v="672449" />
	</node>
	<node id="-181244" lat="60.1081444401" lon="9.49150000174">
		<tag k="alt_name" v="Igletjenn" />
		<tag k="name" v="Igletjennet" />
		<tag k="natural" v="water" />
		<tag k="ssr:stedsnr" v="672378" />
	</node>
	<node id="-179192" lat="60.080963891" lon="9.42443610771">
		<tag k="name" v="Langetjenn" />
		<tag k="natural" v="water" />
		<tag k="ssr:stedsnr" v="882864" />
	</node>
	<node id="-181239" lat="60.1231138849" lon="9.37686388072">
		<tag k="name" v="Nedalselva" />
		<tag k="ssr:stedsnr" v="672346" />
		<tag k="waterway" v="river" />
	</node>
	<node id="-181237" lat="60.236172224" lon="9.36141945314">
		<tag k="name" v="Sløgja" />
		<tag k="ssr:stedsnr" v="672263" />
		<tag k="waterway" v="stream" />
	</node>
	<node id="-181233" lat="60.2217250014" lon="9.42037499947">
		<tag k="name" v="Kjøla" />
		<tag k="ssr:stedsnr" v="672241" />
		<tag k="waterway" v="stream" />
	</node>
	<node id="-181231" lat="60.23095278" lon="9.28033611473">
		<tag k="name" v="Nastadbekken" />
		<tag k="ssr:stedsnr" v="672236" />
		<tag k="waterway" v="stream" />
	</node>
	<node id="-179179" lat="60.030447223" lon="9.78780834166">
		<tag k="name" v="Østre Gamlesetertjennet" />
		<tag k="natural" v="water" />
		<tag k="ssr:stedsnr" v="882691" />
	</node>
	<node id="-181225" lat="60.0644861102" lon="9.38736666085">
		<tag k="name" v="Rognetjenna" />
		<tag k="natural" v="water" />
		<tag k="ssr:stedsnr" v="672084" />
	</node>
	<node id="-181217" lat="59.9338416669" lon="9.66946945122">
		<tag k="name" v="Langtjenn" />
		<tag k="natural" v="water" />
		<tag k="ssr:stedsnr" v="671872" />
	</node>
	<node id="-181215" lat="59.9727249995" lon="9.69172776961">
		<tag k="name" v="Grima" />
		<tag k="ssr:stedsnr" v="671803" />
		<tag k="waterway" v="river" />
	</node>
	<node id="-181212" lat="59.9943500004" lon="9.49669166519">
		<tag k="name" v="Langhølen" />
		<tag k="place" v="locality" />
		<tag k="ssr:stedsnr" v="671258" />
	</node>
	<node id="-179162" lat="59.9495694465" lon="9.74085556413">
		<tag k="name" v="Løken" />
		<tag k="ssr:stedsnr" v="882507" />
		<tag k="waterway" v="stream" />
	</node>
	<node id="-181207" lat="60.0217472253" lon="9.78118611593">
		<tag k="name" v="Vesle Rugåkertjenn" />
		<tag k="natural" v="water" />
		<tag k="ssr:stedsnr" v="639979" />
	</node>
	<node id="-181204" lat="60.0927055576" lon="9.65173332894">
		<tag k="name" v="Pøllen" />
		<tag k="natural" v="bay" />
		<tag k="ssr:stedsnr" v="639911" />
	</node>
	<node id="-179153" lat="59.9516611073" lon="9.69813055657">
		<tag k="name" v="Løken" />
		<tag k="natural" v="water" />
		<tag k="ssr:stedsnr" v="882430" />
		<tag k="water" v="lake" />
	</node>
	<node id="-179150" lat="59.9406583297" lon="9.68347778448">
		<tag k="name" v="Gørrtjenn" />
		<tag k="natural" v="water" />
		<tag k="ssr:stedsnr" v="882423" />
	</node>
	<node id="-181192" lat="60.0560388864" lon="9.56561388078">
		<tag k="name" v="Gvemsnes" />
		<tag k="natural" v="cape" />
		<tag k="ssr:stedsnr" v="639383" />
	</node>
	<node id="-181750" lat="60.2381833304" lon="9.18638611871">
		<tag k="alt_name" v="Illtanntjenn" />
		<tag k="name" v="Illtanntjenna" />
		<tag k="natural" v="water" />
		<tag k="ssr:stedsnr" v="793990" />
	</node>
	<node id="-181181" lat="60.02603889" lon="9.47927499722">
		<tag k="name" v="Holmentjenna" />
		<tag k="natural" v="water" />
		<tag k="ssr:stedsnr" v="639168" />
	</node>
	<node id="-181177" lat="59.9851277737" lon="9.52036944007">
		<tag k="name" v="Brannbråtavika" />
		<tag k="natural" v="bay" />
		<tag k="ssr:stedsnr" v="639099" />
	</node>
	<node id="-179128" lat="60.0992138911" lon="9.46502500073">
		<tag k="name" v="Ulvesprang" />
		<tag k="natural" v="cape" />
		<tag k="ssr:stedsnr" v="882286" />
	</node>
	<node id="-181175" lat="60.0018166623" lon="9.53258888835">
		<tag k="name" v="Plasseodden" />
		<tag k="natural" v="cape" />
		<tag k="ssr:stedsnr" v="639079" />
	</node>
	<node id="-179125" lat="60.0189499991" lon="9.57803056422">
		<tag k="name" v="Milebråtabekken" />
		<tag k="ssr:stedsnr" v="882221" />
		<tag k="waterway" v="stream" />
	</node>
	<node id="-179122" lat="60.0352111126" lon="9.52210000564">
		<tag k="name" v="Putten" />
		<tag k="natural" v="water" />
		<tag k="ssr:stedsnr" v="882190" />
		<tag k="water" v="pond" />
	</node>
	<node id="-179121" lat="60.0572722198" lon="9.51518888295">
		<tag k="name" v="Lusåsbekken" />
		<tag k="ssr:stedsnr" v="882166" />
		<tag k="waterway" v="stream" />
	</node>
	<node id="-179119" lat="59.9880361147" lon="9.51073889109">
		<tag k="name" v="Grimesundodden" />
		<tag k="natural" v="cape" />
		<tag k="ssr:stedsnr" v="882133" />
	</node>
	<node id="-181164" lat="59.9931166623" lon="9.80719166077">
		<tag k="name" v="Illdalstjenn" />
		<tag k="natural" v="water" />
		<tag k="ssr:stedsnr" v="638814" />
	</node>
	<node id="-179115" lat="59.9802055573" lon="9.51117499334">
		<tag k="name" v="Gampevika" />
		<tag k="natural" v="bay" />
		<tag k="ssr:stedsnr" v="882064" />
	</node>
	<node id="-181161" lat="60.0476555534" lon="9.75445833166">
		<tag k="alt_name" v="Tretjern" />
		<tag k="name" v="Tretjenn" />
		<tag k="natural" v="water" />
		<tag k="ssr:stedsnr" v="638800" />
	</node>
	<node id="-179112" lat="59.9934694418" lon="9.51273332897">
		<tag k="name" v="Brannbråtatjenn" />
		<tag k="natural" v="water" />
		<tag k="ssr:stedsnr" v="882052" />
	</node>
	<node id="-179111" lat="59.9966666669" lon="9.50074444045">
		<tag k="name" v="Megardstjennbekken" />
		<tag k="ssr:stedsnr" v="882050" />
		<tag k="waterway" v="stream" />
	</node>
	<node id="-181158" lat="60.0472833327" lon="9.76236667365">
		<tag k="alt_name" v="Storrtjern" />
		<tag k="name" v="Størrtjenn" />
		<tag k="natural" v="water" />
		<tag k="ssr:stedsnr" v="638773" />
	</node>
	<node id="-179104" lat="60.0075500012" lon="9.53814721793">
		<tag k="name" v="Laugarputten" />
		<tag k="natural" v="water" />
		<tag k="ssr:stedsnr" v="882023" />
		<tag k="water" v="pond" />
	</node>
	<node id="-179102" lat="60.2332638922" lon="9.45870555636">
		<tag k="name" v="Vesle Lislevatn" />
		<tag k="natural" v="water" />
		<tag k="ssr:stedsnr" v="881982" />
	</node>
	<node id="-181145" lat="59.9556027777" lon="9.691455559">
		<tag k="name" v="Dælabekken" />
		<tag k="ssr:stedsnr" v="638555" />
		<tag k="waterway" v="stream" />
	</node>
	<node id="-181144" lat="59.9481111135" lon="9.68979167223">
		<tag k="name" v="Finnebråtabekken" />
		<tag k="ssr:stedsnr" v="638552" />
		<tag k="waterway" v="stream" />
	</node>
	<node id="-181141" lat="59.9001694402" lon="9.72003333164">
		<tag k="name" v="Stortangen" />
		<tag k="natural" v="cape" />
		<tag k="ssr:stedsnr" v="638497" />
	</node>
	<node id="-179091" lat="60.0496222256" lon="9.42420833374">
		<tag k="name" v="Øvre Størrputt" />
		<tag k="natural" v="water" />
		<tag k="ssr:stedsnr" v="396927" />
		<tag k="water" v="pond" />
	</node>
	<node id="-181740" lat="60.0728055516" lon="9.69834445249">
		<tag k="name" v="Piperudtjenn" />
		<tag k="natural" v="water" />
		<tag k="ssr:stedsnr" v="793890" />
	</node>
	<node id="-179078" lat="60.0609416654" lon="9.56971665888">
		<tag k="name" v="Rånåbekk" />
		<tag k="ssr:stedsnr" v="396732" />
		<tag k="waterway" v="stream" />
	</node>
	<node id="-181125" lat="60.0106777793" lon="9.59414722457">
		<tag k="name" v="Bergstjenn" />
		<tag k="natural" v="water" />
		<tag k="ssr:stedsnr" v="638196" />
	</node>
	<node id="-181123" lat="59.9801027739" lon="9.6424750086">
		<tag k="name" v="Kvennefossen" />
		<tag k="natural" v="waterfall" />
		<tag k="ssr:stedsnr" v="638144" />
	</node>
	<node id="-181118" lat="60.0793361106" lon="9.73543889537">
		<tag k="name" v="Kvennebekken" />
		<tag k="ssr:stedsnr" v="638056" />
		<tag k="waterway" v="stream" />
	</node>
	<node id="-179069" lat="59.9610277776" lon="9.81547221776">
		<tag k="name" v="Midtskogen" />
		<tag k="ssr:stedsnr" v="396609" />
		<tag k="waterway" v="stream" />
	</node>
	<node id="-181055" lat="60.1578444413" lon="9.23763889046">
		<tag k="name" v="Buvasshugu" />
		<tag k="natural" v="bay" />
		<tag k="ssr:stedsnr" v="636155" />
	</node>
	<node id="-181112" lat="60.2296444461" lon="9.45101665831">
		<tag k="name" v="Løken" />
		<tag k="place" v="locality" />
		<tag k="ssr:stedsnr" v="637997" />
	</node>
	<node id="-179063" lat="60.0488416656" lon="9.67570000138">
		<tag k="name" v="Tukuelva" />
		<tag k="ssr:stedsnr" v="396578" />
		<tag k="waterway" v="stream" />
	</node>
	<node id="-181109" lat="60.095733331" lon="9.37590278342">
		<tag k="name" v="Damtjennbekken" />
		<tag k="ssr:stedsnr" v="637964" />
		<tag k="waterway" v="stream" />
	</node>
	<node id="-179056" lat="59.9558027766" lon="9.6455944378">
		<tag k="name" v="Trommefoss" />
		<tag k="natural" v="waterfall" />
		<tag k="ssr:stedsnr" v="396476" />
	</node>
	<node id="-179055" lat="60.0660055564" lon="9.54420278225">
		<tag k="name" v="Båthusodden" />
		<tag k="natural" v="cape" />
		<tag k="ssr:stedsnr" v="396450" />
	</node>
	<node id="-181735" lat="60.2171305589" lon="9.45842499758">
		<tag k="name" v="Tranetjenn" />
		<tag k="natural" v="water" />
		<tag k="ssr:stedsnr" v="793513" />
	</node>
	<node id="-181091" lat="60.0623472213" lon="9.39436944617">
		<tag k="name" v="Sekstjennputtane" />
		<tag k="natural" v="water" />
		<tag k="ssr:stedsnr" v="637352" />
		<tag k="water" v="pond" />
	</node>
	<node id="-179042" lat="60.0779944463" lon="9.59542222701">
		<tag k="name" v="Svartetjenn" />
		<tag k="natural" v="water" />
		<tag k="ssr:stedsnr" v="396357" />
	</node>
	<node id="-181087" lat="60.2828277775" lon="9.17038889601">
		<tag k="name" v="Medalsbekken" />
		<tag k="ssr:stedsnr" v="637331" />
		<tag k="waterway" v="stream" />
	</node>
	<node id="-179038" lat="59.932383333" lon="9.65894444479">
		<tag k="name" v="Gørrtjenn" />
		<tag k="natural" v="water" />
		<tag k="ssr:stedsnr" v="396312" />
	</node>
	<node id="-179035" lat="59.9699444483" lon="9.6222500075">
		<tag k="name" v="Mattistjenn" />
		<tag k="natural" v="water" />
		<tag k="ssr:stedsnr" v="396278" />
	</node>
	<node id="-179033" lat="60.0015750044" lon="9.5898333384">
		<tag k="name" v="Løken" />
		<tag k="ssr:stedsnr" v="396201" />
		<tag k="waterway" v="stream" />
	</node>
	<node id="-181069" lat="60.155150001" lon="9.28458610756">
		<tag k="name" v="Lushøltjenna" />
		<tag k="natural" v="water" />
		<tag k="ssr:stedsnr" v="636688" />
	</node>
	<node id="-181066" lat="60.2815412033" lon="9.38916645303">
		<tag k="name" v="Nordre Istjenn" />
		<tag k="natural" v="water" />
		<tag k="ssr:stedsnr" v="636617" />
	</node>
	<node id="-179014" lat="60.0164999996" lon="9.44906667459">
		<tag k="name" v="Grytedammen" />
		<tag k="ssr:stedsnr" v="396056" />
		<tag k="waterway" v="dam" />
	</node>
	<node id="-179007" lat="59.9749833349" lon="9.66431389733">
		<tag k="name" v="Brattefoss" />
		<tag k="natural" v="waterfall" />
		<tag k="ssr:stedsnr" v="395490" />
	</node>
	<node id="-181051" lat="60.3231472222" lon="9.25696667489">
		<tag k="name" v="Sandbekken" />
		<tag k="ssr:stedsnr" v="636127" />
		<tag k="waterway" v="stream" />
	</node>
	<node id="-179002" lat="60.2070944482" lon="9.4098861137">
		<tag k="name" v="Kultbekken" />
		<tag k="ssr:stedsnr" v="394987" />
		<tag k="waterway" v="stream" />
	</node>
	<node id="-181049" lat="60.3127083367" lon="9.25958333584">
		<tag k="name" v="Halvorsetbekken" />
		<tag k="ssr:stedsnr" v="636120" />
		<tag k="waterway" v="stream" />
	</node>
	<node id="-181047" lat="60.2089111096" lon="9.22763055828">
		<tag k="name" v="Helletjenn" />
		<tag k="natural" v="water" />
		<tag k="ssr:stedsnr" v="636065" />
	</node>
	<node id="-178992" lat="60.2319027769" lon="9.3337499991">
		<tag k="name" v="Ringnesbekken" />
		<tag k="ssr:stedsnr" v="394840" />
		<tag k="waterway" v="stream" />
	</node>
	<node id="-181036" lat="60.3485416669" lon="9.26739445022">
		<tag k="name" v="Småtjenna" />
		<tag k="natural" v="water" />
		<tag k="ssr:stedsnr" v="613012" />
	</node>
	<node id="-181035" lat="60.2541527814" lon="9.21918056323">
		<tag k="name" v="Elgtjenn" />
		<tag k="natural" v="water" />
		<tag k="ssr:stedsnr" v="612919" />
	</node>
	<node id="-181034" lat="60.2842499997" lon="9.17459999796">
		<tag k="alt_name" v="Øvstevatn" />
		<tag k="name" v="Øvstevatnet" />
		<tag k="natural" v="water" />
		<tag k="ssr:stedsnr" v="612515" />
	</node>
	<node id="-181032" lat="60.2925694482" lon="9.18911667088">
		<tag k="name" v="Steinbutjenn" />
		<tag k="natural" v="water" />
		<tag k="ssr:stedsnr" v="612495" />
	</node>
	<node id="-181031" lat="60.3503500006" lon="9.16884445151">
		<tag k="name" v="Tjennleinetjenn" />
		<tag k="natural" v="water" />
		<tag k="ssr:stedsnr" v="612420" />
	</node>
	<node id="-181029" lat="60.3067722203" lon="9.2908861079">
		<tag k="fixme" v="multiple name tags, choose one and add the other to alt_name" />
		<tag k="name" v="Dammen;Sandvassdammen" />
		<tag k="ssr:stedsnr" v="612101" />
		<tag k="waterway" v="dam" />
	</node>
	<node id="-178977" lat="60.1167638859" lon="9.43343889011">
		<tag k="name" v="Svabekken" />
		<tag k="ssr:stedsnr" v="394319" />
		<tag k="waterway" v="stream" />
	</node>
	<node id="-181019" lat="60.0748138926" lon="9.75630277783">
		<tag k="name" v="Medrudtjenn" />
		<tag k="natural" v="water" />
		<tag k="ssr:stedsnr" v="611905" />
	</node>
	<node id="-181018" lat="60.0670861134" lon="9.59622499268">
		<tag k="name" v="Langetjenn" />
		<tag k="natural" v="water" />
		<tag k="ssr:stedsnr" v="611901" />
	</node>
	<node id="-181013" lat="60.0979388898" lon="9.60145000812">
		<tag k="name" v="Grastjenn" />
		<tag k="natural" v="water" />
		<tag k="ssr:stedsnr" v="611867" />
	</node>
	<node id="-178963" lat="60.3220388859" lon="9.25894444569">
		<tag k="name" v="Åslandbekken" />
		<tag k="ssr:stedsnr" v="394097" />
		<tag k="waterway" v="stream" />
	</node>
	<node id="-181010" lat="60.1981766212" lon="9.29671127025">
		<tag k="name" v="Asketjenn" />
		<tag k="natural" v="water" />
		<tag k="ssr:stedsnr" v="611488" />
	</node>
	<node id="-181379" lat="59.9994222204" lon="9.47481388424">
		<tag k="name" v="Den lange hølen" />
		<tag k="place" v="locality" />
		<tag k="ssr:stedsnr" v="700089" />
	</node>
	<node id="-181003" lat="60.1406055593" lon="9.2300305552">
		<tag k="name" v="Trehinningen" />
		<tag k="natural" v="water" />
		<tag k="ssr:stedsnr" v="611433" />
	</node>
	<node id="-178954" lat="60.2824888861" lon="9.1980777688">
		<tag k="name" v="Nestetjenn" />
		<tag k="natural" v="water" />
		<tag k="ssr:stedsnr" v="393790" />
	</node>
	<node id="-178953" lat="60.2725805579" lon="9.21559723071">
		<tag k="name" v="Leinetjenn" />
		<tag k="natural" v="water" />
		<tag k="ssr:stedsnr" v="393784" />
	</node>
	<node id="-181000" lat="60.1533860926" lon="9.24010821863">
		<tag k="name" v="Danmark" />
		<tag k="natural" v="water" />
		<tag k="ssr:stedsnr" v="611422" />
	</node>
	<node id="-180997" lat="60.0725555515" lon="9.52504999927">
		<tag k="name" v="Eidalselva" />
		<tag k="ssr:stedsnr" v="611408" />
		<tag k="waterway" v="river" />
	</node>
	<node id="-178944" lat="60.1395888925" lon="9.25032499512">
		<tag k="name" v="Uksetjenn" />
		<tag k="natural" v="water" />
		<tag k="ssr:stedsnr" v="393348" />
	</node>
	<node id="-178943" lat="60.1473388853" lon="9.25935000302">
		<tag k="name" v="Lislelivatn" />
		<tag k="natural" v="water" />
		<tag k="ssr:stedsnr" v="393341" />
	</node>
	<node id="-178941" lat="60.1963722203" lon="9.22309167505">
		<tag k="name" v="Kroktjenna" />
		<tag k="natural" v="water" />
		<tag k="ssr:stedsnr" v="393186" />
	</node>
	<node id="-180988" lat="60.0797361094" lon="9.38995000356">
		<tag k="alt_name" v="Skinntjennet" />
		<tag k="name" v="Skinntjenn" />
		<tag k="natural" v="water" />
		<tag k="ssr:stedsnr" v="611097" />
	</node>
	<node id="-178939" lat="60.1661916647" lon="9.20379167194">
		<tag k="name" v="Ambjørghølun" />
		<tag k="natural" v="water" />
		<tag k="ssr:stedsnr" v="393151" />
		<tag k="water" v="pond" />
	</node>
	<node id="-180986" lat="60.0632777804" lon="9.37186388728">
		<tag k="alt_name" v="Knivetjennet" />
		<tag k="name" v="Knivetjenn" />
		<tag k="natural" v="water" />
		<tag k="ssr:stedsnr" v="611079" />
	</node>
	<node id="-180983" lat="60.0223750039" lon="9.55414721474">
		<tag k="alt_name" v="Svartebekken" />
		<tag k="name" v="Svartebekk" />
		<tag k="ssr:stedsnr" v="611043" />
		<tag k="waterway" v="stream" />
	</node>
	<node id="-178934" lat="60.2063694447" lon="9.18990833793">
		<tag k="name" v="Løken" />
		<tag k="ssr:stedsnr" v="393096" />
		<tag k="waterway" v="stream" />
	</node>
	<node id="-178930" lat="59.9977138931" lon="9.49072222068">
		<tag k="name" v="Øvre Kvernhølen" />
		<tag k="place" v="locality" />
		<tag k="ssr:stedsnr" v="388041" />
	</node>
	<node id="-180971" lat="59.9704064403" lon="9.57477251192">
		<tag k="name" v="Lauvnesvatnet" />
		<tag k="natural" v="water" />
		<tag k="ssr:stedsnr" v="610356" />
		<tag k="water" v="lake" />
	</node>
	<node id="-181713" lat="60.1438499984" lon="9.36904444758">
		<tag k="alt_name" v="Goplitjenn" />
		<tag k="name" v="Goplitjenna" />
		<tag k="natural" v="water" />
		<tag k="ssr:stedsnr" v="793441" />
	</node>
	<node id="-178916" lat="60.3293861438" lon="9.26996802929">
		<tag k="name" v="Bekkerudsjøen" />
		<tag k="natural" v="water" />
		<tag k="ssr:stedsnr" v="370068" />
		<tag k="water" v="lake" />
	</node>
	<node id="-178914" lat="60.0948500029" lon="9.61336667204">
		<tag k="name" v="Annetjenn" />
		<tag k="natural" v="water" />
		<tag k="ssr:stedsnr" v="369836" />
	</node>
	<node id="-178913" lat="60.1070586987" lon="9.66388205361">
		<tag k="name" v="Glessjøen" />
		<tag k="natural" v="water" />
		<tag k="ssr:stedsnr" v="369830" />
		<tag k="water" v="lake" />
	</node>
	<node id="-178912" lat="60.1490555529" lon="9.32847221466">
		<tag k="name" v="Sinern" />
		<tag k="natural" v="water" />
		<tag k="ssr:stedsnr" v="369368" />
	</node>
	<node id="-178911" lat="60.2476555541" lon="9.43552221569">
		<tag k="alt_name" v="Bjertnessetertjenn" />
		<tag k="name" v="Bjertnessetertjennet" />
		<tag k="natural" v="water" />
		<tag k="ssr:stedsnr" v="369288" />
	</node>
	<node id="-182053" lat="60.1722138912" lon="9.26975278093">
		<tag k="name" v="Putten" />
		<tag k="natural" v="water" />
		<tag k="ssr:stedsnr" v="879644" />
	</node>
	<node id="-178908" lat="60.0878972262" lon="9.40335833098">
		<tag k="name" v="Kisneskardbekken" />
		<tag k="ssr:stedsnr" v="369111" />
		<tag k="waterway" v="stream" />
	</node>
	<node id="-178906" lat="60.0913888894" lon="9.59137222756">
		<tag k="name" v="Guletjenn" />
		<tag k="natural" v="water" />
		<tag k="ssr:stedsnr" v="369088" />
	</node>
	<node id="-182052" lat="60.1802972203" lon="9.29830000437">
		<tag k="name" v="Elgstjennbekken" />
		<tag k="ssr:stedsnr" v="879637" />
		<tag k="waterway" v="stream" />
	</node>
	<node id="-180950" lat="60.0952444406" lon="9.5732111183">
		<tag k="name" v="Feletjenn" />
		<tag k="natural" v="water" />
		<tag k="ssr:stedsnr" v="578867" />
	</node>
	<node id="-180947" lat="60.0892666642" lon="9.59746388193">
		<tag k="name" v="Vesle Guletjenn" />
		<tag k="natural" v="water" />
		<tag k="ssr:stedsnr" v="578861" />
	</node>
	<node id="-178889" lat="60.1965305541" lon="9.2405138953">
		<tag k="name" v="Øvre Trytetjenn" />
		<tag k="natural" v="water" />
		<tag k="ssr:stedsnr" v="368523" />
	</node>
	<node id="-178887" lat="60.1994138921" lon="9.34816111873">
		<tag k="name" v="Skårsbekken" />
		<tag k="ssr:stedsnr" v="368515" />
		<tag k="waterway" v="stream" />
	</node>
	<node id="-178886" lat="60.1875416687" lon="9.46949443863">
		<tag k="name" v="Omlitjenn" />
		<tag k="natural" v="water" />
		<tag k="ssr:stedsnr" v="368470" />
	</node>
	<node id="-178883" lat="60.1107222251" lon="9.41040555347">
		<tag k="alt_name" v="Andersnattjennet" />
		<tag k="name" v="Andersnattjenn" />
		<tag k="natural" v="water" />
		<tag k="ssr:stedsnr" v="368412" />
	</node>
	<node id="-178882" lat="60.1150749971" lon="9.25987221977">
		<tag k="alt_name" v="Grasbekken" />
		<tag k="name" v="Grasbekk" />
		<tag k="ssr:stedsnr" v="368409" />
		<tag k="waterway" v="stream" />
	</node>
	<node id="-178878" lat="59.9672805536" lon="9.56068888368">
		<tag k="name" v="Skjelåa" />
		<tag k="ssr:stedsnr" v="368340" />
		<tag k="waterway" v="river" />
	</node>
	<node id="-178876" lat="60.2195388925" lon="9.45443333398">
		<tag k="name" v="Hornsjøelva" />
		<tag k="ssr:stedsnr" v="368292" />
		<tag k="waterway" v="stream" />
	</node>
	<node id="-178875" lat="60.2264972225" lon="9.45687499387">
		<tag k="name" v="Lislevatn" />
		<tag k="natural" v="water" />
		<tag k="ssr:stedsnr" v="368277" />
	</node>
	<node id="-178871" lat="60.0105055539" lon="9.48293888354">
		<tag k="name" v="Flagtjenn" />
		<tag k="natural" v="water" />
		<tag k="ssr:stedsnr" v="368013" />
	</node>
	<node id="-178870" lat="60.0063055594" lon="9.52572500608">
		<tag k="name" v="Gåsetjenn" />
		<tag k="natural" v="water" />
		<tag k="ssr:stedsnr" v="368011" />
	</node>
	<node id="-181705" lat="59.9075944478" lon="9.72971112002">
		<tag k="name" v="Løken" />
		<tag k="place" v="locality" />
		<tag k="ssr:stedsnr" v="764118" />
	</node>
	<node id="-178868" lat="59.9847777739" lon="9.57622499997">
		<tag k="name" v="Laukliåstjenn" />
		<tag k="natural" v="water" />
		<tag k="ssr:stedsnr" v="367254" />
	</node>
	<node id="-178867" lat="60.0046250036" lon="9.66407777363">
		<tag k="name" v="Haukåa" />
		<tag k="ssr:stedsnr" v="369980" />
		<tag k="waterway" v="stream" />
	</node>
	<node id="-180537" lat="59.9110555571" lon="9.70218611485">
		<tag k="name" v="Midtskogtjenn" />
		<tag k="natural" v="water" />
		<tag k="ssr:stedsnr" v="489823" />
	</node>
	<node id="-178860" lat="60.0718805525" lon="9.44031943885">
		<tag k="name" v="Svarteputt" />
		<tag k="natural" v="water" />
		<tag k="ssr:stedsnr" v="336967" />
		<tag k="water" v="pond" />
	</node>
	<node id="-180907" lat="60.064400004" lon="9.47208056323">
		<tag k="name" v="Skarfossen" />
		<tag k="natural" v="waterfall" />
		<tag k="ssr:stedsnr" v="578182" />
	</node>
	<node id="-178856" lat="60.0796805591" lon="9.48814166079">
		<tag k="name" v="Glupetangen" />
		<tag k="natural" v="cape" />
		<tag k="ssr:stedsnr" v="336915" />
	</node>
	<node id="-180903" lat="60.0246166645" lon="9.44968611781">
		<tag k="name" v="Haslonløken" />
		<tag k="ssr:stedsnr" v="578130" />
		<tag k="waterway" v="stream" />
	</node>
	<node id="-178854" lat="60.0861472214" lon="9.42884166972">
		<tag k="name" v="Svartetjennbekken" />
		<tag k="ssr:stedsnr" v="336897" />
		<tag k="waterway" v="stream" />
	</node>
	<node id="-181361" lat="60.015325001" lon="9.67812221924">
		<tag k="name" v="Dælabekken" />
		<tag k="ssr:stedsnr" v="699124" />
		<tag k="waterway" v="stream" />
	</node>
	<node id="-178852" lat="60.0943472197" lon="9.64380833815">
		<tag k="name" v="Pøllbekken" />
		<tag k="ssr:stedsnr" v="336892" />
		<tag k="waterway" v="stream" />
	</node>
	<node id="-180893" lat="59.9814416646" lon="9.52318054867">
		<tag k="name" v="Igletjenn" />
		<tag k="natural" v="water" />
		<tag k="ssr:stedsnr" v="578075" />
	</node>
	<node id="-180888" lat="60.2316472213" lon="9.43995833885">
		<tag k="name" v="Heimvika" />
		<tag k="natural" v="bay" />
		<tag k="ssr:stedsnr" v="577997" />
	</node>
	<node id="-180884" lat="60.1448638849" lon="9.4885138898">
		<tag k="name" v="Saltjenn" />
		<tag k="natural" v="water" />
		<tag k="ssr:stedsnr" v="577429" />
	</node>
	<node id="-178833" lat="60.1327999963" lon="9.5461472214">
		<tag k="name" v="Bjørevassdammen" />
		<tag k="ssr:stedsnr" v="336465" />
		<tag k="waterway" v="dam" />
	</node>
	<node id="-180880" lat="60.0850750019" lon="9.40835834015">
		<tag k="name" v="Tørrfurutjenn" />
		<tag k="natural" v="water" />
		<tag k="ssr:stedsnr" v="576948" />
	</node>
	<node id="-182040" lat="60.1662777758" lon="9.21429445274">
		<tag k="name" v="Barlindosrumpa" />
		<tag k="natural" v="bay" />
		<tag k="ssr:stedsnr" v="879133" />
	</node>
	<node id="-180878" lat="60.2130166643" lon="9.34385000705">
		<tag k="name" v="Juvsbekken" />
		<tag k="ssr:stedsnr" v="576919" />
		<tag k="waterway" v="stream" />
	</node>
	<node id="-178829" lat="60.0825472192" lon="9.66305833462">
		<tag k="name" v="Øvre Åstjenn" />
		<tag k="natural" v="water" />
		<tag k="ssr:stedsnr" v="336419" />
	</node>
	<node id="-178828" lat="60.0831361135" lon="9.66724444995">
		<tag k="name" v="Nedre Åstjenn" />
		<tag k="natural" v="water" />
		<tag k="ssr:stedsnr" v="336418" />
	</node>
	<node id="-178825" lat="60.0477277788" lon="9.5596416655">
		<tag k="name" v="Larseberg" />
		<tag k="natural" v="cape" />
		<tag k="ssr:stedsnr" v="336371" />
	</node>
	<node id="-178824" lat="60.0733249959" lon="9.56827777546">
		<tag k="name" v="Småtjenn" />
		<tag k="natural" v="water" />
		<tag k="ssr:stedsnr" v="336355" />
	</node>
	<node id="-178817" lat="60.0033555532" lon="9.45723332786">
		<tag k="name" v="Tråenhølen" />
		<tag k="place" v="locality" />
		<tag k="ssr:stedsnr" v="336089" />
	</node>
	<node id="-178816" lat="60.0199861134" lon="9.44406944952">
		<tag k="name" v="Signehølen" />
		<tag k="place" v="locality" />
		<tag k="ssr:stedsnr" v="336086" />
	</node>
	<node id="-178814" lat="60.0112111078" lon="9.45027777386">
		<tag k="name" v="Bastebråtahølen" />
		<tag k="place" v="locality" />
		<tag k="ssr:stedsnr" v="336081" />
	</node>
	<node id="-178813" lat="60.0015388869" lon="9.52652221501">
		<tag k="name" v="Plassetjenn" />
		<tag k="natural" v="water" />
		<tag k="ssr:stedsnr" v="336076" />
	</node>
	<node id="-178812" lat="60.0092416691" lon="9.5397666609">
		<tag k="name" v="Rundhøl" />
		<tag k="place" v="locality" />
		<tag k="ssr:stedsnr" v="336035" />
	</node>
	<node id="-178804" lat="60.0419138911" lon="9.591752784">
		<tag k="name" v="Sundet" />
		<tag k="natural" v="strait" />
		<tag k="ssr:stedsnr" v="335800" />
	</node>
	<node id="-180851" lat="60.333972223" lon="9.19111666394">
		<tag k="name" v="Hallingbekken" />
		<tag k="ssr:stedsnr" v="576120" />
		<tag k="waterway" v="stream" />
	</node>
	<node id="-181011" lat="60.205247223" lon="9.46041388941">
		<tag k="name" v="Elgtjenn" />
		<tag k="natural" v="water" />
		<tag k="ssr:stedsnr" v="611489" />
	</node>
	<node id="-180842" lat="60.3076777781" lon="9.17988888049">
		<tag k="name" v="Brennåstjenn" />
		<tag k="natural" v="water" />
		<tag k="ssr:stedsnr" v="576032" />
	</node>
	<node id="-178793" lat="60.0351749989" lon="9.63838333694">
		<tag k="name" v="Saltåa" />
		<tag k="ssr:stedsnr" v="335669" />
		<tag k="waterway" v="stream" />
	</node>
	<node id="-181350" lat="60.2897305517" lon="9.29970833613">
		<tag k="name" v="Markeliløken" />
		<tag k="ssr:stedsnr" v="698615" />
		<tag k="waterway" v="stream" />
	</node>
	<node id="-180831" lat="60.1123138875" lon="9.27162499487">
		<tag k="name" v="Løkane" />
		<tag k="place" v="locality" />
		<tag k="ssr:stedsnr" v="575327" />
	</node>
	<node id="-180828" lat="60.1767682776" lon="9.23914136854">
		<tag k="name" v="Smalløk" />
		<tag k="natural" v="water" />
		<tag k="ssr:stedsnr" v="575187" />
	</node>
	<node id="-180823" lat="60.1537210397" lon="9.21734997469">
		<tag k="name" v="Tryteula" />
		<tag k="natural" v="bay" />
		<tag k="ssr:stedsnr" v="575132" />
	</node>
	<node id="-178773" lat="59.9739944431" lon="9.73716111243">
		<tag k="name" v="Kvennhusfossen" />
		<tag k="natural" v="waterfall" />
		<tag k="ssr:stedsnr" v="335365" />
	</node>
	<node id="-178771" lat="59.9752444447" lon="9.59091110772">
		<tag k="name" v="Raudtangen" />
		<tag k="natural" v="cape" />
		<tag k="ssr:stedsnr" v="335359" />
	</node>
	<node id="-180818" lat="60.1975888901" lon="9.19061389419">
		<tag k="name" v="Løken" />
		<tag k="ssr:stedsnr" v="575074" />
		<tag k="waterway" v="stream" />
	</node>
	<node id="-178767" lat="60.0075777753" lon="9.6246222281">
		<tag k="name" v="Lårbutjenn" />
		<tag k="natural" v="water" />
		<tag k="ssr:stedsnr" v="335221" />
	</node>
	<node id="-180813" lat="60.1791888932" lon="9.45214444343">
		<tag k="name" v="Øvre Bergstjenn" />
		<tag k="natural" v="water" />
		<tag k="ssr:stedsnr" v="572684" />
	</node>
	<node id="-180811" lat="60.0768177677" lon="9.39713786746">
		<tag k="name" v="Kisneskardtjennet" />
		<tag k="natural" v="water" />
		<tag k="ssr:stedsnr" v="568131" />
	</node>
	<node id="-178762" lat="59.9907444408" lon="9.63209444311">
		<tag k="name" v="Bjørndalsbekken" />
		<tag k="ssr:stedsnr" v="335140" />
		<tag k="waterway" v="stream" />
	</node>
	<node id="-180806" lat="60.2948722218" lon="9.1654194492">
		<tag k="name" v="Ormetjenn" />
		<tag k="natural" v="water" />
		<tag k="ssr:stedsnr" v="552538" />
	</node>
	<node id="-180804" lat="60.3404000036" lon="9.163586115">
		<tag k="name" v="Fagerfetbekken" />
		<tag k="ssr:stedsnr" v="552468" />
		<tag k="waterway" v="stream" />
	</node>
	<node id="-180803" lat="60.3374111077" lon="9.16529999806">
		<tag k="alt_name" v="Snøfonntjennet" />
		<tag k="name" v="Snøfonntjenn" />
		<tag k="natural" v="water" />
		<tag k="ssr:stedsnr" v="552467" />
	</node>
	<node id="-178751" lat="60.0776638868" lon="9.41845834092">
		<tag k="name" v="Skjærn" />
		<tag k="ssr:stedsnr" v="334921" />
		<tag k="waterway" v="stream" />
	</node>
	<node id="-180798" lat="60.3056750021" lon="9.35112500355">
		<tag k="name" v="Holmevatn" />
		<tag k="natural" v="water" />
		<tag k="ssr:stedsnr" v="552090" />
		<tag k="water" v="lake" />
	</node>
	<node id="-180797" lat="60.2866305539" lon="9.30681111027">
		<tag k="name" v="Hellebekk" />
		<tag k="ssr:stedsnr" v="552080" />
		<tag k="waterway" v="stream" />
	</node>
	<node id="-180796" lat="60.3237250034" lon="9.3216749934">
		<tag k="name" v="Nedre Tovevatnet" />
		<tag k="natural" v="water" />
		<tag k="ssr:stedsnr" v="552072" />
	</node>
	<node id="-180791" lat="60.0743611125" lon="9.74735277991">
		<tag k="name" v="Finnerudtjenn" />
		<tag k="natural" v="water" />
		<tag k="ssr:stedsnr" v="551885" />
	</node>
	<node id="-180790" lat="60.0778388846" lon="9.61847777865">
		<tag k="name" v="Tubbemyrbekken" />
		<tag k="ssr:stedsnr" v="551868" />
		<tag k="waterway" v="stream" />
	</node>
	<node id="-178741" lat="60.1116388888" lon="9.34165278184">
		<tag k="name" v="Tangebekken" />
		<tag k="ssr:stedsnr" v="334028" />
		<tag k="waterway" v="stream" />
	</node>
	<node id="-180787" lat="60.241188885" lon="9.43246388901">
		<tag k="name" v="Buratjenn" />
		<tag k="natural" v="water" />
		<tag k="ssr:stedsnr" v="551307" />
	</node>
	<node id="-180785" lat="60.0840000014" lon="9.52409722026">
		<tag k="name" v="Skreddarbekken" />
		<tag k="ssr:stedsnr" v="551113" />
		<tag k="waterway" v="stream" />
	</node>
	<node id="-180778" lat="59.9915055533" lon="9.60813056268">
		<tag k="name" v="Raudåa" />
		<tag k="ssr:stedsnr" v="550960" />
		<tag k="waterway" v="stream" />
	</node>
	<node id="-178726" lat="60.1547333365" lon="9.30729722932">
		<tag k="name" v="Ånnetjenn" />
		<tag k="natural" v="water" />
		<tag k="ssr:stedsnr" v="333660" />
	</node>
	<node id="-178724" lat="60.2827166664" lon="9.25856944483">
		<tag k="name" v="Ligardsfossen" />
		<tag k="natural" v="waterfall" />
		<tag k="ssr:stedsnr" v="333620" />
	</node>
	<node id="-180766" lat="59.9484277741" lon="9.7500888868">
		<tag k="name" v="Damtjenn" />
		<tag k="natural" v="water" />
		<tag k="ssr:stedsnr" v="550772" />
	</node>
	<node id="-178715" lat="60.1390111129" lon="9.24223055055">
		<tag k="name" v="Letjenn" />
		<tag k="natural" v="water" />
		<tag k="ssr:stedsnr" v="333374" />
	</node>
	<node id="-178714" lat="60.1725722246" lon="9.30811944943">
		<tag k="name" v="Grunntjennelva" />
		<tag k="ssr:stedsnr" v="333252" />
		<tag k="waterway" v="stream" />
	</node>
	<node id="-180757" lat="60.1065166637" lon="9.40001667331">
		<tag k="alt_name" v="Reintjennet" />
		<tag k="name" v="Reintjenn" />
		<tag k="natural" v="water" />
		<tag k="ssr:stedsnr" v="550387" />
	</node>
	<node id="-180755" lat="60.1115194403" lon="9.45265277752">
		<tag k="name" v="Gunnerudtjennet" />
		<tag k="natural" v="water" />
		<tag k="ssr:stedsnr" v="550381" />
	</node>
	<node id="-180753" lat="60.2179249988" lon="9.22594999134">
		<tag k="name" v="Snipnattjenn" />
		<tag k="natural" v="water" />
		<tag k="ssr:stedsnr" v="550265" />
	</node>
	<node id="-178704" lat="60.2237027803" lon="9.2388722225">
		<tag k="name" v="Puttbekken" />
		<tag k="ssr:stedsnr" v="333113" />
		<tag k="waterway" v="stream" />
	</node>
	<node id="-180751" lat="60.0883361096" lon="9.41038056396">
		<tag k="name" v="Gørrkimetjenn" />
		<tag k="natural" v="water" />
		<tag k="ssr:stedsnr" v="550113" />
	</node>
	<node id="-180749" lat="60.047330559" lon="9.45298332712">
		<tag k="name" v="Trytetjenn" />
		<tag k="natural" v="water" />
		<tag k="ssr:stedsnr" v="550071" />
	</node>
	<node id="-180746" lat="60.0167861128" lon="9.52923889418">
		<tag k="alt_name" v="Tjennhaugtjenn" />
		<tag k="name" v="Tjennhaugtjenna" />
		<tag k="natural" v="water" />
		<tag k="ssr:stedsnr" v="550020" />
	</node>
	<node id="-178694" lat="60.2305833352" lon="9.29534166425">
		<tag k="name" v="Kremarrudtjennet" />
		<tag k="natural" v="water" />
		<tag k="ssr:stedsnr" v="326118" />
	</node>
	<node id="-180741" lat="60.101645397" lon="9.29205353797">
		<tag k="name" v="Øytjenna" />
		<tag k="natural" v="water" />
		<tag k="ssr:stedsnr" v="545914" />
	</node>
	<node id="-178690" lat="60.2639333294" lon="9.29723888719">
		<tag k="fixme" v="multiple name tags, choose one and add the other to alt_name" />
		<tag k="name" v="Flagbekken;Kleivanbekken" />
		<tag k="ssr:stedsnr" v="310091" />
		<tag k="waterway" v="stream" />
	</node>
	<node id="-178687" lat="60.3315138913" lon="9.19940278539">
		<tag k="name" v="Hovdetjenn" />
		<tag k="natural" v="water" />
		<tag k="ssr:stedsnr" v="309483" />
	</node>
	<node id="-178686" lat="60.3318750444" lon="9.17989741137">
		<tag k="alt_name" v="Haglebuvatnet" />
		<tag k="name" v="Haglebuvatna" />
		<tag k="natural" v="water" />
		<tag k="ssr:stedsnr" v="309446" />
		<tag k="water" v="lake" />
	</node>
	<node id="-178683" lat="60.2825583295" lon="9.40603888904">
		<tag k="name" v="Fetjenn" />
		<tag k="natural" v="water" />
		<tag k="ssr:stedsnr" v="309077" />
	</node>
	<node id="-180730" lat="60.0748277756" lon="9.49297499688">
		<tag k="name" v="Blekabergodden" />
		<tag k="natural" v="cape" />
		<tag k="ssr:stedsnr" v="518905" />
	</node>
	<node id="-180726" lat="60.0995583322" lon="9.66652222893">
		<tag k="name" v="Glessjøelva" />
		<tag k="ssr:stedsnr" v="518886" />
		<tag k="waterway" v="stream" />
	</node>
	<node id="-178676" lat="60.0442083338" lon="9.62871666211">
		<tag k="name" v="Kråkefjorden" />
		<tag k="natural" v="water" />
		<tag k="ssr:stedsnr" v="308908" />
	</node>
	<node id="-178670" lat="60.1164027775" lon="9.60713055377">
		<tag k="name" v="Øyvatnet" />
		<tag k="natural" v="water" />
		<tag k="ssr:stedsnr" v="308822" />
	</node>
	<node id="-180989" lat="60.0797292323" lon="9.35585402582">
		<tag k="name" v="Tuftnevatn" />
		<tag k="natural" v="water" />
		<tag k="ssr:stedsnr" v="611098" />
		<tag k="water" v="lake" />
	</node>
	<node id="-180716" lat="59.9856472247" lon="9.76929444839">
		<tag k="name" v="Dælabekken" />
		<tag k="ssr:stedsnr" v="518560" />
		<tag k="waterway" v="stream" />
	</node>
	<node id="-180711" lat="60.0680916622" lon="9.60387778663">
		<tag k="name" v="Butjenn" />
		<tag k="natural" v="water" />
		<tag k="ssr:stedsnr" v="518392" />
	</node>
	<node id="-178662" lat="60.0548611114" lon="9.40466667472">
		<tag k="name" v="Oddetjenna" />
		<tag k="natural" v="water" />
		<tag k="ssr:stedsnr" v="308055" />
	</node>
	<node id="-178661" lat="60.0374583297" lon="9.51236111885">
		<tag k="fixme" v="multiple name tags, choose one and add the other to alt_name" />
		<tag k="name" v="Øvre Sulutjenn;Sulutjenna" />
		<tag k="natural" v="water" />
		<tag k="ssr:stedsnr" v="308038" />
	</node>
	<node id="-178660" lat="59.9795388928" lon="9.59881665894">
		<tag k="name" v="Evjuå" />
		<tag k="ssr:stedsnr" v="307934" />
		<tag k="waterway" v="stream" />
	</node>
	<node id="-180706" lat="60.0250750016" lon="9.56813333458">
		<tag k="name" v="Jansbråtabekken" />
		<tag k="ssr:stedsnr" v="518245" />
		<tag k="waterway" v="stream" />
	</node>
	<node id="-180987" lat="60.0765666709" lon="9.54210000685">
		<tag k="name" v="Askedalsbekken" />
		<tag k="ssr:stedsnr" v="611086" />
		<tag k="waterway" v="stream" />
	</node>
	<node id="-180701" lat="59.9981472227" lon="9.471583326">
		<tag k="name" v="Flaberghølen" />
		<tag k="place" v="locality" />
		<tag k="ssr:stedsnr" v="518073" />
	</node>
	<node id="-178651" lat="60.2363777802" lon="9.45536665859">
		<tag k="name" v="Djupsjøbekken" />
		<tag k="ssr:stedsnr" v="308268" />
		<tag k="waterway" v="stream" />
	</node>
	<node id="-178645" lat="59.9988444488" lon="9.45900556012">
		<tag k="name" v="Elddalsbekken" />
		<tag k="ssr:stedsnr" v="307294" />
		<tag k="waterway" v="stream" />
	</node>
	<node id="-180691" lat="60.0489833326" lon="9.75670000704">
		<tag k="alt_name" v="Tretjern" />
		<tag k="name" v="Tretjenn" />
		<tag k="natural" v="water" />
		<tag k="ssr:stedsnr" v="517822" />
	</node>
	<node id="-178641" lat="60.0059222258" lon="9.53647778025">
		<tag k="name" v="Dammen" />
		<tag k="ssr:stedsnr" v="32047" />
		<tag k="waterway" v="dam" />
	</node>
	<node id="-180688" lat="60.0514777753" lon="9.60943054772">
		<tag k="name" v="Tjuvodden" />
		<tag k="natural" v="cape" />
		<tag k="ssr:stedsnr" v="517800" />
	</node>
	<node id="-178628" lat="60.0724111148" lon="9.75312222512">
		<tag k="name" v="Løken" />
		<tag k="natural" v="water" />
		<tag k="ssr:stedsnr" v="275905" />
		<tag k="water" v="lake" />
	</node>
	<node id="-180670" lat="59.9541305589" lon="9.66775277251">
		<tag k="name" v="Dammen" />
		<tag k="ssr:stedsnr" v="517487" />
		<tag k="waterway" v="dam" />
	</node>
	<node id="-180665" lat="60.1459888864" lon="9.49892222904">
		<tag k="name" v="Mastemyrtjennet" />
		<tag k="natural" v="water" />
		<tag k="ssr:stedsnr" v="517413" />
	</node>
	<node id="-180661" lat="59.9765583322" lon="9.59444722379">
		<tag k="name" v="Evjua" />
		<tag k="natural" v="bay" />
		<tag k="ssr:stedsnr" v="517348" />
	</node>
	<node id="-178604" lat="59.9556833312" lon="9.81629721552">
		<tag k="name" v="Nesbekken" />
		<tag k="ssr:stedsnr" v="275609" />
		<tag k="waterway" v="stream" />
	</node>
	<node id="-182002" lat="59.9778333316" lon="9.65132499347">
		<tag k="name" v="Grimetjenn" />
		<tag k="natural" v="water" />
		<tag k="ssr:stedsnr" v="854945" />
	</node>
	<node id="-180646" lat="60.15406389" lon="9.43909167458">
		<tag k="name" v="Bjørebekken" />
		<tag k="ssr:stedsnr" v="516702" />
		<tag k="waterway" v="stream" />
	</node>
	<node id="-180644" lat="60.1523916711" lon="9.43420555743">
		<tag k="name" v="Heftafossen" />
		<tag k="natural" v="waterfall" />
		<tag k="ssr:stedsnr" v="516701" />
	</node>
	<node id="-178580" lat="60.0681027743" lon="9.62018611068">
		<tag k="name" v="Øvre Vikstjenn" />
		<tag k="natural" v="water" />
		<tag k="ssr:stedsnr" v="275375" />
	</node>
	<node id="-180627" lat="60.0627749968" lon="9.41569721474">
		<tag k="name" v="Fjellbekken" />
		<tag k="ssr:stedsnr" v="516323" />
		<tag k="waterway" v="stream" />
	</node>
	<node id="-180624" lat="60.2535111085" lon="9.45204166149">
		<tag k="name" v="Kortetjenn" />
		<tag k="natural" v="water" />
		<tag k="ssr:stedsnr" v="516195" />
	</node>
	<node id="-178575" lat="59.973216665" lon="9.58582221611">
		<tag k="name" v="Lauvnestangen" />
		<tag k="natural" v="cape" />
		<tag k="ssr:stedsnr" v="275349" />
	</node>
	<node id="-178573" lat="60.0568583366" lon="9.56770555563">
		<tag k="name" v="Rånåbekk" />
		<tag k="ssr:stedsnr" v="275338" />
		<tag k="waterway" v="stream" />
	</node>
	<node id="-180620" lat="60.1482333366" lon="9.34314166441">
		<tag k="name" v="Østre Dukelivatn" />
		<tag k="natural" v="water" />
		<tag k="ssr:stedsnr" v="516097" />
	</node>
	<node id="-181313" lat="60.2813527777" lon="9.37915556457">
		<tag k="name" v="Bannartjenn" />
		<tag k="natural" v="water" />
		<tag k="ssr:stedsnr" v="697579" />
	</node>
	<node id="-181511" lat="60.3409472257" lon="9.21003055354">
		<tag k="name" v="Ruglandseterbekken" />
		<tag k="ssr:stedsnr" v="734451" />
		<tag k="waterway" v="stream" />
	</node>
	<node id="-181311" lat="60.2267666632" lon="9.28099721871">
		<tag k="name" v="Bekkemotet" />
		<tag k="place" v="locality" />
		<tag k="ssr:stedsnr" v="697448" />
	</node>
	<node id="-178552" lat="60.0355361112" lon="9.50499443891">
		<tag k="name" v="Langetjennløken" />
		<tag k="ssr:stedsnr" v="275187" />
		<tag k="waterway" v="stream" />
	</node>
	<node id="-178550" lat="60.0624611096" lon="9.47747777667">
		<tag k="name" v="Steinbekk" />
		<tag k="ssr:stedsnr" v="275180" />
		<tag k="waterway" v="stream" />
	</node>
	<node id="-178547" lat="60.040819444" lon="9.49372223018">
		<tag k="name" v="Feletjenna" />
		<tag k="natural" v="water" />
		<tag k="ssr:stedsnr" v="275166" />
	</node>
	<node id="-180592" lat="60.2764861094" lon="9.40776388058">
		<tag k="name" v="Tempelløken" />
		<tag k="place" v="locality" />
		<tag k="ssr:stedsnr" v="515410" />
	</node>
	<node id="-180590" lat="60.2665888848" lon="9.37281944028">
		<tag k="name" v="Rislelibekken" />
		<tag k="ssr:stedsnr" v="515407" />
		<tag k="waterway" v="stream" />
	</node>
	<node id="-180589" lat="60.2791166646" lon="9.39130833732">
		<tag k="name" v="Rautjenn" />
		<tag k="natural" v="water" />
		<tag k="ssr:stedsnr" v="515396" />
	</node>
	<node id="-178540" lat="60.0121111142" lon="9.51822499273">
		<tag k="name" v="Småtjenna" />
		<tag k="natural" v="water" />
		<tag k="ssr:stedsnr" v="275108" />
	</node>
	<node id="-178539" lat="60.0152111073" lon="9.4836888935">
		<tag k="name" v="Røsitjenn" />
		<tag k="natural" v="water" />
		<tag k="ssr:stedsnr" v="275109" />
	</node>
	<node id="-178536" lat="60.0053638917" lon="9.44738611632">
		<tag k="name" v="Nyseterbekken" />
		<tag k="ssr:stedsnr" v="275075" />
		<tag k="waterway" v="stream" />
	</node>
	<node id="-180581" lat="60.2065888861" lon="9.23020555387">
		<tag k="name" v="Delestjenn" />
		<tag k="natural" v="water" />
		<tag k="ssr:stedsnr" v="515066" />
	</node>
	<node id="-178532" lat="60.0048833339" lon="9.54144443893">
		<tag k="name" v="Tjennhaugvika" />
		<tag k="natural" v="bay" />
		<tag k="ssr:stedsnr" v="275052" />
	</node>
	<node id="-181307" lat="60.1259916689" lon="9.27452777778">
		<tag k="name" v="Vikvassdammen" />
		<tag k="ssr:stedsnr" v="697371" />
		<tag k="waterway" v="dam" />
	</node>
	<node id="-180576" lat="60.1532541832" lon="9.2471732384">
		<tag k="name" v="Vesle-Danmark" />
		<tag k="natural" v="water" />
		<tag k="ssr:stedsnr" v="515030" />
	</node>
	<node id="-180575" lat="60.2494666686" lon="9.3083611057">
		<tag k="name" v="Øya" />
		<tag k="place" v="island" />
		<tag k="ssr:stedsnr" v="514905" />
	</node>
	<node id="-178526" lat="59.972419448" lon="9.53463889177">
		<tag k="name" v="Kistefoss" />
		<tag k="natural" v="waterfall" />
		<tag k="ssr:stedsnr" v="275010" />
	</node>
	<node id="-178917" lat="60.2897750021" lon="9.36940000613">
		<tag k="name" v="Steinveggvatnet" />
		<tag k="natural" v="water" />
		<tag k="ssr:stedsnr" v="370087" />
	</node>
	<node id="-178523" lat="59.9746583324" lon="9.6698222135">
		<tag k="name" v="Grima" />
		<tag k="ssr:stedsnr" v="274441" />
		<tag k="waterway" v="stream" />
	</node>
	<node id="-178522" lat="60.1325611084" lon="9.51365834176">
		<tag k="name" v="Dælatjenn" />
		<tag k="natural" v="water" />
		<tag k="ssr:stedsnr" v="274355" />
	</node>
	<node id="-181647" lat="59.9512638896" lon="9.61793055628">
		<tag k="name" v="Libekk" />
		<tag k="ssr:stedsnr" v="760445" />
		<tag k="waterway" v="stream" />
	</node>
	<node id="-178518" lat="60.0866750026" lon="9.40702499756">
		<tag k="name" v="Puttane" />
		<tag k="natural" v="water" />
		<tag k="ssr:stedsnr" v="273952" />
		<tag k="water" v="pond" />
	</node>
	<node id="-178517" lat="60.0715166646" lon="9.38421389239">
		<tag k="name" v="Rolitjenn" />
		<tag k="natural" v="water" />
		<tag k="ssr:stedsnr" v="273943" />
	</node>
	<node id="-180563" lat="60.2784722197" lon="9.35479721647">
		<tag k="name" v="Værtjenn" />
		<tag k="natural" v="water" />
		<tag k="ssr:stedsnr" v="491116" />
	</node>
	<node id="-180560" lat="60.2942000021" lon="9.35074999143">
		<tag k="name" v="Fiskeløysingen" />
		<tag k="natural" v="water" />
		<tag k="ssr:stedsnr" v="491092" />
	</node>
	<node id="-178507" lat="60.1780166645" lon="9.46101666833">
		<tag k="name" v="Kjørsletjenn" />
		<tag k="natural" v="water" />
		<tag k="ssr:stedsnr" v="273718" />
	</node>
	<node id="-180550" lat="60.093086112" lon="9.60853054764">
		<tag k="name" v="Sluffa" />
		<tag k="ssr:stedsnr" v="490856" />
		<tag k="waterway" v="stream" />
	</node>
	<node id="-178500" lat="60.1555083342" lon="9.34729722392">
		<tag k="name" v="Sinerbekken" />
		<tag k="ssr:stedsnr" v="273656" />
		<tag k="waterway" v="stream" />
	</node>
	<node id="-178499" lat="60.2889499995" lon="9.29811389487">
		<tag k="name" v="Løkane" />
		<tag k="place" v="locality" />
		<tag k="ssr:stedsnr" v="273657" />
	</node>
	<node id="-180546" lat="60.2426604106" lon="9.42171284192">
		<tag k="name" v="Sjusjøbroren" />
		<tag k="natural" v="water" />
		<tag k="ssr:stedsnr" v="490289" />
	</node>
	<node id="-180540" lat="59.9858611111" lon="9.82915833087">
		<tag k="name" v="Svarttjenn" />
		<tag k="natural" v="water" />
		<tag k="ssr:stedsnr" v="489947" />
	</node>
	<node id="-180539" lat="60.0448805516" lon="9.75425278367">
		<tag k="name" v="Trytetjenn" />
		<tag k="natural" v="water" />
		<tag k="ssr:stedsnr" v="489898" />
	</node>
	<node id="-178490" lat="60.2612361074" lon="9.35609444705">
		<tag k="name" v="Hallingbrufossen" />
		<tag k="natural" v="waterfall" />
		<tag k="ssr:stedsnr" v="273420" />
	</node>
	<node id="-181983" lat="60.1316250018" lon="9.23948332897">
		<tag k="name" v="Kvitvatn" />
		<tag k="natural" v="water" />
		<tag k="ssr:stedsnr" v="854417" />
	</node>
	<node id="-178487" lat="60.2599666704" lon="9.18969999678">
		<tag k="name" v="Vesle Uletjenn" />
		<tag k="natural" v="water" />
		<tag k="ssr:stedsnr" v="273296" />
	</node>
	<node id="-180534" lat="60.1904138922" lon="9.28205554734">
		<tag k="name" v="Åsanlanglitjenn" />
		<tag k="natural" v="water" />
		<tag k="ssr:stedsnr" v="490478" />
	</node>
	<node id="-180533" lat="60.2029277807" lon="9.41871945154">
		<tag k="name" v="Kvernebekken" />
		<tag k="ssr:stedsnr" v="490473" />
		<tag k="waterway" v="stream" />
	</node>
	<node id="-178484" lat="60.3401250021" lon="9.19343889115">
		<tag k="name" v="Røvsholobekken" />
		<tag k="ssr:stedsnr" v="273199" />
		<tag k="waterway" v="stream" />
	</node>
	<node id="-180530" lat="60.1658373023" lon="9.35374435527">
		<tag k="name" v="Svarttjenn" />
		<tag k="natural" v="water" />
		<tag k="ssr:stedsnr" v="490441" />
	</node>
	<node id="-178909" lat="60.2281222225" lon="9.36441389075">
		<tag k="name" v="Eggedøla" />
		<tag k="ssr:stedsnr" v="369232" />
		<tag k="waterway" v="river" />
	</node>
	<node id="-178474" lat="60.2588250007" lon="9.35324167173">
		<tag k="name" v="Åsfossen" />
		<tag k="natural" v="waterfall" />
		<tag k="ssr:stedsnr" v="273125" />
	</node>
	<node id="-180521" lat="59.9747083316" lon="9.5109250047">
		<tag k="name" v="Nedre Aurehølen" />
		<tag k="place" v="locality" />
		<tag k="ssr:stedsnr" v="489342" />
	</node>
	<node id="-180520" lat="59.9799666693" lon="9.56549721569">
		<tag k="name" v="Lindbutjenn" />
		<tag k="natural" v="water" />
		<tag k="ssr:stedsnr" v="489338" />
	</node>
	<node id="-181980" lat="60.1147666677" lon="9.55033610494">
		<tag k="alt_name" v="Perlemyr" />
		<tag k="name" v="Pelemyrtjenn" />
		<tag k="natural" v="water" />
		<tag k="ssr:stedsnr" v="854386" />
	</node>
	<node id="-178470" lat="60.1337833338" lon="9.41026110408">
		<tag k="name" v="Langefoss" />
		<tag k="natural" v="waterfall" />
		<tag k="ssr:stedsnr" v="273089" />
	</node>
	<node id="-178469" lat="60.1444972248" lon="9.39662222961">
		<tag k="name" v="Ulebekk" />
		<tag k="ssr:stedsnr" v="273087" />
		<tag k="waterway" v="stream" />
	</node>
	<node id="-180515" lat="59.9976611146" lon="9.52852221893">
		<tag k="name" v="Eiret" />
		<tag k="natural" v="strait" />
		<tag k="ssr:stedsnr" v="489291" />
	</node>
	<node id="-180514" lat="59.9995388889" lon="9.48700554826">
		<tag k="name" v="Grytehølen" />
		<tag k="place" v="locality" />
		<tag k="ssr:stedsnr" v="489288" />
	</node>
	<node id="-178465" lat="60.2967999992" lon="9.18416388107">
		<tag k="name" v="Kråketjenn" />
		<tag k="natural" v="water" />
		<tag k="ssr:stedsnr" v="273005" />
	</node>
	<node id="-180510" lat="60.012022223" lon="9.5339111116">
		<tag k="name" v="Langetjenn" />
		<tag k="natural" v="water" />
		<tag k="ssr:stedsnr" v="489023" />
	</node>
	<node id="-178460" lat="60.2704972213" lon="9.20829999583">
		<tag k="name" v="Høvretjenn" />
		<tag k="natural" v="water" />
		<tag k="ssr:stedsnr" v="272764" />
	</node>
	<node id="-180506" lat="59.9281833307" lon="9.71509166344">
		<tag k="name" v="Gamleandershølen" />
		<tag k="place" v="locality" />
		<tag k="ssr:stedsnr" v="461072" />
	</node>
	<node id="-178456" lat="60.1909138892" lon="9.26641665911">
		<tag k="name" v="Venlitjenn" />
		<tag k="natural" v="water" />
		<tag k="ssr:stedsnr" v="272603" />
	</node>
	<node id="-178455" lat="60.2096666691" lon="9.27028889733">
		<tag k="name" v="Uletjenn" />
		<tag k="natural" v="water" />
		<tag k="ssr:stedsnr" v="272454" />
	</node>
	<node id="-180501" lat="60.023494448" lon="9.72928611962">
		<tag k="name" v="Hektoa" />
		<tag k="ssr:stedsnr" v="457987" />
		<tag k="waterway" v="stream" />
	</node>
	<node id="-178451" lat="60.1245305597" lon="9.27553332648">
		<tag k="name" v="Vikvasselva" />
		<tag k="ssr:stedsnr" v="272356" />
		<tag k="waterway" v="stream" />
	</node>
	<node id="-178448" lat="60.1675277769" lon="9.21549721675">
		<tag k="name" v="Brenntangen" />
		<tag k="natural" v="cape" />
		<tag k="ssr:stedsnr" v="272143" />
	</node>
	<node id="-178447" lat="60.1718555576" lon="9.22794721503">
		<tag k="name" v="Barlindostjenn" />
		<tag k="natural" v="water" />
		<tag k="ssr:stedsnr" v="272141" />
	</node>
	<node id="-178446" lat="60.3210138909" lon="9.21551944766">
		<tag k="name" v="Bubekk" />
		<tag k="ssr:stedsnr" v="272086" />
		<tag k="waterway" v="stream" />
	</node>
	<node id="-178903" lat="60.0635388849" lon="9.51288888347">
		<tag k="name" v="Soneren" />
		<tag k="natural" v="water" />
		<tag k="ssr:stedsnr" v="369071" />
		<tag k="water" v="lake" />
	</node>
	<node id="-180488" lat="60.0381138928" lon="9.77158611614">
		<tag k="alt_name" v="Høgsetertjern" />
		<tag k="name" v="Høgsetertjenn" />
		<tag k="natural" v="water" />
		<tag k="ssr:stedsnr" v="457776" />
	</node>
	<node id="-180480" lat="60.0377722249" lon="9.66183888065">
		<tag k="name" v="Skomphøl" />
		<tag k="place" v="locality" />
		<tag k="ssr:stedsnr" v="457630" />
	</node>
	<node id="-180475" lat="60.0534472265" lon="9.66548333966">
		<tag k="name" v="Bikkjefotdike" />
		<tag k="natural" v="water" />
		<tag k="ssr:stedsnr" v="457607" />
		<tag k="water" v="pond" />
	</node>
	<node id="-180522" lat="60.1249388904" lon="9.35941388784">
		<tag k="name" v="Kvernbekken" />
		<tag k="ssr:stedsnr" v="489385" />
		<tag k="waterway" v="stream" />
	</node>
	<node id="-180458" lat="60.1141944408" lon="9.58485276935">
		<tag k="name" v="Flåtaløkdammen" />
		<tag k="ssr:stedsnr" v="457492" />
		<tag k="waterway" v="dam" />
	</node>
	<node id="-180450" lat="60.055091664" lon="9.54603055131">
		<tag k="name" v="Sandoddevika" />
		<tag k="natural" v="bay" />
		<tag k="ssr:stedsnr" v="457428" />
	</node>
	<node id="-181749" lat="60.0095833331" lon="9.63042222172">
		<tag k="alt_name" v="Hønnsjøen" />
		<tag k="name" v="Hornsjøen" />
		<tag k="natural" v="water" />
		<tag k="ssr:stedsnr" v="793988" />
	</node>
	<node id="-181284" lat="60.2506416656" lon="9.30324721537">
		<tag k="name" v="Kaugerudfossen" />
		<tag k="natural" v="waterfall" />
		<tag k="ssr:stedsnr" v="696924" />
	</node>
	<node id="-180601" lat="60.1624916707" lon="9.37084166787">
		<tag k="name" v="Lammefoss" />
		<tag k="natural" v="waterfall" />
		<tag k="ssr:stedsnr" v="515647" />
	</node>
	<node id="-180433" lat="60.0064111143" lon="9.64097221701">
		<tag k="name" v="Bukketjenn" />
		<tag k="natural" v="water" />
		<tag k="ssr:stedsnr" v="457210" />
	</node>
	<node id="-180431" lat="60.0346833301" lon="9.53341944997">
		<tag k="name" v="Svartetjenn" />
		<tag k="natural" v="water" />
		<tag k="ssr:stedsnr" v="457189" />
	</node>
	<node id="-180425" lat="60.0032416646" lon="9.5023277713">
		<tag k="name" v="Øvre Megardstjenn" />
		<tag k="natural" v="water" />
		<tag k="ssr:stedsnr" v="457111" />
	</node>
	<node id="-180418" lat="59.9949861142" lon="9.52212221674">
		<tag k="name" v="Sandvika" />
		<tag k="natural" v="bay" />
		<tag k="ssr:stedsnr" v="457066" />
	</node>
	<node id="-180413" lat="60.0188416637" lon="9.5466472222">
		<tag k="name" v="Kjørkerotjenn" />
		<tag k="natural" v="water" />
		<tag k="ssr:stedsnr" v="457027" />
	</node>
	<node id="-180409" lat="60.2348638918" lon="9.43400834071">
		<tag k="name" v="Fjøratjenn" />
		<tag k="natural" v="water" />
		<tag k="ssr:stedsnr" v="456996" />
	</node>
	<node id="-180403" lat="59.9598666631" lon="9.63869444739">
		<tag k="name" v="Barhaugbekken" />
		<tag k="ssr:stedsnr" v="456464" />
		<tag k="waterway" v="stream" />
	</node>
	<node id="-180401" lat="60.1448333364" lon="9.50484166939">
		<tag k="name" v="Fugletjennbekken" />
		<tag k="ssr:stedsnr" v="456395" />
		<tag k="waterway" v="stream" />
	</node>
	<node id="-180400" lat="60.1989027791" lon="9.39908333567">
		<tag k="name" v="Østengtjennet" />
		<tag k="natural" v="water" />
		<tag k="ssr:stedsnr" v="455998" />
	</node>
	<node id="-179229" lat="60.134441667" lon="9.55050555812">
		<tag k="alt_name" v="Bjørevatnet" />
		<tag k="name" v="Bjørevatna" />
		<tag k="natural" v="water" />
		<tag k="ssr:stedsnr" v="4431" />
		<tag k="water" v="lake" />
	</node>
	<node id="-180393" lat="60.0802527738" lon="9.34748333354">
		<tag k="name" v="Tuftnevassoset" />
		<tag k="natural" v="bay" />
		<tag k="ssr:stedsnr" v="455912" />
	</node>
	<node id="-180388" lat="60.3262583325" lon="9.18417500362">
		<tag k="name" v="Haglebudammen" />
		<tag k="ssr:stedsnr" v="455879" />
		<tag k="waterway" v="dam" />
	</node>
	<node id="-180387" lat="60.3348166661" lon="9.18027222943">
		<tag k="name" v="Gråntangen" />
		<tag k="natural" v="cape" />
		<tag k="ssr:stedsnr" v="455875" />
	</node>
	<node id="-180379" lat="60.1851972258" lon="9.41394722638">
		<tag k="name" v="Fuglevik" />
		<tag k="natural" v="bay" />
		<tag k="ssr:stedsnr" v="455710" />
	</node>
	<node id="-180358" lat="60.147408334" lon="9.32158610474">
		<tag k="name" v="Rolihøl" />
		<tag k="natural" v="bay" />
		<tag k="ssr:stedsnr" v="455098" />
	</node>
	<node id="-180246" lat="60.134247222" lon="9.31795555968">
		<tag k="name" v="Trettetjenn" />
		<tag k="natural" v="water" />
		<tag k="ssr:stedsnr" v="265136" />
	</node>
	<node id="-180345" lat="60.2626143313" lon="9.25678575568">
		<tag k="name" v="Røbba" />
		<tag k="natural" v="water" />
		<tag k="ssr:stedsnr" v="454873" />
		<tag k="water" v="pond" />
	</node>
	<node id="-180518" lat="60.2271305588" lon="9.25350277876">
		<tag k="name" v="Svarttjenn" />
		<tag k="natural" v="water" />
		<tag k="ssr:stedsnr" v="489306" />
	</node>
	<node id="-180342" lat="60.1674361086" lon="9.2795527826">
		<tag k="name" v="Vindolelva" />
		<tag k="ssr:stedsnr" v="454688" />
		<tag k="waterway" v="stream" />
	</node>
	<node id="-180338" lat="60.1804583352" lon="9.27312777984">
		<tag k="name" v="Sauetjenn" />
		<tag k="natural" v="water" />
		<tag k="ssr:stedsnr" v="454667" />
	</node>
	<node id="-180335" lat="60.1495361069" lon="9.3034277803">
		<tag k="name" v="Jankelibekken" />
		<tag k="ssr:stedsnr" v="454349" />
		<tag k="waterway" v="stream" />
	</node>
	<node id="-181336" lat="60.1332361095" lon="9.35292776901">
		<tag k="name" v="Åliolen" />
		<tag k="natural" v="water" />
		<tag k="ssr:stedsnr" v="698104" />
		<tag k="water" v="pond" />
	</node>
	<node id="-180332" lat="60.1579527749" lon="9.22064167342">
		<tag k="name" v="Elgstjenn" />
		<tag k="natural" v="water" />
		<tag k="ssr:stedsnr" v="454147" />
	</node>
	<node id="-181266" lat="60.2883555576" lon="9.37426943977">
		<tag k="name" v="Fiskeløysingen" />
		<tag k="natural" v="water" />
		<tag k="ssr:stedsnr" v="673599" />
	</node>
	<node id="-180330" lat="60.1722000026" lon="9.21766943757">
		<tag k="name" v="Langlitjennbekken" />
		<tag k="ssr:stedsnr" v="454139" />
		<tag k="waterway" v="stream" />
	</node>
	<node id="-180329" lat="60.1682638871" lon="9.23810555315">
		<tag k="name" v="Tjuvekulpen" />
		<tag k="natural" v="water" />
		<tag k="ssr:stedsnr" v="454138" />
		<tag k="water" v="pond" />
	</node>
	<node id="-180326" lat="60.191844441" lon="9.18885277024">
		<tag k="name" v="Ytrevatn" />
		<tag k="natural" v="water" />
		<tag k="ssr:stedsnr" v="454074" />
		<tag k="water" v="lake" />
	</node>
	<node id="-180323" lat="60.1562577394" lon="9.23785325481">
		<tag k="name" v="Buvassbekken" />
		<tag k="ssr:stedsnr" v="454029" />
		<tag k="waterway" v="stream" />
	</node>
	<node id="-180321" lat="60.2022138891" lon="9.21067222526">
		<tag k="name" v="Fjellvatn" />
		<tag k="natural" v="water" />
		<tag k="ssr:stedsnr" v="454006" />
	</node>
	<node id="-180318" lat="60.302369442" lon="9.1626805483">
		<tag k="name" v="Steintjenn" />
		<tag k="natural" v="water" />
		<tag k="ssr:stedsnr" v="431495" />
	</node>
	<node id="-180317" lat="60.2662361054" lon="9.17927520915">
		<tag k="name" v="Skjenvatnet" />
		<tag k="natural" v="water" />
		<tag k="ssr:stedsnr" v="431319" />
		<tag k="water" v="lake" />
	</node>
	<node id="-180316" lat="60.2705777788" lon="9.22070554763">
		<tag k="name" v="Kråketjenn" />
		<tag k="natural" v="water" />
		<tag k="ssr:stedsnr" v="431138" />
	</node>
	<node id="-180310" lat="60.3118194476" lon="9.33921666578">
		<tag k="name" v="Flætjenn" />
		<tag k="natural" v="water" />
		<tag k="ssr:stedsnr" v="431047" />
	</node>
	<node id="-180309" lat="60.2993583354" lon="9.23770555597">
		<tag k="name" v="Sagbekken" />
		<tag k="ssr:stedsnr" v="431042" />
		<tag k="waterway" v="stream" />
	</node>
	<node id="-181603" lat="60.2047333357" lon="9.49725556187">
		<tag k="name" v="Tverrbekken" />
		<tag k="ssr:stedsnr" v="759510" />
		<tag k="waterway" v="stream" />
	</node>
	<node id="-180300" lat="60.0908027808" lon="9.45513610521">
		<tag k="name" v="Skjærsbekken" />
		<tag k="ssr:stedsnr" v="430104" />
		<tag k="waterway" v="stream" />
	</node>
	<node id="-180295" lat="60.2427555563" lon="9.19328888535">
		<tag k="fixme" v="multiple name tags, choose one and add the other to alt_name" />
		<tag k="name" v="Kyrskardvatnet;Kyrskartjenn" />
		<tag k="natural" v="water" />
		<tag k="ssr:stedsnr" v="429990" />
	</node>
	<node id="-180290" lat="59.9964472201" lon="9.71785277088">
		<tag k="name" v="Bolsrudtjenn" />
		<tag k="natural" v="water" />
		<tag k="ssr:stedsnr" v="429969" />
	</node>
	<node id="-180287" lat="59.9890388887" lon="9.83114722643">
		<tag k="name" v="Grastjenn" />
		<tag k="natural" v="water" />
		<tag k="ssr:stedsnr" v="429949" />
	</node>
	<node id="-180283" lat="59.951399997" lon="9.80558610707">
		<tag k="alt_name" v="Storelva" />
		<tag k="name" v="Simoa" />
		<tag k="ssr:stedsnr" v="429753" />
		<tag k="waterway" v="river" />
	</node>
	<node id="-182329" lat="60.0059833339" lon="9.77611111525">
		<tag k="name" v="Smalemyrbekken" />
		<tag k="ssr:stedsnr" v="943983" />
		<tag k="waterway" v="stream" />
	</node>
	<node id="-182327" lat="60.0534777757" lon="9.42686110702">
		<tag k="name" v="Femtjenna" />
		<tag k="natural" v="water" />
		<tag k="ssr:stedsnr" v="943936" />
	</node>
	<node id="-180275" lat="60.1729151798" lon="9.32133783098">
		<tag k="name" v="Skodøltjenn" />
		<tag k="natural" v="water" />
		<tag k="ssr:stedsnr" v="429444" />
	</node>
	<node id="-180270" lat="60.1461111099" lon="9.53385000728">
		<tag k="name" v="Albjørktjenn" />
		<tag k="natural" v="water" />
		<tag k="ssr:stedsnr" v="429421" />
	</node>
	<node id="-182313" lat="60.1238611144" lon="9.54594167572">
		<tag k="name" v="Munkebekk" />
		<tag k="ssr:stedsnr" v="943468" />
		<tag k="waterway" v="stream" />
	</node>
	<node id="-180264" lat="60.1467638873" lon="9.33698610249">
		<tag k="alt_name" v="Dukelivatnet" />
		<tag k="name" v="Vestre Dukelivatn" />
		<tag k="natural" v="water" />
		<tag k="ssr:stedsnr" v="429404" />
	</node>
	<node id="-180263" lat="60.1397500003" lon="9.3396611067">
		<tag k="name" v="Svartetjenn" />
		<tag k="natural" v="water" />
		<tag k="ssr:stedsnr" v="429405" />
	</node>
	<node id="-180262" lat="60.0884083361" lon="9.30617222315">
		<tag k="name" v="Tjenndalstjenn" />
		<tag k="natural" v="water" />
		<tag k="ssr:stedsnr" v="429111" />
	</node>
	<node id="-182303" lat="60.0139333372" lon="9.5547138939">
		<tag k="name" v="Storebrannfoss" />
		<tag k="natural" v="waterfall" />
		<tag k="ssr:stedsnr" v="943289" />
	</node>
	<node id="-182301" lat="60.0315194467" lon="9.52121945018">
		<tag k="name" v="Nedre Sulutjenn" />
		<tag k="natural" v="water" />
		<tag k="ssr:stedsnr" v="943245" />
	</node>
	<node id="-180250" lat="59.9922555595" lon="9.52028610732">
		<tag k="name" v="Brannbråtatjenn" />
		<tag k="natural" v="water" />
		<tag k="ssr:stedsnr" v="428288" />
	</node>
	<node id="-180242" lat="60.2485000013" lon="9.21966944904">
		<tag k="name" v="Elgtjennbekken" />
		<tag k="ssr:stedsnr" v="264199" />
		<tag k="waterway" v="stream" />
	</node>
	<node id="-182294" lat="60.0002611086" lon="9.50781944812">
		<tag k="name" v="Nedre Megardstjenn" />
		<tag k="natural" v="water" />
		<tag k="ssr:stedsnr" v="943140" />
	</node>
	<node id="-182293" lat="60.0163694442" lon="9.52324722478">
		<tag k="name" v="Toretjenn" />
		<tag k="natural" v="water" />
		<tag k="ssr:stedsnr" v="943132" />
	</node>
	<node id="-180992" lat="60.2389194485" lon="9.26890833888">
		<tag k="name" v="Tverråa" />
		<tag k="ssr:stedsnr" v="611277" />
		<tag k="waterway" v="river" />
	</node>
	<node id="-180240" lat="60.3310861082" lon="9.17891388319">
		<tag k="name" v="Langodden" />
		<tag k="natural" v="cape" />
		<tag k="ssr:stedsnr" v="249579" />
	</node>
	<node id="-180234" lat="60.2649000004" lon="9.45415000227">
		<tag k="name" v="Fiskeløysingen" />
		<tag k="natural" v="water" />
		<tag k="ssr:stedsnr" v="249098" />
	</node>
	<node id="-180229" lat="60.3176472208" lon="9.28976110625">
		<tag k="name" v="Jøslivatn" />
		<tag k="natural" v="water" />
		<tag k="ssr:stedsnr" v="248026" />
	</node>
</osm>
