<?xml version="1.0" encoding="UTF-8"?>
<osm generator="osmapis" version="0.6">
	<node id="-180731" lat="60.0726694486" lon="9.44628888101">
		<tag k="name" v="Løfterøysa" />
		<tag k="place" v="locality" />
		<tag k="ssr:stedsnr" v="518964" />
	</node>
	<node id="-179705" lat="60.046058331" lon="9.63260554713">
		<tag k="alt_name" v="Holmen" />
		<tag k="amenity" v="place_of_worship" />
		<tag k="denomination" v="lutheran" />
		<tag k="name" v="Holmen kirke" />
		<tag k="religion" v="christian" />
		<tag k="ssr:stedsnr" v="125902" />
	</node>
	<node id="-180727" lat="60.1025444412" lon="9.63296944936">
		<tag k="name" v="Lyutomta" />
		<tag k="place" v="locality" />
		<tag k="ssr:stedsnr" v="518889" />
	</node>
	<node id="-180725" lat="60.0171305564" lon="9.75829167163">
		<tag k="name" v="Geitedansen" />
		<tag k="place" v="locality" />
		<tag k="ssr:stedsnr" v="518882" />
	</node>
	<node id="-179186" lat="60.0558027814" lon="9.76628332526">
		<tag k="name" v="Kølabonn" />
		<tag k="place" v="locality" />
		<tag k="ssr:stedsnr" v="882705" />
	</node>
	<node id="-178600" lat="60.0427694441" lon="9.63721667562">
		<tag k="name" v="Museum" />
		<tag k="ssr:stedsnr" v="275580" />
		<tag k="tourism" v="museum" />
	</node>
	<node id="-179171" lat="60.0035499961" lon="9.55203334112">
		<tag k="name" v="Sagbenken" />
		<tag k="place" v="locality" />
		<tag k="ssr:stedsnr" v="882647" />
	</node>
	<node id="-179168" lat="60.0245972213" lon="9.5770805498">
		<tag k="name" v="Delesgrinda" />
		<tag k="place" v="locality" />
		<tag k="ssr:stedsnr" v="882639" />
	</node>
	<node id="-180703" lat="60.0423166677" lon="9.5129388896">
		<tag k="name" v="Kastet" />
		<tag k="place" v="locality" />
		<tag k="ssr:stedsnr" v="518188" />
	</node>
	<node id="-179663" lat="60.0940527776" lon="9.61685556423">
		<tag k="name" v="Ramstadstillinga" />
		<tag k="place" v="locality" />
		<tag k="ssr:stedsnr" v="93846" />
	</node>
	<node id="-179148" lat="60.1302805568" lon="9.53756667309">
		<tag k="name" v="Listigstein" />
		<tag k="place" v="locality" />
		<tag k="ssr:stedsnr" v="882416" />
	</node>
	<node id="-179874" lat="60.0610749958" lon="9.45916943733">
		<tag k="name" v="Grisesprang" />
		<tag k="place" v="locality" />
		<tag k="ssr:stedsnr" v="153189" />
	</node>
	<node id="-178631" lat="60.0702638889" lon="9.7179833381">
		<tag k="name" v="Korsen" />
		<tag k="place" v="locality" />
		<tag k="ssr:stedsnr" v="275920" />
	</node>
	<node id="-181190" lat="60.0118861077" lon="9.55573611098">
		<tag k="name" v="Kølabotn" />
		<tag k="place" v="locality" />
		<tag k="ssr:stedsnr" v="639328" />
	</node>
	<node id="-180158" lat="60.0861722267" lon="9.52194165821">
		<tag k="name" v="Gutua" />
		<tag k="place" v="locality" />
		<tag k="ssr:stedsnr" v="214937" />
	</node>
	<node id="-181180" lat="60.0208083316" lon="9.5247805624">
		<tag k="name" v="Kastet" />
		<tag k="place" v="locality" />
		<tag k="ssr:stedsnr" v="639131" />
	</node>
	<node id="-181689" lat="60.0907805597" lon="9.71268610685">
		<tag k="name" v="Geddehytta" />
		<tag k="place" v="locality" />
		<tag k="ssr:stedsnr" v="760899" />
	</node>
	<node id="-179638" lat="60.0980777807" lon="9.54757223114">
		<tag k="name" v="Reiarreiret" />
		<tag k="place" v="locality" />
		<tag k="ssr:stedsnr" v="93401" />
	</node>
	<node id="-179124" lat="60.0089472259" lon="9.73708889305">
		<tag k="name" v="Flåtastøa" />
		<tag k="place" v="locality" />
		<tag k="ssr:stedsnr" v="882218" />
	</node>
	<node id="-180653" lat="60.0771305511" lon="9.70857500525">
		<tag k="name" v="Bjønnestillinga" />
		<tag k="place" v="locality" />
		<tag k="ssr:stedsnr" v="517037" />
	</node>
	<node id="-181675" lat="60.0237555542" lon="9.59529721435">
		<tag k="name" v="Andreasle" />
		<tag k="place" v="locality" />
		<tag k="ssr:stedsnr" v="760715" />
	</node>
	<node id="-181160" lat="60.0555500037" lon="9.69894999529">
		<tag k="name" v="Sandbekk" />
		<tag k="place" v="locality" />
		<tag k="ssr:stedsnr" v="638794" />
	</node>
	<node id="-179109" lat="59.997847222" lon="9.548241672">
		<tag k="name" v="Bikkjebettet" />
		<tag k="place" v="locality" />
		<tag k="ssr:stedsnr" v="882040" />
	</node>
	<node id="-179105" lat="60.0718722251" lon="9.69012777386">
		<tag k="name" v="Jonasplassen" />
		<tag k="place" v="locality" />
		<tag k="ssr:stedsnr" v="882030" />
	</node>
	<node id="-178585" lat="59.946502781" lon="9.62170277624">
		<tag k="name" v="Hestølla" />
		<tag k="place" v="locality" />
		<tag k="ssr:stedsnr" v="275414" />
	</node>
	<node id="-181651" lat="60.1399694448" lon="9.5454444458">
		<tag k="name" v="Stillinga" />
		<tag k="place" v="locality" />
		<tag k="ssr:stedsnr" v="760470" />
	</node>
	<node id="-179602" lat="59.979124996" lon="9.63272778411">
		<tag k="name" v="Kollele" />
		<tag k="place" v="locality" />
		<tag k="ssr:stedsnr" v="93076" />
	</node>
	<node id="-181122" lat="59.9838388872" lon="9.68079722923">
		<tag k="name" v="Bikkjebettet" />
		<tag k="place" v="locality" />
		<tag k="ssr:stedsnr" v="638125" />
	</node>
	<node id="-179435" lat="60.0287666634" lon="9.7552972176">
		<tag k="name" v="Rulldompa" />
		<tag k="place" v="locality" />
		<tag k="ssr:stedsnr" v="32757" />
	</node>
	<node id="-178556" lat="60.0085249977" lon="9.60617778431">
		<tag k="name" v="Bjønnestillinga" />
		<tag k="place" v="locality" />
		<tag k="ssr:stedsnr" v="275200" />
	</node>
	<node id="-178554" lat="60.0075111083" lon="9.60076111021">
		<tag k="name" v="Tomskreppa" />
		<tag k="place" v="locality" />
		<tag k="ssr:stedsnr" v="275191" />
	</node>
	<node id="-180087" lat="59.9927500021" lon="9.54831389339">
		<tag k="name" v="Ridele" />
		<tag k="place" v="locality" />
		<tag k="ssr:stedsnr" v="214050" />
	</node>
	<node id="-181621" lat="59.9843527812" lon="9.62322221691">
		<tag k="name" v="Bjønnestillinga" />
		<tag k="place" v="locality" />
		<tag k="ssr:stedsnr" v="760108" />
	</node>
	<node id="-179054" lat="59.9687888878" lon="9.77142499857">
		<tag k="name" v="Ulvesund" />
		<tag k="place" v="locality" />
		<tag k="ssr:stedsnr" v="396439" />
	</node>
	<node id="-180584" lat="60.2282777765" lon="9.19495554734">
		<tag k="name" v="Tjuvkista" />
		<tag k="place" v="locality" />
		<tag k="ssr:stedsnr" v="515135" />
	</node>
	<node id="-181595" lat="60.1345944418" lon="9.43645278347">
		<tag k="amenity" v="community_centre" />
		<tag k="name" v="Samfunnshus" />
		<tag k="ssr:stedsnr" v="759305" />
	</node>
	<node id="-179019" lat="60.0171138885" lon="9.49895833589">
		<tag k="name" v="Postmyra" />
		<tag k="place" v="locality" />
		<tag k="ssr:stedsnr" v="396085" />
	</node>
	<node id="-179018" lat="60.0132027816" lon="9.5070388937">
		<tag k="name" v="Bjønnekra" />
		<tag k="old_name" v="Bjønnerkra" />
		<tag k="place" v="locality" />
		<tag k="ssr:stedsnr" v="396084" />
	</node>
	<node id="-179525" lat="60.235808336" lon="9.20219721391">
		<tag k="name" v="Pengeskorta" />
		<tag k="place" v="locality" />
		<tag k="ssr:stedsnr" v="90105" />
	</node>
	<node id="-181553" lat="60.2511527777" lon="9.35308611028">
		<tag k="name" v="Gammel kirkegård" />
		<tag k="place" v="locality" />
		<tag k="ssr:stedsnr" v="758143" />
	</node>
	<node id="-180504" lat="60.3348833351" lon="9.18136111157">
		<tag k="amenity" v="place_of_worship" />
		<tag k="denomination" v="lutheran" />
		<tag k="name" v="Haglebu fjellkirke" />
		<tag k="religion" v="christian" />
		<tag k="ssr:stedsnr" v="458107" />
	</node>
	<node id="-180502" lat="60.0087388864" lon="9.7886555493">
		<tag k="name" v="Kvennhuset" />
		<tag k="place" v="locality" />
		<tag k="ssr:stedsnr" v="457995" />
	</node>
	<node id="-180467" lat="60.0812499984" lon="9.52637499778">
		<tag k="name" v="Gunnarle" />
		<tag k="place" v="locality" />
		<tag k="ssr:stedsnr" v="457548" />
	</node>
	<node id="-180976" lat="59.9603861096" lon="9.61458889584">
		<tag k="alt_name" v="Vatnås" />
		<tag k="amenity" v="place_of_worship" />
		<tag k="denomination" v="lutheran" />
		<tag k="name" v="Vatnås kirke" />
		<tag k="religion" v="christian" />
		<tag k="ssr:stedsnr" v="610814" />
	</node>
	<node id="-179947" lat="59.9924833345" lon="9.73308055829">
		<tag k="name" v="Kjørkjemotufta" />
		<tag k="place" v="locality" />
		<tag k="ssr:stedsnr" v="154999" />
	</node>
	<node id="-180455" lat="59.9655361116" lon="9.66268056279">
		<tag k="name" v="Kølabonn" />
		<tag k="place" v="locality" />
		<tag k="ssr:stedsnr" v="457449" />
	</node>
	<node id="-179408" lat="59.99233333" lon="9.7726499953">
		<tag k="alt_name" v="Østbyrompa" />
		<tag k="name" v="Østbyrumpa" />
		<tag k="place" v="locality" />
		<tag k="ssr:stedsnr" v="32543" />
	</node>
	<node id="-178907" lat="60.0882472236" lon="9.4715361157">
		<tag k="amenity" v="community_centre" />
		<tag k="name" v="Frydheim" />
		<tag k="ssr:stedsnr" v="369097" />
	</node>
	<node id="-181199" lat="60.1370555559" lon="9.53808889456">
		<tag k="name" v="Haukereirfuru" />
		<tag k="place" v="locality" />
		<tag k="ssr:stedsnr" v="639504" />
	</node>
	<node id="-179416" lat="60.0481277803" lon="9.65909999259">
		<tag k="name" v="Plassen" />
		<tag k="place" v="locality" />
		<tag k="ssr:stedsnr" v="32593" />
	</node>
	<node id="-179410" lat="59.9969750038" lon="9.74825278475">
		<tag k="name" v="Flåtastøa" />
		<tag k="place" v="locality" />
		<tag k="ssr:stedsnr" v="32556" />
	</node>
	<node id="-179920" lat="60.0112388873" lon="9.74713332733">
		<tag k="name" v="Deilegranhaugen" />
		<tag k="place" v="locality" />
		<tag k="ssr:stedsnr" v="153805" />
	</node>
	<node id="-179906" lat="59.9522666692" lon="9.7127694444">
		<tag k="name" v="Vestre Bjønnestillinga" />
		<tag k="place" v="locality" />
		<tag k="ssr:stedsnr" v="153579" />
	</node>
	<node id="-179904" lat="59.9571055546" lon="9.71288889742">
		<tag k="name" v="Fremre Bjønnestillinga" />
		<tag k="place" v="locality" />
		<tag k="ssr:stedsnr" v="153576" />
	</node>
	<node id="-181438" lat="60.0702222249" lon="9.45571111736">
		<tag k="name" v="Likstein" />
		<tag k="place" v="locality" />
		<tag k="ssr:stedsnr" v="700975" />
	</node>
	<node id="-180921" lat="59.9678166647" lon="9.62199722222">
		<tag k="name" v="Bikkjebettet" />
		<tag k="place" v="locality" />
		<tag k="ssr:stedsnr" v="578381" />
	</node>
	<node id="-179893" lat="59.9633444434" lon="9.77064999832">
		<tag k="alt_name" v="Solumsmoen" />
		<tag k="amenity" v="place_of_worship" />
		<tag k="denomination" v="lutheran" />
		<tag k="name" v="Solumsmoen kapell" />
		<tag k="religion" v="christian" />
		<tag k="ssr:stedsnr" v="153453" />
	</node>
	<node id="-181424" lat="60.0541722236" lon="9.76783888127">
		<tag k="name" v="Kølabonn" />
		<tag k="place" v="locality" />
		<tag k="ssr:stedsnr" v="700781" />
	</node>
	<node id="-179370" lat="60.0324777764" lon="9.46003888864">
		<tag k="name" v="Stasjon" />
		<tag k="place" v="locality" />
		<tag k="ssr:stedsnr" v="32113" />
	</node>
	<node id="-181927" lat="60.0315861143" lon="9.74658611192">
		<tag k="name" v="Klovoa" />
		<tag k="place" v="locality" />
		<tag k="ssr:stedsnr" v="821760" />
	</node>
	<node id="-179875" lat="60.0621333341" lon="9.45699444633">
		<tag k="name" v="Hammaren" />
		<tag k="place" v="locality" />
		<tag k="ssr:stedsnr" v="153192" />
	</node>
	<node id="-181922" lat="60.0338416687" lon="9.62581388616">
		<tag k="name" v="Turiball" />
		<tag k="place" v="locality" />
		<tag k="ssr:stedsnr" v="821694" />
	</node>
	<node id="-179353" lat="60.1215055521" lon="9.47545000892">
		<tag k="name" v="Sjåheim" />
		<tag k="place" v="locality" />
		<tag k="ssr:stedsnr" v="31359" />
	</node>
	<node id="-179864" lat="60.0350500009" lon="9.53554999158">
		<tag k="name" v="Stillinga" />
		<tag k="place" v="locality" />
		<tag k="ssr:stedsnr" v="153039" />
	</node>
	<node id="-181911" lat="60.0423583294" lon="9.63952777295">
		<tag k="amenity" v="community_centre" />
		<tag k="name" v="Samfunnshus" />
		<tag k="ssr:stedsnr" v="821604" />
	</node>
	<node id="-178838" lat="59.9652111111" lon="9.8471166728">
		<tag k="name" v="Svenskekastet" />
		<tag k="place" v="locality" />
		<tag k="ssr:stedsnr" v="336614" />
	</node>
	<node id="-180372" lat="60.1646805571" lon="9.4687944489">
		<tag k="name" v="Bjønnestillinga" />
		<tag k="place" v="locality" />
		<tag k="ssr:stedsnr" v="455604" />
	</node>
	<node id="-180881" lat="60.1540472235" lon="9.33726111167">
		<tag k="name" v="Gamlesaga" />
		<tag k="place" v="locality" />
		<tag k="ssr:stedsnr" v="576981" />
	</node>
	<node id="-181904" lat="59.9813222225" lon="9.55176110825">
		<tag k="name" v="Skarva" />
		<tag k="place" v="locality" />
		<tag k="ssr:stedsnr" v="821536" />
	</node>
	<node id="-181894" lat="60.0346750027" lon="9.57278610804">
		<tag k="name" v="Nubberudsvreita" />
		<tag k="place" v="locality" />
		<tag k="ssr:stedsnr" v="821447" />
	</node>
	<node id="-178819" lat="60.0117111089" lon="9.49345000569">
		<tag k="name" v="Skrubbekjeften" />
		<tag k="place" v="locality" />
		<tag k="ssr:stedsnr" v="336104" />
	</node>
	<node id="-179330" lat="60.0483194489" lon="9.40575278428">
		<tag k="name" v="Danseplassen" />
		<tag k="place" v="locality" />
		<tag k="ssr:stedsnr" v="30337" />
	</node>
	<node id="-181375" lat="60.0159277803" lon="9.54715277195">
		<tag k="name" v="Tuftene" />
		<tag k="place" v="locality" />
		<tag k="ssr:stedsnr" v="700057" />
	</node>
	<node id="-181370" lat="60.0217916705" lon="9.584783337">
		<tag k="name" v="Kløvle" />
		<tag k="place" v="locality" />
		<tag k="ssr:stedsnr" v="699716" />
	</node>
	<node id="-181367" lat="60.0497500033" lon="9.63458333096">
		<tag k="name" v="Kjempehaugen" />
		<tag k="place" v="locality" />
		<tag k="ssr:stedsnr" v="699488" />
	</node>
	<node id="-181362" lat="60.0062111123" lon="9.6202555547">
		<tag k="name" v="Smulkebu" />
		<tag k="place" v="locality" />
		<tag k="ssr:stedsnr" v="699205" />
	</node>
	<node id="-181865" lat="59.9797916664" lon="9.57363055827">
		<tag k="name" v="Vatninga" />
		<tag k="place" v="locality" />
		<tag k="ssr:stedsnr" v="821086" />
	</node>
	<node id="-181863" lat="59.9956583325" lon="9.52859722684">
		<tag k="name" v="Patmos" />
		<tag k="place" v="locality" />
		<tag k="ssr:stedsnr" v="821062" />
	</node>
	<node id="-178787" lat="59.9319361156" lon="9.71043611609">
		<tag k="name" v="Tjyruomnen" />
		<tag k="place" v="locality" />
		<tag k="ssr:stedsnr" v="335538" />
	</node>
	<node id="-181851" lat="59.9768305536" lon="9.63194444157">
		<tag k="name" v="Tostenle" />
		<tag k="place" v="locality" />
		<tag k="ssr:stedsnr" v="820487" />
	</node>
	<node id="-181849" lat="59.9643722188" lon="9.63872778123">
		<tag k="name" v="Porteroa" />
		<tag k="place" v="locality" />
		<tag k="ssr:stedsnr" v="820480" />
	</node>
	<node id="-179793" lat="60.246236108" lon="9.35726388193">
		<tag k="alt_name" v="Eggedal" />
		<tag k="amenity" v="place_of_worship" />
		<tag k="denomination" v="lutheran" />
		<tag k="name" v="Eggedal kirke" />
		<tag k="religion" v="christian" />
		<tag k="ssr:stedsnr" v="151129" />
	</node>
	<node id="-178754" lat="60.0700638913" lon="9.70586667157">
		<tag k="name" v="Gælnemyrilua" />
		<tag k="place" v="locality" />
		<tag k="ssr:stedsnr" v="335031" />
	</node>
	<node id="-181824" lat="60.2293666674" lon="9.18824999967">
		<tag k="name" v="Bjønnestillinga" />
		<tag k="place" v="locality" />
		<tag k="ssr:stedsnr" v="819815" />
	</node>
	<node id="-182323" lat="59.9639916684" lon="9.8143694429">
		<tag k="name" v="Tuftene" />
		<tag k="place" v="locality" />
		<tag k="ssr:stedsnr" v="943619" />
	</node>
	<node id="-181810" lat="60.0622083334" lon="9.41138889281">
		<tag k="name" v="Danseplassen" />
		<tag k="place" v="locality" />
		<tag k="ssr:stedsnr" v="819350" />
	</node>
	<node id="-182309" lat="60.0875083317" lon="9.6450027696">
		<tag k="name" v="Stillinga" />
		<tag k="place" v="locality" />
		<tag k="ssr:stedsnr" v="943371" />
	</node>
	<node id="-180912" lat="60.0098277813" lon="9.64717222902">
		<tag k="name" v="Stillinga" />
		<tag k="place" v="locality" />
		<tag k="ssr:stedsnr" v="578217" />
	</node>
	<node id="-182299" lat="60.0555777762" lon="9.42917222623">
		<tag k="name" v="Fortråkka" />
		<tag k="place" v="locality" />
		<tag k="ssr:stedsnr" v="943231" />
	</node>
	<node id="-178700" lat="60.1573138908" lon="9.22802777099">
		<tag k="name" v="Gamle Fiskehytta" />
		<tag k="place" v="locality" />
		<tag k="ssr:stedsnr" v="333025" />
	</node>
	<node id="-179202" lat="59.9908638883" lon="9.80197778451">
		<tag k="name" v="Gleåsen" />
		<tag k="place" v="locality" />
		<tag k="ssr:stedsnr" v="889518" />
	</node>
</osm>
