<?xml version="1.0" encoding="UTF-8"?>
<<<<<<< HEAD
<osm version="0.6" generator="osmapis">
	<node lat="62.22121111096743" lon="11.812772231829811" id="-21702">
		<tag k="alt_name" v="Strømsfloen" />
		<tag k="name" v="Straumsfloen" />
		<tag k="natural" v="wetland" />
		<tag k="ssr:stedsnr" v="11297" />
	</node>
	<node lat="62.27078611193293" lon="11.78123332445444" id="-21712">
		<tag k="name" v="Gørfloan" />
		<tag k="natural" v="wetland" />
		<tag k="ssr:stedsnr" v="12667" />
	</node>
	<node lat="62.205211112029474" lon="11.739033337366521" id="-21716">
		<tag k="name" v="Gammelvollan" />
		<tag k="place" v="locality" />
		<tag k="ssr:stedsnr" v="235129" />
	</node>
	<node lat="62.23976110773823" lon="11.736349991842353" id="-21717">
		<tag k="name" v="Tylldalslaua" />
		<tag k="place" v="locality" />
		<tag k="ssr:stedsnr" v="235134" />
	</node>
	<node lat="62.34943611072759" lon="11.5596194538879" id="-21718">
		<tag k="name" v="Lortisfloen" />
		<tag k="natural" v="wetland" />
		<tag k="ssr:stedsnr" v="235528" />
	</node>
	<node lat="62.57826944007301" lon="11.100144448522707" id="-21722">
		<tag k="historic" v="shieling" />
		<tag k="name" v="Rygjeltvollen" />
		<tag k="place" v="locality" />
		<tag k="ssr:stedsnr" v="236070" />
	</node>
	<node lat="62.42455555765325" lon="11.157233324081917" id="-21730">
		<tag k="name" v="Småslettan" />
		<tag k="place" v="locality" />
		<tag k="ssr:stedsnr" v="236496" />
	</node>
	<node lat="62.55554999879597" lon="11.026780561142385" id="-21732">
		<tag k="name" v="Nygardsfloen" />
		<tag k="natural" v="wetland" />
		<tag k="ssr:stedsnr" v="236520" />
	</node>
	<node lat="62.54417499982858" lon="11.21265277143138" id="-21735">
		<tag k="historic" v="shieling" />
		<tag k="name" v="Gammelvollen" />
		<tag k="place" v="locality" />
		<tag k="ssr:stedsnr" v="236698" />
	</node>
	<node lat="62.26039722144015" lon="11.813680548937688" id="-21738">
		<tag k="name" v="Nørder Tuvjotan" />
		<tag k="place" v="locality" />
		<tag k="ssr:stedsnr" v="237055" />
	</node>
	<node lat="62.26108333769524" lon="11.80725554770775" id="-21739">
		<tag k="name" v="Ryvollen" />
		<tag k="place" v="locality" />
		<tag k="ssr:stedsnr" v="237058" />
	</node>
	<node lat="62.30999166641748" lon="11.686594438250339" id="-21742">
		<tag k="name" v="Hattmakerhåen" />
		<tag k="natural" v="wetland" />
		<tag k="ssr:stedsnr" v="237143" />
	</node>
	<node lat="62.33301666576212" lon="11.553527777748807" id="-21746">
		<tag k="name" v="Vintervegmyran" />
		<tag k="natural" v="wetland" />
		<tag k="ssr:stedsnr" v="237240" />
	</node>
	<node lat="62.33573888920526" lon="11.549702782777366" id="-21748">
		<tag k="name" v="Kuvan" />
		<tag k="place" v="locality" />
		<tag k="ssr:stedsnr" v="237244" />
	</node>
	<node lat="62.33573888551438" lon="11.533108342358476" id="-21749">
		<tag k="name" v="Litjlotten" />
		<tag k="natural" v="wetland" />
		<tag k="ssr:stedsnr" v="237248" />
	</node>
	<node lat="62.306719446341155" lon="11.623597224867497" id="-21754">
		<tag k="name" v="Ryvollen" />
		<tag k="place" v="locality" />
		<tag k="ssr:stedsnr" v="237339" />
	</node>
	<node lat="62.321455556382084" lon="11.586558326295327" id="-21757">
		<tag k="name" v="Storfloen" />
		<tag k="natural" v="wetland" />
		<tag k="ssr:stedsnr" v="237343" />
	</node>
	<node lat="62.480163887334896" lon="11.202466667458275" id="-21758">
		<tag k="name" v="Tverrmyra" />
		<tag k="natural" v="wetland" />
		<tag k="ssr:stedsnr" v="237346" />
	</node>
	<node lat="62.5708611138185" lon="11.064377781125133" id="-21760">
		<tag k="historic" v="shieling" />
		<tag k="name" v="Ytteroustuvollen" />
		<tag k="place" v="locality" />
		<tag k="ssr:stedsnr" v="237370" />
	</node>
	<node lat="62.58455000362579" lon="10.976291672672527" id="-21763">
		<tag k="landuse" v="meadow" />
		<tag k="name" v="Vangsgjeltenga" />
		<tag k="ssr:stedsnr" v="237436" />
	</node>
	<node lat="62.48854999812327" lon="11.219147218800058" id="-21769">
		<tag k="name" v="Blæstermyra" />
=======
<osm generator="osmapis" version="0.6">
	<node id="-358379" lat="62.5727972243" lon="11.0804583349">
		<tag k="name" v="Storfloen" />
		<tag k="natural" v="wetland" />
		<tag k="ssr:stedsnr" v="922142" />
	</node>
	<node id="-358374" lat="62.5332861153" lon="11.0272694484">
		<tag k="name" v="Storfloen" />
		<tag k="natural" v="wetland" />
		<tag k="ssr:stedsnr" v="921859" />
	</node>
	<node id="-358367" lat="62.5683805522" lon="10.9964166705">
		<tag k="landuse" v="meadow" />
		<tag k="name" v="Småenga" />
		<tag k="ssr:stedsnr" v="783432" />
	</node>
	<node id="-358360" lat="62.5633138927" lon="10.9901472192">
		<tag k="landuse" v="meadow" />
		<tag k="name" v="Gammelstuenget" />
		<tag k="ssr:stedsnr" v="782510" />
	</node>
	<node id="-358352" lat="62.2986861088" lon="11.5221083392">
		<tag k="name" v="Ulvfloen" />
		<tag k="natural" v="wetland" />
		<tag k="ssr:stedsnr" v="748414" />
	</node>
	<node id="-358328" lat="62.6069249994" lon="11.1234666747">
		<tag k="historic" v="shieling" />
		<tag k="name" v="Pålsvollen" />
		<tag k="place" v="locality" />
		<tag k="ssr:stedsnr" v="904920" />
	</node>
	<node id="-358326" lat="62.5277527773" lon="10.9972083248">
		<tag k="name" v="Stormyran" />
		<tag k="natural" v="wetland" />
		<tag k="ssr:stedsnr" v="904614" />
	</node>
	<node id="-358325" lat="62.5356999993" lon="11.0401972289">
		<tag k="name" v="Langmyra" />
		<tag k="natural" v="wetland" />
		<tag k="ssr:stedsnr" v="904581" />
	</node>
	<node id="-358323" lat="62.4991138862" lon="11.0385055531">
		<tag k="name" v="Stortjønnfloen" />
		<tag k="natural" v="wetland" />
		<tag k="ssr:stedsnr" v="904724" />
	</node>
	<node id="-358320" lat="62.5296166636" lon="11.0478027829">
		<tag k="name" v="Kvennhusfloen" />
		<tag k="natural" v="wetland" />
		<tag k="ssr:stedsnr" v="904568" />
	</node>
	<node id="-358319" lat="62.346622226" lon="11.7170166628">
		<tag k="name" v="Brattfallbua" />
		<tag k="natural" v="wetland" />
		<tag k="ssr:stedsnr" v="904227" />
	</node>
	<node id="-358308" lat="62.2308833303" lon="11.7705916709">
		<tag k="name" v="Summundsundet" />
		<tag k="natural" v="wetland" />
		<tag k="ssr:stedsnr" v="904097" />
	</node>
	<node id="-358306" lat="62.4717138876" lon="11.2946444401">
		<tag k="name" v="Gjetstenen" />
		<tag k="natural" v="stone" />
		<tag k="ssr:stedsnr" v="904502" />
	</node>
	<node id="-358299" lat="62.5797611079" lon="11.1314666643">
		<tag k="name" v="Snaua" />
		<tag k="natural" v="wetland" />
		<tag k="ssr:stedsnr" v="904079" />
	</node>
	<node id="-358290" lat="62.5795194445" lon="11.0644972222">
		<tag k="name" v="Olfloen" />
		<tag k="natural" v="wetland" />
		<tag k="ssr:stedsnr" v="724368" />
	</node>
	<node id="-358284" lat="62.471030555" lon="11.3705833333">
		<tag k="name" v="Småvollan" />
		<tag k="place" v="locality" />
		<tag k="ssr:stedsnr" v="722756" />
	</node>
	<node id="-358281" lat="62.3134527748" lon="11.592094446">
		<tag k="name" v="Nørdalskjerren" />
		<tag k="place" v="locality" />
		<tag k="ssr:stedsnr" v="722353" />
	</node>
	<node id="-358280" lat="62.2991416634" lon="11.6841250068">
		<tag k="name" v="Gammelsætermyra" />
		<tag k="natural" v="wetland" />
		<tag k="ssr:stedsnr" v="722156" />
	</node>
	<node id="-358276" lat="62.2718166706" lon="11.81403612">
		<tag k="name" v="Fattig og Rik" />
		<tag k="natural" v="wetland" />
		<tag k="ssr:stedsnr" v="722029" />
	</node>
	<node id="-358275" lat="62.2750611114" lon="11.819102775">
		<tag k="historic" v="shieling" />
		<tag k="name" v="Skrivarvollen" />
		<tag k="place" v="locality" />
		<tag k="ssr:stedsnr" v="722024" />
	</node>
	<node id="-358249" lat="62.5195305519" lon="11.2438749944">
		<tag k="name" v="Blæstermyra" />
		<tag k="natural" v="wetland" />
		<tag k="ssr:stedsnr" v="661714" />
	</node>
	<node id="-358242" lat="62.5014694412" lon="11.287433334">
		<tag k="name" v="Stormyra" />
		<tag k="natural" v="wetland" />
		<tag k="ssr:stedsnr" v="661346" />
	</node>
	<node id="-358240" lat="62.4668111113" lon="11.1874444504">
		<tag k="name" v="Granfloen" />
		<tag k="natural" v="wetland" />
		<tag k="ssr:stedsnr" v="661316" />
	</node>
	<node id="-358236" lat="62.4671444417" lon="11.1099583277">
		<tag k="name" v="Småmyran" />
>>>>>>> e1d4bc35ff8a6074a6f2e91616a996b547c36f15
		<tag k="natural" v="wetland" />
		<tag k="ssr:stedsnr" v="661290" />
	</node>
<<<<<<< HEAD
	<node lat="62.19400277783372" lon="11.746533329612973" id="-21770">
		<tag k="name" v="Nordre Kvennslåtten" />
		<tag k="place" v="locality" />
		<tag k="ssr:stedsnr" v="237908" />
	</node>
	<node lat="62.429252782179596" lon="11.421152779363815" id="-21772">
		<tag k="landuse" v="meadow" />
		<tag k="name" v="Nygardsenga" />
		<tag k="ssr:stedsnr" v="237801" />
	</node>
	<node lat="62.36394721799126" lon="11.479436102510268" id="-21778">
		<tag k="name" v="Øsvollen" />
		<tag k="place" v="locality" />
		<tag k="ssr:stedsnr" v="237953" />
	</node>
	<node lat="62.60599166883301" lon="11.178777781062344" id="-21779">
		<tag k="landuse" v="meadow" />
		<tag k="name" v="Grubbenget" />
		<tag k="ssr:stedsnr" v="237957" />
	</node>
	<node lat="62.308200003739024" lon="11.755061117816693" id="-21781">
		<tag k="name" v="Hyttstenen" />
		<tag k="natural" v="stone" />
		<tag k="ssr:stedsnr" v="53211" />
	</node>
	<node lat="62.51216944516623" lon="10.972005561658559" id="-21790">
		<tag k="name" v="Øsmyra" />
		<tag k="natural" v="wetland" />
		<tag k="ssr:stedsnr" v="54631" />
	</node>
	<node lat="62.61835000273621" lon="11.131802777595167" id="-21791">
		<tag k="historic" v="shieling" />
		<tag k="name" v="Lillebakkvollen" />
		<tag k="place" v="locality" />
		<tag k="ssr:stedsnr" v="54828" />
	</node>
	<node lat="62.25810000210038" lon="11.73203612093382" id="-21793">
		<tag k="name" v="Lauvenget" />
=======
	<node id="-358235" lat="62.327447223" lon="11.5632111042">
		<tag k="name" v="Hølbekkmyra" />
		<tag k="natural" v="wetland" />
		<tag k="ssr:stedsnr" v="661269" />
	</node>
	<node id="-358233" lat="62.5555722186" lon="11.209049998">
		<tag k="name" v="Utstufloen" />
		<tag k="natural" v="wetland" />
		<tag k="ssr:stedsnr" v="661060" />
	</node>
	<node id="-358232" lat="62.2471388861" lon="11.7399250053">
		<tag k="name" v="Kvernbekkmyran" />
		<tag k="natural" v="wetland" />
		<tag k="ssr:stedsnr" v="661053" />
	</node>
	<node id="-358231" lat="62.4278749998" lon="11.172088884">
		<tag k="name" v="Gråbenkåsa" />
		<tag k="place" v="locality" />
		<tag k="ssr:stedsnr" v="660532" />
	</node>
	<node id="-358228" lat="62.3335222225" lon="11.3572527729">
		<tag k="name" v="Nyvollengan" />
		<tag k="place" v="locality" />
		<tag k="ssr:stedsnr" v="660672" />
	</node>
	<node id="-358226" lat="62.2147861093" lon="11.7608083333">
		<tag k="name" v="Vassmyra" />
		<tag k="natural" v="wetland" />
		<tag k="ssr:stedsnr" v="660113" />
	</node>
	<node id="-358220" lat="62.1864833314" lon="11.7902916597">
		<tag k="name" v="Granrøstfloen" />
		<tag k="natural" v="wetland" />
		<tag k="ssr:stedsnr" v="722914" />
	</node>
	<node id="-358218" lat="62.4735361127" lon="11.3465388834">
		<tag k="name" v="Stenkåsa" />
		<tag k="place" v="locality" />
		<tag k="ssr:stedsnr" v="722751" />
	</node>
	<node id="-358217" lat="62.457197226" lon="11.3623388967">
		<tag k="name" v="Krontallmyra" />
		<tag k="natural" v="wetland" />
		<tag k="ssr:stedsnr" v="722746" />
	</node>
	<node id="-358215" lat="62.4416916648" lon="11.4314555468">
		<tag k="name" v="Hestrøsta" />
		<tag k="place" v="locality" />
		<tag k="ssr:stedsnr" v="722742" />
	</node>
	<node id="-358214" lat="62.5174666636" lon="11.0485055488">
		<tag k="name" v="Langsåryan" />
>>>>>>> e1d4bc35ff8a6074a6f2e91616a996b547c36f15
		<tag k="natural" v="wetland" />
		<tag k="ssr:stedsnr" v="722724" />
	</node>
<<<<<<< HEAD
	<node lat="62.47366388499219" lon="11.052272228682819" id="-21794">
		<tag k="name" v="Brenna" />
		<tag k="place" v="locality" />
		<tag k="ssr:stedsnr" v="55020" />
	</node>
	<node lat="62.19702499680822" lon="11.79079999729531" id="-21796">
		<tag k="name" v="Nybrenna" />
		<tag k="place" v="locality" />
		<tag k="ssr:stedsnr" v="55107" />
	</node>
	<node lat="62.316516667576934" lon="11.564894440702142" id="-21805">
		<tag k="name" v="Lørjemyra" />
		<tag k="natural" v="wetland" />
		<tag k="ssr:stedsnr" v="55278" />
	</node>
	<node lat="62.338741662646" lon="11.614094443275519" id="-21807">
		<tag k="name" v="Skreenget" />
		<tag k="place" v="locality" />
		<tag k="ssr:stedsnr" v="55295" />
	</node>
	<node lat="62.346261108823406" lon="11.615708333471938" id="-21808">
		<tag k="name" v="Fjelløenget" />
		<tag k="place" v="locality" />
		<tag k="ssr:stedsnr" v="55296" />
	</node>
	<node lat="62.586841666029564" lon="10.979911108402693" id="-21810">
		<tag k="landuse" v="meadow" />
		<tag k="name" v="Fjellenget" />
		<tag k="ssr:stedsnr" v="55408" />
	</node>
	<node lat="62.41749166614443" lon="11.427863897632996" id="-21818">
		<tag k="landuse" v="meadow" />
		<tag k="name" v="Korsenget" />
		<tag k="ssr:stedsnr" v="55812" />
	</node>
	<node lat="62.18276944689101" lon="11.756905556906384" id="-21820">
		<tag k="name" v="Søndre Kvennslåtten" />
		<tag k="place" v="locality" />
		<tag k="ssr:stedsnr" v="55914" />
	</node>
	<node lat="62.58447778145213" lon="11.068738891116928" id="-21821">
		<tag k="landuse" v="meadow" />
		<tag k="name" v="Øverhaugsenget" />
		<tag k="ssr:stedsnr" v="57379" />
	</node>
	<node lat="62.584094443354026" lon="11.082569444551398" id="-21822">
		<tag k="landuse" v="meadow" />
		<tag k="name" v="Utstumoenget" />
		<tag k="ssr:stedsnr" v="57381" />
	</node>
	<node lat="62.606338891696176" lon="10.770486111653701" id="-21831">
		<tag k="name" v="Gruvslåttan" />
		<tag k="place" v="locality" />
		<tag k="ssr:stedsnr" v="72184" />
	</node>
	<node lat="62.29505277800858" lon="11.774199997619595" id="-21835">
		<tag k="name" v="Buhøgdfloen" />
		<tag k="natural" v="wetland" />
		<tag k="ssr:stedsnr" v="72565" />
	</node>
	<node lat="62.46020277904143" lon="11.085433328596446" id="-21846">
		<tag k="historic" v="shieling" />
		<tag k="name" v="Irgensvollen" />
		<tag k="place" v="locality" />
		<tag k="ssr:stedsnr" v="115006" />
	</node>
	<node lat="62.46586667045003" lon="11.08160555852745" id="-21848">
		<tag k="historic" v="shieling" />
		<tag k="name" v="Malimovollen" />
		<tag k="place" v="locality" />
		<tag k="ssr:stedsnr" v="115012" />
	</node>
	<node lat="62.56915277526817" lon="11.122686115523337" id="-21851">
		<tag k="historic" v="shieling" />
		<tag k="name" v="Nystedvollen" />
		<tag k="place" v="locality" />
		<tag k="ssr:stedsnr" v="115076" />
	</node>
	<node lat="62.58413333726941" lon="11.124405555151153" id="-21853">
		<tag k="landuse" v="meadow" />
		<tag k="name" v="Håkensenget" />
		<tag k="ssr:stedsnr" v="115084" />
	</node>
	<node lat="62.57682221986721" lon="11.173758331885548" id="-21854">
		<tag k="name" v="Bakkmyra" />
		<tag k="natural" v="wetland" />
		<tag k="ssr:stedsnr" v="115090" />
	</node>
	<node lat="62.466983334866974" lon="11.100052773021428" id="-21860">
		<tag k="name" v="Stormyra" />
		<tag k="natural" v="wetland" />
		<tag k="ssr:stedsnr" v="115325" />
	</node>
	<node lat="62.54855277477821" lon="11.022336105328355" id="-21861">
		<tag k="name" v="Engemyra" />
		<tag k="natural" v="wetland" />
		<tag k="ssr:stedsnr" v="115526" />
	</node>
	<node lat="62.33440000443934" lon="11.572361107502312" id="-21862">
		<tag k="name" v="Åkerbakken" />
		<tag k="place" v="locality" />
		<tag k="ssr:stedsnr" v="115280" />
	</node>
	<node lat="62.533583332373254" lon="11.250902769518982" id="-21864">
		<tag k="landuse" v="quarry" />
		<tag k="name" v="Stenbrotta" />
		<tag k="ssr:stedsnr" v="115467" />
	</node>
	<node lat="62.17370000024047" lon="11.747072221415422" id="-21872">
		<tag k="landuse" v="meadow" />
		<tag k="name" v="Midtkvennslåtten" />
		<tag k="ssr:stedsnr" v="115903" />
	</node>
	<node lat="62.60741111556307" lon="11.116794445267082" id="-21877">
		<tag k="name" v="Klokkarvollen" />
		<tag k="place" v="locality" />
		<tag k="ssr:stedsnr" v="115895" />
	</node>
	<node lat="62.435872221283056" lon="11.427077777300582" id="-21878">
		<tag k="landuse" v="meadow" />
		<tag k="name" v="Tuvenget" />
		<tag k="ssr:stedsnr" v="116808" />
	</node>
	<node lat="62.58013888863179" lon="11.075127780964909" id="-21879">
		<tag k="landuse" v="meadow" />
		<tag k="name" v="Trøenget" />
		<tag k="ssr:stedsnr" v="117412" />
	</node>
	<node lat="62.57906388711245" lon="11.05945277783949" id="-21880">
		<tag k="landuse" v="quarry" />
		<tag k="name" v="Stenbruddet" />
		<tag k="ssr:stedsnr" v="117413" />
	</node>
	<node lat="62.188530553194845" lon="11.752908339618559" id="-21905">
		<tag k="name" v="Rensmyran" />
		<tag k="natural" v="wetland" />
		<tag k="ssr:stedsnr" v="253388" />
	</node>
	<node lat="62.64858611151721" lon="11.125336108184689" id="-21911">
		<tag k="landuse" v="meadow" />
		<tag k="name" v="Tollolenget" />
		<tag k="ssr:stedsnr" v="254190" />
	</node>
	<node lat="62.35779166747583" lon="11.489419454018662" id="-21943">
		<tag k="name" v="Harrbekkenget" />
		<tag k="place" v="locality" />
		<tag k="ssr:stedsnr" v="148221" />
	</node>
	<node lat="62.54845833465977" lon="10.906386116575002" id="-21951">
		<tag k="name" v="Bekkfettan" />
		<tag k="place" v="locality" />
		<tag k="ssr:stedsnr" v="175416" />
	</node>
	<node lat="62.550766670430725" lon="10.922708324461128" id="-21952">
		<tag k="historic" v="shieling" />
		<tag k="name" v="Gammelvollen" />
		<tag k="place" v="locality" />
		<tag k="ssr:stedsnr" v="175423" />
	</node>
	<node lat="62.55172778192153" lon="10.935288881092001" id="-21953">
		<tag k="historic" v="shieling" />
		<tag k="name" v="Bergvollen" />
		<tag k="place" v="locality" />
		<tag k="ssr:stedsnr" v="175429" />
	</node>
	<node lat="62.626802774011" lon="11.122391673821623" id="-21958">
		<tag k="landuse" v="meadow" />
		<tag k="name" v="Holmsenget" />
		<tag k="ssr:stedsnr" v="175808" />
	</node>
	<node lat="62.626633330149254" lon="11.095497225170726" id="-21959">
		<tag k="name" v="Litjøya" />
		<tag k="place" v="locality" />
		<tag k="ssr:stedsnr" v="175810" />
	</node>
	<node lat="62.5930222207763" lon="11.118938880460828" id="-21960">
		<tag k="name" v="Undliåsfloen" />
		<tag k="natural" v="wetland" />
		<tag k="ssr:stedsnr" v="175909" />
	</node>
	<node lat="62.46060833165136" lon="11.077744450203015" id="-21961">
		<tag k="historic" v="shieling" />
		<tag k="name" v="Åsvollen" />
		<tag k="place" v="locality" />
		<tag k="ssr:stedsnr" v="176003" />
	</node>
	<node lat="62.25322499845995" lon="11.820794442509293" id="-21962">
		<tag k="name" v="Søndre Tuvjotan" />
		<tag k="place" v="locality" />
		<tag k="ssr:stedsnr" v="176067" />
	</node>
	<node lat="62.24256944641289" lon="11.719186115987567" id="-21964">
		<tag k="name" v="Fjellåfloan" />
		<tag k="natural" v="wetland" />
		<tag k="ssr:stedsnr" v="176078" />
	</node>
	<node lat="62.48691666388079" lon="11.111824993771151" id="-21970">
		<tag k="name" v="Utstufloen" />
		<tag k="natural" v="wetland" />
		<tag k="ssr:stedsnr" v="176164" />
	</node>
	<node lat="62.478738892681925" lon="11.15503611936521" id="-21972">
		<tag k="name" v="Vintervegmyra" />
		<tag k="natural" v="wetland" />
		<tag k="ssr:stedsnr" v="176314" />
	</node>
	<node lat="62.31935000316155" lon="11.593230564275636" id="-21974">
		<tag k="name" v="Litjfloen" />
		<tag k="natural" v="wetland" />
		<tag k="ssr:stedsnr" v="176321" />
	</node>
	<node lat="62.30678333510278" lon="11.582261110409696" id="-21975">
		<tag k="landuse" v="meadow" />
		<tag k="name" v="Elvslåtten" />
		<tag k="ssr:stedsnr" v="176322" />
	</node>
	<node lat="62.483613890394544" lon="11.402041674133505" id="-21978">
		<tag k="name" v="Slåggåmyran" />
		<tag k="natural" v="wetland" />
		<tag k="ssr:stedsnr" v="176463" />
	</node>
	<node lat="62.516286107913984" lon="11.076583327558547" id="-21980">
		<tag k="landuse" v="meadow" />
		<tag k="name" v="Nirsenget" />
		<tag k="ssr:stedsnr" v="176710" />
	</node>
	<node lat="62.45495000064737" lon="11.351711101824858" id="-21982">
		<tag k="name" v="Stormyra" />
		<tag k="natural" v="wetland" />
		<tag k="ssr:stedsnr" v="176724" />
	</node>
	<node lat="62.598599998500305" lon="11.083016668602365" id="-21983">
		<tag k="name" v="Vangsfloen" />
		<tag k="natural" v="wetland" />
		<tag k="ssr:stedsnr" v="178419" />
	</node>
	<node lat="62.57496667039152" lon="11.035422226281122" id="-21987">
		<tag k="name" v="Skarfloen" />
		<tag k="natural" v="wetland" />
		<tag k="ssr:stedsnr" v="268351" />
	</node>
	<node lat="62.30401388984233" lon="11.7482277788656" id="-21989">
		<tag k="name" v="Litjkalfloen" />
		<tag k="natural" v="wetland" />
		<tag k="ssr:stedsnr" v="235248" />
	</node>
	<node lat="62.489244446897075" lon="11.026588887594581" id="-21991">
		<tag k="name" v="Nilsmyrsunda" />
		<tag k="natural" v="wetland" />
		<tag k="ssr:stedsnr" v="236035" />
	</node>
	<node lat="62.55265277954886" lon="10.91626667264221" id="-21996">
		<tag k="historic" v="shieling" />
		<tag k="name" v="Trøvollen" />
		<tag k="place" v="locality" />
		<tag k="ssr:stedsnr" v="236386" />
	</node>
	<node lat="62.55958055671118" lon="10.962155549552936" id="-21997">
		<tag k="name" v="Gruvmyra" />
		<tag k="natural" v="wetland" />
		<tag k="ssr:stedsnr" v="236387" />
	</node>
	<node lat="62.53659999923269" lon="11.197877768794186" id="-21999">
		<tag k="name" v="Storfloen" />
		<tag k="natural" v="wetland" />
		<tag k="ssr:stedsnr" v="236723" />
	</node>
	<node lat="62.61346944492794" lon="11.122269452605794" id="-22000">
		<tag k="historic" v="shieling" />
		<tag k="name" v="Åkerbakkvollen" />
		<tag k="place" v="locality" />
		<tag k="ssr:stedsnr" v="236809" />
	</node>
	<node lat="62.46934999728834" lon="11.080194452491495" id="-22001">
		<tag k="historic" v="shieling" />
		<tag k="name" v="Ivarsvollen" />
		<tag k="place" v="locality" />
		<tag k="ssr:stedsnr" v="237011" />
	</node>
	<node lat="62.26741944899368" lon="11.750758326198442" id="-22003">
		<tag k="name" v="Stigersøya" />
		<tag k="place" v="locality" />
		<tag k="ssr:stedsnr" v="237036" />
	</node>
	<node lat="62.52963610805535" lon="11.228883324437543" id="-22018">
		<tag k="name" v="Litjvollen" />
		<tag k="place" v="locality" />
		<tag k="ssr:stedsnr" v="237492" />
	</node>
	<node lat="62.40878333494843" lon="11.454663884358872" id="-22020">
		<tag k="landuse" v="meadow" />
		<tag k="name" v="Skinnarenga" />
		<tag k="ssr:stedsnr" v="237809" />
	</node>
	<node lat="62.518683334596794" lon="11.072963895148769" id="-22022">
		<tag k="name" v="Bruhagaen" />
		<tag k="place" v="locality" />
		<tag k="ssr:stedsnr" v="237731" />
	</node>
	<node lat="62.58061666535351" lon="11.173619447514026" id="-22046">
		<tag k="name" v="Djupbekkmyra" />
		<tag k="natural" v="wetland" />
		<tag k="ssr:stedsnr" v="297108" />
	</node>
	<node lat="62.33222499673541" lon="11.597500003093169" id="-22053">
		<tag k="name" v="Momyran" />
		<tag k="natural" v="wetland" />
		<tag k="ssr:stedsnr" v="297327" />
	</node>
	<node lat="62.556216669302366" lon="10.981802782327826" id="-22059">
		<tag k="landuse" v="meadow" />
		<tag k="name" v="Holmsenget" />
		<tag k="ssr:stedsnr" v="297526" />
	</node>
	<node lat="62.55629999592895" lon="11.011916675860855" id="-22060">
		<tag k="landuse" v="meadow" />
		<tag k="name" v="Husenget" />
		<tag k="ssr:stedsnr" v="297529" />
	</node>
	<node lat="62.51448333630966" lon="10.991669441371329" id="-22062">
		<tag k="name" v="Størrtjønnrya" />
		<tag k="natural" v="wetland" />
		<tag k="ssr:stedsnr" v="297620" />
	</node>
	<node lat="62.49628888832238" lon="11.08327221718812" id="-22072">
		<tag k="historic" v="shieling" />
		<tag k="name" v="Gammelstuvollen" />
		<tag k="place" v="locality" />
		<tag k="ssr:stedsnr" v="297689" />
	</node>
	<node lat="62.36272222174769" lon="11.434361104454968" id="-22074">
		<tag k="name" v="Nystuengslettan" />
		<tag k="place" v="locality" />
		<tag k="ssr:stedsnr" v="297826" />
	</node>
	<node lat="62.40821389307793" lon="11.43644722522795" id="-22075">
		<tag k="landuse" v="meadow" />
		<tag k="name" v="Tjønnenget" />
		<tag k="ssr:stedsnr" v="297833" />
	</node>
	<node lat="62.48981666887184" lon="11.21047777273167" id="-22100">
		<tag k="name" v="Kloppgjelten" />
		<tag k="place" v="locality" />
		<tag k="ssr:stedsnr" v="357154" />
	</node>
	<node lat="62.535652773686664" lon="11.212219445364626" id="-22104">
		<tag k="name" v="Langmyra" />
		<tag k="place" v="locality" />
		<tag k="ssr:stedsnr" v="357705" />
	</node>
	<node lat="62.466963892941884" lon="11.058380561020938" id="-22108">
		<tag k="historic" v="shieling" />
		<tag k="name" v="Nerengsletta" />
		<tag k="place" v="locality" />
		<tag k="ssr:stedsnr" v="358005" />
	</node>
	<node lat="62.47612499694188" lon="11.03132222882395" id="-22110">
		<tag k="name" v="Erlimyra" />
		<tag k="natural" v="wetland" />
		<tag k="ssr:stedsnr" v="358058" />
	</node>
	<node lat="62.261230556971505" lon="11.749238879632813" id="-22111">
		<tag k="name" v="Øybakkfloan" />
		<tag k="natural" v="wetland" />
		<tag k="ssr:stedsnr" v="358064" />
	</node>
	<node lat="62.33121666590612" lon="11.577769443234667" id="-22112">
		<tag k="name" v="Tangen" />
		<tag k="natural" v="wetland" />
		<tag k="ssr:stedsnr" v="358252" />
	</node>
	<node lat="62.33427222636835" lon="11.577008335605674" id="-22113">
		<tag k="name" v="Ormtjønntrøa" />
		<tag k="place" v="locality" />
		<tag k="ssr:stedsnr" v="358256" />
	</node>
	<node lat="62.58507777575814" lon="10.952672214686258" id="-22117">
		<tag k="landuse" v="meadow" />
		<tag k="name" v="Nygardsenget" />
		<tag k="ssr:stedsnr" v="358303" />
	</node>
	<node lat="62.46246111316124" lon="11.167630561071896" id="-22122">
		<tag k="historic" v="shieling" />
		<tag k="name" v="Trøavollen" />
		<tag k="place" v="locality" />
		<tag k="ssr:stedsnr" v="358349" />
	</node>
	<node lat="62.56144166497395" lon="11.067205557640223" id="-22126">
		<tag k="name" v="Litjåsfloen" />
		<tag k="natural" v="wetland" />
		<tag k="ssr:stedsnr" v="358548" />
	</node>
	<node lat="62.35082222340436" lon="11.452380556005146" id="-22127">
		<tag k="name" v="Trømyra" />
		<tag k="natural" v="wetland" />
		<tag k="ssr:stedsnr" v="358818" />
	</node>
	<node lat="62.40639722259496" lon="11.42330834290164" id="-22128">
		<tag k="name" v="Ryvollen" />
		<tag k="place" v="locality" />
		<tag k="ssr:stedsnr" v="358825" />
	</node>
	<node lat="62.459144447691045" lon="11.377708333543275" id="-22130">
		<tag k="name" v="Litlenarjordet" />
		<tag k="place" v="locality" />
		<tag k="ssr:stedsnr" v="358750" />
	</node>
	<node lat="62.57895555259082" lon="11.070774999183696" id="-22134">
		<tag k="landuse" v="meadow" />
		<tag k="name" v="Olkrokan" />
		<tag k="ssr:stedsnr" v="360357" />
	</node>
	<node lat="62.57837777893798" lon="11.075494448122715" id="-22135">
		<tag k="landuse" v="meadow" />
		<tag k="name" v="Simensenget" />
		<tag k="ssr:stedsnr" v="360359" />
	</node>
	<node lat="62.49980833507235" lon="11.004461119661515" id="-22144">
		<tag k="name" v="Nyvollfloen" />
		<tag k="natural" v="wetland" />
		<tag k="ssr:stedsnr" v="479032" />
	</node>
	<node lat="62.24802221805418" lon="11.786138886619959" id="-22146">
		<tag k="name" v="Storrøstlaua" />
		<tag k="place" v="locality" />
		<tag k="ssr:stedsnr" v="479046" />
	</node>
	<node lat="62.58198055630783" lon="10.978894440776681" id="-22158">
		<tag k="landuse" v="meadow" />
		<tag k="name" v="Vangsgravenget" />
		<tag k="ssr:stedsnr" v="479427" />
	</node>
	<node lat="62.56282499716588" lon="10.917441675155906" id="-22159">
		<tag k="landuse" v="meadow" />
		<tag k="name" v="Eggenget" />
		<tag k="ssr:stedsnr" v="479384" />
	</node>
	<node lat="62.55057500406649" lon="11.033163898679147" id="-22164">
		<tag k="landuse" v="meadow" />
		<tag k="name" v="Håkonsenget" />
		<tag k="ssr:stedsnr" v="479525" />
	</node>
	<node lat="62.56481388491745" lon="10.98061389834192" id="-22165">
		<tag k="landuse" v="meadow" />
		<tag k="name" v="Mosengenget" />
		<tag k="ssr:stedsnr" v="479533" />
	</node>
	<node lat="62.52951944388883" lon="11.014608335520746" id="-22166">
		<tag k="name" v="Varmveltmyra" />
		<tag k="natural" v="wetland" />
		<tag k="ssr:stedsnr" v="479655" />
	</node>
	<node lat="62.455627773816985" lon="11.388947224154782" id="-22171">
		<tag k="name" v="Rødalsvollen" />
		<tag k="place" v="locality" />
		<tag k="ssr:stedsnr" v="479719" />
	</node>
	<node lat="62.42178333081346" lon="11.448150007291373" id="-22178">
		<tag k="name" v="Åsan" />
		<tag k="place" v="locality" />
		<tag k="ssr:stedsnr" v="479836" />
	</node>
	<node lat="62.377011112322215" lon="11.479802781803553" id="-22185">
		<tag k="landuse" v="meadow" />
		<tag k="name" v="Storhåenget" />
		<tag k="ssr:stedsnr" v="479953" />
	</node>
	<node lat="62.354761114607136" lon="11.500366665572425" id="-22186">
		<tag k="name" v="Grønnsundet" />
		<tag k="natural" v="wetland" />
		<tag k="ssr:stedsnr" v="479961" />
	</node>
	<node lat="62.31365000313933" lon="11.685358337766232" id="-22193">
		<tag k="name" v="Laumyra" />
		<tag k="natural" v="wetland" />
		<tag k="ssr:stedsnr" v="375406" />
	</node>
	<node lat="62.23875277992454" lon="11.733255552281772" id="-22214">
		<tag k="name" v="Tylldalsslåtten" />
		<tag k="natural" v="wetland" />
		<tag k="ssr:stedsnr" v="417116" />
	</node>
	<node lat="62.282772222827944" lon="11.722749995567568" id="-22215">
		<tag k="name" v="Bustmyra" />
		<tag k="natural" v="wetland" />
		<tag k="ssr:stedsnr" v="417219" />
	</node>
	<node lat="62.555036110399726" lon="11.2112166574956" id="-22216">
		<tag k="name" v="Klettmyra" />
		<tag k="natural" v="wetland" />
		<tag k="ssr:stedsnr" v="418056" />
	</node>
	<node lat="62.55908055934927" lon="10.937188885911814" id="-22220">
		<tag k="name" v="Øvre Myrenget" />
		<tag k="natural" v="wetland" />
		<tag k="ssr:stedsnr" v="418413" />
	</node>
	<node lat="62.22514444817113" lon="11.77579722250901" id="-22221">
		<tag k="name" v="Langkloppsundet" />
		<tag k="natural" v="wetland" />
		<tag k="ssr:stedsnr" v="419085" />
	</node>
	<node lat="62.23181389244399" lon="11.80030000166864" id="-22222">
		<tag k="name" v="Tronget" />
		<tag k="place" v="locality" />
		<tag k="ssr:stedsnr" v="419106" />
	</node>
	<node lat="62.33715833105995" lon="11.621999998840456" id="-22227">
		<tag k="name" v="Hestbetan" />
		<tag k="place" v="locality" />
		<tag k="ssr:stedsnr" v="419309" />
	</node>
	<node lat="62.479119445204184" lon="11.289841666117656" id="-22233">
		<tag k="name" v="Kjerringbekken" />
		<tag k="natural" v="wetland" />
		<tag k="ssr:stedsnr" v="419506" />
	</node>
	<node lat="62.49617499894596" lon="11.074230557101442" id="-22235">
		<tag k="name" v="Langmyra" />
		<tag k="natural" v="wetland" />
		<tag k="ssr:stedsnr" v="419702" />
	</node>
	<node lat="62.42786389155634" lon="11.402516666343821" id="-22242">
		<tag k="name" v="Jotrøa" />
		<tag k="place" v="locality" />
		<tag k="ssr:stedsnr" v="419803" />
	</node>
	<node lat="62.42907500246191" lon="11.440002774724698" id="-22243">
		<tag k="name" v="Mastukåsa" />
		<tag k="place" v="locality" />
		<tag k="ssr:stedsnr" v="419814" />
	</node>
	<node lat="62.17905833353647" lon="11.794119440699212" id="-22245">
		<tag k="name" v="Storflolaua" />
		<tag k="place" v="locality" />
		<tag k="ssr:stedsnr" v="419895" />
	</node>
	<node lat="62.16386944472959" lon="11.821216669597675" id="-22246">
		<tag k="name" v="Langsundet" />
		<tag k="natural" v="wetland" />
		<tag k="ssr:stedsnr" v="419919" />
	</node>
	<node lat="62.30402222198753" lon="11.689719445259673" id="-22275">
		<tag k="name" v="Gammelvollstenen" />
		<tag k="natural" v="stone" />
		<tag k="ssr:stedsnr" v="479159" />
	</node>
	<node lat="62.46319999581312" lon="11.064113894459197" id="-22279">
		<tag k="name" v="Myran" />
		<tag k="natural" v="wetland" />
		<tag k="ssr:stedsnr" v="479004" />
	</node>
	<node lat="62.5494000020155" lon="11.19901666869641" id="-22280">
		<tag k="name" v="Sjøbotn" />
		<tag k="natural" v="wetland" />
		<tag k="ssr:stedsnr" v="479056" />
	</node>
	<node lat="62.54684444749135" lon="11.111599993443665" id="-22283">
		<tag k="name" v="Hobakken" />
		<tag k="place" v="locality" />
		<tag k="ssr:stedsnr" v="479060" />
	</node>
	<node lat="62.22355832901848" lon="11.820655556790053" id="-22285">
		<tag k="name" v="Vassmyra" />
		<tag k="natural" v="wetland" />
		<tag k="ssr:stedsnr" v="479071" />
	</node>
	<node lat="62.579494445291125" lon="11.159749996992124" id="-22286">
		<tag k="name" v="Volmyran" />
		<tag k="natural" v="wetland" />
		<tag k="ssr:stedsnr" v="479072" />
	</node>
	<node lat="62.55428055799506" lon="10.912311120663018" id="-22297">
		<tag k="landuse" v="meadow" />
		<tag k="name" v="Eggenga" />
		<tag k="ssr:stedsnr" v="479418" />
	</node>
	<node lat="62.540313887737604" lon="11.054797214056675" id="-22302">
		<tag k="name" v="Blæstertjønnfloen" />
		<tag k="natural" v="wetland" />
		<tag k="ssr:stedsnr" v="479615" />
	</node>
	<node lat="62.44598055582264" lon="11.445347214758913" id="-22303">
		<tag k="name" v="Langmyra" />
		<tag k="natural" v="wetland" />
		<tag k="ssr:stedsnr" v="479714" />
	</node>
	<node lat="62.41286111067189" lon="11.483941672413351" id="-22305">
		<tag k="name" v="Kvølve" />
		<tag k="place" v="locality" />
		<tag k="ssr:stedsnr" v="479765" />
	</node>
	<node lat="62.630786110934594" lon="11.137627783097793" id="-22307">
		<tag k="landuse" v="meadow" />
		<tag k="name" v="Gammelenga" />
		<tag k="ssr:stedsnr" v="479810" />
	</node>
	<node lat="62.376247226476444" lon="11.44289443993251" id="-22310">
		<tag k="name" v="Olaslaua" />
		<tag k="place" v="locality" />
		<tag k="ssr:stedsnr" v="479824" />
	</node>
	<node lat="62.373638892153636" lon="11.45069445322331" id="-22311">
		<tag k="name" v="Grønnmyran" />
		<tag k="natural" v="wetland" />
		<tag k="ssr:stedsnr" v="479826" />
	</node>
	<node lat="62.60382777368597" lon="11.074436106820631" id="-22314">
		<tag k="name" v="Sundfloen" />
		<tag k="natural" v="wetland" />
		<tag k="ssr:stedsnr" v="481459" />
	</node>
	<node lat="62.223380557651836" lon="11.750372229493225" id="-22351">
		<tag k="name" v="Litjlauslåtten" />
		<tag k="place" v="locality" />
		<tag k="ssr:stedsnr" v="539102" />
	</node>
	<node lat="62.23103888867753" lon="11.752019435684259" id="-22353">
		<tag k="name" v="Litjåfloen" />
		<tag k="natural" v="wetland" />
		<tag k="ssr:stedsnr" v="539107" />
	</node>
	<node lat="62.46669166539644" lon="11.081286116421385" id="-22363">
		<tag k="historic" v="shieling" />
		<tag k="name" v="Ytervollen" />
		<tag k="place" v="locality" />
		<tag k="ssr:stedsnr" v="540011" />
	</node>
	<node lat="62.333422224898726" lon="11.62630834191483" id="-22369">
		<tag k="name" v="Bustmyran" />
		<tag k="natural" v="wetland" />
		<tag k="ssr:stedsnr" v="540303" />
	</node>
	<node lat="62.57122222614405" lon="10.963455556113406" id="-22374">
		<tag k="landuse" v="meadow" />
		<tag k="name" v="Johaugsenget" />
		<tag k="ssr:stedsnr" v="540315" />
	</node>
	<node lat="62.558052774772634" lon="11.103658341232688" id="-22376">
		<tag k="name" v="Bergemyra" />
		<tag k="natural" v="wetland" />
		<tag k="ssr:stedsnr" v="540077" />
	</node>
	<node lat="62.335644447266255" lon="11.565505555261328" id="-22380">
		<tag k="name" v="Trøa" />
		<tag k="place" v="locality" />
		<tag k="ssr:stedsnr" v="540265" />
	</node>
	<node lat="62.30901666956249" lon="11.579316661790847" id="-22381">
		<tag k="name" v="Høgget" />
		<tag k="place" v="locality" />
		<tag k="ssr:stedsnr" v="540276" />
	</node>
	<node lat="62.33430555202186" lon="11.669077773625236" id="-22382">
		<tag k="name" v="Bakksunda" />
		<tag k="natural" v="wetland" />
		<tag k="ssr:stedsnr" v="540279" />
	</node>
	<node lat="62.50193055611512" lon="11.072980549017176" id="-22390">
		<tag k="name" v="Stormyran" />
		<tag k="natural" v="wetland" />
		<tag k="ssr:stedsnr" v="540676" />
	</node>
	<node lat="62.381477773535785" lon="11.458441675870905" id="-22392">
		<tag k="name" v="Fantsteinen" />
		<tag k="natural" v="stone" />
		<tag k="ssr:stedsnr" v="540805" />
	</node>
	<node lat="62.64895278138613" lon="10.775019443495896" id="-22396">
		<tag k="name" v="Rundfloen" />
		<tag k="natural" v="wetland" />
		<tag k="ssr:stedsnr" v="557205" />
	</node>
	<node lat="62.330719441553384" lon="11.635025006714176" id="-22423">
		<tag k="name" v="Yterenget" />
		<tag k="place" v="locality" />
		<tag k="ssr:stedsnr" v="783274" />
	</node>
	<node lat="62.60099721824345" lon="10.956066664131006" id="-22424">
		<tag k="landuse" v="meadow" />
		<tag k="name" v="Flatenget" />
		<tag k="ssr:stedsnr" v="783275" />
	</node>
	<node lat="62.26412222036384" lon="11.732933341993148" id="-22428">
		<tag k="name" v="Bustmyra" />
		<tag k="natural" v="wetland" />
		<tag k="ssr:stedsnr" v="599205" />
	</node>
	<node lat="62.272219448013395" lon="11.717641658489342" id="-22430">
		<tag k="name" v="Kringslettmyra" />
		<tag k="natural" v="wetland" />
		<tag k="ssr:stedsnr" v="599212" />
	</node>
	<node lat="62.24001944804971" lon="11.748824999960926" id="-22432">
		<tag k="name" v="Bustmyrlaua" />
		<tag k="place" v="locality" />
		<tag k="ssr:stedsnr" v="599103" />
	</node>
	<node lat="62.344236108967735" lon="11.550033327582222" id="-22433">
		<tag k="name" v="Granom" />
		<tag k="place" v="locality" />
		<tag k="ssr:stedsnr" v="599498" />
	</node>
	<node lat="62.565794443768596" lon="11.107588885277945" id="-22438">
		<tag k="name" v="Øsvollmyra" />
		<tag k="natural" v="wetland" />
		<tag k="ssr:stedsnr" v="600052" />
	</node>
	<node lat="62.24138611146973" lon="11.746177779861398" id="-22440">
		<tag k="name" v="Bustmyran" />
		<tag k="natural" v="wetland" />
		<tag k="ssr:stedsnr" v="600060" />
	</node>
	<node lat="62.23171388859236" lon="11.817413895855921" id="-22441">
		<tag k="name" v="Nesset" />
		<tag k="place" v="locality" />
		<tag k="ssr:stedsnr" v="600101" />
	</node>
	<node lat="62.595986115309756" lon="10.936930548495157" id="-22443">
		<tag k="landuse" v="meadow" />
		<tag k="name" v="Myrtrøslåtten" />
		<tag k="ssr:stedsnr" v="600302" />
	</node>
	<node lat="62.59620000391824" lon="10.943491668642446" id="-22444">
		<tag k="historic" v="shieling" />
		<tag k="name" v="Bjønnvollen" />
		<tag k="place" v="locality" />
		<tag k="ssr:stedsnr" v="600303" />
	</node>
	<node lat="62.55333055244284" lon="10.930461113799119" id="-22455">
		<tag k="historic" v="shieling" />
		<tag k="name" v="Bergvollen" />
		<tag k="place" v="locality" />
		<tag k="ssr:stedsnr" v="600400" />
	</node>
	<node lat="62.549458329161006" lon="11.050236104010391" id="-22456">
		<tag k="landuse" v="meadow" />
		<tag k="name" v="Lersletta" />
		<tag k="ssr:stedsnr" v="600504" />
	</node>
	<node lat="62.53657222110539" lon="11.077311104420033" id="-22458">
		<tag k="landuse" v="meadow" />
		<tag k="name" v="Langenget" />
		<tag k="ssr:stedsnr" v="600297" />
	</node>
	<node lat="62.527122219426786" lon="11.228822227801395" id="-22462">
		<tag k="historic" v="shieling" />
		<tag k="name" v="Gammelvollen" />
		<tag k="place" v="locality" />
		<tag k="ssr:stedsnr" v="600449" />
	</node>
	<node lat="62.53548055445927" lon="10.995124992992716" id="-22465">
		<tag k="landuse" v="meadow" />
		<tag k="name" v="Markåsenget" />
		<tag k="ssr:stedsnr" v="600629" />
	</node>
	<node lat="62.610333336995474" lon="11.130272220243347" id="-22468">
		<tag k="historic" v="shieling" />
		<tag k="name" v="Overhaugsvollen" />
		<tag k="place" v="locality" />
		<tag k="ssr:stedsnr" v="600814" />
	</node>
	<node lat="62.582622218746984" lon="11.07889167091667" id="-22470">
		<tag k="landuse" v="meadow" />
		<tag k="name" v="Litjbakkenget" />
		<tag k="ssr:stedsnr" v="602410" />
	</node>
	<node lat="62.57148889303402" lon="11.085022215869433" id="-22472">
		<tag k="landuse" v="meadow" />
		<tag k="name" v="Vangsgjeltenget" />
		<tag k="ssr:stedsnr" v="602397" />
	</node>
	<node lat="62.19589166434193" lon="11.669299993186574" id="-22475">
		<tag k="name" v="Litleåbøttninga" />
		<tag k="natural" v="wetland" />
		<tag k="ssr:stedsnr" v="617513" />
	</node>
	<node lat="62.214786109285825" lon="11.76080833334689" id="-22494">
		<tag k="name" v="Vassmyra" />
		<tag k="natural" v="wetland" />
		<tag k="ssr:stedsnr" v="660113" />
	</node>
	<node lat="62.30902221859627" lon="11.749188880957263" id="-22500">
		<tag k="name" v="Hyttmyra" />
		<tag k="natural" v="wetland" />
		<tag k="ssr:stedsnr" v="660198" />
	</node>
	<node lat="62.275738884947216" lon="11.791027768394128" id="-22503">
		<tag k="name" v="Djupmyra" />
		<tag k="natural" v="wetland" />
		<tag k="ssr:stedsnr" v="661030" />
	</node>
	<node lat="62.57572777789968" lon="10.99660277952783" id="-22513">
		<tag k="historic" v="shieling" />
		<tag k="name" v="Livollen" />
		<tag k="place" v="locality" />
		<tag k="ssr:stedsnr" v="661397" />
	</node>
	<node lat="62.574386111885964" lon="11.025455559224868" id="-22514">
		<tag k="name" v="Nyåsfloen" />
		<tag k="natural" v="wetland" />
		<tag k="ssr:stedsnr" v="661400" />
	</node>
	<node lat="62.4671444416893" lon="11.109958327683149" id="-22515">
		<tag k="name" v="Småmyran" />
		<tag k="natural" v="wetland" />
		<tag k="ssr:stedsnr" v="661290" />
	</node>
	<node lat="62.47783611125" lon="11.332222228314858" id="-22519">
		<tag k="name" v="Merkesbekken" />
		<tag k="natural" v="wetland" />
		<tag k="ssr:stedsnr" v="661480" />
	</node>
	<node lat="62.43006388456704" lon="11.400380556108379" id="-22529">
		<tag k="name" v="Litlebekkmyra" />
		<tag k="natural" v="wetland" />
		<tag k="ssr:stedsnr" v="661794" />
	</node>
	<node lat="62.335177779516364" lon="11.489497220033153" id="-22556">
		<tag k="name" v="Langfloan" />
		<tag k="natural" v="wetland" />
		<tag k="ssr:stedsnr" v="721471" />
	</node>
	<node lat="62.27506111143552" lon="11.819102775020308" id="-22558">
		<tag k="historic" v="shieling" />
		<tag k="name" v="Skrivarvollen" />
		<tag k="place" v="locality" />
		<tag k="ssr:stedsnr" v="722024" />
	</node>
	<node lat="62.27181667059371" lon="11.814036120010702" id="-22559">
		<tag k="name" v="Fattig og Rik" />
		<tag k="natural" v="wetland" />
		<tag k="ssr:stedsnr" v="722029" />
	</node>
	<node lat="62.25657777577015" lon="11.797141673033451" id="-22560">
		<tag k="name" v="Mikkelsvollen" />
		<tag k="place" v="locality" />
		<tag k="ssr:stedsnr" v="722071" />
	</node>
	<node lat="62.1984777747924" lon="11.819419450639916" id="-22567">
		<tag k="name" v="Moslåtten" />
		<tag k="natural" v="wetland" />
		<tag k="ssr:stedsnr" v="722126" />
	</node>
	<node lat="62.45097777680832" lon="11.152288886931096" id="-22571">
		<tag k="name" v="Kåsvollen" />
		<tag k="place" v="locality" />
		<tag k="ssr:stedsnr" v="722469" />
	</node>
	<node lat="62.186483331419076" lon="11.790291659664847" id="-22577">
		<tag k="name" v="Granrøstfloen" />
		<tag k="natural" v="wetland" />
		<tag k="ssr:stedsnr" v="722914" />
	</node>
	<node lat="62.57951944452845" lon="11.064497222157527" id="-22578">
		<tag k="name" v="Olfloen" />
		<tag k="natural" v="wetland" />
		<tag k="ssr:stedsnr" v="724368" />
	</node>
	<node lat="62.57976110792485" lon="11.131466664330375" id="-22601">
		<tag k="name" v="Snaua" />
		<tag k="natural" v="wetland" />
		<tag k="ssr:stedsnr" v="904079" />
	</node>
	<node lat="62.29868610884125" lon="11.522108339238002" id="-22603">
		<tag k="name" v="Ulvfloen" />
		<tag k="natural" v="wetland" />
		<tag k="ssr:stedsnr" v="748414" />
	</node>
	<node lat="62.23088333034451" lon="11.770591670868399" id="-22605">
		<tag k="name" v="Summundsundet" />
		<tag k="natural" v="wetland" />
		<tag k="ssr:stedsnr" v="904097" />
	</node>
	<node lat="62.34662222600404" lon="11.717016662782132" id="-22610">
		<tag k="name" v="Brattfallbua" />
		<tag k="natural" v="wetland" />
		<tag k="ssr:stedsnr" v="904227" />
	</node>
	<node lat="62.50883889158909" lon="11.288816658853866" id="-22617">
		<tag k="name" v="Granmyra" />
		<tag k="natural" v="wetland" />
		<tag k="ssr:stedsnr" v="904359" />
	</node>
	<node lat="62.53569999928062" lon="11.040197228939451" id="-22623">
		<tag k="name" v="Langmyra" />
		<tag k="natural" v="wetland" />
		<tag k="ssr:stedsnr" v="904581" />
	</node>
	<node lat="62.499113886161105" lon="11.038505553146065" id="-22625">
		<tag k="name" v="Stortjønnfloen" />
		<tag k="natural" v="wetland" />
		<tag k="ssr:stedsnr" v="904724" />
	</node>
	<node lat="62.35208055134697" lon="11.52215555944678" id="-22630">
		<tag k="name" v="Stenbekkfloan" />
		<tag k="natural" v="wetland" />
		<tag k="ssr:stedsnr" v="782461" />
	</node>
	<node lat="62.42913888986352" lon="11.175419439889971" id="-22631">
		<tag k="name" v="Flågåen" />
		<tag k="natural" v="wetland" />
		<tag k="ssr:stedsnr" v="782476" />
	</node>
	<node lat="62.563313892655316" lon="10.990147219164296" id="-22634">
		<tag k="landuse" v="meadow" />
		<tag k="name" v="Gammelstuenget" />
		<tag k="ssr:stedsnr" v="782510" />
	</node>
	<node lat="62.550224998121706" lon="11.124375006681133" id="-22638">
		<tag k="name" v="Blautfloen" />
		<tag k="natural" v="wetland" />
		<tag k="ssr:stedsnr" v="783052" />
	</node>
	<node lat="62.28657777408987" lon="11.762874994680402" id="-22640">
		<tag k="name" v="Langmyra" />
		<tag k="natural" v="wetland" />
		<tag k="ssr:stedsnr" v="783208" />
	</node>
	<node lat="62.21006944420123" lon="11.77834444003842" id="-22642">
		<tag k="name" v="Gjerdingen" />
		<tag k="place" v="locality" />
		<tag k="ssr:stedsnr" v="783104" />
	</node>
	<node lat="62.506872218432086" lon="11.101083323994569" id="-22645">
		<tag k="name" v="Blæstermyra" />
		<tag k="natural" v="wetland" />
		<tag k="ssr:stedsnr" v="783170" />
	</node>
	<node lat="62.47715277471092" lon="11.274274999660994" id="-22651">
		<tag k="name" v="Ole-Peder vollen" />
		<tag k="place" v="locality" />
		<tag k="ssr:stedsnr" v="783619" />
	</node>
	<node lat="62.53328611533539" lon="11.027269448360679" id="-22689">
		<tag k="name" v="Storfloen" />
		<tag k="natural" v="wetland" />
		<tag k="ssr:stedsnr" v="921859" />
	</node>
	<node lat="62.572797224321015" lon="11.080458334913398" id="-22692">
		<tag k="name" v="Storfloen" />
		<tag k="natural" v="wetland" />
		<tag k="ssr:stedsnr" v="922142" />
	</node>
	<node lat="62.53732500347788" lon="11.040330553499869" id="-22714">
		<tag k="name" v="Langmyrdiket" />
		<tag k="natural" v="wetland" />
		<tag k="ssr:stedsnr" v="843624" />
	</node>
	<node lat="62.18999999926879" lon="11.803094449713093" id="-22716">
		<tag k="name" v="Langsundet" />
		<tag k="natural" v="wetland" />
		<tag k="ssr:stedsnr" v="844109" />
	</node>
	<node lat="62.278547224668365" lon="11.786311118310799" id="-22719">
		<tag k="name" v="Ormrøstfloen" />
		<tag k="natural" v="wetland" />
		<tag k="ssr:stedsnr" v="844032" />
	</node>
	<node lat="62.33563610757059" lon="11.594472222224782" id="-22725">
		<tag k="name" v="Stærra" />
		<tag k="natural" v="wetland" />
		<tag k="ssr:stedsnr" v="844304" />
	</node>
	<node lat="62.31321944155568" lon="11.601808340753255" id="-22728">
		<tag k="name" v="Brenna" />
		<tag k="place" v="locality" />
		<tag k="ssr:stedsnr" v="844328" />
	</node>
	<node lat="62.427894443073015" lon="11.145588890517603" id="-22730">
		<tag k="name" v="Brattbakken" />
		<tag k="place" v="locality" />
		<tag k="ssr:stedsnr" v="844525" />
	</node>
	<node lat="62.20313610951013" lon="11.825691667422499" id="-22744">
		<tag k="alt_name" v="Rendalsfloen" />
		<tag k="name" v="Kalfloen" />
		<tag k="natural" v="wetland" />
		<tag k="ssr:stedsnr" v="860408" />
	</node>
	<node lat="62.26890277667748" lon="11.712161112468015" id="-22762">
		<tag k="name" v="Bjønnan" />
		<tag k="natural" v="stone" />
		<tag k="ssr:stedsnr" v="903206" />
	</node>
	<node lat="62.46458055717266" lon="11.08316110684269" id="-22765">
		<tag k="historic" v="shieling" />
		<tag k="name" v="Anisvollen" />
		<tag k="place" v="locality" />
		<tag k="ssr:stedsnr" v="904007" />
	</node>
	<node lat="62.47427222644472" lon="11.078761103726654" id="-22766">
		<tag k="name" v="Hørtdalsmyra" />
		<tag k="natural" v="wetland" />
		<tag k="ssr:stedsnr" v="904012" />
	</node>
	<node lat="62.17843333001383" lon="11.815755553020942" id="-22770">
		<tag k="name" v="Søndre Nybulandet" />
		<tag k="place" v="locality" />
		<tag k="ssr:stedsnr" v="904108" />
	</node>
	<node lat="62.18273888881159" lon="11.811377773518602" id="-22771">
		<tag k="name" v="Nordre Nybulandet" />
		<tag k="place" v="locality" />
		<tag k="ssr:stedsnr" v="904109" />
	</node>
	<node lat="62.5777916663823" lon="11.023524994222182" id="-22786">
		<tag k="landuse" v="meadow" />
		<tag k="name" v="Stakkarsenget" />
		<tag k="ssr:stedsnr" v="904418" />
	</node>
	<node lat="62.529616663570735" lon="11.047802782908654" id="-22791">
		<tag k="name" v="Kvennhusfloen" />
		<tag k="natural" v="wetland" />
		<tag k="ssr:stedsnr" v="904568" />
	</node>
	<node lat="62.522036114120645" lon="11.230775009573465" id="-22795">
		<tag k="name" v="Stormyra" />
		<tag k="natural" v="wetland" />
		<tag k="ssr:stedsnr" v="904717" />
	</node>
	<node lat="62.47171388756978" lon="11.294644440122182" id="-22797">
		<tag k="name" v="Gjetstenen" />
		<tag k="natural" v="stone" />
		<tag k="ssr:stedsnr" v="904502" />
	</node>
	<node lat="62.52775277732734" lon="10.997208324763742" id="-22798">
		<tag k="name" v="Stormyran" />
		<tag k="natural" v="wetland" />
		<tag k="ssr:stedsnr" v="904614" />
	</node>
	<node lat="62.492641667300006" lon="11.059544453915896" id="-22800">
		<tag k="name" v="Grubbfloen" />
		<tag k="natural" v="wetland" />
		<tag k="ssr:stedsnr" v="904668" />
	</node>
	<node lat="62.4312611140302" lon="11.442805559574635" id="-22801">
		<tag k="landuse" v="meadow" />
		<tag k="name" v="Nyvollan" />
		<tag k="ssr:stedsnr" v="904815" />
	</node>
	<node lat="62.60692499935285" lon="11.123466674681454" id="-22802">
		<tag k="historic" v="shieling" />
		<tag k="name" v="Pålsvollen" />
		<tag k="place" v="locality" />
		<tag k="ssr:stedsnr" v="904920" />
	</node>
	<node lat="62.586391662603205" lon="11.056869443523683" id="-22807">
		<tag k="landuse" v="meadow" />
		<tag k="name" v="Myrtrøenget" />
		<tag k="ssr:stedsnr" v="906405" />
	</node>
	<node lat="62.21192777657431" lon="11.743449996951496" id="-22823">
		<tag k="name" v="Storrya" />
		<tag k="natural" v="wetland" />
		<tag k="ssr:stedsnr" v="963111" />
	</node>
	<node lat="62.33684444624324" lon="11.709127781331567" id="-22824">
		<tag k="name" v="Engfloen" />
		<tag k="natural" v="wetland" />
		<tag k="ssr:stedsnr" v="963205" />
	</node>
	<node lat="62.31817222542455" lon="11.716616663154616" id="-22825">
		<tag k="name" v="Hestgjerdinga" />
		<tag k="place" v="locality" />
		<tag k="ssr:stedsnr" v="963214" />
	</node>
	<node lat="62.566347225651256" lon="11.212044452818873" id="-22830">
		<tag k="name" v="Galåmyran" />
		<tag k="natural" v="wetland" />
		<tag k="ssr:stedsnr" v="964091" />
	</node>
	<node lat="62.19826388772672" lon="11.814569447936236" id="-22837">
		<tag k="name" v="Langlete" />
=======
	<node id="-358212" lat="62.49016111" lon="11.0685916699">
		<tag k="historic" v="shieling" />
		<tag k="name" v="Lilletrøvollen" />
		<tag k="place" v="locality" />
		<tag k="ssr:stedsnr" v="722714" />
	</node>
	<node id="-358203" lat="62.4509777768" lon="11.1522888869">
		<tag k="name" v="Kåsvollen" />
		<tag k="place" v="locality" />
		<tag k="ssr:stedsnr" v="722469" />
	</node>
	<node id="-358198" lat="62.3201833342" lon="11.5947583361">
		<tag k="name" v="Langkåsan" />
		<tag k="place" v="locality" />
		<tag k="ssr:stedsnr" v="722349" />
	</node>
	<node id="-358194" lat="62.5637500021" lon="10.9617999943">
		<tag k="landuse" v="quarry" />
		<tag k="name" v="Fossgruva" />
		<tag k="ssr:stedsnr" v="618782" />
	</node>
	<node id="-358191" lat="62.3376722234" lon="11.6087361062">
		<tag k="name" v="Buenget" />
		<tag k="place" v="locality" />
		<tag k="ssr:stedsnr" v="722310" />
	</node>
	<node id="-358185" lat="62.2967055518" lon="11.75470556">
		<tag k="name" v="Klemetifloen" />
		<tag k="natural" v="wetland" />
		<tag k="ssr:stedsnr" v="722255" />
	</node>
	<node id="-358180" lat="62.1984777748" lon="11.8194194506">
		<tag k="name" v="Moslåtten" />
		<tag k="natural" v="wetland" />
		<tag k="ssr:stedsnr" v="722126" />
	</node>
	<node id="-358168" lat="62.2565777758" lon="11.797141673">
		<tag k="name" v="Mikkelsvollen" />
		<tag k="place" v="locality" />
		<tag k="ssr:stedsnr" v="722071" />
	</node>
	<node id="-358162" lat="62.2372194484" lon="11.7823916728">
		<tag k="name" v="Stormyra" />
		<tag k="natural" v="wetland" />
		<tag k="ssr:stedsnr" v="722044" />
	</node>
	<node id="-358159" lat="62.4212666638" lon="11.1537972213">
		<tag k="name" v="Vintervegmyra" />
		<tag k="natural" v="wetland" />
		<tag k="ssr:stedsnr" v="721497" />
	</node>
	<node id="-358158" lat="62.3351777795" lon="11.48949722">
		<tag k="name" v="Langfloan" />
		<tag k="natural" v="wetland" />
		<tag k="ssr:stedsnr" v="721471" />
	</node>
	<node id="-358156" lat="62.146330556" lon="11.8263527775">
		<tag k="name" v="Kråkholmslåtten" />
		<tag k="natural" v="wetland" />
		<tag k="ssr:stedsnr" v="721189" />
	</node>
	<node id="-358155" lat="62.3196944478" lon="11.7539138804">
		<tag k="name" v="Brenna" />
		<tag k="place" v="locality" />
		<tag k="ssr:stedsnr" v="721182" />
	</node>
	<node id="-358153" lat="62.571488893" lon="11.0850222159">
		<tag k="landuse" v="meadow" />
		<tag k="name" v="Vangsgjeltenget" />
		<tag k="ssr:stedsnr" v="602397" />
	</node>
	<node id="-358149" lat="62.610333337" lon="11.1302722202">
		<tag k="historic" v="shieling" />
		<tag k="name" v="Overhaugsvollen" />
		<tag k="place" v="locality" />
		<tag k="ssr:stedsnr" v="600814" />
	</node>
	<node id="-358138" lat="62.3105194474" lon="11.6778555579">
		<tag k="name" v="Sjøøsmyran" />
		<tag k="natural" v="wetland" />
		<tag k="ssr:stedsnr" v="600166" />
	</node>
	<node id="-358132" lat="62.280602776" lon="11.7698555575">
		<tag k="name" v="Midtmyran" />
		<tag k="natural" v="wetland" />
		<tag k="ssr:stedsnr" v="600024" />
	</node>
	<node id="-358127" lat="62.272219448" lon="11.7176416585">
		<tag k="name" v="Kringslettmyra" />
		<tag k="natural" v="wetland" />
		<tag k="ssr:stedsnr" v="599212" />
	</node>
	<node id="-358125" lat="62.2641222204" lon="11.732933342">
		<tag k="name" v="Bustmyra" />
		<tag k="natural" v="wetland" />
		<tag k="ssr:stedsnr" v="599205" />
	</node>
	<node id="-358124" lat="62.5819888875" lon="11.1957833289">
		<tag k="landuse" v="meadow" />
		<tag k="name" v="Haugsgjeltslåttan" />
		<tag k="ssr:stedsnr" v="588266" />
	</node>
	<node id="-357472" lat="62.5296361081" lon="11.2288833244">
		<tag k="name" v="Litjvollen" />
		<tag k="place" v="locality" />
		<tag k="ssr:stedsnr" v="237492" />
	</node>
	<node id="-358104" lat="62.6489527814" lon="10.7750194435">
		<tag k="name" v="Rundfloen" />
		<tag k="natural" v="wetland" />
		<tag k="ssr:stedsnr" v="557205" />
	</node>
	<node id="-358099" lat="62.3814777735" lon="11.4584416759">
		<tag k="name" v="Fantsteinen" />
		<tag k="natural" v="stone" />
		<tag k="ssr:stedsnr" v="540805" />
	</node>
	<node id="-358097" lat="62.5736638905" lon="10.9782611104">
		<tag k="landuse" v="meadow" />
		<tag k="name" v="Sjursenget" />
		<tag k="ssr:stedsnr" v="540425" />
	</node>
	<node id="-358085" lat="62.4666916654" lon="11.0812861164">
		<tag k="historic" v="shieling" />
		<tag k="name" v="Ytervollen" />
		<tag k="place" v="locality" />
		<tag k="ssr:stedsnr" v="540011" />
	</node>
	<node id="-358046" lat="62.6038277737" lon="11.0744361068">
		<tag k="name" v="Sundfloen" />
		<tag k="natural" v="wetland" />
		<tag k="ssr:stedsnr" v="481459" />
	</node>
	<node id="-358042" lat="62.3770111123" lon="11.4798027818">
		<tag k="landuse" v="meadow" />
		<tag k="name" v="Storhåenget" />
		<tag k="ssr:stedsnr" v="479953" />
	</node>
	<node id="-358040" lat="62.4128611107" lon="11.4839416724">
		<tag k="name" v="Kvølve" />
		<tag k="place" v="locality" />
		<tag k="ssr:stedsnr" v="479765" />
	</node>
	<node id="-358039" lat="62.4556277738" lon="11.3889472242">
		<tag k="name" v="Rødalsvollen" />
		<tag k="place" v="locality" />
		<tag k="ssr:stedsnr" v="479719" />
	</node>
	<node id="-358038" lat="62.4459805558" lon="11.4453472148">
		<tag k="name" v="Langmyra" />
		<tag k="natural" v="wetland" />
		<tag k="ssr:stedsnr" v="479714" />
	</node>
	<node id="-358037" lat="62.3736388922" lon="11.4506944532">
		<tag k="name" v="Grønnmyran" />
		<tag k="natural" v="wetland" />
		<tag k="ssr:stedsnr" v="479826" />
	</node>
	<node id="-358036" lat="62.3762472265" lon="11.4428944399">
		<tag k="name" v="Olaslaua" />
		<tag k="place" v="locality" />
		<tag k="ssr:stedsnr" v="479824" />
	</node>
	<node id="-358033" lat="62.6307861109" lon="11.1376277831">
		<tag k="landuse" v="meadow" />
		<tag k="name" v="Gammelenga" />
		<tag k="ssr:stedsnr" v="479810" />
	</node>
	<node id="-358032" lat="62.5295194439" lon="11.0146083355">
		<tag k="name" v="Varmveltmyra" />
		<tag k="natural" v="wetland" />
		<tag k="ssr:stedsnr" v="479655" />
	</node>
	<node id="-358026" lat="62.554280558" lon="10.9123111207">
		<tag k="landuse" v="meadow" />
		<tag k="name" v="Eggenga" />
		<tag k="ssr:stedsnr" v="479418" />
	</node>
	<node id="-358017" lat="62.304022222" lon="11.6897194453">
		<tag k="name" v="Gammelvollstenen" />
		<tag k="natural" v="stone" />
		<tag k="ssr:stedsnr" v="479159" />
	</node>
	<node id="-358011" lat="62.5794944453" lon="11.159749997">
		<tag k="name" v="Volmyran" />
		<tag k="natural" v="wetland" />
		<tag k="ssr:stedsnr" v="479072" />
	</node>
	<node id="-358010" lat="62.223558329" lon="11.8206555568">
		<tag k="name" v="Vassmyra" />
		<tag k="natural" v="wetland" />
		<tag k="ssr:stedsnr" v="479071" />
	</node>
	<node id="-358008" lat="62.5468444475" lon="11.1115999934">
		<tag k="name" v="Hobakken" />
		<tag k="place" v="locality" />
		<tag k="ssr:stedsnr" v="479060" />
	</node>
	<node id="-358005" lat="62.549400002" lon="11.1990166687">
		<tag k="name" v="Sjøbotn" />
		<tag k="natural" v="wetland" />
		<tag k="ssr:stedsnr" v="479056" />
	</node>
	<node id="-358004" lat="62.4631999958" lon="11.0641138945">
		<tag k="name" v="Myran" />
		<tag k="natural" v="wetland" />
		<tag k="ssr:stedsnr" v="479004" />
	</node>
	<node id="-358000" lat="62.5873194414" lon="11.0517055466">
		<tag k="landuse" v="meadow" />
		<tag k="name" v="Eggenget" />
		<tag k="ssr:stedsnr" v="663376" />
	</node>
	<node id="-357997" lat="62.3669361131" lon="11.4840305609">
		<tag k="landuse" v="meadow" />
		<tag k="name" v="Nykåsenget" />
		<tag k="ssr:stedsnr" v="661958" />
	</node>
	<node id="-357996" lat="62.3711083322" lon="11.4676555587">
		<tag k="name" v="Narmyra" />
		<tag k="natural" v="wetland" />
		<tag k="ssr:stedsnr" v="661957" />
	</node>
	<node id="-357991" lat="62.4241694468" lon="11.4377555588">
		<tag k="landuse" v="meadow" />
		<tag k="name" v="Fyrenget" />
		<tag k="ssr:stedsnr" v="661818" />
	</node>
	<node id="-357985" lat="62.4300638846" lon="11.4003805561">
		<tag k="name" v="Litlebekkmyra" />
		<tag k="natural" v="wetland" />
		<tag k="ssr:stedsnr" v="661794" />
	</node>
	<node id="-357977" lat="62.5433694424" lon="11.0084694465">
		<tag k="name" v="Midtengfloen" />
		<tag k="natural" v="wetland" />
		<tag k="ssr:stedsnr" v="661566" />
	</node>
	<node id="-357975" lat="62.5609555524" lon="10.9994611181">
		<tag k="landuse" v="meadow" />
		<tag k="name" v="Øverhaugsenget" />
		<tag k="ssr:stedsnr" v="661515" />
	</node>
	<node id="-357974" lat="62.4351777811" lon="11.140097218">
		<tag k="alt_name" v="Hummelvollen" />
		<tag k="historic" v="shieling" />
		<tag k="name" v="Håmmålvollen" />
		<tag k="place" v="locality" />
		<tag k="ssr:stedsnr" v="661500" />
	</node>
	<node id="-357972" lat="62.4778361112" lon="11.3322222283">
		<tag k="name" v="Merkesbekken" />
		<tag k="natural" v="wetland" />
		<tag k="ssr:stedsnr" v="661480" />
	</node>
	<node id="-357967" lat="62.5743861119" lon="11.0254555592">
		<tag k="name" v="Nyåsfloen" />
		<tag k="natural" v="wetland" />
		<tag k="ssr:stedsnr" v="661400" />
	</node>
	<node id="-357966" lat="62.5757277779" lon="10.9966027795">
		<tag k="historic" v="shieling" />
		<tag k="name" v="Livollen" />
		<tag k="place" v="locality" />
		<tag k="ssr:stedsnr" v="661397" />
	</node>
	<node id="-357958" lat="62.4891388876" lon="11.1968111029">
		<tag k="name" v="Utstuvollen" />
		<tag k="place" v="locality" />
		<tag k="ssr:stedsnr" v="661150" />
	</node>
	<node id="-357953" lat="62.2757388849" lon="11.7910277684">
		<tag k="name" v="Djupmyra" />
		<tag k="natural" v="wetland" />
		<tag k="ssr:stedsnr" v="661030" />
	</node>
	<node id="-357947" lat="62.2933388914" lon="11.7282472316">
		<tag k="name" v="Almenningsfloen" />
		<tag k="natural" v="wetland" />
		<tag k="ssr:stedsnr" v="660242" />
	</node>
	<node id="-357943" lat="62.2833194427" lon="11.7349250081">
		<tag k="name" v="Smedfloen" />
		<tag k="natural" v="wetland" />
		<tag k="ssr:stedsnr" v="660226" />
	</node>
	<node id="-357938" lat="62.3090222186" lon="11.749188881">
		<tag k="name" v="Hyttmyra" />
		<tag k="natural" v="wetland" />
		<tag k="ssr:stedsnr" v="660198" />
	</node>
	<node id="-357920" lat="62.6028222238" lon="11.0811416691">
		<tag k="name" v="Fremstufloen" />
		<tag k="natural" v="wetland" />
		<tag k="ssr:stedsnr" v="421421" />
	</node>
	<node id="-357916" lat="62.1638694447" lon="11.8212166696">
		<tag k="name" v="Langsundet" />
		<tag k="natural" v="wetland" />
		<tag k="ssr:stedsnr" v="419919" />
	</node>
	<node id="-357915" lat="62.4278638916" lon="11.4025166663">
		<tag k="name" v="Jotrøa" />
		<tag k="place" v="locality" />
		<tag k="ssr:stedsnr" v="419803" />
	</node>
	<node id="-357911" lat="62.4961749989" lon="11.0742305571">
		<tag k="name" v="Langmyra" />
		<tag k="natural" v="wetland" />
		<tag k="ssr:stedsnr" v="419702" />
	</node>
	<node id="-357910" lat="62.4791194452" lon="11.2898416661">
		<tag k="name" v="Kjerringbekken" />
		<tag k="natural" v="wetland" />
		<tag k="ssr:stedsnr" v="419506" />
	</node>
	<node id="-357907" lat="62.3371583311" lon="11.6219999988">
		<tag k="name" v="Hestbetan" />
		<tag k="place" v="locality" />
		<tag k="ssr:stedsnr" v="419309" />
	</node>
	<node id="-357905" lat="62.2318138924" lon="11.8003000017">
		<tag k="name" v="Tronget" />
		<tag k="place" v="locality" />
		<tag k="ssr:stedsnr" v="419106" />
	</node>
	<node id="-357903" lat="62.6212527738" lon="11.1204472223">
		<tag k="name" v="Sjømyran" />
		<tag k="natural" v="wetland" />
		<tag k="ssr:stedsnr" v="418814" />
	</node>
	<node id="-357902" lat="62.6254722259" lon="11.1468277813">
		<tag k="name" v="Mosengfloen" />
		<tag k="natural" v="wetland" />
		<tag k="ssr:stedsnr" v="418813" />
	</node>
	<node id="-357900" lat="62.5583305578" lon="10.9924555606">
		<tag k="landuse" v="meadow" />
		<tag k="name" v="Lillehaugsenget" />
		<tag k="ssr:stedsnr" v="418521" />
	</node>
	<node id="-357897" lat="62.5590805593" lon="10.9371888859">
		<tag k="name" v="Øvre Myrenget" />
		<tag k="natural" v="wetland" />
		<tag k="ssr:stedsnr" v="418413" />
	</node>
	<node id="-357893" lat="62.2827722228" lon="11.7227499956">
		<tag k="name" v="Bustmyra" />
		<tag k="natural" v="wetland" />
		<tag k="ssr:stedsnr" v="417219" />
	</node>
	<node id="-357891" lat="62.2387527799" lon="11.7332555523">
		<tag k="name" v="Tylldalsslåtten" />
		<tag k="natural" v="wetland" />
		<tag k="ssr:stedsnr" v="417116" />
	</node>
	<node id="-357870" lat="62.3136500031" lon="11.6853583378">
		<tag k="name" v="Laumyra" />
		<tag k="natural" v="wetland" />
		<tag k="ssr:stedsnr" v="375406" />
	</node>
	<node id="-357829" lat="62.5783777789" lon="11.0754944481">
		<tag k="landuse" v="meadow" />
		<tag k="name" v="Simensenget" />
		<tag k="ssr:stedsnr" v="360359" />
	</node>
	<node id="-357828" lat="62.5789555526" lon="11.0707749992">
		<tag k="landuse" v="meadow" />
		<tag k="name" v="Olkrokan" />
		<tag k="ssr:stedsnr" v="360357" />
	</node>
	<node id="-357825" lat="62.4063972226" lon="11.4233083429">
		<tag k="name" v="Ryvollen" />
		<tag k="place" v="locality" />
		<tag k="ssr:stedsnr" v="358825" />
	</node>
	<node id="-357824" lat="62.3508222234" lon="11.452380556">
		<tag k="name" v="Trømyra" />
		<tag k="natural" v="wetland" />
		<tag k="ssr:stedsnr" v="358818" />
	</node>
	<node id="-357821" lat="62.524013889" lon="11.2325749939">
		<tag k="name" v="Holmen" />
		<tag k="place" v="locality" />
		<tag k="ssr:stedsnr" v="358468" />
	</node>
	<node id="-357814" lat="62.3342722264" lon="11.5770083356">
		<tag k="name" v="Ormtjønntrøa" />
		<tag k="place" v="locality" />
		<tag k="ssr:stedsnr" v="358256" />
	</node>
	<node id="-357813" lat="62.3312166659" lon="11.5777694432">
		<tag k="name" v="Tangen" />
		<tag k="natural" v="wetland" />
		<tag k="ssr:stedsnr" v="358252" />
	</node>
	<node id="-357809" lat="62.5850777758" lon="10.9526722147">
		<tag k="landuse" v="meadow" />
		<tag k="name" v="Nygardsenget" />
		<tag k="ssr:stedsnr" v="358303" />
	</node>
	<node id="-357803" lat="62.261230557" lon="11.7492388796">
		<tag k="name" v="Øybakkfloan" />
		<tag k="natural" v="wetland" />
		<tag k="ssr:stedsnr" v="358064" />
	</node>
	<node id="-357802" lat="62.4761249969" lon="11.0313222288">
		<tag k="name" v="Erlimyra" />
		<tag k="natural" v="wetland" />
		<tag k="ssr:stedsnr" v="358058" />
	</node>
	<node id="-357800" lat="62.4669638929" lon="11.058380561">
		<tag k="historic" v="shieling" />
		<tag k="name" v="Nerengsletta" />
		<tag k="place" v="locality" />
		<tag k="ssr:stedsnr" v="358005" />
	</node>
	<node id="-357798" lat="62.5356527737" lon="11.2122194454">
		<tag k="name" v="Langmyra" />
		<tag k="place" v="locality" />
		<tag k="ssr:stedsnr" v="357705" />
	</node>
	<node id="-357795" lat="62.237602782" lon="11.762513885">
		<tag k="name" v="Slettmyrsundet" />
		<tag k="natural" v="wetland" />
		<tag k="ssr:stedsnr" v="356068" />
	</node>
	<node id="-357789" lat="62.3547611146" lon="11.5003666656">
		<tag k="name" v="Grønnsundet" />
		<tag k="natural" v="wetland" />
		<tag k="ssr:stedsnr" v="479961" />
	</node>
	<node id="-357787" lat="62.4217833308" lon="11.4481500073">
		<tag k="name" v="Åsan" />
		<tag k="place" v="locality" />
		<tag k="ssr:stedsnr" v="479836" />
	</node>
	<node id="-357614" lat="62.1999472186" lon="11.8196638934">
		<tag k="name" v="Grøtstenen" />
		<tag k="natural" v="stone" />
		<tag k="ssr:stedsnr" v="297131" />
	</node>
	<node id="-357775" lat="62.5403138877" lon="11.0547972141">
		<tag k="name" v="Blæstertjønnfloen" />
		<tag k="natural" v="wetland" />
		<tag k="ssr:stedsnr" v="479615" />
	</node>
	<node id="-357771" lat="62.5648138849" lon="10.9806138983">
		<tag k="landuse" v="meadow" />
		<tag k="name" v="Mosengenget" />
		<tag k="ssr:stedsnr" v="479533" />
	</node>
	<node id="-357770" lat="62.5505750041" lon="11.0331638987">
		<tag k="landuse" v="meadow" />
		<tag k="name" v="Håkonsenget" />
		<tag k="ssr:stedsnr" v="479525" />
	</node>
	<node id="-357768" lat="62.5819805563" lon="10.9788944408">
		<tag k="landuse" v="meadow" />
		<tag k="name" v="Vangsgravenget" />
		<tag k="ssr:stedsnr" v="479427" />
	</node>
	<node id="-359660" lat="62.425913887" lon="11.1445750047">
		<tag k="name" v="Stabbstøa" />
		<tag k="natural" v="wetland" />
		<tag k="ssr:stedsnr" v="965533" />
	</node>
	<node id="-357766" lat="62.5628249972" lon="10.9174416752">
		<tag k="landuse" v="meadow" />
		<tag k="name" v="Eggenget" />
		<tag k="ssr:stedsnr" v="479384" />
	</node>
	<node id="-357756" lat="62.2480222181" lon="11.7861388866">
		<tag k="name" v="Storrøstlaua" />
		<tag k="place" v="locality" />
		<tag k="ssr:stedsnr" v="479046" />
	</node>
	<node id="-357754" lat="62.4998083351" lon="11.0044611197">
		<tag k="name" v="Nyvollfloen" />
		<tag k="natural" v="wetland" />
		<tag k="ssr:stedsnr" v="479032" />
	</node>
	<node id="-357720" lat="62.5144833363" lon="10.9916694414">
		<tag k="name" v="Størrtjønnrya" />
		<tag k="natural" v="wetland" />
		<tag k="ssr:stedsnr" v="297620" />
	</node>
	<node id="-357696" lat="62.2528277758" lon="11.7385972179">
		<tag k="name" v="Trettmyran" />
		<tag k="natural" v="wetland" />
		<tag k="ssr:stedsnr" v="445867" />
	</node>
	<node id="-357693" lat="62.1940027778" lon="11.7465333296">
		<tag k="name" v="Nordre Kvennslåtten" />
		<tag k="place" v="locality" />
		<tag k="ssr:stedsnr" v="237908" />
	</node>
	<node id="-357692" lat="62.267419449" lon="11.7507583262">
		<tag k="name" v="Stigersøya" />
		<tag k="place" v="locality" />
		<tag k="ssr:stedsnr" v="237036" />
	</node>
	<node id="-357689" lat="62.4693499973" lon="11.0801944525">
		<tag k="historic" v="shieling" />
		<tag k="name" v="Ivarsvollen" />
		<tag k="place" v="locality" />
		<tag k="ssr:stedsnr" v="237011" />
	</node>
	<node id="-357687" lat="62.4892444469" lon="11.0265888876">
		<tag k="name" v="Nilsmyrsunda" />
		<tag k="natural" v="wetland" />
		<tag k="ssr:stedsnr" v="236035" />
	</node>
	<node id="-357685" lat="62.3685833372" lon="11.486680555">
		<tag k="landuse" v="meadow" />
		<tag k="name" v="Langhåenget" />
		<tag k="ssr:stedsnr" v="297951" />
	</node>
	<node id="-357683" lat="62.1688305541" lon="11.8202444524">
		<tag k="name" v="Kløvstenmyra" />
		<tag k="natural" v="wetland" />
		<tag k="ssr:stedsnr" v="297939" />
	</node>
	<node id="-357682" lat="62.4082138931" lon="11.4364472252">
		<tag k="landuse" v="meadow" />
		<tag k="name" v="Tjønnenget" />
		<tag k="ssr:stedsnr" v="297833" />
	</node>
	<node id="-357681" lat="62.3627222217" lon="11.4343611045">
		<tag k="name" v="Nystuengslettan" />
		<tag k="place" v="locality" />
		<tag k="ssr:stedsnr" v="297826" />
	</node>
	<node id="-357666" lat="62.4962888883" lon="11.0832722172">
		<tag k="historic" v="shieling" />
		<tag k="name" v="Gammelstuvollen" />
		<tag k="place" v="locality" />
		<tag k="ssr:stedsnr" v="297689" />
	</node>
	<node id="-357654" lat="62.5562999959" lon="11.0119166759">
		<tag k="landuse" v="meadow" />
		<tag k="name" v="Husenget" />
		<tag k="ssr:stedsnr" v="297529" />
	</node>
	<node id="-357653" lat="62.5562166693" lon="10.9818027823">
		<tag k="landuse" v="meadow" />
		<tag k="name" v="Holmsenget" />
		<tag k="ssr:stedsnr" v="297526" />
	</node>
	<node id="-357647" lat="62.5285472249" lon="11.2171527871">
		<tag k="name" v="Galådalsmyra" />
		<tag k="natural" v="wetland" />
		<tag k="ssr:stedsnr" v="297457" />
	</node>
	<node id="-357644" lat="62.5788527796" lon="10.9768055551">
		<tag k="landuse" v="meadow" />
		<tag k="name" v="Rygjeltenget" />
		<tag k="ssr:stedsnr" v="297416" />
	</node>
	<node id="-357642" lat="62.5627055571" lon="10.9266583421">
		<tag k="landuse" v="meadow" />
		<tag k="name" v="Vollsenget" />
		<tag k="ssr:stedsnr" v="297397" />
	</node>
	<node id="-357591" lat="62.5411749957" lon="11.2424500008">
		<tag k="name" v="Langfloen" />
		<tag k="natural" v="wetland" />
		<tag k="ssr:stedsnr" v="193605" />
	</node>
	<node id="-357638" lat="62.4699833343" lon="11.1156555505">
		<tag k="name" v="Småkåsan" />
		<tag k="place" v="locality" />
		<tag k="ssr:stedsnr" v="297351" />
	</node>
	<node id="-357637" lat="62.4739277812" lon="11.1261388885">
		<tag k="name" v="Tollolfloen" />
		<tag k="natural" v="wetland" />
		<tag k="ssr:stedsnr" v="297349" />
	</node>
	<node id="-357634" lat="62.3322249967" lon="11.5975000031">
		<tag k="name" v="Momyran" />
		<tag k="natural" v="wetland" />
		<tag k="ssr:stedsnr" v="297327" />
	</node>
	<node id="-357632" lat="62.5931527775" lon="10.9358000077">
		<tag k="landuse" v="meadow" />
		<tag k="name" v="Holmsenget" />
		<tag k="ssr:stedsnr" v="297315" />
	</node>
	<node id="-357625" lat="62.2748027819" lon="11.7078472201">
		<tag k="name" v="Nedre Smedfloen" />
		<tag k="natural" v="wetland" />
		<tag k="ssr:stedsnr" v="297245" />
	</node>
	<node id="-359670" lat="62.4673361108" lon="11.3626527844">
		<tag k="name" v="Nystukåsa" />
		<tag k="place" v="locality" />
		<tag k="ssr:stedsnr" v="965737" />
	</node>
	<node id="-357621" lat="62.5100999974" lon="11.1427000087">
		<tag k="name" v="Kalvkroken" />
		<tag k="place" v="locality" />
		<tag k="ssr:stedsnr" v="297219" />
	</node>
	<node id="-359667" lat="62.4750611092" lon="11.3688472169">
		<tag k="name" v="Storsletta" />
		<tag k="place" v="locality" />
		<tag k="ssr:stedsnr" v="965732" />
	</node>
	<node id="-359666" lat="62.5136194446" lon="11.250819435">
		<tag k="name" v="Leimyra" />
		<tag k="natural" v="wetland" />
		<tag k="ssr:stedsnr" v="965731" />
	</node>
	<node id="-359664" lat="62.4396333316" lon="11.4138416726">
		<tag k="name" v="Stortrøa" />
		<tag k="place" v="locality" />
		<tag k="ssr:stedsnr" v="965719" />
	</node>
	<node id="-359662" lat="62.4457305511" lon="11.1283916744">
		<tag k="name" v="Sundvollen" />
		<tag k="place" v="locality" />
		<tag k="ssr:stedsnr" v="965691" />
	</node>
	<node id="-357612" lat="62.2354472242" lon="11.7685194529">
		<tag k="name" v="Grønnsundet" />
		<tag k="natural" v="wetland" />
		<tag k="ssr:stedsnr" v="297118" />
	</node>
	<node id="-357611" lat="62.5806166654" lon="11.1736194475">
		<tag k="name" v="Djupbekkmyra" />
		<tag k="natural" v="wetland" />
		<tag k="ssr:stedsnr" v="297108" />
	</node>
	<node id="-357602" lat="62.3187416663" lon="11.7221138915">
		<tag k="name" v="Rundmyra" />
		<tag k="natural" v="wetland" />
		<tag k="ssr:stedsnr" v="296169" />
	</node>
	<node id="-359648" lat="62.2240944482" lon="11.7840277744">
		<tag k="name" v="Rismyra" />
		<tag k="natural" v="wetland" />
		<tag k="ssr:stedsnr" v="965082" />
	</node>
	<node id="-359639" lat="62.4248666647" lon="11.1610305524">
		<tag k="name" v="Kjurruveden" />
		<tag k="place" v="locality" />
		<tag k="ssr:stedsnr" v="964502" />
	</node>
	<node id="-359637" lat="62.5508527823" lon="11.078452772">
		<tag k="name" v="Hångårya" />
		<tag k="place" v="locality" />
		<tag k="ssr:stedsnr" v="964464" />
	</node>
	<node id="-359633" lat="62.5663472257" lon="11.2120444528">
		<tag k="name" v="Galåmyran" />
		<tag k="natural" v="wetland" />
		<tag k="ssr:stedsnr" v="964091" />
	</node>
	<node id="-357582" lat="62.5985999985" lon="11.0830166686">
		<tag k="name" v="Vangsfloen" />
		<tag k="natural" v="wetland" />
		<tag k="ssr:stedsnr" v="178419" />
	</node>
	<node id="-357574" lat="62.5749666704" lon="11.0354222263">
		<tag k="name" v="Skarfloen" />
		<tag k="natural" v="wetland" />
		<tag k="ssr:stedsnr" v="268351" />
	</node>
	<node id="-357556" lat="62.4358722213" lon="11.4270777773">
		<tag k="landuse" v="meadow" />
		<tag k="name" v="Tuvenget" />
		<tag k="ssr:stedsnr" v="116808" />
	</node>
	<node id="-357554" lat="62.6061750036" lon="11.0966416607">
		<tag k="landuse" v="meadow" />
		<tag k="name" v="Åkerbakkenget" />
		<tag k="ssr:stedsnr" v="115923" />
	</node>
	<node id="-357553" lat="62.1737000002" lon="11.7470722214">
		<tag k="landuse" v="meadow" />
		<tag k="name" v="Midtkvennslåtten" />
		<tag k="ssr:stedsnr" v="115903" />
	</node>
	<node id="-357550" lat="62.5485527748" lon="11.0223361053">
		<tag k="name" v="Engemyra" />
		<tag k="natural" v="wetland" />
		<tag k="ssr:stedsnr" v="115526" />
	</node>
	<node id="-357549" lat="62.5467499978" lon="11.0653055603">
		<tag k="landuse" v="meadow" />
		<tag k="name" v="Nygardsenget" />
		<tag k="ssr:stedsnr" v="115513" />
	</node>
	<node id="-357546" lat="62.6080500027" lon="10.9496583288">
		<tag k="landuse" v="meadow" />
		<tag k="name" v="Bergemyrslåtten" />
		<tag k="ssr:stedsnr" v="115445" />
	</node>
	<node id="-359593" lat="62.5801416628" lon="11.0809638935">
		<tag k="landuse" v="meadow" />
		<tag k="name" v="Vangsgravenget" />
		<tag k="ssr:stedsnr" v="846372" />
	</node>
	<node id="-357540" lat="62.460202779" lon="11.0854333286">
		<tag k="historic" v="shieling" />
		<tag k="name" v="Irgensvollen" />
		<tag k="place" v="locality" />
		<tag k="ssr:stedsnr" v="115006" />
	</node>
	<node id="-359580" lat="62.4278944431" lon="11.1455888905">
		<tag k="name" v="Brattbakken" />
		<tag k="place" v="locality" />
		<tag k="ssr:stedsnr" v="844525" />
	</node>
	<node id="-359577" lat="62.5841749979" lon="10.9994638848">
		<tag k="name" v="Fjellkåsa" />
		<tag k="natural" v="wetland" />
		<tag k="ssr:stedsnr" v="844454" />
	</node>
	<node id="-359575" lat="62.4820333343" lon="11.3071388822">
		<tag k="name" v="Torgersenget" />
		<tag k="place" v="locality" />
		<tag k="ssr:stedsnr" v="844352" />
	</node>
	<node id="-359574" lat="62.4621555597" lon="11.1615777802">
		<tag k="historic" v="shieling" />
		<tag k="name" v="Midtvollen" />
		<tag k="place" v="locality" />
		<tag k="ssr:stedsnr" v="844349" />
	</node>
	<node id="-359573" lat="62.4598972185" lon="11.1663500078">
		<tag k="name" v="Brenna" />
		<tag k="place" v="locality" />
		<tag k="ssr:stedsnr" v="844346" />
	</node>
	<node id="-359572" lat="62.4736527788" lon="11.1338305611">
		<tag k="historic" v="shieling" />
		<tag k="name" v="Storbekkvollen" />
		<tag k="place" v="locality" />
		<tag k="ssr:stedsnr" v="844334" />
	</node>
	<node id="-359571" lat="62.3132194416" lon="11.6018083408">
		<tag k="name" v="Brenna" />
		<tag k="place" v="locality" />
		<tag k="ssr:stedsnr" v="844328" />
	</node>
	<node id="-357519" lat="62.6485861115" lon="11.1253361082">
		<tag k="landuse" v="meadow" />
		<tag k="name" v="Tollolenget" />
		<tag k="ssr:stedsnr" v="254190" />
	</node>
	<node id="-357512" lat="62.1885305532" lon="11.7529083396">
		<tag k="name" v="Rensmyran" />
		<tag k="natural" v="wetland" />
		<tag k="ssr:stedsnr" v="253388" />
	</node>
	<node id="-359559" lat="62.2996388914" lon="11.6876694516">
		<tag k="name" v="Gjeltkåsa" />
		<tag k="place" v="locality" />
		<tag k="ssr:stedsnr" v="844144" />
	</node>
	<node id="-359558" lat="62.1982194424" lon="11.8057111108">
		<tag k="name" v="Storhåfloen" />
		<tag k="natural" v="wetland" />
		<tag k="ssr:stedsnr" v="844119" />
	</node>
	<node id="-359556" lat="62.1899999993" lon="11.8030944497">
		<tag k="name" v="Langsundet" />
		<tag k="natural" v="wetland" />
		<tag k="ssr:stedsnr" v="844109" />
	</node>
	<node id="-359553" lat="62.2324944488" lon="11.8108055557">
		<tag k="name" v="Flyet" />
		<tag k="natural" v="wetland" />
		<tag k="ssr:stedsnr" v="844099" />
	</node>
	<node id="-359546" lat="62.2366138924" lon="11.7650000066">
		<tag k="name" v="Slettmyra" />
		<tag k="natural" v="wetland" />
		<tag k="ssr:stedsnr" v="844039" />
	</node>
	<node id="-359545" lat="62.2785472247" lon="11.7863111183">
		<tag k="name" v="Ormrøstfloen" />
		<tag k="natural" v="wetland" />
		<tag k="ssr:stedsnr" v="844032" />
	</node>
	<node id="-359543" lat="62.2684249959" lon="11.7686611168">
		<tag k="name" v="Grønnsundet" />
		<tag k="natural" v="wetland" />
		<tag k="ssr:stedsnr" v="844021" />
	</node>
	<node id="-359541" lat="62.6024194414" lon="11.1177777839">
		<tag k="historic" v="shieling" />
		<tag k="name" v="Øver Oustuvollen" />
		<tag k="place" v="locality" />
		<tag k="ssr:stedsnr" v="843920" />
	</node>
	<node id="-357491" lat="62.6059916688" lon="11.1787777811">
		<tag k="landuse" v="meadow" />
		<tag k="name" v="Grubbenget" />
		<tag k="ssr:stedsnr" v="237957" />
	</node>
	<node id="-359538" lat="62.5370472247" lon="11.0736833313">
		<tag k="name" v="Sandenga" />
		<tag k="place" v="locality" />
		<tag k="ssr:stedsnr" v="843601" />
	</node>
	<node id="-359534" lat="62.3448388877" lon="11.4621194537">
		<tag k="name" v="Storfloen" />
		<tag k="natural" v="wetland" />
		<tag k="ssr:stedsnr" v="843483" />
	</node>
	<node id="-357485" lat="62.4087833349" lon="11.4546638844">
		<tag k="landuse" v="meadow" />
		<tag k="name" v="Skinnarenga" />
		<tag k="ssr:stedsnr" v="237809" />
	</node>
	<node id="-359532" lat="62.5633027796" lon="11.0799249998">
		<tag k="landuse" v="meadow" />
		<tag k="name" v="Litjenget" />
		<tag k="ssr:stedsnr" v="843454" />
	</node>
	<node id="-357482" lat="62.5186833346" lon="11.0729638951">
		<tag k="name" v="Bruhagaen" />
		<tag k="place" v="locality" />
		<tag k="ssr:stedsnr" v="237731" />
	</node>
	<node id="-359529" lat="62.5533722231" lon="11.0177583388">
		<tag k="name" v="Bakosgjeltfloen" />
		<tag k="natural" v="wetland" />
		<tag k="ssr:stedsnr" v="843555" />
	</node>
	<node id="-359528" lat="62.559858329" lon="10.967544437">
		<tag k="landuse" v="meadow" />
		<tag k="name" v="Nilsjoenget" />
		<tag k="ssr:stedsnr" v="843547" />
	</node>
	<node id="-359527" lat="62.5629111095" lon="10.9707194369">
		<tag k="name" v="Nilsjofloen" />
		<tag k="natural" v="wetland" />
		<tag k="ssr:stedsnr" v="843546" />
	</node>
	<node id="-357477" lat="62.4885499981" lon="11.2191472188">
		<tag k="name" v="Blæstermyra" />
		<tag k="natural" v="wetland" />
		<tag k="ssr:stedsnr" v="237571" />
	</node>
	<node id="-359520" lat="62.239552782" lon="11.7607944367">
		<tag k="name" v="Gammel Sørli" />
		<tag k="place" v="locality" />
		<tag k="ssr:stedsnr" v="842069" />
	</node>
	<node id="-357471" lat="62.586841666" lon="10.9799111084">
		<tag k="landuse" v="meadow" />
		<tag k="name" v="Fjellenget" />
		<tag k="ssr:stedsnr" v="55408" />
	</node>
	<node id="-357468" lat="62.4873444483" lon="11.2945750037">
		<tag k="name" v="Stigersenget" />
		<tag k="place" v="locality" />
		<tag k="ssr:stedsnr" v="55361" />
	</node>
	<node id="-357467" lat="62.5719972255" lon="11.0301583417">
		<tag k="landuse" v="meadow" />
		<tag k="name" v="Vangrøftenga" />
		<tag k="ssr:stedsnr" v="55353" />
	</node>
	<node id="-357464" lat="62.3040499965" lon="11.6830861023">
		<tag k="landuse" v="meadow" />
		<tag k="name" v="Rundenget" />
		<tag k="ssr:stedsnr" v="55152" />
	</node>
	<node id="-357462" lat="62.5845500036" lon="10.9762916727">
		<tag k="landuse" v="meadow" />
		<tag k="name" v="Vangsgjeltenga" />
		<tag k="ssr:stedsnr" v="237436" />
	</node>
	<node id="-357460" lat="62.473663885" lon="11.0522722287">
		<tag k="name" v="Brenna" />
		<tag k="place" v="locality" />
		<tag k="ssr:stedsnr" v="55020" />
	</node>
	<node id="-357459" lat="62.4702555562" lon="11.051866676">
		<tag k="historic" v="shieling" />
		<tag k="name" v="Dølsletta" />
		<tag k="place" v="locality" />
		<tag k="ssr:stedsnr" v="55014" />
	</node>
	<node id="-357457" lat="62.2581000021" lon="11.7320361209">
		<tag k="name" v="Lauvenget" />
		<tag k="natural" v="wetland" />
		<tag k="ssr:stedsnr" v="55006" />
	</node>
	<node id="-357449" lat="62.5708611138" lon="11.0643777811">
		<tag k="historic" v="shieling" />
		<tag k="name" v="Ytteroustuvollen" />
		<tag k="place" v="locality" />
		<tag k="ssr:stedsnr" v="237370" />
	</node>
	<node id="-357443" lat="62.4801638873" lon="11.2024666675">
		<tag k="name" v="Tverrmyra" />
		<tag k="natural" v="wetland" />
		<tag k="ssr:stedsnr" v="237346" />
	</node>
	<node id="-357442" lat="62.3214555564" lon="11.5865583263">
		<tag k="name" v="Storfloen" />
		<tag k="natural" v="wetland" />
		<tag k="ssr:stedsnr" v="237343" />
	</node>
	<node id="-357439" lat="62.3067194463" lon="11.6235972249">
		<tag k="name" v="Ryvollen" />
		<tag k="place" v="locality" />
		<tag k="ssr:stedsnr" v="237339" />
	</node>
	<node id="-357430" lat="62.3357388855" lon="11.5331083424">
		<tag k="name" v="Litjlotten" />
		<tag k="natural" v="wetland" />
		<tag k="ssr:stedsnr" v="237248" />
	</node>
	<node id="-357429" lat="62.3357388892" lon="11.5497027828">
		<tag k="name" v="Kuvan" />
		<tag k="place" v="locality" />
		<tag k="ssr:stedsnr" v="237244" />
	</node>
	<node id="-357427" lat="62.3330166658" lon="11.5535277777">
		<tag k="name" v="Vintervegmyran" />
		<tag k="natural" v="wetland" />
		<tag k="ssr:stedsnr" v="237240" />
	</node>
	<node id="-357418" lat="62.3099916664" lon="11.6865944383">
		<tag k="name" v="Hattmakerhåen" />
		<tag k="natural" v="wetland" />
		<tag k="ssr:stedsnr" v="237143" />
	</node>
	<node id="-359465" lat="62.4771527747" lon="11.2742749997">
		<tag k="name" v="Ole-Peder vollen" />
		<tag k="place" v="locality" />
		<tag k="ssr:stedsnr" v="783619" />
	</node>
	<node id="-359460" lat="62.4638333294" lon="11.2954055617">
		<tag k="name" v="Svartbekken" />
		<tag k="natural" v="wetland" />
		<tag k="ssr:stedsnr" v="783496" />
	</node>
	<node id="-357411" lat="62.2610833377" lon="11.8072555477">
		<tag k="name" v="Ryvollen" />
		<tag k="place" v="locality" />
		<tag k="ssr:stedsnr" v="237058" />
	</node>
	<node id="-357410" lat="62.2603972214" lon="11.8136805489">
		<tag k="name" v="Nørder Tuvjotan" />
		<tag k="place" v="locality" />
		<tag k="ssr:stedsnr" v="237055" />
	</node>
	<node id="-357409" lat="62.6134694449" lon="11.1222694526">
		<tag k="historic" v="shieling" />
		<tag k="name" v="Åkerbakkvollen" />
		<tag k="place" v="locality" />
		<tag k="ssr:stedsnr" v="236809" />
	</node>
	<node id="-359455" lat="62.4597416681" lon="11.1528611066">
		<tag k="name" v="Langmyra" />
		<tag k="natural" v="wetland" />
		<tag k="ssr:stedsnr" v="783346" />
	</node>
	<node id="-357406" lat="62.5441749998" lon="11.2126527714">
		<tag k="historic" v="shieling" />
		<tag k="name" v="Gammelvollen" />
		<tag k="place" v="locality" />
		<tag k="ssr:stedsnr" v="236698" />
	</node>
	<node id="-359453" lat="62.4804249981" lon="11.1349722291">
		<tag k="name" v="Litjkåsa" />
		<tag k="place" v="locality" />
		<tag k="ssr:stedsnr" v="783339" />
	</node>
	<node id="-359452" lat="62.3164944406" lon="11.6792416652">
		<tag k="name" v="Laumyrhølet" />
		<tag k="natural" v="wetland" />
		<tag k="ssr:stedsnr" v="783337" />
	</node>
	<node id="-359451" lat="62.4771111124" lon="11.1104583295">
		<tag k="name" v="Nystukåsa" />
		<tag k="place" v="locality" />
		<tag k="ssr:stedsnr" v="783335" />
	</node>
	<node id="-357400" lat="62.4245555577" lon="11.1572333241">
		<tag k="name" v="Småslettan" />
		<tag k="place" v="locality" />
		<tag k="ssr:stedsnr" v="236496" />
	</node>
	<node id="-357397" lat="62.5595805567" lon="10.9621555496">
		<tag k="name" v="Gruvmyra" />
		<tag k="natural" v="wetland" />
		<tag k="ssr:stedsnr" v="236387" />
	</node>
	<node id="-357396" lat="62.5526527795" lon="10.9162666726">
		<tag k="historic" v="shieling" />
		<tag k="name" v="Trøvollen" />
		<tag k="place" v="locality" />
		<tag k="ssr:stedsnr" v="236386" />
	</node>
	<node id="-359443" lat="62.5710888909" lon="10.9532055602">
		<tag k="landuse" v="meadow" />
		<tag k="name" v="Rygjeltenget" />
		<tag k="ssr:stedsnr" v="783293" />
	</node>
	<node id="-359439" lat="62.6009972182" lon="10.9560666641">
		<tag k="landuse" v="meadow" />
		<tag k="name" v="Flatenget" />
		<tag k="ssr:stedsnr" v="783275" />
	</node>
	<node id="-359438" lat="62.3307194416" lon="11.6350250067">
		<tag k="name" v="Yterenget" />
		<tag k="place" v="locality" />
		<tag k="ssr:stedsnr" v="783274" />
	</node>
	<node id="-359436" lat="62.325705552" lon="11.5695305522">
		<tag k="name" v="Langmyra" />
		<tag k="natural" v="wetland" />
		<tag k="ssr:stedsnr" v="783252" />
	</node>
	<node id="-359435" lat="62.3336944464" lon="11.5673999991">
		<tag k="name" v="Myra" />
		<tag k="natural" v="wetland" />
		<tag k="ssr:stedsnr" v="783238" />
	</node>
	<node id="-359433" lat="62.2865777741" lon="11.7628749947">
		<tag k="name" v="Langmyra" />
		<tag k="natural" v="wetland" />
		<tag k="ssr:stedsnr" v="783208" />
	</node>
	<node id="-357384" lat="62.3494361107" lon="11.5596194539">
		<tag k="name" v="Lortisfloen" />
		<tag k="natural" v="wetland" />
		<tag k="ssr:stedsnr" v="235528" />
	</node>
	<node id="-359430" lat="62.5068722184" lon="11.101083324">
		<tag k="name" v="Blæstermyra" />
		<tag k="natural" v="wetland" />
		<tag k="ssr:stedsnr" v="783170" />
	</node>
	<node id="-357381" lat="62.3040138898" lon="11.7482277789">
		<tag k="name" v="Litjkalfloen" />
		<tag k="natural" v="wetland" />
		<tag k="ssr:stedsnr" v="235248" />
	</node>
	<node id="-357379" lat="62.2397611077" lon="11.7363499918">
		<tag k="name" v="Tylldalslaua" />
		<tag k="place" v="locality" />
		<tag k="ssr:stedsnr" v="235134" />
	</node>
	<node id="-359426" lat="62.2100694442" lon="11.77834444">
		<tag k="name" v="Gjerdingen" />
		<tag k="place" v="locality" />
		<tag k="ssr:stedsnr" v="783104" />
	</node>
	<node id="-359421" lat="62.5502249981" lon="11.1243750067">
		<tag k="name" v="Blautfloen" />
		<tag k="natural" v="wetland" />
		<tag k="ssr:stedsnr" v="783052" />
	</node>
	<node id="-359417" lat="62.5902972256" lon="11.0980388887">
		<tag k="landuse" v="meadow" />
		<tag k="name" v="Tjønnenga" />
		<tag k="ssr:stedsnr" v="782893" />
	</node>
	<node id="-359410" lat="62.5304055524" lon="11.081141673">
		<tag k="name" v="Rensmyra" />
>>>>>>> e1d4bc35ff8a6074a6f2e91616a996b547c36f15
		<tag k="natural" v="wetland" />
		<tag k="ssr:stedsnr" v="782575" />
	</node>
<<<<<<< HEAD
	<node lat="62.42591388704533" lon="11.144575004650338" id="-22844">
		<tag k="name" v="Stabbstøa" />
		<tag k="natural" v="wetland" />
		<tag k="ssr:stedsnr" v="965533" />
	</node>
	<node lat="62.46733611078926" lon="11.362652784410216" id="-22851">
		<tag k="name" v="Nystukåsa" />
		<tag k="place" v="locality" />
		<tag k="ssr:stedsnr" v="965737" />
	</node>
	<node lat="62.44573055113039" lon="11.128391674399646" id="-22853">
		<tag k="name" v="Sundvollen" />
		<tag k="place" v="locality" />
		<tag k="ssr:stedsnr" v="965691" />
	</node>
	<node lat="62.53584999674239" lon="11.081811107868457" id="-22895">
		<tag k="name" v="Løvmyra" />
		<tag k="natural" v="wetland" />
		<tag k="ssr:stedsnr" v="54595" />
	</node>
	<node lat="62.23338333763961" lon="11.735902786491353" id="-22896">
		<tag k="name" v="Storlauslåtten" />
		<tag k="place" v="locality" />
		<tag k="ssr:stedsnr" v="53133" />
	</node>
	<node lat="62.554252779022555" lon="10.93180834179306" id="-22904">
		<tag k="name" v="Lensmannsmyra" />
		<tag k="natural" v="wetland" />
		<tag k="ssr:stedsnr" v="54440" />
	</node>
	<node lat="62.47025555624058" lon="11.051866676006433" id="-22912">
		<tag k="historic" v="shieling" />
		<tag k="name" v="Dølsletta" />
		<tag k="place" v="locality" />
		<tag k="ssr:stedsnr" v="55014" />
	</node>
	<node lat="62.21716111471349" lon="11.774172225397852" id="-22917">
		<tag k="historic" v="shieling" />
		<tag k="name" v="Søndre Krokan" />
		<tag k="place" v="locality" />
		<tag k="ssr:stedsnr" v="55120" />
	</node>
	<node lat="62.304049996481886" lon="11.683086102323571" id="-22920">
		<tag k="landuse" v="meadow" />
		<tag k="name" v="Rundenget" />
		<tag k="ssr:stedsnr" v="55152" />
	</node>
	<node lat="62.3366944462824" lon="11.559494444830111" id="-22926">
		<tag k="name" v="Langmyra" />
		<tag k="natural" v="wetland" />
		<tag k="ssr:stedsnr" v="55250" />
	</node>
	<node lat="62.31164444506264" lon="11.595377776854544" id="-22927">
		<tag k="name" v="Nørdalsfloen" />
		<tag k="natural" v="wetland" />
		<tag k="ssr:stedsnr" v="55331" />
	</node>
	<node lat="62.469191668147225" lon="11.125452770159113" id="-22928">
		<tag k="historic" v="shieling" />
		<tag k="name" v="Nyvollen" />
		<tag k="place" v="locality" />
		<tag k="ssr:stedsnr" v="55336" />
	</node>
	<node lat="62.47245555335123" lon="11.107002776015747" id="-22929">
		<tag k="name" v="Stormyra" />
		<tag k="natural" v="wetland" />
		<tag k="ssr:stedsnr" v="55339" />
	</node>
	<node lat="62.57199722553823" lon="11.030158341722574" id="-22930">
		<tag k="landuse" v="meadow" />
		<tag k="name" v="Vangrøftenga" />
		<tag k="ssr:stedsnr" v="55353" />
	</node>
	<node lat="62.487344448298586" lon="11.294575003692124" id="-22931">
		<tag k="name" v="Stigersenget" />
		<tag k="place" v="locality" />
		<tag k="ssr:stedsnr" v="55361" />
	</node>
	<node lat="62.38224166884044" lon="11.4716055465797" id="-22940">
		<tag k="landuse" v="meadow" />
		<tag k="name" v="Tuftlaua" />
		<tag k="ssr:stedsnr" v="55935" />
	</node>
	<node lat="62.606472223574485" lon="11.154794446753169" id="-22943">
		<tag k="name" v="Haugsfloen" />
		<tag k="natural" v="wetland" />
		<tag k="ssr:stedsnr" v="55952" />
	</node>
	<node lat="62.27036666777121" lon="11.774216663441392" id="-22986">
		<tag k="name" v="Svartmyra" />
		<tag k="natural" v="wetland" />
		<tag k="ssr:stedsnr" v="115019" />
	</node>
	<node lat="62.32406388765019" lon="11.59118611451645" id="-22992">
		<tag k="name" v="Jervstenen" />
		<tag k="natural" v="stone" />
		<tag k="ssr:stedsnr" v="115343" />
	</node>
	<node lat="62.47131944635378" lon="11.11924166223324" id="-22995">
		<tag k="name" v="Hølkåsa" />
		<tag k="place" v="locality" />
		<tag k="ssr:stedsnr" v="115363" />
	</node>
	<node lat="62.56632777926785" lon="11.150066669097216" id="-23002">
		<tag k="name" v="Sigridgjeltmyran" />
		<tag k="natural" v="wetland" />
		<tag k="ssr:stedsnr" v="115061" />
	</node>
	<node lat="62.60805000272773" lon="10.949658328848884" id="-23006">
		<tag k="landuse" v="meadow" />
		<tag k="name" v="Bergemyrslåtten" />
		<tag k="ssr:stedsnr" v="115445" />
	</node>
	<node lat="62.444149995917634" lon="11.160577772432756" id="-23009">
		<tag k="name" v="Mariabrandet" />
		<tag k="place" v="locality" />
		<tag k="ssr:stedsnr" v="115452" />
	</node>
	<node lat="62.33187500100481" lon="11.57304167168448" id="-23013">
		<tag k="name" v="Hansrommet" />
		<tag k="place" v="locality" />
		<tag k="ssr:stedsnr" v="115283" />
	</node>
	<node lat="62.547252780178205" lon="11.068461102925284" id="-23020">
		<tag k="name" v="Åkerbakkroken" />
		<tag k="place" v="locality" />
		<tag k="ssr:stedsnr" v="115500" />
	</node>
	<node lat="62.54825277512186" lon="11.070686109944727" id="-23021">
		<tag k="name" v="Håkonskroken" />
		<tag k="place" v="locality" />
		<tag k="ssr:stedsnr" v="115501" />
	</node>
	<node lat="62.54674999783285" lon="11.065305560306193" id="-23024">
		<tag k="landuse" v="meadow" />
		<tag k="name" v="Nygardsenget" />
		<tag k="ssr:stedsnr" v="115513" />
	</node>
	<node lat="62.606175003597095" lon="11.096641660704517" id="-23026">
		<tag k="landuse" v="meadow" />
		<tag k="name" v="Åkerbakkenget" />
		<tag k="ssr:stedsnr" v="115923" />
	</node>
	<node lat="62.491297224760224" lon="11.35315278653899" id="-23055">
		<tag k="name" v="Herdersmyran" />
		<tag k="natural" v="wetland" />
		<tag k="ssr:stedsnr" v="133291" />
	</node>
	<node lat="62.5724500043756" lon="11.117691671964332" id="-23064">
		<tag k="historic" v="shieling" />
		<tag k="name" v="Oustuvollen" />
		<tag k="place" v="locality" />
		<tag k="ssr:stedsnr" v="175050" />
	</node>
	<node lat="62.34098889298151" lon="11.71573054680719" id="-23066">
		<tag k="landuse" v="meadow" />
		<tag k="name" v="Sumundsenget" />
		<tag k="ssr:stedsnr" v="175179" />
	</node>
	<node lat="62.56436388589294" lon="11.01788610169379" id="-23073">
		<tag k="landuse" v="meadow" />
		<tag k="name" v="Vangsgjeltenget" />
		<tag k="ssr:stedsnr" v="175530" />
	</node>
	<node lat="62.52625833745327" lon="11.0454944476601" id="-23074">
		<tag k="name" v="Vonmyra" />
		<tag k="natural" v="wetland" />
		<tag k="ssr:stedsnr" v="175610" />
	</node>
	<node lat="62.33706666643016" lon="11.351211107370471" id="-23079">
		<tag k="name" v="Elvenget" />
		<tag k="place" v="locality" />
		<tag k="ssr:stedsnr" v="175672" />
	</node>
	<node lat="62.520991668060475" lon="10.980388896722793" id="-23080">
		<tag k="name" v="Brøttfloen" />
		<tag k="natural" v="wetland" />
		<tag k="ssr:stedsnr" v="175640" />
	</node>
	<node lat="62.26700833118659" lon="11.76599445298034" id="-23082">
		<tag k="name" v="Rissundet" />
		<tag k="natural" v="wetland" />
		<tag k="ssr:stedsnr" v="176014" />
	</node>
	<node lat="62.27500277831244" lon="11.779347219724853" id="-23084">
		<tag k="name" v="Saumyra" />
		<tag k="natural" v="wetland" />
		<tag k="ssr:stedsnr" v="176030" />
	</node>
	<node lat="62.33404166579583" lon="11.658958337231354" id="-23090">
		<tag k="name" v="Bakkfloen" />
		<tag k="natural" v="wetland" />
		<tag k="ssr:stedsnr" v="176268" />
	</node>
	<node lat="62.44422777617113" lon="11.382552784396463" id="-23103">
		<tag k="name" v="Kojevollen" />
		<tag k="place" v="locality" />
		<tag k="ssr:stedsnr" v="176731" />
	</node>
	<node lat="62.46514167071454" lon="11.369797219098771" id="-23106">
		<tag k="name" v="Kringelenget" />
		<tag k="place" v="locality" />
		<tag k="ssr:stedsnr" v="176741" />
	</node>
	<node lat="62.45516111213841" lon="11.40412500398148" id="-23107">
		<tag k="landuse" v="meadow" />
		<tag k="name" v="Målarenget" />
		<tag k="ssr:stedsnr" v="176744" />
	</node>
	<node lat="62.45258888734744" lon="11.416311118213743" id="-23108">
		<tag k="name" v="Sagslåtten" />
		<tag k="place" v="locality" />
		<tag k="ssr:stedsnr" v="176746" />
	</node>
	<node lat="62.48460555656604" lon="11.034647230428767" id="-23110">
		<tag k="historic" v="shieling" />
		<tag k="name" v="Øvollen" />
		<tag k="place" v="locality" />
		<tag k="ssr:stedsnr" v="176748" />
	</node>
	<node lat="62.451836109021876" lon="11.138955564175971" id="-23111">
		<tag k="name" v="Blæstermyra" />
		<tag k="natural" v="wetland" />
		<tag k="ssr:stedsnr" v="176700" />
	</node>
	<node lat="62.541174995656235" lon="11.242450000842078" id="-23140">
		<tag k="name" v="Langfloen" />
		<tag k="natural" v="wetland" />
		<tag k="ssr:stedsnr" v="193605" />
	</node>
	<node lat="62.55435555296579" lon="10.992905554754053" id="-23168">
		<tag k="historic" v="shieling" />
		<tag k="name" v="Vangsgravvollen" />
		<tag k="place" v="locality" />
		<tag k="ssr:stedsnr" v="202618" />
	</node>
	<node lat="62.27480278189441" lon="11.707847220111445" id="-23174">
		<tag k="name" v="Nedre Smedfloen" />
		<tag k="natural" v="wetland" />
		<tag k="ssr:stedsnr" v="297245" />
	</node>
	<node lat="62.318741666323334" lon="11.722113891476855" id="-23182">
		<tag k="name" v="Rundmyra" />
		<tag k="natural" v="wetland" />
		<tag k="ssr:stedsnr" v="296169" />
	</node>
	<node lat="62.59315277748334" lon="10.93580000767353" id="-23186">
		<tag k="landuse" v="meadow" />
		<tag k="name" v="Holmsenget" />
		<tag k="ssr:stedsnr" v="297315" />
	</node>
	<node lat="62.562705557110306" lon="10.926658342084012" id="-23188">
		<tag k="landuse" v="meadow" />
		<tag k="name" v="Vollsenget" />
		<tag k="ssr:stedsnr" v="297397" />
	</node>
	<node lat="62.19994721857495" lon="11.819663893414882" id="-23191">
		<tag k="name" v="Grøtstenen" />
		<tag k="natural" v="stone" />
		<tag k="ssr:stedsnr" v="297131" />
	</node>
	<node lat="62.23544722415708" lon="11.768519452907206" id="-23193">
		<tag k="name" v="Grønnsundet" />
		<tag k="natural" v="wetland" />
		<tag k="ssr:stedsnr" v="297118" />
	</node>
	<node lat="62.510099997372" lon="11.14270000872365" id="-23198">
		<tag k="name" v="Kalvkroken" />
		<tag k="place" v="locality" />
		<tag k="ssr:stedsnr" v="297219" />
	</node>
	<node lat="62.47392778119574" lon="11.126138888454063" id="-23200">
		<tag k="name" v="Tollolfloen" />
		<tag k="natural" v="wetland" />
		<tag k="ssr:stedsnr" v="297349" />
	</node>
	<node lat="62.46998333426536" lon="11.115655550528826" id="-23201">
		<tag k="name" v="Småkåsan" />
		<tag k="place" v="locality" />
		<tag k="ssr:stedsnr" v="297351" />
	</node>
	<node lat="62.5285472249275" lon="11.217152787115237" id="-23203">
		<tag k="name" v="Galådalsmyra" />
		<tag k="natural" v="wetland" />
		<tag k="ssr:stedsnr" v="297457" />
	</node>
	<node lat="62.5788527795949" lon="10.976805555090193" id="-23210">
		<tag k="landuse" v="meadow" />
		<tag k="name" v="Rygjeltenget" />
		<tag k="ssr:stedsnr" v="297416" />
	</node>
	<node lat="62.16883055411012" lon="11.820244452432641" id="-23225">
		<tag k="name" v="Kløvstenmyra" />
		<tag k="natural" v="wetland" />
		<tag k="ssr:stedsnr" v="297939" />
	</node>
	<node lat="62.368583337196554" lon="11.486680554951873" id="-23227">
		<tag k="landuse" v="meadow" />
		<tag k="name" v="Langhåenget" />
		<tag k="ssr:stedsnr" v="297951" />
	</node>
	<node lat="62.176608330582006" lon="11.801574990376634" id="-23233">
		<tag k="name" v="Storfloen" />
		<tag k="natural" v="wetland" />
		<tag k="ssr:stedsnr" v="314389" />
	</node>
	<node lat="62.23760278199694" lon="11.762513885000489" id="-23257">
		<tag k="name" v="Slettmyrsundet" />
		<tag k="natural" v="wetland" />
		<tag k="ssr:stedsnr" v="356068" />
	</node>
	<node lat="62.3221361123523" lon="11.741438883355732" id="-23264">
		<tag k="name" v="Kronskogen" />
		<tag k="place" v="locality" />
		<tag k="ssr:stedsnr" v="357187" />
	</node>
	<node lat="62.43160000073513" lon="11.157624993229499" id="-23266">
		<tag k="name" v="Bakosvollsletta" />
		<tag k="place" v="locality" />
		<tag k="ssr:stedsnr" v="357485" />
	</node>
	<node lat="62.534083335948345" lon="10.984738896609917" id="-23268">
		<tag k="name" v="Springfeltslåtten" />
		<tag k="place" v="locality" />
		<tag k="ssr:stedsnr" v="357588" />
	</node>
	<node lat="62.5424999979912" lon="11.03315554725765" id="-23270">
		<tag k="name" v="Brennvollfloen" />
		<tag k="natural" v="wetland" />
		<tag k="ssr:stedsnr" v="357597" />
	</node>
	<node lat="62.52401388900242" lon="11.23257499394009" id="-23281">
		<tag k="name" v="Holmen" />
		<tag k="place" v="locality" />
		<tag k="ssr:stedsnr" v="358468" />
	</node>
	<node lat="62.47966110836038" lon="11.2567333248754" id="-23287">
		<tag k="name" v="Sætermoen" />
		<tag k="place" v="locality" />
		<tag k="ssr:stedsnr" v="358631" />
	</node>
	<node lat="62.4440388883221" lon="11.421380555234943" id="-23290">
		<tag k="name" v="Litjvollan" />
		<tag k="place" v="locality" />
		<tag k="ssr:stedsnr" v="358732" />
	</node>
	<node lat="62.36183055493192" lon="11.462730546945139" id="-23295">
		<tag k="name" v="Sundtrøa" />
		<tag k="place" v="locality" />
		<tag k="ssr:stedsnr" v="358939" />
	</node>
	<node lat="62.19928055411069" lon="11.741008333391948" id="-23328">
		<tag k="historic" v="shieling" />
		<tag k="loc_name" v="Kvennlivollen" />
		<tag k="name" v="Kverlivollen" />
		<tag k="place" v="locality" />
		<tag k="ssr:stedsnr" v="384442" />
	</node>
	<node lat="62.49936388454122" lon="11.159602777602492" id="-23333">
		<tag k="name" v="Spellmosandenget" />
		<tag k="place" v="locality" />
		<tag k="ssr:stedsnr" v="418159" />
	</node>
	<node lat="62.204652776781" lon="11.785997212713145" id="-23341">
		<tag k="name" v="Langmyra" />
		<tag k="natural" v="wetland" />
		<tag k="ssr:stedsnr" v="419135" />
	</node>
	<node lat="62.30552221948151" lon="11.655216657207326" id="-23343">
=======
	<node id="-359408" lat="62.4291388899" lon="11.1754194399">
		<tag k="name" v="Flågåen" />
		<tag k="natural" v="wetland" />
		<tag k="ssr:stedsnr" v="782476" />
	</node>
	<node id="-359407" lat="62.3520805513" lon="11.5221555594">
		<tag k="name" v="Stenbekkfloan" />
		<tag k="natural" v="wetland" />
		<tag k="ssr:stedsnr" v="782461" />
	</node>
	<node id="-359406" lat="62.3460666693" lon="11.4791583289">
		<tag k="name" v="Engåbakken" />
		<tag k="place" v="locality" />
		<tag k="ssr:stedsnr" v="782446" />
	</node>
	<node id="-359404" lat="62.5581722206" lon="10.9325749919">
		<tag k="name" v="Trevlingsmyra" />
		<tag k="natural" v="wetland" />
		<tag k="ssr:stedsnr" v="782389" />
	</node>
	<node id="-359400" lat="62.4985027757" lon="11.0229194536">
		<tag k="historic" v="shieling" />
		<tag k="name" v="Trøvollen" />
		<tag k="place" v="locality" />
		<tag k="ssr:stedsnr" v="782033" />
	</node>
	<node id="-359398" lat="62.2723749978" lon="11.7121388805">
		<tag k="name" v="Røstfloen" />
		<tag k="natural" v="wetland" />
		<tag k="ssr:stedsnr" v="781227" />
	</node>
	<node id="-359395" lat="62.215397225" lon="11.8329027722">
		<tag k="name" v="Summundsfloen" />
		<tag k="natural" v="wetland" />
		<tag k="ssr:stedsnr" v="748449" />
	</node>
	<node id="-359386" lat="62.6303166628" lon="10.8688027855">
		<tag k="name" v="Mosengfloen" />
		<tag k="natural" v="wetland" />
		<tag k="ssr:stedsnr" v="740187" />
	</node>
	<node id="-359330" lat="62.1958916643" lon="11.6692999932">
		<tag k="name" v="Litleåbøttninga" />
		<tag k="natural" v="wetland" />
		<tag k="ssr:stedsnr" v="617513" />
	</node>
	<node id="-359325" lat="62.5826222187" lon="11.0788916709">
		<tag k="landuse" v="meadow" />
		<tag k="name" v="Litjbakkenget" />
		<tag k="ssr:stedsnr" v="602410" />
	</node>
	<node id="-359324" lat="62.5918416692" lon="11.1332083416">
		<tag k="historic" v="shieling" />
		<tag k="name" v="Trøvollen" />
		<tag k="place" v="locality" />
		<tag k="ssr:stedsnr" v="600938" />
	</node>
	<node id="-359321" lat="62.5936083362" lon="11.1269083244">
		<tag k="historic" v="shieling" />
		<tag k="name" v="Ryvollen" />
		<tag k="place" v="locality" />
		<tag k="ssr:stedsnr" v="600924" />
	</node>
	<node id="-359320" lat="62.5958944488" lon="11.1909250092">
		<tag k="landuse" v="meadow" />
		<tag k="name" v="Hånesenget" />
		<tag k="ssr:stedsnr" v="600985" />
	</node>
	<node id="-359310" lat="62.4890972258" lon="11.2339555468">
		<tag k="name" v="Litjmyra" />
		<tag k="natural" v="wetland" />
		<tag k="ssr:stedsnr" v="600527" />
	</node>
	<node id="-359308" lat="62.5494583292" lon="11.050236104">
		<tag k="landuse" v="meadow" />
		<tag k="name" v="Lersletta" />
		<tag k="ssr:stedsnr" v="600504" />
	</node>
	<node id="-359305" lat="62.4267638916" lon="11.1800472304">
		<tag k="name" v="Kåsan" />
		<tag k="place" v="locality" />
		<tag k="ssr:stedsnr" v="600496" />
	</node>
	<node id="-359302" lat="62.5271222194" lon="11.2288222278">
		<tag k="historic" v="shieling" />
		<tag k="name" v="Gammelvollen" />
		<tag k="place" v="locality" />
		<tag k="ssr:stedsnr" v="600449" />
	</node>
	<node id="-359301" lat="62.5533305524" lon="10.9304611138">
		<tag k="historic" v="shieling" />
		<tag k="name" v="Bergvollen" />
		<tag k="place" v="locality" />
		<tag k="ssr:stedsnr" v="600400" />
	</node>
	<node id="-359300" lat="62.5401638922" lon="11.009486115">
		<tag k="name" v="Flovollmyra" />
		<tag k="natural" v="wetland" />
		<tag k="ssr:stedsnr" v="600630" />
	</node>
	<node id="-359299" lat="62.5354805545" lon="10.995124993">
		<tag k="landuse" v="meadow" />
		<tag k="name" v="Markåsenget" />
		<tag k="ssr:stedsnr" v="600629" />
	</node>
	<node id="-359298" lat="62.5446583297" lon="11.07952499">
		<tag k="name" v="Trøakroken" />
		<tag k="place" v="locality" />
		<tag k="ssr:stedsnr" v="600592" />
	</node>
	<node id="-359296" lat="62.3217888894" lon="11.6740277873">
		<tag k="name" v="Stenrøsta" />
		<tag k="natural" v="wetland" />
		<tag k="ssr:stedsnr" v="600342" />
	</node>
	<node id="-359295" lat="62.3215277742" lon="11.5935444458">
		<tag k="name" v="Kjurrukjeldkjerren" />
		<tag k="place" v="locality" />
		<tag k="ssr:stedsnr" v="600330" />
	</node>
	<node id="-359285" lat="62.5962000039" lon="10.9434916686">
		<tag k="historic" v="shieling" />
		<tag k="name" v="Bjønnvollen" />
		<tag k="place" v="locality" />
		<tag k="ssr:stedsnr" v="600303" />
	</node>
	<node id="-359284" lat="62.5959861153" lon="10.9369305485">
		<tag k="landuse" v="meadow" />
		<tag k="name" v="Myrtrøslåtten" />
		<tag k="ssr:stedsnr" v="600302" />
	</node>
	<node id="-359282" lat="62.6025833315" lon="10.9220444453">
		<tag k="name" v="Kløftåsfloan" />
		<tag k="natural" v="wetland" />
		<tag k="ssr:stedsnr" v="600300" />
	</node>
	<node id="-359280" lat="62.5365722211" lon="11.0773111044">
		<tag k="landuse" v="meadow" />
		<tag k="name" v="Langenget" />
		<tag k="ssr:stedsnr" v="600297" />
	</node>
	<node id="-359268" lat="62.2317138886" lon="11.8174138959">
		<tag k="name" v="Nesset" />
		<tag k="place" v="locality" />
		<tag k="ssr:stedsnr" v="600101" />
	</node>
	<node id="-359265" lat="62.2413861115" lon="11.7461777799">
		<tag k="name" v="Bustmyran" />
		<tag k="natural" v="wetland" />
		<tag k="ssr:stedsnr" v="600060" />
	</node>
	<node id="-359263" lat="62.5657944438" lon="11.1075888853">
		<tag k="name" v="Øsvollmyra" />
		<tag k="natural" v="wetland" />
		<tag k="ssr:stedsnr" v="600052" />
	</node>
	<node id="-359260" lat="62.344236109" lon="11.5500333276">
		<tag k="name" v="Granom" />
		<tag k="place" v="locality" />
		<tag k="ssr:stedsnr" v="599498" />
	</node>
	<node id="-359259" lat="62.3396027778" lon="11.5164194438">
		<tag k="name" v="Tobiasvollen" />
		<tag k="place" v="locality" />
		<tag k="ssr:stedsnr" v="599489" />
	</node>
	<node id="-359257" lat="62.3453444432" lon="11.4813222184">
		<tag k="name" v="Buviktrøa" />
		<tag k="place" v="locality" />
		<tag k="ssr:stedsnr" v="599479" />
	</node>
	<node id="-359254" lat="62.240019448" lon="11.748825">
		<tag k="name" v="Bustmyrlaua" />
		<tag k="place" v="locality" />
		<tag k="ssr:stedsnr" v="599103" />
	</node>
	<node id="-359249" lat="62.1611361085" lon="11.8066972233">
		<tag k="name" v="Summundsmyra" />
		<tag k="natural" v="wetland" />
		<tag k="ssr:stedsnr" v="566456" />
	</node>
	<node id="-359248" lat="62.2193416675" lon="11.767825">
		<tag k="historic" v="shieling" />
		<tag k="name" v="Krokan" />
		<tag k="place" v="locality" />
		<tag k="ssr:stedsnr" v="566448" />
	</node>
	<node id="-359211" lat="62.4307611129" lon="11.4297833243">
		<tag k="landuse" v="meadow" />
		<tag k="name" v="Krokenga" />
		<tag k="ssr:stedsnr" v="540795" />
	</node>
	<node id="-359209" lat="62.4597694463" lon="11.3612111148">
		<tag k="name" v="Mosengvollen" />
		<tag k="place" v="locality" />
		<tag k="ssr:stedsnr" v="540728" />
	</node>
	<node id="-359199" lat="62.5019305561" lon="11.072980549">
		<tag k="name" v="Stormyran" />
		<tag k="natural" v="wetland" />
		<tag k="ssr:stedsnr" v="540676" />
	</node>
	<node id="-359190" lat="62.3335777776" lon="11.5906694414">
		<tag k="name" v="Lørjemyra" />
		<tag k="natural" v="wetland" />
		<tag k="ssr:stedsnr" v="540330" />
	</node>
	<node id="-359189" lat="62.5872916658" lon="10.9893527783">
		<tag k="name" v="Åsmyren" />
		<tag k="natural" v="wetland" />
		<tag k="ssr:stedsnr" v="540457" />
	</node>
	<node id="-359183" lat="62.5580527748" lon="11.1036583412">
		<tag k="name" v="Bergemyra" />
		<tag k="natural" v="wetland" />
		<tag k="ssr:stedsnr" v="540077" />
	</node>
	<node id="-359180" lat="62.237172226" lon="11.7694833393">
		<tag k="landuse" v="meadow" />
		<tag k="name" v="Lopphustrøa" />
		<tag k="ssr:stedsnr" v="540050" />
	</node>
	<node id="-359178" lat="62.5712222261" lon="10.9634555561">
		<tag k="landuse" v="meadow" />
		<tag k="name" v="Johaugsenget" />
		<tag k="ssr:stedsnr" v="540315" />
	</node>
	<node id="-359173" lat="62.3334222249" lon="11.6263083419">
		<tag k="name" v="Bustmyran" />
		<tag k="natural" v="wetland" />
		<tag k="ssr:stedsnr" v="540303" />
	</node>
	<node id="-359172" lat="62.334305552" lon="11.6690777736">
		<tag k="name" v="Bakksunda" />
		<tag k="natural" v="wetland" />
		<tag k="ssr:stedsnr" v="540279" />
	</node>
	<node id="-359171" lat="62.3090166696" lon="11.5793166618">
		<tag k="name" v="Høgget" />
		<tag k="place" v="locality" />
		<tag k="ssr:stedsnr" v="540276" />
	</node>
	<node id="-359170" lat="62.3356444473" lon="11.5655055553">
		<tag k="name" v="Trøa" />
		<tag k="place" v="locality" />
		<tag k="ssr:stedsnr" v="540265" />
	</node>
	<node id="-359168" lat="62.3321694416" lon="11.5600638904">
		<tag k="name" v="Småmyran" />
		<tag k="natural" v="wetland" />
		<tag k="ssr:stedsnr" v="540245" />
	</node>
	<node id="-359166" lat="62.5980694481" lon="11.126833327">
		<tag k="landuse" v="meadow" />
		<tag k="name" v="Nygjeltenget" />
		<tag k="ssr:stedsnr" v="539922" />
	</node>
	<node id="-359156" lat="62.2797333302" lon="11.7637194454">
		<tag k="name" v="Sagmyran" />
		<tag k="natural" v="wetland" />
		<tag k="ssr:stedsnr" v="539190" />
	</node>
	<node id="-359151" lat="62.2310388887" lon="11.7520194357">
		<tag k="name" v="Litjåfloen" />
		<tag k="natural" v="wetland" />
		<tag k="ssr:stedsnr" v="539107" />
	</node>
	<node id="-359149" lat="62.2233805577" lon="11.7503722295">
		<tag k="name" v="Litjlauslåtten" />
		<tag k="place" v="locality" />
		<tag k="ssr:stedsnr" v="539102" />
	</node>
	<node id="-359148" lat="62.2061833362" lon="11.7494611068">
		<tag k="name" v="Midtvegsslåtten" />
		<tag k="natural" v="wetland" />
		<tag k="ssr:stedsnr" v="539086" />
	</node>
	<node id="-359112" lat="62.2049555531" lon="11.7809083319">
		<tag k="alt_name" v="Litjåfloen" />
		<tag k="name" v="Litleåfloen" />
		<tag k="natural" v="wetland" />
		<tag k="ssr:stedsnr" v="435390" />
	</node>
	<node id="-359107" lat="62.5942249973" lon="11.1826638835">
		<tag k="landuse" v="meadow" />
		<tag k="name" v="Bakkmyrenget" />
		<tag k="ssr:stedsnr" v="419968" />
	</node>
	<node id="-359106" lat="62.1790583335" lon="11.7941194407">
		<tag k="name" v="Storflolaua" />
		<tag k="place" v="locality" />
		<tag k="ssr:stedsnr" v="419895" />
	</node>
	<node id="-359103" lat="62.5223833355" lon="11.2487027808">
		<tag k="name" v="Nydyrkinga" />
		<tag k="place" v="locality" />
		<tag k="ssr:stedsnr" v="419750" />
	</node>
	<node id="-359096" lat="62.4290750025" lon="11.4400027747">
		<tag k="name" v="Mastukåsa" />
		<tag k="place" v="locality" />
		<tag k="ssr:stedsnr" v="419814" />
	</node>
	<node id="-359093" lat="62.5799611088" lon="11.0283333332">
		<tag k="name" v="Bekkfloen" />
		<tag k="natural" v="wetland" />
		<tag k="ssr:stedsnr" v="419452" />
	</node>
	<node id="-359091" lat="62.5729916655" lon="10.9827277821">
		<tag k="landuse" v="meadow" />
		<tag k="name" v="Ryenget" />
		<tag k="ssr:stedsnr" v="419426" />
	</node>
	<node id="-359090" lat="62.5741972203" lon="10.9903638958">
		<tag k="landuse" v="meadow" />
		<tag k="name" v="Johaugsenget" />
		<tag k="ssr:stedsnr" v="419424" />
	</node>
	<node id="-357490" lat="62.363947218" lon="11.4794361025">
		<tag k="name" v="Øsvollen" />
		<tag k="place" v="locality" />
		<tag k="ssr:stedsnr" v="237953" />
	</node>
	<node id="-359075" lat="62.518958337" lon="11.1540277736">
		<tag k="name" v="Østgårdsmyran" />
		<tag k="natural" v="wetland" />
		<tag k="ssr:stedsnr" v="419169" />
	</node>
	<node id="-359074" lat="62.3055222195" lon="11.6552166572">
>>>>>>> e1d4bc35ff8a6074a6f2e91616a996b547c36f15
		<tag k="landuse" v="meadow" />
		<tag k="name" v="Kåsan" />
		<tag k="ssr:stedsnr" v="419161" />
	</node>
<<<<<<< HEAD
	<node lat="62.51895833700682" lon="11.154027773572171" id="-23344">
		<tag k="name" v="Østgårdsmyran" />
		<tag k="natural" v="wetland" />
		<tag k="ssr:stedsnr" v="419169" />
	</node>
	<node lat="62.425313891097176" lon="11.178669436026375" id="-23346">
		<tag k="name" v="Brennvollmyran" />
		<tag k="natural" v="wetland" />
		<tag k="ssr:stedsnr" v="418490" />
	</node>
	<node lat="62.55833055778035" lon="10.992455560629715" id="-23349">
		<tag k="landuse" v="meadow" />
		<tag k="name" v="Lillehaugsenget" />
		<tag k="ssr:stedsnr" v="418521" />
	</node>
	<node lat="62.34401388782817" lon="11.475322226395068" id="-23351">
		<tag k="name" v="Malmmyra" />
		<tag k="natural" v="wetland" />
		<tag k="ssr:stedsnr" v="418469" />
	</node>
	<node lat="62.625472225941" lon="11.146827781341509" id="-23355">
		<tag k="name" v="Mosengfloen" />
		<tag k="natural" v="wetland" />
		<tag k="ssr:stedsnr" v="418813" />
	</node>
	<node lat="62.621252773829056" lon="11.120447222254706" id="-23356">
		<tag k="name" v="Sjømyran" />
		<tag k="natural" v="wetland" />
		<tag k="ssr:stedsnr" v="418814" />
	</node>
	<node lat="62.545083337533285" lon="11.025294439206954" id="-23358">
		<tag k="name" v="Engefloen" />
		<tag k="natural" v="wetland" />
		<tag k="ssr:stedsnr" v="418581" />
	</node>
	<node lat="62.538841663270645" lon="11.032419434978932" id="-23359">
		<tag k="name" v="Storflodiket" />
		<tag k="natural" v="wetland" />
		<tag k="ssr:stedsnr" v="418597" />
	</node>
	<node lat="62.579961108821166" lon="11.028333333198583" id="-23362">
		<tag k="name" v="Bekkfloen" />
		<tag k="natural" v="wetland" />
		<tag k="ssr:stedsnr" v="419452" />
	</node>
	<node lat="62.192511112882265" lon="11.803297214419544" id="-23363">
		<tag k="name" v="Nybrennslåtten" />
		<tag k="natural" v="wetland" />
		<tag k="ssr:stedsnr" v="419114" />
	</node>
	<node lat="62.574197220336686" lon="10.990363895846468" id="-23372">
		<tag k="landuse" v="meadow" />
		<tag k="name" v="Johaugsenget" />
		<tag k="ssr:stedsnr" v="419424" />
	</node>
	<node lat="62.57299166549654" lon="10.982727782094559" id="-23373">
		<tag k="landuse" v="meadow" />
		<tag k="name" v="Ryenget" />
		<tag k="ssr:stedsnr" v="419426" />
	</node>
	<node lat="62.52238333550647" lon="11.248702780795375" id="-23380">
		<tag k="name" v="Nydyrkinga" />
		<tag k="place" v="locality" />
		<tag k="ssr:stedsnr" v="419750" />
	</node>
	<node lat="62.594224997268505" lon="11.182663883492308" id="-23381">
		<tag k="landuse" v="meadow" />
		<tag k="name" v="Bakkmyrenget" />
		<tag k="ssr:stedsnr" v="419968" />
	</node>
	<node lat="62.6028222237976" lon="11.081141669106511" id="-23382">
		<tag k="name" v="Fremstufloen" />
		<tag k="natural" v="wetland" />
		<tag k="ssr:stedsnr" v="421421" />
	</node>
	<node lat="62.2049555531311" lon="11.78090833185577" id="-23384">
		<tag k="alt_name" v="Litjåfloen" />
		<tag k="name" v="Litleåfloen" />
		<tag k="natural" v="wetland" />
		<tag k="ssr:stedsnr" v="435390" />
	</node>
	<node lat="62.25282777577338" lon="11.738597217912014" id="-23410">
		<tag k="name" v="Trettmyran" />
		<tag k="natural" v="wetland" />
		<tag k="ssr:stedsnr" v="445867" />
	</node>
	<node lat="62.206183336246326" lon="11.749461106753206" id="-23441">
		<tag k="name" v="Midtvegsslåtten" />
		<tag k="natural" v="wetland" />
		<tag k="ssr:stedsnr" v="539086" />
	</node>
	<node lat="62.27973333020686" lon="11.763719445401485" id="-23445">
		<tag k="name" v="Sagmyran" />
		<tag k="natural" v="wetland" />
		<tag k="ssr:stedsnr" v="539190" />
	</node>
	<node lat="62.59806944813183" lon="11.126833326968649" id="-23453">
		<tag k="landuse" v="meadow" />
		<tag k="name" v="Nygjeltenget" />
		<tag k="ssr:stedsnr" v="539922" />
	</node>
	<node lat="62.23717222603948" lon="11.76948333933876" id="-23459">
		<tag k="landuse" v="meadow" />
		<tag k="name" v="Lopphustrøa" />
		<tag k="ssr:stedsnr" v="540050" />
	</node>
	<node lat="62.33216944164909" lon="11.56006389038243" id="-23465">
		<tag k="name" v="Småmyran" />
		<tag k="natural" v="wetland" />
		<tag k="ssr:stedsnr" v="540245" />
	</node>
	<node lat="62.3335777776309" lon="11.59066944137453" id="-23467">
		<tag k="name" v="Lørjemyra" />
		<tag k="natural" v="wetland" />
		<tag k="ssr:stedsnr" v="540330" />
	</node>
	<node lat="62.57366389053747" lon="10.978261110400247" id="-23476">
		<tag k="landuse" v="meadow" />
		<tag k="name" v="Sjursenget" />
		<tag k="ssr:stedsnr" v="540425" />
	</node>
	<node lat="62.58729166583454" lon="10.989352778281269" id="-23477">
		<tag k="name" v="Åsmyren" />
		<tag k="natural" v="wetland" />
		<tag k="ssr:stedsnr" v="540457" />
	</node>
	<node lat="62.45976944631253" lon="11.361211114799366" id="-23480">
		<tag k="name" v="Mosengvollen" />
		<tag k="place" v="locality" />
		<tag k="ssr:stedsnr" v="540728" />
	</node>
	<node lat="62.43076111285418" lon="11.42978332429931" id="-23483">
		<tag k="landuse" v="meadow" />
		<tag k="name" v="Krokenga" />
		<tag k="ssr:stedsnr" v="540795" />
	</node>
	<node lat="62.21934166745061" lon="11.767824999987727" id="-23511">
		<tag k="historic" v="shieling" />
		<tag k="name" v="Krokan" />
		<tag k="place" v="locality" />
		<tag k="ssr:stedsnr" v="566448" />
	</node>
	<node lat="62.16113610847499" lon="11.806697223258436" id="-23512">
		<tag k="name" v="Summundsmyra" />
		<tag k="natural" v="wetland" />
		<tag k="ssr:stedsnr" v="566456" />
	</node>
	<node lat="62.581988887538245" lon="11.195783328878345" id="-23517">
		<tag k="landuse" v="meadow" />
		<tag k="name" v="Haugsgjeltslåttan" />
		<tag k="ssr:stedsnr" v="588266" />
	</node>
	<node lat="62.34534444317578" lon="11.481322218361507" id="-23525">
		<tag k="name" v="Buviktrøa" />
		<tag k="place" v="locality" />
		<tag k="ssr:stedsnr" v="599479" />
	</node>
	<node lat="62.3396027778135" lon="11.516419443767461" id="-23527">
		<tag k="name" v="Tobiasvollen" />
		<tag k="place" v="locality" />
		<tag k="ssr:stedsnr" v="599489" />
	</node>
	<node lat="62.28060277599148" lon="11.769855557462764" id="-23530">
		<tag k="name" v="Midtmyran" />
		<tag k="natural" v="wetland" />
		<tag k="ssr:stedsnr" v="600024" />
	</node>
	<node lat="62.31051944736033" lon="11.677855557930725" id="-23543">
		<tag k="name" v="Sjøøsmyran" />
		<tag k="natural" v="wetland" />
		<tag k="ssr:stedsnr" v="600166" />
	</node>
	<node lat="62.602583331509045" lon="10.922044445324966" id="-23550">
		<tag k="name" v="Kløftåsfloan" />
		<tag k="natural" v="wetland" />
		<tag k="ssr:stedsnr" v="600300" />
	</node>
	<node lat="62.3215277742133" lon="11.593544445792919" id="-23552">
		<tag k="name" v="Kjurrukjeldkjerren" />
		<tag k="place" v="locality" />
		<tag k="ssr:stedsnr" v="600330" />
	</node>
	<node lat="62.32178888943447" lon="11.674027787318739" id="-23553">
		<tag k="name" v="Stenrøsta" />
		<tag k="natural" v="wetland" />
		<tag k="ssr:stedsnr" v="600342" />
	</node>
	<node lat="62.42676389156222" lon="11.180047230403552" id="-23557">
		<tag k="name" v="Kåsan" />
		<tag k="place" v="locality" />
		<tag k="ssr:stedsnr" v="600496" />
	</node>
	<node lat="62.540163892215304" lon="11.0094861149795" id="-23558">
		<tag k="name" v="Flovollmyra" />
		<tag k="natural" v="wetland" />
		<tag k="ssr:stedsnr" v="600630" />
	</node>
	<node lat="62.48909722582427" lon="11.233955546831663" id="-23562">
		<tag k="name" v="Litjmyra" />
		<tag k="natural" v="wetland" />
		<tag k="ssr:stedsnr" v="600527" />
	</node>
	<node lat="62.54465832968165" lon="11.079524990045261" id="-23566">
		<tag k="name" v="Trøakroken" />
		<tag k="place" v="locality" />
		<tag k="ssr:stedsnr" v="600592" />
	</node>
	<node lat="62.59360833620516" lon="11.126908324365171" id="-23571">
		<tag k="historic" v="shieling" />
		<tag k="name" v="Ryvollen" />
		<tag k="place" v="locality" />
		<tag k="ssr:stedsnr" v="600924" />
	</node>
	<node lat="62.591841669241774" lon="11.133208341619012" id="-23573">
		<tag k="historic" v="shieling" />
		<tag k="name" v="Trøvollen" />
		<tag k="place" v="locality" />
		<tag k="ssr:stedsnr" v="600938" />
	</node>
	<node lat="62.59589444880171" lon="11.190925009176915" id="-23574">
		<tag k="landuse" v="meadow" />
		<tag k="name" v="Hånesenget" />
		<tag k="ssr:stedsnr" v="600985" />
	</node>
	<node lat="62.56375000207939" lon="10.96179999429111" id="-23599">
		<tag k="landuse" v="quarry" />
		<tag k="name" v="Fossgruva" />
		<tag k="ssr:stedsnr" v="618782" />
	</node>
	<node lat="62.293338891378504" lon="11.728247231580454" id="-23611">
		<tag k="name" v="Almenningsfloen" />
		<tag k="natural" v="wetland" />
		<tag k="ssr:stedsnr" v="660242" />
	</node>
	<node lat="62.427874999832824" lon="11.17208888400049" id="-23612">
		<tag k="name" v="Gråbenkåsa" />
		<tag k="place" v="locality" />
		<tag k="ssr:stedsnr" v="660532" />
	</node>
	<node lat="62.28331944269091" lon="11.734925008091249" id="-23615">
		<tag k="name" v="Smedfloen" />
=======
	<node id="-359072" lat="62.2046527768" lon="11.7859972127">
		<tag k="name" v="Langmyra" />
		<tag k="natural" v="wetland" />
		<tag k="ssr:stedsnr" v="419135" />
	</node>
	<node id="-359068" lat="62.1925111129" lon="11.8032972144">
		<tag k="name" v="Nybrennslåtten" />
		<tag k="natural" v="wetland" />
		<tag k="ssr:stedsnr" v="419114" />
	</node>
	<node id="-359067" lat="62.2251444482" lon="11.7757972225">
		<tag k="name" v="Langkloppsundet" />
		<tag k="natural" v="wetland" />
		<tag k="ssr:stedsnr" v="419085" />
	</node>
	<node id="-359064" lat="62.5388416633" lon="11.032419435">
		<tag k="name" v="Storflodiket" />
		<tag k="natural" v="wetland" />
		<tag k="ssr:stedsnr" v="418597" />
	</node>
	<node id="-359063" lat="62.5450833375" lon="11.0252944392">
		<tag k="name" v="Engefloen" />
		<tag k="natural" v="wetland" />
		<tag k="ssr:stedsnr" v="418581" />
	</node>
	<node id="-359058" lat="62.4253138911" lon="11.178669436">
		<tag k="name" v="Brennvollmyran" />
		<tag k="natural" v="wetland" />
		<tag k="ssr:stedsnr" v="418490" />
	</node>
	<node id="-359054" lat="62.3440138878" lon="11.4753222264">
		<tag k="name" v="Malmmyra" />
		<tag k="natural" v="wetland" />
		<tag k="ssr:stedsnr" v="418469" />
	</node>
	<node id="-359051" lat="62.4993638845" lon="11.1596027776">
		<tag k="name" v="Spellmosandenget" />
		<tag k="place" v="locality" />
		<tag k="ssr:stedsnr" v="418159" />
	</node>
	<node id="-359048" lat="62.5550361104" lon="11.2112166575">
		<tag k="name" v="Klettmyra" />
		<tag k="natural" v="wetland" />
		<tag k="ssr:stedsnr" v="418056" />
	</node>
	<node id="-357484" lat="62.4292527822" lon="11.4211527794">
		<tag k="landuse" v="meadow" />
		<tag k="name" v="Nygardsenga" />
		<tag k="ssr:stedsnr" v="237801" />
	</node>
	<node id="-359043" lat="62.1992805541" lon="11.7410083334">
		<tag k="historic" v="shieling" />
		<tag k="loc_name" v="Kvennlivollen" />
		<tag k="name" v="Kverlivollen" />
		<tag k="place" v="locality" />
		<tag k="ssr:stedsnr" v="384442" />
	</node>
	<node id="-359011" lat="62.3618305549" lon="11.4627305469">
		<tag k="name" v="Sundtrøa" />
		<tag k="place" v="locality" />
		<tag k="ssr:stedsnr" v="358939" />
	</node>
	<node id="-359008" lat="62.4591444477" lon="11.3777083335">
		<tag k="name" v="Litlenarjordet" />
		<tag k="place" v="locality" />
		<tag k="ssr:stedsnr" v="358750" />
	</node>
	<node id="-359003" lat="62.4440388883" lon="11.4213805552">
		<tag k="name" v="Litjvollan" />
		<tag k="place" v="locality" />
		<tag k="ssr:stedsnr" v="358732" />
	</node>
	<node id="-359001" lat="62.4796611084" lon="11.2567333249">
		<tag k="name" v="Sætermoen" />
		<tag k="place" v="locality" />
		<tag k="ssr:stedsnr" v="358631" />
	</node>
	<node id="-359000" lat="62.561441665" lon="11.0672055576">
		<tag k="name" v="Litjåsfloen" />
		<tag k="natural" v="wetland" />
		<tag k="ssr:stedsnr" v="358548" />
	</node>
	<node id="-358994" lat="62.4624611132" lon="11.1676305611">
		<tag k="historic" v="shieling" />
		<tag k="name" v="Trøavollen" />
		<tag k="place" v="locality" />
		<tag k="ssr:stedsnr" v="358349" />
	</node>
	<node id="-358986" lat="62.542499998" lon="11.0331555473">
		<tag k="name" v="Brennvollfloen" />
		<tag k="natural" v="wetland" />
		<tag k="ssr:stedsnr" v="357597" />
	</node>
	<node id="-358984" lat="62.5340833359" lon="10.9847388966">
		<tag k="name" v="Springfeltslåtten" />
		<tag k="place" v="locality" />
		<tag k="ssr:stedsnr" v="357588" />
	</node>
	<node id="-358982" lat="62.4316000007" lon="11.1576249932">
		<tag k="name" v="Bakosvollsletta" />
		<tag k="place" v="locality" />
		<tag k="ssr:stedsnr" v="357485" />
	</node>
	<node id="-358975" lat="62.3221361124" lon="11.7414388834">
		<tag k="name" v="Kronskogen" />
		<tag k="place" v="locality" />
		<tag k="ssr:stedsnr" v="357187" />
	</node>
	<node id="-358974" lat="62.4898166689" lon="11.2104777727">
		<tag k="name" v="Kloppgjelten" />
		<tag k="place" v="locality" />
		<tag k="ssr:stedsnr" v="357154" />
	</node>
	<node id="-358950" lat="62.1766083306" lon="11.8015749904">
		<tag k="name" v="Storfloen" />
		<tag k="natural" v="wetland" />
		<tag k="ssr:stedsnr" v="314389" />
	</node>
	<node id="-358945" lat="62.554355553" lon="10.9929055548">
		<tag k="historic" v="shieling" />
		<tag k="name" v="Vangsgravvollen" />
		<tag k="place" v="locality" />
		<tag k="ssr:stedsnr" v="202618" />
	</node>
	<node id="-358902" lat="62.4846055566" lon="11.0346472304">
		<tag k="historic" v="shieling" />
		<tag k="name" v="Øvollen" />
		<tag k="place" v="locality" />
		<tag k="ssr:stedsnr" v="176748" />
	</node>
	<node id="-358900" lat="62.4525888873" lon="11.4163111182">
		<tag k="name" v="Sagslåtten" />
		<tag k="place" v="locality" />
		<tag k="ssr:stedsnr" v="176746" />
	</node>
	<node id="-358899" lat="62.4551611121" lon="11.404125004">
		<tag k="landuse" v="meadow" />
		<tag k="name" v="Målarenget" />
		<tag k="ssr:stedsnr" v="176744" />
	</node>
	<node id="-358898" lat="62.4651416707" lon="11.3697972191">
		<tag k="name" v="Kringelenget" />
		<tag k="place" v="locality" />
		<tag k="ssr:stedsnr" v="176741" />
	</node>
	<node id="-358895" lat="62.4442277762" lon="11.3825527844">
		<tag k="name" v="Kojevollen" />
		<tag k="place" v="locality" />
		<tag k="ssr:stedsnr" v="176731" />
	</node>
	<node id="-358893" lat="62.4549500006" lon="11.3517111018">
		<tag k="name" v="Stormyra" />
		<tag k="natural" v="wetland" />
		<tag k="ssr:stedsnr" v="176724" />
	</node>
	<node id="-358891" lat="62.5162861079" lon="11.0765833276">
		<tag k="landuse" v="meadow" />
		<tag k="name" v="Nirsenget" />
		<tag k="ssr:stedsnr" v="176710" />
	</node>
	<node id="-358889" lat="62.451836109" lon="11.1389555642">
		<tag k="name" v="Blæstermyra" />
		<tag k="natural" v="wetland" />
		<tag k="ssr:stedsnr" v="176700" />
	</node>
	<node id="-358884" lat="62.4836138904" lon="11.4020416741">
		<tag k="name" v="Slåggåmyran" />
		<tag k="natural" v="wetland" />
		<tag k="ssr:stedsnr" v="176463" />
	</node>
	<node id="-358876" lat="62.3067833351" lon="11.5822611104">
		<tag k="landuse" v="meadow" />
		<tag k="name" v="Elvslåtten" />
		<tag k="ssr:stedsnr" v="176322" />
	</node>
	<node id="-358875" lat="62.3193500032" lon="11.5932305643">
		<tag k="name" v="Litjfloen" />
		<tag k="natural" v="wetland" />
		<tag k="ssr:stedsnr" v="176321" />
	</node>
	<node id="-358873" lat="62.4787388927" lon="11.1550361194">
		<tag k="name" v="Vintervegmyra" />
		<tag k="natural" v="wetland" />
		<tag k="ssr:stedsnr" v="176314" />
	</node>
	<node id="-358869" lat="62.3340416658" lon="11.6589583372">
		<tag k="name" v="Bakkfloen" />
		<tag k="natural" v="wetland" />
		<tag k="ssr:stedsnr" v="176268" />
	</node>
	<node id="-358862" lat="62.4869166639" lon="11.1118249938">
		<tag k="name" v="Utstufloen" />
		<tag k="natural" v="wetland" />
		<tag k="ssr:stedsnr" v="176164" />
	</node>
	<node id="-358857" lat="62.2425694464" lon="11.719186116">
		<tag k="name" v="Fjellåfloan" />
		<tag k="natural" v="wetland" />
		<tag k="ssr:stedsnr" v="176078" />
	</node>
	<node id="-358855" lat="62.2532249985" lon="11.8207944425">
		<tag k="name" v="Søndre Tuvjotan" />
		<tag k="place" v="locality" />
		<tag k="ssr:stedsnr" v="176067" />
	</node>
	<node id="-358853" lat="62.2750027783" lon="11.7793472197">
		<tag k="name" v="Saumyra" />
		<tag k="natural" v="wetland" />
		<tag k="ssr:stedsnr" v="176030" />
	</node>
	<node id="-358851" lat="62.2670083312" lon="11.765994453">
		<tag k="name" v="Rissundet" />
		<tag k="natural" v="wetland" />
		<tag k="ssr:stedsnr" v="176014" />
	</node>
	<node id="-358849" lat="62.4606083317" lon="11.0777444502">
		<tag k="historic" v="shieling" />
		<tag k="name" v="Åsvollen" />
		<tag k="place" v="locality" />
		<tag k="ssr:stedsnr" v="176003" />
	</node>
	<node id="-358848" lat="62.5930222208" lon="11.1189388805">
		<tag k="name" v="Undliåsfloen" />
		<tag k="natural" v="wetland" />
		<tag k="ssr:stedsnr" v="175909" />
	</node>
	<node id="-358847" lat="62.6266333301" lon="11.0954972252">
		<tag k="name" v="Litjøya" />
		<tag k="place" v="locality" />
		<tag k="ssr:stedsnr" v="175810" />
	</node>
	<node id="-358846" lat="62.626802774" lon="11.1223916738">
		<tag k="landuse" v="meadow" />
		<tag k="name" v="Holmsenget" />
		<tag k="ssr:stedsnr" v="175808" />
	</node>
	<node id="-358845" lat="62.3370666664" lon="11.3512111074">
		<tag k="name" v="Elvenget" />
		<tag k="place" v="locality" />
		<tag k="ssr:stedsnr" v="175672" />
	</node>
	<node id="-358843" lat="62.5209916681" lon="10.9803888967">
		<tag k="name" v="Brøttfloen" />
>>>>>>> e1d4bc35ff8a6074a6f2e91616a996b547c36f15
		<tag k="natural" v="wetland" />
		<tag k="ssr:stedsnr" v="175640" />
	</node>
<<<<<<< HEAD
	<node lat="62.37110833217613" lon="11.46765555865885" id="-23618">
		<tag k="name" v="Narmyra" />
		<tag k="natural" v="wetland" />
		<tag k="ssr:stedsnr" v="661957" />
	</node>
	<node lat="62.36693611305509" lon="11.484030560884891" id="-23619">
		<tag k="landuse" v="meadow" />
		<tag k="name" v="Nykåsenget" />
		<tag k="ssr:stedsnr" v="661958" />
	</node>
	<node lat="62.33352222247491" lon="11.35725277285255" id="-23622">
		<tag k="name" v="Nyvollengan" />
		<tag k="place" v="locality" />
		<tag k="ssr:stedsnr" v="660672" />
	</node>
	<node lat="62.2471388860732" lon="11.739925005325514" id="-23626">
		<tag k="name" v="Kvernbekkmyran" />
		<tag k="natural" v="wetland" />
		<tag k="ssr:stedsnr" v="661053" />
	</node>
	<node lat="62.555572218564485" lon="11.209049998023534" id="-23627">
		<tag k="name" v="Utstufloen" />
		<tag k="natural" v="wetland" />
		<tag k="ssr:stedsnr" v="661060" />
	</node>
	<node lat="62.48913888756141" lon="11.19681110294698" id="-23629">
		<tag k="name" v="Utstuvollen" />
		<tag k="place" v="locality" />
		<tag k="ssr:stedsnr" v="661150" />
	</node>
	<node lat="62.46681111126572" lon="11.18744445039546" id="-23633">
		<tag k="name" v="Granfloen" />
		<tag k="natural" v="wetland" />
		<tag k="ssr:stedsnr" v="661316" />
	</node>
	<node lat="62.43517778113652" lon="11.140097217993521" id="-23637">
		<tag k="alt_name" v="Hummelvollen" />
		<tag k="historic" v="shieling" />
		<tag k="name" v="Håmmålvollen" />
		<tag k="place" v="locality" />
		<tag k="ssr:stedsnr" v="661500" />
	</node>
	<node lat="62.56095555240267" lon="10.999461118141276" id="-23638">
		<tag k="landuse" v="meadow" />
		<tag k="name" v="Øverhaugsenget" />
		<tag k="ssr:stedsnr" v="661515" />
	</node>
	<node lat="62.32744722299635" lon="11.563211104178928" id="-23641">
		<tag k="name" v="Hølbekkmyra" />
		<tag k="natural" v="wetland" />
		<tag k="ssr:stedsnr" v="661269" />
	</node>
	<node lat="62.50146944120928" lon="11.287433334035699" id="-23642">
		<tag k="name" v="Stormyra" />
		<tag k="natural" v="wetland" />
		<tag k="ssr:stedsnr" v="661346" />
	</node>
	<node lat="62.543369442361026" lon="11.008469446540321" id="-23644">
		<tag k="name" v="Midtengfloen" />
		<tag k="natural" v="wetland" />
		<tag k="ssr:stedsnr" v="661566" />
	</node>
	<node lat="62.51953055190137" lon="11.243874994442441" id="-23652">
		<tag k="name" v="Blæstermyra" />
		<tag k="natural" v="wetland" />
		<tag k="ssr:stedsnr" v="661714" />
	</node>
	<node lat="62.42416944681926" lon="11.43775555878614" id="-23657">
		<tag k="landuse" v="meadow" />
		<tag k="name" v="Fyrenget" />
		<tag k="ssr:stedsnr" v="661818" />
	</node>
	<node lat="62.58731944137317" lon="11.0517055466241" id="-23659">
		<tag k="landuse" v="meadow" />
		<tag k="name" v="Eggenget" />
		<tag k="ssr:stedsnr" v="663376" />
	</node>
	<node lat="62.319694447826706" lon="11.753913880356327" id="-23660">
		<tag k="name" v="Brenna" />
		<tag k="place" v="locality" />
		<tag k="ssr:stedsnr" v="721182" />
	</node>
	<node lat="62.146330555965875" lon="11.826352777457593" id="-23661">
		<tag k="name" v="Kråkholmslåtten" />
		<tag k="natural" v="wetland" />
		<tag k="ssr:stedsnr" v="721189" />
	</node>
	<node lat="62.421266663847476" lon="11.153797221329302" id="-23663">
		<tag k="name" v="Vintervegmyra" />
		<tag k="natural" v="wetland" />
		<tag k="ssr:stedsnr" v="721497" />
	</node>
	<node lat="62.23721944843202" lon="11.782391672752006" id="-23666">
		<tag k="name" v="Stormyra" />
		<tag k="natural" v="wetland" />
		<tag k="ssr:stedsnr" v="722044" />
	</node>
	<node lat="62.29914166341716" lon="11.684125006799036" id="-23674">
		<tag k="name" v="Gammelsætermyra" />
		<tag k="natural" v="wetland" />
		<tag k="ssr:stedsnr" v="722156" />
	</node>
	<node lat="62.29670555180847" lon="11.754705560024735" id="-23678">
		<tag k="name" v="Klemetifloen" />
		<tag k="natural" v="wetland" />
		<tag k="ssr:stedsnr" v="722255" />
	</node>
	<node lat="62.33767222341401" lon="11.60873610619932" id="-23681">
		<tag k="name" v="Buenget" />
		<tag k="place" v="locality" />
		<tag k="ssr:stedsnr" v="722310" />
	</node>
	<node lat="62.32018333422598" lon="11.594758336147686" id="-23684">
		<tag k="name" v="Langkåsan" />
		<tag k="place" v="locality" />
		<tag k="ssr:stedsnr" v="722349" />
	</node>
	<node lat="62.313452774762155" lon="11.592094445985127" id="-23685">
		<tag k="name" v="Nørdalskjerren" />
		<tag k="place" v="locality" />
		<tag k="ssr:stedsnr" v="722353" />
	</node>
	<node lat="62.49016110997012" lon="11.068591669942446" id="-23694">
		<tag k="historic" v="shieling" />
		<tag k="name" v="Lilletrøvollen" />
		<tag k="place" v="locality" />
		<tag k="ssr:stedsnr" v="722714" />
	</node>
	<node lat="62.51746666357824" lon="11.048505548807524" id="-23702">
		<tag k="name" v="Langsåryan" />
		<tag k="natural" v="wetland" />
		<tag k="ssr:stedsnr" v="722724" />
	</node>
	<node lat="62.44169166478805" lon="11.43145554676588" id="-23703">
		<tag k="name" v="Hestrøsta" />
		<tag k="place" v="locality" />
		<tag k="ssr:stedsnr" v="722742" />
	</node>
	<node lat="62.45719722595675" lon="11.362338896728362" id="-23705">
		<tag k="name" v="Krontallmyra" />
		<tag k="natural" v="wetland" />
		<tag k="ssr:stedsnr" v="722746" />
	</node>
	<node lat="62.47353611270613" lon="11.346538883424461" id="-23706">
		<tag k="name" v="Stenkåsa" />
		<tag k="place" v="locality" />
		<tag k="ssr:stedsnr" v="722751" />
	</node>
	<node lat="62.471030554988936" lon="11.370583333259725" id="-23707">
		<tag k="name" v="Småvollan" />
		<tag k="place" v="locality" />
		<tag k="ssr:stedsnr" v="722756" />
	</node>
	<node lat="62.630316662831845" lon="10.868802785518332" id="-23734">
		<tag k="name" v="Mosengfloen" />
		<tag k="natural" v="wetland" />
		<tag k="ssr:stedsnr" v="740187" />
	</node>
	<node lat="62.215397225022265" lon="11.832902772241498" id="-23747">
		<tag k="name" v="Summundsfloen" />
		<tag k="natural" v="wetland" />
		<tag k="ssr:stedsnr" v="748449" />
	</node>
	<node lat="62.27237499777445" lon="11.712138880469901" id="-23751">
		<tag k="name" v="Røstfloen" />
		<tag k="natural" v="wetland" />
		<tag k="ssr:stedsnr" v="781227" />
	</node>
	<node lat="62.53040555240471" lon="11.08114167295281" id="-23754">
		<tag k="name" v="Rensmyra" />
		<tag k="natural" v="wetland" />
		<tag k="ssr:stedsnr" v="782575" />
	</node>
	<node lat="62.49850277573357" lon="11.022919453576138" id="-23756">
		<tag k="historic" v="shieling" />
		<tag k="name" v="Trøvollen" />
		<tag k="place" v="locality" />
		<tag k="ssr:stedsnr" v="782033" />
	</node>
	<node lat="62.558172220611326" lon="10.93257499186896" id="-23759">
		<tag k="name" v="Trevlingsmyra" />
		<tag k="natural" v="wetland" />
		<tag k="ssr:stedsnr" v="782389" />
	</node>
	<node lat="62.346066669331265" lon="11.479158328869401" id="-23761">
		<tag k="name" v="Engåbakken" />
		<tag k="place" v="locality" />
		<tag k="ssr:stedsnr" v="782446" />
	</node>
	<node lat="62.59029722558106" lon="11.098038888730045" id="-23765">
		<tag k="landuse" v="meadow" />
		<tag k="name" v="Tjønnenga" />
		<tag k="ssr:stedsnr" v="782893" />
	</node>
	<node lat="62.333694446390105" lon="11.567399999132286" id="-23773">
		<tag k="name" v="Myra" />
		<tag k="natural" v="wetland" />
		<tag k="ssr:stedsnr" v="783238" />
	</node>
	<node lat="62.3257055519836" lon="11.56953055221838" id="-23774">
		<tag k="name" v="Langmyra" />
		<tag k="natural" v="wetland" />
		<tag k="ssr:stedsnr" v="783252" />
	</node>
	<node lat="62.477111112419244" lon="11.110458329504747" id="-23782">
		<tag k="name" v="Nystukåsa" />
		<tag k="place" v="locality" />
		<tag k="ssr:stedsnr" v="783335" />
	</node>
	<node lat="62.31649444063469" lon="11.679241665235516" id="-23783">
		<tag k="name" v="Laumyrhølet" />
		<tag k="natural" v="wetland" />
		<tag k="ssr:stedsnr" v="783337" />
	</node>
	<node lat="62.480424998060045" lon="11.134972229138409" id="-23784">
		<tag k="name" v="Litjkåsa" />
		<tag k="place" v="locality" />
		<tag k="ssr:stedsnr" v="783339" />
	</node>
	<node lat="62.45974166811091" lon="11.152861106646839" id="-23786">
		<tag k="name" v="Langmyra" />
		<tag k="natural" v="wetland" />
		<tag k="ssr:stedsnr" v="783346" />
	</node>
	<node lat="62.57108889085174" lon="10.953205560219008" id="-23790">
		<tag k="landuse" v="meadow" />
		<tag k="name" v="Rygjeltenget" />
		<tag k="ssr:stedsnr" v="783293" />
	</node>
	<node lat="62.56838055221052" lon="10.996416670452417" id="-23793">
		<tag k="landuse" v="meadow" />
		<tag k="name" v="Småenga" />
		<tag k="ssr:stedsnr" v="783432" />
	</node>
	<node lat="62.4638333294194" lon="11.295405561667982" id="-23805">
		<tag k="name" v="Svartbekken" />
		<tag k="natural" v="wetland" />
		<tag k="ssr:stedsnr" v="783496" />
	</node>
	<node lat="62.23955278196007" lon="11.760794436747" id="-23850">
		<tag k="name" v="Gammel Sørli" />
		<tag k="place" v="locality" />
		<tag k="ssr:stedsnr" v="842069" />
	</node>
	<node lat="62.34509999925525" lon="11.720402780487198" id="-23853">
		<tag k="name" v="Stormyra" />
		<tag k="natural" v="wetland" />
		<tag k="ssr:stedsnr" v="843217" />
	</node>
	<node lat="62.56330277957421" lon="11.079924999791926" id="-23856">
		<tag k="landuse" v="meadow" />
		<tag k="name" v="Litjenget" />
		<tag k="ssr:stedsnr" v="843454" />
	</node>
	<node lat="62.34483888768482" lon="11.462119453693527" id="-23858">
		<tag k="name" v="Storfloen" />
		<tag k="natural" v="wetland" />
		<tag k="ssr:stedsnr" v="843483" />
	</node>
	<node lat="62.5370472246599" lon="11.07368333128759" id="-23864">
		<tag k="name" v="Sandenga" />
		<tag k="place" v="locality" />
		<tag k="ssr:stedsnr" v="843601" />
	</node>
	<node lat="62.55153888483949" lon="10.916705553860194" id="-23865">
		<tag k="historic" v="shieling" />
		<tag k="name" v="Bortistuvollen" />
		<tag k="place" v="locality" />
		<tag k="ssr:stedsnr" v="843419" />
	</node>
	<node lat="62.56291110954759" lon="10.970719436855747" id="-23866">
		<tag k="name" v="Nilsjofloen" />
		<tag k="natural" v="wetland" />
		<tag k="ssr:stedsnr" v="843546" />
	</node>
	<node lat="62.55985832900066" lon="10.967544436972519" id="-23867">
		<tag k="landuse" v="meadow" />
		<tag k="name" v="Nilsjoenget" />
		<tag k="ssr:stedsnr" v="843547" />
	</node>
	<node lat="62.553372223106145" lon="11.017758338811808" id="-23868">
		<tag k="name" v="Bakosgjeltfloen" />
		<tag k="natural" v="wetland" />
		<tag k="ssr:stedsnr" v="843555" />
	</node>
	<node lat="62.602419441397785" lon="11.117777783918962" id="-23871">
		<tag k="historic" v="shieling" />
		<tag k="name" v="Øver Oustuvollen" />
		<tag k="place" v="locality" />
		<tag k="ssr:stedsnr" v="843920" />
	</node>
	<node lat="62.23661389236595" lon="11.76500000658441" id="-23872">
		<tag k="name" v="Slettmyra" />
		<tag k="natural" v="wetland" />
		<tag k="ssr:stedsnr" v="844039" />
	</node>
	<node lat="62.29963889141136" lon="11.687669451602797" id="-23877">
		<tag k="name" v="Gjeltkåsa" />
		<tag k="place" v="locality" />
		<tag k="ssr:stedsnr" v="844144" />
	</node>
	<node lat="62.268424995907736" lon="11.76866111682291" id="-23884">
		<tag k="name" v="Grønnsundet" />
		<tag k="natural" v="wetland" />
		<tag k="ssr:stedsnr" v="844021" />
	</node>
	<node lat="62.23249444875465" lon="11.810805555692156" id="-23885">
		<tag k="name" v="Flyet" />
		<tag k="natural" v="wetland" />
		<tag k="ssr:stedsnr" v="844099" />
	</node>
	<node lat="62.19821944235424" lon="11.80571111079222" id="-23887">
		<tag k="name" v="Storhåfloen" />
		<tag k="natural" v="wetland" />
		<tag k="ssr:stedsnr" v="844119" />
	</node>
	<node lat="62.4736527787725" lon="11.133830561078662" id="-23893">
		<tag k="historic" v="shieling" />
		<tag k="name" v="Storbekkvollen" />
		<tag k="place" v="locality" />
		<tag k="ssr:stedsnr" v="844334" />
	</node>
	<node lat="62.459897218540526" lon="11.16635000781141" id="-23894">
		<tag k="name" v="Brenna" />
		<tag k="place" v="locality" />
		<tag k="ssr:stedsnr" v="844346" />
	</node>
	<node lat="62.4621555597226" lon="11.161577780227358" id="-23895">
		<tag k="historic" v="shieling" />
		<tag k="name" v="Midtvollen" />
		<tag k="place" v="locality" />
		<tag k="ssr:stedsnr" v="844349" />
	</node>
	<node lat="62.482033334341914" lon="11.30713888218564" id="-23896">
		<tag k="name" v="Torgersenget" />
		<tag k="place" v="locality" />
		<tag k="ssr:stedsnr" v="844352" />
	</node>
	<node lat="62.58417499793733" lon="10.999463884798306" id="-23897">
		<tag k="name" v="Fjellkåsa" />
		<tag k="natural" v="wetland" />
		<tag k="ssr:stedsnr" v="844454" />
	</node>
	<node lat="62.42449444189524" lon="11.426963888784508" id="-23899">
		<tag k="landuse" v="meadow" />
		<tag k="name" v="Tuvrya" />
		<tag k="ssr:stedsnr" v="844820" />
	</node>
	<node lat="62.41565278221863" lon="11.446802777091959" id="-23900">
		<tag k="name" v="Litleåsen" />
		<tag k="place" v="locality" />
		<tag k="ssr:stedsnr" v="844822" />
	</node>
	<node lat="62.58014166277482" lon="11.080963893503577" id="-23908">
		<tag k="landuse" v="meadow" />
		<tag k="name" v="Vangsgravenget" />
		<tag k="ssr:stedsnr" v="846372" />
	</node>
	<node lat="62.56570555820064" lon="10.93579722432393" id="-23948">
		<tag k="landuse" v="meadow" />
		<tag k="name" v="Bakkenga" />
		<tag k="ssr:stedsnr" v="964413" />
	</node>
	<node lat="62.42486666465472" lon="11.161030552431773" id="-23954">
		<tag k="name" v="Kjurruveden" />
=======
	<node id="-358842" lat="62.5262583375" lon="11.0454944477">
		<tag k="name" v="Vonmyra" />
		<tag k="natural" v="wetland" />
		<tag k="ssr:stedsnr" v="175610" />
	</node>
	<node id="-358840" lat="62.5643638859" lon="11.0178861017">
		<tag k="landuse" v="meadow" />
		<tag k="name" v="Vangsgjeltenget" />
		<tag k="ssr:stedsnr" v="175530" />
	</node>
	<node id="-358834" lat="62.5517277819" lon="10.9352888811">
		<tag k="historic" v="shieling" />
		<tag k="name" v="Bergvollen" />
		<tag k="place" v="locality" />
		<tag k="ssr:stedsnr" v="175429" />
	</node>
	<node id="-358833" lat="62.5507666704" lon="10.9227083245">
		<tag k="historic" v="shieling" />
		<tag k="name" v="Gammelvollen" />
		<tag k="place" v="locality" />
		<tag k="ssr:stedsnr" v="175423" />
	</node>
	<node id="-358832" lat="62.5484583347" lon="10.9063861166">
		<tag k="name" v="Bekkfettan" />
		<tag k="place" v="locality" />
		<tag k="ssr:stedsnr" v="175416" />
	</node>
	<node id="-358824" lat="62.340988893" lon="11.7157305468">
		<tag k="landuse" v="meadow" />
		<tag k="name" v="Sumundsenget" />
		<tag k="ssr:stedsnr" v="175179" />
	</node>
	<node id="-358819" lat="62.5724500044" lon="11.117691672">
		<tag k="historic" v="shieling" />
		<tag k="name" v="Oustuvollen" />
		<tag k="place" v="locality" />
		<tag k="ssr:stedsnr" v="175050" />
	</node>
	<node id="-358814" lat="62.3577916675" lon="11.489419454">
		<tag k="name" v="Harrbekkenget" />
		<tag k="place" v="locality" />
		<tag k="ssr:stedsnr" v="148221" />
	</node>
	<node id="-358809" lat="62.4912972248" lon="11.3531527865">
		<tag k="name" v="Herdersmyran" />
		<tag k="natural" v="wetland" />
		<tag k="ssr:stedsnr" v="133291" />
	</node>
	<node id="-358771" lat="62.5790638871" lon="11.0594527778">
		<tag k="landuse" v="quarry" />
		<tag k="name" v="Stenbruddet" />
		<tag k="ssr:stedsnr" v="117413" />
	</node>
	<node id="-358770" lat="62.5801388886" lon="11.075127781">
		<tag k="landuse" v="meadow" />
		<tag k="name" v="Trøenget" />
		<tag k="ssr:stedsnr" v="117412" />
	</node>
	<node id="-358765" lat="62.6074111156" lon="11.1167944453">
		<tag k="name" v="Klokkarvollen" />
		<tag k="place" v="locality" />
		<tag k="ssr:stedsnr" v="115895" />
	</node>
	<node id="-358751" lat="62.5482527751" lon="11.0706861099">
		<tag k="name" v="Håkonskroken" />
		<tag k="place" v="locality" />
		<tag k="ssr:stedsnr" v="115501" />
	</node>
	<node id="-358750" lat="62.5472527802" lon="11.0684611029">
		<tag k="name" v="Åkerbakkroken" />
		<tag k="place" v="locality" />
		<tag k="ssr:stedsnr" v="115500" />
	</node>
	<node id="-358747" lat="62.4713194464" lon="11.1192416622">
		<tag k="name" v="Hølkåsa" />
		<tag k="place" v="locality" />
		<tag k="ssr:stedsnr" v="115363" />
	</node>
	<node id="-358744" lat="62.3240638877" lon="11.5911861145">
		<tag k="name" v="Jervstenen" />
		<tag k="natural" v="stone" />
		<tag k="ssr:stedsnr" v="115343" />
	</node>
	<node id="-358742" lat="62.5335833324" lon="11.2509027695">
		<tag k="landuse" v="quarry" />
		<tag k="name" v="Stenbrotta" />
		<tag k="ssr:stedsnr" v="115467" />
	</node>
	<node id="-358741" lat="62.4441499959" lon="11.1605777724">
		<tag k="name" v="Mariabrandet" />
		<tag k="place" v="locality" />
		<tag k="ssr:stedsnr" v="115452" />
	</node>
	<node id="-358736" lat="62.331875001" lon="11.5730416717">
		<tag k="name" v="Hansrommet" />
		<tag k="place" v="locality" />
		<tag k="ssr:stedsnr" v="115283" />
	</node>
	<node id="-358735" lat="62.3344000044" lon="11.5723611075">
		<tag k="name" v="Åkerbakken" />
		<tag k="place" v="locality" />
		<tag k="ssr:stedsnr" v="115280" />
	</node>
	<node id="-358730" lat="62.5768222199" lon="11.1737583319">
		<tag k="name" v="Bakkmyra" />
		<tag k="natural" v="wetland" />
		<tag k="ssr:stedsnr" v="115090" />
	</node>
	<node id="-358729" lat="62.5841333373" lon="11.1244055552">
		<tag k="landuse" v="meadow" />
		<tag k="name" v="Håkensenget" />
		<tag k="ssr:stedsnr" v="115084" />
	</node>
	<node id="-358727" lat="62.5691527753" lon="11.1226861155">
		<tag k="historic" v="shieling" />
		<tag k="name" v="Nystedvollen" />
		<tag k="place" v="locality" />
		<tag k="ssr:stedsnr" v="115076" />
	</node>
	<node id="-358724" lat="62.5663277793" lon="11.1500666691">
		<tag k="name" v="Sigridgjeltmyran" />
		<tag k="natural" v="wetland" />
		<tag k="ssr:stedsnr" v="115061" />
	</node>
	<node id="-358720" lat="62.4669833349" lon="11.100052773">
		<tag k="name" v="Stormyra" />
		<tag k="natural" v="wetland" />
		<tag k="ssr:stedsnr" v="115325" />
	</node>
	<node id="-358709" lat="62.2703666678" lon="11.7742166634">
		<tag k="name" v="Svartmyra" />
		<tag k="natural" v="wetland" />
		<tag k="ssr:stedsnr" v="115019" />
	</node>
	<node id="-358707" lat="62.4658666705" lon="11.0816055585">
		<tag k="historic" v="shieling" />
		<tag k="name" v="Malimovollen" />
		<tag k="place" v="locality" />
		<tag k="ssr:stedsnr" v="115012" />
	</node>
	<node id="-358690" lat="62.295052778" lon="11.7741999976">
		<tag k="name" v="Buhøgdfloen" />
		<tag k="natural" v="wetland" />
		<tag k="ssr:stedsnr" v="72565" />
	</node>
	<node id="-358676" lat="62.6063388917" lon="10.7704861117">
		<tag k="name" v="Gruvslåttan" />
		<tag k="place" v="locality" />
		<tag k="ssr:stedsnr" v="72184" />
	</node>
	<node id="-358659" lat="62.5840944434" lon="11.0825694446">
		<tag k="landuse" v="meadow" />
		<tag k="name" v="Utstumoenget" />
		<tag k="ssr:stedsnr" v="57381" />
	</node>
	<node id="-358658" lat="62.5844777815" lon="11.0687388911">
		<tag k="landuse" v="meadow" />
		<tag k="name" v="Øverhaugsenget" />
		<tag k="ssr:stedsnr" v="57379" />
	</node>
	<node id="-358657" lat="62.6064722236" lon="11.1547944468">
		<tag k="name" v="Haugsfloen" />
		<tag k="natural" v="wetland" />
		<tag k="ssr:stedsnr" v="55952" />
	</node>
	<node id="-358654" lat="62.3822416688" lon="11.4716055466">
		<tag k="landuse" v="meadow" />
		<tag k="name" v="Tuftlaua" />
		<tag k="ssr:stedsnr" v="55935" />
	</node>
	<node id="-358652" lat="62.1827694469" lon="11.7569055569">
		<tag k="name" v="Søndre Kvennslåtten" />
		<tag k="place" v="locality" />
		<tag k="ssr:stedsnr" v="55914" />
	</node>
	<node id="-358650" lat="62.4174916661" lon="11.4278638976">
		<tag k="landuse" v="meadow" />
		<tag k="name" v="Korsenget" />
		<tag k="ssr:stedsnr" v="55812" />
	</node>
	<node id="-358634" lat="62.3366944463" lon="11.5594944448">
		<tag k="name" v="Langmyra" />
		<tag k="natural" v="wetland" />
		<tag k="ssr:stedsnr" v="55250" />
	</node>
	<node id="-358632" lat="62.4724555534" lon="11.107002776">
		<tag k="name" v="Stormyra" />
		<tag k="natural" v="wetland" />
		<tag k="ssr:stedsnr" v="55339" />
	</node>
	<node id="-358631" lat="62.4691916681" lon="11.1254527702">
		<tag k="historic" v="shieling" />
		<tag k="name" v="Nyvollen" />
		<tag k="place" v="locality" />
		<tag k="ssr:stedsnr" v="55336" />
	</node>
	<node id="-358630" lat="62.3116444451" lon="11.5953777769">
		<tag k="name" v="Nørdalsfloen" />
		<tag k="natural" v="wetland" />
		<tag k="ssr:stedsnr" v="55331" />
	</node>
	<node id="-358628" lat="62.3462611088" lon="11.6157083335">
		<tag k="name" v="Fjelløenget" />
		<tag k="place" v="locality" />
		<tag k="ssr:stedsnr" v="55296" />
	</node>
	<node id="-358627" lat="62.3387416626" lon="11.6140944433">
		<tag k="name" v="Skreenget" />
		<tag k="place" v="locality" />
		<tag k="ssr:stedsnr" v="55295" />
	</node>
	<node id="-358625" lat="62.3165166676" lon="11.5648944407">
		<tag k="name" v="Lørjemyra" />
		<tag k="natural" v="wetland" />
		<tag k="ssr:stedsnr" v="55278" />
	</node>
	<node id="-358613" lat="62.2171611147" lon="11.7741722254">
		<tag k="historic" v="shieling" />
		<tag k="name" v="Søndre Krokan" />
		<tag k="place" v="locality" />
		<tag k="ssr:stedsnr" v="55120" />
	</node>
	<node id="-358612" lat="62.1970249968" lon="11.7907999973">
		<tag k="name" v="Nybrenna" />
		<tag k="place" v="locality" />
		<tag k="ssr:stedsnr" v="55107" />
	</node>
	<node id="-358606" lat="62.6183500027" lon="11.1318027776">
		<tag k="historic" v="shieling" />
		<tag k="name" v="Lillebakkvollen" />
		<tag k="place" v="locality" />
		<tag k="ssr:stedsnr" v="54828" />
	</node>
	<node id="-358605" lat="62.5358499967" lon="11.0818111079">
		<tag k="name" v="Løvmyra" />
		<tag k="natural" v="wetland" />
		<tag k="ssr:stedsnr" v="54595" />
	</node>
	<node id="-358600" lat="62.5121694452" lon="10.9720055617">
		<tag k="name" v="Øsmyra" />
		<tag k="natural" v="wetland" />
		<tag k="ssr:stedsnr" v="54631" />
	</node>
	<node id="-358598" lat="62.554252779" lon="10.9318083418">
		<tag k="name" v="Lensmannsmyra" />
		<tag k="natural" v="wetland" />
		<tag k="ssr:stedsnr" v="54440" />
	</node>
	<node id="-358590" lat="62.3082000037" lon="11.7550611178">
		<tag k="name" v="Hyttstenen" />
		<tag k="natural" v="stone" />
		<tag k="ssr:stedsnr" v="53211" />
	</node>
	<node id="-358588" lat="62.2333833376" lon="11.7359027865">
		<tag k="name" v="Storlauslåtten" />
		<tag k="place" v="locality" />
		<tag k="ssr:stedsnr" v="53133" />
	</node>
	<node id="-357407" lat="62.5365999992" lon="11.1978777688">
		<tag k="name" v="Storfloen" />
		<tag k="natural" v="wetland" />
		<tag k="ssr:stedsnr" v="236723" />
	</node>
	<node id="-358584" lat="62.2707861119" lon="11.7812333245">
		<tag k="name" v="Gørfloan" />
		<tag k="natural" v="wetland" />
		<tag k="ssr:stedsnr" v="12667" />
	</node>
	<node id="-358566" lat="62.221211111" lon="11.8127722318">
		<tag k="alt_name" v="Strømsfloen" />
		<tag k="name" v="Straumsfloen" />
		<tag k="natural" v="wetland" />
		<tag k="ssr:stedsnr" v="11297" />
	</node>
	<node id="-357403" lat="62.5555499988" lon="11.0267805611">
		<tag k="name" v="Nygardsfloen" />
		<tag k="natural" v="wetland" />
		<tag k="ssr:stedsnr" v="236520" />
	</node>
	<node id="-358538" lat="62.4705500003" lon="11.1686222284">
		<tag k="name" v="Sundkåsa" />
		<tag k="place" v="locality" />
		<tag k="ssr:stedsnr" v="965360" />
	</node>
	<node id="-358537" lat="62.3102638928" lon="11.6095500011">
		<tag k="name" v="Sæterbekkfloene" />
		<tag k="natural" v="wetland" />
		<tag k="ssr:stedsnr" v="965357" />
	</node>
	<node id="-358535" lat="62.5158500037" lon="11.1750277795">
		<tag k="name" v="Langkåsa" />
		<tag k="place" v="locality" />
		<tag k="ssr:stedsnr" v="965165" />
	</node>
	<node id="-358534" lat="62.1982638877" lon="11.8145694479">
		<tag k="name" v="Langlete" />
		<tag k="natural" v="wetland" />
		<tag k="ssr:stedsnr" v="965106" />
	</node>
	<node id="-358533" lat="62.5609333327" lon="11.0941472175">
		<tag k="name" v="Myran" />
		<tag k="natural" v="wetland" />
		<tag k="ssr:stedsnr" v="965069" />
	</node>
	<node id="-358532" lat="62.2602111104" lon="11.7388638797">
		<tag k="name" v="Langmyra" />
		<tag k="natural" v="wetland" />
		<tag k="ssr:stedsnr" v="965068" />
	</node>
	<node id="-358523" lat="62.5572416631" lon="11.0449361109">
		<tag k="name" v="Skarvenget" />
		<tag k="place" v="locality" />
		<tag k="ssr:stedsnr" v="964519" />
	</node>
	<node id="-358522" lat="62.5657055582" lon="10.9357972243">
		<tag k="landuse" v="meadow" />
		<tag k="name" v="Bakkenga" />
		<tag k="ssr:stedsnr" v="964413" />
	</node>
	<node id="-358518" lat="62.3181722254" lon="11.7166166632">
		<tag k="name" v="Hestgjerdinga" />
		<tag k="place" v="locality" />
		<tag k="ssr:stedsnr" v="963214" />
	</node>
	<node id="-358517" lat="62.3368444462" lon="11.7091277813">
		<tag k="name" v="Engfloen" />
		<tag k="natural" v="wetland" />
		<tag k="ssr:stedsnr" v="963205" />
	</node>
	<node id="-358516" lat="62.2119277766" lon="11.743449997">
		<tag k="name" v="Storrya" />
		<tag k="natural" v="wetland" />
		<tag k="ssr:stedsnr" v="963111" />
	</node>
	<node id="-358508" lat="62.5863916626" lon="11.0568694435">
		<tag k="landuse" v="meadow" />
		<tag k="name" v="Myrtrøenget" />
		<tag k="ssr:stedsnr" v="906405" />
	</node>
	<node id="-358503" lat="62.5220361141" lon="11.2307750096">
		<tag k="name" v="Stormyra" />
		<tag k="natural" v="wetland" />
		<tag k="ssr:stedsnr" v="904717" />
	</node>
	<node id="-358499" lat="62.431261114" lon="11.4428055596">
		<tag k="landuse" v="meadow" />
		<tag k="name" v="Nyvollan" />
		<tag k="ssr:stedsnr" v="904815" />
	</node>
	<node id="-358498" lat="62.4926416673" lon="11.0595444539">
		<tag k="name" v="Grubbfloen" />
		<tag k="natural" v="wetland" />
		<tag k="ssr:stedsnr" v="904668" />
	</node>
	<node id="-358494" lat="62.5777916664" lon="11.0235249942">
		<tag k="landuse" v="meadow" />
		<tag k="name" v="Stakkarsenget" />
		<tag k="ssr:stedsnr" v="904418" />
	</node>
	<node id="-358486" lat="62.5088388916" lon="11.2888166589">
		<tag k="name" v="Granmyra" />
		<tag k="natural" v="wetland" />
		<tag k="ssr:stedsnr" v="904359" />
	</node>
	<node id="-358474" lat="62.4742722264" lon="11.0787611037">
		<tag k="name" v="Hørtdalsmyra" />
		<tag k="natural" v="wetland" />
		<tag k="ssr:stedsnr" v="904012" />
	</node>
	<node id="-358473" lat="62.4645805572" lon="11.0831611068">
		<tag k="historic" v="shieling" />
		<tag k="name" v="Anisvollen" />
>>>>>>> e1d4bc35ff8a6074a6f2e91616a996b547c36f15
		<tag k="place" v="locality" />
		<tag k="ssr:stedsnr" v="904007" />
	</node>
<<<<<<< HEAD
	<node lat="62.55724166309407" lon="11.044936110894124" id="-23955">
		<tag k="name" v="Skarvenget" />
		<tag k="place" v="locality" />
		<tag k="ssr:stedsnr" v="964519" />
	</node>
	<node lat="62.55085278230593" lon="11.078452772027923" id="-23959">
		<tag k="name" v="Hångårya" />
=======
	<node id="-358471" lat="62.1827388888" lon="11.8113777735">
		<tag k="name" v="Nordre Nybulandet" />
>>>>>>> e1d4bc35ff8a6074a6f2e91616a996b547c36f15
		<tag k="place" v="locality" />
		<tag k="ssr:stedsnr" v="904109" />
	</node>
<<<<<<< HEAD
	<node lat="62.260211110387615" lon="11.738863879667557" id="-23969">
		<tag k="name" v="Langmyra" />
		<tag k="natural" v="wetland" />
		<tag k="ssr:stedsnr" v="965068" />
	</node>
	<node lat="62.56093333267773" lon="11.09414721750002" id="-23970">
		<tag k="name" v="Myran" />
		<tag k="natural" v="wetland" />
		<tag k="ssr:stedsnr" v="965069" />
	</node>
	<node lat="62.22409444817667" lon="11.784027774417503" id="-23971">
		<tag k="name" v="Rismyra" />
		<tag k="natural" v="wetland" />
		<tag k="ssr:stedsnr" v="965082" />
	</node>
	<node lat="62.51585000373025" lon="11.175027779536453" id="-23973">
		<tag k="name" v="Langkåsa" />
		<tag k="place" v="locality" />
		<tag k="ssr:stedsnr" v="965165" />
	</node>
	<node lat="62.31026389275411" lon="11.609550001088088" id="-23977">
		<tag k="name" v="Sæterbekkfloene" />
		<tag k="natural" v="wetland" />
		<tag k="ssr:stedsnr" v="965357" />
	</node>
	<node lat="62.470550000259855" lon="11.168622228351229" id="-23978">
		<tag k="name" v="Sundkåsa" />
		<tag k="place" v="locality" />
		<tag k="ssr:stedsnr" v="965360" />
	</node>
	<node lat="62.43963333163655" lon="11.413841672589378" id="-23986">
		<tag k="name" v="Stortrøa" />
		<tag k="place" v="locality" />
		<tag k="ssr:stedsnr" v="965719" />
	</node>
	<node lat="62.513619444605276" lon="11.250819435043336" id="-23988">
		<tag k="name" v="Leimyra" />
		<tag k="natural" v="wetland" />
		<tag k="ssr:stedsnr" v="965731" />
	</node>
	<node lat="62.47506110920682" lon="11.368847216895972" id="-23989">
		<tag k="name" v="Storsletta" />
		<tag k="place" v="locality" />
		<tag k="ssr:stedsnr" v="965732" />
=======
	<node id="-358470" lat="62.17843333" lon="11.815755553">
		<tag k="name" v="Søndre Nybulandet" />
		<tag k="place" v="locality" />
		<tag k="ssr:stedsnr" v="904108" />
	</node>
	<node id="-358467" lat="62.2689027767" lon="11.7121611125">
		<tag k="name" v="Bjønnan" />
		<tag k="natural" v="stone" />
		<tag k="ssr:stedsnr" v="903206" />
	</node>
	<node id="-357387" lat="62.5782694401" lon="11.1001444485">
		<tag k="historic" v="shieling" />
		<tag k="name" v="Rygjeltvollen" />
		<tag k="place" v="locality" />
		<tag k="ssr:stedsnr" v="236070" />
	</node>
	<node id="-358447" lat="62.2031361095" lon="11.8256916674">
		<tag k="alt_name" v="Rendalsfloen" />
		<tag k="name" v="Kalfloen" />
		<tag k="natural" v="wetland" />
		<tag k="ssr:stedsnr" v="860408" />
	</node>
	<node id="-358439" lat="62.4156527822" lon="11.4468027771">
		<tag k="name" v="Litleåsen" />
		<tag k="place" v="locality" />
		<tag k="ssr:stedsnr" v="844822" />
	</node>
	<node id="-358438" lat="62.4244944419" lon="11.4269638888">
		<tag k="landuse" v="meadow" />
		<tag k="name" v="Tuvrya" />
		<tag k="ssr:stedsnr" v="844820" />
	</node>
	<node id="-358432" lat="62.3356361076" lon="11.5944722222">
		<tag k="name" v="Stærra" />
		<tag k="natural" v="wetland" />
		<tag k="ssr:stedsnr" v="844304" />
	</node>
	<node id="-358431" lat="62.5373250035" lon="11.0403305535">
		<tag k="name" v="Langmyrdiket" />
		<tag k="natural" v="wetland" />
		<tag k="ssr:stedsnr" v="843624" />
	</node>
	<node id="-358430" lat="62.5515388848" lon="10.9167055539">
		<tag k="historic" v="shieling" />
		<tag k="name" v="Bortistuvollen" />
		<tag k="place" v="locality" />
		<tag k="ssr:stedsnr" v="843419" />
	</node>
	<node id="-358429" lat="62.3450999993" lon="11.7204027805">
		<tag k="name" v="Stormyra" />
		<tag k="natural" v="wetland" />
		<tag k="ssr:stedsnr" v="843217" />
	</node>
	<node id="-357378" lat="62.205211112" lon="11.7390333374">
		<tag k="name" v="Gammelvollan" />
		<tag k="place" v="locality" />
		<tag k="ssr:stedsnr" v="235129" />
>>>>>>> e1d4bc35ff8a6074a6f2e91616a996b547c36f15
	</node>
</osm>
