<?xml version="1.0" encoding="UTF-8"?>
<<<<<<< HEAD
<osm version="0.6" generator="osmapis">
	<node lat="62.489136107877975" lon="11.137580560947772" id="-21697">
		<tag k="name" v="Kvernbekktjønna" />
		<tag k="natural" v="water" />
		<tag k="ssr:stedsnr" v="11029" />
	</node>
	<node lat="62.57969166426689" lon="11.017699999092368" id="-21700">
		<tag k="name" v="Åslibekken" />
		<tag k="ssr:stedsnr" v="11128" />
		<tag k="waterway" v="stream" />
	</node>
	<node lat="62.32731111215826" lon="11.625130553196247" id="-21703">
		<tag k="name" v="Siksjøen" />
		<tag k="natural" v="water" />
		<tag k="ssr:stedsnr" v="11439" />
		<tag k="water" v="lake" />
	</node>
	<node lat="62.23219444782244" lon="11.58526943673958" id="-21707">
		<tag k="name" v="Rundtjønna" />
		<tag k="natural" v="water" />
		<tag k="ssr:stedsnr" v="11477" />
	</node>
	<node lat="62.566822224490146" lon="11.241561105843818" id="-21709">
		<tag k="name" v="Galåa" />
		<tag k="ssr:stedsnr" v="11593" />
		<tag k="waterway" v="stream" />
	</node>
	<node lat="62.64787500065322" lon="11.14730832463099" id="-21710">
		<tag k="name" v="Røbekken" />
		<tag k="ssr:stedsnr" v="12207" />
		<tag k="waterway" v="stream" />
	</node>
	<node lat="62.57170277835463" lon="11.180408332481974" id="-21723">
		<tag k="name" v="Bekketrølandet" />
		<tag k="natural" v="beach" />
		<tag k="ssr:stedsnr" v="236075" />
	</node>
	<node lat="62.56557777934399" lon="10.959697212923963" id="-21726">
		<tag k="name" v="Halterikbekken" />
		<tag k="ssr:stedsnr" v="236367" />
		<tag k="waterway" v="stream" />
	</node>
	<node lat="62.31999722209587" lon="11.676075003789384" id="-21743">
		<tag k="name" v="Laumyrbekken" />
		<tag k="ssr:stedsnr" v="237144" />
		<tag k="waterway" v="stream" />
	</node>
	<node lat="62.32710833637186" lon="11.688783328651924" id="-21759">
		<tag k="name" v="Laumyrloken" />
		<tag k="natural" v="water" />
		<tag k="ssr:stedsnr" v="237359" />
	</node>
	<node lat="62.489288891807114" lon="11.069183333148484" id="-21766">
		<tag k="name" v="Søndre Tjønna" />
		<tag k="natural" v="water" />
		<tag k="ssr:stedsnr" v="237717" />
	</node>
	<node lat="62.383994440437554" lon="11.45065555018504" id="-21773">
		<tag k="name" v="Saksbekken" />
		<tag k="ssr:stedsnr" v="237813" />
		<tag k="waterway" v="stream" />
	</node>
	<node lat="62.39197777872638" lon="11.466588890101631" id="-21776">
		<tag k="name" v="Musholbekken" />
		<tag k="ssr:stedsnr" v="237938" />
		<tag k="waterway" v="stream" />
	</node>
	<node lat="62.18149999603893" lon="11.74929722119745" id="-21777">
		<tag k="name" v="Fallet" />
		<tag k="natural" v="waterfall" />
		<tag k="ssr:stedsnr" v="237913" />
	</node>
	<node lat="62.515147219293944" lon="11.113961119078093" id="-21799">
		<tag k="name" v="Kvilta" />
		<tag k="ssr:stedsnr" v="55182" />
		<tag k="waterway" v="stream" />
	</node>
	<node lat="62.46504444669779" lon="11.117024991369409" id="-21809">
		<tag k="name" v="Heggloken" />
		<tag k="natural" v="water" />
		<tag k="ssr:stedsnr" v="55298" />
		<tag k="water" v="pond" />
	</node>
	<node lat="62.464386113244295" lon="11.356174993734157" id="-21814">
		<tag k="name" v="Nesstjønna" />
		<tag k="natural" v="water" />
		<tag k="ssr:stedsnr" v="55711" />
	</node>
	<node lat="62.523077779447945" lon="11.055480554943959" id="-21816">
		<tag k="name" v="Kvennbekken" />
		<tag k="ssr:stedsnr" v="55674" />
		<tag k="waterway" v="stream" />
	</node>
	<node lat="62.3701305571281" lon="11.452213894910617" id="-21817">
		<tag k="name" v="Brentmyrtjønna" />
		<tag k="natural" v="water" />
		<tag k="ssr:stedsnr" v="55805" />
	</node>
	<node lat="62.654883331160185" lon="11.122752783472745" id="-21828">
		<tag k="name" v="Bjørbekken" />
		<tag k="ssr:stedsnr" v="72217" />
		<tag k="waterway" v="stream" />
	</node>
	<node lat="62.605458330661534" lon="10.799252768852472" id="-21832">
		<tag k="name" v="Øybekken" />
		<tag k="ssr:stedsnr" v="72186" />
		<tag k="waterway" v="stream" />
	</node>
	<node lat="62.32796944809237" lon="11.730561110191756" id="-21838">
		<tag k="name" v="Søndre Småbekken" />
		<tag k="ssr:stedsnr" v="114174" />
		<tag k="waterway" v="stream" />
	</node>
	<node lat="62.326005554212934" lon="11.72775555002065" id="-21839">
		<tag k="alt_name" v="Tølløvstrømmen" />
		<tag k="name" v="Tøløvstrømmen" />
		<tag k="ssr:stedsnr" v="114179" />
		<tag k="waterway" v="rapids" />
	</node>
	<node lat="62.27952221946075" lon="11.717922216525857" id="-21840">
		<tag k="name" v="Fiskhusbekken" />
		<tag k="ssr:stedsnr" v="114208" />
		<tag k="waterway" v="stream" />
	</node>
	<node lat="62.18798333502283" lon="11.81757777743034" id="-21843">
		<tag k="name" v="Søndre Korsen" />
		<tag k="natural" v="cape" />
		<tag k="ssr:stedsnr" v="115109" />
	</node>
	<node lat="62.20631944703743" lon="11.72965555979275" id="-21845">
		<tag k="name" v="Kvennkroken" />
		<tag k="place" v="locality" />
		<tag k="ssr:stedsnr" v="115134" />
	</node>
	<node lat="62.260425003269226" lon="11.705491672102664" id="-21847">
		<tag k="name" v="Tangtjønna" />
		<tag k="natural" v="water" />
		<tag k="ssr:stedsnr" v="115008" />
	</node>
	<node lat="62.588397222204144" lon="11.094569439195281" id="-21852">
		<tag k="name" v="Langryåstjønna" />
		<tag k="natural" v="water" />
		<tag k="ssr:stedsnr" v="115083" />
	</node>
	<node lat="62.2263638867205" lon="11.79822221367757" id="-21855">
		<tag k="name" v="Stormyrbekken" />
		<tag k="ssr:stedsnr" v="115093" />
		<tag k="waterway" v="stream" />
	</node>
	<node lat="62.46553333333029" lon="11.342361104168019" id="-21866">
		<tag k="name" v="Lekstuggubekken" />
		<tag k="ssr:stedsnr" v="115707" />
		<tag k="waterway" v="stream" />
	</node>
	<node lat="62.491730559676206" lon="11.034702775527197" id="-21868">
		<tag k="name" v="Litjgodtjønna" />
		<tag k="natural" v="water" />
		<tag k="ssr:stedsnr" v="115712" />
	</node>
	<node lat="62.5165249998042" lon="11.081247222648042" id="-21874">
		<tag k="name" v="Nirsengbekken" />
		<tag k="ssr:stedsnr" v="115673" />
		<tag k="waterway" v="stream" />
	</node>
	<node lat="62.436790250850514" lon="11.329105512141906" id="-21888">
		<tag k="alt_name" v="Langtjørna" />
		<tag k="name" v="Langtjønna" />
		<tag k="natural" v="water" />
		<tag k="ssr:stedsnr" v="132369" />
	</node>
	<node lat="62.66941110742544" lon="10.820902775240599" id="-21890">
		<tag k="name" v="Storhåen" />
		<tag k="natural" v="bay" />
		<tag k="ssr:stedsnr" v="132208" />
	</node>
	<node lat="62.35109722494771" lon="11.516702785421703" id="-21891">
		<tag k="name" v="Stenbekken" />
		<tag k="ssr:stedsnr" v="132436" />
		<tag k="waterway" v="stream" />
	</node>
	<node lat="62.34636666472638" lon="11.358219436514801" id="-21892">
		<tag k="name" v="Stenbekken" />
		<tag k="ssr:stedsnr" v="132441" />
		<tag k="waterway" v="stream" />
	</node>
	<node lat="62.30925833031652" lon="11.661980561210491" id="-21896">
		<tag k="alt_name" v="Langtjørnbekken" />
		<tag k="name" v="Langtjønnbekken" />
		<tag k="ssr:stedsnr" v="132466" />
		<tag k="waterway" v="stream" />
	</node>
	<node lat="62.4643750038405" lon="11.039997227871437" id="-21897">
		<tag k="name" v="Båttjønna" />
		<tag k="natural" v="water" />
		<tag k="ssr:stedsnr" v="133072" />
	</node>
	<node lat="62.43828055434759" lon="11.1989249931754" id="-21898">
		<tag k="name" v="Håmmåla" />
		<tag k="ssr:stedsnr" v="133079" />
		<tag k="waterway" v="river" />
	</node>
	<node lat="62.3625416651795" lon="11.57628055890733" id="-21899">
		<tag k="name" v="Eriksbekken" />
		<tag k="ssr:stedsnr" v="133361" />
		<tag k="waterway" v="stream" />
	</node>
	<node lat="62.64818888720277" lon="10.829788890023169" id="-21910">
		<tag k="name" v="Kvannkåstjønna" />
		<tag k="natural" v="water" />
		<tag k="ssr:stedsnr" v="254188" />
	</node>
	<node lat="62.65091944351801" lon="11.082438895625742" id="-21912">
		<tag k="name" v="Rundhøgdbekken" />
		<tag k="ssr:stedsnr" v="254192" />
		<tag k="waterway" v="stream" />
	</node>
	<node lat="62.66123248209678" lon="10.899655828512627" id="-21913">
		<tag k="name" v="Fjellsjøen" />
		<tag k="natural" v="water" />
		<tag k="ssr:stedsnr" v="254201" />
		<tag k="water" v="lake" />
	</node>
	<node lat="62.588702774036165" lon="10.864944445035455" id="-21914">
		<tag k="name" v="Raudbrøttbekken" />
		<tag k="ssr:stedsnr" v="254135" />
		<tag k="waterway" v="stream" />
	</node>
	<node lat="62.60426388717677" lon="11.086027768363037" id="-21915">
		<tag k="name" v="Svartåa" />
		<tag k="ssr:stedsnr" v="254155" />
		<tag k="waterway" v="stream" />
	</node>
	<node lat="62.60390000411775" lon="11.173752780797129" id="-21916">
		<tag k="name" v="Litlsandtjønna" />
		<tag k="natural" v="water" />
		<tag k="ssr:stedsnr" v="254156" />
	</node>
	<node lat="62.61643611021261" lon="11.16447499153048" id="-21917">
		<tag k="name" v="Storsandtjønna" />
		<tag k="name:no" v="Storsandtjønna" />
		<tag k="natural" v="water" />
		<tag k="ssr:stedsnr" v="254164" />
	</node>
	<node lat="62.58805555953406" lon="10.88215556285546" id="-21919">
		<tag k="name" v="Storbekken" />
		<tag k="ssr:stedsnr" v="254330" />
		<tag k="waterway" v="stream" />
	</node>
	<node lat="62.27262500258635" lon="11.668980558443717" id="-21925">
		<tag k="alt_name" v="Gruvetjørnane" />
		<tag k="name" v="Gruvetjønnan" />
		<tag k="natural" v="water" />
		<tag k="ssr:stedsnr" v="254451" />
		<tag k="water" v="lake" />
	</node>
	<node lat="62.296940413392996" lon="11.593860599492583" id="-21926">
		<tag k="alt_name" v="Svarttjørnane" />
		<tag k="name" v="Svarttjønnan" />
		<tag k="natural" v="water" />
		<tag k="ssr:stedsnr" v="254464" />
		<tag k="water" v="lake" />
	</node>
	<node lat="62.52008889333518" lon="11.310438884357826" id="-21928">
		<tag k="name" v="Djupbekken" />
		<tag k="ssr:stedsnr" v="140792" />
		<tag k="waterway" v="stream" />
	</node>
	<node lat="62.55903610738569" lon="10.960555563590006" id="-21934">
		<tag k="name" v="Gruvbekken" />
		<tag k="ssr:stedsnr" v="254799" />
		<tag k="waterway" v="stream" />
	</node>
	<node lat="62.57217499909085" lon="11.176372226087848" id="-21946">
		<tag k="name" v="Midtvollbekken" />
		<tag k="ssr:stedsnr" v="175054" />
		<tag k="waterway" v="stream" />
	</node>
	<node lat="62.575625002787085" lon="11.193755549521502" id="-21947">
		<tag k="name" v="Kvitodden" />
		<tag k="natural" v="cape" />
		<tag k="ssr:stedsnr" v="175065" />
	</node>
	<node lat="62.576766666317795" lon="11.19064166242532" id="-21948">
		<tag k="name" v="Sjøenden" />
		<tag k="natural" v="bay" />
		<tag k="ssr:stedsnr" v="175072" />
	</node>
	<node lat="62.56498889334367" lon="11.072866660031906" id="-21955">
		<tag k="name" v="Grunnloken" />
		<tag k="natural" v="water" />
		<tag k="ssr:stedsnr" v="175454" />
	</node>
	<node lat="62.32569722019303" lon="11.55166388128844" id="-21965">
		<tag k="name" v="Loken" />
		<tag k="natural" v="water" />
		<tag k="ssr:stedsnr" v="176259" />
	</node>
	<node lat="62.51148332926095" lon="11.139594436781694" id="-21967">
		<tag k="name" v="Brufossen" />
		<tag k="natural" v="waterfall" />
		<tag k="ssr:stedsnr" v="176207" />
	</node>
	<node lat="62.3128499958507" lon="11.70005000902235" id="-21968">
		<tag k="name" v="Solansbekken" />
		<tag k="ssr:stedsnr" v="176158" />
		<tag k="waterway" v="stream" />
	</node>
	<node lat="62.43999444213446" lon="11.427947214739138" id="-21981">
		<tag k="name" v="Stortrøbekken" />
		<tag k="ssr:stedsnr" v="176722" />
		<tag k="waterway" v="stream" />
	</node>
	<node lat="62.571302774303284" lon="11.07004444249332" id="-21984">
		<tag k="name" v="Hestskoloken" />
		<tag k="natural" v="water" />
		<tag k="ssr:stedsnr" v="178378" />
	</node>
	<node lat="62.48929999568433" lon="11.018269436486515" id="-21992">
		<tag k="name" v="Litlgodtjønnbekken" />
		<tag k="ssr:stedsnr" v="236038" />
		<tag k="waterway" v="stream" />
	</node>
	<node lat="62.58279167001282" lon="11.192138897220342" id="-21993">
		<tag k="name" v="Litj-Nordstubekken" />
		<tag k="ssr:stedsnr" v="236078" />
		<tag k="waterway" v="stream" />
	</node>
	<node lat="62.48785637788585" lon="11.184933140040911" id="-21994">
		<tag k="name" v="Abbortjønnan" />
		<tag k="natural" v="water" />
		<tag k="ssr:stedsnr" v="236180" />
		<tag k="water" v="lake" />
	</node>
	<node lat="62.55948611388884" lon="11.002480549213955" id="-21998">
		<tag k="name" v="Tjønnvollbekken" />
		<tag k="ssr:stedsnr" v="236514" />
		<tag k="waterway" v="stream" />
	</node>
	<node lat="62.333622222586946" lon="11.618961114479943" id="-22016">
		<tag k="name" v="Gjeddsanden" />
		<tag k="natural" v="beach" />
		<tag k="ssr:stedsnr" v="237331" />
	</node>
	<node lat="62.53428888605439" lon="11.224961107474758" id="-22017">
		<tag k="name" v="Rismyrbekken" />
		<tag k="ssr:stedsnr" v="237502" />
		<tag k="waterway" v="stream" />
	</node>
	<node lat="62.36426388590637" lon="11.503549991028976" id="-22027">
		<tag k="name" v="Harrbekken" />
		<tag k="ssr:stedsnr" v="453248" />
		<tag k="waterway" v="stream" />
	</node>
	<node lat="62.58027499714866" lon="11.03261666088987" id="-22029">
		<tag k="alt_name" v="Olbekken" />
		<tag k="name" v="Urdbekken" />
		<tag k="ssr:stedsnr" v="254113" />
		<tag k="waterway" v="stream" />
	</node>
	<node lat="62.631286109283366" lon="10.953155553783747" id="-22033">
		<tag k="name" v="Rasmusbekken" />
		<tag k="ssr:stedsnr" v="254177" />
		<tag k="waterway" v="stream" />
	</node>
	<node lat="62.32992777902082" lon="11.69208610916655" id="-22036">
		<tag k="fixme" v="multiple name tags, choose one and add the other to alt_name" />
		<tag k="name" v="Rotjørnane;Rotjønnan" />
		<tag k="natural" v="water" />
		<tag k="ssr:stedsnr" v="254405" />
		<tag k="water" v="lake" />
	</node>
	<node lat="62.361842852064676" lon="11.624714666762307" id="-22038">
		<tag k="name" v="Indre Raudtjønnan" />
		<tag k="natural" v="water" />
		<tag k="ssr:stedsnr" v="254389" />
		<tag k="water" v="lake" />
	</node>
	<node lat="62.34242500143198" lon="11.506205552586582" id="-22045">
		<tag k="name" v="Skjervika" />
		<tag k="natural" v="bay" />
		<tag k="ssr:stedsnr" v="296455" />
	</node>
	<node lat="62.546650002574225" lon="11.188983334342668" id="-22049">
		<tag k="name" v="Sæterlitjønnbekken" />
		<tag k="ssr:stedsnr" v="297081" />
		<tag k="waterway" v="stream" />
	</node>
	<node lat="62.56028055811472" lon="11.183149990822338" id="-22050">
		<tag k="name" v="Henningsvika" />
		<tag k="natural" v="bay" />
		<tag k="ssr:stedsnr" v="297088" />
	</node>
	<node lat="62.4675138886137" lon="11.355077777673342" id="-22066">
		<tag k="name" v="Bredalslinesset" />
		<tag k="natural" v="cape" />
		<tag k="ssr:stedsnr" v="297729" />
	</node>
	<node lat="62.412799997570275" lon="11.402636119453728" id="-22085">
		<tag k="name" v="Østerbekken" />
		<tag k="ssr:stedsnr" v="315358" />
		<tag k="waterway" v="stream" />
	</node>
	<node lat="62.57101944864096" lon="11.228244451638595" id="-22097">
		<tag k="name" v="Storholet" />
		<tag k="place" v="locality" />
		<tag k="ssr:stedsnr" v="346375" />
	</node>
	<node lat="62.17317499738702" lon="11.84579721582456" id="-22098">
		<tag k="name" v="Lillesanden" />
		<tag k="natural" v="bay" />
		<tag k="ssr:stedsnr" v="357212" />
	</node>
	<node lat="62.492169440630896" lon="11.178430553130145" id="-22099">
		<tag k="name" v="Løvnesodden" />
		<tag k="natural" v="cape" />
		<tag k="ssr:stedsnr" v="357151" />
	</node>
	<node lat="62.61149721853748" lon="11.117977779257558" id="-22105">
		<tag k="name" v="Trøavika" />
		<tag k="natural" v="bay" />
		<tag k="ssr:stedsnr" v="357812" />
	</node>
	<node lat="62.59727499603866" lon="11.152088881670126" id="-22106">
		<tag k="name" v="Svartholet" />
		<tag k="natural" v="water" />
		<tag k="ssr:stedsnr" v="357910" />
	</node>
	<node lat="62.20405000012704" lon="11.819391674594069" id="-22107">
		<tag k="name" v="Korsrømmen" />
		<tag k="ssr:stedsnr" v="358112" />
		<tag k="waterway" v="rapids" />
	</node>
	<node lat="62.551997225320946" lon="11.09703055567131" id="-22109">
		<tag k="name" v="Bergebekken" />
		<tag k="ssr:stedsnr" v="358056" />
		<tag k="waterway" v="stream" />
	</node>
	<node lat="62.32345555338059" lon="11.557138880949633" id="-22115">
		<tag k="name" v="Nedre Nyløtjønna" />
		<tag k="natural" v="water" />
		<tag k="ssr:stedsnr" v="358267" />
	</node>
	<node lat="62.472130552531475" lon="11.173472215728099" id="-22119">
		<tag k="name" v="Fjordingsbekken" />
		<tag k="ssr:stedsnr" v="358326" />
		<tag k="waterway" v="stream" />
	</node>
	<node lat="62.479005554460095" lon="11.138091669565116" id="-22123">
		<tag k="name" v="Litjtjønna" />
		<tag k="natural" v="water" />
		<tag k="ssr:stedsnr" v="358350" />
	</node>
	<node lat="62.462433329595164" lon="11.380997224013708" id="-22129">
		<tag k="name" v="Litlenarjordsbekken" />
		<tag k="ssr:stedsnr" v="358749" />
		<tag k="waterway" v="stream" />
	</node>
	<node lat="62.34775555508539" lon="11.48870000290058" id="-22142">
		<tag k="name" v="Buvika" />
		<tag k="natural" v="bay" />
		<tag k="ssr:stedsnr" v="478499" />
	</node>
	<node lat="62.32686944573494" lon="11.641911116898292" id="-22153">
		<tag k="name" v="Fjordingsbekken" />
		<tag k="ssr:stedsnr" v="479313" />
		<tag k="waterway" v="stream" />
	</node>
	<node lat="62.51645833477999" lon="11.014033329683128" id="-22162">
		<tag k="name" v="Åstjønna" />
		<tag k="natural" v="water" />
		<tag k="ssr:stedsnr" v="479625" />
	</node>
	<node lat="62.469316662782205" lon="11.035069440864655" id="-22168">
		<tag k="name" v="Lerloken" />
		<tag k="natural" v="water" />
		<tag k="ssr:stedsnr" v="479677" />
	</node>
	<node lat="62.5397972262116" lon="10.994813894160634" id="-22170">
		<tag k="name" v="Småtjønnan" />
		<tag k="natural" v="water" />
		<tag k="ssr:stedsnr" v="479650" />
		<tag k="water" v="lake" />
	</node>
	<node lat="62.46168333088965" lon="11.36830555770467" id="-22175">
		<tag k="name" v="Bredalslihåen" />
		<tag k="natural" v="water" />
		<tag k="ssr:stedsnr" v="479743" />
	</node>
	<node lat="62.17252221807544" lon="11.76766943588641" id="-22179">
		<tag k="name" v="Pulslokan" />
		<tag k="natural" v="water" />
		<tag k="ssr:stedsnr" v="479931" />
	</node>
	<node lat="62.174063886854285" lon="11.821261113048562" id="-22180">
		<tag k="name" v="Stortjønnvika" />
		<tag k="natural" v="bay" />
		<tag k="ssr:stedsnr" v="479934" />
	</node>
	<node lat="62.36065000130473" lon="11.48051110661823" id="-22182">
		<tag k="name" v="Nøstervika" />
		<tag k="natural" v="bay" />
		<tag k="ssr:stedsnr" v="479959" />
	</node>
	<node lat="62.35334721876513" lon="11.48969166893407" id="-22187">
		<tag k="name" v="Langøra" />
		<tag k="natural" v="cape" />
		<tag k="ssr:stedsnr" v="479963" />
	</node>
	<node lat="62.312977777278604" lon="11.741897229581093" id="-22191">
		<tag k="name" v="Kvernhusbekken" />
		<tag k="ssr:stedsnr" v="375529" />
		<tag k="waterway" v="stream" />
	</node>
	<node lat="62.21882500288902" lon="11.694458339731204" id="-22196">
		<tag k="name" v="Litlebutjønna" />
		<tag k="natural" v="water" />
		<tag k="ssr:stedsnr" v="375418" />
	</node>
	<node lat="62.48240277776978" lon="11.27594166374359" id="-22199">
		<tag k="name" v="Nøra" />
		<tag k="ssr:stedsnr" v="375707" />
		<tag k="waterway" v="river" />
	</node>
	<node lat="62.55882500057808" lon="10.968713884970727" id="-22204">
		<tag k="alt_name" v="Nilsjobekken" />
		<tag k="name" v="Nils-Jobekken" />
		<tag k="ssr:stedsnr" v="375797" />
		<tag k="waterway" v="stream" />
	</node>
	<node lat="62.55503888940779" lon="10.99006111459921" id="-22205">
		<tag k="name" v="Langtjønnbekken" />
		<tag k="ssr:stedsnr" v="375806" />
		<tag k="waterway" v="stream" />
	</node>
	<node lat="62.23578611112562" lon="11.717597230516681" id="-22213">
		<tag k="name" v="Søndre Litjåa" />
		<tag k="ssr:stedsnr" v="417115" />
		<tag k="waterway" v="stream" />
	</node>
	<node lat="62.17689444183236" lon="11.828697225650995" id="-22218">
		<tag k="name" v="Vestre Storholmen" />
		<tag k="place" v="islet" />
		<tag k="ssr:stedsnr" v="418204" />
	</node>
	<node lat="62.512222219598435" lon="11.100336111754421" id="-22225">
		<tag k="name" v="Vonddikbekken" />
		<tag k="ssr:stedsnr" v="419190" />
		<tag k="waterway" v="stream" />
	</node>
	<node lat="62.33482777646241" lon="11.599138880890923" id="-22228">
		<tag k="name" v="Tangodden" />
		<tag k="natural" v="cape" />
		<tag k="ssr:stedsnr" v="419324" />
	</node>
	<node lat="62.33522777861672" lon="11.652144440701857" id="-22231">
		<tag k="name" v="Litjrabbekken" />
		<tag k="ssr:stedsnr" v="419297" />
		<tag k="waterway" v="stream" />
	</node>
	<node lat="62.49136389179338" lon="11.07933332904736" id="-22237">
		<tag k="name" v="Gammelvolltjønna" />
		<tag k="natural" v="water" />
		<tag k="ssr:stedsnr" v="419706" />
	</node>
	<node lat="62.38757778189045" lon="11.47380554800711" id="-22247">
		<tag k="name" v="Storhåbekken" />
		<tag k="ssr:stedsnr" v="419928" />
		<tag k="waterway" v="stream" />
	</node>
	<node lat="62.362408330810545" lon="11.47871944449634" id="-22248">
		<tag k="name" v="Øsvollvika" />
		<tag k="natural" v="bay" />
		<tag k="ssr:stedsnr" v="419940" />
	</node>
	<node lat="62.58924444890543" lon="11.088897225968626" id="-22250">
		<tag k="name" v="Kløftet" />
		<tag k="natural" v="waterfall" />
		<tag k="ssr:stedsnr" v="421391" />
	</node>
	<node lat="62.51625277669999" lon="11.094677777319191" id="-22268">
		<tag k="name" v="Vangrøfta" />
		<tag k="ssr:stedsnr" v="436811" />
		<tag k="waterway" v="river" />
	</node>
	<node lat="62.3604000029872" lon="11.658219449000649" id="-22271">
		<tag k="alt_name" v="Midtjørna" />
		<tag k="name" v="Midtjønna" />
		<tag k="natural" v="water" />
		<tag k="ssr:stedsnr" v="437444" />
	</node>
	<node lat="62.34599721804865" lon="11.50596944396749" id="-22274">
		<tag k="name" v="Djupodden" />
		<tag k="natural" v="cape" />
		<tag k="ssr:stedsnr" v="478502" />
	</node>
	<node lat="62.189630551834426" lon="11.827108341018734" id="-22276">
		<tag k="name" v="Svendøvja" />
		<tag k="natural" v="bay" />
		<tag k="ssr:stedsnr" v="479173" />
	</node>
	<node lat="62.172222222440396" lon="11.847336113492872" id="-22288">
		<tag k="name" v="Lillesandodden" />
		<tag k="natural" v="cape" />
		<tag k="ssr:stedsnr" v="479218" />
	</node>
	<node lat="62.27678333719883" lon="11.740463887938702" id="-22289">
		<tag k="name" v="Midtdalbekken" />
		<tag k="ssr:stedsnr" v="479220" />
		<tag k="waterway" v="stream" />
	</node>
	<node lat="62.58459722613254" lon="10.925875006262942" id="-22291">
		<tag k="name" v="Nirslokan" />
		<tag k="natural" v="water" />
		<tag k="ssr:stedsnr" v="479307" />
	</node>
	<node lat="62.585163891657494" lon="10.959230547426642" id="-22293">
		<tag k="name" v="Mestubekken" />
		<tag k="ssr:stedsnr" v="479310" />
		<tag k="waterway" v="stream" />
	</node>
	<node lat="62.549400004431284" lon="10.907033332444374" id="-22296">
		<tag k="name" v="Storbekken" />
		<tag k="ssr:stedsnr" v="479411" />
		<tag k="waterway" v="stream" />
	</node>
	<node lat="62.458733329601834" lon="11.168755552062233" id="-22298">
		<tag k="name" v="Granloken" />
		<tag k="natural" v="water" />
		<tag k="ssr:stedsnr" v="479460" />
		<tag k="water" v="pond" />
	</node>
	<node lat="62.54069166592285" lon="11.218055563746649" id="-22300">
		<tag k="name" v="Litjbekken" />
		<tag k="ssr:stedsnr" v="479468" />
		<tag k="waterway" v="stream" />
	</node>
	<node lat="62.59647499781265" lon="11.068261112527951" id="-22321">
		<tag k="name" v="Storbekken" />
		<tag k="ssr:stedsnr" v="679157" />
		<tag k="waterway" v="stream" />
	</node>
	<node lat="62.18830555500804" lon="11.841158330916658" id="-22334">
		<tag k="name" v="Rotvikkjølen" />
		<tag k="natural" v="water" />
		<tag k="ssr:stedsnr" v="496352" />
	</node>
	<node lat="62.51690316145346" lon="10.968766789108939" id="-22339">
		<tag k="alt_name" v="Djupsjøen" />
		<tag k="name" v="Stordjupsjøen" />
		<tag k="natural" v="water" />
		<tag k="ssr:stedsnr" v="496768" />
	</node>
	<node lat="62.66018610987813" lon="11.089669448543267" id="-22346">
		<tag k="name" v="Øvstubekken" />
		<tag k="ssr:stedsnr" v="497199" />
		<tag k="waterway" v="stream" />
	</node>
	<node lat="62.356149999246036" lon="11.533833336032146" id="-22349">
		<tag k="name" v="Borrloken" />
		<tag k="natural" v="water" />
		<tag k="old_name" v="Brentmyrtjørna" />
		<tag k="ssr:stedsnr" v="506458" />
	</node>
	<node lat="62.17777777951355" lon="11.829419442273549" id="-22357">
		<tag k="name" v="Østre Storholmen" />
		<tag k="place" v="islet" />
		<tag k="ssr:stedsnr" v="539166" />
	</node>
	<node lat="62.17970277423542" lon="11.833119451592149" id="-22358">
		<tag k="name" v="Litjholmen" />
		<tag k="place" v="islet" />
		<tag k="ssr:stedsnr" v="539169" />
	</node>
	<node lat="62.56355555175334" lon="11.02554167093967" id="-22360">
		<tag k="name" v="Kroketfossen" />
		<tag k="natural" v="waterfall" />
		<tag k="ssr:stedsnr" v="539511" />
	</node>
	<node lat="62.303575000213165" lon="11.688122215345922" id="-22365">
		<tag k="name" v="Eldhusbekken" />
		<tag k="ssr:stedsnr" v="540164" />
		<tag k="waterway" v="stream" />
	</node>
	<node lat="62.60297777928554" lon="10.945841675194186" id="-22371">
		<tag k="name" v="Yterhaugsbekken" />
		<tag k="ssr:stedsnr" v="540306" />
		<tag k="waterway" v="stream" />
	</node>
	<node lat="62.348769440136515" lon="11.634336106629117" id="-22372">
		<tag k="name" v="Petnillaloken" />
		<tag k="natural" v="water" />
		<tag k="ssr:stedsnr" v="540311" />
	</node>
	<node lat="62.54731110848567" lon="11.091394441939304" id="-22375">
		<tag k="name" v="Kvangravbekken" />
		<tag k="ssr:stedsnr" v="540072" />
		<tag k="waterway" v="stream" />
	</node>
	<node lat="62.53102222477431" lon="11.12794166515034" id="-22378">
		<tag k="name" v="Kroketbekken" />
		<tag k="ssr:stedsnr" v="540209" />
		<tag k="waterway" v="stream" />
	</node>
	<node lat="62.50032221804327" lon="11.22873612010996" id="-22385">
		<tag k="name" v="Korholmen" />
		<tag k="place" v="islet" />
		<tag k="ssr:stedsnr" v="540571" />
	</node>
	<node lat="62.44516944583769" lon="11.380694448169598" id="-22386">
		<tag k="name" v="Mosengbekken" />
		<tag k="ssr:stedsnr" v="540711" />
		<tag k="waterway" v="stream" />
	</node>
	<node lat="62.53722222015803" lon="11.219608330218179" id="-22388">
		<tag k="name" v="Klettvolloken" />
		<tag k="natural" v="water" />
		<tag k="ssr:stedsnr" v="540480" />
	</node>
	<node lat="62.484638886213915" lon="11.275652786595808" id="-22389">
		<tag k="name" v="Fossan" />
		<tag k="natural" v="waterfall" />
		<tag k="ssr:stedsnr" v="540621" />
	</node>
	<node lat="62.30310555475309" lon="11.690961111307045" id="-22395">
		<tag k="name" v="Håmmårbekken" />
		<tag k="ssr:stedsnr" v="553136" />
		<tag k="waterway" v="stream" />
	</node>
	<node lat="62.665708334817786" lon="10.838249997350642" id="-22397">
		<tag k="name" v="Håan" />
		<tag k="place" v="locality" />
		<tag k="ssr:stedsnr" v="557215" />
	</node>
	<node lat="62.6688694447471" lon="10.891561118461965" id="-22398">
		<tag k="name" v="Bubekken" />
		<tag k="ssr:stedsnr" v="557218" />
		<tag k="waterway" v="stream" />
	</node>
	<node lat="62.39189444354982" lon="11.367813897391114" id="-22400">
		<tag k="alt_name" v="Butjørna" />
		<tag k="name" v="Butjønna" />
		<tag k="natural" v="water" />
		<tag k="ssr:stedsnr" v="557408" />
	</node>
	<node lat="62.51180000193011" lon="10.999258332054419" id="-22409">
		<tag k="name" v="Stortjønna" />
		<tag k="natural" v="water" />
		<tag k="ssr:stedsnr" v="557745" />
	</node>
	<node lat="62.50624721865746" lon="10.986961102114615" id="-22410">
		<tag k="alt_name" v="Måssåtjønna nordre" />
		<tag k="name" v="Måsåtjønna" />
		<tag k="natural" v="water" />
		<tag k="ssr:stedsnr" v="557746" />
	</node>
	<node lat="62.277680558764054" lon="11.754977770826102" id="-22412">
		<tag k="name" v="Svartmyrloken" />
		<tag k="natural" v="water" />
		<tag k="old_name" v="Buoddloken" />
		<tag k="ssr:stedsnr" v="557620" />
	</node>
	<node lat="62.46481891331648" lon="11.048203481250905" id="-22422">
		<tag k="name" v="Hørtbekken" />
		<tag k="ssr:stedsnr" v="586146" />
		<tag k="waterway" v="stream" />
	</node>
	<node lat="62.26082777383251" lon="11.755133340688674" id="-22436">
		<tag k="name" v="Stormyrodden" />
		<tag k="natural" v="cape" />
		<tag k="ssr:stedsnr" v="600048" />
	</node>
	<node lat="62.25730833209557" lon="11.745658327371848" id="-22437">
		<tag k="name" v="Djupdalsbekken" />
		<tag k="ssr:stedsnr" v="600051" />
		<tag k="waterway" v="stream" />
	</node>
	<node lat="62.502944440947054" lon="10.986897215267238" id="-22439">
		<tag k="name" v="Søndre Måssåtjønna" />
		<tag k="natural" v="water" />
		<tag k="ssr:stedsnr" v="600059" />
	</node>
	<node lat="62.3285999961727" lon="11.54776944434304" id="-22442">
		<tag k="name" v="Narkroken" />
		<tag k="place" v="locality" />
		<tag k="ssr:stedsnr" v="600263" />
	</node>
	<node lat="62.33950000006713" lon="11.599255557155681" id="-22446">
		<tag k="name" v="Svartstoet" />
		<tag k="natural" v="bay" />
		<tag k="ssr:stedsnr" v="600307" />
	</node>
	<node lat="62.33719999944164" lon="11.594036102160112" id="-22447">
		<tag k="name" v="Sikodden" />
		<tag k="natural" v="cape" />
		<tag k="ssr:stedsnr" v="600308" />
	</node>
	<node lat="62.34340277544099" lon="11.585297222750201" id="-22448">
		<tag k="name" v="Vika" />
		<tag k="natural" v="bay" />
		<tag k="ssr:stedsnr" v="600309" />
	</node>
	<node lat="62.460880556618534" lon="11.142044443865629" id="-22449">
		<tag k="name" v="Halvmilholmen" />
		<tag k="place" v="islet" />
		<tag k="ssr:stedsnr" v="600310" />
	</node>
	<node lat="62.32189166851477" lon="11.640099997990651" id="-22450">
		<tag k="name" v="Digerodden" />
		<tag k="natural" v="cape" />
		<tag k="ssr:stedsnr" v="600312" />
	</node>
	<node lat="62.43537222349743" lon="11.20536943793949" id="-22460">
		<tag k="name" v="Storloken" />
		<tag k="natural" v="water" />
		<tag k="ssr:stedsnr" v="600500" />
	</node>
	<node lat="62.672805559651614" lon="10.816013889061697" id="-22481">
		<tag k="name" v="Litlhåen" />
		<tag k="natural" v="bay" />
		<tag k="ssr:stedsnr" v="618184" />
	</node>
	<node lat="62.34252777921181" lon="11.740849993483529" id="-22485">
		<tag k="name" v="Flensbekken" />
		<tag k="ssr:stedsnr" v="618596" />
		<tag k="waterway" v="stream" />
	</node>
	<node lat="62.54291944649625" lon="10.982366673451018" id="-22490">
		<tag k="name" v="Langtjønna" />
		<tag k="natural" v="water" />
		<tag k="ssr:stedsnr" v="618816" />
	</node>
	<node lat="62.55458055184289" lon="10.9830333304915" id="-22491">
		<tag k="name" v="Holmsloken" />
		<tag k="natural" v="water" />
		<tag k="ssr:stedsnr" v="626614" />
	</node>
	<node lat="62.32247499962202" lon="11.715966675656354" id="-22499">
		<tag k="name" v="Kvennbekken" />
		<tag k="ssr:stedsnr" v="660191" />
		<tag k="waterway" v="stream" />
	</node>
	<node lat="62.33697499657527" lon="11.466288879208205" id="-22502">
		<tag k="name" v="Bonkrytjønna" />
		<tag k="natural" v="water" />
		<tag k="ssr:stedsnr" v="660489" />
	</node>
	<node lat="62.18898055147424" lon="11.817500008526245" id="-22505">
		<tag k="name" v="Nordre Korsen" />
		<tag k="natural" v="cape" />
		<tag k="ssr:stedsnr" v="661086" />
	</node>
	<node lat="62.18842500161392" lon="11.816327775207965" id="-22506">
		<tag k="name" v="Korsøvja" />
		<tag k="natural" v="bay" />
		<tag k="ssr:stedsnr" v="661094" />
	</node>
	<node lat="62.322141667564516" lon="11.584283329329104" id="-22509">
		<tag k="name" v="Kjøllan" />
		<tag k="natural" v="spring" />
		<tag k="ssr:stedsnr" v="661307" />
	</node>
	<node lat="62.325358337299434" lon="11.62865000840982" id="-22518">
		<tag k="name" v="Vintervegodden" />
		<tag k="natural" v="cape" />
		<tag k="ssr:stedsnr" v="661301" />
	</node>
	<node lat="62.359352774095036" lon="11.456105559561266" id="-22527">
		<tag k="name" v="Hansmobekken" />
		<tag k="ssr:stedsnr" v="661815" />
		<tag k="waterway" v="stream" />
	</node>
	<node lat="62.46822500330729" lon="11.354588898673844" id="-22528">
		<tag k="name" v="Blæsterhåen" />
		<tag k="natural" v="water" />
		<tag k="ssr:stedsnr" v="661709" />
	</node>
	<node lat="62.61870277506525" lon="11.11472222156955" id="-22530">
		<tag k="name" v="Kjurruøset" />
		<tag k="natural" v="bay" />
		<tag k="ssr:stedsnr" v="661799" />
	</node>
	<node lat="62.61679166797893" lon="10.912319448360579" id="-22538">
		<tag k="name" v="Storbekken" />
		<tag k="ssr:stedsnr" v="678196" />
		<tag k="waterway" v="stream" />
	</node>
	<node lat="62.66056944877548" lon="10.9271305473793" id="-22542">
		<tag k="name" v="Falktjønna" />
		<tag k="natural" v="water" />
		<tag k="ssr:stedsnr" v="679192" />
	</node>
	<node lat="62.44810555892518" lon="11.339477785750708" id="-22545">
		<tag k="name" v="Storbekken" />
		<tag k="ssr:stedsnr" v="679313" />
		<tag k="waterway" v="stream" />
	</node>
	<node lat="62.501444448223744" lon="11.010452769967802" id="-22555">
		<tag k="name" v="Gammelvolltjønna" />
		<tag k="natural" v="water" />
		<tag k="ssr:stedsnr" v="904026" />
	</node>
	<node lat="62.55486666836668" lon="11.117263891821496" id="-22564">
		<tag k="name" v="Kvernbekken" />
		<tag k="ssr:stedsnr" v="722082" />
		<tag k="waterway" v="stream" />
	</node>
	<node lat="62.56156111519128" lon="11.19477778015202" id="-22565">
		<tag k="name" v="Trønsvika" />
		<tag k="natural" v="bay" />
		<tag k="ssr:stedsnr" v="722084" />
	</node>
	<node lat="62.554408336618955" lon="11.2087388951644" id="-22566">
		<tag k="name" v="Utstuloken" />
		<tag k="natural" v="water" />
		<tag k="ssr:stedsnr" v="722086" />
	</node>
	<node lat="62.50086110811481" lon="11.104227781229019" id="-22570">
		<tag k="name" v="Sagbekken" />
		<tag k="ssr:stedsnr" v="722186" />
		<tag k="waterway" v="stream" />
	</node>
	<node lat="62.578469441446195" lon="10.990480557676339" id="-22581">
		<tag k="name" v="Åsbekken" />
		<tag k="old_name" v="Åslibekken" />
		<tag k="ssr:stedsnr" v="739127" />
		<tag k="waterway" v="stream" />
	</node>
	<node lat="62.53018333473162" lon="11.221175005991183" id="-22583">
		<tag k="alt_name" v="Kvernbekken" />
		<tag k="name" v="Kvennbekken" />
		<tag k="ssr:stedsnr" v="739346" />
		<tag k="waterway" v="stream" />
	</node>
	<node lat="62.14391388993535" lon="11.834274993723906" id="-22584">
		<tag k="name" v="Kråkholmen" />
		<tag k="place" v="islet" />
		<tag k="ssr:stedsnr" v="739349" />
	</node>
	<node lat="62.54733055135683" lon="10.99802500605423" id="-22587">
		<tag k="name" v="Småtjønnan" />
		<tag k="natural" v="water" />
		<tag k="ssr:stedsnr" v="739847" />
		<tag k="water" v="lake" />
	</node>
	<node lat="62.50919999638873" lon="11.293891676026012" id="-22589">
		<tag k="name" v="Myrbekken" />
		<tag k="ssr:stedsnr" v="740509" />
		<tag k="waterway" v="stream" />
	</node>
	<node lat="62.325547222159585" lon="11.738813881649122" id="-22594">
		<tag k="name" v="Synnersmåbekken" />
		<tag k="ssr:stedsnr" v="903176" />
		<tag k="waterway" v="stream" />
	</node>
	<node lat="62.349644446407" lon="11.497202784573329" id="-22599">
		<tag k="name" v="Fiskodden" />
		<tag k="natural" v="cape" />
		<tag k="ssr:stedsnr" v="903464" />
	</node>
	<node lat="62.236302775196265" lon="11.77308888947886" id="-22604">
		<tag k="name" v="Odden" />
		<tag k="natural" v="cape" />
		<tag k="ssr:stedsnr" v="904092" />
	</node>
	<node lat="62.34349722447085" lon="11.559336116018896" id="-22613">
		<tag k="name" v="Bergeloken" />
		<tag k="natural" v="water" />
		<tag k="ssr:stedsnr" v="904273" />
	</node>
	<node lat="62.32671944631302" lon="11.550150007172137" id="-22614">
		<tag k="name" v="Kroken" />
		<tag k="place" v="locality" />
		<tag k="ssr:stedsnr" v="904289" />
	</node>
	<node lat="62.47871944419865" lon="11.125852775048095" id="-22616">
		<tag k="name" v="Øverloken" />
		<tag k="natural" v="water" />
		<tag k="ssr:stedsnr" v="904350" />
	</node>
	<node lat="62.30498610909181" lon="11.45269723113064" id="-22624">
		<tag k="name" v="Kvilbekken" />
		<tag k="ssr:stedsnr" v="904648" />
		<tag k="waterway" v="stream" />
	</node>
	<node lat="62.60790000185396" lon="11.108836103857753" id="-22627">
		<tag k="name" v="Gammelsæterelva" />
		<tag k="ssr:stedsnr" v="904942" />
		<tag k="waterway" v="river" />
	</node>
	<node lat="62.56691666793784" lon="11.01089166256224" id="-22633">
		<tag k="name" v="Bjønndalsbekken" />
		<tag k="ssr:stedsnr" v="782504" />
		<tag k="waterway" v="stream" />
	</node>
	<node lat="62.53713611029287" lon="11.208747229678664" id="-22635">
		<tag k="name" v="Rødstenbekken" />
		<tag k="ssr:stedsnr" v="782712" />
		<tag k="waterway" v="stream" />
	</node>
	<node lat="62.46230277885907" lon="11.068425008118712" id="-22636">
		<tag k="name" v="Hørtdalsbekken" />
		<tag k="ssr:stedsnr" v="783003" />
		<tag k="waterway" v="stream" />
	</node>
	<node lat="62.30074999648248" lon="11.65235277195127" id="-22644">
		<tag k="name" v="Rundtjønna" />
		<tag k="natural" v="water" />
		<tag k="ssr:stedsnr" v="783151" />
	</node>
	<node lat="62.47684722647481" lon="11.307655553148757" id="-22650">
		<tag k="name" v="Svarthølen" />
		<tag k="place" v="locality" />
		<tag k="ssr:stedsnr" v="783506" />
	</node>
	<node lat="62.370050003022335" lon="11.47292222260863" id="-22654">
		<tag k="name" v="Bøljefossen" />
		<tag k="natural" v="waterfall" />
		<tag k="ssr:stedsnr" v="783949" />
	</node>
	<node lat="62.18262777440965" lon="11.806227770157438" id="-22657">
		<tag k="name" v="Nybubekken" />
		<tag k="ssr:stedsnr" v="783901" />
		<tag k="waterway" v="stream" />
	</node>
	<node lat="62.20537499866636" lon="11.75553333383804" id="-22663">
		<tag k="name" v="Svartbekken" />
		<tag k="ssr:stedsnr" v="800332" />
		<tag k="waterway" v="stream" />
	</node>
	<node lat="62.56323889167814" lon="10.880413879448612" id="-22675">
		<tag k="name" v="Måsåtjønn" />
		<tag k="natural" v="water" />
		<tag k="ssr:stedsnr" v="801782" />
	</node>
	<node lat="62.337749995850125" lon="11.45282499569639" id="-22679">
		<tag k="alt_name" v="Sandmælbekken" />
		<tag k="name" v="Sandmelbekken" />
		<tag k="ssr:stedsnr" v="921491" />
		<tag k="waterway" v="stream" />
	</node>
	<node lat="62.59648888555527" lon="10.856427771390672" id="-22681">
		<tag k="name" v="Svartbekken" />
		<tag k="ssr:stedsnr" v="921173" />
		<tag k="waterway" v="stream" />
	</node>
	<node lat="62.35366111300312" lon="11.475305552071129" id="-22686">
		<tag k="name" v="Narsjøen" />
		<tag k="natural" v="water" />
		<tag k="ssr:stedsnr" v="921453" />
		<tag k="water" v="lake" />
	</node>
	<node lat="62.423642950045775" lon="11.352580001896158" id="-22696">
		<tag k="alt_name" v="Sagbekktjørnane" />
		<tag k="loc_name" v="Sjurstjønnan" />
		<tag k="name" v="Sagbekktjønnan" />
		<tag k="natural" v="water" />
		<tag k="ssr:stedsnr" v="922352" />
		<tag k="water" v="lake" />
	</node>
	<node lat="62.3084052437218" lon="11.629415540278178" id="-22697">
		<tag k="name" v="Nordre Langtjønna" />
		<tag k="natural" v="water" />
		<tag k="ssr:stedsnr" v="922440" />
		<tag k="water" v="lake" />
	</node>
	<node lat="62.32084166888937" lon="11.739350004884823" id="-22711">
		<tag k="name" v="Kronskogloken" />
		<tag k="natural" v="water" />
		<tag k="ssr:stedsnr" v="843196" />
		<tag k="water" v="pond" />
	</node>
	<node lat="62.19685833726779" lon="11.81432777490296" id="-22715">
		<tag k="name" v="Storhåkroken" />
		<tag k="natural" v="cape" />
		<tag k="ssr:stedsnr" v="844106" />
	</node>
	<node lat="62.2252222256206" lon="11.792758342980175" id="-22721">
		<tag k="name" v="Straumsloken" />
		<tag k="natural" v="water" />
		<tag k="ssr:stedsnr" v="844092" />
	</node>
	<node lat="62.32858611061632" lon="11.616458328087862" id="-22726">
		<tag k="name" v="Sikholmen" />
		<tag k="place" v="islet" />
		<tag k="ssr:stedsnr" v="844305" />
	</node>
	<node lat="62.53838610698777" lon="11.23031388492557" id="-22732">
		<tag k="name" v="Rismyrloken" />
		<tag k="natural" v="water" />
		<tag k="ssr:stedsnr" v="844478" />
	</node>
	<node lat="62.48970000337204" lon="11.257513880688899" id="-22734">
		<tag k="name" v="Skreddartjønnan" />
		<tag k="natural" v="water" />
		<tag k="ssr:stedsnr" v="844578" />
	</node>
	<node lat="62.61437499848866" lon="10.941791667555623" id="-22746">
		<tag k="name" v="Røstengbekken" />
		<tag k="ssr:stedsnr" v="861163" />
		<tag k="waterway" v="stream" />
	</node>
	<node lat="62.6281999992016" lon="11.111444448527541" id="-22748">
		<tag k="name" v="Nyengbekken" />
		<tag k="ssr:stedsnr" v="861178" />
		<tag k="waterway" v="stream" />
	</node>
	<node lat="62.34266944365122" lon="11.674658336543311" id="-22751">
		<tag k="fixme" v="multiple name tags, choose one and add the other to alt_name" />
		<tag k="name" v="Bakkelokane;Bakkelokan" />
		<tag k="natural" v="water" />
		<tag k="ssr:stedsnr" v="861433" />
	</node>
	<node lat="62.26160000045478" lon="11.641741657799741" id="-22752">
		<tag k="alt_name" v="Godtjørna" />
		<tag k="name" v="Godtjønna" />
		<tag k="natural" v="water" />
		<tag k="ssr:stedsnr" v="861519" />
	</node>
	<node lat="62.379713892517046" lon="11.657788895928368" id="-22756">
		<tag k="name" v="Hogntjønna" />
		<tag k="natural" v="water" />
		<tag k="ssr:stedsnr" v="931439" />
	</node>
	<node lat="62.2048222266516" lon="11.75508333111793" id="-22759">
		<tag k="name" v="Svartbekkfallet" />
		<tag k="natural" v="waterfall" />
		<tag k="ssr:stedsnr" v="903104" />
	</node>
	<node lat="62.34229722594756" lon="11.588394443611104" id="-22781">
		<tag k="name" v="Abborodden" />
		<tag k="natural" v="cape" />
		<tag k="ssr:stedsnr" v="904318" />
	</node>
	<node lat="62.600344448184" lon="11.145552787218211" id="-22803">
		<tag k="name" v="Djupskårrbekken" />
		<tag k="ssr:stedsnr" v="904948" />
		<tag k="waterway" v="stream" />
	</node>
	<node lat="62.613419447328916" lon="11.114686119722618" id="-22810">
		<tag k="alt_name" v="Hanksjøen, nørdre;Nordre Hanksjøen" />
		<tag k="name" v="Nørdre Hanksjøen" />
		<tag k="natural" v="water" />
		<tag k="ssr:stedsnr" v="921194" />
		<tag k="water" v="lake" />
	</node>
	<node lat="62.67894166255288" lon="10.924180563187928" id="-22816">
		<tag k="name" v="Fjellsjøbekken" />
		<tag k="ssr:stedsnr" v="922212" />
		<tag k="waterway" v="stream" />
	</node>
	<node lat="62.56406388702264" lon="10.927066665796874" id="-22820">
		<tag k="name" v="Skarva" />
		<tag k="ssr:stedsnr" v="922784" />
		<tag k="waterway" v="stream" />
	</node>
	<node lat="62.343180553792756" lon="11.518733332337929" id="-22829">
		<tag k="name" v="Gammelløengvika" />
		<tag k="natural" v="bay" />
		<tag k="ssr:stedsnr" v="963537" />
	</node>
	<node lat="62.569516663230615" lon="11.180141665845067" id="-22831">
		<tag k="name" v="Djupbekkvika" />
		<tag k="natural" v="bay" />
		<tag k="ssr:stedsnr" v="964093" />
	</node>
	<node lat="62.18786389186222" lon="11.828252784616637" id="-22832">
		<tag k="name" v="Hopholmbua" />
		<tag k="place" v="islet" />
		<tag k="ssr:stedsnr" v="964205" />
	</node>
	<node lat="62.29683055794374" lon="11.671986115717417" id="-22838">
		<tag k="name" v="Smålokan" />
		<tag k="natural" v="water" />
		<tag k="ssr:stedsnr" v="965133" />
	</node>
	<node lat="62.591908336572466" lon="10.92138888267129" id="-22841">
		<tag k="name" v="Jotbekken" />
		<tag k="ssr:stedsnr" v="965335" />
		<tag k="waterway" v="stream" />
	</node>
	<node lat="62.502402779667456" lon="11.02901389777359" id="-22852">
		<tag k="alt_name" v="Storhåen" />
		<tag k="name" v="Stor-Håa" />
		<tag k="natural" v="water" />
		<tag k="ssr:stedsnr" v="965690" />
		<tag k="water" v="lake" />
	</node>
	<node lat="62.65735277929819" lon="10.888330557298191" id="-22866">
		<tag k="name" v="Mullbekken" />
		<tag k="ssr:stedsnr" v="12224" />
		<tag k="waterway" v="stream" />
	</node>
	<node lat="62.5865749982127" lon="10.94242777869756" id="-22871">
		<tag k="name" v="Tverrelva" />
		<tag k="ssr:stedsnr" v="11352" />
		<tag k="waterway" v="river" />
	</node>
	<node lat="62.36123055339875" lon="11.672966675939028" id="-22875">
		<tag k="name" v="Kattugletjønna" />
		<tag k="natural" v="water" />
		<tag k="ssr:stedsnr" v="11419" />
	</node>
	<node lat="62.35174444109145" lon="11.686580549472913" id="-22877">
		<tag k="name" v="Brattfalltjønna" />
		<tag k="natural" v="water" />
		<tag k="ssr:stedsnr" v="11458" />
	</node>
	<node lat="62.28410833489269" lon="11.630025006925294" id="-22885">
		<tag k="alt_name" v="Bjørnbekken, store;Store Bjørnbekken" />
		<tag k="name" v="Store Bjørbekken" />
		<tag k="ssr:stedsnr" v="12466" />
		<tag k="waterway" v="stream" />
	</node>
	<node lat="62.37398889299562" lon="11.52113610687169" id="-22889">
		<tag k="name" v="Nedre Harrbekktjønna" />
		<tag k="natural" v="water" />
		<tag k="ssr:stedsnr" v="12413" />
	</node>
	<node lat="62.51994166652421" lon="11.114858333308334" id="-22892">
		<tag k="name" v="Rybekken" />
		<tag k="ssr:stedsnr" v="49214" />
		<tag k="waterway" v="stream" />
	</node>
	<node lat="62.239966664458926" lon="11.716772218044909" id="-22897">
		<tag k="name" v="Nordre Litjåa" />
		<tag k="ssr:stedsnr" v="53135" />
		<tag k="waterway" v="stream" />
	</node>
	<node lat="62.163816663662445" lon="11.83004166001322" id="-22900">
		<tag k="name" v="Kløvstenskjæret" />
		<tag k="place" v="islet" />
		<tag k="ssr:stedsnr" v="54224" />
	</node>
	<node lat="62.34138055191565" lon="11.717094435772887" id="-22902">
		<tag k="name" v="Trettmyrbekken" />
		<tag k="ssr:stedsnr" v="54229" />
		<tag k="waterway" v="stream" />
	</node>
	<node lat="62.50455555795518" lon="11.006136120062028" id="-22907">
		<tag k="name" v="Vestre Langsåstjønna" />
		<tag k="natural" v="water" />
		<tag k="ssr:stedsnr" v="54634" />
	</node>
	<node lat="62.629158330351885" lon="11.097711110882342" id="-22911">
		<tag k="name" v="Høsbekken" />
		<tag k="ssr:stedsnr" v="54814" />
		<tag k="waterway" v="stream" />
	</node>
	<node lat="62.59838333207032" lon="11.097908326716606" id="-22913">
		<tag k="name" v="Lomtjønna" />
		<tag k="natural" v="water" />
		<tag k="ssr:stedsnr" v="54936" />
	</node>
	<node lat="62.26853610955595" lon="11.759999994445637" id="-22915">
		<tag k="name" v="Bjørbekken" />
		<tag k="ssr:stedsnr" v="55039" />
		<tag k="waterway" v="stream" />
	</node>
	<node lat="62.22155833468569" lon="11.806952776749817" id="-22921">
		<tag k="name" v="Kroken" />
		<tag k="place" v="locality" />
		<tag k="ssr:stedsnr" v="55084" />
	</node>
	<node lat="62.43805555977488" lon="11.459447219156326" id="-22934">
		<tag k="name" v="Lokan" />
		<tag k="natural" v="water" />
		<tag k="ssr:stedsnr" v="55694" />
	</node>
	<node lat="62.49950832919538" lon="11.047338891665756" id="-22939">
		<tag k="name" v="Litjtjønnbekken" />
		<tag k="ssr:stedsnr" v="55663" />
		<tag k="waterway" v="stream" />
	</node>
	<node lat="62.364061107329576" lon="11.461802783030086" id="-22941">
		<tag k="name" v="Litjsundtjønna" />
		<tag k="natural" v="water" />
		<tag k="ssr:stedsnr" v="55944" />
	</node>
	<node lat="62.35080833307366" lon="11.483333332902793" id="-22942">
		<tag k="name" v="Litjøra" />
		<tag k="place" v="islet" />
		<tag k="ssr:stedsnr" v="55951" />
	</node>
	<node lat="62.361933331055184" lon="11.468355553239405" id="-22946">
		<tag k="fixme" v="multiple name tags, choose one and add the other to alt_name" />
		<tag k="name" v="Sundtjørna;Sundtjønna" />
		<tag k="natural" v="water" />
		<tag k="ssr:stedsnr" v="73416" />
	</node>
	<node lat="62.36909444128497" lon="11.476616657972986" id="-22947">
		<tag k="name" v="Langhåen" />
		<tag k="natural" v="water" />
		<tag k="ssr:stedsnr" v="73418" />
	</node>
	<node lat="62.357350001392874" lon="11.615480554042028" id="-22948">
		<tag k="name" v="Ytre Raudtjønnan" />
		<tag k="natural" v="water" />
		<tag k="ssr:stedsnr" v="73430" />
		<tag k="water" v="lake" />
	</node>
	<node lat="62.57016944771425" lon="11.085411105468834" id="-22957">
		<tag k="name" v="Langryåsbekken" />
		<tag k="ssr:stedsnr" v="72113" />
		<tag k="waterway" v="stream" />
	</node>
	<node lat="62.63794999575135" lon="10.824552769192113" id="-22960">
		<tag k="name" v="Robekken" />
		<tag k="ssr:stedsnr" v="72200" />
		<tag k="waterway" v="stream" />
	</node>
	<node lat="62.68856366728832" lon="10.930043398426962" id="-22961">
		<tag k="name" v="Dalbusjøen" />
		<tag k="natural" v="water" />
		<tag k="ssr:stedsnr" v="72227" />
		<tag k="water" v="lake" />
	</node>
	<node lat="62.14799166680489" lon="11.841469453217082" id="-22962">
		<tag k="name" v="Hestholmen" />
		<tag k="place" v="islet" />
		<tag k="ssr:stedsnr" v="72347" />
	</node>
	<node lat="62.3979277764734" lon="11.370574997738627" id="-22963">
		<tag k="fixme" v="multiple name tags, choose one and add the other to alt_name" />
		<tag k="name" v="Jopolsatjørna;Jopålsatjønna" />
		<tag k="natural" v="water" />
		<tag k="ssr:stedsnr" v="72361" />
	</node>
	<node lat="62.405750002139804" lon="11.451205546410325" id="-22964">
		<tag k="name" v="Skinnarengbekken" />
		<tag k="ssr:stedsnr" v="72363" />
		<tag k="waterway" v="stream" />
	</node>
	<node lat="62.33982500003282" lon="11.704624997198584" id="-22969">
		<tag k="name" v="Engbekken" />
		<tag k="ssr:stedsnr" v="72439" />
		<tag k="waterway" v="stream" />
	</node>
	<node lat="62.28454166671868" lon="11.62028333909097" id="-22970">
		<tag k="alt_name" v="Vesle Bjørnbekken" />
		<tag k="name" v="Vesle Bjørbekken" />
		<tag k="ssr:stedsnr" v="72450" />
		<tag k="waterway" v="stream" />
	</node>
	<node lat="62.28218333474101" lon="11.764641660488815" id="-22973">
		<tag k="name" v="Sagbekken" />
		<tag k="ssr:stedsnr" v="72551" />
		<tag k="waterway" v="stream" />
	</node>
	<node lat="62.35853043013844" lon="11.628196289861211" id="-22982">
		<tag k="name" v="Svartstotjønnan" />
		<tag k="natural" v="water" />
		<tag k="ssr:stedsnr" v="81443" />
		<tag k="water" v="lake" />
	</node>
	<node lat="62.49182675157856" lon="11.027927180633217" id="-22989">
		<tag k="name" v="Svartloken" />
		<tag k="natural" v="water" />
		<tag k="ssr:stedsnr" v="115039" />
	</node>
	<node lat="62.49451944283743" lon="11.135650003863908" id="-22999">
		<tag k="name" v="Mosengtjønna" />
		<tag k="natural" v="water" />
		<tag k="ssr:stedsnr" v="115170" />
	</node>
	<node lat="62.24743333789826" lon="11.772552774255118" id="-23001">
		<tag k="name" v="Planloken" />
		<tag k="natural" v="water" />
		<tag k="ssr:stedsnr" v="115055" />
	</node>
	<node lat="62.252811113482885" lon="11.752069443593502" id="-23003">
		<tag k="name" v="Nykloppbekken" />
		<tag k="ssr:stedsnr" v="115063" />
		<tag k="waterway" v="stream" />
	</node>
	<node lat="62.51965833521148" lon="11.162133326268206" id="-23011">
		<tag k="name" v="Brubekken" />
		<tag k="ssr:stedsnr" v="115197" />
		<tag k="waterway" v="stream" />
	</node>
	<node lat="62.541288884671914" lon="11.033183336335352" id="-23016">
		<tag k="name" v="Brennvolltjønna" />
		<tag k="natural" v="water" />
		<tag k="ssr:stedsnr" v="115580" />
	</node>
	<node lat="62.50195278001125" lon="11.049499995516037" id="-23018">
		<tag k="name" v="Litjtjønna" />
		<tag k="natural" v="water" />
		<tag k="ssr:stedsnr" v="115652" />
	</node>
	<node lat="62.454127774057895" lon="11.379999997164544" id="-23025">
		<tag k="name" v="Nylendodden" />
		<tag k="natural" v="cape" />
		<tag k="ssr:stedsnr" v="115697" />
	</node>
	<node lat="62.16487499997063" lon="11.816549998476564" id="-23027">
		<tag k="name" v="Djuphølet" />
		<tag k="natural" v="water" />
		<tag k="ssr:stedsnr" v="115929" />
		<tag k="water" v="pond" />
	</node>
	<node lat="62.18596944484249" lon="11.750677775552099" id="-23030">
		<tag k="name" v="Kvenna" />
		<tag k="ssr:stedsnr" v="120847" />
		<tag k="waterway" v="river" />
	</node>
	<node lat="62.474733336293205" lon="11.02423055622853" id="-23034">
		<tag k="name" v="Seljåstjønna" />
		<tag k="natural" v="water" />
		<tag k="ssr:stedsnr" v="132050" />
	</node>
	<node lat="62.47825465353549" lon="11.318669899701561" id="-23044">
		<tag k="alt_name" v="Langtjørna" />
		<tag k="name" v="Langtjønna" />
		<tag k="natural" v="water" />
		<tag k="ssr:stedsnr" v="132353" />
	</node>
	<node lat="62.64575277377208" lon="10.838027768170116" id="-23056">
		<tag k="name" v="Østerbekken" />
		<tag k="ssr:stedsnr" v="133186" />
		<tag k="waterway" v="stream" />
	</node>
	<node lat="62.160058333251676" lon="11.8288861060663" id="-23058">
		<tag k="name" v="Nordre Jotbuholmen" />
		<tag k="place" v="islet" />
		<tag k="ssr:stedsnr" v="141454" />
	</node>
	<node lat="62.17243611544804" lon="11.825033330054922" id="-23059">
		<tag k="name" v="Risodden" />
		<tag k="natural" v="cape" />
		<tag k="ssr:stedsnr" v="141455" />
	</node>
	<node lat="62.548922225760776" lon="11.197005551775083" id="-23062">
		<tag k="name" v="Sjøbekken" />
		<tag k="ssr:stedsnr" v="175039" />
		<tag k="waterway" v="stream" />
	</node>
	<node lat="62.32901389225199" lon="11.73001944511068" id="-23067">
		<tag k="name" v="Nordre Småbekken" />
		<tag k="ssr:stedsnr" v="175181" />
		<tag k="waterway" v="stream" />
	</node>
	<node lat="62.17946388532113" lon="11.832708328121226" id="-23068">
		<tag k="name" v="Grønnland" />
		<tag k="natural" v="cape" />
		<tag k="ssr:stedsnr" v="175196" />
	</node>
	<node lat="62.29496944600956" lon="11.73115277291896" id="-23071">
		<tag k="name" v="Siksjøåa" />
		<tag k="ssr:stedsnr" v="175238" />
		<tag k="waterway" v="river" />
	</node>
	<node lat="62.345855552187075" lon="11.499325002925422" id="-23075">
		<tag k="name" v="Abborodden" />
		<tag k="natural" v="cape" />
		<tag k="ssr:stedsnr" v="175497" />
	</node>
	<node lat="62.53761388488915" lon="11.001749999975253" id="-23078">
		<tag k="name" v="Nordre Flovollbekken" />
		<tag k="ssr:stedsnr" v="175670" />
		<tag k="waterway" v="stream" />
	</node>
	<node lat="62.195469441947" lon="11.80951389673431" id="-23085">
		<tag k="name" v="Vassholmen" />
		<tag k="place" v="islet" />
		<tag k="ssr:stedsnr" v="176115" />
	</node>
	<node lat="62.34497777777863" lon="11.58428055951629" id="-23091">
		<tag k="name" v="Hollelva" />
		<tag k="ssr:stedsnr" v="176291" />
		<tag k="waterway" v="river" />
	</node>
	<node lat="62.49881388701803" lon="11.22675000067685" id="-23099">
		<tag k="name" v="Storholmen" />
		<tag k="place" v="islet" />
		<tag k="ssr:stedsnr" v="176529" />
	</node>
	<node lat="62.46851110684143" lon="11.372641670046407" id="-23104">
		<tag k="name" v="Storbekken" />
		<tag k="ssr:stedsnr" v="176737" />
		<tag k="waterway" v="stream" />
	</node>
	<node lat="62.35489722221373" lon="11.462116665269924" id="-23114">
		<tag k="name" v="Bubekken" />
		<tag k="ssr:stedsnr" v="176937" />
		<tag k="waterway" v="stream" />
	</node>
	<node lat="62.49215277837487" lon="11.0019416610603" id="-23119">
		<tag k="name" v="Langen" />
		<tag k="natural" v="water" />
		<tag k="ssr:stedsnr" v="193039" />
		<tag k="water" v="lake" />
	</node>
	<node lat="62.604155556277526" lon="10.974561115523466" id="-23122">
		<tag k="alt_name" v="Litjtverrelva" />
		<tag k="name" v="Litltverrelva" />
		<tag k="ssr:stedsnr" v="193165" />
		<tag k="waterway" v="stream" />
	</node>
	<node lat="62.51337500419415" lon="11.305597224097053" id="-23125">
		<tag k="name" v="Kvernbekken" />
		<tag k="ssr:stedsnr" v="193319" />
		<tag k="waterway" v="stream" />
	</node>
	<node lat="62.33010555194068" lon="11.561219451740762" id="-23128">
		<tag k="fixme" v="multiple name tags, choose one and add the other to alt_name" />
		<tag k="name" v="Gjeddetjørna;Gjeddtjønna" />
		<tag k="natural" v="water" />
		<tag k="ssr:stedsnr" v="193461" />
	</node>
	<node lat="62.2401583365091" lon="11.698597224115748" id="-23130">
		<tag k="alt_name" v="Litjåa" />
		<tag k="name" v="Litleåa" />
		<tag k="ssr:stedsnr" v="193471" />
		<tag k="waterway" v="stream" />
	</node>
	<node lat="62.47015000347215" lon="11.347025000202555" id="-23132">
		<tag k="alt_name" v="Storhåen" />
		<tag k="name" v="Høen" />
		<tag k="natural" v="water" />
		<tag k="ssr:stedsnr" v="193370" />
	</node>
	<node lat="62.552397225165784" lon="11.245163897563513" id="-23141">
		<tag k="name" v="Lomtjønna" />
		<tag k="natural" v="water" />
		<tag k="ssr:stedsnr" v="193617" />
	</node>
	<node lat="62.5039527816506" lon="10.993388884824231" id="-23143">
		<tag k="name" v="Storbekken" />
		<tag k="ssr:stedsnr" v="193749" />
		<tag k="waterway" v="stream" />
	</node>
	<node lat="62.50358333442923" lon="11.032150000823838" id="-23144">
		<tag k="name" v="Langsåa" />
		<tag k="ssr:stedsnr" v="193765" />
		<tag k="waterway" v="river" />
	</node>
	<node lat="62.52699999854253" lon="10.973491659397158" id="-23148">
		<tag k="fixme" v="multiple name tags, choose one and add the other to alt_name" />
		<tag k="name" v="Litldjupsjøbekken;Nordervollbekken" />
		<tag k="ssr:stedsnr" v="193862" />
		<tag k="waterway" v="stream" />
	</node>
	<node lat="62.641333330399405" lon="11.052888880189998" id="-23156">
		<tag k="alt_name" v="Litjøybekken" />
		<tag k="name" v="Litløybekken" />
		<tag k="ssr:stedsnr" v="194191" />
		<tag k="waterway" v="stream" />
	</node>
	<node lat="62.27743055871287" lon="11.701313883995889" id="-23161">
		<tag k="name" v="Røstbekken" />
		<tag k="ssr:stedsnr" v="194416" />
		<tag k="waterway" v="stream" />
	</node>
	<node lat="62.553955552973584" lon="11.01848332347733" id="-23166">
		<tag k="name" v="Nyvollbekken" />
		<tag k="ssr:stedsnr" v="194817" />
		<tag k="waterway" v="stream" />
	</node>
	<node lat="62.2401583365091" lon="11.698597224115748" id="-23169">
		<tag k="name" v="Litlåkroken" />
		<tag k="ssr:stedsnr" v="210836" />
		<tag k="waterway" v="stream" />
	</node>
	<node lat="62.343466668138774" lon="11.528025001447213" id="-23176">
		<tag k="name" v="Gammelløbekken" />
		<tag k="ssr:stedsnr" v="297255" />
		<tag k="waterway" v="stream" />
	</node>
	<node lat="62.32925277531894" lon="11.700158340861801" id="-23184">
		<tag k="name" v="Kvenntjønna" />
		<tag k="natural" v="water" />
		<tag k="ssr:stedsnr" v="297292" />
	</node>
	<node lat="62.48578611107152" lon="11.1899499917194" id="-23194">
		<tag k="name" v="Hølbekken" />
		<tag k="ssr:stedsnr" v="297188" />
		<tag k="waterway" v="stream" />
	</node>
	<node lat="62.48470000245077" lon="11.174224999270836" id="-23197">
		<tag k="name" v="Letestrand" />
		<tag k="natural" v="beach" />
		<tag k="ssr:stedsnr" v="297194" />
	</node>
	<node lat="62.47349721900599" lon="11.33108888029239" id="-23205">
		<tag k="name" v="Høshåen" />
		<tag k="place" v="locality" />
		<tag k="ssr:stedsnr" v="297488" />
	</node>
	<node lat="62.48816388790142" lon="11.235919445609662" id="-23208">
		<tag k="name" v="Litjmyrbekken" />
		<tag k="ssr:stedsnr" v="297546" />
		<tag k="waterway" v="stream" />
	</node>
	<node lat="62.541138887522166" lon="10.988608335813847" id="-23212">
		<tag k="name" v="Sandtjønna" />
		<tag k="natural" v="water" />
		<tag k="ssr:stedsnr" v="297588" />
	</node>
	<node lat="62.53518333567633" lon="11.068922216331087" id="-23214">
		<tag k="name" v="Åsloken" />
		<tag k="natural" v="water" />
		<tag k="ssr:stedsnr" v="297599" />
	</node>
	<node lat="62.41072499837389" lon="11.49050277436007" id="-23221">
		<tag k="name" v="Krokettjønna" />
		<tag k="natural" v="water" />
		<tag k="ssr:stedsnr" v="297764" />
	</node>
	<node lat="62.59882222032096" lon="11.110819445138915" id="-23226">
		<tag k="name" v="Tjønnbekken" />
		<tag k="ssr:stedsnr" v="297940" />
		<tag k="waterway" v="stream" />
	</node>
	<node lat="62.36535277437665" lon="11.476747231449728" id="-23228">
		<tag k="name" v="Narøset" />
		<tag k="natural" v="bay" />
		<tag k="ssr:stedsnr" v="297952" />
	</node>
	<node lat="62.505580554807025" lon="11.00985556366066" id="-23236">
		<tag k="name" v="Østre Langsåstjønna" />
		<tag k="natural" v="water" />
		<tag k="ssr:stedsnr" v="314765" />
	</node>
	<node lat="62.289816670439734" lon="11.603886115353204" id="-23243">
		<tag k="alt_name" v="Veslenøra" />
		<tag k="name" v="Litjnøra" />
		<tag k="ssr:stedsnr" v="315454" />
		<tag k="waterway" v="stream" />
	</node>
	<node lat="62.27185779210363" lon="11.64788569308325" id="-23244">
		<tag k="alt_name" v="Brattfalltjørna" />
		<tag k="name" v="Brattfalltjønna" />
		<tag k="natural" v="water" />
		<tag k="ssr:stedsnr" v="315466" />
	</node>
	<node lat="62.33171944499079" lon="11.662513894879453" id="-23248">
		<tag k="name" v="Erlibekken" />
		<tag k="ssr:stedsnr" v="315423" />
		<tag k="waterway" v="stream" />
	</node>
	<node lat="62.27352499997476" lon="11.567202781303534" id="-23251">
		<tag k="name" v="Tynsetbekken" />
		<tag k="ssr:stedsnr" v="315727" />
		<tag k="waterway" v="stream" />
	</node>
	<node lat="62.198503633718204" lon="11.799079174979097" id="-23256">
		<tag k="name" v="Litlåbutjønna" />
		<tag k="natural" v="water" />
		<tag k="ssr:stedsnr" v="324445" />
		<tag k="water" v="lake" />
	</node>
	<node lat="62.30596113356823" lon="11.733954634020115" id="-23263">
		<tag k="name" v="Haugstjønna" />
		<tag k="natural" v="water" />
		<tag k="ssr:stedsnr" v="357233" />
	</node>
	<node lat="62.5624416704843" lon="11.089947220282117" id="-23271">
		<tag k="name" v="Grønnbekken" />
		<tag k="ssr:stedsnr" v="357440" />
		<tag k="waterway" v="stream" />
	</node>
	<node lat="62.32648888576572" lon="11.56177776921066" id="-23272">
		<tag k="name" v="Storhølbekken" />
		<tag k="ssr:stedsnr" v="358275" />
		<tag k="waterway" v="stream" />
	</node>
	<node lat="62.53082777809992" lon="11.201108330322956" id="-23276">
		<tag k="alt_name" v="Kvernbekken" />
		<tag k="name" v="Kvennbekken" />
		<tag k="ssr:stedsnr" v="358163" />
		<tag k="waterway" v="stream" />
	</node>
	<node lat="62.43241666788033" lon="11.11190833748091" id="-23285">
		<tag k="name" v="Småvollfossen" />
		<tag k="natural" v="waterfall" />
		<tag k="ssr:stedsnr" v="358538" />
	</node>
	<node lat="62.351925003459165" lon="11.469072225613193" id="-23294">
		<tag k="name" v="Kjerkvika" />
		<tag k="natural" v="bay" />
		<tag k="ssr:stedsnr" v="358932" />
	</node>
	<node lat="62.35808889067416" lon="11.486008325232515" id="-23296">
		<tag k="name" v="Langsanden" />
		<tag k="natural" v="beach" />
		<tag k="ssr:stedsnr" v="358945" />
	</node>
	<node lat="62.474455558248444" lon="11.223786119334658" id="-23298">
		<tag k="name" v="Kvernbekken" />
		<tag k="ssr:stedsnr" v="375044" />
		<tag k="waterway" v="stream" />
	</node>
	<node lat="62.49721944455263" lon="11.033463891187962" id="-23299">
		<tag k="name" v="Stortjønn" />
		<tag k="natural" v="water" />
		<tag k="ssr:stedsnr" v="375013" />
	</node>
	<node lat="62.56278055425453" lon="10.901436104931744" id="-23304">
		<tag k="name" v="Storbekken" />
		<tag k="ssr:stedsnr" v="375322" />
		<tag k="waterway" v="stream" />
	</node>
	<node lat="62.67162500413591" lon="10.941149994234284" id="-23305">
		<tag k="name" v="Bubekken" />
		<tag k="ssr:stedsnr" v="375323" />
		<tag k="waterway" v="stream" />
	</node>
	<node lat="62.13898888884483" lon="11.83029722189612" id="-23306">
		<tag k="name" v="Lauvholman" />
		<tag k="place" v="islet" />
		<tag k="ssr:stedsnr" v="375327" />
	</node>
	<node lat="62.339033331805126" lon="11.674044453958105" id="-23309">
		<tag k="alt_name" v="Krabbtjørna" />
		<tag k="name" v="Krabbtjønna" />
		<tag k="natural" v="water" />
		<tag k="ssr:stedsnr" v="375422" />
	</node>
	<node lat="62.448599998593785" lon="11.469586116914835" id="-23312">
		<tag k="name" v="Litlrøbekken" />
		<tag k="ssr:stedsnr" v="375359" />
		<tag k="waterway" v="stream" />
	</node>
	<node lat="62.42846110682311" lon="11.391511105507933" id="-23314">
		<tag k="name" v="Sagbekken" />
		<tag k="ssr:stedsnr" v="375371" />
		<tag k="waterway" v="stream" />
	</node>
	<node lat="62.27950833267671" lon="11.75117221535993" id="-23317">
		<tag k="name" v="Buoddtjønna" />
		<tag k="natural" v="water" />
		<tag k="ssr:stedsnr" v="375626" />
	</node>
	<node lat="62.53781388689352" lon="11.05367221395899" id="-23322">
		<tag k="name" v="Blæstertjønna" />
		<tag k="natural" v="water" />
		<tag k="ssr:stedsnr" v="375840" />
	</node>
	<node lat="62.34252777485377" lon="11.728713886342003" id="-23336">
		<tag k="name" v="Lerbekkloken" />
		<tag k="natural" v="water" />
		<tag k="ssr:stedsnr" v="418214" />
	</node>
	<node lat="62.25441110718969" lon="11.76236389603378" id="-23338">
		<tag k="name" v="Sigridloken" />
		<tag k="natural" v="water" />
		<tag k="ssr:stedsnr" v="419068" />
	</node>
	<node lat="62.55737222143983" lon="11.038522226267162" id="-23348">
		<tag k="name" v="Brevadfossen" />
		<tag k="natural" v="waterfall" />
		<tag k="ssr:stedsnr" v="418513" />
	</node>
	<node lat="62.333344446434644" lon="11.499736103202645" id="-23352">
		<tag k="name" v="Skjervikåsen" />
		<tag k="natural" v="cape" />
		<tag k="ssr:stedsnr" v="418472" />
	</node>
	<node lat="62.34209722013032" lon="11.532372212572808" id="-23353">
		<tag k="name" v="Lokan" />
		<tag k="natural" v="water" />
		<tag k="ssr:stedsnr" v="418478" />
	</node>
	<node lat="62.18385833540458" lon="11.822038892317947" id="-23364">
		<tag k="name" v="Sætersøvja" />
		<tag k="natural" v="bay" />
		<tag k="ssr:stedsnr" v="419119" />
	</node>
	<node lat="62.32974444725697" lon="11.551469450200463" id="-23369">
		<tag k="name" v="Gjeddtjønnbekken" />
		<tag k="ssr:stedsnr" v="419254" />
		<tag k="waterway" v="stream" />
	</node>
	<node lat="62.321777782012745" lon="11.558849997222696" id="-23371">
		<tag k="name" v="Øvre Nyløtjønna" />
		<tag k="natural" v="water" />
		<tag k="ssr:stedsnr" v="419283" />
	</node>
	<node lat="60.93943888528743" lon="11.516244438964907" id="-23383">
		<tag k="fixme" v="multiple name tags, choose one and add the other to alt_name" />
		<tag k="name" v="Glåma;Glomma" />
		<tag k="ssr:stedsnr" v="426301" />
		<tag k="waterway" v="river" />
	</node>
	<node lat="62.58504167095561" lon="10.890549994897057" id="-23389">
		<tag k="name" v="Skiftbekken" />
		<tag k="ssr:stedsnr" v="436135" />
		<tag k="waterway" v="stream" />
	</node>
	<node lat="62.64328055604149" lon="11.127075006382029" id="-23391">
		<tag k="alt_name" v="Kjurrua" />
		<tag k="name" v="Tjurua" />
		<tag k="ssr:stedsnr" v="436190" />
		<tag k="waterway" v="river" />
	</node>
	<node lat="62.642536112210514" lon="10.935555547595698" id="-23392">
		<tag k="name" v="Haugsbekken" />
		<tag k="ssr:stedsnr" v="436193" />
		<tag k="waterway" v="stream" />
	</node>
	<node lat="62.65493333299162" lon="10.926177785562613" id="-23393">
		<tag k="name" v="Kroktjønna" />
		<tag k="natural" v="water" />
		<tag k="ssr:stedsnr" v="436198" />
	</node>
	<node lat="62.18981111100114" lon="11.812466658246699" id="-23394">
		<tag k="name" v="Vestre Tjønnan" />
		<tag k="natural" v="bay" />
		<tag k="ssr:stedsnr" v="436298" />
	</node>
	<node lat="62.59299166432778" lon="10.805880554071909" id="-23398">
		<tag k="name" v="Tverrfjellbekken" />
		<tag k="ssr:stedsnr" v="436342" />
		<tag k="waterway" v="stream" />
	</node>
	<node lat="62.38720277790396" lon="11.52839999279066" id="-23400">
		<tag k="name" v="Øvre Harrbekktjønna" />
		<tag k="natural" v="water" />
		<tag k="ssr:stedsnr" v="436396" />
	</node>
	<node lat="62.29038888524404" lon="11.680897224811044" id="-23402">
		<tag k="name" v="Søndre Langtjønna" />
		<tag k="natural" v="water" />
		<tag k="ssr:stedsnr" v="436447" />
	</node>
	<node lat="62.54461110942493" lon="11.182847217499758" id="-23405">
		<tag k="name" v="Sæterlitjønna" />
		<tag k="natural" v="water" />
		<tag k="ssr:stedsnr" v="436831" />
	</node>
	<node lat="62.53157500039924" lon="11.023752785250867" id="-23407">
		<tag k="name" v="Storflotjønna" />
		<tag k="natural" v="water" />
		<tag k="ssr:stedsnr" v="436847" />
	</node>
	<node lat="62.48559999883714" lon="11.022230550395875" id="-23415">
		<tag k="name" v="Svarttjønn" />
		<tag k="natural" v="water" />
		<tag k="ssr:stedsnr" v="496044" />
	</node>
	<node lat="62.45396944758095" lon="11.330299994707863" id="-23416">
		<tag k="name" v="Håvollbekken" />
		<tag k="ssr:stedsnr" v="496380" />
		<tag k="waterway" v="stream" />
	</node>
	<node lat="62.13988611399767" lon="11.821091662682992" id="-23417">
		<tag k="name" v="Nålodden" />
		<tag k="natural" v="cape" />
		<tag k="ssr:stedsnr" v="496394" />
	</node>
	<node lat="62.45288333299631" lon="11.432808331733973" id="-23422">
		<tag k="name" v="Røbekken" />
		<tag k="ssr:stedsnr" v="497347" />
		<tag k="waterway" v="river" />
	</node>
	<node lat="62.36018611436203" lon="11.734586113975885" id="-23423">
		<tag k="name" v="Tverrflena" />
		<tag k="ssr:stedsnr" v="496628" />
		<tag k="waterway" v="stream" />
	</node>
	<node lat="61.99590833509974" lon="11.899955563025404" id="-23428">
		<tag k="name" v="Femunden" />
		<tag k="natural" v="water" />
		<tag k="ssr:stedsnr" v="496891" />
		<tag k="water" v="lake" />
	</node>
	<node lat="62.56503055241027" lon="11.188933324819086" id="-23429">
		<tag k="name" v="Sætersjøen" />
=======
<osm generator="osmapis" version="0.6">
	<node id="-358400" lat="62.5963000041" lon="11.1750277809">
		<tag k="name" v="Sandbekken" />
		<tag k="ssr:stedsnr" v="800174" />
		<tag k="waterway" v="stream" />
	</node>
	<node id="-358399" lat="62.6005027733" lon="10.8814666714">
		<tag k="name" v="Snudda" />
		<tag k="ssr:stedsnr" v="800163" />
		<tag k="waterway" v="river" />
	</node>
	<node id="-358394" lat="62.564063887" lon="10.9270666658">
		<tag k="name" v="Skarva" />
		<tag k="ssr:stedsnr" v="922784" />
		<tag k="waterway" v="stream" />
	</node>
	<node id="-358386" lat="62.3084052437" lon="11.6294155403">
		<tag k="name" v="Nordre Langtjønna" />
		<tag k="natural" v="water" />
		<tag k="ssr:stedsnr" v="922440" />
		<tag k="water" v="lake" />
	</node>
	<node id="-358383" lat="62.42364295" lon="11.3525800019">
		<tag k="alt_name" v="Sagbekktjørnane" />
		<tag k="loc_name" v="Sjurstjønnan" />
		<tag k="name" v="Sagbekktjønnan" />
		<tag k="natural" v="water" />
		<tag k="ssr:stedsnr" v="922352" />
		<tag k="water" v="lake" />
	</node>
	<node id="-358370" lat="62.3377499959" lon="11.4528249957">
		<tag k="alt_name" v="Sandmælbekken" />
		<tag k="name" v="Sandmelbekken" />
		<tag k="ssr:stedsnr" v="921491" />
		<tag k="waterway" v="stream" />
	</node>
	<node id="-358369" lat="62.353661113" lon="11.4753055521">
		<tag k="name" v="Narsjøen" />
		<tag k="natural" v="water" />
		<tag k="ssr:stedsnr" v="921453" />
		<tag k="water" v="lake" />
	</node>
	<node id="-358362" lat="62.6134194473" lon="11.1146861197">
		<tag k="alt_name" v="Hanksjøen, nørdre;Nordre Hanksjøen" />
		<tag k="name" v="Nørdre Hanksjøen" />
		<tag k="natural" v="water" />
		<tag k="ssr:stedsnr" v="921194" />
		<tag k="water" v="lake" />
	</node>
	<node id="-358359" lat="62.5669166679" lon="11.0108916626">
		<tag k="name" v="Bjønndalsbekken" />
		<tag k="ssr:stedsnr" v="782504" />
		<tag k="waterway" v="stream" />
	</node>
	<node id="-358357" lat="62.5964888856" lon="10.8564277714">
		<tag k="name" v="Svartbekken" />
		<tag k="ssr:stedsnr" v="921173" />
		<tag k="waterway" v="stream" />
	</node>
	<node id="-358353" lat="62.1582388917" lon="11.8308361055">
		<tag k="name" v="Søndre Jotbuholmen" />
		<tag k="place" v="islet" />
		<tag k="ssr:stedsnr" v="748453" />
	</node>
	<node id="-358348" lat="62.5091999964" lon="11.293891676">
		<tag k="name" v="Myrbekken" />
		<tag k="ssr:stedsnr" v="740509" />
		<tag k="waterway" v="stream" />
	</node>
	<node id="-358337" lat="62.5135250031" lon="11.0216166715">
		<tag k="name" v="Kroktjønna" />
		<tag k="natural" v="water" />
		<tag k="ssr:stedsnr" v="739764" />
	</node>
	<node id="-358333" lat="62.3424611096" lon="11.6455416633">
		<tag k="alt_name" v="Fjordungstjørna" />
		<tag k="name" v="Fjordungstjønna" />
		<tag k="natural" v="water" />
		<tag k="ssr:stedsnr" v="739460" />
	</node>
	<node id="-358332" lat="62.6003444482" lon="11.1455527872">
		<tag k="name" v="Djupskårrbekken" />
		<tag k="ssr:stedsnr" v="904948" />
		<tag k="waterway" v="stream" />
	</node>
	<node id="-358330" lat="62.6079000019" lon="11.1088361039">
		<tag k="name" v="Gammelsæterelva" />
		<tag k="ssr:stedsnr" v="904942" />
		<tag k="waterway" v="river" />
	</node>
	<node id="-358327" lat="62.3049861091" lon="11.4526972311">
		<tag k="name" v="Kvilbekken" />
		<tag k="ssr:stedsnr" v="904648" />
		<tag k="waterway" v="stream" />
	</node>
	<node id="-358307" lat="62.2363027752" lon="11.7730888895">
		<tag k="name" v="Odden" />
		<tag k="natural" v="cape" />
		<tag k="ssr:stedsnr" v="904092" />
	</node>
	<node id="-358304" lat="62.4787194442" lon="11.125852775">
		<tag k="name" v="Øverloken" />
		<tag k="natural" v="water" />
		<tag k="ssr:stedsnr" v="904350" />
	</node>
	<node id="-358302" lat="62.3267194463" lon="11.5501500072">
		<tag k="name" v="Kroken" />
		<tag k="place" v="locality" />
		<tag k="ssr:stedsnr" v="904289" />
	</node>
	<node id="-358301" lat="62.3434972245" lon="11.559336116">
		<tag k="name" v="Bergeloken" />
		<tag k="natural" v="water" />
		<tag k="ssr:stedsnr" v="904273" />
	</node>
	<node id="-358297" lat="62.3496444464" lon="11.4972027846">
		<tag k="name" v="Fiskodden" />
		<tag k="natural" v="cape" />
		<tag k="ssr:stedsnr" v="903464" />
	</node>
	<node id="-358292" lat="62.3255472222" lon="11.7388138816">
		<tag k="name" v="Synnersmåbekken" />
		<tag k="ssr:stedsnr" v="903176" />
		<tag k="waterway" v="stream" />
	</node>
	<node id="-358286" lat="62.5185722223" lon="11.2383833244">
		<tag k="name" v="Springarbekken" />
		<tag k="ssr:stedsnr" v="722761" />
		<tag k="waterway" v="stream" />
	</node>
	<node id="-358279" lat="62.5057944439" lon="11.1458805502">
		<tag k="name" v="Sæterbekken" />
		<tag k="ssr:stedsnr" v="722214" />
		<tag k="waterway" v="stream" />
	</node>
	<node id="-358277" lat="62.520786109" lon="11.1396666696">
		<tag k="name" v="Kvernbekken" />
		<tag k="ssr:stedsnr" v="722203" />
		<tag k="waterway" v="stream" />
	</node>
	<node id="-358266" lat="62.4481055589" lon="11.3394777858">
		<tag k="name" v="Storbekken" />
		<tag k="ssr:stedsnr" v="679313" />
		<tag k="waterway" v="stream" />
	</node>
	<node id="-358262" lat="62.5964749978" lon="11.0682611125">
		<tag k="name" v="Storbekken" />
		<tag k="ssr:stedsnr" v="679157" />
		<tag k="waterway" v="stream" />
	</node>
	<node id="-358248" lat="62.4682250033" lon="11.3545888987">
		<tag k="name" v="Blæsterhåen" />
		<tag k="natural" v="water" />
		<tag k="ssr:stedsnr" v="661709" />
	</node>
	<node id="-358239" lat="62.3221416676" lon="11.5842833293">
		<tag k="name" v="Kjøllan" />
		<tag k="natural" v="spring" />
		<tag k="ssr:stedsnr" v="661307" />
	</node>
	<node id="-358223" lat="62.1667833352" lon="11.8204388871">
		<tag k="name" v="Kløvstenbekken" />
		<tag k="ssr:stedsnr" v="722938" />
		<tag k="waterway" v="stream" />
	</node>
	<node id="-358222" lat="62.5934249975" lon="11.1096777825">
		<tag k="name" v="Undliåsbekken" />
		<tag k="ssr:stedsnr" v="722930" />
		<tag k="waterway" v="stream" />
	</node>
	<node id="-358221" lat="62.5937500043" lon="11.1018583404">
		<tag k="name" v="Storvika" />
		<tag k="natural" v="bay" />
		<tag k="ssr:stedsnr" v="722928" />
	</node>
	<node id="-358202" lat="62.5336779972" lon="10.9524565687">
		<tag k="name" v="Litldjupsjøen" />
		<tag k="natural" v="water" />
		<tag k="ssr:stedsnr" v="618833" />
	</node>
	<node id="-358201" lat="62.5429194465" lon="10.9823666735">
		<tag k="name" v="Langtjønna" />
		<tag k="natural" v="water" />
		<tag k="ssr:stedsnr" v="618816" />
	</node>
	<node id="-358197" lat="62.3078777789" lon="11.6078416651">
		<tag k="name" v="Sæterbekken" />
		<tag k="ssr:stedsnr" v="722342" />
		<tag k="waterway" v="stream" />
	</node>
	<node id="-358192" lat="62.3401861095" lon="11.608694441">
		<tag k="name" v="Stenrøstbekken" />
		<tag k="ssr:stedsnr" v="722311" />
		<tag k="waterway" v="stream" />
	</node>
	<node id="-358190" lat="62.3775194459" lon="11.4654750096">
		<tag k="name" v="Storhåen" />
		<tag k="natural" v="water" />
		<tag k="ssr:stedsnr" v="618410" />
	</node>
	<node id="-358189" lat="62.3873194458" lon="11.3658666719">
		<tag k="alt_name" v="Galåtjørna" />
		<tag k="name" v="Galåtjønna" />
		<tag k="natural" v="water" />
		<tag k="ssr:stedsnr" v="618402" />
	</node>
	<node id="-358183" lat="62.5008611081" lon="11.1042277812">
		<tag k="name" v="Sagbekken" />
		<tag k="ssr:stedsnr" v="722186" />
		<tag k="waterway" v="stream" />
	</node>
	<node id="-358181" lat="62.2111138905" lon="11.818108328">
		<tag k="name" v="Øvre Svåen" />
		<tag k="ssr:stedsnr" v="722133" />
		<tag k="waterway" v="rapids" />
	</node>
	<node id="-358179" lat="62.2317694416" lon="11.7826444438">
		<tag k="name" v="Summundstjønna" />
		<tag k="natural" v="water" />
		<tag k="ssr:stedsnr" v="722101" />
	</node>
	<node id="-358177" lat="62.5757638895" lon="11.1872805592">
		<tag k="name" v="Gjeltvika" />
		<tag k="natural" v="bay" />
		<tag k="ssr:stedsnr" v="722094" />
	</node>
	<node id="-358175" lat="62.5688249984" lon="11.1607027781">
		<tag k="name" v="Gråbenloken" />
		<tag k="natural" v="water" />
		<tag k="ssr:stedsnr" v="722088" />
	</node>
	<node id="-358174" lat="62.5544083366" lon="11.2087388952">
		<tag k="name" v="Utstuloken" />
		<tag k="natural" v="water" />
		<tag k="ssr:stedsnr" v="722086" />
	</node>
	<node id="-358173" lat="62.5615611152" lon="11.1947777802">
		<tag k="name" v="Trønsvika" />
		<tag k="natural" v="bay" />
		<tag k="ssr:stedsnr" v="722084" />
	</node>
	<node id="-358172" lat="62.5548666684" lon="11.1172638918">
		<tag k="name" v="Kvernbekken" />
		<tag k="ssr:stedsnr" v="722082" />
		<tag k="waterway" v="stream" />
	</node>
	<node id="-358164" lat="62.1728305572" lon="11.8504527796">
		<tag k="name" v="Korneset" />
		<tag k="natural" v="cape" />
		<tag k="ssr:stedsnr" v="617378" />
	</node>
	<node id="-358163" lat="62.1975888917" lon="11.81965277">
		<tag k="name" v="Adamstjønna" />
		<tag k="natural" v="water" />
		<tag k="ssr:stedsnr" v="617357" />
	</node>
	<node id="-358157" lat="62.1444444413" lon="11.8266111164">
		<tag k="name" v="Sandvika" />
		<tag k="natural" v="bay" />
		<tag k="ssr:stedsnr" v="721191" />
	</node>
	<node id="-358145" lat="62.5411611071" lon="11.0177916616">
		<tag k="name" v="Flovolltjønna" />
		<tag k="natural" v="water" />
		<tag k="ssr:stedsnr" v="600574" />
		<tag k="water" v="pond" />
	</node>
	<node id="-358141" lat="62.3006694422" lon="11.6604833418">
		<tag k="name" v="Rundtjønnbekken" />
		<tag k="ssr:stedsnr" v="600185" />
		<tag k="waterway" v="stream" />
	</node>
	<node id="-358136" lat="62.3090888897" lon="11.6860638955">
		<tag k="name" v="Kvennhusfossen" />
		<tag k="natural" v="waterfall" />
		<tag k="ssr:stedsnr" v="600155" />
	</node>
	<node id="-358134" lat="62.4907638856" lon="11.016963895">
		<tag k="name" v="Stortjønnbekken" />
		<tag k="ssr:stedsnr" v="600033" />
		<tag k="waterway" v="stream" />
	</node>
	<node id="-358131" lat="62.4808472195" lon="11.0542527808">
		<tag k="name" v="Olastjønna" />
		<tag k="natural" v="water" />
		<tag k="ssr:stedsnr" v="600015" />
	</node>
	<node id="-358129" lat="62.305033333" lon="11.707891658">
		<tag k="name" v="Raustenbekken" />
		<tag k="ssr:stedsnr" v="599227" />
		<tag k="waterway" v="stream" />
	</node>
	<node id="-358114" lat="62.2776805588" lon="11.7549777708">
		<tag k="name" v="Svartmyrloken" />
		<tag k="natural" v="water" />
		<tag k="old_name" v="Buoddloken" />
		<tag k="ssr:stedsnr" v="557620" />
	</node>
	<node id="-358112" lat="62.3918944435" lon="11.3678138974">
		<tag k="alt_name" v="Butjørna" />
		<tag k="name" v="Butjønna" />
		<tag k="natural" v="water" />
		<tag k="ssr:stedsnr" v="557408" />
	</node>
	<node id="-358106" lat="62.6688694447" lon="10.8915611185">
		<tag k="name" v="Bubekken" />
		<tag k="ssr:stedsnr" v="557218" />
		<tag k="waterway" v="stream" />
	</node>
	<node id="-358105" lat="62.6657083348" lon="10.8382499974">
		<tag k="name" v="Håan" />
		<tag k="place" v="locality" />
		<tag k="ssr:stedsnr" v="557215" />
	</node>
	<node id="-358098" lat="62.500322218" lon="11.2287361201">
		<tag k="name" v="Korholmen" />
		<tag k="place" v="islet" />
		<tag k="ssr:stedsnr" v="540571" />
	</node>
	<node id="-358091" lat="62.3035750002" lon="11.6881222153">
		<tag k="name" v="Eldhusbekken" />
		<tag k="ssr:stedsnr" v="540164" />
		<tag k="waterway" v="stream" />
	</node>
	<node id="-358090" lat="62.4906944457" lon="11.148072213">
		<tag k="name" v="Kvernbekken" />
		<tag k="ssr:stedsnr" v="540153" />
		<tag k="waterway" v="stream" />
	</node>
	<node id="-358087" lat="62.5310222248" lon="11.1279416652">
		<tag k="name" v="Kroketbekken" />
		<tag k="ssr:stedsnr" v="540209" />
		<tag k="waterway" v="stream" />
	</node>
	<node id="-358082" lat="62.1797027742" lon="11.8331194516">
		<tag k="name" v="Litjholmen" />
		<tag k="place" v="islet" />
		<tag k="ssr:stedsnr" v="539169" />
	</node>
	<node id="-358081" lat="62.1777777795" lon="11.8294194423">
		<tag k="name" v="Østre Storholmen" />
		<tag k="place" v="islet" />
		<tag k="ssr:stedsnr" v="539166" />
	</node>
	<node id="-358076" lat="62.3561499992" lon="11.533833336">
		<tag k="name" v="Borrloken" />
		<tag k="natural" v="water" />
		<tag k="old_name" v="Brentmyrtjørna" />
		<tag k="ssr:stedsnr" v="506458" />
	</node>
	<node id="-358074" lat="62.5794055518" lon="11.0746861038">
		<tag k="alt_name" v="Hångåa" />
		<tag k="name" v="Hongåa" />
		<tag k="ssr:stedsnr" v="497138" />
		<tag k="waterway" v="river" />
	</node>
	<node id="-358072" lat="62.5650305524" lon="11.1889333248">
		<tag k="name" v="Sætersjøen" />
		<tag k="natural" v="water" />
		<tag k="ssr:stedsnr" v="497126" />
		<tag k="water" v="lake" />
	</node>
	<node id="-358054" lat="62.6605694488" lon="10.9271305474">
		<tag k="name" v="Falktjønna" />
		<tag k="natural" v="water" />
		<tag k="ssr:stedsnr" v="679192" />
	</node>
	<node id="-358048" lat="62.616791668" lon="10.9123194484">
		<tag k="name" v="Storbekken" />
		<tag k="ssr:stedsnr" v="678196" />
		<tag k="waterway" v="stream" />
	</node>
	<node id="-358029" lat="62.5406916659" lon="11.2180555637">
		<tag k="name" v="Litjbekken" />
		<tag k="ssr:stedsnr" v="479468" />
		<tag k="waterway" v="stream" />
	</node>
	<node id="-358027" lat="62.4587333296" lon="11.1687555521">
		<tag k="name" v="Granloken" />
		<tag k="natural" v="water" />
		<tag k="ssr:stedsnr" v="479460" />
		<tag k="water" v="pond" />
	</node>
	<node id="-358025" lat="62.5494000044" lon="10.9070333324">
		<tag k="name" v="Storbekken" />
		<tag k="ssr:stedsnr" v="479411" />
		<tag k="waterway" v="stream" />
	</node>
	<node id="-358022" lat="62.3268694457" lon="11.6419111169">
		<tag k="name" v="Fjordingsbekken" />
		<tag k="ssr:stedsnr" v="479313" />
		<tag k="waterway" v="stream" />
	</node>
	<node id="-358021" lat="62.5851638917" lon="10.9592305474">
		<tag k="name" v="Mestubekken" />
		<tag k="ssr:stedsnr" v="479310" />
		<tag k="waterway" v="stream" />
	</node>
	<node id="-358019" lat="62.5845972261" lon="10.9258750063">
		<tag k="name" v="Nirslokan" />
		<tag k="natural" v="water" />
		<tag k="ssr:stedsnr" v="479307" />
	</node>
	<node id="-358018" lat="62.1896305518" lon="11.827108341">
		<tag k="name" v="Svendøvja" />
		<tag k="natural" v="bay" />
		<tag k="ssr:stedsnr" v="479173" />
	</node>
	<node id="-358014" lat="62.2767833372" lon="11.7404638879">
		<tag k="name" v="Midtdalbekken" />
		<tag k="ssr:stedsnr" v="479220" />
		<tag k="waterway" v="stream" />
	</node>
	<node id="-358013" lat="62.1722222224" lon="11.8473361135">
		<tag k="name" v="Lillesandodden" />
		<tag k="natural" v="cape" />
		<tag k="ssr:stedsnr" v="479218" />
	</node>
	<node id="-358002" lat="62.345997218" lon="11.505969444">
		<tag k="name" v="Djupodden" />
		<tag k="natural" v="cape" />
		<tag k="ssr:stedsnr" v="478502" />
	</node>
	<node id="-357990" lat="62.3593527741" lon="11.4561055596">
		<tag k="name" v="Hansmobekken" />
		<tag k="ssr:stedsnr" v="661815" />
		<tag k="waterway" v="stream" />
	</node>
	<node id="-357986" lat="62.6187027751" lon="11.1147222216">
		<tag k="name" v="Kjurruøset" />
		<tag k="natural" v="bay" />
		<tag k="ssr:stedsnr" v="661799" />
	</node>
	<node id="-357980" lat="62.5345611103" lon="11.0515472201">
		<tag k="name" v="Blæstertjønnbekken" />
		<tag k="ssr:stedsnr" v="661589" />
		<tag k="waterway" v="stream" />
	</node>
	<node id="-357969" lat="62.5919833356" lon="10.9800138829">
		<tag k="name" v="Storbekken" />
		<tag k="ssr:stedsnr" v="661427" />
		<tag k="waterway" v="stream" />
	</node>
	<node id="-357955" lat="62.3253583373" lon="11.6286500084">
		<tag k="name" v="Vintervegodden" />
		<tag k="natural" v="cape" />
		<tag k="ssr:stedsnr" v="661301" />
	</node>
	<node id="-357952" lat="62.1884250016" lon="11.8163277752">
		<tag k="name" v="Korsøvja" />
		<tag k="natural" v="bay" />
		<tag k="ssr:stedsnr" v="661094" />
	</node>
	<node id="-357951" lat="62.1889805515" lon="11.8175000085">
		<tag k="name" v="Nordre Korsen" />
		<tag k="natural" v="cape" />
		<tag k="ssr:stedsnr" v="661086" />
	</node>
	<node id="-357949" lat="62.5740916641" lon="11.1774111065">
		<tag k="name" v="Djupbekken" />
		<tag k="ssr:stedsnr" v="661074" />
		<tag k="waterway" v="stream" />
	</node>
	<node id="-357948" lat="62.3369749966" lon="11.4662888792">
		<tag k="name" v="Bonkrytjønna" />
		<tag k="natural" v="water" />
		<tag k="ssr:stedsnr" v="660489" />
	</node>
	<node id="-357940" lat="62.1465611094" lon="11.8322305498">
		<tag k="name" v="Kråkholmvika" />
		<tag k="natural" v="bay" />
		<tag k="ssr:stedsnr" v="660208" />
	</node>
	<node id="-357937" lat="62.3224749996" lon="11.7159666757">
		<tag k="name" v="Kvennbekken" />
		<tag k="ssr:stedsnr" v="660191" />
		<tag k="waterway" v="stream" />
	</node>
	<node id="-357925" lat="62.585041671" lon="10.8905499949">
		<tag k="name" v="Skiftbekken" />
		<tag k="ssr:stedsnr" v="436135" />
		<tag k="waterway" v="stream" />
	</node>
	<node id="-357918" lat="62.3624083308" lon="11.4787194445">
		<tag k="name" v="Øsvollvika" />
		<tag k="natural" v="bay" />
		<tag k="ssr:stedsnr" v="419940" />
	</node>
	<node id="-357917" lat="62.3875777819" lon="11.473805548">
		<tag k="name" v="Storhåbekken" />
		<tag k="ssr:stedsnr" v="419928" />
		<tag k="waterway" v="stream" />
	</node>
	<node id="-357913" lat="62.4913638918" lon="11.079333329">
		<tag k="name" v="Gammelvolltjønna" />
		<tag k="natural" v="water" />
		<tag k="ssr:stedsnr" v="419706" />
	</node>
	<node id="-357899" lat="62.5573722214" lon="11.0385222263">
		<tag k="name" v="Brevadfossen" />
		<tag k="natural" v="waterfall" />
		<tag k="ssr:stedsnr" v="418513" />
	</node>
	<node id="-357895" lat="62.3425277749" lon="11.7287138863">
		<tag k="name" v="Lerbekkloken" />
		<tag k="natural" v="water" />
		<tag k="ssr:stedsnr" v="418214" />
	</node>
	<node id="-357894" lat="62.1768944418" lon="11.8286972257">
		<tag k="name" v="Vestre Storholmen" />
		<tag k="place" v="islet" />
		<tag k="ssr:stedsnr" v="418204" />
	</node>
	<node id="-357890" lat="62.2357861111" lon="11.7175972305">
		<tag k="name" v="Søndre Litjåa" />
		<tag k="ssr:stedsnr" v="417115" />
		<tag k="waterway" v="stream" />
	</node>
	<node id="-357883" lat="62.4824027778" lon="11.2759416637">
		<tag k="name" v="Nøra" />
		<tag k="ssr:stedsnr" v="375707" />
		<tag k="waterway" v="river" />
	</node>
	<node id="-357879" lat="62.5550388894" lon="10.9900611146">
		<tag k="name" v="Langtjønnbekken" />
		<tag k="ssr:stedsnr" v="375806" />
		<tag k="waterway" v="stream" />
	</node>
	<node id="-357878" lat="62.4284611068" lon="11.3915111055">
		<tag k="name" v="Sagbekken" />
		<tag k="ssr:stedsnr" v="375371" />
		<tag k="waterway" v="stream" />
	</node>
	<node id="-357876" lat="62.4485999986" lon="11.4695861169">
		<tag k="name" v="Litlrøbekken" />
		<tag k="ssr:stedsnr" v="375359" />
		<tag k="waterway" v="stream" />
	</node>
	<node id="-357874" lat="62.3390333318" lon="11.674044454">
		<tag k="alt_name" v="Krabbtjørna" />
		<tag k="name" v="Krabbtjønna" />
		<tag k="natural" v="water" />
		<tag k="ssr:stedsnr" v="375422" />
	</node>
	<node id="-357873" lat="62.2188250029" lon="11.6944583397">
		<tag k="name" v="Litlebutjønna" />
		<tag k="natural" v="water" />
		<tag k="ssr:stedsnr" v="375418" />
	</node>
	<node id="-357865" lat="62.4972194446" lon="11.0334638912">
		<tag k="name" v="Stortjønn" />
		<tag k="natural" v="water" />
		<tag k="ssr:stedsnr" v="375013" />
	</node>
	<node id="-357863" lat="62.5513861087" lon="11.0279000042">
		<tag k="name" v="Flovollbekken" />
		<tag k="ssr:stedsnr" v="497833" />
		<tag k="waterway" v="stream" />
	</node>
	<node id="-357859" lat="62.3966336723" lon="11.4709358939">
		<tag k="alt_name" v="Musholtjørnane" />
		<tag k="name" v="Musholtjønnan" />
		<tag k="natural" v="water" />
		<tag k="ssr:stedsnr" v="497385" />
		<tag k="water" v="lake" />
	</node>
	<node id="-357858" lat="62.452883333" lon="11.4328083317">
		<tag k="name" v="Røbekken" />
		<tag k="ssr:stedsnr" v="497347" />
		<tag k="waterway" v="river" />
	</node>
	<node id="-357857" lat="62.6601861099" lon="11.0896694485">
		<tag k="name" v="Øvstubekken" />
		<tag k="ssr:stedsnr" v="497199" />
		<tag k="waterway" v="stream" />
	</node>
	<node id="-357855" lat="62.6344500014" lon="10.9139638819">
		<tag k="name" v="Østubekken" />
		<tag k="ssr:stedsnr" v="497184" />
		<tag k="waterway" v="stream" />
	</node>
	<node id="-357851" lat="62.5169031615" lon="10.9687667891">
		<tag k="alt_name" v="Djupsjøen" />
		<tag k="name" v="Stordjupsjøen" />
		<tag k="natural" v="water" />
		<tag k="ssr:stedsnr" v="496768" />
	</node>
	<node id="-357849" lat="61.9959083351" lon="11.899955563">
		<tag k="name" v="Femunden" />
		<tag k="natural" v="water" />
		<tag k="ssr:stedsnr" v="496891" />
		<tag k="water" v="lake" />
	</node>
	<node id="-357848" lat="62.3601861144" lon="11.734586114">
		<tag k="name" v="Tverrflena" />
		<tag k="ssr:stedsnr" v="496628" />
		<tag k="waterway" v="stream" />
	</node>
	<node id="-357844" lat="62.139886114" lon="11.8210916627">
		<tag k="name" v="Nålodden" />
		<tag k="natural" v="cape" />
		<tag k="ssr:stedsnr" v="496394" />
	</node>
	<node id="-357843" lat="62.4539694476" lon="11.3302999947">
		<tag k="name" v="Håvollbekken" />
		<tag k="ssr:stedsnr" v="496380" />
		<tag k="waterway" v="stream" />
	</node>
	<node id="-357841" lat="62.188305555" lon="11.8411583309">
		<tag k="name" v="Rotvikkjølen" />
		<tag k="natural" v="water" />
		<tag k="ssr:stedsnr" v="496352" />
	</node>
	<node id="-357833" lat="62.4855999988" lon="11.0222305504">
		<tag k="name" v="Svarttjønn" />
		<tag k="natural" v="water" />
		<tag k="ssr:stedsnr" v="496044" />
	</node>
	<node id="-357817" lat="62.3264888858" lon="11.5617777692">
		<tag k="name" v="Storhølbekken" />
		<tag k="ssr:stedsnr" v="358275" />
		<tag k="waterway" v="stream" />
	</node>
	<node id="-357816" lat="62.3234555534" lon="11.5571388809">
		<tag k="name" v="Nedre Nyløtjønna" />
		<tag k="natural" v="water" />
		<tag k="ssr:stedsnr" v="358267" />
	</node>
	<node id="-357811" lat="62.4721305525" lon="11.1734722157">
		<tag k="name" v="Fjordingsbekken" />
		<tag k="ssr:stedsnr" v="358326" />
		<tag k="waterway" v="stream" />
	</node>
	<node id="-357805" lat="62.5308277781" lon="11.2011083303">
		<tag k="alt_name" v="Kvernbekken" />
		<tag k="name" v="Kvennbekken" />
		<tag k="ssr:stedsnr" v="358163" />
		<tag k="waterway" v="stream" />
	</node>
	<node id="-357804" lat="62.2040500001" lon="11.8193916746">
		<tag k="name" v="Korsrømmen" />
		<tag k="ssr:stedsnr" v="358112" />
		<tag k="waterway" v="rapids" />
	</node>
	<node id="-357801" lat="62.5519972253" lon="11.0970305557">
		<tag k="name" v="Bergebekken" />
		<tag k="ssr:stedsnr" v="358056" />
		<tag k="waterway" v="stream" />
	</node>
	<node id="-357799" lat="62.597274996" lon="11.1520888817">
		<tag k="name" v="Svartholet" />
		<tag k="natural" v="water" />
		<tag k="ssr:stedsnr" v="357910" />
	</node>
	<node id="-357797" lat="62.6114972185" lon="11.1179777793">
		<tag k="name" v="Trøavika" />
		<tag k="natural" v="bay" />
		<tag k="ssr:stedsnr" v="357812" />
	</node>
	<node id="-357794" lat="62.5710194486" lon="11.2282444516">
		<tag k="name" v="Storholet" />
		<tag k="place" v="locality" />
		<tag k="ssr:stedsnr" v="346375" />
	</node>
	<node id="-357792" lat="62.1740638869" lon="11.821261113">
		<tag k="name" v="Stortjønnvika" />
		<tag k="natural" v="bay" />
		<tag k="ssr:stedsnr" v="479934" />
	</node>
	<node id="-357791" lat="62.1725222181" lon="11.7676694359">
		<tag k="name" v="Pulslokan" />
		<tag k="natural" v="water" />
		<tag k="ssr:stedsnr" v="479931" />
	</node>
	<node id="-357790" lat="62.3533472188" lon="11.4896916689">
		<tag k="name" v="Langøra" />
		<tag k="natural" v="cape" />
		<tag k="ssr:stedsnr" v="479963" />
	</node>
	<node id="-357788" lat="62.3606500013" lon="11.4805111066">
		<tag k="name" v="Nøstervika" />
		<tag k="natural" v="bay" />
		<tag k="ssr:stedsnr" v="479959" />
	</node>
	<node id="-357784" lat="62.4616833309" lon="11.3683055577">
		<tag k="name" v="Bredalslihåen" />
		<tag k="natural" v="water" />
		<tag k="ssr:stedsnr" v="479743" />
	</node>
	<node id="-357780" lat="62.5397972262" lon="10.9948138942">
		<tag k="name" v="Småtjønnan" />
		<tag k="natural" v="water" />
		<tag k="ssr:stedsnr" v="479650" />
		<tag k="water" v="lake" />
	</node>
	<node id="-357776" lat="62.5164583348" lon="11.0140333297">
		<tag k="name" v="Åstjønna" />
		<tag k="natural" v="water" />
		<tag k="ssr:stedsnr" v="479625" />
	</node>
	<node id="-357772" lat="62.4693166628" lon="11.0350694409">
		<tag k="name" v="Lerloken" />
		<tag k="natural" v="water" />
		<tag k="ssr:stedsnr" v="479677" />
	</node>
	<node id="-357752" lat="62.3477555551" lon="11.4887000029">
		<tag k="name" v="Buvika" />
		<tag k="natural" v="bay" />
		<tag k="ssr:stedsnr" v="478499" />
	</node>
	<node id="-357609" lat="62.5466500026" lon="11.1889833343">
		<tag k="name" v="Sæterlitjønnbekken" />
		<tag k="ssr:stedsnr" v="297081" />
		<tag k="waterway" v="stream" />
	</node>
	<node id="-357746" lat="62.1985036337" lon="11.799079175">
		<tag k="name" v="Litlåbutjønna" />
		<tag k="natural" v="water" />
		<tag k="ssr:stedsnr" v="324445" />
		<tag k="water" v="lake" />
	</node>
	<node id="-357738" lat="62.4127999976" lon="11.4026361195">
		<tag k="name" v="Østerbekken" />
		<tag k="ssr:stedsnr" v="315358" />
		<tag k="waterway" v="stream" />
	</node>
	<node id="-357736" lat="62.2718577921" lon="11.6478856931">
		<tag k="alt_name" v="Brattfalltjørna" />
		<tag k="name" v="Brattfalltjønna" />
		<tag k="natural" v="water" />
		<tag k="ssr:stedsnr" v="315466" />
	</node>
	<node id="-357735" lat="62.2898166704" lon="11.6038861154">
		<tag k="alt_name" v="Veslenøra" />
		<tag k="name" v="Litjnøra" />
		<tag k="ssr:stedsnr" v="315454" />
		<tag k="waterway" v="stream" />
	</node>
	<node id="-357728" lat="62.5055805548" lon="11.0098555637">
		<tag k="name" v="Østre Langsåstjønna" />
		<tag k="natural" v="water" />
		<tag k="ssr:stedsnr" v="314765" />
	</node>
	<node id="-357719" lat="62.3424250014" lon="11.5062055526">
		<tag k="name" v="Skjervika" />
		<tag k="natural" v="bay" />
		<tag k="ssr:stedsnr" v="296455" />
	</node>
	<node id="-357712" lat="62.2969404134" lon="11.5938605995">
		<tag k="alt_name" v="Svarttjørnane" />
		<tag k="name" v="Svarttjønnan" />
		<tag k="natural" v="water" />
		<tag k="ssr:stedsnr" v="254464" />
		<tag k="water" v="lake" />
	</node>
	<node id="-357711" lat="62.329927779" lon="11.6920861092">
		<tag k="fixme" v="multiple name tags, choose one and add the other to alt_name" />
		<tag k="name" v="Rotjørnane;Rotjønnan" />
		<tag k="natural" v="water" />
		<tag k="ssr:stedsnr" v="254405" />
		<tag k="water" v="lake" />
	</node>
	<node id="-357706" lat="62.3642638859" lon="11.503549991">
		<tag k="name" v="Harrbekken" />
		<tag k="ssr:stedsnr" v="453248" />
		<tag k="waterway" v="stream" />
	</node>
	<node id="-357704" lat="62.6039000041" lon="11.1737527808">
		<tag k="name" v="Litlsandtjønna" />
		<tag k="natural" v="water" />
		<tag k="ssr:stedsnr" v="254156" />
	</node>
	<node id="-357703" lat="62.6042638872" lon="11.0860277684">
		<tag k="name" v="Svartåa" />
		<tag k="ssr:stedsnr" v="254155" />
		<tag k="waterway" v="stream" />
	</node>
	<node id="-357702" lat="62.588702774" lon="10.864944445">
		<tag k="name" v="Raudbrøttbekken" />
		<tag k="ssr:stedsnr" v="254135" />
		<tag k="waterway" v="stream" />
	</node>
	<node id="-357698" lat="62.5802749971" lon="11.0326166609">
		<tag k="alt_name" v="Olbekken" />
		<tag k="name" v="Urdbekken" />
		<tag k="ssr:stedsnr" v="254113" />
		<tag k="waterway" v="stream" />
	</node>
	<node id="-357694" lat="62.181499996" lon="11.7492972212">
		<tag k="name" v="Fallet" />
		<tag k="natural" v="waterfall" />
		<tag k="ssr:stedsnr" v="237913" />
	</node>
	<node id="-357688" lat="62.4892999957" lon="11.0182694365">
		<tag k="name" v="Litlgodtjønnbekken" />
		<tag k="ssr:stedsnr" v="236038" />
		<tag k="waterway" v="stream" />
	</node>
	<node id="-357686" lat="62.3653527744" lon="11.4767472314">
		<tag k="name" v="Narøset" />
		<tag k="natural" v="bay" />
		<tag k="ssr:stedsnr" v="297952" />
	</node>
	<node id="-357684" lat="62.5988222203" lon="11.1108194451">
		<tag k="name" v="Tjønnbekken" />
		<tag k="ssr:stedsnr" v="297940" />
		<tag k="waterway" v="stream" />
	</node>
	<node id="-357677" lat="62.4107249984" lon="11.4905027744">
		<tag k="name" v="Krokettjønna" />
		<tag k="natural" v="water" />
		<tag k="ssr:stedsnr" v="297764" />
	</node>
	<node id="-357670" lat="62.4675138886" lon="11.3550777777">
		<tag k="name" v="Bredalslinesset" />
		<tag k="natural" v="cape" />
		<tag k="ssr:stedsnr" v="297729" />
	</node>
	<node id="-357389" lat="62.58279167" lon="11.1921388972">
		<tag k="name" v="Litj-Nordstubekken" />
		<tag k="ssr:stedsnr" v="236078" />
		<tag k="waterway" v="stream" />
	</node>
	<node id="-357662" lat="62.2401583365" lon="11.6985972241">
		<tag k="name" v="Litlåkroken" />
		<tag k="ssr:stedsnr" v="210836" />
		<tag k="waterway" v="stream" />
	</node>
	<node id="-357660" lat="62.5351833357" lon="11.0689222163">
		<tag k="name" v="Åsloken" />
		<tag k="natural" v="water" />
		<tag k="ssr:stedsnr" v="297599" />
	</node>
	<node id="-357658" lat="62.5411388875" lon="10.9886083358">
		<tag k="name" v="Sandtjønna" />
		<tag k="natural" v="water" />
		<tag k="ssr:stedsnr" v="297588" />
	</node>
	<node id="-357655" lat="62.4881638879" lon="11.2359194456">
		<tag k="name" v="Litjmyrbekken" />
		<tag k="ssr:stedsnr" v="297546" />
		<tag k="waterway" v="stream" />
	</node>
	<node id="-359698" lat="62.6164361102" lon="11.1644749915">
		<tag k="name" v="Storsandtjønna" />
		<tag k="name:no" v="Storsandtjønna" />
		<tag k="natural" v="water" />
		<tag k="ssr:stedsnr" v="254164" />
	</node>
	<node id="-357649" lat="62.473497219" lon="11.3310888803">
		<tag k="name" v="Høshåen" />
		<tag k="place" v="locality" />
		<tag k="ssr:stedsnr" v="297488" />
	</node>
	<node id="-357630" lat="62.3292527753" lon="11.7001583409">
		<tag k="name" v="Kvenntjønna" />
		<tag k="natural" v="water" />
		<tag k="ssr:stedsnr" v="297292" />
	</node>
	<node id="-357627" lat="62.3434666681" lon="11.5280250014">
		<tag k="name" v="Gammelløbekken" />
		<tag k="ssr:stedsnr" v="297255" />
		<tag k="waterway" v="stream" />
	</node>
	<node id="-359672" lat="62.3826333313" lon="11.473624997">
		<tag k="name" v="Svarttjønna" />
		<tag k="natural" v="water" />
		<tag k="ssr:stedsnr" v="965947" />
	</node>
	<node id="-357620" lat="62.4847000025" lon="11.1742249993">
		<tag k="name" v="Letestrand" />
		<tag k="natural" v="beach" />
		<tag k="ssr:stedsnr" v="297194" />
	</node>
	<node id="-357617" lat="62.4857861111" lon="11.1899499917">
		<tag k="name" v="Hølbekken" />
		<tag k="ssr:stedsnr" v="297188" />
		<tag k="waterway" v="stream" />
	</node>
	<node id="-359661" lat="62.5024027797" lon="11.0290138978">
		<tag k="alt_name" v="Storhåen" />
		<tag k="name" v="Stor-Håa" />
		<tag k="natural" v="water" />
		<tag k="ssr:stedsnr" v="965690" />
		<tag k="water" v="lake" />
	</node>
	<node id="-357586" lat="62.4921527784" lon="11.0019416611">
		<tag k="name" v="Langen" />
		<tag k="natural" v="water" />
		<tag k="ssr:stedsnr" v="193039" />
		<tag k="water" v="lake" />
	</node>
	<node id="-357610" lat="62.5602805581" lon="11.1831499908">
		<tag k="name" v="Henningsvika" />
		<tag k="natural" v="bay" />
		<tag k="ssr:stedsnr" v="297088" />
	</node>
	<node id="-359657" lat="62.3312972227" lon="11.6054416639">
		<tag k="name" v="Djupodden" />
		<tag k="natural" v="cape" />
		<tag k="ssr:stedsnr" v="965351" />
	</node>
	<node id="-359654" lat="62.5919083366" lon="10.9213888827">
		<tag k="name" v="Jotbekken" />
		<tag k="ssr:stedsnr" v="965335" />
		<tag k="waterway" v="stream" />
	</node>
	<node id="-359650" lat="62.2968305579" lon="11.6719861157">
		<tag k="name" v="Smålokan" />
		<tag k="natural" v="water" />
		<tag k="ssr:stedsnr" v="965133" />
	</node>
	<node id="-357599" lat="62.553955553" lon="11.0184833235">
		<tag k="name" v="Nyvollbekken" />
		<tag k="ssr:stedsnr" v="194817" />
		<tag k="waterway" v="stream" />
	</node>
	<node id="-359646" lat="62.6086916624" lon="11.1513194486">
		<tag k="name" v="Kaldvassåra" />
		<tag k="natural" v="spring" />
		<tag k="ssr:stedsnr" v="964874" />
	</node>
	<node id="-357597" lat="62.2774305587" lon="11.701313884">
		<tag k="name" v="Røstbekken" />
		<tag k="ssr:stedsnr" v="194416" />
		<tag k="waterway" v="stream" />
	</node>
	<node id="-357592" lat="62.5523972252" lon="11.2451638976">
		<tag k="name" v="Lomtjønna" />
		<tag k="natural" v="water" />
		<tag k="ssr:stedsnr" v="193617" />
	</node>
	<node id="-357590" lat="62.5133750042" lon="11.3055972241">
		<tag k="name" v="Kvernbekken" />
		<tag k="ssr:stedsnr" v="193319" />
		<tag k="waterway" v="stream" />
	</node>
	<node id="-359634" lat="62.5695166632" lon="11.1801416658">
		<tag k="name" v="Djupbekkvika" />
		<tag k="natural" v="bay" />
		<tag k="ssr:stedsnr" v="964093" />
	</node>
	<node id="-359632" lat="62.3431805538" lon="11.5187333323">
		<tag k="name" v="Gammelløengvika" />
		<tag k="natural" v="bay" />
		<tag k="ssr:stedsnr" v="963537" />
	</node>
	<node id="-357575" lat="62.5200888933" lon="11.3104388844">
		<tag k="name" v="Djupbekken" />
		<tag k="ssr:stedsnr" v="140792" />
		<tag k="waterway" v="stream" />
	</node>
	<node id="-359617" lat="62.2608999961" lon="11.79174999">
		<tag k="alt_name" v="Storrostbekken" />
		<tag k="name" v="Storrøstbekken" />
		<tag k="ssr:stedsnr" v="861632" />
		<tag k="waterway" v="stream" />
	</node>
	<node id="-359614" lat="62.3010861093" lon="11.7545305593">
		<tag k="name" v="Midtbekken" />
		<tag k="ssr:stedsnr" v="861560" />
		<tag k="waterway" v="stream" />
	</node>
	<node id="-359613" lat="62.3426694437" lon="11.6746583365">
		<tag k="fixme" v="multiple name tags, choose one and add the other to alt_name" />
		<tag k="name" v="Bakkelokane;Bakkelokan" />
		<tag k="natural" v="water" />
		<tag k="ssr:stedsnr" v="861433" />
	</node>
	<node id="-359609" lat="62.4173165261" lon="11.3680816476">
		<tag k="name" v="Rødtjønnan" />
		<tag k="natural" v="water" />
		<tag k="ssr:stedsnr" v="861347" />
		<tag k="water" v="lake" />
	</node>
	<node id="-359606" lat="62.6533527792" lon="10.8371749937">
		<tag k="name" v="Håbekken" />
		<tag k="ssr:stedsnr" v="861197" />
		<tag k="waterway" v="stream" />
	</node>
	<node id="-357555" lat="62.164875" lon="11.8165499985">
		<tag k="name" v="Djuphølet" />
		<tag k="natural" v="water" />
		<tag k="ssr:stedsnr" v="115929" />
		<tag k="water" v="pond" />
	</node>
	<node id="-359599" lat="62.2305777788" lon="11.8181222225">
		<tag k="name" v="Ulvrøstfloen" />
		<tag k="natural" v="water" />
		<tag k="ssr:stedsnr" v="860393" />
	</node>
	<node id="-357544" lat="62.206319447" lon="11.7296555598">
		<tag k="name" v="Kvennkroken" />
		<tag k="place" v="locality" />
		<tag k="ssr:stedsnr" v="115134" />
	</node>
	<node id="-357542" lat="62.187983335" lon="11.8175777774">
		<tag k="name" v="Søndre Korsen" />
		<tag k="natural" v="cape" />
		<tag k="ssr:stedsnr" v="115109" />
	</node>
	<node id="-359587" lat="62.4682166704" lon="11.3487166705">
		<tag k="name" v="Eggtangen" />
		<tag k="natural" v="cape" />
		<tag k="ssr:stedsnr" v="844755" />
	</node>
	<node id="-359584" lat="62.4517499969" lon="11.3988944527">
		<tag k="name" v="Kåppårrullen" />
		<tag k="ssr:stedsnr" v="844745" />
		<tag k="waterway" v="stream" />
	</node>
	<node id="-359582" lat="62.4897000034" lon="11.2575138807">
		<tag k="name" v="Skreddartjønnan" />
		<tag k="natural" v="water" />
		<tag k="ssr:stedsnr" v="844578" />
	</node>
	<node id="-359578" lat="62.538386107" lon="11.2303138849">
		<tag k="name" v="Rismyrloken" />
		<tag k="natural" v="water" />
		<tag k="ssr:stedsnr" v="844478" />
	</node>
	<node id="-357528" lat="62.2726250026" lon="11.6689805584">
		<tag k="alt_name" v="Gruvetjørnane" />
		<tag k="name" v="Gruvetjønnan" />
		<tag k="natural" v="water" />
		<tag k="ssr:stedsnr" v="254451" />
		<tag k="water" v="lake" />
	</node>
	<node id="-357525" lat="62.3618428521" lon="11.6247146668">
		<tag k="name" v="Indre Raudtjønnan" />
		<tag k="natural" v="water" />
		<tag k="ssr:stedsnr" v="254389" />
		<tag k="water" v="lake" />
	</node>
	<node id="-359570" lat="62.5725777796" lon="10.9482194404">
		<tag k="name" v="Storfossen" />
		<tag k="natural" v="waterfall" />
		<tag k="ssr:stedsnr" v="844296" />
	</node>
	<node id="-357521" lat="62.6612324821" lon="10.8996558285">
		<tag k="name" v="Fjellsjøen" />
		<tag k="natural" v="water" />
		<tag k="ssr:stedsnr" v="254201" />
		<tag k="water" v="lake" />
	</node>
	<node id="-359568" lat="62.3262611135" lon="11.5378472204">
		<tag k="name" v="Krokbekken" />
		<tag k="ssr:stedsnr" v="844267" />
		<tag k="waterway" v="stream" />
	</node>
	<node id="-357518" lat="62.6481888872" lon="10.82978889">
		<tag k="name" v="Kvannkåstjønna" />
		<tag k="natural" v="water" />
		<tag k="ssr:stedsnr" v="254188" />
	</node>
	<node id="-357517" lat="62.6312861093" lon="10.9531555538">
		<tag k="name" v="Rasmusbekken" />
		<tag k="ssr:stedsnr" v="254177" />
		<tag k="waterway" v="stream" />
	</node>
	<node id="-359561" lat="62.3027027796" lon="11.6687027705">
		<tag k="name" v="Gørtjønna" />
		<tag k="natural" v="water" />
		<tag k="ssr:stedsnr" v="844151" />
	</node>
	<node id="-359555" lat="62.1968583373" lon="11.8143277749">
		<tag k="name" v="Storhåkroken" />
		<tag k="natural" v="cape" />
		<tag k="ssr:stedsnr" v="844106" />
	</node>
	<node id="-359552" lat="62.2252222256" lon="11.792758343">
		<tag k="name" v="Straumsloken" />
		<tag k="natural" v="water" />
		<tag k="ssr:stedsnr" v="844092" />
	</node>
	<node id="-359549" lat="62.2507749967" lon="11.7695888926">
		<tag k="name" v="Avlauptjønna" />
		<tag k="natural" v="water" />
		<tag k="ssr:stedsnr" v="844061" />
	</node>
	<node id="-357500" lat="62.1479916668" lon="11.8414694532">
		<tag k="name" v="Hestholmen" />
		<tag k="place" v="islet" />
		<tag k="ssr:stedsnr" v="72347" />
	</node>
	<node id="-359547" lat="62.2447611106" lon="11.8061499918">
		<tag k="name" v="Langrøstkjølla" />
		<tag k="natural" v="spring" />
		<tag k="ssr:stedsnr" v="844041" />
	</node>
	<node id="-357498" lat="62.6548833312" lon="11.1227527835">
		<tag k="name" v="Bjørbekken" />
		<tag k="ssr:stedsnr" v="72217" />
		<tag k="waterway" v="stream" />
	</node>
	<node id="-357566" lat="62.3463666647" lon="11.3582194365">
		<tag k="name" v="Stenbekken" />
		<tag k="ssr:stedsnr" v="132441" />
		<tag k="waterway" v="stream" />
	</node>
	<node id="-357489" lat="62.3919777787" lon="11.4665888901">
		<tag k="name" v="Musholbekken" />
		<tag k="ssr:stedsnr" v="237938" />
		<tag k="waterway" v="stream" />
	</node>
	<node id="-359536" lat="62.3435833318" lon="11.5059277842">
		<tag k="name" v="Skjervikodden" />
		<tag k="natural" v="cape" />
		<tag k="ssr:stedsnr" v="843493" />
	</node>
	<node id="-359535" lat="62.3418583337" lon="11.4887027814">
		<tag k="name" v="Abborbekken" />
		<tag k="ssr:stedsnr" v="843492" />
		<tag k="waterway" v="stream" />
	</node>
	<node id="-357486" lat="62.3839944404" lon="11.4506555502">
		<tag k="name" v="Saksbekken" />
		<tag k="ssr:stedsnr" v="237813" />
		<tag k="waterway" v="stream" />
	</node>
	<node id="-357565" lat="62.3510972249" lon="11.5167027854">
		<tag k="name" v="Stenbekken" />
		<tag k="ssr:stedsnr" v="132436" />
		<tag k="waterway" v="stream" />
	</node>
	<node id="-357480" lat="62.4892888918" lon="11.0691833331">
		<tag k="name" v="Søndre Tjønna" />
		<tag k="natural" v="water" />
		<tag k="ssr:stedsnr" v="237717" />
	</node>
	<node id="-359523" lat="62.3208416689" lon="11.7393500049">
		<tag k="name" v="Kronskogloken" />
		<tag k="natural" v="water" />
		<tag k="ssr:stedsnr" v="843196" />
		<tag k="water" v="pond" />
	</node>
	<node id="-357474" lat="62.5342888861" lon="11.2249611075">
		<tag k="name" v="Rismyrbekken" />
		<tag k="ssr:stedsnr" v="237502" />
		<tag k="waterway" v="stream" />
	</node>
	<node id="-359517" lat="62.1876416694" lon="11.8283805646">
		<tag k="name" v="Hopholmen" />
		<tag k="place" v="islet" />
		<tag k="ssr:stedsnr" v="809470" />
	</node>
	<node id="-359513" lat="62.5632388917" lon="10.8804138794">
		<tag k="name" v="Måsåtjønn" />
		<tag k="natural" v="water" />
		<tag k="ssr:stedsnr" v="801782" />
	</node>
	<node id="-359504" lat="62.3247416692" lon="11.7919777856">
		<tag k="name" v="Røtjønna" />
		<tag k="natural" v="water" />
		<tag k="ssr:stedsnr" v="800571" />
	</node>
	<node id="-357455" lat="62.6291583304" lon="11.0977111109">
		<tag k="name" v="Høsbekken" />
		<tag k="ssr:stedsnr" v="54814" />
		<tag k="waterway" v="stream" />
	</node>
	<node id="-359500" lat="62.2053749987" lon="11.7555333338">
		<tag k="name" v="Svartbekken" />
		<tag k="ssr:stedsnr" v="800332" />
		<tag k="waterway" v="stream" />
	</node>
	<node id="-359499" lat="62.3404888872" lon="11.6048638863">
		<tag k="name" v="Svartstobekken" />
		<tag k="ssr:stedsnr" v="800459" />
		<tag k="waterway" v="stream" />
	</node>
	<node id="-359497" lat="62.5913429971" lon="11.1966638812">
		<tag k="name" v="Nordstubekken" />
		<tag k="ssr:stedsnr" v="800150" />
		<tag k="waterway" v="stream" />
	</node>
	<node id="-357445" lat="62.3271083364" lon="11.6887833287">
		<tag k="name" v="Laumyrloken" />
		<tag k="natural" v="water" />
		<tag k="ssr:stedsnr" v="237359" />
	</node>
	<node id="-357438" lat="62.3336222226" lon="11.6189611145">
		<tag k="name" v="Gjeddsanden" />
		<tag k="natural" v="beach" />
		<tag k="ssr:stedsnr" v="237331" />
	</node>
	<node id="-359484" lat="62.370050003" lon="11.4729222226">
		<tag k="name" v="Bøljefossen" />
		<tag k="natural" v="waterfall" />
		<tag k="ssr:stedsnr" v="783949" />
	</node>
	<node id="-359481" lat="62.1826277744" lon="11.8062277702">
		<tag k="name" v="Nybubekken" />
		<tag k="ssr:stedsnr" v="783901" />
		<tag k="waterway" v="stream" />
	</node>
	<node id="-357419" lat="62.3199972221" lon="11.6760750038">
		<tag k="name" v="Laumyrbekken" />
		<tag k="ssr:stedsnr" v="237144" />
		<tag k="waterway" v="stream" />
	</node>
	<node id="-359461" lat="62.4768472265" lon="11.3076555531">
		<tag k="name" v="Svarthølen" />
		<tag k="place" v="locality" />
		<tag k="ssr:stedsnr" v="783506" />
	</node>
	<node id="-359449" lat="62.4743249997" lon="11.1833166747">
		<tag k="name" v="Tuvloken" />
		<tag k="natural" v="water" />
		<tag k="ssr:stedsnr" v="783317" />
		<tag k="water" v="pond" />
	</node>
	<node id="-357393" lat="62.5655777793" lon="10.9596972129">
		<tag k="name" v="Halterikbekken" />
		<tag k="ssr:stedsnr" v="236367" />
		<tag k="waterway" v="stream" />
	</node>
	<node id="-357392" lat="62.4878563779" lon="11.18493314">
		<tag k="name" v="Abbortjønnan" />
		<tag k="natural" v="water" />
		<tag k="ssr:stedsnr" v="236180" />
		<tag k="water" v="lake" />
	</node>
	<node id="-359437" lat="62.3271111107" lon="11.5744305603">
		<tag k="name" v="Veslehølbekken" />
		<tag k="ssr:stedsnr" v="783256" />
		<tag k="waterway" v="stream" />
	</node>
	<node id="-357388" lat="62.5717027784" lon="11.1804083325">
		<tag k="name" v="Bekketrølandet" />
		<tag k="natural" v="beach" />
		<tag k="ssr:stedsnr" v="236075" />
	</node>
	<node id="-359429" lat="62.3007499965" lon="11.652352772">
		<tag k="name" v="Rundtjønna" />
		<tag k="natural" v="water" />
		<tag k="ssr:stedsnr" v="783151" />
	</node>
	<node id="-359425" lat="62.1944861121" lon="11.812397218">
		<tag k="name" v="Kanalen" />
		<tag k="natural" v="strait" />
		<tag k="ssr:stedsnr" v="783082" />
	</node>
	<node id="-359424" lat="62.1925305519" lon="11.8136333401">
		<tag k="name" v="Kviltøvja" />
		<tag k="natural" v="bay" />
		<tag k="ssr:stedsnr" v="783078" />
	</node>
	<node id="-357372" lat="62.6573527793" lon="10.8883305573">
		<tag k="name" v="Mullbekken" />
		<tag k="ssr:stedsnr" v="12224" />
		<tag k="waterway" v="stream" />
	</node>
	<node id="-359419" lat="62.4623027789" lon="11.0684250081">
		<tag k="name" v="Hørtdalsbekken" />
		<tag k="ssr:stedsnr" v="783003" />
		<tag k="waterway" v="stream" />
	</node>
	<node id="-357370" lat="62.6478750007" lon="11.1473083246">
		<tag k="name" v="Røbekken" />
		<tag k="ssr:stedsnr" v="12207" />
		<tag k="waterway" v="stream" />
	</node>
	<node id="-357369" lat="62.3612305534" lon="11.6729666759">
		<tag k="name" v="Kattugletjønna" />
		<tag k="natural" v="water" />
		<tag k="ssr:stedsnr" v="11419" />
	</node>
	<node id="-359416" lat="62.5371361103" lon="11.2087472297">
		<tag k="name" v="Rødstenbekken" />
		<tag k="ssr:stedsnr" v="782712" />
		<tag k="waterway" v="stream" />
	</node>
	<node id="-359415" lat="62.5428194468" lon="11.1865138796">
		<tag k="name" v="Midttjønna" />
		<tag k="natural" v="water" />
		<tag k="ssr:stedsnr" v="782683" />
	</node>
	<node id="-359413" lat="62.5315055581" lon="10.9907944511">
		<tag k="name" v="Myrengbekken" />
		<tag k="ssr:stedsnr" v="782612" />
		<tag k="waterway" v="stream" />
	</node>
	<node id="-359412" lat="62.5086111067" lon="11.0244972281">
		<tag k="name" v="Fisktjønna" />
		<tag k="natural" v="water" />
		<tag k="ssr:stedsnr" v="782611" />
	</node>
	<node id="-359401" lat="62.5636805567" lon="11.1834749947">
		<tag k="name" v="Grubbhølmen" />
		<tag k="place" v="islet" />
		<tag k="ssr:stedsnr" v="782051" />
	</node>
	<node id="-359396" lat="62.4142722216" lon="11.3905750073">
		<tag k="name" v="Kvernbekken" />
		<tag k="ssr:stedsnr" v="767996" />
		<tag k="waterway" v="stream" />
	</node>
	<node id="-359389" lat="62.3755388859" lon="11.6475111146">
		<tag k="alt_name" v="Stortjørna" />
		<tag k="name" v="Stortjønna" />
		<tag k="natural" v="water" />
		<tag k="ssr:stedsnr" v="740384" />
	</node>
	<node id="-359383" lat="62.5473305514" lon="10.9980250061">
		<tag k="name" v="Småtjønnan" />
		<tag k="natural" v="water" />
		<tag k="ssr:stedsnr" v="739847" />
		<tag k="water" v="lake" />
	</node>
	<node id="-359381" lat="62.3490840661" lon="11.6471114585">
		<tag k="alt_name" v="Kløfttjørnane" />
		<tag k="name" v="Kløfttjønnan" />
		<tag k="natural" v="water" />
		<tag k="ssr:stedsnr" v="739452" />
		<tag k="water" v="lake" />
	</node>
	<node id="-359380" lat="62.3252527778" lon="11.4744972127">
		<tag k="name" v="Engåa" />
		<tag k="ssr:stedsnr" v="739434" />
		<tag k="waterway" v="river" />
	</node>
	<node id="-359378" lat="62.1439138899" lon="11.8342749937">
		<tag k="name" v="Kråkholmen" />
		<tag k="place" v="islet" />
		<tag k="ssr:stedsnr" v="739349" />
	</node>
	<node id="-359377" lat="62.5301833347" lon="11.221175006">
		<tag k="alt_name" v="Kvernbekken" />
		<tag k="name" v="Kvennbekken" />
		<tag k="ssr:stedsnr" v="739346" />
		<tag k="waterway" v="stream" />
	</node>
	<node id="-359375" lat="62.1673499962" lon="11.8295527683">
		<tag k="name" v="Kløvstenodden" />
		<tag k="natural" v="cape" />
		<tag k="ssr:stedsnr" v="739334" />
	</node>
	<node id="-359370" lat="62.5784694414" lon="10.9904805577">
		<tag k="name" v="Åsbekken" />
		<tag k="old_name" v="Åslibekken" />
		<tag k="ssr:stedsnr" v="739127" />
		<tag k="waterway" v="stream" />
	</node>
	<node id="-359363" lat="62.5545805518" lon="10.9830333305">
		<tag k="name" v="Holmsloken" />
		<tag k="natural" v="water" />
		<tag k="ssr:stedsnr" v="626614" />
	</node>
	<node id="-359359" lat="62.3331583313" lon="11.7272194469">
		<tag k="name" v="Flena" />
		<tag k="ssr:stedsnr" v="618718" />
		<tag k="waterway" v="river" />
	</node>
	<node id="-359358" lat="62.3425277792" lon="11.7408499935">
		<tag k="name" v="Flensbekken" />
		<tag k="ssr:stedsnr" v="618596" />
		<tag k="waterway" v="stream" />
	</node>
	<node id="-359355" lat="62.3418749958" lon="11.7349888951">
		<tag k="name" v="Lerbekken" />
		<tag k="ssr:stedsnr" v="618562" />
		<tag k="waterway" v="stream" />
	</node>
	<node id="-359353" lat="62.2500138886" lon="11.6294583318">
		<tag k="alt_name" v="Steintjørna" />
		<tag k="name" v="Steintjønna" />
		<tag k="natural" v="water" />
		<tag k="ssr:stedsnr" v="618522" />
	</node>
	<node id="-359348" lat="62.2885194443" lon="11.7392027852">
		<tag k="name" v="Hestskoloken" />
		<tag k="natural" v="water" />
		<tag k="ssr:stedsnr" v="618568" />
	</node>
	<node id="-357534" lat="62.5590361074" lon="10.9605555636">
		<tag k="name" v="Gruvbekken" />
		<tag k="ssr:stedsnr" v="254799" />
		<tag k="waterway" v="stream" />
	</node>
	<node id="-359346" lat="62.4836888868" lon="11.2501861046">
		<tag k="name" v="Verjåa" />
		<tag k="ssr:stedsnr" v="618289" />
		<tag k="waterway" v="river" />
	</node>
	<node id="-359342" lat="62.5970754451" lon="11.1020659536">
		<tag k="alt_name" v="Søndre Hanksjøen;Hanksjøen, syndre" />
		<tag k="name" v="Syndre Hanksjøen" />
		<tag k="natural" v="water" />
		<tag k="ssr:stedsnr" v="618141" />
		<tag k="water" v="lake" />
	</node>
	<node id="-357513" lat="62.5880555595" lon="10.8821555629">
		<tag k="name" v="Storbekken" />
		<tag k="ssr:stedsnr" v="254330" />
		<tag k="waterway" v="stream" />
	</node>
	<node id="-359334" lat="62.6728055597" lon="10.8160138891">
		<tag k="name" v="Litlhåen" />
		<tag k="natural" v="bay" />
		<tag k="ssr:stedsnr" v="618184" />
	</node>
	<node id="-359333" lat="62.6325965545" lon="11.0082522591">
		<tag k="name" v="Åslitjønnan" />
		<tag k="natural" v="water" />
		<tag k="ssr:stedsnr" v="618168" />
		<tag k="water" v="lake" />
	</node>
	<node id="-359328" lat="62.2466083313" lon="11.6528916664">
		<tag k="name" v="Sætertjønna" />
		<tag k="natural" v="water" />
		<tag k="ssr:stedsnr" v="617470" />
	</node>
	<node id="-359327" lat="62.2447722213" lon="11.740877781">
		<tag k="alt_name" v="Kvernbekken" />
		<tag k="name" v="Kvennbekken" />
		<tag k="ssr:stedsnr" v="617456" />
		<tag k="waterway" v="stream" />
	</node>
	<node id="-359323" lat="62.6009944455" lon="11.1138472201">
		<tag k="name" v="Undliåstjønna" />
		<tag k="natural" v="water" />
		<tag k="ssr:stedsnr" v="600933" />
	</node>
	<node id="-359314" lat="62.4585833361" lon="11.1300194527">
		<tag k="name" v="Anvisåsbekken" />
		<tag k="ssr:stedsnr" v="600670" />
		<tag k="waterway" v="stream" />
	</node>
	<node id="-359311" lat="62.4904244203" lon="11.2567410786">
		<tag k="name" v="Bingtjønnan" />
		<tag k="natural" v="water" />
		<tag k="ssr:stedsnr" v="600537" />
		<tag k="water" v="lake" />
	</node>
	<node id="-359306" lat="62.4353722235" lon="11.2053694379">
		<tag k="name" v="Storloken" />
		<tag k="natural" v="water" />
		<tag k="ssr:stedsnr" v="600500" />
	</node>
	<node id="-359291" lat="62.3218916685" lon="11.640099998">
		<tag k="name" v="Digerodden" />
		<tag k="natural" v="cape" />
		<tag k="ssr:stedsnr" v="600312" />
	</node>
	<node id="-359290" lat="62.4608805566" lon="11.1420444439">
		<tag k="name" v="Halvmilholmen" />
		<tag k="place" v="islet" />
		<tag k="ssr:stedsnr" v="600310" />
	</node>
	<node id="-359289" lat="62.3434027754" lon="11.5852972228">
		<tag k="name" v="Vika" />
		<tag k="natural" v="bay" />
		<tag k="ssr:stedsnr" v="600309" />
	</node>
	<node id="-359288" lat="62.3371999994" lon="11.5940361022">
		<tag k="name" v="Sikodden" />
		<tag k="natural" v="cape" />
		<tag k="ssr:stedsnr" v="600308" />
	</node>
	<node id="-359287" lat="62.3395000001" lon="11.5992555572">
		<tag k="name" v="Svartstoet" />
		<tag k="natural" v="bay" />
		<tag k="ssr:stedsnr" v="600307" />
	</node>
	<node id="-359277" lat="62.3285999962" lon="11.5477694443">
		<tag k="name" v="Narkroken" />
		<tag k="place" v="locality" />
		<tag k="ssr:stedsnr" v="600263" />
	</node>
	<node id="-359273" lat="62.1647805546" lon="11.8296944496">
		<tag k="name" v="Dampbåtvedodden" />
		<tag k="natural" v="cape" />
		<tag k="ssr:stedsnr" v="600218" />
	</node>
	<node id="-359272" lat="62.1413222246" lon="11.825422223">
		<tag k="name" v="Bratteggneset" />
		<tag k="natural" v="cape" />
		<tag k="ssr:stedsnr" v="600214" />
	</node>
	<node id="-359267" lat="62.5809944466" lon="11.1953777786">
		<tag k="name" v="Hånes" />
		<tag k="natural" v="cape" />
		<tag k="ssr:stedsnr" v="600083" />
	</node>
	<node id="-359264" lat="62.5029444409" lon="10.9868972153">
		<tag k="name" v="Søndre Måssåtjønna" />
		<tag k="natural" v="water" />
		<tag k="ssr:stedsnr" v="600059" />
	</node>
	<node id="-357520" lat="62.6509194435" lon="11.0824388956">
		<tag k="name" v="Rundhøgdbekken" />
		<tag k="ssr:stedsnr" v="254192" />
		<tag k="waterway" v="stream" />
	</node>
	<node id="-359262" lat="62.2573083321" lon="11.7456583274">
		<tag k="name" v="Djupdalsbekken" />
		<tag k="ssr:stedsnr" v="600051" />
		<tag k="waterway" v="stream" />
	</node>
	<node id="-359261" lat="62.2608277738" lon="11.7551333407">
		<tag k="name" v="Stormyrodden" />
		<tag k="natural" v="cape" />
		<tag k="ssr:stedsnr" v="600048" />
	</node>
	<node id="-359258" lat="62.3492138899" lon="11.4874805504">
		<tag k="name" v="Buvikodden" />
		<tag k="natural" v="cape" />
		<tag k="ssr:stedsnr" v="599483" />
	</node>
	<node id="-359255" lat="62.3185166713" lon="11.7360111035">
		<tag k="name" v="Djupdalsbekken" />
		<tag k="ssr:stedsnr" v="599185" />
		<tag k="waterway" v="stream" />
	</node>
	<node id="-359251" lat="62.4648189133" lon="11.0482034813">
		<tag k="name" v="Hørtbekken" />
		<tag k="ssr:stedsnr" v="586146" />
		<tag k="waterway" v="stream" />
	</node>
	<node id="-359247" lat="62.5062472187" lon="10.9869611021">
		<tag k="alt_name" v="Måssåtjønna nordre" />
		<tag k="name" v="Måsåtjønna" />
		<tag k="natural" v="water" />
		<tag k="ssr:stedsnr" v="557746" />
	</node>
	<node id="-359246" lat="62.5118000019" lon="10.9992583321">
		<tag k="name" v="Stortjønna" />
		<tag k="natural" v="water" />
		<tag k="ssr:stedsnr" v="557745" />
	</node>
	<node id="-359241" lat="62.5379944418" lon="11.1895333337">
		<tag k="name" v="Skitjønna" />
		<tag k="natural" v="water" />
		<tag k="ssr:stedsnr" v="557839" />
	</node>
	<node id="-359235" lat="62.3564555582" lon="11.6601333381">
		<tag k="alt_name" v="Langtjørna" />
		<tag k="name" v="Langtjønna" />
		<tag k="natural" v="water" />
		<tag k="ssr:stedsnr" v="557431" />
	</node>
	<node id="-359221" lat="62.4563752828" lon="11.0649839424">
		<tag k="name" v="Hørttjønnan" />
		<tag k="natural" v="water" />
		<tag k="ssr:stedsnr" v="557081" />
	</node>
	<node id="-359220" lat="62.2440499992" lon="11.7766916687">
		<tag k="name" v="Stormyrtjønna" />
		<tag k="natural" v="water" />
		<tag k="ssr:stedsnr" v="556388" />
	</node>
	<node id="-359218" lat="62.3031055548" lon="11.6909611113">
		<tag k="name" v="Håmmårbekken" />
		<tag k="ssr:stedsnr" v="553136" />
		<tag k="waterway" v="stream" />
	</node>
	<node id="-359215" lat="62.3618750034" lon="11.4727000048">
		<tag k="name" v="Sundbekken" />
		<tag k="ssr:stedsnr" v="540944" />
		<tag k="waterway" v="stream" />
	</node>
	<node id="-359212" lat="62.6263388909" lon="11.1142027841">
		<tag k="name" v="Adamsfallet" />
		<tag k="natural" v="waterfall" />
		<tag k="ssr:stedsnr" v="540796" />
	</node>
	<node id="-359208" lat="62.4718138848" lon="11.3404944503">
		<tag k="name" v="Fåsetodden" />
		<tag k="natural" v="cape" />
		<tag k="ssr:stedsnr" v="540727" />
	</node>
	<node id="-359205" lat="62.4451694458" lon="11.3806944482">
		<tag k="name" v="Mosengbekken" />
		<tag k="ssr:stedsnr" v="540711" />
		<tag k="waterway" v="stream" />
	</node>
	<node id="-359204" lat="62.5059055568" lon="11.0350249969">
		<tag k="name" v="Litjhåen" />
		<tag k="natural" v="water" />
		<tag k="ssr:stedsnr" v="540689" />
		<tag k="water" v="lake" />
	</node>
	<node id="-359201" lat="62.5372222202" lon="11.2196083302">
		<tag k="name" v="Klettvolloken" />
		<tag k="natural" v="water" />
		<tag k="ssr:stedsnr" v="540480" />
	</node>
	<node id="-359198" lat="62.4846388862" lon="11.2756527866">
		<tag k="name" v="Fossan" />
		<tag k="natural" v="waterfall" />
		<tag k="ssr:stedsnr" v="540621" />
	</node>
	<node id="-359197" lat="62.4783999963" lon="11.1247444524">
		<tag k="name" v="Tollolloken" />
		<tag k="natural" v="water" />
		<tag k="ssr:stedsnr" v="540351" />
	</node>
	<node id="-359196" lat="62.319700004" lon="11.673652773">
		<tag k="name" v="Stenrøstbekken" />
		<tag k="ssr:stedsnr" v="540346" />
		<tag k="waterway" v="stream" />
	</node>
	<node id="-359195" lat="62.4684361133" lon="11.1387611101">
		<tag k="name" v="Storbekken" />
		<tag k="ssr:stedsnr" v="540345" />
		<tag k="waterway" v="stream" />
	</node>
	<node id="-359194" lat="62.4707388871" lon="11.1369499938">
		<tag k="name" v="Storbekken" />
		<tag k="ssr:stedsnr" v="540344" />
		<tag k="waterway" v="stream" />
	</node>
	<node id="-359186" lat="62.2229722241" lon="11.7924083291">
		<tag k="name" v="Hølen" />
		<tag k="place" v="locality" />
		<tag k="ssr:stedsnr" v="540091" />
	</node>
	<node id="-359182" lat="62.5473111085" lon="11.0913944419">
		<tag k="name" v="Kvangravbekken" />
		<tag k="ssr:stedsnr" v="540072" />
		<tag k="waterway" v="stream" />
	</node>
	<node id="-359176" lat="62.3487694401" lon="11.6343361066">
		<tag k="name" v="Petnillaloken" />
		<tag k="natural" v="water" />
		<tag k="ssr:stedsnr" v="540311" />
	</node>
	<node id="-359175" lat="62.6029777793" lon="10.9458416752">
		<tag k="name" v="Yterhaugsbekken" />
		<tag k="ssr:stedsnr" v="540306" />
		<tag k="waterway" v="stream" />
	</node>
	<node id="-357539" lat="62.2795222195" lon="11.7179222165">
		<tag k="name" v="Fiskhusbekken" />
		<tag k="ssr:stedsnr" v="114208" />
		<tag k="waterway" v="stream" />
	</node>
	<node id="-359165" lat="62.394766665" lon="11.494733326">
		<tag k="name" v="Fallet" />
		<tag k="natural" v="waterfall" />
		<tag k="ssr:stedsnr" v="539742" />
	</node>
	<node id="-359164" lat="62.5237722203" lon="11.0175416638">
		<tag k="name" v="Skarvåsbekken" />
		<tag k="ssr:stedsnr" v="539651" />
		<tag k="waterway" v="stream" />
	</node>
	<node id="-359163" lat="62.5635555518" lon="11.0255416709">
		<tag k="name" v="Kroketfossen" />
		<tag k="natural" v="waterfall" />
		<tag k="ssr:stedsnr" v="539511" />
	</node>
	<node id="-359161" lat="62.5447138913" lon="10.9906027817">
		<tag k="name" v="Feltloken" />
		<tag k="natural" v="water" />
		<tag k="ssr:stedsnr" v="539601" />
	</node>
	<node id="-359160" lat="62.5365666647" lon="11.0719499912">
		<tag k="name" v="Kroketloken" />
		<tag k="natural" v="water" />
		<tag k="ssr:stedsnr" v="539594" />
	</node>
	<node id="-359157" lat="62.2951416635" lon="11.7157222145">
		<tag k="name" v="Gråvikjerrbekken" />
		<tag k="ssr:stedsnr" v="539199" />
		<tag k="waterway" v="stream" />
	</node>
	<node id="-359155" lat="62.2756694476" lon="11.7527916763">
		<tag k="name" v="Kronmobekken" />
		<tag k="ssr:stedsnr" v="539187" />
		<tag k="waterway" v="stream" />
	</node>
	<node id="-359146" lat="62.5665888896" lon="11.1964916647">
		<tag k="name" v="Spellmoodden" />
		<tag k="natural" v="cape" />
		<tag k="ssr:stedsnr" v="539056" />
	</node>
	<node id="-359143" lat="62.360400003" lon="11.658219449">
		<tag k="alt_name" v="Midtjørna" />
		<tag k="name" v="Midtjønna" />
		<tag k="natural" v="water" />
		<tag k="ssr:stedsnr" v="437444" />
	</node>
	<node id="-359140" lat="62.5315750004" lon="11.0237527853">
		<tag k="name" v="Storflotjønna" />
		<tag k="natural" v="water" />
		<tag k="ssr:stedsnr" v="436847" />
	</node>
	<node id="-359138" lat="62.5446111094" lon="11.1828472175">
		<tag k="name" v="Sæterlitjønna" />
		<tag k="natural" v="water" />
		<tag k="ssr:stedsnr" v="436831" />
	</node>
	<node id="-359136" lat="62.5162527767" lon="11.0946777773">
		<tag k="name" v="Vangrøfta" />
		<tag k="ssr:stedsnr" v="436811" />
		<tag k="waterway" v="river" />
	</node>
	<node id="-359131" lat="62.5929916643" lon="10.8058805541">
		<tag k="name" v="Tverrfjellbekken" />
		<tag k="ssr:stedsnr" v="436342" />
		<tag k="waterway" v="stream" />
	</node>
	<node id="-359127" lat="62.189811111" lon="11.8124666582">
		<tag k="name" v="Vestre Tjønnan" />
		<tag k="natural" v="bay" />
		<tag k="ssr:stedsnr" v="436298" />
	</node>
	<node id="-359126" lat="62.654933333" lon="10.9261777856">
		<tag k="name" v="Kroktjønna" />
		<tag k="natural" v="water" />
		<tag k="ssr:stedsnr" v="436198" />
	</node>
	<node id="-359125" lat="62.6425361122" lon="10.9355555476">
		<tag k="name" v="Haugsbekken" />
		<tag k="ssr:stedsnr" v="436193" />
		<tag k="waterway" v="stream" />
	</node>
	<node id="-359124" lat="62.643280556" lon="11.1270750064">
		<tag k="alt_name" v="Kjurrua" />
		<tag k="name" v="Tjurua" />
		<tag k="ssr:stedsnr" v="436190" />
		<tag k="waterway" v="river" />
	</node>
	<node id="-359117" lat="62.2903888852" lon="11.6808972248">
		<tag k="name" v="Søndre Langtjønna" />
		<tag k="natural" v="water" />
		<tag k="ssr:stedsnr" v="436447" />
	</node>
	<node id="-359116" lat="62.3872027779" lon="11.5283999928">
		<tag k="name" v="Øvre Harrbekktjønna" />
		<tag k="natural" v="water" />
		<tag k="ssr:stedsnr" v="436396" />
	</node>
	<node id="-359109" lat="60.9394388853" lon="11.516244439">
		<tag k="fixme" v="multiple name tags, choose one and add the other to alt_name" />
		<tag k="name" v="Glomma;Glåma" />
		<tag k="ssr:stedsnr" v="426301" />
		<tag k="waterway" v="river" />
	</node>
	<node id="-359108" lat="62.5892444489" lon="11.088897226">
		<tag k="name" v="Kløftet" />
		<tag k="natural" v="waterfall" />
		<tag k="ssr:stedsnr" v="421391" />
	</node>
	<node id="-359087" lat="62.3348277765" lon="11.5991388809">
		<tag k="name" v="Tangodden" />
		<tag k="natural" v="cape" />
		<tag k="ssr:stedsnr" v="419324" />
	</node>
	<node id="-359086" lat="62.3352277786" lon="11.6521444407">
		<tag k="name" v="Litjrabbekken" />
		<tag k="ssr:stedsnr" v="419297" />
		<tag k="waterway" v="stream" />
	</node>
	<node id="-359083" lat="62.3297444473" lon="11.5514694502">
		<tag k="name" v="Gjeddtjønnbekken" />
		<tag k="ssr:stedsnr" v="419254" />
		<tag k="waterway" v="stream" />
	</node>
	<node id="-359080" lat="62.5122222196" lon="11.1003361118">
		<tag k="name" v="Vonddikbekken" />
		<tag k="ssr:stedsnr" v="419190" />
		<tag k="waterway" v="stream" />
	</node>
	<node id="-357504" lat="62.339825" lon="11.7046249972">
		<tag k="name" v="Engbekken" />
		<tag k="ssr:stedsnr" v="72439" />
		<tag k="waterway" v="stream" />
	</node>
	<node id="-359069" lat="62.1838583354" lon="11.8220388923">
		<tag k="name" v="Sætersøvja" />
		<tag k="natural" v="bay" />
		<tag k="ssr:stedsnr" v="419119" />
	</node>
	<node id="-359065" lat="62.2544111072" lon="11.762363896">
		<tag k="name" v="Sigridloken" />
		<tag k="natural" v="water" />
		<tag k="ssr:stedsnr" v="419068" />
	</node>
	<node id="-359060" lat="62.321777782" lon="11.5588499972">
		<tag k="name" v="Øvre Nyløtjønna" />
		<tag k="natural" v="water" />
		<tag k="ssr:stedsnr" v="419283" />
	</node>
	<node id="-359056" lat="62.3420972201" lon="11.5323722126">
		<tag k="name" v="Lokan" />
>>>>>>> e1d4bc35ff8a6074a6f2e91616a996b547c36f15
		<tag k="natural" v="water" />
		<tag k="ssr:stedsnr" v="418478" />
	</node>
<<<<<<< HEAD
	<node lat="62.579405551785044" lon="11.074686103837548" id="-23431">
		<tag k="alt_name" v="Hångåa" />
		<tag k="name" v="Hongåa" />
		<tag k="ssr:stedsnr" v="497138" />
		<tag k="waterway" v="river" />
	</node>
	<node lat="62.634450001420674" lon="10.91396388190691" id="-23432">
		<tag k="name" v="Østubekken" />
		<tag k="ssr:stedsnr" v="497184" />
		<tag k="waterway" v="stream" />
	</node>
	<node lat="62.55138610870478" lon="11.027900004217818" id="-23434">
		<tag k="name" v="Flovollbekken" />
		<tag k="ssr:stedsnr" v="497833" />
		<tag k="waterway" v="stream" />
	</node>
	<node lat="62.39663367226749" lon="11.470935893880263" id="-23435">
		<tag k="alt_name" v="Musholtjørnane" />
		<tag k="name" v="Musholtjønnan" />
		<tag k="natural" v="water" />
		<tag k="ssr:stedsnr" v="497385" />
		<tag k="water" v="lake" />
	</node>
	<node lat="62.56658888963916" lon="11.196491664713655" id="-23442">
		<tag k="name" v="Spellmoodden" />
		<tag k="natural" v="cape" />
		<tag k="ssr:stedsnr" v="539056" />
	</node>
	<node lat="62.275669447601516" lon="11.752791676322104" id="-23444">
		<tag k="name" v="Kronmobekken" />
		<tag k="ssr:stedsnr" v="539187" />
		<tag k="waterway" v="stream" />
	</node>
	<node lat="62.29514166352965" lon="11.715722214462364" id="-23446">
		<tag k="name" v="Gråvikjerrbekken" />
		<tag k="ssr:stedsnr" v="539199" />
		<tag k="waterway" v="stream" />
	</node>
	<node lat="62.53656666469613" lon="11.071949991200075" id="-23449">
		<tag k="name" v="Kroketloken" />
		<tag k="natural" v="water" />
		<tag k="ssr:stedsnr" v="539594" />
	</node>
	<node lat="62.54471389128204" lon="10.990602781737868" id="-23450">
		<tag k="name" v="Feltloken" />
		<tag k="natural" v="water" />
		<tag k="ssr:stedsnr" v="539601" />
	</node>
	<node lat="62.52377222032497" lon="11.017541663786297" id="-23451">
		<tag k="name" v="Skarvåsbekken" />
		<tag k="ssr:stedsnr" v="539651" />
		<tag k="waterway" v="stream" />
	</node>
	<node lat="62.3947666650432" lon="11.494733325997359" id="-23452">
		<tag k="name" v="Fallet" />
		<tag k="natural" v="waterfall" />
		<tag k="ssr:stedsnr" v="539742" />
	</node>
	<node lat="62.22297222412799" lon="11.792408329083937" id="-23455">
		<tag k="name" v="Hølen" />
		<tag k="place" v="locality" />
		<tag k="ssr:stedsnr" v="540091" />
	</node>
	<node lat="62.36187500343474" lon="11.472700004797339" id="-23456">
		<tag k="name" v="Sundbekken" />
		<tag k="ssr:stedsnr" v="540944" />
		<tag k="waterway" v="stream" />
	</node>
	<node lat="62.49069444569217" lon="11.148072212996121" id="-23463">
		<tag k="name" v="Kvernbekken" />
		<tag k="ssr:stedsnr" v="540153" />
		<tag k="waterway" v="stream" />
	</node>
	<node lat="62.47073888706959" lon="11.13694999377605" id="-23471">
		<tag k="name" v="Storbekken" />
		<tag k="ssr:stedsnr" v="540344" />
		<tag k="waterway" v="stream" />
	</node>
	<node lat="62.46843611331766" lon="11.138761110052695" id="-23472">
		<tag k="name" v="Storbekken" />
		<tag k="ssr:stedsnr" v="540345" />
		<tag k="waterway" v="stream" />
	</node>
	<node lat="62.319700003993404" lon="11.673652773043896" id="-23473">
		<tag k="name" v="Stenrøstbekken" />
		<tag k="ssr:stedsnr" v="540346" />
		<tag k="waterway" v="stream" />
	</node>
	<node lat="62.478399996289774" lon="11.12474445242877" id="-23474">
		<tag k="name" v="Tollolloken" />
		<tag k="natural" v="water" />
		<tag k="ssr:stedsnr" v="540351" />
	</node>
	<node lat="62.4718138847547" lon="11.340494450257413" id="-23479">
		<tag k="name" v="Fåsetodden" />
		<tag k="natural" v="cape" />
		<tag k="ssr:stedsnr" v="540727" />
	</node>
	<node lat="62.505905556786324" lon="11.03502499693614" id="-23482">
		<tag k="name" v="Litjhåen" />
		<tag k="natural" v="water" />
		<tag k="ssr:stedsnr" v="540689" />
		<tag k="water" v="lake" />
	</node>
	<node lat="62.6263388908541" lon="11.114202784139493" id="-23484">
		<tag k="name" v="Adamsfallet" />
		<tag k="natural" v="waterfall" />
		<tag k="ssr:stedsnr" v="540796" />
	</node>
	<node lat="62.2440499992499" lon="11.776691668722961" id="-23487">
		<tag k="name" v="Stormyrtjønna" />
		<tag k="natural" v="water" />
		<tag k="ssr:stedsnr" v="556388" />
	</node>
	<node lat="62.456375282799705" lon="11.064983942419731" id="-23492">
		<tag k="name" v="Hørttjønnan" />
		<tag k="natural" v="water" />
		<tag k="ssr:stedsnr" v="557081" />
	</node>
	<node lat="62.35645555816723" lon="11.660133338083519" id="-23505">
		<tag k="alt_name" v="Langtjørna" />
		<tag k="name" v="Langtjønna" />
		<tag k="natural" v="water" />
		<tag k="ssr:stedsnr" v="557431" />
	</node>
	<node lat="62.53799444180197" lon="11.189533333710424" id="-23510">
		<tag k="name" v="Skitjønna" />
		<tag k="natural" v="water" />
		<tag k="ssr:stedsnr" v="557839" />
	</node>
	<node lat="62.58099444655288" lon="11.195377778604152" id="-23518">
		<tag k="name" v="Hånes" />
		<tag k="natural" v="cape" />
		<tag k="ssr:stedsnr" v="600083" />
	</node>
	<node lat="62.3090888896805" lon="11.686063895486749" id="-23519">
		<tag k="name" v="Kvennhusfossen" />
		<tag k="natural" v="waterfall" />
		<tag k="ssr:stedsnr" v="600155" />
	</node>
	<node lat="62.31851667126586" lon="11.736011103542285" id="-23522">
		<tag k="name" v="Djupdalsbekken" />
		<tag k="ssr:stedsnr" v="599185" />
		<tag k="waterway" v="stream" />
	</node>
	<node lat="62.30503333299043" lon="11.707891657962293" id="-23523">
		<tag k="name" v="Raustenbekken" />
		<tag k="ssr:stedsnr" v="599227" />
		<tag k="waterway" v="stream" />
	</node>
	<node lat="62.34921388987207" lon="11.48748055044472" id="-23526">
		<tag k="name" v="Buvikodden" />
		<tag k="natural" v="cape" />
		<tag k="ssr:stedsnr" v="599483" />
	</node>
	<node lat="62.48084721946947" lon="11.054252780773583" id="-23529">
		<tag k="name" v="Olastjønna" />
		<tag k="natural" v="water" />
		<tag k="ssr:stedsnr" v="600015" />
	</node>
	<node lat="62.49076388559901" lon="11.016963895033134" id="-23532">
		<tag k="name" v="Stortjønnbekken" />
		<tag k="ssr:stedsnr" v="600033" />
		<tag k="waterway" v="stream" />
	</node>
	<node lat="62.14132222462698" lon="11.825422222962324" id="-23535">
		<tag k="name" v="Bratteggneset" />
		<tag k="natural" v="cape" />
		<tag k="ssr:stedsnr" v="600214" />
	</node>
	<node lat="62.16478055456837" lon="11.829694449614657" id="-23536">
		<tag k="name" v="Dampbåtvedodden" />
		<tag k="natural" v="cape" />
		<tag k="ssr:stedsnr" v="600218" />
	</node>
	<node lat="62.30066944221887" lon="11.660483341783031" id="-23546">
		<tag k="name" v="Rundtjønnbekken" />
		<tag k="ssr:stedsnr" v="600185" />
		<tag k="waterway" v="stream" />
	</node>
	<node lat="62.4904244203022" lon="11.256741078575317" id="-23563">
		<tag k="name" v="Bingtjønnan" />
		<tag k="natural" v="water" />
		<tag k="ssr:stedsnr" v="600537" />
		<tag k="water" v="lake" />
	</node>
	<node lat="62.541161107055395" lon="11.017791661558267" id="-23564">
		<tag k="name" v="Flovolltjønna" />
		<tag k="natural" v="water" />
		<tag k="ssr:stedsnr" v="600574" />
		<tag k="water" v="pond" />
	</node>
	<node lat="62.45858333608821" lon="11.130019452651432" id="-23567">
		<tag k="name" v="Anvisåsbekken" />
		<tag k="ssr:stedsnr" v="600670" />
		<tag k="waterway" v="stream" />
	</node>
	<node lat="62.60099444546466" lon="11.113847220142732" id="-23572">
		<tag k="name" v="Undliåstjønna" />
		<tag k="natural" v="water" />
		<tag k="ssr:stedsnr" v="600933" />
	</node>
	<node lat="62.197588891706104" lon="11.819652769980019" id="-23575">
		<tag k="name" v="Adamstjønna" />
		<tag k="natural" v="water" />
		<tag k="ssr:stedsnr" v="617357" />
	</node>
	<node lat="62.172830557208584" lon="11.850452779593837" id="-23576">
		<tag k="name" v="Korneset" />
		<tag k="natural" v="cape" />
		<tag k="ssr:stedsnr" v="617378" />
	</node>
	<node lat="62.24477222126743" lon="11.74087778101513" id="-23577">
		<tag k="alt_name" v="Kvernbekken" />
		<tag k="name" v="Kvennbekken" />
		<tag k="ssr:stedsnr" v="617456" />
		<tag k="waterway" v="stream" />
	</node>
	<node lat="62.24660833128851" lon="11.652891666405518" id="-23578">
		<tag k="name" v="Sætertjønna" />
		<tag k="natural" v="water" />
		<tag k="ssr:stedsnr" v="617470" />
	</node>
	<node lat="62.483688886785956" lon="11.250186104566763" id="-23580">
		<tag k="name" v="Verjåa" />
		<tag k="ssr:stedsnr" v="618289" />
		<tag k="waterway" v="river" />
	</node>
	<node lat="62.38731944579191" lon="11.365866671875477" id="-23582">
		<tag k="alt_name" v="Galåtjørna" />
		<tag k="name" v="Galåtjønna" />
		<tag k="natural" v="water" />
		<tag k="ssr:stedsnr" v="618402" />
	</node>
	<node lat="62.37751944593738" lon="11.4654750096024" id="-23583">
		<tag k="name" v="Storhåen" />
		<tag k="natural" v="water" />
		<tag k="ssr:stedsnr" v="618410" />
	</node>
	<node lat="62.5970754451288" lon="11.10206595360251" id="-23586">
		<tag k="alt_name" v="Søndre Hanksjøen;Hanksjøen, syndre" />
		<tag k="name" v="Syndre Hanksjøen" />
		<tag k="natural" v="water" />
		<tag k="ssr:stedsnr" v="618141" />
		<tag k="water" v="lake" />
	</node>
	<node lat="62.63259655452865" lon="11.008252259082761" id="-23590">
		<tag k="name" v="Åslitjønnan" />
		<tag k="natural" v="water" />
		<tag k="ssr:stedsnr" v="618168" />
		<tag k="water" v="lake" />
	</node>
	<node lat="62.25001388864719" lon="11.629458331765472" id="-23595">
		<tag k="alt_name" v="Steintjørna" />
		<tag k="name" v="Steintjønna" />
		<tag k="natural" v="water" />
		<tag k="ssr:stedsnr" v="618522" />
	</node>
	<node lat="62.34187499578248" lon="11.734988895147984" id="-23597">
		<tag k="name" v="Lerbekken" />
		<tag k="ssr:stedsnr" v="618562" />
		<tag k="waterway" v="stream" />
	</node>
	<node lat="62.28851944425361" lon="11.739202785207521" id="-23598">
		<tag k="name" v="Hestskoloken" />
		<tag k="natural" v="water" />
		<tag k="ssr:stedsnr" v="618568" />
	</node>
	<node lat="62.333158331338986" lon="11.727219446943014" id="-23601">
		<tag k="name" v="Flena" />
		<tag k="ssr:stedsnr" v="618718" />
		<tag k="waterway" v="river" />
	</node>
	<node lat="62.53367799720094" lon="10.95245656871161" id="-23603">
		<tag k="name" v="Litldjupsjøen" />
		<tag k="natural" v="water" />
		<tag k="ssr:stedsnr" v="618833" />
	</node>
	<node lat="62.14656110942474" lon="11.832230549765098" id="-23608">
		<tag k="name" v="Kråkholmvika" />
		<tag k="natural" v="bay" />
		<tag k="ssr:stedsnr" v="660208" />
	</node>
	<node lat="62.57409166412069" lon="11.177411106450839" id="-23628">
		<tag k="name" v="Djupbekken" />
		<tag k="ssr:stedsnr" v="661074" />
		<tag k="waterway" v="stream" />
	</node>
	<node lat="62.59198333561558" lon="10.980013882877138" id="-23635">
		<tag k="name" v="Storbekken" />
		<tag k="ssr:stedsnr" v="661427" />
		<tag k="waterway" v="stream" />
	</node>
	<node lat="62.534561110310804" lon="11.051547220059904" id="-23640">
		<tag k="name" v="Blæstertjønnbekken" />
		<tag k="ssr:stedsnr" v="661589" />
		<tag k="waterway" v="stream" />
	</node>
	<node lat="62.144444441304216" lon="11.826611116387069" id="-23662">
		<tag k="name" v="Sandvika" />
		<tag k="natural" v="bay" />
		<tag k="ssr:stedsnr" v="721191" />
	</node>
	<node lat="62.56882499839935" lon="11.160702778132888" id="-23667">
		<tag k="name" v="Gråbenloken" />
		<tag k="natural" v="water" />
		<tag k="ssr:stedsnr" v="722088" />
	</node>
	<node lat="62.57576388949078" lon="11.187280559220756" id="-23669">
		<tag k="name" v="Gjeltvika" />
		<tag k="natural" v="bay" />
		<tag k="ssr:stedsnr" v="722094" />
	</node>
	<node lat="62.23176944159947" lon="11.782644443813677" id="-23671">
		<tag k="name" v="Summundstjønna" />
		<tag k="natural" v="water" />
		<tag k="ssr:stedsnr" v="722101" />
	</node>
	<node lat="62.52078610900279" lon="11.13966666959031" id="-23672">
		<tag k="name" v="Kvernbekken" />
		<tag k="ssr:stedsnr" v="722203" />
		<tag k="waterway" v="stream" />
	</node>
	<node lat="62.21111389050407" lon="11.818108327977244" id="-23673">
		<tag k="name" v="Øvre Svåen" />
		<tag k="ssr:stedsnr" v="722133" />
		<tag k="waterway" v="rapids" />
	</node>
	<node lat="62.34018610948797" lon="11.60869444099351" id="-23682">
		<tag k="name" v="Stenrøstbekken" />
		<tag k="ssr:stedsnr" v="722311" />
		<tag k="waterway" v="stream" />
	</node>
	<node lat="62.30787777888144" lon="11.607841665113536" id="-23683">
		<tag k="name" v="Sæterbekken" />
		<tag k="ssr:stedsnr" v="722342" />
		<tag k="waterway" v="stream" />
	</node>
	<node lat="62.5057944439443" lon="11.14588055021477" id="-23689">
		<tag k="name" v="Sæterbekken" />
		<tag k="ssr:stedsnr" v="722214" />
		<tag k="waterway" v="stream" />
	</node>
	<node lat="62.59375000428966" lon="11.10185834035179" id="-23699">
		<tag k="name" v="Storvika" />
		<tag k="natural" v="bay" />
		<tag k="ssr:stedsnr" v="722928" />
	</node>
	<node lat="62.593424997513665" lon="11.1096777824999" id="-23700">
		<tag k="name" v="Undliåsbekken" />
		<tag k="ssr:stedsnr" v="722930" />
		<tag k="waterway" v="stream" />
	</node>
	<node lat="62.166783335177705" lon="11.820438887122249" id="-23701">
		<tag k="name" v="Kløvstenbekken" />
		<tag k="ssr:stedsnr" v="722938" />
		<tag k="waterway" v="stream" />
	</node>
	<node lat="62.51857222231303" lon="11.238383324377365" id="-23709">
		<tag k="name" v="Springarbekken" />
		<tag k="ssr:stedsnr" v="722761" />
		<tag k="waterway" v="stream" />
	</node>
	<node lat="62.167349996198965" lon="11.829552768325916" id="-23717">
		<tag k="name" v="Kløvstenodden" />
		<tag k="natural" v="cape" />
		<tag k="ssr:stedsnr" v="739334" />
	</node>
	<node lat="62.325252777821895" lon="11.474497212652638" id="-23722">
		<tag k="name" v="Engåa" />
		<tag k="ssr:stedsnr" v="739434" />
		<tag k="waterway" v="river" />
	</node>
	<node lat="62.34908406611873" lon="11.647111458465636" id="-23723">
		<tag k="alt_name" v="Kløfttjørnane" />
		<tag k="name" v="Kløfttjønnan" />
		<tag k="natural" v="water" />
		<tag k="ssr:stedsnr" v="739452" />
		<tag k="water" v="lake" />
	</node>
	<node lat="62.34246110957277" lon="11.645541663335772" id="-23724">
		<tag k="alt_name" v="Fjordungstjørna" />
		<tag k="name" v="Fjordungstjønna" />
		<tag k="natural" v="water" />
		<tag k="ssr:stedsnr" v="739460" />
	</node>
	<node lat="62.513525003101144" lon="11.021616671524049" id="-23727">
		<tag k="name" v="Kroktjønna" />
		<tag k="natural" v="water" />
		<tag k="ssr:stedsnr" v="739764" />
	</node>
	<node lat="62.375538885899786" lon="11.647511114619196" id="-23742">
		<tag k="alt_name" v="Stortjørna" />
		<tag k="name" v="Stortjønna" />
		<tag k="natural" v="water" />
		<tag k="ssr:stedsnr" v="740384" />
	</node>
	<node lat="62.15823889172682" lon="11.830836105508405" id="-23748">
		<tag k="name" v="Søndre Jotbuholmen" />
		<tag k="place" v="islet" />
		<tag k="ssr:stedsnr" v="748453" />
	</node>
	<node lat="62.4142722215841" lon="11.390575007301335" id="-23749">
		<tag k="name" v="Kvernbekken" />
		<tag k="ssr:stedsnr" v="767996" />
		<tag k="waterway" v="stream" />
	</node>
	<node lat="62.56368055669465" lon="11.183474994667797" id="-23757">
		<tag k="name" v="Grubbhølmen" />
		<tag k="place" v="islet" />
		<tag k="ssr:stedsnr" v="782051" />
	</node>
	<node lat="62.50861110674184" lon="11.024497228082145" id="-23762">
		<tag k="name" v="Fisktjønna" />
		<tag k="natural" v="water" />
		<tag k="ssr:stedsnr" v="782611" />
	</node>
	<node lat="62.531505558133354" lon="10.9907944510604" id="-23763">
		<tag k="name" v="Myrengbekken" />
		<tag k="ssr:stedsnr" v="782612" />
		<tag k="waterway" v="stream" />
	</node>
	<node lat="62.54281944680461" lon="11.186513879630859" id="-23767">
		<tag k="name" v="Midttjønna" />
		<tag k="natural" v="water" />
		<tag k="ssr:stedsnr" v="782683" />
	</node>
	<node lat="62.19253055185057" lon="11.813633340094933" id="-23770">
		<tag k="name" v="Kviltøvja" />
		<tag k="natural" v="bay" />
		<tag k="ssr:stedsnr" v="783078" />
	</node>
	<node lat="62.19448611208151" lon="11.812397217991988" id="-23771">
		<tag k="name" v="Kanalen" />
		<tag k="natural" v="strait" />
		<tag k="ssr:stedsnr" v="783082" />
	</node>
	<node lat="62.32711111066373" lon="11.574430560260042" id="-23775">
		<tag k="name" v="Veslehølbekken" />
		<tag k="ssr:stedsnr" v="783256" />
		<tag k="waterway" v="stream" />
	</node>
	<node lat="62.47432499965044" lon="11.183316674670255" id="-23780">
		<tag k="name" v="Tuvloken" />
		<tag k="natural" v="water" />
		<tag k="ssr:stedsnr" v="783317" />
		<tag k="water" v="pond" />
	</node>
	<node lat="62.48727777642976" lon="10.984825000358176" id="-23814">
		<tag k="name" v="Grunntjønna" />
		<tag k="natural" v="water" />
		<tag k="ssr:stedsnr" v="800046" />
	</node>
	<node lat="62.59134299714437" lon="11.196663881180573" id="-23821">
		<tag k="name" v="Nordstubekken" />
		<tag k="ssr:stedsnr" v="800150" />
		<tag k="waterway" v="stream" />
	</node>
	<node lat="62.60050277326802" lon="10.881466671409981" id="-23824">
		<tag k="name" v="Snudda" />
		<tag k="ssr:stedsnr" v="800163" />
		<tag k="waterway" v="river" />
	</node>
	<node lat="62.596300004084725" lon="11.175027780912428" id="-23825">
		<tag k="name" v="Sandbekken" />
		<tag k="ssr:stedsnr" v="800174" />
		<tag k="waterway" v="stream" />
	</node>
	<node lat="62.34048888716579" lon="11.604863886252831" id="-23831">
		<tag k="name" v="Svartstobekken" />
		<tag k="ssr:stedsnr" v="800459" />
		<tag k="waterway" v="stream" />
	</node>
	<node lat="62.324741669209615" lon="11.79197778562276" id="-23832">
		<tag k="name" v="Røtjønna" />
		<tag k="natural" v="water" />
		<tag k="ssr:stedsnr" v="800571" />
	</node>
	<node lat="62.36233611504563" lon="11.352627770739382" id="-23834">
		<tag k="name" v="Galåa" />
		<tag k="ssr:stedsnr" v="800413" />
		<tag k="waterway" v="stream" />
	</node>
	<node lat="62.64265277551407" lon="10.849794437910802" id="-23843">
		<tag k="name" v="Hembekken" />
		<tag k="ssr:stedsnr" v="801198" />
		<tag k="waterway" v="stream" />
	</node>
	<node lat="62.18764166937165" lon="11.828380564627635" id="-23847">
		<tag k="name" v="Hopholmen" />
		<tag k="place" v="islet" />
		<tag k="ssr:stedsnr" v="809470" />
	</node>
	<node lat="62.341858333703854" lon="11.488702781391302" id="-23859">
		<tag k="name" v="Abborbekken" />
		<tag k="ssr:stedsnr" v="843492" />
		<tag k="waterway" v="stream" />
	</node>
	<node lat="62.34358333183364" lon="11.505927784165314" id="-23860">
		<tag k="name" v="Skjervikodden" />
		<tag k="natural" v="cape" />
		<tag k="ssr:stedsnr" v="843493" />
	</node>
	<node lat="62.24476111058812" lon="11.806149991845414" id="-23873">
		<tag k="name" v="Langrøstkjølla" />
		<tag k="natural" v="spring" />
		<tag k="ssr:stedsnr" v="844041" />
	</node>
	<node lat="62.25077499666453" lon="11.769588892644924" id="-23874">
		<tag k="name" v="Avlauptjønna" />
		<tag k="natural" v="water" />
		<tag k="ssr:stedsnr" v="844061" />
	</node>
	<node lat="62.302702779571284" lon="11.668702770541865" id="-23879">
		<tag k="name" v="Gørtjønna" />
		<tag k="natural" v="water" />
		<tag k="ssr:stedsnr" v="844151" />
	</node>
	<node lat="62.572577779633235" lon="10.948219440353405" id="-23889">
		<tag k="name" v="Storfossen" />
		<tag k="natural" v="waterfall" />
		<tag k="ssr:stedsnr" v="844296" />
	</node>
	<node lat="62.32626111351335" lon="11.537847220392857" id="-23892">
		<tag k="name" v="Krokbekken" />
		<tag k="ssr:stedsnr" v="844267" />
		<tag k="waterway" v="stream" />
	</node>
	<node lat="62.45174999687589" lon="11.39889445274467" id="-23901">
		<tag k="name" v="Kåppårrullen" />
		<tag k="ssr:stedsnr" v="844745" />
		<tag k="waterway" v="stream" />
	</node>
	<node lat="62.46821667035002" lon="11.348716670463581" id="-23904">
		<tag k="name" v="Eggtangen" />
		<tag k="natural" v="cape" />
		<tag k="ssr:stedsnr" v="844755" />
	</node>
	<node lat="62.293472219088066" lon="11.73701666705164" id="-23911">
		<tag k="name" v="Tufsinga" />
		<tag k="ssr:stedsnr" v="860377" />
		<tag k="waterway" v="river" />
	</node>
	<node lat="62.23057777883099" lon="11.818122222481142" id="-23914">
		<tag k="name" v="Ulvrøstfloen" />
		<tag k="natural" v="water" />
		<tag k="ssr:stedsnr" v="860393" />
	</node>
	<node lat="62.63910833452065" lon="10.836000004560757" id="-23916">
		<tag k="name" v="Okstrøbekken" />
		<tag k="ssr:stedsnr" v="861181" />
		<tag k="waterway" v="stream" />
	</node>
	<node lat="62.653352779150616" lon="10.837174993688192" id="-23917">
		<tag k="name" v="Håbekken" />
		<tag k="ssr:stedsnr" v="861197" />
		<tag k="waterway" v="stream" />
	</node>
	<node lat="62.41731652608639" lon="11.36808164761332" id="-23930">
		<tag k="name" v="Rødtjønnan" />
		<tag k="natural" v="water" />
		<tag k="ssr:stedsnr" v="861347" />
		<tag k="water" v="lake" />
	</node>
	<node lat="62.2658888890006" lon="11.607291657083959" id="-23932">
		<tag k="name" v="Tverrelva" />
		<tag k="ssr:stedsnr" v="861520" />
		<tag k="waterway" v="stream" />
	</node>
	<node lat="62.26089999605879" lon="11.791749990027105" id="-23933">
		<tag k="alt_name" v="Storrostbekken" />
		<tag k="name" v="Storrøstbekken" />
		<tag k="ssr:stedsnr" v="861632" />
		<tag k="waterway" v="stream" />
	</node>
	<node lat="62.30108610933355" lon="11.754530559261834" id="-23934">
		<tag k="name" v="Midtbekken" />
		<tag k="ssr:stedsnr" v="861560" />
		<tag k="waterway" v="stream" />
	</node>
	<node lat="62.18305000345389" lon="11.830238895808165" id="-23944">
		<tag k="name" v="Østre Tjønnan" />
		<tag k="natural" v="bay" />
		<tag k="ssr:stedsnr" v="870464" />
	</node>
	<node lat="62.47764722118505" lon="11.016736102162989" id="-23950">
		<tag k="name" v="Søljåsbekken" />
		<tag k="ssr:stedsnr" v="964072" />
		<tag k="waterway" v="stream" />
	</node>
	<node lat="62.60869166244972" lon="11.151319448616684" id="-23960">
		<tag k="name" v="Kaldvassåra" />
		<tag k="natural" v="spring" />
		<tag k="ssr:stedsnr" v="964874" />
	</node>
	<node lat="62.465277780479646" lon="11.058827777652189" id="-23963">
		<tag k="name" v="Strandloken" />
		<tag k="natural" v="water" />
		<tag k="ssr:stedsnr" v="965011" />
		<tag k="water" v="pond" />
	</node>
	<node lat="62.47827777807524" lon="11.048250007917256" id="-23966">
		<tag k="name" v="Olasbekken" />
		<tag k="ssr:stedsnr" v="965023" />
		<tag k="waterway" v="stream" />
	</node>
	<node lat="62.51428333368217" lon="11.09436111026041" id="-23967">
=======
	<node id="-359055" lat="62.3333444464" lon="11.4997361032">
		<tag k="name" v="Skjervikåsen" />
		<tag k="natural" v="cape" />
		<tag k="ssr:stedsnr" v="418472" />
	</node>
	<node id="-359041" lat="62.5378138869" lon="11.053672214">
		<tag k="name" v="Blæstertjønna" />
		<tag k="natural" v="water" />
		<tag k="ssr:stedsnr" v="375840" />
	</node>
	<node id="-359034" lat="62.5588250006" lon="10.968713885">
		<tag k="alt_name" v="Nilsjobekken" />
		<tag k="name" v="Nils-Jobekken" />
		<tag k="ssr:stedsnr" v="375797" />
		<tag k="waterway" v="stream" />
	</node>
	<node id="-359031" lat="62.2795083327" lon="11.7511722154">
		<tag k="name" v="Buoddtjønna" />
		<tag k="natural" v="water" />
		<tag k="ssr:stedsnr" v="375626" />
	</node>
	<node id="-359029" lat="62.3129777773" lon="11.7418972296">
		<tag k="name" v="Kvernhusbekken" />
		<tag k="ssr:stedsnr" v="375529" />
		<tag k="waterway" v="stream" />
	</node>
	<node id="-359022" lat="62.1389888888" lon="11.8302972219">
		<tag k="name" v="Lauvholman" />
		<tag k="place" v="islet" />
		<tag k="ssr:stedsnr" v="375327" />
	</node>
	<node id="-359021" lat="62.6716250041" lon="10.9411499942">
		<tag k="name" v="Bubekken" />
		<tag k="ssr:stedsnr" v="375323" />
		<tag k="waterway" v="stream" />
	</node>
	<node id="-359020" lat="62.5627805543" lon="10.9014361049">
		<tag k="name" v="Storbekken" />
		<tag k="ssr:stedsnr" v="375322" />
		<tag k="waterway" v="stream" />
	</node>
	<node id="-359013" lat="62.4744555582" lon="11.2237861193">
		<tag k="name" v="Kvernbekken" />
		<tag k="ssr:stedsnr" v="375044" />
		<tag k="waterway" v="stream" />
	</node>
	<node id="-359012" lat="62.3580888907" lon="11.4860083252">
		<tag k="name" v="Langsanden" />
		<tag k="natural" v="beach" />
		<tag k="ssr:stedsnr" v="358945" />
	</node>
	<node id="-359010" lat="62.3519250035" lon="11.4690722256">
		<tag k="name" v="Kjerkvika" />
		<tag k="natural" v="bay" />
		<tag k="ssr:stedsnr" v="358932" />
	</node>
	<node id="-359007" lat="62.4624333296" lon="11.380997224">
		<tag k="name" v="Litlenarjordsbekken" />
		<tag k="ssr:stedsnr" v="358749" />
		<tag k="waterway" v="stream" />
	</node>
	<node id="-358999" lat="62.4324166679" lon="11.1119083375">
		<tag k="name" v="Småvollfossen" />
		<tag k="natural" v="waterfall" />
		<tag k="ssr:stedsnr" v="358538" />
	</node>
	<node id="-358995" lat="62.4790055545" lon="11.1380916696">
		<tag k="name" v="Litjtjønna" />
		<tag k="natural" v="water" />
		<tag k="ssr:stedsnr" v="358350" />
	</node>
	<node id="-358981" lat="62.5624416705" lon="11.0899472203">
		<tag k="name" v="Grønnbekken" />
		<tag k="ssr:stedsnr" v="357440" />
		<tag k="waterway" v="stream" />
	</node>
	<node id="-358978" lat="62.3059611336" lon="11.733954634">
		<tag k="name" v="Haugstjønna" />
		<tag k="natural" v="water" />
		<tag k="ssr:stedsnr" v="357233" />
	</node>
	<node id="-358977" lat="62.1731749974" lon="11.8457972158">
		<tag k="name" v="Lillesanden" />
		<tag k="natural" v="bay" />
		<tag k="ssr:stedsnr" v="357212" />
	</node>
	<node id="-358973" lat="62.4921694406" lon="11.1784305531">
		<tag k="name" v="Løvnesodden" />
		<tag k="natural" v="cape" />
		<tag k="ssr:stedsnr" v="357151" />
	</node>
	<node id="-358964" lat="62.273525" lon="11.5672027813">
		<tag k="name" v="Tynsetbekken" />
		<tag k="ssr:stedsnr" v="315727" />
		<tag k="waterway" v="stream" />
	</node>
	<node id="-358957" lat="62.331719445" lon="11.6625138949">
		<tag k="name" v="Erlibekken" />
		<tag k="ssr:stedsnr" v="315423" />
		<tag k="waterway" v="stream" />
	</node>
	<node id="-358937" lat="62.6413333304" lon="11.0528888802">
		<tag k="alt_name" v="Litjøybekken" />
		<tag k="name" v="Litløybekken" />
		<tag k="ssr:stedsnr" v="194191" />
		<tag k="waterway" v="stream" />
	</node>
	<node id="-358930" lat="62.5035833344" lon="11.0321500008">
		<tag k="name" v="Langsåa" />
		<tag k="ssr:stedsnr" v="193765" />
		<tag k="waterway" v="river" />
	</node>
	<node id="-358929" lat="62.5039527817" lon="10.9933888848">
		<tag k="name" v="Storbekken" />
		<tag k="ssr:stedsnr" v="193749" />
		<tag k="waterway" v="stream" />
	</node>
	<node id="-358927" lat="62.5269999985" lon="10.9734916594">
		<tag k="fixme" v="multiple name tags, choose one and add the other to alt_name" />
		<tag k="name" v="Litldjupsjøbekken;Nordervollbekken" />
		<tag k="ssr:stedsnr" v="193862" />
		<tag k="waterway" v="stream" />
	</node>
	<node id="-358922" lat="62.2401583365" lon="11.6985972241">
		<tag k="alt_name" v="Litjåa" />
		<tag k="name" v="Litleåa" />
		<tag k="ssr:stedsnr" v="193471" />
		<tag k="waterway" v="stream" />
	</node>
	<node id="-358920" lat="62.3301055519" lon="11.5612194517">
		<tag k="fixme" v="multiple name tags, choose one and add the other to alt_name" />
		<tag k="name" v="Gjeddetjørna;Gjeddtjønna" />
		<tag k="natural" v="water" />
		<tag k="ssr:stedsnr" v="193461" />
	</node>
	<node id="-358915" lat="62.4701500035" lon="11.3470250002">
		<tag k="alt_name" v="Storhåen" />
		<tag k="name" v="Høen" />
		<tag k="natural" v="water" />
		<tag k="ssr:stedsnr" v="193370" />
	</node>
	<node id="-358911" lat="62.6041555563" lon="10.9745611155">
		<tag k="alt_name" v="Litjtverrelva" />
		<tag k="name" v="Litltverrelva" />
		<tag k="ssr:stedsnr" v="193165" />
		<tag k="waterway" v="stream" />
	</node>
	<node id="-358909" lat="62.5713027743" lon="11.0700444425">
		<tag k="name" v="Hestskoloken" />
		<tag k="natural" v="water" />
		<tag k="ssr:stedsnr" v="178378" />
	</node>
	<node id="-358906" lat="62.3548972222" lon="11.4621166653">
		<tag k="name" v="Bubekken" />
		<tag k="ssr:stedsnr" v="176937" />
		<tag k="waterway" v="stream" />
	</node>
	<node id="-358896" lat="62.4685111068" lon="11.37264167">
		<tag k="name" v="Storbekken" />
		<tag k="ssr:stedsnr" v="176737" />
		<tag k="waterway" v="stream" />
	</node>
	<node id="-358892" lat="62.4399944421" lon="11.4279472147">
		<tag k="name" v="Stortrøbekken" />
		<tag k="ssr:stedsnr" v="176722" />
		<tag k="waterway" v="stream" />
	</node>
	<node id="-358887" lat="62.498813887" lon="11.2267500007">
		<tag k="name" v="Storholmen" />
		<tag k="place" v="islet" />
		<tag k="ssr:stedsnr" v="176529" />
	</node>
	<node id="-358870" lat="62.3449777778" lon="11.5842805595">
		<tag k="name" v="Hollelva" />
		<tag k="ssr:stedsnr" v="176291" />
		<tag k="waterway" v="river" />
	</node>
	<node id="-358867" lat="62.3256972202" lon="11.5516638813">
		<tag k="name" v="Loken" />
		<tag k="natural" v="water" />
		<tag k="ssr:stedsnr" v="176259" />
	</node>
	<node id="-358866" lat="62.5114833293" lon="11.1395944368">
		<tag k="name" v="Brufossen" />
		<tag k="natural" v="waterfall" />
		<tag k="ssr:stedsnr" v="176207" />
	</node>
	<node id="-358860" lat="62.3128499959" lon="11.700050009">
		<tag k="name" v="Solansbekken" />
		<tag k="ssr:stedsnr" v="176158" />
		<tag k="waterway" v="stream" />
	</node>
	<node id="-358859" lat="62.1954694419" lon="11.8095138967">
		<tag k="name" v="Vassholmen" />
		<tag k="place" v="islet" />
		<tag k="ssr:stedsnr" v="176115" />
	</node>
	<node id="-358844" lat="62.5376138849" lon="11.00175">
		<tag k="name" v="Nordre Flovollbekken" />
		<tag k="ssr:stedsnr" v="175670" />
		<tag k="waterway" v="stream" />
	</node>
	<node id="-358838" lat="62.3458555522" lon="11.4993250029">
		<tag k="name" v="Abborodden" />
		<tag k="natural" v="cape" />
		<tag k="ssr:stedsnr" v="175497" />
	</node>
	<node id="-358836" lat="62.5649888933" lon="11.07286666">
		<tag k="name" v="Grunnloken" />
		<tag k="natural" v="water" />
		<tag k="ssr:stedsnr" v="175454" />
	</node>
	<node id="-358830" lat="62.294969446" lon="11.7311527729">
		<tag k="name" v="Siksjøåa" />
		<tag k="ssr:stedsnr" v="175238" />
		<tag k="waterway" v="river" />
	</node>
	<node id="-358826" lat="62.1794638853" lon="11.8327083281">
		<tag k="name" v="Grønnland" />
		<tag k="natural" v="cape" />
		<tag k="ssr:stedsnr" v="175196" />
	</node>
	<node id="-358825" lat="62.3290138923" lon="11.7300194451">
		<tag k="name" v="Nordre Småbekken" />
		<tag k="ssr:stedsnr" v="175181" />
		<tag k="waterway" v="stream" />
	</node>
	<node id="-358823" lat="62.5767666663" lon="11.1906416624">
		<tag k="name" v="Sjøenden" />
		<tag k="natural" v="bay" />
		<tag k="ssr:stedsnr" v="175072" />
	</node>
	<node id="-358822" lat="62.5756250028" lon="11.1937555495">
		<tag k="name" v="Kvitodden" />
		<tag k="natural" v="cape" />
		<tag k="ssr:stedsnr" v="175065" />
	</node>
	<node id="-358821" lat="62.5721749991" lon="11.1763722261">
		<tag k="name" v="Midtvollbekken" />
		<tag k="ssr:stedsnr" v="175054" />
		<tag k="waterway" v="stream" />
	</node>
	<node id="-358817" lat="62.5489222258" lon="11.1970055518">
		<tag k="name" v="Sjøbekken" />
		<tag k="ssr:stedsnr" v="175039" />
		<tag k="waterway" v="stream" />
	</node>
	<node id="-358812" lat="62.1724361154" lon="11.8250333301">
		<tag k="name" v="Risodden" />
		<tag k="natural" v="cape" />
		<tag k="ssr:stedsnr" v="141455" />
	</node>
	<node id="-358811" lat="62.1600583333" lon="11.8288861061">
		<tag k="name" v="Nordre Jotbuholmen" />
		<tag k="place" v="islet" />
		<tag k="ssr:stedsnr" v="141454" />
	</node>
	<node id="-358803" lat="62.3625416652" lon="11.5762805589">
		<tag k="name" v="Eriksbekken" />
		<tag k="ssr:stedsnr" v="133361" />
		<tag k="waterway" v="stream" />
	</node>
	<node id="-358801" lat="62.6457527738" lon="10.8380277682">
		<tag k="name" v="Østerbekken" />
		<tag k="ssr:stedsnr" v="133186" />
		<tag k="waterway" v="stream" />
	</node>
	<node id="-358799" lat="62.4382805543" lon="11.1989249932">
		<tag k="name" v="Håmmåla" />
		<tag k="ssr:stedsnr" v="133079" />
		<tag k="waterway" v="river" />
	</node>
	<node id="-358798" lat="62.4643750038" lon="11.0399972279">
		<tag k="name" v="Båttjønna" />
		<tag k="natural" v="water" />
		<tag k="ssr:stedsnr" v="133072" />
	</node>
	<node id="-358790" lat="62.4367902509" lon="11.3291055121">
		<tag k="alt_name" v="Langtjørna" />
		<tag k="name" v="Langtjønna" />
		<tag k="natural" v="water" />
		<tag k="ssr:stedsnr" v="132369" />
	</node>
	<node id="-358789" lat="62.4782546535" lon="11.3186698997">
		<tag k="alt_name" v="Langtjørna" />
		<tag k="name" v="Langtjønna" />
		<tag k="natural" v="water" />
		<tag k="ssr:stedsnr" v="132353" />
	</node>
	<node id="-358786" lat="62.3092583303" lon="11.6619805612">
		<tag k="alt_name" v="Langtjørnbekken" />
		<tag k="name" v="Langtjønnbekken" />
		<tag k="ssr:stedsnr" v="132466" />
		<tag k="waterway" v="stream" />
	</node>
	<node id="-358783" lat="62.6694111074" lon="10.8209027752">
		<tag k="name" v="Storhåen" />
		<tag k="natural" v="bay" />
		<tag k="ssr:stedsnr" v="132208" />
	</node>
	<node id="-358781" lat="62.4747333363" lon="11.0242305562">
		<tag k="name" v="Seljåstjønna" />
		<tag k="natural" v="water" />
		<tag k="ssr:stedsnr" v="132050" />
	</node>
	<node id="-358773" lat="62.1859694448" lon="11.7506777756">
		<tag k="name" v="Kvenna" />
		<tag k="ssr:stedsnr" v="120847" />
		<tag k="waterway" v="river" />
	</node>
	<node id="-358764" lat="62.4541277741" lon="11.3799999972">
		<tag k="name" v="Nylendodden" />
		<tag k="natural" v="cape" />
		<tag k="ssr:stedsnr" v="115697" />
	</node>
	<node id="-358762" lat="62.5165249998" lon="11.0812472226">
		<tag k="name" v="Nirsengbekken" />
		<tag k="ssr:stedsnr" v="115673" />
		<tag k="waterway" v="stream" />
	</node>
	<node id="-358760" lat="62.4917305597" lon="11.0347027755">
		<tag k="name" v="Litjgodtjønna" />
		<tag k="natural" v="water" />
		<tag k="ssr:stedsnr" v="115712" />
	</node>
	<node id="-358758" lat="62.4655333333" lon="11.3423611042">
		<tag k="name" v="Lekstuggubekken" />
		<tag k="ssr:stedsnr" v="115707" />
		<tag k="waterway" v="stream" />
	</node>
	<node id="-358756" lat="62.5412888847" lon="11.0331833363">
		<tag k="name" v="Brennvolltjønna" />
		<tag k="natural" v="water" />
		<tag k="ssr:stedsnr" v="115580" />
	</node>
	<node id="-358753" lat="62.50195278" lon="11.0494999955">
		<tag k="name" v="Litjtjønna" />
		<tag k="natural" v="water" />
		<tag k="ssr:stedsnr" v="115652" />
	</node>
	<node id="-358731" lat="62.2263638867" lon="11.7982222137">
		<tag k="name" v="Stormyrbekken" />
		<tag k="ssr:stedsnr" v="115093" />
		<tag k="waterway" v="stream" />
	</node>
	<node id="-358728" lat="62.5883972222" lon="11.0945694392">
		<tag k="name" v="Langryåstjønna" />
		<tag k="natural" v="water" />
		<tag k="ssr:stedsnr" v="115083" />
	</node>
	<node id="-358725" lat="62.2528111135" lon="11.7520694436">
		<tag k="name" v="Nykloppbekken" />
		<tag k="ssr:stedsnr" v="115063" />
		<tag k="waterway" v="stream" />
	</node>
	<node id="-358723" lat="62.2474333379" lon="11.7725527743">
		<tag k="name" v="Planloken" />
		<tag k="natural" v="water" />
		<tag k="ssr:stedsnr" v="115055" />
	</node>
	<node id="-358722" lat="62.4918267516" lon="11.0279271806">
		<tag k="name" v="Svartloken" />
		<tag k="natural" v="water" />
		<tag k="ssr:stedsnr" v="115039" />
	</node>
	<node id="-358717" lat="62.5196583352" lon="11.1621333263">
		<tag k="name" v="Brubekken" />
		<tag k="ssr:stedsnr" v="115197" />
		<tag k="waterway" v="stream" />
	</node>
	<node id="-358714" lat="62.4945194428" lon="11.1356500039">
		<tag k="name" v="Mosengtjønna" />
		<tag k="natural" v="water" />
		<tag k="ssr:stedsnr" v="115170" />
	</node>
	<node id="-358706" lat="62.2604250033" lon="11.7054916721">
		<tag k="name" v="Tangtjønna" />
		<tag k="natural" v="water" />
		<tag k="ssr:stedsnr" v="115008" />
	</node>
	<node id="-358704" lat="62.3260055542" lon="11.72775555">
		<tag k="alt_name" v="Tølløvstrømmen" />
		<tag k="name" v="Tøløvstrømmen" />
		<tag k="ssr:stedsnr" v="114179" />
		<tag k="waterway" v="rapids" />
	</node>
	<node id="-358703" lat="62.3279694481" lon="11.7305611102">
		<tag k="name" v="Søndre Småbekken" />
		<tag k="ssr:stedsnr" v="114174" />
		<tag k="waterway" v="stream" />
	</node>
	<node id="-358698" lat="62.3585304301" lon="11.6281962899">
		<tag k="name" v="Svartstotjønnan" />
		<tag k="natural" v="water" />
		<tag k="ssr:stedsnr" v="81443" />
		<tag k="water" v="lake" />
	</node>
	<node id="-358696" lat="62.3573500014" lon="11.615480554">
		<tag k="name" v="Ytre Raudtjønnan" />
		<tag k="natural" v="water" />
		<tag k="ssr:stedsnr" v="73430" />
		<tag k="water" v="lake" />
	</node>
	<node id="-358695" lat="62.3690944413" lon="11.476616658">
		<tag k="name" v="Langhåen" />
		<tag k="natural" v="water" />
		<tag k="ssr:stedsnr" v="73418" />
	</node>
	<node id="-358694" lat="62.3619333311" lon="11.4683555532">
		<tag k="fixme" v="multiple name tags, choose one and add the other to alt_name" />
		<tag k="name" v="Sundtjørna;Sundtjønna" />
		<tag k="natural" v="water" />
		<tag k="ssr:stedsnr" v="73416" />
	</node>
	<node id="-358687" lat="62.2821833347" lon="11.7646416605">
		<tag k="name" v="Sagbekken" />
		<tag k="ssr:stedsnr" v="72551" />
		<tag k="waterway" v="stream" />
	</node>
	<node id="-358686" lat="62.2845416667" lon="11.6202833391">
		<tag k="alt_name" v="Vesle Bjørnbekken" />
		<tag k="name" v="Vesle Bjørbekken" />
		<tag k="ssr:stedsnr" v="72450" />
		<tag k="waterway" v="stream" />
	</node>
	<node id="-358684" lat="62.4057500021" lon="11.4512055464">
		<tag k="name" v="Skinnarengbekken" />
		<tag k="ssr:stedsnr" v="72363" />
		<tag k="waterway" v="stream" />
	</node>
	<node id="-358683" lat="62.3979277765" lon="11.3705749977">
		<tag k="fixme" v="multiple name tags, choose one and add the other to alt_name" />
		<tag k="name" v="Jopolsatjørna;Jopålsatjønna" />
		<tag k="natural" v="water" />
		<tag k="ssr:stedsnr" v="72361" />
	</node>
	<node id="-358681" lat="62.6379499958" lon="10.8245527692">
		<tag k="name" v="Robekken" />
		<tag k="ssr:stedsnr" v="72200" />
		<tag k="waterway" v="stream" />
	</node>
	<node id="-358677" lat="62.6054583307" lon="10.7992527689">
		<tag k="name" v="Øybekken" />
		<tag k="ssr:stedsnr" v="72186" />
		<tag k="waterway" v="stream" />
	</node>
	<node id="-358669" lat="62.5701694477" lon="11.0854111055">
		<tag k="name" v="Langryåsbekken" />
		<tag k="ssr:stedsnr" v="72113" />
		<tag k="waterway" v="stream" />
	</node>
	<node id="-358667" lat="62.6885636673" lon="10.9300433984">
		<tag k="name" v="Dalbusjøen" />
		<tag k="natural" v="water" />
		<tag k="ssr:stedsnr" v="72227" />
		<tag k="water" v="lake" />
	</node>
	<node id="-358656" lat="62.3508083331" lon="11.4833333329">
		<tag k="name" v="Litjøra" />
		<tag k="place" v="islet" />
		<tag k="ssr:stedsnr" v="55951" />
	</node>
	<node id="-358655" lat="62.3640611073" lon="11.461802783">
		<tag k="name" v="Litjsundtjønna" />
		<tag k="natural" v="water" />
		<tag k="ssr:stedsnr" v="55944" />
	</node>
	<node id="-358649" lat="62.3701305571" lon="11.4522138949">
		<tag k="name" v="Brentmyrtjønna" />
		<tag k="natural" v="water" />
		<tag k="ssr:stedsnr" v="55805" />
	</node>
	<node id="-358648" lat="62.4643861132" lon="11.3561749937">
		<tag k="name" v="Nesstjønna" />
		<tag k="natural" v="water" />
		<tag k="ssr:stedsnr" v="55711" />
	</node>
	<node id="-358644" lat="62.4380555598" lon="11.4594472192">
		<tag k="name" v="Lokan" />
		<tag k="natural" v="water" />
		<tag k="ssr:stedsnr" v="55694" />
	</node>
	<node id="-358642" lat="62.5230777794" lon="11.0554805549">
		<tag k="name" v="Kvennbekken" />
		<tag k="ssr:stedsnr" v="55674" />
		<tag k="waterway" v="stream" />
	</node>
	<node id="-358640" lat="62.4995083292" lon="11.0473388917">
		<tag k="name" v="Litjtjønnbekken" />
		<tag k="ssr:stedsnr" v="55663" />
		<tag k="waterway" v="stream" />
	</node>
	<node id="-358629" lat="62.4650444467" lon="11.1170249914">
		<tag k="name" v="Heggloken" />
		<tag k="natural" v="water" />
		<tag k="ssr:stedsnr" v="55298" />
		<tag k="water" v="pond" />
	</node>
	<node id="-358620" lat="62.5151472193" lon="11.1139611191">
		<tag k="name" v="Kvilta" />
		<tag k="ssr:stedsnr" v="55182" />
		<tag k="waterway" v="stream" />
	</node>
	<node id="-358611" lat="62.2685361096" lon="11.7599999944">
		<tag k="name" v="Bjørbekken" />
		<tag k="ssr:stedsnr" v="55039" />
		<tag k="waterway" v="stream" />
	</node>
	<node id="-358608" lat="62.2215583347" lon="11.8069527767">
		<tag k="name" v="Kroken" />
		<tag k="place" v="locality" />
		<tag k="ssr:stedsnr" v="55084" />
	</node>
	<node id="-358607" lat="62.5983833321" lon="11.0979083267">
		<tag k="name" v="Lomtjønna" />
		<tag k="natural" v="water" />
		<tag k="ssr:stedsnr" v="54936" />
	</node>
	<node id="-358601" lat="62.504555558" lon="11.0061361201">
		<tag k="name" v="Vestre Langsåstjønna" />
		<tag k="natural" v="water" />
		<tag k="ssr:stedsnr" v="54634" />
	</node>
	<node id="-358596" lat="62.3413805519" lon="11.7170944358">
		<tag k="name" v="Trettmyrbekken" />
		<tag k="ssr:stedsnr" v="54229" />
		<tag k="waterway" v="stream" />
	</node>
	<node id="-358594" lat="62.1638166637" lon="11.83004166">
		<tag k="name" v="Kløvstenskjæret" />
		<tag k="place" v="islet" />
		<tag k="ssr:stedsnr" v="54224" />
	</node>
	<node id="-358589" lat="62.2399666645" lon="11.716772218">
		<tag k="name" v="Nordre Litjåa" />
		<tag k="ssr:stedsnr" v="53135" />
		<tag k="waterway" v="stream" />
	</node>
	<node id="-358587" lat="62.5199416665" lon="11.1148583333">
		<tag k="name" v="Rybekken" />
		<tag k="ssr:stedsnr" v="49214" />
		<tag k="waterway" v="stream" />
	</node>
	<node id="-358583" lat="62.2841083349" lon="11.6300250069">
		<tag k="alt_name" v="Bjørnbekken, store;Store Bjørnbekken" />
		<tag k="name" v="Store Bjørbekken" />
		<tag k="ssr:stedsnr" v="12466" />
		<tag k="waterway" v="stream" />
	</node>
	<node id="-358582" lat="62.373988893" lon="11.5211361069">
		<tag k="name" v="Nedre Harrbekktjønna" />
		<tag k="natural" v="water" />
		<tag k="ssr:stedsnr" v="12413" />
	</node>
	<node id="-358576" lat="62.5668222245" lon="11.2415611058">
		<tag k="name" v="Galåa" />
		<tag k="ssr:stedsnr" v="11593" />
		<tag k="waterway" v="stream" />
	</node>
	<node id="-358571" lat="62.2321944478" lon="11.5852694367">
		<tag k="name" v="Rundtjønna" />
		<tag k="natural" v="water" />
		<tag k="ssr:stedsnr" v="11477" />
	</node>
	<node id="-358568" lat="62.3517444411" lon="11.6865805495">
		<tag k="name" v="Brattfalltjønna" />
		<tag k="natural" v="water" />
		<tag k="ssr:stedsnr" v="11458" />
	</node>
	<node id="-358565" lat="62.3273111122" lon="11.6251305532">
		<tag k="name" v="Siksjøen" />
		<tag k="natural" v="water" />
		<tag k="ssr:stedsnr" v="11439" />
		<tag k="water" v="lake" />
	</node>
	<node id="-358561" lat="62.5865749982" lon="10.9424277787">
		<tag k="name" v="Tverrelva" />
		<tag k="ssr:stedsnr" v="11352" />
		<tag k="waterway" v="river" />
	</node>
	<node id="-358554" lat="62.5796916643" lon="11.0176999991">
		<tag k="name" v="Åslibekken" />
		<tag k="ssr:stedsnr" v="11128" />
		<tag k="waterway" v="stream" />
	</node>
	<node id="-358551" lat="62.4891361079" lon="11.1375805609">
		<tag k="name" v="Kvernbekktjønna" />
		<tag k="natural" v="water" />
		<tag k="ssr:stedsnr" v="11029" />
	</node>
	<node id="-357401" lat="62.5594861139" lon="11.0024805492">
		<tag k="name" v="Tjønnvollbekken" />
		<tag k="ssr:stedsnr" v="236514" />
		<tag k="waterway" v="stream" />
	</node>
	<node id="-358546" lat="62.4170805517" lon="11.398749995">
		<tag k="name" v="Jo-Pålsabekken" />
		<tag k="ssr:stedsnr" v="965813" />
		<tag k="waterway" v="stream" />
	</node>
	<node id="-358544" lat="62.5187194441" lon="11.0830972145">
		<tag k="name" v="Iskvennfossen" />
		<tag k="natural" v="waterfall" />
		<tag k="ssr:stedsnr" v="965709" />
	</node>
	<node id="-358540" lat="62.3150000006" lon="11.6574777687">
		<tag k="name" v="Storrøstvika" />
		<tag k="natural" v="bay" />
		<tag k="ssr:stedsnr" v="965375" />
	</node>
	<node id="-358531" lat="62.2482805596" lon="11.7674833398">
		<tag k="name" v="Sætertjønna" />
		<tag k="natural" v="water" />
		<tag k="ssr:stedsnr" v="965060" />
	</node>
	<node id="-358530" lat="62.4782777781" lon="11.0482500079">
		<tag k="name" v="Olasbekken" />
		<tag k="ssr:stedsnr" v="965023" />
		<tag k="waterway" v="stream" />
	</node>
	<node id="-358527" lat="62.4652777805" lon="11.0588277777">
		<tag k="name" v="Strandloken" />
		<tag k="natural" v="water" />
		<tag k="ssr:stedsnr" v="965011" />
		<tag k="water" v="pond" />
	</node>
	<node id="-358520" lat="62.1878638919" lon="11.8282527846">
		<tag k="name" v="Hopholmbua" />
		<tag k="place" v="islet" />
		<tag k="ssr:stedsnr" v="964205" />
	</node>
	<node id="-358519" lat="62.4776472212" lon="11.0167361022">
		<tag k="name" v="Søljåsbekken" />
		<tag k="ssr:stedsnr" v="964072" />
		<tag k="waterway" v="stream" />
	</node>
	<node id="-358514" lat="62.3797138925" lon="11.6577888959">
		<tag k="name" v="Hogntjønna" />
		<tag k="natural" v="water" />
		<tag k="ssr:stedsnr" v="931439" />
	</node>
	<node id="-358511" lat="62.6789416626" lon="10.9241805632">
		<tag k="name" v="Fjellsjøbekken" />
		<tag k="ssr:stedsnr" v="922212" />
		<tag k="waterway" v="stream" />
	</node>
	<node id="-358484" lat="62.3422972259" lon="11.5883944436">
		<tag k="name" v="Abborodden" />
		<tag k="natural" v="cape" />
		<tag k="ssr:stedsnr" v="904318" />
	</node>
	<node id="-358477" lat="62.5014444482" lon="11.01045277">
		<tag k="name" v="Gammelvolltjønna" />
		<tag k="natural" v="water" />
		<tag k="ssr:stedsnr" v="904026" />
	</node>
	<node id="-358464" lat="62.2048222267" lon="11.7550833311">
		<tag k="name" v="Svartbekkfallet" />
		<tag k="natural" v="waterfall" />
		<tag k="ssr:stedsnr" v="903104" />
	</node>
	<node id="-358463" lat="62.1830500035" lon="11.8302388958">
		<tag k="name" v="Østre Tjønnan" />
		<tag k="natural" v="bay" />
		<tag k="ssr:stedsnr" v="870464" />
	</node>
	<node id="-358455" lat="62.265888889" lon="11.6072916571">
		<tag k="name" v="Tverrelva" />
		<tag k="ssr:stedsnr" v="861520" />
		<tag k="waterway" v="stream" />
	</node>
	<node id="-358454" lat="62.2616000005" lon="11.6417416578">
		<tag k="alt_name" v="Godtjørna" />
		<tag k="name" v="Godtjønna" />
		<tag k="natural" v="water" />
		<tag k="ssr:stedsnr" v="861519" />
	</node>
	<node id="-358453" lat="62.6391083345" lon="10.8360000046">
		<tag k="name" v="Okstrøbekken" />
		<tag k="ssr:stedsnr" v="861181" />
		<tag k="waterway" v="stream" />
	</node>
	<node id="-358452" lat="62.6281999992" lon="11.1114444485">
		<tag k="name" v="Nyengbekken" />
		<tag k="ssr:stedsnr" v="861178" />
		<tag k="waterway" v="stream" />
	</node>
	<node id="-358450" lat="62.6143749985" lon="10.9417916676">
		<tag k="name" v="Røstengbekken" />
		<tag k="ssr:stedsnr" v="861163" />
		<tag k="waterway" v="stream" />
	</node>
	<node id="-358448" lat="62.2934722191" lon="11.7370166671">
		<tag k="name" v="Tufsinga" />
		<tag k="ssr:stedsnr" v="860377" />
		<tag k="waterway" v="river" />
	</node>
	<node id="-358445" lat="62.5142833337" lon="11.0943611103">
>>>>>>> e1d4bc35ff8a6074a6f2e91616a996b547c36f15
		<tag k="name" v="Øvervadbekken" />
		<tag k="ssr:stedsnr" v="965184" />
		<tag k="waterway" v="stream" />
	</node>
<<<<<<< HEAD
	<node lat="62.24828055962968" lon="11.767483339794405" id="-23968">
		<tag k="name" v="Sætertjønna" />
		<tag k="natural" v="water" />
		<tag k="ssr:stedsnr" v="965060" />
	</node>
	<node lat="62.33129722274544" lon="11.60544166387715" id="-23976">
		<tag k="name" v="Djupodden" />
		<tag k="natural" v="cape" />
		<tag k="ssr:stedsnr" v="965351" />
	</node>
	<node lat="62.31500000055055" lon="11.657477768713177" id="-23980">
		<tag k="name" v="Storrøstvika" />
		<tag k="natural" v="bay" />
		<tag k="ssr:stedsnr" v="965375" />
	</node>
	<node lat="62.51871944409155" lon="11.083097214488081" id="-23985">
		<tag k="name" v="Iskvennfossen" />
		<tag k="natural" v="waterfall" />
		<tag k="ssr:stedsnr" v="965709" />
	</node>
	<node lat="62.41708055171973" lon="11.398749994965753" id="-23991">
		<tag k="name" v="Jo-Pålsabekken" />
		<tag k="ssr:stedsnr" v="965813" />
		<tag k="waterway" v="stream" />
	</node>
	<node lat="62.382633331283934" lon="11.473624996978785" id="-23992">
		<tag k="name" v="Svarttjønna" />
		<tag k="natural" v="water" />
		<tag k="ssr:stedsnr" v="965947" />
=======
	<node id="-358433" lat="62.3285861106" lon="11.6164583281">
		<tag k="name" v="Sikholmen" />
		<tag k="place" v="islet" />
		<tag k="ssr:stedsnr" v="844305" />
	</node>
	<node id="-358420" lat="62.6426527755" lon="10.8497944379">
		<tag k="name" v="Hembekken" />
		<tag k="ssr:stedsnr" v="801198" />
		<tag k="waterway" v="stream" />
	</node>
	<node id="-358406" lat="62.362336115" lon="11.3526277707">
		<tag k="name" v="Galåa" />
		<tag k="ssr:stedsnr" v="800413" />
		<tag k="waterway" v="stream" />
	</node>
	<node id="-358403" lat="62.4872777764" lon="10.9848250004">
		<tag k="name" v="Grunntjønna" />
		<tag k="natural" v="water" />
		<tag k="ssr:stedsnr" v="800046" />
>>>>>>> e1d4bc35ff8a6074a6f2e91616a996b547c36f15
	</node>
</osm>
