<?xml version="1.0" encoding="UTF-8"?>
<osm version="0.6" generator="osmapis">
	<node lat="62.56700000249818" lon="11.039277777013622" id="-36995">
		<tag k="historic" v="shieling" />
		<tag k="name" v="Austuvollen" />
		<tag k="place" v="isolated_dwelling" />
		<tag k="ssr:stedsnr" v="11112" />
	</node>
	<node lat="62.580897218294744" lon="10.90993333756286" id="-36997">
		<tag k="historic" v="shieling" />
		<tag k="name" v="Simensgjeltvollen" />
		<tag k="place" v="isolated_dwelling" />
		<tag k="ssr:stedsnr" v="11139" />
	</node>
	<node lat="62.6178638882605" lon="11.136794447084919" id="-37000">
		<tag k="historic" v="shieling" />
		<tag k="name" v="Eggvollen" />
		<tag k="place" v="isolated_dwelling" />
		<tag k="ssr:stedsnr" v="11178" />
	</node>
	<node lat="62.442952778555984" lon="11.401466671808448" id="-37001">
		<tag k="name" v="Norheim" />
		<tag k="place" v="farm" />
		<tag k="ssr:stedsnr" v="11329" />
	</node>
	<node lat="62.468527781088774" lon="11.343636105146965" id="-37002">
		<tag k="historic" v="shieling" />
		<tag k="name" v="Håvollen" />
		<tag k="place" v="isolated_dwelling" />
		<tag k="ssr:stedsnr" v="11339" />
	</node>
	<node lat="62.300569447065904" lon="11.739630550759271" id="-37004">
		<tag k="name" v="Litlbekken" />
		<tag k="place" v="farm" />
		<tag k="ssr:stedsnr" v="11588" />
	</node>
	<node lat="62.56196388823582" lon="11.043822212865507" id="-37009">
		<tag k="historic" v="shieling" />
		<tag k="name" v="Åkerbakkvollen" />
		<tag k="place" v="isolated_dwelling" />
		<tag k="ssr:stedsnr" v="12812" />
	</node>
	<node lat="62.55931388844051" lon="11.180127775392876" id="-37010">
		<tag k="historic" v="shieling" />
		<tag k="name" v="Henningsmovollen" />
		<tag k="place" v="isolated_dwelling" />
		<tag k="ssr:stedsnr" v="12818" />
	</node>
	<node lat="62.555294443402396" lon="11.185966663802601" id="-37011">
		<tag k="alt_name" v="Vangsvollen" />
		<tag k="historic" v="shieling" />
		<tag k="name" v="Vangvollen" />
		<tag k="place" v="isolated_dwelling" />
		<tag k="ssr:stedsnr" v="12819" />
	</node>
	<node lat="62.425377779538266" lon="11.1699611167253" id="-37025">
		<tag k="historic" v="shieling" />
		<tag k="name" v="Lilløyvollan" />
		<tag k="place" v="isolated_dwelling" />
		<tag k="ssr:stedsnr" v="236492" />
	</node>
	<node lat="62.521227777676025" lon="10.969711105790728" id="-37029">
		<tag k="historic" v="shieling" />
		<tag k="name" v="Trøvollen" />
		<tag k="place" v="isolated_dwelling" />
		<tag k="ssr:stedsnr" v="236612" />
	</node>
	<node lat="62.46874999952975" lon="11.072705555191193" id="-37032">
		<tag k="historic" v="shieling" />
		<tag k="name" v="Rønningsvollen" />
		<tag k="place" v="isolated_dwelling" />
		<tag k="ssr:stedsnr" v="237014" />
	</node>
	<node lat="62.5313083339726" lon="11.134686103501119" id="-37037">
		<tag k="name" v="Nansenhytta" />
		<tag k="place" v="isolated_dwelling" />
		<tag k="ssr:stedsnr" v="237201" />
	</node>
	<node lat="62.3320611075709" lon="11.555488890585357" id="-37043">
		<tag k="name" v="Enget" />
		<tag k="place" v="isolated_dwelling" />
		<tag k="ssr:stedsnr" v="237243" />
	</node>
	<node lat="62.33029444186115" lon="11.564333327514962" id="-37048">
		<tag k="name" v="Østegga" />
		<tag k="place" v="isolated_dwelling" />
		<tag k="ssr:stedsnr" v="237271" />
	</node>
	<node lat="62.332416663063114" lon="11.572438889235086" id="-37049">
		<tag k="name" v="Gammelvollen" />
		<tag k="place" v="isolated_dwelling" />
		<tag k="ssr:stedsnr" v="237272" />
	</node>
	<node lat="62.51718823811531" lon="11.286467909476633" id="-37057">
		<tag k="fixme" v="consider place=hamlet" />
		<tag k="name" v="Øvre Myre" />
		<tag k="place" v="farm" />
		<tag k="ssr:stedsnr" v="237375" />
	</node>
	<node lat="62.57491389025145" lon="10.967358336590657" id="-37060">
		<tag k="historic" v="shieling" />
		<tag k="name" v="Gamle Vangsvollen" />
		<tag k="place" v="isolated_dwelling" />
		<tag k="ssr:stedsnr" v="237442" />
	</node>
	<node lat="62.5554305571021" lon="11.055861108673806" id="-37064">
		<tag k="name" v="Engebakken" />
		<tag k="place" v="farm" />
		<tag k="ssr:stedsnr" v="237543" />
	</node>
	<node lat="62.58898888532599" lon="11.073188886701255" id="-37076">
		<tag k="historic" v="shieling" />
		<tag k="name" v="Håkonsgjeltvollen" />
		<tag k="place" v="isolated_dwelling" />
		<tag k="ssr:stedsnr" v="239375" />
	</node>
	<node lat="62.51909721886753" lon="11.137719435892413" id="-37094">
		<tag k="name" v="Nyborg" />
		<tag k="place" v="farm" />
		<tag k="ssr:stedsnr" v="55180" />
	</node>
	<node lat="62.509011110309956" lon="11.128844450427545" id="-37097">
		<tag k="name" v="Øvre Henningsmoen" />
		<tag k="place" v="farm" />
		<tag k="ssr:stedsnr" v="55189" />
	</node>
	<node lat="62.50290277353542" lon="11.095558334978596" id="-37098">
		<tag k="historic" v="shieling" />
		<tag k="name" v="Nordgardsgjeltvollen" />
		<tag k="place" v="isolated_dwelling" />
		<tag k="ssr:stedsnr" v="55192" />
	</node>
	<node lat="62.51457222347793" lon="11.132552775282482" id="-37099">
		<tag k="name" v="Østgårdsegga" />
		<tag k="place" v="farm" />
		<tag k="ssr:stedsnr" v="55195" />
	</node>
	<node lat="62.46393055474376" lon="11.129686116981535" id="-37100">
		<tag k="historic" v="shieling" />
		<tag k="name" v="Nygårdsvollen" />
		<tag k="place" v="isolated_dwelling" />
		<tag k="ssr:stedsnr" v="55301" />
	</node>
	<node lat="62.50504722669121" lon="11.232211111548503" id="-37108">
		<tag k="name" v="Østheim" />
		<tag k="place" v="locality" />
		<tag k="ssr:stedsnr" v="55702" />
	</node>
	<node lat="62.50765851598829" lon="11.257859708377445" id="-37109">
		<tag k="name" v="Eidebakk" />
		<tag k="place" v="farm" />
		<tag k="ssr:stedsnr" v="55708" />
	</node>
	<node lat="62.49475833382204" lon="11.087077772544617" id="-37119">
		<tag k="alt_name" v="Bakkevollen;Bakkavollen" />
		<tag k="historic" v="shieling" />
		<tag k="name" v="Bakkvollen" />
		<tag k="place" v="isolated_dwelling" />
		<tag k="ssr:stedsnr" v="72020" />
	</node>
	<node lat="62.43916944329376" lon="11.122919442841992" id="-37120">
		<tag k="name" v="Elvestad" />
		<tag k="place" v="farm" />
		<tag k="ssr:stedsnr" v="72080" />
	</node>
	<node lat="62.44785555966295" lon="11.128291657423222" id="-37121">
		<tag k="name" v="Nyheim" />
		<tag k="old_name" v="Dalen" />
		<tag k="place" v="farm" />
		<tag k="ssr:stedsnr" v="72082" />
	</node>
	<node lat="62.453977775270175" lon="11.152361118081279" id="-37122">
		<tag k="historic" v="shieling" />
		<tag k="name" v="Rønningsvollen" />
		<tag k="place" v="isolated_dwelling" />
		<tag k="ssr:stedsnr" v="72085" />
	</node>
	<node lat="62.447208329136046" lon="11.124875006545652" id="-37123">
		<tag k="alt_name" v="Håmålvoll;Hummelvoll" />
		<tag k="name" v="Håmmålvoll" />
		<tag k="place" v="hamlet" />
		<tag k="ssr:stedsnr" v="72089" />
	</node>
	<node lat="62.43296389095655" lon="11.157111110600077" id="-37125">
		<tag k="alt_name" v="Stormyrvollen" />
		<tag k="historic" v="shieling" />
		<tag k="name" v="Stormyrsætra" />
		<tag k="place" v="isolated_dwelling" />
		<tag k="ssr:stedsnr" v="72102" />
	</node>
	<node lat="62.5552416643195" lon="11.059727782392933" id="-37132">
		<tag k="name" v="Solbakken" />
		<tag k="place" v="farm" />
		<tag k="ssr:stedsnr" v="72811" />
	</node>
	<node lat="62.54693888476756" lon="10.91046389618612" id="-37133">
		<tag k="historic" v="shieling" />
		<tag k="name" v="Trøavollen" />
		<tag k="place" v="isolated_dwelling" />
		<tag k="ssr:stedsnr" v="72822" />
	</node>
	<node lat="62.34548333386161" lon="11.579644436970637" id="-37138">
		<tag k="name" v="Ytergarden" />
		<tag k="place" v="farm" />
		<tag k="ssr:stedsnr" v="114525" />
	</node>
	<node lat="62.190697222327344" lon="11.820652776560454" id="-37139">
		<tag k="name" v="Ponnibakkbua" />
		<tag k="place" v="locality" />
		<tag k="ssr:stedsnr" v="115108" />
	</node>
	<node lat="62.466549999082375" lon="11.070355555405913" id="-37146">
		<tag k="historic" v="shieling" />
		<tag k="name" v="Nyrønningsvollen" />
		<tag k="place" v="isolated_dwelling" />
		<tag k="ssr:stedsnr" v="115013" />
	</node>
	<node lat="62.5537388855718" lon="11.0971888845837" id="-37147">
		<tag k="name" v="Flatåkeren" />
		<tag k="place" v="isolated_dwelling" />
		<tag k="ssr:stedsnr" v="115071" />
	</node>
	<node lat="62.5163916673268" lon="11.139294437197853" id="-37154">
		<tag k="name" v="Husmyra" />
		<tag k="place" v="farm" />
		<tag k="ssr:stedsnr" v="115220" />
	</node>
	<node lat="62.59946944779235" lon="10.909836119469915" id="-37155">
		<tag k="historic" v="shieling" />
		<tag k="name" v="Trøvollen" />
		<tag k="place" v="isolated_dwelling" />
		<tag k="ssr:stedsnr" v="115311" />
	</node>
	<node lat="62.536619443213326" lon="10.987538879833757" id="-37161">
		<tag k="name" v="Kojeløa" />
		<tag k="place" v="locality" />
		<tag k="ssr:stedsnr" v="115615" />
	</node>
	<node lat="62.53510871616627" lon="10.99475132254126" id="-37163">
		<tag k="name" v="Markåsløa" />
		<tag k="place" v="locality" />
		<tag k="ssr:stedsnr" v="115622" />
	</node>
	<node lat="62.51709999556374" lon="11.282877781015872" id="-37165">
		<tag k="name" v="Øvre Myre" />
		<tag k="place" v="farm" />
		<tag k="ssr:stedsnr" v="115710" />
	</node>
	<node lat="62.429722223697766" lon="11.41510277150055" id="-37168">
		<tag k="name" v="Østre Ryen" />
		<tag k="place" v="farm" />
		<tag k="ssr:stedsnr" v="115790" />
	</node>
	<node lat="62.506372219760095" lon="11.086791662575902" id="-37171">
		<tag k="historic" v="shieling" />
		<tag k="name" v="Haugsvollen" />
		<tag k="place" v="isolated_dwelling" />
		<tag k="ssr:stedsnr" v="115668" />
	</node>
	<node lat="62.42476111221729" lon="11.453583341798575" id="-37174">
		<tag k="name" v="Øvre Åsløa" />
		<tag k="place" v="locality" />
		<tag k="ssr:stedsnr" v="115811" />
	</node>
	<node lat="62.49624721802378" lon="11.085238891485671" id="-37179">
		<tag k="historic" v="shieling" />
		<tag k="name" v="Husmyrvollen" />
		<tag k="place" v="isolated_dwelling" />
		<tag k="ssr:stedsnr" v="132013" />
	</node>
	<node lat="62.57314166236828" lon="11.0167500026247" id="-37180">
		<tag k="historic" v="shieling" />
		<tag k="name" v="Nygardsvollen" />
		<tag k="place" v="isolated_dwelling" />
		<tag k="ssr:stedsnr" v="132105" />
	</node>
	<node lat="62.57143611341366" lon="10.917074994845445" id="-37181">
		<tag k="historic" v="shieling" />
		<tag k="name" v="Brattåsvollen" />
		<tag k="old_name" v="Trøavollen" />
		<tag k="place" v="isolated_dwelling" />
		<tag k="ssr:stedsnr" v="132114" />
	</node>
	<node lat="62.60334444675645" lon="11.143252783896603" id="-37182">
		<tag k="name" v="Langeggvollen" />
		<tag k="place" v="isolated_dwelling" />
		<tag k="ssr:stedsnr" v="132167" />
	</node>
	<node lat="62.615877775304014" lon="11.134663886386841" id="-37184">
		<tag k="historic" v="shieling" />
		<tag k="name" v="Trøavollen" />
		<tag k="place" v="isolated_dwelling" />
		<tag k="ssr:stedsnr" v="132176" />
	</node>
	<node lat="62.62690277746008" lon="10.848638894728225" id="-37185">
		<tag k="historic" v="shieling" />
		<tag k="name" v="Spellmovollen" />
		<tag k="place" v="isolated_dwelling" />
		<tag k="ssr:stedsnr" v="132184" />
	</node>
	<node lat="62.435941667834136" lon="11.402352775895794" id="-37187">
		<tag k="name" v="Bakketun" />
		<tag k="place" v="farm" />
		<tag k="ssr:stedsnr" v="132372" />
	</node>
	<node lat="62.52428611084553" lon="11.147636104140203" id="-37191">
		<tag k="name" v="Fjellheim" />
		<tag k="place" v="farm" />
		<tag k="ssr:stedsnr" v="132739" />
	</node>
	<node lat="62.519977777017004" lon="11.216624991394166" id="-37192">
		<tag k="alt_name" v="Østvang" />
		<tag k="name" v="Austvangen" />
		<tag k="place" v="farm" />
		<tag k="ssr:stedsnr" v="132740" />
	</node>
	<node lat="62.52544999825053" lon="11.143730552957164" id="-37193">
		<tag k="name" v="Bekketrøa" />
		<tag k="place" v="farm" />
		<tag k="ssr:stedsnr" v="132741" />
	</node>
	<node lat="62.36620833002086" lon="11.479522225379208" id="-37198">
		<tag k="name" v="Narvollan" />
		<tag k="place" v="isolated_dwelling" />
		<tag k="ssr:stedsnr" v="133362" />
	</node>
	<node lat="62.562491664302165" lon="11.044986103121499" id="-37201">
		<tag k="historic" v="shieling" />
		<tag k="name" v="Trøavollen" />
		<tag k="place" v="isolated_dwelling" />
		<tag k="ssr:stedsnr" v="133812" />
	</node>
	<node lat="62.224069404834665" lon="11.795750372624667" id="-37204">
		<tag k="name" v="Straumsvollen" />
		<tag k="place" v="locality" />
		<tag k="ssr:stedsnr" v="253373" />
	</node>
	<node lat="62.45989444413135" lon="11.14772777054129" id="-37205">
		<tag k="alt_name" v="Furuholtvollen" />
		<tag k="historic" v="shieling" />
		<tag k="name" v="Furuholt" />
		<tag k="place" v="isolated_dwelling" />
		<tag k="ssr:stedsnr" v="254054" />
	</node>
	<node lat="62.56476476854529" lon="11.103116402918811" id="-37206">
		<tag k="name" v="Øsvollen" />
		<tag k="place" v="locality" />
		<tag k="ssr:stedsnr" v="254098" />
	</node>
	<node lat="62.56814999855131" lon="11.174908342181974" id="-37207">
		<tag k="alt_name" v="Kroksvollen" />
		<tag k="historic" v="shieling" />
		<tag k="name" v="Krokvollen" />
		<tag k="place" v="isolated_dwelling" />
		<tag k="ssr:stedsnr" v="254101" />
	</node>
	<node lat="62.44076944865581" lon="11.393069439096394" id="-37219">
		<tag k="name" v="Solbråten" />
		<tag k="place" v="farm" />
		<tag k="ssr:stedsnr" v="254357" />
	</node>
	<node lat="62.43691111439946" lon="11.40221943891865" id="-37220">
		<tag k="name" v="Nylend" />
		<tag k="place" v="farm" />
		<tag k="ssr:stedsnr" v="254361" />
	</node>
	<node lat="62.43622500117967" lon="11.411627770511396" id="-37221">
		<tag k="name" v="Nygard" />
		<tag k="place" v="farm" />
		<tag k="ssr:stedsnr" v="254362" />
	</node>
	<node lat="62.50739722189684" lon="11.260802770716074" id="-37225">
		<tag k="alt_name" v="Høistad øvre" />
		<tag k="name" v="Høystad" />
		<tag k="old_name" v="Høistad" />
		<tag k="place" v="farm" />
		<tag k="ssr:stedsnr" v="254489" />
	</node>
	<node lat="62.286400002526044" lon="11.752183336322899" id="-37228">
		<tag k="name" v="Østli" />
		<tag k="place" v="farm" />
		<tag k="ssr:stedsnr" v="254561" />
	</node>
	<node lat="62.27702137682694" lon="11.738204839483691" id="-37230">
		<tag k="name" v="Midtdal" />
		<tag k="place" v="locality" />
		<tag k="ssr:stedsnr" v="254627" />
	</node>
	<node lat="62.50301388800804" lon="11.17927778395602" id="-37231">
		<tag k="name" v="Stålem" />
		<tag k="place" v="farm" />
		<tag k="ssr:stedsnr" v="254744" />
	</node>
	<node lat="62.50400833318675" lon="11.091691667098505" id="-37233">
		<tag k="historic" v="shieling" />
		<tag k="name" v="Krokvollen" />
		<tag k="place" v="isolated_dwelling" />
		<tag k="ssr:stedsnr" v="254754" />
	</node>
	<node lat="62.5039055565309" lon="11.186625001080074" id="-37234">
		<tag k="name" v="Ostrøa" />
		<tag k="place" v="farm" />
		<tag k="ssr:stedsnr" v="254759" />
	</node>
	<node lat="62.536805552125514" lon="11.111213883121616" id="-37235">
		<tag k="name" v="Johaugen" />
		<tag k="place" v="farm" />
		<tag k="ssr:stedsnr" v="254834" />
	</node>
	<node lat="62.5324861156582" lon="11.06733610178181" id="-37238">
		<tag k="name" v="Brattåsrya" />
		<tag k="place" v="farm" />
		<tag k="ssr:stedsnr" v="254843" />
	</node>
	<node lat="62.531455557444836" lon="11.117886118433546" id="-37239">
		<tag k="name" v="Utheim" />
		<tag k="place" v="farm" />
		<tag k="ssr:stedsnr" v="254853" />
	</node>
	<node lat="62.52553611458653" lon="11.043194439210092" id="-37240">
		<tag k="alt_name" v="Nyåsen" />
		<tag k="name" v="Nyås" />
		<tag k="place" v="farm" />
		<tag k="ssr:stedsnr" v="254859" />
	</node>
	<node lat="62.24706944509204" lon="11.762113891068198" id="-37242">
		<tag k="fixme" v="consider tourism=alpine_hut or tourism=chalet" />
		<tag k="name" v="Sæter" />
		<tag k="ssr:stedsnr" v="148863" />
		<tag k="tourism" v="wilderness_hut" />
	</node>
	<node lat="62.541737640203216" lon="11.007857910938005" id="-37255">
		<tag k="name" v="Midtengløa" />
		<tag k="place" v="locality" />
		<tag k="ssr:stedsnr" v="175604" />
	</node>
	<node lat="62.54864166806861" lon="10.915697225705614" id="-37295">
		<tag k="historic" v="shieling" />
		<tag k="name" v="Engevollen" />
		<tag k="place" v="isolated_dwelling" />
		<tag k="ssr:stedsnr" v="236383" />
	</node>
	<node lat="62.62514444369428" lon="11.108552782480471" id="-37304">
		<tag k="historic" v="shieling" />
		<tag k="name" v="Nordlivollen" />
		<tag k="place" v="isolated_dwelling" />
		<tag k="ssr:stedsnr" v="236792" />
	</node>
	<node lat="62.338508333830056" lon="11.607411106053458" id="-37311">
		<tag k="name" v="Storbua" />
		<tag k="place" v="isolated_dwelling" />
		<tag k="ssr:stedsnr" v="237301" />
	</node>
	<node lat="62.51730833181154" lon="11.129600004371365" id="-37312">
		<tag k="name" v="Floen" />
		<tag k="place" v="farm" />
		<tag k="ssr:stedsnr" v="237184" />
	</node>
	<node lat="62.59998888964537" lon="10.941575004091279" id="-37314">
		<tag k="historic" v="shieling" />
		<tag k="name" v="Yterhaugsvollen" />
		<tag k="place" v="isolated_dwelling" />
		<tag k="ssr:stedsnr" v="237307" />
	</node>
	<node lat="62.54789722283393" lon="11.104588887180634" id="-37325">
		<tag k="name" v="Utistu" />
		<tag k="place" v="farm" />
		<tag k="ssr:stedsnr" v="238792" />
	</node>
	<node lat="62.61782777605774" lon="11.164538885673027" id="-37326">
		<tag k="fixme" v="consider natural=beach + surface=sand" />
		<tag k="leisure" v="swimming_area" />
		<tag k="name" v="Storsandtjønna badeplass" />
		<tag k="place" v="locality" />
		<tag k="ssr:stedsnr" v="241683" />
	</node>
	<node lat="62.57491111211069" lon="11.115877778080261" id="-37331">
		<tag k="historic" v="shieling" />
		<tag k="name" v="Gjerstadvollen" />
		<tag k="place" v="isolated_dwelling" />
		<tag k="ssr:stedsnr" v="254120" />
	</node>
	<node lat="62.58323888442941" lon="11.186244452274014" id="-37332">
		<tag k="historic" v="shieling" />
		<tag k="name" v="Haugsgjeltvollen" />
		<tag k="place" v="isolated_dwelling" />
		<tag k="ssr:stedsnr" v="254125" />
	</node>
	<node lat="62.48689444722883" lon="11.331225007791454" id="-37334">
		<tag k="historic" v="shieling" />
		<tag k="name" v="Klettvollan" />
		<tag k="place" v="isolated_dwelling" />
		<tag k="ssr:stedsnr" v="254292" />
	</node>
	<node lat="62.393783336664406" lon="11.441175008070024" id="-37339">
		<tag k="alt_name" v="Sevalvollan" />
		<tag k="historic" v="shieling" />
		<tag k="name" v="Sevalvollen" />
		<tag k="place" v="isolated_dwelling" />
		<tag k="ssr:stedsnr" v="254392" />
	</node>
	<node lat="62.562716666133454" lon="11.107761116484763" id="-37340">
		<tag k="alt_name" v="Holbu" />
		<tag k="name" v="Hollbu" />
		<tag k="place" v="farm" />
		<tag k="ssr:stedsnr" v="254804" />
	</node>
	<node lat="62.55589999814889" lon="11.104158326512712" id="-37341">
		<tag k="fixme" v="multiple name tags, choose one and add the other to alt_name" />
		<tag k="historic" v="shieling" />
		<tag k="name" v="Bergemyra;Vangsgjeltvollen" />
		<tag k="place" v="isolated_dwelling" />
		<tag k="ssr:stedsnr" v="254809" />
	</node>
	<node lat="62.20519166653319" lon="11.820449995451785" id="-37342">
		<tag k="name" v="Rendalsbua" />
		<tag k="place" v="isolated_dwelling" />
		<tag k="ssr:stedsnr" v="263467" />
	</node>
	<node lat="62.308408450383865" lon="11.732924532026981" id="-37343">
		<tag k="name" v="Nordre Bruplassen" />
		<tag k="place" v="farm" />
		<tag k="ssr:stedsnr" v="296173" />
	</node>
	<node lat="62.18532222388211" lon="11.811355557398244" id="-37347">
		<tag k="name" v="Nybua" />
		<tag k="place" v="isolated_dwelling" />
		<tag k="ssr:stedsnr" v="297127" />
	</node>
	<node lat="62.526280554593676" lon="11.11995277611446" id="-37351">
		<tag k="name" v="Østre Kroken" />
		<tag k="place" v="farm" />
		<tag k="ssr:stedsnr" v="297225" />
	</node>
	<node lat="62.47739444828135" lon="11.124575006839661" id="-37355">
		<tag k="historic" v="shieling" />
		<tag k="name" v="Tollolvollen" />
		<tag k="place" v="isolated_dwelling" />
		<tag k="ssr:stedsnr" v="297353" />
	</node>
	<node lat="62.47810000402564" lon="11.116908329970673" id="-37356">
		<tag k="historic" v="shieling" />
		<tag k="name" v="Spellmovollen" />
		<tag k="place" v="isolated_dwelling" />
		<tag k="ssr:stedsnr" v="297354" />
	</node>
	<node lat="62.478011114174045" lon="11.125630559030842" id="-37357">
		<tag k="historic" v="shieling" />
		<tag k="name" v="Øvervollen" />
		<tag k="place" v="isolated_dwelling" />
		<tag k="ssr:stedsnr" v="297360" />
	</node>
	<node lat="62.508478782601706" lon="11.257114492902858" id="-37365">
		<tag k="name" v="Liset" />
		<tag k="place" v="farm" />
		<tag k="ssr:stedsnr" v="297725" />
	</node>
	<node lat="62.520833335593416" lon="11.241219452641449" id="-37369">
		<tag k="name" v="Sollia" />
		<tag k="place" v="farm" />
		<tag k="ssr:stedsnr" v="297735" />
	</node>
	<node lat="62.48143333104181" lon="11.040586108850848" id="-37371">
		<tag k="historic" v="shieling" />
		<tag k="name" v="Klokkarvollen" />
		<tag k="place" v="isolated_dwelling" />
		<tag k="ssr:stedsnr" v="297740" />
	</node>
	<node lat="62.23786111560887" lon="11.772380550354752" id="-37378">
		<tag k="name" v="Øya" />
		<tag k="place" v="farm" />
		<tag k="ssr:stedsnr" v="314358" />
	</node>
	<node lat="62.544451270790105" lon="11.102314288423022" id="-37379">
		<tag k="name" v="Vangen" />
		<tag k="place" v="hamlet" />
		<tag k="ssr:stedsnr" v="314833" />
	</node>
	<node lat="62.58644444151567" lon="10.942244436432437" id="-37380">
		<tag k="historic" v="shieling" />
		<tag k="name" v="Håkonsgjeltvollen" />
		<tag k="place" v="isolated_dwelling" />
		<tag k="ssr:stedsnr" v="315152" />
	</node>
	<node lat="62.595633335505696" lon="10.941208342947126" id="-37382">
		<tag k="alt_name" v="Myrtrøvoll" />
		<tag k="historic" v="shieling" />
		<tag k="name" v="Myrtrøvollen" />
		<tag k="place" v="isolated_dwelling" />
		<tag k="ssr:stedsnr" v="315162" />
	</node>
	<node lat="62.594966670902714" lon="11.103688888667184" id="-37383">
		<tag k="alt_name" v="Åsvollen" />
		<tag k="historic" v="shieling" />
		<tag k="name" v="Åsenvollen" />
		<tag k="place" v="isolated_dwelling" />
		<tag k="ssr:stedsnr" v="315165" />
	</node>
	<node lat="62.46135278128827" lon="11.351766659695496" id="-37384">
		<tag k="historic" v="shieling" />
		<tag k="name" v="Bergevollen" />
		<tag k="place" v="isolated_dwelling" />
		<tag k="ssr:stedsnr" v="315323" />
	</node>
	<node lat="62.43356388728906" lon="11.409500004520371" id="-37386">
		<tag k="name" v="Bakken" />
		<tag k="place" v="farm" />
		<tag k="ssr:stedsnr" v="315373" />
	</node>
	<node lat="62.27610278013289" lon="11.718877781843302" id="-37387">
		<tag k="name" v="Røsta" />
		<tag k="place" v="farm" />
		<tag k="ssr:stedsnr" v="315556" />
	</node>
	<node lat="62.30831111017219" lon="11.718874997950868" id="-37388">
		<tag k="name" v="Bjørkly" />
		<tag k="place" v="farm" />
		<tag k="ssr:stedsnr" v="315564" />
	</node>
	<node lat="62.30775815708925" lon="11.733922837615118" id="-37389">
		<tag k="name" v="Brua" />
		<tag k="place" v="locality" />
		<tag k="ssr:stedsnr" v="315566" />
	</node>
	<node lat="62.27454722599745" lon="11.727158335592497" id="-37390">
		<tag k="name" v="Søreng" />
		<tag k="place" v="farm" />
		<tag k="ssr:stedsnr" v="315654" />
	</node>
	<node lat="62.53236388980882" lon="11.047249996101131" id="-37391">
		<tag k="alt_name" v="Kvernhusvollen" />
		<tag k="name" v="Kvennhusvollen" />
		<tag k="place" v="farm" />
		<tag k="ssr:stedsnr" v="315850" />
	</node>
	<node lat="62.53448055658578" lon="11.104191673995048" id="-37392">
		<tag k="name" v="Åkerbakken" />
		<tag k="place" v="farm" />
		<tag k="ssr:stedsnr" v="315859" />
	</node>
	<node lat="62.565986110539285" lon="11.23616666968275" id="-37396">
		<tag k="historic" v="shieling" />
		<tag k="name" v="Haugsvollen" />
		<tag k="place" v="isolated_dwelling" />
		<tag k="ssr:stedsnr" v="331707" />
	</node>
	<node lat="62.550183336158995" lon="10.918077781973901" id="-37404">
		<tag k="historic" v="shieling" />
		<tag k="name" v="Vollvollen" />
		<tag k="place" v="isolated_dwelling" />
		<tag k="ssr:stedsnr" v="357401" />
	</node>
	<node lat="62.52491944430985" lon="11.256633324693318" id="-37429">
		<tag k="historic" v="shieling" />
		<tag k="name" v="Kåsvollen" />
		<tag k="place" v="isolated_dwelling" />
		<tag k="ssr:stedsnr" v="358447" />
	</node>
	<node lat="62.4297083329217" lon="11.410863890680954" id="-37437">
		<tag k="name" v="Jo-Pålsagarden" />
		<tag k="place" v="farm" />
		<tag k="ssr:stedsnr" v="358800" />
	</node>
	<node lat="62.499125000998866" lon="10.999408331309324" id="-37442">
		<tag k="historic" v="shieling" />
		<tag k="name" v="Nyvollen" />
		<tag k="place" v="isolated_dwelling" />
		<tag k="ssr:stedsnr" v="478021" />
	</node>
	<node lat="62.31046666547108" lon="11.722263889415915" id="-37446">
		<tag k="name" v="Østre Bakken" />
		<tag k="place" v="farm" />
		<tag k="ssr:stedsnr" v="478226" />
	</node>
	<node lat="62.51353610856993" lon="11.13692499134854" id="-37453">
		<tag k="name" v="Kvernbekkenget" />
		<tag k="place" v="farm" />
		<tag k="ssr:stedsnr" v="479198" />
	</node>
	<node lat="62.53842222519197" lon="11.106536108767083" id="-37454">
		<tag k="name" v="Myrtrøa" />
		<tag k="place" v="farm" />
		<tag k="ssr:stedsnr" v="479224" />
	</node>
	<node lat="62.516786112293076" lon="11.02005555607519" id="-37469">
		<tag k="alt_name" v="Øvre Grue" />
		<tag k="name" v="Øvre Gruva" />
		<tag k="place" v="farm" />
		<tag k="ssr:stedsnr" v="479627" />
	</node>
	<node lat="62.52709166635952" lon="10.986697213129148" id="-37473">
		<tag k="historic" v="shieling" />
		<tag k="name" v="Eggvollen" />
		<tag k="place" v="isolated_dwelling" />
		<tag k="ssr:stedsnr" v="479642" />
	</node>
	<node lat="62.52036666694799" lon="10.969705565174804" id="-37475">
		<tag k="historic" v="shieling" />
		<tag k="name" v="Trøavollen" />
		<tag k="place" v="isolated_dwelling" />
		<tag k="ssr:stedsnr" v="479645" />
	</node>
	<node lat="62.44892500170486" lon="11.39470555009629" id="-37479">
		<tag k="name" v="Venevoll" />
		<tag k="place" v="farm" />
		<tag k="ssr:stedsnr" v="479725" />
	</node>
	<node lat="62.35532500142881" lon="11.466163888316007" id="-37488">
		<tag k="name" v="Nordigarden" />
		<tag k="place" v="farm" />
		<tag k="ssr:stedsnr" v="479955" />
	</node>
	<node lat="62.56928055760616" lon="10.949008339409078" id="-37490">
		<tag k="historic" v="shieling" />
		<tag k="name" v="Osmovollen" />
		<tag k="place" v="isolated_dwelling" />
		<tag k="ssr:stedsnr" v="375109" />
	</node>
	<node lat="62.603991664737904" lon="11.133483340806238" id="-37491">
		<tag k="fixme" v="multiple name tags, choose one and add the other to alt_name" />
		<tag k="historic" v="shieling" />
		<tag k="name" v="Lianvollen;Movollen" />
		<tag k="place" v="isolated_dwelling" />
		<tag k="ssr:stedsnr" v="375143" />
	</node>
	<node lat="62.45439166719749" lon="11.448775008651978" id="-37495">
		<tag k="name" v="Stenbuvollan" />
		<tag k="place" v="isolated_dwelling" />
		<tag k="ssr:stedsnr" v="375309" />
	</node>
	<node lat="62.47828055800036" lon="11.279336108235407" id="-37496">
		<tag k="historic" v="shieling" />
		<tag k="name" v="Halvmilenget" />
		<tag k="place" v="isolated_dwelling" />
		<tag k="ssr:stedsnr" v="375339" />
	</node>
	<node lat="62.3495833330537" lon="11.472777779137019" id="-37501">
		<tag k="name" v="Engåvollen" />
		<tag k="place" v="farm" />
		<tag k="ssr:stedsnr" v="375412" />
	</node>
	<node lat="62.34728667855018" lon="11.578620324542083" id="-37502">
		<tag k="name" v="Holla" />
		<tag k="place" v="hamlet" />
		<tag k="ssr:stedsnr" v="375417" />
	</node>
	<node lat="62.30675833472801" lon="11.5875055567304" id="-37505">
		<tag k="alt_name" v="Hollvollen" />
		<tag k="historic" v="shieling" />
		<tag k="name" v="Hollsætra" />
		<tag k="place" v="isolated_dwelling" />
		<tag k="ssr:stedsnr" v="375439" />
	</node>
	<node lat="62.520155559902115" lon="11.140861104373307" id="-37507">
		<tag k="name" v="Brenna" />
		<tag k="place" v="farm" />
		<tag k="ssr:stedsnr" v="375728" />
	</node>
	<node lat="62.52524444204878" lon="11.124658332868393" id="-37508">
		<tag k="name" v="Åkeren" />
		<tag k="place" v="farm" />
		<tag k="ssr:stedsnr" v="375735" />
	</node>
	<node lat="62.51670000203358" lon="11.119494442393579" id="-37509">
		<tag k="name" v="Gjerstad" />
		<tag k="place" v="farm" />
		<tag k="ssr:stedsnr" v="375739" />
	</node>
	<node lat="62.55729166223388" lon="11.04713333222973" id="-37510">
		<tag k="historic" v="shieling" />
		<tag k="name" v="Eggetrøvollen" />
		<tag k="place" v="isolated_dwelling" />
		<tag k="ssr:stedsnr" v="375794" />
	</node>
	<node lat="62.55263055867927" lon="11.088000004177385" id="-37513">
		<tag k="name" v="Lyngan" />
		<tag k="place" v="farm" />
		<tag k="ssr:stedsnr" v="375808" />
	</node>
	<node lat="62.55288333737907" lon="11.100830546286048" id="-37514">
		<tag k="name" v="Kåsen" />
		<tag k="place" v="farm" />
		<tag k="ssr:stedsnr" v="375809" />
	</node>
	<node lat="62.547705553789896" lon="11.093055546665516" id="-37515">
		<tag k="name" v="Vangsgrava" />
		<tag k="place" v="farm" />
		<tag k="ssr:stedsnr" v="375810" />
	</node>
	<node lat="62.543905559404834" lon="11.106294441077766" id="-37516">
		<tag k="name" v="Fremstugjelta" />
		<tag k="place" v="farm" />
		<tag k="ssr:stedsnr" v="375831" />
	</node>
	<node lat="62.54116944428538" lon="11.113216672672579" id="-37517">
		<tag k="name" v="Lian" />
		<tag k="place" v="farm" />
		<tag k="ssr:stedsnr" v="375833" />
	</node>
	<node lat="62.51906666281091" lon="11.132808329995543" id="-37518">
		<tag k="name" v="Nygjelta" />
		<tag k="place" v="farm" />
		<tag k="ssr:stedsnr" v="413195" />
	</node>
	<node lat="62.52279722342709" lon="11.133736105880796" id="-37519">
		<tag k="name" v="Haugsgjelta" />
		<tag k="place" v="farm" />
		<tag k="ssr:stedsnr" v="413197" />
	</node>
	<node lat="62.56731389313924" lon="11.110233340036295" id="-37524">
		<tag k="historic" v="shieling" />
		<tag k="name" v="Nygjeltvollen" />
		<tag k="place" v="isolated_dwelling" />
		<tag k="ssr:stedsnr" v="418058" />
	</node>
	<node lat="62.528630556492566" lon="11.117924997712624" id="-37530">
		<tag k="name" v="Nordre Kroken" />
		<tag k="place" v="farm" />
		<tag k="ssr:stedsnr" v="419186" />
	</node>
	<node lat="62.499488892515565" lon="11.259611108946219" id="-37541">
		<tag k="name" v="Fredheim" />
		<tag k="place" v="farm" />
		<tag k="ssr:stedsnr" v="419584" />
	</node>
	<node lat="62.50116388820483" lon="11.04118610308282" id="-37547">
		<tag k="name" v="Rønningsbua" />
		<tag k="place" v="locality" />
		<tag k="ssr:stedsnr" v="419700" />
	</node>
	<node lat="62.436166662691534" lon="11.411588884812389" id="-37548">
		<tag k="name" v="Østre Narjordet" />
		<tag k="place" v="farm" />
		<tag k="ssr:stedsnr" v="419802" />
	</node>
	<node lat="62.23352778211598" lon="11.820633331653978" id="-37558">
		<tag k="historic" v="shieling" />
		<tag k="name" v="Ulvrøsta" />
		<tag k="place" v="isolated_dwelling" />
		<tag k="ssr:stedsnr" v="435362" />
	</node>
	<node lat="62.49138889238502" lon="11.164141660537723" id="-37560">
		<tag k="name" v="Fabroåsen" />
		<tag k="place" v="farm" />
		<tag k="ssr:stedsnr" v="436015" />
	</node>
	<node lat="62.49860555761776" lon="11.007872215559672" id="-37561">
		<tag k="alt_name" v="Østuvollen;Oustuvollen" />
		<tag k="historic" v="shieling" />
		<tag k="name" v="Auststuvollen" />
		<tag k="place" v="isolated_dwelling" />
		<tag k="ssr:stedsnr" v="436020" />
	</node>
	<node lat="62.56901110675539" lon="11.018102780443158" id="-37563">
		<tag k="historic" v="shieling" />
		<tag k="name" v="Movollen" />
		<tag k="place" v="isolated_dwelling" />
		<tag k="ssr:stedsnr" v="436114" />
	</node>
	<node lat="62.57793333424836" lon="11.10596944714186" id="-37564">
		<tag k="historic" v="shieling" />
		<tag k="name" v="Smedåsvollen" />
		<tag k="place" v="isolated_dwelling" />
		<tag k="ssr:stedsnr" v="436128" />
	</node>
	<node lat="62.584961107692514" lon="11.16726388422588" id="-37565">
		<tag k="historic" v="shieling" />
		<tag k="name" v="Ryvollen" />
		<tag k="place" v="isolated_dwelling" />
		<tag k="ssr:stedsnr" v="436130" />
	</node>
	<node lat="62.59061666356784" lon="11.124786114850234" id="-37566">
		<tag k="historic" v="shieling" />
		<tag k="name" v="Rønningsvollen" />
		<tag k="place" v="isolated_dwelling" />
		<tag k="ssr:stedsnr" v="436154" />
	</node>
	<node lat="62.60184444579492" lon="11.124536116346464" id="-37567">
		<tag k="historic" v="shieling" />
		<tag k="name" v="Nygjeltvollen" />
		<tag k="place" v="isolated_dwelling" />
		<tag k="ssr:stedsnr" v="436158" />
	</node>
	<node lat="62.31920277824488" lon="11.546311112779172" id="-37569">
		<tag k="alt_name" v="Skalleråsen geitsæter" />
		<tag k="historic" v="shieling" />
		<tag k="name" v="Skalleråsen" />
		<tag k="place" v="isolated_dwelling" />
		<tag k="ssr:stedsnr" v="436421" />
	</node>
	<node lat="62.31618055181555" lon="11.694738883357319" id="-37571">
		<tag k="name" v="Fjellvang" />
		<tag k="place" v="farm" />
		<tag k="ssr:stedsnr" v="436424" />
	</node>
	<node lat="62.430629223278096" lon="11.411828503789327" id="-37573">
		<tag k="fixme" v="consider place=hamlet" />
		<tag k="name" v="Rya" />
		<tag k="place" v="farm" />
		<tag k="ssr:stedsnr" v="436378" />
	</node>
	<node lat="62.51585277799874" lon="11.126886118761728" id="-37576">
		<tag k="fixme" v="multiple name tags, choose one and add the other to alt_name" />
		<tag k="name" v="Elvaplass;Jorde" />
		<tag k="place" v="farm" />
		<tag k="ssr:stedsnr" v="436760" />
	</node>
	<node lat="62.52452499889949" lon="11.058174998631008" id="-37577">
		<tag k="name" v="Haugen" />
		<tag k="place" v="farm" />
		<tag k="ssr:stedsnr" v="436865" />
	</node>
	<node lat="62.49562222659294" lon="11.249941673913662" id="-37579">
		<tag k="name" v="Myra" />
		<tag k="place" v="farm" />
		<tag k="ssr:stedsnr" v="437350" />
	</node>
	<node lat="62.27947500367838" lon="11.714608326006932" id="-37580">
		<tag k="name" v="Fiskhuset" />
		<tag k="place" v="locality" />
		<tag k="ssr:stedsnr" v="478204" />
	</node>
	<node lat="62.55033889167007" lon="11.101005559447199" id="-37588">
		<tag k="name" v="Nordvang" />
		<tag k="place" v="hamlet" />
		<tag k="ssr:stedsnr" v="479057" />
	</node>
	<node lat="62.247308332064705" lon="11.761694451429614" id="-37589">
		<tag k="name" v="Nordre Sæter" />
		<tag k="place" v="farm" />
		<tag k="ssr:stedsnr" v="479058" />
	</node>
	<node lat="62.5360388908732" lon="11.111886118955564" id="-37597">
		<tag k="name" v="Nygarden" />
		<tag k="place" v="farm" />
		<tag k="ssr:stedsnr" v="479221" />
	</node>
	<node lat="62.46781388895819" lon="11.133497214787102" id="-37599">
		<tag k="historic" v="shieling" />
		<tag k="name" v="Ytervollen" />
		<tag k="place" v="isolated_dwelling" />
		<tag k="ssr:stedsnr" v="479309" />
	</node>
	<node lat="62.438786112142076" lon="11.145994452392383" id="-37614">
		<tag k="historic" v="shieling" />
		<tag k="name" v="Nyvollen" />
		<tag k="place" v="isolated_dwelling" />
		<tag k="ssr:stedsnr" v="479687" />
	</node>
	<node lat="62.5906166646353" lon="11.078502787231038" id="-37620">
		<tag k="historic" v="shieling" />
		<tag k="name" v="Rønningsvollen" />
		<tag k="place" v="isolated_dwelling" />
		<tag k="ssr:stedsnr" v="481412" />
	</node>
	<node lat="62.24335833408973" lon="11.756055547973526" id="-37624">
		<tag k="name" v="Liset" />
		<tag k="place" v="farm" />
		<tag k="ssr:stedsnr" v="678467" />
	</node>
	<node lat="62.51861666312384" lon="11.160294450357991" id="-37625">
		<tag k="name" v="Østli" />
		<tag k="place" v="farm" />
		<tag k="ssr:stedsnr" v="678762" />
	</node>
	<node lat="62.50622500119851" lon="11.076847225512239" id="-37626">
		<tag k="alt_name" v="Perskrokvollen" />
		<tag k="historic" v="shieling" />
		<tag k="name" v="Kåsvollan" />
		<tag k="place" v="isolated_dwelling" />
		<tag k="ssr:stedsnr" v="678767" />
	</node>
	<node lat="62.49132777470005" lon="11.067269437558018" id="-37627">
		<tag k="alt_name" v="Nordgardsvall" />
		<tag k="fixme" v="multiple name tags, choose one and add the other to alt_name" />
		<tag k="historic" v="shieling" />
		<tag k="name" v="Haugseggvollen;Nordgardsvollen" />
		<tag k="place" v="isolated_dwelling" />
		<tag k="ssr:stedsnr" v="679050" />
	</node>
	<node lat="62.493516669839515" lon="11.196697215021013" id="-37628">
		<tag k="alt_name" v="Bakosgjelten" />
		<tag k="name" v="Bakosgjelta" />
		<tag k="place" v="farm" />
		<tag k="ssr:stedsnr" v="679051" />
	</node>
	<node lat="62.59740000379263" lon="11.115902783482701" id="-37630">
		<tag k="alt_name" v="Håkensvollen" />
		<tag k="historic" v="shieling" />
		<tag k="name" v="Håkonsvollen" />
		<tag k="place" v="isolated_dwelling" />
		<tag k="ssr:stedsnr" v="679158" />
	</node>
	<node lat="62.435849997507134" lon="11.409649994021011" id="-37631">
		<tag k="name" v="Odden" />
		<tag k="place" v="farm" />
		<tag k="ssr:stedsnr" v="679356" />
	</node>
	<node lat="62.42672222569128" lon="11.415555565216568" id="-37632">
		<tag k="name" v="Nytrøa" />
		<tag k="place" v="farm" />
		<tag k="ssr:stedsnr" v="679363" />
	</node>
	<node lat="62.31144153476728" lon="11.721708358806415" id="-37634">
		<tag k="fixme" v="consider place=hamlet" />
		<tag k="name" v="Bakken" />
		<tag k="place" v="farm" />
		<tag k="ssr:stedsnr" v="679529" />
	</node>
	<node lat="62.28526667038525" lon="11.751622216939099" id="-37635">
		<tag k="alt_name" v="Sletta" />
		<tag k="name" v="Sagbekksletta" />
		<tag k="old_name" v="Sogbekksletta" />
		<tag k="place" v="farm" />
		<tag k="ssr:stedsnr" v="679538" />
	</node>
	<node lat="62.50655555155413" lon="11.177399997850616" id="-37636">
		<tag k="name" v="Heggstad" />
		<tag k="place" v="farm" />
		<tag k="ssr:stedsnr" v="679742" />
	</node>
	<node lat="62.561361109432674" lon="10.979194446715097" id="-37637">
		<tag k="alt_name" v="Mosengvollan" />
		<tag k="historic" v="shieling" />
		<tag k="name" v="Mosengvollen" />
		<tag k="place" v="isolated_dwelling" />
		<tag k="ssr:stedsnr" v="679796" />
	</node>
	<node lat="62.5344166700038" lon="11.107327787115816" id="-37638">
		<tag k="name" v="Egga" />
		<tag k="place" v="farm" />
		<tag k="ssr:stedsnr" v="679849" />
	</node>
	<node lat="62.22506944765286" lon="11.796366659128052" id="-37641">
		<tag k="name" v="Straumen" />
		<tag k="place" v="farm" />
		<tag k="ssr:stedsnr" v="496338" />
	</node>
	<node lat="62.21214518901663" lon="11.776822482276682" id="-37643">
		<tag k="name" v="Røstvollen" />
		<tag k="place" v="locality" />
		<tag k="ssr:stedsnr" v="496360" />
	</node>
	<node lat="62.47586944586052" lon="11.344019448772649" id="-37644">
		<tag k="historic" v="shieling" />
		<tag k="name" v="Stillbakkvollan" />
		<tag k="place" v="isolated_dwelling" />
		<tag k="ssr:stedsnr" v="496405" />
	</node>
	<node lat="62.47134999939969" lon="11.311749991337587" id="-37645">
		<tag k="alt_name" v="Østre Saravollen" />
		<tag k="historic" v="shieling" />
		<tag k="name" v="Saravollen" />
		<tag k="place" v="isolated_dwelling" />
		<tag k="ssr:stedsnr" v="496409" />
	</node>
	<node lat="62.5264444461338" lon="11.116749995427206" id="-37646">
		<tag k="name" v="Bakken" />
		<tag k="place" v="farm" />
		<tag k="ssr:stedsnr" v="496757" />
	</node>
	<node lat="62.52093055121666" lon="10.969438892448638" id="-37648">
		<tag k="historic" v="shieling" />
		<tag k="name" v="Djupsjøsætra" />
		<tag k="place" v="isolated_dwelling" />
		<tag k="ssr:stedsnr" v="496858" />
	</node>
	<node lat="62.525199998009015" lon="11.053502782118223" id="-37650">
		<tag k="name" v="Trøan" />
		<tag k="place" v="farm" />
		<tag k="ssr:stedsnr" v="496862" />
	</node>
	<node lat="62.52566666694185" lon="11.064616657302334" id="-37651">
		<tag k="alt_name" v="Enget-Berg" />
		<tag k="name" v="Enget" />
		<tag k="place" v="farm" />
		<tag k="ssr:stedsnr" v="496864" />
	</node>
	<node lat="62.43449444598873" lon="11.142280548898697" id="-37652">
		<tag k="name" v="Fjellro" />
		<tag k="place" v="isolated_dwelling" />
		<tag k="ssr:stedsnr" v="497107" />
	</node>
	<node lat="62.46362222565606" lon="11.154063888501799" id="-37653">
		<tag k="fixme" v="multiple name tags, choose one and add the other to alt_name" />
		<tag k="historic" v="shieling" />
		<tag k="name" v="Kvernmovollen;Arentvollen" />
		<tag k="place" v="isolated_dwelling" />
		<tag k="ssr:stedsnr" v="497055" />
	</node>
	<node lat="62.51398888729473" lon="11.269036110848289" id="-37655">
		<tag k="name" v="Eidevoll" />
		<tag k="place" v="farm" />
		<tag k="ssr:stedsnr" v="497506" />
	</node>
	<node lat="62.55806944089045" lon="10.91893611147236" id="-37656">
		<tag k="historic" v="shieling" />
		<tag k="name" v="Eggvollen" />
		<tag k="place" v="isolated_dwelling" />
		<tag k="ssr:stedsnr" v="497811" />
	</node>
	<node lat="62.44964722382642" lon="11.130902773873828" id="-37658">
		<tag k="name" v="Østre Hummelvoll" />
		<tag k="place" v="farm" />
		<tag k="ssr:stedsnr" v="532220" />
	</node>
	<node lat="62.499733333190754" lon="11.194575004538764" id="-37662">
		<tag k="name" v="Osgarden" />
		<tag k="place" v="farm" />
		<tag k="ssr:stedsnr" v="539125" />
	</node>
	<node lat="62.500347218716556" lon="11.20894443912246" id="-37663">
		<tag k="name" v="Storgjelten" />
		<tag k="place" v="farm" />
		<tag k="ssr:stedsnr" v="539132" />
	</node>
	<node lat="62.494291665321036" lon="11.211386115827223" id="-37664">
		<tag k="name" v="Øvre Bakos" />
		<tag k="place" v="farm" />
		<tag k="ssr:stedsnr" v="539133" />
	</node>
	<node lat="62.15838055651007" lon="11.827847218731684" id="-37667">
		<tag k="name" v="Jotbua" />
		<tag k="place" v="locality" />
		<tag k="ssr:stedsnr" v="539179" />
	</node>
	<node lat="62.52650277743829" lon="11.05951945034563" id="-37669">
		<tag k="name" v="Storstuen" />
		<tag k="place" v="farm" />
		<tag k="ssr:stedsnr" v="539582" />
	</node>
	<node lat="62.506913459725894" lon="11.155021866747786" id="-37676">
		<tag k="fixme" v="consider place=hamlet" />
		<tag k="name" v="Mosengen" />
		<tag k="place" v="farm" />
		<tag k="ssr:stedsnr" v="540181" />
	</node>
	<node lat="62.47262222429243" lon="11.319941661963076" id="-37692">
		<tag k="historic" v="shieling" />
		<tag k="name" v="Gammelvollen" />
		<tag k="place" v="isolated_dwelling" />
		<tag k="ssr:stedsnr" v="540513" />
	</node>
	<node lat="62.5021944450445" lon="11.239730550418829" id="-37696">
		<tag k="name" v="Furuholt" />
		<tag k="place" v="farm" />
		<tag k="ssr:stedsnr" v="540714" />
	</node>
	<node lat="62.594611106954424" lon="10.89809443802048" id="-37710">
		<tag k="historic" v="shieling" />
		<tag k="name" v="Gjotvollen" />
		<tag k="place" v="isolated_dwelling" />
		<tag k="ssr:stedsnr" v="557156" />
	</node>
	<node lat="62.60048888614062" lon="10.94207499888287" id="-37711">
		<tag k="historic" v="shieling" />
		<tag k="name" v="Nygardsvollen" />
		<tag k="place" v="isolated_dwelling" />
		<tag k="ssr:stedsnr" v="557157" />
	</node>
	<node lat="62.59908888864692" lon="11.118552768436144" id="-37712">
		<tag k="historic" v="shieling" />
		<tag k="name" v="Ytterhaugsvollen" />
		<tag k="place" v="isolated_dwelling" />
		<tag k="ssr:stedsnr" v="557159" />
	</node>
	<node lat="62.42234088526443" lon="11.430586001633195" id="-37715">
		<tag k="name" v="Dalsvang" />
		<tag k="place" v="farm" />
		<tag k="ssr:stedsnr" v="557369" />
	</node>
	<node lat="62.3543972234756" lon="11.467505555897102" id="-37717">
		<tag k="fixme" v="consider place=hamlet" />
		<tag k="name" v="Narbuvoll" />
		<tag k="place" v="village" />
		<tag k="ssr:stedsnr" v="557400" />
	</node>
	<node lat="62.517649998777316" lon="11.142111120502493" id="-37720">
		<tag k="name" v="Østegga" />
		<tag k="place" v="farm" />
		<tag k="ssr:stedsnr" v="557753" />
	</node>
	<node lat="62.55831110727683" lon="11.048349999951345" id="-37722">
		<tag k="historic" v="shieling" />
		<tag k="name" v="Myrtrøvollen" />
		<tag k="place" v="isolated_dwelling" />
		<tag k="ssr:stedsnr" v="557810" />
	</node>
	<node lat="62.562691662946634" lon="11.116313880244453" id="-37723">
		<tag k="name" v="Holla" />
		<tag k="place" v="farm" />
		<tag k="ssr:stedsnr" v="557811" />
	</node>
	<node lat="62.55934999681712" lon="10.919874996810096" id="-37725">
		<tag k="fixme" v="multiple name tags, choose one and add the other to alt_name" />
		<tag k="historic" v="shieling" />
		<tag k="name" v="Utstuvollen;Melivollen" />
		<tag k="place" v="isolated_dwelling" />
		<tag k="ssr:stedsnr" v="557800" />
	</node>
	<node lat="62.52642838691608" lon="11.058212834169383" id="-37726">
		<tag k="name" v="Vangrøfta" />
		<tag k="place" v="hamlet" />
		<tag k="ssr:stedsnr" v="557848" />
	</node>
	<node lat="62.52780000107259" lon="11.108688893804686" id="-37727">
		<tag k="fixme" v="consider place=hamlet" />
		<tag k="name" v="Dalsbygda" />
		<tag k="place" v="village" />
		<tag k="ssr:stedsnr" v="557853" />
	</node>
	<node lat="62.53019999626909" lon="11.127424995697867" id="-37728">
		<tag k="name" v="Engan" />
		<tag k="place" v="farm" />
		<tag k="ssr:stedsnr" v="557854" />
	</node>
	<node lat="62.48737499579113" lon="11.047780553815528" id="-37730">
		<tag k="alt_name" v="Ivarsegga" />
		<tag k="historic" v="shieling" />
		<tag k="name" v="Ivareggvollen" />
		<tag k="place" v="isolated_dwelling" />
		<tag k="ssr:stedsnr" v="695032" />
	</node>
	<node lat="62.51258888536017" lon="11.218033341240133" id="-37734">
		<tag k="name" v="Vangsmyra" />
		<tag k="place" v="isolated_dwelling" />
		<tag k="ssr:stedsnr" v="783745" />
	</node>
	<node lat="62.43599722207272" lon="11.40950000829861" id="-37737">
		<tag k="fixme" v="consider tourism=alpine_hut or tourism=chalet" />
		<tag k="name" v="Narjordet" />
		<tag k="ssr:stedsnr" v="595401" />
		<tag k="tourism" v="wilderness_hut" />
	</node>
	<node lat="62.19059722557881" lon="11.809569437926353" id="-37744">
		<tag k="name" v="Smedbua" />
		<tag k="place" v="locality" />
		<tag k="ssr:stedsnr" v="600112" />
	</node>
	<node lat="62.55846666852786" lon="11.06164999087329" id="-37767">
		<tag k="historic" v="shieling" />
		<tag k="name" v="Litjåsvollan" />
		<tag k="place" v="isolated_dwelling" />
		<tag k="ssr:stedsnr" v="600507" />
	</node>
	<node lat="62.59865278215563" lon="10.941330552955106" id="-37769">
		<tag k="historic" v="shieling" />
		<tag k="name" v="Nygardsvollen" />
		<tag k="place" v="isolated_dwelling" />
		<tag k="ssr:stedsnr" v="600298" />
	</node>
	<node lat="62.432127778471354" lon="11.411266675416961" id="-37777">
		<tag k="name" v="Vestre Ryen" />
		<tag k="place" v="farm" />
		<tag k="ssr:stedsnr" v="600799" />
	</node>
	<node lat="62.46262499625237" lon="11.073547226326875" id="-37779">
		<tag k="historic" v="shieling" />
		<tag k="name" v="Mosengvollen" />
		<tag k="place" v="isolated_dwelling" />
		<tag k="ssr:stedsnr" v="601203" />
	</node>
	<node lat="62.4932722256727" lon="11.173463897795623" id="-37786">
		<tag k="alt_name" v="Nyeng" />
		<tag k="name" v="Nyenget" />
		<tag k="place" v="farm" />
		<tag k="ssr:stedsnr" v="618015" />
	</node>
	<node lat="62.491133333399034" lon="11.08321111272092" id="-37787">
		<tag k="historic" v="shieling" />
		<tag k="name" v="Åkervollen" />
		<tag k="place" v="isolated_dwelling" />
		<tag k="ssr:stedsnr" v="618030" />
	</node>
	<node lat="62.49714722045059" lon="11.200025008550247" id="-37788">
		<tag k="name" v="Osflaten" />
		<tag k="place" v="farm" />
		<tag k="ssr:stedsnr" v="618037" />
	</node>
	<node lat="62.58324999862906" lon="10.947877775806028" id="-37789">
		<tag k="historic" v="shieling" />
		<tag k="name" v="Nybrøttsætra" />
		<tag k="place" v="isolated_dwelling" />
		<tag k="ssr:stedsnr" v="618133" />
	</node>
	<node lat="62.592849996339474" lon="10.885691659623525" id="-37790">
		<tag k="name" v="Korbua" />
		<tag k="place" v="isolated_dwelling" />
		<tag k="ssr:stedsnr" v="618136" />
	</node>
	<node lat="62.526191664801175" lon="11.25562500559919" id="-37793">
		<tag k="fixme" v="multiple name tags, choose one and add the other to alt_name" />
		<tag k="historic" v="shieling" />
		<tag k="name" v="Vangskåsvollen;Litllokvollen" />
		<tag k="place" v="isolated_dwelling" />
		<tag k="ssr:stedsnr" v="618587" />
	</node>
	<node lat="62.523558331094485" lon="11.115780549198728" id="-37796">
		<tag k="name" v="Langegga" />
		<tag k="place" v="farm" />
		<tag k="ssr:stedsnr" v="618726" />
	</node>
	<node lat="62.552794440014" lon="11.073344446021984" id="-37798">
		<tag k="alt_name" v="Ryen" />
		<tag k="name" v="Rya" />
		<tag k="place" v="farm" />
		<tag k="ssr:stedsnr" v="618808" />
	</node>
	<node lat="62.549833329418256" lon="11.195283336201479" id="-37799">
		<tag k="name" v="Nystubua" />
		<tag k="place" v="isolated_dwelling" />
		<tag k="ssr:stedsnr" v="618810" />
	</node>
	<node lat="62.4468749980854" lon="11.126052773819938" id="-37803">
		<tag k="name" v="Vestre Hummelvoll" />
		<tag k="place" v="farm" />
		<tag k="ssr:stedsnr" v="653225" />
	</node>
	<node lat="62.27631388776406" lon="11.739697228800216" id="-37807">
		<tag k="name" v="Søndre Midtdal" />
		<tag k="place" v="farm" />
		<tag k="ssr:stedsnr" v="660230" />
	</node>
	<node lat="62.51111944147202" lon="11.14129723105001" id="-37819">
		<tag k="building" v="industrial" />
		<tag k="name" v="Brufossaga" />
		<tag k="ssr:stedsnr" v="661190" />
	</node>
	<node lat="62.474041668869944" lon="11.114138889383474" id="-37821">
		<tag k="historic" v="shieling" />
		<tag k="name" v="Mattisvollen" />
		<tag k="place" v="isolated_dwelling" />
		<tag k="ssr:stedsnr" v="661333" />
	</node>
	<node lat="62.57631944338406" lon="10.930038886414579" id="-37827">
		<tag k="historic" v="shieling" />
		<tag k="name" v="Heljesvollen" />
		<tag k="place" v="isolated_dwelling" />
		<tag k="ssr:stedsnr" v="661293" />
	</node>
	<node lat="62.528016663571194" lon="10.985733332380693" id="-37831">
		<tag k="historic" v="shieling" />
		<tag k="name" v="Bratåsvollen" />
		<tag k="place" v="isolated_dwelling" />
		<tag k="ssr:stedsnr" v="661609" />
	</node>
	<node lat="62.46175833088796" lon="11.10496666086025" id="-37832">
		<tag k="name" v="Smålottan" />
		<tag k="place" v="locality" />
		<tag k="ssr:stedsnr" v="661681" />
	</node>
	<node lat="62.43690278009021" lon="11.410797216670074" id="-37835">
		<tag k="name" v="Østre Narjordet" />
		<tag k="place" v="farm" />
		<tag k="ssr:stedsnr" v="661698" />
	</node>
	<node lat="62.62239999852149" lon="11.111558327483543" id="-37846">
		<tag k="fixme" v="multiple name tags, choose one and add the other to alt_name" />
		<tag k="historic" v="shieling" />
		<tag k="name" v="Hollbuvollen;Flatvollen" />
		<tag k="place" v="isolated_dwelling" />
		<tag k="ssr:stedsnr" v="678204" />
	</node>
	<node lat="62.621208330629614" lon="10.85288612056753" id="-37848">
		<tag k="historic" v="shieling" />
		<tag k="name" v="Åsvollen" />
		<tag k="place" v="isolated_dwelling" />
		<tag k="ssr:stedsnr" v="678195" />
	</node>
	<node lat="62.540719447120985" lon="11.103863897358302" id="-37850">
		<tag k="alt_name" v="Åsen øvre" />
		<tag k="name" v="Åsen" />
		<tag k="place" v="farm" />
		<tag k="ssr:stedsnr" v="678824" />
	</node>
	<node lat="62.44969999948896" lon="11.398055550506015" id="-37854">
		<tag k="name" v="Enget" />
		<tag k="place" v="farm" />
		<tag k="ssr:stedsnr" v="679310" />
	</node>
	<node lat="62.46263611446351" lon="11.348522220449075" id="-37857">
		<tag k="historic" v="shieling" />
		<tag k="name" v="Bingvollen" />
		<tag k="place" v="isolated_dwelling" />
		<tag k="ssr:stedsnr" v="679317" />
	</node>
	<node lat="62.550113892570515" lon="11.072999991513527" id="-37858">
		<tag k="name" v="Rya" />
		<tag k="place" v="farm" />
		<tag k="ssr:stedsnr" v="679322" />
	</node>
	<node lat="62.44170277628004" lon="11.12374722735152" id="-37859">
		<tag k="alt_name" v="Hummelrøsta" />
		<tag k="name" v="Røsta" />
		<tag k="place" v="farm" />
		<tag k="ssr:stedsnr" v="679086" />
	</node>
	<node lat="62.27424721920021" lon="11.759233339250832" id="-37860">
		<tag k="name" v="Åsheim" />
		<tag k="place" v="farm" />
		<tag k="ssr:stedsnr" v="679630" />
	</node>
	<node lat="62.26521110685109" lon="11.755127769875667" id="-37861">
		<tag k="historic" v="shieling" />
		<tag k="name" v="Punnibakkvollen" />
		<tag k="place" v="isolated_dwelling" />
		<tag k="ssr:stedsnr" v="679636" />
	</node>
	<node lat="62.56022500173707" lon="11.200200006684218" id="-37863">
		<tag k="alt_name" v="Trønsvollen" />
		<tag k="historic" v="shieling" />
		<tag k="name" v="Ostrøvollen" />
		<tag k="place" v="isolated_dwelling" />
		<tag k="ssr:stedsnr" v="679806" />
	</node>
	<node lat="62.49892222616442" lon="11.298077777566537" id="-37864">
		<tag k="name" v="Høsenfjellhytta" />
		<tag k="place" v="isolated_dwelling" />
		<tag k="ssr:stedsnr" v="688563" />
	</node>
	<node lat="62.54917222076291" lon="11.09644999314245" id="-37873">
		<tag k="name" v="Utstumo" />
		<tag k="place" v="farm" />
		<tag k="ssr:stedsnr" v="722076" />
	</node>
	<node lat="62.49170000105977" lon="11.195533334563333" id="-37881">
		<tag k="name" v="Akeren" />
		<tag k="place" v="farm" />
		<tag k="ssr:stedsnr" v="722179" />
	</node>
	<node lat="62.46377777611036" lon="11.132572230295898" id="-37884">
		<tag k="historic" v="shieling" />
		<tag k="name" v="Flatvollen" />
		<tag k="place" v="isolated_dwelling" />
		<tag k="ssr:stedsnr" v="722322" />
	</node>
	<node lat="62.486933333250434" lon="11.045124998308607" id="-37887">
		<tag k="historic" v="shieling" />
		<tag k="name" v="Langvollen" />
		<tag k="place" v="isolated_dwelling" />
		<tag k="ssr:stedsnr" v="722769" />
	</node>
	<node lat="62.577538888775344" lon="11.186136112305155" id="-37892">
		<tag k="historic" v="shieling" />
		<tag k="name" v="Perskrokvollen" />
		<tag k="place" v="isolated_dwelling" />
		<tag k="ssr:stedsnr" v="739119" />
	</node>
	<node lat="62.54627151735236" lon="11.100543972951666" id="-37897">
		<tag k="name" v="Vangsgjelta" />
		<tag k="place" v="farm" />
		<tag k="ssr:stedsnr" v="739844" />
	</node>
	<node lat="62.54225000408114" lon="11.015805558597282" id="-37898">
		<tag k="historic" v="shieling" />
		<tag k="name" v="Flovollan" />
		<tag k="place" v="isolated_dwelling" />
		<tag k="ssr:stedsnr" v="739845" />
	</node>
	<node lat="62.56598333118511" lon="11.120444438240547" id="-37900">
		<tag k="name" v="Lysgård" />
		<tag k="place" v="isolated_dwelling" />
		<tag k="ssr:stedsnr" v="740126" />
	</node>
	<node lat="62.502986107799856" lon="11.231633337737845" id="-37902">
		<tag k="name" v="Sundåkeren" />
		<tag k="place" v="farm" />
		<tag k="ssr:stedsnr" v="740496" />
	</node>
	<node lat="62.505538887212275" lon="11.240255558175566" id="-37903">
		<tag k="alt_name" v="Eidemyra" />
		<tag k="name" v="Eidet" />
		<tag k="place" v="farm" />
		<tag k="ssr:stedsnr" v="740499" />
	</node>
	<node lat="62.51715217145331" lon="11.221868048374429" id="-37904">
		<tag k="fixme" v="consider place=hamlet" />
		<tag k="name" v="Austvangen" />
		<tag k="place" v="farm" />
		<tag k="ssr:stedsnr" v="740593" />
	</node>
	<node lat="62.304433334975066" lon="11.722949995120489" id="-37910">
		<tag k="name" v="Nordre Moen" />
		<tag k="place" v="farm" />
		<tag k="ssr:stedsnr" v="903227" />
	</node>
	<node lat="62.15146944398259" lon="11.833522218816421" id="-37921">
		<tag k="name" v="Nåloddbua" />
		<tag k="place" v="locality" />
		<tag k="ssr:stedsnr" v="904218" />
	</node>
	<node lat="62.50578889177072" lon="11.093772228747017" id="-37923">
		<tag k="historic" v="shieling" />
		<tag k="name" v="Nystuvollen" />
		<tag k="place" v="isolated_dwelling" />
		<tag k="ssr:stedsnr" v="904178" />
	</node>
	<node lat="62.53098333109027" lon="11.123319437870409" id="-37924">
		<tag k="name" v="Nygjelta" />
		<tag k="place" v="farm" />
		<tag k="ssr:stedsnr" v="904198" />
	</node>
	<node lat="62.478775004053006" lon="11.106716662490099" id="-37927">
		<tag k="historic" v="shieling" />
		<tag k="name" v="Gjeltvollen" />
		<tag k="place" v="isolated_dwelling" />
		<tag k="ssr:stedsnr" v="904345" />
	</node>
	<node lat="62.51320921003099" lon="11.277478345301441" id="-37931">
		<tag k="fixme" v="consider place=hamlet" />
		<tag k="name" v="Nedre Myre" />
		<tag k="place" v="farm" />
		<tag k="ssr:stedsnr" v="904365" />
	</node>
	<node lat="62.529566667033656" lon="11.07297500888199" id="-37933">
		<tag k="name" v="Nordre Lillehaug" />
		<tag k="place" v="farm" />
		<tag k="ssr:stedsnr" v="904572" />
	</node>
	<node lat="62.494633336458556" lon="11.25760278198556" id="-37934">
		<tag k="name" v="Foransjøhagen" />
		<tag k="place" v="farm" />
		<tag k="ssr:stedsnr" v="904537" />
	</node>
	<node lat="62.588416662858876" lon="11.072227781980343" id="-37941">
		<tag k="historic" v="shieling" />
		<tag k="name" v="Eggvollen" />
		<tag k="place" v="isolated_dwelling" />
		<tag k="ssr:stedsnr" v="906407" />
	</node>
	<node lat="62.568799997946854" lon="11.035902780891726" id="-37959">
		<tag k="historic" v="shieling" />
		<tag k="name" v="Ytterhaugsvollen" />
		<tag k="place" v="isolated_dwelling" />
		<tag k="ssr:stedsnr" v="783355" />
	</node>
	<node lat="62.52249444102536" lon="11.039899996191291" id="-37965">
		<tag k="historic" v="shieling" />
		<tag k="name" v="Engevollen" />
		<tag k="place" v="isolated_dwelling" />
		<tag k="ssr:stedsnr" v="783707" />
	</node>
	<node lat="62.35347777604025" lon="11.49216665865766" id="-37967">
		<tag k="historic" v="shieling" />
		<tag k="name" v="Sivertsvollen" />
		<tag k="place" v="isolated_dwelling" />
		<tag k="ssr:stedsnr" v="783956" />
	</node>
	<node lat="62.495997223419494" lon="11.085055564189672" id="-37968">
		<tag k="historic" v="shieling" />
		<tag k="name" v="Langeggvollen" />
		<tag k="place" v="isolated_dwelling" />
		<tag k="ssr:stedsnr" v="783699" />
	</node>
	<node lat="62.584741662621006" lon="11.081369446543581" id="-37970">
		<tag k="historic" v="shieling" />
		<tag k="name" v="Trøvollen" />
		<tag k="place" v="isolated_dwelling" />
		<tag k="ssr:stedsnr" v="785362" />
	</node>
	<node lat="62.44977778019018" lon="11.38899167255598" id="-37976">
		<tag k="name" v="Litlenarjordet" />
		<tag k="place" v="farm" />
		<tag k="ssr:stedsnr" v="800337" />
	</node>
	<node lat="62.44183055132208" lon="11.421716669824646" id="-37977">
		<tag k="name" v="Norgarden" />
		<tag k="place" v="farm" />
		<tag k="ssr:stedsnr" v="800383" />
	</node>
	<node lat="62.55211389187375" lon="11.065697228763394" id="-37978">
		<tag k="name" v="Eggset" />
		<tag k="place" v="farm" />
		<tag k="ssr:stedsnr" v="800814" />
	</node>
	<node lat="62.543538889425115" lon="11.103522221178514" id="-37979">
		<tag k="name" v="Smedåsen" />
		<tag k="place" v="farm" />
		<tag k="ssr:stedsnr" v="800824" />
	</node>
	<node lat="62.5406222248163" lon="11.114672232014058" id="-37980">
		<tag k="name" v="Liheim" />
		<tag k="place" v="farm" />
		<tag k="ssr:stedsnr" v="800827" />
	</node>
	<node lat="62.45364444686687" lon="11.143144447084069" id="-37982">
		<tag k="alt_name" v="Skjølsvold" />
		<tag k="name" v="Sjølsvollen" />
		<tag k="place" v="farm" />
		<tag k="ssr:stedsnr" v="801083" />
	</node>
	<node lat="62.51556661027256" lon="11.286562213863471" id="-37984">
		<tag k="name" v="Myre" />
		<tag k="place" v="hamlet" />
		<tag k="ssr:stedsnr" v="801515" />
	</node>
	<node lat="62.38996388921904" lon="11.451672225617424" id="-37985">
		<tag k="historic" v="shieling" />
		<tag k="name" v="Musholvollen" />
		<tag k="place" v="isolated_dwelling" />
		<tag k="ssr:stedsnr" v="801408" />
	</node>
	<node lat="62.55985000142339" lon="11.065230548458027" id="-37989">
		<tag k="historic" v="shieling" />
		<tag k="name" v="Utheimsvollen" />
		<tag k="place" v="isolated_dwelling" />
		<tag k="ssr:stedsnr" v="801790" />
	</node>
	<node lat="62.50160000418914" lon="11.173644439543986" id="-37990">
		<tag k="alt_name" v="Osmoen, øvre" />
		<tag k="name" v="Osmoen" />
		<tag k="old_name" v="Osmoan" />
		<tag k="place" v="farm" />
		<tag k="ssr:stedsnr" v="921018" />
	</node>
	<node lat="62.58139444390841" lon="11.120563898218823" id="-37992">
		<tag k="historic" v="shieling" />
		<tag k="name" v="Myrvollen" />
		<tag k="place" v="isolated_dwelling" />
		<tag k="ssr:stedsnr" v="921171" />
	</node>
	<node lat="62.59756110875234" lon="10.914730561512918" id="-37994">
		<tag k="historic" v="shieling" />
		<tag k="name" v="Kløftåsen" />
		<tag k="place" v="isolated_dwelling" />
		<tag k="ssr:stedsnr" v="921174" />
	</node>
	<node lat="62.19043055160241" lon="11.735444437696156" id="-37996">
		<tag k="alt_name" v="Kvennlia geitsæter;Kvernlia" />
		<tag k="historic" v="shieling" />
		<tag k="name" v="Kvennlia" />
		<tag k="place" v="isolated_dwelling" />
		<tag k="ssr:stedsnr" v="921351" />
	</node>
	<node lat="62.35430000094504" lon="11.493083331412718" id="-37997">
		<tag k="historic" v="shieling" />
		<tag k="name" v="Nyvollen" />
		<tag k="place" v="isolated_dwelling" />
		<tag k="ssr:stedsnr" v="921451" />
	</node>
	<node lat="62.543530556299665" lon="11.090355559816896" id="-37999">
		<tag k="alt_name" v="Brattås" />
		<tag k="name" v="Brattåsen" />
		<tag k="place" v="farm" />
		<tag k="ssr:stedsnr" v="921848" />
	</node>
	<node lat="62.53978888725031" lon="11.105930557552712" id="-38000">
		<tag k="name" v="Trøan" />
		<tag k="place" v="farm" />
		<tag k="ssr:stedsnr" v="921854" />
	</node>
	<node lat="62.51955555127817" lon="11.034180547214069" id="-38002">
		<tag k="name" v="Åsheim" />
		<tag k="place" v="farm" />
		<tag k="ssr:stedsnr" v="921771" />
	</node>
	<node lat="62.49022221921157" lon="11.167558341351805" id="-38003">
		<tag k="alt_name" v="Ås, ytre" />
		<tag k="name" v="Ytre Ås" />
		<tag k="place" v="farm" />
		<tag k="ssr:stedsnr" v="922040" />
	</node>
	<node lat="62.57753610914482" lon="10.943850006881073" id="-38005">
		<tag k="name" v="Brøttet" />
		<tag k="place" v="hamlet" />
		<tag k="ssr:stedsnr" v="922150" />
	</node>
	<node lat="62.51477499623611" lon="11.21959722096197" id="-38010">
		<tag k="name" v="Nyvangen" />
		<tag k="place" v="farm" />
		<tag k="ssr:stedsnr" v="922469" />
	</node>
	<node lat="62.32015277802415" lon="11.73168889708597" id="-38011">
		<tag k="name" v="Øya" />
		<tag k="place" v="farm" />
		<tag k="ssr:stedsnr" v="922534" />
	</node>
	<node lat="62.28215278018408" lon="11.760411102856498" id="-38012">
		<tag k="name" v="Solvang" />
		<tag k="place" v="farm" />
		<tag k="ssr:stedsnr" v="922636" />
	</node>
	<node lat="62.273836108802335" lon="11.739241669527583" id="-38013">
		<tag k="name" v="Vesterheim" />
		<tag k="place" v="farm" />
		<tag k="ssr:stedsnr" v="922639" />
	</node>
	<node lat="62.270236106959175" lon="11.75153610408869" id="-38014">
		<tag k="historic" v="shieling" />
		<tag k="name" v="Movollen" />
		<tag k="place" v="isolated_dwelling" />
		<tag k="ssr:stedsnr" v="922640" />
	</node>
	<node lat="62.507527780511744" lon="11.173838886884804" id="-38015">
		<tag k="name" v="Furuholt" />
		<tag k="place" v="farm" />
		<tag k="ssr:stedsnr" v="922740" />
	</node>
	<node lat="62.508144445145085" lon="11.16015833203015" id="-38016">
		<tag k="name" v="Mosengtrøa" />
		<tag k="place" v="farm" />
		<tag k="ssr:stedsnr" v="922741" />
	</node>
	<node lat="62.535786114041684" lon="11.109725005951388" id="-38018">
		<tag k="alt_name" v="Ytterhaugen" />
		<tag k="name" v="Ytterhaug" />
		<tag k="place" v="farm" />
		<tag k="ssr:stedsnr" v="922846" />
	</node>
	<node lat="62.52583055269416" lon="11.077880553138385" id="-38019">
		<tag k="alt_name" v="Strype" />
		<tag k="name" v="Strypet" />
		<tag k="place" v="farm" />
		<tag k="ssr:stedsnr" v="922860" />
	</node>
	<node lat="62.495138887579344" lon="10.992058325766108" id="-38021">
		<tag k="historic" v="shieling" />
		<tag k="name" v="Gruvvollen" />
		<tag k="place" v="isolated_dwelling" />
		<tag k="ssr:stedsnr" v="843029" />
	</node>
	<node lat="62.18275833121865" lon="11.836016670735614" id="-38025">
		<tag k="name" v="Mikkelsbua" />
		<tag k="place" v="locality" />
		<tag k="ssr:stedsnr" v="843208" />
	</node>
	<node lat="62.547219442790215" lon="11.095008340372294" id="-38032">
		<tag k="name" v="Kvangraven" />
		<tag k="place" v="farm" />
		<tag k="ssr:stedsnr" v="844060" />
	</node>
	<node lat="62.50199167062739" lon="11.20418056497581" id="-38035">
		<tag k="name" v="Østre Os" />
		<tag k="place" v="farm" />
		<tag k="ssr:stedsnr" v="844173" />
	</node>
	<node lat="62.5296138884759" lon="11.12238610332693" id="-38036">
		<tag k="name" v="Breen" />
		<tag k="place" v="farm" />
		<tag k="ssr:stedsnr" v="844181" />
	</node>
	<node lat="62.571919444555284" lon="11.016502770234121" id="-38043">
		<tag k="historic" v="shieling" />
		<tag k="name" v="Fremstuvollen" />
		<tag k="place" v="isolated_dwelling" />
		<tag k="ssr:stedsnr" v="844418" />
	</node>
	<node lat="62.501458408865226" lon="11.257166592630902" id="-38047">
		<tag k="name" v="Røste" />
		<tag k="place" v="farm" />
		<tag k="ssr:stedsnr" v="844582" />
	</node>
	<node lat="62.44712778177329" lon="11.122927781097667" id="-38049">
		<tag k="name" v="Gammelgården" />
		<tag k="place" v="locality" />
		<tag k="ssr:stedsnr" v="844715" />
	</node>
	<node lat="62.412898782274794" lon="11.455727840934433" id="-38052">
		<tag k="name" v="Åsvollan" />
		<tag k="place" v="locality" />
		<tag k="ssr:stedsnr" v="844824" />
	</node>
	<node lat="62.58934166970168" lon="11.170133328519913" id="-38053">
		<tag k="historic" v="shieling" />
		<tag k="name" v="Nordgardsvollen" />
		<tag k="place" v="isolated_dwelling" />
		<tag k="ssr:stedsnr" v="844978" />
	</node>
	<node lat="62.59755832875425" lon="10.916483342499628" id="-38054">
		<tag k="historic" v="shieling" />
		<tag k="name" v="Oustuvollen" />
		<tag k="place" v="isolated_dwelling" />
		<tag k="ssr:stedsnr" v="846297" />
	</node>
	<node lat="62.48075278127266" lon="11.187727769728374" id="-38057">
		<tag k="historic" v="shieling" />
		<tag k="name" v="Østeregga" />
		<tag k="place" v="isolated_dwelling" />
		<tag k="ssr:stedsnr" v="861057" />
	</node>
	<node lat="62.62171666275675" lon="10.862624992347516" id="-38059">
		<tag k="historic" v="shieling" />
		<tag k="name" v="Mosengvollen" />
		<tag k="place" v="isolated_dwelling" />
		<tag k="ssr:stedsnr" v="861176" />
	</node>
	<node lat="62.44585434493254" lon="11.408431739987371" id="-38061">
		<tag k="name" v="Kvannkåsbakken" />
		<tag k="place" v="farm" />
		<tag k="ssr:stedsnr" v="861314" />
	</node>
	<node lat="62.317758334106706" lon="11.629358342196124" id="-38062">
		<tag k="name" v="Molia" />
		<tag k="place" v="farm" />
		<tag k="ssr:stedsnr" v="861417" />
	</node>
	<node lat="62.56374722364524" lon="11.036469440904362" id="-38065">
		<tag k="name" v="Løvli" />
		<tag k="place" v="farm" />
		<tag k="ssr:stedsnr" v="861821" />
	</node>
	<node lat="62.55695000335612" lon="11.061411113029994" id="-38066">
		<tag k="historic" v="shieling" />
		<tag k="name" v="Åsvollen" />
		<tag k="place" v="isolated_dwelling" />
		<tag k="ssr:stedsnr" v="861824" />
	</node>
	<node lat="62.60220833017132" lon="11.103583330891837" id="-38070">
		<tag k="historic" v="shieling" />
		<tag k="name" v="Engebakkvollen" />
		<tag k="place" v="isolated_dwelling" />
		<tag k="ssr:stedsnr" v="884650" />
	</node>
	<node lat="62.309491662453986" lon="11.723116659595533" id="-38075">
		<tag k="name" v="Søndre Bakken" />
		<tag k="place" v="farm" />
		<tag k="ssr:stedsnr" v="903215" />
	</node>
	<node lat="62.31085278001156" lon="11.721119447920156" id="-38076">
		<tag k="name" v="Vestre Bakken" />
		<tag k="place" v="farm" />
		<tag k="ssr:stedsnr" v="903217" />
	</node>
	<node lat="62.48598333655612" lon="11.101766664750443" id="-38084">
		<tag k="historic" v="shieling" />
		<tag k="name" v="Haugsvollen" />
		<tag k="place" v="isolated_dwelling" />
		<tag k="ssr:stedsnr" v="904150" />
	</node>
	<node lat="62.311958337356856" lon="11.681391676257755" id="-38085">
		<tag k="name" v="Nøstran" />
		<tag k="place" v="locality" />
		<tag k="ssr:stedsnr" v="904158" />
	</node>
	<node lat="62.50094444308008" lon="11.204702776623913" id="-38086">
		<tag k="name" v="Tydølstua" />
		<tag k="place" v="isolated_dwelling" />
		<tag k="ssr:stedsnr" v="904163" />
	</node>
	<node lat="62.5265694478005" lon="11.093816667915187" id="-38087">
		<tag k="name" v="Mogardene" />
		<tag k="place" v="farm" />
		<tag k="ssr:stedsnr" v="904199" />
	</node>
	<node lat="62.528074999326485" lon="11.11366388632311" id="-38088">
		<tag k="amenity" v="school" />
		<tag k="name" v="Dalsbygda skole" />
		<tag k="ssr:stedsnr" v="904200" />
	</node>
	<node lat="62.33656666395153" lon="11.610691669351215" id="-38089">
		<tag k="name" v="Babakken" />
		<tag k="place" v="isolated_dwelling" />
		<tag k="ssr:stedsnr" v="904307" />
	</node>
	<node lat="62.594736111804" lon="10.907413884691952" id="-38091">
		<tag k="historic" v="shieling" />
		<tag k="name" v="Østugjeltvollen" />
		<tag k="place" v="isolated_dwelling" />
		<tag k="ssr:stedsnr" v="904312" />
	</node>
	<node lat="62.46291111037884" lon="11.13128056401104" id="-38092">
		<tag k="historic" v="shieling" />
		<tag k="name" v="Hortenvollen" />
		<tag k="place" v="isolated_dwelling" />
		<tag k="ssr:stedsnr" v="904315" />
	</node>
	<node lat="62.57144167020854" lon="11.009341659980173" id="-38099">
		<tag k="historic" v="shieling" />
		<tag k="name" v="Myrtrøvollen" />
		<tag k="place" v="isolated_dwelling" />
		<tag k="ssr:stedsnr" v="904420" />
	</node>
	<node lat="62.53024444360396" lon="11.24383054903588" id="-38100">
		<tag k="historic" v="shieling" />
		<tag k="name" v="Strandvollen" />
		<tag k="place" v="isolated_dwelling" />
		<tag k="ssr:stedsnr" v="904454" />
	</node>
	<node lat="62.55222499963194" lon="11.056738879650057" id="-38102">
		<tag k="name" v="Johaugsenget" />
		<tag k="place" v="locality" />
		<tag k="ssr:stedsnr" v="904513" />
	</node>
	<node lat="62.50269999933007" lon="11.235722218667545" id="-38106">
		<tag k="name" v="Sund" />
		<tag k="place" v="farm" />
		<tag k="ssr:stedsnr" v="904713" />
	</node>
	<node lat="62.52078611514876" lon="11.21719999710397" id="-38108">
		<tag k="name" v="Østvang" />
		<tag k="place" v="farm" />
		<tag k="ssr:stedsnr" v="904719" />
	</node>
	<node lat="62.35468889202311" lon="11.465838892163204" id="-38117">
		<tag k="name" v="Østigarden" />
		<tag k="place" v="farm" />
		<tag k="ssr:stedsnr" v="904963" />
	</node>
	<node lat="62.46766110904793" lon="11.070755561045518" id="-38118">
		<tag k="historic" v="shieling" />
		<tag k="name" v="Simensvollen" />
		<tag k="place" v="isolated_dwelling" />
		<tag k="ssr:stedsnr" v="905219" />
	</node>
	<node lat="62.588647218559046" lon="11.169583326768688" id="-38120">
		<tag k="historic" v="shieling" />
		<tag k="name" v="Ustuvollen" />
		<tag k="place" v="isolated_dwelling" />
		<tag k="ssr:stedsnr" v="921170" />
	</node>
	<node lat="62.612391670990526" lon="11.101727779573013" id="-38121">
		<tag k="historic" v="shieling" />
		<tag k="name" v="Osmovollen" />
		<tag k="place" v="isolated_dwelling" />
		<tag k="ssr:stedsnr" v="921189" />
	</node>
	<node lat="62.46532221889333" lon="11.378927780196959" id="-38123">
		<tag k="historic" v="shieling" />
		<tag k="name" v="Åsvollan" />
		<tag k="place" v="isolated_dwelling" />
		<tag k="ssr:stedsnr" v="921382" />
	</node>
	<node lat="62.472549996658806" lon="11.36228054999161" id="-38124">
		<tag k="historic" v="shieling" />
		<tag k="name" v="Gammelvollan" />
		<tag k="place" v="isolated_dwelling" />
		<tag k="ssr:stedsnr" v="921392" />
	</node>
	<node lat="62.45171666877723" lon="11.135333330662267" id="-38126">
		<tag k="name" v="Moen" />
		<tag k="place" v="farm" />
		<tag k="ssr:stedsnr" v="922090" />
	</node>
	<node lat="62.37661666805538" lon="11.46953056064744" id="-38130">
		<tag k="name" v="Håmoen" />
		<tag k="place" v="isolated_dwelling" />
		<tag k="ssr:stedsnr" v="922392" />
	</node>
	<node lat="62.38428333249528" lon="11.454152785368139" id="-38131">
		<tag k="alt_name" v="Saksbekkvollen" />
		<tag k="historic" v="shieling" />
		<tag k="name" v="Skjalbekkvollen" />
		<tag k="place" v="isolated_dwelling" />
		<tag k="ssr:stedsnr" v="922397" />
	</node>
	<node lat="62.165941670015556" lon="11.82925555917707" id="-38134">
		<tag k="fixme" v="consider tourism=alpine_hut or tourism=chalet" />
		<tag k="name" v="Kløvsten" />
		<tag k="ssr:stedsnr" v="951290" />
		<tag k="tourism" v="wilderness_hut" />
	</node>
	<node lat="62.280883335567985" lon="11.741855550345475" id="-38138">
		<tag k="amenity" v="school" />
		<tag k="name" v="Tufsingdalen skole" />
		<tag k="ssr:stedsnr" v="963245" />
	</node>
	<node lat="62.53216110935906" lon="11.07580277865492" id="-38146">
		<tag k="name" v="Nordre Nyhaug" />
		<tag k="place" v="farm" />
		<tag k="ssr:stedsnr" v="964584" />
	</node>
	<node lat="62.53179166437902" lon="11.065113887125628" id="-38147">
		<tag k="leisure" v="pitch" />
		<tag k="name" v="Nonsåsbakken" />
		<tag k="ssr:stedsnr" v="964585" />
	</node>
	<node lat="62.33059722310905" lon="11.569416657118131" id="-38157">
		<tag k="name" v="Hanshaugen" />
		<tag k="place" v="isolated_dwelling" />
		<tag k="ssr:stedsnr" v="965294" />
	</node>
	<node lat="62.5755916668527" lon="11.015761110349981" id="-38158">
		<tag k="historic" v="shieling" />
		<tag k="name" v="Litjstuvollen" />
		<tag k="place" v="isolated_dwelling" />
		<tag k="ssr:stedsnr" v="965436" />
	</node>
	<node lat="62.49889166594619" lon="11.249238881387607" id="-38160">
		<tag k="name" v="Estensbekken" />
		<tag k="place" v="farm" />
		<tag k="ssr:stedsnr" v="965589" />
	</node>
	<node lat="62.598072220969044" lon="10.915005550894007" id="-38166">
		<tag k="historic" v="shieling" />
		<tag k="name" v="Klokkarvollen" />
		<tag k="place" v="isolated_dwelling" />
		<tag k="ssr:stedsnr" v="967286" />
	</node>
	<node lat="62.49032776185124" lon="11.22216447642853" id="-38232">
		<tag k="name" v="Kristofferegga" />
		<tag k="place" v="quarter" />
		<tag k="ssr:stedsnr" v="981697" />
	</node>
	<node lat="62.49444383576595" lon="11.233169443715173" id="-38233">
		<tag k="name" v="Verjåbakken" />
		<tag k="place" v="quarter" />
		<tag k="ssr:stedsnr" v="981698" />
	</node>
	<node lat="62.227358332316996" lon="11.7868138843953" id="-38239">
		<tag k="name" v="Eggset" />
		<tag k="place" v="farm" />
		<tag k="ssr:stedsnr" v="11302" />
	</node>
	<node lat="62.609738645286775" lon="11.136104591459993" id="-38243">
		<tag k="name" v="Johaugsvollen" />
		<tag k="place" v="locality" />
		<tag k="ssr:stedsnr" v="11170" />
	</node>
	<node lat="62.47029622454008" lon="11.387401418947128" id="-38247">
		<tag k="fixme" v="consider place=hamlet" />
		<tag k="name" v="Bredalslia" />
		<tag k="place" v="farm" />
		<tag k="ssr:stedsnr" v="11354" />
	</node>
	<node lat="62.46705000370509" lon="11.320513892502566" id="-38248">
		<tag k="alt_name" v="Myrvollan" />
		<tag k="historic" v="shieling" />
		<tag k="name" v="Myrvollen" />
		<tag k="place" v="isolated_dwelling" />
		<tag k="ssr:stedsnr" v="11358" />
	</node>
	<node lat="62.47081666610466" lon="11.276436113409304" id="-38249">
		<tag k="historic" v="shieling" />
		<tag k="name" v="Litlevollen" />
		<tag k="place" v="isolated_dwelling" />
		<tag k="ssr:stedsnr" v="11359" />
	</node>
	<node lat="62.24019999834491" lon="11.655366662489497" id="-38251">
		<tag k="name" v="Saubua" />
		<tag k="place" v="isolated_dwelling" />
		<tag k="ssr:stedsnr" v="11457" />
	</node>
	<node lat="62.35123333461387" lon="11.464438887438602" id="-38253">
		<tag k="name" v="Trøan" />
		<tag k="place" v="farm" />
		<tag k="ssr:stedsnr" v="11461" />
	</node>
	<node lat="62.347463885747565" lon="11.476341668478677" id="-38254">
		<tag k="name" v="Engåhaug" />
		<tag k="place" v="farm" />
		<tag k="ssr:stedsnr" v="11463" />
	</node>
	<node lat="62.52652271240315" lon="11.133363582598793" id="-38256">
		<tag k="alt_name" v="Østgarden" />
		<tag k="fixme" v="consider place=hamlet" />
		<tag k="name" v="Austgarden" />
		<tag k="old_name" v="Austgardan" />
		<tag k="place" v="farm" />
		<tag k="ssr:stedsnr" v="11756" />
	</node>
	<node lat="62.399458330502334" lon="11.451213891795915" id="-38261">
		<tag k="alt_name" v="Nygardsvollan" />
		<tag k="historic" v="shieling" />
		<tag k="name" v="Nygardsvollen" />
		<tag k="place" v="isolated_dwelling" />
		<tag k="ssr:stedsnr" v="12373" />
	</node>
	<node lat="62.3956749982491" lon="11.437288879674938" id="-38263">
		<tag k="historic" v="shieling" />
		<tag k="name" v="Nylendvollen" />
		<tag k="place" v="isolated_dwelling" />
		<tag k="ssr:stedsnr" v="12405" />
	</node>
	<node lat="62.51168333523819" lon="11.275127775511065" id="-38265">
		<tag k="name" v="Sjøli" />
		<tag k="place" v="farm" />
		<tag k="ssr:stedsnr" v="20547" />
	</node>
	<node lat="62.52638055290566" lon="11.065441673009452" id="-38269">
		<tag k="name" v="Enget-Ryen" />
		<tag k="place" v="farm" />
		<tag k="ssr:stedsnr" v="54592" />
	</node>
	<node lat="62.50211944086857" lon="11.20743889396581" id="-38274">
		<tag k="name" v="Stenset" />
		<tag k="place" v="farm" />
		<tag k="ssr:stedsnr" v="54153" />
	</node>
	<node lat="62.500411108039756" lon="11.200599993983749" id="-38275">
		<tag k="name" v="Oshaugen" />
		<tag k="place" v="farm" />
		<tag k="ssr:stedsnr" v="54155" />
	</node>
	<node lat="62.529422226506505" lon="10.987261105239591" id="-38284">
		<tag k="historic" v="shieling" />
		<tag k="name" v="Nystuvollen" />
		<tag k="place" v="isolated_dwelling" />
		<tag k="ssr:stedsnr" v="54636" />
	</node>
	<node lat="62.481402781538876" lon="11.122419453873619" id="-38295">
		<tag k="historic" v="shieling" />
		<tag k="name" v="Letestrandvollen" />
		<tag k="place" v="isolated_dwelling" />
		<tag k="ssr:stedsnr" v="55149" />
	</node>
	<node lat="62.18141388917532" lon="11.815594450832956" id="-38298">
		<tag k="name" v="Gammelnybua" />
		<tag k="place" v="isolated_dwelling" />
		<tag k="ssr:stedsnr" v="55097" />
	</node>
	<node lat="62.54260833262724" lon="11.104663885386957" id="-38299">
		<tag k="name" v="Håkensgjelta" />
		<tag k="place" v="farm" />
		<tag k="ssr:stedsnr" v="55202" />
	</node>
	<node lat="62.28644166519669" lon="11.735222224560397" id="-38301">
		<tag k="building" v="commercial" />
		<tag k="name" v="Østmo" />
		<tag k="ssr:stedsnr" v="55239" />
	</node>
	<node lat="62.200497226282614" lon="11.784877777782192" id="-38320">
		<tag k="name" v="Nyvollen" />
		<tag k="place" v="isolated_dwelling" />
		<tag k="ssr:stedsnr" v="71373" />
	</node>
	<node lat="62.24179999693686" lon="11.76808333692708" id="-38321">
		<tag k="name" v="Sørli" />
		<tag k="place" v="farm" />
		<tag k="ssr:stedsnr" v="71362" />
	</node>
	<node lat="62.463597220119986" lon="11.127122214073626" id="-38326">
		<tag k="name" v="Åsberget" />
		<tag k="place" v="farm" />
		<tag k="ssr:stedsnr" v="72065" />
	</node>
	<node lat="62.58130000328306" lon="11.16850000267163" id="-38329">
		<tag k="historic" v="shieling" />
		<tag k="name" v="Nystuvollen" />
		<tag k="place" v="isolated_dwelling" />
		<tag k="ssr:stedsnr" v="72137" />
	</node>
	<node lat="62.57675555440554" lon="10.970561109090628" id="-38330">
		<tag k="historic" v="shieling" />
		<tag k="name" v="Dalengvollen" />
		<tag k="place" v="isolated_dwelling" />
		<tag k="ssr:stedsnr" v="72145" />
	</node>
	<node lat="62.590027776370285" lon="11.077794440929058" id="-38331">
		<tag k="historic" v="shieling" />
		<tag k="name" v="Urda" />
		<tag k="place" v="isolated_dwelling" />
		<tag k="ssr:stedsnr" v="72158" />
	</node>
	<node lat="62.42589721827308" lon="11.168727781177536" id="-38332">
		<tag k="alt_name" v="Brennvollane" />
		<tag k="name" v="Brennvollan" />
		<tag k="place" v="hamlet" />
		<tag k="ssr:stedsnr" v="72112" />
	</node>
	<node lat="62.625438890744995" lon="11.107702771983964" id="-38334">
		<tag k="historic" v="shieling" />
		<tag k="name" v="Nygjeltvollen" />
		<tag k="place" v="isolated_dwelling" />
		<tag k="ssr:stedsnr" v="72195" />
	</node>
	<node lat="62.630405559743956" lon="10.839402781097919" id="-38335">
		<tag k="name" v="Såttåhaugen" />
		<tag k="place" v="hamlet" />
		<tag k="ssr:stedsnr" v="72197" />
	</node>
	<node lat="62.42638743612024" lon="11.440128434930543" id="-38341">
		<tag k="name" v="Floenget" />
		<tag k="place" v="farm" />
		<tag k="ssr:stedsnr" v="72378" />
	</node>
	<node lat="62.332202777344406" lon="11.639836116621877" id="-38343">
		<tag k="name" v="Siksjølia" />
		<tag k="place" v="farm" />
		<tag k="ssr:stedsnr" v="72417" />
	</node>
	<node lat="62.50032777966702" lon="11.247925001666149" id="-38347">
		<tag k="fixme" v="multiple name tags, choose one and add the other to alt_name" />
		<tag k="name" v="Sundet;Nordre Høisen" />
		<tag k="place" v="farm" />
		<tag k="ssr:stedsnr" v="72504" />
	</node>
	<node lat="62.50847500154279" lon="11.272175005724591" id="-38348">
		<tag k="name" v="Koietrøa" />
		<tag k="place" v="farm" />
		<tag k="ssr:stedsnr" v="72505" />
	</node>
	<node lat="62.2763833297965" lon="11.727469436596513" id="-38350">
		<tag k="name" v="Nygjelta" />
		<tag k="place" v="farm" />
		<tag k="ssr:stedsnr" v="72554" />
	</node>
	<node lat="62.28603610811341" lon="11.732858332112063" id="-38351">
		<tag k="name" v="Fredheim" />
		<tag k="place" v="farm" />
		<tag k="ssr:stedsnr" v="72561" />
	</node>
	<node lat="62.50313888942116" lon="11.038019438018862" id="-38352">
		<tag k="name" v="Rønningsvollen" />
		<tag k="place" v="isolated_dwelling" />
		<tag k="ssr:stedsnr" v="72758" />
	</node>
	<node lat="62.54172499644918" lon="11.214463887011231" id="-38354">
		<tag k="historic" v="shieling" />
		<tag k="name" v="Klettvollen" />
		<tag k="place" v="isolated_dwelling" />
		<tag k="ssr:stedsnr" v="72833" />
	</node>
	<node lat="62.53088610965071" lon="11.076038890270718" id="-38355">
		<tag k="alt_name" v="Nyhaug søndre" />
		<tag k="name" v="Nyhaug" />
		<tag k="place" v="farm" />
		<tag k="ssr:stedsnr" v="72840" />
	</node>
	<node lat="62.52638333638268" lon="11.055024992457383" id="-38356">
		<tag k="alt_name" v="Trøen" />
		<tag k="name" v="Trøa" />
		<tag k="place" v="farm" />
		<tag k="ssr:stedsnr" v="72853" />
	</node>
	<node lat="62.384919448222654" lon="11.463336110261125" id="-38357">
		<tag k="historic" v="shieling" />
		<tag k="name" v="Sønnvisvollen" />
		<tag k="place" v="isolated_dwelling" />
		<tag k="ssr:stedsnr" v="73450" />
	</node>
	<node lat="62.48131666367661" lon="11.033430563799094" id="-38359">
		<tag k="name" v="Tomasvollen" />
		<tag k="old_name" v="Thomasvollen" />
		<tag k="place" v="farm" />
		<tag k="ssr:stedsnr" v="87315" />
	</node>
	<node lat="62.33779722487481" lon="11.58743334108432" id="-38366">
		<tag k="name" v="Kvilvangnøstran" />
		<tag k="place" v="locality" />
		<tag k="ssr:stedsnr" v="115328" />
	</node>
	<node lat="62.31587500278487" lon="11.639452777077198" id="-38367">
		<tag k="name" v="Gammelvollen" />
		<tag k="place" v="isolated_dwelling" />
		<tag k="ssr:stedsnr" v="115334" />
	</node>
	<node lat="62.307941669543816" lon="11.587925009089028" id="-38370">
		<tag k="historic" v="shieling" />
		<tag k="name" v="Nørdalsvollen" />
		<tag k="place" v="isolated_dwelling" />
		<tag k="ssr:stedsnr" v="115357" />
	</node>
	<node lat="62.23274721852747" lon="11.71343610761152" id="-38380">
		<tag k="alt_name" v="Finnkoja" />
		<tag k="name" v="Finnkoia" />
		<tag k="place" v="isolated_dwelling" />
		<tag k="ssr:stedsnr" v="115148" />
	</node>
	<node lat="62.42578610724707" lon="11.168302775928433" id="-38399">
		<tag k="historic" v="shieling" />
		<tag k="name" v="Åkervollen" />
		<tag k="place" v="isolated_dwelling" />
		<tag k="ssr:stedsnr" v="115506" />
	</node>
	<node lat="62.35868888641403" lon="11.471383325636896" id="-38404">
		<tag k="historic" v="shieling" />
		<tag k="name" v="Tølløvstrøan" />
		<tag k="place" v="isolated_dwelling" />
		<tag k="ssr:stedsnr" v="115947" />
	</node>
	<node lat="62.52841110846215" lon="11.239933329303076" id="-38409">
		<tag k="historic" v="shieling" />
		<tag k="name" v="Sjåheimvollen" />
		<tag k="place" v="isolated_dwelling" />
		<tag k="ssr:stedsnr" v="133570" />
	</node>
	<node lat="62.4802312833722" lon="11.17155432665557" id="-38411">
		<tag k="alt_name" v="Strand;Osstrand" />
		<tag k="fixme" v="consider place=hamlet" />
		<tag k="name" v="Stranda" />
		<tag k="place" v="farm" />
		<tag k="ssr:stedsnr" v="132053" />
	</node>
	<node lat="62.58033055447168" lon="11.09545277430935" id="-38412">
		<tag k="historic" v="shieling" />
		<tag k="name" v="Utstumovollen" />
		<tag k="place" v="isolated_dwelling" />
		<tag k="ssr:stedsnr" v="132127" />
	</node>
	<node lat="62.58254167060391" lon="11.168725008746092" id="-38413">
		<tag k="historic" v="shieling" />
		<tag k="name" v="Kvernbekkvollen" />
		<tag k="place" v="isolated_dwelling" />
		<tag k="ssr:stedsnr" v="132140" />
	</node>
	<node lat="62.59023333195378" lon="10.941480560292744" id="-38414">
		<tag k="alt_name" v="Litjstuvollen" />
		<tag k="historic" v="shieling" />
		<tag k="name" v="Listuvollen" />
		<tag k="place" v="isolated_dwelling" />
		<tag k="ssr:stedsnr" v="132151" />
	</node>
	<node lat="62.48118611116643" lon="11.340708334811051" id="-38416">
		<tag k="historic" v="shieling" />
		<tag k="name" v="Hansvollen" />
		<tag k="place" v="isolated_dwelling" />
		<tag k="ssr:stedsnr" v="132288" />
	</node>
	<node lat="62.46093333224139" lon="11.425491664566808" id="-38418">
		<tag k="historic" v="shieling" />
		<tag k="name" v="Rønningsvollen" />
		<tag k="place" v="isolated_dwelling" />
		<tag k="ssr:stedsnr" v="132327" />
	</node>
	<node lat="62.50119444267687" lon="11.173711116347743" id="-38419">
		<tag k="alt_name" v="Osmoen, nedre" />
		<tag k="name" v="Osmoen" />
		<tag k="place" v="farm" />
		<tag k="ssr:stedsnr" v="132345" />
	</node>
	<node lat="62.30706388903295" lon="11.701327783825223" id="-38421">
		<tag k="name" v="Slettmyra" />
		<tag k="place" v="farm" />
		<tag k="ssr:stedsnr" v="132472" />
	</node>
	<node lat="62.29971666290189" lon="11.742480564575553" id="-38423">
		<tag k="name" v="Åsly" />
		<tag k="place" v="farm" />
		<tag k="ssr:stedsnr" v="132598" />
	</node>
	<node lat="62.5451805592917" lon="11.105805556762059" id="-38424">
		<tag k="name" v="Rygjelta" />
		<tag k="place" v="farm" />
		<tag k="ssr:stedsnr" v="132839" />
	</node>
	<node lat="62.53325833530587" lon="11.11513055637881" id="-38426">
		<tag k="alt_name" v="Trøen" />
		<tag k="name" v="Trøa" />
		<tag k="place" v="farm" />
		<tag k="ssr:stedsnr" v="132852" />
	</node>
	<node lat="62.51142221787249" lon="11.167758340600894" id="-38427">
		<tag k="name" v="Nyhus" />
		<tag k="place" v="farm" />
		<tag k="ssr:stedsnr" v="132763" />
	</node>
	<node lat="62.44188333096478" lon="11.130005564192096" id="-38428">
		<tag k="name" v="Djupdalen" />
		<tag k="place" v="farm" />
		<tag k="ssr:stedsnr" v="133082" />
	</node>
	<node lat="62.496488889264654" lon="11.223308341539438" id="-38429">
		<tag k="name" v="Os" />
		<tag k="place" v="village" />
		<tag k="ssr:stedsnr" v="133286" />
	</node>
	<node lat="62.46472777968706" lon="11.074719436126832" id="-38436">
		<tag k="alt_name" v="Hørtdalsætrane" />
		<tag k="name" v="Hørtdalen" />
		<tag k="place" v="hamlet" />
		<tag k="ssr:stedsnr" v="145064" />
	</node>
	<node lat="62.56640832914383" lon="11.205199994944028" id="-38441">
		<tag k="historic" v="shieling" />
		<tag k="name" v="Mosengvollen" />
		<tag k="place" v="isolated_dwelling" />
		<tag k="ssr:stedsnr" v="175053" />
	</node>
	<node lat="62.303930556585044" lon="11.72651943792517" id="-38446">
		<tag k="name" v="Søndre Moen" />
		<tag k="place" v="farm" />
		<tag k="ssr:stedsnr" v="175237" />
	</node>
	<node lat="62.52070277788341" lon="10.971513890240866" id="-38452">
		<tag k="historic" v="shieling" />
		<tag k="name" v="Bortistuvollen" />
		<tag k="place" v="isolated_dwelling" />
		<tag k="ssr:stedsnr" v="175656" />
	</node>
	<node lat="62.480936113731644" lon="11.037519440193684" id="-38457">
		<tag k="historic" v="shieling" />
		<tag k="name" v="Floorvollen" />
		<tag k="place" v="isolated_dwelling" />
		<tag k="ssr:stedsnr" v="176012" />
	</node>
	<node lat="62.49932778174405" lon="11.093711107753496" id="-38463">
		<tag k="historic" v="shieling" />
		<tag k="name" v="Nirsvollen" />
		<tag k="place" v="isolated_dwelling" />
		<tag k="ssr:stedsnr" v="176182" />
	</node>
	<node lat="62.56581110699927" lon="11.048802772109049" id="-38464">
		<tag k="historic" v="shieling" />
		<tag k="name" v="Klokkarvollen" />
		<tag k="place" v="isolated_dwelling" />
		<tag k="ssr:stedsnr" v="176494" />
	</node>
	<node lat="62.581363885593056" lon="10.951377782861814" id="-38468">
		<tag k="historic" v="shieling" />
		<tag k="name" v="Lillehaugvollen" />
		<tag k="place" v="isolated_dwelling" />
		<tag k="ssr:stedsnr" v="176294" />
	</node>
	<node lat="62.476636115088496" lon="11.120766662313796" id="-38469">
		<tag k="historic" v="shieling" />
		<tag k="name" v="Osmovollen" />
		<tag k="place" v="isolated_dwelling" />
		<tag k="ssr:stedsnr" v="176336" />
	</node>
	<node lat="62.462536115537944" lon="11.155266665735242" id="-38471">
		<tag k="historic" v="shieling" />
		<tag k="name" v="Engavollen" />
		<tag k="place" v="isolated_dwelling" />
		<tag k="ssr:stedsnr" v="176342" />
	</node>
	<node lat="62.49419062438768" lon="11.261051781429376" id="-38477">
		<tag k="alt_name" v="Mestvedhagen" />
		<tag k="fixme" v="consider place=hamlet" />
		<tag k="name" v="Mestvedthagen" />
		<tag k="place" v="farm" />
		<tag k="ssr:stedsnr" v="176531" />
	</node>
	<node lat="62.52100555976972" lon="11.220969449581567" id="-38481">
		<tag k="name" v="Løvli" />
		<tag k="place" v="isolated_dwelling" />
		<tag k="ssr:stedsnr" v="176739" />
	</node>
	<node lat="62.35843611530735" lon="11.468075004192539" id="-38489">
		<tag k="name" v="Narbuvoll fjellstue" />
		<tag k="ssr:stedsnr" v="176936" />
		<tag k="tourism" v="hotel" />
	</node>
	<node lat="62.5172027754863" lon="11.018255556108905" id="-38492">
		<tag k="alt_name" v="Nedre Grue" />
		<tag k="name" v="Nedre Gruva" />
		<tag k="place" v="farm" />
		<tag k="ssr:stedsnr" v="180045" />
	</node>
	<node lat="62.49500051550408" lon="11.208361658290007" id="-38493">
		<tag k="fixme" v="consider place=hamlet" />
		<tag k="name" v="Bakos" />
		<tag k="place" v="farm" />
		<tag k="ssr:stedsnr" v="193050" />
	</node>
	<node lat="62.492094445863074" lon="11.188852776360932" id="-38494">
		<tag k="name" v="Enget" />
		<tag k="place" v="farm" />
		<tag k="ssr:stedsnr" v="193051" />
	</node>
	<node lat="62.58383888665662" lon="11.165550008802393" id="-38497">
		<tag k="historic" v="shieling" />
		<tag k="name" v="Nirsvollen" />
		<tag k="place" v="isolated_dwelling" />
		<tag k="ssr:stedsnr" v="193143" />
	</node>
	<node lat="62.60310833156784" lon="11.124377770765278" id="-38499">
		<tag k="fixme" v="multiple name tags, choose one and add the other to alt_name" />
		<tag k="historic" v="shieling" />
		<tag k="name" v="Litlstuvollen;Nyhaugvollen" />
		<tag k="place" v="isolated_dwelling" />
		<tag k="ssr:stedsnr" v="193166" />
	</node>
	<node lat="62.61878333447958" lon="11.130411105639746" id="-38500">
		<tag k="name" v="Utstuvollen" />
		<tag k="place" v="isolated_dwelling" />
		<tag k="ssr:stedsnr" v="193189" />
	</node>
	<node lat="62.24657222589704" lon="11.761747217199142" id="-38502">
		<tag k="alt_name" v="Søndre Sæter" />
		<tag k="name" v="Sæter" />
		<tag k="place" v="farm" />
		<tag k="ssr:stedsnr" v="193327" />
	</node>
	<node lat="62.56421944375096" lon="11.177883324646405" id="-38507">
		<tag k="historic" v="shieling" />
		<tag k="name" v="Grubbvollen" />
		<tag k="place" v="isolated_dwelling" />
		<tag k="ssr:stedsnr" v="194135" />
	</node>
	<node lat="62.470144446863856" lon="11.367222221195448" id="-38509">
		<tag k="historic" v="shieling" />
		<tag k="name" v="Røstvollan" />
		<tag k="place" v="isolated_dwelling" />
		<tag k="ssr:stedsnr" v="193380" />
	</node>
	<node lat="62.47508889168729" lon="11.332025001302988" id="-38510">
		<tag k="historic" v="shieling" />
		<tag k="name" v="Høsvollen" />
		<tag k="place" v="isolated_dwelling" />
		<tag k="ssr:stedsnr" v="193392" />
	</node>
	<node lat="62.47306111037477" lon="11.323288882847722" id="-38511">
		<tag k="historic" v="shieling" />
		<tag k="name" v="Fåsetvollen" />
		<tag k="place" v="isolated_dwelling" />
		<tag k="ssr:stedsnr" v="193396" />
	</node>
	<node lat="62.426038885499864" lon="11.350305551400982" id="-38512">
		<tag k="name" v="Jomortenbua" />
		<tag k="place" v="isolated_dwelling" />
		<tag k="ssr:stedsnr" v="193435" />
	</node>
	<node lat="62.30341944411423" lon="11.705236112991157" id="-38514">
		<tag k="name" v="Heggly" />
		<tag k="place" v="farm" />
		<tag k="ssr:stedsnr" v="193500" />
	</node>
	<node lat="62.520861110426594" lon="11.111125000751281" id="-38518">
		<tag k="alt_name" v="Rygardene" />
		<tag k="name" v="Rya" />
		<tag k="place" v="farm" />
		<tag k="ssr:stedsnr" v="193733" />
	</node>
	<node lat="62.55036667096085" lon="11.099380563702775" id="-38521">
		<tag k="name" v="Nordset" />
		<tag k="place" v="farm" />
		<tag k="ssr:stedsnr" v="193844" />
	</node>
	<node lat="62.53901666266412" lon="11.11602500803504" id="-38523">
		<tag k="name" v="Meli" />
		<tag k="place" v="farm" />
		<tag k="ssr:stedsnr" v="193853" />
	</node>
	<node lat="62.52776748859548" lon="11.060807107827706" id="-38525">
		<tag k="alt_name" v="Nystuen" />
		<tag k="fixme" v="consider place=hamlet" />
		<tag k="name" v="Berg" />
		<tag k="place" v="farm" />
		<tag k="ssr:stedsnr" v="193870" />
	</node>
	<node lat="62.57471388938635" lon="10.91909443961229" id="-38526">
		<tag k="alt_name" v="Åsvollen" />
		<tag k="historic" v="shieling" />
		<tag k="name" v="Ytre Åsvollen" />
		<tag k="place" v="isolated_dwelling" />
		<tag k="ssr:stedsnr" v="194141" />
	</node>
	<node lat="62.57486944414557" lon="10.971138890966577" id="-38527">
		<tag k="historic" v="shieling" />
		<tag k="name" v="Rygjeltvollen" />
		<tag k="place" v="isolated_dwelling" />
		<tag k="ssr:stedsnr" v="194142" />
	</node>
	<node lat="62.57327777468155" lon="10.972608336417522" id="-38528">
		<tag k="historic" v="shieling" />
		<tag k="name" v="Ryvollen" />
		<tag k="place" v="isolated_dwelling" />
		<tag k="ssr:stedsnr" v="194144" />
	</node>
	<node lat="62.573394440470246" lon="11.104847222220515" id="-38529">
		<tag k="name" v="Nordli" />
		<tag k="place" v="farm" />
		<tag k="ssr:stedsnr" v="194148" />
	</node>
	<node lat="62.58031388907942" lon="10.956213895820412" id="-38530">
		<tag k="historic" v="shieling" />
		<tag k="name" v="Rønningsvollen" />
		<tag k="place" v="isolated_dwelling" />
		<tag k="ssr:stedsnr" v="194154" />
	</node>
	<node lat="62.648763889914115" lon="11.105825001871459" id="-38534">
		<tag k="name" v="Bakkabua" />
		<tag k="place" v="isolated_dwelling" />
		<tag k="ssr:stedsnr" v="194200" />
	</node>
	<node lat="62.49045833257091" lon="11.265675009540674" id="-38536">
		<tag k="name" v="Nymoen" />
		<tag k="place" v="farm" />
		<tag k="ssr:stedsnr" v="194296" />
	</node>
	<node lat="62.504797225835006" lon="11.253575006420816" id="-38538">
		<tag k="alt_name" v="Eidet" />
		<tag k="name" v="Røsteidet" />
		<tag k="place" v="farm" />
		<tag k="ssr:stedsnr" v="194464" />
	</node>
	<node lat="62.26648611119983" lon="11.748183339281013" id="-38539">
		<tag k="name" v="Øybakken" />
		<tag k="place" v="farm" />
		<tag k="ssr:stedsnr" v="194621" />
	</node>
	<node lat="62.270425000486505" lon="11.798194441536852" id="-38540">
		<tag k="name" v="Bjørkvollen" />
		<tag k="place" v="isolated_dwelling" />
		<tag k="ssr:stedsnr" v="194626" />
	</node>
	<node lat="62.56315555292832" lon="11.04477499017469" id="-38541">
		<tag k="historic" v="shieling" />
		<tag k="name" v="Austgjeltvollen" />
		<tag k="place" v="isolated_dwelling" />
		<tag k="ssr:stedsnr" v="194810" />
	</node>
	<node lat="62.601355555793674" lon="11.103280554834347" id="-38547">
		<tag k="historic" v="shieling" />
		<tag k="name" v="Fremstuvollen" />
		<tag k="place" v="isolated_dwelling" />
		<tag k="ssr:stedsnr" v="277684" />
	</node>
	<node lat="62.49258364155726" lon="11.18989654983579" id="-38548">
		<tag k="fixme" v="consider place=hamlet" />
		<tag k="name" v="Lilleøya" />
		<tag k="place" v="farm" />
		<tag k="ssr:stedsnr" v="283900" />
	</node>
	<node lat="62.29703610871556" lon="11.75280833342711" id="-38549">
		<tag k="name" v="Klemeti" />
		<tag k="place" v="locality" />
		<tag k="ssr:stedsnr" v="297243" />
	</node>
	<node lat="62.522033333083385" lon="11.116075007481692" id="-38555">
		<tag k="name" v="Nyegga" />
		<tag k="place" v="farm" />
		<tag k="ssr:stedsnr" v="292160" />
	</node>
	<node lat="62.49857880455431" lon="11.245375720462354" id="-38586">
		<tag k="fixme" v="consider place=hamlet" />
		<tag k="name" v="Estensbekken" />
		<tag k="place" v="farm" />
		<tag k="ssr:stedsnr" v="297554" />
	</node>
	<node lat="62.52795555856869" lon="11.052716666512783" id="-38588">
		<tag k="name" v="Storkåstrøa" />
		<tag k="place" v="locality" />
		<tag k="ssr:stedsnr" v="297579" />
	</node>
	<node lat="62.5282944477401" lon="11.042544447474894" id="-38590">
		<tag k="historic" v="shieling" />
		<tag k="name" v="Engevollen" />
		<tag k="place" v="isolated_dwelling" />
		<tag k="ssr:stedsnr" v="297590" />
	</node>
	<node lat="62.50269999933007" lon="11.235722218667545" id="-38596">
		<tag k="name" v="Eidemyra" />
		<tag k="place" v="farm" />
		<tag k="ssr:stedsnr" v="297717" />
	</node>
	<node lat="62.60650555593121" lon="11.106286107333496" id="-38601">
		<tag k="name" v="Smedåsgjeltvollen" />
		<tag k="place" v="isolated_dwelling" />
		<tag k="ssr:stedsnr" v="297932" />
	</node>
	<node lat="62.49024166464236" lon="10.984769442805012" id="-38606">
		<tag k="name" v="Sagbakkvollen" />
		<tag k="place" v="isolated_dwelling" />
		<tag k="ssr:stedsnr" v="314040" />
	</node>
	<node lat="62.48165555861283" lon="11.322288893624753" id="-38607">
		<tag k="alt_name" v="Volltjørnvollen" />
		<tag k="historic" v="shieling" />
		<tag k="name" v="Volltjønnvollen" />
		<tag k="place" v="isolated_dwelling" />
		<tag k="ssr:stedsnr" v="314345" />
	</node>
	<node lat="62.22819721831894" lon="11.792133328988047" id="-38608">
		<tag k="name" v="Lundbekk" />
		<tag k="place" v="farm" />
		<tag k="ssr:stedsnr" v="314349" />
	</node>
	<node lat="62.511988405327116" lon="11.127097701059183" id="-38612">
		<tag k="alt_name" v="Henningsmo" />
		<tag k="fixme" v="consider place=hamlet" />
		<tag k="name" v="Henningsmoen" />
		<tag k="place" v="farm" />
		<tag k="ssr:stedsnr" v="314760" />
	</node>
	<node lat="62.506472221751906" lon="11.122133338428512" id="-38614">
		<tag k="alt_name" v="Gamlevollen" />
		<tag k="historic" v="shieling" />
		<tag k="name" v="Gammelvollen" />
		<tag k="place" v="isolated_dwelling" />
		<tag k="ssr:stedsnr" v="314775" />
	</node>
	<node lat="62.522063892011424" lon="11.133488886265486" id="-38615">
		<tag k="alt_name" v="Østgårdsgjelta" />
		<tag k="name" v="Gjelta" />
		<tag k="place" v="farm" />
		<tag k="ssr:stedsnr" v="314747" />
	</node>
	<node lat="62.46521944050864" lon="11.162852779053976" id="-38616">
		<tag k="alt_name" v="Skrevollane" />
		<tag k="historic" v="shieling" />
		<tag k="name" v="Skredvollan" />
		<tag k="place" v="isolated_dwelling" />
		<tag k="ssr:stedsnr" v="315042" />
	</node>
	<node lat="62.565575521961364" lon="11.203999033351726" id="-38617">
		<tag k="name" v="Spellmovollen" />
		<tag k="place" v="locality" />
		<tag k="ssr:stedsnr" v="315124" />
	</node>
	<node lat="62.575913887181606" lon="11.115502786414597" id="-38618">
		<tag k="alt_name" v="Lillehaugvollen" />
		<tag k="historic" v="shieling" />
		<tag k="name" v="Litlehaugvollen" />
		<tag k="place" v="isolated_dwelling" />
		<tag k="ssr:stedsnr" v="315142" />
	</node>
	<node lat="62.30536388748174" lon="11.69425278139968" id="-38622">
		<tag k="name" v="Siksjøplassen" />
		<tag k="place" v="farm" />
		<tag k="ssr:stedsnr" v="315471" />
	</node>
	<node lat="62.59088888823242" lon="10.94148332845822" id="-38624">
		<tag k="alt_name" v="Bakkavollen" />
		<tag k="historic" v="shieling" />
		<tag k="name" v="Bakkvollen" />
		<tag k="place" v="isolated_dwelling" />
		<tag k="ssr:stedsnr" v="315150" />
	</node>
	<node lat="62.52429722536475" lon="11.223394443552726" id="-38627">
		<tag k="name" v="Vangli" />
		<tag k="place" v="farm" />
		<tag k="ssr:stedsnr" v="315576" />
	</node>
	<node lat="62.51093888934803" lon="11.136749998543396" id="-38629">
		<tag k="name" v="Fossnes" />
		<tag k="place" v="farm" />
		<tag k="ssr:stedsnr" v="315768" />
	</node>
	<node lat="62.52733055910292" lon="11.07472221582763" id="-38630">
		<tag k="alt_name" v="Søndre Lillehaug" />
		<tag k="name" v="Litlehaugen" />
		<tag k="place" v="farm" />
		<tag k="ssr:stedsnr" v="315872" />
	</node>
	<node lat="62.57488055735446" lon="11.097813891571212" id="-38631">
		<tag k="historic" v="shieling" />
		<tag k="name" v="Langryåsen" />
		<tag k="place" v="isolated_dwelling" />
		<tag k="ssr:stedsnr" v="323314" />
	</node>
	<node lat="62.334563885569324" lon="11.4827999933104" id="-38632">
		<tag k="name" v="Engådalsbua" />
		<tag k="place" v="isolated_dwelling" />
		<tag k="ssr:stedsnr" v="324416" />
	</node>
	<node lat="62.57028888787289" lon="10.968719440469053" id="-38637">
		<tag k="historic" v="shieling" />
		<tag k="name" v="Mosengvollen" />
		<tag k="place" v="isolated_dwelling" />
		<tag k="ssr:stedsnr" v="358415" />
	</node>
	<node lat="62.542063888267556" lon="11.015080549263445" id="-38646">
		<tag k="historic" v="shieling" />
		<tag k="name" v="Åmovollen" />
		<tag k="place" v="isolated_dwelling" />
		<tag k="ssr:stedsnr" v="357591" />
	</node>
	<node lat="62.50283333257397" lon="11.165922214014445" id="-38654">
		<tag k="name" v="Spellmoen" />
		<tag k="place" v="farm" />
		<tag k="ssr:stedsnr" v="358166" />
	</node>
	<node lat="62.59039722371434" lon="10.910266671520946" id="-38657">
		<tag k="historic" v="shieling" />
		<tag k="name" v="Dalvollan" />
		<tag k="place" v="isolated_dwelling" />
		<tag k="ssr:stedsnr" v="358296" />
	</node>
	<node lat="62.48282222656992" lon="11.053905546285586" id="-38665">
		<tag k="historic" v="shieling" />
		<tag k="name" v="Olasvollen" />
		<tag k="place" v="isolated_dwelling" />
		<tag k="ssr:stedsnr" v="358709" />
	</node>
	<node lat="62.50503333146812" lon="11.226447228060563" id="-38669">
		<tag k="name" v="Solstad" />
		<tag k="place" v="farm" />
		<tag k="ssr:stedsnr" v="358741" />
	</node>
	<node lat="62.56549444152578" lon="11.045599996479176" id="-38677">
		<tag k="historic" v="shieling" />
		<tag k="name" v="Eggvollen" />
		<tag k="place" v="isolated_dwelling" />
		<tag k="ssr:stedsnr" v="375100" />
	</node>
	<node lat="62.579116665338596" lon="11.099491676137763" id="-38678">
		<tag k="historic" v="shieling" />
		<tag k="name" v="Flatvollen" />
		<tag k="place" v="isolated_dwelling" />
		<tag k="ssr:stedsnr" v="375121" />
	</node>
	<node lat="62.61095000196333" lon="11.136511117391949" id="-38679">
		<tag k="historic" v="shieling" />
		<tag k="name" v="Nyeggvollen" />
		<tag k="place" v="isolated_dwelling" />
		<tag k="ssr:stedsnr" v="375148" />
	</node>
	<node lat="62.46918888763023" lon="11.332066662376645" id="-38684">
		<tag k="alt_name" v="Nymovollan" />
		<tag k="historic" v="shieling" />
		<tag k="name" v="Nymosætra" />
		<tag k="place" v="isolated_dwelling" />
		<tag k="ssr:stedsnr" v="375328" />
	</node>
	<node lat="62.51867778056157" lon="11.292013895725264" id="-38692">
		<tag k="alt_name" v="Gjelten" />
		<tag k="name" v="Gjelta" />
		<tag k="place" v="farm" />
		<tag k="ssr:stedsnr" v="375472" />
	</node>
	<node lat="62.30069999826704" lon="11.722902776313793" id="-38693">
		<tag k="name" v="Hodøl" />
		<tag k="place" v="farm" />
		<tag k="ssr:stedsnr" v="375546" />
	</node>
	<node lat="62.50714166318972" lon="11.136311119959021" id="-38695">
		<tag k="name" v="Kroken" />
		<tag k="place" v="farm" />
		<tag k="ssr:stedsnr" v="375756" />
	</node>
	<node lat="62.50257499712007" lon="11.061188890813305" id="-38696">
		<tag k="historic" v="shieling" />
		<tag k="name" v="Stubbengvollen" />
		<tag k="place" v="isolated_dwelling" />
		<tag k="ssr:stedsnr" v="375757" />
	</node>
	<node lat="62.50106944471315" lon="11.210333340097126" id="-38698">
		<tag k="alt_name" v="Haugsrønningen" />
		<tag k="name" v="Rønning" />
		<tag k="place" v="farm" />
		<tag k="ssr:stedsnr" v="375765" />
	</node>
	<node lat="62.53968333185005" lon="11.07070278607882" id="-38700">
		<tag k="name" v="Sandstad" />
		<tag k="place" v="farm" />
		<tag k="ssr:stedsnr" v="375823" />
	</node>
	<node lat="62.54193889272892" lon="11.073333326518405" id="-38701">
		<tag k="name" v="Skogli" />
		<tag k="place" v="farm" />
		<tag k="ssr:stedsnr" v="375824" />
	</node>
	<node lat="62.36508055460869" lon="11.58564445127793" id="-38702">
		<tag k="historic" v="shieling" />
		<tag k="name" v="Hollsætra" />
		<tag k="place" v="isolated_dwelling" />
		<tag k="ssr:stedsnr" v="376419" />
	</node>
	<node lat="62.37856666666486" lon="11.530349996486295" id="-38704">
		<tag k="name" v="Harrbekkbua" />
		<tag k="place" v="isolated_dwelling" />
		<tag k="ssr:stedsnr" v="384421" />
	</node>
	<node lat="62.60169444406074" lon="11.104383340456007" id="-38707">
		<tag k="alt_name" v="Gammelvollen" />
		<tag k="name" v="Gammelsætra" />
		<tag k="place" v="hamlet" />
		<tag k="ssr:stedsnr" v="398173" />
	</node>
	<node lat="62.577861115099" lon="11.180036104664051" id="-38709">
		<tag k="historic" v="shieling" />
		<tag k="name" v="Ytergjeltvollen" />
		<tag k="place" v="isolated_dwelling" />
		<tag k="ssr:stedsnr" v="418073" />
	</node>
	<node lat="62.59875832974443" lon="11.120824997053292" id="-38714">
		<tag k="historic" v="shieling" />
		<tag k="name" v="Unnigård" />
		<tag k="place" v="isolated_dwelling" />
		<tag k="ssr:stedsnr" v="418921" />
	</node>
	<node lat="62.197205555385395" lon="11.82152499161543" id="-38743">
		<tag k="name" v="Mobua" />
		<tag k="place" v="locality" />
		<tag k="ssr:stedsnr" v="419128" />
	</node>
	<node lat="62.52888333564592" lon="11.126066661832882" id="-38744">
		<tag k="name" v="Nordgardsgjelta" />
		<tag k="place" v="farm" />
		<tag k="ssr:stedsnr" v="419220" />
	</node>
	<node lat="62.53822222162359" lon="11.107522227054437" id="-38745">
		<tag k="name" v="Øverhaugen" />
		<tag k="place" v="farm" />
		<tag k="ssr:stedsnr" v="419223" />
	</node>
	<node lat="62.51653333325687" lon="11.290244445221017" id="-38753">
		<tag k="name" v="Skogvoll" />
		<tag k="place" v="farm" />
		<tag k="ssr:stedsnr" v="419367" />
	</node>
	<node lat="62.43632221790253" lon="11.408480561788915" id="-38754">
		<tag k="name" v="Oddentunet" />
		<tag k="place" v="farm" />
		<tag k="ssr:stedsnr" v="419800" />
	</node>
	<node lat="62.30391928181722" lon="11.724561987901263" id="-38763">
		<tag k="fixme" v="consider place=hamlet" />
		<tag k="name" v="Moen" />
		<tag k="place" v="farm" />
		<tag k="ssr:stedsnr" v="436574" />
	</node>
	<node lat="62.47233055670866" lon="11.128386120624729" id="-38765">
		<tag k="alt_name" v="Berjevollen" />
		<tag k="historic" v="shieling" />
		<tag k="name" v="Bergevollen" />
		<tag k="place" v="isolated_dwelling" />
		<tag k="ssr:stedsnr" v="436045" />
	</node>
	<node lat="62.45203055347265" lon="11.384711104108261" id="-38774">
		<tag k="name" v="Øyan" />
		<tag k="place" v="farm" />
		<tag k="ssr:stedsnr" v="436323" />
	</node>
	<node lat="62.4628333364281" lon="11.412961110135594" id="-38775">
		<tag k="historic" v="shieling" />
		<tag k="name" v="Høsøyvollan" />
		<tag k="place" v="isolated_dwelling" />
		<tag k="ssr:stedsnr" v="436332" />
	</node>
	<node lat="62.503938890870714" lon="11.205527773623858" id="-38781">
		<tag k="name" v="Nyrønning" />
		<tag k="place" v="farm" />
		<tag k="ssr:stedsnr" v="436779" />
	</node>
	<node lat="62.54917500412588" lon="11.112174998453542" id="-38782">
		<tag k="name" v="Vangli" />
		<tag k="place" v="farm" />
		<tag k="ssr:stedsnr" v="436829" />
	</node>
	<node lat="62.54565277827569" lon="11.093997229205964" id="-38784">
		<tag k="alt_name" v="Klokkervangen" />
		<tag k="name" v="Klokkarvangen" />
		<tag k="place" v="farm" />
		<tag k="ssr:stedsnr" v="436833" />
	</node>
	<node lat="62.49599573014725" lon="11.258999264424903" id="-38786">
		<tag k="fixme" v="consider place=hamlet" />
		<tag k="name" v="Holm" />
		<tag k="place" v="farm" />
		<tag k="ssr:stedsnr" v="437348" />
	</node>
	<node lat="62.33260608329724" lon="11.5772928358579" id="-38789">
		<tag k="fixme" v="consider place=hamlet" />
		<tag k="name" v="Kvilvangen" />
		<tag k="place" v="farm" />
		<tag k="ssr:stedsnr" v="496494" />
	</node>
	<node lat="62.33618333618669" lon="11.5278694519743" id="-38790">
		<tag k="historic" v="shieling" />
		<tag k="name" v="Klettvollen" />
		<tag k="place" v="isolated_dwelling" />
		<tag k="ssr:stedsnr" v="496496" />
	</node>
	<node lat="62.494880553606954" lon="11.096752771351591" id="-38791">
		<tag k="historic" v="shieling" />
		<tag k="name" v="Elvavollen" />
		<tag k="place" v="isolated_dwelling" />
		<tag k="ssr:stedsnr" v="496011" />
	</node>
	<node lat="62.49491944741957" lon="10.993569437317161" id="-38792">
		<tag k="name" v="Langen" />
		<tag k="place" v="farm" />
		<tag k="ssr:stedsnr" v="496016" />
	</node>
	<node lat="62.578313892264994" lon="10.909961107735533" id="-38796">
		<tag k="historic" v="shieling" />
		<tag k="name" v="Smedåsvollen" />
		<tag k="place" v="isolated_dwelling" />
		<tag k="ssr:stedsnr" v="496155" />
	</node>
	<node lat="62.59411944413323" lon="11.165691656928404" id="-38797">
		<tag k="historic" v="shieling" />
		<tag k="name" v="Haugsvollen" />
		<tag k="place" v="isolated_dwelling" />
		<tag k="ssr:stedsnr" v="496175" />
	</node>
	<node lat="62.6118194408642" lon="10.940238891872026" id="-38798">
		<tag k="alt_name" v="Ryvollan" />
		<tag k="historic" v="shieling" />
		<tag k="name" v="Ryvollen" />
		<tag k="place" v="isolated_dwelling" />
		<tag k="ssr:stedsnr" v="496178" />
	</node>
	<node lat="62.55089167004597" lon="11.08403333377994" id="-38802">
		<tag k="name" v="Berget" />
		<tag k="place" v="farm" />
		<tag k="ssr:stedsnr" v="496826" />
	</node>
	<node lat="62.5426777821233" lon="11.10552221597366" id="-38803">
		<tag k="name" v="Simensgjelta" />
		<tag k="place" v="farm" />
		<tag k="ssr:stedsnr" v="496837" />
	</node>
	<node lat="62.56368333114655" lon="11.235777770981192" id="-38804">
		<tag k="historic" v="shieling" />
		<tag k="name" v="Osvollan" />
		<tag k="place" v="isolated_dwelling" />
		<tag k="ssr:stedsnr" v="496585" />
	</node>
	<node lat="62.50181866332623" lon="11.188771242578575" id="-38805">
		<tag k="alt_name" v="Osgjelten" />
		<tag k="fixme" v="consider place=hamlet" />
		<tag k="name" v="Os" />
		<tag k="place" v="farm" />
		<tag k="ssr:stedsnr" v="496795" />
	</node>
	<node lat="62.57608610959784" lon="11.172127785930744" id="-38808">
		<tag k="historic" v="shieling" />
		<tag k="name" v="Gammelstuvollen" />
		<tag k="place" v="isolated_dwelling" />
		<tag k="ssr:stedsnr" v="497129" />
	</node>
	<node lat="62.565095522898105" lon="11.011565450747407" id="-38811">
		<tag k="name" v="Tjønnvollan" />
		<tag k="place" v="locality" />
		<tag k="ssr:stedsnr" v="497826" />
	</node>
	<node lat="62.38681111404357" lon="11.441086108168859" id="-38814">
		<tag k="alt_name" v="Storlivollen" />
		<tag k="historic" v="shieling" />
		<tag k="name" v="Storlivollan" />
		<tag k="place" v="isolated_dwelling" />
		<tag k="ssr:stedsnr" v="497415" />
	</node>
	<node lat="62.56966666361582" lon="10.920169444755476" id="-38816">
		<tag k="historic" v="shieling" />
		<tag k="name" v="Movollen" />
		<tag k="place" v="isolated_dwelling" />
		<tag k="ssr:stedsnr" v="522329" />
	</node>
	<node lat="62.50025095617486" lon="11.221356124428096" id="-38817">
		<tag k="fixme" v="consider place=hamlet" />
		<tag k="name" v="Langøyen" />
		<tag k="place" v="farm" />
		<tag k="ssr:stedsnr" v="523052" />
	</node>
	<node lat="62.52126657703398" lon="11.125596772551157" id="-38818">
		<tag k="name" v="Rønningen" />
		<tag k="place" v="farm" />
		<tag k="ssr:stedsnr" v="540195" />
	</node>
	<node lat="62.20697222030955" lon="11.792227781477848" id="-38840">
		<tag k="name" v="Sagbrakka" />
		<tag k="place" v="locality" />
		<tag k="ssr:stedsnr" v="540124" />
	</node>
	<node lat="62.47470277676538" lon="11.115291658925036" id="-38849">
		<tag k="historic" v="shieling" />
		<tag k="name" v="Åsvollen" />
		<tag k="place" v="isolated_dwelling" />
		<tag k="ssr:stedsnr" v="540341" />
	</node>
	<node lat="62.57595833519111" lon="11.01134999716243" id="-38854">
		<tag k="historic" v="shieling" />
		<tag k="name" v="Smedåsgjeltvollen" />
		<tag k="place" v="isolated_dwelling" />
		<tag k="ssr:stedsnr" v="540418" />
	</node>
	<node lat="62.46986388650747" lon="11.386086118178323" id="-38857">
		<tag k="name" v="Vestre Bredalslien" />
		<tag k="place" v="farm" />
		<tag k="ssr:stedsnr" v="540724" />
	</node>
	<node lat="62.32415277896631" lon="11.739188882436483" id="-38865">
		<tag k="name" v="Litlbakken" />
		<tag k="place" v="farm" />
		<tag k="ssr:stedsnr" v="557540" />
	</node>
	<node lat="62.48189722504165" lon="11.103391676257871" id="-38869">
		<tag k="alt_name" v="Klettvollan" />
		<tag k="historic" v="shieling" />
		<tag k="name" v="Klettvollen" />
		<tag k="place" v="isolated_dwelling" />
		<tag k="ssr:stedsnr" v="557060" />
	</node>
	<node lat="62.473777779089104" lon="11.09998333105003" id="-38870">
		<tag k="historic" v="shieling" />
		<tag k="name" v="Sæteråsvollen" />
		<tag k="place" v="isolated_dwelling" />
		<tag k="ssr:stedsnr" v="557062" />
	</node>
	<node lat="62.4675861116072" lon="11.161916661081602" id="-38872">
		<tag k="historic" v="shieling" />
		<tag k="name" v="Gjeltvollen" />
		<tag k="place" v="isolated_dwelling" />
		<tag k="ssr:stedsnr" v="557046" />
	</node>
	<node lat="62.572408329635884" lon="10.91764166487507" id="-38873">
		<tag k="historic" v="shieling" />
		<tag k="name" v="Johaugsvollen" />
		<tag k="place" v="isolated_dwelling" />
		<tag k="ssr:stedsnr" v="557123" />
	</node>
	<node lat="62.578252775309195" lon="11.1033055523617" id="-38874">
		<tag k="historic" v="shieling" />
		<tag k="name" v="Nordvangvollen" />
		<tag k="place" v="isolated_dwelling" />
		<tag k="ssr:stedsnr" v="557127" />
	</node>
	<node lat="62.57786944591342" lon="11.113888897661948" id="-38875">
		<tag k="historic" v="shieling" />
		<tag k="name" v="Nordsetvollen" />
		<tag k="place" v="isolated_dwelling" />
		<tag k="ssr:stedsnr" v="557133" />
	</node>
	<node lat="62.576963889051136" lon="10.948758329636885" id="-38876">
		<tag k="alt_name" v="Lisbakkvollen" />
		<tag k="historic" v="shieling" />
		<tag k="name" v="Lillebakkvollen" />
		<tag k="place" v="isolated_dwelling" />
		<tag k="ssr:stedsnr" v="557144" />
	</node>
	<node lat="62.57741111358041" lon="10.958361118628389" id="-38877">
		<tag k="historic" v="shieling" />
		<tag k="name" v="Flatvollen" />
		<tag k="place" v="isolated_dwelling" />
		<tag k="ssr:stedsnr" v="557146" />
	</node>
	<node lat="62.48965752205852" lon="11.27246206018672" id="-38881">
		<tag k="fixme" v="consider place=hamlet" />
		<tag k="name" v="Vollen" />
		<tag k="place" v="farm" />
		<tag k="ssr:stedsnr" v="557293" />
	</node>
	<node lat="62.46044999631087" lon="11.339900007848051" id="-38882">
		<tag k="historic" v="shieling" />
		<tag k="name" v="Sundvollen" />
		<tag k="place" v="isolated_dwelling" />
		<tag k="ssr:stedsnr" v="557332" />
	</node>
	<node lat="62.467166663707104" lon="11.342219435006662" id="-38883">
		<tag k="historic" v="shieling" />
		<tag k="name" v="Svensvollen" />
		<tag k="place" v="isolated_dwelling" />
		<tag k="ssr:stedsnr" v="557344" />
	</node>
	<node lat="62.513899997480856" lon="11.113561114889547" id="-38885">
		<tag k="name" v="Tuvenget" />
		<tag k="place" v="farm" />
		<tag k="ssr:stedsnr" v="557733" />
	</node>
	<node lat="62.51710670145342" lon="11.019166889923843" id="-38886">
		<tag k="name" v="Gruva" />
		<tag k="place" v="locality" />
		<tag k="ssr:stedsnr" v="557737" />
	</node>
	<node lat="62.5146499962194" lon="11.056330557598907" id="-38887">
		<tag k="historic" v="shieling" />
		<tag k="name" v="Rytrøvollen" />
		<tag k="place" v="isolated_dwelling" />
		<tag k="ssr:stedsnr" v="557739" />
	</node>
	<node lat="62.55539722005285" lon="11.047580552763668" id="-38888">
		<tag k="name" v="Daleng" />
		<tag k="place" v="farm" />
		<tag k="ssr:stedsnr" v="557823" />
	</node>
	<node lat="62.50114166517444" lon="11.22647222658488" id="-38892">
		<tag k="name" v="Koren" />
		<tag k="place" v="farm" />
		<tag k="ssr:stedsnr" v="566531" />
	</node>
	<node lat="62.51628333498416" lon="11.143255548240454" id="-38894">
		<tag k="name" v="Øvre Østgårdsegga" />
		<tag k="place" v="farm" />
		<tag k="ssr:stedsnr" v="586871" />
	</node>
	<node lat="62.493147226231244" lon="11.19098612078093" id="-38895">
		<tag k="name" v="Lilleøya" />
		<tag k="old_name" v="Lilleøien" />
		<tag k="place" v="farm" />
		<tag k="ssr:stedsnr" v="586890" />
	</node>
	<node lat="62.466497220595436" lon="11.062638889308845" id="-38907">
		<tag k="historic" v="shieling" />
		<tag k="name" v="Strandvollen" />
		<tag k="place" v="isolated_dwelling" />
		<tag k="ssr:stedsnr" v="600009" />
	</node>
	<node lat="62.545727778761055" lon="11.102897230766773" id="-38912">
		<tag k="name" v="Flaten" />
		<tag k="place" v="farm" />
		<tag k="ssr:stedsnr" v="600043" />
	</node>
	<node lat="62.565322225495564" lon="10.928736120841924" id="-38913">
		<tag k="name" v="Bakkengbua" />
		<tag k="place" v="locality" />
		<tag k="ssr:stedsnr" v="600381" />
	</node>
	<node lat="62.52680277866854" lon="11.129400000867276" id="-38916">
		<tag k="fixme" v="consider place=hamlet" />
		<tag k="name" v="Nordgarden" />
		<tag k="place" v="farm" />
		<tag k="ssr:stedsnr" v="600220" />
	</node>
	<node lat="62.53737222649499" lon="11.100052769520563" id="-38918">
		<tag k="leisure" v="pitch" />
		<tag k="name" v="Åsløkka" />
		<tag k="ssr:stedsnr" v="600224" />
	</node>
	<node lat="62.38529166847853" lon="11.439052787166478" id="-38920">
		<tag k="historic" v="shieling" />
		<tag k="name" v="Gammelvollen" />
		<tag k="place" v="isolated_dwelling" />
		<tag k="ssr:stedsnr" v="600819" />
	</node>
	<node lat="62.493836115128936" lon="11.213241673572584" id="-38923">
		<tag k="name" v="Oppheim" />
		<tag k="place" v="farm" />
		<tag k="ssr:stedsnr" v="600172" />
	</node>
	<node lat="62.49861666361952" lon="11.171291665180718" id="-38924">
		<tag k="name" v="Skogstad" />
		<tag k="place" v="farm" />
		<tag k="ssr:stedsnr" v="600176" />
	</node>
	<node lat="62.59657778027164" lon="10.904952769729702" id="-38930">
		<tag k="historic" v="shieling" />
		<tag k="name" v="Utheimvollen" />
		<tag k="place" v="isolated_dwelling" />
		<tag k="ssr:stedsnr" v="600301" />
	</node>
	<node lat="62.49800555506785" lon="11.04474167117841" id="-38939">
		<tag k="name" v="Myrtrøbua" />
		<tag k="place" v="locality" />
		<tag k="ssr:stedsnr" v="600727" />
	</node>
	<node lat="62.53136388521854" lon="11.258824990171151" id="-38940">
		<tag k="historic" v="shieling" />
		<tag k="name" v="Holstadvollen" />
		<tag k="place" v="isolated_dwelling" />
		<tag k="ssr:stedsnr" v="600438" />
	</node>
	<node lat="62.47674722367515" lon="11.118650006840607" id="-38958">
		<tag k="alt_name" v="Osvollane" />
		<tag k="fixme" v="multiple name tags, choose one and add the other to alt_name" />
		<tag k="name" v="Osåsene;Osvollan" />
		<tag k="place" v="hamlet" />
		<tag k="ssr:stedsnr" v="618053" />
	</node>
	<node lat="62.49321459650521" lon="11.261662504751795" id="-38960">
		<tag k="fixme" v="consider place=hamlet" />
		<tag k="name" v="Presthagen" />
		<tag k="place" v="farm" />
		<tag k="ssr:stedsnr" v="618296" />
	</node>
	<node lat="62.56598610974117" lon="11.175730546739597" id="-38963">
		<tag k="historic" v="shieling" />
		<tag k="name" v="Bakkavollen" />
		<tag k="place" v="isolated_dwelling" />
		<tag k="ssr:stedsnr" v="618114" />
	</node>
	<node lat="62.479163886174675" lon="11.330694436354657" id="-38964">
		<tag k="historic" v="shieling" />
		<tag k="name" v="Tjønnvollen" />
		<tag k="place" v="isolated_dwelling" />
		<tag k="ssr:stedsnr" v="618350" />
	</node>
	<node lat="62.62527500283759" lon="11.115466671182277" id="-38967">
		<tag k="historic" v="shieling" />
		<tag k="name" v="Vangsgravvollen" />
		<tag k="place" v="isolated_dwelling" />
		<tag k="ssr:stedsnr" v="618160" />
	</node>
	<node lat="62.6234805584222" lon="11.113675004437303" id="-38968">
		<tag k="historic" v="shieling" />
		<tag k="name" v="Nordvangvollen" />
		<tag k="place" v="isolated_dwelling" />
		<tag k="ssr:stedsnr" v="618161" />
	</node>
	<node lat="62.34869166669448" lon="11.479513893371411" id="-38970">
		<tag k="alt_name" v="Nyvoll" />
		<tag k="name" v="Nyvollen" />
		<tag k="place" v="farm" />
		<tag k="ssr:stedsnr" v="618439" />
	</node>
	<node lat="62.51210833527468" lon="11.22765278717823" id="-38971">
		<tag k="name" v="Slettvang" />
		<tag k="place" v="farm" />
		<tag k="ssr:stedsnr" v="618509" />
	</node>
	<node lat="62.52464999736895" lon="11.257063885088991" id="-38972">
		<tag k="alt_name" v="Øybakkvollen" />
		<tag k="historic" v="shieling" />
		<tag k="name" v="Øyvollen" />
		<tag k="place" v="isolated_dwelling" />
		<tag k="ssr:stedsnr" v="618511" />
	</node>
	<node lat="62.33811111229664" lon="11.74368889440748" id="-38975">
		<tag k="alt_name" v="Haugsvollen" />
		<tag k="historic" v="shieling" />
		<tag k="name" v="Lerbekkvollen" />
		<tag k="place" v="isolated_dwelling" />
		<tag k="ssr:stedsnr" v="618561" />
	</node>
	<node lat="62.56289444442642" lon="11.10488610480484" id="-38979">
		<tag k="name" v="Skogheim" />
		<tag k="place" v="farm" />
		<tag k="ssr:stedsnr" v="618792" />
	</node>
	<node lat="62.516091669104156" lon="11.169613897099435" id="-38981">
		<tag k="name" v="Åstrøa" />
		<tag k="place" v="farm" />
		<tag k="ssr:stedsnr" v="618740" />
	</node>
	<node lat="62.52314444567177" lon="11.29732222879852" id="-38983">
		<tag k="name" v="Havsjøen" />
		<tag k="place" v="farm" />
		<tag k="ssr:stedsnr" v="649316" />
	</node>
	<node lat="62.31115277376564" lon="11.72176388367334" id="-38989">
		<tag k="name" v="Nordre Bakken" />
		<tag k="place" v="farm" />
		<tag k="ssr:stedsnr" v="660241" />
	</node>
	<node lat="62.27738611351912" lon="11.73784443959617" id="-38993">
		<tag k="name" v="Nordre Midtdal" />
		<tag k="place" v="farm" />
		<tag k="ssr:stedsnr" v="660225" />
	</node>
	<node lat="62.36703889127114" lon="11.494947223812847" id="-39000">
		<tag k="historic" v="shieling" />
		<tag k="name" v="Narvollan" />
		<tag k="place" v="isolated_dwelling" />
		<tag k="ssr:stedsnr" v="661966" />
	</node>
	<node lat="62.49928055131284" lon="11.252816675107093" id="-39023">
		<tag k="name" v="Søndre Høisen" />
		<tag k="place" v="farm" />
		<tag k="ssr:stedsnr" v="661543" />
	</node>
	<node lat="62.438780559257154" lon="11.142277769286842" id="-39026">
		<tag k="historic" v="shieling" />
		<tag k="name" v="Gammelvollen" />
		<tag k="place" v="isolated_dwelling" />
		<tag k="ssr:stedsnr" v="661655" />
	</node>
	<node lat="62.52387777613597" lon="11.057761112614234" id="-39030">
		<tag k="name" v="Bortistu" />
		<tag k="place" v="farm" />
		<tag k="ssr:stedsnr" v="661672" />
	</node>
	<node lat="62.48210277636602" lon="11.04292222656724" id="-39033">
		<tag k="historic" v="shieling" />
		<tag k="name" v="Midtgardsvollen" />
		<tag k="place" v="isolated_dwelling" />
		<tag k="ssr:stedsnr" v="661716" />
	</node>
	<node lat="62.42928889014216" lon="11.442041671236918" id="-39038">
		<tag k="name" v="Granenget" />
		<tag k="place" v="locality" />
		<tag k="ssr:stedsnr" v="661819" />
	</node>
	<node lat="62.574999996624335" lon="11.18199722064569" id="-39049">
		<tag k="name" v="Nøsteran" />
		<tag k="place" v="locality" />
		<tag k="ssr:stedsnr" v="722092" />
	</node>
	<node lat="62.539552777825435" lon="11.103694453977548" id="-39058">
		<tag k="alt_name" v="Åsen ytre" />
		<tag k="name" v="Ytre Åsen" />
		<tag k="place" v="farm" />
		<tag k="ssr:stedsnr" v="722232" />
	</node>
	<node lat="62.47741388662004" lon="11.115250009050879" id="-39068">
		<tag k="historic" v="shieling" />
		<tag k="name" v="Nysenvollen" />
		<tag k="place" v="isolated_dwelling" />
		<tag k="ssr:stedsnr" v="722363" />
	</node>
	<node lat="62.51640984908833" lon="11.137260885273257" id="-39069">
		<tag k="name" v="Haugsegga" />
		<tag k="place" v="farm" />
		<tag k="ssr:stedsnr" v="722213" />
	</node>
	<node lat="62.49668333379806" lon="11.237383335832172" id="-39074">
		<tag k="amenity" v="school" />
		<tag k="name" v="Os skole" />
		<tag k="ssr:stedsnr" v="722599" />
	</node>
	<node lat="62.45282777986036" lon="11.140402781144347" id="-39076">
		<tag k="historic" v="shieling" />
		<tag k="name" v="Høstvollen" />
		<tag k="place" v="isolated_dwelling" />
		<tag k="ssr:stedsnr" v="722715" />
	</node>
	<node lat="62.5286249958596" lon="10.987194449525058" id="-39078">
		<tag k="historic" v="shieling" />
		<tag k="name" v="Engevollen" />
		<tag k="place" v="isolated_dwelling" />
		<tag k="ssr:stedsnr" v="722655" />
	</node>
	<node lat="62.45649721915615" lon="11.370558337266992" id="-39085">
		<tag k="name" v="Litlenarjordet" />
		<tag k="place" v="locality" />
		<tag k="ssr:stedsnr" v="722743" />
	</node>
	<node lat="62.51568610673894" lon="11.22328889402665" id="-39089">
		<tag k="name" v="Søndre Østvang" />
		<tag k="place" v="farm" />
		<tag k="ssr:stedsnr" v="722760" />
	</node>
	<node lat="62.59837222037917" lon="10.917538889272054" id="-39092">
		<tag k="historic" v="shieling" />
		<tag k="name" v="Nygjeltvollen" />
		<tag k="place" v="isolated_dwelling" />
		<tag k="ssr:stedsnr" v="724300" />
	</node>
	<node lat="62.4851611124437" lon="11.172894442172655" id="-39093">
		<tag k="name" v="Skogstad" />
		<tag k="place" v="farm" />
		<tag k="ssr:stedsnr" v="739041" />
	</node>
	<node lat="62.49104444879567" lon="11.176455561444872" id="-39094">
		<tag k="name" v="Osenget" />
		<tag k="place" v="farm" />
		<tag k="ssr:stedsnr" v="739042" />
	</node>
	<node lat="62.582569445747254" lon="11.176263879945862" id="-39096">
		<tag k="historic" v="shieling" />
		<tag k="name" v="Åkervollen" />
		<tag k="place" v="isolated_dwelling" />
		<tag k="ssr:stedsnr" v="739138" />
	</node>
	<node lat="62.45750000095598" lon="11.339377782093221" id="-39099">
		<tag k="historic" v="shieling" />
		<tag k="name" v="Bekkvollan" />
		<tag k="place" v="isolated_dwelling" />
		<tag k="ssr:stedsnr" v="739338" />
	</node>
	<node lat="62.630845177434296" lon="11.125976156180212" id="-39101">
		<tag k="name" v="Vangsgjeltvollen" />
		<tag k="place" v="locality" />
		<tag k="ssr:stedsnr" v="739191" />
	</node>
	<node lat="62.43618888673251" lon="11.413508340574971" id="-39102">
		<tag k="fixme" v="consider place=hamlet" />
		<tag k="name" v="Narjordet" />
		<tag k="place" v="village" />
		<tag k="ssr:stedsnr" v="739385" />
	</node>
	<node lat="62.51823333409802" lon="11.120016669053845" id="-39107">
		<tag k="name" v="Rytrøa" />
		<tag k="place" v="farm" />
		<tag k="ssr:stedsnr" v="739761" />
	</node>
	<node lat="62.506806898238125" lon="11.147571424034597" id="-39109">
		<tag k="alt_name" v="Moseng" />
		<tag k="fixme" v="consider place=hamlet" />
		<tag k="name" v="Mosengen" />
		<tag k="place" v="farm" />
		<tag k="ssr:stedsnr" v="739777" />
	</node>
	<node lat="62.50713611500437" lon="11.11666945388863" id="-39110">
		<tag k="historic" v="shieling" />
		<tag k="name" v="Målarvollen" />
		<tag k="place" v="isolated_dwelling" />
		<tag k="ssr:stedsnr" v="739780" />
	</node>
	<node lat="62.538127776787924" lon="11.11921665741368" id="-39111">
		<tag k="alt_name" v="Høgeli" />
		<tag k="name" v="Høgli" />
		<tag k="place" v="farm" />
		<tag k="ssr:stedsnr" v="739850" />
	</node>
	<node lat="62.53697222026741" lon="11.109163882209774" id="-39112">
		<tag k="name" v="Nygarden" />
		<tag k="place" v="farm" />
		<tag k="ssr:stedsnr" v="739852" />
	</node>
	<node lat="62.523086110530336" lon="11.062955554918714" id="-39113">
		<tag k="name" v="Egga" />
		<tag k="place" v="farm" />
		<tag k="ssr:stedsnr" v="739858" />
	</node>
	<node lat="62.46131944349592" lon="11.148411112301128" id="-39114">
		<tag k="alt_name" v="Ytre Sundvollen" />
		<tag k="historic" v="shieling" />
		<tag k="name" v="Sundvollen" />
		<tag k="place" v="isolated_dwelling" />
		<tag k="ssr:stedsnr" v="740057" />
	</node>
	<node lat="62.49191388860265" lon="11.238699990704367" id="-39120">
		<tag k="alt_name" v="Verjåa" />
		<tag k="name" v="Verjåjordet" />
		<tag k="place" v="farm" />
		<tag k="ssr:stedsnr" v="740315" />
	</node>
	<node lat="62.502453649556855" lon="11.265743399401975" id="-39124">
		<tag k="fixme" v="multiple name tags, choose one and add the other to alt_name" />
		<tag k="name" v="Furuheim;Sæteregga" />
		<tag k="place" v="farm" />
		<tag k="ssr:stedsnr" v="740475" />
	</node>
	<node lat="62.51094999641109" lon="11.263622229536319" id="-39125">
		<tag k="name" v="Vestli" />
		<tag k="place" v="farm" />
		<tag k="ssr:stedsnr" v="740487" />
	</node>
	<node lat="62.558741663094835" lon="11.200499995528384" id="-39126">
		<tag k="historic" v="shieling" />
		<tag k="name" v="Ustuvollen" />
		<tag k="place" v="isolated_dwelling" />
		<tag k="ssr:stedsnr" v="740811" />
	</node>
	<node lat="62.277302774048614" lon="11.731833327706845" id="-39133">
		<tag k="name" v="Midtdal fellesfjøs" />
		<tag k="place" v="locality" />
		<tag k="ssr:stedsnr" v="781230" />
	</node>
	<node lat="62.54962777858871" lon="10.917355560149304" id="-39139">
		<tag k="name" v="Skarvstua" />
		<tag k="place" v="isolated_dwelling" />
		<tag k="ssr:stedsnr" v="782377" />
	</node>
	<node lat="62.57450555606026" lon="10.917869446344612" id="-39147">
		<tag k="historic" v="shieling" />
		<tag k="name" v="Øvre Åsvollen" />
		<tag k="place" v="isolated_dwelling" />
		<tag k="ssr:stedsnr" v="783302" />
	</node>
	<node lat="62.52466388747125" lon="11.133174993324795" id="-39157">
		<tag k="loc_name" v="Hanshaugen" />
		<tag k="name" v="Haugen" />
		<tag k="place" v="farm" />
		<tag k="ssr:stedsnr" v="783184" />
	</node>
	<node lat="62.40483055303523" lon="11.443405558313172" id="-39159">
		<tag k="name" v="Skinnarenget" />
		<tag k="place" v="isolated_dwelling" />
		<tag k="ssr:stedsnr" v="783839" />
	</node>
	<node lat="62.576799997766074" lon="10.913038885251776" id="-39168">
		<tag k="historic" v="shieling" />
		<tag k="name" v="Smedåsgjeltvollen" />
		<tag k="place" v="isolated_dwelling" />
		<tag k="ssr:stedsnr" v="783287" />
	</node>
	<node lat="62.46577778171636" lon="11.133469447174335" id="-39170">
		<tag k="historic" v="shieling" />
		<tag k="name" v="Lensmannsvollen" />
		<tag k="place" v="isolated_dwelling" />
		<tag k="ssr:stedsnr" v="783290" />
	</node>
	<node lat="62.577697224821414" lon="10.944444440662739" id="-39173">
		<tag k="historic" v="shieling" />
		<tag k="name" v="Bergevollen" />
		<tag k="place" v="isolated_dwelling" />
		<tag k="ssr:stedsnr" v="783295" />
	</node>
	<node lat="62.501418263650706" lon="11.23380607771422" id="-39176">
		<tag k="fixme" v="consider place=hamlet" />
		<tag k="name" v="Sundet" />
		<tag k="place" v="farm" />
		<tag k="ssr:stedsnr" v="783566" />
	</node>
	<node lat="62.49512665094829" lon="11.255857851976032" id="-39178">
		<tag k="fixme" v="consider place=hamlet" />
		<tag k="name" v="Skinnerhagen" />
		<tag k="place" v="farm" />
		<tag k="ssr:stedsnr" v="783578" />
	</node>
	<node lat="62.50591666593519" lon="11.085972218245166" id="-39181">
		<tag k="historic" v="shieling" />
		<tag k="name" v="Rønningsvollen" />
		<tag k="place" v="isolated_dwelling" />
		<tag k="ssr:stedsnr" v="783716" />
	</node>
	<node lat="62.43956944463401" lon="11.410625003795559" id="-39184">
		<tag k="name" v="Sønnvisgården" />
		<tag k="place" v="farm" />
		<tag k="ssr:stedsnr" v="783732" />
	</node>
	<node lat="62.490800004371025" lon="11.07475000895049" id="-39188">
		<tag k="historic" v="shieling" />
		<tag k="name" v="Grubbvollen" />
		<tag k="place" v="isolated_dwelling" />
		<tag k="ssr:stedsnr" v="783689" />
	</node>
	<node lat="62.56165278143825" lon="11.235899993878684" id="-39189">
		<tag k="historic" v="shieling" />
		<tag k="name" v="Osvollen" />
		<tag k="place" v="isolated_dwelling" />
		<tag k="ssr:stedsnr" v="783932" />
	</node>
	<node lat="62.355105551566915" lon="11.464961104323429" id="-39190">
		<tag k="name" v="Mattisgarden" />
		<tag k="place" v="isolated_dwelling" />
		<tag k="ssr:stedsnr" v="783942" />
	</node>
	<node lat="62.60022222394746" lon="11.167805561177843" id="-39192">
		<tag k="name" v="Haugsgjeltbua" />
		<tag k="place" v="locality" />
		<tag k="ssr:stedsnr" v="783984" />
	</node>
	<node lat="62.24592221954574" lon="11.753930554028635" id="-39193">
		<tag k="alt_name" v="Norset" />
		<tag k="name" v="Nordset" />
		<tag k="place" v="farm" />
		<tag k="ssr:stedsnr" v="799442" />
	</node>
	<node lat="62.482116665462506" lon="11.176899999918522" id="-39194">
		<tag k="name" v="Stormyra" />
		<tag k="place" v="farm" />
		<tag k="ssr:stedsnr" v="800044" />
	</node>
	<node lat="62.4870083373848" lon="11.073841668398666" id="-39196">
		<tag k="alt_name" v="Ødevollen" />
		<tag k="fixme" v="multiple name tags, choose one and add the other to alt_name" />
		<tag k="historic" v="shieling" />
		<tag k="name" v="Engevollen;Ødvollen" />
		<tag k="place" v="isolated_dwelling" />
		<tag k="ssr:stedsnr" v="800047" />
	</node>
	<node lat="62.356902781949564" lon="11.494902772424348" id="-39197">
		<tag k="name" v="Grønli" />
		<tag k="place" v="farm" />
		<tag k="ssr:stedsnr" v="800409" />
	</node>
	<node lat="62.493919448486714" lon="11.082377774404302" id="-39198">
		<tag k="alt_name" v="Nygjeltvollen" />
		<tag k="historic" v="shieling" />
		<tag k="name" v="Nygardsvoll" />
		<tag k="place" v="isolated_dwelling" />
		<tag k="ssr:stedsnr" v="800025" />
	</node>
	<node lat="62.568427777004814" lon="10.96821943678232" id="-39200">
		<tag k="historic" v="shieling" />
		<tag k="name" v="Overhaugsvollen" />
		<tag k="place" v="isolated_dwelling" />
		<tag k="ssr:stedsnr" v="800124" />
	</node>
	<node lat="62.57326667036131" lon="11.014283340551497" id="-39201">
		<tag k="historic" v="shieling" />
		<tag k="name" v="Ytteraustuvollen" />
		<tag k="place" v="isolated_dwelling" />
		<tag k="ssr:stedsnr" v="800127" />
	</node>
	<node lat="62.606230557710084" lon="11.141477786581689" id="-39207">
		<tag k="alt_name" v="Østengvollen" />
		<tag k="historic" v="shieling" />
		<tag k="name" v="Austengvollen" />
		<tag k="place" v="isolated_dwelling" />
		<tag k="ssr:stedsnr" v="800180" />
	</node>
	<node lat="62.6112111079151" lon="10.864052770449735" id="-39208">
		<tag k="historic" v="shieling" />
		<tag k="name" v="Snuddvollen" />
		<tag k="place" v="isolated_dwelling" />
		<tag k="ssr:stedsnr" v="800189" />
	</node>
	<node lat="62.472633331599276" lon="11.352083332280086" id="-39210">
		<tag k="historic" v="shieling" />
		<tag k="name" v="Ingulfsvollen" />
		<tag k="place" v="isolated_dwelling" />
		<tag k="ssr:stedsnr" v="800350" />
	</node>
	<node lat="62.555486115040296" lon="11.079947232027015" id="-39211">
		<tag k="alt_name" v="Ryen" />
		<tag k="name" v="Rya" />
		<tag k="place" v="farm" />
		<tag k="ssr:stedsnr" v="800352" />
	</node>
	<node lat="62.63340555463454" lon="10.916586105041237" id="-39214">
		<tag k="historic" v="shieling" />
		<tag k="name" v="Falksætran" />
		<tag k="place" v="isolated_dwelling" />
		<tag k="ssr:stedsnr" v="801191" />
	</node>
	<node lat="62.54970555183012" lon="11.106969446938608" id="-39217">
		<tag k="fixme" v="multiple name tags, choose one and add the other to alt_name" />
		<tag k="name" v="Vang;Nygjelta" />
		<tag k="place" v="farm" />
		<tag k="ssr:stedsnr" v="800823" />
	</node>
	<node lat="62.51988889223434" lon="11.127155564604395" id="-39218">
		<tag k="alt_name" v="Lilletrøa" />
		<tag k="name" v="Litltrøa" />
		<tag k="place" v="farm" />
		<tag k="ssr:stedsnr" v="800723" />
	</node>
	<node lat="62.53307222151734" lon="11.10085277035532" id="-39219">
		<tag k="name" v="Eggtrøan" />
		<tag k="place" v="farm" />
		<tag k="ssr:stedsnr" v="800840" />
	</node>
	<node lat="62.53587310559694" lon="11.11750615394425" id="-39220">
		<tag k="fixme" v="consider place=hamlet" />
		<tag k="name" v="Breen" />
		<tag k="place" v="farm" />
		<tag k="ssr:stedsnr" v="800842" />
	</node>
	<node lat="62.531269441968384" lon="11.107549991178459" id="-39221">
		<tag k="name" v="Eggbakken" />
		<tag k="place" v="farm" />
		<tag k="ssr:stedsnr" v="800843" />
	</node>
	<node lat="62.528794445456064" lon="10.98700832438248" id="-39222">
		<tag k="alt_name" v="Nordervollen" />
		<tag k="name" v="Nørdervollan" />
		<tag k="place" v="hamlet" />
		<tag k="ssr:stedsnr" v="800854" />
	</node>
	<node lat="62.32936389339592" lon="11.647672217533298" id="-39227">
		<tag k="historic" v="shieling" />
		<tag k="name" v="Mikkjelsvollen" />
		<tag k="place" v="isolated_dwelling" />
		<tag k="ssr:stedsnr" v="809468" />
	</node>
	<node lat="62.46483055960209" lon="11.129791669948176" id="-39230">
		<tag k="name" v="Anvisåsvollan" />
		<tag k="old_name" v="Anvissætrane" />
		<tag k="place" v="hamlet" />
		<tag k="ssr:stedsnr" v="817054" />
	</node>
	<node lat="62.16591535469082" lon="11.829259342945045" id="-39232">
		<tag k="name" v="Kløvstenbua" />
		<tag k="place" v="locality" />
		<tag k="ssr:stedsnr" v="843213" />
	</node>
	<node lat="62.5273111145234" lon="10.984677783017725" id="-39250">
		<tag k="historic" v="shieling" />
		<tag k="name" v="Nyåsvollen" />
		<tag k="place" v="isolated_dwelling" />
		<tag k="ssr:stedsnr" v="843663" />
	</node>
	<node lat="62.53718333180441" lon="11.014858332105877" id="-39251">
		<tag k="historic" v="shieling" />
		<tag k="name" v="Bergvollen" />
		<tag k="place" v="isolated_dwelling" />
		<tag k="ssr:stedsnr" v="843670" />
	</node>
	<node lat="62.48350278109695" lon="11.119616658285414" id="-39259">
		<tag k="historic" v="shieling" />
		<tag k="name" v="Nystedvollen" />
		<tag k="place" v="isolated_dwelling" />
		<tag k="ssr:stedsnr" v="844145" />
	</node>
	<node lat="62.49830277647741" lon="11.108327782799778" id="-39261">
		<tag k="historic" v="shieling" />
		<tag k="name" v="Ustuvollen" />
		<tag k="place" v="isolated_dwelling" />
		<tag k="ssr:stedsnr" v="844163" />
	</node>
	<node lat="62.49340555244267" lon="11.101241660928713" id="-39262">
		<tag k="name" v="Kvennbekkvollen" />
		<tag k="place" v="isolated_dwelling" />
		<tag k="ssr:stedsnr" v="844164" />
	</node>
	<node lat="62.32527515610992" lon="11.641706263610297" id="-39270">
		<tag k="name" v="Mikkelsnøstret" />
		<tag k="place" v="locality" />
		<tag k="ssr:stedsnr" v="844294" />
	</node>
	<node lat="62.47639166749171" lon="11.340569441384108" id="-39284">
		<tag k="historic" v="shieling" />
		<tag k="name" v="Husvollen" />
		<tag k="place" v="isolated_dwelling" />
		<tag k="ssr:stedsnr" v="844749" />
	</node>
	<node lat="62.508416668285236" lon="11.262255561028015" id="-39285">
		<tag k="name" v="Lilleeidet" />
		<tag k="place" v="farm" />
		<tag k="ssr:stedsnr" v="844750" />
	</node>
	<node lat="62.46472499943357" lon="11.163475006976467" id="-39288">
		<tag k="historic" v="shieling" />
		<tag k="name" v="Sundvollen" />
		<tag k="place" v="isolated_dwelling" />
		<tag k="ssr:stedsnr" v="844955" />
	</node>
	<node lat="62.359797225851175" lon="11.48216943741658" id="-39289">
		<tag k="name" v="Litjsandberget" />
		<tag k="place" v="isolated_dwelling" />
		<tag k="ssr:stedsnr" v="844958" />
	</node>
	<node lat="62.58934722235218" lon="11.07765000040666" id="-39291">
		<tag k="historic" v="shieling" />
		<tag k="name" v="Lillebakkvollen" />
		<tag k="place" v="isolated_dwelling" />
		<tag k="ssr:stedsnr" v="846380" />
	</node>
	<node lat="62.57148888856239" lon="10.920261102875772" id="-39292">
		<tag k="historic" v="shieling" />
		<tag k="name" v="Åkerbakkvollen" />
		<tag k="place" v="isolated_dwelling" />
		<tag k="ssr:stedsnr" v="859292" />
	</node>
	<node lat="62.2237250005221" lon="11.790463882930391" id="-39294">
		<tag k="name" v="Dalheim" />
		<tag k="place" v="farm" />
		<tag k="ssr:stedsnr" v="860384" />
	</node>
	<node lat="62.23493333447495" lon="11.776874990986144" id="-39295">
		<tag k="name" v="Summundsvollen" />
		<tag k="place" v="farm" />
		<tag k="ssr:stedsnr" v="860390" />
	</node>
	<node lat="62.48528055481617" lon="11.105844437528335" id="-39300">
		<tag k="alt_name" v="Ustavollen" />
		<tag k="historic" v="shieling" />
		<tag k="name" v="Utstuvollen" />
		<tag k="place" v="isolated_dwelling" />
		<tag k="ssr:stedsnr" v="861034" />
	</node>
	<node lat="62.49063160521099" lon="11.1869337205481" id="-39301">
		<tag k="alt_name" v="Lauvnes;Løvnes" />
		<tag k="fixme" v="consider place=hamlet" />
		<tag k="name" v="Lauvneset" />
		<tag k="place" v="farm" />
		<tag k="ssr:stedsnr" v="861035" />
	</node>
	<node lat="62.57168889240938" lon="10.967855553879966" id="-39302">
		<tag k="historic" v="shieling" />
		<tag k="name" v="Vangsvollen" />
		<tag k="place" v="isolated_dwelling" />
		<tag k="ssr:stedsnr" v="861124" />
	</node>
	<node lat="62.57068333544047" lon="11.006616675497249" id="-39303">
		<tag k="historic" v="shieling" />
		<tag k="name" v="Øverhaugsvollen" />
		<tag k="place" v="isolated_dwelling" />
		<tag k="ssr:stedsnr" v="861126" />
	</node>
	<node lat="62.577450000635096" lon="10.969750005891926" id="-39304">
		<tag k="fixme" v="multiple name tags, choose one and add the other to alt_name" />
		<tag k="historic" v="shieling" />
		<tag k="name" v="Ustumovollen;Engebakkvollen" />
		<tag k="place" v="isolated_dwelling" />
		<tag k="ssr:stedsnr" v="861137" />
	</node>
	<node lat="62.58951111191754" lon="11.172058327169664" id="-39305">
		<tag k="historic" v="shieling" />
		<tag k="name" v="Engevollen" />
		<tag k="place" v="isolated_dwelling" />
		<tag k="ssr:stedsnr" v="861150" />
	</node>
	<node lat="62.44276944712764" lon="11.407891669076998" id="-39306">
		<tag k="name" v="Ryen" />
		<tag k="place" v="farm" />
		<tag k="ssr:stedsnr" v="861361" />
	</node>
	<node lat="62.361052496478834" lon="11.496577053754347" id="-39307">
		<tag k="fixme" v="multiple name tags, choose one and add the other to alt_name" />
		<tag k="historic" v="shieling" />
		<tag k="name" v="Vollsvollen;Engåvollsætra" />
		<tag k="place" v="isolated_dwelling" />
		<tag k="ssr:stedsnr" v="861377" />
	</node>
	<node lat="62.36589166305487" lon="11.496075004341062" id="-39308">
		<tag k="historic" v="shieling" />
		<tag k="name" v="Smedvollen" />
		<tag k="place" v="isolated_dwelling" />
		<tag k="ssr:stedsnr" v="861378" />
	</node>
	<node lat="62.50272497438613" lon="11.257252615642045" id="-39309">
		<tag k="fixme" v="consider place=hamlet" />
		<tag k="name" v="Røste" />
		<tag k="place" v="farm" />
		<tag k="ssr:stedsnr" v="861481" />
	</node>
	<node lat="62.507413885202496" lon="11.23270277832254" id="-39310">
		<tag k="name" v="Sjåheim" />
		<tag k="place" v="farm" />
		<tag k="ssr:stedsnr" v="861492" />
	</node>
	<node lat="62.50678333218896" lon="11.230786108744079" id="-39311">
		<tag k="name" v="Vangskåsa" />
		<tag k="place" v="farm" />
		<tag k="ssr:stedsnr" v="861496" />
	</node>
	<node lat="62.40614722070825" lon="11.441849999568376" id="-39313">
		<tag k="historic" v="shieling" />
		<tag k="name" v="Oddvollen" />
		<tag k="place" v="isolated_dwelling" />
		<tag k="ssr:stedsnr" v="861348" />
	</node>
	<node lat="62.508458332859995" lon="11.171208336777264" id="-39318">
		<tag k="name" v="Oslia" />
		<tag k="place" v="farm" />
		<tag k="ssr:stedsnr" v="861761" />
	</node>
	<node lat="62.5047694417594" lon="11.018458327343016" id="-39319">
		<tag k="name" v="Haugli" />
		<tag k="place" v="farm" />
		<tag k="ssr:stedsnr" v="861768" />
	</node>
	<node lat="62.525936108528505" lon="11.150652770540846" id="-39321">
		<tag k="name" v="Røst" />
		<tag k="place" v="farm" />
		<tag k="ssr:stedsnr" v="861733" />
	</node>
	<node lat="62.520280558004394" lon="11.12278611852313" id="-39322">
		<tag k="name" v="Stene" />
		<tag k="place" v="farm" />
		<tag k="ssr:stedsnr" v="861735" />
	</node>
	<node lat="62.550650000919156" lon="10.909336120466604" id="-39323">
		<tag k="fixme" v="multiple name tags, choose one and add the other to alt_name" />
		<tag k="historic" v="shieling" />
		<tag k="name" v="Bergvollen;Storstuvollen" />
		<tag k="place" v="isolated_dwelling" />
		<tag k="ssr:stedsnr" v="861837" />
	</node>
	<node lat="62.52898610975392" lon="11.097127777303069" id="-39324">
		<tag k="name" v="Moen" />
		<tag k="place" v="farm" />
		<tag k="ssr:stedsnr" v="861865" />
	</node>
	<node lat="62.48314166247151" lon="11.235166671084126" id="-39325">
		<tag k="name" v="Hummelfjell Friluftspark" />
		<tag k="ssr:stedsnr" v="870568" />
		<tag k="tourism" v="camp_site" />
	</node>
	<node lat="62.60304167046866" lon="11.10337778461502" id="-39328">
		<tag k="historic" v="shieling" />
		<tag k="name" v="Engebakkvollen" />
		<tag k="place" v="isolated_dwelling" />
		<tag k="ssr:stedsnr" v="945658" />
	</node>
	<node lat="62.6042277801623" lon="11.103180547298457" id="-39329">
		<tag k="historic" v="shieling" />
		<tag k="name" v="Simensgjeltvollen" />
		<tag k="place" v="isolated_dwelling" />
		<tag k="ssr:stedsnr" v="945660" />
	</node>
	<node lat="62.492872219173535" lon="11.189199992241095" id="-39333">
		<tag k="name" v="Lilleøya" />
		<tag k="old_name" v="Lilleøien" />
		<tag k="place" v="farm" />
		<tag k="ssr:stedsnr" v="964188" />
	</node>
	<node lat="62.60375833101866" lon="11.117213892919706" id="-39343">
		<tag k="name" v="Yter-Oustuvollen" />
		<tag k="place" v="locality" />
		<tag k="ssr:stedsnr" v="964899" />
	</node>
	<node lat="62.46658055884064" lon="11.065527771230357" id="-39346">
		<tag k="historic" v="shieling" />
		<tag k="name" v="Ivarsvollen" />
		<tag k="place" v="isolated_dwelling" />
		<tag k="ssr:stedsnr" v="965013" />
	</node>
	<node lat="62.46457777827093" lon="11.0727333365891" id="-39347">
		<tag k="historic" v="shieling" />
		<tag k="name" v="Sannengsvollen" />
		<tag k="place" v="isolated_dwelling" />
		<tag k="ssr:stedsnr" v="965016" />
	</node>
	<node lat="62.306613884660706" lon="11.68334166497373" id="-39354">
		<tag k="name" v="Kvennhusbakken" />
		<tag k="place" v="isolated_dwelling" />
		<tag k="ssr:stedsnr" v="965149" />
	</node>
	<node lat="62.518063886060546" lon="11.194419448088798" id="-39356">
		<tag k="name" v="Gåstjønnåshytta" />
		<tag k="place" v="isolated_dwelling" />
		<tag k="ssr:stedsnr" v="965168" />
	</node>
	<node lat="62.56959721845622" lon="11.037311109818914" id="-39363">
		<tag k="historic" v="shieling" />
		<tag k="name" v="Simensgjeltvollen" />
		<tag k="place" v="isolated_dwelling" />
		<tag k="ssr:stedsnr" v="965381" />
	</node>
	<node lat="62.46674999659208" lon="11.401113890062827" id="-39364">
		<tag k="name" v="Hånesbuan" />
		<tag k="place" v="isolated_dwelling" />
		<tag k="ssr:stedsnr" v="965744" />
	</node>
	<node lat="62.434449997909" lon="11.407972222312155" id="-39372">
		<tag k="name" v="Sjursgarden" />
		<tag k="place" v="farm" />
		<tag k="ssr:stedsnr" v="965809" />
	</node>
	<node lat="62.307329612737234" lon="11.733606746977854" id="-39419">
		<tag k="name" v="Søndre Bruplassen" />
		<tag k="place" v="farm" />
		<tag k="ssr:stedsnr" v="990979" />
	</node>
	<node lat="62.515014598458976" lon="11.285007281522317" id="-39450">
		<tag k="name" v="Myre nedre" />
		<tag k="place" v="farm" />
		<tag k="ssr:stedsnr" v="1077036" />
	</node>
	<node lat="62.49128931182826" lon="11.265996414764357" id="-39451">
		<tag k="fixme" v="consider place=hamlet" />
		<tag k="name" v="Fåset" />
		<tag k="place" v="farm" />
		<tag k="ssr:stedsnr" v="1077038" />
	</node>
	<node lat="62.490573269365875" lon="11.168463127738265" id="-39452">
		<tag k="fixme" v="consider place=hamlet" />
		<tag k="name" v="Ås" />
		<tag k="place" v="farm" />
		<tag k="ssr:stedsnr" v="1077044" />
	</node>
	<node lat="62.27752545024772" lon="11.743620006302885" id="-39453">
		<tag k="fixme" v="consider place=hamlet" />
		<tag k="name" v="Tufsingdalen" />
		<tag k="place" v="farm" />
		<tag k="ssr:stedsnr" v="1077001" />
	</node>
</osm>
